BBXX ZMFR 11054 99493 31680 43/// /06// 10108 20101 40138 57022 22211 00102
BBXX ZMENA 11054 99423 31739 46/// ///// 10154 20123 40155 222//
AAXX 11064 40270 31950 00000 10038 21009 39363 40290 52016 70500 333 20020 35105
BBXX ICGU 11064 99153 70616 41597 69902 10270 20213 40100 54/// 70311 869// 22274 04260 21001 30911 41202 51402 6//// 85230 ICE /////
BBXX WCX2417 11064 99472 70901 41/96 52224 11022 2//// 40173 57/// 70222 8//// 22253 0//// 2//03 3//// 4//// 5//// 6//// 8//// ICE /////
AAXX 11064 40255 32960 01204 10064 20004 39540 40276 52005 333 20040 30000
BBXX NWS0021 11064 99311 70637 43/// /1008 10228 20213 40199 5//// 7//// 8//// 222// 04228 2//// 3//// 4//// 5//// 6//// 8//// ICE /////
AAXX 11064 89578 46/// /0507 11356 36782 4//// 5////
BBXX 42362 11061 99278 70907 46/// /0411 10161 20072 40275 90545
BBXX 42363 11061 99282 70892 46/// /0514 10156 20072 40264 90545 333 91215
BBXX 42364 11061 99291 70881 46/// /0311 10144 20061 40264 90545
BBXX 46114 11061 99364 71222 46/// ///// 1//// 90534 22200 00111 11504 21002 329// 41504 70022
BBXX 46248 11061 99461 71247 46/// ///// 1//// 90534 22200 00088 11504 21002 328// 41504 70020
BBXX 41114 11061 99276 70802 46/// ///// 1//// 90546 22200 00242 10603 20603 307// 41101 70013
BBXX 52200 11061 99134 11448 46/// ///// 1//// 90545 22200 00288 10805 20805 308// 41101 70025
BBXX 46217 11061 99342 71194 46/// ///// 1//// 90542 22200 00146 11702 20602 326// 41701 70012
BBXX 44172 11061 99445 70634 46/// ///// 1//// 90531 22200 00075 10901 20901 70007
BBXX 44097 11061 99410 70711 46/// ///// 1//// 90532 22200 00129 10502 20502 70011
AAXX 11064 91334 32474 80412 10297 20242 30068 40071 55007 8210I 333 561/9 70003 555 91106
AAXX 11064 91334 32474 80412 10297 20242 30068 40071 55007 8210I 333 561/9 70003 555 91106
BBXX BAREU61 11064 99320 70108 46/// /0211 10175 29075 40225 52002 22253
BBXX DBPG 11061 99536 10080 41798 72108 10020 40110 54000 76266 863// 22200
AAXX 11064 40340 32960 03613 10106 20035 40245 52010 333 20095 30008
AAXX 11064 08495 11570 72510 10138 20116 30181 40189 55002 60032 72582 8583/ 90550 333 20136 32011 70034 81822 83636 85642
AAXX 11064 68994 32598 82407 10104 20052 30278 40307 53003 885// 222// 00066 333 20038 91010 555 10112 91030
BBXX 44060 11061 99413 70721 46/// ///08 10002 40320 90545 22200 00098 333 91210 555 11082 22088
BBXX 44022 11061 99409 70737 46/// ///04 10010 21096 40333 90545 22200 00096 333 91206 555 11046 22046
BBXX 46060 11061 99606 71468 46/// /1213 10030 40156 56020 90550 22200 00062 333 91215 555 11133 22141
BBXX 46088 11061 99483 71232 46/// /0204 10052 40201 54000 90550 22200 00081 1//00 70001 333 91205 555 11038 22039 30542 40205 60549 016037 018037 024034 024034 038031 026035
BBXX 41012 11061 99300 70805 46/// /0610 10224 40223 58004 90550 22200 00243 333 91211 555 11102 22107 30532 40613 60549 064096 066100 059101 065095 052096 052089
BBXX 44025 11061 99402 70732 46/// /3508 10032 21077 40322 51015 90550 22200 00117 10402 20402 309// 41001 70009 333 91210 555 11081 22084 30518 43411 60549 353076 342077 344075 347073 346076 350076
BBXX 41008 11061 99314 70809 46/// /0311 10148 20117 40262 57003 90550 22200 00175 10704 20704 300// 41101 70020 333 91213 555 11116 22122 30451 40214 60549 026109 026114 025114 025112 024109 023109
BBXX 44014 11061 99366 70748 46/// /3609 1//// 40311 52009 90550 555 11090 22090
BBXX 41004 11061 99325 70791 46/// /0312 10151 20099 40272 50003 90550 22200 00217 10604 20604 3//// 41001 70020 333 91214 555 11122 22128 30527 40316 60549 029113 028117 030121 031118 031111 029112
BBXX A8TG2 11063 99273 71212 41598 63510 10170 20094 40190 54000 70222 83464 22224 20204 335// 40204 5//// 80130
AAXX 11064 89009 41461 70505 11323 36745 53005 77671 87600 333 87710
AAXX 11064 89009 41461 70505 11323 36745 53005 77671 87600 333 87710
AAXX 11064 78954 12480 20804 10258 20238 30036 40100 60001 82202 333 10295 20234 59002 82818
AAXX 11064 89664 11561 80811 11048 21083 39736 49778 52007 69901 77177 885// 333 56199 82325 88650 90962 93197
AAXX 11064 16597 32965 52006 10166 20136 30138 40225 53002 80002 333 20161 30015 70000 85075
AAXX 11064 78954 12480 20804 10258 20238 30036 40100 60001 82202 333 10295 20234 59002 82818
AAXX 11064 61901 169// /1214 10149 20146 39651 40162 53005 60032 90550 333 20145 3/014 70044 8//99 90710 91126 555 7/090
AAXX 11064 89664 11561 80811 11048 21083 39736 49778 52007 69901 77177 885// 333 56199 82325 88650 90962 93197
AAXX 11064 61902 32582 41106 10222 20181 40124 81802 333 20222 58004 81824 84080
AAXX 11064 89664 11561 80811 11048 21083 39736 49778 52007 69901 77177 885// 333 56199 82325 88650 90962 93197
AAXX 11064 91376 11474 50407 10279 20235 30076 40080 53003 60021 70282 83801 333 562/9 70239 555 91106
BBXX 32012 11061 99197 50856 46/// ///// 1//// 90550 22200 11304 70019
BBXX 46006 11061 99408 71375 46/// /0207 10106 40295 51009 90550 22200 00128 11505 20502 3//// 41505 70026 333 91209 555 11075 22078 30457 40110 60549 023070 021060 024068 021075 020080 021076
BBXX 46002 11061 99426 71305 46/// ///// 10096 40230 54000 90550 22200 00124 11605 70026
BBXX 46084 11061 99566 71361 46/// /3104 10050 20027 40232 52008 90550 22200 00076 10805 20301 300// 40805 70025 333 91205 555 11036 22037 30458 43207 60549 308034 317038 329030 334037 325043 325050
BBXX 46078 11061 99561 71526 46/// /2306 1//// 90550 555 11065 22069
BBXX 46075 11061 99539 71608 46/// /2007 10051 20021 40015 50000 90550 22200 00052 11211 20704 300// 41210 70054 333 91210 555 11077 22082 30523 42111 60549 199073 204079 205081 206083 208081 206077 82109 90513
BBXX 46005 11061 99461 71310 46/// ///08 10081 40247 58006 90550 22200 00101 11506 20703 3//// 41505 70029 333 91210 555 11087 22091
BBXX 46059 11061 99380 71300 46/// /3607 10118 40222 50003 90550 22200 00145 11504 20502 3//// 41504 70020 333 91208 555 11069 22072 30459 40110 60549 355068 353071 359056 009060 012071 002063
BBXX 46080 11061 99580 71500 46/// /1915 10056 20055 40049 55011 90550 22200 00052 10911 20911 70057 333 91219 555 11157 22168 30502 41822 60549 193147 191148 189163 181164 178167 174171 81818 90452
BBXX 41001 11061 99347 70727 46/// ///// 10165 20091 40264 51008 90550 22200 00224 10805 70027
BBXX 41049 11061 99275 70630 46/// /0811 10244 20213 40170 58018 90550 22200 00247 10805 20503 300// 40803 70024 333 91213 555 11115 22122 30545 40913 60549 083107 083102 083101 080087 084089 082095 80811 90548
BBXX 42020 11061 99270 70967 46/// /0612 10181 20124 40254 58019 90550 22200 00237 10806 20806 70028 333 91215 555 11129 22136 30535 40716 60549 058122 060118 062120 061119 062120 059120
BBXX 41044 11061 99217 70587 46/// /1102 10245 20194 40122 58011 90550 22200 00267 10905 20401 300// 40905 70023 333 91203 555 11022 22022 30455 41105 60549 105022 097028 093028 092032 107036 110036 81104 90455
BBXX 41048 11061 99320 70696 46/// /1401 10196 20181 40228 58004 90550 22200 00229 10902 20401 3//// 40902 70011 333 91202 555 11010 22010 30519 43305 60549 143010 172010 321029 324045 321034 326036 83305 90520
BBXX 42065 11061 99149 70750 46/// /0509 10273 20239 90550 22200 10704 20704 70019 333 91210 555 11091 22097 30526 40510 60549 052083 056084 053089 055084 054078 055076 80510 90526
BBXX 42012 11061 99301 70876 46/// /0312 10105 20040 40266 58003 90550 22200 00193 10503 20503 70013 333 91214 555 11121 22127 30507 40315 60549 027116 027118 029119 026122 026119 021118
BBXX 42001 11061 99259 70897 46/// /0408 10206 20129 40235 50000 90550 22200 00238 10804 20804 70022 333 91211 555 11088 22092 30537 40512 60549 043082 038084 039081 045081 033083 038082
BBXX 42035 11061 99292 70944 46/// /0509 10122 20050 40297 50000 90550 22200 00155 10702 20502 313// 40701 70011 333 91210 555 11092 22096 30457 40611 60549 053087 053087 053090 050089 050092 046094
BBXX 42060 11061 99163 70635 46/// /0706 10269 20223 40108 56013 90550 22200 00281 10903 20502 300// 40902 70013 333 91207 555 11063 22066 30500 40808 60549 070060 073060 069063 069066 071069 071069 80707 90458
BBXX 42058 11061 99149 70749 46/// /0507 10275 20235 40100 58008 90550 22200 00278 10703 20503 305// 40702 70015 333 91208 555 11077 22081 30522 40509 60549 052071 050067 048077 049062 056065 053074 80508 90522
BBXX 42036 11061 99285 70845 46/// /0511 10164 20139 40224 58010 90550 22200 00219 10704 20704 70019 333 91213 555 11115 22121 30452 40614 60549 050108 052105 050110 055108 052112 052116
BBXX 42056 11061 99198 70849 46/// /0505 10265 20227 40146 58010 90550 22200 00274 10602 20401 301// 40602 70010 333 91206 555 11053 22055 30523 40507 60549 048051 047054 046058 045055 049053 049054 80406 90528
BBXX 42059 11061 99151 70675 46/// /1003 10275 20228 40104 58009 90550 22200 00286 10803 20301 3//// 40803 70013 333 91204 555 11035 22037 30452 41005 60549 095034 110036 113033 113034 104033 100038 81004 90451
BBXX 42019 11061 99279 70954 46/// /0511 10157 20104 40274 58011 90550 333 91213 555 11116 22123 30548 40513 60549 038107 281100 281103 282110 281105 287096
BBXX 44005 11061 99432 70691 46/// /3307 10011 21091 40286 51015 90550 22200 00090 10502 20502 3//// 40901 70012 333 91210 555 11077 22080 30456 43410 60549 332073 330069 332070 326069 329075 335078
BBXX 42040 11061 99292 70882 46/// /0512 10136 40262 58006 90550 22200 00222 10705 20705 70024 333 91215 555 11115 22120 30451 40416 60549 044116 040118 044117 039120 043125 044122
BBXX 42002 11061 99258 70937 46/// /0511 10195 20127 40246 58009 90550 22200 00246 333 91213 555 11113 22121 30454 40615 60549 054113 054111 060103 060109 061115 062117
BBXX 41047 11061 99275 70715 46/// /0407 10236 40199 58012 90550 22200 00254 10904 20602 311// 40903 70018 333 91208 555 11071 22074 30523 40610 60549 040071 047067 043080 044079 047067 061070 80409 90521
BBXX 42055 11061 99222 70940 46/// /0408 10230 20162 40212 50000 90550 22200 00251 10905 20703 304// 40904 70025 333 91210 555 11086 22090 30541 40411 60549 042083 040084 044082 045085 045085 046082 80509 90505
BBXX 41043 11061 99211 70650 46/// /0505 10253 20222 40134 56010 90550 22200 00269 10804 20402 300// 40804 70022 333 91206 555 11054 22057 30535 40607 60549 053052 062053 063054 064055 064048 065044 80706 90532
BBXX 41036 11061 99342 70770 46/// ///// 10108 20045 40296 50004 90550 22200 00197 10603 70015
BBXX 44066 11061 99396 70726 46/// /3508 10052 21033 40312 51014 90550 22200 00135 10503 20502 3//// 40901 70013 333 91209 555 11080 22083 30515 43310 60549 352078 342074 348072 338077 334076 349074
BBXX 46053 11061 99342 71198 46/// /2707 10135 40165 54000 90550 22200 00144 333 91208 555 11071 22075 30539 42709 60549 268067 262075 258075 256071 257067 258066
BBXX 46014 11061 99394 71240 46/// /3306 10090 40184 56005 90550 22200 00108 11604 20401 3//// 41604 70020 333 91207 555 11058 22060 30522 43407 60549 334057 337054 334059 337059 355049 356048
BBXX 46011 11061 99350 71210 46/// /3105 10121 40183 54000 90550 22200 00140 11704 20401 330// 41704 70018 333 91207 555 11047 22049 30544 43207 60549 310045 317044 315043 321047 306041 310039
BBXX 46047 11061 99324 71195 46/// /2907 10127 40189 52003 90550 22200 00138 11704 20502 329// 41704 70022 333 91209 555 11075 22079 30538 43110 60549 297073 301073 306076 303073 304068 300069
BBXX 46088 11061 99483 71232 46/// /0204 10052 40201 90550 22200 00081 1//00 70001 333 91205 555 11038 22039 30542 40205 60549 016037 018037 024034 024034 038031 026035
BBXX 46027 11061 99419 71244 46/// /3603 10087 40187 56010 90550 22200 00101 11704 329// 41704 70018 333 91204 555 11028 22029 30450 40105 60549 006026 009027 017030 015035 021035 013038
BBXX 46086 11061 99325 71180 46/// /2701 10141 40180 52003 90550 22200 00159 11703 20401 329// 41703 70014 333 91202 555 11010 22010 30514 43203 60549 275009 283008 325009 303015 305019 299015
BBXX 46050 11061 99442 71246 46/// /3606 10085 40200 57005 90550 22200 00102 11604 20501 329// 41604 70020 333 91207 555 11060 22062 30528 40107 60549 000058 005062 005062 008054 004050 009053
BBXX 46069 11061 99337 71202 46/// /3007 10124 40183 52005 90550 22200 00131 11704 20502 330// 41704 70021 333 91208 555 11074 22078 30529 43010 60549 296071 296080 297080 295077 299071 294079
BBXX 46012 11061 99374 71229 46/// /3103 10100 40181 54000 90550 22200 00117 11705 20401 328// 41705 70023 333 91205 555 11030 22031 30450 42906 60549 306031 300035 297033 284033 288034 290041
BBXX 46013 11061 99382 71233 46/// /3007 10093 40176 54000 90550 22200 00109 11604 20501 3//// 41603 70018 333 91208 555 11071 22074 30542 43008 60549 303067 304067 307064 300065 302065 297062
BBXX 46087 11061 99485 71247 46/// /2701 10067 20046 40201 54000 90550 22200 00079 11604 326// 41604 70020 333 91202 555 11009 22009 30453 42904 60549 272009 264016 271025 282028 300025 298029
BBXX 46029 11061 99461 71245 46/// /0000 10066 20063 40204 58005 90550 22200 00079 11504 20401 327// 41504 70018 333 91201 555 11001 22001 30450 42702 60549 344001 180001 180000 184001 216003 317006
BBXX 46054 11061 99342 71204 46/// /3009 10124 40177 54000 90550 22200 00143 11604 20502 300// 41603 70018 333 91210 555 11091 22096 30532 43111 60549 302086 300088 302089 307080 313087 308087
BBXX 46028 11061 99357 71219 46/// /2805 10116 40181 52004 90550 22200 00131 11603 20401 330// 41603 70017 333 91206 555 11047 22049 30523 42806 60549 282046 279044 281043 291038 276039 281038
BBXX 46025 11061 99337 71191 46/// /2704 10141 40176 54000 90550 22200 00153 11702 20401 322// 41701 70008 333 91206 555 11043 22044 30450 42606 60549 267041 297032 309034 312033 322032 329037
BBXX 44009 11061 99385 70747 46/// /3507 10050 40338 51013 90550 22200 00123 10402 20402 300// 41001 70011 333 91210 555 11073 22076 30452 43510 60549 351068 355072 349071 349072 353075 343077
BBXX 44022 11061 99409 70737 46/// ///04 10010 21096 40333 90545 22200 00096 333 91206 555 11046 22046
BBXX 44027 11061 99443 70673 46/// /3308 11010 21077 40277 53021 90550 22200 00090 10402 20402 70011 333 91209 555 11082 22085 30522 43312 60549 329078 327083 324090 317094 327090 321090
BBXX 41013 11061 99334 70777 46/// /0411 10132 20077 40281 50000 90550 22200 00220 10604 20604 309// 40801 70020 333 91214 555 11118 22124 30527 40315 60549 036111 031114 036111 039109 036113 031110
BBXX 44065 11061 99404 70737 46/// /3408 10027 21069 40329 51017 90550 22200 00108 10301 20301 70007 333 91211 555 11088 22092 30533 43511 60549 340084 342085 336084 331090 330089 329087 83410 90518
BBXX 44020 11061 99414 70702 46/// /3410 10030 21055 40293 51016 90550 22200 00095 10402 20402 70008 333 91212 555 11103 22110 30549 43412 60549 328096 261096 261096 261092 261092 264084
BBXX 46105 11061 99590 71522 46/// ///// 1//// 90550 22200 10804 70020
BBXX 46070 11061 99551 11753 46/// /2620 11001 21049 49714 53028 90550 22200 00044 11216 20709 3//// 41213 70080 333 91225 555 11210 22224 30452 42626 60549 261195 263204 262188 263191 259197 257197 82622 90533
BBXX 46078 11061 99561 71526 46/// /2306 1//// 90550 555 11065 22069
BBXX C6SE3 11064 99101 70784 41697 70422 10279 20267 40140 54/// 70322 87/// 22264 00309 20803 309// 41504 5//// 6//// 80270 ICE /////
BBXX V7MO2 11064 99262 70914 41/97 /0519 10185 20095 40249 57002 7//// 8//// 22200 00233 20302 305// 40605 5//// 6//// 80134 ICE /////
BBXX C6SA3 11064 99186 70656 41/// /0713 10270 20243 40110 54/// 7//// 8//// 22262 00270 2//// 3//// 4//// 5//// 6//// 80250 ICE /////
BBXX WFLG 11063 99259 71470 41498 30919 10189 20172 40235 53015 72581 83483 22213 00194 2//// 3//// 4//// 5//// 6//// 80178 ICE /////
BBXX NWS0022 11064 99416 70714 43/// /3109 10006 21060 40312 5//// 7//// 8//// 222// 04134 2//// 3//// 4//// 5//// 6//// 8//// ICE /////
BBXX VCPX 11064 99421 70819 41/98 /0102 10066 2//// 41030 54/// 70000 8//// 22252 0//// 20503 3//// 4//// 5//// 6//// 8//// ICE /////
BBXX WDC6698 11064 99094 71450 43/// /1514 10296 20296 40110 5//// 7//// 8//// 222// 04252 2//// 3//// 4//// 5//// 6//// 8//// ICE /////
BBXX WKAE 11064 99492 70136 41398 82816 10105 20055 40105 57015 70222 884// 22224 00130 2//// 3//// 4//// 5//// 6//// 80080 ICE /////
BBXX A8TG2 11063 99273 71212 41598 63510 10170 20094 40190 54000 70222 83464 22224 20204 335// 40204 5//// 80130
AAXX 11061 76040 32902 03402 10090 20002 30154 40168 57003 90540 333 10218 20050 30/// 55095 59054 98602
AAXX 11061 76342 11430 80702 10066 20058 39588 40326 52007 60021 75055 887// 90550 333 10090 20066 32/// 55000 20135 561// 58009 88710
AAXX 11061 76423 32960 00000 10106 20020 38168 40130 52008 90555 333 10235 20074 30/// 55054 20846 59004
AAXX 11061 76458 32960 33203 10185 20145 30146 40151 52004 80007 90540 333 10262 20125 30/// 55093 56009 59007 83275
AAXX 11061 76491 11456 83601 10123 20121 39875 40274 54/// 69981 76061 887// 90550 333 10170 20080 32/// 55000 568// 58039 88713
AAXX 11061 76539 32958 00901 10097 20078 38196 40200 52020 90550 333 10270 20080 30/// 55055 58008
AAXX 11061 76548 01360 80103 10178 20172 30224 40234 58004 69961 75155 8247/ 90540 333 10232 20176 31/// 55000 56860 58008 69967 82609 86456
AAXX 11061 76556 32960 00000 10166 20147 39126 40128 52010 90535 333 10278 20122 30/// 55096 59006
AAXX 11061 76571 32910 00000 10134 20071 38182 40138 52009 90540 333 10236 20060 30/// 55086 58001
AAXX 11061 76625 32960 00903 10111 20064 38163 40132 52006 90530 333 10242 20096 30/// 55060 58004
AAXX 11061 76662 32960 00602 10138 20071 38472 40120 52007 90545 333 10275 20060 30/// 55088 21296 59007
AAXX 11061 76685 32950 00000 10098 20063 37890 40145 52006 90550 333 10225 20066 30/// 55102 59007
AAXX 11061 76775 31960 03601 10137 20082 38555 40171 52011 70200 90530 333 10284 20092 30/// 55074 58000
AAXX 11061 76805 32960 03301 10242 20239 30136 40139 52006 90540 333 10323 20220 30/// 55093 2//// 59006
AAXX 11061 76843 32965 13602 10183 20145 39528 40171 50003 81030 90545 333 10260 20164 30/// 55068 56/9/ 58002
AAXX 11061 76243 11360 80000 10070 20066 30009 40317 52001 60031 70252 887// 90530 333 10126 20060 31/// 55000 568// 58029 88708
AAXX 11061 76311 32960 00000 10139 20113 39883 40157 52009 90545 333 10288 20132 30/// 55058 59009
AAXX 11061 76412 32960 02201 10146 20091 30145 40191 52017 90545 333 10264 20118 30/// 55067 58018
BBXX WAHV 11063 99176 10403 43398 71605 10275 2023/ 40148 52018 85303 22235 00284 20100 331// 40803 80240
BBXX C6OM7 11063 99271 30118 41397 81721 10172 20113 40181 51010 70322 87520 22273 00160 20707 31400 41006 50000 80140
BBXX SHIP 11064 99051 10984 41697 81212 10255 2023/ 40135 54000 76152 88600 22233 00380 20502 312// 40803 5//// 6//// 80240 ICE /////
BBXX LAOX5 11061 99320 11524 41497 71819 00/// 10200 2119/ 40145 55005 70202 88642 00220 20303 317// 40303 6//// 80190
BBXX A8SE8 11064 99017 70807 41/98 22320 10250 20191 40120 70011 8//7/ 22243 00260 2//// 80210
BBXX DGPT2 11064 99317 50508 41298 71619 10210 20172 40100 54000 70322 877// 22213 00200 2//// 80185
BBXX 44014 11061 99366 70748 46/// /3609 1//// 40311 52009 90550 555 11090 22090
BBXX 41004 11061 99325 70791 46/// /0312 10151 20099 40272 50003 90550 22200 00217 10604 20604 3//// 41001 70020 333 91214 555 11122 22128 30527 40316 60549 029113 028117 030121 031118 031111 029112
BBXX 44025 11061 99402 70732 46/// /3508 10032 21077 40322 51015 90550 22200 00117 10402 20402 309// 41001 70009 333 91210 555 11081 22084 30518 43411 60549 353076 342077 344075 347073 346076 350076
BBXX 41008 11061 99314 70809 46/// /0311 10148 20117 40262 57003 90550 22200 00175 10704 20704 300// 41101 70020 333 91213 555 11116 22122 30451 40214 60549 026109 026114 025114 025112 024109 023109
BBXX A8TG2 11063 99273 71212 41598 63510 10170 20094 40190 54000 70222 83464 22224 20204 335// 40204 5//// 80130
BBXX LADR4 11064 99229 71742 41898 20719 00/// 10250 2021/ 40210 52005 70200 82200 22263 00280 20604 3//// 4//// 5//// 6//// 80220
BBXX WGJT 11064 99243 70744 43/// /0623 10239 2021/ 40165 57003 7//// 8//// 22275 00244 2//// 3//// 4//// 5//// 6//// 80222 ICE /////
BBXX A8SI3 11063 99536 71497 43196 91627 10050 2003/ 40171 52020 22224 00035 20610 80030
BBXX SHIP 11064 99393 70497 41597 61821 10200 20153 40290 54/// 70302 86/// 90545 22224 0//// 1//// 20604 3//// 4//// 5//// 6//// 80170 /////
BBXX WPGK 11064 99330 70708 41398 70319 10183 2015/ 40225 57002 70222 875// 22244 00222 20503 307// 40603 5//// 6//// 80161 ICE /////
BBXX 46088 11061 99483 71232 46/// /0204 10052 40201 54000 90550 22200 00081 1//00 70001 333 91205 555 11038 22039 30542 40205 60549 016037 018037 024034 024034 038031 026035
BBXX 46060 11061 99606 71468 46/// /1213 10030 40156 56020 90550 22200 00062 333 91215 555 11133 22141
BBXX 44060 11061 99413 70721 46/// ///08 10002 40320 90545 22200 00098 333 91210 555 11082 22088
BBXX 41012 11061 99300 70805 46/// /0610 10224 40223 58004 90550 22200 00243 333 91211 555 11102 22107 30532 40613 60549 064096 066100 059101 065095 052096 052089
BBXX 44022 11061 99409 70737 46/// ///04 10010 21096 40333 90545 22200 00096 333 91206 555 11046 22046
BBXX C6SA3 11064 99186 70656 41/// /0713 10270 20243 40110 54/// 7//// 8//// 22262 00270 2//// 3//// 4//// 5//// 6//// 80250 ICE /////
BBXX ELXU2 11060 99217 71229 41598 20305 10190 20133 40233 51010 70200 82100 22223 2//02 304// 4//04 5//// 80155
BBXX 9V8739 11064 99235 71119 41498 83516 10210 20195 40160 51010 70322 887// 22254 00250 2//// 302// 40403 5//// 6//// 80200 ICE /////
BBXX WFLG 11063 99259 71470 41498 30919 10189 20172 40235 53015 72581 83483 22213 00194 2//// 3//// 4//// 5//// 6//// 80178 ICE /////
BBXX OXBB2 11061 99277 70488 41798 61115 10225 20180 40220 51010 70322 85465 22214 00240 20408 80195
BBXX 44172 11061 99445 70634 46/// ///// 1//// 90531 22200 00075 10901 20901 70007
BBXX 44097 11061 99410 70711 46/// ///// 1//// 90532 22200 00129 10502 20502 70011
BBXX 46217 11061 99342 71194 46/// ///// 1//// 90542 22200 00146 11702 20602 326// 41701 70012
BBXX 41114 11061 99276 70802 46/// ///// 1//// 90546 22200 00242 10603 20603 307// 41101 70013
BBXX 46248 11061 99461 71247 46/// ///// 1//// 90534 22200 00088 11504 21002 328// 41504 70020
BBXX 46114 11061 99364 71222 46/// ///// 1//// 90534 22200 00111 11504 21002 329// 41504 70022
BBXX 42363 11061 99282 70892 46/// /0514 10156 20072 40264 90545 333 91215
BBXX 42362 11061 99278 70907 46/// /0411 10161 20072 40275 90545
BBXX 42364 11061 99291 70881 46/// /0311 10144 20061 40264 90545
BBXX 4XFV 11063 99521 71788 43297 52342 10030 00/// 21020 49850 52020 70171 8//// 22253 0//// 2//// ///// 3//// 4//// 5//// 6//// 80010
BBXX LAJS6 11064 99500 71655 41597 82323 10040 2002/ 49990 56010 76062 8742/ 22223 00060 20908 327// 41208 80030
BBXX V7MO2 11064 99262 70914 41/97 /0519 10185 20095 40249 57002 7//// 8//// 22200 00233 20302 305// 40605 5//// 6//// 80134 ICE /////
BBXX C6SE3 11064 99101 70784 41697 70422 10279 20267 40140 54/// 70322 87/// 22264 00309 20803 309// 41504 5//// 6//// 80270 ICE /////
BBXX KGTY 11064 99514 71307 43898 63030 10067 2003/ 40210 5//// 7//// 842// 22274 00067 20807 32729 41009 50806 6//// 80050 ICE /////
BBXX J8PD 11063 99192 70813 434// 70509 10240 2021/ 40120 50050 7//// 87496 22200 00280 20302 314// 40302 5//// 6//// 80220 ICE /////
BBXX NWS0021 11064 99311 70637 43/// /1008 10228 20213 40199 5//// 7//// 8//// 222// 04228 2//// 3//// 4//// 5//// 6//// 8//// ICE /////
BBXX WKAE 11064 99492 70136 41398 82816 10105 20055 40105 57015 70222 884// 22224 00130 2//// 3//// 4//// 5//// 6//// 80080 ICE /////
BBXX DBPG 11061 99536 10080 41798 72108 10020 40110 54000 76266 863// 22200
BBXX WBDS 11063 99356 10172 43598 72320 10185 2013/ 40255 57010 7//// 8712/ 22265 00191 20303 3//// 4//// 5//// 6//// 80150 ICE /////
AAXX 11064 91376 11474 50407 10279 20235 30076 40080 53003 60021 70282 83801 333 562/9 70239 555 91106
AAXX 11061 76040 32902 03402 10090 20002 30154 40168 57003 90540 33310218 20050 30/// 55095 59054 98602
AAXX 11061 76342 11430 80702 10066 20058 39588 40326 52007 60021 75055887// 90550 333 10090 20066 32/// 55000 20135 561// 5800988710
AAXX 11061 76423 32960 00000 10106 20020 38168 40130 52008 90555 33310235 20074 30/// 55054 20846 59004
AAXX 11061 76458 32960 33203 10185 20145 30146 40151 52004 80007 90540333 10262 20125 30/// 55093 56009 59007 83275
AAXX 11061 76491 11456 83601 10123 20121 39875 40274 54/// 69981 76061887// 90550 333 10170 20080 32/// 55000 568// 58039 88713
AAXX 11061 76539 32958 00901 10097 20078 38196 40200 52020 90550 33310270 20080 30/// 55055 58008
AAXX 11061 76548 01360 80103 10178 20172 30224 40234 58004 69961 751558247/ 90540 333 10232 20176 31/// 55000 56860 58008 6996782609 86456
AAXX 11061 76556 32960 00000 10166 20147 39126 40128 52010 90535 33310278 20122 30/// 55096 59006
AAXX 11061 76571 32910 00000 10134 20071 38182 40138 52009 90540 33310236 20060 30/// 55086 58001
AAXX 11061 76625 32960 00903 10111 20064 38163 40132 52006 90530 33310242 20096 30/// 55060 58004
AAXX 11061 76662 32960 00602 10138 20071 38472 40120 52007 90545 33310275 20060 30/// 55088 21296 59007
AAXX 11061 76685 32950 00000 10098 20063 37890 40145 52006 90550 33310225 20066 30/// 55102 59007
AAXX 11061 76775 31960 03601 10137 20082 38555 40171 52011 70200 90530333 10284 20092 30/// 55074 58000
AAXX 11061 76805 32960 03301 10242 20239 30136 40139 52006 90540 33310323 20220 30/// 55093 2//// 59006
AAXX 11061 76843 32965 13602 10183 20145 39528 40171 50003 81030 90545333 10260 20164 30/// 55068 56/9/ 58002
AAXX 11061 76243 11360 80000 10070 20066 30009 40317 52001 60031 70252887// 90530 333 10126 20060 31/// 55000 568// 58029 88708
AAXX 11061 76311 32960 00000 10139 20113 39883 40157 52009 90545 33310288 20132 30/// 55058 59009
AAXX 11061 76412 32960 02201 10146 20091 30145 40191 52017 90545 33310264 20118 30/// 55067 58018
BBXX DBBT 11061 99433 30083 46/// /3212 10109 20098 40177 57003 22261 00100
BBXX A8SF7 11061 99275 70746 41098 20810 10230 20185 40200 53005 7//00 821/0 22284 04220 21004 309// 41203 5//// 80200
BBXX DBKV 11061 99201 70217 46/// /0311 10216 20192 40139 57013 22242 00221
BBXX DBBA 11061 99/// ///// 46/// ///// 10021 20009 40124 52003 22220 00056
BBXX DDLK 11063 99403 70686 41498 63425 10082 20028 40268 52018 70261 862/0 22263 20504 302// 40804 80057
BBXX C6CU6 11063 99442 70136 41397 72518 10135 20126 40170 57030 70322 85778 22253 04145 20701 334// 41504 5//// 80130
BBXX DBBU 11061 99544 10113 46/// /2409 10024 20023 40112 52007/ 22260 0007/
BBXX DBJM 11061 99542 10079 46/// /2505 10065 20046 40116 54000 22240 00081
BBXX DBEA 11061 99540 10084 46/// /2211 10037 20026 40116 52008 22220 00047
BBXX DBFR 11061 99552 10151 46/// /2614 10056 20039 40070 52021 22220 00067
BBXX DBKR 11061 99541 10121 46/// /2405 10035 20032 40121 52011 22200 00058
BBXX DBFH 1/061 99555 10084 46/// /2505/10056 20016 40083 56003 22240 00049
BBXX DBEB 11061 99538 10082 41/// /2211 10026 20026 40115 50003 7//// 22221 00047
BBXX DQVI 11063 99372 10242 41698 22006 10170 20105 40245 52010 70200 81240 22254 00171 29901 80135
BBXX 41101 11064 99146 70562 46/// /1006 10268 20232 40098 57012 22200 00276 10803 70015
BBXX A8EH3 11063 99492 11595 41296 82727 10020 21067 49990 56040 78587 88/// 22214 04020 21005 32701 40904 51005 81010
AAXX 11061 13579 31656 43601 10043 20034 39405 40254 53004 70344 84500 333 20014 31/// 84640
BBXX TESTFR9 11064 99503 70042 46/// ///// 10106 29072 40128 57024 22211
BBXX A8UT7 11064 99269 70165 41596 80424 10200 20169 40172 52012 70222 8471/ 22283 20705 336// 41204 80180
BBXX C6OM8 11060 99204 70238 41297 80311 10233 20182 40150 54000 70200 887// 22253 06235 20403 303// 40403 5//// 80201
BBXX C6JE5 11063 99009 30881 41698 52012 10310 20254 40101 51/// 70122 8/46/ 22253 04300 20101 330// 40101 5//// 80270
BBXX BAREU08 11064 99183 70696 46/// ///// 40127 57004 22212
BBXX DMQN 11063 99352 70158 41598 53110 10170 20146 40243 50003 72581 8347/ 22214 04190 21501 3//// 4//// 5//// 80155
BBXX BAREU05 11064 99362 70042 46/// ///// 40180 52000 22264
BBXX BAREU63 11064 99351 10232 46/// /3012 10168 29070 40272 52012 22233
BBXX 46002 11061 99426 71305 46/// ///// 10096 40230 54000 90550 22200 00124 11605 70026
BBXX 46005 11061 99461 71310 46/// ///08 10081 40247 58006 90550 22200 00101 11506 20703 3//// 41505 70029 333 91210 555 11087 22091
BBXX 46006 11061 99408 71375 46/// /0207 10106 40295 51009 90550 22200 00128 11505 20502 3//// 41505 70026 333 91209 555 11075 22078 30457 40110 60549 023070 021060 024068 021075 020080 021076
BBXX 46012 11061 99374 71229 46/// /3103 10100 40181 54000 90550 22200 00117 11705 20401 328// 41705 70023 333 91205 555 11030 22031 30450 42906 60549 306031 300035 297033 284033 288034 290041
BBXX 46013 11061 99382 71233 46/// /3007 10093 40176 54000 90550 22200 00109 11604 20501 3//// 41603 70018 333 91208 555 11071 22074 30542 43008 60549 303067 304067 307064 300065 302065 297062
BBXX 46014 11061 99394 71240 46/// /3306 10090 40184 56005 90550 22200 00108 11604 20401 3//// 41604 70020 333 91207 555 11058 22060 30522 43407 60549 334057 337054 334059 337059 355049 356048
BBXX 46028 11061 99357 71219 46/// /2805 10116 40181 52004 90550 22200 00131 11603 20401 330// 41603 70017 333 91206 555 11047 22049 30523 42806 60549 282046 279044 281043 291038 276039 281038
BBXX 46029 11061 99461 71245 46/// /0000 10066 20063 40204 58005 90550 22200 00079 11504 20401 327// 41504 70018 333 91201 555 11001 22001 30450 42702 60549 344001 180001 180000 184001 216003 317006
BBXX 46050 11061 99442 71246 46/// /3606 10085 40200 57005 90550 22200 00102 11604 20501 329// 41604 70020 333 91207 555 11060 22062 30528 40107 60549 000058 005062 005062 008054 004050 009053
BBXX 46054 11061 99342 71204 46/// /3009 10124 40177 54000 90550 22200 00143 11604 20502 300// 41603 70018 333 91210 555 11091 22096 30532 43111 60549 302086 300088 302089 307080 313087 308087
AAXX 11064 41170 41957 02805 10191 20084 30207 40220 333 20160 59008 555 00118
AAXX 11064 85585 339// 91917 10161 20094 30185 40221 58008
AAXX 11064 85682 12960 02105 10114 20092 40190 58002 60001
AAXX 11064 85743 12060 09902 10069 20063 40209 58005 60001 333 56006 84075
AAXX 11064 85799 11760 80000 10099 20099 40196 54002 60031 70262 8802/ 333 56079 88456
AAXX 11064 85406 12982 00000 10182 20109 40144 58016 60001
AAXX 11064 85418 12970 02204 10171 20113 40151 57013 60001
AAXX 11064 85442 12475 42007 10167 20144 40148 58009 60001 84500 333 56400 84610
AAXX 11064 85469 42560 61104 10202 20168 40260 51004 83806 333 56200 82820 85280
AAXX 11064 85488 12460 82704 10147 20129 40159 58008 60001 885// 333 56099 88617
AAXX 11064 86033 NIL
AAXX 11064 86086 32970 01802 10234 20163 39979 40069 54000
AAXX 11064 86097 32970 01205 10212 20175 39434 40076 57012
AAXX 11064 86134 32970 00000 10248 20221 39974 40060 56006
AAXX 11064 86170 NIL
AAXX 11064 86192 32970 00000 10258 20181 39867 40085 51012
AAXX 11064 86210 32970 00000 10230 20199 39712 40052 58010
AAXX 11064 86218 32970 00000 10232 20164 39961 40057 57013
AAXX 11064 86221 NIL
AAXX 11064 86233 32970 01802 10220 20188 39908 40097 51010
AAXX 11064 86246 32970 00000 10220 20204 39795 40077 54000
AAXX 11064 86255 32970 00000 10214 20186 30020 40088 54000
AAXX 11064 86260 NIL
AAXX 11064 86268 32970 00000 10200 20181 39906 40072 52004
AAXX 11064 86297 NIL
AAXX 11061 33815 32597 83504 10040 20019 39965 40175 52034 83530 333 20040 555 80015
AAXX 11064 78583 32470 72804 10200 20177 40178 60001 87800 333 00100 58000 81818 87645
AAXX 11064 78583 32470 72804 10200 20177 40178 60001 87800 333 00100 58000 81818 87645
AAXX 11064 85874 31982 /3013 10056 20026 39482 40111 58007 7006/
AAXX 11064 85934 12480 43015 10058 20013 49969 52006 60001 84501 333 56707 84618
AAXX 11064 89056 11115 83507 10004 20001 49712 57021 69981 71062 876// 333 56799 88703
AAXX 11064 89058 11565 83206 10008 20001 39696 49717 57026 60021 70060 885//
AAXX 11064 89059 11405 80000 10006 21008 49706 57032 60001 74442 886// 333 56099 88710
AAXX 11064 89251 31356 83410 10013 20000 49702 57025 71022 8672/
AAXX 11064 91408 32474 81807 10297 20248 30042 40080 57020 83978 333 56999 70086 555 91106
AAXX 11064 85574 12960 01607 10158 20097 39603 40155 56003 60001
AAXX 11064 91408 32474 81807 10297 20248 30042 40080 57020 83978 333 56999 70086 555 91106
AAXX 11064 81225 12570 30604 10240 20234 40094 60001 81532 333 56399 59005 81630 83360
AAXX 11064 81200 NIL
AAXX 11064 81202 NIL
AAXX 11064 81209 NIL
AAXX 11064 81251 NIL
AAXX 11061 12772 11775 63103 11007 21018 39919 40214 52018 69912 70221 81542 333 21009 4/000 55000 70002 81656
AAXX 11061 12822 16/// /0000 10022 20010 30073 40220 53009 69912 333 20014 70001
AAXX 11061 12843 11970 73303 10024 21014 30041 40216 51014 69912 70311 86072 333 20023 4/000 55000 70001
AAXX 11061 12882 11958 53301 10015 20006 30071 40207 53014 60012 70161 82042 333 20012 4/000 55000 70013
AAXX 11061 12925 36/// /0301 10054 20004 30043 40217 52009 333 20016
AAXX 11061 12942 31982 80604 10052 21002 39970 40219 52015 70322 8807/ 333 20040 4/000 55000
AAXX 11061 12982 31565 70000 10048 20023 30110 40213 53013 70122 8457/ 333 20044 4/000 55000 84630
AAXX 11064 78925 14971 /0803 10222 20220 40104 58012 60001 700// 333 10316 20216 55051 21257 59004 70103
AAXX 11064 78397 112570 20103 10268 20224 30104 40120 60001 81801 333 00909 10326 20232 59013 81822
AAXX 11064 81225 12570 30604 10240 20234 40094 60001 81532 333 56399 59005 81630 83360
AAXX 11064 81200 NIL
AAXX 11064 81202 NIL
AAXX 11064 81209 NIL
AAXX 11064 81251 NIL
AAXX 11064 78925 14971 /0803 10222 20220 40104 58012 60001 700// 333 10316 20216 55051 21257 59004 70103
AAXX 11064 78958 42575 39902 10255 20241 30093 40103 60001 82202 333 10318 20234 59002 82820
AAXX 11064 78397 112570 20103 10268 20224 30104 40120 60001 81801 333 00909 10326 20232 59013 81822
AAXX 11061 10004 NIL
AAXX 11061 10015 01465 72306 10062 20039 30099 40109 53002 69942 76181 878// 222// 02065 333 10072 20042 31003 55006 55300 20000 30000 69937 70041 82818 87633 96481
AAXX 11061 10020 07684 82304 10051 20022 30059 40092 51002 69902 70065 333 10064 20040 3/002 55020 55300 20000 30000 69907 70015 88/42 88/50 91114 91211
AAXX 11061 10035 11156 72004 10023 20019 30049 40109 51007 69902 71081 876// 333 10030 20015 31100 41998 55021 55300 20000 30000 41047 70026 87703 96485
AAXX 11061 10055 12265 52408 10033 20022 30098 40109 51007 60002 84610 333 10039 20030 31002 55015 55300 20000 30000 70004 84706 84458 91116 91212
AAXX 11061 10147 01362 82205 10028 20018 30111 40130 53005 69902 78082 875// 333 10033 20019 32001 41998 55003 55300 20000 30000 41134 69907 70131 84709 87622
AAXX 11061 10162 12458 82406 10029 20015 30045 40129 52004 69902 885/9 333 10030 20016 31001 55000 55300 20000 30000 70063 88610
AAXX 11061 10184 12766 42305 10024 20006 30113 40121 53016 60002 84500 333 10027 20019 31000 55008 55300 20000 30000 79999 84650
AAXX 11061 10200 11962 52104 10018 20007 30127 40125 53002 60042 70361 81031 333 10044 20017 32001 55032 55300 20000 30000 70045 81365 85077
AAXX 11061 10224 12980 52204 10010 21003 30133 40140 51002 60002 80001 333 10040 20008 32101 55053 55300 20000 30000 79999 85075
AAXX 11061 10270 06460 72102 10018 21001 30098 40154 53010 69902 222// 06051 333 10037 20018 3/001 55001 55300 69907 79999 87/19 87/33 87/46
AAXX 11061 10338 12575 12203 10014 21006 30080 40155 53003 60002 81501 333 10042 20012 31101 55048 55300 20000 30000 70000 81630
AAXX 11061 10361 12680 12103 10003 21022 30058 40165 53004 60002 81500 333 10028 21001 34104 55045 55300 20000 30000 70000 81646
AAXX 11061 10393 12975 12305 10001 21019 30034 40165 52011 60002 80001 333 10029 21001 31101 55019 55300 20000 30000 79999 81076
AAXX 11061 10400 12780 51604 11004 21019 30116 40167 55004 60002 81531 333 10023 21012 34105 55052 55300 20000 30000 70000 81650 85078
AAXX 11061 10438 15966 01703 11021 21030 39894 40186 53004 60002 333 10027 21022 3/104 55017 55300 70001
AAXX 11061 10469 12984 12004 11012 21035 30013 40184 53007 60002 80001 333 10021 21018 34103 55047 55300 70000 81073
AAXX 11061 10488 12981 12103 11009 21043 39898 40190 53006 60002 80001 333 10030 21011 34105 55012 55300 20000 30000 40817 79999 81078
AAXX 11061 10506 12978 32003 11017 21027 39584 40186 55004 60002 80001 333 11004 21019 34104 55065 55300 20000 30000 70000 83078
AAXX 11061 10548 12965 01502 11048 21053 39638 40205 52002 60002 333 10009 21048 34106 55029 55300 20000 30000 79999
AAXX 11061 10637 12675 72102 11009 21018 30054 40197 56001 60002 875// 333 10024 21044 34107 55072 55300 70000 87646
AAXX 11061 10685 12965 01901 11049 21054 39502 40207 53001 60002 333 11003 21052 34109 55036 55300 20000 30000 70007
AAXX 11061 10738 12970 50000 11019 21030 39723 40211 55001 69912 81031 333 10037 21025 31108 55001 55300 70004 81362 85080
AAXX 11061 10763 12975 21103 11046 21053 39812 40214 53001 60002 80002 333 10006 21055 34107 55011 55300 20000 30000 79999 82076
AAXX 11061 10788 NIL
AAXX 11061 10852 01250 80801 10017 20017 39625 40207 55000 69942 71065 886// 333 10026 20017 31002 55000 55300 20000 30000 69907 70047 88706
AAXX 11061 10946 07150 71702 10019 20018 39346 40191 56008 60092 72276 333 10024 20010 3/000 55000 55300 20000 30000 69957 70247 87/03 87/34 87/47
AAXX 11064 78958 42575 39902 10255 20241 30093 40103 60001 82202 333 10318 20234 59002 82820
AAXX 11064 86033 NIL
AAXX 11064 86086 32970 01802 10234 20163 39979 40069 54000
AAXX 11064 86097 32970 01205 10212 20175 39434 40076 57012
AAXX 11064 86134 32970 00000 10248 20221 39974 40060 56006
AAXX 11064 86170 NIL
AAXX 11064 86192 32970 00000 10258 20181 39867 40085 51012
AAXX 11064 86210 32970 00000 10230 20199 39712 40052 58010
AAXX 11064 86218 32970 00000 10232 20164 39961 40057 57013
AAXX 11064 86221 NIL
AAXX 11064 86233 32970 01802 10220 20188 39908 40097 51010
AAXX 11064 86246 32970 00000 10220 20204 39795 40077 54000
AAXX 11064 86255 32970 00000 10214 20186 30020 40088 54000
AAXX 11064 86260 32970 00000 10208 20195 39903 40055 57019
AAXX 11064 86268 32970 00000 10200 20181 39906 40072 52004
AAXX 11064 86297 NIL
AAXX 11061 01003 NIL
AAXX 11061 01007 11689 51404 11115 21169 30028 40038 56015 60002 70311 83430 333 21154 49004 70000 91109
AAXX 11061 01028 NIL
AAXX 11061 01047 11670 83601 11101 21113 39572 49948 57003 60022 77072 8802/ 333 21101 48019 70050
AAXX 11061 01049 NIL
AAXX 11061 01078 NIL
AAXX 11061 01102 46/// /0207 10021 21053 39944 49963 53013 333 20018 91112
AAXX 11061 01160 NIL
AAXX 11061 01218 NIL
AAXX 11061 01238 NIL
AAXX 11061 01241 NIL
AAXX 11061 01281 NIL
AAXX 11061 01338 16/// /1004 10007 21012 39945 40012 53005 60002 333 21004 70000 91106
AAXX 11061 01359 NIL
AAXX 11061 01397 NIL
AAXX 11061 01400 NIL
AAXX 11061 01427 11575 72509 10064 20005 30013 40029 53005 60022 70282 83838 333 20048 70107 91115
AAXX 11061 01447 NIL
AAXX 11061 01448 46/// ///// 10042 20016 30021 40031 53011 333 20033
AAXX 11061 01001 NIL
AAXX 11061 01008 NIL
AAXX 11061 01010 11580 70114 10023 21038 39948 49964 56007 60022 72682 878// 333 20006 70019 91120
AAXX 11061 01026 NIL
AAXX 11061 01055 NIL
AAXX 11061 01062 NIL
AAXX 11061 01098 NIL
AAXX 11061 01115 11482 40609 10022 21037 39940 49961 52009 60002 70211 82270 333 20020 70000 91116
AAXX 11061 01152 11588 50802 11042 21061 39951 49967 52005 60002 70211 84872 333 21049 70000 91104
AAXX 11061 01205 NIL
AAXX 11061 01212 NIL
AAXX 11061 01271 NIL
AAXX 11061 01288 11565 62805 11027 21056 39218 49968 53007 69912 70272 84530 333 21051 47022 70013 91112
AAXX 11061 01300 NIL
AAXX 11061 01317 NIL
AAXX 11061 01367 NIL
AAXX 11061 01384 11989 21702 11104 21116 39752 40004 53012 60002 70200 80008 333 21103 91104
AAXX 11061 01403 NIL
AAXX 11061 01415 NIL
AAXX 11061 01482 46/// /3102 1//// 2//// 30003 40010 52016 333 91108
AAXX 11061 01492 NIL
BBXX A8GH5 11063 99332 70094 41/96 /0510 10185 20125 40240 54000 70200 8//// 22214 20401 80149
AAXX 11064 97180 32459 63208 10300 20255 30056 40074 58026 82232 333 56000 82819 83360
AAXX 11064 85585 339// 91917 10161 20094 30185 40221 58008
AAXX 11064 85682 12960 02105 10114 20092 40190 58002 60001
AAXX 11064 85743 12060 09902 10069 20063 40209 58005 60001 333 56006 84075
AAXX 11064 85799 11760 80000 10099 20099 40196 54002 60031 70262 8802/ 333 56079 88456
AAXX 11064 85406 12982 00000 10182 20109 40144 58016 60001
AAXX 11064 85418 12970 02204 10171 20113 40151 57013 60001
AAXX 11064 85442 12475 42007 10167 20144 40148 58009 60001 84500 333 56400 84610
AAXX 11064 85469 42560 61104 10202 20168 40260 51004 83806 333 56200 82820 85280
AAXX 11064 85488 12460 82704 10147 20129 40159 58008 60001 885// 333 56099 88617
AAXX 11064 85874 31982 /3013 10056 20026 39482 40111 58007 7006/
AAXX 11064 85934 12480 43015 10058 20013 49969 52006 60001 84501 333 56707 84618
AAXX 11064 89056 11115 83507 10004 20001 49712 57021 69981 71062 876// 333 56799 88703
AAXX 11064 89058 11565 83206 10008 20001 39696 49717 57026 60021 70060 885//
AAXX 11064 89059 11405 80000 10006 21008 49706 57032 60001 74442 886// 333 56099 88710
AAXX 11064 89251 31356 83410 10013 20000 49702 57025 71022 8672/
AAXX 11064 85574 12960 01607 10158 20097 39603 40155 56003 60001
AAXX 11064 78897 14581 /0301 10231 20223 40107 56012 60001 700// 333 10284 20216 59005 70016
AAXX 11064 78897 14581 /0301 10231 20223 40107 56012 60001 700// 333 10284 20216 59005 70016
AAXX 11061 11816 12775 71501 10018 21004 30048 40216 52007 69902 86540 333 20017 31001 70001 86650
AAXX 11061 11826 11958 50000 11040 21047 30010 40220 52011 60002 71011 82046 333 21040 34109 79999 82360 85270
AAXX 11061 11903 11970 19901 11041 21046 39825 40224 52013 60002 70244 80002 333 21041 34106 70000 81070
AAXX 11061 11934 12981 22703 11056 21077 39365 42793 52016 60002 80002 333 21067 3/109 41998 79999 82070
AAXX 11061 11968 11109 79901 11032 21042 39920 40213 52015 60002 74222 82609 333 21037 34106 70000 82702 85170
AAXX 11064 48698 01466 83604 10249 20239 30086 40104 60081 72198 8187/ 333 60047 81815 88469
AAXX 11064 48698 01466 83604 10249 20239 30086 40104 60081 72198 8187/ 333 60047 81815 88469
AAXX 11064 68906 11298 82219 10117 20106 30051 40116 53020 60694 70388 866// 222// 00130 20401 333 20117 91029 555 10171 20699 91011
AAXX 11064 07005 02770 81605 10051 20026 30064 40155 56012 60002 885// 333 10056 20047 30004 55004 60007 70000 88650 90710 91109 555 60005
AAXX 11064 07015 01665 71904 10031 20021 30097 40156 56010 60002 703// 875// 333 10032 21005 31104 55062 60007 70000 84646 87650 90710 91107 93100 555 60005
AAXX 11064 07020 06/// ///// 1//// 2//// 30112 4//// 56018 6///2 333 1//// 2//// 55/// 6///7 7//// 555 6///5
AAXX 11064 07027 02780 71606 10042 20019 30072 40155 56014 60002 83502 333 10056 20020 30100 55032 60007 70000 83650 87070 90710 91108 93100 555 60005
AAXX 11064 07037 02670 61607 10015 20009 39977 40166 56013 60002 85501 333 10042 20013 30101 55004 60007 70004 85644 85069 90710 91109 555 60005
AAXX 11064 07070 04764 82004 10034 20022 30064 40177 56008 60002 700// 333 10056 20033 30002 55044 60007 70000 90710 91107 555 60005
AAXX 11064 07110 02670 81506 10062 20026 30020 40137 56019 60002 8853/ 333 10067 20039 30000 55035 60007 70000 84643 87359 90710 91108 93100 555 60005
AAXX 11064 07117 06/// /1710 10065 20012 30064 40135 56020 60002 333 10074 20058 60007 90710 91117 555 60005
AAXX 11064 07130 04100 82601 11001 21002 30107 40161 57013 60002 749// 333 10044 21012 31104 55062 60007 70000 90710 91102 555 60005
AAXX 11064 07139 01905 10000 11027 21034 39990 40173 56014 60002 74444 80001 333 10018 21029 34105 55060 60007 70002 81075 90710 91102 93100 555 60005
AAXX 11064 07149 01125 30000 11016 21016 30063 40177 56011 60002 71100 83500 333 10040 21020 30106 55049 60007 70002 82701 83650 90710 91101 93100 555 60005
AAXX 11064 07168 01950 01803 11029 21036 30038 40188 56007 60002 71100 333 10016 21042 34107 55040 60007 70000 90710 91104 93100 555 60005
AAXX 11064 07181 04986 /1603 11010 21038 39769 40196 57005 60002 700// 333 10018 21015 3/105 55/// 60007 70000 90710 91105 555 60005
AAXX 11064 07190 04656 /0000 11024 21030 30011 40203 55001 60002 700// 333 10054 21025 3/106 55000 60007 70002 90710 91105 555 60005
AAXX 11064 07207 02865 81807 10107 20072 60002 88070 222// 327// 333 10107 20079 60007 90710 91113 92427 555 60005
AAXX 11064 07222 01660 70503 10055 20052 30124 40156 57011 60002 703// 875// 333 10068 20034 31100 55035 60007 70000 87635 90710 91105 555 60005
AAXX 11064 07240 01459 80604 10054 20047 30025 40163 56011 60002 703// 875// 333 10069 20034 31002 55047 60007 70000 87614 90710 91106 93100 555 60005
AAXX 11064 07255 01140 81005 10060 20056 39965 40168 56009 60012 76166 885// 333 10076 20058 32003 55000 60017 70030 85703 87610 90710 91110 93100 555 60015
AAXX 11064 07280 04785 80000 10044 20026 39908 40187 55006 69922 700// 333 10059 20042 30004 55000 60007 70030 90710 91103 555 60005
AAXX 11064 07299 02362 83202 10034 20027 39855 40191 56006 69992 875// 333 10050 20031 32003 55000 69907 70097 81709 87617 90710 91104 93100 555 60005
AAXX 11064 07314 06/// /0203 10101 20092 30132 40160 55008 60002 333 10111 20098 55/// 60007 70000 90710 91107 555 60005
AAXX 11064 07335 01/04 93201 10076 20073 30017 40163 56006 69922 74544 333 10079 20071 32007 55000 60007 70061 90710 91102 93100 555 60005
AAXX 11064 07434 02556 71302 10075 20071 39685 40167 56002 69922 875// 333 10091 20070 31004 55000 69927 70026 87620 90710 91104 555 60005
AAXX 11064 07460 01106 72301 10025 20024 39779 40179 56004 60002 746// 875// 333 10091 20011 30101 55022 60007 70000 82701 87656 90710 91104 93100 555 60005
AAXX 11064 07471 02480 72401 10041 20038 39199 48788 55001 60002 875// 333 10065 20034 31001 55023 60007 79999 85613 85640 90710 91102 93100 555 60005
AAXX 11064 07481 01/04 91302 10065 20058 39888 40180 55002 69922 74344 333 10103 20054 31003 55/// 69927 70004 90710 91104 93100 555 60005
AAXX 11064 07510 04959 81302 10083 20074 30092 40158 56005 60002 700// 333 10106 20083 31007 55046 60007 79999 90710 91104 555 60005
AAXX 11064 07535 01908 00000 10040 20039 39855 40175 55003 60002 74440 333 10106 20038 31002 55004 60007 70000 90710 91106 93100 555 60005
AAXX 11064 07558 01960 20505 10020 20017 39330 40187 55001 60002 74000 82030 333 10066 20020 31100 55066 60007 70000 82360 90710 91106 93100 555 60005
AAXX 11064 07577 01315 70305 10039 20036 30088 40180 55000 60002 71022 876// 333 10066 20015 30100 55068 60007 70000 87606 90710 91108 93100 555 60005
AAXX 11064 07591 04/// /0308 10009 21043 39162 4//// 55000 60002 700// 333 10036 21002 3/103 55068 60007 70000 90710 91115 555 60005
AAXX 11064 07607 04959 /1003 10008 20004 30093 40167 55002 60002 700// 333 10082 20008 3/101 55066 60007 70000 90710 91104 555 60005
AAXX 11064 07621 01986 11806 10045 20008 39730 40172 55002 60002 702// 81030 333 10063 20034 30001 55077 60007 70000 81362 90710 91108 93100 555 60005
AAXX 11064 07627 02965 00000 10009 21006 39679 40184 53001 60002 333 10066 20007 31104 55051 60007 70000 90710 91103 555 60005
AAXX 11064 07630 01120 11602 10029 20020 39990 40176 55001 69922 74000 81600 333 10108 20027 30102 55075 69927 70002 81603 90710 91103 93100 555 69925
AAXX 11064 07643 02560 53503 10050 20044 30164 40174 53001 69922 83502 333 10091 20043 31003 55074 60007 70002 83620 83076 90710 91105 93100 555 60005
AAXX 11064 07650 02958 51403 10039 20027 30131 40171 55000 60002 80002 333 10104 20033 30100 55063 60007 70000 85070 90710 91104 93100 555 60005
AAXX 11064 07661 02865 70608 10087 20068 30005 40168 55000 60002 87050 333 10124 20086 55/// 60007 70000 87356 90710 91112 555 60005
AAXX 11064 07690 04786 /3312 10080 20014 30140 40174 53001 60002 700// 333 10105 20080 3/007 55066 60007 70000 90710 91115 555 60005
AAXX 11064 07747 02980 50000 10049 20031 30115 40170 55001 60002 80001 333 10080 20048 30002 55029 60007 70000 85068 90710 91103 555 60005
AAXX 11064 07761 02670 80307 10113 20092 30164 40175 56003 60002 8687/ 333 10134 20101 31010 55001 60007 70050 83833 85650 86366 90710 91111 93100 555 60005
AAXX 11064 07790 02570 72003 10114 20073 30160 40175 53001 60002 8151/ 333 10128 20106 30008 55/// 60007 70000 81630 83364 86467 90710 91109 555 60005
AAXX 11061 01015 NIL
AAXX 11061 01023 NIL
AAXX 11061 01033 NIL
AAXX 11061 01059 11689 81601 11067 21074 39950 49960 57003 60022 72272 885// 333 21080 91103
AAXX 11061 01089 16/// /0000 11050 21056 39841 49949 57011 6//// 333 21065 91103
AAXX 11061 01167 NIL
AAXX 11061 01180 NIL
AAXX 11061 01210 16/// /1305 10026 20007 39966 49993 53001 6//// 333 20012 91106
AAXX 11061 01228 NIL
AAXX 11061 01240 16/// /0208 10029 21020 39948 49968 52012 6//// 333 20013 91116
AAXX 11061 01304 46/// /1307 10036 20001 39955 49986 58004 333 20030 91109
AAXX 11061 01311 46/// /1405 10021 20014 39934 49996 58004 333 21011 91106
AAXX 11061 01340 NIL
AAXX 11061 01355 16/// ///// 11017 21023 30012 40017 53007 60002 333 21042 70000
AAXX 11061 01360 NIL
AAXX 11061 01392 16/// /0000 11105 21114 39771 40008 53009 60002 333 21121 70000 91101
AAXX 11061 01406 NIL
AAXX 11061 01411 16/// /2208 10058 20019 39986 40011 50000 6//// 333 20050 91113
AAXX 11061 01425 NIL
AAXX 11061 01433 46/// /0000 11038 21049 38750 40015 53003 333 21047 91106
AAXX 11061 01442 NIL
AAXX 11061 01450 NIL
AAXX 11061 01452 11584 60901 10006 21010 30012 40033 53014 60002 70320 84501 333 21031 70007 91104
AAXX 11061 01473 16/// /3302 11099 21111 39807 40025 52013 6//// 333 21104 91104
AAXX 11061 01494 11975 10000 11048 21049 39944 40012 52015 60002 70200 81070 333 21062 70000 91102
AAXX 11061 01037 NIL
AAXX 11061 01046 11480 81801 11041 21051 39956 49964 57004 60022 78582 888// 333 21053 44003 70021 91103
AAXX 11061 01058 16/// /0000 11067 21079 39489 49961 57004 60022 333 21067 4/019 70041 91104
AAXX 11061 01065 NIL
AAXX 11061 01092 NIL
AAXX 11061 01107 16/// /0213 10032 20016 39968 49973 52004 69942 333 20011 70006 91123
AAXX 11061 01114 NIL
AAXX 11061 01144 46/// /0404 11003 21016 333 21003 91114
AAXX 11061 01199 NIL
AAXX 11061 01245 NIL
AAXX 11061 01259 16/// /0602 10003 21034 39944 49966 53019 60012 333 20003 70011 91112
AAXX 11061 01262 NIL
AAXX 11061 01278 11485 40000 11020 21027 39857 49960 52012 60052 74172 84800 333 21020 47014 70058
AAXX 11061 01293 16/// /2601 11016 21020 39753 49963 53011 60022 333 21026 70027 91102
AAXX 11061 01329 NIL
AAXX 11061 01337 NIL
AAXX 11061 01344 NIL
AAXX 11061 01364 NIL
AAXX 11061 01373 11989 00000 11150 21167 39824 40032 51014 60002 70200 333 21152 47017 70002 91101
AAXX 11061 01374 31889 10000 11116 21123 70200 81040 333 21120 43021 70000
AAXX 11061 01380 16/// /2801 11072 21095 6//// 333 21080 4/012 91109
AAXX 11061 01389 NIL
AAXX 11061 01393 NIL
AAXX 11061 01424 11560 8//// 10017 20005 30014 40018 54000 60012 70242 886// 333 20013 41002 70054
AAXX 11061 01431 16/// /1801 11041 21047 39357 40034 52005 60002 333 21069 70027 91105
AAXX 11061 01436 NIL
AAXX 11061 01465 11985 02504 10032 20001 30010 40028 53017 60002 70200 333 20022 70000 91107
AAXX 11061 01471 NIL
AAXX 11061 01483 NIL
AAXX 11061 01121 46/// /0507 10013 21060 39950 49962 52007 333 20007 91111
AAXX 11061 01135 NIL
AAXX 11061 01143 16/// /2203 11029 21043 69932 333 21029 70003 91111
AAXX 11061 01150 NIL
AAXX 11061 01192 NIL
AAXX 11061 01225 46/// /3605 10044 21010 39980 49985 53009 333 20021 91115
AAXX 11061 01230 16/// /3301 11063 21067 69932 333 21068 4/029 70007 91102
AAXX 11061 01232 NIL
AAXX 11061 01234 16/// /2102 10006 21004 60022 333 21029 70018 91107
AAXX 11061 01253 NIL
AAXX 11061 01254 16/// /0000 11030 21037 60022 333 21052 4/022 70040 91103
AAXX 11061 01257 NIL
AAXX 11061 01277 NIL
AAXX 11061 01291 16/// /1901 11031 21038 60032 333 21033 4/020 70044 91102
AAXX 11061 01332 16/// /0000 11032 21042 60002 333 21067 70000 91102
AAXX 11061 01366 46/// /2904 11109 21125 38370 40024 52003 333 21121 91106
AAXX 11061 01370 NIL
AAXX 11061 01376 16/// /0501 11095 21106 69932 333 21099 70003 91103
AAXX 11061 01383 46/// /0000 11182 21194 39688 40025 53013 333 21187 91102
AAXX 11061 01386 16/// ///// 11119 21133 60002 333 21138 70000
AAXX 11061 01416 16/// ///// 10040 20034 60022 333 20021 70076
AAXX 11061 01419 NIL
AAXX 11061 01430 16/// ///// 10037 20025 60002 333 20003 70077
AAXX 11061 01434 16/// /0000 11105 21121 39044 40019 51006 69942 333 21106 70006 91104
AAXX 11061 01455 NIL
AAXX 11061 01468 16/// /2301 11094 21102 60002 333 21099 70000 91103
AAXX 11061 01470 16/// /3301 11064 21069 39905 40023 53014 60002 333 21066 4/004 70000 91105
AAXX 11061 01476 NIL
AAXX 11061 01481 NIL
AAXX 11061 01488 NIL
AAXX 11061 01025 16/// /0103 11015 21030 39949 49960 55000 60012 333 21015 47010 70010 91109
AAXX 11061 01052 16/// /3601 11026 21032 39856 49955 57007 60022 333 21044 70022 91104
AAXX 11061 01122 16/// /1501 11066 21077 39875 49967 53009 60002 333 21067 70000 91102
AAXX 11061 01132 16/// /0201 11096 21108 39572 49974 53010 60012 333 21097 4/047 70015 91102
AAXX 11061 01156 NIL
AAXX 11061 01203 46/// /1002 10026 21014 39937 49986 57004 333 20019 91108
AAXX 11061 01233 16/// /2201 11044 21060 60002 333 21051 70000 91104
AAXX 11061 01265 NIL
AAXX 11061 01273 NIL
AAXX 11061 01307 46/// /1107 10028 20010 39959 49987 55005 333 20018 91111
AAXX 11061 01321 16/// /1801 11035 21037 39749 40007 53002 60002 333 21048 70002 91102
AAXX 11061 01327 16/// /0601 11032 21042 60002 333 21063 70012 91103
AAXX 11061 01350 16/// /2807 11052 21059 38601 49984 53006 60002 333 21070 70000 91111
AAXX 11061 01361 16/// /1402 11080 21102 38967 40017 53007 60002 333 21080 70004 91106
AAXX 11061 01375 NIL
AAXX 11061 01378 NIL
AAXX 11061 01385 16/// /2602 11053 21075 39726 40004 52012 60002 333 21056 70000 91106
AAXX 11061 01412 16/// /2308 10059 20011 39987 40017 57002 60022 333 20052 70080 91116
AAXX 11061 01422 NIL
AAXX 11061 01440 NIL
AAXX 11061 01441 NIL
AAXX 11061 01467 NIL
AAXX 11061 01469 NIL
AAXX 11061 01477 NIL
AAXX 11061 01480 16/// /3401 11085 21098 60002 333 21087 70000 91104
AAXX 11061 01484 16/// /0000 11141 21160 39853 40019 53014 60002 333 21141 70000 91103
AAXX 11061 01490 16/// /3302 11045 21060 60002 333 21051 70000 91105
AAXX 11061 01495 16/// /0701 11009 21022 39998 40011 51016 60002 333 21010 70000 91106
AAXX 11064 78982 02480 20804 10259 20235 30092 40097 57007 60001 81201 333 59004 60007 81818
AAXX 11061 45032 NIL
AAXX 11061 45035 36/// /3503 10148 21023 30177 40220 57003
AAXX 11061 45039 36/// /0203 10160 20003 30199 40215 57002
AAXX 11061 45044 36/// /3404 10175 20007 30118 40211 57003
BBXX CGDS 11064 99447 70755 46/// /2505 11046 21085 4//// 5//// 7//// 8//// 22200 0//// 2////
AAXX 11061 45032 NIL
AAXX 11061 45035 36/// /3503 10148 21023 30177 40220 57003
AAXX 11061 45039 36/// /0203 10160 20003 30199 40215 57002
AAXX 11061 45044 36/// /3404 10175 20007 30118 40211 57003
AAXX 11064 78982 02480 20804 10259 20235 30092 40097 57007 60001 81201 333 59004 60007 81818
AAXX 11064 61901 169// /1214 10149 20146 39651 40162 53005 60032 90550 333 20145 3/014 70044 8//99 90710 91126 555 7/090
AAXX 11064 61902 32582 41106 10222 20181 40124 81802 333 20222 58004 81824 84080
AAXX 11064 88889 12682 12918 10072 20029 39894 49978 52015 60001 81833 90550 333 70000 81830 90710 91127
AAXX 11064 03005 11565 82316 10058 20036 39819 49918 56023 60032 70262 885// 90550 333 20015 31101 4//// 55006 55300 20000 70064 88621
AAXX 11064 03017 15966 /2213 10051 20036 39902 49934 56012 60022 90550 333 20003 3/102 4//// 55004 55300 20000 70020 82/60 87/70
AAXX 11064 03023 17558 /2419 10054 20029 39929 49934 56014 60032 781// 90550 333 20052 3/004 70056 85/27 83/50 90710 91135
AAXX 11064 03026 17477 /2209 10032 20020 39907 49925 56010 60052 723// 90550 333 20028 3/001 4//// 55002 55300 20000 70070 81/16
AAXX 11064 03063 17563 /2404 10028 20022 39685 49962 56011 60042 781// 90550 333 21003 3/101 4/000 55022 55300 20000 70052 82/23 87/50
AAXX 11064 03066 177// /1803 10052 20023 39948 49954 58008 60022 723// 90550 333 20015 3/101 55009 55300 20000 70028 86/50
AAXX 11064 03075 17870 /2010 10051 20025 39899 49942 58007 69962 723// 90550 333 20018 3/001 4//// 70006 83/57 86/71
AAXX 11064 03091 15979 /2212 10051 20037 39888 49967 56015 69902 90550 333 21001 3/102 4/000 55020 55300 20000 79999 88/64
AAXX 11064 03100 17880 /2614 10060 20044 39942 49958 56016 60062 723// 90550 333 20054 3/003 55000 55300 20000 70086 81/57 85/61 90710 91131
AAXX 11064 03111 16/74 /2416 10072 20048 39977 49989 56013 69962 90550 333 20051 3/004 70066 90710 91127
AAXX 11064 03134 17565 /2406 10066 20054 39913 49984 56009 60042 781// 90550 333 20023 3/002 4//// 55000 55300 20000 70058 84/20 84/25
AAXX 11064 03136 15469 /2415 10081 20056 39960 49992 56012 60012 90550 333 20052 3/004 4/000 55000 55300 20000 70020 81/18 86/21 90710 91125
AAXX 11064 03162 17365 /2111 10060 20052 39718 40003 56012 60092 757// 90550 333 20020 3/001 4/000 55000 55300 20000 70096 87/08
AAXX 11064 03166 15477 /2209 10068 20050 39916 49985 56014 69942 90550 333 20036 3/002 4/000 55001 55300 20000 70046 81/19 83/29 86/62
AAXX 11064 03171 11475 72308 10065 20051 39966 49978 56014 69962 70365 875// 90550 333 20008 31100 55022 55300 20000 70006 81713 86635 87656
AAXX 11064 03204 11565 72609 10085 20055 39997 40017 56019 60022 72586 878// 90550 333 20074 31006 4//// 55012 55300 20000 70022 82820 86645
AAXX 11064 03240 17984 /2011 10061 20050 39974 40002 56020 69902 723// 90550 333 20026 3/001 4//// 55001 55300 20000 70040 88/65
AAXX 11064 03257 15471 /1612 10062 20037 39994 40034 57022 60002 90550 333 20024 3/000 4/000 55031 55300 20000 70002 87/14
AAXX 11064 03292 167// /2215 10054 20040 30028 40046 57026 69942 90550 333 20015 3/000 4/000 70006 88/50
AAXX 11064 03302 17220 /2125 10100 20100 30015 40027 57025 60032 762// 90550 333 20078 3/007 55007 55300 20000 70028 86/05 87/16 90710 91134
AAXX 11064 03354 15367 /2108 10053 20043 39933 40076 56022 69902 90550 333 20023 3/001 4/000 55033 55300 20000 79999 81/08 85/18 87/40
AAXX 11064 03377 11780 82114 10052 20035 39990 40075 56022 69902 72162 8752/ 90550 333 20011 31000 4//// 55030 55300 20000 70002 87650 88460
AAXX 11064 03414 15686 /1706 10070 20047 39973 40061 56025 69902 90550 333 20027 3/000 4//// 55016 55300 20000 70002 84/42 83/71
AAXX 11064 03462 15985 /2014 10044 20020 39998 40088 57023 69902 90550 333 20009 3/101 4/000 55045 55300 20000 79999 87/58
AAXX 11064 03482 17769 /1911 10033 20014 30072 40099 56020 69902 723// 90550 333 21004 3/103 4/000 70002 84/56 87/62
AAXX 11064 03502 17471 /2018 10081 20074 39897 40058 57028 69902 722// 90550 333 20046 3/003 55019 55300 20000 79999 81/10 84/45 90710 91125
AAXX 11064 03535 15784 /1913 10054 20038 39963 40080 56024 69902 90550 333 20022 3/000 4/000 55044 55300 20000 70002 87/56 84/61
AAXX 11064 03590 15983 /1907 10029 20009 30004 40116 56016 69922 90550 333 21003 3/103 4/000 55060 55300 20000 70002 82/59 85/62 85/66
AAXX 11064 03649 11682 72107 10059 20032 30002 40102 57021 69902 70262 8553/ 90550 333 20012 31102 4//// 55045 55300 2//// 70002 82638 84656 87360
AAXX 11064 03716 17582 /2111 10082 20053 30033 40093 57023 69962 723// 90550 333 20062 3/004 4/000 55008 55300 20000 70008 88/27
AAXX 11064 03740 16680 /1907 10053 20035 39928 40106 56022 60002 90550 333 20023 3/101 55051 55300 2//// 70002 82/48 87/61
AAXX 11064 03746 17981 /1907 10048 20035 39960 40116 56021 69902 723// 90550 333 20015 3/100 70002 87/59
AAXX 11064 03772 15775 /1908 10050 20029 30084 40115 56022 60002 90550 333 20011 3/103 4/000 55053 55300 20000 70000 81/50 87/58 87/61
AAXX 11064 03796 46/// /2305 10063 20040 39989 40132 57014 90550 333 20023
AAXX 11064 03803 17469 /2123 10095 20084 30062 40099 56025 69962 723// 90550 333 20077 3/007 70006 84/10 83/19 90710 91131
AAXX 11064 03808 11480 82313 10089 20058 39997 40103 56023 69902 72162 888// 90550 333 20061 31005 4//// 55031 55300 20000 79999 82818 88642
AAXX 11064 03809 11462 72418 10091 20070 30013 40106 56022 69902 76062 878// 90550 333 20067 3/005 4//// 79999 82712 87622 90710 91132 91030
AAXX 11064 03827 15681 /2319 10098 20052 30049 40110 56021 69922 90550 333 20069 3/005 70002 81/31 84/37 86/42 90710 91126
AAXX 11064 03840 15581 /2010 10058 20045 39802 40109 56024 69922 90550 333 20030 3/001 4/000 70004 82/26 85/44
AAXX 11064 03853 15684 /2109 10076 20048 30086 40110 56023 69902 90550 333 20030 3/101 4/000 55006 55300 20000 70002 86/34 85/57
AAXX 11064 03874 46/// /1808 10079 20050 30108 40120 56020 90550 333 20038
AAXX 11064 03882 17550 /3301 10028 20024 30064 40129 56018 60022 782// 90550 333 21015 3/105 4/000 55052 55300 20001 70018 82/22 85/31
AAXX 11064 03894 NIL
AAXX 11064 03917 15670 /2008 10056 20039 39933 40010 56011 69942 90550 333 20043 3/004 4/000 55004 55300 20000 70006 81/41 86/49 87/63
AAXX 11061 78221 NIL
AAXX 11061 78224 11507 10702 10203 20190 30092 40167 58009 60081 74144 81200 333 81825
AAXX 11061 78229 42559 20902 10221 20202 30094 40169 57010 81202 333 83820
AAXX 11061 78239 NIL
AAXX 11061 78244 NIL
AAXX 11061 78243 42759 21002 10204 20197 30044 40167 57011 82020 333 82456
AAXX 11061 78255 42959 00504 10215 20194 30010 40159 57010
AAXX 11061 78264 31559 20104 10228 20193 30061 40136 57010 70500 82200 333 82820
AAXX 11061 78265 31558 00402 10206 20192 30044 40144 57010 71100
AAXX 11061 78256 NIL
AAXX 11061 78259 NIL
AAXX 11061 78268 NIL
BBXX 42039 11061 99288 70860 46/// /0511 10163 40235 58008 90550 22200 00232 333 91214 555 11117 22123
BBXX 41040 11061 99145 70530 46/// /1106 10271 20240 40116 58012 90550 22200 00279 10803 20501 3//// 40803 70016 333 91207 555 11062 22065 30515 41108 60549 112059 106056 109057 110063 109058 103048 81107 90516
BBXX 41010 11061 99289 70785 46/// /0808 10231 40213 56006 90550 22200 00240 10503 20503 300// 40901 70015 333 91210 555 11082 22086
BBXX 41009 11061 99285 70802 46/// /0806 10243 20180 40216 50000 90550 22200 00245 10604 20603 300// 40703 70019 333 91207 555 11063 22066
BBXX 42057 11061 99168 70815 46/// /0208 10275 20227 40130 58010 90550 22200 00280 10602 20602 70011 333 91209 555 11076 22080 30535 40109 60549 022076 014076 017073 022069 024074 023075 80108 90535
BBXX 46072 11061 99517 71722 46/// /2411 10030 21011 49927 53010 90550 22200 00054 11111 20808 3//// 41108 70057 333 91215 555 11121 22128 30530 42416 60549 242113 243115 237115 238116 241118 238116 82413 90530
BBXX 46026 11061 99378 71228 46/// /2905 10097 40179 51005 90550 22200 00114 11603 20401 330// 41603 70017 333 91206 555 11048 22050 30510 42606 60549 292047 290047 287047 289050 290048 289047
BBXX 46001 11061 99563 71480 46/// /1815 10059 40117 58019 90550 22200 00051 10908 20707 300// 40904 70040 333 91219 555 11166 22178 30524 41919 60549 184153 184150 181153 177151 175150 177147
BBXX 46082 11061 99597 71434 46/// ///// 10042 20042 40198 58003 90550 22200 00063 10903 70014
BBXX 46072 11061 99517 71722 46/// /2411 10030 21011 49927 53010 90550 22200 00054 11111 20808 3//// 41108 70057 333 91215 555 11121 22128 30530 42416 60549 242113 243115 237115 238116 241118 238116 82413 90530
BBXX 46035 11061 99571 71778 46/// /2217 1//// 49686 53012 90550 22200 11213 20907 300// 41210 70064 333 91221 555 11172 22184 30459 42121 60549 217170 215159 204145 207156 215143 217168 82219 90544
BBXX 46077 11061 99579 71543 46/// /2507 10045 20002 49998 51049 90550 22200 00054 11205 20603 3//// 41204 70023 333 91208 555 11073 22077 30514 42412 60549 252069 255074 253084 245094 243083 244082 82410 90513
BBXX 51101 11061 99243 71621 46/// /0610 10238 20177 40212 52014 90550 22200 00244 11304 20803 334// 41303 70021 333 91213 555 11109 22116 30540 40613 60549 059103 063102 057097 054096 057093 055089
BBXX 46061 11061 99602 71468 46/// /1311 10044 40152 56016 90550 22200 00060 10503 20502 300// 40701 70013 333 91213 555 11116 22123 30505 41516 60549 128110 123109 132111 139116 143119 141110
BBXX 44007 11061 99435 70701 46/// /3107 11001 21091 40295 51014 90550 22200 00085 10801 70003 333 91208 555 11068 22070 30538 43109 60549 307064 307071 303069 305066 306061 304052
BBXX 45008 11061 99443 70824 46/// /2309 11014 30065 40288 52004 90550 22200 00064 10603 20603 70016 333 91212 555 11098 22102 60549 229095 230095 229100 234096 236099 233096
AAXX 11061 76040 32902 03402 10090 20002 30154 40168 57003 90540 333 10218 20050 30/// 55095 59054 98602
AAXX 11061 76122 32935 00000 10002 21021 38564 40211 5//// 90550 333 10150 21022 30/// 55074 58///
AAXX 11061 76342 11430 80702 10066 20058 39588 40326 52007 60021 75055 887// 90550 333 10090 20066 32/// 55000 20135 561// 58009 88710
AAXX 11061 76382 32660 40501 10125 20095 38940 40182 52017 84080 90548 333 10200 20114 30/// 55032 2//// 56070 58054 84354
AAXX 11061 76393 01105 80301 10086 20078 39685 40281 54000 60031 70555 887// 90550 333 10128 20086 32/// 569// 58033 60037 88403
AAXX 11061 76402 32550 60000 10172 20160 30113 40169 52004 82607 90545 333 10265 20125 30/// 55084 56706 59008 82728
AAXX 11061 76423 32960 00000 10106 20020 38168 40130 52008 90555 333 10235 20074 30/// 55054 20846 59004
AAXX 11061 76458 32960 33203 10185 20145 30146 40151 52004 80007 90540 333 10262 20125 30/// 55093 56009 59007 83275
AAXX 11061 76491 11456 83601 10123 20121 39875 40274 54/// 69981 76061 887// 90550 333 10170 20080 32/// 55000 568// 58039 88713
AAXX 11061 76539 32958 00901 10097 20078 38196 40200 52020 90550 333 10270 20080 30/// 55055 58008
AAXX 11061 76548 01360 80103 10178 20172 30224 40234 58004 69961 75155 8247/ 90540 333 10232 20176 31/// 55000 56860 58008 69967 82609 86456
AAXX 11061 76556 32960 00000 10166 20147 39126 40128 52010 90535 333 10278 20122 30/// 55096 59006
AAXX 11061 76571 32910 00000 10134 20071 38182 40138 52009 90540 333 10236 20060 30/// 55086 58001
AAXX 11061 76577 32960 00000 10118 20100 38057 40129 51002 90540 333 10250 20099 30/// 55068 59003
AAXX 11061 76581 32560 71702 10156 20139 39097 40198 57001 85230 90550 333 10220 20133 30/// 55009 56220 59023 85830
AAXX 11061 76625 32960 00903 10111 20064 38163 40132 52006 90530 333 10242 20096 30/// 55060 58004
AAXX 11061 76654 31956 03602 10224 20197 30149 40153 52002 70544 90554 333 10298 20210 30/// 55071 21078 58001
AAXX 11061 76662 32960 00602 10138 20071 38472 40120 52007 90545 333 10275 20060 30/// 55088 21296 59007
AAXX 11061 76685 32950 00000 10098 20063 37890 40145 52006 90550 333 10225 20066 30/// 55102 59007
AAXX 11061 76743 31930 12001 10205 20178 30193 40201 58002 70200 81050 90545 333 10265 20205 30/// 55066 56/0/ 58001 81356
AAXX 11061 76775 31960 03601 10137 20082 38555 40171 52011 70200 90530 333 10284 20092 30/// 55074 58000
AAXX 11061 76805 32960 03301 10242 20239 30136 40139 52006 90540 333 10323 20220 30/// 55093 2//// 59006
AAXX 11061 76843 32965 13602 10183 20145 39528 40171 50003 81030 90545 333 10260 20164 30/// 55068 56/9/ 58002
AAXX 11061 76845 32830 30000 10074 20070 37970 40205 58003 83030 90545 333 10186 20105 30/// 55057 56090 58001 83358
AAXX 11061 76848 32950 10401 10120 20074 38408 40136 50002 81040 90550 333 10220 20121 30/// 55063 56090 58008 81360
AAXX 11061 76855 32980 03601 10234 20217 30074 40123 52009 90535 333 10327 20206 30/// 55101 58/// 92000
AAXX 11061 76243 11360 80000 10070 20066 30009 40317 52001 60031 70252 887// 90530 333 10126 20060 31/// 55000 568// 58029 88708
AAXX 11061 76311 32960 00000 10139 20113 39883 40157 52009 90545 333 10288 20132 30/// 55058 59009
AAXX 11061 76390 01405 83202 10030 20030 38265 40247 54000 69921 72044 887// 90530 333 10090 20020 31/// 55000 20134 568// 59006 69927 88714
AAXX 11061 76412 32960 02201 10146 20091 30145 40191 52017 90545 333 10264 20118 30/// 55067 58018
BBXX 51004 11061 99175 71524 46/// /0505 10237 20207 90550 555 11054 22058
BBXX 51002 11061 99171 71578 46/// /0606 10244 40146 53018 90550 22200 00252 333 91208 555 11067 22070 30511 40508 60549 063063 062063 062063 047061 047062 039065
BBXX 51100 11061 99236 71539 46/// /0709 10229 40199 52016 90550 22200 00233 10907 20505 310// 40905 70034 333 91211 555 11098 22104 30454 40712 60549 067092 056077 044092 043091 050092 059099
AAXX 11061 02741 17483 82703 10009 20007 39941 49956 52018 69922 70084 88/// 90539 333 10020 21005 3/105
AAXX 11061 02755 17161 83002 11013 21015 39787 49882 52014 60012 77170 88/// 90539 333 11005 21014 3//// 4/009
AAXX 11061 02805 17524 83402 11066 21078 39823 49958 57009 60012 77176 88/// 90539 333 11033 21068 3/108
AAXX 11061 02807 47529 80202 11059 21063 39760 49945 777// 88/// 90600 333 11043 21061 3////
AAXX 11061 02836 17480 80402 11057 21066 39701 49926 57005 60012 78587 88/// 90539 333 11049 21057 3/105 4/020
AAXX 11061 02845 47280 70404 11046 21048 39664 49914 54001 74187 87/// 90539 333 11045 21048 3//// 4/027
AAXX 11061 02849 47378 71102 11045 21054 39643 49919 57003 78587 87/// 90539 333 11043 21052 3////
AAXX 11061 02866 17415 90703 11028 21028 39743 49892 54000 60012 77170 90539 333 11021 21028 3/103 4/019
AAXX 11061 02897 47581 80703 11014 21021 39697 49878 771// 88/// 90600 333 11011 21016 3////
AAXX 11061 02913 47280 73105 10006 21003 39843 49895 781// 87/// 333 10007 20001 3////
AAXX 11061 02917 47160 80000 10001 20001 39748 49869 700// 88/// 90600 333 10004 20000 3////
AAXX 11061 02924 47266 83001 11005 21005 39697 49893 52025 78087 88/// 90539 333 10002 21005 3/101
AAXX 11061 02926 17472 73102 10004 20003 39918 49931 52022 69942 724// 87/// 90600 333 10017 20003 3//// 4/006
AAXX 11061 02935 17270 82904 10001 20000 39710 49881 52027 60022 780// 88/// 90539 333 10002 21001 3/101 4/015
AAXX 11061 02939 17260 81503 10003 20003 39683 49875 54001 69972 77170 88/// 90539 333 10003 21013 3/101 4/010
AAXX 11061 02944 47299 72704 10003 20000 39772 49918 700// 87/// 90600 333 10003 20000 3////
AAXX 11061 02947 47265 82503 10005 20002 49885 52027 70082 88/// 90551 333 10012 20003
AAXX 11061 02963 11280 73002 10004 21004 49925 52027 60094 70282 87300 333 1//// 2//// 3/101 43007
AAXX 11061 02974 12499 72606 10014 21003 39861 49927 52030 69902 70211 875// 333 10025 20014 3/000 41///
AAXX 11061 02976 46/// /2707 10031 20008 39897 49913 52026 90539 333 10044 20030 3////
AAXX 11061 02981 37499 13107 10028 20004 39944 49954 52023 70000 81/// 90539 333 10040 20028 3////
AAXX 11061 02982 46/// /3108 10034 20006 39935 49943 52023 90539 333 10042 20027 3////
AAXX 11064 08594 31959 50309 10213 20183 40130 70622 85007 333 20200 59002 85270
AAXX 11064 08589 32962 70107 10218 20181 40125 80007 333 20213 58004 87270
AAXX 11064 08583 NIL
AAXX 11061 76040 32902 03402 10090 20002 30154 40168 57003 90540 33310218 20050 30/// 55095 59054 98602
AAXX 11061 76122 32935 00000 10002 21021 38564 40211 5//// 90550 33310150 21022 30/// 55074 58///
AAXX 11061 76342 11430 80702 10066 20058 39588 40326 52007 60021 75055887// 90550 333 10090 20066 32/// 55000 20135 561// 5800988710
AAXX 11061 76382 32660 40501 10125 20095 38940 40182 52017 84080 90548333 10200 20114 30/// 55032 2//// 56070 58054 84354
AAXX 11061 76393 01105 80301 10086 20078 39685 40281 54000 60031 70555887// 90550 333 10128 20086 32/// 569// 58033 60037 88403
AAXX 11061 76402 32550 60000 10172 20160 30113 40169 52004 82607 90545333 10265 20125 30/// 55084 56706 59008 82728
AAXX 11061 76423 32960 00000 10106 20020 38168 40130 52008 90555 33310235 20074 30/// 55054 20846 59004
AAXX 11061 76458 32960 33203 10185 20145 30146 40151 52004 80007 90540333 10262 20125 30/// 55093 56009 59007 83275
AAXX 11061 76491 11456 83601 10123 20121 39875 40274 54/// 69981 76061887// 90550 333 10170 20080 32/// 55000 568// 58039 88713
AAXX 11061 76539 32958 00901 10097 20078 38196 40200 52020 90550 33310270 20080 30/// 55055 58008
AAXX 11061 76548 01360 80103 10178 20172 30224 40234 58004 69961 751558247/ 90540 333 10232 20176 31/// 55000 56860 58008 6996782609 86456
AAXX 11061 76556 32960 00000 10166 20147 39126 40128 52010 90535 33310278 20122 30/// 55096 59006
AAXX 11061 76571 32910 00000 10134 20071 38182 40138 52009 90540 33310236 20060 30/// 55086 58001
AAXX 11061 76577 32960 00000 10118 20100 38057 40129 51002 90540 33310250 20099 30/// 55068 59003
AAXX 11061 76581 32560 71702 10156 20139 39097 40198 57001 85230 90550333 10220 20133 30/// 55009 56220 59023 85830
AAXX 11061 76625 32960 00903 10111 20064 38163 40132 52006 90530 33310242 20096 30/// 55060 58004
AAXX 11061 76654 31956 03602 10224 20197 30149 40153 52002 70544 90554333 10298 20210 30/// 55071 21078 58001
AAXX 11061 76662 32960 00602 10138 20071 38472 40120 52007 90545 33310275 20060 30/// 55088 21296 59007
AAXX 11061 76685 32950 00000 10098 20063 37890 40145 52006 90550 33310225 20066 30/// 55102 59007
AAXX 11061 76743 31930 12001 10205 20178 30193 40201 58002 70200 8105090545 333 10265 20205 30/// 55066 56/0/ 58001 81356
AAXX 11061 76775 31960 03601 10137 20082 38555 40171 52011 70200 90530333 10284 20092 30/// 55074 58000
AAXX 11061 76805 32960 03301 10242 20239 30136 40139 52006 90540 33310323 20220 30/// 55093 2//// 59006
AAXX 11061 76843 32965 13602 10183 20145 39528 40171 50003 81030 90545333 10260 20164 30/// 55068 56/9/ 58002
AAXX 11061 76845 32830 30000 10074 20070 37970 40205 58003 83030 90545333 10186 20105 30/// 55057 56090 58001 83358
AAXX 11061 76848 32950 10401 10120 20074 38408 40136 50002 81040 90550333 10220 20121 30/// 55063 56090 58008 81360
AAXX 11061 76855 32980 03601 10234 20217 30074 40123 52009 90535 33310327 20206 30/// 55101 58/// 92000
AAXX 11061 76243 11360 80000 10070 20066 30009 40317 52001 60031 70252887// 90530 333 10126 20060 31/// 55000 568// 58029 88708
AAXX 11061 76311 32960 00000 10139 20113 39883 40157 52009 90545 33310288 20132 30/// 55058 59009
AAXX 11061 76390 01405 83202 10030 20030 38265 40247 54000 69921 72044887// 90530 333 10090 20020 31/// 55000 20134 568// 5900669927 88714
AAXX 11061 76412 32960 02201 10146 20091 30145 40191 52017 90545 33310264 20118 30/// 55067 58018
AAXX 11061 76040 32902 03402 10090 20002 30154 40168 57003 90540 333 10218 20050 30/// 55095 59054 98602
AAXX 11061 76122 32935 00000 10002 21021 38564 40211 5//// 90550 333 10150 21022 30/// 55074 58///
AAXX 11061 76342 11430 80702 10066 20058 39588 40326 52007 60021 75055 887// 90550 333 10090 20066 32/// 55000 20135 561// 58009 88710
AAXX 11061 76382 32660 40501 10125 20095 38940 40182 52017 84080 90548 333 10200 20114 30/// 55032 2//// 56070 58054 84354
AAXX 11061 76393 01105 80301 10086 20078 39685 40281 54000 60031 70555 887// 90550 333 10128 20086 32/// 569// 58033 60037 88403
AAXX 11061 76402 32550 60000 10172 20160 30113 40169 52004 82607 90545 333 10265 20125 30/// 55084 56706 59008 82728
AAXX 11061 76423 32960 00000 10106 20020 38168 40130 52008 90555 333 10235 20074 30/// 55054 20846 59004
AAXX 11061 76458 32960 33203 10185 20145 30146 40151 52004 80007 90540 333 10262 20125 30/// 55093 56009 59007 83275
AAXX 11061 76491 11456 83601 10123 20121 39875 40274 54/// 69981 76061 887// 90550 333 10170 20080 32/// 55000 568// 58039 88713
AAXX 11061 76539 32958 00901 10097 20078 38196 40200 52020 90550 333 10270 20080 30/// 55055 58008
AAXX 11061 76548 01360 80103 10178 20172 30224 40234 58004 69961 75155 8247/ 90540 333 10232 20176 31/// 55000 56860 58008 69967 82609 86456
AAXX 11061 76556 32960 00000 10166 20147 39126 40128 52010 90535 333 10278 20122 30/// 55096 59006
AAXX 11061 76571 32910 00000 10134 20071 38182 40138 52009 90540 333 10236 20060 30/// 55086 58001
AAXX 11061 76577 32960 00000 10118 20100 38057 40129 51002 90540 333 10250 20099 30/// 55068 59003
AAXX 11061 76581 32560 71702 10156 20139 39097 40198 57001 85230 90550 333 10220 20133 30/// 55009 56220 59023 85830
AAXX 11061 76625 32960 00903 10111 20064 38163 40132 52006 90530 333 10242 20096 30/// 55060 58004
AAXX 11061 76654 31956 03602 10224 20197 30149 40153 52002 70544 90554 333 10298 20210 30/// 55071 21078 58001
AAXX 11061 76662 32960 00602 10138 20071 38472 40120 52007 90545 333 10275 20060 30/// 55088 21296 59007
AAXX 11061 76685 32950 00000 10098 20063 37890 40145 52006 90550 333 10225 20066 30/// 55102 59007
AAXX 11061 76743 31930 12001 10205 20178 30193 40201 58002 70200 81050 90545 333 10265 20205 30/// 55066 56/0/ 58001 81356
AAXX 11061 76775 31960 03601 10137 20082 38555 40171 52011 70200 90530 333 10284 20092 30/// 55074 58000
AAXX 11061 76805 32960 03301 10242 20239 30136 40139 52006 90540 333 10323 20220 30/// 55093 2//// 59006
AAXX 11061 76843 32965 13602 10183 20145 39528 40171 50003 81030 90545 333 10260 20164 30/// 55068 56/9/ 58002
AAXX 11061 76845 32830 30000 10074 20070 37970 40205 58003 83030 90545 333 10186 20105 30/// 55057 56090 58001 83358
AAXX 11061 76848 32950 10401 10120 20074 38408 40136 50002 81040 90550 333 10220 20121 30/// 55063 56090 58008 81360
AAXX 11061 76855 32980 03601 10234 20217 30074 40123 52009 90535 333 10327 20206 30/// 55101 58/// 92000
AAXX 11061 76243 11360 80000 10070 20066 30009 40317 52001 60031 70252 887// 90530 333 10126 20060 31/// 55000 568// 58029 88708
AAXX 11061 76311 32960 00000 10139 20113 39883 40157 52009 90545 333 10288 20132 30/// 55058 59009
AAXX 11061 76390 01405 83202 10030 20030 38265 40247 54000 69921 72044 887// 90530 333 10090 20020 31/// 55000 20134 568// 59006 69927 88714
AAXX 11061 76412 32960 02201 10146 20091 30145 40191 52017 90545 333 10264 20118 30/// 55067 58018
AAXX 11064 78016 11464 73304 10192 20174 30228 40232 57010 69951 71682 86870 333 10224 20190 70005 90920
AAXX 11064 81401 06/// /0000 10219 20211 30083 40089 60001 333 55/// 60007 58004 7//// 555 60005
AAXX 11064 81408 06/// /0000 10217 2//// 30081 40089 60001 333 55/// 60007 58003 7//// 555 60005
AAXX 11064 78016 11464 73304 10192 20174 30228 40232 57010 69951 71682 86870 333 10224 20190 70005 90920
AAXX 11064 81401 06/// /0000 10219 20211 30083 40089 60001 333 55/// 60007 58004 7//// 555 60005
AAXX 11064 81408 06/// /0000 10217 2//// 30081 40089 60001 333 55/// 60007 58003 7//// 555 60005
BBXX VOFG 11064 99456 70614 46/// /3317 10014 21016 40200 53022 7//// 8//// 22200 0//// 2////
BBXX VRYO3 11064 99499 70452 46/// /2819 10037 20048 40143 56029 7//// 8//// 22224 00076 2////
BBXX CZ9742 11064 99506 70969 46/// /0807 11060 21080 40083 56031 7//// 8//// 22200 0//// 2////
BBXX CGDR 11064 99496 71266 46/// /0308 10032 20031 40216 53003 7//// 8//// 22200 0//// 2////
BBXX CG2350 11064 99433 70798 46/// /2309 11032 21082 40319 51007 7//// 8//// 22200 0//// 2////
BBXX CGJK 11064 99484 71234 46/// /3606 10045 20023 40206 58001 7//// 8//// 22200 0//// 2////
BBXX VCBW 11064 99512 70568 46/// /3315 11098 21150 40133 51012 7//// 8//// 22200 0//// 2////
BBXX VCRG 11064 99474 70619 46/// /2712 11021 21079 40209 51010 7//// 8//// 22200 0//// 2////
BBXX VOPP 11064 99456 70735 46/// /2702 11048 21084 4//// 5//// 7//// 8//// 22200 0//// 2////
BBXX CGSB 11064 99468 70712 46/// /2103 11072 21114 40289 53024 7//// 8//// 22200 0//// 2////
BBXX CGDX 11064 99468 70712 46/// /2003 11063 21107 40289 52024 7//// 8//// 22200 0//// 2////
BBXX VCLM 11064 99621 70747 46/// /1410 11138 21158 40028 51006 7//// 8//// 22200 0//// 2////
BBXX CG2958 11064 99488 71229 46/// /3307 10048 20025 40215 56002 7//// 8//// 22212 0//// 2////
BBXX CGBR 11064 99534 71293 46/// /3501 10013 20013 40226 51008 7//// 8//// 22200 0//// 2////
BBXX 3FZK3 11064 99488 11606 46/// /2834 11011 21028 49984 57006 7//// 8//// 22213 0//// 2////
BBXX CGJV 11064 99455 70612 46/// /3116 10014 21013 40201 53024 7//// 8//// 22200 0//// 2////
BBXX CGCC 11064 99463 70725 46/// /2406 11070 21119 40295 53015 7//// 8//// 22200 0//// 2////
BBXX VAAP 11064 99471 70596 46/// /3225 11004 21053 40166 51023 7//// 8//// 22283 0//// 2////
BBXX VOKJ 11064 99479 70606 46/// /3118 11027 21070 40189 55000 7//// 8//// 22234 0//// 2////
BBXX CG2965 11064 99487 71235 46/// /3002 10042 20019 40212 52002 7//// 8//// 22200 0//// 2////
BBXX CGDT 11064 99490 70669 46/// /3015 11098 21157 40253 51007 7//// 8//// 22200 0//// 2////
BBXX CGBN 11064 99447 70636 46/// /3113 10003 21033 40219 53018 7//// 8//// 22200 0//// 2////
BBXX VCWL 11064 99456 70735 46/// /3301 11038 21092 40298 53014 7//// 8//// 22200 00053 2////
BBXX CGDG 11064 99461 70549 46/// /2316 10056 20092 40115 55018 7//// 8//// 22263 00057 2////
BBXX VCSZ 11064 99484 70617 46/// /3121 11041 21065 40179 53023 7//// 8//// 22274 0//// 2////
BBXX VAAZ 11064 99512 70498 46/// /2026 10006 20003 40062 56038 7//// 8//// 22231 0//// 2////
BBXX CGBY 11064 99487 71235 46/// /3101 10039 20014 40210 52002 7//// 8//// 22200 0//// 2////
BBXX VOKJ 11064 99479 70606 46/// /3118 11027 21070 40189 55000 7//// 8//// 22234 0//// 2////
AAXX 11061 02947 47/65 82503 10005 20002 49885 52027 70082 88/// 90551 333 10012 20003 3////
BBXX VCLM 11064 99621 70747 46/// /1410 11138 21158 40028 51006 7//// 8//// 22200 0//// 2////
BBXX CG2958 11064 99488 71229 46/// /3307 10048 20025 40215 56002 7//// 8//// 22212 0//// 2////
AAXX 11061 01008 16/// /1207 11120 21143 30013 40048 58007 6//// 333 21127 91108
AAXX 11061 01055 46/// /0312 10014 20008 39934 49952 55016 333 21002 91120
AAXX 11061 01098 16/// /1004 10000 21024 39934 49952 57011 6//// 333 21005 91108
AAXX 11061 01271 16/// /2801 10006 21018 39946 49968 52013 60032 333 21032 43011 70046 91110
AAXX 11061 01317 11582 61403 10026 20005 39982 49997 55004 69942 70222 8453/ 333 21005 42003 70010 91105
AAXX 11061 01415 16/// /2103 10056 20012 30004 40015 50000 6//// 333 20024 70065 91108
BBXX VAAP 11064 99471 70596 46/// /3225 11004 21053 40166 51023 7//// 8//// 22283 0//// 2////
BBXX CGCC 11064 99463 70725 46/// /2406 11070 21119 40295 53015 7//// 8//// 22200 0//// 2////
BBXX CGJV 11064 99455 70612 46/// /3116 10014 21013 40201 53024 7//// 8//// 22200 0//// 2////
BBXX CGBR 11064 99534 71293 46/// /3501 10013 20013 40226 51008 7//// 8//// 22200 0//// 2////
AAXX 11061 01078 16/// /3602 10001 21017 39942 49955 57008 6//// 333 21022 91105
AAXX 11061 01238 46/// /1903 11056 21073 38844 49973 53010 333 21076 91109
BBXX CGDT 11064 99490 70669 46/// /3015 11098 21157 40253 51007 7//// 8//// 22200 0//// 2////
BBXX VCSZ 11064 99484 70617 46/// /3121 11041 21065 40179 53023 7//// 8//// 22274 0//// 2////
BBXX CGDX 11064 99468 70712 46/// /2003 11063 21107 40289 52024 7//// 8//// 22200 0//// 2////
BBXX CG2965 11064 99487 71235 46/// /3002 10042 20019 40212 52002 7//// 8//// 22200 0//// 2////
BBXX CGBY 11064 99487 71235 46/// /3101 10039 20014 40210 52002 7//// 8//// 22200 0//// 2////
BBXX VAAZ 11064 99512 70498 46/// /2026 10006 20003 40062 56038 7//// 8//// 22231 0//// 2////
BBXX VCWL 11064 99456 70735 46/// /3301 11038 21092 40298 53014 7//// 8//// 22200 00053 2////
BBXX CGDG 11064 99461 70549 46/// /2316 10056 20092 40115 55018 7//// 8//// 22263 00057 2////
BBXX CGBN 11064 99447 70636 46/// /3113 10003 21033 40219 53018 7//// 8//// 22200 0//// 2////
BBXX 3FZK3 11064 99488 11606 46/// /2834 11011 21028 49984 57006 7//// 8//// 22213 0//// 2////
AAXX 11061 01403 11580 8//// 1//// 2//// 39933 58006 60012 70282 8391/ 333 70033
AAXX 11061 02947 47/65 82503 10005 20002 49885 52027 70082 88/// 90551 333 10012 20003 3////
AAXX 11061 11423 NIL
AAXX 11061 11487 01663 11501 11041 21044 39568 40218 53003 60002 703// 81501 333 21043 34109 60005 70003 81643
AAXX 11061 11518 02970 12104 11033 21045 39752 40211 51005 60002 81041 333 21042 34106 60005 79999 81363
AAXX 11061 11603 NIL
AAXX 11061 11659 01964 11401 11036 21040 39552 40218 53004 60002 703// 81080 333 21037 34110 60005 70000 81360
AAXX 11061 11723 02980 12702 11034 21054 39909 40221 52008 60002 81041 333 21038 34109 60005 70000 81360
AAXX 11061 11782 02975 12302 11019 21035 39893 40211 52008 69902 80001 333 21049 34109 60005 79999 81071
AAXX 11064 78583 32470 72805 10200 20177 40178 60001 87800 333 00100 58000 81818 87645
BBXX CGTF 11064 99476 70527 46/// /1411 10047 20039 40094 56041 7//// 8//// 22200 0//// 2////
BBXX C6SI6 11064 99436 11497 46/// /2113 10028 21035 40050 53009 7//// 8//// 22253 0//// 2////
BBXX VXKF 11064 99466 70598 46/// /3427 11005 21037 40165 53002 7//// 8//// 22212 0//// 2////
BBXX CG2960 11064 99453 70800 46/// /2508 10002 21068 40280 50000 7//// 8//// 22200 0//// 2////
AAXX 11064 48601 11560 72508 10290 20245 30094 40098 6///1 70522 83232 333 83820 84364 87077
AAXX 11064 48615 11330 82204 10243 20235 30097 40103 60091 76166 8452/ 333 82709 83620 88468
AAXX 11064 48620 11462 72104 10299 20236 30087 40096 60001 71522 86953 333 81710 81917 83820 86078
AAXX 11064 48647 11475 70407 10304 20231 30072 40097 60001 70322 8295/ 333 81917 87364
AAXX 11064 48657 11456 80802 10256 20246 30083 40101 60241 76166 85727 333 82710 83624 88276
AAXX 11064 48665 11466 80409 10261 20241 30096 40106 60031 72582 84948 333 81710 81917 83364 87276
AAXX 11064 96413 11550 70408 10268 20260 30056 40082 60181 78082 85141 333 85820 85080
AAXX 11064 96421 11580 72504 10322 20252 30038 40073 60001 70122 85241 333 85820 84080
AAXX 11064 96441 11480 72805 10311 20256 30041 40068 60031 72582 82241 333 82816 87080
AAXX 11064 96449 12480 72509 10303 20256 30047 40066 60001 83131 333 83814 85080
AAXX 11064 96465 12478 72507 10304 20250 30030 40063 60001 82832 333 82813 83364 87079
AAXX 11064 96471 11472 72507 10307 20255 30060 40063 60001 70522 83858 333 82815 85363 87277
AAXX 11064 96481 12462 61707 10313 20259 30045 40064 69921 82841 333 82817 86080
AAXX 11064 96491 11465 71005 10310 20266 30043 40054 60001 70522 83831 333 83816 87080
AAXX 11064 78583 32470 72805 10200 20177 40178 60001 87800 333 00100 58000 81818 87645
BBXX CGTF 11064 99476 70527 46/// /1411 10047 20039 40094 56041 7//// 8//// 22200 0//// 2////
BBXX CG2960 11064 99453 70800 46/// /2508 10002 21068 40280 50000 7//// 8//// 22200 0//// 2////
BBXX VXKF 11064 99466 70598 46/// /3427 11005 21037 40165 53002 7//// 8//// 22212 0//// 2////
BBXX C6SI6 11064 99436 11497 46/// /2113 10028 21035 40050 53009 7//// 8//// 22253 0//// 2////
BBXX 46232 11061 99325 71174 46/// ///// 1//// 90538 22200 00145 11802 20501 326// 41802 70012
BBXX 46247 11061 99378 71228 46/// ///// 1//// 90551 22200 00116 11504 21001 329// 41504 70019
BBXX 46244 11061 99409 71244 46/// ///// 1//// 90535 22200 00102 11504 20901 329// 41503 70018
BBXX 46243 11061 99462 71241 46/// ///// 1//// 90559 22200 00082 11703 21001 326// 41703 70017
BBXX 46225 11061 99329 71174 46/// ///// 1//// 90544 22200 00158 11702 21001 327// 41702 70011
BBXX 46215 11061 99352 71209 46/// ///// 1//// 90538 22200 00155 11703 20801 325// 41702 70013
BBXX 46219 11061 99332 71199 46/// ///// 1//// 90558 22200 00133 11804 20902 329// 41803 70019
BBXX 46214 11061 99379 71235 46/// ///// 1//// 90557 22200 00114 11705 20802 329// 41704 70023
AAXX 11061 14648 12665 72701 10096 20088 30083 40203 54000 69952 82570 333 20096 32007 55000 70057 82643 87459
AAXX 11061 14652 11/00 92017 11003 21005 37931 48493 58008 60002 74544 333 21005 3//// 44015 55000 70000 89///
AAXX 11061 14542 11660 83401 10088 20074 30013 40203 52011 69952 76126 8652/ 333 20084 32005 55000 70006 86640 88552
BBXX 41115 11061 99184 70673 46/// ///// 1//// 90535 22200 10902 20902 303// 41101 70012
BBXX 41110 11061 99341 70777 46/// ///// 1//// 90551 22200 00150 10503 20503 70013
BBXX 41113 11061 99284 70805 46/// ///// 1//// 90551 22200 00218 10602 20602 70008
BBXX 41112 11061 99307 70813 46/// ///// 1//// 90551 22200 00165 10604 20604 70019
AAXX 11064 60127 32560 50000 10115 20093 39622 40223 5/003 85200 333 20110 30010 85820
AAXX 11064 60141 32558 32107 10083 20063 39555 40233 58001 83200 333 20071 31003 83830
AAXX 11064 60191 32960 00000 10055 20048 40249 5//// 333 20050 30001
AAXX 11064 60210 32970 00000 10035 20009 39025 48529 58008 333 20033 31102
AAXX 11064 60265 32970 50000 10050 21023 38929 48540 55000 80002 333 20041 85070
AAXX 11064 60060 NIL
AAXX 11064 60105 NIL
AAXX 11064 60106 NIL
AAXX 11064 60107 NIL
AAXX 11064 60185 NIL
AAXX 11064 60190 NIL
AAXX 11064 60195 NIL
AAXX 11064 60220 NIL
AAXX 11064 60318 NIL
AAXX 11064 60150 32556 31904 10086 20071 39568 40234 53002 81502 333 20082 30004 82616 83070
AAXX 11064 60155 32950 020// 10100 20088 40218 58002 333 20100 31005
AAXX 11064 60252 32960 30704 10070 20056 40214 58008 80002 333 20070 83070
AAXX 11064 60096 NIL
AAXX 11064 60101 NIL
AAXX 11064 60115 NIL
AAXX 11064 60135 NIL
AAXX 11064 60156 NIL
AAXX 11064 60230 NIL
AAXX 11061 10224 12980 52204 10010 21003 30133 40140 51002 60002 80001 333 10040 20008 31101 55053 55300 20000 30000 79999 85075
BBXX BAREU06 11064 99398 70271 46/// ///// 40275 52006 22264
BBXX BAREU04 11064 99509 70203 46/// ///// 40094 57009 22224
BBXX BAREU00 11064 99374 70753 46/// ///// 40319 52006 22213
BBXX BATFR02 11064 99508 70011 46/// /2315 10084 20054 40134 56025 22272 00109
BBXX BATFR09 11064 99389 10092 44998 62404 10162 20124 40200 53004 70222 84032 22222 00184 20202 60//0 ICE 0/0//
AAXX 11064 64500 11358 81404 10240 20233 30083 40096 60214 71796 8392/ 333 02561 20250 50531 55090 58001 83608 81920 85630 88460 94948 95838
BBXX BATFR56 11064 99016 30844 44498 52517 10287 20232 40107 58004 76022 84422 22252 00300 20602 324// 40602 5////
AAXX 11064 81405 04963 /0000 10224 20221 30083 40092 60001 700// 333 3/021 55082 60007 58005 70028 555 60005
BBXX BATFR60 11064 99521 10028 46/// /2226 10087 20029 40124 55001 22253 00102
BBXX BATFR15 11064 99458 70055 46/// /2612 10134 20109 40139 56019 22254 00150
AAXX 11064 91503 01475 70000 10292 20224 40069 55012 60011 70582 8297/ 333 56099 69967 81817 81918 87360
AAXX 11064 91517 01404 83203 10230 20227 40080 52009 60311 79798 8594/ 333 56999 60317 82814 83920 85628 88460
AAXX 11064 91503 01475 70000 10292 20224 40069 55012 60011 70582 8297/ 333 56099 69967 81817 81918 87360
AAXX 11064 91517 01404 83203 10230 20227 40080 52009 60311 79798 8594/ 333 56999 60317 82814 83920 85628 88460
BBXX VOLG 11064 99/// ///// 46/// /0122 10018 21014 40196 53013 7//// 8//// 22200 0//// 2////
AAXX 11061 13586 31950 41101 11020 21035 39960 40265 53007 71021 84030 333 21020 84459
BBXX PHQX 11063 99386 70565 41598 42211 10215 20161 40228 56012 70211 83141 22214 20804 321// 41004 5//// 80180
BBXX PHCQ 11063 99368 70747 41/98 /3510 10070 20045 40308 51009 70011 8//// 22263 04145 20502 3//// 41003 5//// 80058
BBXX BATFR19 11064 99003 10094 46/// /2204 10244 20227 40109 51015 22200 00289
BBXX BATFR08 11064 99488 30636 46/// /2118 10034 21053 40169 58007 22223 00045
BBXX BATFR31 11064 99418 10086 46/// /0611 10147 21135 40171 55001 22213 00172
BBXX BATFR14 11064 99217 70532 44797 61220 10255 20229 40140 58014 70322 864/2 22254 00259 309// 41208 5////
BBXX BATFR13 11064 99169 70603 44398 71114 10257 20224 40112 58008 70322 8777/ 22214 00284 20410
BBXX BATFR04 11064 99577 70064 46/// /2222 10069 20024 49932 56023 22213 00109
BBXX BATFR55 11064 99087 30433 44598 50311 10277 20245 40122 70322 83132 22222 00290 20602 32424 412// 512//
BBXX FVNM 11064 99063 71030 46/// /0613 10254 20214 40128 50/// 22200 00267
BBXX BATEU01 11064 99479 70603 44597 73221 11016 21065 40170 51036 70222 84541 22274 00049 21002 327// 41002 5////
BBXX BATEU00 11064 99417 30161 46/// /1007 10147 20077 40220 51013 22243
BBXX BATEU08 11064 99585 10028 46/// /2127 10075 20055 49972 55006 22223
BBXX BATFR24 11064 99429 10095 46/// /2204 10149 20114 40174 53002 22243 00167
BBXX BATFR05 11064 99055 10000 46/// /3112 10262 20242 40098 53005 22212 00259
BBXX BATFR20 11064 99431 10054 46/// /3606 10130 20094 40164 53002 22274
BBXX BATFR44 11064 99484 70045 46/// /1609 10085 20032 40135 56016 22211 00104
BBXX BATFR01 11064 99389 10144 46/// /2309 10177 20117 40204 53007 22232 00185
BBXX BATFR21 11064 99427 10089 46/// ///// 20142 40173 53001 22232
BBXX BATFR42 11064 99445 70040 46/// /2408 10142 20105 40152 53001 22243 00162
BBXX BATFR54 11064 99453 70008 46/// /1107 10100 20094 40153 56004 22242 00124
BBXX BATFR61 11064 99471 70068 46/// /2104 10109 20100 40136 56021 22243 00149
BBXX BATFR62 11064 99500 70003 46/// /2323 10097 20054 40135 58025 22262 00139
BBXX BATFR46 11064 99365 70020 46/// /2725 10162 20124 40169 55006 22253 00179
BBXX BATFR52 11064 99503 70042 46/// /2111 10107 20054 40112 56030 22200 00122
BBXX BATEU02 11064 99532 70103 46/// /2916 10084 20037 40016 56018 22200 00112
BBXX BATFR47 11064 99287 51396 46/// /1711 10210 20160 40168 51020 22262
BBXX BATFR41 11064 99436 10073 46/// /3405 10142 20087 40165 22232
BBXX BATEU09 11064 99428 10073 46/// /2506 10149 20114 40170 58002 22282 00164
BBXX BATFR06 11064 99453 70015 46/// /0814 10129 20127 40153 56004 22241 00162
AAXX 11064 67665 12975 21701 10221 20221 48515 60014 81031 333 10272 20155 59004 81360 82080
AAXX 11061 10609 12665 72802 10000 21011 39847 40187 56007 60002 875// 333 10012 21020 31105 55062 55300 20000 30000 70000 87640
AAXX 11061 10616 12580 62103 11009 21023 39571 40189 56006 60002 86500 333 10002 21016 31105 55057 55300 70000 86633
AAXX 11061 10641 15659 61301 11036 21042 30044 40198 56001 60002 333 10010 21038 3/107 55070 55300 70000 86/49 86/75
AAXX 11061 10655 12968 11402 11027 21031 39861 40204 56001 60002 80001 333 10008 21027 34106 55043 55300 20000 30000 70005 81081
AAXX 11061 10675 15958 01501 11044 21050 39906 40213 53001 60002 333 11018 21052 3/108 55041 55300 20000 30000 70013
AAXX 11061 10688 15959 01701 11045 21048 39670 40218 53001 60002 333 11003 21049 3/108 55002 55300 20000 30000 70004
AAXX 11061 10708 12670 81501 10006 21015 39797 40194 56005 60002 875// 333 10006 21034 34105 55033 55300 20000 30000 70000 87638
AAXX 11061 10729 15663 81803 10002 21005 30082 40208 55001 60002 333 10002 21030 3/106 55046 55300 20000 30000 70000 88/47
AAXX 11061 10731 12175 61401 11044 21051 30050 40201 57001 60002 82501 333 10028 21046 34106 55006 55300 20000 30000 79999 81702 85075
AAXX 11061 10742 15961 00000 11024 21031 39863 40209 55000 60002 333 10029 21024 3/106 55005 55300 20000 30000 70000
AAXX 11061 10776 11/01 90201 11022 21023 39752 40214 53003 60002 74944 333 10018 21024 31103 55001 55300 20000 30000 70007
AAXX 11061 10791 01/03 62310 11061 21066 38510 48455 55001 69902 7414/ 86500 333 11053 21073 44049 55000 55300 69907 70004 866// 96249
AAXX 11061 10805 11527 80801 10012 20010 30003 40200 56003 69902 74022 875// 333 10057 20001 31100 55000 55300 20000 30000 70013 86632
AAXX 11061 10815 11/02 91401 11020 21020 39238 48458 55001 69932 74142 333 10007 21021 3/102 43004 55000 55300 20000 30000 70022 89/01 96241 96445
AAXX 11061 10836 12580 22902 11019 21019 39311 40208 56002 69932 81541 333 10004 21021 3/108 43008 55000 55300 20000 30000 70028 81620
AAXX 11061 10870 11460 81801 10017 20012 39660 40207 55002 69912 70252 885// 333 10019 20009 31000 55000 55300 70071 83614 88618
AAXX 11061 10895 01/02 92102 10012 20012 39625 40209 55000 69902 76164 333 10014 20009 31001 55000 55300 20000 30000 69907 70030 96045
AAXX 11061 10908 01/00 92113 11004 21004 38462 48460 56002 69932 74954 333 11001 21018 3/102 49010 55000 55300 20000 30000 69907 70055 89/01 91118 91216 96456
AAXX 11061 10929 01259 80801 10040 20036 39653 40192 56007 60072 75055 877// 222// 06062 333 10045 20037 32004 55000 55300 20000 30000 69987 70200 87705
AAXX 11061 10948 11250 82101 10013 20013 39233 48468 56004 60032 71062 885// 333 10036 20009 3/001 43005 55000 55300 20000 30000 70039 85705 87645
AAXX 11061 10961 11/89 32511 11079 21090 37049 47014 53001 60032 72844 82542 333 11063 21079 49080 55000 55300 20000 40815 70069 826// 91121 91215 95188 96249 96449 98389 98789 444 18179 26220 86122
AAXX 11061 10962 01480 71404 10001 20001 39029 48467 55003 60072 72274 875// 333 10001 21006 3/101 43007 55000 55300 20000 30000 69967 70193 83612 87625 96270 96469 96447
AAXX 11061 10980 11/01 92610 11014 21014 38126 48475 53004 69982 74944 333 11006 21035 3/103 48025 55000 55300 20000 30000 70035 91116 91214 96441
AAXX 11061 10007 NIL
AAXX 11061 10044 46/// /2211 10031 20019 30073 40106 51007 222// 00064 333 10035 20020 55013 55300 91117 91214
AAXX 11061 10046 11258 82204 10029 20018 30075 40115 52007 69912 72122 876// 333 10031 20016 32100 4/998 55011 70030 87706
AAXX 11061 10091 12475 72411 10036 20025 30049 40101 53019 60002 878// 222// 06066 333 10045 20028 31002 55014 55300 20000 30000 79999 82813 87650 91122 91217
AAXX 11061 10113 01672 72208 10040 20026 30098 40117 53001 60062 70386 8553/ 222// 06056 333 10064 20039 31003 55013 55300 20000 30000 69957 70080 85640 87363
AAXX 11061 10124 46/// /2110 10029 2//// 30072 40110 53001 222// 00051 333 10056 20027 55/// 553// 91115 91212
AAXX 11061 10131 01465 72205 10028 20016 30105 40120 52004 60022 78082 879// 333 10037 20026 32002 55000 55300 20000 30000 69947 70079 84813 81920 87633
AAXX 11061 10170 12470 82305 10030 20013 30105 40121 53010 60002 885// 333 10030 20017 31001 55009 55300 20000 30000 70014 88610
AAXX 11061 10264 12462 82304 10029 20014 30027 40135 53007 69932 885// 333 10032 20017 31001 55001 55300 20000 30000 70052 88611
AAXX 11061 10291 12575 62305 10022 21000 30078 40147 52013 69902 86500 333 10036 20009 31000 55012 55300 20000 30000 70047 86623
AAXX 11061 10315 12967 31903 10006 21010 30092 40158 55001 60002 82031 333 10039 20006 31101 55042 55300 20000 30000 70000 82362
AAXX 11061 10379 12582 22205 11004 21021 30033 40159 52010 60002 81531 333 10030 21008 34103 55021 55300 20000 30000 40856 79999 81633
AAXX 11061 10382 11582 72304 10016 21018 30112 40158 53011 69902 70361 8353/ 333 10033 20011 31101 55012 55300 20000 30000 79999 83623 86358
AAXX 11061 10384 16/// /2104 10009 21016 30097 40159 53010 60002 333 10042 20006 3/102 55019 55300 20000 30000 79999
AAXX 11061 10427 11/05 82103 11037 21037 39144 48432 55000 69902 74142 886// 333 11021 21038 3/104 48025 55000 55300 20000 30000 70004 837// 87701 96441 96410
AAXX 11061 10430 12980 31702 11002 21017 39972 40170 53001 60002 80002 333 10039 21007 31105 55001 55300 20000 30000 79999 83080
AAXX 11061 10439 12970 21202 11023 21036 39961 40190 53004 60002 80001 333 10022 21033 34106 70000 82072
AAXX 11061 10453 11/90 92613 11051 21052 38798 48422 53002 60032 74943 333 11045 21051 3/105 49050 55000 55300 70084 91119 91216 96036 96449 96438
AAXX 11061 10496 12984 02404 10001 21030 30086 40174 52008 60002 333 10029 20001 34101 55012 55300 20000 30000 79999
AAXX 11061 10499 12975 12003 11015 21045 39888 40189 51009 60002 80001 333 10016 21029 34105 55000 55300 20000 30000 70008 81070
AAXX 11061 10505 12584 72104 10009 21011 39881 40170 56007 60002 81502 333 10018 20000 31102 55066 55300 20000 30000 70000 81633 87073
AAXX 11061 10513 12982 61002 11006 21028 30054 40180 55005 60002 82044 333 10022 21025 31104 55047 55300 20000 30000 70000 82369 85080
AAXX 11061 10532 176// 81501 11028 21032 39934 40193 55001 60002 7//// 333 10021 21035 3/107 55028 55300 20000 30000 79999 88/42 88/50
AAXX 11061 10544 11020 82105 11039 21039 39078 48442 55000 60002 71011 886// 333 11032 21056 3/107 42004 55004 55300 79999 88700
AAXX 11061 10554 12981 12305 11019 21037 39786 40189 52004 60002 80001 333 10015 21020 34104 55054 55300 20000 30000 70000 81080
AAXX 11061 10567 12988 12005 11020 21036 39804 40194 51006 60002 80001 333 10018 21021 34103 55056 55300 20000 30000 70000 81073
AAXX 11061 10578 12983 02510 11070 21077 38754 48444 53003 6///2 333 11054 21071 3/108 48029 55004 55300 20000 30000 7////
AAXX 11064 91413 11469 71110 10305 20253 30063 40088 57012 69931 70282 83271 333 56299 70003 555 91106
BBXX 51201 11061 99217 71581 46/// ///// 1//// 90542 22200 00242 11305 20804 331// 41302 70023
BBXX 51202 11061 99214 71577 46/// ///// 1//// 90539 22200 00240 10806 20805 304// 41101 70028
AAXX 11064 60340 32950 01806 10067 20055 40206 56009 333 20059
AAXX 11064 60285 NIL
AAXX 11064 16008 12965 00000 11016 21023 38522 48482 54000 60002 333 21016 43008 55/// 2//// 92842
AAXX 11064 16084 11640 60302 10048 20030 30014 40185 54000 60002 71022 84530 333 20032 30/// 55010 20271 84640 83356
AAXX 11064 16088 11640 63501 10058 20058 30069 40189 53002 60002 71022 83230 333 20055 30/// 55/// 2//// 83640 84356
AAXX 11064 16110 11596 70402 10098 20087 30173 40177 50000 69922 71022 886// 333 20094 30/// 55000 21377 87720 555 0////
AAXX 11064 16134 11/04 92310 10006 21004 37808 48487 53003 60002 74544 333 20002 34/// 55000 2//// 89/01 95090 95190
AAXX 11064 16153 12598 50304 10102 20041 39912 40178 56004 60002 82530 333 20099 30/// 55026 2//// 82623 83359 555 0////
AAXX 11064 16158 NIL
AAXX 11064 16206 11565 71606 10100 20076 30170 40179 54000 60062 76066 87800 333 20080 32/// 55/// 2//// 83820 84640
AAXX 11064 16219 NIL
AAXX 11064 16252 12465 80000 10110 20089 39256 42812 54000 60002 8657/ 333 20110 30/// 55/// 2//// 86613 83357
AAXX 11064 16280 12597 42407 10150 20134 39959 40178 57002 60002 84200 333 20148 30/// 55010 2//// 84820 555 0////
AAXX 11064 16310 NIL
AAXX 11064 16320 11315 42208 10112 20081 30191 40203 56003 60002 71000 84600 333 20102 31010 55053 20674 55300 82708 84612 555 0////
AAXX 11064 16325 12997 53105 10106 20078 30177 40191 56004 60002 85010 333 20106 30/// 55/// 2//// 85459 98060 555 0100/
AAXX 11064 16360 12597 42007 10154 20138 30071 40205 55002 60002 81201 333 20150 30/// 55043 2//// 81825 555 0215/
AAXX 11064 16400 13998 72110 10146 20109 39921 40209 53002 60002 85035 333 20146 30/// 55024 2//// 55300 85359 555 0325/
AAXX 11064 16420 12998 80000 10158 20133 30141 40206 55005 60002 80007 333 20152 30/// 55055 2//// 555 0100/
AAXX 11064 16429 12564 81405 10102 20097 30194 40205 55000 60002 8157/ 333 20098 31/// 55037 2//// 55300 81620 83358 87462
AAXX 11064 16470 12560 71707 10144 20112 39976 40213 53003 60002 82571 333 20138 30/// 55045 2//// 55300 22/// 82620 87350 95000
AAXX 11064 16480 12497 52506 10172 20156 30145 40206 55007 60002 81231 333 20166 30/// 55057 2//// 55300 81815 83358 555 0200/
AAXX 11064 16522 12498 72007 10160 20144 39934 40175 56005 60002 83235 333 20158 30/// 55037 2//// 55300 83815 555 0////
AAXX 11064 16539 NIL
AAXX 11064 16550 12898 70106 10138 20113 39995 40174 54000 60002 87070 333 20128 30/// 55040 2//// 83358 84459 555 0100/
AAXX 11061 14528 12670 62301 10104 20071 39896 40192 52016 60013 86500 333 10149 20092 31008 55003 70012 86640
AAXX 11061 14537 11670 72901 10076 20068 39997 40185 53005 69973 72162 87500 333 10158 20059 32004 55000 70007 87643
AAXX 11061 14544 12670 70000 10047 20029 39537 40212 56002 69933 87500 333 10118 20047 31002 55000 70004 87646
AAXX 11061 14557 12965 73601 10083 20067 39837 40206 54000 60002 87070 333 10169 20061 31004 55033 70000 85360 87461
AAXX 11061 14640 12560 61101 10049 20049 39353 48504 53001 60013 85301 333 10105 20049 31000 55004 70013 85923
AAXX 11061 11812 36/// /3403 11008 21031 39499 42797 52008 333 21010 3////
AAXX 11061 11813 12682 73302 10021 21024 39859 40217 52007 60002 86540 333 20013 31102 79999 86635
AAXX 11061 11816 12775 71501 10018 21004 30048 40216 52007 69902 86540 333 20017 31001 70001 86650
AAXX 11061 11819 16/// /2801 11010 21025 39996 40220 52012 69912 333 21018 3/107
AAXX 11061 11826 11958 50000 11040 21047 30010 40220 52011 60002 71011 82046 333 21040 34109 79999 82360 85270
AAXX 11061 11841 11/04 99901 11029 21034 39830 40222 52011 69902 74544 333 21029 34104 79999 89/01
AAXX 11061 11855 12765 53101 11021 21028 30048 40221 52012 60002 81541 333 21027 34106 79999 81656 84360
AAXX 11061 11856 36/// /3501 11011 21023 39889 40219 52012 333 21011 3/106
AAXX 11061 11858 12681 31902 10000 21011 30062 40219 52012 69912 81541 333 20000 34104 70002 81640
AAXX 11061 11867 11001 30000 11040 21051 39893 40225 53012 60002 74411 83600 333 21040 34106 70001 83701 93501
AAXX 11061 11880 11625 79901 11024 21027 30041 40220 52013 69902 71022 87500 333 21024 34105 70002 87643
AAXX 11061 11900 16/// /0000 11028 21036 39876 40225 52014 60002 333 21029 3//// 79999
AAXX 11061 11903 11970 19901 11041 21046 39825 40224 52013 60002 70244 80002 333 21041 34106 70000 81070
AAXX 11061 11916 12588 33606 11121 21140 37922 48452 53024 60002 81041 333 21121 3//// 48020 70008 81326 83066 93598
AAXX 11061 11918 12986 19901 11052 21067 39370 42795 53013 69932 80001 333 21052 3/110 44003 70005 81070
AAXX 11061 11927 11959 59901 11031 21041 39942 40215 52016 69902 71022 83041 333 21031 34106 79999 83360 85070
AAXX 11061 11930 12989 33404 11140 21234 37304 47966 52005 60002 80002 333 21166 3//// 48041 70076 83060 444 17063
AAXX 11061 11933 12481 39901 11086 21099 38649 48460 53015 69912 81502 333 21110 3/118 48032 70003 81616 83068
AAXX 11061 11934 12981 22703 11056 21077 39365 42793 52016 60002 80002 333 21067 3/109 41998 79999 82070
AAXX 11061 11938 12980 32202 11068 21079 39118 42792 52016 60002 80002 333 21079 3/111 44010 70003 83073
AAXX 11061 11952 16/// /9901 11045 21066 39358 42795 52017 60002 333 21046 3/107 70000
AAXX 11061 11958 36/// /2703 11064 21076 38736 48463 52012 333 21065 3////
AAXX 11061 11968 11109 79901 11032 21042 39920 40213 52015 60002 74222 82609 333 21037 34106 70000 82702 85170
AAXX 11061 11976 11/01 90000 11016 21020 39941 40215 52017 60002 74711 333 21020 34106 70001 89/01
AAXX 11061 11978 12962 32201 11032 21036 30074 40210 52019 60002 81041 333 21038 34108 70006 81360 83070
AAXX 11061 11993 11/01 92601 11020 21020 39990 40215 52016 60002 74922 333 21020 34102 70019 89/00 93501
AAXX 11064 85201 32170 60805 10060 20035 36286 57008 84632 333 56200 58000 81704 83615 85070
AAXX 11064 85244 32965 73007 10247 20224 39635 40061 56013 80006 333 56009 59021 87070
AAXX 11064 85223 32584 51504 10176 20080 37491 47121 57004 82531 333 56000 59010 82627 85070
AAXX 11064 91413 11469 71110 10305 20253 30063 40088 57012 69931 70282 83271 333 56299 70003 555 91106
BBXX 44008 11061 99405 70692 46/// /3509 10055 21014 40283 51022 90550 22200 00126 333 91211 555 11091 22095 30508 43513 60549 348088 351090 358096 353097 351102 352104
AAXX 11064 61970 16/// ///// 10299 20250 40124 60004 333 20250 55/// 58011 555 60005
AAXX 11064 61972 16/// /0506 10288 20225 40120 60004 333 20230 55/// 59001 90710 91109 555 60005
AAXX 11064 61980 12562 20918 10295 20204 40130 69904 82800 333 022// 20238 55069 58012 81830 90710 91124 92427 555 69905
AAXX 11064 67005 11459 41205 10294 20234 40123 60004 71511 83302 333 02300 20244 55075 58010 81916 83822 90710 91108 555 60005
AAXX 11064 96315 31460 72610 10301 20247 40066 71522 84963 333 83816 81917 85080
AAXX 11064 96323 NIL
BBXX 44060 11061 99413 70721 46/// ///07 11001 40322 51014 90600 22200 00097 333 91209 555 11077 22082
BBXX 44039 11061 99411 70727 46/// /3307 10017 21097 40335 90545 22200 00108 10301 70005 333 91210
AAXX 11061 01001 11570 81406 10011 21038 30038 40050 57011 60002 70222 885// 333 21005 42999 70000 91109
AAXX 11064 17600 12580 10409 10106 20045 30269 40279 53012 60002 81501 333 10107 20087 30007 50371 55088 70000 81620 92438
AAXX 11064 17601 12682 13304 10078 20013 30246 40278 52013 60002 81502 90550 333 20069 34102 4//// 70008 81640
AAXX 11064 17607 11982 12101 10056 20017 30087 40288 52/// 60004 701// 80002 333 20030 70000 81075
AAXX 11064 17609 12680 13206 10102 20033 30277 40281 53012 60002 81501 333 10114 20066 31004 50231 55091 70000 81640
AAXX 11061 01160 41989 80402 10007 21021 39943 49960 57005 70222 8801/ 333 20004 91109
AAXX 11061 01241 11X20 90603 10007 21003 39960 49971 53014 60052 78582 333 21010 40998 70053 91110
BBXX 46239 11061 99363 71221 46/// ///// 1//// 90551 22200 00132 11705 20801 330// 41705 70024
AAXX 11061 11603 01575 11502 11040 21062 39702 40206 52006 69902 703// 81500 333 21048 3/108 47997 60005 79999 81620
AAXX 11064 78948 12586 10000 10233 20224 30096 40104 60001 70200 81100 333 00200 10303 20223 59005 81821
AAXX 11061 89061 379// 00706 10032 21012 39658 49665 57011 73044 333 91011 91118
AAXX 11061 89061 379// 00706 10032 21012 39658 49665 57011 73044 333 91011 91118
AAXX 11064 48601 11560 72508 10290 20245 30094 40098 6///1 70522 83232 333 83820 84364 87077
AAXX 11064 48615 11330 82204 10243 20235 30097 40103 60091 76166 8452/ 333 82709 83620 88468
AAXX 11064 48620 11462 72104 10299 20236 30087 40096 60001 71522 86953 333 81710 81917 83820 86078
AAXX 11064 48647 11475 70407 10304 20231 30072 40097 60001 70322 8295/ 333 81917 87364
AAXX 11064 48650 11462 70612 10309 20232 30075 40093 60001 71522 84972 333 81917 83818 86364
AAXX 11064 48657 11456 80802 10256 20246 30083 40101 60241 76166 85727 333 82710 83624 88276
AAXX 11064 48665 11466 80409 10261 20241 30096 40106 60031 72582 84948 333 81710 81917 83364 87276
AAXX 11064 96413 11550 70408 10268 20260 30056 40082 60181 78082 85141 333 85820 85080
AAXX 11064 96421 11580 72504 10322 20252 30038 40073 60001 70122 85241 333 85820 84080
AAXX 11064 96441 11480 72805 10311 20256 30041 40068 60031 72582 82241 333 82816 87080
AAXX 11064 96449 12480 72509 10303 20256 30047 40066 60001 83131 333 83814 85080
AAXX 11064 96465 12478 72507 10304 20250 30030 40063 60001 82832 333 82813 83364 87079
AAXX 11064 96471 11472 72507 10307 20255 30060 40063 60001 70522 83858 333 82815 85363 87277
AAXX 11064 96481 12462 61707 10313 20259 30045 40064 69921 82841 333 82817 86080
AAXX 11064 96491 11465 71005 10310 20266 30043 40054 60001 70522 83831 333 83816 87080
AAXX 11061 06206 45581 72210 10081 20027 30043 40096 58010 8//// 333 20058 82/22 85/59 87/62 91012 91112 91210
AAXX 11061 06207 47580 42411 10066 20008 30050 40104 57005 78000 8//// 333 20047 81/25 83/31 91013 91113 91211
AAXX 11061 06239 47582 83612 10081 20023 3//// 4//// 5//// 70280 8//// 333 20052 82/22 83/30 86/37 91013 91114 91212
AAXX 11061 06252 46/// /2410 10082 20038 30056 40102 58012 222// 00092 10604 333 20063 91011 91112 91210
AAXX 11061 06260 15669 72004 10018 21010 30143 40145 55003 60002 8//// 333 20017 3/001 70002 87/45 87/63 91005 91106 91204
AAXX 11061 06270 15564 72004 10030 20020 30122 40122 55003 60002 8//// 333 20015 3/001 70014 81/27 85/42 87/69 91006 91107 91205
AAXX 11061 06290 15965 32004 10005 21013 30109 40150 55002 60002 8//// 333 20004 3/100 70000 83/64 91006 91107 91204
AAXX 11061 06201 47434 72209 10074 20048 30017 40070 58019 74185 8//// 333 20054 83/12 84/14 86/59 91014 91114 91210
AAXX 11061 06203 45580 7//09 10084 20028 30071 40122 56011 8//// 333 20067 81/24 84/37 86/42 91011 91112 91210
AAXX 11061 06204 45583 82310 10081 20025 30055 40106 58010 8//// 333 20066 81/24 83/42 85/58 91013 91113 91211
AAXX 11061 06205 47479 82112 10077 20035 39995 40054 58014 70285 8//// 333 20048 81/17 87/56 88/59 91015 91115 91212
AAXX 11061 06208 45665 82108 10050 20029 30067 40117 56004 8//// 333 20042 81/46 88/62 91011 91111 91209
AAXX 11061 06211 45878 82111 10077 20038 30030 40086 58015 8//// 333 20069 82/57 88/60 91013 91114 91211
AAXX 11061 06212 45584 72410 1//// 2//// 30051 40114 56009 8//// 333 2//// 82/24 83/28 87/38 91012 91112 91211
AAXX 11061 06235 15682 82306 10071 20024 30121 40121 56006 60002 8//// 333 20056 3/005 70000 83/34 87/39 88/45 91010 91111 91208
AAXX 11061 06240 15677 82005 10036 20013 30142 40137 56004 60002 8//// 333 20009 3/000 79999 88/43 91007 91107 91205
AAXX 11061 06251 15578 72206 10058 20039 30115 40116 56005 60002 8//// 333 20046 3/004 70004 81/26 87/36 91008 91111 91208
AAXX 11061 06258 46/// /2108 333 91010 91112 91210
AAXX 11061 06269 15666 82006 10023 20008 30145 40139 55003 60002 8//// 333 20012 3/000 70001 88/43 91007 91107 91206
AAXX 11061 06280 17662 82105 10018 20008 30126 40130 55000 60002 70285 8//// 333 20011 3/000 70004 88/48 91006 91108 91206
AAXX 11061 06310 15972 82108 10041 20024 30133 40143 56009 60002 8//// 333 20031 3/002 70000 81/62 88/66 91010 91110 91208
AAXX 11061 06344 15670 81905 10033 20006 30147 40140 56007 60002 8//// 333 20015 3/100 70004 82/36 88/43 91006 91107 91205
AAXX 11061 06370 15960 31803 10000 21012 30129 40155 56006 60002 8//// 333 21001 3/101 70001 82/70 83/75 91004 91105 91204
AAXX 11061 06380 15669 52005 10000 21012 30027 40171 56007 60002 8//// 333 21008 3/101 70000 85/41 85/70 91006 91107 91205
AAXX 11064 91574 46/// ///// 29075 30450 40456 53067
AAXX 11064 91570 NIL
AAXX 11064 91598 NIL
AAXX 11064 91573 06/// /0506 10285 20236 39990 40085 56006 60001 333 59012 60007
AAXX 11064 91577 06/// /1907 10283 20225 30064 40084 56006 60001 333 59011 60007
AAXX 11064 91579 06/// /0606 10281 20239 30084 40092 55005 60001 333 59002 60007
AAXX 11064 91582 04470 /0806 10276 20236 30060 40094 56005 60002 700// 333 10311 20246 3/024 55/// 60007 70000 90710 91110 555 60005
AAXX 11064 91583 06/// /1004 10277 20241 30074 40089 55004 60001 333 59006 60007
AAXX 11064 91590 04567 /0000 10291 20226 30044 40086 56011 60032 700// 333 10324 20226 55032 60037 70026 90710 91109 555 60005
AAXX 11064 91592 06/// /2504 10305 20232 30002 40085 56012 60001 333 59013 60007
AAXX 11064 91596 06/// /0210 10276 20228 39989 40096 55006 60001 333 59007 60007
AAXX 11064 91587 NIL
AAXX 11061 33135 11396 82404 10003 21005 39949 40131 53004 69902 71082 886// 333 20003 88707
AAXX 11061 33317 31996 02402 11023 21029 39836 40184 52017 71011 333 21023
AAXX 11061 33345 32598 53002 10007 21010 39948 40157 53019 82932 333 20005
AAXX 11061 33393 11947 22704 11012 21021 39799 40202 52014 69902 71071 82030 333 21012
AAXX 11061 33506 NIL
AAXX 11061 33587 NIL
AAXX 11061 33631 31/92 90000 10002 20002 30064 40212 52019 74544 333 21002
AAXX 11061 33663 11597 63401 10022 20014 30088 40186 52016 60022 70282 86300 333 20020 86926
AAXX 11061 33658 11797 72903 10022 20000 39901 40206 52020 60032 70282 87500 333 20012 87650
AAXX 11061 33711 11396 83304 10017 20009 39946 40160 53018 69962 78082 883// 333 20015 88706
AAXX 11061 33791 32497 82804 10049 20039 39997 40149 52009 886// 333 20049 88718
AAXX 11061 33837 32972 62801 10040 20009 30107 40159 53015 82031 333 20040
AAXX 11061 33924 NIL
AAXX 11061 33946 32497 22107 10068 20047 39971 40192 55002 81640 333 20041
AAXX 11061 34300 11325 82205 10048 20036 39937 40129 57008 60052 78082 883// 333 20033 86709
AAXX 11061 34504 12297 82206 10058 20051 39958 40136 57007 69902 886// 333 20046 88706
AAXX 11061 34519 11460 61806 10044 20022 39897 40173 57014 69942 70262 86600 333 20012 86712
AAXX 11061 34601 32360 72106 10060 20053 30017 40153 57011 87500 333 20051 87609
BBXX 44040 11061 99410 70736 46/// /3305 10014 21096 40337 90545 22200 1//00 70001 333 91207 555 11051 22062
AAXX 11064 65201 31950 60103 10215 20203 30068 40124 70522 80008 333 20210 56000 58008 86280 91104
AAXX 11061 06407 12670 72003 10013 21004 30142 40148 56011 60002 8113/ 333 21015 30102 81835 86365 91106 91204
AAXX 11061 06447 NIL
AAXX 11061 45007 12962 13306 10152 21015 30211 40220 56038 60001 80001 333 59010 81080
AAXX 11061 01033 46/// ///// 10004 21006 39923 49954 55005 333 20001 91122
AAXX 11061 01406 46/// /1405 10042 20032 39978 49996 58003 333 20037 91108
AAXX 11061 01442 11989 31603 11007 21015 39767 40028 52011 60002 70300 81045 333 21012 70013 91107
AAXX 11061 45007 12962 13306 10152 21015 30211 40220 56038 60001 80001 333 59010 81080
AAXX 11064 89532 41/15 80422 11015 21026 39787 49814 53007 77177 885// 333 55030 22750 92912
AAXX 11061 01344 16/// ///// 11083 21099 60002 333 21108 4/047 70005
AAXX 11061 01471 11989 43101 11095 21107 60002 70310 80005 333 21096 70000 91105
AAXX 11061 01210 11587 31305 10026 20007 39966 49993 53001 60044 70281 81260 333 20012 41002 70035 91106
AAXX 11061 01378 16/// /3602 11087 21096 39704 40006 53014 60002 333 21100 70000 91104
AAXX 11061 01422 16/// /1304 10038 20020 60022 333 20026 70023 91108
AAXX 11061 01477 16/// /2901 11096 21104 69932 333 21097 4/020 70003 91104
AAXX 11061 01150 16/// /1303 11109 21139 60002 333 21125 70002 91107
AAXX 11061 01232 16/// /0101 11033 21035 39919 40000 52006 69962 333 21033 4/026 70019 91103
AAXX 11061 01253 16/// /1701 11015 21033 69962 333 21034 4/032 70009 91105
AAXX 11064 63980 11483 60705 10287 20244 40100 60024 70181 85902 333 20264 50510 55093 59001 81915 85817 943// 911//
AAXX 11064 91203 11474 80809 10311 20274 30100 40105 5//// 60011 72522 83976 333 56299 70013 83917 83368 88080 555 91106
AAXX 11064 16158 11012 51503 10100 20092 30171 40178 54000 60002 71042 85100 333 20100 32/// 55008 2//// 82701 83850
AAXX 11061 11010 12458 81101 10025 20024 39824 40210 57001 69902 333 20020 32001 81710 83617 87645
AAXX 11061 11012 11758 82002 10022 20013 39729 40208 57001 69962 75022 8272/ 333 10035 20021 3/002 55300
AAXX 11061 11022 16/// /3302 11003 21033 39813 40212 53005 60002 333 10036 21013 3/104 55300
AAXX 11061 11035 12580 72802 10039 20009 39953 40210 52004 69902 878// 333 10058 20027 81827 86640
AAXX 11061 11036 32570 71602 10020 20006 39987 40216 52005 333 20019 31001 81824 87643
AAXX 11061 11101 11260 81802 10043 20040 39664 40197 56006 60032 70265 887// 333 10058 20042 88706
AAXX 11061 11120 12458 81202 10025 20016 39490 40208 52003 69902 333 20023 34100 81710 83713 87717
AAXX 11061 11126 16/// /3201 11024 21045 37714 48474 54000 69902 333 11010 21033 55300
AAXX 11061 11130 11540 82502 10020 20016 39608 40208 55001 69942 70262 887// 333 10027 20019 88712 555 10047 6990/
AAXX 11061 11146 32986 52505 11083 21113 36918 47023 52003 80002 333 11068 21083 48115 55300 85070 91116
AAXX 11061 11150 11160 79901 10016 20011 39658 40211 55001 60012 70162 333 20008 31001 81703 83643 86657
AAXX 11061 11155 17580 82907 10000 21013 38346 48474 55001 60012 7//4/ 875// 333 10000 21037 3/104 44032 55300 93102 444 77112
AAXX 11061 11157 11256 82901 11005 21009 39426 40216 58003 60012 70272 868// 333 21013 3/101 43006 83705 86618 93197
AAXX 11061 11172 NIL
AAXX 11061 11190 12662 70000 10039 20002 39978 40216 53011 69902 875// 333 10065 20039 3/002 55300 91114
AAXX 11061 11204 32980 12801 11049 21055 39414 40242 52010 80001 333 11011 21052 81080 555 10046 6000/
AAXX 11061 11212 31/08 32306 11032 21036 37818 48491 50004 74140 81532 333 21032 42002 816// 92611 444 16189 16070
AAXX 11061 11231 32260 70000 11023 21027 39639 40232 52012 333 21041 31108 81704 87717
AAXX 11061 11240 01556 89901 10009 20001 39773 40223 52007 69902 72022 333 21021 34105 69905 87624
AAXX 11061 11244 16/// /0000 10025 20013 39885 40221 53007 60002 333 10025 21005 55300
AAXX 11061 11389 12550 82003 10030 20012 39880 40212 55000 69912 885// 333 10038 20030 3/002 55300
AAXX 11064 16310 12697 31210 10140 20102 39970 40191 56011 60002 83500 333 20138 30/// 55000 2//// 55300 83640 555 0100/
AAXX 11064 43466 22470 42904 10298 20237 30088 40100 84901 333 58009 60007 79999 82818 82920
AAXX 11061 76040 32902 03402 10090 20002 30154 40168 57003 90540 333 10218 20050 30/// 55095 59054 98602
AAXX 11061 76122 32935 00000 10002 21021 38564 40211 5//// 90550 333 10150 21022 30/// 55074 58///
AAXX 11061 76342 11430 80702 10066 20058 39588 40326 52007 60021 75055 887// 90550 333 10090 20066 32/// 55000 20135 561// 58009 88710
AAXX 11061 76373 32950 00000 10048 21018 38214 40167 52009 90550 333 10200 20030 30/// 55035 20846 59002
AAXX 11061 76382 32660 40501 10125 20095 38940 40182 52017 84080 90548 333 10200 20114 30/// 55032 2//// 56070 58054 84354
AAXX 11061 76393 01105 80301 10086 20078 39685 40281 54000 60031 70555 887// 90550 333 10128 20086 32/// 569// 58033 60037 88403
AAXX 11061 76402 32550 60000 10172 20160 30113 40169 52004 82607 90545 333 10265 20125 30/// 55084 56706 59008 82728
AAXX 11061 76423 32960 00000 10106 20020 38168 40130 52008 90555 333 10235 20074 30/// 55054 20846 59004
AAXX 11061 76458 32960 33203 10185 20145 30146 40151 52004 80007 90540 333 10262 20125 30/// 55093 56009 59007 83275
AAXX 11061 76491 11456 83601 10123 20121 39875 40274 54/// 69981 76061 887// 90550 333 10170 20080 32/// 55000 568// 58039 88713
AAXX 11061 76539 32958 00901 10097 20078 38196 40200 52020 90550 333 10270 20080 30/// 55055 58008
AAXX 11061 76548 01360 80103 10178 20172 30224 40234 58004 69961 75155 8247/ 90540 333 10232 20176 31/// 55000 56860 58008 69967 82609 86456
AAXX 11061 76556 32960 00000 10166 20147 39126 40128 52010 90535 333 10278 20122 30/// 55096 59006
AAXX 11061 76571 32910 00000 10134 20071 38182 40138 52009 90540 333 10236 20060 30/// 55086 58001
AAXX 11061 76577 32960 00000 10118 20100 38057 40129 51002 90540 333 10250 20099 30/// 55068 59003
AAXX 11061 76581 32560 71702 10156 20139 39097 40198 57001 85230 90550 333 10220 20133 30/// 55009 56220 59023 85830
AAXX 11061 76625 32960 00903 10111 20064 38163 40132 52006 90530 333 10242 20096 30/// 55060 58004
AAXX 11061 76654 31956 03602 10224 20197 30149 40153 52002 70544 90554 333 10298 20210 30/// 55071 21078 58001
AAXX 11061 76662 32960 00602 10138 20071 38472 40120 52007 90545 333 10275 20060 30/// 55088 21296 59007
AAXX 11061 76675 32960 02901 10047 20014 37394 40120 52016 90550 333 10215 21005 30/// 55095 2//// 59003
AAXX 11061 76680 31958 03202 10098 20069 37774 40138 54000 70101 90550 333 10227 20091 30/// 55087 58000
AAXX 11061 76683 32965 03602 10094 20059 37848 40164 58003 90555 333 10232 20036 30/// 50471 55098 21878 58001
AAXX 11061 76685 32950 00000 10098 20063 37890 40145 52006 90550 333 10225 20066 30/// 55102 59007
AAXX 11061 76743 31930 12001 10205 20178 30193 40201 58002 70200 81050 90545 333 10265 20205 30/// 55066 56/0/ 58001 81356
AAXX 11061 76750 32558 23302 10192 20171 30171 40181 52001 82100 90550 333 10304 20178 30/// 55073 56300 59003 82820
AAXX 11061 76775 31960 03601 10137 20082 38555 40171 52011 70200 90530 333 10284 20092 30/// 55074 58000
AAXX 11061 76805 32960 03301 10242 20239 30136 40139 52006 90540 333 10323 20220 30/// 55093 2//// 59006
AAXX 11061 76843 32965 13602 10183 20145 39528 40171 50003 81030 90545 333 10260 20164 30/// 55068 56/9/ 58002
AAXX 11061 76845 32830 30000 10074 20070 37970 40205 58003 83030 90545 333 10186 20105 30/// 55057 56090 58001 83358
AAXX 11061 76848 32950 10401 10120 20074 38408 40136 50002 81040 90550 333 10220 20121 30/// 55063 56090 58008 81360
AAXX 11061 76855 32980 03601 10234 20217 30074 40123 52009 90535 333 10327 20206 30/// 55101 58/// 92000
AAXX 11061 76243 11360 80000 10070 20066 30009 40317 52001 60031 70252 887// 90530 333 10126 20060 31/// 55000 568// 58029 88708
AAXX 11061 76311 32960 00000 10139 20113 39883 40157 52009 90545 333 10288 20132 30/// 55058 59009
AAXX 11061 76390 01405 83202 10030 20030 38265 40247 54000 69921 72044 887// 90530 333 10090 20020 31/// 55000 20134 568// 59006 69927 88714
AAXX 11061 76412 32960 02201 10146 20091 30145 40191 52017 90545 333 10264 20118 30/// 55067 58018
AAXX 11061 15015 01595 73201 10019 20017 39581 42787 53013 60102 7102/ 87500 333 10051 20019 31001 4//// 6///7 70134 91002 91103
AAXX 11061 15020 01597 82802 10018 20018 39994 40197 51020 60012 72162 8557/ 333 10098 20015 31000 60017 70014 91003 91104
AAXX 11061 15090 01497 82902 10033 20024 30103 40198 52035 69902 76122 8557/ 333 10045 20027 31001 55300 10057 20003 3//// 69907 79999 91003 91104
AAXX 11061 15108 01/91 92702 11026 21026 38061 48486 53016 60042 74574 333 11018 21037 3//// 47006 60047 70037 92727 92800 93539
AAXX 11061 15120 01596 82402 10028 20026 39697 40204 51015 60062 76876 8372/ 333 10066 20028 31003 55300 10049 2//// 3//// 60057 70060 91003 91103 96010
AAXX 11061 15150 02497 83404 10033 20017 39977 40194 52047 60002 8367/ 333 10099 20031 30100 60007 70000 91007 91108
AAXX 11061 15170 01997 82503 10052 20037 39388 42783 52013 69922 70262 8807/ 333 10071 20043 31001 69927 70002 91005 91107
AAXX 11061 15200 02697 80101 10053 20035 30057 40204 52010 60002 885// 333 10088 20053 31005 60007 70000 91001 91103
AAXX 11061 15230 01496 80201 10060 20060 39903 40200 52013 60022 72162 886// 333 10082 20050 31004 55300 10030 20001 3//// 60027 70024 91002 91105 96010
AAXX 11061 15260 02597 82102 10044 20038 39655 40197 52017 69912 8457/ 333 10058 20016 31101 60007 70001 91002 91102
AAXX 11061 15280 01/93 62508 11044 21055 37476 47015 51002 60002 74144 83530 333 11041 21047 3//// 48035 60007 70000 92815
AAXX 11061 15292 01597 81701 10076 20076 39907 40203 52014 69952 70282 883// 333 10088 20072 31006 60007 70010 91001 91103
AAXX 11061 15310 02997 72104 10043 20007 30080 40168 53008 60002 84071 333 10060 20043 31002 55300 10105 20003 3//// 60007 70000 91008 91108
AAXX 11061 15335 02997 62403 10078 20014 30155 40161 52008 60002 86030 333 10098 20060 31/// 60007 70000 91006 91109
AAXX 11061 15346 02997 53502 10014 21001 39899 40197 53006 60002 85070 333 10033 20002 30101 60007 70000 91003 91105
AAXX 11061 15350 02597 61802 10008 21003 30057 40180 53011 60002 83570 333 10063 20006 31101 60007 70000 91003 91103
AAXX 11061 15360 02997 32204 10070 20031 30143 40158 53003 60002 83030 222// 06058 20201 333 10089 20066 3//// 60007 70000 91005 91105 92417
AAXX 11061 15410 02997 60000 10026 20013 30103 40201 52007 60002 86070 333 10037 20021 30001 60007 70000 91001 91101
AAXX 11061 15420 02997 62403 10048 20003 30068 40182 53004 60002 86070 333 10061 20038 31001 55300 0//// 20000 3//// 60007 70000 91005 91106
AAXX 11061 15450 01596 62301 10034 20009 39954 40194 53004 60002 71022 83540 333 10046 20021 31000 55300 10108 20004 3//// 60007 70000 91002 91103
AAXX 11061 15460 02997 72404 10096 20037 30155 40180 52005 60002 87070 333 10097 20033 31001 60007 70000 91006 91108
AAXX 11061 15470 01996 72302 10036 20020 30062 40191 52004 60002 7102/ 87070 333 10043 20023 31001 60007 70000 91005 91105
AAXX 11061 15480 02497 62703 10103 20031 30166 40183 53004 60002 86600 222// 06070 2//// 333 10103 20082 30002 60007 70000 91006 91106 92427
AAXX 11061 26135 21381 82403 10028 20020 39884 49957 52016 70222 886// 333 10032 20018 60007 88707 555 12002 20018 32001 50021 52001
AAXX 11061 26141 01261 82305 10016 20011 39804 49951 52019 60042 78087 889// 333 10018 21001 43003 60017 88907 91110 555 1/100 21001 3/100 50008 52100
AAXX 11061 26242 01481 82104 10020 21002 39889 49975 53013 69932 70282 875// 333 10020 20010 41997 60007 87611 91111 555 1/001 20010 3/000 50014 52100
AAXX 11061 26038 NIL
AAXX 11061 26045 NIL
AAXX 11061 26058 NIL
AAXX 11061 26115 NIL
AAXX 11061 26231 NIL
AAXX 11061 26247 NIL
AAXX 11064 91203 11474 80809 10311 20274 30100 40105 5//// 60011 72522 83976 333 56299 70013 83917 83368 88080 555 91106
AAXX 11061 76040 32902 03402 10090 20002 30154 40168 57003 90540 33310218 20050 30/// 55095 59054 98602
AAXX 11061 76122 32935 00000 10002 21021 38564 40211 5//// 90550 33310150 21022 30/// 55074 58///
AAXX 11061 76342 11430 80702 10066 20058 39588 40326 52007 60021 75055887// 90550 333 10090 20066 32/// 55000 20135 561// 5800988710
AAXX 11061 76373 32950 00000 10048 21018 38214 40167 52009 90550 33310200 20030 30/// 55035 20846 59002
AAXX 11061 76382 32660 40501 10125 20095 38940 40182 52017 84080 90548333 10200 20114 30/// 55032 2//// 56070 58054 84354
AAXX 11061 76393 01105 80301 10086 20078 39685 40281 54000 60031 70555887// 90550 333 10128 20086 32/// 569// 58033 60037 88403
AAXX 11061 76402 32550 60000 10172 20160 30113 40169 52004 82607 90545333 10265 20125 30/// 55084 56706 59008 82728
AAXX 11061 76423 32960 00000 10106 20020 38168 40130 52008 90555 33310235 20074 30/// 55054 20846 59004
AAXX 11061 76458 32960 33203 10185 20145 30146 40151 52004 80007 90540333 10262 20125 30/// 55093 56009 59007 83275
AAXX 11061 76491 11456 83601 10123 20121 39875 40274 54/// 69981 76061887// 90550 333 10170 20080 32/// 55000 568// 58039 88713
AAXX 11061 76539 32958 00901 10097 20078 38196 40200 52020 90550 33310270 20080 30/// 55055 58008
AAXX 11061 76548 01360 80103 10178 20172 30224 40234 58004 69961 751558247/ 90540 333 10232 20176 31/// 55000 56860 58008 6996782609 86456
AAXX 11061 76556 32960 00000 10166 20147 39126 40128 52010 90535 33310278 20122 30/// 55096 59006
AAXX 11061 76571 32910 00000 10134 20071 38182 40138 52009 90540 33310236 20060 30/// 55086 58001
AAXX 11061 76577 32960 00000 10118 20100 38057 40129 51002 90540 33310250 20099 30/// 55068 59003
AAXX 11061 76581 32560 71702 10156 20139 39097 40198 57001 85230 90550333 10220 20133 30/// 55009 56220 59023 85830
AAXX 11061 76625 32960 00903 10111 20064 38163 40132 52006 90530 33310242 20096 30/// 55060 58004
AAXX 11061 76654 31956 03602 10224 20197 30149 40153 52002 70544 90554333 10298 20210 30/// 55071 21078 58001
AAXX 11061 76662 32960 00602 10138 20071 38472 40120 52007 90545 33310275 20060 30/// 55088 21296 59007
AAXX 11061 76675 32960 02901 10047 20014 37394 40120 52016 90550 33310215 21005 30/// 55095 2//// 59003
AAXX 11061 76680 31958 03202 10098 20069 37774 40138 54000 70101 90550333 10227 20091 30/// 55087 58000
AAXX 11061 76683 32965 03602 10094 20059 37848 40164 58003 90555 33310232 20036 30/// 50471 55098 21878 58001
AAXX 11061 76685 32950 00000 10098 20063 37890 40145 52006 90550 33310225 20066 30/// 55102 59007
AAXX 11061 76743 31930 12001 10205 20178 30193 40201 58002 70200 8105090545 333 10265 20205 30/// 55066 56/0/ 58001 81356
AAXX 11061 76750 32558 23302 10192 20171 30171 40181 52001 82100 90550333 10304 20178 30/// 55073 56300 59003 82820
AAXX 11061 76775 31960 03601 10137 20082 38555 40171 52011 70200 90530333 10284 20092 30/// 55074 58000
AAXX 11061 76805 32960 03301 10242 20239 30136 40139 52006 90540 33310323 20220 30/// 55093 2//// 59006
AAXX 11061 76843 32965 13602 10183 20145 39528 40171 50003 81030 90545333 10260 20164 30/// 55068 56/9/ 58002
AAXX 11061 76845 32830 30000 10074 20070 37970 40205 58003 83030 90545333 10186 20105 30/// 55057 56090 58001 83358
AAXX 11061 76848 32950 10401 10120 20074 38408 40136 50002 81040 90550333 10220 20121 30/// 55063 56090 58008 81360
AAXX 11061 76855 32980 03601 10234 20217 30074 40123 52009 90535 33310327 20206 30/// 55101 58/// 92000
AAXX 11061 76243 11360 80000 10070 20066 30009 40317 52001 60031 70252887// 90530 333 10126 20060 31/// 55000 568// 58029 88708
AAXX 11061 76311 32960 00000 10139 20113 39883 40157 52009 90545 33310288 20132 30/// 55058 59009
AAXX 11061 76390 01405 83202 10030 20030 38265 40247 54000 69921 72044887// 90530 333 10090 20020 31/// 55000 20134 568// 5900669927 88714
AAXX 11061 76412 32960 02201 10146 20091 30145 40191 52017 90545 33310264 20118 30/// 55067 58018
AAXX 11061 76040 32902 03402 10090 20002 30154 40168 57003 90540 333 10218 20050 30/// 55095 59054 98602
AAXX 11061 76122 32935 00000 10002 21021 38564 40211 5//// 90550 333 10150 21022 30/// 55074 58///
AAXX 11061 76342 11430 80702 10066 20058 39588 40326 52007 60021 75055 887// 90550 333 10090 20066 32/// 55000 20135 561// 58009 88710
AAXX 11061 76373 32950 00000 10048 21018 38214 40167 52009 90550 333 10200 20030 30/// 55035 20846 59002
AAXX 11061 76382 32660 40501 10125 20095 38940 40182 52017 84080 90548 333 10200 20114 30/// 55032 2//// 56070 58054 84354
AAXX 11061 76393 01105 80301 10086 20078 39685 40281 54000 60031 70555 887// 90550 333 10128 20086 32/// 569// 58033 60037 88403
AAXX 11061 76402 32550 60000 10172 20160 30113 40169 52004 82607 90545 333 10265 20125 30/// 55084 56706 59008 82728
AAXX 11061 76423 32960 00000 10106 20020 38168 40130 52008 90555 333 10235 20074 30/// 55054 20846 59004
AAXX 11061 76458 32960 33203 10185 20145 30146 40151 52004 80007 90540 333 10262 20125 30/// 55093 56009 59007 83275
AAXX 11061 76491 11456 83601 10123 20121 39875 40274 54/// 69981 76061 887// 90550 333 10170 20080 32/// 55000 568// 58039 88713
AAXX 11061 76539 32958 00901 10097 20078 38196 40200 52020 90550 333 10270 20080 30/// 55055 58008
AAXX 11061 76548 01360 80103 10178 20172 30224 40234 58004 69961 75155 8247/ 90540 333 10232 20176 31/// 55000 56860 58008 69967 82609 86456
AAXX 11061 76556 32960 00000 10166 20147 39126 40128 52010 90535 333 10278 20122 30/// 55096 59006
AAXX 11061 76571 32910 00000 10134 20071 38182 40138 52009 90540 333 10236 20060 30/// 55086 58001
AAXX 11061 76577 32960 00000 10118 20100 38057 40129 51002 90540 333 10250 20099 30/// 55068 59003
AAXX 11061 76581 32560 71702 10156 20139 39097 40198 57001 85230 90550 333 10220 20133 30/// 55009 56220 59023 85830
AAXX 11061 76625 32960 00903 10111 20064 38163 40132 52006 90530 333 10242 20096 30/// 55060 58004
AAXX 11061 76654 31956 03602 10224 20197 30149 40153 52002 70544 90554 333 10298 20210 30/// 55071 21078 58001
AAXX 11061 76662 32960 00602 10138 20071 38472 40120 52007 90545 333 10275 20060 30/// 55088 21296 59007
AAXX 11061 76675 32960 02901 10047 20014 37394 40120 52016 90550 333 10215 21005 30/// 55095 2//// 59003
AAXX 11061 76680 31958 03202 10098 20069 37774 40138 54000 70101 90550 333 10227 20091 30/// 55087 58000
AAXX 11061 76683 32965 03602 10094 20059 37848 40164 58003 90555 333 10232 20036 30/// 50471 55098 21878 58001
AAXX 11061 76685 32950 00000 10098 20063 37890 40145 52006 90550 333 10225 20066 30/// 55102 59007
AAXX 11061 76743 31930 12001 10205 20178 30193 40201 58002 70200 81050 90545 333 10265 20205 30/// 55066 56/0/ 58001 81356
AAXX 11061 76750 32558 23302 10192 20171 30171 40181 52001 82100 90550 333 10304 20178 30/// 55073 56300 59003 82820
AAXX 11061 76775 31960 03601 10137 20082 38555 40171 52011 70200 90530 333 10284 20092 30/// 55074 58000
AAXX 11061 76805 32960 03301 10242 20239 30136 40139 52006 90540 333 10323 20220 30/// 55093 2//// 59006
AAXX 11061 76843 32965 13602 10183 20145 39528 40171 50003 81030 90545 333 10260 20164 30/// 55068 56/9/ 58002
AAXX 11061 76845 32830 30000 10074 20070 37970 40205 58003 83030 90545 333 10186 20105 30/// 55057 56090 58001 83358
AAXX 11061 76848 32950 10401 10120 20074 38408 40136 50002 81040 90550 333 10220 20121 30/// 55063 56090 58008 81360
AAXX 11061 76855 32980 03601 10234 20217 30074 40123 52009 90535 333 10327 20206 30/// 55101 58/// 92000
AAXX 11061 76243 11360 80000 10070 20066 30009 40317 52001 60031 70252 887// 90530 333 10126 20060 31/// 55000 568// 58029 88708
AAXX 11061 76311 32960 00000 10139 20113 39883 40157 52009 90545 333 10288 20132 30/// 55058 59009
AAXX 11061 76390 01405 83202 10030 20030 38265 40247 54000 69921 72044 887// 90530 333 10090 20020 31/// 55000 20134 568// 59006 69927 88714
AAXX 11061 76412 32960 02201 10146 20091 30145 40191 52017 90545 333 10264 20118 30/// 55067 58018
BBXX VEP717 11064 99467 70487 41/94 92313 10048 2005/ 40113 56050 76164 89/// 22200 06033 20200 334// 40705 80047
BBXX VCXF 11064 99464 70484 41194 81404 10051 2005/ 40116 57063 76162 886// 22200 02038 20501 33323 41004 50802 80051
AAXX 11061 33088 32997 22703 11015 21021 39967 40164 52016 82040 333 21019
AAXX 11061 33177 32960 02102 11008 21020 39924 40168 52013 333 21012
AAXX 11061 33261 11396 82501 10009 20004 39944 40129 53004 69932 72842 889// 333 20008 87707
AAXX 11061 33275 11295 80000 10002 21001 39899 40126 57006 60062 72276 886// 333 20002 43006 88705
AAXX 11061 33301 32997 12305 11021 21027 39888 40179 53016 81030 333 21022
AAXX 11061 33325 31496 22402 10000 21011 39892 40166 52016 71011 82600 333 20000
AAXX 11061 33377 11218 82701 10003 20000 39948 40146 53005 60112 71082 886// 333 20003 43003 88705
AAXX 11061 33415 11996 12704 11010 21022 39786 40195 52016 69902 71081 80001 333 21010
AAXX 11061 33429 11397 42703 11006 21018 39757 40192 52018 69922 70281 82630 333 21006
AAXX 11061 33466 11658 62603 10013 21001 39969 40160 53016 60052 71062 86500 333 20013 86635
AAXX 11061 33526 11660 30000 11010 21020 39857 40208 52018 60032 78102 83500 333 21011
AAXX 11061 33562 11597 22703 10001 21014 39809 40179 52021 69962 70181 82500 333 20000
AAXX 11061 33614 11496 83003 10012 20007 30041 40148 53013 60032 78586 883// 333 20010 88913
AAXX 11061 33761 32998 83503 10023 20001 39946 40173 52026 8805/ 333 20023
AAXX 11061 33902 31596 52303 10065 20044 30081 40147 57002 71022 85500 333 20062
AAXX 11061 33983 32997 51807 10078 20034 30146 40207 57007 83051 333 20061
AAXX 11061 34415 11469 82304 10058 20034 30047 40143 56015 60012 70265 8762/ 333 20023
AAXX 11061 34523 11497 81503 10045 20023 30108 40185 57014 69902 72162 887// 333 20012 88617
AAXX 11061 34712 32563 82005 10038 20036 30110 40197 57011 885// 333 20027 88624
BBXX VCXF 11064 99464 70484 41194 81404 10051 2005/ 40116 57063 76162 886// 22200 02038 20501 33323 41004 50802 80051
AAXX 11061 01028 11580 63303 11034 21077 30023 40043 57002 69902 70222 86500 333 21035 79999 91108
AAXX 11061 01397 16/// /2501 11116 21126 39549 40005 53014 69922 333 21116 70002 91102
AAXX 11061 01367 11989 03104 11143 21162 39571 40040 53013 60002 70200 333 21144 47015 70000 91108
AAXX 11061 10004 46/60 /2412 10080 20038 30101 40101 55001 222// 00096 333 10087 20062 55008 55300 91116 91213
AAXX 11061 10788 07410 80902 10012 20012 39765 40209 53001 69922 72365 333 10025 20003 3/101 55000 55300 20000 30000 69927 70019 81/13 87/37 88/45
BBXX UFTA 11061 99851 71234 12997 00101 11362 21397 40099 52007 69902 555 48045
AAXX 11061 48823 32998 03403 10176 20025 30219 40222 57037 333 59016
AAXX 11061 48820 32998 00202 10178 20021 30220 40228 57038 333 59015
AAXX 11064 07690 02570 63312 10080 20014 30140 40174 53001 60002 86500 333 10105 20080 30007 55066 60007 70000 81628 86650 90710 91115 93100 555 60005
AAXX 11064 91930 36/// ///// 10262 20225 555 69944
AAXX 11064 91943 16/// /0308 10273 20223 30136 40138 51016 69944 333 20254 58014
AAXX 11061 89061 379// 00706 10032 21012 39658 49665 57011 73044 333 91011 91118
AAXX 11064 03894 11586 72012 10086 20024 40136 57019 69902 70282 8587/ 333 20056 31002 81828 85650 87362
AAXX 11064 03301 16117 /2221 10094 20094 39959 40031 57027 60062 90550 333 20065 70060 87/02 90710 91132 91031
AAXX 11064 03305 17325 /2325 10078 20066 39779 40039 56027 60172 762// 90550 333 20051 3/004 70174 88/08 90710 91139 91038
AAXX 11064 03313 16479 /2212 10086 20067 39945 40038 56022 60002 90550 333 20044 3/001 70000 86/19 85/57 90710 91125
AAXX 11064 03316 17684 /1816 10079 20063 30028 40039 58024 69942 723// 90550 333 20052 3/004 70010 87/39 83/50
AAXX 11064 03318 16/// /1712 10069 20062 60042 90550 333 20051 70044
AAXX 11064 03321 16881 /2107 10075 20058 30034 40046 57025 60002 90550 333 20029 3/001 55/// 553// 20000 70000 87/57
AAXX 11064 03330 17257 /2014 10044 20044 39705 40067 56024 60012 722// 90550 333 20011 3/100 4/000 70054 88/03
AAXX 11064 03344 17350 /2219 10047 20036 39722 40040 56023 69902 722// 90550 333 20024 3/002 4//// 70032 83/06 87/65 90710 91132
AAXX 11064 03346 16/// /2221 10057 20040 69922 90550 333 20025 3/001 70004 90710 91129
AAXX 11064 03348 15470 /1914 10061 20045 39948 40056 57023 69922 90550 333 20025 3/001 4/000 55008 55300 20000 70030 82/18 86/56 87/60
AAXX 11064 03355 15577 /1810 10053 20033 30037 40048 56023 69902 90550 333 20017 3/101 4/000 55014 55300 20000 70002 88/25
AAXX 11064 03373 16767 /2112 10052 20037 30000 40070 56020 60002 90550 333 20012 3/000 4/000 70002 88/50
AAXX 11064 03379 16781 /2116 10054 20033 30000 40078 56022 60002 90550 333 20012 3/100 4/000 70002 88/56
AAXX 11064 03382 17870 /2116 10057 20042 30041 40050 56027 69902 723// 90550 333 20024 3/001 4/000 55033 55300 20000 70002 82/57 83/59 86/72 90710 91126 91026
AAXX 11064 03385 46774 /1912 10040 20030 30059 40069 57020 90550 333 20023 87/50
AAXX 11064 03391 12781 82011 10043 20028 30073 40081 56020 60002 885// 90550 333 21001 31102 4//// 70000 88656
AAXX 11064 03392 16668 /2016 10041 20032 30078 40082 56022 60002 90550 333 20005 3/101 70000 81/44 87/62
AAXX 11064 03405 16259 /2231 10097 20097 39928 40042 57027 60022 90550 333 20075 3/007 55/// 553// 20000 70020 84/03 86/12 90710 91140
AAXX 11064 03409 16/// /2311 10079 20066 69982 90550 333 20051 3/004 55007 55300 2//// 70010
AAXX 11064 03410 16159 /2111 10059 20059 39624 40057 56023 60022 90550 333 20031 3/002 55/// 553// 20000 70034 87/02 84/06
AAXX 11064 03469 15783 /2015 10034 20027 30084 40088 56022 60002 90550 333 20007 3/101 55/// 553// 20000 70000 87/56 83/63
AAXX 11064 03488 17682 /2015 10039 20028 30065 40091 57020 69922 723// 90550 333 20013 70004 82/38 86/50 85/60 90710 91125
AAXX 11064 03503 15471 /1810 10086 20073 39987 40063 56027 69902 90550 333 20046 3/003 79999 87/11
AAXX 11064 03507 17260 /2115 10063 20063 39706 40077 56026 60022 751// 90550 333 20012 3/101 4/000 70024 88/04
AAXX 11064 03520 16476 /2305 10067 20057 39958 40079 56024 60002 90550 333 20007 3/102 55/// 553// 20000 70002 87/18
AAXX 11064 03522 15584 /1903 10061 20055 39993 40086 56023 69922 90550 333 20011 3/102 4/001 70004 85/23
AAXX 11064 03529 15583 /1909 10061 20037 30051 40094 57022 69962 90550 333 20034 3/001 70008 81/21 87/56 85/61
AAXX 11064 03544 17783 /1906 10046 20032 39958 40089 57023 60012 723// 90550 333 20012 3/101 55/// 553// 20000 70014 88/56
AAXX 11064 03560 17782 /2010 10047 20029 39996 40101 57019 69902 723// 90550 333 20015 3/000 55/// 553// 20000 70002 84/50 83/58 85/61
AAXX 11064 03604 16461 /2315 10100 20084 30013 40066 56027 69962 90550 333 20075 3/006 70010 87/14 90710 91128 91027
AAXX 11064 03605 16459 /2226 10100 20083 30069 40077 56026 60022 90550 333 20077 70020 82/14 87/23 90710 91135
AAXX 11064 03609 16/// /2028 10085 20077 30034 40086 56024 60022 90550 333 20067 3/005 70024 90710 91134
AAXX 11064 03628 15681 /2110 10069 20039 30027 40099 56023 69902 90550 333 20040 3/001 4/000 55041 55300 20000 70002 81/39 85/50 86/67
AAXX 11064 03647 16664 /2110 10044 20035 39839 40097 56022 69922 90550 333 20010 3/100 55/// 553// 20000 70004 81/31 87/50
AAXX 11064 03658 16781 /1907 10054 20032 30039 40110 56021 60002 90550 333 20004 3/102 4/000 70002 88/56
AAXX 11064 03660 17682 /2309 10044 20031 39861 40111 56020 69902 782// 90550 333 20020 3/103 4/000 70002 81/39 87/57
AAXX 11064 03672 16680 /2004 10040 20018 30073 40114 57021 60002 90550 333 21008 3/103 70002 83/46 86/58 85/61
AAXX 11064 03684 15879 /1906 10030 20011 30006 40115 56017 69922 90550 333 20005 3/103 4/000 70002 81/57 87/66
AAXX 11064 03693 16780 /2008 10051 20034 30120 40122 57016 60002 90550 333 20026 3/001 70000 81/50 87/59
AAXX 11064 03707 15584 /1911 10083 20054 30090 40097 56025 69982 90550 333 20061 3/005 70008 88/29
AAXX 11064 03710 16481 /2008 10047 20046 39681 40103 56021 69982 90550 333 20026 3/100 55/// 553// 20087 70016 87/19
AAXX 11064 03743 16883 /2205 10053 20037 39951 40113 56022 69922 90550 333 20020 3/101 4/000 70004 81/57 87/61
AAXX 11064 03749 16780 /2106 10053 20034 30005 40116 56020 60002 90550 333 20020 3/101 4/000 70002 81/50 87/59
AAXX 11064 03761 15682 /2009 10057 20033 39972 40117 56019 60002 90550 333 20007 3/104 4/000 55049 55300 20000 70002 81/46 87/58
AAXX 11064 03768 16683 /1905 10050 20035 30037 40117 56020 69922 90550 333 20013 3/103 70002 82/49 87/59
AAXX 11064 03769 17757 /0901 11004 21005 30039 40124 56020 69902 721// 90550 333 21024 3/105 4/000 55058 55300 20001 70002 81/50 87/60
AAXX 11064 03770 16/// ///// 10054 20034 60002 90550 333 20023 3/102 70002
AAXX 11064 03781 17784 /1807 10044 20028 39913 40122 56019 69902 723// 90550 333 20016 3/102 55/// 553// 20000 79999 82/50 87/58
AAXX 11064 03797 15783 /1807 10033 20015 30069 40130 56015 60002 90550 333 20008 3/103 4//// 55058 55300 20000 70000 85/50 87/67
AAXX 11064 03823 15583 /1909 10070 20047 39861 40104 56021 69942 90550 333 20046 3/004 55/// 553// 20000 70008 84/21 87/46
AAXX 11064 03839 16/// ///// 10076 20056 60002 90550 333 20046 55/// 553// 20000 70000
AAXX 11064 03857 15682 /2418 10095 20044 30054 40117 56020 69922 90550 333 20078 3/006 70002 82/44 87/56 90710 91127
AAXX 11064 03862 17670 /2102 10040 20031 30104 40117 56021 69922 723// 90550 333 20001 3/102 4/000 55011 55300 20000 70004 82/46 87/58
AAXX 11064 03866 16/// /2319 10096 20061 30095 40120 56019 60002 90550 333 20067 3/005 70000
AAXX 11064 03872 17557 /1304 10045 20044 30116 40121 56019 69962 781// 90550 333 21008 3/103 55/// 553// 20000 70008 86/22
AAXX 11064 03876 16/// /2211 10082 20066 30121 40124 56021 69942 90550 333 21010 70004
AAXX 11064 03895 42584 72011 10079 20023 40139 57017 878// 333 20059 81828 86648
AAXX 11064 03008 16/// /2218 10066 20031 39854 49923 57013 60012 90550 333 20027 70026 90710 91127
AAXX 11064 03010 46/// /2319 10078 20017 49919 56007 333 90710 91128
AAXX 11064 03014 46/// /2422 10065 20034 49914 56017 90550 333 8//// 90710 91129
AAXX 11064 03031 17582 /2108 10034 20008 39624 49949 56012 60082 723// 90550 333 21001 3/101 55/// 553// 20000 70080 85/23 84/56
AAXX 11064 03034 15672 /2213 10068 20039 39924 49937 56011 60032 90550 333 20044 3/004 70034 82/43 83/56
AAXX 11064 03037 15580 /2006 10054 20039 39924 49946 57019 60102 90550 333 20048 3/003 4//// 70112 85/26 83/58
AAXX 11064 03039 46/// /2129 10010 20010 90550 333 21003 90710 91136
AAXX 11064 03041 46/// ///// 11018 21018 90550 333 21021 90710 91136 91020
AAXX 11064 03044 15984 /2107 10033 20014 39838 49937 57014 60022 90550 333 20014 3/001 55/// 553// 20000 70018 82/59
AAXX 11064 03047 16/// /2308 10045 20020 3//// 4//// 5//// 60072 90550 333 20011 3/000 55/// 553// 20000 70074
AAXX 11064 03062 17776 /1910 10034 20015 39943 49948 58010 60052 781// 90550 333 20004 3/100 55/// 553// 20000 70050 88/56
AAXX 11064 03065 46/// /2524 11019 21021 90550 333 21043 90710 91143 91034
AAXX 11064 03068 11575 72104 10039 20023 39946 49954 58007 69922 72582 878// 90550 333 20000 31101 70002 82822 87650
AAXX 11064 03072 46/// ///// 11006 21006 90550 333 21055 91000
AAXX 11064 03080 15684 /0603 10001 21004 39798 49971 56012 69962 90550 333 21022 3/103 70006 82/37 85/50
AAXX 11064 03088 17236 /2509 10041 20041 39814 49977 56011 69922 710// 90550 333 20004 3/101 55/// 553// 20000 70002 83/03 84/10
AAXX 11064 03094 15983 /1812 10034 20012 39947 49952 56013 69942 90550 333 21002 3/101 4/000 70004 84/63
AAXX 11064 03105 17459 /2218 10074 20050 39969 49986 56011 69982 781// 90550 333 20053 3/004 70026 84/18 85/38 90710 91127
AAXX 11064 03132 15769 /2308 10069 20051 39993 40007 58012 60022 90550 333 20062 3/005 70020 81/56 87/63
AAXX 11064 03144 17464 /2208 10064 20049 39935 49978 56012 60032 761// 90550 333 20003 3/101 55/// 553// 20000 70026 81/16 85/28
AAXX 11064 03148 46/// /2315 10025 20020 90550 333 21002
AAXX 11064 03153 15464 /2415 10072 20056 39870 40007 56009 60042 90550 333 20058 3/005 55/// 553// 20000 70040 82/12
AAXX 11064 03155 16470 /2214 10053 20053 39698 49993 55013 60022 90550 333 20021 3/001 70028 86/10 83/19
AAXX 11064 03158 17472 /2206 10048 20047 39856 49993 56015 60062 723// 90550 333 20004 3/101 55/// 553// 20000 70082 86/18
AAXX 11064 03210 16666 /2413 10074 20060 39869 40019 56014 60022 90550 333 20054 3/004 70024 88/39
AAXX 11064 03212 17580 /2605 10085 20053 39919 40016 56016 60082 723// 90550 333 20055 3/003 70086 85/25 85/36
AAXX 11064 03214 17259 /2508 10079 20075 30006 40024 56020 60052 723// 90550 333 20067 3/005 70052 82/03 87/13
AAXX 11064 03220 16679 ///// 10082 20071 39976 40010 56014 60032 90550 333 20044 3/003 70036 87/47
AAXX 11064 03224 17056 /2314 10059 20059 39665 40008 56017 60092 723// 90550 333 20021 3/002 4/000 70090 87/01
AAXX 11064 03225 16423 /2111 10056 20047 39719 40023 56019 60102 90550 333 20028 3/001 55/// 553// 20000 70124 84/14 84/21 87/29
AAXX 11064 03226 17250 /2410 10060 20056 39747 40022 56019 69962 723// 90550 333 20030 3/002 70008 87/03
AAXX 11064 03227 46/// /2334 10017 2//// 90550 333 21012 90710 91144
AAXX 11064 03230 16459 /2308 10065 20062 39750 40004 56020 60022 90550 333 20025 3/001 4/000 70022 85/10 85/31
AAXX 11064 03238 17584 /2409 10068 20047 39834 40006 56019 69922 723// 90550 333 20015 3/101 4/000 70006 84/22
AAXX 11064 03261 16469 /1207 10055 20035 30002 40043 56022 60002 90550 333 20019 3/100 70002 88/16
AAXX 11064 03265 15481 /1508 10046 20034 30012 40043 56021 69902 90550 333 20004 3/101 70002 87/17 87/63
AAXX 11064 03266 16580 /1706 10048 20030 30028 40045 56021 60002 90550 333 20030 3/001 4//// 70002 81/26 87/66
AAXX 11064 03275 15967 /2021 10046 20026 39827 40020 58029 60002 90550 333 20020 3/001 4/000 70000 87/61 90710 91131
AAXX 11064 03281 16/// /2122 10028 20026 60002 90550 333 21007 70002 90710 91129
AAXX 11064 03903 16671 /2007 10056 20044 39949 40007 56016 60012 90550 333 20051 3/004 55/// 553// 20000 70016 82/35 87/64
AAXX 11064 03904 17568 /2210 10059 20036 39939 49999 56015 60022 781// 90550 333 20052 3/004 4/000 70034 83/26 86/50
AAXX 11064 03907 17673 /2112 10056 20033 39986 49994 57013 69982 723// 90550 333 20056 3/004 55001 55300 20000 70008 81/35 83/42
AAXX 11064 03911 16676 /2208 10044 20040 39731 40004 56016 60032 90550 333 20034 3/002 4//// 70034 81/38 86/60
AAXX 11064 03915 16466 /1607 10052 20052 39921 40000 56013 69942 90550 333 20038 3/003 70008 83/16 86/43
AAXX 11064 03916 16458 /2406 10051 20043 39808 49998 56014 60032 90550 333 20035 3/002 55/// 553// 20000 70076 85/19 85/61
AAXX 11064 03923 15260 /2207 10047 20044 39814 40010 56015 69982 90550 333 20033 3/003 70010 87/03 84/60
BBXX 44022 11061 99409 70737 46/// ///04 10009 21096 40333 51014 90600 22200 00096 333 91206 555 11046 22046
BBXX UCKG 11061 99568 10055 41/97 92710 10080 40047 57024 70222 22273 00110 20403
BBXX UGGA 11061 99690 10412 41/95 81513 10025 49967 57030 78582 889// 22221 20605
BBXX UCAC 11061 99563 10075 41/97 62717 10070 40069 52030 70222 89/// 22252 00110 20807 33200 40608
BBXX UFJN 11061 99720 10320 41/98 81408 11020 49977 57010 70222 88/// 22200 0//// 20301
BBXX UCSJ 11061 99685 10395 41595 82213 11032 49952 56030 78688 889// 22271 20403
BBXX DGWD2 11063 99364 70015 41/98 32618 10175 20134 40180 56005 70200 82/// 22224 00170 2//// 80150
BBXX PDHW 11063 99512 10018 41699 31808 10092 20047 40184 57041 70200 829/2 22213 2//// 80070
BBXX UCJU 11061 99699 10421 41/98 91310 11019 49998 57048 70222 22262 20402 30000
BBXX TBWAA05 11063 99596 10235 41597 62208 10040 21009 49941 53030 70322 83541 22263 2//// 3//// 4//// 5//// 80020 00/87 1/764 5989300/ 871/7 64598 93931/65 1/626 /807
BBXX DDVK2 11063 99338 10272 41498 13404 10165 20075 40278 53008 70100 81100 22274 00185 2//// 80116
BBXX A8RL3 11061 99148 30737 41191 30905 10270 40100 54000 70200 834// 22213 00290 2//01 3//// 4//03 5////
BBXX PCCL 11063 99326 31525 41497 40508 10220 40020 57010 70222 844// 22212 04219 20501 308// 40702
BBXX 46083 11061 99582 71380 46/// /3103 10039 20019 40219 52004 90550 22200 00063 10905 20401 300// 40905 70023 333 91205 555 11033 22035 30458 43006 60549 309031 303036 302042 303040 305042 299047 83006 90458
BBXX 44011 11061 99411 70666 46/// /3511 10066 20030 40251 51029 90550 22200 00101 10604 20604 3//// 41001 70022 333 91213 555 11118 22124 30543 41713 60549 349109 353105 002109 359106 359108 000111
BBXX 41046 11061 99238 70683 46/// /0607 10249 20215 40154 56012 90550 22200 00260 10905 20603 300// 40904 70023 333 91208 555 11071 22074 30518 40609 60549 063066 062065 059073 060073 063064 066072 80608 90525
BBXX 42362 11061 99278 70907 46/// /0411 10161 20072 40275 50007 90600
BBXX 42363 11061 99282 70892 46/// /0612 10156 20078 40264 50000 90600 333 91212
BBXX 42364 11061 99291 70881 46/// /0411 10144 20061 40264 58004 90600
BBXX 41041 11061 99142 70460 46/// /1206 10266 20231 40128 57019 90550 22200 00267 10603 20502 3//// 40603 70017 333 91208 555 11063 22067 30511 41110 60549 115058 118062 118067 106075 102080 106072 81109 90511
BBXX C6FR6 11064 99267 10339 41/// /3217 10170 2//// 40220 5//// 7//// 8//// 22200 0//// 2//// 3//// 4//// 5//// 6//// 8//// ICE /////
BBXX C6TH9 11063 99175 51495 41698 31405 10260 2023/ 40150 54000 70211 82838 22200 00260 20100 3//// 4//// 5//// 6//// 80240 ICE /////
BBXX ZCDF4 11063 99099 70788 41597 21015 10270 20256 40092 5/100 79199 82800 22265 00250 20204 3//// 4//// 5//// 80260
BBXX NWS0003 11064 99633 71670 43/// /2221 11010 21014 49734 5//// 7//// 8//// 222// 05017 2//// 3//// 4//// 5//// 6//// 8//// ICE /////
BBXX VRHO2 11064 99539 71624 41297 21830 10070 20049 40000 5/000 7//// 82900 222// 00060 20509 31918 40609 50509 6//// 80060 ICE /////
BBXX NWS0029 11064 99153 70234 43/// /0210 10237 20183 40130 5//// 7//// 8//// 222// 04261 2//// 3//// 4//// 5//// 6//// 8//// ICE /////
BBXX NWS0020 11064 99379 10236 43/// /0403 10110 20074 40246 5//// 7//// 8//// 222// 04178 2//// 3//// 4//// 5//// 6//// 8//// ICE /////
BBXX WDF5483 11064 99440 70835 43/// /2020 11027 2//// 40257 5//// 7//// 8//// 22282 0//// 2//01 3//// 4//// 5//// 6//// 8//// ICE /////
BBXX PDGS 11064 99002 70811 41/98 /1923 10230 40120 58015 702// 8//// 22284 00255 2////
BBXX WNBE 11064 99212 71578 41/// /0436 10230 2//// 40170 5//// 7//// 8//// 222// 0//// 2//// 3//// 4//// 5//// 6//// 8//// ICE /////
BBXX C6FY5 11064 99067 50343 41498 30518 10240 2020/ 40120 54/// 7//00 831// 22283 04280 20301 309// 40702 5//// 6//// 80210 ICE /////
BBXX ZCDA9 11063 99237 71446 41398 70823 10206 20167 40222 58000 70122 8670/ 22264 00230 20203 310// 40405 5//// 80182
BBXX C6XC2 11064 99139 11276 41498 61415 10290 20249 40090 57020 70222 85281 22243 00290 20604 335// 40805 5//// 6//// 80260 ICE /////
BBXX C6XC6 11064 99331 70152 41/97 33411 10175 2//// 40250 51010 7//00 8/4// 22254 0//// 210// 333// 4//// 5//// 6//// 8//// ICE /////
BBXX WXJ63 11063 99611 71464 41/97 82705 11033 21052 40164 57/// 702// 8//// 222// 00042 2//// 3//// 4//// 5//// 6//// 8//// ICE /////
BBXX 9HA2583 11064 99335 70705 41393 50120 1//// 2//// 40250 5//// 7//// 84543 222// 0//// 20104 3//// 40104 50104 6//// 8//// ICE /////
AAXX 11061 26554 11565 72203 10003 21019 39892 40057 53008 69902 72271 8453/ 333 21004 47997 555 90011
AAXX 11061 26666 32560 72003 10001 21040 39862 40079 53007 87500 333 20000 43001 87622 555 90012
AAXX 11061 26850 32460 72602 11003 21034 39821 40097 53009 87500 333 21007 87714 555 90010
AAXX 11061 26863 31459 72304 11007 21026 39858 40098 53003 71022 875// 333 21015 43001 87617
AAXX 11061 26941 32560 72103 10001 21019 39877 40118 52008 87500 333 21019 555 90010
AAXX 11061 26951 32560 32504 11008 21020 39916 40118 52011 83500 333 21011 555 90012
AAXX 11061 33008 32560 82404 10009 21015 39966 40148 52011 885// 333 20004 88627 555 90010
AAXX 11061 33019 11959 02102 11006 21018 39962 40140 52011 60012 71011 333 21008 555 90010
AAXX 11061 33036 11256 72602 11000 21006 39899 40134 53014 69972 71082 875// 333 21006 43003 86706 555 90010
AAXX 11061 33041 11256 82402 10002 21004 39962 40120 53005 60012 77172 8872/ 333 20000 43001 88706 555 90010
AAXX 11064 70026 NIL
AAXX 11064 70133 NIL
AAXX 11064 70174 NIL
AAXX 11064 70200 NIL
AAXX 11064 70219 NIL
AAXX 11064 70231 NIL
AAXX 11064 70261 NIL
AAXX 11064 70267 NIL
AAXX 11064 70271 NIL
AAXX 11064 70273 NIL
AAXX 11064 70308 NIL
AAXX 11064 70316 NIL
AAXX 11064 70326 NIL
AAXX 11064 70340 NIL
AAXX 11064 70350 NIL
AAXX 11064 70361 NIL
AAXX 11064 70381 NIL
AAXX 11064 70398 NIL
AAXX 11064 70414 NIL
BBXX 51000 11061 99235 71541 46/// /0609 10223 40195 53014 90550 22200 00234 10806 20805 333// 41304 70032 333 91211 555 11097 22102 30508 40514 60549 054092 050095 046099 048109 047108 045103
BBXX 51003 11061 99193 71606 46/// /0409 10246 40155 51014 90550 22200 00256 10805 20804 3//// 41203 70025 333 91211 555 11100 22106 30537 40412 60549 036094 038096 036094 035091 035092 037093
BBXX 46089 11061 99459 71258 46/// /3608 10084 20048 40213 57003 90550 22200 00097 11404 20502 330// 41404 70022 333 91210 555 11087 22092 30537 43611 60549 000084 002084 005082 351084 352082 356076
BBXX 46042 11061 99368 71224 46/// /2905 10109 40181 52003 90550 22200 00119 11604 20401 330// 41604 70020 333 91206 555 11050 22052 30500 43106 60549 289048 298036 312037 319038 318044 309041
BBXX DCCP2 11060 99113 11136 41397 80116 10255 20245 40065 57025 72582 8677/ 22213 00270 20609 30300 40911 5//// 80248
BBXX C6SI6 11064 99436 11497 46/// /2113 10028 21035 40050 53009 7//// 8//// 22253 0//// 2////
BBXX C6XC2 11064 99139 11276 41498 61415 10290 20249 40090 57020 70222 85281 22243 00290 20604 335// 40805 5//// 6//// 80260 ICE /////
BBXX C6YA7 11064 99270 11717 41698 21304 10240 2018/ 40190 54000 70200 821// 22253 00250 20301 329// 40804 5//// 6//// 80200 ICE /////
BBXX 3FZK3 11064 99488 11606 46/// /2834 11011 21028 49984 57006 7//// 8//// 22213 0//// 2////
BBXX SHIP 11064 99083 11187 41598 81818 10300 2026/ 40105 50015 70321 87231 22263 0//// 20604 315// 41002 5//// 6//// 80270 ICE /////
BBXX A8EH3 11063 99492 11595 41296 82727 10020 21067 49990 56040 78587 88/// 22214 04020 21005 32701 40904 51005 81010
BBXX 46070 11061 99551 11753 46/// /2620 11001 21049 49714 53028 90550 22200 00044 11216 20709 3//// 41213 70080 333 91225 555 11210 22224 30452 42626 60549 261195 263204 262188 263191 259197 257197 82622 90533
BBXX ZCBZ5 11063 99060 10861 41597 60607 10300 20243 40095 52013 70322 81242 22264 02308 20201 336// 40601 5//// 80260
BBXX 3FSB4 11064 99375 11578 43797 51808 10130 2009/ 40130 5//// 7//// 85468 22224 00190 20305 3//// 4//// 5//// 6//// 80110 ICE /////
BBXX PDGS 11064 99002 70811 41/98 /1923 10230 40120 58015 702// 8//// 22284 00255 2////
BBXX PDZS 11063 99517 50570 41598 13028 10089 20048 49985 52010 701// 81400 22242 02089 20603 399// 40707 5//// 80069
BBXX 5BDK2 11064 99141 50767 41498 31613 10195 2019/ 40180 56020 70110 82485 22253 00170 21104 3//// 41404 5//// 6//// 80190 ICE /////
BBXX 32012 11061 99197 50856 46/// ///// 1//// 90550 22200 11304 70019
BBXX A8DE3 11063 99357 50732 41998 02128 10126 20117 40241 54000 70200 80000 22282 00160 20404 321// 41006 80121
BBXX BATFR55 11064 99087 30433 44598 50311 10277 20245 40122 70322 83132 22222 00290 20602 32424 412// 512//
BBXX BATFR08 11064 99488 30636 46/// /2118 10034 21053 40169 58007 22223 00045
BBXX BATFR19 11064 99003 10094 46/// /2204 10244 20227 40109 51015 22200 00289
BBXX BATFR05 11064 99055 10000 46/// /3112 10262 20242 40098 53005 22212 00259
BBXX BATEU00 11064 99417 30161 46/// /1007 10147 20077 40220 51013 22243
BBXX 3FMV6 11063 99125 30091 41698 81810 10200 20167 40099 53010 70222 85770 22283 06230 21001 80180
BBXX C6FY5 11064 99067 50343 41498 30518 10240 2020/ 40120 54/// 7//00 831// 22283 04280 20301 309// 40702 5//// 6//// 80210 ICE /////
BBXX ONCE 11064 99239 50069 41398 81318 10190 2014/ 40200 54000 70222 8877/ 22234 00200 20103 310// 40905 5//// 6//// 80160 ICE /////
BBXX C6VF5 11064 99263 10567 41997 00211 10220 2014/ 40170 51020 7//00 80000 22274 00260 2//// 3//// 4//// 5//// 6//// 80170 ICE /////
BBXX V7PW3 11063 99183 10395 41697 52005 10280 20229 40164 57010 70311 8536/ 22234 00290 20102 80245
BBXX C6OM8 11060 99204 70238 41297 80311 10233 20182 40150 54000 70200 887// 22253 06235 20403 303// 40403 5//// 80201
BBXX A8UT7 11064 99269 70165 41596 80424 10200 20169 40172 52012 70222 8471/ 22283 20705 336// 41204 80180
BBXX DBBT 11061 99433 30083 46/// /3212 10109 20098 40177 57003 22261 00100
BBXX DBKV 11061 99201 70217 46/// /0311 10216 20192 40139 57013 22242 00221
BBXX ONDY 11064 99018 10082 43/// ///// 1//// 2//// 4//// 5//// 7//// 8//// 22211 0//// 2//// 3//// 4//// 5//// 6//// ICE /////
BBXX C6FR6 11064 99267 10339 41/// /3217 10170 2//// 40220 5//// 7//// 8//// 22200 0//// 2//// 3//// 4//// 5//// 6//// 8//// ICE /////
BBXX UFTA 11061 99851 71234 12997 00101 11362 21397 40099 52007 69902 555 48045
BBXX VCXF 11064 99464 70484 41194 81404 10051 2005/ 40116 57063 76162 886// 22200 02038 20501 33323 41004 50802 80051
BBXX 9HA2583 11064 99335 70705 41393 50120 1//// 2//// 40250 5//// 7//// 84543 222// 0//// 20104 3//// 40104 50104 6//// 8//// ICE /////
BBXX WDF4764 11064 99388 71242 41397 83312 10111 2008/ 40190 57010 7//22 887// 22233 0//// 20302 334// 40505 5//// 6//// 80094 ICE /////
BBXX LAHE2 11064 99090 70505 41295 30913 10270 2026/ 40090 56020 70100 83230 22233 00300 20502 327// 40703 5//// 6//// 80260 ICE /////
BBXX WKPN 11064 99413 70394 41698 72115 10150 2013/ 40305 57010 70322 8701/ 22225 00191 20302 329// 41006 5//// 6//// 80135 ICE /////
BBXX DPLE 11063 99421 70447 41298 81825 10175 20159 40250 57010 70222 8/7// 22224 00180 2//// 80165
BBXX WDC6907 11064 99342 70755 41598 80324 10145 2008/ 40273 52008 70222 8824/ 22213 00250 20503 33502 40604 51104 6//// 80111 ICE /////
BBXX 44040 11061 99410 70736 46/// /3305 10014 21096 40337 90545 22200 1//00 70001 333 91207 555 11051 22062
BBXX 46239 11061 99363 71221 46/// ///// 1//// 90551 22200 00132 11705 20801 330// 41705 70024
BBXX 44060 11061 99413 70721 46/// ///07 11001 40322 51014 90600 22200 00097 333 91209 555 11077 22082
BBXX 44039 11061 99411 70727 46/// /3307 10017 21097 40335 90545 22200 00108 10301 70005 333 91210
BBXX 44008 11061 99405 70692 46/// /3509 10055 21014 40283 51022 90550 22200 00126 333 91211 555 11091 22095 30508 43513 60549 348088 351090 358096 353097 351102 352104
BBXX BATEU01 11064 99479 70603 44597 73221 11016 21065 40170 51036 70222 84541 22274 00049 21002 327// 41002 5////
BBXX BATFR13 11064 99169 70603 44398 71114 10257 20224 40112 58008 70322 8777/ 22214 00284 20410
BBXX BATFR14 11064 99217 70532 44797 61220 10255 20229 40140 58014 70322 864/2 22254 00259 309// 41208 5////
BBXX PHQX 11063 99386 70565 41598 42211 10215 20161 40228 56012 70211 83141 22214 20804 321// 41004 5//// 80180
BBXX PHCQ 11063 99368 70747 41/98 /3510 10070 20045 40308 51009 70011 8//// 22263 04145 20502 3//// 41003 5//// 80058
BBXX BAREU00 11064 99374 70753 46/// ///// 40319 52006 22213
BBXX 41115 11061 99184 70673 46/// ///// 1//// 90535 22200 10902 20902 303// 41101 70012
BBXX 41112 11061 99307 70813 46/// ///// 1//// 90551 22200 00165 10604 20604 70019
BBXX 41110 11061 99341 70777 46/// ///// 1//// 90551 22200 00150 10503 20503 70013
BBXX 41113 11061 99284 70805 46/// ///// 1//// 90551 22200 00218 10602 20602 70008
BBXX 46219 11061 99332 71199 46/// ///// 1//// 90558 22200 00133 11804 20902 329// 41803 70019
BBXX 46225 11061 99329 71174 46/// ///// 1//// 90544 22200 00158 11702 21001 327// 41702 70011
BBXX 46215 11061 99352 71209 46/// ///// 1//// 90538 22200 00155 11703 20801 325// 41702 70013
BBXX 46243 11061 99462 71241 46/// ///// 1//// 90559 22200 00082 11703 21001 326// 41703 70017
BBXX 46247 11061 99378 71228 46/// ///// 1//// 90551 22200 00116 11504 21001 329// 41504 70019
BBXX 46244 11061 99409 71244 46/// ///// 1//// 90535 22200 00102 11504 20901 329// 41503 70018
BBXX 46232 11061 99325 71174 46/// ///// 1//// 90538 22200 00145 11802 20501 326// 41802 70012
BBXX 46214 11061 99379 71235 46/// ///// 1//// 90557 22200 00114 11705 20802 329// 41704 70023
BBXX VXKF 11064 99466 70598 46/// /3427 11005 21037 40165 53002 7//// 8//// 22212 0//// 2////
BBXX CGTF 11064 99476 70527 46/// /1411 10047 20039 40094 56041 7//// 8//// 22200 0//// 2////
BBXX SHIP 11064 99429 71726 41498 62725 10080 20038 40098 51060 70122 864// 22223 00130 80060
BBXX 3FBC9 11064 99282 71599 41697 50818 10230 40222 51014 70222 85165 9//// 22223 00240 20303 308// 40303 5//// 6//// 80190
BBXX DFWV2 11064 99304 71391 41/98 10214 10170 20100 40265 52020 70200 8//// 22263 04170 2//02 3//// 4//// 5//// 80130
BBXX WNBE 11064 99212 71578 41/// /0436 10230 2//// 40170 5//// 7//// 8//// 222// 0//// 2//// 3//// 4//// 5//// 6//// 8//// ICE /////
BBXX ZCDA9 11063 99237 71446 41398 70823 10206 20167 40222 58000 70122 8670/ 22264 00230 20203 310// 40405 5//// 80182
BBXX CGBN 11064 99447 70636 46/// /3113 10003 21033 40219 53018 7//// 8//// 22200 0//// 2////
BBXX CGBY 11064 99487 71235 46/// /3101 10039 20014 40210 52002 7//// 8//// 22200 0//// 2////
BBXX CGDG 11064 99461 70549 46/// /2316 10056 20092 40115 55018 7//// 8//// 22263 00057 2////
BBXX VOKJ 11064 99479 70606 46/// /3118 11027 21070 40189 55000 7//// 8//// 22234 0//// 2////
BBXX CG2958 11064 99488 71229 46/// /3307 10048 20025 40215 56002 7//// 8//// 22212 0//// 2////
BBXX VAAZ 11064 99512 70498 46/// /2026 10006 20003 40062 56038 7//// 8//// 22231 0//// 2////
BBXX CG2965 11064 99487 71235 46/// /3002 10042 20019 40212 52002 7//// 8//// 22200 0//// 2////
BBXX VCLM 11064 99621 70747 46/// /1410 11138 21158 40028 51006 7//// 8//// 22200 0//// 2////
BBXX CGDT 11064 99490 70669 46/// /3015 11098 21157 40253 51007 7//// 8//// 22200 0//// 2////
BBXX CGBR 11064 99534 71293 46/// /3501 10013 20013 40226 51008 7//// 8//// 22200 0//// 2////
BBXX CGJV 11064 99455 70612 46/// /3116 10014 21013 40201 53024 7//// 8//// 22200 0//// 2////
BBXX VCSZ 11064 99484 70617 46/// /3121 11041 21065 40179 53023 7//// 8//// 22274 0//// 2////
BBXX CGDX 11064 99468 70712 46/// /2003 11063 21107 40289 52024 7//// 8//// 22200 0//// 2////
BBXX CGCC 11064 99463 70725 46/// /2406 11070 21119 40295 53015 7//// 8//// 22200 0//// 2////
BBXX VAAP 11064 99471 70596 46/// /3225 11004 21053 40166 51023 7//// 8//// 22283 0//// 2////
BBXX VCWL 11064 99456 70735 46/// /3301 11038 21092 40298 53014 7//// 8//// 22200 00053 2////
BBXX CGSB 11064 99468 70712 46/// /2103 11072 21114 40289 53024 7//// 8//// 22200 0//// 2////
BBXX CGDR 11064 99496 71266 46/// /0308 10032 20031 40216 53003 7//// 8//// 22200 0//// 2////
BBXX VCBW 11064 99512 70568 46/// /3315 11098 21150 40133 51012 7//// 8//// 22200 0//// 2////
BBXX CZ9742 11064 99506 70969 46/// /0807 11060 21080 40083 56031 7//// 8//// 22200 0//// 2////
BBXX VCRG 11064 99474 70619 46/// /2712 11021 21079 40209 51010 7//// 8//// 22200 0//// 2////
BBXX VRYO3 11064 99499 70452 46/// /2819 10037 20048 40143 56029 7//// 8//// 22224 00076 2////
BBXX VOFG 11064 99456 70614 46/// /3317 10014 21016 40200 53022 7//// 8//// 22200 0//// 2////
BBXX VOPP 11064 99456 70735 46/// /2702 11048 21084 4//// 5//// 7//// 8//// 22200 0//// 2////
BBXX CGJK 11064 99484 71234 46/// /3606 10045 20023 40206 58001 7//// 8//// 22200 0//// 2////
BBXX 44007 11061 99435 70701 46/// /3107 11001 21091 40295 51014 90550 22200 00085 10801 70003 333 91208 555 11068 22070 30538 43109 60549 307064 307071 303069 305066 306061 304052
BBXX 46001 11061 99563 71480 46/// /1815 10059 40117 58019 90550 22200 00051 10908 20707 300// 40904 70040 333 91219 555 11166 22178 30524 41919 60549 184153 184150 181153 177151 175150 177147
BBXX 46082 11061 99597 71434 46/// ///// 10042 20042 40198 58003 90550 22200 00063 10903 70014
BBXX 51101 11061 99243 71621 46/// /0610 10238 20177 40212 52014 90550 22200 00244 11304 20803 334// 41303 70021 333 91213 555 11109 22116 30540 40613 60549 059103 063102 057097 054096 057093 055089
BBXX 46077 11061 99579 71543 46/// /2507 10045 20002 49998 51049 90550 22200 00054 11205 20603 3//// 41204 70023 333 91208 555 11073 22077 30514 42412 60549 252069 255074 253084 245094 243083 244082 82410 90513
BBXX 46035 11061 99571 71778 46/// /2217 1//// 49686 53012 90550 22200 11213 20907 300// 41210 70064 333 91221 555 11172 22184 30459 42121 60549 217170 215159 204145 207156 215143 217168 82219 90544
BBXX 46061 11061 99602 71468 46/// /1311 10044 40152 56016 90550 22200 00060 10503 20502 300// 40701 70013 333 91213 555 11116 22123 30505 41516 60549 128110 123109 132111 139116 143119 141110
BBXX 46026 11061 99378 71228 46/// /2905 10097 40179 51005 90550 22200 00114 11603 20401 330// 41603 70017 333 91206 555 11048 22050 30510 42606 60549 292047 290047 287047 289050 290048 289047
BBXX 46072 11061 99517 71722 46/// /2411 10030 21011 49927 53010 90550 22200 00054 11111 20808 3//// 41108 70057 333 91215 555 11121 22128 30530 42416 60549 242113 243115 237115 238116 241118 238116 82413 90530
BBXX 41040 11061 99145 70530 46/// /1106 10271 20240 40116 58012 90550 22200 00279 10803 20501 3//// 40803 70016 333 91207 555 11062 22065 30515 41108 60549 112059 106056 109057 110063 109058 103048 81107 90516
BBXX 42057 11061 99168 70815 46/// /0208 10275 20227 40130 58010 90550 22200 00280 10602 20602 70011 333 91209 555 11076 22080 30535 40109 60549 022076 014076 017073 022069 024074 023075 80108 90535
BBXX 42039 11061 99288 70860 46/// /0511 10163 40235 58008 90550 22200 00232 333 91214 555 11117 22123
BBXX 41009 11061 99285 70802 46/// /0806 10243 20180 40216 50000 90550 22200 00245 10604 20603 300// 40703 70019 333 91207 555 11063 22066
BBXX 41010 11061 99289 70785 46/// /0808 10231 40213 56006 90550 22200 00240 10503 20503 300// 40901 70015 333 91210 555 11082 22086
BBXX VREX8 11064 99448 71444 41/// /2812 10120 2008/ 40310 5//// 7//00 8//// 22255 0//// 20102 328// 40102 50102 6//// 80100 ICE /////
BBXX VRHO2 11064 99539 71624 41297 21830 10070 20049 40000 5/000 7//// 82900 222// 00060 20509 31918 40609 50509 6//// 80060 ICE /////
BBXX WDB3161 11064 99452 71345 41698 60313 10075 2007/ 40270 52012 70211 86200 22274 00108 20402 332// 40805 5//// 6//// 80070 ICE /////
BBXX WDC3786 11064 99268 71348 415// 80609 10181 2010/ 40240 54000 7//22 8873/ 22224 0//// 20302 330// 40705 5//// 6//// 80138 ICE /////
BBXX SHIP 11064 99379 71732 41/96 /2212 10190 20175 40158 52031 70222 8//// 90555 22224 00160 1//// 2//// 3//// 4//// 5//// 6//// 80180
BBXX PDBP 11063 99242 70829 41398 80615 10240 20211 40170 57013 70222 887// 22224 04254 20503 30000 80220
BBXX A8JH8 11064 99260 70506 41597 30733 10250 20239 40200 54000 70200 82500 22213 20907 307// 41205
BBXX BAREU08 11064 99183 70696 46/// ///// 40127 57004 22212
BBXX 41101 11064 99146 70562 46/// /1006 10268 20232 40098 57012 22200 00276 10803 70015
BBXX A8SF7 11061 99275 70746 41098 20810 10230 20185 40200 53005 7//00 821/0 22284 04220 21004 309// 41203 5//// 80200
BBXX DDLK 11063 99403 70686 41498 63425 10082 20028 40268 52018 70261 862/0 22263 20504 302// 40804 80057
BBXX NWS0022 11064 99416 70714 43/// /3109 10006 21060 40312 5//// 7//// 8//// 222// 04134 2//// 3//// 4//// 5//// 6//// 8//// ICE /////
BBXX 46028 11061 99357 71219 46/// /2805 10116 40181 52004 90550 22200 00131 11603 20401 330// 41603 70017 333 91206 555 11047 22049 30523 42806 60549 282046 279044 281043 291038 276039 281038
BBXX 46054 11061 99342 71204 46/// /3009 10124 40177 54000 90550 22200 00143 11604 20502 300// 41603 70018 333 91210 555 11091 22096 30532 43111 60549 302086 300088 302089 307080 313087 308087
BBXX 46025 11061 99337 71191 46/// /2704 10141 40176 54000 90550 22200 00153 11702 20401 322// 41701 70008 333 91206 555 11043 22044 30450 42606 60549 267041 297032 309034 312033 322032 329037
BBXX 46050 11061 99442 71246 46/// /3606 10085 40200 57005 90550 22200 00102 11604 20501 329// 41604 70020 333 91207 555 11060 22062 30528 40107 60549 000058 005062 005062 008054 004050 009053
BBXX 46029 11061 99461 71245 46/// /0000 10066 20063 40204 58005 90550 22200 00079 11504 20401 327// 41504 70018 333 91201 555 11001 22001 30450 42702 60549 344001 180001 180000 184001 216003 317006
BBXX 46013 11061 99382 71233 46/// /3007 10093 40176 54000 90550 22200 00109 11604 20501 3//// 41603 70018 333 91208 555 11071 22074 30542 43008 60549 303067 304067 307064 300065 302065 297062
BBXX 46069 11061 99337 71202 46/// /3007 10124 40183 52005 90550 22200 00131 11704 20502 330// 41704 70021 333 91208 555 11074 22078 30529 43010 60549 296071 296080 297080 295077 299071 294079
BBXX 46087 11061 99485 71247 46/// /2701 10067 20046 40201 54000 90550 22200 00079 11604 326// 41604 70020 333 91202 555 11009 22009 30453 42904 60549 272009 264016 271025 282028 300025 298029
BBXX 46012 11061 99374 71229 46/// /3103 10100 40181 54000 90550 22200 00117 11705 20401 328// 41705 70023 333 91205 555 11030 22031 30450 42906 60549 306031 300035 297033 284033 288034 290041
BBXX 46088 11061 99483 71232 46/// /0204 10052 40201 90550 22200 00081 1//00 70001 333 91205 555 11038 22039 30542 40205 60549 016037 018037 024034 024034 038031 026035
BBXX 46047 11061 99324 71195 46/// /2907 10127 40189 52003 90550 22200 00138 11704 20502 329// 41704 70022 333 91209 555 11075 22079 30538 43110 60549 297073 301073 306076 303073 304068 300069
BBXX 46053 11061 99342 71198 46/// /2707 10135 40165 54000 90550 22200 00144 333 91208 555 11071 22075 30539 42709 60549 268067 262075 258075 256071 257067 258066
BBXX 46105 11061 99590 71522 46/// ///// 1//// 90550 22200 10804 70020
BBXX 46014 11061 99394 71240 46/// /3306 10090 40184 56005 90550 22200 00108 11604 20401 3//// 41604 70020 333 91207 555 11058 22060 30522 43407 60549 334057 337054 334059 337059 355049 356048
BBXX 46086 11061 99325 71180 46/// /2701 10141 40180 52003 90550 22200 00159 11703 20401 329// 41703 70014 333 91202 555 11010 22010 30514 43203 60549 275009 283008 325009 303015 305019 299015
BBXX 46011 11061 99350 71210 46/// /3105 10121 40183 54000 90550 22200 00140 11704 20401 330// 41704 70018 333 91207 555 11047 22049 30544 43207 60549 310045 317044 315043 321047 306041 310039
BBXX 46027 11061 99419 71244 46/// /3603 10087 40187 56010 90550 22200 00101 11704 329// 41704 70018 333 91204 555 11028 22029 30450 40105 60549 006026 009027 017030 015035 021035 013038
BBXX 44009 11061 99385 70747 46/// /3507 10050 40338 51013 90550 22200 00123 10402 20402 300// 41001 70011 333 91210 555 11073 22076 30452 43510 60549 351068 355072 349071 349072 353075 343077
BBXX 44020 11061 99414 70702 46/// /3410 10030 21055 40293 51016 90550 22200 00095 10402 20402 70008 333 91212 555 11103 22110 30549 43412 60549 328096 261096 261096 261092 261092 264084
BBXX 41013 11061 99334 70777 46/// /0411 10132 20077 40281 50000 90550 22200 00220 10604 20604 309// 40801 70020 333 91214 555 11118 22124 30527 40315 60549 036111 031114 036111 039109 036113 031110
BBXX 44065 11061 99404 70737 46/// /3408 10027 21069 40329 51017 90550 22200 00108 10301 20301 70007 333 91211 555 11088 22092 30533 43511 60549 340084 342085 336084 331090 330089 329087 83410 90518
BBXX 44027 11061 99443 70673 46/// /3308 11010 21077 40277 53021 90550 22200 00090 10402 20402 70011 333 91209 555 11082 22085 30522 43312 60549 329078 327083 324090 317094 327090 321090
BBXX 42002 11061 99258 70937 46/// /0511 10195 20127 40246 58009 90550 22200 00246 333 91213 555 11113 22121 30454 40615 60549 054113 054111 060103 060109 061115 062117
BBXX 42056 11061 99198 70849 46/// /0505 10265 20227 40146 58010 90550 22200 00274 10602 20401 301// 40602 70010 333 91206 555 11053 22055 30523 40507 60549 048051 047054 046058 045055 049053 049054 80406 90528
BBXX 42040 11061 99292 70882 46/// /0512 10136 40262 58006 90550 22200 00222 10705 20705 70024 333 91215 555 11115 22120 30451 40416 60549 044116 040118 044117 039120 043125 044122
BBXX 42036 11061 99285 70845 46/// /0511 10164 20139 40224 58010 90550 22200 00219 10704 20704 70019 333 91213 555 11115 22121 30452 40614 60549 050108 052105 050110 055108 052112 052116
BBXX 41047 11061 99275 70715 46/// /0407 10236 40199 58012 90550 22200 00254 10904 20602 311// 40903 70018 333 91208 555 11071 22074 30523 40610 60549 040071 047067 043080 044079 047067 061070 80409 90521
BBXX 42019 11061 99279 70954 46/// /0511 10157 20104 40274 58011 90550 333 91213 555 11116 22123 30548 40513 60549 038107 281100 281103 282110 281105 287096
BBXX 44005 11061 99432 70691 46/// /3307 10011 21091 40286 51015 90550 22200 00090 10502 20502 3//// 40901 70012 333 91210 555 11077 22080 30456 43410 60549 332073 330069 332070 326069 329075 335078
BBXX 42059 11061 99151 70675 46/// /1003 10275 20228 40104 58009 90550 22200 00286 10803 20301 3//// 40803 70013 333 91204 555 11035 22037 30452 41005 60549 095034 110036 113033 113034 104033 100038 81004 90451
BBXX 46075 11061 99539 71608 46/// /2007 10051 20021 40015 50000 90550 22200 00052 11211 20704 300// 41210 70054 333 91210 555 11077 22082 30523 42111 60549 199073 204079 205081 206083 208081 206077 82109 90513
BBXX 46005 11061 99461 71310 46/// ///08 10081 40247 58006 90550 22200 00101 11506 20703 3//// 41505 70029 333 91210 555 11087 22091
BBXX 46080 11061 99580 71500 46/// /1915 10056 20055 40049 55011 90550 22200 00052 10911 20911 70057 333 91219 555 11157 22168 30502 41822 60549 193147 191148 189163 181164 178167 174171 81818 90452
BBXX 42058 11061 99149 70749 46/// /0507 10275 20235 40100 58008 90550 22200 00278 10703 20503 305// 40702 70015 333 91208 555 11077 22081 30522 40509 60549 052071 050067 048077 049062 056065 053074 80508 90522
BBXX 46084 11061 99566 71361 46/// /3104 10050 20027 40232 52008 90550 22200 00076 10805 20301 300// 40805 70025 333 91205 555 11036 22037 30458 43207 60549 308034 317038 329030 334037 325043 325050
BBXX 46059 11061 99380 71300 46/// /3607 10118 40222 50003 90550 22200 00145 11504 20502 3//// 41504 70020 333 91208 555 11069 22072 30459 40110 60549 355068 353071 359056 009060 012071 002063
BBXX 46006 11061 99408 71375 46/// /0207 10106 40295 51009 90550 22200 00128 11505 20502 3//// 41505 70026 333 91209 555 11075 22078 30457 40110 60549 023070 021060 024068 021075 020080 021076
BBXX 42035 11061 99292 70944 46/// /0509 10122 20050 40297 50000 90550 22200 00155 10702 20502 313// 40701 70011 333 91210 555 11092 22096 30457 40611 60549 053087 053087 053090 050089 050092 046094
BBXX 46078 11061 99561 71526 46/// /2306 1//// 90550 555 11065 22069
BBXX 46002 11061 99426 71305 46/// ///// 10096 40230 54000 90550 22200 00124 11605 70026
BBXX 42060 11061 99163 70635 46/// /0706 10269 20223 40108 56013 90550 22200 00281 10903 20502 300// 40902 70013 333 91207 555 11063 22066 30500 40808 60549 070060 073060 069063 069066 071069 071069 80707 90458
BBXX FVNM 11064 99063 71030 46/// /0613 10254 20214 40128 50/// 22200 00267
BBXX DDAC2 11060 99072 70823 41/97 /2807 10260 20246 40090 54000 7//22 8/770 22233 04280 2//// 325// 4//04 5//// 80250
BBXX ONAI 11064 99062 70508 41598 31018 10270 2024/ 40080 57020 70200 83100 22234 00290 2//// 3//// 4//// 5//// 6//// 80250 ICE /////
BBXX A8FU7 11061 99140 70975 41798 19902 10250 20228 40140 54000 70211 81100 22235 00280 299// 3//// 4//// 5//// 80235
BBXX 3FMH7 11064 99092 70898 41998 10705 00/// 10250 20236 40123 5//// 71000 81/// 9//// 22273 0//// 1//// 2//// 3//// 4//// 5//// 6//// 80240
BBXX WDC6698 11064 99094 71450 43/// /1514 10296 20296 40110 5//// 7//// 8//// 222// 04252 2//// 3//// 4//// 5//// 6//// 8//// ICE /////
BBXX 9VAW8 11064 99165 70996 41798 32713 10260 20217 40140 52010 70200 83180 22233 00289 20802 32727 40802 50802 6//// 80230 ICE /////
BBXX C6XC6 11064 99331 70152 41/97 33411 10175 2//// 40250 51010 7//00 8/4// 22254 0//// 210// 333// 4//// 5//// 6//// 8//// ICE /////
BBXX WDD6126 11064 99440 70309 41398 73209 10130 2005/ 40294 58004 70222 8719/ 22214 00140 20201 332// 40404 5//// 6//// 80090 ICE /////
BBXX C6QK 11063 99402 70314 41497 83116 10150 2012/ 40300 54000 70322 88//0 22254 20201 3//// 4//// 80130
BBXX A8GH5 11063 99332 70094 41/96 /0510 10185 20125 40240 54000 70200 8//// 22214 20401 80149
BBXX ZCBW2 11063 99372 10010 43498 72426 10160 20090 40170 56010 7//// 8427/ 22253 00200 20606 3//// 4//// 5//// 80130
BBXX DBEB 11061 99538 10082 41/// /2211 10026 20026 40115 50003 7//// 22221 00047
BBXX DBKR 11061 99541 10121 46/// /2405 10035 20032 40121 52011 22200 00058
BBXX DBBU 11061 99544 10113 46/// /2409 10024 20023 40112 52007/ 22260 0007/
BBXX DBFR 11061 99552 10151 46/// /2614 10056 20039 40070 52021 22220 00067
BBXX DBEA 11061 99540 10084 46/// /2211 10037 20026 40116 52008 22220 00047
BBXX DBJM 11061 99542 10079 46/// /2505 10065 20046 40116 54000 22240 00081
BBXX 41049 11061 99275 70630 46/// /0811 10244 20213 40170 58018 90550 22200 00247 10805 20503 300// 40803 70024 333 91213 555 11115 22122 30545 40913 60549 083107 083102 083101 080087 084089 082095 80811 90548
BBXX 41044 11061 99217 70587 46/// /1102 10245 20194 40122 58011 90550 22200 00267 10905 20401 300// 40905 70023 333 91203 555 11022 22022 30455 41105 60549 105022 097028 093028 092032 107036 110036 81104 90455
BBXX 42012 11061 99301 70876 46/// /0312 10105 20040 40266 58003 90550 22200 00193 10503 20503 70013 333 91214 555 11121 22127 30507 40315 60549 027116 027118 029119 026122 026119 021118
BBXX 42001 11061 99259 70897 46/// /0408 10206 20129 40235 50000 90550 22200 00238 10804 20804 70022 333 91211 555 11088 22092 30537 40512 60549 043082 038084 039081 045081 033083 038082
BBXX 41001 11061 99347 70727 46/// ///// 10165 20091 40264 51008 90550 22200 00224 10805 70027
BBXX 42065 11061 99149 70750 46/// /0509 10273 20239 90550 22200 10704 20704 70019 333 91210 555 11091 22097 30526 40510 60549 052083 056084 053089 055084 054078 055076 80510 90526
BBXX 42020 11061 99270 70967 46/// /0612 10181 20124 40254 58019 90550 22200 00237 10806 20806 70028 333 91215 555 11129 22136 30535 40716 60549 058122 060118 062120 061119 062120 059120
BBXX 41048 11061 99320 70696 46/// /1401 10196 20181 40228 58004 90550 22200 00229 10902 20401 3//// 40902 70011 333 91202 555 11010 22010 30519 43305 60549 143010 172010 321029 324045 321034 326036 83305 90520
BBXX 42055 11061 99222 70940 46/// /0408 10230 20162 40212 50000 90550 22200 00251 10905 20703 304// 40904 70025 333 91210 555 11086 22090 30541 40411 60549 042083 040084 044082 045085 045085 046082 80509 90505
BBXX 44066 11061 99396 70726 46/// /3508 10052 21033 40312 51014 90550 22200 00135 10503 20502 3//// 40901 70013 333 91209 555 11080 22083 30515 43310 60549 352078 342074 348072 338077 334076 349074
BBXX 41036 11061 99342 70770 46/// ///// 10108 20045 40296 50004 90550 22200 00197 10603 70015
BBXX 41043 11061 99211 70650 46/// /0505 10253 20222 40134 56010 90550 22200 00269 10804 20402 300// 40804 70022 333 91206 555 11054 22057 30535 40607 60549 053052 062053 063054 064055 064048 065044 80706 90532
BBXX A8IO2 11064 99150 70781 41398 70717 10270 20241 40085 56030 70322 86778 22214 04280 20502 307// 40803 5//// 80250
BBXX MVQP8 11064 99292 70946 41/98 90417 10120 20029 40322 50001 70000 89/// 22200 29903 3//// 4//03 5//// 80100
BBXX SHIP 11064 99318 71366 41797 30215 10180 20130 40230 54000 7//00 831// 22223 00200 2//// 3//// 4//// 5//// 6//// 80150 ICE /////
BBXX MHNO6 11063 99241 70586 41498 70815 10252 20202 40132 56013 71611 86240 22253 00277 20401 304// 41002 5//// 80219
BBXX HZRX 11063 99366 70473 41797 32613 /// 10200 20180 40294 55026 70311 83000 22263 10170 20303 32626 40100 5//// 6//// 80170 ///// /////
BBXX ZCDF4 11063 99099 70788 41597 21015 10270 20256 40092 5/100 79199 82800 22265 00250 20204 3//// 4//// 5//// 80260
BBXX CG2960 11064 99453 70800 46/// /2508 10002 21068 40280 50000 7//// 8//// 22200 0//// 2////
BBXX CG2350 11064 99433 70798 46/// /2309 11032 21082 40319 51007 7//// 8//// 22200 0//// 2////
BBXX 45008 11061 99443 70824 46/// /2309 11014 30065 40288 52004 90550 22200 00064 10603 20603 70016 333 91212 555 11098 22102 60549 229095 230095 229100 234096 236099 233096
BBXX CGDS 11064 99447 70755 46/// /2505 11046 21085 4//// 5//// 7//// 8//// 22200 0//// 2////
BBXX VCPX 11064 99421 70819 41/98 /0102 10066 2//// 41030 54/// 70000 8//// 22252 0//// 20503 3//// 4//// 5//// 6//// 8//// ICE /////
BBXX BATFR47 11064 99287 51396 46/// /1711 10210 20160 40168 51020 22262
BBXX BATFR56 11064 99016 30844 44498 52517 10287 20232 40107 58004 76022 84422 22252 00300 20602 324// 40602 5////
BBXX C6JE5 11063 99009 30881 41698 52012 10310 20254 40101 51/// 70122 8/46/ 22253 04300 20101 330// 40101 5//// 80270
BBXX WCX7445 11064 99647 50640 43/// /2213 10035 2//// 49611 5//// 7//// 8//// 22200 01001 2//// 3//// 4//// 5//// 6//// ICE /////
AAXX 11064 78526 NIL
AAXX 11064 78543 NIL
AAXX 11061 11934 12981 22703 11056 21077 39365 42793 52016 69902 80002 333 21067 3/109 41998 79999 82070
AAXX 11061 11423 01022 32603 11041 21045 39299 42790 53002 60002 710// 83600 333 21044 3/110 44006 60005 70007 83701
AAXX 11064 78255 42959 00504 10215 20194 30010 40159 57010
AAXX 11064 78317 NIL
AAXX 11064 78318 NIL
AAXX 11064 78325 NIL
AAXX 11064 78333 NIL
AAXX 11064 78338 NIL
AAXX 11064 78348 NIL
AAXX 11064 78349 NIL
AAXX 11064 78353 NIL
AAXX 11064 78360 NIL
AAXX 11064 78367 NIL
AAXX 11064 78369 NIL
BBXX UANA 11061 99702 10327 41/94 81004 10003 49952 57001 70221 80200 22212 04063 20201
BBXX A8MW6 11064 99347 70155 41598 23014 10170 20137 40235 57010 70100 824// 22224 00220 2//01 308// 4//02 5//// 80150
AAXX 11064 91165 NIL
AAXX 11064 91182 NIL
AAXX 11064 91190 NIL
AAXX 11064 91212 NIL
AAXX 11064 91217 NIL
AAXX 11064 91285 NIL
AAXX 11064 91317 NIL
AAXX 11064 91334 32474 80412 10297 20242 30068 40071 55007 8210I 333 561/9 70003 555 91106
AAXX 11064 91348 NIL
AAXX 11064 91356 NIL
AAXX 11064 91366 NIL
AAXX 11064 91369 NIL
AAXX 11064 91371 NIL
AAXX 11064 91376 11474 50407 10279 20235 30076 40080 53003 60021 70282 83801 333 562/9 70239 555 91106
AAXX 11064 91408 32474 81807 10297 20248 30042 40080 57020 83978 333 56999 70086 555 91106
AAXX 11064 91413 11469 71110 10305 20253 30063 40088 57012 69931 70282 83271 333 56299 70003 555 91106
AAXX 11064 91425 NIL
AAXX 11064 91434 NIL
AAXX 11064 91765 NIL
AAXX 11064 91925 06/// /0802 10253 20199 30069 40130 53017 60001 333 55085 60007 90710 91107 555 60005 10932 59002
AAXX 11064 91929 04/84 /3103 10269 20223 30120 40123 53020 69902 700// 333 10308 20269 55/// 69907 70026 90710 91108 555 69905
AAXX 11064 91938 01570 30803 10268 20226 30126 40128 53020 60062 70361 82202 333 10303 20249 31/// 55042 60007 70063 82820 90710 91105 555 60005 13408 58017
AAXX 11064 91944 06/// /0413 10264 20218 30151 40154 51023 69942 333 10288 20263 55087 60007 70004 90710 91117 555 60005
AAXX 11064 91948 06/// /3608 10235 20208 30080 40183 53018 60001 333 55024 60007 90710 91114 555 60005 13416 58034
AAXX 11064 91954 06/// /0806 1//// 2//// 30130 4//// 53014 60001 333 55/// 60007 555 58012
AAXX 11064 91958 06/// /1805 10183 20148 30167 40169 52018 60001 333 55107 60007 90710 91108 555 60005 10521 58038
AAXX 11064 91943 NIL
AAXX 11064 91945 NIL
AAXX 11064 47101 32670 62303 10061 21049 30149 40245 57024 85500
AAXX 11064 47105 369// /2512 10054 21068 30192 40224 56012
AAXX 11064 47108 32668 82506 10048 21037 30146 40253 57011 8552/
AAXX 11064 47115 32575 32707 10055 21009 39947 40221 57010 83500 333 92033
AAXX 11064 47133 31658 70000 10047 21009 30180 40266 57013 70522 87500
AAXX 11064 47138 32968 02907 10094 21035 30235 40238 56014 333 92022
AAXX 11064 47159 32975 02703 10106 21042 30158 40243 57017 333 92022
AAXX 11064 47165 32665 73407 10060 21023 30224 40271 57011 87500 333 92023
AAXX 11064 47168 32670 23210 10083 21042 30173 40253 57016 82500 333 92023
AAXX 11064 47184 32670 73210 10085 21013 30249 40274 57011 87500 333 92033
AAXX 11064 91222 NIL
AAXX 11064 91245 NIL
AAXX 11064 91323 NIL
AAXX 11064 91339 NIL
AAXX 11064 91343 NIL
AAXX 11064 91353 NIL
AAXX 11064 91442 NIL
AAXX 11064 47090 32975 02909 10062 21070 30191 40213 56017 333 92013
AAXX 11064 47095 32570 62008 10042 21050 30054 40245 57018 86500
AAXX 11064 47097 329// /2505 10054 21044 30158 40255 55019
AAXX 11064 47098 329// /2306 10048 21037 30109 40245 57016
AAXX 11064 47099 329// /2006 10055 21014 30213 40250 57016
AAXX 11064 47100 32970 02517 11018 21073 39292 40231 57017
AAXX 11064 47102 31658 82716 10050 20018 30063 40243 57013 71062 8552/
AAXX 11064 47104 32970 01404 10057 21062 30120 40218 57016
AAXX 11064 47106 329// /1803 10073 21057 30174 40223 57012
AAXX 11064 47112 31660 81806 10047 20017 30171 40256 55011 76062 8552/ 333 92012
AAXX 11064 47114 32668 22704 10049 21063 30068 40253 57019 82500
AAXX 11064 47119 32662 82304 10055 21001 30215 40258 56013 8552/
AAXX 11064 47121 329// /2504 10049 21052 39950 40247 56026
AAXX 11064 47127 329// /2506 10055 21043 30115 40258 57020
AAXX 11064 47129 32662 61804 10059 20016 30229 40265 57013 86500
AAXX 11064 47130 32970 02008 10081 21053 30163 40224 57015 333 92023
AAXX 11064 47131 31659 52303 10053 20000 30192 40263 57014 70522 85500
AAXX 11064 47135 329// /2708 10041 21012 39956 40258 57012
AAXX 11064 47136 32672 22908 10069 21036 30073 40245 55017 81500
AAXX 11064 47137 329// /2505 10047 21031 30139 40259 57009
AAXX 11064 47140 31658 61602 10064 20022 30238 40267 57010 71022 86500 333 92012
AAXX 11064 47143 32668 62904 10078 21034 30177 40256 57015 86500
AAXX 11064 47145 32665 53201 10057 21001 30228 40255 57014 85500
AAXX 11064 47146 32663 82506 10063 21006 30201 40267 56010 8452/
AAXX 11064 47150 32663 71802 10056 20011 30242 40261 57010 87500
AAXX 11064 47152 32975 02705 10097 21029 30195 40237 57016
AAXX 11064 47154 329// /2907 10062 21024 30195 40256 57011
AAXX 11064 47155 32975 01804 10092 21037 30199 40245 57020
AAXX 11064 47156 32670 83202 10065 21009 30181 40271 57011 8452/
AAXX 11064 47157 32970 02709 10065 21031 39969 40240 55008
AAXX 11064 47162 32970 03204 10090 21020 30210 40250 57018 333 92022
AAXX 11064 47169 32665 72908 10067 21009 30178 40273 57012 87500 333 92043
AAXX 11064 47170 32665 73207 10063 21023 30227 40271 57013 87500 333 92023
AAXX 11064 47171 329// /1102 10052 20023 30214 40270 57009
AAXX 11064 47172 329// /2505 10070 21016 30197 40264 57008
AAXX 11064 47173 329// /1101 10046 21014 30158 40271 57011
AAXX 11064 47174 32668 73206 10054 21022 30057 40261 57012 87500
AAXX 11064 47175 32561 73209 10026 21012 39687 40270 57013 87500 333 92023
AAXX 11064 47185 32661 73216 10090 20016 30178 40269 57014 87500 333 92035
AAXX 11064 47188 32670 63605 10088 20000 30246 40268 57013 85500 333 92032
AAXX 11064 47189 32668 63206 10107 21007 30199 40259 57014 85500 333 92022
AAXX 11064 47192 32978 03202 10093 21046 30212 40249 57018
AAXX 11061 33506 11495 82902 10003 20003 39939 40139 57009 60072 78688 889// 333 20003 42998
AAXX 11061 33587 11597 63001 10011 20006 39902 40170 52012 60032 72682 84930 333 20006 555 31000
AAXX 11061 33924 32997 12104 10090 20073 30162 40174 57002 81070 333 20088
BBXX LDGJ 11061 99603 10053 43/// /1403 10038 20004 40000 5//// 222/1 04090 1//// 3//// 4//// 5////
BBXX LF4H 11064 99596 10022 46/97 11716 10065 20056 49957 57033 8//// 22200 06091 10705 70025 333 91122
BBXX LGWS 11061 99312 70101 43/// /0410 10160 20119 40207 5//// 222/0 04167 1//// 3//// 4//// 5////
BBXX LMEL 11061 99603 10053 43/// /1403 10035 20011 49996 5//// 222/2 04090 1//// 3//// 4//// 5////
BBXX 46001 11061 99563 71480 46/// /1815 10059 40117 58019 90550 22200 00051 10908 20707 300// 40904 70040 333 91219 555 11166 22178 30524 41919 60549 184153 184150 181153 177151 175150 177147
BBXX 46026 11061 99378 71228 46/// /2905 10097 40179 51005 90550 22200 00114 11603 20401 330// 41603 70017 333 91206 555 11048 22050 30510 42606 60549 292047 290047 287047 289050 290048 289047
BBXX A8SI3 11063 99536 71497 43196 91627 10050 20030 40171 52020 22224 00035 20610 80030
BBXX CG2958 11064 99488 71229 46/// /3307 10048 20025 40215 56002 7//// 8//// 22212 0//// 2////
BBXX CG2965 11064 99487 71235 46/// /3002 10042 20019 40212 52002 7//// 8//// 22200 0//// 2////
BBXX CGBR 11064 99534 71293 46/// /3501 10013 20013 40226 51008 7//// 8//// 22200 0//// 2////
BBXX CGBY 11064 99487 71235 46/// /3101 10039 20014 40210 52002 7//// 8//// 22200 0//// 2////
BBXX CGDR 11064 99496 71266 46/// /0308 10032 20031 40216 53003 7//// 8//// 22200 0//// 2////
BBXX CGJK 11064 99484 71234 46/// /3606 10045 20023 40206 58001 7//// 8//// 22200 0//// 2////
BBXX KGTY 11064 99514 71307 43898 63030 10067 20030 40210 5//// 7//// 842// 22274 00067 20807 32729 41009 50806 6//// 80050 ICE /////
BBXX WDB3161 11064 99452 71345 41698 60313 10075 20070 40270 52012 70211 86200 22274 00108 20402 332// 40805 5//// 6//// 80070 ICE /////
BBXX WDF4764 11064 99388 71242 41397 83312 10111 20080 40190 57010 7//22 887// 22233 0//// 20302 334// 40505 5//// 6//// 80094 ICE /////
AAXX 11064 64810 NIL
AAXX 11064 64820 32460 61602 10249 20246 30093 40102 82502 333 20247 59001 82613 85070
AAXX 11064 93004 16/// /0741 10169 20169 40130 57019 60041
AAXX 11064 93023 16/// /0513 10172 20161 40186 57006 60051
AAXX 11064 93069 16/// /0824 10176 20139 40196 57007 60001
AAXX 11064 93110 17698 /0513 10181 20123 40197 57001 60001
AAXX 11064 93186 17598 /0511 10176 20126 40219 57006 60001
AAXX 11064 93196 16/// /0810 10161 20120 40232 57003 60001
AAXX 11064 93245 16698 /0310 10169 20085 40212 52003 60001
AAXX 11064 93292 17698 /0807 10174 20104 40225 57004 60001
AAXX 11064 93309 17998 /0109 10188 20140 40193 57001 60001
AAXX 11064 93334 16/// /0203 10158 20083 39250 57001 60001
AAXX 11064 93339 16/// /0220 10151 20074 39253 57004 60001
AAXX 11064 93373 17/98 /0717 10172 20105 40218 57008 60001
AAXX 11064 93404 17/98 /1020 10190 20108 40183 57013 60001
AAXX 11064 93420 17/98 /2305 10181 20118 40185 57014 60001
AAXX 11064 93439 17/98 /1704 10172 20114 40188 57012 60001
AAXX 11064 93498 16/// /0323 10146 20117 40214 57009 60001
AAXX 11064 93515 17697 /0215 10175 20125 40182 57002 60001
AAXX 11064 93527 16/// /0805 10173 20132 40193 57011 60001
AAXX 11064 93546 17/98 /0207 10191 20148 40190 57011 60001
AAXX 11064 93597 16/// /0414 10158 20122 40181 57017 60001
AAXX 11064 93615 17697 /0207 10173 20131 40183 57001 60001
AAXX 11064 93678 16/97 /0522 10144 20125 40156 57017 60001
AAXX 11064 93709 16/// /0712 10163 20121 40167 54000 60001
AAXX 11064 93773 17698 /0807 10166 20136 40151 57020 60001
AAXX 11064 93781 17497 /0818 10161 20126 40163 57018 60001
AAXX 11064 93800 NIL
AAXX 11064 93805 NIL
AAXX 11064 93831 17998 /2708 10213 20070 40096 57001 60001
AAXX 11064 93845 17/98 /1607 10201 20149 40090 57027 60001
AAXX 11064 93891 17/97 /0716 10158 20126 40118 57015 60001
AAXX 11064 93909 16/// /3204 10188 20080 40085 57034 60001
AAXX 11064 93929 16/// /9901 10101 20099 40128 57025 60001
AAXX 11064 93947 16/// /3512 10104 20095 40156 57014 60001
AAXX 11064 93987 16/// /0708 10120 20073 40287 52001 60001
AAXX 11064 93994 NIL
AAXX 11064 78970 11470 70000 10244 20235 30072 40097 60001 71522 81832 333 01299 10325 20236 58003 81816 84359
AAXX 11064 78962 11468 30000 10256 20221 30096 40104 60001 71511 82832 333 02299 10309 20231 58001 82816
AAXX 11064 78970 11470 70000 10244 20235 30072 40097 60001 71522 81832 333 01299 10325 20236 58003 81816 84359
AAXX 11064 78962 11468 30000 10256 20221 30096 40104 60001 71511 82832 333 02299 10309 20231 58001 82816
AAXX 11061 38353 42998 10902 10052 21095 39362 40268 58011 81030 333 21070
AAXX 11061 38613 42999 00901 10050 21074 40265 56006 333 21020
AAXX 11061 38616 42999 00000 10051 21059 39251 40274 54000 333 21045
AAXX 11061 38345 32999 20901 10045 21036 38824 48517 57010 80002 333 21101
AAXX 11061 36911 42999 00000 10012 21051 39297 40280 58012 333 21091
AAXX 11061 36974 32998 02602 11118 21162 38063 48641 53005 333 21170
AAXX 11061 36982 30401 11167 21259 36546 47207 52002 80001 333 21190
AAXX 11061 26645 NIL
AAXX 11061 26659 11443 82202 11011 21018 39863 40080 53006 60012 77172 8872/ 333 21011 47001 88511 555 90010
AAXX 11061 26763 32560 71903 11009 21028 39861 40091 53007 83530 333 21009 41998 555 90010
AAXX 11061 26825 32561 72204 10010 21013 39914 40098 53015 875// 333 21011 87626
AAXX 11061 26832 32660 62003 11002 21022 39904 40101 52010 86500 333 21005 86645 555 90010
AAXX 11061 26887 31396 82503 10000 21006 39899 40107 53003 71022 886// 333 20000 43001 88708 555 90011
AAXX 11061 26961 32460 72404 11008 21019 39920 40115 52009 87500 333 21019 41998 87617 555 90011
AAXX 11061 33027 11496 82102 10001 21002 39969 40140 52011 60032 77172 8772/ 333 20001 43001 555 90012
AAXX 11061 14240 12670 80502 10068 20001 30051 40208 52010 60002 885// 333 20034 31100
AAXX 11061 14258 NIL
AAXX 11061 14445 12675 40904 10133 20089 30035 40189 53002 60002 82832 222// 00155 333 20132 31009 79999 82896 81399 81099 92312
AAXX 11061 38613 42999 00901 10050 21074 40265 56006 333 21020
AAXX 11061 15502 11530 50000 10022 20011 30157 40197 54000 69902 71062 84506 333 10038 20022 55018 70000 555 31103 59300 60099 70600
AAXX 11061 15525 12581 82505 10127 20052 39934 40196 52003 60002 8657/ 333 10136 20080 70000 555 30001 560//
AAXX 11061 15528 12570 62308 10127 20044 30006 40193 53026 60002 85670 333 10140 20086 55011 70000 555 31101 557//
AAXX 11061 15535 12562 72002 10056 20027 30137 40184 53012 60002 85550 333 10062 20044 55038 70000 555 31/// 581//
AAXX 11061 15549 12570 71802 10084 20011 39786 40203 53009 60002 87600 333 10095 20077 70000 555 30003 560//
AAXX 11061 15552 12570 72906 10107 20007 30141 40190 53004 60002 87500 222// 314// 4//01 333 10112 20079 55074 70000 555 30005 550// 92024 92428
AAXX 11061 15614 12660 70000 10028 20002 39517 40237 57001 60002 87800 333 10043 20025 41998 55015 70000 555 3/100 583//
AAXX 11061 15615 11/00 93208 11047 21057 37134 47075 58001 60002 74944 333 11046 21058 42999 55028 70000 555 593// 92712
AAXX 11061 15626 12670 60000 10016 21012 30032 40226 53004 60002 83532 333 10050 20002 55048 70000 555 30102 582//
AAXX 11061 15627 11/01 93214 11020 21020 37630 47068 53005 69912 74944 333 11014 21022 42001 55012 70001 93502 555 500// 92710
AAXX 11061 15640 12970 80000 10053 21008 39904 40222 53004 60002 8805/ 333 10063 20048 55044 70000 555 30003 565//
AAXX 11061 15655 12470 72506 10068 20024 30174 40207 53005 60002 87600 222// 00080 20000 333 10079 20050 70000 555 31/// 574// 92014 92418
AAXX 11061 15712 12675 63402 10017 21005 39992 40251 53006 60002 85501 333 10051 20012 55035 70000 555 31102 585//
AAXX 11061 15730 12970 80000 10048 20024 39833 40232 53004 60002 86057 333 10074 20035 55052 70000 555 31000 584//
AAXX 11061 37682 32997 03401 11108 21114 38130 48534 53006 333 21124 7000/
AAXX 11061 37717 12598 62302 11054 21064 38117 48554 52005 69900 85530 333 21056 7996/
AAXX 11061 37788 11194 60201 11012 21015 39293 40332 52015 74742 866// 333 21020 86702
AAXX 11061 26115 01481 73301 10027 20016 39953 49961 53026 60082 78082 87900 333 10059 20028 69937 87913 555 12002 20028 32002 50046
AAXX 11061 26038 01181 62303 10018 20014 39908 49949 53021 60132 70282 86900 333 10027 20001 69917 86902 555 11001 20001 31100 50022 52100
AAXX 11061 26106 11/97 81805 10022 20007 40001 52007 69902 78082 889// 333 20013 91110
AAXX 11061 26313 11/96 82402 10028 20022 49976 52019 60022 78082 889// 333 20023
AAXX 11061 26346 32497 82205 10003 21003 40003 52009 886// 333 21002 43004 88710 91111
AAXX 11061 26406 11597 82705 10046 20014 40006 52028 60022 78082 889// 333 20044 88920 91010 91116
AAXX 11061 26416 33/// /2203 10019 20013 49999 52015 333 20003
AAXX 11061 26424 11497 22305 10013 20004 40003 52013 69982 72681 81530 333 20006 42998
AAXX 11061 26544 11497 82304 10010 21013 40045 52009 69912 72682 883// 333 20001 43997 84917
AAXX 11064 16021 NIL
AAXX 11064 16022 NIL
AAXX 11064 16033 NIL
AAXX 11064 16040 11350 50000 11002 21005 39273 42798 5//// 60002 710// 85600 333 21004 34/// 55/// 2//// 85708
AAXX 11064 16052 12970 02409 11080 21250 36598 47026 57005 60002 333 21080 49999 55074 23478
AAXX 11064 16061 12980 00000 10068 20045 39332 42782 55004 60002 333 20062 30/// 55030 2////
AAXX 11064 16098 11956 03503 10030 20020 30133 40186 53002 60002 71000 333 20020 31/// 55/// 2////
AAXX 11064 16138 11815 60000 10044 20037 30176 40187 54000 60002 710// 86030 333 20038 31/// 55/// 2//// 86358
AAXX 11064 16148 NIL
AAXX 11064 16168 11/00 91814 10118 20117 39431 42793 58008 60002 74544 333 20104 31/// 89/00
AAXX 11064 16172 12561 70000 10086 20077 39895 40196 56003 60002 84230 333 20086 30/// 55/// 2//// 84823 83356
AAXX 11064 16179 12580 62504 10098 20069 39503 42797 56003 60002 82101 333 20098 31/// 82825
AAXX 11064 16224 NIL
AAXX 11064 16232 12898 72703 10148 20096 30124 40177 55004 60002 86075 333 20146 30/// 55013 20353 83458 83358 555 0116/
AAXX 11064 16245 12460 50706 10148 20130 30152 40177 55001 60002 85800 333 20142 30/// 55/// 2//// 83816 84646
AAXX 11064 16253 12460 71104 10106 20087 30179 40192 53001 60002 83210 333 20106 30/// 55004 20336 83818 85460
AAXX 11064 16258 12970 72510 10094 20056 39200 42803 57001 60002 87070 333 20090 30/// 55/// 2//// 87359
AAXX 11064 16263 12375 71906 10082 20058 38937 48504 57003 60002 82538 333 20062 31/// 55/// 2//// 82609 85356
AAXX 11064 16294 12597 52508 10150 20108 30001 40193 56008 60002 85500 333 20150 30/// 55/// 2//// 85620 555 0////
AAXX 11064 16337 12597 71506 10124 20105 39631 40200 56006 60002 82510 333 20124 30/// 55/// 2//// 82620 85457 555 0////
AAXX 11064 16344 12260 73011 10040 20030 38340 48522 56003 60002 81640 333 20038 30/// 55006 20971 81703 87356 95000 95100
AAXX 11064 16434 13465 71806 10082 20039 39015 48517 53003 60002 82608 333 20076 30/// 55/// 2//// 82710 95030 95100
AAXX 11064 16450 11/00 90905 10102 20102 39118 48582 56001 60002 74544 333 20098 31/// 55/// 2//// 89/00
AAXX 11064 16459 12560 82504 10120 20114 30185 40221 53004 60002 82207 333 20104 30/// 82822
AAXX 11064 16546 11357 80000 10104 20090 30158 40187 55003 60002 71022 82671 333 20104 30/// 55/// 2//// 82706 83356
AAXX 11064 16564 12597 82707 10148 20110 30046 40187 53000 60002 82272 333 20148 30/// 55/// 2//// 82822 83356 85459 555 0////
AAXX 11064 16045 NIL
AAXX 11064 16090 11730 70000 10060 20057 30108 40192 53008 60002 71022 82550 333 20054 30/// 55013 20269 82650 85357
AAXX 11064 16149 NIL
AAXX 11064 16261 NIL
AAXX 11064 16453 11597 30903 10150 20125 30139 40217 56004 60002 703// 83200 333 20148 30/// 55050 2//// 55300 83821 555 0100/
AAXX 11064 16560 11156 62904 10102 20078 30183 40190 53001 60002 71022 84530 333 20100 30009 55010 20552 82702 83620
AAXX 11061 01098 11356 81004 10000 21024 39934 49952 57011 69922 78587 883// 333 21005 46003 70002 91108
AAXX 11064 16148 11710 63102 10052 20031 30176 40189 53003 69922 72841 85570 333 20040 30/// 55003 2//// 55300 85656
AAXX 11064 16149 11412 60000 10060 20045 30172 40188 51002 60002 71022 83630 333 20056 30/// 55/// 2//// 83710 84357
AAXX 11061 01492 11289 20401 11064 21076 39888 40010 53015 60002 74000 81632 333 21067 43006 70000 91104
AAXX 11064 13600 NIL
AAXX 11064 13610 11656 62208 10124 20085 39784 40205 54000 60002 71022 86500 333 20096 31/// 86640
AAXX 11064 13611 11660 71802 10126 20107 30098 40188 52005 60032 70262 87500 333 20100 31/// 87633
AAXX 11064 13619 11660 70000 10090 20065 39457 42839 54000 69952 70262 87500 333 20050 31/// 87640
AAXX 11064 13622 NIL
AAXX 11064 13624 12970 80402 10074 20059 30182 40221 54003 60002 8802/ 333 20060 31/// 88460
AAXX 11064 13625 11660 80000 10105 20075 30008 40241 54002 60022 70166 885// 333 20072 31/// 88643
AAXX 11064 13629 12660 50000 10066 20066 39166 42814 54000 60002 85500 333 20048 31/// 85640
AAXX 11064 13601 11560 80000 10120 20106 30086 40186 58007 69942 72122 885// 333 20118 31/// 84630 84633
AAXX 11064 13602 NIL
AAXX 11064 13623 11550 80000 10086 20079 30241 40247 54004 60042 76162 885// 333 20075 31/// 88626
AAXX 11064 71805 04486 83018 10036 20027 30119 40128 53016 60052 700// 333 10062 20036 3/003 55000 69947 70054 91028 90710 91128 555 69905
AAXX 11064 40272 32960 00913 10043 21006 39426 40290 52012 333 21035 30106
BBXX DBLK 11061 99538 30000 41497 82806 11001 21011 40035 52002 70222 885// 22242 04000 20301 324// 40905
AAXX 11061 06400 32763 62003 10024 20018 30138 40149 56011 8453/ 333 20002 31002 84650 85365 91104 91203
AAXX 11061 06428 35958 /1902 10027 20015 30106 40156 56009 333 20006 3/103 81/66 91105 91203
AAXX 11061 06451 12772 72004 10029 20009 30091 40159 56010 60002 875// 333 20006 30000 87650 91105 91204
AAXX 11061 06456 32675 72004 10012 21001 39798 40174 56010 8655/ 333 20012 34101 86640 87365 91106 91204
AAXX 11061 06476 17637 81801 11008 21013 39503 40185 57005 60002 71073 333 21020 3/103 88/34 91104 91202
AAXX 11061 06479 32658 69902 10001 21007 30085 40167 56008 81531 333 21009 30104 81638 85072 91104 91203
AAXX 11061 06490 15682 42004 10001 21027 39594 40179 57005 60002 333 21003 3/101 84/35 91107 91204
AAXX 11061 06590 32665 71501 10005 21006 39721 40185 58006 875// 333 21014 31103 87636 91103 91202
AAXX 11064 16022 12960 01906 11014 21030 37839 48480 51002 60002 333 21022 30/// 55000 2//// 444 58214
AAXX 11061 06431 NIL
AAXX 11061 06432 35/58 /1803 10023 20012 30084 40162 56010 333 21001 3/103 81/41 83/50 87/66 91106 91204
AAXX 11061 06449 12665 72004 10028 20008 39938 40171 56007 60002 865// 333 20008 30100 86645 91105 91204
AAXX 11061 06450 12960 12002 10019 20001 30138 40155 56010 60002 80001 333 20016 34100 81070 91105 91204
AAXX 11061 06458 35673 /2004 10030 20012 30010 40167 56008 333 20009 3/102 85/49 87/65 91107 91206
AAXX 11061 06465 35957 /9901 10004 21004 30095 40163 56008 333 21001 3/103 87/50 91105 91203
AAXX 11061 06478 12662 71904 10017 21008 39945 40170 56008 60002 85502 333 20000 35100 85642 86070 91108 91205
AAXX 11061 06496 35957 /9902 11029 21035 39485 40184 56003 333 21053 3/107 81/73 91103 91202
BBXX DBBH 11061 99482 70064 41498 72107 10106 20072 40132 57017 70311 875// 22252 04128
BBXX DBBI 1/061 99536 10486 46/// /2106 10020 20020 40124 52003 22210 00459
AAXX 11064 78016 11464 73304 10192 20174 30228 40232 57010 69951 71682 86870 333 10224 20190 70005 90920
AAXX 11061 11916 12588 33606 11121 21140 37922 48452 53024 60002 81041 333 21121 3//// 48020 70008 81326 83066 93598 444 17083
BBXX DBCK 11061 99/// ///// 46/// ///// 10021 20020 40116 52003 22220 00049
AAXX 11064 60645 36/// /0000 10110 21006 333 20108
BBXX 62087 11061 99547 10068 46/// /9901 10088 20045 4//// 5//// 22230 00085
BBXX DBND 11061 99/// ///// 46/// ///// 10020 20010 40116 52003 22220 00054
BBXX 61001 11064 99434 10078 46/// /2502 10146 20104 40166 54000 22200 00159 10401 70005
AAXX 11064 78970 11470 70000 10244 20235 30072 40097 60001 71522 81832 333 01299 10325 20236 58003 81816 84359
AAXX 11064 78962 11468 30000 10256 20221 30096 40104 60001 71511 82832 333 02299 10309 20231 58001 82816
AAXX 11064 16622 12560 69903 10054 20040 30239 40250 53004 69902 82445 333 20054 30/// 50080 55062 79999 82630 83359 85068 90730 91107 555 10000 30082 20000 89056 99094 30000 10070 2//// 30082 4//// 5//// 40000 47712 44235 50000 50048 60000 65555 60050
AAXX 11064 16641 11460 51608 10150 20132 30225 40230 53002 69992 70265 84850 333 20112 32/// 55000 70164 83815 84625 85358 90730 91117 555 10000 30158 20000 89069 99100 40000 47699 44210 50000 50140 60000 60009 60140 70000 77/// 7RDY/
AAXX 11064 16682 12560 70000 10132 20121 30216 40235 57003 60002 82156 333 20108 30/// 50090 55051 70000 82820 84358 86068 90730 91107 555 10000 30144 20000 89053 99090 30000 10110 20110 30116 40136 50141 60195 40000 47694 44205 50000 50126
AAXX 11064 16716 12560 60000 10086 20065 30227 40246 51007 60002 81135 333 20080 30/// 55061 70000 81820 83360 85070 555 10000 30100 20000 89050 99087 40000 47695 44155 50000 50076 70000 77/I/ 7/I//
AAXX 11064 16734 17/// /0404 10128 20119 30199 40261 52008 60022 7//4/ 333 20122 90730 91107 555 10000 30168 20000 89050 99/// 60000 60023 60102
AAXX 11064 16743 NIL
AAXX 11064 16749 12460 31105 10106 20077 30253 40267 52006 60002 81141 333 20102 30/// 55081 70000 90730 91108 555 10000 30126 20000 89039 99073 40000 47722 44215 50000 50092
AAXX 11064 16754 12560 31408 10112 20070 30216 40265 52003 60002 81101 333 20094 30/// 50090 55081 70000 81825 83068 90730 91109 555 10000 30170 20000 89052 99082 40000 47693 44195 50000 50092
BBXX BATUK01 11064 99581 70035 46/// /2118 10067 20029 49946 58008 22211 00090
AAXX 11064 08001 NIL
AAXX 11064 08015 12965 01804 10052 20043 39770 40182 57002 60002 333 20050 30004 50134 55025 70000
AAXX 11064 08023 12565 42008 10112 20079 30097 40168 56002 60002 81132 333 20112 50153 55022 70000
AAXX 11064 08027 12881 71606 10088 20054 39853 40165 57004 60002 87030 333 20084 31005 50040 55065 70000
AAXX 11064 08045 01928 02305 10063 20059 39879 40194 53005 60002 72840 333 20062 3/005 55007 60007 70111
AAXX 11064 08141 12460 72702 10058 20054 39317 40184 55001 69972 877// 333 20046 31003 55002 70015
AAXX 11064 08160 11115 81301 10049 20049 39880 40196 56004 60002 71044 886// 333 20045 55018 79999
AAXX 11064 08181 02564 43512 10044 20009 30164 40170 55003 60002 8287/ 333 20044 3/007 55025 60007 70000
AAXX 11064 08221 01240 83602 10037 20027 39505 40205 55004 60012 71022 887// 333 20034 31003 55000 60007 70011
AAXX 11064 08231 NIL
AAXX 11064 08261 NIL
AAXX 11064 08284 02464 52906 10066 20032 30100 40177 55003 60002 81671 333 20057 3//// 50144 55050 60007 70000
AAXX 11064 08306 11459 33202 10074 20073 30166 40172 58002 60002 71000 81630 333 20062 55004 70000
AAXX 11064 08314 02570 43404 10111 20097 30066 40170 55003 60002 81135 333 20110 3//// 55046 60007 70000
AAXX 11064 08430 12560 72701 10078 20056 30115 40191 55004 60002 82871 333 20078 31006 50071 55029 70000
AAXX 11064 08482 11470 62908 10114 20067 30178 40187 53001 69902 70262 85871 333 20100 55059 79999
AAXX 11064 60106 32558 81808 10124 20096 40225 56001 882// 333 20106 88820
AAXX 11064 60190 32962 00802 10052 20038 40241 54000 333 20052 30003
AAXX 11064 17022 12965 61603 10093 21070 30077 40245 52006 60002 86050 333 20060 30004 55055 86360 91108 92427
AAXX 11064 17031 12970 51908 10086 21034 30250 40257 52009 60002 80001 333 20002 30000 85070
AAXX 11064 17038 12665 31703 10069 21022 30223 40275 52004 60002 83100 333 20030 30001 55000 20532 79999 83835 92427
AAXX 11064 17050 12670 53001 10034 20032 30166 40230 53006 60002 83530 333 20031 30002 55076 83635 85360 91106
AAXX 11064 17060 12660 61910 10102 20020 30203 40243 53008 60002 83130 333 20091 30006 50131 55070 20904 83835 85360
AAXX 11064 17096 11905 02401 11182 21182 38312 48589 52009 60002 74400 333 21206 3/121 43010 50054 55005 20226 70008
AAXX 11064 17124 12960 41402 11028 21042 39353 40313 52010 60002 84030 333 21039 34104 50064 55078 21034 84360
AAXX 11064 17128 11943 31302 11048 21048 39176 40335 53008 60002 71000 80001 333 21063 34107 50094 55075 20352 83070
AAXX 11064 17170 NIL
AAXX 11064 17195 12970 50401 11052 21067 39073 48566 53005 60002 80001 333 21086 34111 50034 55014 20749 85070
AAXX 11064 17199 12970 01802 11025 21083 39195 40338 52012 60002 333 21040 34109 2////
AAXX 11064 17219 12965 49902 10029 21011 30129 40281 53006 60002 84030 333 21004 31101 55077 20385 84360
AAXX 11064 17240 12970 02101 11057 21088 39123 40334 53009 60002 333 21070 34108 55083 21122 91103
AAXX 11064 17244 11940 00303 11061 21064 39084 48556 52008 60002 71000 333 21079 34/// 55/// 2////
AAXX 11064 17280 12970 02905 11001 21038 39488 40310 52017 60002 333 21035 31106 50151 55028 20201 70002
AAXX 11064 17350 12960 33103 10039 21002 30206 40288 52014 60002 80001 333 20020 31/// 83070
AAXX 11061 26509 11470 62706 10056 20019 30015 40024 53019 60062 72582 86300 333 20014 31/// 91012 91118 555 53018 7010/
AAXX 11061 26518 11468 82305 11001 21001 40031 53010 60102 78582 889// 333 21004 48030 88915 91009 91111 555 53011 7017/
AAXX 11061 26524 11397 82105 10005 20002 39887 40020 53006 60042 78382 883// 333 20002 43004 88707 91010 91111 555 53011 7005/
AAXX 11061 26531 11470 82105 10011 21003 40024 52003 60012 70282 886// 333 20002 42997 88714 91010 91110 555 53013 7001/
AAXX 11061 26629 11495 82206 10001 20001 39968 40064 52007 60012 77172 8872/ 333 20000 43001 88710 91009 91111 555 53011 7001/
AAXX 11061 26633 11570 72104 10005 21012 39920 40051 52007 60032 70172 87500 333 21002 43003 87622 91008 91108 555 53011 7003/
AAXX 11061 26730 32770 72205 11004 21022 39882 40077 52007 87500 333 21012 34/// 91008 91109 555 53011 7990/
AAXX 11061 06414 36/// /1903 10026 20007 30117 40150 55010 60002 333 20002 91106 91204
AAXX 11061 06459 36/// /1803 10017 20016 39975 40173 55007 60002 333 20004 3/107 91105 91203
AAXX 11061 06494 36/// /2203 11030 21037 39358 40184 55004 60002 333 21045 91106 91204
AAXX 11064 17024 12570 61813 10074 21031 30155 40234 51001 60002 84550 333 20042 31003 55067 84632 86360 91121 92438
AAXX 11064 17056 12670 62303 10096 20095 30233 40237 53006 60002 83230 333 20075 31005 55067 20762 83835 86360 91111 92428
AAXX 11064 17067 12670 61202 10045 20008 30222 40245 53003 60002 86200 333 20025 30002 55000 86840 91105 92408
AAXX 11064 17092 12960 00000 11073 21079 38970 48578 52011 60002 333 21107 30112 50104 55041 20682
AAXX 11064 17112 12665 62105 10121 20082 30238 40240 55093 60002 83250 333 20105 30008 50114 55043 20071 83835 86360 91112 92417
AAXX 11064 17115 12960 71307 10053 20009 30198 40251 53005 60002 87030 333 20016 30001 50094 55059 20804 87360
AAXX 11064 17116 12662 60901 10046 21009 30139 40265 53004 60002 84250 333 20004 31102 55064 20054 84835 86360 91104
AAXX 11064 17188 12960 52802 11011 21132 39199 40306 52008 60002 80002 333 21015 34104 85070 91106
AAXX 11064 17202 12970 02104 11077 21091 39272 40358 52014 60002 333 21094 3/111 42011 70005
AAXX 11064 17248 12975 11101 11034 21063 39069 48555 53007 60002 80001 333 21062 34108 55074 2//// 81070
AAXX 11064 17292 12970 43501 11022 21030 39515 40306 52008 60002 80001 333 21027 34104 50084 55029 20649 84070 91102
AAXX 11064 17300 12960 03606 10046 21045 30203 40277 53009 60002 333 20019 30104 50411 55/// 2////
AAXX 11064 17310 12970 00602 10099 21018 30275 40282 52011 60002 333 20092 30004 55061 91105 92438
AAXX 11064 17330 12970 62802 10076 20018 30274 40293 52015 60002 80001 333 20068 32005 50361 55073 86070
AAXX 11064 17500 12960 10906 10033 21006 30233 40294 53010 60002 80001 333 20018 31100 50181 55092 20768 81070
AAXX 11064 17501 12560 11906 10107 21035 30258 40278 53010 60002 81100 333 20091 30007 55081 21229 81830 92427
AAXX 11064 17505 12560 11005 10074 20016 30172 40289 53009 60002 81100 333 20063 30003 55081 21245 81830
AAXX 11064 17507 12960 12310 10092 21034 30176 40300 52011 60002 80001 333 20087 31006 5///1 55/// 2//// 81070
AAXX 11064 17510 12560 10000 10117 20040 30140 40150 53010 60001 81100 333 20097 30007 50121 55082 20912 81830 92417
AAXX 11064 17515 12560 10000 10029 20002 30121 40306 52010 60002 81100 333 20010 30102 50201 55081 21176 81830
AAXX 11064 17521 12560 12604 10048 20018 30137 40282 52011 60002 81100 333 20015 30100 50251 55082 21201 81830
AAXX 11064 17530 12560 10000 10029 20015 30232 40292 52011 60002 81100 333 20007 30102 55080 21227 81830
AAXX 11064 17535 12560 13604 10068 20032 30227 40265 52011 60002 81100 333 20052 30003 55032 21105 81830
AAXX 11064 17540 12560 12409 10072 20022 30272 40297 5//// 60002 81101 333 20038 30001 50161 55/// 2//// 81830 92427
AAXX 11064 17547 12560 10000 10123 20035 30033 40279 5//// 60002 81101 333 20112 30009 5///1 55071 21152 81830 92427
AAXX 11064 17550 12560 11503 10108 20035 30129 40277 52011 60002 81100 333 20086 30004 55073 21200 81830 92427
AAXX 11064 17572 12560 1//// 10116 20024 30266 40291 5//// 60001 81100 333 20097 30007 81830 92417
AAXX 11064 17042 12970 00903 10066 21014 30239 40280 52003 60002 333 20047 31004 55001 70005 92438
AAXX 11064 17074 12565 62301 11035 21050 39325 40304 53004 60002 83520 333 21050 35106 55049 20695 83630 86460 91105
AAXX 11064 17086 12670 30705 11021 21053 39568 40316 53004 60002 83500 333 21036 34104 2//// 83635
AAXX 11064 17088 12970 02202 11073 21108 38892 48573 52008 60002 333 21085 34109 55004 20301
AAXX 11064 17140 12965 30000 11036 21059 38776 48550 52006 60002 80001 333 21069 3/112 47004 55076 2//// 83070
AAXX 11064 17155 11630 51402 11029 21047 39140 40309 52006 60002 71000 83550 333 21041 34106 55034 83635 85359 91103
AAXX 11064 17203 12970 00000 11060 21108 38970 48603 53008 60002 333 21082 3/109 47012 55011 2//// 70002
AAXX 11064 17237 12970 22301 10010 21030 39776 40300 52014 60002 80001 333 20000 34104 55063 82070 91103
AAXX 11064 17250 12975 20506 11053 21081 38888 48562 54000 60002 80001 333 21071 34107 55078 82070
AAXX 11064 17270 12970 02903 10046 21008 39632 40298 52014 60002 333 20023 32102 55039
AAXX 11064 17295 12960 30506 10017 21006 30278 40286 52011 60002 80001 333 20000 31101 50324 55073 83068
AAXX 11064 17320 12670 33604 10101 20007 30278 40283 51003 60002 83200 333 20091 32006 50211 55080 83836 92428
AAXX 11064 17375 12970 00103 10089 21040 30277 40280 52012 60002 333 20056 30002 50271 55074 91106 92418
AAXX 11064 17026 12570 71507 10098 21020 30205 40244 53003 60002 84570 333 20075 30003 55055 20833 84630 87358 91112 92428
AAXX 11064 17034 12970 00000 10064 21017 30220 40267 50000 60002 333 20050 32003 70002 92428
AAXX 11064 17070 12962 41601 11039 21048 39393 40306 53005 60002 80001 333 21047 3/106 45998 50034 55051 20729 84070 91103
AAXX 11064 17084 11956 21401 11046 21058 39375 40330 52006 60002 71000 80001 333 21055 34107 55031 82070 91103
AAXX 11064 17090 NIL
AAXX 11064 17098 12960 00000 11156 21152 38260 48576 52008 60002 333 21211 3/122 43007 50064 55000 20435 70024
AAXX 11064 17150 11940 40000 11007 21012 30150 40280 52006 60002 71011 84030 333 21023 34103 50051 55078 21055 84360
AAXX 11064 17160 12970 61001 11045 21058 39108 48552 51003 60002 80006 333 21067 34107 55082 86270 91102
AAXX 11064 17184 11656 60000 11010 21016 30172 40289 53005 60002 71011 82105 333 21019 34103 55069 82840 86070 91103
AAXX 11064 17189 11935 13303 11095 21099 39110 48541 53009 60002 71000 80001 333 21117 34113 81070
AAXX 11064 17210 12670 70402 10008 20001 39238 40308 52013 60002 84520 333 20001 32102 55012 70004 84633 87459
AAXX 11064 17234 12670 50804 10024 21009 30214 40285 53005 60002 83250 333 20013 31000 50164 55090 83840 85360 91112
AAXX 11064 17260 12960 00000 11007 21028 39457 40309 52012 60002 333 21036 34104 50094 55080 21277
AAXX 11064 17290 12970 01101 10099 20058 30243 40276 53004 60002 333 20082 30004 50204 55072 91105 92408
AAXX 11064 17370 12970 21302 10090 21015 30281 40285 53011 60002 80001 333 20072 31003 50244 55073 2//// 82070 92418
AAXX 11061 14008 12999 12703 11023 21101 37471 47029 53003 60002 80001 333 21036 49065 55014 70000 92868 95175 444 78225
AAXX 11061 14023 12797 72901 10032 20023 39919 40221 52010 60002 87500 333 20005 31102 55002 70000 87650 555 20042 30046
AAXX 11061 14024 11398 81104 10013 20012 39094 48481 52008 69902 72052 885// 333 20013 31001 55007 79999 88607 95000
AAXX 11061 14026 12697 70000 10029 20015 39892 40220 52007 60002 87500 333 20000 31103 55002 70000 87634 555 20032 30038
AAXX 11061 14031 11596 83601 10028 20019 39987 40221 52009 60002 710// 885// 333 20006 30103 55000 70000 88630 555 20032 30036
AAXX 11061 14105 11896 71101 10082 20078 30182 40187 53005 60002 71022 87070 333 20073 31006 55000 79999 555 20082 30087
AAXX 11061 14106 11594 70000 10058 20054 30115 40184 51005 69922 71042 87500 333 20048 31004 55000 70002 87630 95090 555 20062 30064
AAXX 11061 14112 11/91 90000 10048 29098 69944 745// 333 10102 20033 3/002 70004
AAXX 11061 14121 11798 80601 10056 20017 39937 40207 52018 69902 76062 885// 333 20043 31001 55005 79999 88650 555 20050 30056
AAXX 11061 14122 11580 81001 10054 20019 30017 40217 52016 69902 761// 885// 333 20033 31/// 79999 83627 88635
AAXX 11064 16614 12565 70000 11002 21009 39464 40273 53006 60002 86550 333 21018 30/// 55000 70000 86625 84358 90730 91104 555 10000 30058 20000 89056 99095
AAXX 11064 16627 12560 60000 10074 20070 30229 40233 57001 60002 83445 333 20074 30/// 50600 55081 70060 83620 85068 90730 91107 555 10000 30074 20000 89059 99085 30000 10070 20070 30080 40084 50098 6//// 40000 47700 44200 50000 50072
AAXX 11064 16667 12560 61408 10116 20056 30254 40259 51002 60002 83556 333 20094 30/// 55078 70000 83625 84358 90730 91111 555 10000 30116 20000 89045 99078 30000 20094 30102 40000 47718 44185 50000 50088
AAXX 11064 16675 17/// /2603 10070 20044 30229 40243 52010 69902 741// 333 20059 90730 91106 555 10000 30080 20000 89029 99089 60000 65555 6////
AAXX 11064 16710 36/// /9902 10105 20067 39493 40266 52005 333 20082 90730 91112 555 10000 30106 20000 89034 99091
AAXX 11064 16723 12560 52605 10100 20066 30254 40270 52005 60002 84501 333 20062 30/// 55/// 70000 84625 84068 90730 91107 555 10000 30112 20000 89042 99079 40000 47725 44230 50000 50084
AAXX 11064 16738 NIL
AAXX 11064 16746 12560 60000 10124 20088 30075 40260 51002 60002 81156 333 20110 30/// 55075 70000 81820 84360 85068 90730 91106 555 10000 30124 20000 89052 99091 40000 47587 44190 50000 50106
AAXX 11064 16643 12560 33504 10118 20114 30245 40250 53005 60032 83551 333 20118 31/// 70028 83625 83359 90730 91109 555 10000 30136 20000 89074 99098 40000 47716 44220 50000 50116 60000 60028 60220
AAXX 11064 16648 12560 70000 10048 21005 30146 40239 51007 60002 82158 333 20048 30/// 50100 55064 70000 82830 84359 87268 90730 91106 555 10000 30084 20000 89031 99091 30000 10066 2//// 30078 40076 5//// 6//// 40000 47640 44210 50000 50028
AAXX 11064 16650 12460 62402 10120 20101 30226 40230 52001 60002 82141 333 20066 30/// 55046 70000 82818 85068 90730 91112 555 10000 30126 20000 89060 99097 30000 10080 20082 30084 40090 50114 60140 40000 47699 44205 50000 50110
AAXX 11064 16684 12860 60000 10130 20073 30193 40220 51003 60002 85052 333 20120 30/// 55048 70000 85358 85068 90730 91106 555 10000 30144 20000 89052 99075 40000 47675 44210 50000 50102
AAXX 11064 16732 11575 61307 10128 20093 30246 40258 54000 60002 703// 82206 333 20116 30/// 55063 70000 82820 86069 90730 91112 555 10000 30132 20000 89048 99079 40000 47709 44150 50000 50110
AAXX 11061 01160 41989 80402 10007 21021 39943 49960 57005 70222 8801/ 333 20004 91109
AAXX 11061 01241 11/20 90603 10007 21003 39960 49971 53014 60052 78582 333 21010 40998 70053 91110
AAXX 11061 14241 11580 70304 10051 20006 30075 40208 52009 69902 70262 87500 333 20030 31/// 79999
AAXX 11061 14284 11660 70302 10055 20044 30103 40213 52013 69902 72162 82570 333 20053 31003 70000
AAXX 11061 14307 11850 60702 10096 20081 30110 40186 53004 69902 71022 86070 333 20054 30/// 79999
AAXX 11061 14317 NIL
AAXX 11061 14431 11665 40802 10087 20081 30097 40191 53004 60082 70126 82870 333 20087 31/// 70083 81840
AAXX 11061 14444 33670 50102 10111 20093 30166 40195 52004 83831 333 20110 30///
AAXX 11061 14474 11462 70804 10129 20112 30015 40204 53001 69922 70162 83272 333 20128 31/// 70002
AAXX 11061 33088 32997 22703 11015 21021 39967 40164 52016 82040 333 21019
AAXX 11061 33177 32960 02102 11008 21020 39924 40168 52013 333 21012
AAXX 11061 33261 11396 82501 10009 20004 39944 40129 53004 69932 72842 889// 333 20008 87707
AAXX 11061 33275 11295 80000 10002 21001 39899 40126 57006 60062 72276 886// 333 20002 43006 88705
AAXX 11061 33301 32997 12305 11021 21027 39888 40179 53016 81030 333 21022
AAXX 11061 33325 31496 22402 10000 21011 39892 40166 52016 71011 82600 333 20000
AAXX 11061 33377 11218 82701 10003 20000 39948 40146 53005 60112 71082 886// 333 20003 43003 88705
AAXX 11061 33415 11996 12704 11010 21022 39786 40195 52016 69902 71081 80001 333 21010
AAXX 11061 33429 11397 42703 11006 21018 39757 40192 52018 69922 70281 82630 333 21006
AAXX 11061 33466 11658 62603 10013 21001 39969 40160 53016 60052 71062 86500 333 20013 86635
AAXX 11061 33526 11660 30000 11010 21020 39857 40208 52018 60032 78102 83500 333 21011
AAXX 11061 33562 11597 22703 10001 21014 39809 40179 52021 69962 70181 82500 333 20000
AAXX 11061 33614 11496 83003 10012 20007 30041 40148 53013 60032 78586 883// 333 20010 88913
AAXX 11061 33761 32998 83503 10023 20001 39946 40173 52026 8805/ 333 20023
AAXX 11061 33902 31596 52303 10065 20044 30081 40147 57002 71022 85500 333 20062
AAXX 11061 33983 32997 51807 10078 20034 30146 40207 57007 83051 333 20061
AAXX 11061 34415 11469 82304 10058 20034 30047 40143 56015 60012 70265 8762/ 333 20023
AAXX 11061 34523 11497 81503 10045 20023 30108 40185 57014 69902 72162 887// 333 20012 88617
AAXX 11061 34712 32563 82005 10038 20036 30110 40197 57011 885// 333 20027 88624
AAXX 11061 11934 12981 22703 11056 21077 39365 42793 52016 69902 80002 333 21067 3/109 41998 79999 82070
AAXX 11064 08231 11361 81502 10027 20017 39088 48484 56009 60002 75152 886// 333 20026 34002 50094 55076 70000
AAXX 11064 08055 12460 83404 10040 20036 39120 48481 54000 60002 887// 333 20038 31001 55000 70035 95090
AAXX 11064 08075 11430 62202 10048 20048 39138 48480 55000 69982 71062 865// 333 20047 55000 70008
AAXX 11064 08084 01102 81002 10042 20032 39756 40199 53004 60002 74544 886// 333 20042 3/005 55067 60007 70000
AAXX 11064 08171 NIL
AAXX 11064 08184 02960 40000 10034 20024 30009 40169 55002 60002 80002 333 20025 3/001 55069 60007 70000
AAXX 11064 08202 01440 80000 10044 20038 39258 42801 53002 60022 71022 8757/ 333 20036 30002 55002 60007 70040
AAXX 11064 08235 NIL
AAXX 11064 08238 11658 53206 10058 20045 30114 40176 56001 60002 71021 81132 333 20056 55076 70000
AAXX 11064 08280 11130 80503 10048 20044 39360 40196 55003 60012 72162 886// 333 20044 50064 55002 70010
AAXX 11064 08330 11308 71602 10088 20076 39959 40192 57005 60062 76166 87700 333 20082 32008 50024 55000 70110
AAXX 11064 08348 NIL
AAXX 11064 08360 02865 32705 10092 20042 30138 40176 55003 60002 82032 333 20092 30010 55010 60007 70000
AAXX 11064 08373 02465 72801 10098 20087 30152 40174 53002 60002 81138 333 20080 3/007 55009 60007 70000
AAXX 11064 08410 01240 82202 10093 20084 30084 40196 53003 60052 71062 8777/ 333 20092 32009 55005 69907 70049
AAXX 11064 08419 01215 72002 10074 20067 39519 40196 55006 60022 72165 877// 333 20057 32005 55017 60027 70022
AAXX 11064 08451 07/// /3506 10112 20112 30170 40203 53005 60032 740// 333 20112 3/009 55/// 69907 70026
AAXX 11064 08487 02675 63404 10110 20053 30148 40174 56006 60002 83832 333 20106 3/010 55035 60007 70000
AAXX 11064 78970 11470 70000 10244 20235 30072 40097 60001 71522 81832 333 01299 10325 20236 58003 81816 84359
AAXX 11064 78962 11468 30000 10256 20221 30096 40104 60001 71511 82832 333 02299 10309 20231 58001 82816
AAXX 11061 03951 17462 /2507 10092 20068 30027 40053 57016 60032 70181 84/// 333 20080 3/007 81/18 84/48
AAXX 11061 03953 11560 82606 10088 20064 30014 40050 56019 60052 78082 885// 333 20083 31006 55001 88628 92426
AAXX 11061 03955 11145 72304 10055 20055 39853 40051 57017 60042 70165 8252/ 333 20053 31004 55011 81702 87466
AAXX 11061 03956 17460 /2704 10071 20060 39966 40043 57017 60052 72286 88/// 333 20068 3/006 81/17 88/39
AAXX 11061 03962 11470 72205 10071 20057 30011 40035 57020 60022 70352 8657/ 333 20068 3/005 55001 81717 83626 85645
AAXX 11061 03963 17560 /2709 10080 20048 39990 40018 57018 60032 78185 84/// 333 20071 3/006 84/26 86/60 87/71
AAXX 11061 03966 17663 /2104 10064 20053 39940 40032 57020 60012 78185 88/// 333 20058 3/004 85/31 88/44
AAXX 11061 03967 11482 82206 10063 20053 39915 40028 56020 60012 70265 81607 333 20057 31004 55001 81715 88275
AAXX 11061 03969 11475 72305 10061 20054 39926 40030 56019 69952 70265 82532 333 20057 31005 55006 81715 87070
AAXX 11061 03973 16/// /2406 10044 20040 39764 40019 56015 60032 333 20041 3/003
AAXX 11061 03976 NIL
AAXX 11061 03980 17459 /2510 10063 20045 39959 49984 55013 60032 7818/ 87/// 333 20057 3/005 87/18
AAXX 11061 03976 11581 52307 10068 20024 39989 40001 58015 69962 72582 83301 333 20067 31005 55000 81920 81820 84070
AAXX 11063 04013 42589 40902 10004 21025 49809 57015 82210 555 3//18
AAXX 11063 04064 41420 83405 10008 21003 49771 57023 76977 8372/ 555 3//09
AAXX 11064 78970 11470 70000 10244 20235 30072 40097 60001 71522 81832 333 01299 10325 20236 58003 81816 84359
AAXX 11064 78962 11468 30000 10256 20221 30096 40104 60001 71511 82832 333 02299 10309 20231 58001 82816
AAXX 11064 04005 NIL
AAXX 11064 04018 41370 70518 10013 20002 49780 57009 76876 84520 555 3//21 82707 84635 87542
AAXX 11064 04030 42584 70808 10011 21019 49780 57010 8457/ 555 3//13 82622 84634 86350
AAXX 11064 04048 NIL
AAXX 11064 04063 41575 83303 10006 21010 49844 57015 78572 889// 555 3//05
AAXX 11064 04077 NIL
AAXX 11064 04082 NIL
AAXX 11064 04097 41556 81315 10030 21006 49860 57021 76166 8572/ 555 3/423
BBXX TFBKF 11064 99635 70202 46/// ///// 22200 10906 70028
BBXX TFBLK 11064 99657 70248 46/// ///// 22200 11210 70051
BBXX TFDRN 11064 99658 70212 46/// ///// 22200 10703 70016
BBXX TFGRS 11064 99663 70182 46/// ///// 22200 10706 70028
BBXX TFGRV 11064 99638 70225 46/// ///// 22200 11110 70051
BBXX TFHFN 11064 99642 70152 46/// ///// 22200 10808 70039
BBXX TFKGR 11064 99657 70136 46/// ///// 22200 10710 70050
BBXX TFSTD 11064 99664 70234 46/// ///// 22200 10907 70034
AAXX 11064 06011 07583 52205 10042 20015 39776 49844 57004 60042 70086 333 10060 20016 55300 20000 60027 70040 81/25 83/32 85/43 91138 91223
AAXX 11064 06030 02570 52413 10047 20034 30035 40051 52020 6///2 84531 333 10065 20043 31003 6///7 70019 82622 84656
AAXX 11064 06060 01670 32409 10035 20007 30007 40073 52011 60022 70281 82501 333 10056 20032 32001 69907 70035 82640 83075
AAXX 11064 06070 05675 12409 10037 20013 30042 40073 52015 60022 333 10052 20036 3/002 6///7 70019 81/33
AAXX 11064 06120 36980 12109 10022 20007 30067 40093 52015 333 10053 20021 81/69 91127
AAXX 11064 06180 01675 72613 10048 20016 30073 40079 52019 69922 70382 87502 333 10055 20037 32003 69907 70002 81635 86640 91127
AAXX 11064 06193 07463 72632 10057 20033 30062 40073 52024 60012 70084 333 10060 20046 55300 20000 69927 70016 81/18 85/23 87/50 91147
AAXX 11064 71102 NIL
AAXX 11064 71105 NIL
AAXX 11064 71107 NIL
AAXX 11064 71110 NIL
AAXX 11064 71111 16966 02610 10040 20016 30226 40234 52007 60001 333 10054 20012 70000 555 32721 40071
AAXX 11064 71112 16/// ///// 60001 333 70002
AAXX 11064 71113 17/// /1603 10006 20005 30179 40203 50000 69921 7//4/ 333 10009 21041 70002
AAXX 11064 71115 16/// /0903 11049 21059 39601 40195 52003 60001 333 11006 21090 70000
AAXX 11064 71116 16/// /3119 10001 21058 39027 40122 51012 60001 333 10121 21081 70000 555 33426 40041
AAXX 11064 71118 16/// /2706 11033 21071 39291 40123 53019 60001 333 10000 21102 70000
AAXX 11064 71121 16964 02810 11028 21096 39302 40134 53017 60001 333 10051 21094 70005 555 33321 40211
AAXX 11064 71127 16/// /2807 11019 21053 39219 40127 53019 60001 333 10049 21052 70000 555 33030 40192
AAXX 11064 71130 15966 83401 11079 21090 39617 40082 50001 60001 333 11072 21156 70000
AAXX 11064 71132 17466 82903 11157 21174 39813 40136 53003 60001 771// 333 11157 21227 70000
AAXX 11064 71133 46/// /2808 11054 21096 39361 40072 51010 6///1 333 11022 21091 7////
AAXX 11064 71139 16/// /3305 11011 21071 38648 40097 53010 60001 333 10068 21036 70000 555 32435 40193
AAXX 11064 71141 NIL
AAXX 11064 71142 15966 02610 11024 21059 39134 40104 53016 60001 333 10041 21036 70000
AAXX 11064 71143 NIL
AAXX 11064 71144 NIL
AAXX 11064 71147 NIL
AAXX 11064 71149 16/// /2002 11101 21116 60001 333 11024 21101 70000
AAXX 11064 71500 NIL
AAXX 11064 71501 NIL
AAXX 11064 71502 NIL
AAXX 11064 71503 NIL
AAXX 11064 71504 NIL
AAXX 11064 71505 46/// /3302 11180 21209 39457 40205 58009 6///1 333 11027 21207 7////
AAXX 11064 71506 NIL
AAXX 11064 71507 NIL
AAXX 11064 71508 17/// ///// 11030 21090 30179 40321 53001 69961 7//4/ 333 11007 21048 70006
AAXX 11064 71509 NIL
AAXX 11064 71511 16/// /3010 11076 21086 39440 40085 53026 60001 333 11012 21122 70000
AAXX 11064 71512 16/// /3203 11171 21189 30208 40223 51019 60001 333 11028 21183 70000
AAXX 11064 71513 15966 03205 11164 21192 30186 40202 51024 60001 333 10017 21164 70013
AAXX 11064 71514 NIL
AAXX 11064 71515 16/// /2711 11018 21048 39361 40062 53007 60001 333 10011 21120 70000 555 33137 40063
AAXX 11064 71516 16/// /2609 11004 21059 60001 333 10074 21089 70007 555 32620 40111
AAXX 11064 71517 NIL
AAXX 11064 71518 NIL
AAXX 11064 71519 NIL
AAXX 11064 71520 NIL
AAXX 11064 71521 NIL
AAXX 11064 71522 NIL
AAXX 11064 71523 NIL
AAXX 11064 71524 16/// /0000 11086 21094 30281 40308 50012 60001 333 11006 21087 70000
AAXX 11064 71525 NIL
AAXX 11064 71526 NIL
AAXX 11064 71527 15966 81608 11089 21111 39617 40135 56020 60001 333 11078 21155 70000
AAXX 11064 71528 NIL
AAXX 11064 71529 46/// /02// 11134 21153 39912 40144 53012 6///1 333 11097 21163 7//// 555 10030
AAXX 11064 71532 15666 82008 11050 21079 39935 40290 51002 60001 333 11033 21062 70000
AAXX 11064 71534 16964 81806 11053 21093 30023 40304 50001 60001 333 11026 21107 70000 555 32419 40201
AAXX 11064 71535 NIL
AAXX 11064 71536 NIL
AAXX 11064 71537 NIL
AAXX 11064 71539 NIL
AAXX 11064 71540 NIL
AAXX 11064 71541 NIL
AAXX 11064 71542 NIL
AAXX 11064 71543 NIL
AAXX 11064 71544 NIL
AAXX 11064 71545 NIL
AAXX 11064 71546 NIL
AAXX 11064 71547 NIL
AAXX 11064 71548 NIL
AAXX 11064 71549 NIL
AAXX 11064 71397 12574 73209 11021 21065 30225 40260 52022 60001 87500 333 10068 21022 70062 555 10000 20000 33219 40230
AAXX 11064 71400 17/64 /2703 11037 21049 60031 7//4/ 333 10050 21065 70026 555 32127 40191
AAXX 11064 71403 46/// /3319 10008 20008 30198 40218 51023 6///1 333 10085 20007 7//// 555 31935 40173
AAXX 11064 71411 16/// /3307 11026 21066 30242 40255 52025 60001 333 10092 21026 70033 555 31825 40081
AAXX 11064 71412 17/// /3121 11010 21068 30197 40207 51023 60011 7//4/ 333 10068 21013 70108 555 32231 40082
AAXX 11064 71421 NIL
AAXX 11064 71430 16/// /2713 11007 21077 30212 40311 51005 60001 333 10006 21020 70000 555 32731 40202
AAXX 11064 71431 16/// /3105 11033 21098 30207 40306 50002 60001 333 11007 21057 70000 555 33120 40181
AAXX 11064 71432 16/// /2204 11031 21078 30220 40320 51005 60001 333 11005 21034 70000 555 32726 40171
AAXX 11064 71433 NIL
AAXX 11064 71435 NIL
AAXX 11064 71441 NIL
AAXX 11064 71443 16/// /0503 11096 21104 39654 40073 55004 60001 333 11066 21127 70000
AAXX 11064 71444 16/// /0302 11115 21121 39298 40063 56015 60001 333 11017 21147 70000
AAXX 11064 71447 16/// /2205 11037 21057 39529 40075 56003 60001 333 10010 21109 70000 555 31918 40011
AAXX 11064 71467 16/// /3103 11213 21232 30015 40133 50000 60001 333 11200 21256 7////
AAXX 11064 71472 NIL
AAXX 11064 71474 17864 30000 11050 21062 38938 40198 53004 69951 7//44 333 11028 21092 70005
AAXX 11064 71510 NIL
AAXX 11064 71538 12874 72407 11057 21122 30093 40332 50003 60001 87030 333 11012 21073 70000 555 10000 20000 32517 40190
AAXX 11064 71600 17464 83219 10051 20024 30187 40193 51032 60021 7//44 333 10095 20048 70040 555 33227 40041
AAXX 11064 71601 NIL
AAXX 11064 71726 16/// /3301 11182 21198 39710 40276 50006 60001 333 11085 21192 70015 555 10020 20015
AAXX 11064 71727 11532 62704 11133 21154 30074 40280 53014 69901 78581 86500 333 11044 21158 47001 70020 90967 555 10034 20020
AAXX 11064 71728 11580 12505 11181 21222 30056 40289 52014 69901 70181 81500 333 11066 21182 44003 70002 90932 555 10002 20002
AAXX 11064 71730 11574 81706 11066 21071 39826 40264 50000 69901 77172 8657/ 333 11058 21138 47008 79999 90931 555 19999 29999
AAXX 11064 71731 12474 81604 11062 21078 39806 40272 50002 60001 885// 333 11057 21123 79999 555 19999 29999
AAXX 11064 71735 NIL
AAXX 11064 71738 NIL
AAXX 11064 71739 NIL
AAXX 11064 71749 16664 62103 11095 21112 39936 40190 56012 60001 333 11080 21162 70000
AAXX 11064 71799 11569 82703 10028 20014 30185 40209 55000 69901 76162 885// 333 10061 21031 79999 90915 555 10000 20000
AAXX 11064 71800 17/// /2107 10046 20046 30066 40099 55032 60021 7//4/ 333 10056 20019 70022 555 31826 40001
AAXX 11064 71801 11/08 91914 10035 20033 39915 40087 57038 60021 75164 333 10047 21009 70020 90916 555 10000 20000 31830 40041
AAXX 11064 71803 11156 83213 11006 21016 39924 40111 52008 60021 77186 887// 333 10042 21015 43001 70018 90952 93101 555 10010 20010 32131 40151
AAXX 11064 71807 NIL
AAXX 11064 71808 12474 23211 11135 21181 30094 40141 51006 60001 82500 333 10016 21136 44018 70046 555 10046 20046 32427 40000
AAXX 11064 71809 11574 32604 11044 21073 30117 40145 53003 69901 70187 82570 333 10041 21044 70106 90923 555 19999 29999 32125 40141
AAXX 11064 71810 NIL
AAXX 11064 71811 NIL
AAXX 11064 71813 NIL
AAXX 11064 71814 16/// /3408 11125 21154 30162 40172 52009 60001 333 10022 21125 70027 555 32223 40161
AAXX 11064 71815 11474 83112 11025 21060 30132 40163 53008 60021 70388 885// 333 10051 21030 70078 90933 555 10036 20034 32326 40151
AAXX 11064 71864 NIL
AAXX 11064 71865 16/// /2603 11086 21100 39387 40070 53015 60001 333 10011 21110 70000
AAXX 11064 71866 46962 02404 11096 21112 39474 40096 51022 6///1 333 11004 21100 7////
AAXX 11064 71867 11/28 90905 11090 21099 39753 40094 56003 60021 77177 333 11087 21165 48014 70024 90973 93102 555 10038 20032
AAXX 11064 71868 NIL
AAXX 11064 71869 12974 40000 11110 21117 39555 40089 51012 60001 81071 333 11061 21176 70000 555 10000 20000
AAXX 11064 71871 15966 02912 11037 21072 39293 40106 53013 60001 333 11004 21089 70000
AAXX 11064 71877 12974 61904 11018 21066 38867 40147 52009 60001 84071 333 10091 21054 70000 555 10000 20000 32931 40221
AAXX 11064 71878 12874 83605 11014 21066 39069 40152 51017 60001 81077 333 10032 21126 70000 555 10000 20000
AAXX 11064 71879 16964 02909 11012 21064 39322 40134 53016 60001 333 10056 21090 70000 555 33224 40221
AAXX 11064 71880 12280 60000 11112 21124 39070 40209 55002 60001 82671 333 11032 21131 70000 555 10000 20000
AAXX 11064 71882 16864 80000 11035 21051 39652 40200 56003 60001 333 11001 21038 70000
AAXX 11064 71883 NIL
AAXX 11064 71887 11666 80902 11030 21046 39777 40209 52002 69901 8157/ 333 11006 21117 79999 90901 555 19999 29999
AAXX 11064 71889 12474 71705 11037 21057 39778 40205 53002 60001 82670 333 11010 21043 70000 555 10000 20000 31527 40071
AAXX 11064 71891 16564 82002 11022 21053 39932 40213 51010 60001 333 11014 21081 70000
AAXX 11064 71892 12466 83205 10036 20020 30201 40206 57002 60001 8757/ 333 10037 21032 70002 555 10000 20000
AAXX 11064 71250 17/// /2008 10037 20031 39948 40083 56036 60011 7//4/ 333 10046 21017 70011 555 32024 40041
AAXX 11064 71251 16/// /3105 11049 21075 39214 40144 51015 60001 333 10084 21049 70000 555 32634 40113
AAXX 11064 71252 NIL
AAXX 11064 71253 46/// /2101 11116 21121 6///1 333 11111 21162 7////
AAXX 11064 71254 16/// /3011 11036 21063 60001 333 10035 21129 70000 555 33222 40221
AAXX 11064 71255 17/// /0107 11108 21124 69941 7//4/ 333 11068 21123 70088 555 10160 20088 30218 40001
AAXX 11064 71256 46/// /3010 11026 21053 39199 40139 53017 6///1 333 10035 21068 7//// 555 32826 40001
AAXX 11064 71257 NIL
AAXX 11064 71258 NIL
AAXX 11064 71259 NIL
AAXX 11064 71261 16/// /2413 11022 21080 30032 40301 51002 60001 333 11021 21051 70004 555 32723 40161
AAXX 11064 71263 12674 12508 11057 21101 30020 40320 53002 60001 81500 333 11032 21087 70000 555 10000 20000 32524 40181
AAXX 11064 71264 16/// /3410 11001 21032 30201 40233 51019 60001 333 10093 21001 70046 555 33421 40021
AAXX 11064 71265 15966 82410 11026 21088 30222 40319 51002 60001 333 11009 21043 70000
AAXX 11064 71266 NIL
AAXX 11064 71267 15966 63404 11040 21077 39048 40148 51014 60001 333 10111 21040 70000
AAXX 11064 71268 NIL
AAXX 11064 71269 NIL
AAXX 11064 71270 NIL
AAXX 11064 71271 NIL
AAXX 11064 71272 15666 82802 11190 21210 39761 40129 53003 60001 333 11188 21283 70000
AAXX 11064 71273 16/// /2605 11009 21065 39418 40077 53012 60001 333 11008 21083 70000
AAXX 11064 71274 NIL
AAXX 11064 71275 NIL
AAXX 11064 71276 NIL
AAXX 11064 71277 NIL
AAXX 11064 71278 NIL
AAXX 11064 71279 16/// /2803 11227 21250 30169 40238 51014 60001 333 11061 21227 70010
AAXX 11064 71281 NIL
AAXX 11064 71282 46/// /2416 11023 21041 30024 40302 50006 6///1 333 11023 21038 7//// 555 32530 40122
AAXX 11064 71283 NIL
AAXX 11064 71284 NIL
AAXX 11064 71285 NIL
AAXX 11064 71286 NIL
AAXX 11064 71287 NIL
AAXX 11064 71288 NIL
AAXX 11064 71289 NIL
AAXX 11064 71290 17661 83505 11040 21047 39349 40193 51017 60001 771// 333 11016 21050 70000
AAXX 11064 71291 16/// /3001 11094 21122 39888 40190 55006 60001 333 11083 21186 70000
AAXX 11064 71292 16964 03205 11137 39453 40072 53004 60001 333 11045 21137 70000
AAXX 11064 71294 16/// /2002 11065 21086 39877 40292 50005 60001 333 11035 70005
AAXX 11064 71295 NIL
AAXX 11064 71296 NIL
AAXX 11064 71297 16/// /2302 11059 21092 60001 333 11019 21072 70000 555 32621 40181
AAXX 11064 71298 16/// /2708 11047 21110 30090 40332 51003 60001 333 11020 21065 70000 555 32517 40201
AAXX 11064 71299 NIL
AAXX 11064 71300 NIL
AAXX 11064 71301 NIL
AAXX 11064 71302 16/// /1604 11031 21046 39358 40187 51010 60001 333 11008 21063 70000
AAXX 11064 71303 46/// ///// 11027 21094 6///1 333 11008 21044 7////
AAXX 11064 71305 15266 82806 11120 21128 39861 40168 53020 60001 333 11110 21184 70000
AAXX 11064 71306 NIL
AAXX 11064 71307 NIL
AAXX 11064 71308 17/// /3213 10002 21038 30126 40211 51024 69951 7//4/ 333 10085 20002 70044 555 31825 40091
AAXX 11064 71309 NIL
AAXX 11064 71310 16/// /2915 11026 21087 30185 40222 52024 60001 333 10060 21026 70057 555 33324 40031
AAXX 11064 71311 NIL
AAXX 11064 71312 16/// /3401 11083 21096 39615 40079 50002 60001 333 11075 21165 70000
AAXX 11064 71314 NIL
AAXX 11064 71315 NIL
AAXX 11064 71316 16/// /3313 11032 21062 39425 40113 53034 60001 333 10006 21066 70000 555 33321 40051
AAXX 11064 71317 NIL
AAXX 11064 71318 16/// /3111 11014 21068 39177 40121 52018 60001 333 10065 21109 70000 555 33225 40221
AAXX 11064 71319 16/// /3003 11143 21165 39353 40247 51018 60001 333 11036 21143 70009
AAXX 11064 71320 16/// /2915 11222 21241 30039 40040 53006 60001 333 11211 21318 70003 555 32918 40061
AAXX 11064 71321 NIL
AAXX 11064 71322 NIL
AAXX 11064 71323 16/// /2503 11094 21126 39984 40274 51017 60001 333 10005 21097 70010
AAXX 11064 71331 17/// /0803 11123 21146 69931 7//4/ 333 11122 21234 70003
AAXX 11064 71332 NIL
AAXX 11064 71334 46/// /2803 11192 21219 39787 40130 53003 6///1 333 11190 21296 7////
AAXX 11064 71335 46964 02618 11159 55000 6///1 333 11150 21186 7//// 555 32740 40083
AAXX 11064 71336 46/// ///10 10045 20038 30047 40069 55024 6///1 333 10053 20015 7////
AAXX 11064 71337 46/// /3113 11054 21068 39874 40113 53007 6///1 333 10025 21054 7//// 555 32128 40172
AAXX 11064 71338 46864 80607 11126 21147 39946 49953 55001 6///1 333 11113 21147 7////
AAXX 11064 71339 16964 02910 11144 21192 30111 40126 53001 60001 333 11031 21147 70000 555 33119 40231
AAXX 11064 71340 NIL
AAXX 11064 71341 NIL
AAXX 11064 71342 NIL
AAXX 11064 71343 NIL
AAXX 11064 71344 NIL
AAXX 11064 71345 NIL
AAXX 11064 71346 NIL
AAXX 11064 71347 NIL
AAXX 11064 71348 NIL
AAXX 11064 71349 NIL
AAXX 11064 71950 17366 81301 11070 21075 39570 40218 52013 60001 771// 333 11057 21112 70000
AAXX 11064 71952 16/// /0000 11157 21171 39335 40220 51015 60001 333 11049 21188 70000
AAXX 11064 71954 NIL
AAXX 11064 71956 NIL
AAXX 11064 71959 NIL
AAXX 11064 71960 460// /2603 11160 30011 40146 58004 6///1 333 11136 21168 7////
AAXX 11064 71962 16/// /1204 11079 21100 39698 40128 56027 60001 333 11029 21163 70000
AAXX 11064 71963 NIL
AAXX 11064 71967 16/// /2001 11092 21099 30202 40311 51013 60001 333 10004 21097 70003 555 32819 40071
AAXX 11064 71970 NIL
AAXX 11064 71971 NIL
AAXX 11064 71972 460// ///// 11113 39497 49961 58016 6///1 333 11105 21134 7////
AAXX 11064 71973 46/// /2605 11045 21061 39959 40148 53002 6///1 333 10023 21048 7//// 555 32126 40121
AAXX 11064 71974 NIL
AAXX 11064 71975 460// /0810 11105 39212 49933 55002 6///1 333 11091 21115 7//// 555 32818 40141
AAXX 11064 71976 NIL
AAXX 11064 71977 NIL
AAXX 11064 71978 NIL
AAXX 11064 71979 NIL
AAXX 11064 71980 NIL
AAXX 11064 71981 NIL
AAXX 11064 71982 NIL
AAXX 11064 71983 NIL
AAXX 11064 71984 16/// /3007 11167 21182 30126 40134 53009 60001 333 11137 21170 70000 555 10030
AAXX 11064 71985 NIL
AAXX 11064 71986 NIL
AAXX 11064 71987 16/// /3128 11040 21083 30217 40227 53016 60001 333 10035 21043 70061 555 32934 40053
AAXX 11064 71988 NIL
AAXX 11064 71989 NIL
AAXX 11064 71990 NIL
AAXX 11064 71999 46/// ///// 11029 6///1 333 11022 21082 7////
AAXX 11064 71450 NIL
AAXX 11064 71451 16/// /0701 11125 21143 39686 40124 53005 60001 333 11114 21252 70000
AAXX 11064 71452 NIL
AAXX 11064 71453 NIL
AAXX 11064 71454 16/// /1601 11086 21104 39376 40074 51004 60001 333 11051 21133 70000
AAXX 11064 71455 46/// /3014 11033 21066 39300 40097 53024 6///1 333 10047 21061 7//// 555 32523 40201
AAXX 11064 71456 16/// /0103 11099 21106 39478 40084 53013 60001 333 11047 21132 70000
AAXX 11064 71457 16/// /0102 11068 21082 39233 40128 52016 60001 333 10062 21074 70000 555 32524 40151
AAXX 11064 71458 16/// /3010 11025 21058 39344 40122 52020 60001 333 10006 21110 70000 555 33017 40031
AAXX 11064 71459 NIL
AAXX 11064 71460 16/// /2508 11018 21089 30024 40272 58001 60001 333 11017 21071 70000 555 32624 40221
AAXX 11064 71461 NIL
AAXX 11064 71462 NIL
AAXX 11064 71463 NIL
AAXX 11064 71464 NIL
AAXX 11064 71465 NIL
AAXX 11064 71466 NIL
AAXX 11064 71468 NIL
AAXX 11064 71470 NIL
AAXX 11064 71471 17558 83106 11029 21042 39380 40179 51025 60001 771// 333 10018 21060 70000
AAXX 11064 71473 16/// /3202 10018 21003 30174 40204 54000 60001 333 10027 20001 70000
AAXX 11064 71475 16/// /3103 10000 21001 30124 40219 53003 60001 333 10005 21021 70000
AAXX 11064 71476 NIL
AAXX 11064 71477 16/// /3315 10043 20019 60001 333 10052 20032 70034 555 32929 40102
AAXX 11064 71478 NIL
AAXX 11064 71479 NIL
AAXX 11064 71480 NIL
AAXX 11064 71481 NIL
AAXX 11064 71482 NIL
AAXX 11064 71483 NIL
AAXX 11064 71484 NIL
AAXX 11064 71485 16/// /0203 10043 20029 30200 40221 53005 60001 333 10059 20038 70034 555 31223 40111
AAXX 11064 71486 16/// /1704 11031 21067 38941 40148 53008 60001 333 10018 21123 70000
AAXX 11064 71487 16/// /2609 11016 21048 39219 40082 53009 60001 333 10045 21081 70000 555 32523 40201
AAXX 11064 71489 16/// /2906 11051 21087 39298 40104 51017 60001 333 10007 21109 70000
AAXX 11064 71490 NIL
AAXX 11064 71491 16/// /02// 11102 21114 60001 333 10154 21199 70000
AAXX 11064 71492 NIL
AAXX 11064 71493 16/// /3312 11034 21071 30209 40248 53030 60001 333 10077 21034 70021 555 33524 40001
AAXX 11064 71494 16/// /2705 11110 21126 39740 40280 51015 60001 333 11012 21110 70020 555 32820 40181
AAXX 11064 71495 NIL
AAXX 11064 71496 NIL
AAXX 11064 71497 46/// /2203 11094 21109 39925 40197 58002 6///1 333 11092 21162 7//// 555 30819 40081
AAXX 11064 71498 NIL
AAXX 11064 71499 15466 80205 11151 21169 39481 40126 53012 60001 333 11113 21151 70000
AAXX 11064 71150 46/// /1904 11080 21088 39373 40060 56009 6///1 333 11041 21166 7////
AAXX 11064 71151 NIL
AAXX 11064 71152 17/// /3310 11012 21056 30141 40154 53032 60011 7//4/ 333 10057 21012 70029 555 32032 40182
AAXX 11064 71153 16/// /1602 11023 21084 60001 333 10115 21023 70000 555 32731 40082
AAXX 11064 71154 16/// /2410 10013 21084 60001 333 10093 20000 70000 555 32245 40233
AAXX 11064 71155 NIL
AAXX 11064 71156 NIL
AAXX 11064 71157 NIL
AAXX 11064 71158 NIL
AAXX 11064 71159 NIL
AAXX 11064 71160 NIL
AAXX 11064 71161 16/// /2203 11066 21098 30148 40301 51008 60001 333 11010 21066 70000 555 32617 40171
AAXX 11064 71162 NIL
AAXX 11064 71163 46/// /2503 11071 21076 39795 40140 55002 6///1 333 11071 21111 7////
AAXX 11064 71164 NIL
AAXX 11064 71165 NIL
AAXX 11064 71166 NIL
AAXX 11064 71167 15766 33002 11039 21083 39045 40145 53013 60001 333 10045 21056 70000
AAXX 11064 71168 16/// /0000 11064 21074 39613 40208 58010 60001 333 10080 21164 70000
AAXX 11064 71170 NIL
AAXX 11064 71171 47/// /2103 11055 21099 30214 40315 52004 6///1 7//4/ 333 11014 21057 7//// 555 32821 40201
AAXX 11064 71172 16/// ///// 11003 21065 30044 40266 58001 60001 333 11003 21069 70141 555 10200 20141
AAXX 11064 71175 16/// /2905 10010 21003 30159 40194 52023 60001 333 10081 20010 70003 555 31931 40192
AAXX 11064 71176 460// /2431 11163 39286 49979 53002 6///1 333 11161 21186 7//// 555 32350 40023
AAXX 11064 71177 460// /2603 11168 39001 40030 51007 6///1 333 11164 21232 7//// 555 32247 40163
AAXX 11064 71178 17/// /2512 10039 20031 30051 40083 56029 60011 7//4/ 333 10049 21005 70012 555 32239 40173
AAXX 11064 71179 460// /2409 11200 39224 40074 58016 6///1 333 11148 21221 7////
AAXX 11064 71180 17/// /3219 11015 21073 30139 40178 53017 69971 7//4/ 333 10058 21016 70055 555 31730 40122
AAXX 11064 71181 17164 62812 10048 20041 30052 40088 55000 60041 74344 333 10058 21006 70050
AAXX 11064 71183 16/// /3404 30255 50009 60001 333 70000 555 33020 40071
AAXX 11064 71184 NIL
AAXX 11064 71186 NIL
AAXX 11064 71187 17228 82002 10006 20006 30154 40203 57003 60001 710// 333 10034 21065 70000
AAXX 11064 71189 NIL
AAXX 11064 71190 NIL
AAXX 11064 71191 16/// ///// 11044 21085 60001 333 10074 21044 70050
AAXX 11064 71192 15361 83102 11070 21071 39534 40212 53009 60001 333 11038 21075 70000
AAXX 11064 71193 16/// /2006 11095 21119 39852 40227 58003 60001 333 11092 21149 70000
AAXX 11064 71196 16/// /1802 11055 21068 30082 40287 50003 60001 333 11030 21110 70000
AAXX 11064 71197 16964 03317 11019 21075 30127 40177 53019 60001 333 10053 21020 70005 555 32030 40122
AAXX 11064 71198 46/// /2610 11041 21117 6///1 333 10006 21043 7//// 555 32521 40011
AAXX 11064 71199 NIL
AAXX 11064 71401 16/// /3102 11047 21059 39496 40196 55001 60001 333 11001 21100 70011
AAXX 11064 71402 NIL
AAXX 11064 71404 NIL
AAXX 11064 71405 NIL
AAXX 11064 71406 NIL
AAXX 11064 71407 NIL
AAXX 11064 71408 NIL
AAXX 11064 71409 NIL
AAXX 11064 71410 17764 81104 11114 21130 39828 40115 56009 60001 771// 333 11114 21210 70000
AAXX 11064 71413 NIL
AAXX 11064 71414 NIL
AAXX 11064 71415 16/// /3225 11004 21053 30214 40217 51022 60001 333 10081 21004 70088 555 33230 40062
AAXX 11064 71417 NIL
AAXX 11064 71418 NIL
AAXX 11064 71419 46/// /3122 10021 21016 30185 40195 51023 6///1 333 10082 20018 7//// 555 33130 40062
AAXX 11064 71423 NIL
AAXX 11064 71424 46/// /2507 6///1 333 7//// 555 32318 40071
AAXX 11064 71425 16/// /2914 11086 21139 30192 40229 51013 60001 333 10008 21087 70021 555 33331 40012
AAXX 11064 71426 NIL
AAXX 11064 71427 NIL
AAXX 11064 71428 NIL
AAXX 11064 71429 NIL
AAXX 11064 71434 NIL
AAXX 11064 71436 15966 82405 11046 21091 30067 40309 50002 60001 333 11016 21081 70000
AAXX 11064 71437 46/// /2305 11028 21090 30218 40316 51006 6///1 333 11018 21048 7//// 555 32421 40181
AAXX 11064 71438 NIL
AAXX 11064 71439 NIL
AAXX 11064 71440 NIL
AAXX 11064 71442 16/// /1006 11092 21106 39768 40087 56025 60001 333 11058 21121 70000
AAXX 11064 71445 NIL
AAXX 11064 71446 NIL
AAXX 11064 71448 NIL
AAXX 11064 71449 NIL
AAXX 11064 71665 16/// /2407 11168 21216 30081 40091 58004 60001 333 11151 21179 70000 555 32731 40072
AAXX 11064 71666 16/// /2604 11074 21113 30207 40253 53020 60001 333 10041 21074 70006 555 33222 40041
AAXX 11064 71667 NIL
AAXX 11064 71668 16/// /2504 11073 21096 30221 40266 51013 60001 333 10043 21073 70000 555 32924 40221
AAXX 11064 71669 NIL
AAXX 11064 71670 16/// ///// 11090 21114 60001 333 10028 21090 70000
AAXX 11064 71671 16/// /3309 11020 21070 30184 40245 53025 60001 333 10073 21020 70044 555 33121 40001
AAXX 11064 71672 16/// /2304 11048 21100 30031 40303 51005 60001 333 11016 21081 70003 555 32518 40161
AAXX 11064 71673 NIL
AAXX 11064 71674 NIL
AAXX 11064 71675 17966 02103 11188 21210 39865 40157 57012 60041 70044 333 11159 21241 70061
AAXX 11064 71679 16/// /3306 11023 21047 39163 40185 53011 60001 333 10023 21061 70000 555 32823 40211
AAXX 11064 71680 NIL
AAXX 11064 71681 46/// /2002 11036 21048 6///1 333 10000 21091 7////
AAXX 11064 71682 NIL
AAXX 11064 71683 NIL
AAXX 11064 71684 15966 82008 11101 21129 39943 40256 52001 60001 333 11089 21146 70000
AAXX 11064 71685 15866 83501 11037 21044 39651 40200 56003 60001 333 10000 21037 70000
AAXX 11064 71686 NIL
AAXX 11064 71687 16/// /0000 11014 21026 39400 40192 53002 60001 333 10001 21089 70000 555 10010
AAXX 11064 71688 16/// /0000 11034 21035 39135 40182 53001 60001 333 11007 21043 70000 555 10020
AAXX 11064 71689 17648 83210 11109 21123 39691 40157 53046 69981 7714/ 333 11064 21122 70093
AAXX 11064 71690 NIL
AAXX 11064 71691 15966 02607 11181 21202 30237 40266 53011 60001 333 11040 21184 70000
AAXX 11064 71692 NIL
AAXX 11064 71694 17/// /1903 11050 21067 39925 40300 51004 69971 7//4/ 333 11042 21076 70093 555 10170 20093
AAXX 11064 71695 17/// /0706 11089 21105 39749 40089 57003 60021 7//4/ 333 11086 21164 70026 555 10030 20026
AAXX 11064 71696 16/// /2303 11238 21261 30092 40130 53004 60001 333 11213 21265 70000
AAXX 11064 71697 15966 82204 11044 21102 30139 40316 50001 60001 333 11012 21067 70000
AAXX 11064 71699 16/// /3304 11052 21097 30264 40272 51022 60001 333 10073 21051 70082
AAXX 11064 71812 NIL
AAXX 11064 71819 15966 03207 11126 21150 30092 40134 53011 60001 333 10009 21126 70000
AAXX 11064 71820 16/// /2605 11054 21099 30194 40312 51006 60001 333 11001 21055 70000 555 32718 40171
AAXX 11064 71823 16559 82205 11217 21252 39806 40207 58002 60001 333 11182 21221 70000 555 32321 40211
AAXX 11064 71824 46/// /2102 11156 21173 6///1 333 11137 21174 7////
AAXX 11064 71826 16/// /0000 11131 21161 39908 49950 52001 60001 333 11081 21132 70005 555 10010 20005
AAXX 11064 71829 16/// /2606 11159 21200 30085 40253 53012 60001 333 11045 21159 70009 555 32619 40171
AAXX 11064 71833 NIL
AAXX 11064 71835 16/// /1805 11129 21157 39657 40152 56014 60001 333 11122 21232 70000
AAXX 11064 71837 NIL
AAXX 11064 71839 NIL
AAXX 11064 71840 46/// /2411 11011 21046 6///1 333 10004 21096 7//// 555 32419 40041
AAXX 11064 71846 16/// /1201 11234 21252 39845 40176 58013 60001 333 11133 21260 70000
AAXX 11064 71847 NIL
AAXX 11064 71848 NIL
AAXX 11064 71849 16/// /1506 11083 21099 39777 40080 56024 60001 333 11038 21132 70000
AAXX 11064 71816 12974 02507 11188 21242 30100 40164 55004 60001 333 11093 21198 70002 555 10002 20002 32918 40210
AAXX 11064 71817 NIL
AAXX 11064 71818 12974 02820 11135 21166 30101 40120 56011 60001 333 11072 21142 70004 555 10004 20004 32720 40071
AAXX 11064 71822 11574 72203 11158 21181 39761 40259 52006 69901 77177 87500 333 11127 21167 43021 70004 90983 555 10004 20004
AAXX 11064 71825 12974 02708 11248 21296 39497 40206 52003 60001 333 11152 21250 70002 555 10002 20002
AAXX 11064 71827 11559 82104 11160 21186 39927 40181 56002 69921 77177 885// 333 11156 21201 47018 70002 90983 555 10002 20002
AAXX 11064 71828 16462 83006 11207 21254 39494 40162 53005 60001 333 11187 21241 70000 555 32528 40002
AAXX 11064 71831 NIL
AAXX 11064 71832 NIL
AAXX 11064 71834 11574 80000 11115 21132 39740 40183 58011 69901 77122 885// 333 11112 21175 48012 79999 90942 555 19999 29999
AAXX 11064 71841 NIL
AAXX 11064 71842 12574 41505 11091 21117 39660 40143 57018 60001 82570 333 11085 21172 79999 555 19999 29999
AAXX 11064 71844 16764 32002 11191 21232 39866 40157 58012 60001 333 11159 21255 70000
AAXX 11064 71845 NIL
AAXX 11064 71850 12974 01408 11074 21096 39602 40111 58027 60001 333 11065 21177 48003 79999
AAXX 11064 71852 16964 01506 11083 21099 39777 40076 56025 60001 333 11037 21132 70000
AAXX 11064 71854 NIL
AAXX 11064 71858 NIL
AAXX 11064 71861 NIL
AAXX 11064 71862 12974 72410 11023 21055 39384 40087 53003 60001 80001 333 10043 21089 70000 555 10000 20000 32320 40210
AAXX 11064 71863 46964 02913 11020 21058 39376 40076 53011 6///1 333 10046 21116 7////
AAXX 11064 71900 46/// /23// 11171 21220 30098 40111 55004 6///1 333 11121 21172 7////
AAXX 11064 71903 NIL
AAXX 11064 71904 NIL
AAXX 11064 71914 16/// /0000 10020 20004 39985 40209 55000 60001 333 10032 21001 70000
AAXX 11064 71916 NIL
AAXX 11064 71918 460// ///// 11252 6///1 333 7////
AAXX 11064 71920 NIL
AAXX 11064 71921 NIL
AAXX 11064 71923 NIL
AAXX 11064 71927 NIL
AAXX 11064 71941 15966 81906 11137 21153 39828 40263 57003 60001 333 11112 21194 70000
AAXX 11064 71947 17566 61807 11153 21170 39880 40242 56005 60001 771// 333 11141 21173 70000
AAXX 11064 71550 NIL
AAXX 11064 71551 NIL
AAXX 11064 71552 46/// /1010 11071 21094 6///1 333 11059 21128 7////
AAXX 11064 71553 NIL
AAXX 11064 71554 16/// /3110 11097 21150 30265 40271 52012 60001 333 11016 21098 70056 555 32827 40211
AAXX 11064 71555 16/// /1502 11027 21092 38570 40129 51004 60001 333 10110 21027 70000 555 32731 40072
AAXX 11064 71556 16/// /2902 11085 21090 39472 40082 53023 60001 333 10011 21107 70000 555 10010
AAXX 11064 71557 46/// /0402 11051 21061 6///1 333 11011 21118 7////
AAXX 11064 71558 46/// ///// 11123 21150 30088 40125 53011 6///1 333 10007 21123 7////
AAXX 11064 71559 16/// /2409 11022 21051 39381 40081 53003 60001 333 10044 21087 73499 555 32218 40221
AAXX 11064 71560 NIL
AAXX 11064 71563 NIL
AAXX 11064 71564 16/// /2508 10002 21045 39701 40067 56016 60001 333 10012 21081 70000
AAXX 11064 71565 NIL
AAXX 11064 71566 NIL
AAXX 11064 71567 NIL
AAXX 11064 71568 16/// /3015 10051 20027 30199 40211 55000 60001 333 10056 20017 70008 555 33020 40031
AAXX 11064 71569 16/// /2712 11024 21058 39363 40061 53014 60001 333 10062 21107 70000 555 32519 40021
AAXX 11064 71570 16/// /1204 11075 21107 39775 40092 56032 60001 333 11059 21141 70000
AAXX 11064 71571 NIL
AAXX 11064 71572 NIL
AAXX 11064 71573 NIL
AAXX 11064 71574 12974 02706 11111 21137 30178 40253 53015 60001 333 11002 21115 70000 555 10000 20000
AAXX 11064 71575 16/// /0307 11145 21187 39977 40043 53004 60001 333 11129 21157 70000
AAXX 11064 71576 16/// /1903 11183 21207 39926 40012 55001 60001 333 11169 21199 70000
AAXX 11064 71577 46/// /1006 11064 21085 6///1 333 11055 21124 7////
AAXX 11064 71578 16/// /2509 11084 21124 60001 333 10004 21084 70000 555 32718 40091
AAXX 11064 71579 16/// /0000 11078 21098 39784 40071 56026 60001 333 11038 21114 70000
AAXX 11064 71580 11669 71406 11221 21264 30063 40100 55000 69901 77177 87500 333 11221 21283 48030 79999 90973 555 19999 29999
AAXX 11064 71581 NIL
AAXX 11064 71582 17366 63002 10000 20000 30184 40238 53010 69981 7004/ 333 10060 21001 70057
AAXX 11064 71583 NIL
AAXX 11064 71584 15966 62905 11153 21196 30165 40214 51023 60001 333 11031 21153 70000
AAXX 11064 71585 NIL
AAXX 11064 71586 17/// /0706 11097 21110 39618 40091 53009 60031 7//4/ 333 11086 21146 70029 555 10040 20029
AAXX 11064 71587 NIL
AAXX 11064 71588 16/// /0000 11051 21065 60001 333 10017 21051 70000
AAXX 11064 71589 17/// /3308 10001 21001 39961 40093 55013 60031 7//4/ 333 10042 21016 70031 555 32229 40192
AAXX 11064 71590 16/// /3002 11156 21173 30064 40263 52015 60001 333 11007 21175 70000
AAXX 11064 71592 NIL
AAXX 11064 71593 NIL
AAXX 11064 71596 NIL
AAXX 11064 71598 16/64 /3016 11070 21130 30237 40243 53025 60001 333 10020 21071 70000 555 10010 33129 40042
AAXX 11064 71599 16/// /3402 11047 21070 30055 40262 53019 60001 333 10067 21048 70043
AAXX 11064 71201 16/// ///// 10041 20016 60001 333 10044 20008 70004
AAXX 11064 71202 16/// ///// 11037 21070 60001 333 10028 21107 70004
AAXX 11064 71203 15466 83202 11045 21056 39670 40201 51004 60001 333 10017 21100 70000
AAXX 11064 71209 46/// /3309 10045 6///1 333 10045 20022 7////
AAXX 11064 71211 46/// /0307 10034 20015 30189 40201 56002 6///1 333 10038 20013 7////
AAXX 11064 71212 NIL
AAXX 11064 71213 NIL
AAXX 11064 71214 NIL
AAXX 11064 71215 46/// /0501 11033 21059 39850 40203 51002 6///1 333 11024 21050 7////
AAXX 11064 71216 16/// /0802 11026 21045 39562 40188 56002 60001 333 11013 21065 70000
AAXX 11064 71217 NIL
AAXX 11064 71218 16/// /2102 11029 21045 39761 40195 53004 60001 333 10013 21063 70000
AAXX 11064 71219 46/// /0605 10030 20019 30214 40220 53013 6///1 333 10067 20027 7//// 555 31529 40072
AAXX 11064 71220 46/// /1107 10032 20019 6///1 333 10061 20032 7////
AAXX 11064 71221 NIL
AAXX 11064 71222 16/// /0000 11057 21062 39250 40233 53015 60001 333 11022 21061 70039 555 10050 20039
AAXX 11064 71223 NIL
AAXX 11064 71224 NIL
AAXX 11064 71225 NIL
AAXX 11064 71226 NIL
AAXX 11064 71227 NIL
AAXX 11064 71228 NIL
AAXX 11064 71229 NIL
AAXX 11064 71230 17/// /3304 11016 21026 39259 40156 53018 69971 7//4/ 333 10033 21050 70007 555 10020 20007 32623 40141
AAXX 11064 71231 16/// /3304 11030 21064 60001 333 10084 21036 70000 555 32323 40101
AAXX 11064 71232 16/// /2507 11017 21096 38628 40126 53010 60001 333 10028 21040 70000 555 32631 40102
AAXX 11064 71233 NIL
AAXX 11064 71234 16/// /3203 11060 21078 38949 40138 53007 60001 333 10096 21063 70000 555 32531 40092
AAXX 11064 71235 16/// /2108 11030 21072 60001 333 10084 21040 70000 555 33131 40232
AAXX 11064 71236 46/// /2803 11004 21087 6///1 333 10053 21104 7//// 555 32938 40203
AAXX 11064 71237 46/// /0000 11082 21090 39315 40134 53017 6///1 333 10095 21085 7//// 555 32528 40182
AAXX 11064 71238 16/// /2702 11042 21070 60001 333 10039 21086 70000
AAXX 11064 71239 16/// /2208 11048 21067 39604 40067 55013 60001 333 10009 21120 70000
AAXX 11064 71240 16/// /0000 11039 21076 39272 40122 53018 60001 333 10064 21111 70000 555 32222 40211
AAXX 11064 71241 NIL
AAXX 11064 71242 16/// /3004 11026 21068 60001 333 10041 21088 70000
AAXX 11064 71243 NIL
AAXX 11064 71244 16/// /2908 11031 21083 38901 40125 50014 60001 333 10082 21039 70000 555 32632 40122
AAXX 11064 71245 NIL
AAXX 11064 71246 NIL
AAXX 11064 71247 15966 02805 11056 21070 39279 40138 53023 60001 333 10063 21057 70000
AAXX 11064 71248 16/// /2401 11059 21092 38833 40145 53019 60001 333 10086 21099 70000 555 32325 40081
AAXX 11064 71249 NIL
AAXX 11064 71744 NIL
AAXX 11064 71750 16/// /2307 11007 21041 39938 40176 58009 60001 333 11006 21129 70009 555 10010 20009 32218 40021
AAXX 11064 71751 NIL
AAXX 11064 71752 NIL
AAXX 11064 71753 16/// /3410 11014 21045 30194 40223 53021 60001 333 10083 21014 70045 555 10010 20045 33421 40201
AAXX 11064 71754 16/// /3104 11073 21093 39433 40103 52014 60001 333 10016 21122 70000
AAXX 11064 71755 43/// /0000 11172 21207 39790 40149 56011 6///1 333 11140 21281 7////
AAXX 11064 71756 17/// /0000 11037 21041 39080 40186 53001 69931 7//4/ 333 10014 21039 70003 555 10020 20003
AAXX 11064 71758 NIL
AAXX 11064 71760 NIL
AAXX 11064 71761 NIL
AAXX 11064 71762 NIL
AAXX 11064 71763 NIL
AAXX 11064 71765 16/// /2002 11024 21052 39930 40211 51011 60001 333 11016 21083 70000
AAXX 11064 71766 NIL
AAXX 11064 71767 NIL
AAXX 11064 71768 46/// /2703 11054 21069 39643 40203 51005 6///1 333 11008 21083 7////
AAXX 11064 71769 16/// /2608 10041 20017 30182 40198 55001 60001 333 10043 20020 70000
AAXX 11064 71770 16/// /0602 11054 21068 39409 40197 57006 60001 333 11007 21091 70000
AAXX 11064 71771 NIL
AAXX 11064 71772 16/// /3212 10045 20026 30190 40196 50000 60001 333 10047 20017 70000
AAXX 11064 71773 16/// /1906 11089 21095 39326 40200 58015 60001 333 11037 21128 70025 555 10060 20025 31918 40061
AAXX 11064 71774 46/// ///// 10006 6///1 333 10024 21010 7////
AAXX 11064 71775 46/// /0000 10012 20012 30203 40209 55000 6///1 333 10016 21044 7////
AAXX 11064 71776 46/// /1304 11046 21067 39540 40194 55003 6///1 333 10011 21047 7////
AAXX 11064 71777 NIL
AAXX 11064 71778 46/// /0113 6///1 333 7//// 555 32725 40151
AAXX 11064 71779 16/// /3001 11069 21074 39531 40207 51010 60001 333 11039 21079 70000
AAXX 11064 71780 17/// /1103 10042 20035 30180 40208 53002 69961 7//4/ 333 10063 20025 70006 555 32824 40141
AAXX 11064 71781 46/// /2607 10039 20015 30176 40201 57003 6///1 333 10040 20021 7////
AAXX 11064 71782 46/// /3501 11101 21110 38836 40201 53008 6///1 333 11027 21149 7////
AAXX 11064 71783 16/// /3303 10038 20017 30130 40204 54000 60001 333 10045 21017 70000
AAXX 11064 71784 16/// /0601 10025 20011 39990 40197 56001 60001 333 10031 21008 70000
AAXX 11064 71785 16/// /0000 10029 20016 30196 40212 55002 60001 333 10044 21022 70000
AAXX 11064 71786 46/// /2307 11100 21112 38325 40195 55002 6///1 333 11079 21121 7//// 555 32628 40132
AAXX 11064 71787 16/// /3104 11088 21098 39748 40248 52024 60001 333 10026 21088 70124 555 10010 20124 33124 40221
AAXX 11064 71788 NIL
AAXX 11064 71789 NIL
AAXX 11064 71791 NIL
AAXX 11064 71792 NIL
AAXX 11064 71793 NIL
AAXX 11064 71794 NIL
AAXX 11064 71795 NIL
AAXX 11064 71796 NIL
AAXX 11064 71797 NIL
AAXX 11064 71603 12574 23213 11018 21095 30214 40268 52020 60001 82500 333 10088 21019 70026 555 10000 20000 33221 40230
AAXX 11064 71607 16/// /0000 11080 21089 30243 40277 51019 60001 333 10038 21080 70000 555 33120 40001
AAXX 11064 71609 12674 13407 11065 21110 30131 40268 51023 60001 81100 333 10061 21065 70146 555 19999 29999 33420 40230
AAXX 11064 71610 NIL
AAXX 11064 71621 16964 62405 11040 21098 30206 40316 50003 60001 333 10002 21056 70000 555 32721 40181
AAXX 11064 71623 NIL
AAXX 11064 71624 12974 72104 11043 21099 30097 40316 53001 60001 87070 333 11017 21070 70000 555 10000 20000 32720 40151
AAXX 11064 71625 16664 82002 11057 21104 30123 40289 51004 60001 333 11033 21136 70005
AAXX 11064 71627 12574 73404 11050 21082 30254 40300 50010 60001 81550 333 10001 21053 41997 79999 555 19999 29999
AAXX 11064 71628 11574 72305 11040 21075 30155 40300 52009 69901 70282 81570 333 11016 21065 42997 79999 90926 555 10002 29999
AAXX 11064 71630 NIL
AAXX 11064 71631 16/// /2106 11072 21104 39784 40302 51002 60001 333 11057 21093 70000 555 32818 40171
AAXX 11064 71633 12674 72311 11013 21071 30005 40284 51002 60001 87500 333 11012 21051 43005 70009 555 10009 20009 32718 40120
AAXX 11064 71705 12974 02805 11073 21123 30167 40257 52024 60001 333 10040 21075 70080 555 19999 29999 33419 40040
AAXX 11064 71706 11574 53011 11045 21097 30179 40241 52027 69901 78582 85500 333 10055 21047 70044 90937 555 19999 29999 33220 40040
AAXX 11064 71707 11462 83308 10002 21025 30111 40188 52022 60021 78582 885// 333 10071 20001 70022 90917 555 19999 29999 32024 40180
AAXX 11064 71709 NIL
AAXX 11064 71711 NIL
AAXX 11064 71714 46/// /2407 11093 30208 6///1 333 7////
AAXX 11064 71715 16/// /3304 11090 21143 30079 40267 51015 60001 333 10007 21113 70041 555 10030 20041 32617 40071
AAXX 11064 71718 12583 42810 11105 21159 30198 40266 52011 60001 84500 333 11016 21107 70074 555 10074 20074
AAXX 11064 71719 NIL
AAXX 11064 71604 17/// /3211 11050 21050 60031 7//4/ 333 10039 21050 70056 555 10180 20056 32425 40071
AAXX 11064 71605 16/// /0000 10025 20022 30048 40199 55001 60001 333 10039 20000 70000
AAXX 11064 71611 NIL
AAXX 11064 71612 16/// /3203 11045 21086 30208 40301 50011 60001 333 10004 21045 70000
AAXX 11064 71614 NIL
AAXX 11064 71616 16/// /2404 11097 21113 30176 40301 51015 60001 333 10005 21103 70010
AAXX 11064 71617 16/// /3307 11136 21154 30112 40291 51016 60001 333 11046 21136 70005 555 33119 40091
AAXX 11064 71618 15966 82509 11234 21258 30096 40136 53004 60001 333 11214 21263 70000
AAXX 11064 71619 NIL
AAXX 11064 71622 NIL
AAXX 11064 71632 NIL
AAXX 11064 71634 16/// /2602 11124 21142 30099 40258 53017 60001 333 10003 21127 70000
AAXX 11064 71638 16/// /3404 10015 20001 30092 40199 50000 60001 333 10026 21030 70000
AAXX 11064 71639 12974 72103 11044 21111 30065 40315 51001 60001 87070 333 11019 21066 70000 555 10000 20000 32617 40180
AAXX 11064 71642 NIL
AAXX 11064 71001 NIL
AAXX 11064 71002 NIL
AAXX 11064 71003 NIL
AAXX 11064 71005 NIL
AAXX 11064 71006 NIL
AAXX 11064 71007 NIL
AAXX 11064 71008 NIL
AAXX 11064 71009 NIL
AAXX 11064 71010 NIL
AAXX 11064 71011 NIL
AAXX 11064 71012 NIL
AAXX 11064 71013 NIL
AAXX 11064 71014 NIL
AAXX 11064 71015 NIL
AAXX 11064 71016 NIL
AAXX 11064 71017 NIL
AAXX 11064 71018 NIL
AAXX 11064 71019 NIL
AAXX 11064 71020 NIL
AAXX 11064 71021 NIL
AAXX 11064 71022 15466 80606 10020 20016 30182 40226 53013 60001 333 10063 20007 70088 555 31598 40053
AAXX 11064 71023 16464 63208 11019 21038 39312 40084 53018 60001 333 11010 21078 70005
AAXX 11064 71024 16/// /2604 11105 21110 60001 333 11077 21157 70007 555 10010 20007
AAXX 11064 71026 NIL
AAXX 11064 71027 16/// /3302 11004 21031 30177 40187 53020 60001 333 10083 21004 70007 555 32229 40112
AAXX 11064 71028 16/// /0301 11084 21094 39169 40223 52010 60001 333 10049 21084 70000 555 31417 40201
AAXX 11064 71029 16/// /0408 11284 21313 30085 40126 55001 60001 333 11247 21290 70000
AAXX 11064 71030 16/64 /3106 11042 21107 30177 40268 51019 60001 333 10083 21043 70065
AAXX 11064 71032 46/// /0000 11083 21097 39352 40206 50002 6///1 333 11050 21138 7////
AAXX 11064 71033 46/// /0103 11166 21183 39481 40128 53012 6///1 333 11118 21166 7////
AAXX 11064 71035 NIL
AAXX 11064 71036 15961 03404 11097 21108 39690 40070 55010 60001 333 11017 21103 70000
AAXX 11064 71039 46/// /0000 11180 6///1 333 11111 21254 7////
AAXX 11064 71040 46/// /2403 11131 21151 30066 40274 51015 6///1 333 11047 21142 7//// 555 32718 40151
AAXX 11064 71041 17456 83113 11005 21025 30058 40201 51024 60011 7714/ 333 10077 21006 70040 555 32127 40181
AAXX 11064 71042 16/// /0801 10013 20010 30197 40201 55001 60001 333 10023 21060 70000
AAXX 11064 71044 16/// /0706 11132 21144 39802 40124 58025 60001 333 11066 21136 70000 555 32730 40122
AAXX 11064 71046 460// /0816 11148 30053 40070 58047 6///1 333 11054 21151 7//// 555 30120 40061
AAXX 11064 71047 NIL
AAXX 11064 71048 NIL
AAXX 11064 71049 NIL
AAXX 11064 71060 NIL
AAXX 11064 71063 NIL
AAXX 11064 71350 16/// /2910 11047 21106 30166 40233 53028 60001 333 10053 21047 70034 555 31725 40071
AAXX 11064 71351 NIL
AAXX 11064 71352 17/// /2309 11075 21106 39835 40307 54000 69971 7//4/ 333 11054 21117 70007 555 32522 40191
AAXX 11064 71353 NIL
AAXX 11064 71354 NIL
AAXX 11064 71355 16/// /0000 11309 21341 39981 40070 55000 60001 333 11255 21319 70000
AAXX 11064 71356 16/// /3417 11279 21307 30061 40131 53003 60001 333 11261 21295 70000 555 33418 40061
AAXX 11064 71357 NIL
AAXX 11064 71358 16/// /3325 11137 21155 39944 49979 55000 60001 333 11116 21141 70000 555 33229 40062
AAXX 11064 71359 NIL
AAXX 11064 71360 NIL
AAXX 11064 71361 NIL
AAXX 11064 71362 NIL
AAXX 11064 71363 NIL
AAXX 11064 71364 NIL
AAXX 11064 71365 NIL
AAXX 11064 71368 15866 62307 11072 21103 39911 40316 53002 60001 333 11037 21093 70000
AAXX 11064 71369 17466 83013 11036 21051 39432 40146 53026 60001 771// 333 10035 21069 70000
AAXX 11064 71370 46/// /2504 11103 21121 30145 40286 51013 6///1 333 11017 21114 7////
AAXX 11064 71371 15866 62801 11041 21082 30265 40300 51013 60001 333 10005 21046 70003
AAXX 11064 71372 16/// /2101 11060 21068 60001 333 10007 21093 70016
AAXX 11064 71373 NIL
AAXX 11064 71374 NIL
AAXX 11064 71375 NIL
AAXX 11064 71376 NIL
AAXX 11064 71377 16/// /3103 11037 21059 30246 40296 50010 60001 333 11002 21044 70000 555 33121 40071
AAXX 11064 71378 16/// /0000 11181 21208 30073 40291 51015 60001 333 11050 21181 70000
AAXX 11064 71379 16/// /2506 11199 21217 30089 40268 50010 60001 333 11075 21215 70000
AAXX 11064 71380 NIL
AAXX 11064 71381 NIL
AAXX 11064 71382 NIL
AAXX 11064 71383 NIL
AAXX 11064 71384 NIL
AAXX 11064 71385 NIL
AAXX 11064 71386 NIL
AAXX 11064 71387 NIL
AAXX 11064 71388 46/// /2604 11144 21161 30080 40277 51013 6///1 333 11042 21162 7//// 555 33319 40151
AAXX 11064 71389 NIL
AAXX 11064 71390 46/// /2909 11132 6///1 333 11049 21132 7//// 555 32920 40221
AAXX 11064 71391 16/// ///// 11075 21086 60001 333 11032 21094 70000
AAXX 11064 71392 NIL
AAXX 11064 71393 NIL
AAXX 11064 71395 11474 83513 11019 21048 30050 40231 52018 69901 78522 885// 333 10081 21019 70059 90910 555 10012 20012 33319 40000
AAXX 11064 71398 15966 01902 11192 21206 30209 40221 58003 60001 333 11126 21222 70000
AAXX 11064 71399 NIL
AAXX 11064 71043 11580 80000 11150 21169 30064 40160 57001 69901 77111 84500 333 11123 21172 48019 70014 90931 555 10018 20014
AAXX 11064 71045 16/// /0000 11160 21174 39350 40238 54000 60001 333 11042 21172 70000
AAXX 11064 71050 NIL
AAXX 11064 71051 NIL
AAXX 11064 71052 NIL
AAXX 11064 71066 12474 80000 11079 21100 39765 40195 52015 60001 875// 333 11068 21166 70004 555 10014 20004
AAXX 11064 71068 11674 80304 11072 21089 39479 40181 53029 69931 78588 83501 333 10015 21074 48997 79999 90973 555 10004 20003 32918 40200
AAXX 11064 71069 17558 83011 11037 21045 39432 40145 53026 60001 745// 333 10033 21072 70000 555 32732 40002
AAXX 11064 71076 16/// /2701 11133 21144 39741 40145 52007 60001 333 11132 21197 70000
AAXX 11064 71077 NIL
AAXX 11064 71079 NIL
AAXX 11064 71081 46964 02914 11221 21257 30036 40048 53007 6///1 333 11212 21312 7//// 555 33017 40031
AAXX 11064 71082 NIL
AAXX 11064 71083 11974 03610 11303 21344 30068 40113 52008 69901 77677 333 11286 21309 48053 79999 90983 555 19999 29999 33418 40180
AAXX 11064 71090 46914 03227 11139 21161 39946 49981 53001 6///1 333 11118 21142 7//// 555 30331 40062
AAXX 11064 71091 460// /3113 11206 39784 49996 53001 6///1 333 7//// 555 32925 40211
AAXX 11064 71092 46959 01502 11156 39312 49979 53007 6///1 333 11150 21184 7////
AAXX 11064 71093 460// /3513 11141 39471 49967 55000 6///1 333 11137 21148 7//// 555 33530 40032
AAXX 11064 71094 46037 /2907 11139 39020 49911 51002 6///1 333 11117 21139 7//// 555 33632 40142
AAXX 11064 71095 46964 81703 11184 21213 39931 40012 55001 6///1 333 11168 21200 7////
AAXX 11064 71101 160// /2609 30227 52007 60001 333 70000 555 32619 40191
AAXX 11064 71104 12974 20000 11113 21122 39071 40212 52009 60001 82070 333 11022 21199 70000 555 10000 20000
AAXX 11064 71108 11540 80000 10013 20008 30134 40208 55001 60001 71022 885// 333 10026 21043 79999 555 10000 20000
AAXX 11064 71109 12574 10000 10012 21007 30196 40223 52004 60001 81500 333 10070 20001 70024 555 10000 20000
AAXX 11064 71051 NIL
AAXX 11064 71055 NIL
AAXX 11064 71057 NIL
AAXX 11064 71059 460// ///// 11199 30035 40128 53006 6///1 333 11194 21251 7////
AAXX 11064 71061 16/// /2407 11044 21067 39337 40119 51018 60001 333 10042 21088 70000
AAXX 11064 71062 46/// /2905 11015 21068 39049 40120 51018 6///1 333 10035 21057 7////
AAXX 11064 71064 460// /2607 11263 39918 40144 55002 6///1 333 11248 21303 7////
AAXX 11064 71065 NIL
AAXX 11064 71067 NIL
AAXX 11064 71070 NIL
AAXX 11064 71073 NIL
AAXX 11064 71074 46/// ///00 11347 21382 39997 40078 5/010 6///1 333 7////
AAXX 11064 71075 16/// /2305 11149 21166 39501 40125 56002 60001 333 11149 21204 70000
AAXX 11064 71078 NIL
AAXX 11064 71084 460// ///// 11196 30076 40125 54000 6///1 333 11196 21239 7////
AAXX 11064 71085 15966 02914 10000 21078 38752 40126 50000 60001 333 10064 21007 70000
AAXX 11064 71087 NIL
AAXX 11064 71088 460// /3016 11195 53004 6///1 333 11188 21240 7//// 555 33119 40121
AAXX 11064 71089 NIL
AAXX 11064 71096 460// ///// 11157 39216 49946 55001 6///1 333 11128 21162 7////
AAXX 11064 71097 47011 00711 11104 39476 49947 55003 6///1 745// 333 11090 21104 7////
AAXX 11064 71098 43/// /1302 11114 21145 39765 40136 58009 6///1 333 11114 21261 7////
AAXX 11064 71099 43/// /2406 11244 21287 30133 40154 56002 6///1 333 11212 21275 7////
AAXX 11064 71851 16/// /1303 11110 21116 39730 40070 56023 60001 333 11013 21114 70000
AAXX 11064 71857 NIL
AAXX 11064 71860 NIL
AAXX 11064 71876 15966 13004 11060 21074 39437 40109 53014 60001 333 10013 21108 70000
AAXX 11064 71885 NIL
AAXX 11064 71888 NIL
AAXX 11064 71895 NIL
AAXX 11064 71893 11580 62804 10019 20001 30178 40210 56003 69901 70282 86500 333 10034 21014 79999 90940 555 10000 20000
AAXX 11064 71894 16/// /3310 10017 20017 30201 40210 53004 60001 333 10063 20016 70008 555 33025 40011
AAXX 11064 71896 17666 81605 11032 21051 39348 40192 51010 60001 771// 333 11009 21067 70000
AAXX 11064 71897 12274 32305 10032 20011 3//// 4//// 54000 60041 83900 333 10054 20032 70156
AAXX 11064 71898 160// ///// 10014 53014 60001 333 10064 20009 70085
AAXX 11064 71899 11474 53616 10055 20029 3//// 4//// 51005 69981 70182 85500 333 10060 20042 70050 90955 555 33122 40151
AAXX 11064 71902 NIL
AAXX 11064 71905 NIL
AAXX 11064 71906 11774 82618 11129 21169 30024 40075 51008 69901 70377 81570 333 11122 21203 48008 79999 90921 555 19999 29999
AAXX 11064 71907 17214 92911 11124 21146 30044 40077 53003 69951 745// 333 11075 21127 70025 555 32722 40231
AAXX 11064 71909 16264 33320 11167 21201 39947 49991 55004 60001 333 11148 21184 70000 555 33425 40011
AAXX 11064 71910 46864 30107 11146 21184 39984 40047 53005 6///1 333 11130 21159 7////
AAXX 11064 71911 46341 81406 11270 30049 40108 53001 6///1 333 11260 21314 7////
AAXX 11064 71912 12974 00000 11270 21313 39955 40149 55000 60001 333 11183 21301 70000 555 10000 20000
AAXX 11064 71915 NIL
AAXX 11064 71917 11874 20000 11374 21416 30063 40078 57002 69901 7767/ 82070 333 11340 21375 47013 79999 90999 555 19999 29999
AAXX 11064 71922 11459 80607 11096 21106 39621 40095 52010 60021 77177 885// 333 11085 21147 47022 70024 90973 93103 555 10030 20024
AAXX 11064 71924 NIL
AAXX 11064 71925 11474 72805 11254 21296 30098 40141 53002 69901 77177 87500 333 11230 21311 42018 79999 90983 555 19999 29999
AAXX 11064 71926 12574 13602 11270 21321 30105 40130 53006 60001 81500 333 11241 21288 70000 555 10000 20000
AAXX 11064 71928 16/// /3502 11077 21101 38976 40147 51021 60001 333 10063 21121 70000 555 10010 32819 40191
AAXX 11064 71700 15966 02304 11077 21092 30243 40269 51014 60001 333 10045 21081 70000
AAXX 11064 71701 12974 00000 11078 21101 30204 40268 51013 60001 333 10050 21078 79999 555 10000 20000 33020 40190
AAXX 11064 71702 16/// /3313 11054 21118 30224 40239 51025 60001 333 10042 21058 70097 555 10010 20097 33321 40051
AAXX 11064 71703 NIL
AAXX 11064 71704 17866 82208 11051 21118 30091 40320 50001 69931 7004/ 333 11025 21106 70029
AAXX 11064 71710 NIL
AAXX 11064 71712 16/// /2306 11041 21069 30238 40301 51010 60001 333 11003 21059 70000 555 33018 40071
AAXX 11064 71713 NIL
AAXX 11064 71716 NIL
AAXX 11064 71717 NIL
AAXX 11064 71720 16/// /0701 10006 20003 30058 40213 55002 60001 333 10024 21008 70000
AAXX 11064 71721 16/// /2002 11111 21121 30033 40288 53005 60001 333 11035 21134 70000
AAXX 11064 71723 16/// /2808 11048 21121 30286 40296 51013 60001 333 10000 21054 70000 555 32920 40021
AAXX 11064 71724 NIL
AAXX 11064 71732 NIL
AAXX 11064 71733 16/// /1806 11062 21071 39818 40261 50001 60001 333 11059 21150 70000 555 10010
AAXX 11064 71734 16/// /2005 11122 21153 39843 40251 54000 60001 333 11112 21146 70000
AAXX 11064 71736 NIL
AAXX 11064 71737 NIL
AAXX 11064 71741 16/// /0802 11031 21049 39774 40204 52002 60001 333 11013 21118 70000
AAXX 11064 71742 NIL
AAXX 11064 71743 NIL
AAXX 11064 71744 NIL
AAXX 11064 71745 NIL
AAXX 11064 71746 NIL
AAXX 11064 71747 NIL
AAXX 11064 71748 NIL
AAXX 11064 71930 NIL
AAXX 11064 71931 16/// /3310 10020 20011 30067 40079 56009 60001 333 10076 21017 70000 555 32137 40163
AAXX 11064 71934 11316 80000 11105 21114 39900 40165 53013 69901 77177 885// 333 11105 21172 47021 79999 90973 555 10002 29999
AAXX 11064 71935 11232 82202 11105 21111 39968 40182 51006 69921 77177 887// 333 11092 21177 44015 70002 90966 555 10002 20002
AAXX 11064 71936 11266 80000 11090 21093 39890 40155 52007 69921 77177 885// 333 11088 21142 48024 70004 90973 555 10008 20004
AAXX 11064 71937 NIL
AAXX 11064 71938 11569 80000 11271 21299 30106 40137 56004 69901 77677 88500 333 11202 21298 48020 79999 90973 555 19999 29999
AAXX 11064 71940 NIL
AAXX 11064 71943 11459 83308 11049 21077 39341 40188 53024 60031 77172 885// 333 10015 21050 48008 70044 90927 555 10048 20044
AAXX 11064 71944 160// ///// 11047 51016 60001 333 11017 21058 70000
AAXX 11064 71945 12774 80000 11087 21117 39729 40212 52008 60001 82571 333 11045 21118 70006 555 10008 20006
AAXX 11064 71946 12974 70000 11137 21158 39965 40186 50001 60001 87070 333 11130 21213 48038 79999 555 19999 29999
AAXX 11064 71948 46464 80303 11178 30022 40138 52005 6///1 333 11175 21205 7//// 555 30920 40081
AAXX 11064 71949 46/// /1203 11195 21216 39331 40237 56004 6///1 333 11091 21227 7////
AAXX 11064 71951 11324 82904 11003 21005 39954 40225 53014 69921 75622 887// 333 10018 20020 47023 70022 90931 555 10020 20020 32119 40151
AAXX 11064 71957 46148 80000 11106 21151 30054 40143 56012 6///1 333 11066 21125 7//// 555 33219 40211
AAXX 11064 71958 43/// /0000 11056 21065 39261 40215 53015 6///1 333 11020 21059 7////
AAXX 11064 71964 12274 81812 11090 21108 39330 40203 57015 60001 886// 333 11036 21139 70028 555 10034 20028
AAXX 11064 71966 16/// /0705 11180 21201 39728 40211 56017 60001 333 11166 21278 70000
AAXX 11064 71968 46064 /1615 11109 30046 40111 56027 6///1 333 11068 21123 7//// 555 32042 40083
AAXX 11064 71114 17127 80000 10007 20002 30155 40204 57002 60001 743// 333 10036 21064 70000 555 31117 40071
AAXX 11064 71120 12774 82909 11007 21056 39431 40090 53015 60001 885// 333 11006 21070 70000 555 10000 20000
AAXX 11064 71122 16/// /2307 11072 21101 38539 40170 53007 60001 333 11032 21112 70000 555 32523 40191
AAXX 11064 71123 11974 82809 11023 21067 39265 40141 53016 60001 71422 85077 333 10035 21124 70000 555 10000 20000 33228 40201
AAXX 11064 71125 NIL
AAXX 11064 71129 12974 23004 11064 21092 39277 40116 53021 60001 80001 333 10035 21095 70000 555 10000 20000
AAXX 11064 71131 16/// /3414 11003 21054 38846 40101 53002 60001 333 10032 21092 70000 555 32624 40211
AAXX 11064 71135 16/// /2811 11006 21071 39011 40093 55000 60001 333 10035 21071 70000 555 32529 40172
AAXX 11064 71137 16/// /3407 11031 21065 39155 40103 53002 60001 333 10064 21068 70000 555 32525 40151
AAXX 11064 71140 12974 00000 11112 21115 39565 40075 56013 60001 333 10000 21134 70000 555 10000 20000
AAXX 11064 71145 11574 81504 11115 21147 39828 40131 56010 69901 77122 885// 333 11115 21267 48030 79999 90962 555 19999 29999
AAXX 11064 71148 16/// /2308 11056 21071 39498 40080 56014 60001 333 10014 21115 70000 555 10010
AAXX 11064 71182 16964 02704 11242 21291 39613 40180 53001 60001 333 11156 21270 70000
AAXX 11064 71185 17564 33309 11054 30119 40143 53007 60001 745// 333 10031 21054 70105 555 32128 40132
AAXX 11064 71188 12574 12909 11118 21157 30182 40226 52015 60001 81500 333 10010 21119 70004 555 10004 20004 33318 40190
AAXX 11064 71200 16/// /3606 10036 20017 60001 333 10046 20003 70000
AAXX 11064 71207 16/// /0502 11003 30136 40201 58001 60001 333 10005 21051 70000
AAXX 11064 71260 13/// ///// 11037 21065 30000 40243 56008 69901 333 11030 21099 45997 79999 555 19999 29999
AAXX 11064 71397 12574 73209 11021 21065 30225 40260 52022 60001 87500 333 10068 21022 70062 555 10000 20000 33219 40230
AAXX 11064 71400 17/64 /2703 11037 21049 60031 7//4/ 333 10050 21065 70026 555 32127 40191
AAXX 11064 71403 46/// /3319 10008 20008 30198 40218 51023 6///1 333 10085 20007 7//// 555 31935 40173
AAXX 11064 71411 16/// /3307 11026 21066 30242 40255 52025 60001 333 10092 21026 70033 555 31825 40081
AAXX 11064 71412 17/// /3121 11010 21068 30197 40207 51023 60011 7//4/ 333 10068 21013 70108 555 32231 40082
AAXX 11064 71421 NIL
AAXX 11064 71430 16/// /2713 11007 21077 30212 40311 51005 60001 333 10006 21020 70000 555 32731 40202
AAXX 11064 71431 16/// /3105 11033 21098 30207 40306 50002 60001 333 11007 21057 70000 555 33120 40181
AAXX 11064 71432 16/// /2204 11031 21078 30220 40320 51005 60001 333 11005 21034 70000 555 32726 40171
AAXX 11064 71433 NIL
AAXX 11064 71435 NIL
AAXX 11064 71441 NIL
AAXX 11064 71443 16/// /0503 11096 21104 39654 40073 55004 60001 333 11066 21127 70000
AAXX 11064 71444 16/// /0302 11115 21121 39298 40063 56015 60001 333 11017 21147 70000
AAXX 11064 71447 16/// /2205 11037 21057 39529 40075 56003 60001 333 10010 21109 70000 555 31918 40011
AAXX 11064 71467 16/// /3103 11213 21232 30015 40133 50000 60001 333 11200 21256 7////
AAXX 11064 71472 NIL
AAXX 11064 71474 17864 30000 11050 21062 38938 40198 53004 69951 7//44 333 11028 21092 70005
AAXX 11064 71510 NIL
AAXX 11064 71538 12874 72407 11057 21122 30093 40332 50003 60001 87030 333 11012 21073 70000 555 10000 20000 32517 40190
AAXX 11064 71600 17464 83219 10051 20024 30187 40193 51032 60021 7//44 333 10095 20048 70040 555 33227 40041
AAXX 11064 71601 NIL
AAXX 11064 71726 16/// /3301 11182 21198 39710 40276 50006 60001 333 11085 21192 70015 555 10020 20015
AAXX 11064 71727 11532 62704 11133 21154 30074 40280 53014 69901 78581 86500 333 11044 21158 47001 70020 90967 555 10034 20020
AAXX 11064 71728 11580 12505 11181 21222 30056 40289 52014 69901 70181 81500 333 11066 21182 44003 70002 90932 555 10002 20002
AAXX 11064 71730 11574 81706 11066 21071 39826 40264 50000 69901 77172 8657/ 333 11058 21138 47008 79999 90931 555 19999 29999
AAXX 11064 71731 12474 81604 11062 21078 39806 40272 50002 60001 885// 333 11057 21123 79999 555 19999 29999
AAXX 11064 71735 NIL
AAXX 11064 71738 NIL
AAXX 11064 71739 NIL
AAXX 11064 71749 16664 62103 11095 21112 39936 40190 56012 60001 333 11080 21162 70000
AAXX 11064 71799 11569 82703 10028 20014 30185 40209 55000 69901 76162 885// 333 10061 21031 79999 90915 555 10000 20000
AAXX 11064 71800 17/// /2107 10046 20046 30066 40099 55032 60021 7//4/ 333 10056 20019 70022 555 31826 40001
AAXX 11064 71801 11/08 91914 10035 20033 39915 40087 57038 60021 75164 333 10047 21009 70020 90916 555 10000 20000 31830 40041
AAXX 11064 71803 11156 83213 11006 21016 39924 40111 52008 60021 77186 887// 333 10042 21015 43001 70018 90952 93101 555 10010 20010 32131 40151
AAXX 11064 71807 NIL
AAXX 11064 71808 12474 23211 11135 21181 30094 40141 51006 60001 82500 333 10016 21136 44018 70046 555 10046 20046 32427 40000
AAXX 11064 71809 11574 32604 11044 21073 30117 40145 53003 69901 70187 82570 333 10041 21044 70106 90923 555 19999 29999 32125 40141
AAXX 11064 71810 NIL
AAXX 11064 71811 NIL
AAXX 11064 71813 NIL
AAXX 11064 71814 16/// /3408 11125 21154 30162 40172 52009 60001 333 10022 21125 70027 555 32223 40161
AAXX 11064 71815 11474 83112 11025 21060 30132 40163 53008 60021 70388 885// 333 10051 21030 70078 90933 555 10036 20034 32326 40151
AAXX 11064 71864 NIL
AAXX 11064 71865 16/// /2603 11086 21100 39387 40070 53015 60001 333 10011 21110 70000
AAXX 11064 71866 46962 02404 11096 21112 39474 40096 51022 6///1 333 11004 21100 7////
AAXX 11064 71867 11/28 90905 11090 21099 39753 40094 56003 60021 77177 333 11087 21165 48014 70024 90973 93102 555 10038 20032
AAXX 11064 71868 NIL
AAXX 11064 71869 12974 40000 11110 21117 39555 40089 51012 60001 81071 333 11061 21176 70000 555 10000 20000
AAXX 11064 71871 15966 02912 11037 21072 39293 40106 53013 60001 333 11004 21089 70000
AAXX 11064 71877 12974 61904 11018 21066 38867 40147 52009 60001 84071 333 10091 21054 70000 555 10000 20000 32931 40221
AAXX 11064 71878 12874 83605 11014 21066 39069 40152 51017 60001 81077 333 10032 21126 70000 555 10000 20000
AAXX 11064 71879 16964 02909 11012 21064 39322 40134 53016 60001 333 10056 21090 70000 555 33224 40221
AAXX 11064 71880 12280 60000 11112 21124 39070 40209 55002 60001 82671 333 11032 21131 70000 555 10000 20000
AAXX 11064 71882 16864 80000 11035 21051 39652 40200 56003 60001 333 11001 21038 70000
AAXX 11064 71883 NIL
AAXX 11064 71887 11666 80902 11030 21046 39777 40209 52002 69901 8157/ 333 11006 21117 79999 90901 555 19999 29999
AAXX 11064 71889 12474 71705 11037 21057 39778 40205 53002 60001 82670 333 11010 21043 70000 555 10000 20000 31527 40071
AAXX 11064 71891 16564 82002 11022 21053 39932 40213 51010 60001 333 11014 21081 70000
AAXX 11064 71892 12466 83205 10036 20020 30201 40206 57002 60001 8757/ 333 10037 21032 70002 555 10000 20000
AAXX 11064 71864 NIL
AAXX 11064 71865 16/// /2603 11086 21100 39387 40070 53015 60001 333 10011 21110 70000
AAXX 11064 71866 46962 02404 11096 21112 39474 40096 51022 6///1 333 11004 21100 7////
AAXX 11064 71867 11/28 90905 11090 21099 39753 40094 56003 60021 77177 333 11087 21165 48014 70024 90973 93102 555 10038 20032
AAXX 11064 71868 NIL
AAXX 11064 71869 12974 40000 11110 21117 39555 40089 51012 60001 81071 333 11061 21176 70000 555 10000 20000
AAXX 11064 71871 15966 02912 11037 21072 39293 40106 53013 60001 333 11004 21089 70000
AAXX 11064 71877 12974 61904 11018 21066 38867 40147 52009 60001 84071 333 10091 21054 70000 555 10000 20000 32931 40221
AAXX 11064 71878 12874 83605 11014 21066 39069 40152 51017 60001 81077 333 10032 21126 70000 555 10000 20000
AAXX 11064 71879 16964 02909 11012 21064 39322 40134 53016 60001 333 10056 21090 70000 555 33224 40221
AAXX 11064 71880 12280 60000 11112 21124 39070 40209 55002 60001 82671 333 11032 21131 70000 555 10000 20000
AAXX 11064 71882 16864 80000 11035 21051 39652 40200 56003 60001 333 11001 21038 70000
AAXX 11064 71883 NIL
AAXX 11064 71887 11666 80902 11030 21046 39777 40209 52002 69901 8157/ 333 11006 21117 79999 90901 555 19999 29999
AAXX 11064 71889 12474 71705 11037 21057 39778 40205 53002 60001 82670 333 11010 21043 70000 555 10000 20000 31527 40071
AAXX 11064 71891 16564 82002 11022 21053 39932 40213 51010 60001 333 11014 21081 70000
AAXX 11064 71892 12466 83205 10036 20020 30201 40206 57002 60001 8757/ 333 10037 21032 70002 555 10000 20000
AAXX 11064 71816 12974 02507 11188 21242 30100 40164 55004 60001 333 11093 21198 70002 555 10002 20002 32918 40210
AAXX 11064 71817 NIL
AAXX 11064 71818 12974 02820 11135 21166 30101 40120 56011 60001 333 11072 21142 70004 555 10004 20004 32720 40071
AAXX 11064 71822 11574 72203 11158 21181 39761 40259 52006 69901 77177 87500 333 11127 21167 43021 70004 90983 555 10004 20004
AAXX 11064 71825 12974 02708 11248 21296 39497 40206 52003 60001 333 11152 21250 70002 555 10002 20002
AAXX 11064 71827 11559 82104 11160 21186 39927 40181 56002 69921 77177 885// 333 11156 21201 47018 70002 90983 555 10002 20002
AAXX 11064 71828 16462 83006 11207 21254 39494 40162 53005 60001 333 11187 21241 70000 555 32528 40002
AAXX 11064 71831 NIL
AAXX 11064 71832 NIL
AAXX 11064 71834 11574 80000 11115 21132 39740 40183 58011 69901 77122 885// 333 11112 21175 48012 79999 90942 555 19999 29999
AAXX 11064 71841 NIL
AAXX 11064 71842 12574 41505 11091 21117 39660 40143 57018 60001 82570 333 11085 21172 79999 555 19999 29999
AAXX 11064 71844 16764 32002 11191 21232 39866 40157 58012 60001 333 11159 21255 70000
AAXX 11064 71845 NIL
AAXX 11064 71850 12974 01408 11074 21096 39602 40111 58027 60001 333 11065 21177 48003 79999
AAXX 11064 71852 16964 01506 11083 21099 39777 40076 56025 60001 333 11037 21132 70000
AAXX 11064 71854 NIL
AAXX 11064 71858 NIL
AAXX 11064 71861 NIL
AAXX 11064 71862 12974 72410 11023 21055 39384 40087 53003 60001 80001 333 10043 21089 70000 555 10000 20000 32320 40210
AAXX 11064 71863 46964 02913 11020 21058 39376 40076 53011 6///1 333 10046 21116 7////
AAXX 11064 71603 12574 23213 11018 21095 30214 40268 52020 60001 82500 333 10088 21019 70026 555 10000 20000 33221 40230
AAXX 11064 71607 16/// /0000 11080 21089 30243 40277 51019 60001 333 10038 21080 70000 555 33120 40001
AAXX 11064 71609 12674 13407 11065 21110 30131 40268 51023 60001 81100 333 10061 21065 70146 555 19999 29999 33420 40230
AAXX 11064 71610 NIL
AAXX 11064 71621 16964 62405 11040 21098 30206 40316 50003 60001 333 10002 21056 70000 555 32721 40181
AAXX 11064 71623 NIL
AAXX 11064 71624 12974 72104 11043 21099 30097 40316 53001 60001 87070 333 11017 21070 70000 555 10000 20000 32720 40151
AAXX 11064 71625 16664 82002 11057 21104 30123 40289 51004 60001 333 11033 21136 70005
AAXX 11064 71627 12574 73404 11050 21082 30254 40300 50010 60001 81550 333 10001 21053 41997 79999 555 19999 29999
AAXX 11064 71628 11574 72305 11040 21075 30155 40300 52009 69901 70282 81570 333 11016 21065 42997 79999 90926 555 10002 29999
AAXX 11064 71630 NIL
AAXX 11064 71631 16/// /2106 11072 21104 39784 40302 51002 60001 333 11057 21093 70000 555 32818 40171
AAXX 11064 71633 12674 72311 11013 21071 30005 40284 51002 60001 87500 333 11012 21051 43005 70009 555 10009 20009 32718 40120
AAXX 11064 71705 12974 02805 11073 21123 30167 40257 52024 60001 333 10040 21075 70080 555 19999 29999 33419 40040
AAXX 11064 71706 11574 53011 11045 21097 30179 40241 52027 69901 78582 85500 333 10055 21047 70044 90937 555 19999 29999 33220 40040
AAXX 11064 71707 11462 83308 10002 21025 30111 40188 52022 60021 78582 885// 333 10071 20001 70022 90917 555 19999 29999 32024 40180
AAXX 11064 71709 NIL
AAXX 11064 71711 NIL
AAXX 11064 71714 46/// /2407 11093 30208 6///1 333 7////
AAXX 11064 71715 16/// /3304 11090 21143 30079 40267 51015 60001 333 10007 21113 70041 555 10030 20041 32617 40071
AAXX 11064 71718 12583 42810 11105 21159 30198 40266 52011 60001 84500 333 11016 21107 70074 555 10074 20074
AAXX 11064 71719 NIL
AAXX 11064 71893 11580 62804 10019 20001 30178 40210 56003 69901 70282 86500 333 10034 21014 79999 90940 555 10000 20000
AAXX 11064 71894 16/// /3310 10017 20017 30201 40210 53004 60001 333 10063 20016 70008 555 33025 40011
AAXX 11064 71896 17666 81605 11032 21051 39348 40192 51010 60001 771// 333 11009 21067 70000
AAXX 11064 71897 12274 32305 10032 20011 3//// 4//// 54000 60041 83900 333 10054 20032 70156
AAXX 11064 71898 160// ///// 10014 53014 60001 333 10064 20009 70085
AAXX 11064 71899 11474 53616 10055 20029 3//// 4//// 51005 69981 70182 85500 333 10060 20042 70050 90955 555 33122 40151
AAXX 11064 71902 NIL
AAXX 11064 71905 NIL
AAXX 11064 71906 11774 82618 11129 21169 30024 40075 51008 69901 70377 81570 333 11122 21203 48008 79999 90921 555 19999 29999
AAXX 11064 71907 17214 92911 11124 21146 30044 40077 53003 69951 745// 333 11075 21127 70025 555 32722 40231
AAXX 11064 71909 16264 33320 11167 21201 39947 49991 55004 60001 333 11148 21184 70000 555 33425 40011
AAXX 11064 71910 46864 30107 11146 21184 39984 40047 53005 6///1 333 11130 21159 7////
AAXX 11064 71911 46341 81406 11270 30049 40108 53001 6///1 333 11260 21314 7////
AAXX 11064 71912 12974 00000 11270 21313 39955 40149 55000 60001 333 11183 21301 70000 555 10000 20000
AAXX 11064 71915 NIL
AAXX 11064 71917 11874 20000 11374 21416 30063 40078 57002 69901 7767/ 82070 333 11340 21375 47013 79999 90999 555 19999 29999
AAXX 11064 71922 11459 80607 11096 21106 39621 40095 52010 60021 77177 885// 333 11085 21147 47022 70024 90973 93103 555 10030 20024
AAXX 11064 71924 NIL
AAXX 11064 71925 11474 72805 11254 21296 30098 40141 53002 69901 77177 87500 333 11230 21311 42018 79999 90983 555 19999 29999
AAXX 11064 71926 12574 13602 11270 21321 30105 40130 53006 60001 81500 333 11241 21288 70000 555 10000 20000
AAXX 11064 71928 16/// /3502 11077 21101 38976 40147 51021 60001 333 10063 21121 70000 555 10010 32819 40191
AAXX 11064 71043 11580 80000 11150 21169 30064 40160 57001 69901 77111 84500 333 11123 21172 48019 70014 90931 555 10018 20014
AAXX 11064 71045 16/// /0000 11160 21174 39350 40238 54000 60001 333 11042 21172 70000
AAXX 11064 71050 NIL
AAXX 11064 71051 NIL
AAXX 11064 71052 NIL
AAXX 11064 71066 12474 80000 11079 21100 39765 40195 52015 60001 875// 333 11068 21166 70004 555 10014 20004
AAXX 11064 71068 11674 80304 11072 21089 39479 40181 53029 69931 78588 83501 333 10015 21074 48997 79999 90973 555 10004 20003 32918 40200
AAXX 11064 71069 17558 83011 11037 21045 39432 40145 53026 60001 745// 333 10033 21072 70000 555 32732 40002
AAXX 11064 71076 16/// /2701 11133 21144 39741 40145 52007 60001 333 11132 21197 70000
AAXX 11064 71077 NIL
AAXX 11064 71079 NIL
AAXX 11064 71081 46964 02914 11221 21257 30036 40048 53007 6///1 333 11212 21312 7//// 555 33017 40031
AAXX 11064 71082 NIL
AAXX 11064 71083 11974 03610 11303 21344 30068 40113 52008 69901 77677 333 11286 21309 48053 79999 90983 555 19999 29999 33418 40180
AAXX 11064 71090 46914 03227 11139 21161 39946 49981 53001 6///1 333 11118 21142 7//// 555 30331 40062
AAXX 11064 71091 460// /3113 11206 39784 49996 53001 6///1 333 7//// 555 32925 40211
AAXX 11064 71092 46959 01502 11156 39312 49979 53007 6///1 333 11150 21184 7////
AAXX 11064 71093 460// /3513 11141 39471 49967 55000 6///1 333 11137 21148 7//// 555 33530 40032
AAXX 11064 71094 46037 /2907 11139 39020 49911 51002 6///1 333 11117 21139 7//// 555 33632 40142
AAXX 11064 71095 46964 81703 11184 21213 39931 40012 55001 6///1 333 11168 21200 7////
AAXX 11064 71101 160// /2609 30227 52007 60001 333 70000 555 32619 40191
AAXX 11064 71104 12974 20000 11113 21122 39071 40212 52009 60001 82070 333 11022 21199 70000 555 10000 20000
AAXX 11064 71108 11540 80000 10013 20008 30134 40208 55001 60001 71022 885// 333 10026 21043 79999 555 10000 20000
AAXX 11064 71109 12574 10000 10012 21007 30196 40223 52004 60001 81500 333 10070 20001 70024 555 10000 20000
AAXX 11064 71114 17127 80000 10007 20002 30155 40204 57002 60001 743// 333 10036 21064 70000 555 31117 40071
AAXX 11064 71120 12774 82909 11007 21056 39431 40090 53015 60001 885// 333 11006 21070 70000 555 10000 20000
AAXX 11064 71122 16/// /2307 11072 21101 38539 40170 53007 60001 333 11032 21112 70000 555 32523 40191
AAXX 11064 71123 11974 82809 11023 21067 39265 40141 53016 60001 71422 85077 333 10035 21124 70000 555 10000 20000 33228 40201
AAXX 11064 71125 NIL
AAXX 11064 71129 12974 23004 11064 21092 39277 40116 53021 60001 80001 333 10035 21095 70000 555 10000 20000
AAXX 11064 71131 16/// /3414 11003 21054 38846 40101 53002 60001 333 10032 21092 70000 555 32624 40211
AAXX 11064 71135 16/// /2811 11006 21071 39011 40093 55000 60001 333 10035 21071 70000 555 32529 40172
AAXX 11064 71137 16/// /3407 11031 21065 39155 40103 53002 60001 333 10064 21068 70000 555 32525 40151
AAXX 11064 71140 12974 00000 11112 21115 39565 40075 56013 60001 333 10000 21134 70000 555 10000 20000
AAXX 11064 71145 11574 81504 11115 21147 39828 40131 56010 69901 77122 885// 333 11115 21267 48030 79999 90962 555 19999 29999
AAXX 11064 71148 16/// /2308 11056 21071 39498 40080 56014 60001 333 10014 21115 70000 555 10010
AAXX 11064 71182 16964 02704 11242 21291 39613 40180 53001 60001 333 11156 21270 70000
AAXX 11064 71185 17564 33309 11054 30119 40143 53007 60001 745// 333 10031 21054 70105 555 32128 40132
AAXX 11064 71188 12574 12909 11118 21157 30182 40226 52015 60001 81500 333 10010 21119 70004 555 10004 20004 33318 40190
AAXX 11064 71200 16/// /3606 10036 20017 60001 333 10046 20003 70000
AAXX 11064 71207 16/// /0502 11003 30136 40201 58001 60001 333 10005 21051 70000
AAXX 11064 71260 13/// ///// 11037 21065 30000 40243 56008 69901 333 11030 21099 45997 79999 555 19999 29999
AAXX 11064 71930 NIL
AAXX 11064 71931 16/// /3310 10020 20011 30067 40079 56009 60001 333 10076 21017 70000 555 32137 40163
AAXX 11064 71934 11316 80000 11105 21114 39900 40165 53013 69901 77177 885// 333 11105 21172 47021 79999 90973 555 10002 29999
AAXX 11064 71935 11232 82202 11105 21111 39968 40182 51006 69921 77177 887// 333 11092 21177 44015 70002 90966 555 10002 20002
AAXX 11064 71936 11266 80000 11090 21093 39890 40155 52007 69921 77177 885// 333 11088 21142 48024 70004 90973 555 10008 20004
AAXX 11064 71937 NIL
AAXX 11064 71938 11569 80000 11271 21299 30106 40137 56004 69901 77677 88500 333 11202 21298 48020 79999 90973 555 19999 29999
AAXX 11064 71940 NIL
AAXX 11064 71943 11459 83308 11049 21077 39341 40188 53024 60031 77172 885// 333 10015 21050 48008 70044 90927 555 10048 20044
AAXX 11064 71944 160// ///// 11047 51016 60001 333 11017 21058 70000
AAXX 11064 71945 12774 80000 11087 21117 39729 40212 52008 60001 82571 333 11045 21118 70006 555 10008 20006
AAXX 11064 71946 12974 70000 11137 21158 39965 40186 50001 60001 87070 333 11130 21213 48038 79999 555 19999 29999
AAXX 11064 71948 46464 80303 11178 30022 40138 52005 6///1 333 11175 21205 7//// 555 30920 40081
AAXX 11064 71949 46/// /1203 11195 21216 39331 40237 56004 6///1 333 11091 21227 7////
AAXX 11064 71951 11324 82904 11003 21005 39954 40225 53014 69921 75622 887// 333 10018 20020 47023 70022 90931 555 10020 20020 32119 40151
AAXX 11064 71957 46148 80000 11106 21151 30054 40143 56012 6///1 333 11066 21125 7//// 555 33219 40211
AAXX 11064 71958 43/// /0000 11056 21065 39261 40215 53015 6///1 333 11020 21059 7////
AAXX 11064 71964 12274 81812 11090 21108 39330 40203 57015 60001 886// 333 11036 21139 70028 555 10034 20028
AAXX 11064 71966 16/// /0705 11180 21201 39728 40211 56017 60001 333 11166 21278 70000
AAXX 11064 71968 46064 /1615 11109 30046 40111 56027 6///1 333 11068 21123 7//// 555 32042 40083
AAXX 11063 63705 31550 33102 10199 20185 38835 48489 70500 81905 58005 81620 81923 10189
AAXX 11064 71603 12574 23213 11018 21095 30214 40268 52020 60001 82500 333 10088 21019 70026 555 10000 20000 33221 40230
AAXX 11064 71607 16/// /0000 11080 21089 30243 40277 51019 60001 333 10038 21080 70000 555 33120 40001
AAXX 11064 71609 12674 13407 11065 21110 30131 40268 51023 60001 81100 333 10061 21065 70146 555 19999 29999 33420 40230
AAXX 11064 71610 NIL
AAXX 11064 71621 16964 62405 11040 21098 30206 40316 50003 60001 333 10002 21056 70000 555 32721 40181
AAXX 11064 71623 NIL
AAXX 11064 71624 12974 72104 11043 21099 30097 40316 53001 60001 87070 333 11017 21070 70000 555 10000 20000 32720 40151
AAXX 11064 71625 16664 82002 11057 21104 30123 40289 51004 60001 333 11033 21136 70005
AAXX 11064 71627 12574 73404 11050 21082 30254 40300 50010 60001 81550 333 10001 21053 41997 79999 555 19999 29999
AAXX 11064 71628 11574 72305 11040 21075 30155 40300 52009 69901 70282 81570 333 11016 21065 42997 79999 90926 555 10002 29999
AAXX 11064 71630 NIL
AAXX 11064 71631 16/// /2106 11072 21104 39784 40302 51002 60001 333 11057 21093 70000 555 32818 40171
AAXX 11064 71633 12674 72311 11013 21071 30005 40284 51002 60001 87500 333 11012 21051 43005 70009 555 10009 20009 32718 40120
AAXX 11064 71705 12974 02805 11073 21123 30167 40257 52024 60001 333 10040 21075 70080 555 19999 29999 33419 40040
AAXX 11064 71706 11574 53011 11045 21097 30179 40241 52027 69901 78582 85500 333 10055 21047 70044 90937 555 19999 29999 33220 40040
AAXX 11064 71707 11462 83308 10002 21025 30111 40188 52022 60021 78582 885// 333 10071 20001 70022 90917 555 19999 29999 32024 40180
AAXX 11064 71709 NIL
AAXX 11064 71711 NIL
AAXX 11064 71714 46/// /2407 11093 30208 6///1 333 7////
AAXX 11064 71715 16/// /3304 11090 21143 30079 40267 51015 60001 333 10007 21113 70041 555 10030 20041 32617 40071
AAXX 11064 71718 12583 42810 11105 21159 30198 40266 52011 60001 84500 333 11016 21107 70074 555 10074 20074
AAXX 11064 71719 NIL
AAXX 11064 71043 11580 80000 11150 21169 30064 40160 57001 69901 77111 84500 333 11123 21172 48019 70014 90931 555 10018 20014
AAXX 11064 71045 16/// /0000 11160 21174 39350 40238 54000 60001 333 11042 21172 70000
AAXX 11064 71050 NIL
AAXX 11064 71051 NIL
AAXX 11064 71052 NIL
AAXX 11064 71066 12474 80000 11079 21100 39765 40195 52015 60001 875// 333 11068 21166 70004 555 10014 20004
AAXX 11064 71068 11674 80304 11072 21089 39479 40181 53029 69931 78588 83501 333 10015 21074 48997 79999 90973 555 10004 20003 32918 40200
AAXX 11064 71069 17558 83011 11037 21045 39432 40145 53026 60001 745// 333 10033 21072 70000 555 32732 40002
AAXX 11064 71076 16/// /2701 11133 21144 39741 40145 52007 60001 333 11132 21197 70000
AAXX 11064 71077 NIL
AAXX 11064 71079 NIL
AAXX 11064 71081 46964 02914 11221 21257 30036 40048 53007 6///1 333 11212 21312 7//// 555 33017 40031
AAXX 11064 71082 NIL
AAXX 11064 71083 11974 03610 11303 21344 30068 40113 52008 69901 77677 333 11286 21309 48053 79999 90983 555 19999 29999 33418 40180
AAXX 11064 71090 46914 03227 11139 21161 39946 49981 53001 6///1 333 11118 21142 7//// 555 30331 40062
AAXX 11064 71091 460// /3113 11206 39784 49996 53001 6///1 333 7//// 555 32925 40211
AAXX 11064 71092 46959 01502 11156 39312 49979 53007 6///1 333 11150 21184 7////
AAXX 11064 71093 460// /3513 11141 39471 49967 55000 6///1 333 11137 21148 7//// 555 33530 40032
AAXX 11064 71094 46037 /2907 11139 39020 49911 51002 6///1 333 11117 21139 7//// 555 33632 40142
AAXX 11064 71095 46964 81703 11184 21213 39931 40012 55001 6///1 333 11168 21200 7////
AAXX 11064 71101 160// /2609 30227 52007 60001 333 70000 555 32619 40191
AAXX 11064 71104 12974 20000 11113 21122 39071 40212 52009 60001 82070 333 11022 21199 70000 555 10000 20000
AAXX 11064 71108 11540 80000 10013 20008 30134 40208 55001 60001 71022 885// 333 10026 21043 79999 555 10000 20000
AAXX 11064 71109 12574 10000 10012 21007 30196 40223 52004 60001 81500 333 10070 20001 70024 555 10000 20000
AAXX 11064 71930 NIL
AAXX 11064 71931 16/// /3310 10020 20011 30067 40079 56009 60001 333 10076 21017 70000 555 32137 40163
AAXX 11064 71934 11316 80000 11105 21114 39900 40165 53013 69901 77177 885// 333 11105 21172 47021 79999 90973 555 10002 29999
AAXX 11064 71935 11232 82202 11105 21111 39968 40182 51006 69921 77177 887// 333 11092 21177 44015 70002 90966 555 10002 20002
AAXX 11064 71936 11266 80000 11090 21093 39890 40155 52007 69921 77177 885// 333 11088 21142 48024 70004 90973 555 10008 20004
AAXX 11064 71937 NIL
AAXX 11064 71938 11569 80000 11271 21299 30106 40137 56004 69901 77677 88500 333 11202 21298 48020 79999 90973 555 19999 29999
AAXX 11064 71940 NIL
AAXX 11064 71943 11459 83308 11049 21077 39341 40188 53024 60031 77172 885// 333 10015 21050 48008 70044 90927 555 10048 20044
AAXX 11064 71944 160// ///// 11047 51016 60001 333 11017 21058 70000
AAXX 11064 71945 12774 80000 11087 21117 39729 40212 52008 60001 82571 333 11045 21118 70006 555 10008 20006
AAXX 11064 71946 12974 70000 11137 21158 39965 40186 50001 60001 87070 333 11130 21213 48038 79999 555 19999 29999
AAXX 11064 71948 46464 80303 11178 30022 40138 52005 6///1 333 11175 21205 7//// 555 30920 40081
AAXX 11064 71949 46/// /1203 11195 21216 39331 40237 56004 6///1 333 11091 21227 7////
AAXX 11064 71951 11324 82904 11003 21005 39954 40225 53014 69921 75622 887// 333 10018 20020 47023 70022 90931 555 10020 20020 32119 40151
AAXX 11064 71957 46148 80000 11106 21151 30054 40143 56012 6///1 333 11066 21125 7//// 555 33219 40211
AAXX 11064 71958 43/// /0000 11056 21065 39261 40215 53015 6///1 333 11020 21059 7////
AAXX 11064 71964 12274 81812 11090 21108 39330 40203 57015 60001 886// 333 11036 21139 70028 555 10034 20028
AAXX 11064 71966 16/// /0705 11180 21201 39728 40211 56017 60001 333 11166 21278 70000
AAXX 11064 71968 46064 /1615 11109 30046 40111 56027 6///1 333 11068 21123 7//// 555 32042 40083
AAXX 11064 71816 12974 02507 11188 21242 30100 40164 55004 60001 333 11093 21198 70002 555 10002 20002 32918 40210
AAXX 11064 71817 NIL
AAXX 11064 71818 12974 02820 11135 21166 30101 40120 56011 60001 333 11072 21142 70004 555 10004 20004 32720 40071
AAXX 11064 71822 11574 72203 11158 21181 39761 40259 52006 69901 77177 87500 333 11127 21167 43021 70004 90983 555 10004 20004
AAXX 11064 71825 12974 02708 11248 21296 39497 40206 52003 60001 333 11152 21250 70002 555 10002 20002
AAXX 11064 71827 11559 82104 11160 21186 39927 40181 56002 69921 77177 885// 333 11156 21201 47018 70002 90983 555 10002 20002
AAXX 11064 71828 16462 83006 11207 21254 39494 40162 53005 60001 333 11187 21241 70000 555 32528 40002
AAXX 11064 71831 NIL
AAXX 11064 71832 NIL
AAXX 11064 71834 11574 80000 11115 21132 39740 40183 58011 69901 77122 885// 333 11112 21175 48012 79999 90942 555 19999 29999
AAXX 11064 71841 NIL
AAXX 11064 71842 12574 41505 11091 21117 39660 40143 57018 60001 82570 333 11085 21172 79999 555 19999 29999
AAXX 11064 71844 16764 32002 11191 21232 39866 40157 58012 60001 333 11159 21255 70000
AAXX 11064 71845 NIL
AAXX 11064 71850 12974 01408 11074 21096 39602 40111 58027 60001 333 11065 21177 48003 79999
AAXX 11064 71852 16964 01506 11083 21099 39777 40076 56025 60001 333 11037 21132 70000
AAXX 11064 71854 NIL
AAXX 11064 71858 NIL
AAXX 11064 71861 NIL
AAXX 11064 71862 12974 72410 11023 21055 39384 40087 53003 60001 80001 333 10043 21089 70000 555 10000 20000 32320 40210
AAXX 11064 71863 46964 02913 11020 21058 39376 40076 53011 6///1 333 10046 21116 7////
AAXX 11061 01167 11X20 80111 10016 21010 39957 49962 55001 60042 78682 889// 333 21008 70040 91119
AAXX 11061 48900 32597 30105 10306 20174 30083 40093 57028 81101 333 58006 81895 83099
AAXX 11061 48917 32598 60506 10282 20177 30100 40106 57012 81208 222// 00288 2//01 333 58005 81895 86299
AAXX 11061 48918 32570 70502 10272 20217 30096 40107 57017 872// 222// 00276 2//01 333 58011 87895
AAXX 11061 48914 32598 70203 10274 20204 30103 40105 57020 872// 333 58010 87895
AAXX 11061 01156 16/// /0108 10015 21043 39955 49965 50002 69962 333 21003 70006 91114
AAXX 11061 01135 16/// /1102 11069 21088 39814 49970 53010 60002 333 21071 4/002 70000 91103
AAXX 11061 01192 16/// /0000 11038 21065 60002 333 21044 4/006 70000 91102
AAXX 11061 01419 16/// /3201 10007 20004 60032 333 20005 70099 91103
AAXX 11061 01455 16/// /1101 11054 21065 39711 40030 53015 60002 333 21056 70000 91103
AAXX 11061 01481 16/// /0000 11041 21047 39980 40013 51015 60002 333 21043 70000 91102
AAXX 11061 01023 11465 80000 11052 21054 39864 49961 57003 69952 78582 8787/ 333 21062 47005 70005 91101
AAXX 11061 01037 16/// /1101 11038 21047 39954 49960 55004 69962 333 21040 70015 91103
AAXX 11061 01065 11640 82201 11061 21069 39794 49958 57005 60022 78588 888// 333 21062 70056 91102
AAXX 11061 01114 16/// /0503 11032 21080 39954 49965 52006 60002 333 21042 70000 91106
AAXX 11061 01245 11570 52904 11023 21044 39271 49980 53007 60002 70172 85500 333 21033 70005 91107
AAXX 11061 01364 16/// /3002 11053 21079 38878 40010 50007 60002 333 21121 4/024 70000 91107
AAXX 11061 01389 11985 00000 11190 21213 39692 40027 53015 60002 70220 333 21190 47016 70000 91102
AAXX 11061 48916 32998 70203 10275 20209 30055 40102 58015 80008 333 58010 87299
AAXX 11061 48919 12498 70514 10270 20221 30070 40092 58020 60013 879// 22200 02272 2//05 333 58011 81894 83995 85696
AAXX 11063 91551 11598 50000 10285 20250 4//// 5//// 60011 70228 83202 333 569/9 60011 83820 85080
AAXX 11063 91553 31598 71107 10285 20250 40082 53002 70222 82907 333 563/9 82820 81925 87078
AAXX 11063 91554 31598 70606 10282 20251 40078 56001 70222 82101 333 561/9 82825 87080
AAXX 11063 91555 31598 40000 10283 20249 40079 56003 70222 84205 333 563/9 84825
AAXX 11063 91557 31598 70908 10290 20248 40063 56002 70222 8583/ 333 5629/ 84820 85640
AAXX 11063 91565 31598 20607 10290 20251 40081 56002 70111 82900 333 562// 82828 81930
AAXX 11063 91568 31598 30000 10287 20256 40096 56005 71522 83201 333 563/9 83822
AAXX 11063 91502 31470 63204 10283 20242 40069 55002 71522 83973 333 56799 83816 81917 85361
AAXX 11063 91507 31475 60504 10290 20240 40068 55001 71522 85932 333 56000 82816 81917 83628 83360
AAXX 11063 91520 01460 81803 10236 20234 40078 53011 60091 79598 879// 333 56999 60097 82816 83918 87630
AAXX 11063 91541 01475 60000 10290 20247 40079 57010 60081 72582 83906 333 56200 60067 82816 81917 85280
AAXX 11063 91551 11598 50000 10285 20250 4//// 5//// 60011 70228 83202 333 569/9 60011 83820 85080
AAXX 11063 91553 31598 71107 10285 20250 40082 53002 70222 82907 333 563/9 82820 81925 87078
AAXX 11063 91554 31598 70606 10282 20251 40078 56001 70222 82101 333 561/9 82825 87080
AAXX 11063 91555 31598 40000 10283 20249 40079 56003 70222 84205 333 563/9 84825
AAXX 11063 91557 31598 70908 10290 20248 40063 56002 70222 8583/ 333 5629/ 84820 85640
AAXX 11063 91565 31598 20607 10290 20251 40081 56002 70111 82900 333 562// 82828 81930
AAXX 11063 91568 31598 30000 10287 20256 40096 56005 71522 83201 333 563/9 83822
AAXX 11063 91502 31470 63204 10283 20242 40069 55002 71522 83973 333 56799 83816 81917 85361
AAXX 11063 91507 31475 60504 10290 20240 40068 55001 71522 85932 333 56000 82816 81917 83628 83360
AAXX 11063 91520 01460 81803 10236 20234 40078 53011 60091 79598 879// 333 56999 60097 82816 83918 87630
AAXX 11063 91541 01475 60000 10290 20247 40079 57010 60081 72582 83906 333 56200 60067 82816 81917 85280
AAXX 11061 13160 12697 83401 10054 20043 30109 40220 52023 69912 885// 333 20039 31003 55000 70001
AAXX 11061 13262 32698 80000 10097 20072 30053 40202 52013 885// 333 20094 32006 55002 70000
AAXX 11061 13272 11658 80303 10072 20053 30088 40209 52021 69952 76162 8457/ 333 20072 31007 55000 84645 88459
AAXX 11061 13285 11698 81101 10059 20049 30093 40197 52005 69922 70262 885// 333 20056 31005 55000 70003
AAXX 11061 13289 11498 62804 10057 20028 39001 48505 52007 69972 70162 86500 333 20054 31003 55016 70007
AAXX 11061 13376 32997 70000 10038 20028 39953 40220 53003 87070 333 20034 31000 55019 70000
AAXX 11061 13388 11697 70000 10051 20036 39972 40224 53004 69932 70262 87500 333 20050 31003 55000 70003
AAXX 11061 13462 11404 70000 10073 20070 30174 40215 56001 69932 74444 86520 333 20050 32005 55/// 82710 84633 87458
AAXX 11061 13473 NIL
AAXX 11061 13489 11694 60000 10006 20004 39720 40258 53003 69932 71062 86500 333 20012 32103 55018 70005
AAXX 11061 33506 11495 82902 10003 20003 39939 40139 53009 60072 78688 889// 333 20003 42998
AAXX 11061 26645 11497 82203 11006 21015 39806 40069 52010 69982 70272 886// 333 21012 47005 88710 555 90010
BBXX 3FSB4 11064 99375 11578 43797 51808 10130 20090 40130 5//// 7//// 85468 22224 00190 20305 3//// 4//// 5//// 6//// 80110 ICE /////
BBXX 3FZK3 11064 99488 11606 46/// /2834 11011 21028 49984 57006 7//// 8//// 22213 0//// 2////
BBXX A8EH3 11063 99492 11595 41296 82727 10020 21067 49990 56040 78587 88/// 22214 04020 21005 32701 40904 51005 81010
BBXX DGDD 11061 99328 11579 41297 80411 10180 20148 40150 56030 76365 886// 22264 00200 2//03 304// 42006 5//// 80160
BBXX DMRX 11064 99470 11570 41298 82411 10014 21031 40017 56015 70322 82778 22214 00050 20102 32335 40608 50506 81003
BBXX LAOX5 11061 99320 11524 41497 71819 00/// 10200 21190 00220 20303 317// 40145 40303 55005 6//// 70202 80190 88642
AAXX 11061 01049 16/// /2001 11056 21063 39958 49962 57002 60022 333 21057 70031 91102
AAXX 11061 01359 11689 12801 11056 21088 39094 40024 53009 69932 70200 81200 333 21072 48024 70008 91107
AAXX 11061 01400 41498 62211 10079 20052 40020 57020 70252 8351/ 22200 06088 10605 70025 333 91112
AAXX 11061 01008 11588 21207 11120 21143 30013 40048 58007 69902 70171 82500 333 21127 48015 79999 91108
AAXX 11064 60715 12558 51703 10092 20061 30198 40205 58008 60004 81132 333 20083 58001 81820 84070 91004 91110
AAXX 11064 60723 13960 60000 10065 20065 30035 40229 53005 60004 82082 333 20060 82360 85070
AAXX 11064 60725 12558 73602 10061 2//// 30042 40226 58008 60004 82282 333 20056 82820 84070
AAXX 11064 60735 12558 32302 10094 20013 30134 40217 53011 60004 81502 333 20090 81633 84070
AAXX 11064 60745 12660 62203 10100 20050 39855 40231 53002 60004 82502 333 20094 82633 85070
AAXX 11064 60748 13960 62006 10127 20011 39798 40218 53005 60004 80002 333 20077 86070
AAXX 11064 60750 12660 62309 10103 20033 30196 40222 53004 60004 83502 333 20076 83633 84070
AAXX 11064 60760 12658 60000 10105 20040 30120 40226 56001 60004 85202 333 20095 70000 85833 91000 91105
AAXX 11064 60765 13560 42206 10085 20060 30230 40234 53006 60004 81202 333 20081 81820 84070 92436 925//
AAXX 11064 60767 12560 52208 10075 20039 30085 40234 53004 60004 83202 333 20070 83820 84070
AAXX 11064 60769 12958 51806 10107 20078 30215 40219 53002 60004 80002 333 20105 85070
AAXX 11061 01026 11X25 90101 11018 21036 39815 49957 55001 60022 78582 333 21018 47007 70015 91107
AAXX 11061 01062 11989 00603 11078 21094 30040 40053 54000 60002 70210 333 21079 48005 70000 91104
AAXX 11061 01205 46/// ///// 10032 20006 39942 49988 55002 333 20029
AAXX 11061 01212 16/// /2204 10034 20018 39976 49992 52002 6//// 333 20022 91108
AAXX 11061 01300 41598 81805 10053 20033 49957 57022 78081 87/// 22200 02065 10805 70026 333 91110
AAXX 11063 61701 31959 00000 10190 20172 40097 71000 80000 333 20162 50281 55078 58002
AAXX 11063 61705 NIL
AAXX 11063 61707 NIL
AAXX 11063 61711 NIL
AAXX 11063 61712 NIL
AAXX 11063 61717 NIL
AAXX 11063 61720 NIL
AAXX 11063 61721 NIL
AAXX 11063 61722 NIL
AAXX 11063 61731 NIL
AAXX 11063 61733 NIL
AAXX 11064 64600 31920 60000 10154 20130 39451 40104 71011 80002 333 01200 20140 55079 59003 86080
AAXX 11064 64601 31930 00224 10150 20038 38992 48498 70400 333 01400 20150 59002
AAXX 11064 64605 32965 00000 10160 20106 39358 40100 333 01100 20139 58006
AAXX 11064 64610 32970 00404 10135 20130 3//// 4//// 333 00800 20125 5////
AAXX 11064 64650 31940 40000 10179 20165 39690 40103 71011 80002 333 01500 20173 55101 59004 84080
AAXX 11064 64654 32958 20000 10195 20058 39560 40134 80002 333 01600 20190 58010 82080
AAXX 11064 64655 32965 70000 10162 20136 39462 40109 80002 333 01300 20142 59010 87080
AAXX 11064 64656 31940 00000 10188 20159 39548 40102 71000 333 01300 20152 59007
AAXX 11064 64659 NIL
AAXX 11064 64660 32960 00000 10177 20157 39569 40097 333 01300 20160 59006
AAXX 11064 64662 32965 31802 10168 20155 39596 40097 80002 333 01500 20157 59003 83080
AAXX 11064 64665 32965 00000 10186 20173 3//// 4//// 333 00600 20162 5////
AAXX 11064 48310 NIL
AAXX 11064 48325 31665 40000 10299 20165 39886 40125 57024 70341 82545 333 58014
AAXX 11064 48329 32560 73505 10252 20168 39811 40150 57018 85806 333 58024
AAXX 11064 48352 32562 10608 10242 20095 39971 40174 57038 81100 333 58013
AAXX 11064 48357 32961 10705 10237 20095 30000 40171 57039 80001 333 58002
AAXX 11064 48380 32960 71502 10247 20146 30067 40162 57027 86056 333 58020
AAXX 11064 48383 31959 00705 10225 20107 30003 40165 57038 70500 333 58007
AAXX 11064 48403 31958 30408 10244 20117 39941 40153 57043 70500 80005 333 58012
AAXX 11064 48405 32960 00305 10230 20118 39992 40157 57035 333 58010
AAXX 11064 48420 31958 70415 10258 20148 30132 40136 57029 70522 82066 333 58016
AAXX 11064 48421 31957 20000 10285 20138 30023 40137 57033 70500 80005 333 58018
AAXX 11064 48425 31958 60808 10248 20146 30147 40157 57029 70521 80006 333 58021
AAXX 11064 48426 32962 60404 10272 20137 30134 40147 57033 80006 333 58015
AAXX 11064 48429 32560 50410 10258 20123 30139 40146 57024 81146 333 58023
AAXX 11064 48430 31959 20708 10272 20126 30135 40143 56028 70500 81045 333 58019
AAXX 11064 48450 31958 00905 10260 20121 30117 40151 57031 70500 333 58023
AAXX 11064 48459 32962 20706 10271 20149 30129 40132 57028 80005 333 58018
AAXX 11064 48465 31558 43215 10272 20162 30135 40139 57028 70511 81206 333 58020
AAXX 11064 48550 31558 60507 10283 20230 30102 40109 57011 71022 82346 333 58016
AAXX 11064 48552 01460 60405 10293 20224 30102 40108 57012 60031 70162 84206 333 58011 60017 70181
AAXX 11064 48566 32560 70504 10290 20224 30102 40110 57010 82847 333 58024
AAXX 11064 48568 01460 80607 10281 20228 30098 40105 57011 69921 72162 8587/ 333 58012 69927 70029
AAXX 11064 48300 32562 53103 10277 20194 39818 40127 57021 84845 333 58008 70003
AAXX 11064 48327 32560 82203 10250 20195 39804 40161 57020 86876 333 58020
AAXX 11064 48331 32560 60000 10238 20159 39932 40165 57030 84576 333 58023
AAXX 11064 48353 31658 31703 10225 20095 39880 40174 57032 70521 82105 333 58028
AAXX 11064 48356 31958 00704 10230 20093 39975 40174 57049 70500 333 58016
AAXX 11064 48375 32960 00805 10285 20144 39894 40117 52030 333 58020
AAXX 11064 48378 31558 30404 10262 20135 30103 40156 57029 70522 81145 333 58015
AAXX 11064 48381 32560 20509 10242 20095 39943 40162 56040 82105 333 58011
AAXX 11064 48407 32960 20510 10256 20122 30005 40147 57031 80001 333 58017
AAXX 11064 48431 32962 20706 10233 20122 39941 40157 57037 80005 333 58019
AAXX 11064 48456 NIL
AAXX 11064 48480 32960 20206 10253 20138 30115 40119 57026 80001 333 58012
AAXX 11064 48500 31556 60212 10263 20179 30127 40133 57016 70522 82506 333 58018
AAXX 11064 48551 11557 80307 10278 20230 30101 40109 57011 69941 71062 84867 333 58010 70072
AAXX 11064 48565 32560 61215 10314 20228 30088 40098 57008 82246 333 58011
AAXX 11064 48569 01458 70000 10248 20226 30075 40116 57011 60061 76162 84876 333 58021 60057 70310
AAXX 11064 48583 01420 82505 10241 20231 30098 40104 57013 60551 76166 8382/ 333 58011 60277 72409
AAXX 11064 48302 01/00 90903 10127 20123 38496 40153 57009 69931 74564 333 58021 69937 70012
AAXX 11064 48304 01559 80304 10185 20160 39708 40179 57016 69901 75152 8657/ 333 58039 69907 79999
AAXX 11064 48334 31558 80000 10235 20151 39790 40154 57024 70522 85556 333 58020
AAXX 11064 48360 31959 00507 10226 20087 39907 40171 57025 70500 333 58011
AAXX 11064 48372 32560 52103 10266 20184 30100 40158 57022 82236 333 58018
AAXX 11064 48373 31558 30000 10262 20161 30095 40157 57026 70511 82101 333 58022
AAXX 11064 48386 31956 32402 10265 20149 30119 40163 57021 70511 80006 333 58035
AAXX 11064 48387 32560 61007 10193 20125 39184 40149 57015 82546 333 58017
AAXX 11064 48408 32960 23406 10255 20130 39994 40144 58035 80001 333 58013
AAXX 11064 48415 31958 60509 10260 20134 30139 40150 57027 70522 82045 333 58024
AAXX 11064 48433 31958 20110 10248 20131 39989 40156 57033 70500 80005 333 58017
AAXX 11064 48437 32960 10105 10240 20125 39946 40158 57031 80001 333 58016
AAXX 11064 48440 31958 50610 10275 20152 30087 40136 57030 70510 80006 333 58018
AAXX 11064 48451 32564 63504 10243 20151 30147 40158 57024 82506 333 58023
AAXX 11064 48454 32962 60903 10272 20166 30139 40145 56023 81046 333 58021
AAXX 11064 48457 31958 60415 10231 20137 30126 40143 57024 70522 80006 333 58020
AAXX 11064 48463 31956 63615 10277 20142 30052 40146 58025 70522 80006 333 58019
AAXX 11064 48464 31558 83508 10257 20198 30122 40134 57025 77022 85536 333 58015
AAXX 11064 48479 32962 40506 10263 20140 30077 40129 57023 80006 333 58020
AAXX 11064 48520 31559 50515 10275 20215 30108 40124 57010 71011 84205 333 58020
AAXX 11064 48554 31458 70312 10280 20229 30100 40104 57015 71022 85976 333 58004
AAXX 11064 48563 32560 50308 10301 20220 30062 40097 57014 82246 333 58010 70004
AAXX 11064 48571 01558 80000 10254 20233 30096 40108 57011 60141 76062 83876 333 58018 60047 70514
AAXX 11061 02019 07/35 /2003 11062 21073 39327 49952 57005 60012 77170 333 11061 21078 69915 70046 90710 91104
AAXX 11061 02081 07/77 /3303 11090 21096 39541 49950 57003 60012 72470 333 11055 21090 69905 70039 90710 91104
AAXX 11061 02095 07561 /3603 11060 21070 39725 49929 55002 60022 72477 333 11041 21061 69915 70069 84/32 88/43 90710 91104
AAXX 11061 02101 45683 /0000 11127 21139 39406 49977 53007 8//// 333 11032 21130 82/47
AAXX 11061 02119 05799 /3601 11157 21168 39568 49964 52004 60002 333 11085 21157 60005 70006 85/56 90710 91103
AAXX 11061 02124 07699 /3402 11074 21084 39423 49954 52006 69912 70070 333 11056 21089 60005 70012 87/35 88/49 90710 91105
AAXX 11061 02126 05499 /3102 11098 21111 39612 49955 53009 69902 333 11038 21103 60005 70010 87/18 90710 91104
AAXX 11061 02151 15984 83002 11088 21092 39604 49945 53004 69992 333 11044 21096 60005 70027 88/61 91003 90710 91103 90710 91202
AAXX 11061 02186 07465 83404 11044 21052 39893 49918 53009 69972 74174 333 11026 21045 69905 70077 84/11 85/32 88/56 91006 90710 91107 90710 91205
AAXX 11061 02197 07/60 /0104 11031 21032 39887 49906 52005 60022 77174 333 11021 21032 69905 70050 90710 91106
AAXX 11061 02207 07456 /2904 11034 21037 39252 49951 53011 60012 77187 333 11030 21039 69905 70031 87/16 90710 91108
AAXX 11061 02219 07/60 /0701 11094 21100 39284 49960 52008 60022 77174 333 11045 21100 69915 70031 90710 91102
AAXX 11061 02226 45484 /0301 11046 21049 39496 49953 52011 8//// 333 11024 21046 82/14 88/20
AAXX 11061 02243 07/32 /2901 11051 21055 39675 49946 52010 69902 77174 333 11019 21052 69905 70007 90710 91103
AAXX 11061 02269 05599 /3302 11021 21049 60002 333 10007 21026 60005 70009 88/20 90710 91105
AAXX 11061 02287 05483 /3205 11029 21046 39914 49923 53016 69902 333 10019 21029 60005 70002 81/17 86/50 87/67 90710 91109
AAXX 11061 02297 07399 /3311 11023 21030 39870 49915 53011 60012 70070 333 10009 21023 60005 70044 87/09 90710 91114
AAXX 11061 02308 07482 /3302 11042 21054 39096 49958 53007 69932 72487 333 11040 21057 69905 70013 84/19 87/28 90710 91105
AAXX 11061 02327 07/99 /2402 11103 21111 39524 49968 53011 69912 70071 333 11005 21105 60005 70035 90710 91103
AAXX 11061 02355 07560 /2602 10000 21013 39938 49951 51011 69902 77170 333 10022 20000 69905 70015 81/27 85/50 88/57 90710 91103
AAXX 11061 02366 47462 /3202 11016 21026 39940 49946 53008 771// 8//// 333 10010 21016 81/13 83/27 85/38
AAXX 11061 02407 07899 /3502 11072 21076 39609 49984 51013 69912 70041 333 11043 21072 60005 70001 90710 91103
AAXX 11061 02418 45984 /2501 11053 21057 39870 40003 52014 8//// 333 11022 21060
AAXX 11061 02435 47184 /2504 11019 21036 39787 49976 52013 785// 8//// 333 11015 21059 81/02 85/56
AAXX 11061 02440 07899 /2701 11016 21023 60002 70010 333 10002 21017 60005 70006 84/57 88/60 90710 91103
AAXX 11061 02452 07132 /2804 11032 21032 69902 72473 333 10002 21046 69905 70001 87/02 90710 91107
AAXX 11061 02456 07582 /2201 11013 21016 39926 49969 52016 69922 70087 333 10000 21014 60005 70033 82/22 88/57 90710 91103
AAXX 11061 02469 07/62 /2604 11001 21006 69952 70010 333 10015 21006 60005 70006 90710 91106
AAXX 11061 02498 05177 /2707 10010 20006 39957 49973 52027 60002 333 10026 20008 60005 70000 87/02 87/56 90710 91110
AAXX 11061 02518 46/// /2609 10057 20040 333 10069 20055 90710 91112
AAXX 11061 02520 35983 02001 11017 21028 39952 40020 53015 60002 333 10029 21034 60005 70006 91002 90710 91102 90710 91202
AAXX 11061 02550 45984 /2202 11026 21026 39747 40026 51020 8//// 333 10026 21033
AAXX 11061 02562 15484 82605 10005 21012 39893 40009 51020 69972 333 10037 21001 60005 70007 88/14 91007 90710 91107 90710 91205
AAXX 11061 02563 07481 /2803 10007 21009 39980 40002 53027 69912 72487 333 10040 20005 69915 70001 87/12 88/21 90710 91107
AAXX 11061 02565 05/67 /3201 11021 21033 39901 40022 51026 69922 333 10033 21021 60005 70002 90710 91103
AAXX 11061 02589 07499 /3105 10028 20009 39965 49985 53036 69922 70086 333 10048 20028 60005 70002 88/11 90710 91109
AAXX 11061 02590 45484 /2906 10017 21005 39944 40006 51037 8//// 333 10043 20015 88/15
AAXX 11061 02618 07/59 /2505 10040 20039 39874 40038 53016 60042 71086 333 10045 20018 60005 70115 90710 91109
AAXX 11061 02664 11470 42402 10018 20011 39977 40049 52028 69922 78082 84300 333 10037 20012 32/// 60005 70004 81915 84626 91005 90710 91105 90710 91202
AAXX 11061 02679 07499 /2909 10023 21008 39975 40019 52037 69922 70060 333 10044 20023 60005 70002 88/18 90710 91113
AAXX 11064 48307 31557 80000 10194 20148 39794 40182 56018 71022 8557/ 333 58044
AAXX 11064 48324 32560 72302 10252 20143 39934 40155 57025 83206 333 58020
AAXX 11064 48333 32560 70000 10220 20153 39867 40173 57025 81570 333 58031
AAXX 11064 48350 32664 30603 10220 20112 39868 40173 57034 81106 333 58030
AAXX 11064 48355 31958 00000 10230 20114 39941 40163 70500 333 58009
AAXX 11064 48358 NIL
AAXX 11064 48384 32960 00407 10250 20116 39969 40161 57036 333 58015
AAXX 11064 48401 31959 21005 10262 20151 30048 40156 57033 70500 80006 333 58017
AAXX 11064 48404 31959 00810 10235 20118 39976 40156 58035 70500 333 58013
AAXX 11064 48409 NIL
AAXX 11064 48419 31558 60000 10260 20151 30137 40145 56027 70522 82545 333 58019
AAXX 11064 48427 31958 80305 10243 20143 30146 40154 57030 70522 80007 333 58023
AAXX 11064 48435 32962 30820 10232 20114 39707 40148 57026 82045 333 58018
AAXX 11064 48453 32960 60804 10261 20156 30135 40138 57030 80006 333 58019
AAXX 11064 48458 32960 70506 10252 20140 30073 40155 57028 80001 333 58019
AAXX 11064 48474 31557 20312 10263 20154 30013 40136 57029 70520 81105 333 58019
AAXX 11064 48481 32960 31502 10270 20155 30091 40118 57023 80006 333 58012
AAXX 11064 48555 31457 70101 10262 20252 30090 40133 55011 71522 85870 333 58010
AAXX 11064 48556 32560 60306 10305 20248 30086 40102 57016 82206 333 58009 70001
AAXX 11064 48557 32460 60403 10288 20229 30068 40103 57010 85806 333 58009 70072
AAXX 11064 48560 01557 80000 10275 20239 30086 40091 56024 69921 71062 84876 333 59002 69927 70045
AAXX 11064 48574 32563 60000 10314 20239 30074 40103 57010 82106 333 58016 70058
AAXX 11064 48581 01440 80000 10238 20229 30074 40115 57010 60261 76062 82577 333 58023 60226 70725
AAXX 11064 91367 32474 20806 10294 20265 83100 333 562// 82815 70000 91106
AAXX 11064 87692 41560 73412 10175 20153 30066 40091 56048 72992 84520 333 56670 84625 88656 555 10090
AAXX 11064 60020 NIL
AAXX 11064 60030 02560 83511 10183 20144 30154 40210 58001 60004 81807 333 018// 20183 55000 60007 924/6
AAXX 11064 60040 02570 70206 10172 20129 30197 40222 53001 60004 81501 333 016// 20171 55000 60007 924/8
AAXX 11064 60338 12970 10000 10120 20101 30124 40191 57011 60004 80001 333 20110 55065 92417
AAXX 11064 67315 12580 41206 10281 20224 40120 52009 60044 84200 333 5///0 55106 94320 555 00038 10008
AAXX 11061 91925 06/// /0802 10253 20199 30069 40130 53017 60001 333 55085 60007 90710 91107 555 60005 10932 59002
AAXX 11061 91929 04/84 /3103 10269 20223 30120 40123 53020 69902 700// 333 10308 20269 55/// 69907 70026 90710 91108 555 69905
AAXX 11061 91938 01570 30803 10268 20226 30126 40128 53020 60062 70361 82202 333 10303 20249 31/// 55042 60007 70063 82820 90710 91105 555 60005 13408 58017
AAXX 11061 91944 06/// /0413 10264 20218 30151 40154 51023 69942 333 10288 20263 55087 60007 70004 90710 91117 555 60005
AAXX 11061 91948 06/// /3608 10235 20208 30080 40183 53018 60001 333 55024 60007 90710 91114 555 60005 13416 58034
AAXX 11061 91954 06/// /0806 1//// 2//// 30130 4//// 53014 60001 333 55/// 60007 555 58012
AAXX 11061 91958 06/// /1805 10183 20148 30167 40169 52018 60001 333 55107 60007 90710 91108 555 60005 10521 58038
AAXX 11061 91945 06/// /0116 10258 20238 30131 40136 53018 60161 333 60027 555 58033 60244
AAXX 11061 78458 21466 70000 10240 20226 40141 58003 70266 86820 333 10290 20215 32/// 56000 59022 69937 86616 83457
AAXX 11061 78460 31460 70000 10232 20226 40132 56007 70544 85930 333 10308 20203 30/// 56200 59016 81918 83820 83357
AAXX 11061 78479 32466 70706 10260 20215 40107 57006 83270 333 10295 20244 30/// 56100 59010 83818 85358
AAXX 11061 78485 32466 73602 10225 20210 40125 57007 84850 333 10310 20214 31/// 56100 59012 84816 86357
AAXX 11061 78486 32466 73402 10240 20218 40108 57010 83520 333 10306 20230 32/// 56000 59016 83616 86457
AAXX 11064 94500 NIL
AAXX 11064 94510 46/// /1608 10268 20198 39677 40014
AAXX 11064 94515 46/// /2106 10223 20200 39676 40015
AAXX 11064 94552 46/// /0904 10235 20182 39569 40023
AAXX 11064 94578 46/// /1504 10221 20207 30022 40033
AAXX 11064 94584 46/// /3414 10250 20215 39914 40022
AAXX 11064 94601 46/// /1518 10219 20140 30126 40143
AAXX 11064 94610 46/// /1607 10319 20123 30067 40090
AAXX 11064 94637 46/// /0206 10291 20079 39689 40107
AAXX 11064 94638 46/// /1517 10201 20129 30113 40144
AAXX 11064 94642 NIL
AAXX 11064 94643 NIL
AAXX 11064 94647 46/// /1510 10205 20108 30022 40141
AAXX 11064 94651 46/// /1613 10211 20103 30064 40140
AAXX 11064 94653 46/// /2116 10207 20077 30114 40132
AAXX 11064 94659 46/// /2014 10254 20028 39895 40085
AAXX 11064 94672 46/// /2318 10202 20104 30100 40110
AAXX 11064 94691 46/// /2114 10270 20080 39731 40049
AAXX 11064 94693 46/// /1910 10272 20023 39992 40052
AAXX 11064 94700 NIL
AAXX 11064 94703 46/// /1914 10270 20157 39887 40009
AAXX 11064 94710 46/// /2402 10256 20156 39769 40014
AAXX 11064 94729 46/// /1605 10204 20129 39188 40013
AAXX 11064 94750 46/// /0802 10187 20182 39910 40031
AAXX 11064 94767 46/// /1803 10213 20184 30021 40027
AAXX 11064 94776 46/// /1510 10222 20190 30012 40022
AAXX 11064 94791 NIL
AAXX 11064 94802 46/// /1509 10223 20116 30060 40142
AAXX 11064 94804 46/// /2314 10177 20093 30084 40121
AAXX 11064 94807 NIL
AAXX 11064 94821 46/// /2214 10179 20064 30014 40095
AAXX 11064 94842 46/// /2213 10162 20069 39991 40089
AAXX 11064 94847 NIL
AAXX 11064 94850 46/// /2216 10144 20048 30033 40078
AAXX 11064 94865 46/// /1714 10163 20095 30052 40076
AAXX 11064 94866 46/// /1617 10172 20085 39934 40072
AAXX 11064 94875 46/// /2117 10229 20090 39905 40037
AAXX 11064 94299 46/// /0307 10304 20252 30047 40057
AAXX 11064 94300 46/// /2512 10275 20202 30081 40091
AAXX 11064 94302 46/// /0211 10323 20202 30076 40082
AAXX 11064 94312 46/// /3021 10375 20208 30036 40045
AAXX 11064 94313 NIL
AAXX 11064 94317 46/// /3405 10386 20109 39469 40038
AAXX 11064 94319 46/// /1704 10406 20117 39709 40030
AAXX 11064 94324 NIL
AAXX 11064 94326 46/// /2505 10339 20125 39444 40042
AAXX 11064 94327 46/// /1606 10334 20132 39678 40041
AAXX 11064 94332 46/// /3009 10280 20203 39663 40038
AAXX 11064 94333 NIL
AAXX 11064 94341 46/// /3411 10303 20211 39808 40036
AAXX 11064 94346 46/// /2713 10283 20191 39817 40031
AAXX 11064 94363 46/// /1611 10291 20226 39791 40002
AAXX 11064 94366 NIL
AAXX 11064 94367 46/// /3519 10303 20241 39967 40008
AAXX 11064 94374 46/// /2105 10246 20213 39989 40005
AAXX 11064 94388 46/// /3515 10268 20252 30018 40023
AAXX 11064 94393 46/// /3614 10282 30037 40049 57022
AAXX 11064 94394 46/// /3617 10273 30043 40051 56017
AAXX 11064 94403 46/// /3117 10283 20169 30019 40060
AAXX 11064 94429 46/// /0305 10352 20128 39599 40051
AAXX 11064 94430 46/// /3409 10364 20098 39484 40051
AAXX 11064 94449 46/// /0810 10243 20147 39600 40119
AAXX 11064 94451 NIL
AAXX 11064 94461 46/// /2211 10344 20076 39402 40053
AAXX 11064 94462 46/// /1606 10331 20121 39514 40054
AAXX 11064 94477 NIL
AAXX 11064 94488 NIL
AAXX 11064 89564 41981 11713 11019 21134 39809 49829 57002 70200 80001
AAXX 11064 89570 46/// /1806 11050 21103 39109 56010
AAXX 11064 89571 41470 72309 11024 21062 39747 49775 56013 72272 8583/
AAXX 11064 89573 NIL
AAXX 11064 89610 NIL
AAXX 11064 89611 41580 23007 10000 21073 39722 49774 53009 70200 81630
AAXX 11064 89614 NIL
AAXX 11064 89615 465// 82506 11049 21106 38883 53011
AAXX 11064 89807 NIL
AAXX 11064 89809 46/// /3103 11023 21082 39325 53009
AAXX 11064 94893 46/// /2633 10144 20088 39928 40042
AAXX 11064 94907 46/// /2415 10195 20076 30038 40048
AAXX 11064 94910 46/// /3006 10200 20167 39766 40009
AAXX 11064 94926 46/// /1005 10206 20173 39366 40015
AAXX 11064 94935 46/// /2109 10179 20110 30026 40052
AAXX 11064 94954 46/// /2227 10141 20050 39959 40068
AAXX 11064 94956 46/// /2314 10145 20045 30041 40067
AAXX 11064 94975 46/// /2017 10134 20101 39996 40028
AAXX 11064 94983 46/// /1514 10169 20128 39991 40016
AAXX 11064 94995 NIL
AAXX 11064 94996 46/// /1306 10220 20193 39988 40116
AAXX 11064 94997 NIL
AAXX 11064 94998 46/// /0225 10074 20065 30000 40011
AAXX 11064 95111 46/// /1708 10277 20237 30023 40059
AAXX 11064 95205 46/// /3210 10378 20198 30047 40054
AAXX 11064 95322 NIL
AAXX 11064 95448 46/// /0912 10318 20105 39527 40075
AAXX 11064 95458 46/// /2211 10281 20068 39828 40082
AAXX 11064 95480 46/// /1918 10291 20093 30010 40068
AAXX 11064 95481 46/// /2315 10318 20135 39996 40040
AAXX 11064 95482 46/// /2414 10348 20130 39981 40035
AAXX 11064 95485 46/// /2317 10304 20119 39826 40023
AAXX 11064 95492 46/// /3506 10269 20190 39861 40010
AAXX 11064 95527 46/// /3414 10261 20183 39755 40000
AAXX 11064 95634 46/// /0108 10291 20112 39706 40098
AAXX 11064 95637 46/// /2806 10290 20068 39783 40110
AAXX 11064 95646 46/// /1010 10256 20072 39940 40124
AAXX 11064 95666 NIL
AAXX 11064 95719 46/// /1102 10189 20161 39701 40022
AAXX 11064 95762 46/// /2106 10180 20165 39581 40024
AAXX 11064 95826 NIL
AAXX 11064 95839 46/// /2215 10235 20059 39906 40062
AAXX 11064 95864 NIL
AAXX 11064 95909 NIL
AAXX 11064 95954 NIL
AAXX 11064 95966 46/// /1708 10208 20048 39808 40005
AAXX 11064 96995 46/// /2707 10279 20217 39806 40100
AAXX 11064 96996 41468 32708 10298 20244 30083 40087 57006 72511 81209
AAXX 11064 94102 46/// /0106 10318 20247 30065 40074
AAXX 11064 94103 NIL
AAXX 11064 94120 46/// /2912 10324 20251 30024 40064
AAXX 11064 94122 NIL
AAXX 11064 94131 46/// /2710 10344 20224 39901 40051
AAXX 11064 94132 NIL
AAXX 11064 94147 NIL
AAXX 11064 94150 46/// /3505 10295 20263 39984 40043
AAXX 11064 94151 46/// /3009 10348 20232 30015 4////
AAXX 11064 94170 46/// /2810 10315 20242 30027 40049
AAXX 11064 94200 NIL
AAXX 11064 94203 46/// /2810 10320 20245 30055 40065
AAXX 11064 94206 46/// /2308 10403 2//// 39914 40041
AAXX 11064 94207 NIL
AAXX 11064 94211 NIL
AAXX 11064 94212 46/// /2105 10389 20151 39576 40037
AAXX 11064 94216 46/// /3507 10338 20195 30007 40057
AAXX 11064 94236 NIL
AAXX 11064 94238 46/// /2312 10386 20169 39594 40005
AAXX 11064 94248 NIL
AAXX 11064 94255 46/// /0106 10272 20208 39781 40036
AAXX 11064 94268 46/// /2811 10316 20256 30045 40057
AAXX 11064 94287 46/// /3608 10314 20253 30025 40034
AAXX 11064 94290 NIL
AAXX 11064 94294 46/// /3515 10310 20233 30022 40032
AAXX 11064 94296 35/// /0305 10302 30039 40049 57022
AAXX 11064 94298 46/// /3611 10282 30042 40048 58019
AAXX 11064 95641 NIL
AAXX 11064 89564 41981 11713 11019 21134 39809 49829 57002 70200 80001
AAXX 11064 89570 46/// /1806 11050 21103 39109 56010
AAXX 11064 89571 41470 72309 11024 21062 39747 49775 56013 72272 8583/
AAXX 11064 89573 NIL
AAXX 11064 89610 NIL
AAXX 11064 89611 41580 23007 10000 21073 39722 49774 53009 70200 81630
AAXX 11064 89614 NIL
AAXX 11064 89615 465// 82506 11049 21106 38883 53011
AAXX 11064 89807 NIL
AAXX 11064 89809 46/// /3103 11023 21082 39325 53009
AAXX 11064 94500 NIL
AAXX 11064 94510 46/// /1608 10268 20198 39677 40014
AAXX 11064 94515 46/// /2106 10223 20200 39676 40015
AAXX 11064 94552 46/// /0904 10235 20182 39569 40023
AAXX 11064 94578 46/// /1504 10221 20207 30022 40033
AAXX 11064 94584 46/// /3414 10250 20215 39914 40022
AAXX 11064 94601 46/// /1518 10219 20140 30126 40143
AAXX 11064 94610 46/// /1607 10319 20123 30067 40090
AAXX 11064 94637 46/// /0206 10291 20079 39689 40107
AAXX 11064 94638 46/// /1517 10201 20129 30113 40144
AAXX 11064 94642 NIL
AAXX 11064 94643 NIL
AAXX 11064 94647 46/// /1510 10205 20108 30022 40141
AAXX 11064 94651 46/// /1613 10211 20103 30064 40140
AAXX 11064 94653 46/// /2116 10207 20077 30114 40132
AAXX 11064 94659 46/// /2014 10254 20028 39895 40085
AAXX 11064 94672 46/// /2318 10202 20104 30100 40110
AAXX 11064 94691 46/// /2114 10270 20080 39731 40049
AAXX 11064 94693 46/// /1910 10272 20023 39992 40052
AAXX 11064 94700 NIL
AAXX 11064 94703 46/// /1914 10270 20157 39887 40009
AAXX 11064 94710 46/// /2402 10256 20156 39769 40014
AAXX 11064 94729 46/// /1605 10204 20129 39188 40013
AAXX 11064 94750 46/// /0802 10187 20182 39910 40031
AAXX 11064 94767 46/// /1803 10213 20184 30021 40027
AAXX 11064 94776 46/// /1510 10222 20190 30012 40022
AAXX 11064 94791 NIL
AAXX 11064 94802 46/// /1509 10223 20116 30060 40142
AAXX 11064 94804 46/// /2314 10177 20093 30084 40121
AAXX 11064 94807 NIL
AAXX 11064 94821 46/// /2214 10179 20064 30014 40095
AAXX 11064 94842 46/// /2213 10162 20069 39991 40089
AAXX 11064 94847 NIL
AAXX 11064 94850 46/// /2216 10144 20048 30033 40078
AAXX 11064 94865 46/// /1714 10163 20095 30052 40076
AAXX 11064 94866 46/// /1617 10172 20085 39934 40072
AAXX 11064 94875 46/// /2117 10229 20090 39905 40037
AAXX 11064 94299 46/// /0307 10304 20252 30047 40057
AAXX 11064 94300 46/// /2512 10275 20202 30081 40091
AAXX 11064 94302 46/// /0211 10323 20202 30076 40082
AAXX 11064 94312 46/// /3021 10375 20208 30036 40045
AAXX 11064 94313 NIL
AAXX 11064 94317 46/// /3405 10386 20109 39469 40038
AAXX 11064 94319 46/// /1704 10406 20117 39709 40030
AAXX 11064 94324 NIL
AAXX 11064 94326 46/// /2505 10339 20125 39444 40042
AAXX 11064 94327 46/// /1606 10334 20132 39678 40041
AAXX 11064 94332 46/// /3009 10280 20203 39663 40038
AAXX 11064 94333 NIL
AAXX 11064 94341 46/// /3411 10303 20211 39808 40036
AAXX 11064 94346 46/// /2713 10283 20191 39817 40031
AAXX 11064 94363 46/// /1611 10291 20226 39791 40002
AAXX 11064 94366 NIL
AAXX 11064 94367 46/// /3519 10303 20241 39967 40008
AAXX 11064 94374 46/// /2105 10246 20213 39989 40005
AAXX 11064 94388 46/// /3515 10268 20252 30018 40023
AAXX 11064 94393 46/// /3614 10282 30037 40049 57022
AAXX 11064 94394 46/// /3617 10273 30043 40051 56017
AAXX 11064 94403 46/// /3117 10283 20169 30019 40060
AAXX 11064 94429 46/// /0305 10352 20128 39599 40051
AAXX 11064 94430 46/// /3409 10364 20098 39484 40051
AAXX 11064 94449 46/// /0810 10243 20147 39600 40119
AAXX 11064 94451 NIL
AAXX 11064 94461 46/// /2211 10344 20076 39402 40053
AAXX 11064 94462 46/// /1606 10331 20121 39514 40054
AAXX 11064 94477 NIL
AAXX 11064 94488 NIL
AAXX 11064 94102 46/// /0106 10318 20247 30065 40074
AAXX 11064 94103 NIL
AAXX 11064 94120 46/// /2912 10324 20251 30024 40064
AAXX 11064 94122 NIL
AAXX 11064 94131 46/// /2710 10344 20224 39901 40051
AAXX 11064 94132 NIL
AAXX 11064 94147 NIL
AAXX 11064 94150 46/// /3505 10295 20263 39984 40043
AAXX 11064 94151 46/// /3009 10348 20232 30015 4////
AAXX 11064 94170 46/// /2810 10315 20242 30027 40049
AAXX 11064 94200 NIL
AAXX 11064 94203 46/// /2810 10320 20245 30055 40065
AAXX 11064 94206 46/// /2308 10403 2//// 39914 40041
AAXX 11064 94207 NIL
AAXX 11064 94211 NIL
AAXX 11064 94212 46/// /2105 10389 20151 39576 40037
AAXX 11064 94216 46/// /3507 10338 20195 30007 40057
AAXX 11064 94236 NIL
AAXX 11064 94238 46/// /2312 10386 20169 39594 40005
AAXX 11064 94248 NIL
AAXX 11064 94255 46/// /0106 10272 20208 39781 40036
AAXX 11064 94268 46/// /2811 10316 20256 30045 40057
AAXX 11064 94287 46/// /3608 10314 20253 30025 40034
AAXX 11064 94290 NIL
AAXX 11064 94294 46/// /3515 10310 20233 30022 40032
AAXX 11064 94296 35/// /0305 10302 30039 40049 57022
AAXX 11064 94298 46/// /3611 10282 30042 40048 58019
AAXX 11064 95641 NIL
AAXX 11064 94893 46/// /2633 10144 20088 39928 40042
AAXX 11064 94907 46/// /2415 10195 20076 30038 40048
AAXX 11064 94910 46/// /3006 10200 20167 39766 40009
AAXX 11064 94926 46/// /1005 10206 20173 39366 40015
AAXX 11064 94935 46/// /2109 10179 20110 30026 40052
AAXX 11064 94954 46/// /2227 10141 20050 39959 40068
AAXX 11064 94956 46/// /2314 10145 20045 30041 40067
AAXX 11064 94975 46/// /2017 10134 20101 39996 40028
AAXX 11064 94983 46/// /1514 10169 20128 39991 40016
AAXX 11064 94995 NIL
AAXX 11064 94996 46/// /1306 10220 20193 39988 40116
AAXX 11064 94997 NIL
AAXX 11064 94998 46/// /0225 10074 20065 30000 40011
AAXX 11064 95111 46/// /1708 10277 20237 30023 40059
AAXX 11064 95205 46/// /3210 10378 20198 30047 40054
AAXX 11064 95322 NIL
AAXX 11064 95448 46/// /0912 10318 20105 39527 40075
AAXX 11064 95458 46/// /2211 10281 20068 39828 40082
AAXX 11064 95480 46/// /1918 10291 20093 30010 40068
AAXX 11064 95481 46/// /2315 10318 20135 39996 40040
AAXX 11064 95482 46/// /2414 10348 20130 39981 40035
AAXX 11064 95485 46/// /2317 10304 20119 39826 40023
AAXX 11064 95492 46/// /3506 10269 20190 39861 40010
AAXX 11064 95527 46/// /3414 10261 20183 39755 40000
AAXX 11064 95634 46/// /0108 10291 20112 39706 40098
AAXX 11064 95637 46/// /2806 10290 20068 39783 40110
AAXX 11064 95646 46/// /1010 10256 20072 39940 40124
AAXX 11064 95666 NIL
AAXX 11064 95719 46/// /1102 10189 20161 39701 40022
AAXX 11064 95762 46/// /2106 10180 20165 39581 40024
AAXX 11064 95826 NIL
AAXX 11064 95839 46/// /2215 10235 20059 39906 40062
AAXX 11064 95864 NIL
AAXX 11064 95909 NIL
AAXX 11064 95954 NIL
AAXX 11064 95966 46/// /1708 10208 20048 39808 40005
AAXX 11064 96995 46/// /2707 10279 20217 39806 40100
AAXX 11064 96996 41468 32708 10298 20244 30083 40087 57006 72511 81209
AAXX 11060 67489 12475 70000 10198 20187 38762 48516 60024 8493/ 333 20164 55033 59005 70019 81915 83618 87359 555 10258 7//96
AAXX 11060 67693 31558 60806 10245 20184 39265 48514 70522 83836 333 58002 83820 83358 85070 555 10319 7//22
BBXX VRZN7 11064 99066 51705 416// 60514 10270 2023/ 40090 51010 7//// 8633/ 22253 04290 21006 301// 4//// 5//// 85240
BBXX VROC 11064 99104 31543 41598 73210 10310 20239 40079 58001 70311 84278 22283 20100 33513 40303 50202 80260
BBXX 9KWP 11063 99098 30953 41698 62615 10280 20237 40089 58005 70222 83233 22274 00280 20502 327// 40503 80250
BBXX VRAE2 11063 99148 31580 41698 60508 10280 20244 40068 56014 75081 8546/ 22234 04305 20401 316// 40602 80255
BBXX S6CW 11063 99055 31538 41798 53406 10295 20230 40065 55010 70322 84161 22284 00295 21801 80250
BBXX C6HS4 11063 99175 30950 41397 81425 10260 20232 40089 5/070 76066 87777 22233 20705 80240
BBXX 3ECI3 11064 99420 31742 41598 70519 10150 20123 40176 56020 70211 83578 22253 00130 20402 309// 40904 80135
BBXX VNSZ 11064 99412 31464 46/// /2418 10181 20021 39994 40020 52005 22200 04197 85101
BBXX VNSZ 11044 99412 31464 46/// /2321 10188 20026 39990 40016 54000 22200 04182 85106
BBXX VNSZ 11054 99412 31464 46/// /2322 10184 20024 39990 40016 52003 22200 04189 85103
BBXX 9HA2479 11054 99339 31512 46/// /0803 10204 20177 30001 40030 54000 22200 85186
BBXX C6FS9 11054 99224 31521 46/// /3619 10267 20252 30006 40041 57036 22234 04268 85256
BBXX VROB 11054 99068 31470 46/// /1406 10291 20228 30031 40055 57027 22200 04304 85245
BBXX 9HA2479 11044 99339 31512 46/// /0408 10198 20178 39999 40028 57007 22200 85185
BBXX C6FS9 11044 99223 31519 46/// /3616 10266 20253 30018 40053 57023 22234 04268 85256
BBXX FHZI 11054 99429 31473 46/// /1820 10160 20091 30008 40019 52006 22200 04160 85121
BBXX VROB 11044 99068 31470 46/// /1306 10302 20226 30034 40058 57034 22200 04303 85247
BBXX FHZI 11044 99429 31473 46/// /1419 10165 20114 30001 40012 54000 22200 04159 85135
BBXX OXVD2 11053 99376 31398 41598 51714 10150 20132 40106 54000 70300 8356/ 22273 04180 29901 319// 40405 5//// 80140
BBXX VRZN7 11064 99066 51705 416// 60514 10270 2023/ 40090 51010 7//// 8633/ 22253 04290 21006 301// 4//// 5//// 85240
BBXX VROC 11064 99104 31543 41598 73210 10310 20239 40079 58001 70311 84278 22283 20100 33513 40303 50202 80260
BBXX 9KWP 11063 99098 30953 41698 62615 10280 20237 40089 58005 70222 83233 22274 00280 20502 327// 40503 80250
BBXX VRAE2 11063 99148 31580 41698 60508 10280 20244 40068 56014 75081 8546/ 22234 04305 20401 316// 40602 80255
BBXX S6CW 11063 99055 31538 41798 53406 10295 20230 40065 55010 70322 84161 22284 00295 21801 80250
BBXX C6HS4 11063 99175 30950 41397 81425 10260 20232 40089 5/070 76066 87777 22233 20705 80240
BBXX 3ECI3 11064 99420 31742 41598 70519 10150 20123 40176 56020 70211 83578 22253 00130 20402 309// 40904 80135
BBXX VNSZ 11064 99412 31464 46/// /2418 10181 20021 39994 40020 52005 22200 04197 85101
BBXX VNSZ 11044 99412 31464 46/// /2321 10188 20026 39990 40016 54000 22200 04182 85106
BBXX VNSZ 11054 99412 31464 46/// /2322 10184 20024 39990 40016 52003 22200 04189 85103
BBXX 9HA2479 11054 99339 31512 46/// /0803 10204 20177 30001 40030 54000 22200 85186
BBXX C6FS9 11054 99224 31521 46/// /3619 10267 20252 30006 40041 57036 22234 04268 85256
BBXX VROB 11054 99068 31470 46/// /1406 10291 20228 30031 40055 57027 22200 04304 85245
BBXX 9HA2479 11044 99339 31512 46/// /0408 10198 20178 39999 40028 57007 22200 85185
BBXX C6FS9 11044 99223 31519 46/// /3616 10266 20253 30018 40053 57023 22234 04268 85256
BBXX FHZI 11054 99429 31473 46/// /1820 10160 20091 30008 40019 52006 22200 04160 85121
BBXX VROB 11044 99068 31470 46/// /1306 10302 20226 30034 40058 57034 22200 04303 85247
BBXX FHZI 11044 99429 31473 46/// /1419 10165 20114 30001 40012 54000 22200 04159 85135
BBXX OXVD2 11053 99376 31398 41598 51714 10150 20132 40106 54000 70300 8356/ 22273 04180 29901 319// 40405 5//// 80140
AAXX 11064 41241 NIL
AAXX 11064 41242 NIL
AAXX 11064 41244 NIL
AAXX 11064 41246 NIL
AAXX 11064 41251 NIL
AAXX 11064 41252 NIL
AAXX 11064 41253 NIL
AAXX 11064 41254 NIL
AAXX 11064 41255 36/// /1501 10217 20054 39656 40209 333 0E018 20105 59013
AAXX 11064 41256 32960 03102 10241 20131 30180 40190 333 20172 3/017 59022
AAXX 11064 41257 NIL
AAXX 11064 41258 NIL
AAXX 11064 41259 NIL
AAXX 11064 41262 NIL
AAXX 11064 41263 NIL
AAXX 11064 41264 NIL
AAXX 11064 41265 NIL
AAXX 11064 41267 NIL
AAXX 11064 41268 NIL
AAXX 11064 41270 NIL
AAXX 11064 41275 NIL
AAXX 11064 41287 NIL
AAXX 11064 41288 NIL
AAXX 11064 41290 NIL
AAXX 11064 41295 NIL
AAXX 11064 41304 NIL
AAXX 11064 41312 NIL
AAXX 11064 41314 NIL
AAXX 11064 41315 NIL
AAXX 11064 41316 NIL
AAXX 11064 41024 42960 20108 10250 20220 30130 40149 80002 333 20200 58008 82070
AAXX 11064 41030 42960 00000 10228 20180 39866 40139 333 20210 58006
AAXX 11064 41036 42960 11405 10169 20050 38594 48544 80002 333 20105 58011 81070 555 04410 50153
AAXX 11064 41055 42960 00000 10148 21040 38400 48549 333 20090 58013 555 04410 50187
AAXX 11064 41061 42960 01208 10150 20060 39496 40217 333 20060 58001
AAXX 11064 41084 42960 00000 10156 20000 38907 48556 333 20060 58011 555 04410 50188
AAXX 11064 41112 42960 00000 10145 21040 37974 48548 333 20068 58003 555 04410 50197
AAXX 11064 41114 42960 00000 10150 20090 38006 48541 333 20062 58003 555 04410 50184
AAXX 11064 41128 42960 00000 10158 21030 38864 48563 333 20068 58004 555 04410 50216
AAXX 11064 41136 42960 00000 10148 20030 39382 40210 333 20072 58002
AAXX 11064 41140 42560 21210 10274 20220 30146 40152 82100 333 20233 58004 82830
AAXX 11064 91375 NIL
AAXX 11064 91519 NIL
AAXX 11064 91531 NIL
AAXX 11064 91532 45/// /0607 10284 20238 30056 40064 57001
AAXX 11064 91559 NIL
AAXX 11064 91611 NIL
AAXX 11064 91642 NIL
AAXX 11064 91679 NIL
AAXX 11064 91689 NIL
AAXX 11064 91756 NIL
AAXX 11064 91844 NIL
AAXX 11064 92036 NIL
AAXX 11064 93713 NIL
AAXX 11064 40356 NIL
AAXX 11064 40357 41950 02904 10045 21020 39634 40296 70500 333 20006 58061
AAXX 11064 40360 42960 00000 10030 21030 39679 40281 333 21010 58051
AAXX 11064 40361 41956 00804 10050 21070 39495 40292 70500 333 20025 58048
AAXX 11064 40362 41957 03105 10075 21030 39745 40276 70633 333 20025 58057
AAXX 11064 40373 41950 03318 10103 21010 39830 40255 70700 333 20064 58058
AAXX 11064 40375 42960 01203 10074 21010 39363 40262 333 20046 58028
AAXX 11064 40377 41950 00313 10107 20030 39779 40270 70700 333 20075 58053
AAXX 11064 40394 42960 00904 10084 21010 39117 48579 333 20042 58054 555 04410 5 0270
AAXX 11064 40400 42960 00304 10224 20090 30157 40185 333 20172 58018
AAXX 11064 40401 NIL
AAXX 11064 40405 42960 00315 10110 20030 39505 40258 333 20090 58053
AAXX 11064 40416 41956 73012 10140 20060 30188 40208 70500 87070 333 20085 58001 87358
AAXX 11064 40417 41957 72909 10128 20050 30213 40228 70500 85051 333 20080 58005 85359
AAXX 11064 40420 41958 33310 10162 20050 30017 40229 70640 80001 333 20089 58009 83070
AAXX 11064 40430 42960 20212 10164 20000 39492 40214 82030 333 20140 58047 82360
AAXX 11064 40435 NIL
AAXX 11064 40437 42960 03508 10139 20010 39528 40245 333 20068 58022
AAXX 11064 40439 42960 10000 10210 20140 30142 40161 81040 333 20172 58015 81359
AAXX 11061 38141 31593 80000 11087 21116 30102 40270 52008 74844 886// 333 21126
AAXX 11061 38149 41/94 90000 11056 21063 30178 40259 52003 74544 89/// 333 21082
AAXX 11061 38178 42998 50000 11093 21199 39972 40277 53002 80001 333 21128
AAXX 11061 38262 32998 80000 11080 21131 30168 40256 57007 885// 333 21100
AAXX 11061 38264 41296 83501 11060 21064 30154 40253 52003 71044 886// 333 21075 88704
AAXX 11061 38396 41296 83002 10051 21061 30120 40251 53007 71042 886// 333 21061 88703
AAXX 11061 38403 41495 70000 11055 21089 30114 40241 57018 71022 87600 333 21079
AAXX 11061 38413 42998 61305 11031 21055 39949 40252 53004 72844 85030 333 21088
AAXX 11061 38457 32999 22701 10072 21019 39643 40230 57010 81041 333 21027
AAXX 11061 38462 42999 50000 10016 21054 38804 48532 57007 82051 333 21036
AAXX 11061 38565 32998 00000 10077 21030 39647 40231 58006 333 21036
AAXX 11061 38579 31999 03102 10018 21007 39812 40240 58007 70240 333 21047
AAXX 11061 38583 31/92 93601 11012 21012 39923 40256 57009 74344 333 21036
AAXX 11061 38611 41794 41601 10028 21008 39705 40288 57003 71000 82304 333 21021
AAXX 11061 38618 32997 00000 10054 21010 39564 40259 57007 333 21035
AAXX 11061 38683 41996 03602 10012 20004 39947 40231 57001 71011 333 21048
AAXX 11061 38696 32999 00902 10091 21005 39368 40217 57014 333 21014
AAXX 11061 38812 42997 01002 10064 20011 39755 40211 57005 333 20002
AAXX 11061 38927 32960 02901 10086 20006 39854 40231 58003 333 21005
AAXX 11064 94310 46/// /2819 10307 20232 30040 40051 57018
AAXX 11064 95283 46/// /3606 10305 20250 30039 40046
AAXX 11064 95288 46/// /3508 10304 30036 40051 58018
AAXX 11064 95675 46/// /2216
AAXX 11064 95872 46/// /1717
AAXX 11064 95961 35/// /2510 10140 30018 40059 52005
BBXX UCKZ 11061 99361 30187 42598 31611 10180 20116 40127 53019 83200 22243 00202 20504 320// 40908
BBXX C6NR5 11044 99329 11369 41697 23018 10130 20039 40215 54000 7//00 81101 22253 20301 3//// 4//// 5//// 80086
AAXX 11064 40550 37/10 /0110 10106 20006 40261 51022 71011 333 55300 00247 10000 20777 30255 41047 51317 61032 55407 40522 90069 90401 91019 91119 91209 91307
AAXX 11064 40551 36/// /2921 10107 21003 333 90401 91027 91127 91221 91315
AAXX 11064 40552 37/12 /3323 10105 21003 40257 51016 71011 333 55310 90069 90400 91029 91129 91223 91317
AAXX 11064 40553 37/12 /3418 10111 20006 40256 51019 71011 333 55300 90069 90400 91023 91123 91219 91313
AAXX 11064 40568 36/// /3220 10118 20015 333 90400 91025 91125 91219 91313
AAXX 11064 40569 NIL
AAXX 11064 40570 37/11 /3513 10098 21014 40270 51018 71011 333 55300 90069 90400 91017 91121 91215 91313
AAXX 11064 40571 NIL
AAXX 11064 40572 NIL
AAXX 11064 40573 36/// /3316 10097 21007 333 90400 91019 91121 91217 91313
AAXX 11064 40580 46/// /3307 10121 20015 333 553// 00277 10000 20740 30166 41052 51342 60906 55407 40573 90401 91019 91119 91207 91305
AAXX 11064 40581 36/// /2704 10125 20028 333 90401 91013 91127 91205 91303
AAXX 11064 40582 31915 03518 10118 20003 40257 51020 70700 333 55300 00349 10000 20877 30284 41099 51338 61161 55407 40593 90401 91025 91127 91217 91315
AAXX 11064 40583 NIL
AAXX 11064 40585 46/// /3116 10119 20032 222// 1//// 3//// 4//// 70/// 333 90400 91027 91129 91219 91317
AAXX 11064 40586 36/// /3006 10120 21005 333 90401 91013 91119 91207 91305
AAXX 11064 40587 46/// /3313 10121 21005 333 553// 00306 10000 20888 30300 41063 51340 61188 55407 40588 90401 91019 91125 91215 91313
AAXX 11064 40588 37/15 /3419 10116 20026 40250 51020 71011 333 55302 90069 90400 91025 91131 91223 91319
AAXX 11064 40589 NIL
AAXX 11064 40590 46/// /3423 10112 21008 333 90401 91027 91129 91223 91319
AAXX 11064 40591 NIL
AAXX 11064 40592 37/17 /3511 10119 20000 40255 51018 70411 333 55310 00388 10000 20908 30240 41061 51335 61148 55407 40668 90069 90400 91019 91121 91213 91311
AAXX 11064 40593 36/// /3621 10136 20047 333 90401 91027 91129 91223 91321
AAXX 11064 40594 36/// /3408 10136 20020 333 90400 91015 91117 91207 91305
AAXX 11064 40596 46/// /3326 10144 20058 333 90400 91034 91134 91227 91323
AAXX 11061 78458 21466 70000 10240 20226 40141 58003 70266 86820 333 10290 20215 32/// 56000 59022 69937 86616 83457
AAXX 11061 78460 31460 70000 10232 20226 40132 56007 70544 85930 333 10308 20203 30/// 56200 59016 81918 83820 83357
AAXX 11061 78479 32466 70706 10260 20215 40107 57006 83270 333 10295 20244 30/// 56100 59010 83818 85358
AAXX 11061 78485 32466 73602 10225 20210 40125 57007 84850 333 10310 20214 31/// 56100 59012 84816 86357
AAXX 11061 78486 32466 73402 10240 20218 40108 57010 83520 333 10306 20230 32/// 56000 59016 83616 86457
AAXX 11061 78458 21466 70000 10240 20226 40141 58003 70266 86820 333 10290 20215 32/// 56000 59022 69937 86616 83457
AAXX 11061 78460 31460 70000 10232 20226 40132 56007 70544 85930 333 10308 20203 30/// 56200 59016 81918 83820 83357
AAXX 11061 78479 32466 70706 10260 20215 40107 57006 83270 333 10295 20244 30/// 56100 59010 83818 85358
AAXX 11061 78485 32466 73602 10225 20210 40125 57007 84850 333 10310 20214 31/// 56100 59012 84816 86357
AAXX 11061 78486 32466 73402 10240 20218 40108 57010 83520 333 10306 20230 32/// 56000 59016 83616 86457
AAXX 11061 37395 32999 20905 10040 20009 30152 40296 57006 82030 333 20026
AAXX 11061 37409 31/91 92704 11021 21021 38839 48550 57002 74544 333 21036 95090
AAXX 11061 37432 11997 00000 11023 21061 39026 48548 57006 60010 333 21026
AAXX 11061 37514 32999 00000 11043 21085 39113 40323 54000 333 21065
AAXX 11061 37545 32999 03204 10032 20011 39767 40293 52006 555 20007 7000/
AAXX 11061 37621 32999 00000 11004 21057 39640 40305 53002 333 21025
AAXX 11061 37484 NIL
AAXX 11061 02947 47/65 82503 10005 20002 49885 52027 70082 88/// 90551 333 10012 20003 3////
AAXX 11061 02947 47/65 82503 10005 20002 49885 52027 70082 88/// 90551 333 10012 20003 3////
AAXX 11064 08231 11361 81502 10027 20017 39088 48484 56009 60002 75152 887// 333 20026 31002 50094 55076 70000
AAXX 11064 06610 41460 80000 10049 20035 39596 40187 5//// 71022 888// 333 20045 31003 55013 70000 82817 86634 90768 93100
AAXX 11061 12120 11470 72610 10045 20033 30069 40076 53020 60032 72582 873// 333 10046 20019 31001 55020 70034 91118 93002
AAXX 11061 12250 12477 52404 10017 21004 30041 40131 52015 60002 85500 333 10023 20010 34100 55040 91110 93000
AAXX 11061 12295 12467 82504 10010 21009 39932 40119 52012 69902 885// 333 10011 21003 3/101 42997 55016 79999 91109 93000
AAXX 11061 12330 12570 72406 10017 21010 30047 40158 53016 60002 875// 333 10019 20010 31000 55022 93000
AAXX 11061 12375 12470 62403 10008 21014 30017 40151 53014 60002 86800 333 10022 20008 31100 55005 79999 82816 91111 93000
AAXX 11061 12424 12999 02304 11009 21031 30031 40189 53013 60002 333 10014 21014 34104 55020 70001 93000
AAXX 11061 48845 32498 83402 10156 20056 30217 40224 57033 888// 333 59012 82894 88697
AAXX 11064 06670 41256 83404 10044 20035 39671 40189 5//// 76065 8472/ 333 20044 32004 55000 70041 82704 84706 87524 90768 93100
AAXX 11064 06700 41680 50501 10012 20004 39685 40191 5//// 71141 85540 333 20003 31102 55039 70000 85645 90768 93100
AAXX 11064 06680 41901 02813 11051 21057 37478 47011 5//// 74474 333 21050 47094 55000 70075 90768 93102
AAXX 11064 06990 41458 80000 10039 20031 39639 40195 5//// 70562 886// 333 20039 31004 55001 70001 88719
AAXX 11064 06760 42984 03301 10039 21006 39740 40197 5//// 333 20039 30000 55061 70000 90768 93100
AAXX 11064 06720 42980 01401 11020 21027 39616 40214 5//// 333 21032 30106 55044 70000 90768 93100
AAXX 11064 17090 3//// ///// 1//// 2//// 3//// 4//// 5//// 6///2 333 2//// 3//// 4////
AAXX 11064 08231 11361 81502 10027 20017 39088 48484 56009 60002 75152 886// 333 20026 31002 50094 55076 70000
AAXX 11061 48803 32560 70000 10156 20085 30117 40233 57027 878// 333 59030 82895 86696
AAXX 11064 08348 11830 83401 10058 20058 39455 40204 56011 60082 71062 8801/ 333 20050 50014 55002 70080
AAXX 11061 02464 45280 /2602 10004 21001 39964 49982 51021 8//// 333 10019 21014 88/03
AAXX 11061 02500 05/80 /1801 10010 21003 39970 40013 52015 60002 333 10044 20003 60005 70000 90710 91103
AAXX 11061 02513 NIL
AAXX 11061 02615 05669 /2611 10052 20017 30081 40085 53017 60002 333 10057 20045 60005 70000 87/36 90710 91114
AAXX 11061 02635 07/70 /2706 10049 20016 69972 70086 333 10055 20039 60005 70007 90710 91112
AAXX 11061 12105 12580 82406 10030 20001 30066 40109 52020 60002 885// 333 10031 20013 31001 55017 91113 93000
AAXX 11061 12195 11307 82405 11001 21004 39854 40086 52004 69972 78622 889// 333 10006 21006 3/101 43002 55038 70007 93001
AAXX 11061 12235 12476 62407 10015 21006 39901 40115 52017 60002 865// 333 10018 20003 3/100 43997 55047 70001 93000
AAXX 11061 12270 12566 62304 10001 21010 39940 40126 52014 60002 86500 333 10014 21001 34101 55009 93000
AAXX 11061 12280 11456 82305 10011 20001 39938 40097 53009 69902 78511 889// 333 10019 20008 3/101 47997 55036 79999 91112 93097
AAXX 11061 12300 12565 72604 10017 21007 30058 40150 53012 69902 875// 333 10025 20010 31000 55012 79999 91110 93000
AAXX 11061 12400 12681 12404 11001 21026 39929 40171 52011 60002 81501 333 10015 21001 34101 55005 79999 91110 93000
AAXX 11061 12435 12570 22304 11009 21034 39996 40173 52017 60002 81530 333 10010 21009 34104 55002 79999 93000
AAXX 11061 12495 12462 52303 11012 21023 39874 40176 53015 60002 84530 333 10016 21012 34101 55048 79999 93000
AAXX 11061 12530 12965 01802 11021 21040 39990 40197 53013 60002 333 10018 21021 34105 55053 93000
AAXX 11061 12570 11557 52102 11030 21034 39862 40193 52014 60002 71011 85500 333 10010 21035 34105 55067 79999 93000
AAXX 11061 12580 12960 02402 11020 21024 39930 40199 53011 69902 333 10020 21022 34105 55031 70007 93000
AAXX 11061 12160 11580 62103 10023 21003 30040 40093 52014 69902 72122 86500 333 10024 20009 31000 55040 79999 93097
AAXX 11061 12205 12560 12206 10013 20006 30125 40133 52013 60002 81500 333 10028 20011 31000 55027 79999 93000
AAXX 11061 12465 12568 52505 11006 21023 39929 40170 53013 60002 85500 333 10009 21015 34102 55007 20148 79999 93000
AAXX 11061 12566 12965 02103 11020 21036 39900 40206 53012 69912 333 10017 21021 34104 70005 93000
AAXX 11061 48840 32698 83403 10165 20017 30216 40222 57039 888// 333 59011 88696
BBXX MCCN6 11064 99187 31024 41/98 /2309 10256 20239 40096 58002 70200 8/27/ 22233 00248 20401 317// 41007 5//// 80244
BBXX A8MV6 11063 99046 11064 41597 60126 10280 20237 40110 54000 70322 82762 22253 04280 20706 30499 41007 5//// 80250
AAXX 11061 50468 NIL
AAXX 11061 50953 NIL
AAXX 11061 51076 NIL
AAXX 11061 51243 NIL
AAXX 11061 51288 32980 40701 11063 21177 38377 54000 80002 333 00051 21129
AAXX 11061 51463 NIL
AAXX 11061 51573 NIL
AAXX 11061 51709 NIL
AAXX 11061 52533 NIL
AAXX 11061 52652 NIL
AAXX 11061 52866 32970 00000 11015 21181 37722 57030 333 05404 21163
AAXX 11061 52983 NIL
AAXX 11061 53463 32970 02001 11039 21138 39047 40360 57023 333 05302 21119
AAXX 11061 53513 32970 02205 11003 21218 39064 40339 57020 333 05403 21115
AAXX 11061 53588 NIL
AAXX 11061 53772 NIL
AAXX 11061 53915 NIL
AAXX 11061 54218 32980 02905 10027 21127 39436 40258 57010 333 21107
AAXX 11061 54337 NIL
AAXX 11061 54342 NIL
AAXX 11061 54401 NIL
AAXX 11061 54471 32965 02503 10041 21059 30229 40235 57012 333 21057
AAXX 11061 54497 32970 02001 10031 21068 30229 40246 57013 333 21088
AAXX 11061 54511 NIL
AAXX 11061 54823 32980 12503 10087 21113 30064 40278 57025 80001 333 21014
AAXX 11061 56080 NIL
AAXX 11061 56096 NIL
AAXX 11061 57083 32968 72703 10093 21097 30137 40276 57030 80002 333 21008
AAXX 11061 56187 32565 42001 10101 21029 39616 40278 57032 84100 333 05702 20036
AAXX 11061 56778 NIL
AAXX 11061 57265 NIL
AAXX 11061 57461 NIL
AAXX 11061 57494 NIL
AAXX 11061 57516 31756 83401 10093 20049 39965 40284 57034 71000 885// 333 05701 20068
AAXX 11061 57687 32980 00402 10097 21054 30207 40294 57044 333 20005
AAXX 11061 57816 32665 80402 10043 21017 38839 40272 57028 885// 333 05601 20004
AAXX 11061 58040 32962 02502 10065 21086 30274 40288 57027 333 21032
AAXX 11061 58102 NIL
AAXX 11061 58150 32962 02702 10062 21074 30293 40297 57027 333 21048
AAXX 11061 58221 NIL
AAXX 11061 58238 NIL
AAXX 11061 58251 NIL
AAXX 11061 58362 NIL
AAXX 11061 58457 NIL
AAXX 11061 58606 NIL
AAXX 11061 58752 NIL
AAXX 11061 58847 NIL
AAXX 11061 59117 32980 02501 10155 21044 30124 40232 57045 333 20035
AAXX 11061 59134 NIL
AAXX 11061 59287 NIL
AAXX 11061 59316 NIL
AAXX 11061 59431 NIL
AAXX 11061 59644 32965 03605 10155 21020 30210 40227 57037 333 20079
AAXX 11061 59758 32578 40706 10160 20067 30138 40216 57036 81102 333 20108
AAXX 11061 01218 16/// /1201 10002 21002 39978 40000 50003 69942 333 20001 70008 91102
AAXX 11061 01281 16/// /0401 11044 21055 39789 49967 52013 60032 333 21044 70034 91103
AAXX 11061 01447 16/// /0000 11173 21188 39348 40066 53011 69922 333 21174 70004 91102
AAXX 11064 64810 32460 50000 10220 20212 30064 40090 83530 333 20225 58005 83615 85365
AAXX 11061 11603 01575 11502 11040 21062 39702 40206 52006 60002 703// 81500 333 21048 3/108 47997 60005 79999 81620
AAXX 11064 60710 12958 80505 10092 20066 30119 40200 53001 60004 84082 333 20084 84360 85070
AAXX 11064 60714 12556 73404 10089 2//// 30211 40217 53002 60004 84082 333 20072 84360 85070
AAXX 11064 60720 13558 52802 10102 20097 30171 40205 58007 60004 85800 333 20097 83823 83630
AAXX 11064 60728 NIL
AAXX 11064 60729 NIL
AAXX 11064 60731 05960 /1906 10080 20063 30203 40210 53006 60004 333 10138 20072 3//// 59009 5///4 60007 70000 91007 91109
AAXX 11064 60732 13558 70000 10057 20030 39683 40223 51001 60004 878// 333 20053 83820 85626
AAXX 11064 60734 13962 61806 10076 20040 39690 40222 53001 60004 83082 333 20058 83360 84070
AAXX 11064 60738 12560 50000 10105 21097 38967 40207 58006 60004 84202 333 20063 84823
AAXX 11064 60739 NIL
AAXX 11064 60740 12960 72204 10098 20044 30210 40212 58005 60004 81082 333 20094 81360 87070
AAXX 11064 60742 NIL
AAXX 11064 60764 NIL
AAXX 11064 60770 13965 60000 10114 20069 30090 40231 53004 60004 83082 333 20103 83360 84070
AAXX 11064 60772 NIL
AAXX 11064 60775 13565 52110 10142 20028 39876 40232 54000 60004 82582 333 20113 55074 82630
AAXX 11064 60780 13960 51608 10093 20033 39939 40252 58002 60004 84082 333 20092 84360
AAXX 11064 63705 31559 63504 10198 20180 38857 48511 70522 82905 333 20185 59004 82819 81921 86273 555 10185
AAXX 11064 63705 31559 63504 10198 20180 38857 48511 70522 82905 333 20185 59004 82819 81921 86273 555 10185
AAXX 11060 67584 12580 61002 10210 20196 60304 83130 333 20170 70296 83820 86359 555 10239 7//96
BBXX 44139 11061 99442 70571 46/// /2708 10090 40163 52007 22200 00087 10805 70025 333 91210
AAXX 11061 26247 01460 82105 10017 20005 39908 49987 53009 69902 78082 883// 333 10018 20010 43003 60007 88913 91109 555 1/100 20010 3/100 50014
AAXX 11061 26058 01384 82204 10021 20009 39942 49950 53022 69912 70222 886// 333 10022 20014 43003 60007 88709 91111 555 1/100 20014 3/100 50018 52100
AAXX 11061 26045 27484 72204 10024 20015 39940 49943 53023 70000 87/// 333 10032 20018 60007 87/11 91108 555 1/000 20018 3/000 50023
AAXX 11061 26231 01359 82206 10039 20030 39948 49963 53011 60052 78182 889// 333 10045 20030 60037 88910 91008 91110 555 12003 20030 32002 50036
BBXX 44139 11061 99442 70571 46/// /2708 10090 40163 52007 22200 00087 10805 70025 333 91210
BBXX 46035 11061 99571 71778 46/// /2217 1//// 49686 53012 90550 22200 11213 20907 300// 41210 70064 333 91221 555 11172 22184 30459 42121 60549 217170 215159 204145 207156 215143 217168 82219 90544
BBXX 4XFV 11063 99521 71788 43297 52342 10030 00/// 21020 49850 52020 70171 8//// 22253 0//// 2//// ///// 3//// 4//// 5//// 6//// 80010
BBXX LAJS6 11064 99500 71655 41597 82323 10040 20020 49990 56010 76062 8742/ 22223 00060 20908 327// 41208 80030
BBXX SHIP 11064 99429 71726 41498 62725 10080 20038 40098 51060 70122 864// 22223 00130 80060
BBXX SHIP 11064 99379 71732 41/96 /2212 10190 20175 40158 52031 70222 8//// 90555 22224 00160 1//// 2//// 3//// 4//// 5//// 6//// 80180
BBXX VRHO2 11064 99539 71624 41297 21830 10070 20049 40000 5/000 7//// 82900 222// 00060 20509 31918 40609 50509 6//// 80060 ICE /////
AAXX 11064 71633 12674 72311 11013 21071 30005 40284 51002 60001 87500 333 11012 21051 43005 70009 555 10009 20009 32420 40180
AAXX 11061 01265 16/// /0000 11093 21102 39399 49999 53010 60002 333 21103 70000 91102
AAXX 11061 01273 16/// /2201 11006 21019 39772 49969 53012 60022 333 21024 70031 91108
AAXX 11061 01375 16/// /2907 11073 21084 6//// 333 21075 91114
AAXX 11061 01469 16/// /3302 11081 21097 39845 40023 53014 60002 333 21087 70000 91103
AAXX 11061 01257 11574 52703 10002 21009 39812 49974 53014 60022 70221 85650 333 21010 70044 91107
AAXX 11061 01277 16/// /0000 11040 21046 60022 333 21047 70022 91101
AAXX 11061 01370 16/// /3002 11080 21110 38895 40097 52012 60002 333 21084 4/016 70000 91108
AAXX 11061 01473 11976 03302 11099 21111 39807 40025 52013 69982 70172 333 21104 43015 70008 91104
AAXX 11061 01380 11789 12801 11072 21095 60002 70200 81500 333 21080 49012 70000 91109
AAXX 11061 01015 46/// /0304 10003 21008 333 20000 91120
AAXX 11061 01228 46/// /0902 10030 21012 39973 49980 53014 333 20020 91114
AAXX 11061 01340 16/// /1201 11062 21078 39140 40029 52006 60002 333 21066 70015 91105
AAXX 11061 01425 16/// /0000 10011 20008 39950 40030 52004 60032 333 21006 70211 91103
AAXX 11061 01450 16/// /0102 11061 21087 38866 40028 53011 60002 333 21071 70093 91110
AAXX 11061 01092 46/// /1204 11002 21032 333 21018 91109
AAXX 11061 01329 11580 80403 10017 21004 39950 40011 54001 69942 70222 888// 333 20010 70004 91105
AAXX 11061 01337 16/// /0501 11023 21049 39957 40024 50002 60002 333 21023 70000 91104
AAXX 11061 01436 11475 62511 10064 20017 69922 70282 84372 333 20053 70067 91116
AAXX 11064 71633 12674 72311 11013 21071 30005 40284 51002 60001 87500 333 11012 21051 43005 70009 555 10009 20009 32420 40180
AAXX 11064 78705 01540 81906 10210 20178 30160 40178 58009 60061 76164 8542/ 333 10219 20210 32/// 56799 58004 60060 85820 88457
AAXX 11064 78708 11560 80000 10204 20204 30151 40182 58006 69931 71554 8452/ 333 10250 20209 31/// 56099 59006 84620 88458
AAXX 11064 78714 32560 60000 10193 20181 83230 333 10303 20191 30/// 56220 83828 85358
AAXX 11064 78717 31560 70000 10148 20142 38990 40190 54000 71444 87500 333 10180 20150 30/// 56800 58005 87622
AAXX 11064 78720 31560 63604 10173 20143 39023 40121 53007 70544 85530 333 10235 20164 30/// 56800 59002 85822
AAXX 11064 78724 32578 20402 10236 20194 30063 40120 51006 81530 333 10337 20234 30/// 56000 59005 81630
BBXX SKWI 11064 99496 70041 43/98 72425 10107 40120 56022 22540 00150 2//// 4////
BBXX SBLW 11063 99434 70175 43/98 73223 10135 40202 53010 22254 00147 2//// 4////
AAXX 11064 04211 45/84 /0807 11079 21123 39770 49931 52003 333 11074 21083
AAXX 11064 04220 05684 81005 11060 21110 39859 49911 52001 6///2 333 11041 21076 55300 20004 6///7 70003 83/39 85/44 88/58
AAXX 11064 04221 45784 71012 11067 21164 39879 49917 52007 333 11056 21078 83/// 87/58 91125
AAXX 11064 04231 12983 60609 11046 21117 39838 49911 57007 6///2 8607/ 333 11030 21088 86358
AAXX 11064 04234 47680 71003 11037 21095 39890 49900 52002 72488 333 11024 21049 83/43 87/57
AAXX 11064 04241 47219 82314 11035 21044 39879 49918 52006 77177 333 11018 21040 81/05 85/33 88/39 91127 91225
AAXX 11064 04250 07583 80107 11032 21052 39799 49903 57014 60032 72287 333 10074 21093 55300 20000 69907 70043 81/20 85/28 88/32
AAXX 11064 04254 47580 80505 11037 21065 39803 49917 57014 78087 333 11018 21044 88/20
AAXX 11064 04260 47320 71725 11036 21059 39874 49918 57001 77175 333 11017 21044 87/09 91144 91037
AAXX 11064 04270 47410 72316 11045 21059 39950 49989 52008 78587 333 11001 21046 81/11 85/18 87/24 91133
AAXX 11064 04272 07776 7//// 11049 21058 39919 49992 57001 60032 72587 333 11002 21053 69957 70028 85/57 87/58
AAXX 11064 04312 46/// ///// 11303 21344 30013 40056 52005
AAXX 11064 04320 NIL
AAXX 11064 04339 47/16 ///// 11076 21080 39926 40017 57007 77187 333 11071 21088 55300 20000
AAXX 11064 04360 06/// /3003 11053 21116 39853 49923 57010 6///2 333 11039 21064 55300 20000 6///7 70000
AAXX 11064 04361 465// 82404 11052 21093 39876 49928 57007 333 11041 21072 88/21
AAXX 11064 04390 07/50 02520 11034 21096 39870 49964 57019 60042 75476 333 11019 21049 60027 70147
AAXX 11064 91753 04586 /0908 10277 20241 30053 40085 53009 60002 700// 333 10309 20270 3/027 55101 60007 70000 90710 91114 555 60005
AAXX 11064 91754 36/// /0904 10282 20227 30046 40087 53009 555 10308 20258 60004 60005
AAXX 11064 71307 16/// /2407 11055 21112 30074 40334 51004 60001 333 11018 21079 70000 555 32617 40201
AAXX 11064 71309 17/// /2003 11218 21241 30207 40219 58002 69931 7//4/ 333 11125 21230 70003
AAXX 11064 71311 16/// /3510 11051 21091 30232 40257 53031 60001 333 10058 21051 70052 555 31726 40071
AAXX 11064 71317 16/// /3410 11031 21069 30189 40237 52026 60001 333 10068 21032 7//// 555 30020 40021
AAXX 11064 71321 16/// /3217 11165 21187 39963 40007 55004 60001 333 11147 21183 70000 555 33323 40051
AAXX 11064 71885 46/// ///// 11039 6///1 333 7////
AAXX 11064 71015 16/// ///// 11006 60001 333 10068 21019 70003
AAXX 11064 71017 16/// /2606 11274 21302 30097 40112 56009 60001 333 11227 21304 70000
AAXX 11064 71018 16/// ///12 11308 21341 39988 40079 56002 60001 333 11175 21313 70000
AAXX 11064 71019 46/// /0000 11151 21167 39942 40254 51009 6///1 333 11004 21151 7//// 555 33118 40191
AAXX 11064 71020 46/// /0000 11145 21158 39903 40164 56004 6///1 333 11078 21204 7////
AAXX 11064 71021 46/// /0000 11131 21146 39830 40190 56006 6///1 333 11103 21173 7//// 555 10010
AAXX 11064 71501 16/// /1109 11132 21146 30079 40081 58035 60001 333 11092 21154 70000
AAXX 11064 71514 16/// /2912 11019 21056 39377 40076 53011 60001 333 10046 21118 70000
AAXX 11064 71539 16/// /2709 11011 21054 39392 40085 53019 60001 333 10066 21090 70000 555 32327 40181
AAXX 11064 71110 17/// /2910 10047 20044 30046 40106 55000 60071 7//4/ 333 10061 20023 70129 555 31927 40031
AAXX 11064 71141 16/// /3306 11178 21193 30082 40109 53001 60001 333 11166 21184 70000 555 33317 40181
AAXX 11064 71147 16/// /1603 11103 21115 60001 333 11004 21129 70000
AAXX 11064 71402 46/// /3120 11025 21033 39992 40107 53002 6///1 333 10045 21025 7//// 555 33233 40042
AAXX 11064 71407 16/// /2312 11229 21256 30077 40099 55000 60001 333 11226 21276 70000 555 32417 40151
AAXX 11064 71429 16/// /3006 11102 21138 30200 40220 53021 60001 333 10025 21103 70021 555 32124 40131
AAXX 11064 71446 16/// /2814 11033 21068 39122 40101 53016 60001 333 10035 21038 70000 555 32322 40191
AAXX 11064 71739 41674 82005 11090 21121 39852 40228 57004 6//// 70272 85570 333 11089 21146 4//// 7//// 90932 555 1//// 2////
AAXX 11064 71807 17/// /2522 10060 20052 30086 40104 55011 60031 7//4/ 333 10073 20033 70033 555 32631 40062
AAXX 11064 71810 16/// /3404 11113 21161 30143 40211 51017 60001 333 10002 21113 70000 555 33019 40191
AAXX 11064 71831 11466 81405 11093 21093 39920 40210 58008 69901 77172 885// 333 11092 21168 47016 79999 90921 555 19999 29999
AAXX 11064 71858 17/// /1101 11068 21078 39807 40092 56011 60021 7//4/ 333 11068 21142 70016
AAXX 11064 71861 16/// /2706 11013 21053 39334 40056 53002 60001 333 10019 21122 70000
AAXX 11064 71550 16/// /3303 11098 21106 39689 40068 55010 60001 333 11021 21113 70000
AAXX 11064 71551 16/// /2904 11060 21074 39437 40093 51028 60001 333 10050 21064 70000
AAXX 11064 71553 16/// /0707 11094 21103 60001 333 11049 21158 70000
AAXX 11064 71585 17/// /3209 11109 21119 39683 40155 53047 69941 7//4/ 333 11065 21125 70107 555 10100 20107
AAXX 11064 89528 46/// /3527 4//// 5////
AAXX 11064 89628 46/// /3119 4//// 5////
AAXX 11064 71954 46/// /0403 11115 21128 39728 40114 53002 6///1 333 11114 21207 7////
AAXX 11064 71956 16/// /2312 11016 21068 30020 40258 58003 60001 333 11015 21066 70000 555 10010 32720 40221
AAXX 11064 71959 17/// ///// 10002 21037 60021 7//4/ 333 10088 21002 70093
AAXX 11064 71970 16/// /2608 11026 21059 39488 40076 53009 60001 333 11024 21121 70000
AAXX 11064 71977 46/// /0000 11174 21174 39408 40137 56016 6///1 333 11174 21241 7////
AAXX 11064 71978 46/// /2221 11131 21146 39764 40080 58039 6///1 333 11126 21171 7//// 555 32332 40062
AAXX 11064 71988 16/// /3319 11007 21076 30257 40277 51021 60001 333 10090 21007 70026 555 33431 40012
AAXX 11064 71989 16/// /2309 11227 21249 30071 40088 58014 60001 333 11226 21287 70000
AAXX 11064 71719 16/// /2911 11072 21128 30229 40235 53022 60001 333 10025 21073 70000 555 32923 40041
AAXX 11064 71270 16/// /2408 11026 21084 30068 40296 51004 60001 333 11018 21051 70000 555 32719 40211
AAXX 11064 71295 16/// /0801 11091 21120 39674 40130 56019 60001 333 11081 21174 70000
AAXX 11064 71296 16/// /1905 11056 21089 39985 40301 50002 60001 333 11033 70000 555 32617 40161
AAXX 11064 71299 16/// /1704 11090 21098 39922 40206 58011 60001 333 11090 21182 70000
AAXX 11064 71357 16/// /0707 11123 21146 39949 49956 56002 60001 333 11112 21142 70000 555 10010
AAXX 11064 71361 16/// /2603 11103 21113 39960 40172 53007 60001 333 11090 21174 70008
AAXX 11064 71362 16/// /3101 11106 21119 39892 40154 53012 60001 333 11106 21163 70000
AAXX 11064 71364 16/// /2001 11106 21116 30002 40136 56012 60001 333 11062 21117 70000 555 10020 33019 40211
AAXX 11064 71365 16/// /0000 11133 21143 39959 40178 55000 60001 333 11122 21212 70000
AAXX 11064 71381 47/// /3308 11143 21183 6///1 7//4/ 333 11052 21146 70000
AAXX 11064 71384 16/// /0302 11105 21127 30269 40277 53022 60001 333 10008 21109 70010
AAXX 11064 71386 16/// /2906 11119 21152 30033 40246 52008 60001 333 11004 21121 70000 555 33320 40101
AAXX 11064 71389 46/// /0000 11137 21152 6///1 333 10002 21137 7////
AAXX 11064 71915 12974 13411 11240 21276 39990 40073 52013 60001 80001 333 11116 21244 79999 555 19999 29999 30320 40130
AAXX 11064 71940 11459 83110 11014 21014 39354 40165 53020 60101 72272 885// 333 10033 21041 43994 70008 90952 93101 555 10010 20008 32625 40170
AAXX 11064 71450 16/// /2708 11045 21070 39379 40098 53030 60001 333 10046 21088 70000
AAXX 11064 71452 46/// /2707 11002 21056 39366 40075 53004 6///1 333 10068 21097 7////
AAXX 11064 71453 16/// /2908 11007 21049 39210 40120 53019 60001 333 10098 21092 70000 555 33539 40203
AAXX 11064 71459 16/// /2706 11046 21097 39311 40125 53027 60001 333 10046 21090 70000
AAXX 11064 71465 46/// /2707 11038 21098 30104 40328 53007 6///1 333 11011 21055 7//// 555 32422 40001
AAXX 11064 71470 16/// /2802 11182 21201 39488 40128 50003 60001 333 11178 21200 70000
AAXX 11064 71476 17/// /0205 30218 53018 69921 7//4/ 333 70054 555 31637 40083
AAXX 11064 71478 17/// /3216 10053 20016 30088 40225 53002 69941 7//4/ 333 10070 20045 70018 555 33134 40133
AAXX 11064 71480 16/// /0901 11139 21153 30029 40153 58002 60001 333 11108 21190 70006
AAXX 11064 71482 46/// /1904 10024 30190 40229 51006 6///1 333 10049 20015 7////
AAXX 11064 71484 16/// /3218 10055 20034 30200 40219 53009 60001 333 10072 20051 70000 555 32029 40072
AAXX 11064 71492 46/// ///01 11188 21202 39396 40101 53006 6///1 333 11127 21193 7//// 555 10020
AAXX 11064 71496 16/// /2403 11096 21104 39471 40089 51022 60001 333 11004 21101 70000
AAXX 11064 71435 16/// /1203 11107 21120 39550 40160 58015 60001 333 11087 21190 70000
AAXX 11064 71472 17/// /0207 10053 20016 30222 40240 53003 69921 7//4/ 333 10062 20044 70028 555 33334 40143
AAXX 11064 71510 16/// /2607 11077 21098 39387 40101 53023 60001 333 10022 21100 70000
AAXX 11064 71837 16/// ///// 11005 60001 333 10090 21019 7////
AAXX 11064 71839 17/// ///// 11027 69931 7//4/ 333 10101 21031 70006
AAXX 11064 71667 16/// /2203 11093 21116 39931 40184 56012 60001 333 11080 21160 70000
AAXX 11064 71669 16/// /1401 11041 21094 38513 40130 53007 60001 333 10064 21045 70000 555 32531 40222
AAXX 11064 71736 46/// ///// 11001 21083 6///1 333 10066 21007 7//// 555 10010
AAXX 11064 71742 46/// /3113 11008 21009 39924 40111 51008 6///1 333 10042 21017 7//// 555 32035 40163
AAXX 11064 71744 16/// /2803 11085 21127 30212 40254 53013 60001 333 10022 21085 70000
AAXX 11064 71747 46/// /0000 11105 21115 39666 40154 58019 6///1 333 11063 21195 7////
AAXX 11064 71868 16/// /0704 11073 21090 39626 40072 56001 60001 333 11056 21118 70000
AAXX 11064 71920 16/// /3510 11017 21057 30259 40265 53025 60001 333 10092 21017 70019 555 31922 40071
AAXX 11064 71243 16/// /3503 11005 21069 39062 40138 51009 60001 333 10112 21027 70000 555 32643 40233
AAXX 11064 71246 16/// /3606 11103 21115 39502 40177 51029 60001 333 11009 21104 70009 555 30119 40011
AAXX 11064 71155 16/// ///// 11022 21049 60001 333 10035 21123 70000
AAXX 11064 71156 16/// /2902 11031 21073 39043 40141 52013 60001 333 10050 21047 70000 555 32918 40191
AAXX 11064 71157 46/// ///// 11014 21044 6///1 333 10053 21084 7////
AAXX 11064 71158 16/// /0906 11085 21103 39821 40102 56014 60001 333 11084 21158 70000
AAXX 11064 71159 17/// /3010 11034 21044 30083 40156 53008 69981 7//4/ 333 10045 21034 70138 555 32229 40142
AAXX 11064 71160 16/// /0402 11140 21161 39920 40138 53012 60001 333 11114 21158 70000
AAXX 11064 71162 46/// /3010 11070 21085 39934 40146 6///1 333 7////
AAXX 11064 71164 46/// /3404 11093 21107 30079 40161 58003 6///1 333 11093 21164 7////
AAXX 11064 71165 46/// ///00 11087 21094 39852 40138 53001 6///1 333 11074 21133 7////
AAXX 11064 71166 46/// /2703 39564 52002 6///1 333 7////
AAXX 11064 71184 46/// /2002 11055 21087 6///1 333 10003 21055 7//// 555 32920 40071
AAXX 11064 71199 46/// /0000 11214 21235 39372 40239 53010 6///1 333 11053 21220 7////
AAXX 11064 71619 16/// /2809 11102 21154 30178 40238 53016 60001 333 10020 21106 70000 555 32918 40201
AAXX 11064 71622 16/// ///// 11063 21110 39971 40321 51002 60001 333 11040 21093 70000 555 10010
AAXX 11064 71752 16/// /1502 11112 21123 30096 40323 51003 60001 333 11031 21120 70000 555 10030
AAXX 11064 71771 46/// /2907 10049 20008 30214 40235 53008 6///1 333 10066 20043 7////
AAXX 11064 71087 46/// /2603 11115 21131 39964 40174 51005 6///1 333 11110 21179 7////
AAXX 11064 16148 11710 63102 10052 20031 30176 40189 53003 69922 72864 85570 333 20040 30/// 55003 2//// 55300 85656
AAXX 11064 71739 41674 82005 11090 21121 39852 40228 57004 6//// 70272 85570 333 11089 21146 4//// 7//// 90932 555 1//// 2////
AAXX 11064 71807 17/// /2522 10060 20052 30086 40104 55011 60031 7//4/ 333 10073 20033 70033 555 32631 40062
AAXX 11064 71810 16/// /3404 11113 21161 30143 40211 51017 60001 333 10002 21113 70000 555 33019 40191
AAXX 11064 71940 11459 83110 11014 21014 39354 40165 53020 60101 72272 885// 333 10033 21041 43994 70008 90952 93101 555 10010 20008 32625 40170
AAXX 11064 48310 31550 83302 10209 20173 39699 40161 57017 71022 86546 333 58031
AAXX 11064 71915 12974 13411 11240 21276 39990 40073 52013 60001 80001 333 11116 21244 79999 555 19999 29999 30320 40130
AAXX 11064 71719 16/// /2911 11072 21128 30229 40235 53022 60001 333 10025 21073 70000 555 32923 40041
AAXX 11061 13168 11698 83601 10058 20039 30106 40214 51016 69902 76062 885// 333 20058 31004 55000 79999
AAXX 11061 13174 32697 83603 10050 20030 30104 40206 51012 885// 333 20044 31004 55000 70000
AAXX 11061 13269 32599 72501 10073 20052 39988 40204 53008 87500 333 20069 31005 55007 70000
AAXX 11061 13274 11698 80302 10084 20064 30049 40210 52022 69902 76062 885// 333 20084 31008 55000 70000
AAXX 11061 13278 32698 71801 10081 20046 39980 40206 53005 87500 333 20078 31006 55004 70000
AAXX 11061 13378 31/91 92504 10015 20015 38293 48518 53003 74544 333 20015 3/000 43011 55001 70000
AAXX 11061 13397 32698 81203 10038 20023 39686 40235 54000 885// 333 20028 31003 55018 70000
AAXX 11061 13457 32570 60000 10119 20114 30202 40209 52004 88800 333 20106 32010 55/// 82823 84650
AAXX 11061 13481 NIL
AAXX 11064 13622 12665 81806 10168 20117 30194 40202 54004 60002 885// 333 20122 30/// 88636
AAXX 11061 13173 12697 71102 10049 20034 30110 40212 52016 69922 87500 333 20046 31004 55000 70012
AAXX 11061 13180 11697 83202 10066 20064 30055 40206 52019 69912 70262 885// 333 20065 31006 55000 70001
AAXX 11061 13266 11697 80903 10074 20045 30105 40207 53017 69942 76162 885// 333 20072 31005 55000 70006
AAXX 11061 13369 31697 60000 11015 21020 39005 48474 54000 72842 86500 333 21022 3/103 43016 55013 70000
AAXX 11061 13383 32998 71401 10046 20042 30003 40210 51002 87070 333 20039 31002 55009 70000
AAXX 11061 13384 11898 41101 10055 20028 30056 40210 52006 69912 70162 84070 333 20053 31004 55022 70001
AAXX 11061 13389 32698 71202 10065 20001 39937 40221 54000 87500 333 20028 31002 55038 70000
AAXX 11061 13477 NIL
AAXX 11061 15501 11540 60000 10030 20022 30150 40195 53004 60002 71022 86500 333 10041 20025 70000 555 31/// 595//
AAXX 11061 15505 12670 72305 10143 20045 39827 40192 52009 60002 86305 333 10150 20100 70000 555 31002 552//
AAXX 11061 15511 11950 30000 10038 20025 30165 40205 53004 60002 71011 83050 333 10042 20035 55000 70000 555 31/// 592//
AAXX 11061 15514 11558 60000 10042 20027 30146 40182 57009 60002 71022 85550 333 10050 20036 70000 555 31/// 590//
AAXX 11061 15530 12665 70000 10071 20031 39974 40214 51005 60002 84530 333 10086 20064 70000 555 31104 576//
AAXX 11061 15533 12668 70000 10049 20034 30133 40165 53013 60002 83550 333 10055 20046 70000 555 31/// 590//
AAXX 11061 15550 12968 82303 10107 20034 30153 40173 57001 60002 8807/ 333 10107 20062 70000 555 31/// 560//
AAXX 11061 15561 12475 82002 10088 20047 30185 40192 53014 60002 885// 222// 00093 2//01 333 10100 20064 70000 555 31003 576// 92023 92428
AAXX 11061 15562 12481 82704 10096 20066 30111 40183 57002 60002 885// 222// 2//01 333 10100 20094 55067 70000 555 30006 582// 92023 92428
AAXX 11061 15600 11/84 62716 10016 20011 38333 48535 53005 60012 70264 82899 333 10020 21010 55034 70012 555 31/// 590//
AAXX 11061 15601 12770 50000 11008 21026 39603 40245 52007 60002 84530 333 10028 21012 55035 70000 555 30104 586//
AAXX 11061 15605 12775 61402 10034 20024 39376 40232 52004 60002 85530 333 10042 20018 41/// 70000 555 3/107 593//
AAXX 11061 15613 11/00 92310 11022 21025 37730 47081 53003 60002 74944 333 11018 21026 46003 55004 70002 555 598// 92717
AAXX 11061 15628 12665 80000 10018 21010 39966 40231 53006 60002 86207 333 10028 21004 55039 70000 555 30105 582//
AAXX 11061 15642 12680 70000 10040 20035 30036 40207 53004 60002 84532 333 10054 20025 55059 70000 555 30106 597//
AAXX 11061 15661 12570 82702 10078 20046 30169 40205 53007 60002 885// 222// 20000 333 10100 20070 70000 555 31001 580// 92012 92418
AAXX 11061 15726 11881 73003 10017 21005 38287 48544 53003 60002 70122 85072 333 10023 20010 43003 55033 70000 555 585//
AAXX 11064 71831 11466 81405 11093 21093 39920 40210 58008 69901 77172 885// 333 11092 21168 47016 79999 90921 555 19999 29999
AAXX 11064 71858 17/// /1101 11068 21078 39807 40092 56011 60021 7//4/ 333 11068 21142 70016
AAXX 11064 71861 16/// /2706 11013 21053 39334 40056 53002 60001 333 10019 21122 70000
BBXX PBEO 11063 99362 70069 41597 73215 10160 20088 40202 53002 70222 878// 22262 02180 20402 327// 40401 80120
AAXX 11064 40260 31957 03306 10056 20025 39473 40275 52013 70500 333 20/// 30///
AAXX 11064 40265 31940 01604 10040 20002 39480 40302 52010 70500 333 21010 30105
AAXX 11064 40296 32960 00000 10132 20070 40275 52009 333 20106 30005
AAXX 11064 65352 31910 73602 10190 20021 3//// 4//// 70522 80002 333 20190 5//// 87076
AAXX 11064 65361 31940 70408 10218 20117 3//// 4//// 70522 80002 333 20185 5//// 87076
AAXX 11064 65376 32957 70806 10228 20030 39645 40103 80002 333 20208 58003 87076
AAXX 11064 65387 31920 73604 10235 20231 30069 40087 71022 80002 333 20234 58008 87073
AAXX 11064 71868 16/// /0704 11073 21090 39626 40072 56001 60001 333 11056 21118 70000
AAXX 11064 13600 11650 83202 10100 20076 30162 40215 57005 60162 78088 885// 333 20090 32/// 88640
AAXX 11064 71435 16/// /1203 11107 21120 39550 40160 58015 60001 333 11087 21190 70000
AAXX 11064 71472 17/// /0207 10053 20016 30222 40240 53003 69921 7//4/ 333 10062 20044 70028 555 33334 40143
AAXX 11064 71510 16/// /2607 11077 21098 39387 40101 53023 60001 333 10022 21100 70000
BBXX DDZA2 11064 99375 10106 41798 72515 10170 20100 40195 54000 70322 87070 22264 04180 20301 80130
AAXX 11064 91367 32474 20806 10294 20265 83100 333 562// 82815 70000 91106
AAXX 11061 14023 12797 72901 10032 20023 39919 40221 52010 60002 87500 333 20004 31102 55002 70000 87650 555 20042 30046
BBXX 2ALE5 11063 99078 70142 41698 23411 10285 20225 40091 53002 70200 824// 22275 20401 80244
AAXX 11061 48892 01598 70206 10281 20255 30048 40053 57022 60122 72582 8491/ 333 58005 60051 84995 87499
AAXX 11061 48887 32570 41103 10294 20205 30089 40095 57025 82201 333 59002 82895
AAXX 11061 48870 32474 83403 10220 20164 30144 40151 58023 888// 333 58010 83894 88696
AAXX 11061 48920 01598 73613 10272 20242 30073 40076 57024 60013 72582 878// 222// 00287 2//06 333 58005 69933 72582 83895 85697 91121 91536
AAXX 11061 48877 32570 83610 10246 20174 30131 40136 57023 888// 333 58007 83895 88697
AAXX 11061 13457 32570 60000 10118 20111 30202 40209 52003 86800 333 20108 32010 55/// 82823 84650
AAXX 11064 65351 31930 70410 10195 20024 3//// 4//// 70522 80002 333 20195 5//// 87076
AAXX 11064 65355 31915 70812 10195 21006 39595 40112 70522 80002 333 20175 58006 87073
AAXX 11064 65357 31920 70806 10190 20001 39734 40125 70522 80002 333 20188 58028 87076
AAXX 11064 65380 32459 70000 10221 20212 3//// 4//// 8553/ 333 20202 5//// 85610 85363
AAXX 11064 89002 42599 71808 11063 21082 39704 49757 52026 875//
BBXX 2AQK9 11064 99388 70098 41/97 43206 10150 20150 40205 55003 70200 847// 22284 20404 336// 40506 5//// 80150
AAXX 11064 65338 31930 53606 10202 20130 39914 40102 70522 80002 333 02200 20202 50474 55065 58001 85076
BBXX 2AKI2 11063 99330 30376 41497 81034 10192 20164 40168 51008 78022 887// 22224 00238 20404 310// 40706 5//// 80175
AAXX 11061 13492 NIL
AAXX 11061 13584 NIL
AAXX 11061 13585 42698 81101 10043 20038 39431 40238 53005 8557/ 333 20015 31101
AAXX 11061 13597 42698 80000 10036 20023 30161 40236 5//// 8357/ 333 20032 30003
AAXX 11061 13598 42998 40000 11007 21012 48497 56003 84500 333 21025 34103 92011
BBXX SKOZ 11064 99461 70454 43/93 91315 10068 40139 58111 22263 00079 2//// 4////
BBXX DHDH 11064 99138 10556 41697 60528 10260 20218 40145 51005 70311 86440 22225 00250 20404 305// 40304 80230
AAXX 11064 65306 31940 51006 10175 20039 39790 40123 70522 80002 333 01000 20175 50854 55069 58005 85076
AAXX 11064 65319 31920 53606 10204 20002 39602 40116 70522 80002 333 01900 20200 50754 55079 58008 85076
AAXX 11064 65330 31906 50804 10191 20018 39668 40106 70544 80002 333 01800 20190 50894 55066 0//// 58009 85076
AAXX 11064 65335 32958 53202 10206 20081 39880 40103 80002 333 01600 20203 50554 55073 58003 85076
AAXX 11064 65344 31430 53608 10235 20219 30090 40101 71022 81502 333 02200 20233 50304 55088 58010 81610 85076
AAXX 11064 61974 12581 32006 10308 20237 40101 60004 83200 333 20242 58006 83820 94324
AAXX 11064 61986 12470 61413 10274 20245 40078 60034 70282 86842 333 0//13 20254 59006 85819 94322
AAXX 11064 61988 11362 70716 10264 20241 40120 60044 72522 86332 333 0//11 20244 50332 58020 81708 81915 84816 83650 91129
AAXX 11064 61989 11320 70815 10256 20243 40126 60174 78082 87342 333 0//21 20233 58016 83706 81914 85814 83645
AAXX 11064 61990 12475 41312 10284 20213 40130 69924 84202 333 02217 20247 50922 58012 84817 94322
AAXX 11064 61995 11468 50608 10250 20191 39650 69904 71522 85800 333 02017 20215 50602 58009 85817 94323
AAXX 11061 40706 11550 30403 11048 21080 38730 40333 52017 60001 70521 81702 333 3/111 43006 70049 81725
AAXX 11061 40718 11557 82103 10072 20068 30339 40309 52016 60011 76066 8552/ 222// 00072 20203 333 31005 50071 70208 85620 88557
AAXX 11061 40732 11558 83102 10084 20066 30314 40289 52026 69991 76022 8532/ 333 31006 50061 70169 81925 84630 88558
AAXX 11061 40745 11956 03202 10076 21019 39044 40204 52009 60001 333 30105 70000
AAXX 11061 40754 11658 12509 10053 21007 38855 40218 53012 60001 70500 81100 333 30101 5//// 70000 81840
AAXX 11061 40766 12960 02802 10024 21045 38753 40263 52021 60001 333 30109 70000
AAXX 11061 40800 12962 02406 10122 21071 38470 40182 51005 60001 333 30000 5///1 70000
AAXX 11061 40811 11908 02907 10106 20014 30210 40237 53018 60001 70600 90545 333 30003 50161 70000
AAXX 11061 40841 12970 43302 10058 21132 38285 40225 52008 60001 80009 333 30107 5//// 70000 84170
AAXX 11061 40848 12960 10302 10060 21033 38575 40252 52011 60001 80001 333 30106 50191 70000 81070
AAXX 11061 40856 12970 20000 10142 21205 38659 40193 50013 60001 80002 333 30106 5///1 70000 82070
AAXX 11061 40875 12960 10502 10216 21087 30180 40192 52011 60001 80001 333 30002 50461 70000 81070
AAXX 11061 06447 36/// /2003 10034 20017 30033 40160 56009 60002 333 20000 3/106 91106 91204
AAXX 11061 50468 32970 22702 11081 21153 39921 40142 57003 80002 333 21192
AAXX 11061 50953 32962 62503 11050 21120 39999 40185 57008 84032 333 21108
AAXX 11061 53588 32980 03402 11029 21132 37808 57013 333 21137
AAXX 11061 53772 31958 01802 10007 21093 39365 40327 57028 70400 333 21095
AAXX 11061 54337 32980 01602 10086 21103 30142 40227 57013 333 21058
AAXX 11061 54342 32970 02703 10037 21080 30163 40226 57018 333 21115
AAXX 11061 54511 31959 02003 10097 21089 30205 40246 57021 70500 333 21044
AAXX 11061 56080 32980 61402 11005 21202 37141 57030 80002 333 05304 21133
AAXX 11061 56778 31656 80702 10057 20035 38134 57026 71000 885// 333 05404 20020
AAXX 11061 57461 32960 71601 10087 21001 30134 40302 57033 8703/ 333 20005
AAXX 11061 58102 32975 72202 10082 21083 30244 40294 57035 82042 333 21032
AAXX 11061 58221 32965 22502 10072 21096 30270 40299 57032 82040 333 21038
AAXX 11061 58238 32960 02702 10070 21103 30258 40304 57030 333 21040
AAXX 11061 58251 32963 02904 10059 21040 30294 40299 57027 333 21036
AAXX 11061 58457 32965 00401 10081 21093 30243 40298 57036 333 21014
AAXX 11061 58606 32965 00902 10089 21050 30234 40294 57034 333 20012
AAXX 11061 58847 32680 80202 10104 21044 30153 40257 57030 8257/ 333 20084
AAXX 11061 59134 32770 70204 10138 20030 30063 40234 57032 875// 333 20088
AAXX 11061 59287 32977 13405 10154 21045 30142 40230 57043 80002 333 20056
AAXX 11061 59316 32970 03202 10166 20003 30215 40220 57035 333 20079
AAXX 11061 51076 32980 23401 11066 21155 39418 40355 54000 80002 333 00053 21150
AAXX 11061 51243 31965 71801 11104 21121 39762 40360 57004 70040 80002 333 00053 21150
AAXX 11061 51463 32980 60902 11051 21117 39178 40341 57006 80002 333 00002 21104
AAXX 11061 51573 32980 11401 11011 21112 30329 40375 57011 80002 333 05201 21076
AAXX 11061 51709 32875 22201 11040 21092 38820 40389 57004 81502 333 05300 21114
AAXX 11061 52533 32980 01402 11023 21160 38607 40387 57020 333 05202 21149
AAXX 11061 52652 32980 21802 11008 21189 38620 40382 57023 80002 333 05106 21162
AAXX 11061 52983 31957 72902 11046 21125 38165 57023 70500 80002 333 05351 21126
AAXX 11061 53915 32980 83602 10005 21119 38739 40348 57026 81047 333 05401 21101
AAXX 11061 54401 32980 02902 10040 21124 39402 40293 57026 333 21083
AAXX 11061 56096 32675 22002 10076 21073 39005 40272 57038 81102 333 05601 21003
AAXX 11064 67017 NIL
AAXX 11064 67020 12582 10000 10279 20233 30090 40117 50008 60234 81802 333 021// 10352 20210 50544 55/// 81820 555 81640 81073
AAXX 11064 67023 32582 41812 10310 20206 30111 40117 51003 81102 333 02000 10317 20216 50694 55/// 81820 84075
AAXX 11064 67037 32582 1//// 10/// 20/// 30069 40110 5/011 81800 333 0//00 10/// 20/// 50//4 55/// 81820 555 81640
AAXX 11064 67067 12581 2//// 10236 20189 39262 48/// 51005 60304 82200 333 0//89 10280 20172 50324 55/// 82820
AAXX 11064 67107 NIL
AAXX 11064 67131 32982 02606 10/// 20/// 30105 40110 51010 333 0//00 10/// 20/// 50//4 55///
BBXX A8IM7 11064 99226 11248 41297 80520 10220 20190 40170 51180 76166 886// 22264 04230 20810 302// 41109 5//// 80200
AAXX 11061 37279 32999 00000 10029 20021 30132 40280 58005 555 20002
AAXX 11061 37308 32799 60902 10011 21018 39642 40314 53008 82530 333 21015
AAXX 11061 37531 32999 00000 11002 21008 39577 40328 53015 333 21030 46003
AAXX 11061 37553 32999 03001 10033 21014 39616 40277 54000 333 21004
AAXX 11061 37651 16/// ///00 11006 21009 3//// 4//// 5//// 69932 333 21028
AAXX 11061 37492 NIL
AAXX 11061 57265 32966 20901 10103 21041 30174 40288 57039 80001 333 21021
AAXX 11061 57494 32975 03602 10094 21057 30269 40300 57034 333 21045
AAXX 11061 58362 32962 02703 10072 21058 30292 40301 57028 333 21020
AAXX 11061 58752 32763 73602 10106 21071 30233 40280 57031 875// 333 20046
AAXX 11061 59431 32975 03402 10154 21030 30095 40245 57044 333 20026
AAXX 11061 48921 31310 81402 10080 20070 38594 48089 57010 71044 886// 333 58008
AAXX 11061 48924 31356 82201 10150 20124 39548 40191 57018 71054 846// 333 58017
AAXX 11061 48925 31340 83404 10158 20094 39438 40186 57019 71044 8677/ 333 58006
AAXX 11061 48926 31559 80904 10183 20138 39713 40185 57010 71044 8371/ 333 58025
AAXX 11061 48927 31430 80402 10113 20062 39201 48654 57018 71044 888// 333 59005
AAXX 11061 48928 31440 82701 10100 20053 39112 48571 57026 71044 888// 333 59016
AAXX 11061 48930 31360 83602 10195 20103 39848 40204 57019 71044 8387/ 333 58018
AAXX 11061 48935 31458 70404 10118 20070 39000 48483 57022 71044 84870 333 59004
AAXX 11061 48938 31458 83603 10180 20120 39861 40206 57002 70544 8581/ 333 58038
AAXX 11061 48940 31658 20205 10236 20133 39967 40166 57039 70544 82200 333 58008
AAXX 11061 48941 31562 62704 10186 20121 3//// 4//// 5//// 70544 82130 333 5////
AAXX 11061 48944 31958 00904 10162 20048 39532 40133 54000 70544 333 58003
AAXX 11061 48945 31957 03603 10228 20085 30011 40192 57029 70544 333 58016
AAXX 11061 48946 31559 11603 10232 20174 39995 40162 57035 70544 81100 333 58004
AAXX 11061 48947 32461 20905 10230 20119 30040 40202 57010 82100 333 58013
AAXX 11061 48948 32965 00905 10215 20099 39950 40172 57040 333 58007
AAXX 11061 48952 31559 23603 10250 20129 39944 40137 57017 70544 82100 333 58000
AAXX 11061 48953 32560 32704 10265 20118 39931 40098 57041 82101 333 58005
AAXX 11061 48955 32460 23605 10265 20124 30016 40133 57034 82800 333 58006
AAXX 11061 48957 31568 23402 10282 20136 30009 40196 57042 70544 82101 333 58018
AAXX 11061 48921 31310 81402 10080 20070 38594 48089 57010 71044 886// 333 58008
AAXX 11061 48924 31356 82201 10150 20124 39548 40191 57018 71054 846// 333 58017
AAXX 11061 48925 31340 83404 10158 20094 39438 40186 57019 71044 8677/ 333 58006
AAXX 11061 48926 31559 80904 10183 20138 39713 40185 57010 71044 8371/ 333 58025
AAXX 11061 48927 31430 80402 10113 20062 39201 48654 57018 71044 888// 333 59005
AAXX 11061 48928 31440 82701 10100 20053 39112 48571 57026 71044 888// 333 59016
AAXX 11061 48930 31360 83602 10195 20103 39848 40204 57019 71044 8387/ 333 58018
AAXX 11061 48935 31458 70404 10118 20070 39000 48483 57022 71044 84870 333 59004
AAXX 11061 48938 31458 83603 10180 20120 39861 40206 57002 70544 8581/ 333 58038
AAXX 11061 48940 31658 20205 10236 20133 39967 40166 57039 70544 82200 333 58008
AAXX 11061 48941 31562 62704 10186 20121 3//// 4//// 5//// 70544 82130 333 5////
AAXX 11061 48944 31958 00904 10162 20048 39532 40133 54000 70544 333 58003
AAXX 11061 48945 31957 03603 10228 20085 30011 40192 57029 70544 333 58016
AAXX 11061 48946 31559 11603 10232 20174 39995 40162 57035 70544 81100 333 58004
AAXX 11061 48947 32461 20905 10230 20119 30040 40202 57010 82100 333 58013
AAXX 11061 48948 32965 00905 10215 20099 39950 40172 57040 333 58007
AAXX 11061 48952 31559 23603 10250 20129 39944 40137 57017 70544 82100 333 58000
AAXX 11061 48953 32560 32704 10265 20118 39931 40098 57041 82101 333 58005
AAXX 11061 48955 32460 23605 10265 20124 30016 40133 57034 82800 333 58006
AAXX 11061 48957 31568 23402 10282 20136 30009 40196 57042 70544 82101 333 58018
AAXX 11061 44203 41595 80000 11203 21222 38471 40451 58006 77177 8852/
AAXX 11061 44207 32999 01804 11165 21199 38354 40380 58010
AAXX 11061 44212 31596 70000 11146 21173 39250 40464 58003 71022 8371/
AAXX 11061 44213 41699 30601 11161 21185 38878 40458 57015 70172 83500
AAXX 11061 44215 31996 70000 11176 21195 38483 40448 56001 71044 87010
AAXX 11061 44218 32998 20101 11137 21180 38674 40408 58012 80009
AAXX 11061 44225 41997 73603 11213 21225 38336 40490 58007 70272 87010 555 81016 82018
AAXX 11061 44230 32998 00000 11123 21163 38849 40404 58012
AAXX 11061 44232 32999 00000 11193 21214 39181 40411 57013
AAXX 11061 44237 32999 00000 11149 21191 38527 40376 58007
AAXX 11061 44239 32999 00000 11150 21192 38851 40366 58014
AAXX 11061 44241 32999 51802 11189 21225 39332 40400 58013 85030
AAXX 11061 44256 31999 13210 11075 21124 39366 40251 50002 73631 81040
AAXX 11061 44265 32999 30000 11067 21145 38896 40349 58010 82044
AAXX 11061 44272 32998 03404 11214 21254 38266 40440 57005
AAXX 11061 44275 32998 00000 11160 21194 37748 40384 58013
AAXX 11061 44282 32999 01102 11062 21167 38325 40298 58014
AAXX 11061 44284 32999 01401 11186 21212 37891 40432 57007
AAXX 11061 44285 32999 01702 11125 21174 38360 40377 58011
AAXX 11061 44287 32999 00605 11080 21173 38151 40355 58008
AAXX 11061 44294 32998 00103 11122 21146 38607 40378 57005
AAXX 11061 44298 32999 03603 11140 21140 38757 40352 58007
AAXX 11061 44302 32999 32906 11080 21154 39145 40289 58013 80009
AAXX 11061 44305 32999 03203 11067 21142 39084 40271 58003
AAXX 11061 44313 31999 30000 11099 21158 39390 40260 52009 70141 83040
AAXX 11061 44314 41998 52903 11072 21130 39170 40290 52003 70272 85080
AAXX 11061 44317 32998 73204 11075 21115 38963 40284 57004 87050
AAXX 11061 44336 32999 00000 11137 21164 38745 40376 54000
AAXX 11061 44341 32999 00000 11071 21127 38647 40339 56005
AAXX 11061 44347 32999 02704 11066 21143 38756 40324 58013
AAXX 11061 44352 32999 00000 11077 21117 38957 40301 51004
AAXX 11061 44358 32998 03205 11076 21106 39136 40332 58003
AAXX 11061 44214 32998 01001 11136 21217 38325 40420 58010
AAXX 11061 44231 31996 00000 11152 21220 38784 40435 58011 70400
AAXX 11061 44259 32997 32103 11103 21145 39342 40281 58002 80004
AAXX 11061 44277 31999 20701 11073 21161 37827 40354 58009 70250 80004
AAXX 11061 44288 32999 01103 11050 21148 38201 40329 58004
AAXX 11061 44292 41/93 92602 11184 21203 38760 40410 58007 74774 89/// 555 96110
AAXX 11061 44304 32999 20000 11117 21161 39039 40327 58007 82040
AAXX 11061 44354 32999 00000 11099 21143 39155 40228 58003
AAXX 11061 44373 32999 02902 11042 21180 38578 40302 56005
AAXX 11064 08171 11/03 90502 10050 20050 39958 40203 56002 60002 74544 333 20045 31004 50020 55000 79999 89/06
AAXX 11061 50136 11970 42001 11142 21203 39628 40209 52001 69911 70070 81032 333 21282
AAXX 11061 50745 32668 32904 11031 21131 39984 40178 57009 82102 333 21179
AAXX 11061 50774 32960 62502 11080 21142 39845 40170 57016 80002 333 21259
AAXX 11061 50788 32970 22202 11071 21129 30064 40154 57005 80002 333 21154
AAXX 11061 51133 32980 40901 11016 21123 39639 40316 57009 80002 333 00100 21106
AAXX 11061 51431 32970 10903 11015 21070 39490 40322 57010 80002 333 00202 21096
AAXX 11061 51747 32962 02901 11027 21094 39040 40410 57003 333 05100 21194
AAXX 11061 52203 32980 41601 11014 21163 39440 40369 57015 80002 333 05200 21124
AAXX 11061 52418 32970 03402 11012 21140 38994 40392 57015 333 05202 21140
AAXX 11061 52681 32980 02704 11017 21170 38726 40387 57023 333 05101 21157
AAXX 11061 53564 32980 02202 10000 21126 39281 40352 57028 333 05403 21128
AAXX 11061 53614 32968 00401 11022 21125 39003 40364 57027 333 05401 21122
AAXX 11061 53646 32980 12202 11015 21127 38943 40354 57021 80002 333 05403 21136
AAXX 11061 53798 32962 01401 10098 21035 30164 40263 57030 333 21028
AAXX 11061 53845 32975 60702 10006 21138 39170 40345 57030 80002 333 05501 21097
AAXX 11061 53959 32965 70704 10023 21106 39873 40336 57033 80002 333 21071
AAXX 11061 54094 32665 72202 11045 21103 39877 40190 57008 82102 333 21128
AAXX 11061 54102 32980 02206 11097 21136 39065 40323 57004 333 21155
AAXX 11061 54161 32965 32704 11018 21106 39901 40205 57006 82032 333 21117
AAXX 11061 54292 32980 63401 11013 21109 39864 40194 57013 86030 333 21125
AAXX 11061 54374 32670 20000 11010 21123 39752 40236 57022 82500 333 21144
AAXX 11061 54423 32980 03401 10051 21102 39729 40259 57020 333 21099
AAXX 11061 54618 32964 32503 10097 21084 30240 40258 57026 80002 333 21028
AAXX 11061 54843 32980 02902 10086 21068 30245 40274 57023 333 21037
AAXX 11061 54909 32970 72205 10074 21060 30215 40281 57030 80002 333 21040
AAXX 11061 56029 11680 73402 11007 21103 36423 57013 69901 70070 81102 333 00255 21083
AAXX 11061 57127 32960 60000 10069 21045 39681 40310 57037 86030 333 21016
AAXX 11061 57131 32960 72502 10028 21082 39829 40346 57033 8703/ 333 21048
BBXX 44255 11061 99473 70573 46/// /3211 10011 40142 52030 22200 00045 10504 70018 333 91213
OOXX AAUNI 11064 99798 50833 56093 07671 46/// /1903 11160 21178 38876 49780 52013 90600
BBXX 44255 11061 99473 70573 46/// /3211 10011 40142 52030 22200 00045 10504 70018 333 91213
AAXX 11061 48852 01460 82902 10154 20152 30190 40200 57029 60373 76166 8672/ 333 58011 60041 86894 88499 9616 0 555 20154
AAXX 11061 44210 32999 50000 11168 21194 38597 56006 83071
AAXX 11061 44216 32598 32701 11154 21181 39090 40431 58011 81882
AAXX 11061 44217 32998 10000 11149 21219 37888 40418 54000 80004
AAXX 11061 44219 NIL
AAXX 11061 44221 31996 80000 11139 21166 38666 40427 58004 71672 8802/
AAXX 11061 44224 31998 00000 11261 21279 38102 40521 56003 70240
AAXX 11061 44229 32999 02703 11187 21220 37954 40423 58014
AAXX 11061 44242 32998 00000 11171 21188 39401 40390 57012
AAXX 11061 44243 41999 20000 11152 21187 39496 40388 58009 70181 82030
AAXX 11061 44254 32698 22904 11055 21079 39066 40271 56002 81104
AAXX 11061 44257 31598 22908 11071 21164 39015 40305 58003 73633 82840 333 91112
AAXX 11061 44263 32998 20000 11193 21251 38112 40484 57004 80001
AAXX 11061 44266 32999 60000 11126 21234 37796 40369 58005 84084
AAXX 11061 44286 32998 01401 11098 21146 38696 40356 58008
AAXX 11061 44291 31/93 90000 11182 21199 38797 40431 58009 74544 89/// 333 96004
AAXX 11061 44325 32999 70000 11169 21203 38920 40413 58008 87011
AAXX 11061 44329 32898 22007 11053 21225 37794 40284 58005 82041
AAXX 11061 44338 32999 00201 11049 21116 38518 40309 58009
AAXX 11061 44348 32997 03205 11074 21118 38725 40288 58004
AAXX 11061 44374 32999 01803 11021 21283 38302 40317 58011
AAXX 11061 44385 32999 02702 11027 21112 38970 40308 58018
AAXX 11061 44386 32999 02704 11073 21126 39095 40316 57008
AAXX 11061 48855 01560 83201 10191 20151 30181 40189 58030 60173 70262 888// 333 58010 69901 83895 88697
AAXX 11061 48848 01565 83203 10140 20104 30201 40209 57038 60013 70262 888// 333 59004 69901 83895 88697
AAXX 11061 48806 32570 20502 10157 20043 39431 40217 57036 82800 333 59017 81895
AAXX 11064 40100 12960 00803 10136 20011 30245 40277 53013 60004 906// 333 20099 30/// 50304 55049 20801 92427
AAXX 11064 40101 12956 00000 10021 21001 39188 48562 53012 60004 906// 333 20005 32/// 50174 55082 20954
AAXX 11064 40103 32970 01602 10066 20026 40284 52013 333 20058 30/// 50354 20954
AAXX 11064 40102 NIL
AAXX 11064 47407 11/40 82703 11034 21048 39929 40106 53009 60011 78588 883//
AAXX 11064 47409 11/50 53304 11027 21057 30035 40090 52010 60021 78588 85300
AAXX 11064 47418 11/20 70311 11014 21028 30038 40088 53018 69901 78522 872//
AAXX 11064 47421 17/09 /3011 11015 21045 30090 40135 53014 60011 77170
AAXX 11064 47430 11/65 42816 11005 21059 30082 40137 53016 60021 72682 82302
AAXX 11064 47570 17/61 /1601 10037 20028 39918 40182 53006 60111 76166
AAXX 11064 47575 11/56 72808 10007 21014 30149 40154 53017 60021 78582 873//
AAXX 11064 47584 11/70 22607 10030 21047 39963 40156 53007 69901 70281 82300
AAXX 11064 47604 11/60 83310 10070 20029 30182 40191 53013 60011 78082 882//
AAXX 11064 47605 11/65 72108 10082 20042 30171 40213 53005 60021 78082 8727/
AAXX 11064 47610 12/80 20709 10083 21021 39672 40174 55000 60001 82200
AAXX 11064 47624 12/82 13509 10122 21024 30022 40159 53001 60001 81200
AAXX 11064 47629 12/80 12608 10133 21034 30114 40152 55001 60001 81100
AAXX 11064 47636 12/70 33313 10112 20006 30138 40206 55003 60001 83801
AAXX 11064 47651 12/82 23109 10117 21014 30191 40213 55001 60001 82100
AAXX 11064 47655 15/70 /2818 10127 20008 30109 40165 55005 60001
AAXX 11064 47675 15/70 /0506 10129 20025 30071 40162 53003 60001
AAXX 11064 47741 11/80 72307 10087 20031 30203 40231 56004 69901 70282 87200
AAXX 11064 47746 11/70 72609 10100 20009 30208 40228 56005 69901 78082 872//
AAXX 11064 47750 11/75 72602 10082 20035 30202 40230 55006 69901 72582 872//
AAXX 11064 47765 12/80 70502 10099 21012 30175 40241 55009 60001 878//
AAXX 11064 47772 12/80 72906 10103 21008 30130 40231 55003 60001 878//
AAXX 11064 47800 15/80 /1903 10092 20014 30242 40247 56018 60001
AAXX 11064 47815 12/75 63206 10111 21020 30230 40247 56009 60001 86800
AAXX 11064 47817 12/75 80104 10097 20018 30209 40253 56013 60001 888//
AAXX 11064 47830 12/80 11601 10123 21002 30217 40235 56015 60001 81830
AAXX 11064 47887 12/75 72904 10096 21020 30202 40244 56009 60001 878//
AAXX 11064 47891 12/80 72507 10109 21015 30220 40237 56007 60001 87800
AAXX 11064 47895 12/81 43108 10114 21020 30224 40232 55006 60001 84800
AAXX 11064 47927 11/56 80416 10180 20156 30148 40197 56022 60081 76122 8787/
AAXX 11064 47401 11/60 52709 11037 21063 30065 40080 55007 69901 78582 85300
AAXX 11064 47412 11/60 53105 11009 21083 30085 40118 53010 60021 70282 82202
AAXX 11064 47420 17/70 /3316 10003 21041 30038 40072 53010 69901 77170
AAXX 11064 47426 17/70 /3011 11001 21049 30061 40109 53021 60021 72476
AAXX 11064 47582 11/60 73114 10039 21036 30152 40179 53014 69901 78582 873//
AAXX 11064 47590 11/84 63109 10077 21015 30106 40160 53014 69901 70281 86300
AAXX 11064 47600 17/70 /3111 10081 20045 30196 40204 53007 60061 72360
AAXX 11064 47648 12/80 12811 10134 21014 30129 40163 53004 60001 81100
AAXX 11064 47662 12980 01703 10130 21029 30119 40163 55000 60001
AAXX 11064 47678 15/70 /2712 10126 20046 39992 40179 55004 60001
AAXX 11064 47740 15/84 /2606 10098 21007 30188 40223 56005 60001
AAXX 11064 47778 15/70 /2911 10112 20000 30126 40210 55010 60001
AAXX 11064 47807 12/65 73106 10102 20013 30232 40250 56011 60001 872//
AAXX 11064 47827 12/75 23210 10125 20015 30202 40241 56013 60001 82800
AAXX 11064 47843 17/69 /3404 10096 20020 30225 40258 56012 69901 70084
AAXX 11064 47893 12/80 11603 10119 21003 30220 40226 56009 60001 81800
AAXX 11064 47909 11/70 83407 10174 20080 30211 40221 56014 69901 72586 8527/
AAXX 11064 47918 11458 80412 10178 20165 30178 40196 56023 60021 76162 888//
AAXX 11064 47936 11/70 80412 10178 20107 30153 40212 56014 69901 72162 888//
AAXX 11064 47945 11/58 80310 10175 20160 30178 40203 55008 69951 76162 8587/
AAXX 11064 47971 11/65 73506 10208 20158 30177 40187 55005 69901 72582 8327/
AAXX 11064 47991 16/// /1006 10263 20204 30166 40176 55000 60001
AAXX 11064 71727 11532 62704 11133 21154 30074 40280 53014 69901 78581 86500 333 11044 21158 47013 70020 90967 555 10034 20020
AAXX 11064 62305 32560 32506 10080 20074 40293 52005 83500 333 20076
AAXX 11064 62306 32560 32305 10096 20073 40288 52010 83500 333 20080
AAXX 11064 62337 NIL
AAXX 11064 62318 32560 30000 10108 20086 40272 52010 83500 333 20082
AAXX 11064 62366 32960 00604 10106 20057 40265 52009 333 20057
AAXX 11064 62393 31956 03410 10070 20036 40244 52012 71000 333 20062
AAXX 11064 62405 32960 00000 10100 20038 40216 52014 333 20064
AAXX 11064 62414 32960 03607 10108 20010 40219 52019 333 20088
AAXX 11064 62417 32960 00000 10081 20042 40286 52015 333 20045
AAXX 11064 62440 32960 00000 10072 20064 40264 52009 333 20052
AAXX 11064 62463 32960 03112 10138 20070 40228 52017 333 20120
AAXX 11064 62465 32960 03310 10176 20049 40206 52015 333 20160
AAXX 11064 62419 NIL
AAXX 11064 71727 11532 62704 11133 21154 30074 40280 53014 69901 78581 86500 333 11044 21158 47013 70020 90967 555 10034 20020
AAXX 11064 67327 12580 40408 10260 20220 40125 52007 60014 83230 333 20221 50480 55072 94321 555 00011 10000
AAXX 11061 15015 01595 73201 10019 20017 39581 42787 53013 60102 7106/ 87500 333 10051 20019 31001 4//// 6///7 70134 91002 91103
AAXX 11064 40356 42960 01006 10030 21020 39281 48564 333 21020 59053 555 04410 50288
AAXX 11064 40401 32960 43005 10140 21020 39522 40235 84060 333 20080 58032 843 60
AAXX 11064 40435 42960 00310 10150 20050 39178 40180 333 20080 58004
AAXX 11064 03008 11680 72218 10066 20031 49923 60012 70261 82501 90550 333 20027 31/// 4//// 70026 82640 87075 90710 91127
AAXX 11063 NIL
AAXX 11064 88878 46/// /2425 10099 20046 49970 52009
AAXX 11064 88883 46/// /2714 10077 20046 49971 52015
AAXX 11064 88897 46/// /2921 10080 20046 49942 52013
AAXX 11064 87022 NIL
AAXX 11064 87046 NIL
AAXX 11064 87047 32968 00000 10178 20162 38750 48472 57013
AAXX 11064 87097 32960 00504 10212 20190 39758 40063 57011
AAXX 11064 87121 32965 03606 10226 20196 39532 40023 57019
AAXX 11064 87129 32965 00503 10240 20143 39820 40043 57011
AAXX 11064 87155 32965 00000 10182 20171 30006 40066 57009
AAXX 11064 87162 32970 01402 10184 20174 39988 40058 57013
AAXX 11064 87166 31958 01604 10185 20180 39993 40064 56011 71140 333 96010
AAXX 11064 87178 32970 01403 10226 20168 39914 40057 57012
AAXX 11064 87217 NIL
AAXX 11064 87222 32970 00215 10285 20155 39496 49988 57013
AAXX 11064 87257 32965 00506 10188 20151 39964 40064 57003
AAXX 11064 87270 32965 00000 10182 20157 30013 40074 56005
AAXX 11064 87289 NIL
AAXX 11064 87311 32965 01821 10258 20096 39382 40024 53011
AAXX 11064 87320 NIL
AAXX 11064 87328 32980 00502 10235 20094 39430 40052 51003 333 95090
AAXX 11064 88963 31358 82704 10035 21018 39661 49690 57041 71022 8557/ 333 56779 85608 88360 90010 90080 92406 94075 95005
AAXX 11064 88968 11130 83225 10009 20009 39758 49774 57040 69941 76062 887// 333 56799 88702 90061 90091 90205 90295 90910 92425 92731 92851 94070 95080 96010
AAXX 11064 89034 32970 61806 11070 21122 39508 49822 52013 86030 333 56050 86360 92407 92830
AAXX 11064 89053 11350 82705 10025 20012 39710 49724 57019 69991 71062 8572/ 333 56569 85708 88535 90061 90084 90961 92416 92851 94070 94475 95080 96460 97500 98550
AAXX 11064 89055 31957 82909 10004 21001 39452 49687 57019 71022 85076 333 56077 85360 85270 90045 90084 92730 92840 95197
AAXX 11064 89066 32570 80922 10021 21032 39694 49702 56005 8467/ 333 56229 84730 88360 92427 92731 92851 94070 95000
AAXX 11064 NIL
AAXX 11063 87007 32970 20000 10094 20051 36730 47125 58008 82030 333 56000 82360
AAXX 11063 87148 32970 00000 10195 20174 39950 40057 58004
AAXX 11064 70133 17208 /1036 11050 21056 39851 49856 58029 60011 771// 90553 333 11050 21094 91045 96027 555 91106
AAXX 11064 70174 32966 80308 11067 21122 39779 40027 56033 90553 333 11056 21094 4/063 91015 555 91106
AAXX 11064 70200 11208 81032 11017 21017 39737 49742 56019 60051 773// 90553 333 11017 21067 4/061 91039 96038 555 91106
AAXX 11064 70219 12566 82023 10006 21011 39827 49881 51081 69951 90553 333 10028 21010 91029 555 91106
AAXX 11064 70231 17561 81305 10006 21006 39780 49910 50000 60011 771// 90553 333 10006 21094 555 91106
AAXX 11064 70261 32966 60608 11050 21094 39834 40009 58040 90553 333 11033 21133 555 91106
AAXX 11064 70267 32966 81019 11078 21111 39563 40063 56037 90553 333 11078 21133 91028 555 91106
AAXX 11064 70271 32966 81613 11067 21083 39525 40132 58037 90553 333 11067 21128 4/010 555 91106
AAXX 11064 70273 11666 83311 11044 21067 39986 40047 56034 69901 771// 90553 333 11017 21067 4/028 555 91106
AAXX 11064 70316 35766 81717 10028 21017 39938 49975 53016 90553 333 10067 20011 555 91106
AAXX 11064 70326 12466 41812 10006 21006 39977 49989 51060 60021 90554 333 10056 21038 555 91106
AAXX 11064 70340 12666 61606 10022 20006 39948 40011 51036 60031 90553 333 10028 21055 555 91106
AAXX 11064 70350 12666 63213 10039 20000 39986 40028 51052 60081 90553 333 10067 21055 91019 555 91106
AAXX 11064 70361 35966 00704 11028 21039 30199 40208 58008 90553 333 10017 21028 555 91106
AAXX 11064 70381 32566 40000 11017 21028 30223 40234 53008 90553 333 10022 21022 555 91106
AAXX 11064 70414 35666 62433 10011 21056 39798 49835 51021 90556 333 10017 20000 91039 555 91106
AAXX 11064 NIL
AAXX 11064 NIL
AAXX 11064 NIL
AAXX 11064 82143 NIL
AAXX 11064 82599 32570 40906 10256 20229 30030 40090 84200 333 59008
AAXX 11064 82824 21430 81905 10257 20243 39986 40086 79596 8691/ 333 59003 69941
AAXX 11064 82899 32570 30000 1//// 2//// 30086 40098 83100 333 59011
AAXX 11064 83117 NIL
AAXX 11064 83248 32470 30605 10263 20230 30052 40074 83200 333 59023
AAXX 11064 83746 21462 63008 10206 20188 30080 40090 56011 71062 86500 333 60011
AAXX 11064 82022 32970 00503 10255 20227 39983 40078 333 59004
AAXX 11064 82193 31970 00402 10250 20231 30062 40080 70191 333 59007
AAXX 11064 82281 NIL
AAXX 11064 82332 32970 50000 10248 20232 39983 40075 80001 333 59008
AAXX 11064 82398 32470 41008 10253 20225 30036 40095 84500 333 58003
AAXX 11064 82400 NIL
AAXX 11064 82579 32870 43503 10264 20231 39997 40073 84050 333 59004
AAXX 11064 82917 21450 70000 10259 20254 39866 40086 72161 83530 333 59013 69921
AAXX 11064 82965 NIL
AAXX 11064 82993 NIL
AAXX 11064 83208 NIL
AAXX 11064 83349 32570 62603 10264 20245 30070 40076 84201 333 59024
AAXX 11064 83362 32570 50303 10263 20217 39842 40054 82110 333 59022
AAXX 11064 83378 21568 40000 10200 20185 38919 48480 76196 83530 333 59016 60021
AAXX 11064 83460 21258 72204 10226 20218 30027 40084 71796 86930 333 59005 60081
AAXX 11064 83497 NIL
AAXX 11064 83566 21120 72102 10150 20147 39169 48470 72162 86630 333 58002 69921
AAXX 11064 83599 NIL
AAXX 11064 83612 32970 20602 10212 20192 39434 48480 56014 82100
AAXX 11064 83649 41465 71905 10223 20200 30081 40086 55009 71062 84570 333 69911
AAXX 11064 83650 NIL
AAXX 11064 83780 32370 31305 10157 20144 39201 48480 58014 83500
AAXX 11064 83827 NIL
AAXX 11064 83840 32570 71202 10159 20149 39086 48490 56014 87500
AAXX 11064 83899 21570 52205 10196 20183 30096 40102 57017 70262 85500 333 60011
AAXX 11064 83925 NIL
AAXX 11064 83970 NIL
AAXX 11064 83971 32970 01205 10191 20182 30093 40097 55006
AAXX 11064 NIL
BBXX 42067 11061 99300 70886 46/// ///// 10080 20019 40277 90540 22200 00183 10402 70012
AAXX 11064 NIL
AAXX 11064 NIL
AAXX 11064 NIL
AAXX 11064 NIL
AAXX 11064 78526 12566 61203 10244 20222 30099 40120 57007 60031 90556 333 10256 20233 555 91106
AAXX 11064 78543 32866 60305 10256 20217 30031 40112 56010 90553 555 91106
AAXX 11064 NIL
AAXX 11061 22028 11578 81603 11055 21073 39921 49959 57014 69902 77172 8252/ 333 21055 46005 91004
AAXX 11061 22106 11497 80301 11064 21072 39863 49943 57011 60012 78582 8691/ 333 21064 47008 84714 91002
AAXX 11061 22127 11396 80801 11063 21071 39741 49945 57014 60042 77172 8872/ 333 21068 47016 86708 91002
AAXX 11061 22324 11458 80701 11032 21036 39886 49936 56007 60022 78582 889// 333 21039 47009 91002
AAXX 11061 22621 11396 81404 11009 21019 39782 49921 57009 69942 77172 8672/ 333 21027 47008 86707
AAXX 11061 22831 11496 82002 10005 20002 39917 49977 53001 60032 78582 889// 333 21018 43028
AAXX 11061 22892 11997 82805 10018 20010 39895 49911 52012 60082 70282 8807/ 333 20016 91112
AAXX 11061 26275 11297 81805 10008 21015 39985 40016 52010 69902 77171 8772/ 333 20003 42997 87706
AAXX 11061 26389 32462 82103 11009 21031 39790 40056 52005 886// 333 21011 47005
AAXX 11061 26499 32698 71703 11009 21038 39851 40082 52004 87500 333 21011 47002 87634
AAXX 11061 26695 32597 72002 11009 21028 39789 40100 53002 875// 333 21010 47002 87625
AAXX 11061 26882 11468 72402 11004 21013 39825 40104 53002 69922 72682 86830 333 21006 47003 86614
AAXX 11061 26997 31442 82502 10002 21004 39900 40122 53002 71022 886// 333 21003 43001 88711
AAXX 11061 27595 32698 81703 11136 21156 30076 40235 57003 885// 333 21139 91110
AAXX 11061 27612 31596 72101 10004 21007 39906 40100 54000 71022 87500 333 20004 43002
AAXX 11061 27707 11449 80000 11008 21014 39808 40105 54000 69952 77172 8872/ 333 21023 42002 85715
AAXX 11061 27719 11496 70000 11014 21020 39862 40116 57006 69902 71022 87600 333 21014 43001
AAXX 11061 27786 32397 61606 11126 21139 30065 40236 57006 86500 333 21179 86609
AAXX 11061 27857 11496 81504 11011 21015 39981 40147 57015 69900 77172 8802/ 333 21033 88511
AAXX 11061 27906 11495 81802 10002 21001 39871 40115 57003 69962 71022 886// 333 21001 43001
AAXX 11061 27928 11393 82101 10005 20002 39909 40117 56006 60030 77562 8872/ 333 20001 43001
AAXX 11061 27947 11296 81706 10003 21003 39984 40146 57011 69950 76887 8872/ 333 21013 47004 88706
AAXX 11061 27962 32397 81507 11050 21074 40197 56014 885// 333 21090 88609
AAXX 11061 27983 32698 30000 11198 21217 30117 40258 57005 82501 333 21203 93504
AAXX 11061 27995 32998 61001 11178 21190 40272 52002 84059 333 21178
AAXX 11061 28506 32997 50000 11148 21161 30145 40267 53001 85030 333 21157
AAXX 11061 28704 32998 61903 11159 21178 30158 40263 57001 84031 333 21154
AAXX 11061 28711 32998 61604 11141 21154 39875 40278 52001 85031 333 21156
AAXX 11061 28807 32997 71303 11168 21187 30222 40278 53003 86031 333 21173
AAXX 11061 34009 11593 80000 10000 20000 39809 40117 57007 60082 78685 889// 333 20000 43006 93720 96044
AAXX 11061 34110 11496 82504 10028 20025 39835 40112 57014 60092 76162 8872/ 333 10007 88710
AAXX 11061 34123 11310 81803 10007 20001 39942 40127 57019 60030 78682 886// 333 20002 42002 88707
AAXX 11061 34152 31398 81704 11016 21021 39985 40186 57022 72272 886// 333 21036 88708
AAXX 11061 34163 32498 81003 11084 21093 40231 57003 885// 333 88619
AAXX 11061 34171 11360 81605 11090 21101 30035 40239 58007 69900 70272 886// 333 21115 88708
AAXX 11061 34186 32998 31501 11173 21192 30116 40267 53001 80001 333 21168
AAXX 11061 34247 31358 82104 10014 20003 30062 40177 57014 76162 8872/ 333 21002 86708
AAXX 11061 34336 31456 81803 10019 20014 30074 40179 57013 76162 8572/ 333 21003
AAXX 11061 34391 12997 61101 11155 21182 30228 40261 53003 69900 86070 333 21152
AAXX 11061 35011 31996 80000 11186 21205 40298 53008 71011 8801/ 333 21191 93500
AAXX 11061 35121 32998 20802 11200 21221 30141 40302 53005 80001 333 21220 93503
AAXX 11061 28676 31996 50000 11184 21209 30195 40333 53002 71011 80009 333 21207
AAXX 11061 28766 31996 30401 11171 21194 30118 40323 57002 71000 80001 333 21205
AAXX 11061 28867 31996 30000 11195 21214 30028 40324 57002 71040 80002
AAXX 11061 28879 11395 80301 11197 21215 30007 40321 57004 69900 77774 886// 333 21255
AAXX 11061 28952 31996 80000 11215 21233 30117 40327 57001 71011 8801/ 333 21234
AAXX 11061 28966 31/92 90000 11217 21228 30004 40315 57007 74941 333 21224
AAXX 11061 29802 32997 80502 11180 21202 30167 40322 53003 80001 333 21209
AAXX 11061 29807 32997 00000 11164 21204 30190 40318 52001 333 21190
AAXX 11061 34691 32998 30000 11121 21141 30261 40248 52008 83030 333 21129
AAXX 11061 35067 32998 02601 11239 21267 30021 40327 58001 333 21260
AAXX 11061 35078 31496 63301 11163 21178 39906 40313 52004 71042 86600 333 21225 93543
AAXX 11061 35085 31496 60000 11184 21196 39802 40316 53005 71042 86600 333 21172
AAXX 11061 35108 NIL
AAXX 11061 35188 31997 22001 11160 21179 39847 40312 52006 70411 80001 333 21186
AAXX 11061 35217 NIL
AAXX 11061 35229 32998 00901 11213 21232 30009 40309 53001 333 21271
AAXX 11061 35302 NIL
AAXX 11061 35357 32997 41102 11213 21238 39839 40314 53004 82052 333 21244
AAXX 11061 35394 31997 61902 11145 21167 39595 40315 53003 77171 86010 333 21194
AAXX 11061 35406 NIL
AAXX 11061 35416 32997 11901 11178 21204 30149 40280 52003 80001 333 21205
AAXX 11061 35426 32999 10801 11186 21208 39981 40297 56002 80003 333 21227
AAXX 11061 35497 11998 50000 11147 21174 39468 40316 54000 60010 70171 80002 333 21200
AAXX 11061 35532 32998 71102 11114 21158 39777 40294 53013 87050 333 21153
AAXX 11061 35671 32998 00000 11222 21253 39864 40337 53006 333 21287
AAXX 11061 35700 11596 72801 11068 21092 30273 40248 53006 69930 77177 86510 333 21065
AAXX 11061 35746 31996 70403 11176 21202 30228 40301 57002 71022 83054 333 21218
AAXX 11061 35796 11997 01501 11096 21121 39862 40317 58001 69990 70471 333 21125
AAXX 11061 35849 32998 60701 11108 21136 30201 40291 53002 80008 333 21194
AAXX 11061 35925 NIL
AAXX 11061 35953 32999 70602 11154 21181 30160 40299 57001 83032 333 21200
AAXX 11061 35969 32999 60902 11104 21132 30130 40314 53015 80004 333 21220
AAXX 11061 36003 32997 61601 11180 21192 30143 40307 53003 82036 333 21233
AAXX 11061 36152 32998 80000 11152 21196 30105 40306 53001 8807/ 333 21205
AAXX 11061 36177 32997 71102 11109 21153 30048 40306 58004 82031 333 21166
AAXX 11061 36208 32999 70501 11064 21116 39312 40317 52004 80001 333 21113
AAXX 11061 36397 31998 61612 11078 21128 39714 40294 53001 73632 80004 333 21098
AAXX 11061 36428 31/93 90000 11136 21146 39821 40350 53002 74742 333 21221 95090
AAXX 11061 36535 32999 40000 11132 21184 39689 40358 53010 80001 333 21243
AAXX 11061 36639 32999 30000 11068 21134 39688 40311 58009 82031 333 21186
AAXX 11061 36821 31593 80000 11079 21093 39814 40323 54000 74842 889// 333 21081
AAXX 11061 36859 32999 30501 10000 21082 39518 40308 58003 80005 333 21070
AAXX 11061 36864 NIL
AAXX 11061 36870 32997 00201 10005 21064 39257 40277 58003 333 21041
AAXX 11061 38001 NIL
AAXX 11061 38062 31996 30601 11112 21132 30116 40288 57004 71040 80001 333 21167
AAXX 11061 38069 32998 63101 11073 21098 30082 40282 53001 80009 333 21127
AAXX 11061 38196 NIL
AAXX 11061 38198 NIL
AAXX 11061 38222 32998 00000 11090 21124 39729 40317 58003 333 21122
AAXX 11061 38232 NIL
AAXX 11061 38328 NIL
AAXX 11061 38334 NIL
AAXX 11061 38341 32999 20000 11017 21058 39474 40275 57006 80001 333 21095
AAXX 11061 38343 32998 00000 11007 21049 39420 40276 57004 333 21091
AAXX 11061 38439 NIL
AAXX 11061 22271 11496 81609 11056 21074 39990 40000 57024 69930 77173 8872/ 333 21059
AAXX 11061 22520 12698 71204 11010 21020 39916 49925 57006 69902 85530 333 21024
AAXX 11061 22550 NIL
AAXX 11061 22583 NIL
AAXX 11061 22768 NIL
AAXX 11061 22845 11496 81805 10001 21010 39844 40000 53003 60020 77173 8872/ 333 21027 86712
AAXX 11061 22887 11499 71404 11056 21078 30030 40102 52003 60010 72273 8555/ 333 21064 85614 91110
AAXX 11061 23205 NIL
AAXX 11061 23219 NIL
AAXX 11061 23418 11570 71605 11069 21111 30093 40169 57007 69920 70273 84530 333 21072 84624
AAXX 11061 23606 11462 81506 11090 21115 39978 40158 57008 69940 72272 885// 333 21096 88610
AAXX 11061 23711 32598 81103 11092 21122 30023 40205 57006 885// 333 21104
AAXX 11061 23804 11497 81903 11072 21089 39993 40147 57007 69940 77172 8652/ 333 21086 86610
AAXX 11061 27037 11598 82004 10001 21025 39904 40066 52010 60020 70372 885// 333 21021 88632
AAXX 11061 27199 11498 81603 11088 21103 39981 40187 57006 69960 70272 85675 333 21109
AAXX 11061 27271 11497 81504 11045 21061 39978 40138 53002 77172 8872/ 333 21065
AAXX 11061 27459 11398 81502 11026 21039 39937 40136 57003 60010 77172 8872/ 333 21046 88710
AAXX 11061 27730 11294 82101 10003 21011 39926 40117 57001 60030 71072 886// 333 20001 43006 88705
AAXX 11061 20107 11597 61302 11101 21145 39950 40049 57008 69902 70182 82530 333 21106 91003
AAXX 11061 22113 11559 80902 11051 21072 39884 49948 57013 69962 78582 8597/ 333 21051 47007 91003
AAXX 11061 22217 11457 80702 11041 21057 39903 49935 57008 60022 78582 889// 333 21041 47015 85917 91004 92401
AAXX 11061 22235 11356 81302 11056 21063 39752 49948 56011 60042 77072 8872/ 333 21060 47015 87709 91004
AAXX 11061 22349 11496 81609 11024 21036 39950 49962 57015 60022 78583 889// 333 21034 47004 91011 91113
AAXX 11061 22408 11357 80801 11028 21032 39761 49910 57007 69932 77172 8872/ 333 21036 47007 88708
AAXX 11061 22602 11357 81003 11014 21016 39664 49887 52002 60032 77172 8872/ 333 21019 47012 88707
AAXX 11061 22619 11457 81705 11002 21005 39743 49902 57012 60012 78582 889// 333 21014 48011 87710
AAXX 11061 22721 11397 81501 10003 20003 39822 49922 56006 60022 77172 8872/ 333 21012 43026 86708 93702
AAXX 11061 22802 11465 81804 10020 20009 39870 49893 54000 60052 78082 889// 333 20015 42001
AAXX 11061 22820 11457 81904 10002 21006 39792 49929 53002 69902 77072 8557/ 333 21014 47007
AAXX 11061 26059 11496 82303 10015 20010 39934 49959 53020 60022 78582 889// 333 20006 42001 86710
AAXX 11061 26063 11497 82305 10020 20001 39933 49940 52010 69902 72162 885// 333 10016 88611 91111
AAXX 11061 26094 11570 81905 10003 21008 39907 49983 52005 60022 70272 885// 333 20002 43010 88620 91112
AAXX 11061 26157 32597 72107 10022 20006 39922 49971 52016 875// 333 20015 87620 91113
AAXX 11061 26167 11460 82105 10006 21008 39874 49985 52010 69902 78582 889// 333 21003 43002 88918
AAXX 11061 26258 12498 82203 10011 21012 39951 40007 52010 69932 8553/ 333 20011
AAXX 11061 26298 32597 72003 11012 21032 39817 40049 52011 87500 333 21013 47008
AAXX 11061 26359 11579 71804 10005 21015 39897 40032 52009 69902 70272 87500 333 20002
AAXX 11061 26702 11496 82505 10025 20009 30038 40064 52010 60022 78082 889// 333 20019 91010 91112
AAXX 11061 26781 32597 72102 11015 21023 39794 40091 53001 875// 333 21019 43005 87623
AAXX 11061 27208 32997 22003 11012 21045 39882 40061 52008 81031 333 21014 43008
AAXX 11061 27402 32697 71901 11016 21030 39896 40079 57003 84530 333 21018 47001
AAXX 11061 30372 41699 60601 11152 21179 39320 40231 51011 72277 82901
AAXX 11061 30433 42699 42801 11054 21141 39673 40279 57001 82530
AAXX 11061 30554 42698 62804 11094 21184 39129 40250 52003 81141
AAXX 11061 30635 42899 60901 11072 21130 39711 40300 58002 85052
AAXX 11061 30673 42599 70203 11089 21168 39398 40183 52010 81105
AAXX 11061 30692 42999 23406 11154 21235 39666 40185 52/// 82030
AAXX 11061 30758 42699 33205 11058 21154 39412 40246 58003 81531
AAXX 11061 30802 41999 00000 11095 21141 38741 48519 57022 70181
AAXX 11061 30823 42699 52304 11044 21109 39660 40309 58011 82941
AAXX 11061 30879 42999 10000 11157 21191 39415 40215 58002 80002
AAXX 11061 30935 42999 63003 11083 21141 39366 40335 58005 82032
AAXX 11061 30949 42999 23204 11062 21131 39156 40271 52002 82030
AAXX 11061 30965 41999 02801 11129 21156 39391 40254 57005 70241
AAXX 11061 31168 42999 52002 11168 21248 30048 40060 52003 80001
AAXX 11061 31300 41999 50304 11167 21236 39846 40152 52010 70241 80002 333 91010
AAXX 11061 31329 41997 80000 11256 21288 39421 40147 57004 77172 83037
AAXX 11061 31369 42999 32903 11172 21184 39982 40072 58001 80002
AAXX 11061 31416 42599 80000 11211 21230 30003 40098 53002 82529
AAXX 11061 31484 42699 62701 11142 21213 39740 40091 57012 82539
AAXX 11061 31512 429// 32301 11079 21172 39965 40135 57001 80001
AAXX 11061 31538 42999 61201 11159 21186 39676 40131 58008 83041
AAXX 11061 31707 42999 82502 11055 21155 30047 40140 58013 83071
AAXX 11061 31735 41997 02507 11118 21164 30029 40121 52006 73630 333 91010 91111
AAXX 11061 31770 42998 30000 11094 21192 30042 40073 57001 80001
AAXX 11061 38598 31996 01109 10040 20003 40263 57018 71000
AAXX 11061 38599 NIL
AAXX 11061 38725 42999 00000 11003 21152 48540 57004
AAXX 11061 38734 42999 00706 11040 21123 47100 57015
AAXX 11061 38744 42999 00000 11120 21192 38079 48610 58010
AAXX 11061 38836 32999 01402 10104 21082 39307 40238 58006 333 21029
AAXX 11061 38838 NIL
AAXX 11061 38844 NIL
AAXX 11061 38846 NIL
AAXX 11061 38847 42999 03402 10110 21086 40253 57002
AAXX 11061 38932 NIL
AAXX 11061 38933 32998 00000 10060 20009 39741 40261 52007 333 21023
AAXX 11061 38944 32998 00000 10063 20019 39671 40212 58002 333 21018
AAXX 11061 38954 NIL
AAXX 11061 28676 31996 50000 11184 21209 30195 40333 53002 71011 80009 333 21207
AAXX 11061 28766 31996 30401 11171 21194 30118 40323 57002 71000 80001 333 21205
AAXX 11061 28867 31996 30000 11195 21214 30028 40324 57002 71040 80002
AAXX 11061 28879 11395 80301 11197 21215 30007 40321 57004 69900 77774 886// 333 21255
AAXX 11061 28952 31996 80000 11215 21233 30117 40327 57001 71011 8801/ 333 21234
AAXX 11061 28966 31/92 90000 11217 21228 30004 40315 57007 74941 333 21224
AAXX 11061 29802 32997 80502 11180 21202 30167 40322 53003 80001 333 21209
AAXX 11061 29807 32997 00000 11164 21204 30190 40318 52001 333 21190
AAXX 11061 34691 32998 30000 11121 21141 30261 40248 52008 83030 333 21129
AAXX 11061 35067 32998 02601 11239 21267 30021 40327 58001 333 21260
AAXX 11061 35078 31496 63301 11163 21178 39906 40313 52004 71042 86600 333 21225 93543
AAXX 11061 35085 31496 60000 11184 21196 39802 40316 53005 71042 86600 333 21172
AAXX 11061 35108 NIL
AAXX 11061 35188 31997 22001 11160 21179 39847 40312 52006 70411 80001 333 21186
AAXX 11061 35217 NIL
AAXX 11061 35229 32998 00901 11213 21232 30009 40309 53001 333 21271
AAXX 11061 35302 NIL
AAXX 11061 35357 32997 41102 11213 21238 39839 40314 53004 82052 333 21244
AAXX 11061 35394 31997 61902 11145 21167 39595 40315 53003 77171 86010 333 21194
AAXX 11061 35406 NIL
AAXX 11061 35416 32997 11901 11178 21204 30149 40280 52003 80001 333 21205
AAXX 11061 35426 32999 10801 11186 21208 39981 40297 56002 80003 333 21227
AAXX 11061 35497 11998 50000 11147 21174 39468 40316 54000 60010 70171 80002 333 21200
AAXX 11061 35532 32998 71102 11114 21158 39777 40294 53013 87050 333 21153
AAXX 11061 35671 32998 00000 11222 21253 39864 40337 53006 333 21287
AAXX 11061 35700 11596 72801 11068 21092 30273 40248 53006 69930 77177 86510 333 21065
AAXX 11061 35746 31996 70403 11176 21202 30228 40301 57002 71022 83054 333 21218
AAXX 11061 35796 11997 01501 11096 21121 39862 40317 58001 69990 70471 333 21125
AAXX 11061 35849 32998 60701 11108 21136 30201 40291 53002 80008 333 21194
AAXX 11061 35925 NIL
AAXX 11061 35953 32999 70602 11154 21181 30160 40299 57001 83032 333 21200
AAXX 11061 35969 32999 60902 11104 21132 30130 40314 53015 80004 333 21220
AAXX 11061 36003 32997 61601 11180 21192 30143 40307 53003 82036 333 21233
AAXX 11061 36152 32998 80000 11152 21196 30105 40306 53001 8807/ 333 21205
AAXX 11061 36177 32997 71102 11109 21153 30048 40306 58004 82031 333 21166
AAXX 11061 36208 32999 70501 11064 21116 39312 40317 52004 80001 333 21113
AAXX 11061 36397 31998 61612 11078 21128 39714 40294 53001 73632 80004 333 21098
AAXX 11061 36428 31/93 90000 11136 21146 39821 40350 53002 74742 333 21221 95090
AAXX 11061 36535 32999 40000 11132 21184 39689 40358 53010 80001 333 21243
AAXX 11061 36639 32999 30000 11068 21134 39688 40311 58009 82031 333 21186
AAXX 11061 36821 31593 80000 11079 21093 39814 40323 54000 74842 889// 333 21081
AAXX 11061 36859 32999 30501 10000 21082 39518 40308 58003 80005 333 21070
AAXX 11061 36864 NIL
AAXX 11061 36870 32997 00201 10005 21064 39257 40277 58003 333 21041
AAXX 11061 38001 NIL
AAXX 11061 38062 31996 30601 11112 21132 30116 40288 57004 71040 80001 333 21167
AAXX 11061 38069 32998 63101 11073 21098 30082 40282 53001 80009 333 21127
AAXX 11061 38196 NIL
AAXX 11061 38198 NIL
AAXX 11061 38222 32998 00000 11090 21124 39729 40317 58003 333 21122
AAXX 11061 38232 NIL
AAXX 11061 38328 NIL
AAXX 11061 38334 NIL
AAXX 11061 38341 32999 20000 11017 21058 39474 40275 57006 80001 333 21095
AAXX 11061 38343 32998 00000 11007 21049 39420 40276 57004 333 21091
AAXX 11061 38439 NIL
AAXX 11064 91165 12466 20214 10217 20189 30148 40183 50008 69931 90553 333 10250 20211 555 91106
AAXX 11064 91182 11561 60410 10217 20211 30171 40175 53022 60011 795// 90553 333 10267 20217 555 91106
AAXX 11064 91190 32666 60611 10211 20161 30158 40177 53020 90554 333 10278 20194 91017 555 91106
AAXX 11064 91212 12566 20713 10272 20244 31360 40098 55008 60161 90554 555 91106
AAXX 11064 91285 31558 82806 10200 20180 30161 761// 90607 333 96010 555 91106
AAXX 11064 91245 32466 20714 10290 20240 30161 90558 555 91106
BBXX C6FM8 11064 99278 70800 41798 30724 10250 20222 40210 55010 7//00 83200 22273 04256 2//// 3//// 4//// 5//// 6//// 85230 ICE /////
BBXX 9HXC9 11064 99257 70771 41497 80606 10212 20194 40167 55003 76282 88240 22225 04256 20602 3//// 40802 5//// 6//// 80200 ICE /////
BBXX WE3806 11064 99453 70834 41/97 52314 11027 2//// 40274 56/// 70211 8//// 22272 00050 2//01 3//// 4//// 5//// 6//// 8//// ICE /////
BBXX C6VG7 11064 99251 70800 41598 61118 10240 2017/ 40177 57001 7//22 852// 22214 00270 20305 305// 4//// 5//// 6//// 80196 ICE /////
BBXX 3ECJ7 11064 99263 10560 415// 70609 10230 20092 40190 52010 7//// 87/1/ 22255 0//// 20101 3//// 40101 5//// 6//// 80150 ICE /////
BBXX ONFP 11064 99375 30181 43593 61736 10190 2016/ 40150 53010 76022 86363 22232 04207 20806 31717 40808 50808 6//// 80170 ICE /////
BBXX KIRH 11063 99255 70742 41898 30913 10244 20213 40162 57013 7//00 831// 22234 00211 20503 3//// 4//// 5//// 6//// 80222 ICE /////
BBXX C6XP7 11063 99234 70792 41298 40727 10250 20222 40150 54/// 7//21 821// 22254 00240 20302 308// 4//// 5//// 6//// 80230 ICE /////
BBXX WDF7020 11064 99434 70825 41/97 82217 1//// 2//// 40305 54/// 700// 8//// 22283 0//// 20201 3//// 4//// 5//// 6//// 8//// ICE /////
BBXX WCZ5238 11064 99068 51375 41998 31115 10250 20207 40133 52012 70200 83//3 22273 00258 20302 328// 40602 5//// 6//// 80220 ICE /////
AAXX 11061 45032 NIL
AAXX 11061 45035 36/// /3404 10150 21019 30176 40218 57001
AAXX 11061 45039 36/// /0303 10160 20001 30198 40213 57001
AAXX 11061 45044 36/// /3404 10179 20019 30118 40211 54000
AAXX 11061 45032 NIL
AAXX 11061 45035 36/// /3404 10150 21019 30176 40218 57001
AAXX 11061 45039 36/// /0303 10160 20001 30198 40213 57001
AAXX 11061 45044 36/// /3404 10179 20019 30118 40211 54000
AAXX 11061 38954 32999 01801 11031 21155 38028 48620 58007 333 21071
AAXX 11061 40703 12660 50000 11004 21027 39007 40320 51014 60001 82570 333 31106 70009 82640 85359
AAXX 11061 40712 12965 02604 11016 21054 38755 40322 52011 60001 333 3/111 43002 70021
AAXX 11061 40729 11560 62705 10000 21045 38388 40272 53013 69911 70282 84370 333 3/104 41999 70001 81930 83635
AAXX 11061 40736 11458 83304 10110 20079 30301 40276 52021 60021 71052 8532/ 333 31006 50051 70036 84718 81920 88458
AAXX 11061 40739 12560 30000 10038 21019 38713 40240 51016 60001 81300 333 30105 70000 81930 82635
AAXX 11061 40743 12970 02502 10030 21024 39087 40226 53013 60001 333 30104 70000
AAXX 11061 40762 12965 00000 10090 21136 38562 40204 53005 60001 333 30107 70000
AAXX 11061 40768 12962 03004 10005 21075 38310 40258 52015 60001 333 34109 70000
AAXX 11061 40769 12962 00802 10026 21061 38343 40228 52023 60001 333 30103 5//// 70000
AAXX 11061 40785 12960 00000 10066 21015 39134 40252 52018 60001 333 30102 5///1 70000
AAXX 11061 40809 12970 10000 10100 21154 38517 40196 50006 60001 333 30105 70000 81070
AAXX 11061 40821 12962 10000 10080 21102 38821 40233 52017 80001 333 30102 50271 70000 81070
AAXX 11061 40831 11908 03407 10106 20017 30248 40256 52022 60001 70644 333 30007 50421 70000
AAXX 11061 40703 12660 50000 11004 21027 39007 40320 51014 60001 82570 333 31106 70009 82640 85359
AAXX 11061 40712 12965 02604 11016 21054 38755 40322 52011 60001 333 3/111 43002 70021
AAXX 11061 40729 11560 62705 10000 21045 38388 40272 53013 69911 70282 84370 333 3/104 41999 70001 81930 83635
AAXX 11061 40736 11458 83304 10110 20079 30301 40276 52021 60021 71052 8532/ 333 31006 50051 70036 84718 81920 88458
AAXX 11061 40739 12560 30000 10038 21019 38713 40240 51016 60001 81300 333 30105 70000 81930 82635
AAXX 11061 40743 12970 02502 10030 21024 39087 40226 53013 60001 333 30104 70000
AAXX 11061 40762 12965 00000 10090 21136 38562 40204 53005 60001 333 30107 70000
AAXX 11061 40768 12962 03004 10005 21075 38310 40258 52015 60001 333 34109 70000
AAXX 11061 40769 12962 00802 10026 21061 38343 40228 52023 60001 333 30103 5//// 70000
AAXX 11061 40785 12960 00000 10066 21015 39134 40252 52018 60001 333 30102 5///1 70000
AAXX 11061 40809 12970 10000 10100 21154 38517 40196 50006 60001 333 30105 70000 81070
AAXX 11061 40821 12962 10000 10080 21102 38821 40233 52017 80001 333 30102 50271 70000 81070
AAXX 11061 40831 11908 03407 10106 20017 30248 40256 52022 60001 70644 333 30007 50421 70000
BBXX DDSB2 11063 99043 50815 41/97 21716 10195 20164 40130 58010 70111 82/3/ 22284 20202 80175
BBXX DFFA2 11063 99243 50749 41298 81612 10175 20116 40200 51030 70222 8/77/ 22284 00180 2//// 320// 40802 5//// 80140
BBXX 44255 11061 99473 70573 46/// /3211 10011 40142 52030 22200 00045 10504 70018 333 91213
BBXX C6XP7 11063 99234 70792 41298 40727 10250 20222 40150 54/// 7//21 821// 22254 00240 20302 308// 4//// 5//// 6//// 80230 ICE /////
BBXX KIRH 11063 99255 70742 41898 30913 10244 20213 40162 57013 7//00 831// 22234 00211 20503 3//// 4//// 5//// 6//// 80222 ICE /////
BBXX SKOZ 11064 99461 70454 43/93 91315 10068 40139 58111 22263 00079 2//// 4////
BBXX 44139 11061 99442 70571 46/// /2708 10090 40163 52007 22200 00087 10805 70025 333 91210
BBXX DGOS 11063 99355 70420 41497 61508 10188 20160 40315 58010 70322 86200 22224 299// 80170
BBXX A8OH4 11063 99290 71162 41597 53412 10145 20119 40160 57010 70222 84438 22244 04190 20401 331// 40602 80130
BBXX OYCY2 11064 99352 71231 43/96 /3408 10140 2012/ 40220 54000 7//// 8//// 22234 00160 2//// 3//// 4//// 5//// 6//// 80130 ICE /////
BBXX 9HA2064 11063 99369 71512 41797 51810 10150 20116 40290 54000 7//11 85131 22224 0//// 2//// 399// 4//// 5//// 6//// 80130 ICE /////
BBXX J8PR3 11063 99096 70598 41198 70609 10280 2025/ 40120 54000 70222 87293 22231 00290 20301 30606 40301 50301 6//// 80260 ICE /////
BBXX DDJS2 11064 99422 71663 41296 62634 10123 20064 40051 52070 70522 84618 22224 00130 20708 323// 40506 5//// 80095
BBXX J8AZ2 11063 99216 70701 43/// ///// 1//// 2//// 4//// 5//// 7//// 8//// 22211 0//// 2//// 3//// 4//// 5//// 6//// ICE /////
BBXX WJBJ 11063 99233 70720 41298 70721 10255 2021/ 40153 5//// 70222 877// 22273 00269 20504 308// 40706 5//// 6//// 80225 ICE /////
BBXX WHRN 11063 99328 71210 41698 32921 10128 2011/ 40175 50010 70200 83/// 22265 00161 2//// 3//// 4//// 5//// 6//// 80117 ICE /////
BBXX WDD3825 11064 99376 70472 41398 61918 10200 2019/ 40294 57020 70311 862// 22264 00200 2//// 3//// 4//// 5//// 6//// 80190 ICE /////
BBXX 9HXC9 11064 99257 70771 41497 80606 10212 20194 40167 55003 76282 88240 22225 04256 20602 3//// 40802 5//// 6//// 80200 ICE /////
BBXX C6FM8 11064 99278 70800 41798 30724 10250 20222 40210 55010 7//00 83200 22273 04256 2//// 3//// 4//// 5//// 6//// 85230 ICE /////
BBXX KABL 11064 99370 70748 41598 10117 10090 2005/ 40310 54000 7//00 811// 22224 00150 20803 303// 40803 5//// 6//// 80070 ICE /////
BBXX DHEE 11063 99449 70427 41297 81843 10125 20068 40200 58080 70311 887// 22264 00160 299// 80095
BBXX A8IP5 11063 99205 70738 41097 40510 10250 20250 40140 54000 70211 83128 22245 20703 305// 40802 5//// 80250
BBXX 46042 11061 99368 71224 46/// /2905 10109 40181 52003 90550 22200 00119 11604 20401 330// 41604 70020 333 91206 555 11050 22052 30500 43106 60549 289048 298036 312037 319038 318044 309041
BBXX 46089 11061 99459 71258 46/// /3608 10084 20048 40213 57003 90550 22200 00097 11404 20502 330// 41404 70022 333 91210 555 11087 22092 30537 43611 60549 000084 002084 005082 351084 352082 356076
BBXX PHIN 11064 99475 70597 41/98 43318 11012 21020 40178 52003 70200 8141/ 22233 00050 20403 81015
BBXX VRFO7 11064 99397 70407 41697 82205 10180 20146 40330 54000 70322 8/7// 22225 04210 20506 80160
BBXX C6VR4 11063 99193 70639 41/98 60714 10264 20205 40119 54000 70211 84462 22224 04277 20705 307// 41005 5//// 80225
BBXX WXJ63 11063 99611 71464 41/97 82705 11033 21052 40164 57/// 702// 8//// 222// 00042 2//// 3//// 4//// 5//// 6//// 8//// ICE /////
BBXX NWS0003 11064 99633 71670 43/// /2221 11010 21014 49734 5//// 7//// 8//// 222// 05017 2//// 3//// 4//// 5//// 6//// 8//// ICE /////
BBXX 44011 11061 99411 70666 46/// /3511 10066 20030 40251 51029 90550 22200 00101 10604 20604 3//// 41001 70022 333 91213 555 11118 22124 30543 41713 60549 349109 353105 002109 359106 359108 000111
BBXX WDF5483 11064 99440 70835 43/// /2020 11027 2//// 40257 5//// 7//// 8//// 22282 0//// 2//01 3//// 4//// 5//// 6//// 8//// ICE /////
BBXX VRZN7 11064 99066 51705 416// 60514 10270 20230 40090 51010 7//// 8633/ 22253 04290 21006 301// 4//// 5//// 85240
BBXX A8HJ8 11063 99012 11034 41397 80503 10262 20229 40108 52008 75022 85720 22200 20301 30000 80238
BBXX ONFE 11064 99029 11053 41095 81720 10220 2020/ 40110 54000 76396 8866/ 22213 00250 20403 304// 40910 5//// 6//// 80205 ICE /////
BBXX SLKQ 11061 99034 11057 43/97 80411 10274 40093 58012 22253 00280 2////4////
BBXX MCCN6 11064 99187 31024 41/98 /2309 10256 20239 40096 58002 70200 8/27/ 22233 00248 20401 317// 41007 5//// 80244
BBXX A8MV6 11063 99046 11064 41597 60126 10280 20237 40110 54000 70322 82762 22253 04280 20706 30499 41007 5//// 80250
BBXX C6HS4 11063 99175 30950 41397 81425 10260 20232 40089 5/070 76066 87777 22233 20705 80240
BBXX VNSZ 11064 99412 31464 46/// /2418 10181 20021 39994 40020 52005 22200 04197 85101
BBXX 3ECI3 11064 99420 31742 41598 70519 10150 20123 40176 56020 70211 83578 22253 00130 20402 309// 40904 80135
BBXX SHIP 11063 99055 31538 41798 53406 10295 20230 40065 55010 70322 84161 22284 00295 21801 80250
BBXX VRAE2 11063 99148 31580 41698 60508 10280 20244 40068 56014 75081 8546/ 22234 04305 20401 316// 40602 80255
BBXX VROC 11064 99104 31543 41598 73210 10310 20239 40079 58001 70311 84278 22283 20100 33513 40303 50202 80260
BBXX 9KWP 11063 99098 30953 41698 62615 10280 20237 40089 58005 70222 83233 22274 00280 20502 327// 40503 80250
BBXX VRZN7 11064 99066 51705 416// 60514 10270 2023/ 40090 51010 7//// 8633/ 22253 04290 21006 301// 4//// 5//// 85240
BBXX ZCBH7 11064 99042 11090 41597 40520 10272 20259 40119 53021 70322 8/252 22253 04282 20205 305// 40205 5//// 80263
BBXX C6TH9 11063 99175 51495 41698 31405 10260 2023/ 40150 54000 70211 82838 22200 00260 20100 3//// 4//// 5//// 6//// 80240 ICE /////
BBXX A8RL3 11061 99148 30737 41191 30905 10270 40100 54000 70200 834// 22213 00290 2//01 3//// 4//03 5////
BBXX PCCL 11063 99326 31525 41497 40508 10220 40020 57010 70222 844// 22212 04219 20501 308// 40702
BBXX 62023 11063 99514 70079 46/97 /2615 10085 2//// 40073 5//// 22200 10504 70021 555 70034 80019
BBXX SBLW 11063 99434 70175 43/98 73223 10135 40202 53010 22254 00147 2//// 4////
BBXX SKWI 11064 99496 70041 43/98 72425 10107 40120 56022 22540 00150 2//// 4////
BBXX HZZB 11063 99334 10254 41598 40209 10175 2013/ 40284 50004 70200 84100 22233 0//// 20401 326// 40602 5//// 6//// 80145 ICE /////
BBXX TFDRN 11064 99658 70212 46/// ///// 22200 10703 70016
BBXX TFBLK 11064 99657 70248 46/// ///// 22200 11210 70051
BBXX TFBKF 11064 99635 70202 46/// ///// 22200 10906 70028
BBXX TFHFN 11064 99642 70152 46/// ///// 22200 10808 70039
BBXX TFKGR 11064 99657 70136 46/// ///// 22200 10710 70050
BBXX TFGRS 11064 99663 70182 46/// ///// 22200 10706 70028
BBXX TFSTD 11064 99664 70234 46/// ///// 22200 10907 70034
BBXX TFGRV 11064 99638 70225 46/// ///// 22200 11110 70051
BBXX 62087 11061 99547 10068 46/// /9901 10088 20045 4//// 5//// 22230 00085
BBXX DBBH 11061 99482 70064 41498 72107 10106 20072 40132 57017 70311 875// 22252 04128
BBXX LMEL 11061 99603 10053 43/// /1403 10035 20011 49996 5//// 222/2 04090 1//// 3//// 4//// 5////
BBXX LGWS 11061 99312 70101 43/// /0410 10160 20119 40207 5//// 222/0 04167 1//// 3//// 4//// 5////
BBXX LF4H 11064 99596 10022 46/97 11716 10065 20056 49957 57033 8//// 22200 06091 10705 70025 333 91122
BBXX LDGJ 11061 99603 10053 43/// /1403 10038 20004 40000 5//// 222/1 04090 1//// 3//// 4//// 5////
BBXX UANA 11061 99702 10327 41/94 81004 10003 49952 57001 70221 80200 22212 04063 20201
BBXX A8MW6 11064 99347 70155 41598 23014 10170 20137 40235 57010 70100 824// 22224 00220 2//01 308// 4//02 5//// 80150
BBXX UCJU 11061 99699 10421 41/98 91310 11019 49998 57048 70222 22262 20402 30000
BBXX UGGA 11061 99690 10412 41/95 81513 10025 49967 57030 78582 889// 22221 20605
BBXX NWS0020 11064 99379 10236 43/// /0403 10110 20074 40246 5//// 7//// 8//// 222// 04178 2//// 3//// 4//// 5//// 6//// 8//// ICE /////
BBXX UFJN 11061 99720 10320 41/98 81408 11020 49977 57010 70222 88/// 22200 0//// 20301
BBXX TBWAA05 11063 99596 10235 41597 62208 10040 21009 49941 53030 70322 83541 22263 2//// 3//// 4//// 5//// 80020 00/87 1/764 5989300/ 871/7 64598 93931/65 1/626 /807
BBXX PDHW 11063 99512 10018 41699 31808 10092 20047 40184 57041 70200 829/2 22213 2//// 80070
BBXX UCSJ 11061 99685 10395 41595 82213 11032 49952 56030 78688 889// 22271 20403
BBXX UCKG 11061 99568 10055 41/97 92710 10080 40047 57024 70222 22273 00110 20403
BBXX UCAC 11061 99563 10075 41/97 62717 10070 40069 52030 70222 89/// 22252 00110 20807 33200 40608
BBXX DDVK2 11063 99338 10272 41498 13404 10165 20075 40278 53008 70100 81100 22274 00185 2//// 80116
BBXX DGWD2 11063 99364 70015 41/98 32618 10175 20134 40180 56005 70200 82/// 22224 00170 2//// 80150
BBXX DHDH 11064 99138 10556 41697 60528 10260 20218 40145 51005 70311 86440 22225 00250 20404 305// 40304 80230
BBXX 2AKI2 11063 99330 30376 41497 81034 10192 20164 40168 51008 78022 887// 22224 00238 20404 310// 40706 5//// 80175
BBXX 2ALE5 11063 99078 70142 41698 23411 10285 20225 40091 53002 70200 824// 22275 20401 80244
BBXX UCKZ 11061 99361 30187 42598 31611 10180 20116 40127 53019 83200 22243 00202 20504 320// 40908
BBXX ONFP 11064 99375 30181 43593 61736 10190 2016/ 40150 53010 76022 86363 22232 04207 20806 31717 40808 50808 6//// 80170 ICE /////
BBXX 3ECJ7 11064 99263 10560 415// 70609 10230 20092 40190 52010 7//// 87/1/ 22255 0//// 20101 3//// 40101 5//// 6//// 80150 ICE /////
BBXX HZGN 11063 99206 10689 41/98 10616 10252 20103 40164 58009 70200 8///4 22234 02261 20301 306// 40602 5//// 80163
BBXX DBLK 11061 99538 30000 41497 82806 11001 21011 40035 52002 70222 885// 22242 04000 20301 324// 40905
BBXX VVML 11063 99222 10681 41098 00209 10024 20127 40170 51020 70000 80000 22233
BBXX PHQW 11063 99014 10042 41397 83606 10263 20234 40095 53007 78192 887// 22223 00280 2//// 318// 40602 80242 90207
BBXX ATSS 11063 99267 10531 41998 13205 10250 20203 40248 50301 70100 8000/ 22273 02251
BBXX NWS0029 11064 99153 70234 43/// /0210 10237 20183 40130 5//// 7//// 8//// 222// 04261 2//// 3//// 4//// 5//// 6//// 8//// ICE /////
BBXX A8UL5 11063 99242 30520 41898 30509 10260 20210 40123 52023 70100 81181 2229/ 20302 3//// 4//// 5//// 80225
BBXX AUTQ 11064 99281 10333 42998 03014 10190 20124 40126 54001 70303 89/// 22274 00220
BBXX DFNB2 11063 99187 10397 41397 20108 10270 20228 40155 52020 70500 82700 22244 00270 20502 80240
BBXX PCIH 11063 99145 70177 41597 53615 10250 20190 40093 58007 70500 22284 00300 20302 335// 40603 80209
BBXX A8IM7 11064 99226 11248 41297 80520 10220 20190 40170 51180 76166 886// 22264 04230 20810 302// 41109 5//// 80200
BBXX MIBR 11063 99220 11142 41998 00612 10150 20037 40216 50000 70200 80000 22200 00200 20602 308// 40903 5//// 80098
BBXX DPCK 11063 99088 11082 41396 70445 10250 20207 40090 57010 70222 8672/ 22212 00240 20810 305// 40910 5//// 80220
BBXX TBWUK14 11063 99217 11213 41/97 80535 10210 20188 40173 55020 76222 88/// 22281 06260 20710 305// 40709 80195
BBXX DGBE 11063 99341 11378 41497 53540 10110 20082 40190 53020 70111 84115 22254 00200 21205 330// 41006 80095
BBXX A8EH7 11064 99317 11261 41597 83420 10120 20029 40285 57015 7//22 8777/ 22283 00200 20506 33499 40805 5//// 80080
BBXX DGDD 11061 99328 11579 41297 80411 10180 20148 40150 56030 76365 886// 22264 00200 2//03 304// 42006 5//// 80160
BBXX PBOF 11063 99389 11181 41995 02413 10060 21012 40260 58020 710// 80000 22200 04080 20201 30000 80030 90207
BBXX PHPP 11064 99082 10716 41597 70517 10313 20234 40096 50008 70300 8717/ 22224 00300 2//02 312// 40702 80255
BBXX DMRX 11064 99470 11570 41298 82411 10014 21031 40017 56015 70322 82778 22214 00050 20102 32335 40608 50506 81003
AAXX 11061 40716 12660 63002 10010 21033 38990 40297 52019 60001 82460 333 31110 79999 82640 83359
AAXX 11061 40719 11457 82402 10072 20054 30324 40313 52019 60051 76166 8532/ 333 31006 50081 70262 81915 84620 88557
AAXX 11061 40721 11402 82903 10042 20042 39705 40263 52018 60011 75165 8562/ 333 31002 50541 70010 85715 88457
AAXX 11061 40858 11950 20202 10166 20083 30206 40217 53014 60001 70500 80002 333 30008 50501 70000 82069
AAXX 11061 40872 12960 03203 10196 20041 30185 40190 52006 60001 222// 00224 20301 333 30010 50321 70000
AAXX 11061 40877 12960 00000 10136 21074 39620 40173 52018 60001 333 30002 50261 70000
AAXX 11061 40898 12960 00402 10244 21009 30164 40173 52014 60001 222// 00248 11100 333 30016 50531 70000
BBXX 41046 11061 99238 70683 46/// /0607 10249 20215 40154 56012 90550 22200 00260 10905 20603 300// 40904 70023 333 91208 555 11071 22074 30518 40609 60549 063066 062065 059073 060073 063064 066072 80608 90525
BBXX 42364 11061 99291 70881 46/// /0411 10144 20061 40264 58004 90600
BBXX 41041 11061 99142 70460 46/// /1206 10266 20231 40128 57019 90550 22200 00267 10603 20502 3//// 40603 70017 333 91208 555 11063 22067 30511 41110 60549 115058 118062 118067 106075 102080 106072 81109 90511
BBXX 42363 11061 99282 70892 46/// /0612 10156 20078 40264 50000 90600 333 91212
BBXX 42362 11061 99278 70907 46/// /0411 10161 20072 40275 50007 90600
BBXX 46083 11061 99582 71380 46/// /3103 10039 20019 40219 52004 90550 22200 00063 10905 20401 300// 40905 70023 333 91205 555 11033 22035 30458 43006 60549 309031 303036 302042 303040 305042 299047 83006 90458
BBXX 44022 11061 99409 70737 46/// ///04 10009 21096 40333 51014 90600 22200 00096 333 91206 555 11046 22046
AAXX 11064 60351 12960 60000 10110 20068 40184 56007 60004 83032 333 00700 20088 83359 84070 95990
AAXX 11064 60355 12960 42210 10136 20067 40189 53003 60004 84030 333 0//00 20110 84360 95990
AAXX 11064 60445 12960 63205 10040 20011 39046 48520 57001 60004 82032 333 00000 20034 82360 85073 95990
AAXX 11064 60468 12560 70408 10060 20012 39260 48524 58002 60004 81132 333 00000 20036 81826 85360 95900
AAXX 11064 60507 12960 00000 10032 20027 40217 56002 60004 333 00100 20032 95990
AAXX 11064 60511 12965 00000 10011 21005 39075 48506 56004 60004 333 05500 20001 95990
AAXX 11064 60535 11970 10000 10048 20025 38860 48523 56012 60004 700// 81030 333 00300 20040 81358 95900
AAXX 11064 60536 12960 01504 10047 20023 39330 48511 58002 60004 333 05300 20021 95990
AAXX 11064 60549 11960 01510 10030 20020 38937 48532 58013 60004 700// 333 00000 20028 95990
AAXX 11064 60550 12960 00000 10020 21006 38691 48528 56016 60004 333 05300 20015 95990
AAXX 11064 60555 12970 71006 10090 20060 40229 55001 60004 85032 333 00600 20084 85360 84073
AAXX 11064 60559 12660 80000 10086 20051 40229 55001 60004 83232 333 20080 83840 85360
AAXX 11064 60581 12960 60807 10106 20036 40211 58007 60004 82032 333 00800 20099 82360 85073
AAXX 11064 60602 11960 50000 10091 20035 40218 55001 60004 700// 85030 333 0//00 20091 85360 95990
AAXX 11064 60607 NIL
AAXX 11064 60640 12960 21212 10090 20034 40212 56005 60004 80002 333 00800 20085 82073
AAXX 11064 60690 NIL
AAXX 11064 60360 12960 61903 10091 20074 40200 53002 60004 82032 333 00700 20085 82360 85073 95990
AAXX 11064 60390 12960 19902 10078 20072 40208 53002 60004 81032 333 00400 20068 81360 95990
AAXX 11064 60402 12965 62406 10105 20055 40199 55000 60004 85032 333 00700 20100 85359 95900
AAXX 11064 60419 12965 71004 10060 20011 40218 54000 60004 83037 333 00400 20058 83360 87270 95990
AAXX 11064 60475 12960 70000 10045 20008 39266 48527 55003 60004 82032 333 00000 20025 82360 86073 95990
AAXX 11064 60490 12958 30000 10067 20063 40200 55003 60004 82032 333 00100 20061 82360 95990
AAXX 11064 60525 12660 80000 10084 20041 40220 55005 60004 8223/ 333 05100 20079 82840 87360 95990
AAXX 11064 60531 12960 22207 10078 20074 40212 55003 60004 82030 333 00200 20064 82360 95990
AAXX 11064 60566 12960 60104 10091 20038 40229 55010 60004 83032 333 00500 20083 83360 84070
AAXX 11064 60571 NIL
AAXX 11064 60580 NIL
AAXX 11064 60590 12660 73106 10104 20046 40212 53002 60004 82232 333 0//00 20073 82840 83360 83070
AAXX 11064 60611 12960 21108 10060 20023 40251 53004 60004 80002 333 00400 20059 82073
AAXX 11064 60620 12660 53606 10092 21016 40215 53001 60004 81232 333 0//00 20090 81846 83365
AAXX 11064 60630 12960 60000 10067 21028 40207 53006 60004 83232 333 00100 20055 83362 84075
AAXX 11064 60656 12965 70000 10108 20012 40194 53002 60004 85082 333 00700 20103 85360 84073
AAXX 11064 60670 12970 00000 10033 20011 39119 48551 52002 60004 333 00000 20018 95900
AAXX 11064 60680 12970 20712 10095 21015 38677 48550 58005 60004 80002 333 00500 20098 83073 95900
BBXX A8NO8 11064 99030 11007 41/98 70714 10310 20257 40095 56035 7//11 8/2// 22275 04330 20303 30000 80270
AAXX 11064 60351 12960 60000 10110 20068 40184 56007 60004 83032 333 00700 20088 83359 84070 95990
AAXX 11064 60355 12960 42210 10136 20067 40189 53003 60004 84030 333 0//00 20110 84360 95990
AAXX 11064 60445 12960 63205 10040 20011 39046 48520 57001 60004 82032 333 00000 20034 82360 85073 95990
AAXX 11064 60468 12560 70408 10060 20012 39260 48524 58002 60004 81132 333 00000 20036 81826 85360 95900
AAXX 11064 60507 12960 00000 10032 20027 40217 56002 60004 333 00100 20032 95990
AAXX 11064 60511 12965 00000 10011 21005 39075 48506 56004 60004 333 05500 20001 95990
AAXX 11064 60535 11970 10000 10048 20025 38860 48523 56012 60004 700// 81030 333 00300 20040 81358 95900
AAXX 11064 60536 12960 01504 10047 20023 39330 48511 58002 60004 333 05300 20021 95990
AAXX 11064 60549 11960 01510 10030 20020 38937 48532 58013 60004 700// 333 00000 20028 95990
AAXX 11064 60550 12960 00000 10020 21006 38691 48528 56016 60004 333 05300 20015 95990
AAXX 11064 60555 12970 71006 10090 20060 40229 55001 60004 85032 333 00600 20084 85360 84073
AAXX 11064 60559 12660 80000 10086 20051 40229 55001 60004 83232 333 20080 83840 85360
AAXX 11064 60581 12960 60807 10106 20036 40211 58007 60004 82032 333 00800 20099 82360 85073
AAXX 11064 60602 11960 50000 10091 20035 40218 55001 60004 700// 85030 333 0//00 20091 85360 95990
AAXX 11064 60607 NIL
AAXX 11064 60640 12960 21212 10090 20034 40212 56005 60004 80002 333 00800 20085 82073
AAXX 11064 60690 NIL
AAXX 11061 08521 12470 13405 10172 20101 30172 40243 55007 69912 81800 333 20160 30/// 55072 81816
AAXX 11061 08524 12465 43501 10137 20110 30148 40247 57004 60022 84800 333 20132 30008 5//// 55063 21128 84815
AAXX 11064 91943 16/// /0308 10273 20223 30136 40138 51016 69944 333 20254 58014
AAXX 11064 91945 06/// /0116 10258 20238 30131 40136 53018 60161 333 60027 555 58033 60244
AAXX 11061 14258 11660 80301 10052 20048 30010 40201 52010 69982 76126 8352/ 333 20052 32005 70012
BBXX 46207 11061 99509 71299 46/// /3310 10071 40227 54000 22200 00086 11605 70027 333 91212
BBXX 41053 11061 99185 70661 46/// /0606 10262 40111 90550 333 91207
BBXX 41053 11061 99185 70661 46/// /0606 10263 40112 90540 333 91207
BBXX 41053 11061 99185 70661 46/// /0605 10261 40110 58009 90600 22200 00275 11003 70016 333 91207
BBXX 44067 11061 99384 70770 46/// /0805 10023 40339 51009 90600
AAXX 11064 78792 32460 83104 10249 20224 30082 40095 57009 8497/ 333 063// 10315 20242 32/// 59006 81917 83817 86359
AAXX 11061 01180 11X15 93602 11007 21014 39900 49957 56008 60052 77272 333 21013 70047 91105
AAXX 11061 40701 12962 02102 11038 21083 38666 40326 53011 60001 333 3/112 43001 70006
AAXX 11061 40704 11965 20000 11072 21081 38681 40327 52013 69901 70172 82040 333 3/115 43018 70106 82358
AAXX 11061 40708 11356 60000 11018 21020 38732 40297 52011 69971 71072 84670 333 3/104 43007 70072 83708 83630 85358
AAXX 11061 40710 12665 89901 11032 21055 38378 40307 52016 60001 8352X 333 3/110 47009 70086 83635 88459
AAXX 11061 40713 11625 70000 11030 21047 38740 40316 52019 60001 71021 83471 333 3/107 47002 70043 83640 85360
AAXX 11061 40731 12665 13602 10060 21021 38784 40250 52012 60001 81400 333 30106 79999
AAXX 11061 40740 12960 22702 11010 21034 38749 40245 52015 60001 80002 333 3/108 47003 70000 82070
AAXX 11061 40747 11958 01801 11006 21058 38697 40284 52021 60001 70500 333 34109 70000
AAXX 11061 40757 12562 21701 10070 21003 38923 40222 52014 60001 82100 333 30102 70000 82830
AAXX 11061 40763 12965 01202 10096 21111 38931 40203 51003 60001 333 30/// 70000
AAXX 11061 40782 12962 00000 10066 21041 38929 40241 52017 60001 333 30105 5//// 70000
AAXX 11061 40783 12965 03504 10048 21039 38012 40201 52017 60001 333 30001 5//// 70000
AAXX 11061 40789 12965 00000 10084 21038 39233 40224 52026 60001 333 31102 50151 70000
AAXX 11061 40798 12960 12408 10088 21061 37988 40194 50008 60001 81400 333 30102 70000
AAXX 11061 40818 12970 13602 10080 21052 38013 40197 53009 60001 80030 333 30102 5///1 70000
AAXX 11061 40827 12970 30000 10094 21244 38864 40254 50003 60001 80004 333 30106 70000 83070
AAXX 11061 40836 12662 10000 10048 21062 38244 40257 52004 60001 81100 333 30107 5///1 70000
AAXX 11061 40851 12960 10000 10072 21108 38305 40217 52012 60001 81500 333 30110 5//// 70000 81645
AAXX 11061 40853 12965 00000 10120 21133 37790 40182 51008 60001 333 30103 5//// 70000
AAXX 11061 40854 12960 30702 10142 21109 38964 40169 52015 60001 80006 333 30001 50401 70000 83270
AAXX 11061 40857 12960 20702 10172 20113 30207 40217 52011 60001 80002 222// 00190 20301 333 30008 50161 70000 82070
AAXX 11061 40859 12965 00000 10094 21054 38756 40219 53008 60001 333 30105 50271 70000
AAXX 11061 40878 12965 00000 10138 21272 38884 40235 51006 60001 333 30102 5///1 70000
AAXX 11061 40879 12970 10000 10183 21199 39521 40205 51004 60001 80001 333 30001 50411 70000 81070
AAXX 11061 40883 12960 00000 10232 20046 30163 40186 51011 60001 222// 00222 20600 333 30011 50371 70000
AAXX 11061 01262 46/// /0408 10021 21052 333 20016 91112
AAXX 11061 01393 16/// /2702 11047 21067 39169 49978 53008 6//// 333 21076 91106
AAXX 11061 01144 41786 80404 11003 21016 70382 8332/ 333 21003 91114
BBXX 46207 11061 99509 71299 46/// /3310 10071 40227 54000 22200 00086 11605 70027 333 91212
BBXX 3ERR2 11064 99635 10053 43/// /0818 10044 49981 57005 22200 11008 70039 333 91121
BBXX LF3F 11064 99643 10078 43/// /0216 10043 21035 49982 52009 22200 04092 10807 70035 333 91127
BBXX LF3N 11064 99653 10073 41597 50515 10039 21010 49987 52011 72282 8//// 22200 00092 10808 70042
BBXX LF4B 11064 99606 10037 47/98 /1809 10051 49980 57013 761// 22200 00061 10805 70027 333 91119
BBXX LF4C 11064 99584 10019 41297 82320 10079 20072 49966 57028 761// 89/// 22200 00076 10705 70023 333 91125
BBXX LF5T 11064 99660 10081 43/// /0319 10048 21030 49979 52005 22200 06083 10807 70035 333 91133
AAXX 11061 01441 16/// /0302 11079 21092 39019 40030 53005 60002 333 21111 70003 91105
AAXX 11064 78792 32460 83104 10249 20224 30082 40095 57009 8497/ 333 063// 10315 20242 32/// 59006 81917 83817 86359
AAXX 11063 87480 32965 20504 10229 20177 30046 40076 58005 80004 333 56005 82070
AAXX 11063 87532 11970 03613 10208 20155 39904 40067 56015 60021 70198
AAXX 11064 87344 32960 03204 10212 20121 39530 40055 57009
AAXX 11064 87349 31965 03602 10208 20140 39680 40058 51007 70500
AAXX 11064 87371 32962 00905 10228 20170 30064 40085 58003
AAXX 11064 87374 32965 00000 10201 20151 39994 40080 54000
AAXX 11064 87395 32965 00000 10202 20129 30044 40088 55001
AAXX 11064 87418 32765 31812 10241 20088 39302 40062 52020 83500 333 56500 83650
AAXX 11064 87436 NIL
AAXX 11064 87448 NIL
AAXX 11064 87453 32565 40512 10220 20129 39590 40057 52009 71322 82970 333 56550 57951 82930
AAXX 11064 87467 32970 20505 10183 20154 39944 40074 50008 82070 333 56090 82360
AAXX 11064 87497 NIL
AAXX 11064 87506 NIL
AAXX 11064 87509 11670 71406 10181 20122 39270 40094 52020 69901 72582 83960 333 56000 57913 83635 81940 84360 96113
AAXX 11064 87534 11660 61814 10209 20161 39921 40075 52001 69901 71396 82920 333 56550 57943 82940 86550
AAXX 11064 87548 32660 81810 10222 20152 39998 40090 52013 8557/ 333 56669 85635 88360
AAXX 11064 87576 32960 51103 10218 20166 30073 40096 57004 81076 333 56076 81360 84270
AAXX 11064 87582 32960 13608 10237 20175 30090 40098 56004 80002 333 56006 81070
AAXX 11064 87585 32960 20505 10240 20177 30061 40090 56009 81031 333 56016 81360
AAXX 11061 01476 16/// /3301 11003 21028 30013 40019 53017 6//// 333 21006 91105
AAXX 11061 01488 16/// /2701 11097 21108 60002 333 21103 4/020 70000 91104
AAXX 11061 08501 NIL
AAXX 11061 08505 NIL
AAXX 11061 08509 11460 72806 10160 20144 30216 40281 57006 69902 70261 878// 333 20154 50013 55058 82818 85630
AAXX 11061 08512 11465 63005 10159 20154 30192 40277 57008 69912 78081 86800 333 20142 31013 5//// 55043 20766 82810 88620
AAXX 11061 08515 11475 63104 10154 20148 30165 40287 56003 69912 72052 86800 333 20150 30014 50244 81811 86641 910// 911//
AAXX 11061 08533 12/// /3304 10143 20103 30181 40210 52001 69942 333 20121 30009 5//// 55021 20530 91006 91108
AAXX 11061 08541 12/// /2905 10131 20102 30086 40205 54000 69912 333 20117 30009 5//// 55003 20336 91109
AAXX 11061 08545 11560 10302 10085 20066 30106 40190 52009 60032 70111 81500 333 20079 30005 50084 55012 20336 81632
AAXX 11061 08548 12/// /2601 10108 20104 39983 40189 52010 60112 333 20099 30010 5//// 55006 20276
AAXX 11061 08554 32665 53001 10114 20093 30201 40211 52002 85500 333 20113 30012 5//// 55035 20593 85644
AAXX 11061 08558 12/// /2503 10079 20079 39899 40198 52001 69922 333 20051 30003 5//// 55000 20197
AAXX 11061 08560 12/// /0401 10068 20063 39425 40190 52005 60062 333 20067 30007 5//// 55000 20183
AAXX 11061 08567 12/// /0000 10062 20060 39524 40196 52003 60042 333 20062 30006 5//// 55002 20196
AAXX 11061 08570 12/// /0801 10066 20066 39732 40198 52002 60022 333 20063 31006 5//// 55000 20134
AAXX 11061 08575 12/// /0000 10040 20036 39375 40201 54000 69912 333 20040 30003 5//// 55001 20233
AAXX 11061 08579 NIL
AAXX 11061 22165 11496 81008 11044 21057 39934 49996 56016 69920 77172 8872/ 333 21048
AAXX 11061 22676 11456 81404 11047 21067 39973 40052 55002 69970 77173 8872/ 333 21065
AAXX 11061 22954 11480 82005 11004 21019 39796 40046 52008 60020 73632 887// 333 21031 85710
AAXX 11061 23405 11480 81306 11072 21097 30006 40108 57016 69900 73632 885// 333 21101 88616
AAXX 11061 23412 32599 81305 11062 21097 30055 40155 57015 885// 333 21076 88622
AAXX 11061 23803 32699 81503 11096 21117 39996 40184 58012 885// 333 21105 88636
AAXX 11061 27066 11398 81703 11047 21057 39939 40121 53004 60020 70273 888// 333 21067 88707
AAXX 11061 27083 11450 81703 11073 21086 39921 40152 54000 69900 77172 885// 333 21093
AAXX 11061 27113 12560 82005 10000 21033 39897 40043 53013 8333/ 333 21011
AAXX 11061 27242 32468 82602 10000 21008 39962 40091 52012 60030 70282 889// 333 21020 88713
AAXX 11061 27329 11956 70000 11033 21034 39970 40097 52009 60040 71011 85031 333 21013
AAXX 11061 27355 11496 81803 11012 21018 39960 40126 53002 60020 71073 885// 333 21033
AAXX 11061 27373 31998 81606 11053 21074 39932 40157 56002 77172 8807/ 333 21090
AAXX 11061 27665 31996 81503 11048 21072 39883 40161 57009 77172 8802/ 333 21068
AAXX 11061 27835 /1321 81902 10004 21002 39971 40130 53001 60040 71072 886// 333 21001 88707
AAXX 11061 28009 32998 81602 11105 21125 39998 40219 57003 8807/ 333 21109
AAXX 11061 28411 32997 61502 11146 21166 30082 40292 53023 86010 333 21167
AAXX 11061 28418 32967 11148 21164 30090 40269 57010 87030 333 21152
AAXX 11061 22282 315// 81410 11040 21052 30009 40017 57018 73632 885// 333 21041
AAXX 11061 22438 NIL
AAXX 11061 22471 11473 81806 11052 21073 39983 40007 57016 69920 77173 8802/ 333 21055 88518
AAXX 11061 22563 NIL
AAXX 11061 22641 NIL
AAXX 11061 22695 11496 81706 11062 21077 39939 40096 56001 69900 77173 8652/ 333 21082 86617
AAXX 11061 22867 NIL
AAXX 11061 22939 11697 71806 10001 21025 39861 40023 52011 60010 70272 875// 333 21014 87640
AAXX 11061 22996 11597 82104 11073 21098 39960 40156 57005 69900 77172 8552/ 333 21092
AAXX 11061 23324 32983 72202 11050 21113 30100 40180 57009 87070 333 21118
AAXX 11061 27051 11396 81505 21017 39909 40076 53011 60040 70272 8655/ 333 21048 84708
AAXX 11061 27225 12464 62102 11006 21054 39941 40073 52005 60040 86500 333 21013 86619
AAXX 11061 27252 11459 81804 11012 21017 39923 40110 53008 60010 71072 885// 333 21063 88617
AAXX 11061 27333 12480 81801 11006 21010 39938 40097 52006 60040 885// 333 21013 47005
AAXX 11061 27369 11595 81703 11038 21043 30005 40146 57003 60010 77172 8802/ 333 21063 88521
AAXX 11061 27393 31496 81402 11109 21122 30038 40215 57007 71022 886// 333 21116
AAXX 11061 27479 11999 81202 11047 21075 30032 40170 57005 69900 70232 8807/ 333 21089
AAXX 11061 27532 11395 71802 11001 21007 39895 40110 50001 60040 71022 86550 333 21006 86709
AAXX 11061 27648 11496 81602 11005 21014 39957 40127 57007 60020 78587 889// 333 21013 88913
AAXX 11061 27675 31597 71507 11071 21084 30008 40184 57009 73632 84550 333 21077
AAXX 11061 27679 31598 81707 11086 21097 39967 40200 57005 73632 885// 333 21100 88623
AAXX 11061 28214 32999 81002 11165 21178 30026 40255 54000 82047 333 21163
AAXX 11064 91348 11472 80810 10258 20227 30030 40083 53002 60041 78082 85271 333 56299 70226 555 91106
AAXX 11061 34560 31396 81905 11015 21024 30075 40246 57004 71022 886// 333 21022 47002 88708
AAXX 11061 34720 32599 71909 10027 20011 30166 40206 57009 86620 333 20010
AAXX 11061 34730 32597 61904 10030 20003 30125 40219 57009 83531 333 21004
AAXX 11061 34740 32996 01301 11014 21023 30149 40249 57014 333 21029
AAXX 11061 34824 32997 01703 10045 20023 30209 40214 57007 333 20015
AAXX 11061 34858 31996 32102 11008 21022 30156 40267 56005 71011 80001 333 21028
AAXX 11061 34866 32998 82702 11001 21023 30282 40273 53002 8007/ 333 21001
AAXX 11061 34880 11396 82902 11003 21007 30292 40265 52007 69900 77172 8672/ 333 21019 88408
AAXX 11061 37018 32698 81406 10083 20033 30185 40261 57003 86902 333 20033
AAXX 11061 37054 32998 03301 11050 21056 39889 40292 57004 333 21067
AAXX 11061 37472 32997 00301 10035 20020 30308 40285 52003 333 20004
AAXX 11064 78792 32460 83104 10249 20224 30082 40095 57009 8497/ 333 063// 10315 20242 32/// 59006 81917 83817 86359
AAXX 11064 48327 32560 82203 10250 20195 39804 40161 57020 86876 333 58020
AAXX 11064 91348 11472 80810 10258 20227 30030 40083 53002 60041 78082 85271 333 56299 70226 555 91106
AAXX 11064 48327 32560 82203 10250 20195 39804 40161 57020 86876 333 58020
AAXX 1106/ 89314 46/// ///// 11138 38099 4//// 5////
AAXX 11064 48358 32962 00000 10225 20093 39958 40136 56075 333 59033
AAXX 11064 64500 11358 81404 10240 20233 30083 40096 60214 71796 8392/ 333 02561 20250 50531 55090 58001 83608 81920 85630 88460 94948 95838
AAXX 11064 64501 NIL
AAXX 11064 64507 NIL
AAXX 11064 64510 NIL
AAXX 11064 64550 NIL
AAXX 11064 64551 32360 80000 10248 20236 30078 40107 885// 333 0//00 20235 50104 55/// 59001 83606 88623
AAXX 11064 64556 NIL
AAXX 11064 64570 11120 81803 10209 20209 39614 40126 60374 79596 8692/ 333 02163 20209 50124 55/// 58006 83703 85611 82923 88460 94959 95839
AAXX 11060 67586 31558 70904 10220 20190 38786 48509 70522 81538 333 20173 50661 55049 58000 81623 84359 87276 555 10277 7//92
AAXX 11061 50844 32962 03405 11009 21144 40187 57010 333 21189
AAXX 11061 50854 32970 02505 11043 21134 40185 57010 333 21168
AAXX 11061 50968 32662 72204 11062 21091 40192 57012 875// 333 21103
AAXX 11061 51379 32970 62501 11040 21129 40348 57007 80002 333 00000 21165
AAXX 11061 51467 32980 71603 11056 21162 38306 57014 80002 333 05251 21136
AAXX 11061 51495 32980 21401 11023 21175 40369 57007 80002 333 05251 21096
AAXX 11061 53480 32980 02502 11030 21115 40324 57017 333 21157
AAXX 11061 53673 32961 00401 11008 21107 40327 57030 333 21113
AAXX 11061 53698 32968 01602 10109 21074 40258 57029 333 20000
AAXX 11061 53898 32968 61802 10078 21012 40271 57028 80002 333 21056
AAXX 11061 54308 32980 03404 10036 21120 40267 57016 333 21104
AAXX 11061 54602 32968 01602 10104 21069 40253 57027 333 21051
AAXX 11061 54725 32965 02505 10081 21072 40267 57027 333 21020
AAXX 11061 54751 31958 02510 10056 21005 40256 57018 71000 333 20013
AAXX 11061 54916 32963 02002 10070 21063 40289 57031 333 21065
AAXX 11061 57014 32965 71402 10006 21089 40344 57035 80002 333 05551 21089
AAXX 11061 57025 32970 72702 10021 21114 40339 57031 80002 333 21069
AAXX 11061 57046 32974 73401 11036 21195 37977 57018 80002 333 05306 21097
AAXX 11061 58208 32972 02002 10082 21079 40301 57030 333 21043
AAXX 11064 89022 46/// /1903 11120 21162 39775 49813 52012
AAXX 11064 89062 46/// /2404 10007 21023 39649 49689 57007 333 55008
AAXX 11064 87078 NIL
AAXX 11064 87244 NIL
AAXX 11064 87393 NIL
AAXX 11064 87416 32665 61413 10220 20142 39350 40062 51017 86500 333 56400 86635
AAXX 11064 87563 NIL
AAXX 11064 87640 NIL
AAXX 11064 87688 NIL
AAXX 11064 87774 NIL
AAXX 11064 87852 NIL
AAXX 11064 87896 NIL
AAXX 11063 NIL
AAXX 11064 87593 NIL
AAXX 11064 87623 32980 21806 10206 20139 39861 40077 52007 82030 333 56060 82360
AAXX 11064 87641 12965 80504 10175 20153 39917 40085 57017 60011 8807/ 333 56069 88360
AAXX 11064 87645 11265 80505 10172 20167 39888 40088 58013 60191 70292 886// 333 56299 88705
AAXX 11064 87648 NIL
AAXX 11064 87692 41560 73412 10175 20153 30066 40091 56048 72992 84520 333 56670 84625 88656
AAXX 11064 87715 NIL
AAXX 11064 87750 31959 12908 10208 20140 39962 40057 50000 70400 81070 333 56060 81360
AAXX 11064 87765 NIL
AAXX 11064 87784 NIL
AAXX 11064 87791 NIL
AAXX 11064 87800 NIL
AAXX 11064 87803 32580 80000 10088 20007 39210 40125 52005 887// 333 56699 88730
AAXX 11064 87828 31665 62310 10190 21036 30050 40101 52011 70422 83807 333 56000 82835 83270
AAXX 11064 87860 31975 22713 10122 20002 30020 40074 53007 70711 81046 333 56066 57385 81360
AAXX 11064 87904 NIL
AAXX 11064 87909 NIL
AAXX 11064 87925 32680 42712 10066 21027 39984 40007 51001 81570 333 56600 81640 83360
AAXX 11064 87938 NIL
AAXX 11063 87016 32962 023606 10240 20219 39634 40026 58011
AAXX 11064 87022 32960 00000 10226 20195 39535 40026 57013
AAXX 11064 87046 32965 02706 10202 20174 39058 48458 57012
AAXX 11061 23909 32598 81904 11112 21135 39963 40223 54000 8557/ 333 21126
AAXX 11061 28044 32998 61102 11138 21155 30111 40286 52002 80005 333 21140
AAXX 11061 28116 32899 21402 11146 21167 30054 40253 57004 82031 333 21136
AAXX 11061 28240 32998 80000 11153 21171 39958 40306 57005 80001 333 21175
AAXX 11061 28522 32998 61601 11194 21215 30018 40300 57002 84043 333 21194
AAXX 11061 28621 32998 71403 11139 21159 30036 40285 53002 83032 333 21148
AAXX 11061 29023 42998 22701 11168 21187 30241 40346 52016 81032
AAXX 11061 29122 41999 22602 11192 21204 30275 40355 52010 70281 80002
AAXX 11061 29328 41498 80000 11190 21205 30199 40351 52005 78582 83931
AAXX 11061 29348 41496 63202 11087 21094 30163 40314 53001 78587 84901
AAXX 11061 29405 42997 10000 11185 21204 30198 40358 54000 80001
AAXX 11061 29418 41996 20000 11206 21231 30183 40357 52003 71011 80001
AAXX 11061 29430 41497 80000 11096 21104 30143 40328 58005 71022 886// 333 88710
AAXX 11061 29524 41998 20000 11193 21205 30170 40348 57002 70241 80001
AAXX 11061 29605 42998 40401 11186 21192 30185 40340 52001 80001
AAXX 11061 29631 41996 80901 11095 21098 30137 40332 54000 71022 8802/
AAXX 11061 29645 41595 81301 11209 21221 30146 40352 57001 77172 8252/
AAXX 11061 29706 42698 80603 11196 21215 30171 40331 53002 82501
AAXX 11061 29736 41996 00000 11217 21249 30073 40348 57001 71000
AAXX 11061 29937 41996 30701 11172 21198 30091 40332 54000 71040 80005
AAXX 11061 36034 41996 80202 11170 21182 30029 40326 54000 71022 80002
AAXX 11061 36096 41998 80901 11198 21217 39616 40464 58013 70272 8807/ 333 95000
BBXX BAREU61 11064 99320 70108 46/// /0211 10175 29075 40225 52002 22253
BBXX C6CU6 11063 99442 70136 41397 72518 10135 20126 40170 57030 70322 85778 22253 04145 20701 334// 41504 5//// 80130
BBXX DQVI 11063 99372 10242 41698 22006 10170 20105 40245 52010 70200 81240 22254 00171 29901 80135
BBXX TESTFR9 11064 99503 70042 46/// ///// 10106 29072 40128 57024 22211
BBXX BAREU63 11064 99351 10232 46/// /3012 10168 29070 40272 52012 22233
BBXX DMQN 11063 99352 70158 41598 53110 10170 20146 40243 50003 72581 8347/ 22214 04190 21501 3//// 4//// 5//// 80155
BBXX BAREU05 11064 99362 70042 46/// ///// 40180 52000 22264
BBXX BAREU04 11064 99509 70203 46/// ///// 40094 57009 22224
BBXX BATFR02 11064 99508 70011 46/// /2315 10084 20054 40134 56025 22272 00109
BBXX BAREU06 11064 99398 70271 46/// ///// 40275 52006 22264
BBXX BATFR09 11064 99389 10092 44998 62404 10162 20124 40200 53004 70222 84032 22222 00184 20202 60//0 ICE 0/0//
BBXX BATFR15 11064 99458 70055 46/// /2612 10134 20109 40139 56019 22254 00150
BBXX BATFR60 11064 99521 10028 46/// /2226 10087 20029 40124 55001 22253 00102
BBXX BATFR20 11064 99431 10054 46/// /3606 10130 20094 40164 53002 22274
BBXX BATFR31 11064 99418 10086 46/// /0611 10147 21135 40171 55001 22213 00172
BBXX BATFR61 11064 99471 70068 46/// /2104 10109 20100 40136 56021 22243 00149
BBXX BATFR46 11064 99365 70020 46/// /2725 10162 20124 40169 55006 22253 00179
BBXX BATEU08 11064 99585 10028 46/// /2127 10075 20055 49972 55006 22223
BBXX BATFR62 11064 99500 70003 46/// /2323 10097 20054 40135 58025 22262 00139
BBXX BATFR42 11064 99445 70040 46/// /2408 10142 20105 40152 53001 22243 00162
BBXX BATFR24 11064 99429 10095 46/// /2204 10149 20114 40174 53002 22243 00167
BBXX BATFR41 11064 99436 10073 46/// /3405 10142 20087 40165 22232
BBXX BATFR04 11064 99577 70064 46/// /2222 10069 20024 49932 56023 22213 00109
BBXX BATFR52 11064 99503 70042 46/// /2111 10107 20054 40112 56030 22200 00122
BBXX BATFR21 11064 99427 10089 46/// ///// 20142 40173 53001 22232
BBXX BATFR54 11064 99453 70008 46/// /1107 10100 20094 40153 56004 22242 00124
BBXX BATFR44 11064 99484 70045 46/// /1609 10085 20032 40135 56016 22211 00104
BBXX BATEU02 11064 99532 70103 46/// /2916 10084 20037 40016 56018 22200 00112
BBXX BATEU09 11064 99428 10073 46/// /2506 10149 20114 40170 58002 22282 00164
BBXX BATFR01 11064 99389 10144 46/// /2309 10177 20117 40204 53007 22232 00185
BBXX BATFR06 11064 99453 70015 46/// /0814 10129 20127 40153 56004 22241 00162
BBXX 61001 11064 99434 10078 46/// /2502 10146 20104 40166 54000 22200 00159 10401 70005
BBXX BATUK01 11064 99581 70035 46/// /2118 10067 20029 49946 58008 22211 00090
BBXX PBEO 11063 99362 70069 41597 73215 10160 20088 40202 53002 70222 878// 22262 02180 20402 327// 40401 80120
BBXX DDZA2 11064 99375 10106 41798 72515 10170 20100 40195 54000 70322 87070 22264 04180 20301 80130
BBXX 2AQK9 11064 99388 70098 41/97 43206 10150 20150 40205 55003 70200 847// 22284 20404 336// 40506 5//// 80150
AAXX 11061 28049 32999 01707 11119 21148 30127 40301 53004 333 21127
AAXX 11061 28144 32998 81201 11152 21169 30131 40300 52004 80008 333 21164
AAXX 11061 28319 32498 71402 11137 21157 30100 40276 57003 83550 333 21154
AAXX 11061 28321 32999 61502 11142 21162 30054 40272 57002 83032 333 21142
AAXX 11061 28334 32998 30801 11227 21252 39980 40318 53001 82038 333 21226
AAXX 11061 28434 32999 70000 11207 21231 30031 40315 53001 80001 333 21241
AAXX 11061 28552 32997 00000 11167 21188 30219 40341 53004 333 21202
AAXX 11061 28666 32998 03601 11166 21190 30141 40330 54001 333 21200
AAXX 11061 28825 31/91 90000 11207 21216 30111 40300 57003 74940 333 21220
AAXX 11061 29111 41496 83302 11152 21170 30274 40368 52009 78587 8497/ 333 84914
AAXX 11061 29209 41597 50000 11215 21233 30232 40371 53010 71011 81502
AAXX 11061 29551 41497 82201 11111 21124 30129 40321 57005 70282 83302
AAXX 11061 29602 42999 30401 11208 21227 30189 40344 53006 80001
AAXX 11061 29636 41595 80000 11106 21112 30103 40332 54000 70482 883//
AAXX 11061 29654 42999 20000 11090 21115 39574 40305 57006 80001
AAXX 11061 29712 42898 60702 11186 21205 30184 40340 54000 83072
AAXX 11061 29724 41296 80702 11147 21153 30116 40333 57001 71074 886// 333 88705
AAXX 11061 29726 41496 80201 11116 21129 30148 40324 57004 77172 8802/ 333 88516
AAXX 11061 29814 42999 80403 11158 21177 30167 40324 53001 80002
AAXX 11061 29827 42997 80501 11170 21189 30159 40325 58005 80001
AAXX 11061 29923 41994 80000 11174 21193 30033 40330 58003 77172 8802/
AAXX 11061 29939 41997 00000 11194 21213 30024 40331 57007 70141
AAXX 11061 35026 32997 00901 11128 21157 39626 40302 57001 333 21196
AAXX 11061 36021 42999 61802 11119 21139 30119 40309 52002 80002
AAXX 11061 36022 42998 80103 11163 21176 30039 40319 57002 80007
AAXX 11061 36038 42998 60000 11125 21138 39856 40323 58006 83034
AAXX 11061 36058 42999 11103 11102 21138 39789 40335 57011 80001
AAXX 11061 36064 42999 01102 11026 21115 39713 40316 58010
AAXX 11061 36229 42999 70000 11212 21228 39157 40438 58010 82074
AAXX 11061 36259 42999 20000 11230 21263 38297 48586 57005 80001
AAXX 11064 89514 21694 81618 11039 49722 57002 738338802/ 333 6997/ 88440
AAXX 11064 89514 21694 81618 11039 49722 57002 738338802/ 333 6997/ 88440
AAXX 11061 08579 12/// /36// 10117 20107 30075 40201 52002 60022 333 20109 30009 5//// 55010 20327
AAXX 11061 34357 32598 81907 11004 21013 30043 40202 56015 8755/ 333 21022
AAXX 11061 34363 12397 81704 11053 21058 30088 40247 54001 69920 886// 333 21080
AAXX 11061 34545 32998 82105 10002 21006 30111 40225 56009 8005/ 333 21011
AAXX 11061 34579 32998 81301 11058 21079 30217 40264 53002 8005/ 333 21069
AAXX 11061 34838 32997 80103 10003 21015 30144 40243 57006 80006 333 21017
AAXX 11061 34927 32497 80901 10035 20010 30200 40238 57007 83681 333 20025
AAXX 11061 34949 32998 21603 10013 21019 39707 40265 57003 82030 333 21044 34104
AAXX 11061 37001 32497 61914 10096 20058 30187 40227 52003 86900 333 91120 91018 91120
AAXX 11061 37031 32997 61503 11012 21027 30054 40256 57008 80001 333 21026
AAXX 11061 37061 31993 02001 11031 21034 30107 40280 54000 74840 333 21042
AAXX 11061 37085 32998 03002 10011 21012 30309 40336 52003 333 20004
AAXX 11061 37107 32799 80501 11001 21028 39593 40293 57004 82502 333 21012
AAXX 11061 37126 32402 11050 21251 37951 48532 53001 80001 333 21090 49003
AAXX 11061 37171 32598 80905 10035 20000 30255 40274 57001 81541 333 20022
AAXX 11061 37228 31999 01901 10008 21041 39421 40275 57003 70241 333 21019
AAXX 11061 37470 12598 81801 10062 20012 30311 40289 52003 69900 885// 333 20055
AAXX 11061 37663 32999 12503 11011 21048 39078 48538 52004 81080 333 21027
AAXX 11061 23914 32999 31604 11154 21168 39982 40259 57003 80001 333 21139
AAXX 11061 23921 32999 70000 11210 21229 30142 40272 58002 83041 333 21191
AAXX 11061 23955 41398 81202 11144 21158 30296 40362 52012 77172 84601 333 83707
AAXX 11061 23966 41996 82801 11183 21202 30174 40311 52011 77172 8801/
AAXX 11061 28138 32999 62001 11106 21152 39696 40296 57004 82041 333 21129
AAXX 11061 28224 32897 61701 11139 21155 30047 40276 57005 86030 333 21148
AAXX 11061 28255 32999 01601 11178 21194 30191 40332 52003 333 21187
AAXX 11061 28440 31996 31701 11132 21152 39943 40316 53005 71000 80005 333 21157
AAXX 11061 28645 32960 00000 11178 21190 30015 40337 54000 333 21206
AAXX 11061 28661 32997 20102 11184 21203 30235 40336 52002 80001 333 21218
AAXX 11061 28722 31994 72301 11188 21201 30153 40296 58001 71022 80005 333 21215
AAXX 11061 28748 32960 33201 11207 21226 30069 40334 53003 80001 333 21224
AAXX 11061 28838 32997 00000 11163 21176 39813 40328 53001 333 21216
AAXX 11061 29231 41998 23102 11166 21185 30237 40342 53010 70281 80002
AAXX 11061 29313 41998 50000 11200 21219 30226 40360 52006 72271 85072
AAXX 11061 29612 42998 20402 11211 21230 30183 40350 53001 80001
AAXX 11061 29638 41421 80501 11102 21108 30158 40332 54000 77172 886// 333 88710
AAXX 11061 29838 41596 73601 11189 21208 30081 40335 58002 77174 83531
AAXX 11061 29846 41208 80000 11204 21204 39925 40346 57005 77874 8662/ 333 86705
AAXX 11061 36061 42999 00000 11126 21169 39897 40328 58010
AAXX 11064 71228 16/// /2608 11039 21078 60001 333 10018 21124 70004 555 33317 40221
AAXX 11064 71503 46/// /0000 11155 21172 39875 40151 56003 6///1 333 11052 21155 7//// 555 10010
AAXX 11064 71506 46/// /1103 11111 21117 39215 40107 58021 6///1 333 11070 21118 7//// 555 32620 40131
AAXX 11064 71423 16/// /2912 11079 21114 30178 40188 52007 60001 333 10028 21080 7////
AAXX 11064 71449 16/// /1203 11088 21101 39684 40092 56025 60001 333 11017 21130 70000
AAXX 11064 71079 11459 80000 11201 21232 39846 40138 55003 69901 77177 885// 333 11147 21336 48003 79999 90973 555 19999 29999
AAXX 11064 71026 16/// /3003 11023 21066 39272 40127 53022 60001 333 7////
AAXX 11064 71063 16/// /2205 11034 21065 30195 40296 51009 60001 333 11007 21052 70000
AAXX 11064 71832 16/// /1302 11114 21131 39855 40192 58011 60001 333 11099 21185 70000
AAXX 11064 71269 16/// /3113 11036 21070 60001 333 10059 21036 70000 555 32428 40182
AAXX 11064 71285 46/// /3208 11027 21049 6///1 333 10002 21092 7//// 555 33217 40031
AAXX 11064 71737 16/// /2403 11126 21147 39734 40275 51011 60001 333 11057 21145 70000 555 32417 40191
AAXX 11064 71743 16/// /2215 11151 21170 39868 40090 53008 60001 333 11128 21181 70000 555 32325 40061
AAXX 11064 71746 46/// /2208 11050 21117 30085 40314 50001 6///1 333 11023 21107 7////
AAXX 11064 71748 16/// /0805 11085 21100 39791 40084 56030 60001 333 11062 21128 70000
AAXX 11064 71421 16/// ///// 11248 21274 39461 40210 53004 60001 333 11090 21263 70010
AAXX 11064 71560 16/// /1607 11041 21070 39773 40075 56016 60001 333 10000 21122 70000
AAXX 11064 71581 16/// /2302 11061 21074 39783 40280 51005 60001 333 11052 70000
AAXX 11064 71833 46/// /2405 11074 21104 6///1 333 11046 21096 7//// 555 32721 40161
AAXX 11064 71340 16/// /2708 11020 21052 60001 333 10017 21084 70000 555 32517 40011
AAXX 11064 71341 16/// /0104 11021 21087 60001 333 10078 21030 70000 555 32451 40203
AAXX 11064 71342 16/// /3108 11036 21079 60001 333 10044 21066 70000 555 32517 40221
AAXX 11064 71344 16/// /2211 11042 21079 60001 333 10045 21054 70000 555 32430 40132
AAXX 11064 71347 16/// /3603 11062 21077 60001 333 10019 21063 70000 555 32622 40161
AAXX 11064 71348 17/// /0208 11051 21069 69951 7//4/ 333 10025 21051 70005 555 32724 40201
AAXX 11064 71349 16/// ///// 11018 21054 60001 333 11006 21057 70000
AAXX 11064 71107 46/// /0307 10041 20012 30126 40240 5/013 6///1 333 7////
AAXX 11064 71363 16/// /2605 11210 21232 30047 40103 53001 60001 333 11192 21255 70003
AAXX 11064 71374 46/// /3516 11101 21142 6///1 333 10026 21104 7//// 555 32437 40173
AAXX 11064 71387 16/// /1501 11215 21237 39874 40278 52015 60001 333 11068 21220 70000 555 33317 40171
AAXX 11064 71393 16/// ///// 11031 21069 38861 40137 51009 60001 333 10082 21052 70000
AAXX 11064 71151 16/// /1409 11074 21094 39592 40104 58027 60001 333 11065 21145 70000
AAXX 11064 71170 16/// /2206 11078 21089 60001 333 11011 21133 70000
AAXX 11064 71186 46/// /3106 11106 21145 6///1 333 11028 21106 7//// 555 32924 40101
AAXX 11064 71190 46/// /3210 11076 21124 6///1 333 11007 21077 7////
AAXX 11064 71682 16/// /0000 11132 21137 39951 40187 56004 60001 333 11112 21201 70000
AAXX 11064 71903 47/// /0112 10051 20030 30173 40223 5/004 6///1 7//4/ 333 7////
AAXX 11064 71479 16/// /0110 10043 20024 30099 40221 51002 60001 333 10065 20040 70000 555 31027 40131
AAXX 11064 62309 32560 30205 10158 20077 40270 52011 83500 333 20141
AAXX 11064 62332 32560 40509 10169 20098 40266 52007 84100 333 20148
AAXX 11064 62387 31920 03609 10106 20063 40241 57011 71000 333 20092
AAXX 11064 62459 32960 00210 10106 21009 40221 52013 333 20083
AAXX 11064 62325 32560 40000 10134 20086 40276 52006 84100 333 20116
AAXX 11064 62452 32960 02206 10020 21021 40297 52013 333 21007
AAXX 11064 71976 46/// /2404 11238 21264 39392 40042 53005 6///1 333 11210 21250 7////
AAXX 11064 71832 16/// /1302 11114 21131 39855 40192 58011 60001 333 11099 21185 70000
AAXX 11064 62420 32960 00000 10090 20054 40269 52011 333 20074
AAXX 11064 62432 32960 02905 10122 20046 40243 52016 333 20100
AAXX 11064 62435 32960 00108 10124 20049 40219 52009 333 20100
AAXX 11064 62458 32960 00403 10154 21008 40214 52012 333 20128
AAXX 11064 62455 32960 03505 10104 20035 40251 52014 333 20081
AAXX 11064 62476 32960 02005 10168 20130 40174 52015 333 20148
AAXX 11064 62309 32560 30205 10158 20077 40270 52011 83500 333 20141
AAXX 11064 62332 32560 40509 10169 20098 40266 52007 84100 333 20148
AAXX 11064 62387 31920 03609 10106 20063 40241 57011 71000 333 20092
AAXX 11064 62459 32960 00210 10106 21009 40221 52013 333 20083
AAXX 11064 62325 32560 40000 10134 20086 40276 52006 84100 333 20116
AAXX 11064 62452 32960 02206 10020 21021 40297 52013 333 21007
AAXX 11064 62420 32960 00000 10090 20054 40269 52011 333 20074
AAXX 11064 62432 32960 02905 10122 20046 40243 52016 333 20100
AAXX 11064 62435 32960 00108 10124 20049 40219 52009 333 20100
AAXX 11064 62458 32960 00403 10154 21008 40214 52012 333 20128
AAXX 11064 62455 32960 03505 10104 20035 40251 52014 333 20081
AAXX 11064 62476 32960 02005 10168 20130 40174 52015 333 20148
AAXX 11064 62423 NIL
AAXX 11064 62357 32960 03605 10102 20059 40268 52008 333 20086
AAXX 11064 62403 32960 03202 10092 20033 40225 52020 333 20062
AAXX 11064 60395 12965 30000 10090 20080 40195 58005 60004 80002 333 00600 20090 83073 95990
AAXX 11064 60421 11960 40000 10033 20019 39174 48517 56005 60004 700// 80002 333 00100 20030 84070 95990
AAXX 11064 60423 11665 60000 10071 20015 39228 48499 58001 60004 700// 86232 333 20065 84840 95990
AAXX 11064 60430 11965 00000 10086 20064 40218 56003 60004 700// 333 00400 20080 95990
AAXX 11064 60437 11660 60000 10065 20031 38992 48497 57007 60004 700// 86530 333 00300 20055 82640 84360 95990
AAXX 11064 60444 12960 60000 10058 20023 39111 48523 56007 60004 84042 333 00400 20052 84360 83073 95990
AAXX 11064 60452 12665 2//// 10123 20098 40192 56004 60004 81502 222// 20000 333 20118 81633 91827
AAXX 11064 60457 12960 10000 10070 20063 40204 58002 60004 81080 333 00300 20064 81360 95990
AAXX 11064 60514 11960 00000 10021 20009 39312 48561 56002 60004 700// 333 05300 20016 95990
AAXX 11064 60518 11965 42406 10125 20092 40185 57003 60004 700// 83032 222// 20000 333 00800 20117 83360 91807 95990
AAXX 11064 60520 11420 40000 10017 20012 40210 56005 60004 710// 84600 333 05100 20013 84710 95990
AAXX 11064 60540 11960 00000 10036 20020 39068 48528 5//// 60004 700// 333 00000 20036 95990
AAXX 11064 60560 11960 00000 10027 20028 38983 48527 58007 60004 700// 333 00100 20026 95990
AAXX 11064 62423 NIL
AAXX 11064 62357 32960 03605 10102 20059 40268 52008 333 20086
AAXX 11064 62403 32960 03202 10092 20033 40225 52020 333 20062
AAXX 11064 71079 11459 80000 11201 21232 39846 40138 55003 69901 77177 885// 333 11147 21336 48003 79999 90973 555 19999 29999
BBXX A8EH7 11064 99317 11261 41597 83420 10120 20029 40285 57015 7//22 8777/ 22283 00200 20506 33499 40805 5//// 80080
BBXX C6SI6 11064 99436 11497 46/// /2113 10028 21035 40050 53009 7//// 8//// 22253 0//// 2////
BBXX DGBE 11063 99341 11378 41497 53540 10110 20082 40190 53020 70111 84115 22254 00200 21205 330// 41006 80095
AAXX 11064 62309 32560 30205 10158 20077 40270 52011 83500 333 20141
AAXX 11064 62332 32560 40509 10169 20098 40266 52007 84100 333 20148
AAXX 11064 62387 31920 03609 10106 20063 40241 57011 71000 333 20092
AAXX 11064 62459 32960 00210 10106 21009 40221 52013 333 20083
AAXX 11064 62325 32560 40000 10134 20086 40276 52006 84100 333 20116
AAXX 11064 62452 32960 02206 10020 21021 40297 52013 333 21007
AAXX 11064 71421 16/// ///// 11248 21274 39461 40210 53004 60001 333 11090 21263 70010
AAXX 11064 08001 12468 31805 10100 20071 30085 40167 57001 60002 81802 333 20082 31005 50104 55054 70012 924/7
AAXX 11064 08261 11/02 90502 10070 20066 39724 40212 55000 60012 74444 333 20066 31006 55000 70480 89/03
AAXX 11061 23226 32960 81610 11072 21101 39974 40195 57015 86031 333 21110
AAXX 11061 23701 11499 81803 11071 21096 39998 40131 57011 69920 70272 8651/ 333 21085 86614
AAXX 11061 28909 32997 60000 11198 21217 30178 40288 53007 82039 333 21188
AAXX 11064 71934 11316 80000 11105 21114 39900 40165 53013 69901 77172 885// 333 11105 21172 47021 79999 90973 555 10002 29999
AAXX 11063 64501 32360 71804 10265 20244 3//// 4//// 8457/ 333 0//00 20262 50354 55092 5//// 83608 84626 87460
AAXX 11064 60353 11565 61807 10118 20067 40185 53002 60004 700// 84880 333 00600 20108 82820 83630 85359 91837 95900
AAXX 11064 60367 NIL
AAXX 11064 60369 12960 21808 10151 20020 40192 53002 60004 81082 333 20135 81360 91827
AAXX 11064 60401 NIL
AAXX 11064 60403 11960 70000 10080 20058 40208 53006 60004 700// 84032 333 00500 20068 84360 85075 95900
AAXX 11064 60425 12558 30606 10085 20077 40208 55003 60004 81132 333 00300 20079 81830 95990
AAXX 11064 60461 13970 42010 10132 20093 40197 54000 60004 83032 222// 20000 333 20128 83360 91808 95990
AAXX 11064 60467 11965 40000 10078 20037 40222 55003 60004 700// 83031 333 00600 20076 83360 83073 95990
AAXX 11064 60492 11956 00000 10075 20064 40203 56002 60004 700// 333 00300 20062 95990
AAXX 11064 60515 NIL
AAXX 11064 60517 11960 01404 10097 20082 40203 56005 60004 700// 333 0//00 20097 95990
AAXX 11064 60522 11970 10000 10078 20058 40213 5//// 60004 700// 81030 333 00200 20049 81360 95990
AAXX 11064 60557 11965 00000 10032 20015 38880 48523 56006 60004 700// 333 05100 20024 95990
AAXX 11064 60563 NIL
AAXX 11064 60603 12660 41210 10110 20019 40206 56005 60004 84800 333 0//00 20105 84840
AAXX 11064 60638 12960 3//// 10092 20034 40220 53010 60004 80001 333 00500 20088 83073
AAXX 11064 60686 NIL
AAXX 11064 71934 11316 80000 11105 21114 39900 40165 53013 69901 77172 885// 333 11105 21172 47021 79999 90973 555 10002 29999
AAXX 11064 61968 16/// /0405 10299 20229 40115 60004 333 20251 55/// 58006 90710 91112 555 60005
AAXX 11061 28216 32899 21402 11142 21162 39959 40260 57003 82040 333 21141
AAXX 11061 28428 31996 53501 11225 21243 30097 40302 54000 71011 80001 333 21232
AAXX 11061 28451 32996 01301 11182 21201 30163 40336 52002 333 21209
AAXX 11061 28541 32981 00000 11194 21213 39793 40331 53005 333 21208
AAXX 11061 28655 31996 00601 11159 21177 30089 40331 54000 71000 333 21212
AAXX 11061 28756 32998 00000 11173 21199 30168 40329 50002 333 21227
AAXX 11061 29557 41998 02801 11136 21156 30042 40325 57003 70281
AAXX 11061 29625 41498 70801 11108 21114 30147 40335 53003 78582 87900 333 85919
AAXX 11061 29813 42998 80802 11168 21187 30120 40312 53002 80002
AAXX 11061 29822 42997 20000 11183 21216 30158 40336 58006 80001
AAXX 11061 29915 42998 81102 11156 21183 30141 40311 57002 80002
AAXX 11061 36020 42998 60603 11141 21154 30102 40316 57005 80002
AAXX 11064 17098 12960 00000 11156 21156 38260 48576 52008 60002 333 21211 3/122 43007 50064 55000 20435 70024
BBXX C6JD7 11063 99240 71095 41698 10612 10230 20183 40161 53010 70111 8///5 22233 04255 20401 308// 40601 80200
AAXX 11064 67002 12580 33003 10287 20226 30097 40131 69954 81830 333 20235 58009 81820 83360 92408
AAXX 11064 67009 32582 71416 10310 20218 39997 40115 51003 86202 333 02400 10325 20247 50564 55060 86820 555 84075
AAXX 11064 67012 12582 70000 10295 20257 30105 40116 51003 60184 85202 333 0//27 10308 20232 50214 55/// 85820 555 83073
AAXX 11064 67025 31575 50000 10307 20222 30018 40117 52006 7041/ 84830 333 0//00 10313 20230 50364 55/// 84820 555 81640 81360
AAXX 11064 67027 31582 30210 10300 20221 30094 40115 50003 70191 81232 333 02000 10330 20240 50404 55113 81823 555 82360 81073
AAXX 11064 67045 NIL
AAXX 11064 67072 11465 62210 10269 20242 30132 40135 51006 60044 71562 86200 333 02206 10296 20249 50334 55/// 86817 92427
AAXX 11064 67073 32582 2//// 10312 20216 30090 40116 51009 81832 333 0//00 10328 20250 50//4 55/// 81823 555 81640 81360 81073
AAXX 11064 67083 32582 30000 10256 20193 38756 48532 51010 83800 333 00300 20148 50264 55108 82820
AAXX 11064 67095 32482 52006 10294 20211 30123 40130 51003 85800 333 02000 10315 20230 50374 55/// 85817 555 81633
AAXX 11064 67113 32582 3//// 10306 20224 30/// 40/// 5//// 83200 333 0//00 10300 20220 50314 55/// 83820
AAXX 11064 67117 NIL
AAXX 11064 67137 32580 10000 10233 20148 38905 48511 51004 81200 333 0//00 10283 20165 50374 55/// 81820
AAXX 11064 67143 32582 1//// 10/// 20/// 30127 40134 52005 81200 333 0//00 10/// 20/// 50//4 55/// 81820 92438
AAXX 11064 67152 32582 4//// 10262 20187 39198 48515 51005 82270 333 02000 10303 20212 50634 55/// 82820 83360
AAXX 11064 67157 32581 4//// 10/// 20/// 30145 40152 53012 84800 333 0//00 10/// 20/// 50//4 55/// 82820 84640
AAXX 11064 67161 NIL
AAXX 11064 67197 32582 10806 10301 20209 30108 40118 58002 81230 333 01400 10298 20230 50504 55110 81820 555 81360
BBXX A8UT7 11064 99269 70165 41596 80424 10200 20169 40172 52012 70222 8471/ 22283 20705 336// 41204 80180
BBXX C6OM8 11060 99204 70238 41297 80311 10233 20182 40150 54000 70200 887// 22253 06235 20403 303// 40403 5//// 80201
BBXX BATFR08 11064 99488 30636 46/// /2118 10034 21053 40169 58007 22223 00045
BBXX BATEU00 11064 99417 30161 46/// /1007 10147 20077 40220 51013 22243
BBXX BATFR19 11064 99003 10094 46/// /2204 10244 20227 40109 51015 22200 00289
BBXX BATFR55 11064 99087 30433 44598 50311 10277 20245 40122 70322 83132 22222 00290 20602 32424 412// 512//
BBXX BATFR05 11064 99055 10000 46/// /3112 10262 20242 40098 53005 22212 00259
BBXX 2ALE5 11063 99078 70142 41698 23411 10285 20225 40091 53002 70200 824// 22275 20401 80244
BBXX 2AKI2 11063 99330 30376 41497 81034 10192 20164 40168 51008 78022 887// 22224 00238 20404 310// 40706 5//// 80175
BBXX DHDH 11064 99138 10556 41697 60528 10260 20218 40145 51005 70311 86440 22225 00250 20404 305// 40304 80230
BBXX C6JE5 11063 99009 30881 41698 52012 10310 20254 40101 51/// 70122 8/46/ 22253 04300 20101 330// 40101 5//// 80270
BBXX BATFR56 11064 99016 30844 44498 52517 10287 20232 40107 58004 76022 84422 22252 00300 20602 324// 40602 5////
BBXX BATFR47 11064 99287 51396 46/// /1711 10210 20160 40168 51020 22262
BBXX A8TG2 11063 99273 71212 41598 63510 10170 20094 40190 54000 70222 83464 22224 20204 335// 40204 80130
BBXX A8RV8 11064 99243 11191 41296 80235 10135 20079 40190 56/// 71222
BBXX DDID2 11063 99286 50483 41498 60816 10215 20169 40090 58010 70352 865// 22254 04220 20403 309// 41204 80185
BBXX A8ZS7 11064 99136 30743 41698 61303 10300 20231 40095 54000 70311 86200 22254 04270 20100 399// 40801 80250
BBXX DFVY2 11064 99009 70309 41697 80311 10235 20221 40102 57009 70265 883// 22243 00260 80225
BBXX DFTH2 11064 99295 11688 41597 59904 10235 20206 40213 53020 71522 8434/ 22263 04240 21005 329// 41005 80215
BBXX A8CB4 11063 99427 11489 41994 02718 10020 21033 40050 5/010 74844 22254 00100 20506 80000
BBXX A8SF7 11061 99275 70746 41098 20810 10230 20185 40200 53005 7//00 821/0 22284 04220 21004 309// 41203 5//// 80200
BBXX DDLK 11063 99403 70686 41498 63425 10082 20028 40268 52018 70261 862/0 22263 20504 302// 40804 80057
BBXX 41101 11064 99146 70562 46/// /1006 10268 20232 40098 57012 22200 00276 10803 70015
BBXX BAREU08 11064 99183 70696 46/// ///// 40127 57004 22212
BBXX BAREU00 11064 99374 70753 46/// ///// 40319 52006 22213
BBXX PHCQ 11063 99368 70747 41/98 /3510 10070 20045 40308 51009 70011 8//// 22263 04145 20502 3//// 41003 5//// 80058
BBXX PHQX 11063 99386 70565 41598 42211 10215 20161 40228 56012 70211 83141 22214 20804 321// 41004 5//// 80180
BBXX BATFR13 11064 99169 70603 44398 71114 10257 20224 40112 58008 70322 8777/ 22214 00284 20410
BBXX BATFR14 11064 99217 70532 44797 61220 10255 20229 40140 58014 70322 864/2 22254 00259 309// 41208 5////
BBXX FVNM 11064 99063 71030 46/// /0613 10254 20214 40128 50/// 22200 00267
BBXX BATEU01 11064 99479 70603 44597 73221 11016 21065 40170 51036 70222 84541 22274 00049 21002 327// 41002 5////
BBXX C6JD7 11063 99240 71095 41698 10612 10230 20183 40161 53010 70111 8///5 22233 04255 20401 308// 40601 80200
AAXX 11061 14235 12760 8//// 10008 21004 39035 48481 52007 60002 8807/ 333 20008 31///
AAXX 11061 14246 11658 72301 10004 21001 30010 40221 53010 60002 710// 82570 333 21010 34105
AAXX 11061 14314 12665 71802 10132 20107 30120 40184 54002 69932 87800 333 20122 31007 70008 92311 92418
AAXX 11061 14323 11565 80601 10130 20114 30148 40181 51003 60182 72162 886// 333 20126 32011 70183 92311 92417
AAXX 11061 14324 11/00 92705 10019 20019 38409 48511 53008 60072 74544 333 20015 31001 41998 70167
AAXX 11061 14328 11560 83502 10052 20037 39806 40206 53023 60022 7036/ 885// 333 20052 31005 70023
AAXX 11061 14330 12670 61202 10083 20075 39519 40184 53003 60022 86500 333 20083 32007 70030
AAXX 11061 14438 12680 60000 10128 20095 30083 40174 56006 60002 82862 222// 00165 333 20126 31007 70001 92301
AAXX 11061 14443 32698 61802 10152 20130 30098 40188 54000 86439 333 20129 92301
AAXX 11061 14447 NIL
AAXX 11061 14472 12670 81004 10153 20134 30126 40190 56002 69912 8621/ 222// 00175 333 20153 31/// 70005 92312
AAXX 11061 14015 11212 83301 10028 20024 39846 40213 53014 69902 71041 886// 333 20015 31001 55001 79999 88706 555 20031 30040
AAXX 11061 08501 NIL
AAXX 11061 08505 NIL
AAXX 11061 08506 12/// /2804 10155 20143 30224 40296 57006 60012 333 20146 30015 5//// 55057 20848 91006 91106 555 60015
AAXX 11061 08509 11460 72806 10160 20144 30216 40281 57006 69902 70261 878// 333 20154 50013 55058 82818 85630 555 60007
AAXX 11061 08511 42/// /2603 10154 20154 30176 40284 57003 333 2//// 30/// 5//// 55/// 2//// 91005 91107 555 60005
AAXX 11061 08512 11465 63005 10159 20154 30192 40277 57008 69912 78081 86800 333 20142 31013 5//// 55043 20766 82810 88620 555 69905
AAXX 11061 08515 11475 63104 10154 20148 30165 40287 56003 69912 72052 86800 333 20150 30014 50244 81811 86641 910// 911// 555 69917
AAXX 11061 08521 12470 13405 10172 20101 30172 40243 55007 69912 81800 333 20160 30/// 55072 81816 555 60007
AAXX 11061 08522 12/// /0202 10154 20092 30176 40246 57004 69912 333 20153 30013 5//// 55076 21175 555 60005
AAXX 11061 08524 12465 43501 10137 20110 30148 40247 57004 60022 84800 333 20132 30008 5//// 55063 21128 84815 555 60005
AAXX 11061 08530 NIL
AAXX 11061 08531 12/// /2605 10142 20121 30156 40194 54000 60022 333 20125 30012 5//// 55025 20496 91013 91113 555 60005
AAXX 11061 08532 NIL
AAXX 11061 08533 12/// /3304 10143 20103 30181 40210 52001 69942 333 20121 30009 5//// 55021 20530 91006 91108 555 60005
AAXX 11061 08534 11560 73003 10116 20105 30182 40200 55000 69912 70282 878// 333 20098 50044 55011 81705 83818 85630 555 69917
AAXX 11061 08535 12/// /3103 10116 20112 30111 40204 52003 60022 333 20107 31008 5//// 55010 20424 91006 91106 555 69995
AAXX 11061 08537 NIL
AAXX 11061 08540 11460 80102 10126 20112 30116 40184 52006 60032 70282 8683/ 333 20116 50074 55001 83814 85822 555 60007
AAXX 11061 08541 12/// /2905 10131 20102 30086 40205 54000 69912 333 20117 30009 5//// 55003 20336 91109 555 60005
AAXX 11061 08544 12560 40101 10100 20093 30160 40180 53010 60052 83530 333 20100 50164 55009 83625 555 60007
AAXX 11061 08545 11560 10302 10085 20066 30106 40190 52009 60032 70111 81500 333 20079 30005 50084 55012 20336 81632 555 60005
AAXX 11061 08548 12/// /2601 10108 20104 39983 40189 52010 60112 333 20099 30010 5//// 55006 20276 555 60005
AAXX 11061 08551 12/// /1102 10052 20045 30131 40190 52007 60012 333 20050 30004 5//// 55014 20362 555 60005
AAXX 11061 08554 32665 53001 10114 20093 30201 40211 52002 85500 333 20113 30012 5//// 55035 20593 85644 555 60005
AAXX 11061 08558 12/// /2503 10079 20079 39899 40198 52001 69922 333 20051 30003 5//// 55000 20197 555 69915
AAXX 11061 08560 12/// /0401 10068 20063 39425 40190 52005 60062 333 20067 30007 5//// 55000 20183 555 60005
AAXX 11061 08561 11056 42704 10090 20090 39969 40204 53002 69932 74040 83230 333 20063 50084 55001 81701 555 60007 96645 90315 90215 96640
AAXX 11061 08562 12/// /2503 10077 20073 39903 40202 54000 60022 333 20076 30006 5//// 55020 20479 91106 555 60005
AAXX 11061 08567 12/// /0000 10062 20060 39524 40196 52003 60042 333 20062 30006 5//// 55002 20196 555 60005
AAXX 11061 08568 12/// /9902 10036 20036 38613 48486 54000 60052 333 20007 31001 5//// 55005 20499 91006 91106 555 69925
AAXX 11061 08570 12/// /0801 10066 20066 39732 40198 52002 60022 333 20063 31006 5//// 55000 20134 555 60005
AAXX 11061 08571 12/// /2701 10073 20073 39484 40194 54000 60032 333 20060 30006 5//// 55000 20142 555 69975
AAXX 11061 08575 12/// /0000 10040 20036 39375 40201 54000 69912 333 20040 30003 5//// 55001 20233 555 60005
AAXX 11061 08579 12/// /36// 10117 20107 30075 40201 52002 60022 333 20109 30009 5//// 55010 20327 555 69945
AAXX 11061 11933 12481 39901 11086 21099 38649 48460 53015 69912 81502 333 21110 3/118 48042 70003 81616 83068
AAXX 11064 60621 36/// /0503 10094 21022 333 20082
AAXX 11064 60612 36/// /3609 10070 20013 333 20068
AAXX 11064 60692 36/// /0110 10132 20004 333 20132
AAXX 11064 60663 36/// /0000 10079 21139 333 20079
AAXX 11061 89064 36/// /0702 10007 29089 49708 57022
AAXX 11064 60619 36/// /0906 10090 21001 333 20085
AAXX 11064 60664 36/// /0000 10033 21037 333 20031
BBXX 61002 11064 99421 10047 46/// /0000 10136 2//// 40170 54000 22200 00151 10501 70003
AAXX 11064 60662 36/// /0000 10083 21061 333 20082
AAXX 11064 60691 36/// /0305 10103 21015 333 20101
AAXX 11061 60370 36/// /2402 10122 20065 333 20112
AAXX 11061 60371 16/// /1802 10124 20065 69924 333 20110
AAXX 11061 60372 16/// /2503 10116 20054 69924 333 20114
AAXX 11061 60373 NIL
AAXX 11061 60374 NIL
AAXX 11061 60376 NIL
AAXX 11061 60379 NIL
AAXX 11061 60380 NIL
AAXX 11061 60381 NIL
AAXX 11061 60393 NIL
AAXX 11061 60394 NIL
AAXX 11061 60593 NIL
AAXX 11061 60595 NIL
AAXX 11061 60605 NIL
AAXX 11061 60613 NIL
AAXX 11061 60623 NIL
AAXX 11064 60624 36/// /0000 10156 21075 333 20152
AAXX 11064 60639 NIL
AAXX 11064 60645 36/// /0000 10110 21006 333 20108
BBXX C6XQ2 11063 99277 50447 41698 72018 10210 20160 40095 54000 70222 87700 22253 04220 20905 31414 40905 50705 80180
BBXX BAREU11 11064 99044 50816 46/// ///// 40136 57015 22284
BBXX A8QJ7 11064 99171 50364 41598 70208 10250 20220 40077 55012 70322 8/85/ 22253 06260 2//// 3//// 4//// 5//// 80230
AAXX 11061 13463 11404 43401 10085 20083 30152 40212 54000 60012 74642 82870 333 20083 32007 55000
AAXX 11061 13459 11450 81801 10086 20086 39459 40219 54000 60062 72162 8572/ 333 20069 32005 55000 85794 88498
AAXX 11061 13461 32565 80704 10158 20136 30202 40210 56003 888// 333 20154 31013 55028 92322 92428 92515
AAXX 11061 13363 11/02 90000 10013 20013 39296 48503 52004 69922 74742 333 20009 3/102 55000
AAXX 11064 60595 36/// /0000 11451 333 21451
AAXX 11064 60381 16/// /2201 10088 20087 69924 333 20088
AAXX 11064 60639 36/// /0808 10088 20008 333 20088
AAXX 11064 60605 36/// /0000 10115 21022 333 20112
AAXX 11064 78922 46/// /2307 10244 20227 30058 40103 56010
AAXX 11064 40153 12960 00912 10061 21002 39181 48563 52012 60002 333 20042 70000
AAXX 11064 40179 12965 00502 10100 20058 30229 40267 52010 60002 333 20059 50311 55082 70000
AAXX 11064 40180 12960 00202 10091 20048 30219 40270 52009 60002 333 20067 70000
AAXX 11064 40190 16/// ///// 10058 20025 39927 40272 52008 60002 333 20042 70000
AAXX 11064 40199 12975 00307 10125 20031 30226 40249 52014 60002 333 20098 50901 55093 70000
AAXX 11061 63330 32580 11306 10141 20067 37806 40279 81101 333 20085 58004 81820 81070
AAXX 11061 63331 31978 00101 10200 20100 38059 40240 705// 333 20120 58004
AAXX 11061 63332 32980 01802 10190 20130 38212 40103 333 20080 59002
AAXX 11061 63333 32980 02301 10146 20079 38186 40220 333 20076 58001
AAXX 11061 63334 NIL
AAXX 11061 63340 32880 23502 10165 20125 37947 40170 82030 333 20115 58000 82358
AAXX 11061 63402 31550 10000 10150 20128 38368 4//// 7101/ 81200 333 20098 58003 81828
AAXX 11061 63403 31060 61702 10168 20137 7102/ 83530 333 20132 81700 82624 85360
AAXX 11061 63450 NIL
AAXX 11061 63451 NIL
AAXX 11061 63453 31975 02701 10190 2//// 39091 7050/ 333 20105 59004
AAXX 11061 63460 32980 00000 10170 20083 333 20095
AAXX 11061 63471 33980 00000 10228 20098 38881 40145 333 20142 59001
AAXX 11061 63474 32980 00202 10140 20045 333 20050
AAXX 11061 63478 32980 00000 10256 20148 39805 40184 333 20180 59012
AAXX 11061 63500 NIL
AAXX 11061 63533 NIL
AAXX 11061 NNNN
AAXX 11064 60667 36/// /0000 10066 20005 333 20066
AAXX 11061 56146 32780 71802 10059 21103 36691 57031 82402 333 05102 21050
AAXX 11061 56444 11678 70706 10013 21075 36795 57011 69901 70080 874// 333 00100 21027
AAXX 11061 56492 32762 80401 10083 20038 39868 40286 57030 885// 333 05700 20061
AAXX 11061 56571 32665 80000 10066 21002 38422 57033 888// 333 05601 20030
AAXX 11061 57799 32975 03202 10103 21049 30198 40290 57037 333 21001
AAXX 11061 57866 32980 00203 10101 21071 30073 40287 57038 333 20005
AAXX 11061 57957 32968 60204 10134 21091 30063 40266 57040 86040 333 20047
AAXX 11061 57993 32980 02701 10111 21050 30098 40270 57041 333 20008
AAXX 11061 58027 32970 22001 10070 21082 30233 40287 57029 80002 333 21043
AAXX 11061 58141 32963 02702 10063 21080 30278 40298 57028 333 21030
AAXX 11061 58265 31957 03204 10058 21074 30296 40304 57027 70500 333 21016
AAXX 11061 58472 32962 03406 10061 21049 30202 40300 57023 333 20026
AAXX 11061 58477 31958 03403 10094 21045 30246 40292 57027 70500 333 20008
AAXX 11061 58527 32962 00401 10102 21095 30211 40290 57035 333 21005
AAXX 11061 58633 32960 00704 10083 21063 30186 40290 57035 333 21019
AAXX 11061 58666 32660 73609 10075 20011 30174 40280 57024 875// 333 20044
AAXX 11061 58725 32970 00202 10111 21077 30000 40272 57037 333 21020
AAXX 11061 58921 32966 02502 10118 21039 30004 40259 57040 333 20013
AAXX 11061 59082 32976 03404 10126 21080 30102 40253 57047 333 20001
AAXX 11061 59211 32970 00401 10162 20003 30031 40243 57042 333 20062
AAXX 11061 59265 32968 01102 10151 21043 30096 40238 57048 333 20033
AAXX 11061 59293 32980 00704 10137 21070 30146 40234 57045 333 20054
AAXX 11061 59501 32980 00403 10171 20003 30190 40212 57036 333 20082
AAXX 11061 59663 32980 00204 10160 21040 30108 40218 57039 333 20068
AAXX 11061 59838 32965 10207 10181 20072 30191 40201 57036 80002 333 20119
AAXX 11061 59948 32480 62502 10189 20119 39701 40195 57031 81102 333 20110
AAXX 11061 59981 11576 80406 10218 20178 30146 40153 57027 69901 70080 888// 333 20206
AAXX 11061 01003 11884 70705 11090 21115 30034 40046 57002 60001 70311 8703/ 333 21120 49001 91110
AAXX 11064 04048 41470 50000 10022 20003 49768 57004 71582 83805 555 3//17
AAXX 11061 22563 11396 81804 11045 21054 39971 40010 57014 60010 77177 8872/ 333 21056 87707
AAXX 11061 23219 32998 71806 11034 21048 30069 40177 57003 87030 333 47043
AAXX 11061 22550 11371 81804 11029 21056 39975 49985 56003 60020 70273 886// 333 21049 88709
AAXX 11061 22867 12499 81503 11012 21025 39934 40048 53005 60010 885// 333 21043 88619 91106
AAXX 11061 23205 11598 81905 11081 21113 30076 40091 58019 69920 73673 885// 333 21087 88630 91110
BBXX ZNQO3 11063 99122 10457 41698 10808 10280 20196 40181 52/// 70100 81100 22264 04276 20301 309// 40703 5//// 80225
BBXX TBWUK17 11063 99031 11051 41397 70519 10287 20238 40138 50010 70222 87729 22243 04280 20402 30404 40503 50603 80253
BBXX A8UQ2 11064 99263 10560 41697 12506 10240 20084 40166 51/// 70022 81//5 22213 00250 20101 300// 40000 5//// 80150
AAXX 11061 22768 11497 81805 11013 21027 39982 40039 53002 60020 70273 885// 333 21045 88611
AAXX 11064 91324 32474 80909 10306 2026 30058 4006 82201 333 562/9 70000 82819 88075 555 91106
AAXX 11064 91329 12474 80910 10294 20272 30098 40101 60241 84107 333 562/9 70041 84818 88275 555 91106
AAXX 11064 91336 32474 80910 10300 20256 30105 40108 82202 333 562/9 70008 82818 88075 555 91106
AAXX 11064 91339 NIL
AAXX 11064 91320 32474 80510 10322 20283 30085 40090 83201 333 561/9 70000 83816 85074 555 91106
AAXX 11061 22641 12499 81202 11014 21022 39947 49963 57003 60040 887// 333 21039 86646 91107
AAXX 11064 91324 32474 80909 10306 2026 30058 4006 82201 333 562/9 70000 82819 88075 555 91106
AAXX 11064 91329 12474 80910 10294 20272 30098 40101 60241 84107 333 562/9 70041 84818 88275 555 91106
AAXX 11064 91336 32474 80910 10300 20256 30105 40108 82202 333 562/9 70008 82818 88075 555 91106
AAXX 11064 91339 NIL
AAXX 11064 91320 32474 80510 10322 20283 30085 40090 83201 333 561/9 70000 83816 85074 555 91106
AAXX 11064 91324 32474 80909 10306 2026 30058 4006 82201 333 562/9 70000 82819 88075 555 91106
AAXX 11064 91329 12474 80910 10294 20272 30098 40101 60241 84107 333 562/9 70041 84818 88275 555 91106
AAXX 11064 91336 32474 80910 10300 20256 30105 40108 82202 333 562/9 70008 82818 88075 555 91106
AAXX 11064 91339 NIL
AAXX 11064 91320 32474 80510 10322 20283 30085 40090 83201 333 561/9 70000 83816 85074 555 91106
AAXX 11061 50353 32770 13602 11114 21207 39911 40149 57001 81500 333 21236
AAXX 11061 50557 32970 31801 11124 21176 39856 40182 54000 80002 333 21274
AAXX 11061 50756 32960 71801 11130 21165 39873 40193 57005 80002 333 21215
AAXX 11061 50949 32965 02702 11025 21117 30020 40198 57008 333 21143
AAXX 11061 50963 11760 82702 11062 21104 30033 40177 57012 69901 70070 885// 333 21174
AAXX 11061 50978 32570 72903 11060 21127 39813 40177 57004 878// 333 21141
AAXX 11061 51087 32980 01601 11096 21163 39334 40375 57006 333 00052 21184
AAXX 11061 51156 32980 70901 11041 21154 38762 40331 57005 80002 333 05101 21136
AAXX 11061 51644 32960 02002 11021 21088 39051 40370 57002 333 05152 21100
AAXX 11061 51656 32980 42503 11027 21090 39226 40371 57006 80002 333 05251 21071
AAXX 11061 51886 32980 12001 11078 21236 37137 57010 80002 333 00100 21189
AAXX 11061 52602 32980 01602 11065 21289 37294 57009 333 00152 21217
AAXX 11061 52713 32980 63201 11058 21258 36924 57013 80002 333 00100 21197
AAXX 11061 52754 32980 02002 11049 21198 36789 57017 333 05101 21180
AAXX 11061 52818 32980 70702 11034 21202 37263 57009 82042 333 00251 21128
AAXX 11061 52836 32980 13602 11048 21218 36907 57017 80002 333 00252 21166
AAXX 11061 52955 32980 52703 11023 21222 36972 57024 80002 333 05101 21163
AAXX 11061 53068 32980 02904 11065 21118 39129 40331 57005 333 00000 21128
AAXX 11061 53276 32980 02707 11059 21130 38917 40323 57011 333 21100
AAXX 11061 54135 32980 12903 10013 21102 39994 40224 57009 80002 333 21103
AAXX 11061 54236 32980 03204 10040 21112 30117 40226 57009 333 21100
AAXX 11061 54539 32970 02704 10083 21074 30229 40244 57027 333 21039
AAXX 11061 54662 32975 03203 10072 21062 30124 40240 57017 333 21017
AAXX 11061 54753 32962 02504 10052 21013 30258 40265 57020 333 21014
AAXX 11061 54857 32962 02703 10076 21102 30186 40281 57022 333 21006
AAXX 11061 57067 32970 70901 10032 21119 39610 40320 57035 8703/ 333 21080
AAXX 11061 57178 32970 72502 10074 21078 30134 40299 57033 8703/ 333 21029
AAXX 11061 57245 32975 72701 10068 21032 39939 40304 57039 86032 333 05751 21021
AAXX 11061 57297 32975 02202 10101 21107 30148 40293 57034 333 21024
AAXX 11064 43400 NIL
AAXX 11064 43404 21470 8//// 10250 20244 30105 40115 78089 872// 333 58009 60227 70252 87818
AAXX 11064 43410 NIL
AAXX 11064 43413 22470 40506 10292 20252 30108 40112 83901 333 58002 60007 79999 82920
AAXX 11064 43415 22470 60000 10302 20254 30000 40108 84201 333 58003 60007 70050 84818
AAXX 11064 43418 21470 80705 10280 20249 3//// 4//// 70296 85336 333 5//// 60047 84818 81920 84360
AAXX 11064 43421 22470 63601 10304 20247 30006 40108 83131 333 58004 60007 70002 83818
AAXX 11064 43422 22469 605// 10298 20241 39976 40106 84978 333 58004 60007 70058 84818 82920 82080
AAXX 11064 43424 22478 50706 10308 20254 30092 40097 85100 333 58007 60007 70025 85818
AAXX 11064 43436 21470 73602 10276 20253 30100 40104 72582 84106 333 58004 60347 70364 84818 85280
AAXX 11064 43441 22470 602// 10310 20238 39966 40095 86200 333 58009 60007 70000 86818
AAXX 11064 43444 22470 43601 10280 20220 39573 40101 84121 333 58007 60007 70000 84816
AAXX 11064 43467 22466 32703 10304 20228 30096 40101 83100 333 58009 60007 70124 83816
AAXX 11064 43473 22470 43604 10186 20152 38135 48497 84202 333 58005 60007 70000 84814
AAXX 11064 43475 22470 53203 10300 20243 30092 40101 82931 333 58002 60007 70020 81818 81920 83080
AAXX 11064 43476 NIL
AAXX 11064 43479 21460 50902 10262 20203 39267 70282 83230 333 58003 69907 79999 83818
AAXX 11064 43486 21470 30000 10304 20241 30003 40097 70141 83200 333 58006 60007 70000 83814
AAXX 11064 43495 22466 6//// 10294 20260 30087 40103 85101 333 58004 60007 70012 85817 83080
AAXX 11064 43497 22476 51108 10318 20259 30078 40096 84901 333 58006 60007 79999 83818 81920
AAXX 11064 43400 NIL
AAXX 11064 43404 21470 8//// 10250 20244 30105 40115 78089 872// 333 58009 60227 70252 87818
AAXX 11064 43410 NIL
AAXX 11064 43413 22470 40506 10292 20252 30108 40112 83901 333 58002 60007 79999 82920
AAXX 11064 43415 22470 60000 10302 20254 30000 40108 84201 333 58003 60007 70050 84818
AAXX 11064 43418 21470 80705 10280 20249 3//// 4//// 70296 85336 333 5//// 60047 84818 81920 84360
AAXX 11064 43421 22470 63601 10304 20247 30006 40108 83131 333 58004 60007 70002 83818
AAXX 11064 43422 22469 605// 10298 20241 39976 40106 84978 333 58004 60007 70058 84818 82920 82080
AAXX 11064 43424 22478 50706 10308 20254 30092 40097 85100 333 58007 60007 70025 85818
AAXX 11064 43436 21470 73602 10276 20253 30100 40104 72582 84106 333 58004 60347 70364 84818 85280
AAXX 11064 43441 22470 602// 10310 20238 39966 40095 86200 333 58009 60007 70000 86818
AAXX 11064 43444 22470 43601 10280 20220 39573 40101 84121 333 58007 60007 70000 84816
AAXX 11064 43467 22466 32703 10304 20228 30096 40101 83100 333 58009 60007 70124 83816
AAXX 11064 43473 22470 43604 10186 20152 38135 48497 84202 333 58005 60007 70000 84814
AAXX 11064 43475 22470 53203 10300 20243 30092 40101 82931 333 58002 60007 70020 81818 81920 83080
AAXX 11064 43476 NIL
AAXX 11064 43479 21460 50902 10262 20203 39267 70282 83230 333 58003 69907 79999 83818
AAXX 11064 43486 21470 30000 10304 20241 30003 40097 70141 83200 333 58006 60007 70000 83814
AAXX 11064 43495 22466 6//// 10294 20260 30087 40103 85101 333 58004 60007 70012 85817 83080
AAXX 11064 43497 22476 51108 10318 20259 30078 40096 84901 333 58006 60007 79999 83818 81920
AAXX 11061 91943 16/// /0308 10273 20223 30136 40138 51016 69944 333 20254 58014
AAXX 11061 91945 06/// /0116 10258 20238 30131 40136 53018 60161 333 60027 555 58033 60244
AAXX 11064 40582 31915 03518 10118 20003 40257 51020 70700 333 55300 00349 10000 20877 30284 41099 51338 61161 55407 40593 90401 91025 91127 91217 91315
AAXX 11064 41150 NIL
AAXX 11064 41168 NIL
AAXX 11064 41170 41957 02805 10191 20084 30207 40220 333 20160 59008 555 00118
AAXX 11064 41176 NIL
AAXX 11064 41184 NIL
AAXX 11064 41194 NIL
AAXX 11064 41196 NIL
AAXX 11064 41198 NIL
AAXX 11064 41210 NIL
AAXX 11064 41216 NIL
AAXX 11064 41217 NIL
AAXX 11064 41218 NIL
AAXX 11064 41226 NIL
AAXX 11064 41244 NIL
AAXX 11064 41246 NIL
AAXX 11064 41254 NIL
AAXX 11064 41256 32960 03102 10241 20131 30180 40190 333 20172 3/017 59022
AAXX 11064 41258 NIL
AAXX 11064 41268 NIL
AAXX 11064 41312 NIL
AAXX 11064 41314 NIL
AAXX 11064 41316 NIL
AAXX 11064 41404 42960 03302 10124 21099 37893 48553 333 20024 30104 59001
AAXX 11064 41407 42970 00906 10156 21020 38978 48528 333 20062 30/// 59005
AAXX 11064 41431 42960 00000 10256 20209 30141 40154 333 20216 30/// 58009
AAXX 11064 41466 41430 80604 10140 20123 38589 48492 71044 886// 333 20114 30/// 59004 88720
AAXX 11064 41477 42960 01710 10260 20164 333 20230 30///
AAXX 11064 41480 42462 00610 10270 20157 30171 40157 333 30225 30/// 59001
AAXX 11064 89062 46/// /2404 10007 21023 39649 49689 57007 333 55008
AAXX 11061 29998 42999 01701 11184 21203 38679 48530 58018
AAXX 11061 30385 42999 80000 11176 21210 39646 40209 52007 83037
AAXX 11061 30469 42999 50000 11195 21221 39437 40243 52010 80002
AAXX 11061 30636 41698 82701 11066 21122 39654 40274 52004 72681 83900
AAXX 11061 30650 42599 80000 11158 21171 39115 40289 54000 83941
AAXX 11061 30664 41699 73205 11088 21174 39211 40218 52001 73632 82103
AAXX 11061 30781 42699 60000 11201 21234 39731 40234 58002 82505
AAXX 11061 30777 42699 72804 11099 21178 39548 40217 51002 83502
AAXX 11061 30844 42699 32905 11078 21128 39303 40303 58004 82140
AAXX 11061 30925 41699 11901 11071 21114 39338 40334 58005 70171 81100
AAXX 11061 31371 42999 00205 11138 21232 39879 40155 52007
AAXX 11061 31388 41999 00000 11182 21215 39856 40133 53006 70271
AAXX 11061 31478 NIL
AAXX 11061 31532 41998 60000 11245 21263 39780 40150 57012 77171 83037
AAXX 11061 31594 42999 82402 11099 21158 39957 40132 57005 84031
AAXX 11061 31655 42598 10000 11112 21174 30056 40105 52004 81500
AAXX 11061 31754 41598 62403 11139 21174 39699 40119 53005 72882 86900
BBXX MSTM6 11063 99501 70010 41/98 81312 10095 20051 40141 57020 70222 88/// 22224 06135 2//02 3//// 4//// 5//// 80075
BBXX 62303 11064 99516 70051 46/// /2222 10107 20086 40064 56032 22200 00119 10505 70027 333 90710 91129
BBXX 62301 11064 99524 70047 46/// /2123 10100 20087 40048 57031 22200 00103 10505 70024 333 90710 91140
BBXX 64046 11064 99605 70049 46/// /2317 10070 20037 49882 57005 22200 00096 10707 70036
BBXX 62001 11064 99452 70050 46/// /2711 10129 20104 40148 55008 22200 00152 10805 70023
BBXX 62163 11064 99475 70084 46/// /2416 10112 20078 40130 57021 22200 00133 10704 70021
BBXX 62029 11064 99487 70125 46/// /2820 10111 20074 40106 55007 22200 00136 10706 70030 333 90710 91127
BBXX 62442 11064 99490 70164 46/// /2724 1//// 2//// 40122 55007 22200 00130 333 90710 91134
BBXX 62081 11064 99510 70134 46/// ///// 10096 20052 40064 56016 22200 00120 10708 70039
BBXX 62105 11064 99554 70122 46/// /2524 10074 20019 49956 57018 22200 00107 10911 70053 333 90710 91139
BBXX 64045 11064 99591 70117 46/// /2624 10045 20011 49852 56017 22200 00104 10810 70051 333 90710 91134
BBXX AMOUK13 11064 99519 10013 46/// ///// 10046 20025 30112 40125 57015 90550
BBXX AMOUK06 11064 99507 70014 46/// ///// 10104 20055 30098 40121 57020 90550
BBXX AMOUK03 11064 99517 10027 46/// ///// 10084 20054 30089 40119 54002 90550
BBXX AMOUK14 11064 99533 70062 46/// ///// 10079 20055 30001 40041 57014 90550
BBXX AMOUK08 11064 99501 70061 46/// ///// 10106 20084 30089 40096 57030 90550
BBXX 62170 11064 99514 10020 46/97 /2019 10089 20057 40134 56013 22200 00117 10701 70005 333 90710 91129
BBXX AMOUK12 11064 99533 70048 46/// ///// 10081 20077 30001 40043 57020 90550
BBXX AMOUK27 11064 99582 70064 46/// ///// 11027 21060 39923 49925 57015 90550
BBXX 62305 11064 99504 10000 46/98 /2224 10096 20045 40143 56015 22200 00127 10501 70006 333 90710 91133
BBXX AMOUK19 11064 99599 70012 46/// ///// 10080 20045 39927 49936 57016 90550
BBXX AMOUK05 11064 99523 10033 46/// ///// 10082 20029 30077 40120 57007 90550
BBXX AMOUK09 11064 99507 10010 46/// ///// 10093 20055 30122 40140 57015 90550
BBXX 62127 11064 99540 10007 47698 ///// 10069 20040 40064 56021 700// 22200 10504 70019
BBXX 62131 11064 99539 10012 46/// /21// 10072 20046 40072 57019 22200
BBXX 62149 11064 99537 10011 47798 /2123 10070 20042 40077 57020 700// 22200 10504 70018
BBXX 62148 11064 99536 10015 46/// /2121 10064 20038 40091 57018 22200
BBXX 62150 11064 99536 10007 47798 /2123 10066 20037 40081 57021 700// 22200 10503 70016
BBXX 62111 11064 99580 70003 46/// /2520 10079 20052 49971 56017 22200 10605 70025
BBXX PJAI 11064 99581 70014 47998 /2319 10083 20032 49957 56010 700// 22200
BBXX 62121 11064 99535 10027 46/// /2219 10071 20032 40098 57014 22200
BBXX 62112 11064 99584 70002 47498 /2418 10074 20048 49960 56012 700// 22200
BBXX 63055 11064 99606 10016 47998 /1515 10057 21009 49944 57031 700// 22200 10705 70026
BBXX 63108 11064 99608 10017 47698 /1920 10053 20000 49939 58026 700// 22200 10805 70026
BBXX 63106 11064 99610 10017 46/// /1713 10058 49949 57025 22200
BBXX 63105 11064 99610 10017 47798 ///// 10068 20006 49947 57026 700// 22200
BBXX 63113 11064 99610 10017 46/// /1814 10062 20004 49947 57025 22200 10806 70029
BBXX 63112 11064 99611 10010 47/98 /1816 10066 20003 49937 57029 700// 22200 10806 70032
BBXX 63107 11064 99611 10017 46/// /1816 10061 49947 57024 22200
BBXX 63101 11064 99612 10009 46/// /1817 10062 21007 49941 57024 22200
BBXX 63103 11064 99612 10011 46/// /1715 10065 21027 49940 57027 22200 10806 70030
BBXX 63104 11064 99612 10016 47498 /1817 10059 20011 49949 57023 700// 22200
BBXX 63117 11064 99613 10011 47599 /1817 10060 20006 49948 57020 700// 22200
BBXX 63115 11064 99616 10013 47497 /1616 10098 20022 49944 57024 762// 22200 10806 70031
BBXX MWYG6 11064 99603 70040 47998 /2415 10069 700// 22200
BBXX 62144 11064 99534 10017 47998 /2220 10062 20035 40090 57020 700// 22200 10504 70019
BBXX 64041 11064 99607 70026 47597 /2021 10075 20040 49896 57013 700// 22200 10706 70030
BBXX 62145 11064 99531 10028 47999 /2118 10075 20027 40103 57013 700// 22200 10504 70021
BBXX 62142 11064 99530 10021 46998 /2318 10061 20032 40097 57018 22200 10503 70017
BBXX 62132 11064 99564 10020 46/// /2420 10079 20048 40018 57021 22200
BBXX 62120 11064 99564 10021 47498 /2323 10086 20043 40013 57022 700// 22200
BBXX 62154 11064 99564 10022 46/// /2121 10080 20051 40017 57021 22200
BBXX 62152 11064 99570 10018 47/97 /1917 10088 20039 40006 56020 751// 22200 10506 70031
BBXX 62119 11064 99570 10019 47497 /2323 10083 20047 40004 57022 700// 22200 10606 70028
BBXX 62133 11064 99571 10009 46/// /2023 10083 20052 49989 57021 22200
BBXX PJGO 11064 99571 10022 47497 /2021 10082 20043 40003 57016 700// 22200
BBXX 62164 11064 99572 10008 47498 /2118 10091 20065 49991 57020 700// 22200 00099 10606 70028
BBXX 62146 11064 99572 10021 47/97 /2109 10077 20055 49995 57025 700// 22200 10605 70024
BBXX 62140 11064 99573 10013 46/// /23// 10081 20055 49990 57024 22200
BBXX 62122 11064 99573 10016 47295 /2221 10100 20061 49994 56022 762// 22200 10605 70026
BBXX 62153 11064 99573 10020 47396 /2124 10078 20054 49994 57024 762// 22200 10605 70027
BBXX 62104 11064 99574 10013 47197 /2221 10080 20058 49983 57023 762// 22200
BBXX 62116 11064 99576 10011 47297 /2321 10078 20061 49978 57023 700// 22200 10606 70028
BBXX 62155 11064 99577 10007 47397 /2223 10083 20069 49978 57021 762// 22200 10605 70026
BBXX 62118 11064 99577 10009 47397 /2124 10091 20068 49970 57020 752// 22200 10606 70029
BBXX 62165 11064 99540 10009 47497 /2321 10073 20043 40071 57018 762// 22200 10605 70023
BBXX 62123 11064 99563 10022 46/// /2122 10087 20040 40019 57020 22200
BBXX 63056 11064 99597 10016 47296 /1918 10064 20042 49943 57035 740// 22200 10605 70024
BBXX 63057 11064 99592 10015 47396 /2121 10072 20052 49950 57033 761// 22200 10605 70026
BBXX 62128 11064 99587 10014 47397 /2120 10075 20054 49958 57028 700// 22200 10605 70026
BBXX 62129 11064 99584 10003 46/// ///// 10080 20051 49965 57022 22200
BBXX 62113 11064 99584 10002 47498 /2220 10078 20047 49962 57026 700// 22200
BBXX ZQSD5 11064 99583 10007 46/// /2222 10085 20056 49964 57027 22200 10806 70030
BBXX 62114 11064 99583 10000 46/// /2319 10079 20049 49958 56015 22200
BBXX 62134 11064 99580 10014 47397 /2222 10078 20052 49969 57028 762// 22200 10606 70030
BBXX 62102 11064 99579 10018 46/// /2120 10076 20049 49978 57027 22200 10605 70025
BBXX 62117 11064 99579 10000 47497 /2321 10089 20060 49965 57020 700// 22200 10605 70027
BBXX 62143 11064 99577 10018 47496 /2109 10075 20064 49981 57025 751// 22200 10505 70025
BBXX 62094 11064 99517 70067 46/// /2616 10094 20087 40052 57023 22200 00114 10505 70027
BBXX 62304 11064 99511 10018 46/98 /1611 10080 20058 40139 56013 22200 00120 10701 70004
BBXX 62103 11064 99499 70029 46/99 /2518 10108 20050 40120 57025 22200 00129 10601 70007
BBXX 62304 11064 99511 10018 46/96 /16// 10080 20058 40139 56013 22200 00120 10701 70004
BBXX 62107 11064 99501 70061 46/// /2129 10099 20072 40093 56028 22200 00121 10703 70016 333 90710 91134
BBXX 63119 11064 99583 10009 41597 82223 10082 20055 49947 57041 78182 887// 22200 20304 322// 40606 5////
BBXX 63110 11063 99595 10015 41/96 /2025 10068 20054 49942 76265 8//// 22200 10906 70030
AAXX 11061 40700 11658 42102 10050 20035 30206 40297 53003 60001 71021 84500 333 31001 70023 84635
AAXX 11061 40723 11550 83005 10026 20016 38953 40259 52012 60001 71022 8242/ 333 31105 70000 82630 88458
AAXX 11061 40726 12660 30000 11002 21036 38728 40297 51016 60001 83500 333 34105 70046 83635
AAXX 11061 40727 11656 50000 11006 21047 38550 40298 52028 60001 70522 85500 333 34106 70023 85645
AAXX 11061 40734 11457 82503 10086 20069 30320 40294 51032 60051 76166 8632/ 333 32006 50210 70171 84715 82920 88558
AAXX 11061 40737 11456 82206 10084 20080 30263 40281 52021 60031 76265 8632/ 333 32005 50011 70034 85718 82922 88556
AAXX 11061 40741 11508 83009 11007 21010 39898 40247 52032 60001 74444 887// 333 32103 70000 88720
AAXX 11061 40780 12960 01402 10036 21079 38632 40252 52012 60001 333 30104 5//// 70000
AAXX 11061 40791 12965 00000 10072 21098 39375 40215 53010 60001 333 30104 50231 70000
AAXX 11061 40792 12970 01703 10078 21087 38736 40206 52016 60001 333 30102 70000
AAXX 11061 40794 11940 00000 10086 20012 30137 40237 52020 60001 70600 90550 333 30001 50051 70000
AAXX 11061 40812 12960 00000 10130 20038 39831 40209 51009 60001 90545 333 30005 50241 70000
AAXX 11061 40829 12960 20202 10079 21137 39637 40225 50003 60001 80002 333 30107 5///1 70000 82070
AAXX 11061 40833 11957 03308 10112 20028 30207 40240 53017 60001 70600 90545 333 30006 50351 70000
AAXX 11061 40835 12970 00000 10132 20003 39386 40228 50002 60001 333 30000 50231 70000
AAXX 11061 40845 11957 13408 10180 20126 30212 40217 52014 60003 7070/ 80001 333 30015 50261 70000 81070
AAXX 11061 40882 11958 13106 10222 20136 30151 40186 53007 60001 70500 80001 333 30012 50261 70000 81070
AAXX 11061 40889 12560 12904 10240 20165 30189 40194 52013 60003 81100 222// 00260 20401 333 30013 50261 70000 81830
AAXX 11061 40890 12560 23003 10244 20139 30175 40183 52014 60003 82500 222// 00240 20300 333 30014 50620 70000 82630
AAXX 11061 40893 12965 03103 10222 20094 30176 40182 52012 60001 222// 00200 20301 333 30015 50441 70000
AAXX 11061 40897 NIL
AAXX 11061 28696 32970 70303 11174 21193 30182 40334 54000 80001 333 21198
AAXX 11061 28791 32999 80403 11169 21181 30169 40325 52001 80001 333 21194
AAXX 11061 28383 31956 10000 11205 21224 30272 40365 52003 70400 80002 333 21257 93525
AAXX 11061 40700 11658 42102 10050 20035 30206 40297 53003 60001 71021 84500 333 31001 70023 84635
AAXX 11061 40723 11550 83005 10026 20016 38953 40259 52012 60001 71022 8242/ 333 31105 70000 82630 88458
AAXX 11061 40726 12660 30000 11002 21036 38728 40297 51016 60001 83500 333 34105 70046 83635
AAXX 11061 40727 11656 50000 11006 21047 38550 40298 52028 60001 70522 85500 333 34106 70023 85645
AAXX 11061 40734 11457 82503 10086 20069 30320 40294 51032 60051 76166 8632/ 333 32006 50210 70171 84715 82920 88558
AAXX 11061 40737 11456 82206 10084 20080 30263 40281 52021 60031 76265 8632/ 333 32005 50011 70034 85718 82922 88556
AAXX 11061 40741 11508 83009 11007 21010 39898 40247 52032 60001 74444 887// 333 32103 70000 88720
AAXX 11061 40780 12960 01402 10036 21079 38632 40252 52012 60001 333 30104 5//// 70000
AAXX 11061 40791 12965 00000 10072 21098 39375 40215 53010 60001 333 30104 50231 70000
AAXX 11061 40792 12970 01703 10078 21087 38736 40206 52016 60001 333 30102 70000
AAXX 11061 40794 11940 00000 10086 20012 30137 40237 52020 60001 70600 90550 333 30001 50051 70000
AAXX 11061 40812 12960 00000 10130 20038 39831 40209 51009 60001 90545 333 30005 50241 70000
AAXX 11061 40829 12960 20202 10079 21137 39637 40225 50003 60001 80002 333 30107 5///1 70000 82070
AAXX 11061 40833 11957 03308 10112 20028 30207 40240 53017 60001 70600 90545 333 30006 50351 70000
AAXX 11061 40835 12970 00000 10132 20003 39386 40228 50002 60001 333 30000 50231 70000
AAXX 11061 40845 11957 13408 10180 20126 30212 40217 52014 60003 7070/ 80001 333 30015 50261 70000 81070
AAXX 11061 40882 11958 13106 10222 20136 30151 40186 53007 60001 70500 80001 333 30012 50261 70000 81070
AAXX 11061 40889 12560 12904 10240 20165 30189 40194 52013 60003 81100 222// 00260 20401 333 30013 50261 70000 81830
AAXX 11061 40890 12560 23003 10244 20139 30175 40183 52014 60003 82500 222// 00240 20300 333 30014 50620 70000 82630
AAXX 11061 40893 12965 03103 10222 20094 30176 40182 52012 60001 222// 00200 20301 333 30015 50441 70000
AAXX 11061 40897 NIL
AAXX 11063 64800 NIL
AAXX 11063 64820 NIL
AAXX 11063 64860 31915 50000 10175 20090 39862 40134 70622 80002 333 00600 20168 50810 55065 58007 85080
AAXX 11063 64861 NIL
AAXX 11063 64870 NIL
AAXX 11063 64871 NIL
AAXX 11063 64892 NIL
AAXX 11063 64893 NIL
AAXX 11063 64894 NIL
AAXX 11064 64910 31420 70000 10247 20242 30095 40104 71022 84302 333 02100 20245 50261 55066 58002 84561 81916 87080 94944 95834
AAXX 11064 64911 NIL
AAXX 11064 64950 NIL
AAXX 11061 28465 32999 00000 11185 21204 30262 40345 57001 333 21212
AAXX 11061 28586 32998 20000 11139 21152 30187 40346 57002 80001 333 21178
AAXX 11061 28688 32998 60502 11134 21161 30159 40329 52003 80001 333 21170
AAXX 11061 23929 32980 81902 11125 21152 30232 40303 54000 82031 333 21159
BBXX JGQH 11064 99243 11363 41/97 70423 10211 20188 40172 55010 70282 872// 22221 00248 1//05 20503 303// 40803 70024
BBXX JGQH 11064 99243 11363 41/97 70423 10211 20188 40172 55010 70282 872// 22221 00248 1//05 20503 303// 40803 70024
BBXX JPBN 11064 99303 11475 41/97 82924 10193 20156 40162 53009 78082 882// 22241 00209 1//04 20503 322// 40803 70021
BBXX JPBN 11064 99303 11475 41/97 82924 10193 20156 40162 53009 78082 882// 22241 00209 1//04 20503 322// 40803 70021
AAXX 11061 28588 32982 20401 11147 21167 30173 40343 53005 80002 333 21186
BBXX 44032 11061 99437 70694 46/30 /3107 10005 40283 51012 90604 22200 00091 10301 70006 333 91210 555 11082 22085
AAXX 11061 40700 11658 42102 10050 20035 30206 40297 53003 60001 71021 84500 333 31001 70023 84635
AAXX 11061 40723 11550 83005 10026 20016 38953 40259 52012 60001 71022 8242/ 333 31105 70000 82630 88458
AAXX 11061 40726 12660 30000 11002 21036 38728 40297 51016 60001 83500 333 34105 70046 83635
AAXX 11061 40727 11656 50000 11006 21047 38550 40298 52028 60001 70522 85500 333 34106 70023 85645
AAXX 11061 40734 11457 82503 10086 20069 30320 40294 51032 60051 76166 8632/ 333 32006 50210 70171 84715 82920 88558
AAXX 11061 40737 11456 82206 10084 20080 30263 40281 52021 60031 76265 8632/ 333 32005 50011 70034 85718 82922 88556
AAXX 11061 40741 11508 83009 11007 21010 39898 40247 52032 60001 74444 887// 333 32103 70000 88720
AAXX 11061 40780 12960 01402 10036 21079 38632 40252 52012 60001 333 30104 5//// 70000
AAXX 11061 40791 12965 00000 10072 21098 39375 40215 53010 60001 333 30104 50231 70000
AAXX 11061 40792 12970 01703 10078 21087 38736 40206 52016 60001 333 30102 70000
AAXX 11061 40794 11940 00000 10086 20012 30137 40237 52020 60001 70600 90550 333 30001 50051 70000
AAXX 11061 40812 12960 00000 10130 20038 39831 40209 51009 60001 90545 333 30005 50241 70000
AAXX 11061 40829 12960 20202 10079 21137 39637 40225 50003 60001 80002 333 30107 5///1 70000 82070
AAXX 11061 40833 11957 03308 10112 20028 30207 40240 53017 60001 70600 90545 333 30006 50351 70000
AAXX 11061 40835 12970 00000 10132 20003 39386 40228 50002 60001 333 30000 50231 70000
AAXX 11061 40845 11957 13408 10180 20126 30212 40217 52014 60003 7070/ 80001 333 30015 50261 70000 81070
AAXX 11061 40882 11958 13106 10222 20136 30151 40186 53007 60001 70500 80001 333 30012 50261 70000 81070
AAXX 11061 40889 12560 12904 10240 20165 30189 40194 52013 60003 81100 222// 00260 20401 333 30013 50261 70000 81830
AAXX 11061 40890 12560 23003 10244 20139 30175 40183 52014 60003 82500 222// 00240 20300 333 30014 50620 70000 82630
AAXX 11061 40893 12965 03103 10222 20094 30176 40182 52012 60001 222// 00200 20301 333 30015 50441 70000
AAXX 11061 40897 NIL
BBXX 42362 11061 99278 70907 46/// /0411 10161 20072 40271 90615
BBXX 42363 11061 99282 70892 46/// /0714 10156 20078 40264 90615 333 91214
BBXX 42363 11061 99282 70892 46/// /0511 10156 20078 40264 90630 333 91211
BBXX 42364 11061 99291 70881 46/// /0312 10144 20067 40261 90615
BBXX 46111 11061 99481 71227 46/// /2501 10057 40199 54000 90600 22200 00062
BBXX 46112 11061 99481 71227 46/// /1603 10053 40201 54000 90600
BBXX 46088 11061 99483 71232 46/// /0205 10053 40201 90620 22200 00081 1//00 70001 333 91206 555 11048 22049 30619 40106 60619 018045 027040 024039 016037 018037 024034
AAXX 11064 17510 12560 10000 10117 20040 30240 40250 53010 60002 81100 333 20097 30007 50121 55082 20912 81830 92417
AAXX 11064 17572 12560 1//// 10116 20024 30266 40291 5//// 60002 81100 333 20097 30007 81830 92417
AAXX 11061 38388 NIL
AAXX 11061 38392 31193 93303 11044 21046 30147 40255 53008 74544 333 21056 89/02
AAXX 11061 38507 21697 80000 10027 20014 30176 40282 52022 72586 8297/ 333 60010 20014
AAXX 11061 38511 31496 80000 11016 21021 30118 40265 52009 77777 886// 333 21030
AAXX 11061 38545 31/93 91302 11022 21028 30063 40245 57012 74344 333 21035
AAXX 11061 38647 32497 80902 10001 21010 30212 40256 52014 86607 333 21010
AAXX 11061 38656 32698 83403 11018 21042 30143 40257 53022 885// 333 21024
AAXX 11061 38687 31997 00702 10012 20004 39986 40228 57003 70241 333 21032
AAXX 11061 38750 22597 83303 10062 20041 30300 40271 53022 885// 333 60030 20066
AAXX 11061 38763 31496 82902 11004 21013 30141 40250 52006 75152 886// 333 21012 88713
AAXX 11061 38774 31/93 93202 10002 21009 30060 40263 52005 74742 333 21014
AAXX 11061 38799 31597 62901 11015 21020 39984 40224 57003 72844 86500 333 21029
AAXX 11061 38806 32997 00501 10057 20028 39959 40223 57010 333 21034
AAXX 11061 38880 21395 82202 10021 20011 39994 40256 51015 71054 886// 333 69900 21002 88709
AAXX 11061 38886 31494 83104 11007 21017 30007 40243 52017 71042 886// 333 21007
AAXX 11061 38895 31495 83003 11002 21002 39927 40227 53009 71022 887// 333 21018
AAXX 11061 38911 32998 01204 10045 21006 39915 40214 57011 333 21010
AAXX 11061 38915 32999 00904 10118 21038 39890 40211 56008 333 21014
AAXX 11061 38974 31596 83204 11008 21017 39894 40240 52025 71042 886// 88720 21010
AAXX 11061 38987 32996 02002 10065 21009 39460 40207 57007 333 21015
AAXX 11064 61401 NIL
AAXX 11064 61404 NIL
AAXX 11064 61415 31956 60207 10187 20078 30138 40143 70622 86070 333 20187 50654 55026 58006 86463
AAXX 11064 61421 NIL
AAXX 11064 61437 NIL
AAXX 11064 61442 32956 50805 10224 21120 30118 40122 80002 333 02000 50724 55088 59001 85073
AAXX 11064 61450 NIL
AAXX 11064 61461 NIL
AAXX 11064 61489 NIL
AAXX 11064 61492 NIL
AAXX 11064 61497 NIL
AAXX 11064 61498 31950 03604 10174 20124 39988 40120 705// 333 0//00 20174 5//// 55/// 58004
AAXX 11064 61499 31930 00406 10180 20054 39869 40123 70500 333 0//00 20175 50984 55/// 58002
AAXX 11064 61510 NIL
BBXX C6OT4 11064 99289 11602 41397 42216 10241 20222 40220 54011 70022 84179 22223 04239 20206 32324 40206 50206 80228
BBXX SHIP 11064 99190 11312 41597 61614 10290 20263 40113 56015 70111 84335 22253 00270 20503 316// 40503 80270
BBXX SHIP 11064 99287 11364 41296 83210 10170 20120 40201 56011 76162 8661/ 22283 00241 20201 333// 40302 5//// 80140
BBXX SHIP 11064 99260 11334 41295 83317 10180 20148 40239 57016 76166 87657 22244 00220 20403 313// 40504 80160
BBXX ZQCP3 11063 99166 11132 41397 80236 10220 20192 40137 57030 70522 877// 22243 00250 29902 30204 40805 50404 80202
BBXX SHIP 11064 99297 11516 41497 62018 10230 20216 40162 56010 70222 8453/ 22263 06225 20203 32636 40605 50504 80220
BBXX A8PB2 11063 99174 11111 41396 80125 10190 20159 40120 56020 71022 886// 22254 04259 20806 305// 41006 80170
BBXX SHIP 11064 99248 11414 41/97 80216 10226 40165 57009 71562 885// 9//// 22282 00250 20301 302// 40403
BBXX 3EDA4 11063 99292 11420 41097 53015 10190 20159 40180 50/// 76166 85626 22263 00227 20302 30303 40302 50302 80170
BBXX SHIP 11064 99230 11733 41497 20918 10257 20203 40191 52007 70200 82200 22223 04259 20403 312// 40704
BBXX SHIP 11063 99107 11279 41/98 60910 10300 20287 40133 57021 702// 83234 22254 00280 2//01 304// 40502 80290
BBXX PDWT 11063 99090 11265 41698 59903 10312 20229 40090 56010 70200 83101 22283 06251 299// 3//// 4//// 5//// 80252
BBXX A8UE4 11063 99449 11799 41/97 42745 10060 21041 40080 52035 70281 847// 22263 04110 20108 327// 40612 5//// 80025
BBXX DDZI2 11063 99351 11310 41598 72321 10090 20013 40230 54000 703// 83476 22254 00093 2//// 80055
BBXX DQVJ 11061 99522 71734 41/97 /0619 10035 21001 49890 51010 78711 8//// 22221 00056 20905 399// 4//// 5//// 80020
BBXX SHIP 11064 99188 31005 41397 81204 10260 20218 40101 54002 72528 8765/ 22214 00261 20201 309// 40504 80230
BBXX ZMFR 11064 99491 31680 43/// /06// 10107 20100 40128 57029 22282 00102
BBXX ZMENA 11064 99421 31741 46/// ///// 10149 20127 40156 57020 22213
BBXX V2QD4 11063 99340 31535 41398 50210 10210 20195 40030 58040 70211 85182 22263 00250 20301 308// 41402
BBXX ZMFR 11064 99491 31680 43/// /06// 10107 20100 40128 57029 22282 00102
BBXX ZMENA 11064 99421 31741 46/// ///// 10149 20127 40156 57020 22213
BBXX V2QD4 11063 99340 31535 41398 50210 10210 20195 40030 58040 70211 85182 22263 00250 20301 308// 41402
BBXX SHIP 11064 99188 31005 41397 81204 10260 20218 40101 54002 72528 8765/ 22214 00261 20201 309// 40504 80230
AAXX 11064 93800 16/// /0333 10171 20117 40094 57023 60001
AAXX 11064 93805 16/// /1604 10148 20131 40092 57028 60001
AAXX 11064 93994 16/// /1109 10212 20179 40165 52003 60011
AAXX 11061 48830 32970 00505 10144 21009 39918 40233 57037 333 59022
AAXX 11061 48808 32970 00901 10174 20021 39935 40223 57043 333 59045
AAXX 11061 48826 32960 03201 10170 20059 30085 40223 58032 333 59013
AAXX 11061 48839 32997 00210 10147 20046 30156 40226 58034 222// 00193 2//03 333 59009 91122 91502
AAXX 11064 41529 12997 03102 10167 20036 39781 40165 60001 333 59018
AAXX 11064 41598 11996 03602 10175 20036 39878 40157 60001 70500 333 58000
AAXX 11064 41620 32997 02305 10150 21242 38600 48504 333 59033
AAXX 11064 41624 02997 03102 10186 20037 39947 40148 60001 333 59016 60007
AAXX 11064 41640 01996 02702 10184 20037 39900 40150 60001 70500 333 59006 60007
AAXX 11064 41660 11996 13104 10070 20009 38469 48559 60001 70500 80001 333 56009 59024 81072
AAXX 11064 41675 11995 01804 10205 20006 30011 40154 60001 70500 333 59022
AAXX 11064 41712 12997 00502 10120 21093 39243 48545 60001 333 59028
AAXX 11064 41715 01996 03102 10200 20074 30099 40164 60001 70400 333 59029 60007
AAXX 11064 41756 01996 03608 10220 20034 30102 40166 60001 70500 333 59024 60007
AAXX 11064 41764 32996 02106 10250 20096 30104 40154 60001 333 59027 60007
AAXX 11064 41768 02996 01302 10225 20058 30163 40169 60001 333 59011 60007
AAXX 11064 41780 02996 00000 10245 20135 40168 60001 333 59026 60007
AAXX 11061 21432 41997 83501 11178 21204 30183 40203 52009 77172 8807/
AAXX 11061 21824 41997 82102 11247 21258 30190 40200 53001 77872 86035
AAXX 11061 21908 41799 71801 11295 21319 30121 40209 57004 70272 87020
AAXX 11061 21921 42999 50000 11402 21427 30166 40217 53002 85030
AAXX 11061 21931 41997 82302 11276 21299 30146 40181 52007 77172 8805/
AAXX 11061 21946 42999 50801 11370 21397 30095 40185 51001 85030
AAXX 11061 21982 11/92 90515 11112 21118 39919 49946 57020 60012 73973 333 11104 91118 92983
AAXX 11061 25062 11996 80610 11097 21105 39895 49899 57026 69952 77173 8802/ 333 11097 91113
AAXX 11061 25123 41994 83605 11173 21199 39938 49972 57038 73873 8802/ 333 91111
AAXX 11061 25138 41596 82903 11275 21299 39817 49947 58035 77372 8752/ 333 91108
AAXX 11061 25173 11294 80508 11076 21081 39840 49844 57032 60042 77573 8872/ 333 11071 91115
AAXX 11061 25248 41997 82906 11193 21226 39413 49870 58016 77271 8802/ 333 91112
AAXX 11061 25282 11/08 90812 11048 21054 39775 49781 57019 60060 73933 333 11048 91118 92993
AAXX 11061 25325 NIL
AAXX 11061 25356 11594 83612 11119 21154 39647 49545 56015 60012 77173 885// 333 11119 91016
AAXX 11061 25399 11422 80908 11010 21020 39728 49737 57025 60020 78583 889// 333 1//// 91113
AAXX 11061 25428 41650 83007 11286 21316 39620 49976 58021 77173 8652/ 333 91117
AAXX 11061 25551 11995 83407 11124 21144 39701 49737 57014 60040 77173 8802/ 333 11/// 91114
AAXX 11061 25563 11584 71102 11089 21104 39695 49671 53024 69972 70283 86930 333 11017 91116
AAXX 11061 25594 41498 82403 11009 21016 39643 49691 53013 60022 70273 885// 333 10001 49029 91109
AAXX 11061 25677 11597 80506 11010 21020 39637 49643 53001 69932 73632 875// 333 11010 88624 91109
AAXX 11061 31054 41998 80000 11391 21410 39905 40207 52009 77172 8802/
AAXX 11061 31123 42997 81101 11308 21338 39864 40225 58003 77172 84017
AAXX 11064 41529 12997 03102 10167 20036 39781 40165 60001 333 59018
AAXX 11064 41598 11996 03602 10175 20036 39878 40157 60001 70500 333 58000
AAXX 11064 41620 32997 02305 10150 21242 38600 48504 333 59033
AAXX 11064 41624 02997 03102 10186 20037 39947 40148 60001 333 59016 60007
AAXX 11064 41640 01996 02702 10184 20037 39900 40150 60001 70500 333 59006 60007
AAXX 11064 41660 11996 13104 10070 20009 38469 48559 60001 70500 80001 333 56009 59024 81072
AAXX 11064 41675 11995 01804 10205 20006 30011 40154 60001 70500 333 59022
AAXX 11064 41712 12997 00502 10120 21093 39243 48545 60001 333 59028
AAXX 11064 41715 01996 03102 10200 20074 30099 40164 60001 70400 333 59029 60007
AAXX 11064 41756 01996 03608 10220 20034 30102 40166 60001 70500 333 59024 60007
AAXX 11064 41764 32996 02106 10250 20096 30104 40154 60001 333 59027 60007
AAXX 11064 41768 02996 01302 10225 20058 30163 40169 60001 333 59011 60007
AAXX 11064 41780 02996 00000 10245 20135 40168 60001 333 59026 60007
AAXX 11060 44219 41697 70000 11135 21155 38692 40416 58011 71577 87500
AAXX 11061 37575 42998 20502 10016 21009 39690 40295 52005 82050
AAXX 11061 37675 41/92 90000 10014 20014 39626 40305 53010 75154 333 96045
AAXX 11061 37735 42996 02901 10056 21002 39845 40226 53007
AAXX 11061 37749 41/93 90901 10044 20039 30222 40342 53010 74542
AAXX 11061 37756 41/93 90000 10003 20003 39421 40349 51006 74574
AAXX 11061 37864 32597 80000 10066 20039 40300 52009 885// 333 20060 88620 555 31///
AAXX 11061 37985 42598 31601 10055 20043 30318 40303 51004 83546
AAXX 11061 22583 11356 81402 11059 21070 39975 40057 57015 69900 77172 8872/ 333 21070
BBXX 46042 11061 99368 71224 46/// /2905 10109 40181 52003 90550 22200 00119 11604 20401 330// 41604 70020 333 91206 555 11050 22052 30500 43106 60549 289048 298036 312037 319038 318044 309041
BBXX 46207 11061 99509 71299 46/// /3310 10071 40227 54000 22200 00086 11605 70027 333 91212
BBXX DFWV2 11064 99304 71391 41/98 10214 10170 20100 40265 52020 70200 8//// 22263 04170 2//02 3//// 4//// 5//// 80130
BBXX OYCY2 11064 99352 71231 43/96 /3408 10140 20120 40220 54000 7//// 8//// 22234 00160 2//// 3//// 4//// 5//// 6//// 80130 ICE /////
BBXX SHIP 11064 99318 71366 41797 30215 10180 20130 40230 54000 7//00 831// 22223 00200 2//// 3//// 4//// 5//// 6//// 80150 ICE /////
BBXX VREX8 11064 99448 71444 41/// /2812 10120 20080 40310 5//// 7//00 8//// 22255 0//// 20102 328// 40102 50102 6//// 80100 ICE /////
BBXX WHRN 11063 99328 71210 41698 32921 10128 20110 40175 50010 70200 83/// 22265 00161 2//// 3//// 4//// 5//// 6//// 80117 ICE /////
AAXX 11061 14216 12665 70301 10114 20094 30034 40184 52004 60002 87500 333 20094 31005 70000 923// 924/8
AAXX 11061 14219 11560 71701 10060 20048 39177 48490 53/// 69902 70266 87500 333 20050 31002 79999
AAXX 11061 14232 11575 83601 10058 20029 30074 40212 51017 69962 70366 886// 333 20040 31002 70009
AAXX 11061 14234 11680 83401 10048 20016 39966 40216 52012 69902 7602/ 8352/ 333 20030 31100 79999
AAXX 11061 14236 12880 70603 10073 21001 30005 40204 51/// 60002 87070 333 20066 30003
AAXX 11061 14244 11458 80101 10053 20042 30088 40220 52018 60022 76162 885// 333 20052 32002 70017
AAXX 11061 14248 12665 83602 10051 20009 30036 40213 52/// 60002 885// 333 20036 31001
AAXX 11061 14253 12660 60503 10062 20012 30034 40210 52012 60002 86500 333 20049 31001
AAXX 11061 14256 12560 80604 10040 20010 39884 40208 52015 60002 8657/ 333 20035 31/// 70000
AAXX 11061 14280 11960 83601 10058 20045 30102 40213 52016 69912 75022 8807/ 333 20058 31005 70001
AAXX 11061 14308 11920 60000 10062 20056 39830 40186 54003 60002 71044 86070 333 20060 30002
AAXX 11061 14321 11564 81201 10127 20114 30166 40190 53/// 60022 760// 888// 222// 00141 333 20124 32011 70027 92301 92417
AAXX 11061 14370 11560 80703 10060 20038 30096 40207 52018 60032 76166 8672/ 333 20056 32006 70029
AAXX 11061 14382 11558 80102 10054 20037 30086 40208 52014 60012 76162 8672/ 333 20054 32005 70013
AAXX 11061 14428 11470 51001 10113 20098 30178 40186 53003 60052 70386 83832 222// 00150 333 20112 31007 70050 92301
AAXX 11061 14441 12580 83602 10137 20119 30153 40177 53001 60002 8127/ 222// 00176 333 20127 30008 92311
AAXX 11061 14452 12598 61405 10146 20134 39964 40185 51/// 60002 82536 333 20140 92311
AAXX 11061 14454 12770 83501 10143 20071 30125 40185 54001 60002 85578 333 20132 31008 70001 92312
AAXX 11061 14462 12565 60000 10105 20096 30194 40200 54/// 60002 86800 333 20091 31006 70045
AAXX 11064 08261 11/02 90502 10070 20066 39724 40212 55000 60012 74444 333 20066 31006 55000 70048 89/03
AAXX 11064 60285 32958 50607 10143 20137 40208 5//// 80002 333 20140 85070
BBXX 61002 11064 99421 10047 46/// /0000 10136 2//// 40170 54000 22200 00151 10501 70003
AAXX 11064 61600 32960 70604 10197 20089 30100 40105 80002 333 20166 50554 55091 59007 87073
AAXX 11064 61612 32960 00000 10195 20019 30105 40113 333 01700 20190 50561 55094 58003
AAXX 11064 61627 31945 60404 10178 20026 3//// 4//// 7061/ 80002 333 00600 20155 50854 55080 5//// 86073
AAXX 11064 61630 32960 00000 10202 20047 30086 40105 333 01800 20200 50662 55066 58012
AAXX 11064 61641 32957 60207 10230 20207 30074 40107 80002 333 01900 20225 50454 55076 59001 86073
AAXX 11064 61666 32956 63604 10190 20138 30090 40098 80002 333 01300 20160 50424 55050 58000 86073
AAXX 11064 61679 32958 03606 10197 20142 30102 40110 333 01700 20197 50544 55050 85007
AAXX 11064 61687 32960 03402 10185 20097 30045 40102 333 01200 20164 50981 55080 58013
AAXX 11064 61695 32958 22602 10182 20171 30078 40104 80002 333 01310 20180 50254 55065 58007 82073
AAXX 11064 61697 32960 00000 10192 20189 30084 40099 333 01500 20185 50274 55063 58002
AAXX 11064 61698 32958 00000 10159 20145 30094 40105 333 01100 20156 50274 55031 58008
AAXX 11064 61699 32958 31406 10200 20127 39903 40090 80002 333 01600 20190 50554 55090 58011 83073
BBXX 46147 11061 99518 71312 46/// /3310 10069 40237 52005 22200 00082 11406 70032 333 91212
BBXX 46147 11061 99518 71312 46/// /3310 10069 40237 52005 22200 00082 11406 70032 333 91212
AAXX 11061 25703 41696 83503 11258 21289 39823 40112 57002 77172 8252/
AAXX 11061 25745 41598 83404 11145 21196 39723 49775 57008 73683 885//
AAXX 11061 25913 42999 00602 11193 21261 39806 49961 57002
AAXX 11061 25954 41598 83108 11143 21194 39641 49755 53011 73683 8553/ 333 91012 91119
AAXX 11061 25956 42699 20207 11128 21163 39665 49671 53015 82500
AAXX 11061 31088 42999 20103 11205 21262 30005 40013 57004 81040
AAXX 11061 31873 42998 02404 11067 21133 30030 40167 55004
AAXX 11061 31909 42999 13004 11050 21159 30054 40132 57002 81030 333 91113
AAXX 11061 31960 42999 32104 11022 21113 39947 40185 57011 83040
AAXX 11061 31961 42998 81702 11032 21125 30137 40184 56010 84032
AAXX 11061 32053 41599 62502 11141 21176 30001 40052 53007 70181 82931 333 91004 91108
AAXX 11061 32061 41596 83103 11118 21145 30026 40066 53004 78582 889// 333 91006 91106
AAXX 11061 32098 42598 20201 11125 21160 30057 40067 53006 81903 333 91002 91105
AAXX 11061 32150 41594 81901 11063 21082 30035 40065 57005 78682 889// 333 91002 91103
AAXX 11061 32165 41598 63205 11014 21051 30015 40077 53013 70282 86900 333 91007 91111
AAXX 11061 32215 41565 52502 11034 21094 39938 49967 56003 70282 85900 333 91004 91111
AAXX 11061 32252 NIL
AAXX 11061 32389 41999 52908 11094 21163 39825 49862 57002 73632 85030 333 91114
AAXX 11061 32477 42599 81302 11128 21171 39902 49935 57006 885//
AAXX 11061 32583 42699 72811 11049 21132 39875 49905 53005 81544 333 91013 91115
AAXX 11061 32618 41598 53306 11044 21114 39808 49829 52011 70283 85400 333 91114
AAXX 11064 41515 02997 00915 10098 21196 38578 48540 60001 333 59012 60007
AAXX 11064 41560 22697 21803 10055 21017 38264 48494 60001 81230 333 59004 60007
AAXX 11064 41571 NIL
AAXX 11064 41594 31997 22704 10190 20030 39937 40155 80001 333 56009 59006
AAXX 11064 41685 32997 03102 10175 21061 38937 48525 333 59003
AAXX 11064 41710 02997 00904 10145 21114 39419 40200 60001 333 59016 60007
AAXX 11064 41718 11995 00000 10190 20059 30050 40154 60001 70500 333 59028
AAXX 11064 41739 02997 00000 10160 21073 39084 48539 60001 333 59025 60007
AAXX 11064 41744 32996 00000 10190 21048 38790 48518 333 59020
AAXX 11064 41749 21996 04504 10210 20088 30128 40161 60001 70400 333 59032 60007
AAXX 11064 41515 02997 00915 10098 21196 38578 48540 60001 333 59012 60007
AAXX 11064 41560 22697 21803 10055 21017 38264 48494 60001 81230 333 59004 60007
AAXX 11064 41571 NIL
AAXX 11064 41594 31997 22704 10190 20030 39937 40155 80001 333 56009 59006
AAXX 11064 41685 32997 03102 10175 21061 38937 48525 333 59003
AAXX 11064 41710 02997 00904 10145 21114 39419 40200 60001 333 59016 60007
AAXX 11064 41718 11995 00000 10190 20059 30050 40154 60001 70500 333 59028
AAXX 11064 41739 02997 00000 10160 21073 39084 48539 60001 333 59025 60007
AAXX 11064 41744 32996 00000 10190 21048 38790 48518 333 59020
AAXX 11064 41749 21996 04504 10210 20088 30128 40161 60001 70400 333 59032 60007
AAXX 11064 17601 12682 13304 10078 20013 30246 40278 52013 60002 81502 90550 333 20069 34102 4//// 70000 81640
AAXX 11064 45011 47965 /0214 10153 21003 40219 57035 70011 333 59006
AAXX 11064 71213 46/// /2108 11101 21124 39940 40252 55000 6///1 333 11088 21146 7////
AAXX 11064 71217 16/// /3004 11052 21090 60001 333 10073 21066 7////
AAXX 11064 71224 16/// /3108 11037 21090 60001 333 10068 21040 70000 555 32436 40103
AAXX 11064 71434 16/// /2006 11215 21243 30092 40161 57004 60001 333 11197 70000 555 32517 40141
AAXX 11064 71767 16/// /2410 11017 21101 30009 40277 50000 60001 333 11017 21051 70000 555 32420 40041
AAXX 11064 71979 16/// ///// 11052 21102 38465 40128 53013 60001 333 10006 21105 70007
AAXX 11064 71276 16/// ///13 11043 21069 60001 333 11029 21073 70000
AAXX 11064 71189 46/// /2714 11092 21127 6///1 333 11024 21095 7//// 555 32831 40162
AAXX 11064 71343 16/// /2608 11037 21073 60001 333 10091 21037 70000 555 32631 40082
AAXX 11064 67969 12575 60301 10219 20184 3//// 48/// 69924 83530 333 20177 5//// 83620 86360
AAXX 11061 50434 11980 01101 11146 21190 39278 40244 54000 69901 70070 333 21316
AAXX 11061 50527 32975 02002 11171 21187 39403 40254 52004 333 21231
AAXX 11061 50603 32980 02903 11079 21137 39548 40255 52003 333 21134
AAXX 11061 50632 32980 02906 11099 21156 39266 40201 52001 333 21167
AAXX 11061 50727 11565 72903 11113 21147 39009 40248 52005 69911 77070 86502 333 21159
AAXX 11061 50915 32980 52203 11078 21136 39234 40295 52001 80002 333 21173
AAXX 11061 51716 32963 72502 11027 21067 39011 40369 57004 86032 333 05304 21070
AAXX 11061 51765 32980 63402 11010 21082 39331 40387 57007 80002 333 05100 21136
AAXX 11061 51777 32975 72502 10008 21092 39286 40380 57008 80002 333 05201 21095
AAXX 11061 51811 11962 70401 11032 21062 38881 40379 57004 69901 70070 8703/ 333 05302 21090
AAXX 11061 51828 32961 03401 11019 21074 38721 40362 57004 333 05302 21090
AAXX 11061 52267 32980 02702 11050 21229 39198 40371 57018 333 05452 21157
AAXX 11061 52323 32980 72706 11053 21159 38276 57015 80002 333 05303 21221
AAXX 11061 52495 32980 01801 11009 21223 38760 40374 57024 333 05403 21185
AAXX 11061 53149 32980 02707 11043 21137 38831 40316 57012 333 05302 21114
AAXX 11061 53192 32980 02503 11130 21162 38935 40349 57003 333 21168
AAXX 11061 53231 32980 02206 11051 21212 38551 57015 333 05302 21138
AAXX 11061 53336 32980 01602 11039 21168 38781 40347 57017 333 05403 21145
AAXX 11061 53391 32980 02906 11060 21129 38542 40318 57012 333 00002 21110
AAXX 11061 53529 32980 02702 11015 21172 38694 40353 57018 333 05403 21140
AAXX 11061 53543 32980 02902 11006 21132 38596 40331 57017 333 21107
AAXX 11061 53723 32975 02704 11036 21133 38736 40382 57018 333 05401 21167
AAXX 11061 54012 32980 72707 11095 21141 39047 40297 57002 8703/ 333 21126
AAXX 11061 54026 32580 12705 10005 21119 39886 40223 57004 81100 333 21067
AAXX 11061 54027 32680 23203 11005 21128 39633 40243 57006 82100 333 21093
AAXX 11061 54208 32680 12907 11054 21117 38788 40296 57007 81500 333 21104
AAXX 11061 54776 32980 03205 10078 21046 30199 40258 57021 333 21001
AAXX 11061 56004 32680 22908 11077 21235 35809 57004 82100 333 00351 21179
AAXX 11061 56033 32580 62502 11066 21174 35991 57016 85102 333 00051 21157
AAXX 11061 56046 11580 72501 11054 21119 36235 57012 69901 70070 82108 333 00152 21109
AAXX 11061 56193 NIL
AAXX 11061 56196 32761 43401 10099 21009 40282 57031 83140 333 05701 20042
AAXX 11061 56287 32970 80000 10071 20003 40292 57029 8807/ 333 05654 20043
AAXX 11061 56684 32575 62202 10053 20009 37903 57029 86400 333 05607 21017
AAXX 11061 56751 11778 62706 10136 20019 38013 57029 69901 78000 86400 333 05154 20047
AAXX 11061 56786 11558 81604 10040 20014 38128 57026 69901 71060 885// 333 05503 20002
AAXX 11061 56977 11475 80901 10106 20090 40212 57025 60021 70060 885// 333 05152 20092
AAXX 11061 57259 32980 52503 10089 21077 40293 57042 85030 333 21051
AAXX 11061 57279 32965 02902 10087 21048 40303 57030 333 21008
AAXX 11061 57348 32870 71401 10082 20014 40292 57035 875// 333 20028
AAXX 11061 57399 32965 02202 10095 21086 40304 57036 333 21033
AAXX 11061 57554 31862 70000 10075 20005 40304 57036 70040 875// 333 21003
AAXX 11061 57793 32968 00702 10095 21048 40294 57037 333 21012
AAXX 11061 58345 32967 03601 10067 21092 40305 57031 333 21030
AAXX 11061 58506 32966 03602 10020 21061 40311 57022 333 21066
AAXX 11061 58813 32980 00403 10102 21066 40278 57038 333 21012
AAXX 11061 58834 32980 72201 10117 21040 40266 57036 8704/ 333 20018
AAXX 11061 58926 32980 02501 10148 21022 40240 57043 333 20029
AAXX 11061 58944 32563 80206 10095 20033 40250 57027 885// 333 20095
AAXX 11061 59096 32975 00702 10140 21099 40241 57045 333 20040
AAXX 11061 59102 32980 00404 10116 21063 40249 57039 333 20026
AAXX 11061 59278 32980 00902 10146 21047 40235 57044 333 20068
AAXX 11061 59456 32980 03603 10174 21064 40216 57042 333 20074
AAXX 11061 59493 32968 00204 10151 21037 40219 57038 333 20075
AAXX 11061 59658 32978 11402 10168 21023 40218 57037 80002 333 20062
AAXX 11061 59673 32968 03609 10141 21011 40217 57035 333 20091 91118 91536
AAXX 11061 59845 32970 20702 10174 20054 40213 57038 80002 333 20109
AAXX 11064 41506 02997 03618 10100 21024 48535 60001 333 58000 60007
AAXX 11064 41508 22997 01802 10100 21150 48538 60001 333 59022 60007
AAXX 11064 41523 12997 00000 10125 21017 48520 60001 333 56000 59011 60007
AAXX 11064 41535 12997 00000 10125 20014 48484 60001 333 59012
AAXX 11064 41536 12997 00000 10115 21035 48503 60001 333 59007
AAXX 11064 41573 12997 01304 10140 20017 48480 60001 333 59004
AAXX 11064 41600 01994 00000 10190 20138 39851 40146 60001 71000 333 58000 60007
AAXX 11064 41630 11996 03104 10210 20015 40158 60001 70500 333 59006
AAXX 11064 41678 02997 00000 10180 20058 40169 60001 333 59007
AAXX 11064 41696 32997 00000 10110 21119 38038 48551 60001 333 59019 60007
AAXX 11064 41697 02997 00000 10213 20083 40155 60001 333 59037 60007
AAXX 11064 41700 11996 02304 10190 20045 40148 60001 70500 333 59018
AAXX 11064 41725 02996 00000 10220 20034 40159 60001 333 59028 60007
AAXX 11064 41746 02996 00504 10200 20086 40170 60001 333 59022 60007
AAXX 11064 41759 12996 03604 10220 21002 30167 40172 60001 333 59018
AAXX 11064 41785 02997 00000 10240 20068 40168 60001 333 59020 60007
BBXX 46145 11061 99544 71324 46/// /0104 10059 40231 52009 22200 00076 11305 70026 333 91206
BBXX 46183 11061 99536 71311 46/// /3010 10050 40230 52009 22200 00079 10502 70011 333 91213
BBXX 51205 11061 99210 71564 46/// ///// 1//// 90548 22200 00243 10906 20905 333// 41303 70030
BBXX 46183 11061 99536 71311 46/// /3010 10050 40230 52009 22200 00079 10502 70011 333 91213
AAXX 11064 60607 12660 73407 10109 21013 40200 53002 60004 8227/ 333 0//00 20105 82846 86462
BBXX 46145 11061 99544 71324 46/// /0104 10059 40231 52009 22200 00076 11305 70026 333 91206
AAXX 11061 08501 12/// /3604 10143 20131 30269 40305 52004 60062 333 20143 31014 5//// 55042 20680 91007 91107
AAXX 11064 65528 NIL
AAXX 11064 65536 NIL
AAXX 11064 65545 32956 0//// 10200 20141 39683 40109 333 20185 58008
AAXX 11064 65548 NIL
AAXX 11064 65555 NIL
AAXX 11064 65557 32456 8//// 10226 20217 39862 40100 885// 333 20220 58007 88611
AAXX 11064 65560 31205 8//// 10220 20220 39791 40098 74444 885// 333 20220 58006 85705 88613
AAXX 11064 65562 31430 7//// 10220 20212 3//// 4//// 71011 875// 333 20212 5//// 87613
AAXX 11064 65563 31108 20000 10182 20180 39862 40103 74644 82600 333 20177 58003 82703
AAXX 11064 65578 12457 60000 10255 20248 30/// 40/// 60014 86500 333 20254 5//// 86616
AAXX 11064 65585 32458 3//// 10132 20222 3//// 4//// 83270 333 20228 5//// 83813 94902
AAXX 11064 65592 11440 3//// 10230 20230 30070 40093 50044 71066 83200 333 20230 58002 83813 94912
AAXX 11064 65594 11458 60000 10235 20228 30068 40102 60274 70196 86200 333 20230 58001 86813 94905
AAXX 11064 65599 11458 7//// 10230 20229 30015 40089 60594 70366 875// 333 20230 58010 87613
BBXX BAREU62 11064 99391 10259 46/// ///// 40246 52016 22234
BBXX BAREU12 11064 99522 70056 46/// ///// 40039 57040 22283
BBXX 46088 11061 99483 71232 46/// /0205 10053 40201 90620 22200 00081 1//00 70001 333 91206 555 11048 22049 30619 40106 60619 018045 027040 024039 016037 018037 024034
BBXX 46087 11061 99485 71247 46/// /2101 10066 20044 40200 90620 22200 00079 333 91202 555 11008 22008 30619 42704 60619 212008 200009 210008 272009 264016 271025
BBXX 46249 11061 99338 71197 46/// ///// 1//// 90615 22200 00145 11702 20502 325// 41702 70011
BBXX 46244 11061 99409 71244 46/// ///// 1//// 90605 22200 00101 11404 20901 328// 41404 70019
BBXX 46114 11061 99364 71222 46/// ///// 1//// 90604 22200 00111 11505 20802 329// 41504 70023
BBXX 44172 11061 99445 70634 46/// ///// 1//// 90601 22200 00075 10801 20801 70007
BBXX 44098 11061 99428 70702 46/// ///// 1//// 90607 22200 00095 10502 20502 70008
BBXX 51204 11061 99213 71581 46/// ///// 1//// 90552 22200 00247 11403 21002 330// 41402 70013
BBXX 51203 11061 99208 71570 46/// ///// 1//// 90613 22200 00249 11402 21001 329// 41401 70009
BBXX 46241 11061 99330 71173 46/// ///// 1//// 90541 22200 00149 11801 21001 326// 41801 70007
BBXX 46237 11061 99378 71226 46/// ///// 1//// 90610 22200 00112 11703 21001 327// 41703 70015
BBXX 46237 11061 99378 71226 46/// ///// 1//// 90541 22200 00113 11703 20801 326// 41703 70017
BBXX 46229 11061 99438 71246 46/// ///// 1//// 90551 22200 00104 11704 21002 329// 41704 70022
BBXX 46216 11061 99343 71198 46/// ///// 1//// 90557 22200 00145 11702 20501 327// 41701 70009
AAXX 11061 40009 32965 00000 10008 21003 40278 52012 333 21010 34///
AAXX 11061 40016 31903 00000 11006 21012 40214 53016 74242 333 21023 31/// 55006 70005
AAXX 11061 40022 32965 00502 10076 20005 40281 52011 222// 20000 333 20056 31/// 70000
AAXX 11061 40030 32970 00000 10022 21003 40301 52023 333 20015 34/// 50264 55080
AAXX 11061 40039 32970 00000 10021 20013 40290 52014 333 20000 31/// 55066 70000
AAXX 11061 40066 32970 02501 10086 21010 40272 52010 333 20070 30///
AAXX 11061 40072 32970 00000 10032 20000 40316 52010 333 20000 30000
AAXX 11061 40083 32970 03201 10008 21044 48543 53011 333 21035 34000
BBXX 51203 11061 99208 71570 46/// ///// 1//// 90543 22200 00250 11302 21001 325// 41301 70008
AAXX 11064 62010 32960 41803 10097 20048 40241 50001 80006 333 20095 50534 55074 84270
AAXX 11064 62012 32960 42010 10155 20087 30211 40241 57007 80004 333 20140 50364 5//// 84070
AAXX 11064 62016 32960 60000 10081 20052 40277 53003 80006 333 20078 50554 55089 86270
AAXX 11064 62053 32560 41411 10108 20068 40288 53012 82550 333 20079 50204 55092 82625 84358
AAXX 11064 62124 32660 20709 10064 20025 39740 40252 57004 82100 333 20059 50404 55095 82846
AAXX 11064 62161 32970 00000 10068 20074 40271 53004 333 20068 50224 55089
AAXX 11061 14447 12570 70501 10150 20133 30157 40188 55/// 60002 82870 222// 00172 333 20149 31013 92311
AAXX 11064 89642 41582 71019 11014 21038 39729 49782 58016 70375 875// 333 55028 22432 83720 87636
BBXX 46223 11061 99335 71178 46/// ///// 1//// 90600 22200 00157 11702 20401 326// 41701 70008
BBXX A8IE6 11064 99077 11083 41697 80330 10270 20221 40090 56/// 70300 8/516 22214 04260 20511 80235
AAXX 11064 04203 46/// /3220 11134 21160 39943 49961 57009
AAXX 11064 04205 45/84 /0000 11204 21266 39934 49957 57007 333 11183 21226
AAXX 11064 04208 46/// /2805 11100 21126 39884 49930 52004
AAXX 11064 04213 46/// /1414 11063 21163 39808 49918 52004 333 11049 21073
AAXX 11064 04214 46/// /1005 11051 21138 39882 49915 52002
AAXX 11064 04224 47684 80806 11062 21132 39876 49909 52002 70088 333 11044 21074 86/40 87/58 88/57
AAXX 11064 04228 NIL
AAXX 11064 04242 46/// /2806 11025 21063 39908 49924 57001
AAXX 11064 04253 46/// /1432 11025 21045 39873 49900 57017
AAXX 11064 04266 46/// /2222 11036 21100 39928 49966 57003
AAXX 11064 04285 46/// /2712 11039 21070 39978 49997 52002
AAXX 11064 04301 46/// /2303 11322 21368 30064 40069 52007
AAXX 11064 04313 46/// ///// 11164 21188 39979 49991 57012
AAXX 11064 04330 46/// /1205 11170 21224 30000 40018 52007
AAXX 11064 04351 46/// /3613 11026 21104 39910 49926 57013
AAXX 11064 04373 46/// /3113 11037 21114 39835 49929 57010
AAXX 11064 04382 46/// /2405 11044 21094 39896 49945 57022
AAXX 11064 04416 NIL
AAXX 11061 60373 36/// /2504 10118 20068 333 20114
AAXX 11061 60623 36/// /0000 10105 21041 333 20088
AAXX 11061 60393 16/// /1602 10096 20089 69924 333 20095
AAXX 11061 08501 12/// /3604 10143 20131 30269 40305 52004 60062 333 20143 31014 5//// 55042 20680 91007 91107 555 69935
BBXX 46211 11061 99469 71242 46/// ///// 1//// 90606 22200 00087 11703 21001 328// 41703 70017
BBXX BAREU12 11064 99522 70056 46/// ///// 40039 57040 22283
BBXX 46131 11061 99499 71250 46/// /3103 1//// 40215 52002 22200 00066 10300 70000 333 91203
BBXX 46231 11061 99327 71174 46/// ///// 1//// 90554 22200 00157 11702 20401 326// 41701 70009
BBXX 46222 11061 99336 71183 46/// ///// 1//// 90556 22200 00157 11802 20501 327// 41801 70009
BBXX 46224 11061 99332 71175 46/// ///// 1//// 90536 22200 00156 11801 20501 323// 41801 70007
BBXX 46242 11061 99332 71174 46/// ///// 1//// 90558 22200 00154 11801 21001 324// 41801 70007
BBXX BAREU62 11064 99391 10259 46/// ///// 40246 52016 22234
AAXX 11064 64400 11356 82004 10241 20240 30084 40103 60374 76196 8592/ 333 02163 20225 50134 55042 58003 85816 81928 88460 94967 95837
AAXX 11064 64450 12460 83210 10240 20225 39746 40096 60554 8697/ 333 01878 20211 50164 55067 58000 81810 86620 81930 88463 94961 95811
AAXX 11064 64453 11960 80000 10194 20188 39/// 40/// 60314 72996 8802/ 333 02125 20190 50014 55027 5//// 88460
AAXX 11064 64456 12460 80000 10235 20228 39/// 40/// 69924 8597/ 333 0//15 20218 50184 55042 5//// 84613 81926 88362 94942 95812
AAXX 11064 64458 32458 70000 10218 20209 39699 40085 8457/ 333 01600 20206 50254 55/// 58000 84610 87363
AAXX 11064 64459 11403 60000 10230 20224 39740 40101 69934 74644 84930 333 02019 20215 50164 55/// 59001 83610 81930 85360 94947 95837
AAXX 11064 61017 32960 50000 10068 20023 39778 40199 80002 333 05300 20045 50254 55093 58000 85080
AAXX 11064 61024 31956 31006 10117 20014 39594 40171 7060/ 80002 333 08000 20115 51391 55/// 58016 83080
AAXX 11064 61036 31914 70802 10192 21002 39884 40123 7062/ 80008 333 01700 20189 51201 51154 55054 58003 87280
AAXX 11064 61043 31958 70610 10177 20006 39695 40138 7072/ 80008 333 0//00 20174 51241 5///4 55056 58009 87280
AAXX 11064 61045 31903 70606 10158 20004 39659 40160 70644 80008 333 00600 20158 5//// 51044 55060 58016 87280
AAXX 11064 61049 31956 70000 10146 20056 39832 40156 7062/ 80008 333 01200 20140 51111 50974 55053 58013 87280
AAXX 11064 61052 31908 70604 10190 21021 39877 40134 70622 80008 333 01500 20185 51051 55071 58004 87280
AAXX 11064 61075 31920 71004 10190 20033 39824 40135 7062/ 80008 333 01800 20190 50711 50714 55000 58010 87280
AAXX 11064 61080 31903 71008 10176 20007 39724 40147 7064/ 80008 333 01100 20175 51141 51064 55000 58007 87280
AAXX 11064 61090 31906 70608 10178 21011 39637 40150 70644 80008 333 01700 20175 51241 51144 55029 58003 87280
AAXX 11064 61091 NIL
AAXX 11064 61096 31906 70404 10160 20020 39778 40163 70622 80008 333 01500 20159 51191 50864 55067 58011 87280
AAXX 11064 61099 31910 70404 10180 20031 39892 40122 7062/ 80008 333 01500 20165 50881 55033 58011B 87280
AAXX 11064 89002 42599 71808 11063 21082 39704 49757 52026 875//
AAXX 11061 01392 11984 00000 11105 21114 39771 40008 53009 60002 70200 333 21121 47008 70000 91101
BBXX 46131 11061 99499 71250 46/// /3103 1//// 40215 52002 22200 00066 10300 70000 333 91203
AAXX 11064 87436 31665 21117 10187 20132 39296 40078 52012 71300 82900 333 56500 57950 81640 81950
AAXX 11061 38388 31593 80000 11030 21068 30195 40269 53013 74442 886// 333 21046
AAXX 11061 22438 12569 71707 11017 21034 39918 49939 54000 69940 85470 333 21048
AAXX 11061 01212 16/// /2204 10034 20018 39976 49992 52002 60044 333 20022 70035 91108
BBXX 46204 11061 99514 71288 46/// /3107 10064 40223 52005 22200 00085 11505 70023 333 91209
AAXX 11061 38844 42999 00507 11001 21103 47560 53015
AAXX 11061 38846 42999 02102 10057 20038 38561 48530 53002
BBXX 46204 11061 99514 71288 46/// /3107 10064 40223 52005 22200 00085 11505 70023 333 91209
AAXX 11064 86330 32998 01305 10186 20152 40085 56005
AAXX 11064 86360 NIL
AAXX 11064 86460 NIL
AAXX 11064 86490 NIL
AAXX 11064 86530 NIL
AAXX 11064 86545 32997 10000 10164 20157 40111 52/// 80005
AAXX 11064 86565 32997 20604 10174 20157 40104 58008 81035
AAXX 11064 86580 32997 60306 10182 20165 40097 57007 80006
BBXX 44099 11061 99369 70757 46/// ///// 1//// 90552 22200 00132 10502 20502 70012
AAXX 11064 42309 31395 70503 10188 20175 40152 70522 83720 333 58026
AAXX 11064 42314 21595 70000 10174 20160 40159 70560 82530 333 58016 6004/ 82620 87360
AAXX 11064 42398 31495 49903 10212 20150 40150 70544 83500 333 58013
AAXX 11064 42410 31596 13603 10222 20183 40154 70500 81500 333 58018 81620
AAXX 11064 42415 32596 11802 10234 20143 40167 81100 333 58022 81825
AAXX 11064 42492 31/94 92703 10172 20148 40162 71144 333 58022
AAXX 11064 42587 31995 32702 10234 20126 40153 70511 80001 333 58023 83075
AAXX 11064 42591 31994 03207 10210 20149 40161 71000 333 58026
AAXX 11064 42623 31495 31402 10198 20127 39264 40133 70540 83500 333 58005 83618
AAXX 11064 42701 31495 63202 10214 20130 39411 40137 70511 83530 333 58007 83618 84360
AAXX 11064 42706 31495 63402 10238 20170 40141 70522 84530 333 56690 58013 84618 85360
AAXX 11064 42724 31494 70000 10218 20173 40132 71000 84530 333 58012 84618 85360
AAXX 11064 42798 31895 50000 10262 20129 40135 70522 85030 333 58009 85360
AAXX 11064 42809 31495 43202 10264 20203 40138 70542 84500 333 58002 84615
AAXX 11064 42886 31996 00502 10262 20115 40138 70500 333 58001
AAXX 11064 42895 31996 02302 10292 20168 40130 70500 333 58001
AAXX 11064 42971 31595 31806 10304 20194 40134 70500 82501 333 58006 82620
AAXX 11064 43333 31495 60908 10296 20238 40109 70522 85401 333 56209 58011 83618 85820
AAXX 11064 42977 NIL
AAXX 11064 43368 NIL
AAXX 11061 21802 41996 80000 11275 21307 30186 40213 57008 77172 85037
AAXX 11061 24125 41998 83402 11313 21324 39926 40237 57004 77172 8802/
AAXX 11061 24136 41998 80000 11375 21405 30122 40237 57015 77172 8801/
AAXX 11061 24143 42999 80501 11387 21420 30161 40219 58002 84026
AAXX 11061 24266 41998 80601 11373 21401 30024 40224 53002 77177 80005
AAXX 11061 24329 42999 70000 11405 21432 39946 40296 57008 87070
AAXX 11061 24343 42999 83302 11332 21356 30084 40218 53001 84032
AAXX 11061 24382 41992 30000 11460 21485 39946 40243 53011 74441 80001
AAXX 11061 24639 42998 32202 11345 21367 30109 40283 52002 80001
AAXX 11061 24641 42999 22601 11359 21393 30090 40252 52004 80001
AAXX 11061 24652 42999 80000 11380 21409 30067 40207 52004 80001
AAXX 11061 24656 42999 82703 11366 21400 30079 40195 58001 80006
AAXX 11061 24671 42999 83601 11394 21416 39621 40200 53002 83031
AAXX 11061 24688 41998 80000 11457 21492 39201 40273 52001 77172 84037
AAXX 11061 24724 42999 32505 11296 21319 39707 40297 58004 80009
AAXX 11061 24738 42999 41701 11329 21344 30096 40295 52006 80001
AAXX 11061 24768 42997 32202 11370 21405 39935 40201 52005 80001
AAXX 11061 24923 42999 12302 11302 21332 39970 40313 52002 80001
AAXX 11061 24944 41996 83101 11340 21361 39972 40305 52006 71072 80001
AAXX 11061 24951 41999 32804 11309 21345 30060 40246 58002 73633 80002
AAXX 11061 24661 41999 83604 11206 21283 39864 40146 53006 73632 80007
AAXX 11061 24959 42999 52401 11339 21368 30056 40202 52004 80001
AAXX 11061 24962 41998 80000 11399 21427 39999 40215 52002 77172 86021
AAXX 11061 24966 41999 60000 11359 21380 39950 40196 52005 70272 81031
AAXX 11061 24967 42999 82702 11304 21334 39987 40232 52002 80002
AAXX 11061 25206 41998 82102 11355 21383 30091 40122 57011 77172 82037
AAXX 11061 25400 41998 80000 11378 21399 30092 40156 54000 77172 83037
AAXX 11061 30054 41998 83603 11194 21220 30037 40296 52015 70287 83037
AAXX 11061 30089 42999 80000 11305 21327 30053 40305 52005 80001
AAXX 11061 30393 41997 83402 11267 21291 39118 40257 52006 77172 83037
AAXX 11061 30493 42699 80703 11253 21291 39103 40237 52010 86501
AAXX 11061 31004 41999 62601 11275 21293 39347 40265 52003 70272 82031
AAXX 11061 31137 41998 80000 11306 21336 39076 40217 51008 77172 80005
BBXX VTXB 11063 99078 10936 41397 82225 10270 20229 41010 54000 70306 85233 22233
BBXX 44100 11061 99363 70756 46/// ///// 1//// 90552 22200 00143 10603 20603 70017
BBXX 42099 11061 99273 70842 46/// ///// 1//// 90557 22200 00238 10704 20704 70020
AAXX 11064 91650 NIL
AAXX 11064 91652 NIL
AAXX 11064 91656 NIL
AAXX 11064 91659 11598 81403 10237 2022/ 40107 53007 60481 76186 8487/ 333 5699/ 83820 84642 86460
AAXX 11064 91660 NIL
AAXX 11064 91669 36/// /03// 10267 20254 40102 52005
AAXX 11064 91670 36/// /0400 10267 20220 40096
AAXX 11064 91676 NIL
AAXX 11064 91680 11598 80000 10263 20241 40103 53009 60011 72988 888// 333 569// 85823 86645
AAXX 11064 91682 NIL
AAXX 11064 91683 11599 71204 10250 20243 40100 53005 69921 70282 8783/ 333 5639/ 86822 85648
AAXX 11064 91691 NIL
AAXX 11064 91693 NIL
AAXX 11064 91697 NIL
AAXX 11064 91699 NIL
BBXX ZMKA 11063 99348 31739 41296 80528 10179 20167 40163 55005 75152 886// 22232 20403 305// 40503 80172
BBXX C6FS9 11064 99225 31524 46/// /3618 10268 20252 30009 40044 57022 22224 04268 85256
BBXX 9HA2479 11064 99338 31513 46/// /2107 10200 20173 30005 40034 57007 22233 04198 85182
BBXX VROB 11064 99068 31470 46/// /1408 10290 20231 30032 40056 57009 22200 04300 85247
BBXX FHZI 11064 99429 31473 46/// /1814 10140 20107 30017 40028 52016 22200 04162 85121
BBXX VRDU8 11063 99158 31083 41/98 13010 10290 20248 40105 54000 70200 811// 22244 04270 20402 80260
BBXX JPAT 11064 99112 30852 41498 22407 10286 20221 40087 57011 70200 82202 22200 00290 10804 20401 319// 41003 85239
BBXX ZMKA 11063 99348 31739 41296 80528 10179 20167 40163 55005 75152 886// 22232 20403 305// 40503 80172
BBXX C6FS9 11064 99225 31524 46/// /3618 10268 20252 30009 40044 57022 22224 04268 85256
BBXX 9HA2479 11064 99338 31513 46/// /2107 10200 20173 30005 40034 57007 22233 04198 85182
BBXX VROB 11064 99068 31470 46/// /1408 10290 20231 30032 40056 57009 22200 04300 85247
BBXX FHZI 11064 99429 31473 46/// /1814 10140 20107 30017 40028 52016 22200 04162 85121
BBXX VRDU8 11063 99158 31083 41/98 13010 10290 20248 40105 54000 70200 811// 22244 04270 20402 80260
BBXX JPAT 11064 99112 30852 41498 22407 10286 20221 40087 57011 70200 82202 22200 00290 10804 20401 319// 41003 85239
BBXX WFLH 11063 99317 71241 43598 43215 10156 20095 40203 54/// 7//// 84/8/ 22254 00150 20702 3//// 4//// 5//// 6//// 80122 ICE /////
BBXX ICGU 11064 99155 70617 41597 60608 10270 20213 40100 54/// 78055 869// 22274 04260 21001 39999 41201 51402 6//// 85230 ICE /////
BBXX WACW 11064 99484 71363 41398 63326 10070 2005/ 40250 54000 7//11 85/// 22222 00090 2//// 3//// 4//// 5//// 6//// 80060 ICE /////
BBXX WDF7994 11064 99450 70871 41/98 10000 11033 2//// 40247 54/// 70100 8//// 22242 00067 20504 3//// 4//// 5//// 6//// 8//// ICE /////
BBXX 3FFL8 11064 99185 70653 41797 /0218 10260 2023/ 40090 56020 7//// 8/463 22264 04290 20403 30405 40503 50602 6//// 80240 ICE /////
BBXX A8PF6 11064 99454 70422 416// 83224 10120 20083 40210 57030 7//22 889// 22273 0//// 20402 332// 41008 5//// 6//// 80100 ICE /////
BBXX LAOW5 11064 99052 51088 41497 31322 10220 20205 40142 52022 70111 831// 22254 00236 20305 313// 40305 5//// 6//// 80210 ICE /////
BBXX WKAU 11063 99583 70024 41698 82519 10095 2007/ 49935 57/// 70222 884// 22274 00100 20304 3//// 4//// 5//// 6//// 80080 ICE /////
BBXX WAZV 11064 99563 71426 41498 82124 10050 2002/ 40230 55000 70211 887// 22232 00050 20604 318// 40805 5//// 6//// 80035 ICE /////
BBXX KAOU 11064 99078 10984 43/// /0812 10284 20217 40095 5//// 7//// 8//// 222// 04309 2//// 3//// 4//// 5//// 6//// 8//// ICE /////
BBXX 44040 11061 99410 70736 46/// /3105 10012 21084 40338 90615 22200 1//00 70001 333 91207 555 11057 22062
BBXX 46221 11061 99339 71186 46/// ///// 1//// 90545 22200 00151 11802 20501 324// 41801 70009
BBXX 51201 11061 99217 71581 46/// ///// 1//// 90612 22200 00242 11405 20804 332// 41402 70024
AAXX 11061 35108 12997 60601 11211 21238 30230 40281 53007 69900 82071 333 21220
AAXX 11061 35217 32998 01104 11178 21204 30232 40274 53004 333 21183
AAXX 11061 35302 31998 21203 11116 21136 30246 40266 52003 70271 80001 333 21172
AAXX 11061 35406 11596 81101 11130 21150 30257 40259 53005 69920 77772 886// 333 21124
AAXX 11061 35925 31996 81403 11075 21084 40263 53007 71022 8802/ 333 21099
AAXX 11061 36864 32999 01102 10014 21063 39378 40274 58004 333 21097
AAXX 11061 38001 12597 83602 10016 21006 30304 40274 52006 69940 885// 333 20004
AAXX 11061 38196 32998 80000 10011 21089 39264 40250 56006 80002 333 21072
AAXX 11061 38198 31996 62901 11054 21068 30001 40270 57012 71011 84014 333 21125
AAXX 11061 38232 11496 80000 11007 21012 30167 40268 53006 69900 71072 886// 333 21029
AAXX 11061 38328 32999 81102 10041 21038 39513 40241 57009 86033 333 21034
AAXX 11061 38334 32998 80801 10042 21065 39284 40242 57008 80007 333 21042
AAXX 11061 38439 31/92 90501 11042 21051 39907 40257 57009 74544 333 21053
AAXX 11061 30157 41998 73303 11110 21154 39982 40277 52013 70272 83031
BBXX 46238 11061 99334 71195 46/// ///// 1//// 90550 22200 00147 11704 20502 328// 41703 70018
AAXX 11061 35108 12997 60601 11211 21238 30230 40281 53007 69900 82071 333 21220
AAXX 11061 35217 32998 01104 11178 21204 30232 40274 53004 333 21183
AAXX 11061 35302 31998 21203 11116 21136 30246 40266 52003 70271 80001 333 21172
AAXX 11061 35406 11596 81101 11130 21150 30257 40259 53005 69920 77772 886// 333 21124
AAXX 11061 35925 31996 81403 11075 21084 40263 53007 71022 8802/ 333 21099
AAXX 11061 36864 32999 01102 10014 21063 39378 40274 58004 333 21097
AAXX 11061 38001 12597 83602 10016 21006 30304 40274 52006 69940 885// 333 20004
AAXX 11061 38196 32998 80000 10011 21089 39264 40250 56006 80002 333 21072
AAXX 11061 38198 31996 62901 11054 21068 30001 40270 57012 71011 84014 333 21125
AAXX 11061 38232 11496 80000 11007 21012 30167 40268 53006 69900 71072 886// 333 21029
AAXX 11061 38328 32999 81102 10041 21038 39513 40241 57009 86033 333 21034
AAXX 11061 38334 32998 80801 10042 21065 39284 40242 57008 80007 333 21042
AAXX 11061 38439 31/92 90501 11042 21051 39907 40257 57009 74544 333 21053
AAXX 11063 67765 12572 70609 10220 20167 38666 48510 69904 84158 333 20166 84823 86360
AAXX 11063 67775 12480 20612 10210 20156 38508 48512 60014 81582 333 20175 81615
AAXX 11063 67861 12985 80301 10218 20177 38721 48503 60044 85070 333 20172 85359
AAXX 11063 67867 12580 50705 10212 20167 38582 48510 69904 85132 333 20134 85820
AAXX 11063 67965 11275 71208 10203 20168 38691 48515 69934 71522 8177/ 333 20168 81706 87459
AAXX 11063 67975 12475 70305 10214 20171 38924 48513 60024 81532 333 20182 81615 87360
AAXX 11063 67983 41530 40901 10218 20176 38884 48508 70511 81131 333 20170 81820 83080
AAXX 11063 67991 12575 81301 10224 20190 39587 48487 60024 8557/ 333 20210 85630 88460
AAXX 11064 67755 NIL
AAXX 11064 67771 32680 60206 10234 20164 3//// 48/// 81132 333 20179 5//// 81832 86360
AAXX 11064 67773 NIL
AAXX 11064 67774 NIL
AAXX 11064 67785 NIL
AAXX 11064 67789 NIL
AAXX 11064 67855 11970 70601 10200 20193 3//// 48/// 60034 76166 8707/ 333 20180 5//// 87458
AAXX 11064 67857 12475 80901 10199 20178 3//// 48/// 60024 8357/ 333 20182 5//// 83618 88460
AAXX 11064 67863 12980 60000 10211 20184 3//// 48/// 60054 86030 333 20171 5//// 86360
AAXX 11064 67871 NIL
AAXX 11064 67875 NIL
AAXX 11064 67891 NIL
AAXX 11064 67895 NIL
AAXX 11064 67897 NIL
AAXX 11064 67899 12580 60602 10211 20172 3//// 48/// 60024 81170 333 20167 5//// 81827 86460
AAXX 11064 67951 11575 70207 10196 20171 3//// 48/// 69954 71562 8257/ 333 20170 5//// 82620 87459
AAXX 11064 67963 NIL
AAXX 11064 67967 NIL
AAXX 11064 67971 32474 61204 10230 20185 3//// 48/// 83530 333 20196 5//// 83615 85360
AAXX 11064 67976 NIL
AAXX 11064 67979 32980 62302 10234 20171 3//// 48/// 86031 333 20195 5//// 86358
AAXX 11064 67765 12572 70609 10220 20167 38666 48510 69904 84158 333 20166 58001 84823 86360
AAXX 11064 67775 12480 20612 10210 20156 38508 48512 60014 81582 333 20175 58006 81615
AAXX 11064 67779 NIL
AAXX 11064 67853 NIL
AAXX 11064 67861 12985 80301 10218 20177 38721 48503 60044 85070 333 20172 59003 85359
AAXX 11064 67867 12580 50705 10212 20167 38582 48510 69904 85132 333 20134 58007 85820
AAXX 11064 67881 NIL
AAXX 11064 67965 11375 71208 10203 20168 38691 48515 69934 71522 8177/ 333 20168 59004 81706 87459
AAXX 11064 67975 12475 70305 10214 20171 38924 48513 60024 81532 333 20182 59007 81615 87360
AAXX 11064 67977 NIL
AAXX 11064 67983 11530 40901 10218 20176 38884 48508 70511 81131 333 20170 59006 81820 83080
AAXX 11064 67991 12675 81301 10224 20190 39587 48487 60024 8557/ 333 20210 59027 85630 88460
AAXX 11064 89050 41193 80209 10004 20004 49716 57018 74464 886//
AAXX 11064 89512 32997 81326 11041 21074 39578 49726 57003 8801/ 333 21047
AAXX 11064 89574 42998 60502 11024 21077 49779 57013 86030
AAXX 11064 89592 42998 00000 11039 21103 49772 57007
AAXX 11064 89606 42998 52204 11300 21375 36209 47854 58001 80001 333 21407
BBXX ZNQO3 11063 99122 10457 41698 10808 10280 20196 40181 52/// 70100 81100 22264 04276 20301 309// 40703 5//// 80225
BBXX A8UQ2 11064 99263 10560 41697 12506 10240 20084 40166 51/// 70022 81//5 22213 00250 20101 300// 40000 5//// 80150
BBXX DFVY2 11064 99009 70309 41697 80311 10235 20221 40102 57009 70265 883// 22243 00260 80225
BBXX A8IE6 11064 99077 11083 41697 80330 10270 20221 40090 56/// 70300 8/516 22214 04260 20511 80235
BBXX SHIP 11064 99287 11364 41296 83210 10170 20120 40201 56011 76162 8661/ 22283 00241 20201 333 // 40302 5//// 80140
BBXX ZQCP3 11063 99166 11132 41397 80236 10220 20192 40137 57030 70522 877// 22243 00250 29902 30204 40805 50404 80202
BBXX A8PB2 11063 99174 11111 41396 80125 10190 20159 40120 56020 71022 886// 22254 04259 20806 305// 41006 80170
BBXX SHIP 11064 99297 11516 41497 62018 10230 20216 40162 56010 70222 8453/ 22263 06225 20203 32636 40605 50504 80220
BBXX SHIP 11064 99230 11733 41497 20918 10257 20203 40191 52007 70200 82200 22223 04259 20403 312// 40704
BBXX 3EDA4 11063 99292 11420 41097 53015 10190 20159 40180 50/// 76166 85626 22263 00227 20302 30303 40302 50302 80170
BBXX SHIP 11064 99287 11364 41296 83210 10170 20120 40201 56011 76162 8661/ 22283 00241 20201 333// 40302 5//// 80140
BBXX SHIP 11064 99190 11312 41597 61614 10290 20263 40113 56015 70111 84335 22253 00270 20503 316// 40503 80270
BBXX SHIP 11064 99248 11414 41/97 80216 10226 40165 57009 71562 885// 9//// 22282 00250 20301 302// 40403
BBXX PDWT 11063 99090 11265 41698 59903 10312 20229 40090 56010 70200 83101 22283 06251 299// 3//// 4//// 5//// 80252
BBXX DDZI2 11063 99351 11310 41598 72321 10090 20013 40230 54000 703// 83476 22254 00093 2//// 80055
BBXX A8UE4 11063 99449 11799 41/97 42745 10060 21041 40080 52035 70281 847// 22263 04110 20108 327// 40612 5//// 80025
BBXX SHIP 11063 99107 11279 41/98 60910 10300 20287 40133 57021 702// 83234 22254 00280 2//01 304// 40502 80290
BBXX SHIP 11064 99260 11334 41295 83317 10180 20148 40239 57016 76166 87657 22244 00220 20403 313// 40504 80160
BBXX C6OT4 11064 99289 11602 41397 42216 10241 20222 40220 54011 70022 84179 22223 04239 20206 32324 40206 50206 80228
BBXX JGQH 11064 99243 11363 41/97 70423 10211 20188 40172 55010 70282 872// 22221 00248 1//05 20503 303// 40803 70024
BBXX JPBN 11064 99303 11475 41/97 82924 10193 20156 40162 53009 78082 882// 22241 00209 1//04 20503 322// 40803 70021
BBXX A8CB4 11063 99427 11489 41994 02718 10020 21033 40050 5/010 74844 22254 00100 20506 80000
BBXX DFTH2 11064 99295 11688 41597 59904 10235 20206 40213 53020 71522 8434/ 22263 04240 21005 329// 41005 80215
BBXX A8RV8 11064 99243 11191 41296 80235 10135 20079 40190 56/// 71222
BBXX WCX8882 11064 99533 11679 41497 62734 10010 2102/ 49850 51030 70271 869// 22254 00040 2//// 3//// 4//// 5//// 6//// 80000 ICE /////
BBXX LAOW5 11064 99052 51088 41497 31322 10220 20205 40142 52022 70111 831// 22254 00236 20305 313// 40305 5//// 6//// 80210 ICE /////
BBXX A8QJ7 11064 99171 50364 41598 70208 10250 20220 40077 55012 70322 8/85/ 22253 06260 2//// 3//// 4//// 5//// 80230
BBXX C6XQ2 11063 99277 50447 41698 72018 10210 20160 40095 54000 70222 87700 22253 04220 20905 31414 40905 50705 80180
BBXX BAREU11 11064 99044 50816 46/// ///// 40136 57015 22284
BBXX DDID2 11063 99286 50483 41498 60816 10215 20169 40090 58010 70352 865// 22254 04220 20403 309// 41204 80185
BBXX 44099 11061 99369 70757 46/// ///// 1//// 90552 22200 00132 10502 20502 70012
BBXX 46204 11061 99514 71288 46/// /3107 10064 40223 52005 22200 00085 11505 70023 333 91209
BBXX 46131 11061 99499 71250 46/// /3103 1//// 40215 52002 22200 00066 10300 70000 333 91203
BBXX 46242 11061 99332 71174 46/// ///// 1//// 90558 22200 00154 11801 21001 324// 41801 70007
BBXX 46224 11061 99332 71175 46/// ///// 1//// 90536 22200 00156 11801 20501 323// 41801 70007
BBXX 46222 11061 99336 71183 46/// ///// 1//// 90556 22200 00157 11802 20501 327// 41801 70009
BBXX 46231 11061 99327 71174 46/// ///// 1//// 90554 22200 00157 11702 20401 326// 41701 70009
BBXX 46211 11061 99469 71242 46/// ///// 1//// 90606 22200 00087 11703 21001 328// 41703 70017
BBXX 46223 11061 99335 71178 46/// ///// 1//// 90600 22200 00157 11702 20401 326// 41701 70008
BBXX 46229 11061 99438 71246 46/// ///// 1//// 90551 22200 00104 11704 21002 329// 41704 70022
BBXX 46216 11061 99343 71198 46/// ///// 1//// 90557 22200 00145 11702 20501 327// 41701 70009
BBXX 46237 11061 99378 71226 46/// ///// 1//// 90541 22200 00113 11703 20801 326// 41703 70017
BBXX 46237 11061 99378 71226 46/// ///// 1//// 90610 22200 00112 11703 21001 327// 41703 70015
BBXX 46241 11061 99330 71173 46/// ///// 1//// 90541 22200 00149 11801 21001 326// 41801 70007
BBXX 44098 11061 99428 70702 46/// ///// 1//// 90607 22200 00095 10502 20502 70008
BBXX 44172 11061 99445 70634 46/// ///// 1//// 90601 22200 00075 10801 20801 70007
BBXX 46249 11061 99338 71197 46/// ///// 1//// 90615 22200 00145 11702 20502 325// 41702 70011
BBXX 46244 11061 99409 71244 46/// ///// 1//// 90605 22200 00101 11404 20901 328// 41404 70019
BBXX 46114 11061 99364 71222 46/// ///// 1//// 90604 22200 00111 11505 20802 329// 41504 70023
BBXX 46087 11061 99485 71247 46/// /2101 10066 20044 40200 90620 22200 00079 333 91202 555 11008 22008 30619 42704 60619 212008 200009 210008 272009 264016 271025
BBXX 51205 11061 99210 71564 46/// ///// 1//// 90548 22200 00243 10906 20905 333// 41303 70030
BBXX 46145 11061 99544 71324 46/// /0104 10059 40231 52009 22200 00076 11305 70026 333 91206
BBXX 46183 11061 99536 71311 46/// /3010 10050 40230 52009 22200 00079 10502 70011 333 91213
BBXX WAZV 11064 99563 71426 41498 82124 10050 2002/ 40230 55000 70211 887// 22232 00050 20604 318// 40805 5//// 6//// 80035 ICE /////
BBXX WECH 11063 99246 71504 43498 40919 10230 2017/ 40247 53020 7//// 84277 22255 00228 2//// 3//// 4//// 5//// 6//// 80190 ICE /////
BBXX A8PF6 11064 99454 70422 416// 83224 10120 20083 40210 57030 7//22 889// 22273 0//// 20402 332// 41008 5//// 6//// 80100 ICE /////
BBXX 46147 11061 99518 71312 46/// /3310 10069 40237 52005 22200 00082 11406 70032 333 91212
BBXX DQVJ 11061 99522 71734 41/97 /0619 10035 21001 49890 51010 78711 8//// 22221 00056 20905 399// 4//// 5//// 80020
BBXX 42363 11061 99282 70892 46/// /0511 10156 20078 40264 90630 333 91211
BBXX 42363 11061 99282 70892 46/// /0714 10156 20078 40264 90615 333 91214
BBXX 42364 11061 99291 70881 46/// /0312 10144 20067 40261 90615
BBXX 42362 11061 99278 70907 46/// /0411 10161 20072 40271 90615
BBXX 44032 11061 99437 70694 46/30 /3107 10005 40283 51012 90604 22200 00091 10301 70006 333 91210 555 11082 22085
BBXX 46088 11061 99483 71232 46/// /0205 10053 40201 90620 22200 00081 1//00 70001 333 91206 555 11048 22049 30619 40106 60619 018045 027040 024039 016037 018037 024034
BBXX 46112 11061 99481 71227 46/// /1603 10053 40201 54000 90600
BBXX 46111 11061 99481 71227 46/// /2501 10057 40199 54000 90600 22200 00062
BBXX 3FFL8 11064 99185 70653 41797 /0218 10260 2023/ 40090 56020 7//// 8/463 22264 04290 20403 30405 40503 50602 6//// 80240 ICE /////
BBXX BAREU62 11064 99391 10259 46/// ///// 40246 52016 22234
BBXX BAREU12 11064 99522 70056 46/// ///// 40039 57040 22283
BBXX WKAU 11063 99583 70024 41698 82519 10095 2007/ 49935 57/// 70222 884// 22274 00100 20304 3//// 4//// 5//// 6//// 80080 ICE /////
BBXX 61002 11064 99421 10047 46/// /0000 10136 2//// 40170 54000 22200 00151 10501 70003
BBXX 62107 11064 99501 70061 46/// /2129 10099 20072 40093 56028 22200 00121 10703 70016 333 90710 91134
BBXX 63110 11063 99595 10015 41/96 /2025 10068 20054 49942 76265 8//// 22200 10906 70030
BBXX 63119 11064 99583 10009 41597 82223 10082 20055 49947 57041 78182 887// 22200 20304 322// 40606 5////
BBXX 62103 11064 99499 70029 46/99 /2518 10108 20050 40120 57025 22200 00129 10601 70007
BBXX 62304 11064 99511 10018 46/98 /1611 10080 20058 40139 56013 22200 00120 10701 70004
BBXX 62094 11064 99517 70067 46/// /2616 10094 20087 40052 57023 22200 00114 10505 70027
BBXX 62304 11064 99511 10018 46/96 /16// 10080 20058 40139 56013 22200 00120 10701 70004
BBXX 62117 11064 99579 10000 47497 /2321 10089 20060 49965 57020 700// 22200 10605 70027
BBXX 62143 11064 99577 10018 47496 /2109 10075 20064 49981 57025 751// 22200 10505 70025
BBXX 62134 11064 99580 10014 47397 /2222 10078 20052 49969 57028 762// 22200 10606 70030
BBXX 62102 11064 99579 10018 46/// /2120 10076 20049 49978 57027 22200 10605 70025
BBXX 62114 11064 99583 10000 46/// /2319 10079 20049 49958 56015 22200
BBXX 62129 11064 99584 10003 46/// ///// 10080 20051 49965 57022 22200
BBXX ZQSD5 11064 99583 10007 46/// /2222 10085 20056 49964 57027 22200 10806 70030
BBXX 62113 11064 99584 10002 47498 /2220 10078 20047 49962 57026 700// 22200
BBXX 63057 11064 99592 10015 47396 /2121 10072 20052 49950 57033 761// 22200 10605 70026
BBXX 62118 11064 99577 10009 47397 /2124 10091 20068 49970 57020 752// 22200 10606 70029
BBXX 62128 11064 99587 10014 47397 /2120 10075 20054 49958 57028 700// 22200 10605 70026
BBXX 63056 11064 99597 10016 47296 /1918 10064 20042 49943 57035 740// 22200 10605 70024
BBXX 62153 11064 99573 10020 47396 /2124 10078 20054 49994 57024 762// 22200 10605 70027
BBXX 62165 11064 99540 10009 47497 /2321 10073 20043 40071 57018 762// 22200 10605 70023
BBXX 62104 11064 99574 10013 47197 /2221 10080 20058 49983 57023 762// 22200
BBXX 62116 11064 99576 10011 47297 /2321 10078 20061 49978 57023 700// 22200 10606 70028
BBXX 62123 11064 99563 10022 46/// /2122 10087 20040 40019 57020 22200
BBXX 62155 11064 99577 10007 47397 /2223 10083 20069 49978 57021 762// 22200 10605 70026
BBXX 62122 11064 99573 10016 47295 /2221 10100 20061 49994 56022 762// 22200 10605 70026
BBXX 62140 11064 99573 10013 46/// /23// 10081 20055 49990 57024 22200
BBXX 62146 11064 99572 10021 47/97 /2109 10077 20055 49995 57025 700// 22200 10605 70024
BBXX PJGO 11064 99571 10022 47497 /2021 10082 20043 40003 57016 700// 22200
BBXX 62133 11064 99571 10009 46/// /2023 10083 20052 49989 57021 22200
BBXX 62164 11064 99572 10008 47498 /2118 10091 20065 49991 57020 700// 22200 00099 10606 70028
BBXX 62119 11064 99570 10019 47497 /2323 10083 20047 40004 57022 700// 22200 10606 70028
BBXX 62152 11064 99570 10018 47/97 /1917 10088 20039 40006 56020 751// 22200 10506 70031
BBXX 62132 11064 99564 10020 46/// /2420 10079 20048 40018 57021 22200
BBXX 62120 11064 99564 10021 47498 /2323 10086 20043 40013 57022 700// 22200
BBXX 62142 11064 99530 10021 46998 /2318 10061 20032 40097 57018 22200 10503 70017
BBXX 62145 11064 99531 10028 47999 /2118 10075 20027 40103 57013 700// 22200 10504 70021
BBXX 62154 11064 99564 10022 46/// /2121 10080 20051 40017 57021 22200
BBXX 64045 11064 99591 70117 46/// /2624 10045 20011 49852 56017 22200 00104 10810 70051 333 90710 91134
BBXX WKPF 11063 99420 70535 41597 82319 10175 2015/ 40167 56020 70222 886// 22264 00142 2//// 3//// 4//// 5//// 6//// 80160 ICE /////
BBXX ELWR5 11060 99304 71170 41/98 33313 10160 20127 40170 50/// 7//// 8/1// 22284 04142 21404 80140
BBXX WACW 11064 99484 71363 41398 63326 10070 2005/ 40250 54000 7//11 85/// 22222 00090 2//// 3//// 4//// 5//// 6//// 80060 ICE /////
BBXX DBIP 11063 99275 70651 41098 30725 10210 20147 40200 53020 70211 82170 22223 04240 21205 3//// 4//// 5//// 80170
BBXX A8TG2 11063 99273 71212 41598 63510 10170 20094 40190 54000 70222 83464 22224 20204 335// 40204 80130
BBXX C6JD7 11063 99240 71095 41698 10612 10230 20183 40161 53010 70111 8///5 22233 04255 20401 308// 40601 80200
BBXX ICGU 11064 99155 70617 41597 60608 10270 20213 40100 54/// 78055 869// 22274 04260 21001 39999 41201 51402 6//// 85230 ICE /////
BBXX V7DI7 11064 99456 70385 41597 72125 10100 2006/ 40210 57060 70222 87/4/ 22200 0//// 20405 332// 40806 5//// 6//// 80080 ICE /////
BBXX 3FQS8 11064 99321 70799 41198 83032 00/// 10149 2014/ 40265 52003 70222 8//// 22214 0//// 2//// 3//// 4//// 5//// 6//// 80139 /////
BBXX WFLH 11063 99317 71241 43598 43215 10156 20095 40203 54/// 7//// 84/8/ 22254 00150 20702 3//// 4//// 5//// 6//// 80122 ICE /////
BBXX 44067 11061 99384 70770 46/// /0805 10023 40339 51009 90600
BBXX 41053 11061 99185 70661 46/// /0605 10261 40110 58009 90600 22200 00275 11003 70016 333 91207
BBXX 41053 11061 99185 70661 46/// /0606 10263 40112 90540 333 91207
BBXX 41053 11061 99185 70661 46/// /0606 10262 40111 90550 333 91207
BBXX 46207 11061 99509 71299 46/// /3310 10071 40227 54000 22200 00086 11605 70027 333 91212
BBXX C6VG7 11064 99251 70800 41598 61118 10240 2017/ 40177 57001 7//22 852// 22214 00270 20305 305// 4//// 5//// 6//// 80196 ICE /////
BBXX 42067 11061 99300 70886 46/// ///// 10080 20019 40277 90540 22200 00183 10402 70012
BBXX WE3806 11064 99453 70834 41/97 52314 11027 2//// 40274 56/// 70211 8//// 22272 00050 2//01 3//// 4//// 5//// 6//// 8//// ICE /////
BBXX WDF7020 11064 99434 70825 41/97 82217 1//// 2//// 40305 54/// 700// 8//// 22283 0//// 20201 3//// 4//// 5//// 6//// 8//// ICE /////
BBXX ZMENA 11064 99421 31741 46/// ///// 10149 20127 40156 57020 22213
BBXX ZMFR 11064 99491 31680 43/// /06// 10107 20100 40128 57029 22282 00102
BBXX V2QD4 11063 99340 31535 41398 50210 10210 20195 40030 58040 70211 85182 22263 00250 20301 308// 41402
BBXX SHIP 11064 99188 31005 41397 81204 10260 20218 40101 54002 72528 8765/ 22214 00261 20201 309// 40504 80230
BBXX TBWUK17 11063 99031 11051 41397 70519 10287 20238 40138 50010 70222 87729 22243 04280 20402 30404 40503 50603 80253
BBXX A8ZS7 11064 99136 30743 41698 61303 10300 20231 40095 54000 70311 86200 22254 04270 20100 399// 40801 80250
BBXX A8NO8 11064 99030 11007 41/98 70714 10310 20257 40095 56035 7//11 8/2// 22275 04330 20303 30000 80270
BBXX WCZ5238 11064 99068 51375 41998 31115 10250 20207 40133 52012 70200 83//3 22273 00258 20302 328// 40602 5//// 6//// 80220 ICE /////
BBXX LF5T 11064 99660 10081 43/// /0319 10048 21030 49979 52005 22200 06083 10807 70035 333 91133
BBXX 64041 11064 99607 70026 47597 /2021 10075 20040 49896 57013 700// 22200 10706 70030
BBXX 63117 11064 99613 10011 47599 /1817 10060 20006 49948 57020 700// 22200
BBXX 63115 11064 99616 10013 47497 /1616 10098 20022 49944 57024 762// 22200 10806 70031
BBXX MWYG6 11064 99603 70040 47998 /2415 10069 700// 22200
BBXX 62144 11064 99534 10017 47998 /2220 10062 20035 40090 57020 700// 22200 10504 70019
BBXX 63101 11064 99612 10009 46/// /1817 10062 21007 49941 57024 22200
BBXX 63104 11064 99612 10016 47498 /1817 10059 20011 49949 57023 700// 22200
BBXX 63103 11064 99612 10011 46/// /1715 10065 21027 49940 57027 22200 10806 70030
BBXX 63107 11064 99611 10017 46/// /1816 10061 49947 57024 22200
BBXX 63113 11064 99610 10017 46/// /1814 10062 20004 49947 57025 22200 10806 70029
BBXX 63055 11064 99606 10016 47998 /1515 10057 21009 49944 57031 700// 22200 10705 70026
BBXX 63112 11064 99611 10010 47/98 /1816 10066 20003 49937 57029 700// 22200 10806 70032
BBXX 63105 11064 99610 10017 47798 ///// 10068 20006 49947 57026 700// 22200
BBXX 63106 11064 99610 10017 46/// /1713 10058 49949 57025 22200
BBXX 63108 11064 99608 10017 47698 /1920 10053 20000 49939 58026 700// 22200 10805 70026
BBXX 62121 11064 99535 10027 46/// /2219 10071 20032 40098 57014 22200
BBXX 62112 11064 99584 70002 47498 /2418 10074 20048 49960 56012 700// 22200
BBXX PJAI 11064 99581 70014 47998 /2319 10083 20032 49957 56010 700// 22200
BBXX 62148 11064 99536 10015 46/// /2121 10064 20038 40091 57018 22200
BBXX 62150 11064 99536 10007 47798 /2123 10066 20037 40081 57021 700// 22200 10503 70016
BBXX 62111 11064 99580 70003 46/// /2520 10079 20052 49971 56017 22200 10605 70025
BBXX 62149 11064 99537 10011 47798 /2123 10070 20042 40077 57020 700// 22200 10504 70018
BBXX 62131 11064 99539 10012 46/// /21// 10072 20046 40072 57019 22200
BBXX 62127 11064 99540 10007 47698 ///// 10069 20040 40064 56021 700// 22200 10504 70019
BBXX AMOUK09 11064 99507 10010 46/// ///// 10093 20055 30122 40140 57015 90550
BBXX AMOUK05 11064 99523 10033 46/// ///// 10082 20029 30077 40120 57007 90550
BBXX 62305 11064 99504 10000 46/98 /2224 10096 20045 40143 56015 22200 00127 10501 70006 333 90710 91133
BBXX AMOUK19 11064 99599 70012 46/// ///// 10080 20045 39927 49936 57016 90550
BBXX AMOUK27 11064 99582 70064 46/// ///// 11027 21060 39923 49925 57015 90550
BBXX AMOUK12 11064 99533 70048 46/// ///// 10081 20077 30001 40043 57020 90550
BBXX AMOUK06 11064 99507 70014 46/// ///// 10104 20055 30098 40121 57020 90550
BBXX 62170 11064 99514 10020 46/97 /2019 10089 20057 40134 56013 22200 00117 10701 70005 333 90710 91129
BBXX AMOUK14 11064 99533 70062 46/// ///// 10079 20055 30001 40041 57014 90550
BBXX AMOUK08 11064 99501 70061 46/// ///// 10106 20084 30089 40096 57030 90550
BBXX AMOUK03 11064 99517 10027 46/// ///// 10084 20054 30089 40119 54002 90550
BBXX 62029 11064 99487 70125 46/// /2820 10111 20074 40106 55007 22200 00136 10706 70030 333 90710 91127
BBXX 62001 11064 99452 70050 46/// /2711 10129 20104 40148 55008 22200 00152 10805 70023
BBXX AMOUK13 11064 99519 10013 46/// ///// 10046 20025 30112 40125 57015 90550
BBXX 62105 11064 99554 70122 46/// /2524 10074 20019 49956 57018 22200 00107 10911 70053 333 90710 91139
BBXX 62081 11064 99510 70134 46/// ///// 10096 20052 40064 56016 22200 00120 10708 70039
BBXX 62442 11064 99490 70164 46/// /2724 1//// 2//// 40122 55007 22200 00130 333 90710 91134
BBXX 62301 11064 99524 70047 46/// /2123 10100 20087 40048 57031 22200 00103 10505 70024 333 90710 91140
BBXX 62163 11064 99475 70084 46/// /2416 10112 20078 40130 57021 22200 00133 10704 70021
BBXX 64046 11064 99605 70049 46/// /2317 10070 20037 49882 57005 22200 00096 10707 70036
BBXX 62303 11064 99516 70051 46/// /2222 10107 20086 40064 56032 22200 00119 10505 70027 333 90710 91129
BBXX MSTM6 11063 99501 70010 41/98 81312 10095 20051 40141 57020 70222 88/// 22224 06135 2//02 3//// 4//// 5//// 80075
BBXX 2AQK9 11064 99388 70098 41/97 43206 10150 20150 40205 55003 70200 847// 22284 20404 336// 40506 5//// 80150
BBXX DDZA2 11064 99375 10106 41798 72515 10170 20100 40195 54000 70322 87070 22264 04180 20301 80130
BBXX BATFR06 11064 99453 70015 46/// /0814 10129 20127 40153 56004 22241 00162
BBXX PBEO 11063 99362 70069 41597 73215 10160 20088 40202 53002 70222 878// 22262 02180 20402 327// 40401 80120
BBXX BATUK01 11064 99581 70035 46/// /2118 10067 20029 49946 58008 22211 00090
BBXX BATEU09 11064 99428 10073 46/// /2506 10149 20114 40170 58002 22282 00164
BBXX BATFR01 11064 99389 10144 46/// /2309 10177 20117 40204 53007 22232 00185
BBXX 61001 11064 99434 10078 46/// /2502 10146 20104 40166 54000 22200 00159 10401 70005
BBXX BATEU02 11064 99532 70103 46/// /2916 10084 20037 40016 56018 22200 00112
BBXX BATFR54 11064 99453 70008 46/// /1107 10100 20094 40153 56004 22242 00124
BBXX BATFR44 11064 99484 70045 46/// /1609 10085 20032 40135 56016 22211 00104
BBXX BATFR52 11064 99503 70042 46/// /2111 10107 20054 40112 56030 22200 00122
BBXX BATFR04 11064 99577 70064 46/// /2222 10069 20024 49932 56023 22213 00109
BBXX BATFR21 11064 99427 10089 46/// ///// 20142 40173 53001 22232
BBXX BATFR42 11064 99445 70040 46/// /2408 10142 20105 40152 53001 22243 00162
BBXX BATFR24 11064 99429 10095 46/// /2204 10149 20114 40174 53002 22243 00167
BBXX BATFR41 11064 99436 10073 46/// /3405 10142 20087 40165 22232
BBXX BATFR62 11064 99500 70003 46/// /2323 10097 20054 40135 58025 22262 00139
BBXX BATEU08 11064 99585 10028 46/// /2127 10075 20055 49972 55006 22223
BBXX BATFR61 11064 99471 70068 46/// /2104 10109 20100 40136 56021 22243 00149
BBXX BATFR46 11064 99365 70020 46/// /2725 10162 20124 40169 55006 22253 00179
BBXX BATFR31 11064 99418 10086 46/// /0611 10147 21135 40171 55001 22213 00172
BBXX BATFR20 11064 99431 10054 46/// /3606 10130 20094 40164 53002 22274
BBXX BAREU06 11064 99398 70271 46/// ///// 40275 52006 22264
BBXX BATFR09 11064 99389 10092 44998 62404 10162 20124 40200 53004 70222 84032 22222 00184 20202 60//0 ICE 0/0//
BBXX BAREU04 11064 99509 70203 46/// ///// 40094 57009 22224
BBXX BATFR15 11064 99458 70055 46/// /2612 10134 20109 40139 56019 22254 00150
BBXX BATFR60 11064 99521 10028 46/// /2226 10087 20029 40124 55001 22253 00102
BBXX BATFR02 11064 99508 70011 46/// /2315 10084 20054 40134 56025 22272 00109
BBXX BAREU05 11064 99362 70042 46/// ///// 40180 52000 22264
BBXX DMQN 11063 99352 70158 41598 53110 10170 20146 40243 50003 72581 8347/ 22214 04190 21501 3//// 4//// 5//// 80155
BBXX BAREU63 11064 99351 10232 46/// /3012 10168 29070 40272 52012 22233
BBXX TESTFR9 11064 99503 70042 46/// ///// 10106 29072 40128 57024 22211
BBXX DQVI 11063 99372 10242 41698 22006 10170 20105 40245 52010 70200 81240 22254 00171 29901 80135
BBXX C6CU6 11063 99442 70136 41397 72518 10135 20126 40170 57030 70322 85778 22253 04145 20701 334// 41504 5//// 80130
BBXX BAREU61 11064 99320 70108 46/// /0211 10175 29075 40225 52002 22253
BBXX LF4B 11064 99606 10037 47/98 /1809 10051 49980 57013 761// 22200 00061 10805 70027 333 91119
BBXX LF3F 11064 99643 10078 43/// /0216 10043 21035 49982 52009 22200 04092 10807 70035 333 91127
BBXX LF4C 11064 99584 10019 41297 82320 10079 20072 49966 57028 761// 89/// 22200 00076 10705 70023 333 91125
BBXX 3ERR2 11064 99635 10053 43/// /0818 10044 49981 57005 22200 11008 70039 333 91121
BBXX LF3N 11064 99653 10073 41597 50515 10039 21010 49987 52011 72282 8//// 22200 00092 10808 70042
BBXX IDDUK02 11064 99676 50681 46/// ///// 49691 222//
AAXX 11064 67765 12572 70609 10220 20167 38666 48510 69904 84158 333 20166 58001 84823 86360
AAXX 11064 67775 12480 20612 10210 20156 38508 48512 60014 81582 333 20175 58006 81615
AAXX 11064 67779 NIL
AAXX 11064 67853 NIL
AAXX 11064 67861 12985 80301 10218 20177 38721 48503 60044 85070 333 20172 59003 85359
AAXX 11064 67867 12580 50705 10212 20167 38582 48510 69904 85132 333 20134 58007 85820
AAXX 11064 67881 NIL
AAXX 11064 67965 11375 71208 10203 20168 38691 48515 69934 71522 8177/ 333 20168 59004 81706 87459
AAXX 11064 67975 12475 70305 10214 20171 38924 48513 60024 81532 333 20182 59007 81615 87360
AAXX 11064 67977 NIL
AAXX 11064 67983 11530 40901 10218 20176 38884 48508 70511 81131 333 20170 59006 81820 83080
AAXX 11064 67991 12675 81301 10224 20190 39587 48487 60024 8557/ 333 20210 59027 85630 88460
BBXX DDSC2 11063 99428 70209 41597 63422 10130 20063 40235 56015 70322 867// 22225 00141 20704 334// 41408 80095
AAXX 11061 55299 32780 63204 11049 21250 35846 57008 86400 333 00354 21159
AAXX 11061 55591 32680 11602 10079 21198 36499 57013 81100 333 00452 21029
AAXX 11061 56739 32580 52005 10176 20082 38342 57022 85400 333 05151 20063
AAXX 11061 56951 11780 72004 10160 20099 38502 57024 69931 70080 87400 333 00056 20098
AAXX 11061 56964 11575 81102 10122 20085 38731 40189 57026 60011 70080 884// 333 00053 20102
AAXX 11061 57328 32980 70000 10087 21020 39867 40291 57034 8704/ 333 20021
AAXX 11061 57411 32575 13402 10114 21035 39904 40284 57035 81100 333 20045
AAXX 11061 57447 32962 80401 10062 20009 39741 40306 57033 8807/ 333 20006
AAXX 11061 57662 32962 70902 10095 21056 30255 40300 57034 8704/ 333 20014
AAXX 11061 57745 32970 70902 10109 21036 39949 40287 57041 87040 333 21005
AAXX 11061 57972 32968 03403 10099 21045 30049 40282 57047 333 20000
AAXX 11061 58203 32975 22202 10085 21114 30257 40300 57032 82040 333 21053
AAXX 11061 58314 32970 03402 10091 21094 30185 40296 57033 333 21058
AAXX 11061 58424 32963 00902 10075 21090 30278 40305 57034 333 21025
AAXX 11061 59023 32980 00902 10143 21049 39938 40255 57040 333 20059
AAXX 11061 59417 32975 01601 10172 21010 30078 40235 57042 333 20062
AAXX 11061 59985 32580 80407 10215 20181 30153 40158 57025 882// 333 20204
AAXX 11061 59995 NIL
BBXX 46185 11061 99524 71298 46/// /3208 10059 40229 52008 22200 00076 10502 70012 333 91210
BBXX 46185 11061 99524 71298 46/// /3208 10059 40229 52008 22200 00076 10502 70012 333 91210
AAXX 11064 40250 NIL
AAXX 11064 40265 31940 01604 10040 20002 39480 40302 52010 70500 333 21010 30105
AAXX 11064 40296 32960 00000 10132 20070 40275 52009 333 20106 30005
AAXX 11064 40310 NIL
AAXX 11063 63658 32980 61103 10226 20146 38878 48507 80005 333 20175 58000 86380 555 10178
AAXX 11063 63654 32965 03604 10228 20151 48/// 80000 333 20170 555 10180
AAXX 11061 24790 41993 70000 11366 21381 39260 40171 57001 74642 80005
AAXX 11061 24988 42999 52802 11238 21263 39765 40033 57005 82031
AAXX 11061 25378 11595 83407 11022 21031 39675 49707 57017 60052 77373 8752/ 333 11020 91113
AAXX 11061 25503 41697 83005 11334 21356 39974 40115 57004 77173 83537
AAXX 11061 25705 41998 82202 11327 21351 39751 40117 53002 77172 85037
AAXX 11061 25927 42998 02905 11212 21269 39941 49948 57002
AAXX 11061 25932 42999 83508 11158 21218 39814 49853 57006 8805/ 333 91117
AAXX 11061 31152 42997 80000 11297 21328 39730 40174 52010 85036
AAXX 11061 31174 41598 83204 11144 21195 30066 40078 52004 73632 81909
AAXX 11061 31489 42997 21001 11203 21229 39978 40102 58004 80002
AAXX 11061 31866 42998 02904 11061 21206 30092 40097 58003
AAXX 11061 31959 42598 22905 11047 21135 30106 40149 53004 81102
AAXX 11061 31989 42999 02403 11008 21120 30119 40173 57007
AAXX 11061 32027 42999 32905 11138 21190 30053 40062 53003 80002 333 91007 91108
AAXX 11061 32076 42599 53102 11106 21190 30034 40044 53005 82530 333 91004 91106
AAXX 11061 32099 41598 73209 11090 21157 30046 40054 53004 70282 87900 333 91011 91113
AAXX 11061 32121 41599 63208 11083 21159 30040 40063 54000 73683 86900 333 91010 91113
AAXX 11061 32213 41598 22912 11032 21071 39889 49953 54000 72683 82300 333 91015 91115 92980
AAXX 11061 32287 41497 61404 11177 21189 39919 49930 57004 78582 85970
AAXX 11061 32408 41999 22906 11100 21163 39803 49842 53008 78681 81031 333 91112
AAXX 11061 32509 41999 23409 1//// 2//// 39834 49868 53009 70230 80001 333 91014 91123
AAXX 11061 32594 41496 83209 11030 21064 39909 49945 57001 78583 889// 333 91011 91114
AAXX 11063 63658 32980 61103 10226 20146 38878 48507 80005 333 20175 58000 86380 555 10178
AAXX 11063 63654 32965 03604 10228 20151 48/// 80000 333 20170 555 10180
BBXX 41052 11061 99183 70648 46/// /0605 10267 40099 58011 90600 22200 00279 333 91207
BBXX 44040 11061 99410 70736 46/// /3305 10014 21096 40337 90545 22200 1//00 70001 333 91207 555 11051 22062
BBXX 41052 11061 99183 70648 46/// /0606 10266 40100 90550 333 91208
BBXX 41052 11061 99183 70648 46/// /0507 10266 40101 90540 333 91208
BBXX 44029 11061 99425 70706 46/30 /3107 10010 40299 52015 90604 22200 00091 10301 70006 333 91208 555 11086 22089
BBXX 44030 11061 99432 70704 46/// /3107 1//// 40296 53014 90604 22200 00087 10301 70006 333 91209 555 11083 22089
BBXX 44033 11061 99441 70690 46/30 /2905 11008 40289 51015 90604 22200 00084 1//00 70002 333 91207 555 11062 22064
BBXX 44034 11061 99441 70681 46/30 /3107 11003 40283 51016 90604 22200 00090 10301 70006 333 91210 555 11083 22086
BBXX 44039 11061 99411 70727 46/// /3209 10016 21083 40337 90615 22200 00108 10301 70005 333 91212
BBXX 44060 11061 99413 70721 46/// ///07 11001 40324 90615 22200 00109 333 91209 555 11077 22077
BBXX 44022 11061 99409 70737 46/// ///04 10009 21093 40333 90615 22200 00095 333 91206 555 11046 22046
AAXX 11061 01271 17784 72801 10006 21018 39946 49968 52013 60032 724// 333 21032 43011 70046 91110
AAXX 11061 01415 17681 72103 10056 20012 30004 40015 50000 6//// 700// 333 20024 70065 91108
AAXX 11064 71464 46/// ///09 11015 30088 40308 52003 6///1 333 11014 21053 7////
AAXX 11064 71466 46/// ///// 11025 30090 40336 51004 6///1 333 11018 21031 7////
AAXX 11064 71751 46/// /2404 11048 21087 39911 40175 56009 6///1 333 11047 21132 7//// 555 32819 40071
AAXX 11064 71525 16/// /2909 11043 21067 60001 333 10067 21049 70000 555 32227 40151
AAXX 11064 71526 16/// /2503 11036 21074 60001 333 10061 21048 70000 555 30121 40231
AAXX 11064 71535 16/// /2903 11028 21057 60001 333 10103 21041 70000 555 32429 40112
AAXX 11064 71536 16/// /2302 11018 21076 60001 333 10116 21024 70000 555 32535 40113
AAXX 11064 71537 17/// /2604 11076 21097 69941 7//4/ 333 10042 21112 7//// 555 32523 40161
AAXX 11064 71345 16/// /2306 11018 21071 60001 333 10090 21025 70000 555 32523 40171
AAXX 11064 71351 16/// /3005 11026 21062 60001 333 10056 21105 70006 555 33219 40221
AAXX 11064 71353 16/// /2907 11019 21074 60001 333 10037 21029 70000 555 33323 40211
AAXX 11064 71375 46/// /3415 11133 6///1 333 11004 21134 7//// 555 33032 40212
AAXX 11064 71385 46/// /3316 11103 6///1 333 10010 21106 7////
AAXX 11064 71257 17/// /0103 11091 21105 69941 7//4/ 333 10072 21094 70013 555 33421 40221
AAXX 11064 71258 16/// /2905 11043 21079 60001 333 10063 21044 70000 555 32220 40101
AAXX 11064 71259 16/// /2408 11081 21108 60001 333 10057 21110 70000 555 32421 40171
AAXX 11064 71274 16/// /3209 11015 21039 60001 333 11010 21078 70000 555 33221 40051
AAXX 11064 71275 46/// /2810 11025 21052 6///1 333 11017 21081 7//// 555 33019 40061
AAXX 11064 71278 16/// /2907 11037 21069 60001 333 11025 21106 70000
AAXX 11064 71286 16/// /3112 11017 21045 60001 333 11004 21093 70000 555 33018 40061
AAXX 11064 71287 16/// /3310 11013 21044 60001 333 10015 21086 70000 555 32925 40031
AAXX 11064 71289 16/// /2507 11032 21066 60001 333 10049 21070 70000 555 33123 40211
AAXX 11064 71924 11674 13417 11308 21352 39987 40080 57002 69901 70170 81500 333 11174 21313 48037 79999 90923 555 19999 29999 33417 40061
AAXX 11064 71214 16/// /2709 11023 21071 60001 333 10075 21091 70000 555 33021 40231
AAXX 11064 71223 16/// /2914 11018 21073 60001 333 10080 21091 70000 555 33029 40222
AAXX 11064 71225 16/// /2304 11045 21078 60001 333 10074 21045 70000 555 32132 40162
AAXX 11064 71227 46/// /2907 11032 21067 6///1 333 10034 21104 7//// 555 33224 40211
AAXX 11064 71445 17/// /1307 11079 21097 39820 40102 56012 69971 7//4/ 333 11072 21127 7////
AAXX 11064 71010 16/// /2905 11028 21064 60001 333 10042 21087 70000 555 32822 40221
AAXX 11064 71916 46/// /0000 11353 21385 30057 40115 55004 6///1 333 11320 21368 7////
AAXX 11064 71683 46/// /1803 11119 30010 40121 56016 6///1 333 11072 21136 7////
AAXX 11061 23074 41497 81402 11077 21091 30265 40290 52012 78582 889//
AAXX 11061 23274 41293 83301 11125 21131 30282 40320 52013 77172 8567/ 333 85704
AAXX 11061 23383 41598 80000 11115 21128 39932 40298 52003 77187 8351/
AAXX 11061 23472 41599 53501 11100 21112 30261 40312 52014 70282 85500
AAXX 11061 23678 41998 03401 11107 21120 30232 40292 52025 70271
AAXX 11061 23884 41584 60000 11098 21106 30191 40268 53012 70272 86900
AAXX 11061 23891 41596 81601 11094 21115 39934 57011 78588 889//
AAXX 11061 24507 42698 70000 11264 21282 30040 40308 57001 83531
AAXX 11061 24817 42999 20000 11258 21276 39906 40311 58001 81049
AAXX 11061 24908 41970 80000 11152 21172 39956 40304 57009 77187 8807/
AAXX 11061 29263 41596 81901 11080 21098 30162 40266 57015 78582 8595/
AAXX 11061 29282 41997 80801 11123 21136 30116 40294 57026 77072 8807/
AAXX 11061 29379 41898 81803 11082 21096 30058 40273 57025 70272 8802/
AAXX 11061 29570 42898 20401 11112 21132 39920 40283 57016 82041
AAXX 11061 29698 41598 61502 11088 21116 39769 40300 57031 70282 81932
AAXX 11061 30230 41599 60000 11126 21146 39966 40308 52005 72682 83901
AAXX 11061 30252 42699 71401 11107 21135 39938 40266 53010 82941
AAXX 11061 30309 41999 81704 11123 21143 39781 40326 57017 70282 80005
AAXX 11061 30328 41598 70000 11084 21103 39894 40334 58005 78582 87900
AAXX 11061 30521 41597 80701 11104 21124 39801 40346 58008 70282 87901
AAXX 11061 30710 42999 30901 11092 21126 39743 40349 57018 80001
AAXX 11061 23973 41997 83203 11098 21119 30200 40265 53011 77173 82038
AAXX 11061 23975 41999 33203 11127 21164 30161 40266 53013 70183 80005
AAXX 11061 23986 41420 81802 11108 21121 39606 40263 56003 78687 883// 95090
AAXX 11061 23987 41495 82703 11097 21118 30187 40264 53004 78582 889//
AAXX 11061 24606 42899 60000 11268 21293 30008 40304 53001 83045
AAXX 11061 29253 41699 62702 11090 21119 30097 40273 57005 70272 83530
AAXX 11061 29471 41596 81801 11102 21115 30046 40283 57019 78522 85907
AAXX 11061 29481 41899 71502 11083 21103 30028 40274 57028 70272 84031
AAXX 11061 29553 41959 82501 11150 21163 39925 40313 57009 71071 8801/
AAXX 11061 29562 42998 12202 11146 21166 39871 40312 57008 80002
AAXX 11061 29581 42998 61402 11064 21096 30018 40281 57024 82031
AAXX 11061 29594 41699 81402 11088 21112 39897 40297 57029 70282 82531
AAXX 11061 29653 42997 01701 11195 21214 39812 40335 57008
AAXX 11061 29675 42998 00000 11172 21198 39684 40316 57021
AAXX 11061 29676 42998 33301 11113 21141 39842 40283 57027 80009
AAXX 11061 29752 42999 12802 10004 21120 38852 48506 57001 80001
AAXX 11061 29759 42999 00000 11051 21101 39252 40295 57006
AAXX 11061 29766 41999 60000 11175 21181 39971 40352 58013 70242 80001
AAXX 11061 29789 42999 02001 11123 21136 39082 40315 57029
AAXX 11061 29864 42999 00000 11161 21188 39647 40341 57013
AAXX 11061 29866 41996 82401 11125 21131 39997 40335 57010 77172 8802/
AAXX 11061 29869 42997 60000 11165 21171 39950 40351 57012 86030 333 95030
AAXX 11061 29956 42999 02501 11149 21162 39747 40341 57014
AAXX 11061 30337 41598 43102 11073 21117 39851 40311 58001 70282 82941
AAXX 11061 30405 41598 41601 11102 21130 39776 40326 57025 70281 81939
AAXX 11061 30504 41598 71304 11112 21132 39648 40324 57026 78582 84330
AAXX 11061 30603 41998 20000 11137 21157 39738 40340 57023 70281 80001
AAXX 11061 30612 41996 01203 11207 21219 39796 40377 58019 71011
AAXX 11061 30622 42698 21201 11162 21181 39676 40362 58009 82903
AAXX 11061 30627 42999 11150 21163 39380 40364 52011 78582 80001
AAXX 11061 30703 41999 30000 11085 21133 39633 40328 57026 70171 80001
AAXX 11061 36307 41899 80000 11142 21169 39060 48593 53001 72272 8801/ 333 95000
AAXX 11064 71924 11674 13417 11308 21352 39987 40080 57002 69901 70170 81500 333 11174 21313 48037 79999 90923 555 19999 29999 33417 40061
AAXX 11061 01025 17/58 90103 11015 21030 39949 49960 55000 60012 771// 333 21015 47010 70010 91109
AAXX 11061 01311 47461 81405 10021 20014 39934 49996 58004 761// 333 21011 91106
AAXX 11061 51711 32980 20902 11077 21143 38063 54000 80002 333 05251 21169
AAXX 11061 51730 32975 02503 11005 21065 40382 57003 333 05200 21125
AAXX 11061 52112 32980 42501 11044 21190 40360 57010 80002 333 05251 21133
AAXX 11061 52737 32980 22002 11042 21228 37098 57015 80002 333 00252 21174
AAXX 11061 52787 32980 03203 11074 21199 37030 57011 333 05152 21171
AAXX 11061 53352 32980 02203 11025 21128 40335 57018 333 21133
AAXX 11061 53593 32965 02001 10020 21115 40311 57026 333 21126
AAXX 11061 53705 32970 03203 11015 21172 40371 57028 333 05200 21110
AAXX 11061 53863 32961 20000 10032 21085 40321 57031 80002 333 21097
AAXX 11061 53975 32972 61801 10055 21103 40298 57033 80002 333 21071
AAXX 11061 54273 32670 42504 11009 21086 40210 57016 84500 333 21117
AAXX 11061 54324 32970 03403 10066 21125 40233 57012 333 21061
AAXX 11061 54405 32970 02908 10036 21116 40281 57026 333 21037
AAXX 11061 54436 32980 02705 10073 21087 40248 57021 333 21099
AAXX 11061 54808 32964 32004 10083 21063 40277 57030 80002 333 21034
AAXX 11061 54826 32980 02203 10026 21117 38498 57019 333 21114
AAXX 11061 54836 32975 22502 10067 21097 40283 57026 80002 333 21055
AAXX 11061 54863 32962 02505 10064 21076 40270 57023 333 21036
AAXX 11061 56018 32680 62704 11018 21167 36153 57012 86900 333 00354 21107
AAXX 11061 56021 32580 73205 11063 21114 36051 57013 83902 333 00254 21142
AAXX 11061 57071 32970 72903 10079 21074 40285 57031 80002 333 21025
AAXX 11064 63729 12480 42403 10210 20183 38870 48/// 69904 81901 333 0//19 20173 50241 55050 55304 59001 81818 81920 84072
AAXX 11064 63791 32580 10605 10260 20178 39128 48516 81200 333 20184 50751 55092 55310 58002 81826
AAXX 11064 63801 01480 70000 10210 20197 39222 48538 60024 72999 8297/ 333 0//11 20201 50561 55089 55300 58011 60023 82618 81920 87358
AAXX 11064 63832 12480 63206 10210 20185 38828 48494 60014 83930 333 0//19 20195 50651 55043 55310 59005 83819 81920 84358
AAXX 11064 63881 12480 70000 10173 20151 38202 48/// 69904 8193/ 333 20144 50251 55014 55300 59005 81617 81819 87357
AAXX 11064 63887 12480 80000 10195 20179 38595 48514 60104 8587/ 333 20180 50561 55014 55300 58002 85817 87357
AAXX 11064 63894 12580 60115 10283 20252 30062 40122 60034 86900 333 0//12 20248 50031 55000 55300 58010 70025 86820 81921
AAXX 11064 6393212580 70000 10194 20160 38312 48509 60024 8293/ 333 20143 50251 55009 55300 58002 82822 81923 86358
AAXX 11064 63971 12580 73005 10272 20246 39979 40108 60024 8293/ 333 0//19 20225 50701 55036 55300 58004 82822 81923 87358
AAXX 11064 63733 NIL
AAXX 11064 63756 NIL
AAXX 11064 63862 NIL
AAXX 11064 63866 NIL
AAXX 11064 63870 NIL
AAXX 11064 63962 NIL
AAXX 11064 42027 31995 03201 10074 21013 38462 48549 70500 333 58004
AAXX 11064 42071 31996 33202 10186 20081 40148 70411 83030 333 59001 83360
AAXX 11064 42101 32996 40000 10186 20100 40148 80001 333 58002 84072
AAXX 11064 42111 31995 21401 10178 20119 39364 40135 70500 80001 333 58008 82075
AAXX 11064 42131 32996 52702 10194 20045 40158 80001 333 58004
AAXX 11064 42165 31995 02301 10228 21018 40154 70500 333 59009
AAXX 11064 42182 31995 22708 10200 20037 40156 70400 80001 333 58008 82070
AAXX 11064 42260 32996 02705 10217 20034 40159 333 58006
AAXX 11064 42328 32996 02302 10242 21003 40156 333 59013
AAXX 11064 42339 31995 01402 10220 21037 40167 70500 333 59009
AAXX 11064 42348 31995 02704 10204 21038 40154 70500 333 59003
AAXX 11064 42361 31996 00000 10224 20158 40158 70500 333 58005
AAXX 11064 42369 31995 03203 10204 20130 40157 70500 333 59017
AAXX 11064 42379 31995 72702 10188 20120 40153 71042 85510 333 58018 85625 87458
AAXX 11064 42452 32996 03602 10222 21052 40163 333 59005
AAXX 11064 42189 NIL
AAXX 11064 42475 NIL
AAXX 11064 68513 36/// /0606 10175 20089 30050 40162 53005 333 20106 91009 555 10217 91016
AAXX 11064 68514 NIL
AAXX 11064 68523 36/// /2410 10118 20038 39115 48512 53002 333 20075 91014 555 10285 91018
AAXX 11064 68527 36/// /2106 10169 21002 39065 48500 53010 333 20136 91009 555 10341 91015
AAXX 11064 68572 NIL
AAXX 11064 68575 16/// /3104 10175 20149 39066 48490 51002 60054 333 20147 91007 555 10225 20056 91014
AAXX 11064 68581 NIL
AAXX 11064 68583 16/// /2402 10235 20201 39986 40094 57002 60094 333 20204 91005 555 10254 20092 91009
AAXX 11064 68589 16/// /0305 10165 20110 38230 48489 53003 60064 333 20108 91006 555 10198 20066 91018
AAXX 11064 68613 36/// /3605 10151 20115 30066 40183 53010 333 20102 91009 555 10204 91018
AAXX 11064 68647 16/// /2503 10191 20110 38874 48474 52005 69944 333 20114 91007 555 10224 20004 91013
AAXX 11064 68651 16/// /3311 10192 20095 38530 48493 52006 60054 333 20085 91020 555 10231 20058 91017
AAXX 11064 68715 36/// /2903 10171 20138 30027 40155 53004 333 20141 91006 555 10237 91015
AAXX 11064 68717 16/// /3604 10148 20116 30018 40163 52005 69944 333 20134 91006 555 10251 20004 91016
AAXX 11064 68723 36/// /2809 10154 20054 39375 48495 51001 333 20117 91017 555 10293 91013
AAXX 11064 68737 32775 72307 10173 20033 39221 48492 52006 875// 333 20111 91012 555 10287 91013
AAXX 11064 68744 36/// /3308 10203 20110 39053 48472 52005 333 20161 91014 555 10288 91011
AAXX 11064 68747 36/// /1503 10159 20123 39589 48492 52016 333 20150 91004 555 10260 91012
AAXX 11064 68754 16/// /2103 10174 20141 39101 48487 53013 60104 333 20156 91008 555 10247 20104 91013
AAXX 11064 68817 NIL
AAXX 11064 68821 36/// /3017 10183 20097 39885 40123 52005 333 20149 91023 555 10253 91012
AAXX 11064 68835 36/// /3502 10186 20097 39998 40112 50000 333 20144 91005 555 10259 91011
AAXX 11064 68843 16/// /2711 10176 20107 30010 40109 53012 69924 333 20160 91019 555 10246 20002 91011
AAXX 11064 68849 36/// /2410 10135 20083 39375 48475 53011 333 20120 91018 555 10240 91012
AAXX 11064 68912 16/// /1510 10147 20134 30138 40147 53003 60024 333 20135 91014 555 10198 20024 60125 91014
AAXX 11064 68918 16/// /2910 10181 20152 30114 40133 52007 69944 333 20159 91016 555 10211 20004 91013
AAXX 11064 68921 16/// /2311 10186 20115 30114 40117 53011 60034 333 20143 91017 555 10223 20038 91011
AAXX 11064 68925 16/// /2706 10155 20131 39773 40138 53003 60074 333 20135 91013 555 10189 20074 91014
AAXX 11064 68926 11155 82707 10135 20115 39942 40123 53011 60014 72122 8800/ 333 20123 91018 555 10254 20014 60145 91012
AAXX 11064 68935 36/// /2704 10200 20110 30042 40105 51002 333 20130 91006 555 10232 91010
AAXX 11061 47003 42580 21404 10004 21058 30191 40195 57010 82500
AAXX 11061 47005 11660 81402 11089 21128 38574 58003 69921 77173 8753/
AAXX 11061 47022 42475 13204 11010 21118 38804 58008 81500
AAXX 11061 47028 42967 00000 10032 21055 30136 40231 58016
AAXX 11061 47031 42570 31402 11042 21080 38916 57002 83500
AAXX 11061 47037 42970 00000 10030 21054 30133 40257 57006
AAXX 11061 47039 42960 00000 10011 21087 30051 40246 57021
AAXX 11061 47046 42969 02304 10054 21050 30164 40187 57024
AAXX 11061 47050 42965 00501 10015 21051 30210 40245 57017
AAXX 11061 47052 42565 82901 10021 21026 39894 40238 57021 885//
AAXX 11061 47060 42960 50000 10064 21010 30183 40242 58011 85030
AAXX 11061 47061 42980 03201 10064 21020 30174 40218 57011
AAXX 11061 47065 41560 71803 10042 20019 30197 40264 58005 71022 84501
AAXX 11061 47067 41560 82504 11001 21061 30144 40269 57027 71022 885//
AAXX 11061 47068 11570 62507 10071 20023 30201 40236 57010 69901 70162 86500
AAXX 11061 47070 42970 82003 10049 20005 30167 40255 57013 8803/
AAXX 11061 47075 42580 82303 10020 21037 39745 40178 57015 885//
AAXX 11061 47101 32670 62303 10061 21049 30149 40245 57024 85500
AAXX 11061 47105 369// /2512 10054 21068 30192 40224 56012
AAXX 11061 47108 32668 82506 10048 21037 30146 40253 57011 8552/
AAXX 11061 47115 32575 32707 10055 21009 39947 40221 57010 83500 333 92033
AAXX 11061 47133 31658 70000 10047 21009 30180 40266 57013 70522 87500
AAXX 11061 47138 32968 02907 10094 21035 30235 40238 56014 333 92022
AAXX 11061 47159 32975 02703 10106 21042 30158 40243 57017 333 92022
AAXX 11061 47165 32665 73407 10060 21023 30224 40271 57011 87500 333 92023
AAXX 11061 47168 32670 23210 10083 21042 30173 40253 57016 82500 333 92023
AAXX 11061 47184 32670 73210 10085 21013 30249 40274 57011 87500 333 92033
AAXX 11061 47008 42570 20502 10018 21035 30135 40189 57008 82500
AAXX 11061 47014 42650 50000 11008 21104 39828 40236 58003 85500
AAXX 11061 47016 11570 10000 11018 21159 39337 40230 57017 69901 70172 81500
AAXX 11061 47020 42965 00000 10012 21100 39859 40242 58017
AAXX 11061 47025 42980 01803 10061 21036 30161 40190 57006
AAXX 11061 47035 42970 00000 10034 21078 30237 40246 57013
AAXX 11061 47041 42970 02705 10061 21064 30159 40186 57024
AAXX 11061 47055 42970 42303 10057 21053 30170 40216 57018 84050
AAXX 11061 47058 11960 42301 10063 21018 30202 40249 58020 69901 70272 82032
AAXX 11061 47069 11556 82302 10048 20033 30153 40254 58013 69901 76062 885//
AAXX 11061 47090 32975 02909 10062 21070 30191 40213 56017 333 92013
AAXX 11061 47095 32570 62008 10042 21050 30054 40245 57018 86500
AAXX 11061 47097 329// /2505 10054 21044 30158 40255 55019
AAXX 11061 47098 329// /2306 10048 21037 30109 40245 57016
AAXX 11061 47099 329// /2006 10055 21014 30213 40250 57016
AAXX 11061 47100 32970 02517 11018 21073 39292 40231 57017
AAXX 11061 47102 31658 82716 10050 20018 30063 40243 57013 71062 8552/
AAXX 11061 47104 32970 01404 10057 21062 30120 40218 57016
AAXX 11061 47106 329// /1803 10073 21057 30174 40223 57012
AAXX 11061 47112 31660 81806 10047 20017 30171 40256 55011 76062 8552/ 333 92012
AAXX 11061 47114 32668 22704 10049 21063 30068 40253 57019 82500
AAXX 11061 47119 32662 82304 10055 21001 30215 40258 56013 8552/
AAXX 11061 47121 329// /2504 10049 21052 39950 40247 56026
AAXX 11061 47127 329// /2506 10055 21043 30115 40258 57020
AAXX 11061 47129 32662 61804 10059 20016 30229 40265 57013 86500
AAXX 11061 47130 32970 02008 10081 21053 30163 40224 57015 333 92023
AAXX 11061 47131 31659 52303 10053 20000 30192 40263 57014 70522 85500
AAXX 11061 47135 329// /2708 10041 21012 39956 40258 57012
AAXX 11061 47136 32672 22908 10069 21036 30073 40245 55017 81500
AAXX 11061 47137 329// /2505 10047 21031 30139 40259 57009
AAXX 11061 47140 31658 61602 10064 20022 30238 40267 57010 71022 86500 333 92012
AAXX 11061 47143 32668 62904 10078 21034 30177 40256 57015 86500
AAXX 11061 47145 32665 53201 10057 21001 30228 40255 57014 85500
AAXX 11061 47146 32663 82506 10063 21006 30201 40267 56010 8452/
AAXX 11061 47150 32663 71802 10056 20011 30242 40261 57010 87500
AAXX 11061 47152 32975 02705 10097 21029 30195 40237 57016
AAXX 11061 47154 329// /2907 10062 21024 30195 40256 57011
AAXX 11061 47155 32975 01804 10092 21037 30199 40245 57020
AAXX 11061 47156 32670 83202 10065 21009 30181 40271 57011 8452/
AAXX 11061 47157 32970 02709 10065 21031 39969 40240 55008
AAXX 11061 47162 32970 03204 10090 21020 30210 40250 57018 333 92022
AAXX 11061 47169 32665 72908 10067 21009 30178 40273 57012 87500 333 92043
AAXX 11061 47170 32665 73207 10063 21023 30227 40271 57013 87500 333 92023
AAXX 11061 47171 329// /1102 10052 20023 30214 40270 57009
AAXX 11061 47172 329// /2505 10070 21016 30197 40264 57008
AAXX 11061 47173 329// /1101 10046 21014 30158 40271 57011
AAXX 11061 47174 32668 73206 10054 21022 30057 40261 57012 87500
AAXX 11061 47175 32561 73209 10026 21012 39687 40270 57013 87500 333 92023
AAXX 11061 47185 32661 73216 10090 20016 30178 40269 57014 87500 333 92035
AAXX 11061 47188 32670 63605 10088 20000 30246 40268 57013 85500 333 92032
AAXX 11061 47189 32668 63206 10107 21007 30199 40259 57014 85500 333 92022
AAXX 11061 47192 32978 03202 10093 21046 30212 40249 57018
BBXX 46208 11061 99525 71327 46/// /3408 10065 40246 52005 22200 00077 11405 70026 333 912//
BBXX 46208 11061 99525 71327 46/// /3408 10065 40246 52005 22200 00077 11405 70026 333 912//
AAXX 11061 50548 32980 02002 11103 21168 40186 57003 333 21256
AAXX 11061 50564 32970 32002 11112 21167 40163 52002 80002 333 21233
AAXX 11061 51334 32970 72501 11054 21081 40344 57010 80002 333 00053 21112
AAXX 11061 51818 32970 03602 11025 21090 40371 57007 333 05301 21129
AAXX 11061 52378 32980 02505 11021 21190 40376 57018 333 05402 21130
AAXX 11061 53487 32970 00401 10001 21122 40321 57029 333 21144
AAXX 11061 53502 32980 02004 11010 21211 40370 57023 333 05402 21137
AAXX 11061 53923 32980 72902 11023 21113 40353 57021 86042 333 21087
AAXX 11061 54049 32970 02904 11001 21130 40206 57002 333 21106
AAXX 11061 54115 32680 32505 11025 21137 40265 57003 82102 333 21079
AAXX 11061 54157 32968 52203 11010 21087 40220 57009 80002 333 21090
AAXX 11061 54186 11570 62204 11047 21099 40206 57006 69901 70080 86100 333 21114
AAXX 11061 54311 32980 02904 11015 21127 40272 57012 333 21103
AAXX 11061 54346 32965 00000 10037 21103 40234 57018 333 21090
AAXX 11061 54377 32975 02503 10013 21105 40243 57019 333 21105
AAXX 11061 54386 11570 22206 11023 21135 40227 57016 69901 70070 82100 333 21164
AAXX 11061 54493 32974 02202 10021 21101 40246 57018 333 21124
AAXX 11061 54587 NIL
AAXX 11061 54715 32968 02205 10082 21063 40269 57027 333 21047
AAXX 11061 54929 32970 12901 10082 21063 40286 57028 80001 333 21053
AAXX 11061 54945 32972 02201 10083 21078 40284 57025 333 21019
AAXX 11061 56065 32680 63201 11033 21184 36608 57020 81142 333 05102 21118
AAXX 11061 57193 32965 22702 10086 21076 40289 57031 81042 333 21036
AAXX 11061 57290 32965 22501 10097 21070 40290 57031 82040 333 21022
AAXX 11064 61017 32960 50000 10068 20023 39778 40199 80002 333 05300 20045 50254 55093 58000 85080
AAXX 11064 61024 31956 31006 10117 20014 39594 40171 7060/ 80002 333 00800 20115 51391 55/// 58016 83080 P 043
AAXX 11064 61036 31914 70802 10192 21002 39884 40123 7062/ 80008 333 01700 20189 51201 51154 55054 58003 87280
AAXX 11064 61043 31958 70610 10177 20006 39695 40138 7072/ 80008 333 0//00 20174 51241 5///4 55056 58009 87280
AAXX 11064 61045 31903 70606 10158 20004 39659 40160 70644 80008 333 00600 20158 5//// 51044 55060 58016 87280
AAXX 11064 61049 31956 70000 10146 20056 39832 40156 7062/ 80008 333 01200 20140 51111 50974 55053 58013 87280
AAXX 11064 61052 31908 70604 10190 21021 39877 40134 70622 80008 333 01500 20185 51051 55071 58004 87280
AAXX 11064 61075 31920 71004 10190 20033 39824 40135 7062/ 80008 333 01800 20190 50711 50714 55000 58010 87280
AAXX 11064 61080 31903 71008 10176 20007 39724 40147 7064/ 80008 333 01100 20175 51141 51064 55000 58007 87280
AAXX 11064 61090 31906 70608 10178 21011 39637 40150 70644 80008 333 01700 20175 51241 51144 55029 58003 87280
AAXX 11064 61091 NIL
AAXX 11064 61096 31906 70404 10160 20020 39778 40163 70622 80008 333 01500 20159 51191 50864 55067 58011 87280
AAXX 11064 61099 31910 70404 10180 20031 39892 40122 7062/ 80008 333 01500 20165 50881 55033 58011B 87280
AAXX 11064 68514 NIL
AAXX 11064 68572 NIL
AAXX 11064 68581 NIL
AAXX 11064 68817 NIL
AAXX 11064 60360 12960 61903 10091 20074 40200 53002 60004 82032 333 00700 20085 82360 85073 95990
AAXX 11064 89132 NIL
AAXX 11064 89542 NIL
AAXX 11064 89575 NIL
AAXX 11064 89657 46/// /1402 11030 20062 49769 53002
AAXX 11061 45032 NIL
AAXX 11061 45035 36/// /3504 10152 21018 30172 40215 57004
AAXX 11061 45039 36/// /0102 10162 20011 30196 40212 57002
AAXX 11061 45044 36/// /3404 10177 20012 30115 40208 57003
AAXX 11064 87715 32965 42305 10170 20003 39805 40113 58008 82076 333 56000 82360
AAXX 11064 68174 11450 80407 10155 20150 38792 48512 52011 60014 76022 885// 333 20152 91010 555 10174 20019 69925 91018
AAXX 11064 68191 16/// /0702 10221 20187 39642 48540 52011 60014 333 20200 91004 555 10258 20016 91015
AAXX 11064 68242 12580 40113 10171 20130 38716 48494 52013 60054 84500 333 20117 91018 555 10207 20052 91016
AAXX 11064 68262 16/// /3502 10188 20158 38702 48509 53008 69924 333 20181 91004 555 10221 20002 91018
AAXX 11064 68263 12580 83304 10175 20144 38482 48507 53007 60014 8657/ 333 20163 91006 555 10202 20010 91019
AAXX 11064 68267 NIL
AAXX 11064 68289 16/// /0704 10185 20170 39149 48517 52006 69964 333 20177 91005 555 10224 20006 91016
AAXX 11064 68350 16/// /0307 10211 20143 38658 48510 53011 60034 333 20138 91010 555 10239 20030 91018
AAXX 11064 68368 11460 20211 10173 20142 38316 48512 53010 69924 70522 82502 333 20132 555 10197 20002 91020
AAXX 11064 68403 36/// /2403 10154 20100 30149 40182 52002 333 20108 91005 555 10219 91018
AAXX 11064 68424 32982 01905 10144 20039 39204 48512 52013 333 20107 91009 555 10344 91017
AAXX 11064 68438 12782 13009 10169 20116 38804 48495 53007 60044 81500 333 20122 91012 555 10233 20040 91016
AAXX 11064 68442 12480 73307 10155 20128 38647 48498 53005 60014 875// 333 20097 91010 555 10173 20018 91017
AAXX 11064 68461 12580 32803 10159 20121 38310 48496 53005 60134 81534 333 20115 91006 555 10215 20138 91018
AAXX 11064 68512 32982 01207 10125 20027 39029 48515 53001 333 20078 91012 555 10217 91018
AAXX 11064 68538 32682 13007 10157 20029 38693 48476 53005 81500 333 20088 91012 555 10309 91014
AAXX 11064 68587 16/// /1507 10212 20191 30086 40098 58001 60604 333 20176 91010 555 10237 20604 69925 91009
AAXX 11064 68588 16/// /2904 10250 20168 30093 40109 53002 60024 333 20204 91007 555 10260 20028 91010
AAXX 11064 68591 16/// /2805 10223 20206 39931 40109 57003 60354 333 20176 91010 555 10243 20358 91011
AAXX 11064 68592 NIL
AAXX 11064 68618 32980 02606 10122 20037 39057 48511 53004 333 20058 91010 555 10248 91018
AAXX 11064 68633 36/// /3408 10153 20071 38473 48468 53005 333 20115 91012 555 10293 91014
AAXX 11064 68668 12970 00604 10205 20140 39251 48483 52002 60154 333 20147 91011 555 10241 20156 91011
AAXX 11064 68714 36/// /1905 10185 20123 30120 40156 52002 333 20107 91008 555 10217 91015
AAXX 11064 68727 36/// /2314 10155 20013 39100 48481 53002 333 20125 91022 555 10295 91013
AAXX 11064 68752 36/// /2306 10156 20148 39435 48484 53013 333 20156 91009 555 10256 91012
AAXX 11064 68816 11440 71503 10164 20147 30093 40148 53006 69984 76062 875// 333 20146 91007 555 10215 20008 91014
AAXX 11064 68828 12670 42809 10177 20112 39875 40106 51005 60024 84500 333 20120 555 10211 20020 91010
AAXX 11064 68842 12886 72612 10180 20066 30036 40106 53011 69902 87600 333 20151 555 10222 20000 91010
AAXX 11064 68858 32480 72212 10192 20157 39954 40109 51023 875// 333 20164 555 10241 91011
AAXX 11064 68906 11298 82219 10117 20106 30051 40116 53020 60694 70388 866// 222// 00130 20401 333 20117 91029 555 10171 20699 91011
AAXX 11064 68994 32598 82407 10104 20052 30278 40307 53003 885// 222// 00066 333 20038 91010 555 10112 91030
AAXX 11064 89004 NIL
AAXX 11061 60379 36/// /1501 10094 20094 333 20092
AAXX 11061 60380 16/// /0401 10073 20072 69924 333 20064
AAXX 11061 60394 16/// /1901 10080 20080 69924 333 20077
AAXX 11061 60374 36/// /1604 10130 20077 333 20104
AAXX 11061 60613 36/// /1410 10110 20025 333 20097
AAXX 11061 60376 16/// /1602 10092 20092 69924 333 20091
AAXX 11061 60593 36/// /0000 10106 333 20104
BBXX MINUK05 1106/ 99571 70021 46/// ///// 10058 49971 57014
BBXX FLAO 1106/ 99764 70847 46/// ///// 11280 40032 57004
BBXX MINUK03 1106/ 99529 10037 46/// ///// 10078 40107 52008
BBXX MINUK01 1106/ 99572 70019 46/// ///// 10063 49966 52004
BBXX MINFR05 1106/ 99505 10005 46/// ///// 10090 40132 57022
AAXX 11063 41150 41659 22811 10169 20076 40222 70500 82500 333 20148 30013 58000 82630
AAXX 11061 45032 NIL
AAXX 11061 45035 36/// /3504 10152 21018 30172 40215 57004
AAXX 11061 45039 36/// /0102 10162 20011 30196 40212 57002
AAXX 11061 45044 36/// /3404 10177 20012 30115 40208 57003
AAXX 11064 40255 32960 01204 10064 20004 39540 40276 52005 333 20040 30000
AAXX 11064 40260 31957 03306 10056 20025 39473 40275 52013 70500 333 20/// 30///
AAXX 11064 40270 31950 00000 10038 21009 39363 40290 52016 70500 333 20020 35105
AAXX 11064 40272 32960 00913 10043 21006 39426 40290 52012 333 21035 30106
AAXX 11064 40290 NIL
AAXX 11064 40340 32960 03613 10106 20035 40245 52010 333 20095 30008
BBXX NIL
BBXX NIL
BBXX NIL
AAXX 11064 40250 NIL
AAXX 11064 40265 31940 01604 10040 20002 39480 40302 52010 70500 333 21010 30105
AAXX 11064 40296 32960 00000 10132 20070 40275 52009 333 20106 30005
AAXX 11064 40310 NIL
BBXX NIL
BBXX NIL
AAXX 11061 10544 11020 82105 11039 21039 39078 48442 55000 60002 74111 886// 333 11032 21056 3/107 42004 55004 55300 79999 88700
BBXX 46206 11061 99488 71260 46/// /3307 10075 40205 52003 22200 00087 11505 70025 333 91210
AAXX 11064 68267 NIL
AAXX 11064 68592 NIL
AAXX 11061 80400 NIL
AAXX 11061 80403 32960 00000 10258 20238 30074 40093 333 30/// 59018 555 10096
AAXX 11061 80405 NIL
AAXX 11061 80407 NIL
AAXX 11061 80410 32460 70000 10208 20202 39430 40103 8267/ 333 30/// 5699/ 59011 82713 86360 555 10142
AAXX 11061 80413 NIL 80415 32460 41101 10234 20205 30054 40108 83520 333 30/// 56990 58000 82616 555 10106
AAXX 11061 80419 NIL
AAXX 11061 80421 NIL
AAXX 11061 80423 NIL
AAXX 11061 80428 32460 50000 10242 20221 39895 40076 8253/ 333 30/// 5699/ 59008 82617 83357 555 10091
AAXX 11061 80432 NIL
AAXX 11061 80435 32460 30202 10255 20212 30006 40080 83500 333 30/// 56900 58001 83813 555 10079
AAXX 11061 80438 11565 21102 10173 20172 38510 48507 60221 70285 81530 333 32/// 56990 59005 81633 555 10191
AAXX 11061 80444 32960 0//// 10250 2//// 30040 4//// 333 30/// 59005 555 10090
AAXX 11061 80447 32560 42560 10224 20210 39658 40093 83500 333 30/// 56900 59002 83620 555 10132
AAXX 11061 80448 32960 00000 10233 20229 3//// 4//// 333 30/// 5////
AAXX 11061 80450 NIL
AAXX 11061 80453 NIL
AAXX 11061 80457 32460 6//// 10263 20224 30022 40106 865// 333 30/// 569// 58008 86613 555 10107
AAXX 11061 80462 NIL
AAXX 11061 80402 NIL
AAXX 11061 80412 NIL
AAXX 11061 80416 NIL
AAXX 11061 80420 32960 00000 10244 20215 30085 40091 333 31/// 59007 555 10104
AAXX 11061 80425 32460 80202 10254 20249 30077 40108 8247/ 333 30/// 5699/ 58003 82613 86460 555 10109
AAXX 11061 80426 NIL
AAXX 11061 80427 32460 70202 10239 20225 39849 40099 875// 333 30/// 569// 59005 87617 555 10117
AAXX 11061 80431 NIL
AAXX 11061 80434 NIL
AAXX 11061 80437 NIL
AAXX 11061 80440 32960 00501 10255 20223 39877 40085 333 30/// 59006 555 10097
AAXX 11061 80442 32960 0//// 10254 2//// 39971 4//// 333 30/// 59004 555 10082
AAXX 11061 80472 32960 20201 10228 20210 39652 40093 80008 333 30/// 56009 59004 555 10124
AAXX 11061 80475 NIL
AAXX 11061 80476 32360 5//// 10271 20259 30081 40111 855// 333 30/// 569// 58000 85610
AAXX 11061 80478 NIL
AAXX 11061 80479 NIL
AAXX 11061 50658 31956 82201 11111 21143 40185 57001 70400 80007 333 21237
AAXX 11061 50888 32980 12703 11052 21145 40161 52002 81030 333 21142
AAXX 11061 50983 32670 22704 11053 21129 40171 57003 82100 333 21144
AAXX 11061 51053 32980 70905 11065 21130 40343 57001 80002 333 00153 21117
AAXX 11061 51542 32980 61801 11110 21189 37588 57007 80002 333 00155 21226
AAXX 11061 52436 32980 62706 11028 21136 38547 40373 57015 82032 333 05202 21122
AAXX 11061 52908 11280 72704 11084 21202 35742 57007 69901 72200 81102 333 00251 21209
AAXX 11061 52996 32980 73202 11070 21125 37588 57016 80002 333 05300 21121
AAXX 11061 53083 32980 03403 11096 21130 40336 57006 333 00301 21226
AAXX 11061 53764 32970 02002 11005 21104 40357 57023 333 21104
AAXX 11061 53787 32980 62701 10052 21094 40303 57026 80002 333 21126
AAXX 11061 54096 32970 72905 11072 21127 40186 57007 80002 333 21139
AAXX 11061 54226 32980 03205 10017 21125 40239 57002 333 21079
AAXX 11061 54259 32980 32704 10000 21094 40231 57013 83030 333 21130
AAXX 11061 54527 31957 02701 10089 21091 40258 57025 70500 333 21048
AAXX 11061 54534 32970 03206 10088 21087 40248 57025 333 21082
BBXX 46206 11061 99488 71260 46/// /3307 10075 40205 52003 22200 00087 11505 70025 333 91210
AAXX 11061 11130 11440 82502 10020 20016 39608 40208 55001 69942 70262 887// 333 10027 20019 88712 555 10047 6990/
AAXX 11061 80400 NIL
AAXX 11061 80403 32960 00000 10258 20238 30074 40093 333 30/// 59018 555 10096
AAXX 11061 80405 NIL
AAXX 11061 80407 NIL
AAXX 11061 80410 32460 70000 10208 20202 39430 40103 8267/ 333 30/// 5699/ 59011 82713 86360 555 10142
AAXX 11061 80413 NIL 80415 32460 41101 10234 20205 30054 40108 83520 333 30/// 56990 58000 82616 555 10106
AAXX 11061 80419 NIL
AAXX 11061 80421 NIL
AAXX 11061 80423 NIL
AAXX 11061 80428 32460 50000 10242 20221 39895 40076 8253/ 333 30/// 5699/ 59008 82617 83357 555 10091
AAXX 11061 80432 NIL
AAXX 11061 80435 32460 30202 10255 20212 30006 40080 83500 333 30/// 56900 58001 83813 555 10079
AAXX 11061 80438 11565 21102 10173 20172 38510 48507 60221 70285 81530 333 32/// 56990 59005 81633 555 10191
AAXX 11061 80444 32960 0//// 10250 2//// 30040 4//// 333 30/// 59005 555 10090
AAXX 11061 80447 32560 42560 10224 20210 39658 40093 83500 333 30/// 56900 59002 83620 555 10132
AAXX 11061 80448 32960 00000 10233 20229 3//// 4//// 333 30/// 5////
AAXX 11061 80450 NIL
AAXX 11061 80453 NIL
AAXX 11061 80457 32460 6//// 10263 20224 30022 40106 865// 333 30/// 569// 58008 86613 555 10107
AAXX 11061 80462 NIL
BBXX 46205 11061 99542 71343 46/// /3308 10062 40247 52007 22200 00075 11406 70029 333 91210
AAXX 11061 80402 NIL
AAXX 11061 80412 NIL
AAXX 11061 80416 NIL
AAXX 11061 80420 32960 00000 10244 20215 30085 40091 333 31/// 59007 555 10104
AAXX 11061 80425 32460 80202 10254 20249 30077 40108 8247/ 333 30/// 5699/ 58003 82613 86460 555 10109
AAXX 11061 80426 NIL
AAXX 11061 80427 32460 70202 10239 20225 39849 40099 875// 333 30/// 569// 59005 87617 555 10117
AAXX 11061 80431 NIL
AAXX 11061 80434 NIL
AAXX 11061 80437 NIL
AAXX 11061 80440 32960 00501 10255 20223 39877 40085 333 30/// 59006 555 10097
AAXX 11061 80442 32960 0//// 10254 2//// 39971 4//// 333 30/// 59004 555 10082
AAXX 11061 80472 32960 20201 10228 20210 39652 40093 80008 333 30/// 56009 59004 555 10124
AAXX 11061 80475 NIL
AAXX 11061 80476 32360 5//// 10271 20259 30081 40111 855// 333 30/// 569// 58000 85610
AAXX 11061 80478 NIL
AAXX 11061 80479 NIL
BBXX 46132 11061 99497 71279 46/// /3408 10060 40225 52005 22200 00080 11606 70029 333 91209
AAXX 11060 44214 32998 01001 11136 21217 38325 40420 58010
AAXX 11060 44231 31996 00000 11152 21220 38784 40435 58011 70400
AAXX 11060 44259 32997 32103 11103 21145 39342 40281 58002 80004
AAXX 11060 44277 31999 20701 11073 21161 37827 40354 58009 70250 80004
AAXX 11060 44288 32999 01103 11050 21148 38201 40329 58004
AAXX 11060 44292 41/93 92602 11184 21203 38760 40410 58007 74774 89/// 555 96110
AAXX 11060 44304 32999 20000 11117 21161 39039 40327 58007 82040
AAXX 11060 44354 32999 00000 11099 21143 39155 40228 58003
AAXX 11060 44373 32999 02902 11042 21180 38578 40302 56005
AAXX 11061 78310 12504 60802 10232 20216 30156 40166 58002 60001 81250 333 10274 20220 30/// 56990 59019 81821 86360 92022
AAXX 11061 78315 12564 30601 10206 20197 30094 40159 58005 60001 82202 333 10277 20200 30/// 56909 59006 70011 82820
AAXX 11061 78318 11565 40903 10220 20210 30158 40162 58007 69951 70361 83240 333 10246 20215 33/// 56990 57882 59007 71210 83820
AAXX 11061 78322 12556 40000 10210 20203 30148 40165 58009 60001 82202 333 10254 20204 31/// 56900 59016 70780 82820
AAXX 11061 78324 12/00 50505 10240 20222 30140 40151 58007 60001 82206 333 10264 20231 30/// 56909 57832 59016 828// 85270
AAXX 11061 78325 NIL
AAXX 11061 78328 12/62 30905 10245 20214 30160 40/// 58010 60001 82101 333 10274 20231 30/// 56909 59010 70055 828//
AAXX 11061 78333 12910 10402 10215 20203 30152 40159 58004 60001 80002 333 10286 20210 31/// 56000 59005 70010 81070
AAXX 11061 78344 12950 10402 10211 20208 30105 40153 58009 69911 80002 333 10292 20211 31/// 56009 59009 70429 81070
AAXX 11061 78345 12965 10303 10221 20218 30152 40155 58007 60001 80002 333 10292 20189 30/// 56009 59003 81073
AAXX 11061 78348 11557 20504 10238 20208 30104 40156 58014 60001 70500 82200 333 10271 20225 30/// 56900 57813 59009 82822
AAXX 11061 78349 12550 13301 10214 20209 30054 40163 56009 60001 81201 333 10285 20206 31/// 56909 59011 70082 81820
AAXX 11061 78351 12550 30000 10204 20197 30140 40142 58007 60001 83500 333 10300 20197 30/// 56900 59007 83626
AAXX 11061 78353 11560 50901 10241 20216 30140 40162 58007 60027 70162 85800 333 10279 20234 31/// 56900
AAXX 11061 78355 12560 10202 10219 20206 30013 40148 58014 60001 81200 333 10275 20209 30/// 56900 59008 81820
AAXX 11061 78358 12530 50202 10236 20216 30129 40144 58007 60001 85800 333 10278 20230 31/// 56900 57822 58004 70062 82823 84629
AAXX 11061 78360 11560 30204 10227 20212 30127 40138 58009 60001 70390 83800 333 10301 20225 30/// 56900 59012 82820 92023
AAXX 11061 78363 12958 00000 10202 20193 30011 40125 58010 60001 333 10295 20186 30/// 56/// 59007
AAXX 11061 78365 12/50 30710 10260 20223 30142 40147 58012 60001 83800 333 10278 20234 31/// 56900 57855 59012 70078 828// 92045
AAXX 11061 78369 11464 50306 10256 20238 30122 40131 57013 69931 70181 85200 333 10287 20256 30/// 56900 57860 59010 70003 85818
AAXX 11064 42559 32996 00502 10218 20048 40146 333 58002
AAXX 11064 42571 31996 00000 10241 20059 40151 70500 333 58015
AAXX 11064 42667 32996 00903 10234 20057 39563 40149 333 58005
AAXX 11064 42675 31996 00504 10206 20063 40156 70500 333 58009
AAXX 11064 42754 32996 00905 10212 20013 39511 40149 333 58002
AAXX 11064 42779 32996 03601 10220 20105 39446 40144 333 58005
AAXX 11064 42867 31995 00706 10256 20125 40136 70500 333 59002
AAXX 11064 42933 32997 01802 10279 20121 40137 333 59004
AAXX 11064 43041 31996 01801 10270 20098 39521 40130 70500 333 59002
AAXX 11064 42874 NIL
BBXX 46132 11061 99497 71279 46/// /3408 10060 40225 52005 22200 00080 11606 70029 333 91209
BBXX 46205 11061 99542 71343 46/// /3308 10062 40247 52007 22200 00075 11406 70029 333 91210
AAXX 11064 88900 46/// /0420 10050 20046 30038 40041 58021
AAXX 11064 48409 32960 10208 10245 20129 39991 40140 57045 80001 333 58007
AAXX 11061 31825 42699 43204 11089 21175 39880 40093 55006 84500
AAXX 11061 31845 42599 62402 11083 21147 39985 40153 54000 83531
AAXX 11061 31878 42699 22703 11063 21138 30051 40178 57004 82500
AAXX 11061 31915 42599 82803 11036 21121 39905 40172 58011 84515
AAXX 11061 31921 42598 62302 11027 21127 30073 40173 58011 86900
AAXX 11061 31969 42597 73004 10005 21118 30139 40188 57016 82533
AAXX 11061 31981 42599 82402 11055 21131 39942 40182 56008 82201
AAXX 11061 31987 42699 13103 11042 21150 39921 40185 56008 81500
AAXX 11061 32069 41598 63106 11103 21147 30057 40062 53003 70283 86900 333 91007 91111
AAXX 11064 41184 42960 01904 10229 20093 40188 333 20096 59014
AAXX 11064 41194 12960 01705 10210 20115 30194 40199 60001 333 20161 59011
AAXX 11064 41196 42960 01603 10216 20112 30161 40201 333 20093 30008 59011
AAXX 11064 41198 42960 00305 10241 20050 40189 333 20159 59020
AAXX 11064 41217 41559 13006 10226 20153 30166 40195 70500 81500 333 20157 30013 59008 81630
AAXX 11064 41218 42960 03407 10199 20107 39891 40200 333 20122 30012 59004
AAXX 11061 30499 42999 80203 11193 21261 39514 40210 52017 80008
AAXX 11061 30683 42699 80202 11122 21184 39522 40190 52012 81404
AAXX 11061 30695 42999 63203 11166 21216 39831 40184 51008 82049
AAXX 11061 31253 41999 80000 11273 21305 39667 40166 52008 70271 80006
AAXX 11061 31295 41999 23410 11162 21242 39687 40163 52006 73630 80001 333 91012 91112
AAXX 11061 31348 42999 80000 11209 21228 39898 40105 53004 80007
AAXX 11061 31418 42999 30000 11211 21236 39835 40106 52002 80009
AAXX 11061 31439 42999 20000 11204 21229 30039 40086 53001 82040
AAXX 11061 31442 42999 13402 11147 21228 39770 40139 52005 80001
AAXX 11061 31445 42999 03303 11121 21216 39867 40128 52004
AAXX 11061 31474 42998 33601 11208 21257 39629 40142 57007 80002
AAXX 11061 31521 32978 22901 11132 21175 39830 40131 52001 80001
AAXX 11061 31527 42998 52703 11112 21174 39824 40134 53002 83031
AAXX 11061 31534 41599 52501 11143 21163 39772 40129 57008 70272 85500
AAXX 11061 31587 42998 22902 11100 21163 39999 40149 53001 80001
AAXX 11061 31632 NIL
AAXX 11061 31702 41998 83502 11107 21180 39795 40141 58010 70271 80001
AAXX 11061 31713 42999 02705 11079 21146 30020 40121 57003
AAXX 11061 31725 42998 02504 11091 21159 30056 40125 58002
AAXX 11061 31801 41597 62001 11113 21141 39898 40132 53003 78582 86900
AAXX 11061 30455 41698 83404 11119 21191 38900 48449 51002 71522 86932
AAXX 11061 30731 42599 63003 11054 21119 39686 40308 58004 84942
AAXX 11061 30739 41699 42706 11072 21136 39461 40299 58005 73632 84900
AAXX 11061 30741 42598 63106 11122 21149 38716 48499 52001 86500
AAXX 11061 30745 42699 22505 11098 21145 39096 40277 54000 82202
AAXX 11061 30764 42999 13003 11070 21201 39416 40225 52002 80001
AAXX 11061 30829 42999 42303 11066 21132 39633 40340 58008 80009
AAXX 11061 30838 41598 62403 11091 21130 39319 40333 58003 70282 84942
AAXX 11061 30846 42699 22806 11068 21147 39345 40271 51002 82100
AAXX 11061 30859 42999 03104 11072 21160 39390 40241 58006
AAXX 11061 30862 42999 12704 11081 21162 39469 40221 53012 80001
AAXX 11061 30957 42699 23105 11063 21157 39356 40267 58004 82200
AAXX 11061 30975 42899 61602 11193 21226 39555 40245 58003 82043
AAXX 11064 89020 46/// /2103 11126 21171 39766 49802 52012 90530
BBXX DFRZ 11063 99278 70454 41598 50922 10230 20201 40270 57010 70322 85555 22254 00230 21004 80210
BBXX ZCDF4 11063 99099 70788 41597 21015 10270 20256 40092 5/100 79199 82800 22265 00250 20204 3//// 4//// 5//// 80260
BBXX ZCDP8 11063 99172 70642 41398 40720 10270 20210 40123 54000 70211 846// 22224 00270 20302 307// 40303 5//// 80230
BBXX PENR 11063 99253 70652 41597 30620 10260 20207 40155 57007 70100 81145 22214 20502 306// 41004 80225
BBXX GDTT 11064 99264 70762 41597 61116 10240 20240 40197 58/// 7//11 862// 22273 00300 20203 305// 40203 80240
BBXX DIHE 11064 99148 70769 41597 30520 10275 20219 40110 55005 70322 83121 22214 00290 2//// 80235
BBXX 41036 11061 99342 70770 46/// ///// 10109 20050 40291 90620 22200 00197
BBXX 44062 11061 99386 70764 46/// /0207 1//// 90620 22200 00098 333 91209
BBXX 44062 11061 99386 70764 46/// /0107 1//// 40317 90610 22200 00098 333 91208
BBXX 44062 11061 99386 70764 46/// /0106 10032 40316 51006 90600 22200 00098 10301 70006 333 91209
BBXX 44063 11061 99390 70764 46/// /0104 1//// 90620 333 91205
BBXX 44063 11061 99390 70764 46/// /0104 1//// 40354 90610 333 91205
BBXX 44063 11061 99390 70764 46/// /0104 10012 40354 51013 90600 22200 00082 1//00 70001 333 91205
BBXX 44041 11061 99372 70768 46/// /0202 1//// 90620 333 91204
BBXX 44041 11061 99372 70768 46/// /0102 1//// 40354 90610 333 91203
BBXX 44041 11061 99372 70768 46/// /3602 10029 40354 51011 90600 22200 00109 1//00 70000 333 91204
BBXX 44042 11061 99380 70763 46/// /3505 1//// 90620 333 91206
BBXX 44042 11061 99380 70763 46/// /3605 1//// 40338 90610 333 91206
BBXX 44042 11061 99380 70763 46/// /3505 10038 40337 51011 90600 22200 00100 10301 70003 333 91207
BBXX 44043 11061 99392 70764 46/// /3607 1//// 90620 333 91208
BBXX 44043 11061 99392 70764 46/// /0107 1//// 40339 90610 333 91209
BBXX 44043 11061 99392 70764 46/// /3608 10025 40339 51011 90600 22200 00080 10301 70004 333 91209
BBXX 41010 11061 99289 70785 46/// /0707 10231 40216 90620 22200 00240 10503 20503 300// 40901 70015 333 91209 555 11079 22083
BBXX 41009 11061 99285 70802 46/// /0707 10244 20169 40213 90620 22200 00244 10603 20503 300// 40602 70017 333 91207 555 11069 22074
BBXX A8SI9 11064 99493 11560 41397 82525 11010 2101/ 49990 51020 77022 887// 22254 00038 20504 326// 40907 81010
BBXX MCCW7 11064 99059 10831 41398 73609 10286 20248 40093 52038 70222 8727/ 22263 00280 29901 301// 40702 5//// 80259
BBXX MGSM3 11064 99018 31424 41498 42811 10310 20263 40034 70121 84490 22233 04290 20200 30808 41001 51001 80263
BBXX MLJA8 11064 99021 31089 41697 70625 10290 20232 40118 54000 70311 84378 22263 00310 2//// 300// 40000 5//// 80250
BBXX A8CJ2 11064 99245 50713 41598 72114 10190 20182 40160 52010 70222 85670 22244 04230 20501 327// 41204 5//// 80185
BBXX 62141 11063 99493 50590 41998 02827 10100 20084 40038 52028 70200 80000 22200 20705 3//// 4//// 5//// 80092
BBXX VQHO7 11064 99160 50366 41398 80426 10262 20221 40062 57010 70222 887// 22284 00270 2//// 3//// 4//// 5//// 80234
BBXX A8CF2 11061 99045 70802 41/97 /1811 10257 40100 53050 76062 8//// 22244 29904
BBXX AMOUK01 11064 99339 30184 46/// ///// 10175 20140 30147 40151 54002 90550
BBXX AMOUK15 11064 99159 50057 46/// ///// 10193 20154 30129 40161 57004 90550
BBXX AMOUK17 11064 99327 30573 46/// ///// 10216 20194 30154 40165 52004 90550
BBXX AMOUK20 11064 99047 70301 46/// ///// 10267 20237 30102 40131 57019 90550
BBXX A8QL5 11061 99007 70287 41/97 51407 10245 20224 40100 52/// 70000 8//// 22254 04280 299// 80230
BBXX ZSAF 11064 99413 30089 41599 73213 10128 20092 40217 57016 70311 8355/ 22253 04137 2//// 328// 40503 5////
AAXX 11064 68183 11462 82203 10197 20167 39445 48530 52006 60034 72122 8457/ 333 20184 91004 555 10198 20034 91016
AAXX 11064 68188 36/// /1802 10180 20167 39206 48527 52010 333 20171 91005 555 10198 91017
AAXX 11064 68268 16/// /0303 10202 20168 38891 48531 52008 69924 333 20182 91006 555 10241 20002 91019
AAXX 11064 68272 16/// /3604 10206 20180 39077 48522 52008 60014 333 20184 91008 555 10254 20014 91017
AAXX 11064 68296 11570 80000 10231 20204 39818 48538 52001 60014 75022 886// 333 20216 91004 555 10300 20012 91012
AAXX 11064 68322 36/// /1908 10197 20008 39149 48519 52013 333 20150 91013 555 10362 91016
AAXX 11064 68338 11778 53206 10166 20131 38769 48499 52010 60274 70266 85080 333 20121 91008 555 10252 20272 91017
AAXX 11064 68345 16/// /0107 10181 20130 38662 48504 53007 60224 333 20126 91010 555 10210 20220 91018
AAXX 11064 68362 32680 73506 10186 20105 38492 48494 52005 82150 333 20122 91009 555 10250 91017
AAXX 11064 68400 NIL
AAXX 11064 68408 32980 02103 10140 20106 30170 40178 52007 333 20092 91005 555 10183 91017
AAXX 11064 68416 32984 01909 10120 20016 39049 48509 52006 333 20071 91014 555 10292 91017
AAXX 11064 68478 12580 50000 10182 20145 38848 48488 50000 60224 85500 333 20140 91003 555 10246 20220 91015
AAXX 11064 68488 NIL
AAXX 11064 68494 16/// /1702 10240 20198 39976 40105 54000 60344 333 2//// 91003 555 10276 20346 91010
AAXX 11064 68524 32986 02406 10152 20007 39057 48502 52010 333 20096 91011 555 10320 91016
AAXX 11064 68546 16/// /0108 10159 20115 38636 48481 53003 60274 333 20102 91013 555 10252 20276 91015
AAXX 11064 68558 16/// /3412 10150 20085 38164 48479 57001 60154 333 20071 91018 555 10212 20150 91017
AAXX 11064 68570 NIL
AAXX 11064 68580 NIL
AAXX 11064 68614 32580 63604 10184 20113 30127 40168 52008 86500 333 20115 91006 555 10249 91016
AAXX 11064 68624 32982 02203 10135 20018 38729 48497 53003 333 20086 91008 555 10284 91017
AAXX 11064 68674 NIL
AAXX 11064 68712 36/// /2005 10175 20132 30094 40159 52008 333 20133 91007 555 10190 91016
AAXX 11064 68718 32089 82807 10181 20087 39881 40126 52005 886// 333 20160 91014 555 10273 91013
AAXX 11064 68722 36/// /2306 10107 20023 38535 48492 52007 333 20020 91015 555 10228 91017
AAXX 11064 68814 36/// /2208 10164 20137 30152 40160 53006 333 20148 91010 555 10207 91016
AAXX 11064 68832 32570 32107 10142 20053 39161 48476 52005 83500 333 20096 91014 555 10286 91013
AAXX 11064 68916 11368 61914 10157 20147 39878 40147 53008 60014 72166 86500 333 20137 91021 555 10188 20010 69945 91014
AAXX 11064 68920 12470 52210 10189 20118 30107 40120 52009 60014 85500 333 20147 91017 555 10216 20016 91012
AAXX 11064 68928 16/// /3008 10195 20123 39953 40112 53005 60014 333 20157 91015 555 10233 20014 91011
AAXX 11064 68155 16/// /1102 10199 20187 39194 48519 52011 60024 333 20194 91004 555 10212 20020 91016
AAXX 11064 68171 NIL
AAXX 11064 68176 16/// /0702 10181 20164 39138 48517 52010 60054 333 20172 91004 555 10216 20056 91016
AAXX 11064 68181 NIL
AAXX 11064 68182 16/// /0000 10193 20176 39348 48530 52007 60034 333 20177 91003 555 10197 20034 91017
AAXX 11064 68185 16/// /3606 10156 20144 38466 48399 54000 60044 333 20154 91009 555 10205 20048 69925 91006
AAXX 11064 68253 NIL
AAXX 11064 68255 36/// /3405 10196 20147 38857 48504 53009 333 20181 91009 555 10219 91016
AAXX 11064 68271 16/// /2902 10175 20162 38915 48515 52010 60014 333 20171 91005 555 10235 20014 91018
AAXX 11064 68273 36/// /0106 10162 20158 38456 48511 53008 333 20155 91009 555 10230 91019
AAXX 11064 68287 16/// /0104 10151 20139 38575 48510 52008 69984 333 20136 91007 555 10167 20008 91019
AAXX 11064 68291 16/// /3003 10204 20189 39538 48529 52005 60034 333 20189 91005 555 10264 20030 91015
AAXX 11064 68297 NIL
AAXX 11064 68329 NIL
AAXX 11064 68331 36/// /3404 10167 20150 38830 48510 53002 333 20122 91006 555 10250 91018
AAXX 11064 68335 16/// /3210 10185 20142 38926 48531 53012 60144 333 20143 91014 555 10263 20140 91019
AAXX 11064 68341 16/// /3610 10171 20140 38529 48513 53011 60024 333 20129 91017 555 10183 20028 91019
AAXX 11064 68342 NIL
AAXX 11064 68343 16/// /0204 10173 20138 38777 48498 53008 60454 333 20128 91008 555 10225 20454 91016
AAXX 11064 68349 16/// /3509 10204 20134 38498 48491 53008 60034 333 20139 91014 555 10211 20036 91017
AAXX 11064 68353 36/// /0108 10185 20134 38507 48486 53001 333 20138 91011 555 10221 91016
AAXX 11064 68355 16/// /0207 10178 20129 38567 48500 52007 60164 333 20134 91010 555 10237 20164 91018
AAXX 11064 68370 NIL
AAXX 11064 68377 16/// /3604 10216 20155 38736 48478 58001 69984 333 20162 91007 555 10285 20008 91014
AAXX 11064 68380 36/// /3304 10165 20140 3//// 4//// 5//// 333 20147 91007 555 10232
AAXX 11064 68387 16/// /0506 10220 20180 38830 48493 51002 60284 333 20165 91018 555 10250 20280 91015
AAXX 11064 68411 36/// /1103 10196 20046 39975 40184 52007 333 20169 91006 555 10415 91018
AAXX 11064 68429 NIL
AAXX 11064 68449 16/// /0000 10171 20112 38380 48493 53007 60244 333 20114 91003 555 10184 20242 91018
AAXX 11064 68471 16/// /3307 10164 20111 38300 48478 53006 60044 333 20121 91013 555 10228 20046 91016
AAXX 11064 68474 11980 00000 10165 20115 38598 48489 52002 60144 70266 333 20104 91002 555 10245 20142 91016
AAXX 11064 68479 16/// /0903 10187 20157 38928 48491 53003 60134 333 20155 91004 555 10267 20130 91014
AAXX 11064 68481 NIL
AAXX 11064 68487 16/// /0402 10179 20148 38968 48488 53001 60254 333 20138 91004 555 10245 20254 91014
AAXX 11064 68491 NIL
AAXX 11064 68497 16/// /2202 10244 20203 30056 40099 57005 60294 333 20194 91005 555 10262 20298 91010
BBXX 46092 11061 99368 71220 46/// /2506 10103 40176 54000 90557 22200 00120 555 11067 22067
BBXX 42085 11061 99179 70665 46/// ///// 1//// 90600 22200 00283 10702 70008
BBXX 44061 11061 99388 70770 46/// /0204 1//// 90620 333 91205
BBXX 44061 11061 99388 70770 46/// /0104 1//// 40344 90610 333 91205
BBXX 44061 11061 99388 70770 46/// /0104 10018 40343 51009 90600 22200 00072 333 91205
BBXX 44059 11061 99368 70763 46/// /0604 1//// 90620 333 91205
BBXX 44059 11061 99368 70763 46/// /0604 1//// 40318 90610 333 91206
BBXX 44059 11061 99368 70763 46/// /0504 10062 40316 51008 90600 22200 00115 333 91206
BBXX 44057 11061 99395 70761 46/// /3503 1//// 90620 333 91204
BBXX 44057 11061 99395 70761 46/// /3603 1//// 40342 90610 333 91204
BBXX 44057 11061 99395 70761 46/// /3403 10008 40342 51012 90600 22200 00068 333 91204
BBXX 44058 11061 99376 70763 46/// /0408 1//// 90620 333 91210
BBXX 44058 11061 99376 70763 46/// /0308 1//// 40327 90610 333 91210
BBXX 44058 11061 99376 70763 46/// /0307 10057 40327 51007 90600 22200 00107 10301 70006 333 91210
BBXX 44040 11061 99410 70736 46/// /3105 10012 21084 40338 90615 22200 1//00 70001 333 91207 555 11057 22062
AAXX 11060 44203 41595 80000 11203 21222 38471 40451 58006 77177 8852/
AAXX 11060 44207 32999 01804 11165 21199 38354 40380 58010
AAXX 11060 44212 31596 70000 11146 21173 39250 40464 58003 71022 8371/
AAXX 11060 44213 41699 30601 11161 21185 38878 40458 57015 70172 83500
AAXX 11060 44215 31996 70000 11176 21195 38483 40448 56001 71044 87010
AAXX 11060 44218 32998 20101 11137 21180 38674 40408 58012 80009
AAXX 11060 44225 41997 73603 11213 21225 38336 40490 58007 70272 87010 555 81016 82018
AAXX 11060 44230 32998 00000 11123 21163 38849 40404 58012
AAXX 11060 44232 32999 00000 11193 21214 39181 40411 57013
AAXX 11060 44237 32999 00000 11149 21191 38527 40376 58007
AAXX 11060 44239 32999 00000 11150 21192 38851 40366 58014
AAXX 11060 44241 32999 51802 11189 21225 39332 40400 58013 85030
AAXX 11060 44256 31999 13210 11075 21124 39366 40251 50002 73631 81040
AAXX 11060 44265 32999 30000 11067 21145 38896 40349 58010 82044
AAXX 11060 44272 32998 03404 11214 21254 38266 40440 57005
AAXX 11060 44275 32998 00000 11160 21194 37748 40384 58013
AAXX 11060 44282 32999 01102 11062 21167 38325 40298 58014
AAXX 11060 44284 32999 01401 11186 21212 37891 40432 57007
AAXX 11060 44285 32999 01702 11125 21174 38360 40377 58011
AAXX 11060 44287 32999 00605 11080 21173 38151 40355 58008
AAXX 11060 44294 32998 00103 11122 21146 38607 40378 57005
AAXX 11060 44298 32999 03603 11140 21140 38757 40352 58007
AAXX 11060 44302 32999 32906 11080 21154 39145 40289 58013 80009
AAXX 11060 44305 32999 03203 11067 21142 39084 40271 58003
AAXX 11060 44313 31999 30000 11099 21158 39390 40260 52009 70141 83040
AAXX 11060 44314 41998 52903 11072 21130 39170 40290 52003 70272 85080
AAXX 11060 44317 32998 73204 11075 21115 38963 40284 57004 87050
AAXX 11060 44336 32999 00000 11137 21164 38745 40376 54000
AAXX 11060 44341 32999 00000 11071 21127 38647 40339 56005
AAXX 11060 44347 32999 02704 11066 21143 38756 40324 58013
AAXX 11060 44352 32999 00000 11077 21117 38957 40301 51004
AAXX 11060 44358 32998 03205 11076 21106 39136 40332 58003
BBXX PEBT 11063 99363 10218 41497 62116 10180 20163 40250 54000 76061 8466/ 22263 02162 20402 321// 40602 5//// 80169
BBXX 46181 11061 99538 71288 46/// /2303 10026 40227 52012 22200 00039 10300 70000 333 91204
BBXX 46181 11061 99538 71288 46/// /2303 10026 40227 52012 22200 00039 10300 70000 333 91204
AAXX 11064 68171 NIL
AAXX 11064 68181 NIL
AAXX 11064 68253 NIL
AAXX 11064 68297 NIL
AAXX 11064 68329 NIL
AAXX 11064 68342 NIL
AAXX 11064 68370 NIL
AAXX 11064 68429 NIL
AAXX 11064 68481 NIL
AAXX 11064 68491 NIL
BBXX 46184 11061 99539 71389 46/// /2404 10050 40268 57004 22200 00067 11205 70026 333 91206
AAXX 11064 91723 NIL
AAXX 11064 91759 NIL
AAXX 11064 91762 NIL
BBXX 46232 11061 99325 71174 46/// ///// 1//// 90608 22200 00145 11802 20501 323// 41802 70011
BBXX 46247 11061 99378 71228 46/// ///// 1//// 90621 22200 00116 11703 20801 329// 41703 70017
BBXX 46248 11061 99461 71247 46/// ///// 1//// 90604 22200 00088 11704 21001 329// 41704 70021
BBXX 46229 11061 99438 71246 46/// ///// 1//// 90621 22200 00104 11405 21002 329// 41404 70023
BBXX 46225 11061 99329 71174 46/// ///// 1//// 90614 22200 00158 11802 21001 326// 41802 70010
BBXX 46213 11061 99403 71247 46/// ///// 1//// 90624 22200 00106 11704 21001 329// 41704 70020
BBXX 46215 11061 99352 71209 46/// ///// 1//// 90608 22200 00158 11703 20801 325// 41702 70013
BBXX 44039 11061 99411 70727 46/// /3209 10016 21083 40337 90553 22200 00107 10301 70005 333 91212
AAXX 11064 78988 02484 31205 10254 20235 30089 40100 57006 60001 83200 333 59006 60007 83817
AAXX 11064 78990 01/// /0000 10260 20234 30100 57007 60001 70000 333 59003 60007
AAXX 11064 42634 32996 00703 10242 20064 40156 333 59001
AAXX 11064 42647 32996 00905 10246 20047 40161 333 58001
AAXX 11064 42737 32996 00710 10252 20018 40155 333 59006
AAXX 11064 42840 32996 03603 10256 20146 40148 333 59005
AAXX 11064 42909 32997 01803 10250 20054 40159 222// 20000 333 58010
AAXX 11064 42921 32996 00504 10254 20111 40162 333 59012
AAXX 11064 43003 31995 03403 10292 20148 40127 70400 333 59003
AAXX 11064 43014 31996 01606 10270 20112 39483 40121 70542 333 59011
AAXX 11064 43063 32996 00000 10270 20112 39507 40121 333 59008
AAXX 11064 43110 31996 00902 10334 20151 40115 70540 333 59006
AAXX 11064 43117 32997 00502 10294 20172 40115 333 59010
AAXX 11064 43192 NIL
BBXX 46184 11061 99539 71389 46/// /2404 10050 40268 57004 22200 00067 11205 70026 333 91206
AAXX 11061 31913 NIL
AAXX 11061 32128 41597 73207 11060 21091 30028 40081 53001 78583 87300 333 91012 91113
AAXX 11061 24856 41999 82302 11340 21368 30038 40213 58002 70232 80001
AAXX 11061 30679 NIL
AAXX 11061 30686 41999 60000 11167 21217 39813 40205 52004 70271 82031
AAXX 11061 30961 42999 03205 11084 21148 39436 40241 51001
AAXX 11061 30971 42999 02602 11106 21159 39207 40216 58004
AAXX 11061 30978 42999 63601 11127 21170 39521 40228 53001 80009
AAXX 11061 31513 42999 03403 11107 21170 39899 40131 53005
AAXX 11061 31624 NIL
AAXX 11061 31832 42598 12501 11068 21130 30067 40155 58001 81500
AAXX 11064 78988 02484 31205 10254 20235 30089 40100 57006 60001 83200 333 59006 60007 83817
AAXX 11064 78990 01/// /0000 10260 20234 30100 57007 60001 70000 333 59003 60007
AAXX 11064 68674 NIL
AAXX 11064 78988 02484 31205 10254 20235 30089 40100 57006 60001 83200 333 59006 60007 83817
AAXX 11064 78990 01/// /0000 10260 20234 30100 57007 60001 70000 333 59003 60007
BBXX KS094 11064 99170 70618 43/// /0406 10254 40117 22200 06269
BBXX KS088 11064 99267 70801 43/// /1415 10242 40189 22200 06242
BBXX 9HA2064 11063 99369 71512 41797 51810 10150 20116 40290 54000 7//11 85131 22224 0//// 2//// 399// 4//// 5//// 6//// 80130 ICE /////
BBXX DDJS2 11064 99422 71663 41296 62634 10123 20064 40051 52070 70522 84618 22224 00130 20708 323// 40506 5//// 80095
BBXX DQVJ 11061 99522 71734 41/97 /0619 10035 21001 49890 51010 78711 8//// 22221 00056 20905 399// 4//// 5//// 80020
AAXX 11061 56671 32675 81402 10069 20012 38230 57026 8117/ 333 05404 20026
AAXX 11061 57378 32962 01802 10089 21021 40303 57033 333 20005
AAXX 11061 57426 32766 80201 10075 21009 40294 57031 885// 333 05652 21003
AAXX 11061 57476 32965 72202 10089 21027 40298 57036 8703/ 333 21011
AAXX 11061 57584 32970 00702 10095 21076 40301 57037 333 20019
AAXX 11061 57598 32970 03401 10112 21071 40295 57040 333 21032
AAXX 11061 57655 32966 71601 10107 21017 40290 57041 8703/ 333 20003
AAXX 11061 57713 NIL
AAXX 11061 57776 32975 03203 10000 21044 40312 57028 333 21065
AAXX 11061 58321 32961 01602 10076 21069 40310 57031 333 21039
AAXX 11061 58437 32980 02502 10012 21153 38185 57017 333 21115
AAXX 11061 58445 NIL
AAXX 11061 58556 32962 00903 10074 21067 40297 57033 333 21023
AAXX 11061 58569 32961 00203 10082 21022 40291 57024 333 20016
AAXX 11061 58646 32965 00000 10101 21080 40284 57037 333 20000
AAXX 11061 58653 NIL
AAXX 11061 58660 NIL
AAXX 11061 58715 32980 03204 10091 21071 40287 57034 333 20001
AAXX 11061 58730 32980 01601 10117 21049 40272 57034 333 21001
AAXX 11061 58731 32970 02902 10109 21047 40273 57034 333 21011
AAXX 11061 58754 32975 70202 10110 21073 40272 57031 8703/ 333 20064
AAXX 11061 58911 32980 02904 10121 21045 40262 57036 333 21012
AAXX 11061 58931 32980 00904 10061 21011 38376 57015 333 21047
AAXX 11061 59254 32970 00901 10157 21018 40242 57045 333 20052
AAXX 11061 59632 32976 03403 10166 21040 40230 57046 333 20084
AAXX 11061 59855 32580 23602 10195 20079 40206 57038 82100 333 20108
AAXX 11061 34110 11496 82504 10028 20025 39835 40112 57014 60092 76162 8872/ 333 20007 88710
BBXX 46004 11061 99509 71361 46/// /3206 10060 40293 52012 22200 00078 11406 70032 333 91209
BBXX 46004 11061 99509 71361 46/// /3206 10060 40293 52012 22200 00078 11406 70032 333 91209
AAXX 11064 61091 31901 70000 10165 20054 39708 40168 7064/ 80008 333 01200 20158 50647 50674 59004 87280
AAXX 11064 43086 32997 00000 10290 20141 39952 40128 333 59009
AAXX 11064 43128 32997 01406 10286 20194 39527 40123 333 59004
AAXX 11064 43150 31596 20503 10290 20232 30060 40134 70510 82500 333 58003 82620
AAXX 11064 43185 31596 40504 10310 20229 30123 40126 70542 84800 333 59003 82620 83825
AAXX 11064 43189 32597 40702 10314 20233 30127 40136 82801 333 58000
AAXX 11064 43198 32496 10905 10286 20166 39298 40105 81500 333 56200 59005 81615
AAXX 11064 43201 32497 50903 10282 20222 39399 40104 85800 333 59005 82615 83820
AAXX 11064 43213 32597 30902 10310 20187 39808 40119 82802 333 56209 59008
AAXX 11064 43226 32497 21401 10334 20209 30086 40115 82500 333 59004
AAXX 11064 43233 32597 40903 10280 20180 39317 40112 84800 333 56200 58000
AAXX 11064 43237 32597 40905 10304 20187 39734 40119 84800 333 59001 82620 83825
AAXX 11064 43245 32597 70204 10304 20244 30105 40132 85432 333 58003
AAXX 11064 43279 32597 50904 10302 20226 30105 40123 85800 333 56200 59006 82620 83825
AAXX 11064 43284 31996 10910 10326 20214 39988 40101 70144 81030 333 59004 81359
AAXX 11064 43295 31496 70902 10258 20146 39115 48530 70522 84531 333 58003 84615 85358
AAXX 11064 43311 32597 40504 10326 20247 40100 83401 333 59012 82620 83075
AAXX 11064 43314 32597 12502 10324 20260 40109 81400 333 59003
AAXX 11064 43321 32496 30503 10290 20199 39683 40124 83500 333 59001
AAXX 11064 43329 32597 20202 10304 20235 30108 40121 82400 333 58002
AAXX 11064 43344 31496 60709 10294 20245 30024 40123 70522 85831 333 58001 82710 83615 85075
AAXX 11064 43346 21497 60508 10290 20256 30106 40113 70262 84502 333 59002 6992/ 84615 86075
AAXX 11064 43353 32996 00904 10322 20209 40108 333 58000
AAXX 11064 43369 32597 30906 10314 20255 40101 83500 333 59007 83620
AAXX 11064 43371 32597 60000 10306 20252 30027 40099 83470 333 58001 83620 85460
AAXX 11064 71067 16/// ///// 11038 21082 60001 333 10024 21101 70000
AAXX 11064 71673 16/// ///// 11037 21079 60001 333 10040 21112 70000
AAXX 11064 71690 16/// ///// 11039 21053 60001 333 10028 21039 70000
AAXX 11064 71441 46/// /1705 11083 21107 39761 40072 56016 6///1 333 10005 21110 7////
AAXX 11064 71283 17/// /0204 11067 21079 69951 7//4/ 333 10012 21072 70005 555 32722 40181
AAXX 11064 71632 46/// /0502 11172 21192 39674 40129 55000 6///1 333 11151 21258 7////
AAXX 11064 71332 16/// /0000 11269 21298 30095 40126 58004 60001 333 11204 21290 70000
AAXX 11064 71500 16/// /2808 11027 21059 60001 333 10046 21042 70000 555 33126 40191
AAXX 11064 71504 16/// ///// 11033 21075 60001 333 10037 21095 70000
AAXX 11064 71541 17/// /3609 11083 21095 69941 7//4/ 333 10008 21083 70004 555 32828 40202
AAXX 11064 71543 17/// /3406 11018 21031 69941 7//4/ 333 10022 21059 70004 555 32322 40141
AAXX 11064 71546 17/// /0404 11046 21059 69961 7//4/ 333 10026 21046 70006 555 32929 40202
AAXX 11064 71547 17/// /0303 11070 21082 60011 7//4/ 333 10023 21070 70016 555 32520 40151
AAXX 11064 71011 16/// ///// 11019 21071 60001 333 10063 21056 70000
AAXX 11064 71221 16/// /0302 11052 21061 60001 333 10029 21053 70000 555 32823 40171
AAXX 11064 71226 16/// /3105 11032 21042 60001 333 10043 21032 70000 555 32829 40222
AAXX 11064 71229 46/// /0402 11133 21145 6///1 333 10001 21133 7////
AAXX 11064 71461 17/// /3603 11062 21077 69961 7//4/ 333 10023 21062 70006 555 32927 40211
AAXX 11064 71468 16/// /2205 11060 21092 39847 40177 55009 60001 333 21129 70000 555 32723 40071
AAXX 11064 71483 16/// ///// 11056 21076 60001 333 10044 21064 70000
AAXX 11064 71888 16/// ///// 11042 21072 60001 333 10004 21091 70000
AAXX 11064 71895 16/// ///// 11034 21073 60001 333 10049 21122 7////
AAXX 11064 71077 17/// /0109 11086 21099 39567 40116 53028 60011 7//4/ 333 11074 21130 70040 555 10070 20040
AAXX 11064 71758 17/// /3208 11001 21017 30109 40187 51023 60011 7//4/ 333 10066 21001 70011 555 31827 40191
AAXX 11064 71788 16/// /2803 11042 21062 60001 333 10092 21054 70000 555 32435 40123
AAXX 11064 71792 17/// ///// 11052 21076 69941 7//4/ 333 10050 21096 70016
AAXX 11064 71359 16/// /2907 11037 21065 60001 333 11016 21069 70000
AAXX 11064 71405 16/// ///// 11042 21072 60001 333 10042 21119 70000
AAXX 11064 71417 17/// /3018 11078 21094 30099 40134 53021 60021 7//4/ 333 10015 21078 70052 555 33027 40041
AAXX 11064 71448 16/// /1303 11089 21109 39747 40082 58032 60001 333 11053 21139 70000
AAXX 11064 71441 46/// /1705 11083 21107 39761 40072 56016 6///1 333 10005 21110 7////
AAXX 11064 71077 17/// /0109 11086 21099 39567 40116 53028 60011 7//4/ 333 11074 21130 70040 555 10070 20040
AAXX 11064 61091 31901 70000 10165 20054 39708 40168 7064/ 80008 333 01200 20158 50647 50674 59004 87280
BBXX 46146 11061 99493 71237 46/// /3106 10046 40210 54000 22200 00062 10200 70002 333 91207
AAXX 11061 56144 32680 61801 10079 21090 36823 57032 84402 333 05105 21019
AAXX 11061 56152 11680 70000 10002 21069 36277 57019 69981 70070 82102 333 05101 21098
AAXX 11061 56167 11580 72704 10067 21059 37046 57038 69901 78500 879// 333 05201 21026
AAXX 11061 56182 32680 73201 10039 21091 37174 57041 84102 333 05401 21085
AAXX 11061 56357 32680 72503 10029 21134 36421 57024 87900 333 05151 21074
AAXX 11061 56586 31457 83401 10002 21025 38071 57023 71000 885// 333 05601 21015
AAXX 11061 56748 11580 42505 10166 20083 38341 57029 69931 78080 84900 333 05252 20065
AAXX 11061 56763 32678 70401 10136 20045 40197 57039 86402 333 05303 20074
AAXX 11061 56768 11680 81601 10053 20040 38206 57022 69931 78080 884// 333 05201 20034
AAXX 11061 56838 31672 42502 10195 20137 40138 57027 70040 83260 333 05152 20123
AAXX 11061 56886 31758 82701 10056 20024 38325 57025 71000 885// 333 05402 20012
AAXX 11061 56946 11568 32001 10195 20152 40142 57030 69941 72580 83400 333 00054 20103
AAXX 11061 56959 11775 82702 10162 20131 40191 57025 69941 70080 884// 333 00253 20141
AAXX 11061 56969 32780 80201 10146 20112 40207 57021 885// 333 00152 20132
AAXX 11061 57731 32768 72501 10082 20004 40286 57032 875// 333 05701 20038
AAXX 11061 57766 32962 12002 10102 21058 40292 57040 81040 333 21003
AAXX 11061 57845 32970 73402 10099 21064 40282 57033 87040 333 21013
AAXX 11061 57853 32963 10201 10096 21059 40291 57041 81040 333 21003
AAXX 11061 57916 32675 70901 10129 21004 40256 57041 878// 333 05500 20047
AAXX 11061 57922 32680 73201 10070 21033 40275 57029 875// 333 05501 21003
AAXX 11061 57932 32677 81101 10100 21033 40280 57043 885// 333 05552 20013
AAXX 11061 58338 32964 02701 10074 21090 40301 57034 333 21022
AAXX 11061 59007 32669 72901 10094 21002 40238 57034 875// 333 20031
AAXX 11061 59046 32968 00701 10139 21043 40256 57042 333 20058
AAXX 11061 59058 32975 02903 10142 21050 40245 57047 333 20046
AAXX 11061 59072 32970 00404 10129 21066 40254 57054 333 21004
AAXX 11061 59087 32970 00905 10138 21081 40238 57042 333 20048
AAXX 11061 59209 32778 13602 10142 20024 40231 57039 81500 333 20042
BBXX 46146 11061 99493 71237 46/// /3106 10046 40210 54000 22200 00062 10200 70002 333 91207
AAXX 1106/ 89828 46/// ///// 11179 36428 4//// 5//// 90620
AAXX 11061 80001 01470 70407 10254 20229 30112 40113 60011 72055 81276 333 56110 59007 69947 81814 87358
AAXX 11061 80002 NIL
AAXX 11061 80009 NIL
AAXX 11061 80022 31462 71602 10266 20248 30088 40090 70522 86572 333 56399 59001 86612
AAXX 11061 80028 NIL
AAXX 11061 80035 NIL
AAXX 11061 80036 NIL
AAXX 11061 80063 NIL
AAXX 11061 80084 NIL
AAXX 11061 80091 NIL
AAXX 11061 80094 NIL
AAXX 11061 80097 NIL
AAXX 11061 80099 NIL
AAXX 11061 80110 NIL
AAXX 11061 80112 31358 80503 10151 20138 37901 70522 8457/ 333 56009 58001 84608 86358
AAXX 11061 80139 NIL
AAXX 11061 80144 NIL
AAXX 11061 80149 NIL
AAXX 11061 80210 NIL
AAXX 11061 80211 NIL
AAXX 11061 80214 NIL
AAXX 11061 80222 41440 33002 10113 20107 37510 71060 83800 333 569// 59006 83817
AAXX 11061 80234 NIL
AAXX 11061 80241 NIL
AAXX 11061 80259 31560 70000 10200 20189 39051 70522 82830 333 5633/ 58003 82820 86358
AAXX 11061 80315 NIL
AAXX 11061 80342 NIL
AAXX 11061 80370 NIL
AAXX 11061 80259 31560 70000 10200 20189 39051 70522 82830 333 5633/ 58003 82820 86358
AAXX 11061 80001 01470 70407 10254 20229 30112 40113 60011 72055 81276 333 56110 59007 69947 81814 87358
AAXX 11061 80002 NIL
AAXX 11061 80009 NIL
AAXX 11061 80022 31462 71602 10266 20248 30088 40090 70522 86572 333 56399 59001 86612
AAXX 11061 80028 NIL
AAXX 11061 80035 NIL
AAXX 11061 80036 NIL
AAXX 11061 80063 NIL
AAXX 11061 80084 NIL
AAXX 11061 80091 NIL
AAXX 11061 80094 NIL
AAXX 11061 80097 NIL
AAXX 11061 80099 NIL
AAXX 11061 80110 NIL
AAXX 11061 80112 31358 80503 10151 20138 37901 70522 8457/ 333 56009 58001 84608 86358
AAXX 11061 80139 NIL
AAXX 11061 80144 NIL
AAXX 11061 80149 NIL
AAXX 11061 80210 NIL
AAXX 11061 80211 NIL
AAXX 11061 80214 NIL
AAXX 11061 80222 41440 33002 10113 20107 37510 71060 83800 333 569// 59006 83817
AAXX 11061 80234 NIL
AAXX 11061 80241 NIL
AAXX 11061 80259 31560 70000 10200 20189 39051 70522 82830 333 5633/ 58003 82820 86358
AAXX 11061 80315 NIL
AAXX 11061 80342 NIL
AAXX 11061 80370 NIL
AAXX 11061 80259 31560 70000 10200 20189 39051 70522 82830 333 5633/ 58003 82820 86358
BBXX 44258 11061 99445 70634 46/// /3507 10012 40231 52021 22200 00074 10901 70006 333 91210
BBXX 44258 11061 99445 70634 46/// /3507 10012 40231 52021 22200 00074 10901 70006 333 91210
AAXX 11064 96009 01457 81008 10260 20236 30068 40103 57010 69911 79196 8592/ 333 56009 57904 69917 81914 84615 80965
AAXX 11064 96011 01459 81402 10260 20248 30085 40111 57012 60091 76166 84972 333 56000 57902 60087 82919 82619 80959
AAXX 11064 96035 31440 81504 10288 20236 30075 40113 57016 70596 85271 333 56000 57802 85817 80840
AAXX 11064 96073 01457 72705 10262 20249 30081 40092 56019 60151 72996 84972 333 56000 57901 60157 84913 80959
AAXX 11064 96091 01456 80205 10248 20242 30090 40113 57018 60171 76196 8582/ 333 56009 57802 60037 82613 83817 88460 80860
AAXX 11064 96109 01460 80000 10278 20242 30049 40088 57020 60021 72196 82272 333 56000 57804 69957 82815 85460 80840
AAXX 11064 96145 NIL
AAXX 11064 96147 NIL
AAXX 11064 96163 31558 72310 10310 20244 30085 40088 57017 71622 83521 333 56000 83620
AAXX 11064 96179 01460 70207 10298 20255 30067 40104 57010 60131 70262 83238 333 56800 57882 60017 83817 85360 80850
AAXX 11064 96195 32463 73504 10298 20240 30058 40094 58024 83371 333 56800 57983 81914 83815 80860
AAXX 11064 96221 32460 82605 10312 20240 30071 40086 57023 85232 333 56999 57893 85815 80857
AAXX 11064 96237 32459 70504 10309 20238 30047 40089 56018 85271 333 56000 57801 85816 83360 80860
AAXX 11064 96249 32560 72408 10292 20237 30025 40086 57020 84932 333 56400 57941 57841 81920 83820 80981
AAXX 11064 96253 01460 51812 10309 20240 30050 40071 57022 60011 70262 82932 333 56000 57900 60017 81915 83080
AAXX 11064 96295 32460 72108 10316 20241 39985 40087 56026 85921 333 56000 57900 82915 80900 83815 80800
AAXX 11064 96509 32460 21502 10320 20249 30056 40067 57020 82101 333 56000 82815
AAXX 11064 96581 32460 72208 10303 20237 30079 40086 57023 84271 333 56500 57852 84362 80863
AAXX 11064 96633 32459 62305 10286 20245 30059 40067 57020 83221 333 56000 81818 82618 85461
AAXX 11064 96645 01430 72907 10284 20236 30047 40079 57025 60021 76062 85372 333 56000 57901 60027 81911 85611 80981
AAXX 11064 96655 01457 70000 10287 20260 30064 40099 57020 60011 86273 333 56000 57803 60017 82812 84612 80862
AAXX 11064 96685 31460 62305 10302 20230 30055 40081 58016 76062 85511 333 56000 85616
AAXX 11064 96749 32559 73508 10314 20235 30072 40085 57023 83831 333 56000 57822 83822 85362 80860
AAXX 11064 96781 31458 72707 10270 20196 39274 48732 57024 70522 85831 333 56000 57801 84818 80858
AAXX 11064 96805 32560 51305 10320 20243 30089 40098 56011 83271 333 56000 57801 83820 80858
AAXX 11064 96839 31457 72606 10294 20245 30081 40088 57015 71792 86932 333 56000 57901 57801 82918 85819 80980 80860
AAXX 11064 96935 NIL
AAXX 11061 11036 12570 71602 10020 20006 39987 40216 52005 69902 333 20019 31001 81824 87643
AAXX 11064 96001 NIL
AAXX 11064 96015 11457 71406 10280 20248 30100 40107 57008 69901 85279 333 56300 57801 85810 80860
AAXX 11064 96033 01450 80000 10268 20247 30112 40117 57005 60071 76196 8492/ 333 56009 57903 60077 81920 84617 88457 80980
AAXX 11064 96075 31450 80903 10304 20252 30092 40098 57010 71792 8697/ 333 56009 57901 83915 83618 80965
AAXX 11064 96087 01457 83404 10244 20234 30073 40106 56018 60401 76096 84577 333 56800 69987 84615 85460 88280
AAXX 11064 96171 11457 80000 10280 20242 30068 40092 57019 60051 70262 8522/ 333 56009 57802 85815 80856
AAXX 11064 96207 31456 60000 10266 20211 39226 40147 57013 72992 84231 333 56000 57801 84817 80860
AAXX 11064 96505 NIL
AAXX 11064 96525 32460 32112 10352 20235 30056 40063 57021 83201 333 56000 83817
AAXX 11064 96529 32460 40000 10332 20249 30059 40083 57019 82131 333 56000 82818
AAXX 11064 96535 31460 73103 10297 20253 30078 40099 57014 71792 84934 333 56000 57902 57803 81915 83814 83362 85082 80979 80864
AAXX 11064 96557 32460 70000 10302 20244 30026 40076 57016 85921 333 56400 57942 57841 82912 83813 86460 80980 80857
AAXX 11064 96559 31457 62705 10310 20238 30040 40078 57021 71521 85931 333 56600 57961 57862 81915 84812 80972 80858
AAXX 11064 96565 32459 72904 10314 20258 30036 40088 57031 83231 333 56000 57803 83810 83357 80850
AAXX 11064 96595 31460 73403 10302 20246 30035 40087 57030 71422 87832 333 56000 57800 81815 86612
AAXX 11064 96607 32460 62109 10334 20224 30064 40079 57021 84221 333 56000 84815
AAXX 11064 96615 11460 72308 10308 20225 30082 40096 56018 60011 70262 82961 333 56000 57901 57801 81917 81814 87359 80967 80857
AAXX 11064 96695 32458 52205 10326 20227 30066 40071 58021 84211 333 56000 57803 84617 80860
AAXX 11064 96737 32462 61608 10340 20220 30046 40077 58015 85221 333 56000 57802 84817 80862
AAXX 11064 96739 32465 50000 10334 20226 30036 40085 57020 84231 333 56000 57801 84817 80858
AAXX 11064 96741 32560 70307 10310 20251 30084 40088 57029 83571 333 56000 83623 85362
AAXX 11064 96745 32560 62908 10318 20244 30079 40083 57033 83221 333 56600 57862 83820 85460 80825
AAXX 11064 96751 32562 63002 10256 20194 39026 48920 57007 85210 333 56600 57861 82820 83620 80880
AAXX 11064 96791 NIL
AAXX 11064 96797 32562 63404 10310 20244 30074 40080 57025 84201 333 56800 57882 84820 80860
AAXX 11064 96837 01459 72607 10304 20247 30093 40096 51007 69911 72196 84971 333 56000 57900 69917 81920 83823
AAXX 11064 96925 32465 62304 10312 20250 30075 40080 56020 83232 333 56500 57850 83817 85080 80860
AAXX 11064 96933 32460 60604 10330 20226 30073 40076 57021 81871 333 56200 57823 81820 85459 80860
AAXX 11064 96937 32562 50810 10320 20238 30070 40075 56023 82131 333 56000 82820
AAXX 11064 96973 32562 21702 10324 20253 30067 40073 57021 81131 333 56000 57803 81820 80850
AAXX 11064 96987 32460 51203 10312 20249 30025 40085 57012 83911 333 56000 57902 81918 82918 82618 80980
AAXX 11064 97008 32459 50504 10304 20249 30057 40068 57011 82230 333 56000 82819 85360
AAXX 11064 97016 32460 52604 10330 20234 30065 40068 57019 84831 333 56600 57801 83819 80862
AAXX 11064 97126 32459 72204 10306 20239 30011 40072 57026 83221 333 56000 57803 83817 85460 80859
AAXX 11064 97142 32560 60000 10308 20246 30049 40063 56026 82271 333 56000 57801 82820 83460 80857
AAXX 11064 97182 32568 62607 10306 20248 30063 40067 57029 82871 333 56000 57803 82820 83360 80865
AAXX 11064 97240 01558 80000 10264 20247 39975 40089 57013 60011 72162 85931 333 56000 57901 60017 81916 85817 80982
AAXX 11064 97284 32462 63605 10234 20207 38857 40095 57013 86201 333 56000 57801 86812 80837
AAXX 11064 97310 32568 21806 10310 20249 30070 40082 57003 82101 333 56000 82820
AAXX 11064 97320 30304 10328 20248 30065 40078 57013 82101 333 56000 82820
AAXX 11064 97378 32470 72703 10296 20253 39911 40074 56015 86211 333 56000 86818
AAXX 11064 97380 32462 60000 10292 20260 30055 40076 57002 60011 76011 83171 333 56000 57802 60017 83819 80850
AAXX 11064 97406 32460 50206 10322 20229 30044 40070 57006 84231 333 56600 57861 84818 80860
AAXX 11064 97570 32460 22507 10316 20249 30056 40063 57019 82211 333 56000 82815
AAXX 11064 97630 32468 51610 10296 20238 39910 40070 56021 84943 333 56000 57901 81912 83813 84080 80978
AAXX 11064 97682 32465 53505 10332 20269 30050 40057 56021 82852 333 56000 57802 82816 85362 80858
AAXX 11064 97698 NIL
AAXX 11064 97700 32460 60204 10298 20243 30059 40073 57011 82232 333 56000 57803 82818 84358 80856
AAXX 11064 97722 NIL
AAXX 11064 97780 NIL
AAXX 11064 97790 32564 60000 10306 20241 30028 40049 57011 83131 333 56000 57803 83820 85358 80858
AAXX 11064 97014 32560 43204 10327 20228 39981 40074 57024 82231 333 56000 57804 82824 80857
AAXX 11064 97028 32564 33206 10314 20239 30053 40058 58025 83211 333 56000 57802 82820 80860
AAXX 11064 97048 32563 53507 10326 20246 30036 40060 56020 83231 333 56000 57802 83820 80860
AAXX 11064 97072 32560 53006 10330 20229 39973 40074 57029 82371 333 56000 57803 82820 80857
AAXX 11064 97086 32560 50903 10314 20256 30053 40077 56027 83874 333 56000 57803 82820 80858
AAXX 11064 97096 32460 40208 10308 20242 30062 40083 57026 81231 333 56000 57803 56000 57803 81818 83360 80857
AAXX 11064 97120 31461 62403 10312 20246 30044 40077 56016 71521 82231 333 56000 57802 82818 84360 80860
AAXX 11064 97146 NIL
AAXX 11064 97180 32459 63208 10300 20255 30056 40074 58026 82232 333 56000 82819 83360
AAXX 11064 97192 32462 72506 10314 20243 30042 40099 57016 84920 333 56000 57902 57802 81917 83817 87460 80956
AAXX 11064 97230 01460 82303 10277 20234 30080 40087 56012 60041 72162 87872 333 56000 57801 60047 85817 80858
AAXX 11064 97260 31458 73407 10306 20247 30061 40068 57014 71522 85971 333 56300 57905 81915 80980 84815
AAXX 11064 97270 01459 61210 10314 20218 30073 40077 57015 69901 72162 85871 333 56000 57801 69907 83815 80859
AAXX 11064 97300 32562 62305 10320 20255 30053 40093 55004 84231 333 56000 57802 84820 80858
AAXX 11064 97340 32570 70110 10314 20266 30060 40075 57015 82232 333 56000 82820 87080
AAXX 11064 97372 32460 53106 10310 20269 39955 40075 84201 333 56000 84818
AAXX 11064 97430 32460 53406 10316 20251 30049 40078 57014 83231 333 56700 57872 83818 80860
AAXX 11064 97460 01459 72404 10300 20254 30040 40054 57021 60011 72162 84376 333 56100 57911 60017 81917 83818 80959 80858
AAXX 11064 97502 32460 60404 10316 20258 30059 40063 56015 84531 333 56000 84620
AAXX 11064 97530 32457 70904 10306 20243 30061 40066 57015 83864 333 56000 57803 83814 84360 80833
AAXX 11064 97560 NIL
AAXX 11064 97580 32462 50000 10314 20263 30074 40081 56021 82231 333 56000 57801 82815 80860
AAXX 11064 97600 32460 70903 10308 20242 30066 40072 57021 83871 333 56600 57862 83819 84460 80859
AAXX 11064 97686 31460 71214 10260 20141 38310 40042 57021 71622 85846 333 56000 57802 84813 86361 80859
AAXX 11064 97690 32462 62808 10330 20244 39945 40047 57023 83832 333 56000 57803 82816 83362
AAXX 11064 97724 32563 72803 10308 20248 30050 40067 57018 83832 333 56200 57822 82820 85359 80856
AAXX 11064 97748 31462 60405 10310 20241 30058 40060 56003 71522 83932 333 56800 57982 81914 82815 84359 80940 80850
AAXX 11064 97760 32464 61902 10319 20241 30058 40067 57026 82202 333 56000 57801 82816 80860
AAXX 11064 97796 31458 50000 10342 20241 30020 40072 57026 70521 84932 333 56000 57901 81911 83812 80980
AAXX 11064 97810 32465 73309 10312 20238 30047 40056 56021 83232 333 56000 57802 83819 85076 80845
AAXX 11064 97876 31360 73204 10304 20249 30069 40099 57024 71522 86832 333 56000 57801 82809 84610 80858
AAXX 11064 97900 32570 52109 10334 20242 30035 40063 58019 85200 333 56500 57851 85820 80850
AAXX 11064 97980 02460 72708 10312 20246 30054 40061 57020 60021 86842 333 56000 60027 82817 84620
AAXX 11061 38599 31942 00710 10043 21025 39738 40259 58007 71000 333 20010
AAXX 11064 65528 NIL
AAXX 11064 65536 NIL
AAXX 11064 65545 32956 0//// 10200 20141 39683 40109 333 20185 58008
AAXX 11064 65548 NIL
AAXX 11064 65555 NIL
AAXX 11064 65557 32456 8//// 10226 20217 39862 40100 885// 333 20220 58007 88611
AAXX 11064 65560 31205 8//// 10220 20220 39791 40098 74444 885// 333 20220 58006 85705 88613
AAXX 11064 65562 31430 7//// 10220 20212 3//// 4//// 71011 875// 333 20212 5//// 87613
AAXX 11064 65563 31108 20000 10182 20180 39862 40103 74644 82600 333 20177 58003 82703
AAXX 11064 65578 12457 60000 10255 20248 30/// 40/// 60014 86500 333 20254 5//// 86616
AAXX 11064 65585 32458 3//// 10132 20222 3//// 4//// 83270 333 20228 5//// 83813 94902
AAXX 11064 65592 11440 3//// 10230 20230 30070 40093 50044 71066 83200 333 20230 58002 83813 94912
AAXX 11064 65594 11458 60000 10235 20228 30068 40102 60274 70196 86200 333 20230 58001 86813 94905
AAXX 11064 65599 11458 7//// 10230 20229 30015 40089 60594 70366 875// 333 20230 58010 87613
BBXX A8CB4 11063 99427 11489 41994 02718 10020 21033 40050 5/010 74844 22254 00100 20506 80000
BBXX DDZI2 11063 99351 11310 41598 72321 10090 20013 40230 54000 703// 83476 22254 00093 2//// 80055
BBXX JPBN 11064 99303 11475 41/97 82924 10193 20156 40162 53009 78082 882// 22241 00209 1//04 20503 322// 40803 70021
BBXX UDWE 11061 99466 11453 42498 72811 11045 40033 52021 87200 22253 00058 20304
BBXX UFLT 11061 99481 11448 42/96 92810 11060 40018 54000 22253 00030 20603 328// 40603
BBXX UFML 11061 99443 11361 42697 12808 11020 40143 54000 81100 22213 00040 20301
BBXX UHMW 11061 99483 11402 42698 52804 11070 40057 54001 84075 22243 00027 20301
BBXX 46036 11061 99484 71339 46/// /3408 10069 40281 52006 22200 00086 11405 70025 333 91210
BBXX 46036 11061 99484 71339 46/// /3408 10069 40281 52006 22200 00086 11405 70025 333 91210
BBXX MINFR03 1106/ 99286 30360 46/// ///// 10243 40122 52020
AAXX 11064 60679 36/// /0806 10069 21349 333 20036
AAXX 11064 60676 36/// /0000 10088 20022 333 20075
AAXX 11064 60661 36/// /1403 10035 21153 333 20033
AAXX 11064 60650 36/// /0000 10086 21096 333 20079
BBXX C6JE5 11063 99009 30881 41698 52012 10310 20254 40101 51/// 70122 8/46/ 22253 04300 20101 330// 40101 5//// 80270
BBXX BATFR56 11064 99016 30844 44498 52517 10287 20232 40107 58004 76022 84422 22252 00300 20602 324// 40602 5////
BBXX BATFR55 11064 99087 30433 44598 50311 10277 20245 40122 70322 83132 22222 00290 20602 32424 412// 512//
BBXX 9KWP 11063 99098 30953 41698 62615 10280 20237 40089 58005 70222 83233 22274 00280 20502 327// 40503 80250
BBXX 3FMV6 11063 99125 30091 41698 81810 10200 20167 40099 53010 70222 85770 22283 06230 21001 80180
BBXX A8ZS7 11064 99136 30743 41698 61303 10300 20231 40095 54000 70311 86200 22254 04270 20100 399// 40801 80250
BBXX A8RL3 11061 99148 30737 41191 30905 10270 40100 54000 70200 834// 22213 00290 2//01 3//// 4//03 5////
BBXX C6HS4 11063 99175 30950 41397 81425 10260 20232 40089 5/070 76066 87777 22233 20705 80240
BBXX MCCN6 11064 99187 31024 41/98 /2309 10256 20239 40096 58002 70200 8/27/ 22233 00248 20401 317// 41007 5//// 80244
BBXX SHIP 11064 99188 31005 41397 81204 10260 20218 40101 54002 72528 8765/ 22214 00261 20201 309// 40504 80230
BBXX A8UL5 11063 99242 30520 41898 30509 10260 20210 40123 52023 70100 81181 2229/ 20302 3//// 4//// 5//// 80225
BBXX C6OM7 11063 99271 30118 41397 81721 10172 20113 40181 51010 70322 87520 22273 00160 20707 31400 41006 50000 80140
BBXX 2AKI2 11063 99330 30376 41497 81034 10192 20164 40168 51008 78022 887// 22224 00238 20404 310// 40706 5//// 80175
BBXX UCKZ 11061 99361 30187 42598 31611 10180 20116 40127 53019 83200 22243 00202 20504 320// 40908
BBXX ONFP 11064 99375 30181 43593 61736 10190 2016/ 40150 53010 76022 86363 22232 04207 20806 31717 40808 50808 6//// 80170 ICE /////
BBXX BATEU00 11064 99417 30161 46/// /1007 10147 20077 40220 51013 22243
BBXX DBBT 11061 99433 30083 46/// /3212 10109 20098 40177 57003 22261 00100
BBXX BATFR08 11064 99488 30636 46/// /2118 10034 21053 40169 58007 22223 00045
BBXX DBLK 11061 99538 30000 41497 82806 11001 21011 40035 52002 70222 885// 22242 04000 20301 324// 40905
AAXX 11064 60677 36/// /0000 10040 21032 333 20016
AAXX 11064 60633 36/// /1203 10138 21037 333 20117
AAXX 11061 10961 11/89 32511 11079 21090 37049 47014 53001 60032 72844 82542 333 11063 21079 49080 55000 55300 20000 40815 70069 826// 91121 91215 95188 96249 96449 98388 98787 444 18179 26220 86122
AAXX 11064 60672 36/// /3407 10062 21116 333 20059
BBXX ELWD5 11063 99053 10978 41397 80811 10260 20231 40090 50030 7//22 8/72/ 22234 2//01 80240
AAXX 11064 89577 46/// /1202 11328 35708 4//// 5////
AAXX 11064 64700 31950 20408 10160 20030 39803 40146 70600 80002 333 01400 20155 51301 ///// 55091 58009 82075
AAXX 11064 64701 NIL
AAXX 11064 64702 NIL
AAXX 11064 64705 31958 03606 10130 20045 3//// 4//// 706// 90550 333 0//00 2//// 50614 55/// ///// 5////
AAXX 11064 64706 33960 20000 10177 20036 39646 40123 80002 333 01000 20175 51254 55097 58007 82075
AAXX 11064 64708 NIL
AAXX 11064 64709 31915 23610 10170 20029 3//// 4//// 706// 80002 333 0//00 20160 5//// ///// 55/// 5//// 82075
AAXX 11064 64710 NIL
AAXX 11064 64713 NIL
AAXX 11064 64722 33960 10000 10160 20060 3//// 4//// 80002 90600 333 0//00 20125 50464 ///// 55/// 5//// 81075
AAXX 11064 64750 32960 50000 10165 20077 39711 40125 80002 90559 333 00900 20141 50551 55073 58013 85075
AAXX 11064 64751 33960 30406 10149 20030 3//// 4//// 80002 90550 333 0//00 20080 50673 ///// 55/// 5//// 83075
AAXX 11064 64753 NIL
AAXX 11064 64754 33960 50404 10166 20035 3//// 4//// 80002 90600 333 0//00 20140 50514 ///// 55/// 5//// 85075
AAXX 11064 64756 33962 40810 10168 20008 39525 4//// 80002 90600 333 0//00 20150 5//// ///// 55/// 58003 84075
AAXX 11064 64757 NIL
AAXX 11064 64758 NIL
AAXX 11064 64761 NIL
AAXX 1106/ 89767 46/// ///// 11076 39698 4//// 5////
AAXX 11064 41571 11995 00000 10170 20064 39568 40151 60001 70500 333 59006
AAXX 11064 78988 02484 31205 10254 20235 30089 40100 57006 60001 83200 333 59006 60007 83817
AAXX 11064 78990 01/// /0000 10260 20234 30100 57007 60001 70000 333 59003 60007
AAXX 1106/ 89872 46/// ///// 11035 39737 4//// 5//// 90610
AAXX 1106/ 89869 46/// ///// 11045 39717 4//// 5//// 90610
AAXX 1106/ 89869 46/// ///// 11049 39717 4//// 5//// 90620
AAXX 1106/ 89866 46/// ///// 11049 39667 4//// 5//// 90620
AAXX 1106/ 89329 46/// ///// 11108 38636 4//// 5//// 90610
AAXX 1106/ 89799 46/// ///// 11293 4//// 5//// 90610
AAXX 1106/ 89327 46/// ///// 11045 39515 4//// 5//// 90610
AAXX 1106/ 89769 46/// ///// 11046 39756 4//// 5//// 90620
AAXX 1106/ 89828 46/// ///// 11144 36428 4//// 5//// 90610
AAXX 1106/ 89108 46/// ///// 11228 36841 4//// 5//// 90610
AAXX 1106/ 89879 46/// ///// 11001 39686 4//// 5//// 90610
AAXX 1106/ 89314 46/// ///// 11138 38099 4//// 5//// 90610
AAXX 11064 89667 46/// /0808 11060 29073 39783 4//// 5//// 90610
AAXX 11064 89667 46/// /0808 11059 39783 4//// 5////
AAXX 11064 89667 46/// /0808 11060 29075 39784 4//// 5//// 90620
AAXX 11064 89667 46/// /0808 11058 39783 4//// 5////
AAXX 11061 88900 46/// /0420 10050 20046 30038 40041 58021
BBXX AMOUK08 11064 99501 70061 46/// ///// 10106 20084 30089 40096 57030 90550
BBXX 63106 11064 99610 10017 46/// /1713 10058 49949 57025 22200
BBXX 63105 11064 99610 10017 47798 ///// 10068 20006 49947 57026 700// 22200
BBXX 62304 11064 99511 10018 46/98 /1611 10080 20058 40139 56013 22200 00120 10701 70004
BBXX 62094 11064 99517 70067 46/// /2616 10094 20087 40052 57023 22200 00114 10505 70027 333 90710 91136
BBXX 62095 11064 99530 70159 46/// /2621 10078 20026 40018 56014 22200 00116 11317 70086 333 90710 91142
BBXX UAST 11061 99691 10351 41/// /0607 11020 49990 56020 7//// 8//// 222// 20302
BBXX 62027 11064 99491 70022 46/// /2017 1//// 2//// 40136 57025 22200 00126 10402 322// 70011
BBXX 44100 11061 99363 70756 46/// ///// 1//// 90622 22200 00143 10604 20604 70018
BBXX 41110 11061 99341 70777 46/// ///// 1//// 90621 22200 00150 10503 20503 70013
BBXX 42099 11061 99273 70842 46/// ///// 1//// 90627 22200 00238 10704 20704 70022
BBXX 41113 11061 99284 70805 46/// ///// 1//// 90621 22200 00218 10702 20702 70008
BBXX 41114 11061 99276 70802 46/// ///// 1//// 90616 22200 00242 10603 20603 70013
BBXX 41112 11061 99307 70813 46/// ///// 1//// 90621 22200 00164 10704 20704 70019
BBXX 42362 11061 99278 70907 46/// /0411 10161 20072 40268 90630
BBXX 42364 11061 99291 70881 46/// /0411 10144 20067 40261 90630
BBXX 42361 11061 99276 70925 46/// ///13 10156 20061 40257 58011 90630 333 91215 555 11104 22112
AAXX 11061 23426 32689 81803 11077 21091 30219 40244 57021 885// 333 21201
AAXX 11061 23625 32999 81302 11139 21152 30208 40244 57008 8805/ 333 21133
AAXX 11061 28076 32997 32701 11189 21201 30267 40346 52001 80001 333 21200
AAXX 11061 28367 32996 00801 11141 21154 30203 40341 54000 333 21189
AAXX 11061 28382 32984 40000 11190 21209 30282 40360 54000 81041 333 21247
AAXX 11061 28481 32997 23601 11210 21235 30251 40360 53004 80001 333 21216
AAXX 11061 28491 31958 00000 11185 21218 30241 40361 52001 70411 333 21240
AAXX 11061 28573 31998 10401 11165 21178 30236 40349 53002 70241 80001 333 21220
AAXX 11061 28593 32998 20201 11183 21195 30241 40347 58002 80005 333 21198
AAXX 11061 28786 32998 81002 11155 21174 30155 40325 57001 80002 333 21176
AAXX 11061 28797 32997 80801 11172 21191 30151 40322 51002 80007 333 21185
AAXX 11061 28799 32998 80802 11182 21201 30170 40327 52001 80005 333 21202
AAXX 11061 20046 31997 82408 11055 21066 30015 40047 52010 77173 8807/ 333 21050
AAXX 11061 20069 41463 81907 11012 21026 30098 40111 54000 77173 8452/ 333 84615
AAXX 11061 20087 41298 71506 11227 21259 30178 40189 58001 73631 8263/
AAXX 11061 20292 41498 81702 11199 21218 30209 40230 52010 70282 8557/ 333 91104
AAXX 11061 20353 46/// /1203 11034 21075 30118 40122 54000
AAXX 11061 20667 31598 81906 11033 21040 30201 40208 57003 77172 8802/ 333 21052
AAXX 11061 20674 42398 72203 11039 21044 30171 40231 53010 875// 333 86707 91105
AAXX 11061 20744 11497 71313 11034 21062 30075 40093 57023 69920 73683 83830 333 21032 91120
AAXX 11061 20891 41297 79902 11181 21193 30186 40231 52008 78582 879// 333 86705 91103
AAXX 11061 23022 31596 81710 11054 21064 30094 40156 56020 73832 8255/ 333 21105 91114
AAXX 11061 23032 32597 71208 11133 21153 30170 40202 57027 81530 333 21155
AAXX 11061 23058 32298 82003 11074 21083 30298 40302 52003 886// 333 21083 88705
AAXX 11061 23242 31/93 91804 11152 21172 30278 40295 57005 74944 333 21202
AAXX 11061 23256 11/92 92201 11114 21120 30288 40325 52009 69930 74942 333 21101
AAXX 11061 23330 11196 82301 11111 21117 30240 40262 57014 69900 77372 8802/ 333 21194 88503 93552
AAXX 11061 23445 31195 21202 10134 21140 30289 40316 57010 71042 886// 333 21164 88702 93528
AAXX 11061 23552 11095 83001 11092 21099 30305 40341 52006 69930 71022 886// 333 21089 88701
AAXX 11061 23631 32999 70000 11109 21122 30219 40262 57013 87030 333 21117
AAXX 11061 23662 11497 83501 11083 21093 30291 40337 52021 60020 77872 8652/ 333 21099
AAXX 11061 23724 32699 51201 11196 21215 30180 40250 57003 82501 333 21189
AAXX 11061 23734 11998 81502 11154 21173 30196 40293 56002 69900 70272 83031 333 21150
AAXX 11061 23849 41332 80000 11107 21120 40358 52005 77177 8802/ 333 88507
AAXX 11061 23867 11996 82701 11165 21184 30272 40349 52015 69930 77172 8807/ 333 21162
AAXX 11061 23933 32997 81603 11190 21207 30276 40337 54000 83025 333 21215
AAXX 11061 28064 32999 61902 11131 21158 30232 40330 52003 80001 333 21148
AAXX 11061 28275 32998 00000 11190 21209 30290 40356 53004 333 21226
AAXX 11061 28493 32998 20000 11182 21201 30256 40358 52002 80001 333 21240
AAXX 11061 28698 32998 80502 11141 21161 30167 40332 53001 80009 333 21173
AAXX 11064 78318 11565 40903 10220 20210 30158 40162 58007 69951 70361 83240 333 10246 20215 33/// 56990 57882 59007 71210 83820
AAXX 11064 78333 12910 10402 10215 20203 30152 40159 58004 60001 80002 333 10286 20210 31/// 56000 59005 70010 81070
AAXX 11064 78348 11557 20504 10238 20208 30104 40156 58014 60001 70500 82200 333 10271 20225 30/// 56900 57813 59009 82822
AAXX 11064 78349 12550 13301 10214 20209 30054 40163 56009 60001 81201 333 10285 20206 31/// 56909 59011 70082 81820
AAXX 11064 78353 11560 50901 10241 20216 30140 40162 58007 60027 70162 85800 333 10279 20234 31/// 56900
AAXX 11064 78360 11560 30204 10227 20212 30127 40138 58009 60001 70390 83800 333 10301 20225 30/// 56900 59012 82820 92023
AAXX 11064 78369 11464 50306 10256 20238 30122 40131 57013 69931 70181 85200 333 10287 20256 30/// 56900 57860 59010 70003 85818
BBXX WQZ7791 11064 99469 70916 41/97 /0000 11177 2//// 40000 54000 70000 8//// 222// 0//// 2//00 3//// 4//// 5//// 6//// 8//// ICE /////
BBXX WC5932 11064 99435 70877 43/// /2322 00/// 11021 21067 40281 55017 7//// 8//// 22284 0//// 2//// 3//// 4//// 5//// 6//// 81037 ICE /////
BBXX V7HC6 11064 99273 70907 41/// /0421 10160 20108 40255 57004 700// 8//// 222// 00227 2//// 3//// 4//// 5//// 6//// 80130 ICE /////
BBXX C6DM2 11064 99054 11003 41999 80506 10310 20227 40090 53110 7//22 8824/ 22200 0//// 2//// 3//// 4//// 5//// 6//// 80250 ICE /////
BBXX WKAB 11063 99398 70737 41598 13518 10032 20027 40327 52035 7//00 81/// 22283 00113 21003 336// 41003 5//// 6//// 80030 ICE /////
BBXX ONDE 11063 99362 11411 41997 12712 10140 20012 40130 54000 7//00 81/8/ 22200 00170 20202 327// 4//// 5//// 6//// 80080 ICE /////
BBXX V7NV4 11064 99131 70921 41898 62711 10270 20243 40120 51005 70221 85462 22273 00280 20204 32626 40204 50204 6//// 80250 ICE /////
BBXX 44060 11061 99413 70721 46/// ///07 11001 40326 90630 22200 00112 333 91209 555 11072 22072
BBXX 44022 11061 99409 70737 46/// ///05 10009 21090 40334 90630 22200 00096 333 91207 555 11051 22051
BBXX 51205 11061 99210 71564 46/// ///// 1//// 90618 22200 00243 10806 20805 331// 41303 70029
BBXX 46238 11061 99334 71195 46/// ///// 1//// 90620 22200 00147 11703 20502 329// 41703 70017
BBXX 46239 11061 99363 71221 46/// ///// 1//// 90621 22200 00132 11705 20801 330// 41704 70023
AAXX 11063 63671 32980 00000 10272 20204 333 20203
AAXX 11063 63723 32582 10506 10280 20224 40105 81100 333 20222 59008 81824
AAXX 11063 63793 32580 30512 10257 20205 40093 82100 333 20220 58000 82820
BBXX 46219 11061 99332 71199 46/// ///// 1//// 90628 22200 00133 11704 20502 329// 41703 70021
BBXX 51204 11061 99213 71581 46/// ///// 1//// 90622 22200 00247 11403 21002 331// 41402 70013
BBXX 52200 11061 99134 11448 46/// ///// 1//// 90615 22200 00288 10805 20805 308// 41101 70025
BBXX 51202 11061 99214 71577 46/// ///// 1//// 90609 22200 00242 10806 20806 301// 41501 70028
AAXX 11064 91348 11472 80810 10258 20227 30030 40083 53002 60041 78082 85271 333 56299 70226 555 91106
BBXX 46036 11061 99484 71339 46/// /3408 10069 40281 52006 22200 00086 11405 70025 333 91210
BBXX WKAB 11063 99398 70737 41598 13518 10032 20027 40327 52035 7//00 81/// 22283 00113 21003 336// 41003 5//// 6//// 80030 ICE /////
BBXX 44258 11061 99445 70634 46/// /3507 10012 40231 52021 22200 00074 10901 70006 333 91210
BBXX 46146 11061 99493 71237 46/// /3106 10046 40210 54000 22200 00062 10200 70002 333 91207
BBXX 46004 11061 99509 71361 46/// /3206 10060 40293 52012 22200 00078 11406 70032 333 91209
BBXX KS094 11064 99170 70618 43/// /0406 10254 40117 22200 06269
BBXX KS088 11064 99267 70801 43/// /1415 10242 40189 22200 06242
BBXX 44039 11061 99411 70727 46/// /3209 10016 21083 40337 90553 22200 00107 10301 70005 333 91212
BBXX 46215 11061 99352 71209 46/// ///// 1//// 90608 22200 00158 11703 20801 325// 41702 70013
BBXX 46225 11061 99329 71174 46/// ///// 1//// 90614 22200 00158 11802 21001 326// 41802 70010
BBXX 46229 11061 99438 71246 46/// ///// 1//// 90621 22200 00104 11405 21002 329// 41404 70023
BBXX 46213 11061 99403 71247 46/// ///// 1//// 90624 22200 00106 11704 21001 329// 41704 70020
BBXX 46247 11061 99378 71228 46/// ///// 1//// 90621 22200 00116 11703 20801 329// 41703 70017
BBXX 46248 11061 99461 71247 46/// ///// 1//// 90604 22200 00088 11704 21001 329// 41704 70021
BBXX 46232 11061 99325 71174 46/// ///// 1//// 90608 22200 00145 11802 20501 323// 41802 70011
BBXX 46184 11061 99539 71389 46/// /2404 10050 40268 57004 22200 00067 11205 70026 333 91206
BBXX 46181 11061 99538 71288 46/// /2303 10026 40227 52012 22200 00039 10300 70000 333 91204
BBXX 44057 11061 99395 70761 46/// /3603 1//// 40342 90610 333 91204
BBXX 44059 11061 99368 70763 46/// /0504 10062 40316 51008 90600 22200 00115 333 91206
BBXX 44058 11061 99376 70763 46/// /0307 10057 40327 51007 90600 22200 00107 10301 70006 333 91210
BBXX 44058 11061 99376 70763 46/// /0308 1//// 40327 90610 333 91210
BBXX 44058 11061 99376 70763 46/// /0408 1//// 90620 333 91210
BBXX 44057 11061 99395 70761 46/// /3403 10008 40342 51012 90600 22200 00068 333 91204
BBXX 44059 11061 99368 70763 46/// /0604 1//// 40318 90610 333 91206
BBXX 44057 11061 99395 70761 46/// /3503 1//// 90620 333 91204
BBXX 44059 11061 99368 70763 46/// /0604 1//// 90620 333 91205
BBXX 44061 11061 99388 70770 46/// /0204 1//// 90620 333 91205
BBXX 44061 11061 99388 70770 46/// /0104 10018 40343 51009 90600 22200 00072 333 91205
BBXX 44061 11061 99388 70770 46/// /0104 1//// 40344 90610 333 91205
BBXX 42085 11061 99179 70665 46/// ///// 1//// 90600 22200 00283 10702 70008
BBXX 46092 11061 99368 71220 46/// /2506 10103 40176 54000 90557 22200 00120 555 11067 22067
BBXX DIHE 11064 99148 70769 41597 30520 10275 20219 40110 55005 70322 83121 22214 00290 2//// 80235
BBXX DFRZ 11063 99278 70454 41598 50922 10230 20201 40270 57010 70322 85555 22254 00230 21004 80210
BBXX GDTT 11064 99264 70762 41597 61116 10240 20240 40197 58/// 7//11 862// 22273 00300 20203 305// 40203 80240
BBXX PENR 11063 99253 70652 41597 30620 10260 20207 40155 57007 70100 81145 22214 20502 306// 41004 80225
BBXX ZCDP8 11063 99172 70642 41398 40720 10270 20210 40123 54000 70211 846// 22224 00270 20302 307// 40303 5//// 80230
BBXX 44041 11061 99372 70768 46/// /0102 1//// 40354 90610 333 91203
BBXX 44043 11061 99392 70764 46/// /3608 10025 40339 51011 90600 22200 00080 10301 70004 333 91209
BBXX 41009 11061 99285 70802 46/// /0707 10244 20169 40213 90620 22200 00244 10603 20503 300// 40602 70017 333 91207 555 11069 22074
BBXX 44042 11061 99380 70763 46/// /3505 10038 40337 51011 90600 22200 00100 10301 70003 333 91207
BBXX 41010 11061 99289 70785 46/// /0707 10231 40216 90620 22200 00240 10503 20503 300// 40901 70015 333 91209 555 11079 22083
BBXX ELWD5 11063 99053 10978 41397 80811 10260 20231 40090 50030 7//22 8/72/ 22234 2//01 80240
BBXX ONDE 11063 99362 11411 41997 12712 10140 20012 40130 54000 7//00 81/8/ 22200 00170 20202 327// 4//// 5//// 6//// 80080 ICE /////
BBXX C6DM2 11064 99054 11003 41999 80506 10310 20227 40090 53110 7//22 8824/ 22200 0//// 2//// 3//// 4//// 5//// 6//// 80250 ICE /////
BBXX UDWE 11061 99466 11453 42498 72811 11045 40033 52021 87200 22253 00058 20304
BBXX UFML 11061 99443 11361 42697 12808 11020 40143 54000 81100 22213 00040 20301
BBXX UHMW 11061 99483 11402 42698 52804 11070 40057 54001 84075 22243 00027 20301
BBXX UFLT 11061 99481 11448 42/96 92810 11060 40018 54000 22253 00030 20603 328// 40603
BBXX UGWJ 11061 99129 11115 41197 93317 10245 40150 54000 75051 8872/ 22252 00250 20604 33600 40806
BBXX MCCW7 11064 99059 10831 41398 73609 10286 20248 40093 52038 70222 8727/ 22263 00280 29901 301// 40702 5//// 80259
BBXX A8SI9 11064 99493 11560 41397 82525 11010 2101/ 49990 51020 77022 887// 22254 00038 20504 326// 40907 81010
BBXX KAOU 11064 99078 10984 43/// /0812 10284 20217 40095 5//// 7//// 8//// 222// 04309 2//// 3//// 4//// 5//// 6//// 8//// ICE /////
BBXX VTXB 11063 99078 10936 41397 82225 10270 20229 41010 54000 70306 85233 22233
BBXX MINFR03 1106/ 99286 30360 46/// ///// 10243 40122 52020
BBXX ZSAF 11064 99413 30089 41599 73213 10128 20092 40217 57016 70311 8355/ 22253 04137 2//// 328// 40503 5////
BBXX AMOUK17 11064 99327 30573 46/// ///// 10216 20194 30154 40165 52004 90550
BBXX AMOUK20 11064 99047 70301 46/// ///// 10267 20237 30102 40131 57019 90550
BBXX AMOUK01 11064 99339 30184 46/// ///// 10175 20140 30147 40151 54002 90550
BBXX AMOUK15 11064 99159 50057 46/// ///// 10193 20154 30129 40161 57004 90550
BBXX A8QL5 11061 99007 70287 41/97 51407 10245 20224 40100 52/// 70000 8//// 22254 04280 299// 80230
BBXX 62141 11063 99493 50590 41998 02827 10100 20084 40038 52028 70200 80000 22200 20705 3//// 4//// 5//// 80092
BBXX A8CF2 11061 99045 70802 41/97 /1811 10257 40100 53050 76062 8//// 22244 29904
BBXX VQHO7 11064 99160 50366 41398 80426 10262 20221 40062 57010 70222 887// 22284 00270 2//// 3//// 4//// 5//// 80234
BBXX A8CJ2 11064 99245 50713 41598 72114 10190 20182 40160 52010 70222 85670 22244 04230 20501 327// 41204 5//// 80185
BBXX PEBT 11063 99363 10218 41497 62116 10180 20163 40250 54000 76061 8466/ 22263 02162 20402 321// 40602 5//// 80169
BBXX MINFR05 1106/ 99505 10005 46/// ///// 10090 40132 57022
BBXX MINUK01 1106/ 99572 70019 46/// ///// 10063 49966 52004
BBXX MINUK05 1106/ 99571 70021 46/// ///// 10058 49971 57014
BBXX MINUK03 1106/ 99529 10037 46/// ///// 10078 40107 52008
BBXX DDSC2 11063 99428 70209 41597 63422 10130 20063 40235 56015 70322 867// 22225 00141 20704 334// 41408 80095
BBXX WC5932 11064 99435 70877 43/// /2322 00/// 11021 21067 40281 55017 7//// 8//// 22284 0//// 2//// 3//// 4//// 5//// 6//// 81037 ICE /////
BBXX WDF7994 11064 99450 70871 41/98 10000 11033 2//// 40247 54/// 70100 8//// 22242 00067 20504 3//// 4//// 5//// 6//// 8//// ICE /////
BBXX 44043 11061 99392 70764 46/// /0107 1//// 40339 90610 333 91209
BBXX 44041 11061 99372 70768 46/// /0202 1//// 90620 333 91204
BBXX 44043 11061 99392 70764 46/// /3607 1//// 90620 333 91208
BBXX 44063 11061 99390 70764 46/// /0104 1//// 40354 90610 333 91205
BBXX 44041 11061 99372 70768 46/// /3602 10029 40354 51011 90600 22200 00109 1//00 70000 333 91204
BBXX 44063 11061 99390 70764 46/// /0104 1//// 90620 333 91205
BBXX 44063 11061 99390 70764 46/// /0104 10012 40354 51013 90600 22200 00082 1//00 70001 333 91205
BBXX 44062 11061 99386 70764 46/// /0107 1//// 40317 90610 22200 00098 333 91208
BBXX 44042 11061 99380 70763 46/// /3605 1//// 40338 90610 333 91206
BBXX 44042 11061 99380 70763 46/// /3505 1//// 90620 333 91206
BBXX 44062 11061 99386 70764 46/// /0207 1//// 90620 22200 00098 333 91209
BBXX 44062 11061 99386 70764 46/// /0106 10032 40316 51006 90600 22200 00098 10301 70006 333 91209
BBXX 41036 11061 99342 70770 46/// ///// 10109 20050 40291 90620 22200 00197
BBXX 46205 11061 99542 71343 46/// /3308 10062 40247 52007 22200 00075 11406 70029 333 91210
BBXX 46132 11061 99497 71279 46/// /3408 10060 40225 52005 22200 00080 11606 70029 333 91209
BBXX 46206 11061 99488 71260 46/// /3307 10075 40205 52003 22200 00087 11505 70025 333 91210
BBXX FLAO 1106/ 99764 70847 46/// ///// 11280 40032 57004
BBXX 46208 11061 99525 71327 46/// /3408 10065 40246 52005 22200 00077 11405 70026 333 912//
BBXX 41052 11061 99183 70648 46/// /0605 10267 40099 58011 90600 22200 00279 333 91207
BBXX 41052 11061 99183 70648 46/// /0606 10266 40100 90550 333 91208
BBXX 41052 11061 99183 70648 46/// /0507 10266 40101 90540 333 91208
BBXX 44030 11061 99432 70704 46/// /3107 1//// 40296 53014 90604 22200 00087 10301 70006 333 91209 555 11083 22089
BBXX 44060 11061 99413 70721 46/// ///07 11001 40324 90615 22200 00109 333 91209 555 11077 22077
BBXX 44022 11061 99409 70737 46/// ///04 10009 21093 40333 90615 22200 00095 333 91206 555 11046 22046
BBXX 44039 11061 99411 70727 46/// /3209 10016 21083 40337 90615 22200 00108 10301 70005 333 91212
BBXX 44029 11061 99425 70706 46/30 /3107 10010 40299 52015 90604 22200 00091 10301 70006 333 91208 555 11086 22089
BBXX 44034 11061 99441 70681 46/30 /3107 11003 40283 51016 90604 22200 00090 10301 70006 333 91210 555 11083 22086
BBXX 44033 11061 99441 70690 46/30 /2905 11008 40289 51015 90604 22200 00084 1//00 70002 333 91207 555 11062 22064
BBXX 46185 11061 99524 71298 46/// /3208 10059 40229 52008 22200 00076 10502 70012 333 91210
BBXX 46221 11061 99339 71186 46/// ///// 1//// 90545 22200 00151 11802 20501 324// 41801 70009
BBXX 46238 11061 99334 71195 46/// ///// 1//// 90550 22200 00147 11704 20502 328// 41703 70018
BBXX 44040 11061 99410 70736 46/// /3105 10012 21084 40338 90615 22200 1//00 70001 333 91207 555 11057 22062
BBXX 44100 11061 99363 70756 46/// ///// 1//// 90552 22200 00143 10603 20603 70017
BBXX 42099 11061 99273 70842 46/// ///// 1//// 90557 22200 00238 10704 20704 70020
BBXX V7NV4 11064 99131 70921 41898 62711 10270 20243 40120 51005 70221 85462 22273 00280 20204 32626 40204 50204 6//// 80250 ICE /////
BBXX MGSM3 11064 99018 31424 41498 42811 10310 20263 40034 70121 84490 22233 04290 20200 30808 41001 51001 80263
BBXX MLJA8 11064 99021 31089 41697 70625 10290 20232 40118 54000 70311 84378 22263 00310 2//// 300// 40000 5//// 80250
BBXX FHZI 11064 99429 31473 46/// /1814 10140 20107 30017 40028 52016 22200 04162 85121
BBXX VRDU8 11063 99158 31083 41/98 13010 10290 20248 40105 54000 70200 811// 22244 04270 20402 80260
BBXX 9HA2479 11064 99338 31513 46/// /2107 10200 20173 30005 40034 57007 22233 04198 85182
BBXX SHIP 11064 99112 30852 41498 22407 10286 20221 40087 57011 70200 82202 22200 00290 10804 20401 319// 41003 85239
BBXX VROB 11064 99068 31470 46/// /1408 10290 20231 30032 40056 57009 22200 04300 85247
BBXX ZMKA 11063 99348 31739 41296 80528 10179 20167 40163 55005 75152 886// 22232 20403 305// 40503 80172
BBXX C6FS9 11064 99225 31524 46/// /3618 10268 20252 30009 40044 57022 22224 04268 85256
AAXX 11064 94996 41372 51306 10224 20196 39982 40118 55001 70222 81282 90630
AAXX 11064 94996 41372 51306 10224 20196 39982 40118 55001 70222 81282 90630
AAXX 11061 31152 42997 80000 11297 21328 39730 40174 52010 85036
AAXX 11061 31163 NIL
AAXX 11061 31285 42999 52001 11222 21271 30051 40136 52003 80008
AAXX 11061 31561 41998 21801 11174 21186 30076 40105 54000 70271 80008
AAXX 11061 31683 42999 10000 11126 21178 30006 40082 53003 80030
AAXX 11061 32010 41498 52704 11118 21138 39986 40036 53005 72681 85900 333 85912 91005 91106
AAXX 11060 44210 32999 50000 11168 21194 38597 56006 83071
AAXX 11060 44216 32598 32701 11154 21181 39090 40431 58011 81882
AAXX 11060 44217 32998 10000 11149 21219 37888 40418 54000 80004
AAXX 11060 44219 41697 70000 11135 21155 38692 40416 58011 71577 87500
AAXX 11060 44221 31996 80000 11139 21166 38666 40427 58004 71672 8802/
AAXX 11060 44224 31998 00000 11261 21279 38102 40521 56003 70240
AAXX 11060 44229 32999 02703 11187 21220 37954 40423 58014
AAXX 11060 44242 32998 00000 11171 21188 39401 40390 57012
AAXX 11060 44243 41999 20000 11152 21187 39496 40388 58009 70181 82030
AAXX 11060 44254 32698 22904 11055 21079 39066 40271 56002 81104
AAXX 11060 44257 31598 22908 11071 21164 39015 40305 58003 73633 82840 333 91112
AAXX 11060 44263 32998 20000 11193 21251 38112 40484 57004 80001
AAXX 11060 44266 32999 60000 11126 21234 37796 40369 58005 84084
AAXX 11060 44286 32998 01401 11098 21146 38696 40356 58008
AAXX 11060 44291 31/93 90000 11182 21199 38797 40431 58009 74544 89/// 333 96004
AAXX 11060 44325 32999 70000 11169 21203 38920 40413 58008 87011
AAXX 11060 44329 32898 22007 11053 21225 37794 40284 58005 82041
AAXX 11060 44338 32999 00201 11049 21116 38518 40309 58009
AAXX 11060 44348 32997 03205 11074 21118 38725 40288 58004
AAXX 11060 44374 32999 01803 11021 21283 38302 40317 58011
AAXX 11060 44385 32999 02702 11027 21112 38970 40308 58018
AAXX 11060 44386 32999 02704 11073 21126 39095 40316 57008
AAXX 11064 91723 NIL
AAXX 11064 91964 NIL
AAXX 1106/ 89828 46/// ///// 11150 36428 4//// 5////
AAXX 1106/ 89108 46/// ///// 11226 36840 4//// 5////
AAXX 1106/ 89879 46/// ///// 10001 39687 4//// 5////
AAXX 1106/ 89872 46/// ///// 11035 39736 4//// 5////
AAXX 1106/ 89869 46/// ///// 11049 39717 4//// 5////
AAXX 1106/ 89866 46/// ///// 11048 39667 4//// 5//// 90610
AAXX 1106/ 89329 46/// ///// 11108 38636 4//// 5////
AAXX 1106/ 89799 46/// ///// 11293 4//// 5////
AAXX 1106/ 89868 46/// ///// 10014 39735 4//// 5//// 90610
AAXX 1106/ 89332 46/// ///// 11085 39137 4//// 5//// 90610
AAXX 1106/ 89769 46/// ///// 11048 39755 4//// 5////
AAXX 1106/ 89769 46/// ///// 11046 39755 4//// 5//// 90610
BBXX A8SI9 11064 99493 11560 41397 82525 11010 21010 49990 51020 77022 887// 22254 00038 20504 326// 40907 81010
BBXX A8UE4 11063 99449 11799 41/97 42745 10060 21041 40080 52035 70281 847// 22263 04110 20108 327// 40612 5//// 80025
BBXX WCX8882 11064 99533 11679 41497 62734 10010 21020 49850 51030 70271 869// 22254 00040 2//// 3//// 4//// 5//// 6//// 80000 ICE /////
AAXX 11064 63866 12580 70000 10225 20209 39521 48/// 60224 87500 333 0//93 20206 50451 55020 55300 58006 87622
BBXX 44137 11061 99423 70620 46/// /3510 10081 40209 52010 22200 00126 10803 70017 333 91212
AAXX 11063 64870 31956 70000 10120 20069 38919 48509 70522 80002 333 00800 20105 50650 55104 58007 87080
BBXX 44137 11061 99423 70620 46/// /3510 10081 40209 52010 22200 00126 10803 70017 333 91212
AAXX 11064 63612 32980 00000 10266 20190 40127 333 20202 59006
AAXX 11064 63688 32580 20811 10180 20115 48/// 8291 333 20055 58001 81920
AAXX 11064 63708 12580 11204 10224 20159 48499 60124 81903 333 20171 58001 81922
AAXX 11064 63772 32580 40704 10295 20250 84500 333 20224 84620
AAXX 11064 63820 32580 50108 10287 20237 40119 85100 333 20241 58007 85821
AAXX 11064 63661 NIL
AAXX 11064 63671 NIL
AAXX 11064 63695 NIL
AAXX 11064 63714 NIL
AAXX 11064 63723 NIL
AAXX 11064 63740 NIL
AAXX 11064 63793 NIL
AAXX 11064 71426 46/// /3118 11082 6///1 333 11011 21083 7//// 555 33132 40192
AAXX 11064 71923 16/// ///03 11178 21193 39652 40109 53005 60001 333 11178 21244 70000
AAXX 11064 71049 16/// /3203 11290 30096 40121 53008 60001 333 11201 21308 70003
AAXX 11064 71963 16/// /3505 11252 21276 39719 40137 53011 60001 333 11177 21276 70000
AAXX 11064 71490 16/// /0000 11269 21293 39831 40170 53006 60001 333 11258 21301 70000
AAXX 11064 71592 16/// /1104 11186 21207 30006 40019 55001 60001 333 11165 21200 70000
AAXX 11064 71277 46/// /3409 11040 21046 6///1 333 10027 21040 7//// 555 32729 40212
AAXX 11064 71761 16/// ///// 11006 21041 60001 333 10006 21067 70000
AAXX 11064 16219 41/00 90000 10020 20011 38132 48517 56/// 6///2 747// 333 20018 32/// 55000 2//// 89/00 9509/ 9519/
BBXX 44138 11061 99443 70536 46/// /2608 10103 40144 52011 22200 00090 10705 70023 333 91210
AAXX 11064 42189 31/94 90000 10190 20130 40151 70542 89/// 333 58014
AAXX 11064 42475 31995 00000 10204 20091 40166 70500 333 58028
AAXX 11064 60101 11230 81804 10130 20121 40213 53002 60044 76162 882// 333 20088 82704 84707 87816
AAXX 11064 60135 32450 61806 10108 20099 40220 58001 83530 333 20099 30007 55050 83615 86357
AAXX 11064 60156 17342 /1802 10067 20058 40242 55000 69904 71011 333 20050
AAXX 11064 60230 15957 01301 10070 20063 40241 53003 60004 333 20063
BBXX 44138 11061 99443 70536 46/// /2608 10103 40144 52011 22200 00090 10705 70023 333 91210
AAXX 11064 61091 31901 70000 10165 20054 39708 40168 7064/ 80008 333 01200 20158 50641 51274 59004 87280
AAXX 11063 67881 12480 33602 10216 20162 38584 48513 69924 81132 333 20178 81815 83360
AAXX 11064 67881 12480 33602 10216 20162 38584 48513 69924 81132 333 20178 58001 81815 83360
BBXX 46004 11061 99509 71361 46/// /3206 10060 40293 52012 22200 00078 11406 70032 333 91209
BBXX 46036 11061 99484 71339 46/// /3408 10069 40281 52006 22200 00086 11405 70025 333 91210
BBXX 46145 11061 99544 71324 46/// /0104 10059 40231 52009 22200 00076 11305 70026 333 91206
BBXX 46181 11061 99538 71288 46/// /2303 10026 40227 52012 22200 00039 10300 70000 333 91204
BBXX 46183 11061 99536 71311 46/// /3010 10050 40230 52009 22200 00079 10502 70011 333 91213
BBXX 46185 11061 99524 71298 46/// /3208 10059 40229 52008 22200 00076 10502 70012 333 91210
BBXX 46204 11061 99514 71288 46/// /3107 10064 40223 52005 22200 00085 11505 70023 333 91209
BBXX 46205 11061 99542 71343 46/// /3308 10062 40247 52007 22200 00075 11406 70029 333 91210
BBXX 46206 11061 99488 71260 46/// /3307 10075 40205 52003 22200 00087 11505 70025 333 91210
BBXX 46208 11061 99525 71327 46/// /3408 10065 40246 52005 22200 00077 11405 70026 333 912//
BBXX WACW 11064 99484 71363 41398 63326 10070 20050 40250 54000 7//11 85/// 22222 00090 2//// 3//// 4//// 5//// 6//// 80060 ICE /////
BBXX WAZV 11064 99563 71426 41498 82124 10050 20020 40230 55000 70211 887// 22232 00050 20604 318// 40805 5//// 6//// 80035 ICE /////
BBXX WFLH 11063 99317 71241 43598 43215 10156 20095 40203 54/// 7//// 84/8/ 22254 00150 20702 3//// 4//// 5//// 6//// 80122 ICE /////
AAXX 11061 38838 42999 00505 10078 21025 39569 40240 57003
AAXX 11064 63756 02580 70000 10216 20177 38870 48506 60044 8293/ 333 0//19 20180 50031 55042 55300 58008 82821 81922 87359
AAXX 11064 63962 12580 6000 10212 20194 38952 48508 60074 82930 333 0//99 20188 50031 55038 55300 58025 82820 81922 86358
AAXX 11061 98134 11450 80407 10207 20200 39944 40137 5//// 60101 76166 8552/ 333 56199 85617 88456
AAXX 11061 98223 31562 70209 10282 20225 40074 57023 70544 83870 333 56999 83620 87360
AAXX 11061 98232 11565 83202 10248 20219 40123 57010 60021 78088 8557/ 222// 20101 333 56199 85620 88358
AAXX 11061 98325 31460 71401 10283 20249 40090 51001 70544 83570 333 56999 83615 86358
AAXX 11061 98328 31450 81801 10216 20193 38495 40061 58018 74044 885// 333 56999 56999 88612
AAXX 11061 98330 11470 70000 10299 20269 30045 40077 58027 69901 78044 83270 333 56999 83818 87358
AAXX 11061 98336 NIL
AAXX 11061 98429 31560 60804 10300 20250 40075 57023 70544 83830 333 56999 83825 85360
AAXX 11061 98430 11558 83604 10291 20248 40070 58032 69921 70584 82878 333 56999 92620 83359 87280
AAXX 11061 98431 31468 70901 10277 20249 30026 40073 58024 70544 83250 333 56999 83818 86359
AAXX 11061 98440 31470 80903 10295 20260 30073 40078 57028 70544 82237 333 56299 82815 88279
AAXX 11061 98444 32468 50602 10308 20263 30054 40073 58028 82232 333 56999 82818 83360 85070
AAXX 11061 98526 32575 81202 10280 20259 40080 57023 8327/ 333 56999 83820 88358
AAXX 11061 98531 31570 71701 10298 20254 30070 40074 58029 70544 83938 333 56499 81919 82820 86275
AAXX 11061 98536 31470 60401 10274 20236 39879 40078 58023 70544 83270 222// 20000 333 56999 83818 85357
AAXX 11061 98543 32480 61402 10288 20265 30065 40076 57018 83208 333 56399 83818 85272 98336 32470 80403 10275 20261 30083 40088 57017 8227/ 333 56199 82818 88358
AAXX 11061 98550 32460 61602 10302 20248 40071 57022 81268 333 56999 81818 86273
AAXX 11061 98618 11470 81802 10291 20257 40065 58016 60041 78062 8497/ 333 56399 81917 84819 88458
AAXX 11061 98630 32575 30000 10316 20250 40127 58009 82201 222// 20000 333 56999 82820
AAXX 11061 98637 NIL
AAXX 11061 98646 32560 30402 10296 20270 30068 40096 52020 82201 333 56999 82820
AAXX 11061 98653 31470 50402 10330 20259 30029 40074 57013 70544 82272 333 56199 82818 83358
AAXX 11061 98741 31470 20000 10322 20272 40061 57018 70544 82900 333 56199 82917
AAXX 11061 98747 31460 23602 10322 20236 39860 40063 57034 70544 81200 333 56999 81818
AAXX 11061 98753 31468 30803 10326 20262 40077 57021 70544 82901 333 56999 82915 84079
AAXX 11061 98755 32575 20903 10298 20262 40077 58017 81201 333 56999 81820
AAXX 11061 98836 31462 21602 10325 20259 40077 57027 70544 82370 333 56999 82918
AAXX 11064 61017 32960 50000 10068 20023 39778 40199 80002 333 05300 20045 50254 55093 58000 85080
AAXX 11064 61024 31956 31006 10117 20014 39594 40171 7060/ 80002 333 08000 20115 51391 55/// 58016 83080
AAXX 11064 61036 31914 70802 10192 21002 39884 40123 7062/ 80008 333 01700 20189 51201 51154 55054 58003 87280
AAXX 11064 61043 31958 70610 10177 20006 39695 40138 7072/ 80008 333 0//00 20174 51241 5///4 55056 58009 87280
AAXX 11064 61045 31903 70606 10158 20004 39659 40160 70644 80008 333 00600 20158 5//// 51044 55060 58016 87280
AAXX 11064 61049 31956 70000 10146 20056 39832 40156 7062/ 80008 333 01200 20140 51111 50974 55053 58013 87280
AAXX 11064 61052 31908 70604 10190 21021 39877 40134 70622 80008 333 01500 20185 51051 55071 58004 87280
AAXX 11064 61075 31920 71004 10190 20033 39824 40135 7062/ 80008 333 01800 20190 50711 50714 55000 58010 87280
AAXX 11064 61080 31903 71008 10176 20007 39724 40147 7064/ 80008 333 01100 20175 51141 51064 55000 58007 87280
AAXX 11064 61090 31906 70608 10178 21011 39637 40150 70644 80008 333 01700 20175 51241 51144 55029 58003 87280
AAXX 11064 61091 NIL
AAXX 11064 61096 31906 70404 10160 20020 39778 40163 70622 80008 333 01500 20159 51191 50864 55067 58011 87280
AAXX 11064 61099 31910 70404 10180 20031 39892 40122 7062/ 80008 333 01500 20165 50881 55033 58011 87280
AAXX 11064 94210 35/// /2905 10323 30062 40067 57011
AAXX 11064 94289 46/// /3512 10293 30036 40043 57020 90615
AAXX 11064 94379 46/// /3615 10273 30032 40041 55015 90626
AAXX 11064 95287 41/98 33617 10300 20258 3//// 4//// 70222 81908
AAXX 11064 95290 41/98 63617 10292 20265 3//// 4//// 70222 80026
AAXX 11064 61091 31901 70000 10165 20054 39708 40168 7064/ 80008 333 01200 20158 50641 51274 59004 87280
AAXX 11064 94995 46/// /0515 10225 20203 30047 40055
AAXX 11064 94997 46/// ///// 10031 30052 40067 5////
AAXX 11064 89614 46/// /2604 11027 29056 38906 4//// 5//// 333 90700 91105
BBXX 44040 11061 99410 70736 46/// /3005 10013 21082 40339 90619 22200 1//00 70001 333 91207 555 11051 22062
AAXX 11064 94290 46/// /3616 10296 30032 40041 58022 90624
AAXX 11064 94290 46/// /3616 10296 30032 40041 58022 90624
AAXX 11064 94995 46/// /0515 10225 20203 30047 40055
AAXX 11064 94997 46/// ///// 10031 30052 40067 5////
AAXX 11064 61202 NIL
AAXX 11064 61214 NIL
AAXX 11064 61223 NIL
AAXX 11064 61226 31940 00406 10190 20017 39854 40150 70600 333 01600 20187 51154 55057 58014
AAXX 11064 61230 32960 21602 10151 21045 39827 40096 80002 333 0//00 20144 50876 55094 58000 82075
AAXX 11064 61233 31959 50806 10175 21047 3//// 4//// 70622 80002 333 00700 20175 50604 55/// 5//// 85075
AAXX 11064 61235 31956 03602 10220 20036 3//// 4//// 70600 333 02400 20220 51504 55064 5////
AAXX 11064 61240 31920 70808 10205 21051 39809 40134 70622 80002 333 01700 20195 51064 55090 58016 87075
AAXX 11064 61250 32960 20000 10175 20067 3//// 4//// 80002 333 01600 20175 51334 55051 5//// 82075
AAXX 11064 61257 31956 01204 10185 21014 30049 40142 70600 333 01700 20185 50314 55093 58003
AAXX 11064 61265 31958 00806 10165 20019 39815 40123 70600 333 01400 20165 50950 55092 58014
AAXX 11064 61270 32960 00000 10200 20050 3//// 4//// 333 01700 20195 50794 55091 5////
AAXX 11064 61272 32960 00404 10191 20055 39791 40117 333 01600 20180 5//// 55093 58001
AAXX 11064 61277 31958 20000 10175 20040 39792 40111 70600 80002 333 01400 20168 50571 55094 58000 82075
AAXX 11064 61285 31959 60000 10190 20103 39954 40104 70611 80002 333 01200 20188 50904 55093 58003 86075
AAXX 11064 61291 31958 00606 10200 20007 39693 40102 70600 333 00900 20158 50981 55091 58004
AAXX 11064 61293 31958 40604 10175 20067 3//// 4//// 70611 80002 333 01400 20173 50560 55101 5//// 84075
AAXX 11064 61296 32960 60000 10160 20111 3//// 4//// 80002 333 01100 20158 50580 55091 5//// 86075
AAXX 11064 61297 31958 60404 10185 20068 3//// 4//// 70422 80002 333 01300 20175 50881 55099 5//// 86075
AAXX 11064 89614 46/// /2604 11027 29056 38906 4//// 5//// 333 90700 91105
BBXX 44056 11061 99362 70757 46/// ///// 1//// 90550 22200 00124 10603 20603 70013
BBXX CFO383 11064 99439 70602 47598 /3220 10049 2002/ 40192 5//// 700// 8//// 22200 00091 10704 2//// 70020 80037 333 91026
BBXX DDZK2 11064 99448 11523 41598 73118 10030 21007 40035 56035 70277 8442/ 22255 04040 2//03 320// 4//03 5//// 80015
BBXX DCTA2 11060 99335 11719 41/98 70310 10177 20104 40215 52015 70311 8//// 22225 04190 2//04 327// 4//06 5//// 80135
AAXX 11061 55228 32980 00000 11062 21319 36031 57009 333 00251 21202
AAXX 11061 55578 32980 01102 10060 21273 36361 57010 333 00351 21111
AAXX 11061 55664 32980 01603 10022 21263 35996 57013 333 00352 21147
AAXX 11061 55773 32970 03605 10049 21254 35980 57013 333 05104 21112 91118 91502
AAXX 11061 56116 11680 72002 10002 21078 36315 57017 69911 70087 86902 333 00353 21043
AAXX 11061 56137 32680 70901 10071 21144 36757 57029 82102 333 00252 21026
AAXX 11061 56172 11980 72904 10033 21033 37321 57035 69901 70070 80002 333 05352 21024
AAXX 11061 56247 32880 73201 10098 21065 37399 57033 86402 333 00356 20011
AAXX 11061 56312 32580 81102 10070 21078 37063 57019 889// 333 00253 20004
AAXX 11061 56462 32580 71404 10042 21048 37108 57039 85402 333 05404 21032
AAXX 11061 56651 32680 62506 10135 21061 37624 57033 86400 333 05151 20012
AAXX 11061 56691 11363 81602 10001 21005 37785 57023 69901 76066 887// 333 05603 21034 93427
AAXX 11061 56985 11520 80401 10070 20048 38746 40234 57027 69961 76060 885// 333 05400 20055
AAXX 11061 57633 32567 81801 10072 21017 39488 40295 57035 888// 333 05601 21005
AAXX 11061 57902 32668 70702 10084 20018 38666 40245 57031 875// 333 05604 20017
AAXX 11064 06610 31460 80000 10049 20035 39596 40187 52003 71022 888// 333 20045 31003 55013 55300 20000 70000 82817 86634 90768 93100 91110 91207
AAXX 11061 98132 11460 80406 10215 20205 40178 57030 60041 76064 8557/ 333 56199 85616 88357
AAXX 11061 98133 11430 80409 10/// 20/// 40110 5//// 60061 76166 8662/ 222// 20703 333 56199 86718 88458
AAXX 11061 98222 31575 70406 10268 20226 40086 57015 70544 81236 333 56999 81820 86078
AAXX 11061 98233 11570 83603 10250 20230 40089 57027 60011 76064 8357/ 333 56199 83620 88358
AAXX 11061 98324 31465 62903 10302 20258 40067 58023 70544 84261 333 56999 84816
AAXX 11061 98327 31668 81403 10290 20225 39904 40078 57031 70544 8427/ 333 56999 84842 88360
AAXX 11061 98334 32480 70000 10280 20254 39884 40085 57022 83270 333 56999 83818 86358
AAXX 11061 98425 31560 60402 10292 20242 40070 57029 70544 84670 333 56999 84620 86358
AAXX 11061 98426 31570 70805 10294 20229 40078 57025 70544 84208 333 56999 84820 87280
AAXX 11061 98427 11470 80000 10270 20243 39895 40073 57019 60061 72186 8327/ 333 56999 83818 88357
AAXX 11061 98428 31459 83605 10295 20260 40071 53027 70544 82277 333 56999 82819 85359 88275
AAXX 11061 98432 31568 70000 10310 20260 40073 57028 70544 82270 333 56199 82820 87356
AAXX 11061 98433 11462 70603 10228 20222 39361 40082 57021 69931 71544 83270 333 56199 83812 87357
AAXX 11061 98434 11465 73201 10266 20261 30075 40083 57017 69951 71588 84870 333 56199 84817 87358
AAXX 11061 98435 11470 70402 10276 20243 40084 5//// 60011 70286 84270 333 56199 84818 87358
AAXX 11061 98442 NIL
AAXX 11061 98446 32480 71202 10294 20276 30044 40090 57015 84208 333 56399 84818 87270
AAXX 11061 98447 32480 72202 10280 20254 39828 40090 5//// 82208 333 56999 82818 86270
AAXX 11061 98538 31468 40204 10310 20258 30072 40077 57018 70544 82206 333 56999 82811 84072
AAXX 11061 98546 32575 80202 10300 20262 30070 40078 57019 83267 333 56999 83820 88275
AAXX 11061 98548 32478 42502 10322 20254 30069 40075 58017 81208 333 56199 81816 84272
AAXX 11061 98553 31468 51103 10296 20262 30071 40075 57019 70544 82202 333 56999 82818 84075
AAXX 11061 98558 31470 50901 10295 20273 40082 58025 70544 82302 222// 20500 333 56999 82915 83074
AAXX 11061 98642 32465 20703 10300 20247 30060 40069 57024 81101 333 56999 81815
AAXX 11061 98644 31465 61504 10325 20258 30065 40074 58024 70544 81238 333 56199 81817 86272
AAXX 11061 98648 31475 21802 10312 20276 30002 40084 57018 70544 82201 333 56299 82817
AAXX 11061 98746 31465 72703 10320 20255 40077 58030 70544 82276 333 56999 82818 84358 86075
AAXX 11061 98751 31475 70401 10317 20247 39391 40057 57029 70544 83260 333 56399 83815 84356
AAXX 11061 98752 31465 43302 10335 20228 40078 57025 70544 83901 333 56999 82916 83075
AAXX 11061 98851 31470 71203 10320 20252 39922 40070 57021 70544 82370 333 56399 82918 87358
AAXX 11064 06670 01256 83404 10044 20035 39671 40189 57004 60022 76065 8472/ 333 20044 32004 55000 55300 20000 69925 70041 82704 84706 87524 90768 93100 91107 91205
AAXX 11064 06700 31680 50501 10012 20004 39685 40191 55001 71141 85540 333 20003 31102 55039 55300 20004 70000 85645 90768 93100 91106 91204
AAXX 11064 06680 01901 02813 11051 21057 37478 47011 50000 60042 74474 333 21050 47094 55000 55300 20000 60005 70075 90768 93102 91135 91224
AAXX 11064 06990 01458 80000 10039 20031 39639 40195 57002 69912 70562 886// 333 20039 31004 55001 55300 20000 60005 70001 88719 91106 91204
AAXX 11064 06760 32984 03301 10039 21006 39740 40197 53001 333 20039 30000 55061 55300 20000 70000 90768 93100 91104 91203
AAXX 11064 06720 32980 01401 11020 21027 39616 40214 55003 333 21032 30106 55044 55300 20000 70000 90768 93100 91106 91204
AAXX 11061 55279 32780 52704 11066 21206 35704 54000 85100 333 00454 21161
AAXX 11061 55472 32980 02905 11048 21261 35737 57007 333 00353 21180
AAXX 11061 55696 32680 12701 10038 21144 36320 57023 81100 333 00151 21070
AAXX 11061 56079 11780 63602 11032 21092 36666 57021 69921 72270 85102 333 05200 21095
AAXX 11061 56106 32780 62906 11001 21223 36195 57009 84102 333 00454 21102
AAXX 11061 56257 32680 62204 10027 21127 36244 57022 86900 333 00052 21051
AAXX 11061 56374 32580 81105 11025 21092 37416 57028 884// 333 05552 21071
AAXX 11061 56385 11/01 90000 11080 21084 36998 57022 69911 77074 333 05500 21112
AAXX 11061 56954 11580 80401 10160 20137 40170 57020 69911 70080 884// 333 00258 20136
AAXX 11061 56966 32870 80902 10156 20058 40217 57034 885// 333 05251 20120
AAXX 11061 57237 32975 71401 10079 21074 40297 57035 8704/ 333 21023
AAXX 11061 57306 32970 13601 10109 21018 40285 57035 81040 333 20039
AAXX 11061 57604 32761 83602 10075 20061 40287 57029 885// 333 20048
AAXX 11061 57707 11458 81101 10012 20003 38534 57026 69901 76066 887// 333 05600 21001
AAXX 11061 57832 32674 81601 10072 21034 39523 40287 57034 885// 333 05601 21014
BBXX CFO383 11064 99439 70602 47598 /3220 10049 2002/ 40192 5//// 700// 8//// 22200 00091 10704 2//// 70020 80037 333 91026
AAXX 11064 68916 16/// /1914 10157 20147 39878 40147 53008 60014 333 20137 91021 555 10188 20010 69945 91014
AAXX 1106/ 48969 NIL
AAXX 1106/ 48962 NIL
AAXX 1106/ 48990 NIL
AAXX 1106/ 48986 NIL
AAXX 1106/ 48995 NIL
AAXX 1106/ 48967 NIL
AAXX 1106/ 48992 NIL
AAXX 1106/ 48965 NIL
AAXX 1106/ 48985 NIL
AAXX 1106/ 48970 NIL
AAXX 1106/ 48991 NIL
AAXX 1106/ 48964 NIL
AAXX 1106/ 48997 NIL
AAXX 1106/ 48968 NIL
AAXX 1106/ 48973 NIL
AAXX 1106/ 48966 NIL
AAXX 1106/ 48983 NIL
AAXX 1106/ 48972 NIL
AAXX 1106/ 48998 NIL
AAXX 1106/ 48993 NIL
AAXX 1106/ 48971 NIL
AAXX 1106/ 48963 NIL
AAXX 1106/ 48987 NIL
AAXX 11064 71048 16/// /3111 11015 21073 60001 333 10051 21096 70000 555 32522 40211
AAXX 11064 71306 17424 83014 11100 21122 30042 40075 53003 60001 771// 333 11063 21107 70000 555 32726 40011
AAXX 11064 71406 17/// /3220 11082 21113 30128 40138 53007 69961 7//4/ 333 10022 21084 70037 555 32433 40202
AAXX 11064 71418 46/// /3121 11010 21045 30144 40177 53023 6///1 333 10064 21011 7//// 555 33235 40013
AAXX 11064 71354 16/// /3012 11026 21056 60001 333 7////
AAXX 11064 71981 16/// /2505 11051 21093 60001 333 10078 21054 70000 555 32728 40202
AAXX 11064 71982 16/// /2704 11075 21105 60001 333 10079 21081 70000 555 32232 40072
AAXX 11064 71986 16/// /3108 11022 21065 60001 333 10048 21093 70000 555 32432 40162
AAXX 11064 71990 16/// /2009 11183 21202 38544 40209 58003 60001 333 11131 21193 70009
AAXX 11061 01238 41475 51903 11056 21073 38844 49973 53010 70222 84640 333 21076 49012 91109
AAXX 11064 89016 46/89 /3509 11099 29062 39373 4//// 5////
AAXX 11064 89003 46/89 /3311 11099 29064 38958 4//// 5////
AAXX 11064 89507 46/89 /1307 11327 29063 36731 4//// 5////
AAXX 11061 45032 46/// /0004 10162 21031 30198 40215
AAXX 11061 45035 36/// /3504 10153 21018 30172 40215 54000
AAXX 11061 45039 36/// /0303 10163 20008 30195 40211 57001
AAXX 11061 45044 36/// /3404 10174 20011 30114 40208 57001
AAXX 11061 45032 46/// /0004 10162 21031 30198 40215
AAXX 11061 45035 36/// /3504 10153 21018 30172 40215 54000
AAXX 11061 45039 36/// /0303 10163 20008 30195 40211 57001
AAXX 11061 45044 36/// /3404 10174 20011 30114 40208 57001
AAXX 11064 68396 12680 30000 10214 20191 39434 48500 50001 69934 83500 333 20190 555 10255 20003 91013
AAXX 1106/ 89872 46/// ///// 11039 39737 4//// 5//// 90620
AAXX 1106/ 89869 46/// ///// 11046 39718 4//// 5//// 90630
AAXX 1106/ 89866 46/// ///// 11049 39667 4//// 5//// 90630
AAXX 1106/ 89329 46/// ///// 11109 38636 4//// 5//// 90620
AAXX 1106/ 89799 46/// ///// 11293 4//// 5//// 90620
AAXX 1106/ 89868 46/// ///// 10028 39736 4//// 5//// 90630
AAXX 1106/ 89327 46/// ///// 11046 39513 4//// 5//// 90630
AAXX 1106/ 89332 46/// ///// 11090 39137 4//// 5//// 90620
AAXX 1106/ 89332 46/// ///// 11079 4//// 5//// 90630
AAXX 1106/ 89769 46/// ///// 11049 39755 4//// 5//// 90630
AAXX 1106/ 89828 46/// ///// 11185 36429 4//// 5//// 90630
AAXX 1106/ 89108 46/// ///// 11229 36840 4//// 5//// 90620
AAXX 1106/ 89108 46/// ///// 11226 36841 4//// 5//// 90630
AAXX 1106/ 89879 46/// ///// 10000 39686 4//// 5//// 90620
AAXX 1106/ 89314 46/// ///// 11139 38099 4//// 5//// 90620
AAXX 1106/ 89314 46/// ///// 11139 38099 4//// 5//// 90630
AAXX 11063 63705 31550 33102 10199 20185 38835 48489 70500 81905
AAXX 11061 63330 32580 11306 10141 20067 37806 40279 81101 333 20085 58004 81820 81070
AAXX 11061 63331 31978 00101 10200 20100 38059 40240 705// 333 20120 58004
AAXX 11061 63332 32980 01802 10190 20130 38212 40103 333 20080 59002
AAXX 11061 63333 32980 02301 10146 20079 38186 40220 333 20076 58001
AAXX 11061 63334 NIL
AAXX 11061 63340 32880 23502 10165 20125 37947 40170 82030 333 20115 58000 82358
AAXX 11061 63402 31550 10000 10150 20128 38368 4//// 7101/ 81200 333 20098 58003 81828
AAXX 11061 63403 31060 61702 10168 20137 7102/ 83530 333 20132 81700 82624 85360
AAXX 11061 63450 NIL
AAXX 11061 63451 NIL
AAXX 11061 63453 31975 02701 10190 2//// 39091 7050/ 333 20105 59004
AAXX 11061 63460 32980 00000 10170 20083 333 20095
AAXX 11061 63471 33980 00000 10228 20098 38881 40145 333 20142 59001
AAXX 11061 63474 32980 00202 10140 20045 333 20050
AAXX 11061 63478 32980 00000 10256 20148 39805 40184 333 20180 59012
AAXX 11061 63500 NIL
AAXX 11061 63533 NIL
AAXX 11061
AAXX 11064 61017 32960 50000 10068 20023 39778 40199 80002 333 05300 20045 50254 55093 58000 85080
AAXX 11064 61024 31956 31006 10117 20014 39594 40171 7060/ 80002 333 08000 20115 51391 55/// 58016 83080
AAXX 11064 61036 31914 70802 10192 21002 39884 40123 7062/ 80008 333 01700 20189 51201 51154 55054 58003 87280
AAXX 11064 61043 31958 70610 10177 20006 39695 40138 7072/ 80008 333 0//00 20174 51241 5///4 55056 58009 87280
AAXX 11064 61045 31903 70606 10158 20004 39659 40160 70644 80008 333 00600 20158 5//// 51044 55060 58016 87280
AAXX 11064 61049 31956 70000 10146 20056 39832 40156 7062/ 80008 333 01200 20140 51111 50974 55053 58013 87280
AAXX 11064 61052 31908 70604 10190 21021 39877 40134 70622 80008 333 01500 20185 51051 55071 58004 87280
AAXX 11064 61075 31920 71004 10190 20033 39824 40135 7062/ 80008 333 01800 20190 50711 50714 55000 58010 87280
AAXX 11064 61080 31903 71008 10176 20007 39724 40147 7064/ 80008 333 01100 20175 51141 51064 55000 58007 87280
AAXX 11064 61090 31906 70608 10178 21011 39637 40150 70644 80008 333 01700 20175 51241 51144 55029 58003 87280
AAXX 11064 61091 NIL
AAXX 11064 61096 31906 70404 10160 20020 39778 40163 70622 80008 333 01500 20159 51191 50864 55067 58011 87280
AAXX 11064 61099 31910 70404 10180 20031 39892 40122 7062/ 80008 333 01500 20165 50881 55033 87280
AAXX 11064 82281 32970 00605 10263 20203 30017 40078 333 59004
AAXX 11064 82993 32970 00302 10226 20211 39954 40089 333 59019
AAXX 11064 03896 16/// ///// 10086 60022 333 20043 55018
AAXX 11061 63330 32580 11306 10141 20067 37806 40279 81101 333 20085 58004 81820 81070
AAXX 11061 63331 31978 00101 10200 20100 38059 40240 705// 333 20120 58004
AAXX 11061 63332 32980 01802 10190 20130 38212 40103 333 20080 59002
AAXX 11061 63333 32980 02301 10146 20079 38186 40220 333 20076 58001
AAXX 11061 63334 NIL
AAXX 11061 63340 32880 23502 10165 20125 37947 40170 82030 333 20115 58000 82358
AAXX 11061 63402 31550 10000 10150 20128 38368 4//// 7101/ 81200 333 20098 58003 81828
AAXX 11061 63403 31060 61702 10168 20137 7102/ 83530 333 20132 81700 82624 85360
AAXX 11061 63450 NIL
AAXX 11061 63451 NIL
AAXX 11061 63453 31975 02701 10190 2//// 39091 7050/ 333 20105 59004
AAXX 11061 63460 32980 00000 10170 20083 333 20095
AAXX 11061 63471 33980 00000 10228 20098 38881 40145 333 20142 59001
AAXX 11061 63474 32980 00202 10140 20045 333 20050
AAXX 11061 63478 32980 00000 10256 20148 39805 40184 333 20180 59012
AAXX 11061 63500 NIL
AAXX 11061 63533 NIL
BBXX 41053 11061 99185 70661 46/// /1104 10260 40107 90630 333 91205
BBXX 41053 11061 99185 70661 46/// /0805 10261 40108 90620 333 91207
BBXX 41053 11061 99185 70661 46/// /0705 10261 40109 90610 333 91206
BBXX 41052 11061 99183 70648 46/// /0706 10271 40097 90630 333 91208
BBXX 41052 11061 99183 70648 46/// /0706 10270 40097 90620 333 91207
BBXX 41052 11061 99183 70648 46/// /0706 10269 40099 90610 333 91207
BBXX 42085 11061 99179 70665 46/// /0504 10268 40101 90630 333 91205
BBXX 42085 11061 99179 70665 46/// /0504 10267 40100 90620 333 91205
BBXX 44024 11061 99423 70659 46/30 /3511 10036 40256 51032 90604 22200 00091 10606 70028 333 91215 555 11137 22145
BBXX WRAH 11064 99125 10434 41598 31213 10300 2//// 40150 52005 7//00 8111/ 22274 00279 20303 3//// 4//// 5//// 6//// 8//// ICE /////
BBXX WYX2079 11064 99596 71512 41497 80631 10039 2//// 40028 57/// 76162 8762/ 22200 0//// 20203 3//// 4//00 5//// 6//// 8//// ICE /////
BBXX WDA5598 11064 99585 71386 41598 73118 10050 2//// 40227 54000 70222 86501 22232 0//// 20201 327// 4//03 5//// 6//// 8//// ICE /////
BBXX WTD4576 11064 99572 71347 41598 81805 10022 2//// 40230 54000 70222 86507 22232 0//// 20000 3//// 4//00 5//// 6//// 8//// ICE /////
BBXX WDE2719 11064 99607 71514 41497 80211 1//// 2//// 40010 57/// 70222 8762/ 22200 05011 20101 327// 4//01 5//// 6//// 8//// ICE /////
BBXX WCQ6174 11064 99583 71375 41698 82707 10044 2//// 40227 52/// 70222 85502 22232 0//// 20101 323// 4//04 5//// 6//// 8//// ICE /////
BBXX WBN5978 11064 99516 71453 41597 82135 10106 2//// 40234 57/// 70222 84577 22273 0//// 20303 323// 4//06 5//// 6//// 8//// ICE /////
AAXX 11064 63862 32580 50000 10228 20178 38905 48517 85570 333 20200 50551 55020 55303 58003 85620
BBXX DDZK2 11064 99448 11523 41598 73118 10030 21007 40035 56035 70277 8442/ 22255 04040 2//03 320// 4//03 5//// 80015
BBXX DCTA2 11060 99335 11719 41/98 70310 10177 20104 40215 52015 70311 8//// 22225 04190 2//04 327// 4//06 5//// 80135
BBXX WQZ7791 11064 99469 70916 41/97 /0000 11177 2//// 40000 54000 70000 8//// 222// 0//// 2//00 3//// 4//// 5//// 6//// 8//// ICE /////
BBXX CFO383 11064 99439 70602 47598 /3220 10049 2002/ 40192 5//// 700// 8//// 22200 00091 10704 2//// 70020 80037 333 91026
BBXX 44056 11061 99362 70757 46/// ///// 1//// 90550 22200 00124 10603 20603 70013
BBXX 44040 11061 99410 70736 46/// /3005 10013 21082 40339 90619 22200 1//00 70001 333 91207 555 11051 22062
BBXX 44138 11061 99443 70536 46/// /2608 10103 40144 52011 22200 00090 10705 70023 333 91210
BBXX 44137 11061 99423 70620 46/// /3510 10081 40209 52010 22200 00126 10803 70017 333 91212
BBXX 46219 11061 99332 71199 46/// ///// 1//// 90628 22200 00133 11704 20502 329// 41703 70021
BBXX 44060 11061 99413 70721 46/// ///07 11001 40326 90630 22200 00112 333 91209 555 11072 22072
BBXX 44022 11061 99409 70737 46/// ///05 10009 21090 40334 90630 22200 00096 333 91207 555 11051 22051
BBXX 46238 11061 99334 71195 46/// ///// 1//// 90620 22200 00147 11703 20502 329// 41703 70017
BBXX 51205 11061 99210 71564 46/// ///// 1//// 90618 22200 00243 10806 20805 331// 41303 70029
BBXX 46239 11061 99363 71221 46/// ///// 1//// 90621 22200 00132 11705 20801 330// 41704 70023
BBXX V7HC6 11064 99273 70907 41/// /0421 10160 20108 40255 57004 700// 8//// 222// 00227 2//// 3//// 4//// 5//// 6//// 80130 ICE /////
BBXX 41113 11061 99284 70805 46/// ///// 1//// 90621 22200 00218 10702 20702 70008
BBXX 41114 11061 99276 70802 46/// ///// 1//// 90616 22200 00242 10603 20603 70013
BBXX 42361 11061 99276 70925 46/// ///13 10156 20061 40257 58011 90630 333 91215 555 11104 22112
BBXX 42362 11061 99278 70907 46/// /0411 10161 20072 40268 90630
BBXX 44100 11061 99363 70756 46/// ///// 1//// 90622 22200 00143 10604 20604 70018
BBXX 42099 11061 99273 70842 46/// ///// 1//// 90627 22200 00238 10704 20704 70022
BBXX 42364 11061 99291 70881 46/// /0411 10144 20067 40261 90630
BBXX 41112 11061 99307 70813 46/// ///// 1//// 90621 22200 00164 10704 20704 70019
BBXX 41110 11061 99341 70777 46/// ///// 1//// 90621 22200 00150 10503 20503 70013
BBXX WRAH 11064 99125 10434 41598 31213 10300 2//// 40150 52005 7//00 8111/ 22274 00279 20303 3//// 4//// 5//// 6//// 8//// ICE /////
BBXX WAAT 11064 99076 70845 41398 72610 10256 2024/ 40105 54000 70311 8723/ 22223 0//// 20202 322// 41004 5//// 6//// 80244 ICE /////
BBXX 62027 11064 99491 70022 46/// /2017 1//// 2//// 40136 57025 22200 00126 10402 322// 70011
BBXX UAST 11061 99691 10351 41/// /0607 11020 49990 56020 7//// 8//// 222// 20302
BBXX 62094 11064 99517 70067 46/// /2616 10094 20087 40052 57023 22200 00114 10505 70027 333 90710 91136
BBXX 62095 11064 99530 70159 46/// /2621 10078 20026 40018 56014 22200 00116 11317 70086 333 90710 91142
AAXX 11064 63729 12480 42403 10210 20183 38870 48/// 69904 81901 333 0//19 20173 50241 55050 55304 59001 81818 81920 84072
AAXX 11064 63791 32580 10605 10260 20178 39128 48516 81200 333 20184 50751 55092 55310 58002 81826
AAXX 11064 63801 01480 70000 10210 20197 39222 48538 60024 72999 8297/ 333 0//11 20201 50561 55089 55300 58011 60023 82618 81920 87358
AAXX 11064 63832 12480 63206 10210 20185 38828 48494 60014 83930 333 0//19 20195 50651 55043 55310 59005 83819 81920 84358
AAXX 11064 63881 12480 70000 10173 20151 38202 48/// 69904 8193/ 333 20144 50251 55014 55300 59005 81617 81819 87357
AAXX 11064 63887 12480 80000 10195 20179 38595 48514 60104 8587/ 333 20180 50561 55014 55300 58002 85817 87357
AAXX 11064 63894 12580 60115 10283 20252 30062 40122 60034 86900 333 0//12 20248 50031 55000 55300 58010 70025 86820 81921
AAXX 11064 63932 12580 70000 10194 20160 38312 48509 60024 8293/ 333 20143 50251 55009 55300 58002 82822 81923 86358
AAXX 11064 63971 12580 73005 10272 20246 39979 40108 60024 8293/ 333 0//19 20225 50701 55036 55300 58004 82822 81923 87358
AAXX 11064 63733 NIL
AAXX 11064 63756 NIL
AAXX 11064 63862 NIL
AAXX 11064 63866 NIL
AAXX 11064 63870 NIL
AAXX 11064 63962 NIL
AAXX 11061 47003 42580 21404 10004 21058 30191 40195 57010 82500
AAXX 11061 47005 11660 81402 11089 21128 38574 58003 69921 77173 8753/
AAXX 11061 47022 42475 13204 11010 21118 38804 58008 81500
AAXX 11061 47028 42967 00000 10032 21055 30136 40231 58016
AAXX 11061 47031 42570 31402 11042 21080 38916 57002 83500
AAXX 11061 47037 42970 00000 10030 21054 30133 40257 57006
AAXX 11061 47039 42960 00000 10011 21087 30051 40246 57021
AAXX 11061 47046 42969 02304 10054 21050 30164 40187 57024
AAXX 11061 47050 42965 00501 10015 21051 30210 40245 57017
AAXX 11061 47052 42565 82901 10021 21026 39894 40238 57021 885//
AAXX 11061 47060 42960 50000 10064 21010 30183 40242 58011 85030
AAXX 11061 47061 42980 03201 10064 21020 30174 40218 57011
AAXX 11061 47065 41560 71803 10042 20019 30197 40264 58005 71022 84501
AAXX 11061 47067 41560 82504 11001 21061 30144 40269 57027 71022 885//
AAXX 11061 47068 11570 62507 10071 20023 30201 40236 57010 69901 70162 86500
AAXX 11061 47070 42970 82003 10049 20005 30167 40255 57013 8803/
AAXX 11061 47075 42580 82303 10020 21037 39745 40178 57015 885//
AAXX 11061 47008 42570 20502 10018 21035 30135 40189 57008 82500
AAXX 11061 47014 42650 50000 11008 21104 39828 40236 58003 85500
AAXX 11061 47016 11570 10000 11018 21159 39337 40230 57017 69901 70172 81500
AAXX 11061 47020 42965 00000 10012 21100 39859 40242 58017
AAXX 11061 47025 42980 01803 10061 21036 30161 40190 57006
AAXX 11061 47035 42970 00000 10034 21078 30237 40246 57013
AAXX 11061 47041 42970 02705 10061 21064 30159 40186 57024
AAXX 11061 47055 42970 42303 10057 21053 30170 40216 57018 84050
AAXX 11061 47058 11960 42301 10063 21018 30202 40249 58020 69901 70272 82032
AAXX 11061 47069 11556 82302 10048 20033 30153 40254 58013 69901 76062 885//
AAXX 11064 61017 32960 50000 10068 20023 39778 40199 80002 333 05300 20045 50254 55093 58000 85080
AAXX 11064 61024 31956 31006 10117 20014 39594 40171 7060/ 80002 333 00800 20115 51391 55/// 58016 83080
AAXX 11064 61036 31914 70802 10192 21002 39884 40123 7062/ 80008 333 01700 20189 51201 51154 55054 58003 87280
AAXX 11064 61043 31958 70610 10177 20006 39695 40138 7072/ 80008 333 0//00 20174 51241 5///4 55056 58009 87280
AAXX 11064 61045 31903 70606 10158 20004 39659 40160 70644 80008 333 00600 20158 5//// 51044 55060 58016 87280
AAXX 11064 61049 31956 70000 10146 20056 39832 40156 7062/ 80008 333 01200 20140 51111 50974 55053 58013 87280
AAXX 11064 61052 31908 70604 10190 21021 39877 40134 70622 80008 333 01500 20185 51051 55071 58004 87280
AAXX 11064 61075 31920 71004 10190 20033 39824 40135 7062/ 80008 333 01800 20190 50711 50714 55000 58010 87280
AAXX 11064 61080 31903 71008 10176 20007 39724 40147 7064/ 80008 333 01100 20175 51141 51064 55000 58007 87280
AAXX 11064 61090 31906 70608 10178 21011 39637 40150 70644 80008 333 01700 20175 51241 51144 55029 58003 87280
AAXX 11064 61091 NIL
AAXX 11064 61096 31906 70404 10160 20020 39778 40163 70622 80008 333 01500 20159 51191 50864 55067 58011 87280
AAXX 11064 61099 31910 70404 10180 20031 39892 40122 7062/ 80008 333 01500 20165 50881 55033 87280
AAXX 11063 63674 32465 20000 10230 20160 39064 48513 82501 333 20156 59006 82618 555 10185
AAXX 11063 63726 31901 90000 10140 20140 38144 48500 74544 89/// 333 20123 59005 89/// 555 10140
AAXX 11063 63702 31930 40000 10195 20172 71000 83051 333 20146 83362 555 10180
AAXX 11063 63682 32580 30503 10220 20175 82901 333 20160 81824 81925 83080 555 10190
AAXX 11063 63680 12570 70000 10189 20166 38828 69904 82930 333 20160 58003 82821 81924 84362 555 10174
AAXX 11063 63630 32580 10205 10235 20156 80001 333 20175 81080 555 10186
AAXX 11063 63674 32465 20000 10230 20160 39064 48513 82501 333 20156 59006 82618 555 10185
AAXX 11063 63726 31901 90000 10140 20140 38144 48500 74544 89/// 333 20123 59005 89/// 555 10140
AAXX 11063 63702 31930 40000 10195 20172 71000 83051 333 20146 83362 555 10180
AAXX 11063 63682 32580 30503 10220 20175 82901 333 20160 81824 81925 83080 555 10190
AAXX 11063 63680 12570 70000 10189 20166 38828 69904 82930 333 20160 58003 82821 81924 84362 555 10174
AAXX 11063 63630 32580 10205 10235 20156 80001 333 20175 81080 555 10186
AAXX 11064 64700 31950 20408 10160 20030 39803 40146 70600 80002 333 01400 20155 51301 55091 58009 82075
AAXX 11064 64701 NIL
AAXX 11064 64702 NIL
AAXX 11064 64705 31958 03606 10130 20045 3//// 4//// 706// 90550 333 0//00 2//// 50614 55/// ///// 5////
AAXX 11064 64706 33960 20000 10177 20036 39646 40123 80002 333 01000 20175 51254 55097 58007 82075
AAXX 11064 64708 NIL
AAXX 11064 64709 31915 23610 10170 20029 3//// 4//// 706// 80002 333 0//00 20160 5//// 55/// 5//// 82075
AAXX 11064 64710 NIL
AAXX 11064 64713 NIL
AAXX 11064 64722 33960 10000 10160 20060 3//// 4//// 80002 90600 333 0//00 20125 50464 55/// 5//// 81075
AAXX 11064 64750 32960 50000 10165 20077 39711 40125 80002 90559 333 00900 20141 50551 55073 58013 85075
AAXX 11064 64751 33960 30406 10149 20030 3//// 4//// 80002 90550 333 0//00 20080 50673 55/// 5//// 83075
AAXX 11064 64753 NIL
AAXX 11064 64754 33960 50404 10166 20035 3//// 4//// 80002 90600 333 0//00 20140 50514 55/// 5//// 85075
AAXX 11064 64756 33962 40810 10168 20008 39525 4//// 80002 90600 333 0//00 20150 5//// 55/// 58003 84075
AAXX 11064 64757 NIL
AAXX 11064 64758 NIL
AAXX 11064 64761 NIL
AAXX 11064 63756 02580 70000 10216 20177 38870 48506 60044 8293/ 333 0//19 20180 50031 55042 55300 58008 82821 81922 87359
AAXX 11064 63962 12580 10212 20194 38952 48508 60074 82930 333 0//99 20188 50031 55038 55300 58025 82820 81922 86358
BBXX A8OZ4 11064 99359 10165 43698 42229 10190 20140 40230 54000 7//// 84/3/ 22274 00185 20303 322// 40 403 5//// 80160
AAXX 11064 71848 16/// ///// 11041 21075 60001 333 10081 21045 70000
AAXX 11064 71495 16/// /1403 11045 21086 60001 333 10067 21072 70000 555 32528 40172
AAXX 11064 71565 17/// /2701 11090 21101 69961 7//4/ 333 10030 21151 70012 555 33317 40201
AAXX 11064 71566 16/// /2103 11037 21076 60001 333 10049 21065 70007 555 33227 40191
AAXX 11064 71567 16/// /2709 11029 21063 60001 333 11012 21070 70000
AAXX 11064 71793 16/// ///// 11087 21103 60001 333 10080 21109 70000
AAXX 11064 71974 46/// /1309 11281 21305 30068 40112 56010 6///1 333 11276 21325 7////
AAXX 11064 71012 16/// /2709 11024 21068 60001 333 10052 21073 70000 555 32928 40232
AAXX 11064 71013 16/// ///// 11052 21071 60001 333 10071 21084 70000
AAXX 11064 71060 16/// /2901 11037 21065 38600 40169 51014 60001 333 10061 21052 70000 555 32818 40141
AAXX 11064 71073 16/// /1802 11042 21083 60001 333 10049 21061 70000 555 32224 40111
AAXX 11064 71399 16/// ///// 11038 21076 60001 333 10067 21098 70000
BBXX 46246 11061 99500 71451 46/// ///// 1//// 90629 22200 00076 11305 20604 328// 41302 70024
BBXX 46246 11061 99500 71451 46/// ///// 1//// 90559 22200 00076 11305 20704 328// 41303 70023
BBXX 46243 11061 99462 71241 46/// ///// 1//// 90629 22200 00084 11703 21002 327// 41703 70017
BBXX 46241 11061 99330 71173 46/// ///// 1//// 90611 22200 00148 11801 21001 326// 41801 70006
AAXX 11064 60318 32556 62609 10163 20080 40191 58005 86200 333 20139 86820
BBXX 46216 11061 99343 71198 46/// ///// 1//// 90627 22200 00145 11702 21001 327// 41701 70008
BBXX 46223 11061 99335 71178 46/// ///// 1//// 90630 22200 00157 11702 20401 324// 41701 70009
BBXX 46231 11061 99327 71174 46/// ///// 1//// 90624 22200 00157 11802 21001 326// 41802 70010
BBXX 46222 11061 99336 71183 46/// ///// 1//// 90626 22200 00157 11702 20402 327// 41701 70009
BBXX 46242 11061 99332 71174 46/// ///// 1//// 90628 22200 00153 11802 21001 323// 41801 70009
BBXX 44099 11061 99369 70757 46/// ///// 1//// 90622 22200 00132 10502 20502 70012
BBXX 44039 11061 99411 70727 46/// /3309 10016 21074 40338 90630 22200 00107 10301 70005 333 91213
AAXX 11061 02981 12499 13107 10028 20004 39944 49954 52023 60012 700// 81/// 333 10040 20028 3////
AAXX 11061 02924 11266 83001 11005 21005 39697 49893 52025 60104 785// 88/// 333 10002 21005 3/101 4/020
AAXX 11061 02849 11378 71102 11045 21054 39643 49919 57003 60024 785// 87/// 333 11043 21052 3//// 4/012
AAXX 11061 02935 11270 82904 10001 20000 39710 49881 52027 60092 783// 88/// 333 10002 21001 3/101 4/015
AAXX 11064 97372 32460 53106 10310 20269 39955 40075 57016 84201 333 56000 84818
BBXX 63106 11064 99610 10017 46/// /1713 10058 49949 57025 22200
BBXX 63113 11064 99610 10017 46/// /1814 10062 20004 49947 57025 22200 10806 70029
BBXX 62304 11064 99511 10018 46/96 /16// 10080 20058 40139 56013 22200 00120 10701 70004
BBXX 62107 11064 99501 70061 46/// /2129 10099 20072 40093 56028 22200 00121 10703 70016 333 90710 91134
BBXX 62094 11064 99517 70067 46/// /2616 10094 20087 40052 57023 22200 00114 10505 70027
AAXX 11063 63661 32980 03205 10194 20119 48533 333 20094 59003
AAXX 11063 63695 32982 00000 10213 20119 333 20105
BBXX A8IX9 11064 99108 11109 41697 63545 10265 20219 40090 58005 70322 86728 22212 00/// 20714 305// 41014 80232
BBXX ELZU8 11063 99015 11044 41498 70111 10255 20220 40100 56010 70382 85128 22200 00/// 20102 303// 40406 80230
BBXX S6JT 11064 99457 11516 41698 73415 11005 21020 49990 52010 71822 8777/ 22215 04020 20802 309// 41002 81010
BBXX VRGL4 11064 99090 10690 41697 60214 10278 20253 40109 51/// 70211 84441 22224 00290 20402 302// 40402 80260
BBXX DDDI2 11064 99125 30704 41698 51114 10280 20243 40105 50000 70311 81278 22254 04290 20202 315// 40705 80253
BBXX DDGK2 11064 99124 10735 41996 00509 10295 20248 40110 50005 70022 80000 22235 00290 29901 80260
BBXX VRBQ6 11064 99321 11565 41598 81909 10210 20164 40179 57030 75252 8852/ 22214 00227 20301 312// 40602 80180
BBXX A80K4 11063 99130 10644 41597 40217 10280 20239 40040 54000 70222 83117 22274 00/// 2//// 80250
BBXX DDZF2 11064 99143 10534 41497 50527 10255 20220 40165 53015 70211 82268 22225 00255 20303 80230
BBXX 9VDD2 11064 99521 71765 41497 52328 10035 21030 49930 53010 70222 852// 22263 06005 20605 328// 40908 80010
BBXX VRGM8 11064 99058 10864 41397 21506 10334 20247 40106 51003 70100 82162 22264 00292 20201 312// 40201 80272
BBXX ZQDI9 11060 99117 10730 41597 50306 10325 20255 40156 54000 70200 85200 22234 00291 20201 303// 40202 80275
AAXX 11064 91772 31498 50000 10271 20226 4//// 60001 70211 82202 333 5569/ 82817 84080
AAXX 11064 91776 11498 51008 1//// 2//// 4//// 60021 70288 8323/ 333 5629/ 83817 85361
AAXX 11064 91779 31498 30000 10266 20236 40106 53006 60001 70200 82201 333 569/9 82816
AAXX 11064 91784 11498 70910 10262 20237 40107 53006 60011 78028 85808 333 562/9 83817 85635 87277
AAXX 11064 91792 31498 71405 10259 20214 40121 53007 60001 70322 8127/ 333 5639/ 81816 87362
AAXX 11064 89646 46/// ///10 11196 29070 37511 4//// 5////
AAXX 11064 89648 46/// /2110 11231 29070 37082 4//// 5////
AAXX 11064 89659 46/// /2705 11175 29059 37573 4//// 5////
AAXX 11064 89661 46/// /0405 11076 29085 39133 4//// 5////
AAXX 11064 89662 42980 00706 11003 21101 39667 49770 52006 222 ICE 98015 333 10012
AAXX 11064 89666 46/// /1717 11060 29092 39589 4//// 5////
AAXX 11064 16033 12970 00000 11012 21036 38786 48489 54000 60002 333 21014 43006 55/// 2//// 92822
BBXX MINUK04 1106/ 99533 10032 46/// ///// 10083 4//// 52001
BBXX MINFR00 1106/ 99425 70285 46/// ///// 10118 40291 52016
BBXX A8OZ4 11064 99359 10165 43698 42229 10190 20140 40230 54000 7//// 84/3/ 22274 00185 20303 322// 40403 5//// 80160
BBXX ONDE 11063 99362 11411 41997 12712 10140 20012 40130 54000 7//00 81/8/ 22200 00170 20202 327// 4//// 5//// 6//// 80080 ICE /////
BBXX 46214 11061 99379 71235 46/// ///// 1//// 90627 22200 00113 11505 20402 329// 41504 70024
BBXX 46221 11061 99339 71186 46/// ///// 1//// 90615 22200 00151 11802 20501 323// 41801 70009
AAXX 11064 71409 16/// ///// 11042 21066 60001 333 10085 21071 70000
AAXX 11064 71102 16/// ///// 11063 21084 60001 333 11013 21092 70000
AAXX 11064 71105 16/// ///// 11061 21083 60001 333 10064 21061 70000
AAXX 11064 71051 46/// ///// 11079 21096 6///1 333 7////
AAXX 11064 71057 16/// ///// 11060 21091 60001 333 10088 21081 70000
AAXX 11064 71070 46/// ///// 11026 21058 6///1 333 7////
AAXX 11064 71089 16/// ///// 11012 21066 60001 333 10026 21095 70000
AAXX 11064 71502 16/// /1410 11143 21151 30080 40096 58022 60001 333 7////
AAXX 11064 71517 16/// /3010 11020 21073 60001 333 10115 21027 70000 555 32740 40093
AAXX 11064 71518 16/// /3006 11044 21064 60001 333 10074 21044 70000 555 32439 40123
AAXX 11064 71519 16/// /1802 11066 21069 60001 333 10081 21073 70000 555 32324 40171
AAXX 11064 71520 16/// /1402 11324 21355 39524 40240 53007 60001 333 11177 21341 70000
AAXX 11064 71521 16/// ///// 11306 21348 60001 333 11159 21309 70000
AAXX 11064 71522 46/// /3203 11230 21260 39757 40272 51009 6///1 333 11129 21243 70000
AAXX 11064 71523 16/// ///// 11182 21199 39863 40256 51006 60001 333 11123 21211 70000
AAXX 11064 71528 16/// /3405 11026 21073 60001 333 10098 21053 70000 555 32637 40103
AAXX 11064 71789 16/// ///// 11044 21075 60001 333 10092 21045 70000
AAXX 11064 71791 16/// /2711 11038 21072 60001 333 11019 21104 70000
AAXX 11064 71794 16/// ///// 11031 21069 60001 333 10031 21095 70000
AAXX 11064 71795 16/// ///// 11027 21054 60001 333 7////
AAXX 11064 71796 16/// ///// 11010 21063 60001 333 10061 21114 7////
AAXX 11064 71797 16/// ///// 11051 21076 60001 333 11017 21085 70000
AAXX 11064 71841 16/// /0000 11140 21170 39763 40175 56013 60001 333 11110 21221 70000
AAXX 11064 71006 16/// /2808 11021 21060 60001 333 10057 21067 70000 555 33025 40221
AAXX 11064 71007 16/// ///// 11050 21079 60001 333 10096 21050 7////
AAXX 11064 71008 16/// /2904 11067 21091 60001 333 10043 21084 70000 555 32434 40143
AAXX 11064 71009 16/// /0000 11073 21083 60001 333 10067 21096 70000 555 32622 40201
AAXX 11064 71035 16/// ///// 11073 21089 60001 333 10070 21082 70000
AAXX 11064 71383 16/// ///// 11256 21286 39604 40246 51006 60001 333 11119 21256 70000
AAXX 11064 71433 46/// /2415 11012 21037 39969 40204 58010 6///1 333 11010 21061 7//// 555 33032 40082
AAXX 11064 71841 16/// /0000 11140 21170 39763 40175 56013 60001 333 11110 21221 70000
AAXX 11064 71433 46/// /2415 11012 21037 39969 40204 58010 6///1 333 11010 21061 7//// 555 33032 40082
AAXX 11064 17202 12970 02104 11077 21091 39272 40358 52014 60002 333 21094 3/111 43011 70005
AAXX 11064 17042 12970 00903 10066 21014 30239 40280 57003 60002 333 20047 31004 55001 70005 92438
AAXX 11061 98336 32470 80403 10275 20261 30083 40088 57017 8227/ 333 56199 82818 88358
AAXX 11064 68926 11155 82707 10135 20115 39942 40123 53011 60014 72122 885// 333 20123 91018 555 10254 20014 60145 91012
AAXX 11064 89610 46/// /0404 11009 39592 4//// 5//// 333 90700 91106
AAXX 11064 89610 46/// /0404 11009 39592 4//// 5//// 333 90700 91106
AAXX 11064 89610 46/// /0404 11009 39592 4//// 5//// 333 90700 91106
AAXX 11064 03784 46/// /2109 10060 20027 30114 40117 57018 90550 333 20007
AAXX 11064 03002 17570 /2014 10059 20043 39895 49913 56037 60012 723// 90550 333 20008 3/101 70020 81/22 86/45 90710 91126
BBXX WKDY 11063 99379 70598 41498 72613 10200 20185 40219 52007 72582 86872 22224 00211 20305 320// 40406 5//// 6//// 80190 ICE /////
BBXX 46221 11061 99339 71186 46/// ///// 1//// 90615 22200 00151 11802 20501 323// 41801 70009
BBXX 46214 11061 99379 71235 46/// ///// 1//// 90627 22200 00113 11505 20402 329// 41504 70024
BBXX 9VDD2 11064 99521 71765 41497 52328 10035 21030 49930 53010 70222 852// 22263 06005 20605 328// 40908 80010
BBXX WKDY 11063 99379 70598 41498 72613 10200 20185 40219 52007 72582 86872 22224 00211 20305 320// 40406 5//// 6//// 80190 ICE /////
BBXX 44099 11061 99369 70757 46/// ///// 1//// 90622 22200 00132 10502 20502 70012
BBXX 44039 11061 99411 70727 46/// /3309 10016 21074 40338 90630 22200 00107 10301 70005 333 91213
BBXX 46231 11061 99327 71174 46/// ///// 1//// 90624 22200 00157 11802 21001 326// 41802 70010
BBXX 46223 11061 99335 71178 46/// ///// 1//// 90630 22200 00157 11702 20401 324// 41701 70009
BBXX 46242 11061 99332 71174 46/// ///// 1//// 90628 22200 00153 11802 21001 323// 41801 70009
BBXX 46222 11061 99336 71183 46/// ///// 1//// 90626 22200 00157 11702 20402 327// 41701 70009
BBXX 46216 11061 99343 71198 46/// ///// 1//// 90627 22200 00145 11702 21001 327// 41701 70008
BBXX 46241 11061 99330 71173 46/// ///// 1//// 90611 22200 00148 11801 21001 326// 41801 70006
BBXX 46243 11061 99462 71241 46/// ///// 1//// 90629 22200 00084 11703 21002 327// 41703 70017
BBXX 46246 11061 99500 71451 46/// ///// 1//// 90559 22200 00076 11305 20704 328// 41303 70023
BBXX 46246 11061 99500 71451 46/// ///// 1//// 90629 22200 00076 11305 20604 328// 41302 70024
BBXX WDE8265 11063 99412 70654 41398 83324 10080 2004/ 40246 52050 70222 889// 22265 0//// 20202 333// 40504 5//// 6//// 80060 ICE /////
BBXX WBN5978 11064 99516 71453 41597 82135 10106 2//// 40234 57/// 70222 84577 22273 0//// 20303 323// 4//06 5//// 6//// 8//// ICE /////
BBXX WDA5598 11064 99585 71386 41598 73118 10050 2//// 40227 54000 70222 86501 22232 0//// 20201 327// 4//03 5//// 6//// 8//// ICE /////
BBXX WCQ6174 11064 99583 71375 41698 82707 10044 2//// 40227 52/// 70222 85502 22232 0//// 20101 323// 4//04 5//// 6//// 8//// ICE /////
BBXX WDE2719 11064 99607 71514 41497 80211 1//// 2//// 40010 57/// 70222 8762/ 22200 05011 20101 327// 4//01 5//// 6//// 8//// ICE /////
BBXX WYX2079 11064 99596 71512 41497 80631 10039 2//// 40028 57/// 76162 8762/ 22200 0//// 20203 3//// 4//00 5//// 6//// 8//// ICE /////
BBXX WTD4576 11064 99572 71347 41598 81805 10022 2//// 40230 54000 70222 86507 22232 0//// 20000 3//// 4//00 5//// 6//// 8//// ICE /////
BBXX 44024 11061 99423 70659 46/30 /3511 10036 40256 51032 90604 22200 00091 10606 70028 333 91215 555 11137 22145
BBXX 42085 11061 99179 70665 46/// /0504 10267 40100 90620 333 91205
BBXX 42085 11061 99179 70665 46/// /0504 10268 40101 90630 333 91205
BBXX 41052 11061 99183 70648 46/// /0706 10269 40099 90610 333 91207
BBXX 41053 11061 99185 70661 46/// /0705 10261 40109 90610 333 91206
BBXX 41053 11061 99185 70661 46/// /1104 10260 40107 90630 333 91205
BBXX 41053 11061 99185 70661 46/// /0805 10261 40108 90620 333 91207
BBXX 41052 11061 99183 70648 46/// /0706 10270 40097 90620 333 91207
BBXX 41052 11061 99183 70648 46/// /0706 10271 40097 90630 333 91208
BBXX SHIP 11064 99321 11565 41598 81909 10210 20164 40179 57030 75252 8852/ 22214 00227 20301 312// 40602 80180
BBXX S6JT 11064 99457 11516 41698 73415 11005 21020 49990 52010 71822 8777/ 22215 04020 20802 309// 41002 81010
BBXX DDGK2 11064 99124 10735 41996 00509 10295 20248 40110 50005 70022 80000 22235 00290 29901 80260
BBXX ZQDI9 11060 99117 10730 41597 50306 10325 20255 40156 54000 70200 85200 22234 00291 20201 303// 40202 80275
BBXX VRGM8 11064 99058 10864 41397 21506 10334 20247 40106 51003 70100 82162 22264 00292 20201 312// 40201 80272
BBXX A8IX9 11064 99108 11109 41697 63545 10265 20219 40090 58005 70322 86728 22212 00/// 20714 305// 41014 80232
BBXX A8OZ4 11064 99359 10165 43698 42229 10190 20140 40230 54000 7//// 84/3/ 22274 00185 20303 322// 40403 5//// 80160
BBXX MINUK04 1106/ 99533 10032 46/// ///// 10083 4//// 52001
BBXX MINFR00 1106/ 99425 70285 46/// ///// 10118 40291 52016
BBXX 66022 11061 99541 10142 46/// /2412 10032 30100 22200 00046
BBXX A8OZ4 11064 99359 10165 43698 42229 10190 20140 40230 54000 7//// 84/3/ 22274 00185 20303 322// 40 403 5//// 80160
BBXX VRGL4 11064 99090 10690 41697 60214 10278 20253 40109 51/// 70211 84441 22224 00290 20402 302// 40402 80260
BBXX DDZF2 11064 99143 10534 41497 50527 10255 20220 40165 53015 70211 82268 22225 00255 20303 80230
BBXX A80K4 11063 99130 10644 41597 40217 10280 20239 40040 54000 70222 83117 22274 00/// 2//// 80250
BBXX DDDI2 11064 99125 30704 41698 51114 10280 20243 40105 50000 70311 81278 22254 04290 20202 315// 40705 80253
BBXX ELZU8 11063 99015 11044 41498 70111 10255 20220 40100 56010 70382 85128 22200 00/// 20102 303// 40406 80230
BBXX MLJA8 11064 99021 31089 41697 70625 10290 20232 40118 54000 70311 84378 22263 00310 2//// 300// 40000 5//// 80250
BBXX JPAT 11064 99112 30852 41498 22407 10286 20221 40087 57011 70200 82202 22200 00290 10804 20401 319// 41003 85239
BBXX VRDU8 11063 99158 31083 41/98 13010 10290 20248 40105 54000 70200 811// 22244 04270 20402 80260
BBXX MINFR03 1106/ 99286 30360 46/// ///// 10243 40122 52020
BBXX AMOUK17 11064 99327 30573 46/// ///// 10216 20194 30154 40165 52004 90550
BBXX AMOUK01 11064 99339 30184 46/// ///// 10175 20140 30147 40151 54002 90550
BBXX ZSAF 11064 99413 30089 41599 73213 10128 20092 40217 57016 70311 8355/ 22253 04137 2//// 328// 40503 5////
BBXX DCTA2 11060 99335 11719 41/98 70310 10177 20104 40215 52015 70311 8//// 22225 04190 2//04 327// 4//06 5//// 80135
BBXX DDZK2 11064 99448 11523 41598 73118 10030 21007 40035 56035 70277 8442/ 22255 04040 2//03 320// 4//03 5//// 80015
BBXX S6JT 11064 99457 11516 41698 73415 11005 21020 49990 52010 71822 8777/ 22215 04020 20802 309// 41002 81010
BBXX SHIP 11064 99321 11565 41598 81909 10210 20164 40179 57030 75252 8852/ 22214 00227 20301 312// 40602 80180
BBXX VRBQ6 11064 99321 11565 41598 81909 10210 20164 40179 57030 75252 8852/ 22214 00227 20301 312// 40602 80180
AAXX 11064 71055 46/// /2606 11094 21105 39787 40119 52004 6///1 333 11079 21139 7////
AAXX 11064 71065 16/// ///// 11019 21059 60001 333 11019 21102 70000
AAXX 11064 71360 16/// ///// 11023 21071 60001 333 10010 21128 70000
AAXX 11064 71380 16/// /3007 11008 21064 60001 333 10061 21120 70000 555 33331 40202
AAXX 11064 71540 16/// /3104 11047 21081 60001 333 10080 21094 70000 555 32919 40201
AAXX 11064 71544 16/// ///// 11045 21065 60001 333 10038 21052 70000
AAXX 11064 71548 16/// ///// 11004 21046 60001 333 10010 21040 70000
AAXX 11064 71481 16/// /2704 11031 21077 60001 333 10045 21049 7////
AAXX 11064 71498 16/// /2405 11046 21073 60001 333 10055 21055 70000 555 32224 40091
AAXX 11064 71014 16/// /2704 11021 21065 60001 333 10041 21078 70000
AAXX 11064 71857 16/// ///// 11041 21076 60001 333 11030 21088 70000
AAXX 11064 71346 16/// /2805 11061 21078 60001 333 10108 21061 70000 555 32532 40112
AAXX 11064 71413 16/// ///// 11050 21073 60001 333 10075 21103 70000
AAXX 11064 71414 16/// ///// 10001 21042 60001 333 10005 21060 70000
AAXX 11064 71440 16/// ///// 11017 21063 60001 333 10069 21027 70000
AAXX 11064 71904 16/// ///// 11019 21065 60001 333 10063 21066 70000
AAXX 11064 71674 16/// ///// 11026 21068 60001 333 10051 21122 70000
AAXX 11064 71249 16/// /3412 11009 21060 60001 333 10061 21051 70000 555 32537 40143
BBXX TBWUK30 11063 99286 70156 41598 30422 10182 20162 40210 54000 70122 8/444 22284 06191 20408 305// 40306 5//// 80170
AAXX 11064 89573 35970 71104 11026 21097 39756 49778 57012 8703/
AAXX 11064 89573 35970 71104 11026 21097 39756 49778 57012 8703/
AAXX 11064 78388 111570 70902 10243 20213 30117 40126 60001 70511 81802 333 01106 10308 20221 59015 81822 86076
AAXX 11064 DUPE DUPE
AAXX 11064 78388 111570 70902 10243 20213 30117 40126 60001 70511 81802 333 01106 10308 20221 59015 81822 86076
AAXX 11064 DUPE DUPE
BBXX DDDI2 11064 99125 30704 41698 51114 10280 20243 40105 50000 70311 81278 22254 04290 20202 315// 40705 80253
BBXX 9VDD2 11064 99521 71765 41497 52328 10035 21030 49930 53010 70222 852// 22263 06005 20605 328// 40908 80010
BBXX WYX2079 11064 99596 71512 41497 80631 10039 2//// 40028 57/// 76162 8762/ 22200 0//// 20203 3//// 4//00 5//// 6//// 8//// ICE /////
BBXX WBN5978 11064 99516 71453 41597 82135 10106 2//// 40234 57/// 70222 84577 22273 0//// 20303 323// 4//06 5//// 6//// 8//// ICE /////
BBXX WCQ6174 11064 99583 71375 41698 82707 10044 2//// 40227 52/// 70222 85502 22232 0//// 20101 323// 4//04 5//// 6//// 8//// ICE /////
BBXX WDA5598 11064 99585 71386 41598 73118 10050 2//// 40227 54000 70222 86501 22232 0//// 20201 327// 4//03 5//// 6//// 8//// ICE /////
BBXX WTD4576 11064 99572 71347 41598 81805 10022 2//// 40230 54000 70222 86507 22232 0//// 20000 3//// 4//00 5//// 6//// 8//// ICE /////
AAXX 11061 58968 11557 80806 10153 20132 30209 40217 57025 69901 71062 885//
AAXX 11061 58974 32465 80409 10151 20115 30103 40229 57024 8752/
AAXX 11061 59358 31630 83603 10196 20137 30149 40181 57026 70522 885//
AAXX 11061 59559 11560 80204 10190 20161 30144 40173 57022 69901 76062 884//
AAXX 11061 59792 11458 80311 10194 20279 30167 40172 57029 69961 75055 8572/
AAXX 11061 59997 11458 80208 10214 20259 30048 40059 57025 60071 76182 8342/
AAXX 11061 59158 11560 83602 10189 20122 30077 40178 57027 60011 70262 885//
AAXX 11061 59562 32668 83602 10212 20132 30173 40184 57028 887//
AAXX 11061 59567 11256 80110 10167 20167 39777 40159 57018 60041 76062 885//
AAXX 11064 71724 16/// /2603 11064 21116 30287 40295 51013 60001 333 11003 21064 70000
AAXX 11064 43476 22470 63404 10218 20174 38782 48528 85131 333 58001 60007 70000 85811
AAXX 11064 71428 16/// /2915 11094 21146 30241 40247 52010 60001 333 11018 21097 70010 555 32730 40222
AAXX 11064 71812 46964 33206 11286 21329 30115 40129 6///1 333 7////
AAXX 11064 91844 46/// /0000 10260 40099 22200 00272
BBXX AMOUK08 11064 99501 70061 46/// ///// 10106 20084 30089 40096 57030 90550
BBXX 63106 11064 99610 10017 46/// /1713 10058 49949 57025 22200
BBXX 63105 11064 99610 10017 47798 ///// 10068 20006 49947 57026 700// 22200
BBXX 62304 11064 99511 10018 46/98 /1611 10080 20058 40139 56013 22200 00120 10701 70004
BBXX 62094 11064 99517 70067 46/// /2616 10094 20087 40052 57023 22200 00114 10505 70027 333 90710 91136
BBXX AMOUK04 11064 99533 70062 46/// ///// 10088 20070 30027 4//// 57015 90550
BBXX WBS5272 11064 99459 70847 41/98 82612 10011 2//// 40281 57000 70222 8//// 22200 0//// 20201 3//// 4//// 5//// 6//// 8//// ICE /////
BBXX TBWUK30 11063 99286 70156 41598 30422 10182 20162 40210 54000 70122 8/444 22284 06191 20408 305// 40306 5//// 80170
OOXX SEP63 11041 99594 10180 ///// 00401 26/// /1002 11002 29096 39920 90410 333 60000
OOXX SEP63 11041 99594 10180 ///// 00401 26/// /1003 11002 29096 39920 90420 333 60000
OOXX SEP63 11041 99594 10180 ///// 00401 26/// /1003 11003 29096 39920 90430 333 60000
OOXX SEP63 11041 99594 10180 ///// 00401 26/// /0803 11004 29096 39920 90440 333 60000
OOXX SEP63 11041 99594 10180 ///// 00401 26/// /0802 11004 29096 39930 90450 333 60000
OOXX SEP63 11051 99594 10180 ///// 00401 26/// /1003 11004 29096 39930 90500 333 60000
OOXX SEP63 11051 99594 10180 ///// 00401 26/// /1003 11005 29096 39930 90510 333 60000
OOXX SEP63 11051 99594 10180 ///// 00401 26/// /0902 11004 29096 39930 90520 333 60000
OOXX SEP63 11051 99594 10180 ///// 00401 26/// /1202 11002 29096 39930 90530 333 60000
OOXX SEP63 11051 99594 10180 ///// 00401 26/// /1502 11001 29096 39930 90540 333 60000
OOXX SEP63 11051 99594 10180 ///// 00401 26/// /0702 10000 29096 39930 90550 333 60000
OOXX SEP63 11061 99594 10180 ///// 00401 26/// /1202 10001 29096 39930 90600 333 60000
OOXX ARP01 11041 99345 50585 ///// 00311 26/// /0000 10114 29035 30070 90410 333 60000
OOXX ARP01 11041 99345 50585 ///// 00311 26/// /0000 10115 29036 30071 90420 333 60000
OOXX ARP01 11041 99345 50585 ///// 00311 26/// /0000 10115 29036 30071 90430 333 60000
OOXX ARP01 11041 99345 50585 ///// 00311 26/// /0000 10115 29036 30071 90440 333 60000
OOXX ARP01 11041 99345 50585 ///// 00311 26/// /0000 10115 29036 30069 90450 333 60000
OOXX ARP01 11051 99345 50585 ///// 00311 26/// /0000 10114 29036 30067 90500 333 60000
OOXX ARP01 11051 99345 50585 ///// 00311 26/// /0000 10114 29036 30065 90510 333 60000
OOXX ARP01 11051 99345 50585 ///// 00311 26/// /0000 10114 29036 30065 90520 333 60000
OOXX ARP01 11051 99345 50585 ///// 00311 26/// /0000 10113 29036 30072 90530 333 60000
OOXX ARP01 11051 99345 50585 ///// 00311 26/// /0000 10113 29036 30074 90540 333 60000
OOXX ARP01 11051 99345 50585 ///// 00311 26/// /0000 10111 29036 30075 90550 333 60000
OOXX ARP01 11061 99345 50585 ///// 00311 26/// /1101 10110 29036 30073 90600 333 60000
OOXX KIP39 11041 99020 51574 ///// 00181 26/// /1203 10264 29078 30092 90430 333 60000
OOXX KIP39 11041 99020 51574 ///// 00181 26/// /1203 10264 29078 30092 90440 333 60000
OOXX KIP39 11041 99020 51574 ///// 00181 26/// /1204 10265 29078 30095 90450 333 60000
OOXX KIP39 11051 99020 51574 ///// 00181 26/// /1203 10265 29078 30097 90500 333 60000
OOXX KIP39 11051 99020 51574 ///// 00181 26/// /1204 10264 29078 30098 90510 333 60000
OOXX KIP39 11051 99020 51574 ///// 00181 26/// /1204 10264 29080 30099 90520 333 60000
OOXX KIP39 11051 99020 51574 ///// 00181 26/// /1203 10262 29080 30099 90530 333 60000
OOXX KIP39 11051 99020 51574 ///// 00181 26/// /1203 10262 29081 30102 90540 333 60000
OOXX KIP39 11051 99020 51574 ///// 00181 26/// /1203 10263 29081 30102 90550 333 60000
OOXX KIP39 11061 99020 51574 ///// 00181 26/// /1203 10262 29080 30102 90600 333 60000
OOXX KIP39 11061 99020 51574 ///// 00181 26/// /1204 10262 29080 30107 90610 333 60000
OOXX KIP39 11061 99020 51574 ///// 00181 26/// /1203 10261 29080 30107 90620 333 60000
OOXX AUP07 11041 99/// ///// ///// ///// 26/// /0213 10072 29094 30007 90457 333 60000
OOXX AUP07 11051 99/// ///// ///// ///// 26/// /0212 10071 29094 30007 90507 333 60000
OOXX AUP07 11051 99/// ///// ///// ///// 26/// /0212 10074 29094 30006 90517 333 60000
OOXX AUP07 11051 99/// ///// ///// ///// 26/// /0213 10072 29094 30005 90527 333 60000
OOXX AUP07 11051 99/// ///// ///// ///// 26/// /0212 10073 29094 30004 90537 333 60000
OOXX AUP07 11051 99/// ///// ///// ///// 26/// /0213 10075 29094 30003 90547 333 60000
OOXX AUP07 11051 99/// ///// ///// ///// 26/// /0213 10075 29094 30003 90557 333 60000
OOXX AUP07 11061 99/// ///// ///// ///// 26/// /0213 10073 29094 30004 90607 333 60000
OOXX AUP07 11061 99/// ///// ///// ///// 26/// /0212 10073 29094 30004 90617 333 60000
OOXX AUP07 11061 99/// ///// ///// ///// 26/// /0212 10072 29094 30004 90627 333 60000
OOXX AUP07 11061 99/// ///// ///// ///// 26/// /0213 10073 29094 30003 90637 333 60000
OOXX AUP07 11061 99/// ///// ///// ///// 26/// /0212 10072 29094 30003 90647 333 60000
OOXX RUP59 11041 99539 10848 ///// 02121 26/// /0000 11224 29067 30020 90440 333 60000
OOXX RUP59 11041 99539 10848 ///// 02121 26/// /0000 11220 29066 30019 90450 333 60000
OOXX RUP59 11051 99539 10848 ///// 02121 26/// /0000 11213 29067 30020 90500 333 60000
OOXX RUP59 11051 99539 10848 ///// 02121 26/// /0000 11198 29067 30019 90510 333 60000
OOXX RUP59 11051 99539 10848 ///// 02121 26/// /0000 11192 29065 30020 90520 333 60000
OOXX RUP59 11051 99539 10848 ///// 02121 26/// /0000 11178 29067 30020 90530 333 60000
OOXX RUP59 11051 99539 10848 ///// 02121 26/// /0000 11166 29063 30020 90540 333 60000
OOXX RUP59 11051 99539 10848 ///// 02121 26/// /0000 11160 29062 30020 90550 333 60000
OOXX RUP59 11061 99539 10848 ///// 02121 26/// /0000 11156 29063 30018 90600 333 60000
OOXX RUP59 11061 99539 10848 ///// 02121 26/// /0000 11147 29063 30017 90610 333 60000
OOXX RUP59 11061 99539 10848 ///// 02121 26/// /0801 11147 29064 30016 90620 333 60000
OOXX RUP59 11061 99539 10848 ///// 02121 26/// /1001 11151 29066 30016 90630 333 60000
OOXX FJP26 11041 99178 31775 ///// 00311 26/// /1502 10250 29091 30061 90410 333 60000
OOXX FJP26 11041 99178 31775 ///// 00311 26/// /1402 10251 29090 30062 90420 333 60000
OOXX FJP26 11041 99178 31775 ///// 00311 26/// /1601 10253 29090 30062 90430 333 60000
OOXX FJP26 11041 99178 31775 ///// 00311 26/// /1301 10256 29090 30061 90440 333 60000
OOXX FJP26 11041 99178 31775 ///// 00311 26/// /1101 10260 29087 30061 90450 333 60000
OOXX FJP26 11051 99178 31775 ///// 00311 26/// /1401 10264 29085 30061 90500 333 60000
OOXX FJP26 11051 99178 31775 ///// 00311 26/// /0901 10269 29083 30062 90510 333 60000
OOXX FJP26 11051 99178 31775 ///// 00311 26/// /1301 10268 29083 30066 90520 333 60000
OOXX FJP26 11051 99178 31775 ///// 00311 26/// /1501 10265 29084 30066 90530 333 60000
OOXX FJP26 11051 99178 31775 ///// 00311 26/// /1301 10264 29085 30067 90540 333 60000
OOXX FJP26 11051 99178 31775 ///// 00311 26/// /1001 10264 29086 30069 90550 333 60000
OOXX FJP26 11061 99178 31775 ///// 00311 26/// /1201 10263 29085 30069 90600 333 60000
OOXX PTP53 11041 99377 70257 ///// 00121 26/// /3003 10161 29001 30227 90410 333 60010
OOXX PTP53 11041 99377 70257 ///// 00121 26/// /3002 10160 29001 30227 90420 333 60010
OOXX PTP53 11041 99377 70257 ///// 00121 26/// /3104 10159 29001 30227 90430 333 60010
OOXX PTP53 11041 99377 70257 ///// 00121 26/// /2907 10160 29001 30227 90440 333 60010
OOXX PTP53 11041 99377 70257 ///// 00121 26/// /2806 10161 29001 30228 90450 333 60000
OOXX PTP53 11051 99377 70257 ///// 00121 26/// /2906 10158 29001 30227 90500 333 60000
OOXX PTP53 11051 99377 70257 ///// 00121 26/// /2906 10157 29001 30225 90510 333 60000
OOXX PTP53 11051 99377 70257 ///// 00121 26/// /2905 10158 29001 30224 90520 333 60000
OOXX PTP53 11051 99377 70257 ///// 00121 26/// /2905 10159 29001 30224 90530 333 60000
OOXX PTP53 11051 99377 70257 ///// 00121 26/// /2905 10160 29001 30223 90540 333 60000
OOXX PTP53 11051 99377 70257 ///// 00121 26/// /2905 10161 29001 30222 90550 333 60000
OOXX PTP53 11061 99377 70257 ///// 00121 26/// /2906 10161 29001 30221 90600 333 60000
OOXX AUP09 11041 99124 31309 ///// 00321 26/// ///// 1//// 29/// 3//// 90414 333 6///0
OOXX AUP09 11041 99124 31309 ///// 00321 26/// ///// 1//// 29/// 3//// 90424 333 6///0
OOXX AUP09 11041 99124 31309 ///// 00321 26/// ///// 1//// 29/// 3//// 90434 333 6///0
OOXX AUP09 11041 99124 31309 ///// 00321 26/// ///// 1//// 29/// 3//// 90444 333 6///0
OOXX AUP09 11041 99124 31309 ///// 00321 26/// ///// 1//// 29/// 3//// 90454 333 6///0
OOXX AUP09 11051 99124 31309 ///// 00321 26/// ///// 1//// 29/// 3//// 90504 333 6///0
OOXX AUP09 11051 99124 31309 ///// 00321 26/// ///// 1//// 29/// 3//// 90514 333 6///0
OOXX AUP09 11051 99124 31309 ///// 00321 26/// ///// 1//// 29/// 3//// 90524 333 6///0
OOXX AUP09 11051 99124 31309 ///// 00321 26/// ///// 1//// 29/// 3//// 90534 333 6///0
OOXX AUP09 11051 99124 31309 ///// 00321 26/// ///// 1//// 29/// 3//// 90544 333 6///0
OOXX AUP09 11051 99124 31309 ///// 00321 26/// ///// 1//// 29/// 3//// 90554 333 6///0
OOXX AUP09 11061 99124 31309 ///// 00321 26/// ///// 1//// 29/// 3//// 90604 333 6///0
OOXX CKP23 11041 99212 51598 ///// 00051 26/// /0703 10274 29077 30084 90450 333 60000
OOXX CKP23 11051 99212 51598 ///// 00051 26/// /0503 10268 29079 30085 90500 333 60000
OOXX CKP23 11051 99212 51598 ///// 00051 26/// /0602 10265 29080 30086 90510 333 60000
OOXX CKP23 11051 99212 51598 ///// 00051 26/// /0602 10263 29081 30088 90520 333 60000
OOXX CKP23 11051 99212 51598 ///// 00051 26/// /0502 10262 29081 30089 90530 333 60000
OOXX CKP23 11051 99212 51598 ///// 00051 26/// /0501 10261 29083 30090 90540 333 60000
OOXX CKP23 11051 99212 51598 ///// 00051 26/// /0802 10260 29084 30091 90550 333 60000
OOXX CKP23 11061 99212 51598 ///// 00051 26/// /0702 10260 29084 30091 90600 333 60000
OOXX CKP23 11061 99212 51598 ///// 00051 26/// /0502 10259 29084 30092 90610 333 60000
OOXX CKP23 11061 99212 51598 ///// 00051 26/// /0501 10259 29085 30093 90620 333 60000
OOXX CKP23 11061 99212 51598 ///// 00051 26/// /0901 10257 29086 30093 90630 333 60000
OOXX CKP23 11061 99212 51598 ///// 00051 26/// /0902 10256 29087 30093 90640 333 60000
OOXX GBP68 11041 99371 50123 ///// 00641 26/// /3613 10038 29012 30091 90400 333 60000
OOXX GBP68 11041 99371 50123 ///// 00641 26/// /3614 10030 29019 30094 90410 333 60000
OOXX GBP68 11041 99371 50123 ///// 00641 26/// /3614 10028 29026 30092 90420 333 60000
OOXX GBP68 11041 99371 50123 ///// 00641 26/// /3614 10035 29022 30093 90430 333 60000
OOXX GBP68 11041 99371 50123 ///// 00641 26/// /3613 10045 29031 30097 90440 333 60000
OOXX GBP68 11041 99371 50123 ///// 00641 26/// /3613 10060 29000 30101 90450 333 60000
OOXX GBP68 11051 99371 50123 ///// 00641 26/// /3613 10057 29000 30099 90500 333 60000
OOXX GBP68 11051 99371 50123 ///// 00641 26/// /3613 10059 29000 30102 90510 333 60000
OOXX GBP68 11051 99371 50123 ///// 00641 26/// /3613 10051 29000 30100 90520 333 60000
OOXX GBP68 11051 99371 50123 ///// 00641 26/// /3613 10072 29000 30105 90530 333 60000
OOXX GBP68 11051 99371 50123 ///// 00641 26/// /3610 10070 29000 30109 90540 333 60000
OOXX GBP67 11041 99159 50057 ///// 04381 26/// /0503 10154 29098 39652 90400 333 60000
OOXX GBP67 11041 99159 50057 ///// 04381 26/// /0803 10153 29098 39652 90410 333 60000
OOXX GBP67 11041 99159 50057 ///// 04381 26/// /0703 10153 29098 39652 90420 333 60000
OOXX GBP67 11041 99159 50057 ///// 04381 26/// /0603 10156 29098 39652 90430 333 60000
OOXX GBP67 11041 99159 50057 ///// 04381 26/// /0804 10152 29099 39651 90440 333 60000
OOXX GBP67 11041 99159 50057 ///// 04381 26/// /0604 10152 29099 39652 90450 333 60000
OOXX GBP67 11051 99159 50057 ///// 04381 26/// /0404 10147 29099 39655 90500 333 60000
OOXX GBP67 11051 99159 50057 ///// 04381 26/// /0703 10145 29099 39655 90510 333 60000
OOXX GBP67 11051 99159 50057 ///// 04381 26/// /0603 10147 29100 39656 90520 333 60000
OOXX GBP67 11051 99159 50057 ///// 04381 26/// /0603 10151 29100 39655 90530 333 60000
OOXX GBP67 11051 99159 50057 ///// 04381 26/// /0703 10152 29100 39658 90540 333 60000
OOXX GBP67 11051 99159 50057 ///// 04381 26/// /0503 10150 29099 39658 90550 333 69920
OOXX MRP43 11041 99181 70159 ///// 00101 26/// /0603 10222 29011 30107 90440 333 60000
OOXX MRP43 11041 99181 70159 ///// 00101 26/// /0602 10221 29011 30108 90450 333 60000
OOXX MRP43 11051 99181 70159 ///// 00101 26/// /0602 10217 29011 30109 90500 333 60000
OOXX MRP43 11051 99181 70159 ///// 00101 26/// /0502 10218 29011 30111 90510 333 60000
OOXX MRP43 11051 99181 70159 ///// 00101 26/// /0502 10216 29011 30109 90520 333 60000
OOXX MRP43 11051 99181 70159 ///// 00101 26/// /0502 10215 29011 30109 90530 333 60000
OOXX MRP43 11051 99181 70159 ///// 00101 26/// /0702 10214 29011 30111 90540 333 60000
OOXX MRP43 11051 99181 70159 ///// 00101 26/// /0702 10212 29012 30110 90550 333 60000
OOXX MRP43 11061 99181 70159 ///// 00101 26/// /0602 10210 29012 30110 90600 333 60000
OOXX MRP43 11061 99181 70159 ///// 00101 26/// /0502 10210 29012 30111 90610 333 60000
OOXX MRP43 11061 99181 70159 ///// 00101 26/// /0602 10209 29012 30113 90620 333 60000
OOXX MRP43 11061 99181 70159 ///// 00101 26/// /0701 10211 29012 30114 90630 333 60000
OOXX RUP54 11041 99586 10494 ///// 01271 26/// /3007 11090 29093 30021 90427 333 60120
OOXX RUP54 11041 99586 10494 ///// 01271 26/// /0906 11089 29093 30020 90437 333 60120
OOXX RUP54 11041 99586 10494 ///// 01271 26/// /0406 11087 29093 30022 90447 333 60120
OOXX RUP54 11041 99586 10494 ///// 01271 26/// /3206 11085 29093 30023 90457 333 60120
OOXX RUP54 11051 99586 10494 ///// 01271 26/// /2807 11084 29092 30024 90507 333 60120
OOXX RUP54 11051 99586 10494 ///// 01271 26/// /0506 11085 29092 30025 90517 333 60120
OOXX RUP54 11051 99586 10494 ///// 01271 26/// /3307 11085 29092 30026 90527 333 60120
OOXX RUP54 11051 99586 10494 ///// 01271 26/// /0406 11085 29092 30025 90537 333 60120
OOXX RUP54 11051 99586 10494 ///// 01271 26/// /3306 11085 29092 30023 90547 333 60120
OOXX RUP54 11051 99586 10494 ///// 01271 26/// /0506 11084 29092 30022 90557 333 60120
OOXX RUP54 11061 99586 10494 ///// 01271 26/// /1807 11084 29092 30019 90607 333 60120
OOXX RUP54 11061 99586 10494 ///// 01271 26/// /2807 11083 29092 30025 90617 333 60120
OOXX RUP60 11041 99531 11588 ///// 00651 26/// /3004 11067 29040 39813 90452 333 60000
OOXX RUP60 11051 99531 11588 ///// 00651 26/// /3103 11066 29040 39814 90502 333 60000
OOXX RUP60 11051 99531 11588 ///// 00651 26/// /2909 11066 29040 39815 90512 333 60000
OOXX RUP60 11051 99531 11588 ///// 00651 26/// /2904 11068 29040 39814 90522 333 60000
OOXX RUP60 11051 99531 11588 ///// 00651 26/// /3003 11068 29041 39814 90532 333 60000
OOXX RUP60 11051 99531 11588 ///// 00651 26/// /3202 11070 29042 39815 90542 333 60000
OOXX RUP60 11051 99531 11588 ///// 00651 26/// /0206 11073 29042 39815 90552 333 60000
OOXX RUP60 11061 99531 11588 ///// 00651 26/// /3203 11076 29043 39815 90602 333 60000
OOXX RUP60 11061 99531 11588 ///// 00651 26/// /2903 11073 29043 39815 90612 333 60000
OOXX RUP60 11061 99531 11588 ///// 00651 26/// /3102 11074 29043 39815 90622 333 60000
OOXX RUP60 11061 99531 11588 ///// 00651 26/// /3203 11074 29044 39815 90632 333 60000
OOXX RUP60 11061 99531 11588 ///// 00651 26/// /2904 11074 29044 39816 90642 333 60000
OOXX RUP58 11041 99442 11320 ///// 01121 26/// /3104 11042 29048 30009 90442 333 60000
OOXX RUP58 11041 99442 11320 ///// 01121 26/// /3303 11041 29048 30008 90452 333 60000
OOXX RUP58 11051 99442 11320 ///// 01121 26/// /3303 11037 29048 30008 90502 333 60000
OOXX RUP58 11051 99442 11320 ///// 01121 26/// /2902 11037 29047 30007 90512 333 60000
OOXX RUP58 11051 99442 11320 ///// 01121 26/// /2903 11036 29048 30007 90522 333 60000
OOXX RUP58 11051 99442 11320 ///// 01121 26/// /2902 11037 29047 30007 90532 333 60000
OOXX RUP58 11051 99442 11320 ///// 01121 26/// /3402 11034 29047 30007 90542 333 60000
OOXX RUP58 11051 99442 11320 ///// 01121 26/// /3502 11031 29045 30007 90552 333 60000
OOXX RUP58 11061 99442 11320 ///// 01121 26/// /3502 11031 29046 30007 90602 333 60000
OOXX RUP58 11061 99442 11320 ///// 01121 26/// /3502 11031 29046 30008 90612 333 60000
OOXX RUP58 11061 99442 11320 ///// 01121 26/// /3402 11034 29047 30009 90622 333 60000
OOXX RUP58 11061 99442 11320 ///// 01121 26/// /3402 11037 29049 30009 90632 333 60000
OOXX CAP14 11041 99487 71234 ///// 00431 26/// /2301 10033 29079 30136 90420 333 60000
OOXX CAP14 11041 99487 71234 ///// 00431 26/// /2401 10032 29080 30137 90430 333 60000
OOXX CAP14 11041 99487 71234 ///// 00431 26/// /2601 10032 29080 30135 90440 333 60000
OOXX CAP14 11041 99487 71234 ///// 00431 26/// /2701 10033 29080 30138 90450 333 60000
OOXX CAP14 11051 99487 71234 ///// 00431 26/// /2701 10035 29079 30138 90500 333 60000
OOXX CAP14 11051 99487 71234 ///// 00431 26/// /2801 10036 29079 30138 90510 333 60000
OOXX CAP14 11051 99487 71234 ///// 00431 26/// /2801 10036 29078 30137 90520 333 60000
OOXX CAP14 11051 99487 71234 ///// 00431 26/// /2701 10036 29078 30136 90530 333 60000
OOXX CAP14 11051 99487 71234 ///// 00431 26/// /2701 10037 29078 30137 90540 333 60000
OOXX CAP14 11051 99487 71234 ///// 00431 26/// /2701 10036 29078 30137 90550 333 60000
OOXX CAP14 11061 99487 71234 ///// 00431 26/// /2801 10037 29079 30137 90600 333 60000
OOXX CAP14 11061 99487 71234 ///// 00431 26/// /2801 10038 29078 30137 90610 333 60000
OOXX NOP49 11041 99782 10154 ///// 04691 26/// /2202 11139 29090 39461 90410 333 6///0
OOXX NOP49 11041 99782 10154 ///// 04691 26/// /2202 11139 29092 39460 90420 333 6///0
OOXX NOP49 11041 99782 10154 ///// 04691 26/// /2301 11140 29091 39460 90430 333 6///0
OOXX NOP49 11041 99782 10154 ///// 04691 26/// /0000 11135 29092 39459 90440 333 6///0
OOXX NOP49 11041 99782 10154 ///// 04691 26/// /0000 11131 29093 39458 90450 333 6///0
OOXX NOP49 11051 99782 10154 ///// 04691 26/// /1801 11130 29093 39457 90500 333 6///0
OOXX NOP49 11051 99782 10154 ///// 04691 26/// /1901 11128 29092 39457 90510 333 6///0
OOXX NOP49 11051 99782 10154 ///// 04691 26/// /2501 11131 29092 39458 90520 333 6///0
OOXX NOP49 11051 99782 10154 ///// 04691 26/// /2202 11133 29090 39458 90530 333 6///0
OOXX NOP49 11051 99782 10154 ///// 04691 26/// /2301 11138 29090 39459 90540 333 6///0
OOXX NOP49 11051 99782 10154 ///// 04691 26/// /2401 11132 29091 39459 90550 333 6///0
OOXX NOP49 11061 99782 10154 ///// 04691 26/// /0000 11128 29092 39457 90600 333 6///0
AAXX 11064 04005 42489 60502 11006 21013 49822 57022 84810 555 3/203
AAXX 11064 87448 41558 81110 10184 20144 39546 40086 52012 69901 79592 8492/ 333 56559 57900 83625 82940 84550
AAXX 11064 91559 46/// /0404 10282 40070 22200 00278
AAXX 11064 71427 16/// /2807 11136 21180 30249 40257 51012 60001 333 11033 21144 70040 555 32624 40201
AAXX 11064 71212 16/// /2805 11136 21166 39417 40251 51016 60001 333 11046 21139 70003 555 10020 20003
AAXX 11064 71301 16/// ///// 11125 21136 39827 40241 57002 60001 333 11107 21147 70000
AAXX 11064 71315 16/// /2505 11125 21156 30201 40257 53018 60001 333 11006 21127 70000 555 32819 40001
AAXX 11064 71050 46/// /1601 11130 21143 39117 40230 53011 6///1 333 11029 21165 7////
AAXX 11064 71373 16/// /2303 11039 21080 60001 333 10008 21052 70022
AAXX 11064 71376 16/// /0801 11121 21130 39995 40304 51011 60001 333 11033 21145 70000
AAXX 11064 71710 16/// /3017 11025 21080 30188 40198 53012 60001 333 10047 21025 70050 555 32231 40072
AAXX 11064 71050 46/// /1601 11130 21143 39117 40230 53011 6///1 333 11029 21165 7////
AAXX 11064 91531 46/// /0503 1//// 40046 22200 00282
AAXX 11064 41242 36/// /0000 10251 20038 30179 40203 333 0E014 20095 59019
AAXX 11064 41254 36/// /3106 10195 21180 38270 48275 333 0E005 20071 58012
BBXX 41038 11061 99341 70777 46/// /0410 10117 40295 50003 90600 22200 00150 333 91212
AAXX 11064 60563 12560 60000 10058 20025 39322 48523 57005 60004 84202 333 00500 20043 84830 83073
AAXX 11064 60060 32456 10204 10154 20126 40215 5//// 81500 333 20154 30011 81616 95300
AAXX 11061 10578 12983 02510 11070 21077 38754 48444 53003 60002 333 11054 21071 3/108 48029 55004 55300 20000 30000 70025
AAXX 11064 71016 16/// ///// 10018 60001 333 10077 21005 70000
BBXX 46109 11061 99481 71234 46/// /1702 10052 40202 90557 22200 00081
BBXX 46110 11061 99481 71230 46/// /2103 10054 40201 90558
BBXX 44055 11061 99391 70753 46/// ///// 1//// 90630 22200 00100 10201 70004
BBXX 41037 11061 99340 70775 46/// /0411 10113 40252 50000 90600 22200 00168 333 91213
BBXX 44056 11061 99362 70757 46/// ///// 1//// 90620 22200 00124 10603 20603 70013
AAXX 11064 91642 46/// /0000 1//// 40060 22200 0////
AAXX 11064 87648 11560 50506 10180 20163 30089 40099 57028 60091 72992 83520 333 56450 83620 85550
BBXX 42360 11061 99267 70905 46/// /0410 10194 90600 22200 00244 10805 70027 333 91213
BBXX 42044 11061 99262 70971 46/// /1006 10182 20132 40247 90600 22200 00193 333 91211
BBXX 7JJA 11064 99161 11190 41596 80227 00 10270 20243 40080 57015 76062 886// 9//// 22283 00260 2 10 302 41310 5 6//// 80250 IC E/////
BBXX 7JKC 11064 99008 31189 41697 12005 00 10320 2//// 40045 56020 74011 83251/ 9//// 22283 00330 1//// 20400 321// 40400 5//// 6//// 80290 /////
BBXX 42045 11061 99262 70965 46/// /0909 10171 40242 90600 22200 00219 333 91213
BBXX 7JKC 11064 99008 31189 41697 12005 00 10320 2//// 40045 56020 74011 83251/ 9//// 22283 00330 1//// 20400 321// 40400 5//// 6//// 80290 /////
AAXX 11064 41254 36/// /3106 10195 21180 38270 48275 333 0E005 20071 58012
BBXX WDJK 11064 99513 71333 41498 33620 10060 20038 40270 54000 70200 8310/ 22233 00080 20602 330// 41005 5//// 6//// 80050 ICE /////
BBXX WCF3012 11064 99438 70823 41/98 72330 11020 40280 70222 22243 00070 20403
BBXX A8VL8 11064 99251 30538 41298 40711 10230 20185 40140 54000 7//00 848// 22233 00250 20204 330// 40204 5//// 6//// 80200 ICE /////
BBXX 46094 11061 99446 71243 46/// /0205 10082 90630
BBXX 46094 11061 99446 71243 46/// /0205 10082 90620
BBXX 46094 11061 99446 71243 46/// /0105 10082 90610
BBXX 46094 11061 99446 71243 46/// /3505 10082 90600
BBXX 46094 11061 99446 71243 46/// /3604 10081 90550
BBXX 46094 11061 99446 71243 46/// /3603 10081 90540
AAXX 11064 60195 32960 02604 10051 21019 38535 48548 5//// 333 20038 30002 95500
BBXX 41037 11061 99340 70775 46/// /0411 10113 40252 90600 22200 00168 333 91213
AAXX 11064 60515 11960 20000 10058 20053 40233 55007 60004 700// 82030 333 00200 20041 82360 95990
AAXX 11064 60107 32460 62202 10085 20063 40188 56009 86800 333 20074 31005 82816 85626 95300
AAXX 11064 92036 46/// /9901 10291 40055 22200 00315
BBXX AMOUK14 11064 99533 70062 46/// ///// 10079 20055 30001 40041 57014 90550
BBXX 63106 11064 99610 10017 46/// /1713 10058 49949 57025 22200
BBXX 63113 11064 99610 10017 46/// /1814 10062 20004 49947 57025 22200 10806 70029
BBXX 62304 11064 99511 10018 46/96 /16// 10080 20058 40139 56013 22200 00120 10701 70004
BBXX 62107 11064 99501 70061 46/// /2129 10099 20072 40093 56028 22200 00121 10703 70016 333 90710 91134
BBXX 62094 11064 99517 70067 46/// /2616 10094 20087 40052 57023 22200 00114 10505 70027
AAXX 11064 93713 46/// /0000 10160 40154 22200 00166
BBXX 42045 11061 99262 70965 46/// /0909 10171 40242 90600 22200 00219 333 91213
BBXX 42044 11061 99262 70971 46/// /1006 10182 20132 40247 90600 22200 00193 333 91211
BBXX 42360 11061 99267 70905 46/// /0410 10194 90600 22200 00244 10805 70027 333 91213
BBXX 44056 11061 99362 70757 46/// ///// 1//// 90620 22200 00124 10603 20603 70013
BBXX 41037 11061 99340 70775 46/// /0411 10113 40252 50000 90600 22200 00168 333 91213
BBXX 44055 11061 99391 70753 46/// ///// 1//// 90630 22200 00100 10201 70004
BBXX 46110 11061 99481 71230 46/// /2103 10054 40201 90558
BBXX 46109 11061 99481 71234 46/// /1702 10052 40202 90557 22200 00081
BBXX 41038 11061 99341 70777 46/// /0410 10117 40295 50003 90600 22200 00150 333 91212
BBXX WDJK 11064 99513 71333 41498 33620 10060 20038 40270 54000 70200 8310/ 22233 00080 20602 330// 41005 5//// 6//// 80050 ICE /////
BBXX 7JJA 11064 99161 11190 41596 80227 00 10270 20243 40080 57015 76062 886// 9//// 22283 00260 2 10 302 41310 5 6//// 80250 IC E/////
BBXX WCF3012 11064 99438 70823 41/98 72330 11020 40280 70222 22243 00070 20403
BBXX WBS5272 11064 99459 70847 41/98 82612 10011 2//// 40281 57000 70222 8//// 22200 0//// 20201 3//// 4//// 5//// 6//// 8//// ICE /////
BBXX 7JKC 11064 99008 31189 41697 12005 00 10320 2//// 40045 56020 74011 83251/ 9//// 22283 00330 1//// 20400 321// 40400 5//// 6//// 80290 /////
BBXX BSH03 11061 99540 10081 46/// ///// 22200 00064 20803 70016
BBXX BSH02 11061 99542 10079 46/// ///// 22200 00059 20803 70017
BBXX AMOUK04 11064 99533 70062 46/// ///// 10088 20070 30027 4//// 57015 90550
AAXX 1106/ 89667 46/// ///// 4//// 5//// 90630
AAXX 11064 89667 46/// /0807 11061 39784 4//// 5//// 90640
AAXX 11064 16224 11456 70703 10120 20097 39861 40178 53000 60002 71022 84180 333 20116 31/// 55000 2//// 84815 83357
BBXX MINFR09 1106/ 99320 31157 46/// ///// 40103 57015
AAXX 11064 91689 46/// /3409 10241 40099 22200 00278
AAXX 11064 71893 11580 62804 10019 20001 30178 40210 56003 69901 70182 86500 333 10034 21014 79999 90940 555 10000 20000
AAXX 11064 71893 11580 62804 10019 20001 30178 40210 56003 69901 70182 86500 333 10034 21014 79999 90940 555 10000 20000
BBXX WDF6832 11063 99379 10086 43/// /2802 10190 2012/ 40210 54000 7//// 8//// 22264 0//// 2//// 3//// 4//// 5//// 6//// 80150 ICE /////
AAXX 11061 10162 12458 82406 10029 20015 30045 40129 52004 69902 885// 333 10030 20016 31001 55000 55300 20000 30000 70063 88610
BBXX WDF6832 11063 99379 10086 43/// /2802 10190 2012/ 40210 54000 7//// 8//// 22264 0//// 2//// 3//// 4//// 5//// 6//// 80150 ICE /////
BBXX 41037 11061 99340 70775 46/// /0411 10113 40252 90600 22200 00168 333 91213
BBXX 46094 11061 99446 71243 46/// /3604 10081 90550
BBXX 46094 11061 99446 71243 46/// /3603 10081 90540
BBXX 46094 11061 99446 71243 46/// /0205 10082 90630
BBXX 46094 11061 99446 71243 46/// /3505 10082 90600
BBXX 46094 11061 99446 71243 46/// /0105 10082 90610
BBXX 46094 11061 99446 71243 46/// /0205 10082 90620
BBXX A8VL8 11064 99251 30538 41298 40711 10230 20185 40140 54000 7//00 848// 22233 00250 20204 330// 40204 5//// 6//// 80200 ICE /////
BBXX MINFR09 1106/ 99320 31157 46/// ///// 40103 57015
AAXX 1106/ 89327 46/// ///// 11046 39514 4//// 5//// 90620
BBXX MINFR00 1106/ 99425 70285 46/// ///// 10118 40291 52016
BBXX A8OZ4 11064 99359 10165 43698 42229 10190 20140 40230 54000 7//// 84/3/ 22274 00185 20303 322// 40403 5//// 80160
AAXX 11064 89272 46/// /0710 11178 21205 37962 49620 57004 90610
AAXX 11064 89266 46/// /0403 11058 21064 39638 49776 57001 90610
AAXX 11064 89257 46/// /0208 11086 21092 39716 49786 52003 90610
AAXX 11064 65501 31956 70000 10196 20024 39818 40133 70622 80002 333 01500 20196 50764 55083 58014 87076
AAXX 11064 65502 31930 70802 10277 21047 39742 40121 70622 80002 333 01500 20175 51294 55090 58015 87076
AAXX 11064 65503 31925 70604 10185 20012 39776 40122 70622 80002 333 01300 20185 51010 55090 51653 58010 87076
AAXX 11064 65505 32960 60408 10198 21035 39776 40114 80002 333 01700 20194 51344 55092 58007 86076
AAXX 11064 65507 31903 70604 10181 20005 39770 40120 70644 80002 333 ///// 20181 50804 55081 58011 87076
AAXX 11064 65510 31956 60606 10198 21007 39595 40107 70622 80002 333 01700 20195 50640 55088 58008 86076
AAXX 11064 65516 32960 60000 10184 20024 39807 40113 80002 333 01600 20182 50764 55074 58010 86076
AAXX 11064 65518 31910 73606 10200 21039 39742 40105 70622 80002 333 01400 20181 50964 55091 58013 87076
AAXX 11064 65522 31940 70000 10155 20088 39782 40112 70622 80002 333 01300 20155 50804 55086 58010 87076
AAXX 11061 10980 11/01 92610 11014 21014 38126 48475 53004 69982 74974 333 11006 21035 3/103 48025 55000 55300 20000 30000 70035 91116 91214 96441
AAXX 11064 89013 46/// /0806 11250 21288 37573 49624 52007 90600
AAXX 11064 89065 46/// /9901 11023 21044 39624 49700 57005 90600
AAXX 11064 89257 46/// /0110 11087 21093 39716 49786 52003 90600
AAXX 11064 89262 46/// /1305 11005 21008 39658 49700 57014 90600
AAXX 11064 89266 46/// /0204 11058 21064 39638 49776 57002 90600
AAXX 11064 89272 46/// /0612 11185 21211 37961 49623 57007 90600
BBXX WDJK 11064 99513 71333 41498 33620 10060 20038 40270 54000 70200 8310/ 22233 00080 20602 330// 41005 5//// 6//// 80050 ICE /////
AAXX 11064 63740 32465 10902 10189 20142 48514 81500 333 20139 59003 81619
AAXX 11064 17330 12970 62802 10076 21043 30274 40293 52015 60002 80001 333 20068 32000 50361 55073 86070
AAXX 11064 04418 NIL
AAXX 11064 04425 NIL
AAXX 11064 04432 NIL
AAXX 11064 04436 NIL
AAXX 11064 04464 46/// /1614 11259 21282 333 553// 20004
AAXX 11064 04485 46/// /0000 11326 21345 37206 333 553// 20000
AAXX 11064 04488 46/// /3204 11289 21308 37262 333 553// 20000
BBXX SKEC 11061 99571 10174 46/// ///// 10018 49985 52053 22235 00054
AAXX 11061 03955 11145 72304 10055 20055 39853 40051 57017 60042 71065 8252/ 333 20053 31004 55011 81702 87466
AAXX 11064 41859 31440 50502 10202 20160 30117 40155 70521 82530 333 56190 58008 70000 82618 85362
AAXX 11064 41883 31925 20000 10235 20160 30126 40147 70542 82030 333 56090 58009 70000 82362
AAXX 11064 41891 31425 60303 10240 20170 30105 40144 71042 83370 333 56990 58011 70000 83614 81930 85460
AAXX 11064 41907 31340 30503 10230 20170 30136 40151 70544 83600 333 56100 58014 70000 83710
AAXX 11064 41923 31940 00502 10246 20120 30129 40139 70500 333 58011 70000
AAXX 11064 41936 31910 00000 10254 20190 40142 70500 333 58008 70000
AAXX 11064 41943 32950 00000 10254 21040 30138 40145 333 58012 70000
AAXX 11064 41950 31940 00000 10265 20190 30134 40136 71042 333 58007 70000
AAXX 11064 41978 31935 03305 10270 20170 30126 40132 70500 333 58007 70000
AAXX 11064 41992 31935 00000 10272 20150 30124 40127 70500 333 58003 70000
AAXX 11064 41858 NIL
AAXX 11064 41863 32957 03601 10225 20160 30105 40149 333 58011 70000
AAXX 11064 41886 31950 00000 10230 20180 30129 40150 70541 333 58012 70000
AAXX 11064 41895 31950 03601 10220 20170 30125 40148 70540 333 58009 70000
AAXX 11064 41909 31450 43602 10228 20170 30126 40138 70542 84500 333 56900 58003 70000 84616
AAXX 11064 41915 NIL
AAXX 11064 41926 NIL
AAXX 11064 41929 NIL
AAXX 11064 41933 31950 03103 10255 20160 30134 40143 70544 333 58010 70000
AAXX 11064 41939 NIL
AAXX 11064 41941 NIL
AAXX 11064 41946 31950 13101 10246 20220 30135 40140 70500 81030 333 56090 58005 70000 81360
AAXX 11064 41947 NIL
AAXX 11064 41951 32958 00000 10270 20170 30133 40138 333 58009 70000
AAXX 11064 41953 31950 03604 10264 20160 30131 40136 70500 333 58009 70000
AAXX 11064 41958 31930 30000 10260 20200 30131 40133 70540 83500 333 56600 58004 70000 83614
AAXX 11064 41960 NIL
AAXX 11064 41963 NIL
AAXX 11064 41964 NIL
AAXX 11064 41965 NIL
AAXX 11064 41966 NIL
AAXX 11064 41984 NIL
AAXX 11064 41989 NIL
AAXX 11064 41998 32956 03401 10280 20130 30123 40128 333 58005 70000
AAXX 11064 89065 46/// /9901 11023 21044 39624 49700 57005 90600
BBXX AMOUK08 11064 99501 70061 46/// ///// 10106 20084 30089 40096 57030 90550
BBXX 63106 11064 99610 10017 46/// /1713 10058 49949 57025 22200
BBXX 63105 11064 99610 10017 47798 ///// 10068 20006 49947 57026 700// 22200
BBXX 62304 11064 99511 10018 46/98 /1611 10080 20058 40139 56013 22200 00120 10701 70004
BBXX 62094 11064 99517 70067 46/// /2616 10094 20087 40052 57023 22200 00114 10505 70027 333 90710 91136
BBXX AMOUK04 11064 99533 70062 46/// ///// 10088 20070 30027 4//// 57015 90550
BBXX SKEC 11061 99571 10174 46/// ///// 10018 49985 52053 22235 00054
AAXX 11064 17090 12965 40000 11040 21105 38817 48573 52005 60002 80001 333 21094 3/110 45998 55019 84070
AAXX 11064 71408 46/// /3221 10028 20017 30027 40106 5/006 6///1 333 7////
BBXX WDF6832 11063 99379 10086 43/// /2802 10190 2012/ 40210 54000 7//// 8//// 22264 0//// 2//// 3//// 4//// 5//// 6//// 80150 ICE /////
BBXX A8VL8 11064 99251 30538 41298 40711 10230 20185 40140 54000 7//00 848// 22233 00250 20204 330// 40204 5//// 6//// 80200 ICE /////
BBXX MTDU5 11063 99339 30183 41297 82110 10170 20153 40154 54000 76162 8/7// 22200 04103 20801 3//// 4//// 5//// 80160
BBXX MTDU5 11063 99339 30183 41297 82110 10170 20153 40154 54000 76162 8/7// 22200 04103 20801 3//// 4//// 5//// 80160
BBXX BATFR41 11064 99436 10073 46/// /3405 10142 20087 40165 22232
BBXX 61001 11064 99434 10078 46/// /2502 10146 20104 40166 54000 22200 00159 10401 70005
BBXX BATFR20 11064 99431 10054 46/// /3606 10130 20094 40164 53002 22274
BBXX BATFR24 11064 99429 10095 46/// /2204 10149 20114 40174 53002 22243 00167
BBXX BATEU09 11064 99428 10073 46/// /2506 10149 20114 40170 58002 22282 00164
BBXX BATFR21 11064 99427 10089 46/// ///// 20142 40173 53001 22232
BBXX 61002 11064 99421 10047 46/// /0000 10136 2//// 40170 54000 22200 00151 10501 70003
BBXX BATFR31 11064 99418 10086 46/// /0611 10147 21135 40171 55001 22213 00172
BBXX BAREU62 11064 99391 10259 46/// ///// 40246 52016 22234
BBXX BATFR09 11064 99389 10092 44998 62404 10162 20124 40200 53004 70222 84032 22222 00184 20202 60//0 ICE 0/0//
BBXX BATFR01 11064 99389 10144 46/// /2309 10177 20117 40204 53007 22232 00185
BBXX NWS0020 11064 99379 10236 43/// /0403 10110 20074 40246 5//// 7//// 8//// 222// 04178 2//// 3//// 4//// 5//// 6//// 8//// ICE /////
BBXX DDZA2 11064 99375 10106 41798 72515 10170 20100 40195 54000 70322 87070 22264 04180 20301 80130
BBXX ZCBW2 11063 99372 10010 43498 72426 10160 20090 40170 56010 7//// 8427/ 22253 00200 20606 3//// 4//// 5//// 80130
BBXX DQVI 11063 99372 10242 41698 22006 10170 20105 40245 52010 70200 81240 22254 00171 29901 80135
BBXX PEBT 11063 99363 10218 41497 62116 10180 20163 40250 54000 76061 8466/ 22263 02162 20402 321// 40602 5//// 80169
BBXX WBDS 11063 99356 10172 43598 72320 10185 2013/ 40255 57010 7//// 8712/ 22265 00191 20303 3//// 4//// 5//// 6//// 80150 ICE /////
BBXX BAREU63 11064 99351 10232 46/// /3012 10168 29070 40272 52012 22233
BBXX DDVK2 11063 99338 10272 41498 13404 10165 20075 40278 53008 70100 81100 22274 00185 2//// 80116
BBXX HZZB 11063 99334 10254 41598 40209 10175 2013/ 40284 50004 70200 84100 22233 0//// 20401 326// 40602 5//// 6//// 80145 ICE /////
BBXX MTDU5 11063 99339 30183 41297 82110 10170 20153 40154 54000 76162 8/7// 22200 04103 20801 3//// 4//// 5//// 80160
BBXX AMOUK19 11064 99599 70012 46/// ///// 10080 20045 39927 49936 57016 90550
BBXX 64045 11064 99591 70117 46/// /2624 10045 20011 49852 56017 22200 00104 10810 70051 333 90710 91134
BBXX 62112 11064 99584 70002 47498 /2418 10074 20048 49960 56012 700// 22200
BBXX 62113 11064 99584 10002 47498 /2220 10078 20047 49962 57026 700// 22200
BBXX 62129 11064 99584 10003 46/// ///// 10080 20051 49965 57022 22200
BBXX WKAU 11063 99583 70024 41698 82519 10095 2007/ 49935 57/// 70222 884// 22274 00100 20304 3//// 4//// 5//// 6//// 80080 ICE /////
BBXX 62114 11064 99583 10000 46/// /2319 10079 20049 49958 56015 22200
BBXX AMOUK27 11064 99582 70064 46/// ///// 11027 21060 39923 49925 57015 90550
BBXX BATUK01 11064 99581 70035 46/// /2118 10067 20029 49946 58008 22211 00090
BBXX PJAI 11064 99581 70014 47998 /2319 10083 20032 49957 56010 700// 22200
BBXX 62111 11064 99580 70003 46/// /2520 10079 20052 49971 56017 22200 10605 70025
BBXX 62117 11064 99579 10000 47497 /2321 10089 20060 49965 57020 700// 22200 10605 70027
BBXX BATFR04 11064 99577 70064 46/// /2222 10069 20024 49932 56023 22213 00109
BBXX MINUK01 1106/ 99572 70019 46/// ///// 10063 49966 52004
BBXX MINUK05 1106/ 99571 70021 46/// ///// 10058 49971 57014
BBXX 62105 11064 99554 70122 46/// /2524 10074 20019 49956 57018 22200 00107 10911 70053 333 90710 91139
BBXX AMOUK14 11064 99533 70062 46/// ///// 10079 20055 30001 40041 57014 90550
BBXX AMOUK12 11064 99533 70048 46/// ///// 10081 20077 30001 40043 57020 90550
BBXX BATEU02 11064 99532 70103 46/// /2916 10084 20037 40016 56018 22200 00112
BBXX 62095 11064 99530 70159 46/// /2621 10078 20026 40018 56014 22200 00116 11317 70086 333 90710 91142
BBXX 62301 11064 99524 70047 46/// /2123 10100 20087 40048 57031 22200 00103 10505 70024 333 90710 91140
BBXX BAREU12 11064 99522 70056 46/// ///// 40039 57040 22283
BBXX 62094 11064 99517 70067 46/// /2616 10094 20087 40052 57023 22200 00114 10505 70027
BBXX 62303 11064 99516 70051 46/// /2222 10107 20086 40064 56032 22200 00119 10505 70027 333 90710 91129
BBXX 62023 11063 99514 70079 46/97 /2615 10085 2//// 40073 5//// 22200 10504 70021 555 70034 80019
BBXX 62081 11064 99510 70134 46/// ///// 10096 20052 40064 56016 22200 00120 10708 70039
BBXX BAREU04 11064 99509 70203 46/// ///// 40094 57009 22224
BBXX BATFR02 11064 99508 70011 46/// /2315 10084 20054 40134 56025 22272 00109
BBXX AMOUK06 11064 99507 70014 46/// ///// 10104 20055 30098 40121 57020 90550
BBXX MINFR05 1106/ 99505 10005 46/// ///// 10090 40132 57022
BBXX 62305 11064 99504 10000 46/98 /2224 10096 20045 40143 56015 22200 00127 10501 70006 333 90710 91133
BBXX TESTFR9 11064 99503 70042 46/// ///// 10106 29072 40128 57024 22211
BBXX AMOUK08 11064 99501 70061 46/// ///// 10106 20084 30089 40096 57030 90550
BBXX MSTM6 11063 99501 70010 41/98 81312 10095 20051 40141 57020 70222 88/// 22224 06135 2//02 3//// 4//// 5//// 80075
BBXX BATFR62 11064 99500 70003 46/// /2323 10097 20054 40135 58025 22262 00139
BBXX 62103 11064 99499 70029 46/99 /2518 10108 20050 40120 57025 22200 00129 10601 70007
BBXX SKWI 11064 99496 70041 43/98 72425 10107 40120 56022 22540 00150 2//// 4////
BBXX WKAE 11064 99492 70136 41398 82816 10105 20055 40105 57015 70222 884// 22224 00130 2//// 3//// 4//// 5//// 6//// 80080 ICE /////
BBXX 62027 11064 99491 70022 46/// /2017 1//// 2//// 40136 57025 22200 00126 10402 322// 70011
BBXX 62442 11064 99490 70164 46/// /2724 1//// 2//// 40122 55007 22200 00130 333 90710 91134
BBXX 62029 11064 99487 70125 46/// /2820 10111 20074 40106 55007 22200 00136 10706 70030 333 90710 91127
BBXX BATFR44 11064 99484 70045 46/// /1609 10085 20032 40135 56016 22211 00104
BBXX DBBH 11061 99482 70064 41498 72107 10106 20072 40132 57017 70311 875// 22252 04128
BBXX 62163 11064 99475 70084 46/// /2416 10112 20078 40130 57021 22200 00133 10704 70021
BBXX BATFR61 11064 99471 70068 46/// /2104 10109 20100 40136 56021 22243 00149
BBXX BATFR15 11064 99458 70055 46/// /2612 10134 20109 40139 56019 22254 00150
BBXX BATFR06 11064 99453 70015 46/// /0814 10129 20127 40153 56004 22241 00162
BBXX BATFR54 11064 99453 70008 46/// /1107 10100 20094 40153 56004 22242 00124
BBXX 62001 11064 99452 70050 46/// /2711 10129 20104 40148 55008 22200 00152 10805 70023
BBXX BATFR42 11064 99445 70040 46/// /2408 10142 20105 40152 53001 22243 00162
BBXX C6CU6 11063 99442 70136 41397 72518 10135 20126 40170 57030 70322 85778 22253 04145 20701 334// 41504 5//// 80130
BBXX SBLW 11063 99434 70175 43/98 73223 10135 40202 53010 22254 00147 2//// 4////
BBXX DDSC2 11063 99428 70209 41597 63422 10130 20063 40235 56015 70322 867// 22225 00141 20704 334// 41408 80095
BBXX BAREU06 11064 99398 70271 46/// ///// 40275 52006 22264
BBXX 2AQK9 11064 99388 70098 41/97 43206 10150 20150 40205 55003 70200 847// 22284 20404 336// 40506 5//// 80150
BBXX BATFR46 11064 99365 70020 46/// /2725 10162 20124 40169 55006 22253 00179
BBXX DGWD2 11063 99364 70015 41/98 32618 10175 20134 40180 56005 70200 82/// 22224 00170 2//// 80150
BBXX PBEO 11063 99362 70069 41597 73215 10160 20088 40202 53002 70222 878// 22262 02180 20402 327// 40401 80120
BBXX BAREU05 11064 99362 70042 46/// ///// 40180 52000 22264
BBXX DMQN 11063 99352 70158 41598 53110 10170 20146 40243 50003 72581 8347/ 22214 04190 21501 3//// 4//// 5//// 80155
BBXX 42370 11061 99273 70905 46/// ///// 10168 90540 22200 10605 70026
AAXX 1106/ 89327 46/// ///// 11043 39516 4//// 5////
AAXX 11064 60686 12958 20610 10110 21032 40189 52004 60004 80002 333 01000 20110 82073
AAXX 11064 48327 32560 82203 10250 20160 39808 40164 57017 86836 333 58023
AAXX 1106/ 89872 46/// ///// 11039 39737 4//// 5//// 90630
AAXX 1106/ 89866 46/// ///// 11048 39667 4//// 5//// 90640
AAXX 1106/ 89329 46/// ///// 11109 38636 4//// 5//// 90630
AAXX 1106/ 89799 46/// ///// 11290 4//// 5//// 90630
AAXX 1106/ 89769 46/// ///// 11049 39755 4//// 5//// 90640
AAXX 1106/ 89327 46/// ///// 11048 39513 4//// 5//// 90640
AAXX 1106/ 89879 46/// ///// 11005 39687 4//// 5//// 90630
BBXX A8OU4 11064 99416 11413 41598 53220 10040 21016 40140 54000 75272 82262 22224 00140 20504 3//// 4//// 5//// 80020
BBXX WDA2768 11064 99451 70869 43/// /3540 00/// 11024 21061 40236 55003 7//// 8//// 22243 0//// 2//// 3//// 4//// 5//// 6//// 81038 ICE /////
BBXX WDA2768 11064 99451 70869 43/// /3540 00/// 11024 21061 40236 55003 7//// 8//// 22243 0//// 2//// 3//// 4//// 5//// 6//// 81038 ICE /////
BBXX 42370 11061 99273 70905 46/// ///// 10168 90540 22200 10605 70026
BBXX MTDU5 11063 99339 30183 41297 82110 10170 20153 40154 54000 76162 8/7// 22200 04103 20801 3//// 4//// 5//// 80160
BBXX ZCAO7 11064 99089 31240 41597 42809 10301 20249 40068 57007 70200 83142 22212 00311 20601 323// 40701 80264
BBXX A8RW5 11064 99128 11179 41397 51208 10280 20253 40060 50000 76011 85764 22223 00/// 21005 302// 41005 80260
BBXX VRGW2 11064 99155 11147 41297 50526 10250 20237 40099 58022 72111 8/22/ 22214 04270 21411 399// 41411 80241
BBXX 9MCN8 11064 99138 11189 41498 81322 10275 20238 40081 5//// 70222 8877/ 22213 00290 20203 320// 40905 80249
BBXX 9VBS 11064 99063 10958 41497 81015 10250 20243 40120 51010 76055 886// 22224 04260 20302 312// 40402 80245
BBXX DQVN 11063 99234 11177 41/97 73629 10150 20076 40220 56020 7//// 877// 22254 00199 20507 303// 40608 80110
BBXX VRVA5 11064 99120 10448 41498 10713 10320 20238 40170 54000 70200 81100 22255 00280 20603 307// 40301 80260
AAXX 11064 96147 31456 73614 10274 20239 30094 40101 56021 71522 84521 333 56000 84614 85460
AAXX 11064 60135 32450 61806 10108 20099 40220 55001 83530 333 20101 30007 83615 86357
BBXX AMOUK14 11064 99533 70062 46/// ///// 10079 20055 30001 40041 57014 90550
BBXX 63106 11064 99610 10017 46/// /1713 10058 49949 57025 22200
BBXX 63113 11064 99610 10017 46/// /1814 10062 20004 49947 57025 22200 10806 70029
BBXX 62304 11064 99511 10018 46/96 /16// 10080 20058 40139 56013 22200 00120 10701 70004
BBXX 62107 11064 99501 70061 46/// /2129 10099 20072 40093 56028 22200 00121 10703 70016 333 90710 91134
BBXX 62094 11064 99517 70067 46/// /2616 10094 20087 40052 57023 22200 00114 10505 70027
AAXX 1106/ 68902 46/// ///// 40116 52023
AAXX 11064 96001 01456 10240 20234 39972 40121 57006 60111 79596 85922 333 56200 57922 60107 82917 83617 80959
AAXX 11064 87692 11560 73207 10173 20151 30066 40091 54000 60151 70292 84520 333 56670 84625 86556 555 10090
AAXX 11064 62476 32960 02005 10186 20130 40174 52015 333 20148
BBXX SHIP 11064 99120 10448 41498 10713 10320 20238 40170 54000 70200 81100 22255 00280 20603 307// 40301 80260
BBXX VRGW2 11064 99155 11147 41297 50526 10250 20237 40099 58022 72111 8/22/ 22214 04270 21411 399// 41411 80241
BBXX 9VBS 11064 99063 10958 41497 81015 10250 20243 40120 51010 76055 886// 22224 04260 20302 312// 40402 80245
BBXX SHIP 11064 99138 11189 41498 81322 10275 20238 40081 5//// 70222 8877/ 22213 00290 20203 320// 40905 80249
BBXX DQVN 11063 99234 11177 41/97 73629 10150 20076 40220 56020 7//// 877// 22254 00199 20507 303// 40608 80110
BBXX A8RW5 11064 99128 11179 41397 51208 10280 20253 40060 50000 76011 85764 22223 00/// 21005 302// 41005 80260
BBXX A8OU4 11064 99416 11413 41598 53220 10040 21016 40140 54000 75272 82262 22224 00140 20504 3//// 4//// 5//// 80020
BBXX ZCAO7 11064 99089 31240 41597 42809 10301 20249 40068 57007 70200 83142 22212 00311 20601 323// 40701 80264
AAXX 11064 60105 11550 81808 10120 20112 40219 5//// 69944 72162 885// 333 20095 32006 88620
AAXX 11064 83827 32970 01505 10194 20190 39786 40058 51009
AAXX 11064 91375 46/// /0310 10279 40080 22200 00287
BBXX 42370 11061 99273 70905 46/// ///// 10170 90600 22200 10606 70029
BBXX A8OU4 11064 99416 11413 41598 53220 10040 21016 40140 54000 75272 82262 22224 00140 20504 3//// 4//// 5//// 80020
BBXX UFLT 11061 99481 11448 42/96 92810 11060 40018 54000 22253 00030 20603 328// 40603
AAXX 11064 91165 12466 20214 10217 20189 30148 40183 50008 69931 90553
AAXX 11064 91203 11474 80809 10311 20274 30100 40105 5//// 60011 72522 83976
AAXX 11064 91212 12566 20713 10272 20244 31360 40098 55008 60161 90554
AAXX 11064 91245 32466 20714 10290 20240 30161 90558
AAXX 11064 91285 31558 82806 10200 20180 30161 761// 90607
AAXX 11064 91324 32474 80909 10306 2026 30058 4006 82201
AAXX 11064 91334 32474 80412 10297 20242 30068 40071 55007
AAXX 11064 91348 11472 80810 10258 20227 30030 40083 53002 60041 78082 85271
AAXX 11064 91367 32474 20806 10294 20265 83100
AAXX 11064 91376 11474 50407 10279 20235 30076 40080 53003 60021 70282 83801
AAXX 11064 91408 32474 81807 10297 20248 30042 40080 57020 83978
AAXX 11064 91413 11469 71110 10305 20253 30063 40088 57012 69931 70282 83271
AAXX 11064 91155 NIL
AAXX 11064 91217 NIL
AAXX 11064 91232 NIL
AAXX 11064 91250 NIL
AAXX 11064 91275 NIL
AAXX 11064 91317 NIL
AAXX 11064 91339 NIL
AAXX 11064 91353 NIL
AAXX 11064 91356 NIL
AAXX 11064 91366 NIL
AAXX 11064 91369 NIL
AAXX 11064 91371 NIL
AAXX 11064 91378 NIL
AAXX 11064 91425 NIL
AAXX 11064 91434 NIL
AAXX 11064 91601 NIL
AAXX 11064 91610 NIL
AAXX 11064 62600 32970 03608 10130 20040 39991 40126 333 10220 20095 58001
AAXX 11064 62640 31962 00214 10170 20020 39778 40144 70700 333 10295 20150 59011
AAXX 11064 62641 31565 73215 10220 20170 30117 40165 60014 76062 87500 333 10264 20202 56900 58001 87630
AAXX 11064 62650 32970 03508 10115 21005 333 40183 10251 20093 59005
AAXX 11064 62660 32970 03603 10170 21020 39874 40180 333 10290 20140 58004
AAXX 11064 62680 31968 33610 10204 20106 39738 40137 70600 80002 333 10307 20177 56009 58006 83080
AAXX 11064 62721 32970 73410 10190 20020 39701 40050 80007 333 10305 20170 56009 58007 87275
AAXX 11064 62730 32970 00000 10255 20177 39585 40148 333 10347 20213 58005
AAXX 11064 62733 32970 03205 10220 20170 39617 40129 333 10345 20180 58004
AAXX 11064 62750 32970 73208 10202 20055 39684 40112 80007 333 10310 20185 56009 58002 87275
AAXX 11064 62751 32970 03410 10220 20019 39678 40141 333 10334 20162 58009
AAXX 11064 62752 32970 00504 10230 20160 39436 40113 80007 333 20196 58007
AAXX 11064 62760 32970 70306 10146 21006 39322 40161 80007 333 10262 20110 56009 59005 87275
AAXX 11064 62762 32970 70409 10202 21040 39631 40111 80007 333 10335 20160 56009 58003 87275
AAXX 11064 62770 31965 70417 10130 21020 39248 40122 70722 80007 333 10263 20120 56009 58004 87275
AAXX 11064 62600 32970 03608 10130 20040 39991 40126 333 10220 20095 58001
AAXX 11064 62640 31962 00214 10170 20020 39778 40144 70700 333 10295 20150 59011
AAXX 11064 62641 31565 73215 10220 20170 30117 40165 60014 76062 87500 333 10264 20202 56900 58001 87630
AAXX 11064 62650 32970 03508 10115 21005 333 40183 10251 20093 59005
AAXX 11064 62660 32970 03603 10170 21020 39874 40180 333 10290 20140 58004
AAXX 11064 62680 31968 33610 10204 20106 39738 40137 70600 80002 333 10307 20177 56009 58006 83080
AAXX 11064 62721 32970 73410 10190 20020 39701 40050 80007 333 10305 20170 56009 58007 87275
AAXX 11064 62730 32970 00000 10255 20177 39585 40148 333 10347 20213 58005
AAXX 11064 62733 32970 03205 10220 20170 39617 40129 333 10345 20180 58004
AAXX 11064 62750 32970 73208 10202 20055 39684 40112 80007 333 10310 20185 56009 58002 87275
AAXX 11064 62751 32970 03410 10220 20019 39678 40141 333 10334 20162 58009
AAXX 11064 62752 32970 00504 10230 20160 39436 40113 80007 333 20196 58007
AAXX 11064 62760 32970 70306 10146 21006 39322 40161 80007 333 10262 20110 56009 59005 87275
AAXX 11064 62762 32970 70409 10202 21040 39631 40111 80007 333 10335 20160 56009 58003 87275
AAXX 11064 62770 31965 70417 10130 21020 39248 40122 70722 80007 333 10263 20120 56009 58004 87275
BBXX AMOUK08 11064 99501 70061 46/// ///// 10106 20084 30089 40096 57030 90550
BBXX 63106 11064 99610 10017 46/// /1713 10058 49949 57025 22200
BBXX 63105 11064 99610 10017 47798 ///// 10068 20006 49947 57026 700// 22200
BBXX 62304 11064 99511 10018 46/98 /1611 10080 20058 40139 56013 22200 00120 10701 70004
BBXX 62094 11064 99517 70067 46/// /2616 10094 20087 40052 57023 22200 00114 10505 70027 333 90710 91136
BBXX AMOUK04 11064 99533 70062 46/// ///// 10088 20070 30027 4//// 57015 90550
AAXX 11064 91165 12466 20214 10217 20189 30148 40183 50008 69931 90553
AAXX 11064 91212 12566 20713 10272 20244 31360 40098 55008 60161 90554
AAXX 11064 91285 31558 82806 10200 20180 30161 761// 90607
AAXX 11064 91334 32474 80412 10297 20242 30068 40071 55007
AAXX 11064 91348 11472 80810 10258 20227 30030 40083 53002 60041 78082 85271
AAXX 11064 91376 11474 50407 10279 20235 30076 40080 53003 60021 70282 83801
AAXX 11064 91408 32474 81807 10297 20248 30042 40080 57020 83978
AAXX 11064 91413 11469 71110 10305 20253 30063 40088 57012 69931 70282 83271
AAXX 11064 91245 32466 20714 10290 20240 30161 90558
BBXX 9V7645 11063 99129 70780 419// 60515 10270 20243 40090 51025 70188 8618/ 22214 04290 2//// 3//// 4//// 5//// 6//// 80250 ICE /////
BBXX 9V7645 11063 99129 70780 419// 60515 10270 20243 40090 51025 70188 8618/ 22214 04290 2//// 3//// 4//// 5//// 6//// 80250 ICE /////
BBXX 42370 11061 99273 70905 46/// ///// 10170 90600 22200 10606 70029
AAXX 11061 31913 43/// /3103 11041 21133 30052 40172 55007
AAXX 11064 71732 16/// /1603 11060 21077 60001 333 11041 21116 70000
AAXX 11064 71732 16/// /1603 11060 21077 60001 333 11041 21116 70000
BBXX ELWR2 11064 99289 11309 41498 73425 10188 20116 40235 56015 70322 8767/ 22254 04220 20302 334// 40705 80145
AAXX 11064 78762 32670 60905 10207 20195 39090 40099 57009 81650 333 10278 20203 30/// 5633/ 59004 81635 83562
AAXX 11064 78762 32670 60905 10207 20195 39090 40099 57009 81650 333 10278 20203 30/// 5633/ 59004 81635 83562
AAXX 11064 78762 32670 60905 10207 20195 39090 40099 57009 81650 333 10278 20203 30/// 5633/ 59004 81635 83562
AAXX 11064 68442 12480 73307 10155 20128 38647 48498 53005 60164 875// 333 20097 91010 555 10173 20166 91017
BBXX 42043 11061 99290 70949 46/// /0608 1//// 40296 90630 22200 00165 333 91210
BBXX 42043 11061 99290 70949 46/// /0607 1//// 40295 90600 22200 00165 333 91210
BBXX 42044 11061 99262 70971 46/// /1007 10182 20126 40245 90630 22200 00194 333 91211
BBXX 42045 11061 99262 70965 46/// /0909 10174 40244 90630 22200 00219 333 91212
BBXX 42046 11061 99279 70940 46/// /0710 1//// 40272 90630 22200 00225 333 91212
BBXX 42046 11061 99279 70940 46/// /0508 1//// 40277 90600 22200 00225 333 91210
BBXX PBIG 11064 99125 70718 41598 30914 10269 20211 40080 54000 7//// 8/1// 22264 20203 80230
AAXX 11064 16172 12561 70000 10090 20081 39895 40196 56003 60002 84230 333 20086 31/// 55/// 2//// 84823 83356
BBXX ZCDQ4 11064 99420 10110 41798 41911 10160 20130 40190 54000 70301 82034 22274 00197 20301 30201 40201 80140
BBXX ELWR2 11064 99289 11309 41498 73425 10188 20116 40235 56015 70322 8767/ 22254 04220 20302 334// 40705 80145
BBXX 42046 11061 99279 70940 46/// /0508 1//// 40277 90600 22200 00225 333 91210
BBXX 42046 11061 99279 70940 46/// /0710 1//// 40272 90630 22200 00225 333 91212
BBXX 42045 11061 99262 70965 46/// /0909 10174 40244 90630 22200 00219 333 91212
BBXX 42044 11061 99262 70971 46/// /1007 10182 20126 40245 90630 22200 00194 333 91211
BBXX 42043 11061 99290 70949 46/// /0607 1//// 40295 90600 22200 00165 333 91210
BBXX 42043 11061 99290 70949 46/// /0608 1//// 40296 90630 22200 00165 333 91210
BBXX PBIG 11064 99125 70718 41598 30914 10269 20211 40080 54000 7//// 8/1// 22264 20203 80230
BBXX AMOUK14 11064 99533 70062 46/// ///// 10079 20055 30001 40041 57014 90550
BBXX 63106 11064 99610 10017 46/// /1713 10058 49949 57025 22200
BBXX 63113 11064 99610 10017 46/// /1814 10062 20004 49947 57025 22200 10806 70029
BBXX 62304 11064 99511 10018 46/96 /16// 10080 20058 40139 56013 22200 00120 10701 70004
BBXX 62107 11064 99501 70061 46/// /2129 10099 20072 40093 56028 22200 00121 10703 70016 333 90710 91134
BBXX 62094 11064 99517 70067 46/// /2616 10094 20087 40052 57023 22200 00114 10505 70027
BBXX ZCDQ4 11064 99420 10110 41798 41911 10160 20130 40190 54000 70301 82034 22274 00197 20301 30201 40201 80140
AAXX 11064 60185 32960 /1003 10791 20073 40242 5//// 8//// 333 20074 30045 8////
BBXX 42370 11061 99273 70905 46/// ///// 10170 90620 22200 10606 70029
BBXX 42370 11061 99273 70905 46/// ///// 10170 90620 22200 10606 70029
BBXX ZCDQ4 11064 99420 10110 41798 41911 10160 20130 40190 54000 70301 82034 22274 00197 20301 30201 40201 80140
BBXX 52243 11061 99193 11666 46/// ///// 1//// 90600 22200 00272
BBXX 51179 11061 99143 51708 46/// ///// 1//// 90600 22200 00285
BBXX 51178 11061 99142 51695 46/// ///// 1//// 90600 22200 00283
BBXX 52245 11061 99181 11458 46/// ///// 1//// 90600 22200 00287
BBXX 51174 11061 99142 51697 46/// ///// 1//// 90600 22200 00284
BBXX 51173 11061 99260 71739 46/// ///// 1//// 90600 22200 00243
BBXX 51172 11061 99284 71783 46/// ///// 1//// 90600 22200 00241
BBXX 51171 11061 99064 71623 46/// ///// 1//// 90600 22200 00282
BBXX 51170 11061 99168 71695 46/// ///// 1//// 90600 22200 00265
BBXX 51169 11061 99004 51600 46/// ///// 1//// 90600 22200 00258
BBXX 52248 11061 99135 11448 46/// ///// 1//// 90600 22200 00288
AAXX 11064 89065 46/// /3309 10007 21058 39621 49697 57006 90620
AAXX 11064 89266 46/// /0403 11057 21063 39637 49775 57002 90630
AAXX 11064 89266 46/// /0403 11057 21063 39638 49776 57002 90620
AAXX 11064 89262 46/// /1306 11004 21007 39658 49700 57012 90620
AAXX 11064 89272 46/// /0710 11174 21209 37961 49616 57006 90620
AAXX 11064 89257 46/// /0209 11085 21092 39716 49786 52003 90620
AAXX 11064 89065 46/// /3310 10011 21060 39620 49695 57007 90630
AAXX 11064 89272 46/// /0711 11179 21218 37960 49618 57007 90630
BBXX AMOUK08 11064 99501 70061 46/// ///// 10106 20084 30089 40096 57030 90550
BBXX 63106 11064 99610 10017 46/// /1713 10058 49949 57025 22200
BBXX 63105 11064 99610 10017 47798 ///// 10068 20006 49947 57026 700// 22200
BBXX 62304 11064 99511 10018 46/98 /1611 10080 20058 40139 56013 22200 00120 10701 70004
BBXX 62094 11064 99517 70067 46/// /2616 10094 20087 40052 57023 22200 00114 10505 70027 333 90710 91136
BBXX AMOUK04 11064 99533 70062 46/// ///// 10088 20070 30027 4//// 57015 90550
BBXX S6SR 11064 99440 50423 41396 83417 10140 20105 40190 56010 7//// 8//// 22223 00120 2//04 335// 4//// 5//// 6//// 80120 ICE /////
BBXX ONAN 11064 99005 51397 41596 31021 10250 2024/ 40110 50010 70122 823// 22273 00250 21205 3//// 41004 5//// 6//// 80240 ICE /////
BBXX S6SR 11064 99440 50423 41396 83417 10140 20105 40190 56010 7//// 8//// 22223 00120 2//04 335// 4//// 5//// 6//// 80120 ICE /////
BBXX 52248 11061 99135 11448 46/// ///// 1//// 90600 22200 00288
BBXX 52243 11061 99193 11666 46/// ///// 1//// 90600 22200 00272
BBXX 52245 11061 99181 11458 46/// ///// 1//// 90600 22200 00287
BBXX ONAN 11064 99005 51397 41596 31021 10250 2024/ 40110 50010 70122 823// 22273 00250 21205 3//// 41004 5//// 6//// 80240 ICE /////
BBXX 51178 11061 99142 51695 46/// ///// 1//// 90600 22200 00283
BBXX 51174 11061 99142 51697 46/// ///// 1//// 90600 22200 00284
BBXX 51179 11061 99143 51708 46/// ///// 1//// 90600 22200 00285
BBXX 51169 11061 99004 51600 46/// ///// 1//// 90600 22200 00258
BBXX 51170 11061 99168 71695 46/// ///// 1//// 90600 22200 00265
BBXX 51171 11061 99064 71623 46/// ///// 1//// 90600 22200 00282
BBXX 51173 11061 99260 71739 46/// ///// 1//// 90600 22200 00243
BBXX 51172 11061 99284 71783 46/// ///// 1//// 90600 22200 00241
AAXX 1106/ 89866 46/// ///// 11049 39665 4//// 5////
AAXX 1106/ 89769 46/// ///// 11046 39756 4//// 5////
BBXX AMOUK14 11064 99533 70062 46/// ///// 10079 20055 30001 40041 57014 90550
BBXX 63106 11064 99610 10017 46/// /1713 10058 49949 57025 22200
BBXX 63113 11064 99610 10017 46/// /1814 10062 20004 49947 57025 22200 10806 70029
BBXX 62304 11064 99511 10018 46/96 /16// 10080 20058 40139 56013 22200 00120 10701 70004
BBXX 62107 11064 99501 70061 46/// /2129 10099 20072 40093 56028 22200 00121 10703 70016 333 90710 91134
BBXX 62094 11064 99517 70067 46/// /2616 10094 20087 40052 57023 22200 00114 10505 70027
AAXX 11064 48358 32962 00000 10225 20093 30024 40203 56009 333 58034
AAXX 11064 91487 NIL
AAXX 11064 91490 11599 21410 10267 2024/ 40098 69911 70128 82100 333 563//
AAXX 11064 91533 NIL
AAXX 11064 91601 NIL
AAXX 11064 91610 11499 60414 10277 20218 40067 53007 60001 70301 82238 333 56199
AAXX 11064 91623 NIL
AAXX 11064 91629 NIL
AAXX 11064 91701 11599 10906 10271 2025/ 4//// 60001 70200 81100 333 562//
AAXX 11061 10961 11/89 32511 11079 21090 37049 47014 53001 60032 72844 82542 333 11063 21079 49080 55000 55300 20000 40815 70069 826// 91121 91215 94540 95188 96249 96449 444 18179 26220 86122
AAXX 11064 97722 31460 71406 10294 20242 30059 40074 57014 71522 85972 333 56600 57961 57861 81918 83819 80972 80857
AAXX 11061 28722 31994 72301 11188 21201 30153 40296 53001 71022 80005 333 21215
BBXX AMOUK08 11064 99501 70061 46/// ///// 10106 20084 30089 40096 57030 90550
BBXX 63106 11064 99610 10017 46/// /1713 10058 49949 57025 22200
BBXX 63105 11064 99610 10017 47798 ///// 10068 20006 49947 57026 700// 22200
BBXX 62304 11064 99511 10018 46/98 /1611 10080 20058 40139 56013 22200 00120 10701 70004
BBXX 62094 11064 99517 70067 46/// /2616 10094 20087 40052 57023 22200 00114 10505 70027 333 90710 91136
BBXX AMOUK04 11064 99533 70062 46/// ///// 10088 20070 30027 4//// 57015 90550
AAXX 11064 71392 16/// /2505 11090 21118 60001 333 10001 21092 70000
AAXX 11064 71392 16/// /2505 11090 21118 60001 333 10001 21092 70000
AAXX 11064 41267 35/80 /3310 10242 20124 30173 40188 333 0E020 20209 59021
AAXX 11064 41295 36/// /3504 10226 20161 30007 40183 333 0E019 20157 59006
AAXX 11064 60571 12962 10000 10045 20033 39287 48534 56002 60004 81080 333 0//00 20045 81360 95990
BBXX 42047 11061 99279 70936 46/// /0609 10149 20058 40275 90630 22200 00228 333 91211
BBXX 42047 11061 99279 70936 46/// /0609 10147 20060 40279 90600 22200 00228 333 91211
BBXX 42047 11061 99279 70936 46/// /0609 10149 20058 40275 90630 22200 00228 333 91211
BBXX 42047 11061 99279 70936 46/// /0609 10147 20060 40279 90600 22200 00228 333 91211
AAXX 11061 38222 42998 03601 11002 21062 39700 40266 57029
AAXX 11061 38343 42998 50000 10027 21058 39417 40262 57003 80001
AAXX 11061 38343 42998 50000 10027 21058 39417 40262 57003 80001
AAXX 11061 38222 42998 03601 11002 21062 39700 40266 57029
AAXX 11061 38341 42998 60000 10012 21055 39453 40243 57021 80002
AAXX 11061 38341 42998 60000 10012 21055 39453 40243 57021 80002
AAXX 11064 41287 36/// /0407 10240 20135 30147 40215 333 0E016 20146 59007
BBXX AMOUK14 11064 99533 70062 46/// ///// 10079 20055 30001 40041 57014 90550
BBXX 63106 11064 99610 10017 46/// /1713 10058 49949 57025 22200
BBXX 63113 11064 99610 10017 46/// /1814 10062 20004 49947 57025 22200 10806 70029
BBXX 62304 11064 99511 10018 46/96 /16// 10080 20058 40139 56013 22200 00120 10701 70004
BBXX 62107 11064 99501 70061 46/// /2129 10099 20072 40093 56028 22200 00121 10703 70016 333 90710 91134
BBXX 62094 11064 99517 70067 46/// /2616 10094 20087 40052 57023 22200 00114 10505 70027
AAXX 11064 41270 36/70 /0209 10245 20138 30132 40144 333 0E017 20175 59018
AAXX 11061 01218 11889 41201 10002 21002 39978 40000 50003 69942 70121 81088 333 20001 43017 70008 91102
AAXX 11064 61404 32960 70804 10177 21048 39768 40159 83082 333 0//00 20177 5//// 55/// 58008 83363 86073
AAXX 11064 61421 33958 40610 10196 21020 39884 40139 80002 333 0//00 20193 5//// 55/// 59006 84080
AAXX 11064 61437 31956 60408 10192 20044 30017 40154 80002 333 0//00 20187 5//// 55/// 58001 86073
AAXX 11064 61450 41950 20804 10190 21001 39692 40150 70600 82030 333 59001 82363
AAXX 11064 61461 31956 00804 10200 20030 30049 40135 70600 333 0//00 20200 5//// 55/// 58001
AAXX 11064 61489 31956 40000 10219 20043 30118 40125 70500 84070 333 0//00 20200 50524 55/// 58002 84363
AAXX 11064 61492 32960 00808 10220 21080 30135 40154 333 0//00 20220 5//// 59004
AAXX 11064 61497 44910 00814 10227 21047 39885 4//// 707// 333 0//00 20204 5//// 55/// 59001
AAXX 11064 41253 36/// /1804 10232 20109 39815 40199 333 0E015 20139 59020
AAXX 11064 60367 11560 6//// 10111 20084 40189 53002 60004 700// 83502 333 20103 83640 85070
BBXX AMOUK08 11064 99501 70061 46/// ///// 10106 20084 30089 40096 57030 90550
BBXX 63106 11064 99610 10017 46/// /1713 10058 49949 57025 22200
BBXX 63105 11064 99610 10017 47798 ///// 10068 20006 49947 57026 700// 22200
BBXX 62304 11064 99511 10018 46/98 /1611 10080 20058 40139 56013 22200 00120 10701 70004
BBXX 62094 11064 99517 70067 46/// /2616 10094 20087 40052 57023 22200 00114 10505 70027 333 90710 91136
BBXX AMOUK04 11064 99533 70062 46/// ///// 10088 20070 30027 4//// 57015 90550
AAXX 11064 41244 36/// /3407 10201 20092 39850 48387 333 0E012 20098 59004
AAXX 11064 41263 36/// /2702 10207 20028 39512 40205 333 0E012 20118 59011
AAXX 11064 41265 36/// /9902 10216 20073 39648 40202 333 0E019 20104 59015
BBXX DEFY 11063 99145 70576 41/98 2//// 10276 20235 40102 57007 70100 22262 02275 80246
AAXX 11064 41244 36/// /3407 10201 20092 39850 48387 333 0E012 20098 59004
AAXX 11064 42874 32996 03602 10270 20112 40132 333 59003
AAXX 11064 63714 32980 00000 10166 20115 48508 81100 333 20098 58001 81818
BBXX VRDO9 11064 99063 10033 41995 /0512 10300 20208 40120 5/010 705// 8//// 22200 0//// 20201 321// 40201 5//// 6//// 80235 ICE /////
BBXX DEFY 11063 99145 70576 41/98 2//// 10276 20235 40102 57007 70100 22262 02275 80246
AAXX 11061 89063 41496 80408 10022 21004 39652 49663 57008 76062 886//
BBXX AMOUK14 11064 99533 70062 46/// ///// 10079 20055 30001 40041 57014 90550
BBXX 63106 11064 99610 10017 46/// /1713 10058 49949 57025 22200
BBXX 63113 11064 99610 10017 46/// /1814 10062 20004 49947 57025 22200 10806 70029
BBXX 62304 11064 99511 10018 46/96 /16// 10080 20058 40139 56013 22200 00120 10701 70004
BBXX 62107 11064 99501 70061 46/// /2129 10099 20072 40093 56028 22200 00121 10703 70016 333 90710 91134
BBXX 62094 11064 99517 70067 46/// /2616 10094 20087 40052 57023 22200 00114 10505 70027
AAXX 11061 89063 41496 80408 10022 21004 39652 49663 57008 76062 886//
BBXX WDE8293 11064 99121 10448 41598 30705 10270 20197 40155 52010 70200 831// 22265 00280 20102 305// 40202 5//// 6//// 80220 ICE /////
BBXX VRDO9 11064 99063 10033 41995 /0512 10300 20208 40120 5/010 705// 8//// 22200 0//// 20201 321// 40201 5//// 6//// 80235 ICE /////
BBXX WDE8293 11064 99121 10448 41598 30705 10270 20197 40155 52010 70200 831// 22265 00280 20102 305// 40202 5//// 6//// 80220 ICE /////
AAXX 11064 96935 32560 71405 10316 20245 30068 40074 57022 82101 333 56000 82820 86080
AAXX 11064 16021 12965 00205 11024 21041 37969 48492 53005 60002 333 21032 30/// 55/// 2////
BBXX AMOUK08 11064 99501 70061 46/// ///// 10106 20084 30089 40096 57030 90550
BBXX 63106 11064 99610 10017 46/// /1713 10058 49949 57025 22200
BBXX 63105 11064 99610 10017 47798 ///// 10068 20006 49947 57026 700// 22200
BBXX 62304 11064 99511 10018 46/98 /1611 10080 20058 40139 56013 22200 00120 10701 70004
BBXX 62094 11064 99517 70067 46/// /2616 10094 20087 40052 57023 22200 00114 10505 70027 333 90710 91136
BBXX AMOUK04 11064 99533 70062 46/// ///// 10088 20070 30027 4//// 57015 90550
AAXX 11064 71713 16/// /0403 11073 21106 60001 333 10016 21088 70018 555 32226 40071
AAXX 11064 71614 16/// /2703 11036 21074 30222 40290 51011 60001 333 10003 21062 70006 555 32917 40081
AAXX 11064 41259 36/// /0204 10116 21224 37160 40343 333 0E/// 20077 59006
AAXX 11061 40656 12960 03005 10058 20034 21015 40235 60002
AAXX 11061 40662 11920 03303 10070 20009 40259 50010 60002 70600
AAXX 11061 40665 11950 03204 10089 20035 40272 52009 60002 70600
AAXX 11061 40670 12960 03203 10075 20040 40271 53011 60002
AAXX 11061 40672 12960 03003 10080 20025 40286 53016 60002
AAXX 11061 40674 11930 03308 10082 21020 40275 52016 60002 70700
AAXX 11061 40676 11908 02704 10088 20002 40271 52019 60002 70640
AAXX 11061 40680 11950 02706 10094 20025 40252 52011 60002 70600
AAXX 11061 40689 11240 03009 10096 20020 40264 52020 60002 70700
AAXX 11061 40690 11912 03108 10098 20021 40256 52006 60002 70700
AAXX 11061 40691 11915 02406 10114 20021 40268 52016 60002 70600
AAXX 11061 40608 11930 02702 10024 20018 40303 52013 60002 71000
AAXX 11061 40621 11958 00301 10085 20005 40299 52008 60002 70600
AAXX 11061 40629 12960 32602 10035 21006 40309 52016 60002 80002
AAXX 11061 40634 11902 02703 10022 20022 40296 53011 60002 73530
AAXX 11061 40642 12960 00000 10024 21060 40307 52012 60002
AAXX 11061 40643 12960 02301 10022 21025 40307 53005 60002
AAXX 11061 40650 12960 03202 10058 20023 40281 52013 60002
AAXX 11064 41315 36/// /3616 10173 20102 39193 42830 333 0E/// 20130 59006
AAXX 11064 62423 32960 03606 10086 20067 40272 52013 333 20053
AAXX 11064 62423 32960 03606 10086 20067 40272 52013 333 20053
AAXX 11064 41316 36/50 /3418 10265 20100 30148 40174 333 0E021 20216 59007
AAXX 11064 41316 36/50 /3418 10265 20100 30148 40174 333 0E021 20216 59007
AAXX 11064 71322 17/// /3306 11286 21312 30115 40128 52007 69931 7//4/ 333 11264 21290 70003
BBXX AMOUK14 11064 99533 70062 46/// ///// 10079 20055 30001 40041 57014 90550
BBXX 63106 11064 99610 10017 46/// /1713 10058 49949 57025 22200
BBXX 63113 11064 99610 10017 46/// /1814 10062 20004 49947 57025 22200 10806 70029
BBXX 62304 11064 99511 10018 46/96 /16// 10080 20058 40139 56013 22200 00120 10701 70004
BBXX 62107 11064 99501 70061 46/// /2129 10099 20072 40093 56028 22200 00121 10703 70016 333 90710 91134
BBXX 62094 11064 99517 70067 46/// /2616 10094 20087 40052 57023 22200 00114 10505 70027
AAXX 11064 60220 32960 00204 10154 20106 40222 51003 333 20152
BBXX 52249 11061 99052 31503 46/// ///// 1//// 90600 22200 00310
BBXX 62141 11063 99493 50590 41998 02918 10100 40054 50016 7//// 80000 22200 29907 3//// 4//// 5////
BBXX AMOUK08 11064 99501 70061 46/// ///// 10106 20084 30089 40096 57030 90550
BBXX 63106 11064 99610 10017 46/// /1713 10058 49949 57025 22200
BBXX 63105 11064 99610 10017 47798 ///// 10068 20006 49947 57026 700// 22200
BBXX 62304 11064 99511 10018 46/98 /1611 10080 20058 40139 56013 22200 00120 10701 70004
BBXX 62094 11064 99517 70067 46/// /2616 10094 20087 40052 57023 22200 00114 10505 70027 333 90710 91136
BBXX AMOUK04 11064 99533 70062 46/// ///// 10088 20070 30027 4//// 57015 90550
BBXX 52249 11061 99052 31503 46/// ///// 1//// 90600 22200 00310
BBXX 62141 11063 99493 50590 41998 02918 10100 40054 50016 7//// 80000 22200 29907 3//// 4//// 5////
BBXX AMOUK14 11064 99533 70062 46/// ///// 10079 20055 30001 40041 57014 90550
BBXX 63106 11064 99610 10017 46/// /1713 10058 49949 57025 22200
BBXX 63113 11064 99610 10017 46/// /1814 10062 20004 49947 57025 22200 10806 70029
BBXX 62304 11064 99511 10018 46/96 /16// 10080 20058 40139 56013 22200 00120 10701 70004
BBXX 62107 11064 99501 70061 46/// /2129 10099 20072 40093 56028 22200 00121 10703 70016 333 90710 91134
BBXX 62094 11064 99517 70067 46/// /2616 10094 20087 40052 57023 22200 00114 10505 70027
AAXX 11061 78090 15/// /0000 10203 30192 40195 69901 90600 222// 00149
AAXX 11064 71642 13/// ///// 11090 60001 333 11068 21177 70008 555 10016 20008
BBXX AMOUK08 11064 99501 70061 46/// ///// 10106 20084 30089 40096 57030 90550
BBXX 63106 11064 99610 10017 46/// /1713 10058 49949 57025 22200
BBXX 63105 11064 99610 10017 47798 ///// 10068 20006 49947 57026 700// 22200
BBXX 62304 11064 99511 10018 46/98 /1611 10080 20058 40139 56013 22200 00120 10701 70004
BBXX 62094 11064 99517 70067 46/// /2616 10094 20087 40052 57023 22200 00114 10505 70027 333 90710 91136
BBXX AMOUK04 11064 99533 70062 46/// ///// 10088 20070 30027 4//// 57015 90550
AAXX 11064 71845 43/// ///// 333 11124 21235 70000 555 10000 20000
AAXX 11064 71854 43/// ///// 333 11089 21171 48009 79999 555 19999 29999
AAXX 11064 71845 43/// ///// 333 11124 21235 70000 555 10000 20000
AAXX 11064 71854 43/// ///// 333 11089 21171 48009 79999 555 19999 29999
BBXX AMOUK14 11064 99533 70062 46/// ///// 10079 20055 30001 40041 57014 90550
BBXX 63106 11064 99610 10017 46/// /1713 10058 49949 57025 22200
BBXX 63113 11064 99610 10017 46/// /1814 10062 20004 49947 57025 22200 10806 70029
BBXX 62304 11064 99511 10018 46/96 /16// 10080 20058 40139 56013 22200 00120 10701 70004
BBXX 62107 11064 99501 70061 46/// /2129 10099 20072 40093 56028 22200 00121 10703 70016 333 90710 91134
BBXX 62094 11064 99517 70067 46/// /2616 10094 20087 40052 57023 22200 00114 10505 70027
BBXX 62141 11063 99493 50590 41998 02827 10100 20084 40038 52028 70200 80000 22200 20705 3//// 4//// 5//// 80092
BBXX AMOUK08 11064 99501 70061 46/// ///// 10106 20084 30089 40096 57030 90550
BBXX 63106 11064 99610 10017 46/// /1713 10058 49949 57025 22200
BBXX 63105 11064 99610 10017 47798 ///// 10068 20006 49947 57026 700// 22200
BBXX 62304 11064 99511 10018 46/98 /1611 10080 20058 40139 56013 22200 00120 10701 70004
BBXX 62094 11064 99517 70067 46/// /2616 10094 20087 40052 57023 22200 00114 10505 70027 333 90710 91136
BBXX AMOUK04 11064 99533 70062 46/// ///// 10088 20070 30027 4//// 57015 90550
AAXX 11064 91723 NIL
AAXX 11064 91964 NIL
BBXX AMOUK14 11064 99533 70062 46/// ///// 10079 20055 30001 40041 57014 90550
BBXX 63106 11064 99610 10017 46/// /1713 10058 49949 57025 22200
BBXX 63113 11064 99610 10017 46/// /1814 10062 20004 49947 57025 22200 10806 70029
BBXX 62304 11064 99511 10018 46/96 /16// 10080 20058 40139 56013 22200 00120 10701 70004
BBXX 62107 11064 99501 70061 46/// /2129 10099 20072 40093 56028 22200 00121 10703 70016 333 90710 91134
BBXX 62094 11064 99517 70067 46/// /2616 10094 20087 40052 57023 22200 00114 10505 70027
AAXX 11061 31054 41998 80000 11391 21350 39905 40207 52009 77172 8802/
BBXX AMOUK08 11064 99501 70061 46/// ///// 10106 20084 30089 40096 57030 90550
BBXX 63106 11064 99610 10017 46/// /1713 10058 49949 57025 22200
BBXX 63105 11064 99610 10017 47798 ///// 10068 20006 49947 57026 700// 22200
BBXX 62304 11064 99511 10018 46/98 /1611 10080 20058 40139 56013 22200 00120 10701 70004
BBXX 62094 11064 99517 70067 46/// /2616 10094 20087 40052 57023 22200 00114 10505 70027 333 90710 91136
BBXX AMOUK04 11064 99533 70062 46/// ///// 10088 20070 30027 4//// 57015 90550
BBXX A8OZ4 11124 99364 10143 43978 82225 10210 20130 40200 56020 7//// 88/2/ 22274 00185 20303 322// 80 165
BBXX A8OZ4 11124 99364 10143 43978 82225 10210 20130 40200 56020 7//// 88/2/ 22274 00185 20303 322// 80165
BBXX AMOUK14 11064 99533 70062 46/// ///// 10079 20055 30001 40041 57014 90550
BBXX 63106 11064 99610 10017 46/// /1713 10058 49949 57025 22200
BBXX 63113 11064 99610 10017 46/// /1814 10062 20004 49947 57025 22200 10806 70029
BBXX 62304 11064 99511 10018 46/96 /16// 10080 20058 40139 56013 22200 00120 10701 70004
BBXX 62107 11064 99501 70061 46/// /2129 10099 20072 40093 56028 22200 00121 10703 70016 333 90710 91134
BBXX 62094 11064 99517 70067 46/// /2616 10094 20087 40052 57023 22200 00114 10505 70027
BBXX A8OZ4 11124 99364 10143 43978 82225 10210 20130 40200 56020 7//// 88/2/ 22274 00185 20303 322// 80165
AAXX 11064 89065 46/// /9901 11023 21044 39624 49700 57003 90600
AAXX 11064 89272 46/// /0710 11178 21205 37962 49620 57005 90610
AAXX 11064 89266 46/// /0403 11058 21064 39638 49776 57002 90610
AAXX 11074 89065 46/// /3312 10009 21059 39620 49696 57006 90650
AAXX 11064 89257 46/// /0110 11087 21093 39716 49786 52003 90600
AAXX 11064 89266 46/// /0204 11058 21064 39638 49776 57002 90600
AAXX 11064 89272 46/// /0612 11185 21211 37961 49623 57006 90600
BBXX 62141 11063 99493 50590 41998 02918 10100 40054 50016 7//// 80000 22200 29907 3//// 4//// 5////
AAXX 11074 89257 46/// /0308 11085 21091 39717 49787 52003 90650
AAXX 11074 89272 46/// /0710 11180 21224 37960 49618 57005 90650
AAXX 11074 89266 46/// /9901 11056 21061 39638 49776 57001 90650
AAXX 11061 21982 11/92 90515 11112 21118 39919 49946 57020 60012 73973 333 11104 91118 92993
AAXX 11064 67331 12580 80000 10230 20214 40124 52006 60024 8527/ 333 20195 50/// 55/// 94320 555 00017 10000
AAXX 11064 67346 32580 63608 10237 20/// 40129 52001 83530 333 20196 50520 55007 94308 555 10002
BBXX AMOUK08 11064 99501 70061 46/// ///// 10106 20084 30089 40096 57030 90550
BBXX 63106 11064 99610 10017 46/// /1713 10058 49949 57025 22200
BBXX 63105 11064 99610 10017 47798 ///// 10068 20006 49947 57026 700// 22200
BBXX 62304 11064 99511 10018 46/98 /1611 10080 20058 40139 56013 22200 00120 10701 70004
BBXX 62094 11064 99517 70067 46/// /2616 10094 20087 40052 57023 22200 00114 10505 70027 333 90710 91136
BBXX AMOUK04 11064 99533 70062 46/// ///// 10088 20070 30027 4//// 57015 90550
BBXX C6YA5 11064 99539 50711 41596 72925 10060 2//// 49940 54000 75055 8564/ 22213 00090 20401 3//// 4//// 5//// 6//// 8//// ICE /////
BBXX ZCDQ4 11064 99420 10110 41798 41911 10160 20130 40190 54000 70301 82034 22274 00197 20301 30201 40201 5//// 80140
BBXX C6YA5 11064 99539 50711 41596 72925 10060 2//// 49940 54000 75055 8564/ 22213 00090 20401 3//// 4//// 5//// 6//// 8//// ICE /////
AAXX 11061 31054 41998 80000 11291 21350 39905 40207 52009 77172 8802/
AAXX 11064 41312 36/// /0012 10263 20113 30133 40172 333 0E/// 20233 59009
AAXX 11064 41312 36/// /0012 10263 20113 30133 40172 333 0E/// 20233 59009
AAXX 11064 71971 16/// /0502 11251 21272 39987 40034 55001 60001 333 11143 21262 70003
BBXX 62141 11063 99493 50590 41998 02827 10100 20084 40038 52028 70200 80000 22200 20705 3//// 4//// 5//// 80092
AAXX 11061 38932 42999 00000 10051 20001 40263 54000
AAXX 11064 44404 42568 23204 10149 20048 38132 48471 81201 333 58004
AAXX 11064 44406 NIL
AAXX 11064 44409 41/04 90904 10152 20143 39926 40129 74344 89/// 333 58020
AAXX 11064 44416 41450 10000 10187 20062 39372 40146 70500 81200 333 58020
AAXX 11064 44418 41220 81603 10172 20160 39969 40163 71044 886// 333 58018
AAXX 11064 44424 42970 12004 10106 21038 37659 47059 81100 333 58000
AAXX 11064 44429 NIL
AAXX 11064 44434 41340 70802 10150 20106 39227 48529 70500 83240 333 58012
AAXX 11064 44438 41315 71404 10184 20148 30039 40167 71044 87600 333 58024
AAXX 11064 44449 41312 80000 10170 20155 30005 40165 71044 8371/ 333 58017
AAXX 11064 44454 42557 10000 10180 20054 38661 48485 81100 333 59002
AAXX 11064 44462 NIL
AAXX 11064 44474 42062 32701 10137 20078 3//// 4//// 83200 333 5////
AAXX 11064 44477 42356 11801 10192 20116 38822 48528 81100 333 58021
AAXX 11064 44478 41556 20902 10218 20166 30073 40155 71004 82200 333 58016
AAXX 11064 44404 42568 23204 10149 20048 38132 48471 81201 333 58004
AAXX 11064 44406 NIL
AAXX 11064 44409 41/04 90904 10152 20143 39926 40129 74344 89/// 333 58020
AAXX 11064 44416 41450 10000 10187 20062 39372 40146 70500 81200 333 58020
AAXX 11064 44418 41220 81603 10172 20160 39969 40163 71044 886// 333 58018
AAXX 11064 44424 42970 12004 10106 21038 37659 47059 81100 333 58000
AAXX 11064 44429 NIL
AAXX 11064 44434 41340 70802 10150 20106 39227 48529 70500 83240 333 58012
AAXX 11064 44438 41315 71404 10184 20148 30039 40167 71044 87600 333 58024
AAXX 11064 44449 41312 80000 10170 20155 30005 40165 71044 8371/ 333 58017
AAXX 11064 44454 42557 10000 10180 20054 38661 48485 81100 333 59002
AAXX 11064 44462 NIL
AAXX 11064 44474 42062 32701 10137 20078 3//// 4//// 83200 333 5////
AAXX 11064 44477 42356 11801 10192 20116 38822 48528 81100 333 58021
AAXX 11064 44478 41556 20902 10218 20166 30073 40155 71004 82200 333 58016
BBXX 62141 11063 99493 50590 41998 02918 10100 40054 50016 7//// 80000 22200 29907 3//// 4//// 5////
BBXX 62141 11063 99493 50590 41998 02827 10100 20084 40038 52028 70200 80000 22200 20705 3//// 4//// 5//// 80092
BBXX C6VV8 11063 99143 70605 41/// /1307 10250 2024/ 40110 5/010 7//// 8//// 222// 0//// 2//// 3//// 4//// 5//// 6//// 80240 ICE /////
BBXX C6VV8 11063 99143 70605 41/// /1307 10250 2024/ 40110 5/010 7//// 8//// 222// 0//// 2//// 3//// 4//// 5//// 6//// 80240 ICE /////
BBXX 62141 11063 99493 50590 41998 02918 10100 40054 50016 7//// 80000 22200 29907 3//// 4//// 5////
BBXX 62141 11063 99493 50590 41998 02827 10100 20084 40038 52028 70200 80000 22200 20705 3//// 4//// 5//// 80092
BBXX VRZN8 11064 99013 51424 41297 11116 10250 2022/ 40138 5//// 70200 81009 22213 00240 20903 309// 41203 5//// 6//// 80225 ICE /////
AAXX 11064 41252 36/// /0000 10215 20023 39816 40106 333 0E016 20108 59011
BBXX 62141 11063 99493 50590 41998 02918 10100 40054 50016 7//// 80000 22200 29907 3//// 4//// 5////
AAXX 11064 71078 15366 80402 11170 21190 39672 40130 55001 60001 333 11150 21242 70000
AAXX 11064 71078 15366 80402 11170 21190 39672 40130 55001 60001 333 11150 21242 70000
AAXX 11064 41241 36/// /1504 10231 20013 30155 40193 333 0E020 20165 59018
AAXX 10124 91636 11599 314007 10270 20253 40074 60001 70200 83200 333 10316 562//
AAXX 11064 91643 11599 49901 10267 20243 40067 54004 69991 70128 81180 333 5689/ 81820 83361
AAXX 11064 91636 11599 60906 10284 20250 40059 60001 71422 83208 333 562/9
AAXX 11004 91636 11599 61010 10306 20262 40050 60031 71482 83208 333 20264 562/9 70000
AAXX 10184 91636 11599 61007 10269 20249 40066 60001 71422 83208 333 562/9
BBXX 62141 11063 99493 50590 41998 02827 10100 20084 40038 52028 70200 80000 22200 20705 3//// 4//// 5//// 80092
BBXX 62141 11063 99493 50590 41998 02918 10100 40054 50016 7//// 80000 22200 29907 3//// 4//// 5////
BBXX 62141 11063 99493 50590 41998 02827 10100 20084 40038 52028 70200 80000 22200 20705 3//// 4//// 5//// 80092
BBXX 62141 11063 99493 50590 41998 02918 10100 40054 50016 7//// 80000 22200 29907 3//// 4//// 5////
BBXX 62141 11063 99493 50590 41998 02827 10100 20084 40038 52028 70200 80000 22200 20705 3//// 4//// 5//// 80092
BBXX 62141 11063 99493 50590 41998 02918 10100 40054 50016 7//// 80000 22200 29907 3//// 4//// 5////
AAXX 11061 02513 05/65 /0000 11007 21016 30020 40024 52016 69912 333 10055 21018 60005 70033 90710 91101
BBXX 62141 11063 99493 50590 41998 02827 10100 20084 40038 52028 70200 80000 22200 20705 3//// 4//// 5//// 80092
BBXX 62141 11063 99493 50590 41998 02918 10100 40054 50016 7//// 80000 22200 29907 3//// 4//// 5////
AAXX 11064 41288 36/// /0708 10257 20180 30168 40193 333 0E020 20204 59004
BBXX 62141 11063 99493 50590 41998 02827 10100 20084 40038 52028 70200 80000 22200 20705 3//// 4//// 5//// 80092
AAXX 11054 91691 14/// /1102 10289 20246 30095 40098 50002
AAXX 11064 91691 14/// /0902 10275 20236 30099 40102 50008 60001
AAXX 11054 91697 14/// /1002 10270 20226 30094 40099 50003
AAXX 11064 91697 14/// /1004 10263 20224 30101 40106 53008 60001
AAXX 11054 91699 14/// /1104 10281 20229 30080 40112 50004
AAXX 11064 91699 14/// /1104 10270 20223 30083 40115 50003 60001
AAXX 11064 91676 14/// /0705 10267 20232 30026 40086 50007 60001
AAXX 11054 91676 14/// /0705 10274 20231 30022 40082 50002
BBXX 62141 11063 99493 50590 41998 02918 10100 40054 50016 7//// 80000 22200 29907 3//// 4//// 5////
BBXX 62141 11063 99493 50590 41998 02827 10100 20084 40038 52028 70200 80000 22200 20705 3//// 4//// 5//// 80092
BBXX 62141 11063 99493 50590 41998 02918 10100 40054 50016 7//// 80000 22200 29907 3//// 4//// 5////
AAXX 11061 10131 01465 72205 10028 20016 30105 40120 52004 60022 78082 879// 222// 02050 333 10037 20026 32002 55000 55300 20000 30000 69947 70079 84813 81920 87633
AAXX 11061 10532 17660 81501 11028 21032 39934 40193 55001 60002 7//// 333 10021 21035 3/107 55028 55300 20000 30000 79999 88/42 88/50
AAXX 11061 10791 11/03 62310 11061 21066 38510 48455 55001 69902 7414/ 86500 333 11053 21073 44049 55000 55300 70004 866// 96249
AAXX 11061 10532 15660 81501 11028 21032 39934 40193 55001 60002 333 10021 21035 3/107 55028 55300 20000 30000 79999 88/42 88/50
BBXX PBIG 11064 99099 70788 41598 33412 10263 20201 40080 54000 7//// 8/1// 22264 20203 80222
AAXX 11061 08579 12/// ///// 10117 20107 30075 40201 52002 60022 333 20109 30009 5//// 55010 20327
AAXX 11061 08579 12/// ///// 10117 20107 30075 40201 52002 60022 333 20109 30009 5//// 55010 20327 555 69945
AAXX 11064 71268 43/// ///// 333 11040 21120 70000 555 10000 20000
AAXX 11064 71268 43/// ///// 333 10020 21040 70000 555 10000 20000
AAXX 11061 10200 11962 52104 10018 20007 30127 40125 53002 60042 70381 81031 333 10044 20017 32001 55032 55300 20000 30000 70045 81365 85077
AAXX 11064 71271 16/// ///// 11014 21039 60001 333 7////
AAXX 11064 71507 17/// /3302 11178 21194 69941 7//4/ 333 7////
AAXX 11064 71005 16/// ///// 11043 21077 60001 333 7////
AAXX 11064 71542 16/// /2609 11099 21111 60001 333 7////
AAXX 11064 71047 16/// ///// 11021 21058 60001 333 7////
AAXX 11064 71284 16/// ///// 11044 21069 60001 333 7////
AAXX 11064 71545 16/// ///// 11012 21045 60001 333 7////
AAXX 11064 71382 16/// /0102 11161 21183 39276 40260 51017 60001 333 11065 21163 70030
AAXX 11064 71382 16/// /0102 11161 21183 39276 40260 51017 60001 333 11065 21163 70030
AAXX 11064 71233 16/// /3003 11016 21075 60001 333 7////
AAXX 11064 71233 16/// /3003 11016 21075 60001 333 7////
AAXX 11064 71766 16/// /2303 10027 20012 30134 40206 56002 60001 333 7////
AAXX 11064 71766 16/// /2303 10027 20012 30134 40206 56002 60001 333 7////
AAXX 11064 71777 16/// ///// 11045 21050 39956 40215 52004 60001 333 7////
AAXX 11064 71777 16/// ///// 11045 21050 39956 40215 52004 60001 333 7////
AAXX 11064 71245 46/// /2311 11087 21125 6///1 333 11012 21087 7//// 555 32072 40083
AAXX 11064 71573 46/// /2802 11061 21110 30021 40313 6///1 333 7////
AAXX 11064 71573 46/// /2802 11061 21110 30021 40313 6///1 333 7////
AAXX 11064 71463 46/// /3107 11035 21107 30097 40329 51001 6///1 333 7////
AAXX 11061 10791 11/03 62310 11061 21066 38510 48455 55001 69902 74141 86500 333 11053 21073 44049 55000 55300 70004 866// 96249
AAXX 11064 91487 NIL
AAXX 11064 91490 11599 21410 10267 2024/ 40098 69911 70128 82100 333 563//
AAXX 11064 91533 NIL
AAXX 11064 91601 NIL
AAXX 11064 91610 11499 60414 10277 20218 40067 53007 60001 70301 82238 333 56199
AAXX 11064 91623 NIL
AAXX 11064 91629 NIL
AAXX 11064 91701 11599 10906 10271 2025/ 4//// 60001 70200 81100 333 562//
AAXX 11064 91487 NIL
AAXX 11064 91490 11599 21410 10267 2024/ 40098 69911 70128 82100 333 563//
AAXX 11064 91533 NIL
AAXX 11064 91601 NIL
AAXX 11064 91610 11499 60414 10277 20218 40067 53007 60001 70301 82238 333 56199
AAXX 11064 91623 NIL
AAXX 11064 91629 NIL
AAXX 11064 91701 11599 10906 10271 2025/ 4//// 60001 70200 81100 333 562//
AAXX 11061 10791 11/03 62310 11061 21066 38510 48455 55001 60002 7414/ 86500 333 11053 21073 44049 55000 55300 70001 866// 96249
AAXX 11061 10815 11/02 91401 11020 21020 39238 48458 55001 69922 74142 333 10007 21021 3/102 43004 55000 55300 20000 30000 70022 89/01 96241 96445
AAXX 11061 10962 01480 71404 10001 20001 39029 48467 55003 60072 72274 875// 333 10001 21006 3/101 43007 55000 55300 20000 30000 69977 70193 83612 87625 96270 96469 96447
AAXX 11064 86033 NIL
AAXX 11064 86086 32970 01802 10234 20163 39979 40069 54000
AAXX 11064 86097 32970 01205 10212 20175 39434 40076 57012
AAXX 11064 86134 32970 00000 10248 20221 39974 40060 56006
AAXX 11064 86170 NIL
AAXX 11064 86192 32970 00000 10258 20181 39867 40085 51012
AAXX 11064 86210 32970 00000 10230 20199 39712 40052 58010
AAXX 11064 86218 32970 00000 10232 20164 39961 40057 57013
AAXX 11064 86221 NIL
AAXX 11064 86233 32970 01802 10220 20188 39908 40097 51010
AAXX 11064 86246 32970 00000 10220 20204 39795 40077 54000
AAXX 11064 86255 32970 00000 10214 20186 30020 40088 54000
AAXX 11064 86260 NIL
AAXX 11064 86268 32970 00000 10200 20181 39906 40072 52004
AAXX 11064 86297 NIL
AAXX 11064 85574 12960 01607 10158 20097 39603 40155 56003 60001
AAXX 11064 85874 31982 /3013 10056 20026 39482 40111 58007 7006/
AAXX 11064 85934 12480 43015 10058 20013 49969 52006 60001 84501 333 56707 84618
AAXX 11064 89056 11115 83507 10004 20001 49712 57021 69981 71062 876// 333 56799 88703
AAXX 11064 89058 11565 83206 10008 20001 39696 49717 57026 60021 70060 885//
AAXX 11064 89059 11405 80000 10006 21008 49706 57032 60001 74442 886// 333 56099 88710
AAXX 11064 89251 31356 83410 10013 20000 49702 57025 71022 8672/
AAXX 11064 85585 339// 91917 10161 20094 30185 40221 58008
AAXX 11064 85682 12960 02105 10114 20092 40190 58002 60001
AAXX 11064 85743 12060 09902 10069 20063 40209 58005 60001 333 56006 84075
AAXX 11064 85799 11760 80000 10099 20099 40196 54002 60031 70262 8802/ 333 56079 88456
AAXX 11064 85406 12982 00000 10182 20109 40144 58016 60001
AAXX 11064 85418 12970 02204 10171 20113 40151 57013 60001
AAXX 11064 85442 12475 42007 10167 20144 40148 58009 60001 84500 333 56400 84610
AAXX 11064 85469 42560 61104 10202 20168 40260 51004 83806 333 56200 82820 85280
AAXX 11064 85488 12460 82704 10147 20129 40159 58008 60001 885// 333 56099 88617
AAXX 11061 10124 46/// ///// 10029 2//// 30072 40110 53001 222// 00051 333 10056 20027 55/// 553// 911// 912//
AAXX 11064 71571 16/// /0207 11058 21064 38956 40164 53024 60001 333 10030 21058 70000 555 32926 40201
AAXX 11064 71571 16/// /0207 11058 21064 38956 40164 53024 60001 333 10030 21058 70000 555 32926 40201
AAXX 11064 71927 16/// /0000 10017 20000 30149 40208 56001 60001 333 10053 21041 70000
