AAXX 24184 40272 31556 22613 10095 21011 39313 40156 52007 70722 82100 333 10136 82840
AAXX 24184 40255 32560 42706 10110 20046 39426 40142 52004 84100 333 10140 84830
BBXX ZMFR 24174 99413 31748 43/// /0205 10131 20111 40219 57003 22200 00167
BBXX ZMENA 24174 99389 31781 46/// ///// 10143 20127 40226 57001 22253
BBXX 44172 24181 99445 70634 46/// ///// 1//// 91731 22200 00063 11004 21003 320// 41102 70018
BBXX 44097 24181 99410 70711 46/// ///// 1//// 91732 22200 00119 11003 21003 322// 41101 70014
BBXX 46218 24181 99345 71208 46/// ///// 1//// 91732 22200 00136 11806 20602 330// 41806 70030
BBXX WZP8164 24184 99474 70894 43/// /2220 11005 2//// 40163 5//// 7//// 8//// 222// 0//// 2//04 3//// 4//// 5//// 6//// 8//// ICE /////
BBXX WSNB 24184 99430 71287 43298 31820 00/// 10127 2010/ 40233 53003 7//// 8313/ 22233 0//// 21005 319// 41204 5//// 6//// 80114 ICE /////
AAXX 24184 89577 46/// /1003 11301 4//// 5////
AAXX 24184 40270 31656 42308 10100 20006 39243 40144 52009 70522 84100 333 10135 84830
BBXX WFLG 24183 99238 71518 41398 50724 10211 20168 40232 52018 70211 85760 22213 00200 20505 304// 40805 5//// 6//// 80183 ICE /////
AAXX 24184 64500 32460 72410 10275 20239 30073 40086 879// 333 10286 59008 83610 81920 87633 94962 95832
AAXX 24184 40296 32660 20000 10188 20059 40152 52011 82100 333 10245 82830
AAXX 24184 89664 32561 23510 10006 21040 39827 49868 53010 82500 333 56400 82630
AAXX 24184 61902 12582 51315 10244 20186 40126 69942 858// 333 10277 58000 82820 84638
AAXX 24184 89664 32561 23510 10006 21040 39827 49868 53010 82500 333 56400 82630
BBXX BAREU56 24184 99330 10132 46/// ///// 40231 22200
AAXX 24184 89664 32561 23510 10006 21040 39827 49868 53010 82500 333 56400 82630
AAXX 24184 67665 42980 11601 10245 20211 48510 80001 333 10311 58009 81080
AAXX 24184 91643 11498 63205 10280 20237 40057 53007 60001 70302 83230 333 5679/ 83818 86360
AAXX 24184 91643 11498 63205 10280 20237 40057 53007 60001 70302 83230 333 5679/ 83818 86360
BBXX 46249 24181 99338 71197 46/// ///// 1//// 91740 22200 00145 11702 20901 326// 41702 70012
BBXX 46248 24181 99461 71247 46/// ///// 1//// 91734 22200 00095 11407 21004 328// 41406 70035
BBXX 46244 24181 99409 71244 46/// ///// 1//// 91735 22200 00093 11307 21003 330// 41306 70033
AAXX 24184 08495 11459 70614 10151 20129 30269 40277 53008 60002 70511 875// 91750 333 10155 81712 87620
BBXX 46240 24181 99366 71219 46/// ///// 1//// 91742 22200 00122 11703 21001 300// 41702 70014
BBXX 46237 24181 99378 71226 46/// ///// 1//// 91740 22200 00107 11505 21002 326// 41505 70024
BBXX 46212 24181 99408 71243 46/// ///// 1//// 91742 22200 00095 11507 21003 330// 41506 70034
BBXX 46217 24181 99342 71194 46/// ///// 1//// 91742 22200 00146 11702 20901 324// 41701 70009
BBXX 46211 24181 99469 71242 46/// ///// 1//// 91736 22200 00082 11306 21004 327// 41305 70030
AAXX 24184 68392 36/// /0000 10172 20157 30183 4//// 53005 333 10195 20172 91003 555
AAXX 24184 91413 32469 61012 10281 20248 30041 40066 56007 82271 333 56299 70051 555 92418
AAXX 24184 91334 32474 80510 10277 20236 30051 40054 58007 82171 333 56199 70066 555 92418
AAXX 24184 68906 32598 50204 10189 20142 30075 40138 58010 85500 222// 00130 333 10215 20186 91012 555 91013
AAXX 24184 91334 32474 80510 10277 20236 30051 40054 58007 82171 333 56199 70066 555 92418
AAXX 24184 91413 32469 61012 10281 20248 30041 40066 56007 82271 333 56299 70051 555 92418
AAXX 24184 91376 11474 80612 10275 20228 30054 40058 53003 69931 70282 82178 333 56199 70008 555 92418
AAXX 24184 91376 11474 80612 10275 20228 30054 40058 53003 69931 70282 82178 333 56199 70008 555 92418
AAXX 24184 40340 32960 03606 10170 21001 40170 52031 333 10230
BBXX WSNB 24184 99430 71287 43298 31820 00/// 10127 20100 40233 53003 7//// 8313/ 22233 0//// 21005 319// 41204 5//// 6//// 80114 ICE /////
BBXX 46114 24181 99364 71222 46/// ///// 1//// 91734 22200 00127 11708 21002 329// 41708 70041
BBXX 46060 24181 99606 71468 46/// /3606 10007 49966 91750 22200 00050 11701 314// 41701 70005 333 91207 555 11066 22068 31723 40208 61749 004062 005060 013060 021058 026056 036056 83607 91744
BBXX 32012 24181 99197 50856 46/// ///// 1//// 91750 22200 10804 70021
BBXX 41115 24181 99184 70673 46/// ///// 1//// 91735 22200 10802 20802 301// 41101 70012
BBXX 41114 24181 99276 70802 46/// ///// 1//// 91746 22200 00249 11101 20801 70006
BBXX 42362 24181 99278 70907 46/// /0713 10200 20167 40241 91745
BBXX 42363 24181 99282 70892 46/// /0612 10183 20144 40258 91745 333 91213
BBXX 42364 24181 99291 70881 46/// /0508 10156 20122 40268 91745
BBXX 51203 24181 99208 71570 46/// ///// 1//// 91743 22200 00249 11101 21001 329// 41101 70006
BBXX 51201 24181 99217 71581 46/// ///// 1//// 91742 22200 00239 11305 20804 336// 41302 70023
BBXX 46088 24181 99483 71232 46/// /1302 10072 40297 53013 91750 22200 00079 1//00 70002 333 91202 555 11018 22018 31654 41704 61749 132016 162013 179014 184023 178027 172034
BBXX 44098 24181 99428 70702 46/// ///// 1//// 91737 22200 00087 10603 20603 70014
BBXX DBFR 24181 99535 10086 46/// /2505 10049 20040 40240 52015 22240 00048
BBXX DBBU 24181 99544 10124 46/// /3011 10056 20044 40195 52038 22241 00051
BBXX DBBT 24181 99339 30184 46/// /1410 10240 20151 40110 54000 22220 00159
BBXX DBKV 24181 99169 70250 46/// /0407 10231 20163 40163 57005 22220 00234
BBXX DBJM 24181 99542 10079 46/// /2510 10069 20033 40231 52011 22260 00074
BBXX DBEA 24181 99540 10084 46/// /2609 10060 20031 40230 52014 22220 00047
BBXX DBFH 24181 99/// ///// 46/// ///// 10053 20030 40245 52016 22220 00049
BBXX DBBC 24181 99535 10100 46/// /2604 10048 2//// 40235 52029 22270 00046
BBXX DBKR 24181 99541 10121 46/// /2704 10050 20042 40204 52035 22200 00049
BBXX 41101 24184 99146 70562 46/// /0715 10265 20214 40134 57022 22200 00270 10704 70022
BBXX DBBA 24181 99541 10121 46/// /2807 10056 20028 40203 52034 22220 00047
AAXX 24184 68994 11598 82413 10052 20011 30053 40082 53008 60012 72166 885// 222// 00071 333 10083 20042 91021 555 20014 91008
AAXX 24184 68382 16/// /0000 10185 20166 39383 48556 56002 69982 333 10201 20184 91003 555 20008 91020
AAXX 24184 68352 16/// /1110 10208 20002 39090 48539 55000 60022 333 10241 20205 91021 555 20020 91019
AAXX 24184 16597 32565 12810 10138 20101 30110 40197 58002 81100 333 10150 81823
AAXX 24184 61901 169// /1211 10166 20147 39660 40168 56004 69922 91750 333 10190 8//99 555 7/090
AAXX 24184 91408 11459 80000 10261 20254 30014 40052 57012 60231 78082 8532/ 333 5619/ 70254 555 92418
BBXX 41012 24181 99300 70805 46/// /0405 10230 40246 58011 91750 22200 00237 333 91206 555 11049 22052 31656 40207 61749 032046 042043 031044 023051 022051 019056
BBXX 41001 24181 99347 70727 46/// ///// 10167 20089 40249 58009 91750 22200 00235 10704 70021
BBXX 41049 24181 99275 70630 46/// /0703 10224 20167 40232 58022 91750 22200 00239 10703 20401 300// 40703 70015 333 91204 555 11033 22034 31655 40805 61749 067033 067033 076034 063035 066038 064040 80704 91651
BBXX 41060 24181 99148 70510 46/// ///// 1//// 91750 22200 11104 70019
BBXX 42020 24181 99270 70967 46/// /0910 10217 20197 40182 58018 91750 22200 00229 10807 20807 311// 41102 70035 333 91212 555 11105 22112 31711 41015 61749 090100 099108 098112 097117 094108 095104
BBXX 41044 24181 99217 70587 46/// /0506 10248 20196 40192 58017 91750 22200 00263 333 91207 555 11059 22061
BBXX 41048 24181 99320 70696 46/// /2509 10226 20191 40211 58019 91750 22200 00231 10804 20804 70018 333 91211 555 11091 22096 31714 42711 61749 252091 254091 256092 254090 248085 244087 82510 91720
BBXX 42065 24181 99149 70750 46/// /0709 10274 20217 91750 22200 11006 20804 3//// 41004 70031 333 91211 555 11092 22098 31704 40713 61749 065088 069099 069103 070109 073103 072104 80712 91714
BBXX 42001 24181 99259 70897 46/// /1206 10247 20211 40231 58009 91750 22200 00244 10802 20401 3//// 40802 70012 333 91207 555 11060 22065 31652 41408 61749 124057 125057 126059 128061 128063 133068
BBXX 42012 24181 99301 70876 46/// /0406 10132 20086 40269 58010 91750 22200 00197 10502 20502 318// 40801 70009 333 91208 555 11057 22059 31707 40409 61749 043056 048063 036063 041068 039071 043072
BBXX 42035 24181 99292 70944 46/// /0611 10112 20104 40252 50000 91750 22200 00158 10603 20603 70017 333 91214 555 11113 22119 31653 40714 61749 059106 058111 064110 062110 067106 066114
BBXX 42058 24181 99149 70749 46/// /0711 10272 20223 40126 58020 91750 22200 00273 11006 20805 309// 41004 70030 333 91213 555 11116 22123 31709 40714 61749 074108 077111 077112 077112 069112 070115 80812 91655
BBXX 42060 24181 99163 70635 46/// /0607 10271 20213 40160 58021 91750 22200 00275 10704 20704 300// 40802 70021 333 91209 555 11076 22080 31653 40710 61749 064073 065076 062077 063083 059084 066084 80609 91653
BBXX 42036 24181 99285 70845 46/// /0406 10189 20172 40246 58004 91750 22200 00218 10502 20502 320// 40701 70009 333 91207 555 11063 22065 31650 40407 61749 037060 035059 036059 040057 040056 045056
BBXX 42056 24181 99198 70849 46/// /0806 10264 20202 40181 58011 91750 22200 00272 11003 20502 312// 41002 70013 333 91207 555 11060 22063 31701 40708 61749 075058 073059 072058 070059 071060 073058 80707 91701
BBXX 42059 24181 99151 70675 46/// /0805 10263 20216 40149 58020 91750 22200 00278 10705 20402 3//// 40705 70025 333 91207 555 11049 22051 31705 40713 61749 080047 094058 092088 080098 068106 079071 80711 91702
BBXX 42019 24181 99279 70954 46/// /0912 10196 20182 40204 58015 91750 22200 10705 20705 70027 333 91214 555 11123 22132 31717 42815 61749 081115 282121 282123 282127 282122 284123
BBXX 44005 24181 99432 70691 46/// /0109 11046 21093 40282 51010 91750 22200 00083 10604 20604 3//// 40901 70019 333 91211 555 11091 22094 31717 40113 61749 005086 002090 004094 004100 011093 010094
BBXX 42003 24181 99260 70856 46/// /0906 1//// 91750 22200 10502 20502 318// 40901 70010 333 91208 555 11068 22073 31701 40808 61749 085064 085066 082068 085067 080067 082068 80907 91708
BBXX 42055 24181 99222 70940 46/// /1206 10255 20225 40185 58012 91750 22200 00254 10702 20501 300// 40702 70012 333 91207 555 11061 22065 31654 41209 61749 114057 115050 115051 112062 117069 116070 81208 91654
BBXX 42040 24181 99292 70882 46/// /0708 10148 40262 58012 91750 22200 00225 10603 20602 70013 333 91210 555 11081 22084 31654 40511 61749 069081 067084 058080 060084 056086 050093
BBXX 42002 24181 99258 70937 46/// /0811 10234 20226 40203 58011 91750 22200 00231 10705 20705 70023 333 91213 555 11113 22121 31703 40914 61749 083112 083109 084110 084110 085117 083106
BBXX 41047 24181 99275 70715 46/// /0904 10231 40241 58021 91750 22200 00248 10903 20401 312// 40903 70014 333 91205 555 11036 22037 31655 40906 61749 086035 065030 067037 073043 082047 085047 80905 91655
BBXX 41043 24181 99211 70650 46/// /0808 10252 20217 40197 58024 91750 22200 00259 10805 20703 300// 40804 70024 333 91210 555 11086 22091 31744 40810 61749 082081 085082 084076 073078 074075 076080 80809 91740
BBXX 41036 24181 99342 70770 46/// ///// 10122 20025 40282 58006 91750 22200 00186 10402 70012
BBXX 44066 24181 99396 70726 46/// /3310 10033 21029 40280 58003 91750 22200 00123 10503 20503 3//// 40801 70014 333 91212 555 11101 22105 31727 43212 61749 326095 325092 323095 326095 322086 322096
BBXX 46006 24181 99408 71375 46/// /1912 10131 40192 56011 91750 22200 00122 11207 20706 3//// 41203 70034 333 91215 555 11125 22135 31730 41815 61749 191116 180112 179112 175109 172106 171106
BBXX 46002 24181 99426 71305 46/// ///// 10120 40275 55000 91750 22200 00122 11306 70032
BBXX 46084 24181 99566 71361 46/// /1215 10074 20017 49990 56064 91750 22200 00076 11108 20706 300// 41105 70041 333 91217 555 11158 22169 31749 41217 61749 118146 116140 117142 113144 116129 113142
BBXX 46075 24181 99539 71608 46/// /3209 11026 21069 40093 54000 91750 22200 00047 10604 20604 300// 41002 70020 333 91212 555 11099 22103 31711 43216 61749 323094 327077 330073 316124 313116 312091 83214 91711
BBXX 46005 24181 99461 71310 46/// ///10 10108 40212 52003 91750 22200 00100 11307 20805 3//// 41305 70034 333 91212 555 11107 22115
BBXX 46059 24181 99380 71300 46/// /1806 10125 40311 55000 91750 22200 00146 11305 20401 3//// 41305 70027 333 91207 555 11059 22061 31656 41808 61749 183057 193055 201056 195055 198057 190060
BBXX 46080 24181 99580 71500 46/// /3110 10002 21041 49961 58013 91750 22200 00056 11305 20603 3//// 41303 70023 333 91212 555 11100 22105 31719 43012 61749 306095 308091 304092 309094 308095 306096 83110 91658
BBXX 46014 24181 99394 71240 46/// /1503 10097 40322 54000 91750 22200 00109 11607 20401 3//// 41607 70037 333 91204 555 11031 22032 31738 41305 61749 154030 155030 158030 156030 165026 168027
BBXX 46011 24181 99350 71210 46/// /0403 10124 40295 52004 91750 22200 00136 11606 20301 329// 41606 70030 333 91204 555 11031 22032 31717 40705 61749 037031 052036 062039 060039 064036 055030
BBXX 46047 24181 99324 71195 46/// /3502 10134 40286 51008 91750 22200 00135 11705 20401 329// 41705 70025 333 91202 555 11018 22018 31658 43404 61749 352017 357016 346018 350022 354023 351027
BBXX 46086 24181 99325 71180 46/// /0202 10145 40282 52007 91750 22200 00148 11903 331// 41903 70017 333 91203 555 11024 22025 31651 40304 61749 018023 025018 038012 039020 032022 024030
BBXX 46027 24181 99419 71244 46/// /1303 10097 40312 56009 91750 22200 00089 11506 20401 329// 41506 70031 333 91204 555 11031 22036 31716 41105 61749 129027 119029 113027 116032 122025 108025
BBXX 46050 24181 99442 71246 46/// /2105 10090 40316 52005 91750 22200 00097 11407 20401 328// 41407 70037 333 91206 555 11050 22053 31650 42007 61749 209048 208050 201049 202049 203054 205057
BBXX 46088 24181 99483 71232 46/// /1302 10072 40297 91750 22200 00079 1//00 70002 333 91202 555 11018 22018 31654 41704 61749 132016 162013 179014 184023 178027 172034
BBXX 46069 24181 99337 71202 46/// /3503 10144 40289 53008 91750 22200 00141 11705 20401 330// 41705 70026 333 91204 555 11034 22038 31723 40305 61749 348030 352034 018043 021038 040032 041025
BBXX 46013 24181 99382 71233 46/// /0906 10088 40317 54000 91750 22200 00115 11606 20301 3//// 41606 70032 333 91207 555 11058 22060 31730 41008 61749 087056 089061 086059 085060 088058 091058
BBXX 46012 24181 99374 71229 46/// /0405 10115 40309 55000 91750 22200 00121 11608 20401 329// 41608 70039 333 91207 555 11056 22059 31657 40507 61749 035053 040047 035047 043046 041051 035059
BBXX 46087 24181 99485 71247 46/// /1207 10084 20083 40283 52003 91750 22200 00086 333 91209 555 11075 22079 31745 41109 61749 118070 115066 117059 112057 110063 110063
BBXX 46029 24181 99461 71245 46/// /1909 10091 20081 40302 55000 91750 22200 00090 11406 20703 329// 41405 70028 333 91211 555 11095 22102 31701 41811 61749 186090 186087 186082 186088 183093 179091
BBXX 46054 24181 99342 71204 46/// /1103 10133 40288 52005 91750 22200 00136 11606 20401 300// 41606 70029 333 91204 555 11031 22033 31735 41005 61749 110029 099030 096026 088025 090024 074025
BBXX 46028 24181 99357 71219 46/// /3201 10124 40294 52003 91750 22200 00133 11606 20401 329// 41606 70032 333 91201 555 11007 22007 31705 43303 61749 318006 325010 332014 341015 342018 003017
BBXX 46025 24181 99337 71191 46/// /1202 10147 20123 40281 51009 91750 22200 00147 11902 20401 331// 41902 70010 333 91202 555 11016 22017 31703 41003 61749 117015 077006 098013 105019 087023 081022
BBXX 44025 24181 99402 70732 46/// /3306 10012 21053 40290 54000 91750 22200 00106 10901 20401 317// 40901 70007 333 91208 555 11067 22069 31732 43309 61749 330064 338062 339059 329068 320063 327069
BBXX 41008 24181 99314 70809 46/// /0309 10163 20140 40269 58003 91750 22200 00165 10603 20603 300// 41001 70014 333 91211 555 11094 22100 31748 40411 61749 030087 028087 029082 026081 026081 030081
BBXX 41004 24181 99325 70791 46/// /0310 10154 20100 40277 58004 91750 22200 00218 10604 20604 70021 333 91212 555 11108 22113 31711 40313 61749 033101 028101 029103 028105 024101 029103
BBXX 44009 24181 99385 70747 46/// /3408 10053 40304 58009 91750 22200 00109 10502 20502 300// 40801 70009 333 91211 555 11088 22092 31744 43411 61749 336082 344081 336068 339070 346065 343064
BBXX 44014 24181 99366 70748 46/// /3508 1//// 40280 58010 91750 22200 00140 10602 20602 333// 41001 70010 333 91211 555 11084 22084 31743 43511 61749 353084 348086 354083 355082 355079 351072
BBXX 44027 24181 99443 70673 46/// /3510 11083 21101 40275 53008 91750 22200 00078 10403 20403 3//// 41001 70015 333 91212 555 11103 22107 31651 43513 61749 350098 349100 350099 347101 351106 350099
BBXX 44065 24181 99404 70737 46/// /3205 10013 21060 40296 57004 91750 22200 00095 10301 20301 314// 40901 70006 333 91207 555 11049 22050 31715 43409 61749 322047 328052 323059 326069 344067 337064 83508 91711
BBXX 41013 24181 99334 70777 46/// /0111 10131 20057 40275 58008 91750 22200 00196 10604 20604 70018 333 91214 555 11120 22125 31744 40114 61749 015112 019108 022105 019105 025106 024103
BBXX 44020 24181 99414 70702 46/// /3509 11002 21068 40274 55000 91750 22200 00070 10402 20402 70008 333 91212 555 11093 22099 31748 43512 61749 341086 269087 272082 271084 271083 273086
BBXX 46105 24181 99590 71522 46/// ///// 1//// 91750 22200 10704 70022
BBXX 46070 24181 99551 11753 46/// /0508 11017 21054 40220 58003 91750 22200 00036 10903 20603 3//// 40902 70017 333 91209 555 11084 22088 31741 40611 61749 050080 067082 094073 096067 088057 070066 80609 91741
BBXX PINX 24184 99168 70731 41998 00933 10270 2//// 40140 54000 70200 80000 22274 00270 20504 309// 41004 5//// 6//// 8//// ICE /////
BBXX C6DM2 24183 99055 11001 417// 50509 10270 20228 40090 50010 7//22 857// 22271 0//// 2//// 3//// 4//// 5//// 6//// 80240 ICE /////
BBXX KEY796 24183 99571 71703 41/97 83615 11067 21111 40168 56/// 726// 8//// 222// 01011 2//// 3//// 4//// 5//// 6//// 8//// ICE /////
BBXX WDC6698 24184 99088 71476 43/// /1808 1//// 2//// 40110 5//// 7//// 8//// 222// 04261 2//// 3//// 4//// 5//// 6//// 8//// ICE /////
BBXX WDJK 24184 99546 71418 41597 72123 10055 20042 49885 57006 70222 8754/ 22274 00060 20805 326// 41209 5//// 6//// 80049 ICE /////
BBXX C6TQ6 24184 99258 70885 41797 30924 10260 20232 40220 54000 70211 831// 22284 00260 20404 30908 40404 50404 6//// 80240 ICE /////
BBXX WDE2719 24183 99607 71514 41/97 33405 11150 2//// 40010 57/// 702// 8//// 222// 01022 2//00 3//// 4//// 5//// 6//// 8//// ICE /////
BBXX DBKV 24181 99169 70250 46/// /0407 10231 20163 40163 57005 22220 00234
BBXX DBBT 24181 99339 30184 46/// /1410 10240 20151 40110 54000 22220 00159
BBXX SHIP 24184 99243 10618 41995 02705 10220 2014/ 40160 54000 70200 80000 22223 00220 21001 32831 41001 5//// 6//// 80170 ICE /////
BBXX ONDY 24184 99283 30419 41397 81622 10240 2020/ 40190 54000 70221 8//// 22213 00270 2//// 3//// 4//// 5//// 6//// 80210 ICE /////
BBXX V7DI8 24183 99199 11214 43/95 /0537 10210 2016/ 40200 51010 7//// 8//// 22200 00280 2//// 3//// 4//// 5//// 6//// 80180 ICE /////
BBXX 9VVU 24184 99358 11495 41298 80422 10085 20063 40056 58013 76062 877// 22264 00210 2//// 3//// 4//// 5//// 80075
BBXX A8HG2 24184 99532 11733 41798 50721 10040 40195 58015 70322 85160 22264 04040 20403 3//// 4//// 5////
BBXX WDB9949 24184 99512 11600 43/// ///// 1//// 2//// 4//// 5//// 7//// 8//// 22211 0//// 2//// 3//// 4//// 5//// 6//// ICE /////
BBXX C6DM2 24183 99055 11001 417// 50509 10270 20228 40090 50010 7//22 857// 22271 0//// 2//// 3//// 4//// 5//// 6//// 80240 ICE /////
BBXX A8SI3 24183 99538 11708 43998 00418 10000 2106/ 40270 54000 22264 00020 20503 81020
BBXX 32012 24181 99197 50856 46/// ///// 1//// 91750 22200 10804 70021
BBXX VQKZ5 24183 99225 50734 41497 72010 10208 20143 40143 54000 70222 82148 22274 02210 20301 320// 40404 5//// 80170
BBXX 41101 24184 99146 70562 46/// /0715 10265 20214 40134 57022 22200 00270 10704 70022
BBXX WPGK 24184 99367 70721 41498 63419 10128 2005/ 40245 57021 70321 862// 22244 00250 20503 399// 40403 5//// 6//// 80089 ICE /////
BBXX LAZV5 24184 99372 70442 41598 62119 10190 2190/ 40240 54000 70122 86188 22223 00210 20503 326// 40604 5//// 6//// 80185
BBXX PGQI 24183 99360 70745 41/97 63518 10138 20097 40265 58015 70322 85860 22244 20603 309// 40602 80115
BBXX 44098 24181 99428 70702 46/// ///// 1//// 91737 22200 00087 10603 20603 70014
BBXX 46088 24181 99483 71232 46/// /1302 10072 40297 53013 91750 22200 00079 1//00 70002 333 91202 555 11018 22018 31654 41704 61749 132016 162013 179014 184023 178027 172034
BBXX 46114 24181 99364 71222 46/// ///// 1//// 91734 22200 00127 11708 21002 329// 41708 70041
BBXX 41115 24181 99184 70673 46/// ///// 1//// 91735 22200 10802 20802 301// 41101 70012
BBXX 41114 24181 99276 70802 46/// ///// 1//// 91746 22200 00249 11101 20801 70006
BBXX 42362 24181 99278 70907 46/// /0713 10200 20167 40241 91745
BBXX 46060 24181 99606 71468 46/// /3606 10007 49966 91750 22200 00050 11701 314// 41701 70005 333 91207 555 11066 22068 31723 40208 61749 004062 005060 013060 021058 026056 036056 83607 91744
BBXX 42363 24181 99282 70892 46/// /0612 10183 20144 40258 91745 333 91213
BBXX 42364 24181 99291 70881 46/// /0508 10156 20122 40268 91745
BBXX 9HXD9 24184 99245 70746 41898 30723 10240 2//// 40180 54/// 70211 8218/ 22234 04290 21003 309// 4//// 5//// 6//// 8//// ICE /////
BBXX V7DI7 24183 99404 70611 41596 70219 10115 2009/ 40125 54000 75852 872// 22200 0//// 20102 336// 40204 5//// 6//// 80100 ICE /////
BBXX 4XIS 24183 99355 71459 43498 42820 10150 2008/ 40280 54000 8312/ 22224 20606 327// 41008 80105
BBXX 46211 24181 99469 71242 46/// ///// 1//// 91736 22200 00082 11306 21004 327// 41305 70030
BBXX 46240 24181 99366 71219 46/// ///// 1//// 91742 22200 00122 11703 21001 300// 41702 70014
BBXX 46212 24181 99408 71243 46/// ///// 1//// 91742 22200 00095 11507 21003 330// 41506 70034
BBXX 46217 24181 99342 71194 46/// ///// 1//// 91742 22200 00146 11702 20901 324// 41701 70009
BBXX 46237 24181 99378 71226 46/// ///// 1//// 91740 22200 00107 11505 21002 326// 41505 70024
BBXX 46244 24181 99409 71244 46/// ///// 1//// 91735 22200 00093 11307 21003 330// 41306 70033
BBXX 46249 24181 99338 71197 46/// ///// 1//// 91740 22200 00145 11702 20901 326// 41702 70012
BBXX 46248 24181 99461 71247 46/// ///// 1//// 91734 22200 00095 11407 21004 328// 41406 70035
BBXX WDD6126 24184 99389 70421 41598 62124 10200 2015/ 40221 57015 70222 832/8 22254 00174 20302 328// 40504 5//// 6//// 80170 ICE /////
BBXX 3FYB3 24184 99512 71331 41/// /1725 10090 20070 40100 56010 745// 8//// 22274 04100 20808 320// 4//// 5//// 6//// 80080 ICE /////
BBXX DADD 24183 99302 70558 41498 31008 10212 20149 40230 57020 70300 825/5 22224 20301 33111 41004 50803 80172
BBXX PINX 24184 99168 70731 41998 00933 10270 2//// 40140 54000 70200 80000 22274 00270 20504 309// 41004 5//// 6//// 8//// ICE /////
BBXX WDE4432 24184 99296 70879 41598 80513 10135 2012/ 40255 56020 7//22 88/22 22233 0//// 20402 30505 40402 50402 6//// 80125 ICE /////
BBXX A8RL2 24183 99224 70602 41597 50818 10260 20182 40190 56030 70211 85160 22214 04273 20603 307// 40603 80210
BBXX DBKR 24181 99541 10121 46/// /2704 10050 20042 40204 52035 22200 00049
BBXX DBBA 24181 99541 10121 46/// /2807 10056 20028 40203 52034 22220 00047
BBXX DBBC 24181 99535 10100 46/// /2604 10048 2//// 40235 52029 22270 00046
BBXX DBJM 24181 99542 10079 46/// /2510 10069 20033 40231 52011 22260 00074
BBXX DBEA 24181 99540 10084 46/// /2609 10060 20031 40230 52014 22220 00047
BBXX DBFR 24181 99535 10086 46/// /2505 10049 20040 40240 52015 22240 00048
BBXX DBBU 24181 99544 10124 46/// /3011 10056 20044 40195 52038 22241 00051
BBXX A8JH8 24184 99368 10240 41/97 /0315 10120 20111 40190 54000 7//// 8//// 22214 00170 20202 80115
BBXX C6JT 24183 99372 70293 41498 71411 10175 2014/ 40330 54000 70321 85560 22255 20302 3//// 4//// 80155
BBXX 3FSB4 24184 99106 70878 43697 30527 10275 2023/ 40110 5//// 7//// 83468 22234 00280 20307 3//// 4//// 5//// 6//// 80246 ICE /////
BBXX ZCDF4 24183 99154 70940 41998 13323 10265 20236 40140 53017 70200 81040 22234 00280 20302 335// 40203 5//// 80245
BBXX DCCP2 24180 99044 10990 41/98 /2703 10267 20241 40085 57005 70011 8//// 22273 00280 2//// 3//// 4//// 5//// 80248
BBXX ONCE 24184 99123 30955 41496 71422 10260 2024/ 40080 5//// 78082 8672/ 22214 00279 2//// 3//// 4//// 5//// 6//// 80245 ICE /////
BBXX BAREU05 24184 99456 70735 46/// ///// 40350 22200
AAXX 24184 91408 11459 80000 10261 20254 30014 40052 57012 60231 78082 8532/ 333 5619/ 70254 555 92418
AAXX 24181 76040 32960 03002 10149 21022 30291 40306 52012 91750 333 10178 20039 30/// 59015 98660
AAXX 24181 76225 01560 60701 10012 21020 38704 40306 51010 69901 70175 86500 91745 333 10012 21022 30/// 56600 58079 69907 86625
AAXX 24181 76256 32980 00306 10152 20008 30232 40246 5//// 91745 333 10162 20052 30/// 59016
AAXX 24181 76305 32970 13404 10180 21014 30218 40226 52008 81010 91740 333 10185 20110 30/// 56040 59013 81460
AAXX 24181 76323 32570 83602 10017 21037 38321 40353 50011 885// 91755 333 10020 21015 30/// 561// 58069 88623
AAXX 24181 76342 01460 80201 10062 20042 39592 40339 52010 60021 75052 887// 91750 333 10074 20035 31/// 561// 58017 60017 88710
AAXX 24181 76390 31530 42102 10061 20042 38251 40249 52010 74044 81605 91730 333 10070 21004 30/// 56105 58008 81720 83070
AAXX 24181 76402 31959 13101 10180 20044 30157 40216 52002 70544 80005 91740 333 10182 20048 30/// 56006 59002
AAXX 24181 76458 32970 33004 10180 20097 30167 40172 50003 80001 91738 333 10200 20093 30/// 56//9 59001 83072
AAXX 24181 76471 32980 62104 10155 21012 37700 40143 54000 80006 91750 333 10160 20059 30/// 56005 58007 86075
AAXX 24181 76491 32560 73602 10134 20108 39856 40259 52002 875// 91750 333 10138 20100 30/// 569// 58001 87625
AAXX 24181 76525 31960 21914 10122 21015 37483 40165 52003 73833 80001 91745 333 10124 20072 30/// 56//5 58004 82080 91114
AAXX 24181 76543 32675 83604 10204 20119 30202 40235 58001 8357/ 91745 333 10204 20170 30/// 5633/ 59001 83644 85358
AAXX 24181 76548 32475 70504 10180 20145 30223 40233 50003 8247/ 91740 333 10194 20164 30/// 56840 58001 82614 85357
AAXX 24181 76556 32970 01402 10266 20119 39123 40157 52001 91733 333 10268 20114 30/// 59005
AAXX 24181 76577 32970 72304 10188 20137 38069 40202 50001 80003 91740 333 10196 20077 30/// 56005 58001 87080
AAXX 24181 76585 32680 50901 10195 20159 30051 40209 58004 83270 91730 333 10210 20157 30/// 5623/ 59009 83833
AAXX 24181 76593 32370 30503 10274 20255 30192 40194 58011 82204 91750 333 10280 20210 30/// 561/9 58016 82820 810// 91006 91505
AAXX 24181 76634 31670 23001 10224 20040 37872 40192 57006 70500 81101 91750 333 10226 20050 30/// 563/3 59001 81834
AAXX 24181 76665 32962 02902 10236 20095 38142 40189 57009 91750 333 10270 20054 30/// 58001
AAXX 24181 76683 32670 10901 10202 20089 37850 40230 51011 81100 91745 333 10210 20040 30/// 56200 58000 81840
AAXX 24181 76685 32970 01501 10204 20032 37892 40181 57002 91750 333 10206 20074 30/// 58002
AAXX 24181 76687 31562 50701 10190 20148 38721 40214 57002 70111 85500 91737 333 10200 20135 30/// 563// 59001 85622
AAXX 24181 76692 31556 73605 10246 20192 30182 40201 50002 70544 875// 91745 333 10251 20222 30/// 562// 59001 87623
AAXX 24181 76695 32460 60902 10288 20231 30172 40178 57011 84201 91748 333 10290 20212 31/// 565/0 59016 84819 82078
AAXX 24181 76737 31480 51601 10207 20157 38812 40198 58001 70322 82230 91735 333 10210 20148 30/// 56220 59001 82813 83358 91104 91514
AAXX 24181 76743 31457 60501 10281 20253 30165 40173 57010 70211 86200 91745 333 10307 20235 30/// 56100 58008 86811
AAXX 24181 76750 32560 50703 10302 20225 30171 40181 57011 83107 91745 333 10339 20218 30/// 56206 58013 83820
AAXX 24181 76773 31568 12101 10236 20150 38442 40172 57011 70544 81100 91748 333 10238 20060 30/// 56900 58003 81820
AAXX 24181 76805 32970 01001 10311 20222 30131 40134 53010 91735 333 10317 20210 30/// 58008
AAXX 24181 76840 32550 20304 10320 20248 30077 40132 57010 82200 91740 333 10327 20182 30/// 56800 58005 82827
AAXX 24181 76845 32460 70501 10162 20132 37974 40187 58003 87700 91743 333 10172 20112 30/// 56200 58011 87712
AAXX 24181 76848 32670 40503 10215 20126 38406 40120 56007 83140 91750 333 10222 20144 30/// 56190 58011 83837 81360
AAXX 24181 76243 11371 83106 10064 20052 39992 40300 52007 60011 70255 887// 91735 333 10070 20042 31/// 561// 58005 88708
AAXX 24181 76311 32980 00000 10158 20030 39893 40185 56011 91755 333 10160 20007 30/// 59012
AAXX 24181 76405 32980 03509 10190 20083 30193 40215 52008 91750 333 10190 20150 30/// 59004
AAXX 24181 76412 31966 02401 10156 21009 30134 40180 52000 70544 91750 333 10160 20048 30/// 58008
AAXX 24181 76640 31358 80403 10206 20187 30223 40235 57001 70222 8472/ 91740 333 10218 20176 30/// 5679/ 59005 84708 84440
AAXX 24181 76741 01250 83207 10232 20218 30141 40160 52003 60031 76062 86220 91735 333 10240 20198 32/// 567// 58007 60027 84805 82706 82457
BBXX 46002 24181 99426 71305 46/// ///// 10120 40275 55000 91750 22200 00122 11306 70032
BBXX 46005 24181 99461 71310 46/// ///10 10108 40212 52003 91750 22200 00100 11307 20805 3//// 41305 70034 333 91212 555 11107 22115
BBXX 46006 24181 99408 71375 46/// /1912 10131 40192 56011 91750 22200 00122 11207 20706 3//// 41203 70034 333 91215 555 11125 22135 31730 41815 61749 191116 180112 179112 175109 172106 171106
BBXX 46012 24181 99374 71229 46/// /0405 10115 40309 55000 91750 22200 00121 11608 20401 329// 41608 70039 333 91207 555 11056 22059 31657 40507 61749 035053 040047 035047 043046 041051 035059
BBXX 46013 24181 99382 71233 46/// /0906 10088 40317 54000 91750 22200 00115 11606 20301 3//// 41606 70032 333 91207 555 11058 22060 31730 41008 61749 087056 089061 086059 085060 088058 091058
BBXX 46014 24181 99394 71240 46/// /1503 10097 40322 54000 91750 22200 00109 11607 20401 3//// 41607 70037 333 91204 555 11031 22032 31738 41305 61749 154030 155030 158030 156030 165026 168027
BBXX 46028 24181 99357 71219 46/// /3201 10124 40294 52003 91750 22200 00133 11606 20401 329// 41606 70032 333 91201 555 11007 22007 31705 43303 61749 318006 325010 332014 341015 342018 003017
BBXX 46029 24181 99461 71245 46/// /1909 10091 20081 40302 55000 91750 22200 00090 11406 20703 329// 41405 70028 333 91211 555 11095 22102 31701 41811 61749 186090 186087 186082 186088 183093 179091
BBXX 46050 24181 99442 71246 46/// /2105 10090 40316 52005 91750 22200 00097 11407 20401 328// 41407 70037 333 91206 555 11050 22053 31650 42007 61749 209048 208050 201049 202049 203054 205057
BBXX 46054 24181 99342 71204 46/// /1103 10133 40288 52005 91750 22200 00136 11606 20401 300// 41606 70029 333 91204 555 11031 22033 31735 41005 61749 110029 099030 096026 088025 090024 074025
AAXX 24184 91772 11398 80000 10256 20242 4//// 60031 78088 8672/ 333 5699/ 83707 85816 88559
AAXX 24184 91776 31498 50000 1//// 2//// 4//// 60001 70312 858// 333 569// 85817
AAXX 24184 91779 NIL
AAXX 24184 91784 11498 70000 10250 20246 40080 53010 69911 70282 81238 333 56999 81815 84362 86277
AAXX 24184 91792 11498 71406 10245 20235 40090 52009 60071 70268 8577/ 333 5639/ 81710 84817 87462
AAXX 24184 91503 31480 10000 10238 20230 40034 5//// 70500 81208 333 56000 81815
AAXX 24184 91517 31470 51806 10244 20224 40041 57010 70522 84908 333 56909 84815 81918
AAXX 24184 91503 31480 10000 10238 20230 40034 5//// 70500 81208 333 56000 81815
AAXX 24184 91517 31470 51806 10244 20224 40041 57010 70522 84908 333 56909 84815 81918
AAXX 24184 91772 11398 80000 10256 20242 4//// 60031 78088 8672/ 333 5699/ 83707 85816 88559
AAXX 24184 91776 31498 50000 1//// 2//// 4//// 60001 70312 858// 333 569// 85817
AAXX 24184 91779 NIL
AAXX 24184 91784 11498 70000 10250 20246 40080 53010 69911 70282 81238 333 56999 81815 84362 86277
AAXX 24184 91792 11498 71406 10245 20235 40090 52009 60071 70268 8577/ 333 5639/ 81710 84817 87462
AAXX 24181 76040 32960 03002 10149 21022 30291 40306 52012 91750 33310178 20039 30/// 59015 98660
AAXX 24181 76225 01560 60701 10012 21020 38704 40306 51010 69901 7017586500 91745 333 10012 21022 30/// 56600 58079 69907 86625
AAXX 24181 76256 32980 00306 10152 20008 30232 40246 5//// 91745 33310162 20052 30/// 59016
AAXX 24181 76305 32970 13404 10180 21014 30218 40226 52008 81010 91740333 10185 20110 30/// 56040 59013 81460
AAXX 24181 76323 32570 83602 10017 21037 38321 40353 50011 885// 91755333 10020 21015 30/// 561// 58069 88623
AAXX 24181 76342 01460 80201 10062 20042 39592 40339 52010 60021 75052887// 91750 333 10074 20035 31/// 561// 58017 60017 88710
AAXX 24181 76390 31530 42102 10061 20042 38251 40249 52010 74044 8160591730 333 10070 21004 30/// 56105 58008 81720 83070
AAXX 24181 76402 31959 13101 10180 20044 30157 40216 52002 70544 8000591740 333 10182 20048 30/// 56006 59002
AAXX 24181 76458 32970 33004 10180 20097 30167 40172 50003 80001 91738333 10200 20093 30/// 56//9 59001 83072
AAXX 24181 76471 32980 62104 10155 21012 37700 40143 54000 80006 91750333 10160 20059 30/// 56005 58007 86075
AAXX 24181 76491 32560 73602 10134 20108 39856 40259 52002 875// 91750333 10138 20100 30/// 569// 58001 87625
AAXX 24181 76525 31960 21914 10122 21015 37483 40165 52003 73833 8000191745 333 10124 20072 30/// 56//5 58004 82080 91114
AAXX 24181 76543 32675 83604 10204 20119 30202 40235 58001 8357/ 91745333 10204 20170 30/// 5633/ 59001 83644 85358
AAXX 24181 76548 32475 70504 10180 20145 30223 40233 50003 8247/ 91740333 10194 20164 30/// 56840 58001 82614 85357
AAXX 24181 76556 32970 01402 10266 20119 39123 40157 52001 91733 33310268 20114 30/// 59005
AAXX 24181 76577 32970 72304 10188 20137 38069 40202 50001 80003 91740333 10196 20077 30/// 56005 58001 87080
AAXX 24181 76585 32680 50901 10195 20159 30051 40209 58004 83270 91730333 10210 20157 30/// 5623/ 59009 83833
AAXX 24181 76593 32370 30503 10274 20255 30192 40194 58011 82204 91750333 10280 20210 30/// 561/9 58016 82820 810// 91006 91505
AAXX 24181 76634 31670 23001 10224 20040 37872 40192 57006 70500 8110191750 333 10226 20050 30/// 563/3 59001 81834
AAXX 24181 76665 32962 02902 10236 20095 38142 40189 57009 91750 33310270 20054 30/// 58001
AAXX 24181 76683 32670 10901 10202 20089 37850 40230 51011 81100 91745333 10210 20040 30/// 56200 58000 81840
AAXX 24181 76685 32970 01501 10204 20032 37892 40181 57002 91750 33310206 20074 30/// 58002
AAXX 24181 76687 31562 50701 10190 20148 38721 40214 57002 70111 8550091737 333 10200 20135 30/// 563// 59001 85622
AAXX 24181 76692 31556 73605 10246 20192 30182 40201 50002 70544 875//91745 333 10251 20222 30/// 562// 59001 87623
AAXX 24181 76695 32460 60902 10288 20231 30172 40178 57011 84201 91748333 10290 20212 31/// 565/0 59016 84819 82078
AAXX 24181 76737 31480 51601 10207 20157 38812 40198 58001 70322 8223091735 333 10210 20148 30/// 56220 59001 82813 83358 9110491514
AAXX 24181 76743 31457 60501 10281 20253 30165 40173 57010 70211 8620091745 333 10307 20235 30/// 56100 58008 86811
AAXX 24181 76750 32560 50703 10302 20225 30171 40181 57011 83107 91745333 10339 20218 30/// 56206 58013 83820
AAXX 24181 76773 31568 12101 10236 20150 38442 40172 57011 70544 8110091748 333 10238 20060 30/// 56900 58003 81820
AAXX 24181 76805 32970 01001 10311 20222 30131 40134 53010 91735 33310317 20210 30/// 58008
AAXX 24181 76840 32550 20304 10320 20248 30077 40132 57010 82200 91740333 10327 20182 30/// 56800 58005 82827
AAXX 24181 76845 32460 70501 10162 20132 37974 40187 58003 87700 91743333 10172 20112 30/// 56200 58011 87712
AAXX 24181 76848 32670 40503 10215 20126 38406 40120 56007 83140 91750333 10222 20144 30/// 56190 58011 83837 81360
AAXX 24181 76243 11371 83106 10064 20052 39992 40300 52007 60011 70255887// 91735 333 10070 20042 31/// 561// 58005 88708
AAXX 24181 76311 32980 00000 10158 20030 39893 40185 56011 91755 33310160 20007 30/// 59012
AAXX 24181 76405 32980 03509 10190 20083 30193 40215 52008 91750 33310190 20150 30/// 59004
AAXX 24181 76412 31966 02401 10156 21009 30134 40180 52000 70544 91750333 10160 20048 30/// 58008
AAXX 24181 76640 31358 80403 10206 20187 30223 40235 57001 70222 8472/91740 333 10218 20176 30/// 5679/ 59005 84708 84440
AAXX 24181 76741 01250 83207 10232 20218 30141 40160 52003 60031 7606286220 91735 333 10240 20198 32/// 567// 58007 60027 8480582706 82457
AAXX 24181 76040 32960 03002 10149 21022 30291 40306 52012 91750 333 10178 20039 30/// 59015 98660
AAXX 24181 76225 01560 60701 10012 21020 38704 40306 51010 69901 70175 86500 91745 333 10012 21022 30/// 56600 58079 69907 86625
AAXX 24181 76256 32980 00306 10152 20008 30232 40246 5//// 91745 333 10162 20052 30/// 59016
AAXX 24181 76305 32970 13404 10180 21014 30218 40226 52008 81010 91740 333 10185 20110 30/// 56040 59013 81460
AAXX 24181 76323 32570 83602 10017 21037 38321 40353 50011 885// 91755 333 10020 21015 30/// 561// 58069 88623
AAXX 24181 76342 01460 80201 10062 20042 39592 40339 52010 60021 75052 887// 91750 333 10074 20035 31/// 561// 58017 60017 88710
AAXX 24181 76390 31530 42102 10061 20042 38251 40249 52010 74044 81605 91730 333 10070 21004 30/// 56105 58008 81720 83070
AAXX 24181 76402 31959 13101 10180 20044 30157 40216 52002 70544 80005 91740 333 10182 20048 30/// 56006 59002
AAXX 24181 76458 32970 33004 10180 20097 30167 40172 50003 80001 91738 333 10200 20093 30/// 56//9 59001 83072
AAXX 24181 76471 32980 62104 10155 21012 37700 40143 54000 80006 91750 333 10160 20059 30/// 56005 58007 86075
AAXX 24181 76491 32560 73602 10134 20108 39856 40259 52002 875// 91750 333 10138 20100 30/// 569// 58001 87625
AAXX 24181 76525 31960 21914 10122 21015 37483 40165 52003 73833 80001 91745 333 10124 20072 30/// 56//5 58004 82080 91114
AAXX 24181 76543 32675 83604 10204 20119 30202 40235 58001 8357/ 91745 333 10204 20170 30/// 5633/ 59001 83644 85358
AAXX 24181 76548 32475 70504 10180 20145 30223 40233 50003 8247/ 91740 333 10194 20164 30/// 56840 58001 82614 85357
AAXX 24181 76556 32970 01402 10266 20119 39123 40157 52001 91733 333 10268 20114 30/// 59005
AAXX 24181 76577 32970 72304 10188 20137 38069 40202 50001 80003 91740 333 10196 20077 30/// 56005 58001 87080
AAXX 24181 76585 32680 50901 10195 20159 30051 40209 58004 83270 91730 333 10210 20157 30/// 5623/ 59009 83833
AAXX 24181 76593 32370 30503 10274 20255 30192 40194 58011 82204 91750 333 10280 20210 30/// 561/9 58016 82820 810// 91006 91505
AAXX 24181 76634 31670 23001 10224 20040 37872 40192 57006 70500 81101 91750 333 10226 20050 30/// 563/3 59001 81834
AAXX 24181 76665 32962 02902 10236 20095 38142 40189 57009 91750 333 10270 20054 30/// 58001
AAXX 24181 76683 32670 10901 10202 20089 37850 40230 51011 81100 91745 333 10210 20040 30/// 56200 58000 81840
AAXX 24181 76685 32970 01501 10204 20032 37892 40181 57002 91750 333 10206 20074 30/// 58002
AAXX 24181 76687 31562 50701 10190 20148 38721 40214 57002 70111 85500 91737 333 10200 20135 30/// 563// 59001 85622
AAXX 24181 76692 31556 73605 10246 20192 30182 40201 50002 70544 875// 91745 333 10251 20222 30/// 562// 59001 87623
AAXX 24181 76695 32460 60902 10288 20231 30172 40178 57011 84201 91748 333 10290 20212 31/// 565/0 59016 84819 82078
AAXX 24181 76737 31480 51601 10207 20157 38812 40198 58001 70322 82230 91735 333 10210 20148 30/// 56220 59001 82813 83358 91104 91514
AAXX 24181 76743 31457 60501 10281 20253 30165 40173 57010 70211 86200 91745 333 10307 20235 30/// 56100 58008 86811
AAXX 24181 76750 32560 50703 10302 20225 30171 40181 57011 83107 91745 333 10339 20218 30/// 56206 58013 83820
AAXX 24181 76773 31568 12101 10236 20150 38442 40172 57011 70544 81100 91748 333 10238 20060 30/// 56900 58003 81820
AAXX 24181 76805 32970 01001 10311 20222 30131 40134 53010 91735 333 10317 20210 30/// 58008
AAXX 24181 76840 32550 20304 10320 20248 30077 40132 57010 82200 91740 333 10327 20182 30/// 56800 58005 82827
AAXX 24181 76845 32460 70501 10162 20132 37974 40187 58003 87700 91743 333 10172 20112 30/// 56200 58011 87712
AAXX 24181 76848 32670 40503 10215 20126 38406 40120 56007 83140 91750 333 10222 20144 30/// 56190 58011 83837 81360
AAXX 24181 76243 11371 83106 10064 20052 39992 40300 52007 60011 70255 887// 91735 333 10070 20042 31/// 561// 58005 88708
AAXX 24181 76311 32980 00000 10158 20030 39893 40185 56011 91755 333 10160 20007 30/// 59012
AAXX 24181 76405 32980 03509 10190 20083 30193 40215 52008 91750 333 10190 20150 30/// 59004
AAXX 24181 76412 31966 02401 10156 21009 30134 40180 52000 70544 91750 333 10160 20048 30/// 58008
AAXX 24181 76640 31358 80403 10206 20187 30223 40235 57001 70222 8472/ 91740 333 10218 20176 30/// 5679/ 59005 84708 84440
AAXX 24181 76741 01250 83207 10232 20218 30141 40160 52003 60031 76062 86220 91735 333 10240 20198 32/// 567// 58007 60027 84805 82706 82457
AAXX 24184 81405 01460 80604 10272 20243 30103 40112 60221 72186 84830 333 60027 58017 81816 83823 87366 555 69925
AAXX 24184 81405 01460 80604 10272 20243 30103 40112 60221 72186 84830 333 60027 58017 81816 83823 87366 555 69925
BBXX BAREU11 24184 99446 70293 46/// ///// 40266 57005 22214
BBXX BAREU04 24184 99419 70663 46/// ///// 40224 52003 22252
BBXX BAREU06 24184 99406 70276 46/// ///// 40335 52003 22241
BBXX BAREU62 24184 99401 10264 46/// ///// 40221 52012 22243
AAXX 24184 85406 12980 02113 10242 20153 40115 56014 60001
AAXX 24184 85418 12970 52314 10235 20145 40126 58007 60001 85030 333 56000 85363
AAXX 24184 85442 12570 32011 10215 20151 40118 56008 60001 81501 333 56407 81625
AAXX 24184 85469 42570 43409 10240 20184 40202 57002 84800 333 56800 83820
AAXX 24184 85488 32960 02810 10197 20118 40142 58002
AAXX 24184 85864 12980 22209 10222 20080 40196 57014 80001 333 56004 82070
AAXX 24184 85874 12680 43018 10212 20069 39570 40171 58021 82201 333 56606 82840 84070
AAXX 24184 85934 12580 22425 10151 20017 40118 52008 60001 82100 333 56500 82820
AAXX 24184 89056 11230 81208 10003 21001 49820 57012 60013 76876 886// 333 56699 88705
AAXX 24184 89057 11210 80716 11003 21011 49820 57012 60053 76977 8672/ 333 56669 86705 88515
AAXX 24184 89058 11457 80909 10006 21003 39802 49823 57013 60011 77070 8172/
AAXX 24184 89059 12960 82702 10014 21037 49831 57008 60003 8801/ 333 76009 88458
AAXX 24184 89251 41256 80914 10012 21004 49813 57013 76876 8672/
AAXX 24184 85574 12960 02213 10313 21016 39567 40086 58009 60001
AAXX 24184 85585 12598 51919 10176 20110 40197 58004 60001 85800 333 56400 82830 83633
AAXX 24184 85586 12960 02807 10178 20108 40147 57004 60001
AAXX 24184 85629 12984 02707 10310 20074 40101 57012 60001
AAXX 24184 85672 12980 01804 10310 20070 40122 57016 60001 333
AAXX 24184 85703 12960 02310 10322 20156 40121 57014 60001
AAXX 24184 85743 12960 01907 10292 20063 40140 58020 60001
AAXX 24184 85782 11960 01511 10226 20104 40200 57023 60001 70441
AAXX 24184 85799 12960 01513 10176 20103 40221 57012 60001
AAXX 24181 33815 32597 80901 11029 21082 30005 40222 52008 885// 333 11025 555 80013
BBXX 44007 24181 99435 70701 46/// /3504 11052 21128 40296 54000 91750 22200 00077 11001 20401 3//// 41001 70006 333 91206 555 11044 22045 31703 40108 61749 350042 357047 344049 347045 001051 007057
BBXX 42085 24181 99179 70665 46/// /1009 10273 40155 91740 333 91211
AAXX 24181 13579 32970 03101 11039 21054 39361 40235 52011 333 10012
AAXX 24184 78925 11565 60514 10252 20233 40152 58019 60051 72586 86800 333 10284 20242 58009 84823
AAXX 24184 85682 12965 02414 10236 20090 40134 58003 60001
AAXX 24184 78925 11565 60514 10252 20233 40152 58019 60051 72586 86800 333 10284 20242 58009 84823
AAXX 24184 96315 11260 72302 10247 20243 40072 69983 71022 81848 333 81705 83364 85080
AAXX 24184 96323 NIL
AAXX 24184 78925 11565 60514 10252 20233 40152 58019 60051 72586 86800 333 10284 20242 58009 84823
AAXX 24184 89009 42661 72314 11173 36910 53001 86028 333 86446 85262
AAXX 24184 78700 32578 40404 10330 20206 30134 40139 58012 81130 333 10330 20256 30/// 56020 58006 81830 83359
AAXX 24184 78703 11460 80607 10253 20226 30166 40168 57013 60021 8422/ 333 10258 20246 30/// 56299 58020 84817 88457/ 78704 11560 71104 10250 20213 30150 40157 55002 60231 72196 84970 333 10265 20216 31/// 56300 59005 81920 83820 87457
AAXX 24184 78705 01160 70606 10241 20216 30143 40161 58023 60061 72165 84270 333 10241 20199 31/// 56200 58012 60037 81702 83824 87357
AAXX 24184 78706 11560 70000 10240 20224 30170 40175 57005 60021 72064 85270 333 10240 20200 31/// 56200 58005 85824 87458
AAXX 24184 78707 333 78708 31560 70210 10253 20232 30145 40175 58007 71544 84520 333 10258 20224 30/// 56880 58021 84624 87458
AAXX 24184 78711 333 78714 11560 80606 10217 20210 60060 75065 8422/ 333 10217 20188 31/// 56199 84820 88458
AAXX 24184 78717 31560 73606 10210 20158 38984 40164 58006 70544 85130 333 10222 20172 30/// 56110 58018 85825 85359
AAXX 24184 78718 31660 33010 10270 70544 83430 333 10280 20206 30/// 56800 83840
AAXX 24184 78719 31458 70410 10164 20152 38374 40144 58002 71522 87401 333 10182 20088 30/// 56100 58008 87614
AAXX 24184 78720 32557 73614 10211 20158 39054 40146 58007 71544 87500 333 10221 20165 30/// 56800 58010 87622
AAXX 24184 78724 32578 60410 10314 20194 30064 40121 51009 84130 333 10314 20236 30/// 56100 58013 84832
AAXX 24184 97180 01458 30902 10255 20255 30049 40067 56010 69941 70162 81231 333 56000 69907 81819
AAXX 24184 97180 11458 30802 10255 20255 30049 40067 56010 69941 70162 81231 333 56000 81819
AAXX 24184 85406 12980 02113 10242 20153 40115 56014 60001
AAXX 24184 85418 12970 52314 10235 20145 40126 58007 60001 85030 333 56000 85363
AAXX 24184 85442 12570 32011 10215 20151 40118 56008 60001 81501 333 56407 81625
AAXX 24184 85469 42570 43409 10240 20184 40202 57002 84800 333 56800 83820
AAXX 24184 85488 32960 02810 10197 20118 40142 58002
AAXX 24184 85682 12965 02414 10236 20090 40134 58003 60001
AAXX 24184 85864 12980 22209 10222 20080 40196 57014 80001 333 56004 82070
AAXX 24184 85874 12680 43018 10212 20069 39570 40171 58021 82201 333 56606 82840 84070
AAXX 24184 85934 12580 22425 10151 20017 40118 52008 60001 82100 333 56500 82820
AAXX 24184 89056 11230 81208 10003 21001 49820 57012 60013 76876 886// 333 56699 88705
AAXX 24184 89057 11210 80716 11003 21011 49820 57012 60053 76977 8672/ 333 56669 86705 88515
AAXX 24184 89058 11457 80909 10006 21003 39802 49823 57013 60011 77070 8172/
AAXX 24184 89059 12960 82702 10014 21037 49831 57008 60003 8801/ 333 76009 88458
AAXX 24184 89251 41256 80914 10012 21004 49813 57013 76876 8672/
AAXX 24184 85574 12960 02213 10313 21016 39567 40086 58009 60001
AAXX 24184 85585 12598 51919 10176 20110 40197 58004 60001 85800 333 56400 82830 83633
AAXX 24184 85586 12960 02807 10178 20108 40147 57004 60001
AAXX 24184 85629 12984 02707 10310 20074 40101 57012 60001
AAXX 24184 85672 12980 01804 10310 20070 40122 57016 60001 333
AAXX 24184 85703 12960 02310 10322 20156 40121 57014 60001
AAXX 24184 85743 12960 01907 10292 20063 40140 58020 60001
AAXX 24184 85782 11960 01511 10226 20104 40200 57023 60001 70441
AAXX 24184 85799 12960 01513 10176 20103 40221 57012 60001
AAXX 24184 78862 11478 30514 10272 20211 30140 40163 60001 70500 83800 333 10279 20235 58001 82820
AAXX 24184 TAF TQPF 241600Z 2418/2518 06014KT 9999 SCT022 PROB40 TEMPO 2502/2512 07016G26KT SHRA
AAXX 24184 TAF TRPG 241600Z 2418/2518 06017KT 9999 SCT022 PROB40 TEMPO 2502/2512 07019G29KT SHRA
AAXX 24184 TAF TUPJ 241600Z 2418/2518 07012KT 9999 SCT022 PROB30 TEMPO 2502/2512 07015G25KT SHRA
AAXX 24184 G28KT SHRA PROB30 TEMPO 2412/2424 07016G26KT SHRA
AAXX 24184 TAF TUPJ 232200Z 2400/2424 07016KT 9999 SCT020 SCT040 PROB40 TEMPO 2400/2412 07018G28KT SHRA TEMPO 2412/2424 07016G26KT SHRA
AAXX 24184 TAF TUPJ 041000Z 04012/0512 07008KT 9999 SCT016 BKN038 SCT270 TEMPO 0412/0512 SHRA BKN015 PROB40 TEMPO 0418/0512 5000 SHRA BKN014 BKN036 PROB30 0420/0512 4000 TSRA FEW012CB
AAXX 24184 918 4000 TSRA FEW012CB
AAXX 24184 N015 BKN036 PROB40 TEMPO 0704/0724 3000 +TSRA SCT011CB BKN012 BECMG 0712/0714 14008KT
AAXX 24184 21/2712 07017G28KT 5000 SHRA BKN015 BKN036 PROB TEMPO 2700/2712 4000 TSRA FEW013CB
AAXX 24184 PROB30 TEMPO 0800/0806 4000 TSRA FEW012CB PROB40 TEMPO 0800/0824 2000 +SHRA/TSRA SCT010CB BKN012 BKN250
AAXX 24184 89009 42661 72314 11173 36910 53001 86028 333 86446 85262
AAXX 24184 65201 31457 71805 10286 20255 30052 40104 70522 82508 333 10349 56000 57632 59005 82612 86280 91108 94463
AAXX 24184 78862 11478 30514 10272 20211 30140 40163 60001 70500 83800 333 10279 20235 58001 82820
AAXX 24184 TAF TQPF 241600Z 2418/2518 06014KT 9999 SCT022 PROB40 TEMPO 2502/2512 07016G26KT SHRA
AAXX 24184 TAF TRPG 241600Z 2418/2518 06017KT 9999 SCT022 PROB40 TEMPO 2502/2512 07019G29KT SHRA
AAXX 24184 TAF TUPJ 241600Z 2418/2518 07012KT 9999 SCT022 PROB30 TEMPO 2502/2512 07015G25KT SHRA
AAXX 24184 G28KT SHRA PROB30 TEMPO 2412/2424 07016G26KT SHRA
AAXX 24184 TAF TUPJ 232200Z 2400/2424 07016KT 9999 SCT020 SCT040 PROB40 TEMPO 2400/2412 07018G28KT SHRA TEMPO 2412/2424 07016G26KT SHRA
AAXX 24184 TAF TUPJ 041000Z 04012/0512 07008KT 9999 SCT016 BKN038 SCT270 TEMPO 0412/0512 SHRA BKN015 PROB40 TEMPO 0418/0512 5000 SHRA BKN014 BKN036 PROB30 0420/0512 4000 TSRA FEW012CB
AAXX 24184 918 4000 TSRA FEW012CB
AAXX 24184 N015 BKN036 PROB40 TEMPO 0704/0724 3000 +TSRA SCT011CB BKN012 BECMG 0712/0714 14008KT
AAXX 24184 21/2712 07017G28KT 5000 SHRA BKN015 BKN036 PROB TEMPO 2700/2712 4000 TSRA FEW013CB
AAXX 24184 PROB30 TEMPO 0800/0806 4000 TSRA FEW012CB PROB40 TEMPO 0800/0824 2000 +SHRA/TSRA SCT010CB BKN012 BKN250
AAXX 24184 78862 11478 30514 10272 20211 30140 40163 60001 70500 83800 333 10279 20235 58001 82820
AAXX 24184 TAF TQPF 241600Z 2418/2518 06014KT 9999 SCT022 PROB40 TEMPO 2502/2512 07016G26KT SHRA
AAXX 24184 TAF TRPG 241600Z 2418/2518 06017KT 9999 SCT022 PROB40 TEMPO 2502/2512 07019G29KT SHRA
AAXX 24184 TAF TUPJ 241600Z 2418/2518 07012KT 9999 SCT022 PROB30 TEMPO 2502/2512 07015G25KT SHRA
AAXX 24184 G28KT SHRA PROB30 TEMPO 2412/2424 07016G26KT SHRA
AAXX 24184 TAF TUPJ 232200Z 2400/2424 07016KT 9999 SCT020 SCT040 PROB40 TEMPO 2400/2412 07018G28KT SHRA TEMPO 2412/2424 07016G26KT SHRA
AAXX 24184 TAF TUPJ 041000Z 04012/0512 07008KT 9999 SCT016 BKN038 SCT270 TEMPO 0412/0512 SHRA BKN015 PROB40 TEMPO 0418/0512 5000 SHRA BKN014 BKN036 PROB30 0420/0512 4000 TSRA FEW012CB
AAXX 24184 918 4000 TSRA FEW012CB
AAXX 24184 N015 BKN036 PROB40 TEMPO 0704/0724 3000 +TSRA SCT011CB BKN012 BECMG 0712/0714 14008KT
AAXX 24184 21/2712 07017G28KT 5000 SHRA BKN015 BKN036 PROB TEMPO 2700/2712 4000 TSRA FEW013CB
AAXX 24184 PROB30 TEMPO 0800/0806 4000 TSRA FEW012CB PROB40 TEMPO 0800/0824 2000 +SHRA/TSRA SCT010CB BKN012 BKN250
BBXX DMQN 24183 99468 70078 41398 82914 10120 20039 40369 50009 70211 85770 22254 04140 20902 330// 40705 5//// 80080
BBXX A8AX3 24183 99050 70105 41597 11406 10300 40112 54000 70000 81100 22234 2//// 316// 40502
AAXX 24184 91487 NIL
AAXX 24184 91490 NIL
AAXX 24184 91533 NIL
AAXX 24184 91601 NIL
AAXX 24184 91610 11599 60811 10270 20241 40053 53008 60001 70322 84208 333 562/9
AAXX 24184 84818 85280
AAXX 24184 91623 NIL
AAXX 24184 91629 NIL
AAXX 24184 91701 NIL
BBXX A8IM7 24184 99317 11562 41498 52522 10190 20167 40070 56015 75822 85/// 22225 20406 3//// 4//// 5//// 80175
BBXX BATFR14 24184 99471 70114 44498 82216 10124 20052 40361 57003 70322 885// 22214 00129 20102 328// 40804 5//// 60000 ICE 0/0//
BBXX BATFR08 24184 99284 30661 46/// /0917 10222 20142 40226 51006 22273 00230
BBXX BATFR20 24184 99418 10095 46/// ///// 10144 20005 40141 22284
BBXX BATFR55 24184 99068 30395 44598 10710 10282 20257 40111 70000 81100 22232 00287 205// 32121 407// 507//
BBXX BATFR43 24184 99205 51661 46/// /0409 10274 20242 40094 53014 22263 00284
BBXX BATFR16 24184 99241 70525 44698 40617 10257 20192 40191 56017 70300 84430 22254 00257 20904 304// 40904 5////
BBXX BATFR19 24184 99066 30057 46/// /1816 10239 20202 40111 53009 22200 00255
BBXX BATFR53 24184 99188 51623 44598 40119 10269 20229 40112 51020 72500 83362 22222 00282 202// 305// 40304 5//// 60/// ICE 0////
BBXX BATEU05 24184 99587 70038 46/// /2635 10097 20055 49994 51014 22223
AAXX 24181 12772 11540 80000 11011 21022 39928 40224 52011 69932 71072 886// 333 11011 43001 88720
AAXX 24181 12822 36/// /2401 10017 20013 30077 40225 53020 333 10036
AAXX 24181 12843 11315 80000 11002 21006 30048 40225 52015 60022 75165 886// 333 11002 41998 88706
AAXX 24181 12882 11320 81502 11008 21014 30089 40226 52007 69932 71072 886// 333 11008 42998 88706
AAXX 24181 12925 36/// /0000 10015 21017 30061 40238 52025 333 10059
AAXX 24181 12942 31956 83401 10002 21011 39984 40238 53022 70222 8807/ 333 10008 43004
AAXX 24181 12982 11556 80000 10003 21010 30126 40231 52020 69942 76876 8357/ 333 10015 4/000 83625
BBXX BATFR46 24184 99397 10010 44/97 30213 10142 20077 40305 53010 70133 82/4/ 22253 00160 23002 320// 42502 5////
BBXX BATFR28 24184 99018 11025 46/// /0715 10254 20235 40091 50002 22263 00287
BBXX BATFR31 24184 99419 10088 46/// /3313 10144 20139 40172 22232 00157
BBXX BATEU04 24184 99630 70205 46/// /2735 10032 21048 4//// 22261
BBXX BATFR11 24184 99380 10007 46/// ///// 10150 20089 40300 52006 22243 00174
BBXX BATFR01 24184 99390 10148 46/// /2118 10157 20094 40152 58017 22272 00164
BBXX FVNM 24184 99089 70795 46/// /2802 10302 20234 40086 58026 22200 00279
BBXX BATFR09 24184 99360 70054 44397 80921 10152 20107 40284 53020 70241 882// 22223 00177 20304 60//0 ICE 0/0//
BBXX BATFR33 24184 99423 10060 46/// /3346 10107 20019 40233 55014 22234 00134
BBXX BATFR60 24184 99496 70035 46/// /2619 10109 20059 40323 56011 22212 00115
BBXX CGDS 24184 99447 70755 46/// /0603 11103 21130 4//// 5//// 7//// 8//// 22251 00057 2////
BBXX CGDS 24184 99447 70755 46/// /0603 11103 21130 4//// 5//// 7//// 8//// 22251 00057 2////
AAXX 24184 91487 NIL
AAXX 24184 91490 NIL
AAXX 24184 91533 NIL
AAXX 24184 91601 NIL
AAXX 24184 91610 11599 60811 10270 20241 40053 53008 60001 70322 84208 333 562/9
AAXX 24184 84818 85280
AAXX 24184 91623 NIL
AAXX 24184 91629 NIL
AAXX 24184 91701 NIL
AAXX 24184 CCA 91772 11398 80000 10256 20242 4//// 60031 78088 8672/ 333 5699/ 83707 85816 88559
AAXX 24184 CCA 91772 11398 80000 10256 20242 4//// 60031 78088 8672/ 333 5699/ 83707 85816 88559
AAXX 24184 91487 NIL
AAXX 24184 91490 NIL
AAXX 24184 91533 NIL
AAXX 24184 91601 NIL
AAXX 24184 91610 11599 60811 10270 20241 40053 53008 60001 70322 84208 333 562/9
AAXX 24184 84818 85280
AAXX 24184 91623 NIL
AAXX 24184 91629 NIL
AAXX 24184 91701 NIL
AAXX 24181 01001 11675 33605 11032 21074 39662 49673 57040 60002 70222 82531 333 11032 91107
AAXX 24181 01008 11484 73303 10006 21013 39595 49627 53017 60002 70222 875// 333 10031 91113
AAXX 24181 01010 16/// /1807 10003 21024 39851 49867 58012 6//// 333 10047 91123
AAXX 24181 01026 11360 72206 11001 21015 39735 49875 50005 60072 78582 8436/ 333 10031 4/013 91112
AAXX 24181 01055 46/// /2516 10041 21037 39806 49823 51019 333 10057 91128
AAXX 24181 01062 NIL
AAXX 24181 01098 16/// /2503 10026 21003 39827 49845 53026 6//// 333 10030 91116
AAXX 24181 01115 11470 82114 10047 20021 39867 49888 58035 60032 72582 8236/ 333 10051 91121
AAXX 24181 01152 11482 71605 10015 21007 39890 49906 58026 60022 72682 8586/ 333 10050 91117
AAXX 24181 01205 NIL
AAXX 24181 01212 16/// /2015 10074 20011 39895 49911 58065 6//// 333 10075 91121
AAXX 24181 01271 16/// /1304 10021 21080 39950 49971 58041 6//// 333 10023 91107
AAXX 24181 01288 11982 03501 11164 21178 39268 40063 58027 60002 70200 333 11080 91104
AAXX 24181 01300 NIL
AAXX 24181 01317 11360 81707 10061 20037 30010 40025 56038 60062 76186 8772/ 333 10061 91114
AAXX 24181 01367 11785 82301 11039 21058 39609 40062 58024 60002 70321 885// 333 11039 91105
AAXX 24181 01384 11989 11904 11032 21056 39838 40091 58007 60002 70100 80008 333 10001 91105
AAXX 24181 01403 11560 82116 10062 20048 39976 40045 58035 60032 76386 8572/ 333 10066 91121
AAXX 24181 01415 16/// /2008 10068 20050 30063 40074 58031 6//// 333 10068 91112
AAXX 24181 01482 46/// /2311 10050 20000 30099 40107 58004 333 10050 91114
AAXX 24181 01492 NIL
AAXX 24181 01003 NIL
AAXX 24181 01007 11682 81107 10007 21034 39606 49616 53010 60002 70321 885// 333 10027 91112
AAXX 24181 01028 11984 02312 11002 21041 39704 49723 52020 60012 70221 333 10018 91118
AAXX 24181 01047 31788 81405 11026 21084 39513 49884 51023 70222 8807/ 333 10015
AAXX 24181 01049 16/// /2804 10021 21046 39862 49865 51021 60002 333 10048 91113
AAXX 24181 01078 16/// /2509 10023 21005 39815 49828 51033 6//// 333 10041 91123
AAXX 24181 01102 46/// /1817 10047 20005 39898 49917 58038 333 10057 91124
AAXX 24181 01160 NIL
AAXX 24181 01218 NIL
AAXX 24181 01238 41465 71611 11034 21071 38857 49989 58038 73632 85340 333 11026 91115
AAXX 24181 01241 11484 51411 10025 21047 39923 49934 58056 60022 70320 81872 333 10031 91114
AAXX 24181 01281 NIL
AAXX 24181 01338 16/// /1204 10028 20000 39949 40015 58042 60002 333 10030 91107
AAXX 24181 01359 NIL
AAXX 24181 01397 16/// /1601 11170 21184 39637 40108 58008 69932 333 11113 91102
AAXX 24181 01400 NIL
AAXX 24181 01427 11445 82211 10071 20046 30095 40111 58021 60002 76186 8587/ 333 10072 91114
AAXX 24181 01447 NIL
AAXX 24181 01448 46/// /2407 10066 20038 30109 40119 58016 333 10066 91112
AAXX 24184 78583 32570 60808 10283 20230 40177 60001 83802 333 02203 58015 83823 86077
AAXX 24184 78897 12684 30613 10288 20194 40156 57021 60001 83800 333 022// 10294 20229 58003 70018 82833
AAXX 24181 78221 41462 50605 10263 20207 30172 40199 57010 70300 85200 333 85815
AAXX 24181 78224 31559 10807 10282 20128 30124 40197 58018 70544 81100 333 81830
AAXX 24181 78229 41559 41001 10194 20169 30126 40201 52010 70082 84200 333 84820
AAXX 24181 78239 41559 40807 10277 20211 30192 40195 57020 70500 84800 333 10280 20230 83820
AAXX 24181 78244 NIL
AAXX 24181 78243 42559 50907 10277 20183 30073 40196 57022 85200 333 85820
AAXX 24181 78255 42459 40609 10270 20190 30045 40194 57020 84201 333 10279 20196 84820
AAXX 24181 78264 31560 21307 10292 20197 30097 40172 57020 70500 82200 333 82820
AAXX 24181 78265 31559 40809 10289 20171 30075 40175 57020 70514 84200 333 10292 20184 84825
AAXX 24181 78256 NIL
AAXX 24181 78259 NIL
AAXX 24181 78268 NIL
AAXX 24184 78388 111576 10914 10288 20212 30149 40158 60001 70500 81100 333 00200 10304 20234 5800 81824
AAXX 24181 10004 NIL
AAXX 24181 10015 01570 32610 10070 20032 30218 40228 51011 69932 70181 81872 222// 02066 333 10077 20053 31004 55300 20000 30000 69907 81830 91116 91213
AAXX 24181 10020 15974 82507 10060 20038 30171 40204 51008 69902 333 10069 20049 3/004 55300 20000 30000 88/65 91113
AAXX 24181 10035 12975 12605 10038 20020 30154 40214 51016 69912 81030 333 10065 20026 31002 55300 20000 30000 40883 81367 91114
AAXX 24181 10055 12980 02711 10053 20034 30196 40207 51027 69992 333 10058 20039 31003 55300 20000 30000 91115 91212
AAXX 24181 10147 12575 12502 10040 20023 30216 40235 51025 60032 81800 333 10072 20031 31001 55300 20000 30000 40942 81820
AAXX 24181 10162 15572 12806 10042 20020 30138 40223 51033 60042 333 10065 20031 3/003 55300 20000 30000 81/20 91114
AAXX 24181 10184 11975 02705 10040 20020 30185 40193 51040 60022 70261 333 10077 20039 31002 55300 20000 30000
AAXX 24181 10200 12984 02303 10048 20027 30250 40248 51009 60012 333 10073 20045 32003 55300 20000 30000
AAXX 24181 10224 11975 32605 10042 20024 30245 40252 51019 60022 70181 83030 333 10075 20033 33002 55300 20000 30000 83362 91114 96481
AAXX 24181 10270 16960 02904 10040 20021 30164 40220 51040 60022 222// 06045 333 10066 20040 3/002 55300
AAXX 24181 10338 01575 72604 10050 20029 30187 40261 51030 60032 70282 878// 333 10067 20038 31003 55300 20000 30000 69937 82827 86640 96481 96480
AAXX 24181 10361 11682 22903 10042 20018 30143 40249 51042 60032 70161 82500 333 10069 20038 31002 55300 20000 30000 82646 91113
AAXX 24181 10393 01580 73007 10046 20029 30076 40205 51044 60032 70162 8557/ 333 10065 20039 32004 55300 20000 30000 69977 85624 86460 91116
AAXX 24181 10400 12581 52104 10038 20018 30246 40297 51015 69912 84531 333 10073 20027 32000 55300 20000 30000 83624
AAXX 24181 10438 07575 12503 10029 20009 39996 40285 53024 60062 72365 333 10052 20022 3/001 55300 69907 81/32
AAXX 24181 10469 11675 32907 10048 20020 30084 40253 51043 60032 70161 83501 333 10072 20028 32002 55300 83640 91118 91211
AAXX 24181 10488 01468 82908 10040 20024 39948 40235 51048 60052 70176 878// 333 10074 20002 32100 55300 20000 30000 41169 60027 83815 87621 91115
AAXX 24181 10506 11268 52403 10011 21004 39718 40322 51018 69992 70381 81101 333 10034 20011 31100 55300 20000 30000 81805 85075 96483
AAXX 24181 10548 01478 62803 10018 20003 39735 40294 51031 60022 72586 86800 333 10047 20014 31000 55300 20000 30000 69937 83813 84626 91113 96487
AAXX 24181 10637 01581 42205 10044 20015 30171 40313 51024 69912 70181 84801 333 10074 20043 31002 55300 69907 81820 83628 96480
AAXX 24181 10685 01630 72805 10013 21003 39581 40275 51035 60032 72272 875// 333 10039 20005 31100 4/998 55300 20000 30000 69937 87636 96468
AAXX 24181 10738 11784 62605 10026 21001 39844 40330 51023 69932 70381 86500 333 10050 20017 31100 55300 86656 96480
AAXX 24181 10763 01582 72805 10040 20008 39901 40294 51030 69942 70362 875// 333 10061 20039 31003 55300 20000 30000 69907 82622 86645 91116 91212
AAXX 24181 10788 07579 62605 10041 20013 39844 40287 51033 69922 75765 333 10067 20041 3/003 55300 20000 30000 69907 82/20 86/29 86/36 91114
AAXX 24181 10852 01484 72604 10020 20011 39734 40322 51029 69922 70281 878// 333 10060 20013 31101 55300 20000 30000 69917 81813 87633 91113
AAXX 24181 10946 07782 82304 10012 21010 39473 40333 51022 60032 70076 333 10038 20012 3/000 55300 20000 30000 69907 88/50
AAXX 24184 78897 12684 30613 10288 20194 40156 57021 60001 83800 333 022// 10294 20229 58003 70018 82833
AAXX 24184 78388 111576 10914 10288 20212 30149 40158 60001 70500 81100 333 00200 10304 20234 5800 81824
AAXX 24181 78221 41462 50605 10263 20207 30172 40199 57010 70300 85200 333 85815
AAXX 24181 78224 31559 10807 10282 20128 30124 40197 58018 70544 81100 333 81830
AAXX 24181 78229 41559 41001 10194 20169 30126 40201 52010 70082 84200 333 84820
AAXX 24181 78239 41559 40807 10277 20211 30192 40195 57020 70500 84800 333 10280 20230 83820
AAXX 24181 78244 NIL
AAXX 24181 78243 42559 50907 10277 20183 30073 40196 57022 85200 333 85820
AAXX 24181 78255 42459 40609 10270 20190 30045 40194 57020 84201 333 10279 20196 84820
AAXX 24181 78264 31560 21307 10292 20197 30097 40172 57020 70500 82200 333 82820
AAXX 24181 78265 31559 40809 10289 20171 30075 40175 57020 70514 84200 333 10292 20184 84825
AAXX 24181 78256 NIL
AAXX 24181 78259 NIL
AAXX 24181 78268 NIL
AAXX 24181 10609 01675 32304 10029 21002 39991 40333 51019 69902 70161 81501 333 10052 20028 31000 55300 20000 30000 69907 81640 83080
AAXX 24181 10616 11475 52804 10016 21002 39706 40327 51020 60022 70182 84801 333 10030 20015 31000 55300 81810 83813 96488 96483
AAXX 24181 10641 NIL
AAXX 24181 10655 11782 32806 10035 20016 39965 40303 51031 69972 70181 83500 333 10058 20035 31002 55300 20000 30000 83650 91113
AAXX 24181 10675 07465 73006 10044 20009 39994 40293 51034 69932 75765 333 10064 20044 3/003 55300 20000 30000 69907 84/10 87/37 87/50
AAXX 24181 10688 07481 72804 10025 20011 39747 40284 51037 60012 72265 333 10049 20024 3/002 55300 20000 30000 69917 87/16 87/56 91115
AAXX 24181 10708 11482 72605 10025 20004 39936 40336 51019 69912 70162 86801 333 10050 20025 32001 55300 20000 30000 81818 86640
AAXX 24181 10729 15680 22202 10037 20009 30205 40331 51025 69942 333 10075 20037 3/101 55300 20000 30000 81/35
AAXX 24181 10731 01581 72506 10050 20018 30183 40331 51022 69992 72186 875// 333 10066 20048 31003 55300 20000 30000 69977 84626 86645
AAXX 24181 10742 07581 82403 10035 20020 39980 40322 51029 60012 70065 333 10055 20034 3/002 55300 20000 30000 69907 81/22 87/37 88/56 91113
AAXX 24181 10776 01582 82805 10039 20008 39834 40289 52034 69982 72162 8657/ 333 10055 20036 31002 55300 20000 30000 69907 86630 87359 91115
AAXX 24181 10791 01/90 92914 11039 21041 38575 48515 52033 60122 77174 333 11013 21039 49096 55300 69957 96049
AAXX 24181 10805 01580 82003 10043 20021 30152 40349 52023 69912 72162 885// 333 10057 20043 31004 55300 20000 30000 69907 81631 87650
AAXX 24181 10815 01233 82706 11006 21007 39363 48567 51022 60072 77187 877// 333 10008 21006 3/101 43018 55300 20000 30000 69997 87704 91115 91211 96485 96471
AAXX 24181 10836 01482 82808 10002 20000 39423 40323 51027 60022 77087 875// 333 10023 20000 31000 41998 55300 20000 30000 69907 87617 91115 91212
AAXX 24181 10870 01484 72606 10026 20006 39760 40311 51030 69912 72186 878// 333 10065 20024 31001 55300 69907 83817 87646 91113
AAXX 24181 10895 01365 72608 10024 20008 39699 40285 53032 60012 78086 863// 333 10055 20024 31002 55300 20000 30000 69917 81709 86913 91117 91212
AAXX 24181 10908 01/03 73008 11058 21060 38583 48572 51016 60022 77874 87500 333 11033 21058 3/106 49070 55300 20000 30000 69907 876// 91117 91212 96041
AAXX 24181 10929 01682 72503 10028 20008 39797 40347 51028 69902 70286 875// 333 10056 20027 31002 55300 20000 30000 69907 87645 96487
AAXX 24181 10948 07581 82501 11003 21004 39362 48573 53028 60072 70070 333 10035 21009 3/102 4/026 55300 20000 30000 69937 87/26 87/30 88/37
AAXX 24181 10961 11/00 93506 11149 21152 37088 47055 52013 60172 77574 333 11086 21151 49225 55300 20000 40973 91113 96049 96473 96471 96449
AAXX 24181 10962 01584 72505 11010 21029 39140 48561 53024 69912 70274 875// 333 10021 21012 3/102 42005 55300 20000 30000 69907 82626 87640
AAXX 24181 10980 11/01 93105 11069 21072 38201 48555 52017 60062 77174 333 11023 21069 3/107 48088 55300 20000 30000 96049 96471 96449
BBXX A8QJ7 24184 99288 70159 41598 70515 10195 20124 40248 58006 7//22 86870 22283 20502 3//// 4//// 5//// 80155
BBXX PHQX 24183 99440 70132 41/97 6//02 10117 20042 40380 54000 70211 8650/ 22254 2//01 3//// 4//01 5//// 80080
AAXX 24181 13586 32970 00000 11033 21057 39929 40234 52016 333 95990
AAXX 24181 10007 NIL
AAXX 24181 10044 46/// /2407 10045 20016 30179 40211 51024 222// 00051 333 10068 20031 55300 91115 91212
AAXX 24181 10046 12970 32303 10038 20017 30177 40217 52024 69992 80001 333 10066 20030 31001 83072
AAXX 24181 10091 15980 02908 10048 20028 30127 40179 51036 60042 333 10065 20042 3/003 55300 20000 30000 91114 91211
AAXX 24181 10113 11568 32205 10052 20035 30219 40239 51007 69902 70180 83500 333 10072 20052 31004 55300 20000 30000 83628 91116 91214
AAXX 24181 10124 46/// ///// 10054 2//// 30191 40230 51013 222// 00049 333 10073 20048 553// 911// 912//
AAXX 24181 10131 15972 82606 10052 20028 30218 40233 51015 69912 333 10067 20041 3/003 55300 20000 30000 88/66
AAXX 24181 10170 12981 02810 10053 20035 30189 40205 51034 60022 333 10071 20041 32004 55300 20000 30000 91115 91212
AAXX 24181 10264 16976 02806 10036 20019 30111 40220 51035 60062 333 10062 20035 3/002 55300 20000 30000
AAXX 24181 10291 11480 52907 10044 20022 30131 40200 51044 69992 70162 85500 333 10067 20041 31003 55300 20000 30000 85619 91114
AAXX 24181 10315 12675 52303 10048 20021 30212 40278 51017 69922 81530 333 10075 20032 31001 55300 20000 30000 81635 84367
AAXX 24181 10379 11578 12807 10041 20025 30095 40219 51045 60032 70161 81500 333 10067 20039 31002 55300 20000 30000 40970 81630 91116
AAXX 24181 10382 11575 22905 10043 20021 30171 40217 51044 60032 70161 82500 333 10071 20043 31003 55300 20000 30000 82630 91114
AAXX 24181 10384 16/// /3007 10049 20027 30153 40214 51045 60032 333 10074 20046 3/003 55300 20000 30000 91117 91212
AAXX 24181 10427 01103 82807 11009 21009 39253 48531 51023 60052 74187 876// 333 11005 21011 3/102 44036 55300 20000 30000 69907 87702 91119 91214 96041 96487
AAXX 24181 10430 07567 72303 10036 20020 30086 40284 51024 60082 70086 333 10052 20028 3/001 55300 20000 30000 69967 82/26 86/32 87/44
AAXX 24181 10439 NIL
AAXX 24181 10453 11/90 92913 11030 21030 38884 48501 51034 60092 74987 333 11002 21031 3/103 49115 55300 91130 91218 90331 91223 96036 96487 96485 96471
AAXX 24181 10496 01380 82805 10049 20033 30125 40211 51049 60062 72562 872// 333 10075 20039 32004 55300 20000 30000 60027 87809 91114
AAXX 24181 10499 01364 82906 10025 20018 39912 40209 51050 60062 76376 877// 333 10062 20004 32100 41998 55300 20000 30000 60057 87707 91113
AAXX 24181 10505 12478 72407 10042 20021 30020 40309 51011 69922 878// 333 10050 20029 31002 55300 20000 30000 81811 87612
AAXX 24181 10513 11475 72203 10044 20018 30187 40312 51022 60022 70382 86801 333 10065 20033 31001 55300 20000 30000 81818 85627 96487
AAXX 24181 10532 17463 62503 10024 20015 30046 40303 51028 69912 72030 333 10056 20016 3/101 55300 20000 30000 86/17 86/35
AAXX 24181 10544 NIL
AAXX 24181 10554 01680 12806 10012 20001 39879 40281 51035 69992 70186 81500 333 10060 20009 31100 55300 20000 30000 69907 81636 91115 91211 96480 96460
AAXX 24181 10567 01482 63006 10031 20015 39880 40266 51039 60062 70176 86500 333 10062 20007 31000 55300 20000 30000 69937 86613 91115
AAXX 24181 10578 11/01 93018 11030 21032 38783 48473 51019 60092 77174 333 11004 21033 3/103 49069 55300 20000 30000 96049 96038 96239 96473 96439
BBXX PBBB 24183 99383 70552 41596 83311 10180 20151 40130 52010 70282 8/893 22263 00200 20406 322// 41209 5//// 80162
AAXX 24184 07005 04/63 /2211 10063 20040 30228 40321 50000 69942 760// 333 10084 20043 69947 90710 91117 555 69945
AAXX 24184 07015 02980 62108 10053 20028 30252 40311 50001 60002 83502 333 10078 20046 60007 83658 84067 90710 91112 93100 555 60005
AAXX 24184 07020 06/// /2622 10109 20066 30299 40326 56006 60002 333 10111 20090 60007 90710 91130 555 60005
AAXX 24184 07027 01682 62109 10069 20047 30255 40339 56002 69922 70386 84530 333 10097 20033 69907 83643 85365 90710 91114 93100 555 60005
AAXX 24184 07037 04582 62110 10051 20033 30149 40339 52004 60002 700// 333 10088 20024 60007 90710 91112 555 60005
AAXX 24184 07070 04970 82206 10044 20016 30225 40340 52006 60002 700// 333 10076 20038 60007 90710 91108 555 60005
AAXX 24184 07110 02575 72407 10086 20055 30232 40350 57003 69902 878// 333 10109 20039 69907 82820 87648 90710 91110 555 60005
AAXX 24184 07117 01465 72311 10081 20070 30270 40342 56005 60012 70262 85350 333 10107 20072 69987 90710 91118 92437 555 69925
AAXX 24184 07130 04685 82405 10076 20042 30305 40359 53001 69922 700// 333 10106 20033 60007 90710 91109 555 60005
AAXX 24184 07139 06/// /2004 10044 20021 30174 40355 50002 60002 333 10088 20025 60007 90710 91107 555 60005
AAXX 24184 07149 02975 42306 10053 20025 30235 40348 51004 60002 82031 333 10087 20030 60007 82361 83075 90710 91109 93100 555 60005
AAXX 24184 07168 04/70 /2205 10014 21002 30207 40357 53009 60002 700// 333 10077 20013 60007 90710 91108 555 60005
AAXX 24184 07181 04985 82404 10016 21003 39923 40352 53015 60002 700// 333 10049 20012 60007 90710 91110 555 60005
AAXX 24184 07190 04784 82608 10049 20001 30155 40344 51022 69922 700// 333 10060 20047 60007 90710 91114 555 60005
AAXX 24184 07207 01462 62912 10101 20053 69982 70262 81150 222// 327// 333 10119 20067 69907 90710 91119 92427 555 69905
AAXX 24184 07222 02780 32304 10062 20037 30336 40369 53003 60002 83500 333 10105 20026 60007 83650 90710 91107 555 60005
AAXX 24184 07240 02970 02203 10048 20022 30227 40368 53005 60002 333 10087 20024 60007 90710 91106 93100 555 60005
AAXX 24184 07255 04569 /2603 10045 20012 30162 40371 53009 60002 700// 333 10081 20026 60007 90710 91105 555 60005
AAXX 24184 07280 04981 70000 10008 21010 30080 40368 53014 69902 700// 333 10066 20006 60007 90710 91105 555 60005
AAXX 24184 07299 01581 22606 10021 20003 30014 40357 52020 69922 70161 81830 333 10053 20019 60007 81825 90710 91113 93100 555 60005
AAXX 24184 07314 06/// /0000 10090 20030 30353 40382 53002 60002 333 10101 20089 60007 90710 91105 555 60005
AAXX 24184 07335 04982 /2303 10030 20014 30226 40378 53004 60002 700// 333 10088 20029 60007 90710 91104 555 60005
AAXX 24184 07434 04984 /3203 10023 21005 39879 40381 53006 60002 700// 333 10061 20007 60007 90710 91105 555 60005
AAXX 24184 07460 02682 20000 10020 21013 39966 40375 53013 60002 82500 333 10065 20019 60007 82643 90710 91106 93100 555 60005
AAXX 24184 07471 04970 /3309 11009 21031 39349 48918 51008 60002 700// 333 10028 21010 60007 90710 91114 555 60005
AAXX 24184 07481 01680 63606 10031 20002 30060 40361 53015 69902 70386 86500 333 10066 20026 60007 81633 86646 90710 91110 93100 555 60005
AAXX 24184 07510 02965 00000 10044 20024 30314 40383 53006 60002 333 10105 20013 60007 90710 91101 93100 555 60005
AAXX 24184 07535 06/// /3004 10032 20006 30050 40378 51006 60002 333 10078 20028 60007 90710 91106 555 60005
AAXX 24184 07558 06/// /3416 10012 21029 39476 40350 51012 60002 333 10047 20011 60007 90710 91123 555 60005
AAXX 24184 07577 04/70 /0119 10071 21018 30216 40308 53007 60002 700// 333 10092 20071 60007 91035 90710 91145 555 60005
AAXX 24184 07591 04/// /3616 10050 21168 39209 4//// 51013 69902 700// 333 10072 20005 60007 91028 90710 91136 555 60005
AAXX 24184 07607 04969 /0000 10032 20020 30309 40384 53009 60002 700// 333 10113 20004 60007 90710 91103 555 60005
AAXX 24184 07621 02675 11903 10019 20007 39933 40389 53010 69902 81400 333 10104 20019 60007 81643 90710 91105 93100 555 60005
AAXX 24184 07627 06/// /0000 10029 21009 39874 40385 53010 60002 333 10087 20026 60007 90710 91106 555 60005
AAXX 24184 07630 02982 03105 10048 20011 30189 40378 53007 60002 333 10093 20043 60007 90710 91107 93100 555 60005
AAXX 24184 07643 02986 03314 10087 21056 30299 40309 51011 60002 333 10127 20087 60007 90710 91128 555 60005
AAXX 24184 07650 02986 03334 10079 21016 30217 40257 50011 60002 333 10099 20078 60007 91044 90710 91145 93100 555 60005
AAXX 24184 07661 02970 02924 10081 21044 30049 40213 51026 60002 333 10107 20081 60007 90710 91138 555 60005
AAXX 24184 07690 02980 03210 10092 20040 30167 40201 51034 60002 333 10157 20064 60007 90710 91113 93100 555 60005
AAXX 24184 07747 02981 03212 10094 21029 30273 40328 53009 60002 333 10115 20091 60007 90710 91137 555 60005
AAXX 24184 07761 02582 13308 10136 21061 30158 40169 53022 69902 81800 333 10150 20071 60007 81830 90710 91117 93100 555 60005
AAXX 24184 07790 01662 43216 10126 20022 30156 40171 53029 60022 70186 82831 333 10145 20051 60007 81833 83359 91027 90710 91131 93100 555 60005
AAXX 24184 41170 42962 01504 10184 20115 30164 40177 333 10252 59020
AAXX 24184 48698 01456 80106 10261 20248 30072 40090 60051 76186 81878 333 60027 81818 83363 85467
AAXX 24181 11816 11660 79902 10038 20034 30051 40218 52014 60002 72844 8354/ 333 10038 41998 81634 83642 87365
AAXX 24181 11826 11323 89901 10001 21006 30014 40220 52020 60022 71022 886// 333 10008 43002 88709
AAXX 24181 11903 11550 80000 11008 21014 39828 40222 52016 69942 72276 885// 333 11002 43001 88626
AAXX 24181 11934 11240 89901 11025 21036 39356 42787 52010 69902 77072 887// 333 11024 43001 86705 88710
AAXX 24181 11968 11230 82001 11016 21027 39927 40219 52011 69932 77172 885// 333 11012 43004 86703 88640
AAXX 24184 87692 32560 51806 10196 20071 30229 40255 56007 83130 333 56540 83825 555 10253
AAXX 24184 61901 169// /1211 10166 20147 39660 40168 56004 69922 91750 333 10190 8//99 555 7/090
AAXX 24184 61902 12582 51315 10244 20186 40126 69942 858// 333 10277 58000 82820 84638
BBXX 42039 24181 99288 70860 46/// /0707 10186 40244 91750 22200 00231 10503 20503 70013 333 91209 555 11076 22079 31710 40610 61749 071072 070073 068075 063079 062077 064079 80608 91651
BBXX 41040 24181 99145 70530 46/// /0505 10264 20213 40142 58021 91750 22200 00276 10605 20502 3//// 40604 70023 333 91207 555 11057 22059 31725 40608 61749 055055 063054 053056 057057 061056 063054 80606 91725
BBXX 41010 24181 99289 70785 46/// /0204 10233 40238 58010 91750 22200 00239 10803 20401 300// 40802 70013 333 91204 555 11039 22040
BBXX 41009 24181 99285 70802 46/// /0107 10243 20209 40239 58011 91750 22200 00244 11002 20402 300// 41001 70011 333 91208 555 11070 22075
BBXX 42057 24181 99168 70815 46/// /0810 10280 20228 40156 58013 91750 22200 00277 10705 20704 3//// 41002 70023 333 91212 555 11097 22103 31747 40912 61749 081097 079095 073094 070095 072098 067100 80811 91736
AAXX 24184 03005 11460 72537 10068 20039 39844 49943 53009 60052 72586 879// 91750 333 10083 55300 20000 83915 84650 90710 91160 91051
AAXX 24184 03017 15571 /2727 10079 20047 39964 49995 53014 60022 91750 333 10094 55300 20000 82/26 85/34 90710 91147
AAXX 24184 03023 17658 /2631 10092 20039 30057 40062 52027 60022 723// 91750 333 10105 81/45 90710 91145
AAXX 24184 03026 17559 /2425 10077 20038 30007 40025 52026 60042 723// 91750 333 10105 55300 20000 81/29 85/37 90710 91137 91036
AAXX 24184 03063 15980 /2110 10079 20031 39787 40061 52017 60052 91750 333 10085 55300 20000 85/63 90710 91128 91023
AAXX 24184 03066 15981 /2519 10102 20042 30033 40039 53017 69902 91750 333 10109 55300 20000 82/64 85/70 90710 91130 91030
AAXX 24184 03075 17564 /2528 10083 20044 39969 40013 53019 69902 723// 91750 333 10098 84/28 83/62 90710 91140 91040
AAXX 24184 03091 15781 /2212 10082 20057 39975 40054 55007 60002 91750 333 10084 55300 20000 82/50 90710 91125
AAXX 24184 03100 17557 /2716 10098 20077 30080 40096 52024 60022 704// 91750 333 10105 55300 20000 81/22 87/62 90710 91133
AAXX 24184 03111 16358 /2320 10098 20090 30117 40130 51004 69942 91750 333 10099 87/07 86/15 90710 91128
AAXX 24184 03134 17434 /2412 10092 20085 30041 40112 56002 60092 762// 91750 333 10092 55300 20000 87/10 91024
AAXX 24184 03136 17464 /2326 10091 20087 30095 40128 57004 69982 723// 91750 333 10093 55300 20137 86/13 87/23 90710 91138
AAXX 24184 03162 17334 /2415 10074 20063 39851 40138 56010 60072 752// 91750 333 10074 55300 20000 87/07 85/16 90710 91131 91027
AAXX 24184 03166 17483 /2422 10096 20074 30029 40098 56008 69962 723// 91750 333 10097 55300 20000 87/15 83/23 90710 91139 91032
AAXX 24184 03171 11475 62527 10090 20069 30071 40083 55005 69902 76062 865// 91750 333 10091 55300 20000 83613 85647 90710 91135
AAXX 24184 03204 11460 82422 10096 20076 30165 40185 55000 60022 76362 885// 91750 333 10100 55300 20000 81713 88618 90710 91137
AAXX 24184 03240 15484 /2113 10089 20065 30108 40136 57008 69902 91750 333 10090 55300 20000 85/18 84/38 90710 91126
AAXX 24184 03257 17673 /2319 10085 20058 30140 40181 58007 69902 723// 91750 333 10093 55300 20000 83/41 87/60 90710 91128
AAXX 24184 03292 165// /2114 10069 20052 30169 40188 58015 60002 91750 333 10072 87/26
AAXX 24184 03302 17650 /2226 10096 20085 30201 40213 56009 60012 761// 91750 333 10098 55300 20000 81/31 87/50 90710 91137
AAXX 24184 03354 15577 /2107 10071 20046 30083 40227 57013 60002 91750 333 10073 55300 20000 85/26 84/34
AAXX 24184 03377 12580 72216 10070 20048 30139 40225 56009 60002 82538 91750 333 10073 55300 20000 82620 87269 90710 91127
AAXX 24184 03414 15581 /2008 10089 20062 30147 40236 57007 69942 91750 333 10090 55300 20000 87/22
AAXX 24184 03462 15983 /2318 10070 20051 30148 40238 56015 60002 91750 333 10076 55300 20000 83/66 90710 91127
AAXX 24184 03482 15670 /2215 10061 20036 30224 40250 56008 60002 91750 333 10065 86/44
AAXX 24184 03502 17557 /2423 10086 20074 30091 40255 58004 69982 761// 91750 333 10092 55300 20000 81/24 85/32 85/56 90710 91130
AAXX 24184 03535 15679 /2110 10070 20056 30126 40245 56008 69902 91750 333 10073 55300 20000 86/34 84/60 85/63
AAXX 24184 03590 NIL
AAXX 24184 03649 11456 72406 10074 20060 30170 40272 55006 69902 75052 875// 91750 333 10076 55300 2//// 83710 87620
AAXX 24184 03716 17673 /2619 10090 20075 30210 40271 58012 60012 781// 91750 333 10100 55300 20000 81/43 84/50 90710 91132
AAXX 24184 03740 16472 /2211 10071 20056 30100 40280 56005 60002 91750 333 10075 55300 2//// 87/16
AAXX 24184 03746 15984 /2412 10068 20039 30128 40285 57011 60002 91750 333 10079 81/64 86/70
AAXX 24184 03772 15976 /2312 10075 20042 30251 40283 55004 69922 91750 333 10081 55300 20000 81/63
AAXX 24184 03796 46/// /2617 10069 20046 30142 40288 58010 91750 333 10070 90710 91126
AAXX 24184 03803 NIL
AAXX 24184 03808 11450 82513 10086 20071 30202 40310 56005 69942 76086 8557/ 91750 333 10100 55300 20000 81712 85646
AAXX 24184 03809 11570 72617 10087 20075 30218 40313 56006 69962 72582 875// 91750 333 10104 82620 87625 90710 91131 91028
AAXX 24184 03827 17567 /2517 10099 20069 30246 40309 58005 69942 723// 91750 333 10099 81/21 87/36 90710 91128
AAXX 24184 03840 17479 /2513 10070 20057 39982 40293 57010 69902 723// 91750 333 10080 81/14 84/30 86/61
AAXX 24184 03853 15783 /2307 10087 20055 30266 40291 56007 60002 91750 333 10097 55300 20000 81/56 85/62 87/71
AAXX 24184 03874 46/// /2615 10084 20067 30282 40293 58006 91750 333 10092
AAXX 24184 03882 15764 /2407 10081 20055 30231 40295 56007 60002 91750 333 10086 55300 20000 84/56 84/64
AAXX 24184 03894 11481 62514 10086 20055 40330 57003 69912 72581 8683/ 333 10103 81816 85650
AAXX 24184 03917 17460 /2215 10088 20079 30078 40156 55002 69982 722// 91750 333 10089 55300 20000 84/10 85/16 90710 91125
BBXX VCRG 24184 99463 70623 46/// /3614 11062 21090 40244 55000 7//// 8//// 22252 00082 2////
AAXX 24181 01025 16/// /2309 10004 21015 39865 49876 50007 60082 333 10039 91120
AAXX 24181 01052 16/// /2310 10018 21031 39749 49845 51024 60032 333 10047 91122
AAXX 24181 01122 16/// /1806 10011 21011 39848 49938 58025 60052 333 10031 91109
AAXX 24181 01132 16/// /1805 11010 21026 39577 49966 58018 60082 333 10002 91111
AAXX 24181 01156 16/// /1910 10028 20000 39859 49869 58023 60012 333 10054 91119
AAXX 24181 01203 46/// /1824 10061 20036 39872 49920 58051 333 10069 91132
AAXX 24181 01233 16/// /3002 11051 21074 69932 333 11026 91109
AAXX 24181 01265 NIL
AAXX 24181 01273 NIL
AAXX 24181 01307 46/// /1918 10071 20051 39958 49985 58048 333 10076 91124
AAXX 24181 01321 16/// /1204 10043 21006 39725 49975 58048 69932 333 10043 91112
AAXX 24181 01327 11350 81505 10019 20003 60062 78582 889// 333 10020 91114
AAXX 24181 01350 16/// /2405 11027 21037 38640 40024 58026 60002 333 11027 91115
AAXX 24181 01361 16/// /0303 11005 21053 38965 49985 58039 69952 333 11004 4/082 91109
AAXX 24181 01375 NIL
AAXX 24181 01378 16/// /0000 11084 21092 39771 40075 58015 60002 333 11055 91102
AAXX 24181 01385 16/// /0201 11067 21080 39805 40087 58009 60002 333 11018 91103
AAXX 24181 01412 16/// /2010 10070 20055 30051 40081 58029 69942 333 10075 91116
AAXX 24181 01422 16/// /1907 10061 20039 60012 333 10062 91115
AAXX 24181 01440 NIL
AAXX 24181 01441 NIL
AAXX 24181 01467 NIL
AAXX 24181 01469 NIL
AAXX 24181 01477 16/// /0401 11085 21093 60002 333 10026 4/022 91106
AAXX 24181 01480 16/// /0000 11062 21073 60002 333 11014 91103
AAXX 24181 01484 16/// /1402 11038 21052 39941 40102 58003 69982 333 11015 91105
AAXX 24181 01490 16/// /2106 11022 21053 60002 333 11006 91110
AAXX 24181 01495 16/// /2209 10053 20005 30094 40107 58003 60002 333 10055 91111
AAXX 24184 41933 31930 00000 10134 20120 30128 40138 70500 333 59001 70000
AAXX 24184 41946 31940 00000 10142 20130 30131 40136 70500 333 59007 70000
AAXX 24181 01121 46/// /1808 10028 20009 39899 49911 58033 333 10049 91119
AAXX 24181 01135 16/// /1803 10000 21003 39782 49934 58024 60062 333 10029 91109
AAXX 24181 01143 16/// /1901 11001 21015 60032 333 10039 91115
AAXX 24181 01150 16/// /3501 11017 21028 60052 333 10016 91114
AAXX 24181 01192 16/// /1203 11008 21033 60052 333 10044 4/002 91120
AAXX 24181 01225 46/// /1409 10044 21020 39906 49910 58061 333 10063 91118
AAXX 24181 01230 16/// /1007 10020 21047 60002 333 10021 4/035 91114
AAXX 24181 01232 16/// /1606 10068 21041 39868 49946 58059 69962 333 10068 4/011 91119
AAXX 24181 01234 16/// /2003 11026 21035 60002 333 10018 91108
AAXX 24181 01253 16/// /1903 10018 21060 60002 333 10018 4/036 91106
AAXX 24181 01254 16/// /3201 11058 21068 60002 333 10000 4/023 91103
AAXX 24181 01257 NIL
AAXX 24181 01277 NIL
AAXX 24181 01291 16/// /1401 11008 21022 60022 333 10010 4/022 91106
AAXX 24181 01332 16/// /0801 10004 21007 60022 333 10006 91103
AAXX 24181 01366 46/// /1607 11061 21072 38397 40024 58025 333 11051 91119
AAXX 24181 01370 NIL
AAXX 24181 01376 16/// /0801 11060 21068 60002 333 11046 91105
AAXX 24181 01383 46/// /0000 11164 21174 39755 40093 58017 333 11130 91100
AAXX 24181 01386 16/// ///// 11105 21117 60002 333 11039
AAXX 24181 01416 16/// ///// 10060 20060 60022 333 10060
AAXX 24181 01419 NIL
AAXX 24181 01430 16/// ///// 10063 20043 69932 333 10068
AAXX 24181 01434 16/// /0301 11010 21028 39096 40065 58026 69922 333 10002 91109
AAXX 24181 01455 16/// /1301 10018 21033 39786 40099 58015 60002 333 10040 91108
AAXX 24181 01468 16/// /2301 11061 21068 60002 333 11009 91102
AAXX 24181 01470 16/// /2102 11001 21018 39980 40096 58011 60002 333 11001 4/008 91105
AAXX 24181 01476 NIL
AAXX 24181 01481 16/// /2203 10008 21015 30074 40107 58005 60002 333 10021 91106
AAXX 24181 01488 NIL
AAXX 24181 01015 NIL
AAXX 24181 01023 11589 41101 11018 21042 39795 49890 58001 60022 70281 83868 333 10037 91113
AAXX 24181 01033 46/// /2311 10024 21023 39826 49857 51009 333 10056 91122
AAXX 24181 01059 41589 30103 10023 21032 39855 49864 51029 70200 82570 333 10053 91115
AAXX 24181 01089 16/// /2004 10004 21023 39760 49865 51027 6//// 333 10014 91114
AAXX 24181 01167 NIL
AAXX 24181 01180 NIL
AAXX 24181 01210 16/// /1912 10070 20005 39892 49918 57059 6//// 333 10072 91119
AAXX 24181 01228 NIL
AAXX 24181 01240 16/// /1615 10046 21014 39899 49918 58052 6//// 333 10060 91119
AAXX 24181 01304 46/// /1920 10066 20043 39915 49945 56050 333 10072 91127
AAXX 24181 01311 46/// /1912 10057 20050 39961 40023 58038 333 10057 91116
AAXX 24181 01340 NIL
AAXX 24181 01355 16/// ///// 10033 21029 30012 40017 58046 60002 333 10048
AAXX 24181 01360 NIL
AAXX 24181 01392 16/// /2101 11048 21055 39858 40091 58009 60002 333 11038 91103
AAXX 24181 01406 46/// /1914 10073 20061 30009 40027 58038 333 10074 91121
AAXX 24181 01411 16/// /2013 10072 20057 30033 40059 58036 6//// 333 10073 91117
AAXX 24181 01425 NIL
AAXX 24181 01433 46/// /2503 11010 21027 38804 40062 58024 333 11008 91112
AAXX 24181 01442 11480 81407 10033 20010 39843 40102 58022 60002 76162 885// 333 10059 91110
AAXX 24181 01450 NIL
AAXX 24181 01452 16/// /0301 11002 21007 30097 40119 58014 60002 333 10051 91106
AAXX 24181 01473 16/// /0000 11057 21068 39880 40096 58012 6//// 333 10017 91104
AAXX 24181 01494 16/// /1902 10010 21014 30039 40105 58002 60002 333 10025 91105
AAXX 24181 01037 16/// /0502 10021 21060 39880 49886 51014 60012 333 10070 91114
AAXX 24181 01046 11688 42803 10010 21056 39867 49874 51015 60072 70182 82460 333 10076 91112
AAXX 24181 01058 16/// /1301 11067 21077 39418 49886 51027 60002 333 10000 4/018 91109
AAXX 24181 01065 11689 60701 11059 21065 39718 49881 51028 60002 70221 86500 333 10019 91109
AAXX 24181 01092 NIL
AAXX 24181 01107 16/// /2110 10048 20048 39868 49872 58035 60012 333 10052 91115
AAXX 24181 01114 16/// /2010 10029 20001 39895 49905 58030 60012 333 10052 91118
AAXX 24181 01144 46/// /1712 10029 20014 333 10054 91120
AAXX 24181 01199 NIL
AAXX 24181 01245 NIL
AAXX 24181 01259 16/// /1513 10039 21029 39904 49926 58044 60002 333 10056 91120
AAXX 24181 01262 NIL
AAXX 24181 01278 NIL
AAXX 24181 01293 16/// /1701 11012 21080 39786 49996 58029 60002 333 10020 91109
AAXX 24181 01329 NIL
AAXX 24181 01337 NIL
AAXX 24181 01344 16/// ///// 10001 21023 69952 333 10005 4/073
AAXX 24181 01364 16/// /2702 11013 21049 38908 40027 50031 60002 333 11013 4/040 91107
AAXX 24181 01373 16/// /0000 11086 21095 39866 40074 58025 60002 333 11086 91102
AAXX 24181 01374 31980 83601 11064 21072 70321 80008 333 11023
AAXX 24181 01380 16/// /1804 11068 21083 6//// 333 11068 4/027 91108
AAXX 24181 01389 NIL
AAXX 24181 01393 NIL
AAXX 24181 01424 11560 8//// 10004 21004 30072 40076 58036 60102 76162 887// 333 10016
AAXX 24181 01431 16/// /2203 10002 21005 39426 40096 58026 69982 333 10007 91105
AAXX 24181 01436 NIL
AAXX 24181 01465 11982 12205 10042 20012 30101 40120 58011 60002 70200 80001 333 10050 91110
AAXX 24181 01471 11889 81702 11026 21058 60002 70220 87056 333 10012 91104
AAXX 24181 01483 NIL
BBXX 46082 24181 99597 71434 46/// ///// 10040 49957 56023 91750 22200 00063 11005 70026
BBXX 46072 24181 99517 71722 46/// /0508 10001 21067 40150 56028 91750 22200 00046 11005 20501 3//// 41005 70026 333 91210 555 11085 22089 31725 40610 61749 054081 053072 061079 059067 060063 053063 80609 91744
BBXX 46077 24181 99579 71543 46/// /2307 11057 21113 40000 56006 91750 22200 00049 10603 20603 70013 333 91209 555 11075 22078 31716 42210 61749 230073 221067 225068 220066 217062 222065 82208 91741
BBXX 46035 24181 99571 71778 46/// /3609 1//// 40232 57007 91750 22200 10805 20704 300// 40804 70027 333 91211 555 11086 22092 31735 40114 61749 002086 008102 013096 016090 019099 016084 80113 91735
BBXX 51101 24181 99243 71621 46/// /0810 10229 20180 40232 53013 91750 22200 00237 10907 20906 300// 41103 70033 333 91212 555 11107 22113 31707 40914 61749 085102 090105 086097 080100 081109 080109
BBXX 46061 24181 99602 71468 46/// /3608 10009 49959 58025 91750 22200 00059 11604 20502 300// 41604 70020 333 91210 555 11080 22083 31650 43610 61749 358076 358066 355059 353060 001059 010061
BBXX 46072 24181 99517 71722 46/// /0508 10001 21067 40150 56028 91750 22200 00046 11005 20501 3//// 41005 70026 333 91210 555 11085 22089 31725 40610 61749 054081 053072 061079 059067 060063 053063 80609 91744
BBXX 46026 24181 99378 71228 46/// /0807 10103 40314 56003 91750 22200 00115 11606 20401 328// 41606 70030 333 91209 555 11077 22081 31746 40909 61749 067072 289064 291063 296046 291042 296045
BBXX 46041 24181 99474 71247 46/// /1609 10087 40292 55000 91750 22200 00083 11407 20803 3//// 41407 70037 333 91211 555 11096 22103 31738 41512 61749 155088 155088 156081 157086 154086 153081
BBXX 51004 24181 99175 71524 46/// /0610 10237 20201 91750 555 11105 22112
BBXX 51002 24181 99171 71578 46/// /0612 10240 40167 51014 91750 22200 00249 333 91215 555 11129 22138 31733 40516 61749 060122 059121 062120 061119 058119 063121
BBXX 51100 24181 99236 71539 46/// /0710 10222 40233 51016 91750 22200 00230 10905 20604 309// 40903 70026 333 91213 555 11107 22113 31747 40713 61749 068101 068103 067098 062102 063105 068100
AAXX 24181 14648 12970 63201 10056 21031 30067 40189 52013 60002 86030 333 10081 86360
AAXX 24181 14652 11000 90215 11056 21058 37892 48464 53007 60002 74544 333 11026 49065 89/00
AAXX 24181 14542 11658 73401 10022 21009 30033 40229 52018 69902 76122 87500 333 10056 87647 95990
AAXX 24181 02741 37978 03003 11012 21019 30058 40074 52019 70000 91739 333 10055 21012
AAXX 24181 02755 37225 82503 11003 21005 39890 49986 52012 77474 88/// 91739 333 10019 21011
AAXX 24181 02805 37999 72902 11059 21071 39738 49871 52028 70000 87/// 91739 333 10008 21059
AAXX 24181 02807 47999 72002 11017 21033 39710 49891 700// 87/// 91800 333 10012 21019
AAXX 24181 02836 37399 51902 11035 21040 39697 49920 52023 70087 83/// 91739 333 10001 21035
AAXX 24181 02845 47073 72203 11023 21023 39683 49931 52018 70074 85/// 91739 333 10003 21023
AAXX 24181 02849 47356 72303 11004 21012 39651 49923 52009 77174 87/// 91739 333 10014 21005
AAXX 24181 02866 37378 82104 10000 21006 39805 49953 52008 70000 88/// 91739 333 10012 20000
AAXX 24181 02897 47499 82505 11009 21023 39798 49980 700// 88/// 91800 333 10006 21009
AAXX 24181 02913 47675 72604 10002 21014 39955 40007 700// 83/// 333 10030 21004
AAXX 24181 02917 47999 22404 10000 20000 39879 40002 700// 82/// 91800 333 10009 21001
AAXX 24181 02924 47967 02801 11017 21017 39821 40020 52011 70032 91739 333 10021 21018
AAXX 24181 02926 37974 02802 10001 21013 30036 40048 52014 700// 91800 333 10040 20001
AAXX 24181 02935 37372 12501 11009 21012 39842 40017 52010 70000 81/// 91739 333 10025 21010
AAXX 24181 02939 17246 71903 11012 21012 39808 40003 57002 60032 77170 87/// 91739 333 11012 21022
AAXX 24181 02944 47980 12503 11007 21010 39892 40041 700// 80/// 91800 333 10038 21017
AAXX 24181 02947 47025 82501 10008 20008 40023 52008 71081 88/// 91751 333 10008 20003
AAXX 24181 02963 46/// /2801 10005 20001 40046 333 1//// 2////
AAXX 24181 02974 11265 72803 10028 20025 39972 40038 52014 60052 70262 8553/ 333 10037 20026 32///
AAXX 24181 02976 46/// /2803 10036 20036 30014 40031 52011 91739 333 10042 20012
AAXX 24181 02981 17981 73309 10035 2//// 30056 40066 52023 69972 70000 80/// 91739 333 10061 20035
AAXX 24181 02982 46/// /3407 10035 20024 30044 40052 52020 91739 333 10064 20035
AAXX 24181 02741 37978 03003 11012 21019 30058 40074 52019 70000 91739 333 10055 21012
AAXX 24181 02755 37225 82503 11003 21005 39890 49986 52012 77474 88/// 91739 333 10019 21011
AAXX 24181 02805 37999 72902 11059 21071 39738 49871 52028 70000 87/// 91739 333 10008 21059
AAXX 24181 02807 47999 72002 11017 21033 39710 49891 700// 87/// 91800 333 10012 21019
AAXX 24181 02836 37399 51902 11035 21040 39697 49920 52023 70087 83/// 91739 333 10001 21035
AAXX 24181 02845 47073 72203 11023 21023 39683 49931 52018 70074 85/// 91739 333 10003 21023
AAXX 24181 02849 47356 72303 11004 21012 39651 49923 52009 77174 87/// 91739 333 10014 21005
AAXX 24181 02866 37378 82104 10000 21006 39805 49953 52008 70000 88/// 91739 333 10012 20000
AAXX 24181 02897 47499 82505 11009 21023 39798 49980 700// 88/// 91800 333 10006 21009
AAXX 24181 02913 47675 72604 10002 21014 39955 40007 700// 83/// 333 10030 21004
AAXX 24181 02917 47999 22404 10000 20000 39879 40002 700// 82/// 91800 333 10009 21001
AAXX 24181 02924 47967 02801 11017 21017 39821 40020 52011 70032 91739 333 10021 21018
AAXX 24181 02926 37974 02802 10001 21013 30036 40048 52014 700// 91800 333 10040 20001
AAXX 24181 02935 37372 12501 11009 21012 39842 40017 52010 70000 81/// 91739 333 10025 21010
AAXX 24181 02939 17246 71903 11012 21012 39808 40003 57002 60032 77170 87/// 91739 333 11012 21022
AAXX 24181 02944 47980 12503 11007 21010 39892 40041 700// 80/// 91800 333 10038 21017
AAXX 24181 02947 47025 82501 10008 20008 40023 52008 71081 88/// 91751 333 10008 20003
AAXX 24181 02963 46/// /2801 10005 20001 40046 333 1//// 2////
AAXX 24181 02974 11265 72803 10028 20025 39972 40038 52014 60052 70262 8553/ 333 10037 20026 32///
AAXX 24181 02976 46/// /2803 10036 20036 30014 40031 52011 91739 333 10042 20012
AAXX 24181 02981 17981 73309 10035 2//// 30056 40066 52023 69972 70000 80/// 91739 333 10061 20035
AAXX 24181 02982 46/// /3407 10035 20024 30044 40052 52020 91739 333 10064 20035
AAXX 24181 11812 36/// /3113 10026 21000 39495 42796 52012 333 10037
AAXX 24181 11813 11665 72805 10046 20014 39861 40215 52013 69912 70244 8257/ 333 10049 82633 87358 91013 93401
AAXX 24181 11816 11660 79902 10038 20034 30051 40218 52014 60002 72844 8354/ 333 10038 41998 81634 83642 87365
AAXX 24181 11819 16/// /1402 11000 21003 30001 40225 52020 60032 333 10003
AAXX 24181 11826 11323 89901 10001 21006 30014 40220 52020 60022 71022 886// 333 10008 43002 88709
AAXX 24181 11841 11356 83102 10005 21002 39824 40211 52015 69952 71076 886// 333 10009 43003 88708
AAXX 24181 11855 11250 89901 10001 21006 30055 40226 52021 69982 71052 885// 333 10005 41998 87706 88633
AAXX 24181 11856 16/// /0000 11009 21015 39896 40226 52020 69972 333 11006
AAXX 24181 11858 11920 19901 11006 21012 30067 40224 52020 69922 71011 81040 333 10024 81358
AAXX 24181 11867 11236 81803 10003 21008 39892 40218 52017 60022 71076 886// 333 10009 43004 88705
AAXX 24181 11880 11520 80000 11001 21005 30047 40224 52015 60012 76822 885// 333 10006 42997 88620
AAXX 24181 11900 16/// /0501 11002 21008 39877 40223 52016 69952 333 10003
AAXX 24181 11903 11550 80000 11008 21014 39828 40222 52016 69942 72276 885// 333 11002 43001 88626
AAXX 24181 11916 11/00 93209 11059 21071 37924 48440 52008 69962 77074 333 11032 48049 89/00 91019 91121 93598 96049
AAXX 24181 11918 11465 82605 11001 21005 39359 42788 53015 69902 70276 885// 333 10008 43006 81713 88623 93401
AAXX 24181 11927 11235 89901 11010 21013 39950 40221 52012 69982 72272 885// 333 11007 43001 85705 88630 93503
AAXX 24181 11930 11/00 99902 11081 21088 37305 47974 53012 69962 77742 333 11034 48028 89/00 91125 93509 96049
AAXX 24181 11933 11/01 99902 11023 21023 38642 48457 52009 69962 77074 333 10006 48040 89/00
AAXX 24181 11934 11240 89901 11025 21036 39356 42787 52010 69902 77072 887// 333 11024 43001 86705 88710
AAXX 24181 11938 11340 82204 11030 21035 39112 42786 52013 69912 71072 885// 333 11022 44016 84706 88630
AAXX 24181 11952 16/// /1504 11029 21030 39347 42786 52009 60002 333 11027
AAXX 24181 11958 36/// /0000 11023 21028 38731 48462 52011 333 11023
AAXX 24181 11968 11230 82001 11016 21027 39927 40219 52011 69932 77172 885// 333 11012 43004 86703 88640
AAXX 24181 11976 11420 81702 11014 21024 39947 40221 52010 69992 77172 886// 333 11014 43002 88710
AAXX 24181 11978 11440 81403 11008 21015 30083 40218 52008 69962 77775 886// 333 11008 43001 88710
AAXX 24181 11993 11560 89901 11012 21019 39997 40222 52006 69912 77072 885// 333 11006 43001 88628
AAXX 24181 14528 NIL
AAXX 24181 14537 NIL
AAXX 24181 14544 NIL
AAXX 24181 14557 12960 80000 10017 21009 39851 40229 52022 60002 8807/ 333 86360 88461
AAXX 24181 14640 NIL
AAXX 24181 76040 32960 03002 10149 21022 30291 40306 52012 91750 333 10178 20039 30/// 59015 98660
AAXX 24181 76113 32980 01701 10128 21040 39771 40256 52003 91745 333 10135 20002 30/// 58003
AAXX 24181 76225 01560 60701 10012 21020 38704 40306 51010 69901 70175 86500 91745 333 10012 21022 30/// 56600 58079 69907 86625
AAXX 24181 76256 32980 00306 10152 20008 30232 40246 5//// 91745 333 10162 20052 30/// 59016
AAXX 24181 76305 32970 13404 10180 21014 30218 40226 52008 81010 91740 333 10185 20110 30/// 56040 59013 81460
AAXX 24181 76323 32570 83602 10017 21037 38321 40353 50011 885// 91755 333 10020 21015 30/// 561// 58069 88623
AAXX 24181 76342 01460 80201 10062 20042 39592 40339 52010 60021 75052 887// 91750 333 10074 20035 31/// 561// 58017 60017 88710
AAXX 24181 76382 32680 53404 10094 20017 38970 40282 52001 85070 91750 333 10100 20036 30/// 56030 58055 85356
AAXX 24181 76390 31530 42102 10061 20042 38251 40249 52010 74044 81605 91730 333 10070 21004 30/// 56105 58008 81720 83070
AAXX 24181 76393 01408 83201 10084 20056 39665 40268 52003 69991 70422 887// 91752 333 10088 20054 31/// 569// 58005 69917 88712
AAXX 24181 76402 31959 13101 10180 20044 30157 40216 52002 70544 80005 91740 333 10182 20048 30/// 56006 59002
AAXX 24181 76458 32970 33004 10180 20097 30167 40172 50003 80001 91738 333 10200 20093 30/// 56//9 59001 83072
AAXX 24181 76471 32980 62104 10155 21012 37700 40143 54000 80006 91750 333 10160 20059 30/// 56005 58007 86075
AAXX 24181 76491 32560 73602 10134 20108 39856 40259 52002 875// 91750 333 10138 20100 30/// 569// 58001 87625
AAXX 24181 76525 31960 21914 10122 21015 37483 40165 52003 73833 80001 91745 333 10124 20072 30/// 56//5 58004 82080 91114
AAXX 24181 76543 32675 83604 10204 20119 30202 40235 58001 8357/ 91745 333 10204 20170 30/// 5633/ 59001 83644 85358
AAXX 24181 76548 32475 70504 10180 20145 30223 40233 50003 8247/ 91740 333 10194 20164 30/// 56840 58001 82614 85357
AAXX 24181 76556 32970 01402 10266 20119 39123 40157 52001 91733 333 10268 20114 30/// 59005
AAXX 24181 76577 32970 72304 10188 20137 38069 40202 50001 80003 91740 333 10196 20077 30/// 56005 58001 87080
AAXX 24181 76581 32975 01202 10220 20135 39082 40193 91750 333 10225 20136 30/// 59001
AAXX 24181 76585 32680 50901 10195 20159 30051 40209 58004 83270 91730 333 10210 20157 30/// 5623/ 59009 83833
AAXX 24181 76593 32370 30503 10274 20255 30192 40194 58011 82204 91750 333 10280 20210 30/// 561/9 58016 82820 810// 91006 91505
AAXX 24181 76612 32962 10701 10221 20077 38491 40216 5//// 80001 91750 333 10228 20075 30/// 56006 59004 81072
AAXX 24181 76634 31670 23001 10224 20040 37872 40192 57006 70500 81101 91750 333 10226 20050 30/// 563/3 59001 81834
AAXX 24181 76644 32460 71104 10287 20198 30174 40187 57018 84206 91750 333 10296 20210 30/// 563/9 58015 84820
AAXX 24181 76647 32670 50902 10300 20214 30168 40198 58011 84230 91750 333 10304 20195 31/// 562/0 58010 84835 81358
AAXX 24181 76658 31958 20902 10290 20150 39646 40153 57010 70540 80002 91740 333 10295 20173 30/// 56001 58001 81070 98924
AAXX 24181 76662 32970 72101 10234 20115 38482 40187 57005 80007 91750 333 10245 20060 30/// 5600/ 58000 87070
AAXX 24181 76665 32962 02902 10236 20095 38142 40189 57009 91750 333 10270 20054 30/// 58001
AAXX 24181 76681 31958 03602 10198 20061 37803 40198 57005 70500 91745 333 10198 20028 30/// 58///
AAXX 24181 76683 32670 10901 10202 20089 37850 40230 51011 81100 91745 333 10210 20040 30/// 56200 58000 81840
AAXX 24181 76685 32970 01501 10204 20032 37892 40181 57002 91750 333 10206 20074 30/// 58002
AAXX 24181 76687 31562 50701 10190 20148 38721 40214 57002 70111 85500 91737 333 10200 20135 30/// 563// 59001 85622
AAXX 24181 76692 31556 73605 10246 20192 30182 40201 50002 70544 875// 91745 333 10251 20222 30/// 562// 59001 87623
AAXX 24181 76695 32460 60902 10288 20231 30172 40178 57011 84201 91748 333 10290 20212 31/// 565/0 59016 84819 82078
AAXX 24181 76698 32560 40402 10292 20240 30175 40186 57013 84200 91750 333 10306 20199 30/// 56100 58014 84820
AAXX 24181 76737 31480 51601 10207 20157 38812 40198 58001 70322 82230 91735 333 10210 20148 30/// 56220 59001 82813 83358 91104 91514
AAXX 24181 76743 31457 60501 10281 20253 30165 40173 57010 70211 86200 91745 333 10307 20235 30/// 56100 58008 86811
AAXX 24181 76750 32560 50703 10302 20225 30171 40181 57011 83107 91745 333 10339 20218 30/// 56206 58013 83820
AAXX 24181 76773 31568 12101 10236 20150 38442 40172 57011 70544 81100 91748 333 10238 20060 30/// 56900 58003 81820
AAXX 24181 76805 32970 01001 10311 20222 30131 40134 53010 91735 333 10317 20210 30/// 58008
AAXX 24181 76833 32970 03610 10326 20101 30130 40132 57007 91745 333 10326 20262 30/// 58003 92002
AAXX 24181 76840 32550 20304 10320 20248 30077 40132 57010 82200 91740 333 10327 20182 30/// 56800 58005 82827
AAXX 24181 76845 32460 70501 10162 20132 37974 40187 58003 87700 91743 333 10172 20112 30/// 56200 58011 87712
AAXX 24181 76848 32670 40503 10215 20126 38406 40120 56007 83140 91750 333 10222 20144 30/// 56190 58011 83837 81360
AAXX 24181 76243 11371 83106 10064 20052 39992 40300 52007 60011 70255 887// 91735 333 10070 20042 31/// 561// 58005 88708
AAXX 24181 76311 32980 00000 10158 20030 39893 40185 56011 91755 333 10160 20007 30/// 59012
AAXX 24181 76405 32980 03509 10190 20083 30193 40215 52008 91750 333 10190 20150 30/// 59004
AAXX 24181 76412 31966 02401 10156 21009 30134 40180 52000 70544 91750 333 10160 20048 30/// 58008
AAXX 24181 76640 31358 80403 10206 20187 30223 40235 57001 70222 8472/ 91740 333 10218 20176 30/// 5679/ 59005 84708 84440
AAXX 24181 76656 32975 31601 10245 20046 38523 40188 58006 80008 91750 333 10252 20056 30/// 56005 59003 83280
AAXX 24181 76741 01250 83207 10232 20218 30141 40160 52003 60031 76062 86220 91735 333 10240 20198 32/// 567// 58007 60027 84805 82706 82457
AAXX 24181 76855 32980 02102 10310 20227 30072 40122 50002 91745 333 10320 20208 30/// 59005 92000
AAXX 24184 86011 NIL
AAXX 24184 86033 01470 80905 10242 20220 39905 40088 50010 60051 70262 885// 333 60057 88620
AAXX 24184 86065 NIL
AAXX 24184 86068 32470 82316 10228 20182 39956 40150 56001 885// 333 88625
AAXX 24184 86086 32870 61810 10300 20134 30023 40111 57006 83076 333 83457 83270
AAXX 24184 86097 32570 62708 10320 20198 39485 40106 58011 83830 333 83833 85457
AAXX 24184 86128 01570 82205 10264 20213 39989 40100 52022 60061 70266 8687/ 333 60067 86830 88457
AAXX 24184 86134 32570 82315 10286 20216 30036 40122 54000 8551/ 333 85627 88457
AAXX 24184 86170 01370 72508 10258 20216 30026 40128 50006 69921 70252 83676 333 69927 83709 85454 87270
AAXX 24184 86185 02370 81804 10220 20218 30044 40138 52008 60381 886// 333 60387 88710
AAXX 24184 86192 32270 80000 10304 20193 39901 40116 56016 885// 333 88606
AAXX 24184 86210 31670 82710 10254 20186 39782 40104 54000 71722 889// 333 88620 81940
AAXX 24184 86218 01570 73308 10252 20219 30036 40132 50001 60271 70296 85870 333 69947 85830 87458
AAXX 24184 86221 01360 80000 10248 20205 39991 40124 57012 60081 70266 885// 333 60087 88610
AAXX 24184 86233 01570 81404 10244 20224 39933 40122 57026 60221 70295 885// 333 60227 88620
AAXX 24184 86234 NIL
AAXX 24184 86246 32570 81910 10292 20233 39834 40113 56012 85870 333 85827 82840 88357
AAXX 24184 86251 01460 80000 10234 20216 39947 40114 53007 60461 76166 885// 333 60467 88620
AAXX 24184 86255 01460 81812 10196 20186 30102 40170 51008 60201 76099 885// 333 60027 88612
AAXX 24184 86260 01250 80000 10220 20207 39980 40132 50002 60031 76166 8272/ 333 60037 82707 88510
AAXX 24184 86268 02470 80802 10226 20217 39960 40125 56006 60051 885// 333 60057 88612
AAXX 24184 86285 01470 81408 10220 20206 39860 40144 54000 60201 70286 885// 333 60117 88620
AAXX 24184 86297 NIL
BBXX VEP717 24184 99467 70487 41498 83433 11010 2105/ 40100 52054 70222 885// 22200 06023 20505 318// 40705 81024
BBXX VCRG 24184 99463 70623 46/// /3614 11062 21090 40244 55000 7//// 8//// 22252 00082 2////
BBXX CGUM 24184 99456 70604 46/// /3418 11052 21093 40214 53006 7//// 8//// 22213 0//// 2////
BBXX CG2350 24184 99433 70798 46/// /0803 11005 21077 40307 58017 7//// 8//// 22200 0//// 2////
AAXX 24181 76040 32960 03002 10149 21022 30291 40306 52012 91750 33310178 20039 30/// 59015 98660
AAXX 24181 76113 32980 01701 10128 21040 39771 40256 52003 91745 33310135 20002 30/// 58003
AAXX 24181 76225 01560 60701 10012 21020 38704 40306 51010 69901 7017586500 91745 333 10012 21022 30/// 56600 58079 69907 86625
AAXX 24181 76256 32980 00306 10152 20008 30232 40246 5//// 91745 33310162 20052 30/// 59016
AAXX 24181 76305 32970 13404 10180 21014 30218 40226 52008 81010 91740333 10185 20110 30/// 56040 59013 81460
AAXX 24181 76323 32570 83602 10017 21037 38321 40353 50011 885// 91755333 10020 21015 30/// 561// 58069 88623
AAXX 24181 76342 01460 80201 10062 20042 39592 40339 52010 60021 75052887// 91750 333 10074 20035 31/// 561// 58017 60017 88710
AAXX 24181 76382 32680 53404 10094 20017 38970 40282 52001 85070 91750333 10100 20036 30/// 56030 58055 85356
AAXX 24181 76390 31530 42102 10061 20042 38251 40249 52010 74044 8160591730 333 10070 21004 30/// 56105 58008 81720 83070
AAXX 24181 76393 01408 83201 10084 20056 39665 40268 52003 69991 70422887// 91752 333 10088 20054 31/// 569// 58005 69917 88712
AAXX 24181 76402 31959 13101 10180 20044 30157 40216 52002 70544 8000591740 333 10182 20048 30/// 56006 59002
AAXX 24181 76458 32970 33004 10180 20097 30167 40172 50003 80001 91738333 10200 20093 30/// 56//9 59001 83072
AAXX 24181 76471 32980 62104 10155 21012 37700 40143 54000 80006 91750333 10160 20059 30/// 56005 58007 86075
AAXX 24181 76491 32560 73602 10134 20108 39856 40259 52002 875// 91750333 10138 20100 30/// 569// 58001 87625
AAXX 24181 76525 31960 21914 10122 21015 37483 40165 52003 73833 8000191745 333 10124 20072 30/// 56//5 58004 82080 91114
AAXX 24181 76543 32675 83604 10204 20119 30202 40235 58001 8357/ 91745333 10204 20170 30/// 5633/ 59001 83644 85358
AAXX 24181 76548 32475 70504 10180 20145 30223 40233 50003 8247/ 91740333 10194 20164 30/// 56840 58001 82614 85357
AAXX 24181 76556 32970 01402 10266 20119 39123 40157 52001 91733 33310268 20114 30/// 59005
AAXX 24181 76577 32970 72304 10188 20137 38069 40202 50001 80003 91740333 10196 20077 30/// 56005 58001 87080
AAXX 24181 76581 32975 01202 10220 20135 39082 40193 91750 333 1022520136 30/// 59001
AAXX 24181 76585 32680 50901 10195 20159 30051 40209 58004 83270 91730333 10210 20157 30/// 5623/ 59009 83833
AAXX 24181 76593 32370 30503 10274 20255 30192 40194 58011 82204 91750333 10280 20210 30/// 561/9 58016 82820 810// 91006 91505
AAXX 24181 76612 32962 10701 10221 20077 38491 40216 5//// 80001 91750333 10228 20075 30/// 56006 59004 81072
AAXX 24181 76634 31670 23001 10224 20040 37872 40192 57006 70500 8110191750 333 10226 20050 30/// 563/3 59001 81834
AAXX 24181 76644 32460 71104 10287 20198 30174 40187 57018 84206 91750333 10296 20210 30/// 563/9 58015 84820
AAXX 24181 76647 32670 50902 10300 20214 30168 40198 58011 84230 91750333 10304 20195 31/// 562/0 58010 84835 81358
AAXX 24181 76658 31958 20902 10290 20150 39646 40153 57010 70540 8000291740 333 10295 20173 30/// 56001 58001 81070 98924
AAXX 24181 76662 32970 72101 10234 20115 38482 40187 57005 80007 91750333 10245 20060 30/// 5600/ 58000 87070
AAXX 24181 76665 32962 02902 10236 20095 38142 40189 57009 91750 33310270 20054 30/// 58001
AAXX 24181 76681 31958 03602 10198 20061 37803 40198 57005 70500 91745333 10198 20028 30/// 58///
AAXX 24181 76683 32670 10901 10202 20089 37850 40230 51011 81100 91745333 10210 20040 30/// 56200 58000 81840
AAXX 24181 76685 32970 01501 10204 20032 37892 40181 57002 91750 33310206 20074 30/// 58002
AAXX 24181 76687 31562 50701 10190 20148 38721 40214 57002 70111 8550091737 333 10200 20135 30/// 563// 59001 85622
AAXX 24181 76692 31556 73605 10246 20192 30182 40201 50002 70544 875//91745 333 10251 20222 30/// 562// 59001 87623
AAXX 24181 76695 32460 60902 10288 20231 30172 40178 57011 84201 91748333 10290 20212 31/// 565/0 59016 84819 82078
AAXX 24181 76698 32560 40402 10292 20240 30175 40186 57013 84200 91750333 10306 20199 30/// 56100 58014 84820
AAXX 24181 76737 31480 51601 10207 20157 38812 40198 58001 70322 8223091735 333 10210 20148 30/// 56220 59001 82813 83358 9110491514
AAXX 24181 76743 31457 60501 10281 20253 30165 40173 57010 70211 8620091745 333 10307 20235 30/// 56100 58008 86811
AAXX 24181 76750 32560 50703 10302 20225 30171 40181 57011 83107 91745333 10339 20218 30/// 56206 58013 83820
AAXX 24181 76773 31568 12101 10236 20150 38442 40172 57011 70544 8110091748 333 10238 20060 30/// 56900 58003 81820
AAXX 24181 76805 32970 01001 10311 20222 30131 40134 53010 91735 33310317 20210 30/// 58008
AAXX 24181 76833 32970 03610 10326 20101 30130 40132 57007 91745 33310326 20262 30/// 58003 92002
AAXX 24181 76840 32550 20304 10320 20248 30077 40132 57010 82200 91740333 10327 20182 30/// 56800 58005 82827
AAXX 24181 76845 32460 70501 10162 20132 37974 40187 58003 87700 91743333 10172 20112 30/// 56200 58011 87712
AAXX 24181 76848 32670 40503 10215 20126 38406 40120 56007 83140 91750333 10222 20144 30/// 56190 58011 83837 81360
AAXX 24181 76243 11371 83106 10064 20052 39992 40300 52007 60011 70255887// 91735 333 10070 20042 31/// 561// 58005 88708
AAXX 24181 76311 32980 00000 10158 20030 39893 40185 56011 91755 33310160 20007 30/// 59012
AAXX 24181 76405 32980 03509 10190 20083 30193 40215 52008 91750 33310190 20150 30/// 59004
AAXX 24181 76412 31966 02401 10156 21009 30134 40180 52000 70544 91750333 10160 20048 30/// 58008
AAXX 24181 76640 31358 80403 10206 20187 30223 40235 57001 70222 8472/91740 333 10218 20176 30/// 5679/ 59005 84708 84440
AAXX 24181 76656 32975 31601 10245 20046 38523 40188 58006 80008 91750333 10252 20056 30/// 56005 59003 83280
AAXX 24181 76741 01250 83207 10232 20218 30141 40160 52003 60031 7606286220 91735 333 10240 20198 32/// 567// 58007 60027 8480582706 82457
AAXX 24181 76855 32980 02102 10310 20227 30072 40122 50002 91745 33310320 20208 30/// 59005 92000
AAXX 24181 76040 32960 03002 10149 21022 30291 40306 52012 91750 333 10178 20039 30/// 59015 98660
AAXX 24181 76113 32980 01701 10128 21040 39771 40256 52003 91745 333 10135 20002 30/// 58003
AAXX 24181 76225 01560 60701 10012 21020 38704 40306 51010 69901 70175 86500 91745 333 10012 21022 30/// 56600 58079 69907 86625
AAXX 24181 76256 32980 00306 10152 20008 30232 40246 5//// 91745 333 10162 20052 30/// 59016
AAXX 24181 76305 32970 13404 10180 21014 30218 40226 52008 81010 91740 333 10185 20110 30/// 56040 59013 81460
AAXX 24181 76323 32570 83602 10017 21037 38321 40353 50011 885// 91755 333 10020 21015 30/// 561// 58069 88623
AAXX 24181 76342 01460 80201 10062 20042 39592 40339 52010 60021 75052 887// 91750 333 10074 20035 31/// 561// 58017 60017 88710
AAXX 24181 76382 32680 53404 10094 20017 38970 40282 52001 85070 91750 333 10100 20036 30/// 56030 58055 85356
AAXX 24181 76390 31530 42102 10061 20042 38251 40249 52010 74044 81605 91730 333 10070 21004 30/// 56105 58008 81720 83070
AAXX 24181 76393 01408 83201 10084 20056 39665 40268 52003 69991 70422 887// 91752 333 10088 20054 31/// 569// 58005 69917 88712
AAXX 24181 76402 31959 13101 10180 20044 30157 40216 52002 70544 80005 91740 333 10182 20048 30/// 56006 59002
AAXX 24181 76458 32970 33004 10180 20097 30167 40172 50003 80001 91738 333 10200 20093 30/// 56//9 59001 83072
AAXX 24181 76471 32980 62104 10155 21012 37700 40143 54000 80006 91750 333 10160 20059 30/// 56005 58007 86075
AAXX 24181 76491 32560 73602 10134 20108 39856 40259 52002 875// 91750 333 10138 20100 30/// 569// 58001 87625
AAXX 24181 76525 31960 21914 10122 21015 37483 40165 52003 73833 80001 91745 333 10124 20072 30/// 56//5 58004 82080 91114
AAXX 24181 76543 32675 83604 10204 20119 30202 40235 58001 8357/ 91745 333 10204 20170 30/// 5633/ 59001 83644 85358
AAXX 24181 76548 32475 70504 10180 20145 30223 40233 50003 8247/ 91740 333 10194 20164 30/// 56840 58001 82614 85357
AAXX 24181 76556 32970 01402 10266 20119 39123 40157 52001 91733 333 10268 20114 30/// 59005
AAXX 24181 76577 32970 72304 10188 20137 38069 40202 50001 80003 91740 333 10196 20077 30/// 56005 58001 87080
AAXX 24181 76581 32975 01202 10220 20135 39082 40193 91750 333 10225 20136 30/// 59001
AAXX 24181 76585 32680 50901 10195 20159 30051 40209 58004 83270 91730 333 10210 20157 30/// 5623/ 59009 83833
AAXX 24181 76593 32370 30503 10274 20255 30192 40194 58011 82204 91750 333 10280 20210 30/// 561/9 58016 82820 810// 91006 91505
AAXX 24181 76612 32962 10701 10221 20077 38491 40216 5//// 80001 91750 333 10228 20075 30/// 56006 59004 81072
AAXX 24181 76634 31670 23001 10224 20040 37872 40192 57006 70500 81101 91750 333 10226 20050 30/// 563/3 59001 81834
AAXX 24181 76644 32460 71104 10287 20198 30174 40187 57018 84206 91750 333 10296 20210 30/// 563/9 58015 84820
AAXX 24181 76647 32670 50902 10300 20214 30168 40198 58011 84230 91750 333 10304 20195 31/// 562/0 58010 84835 81358
AAXX 24181 76658 31958 20902 10290 20150 39646 40153 57010 70540 80002 91740 333 10295 20173 30/// 56001 58001 81070 98924
AAXX 24181 76662 32970 72101 10234 20115 38482 40187 57005 80007 91750 333 10245 20060 30/// 5600/ 58000 87070
AAXX 24181 76665 32962 02902 10236 20095 38142 40189 57009 91750 333 10270 20054 30/// 58001
AAXX 24181 76681 31958 03602 10198 20061 37803 40198 57005 70500 91745 333 10198 20028 30/// 58///
AAXX 24181 76683 32670 10901 10202 20089 37850 40230 51011 81100 91745 333 10210 20040 30/// 56200 58000 81840
AAXX 24181 76685 32970 01501 10204 20032 37892 40181 57002 91750 333 10206 20074 30/// 58002
AAXX 24181 76687 31562 50701 10190 20148 38721 40214 57002 70111 85500 91737 333 10200 20135 30/// 563// 59001 85622
AAXX 24181 76692 31556 73605 10246 20192 30182 40201 50002 70544 875// 91745 333 10251 20222 30/// 562// 59001 87623
AAXX 24181 76695 32460 60902 10288 20231 30172 40178 57011 84201 91748 333 10290 20212 31/// 565/0 59016 84819 82078
AAXX 24181 76698 32560 40402 10292 20240 30175 40186 57013 84200 91750 333 10306 20199 30/// 56100 58014 84820
AAXX 24181 76737 31480 51601 10207 20157 38812 40198 58001 70322 82230 91735 333 10210 20148 30/// 56220 59001 82813 83358 91104 91514
AAXX 24181 76743 31457 60501 10281 20253 30165 40173 57010 70211 86200 91745 333 10307 20235 30/// 56100 58008 86811
AAXX 24181 76750 32560 50703 10302 20225 30171 40181 57011 83107 91745 333 10339 20218 30/// 56206 58013 83820
AAXX 24181 76773 31568 12101 10236 20150 38442 40172 57011 70544 81100 91748 333 10238 20060 30/// 56900 58003 81820
AAXX 24181 76805 32970 01001 10311 20222 30131 40134 53010 91735 333 10317 20210 30/// 58008
AAXX 24181 76833 32970 03610 10326 20101 30130 40132 57007 91745 333 10326 20262 30/// 58003 92002
AAXX 24181 76840 32550 20304 10320 20248 30077 40132 57010 82200 91740 333 10327 20182 30/// 56800 58005 82827
AAXX 24181 76845 32460 70501 10162 20132 37974 40187 58003 87700 91743 333 10172 20112 30/// 56200 58011 87712
AAXX 24181 76848 32670 40503 10215 20126 38406 40120 56007 83140 91750 333 10222 20144 30/// 56190 58011 83837 81360
AAXX 24181 76243 11371 83106 10064 20052 39992 40300 52007 60011 70255 887// 91735 333 10070 20042 31/// 561// 58005 88708
AAXX 24181 76311 32980 00000 10158 20030 39893 40185 56011 91755 333 10160 20007 30/// 59012
AAXX 24181 76405 32980 03509 10190 20083 30193 40215 52008 91750 333 10190 20150 30/// 59004
AAXX 24181 76412 31966 02401 10156 21009 30134 40180 52000 70544 91750 333 10160 20048 30/// 58008
AAXX 24181 76640 31358 80403 10206 20187 30223 40235 57001 70222 8472/ 91740 333 10218 20176 30/// 5679/ 59005 84708 84440
AAXX 24181 76656 32975 31601 10245 20046 38523 40188 58006 80008 91750 333 10252 20056 30/// 56005 59003 83280
AAXX 24181 76741 01250 83207 10232 20218 30141 40160 52003 60031 76062 86220 91735 333 10240 20198 32/// 567// 58007 60027 84805 82706 82457
AAXX 24181 76855 32980 02102 10310 20227 30072 40122 50002 91745 333 10320 20208 30/// 59005 92000
BBXX CG2350 24184 99433 70798 46/// /0803 11005 21077 40307 58017 7//// 8//// 22200 0//// 2////
BBXX CGUM 24184 99456 70604 46/// /3418 11052 21093 40214 53006 7//// 8//// 22213 0//// 2////
BBXX CGDR 24184 99484 71234 46/// /0602 10080 20080 40299 51007 7//// 8//// 22200 0//// 2////
BBXX CG2958 24184 99543 71303 46/// /1705 10082 20049 40119 56032 7//// 8//// 22200 0//// 2////
BBXX CG2960 24184 99426 70825 46/// /2603 10018 21022 40281 58017 7//// 8//// 22211 00052 2////
BBXX VXKF 24184 99467 70599 46/// /3229 11077 21125 40195 55001 7//// 8//// 22254 0//// 2////
BBXX VCBW 24184 99483 70694 46/// /2308 11148 21209 40327 58001 7//// 8//// 22253 00021 2////
BBXX 3FZK3 24184 99456 71228 46/// /1202 10048 20015 40332 53001 7//// 8//// 22200 0//// 2////
BBXX CGTF 24184 99476 70527 46/// /2104 11064 21100 40144 53011 7//// 8//// 22200 0//// 2////
BBXX VCSZ 24184 99476 70596 46/// /3123 11083 21112 40187 51015 7//// 8//// 22274 0//// 2////
BBXX VOKF 24184 99490 70669 46/// /2414 11138 21183 40307 58005 7//// 8//// 22200 0//// 2////
BBXX CGDX 24184 99468 70712 46/// /1907 11133 21171 40351 50003 7//// 8//// 22200 0//// 2////
BBXX CGSB 24184 99512 70586 46/// /3114 11190 21251 40179 56005 7//// 8//// 22261 00039 2////
BBXX CZ9742 24184 99506 70969 46/// /1704 11064 21090 40108 56011 7//// 8//// 22200 0//// 2////
BBXX C6SI6 24184 99332 11343 46/// /3114 10058 21057 40175 56012 7//// 8//// 22213 0//// 2////
BBXX VOLG 24184 99446 70636 46/// /0212 11039 21086 40239 51006 7//// 8//// 22200 0//// 2////
BBXX CGHL 24184 99476 70527 46/// /2901 11054 21102 40144 53012 7//// 8//// 22200 0//// 2////
BBXX CG2965 24184 99487 71235 46/// /1309 10078 20068 40299 53008 7//// 8//// 22200 0//// 2////
BBXX CGBN 24184 99447 70636 46/// /3415 11046 21076 40240 51004 7//// 8//// 22200 0//// 2////
BBXX CGDG 24184 99447 70636 46/// /3410 11048 20002 40241 51004 7//// 8//// 22200 0//// 2////
BBXX CGBR 24184 99518 71279 46/// /1703 10084 20083 40186 55002 7//// 8//// 22211 00073 2////
AAXX 24184 81401 06/// /0707 10299 20218 30101 40107 60021 333 69927 58017 555 60005
AAXX 24184 81408 06/// /0603 10286 20244 30095 40103 69981 333 69987 58015 555 60005
BBXX VCWL 24184 99468 70712 46/// /2102 11138 21173 40352 50002 7//// 8//// 22200 0//// 2////
BBXX CGDT 24184 99468 70712 46/// /2004 11115 21153 40352 50002 7//// 8//// 22200 0//// 2////
BBXX CGBY 24184 99487 71235 46/// /1308 10081 20071 40297 51008 7//// 8//// 22200 0//// 2////
BBXX VRYO3 24184 99519 70509 46/// /0917 11082 21078 40058 51024 7//// 8//// 22264 00026 2////
BBXX VCLM 24184 99468 70712 46/// /2504 11124 21169 40347 50003 7//// 8//// 22200 0//// 2////
BBXX VOPP 24184 99456 70735 46/// /3502 11146 21186 4//// 5//// 7//// 8//// 22200 0//// 2////
AAXX 24184 78905 11476 70812 10273 20201 30136 40159 69971 70381 87860 333 10291 20240 58005 70010 87817 90936
AAXX 24184 78762 32670 40913 10260 20170 39099 40108 57012 81601 333 1026420194 30/// 563/0 58007 81645 83075
AAXX 24184 78982 01480 50920 10286 20235 30121 40126 57025 69921 70381 84231 333 58008 69927 84818
AAXX 24181 89061 179// 01502 10003 21004 39809 49816 57004 60043 77177 333 91002 91102
BBXX VCBW 24184 99483 70694 46/// /2308 11148 21209 40327 58001 7//// 8//// 22253 00021 2////
BBXX CGHL 24184 99476 70527 46/// /2901 11054 21102 40144 53012 7//// 8//// 22200 0//// 2////
BBXX CGSB 24184 99512 70586 46/// /3114 11190 21251 40179 56005 7//// 8//// 22261 00039 2////
BBXX CGDR 24184 99484 71234 46/// /0602 10080 20080 40299 51007 7//// 8//// 22200 0//// 2////
AAXX 24184 81401 06/// /0707 10299 20218 30101 40107 60021 333 69927 58017 555 60005
AAXX 24184 81408 06/// /0603 10286 20244 30095 40103 69981 333 69987 58015 555 60005
BBXX VXKF 24184 99467 70599 46/// /3229 11077 21125 40195 55001 7//// 8//// 22254 0//// 2////
BBXX CGTF 24184 99476 70527 46/// /2104 11064 21100 40144 53011 7//// 8//// 22200 0//// 2////
BBXX CGDX 24184 99468 70712 46/// /1907 11133 21171 40351 50003 7//// 8//// 22200 0//// 2////
BBXX 3FZK3 24184 99456 71228 46/// /1202 10048 20015 40332 53001 7//// 8//// 22200 0//// 2////
BBXX CGDT 24184 99468 70712 46/// /2004 11115 21153 40352 50002 7//// 8//// 22200 0//// 2////
BBXX CGBN 24184 99447 70636 46/// /3415 11046 21076 40240 51004 7//// 8//// 22200 0//// 2////
BBXX CG2958 24184 99543 71303 46/// /1705 10082 20049 40119 56032 7//// 8//// 22200 0//// 2////
BBXX VCSZ 24184 99476 70596 46/// /3123 11083 21112 40187 51015 7//// 8//// 22274 0//// 2////
BBXX C6SI6 24184 99332 11343 46/// /3114 10058 21057 40175 56012 7//// 8//// 22213 0//// 2////
BBXX CGDG 24184 99447 70636 46/// /3410 11048 20002 40241 51004 7//// 8//// 22200 0//// 2////
BBXX VOLG 24184 99446 70636 46/// /0212 11039 21086 40239 51006 7//// 8//// 22200 0//// 2////
BBXX VOKF 24184 99490 70669 46/// /2414 11138 21183 40307 58005 7//// 8//// 22200 0//// 2////
BBXX VCLM 24184 99468 70712 46/// /2504 11124 21169 40347 50003 7//// 8//// 22200 0//// 2////
BBXX CG2965 24184 99487 71235 46/// /1309 10078 20068 40299 53008 7//// 8//// 22200 0//// 2////
BBXX CG2960 24184 99426 70825 46/// /2603 10018 21022 40281 58017 7//// 8//// 22211 00052 2////
BBXX VCWL 24184 99468 70712 46/// /2102 11138 21173 40352 50002 7//// 8//// 22200 0//// 2////
BBXX CGBY 24184 99487 71235 46/// /1308 10081 20071 40297 51008 7//// 8//// 22200 0//// 2////
BBXX CGBR 24184 99518 71279 46/// /1703 10084 20083 40186 55002 7//// 8//// 22211 00073 2////
BBXX CZ9742 24184 99506 70969 46/// /1704 11064 21090 40108 56011 7//// 8//// 22200 0//// 2////
BBXX VRYO3 24184 99519 70509 46/// /0917 11082 21078 40058 51024 7//// 8//// 22264 00026 2////
BBXX VOPP 24184 99456 70735 46/// /3502 11146 21186 4//// 5//// 7//// 8//// 22200 0//// 2////
BBXX 44172 24181 99445 70634 46/// ///// 1//// 91801 22200 00063 11104 20903 320// 41102 70018
BBXX 44097 24181 99410 70711 46/// ///// 1//// 91802 22200 00118 11003 21002 321// 41101 70013
AAXX 24181 89061 179// 01502 10003 21004 39809 49816 57004 60043 77177 333 91002 91102
AAXX 24184 78905 11476 70812 10273 20201 30136 40159 69971 70381 87860 333 10291 20240 58005 70010 87817 90936
AAXX 24184 78905 11476 70812 10273 20201 30136 40159 69971 70381 87860 333 10291 20240 58005 70010 87817 90936
AAXX 24184 78762 32670 40913 10260 20170 39099 40108 57012 81601 333 1026420194 30/// 563/0 58007 81645 83075
AAXX 24181 01010 11430 81807 10003 21024 39851 49867 58012 60012 78582 889// 333 10047 91123
AAXX 24184 78762 32670 40913 10260 20170 39099 40108 57012 81601 333 1026420194 30/// 563/0 58007 81645 83075
AAXX 24181 01218 11682 81707 10084 21036 39931 49952 58059 60002 70282 882// 333 10084 91118
AAXX 24181 01359 11589 52405 11008 21050 39129 40045 58028 60002 70282 85200 333 11003 91113
AAXX 24181 01062 11317 82208 10008 20001 39657 49669 53022 69921 78584 883// 333 10014 91114
AAXX 24181 01492 11885 30401 11037 21048 39975 40097 58005 60002 70300 81078 333 10003 91102
BBXX VAAZ 24184 99/// ///// 46/// /3123 11062 21127 40063 53001 7//// 8//// 22200 0//// 2////
BBXX VOKJ 24184 99464 70724 46/// /3205 11162 21213 40348 58002 7//// 8//// 22213 0//// 2////
BBXX VOFG 24184 99456 70614 46/// /3410 11049 21091 40222 55000 7//// 8//// 22200 0//// 2////
BBXX CGJK 24184 99484 71234 46/// /0704 10075 20069 40297 51007 7//// 8//// 22200 0//// 2////
BBXX VAAP 24184 99489 70580 46/// /2818 11105 21157 40182 55001 7//// 8//// 22200 0//// 2////
BBXX CGCC 24184 99463 70725 46/// /3602 11147 21208 40351 58002 7//// 8//// 22200 0//// 2////
AAXX 24181 11423 NIL
AAXX 24181 11487 01575 72907 10028 20003 39621 40258 52048 69972 78082 873// 333 10058 69905 82920 83820 87640 91119
AAXX 24181 11518 01575 82807 10034 21002 39792 40241 52047 69902 76186 885// 333 10066 69905 84621 87643 91115
AAXX 24181 11603 NIL
AAXX 24181 11659 01460 83008 10013 20013 39565 40220 52032 69932 76886 887// 333 10051 41998 69915 88712 91113
AAXX 24181 11723 01582 72606 10038 20008 39909 40213 52024 60012 76064 87500 333 10038 69905 85625 87650
AAXX 24181 11782 02662 72206 10034 20015 39881 40192 52021 69902 8257/ 333 10035 60005 82646 87365
AAXX 24184 16008 12662 63508 11020 21098 38572 48527 52021 60002 86500 333 10004 43016 86635 92820
AAXX 24184 16084 11940 10000 10010 20010 30052 40226 52030 69902 71011 81030 333 10032 81365
AAXX 24184 16088 11850 53403 10013 20013 30106 40228 52031 60002 71022 85030 333 10040 85357
AAXX 24184 16110 11998 80811 10090 20021 30193 40197 53016 69902 70262 8802/ 333 10094 88459 555 0////
AAXX 24184 16134 11/00 93332 11040 21040 37780 48470 51011 60112 77374 333 10004 44017 89/00 92805 93110 96049
AAXX 24184 16153 12999 03643 10114 21161 39910 40175 52021 60002 333 10156 555 0////
AAXX 24184 16158 12660 41010 10052 20045 30168 40176 52037 60022 81430 333 10088 81640 83358
AAXX 24184 16206 11557 70115 10072 20047 30138 40147 53036 60112 76262 87800 333 10116 81820 87635
AAXX 24184 16219 41/00 90806 11008 21011 38067 48456 56007 6///2 77174 333 10000 47009 89/00
AAXX 24184 16252 12565 50000 10052 20013 39207 42769 56004 60002 83540 333 10102 83620 83359
AAXX 24184 16280 11497 82911 10100 20084 39914 40137 56005 60062 76061 885// 333 10144 88615 555 0////
AAXX 24184 16310 12598 61512 10120 20087 39931 40152 55010 60002 83230 333 10150 83625 83357 555 0////
AAXX 24184 16320 12460 11610 10086 20072 30151 40164 55001 60002 81500 333 10132 81615 555 0////
AAXX 24184 16325 12998 01511 10134 20098 30139 40153 53004 60002 333 10148 98080 555 0////
AAXX 24184 16360 12998 03402 10110 20053 30020 40155 55000 60002 333 10130 555 0////
AAXX 24184 16400 12498 42620 10138 20111 39870 40158 56008 60002 84100 333 10162 55300 84817 555 0545/
AAXX 24184 16420 12598 12501 10120 20077 30108 40173 57005 60002 81500 333 10166 81630 555 0////
AAXX 24184 16429 12565 32712 10138 20084 30171 40182 56004 60002 83500 333 10170 83625
AAXX 24184 16470 11560 12920 10140 20114 39970 40206 54000 69902 70262 81100 333 10154 55300 22/// 81823 95000
AAXX 24184 16480 12997 02805 10124 20121 30107 40169 57003 60002 333 10168 555 0////
AAXX 24184 16522 12597 33523 10112 20079 39945 40191 53003 60002 83200 333 10138 55300 83825 555 0////
AAXX 24184 16539 NIL
AAXX 24184 16550 12698 42934 10108 20021 39960 40140 55010 60002 84000 333 10174 84840 555 0////
BBXX 46232 24181 99325 71174 46/// ///// 1//// 91738 22200 00148 11803 21001 328// 41802 70014
BBXX 46247 24181 99378 71228 46/// ///// 1//// 91751 22200 00118 11405 21002 329// 41405 70027
BBXX 46243 24181 99462 71241 46/// ///// 1//// 91759 22200 00082 11407 21004 326// 41406 70033
BBXX 46236 24181 99368 71219 46/// ///// 1//// 91750 22200 00123 11506 20902 328// 41506 70029
BBXX 46225 24181 99329 71174 46/// ///// 1//// 91744 22200 00143 12002 21001 326// 42001 70008
BBXX 46213 24181 99403 71247 46/// ///// 1//// 91754 22200 00098 11507 21003 329// 41507 70036
BBXX 46215 24181 99352 71209 46/// ///// 1//// 91738 22200 00137 11704 21001 325// 41704 70022
AAXX 24184 16021 11560 63310 11040 21119 37986 48511 52022 69902 70272 86200 333 10010 43020 86825 92842 93197
AAXX 24184 16022 11888 23628 11050 21124 37847 48497 52026 60002 73622 82030 333 11022 43013 82357 92832
AAXX 24184 16033 12662 60000 11014 21051 38822 48521 52022 60002 86500 333 10016 47022 86640 92802
AAXX 24184 16040 11957 80000 11014 21017 39299 42820 52025 60002 71022 8802/ 333 11010 42001 88459 92840
AAXX 24184 16052 11/01 90635 11180 21206 36582 47026 53040 60002 74544 333 11122 49999 89/01
AAXX 24184 16061 12984 03306 10070 21090 39384 42828 52035 60002 333 10090
AAXX 24184 16098 11956 73204 10038 20015 30152 40205 52019 69922 71062 87070 333 10062 87360
AAXX 24184 16138 11411 82803 10014 21001 30200 40212 52018 60042 72864 882// 333 10024 88812
AAXX 24184 16148 11425 82910 10027 20014 30199 40212 52031 60102 76362 888// 333 10042 83810 85615
AAXX 24184 16168 11/00 93028 10056 20056 39357 42725 53001 60102 76142 333 10106 89/00
AAXX 24184 16172 11530 80306 10044 20026 39880 40186 52030 60062 76162 888// 333 10070 84823 84630
AAXX 24184 16179 11/02 92213 10004 20004 39499 42786 52030 60122 77174 333 10078 47002 89/01 92800 93102
AAXX 24184 16224 11462 81207 10094 20085 39790 40108 55006 60032 79198 889// 333 10120 85812 81915 83630
AAXX 24184 16232 12898 40715 10118 20097 30086 40139 53010 60002 84070 333 10140 83358 555 0////
AAXX 24184 16245 11462 42613 10116 20092 30102 40128 56006 69942 70162 83850 333 10138 82818 83358
AAXX 24184 16253 11560 70905 10102 20090 30126 40138 57018 69902 76061 81110 333 10154 81830 86457
AAXX 24184 16258 12980 11304 10060 21001 39153 42761 53000 60002 81040 333 10086 81359
AAXX 24184 16263 12470 32510 10048 20032 38892 48458 51002 60002 83500 333 10064 41001 83610 92841
AAXX 24184 16294 NIL
AAXX 24184 16337 NIL
AAXX 24184 16344 11/00 92804 10002 20002 38288 48474 57002 60002 74741 333 10020 43040 89/00 95090 95190
AAXX 24184 16434 11058 82515 10056 20038 38982 48483 55007 60002 71041 882// 333 10090 84801 85803 95070 95100
AAXX 24184 16450 12160 32705 10078 20078 39071 48535 56009 60002 83600 333 10100 83703
AAXX 24184 16459 12960 02904 10098 20086 30136 40172 56004 60002 333 10182
AAXX 24184 16546 11356 83120 10110 20042 30171 40199 52006 60002 71011 8623/ 333 10152 82706 85633
AAXX 24184 16564 12597 73027 10116 20048 30048 40190 51012 60002 85230 333 10156 85820 83357 555 0////
AAXX 24184 16045 NIL
AAXX 24184 16090 11713 52804 10036 20033 30131 40217 52022 60012 71042 82530 333 10052 82650 83362
AAXX 24184 16149 11518 82711 10020 20005 30184 40201 52025 60082 76166 888// 333 10059 84820 85630
AAXX 24184 16261 NIL
AAXX 24184 16453 12897 43109 10146 20112 30109 40187 56005 60002 84030 333 10162 55300 84357 555 0316/
AAXX 24184 16560 NIL
BBXX 46218 24181 99345 71208 46/// ///// 1//// 91802 22200 00135 11506 21002 330// 41506 70032
AAXX 24184 13600 12970 20000 10025 21002 30129 40183 53001 60002 80002 333 10085
AAXX 24184 13610 12960 00000 10020 21033 39771 40207 54002 60002 333 10035
AAXX 24184 13611 12660 53604 10090 20038 30046 40137 53003 60002 81530 333 10142 81633 84360
AAXX 24184 13619 12965 00000 11014 21045 39427 42807 52017 60002 333 10022
AAXX 24184 13622 12965 00000 10052 20008 30154 40162 54001 60002 333 10120
AAXX 24184 13624 12965 41404 10040 20014 30124 40164 51002 60002 84030 333 10140 84360
AAXX 24184 13625 12960 00000 10015 21019 39953 40193 53003 60002 333 10090
AAXX 24184 13629 12962 13202 11038 21038 39113 42771 52008 60002 80007 333 11020
AAXX 24184 13601 NIL
AAXX 24184 13602 NIL
AAXX 24184 13623 12960 00404 10030 21059 30192 40198 52012 60002 333 10070
BBXX BATFR56 24184 99101 30726 44598 31112 10275 20274 40102 56015 76000 83805 22213 00299 20606 31308 40606 50602
BBXX DBLK 24181 99683 30001 41397 70710 11024 21038 49752 57028 77172 8387/ 22281 05012 ICE 56195
AAXX 24184 89578 46/// /0507 11328 36814 4//// 5////
AAXX 24184 60060 32956 00404 10162 20109 40245 55006 333 10188
AAXX 24184 60105 32556 13206 10139 20108 40263 57005 81500 333 10162 81620
AAXX 24184 60141 11102 82504 10088 20079 39592 40271 53007 74444 886// 333 10163 88702
AAXX 24184 60265 32970 00000 10175 21044 38948 48577 55003 333 10206
AAXX 24184 60106 NIL
AAXX 24184 60107 NIL
AAXX 24184 60127 NIL
AAXX 24184 60185 NIL
AAXX 24184 60190 NIL
AAXX 24184 60191 NIL
AAXX 24184 60195 NIL
AAXX 24184 60210 NIL
AAXX 24184 60220 NIL
AAXX 24184 60318 NIL
AAXX 24184 60285 32960 03610 10160 20123 40236 56005 333 10196
AAXX 24184 60340 NIL
AAXX 24184 60096 32960 53616 10177 20126 40217 55002 80002 333 10195 85070
AAXX 24184 60101 NIL
AAXX 24184 60115 NIL
AAXX 24184 60135 NIL
AAXX 24184 60150 NIL
AAXX 24184 60155 NIL
AAXX 24184 60156 NIL
AAXX 24184 60230 NIL
AAXX 24184 60252 NIL
BBXX 46219 24181 99332 71199 46/// ///// 1//// 91758 22200 00136 11806 21002 330// 41806 70030
BBXX 46224 24181 99332 71175 46/// ///// 1//// 91736 22200 00142 11501 20501 319// 41501 70007
BBXX 46214 24181 99379 71235 46/// ///// 1//// 91753 22200 00121 11407 21002 330// 41407 70036
BBXX 44100 24181 99363 70756 46/// ///// 1//// 91752 22200 00126 10702 20702 70010
BBXX 41110 24181 99341 70777 46/// ///// 1//// 91751 22200 00141 10502 20502 70010
BBXX 42099 24181 99273 70842 46/// ///// 1//// 91757 22200 00234 10502 20502 70008
BBXX 41113 24181 99284 70805 46/// ///// 1//// 91751 22200 00225 11001 21001 70006
AAXX 24181 11603 01250 83009 10011 20000 39724 40219 52046 60042 76887 887// 333 10056 43001 69975 88705 91014 91113 93708
BBXX 44099 24181 99369 70757 46/// ///// 1//// 91752 22200 00120 10702 20702 70009
AAXX 24184 78862 11478 30514 10272 20211 30140 40163 60001 70500 83800 333 10279 20235 58001 82820
AAXX 24184 TAF TQPF 241600Z 2418/2518 06014KT 9999 SCT022 PROB40 TEMPO 2502/2512 07016G26KT SHRA
AAXX 24184 TAF TRPG 241600Z 2418/2518 06017KT 9999 SCT022 PROB40 TEMPO 2502/2512 07019G29KT SHRA
AAXX 24184 TAF TUPJ 241600Z 2418/2518 07012KT 9999 SCT022 PROB30 TEMPO 2502/2512 07015G25KT SHRA
AAXX 24184 G28KT SHRA PROB30 TEMPO 2412/2424 07016G26KT SHRA
AAXX 24184 TAF TUPJ 232200Z 2400/2424 07016KT 9999 SCT020 SCT040 PROB40 TEMPO 2400/2412 07018G28KT SHRA TEMPO 2412/2424 07016G26KT SHRA
AAXX 24184 TAF TUPJ 041000Z 04012/0512 07008KT 9999 SCT016 BKN038 SCT270 TEMPO 0412/0512 SHRA BKN015 PROB40 TEMPO 0418/0512 5000 SHRA BKN014 BKN036 PROB30 0420/0512 4000 TSRA FEW012CB
AAXX 24184 918 4000 TSRA FEW012CB
AAXX 24184 N015 BKN036 PROB40 TEMPO 0704/0724 3000 +TSRA SCT011CB BKN012 BECMG 0712/0714 14008KT
AAXX 24184 21/2712 07017G28KT 5000 SHRA BKN015 BKN036 PROB TEMPO 2700/2712 4000 TSRA FEW013CB
AAXX 24184 PROB30 TEMPO 0800/0806 4000 TSRA FEW012CB PROB40 TEMPO 0800/0824 2000 +SHRA/TSRA SCT010CB BKN012 BKN250
BBXX 51204 24181 99213 71581 46/// ///// 1//// 91752 22200 00245 10802 20802 315// 41301 70012
BBXX 52200 24181 99134 11448 46/// ///// 1//// 91745 22200 00287 11105 21004 310// 41102 70023
BBXX 51202 24181 99214 71577 46/// ///// 1//// 91739 22200 00242 10806 20805 300// 41302 70028
AAXX 24184 17600 11560 62816 10159 20098 30093 40102 51007 60022 71782 86900 333 10170 20135 81925 83830 85650 97036
AAXX 24184 17601 12670 32614 10153 20082 30068 40099 52005 60072 83800 91750 333 10168 81830 83636
AAXX 24184 17607 NIL
AAXX 24184 17609 11670 12804 10122 20081 30097 40101 51009 60042 71311 81880 333 10163 20115 81835 97011 97013
BBXX 51205 24181 99210 71564 46/// ///// 1//// 91748 22200 00236 11005 21005 301// 41102 70027
BBXX 46238 24181 99334 71195 46/// ///// 1//// 91750 22200 00140 11704 21001 329// 41704 70020
BBXX 46239 24181 99363 71221 46/// ///// 1//// 91751 22200 00132 11707 21002 329// 41707 70035
AAXX 24184 48601 11559 70306 10268 20219 30082 40086 60001 70522 81532 333 81625 83364 87077
AAXX 24184 48615 11558 71009 10249 20225 30106 40112 69961 76062 83532 333 83620 83364 87074
AAXX 24184 48620 11560 70901 10256 20248 30082 40091 60001 71022 82548 333 82632 83365 87276
AAXX 24184 48647 11357 73103 10259 20247 30068 40093 60001 71322 83952 333 81707 81917 86364
AAXX 24184 48657 11256 83507 10237 20232 30086 40104 60011 76166 84558 333 82705 84624 88275
AAXX 24184 48665 11458 80306 10242 20231 30089 40099 60041 76162 84578 333 81710 83628 87276
AAXX 24184 96413 11530 70603 10245 20242 30059 40086 60291 76262 8457/ 333 84620 87365
AAXX 24184 96421 11468 71201 10241 20233 30042 40078 69901 70262 8357/ 333 83618 87365
AAXX 24184 96441 12468 71201 10240 20233 30044 40071 60001 83531 333 83616 85365
AAXX 24184 96449 12468 71502 10242 20241 30051 40070 60001 83571 333 83614 85365
AAXX 24184 96465 12470 70000 10254 20245 30036 40069 60001 82848 333 82812 87279
AAXX 24184 96471 11468 71105 10243 20223 30066 40069 60001 70222 82848 333 81814 83364 87278
AAXX 24184 96481 12462 70000 10245 20228 30049 40068 60001 8387/ 333 82817 86364
AAXX 24184 96491 11359 72804 10238 20231 30055 40067 60021 76066 83747 333 81707 83635 87276
BBXX DBND 24185 99536/10486 46/// /2504 10044 20030 40238 52015 22250/0046/
BBXX DBBI 24181 99535 10100 46/// /2604 10048 20044 40232 52029 22200 00038
AAXX 24184 71805 01580 73118 11056 21087 30158 40167 53009 69902 72611 875// 333 11005 21056 47008 60007 87620 90710 91130 93197 555 60005
AAXX 24183 78970 11458 71010 10303 20207 30104 40129 69901 71581 85872 333 02299 10323 20234 58014 83818 83645 90940
AAXX 24183 78962 11458 50611 10285 20219 30128 40136 60011 71581 83432 333 02299 10303 20229 58013 83816 90915
BBXX DBCK 24181 99/// ///// 46/// ///// 10051 20049 40239 52015 22220 00045
AAXX 24181 45007 12959 10508 10118 21052 30243 40253 50001 60001 80001 333 58011 81080
AAXX 24181 45007 12959 10508 10118 21052 30243 40253 50001 60001 80001 333 58011 81080
AAXX 24184 61968 16/// /0000 10285 20239 40114 60002 333 10318 59014 90710 91108 555 60005
AAXX 24184 61980 11560 71306 10248 20230 40161 60062 71562 878// 333 10301 59004 82820 83830 86650 90710 91112 924/7 555 69905
AAXX 24184 67005 14/// /2206 10276 20234 40113 69902 700// 333 10311 59012 90710 91108 555 69905
BBXX 62087 24181 99547 10068 46/// /9901 10080 20053 4//// 5//// 22230 00080
BBXX 61001 24184 99434 10078 46/// /0223 10157 21007 40192 52026 22200 00146 10604 70021 555 1/032
AAXX 24184 60645 36/// /0000 10185 20016 333 10222
AAXX 24181 45032 36/// /1501 10063 21008 30238 40255 57001
AAXX 24181 45035 36/// /0605 10098 21045 30212 40256 54000
AAXX 24181 45039 36/// /0404 10112 21038 30233 40248 57003
AAXX 24181 45044 36/// /0106 10098 21011 30148 40245 57001
AAXX 24181 45032 36/// /1501 10063 21008 30238 40255 57001
AAXX 24181 45035 36/// /0605 10098 21045 30212 40256 54000
AAXX 24181 45039 36/// /0404 10112 21038 30233 40248 57003
AAXX 24181 45044 36/// /0106 10098 21011 30148 40245 57001
AAXX 24184 48601 11559 70306 10268 20219 30082 40086 60001 70522 81532 333 81625 83364 87077
AAXX 24184 48615 11558 71009 10249 20225 30106 40112 69961 76062 83532 333 83620 83364 87074
AAXX 24184 48620 11560 70901 10256 20248 30082 40091 60001 71022 82548 333 82632 83365 87276
AAXX 24184 48647 11357 73103 10259 20247 30068 40093 60001 71322 83952 333 81707 81917 86364
AAXX 24184 48650 11462 70409 10259 20231 30074 40093 69901 71362 82978 333 81917 86364
AAXX 24184 48657 11256 83507 10237 20232 30086 40104 60011 76166 84558 333 82705 84624 88275
AAXX 24184 48665 11458 80306 10242 20231 30089 40099 60041 76162 84578 333 81710 83628 87276
AAXX 24184 96413 11530 70603 10245 20242 30059 40086 60291 76262 8457/ 333 84620 87365
AAXX 24184 96421 11468 71201 10241 20233 30042 40078 69901 70262 8357/ 333 83618 87365
AAXX 24184 96441 12468 71201 10240 20233 30044 40071 60001 83531 333 83616 85365
AAXX 24184 96449 12468 71502 10242 20241 30051 40070 60001 83571 333 83614 85365
AAXX 24184 96465 12470 70000 10254 20245 30036 40069 60001 82848 333 82812 87279
AAXX 24184 96471 11468 71105 10243 20223 30066 40069 60001 70222 82848 333 81814 83364 87278
AAXX 24184 96481 12462 70000 10245 20228 30049 40068 60001 8387/ 333 82817 86364
AAXX 24184 96491 11359 72804 10238 20231 30055 40067 60021 76066 83747 333 81707 83635 87276
AAXX 24181 01078 11365 72509 10023 21005 39815 49828 51033 60012 70362 86720 333 10041 91123
AAXX 24181 01205 46/// /2020 10064 20039 39857 49902 56058 333 10082 91128
AAXX 24181 01098 11680 72503 10026 21003 39827 49845 53026 69902 70183 8255/ 333 10030 91116
AAXX 24181 06201 47463 62311 10075 20053 30146 40199 58015 70380 8//// 333 10076 81/13 86/59 91013 91113 91212
AAXX 24181 06203 45865 62513 10088 20048 30210 40262 57006 8//// 333 10088 84/57 86/60 91015 91115 91213
AAXX 24181 06204 45669 62512 10085 20049 30189 40240 58007 8//// 333 10085 82/46 86/56 91014 91115 91212
AAXX 24181 06205 45963 82215 10077 20048 30109 40169 58013 8//// 333 10077 88/59 91018 91118 91215
AAXX 24181 06208 45460 72406 10064 20044 30193 40243 50003 8//// 333 10078 81/15 85/21 86/26 91008 91113 91210
AAXX 24181 06211 479// 32313 10078 20048 30166 40222 56007 703// 8//// 333 10078 83/80 91016 91116 91213
AAXX 24181 06212 45471 82411 1//// 2//// 30186 40250 58004 8//// 333 1//// 81/17 88/57 91013 91113 91211
AAXX 24181 06235 15767 82307 10073 20049 30255 40255 58002 60002 8//// 333 10077 88/50 91009 91112 91208
AAXX 24181 06240 15865 82408 10069 20049 30275 40270 56002 60012 8//// 333 10077 88/57 91009 91112 91208
AAXX 24181 06251 15866 22507 10061 20045 30241 40242 57002 69912 8//// 333 10077 82/57 91009 91112 91208
AAXX 24181 06258 46/// /2308 333 91009 91111 91210
AAXX 24181 06269 15863 42205 10044 20033 30274 40268 53002 69912 8//// 333 10074 84/58 91007 91110 91206
AAXX 24181 06280 15966 82205 10043 20031 30248 40252 51004 69902 8//// 333 10077 88/62 91007 91111 91207
AAXX 24181 06310 15769 62208 10063 20040 30279 40289 58003 60002 8//// 333 10076 86/56 91010 91111 91209
AAXX 24181 06344 15565 82307 10069 20048 30285 40278 56002 60002 8//// 333 10079 82/22 88/57 91009 91109 91207
AAXX 24181 06370 15867 82306 10054 20035 30266 40292 52003 69922 8//// 333 10078 88/58 91008 91110 91206
AAXX 24181 06380 15968 52307 10044 20022 30168 40312 51010 69982 8//// 333 10060 81/64 85/69 91009 91109 91207
AAXX 24181 06206 46465 42312 10079 20042 30171 40224 58006 8//// 333 10083 81/13 84/61 91014 91114 91212
AAXX 24181 06207 45464 82411 10066 20031 30176 40231 58004 8//// 333 10066 81/16 83/45 88/50 91012 91112 91211
AAXX 24181 06239 45467 8//15 10079 20044 3//// 4//// 5//// 8//// 333 10080 83/14 85/17 87/61 91017 91117 91215
AAXX 24181 06252 46/// /2511 10084 20046 30193 40240 57007 222// 00098 10604 333 10086 91013 91114 91212
AAXX 24181 06260 15864 72305 10062 20042 30276 40278 53004 69922 8//// 333 10082 87/57 91007 91108 91205
AAXX 24181 06270 15463 32405 10051 20039 30247 40247 50001 69942 8//// 333 10072 81/18 83/62 91007 91110 91207
AAXX 24181 06290 15470 72104 10043 20020 30234 40275 52010 60002 8//// 333 10073 82/16 85/41 87/63 91007 91111 91207
AAXX 24184 91574 46/// ///// 29081 39958 49964 56019
AAXX 24184 91570 NIL
AAXX 24184 91598 NIL
AAXX 24184 91573 06/// /3008 10252 20234 39923 40019 55005 69921 333 59013 69927
AAXX 24184 91577 06/// /0204 10246 20223 39996 40016 56002 69981 333 59008 69927
AAXX 24184 91579 06/// /3508 10256 20249 30018 40026 56006 69961 333 59024 69967
AAXX 24184 91582 04460 83603 10247 20242 30001 40035 55003 60652 700// 333 10260 20244 69907 90710 91112 555 69905
AAXX 24184 91583 06/// /3406 10257 20248 30002 40017 56007 60181 333 59035 60047
AAXX 24184 91587 06/// /0616 10247 20238 39993 40037 55004 60251 333 59023 60067
AAXX 24184 91590 04830 81701 10223 20216 39988 40030 53004 60492 763// 333 10231 20220 60047 90710 91103 555 60035
AAXX 24184 91592 06/// /1007 10234 20232 39948 40032 55002 60081 333 59024 60047
AAXX 24184 91596 06/// /0621 10232 20222 39924 40032 56009 60221 333 59038 60137
AAXX 24184 65338 32958 50000 10310 20207 39898 40083 80002 333 10360 59004 85076
AAXX 24184 89642 40/// /1707 11028 21115 39893 49947 55000
AAXX 24181 10544 01/02 92905 11012 21012 39178 48533 51030 60092 74174 333 10003 21012 3/101 48017 55300 69907 96473 96471
AAXX 24184 64550 32460 8//// 10270 20242 30/// 40/// 885// 333 10310 5//// 84611 88625
AAXX 24184 64551 32460 70000 10295 20249 30057 40086 879// 333 10314 59010 82811 81916 87633 94919 95839
BBXX DBBH 24181 99376 70010 41/98 /0202 10136 20093 40304 52011 7//// 22200 04162
AAXX 24181 03951 17556 /2411 10109 20088 30228 40254 55001 69942 71081 88/// 333 10110 88/23
AAXX 24181 03953 11360 82308 10106 20094 30210 40247 50002 69972 75062 886// 333 10111 82706 86710 87718 92436
AAXX 24181 03955 11368 82407 10089 20084 30044 40243 55004 60022 76065 886// 333 10091 87706 87715
AAXX 24181 03956 17358 /2409 10093 20080 30156 40234 55007 69962 72286 87/// 333 10095 87/07
AAXX 24181 03962 11466 82310 10096 20090 30196 40220 50000 60032 72165 886// 333 10101 83710 88713
AAXX 24181 03963 16/// /2414 10102 20094 30162 40190 52004 60022 333 10102 90710 91118
AAXX 24181 03966 17232 /2408 10091 20084 30119 40212 54000 60022 72286 88/// 333 10092 81/05 83/07 85/09
AAXX 24181 03967 11470 82311 10089 20075 30084 40198 55002 69942 76062 886// 333 10089 81713 87715 87622
AAXX 24181 03969 11470 72311 10089 20075 30092 40196 55001 69932 76065 875// 333 10093 81710 84625 86656
AAXX 24181 03973 11265 82511 10092 20090 39922 40176 52004 60052 75165 886// 333 10092 85703 87708 90710 91119
AAXX 24181 03976 11230 82309 10105 20103 30152 40164 51009 60022 75065 886// 333 10107 88704
AAXX 24181 03980 17229 /2512 10100 20096 30100 40125 52010 69992 78185 87/// 333 10104 86/05 87/38 90710 91118
AAXX 24181 33135 31993 00000 11091 21091 30036 40226 52001 74840 333 11037
AAXX 24181 33317 32997 01804 11082 21105 39866 40223 53002 333 11061
AAXX 24181 33345 32998 02402 11041 21083 30015 40230 52006 333 11013
AAXX 24181 33393 11443 81303 11020 21026 39791 40195 52004 69922 71072 885// 333 11016 88616
AAXX 24181 33506 11597 80201 11028 21062 30011 40215 52007 69902 70282 885// 333 11020
AAXX 24181 33587 NIL
AAXX 24181 33631 11395 81401 11007 21014 30080 40228 52008 60022 77177 8772/ 333 11001 87708
AAXX 24181 33663 32997 00000 11075 21097 30130 40232 53007 333 11020
AAXX 24181 33658 32997 21002 11092 21099 39912 40231 52006 82030 333 11034
AAXX 24181 33711 12597 73402 11063 21075 30000 40221 52008 69902 87500 333 11024 87620
AAXX 24181 33791 32697 80306 11024 21064 30049 40206 52011 885// 333 11017 88633
AAXX 24181 33837 11483 73102 11014 21054 30161 40215 52010 69901 70272 86450 333 11003 86714
AAXX 24181 33924 NIL
AAXX 24181 33946 11297 80104 11027 21034 39957 40186 53016 60022 77177 8772/ 333 11013 87704
AAXX 24181 34300 12597 80505 11025 21065 30014 40213 52005 69902 885// 333 11021
AAXX 24181 34504 12497 70407 11036 21061 30013 40199 52011 69902 87600 333 11020 87715
AAXX 24181 34519 11350 80306 11028 21044 39887 40171 52008 69962 77172 8672/ 333 11026 86709
AAXX 24181 34601 11346 70306 11035 21046 30051 40193 52012 69902 78582 87900 333 11019 85707
AAXX 24181 11423 01475 82805 11001 21002 39372 42853 52042 60022 77072 885// 333 10022 42008 69905 81710 87644 91120
AAXX 24184 43533 11459 70204 10267 20233 30095 40098 60001 70522 81208 333 59011 81818 87277
AAXX 24184 43555 12460 70506 10276 20241 30100 40103 60001 83208 333 59003 83818 87277
AAXX 24184 43577 12460 53603 10262 20237 30104 40106 60001 81202 333 59001 81818 85077
AAXX 24184 43588 11459 79901 10270 20257 30100 40102 60011 78082 8497/ 333 59010 83817 81918 87362
AAXX 24184 43599 12465 73203 10275 20251 30101 40103 60001 83268 333 59005 83817 87275
AAXX 24184 43533 11459 70204 10267 20233 30095 40098 60001 70522 81208 333 59011 81818 87277
AAXX 24184 43555 12460 70506 10276 20241 30100 40103 60001 83208 333 59003 83818 87277
AAXX 24184 43577 12460 53603 10262 20237 30104 40106 60001 81202 333 59001 81818 85077
AAXX 24184 43588 11459 79901 10270 20257 30100 40102 60011 78082 8497/ 333 59010 83817 81918 87362
AAXX 24184 43599 12465 73203 10275 20251 30101 40103 60001 83268 333 59005 83817 87275
AAXX 24184 89532 42980 03601 11020 21047 39735 49762 53002
AAXX 24184 78947 11580 61010 10270 20234 30145 40148 69901 72522 86800 333 02200 10287 20236 58009 70027 82824 86648 90910
AAXX 24184 78948 11580 50815 10288 20223 30140 40148 70311 84840 333 02226 10296 20251 58011 70015 82829
AAXX 24184 78858 12580 30618 10275 20226 30108 40164 60001 83200 333 10285 10231 58000 83821
AAXX 24183 78970 11458 71010 10303 20207 30104 40129 69901 71581 85872 333 02299 10323 20234 58014 83818 83645 90940
AAXX 24183 78962 11458 50611 10285 20219 30128 40136 60011 71581 83432 333 02299 10303 20229 58013 83816 90915
AAXX 24184 78397 111576 10803 10309 20199 30133 40149 60001 70500 81800 333 00200 10321 20227 58000 81824
AAXX 24184 DUPE
AAXX 24181 11010 11684 72608 10050 20005 39888 40274 52033 60012 70282 333 10082 82839 85656 87362 91117 91213
AAXX 24181 11012 17674 82507 10040 20009 39801 40280 51034 69922 7//4/ 8542/ 333 10074 20040 55300 91118
AAXX 24181 11022 12565 82710 10054 21011 39824 40215 52026 69902 885// 333 10085 20026 55300 88628 91118
AAXX 24181 11035 11580 72908 10067 20006 39963 40218 52026 69902 72582 8383/ 333 10097 20021 81827 86360 91118
AAXX 24181 11036 32684 72909 10068 20002 39997 40222 52025 333 10096 81833 83650 85364 91015 91122 91214
AAXX 24181 11101 11465 82601 10029 20005 39809 40354 52027 69912 75052 885// 333 10054 20027 88618
AAXX 24181 11120 01256 89901 10010 20002 39589 40319 52026 60022 76876 333 10017 69935 81705 83610 87622
AAXX 24181 11126 17/// /3505 11090 21091 37770 48551 52016 60032 7404/ 333 11046 21090 55300 91118
AAXX 24181 11130 17/// /3401 10013 20007 39712 40320 53026 60042 7218/ 333 10025 20011 55300
AAXX 24181 11146 11/00 90211 11141 21156 36916 47022 51014 60102 77174 333 11080 21141 55300 89/00 91124 92612
AAXX 24181 11150 01480 72904 10034 20001 39750 40304 52027 69972 78082 333 10060 69905 81810 83620 86656 91113 91208
AAXX 24181 11155 17/// /3210 11051 21056 38409 48536 53024 60042 7404/ 333 11011 21051 55300 91132
AAXX 24181 11157 11260 82605 10028 21021 39491 40277 52027 69912 78586 878// 333 10062 81705 85620 87642 91116 91209
AAXX 24181 11172 NIL
AAXX 24181 11190 12665 72910 10076 21027 39980 40215 53021 69902 866// 333 10083 20011 55300 91120
AAXX 24181 11204 16/// /1801 10052 21050 39447 40246 53028 60002 333 10060 21044 55300
AAXX 24181 11212 11/67 83610 11068 21097 37833 48516 52022 69912 73674 885// 333 10018 817// 87615 91116 444 26076
AAXX 24181 11231 31250 89901 11020 21020 39668 40262 52023 71022 333 11017 81704 83359 87462
AAXX 24181 11240 32760 79901 10018 20012 39784 40233 52021 333 10046 81656 86462
AAXX 24181 11244 16/// /2801 10010 21004 39899 40237 53021 60002 333 10042 21048 55300
AAXX 24181 11389 17550 82309 10053 20016 39920 40251 53035 69912 7214/ 885// 333 10084 20050 55300 91120
AAXX 24181 01210 41685 81912 10070 20005 39892 49918 57059 70222 82577 333 10072 91119
AAXX 24181 01092 46/// /2108 10021 21024 333 10039 91115
AAXX 24181 01199 11580 52203 11042 21062 39434 49900 53024 60002 70221 85400 333 10004 91110
AAXX 24181 01245 11670 62704 10012 21077 39278 49979 58041 60002 70320 86500 333 10014 91113
AAXX 24181 01262 46/// /1911 10052 21024 333 10055 91123
AAXX 24181 01278 11985 11001 10005 21059 39872 49975 58035 69912 70211 80002 333 10021
AAXX 24181 01329 11450 80406 10024 20012 39978 40040 58039 6//// 78082 888// 333 10029 91111
AAXX 24181 01337 16/// /2001 10006 21005 39965 40032 58041 69932 333 10006 91103
AAXX 24181 01393 16/// /0801 11138 21149 39233 40078 58020 6//// 333 11071 91105
AAXX 24181 01144 41786 81712 10029 20014 70362 8252/ 333 10054 91120
AAXX 24181 01436 11465 82213 10072 20047 69902 76086 8672/ 333 10074 91117
AAXX 24184 78397 111576 10803 10309 20199 30133 40149 60001 70500 81800 333 00200 10321 20227 58000 81824
AAXX 24184 DUPE
AAXX 24181 01015 46/// /2006 10014 21032 333 10054 91130
AAXX 24181 01167 11680 42105 10009 21023 39878 49883 58011 60052 70186 82870 333 10041 91111
AAXX 24181 01228 46/// /1708 10045 21021 39907 49914 58057 333 10059 91118
AAXX 24181 01340 16/// /2703 10005 21038 39173 40043 58031 69932 333 10007 91108
AAXX 24181 01425 16/// /3001 10034 20031 30020 40100 58027 60042 333 10035 91104
AAXX 24181 01450 16/// /2312 11018 21046 38913 40062 58025 60002 333 11018 91117
AAXX 24181 01265 16/// /2301 11181 21199 39446 40070 58028 60002 333 11181 91102
AAXX 24181 01273 16/// /1702 10002 21080 39788 49984 58038 60002 333 10013 91106
AAXX 24181 01375 16/// /1808 11064 21083 6//// 333 11055 91111
AAXX 24181 01440 46/// /2209 11023 21025 38784 40074 56025 333 11023 91112
AAXX 24181 01469 16/// /1702 11049 21063 39911 40088 58013 60002 333 11036 91103
AAXX 24181 01277 16/// /1401 11005 21032 69982 333 10027 91107
AAXX 24181 01370 16/// /2004 11019 21062 38930 40108 58027 60002 333 11018 4/026 91110
AAXX 24181 01419 16/// /2107 10042 20030 60022 333 10042 91114
AAXX 24181 01476 16/// /2307 10044 20013 30103 40109 58008 6//// 333 10047 91109
AAXX 24181 06431 NIL
AAXX 24181 06432 NIL
AAXX 24181 06449 12870 52304 10043 20024 30086 40321 52005 60002 83032 333 10058 83357 85070 91108 91206
AAXX 24181 06450 15866 82304 10063 20030 30286 40302 52002 60022 333 10077 88/58 91110 91207
AAXX 24181 06458 NIL
AAXX 24181 06465 NIL
AAXX 24181 06478 12665 72205 10037 20017 30090 40317 52008 69952 865// 333 10057 83640 86656 91111 91206
AAXX 24181 06496 NIL
AAXX 24181 06400 32964 42004 10054 20037 30291 40302 56005 82031 333 10080 82359 83070 91110 91207
AAXX 24181 06428 NIL
AAXX 24181 06451 12865 72305 10057 20026 30241 40310 53004 69902 8703/ 333 10069 87358 91109 91207
AAXX 24181 06456 32970 62403 10026 20014 39949 40329 51008 83031 333 10047 83358 85071 91109 91206
AAXX 24181 06476 15364 82502 10007 21006 39646 40334 52010 60032 333 10017 88/08 91109 91206
AAXX 24181 06479 15966 /2204 10047 20027 30224 40306 52007 60012 333 10072 85/59 87/68 91108 91205
AAXX 24181 06490 17362 82503 10019 20006 39735 40324 51012 60052 70051 333 10024 84/08 86/09 88/11 91109 91205
AAXX 24181 06590 NIL
AAXX 24181 06407 12868 42104 10045 20027 30293 40299 57002 60002 82031 333 10072 82358 83072 91110 91208
AAXX 24181 06447 NIL
AAXX 24183 91802NIL
AAXX 24183 91809 NIL
AAXX 24183 91831 36/// /0309 10268 20221 40142 51004 555 2////
AAXX 24183 91841 36/// /0408 10276 20216 40132 52010 555 20040
AAXX 24183 91843 11498 50220 10268 20244 40123 52018 60041 70128 83201 333 568/9 83816 85079
AAXX 24183 91848 36/// /0408 10265 20228 40087 54000 555 20002
AAXX 24181 13585 42998 00000 11056 21071 39398 40233 52018 333 10004 94061 47007 92235
AAXX 24181 13597 42998 00000 11009 21057 30139 40214 52020 333 10052 94073
AAXX 24181 13598 42998 00000 11090 21103 48442 52022 333 11005 47015 94059
AAXX 24181 76040 32960 03002 10149 21022 30291 40306 52012 91750 333 10178 20039 30/// 59015 98660
AAXX 24181 76113 32980 01701 10128 21040 39771 40256 52003 91745 333 10135 20002 30/// 58003
AAXX 24181 76122 32568 63601 10002 21003 38623 40337 5//// 85710 91750 333 10002 21030 31/// 56880 59083 85821
AAXX 24181 76225 01560 60701 10012 21020 38704 40306 51010 69901 70175 86500 91745 333 10012 21022 30/// 56600 58079 69907 86625
AAXX 24181 76256 32980 00306 10152 20008 30232 40246 5//// 91745 333 10162 20052 30/// 59016
AAXX 24181 76258 32970 03618 10168 21003 30157 40203 57005 91750 333 10170 20062 30/// 56000 59021
AAXX 24181 76305 32970 13404 10180 21014 30218 40226 52008 81010 91740 333 10185 20110 30/// 56040 59013 81460
AAXX 24181 76323 32570 83602 10017 21037 38321 40353 50011 885// 91755 333 10020 21015 30/// 561// 58069 88623
AAXX 24181 76342 01460 80201 10062 20042 39592 40339 52010 60021 75052 887// 91750 333 10074 20035 31/// 561// 58017 60017 88710
AAXX 24181 76382 32680 53404 10094 20017 38970 40282 52001 85070 91750 333 10100 20036 30/// 56030 58055 85356
AAXX 24181 76390 31530 42102 10061 20042 38251 40249 52010 74044 81605 91730 333 10070 21004 30/// 56105 58008 81720 83070
AAXX 24181 76393 01408 83201 10084 20056 39665 40268 52003 69991 70422 887// 91752 333 10088 20054 31/// 569// 58005 69917 88712
AAXX 24181 76402 31959 13101 10180 20044 30157 40216 52002 70544 80005 91740 333 10182 20048 30/// 56006 59002
AAXX 24181 76423 32780 70000 10136 21017 38161 40181 57002 84534 91801 333 10172 20040 30/// 56099 58001 84357 83067
AAXX 24181 76458 32970 33004 10180 20097 30167 40172 50003 80001 91738 333 10200 20093 30/// 56//9 59001 83072
AAXX 24181 76471 32980 62104 10155 21012 37700 40143 54000 80006 91750 333 10160 20059 30/// 56005 58007 86075
AAXX 24181 76491 32560 73602 10134 20108 39856 40259 52002 875// 91750 333 10138 20100 30/// 569// 58001 87625
AAXX 24181 76525 31960 21914 10122 21015 37483 40165 52003 73833 80001 91745 333 10124 20072 30/// 56//5 58004 82080 91114
AAXX 24181 76543 32675 83604 10204 20119 30202 40235 58001 8357/ 91745 333 10204 20170 30/// 5633/ 59001 83644 85358
AAXX 24181 76548 32475 70504 10180 20145 30223 40233 50003 8247/ 91740 333 10194 20164 30/// 56840 58001 82614 85357
AAXX 24181 76556 32970 01402 10266 20119 39123 40157 52001 91733 333 10268 20114 30/// 59005
AAXX 24181 76577 32970 72304 10188 20137 38069 40202 50001 80003 91740 333 10196 20077 30/// 56005 58001 87080
AAXX 24181 76581 32975 01202 10220 20135 39082 40193 59001 91750 333 10225 20136 30/// 59001
AAXX 24181 76585 32680 50901 10195 20159 30051 40209 58004 83270 91730 333 10210 20157 30/// 5623/ 59009 83833
AAXX 24181 76593 32370 30503 10274 20255 30192 40194 58011 82204 91750 333 10280 20210 30/// 561/9 58016 82820 810// 91006 91505
AAXX 24181 76612 32962 10701 10221 20077 38491 40216 5//// 80001 91750 333 10228 20075 30/// 56006 59004 81072
AAXX 24181 76625 32960 00302 10223 20055 38158 40164 57017 91755 333 10227 20082 30/// 59007
AAXX 24181 76634 31670 23001 10224 20040 37872 40192 57006 70500 81101 91750 333 10226 20050 30/// 563/3 59001 81834
AAXX 24181 76644 32460 71104 10287 20198 30174 40187 57018 84206 91750 333 10296 20210 30/// 563/9 58015 84820
AAXX 24181 76647 32670 50902 10300 20214 30168 40198 58011 84230 91750 333 10304 20195 31/// 562/0 58010 84835 81358
AAXX 24181 76658 31958 20902 10290 20150 39646 40153 57010 70540 80002 91740 333 10295 20173 30/// 56001 58001 81070 98924
AAXX 24181 76662 32970 72101 10234 20115 38482 40187 57005 80007 91750 333 10245 20060 30/// 5600/ 58000 87070
AAXX 24181 76665 32962 02902 10236 20095 38142 40189 57009 91750 333 10270 20054 30/// 58001
AAXX 24181 76675 31975 21302 10182 21009 37399 40231 56004 70540 80004 91750 333 10190 21021 30/// 56//9 58003 98475
AAXX 24181 76681 31958 03602 10198 20061 37803 40198 57005 70500 91745 333 10198 20028 30/// 58///
AAXX 24181 76683 32670 10901 10202 20089 37850 40230 51011 81100 91745 333 10210 20040 30/// 56200 58000 81840
AAXX 24181 76685 32970 01501 10204 20032 37892 40181 57002 91750 333 10206 20074 30/// 58002
AAXX 24181 76687 31562 50701 10190 20148 38721 40214 57002 70111 85500 91737 333 10200 20135 30/// 563// 59001 85622
AAXX 24181 76692 31556 73605 10246 20192 30182 40201 50002 70544 875// 91745 333 10251 20222 30/// 562// 59001 87623
AAXX 24181 76695 32460 60902 10288 20231 30172 40178 57011 84201 91748 333 10290 20212 31/// 565/0 59016 84819 82078
AAXX 24181 76698 32560 40402 10292 20240 30175 40186 57013 84200 91750 333 10306 20199 30/// 56100 58014 84820
AAXX 24181 76737 31480 51601 10207 20157 38812 40198 58001 70322 82230 91735 333 10210 20148 30/// 56220 59001 82813 83358 91104 91514
AAXX 24181 76743 31457 60501 10281 20253 30165 40173 57010 70211 86200 91745 333 10307 20235 30/// 56100 58008 86811
AAXX 24181 76750 32560 50703 10302 20225 30171 40181 57011 83107 91745 333 10339 20218 30/// 56206 58013 83820
AAXX 24181 76773 31568 12101 10236 20150 38442 40172 57011 70544 81100 91748 333 10238 20060 30/// 56900 58003 81820
AAXX 24181 76805 32970 01001 10311 20222 30131 40134 53010 91735 333 10317 20210 30/// 58008
AAXX 24181 76833 32970 03610 10326 20101 30130 40132 57007 91745 333 10326 20262 30/// 58003 92002
AAXX 24181 76840 32550 20304 10320 20248 30077 40132 57010 82200 91740 333 10327 20182 30/// 56800 58005 82827
AAXX 24181 76845 32460 70501 10162 20132 37974 40187 58003 87700 91743 333 10172 20112 30/// 56200 58011 87712
AAXX 24181 76848 32670 40503 10215 20126 38406 40120 56007 83140 91750 333 10222 20144 30/// 56190 58011 83837 81360
AAXX 24181 76243 11371 83106 10064 20052 39992 40300 52007 60011 70255 887// 91735 333 10070 20042 31/// 561// 58005 88708
AAXX 24181 76311 32980 00000 10158 20030 39893 40185 56011 91755 333 10160 20007 30/// 59012
AAXX 24181 76405 32980 03509 10190 20083 30193 40215 52008 91750 333 10190 20150 30/// 59004
AAXX 24181 76412 31966 02401 10156 21009 30134 40180 52000 70544 91750 333 10160 20048 30/// 58008
AAXX 24181 76640 31358 80403 10206 20187 30223 40235 57001 70222 8472/ 91740 333 10218 20176 30/// 5679/ 59005 84708 84440
AAXX 24181 76656 32975 31601 10245 20046 38523 40188 58006 80008 91750 333 10252 20056 30/// 56005 59003 83280
AAXX 24181 76741 01250 83207 10232 20218 30141 40160 52003 60031 76062 86220 91735 333 10240 20198 32/// 567// 58007 60027 84805 82706 82457
AAXX 24181 76855 32980 02102 10310 20227 30072 40122 50002 91745 333 10320 20208 30/// 59005 92000
AAXX 24181 76040 32960 03002 10149 21022 30291 40306 52012 91750 33310178 20039 30/// 59015 98660
AAXX 24181 76113 32980 01701 10128 21040 39771 40256 52003 91745 33310135 20002 30/// 58003
AAXX 24181 76122 32568 63601 10002 21003 38623 40337 5//// 85710 91750333 10002 21030 31/// 56880 59083 85821
AAXX 24181 76225 01560 60701 10012 21020 38704 40306 51010 69901 7017586500 91745 333 10012 21022 30/// 56600 58079 69907 86625
AAXX 24181 76256 32980 00306 10152 20008 30232 40246 5//// 91745 33310162 20052 30/// 59016
AAXX 24181 76258 32970 03618 10168 21003 30157 40203 57005 91750 33310170 20062 30/// 56000 59021
AAXX 24181 76305 32970 13404 10180 21014 30218 40226 52008 81010 91740333 10185 20110 30/// 56040 59013 81460
AAXX 24181 76323 32570 83602 10017 21037 38321 40353 50011 885// 91755333 10020 21015 30/// 561// 58069 88623
AAXX 24181 76342 01460 80201 10062 20042 39592 40339 52010 60021 75052887// 91750 333 10074 20035 31/// 561// 58017 60017 88710
AAXX 24181 76382 32680 53404 10094 20017 38970 40282 52001 85070 91750333 10100 20036 30/// 56030 58055 85356
AAXX 24181 76390 31530 42102 10061 20042 38251 40249 52010 74044 8160591730 333 10070 21004 30/// 56105 58008 81720 83070
AAXX 24181 76393 01408 83201 10084 20056 39665 40268 52003 69991 70422887// 91752 333 10088 20054 31/// 569// 58005 69917 88712
AAXX 24181 76402 31959 13101 10180 20044 30157 40216 52002 70544 8000591740 333 10182 20048 30/// 56006 59002
AAXX 24181 76423 32780 70000 10136 21017 38161 40181 57002 84534 91801333 10172 20040 30/// 56099 58001 84357 83067
AAXX 24181 76458 32970 33004 10180 20097 30167 40172 50003 80001 91738333 10200 20093 30/// 56//9 59001 83072
AAXX 24181 76471 32980 62104 10155 21012 37700 40143 54000 80006 91750333 10160 20059 30/// 56005 58007 86075
AAXX 24181 76491 32560 73602 10134 20108 39856 40259 52002 875// 91750333 10138 20100 30/// 569// 58001 87625
AAXX 24181 76525 31960 21914 10122 21015 37483 40165 52003 73833 8000191745 333 10124 20072 30/// 56//5 58004 82080 91114
AAXX 24181 76543 32675 83604 10204 20119 30202 40235 58001 8357/ 91745333 10204 20170 30/// 5633/ 59001 83644 85358
AAXX 24181 76548 32475 70504 10180 20145 30223 40233 50003 8247/ 91740333 10194 20164 30/// 56840 58001 82614 85357
AAXX 24181 76556 32970 01402 10266 20119 39123 40157 52001 91733 33310268 20114 30/// 59005
AAXX 24181 76577 32970 72304 10188 20137 38069 40202 50001 80003 91740333 10196 20077 30/// 56005 58001 87080
AAXX 24181 76581 32975 01202 10220 20135 39082 40193 59001 91750 33310225 20136 30/// 59001
AAXX 24181 76585 32680 50901 10195 20159 30051 40209 58004 83270 91730333 10210 20157 30/// 5623/ 59009 83833
AAXX 24181 76593 32370 30503 10274 20255 30192 40194 58011 82204 91750333 10280 20210 30/// 561/9 58016 82820 810// 91006 91505
AAXX 24181 76612 32962 10701 10221 20077 38491 40216 5//// 80001 91750333 10228 20075 30/// 56006 59004 81072
AAXX 24181 76625 32960 00302 10223 20055 38158 40164 57017 91755 33310227 20082 30/// 59007
AAXX 24181 76634 31670 23001 10224 20040 37872 40192 57006 70500 8110191750 333 10226 20050 30/// 563/3 59001 81834
AAXX 24181 76644 32460 71104 10287 20198 30174 40187 57018 84206 91750333 10296 20210 30/// 563/9 58015 84820
AAXX 24181 76647 32670 50902 10300 20214 30168 40198 58011 84230 91750333 10304 20195 31/// 562/0 58010 84835 81358
AAXX 24181 76658 31958 20902 10290 20150 39646 40153 57010 70540 8000291740 333 10295 20173 30/// 56001 58001 81070 98924
AAXX 24181 76662 32970 72101 10234 20115 38482 40187 57005 80007 91750333 10245 20060 30/// 5600/ 58000 87070
AAXX 24181 76665 32962 02902 10236 20095 38142 40189 57009 91750 33310270 20054 30/// 58001
AAXX 24181 76675 31975 21302 10182 21009 37399 40231 56004 70540 8000491750 333 10190 21021 30/// 56//9 58003 98475
AAXX 24181 76681 31958 03602 10198 20061 37803 40198 57005 70500 91745333 10198 20028 30/// 58///
AAXX 24181 76683 32670 10901 10202 20089 37850 40230 51011 81100 91745333 10210 20040 30/// 56200 58000 81840
AAXX 24181 76685 32970 01501 10204 20032 37892 40181 57002 91750 33310206 20074 30/// 58002
AAXX 24181 76687 31562 50701 10190 20148 38721 40214 57002 70111 8550091737 333 10200 20135 30/// 563// 59001 85622
AAXX 24181 76692 31556 73605 10246 20192 30182 40201 50002 70544 875//91745 333 10251 20222 30/// 562// 59001 87623
AAXX 24181 76695 32460 60902 10288 20231 30172 40178 57011 84201 91748333 10290 20212 31/// 565/0 59016 84819 82078
AAXX 24181 76698 32560 40402 10292 20240 30175 40186 57013 84200 91750333 10306 20199 30/// 56100 58014 84820
AAXX 24181 76737 31480 51601 10207 20157 38812 40198 58001 70322 8223091735 333 10210 20148 30/// 56220 59001 82813 83358 9110491514
AAXX 24181 76743 31457 60501 10281 20253 30165 40173 57010 70211 8620091745 333 10307 20235 30/// 56100 58008 86811
AAXX 24181 76750 32560 50703 10302 20225 30171 40181 57011 83107 91745333 10339 20218 30/// 56206 58013 83820
AAXX 24181 76773 31568 12101 10236 20150 38442 40172 57011 70544 8110091748 333 10238 20060 30/// 56900 58003 81820
AAXX 24181 76805 32970 01001 10311 20222 30131 40134 53010 91735 33310317 20210 30/// 58008
AAXX 24181 76833 32970 03610 10326 20101 30130 40132 57007 91745 33310326 20262 30/// 58003 92002
AAXX 24181 76840 32550 20304 10320 20248 30077 40132 57010 82200 91740333 10327 20182 30/// 56800 58005 82827
AAXX 24181 76845 32460 70501 10162 20132 37974 40187 58003 87700 91743333 10172 20112 30/// 56200 58011 87712
AAXX 24181 76848 32670 40503 10215 20126 38406 40120 56007 83140 91750333 10222 20144 30/// 56190 58011 83837 81360
AAXX 24181 76243 11371 83106 10064 20052 39992 40300 52007 60011 70255887// 91735 333 10070 20042 31/// 561// 58005 88708
AAXX 24181 76311 32980 00000 10158 20030 39893 40185 56011 91755 33310160 20007 30/// 59012
AAXX 24181 76405 32980 03509 10190 20083 30193 40215 52008 91750 33310190 20150 30/// 59004
AAXX 24181 76412 31966 02401 10156 21009 30134 40180 52000 70544 91750333 10160 20048 30/// 58008
AAXX 24181 76640 31358 80403 10206 20187 30223 40235 57001 70222 8472/91740 333 10218 20176 30/// 5679/ 59005 84708 84440
AAXX 24181 76656 32975 31601 10245 20046 38523 40188 58006 80008 91750333 10252 20056 30/// 56005 59003 83280
AAXX 24181 76741 01250 83207 10232 20218 30141 40160 52003 60031 7606286220 91735 333 10240 20198 32/// 567// 58007 60027 8480582706 82457
AAXX 24181 76855 32980 02102 10310 20227 30072 40122 50002 91745 33310320 20208 30/// 59005 92000
AAXX 24181 76040 32960 03002 10149 21022 30291 40306 52012 91750 333 10178 20039 30/// 59015 98660
AAXX 24181 76113 32980 01701 10128 21040 39771 40256 52003 91745 333 10135 20002 30/// 58003
AAXX 24181 76122 32568 63601 10002 21003 38623 40337 5//// 85710 91750 333 10002 21030 31/// 56880 59083 85821
AAXX 24181 76225 01560 60701 10012 21020 38704 40306 51010 69901 70175 86500 91745 333 10012 21022 30/// 56600 58079 69907 86625
AAXX 24181 76256 32980 00306 10152 20008 30232 40246 5//// 91745 333 10162 20052 30/// 59016
AAXX 24181 76258 32970 03618 10168 21003 30157 40203 57005 91750 333 10170 20062 30/// 56000 59021
AAXX 24181 76305 32970 13404 10180 21014 30218 40226 52008 81010 91740 333 10185 20110 30/// 56040 59013 81460
AAXX 24181 76323 32570 83602 10017 21037 38321 40353 50011 885// 91755 333 10020 21015 30/// 561// 58069 88623
AAXX 24181 76342 01460 80201 10062 20042 39592 40339 52010 60021 75052 887// 91750 333 10074 20035 31/// 561// 58017 60017 88710
AAXX 24181 76382 32680 53404 10094 20017 38970 40282 52001 85070 91750 333 10100 20036 30/// 56030 58055 85356
AAXX 24181 76390 31530 42102 10061 20042 38251 40249 52010 74044 81605 91730 333 10070 21004 30/// 56105 58008 81720 83070
AAXX 24181 76393 01408 83201 10084 20056 39665 40268 52003 69991 70422 887// 91752 333 10088 20054 31/// 569// 58005 69917 88712
AAXX 24181 76402 31959 13101 10180 20044 30157 40216 52002 70544 80005 91740 333 10182 20048 30/// 56006 59002
AAXX 24181 76423 32780 70000 10136 21017 38161 40181 57002 84534 91801 333 10172 20040 30/// 56099 58001 84357 83067
AAXX 24181 76458 32970 33004 10180 20097 30167 40172 50003 80001 91738 333 10200 20093 30/// 56//9 59001 83072
AAXX 24181 76471 32980 62104 10155 21012 37700 40143 54000 80006 91750 333 10160 20059 30/// 56005 58007 86075
AAXX 24181 76491 32560 73602 10134 20108 39856 40259 52002 875// 91750 333 10138 20100 30/// 569// 58001 87625
AAXX 24181 76525 31960 21914 10122 21015 37483 40165 52003 73833 80001 91745 333 10124 20072 30/// 56//5 58004 82080 91114
AAXX 24181 76543 32675 83604 10204 20119 30202 40235 58001 8357/ 91745 333 10204 20170 30/// 5633/ 59001 83644 85358
AAXX 24181 76548 32475 70504 10180 20145 30223 40233 50003 8247/ 91740 333 10194 20164 30/// 56840 58001 82614 85357
AAXX 24181 76556 32970 01402 10266 20119 39123 40157 52001 91733 333 10268 20114 30/// 59005
AAXX 24181 76577 32970 72304 10188 20137 38069 40202 50001 80003 91740 333 10196 20077 30/// 56005 58001 87080
AAXX 24181 76581 32975 01202 10220 20135 39082 40193 59001 91750 333 10225 20136 30/// 59001
AAXX 24181 76585 32680 50901 10195 20159 30051 40209 58004 83270 91730 333 10210 20157 30/// 5623/ 59009 83833
AAXX 24181 76593 32370 30503 10274 20255 30192 40194 58011 82204 91750 333 10280 20210 30/// 561/9 58016 82820 810// 91006 91505
AAXX 24181 76612 32962 10701 10221 20077 38491 40216 5//// 80001 91750 333 10228 20075 30/// 56006 59004 81072
AAXX 24181 76625 32960 00302 10223 20055 38158 40164 57017 91755 333 10227 20082 30/// 59007
AAXX 24181 76634 31670 23001 10224 20040 37872 40192 57006 70500 81101 91750 333 10226 20050 30/// 563/3 59001 81834
AAXX 24181 76644 32460 71104 10287 20198 30174 40187 57018 84206 91750 333 10296 20210 30/// 563/9 58015 84820
AAXX 24181 76647 32670 50902 10300 20214 30168 40198 58011 84230 91750 333 10304 20195 31/// 562/0 58010 84835 81358
AAXX 24181 76658 31958 20902 10290 20150 39646 40153 57010 70540 80002 91740 333 10295 20173 30/// 56001 58001 81070 98924
AAXX 24181 76662 32970 72101 10234 20115 38482 40187 57005 80007 91750 333 10245 20060 30/// 5600/ 58000 87070
AAXX 24181 76665 32962 02902 10236 20095 38142 40189 57009 91750 333 10270 20054 30/// 58001
AAXX 24181 76675 31975 21302 10182 21009 37399 40231 56004 70540 80004 91750 333 10190 21021 30/// 56//9 58003 98475
AAXX 24181 76681 31958 03602 10198 20061 37803 40198 57005 70500 91745 333 10198 20028 30/// 58///
AAXX 24181 76683 32670 10901 10202 20089 37850 40230 51011 81100 91745 333 10210 20040 30/// 56200 58000 81840
AAXX 24181 76685 32970 01501 10204 20032 37892 40181 57002 91750 333 10206 20074 30/// 58002
AAXX 24181 76687 31562 50701 10190 20148 38721 40214 57002 70111 85500 91737 333 10200 20135 30/// 563// 59001 85622
AAXX 24181 76692 31556 73605 10246 20192 30182 40201 50002 70544 875// 91745 333 10251 20222 30/// 562// 59001 87623
AAXX 24181 76695 32460 60902 10288 20231 30172 40178 57011 84201 91748 333 10290 20212 31/// 565/0 59016 84819 82078
AAXX 24181 76698 32560 40402 10292 20240 30175 40186 57013 84200 91750 333 10306 20199 30/// 56100 58014 84820
AAXX 24181 76737 31480 51601 10207 20157 38812 40198 58001 70322 82230 91735 333 10210 20148 30/// 56220 59001 82813 83358 91104 91514
AAXX 24181 76743 31457 60501 10281 20253 30165 40173 57010 70211 86200 91745 333 10307 20235 30/// 56100 58008 86811
AAXX 24181 76750 32560 50703 10302 20225 30171 40181 57011 83107 91745 333 10339 20218 30/// 56206 58013 83820
AAXX 24181 76773 31568 12101 10236 20150 38442 40172 57011 70544 81100 91748 333 10238 20060 30/// 56900 58003 81820
AAXX 24181 76805 32970 01001 10311 20222 30131 40134 53010 91735 333 10317 20210 30/// 58008
AAXX 24181 76833 32970 03610 10326 20101 30130 40132 57007 91745 333 10326 20262 30/// 58003 92002
AAXX 24181 76840 32550 20304 10320 20248 30077 40132 57010 82200 91740 333 10327 20182 30/// 56800 58005 82827
AAXX 24181 76845 32460 70501 10162 20132 37974 40187 58003 87700 91743 333 10172 20112 30/// 56200 58011 87712
AAXX 24181 76848 32670 40503 10215 20126 38406 40120 56007 83140 91750 333 10222 20144 30/// 56190 58011 83837 81360
AAXX 24181 76243 11371 83106 10064 20052 39992 40300 52007 60011 70255 887// 91735 333 10070 20042 31/// 561// 58005 88708
AAXX 24181 76311 32980 00000 10158 20030 39893 40185 56011 91755 333 10160 20007 30/// 59012
AAXX 24181 76405 32980 03509 10190 20083 30193 40215 52008 91750 333 10190 20150 30/// 59004
AAXX 24181 76412 31966 02401 10156 21009 30134 40180 52000 70544 91750 333 10160 20048 30/// 58008
AAXX 24181 76640 31358 80403 10206 20187 30223 40235 57001 70222 8472/ 91740 333 10218 20176 30/// 5679/ 59005 84708 84440
AAXX 24181 76656 32975 31601 10245 20046 38523 40188 58006 80008 91750 333 10252 20056 30/// 56005 59003 83280
AAXX 24181 76741 01250 83207 10232 20218 30141 40160 52003 60031 76062 86220 91735 333 10240 20198 32/// 567// 58007 60027 84805 82706 82457
AAXX 24181 76855 32980 02102 10310 20227 30072 40122 50002 91745 333 10320 20208 30/// 59005 92000
BBXX UFTA 24181 99847 71249 11696 83208 11225 21253 40135 52005 69932 73832 885//
AAXX 24184 68399 16/// /0903 10225 20218 30063 40172 53008 60022 333 10254 20224 91025 555 20024 91017
AAXX 24184 68383 16/// /0000 10220 20199 39936 48585 53008 60052 333 10241 20220 91000 555 20058 91018
AAXX 24181 15015 01495 80700 11025 21028 39599 42797 52006 69912 77072 8652/ 333 11014 21032 3/001 42998 69917 91001 91101 96010
AAXX 24181 15020 02997 01301 11076 21084 30018 40229 52008 60002 333 11012 21076 3/004 43002 60007 91001 91102
AAXX 24181 15090 02997 00601 11063 21084 30134 40232 52005 60002 333 11011 21063 34000 55300 0//// 20004 3//// 60007 91002 91102 92600
AAXX 24181 15108 02298 22904 11090 21090 38044 48480 52007 60002 82500 333 11081 21126 3//// 44017 60007 92823
AAXX 24181 15120 02997 70402 11014 21027 39710 40225 52005 60002 87070 333 10003 21035 30006 55300 10041 2//// 3//// 60007 91003 91103
AAXX 24181 15150 02997 01601 11068 21077 30002 40228 52007 60002 333 11006 21068 3/003 41998 60007 91002 91103
AAXX 24181 15170 01995 80000 11093 21100 39418 42801 52013 60002 71011 8807/ 333 11057 21179 3/103 47005 60007 91001 91102 92800
AAXX 24181 15200 02997 81300 10004 21016 30079 40229 53010 60002 8807/ 333 10010 21022 31003 60007 91000 91101
AAXX 24181 15230 02997 72102 11016 21043 39928 40234 52011 60002 87070 333 10023 21051 34003 55300 10125 20003 3//// 60007 91003 91104
AAXX 24181 15260 02597 71501 11028 21045 39676 40235 52010 60002 83570 333 11006 21060 3/003 43997 60007 91001 91102
AAXX 24181 15280 02998 03604 11139 21168 37428 47947 52013 60002 333 11134 21152 3//// 48039 60007 92838
AAXX 24181 15292 02998 01501 11017 21035 39924 40231 52015 60002 333 10041 21059 34004 60007 91002 91103
AAXX 24181 15310 02997 20300 11049 21071 30145 40236 52012 60002 80001 333 10001 21050 34004 55300 10251 20004 3//// 60007 91001 91101 92600
AAXX 24181 15335 02497 83402 11019 21075 30223 40231 52012 60002 886// 333 11010 21021 3//// 4//// 60007 91004 91104
AAXX 24181 15346 02997 01700 11040 21051 39928 40233 52014 60002 333 10002 21058 34001 60007 91001 91101
AAXX 24181 15350 02597 81202 11018 21039 30109 40234 52009 60002 885// 333 11014 21022 34001 60007 91002 91102
AAXX 24181 15360 02997 83206 11009 21046 30199 40214 52010 60002 8807/ 222// 06040 20502 333 11006 21022 3//// 60007 91008 91109 92427
AAXX 24181 15410 02997 30000 11011 21040 30134 40234 53015 60002 83030 333 10030 21062 34005 60007 91001 91101
AAXX 24181 15420 02997 02601 11054 21059 30114 40233 52009 60002 333 10002 21054 34003 55300 0//// 20000 3//// 60007 91001 91101 92600
AAXX 24181 15450 01996 11402 11037 21044 39985 40233 53011 60002 71011 81040 333 10007 21052 34001 55300 10231 20004 3//// 60007 91002 91104
AAXX 24181 15460 01596 80000 11018 21037 30206 40232 52009 60002 71022 885// 333 11007 21024 3/001 47001 60007 91001 91101 92800
AAXX 24181 15470 02997 02002 11036 21045 30100 40233 52011 60002 333 10003 21037 3/100 41998 60007 91002 91102 92600
AAXX 24181 15480 02497 40102 11014 21059 30211 40229 52012 60002 84600 222// 06053 2//// 333 11002 21025 34101 60007 91007 91107 92437
AAXX 24181 33587 12965 20000 11037 21081 39956 40231 52006 69902 80030 333 11024
AAXX 24181 33924 12598 80205 10004 21039 30175 40187 52013 69902 885// 333 10015
AAXX 24184 91930 36/// ///// 10288 20228
AAXX 24184 91943 36/// /1010 10284 20204 30144 40146 51016 333 10284 58008
AAXX 24181 89061 179// 01502 10003 21004 39809 49816 57004 60043 77177 333 91002 91102
AAXX 24184 91348 32474 80809 10278 20225 30010 40063 55002 85101 333 562/9 70064 555 92418
AAXX 24181 78458 32566 60806 10280 20228 40192 57018 83220 333 10278 20200 30/// 56000 59004 83822 84457
AAXX 24181 78460 31560 31205 10282 20207 40173 57032 70544 83200 333 10287 20171 30/// 56200 59021 83824
AAXX 24181 78467 32566 20905 10279 20218 40196 57007 82200 333 10286 20197 30/// 56200 58009 82820
AAXX 24181 78479 32566 10707 10280 20210 40162 57015 81200 333 10290 20240 30/// 56000 59002 81825
AAXX 24181 78482 32566 11304 10302 20189 40186 58024 81100 333 10306 20170 30/// 56000 59006 81825
AAXX 24181 78485 32566 40904 10304 20161 40168 57003 83230 333 10307 20187 30/// 56300 59007 83825
AAXX 24181 78486 32566 30303 10306 20188 40156 57025 83200 333 10315 20213 30/// 56200 59005 83825
AAXX 24181 78488 32566 20608 10295 20208 40175 57025 82200 333 10298 20165 30/// 56000 59008 82824
AAXX 24184 68024 42660 41505 10220 20143 48519 53032 71322 81980 333 10310
AAXX 24184 68030 41660 43603 10275 20199 48482 51016 71322 81973 333 10342
AAXX 24184 68032 42560 62101 10230 20218 48508 52016 86982 333 10317
AAXX 24184 68040 41660 61411 10224 20190 48517 52023 71392 81973 333 10342
AAXX 24184 68054 41660 71612 10247 20173 48548 53026 71392 83973 333 10302
AAXX 24184 68070 42960 71815 10225 20178 48528 52013 87080 333 10289
AAXX 24184 68148 42560 80503 10185 20178 48524 56004 86980 333 10245
AAXX 24184 68234 42560 61412 10200 20155 48522 52021 82980 333 10285
AAXX 24184 68240 42460 62102 10180 20169 48518 58004 81470 333 10232
AAXX 24184 68320 41560 70515 10251 20173 48521 52035 79599 89583 333 10347 30110
AAXX 24184 68325 41960 70920 10180 20165 48526 58013 71322 86900 333 10283
AAXX 24184 70026 NIL
AAXX 24184 70133 NIL
AAXX 24184 70174 NIL
AAXX 24184 70200 NIL
AAXX 24184 70219 NIL
AAXX 24184 70231 NIL
AAXX 24184 70261 NIL
AAXX 24184 70267 NIL
AAXX 24184 70271 NIL
AAXX 24184 70273 NIL
AAXX 24184 70308 NIL
AAXX 24184 70316 NIL
AAXX 24184 70326 NIL
AAXX 24184 70340 NIL
AAXX 24184 70350 NIL
AAXX 24184 70361 NIL
AAXX 24184 70381 NIL
AAXX 24184 70398 NIL
AAXX 24184 70414 NIL
AAXX 24184 78526 NIL
AAXX 24184 78543 NIL
AAXX 24184 03301 16457 /2223 10091 20091 30145 40219 57004 60032 91750 333 10092 81/12 87/22 90710 91130
AAXX 24184 03305 17456 /2328 10080 20065 39955 40220 57003 60082 762// 91750 333 10085 81/12 87/21 90710 91139 91039
AAXX 24184 03313 16665 /2212 10089 20072 30119 40214 58005 69982 91750 333 10098 87/44 90710 91125
AAXX 24184 03316 17668 /2217 10086 20067 30198 40209 57010 69982 761// 91750 333 10095 87/49
AAXX 24184 03318 16/// /2323 10083 20072 69922 91750 333 10086 90710 91131
AAXX 24184 03321 16580 /2613 10100 20060 30208 40220 57010 69922 91750 333 10102 553// 20000 81/26 87/57
AAXX 24184 03330 17567 /2314 10065 20050 39864 40229 58009 69902 781// 91750 333 10066 87/23
AAXX 24184 03344 17349 /2215 10065 20055 39880 40201 58005 60032 762// 91750 333 10067 81/09 87/24 90710 91126
AAXX 24184 03346 16/// /2419 10064 20053 60002 91750 333 10067 90710 91133
AAXX 24184 03348 17666 /2113 10077 20063 30109 40218 58011 69922 761// 91750 333 10079 55300 20000 87/37
AAXX 24184 03355 15580 /2211 10086 20058 30186 40198 58012 69902 91750 333 10090 55300 20000 83/24 83/73
AAXX 24184 03373 16968 /2217 10067 20047 30144 40215 56012 60002 91750 333 10068 81/60 87/69 90710 91126
AAXX 24184 03379 16981 /2217 10071 20047 30149 40227 56013 60002 91750 333 10072 87/71 90710 91128
AAXX 24184 03382 15681 /2111 10071 20051 30188 40196 57009 69902 91750 333 10072 55300 20000 81/33 87/65
AAXX 24184 03385 46971 /2117 10066 20047 30205 40215 56012 91750 333 10070 85/64 85/68 90710 91126
AAXX 24184 03391 12582 72214 10073 20043 30218 40226 56013 60002 8152/ 91750 333 10073 81625 87466
AAXX 24184 03392 16968 /2118 10059 20047 30224 40228 58012 60002 91750 333 10070 84/60 86/65
AAXX 24184 03405 16356 /2430 10091 20091 30118 40235 56007 60022 91750 333 10093 553// 20000 84/09 84/37 90710 91145 91043
AAXX 24184 03409 16/// /2413 10083 20066 60012 91750 333 10085 55300 2//// 90710 91127
AAXX 24184 03410 16461 /2318 10067 20063 39790 40229 58005 60052 91750 333 10068 553// 20000 83/10 85/18 85/37 90710 91134 91029
AAXX 24184 03469 15670 /2013 10055 20045 30235 40239 58009 60002 91750 333 10071 553// 20000 82/36 86/65
AAXX 24184 03488 15780 /2217 10061 20039 30212 40239 58008 60002 91750 333 10065 81/56 84/66
AAXX 24184 03503 17457 /2105 10087 20076 30176 40254 57006 60032 762// 91750 333 10097 86/13 84/29
AAXX 24184 03507 17233 /2214 10067 20067 39887 40264 58004 60022 762// 91750 333 10067 85/04 85/13
AAXX 24184 03520 16573 /2612 10083 20056 30127 40250 57010 60002 91750 333 10092 553// 20000 85/20 87/29 85/67
AAXX 24184 03522 15580 /2308 10092 20058 30164 40257 56007 69902 91750 333 10097 84/24
AAXX 24184 03529 17572 /1911 10081 20064 30220 40263 56006 69922 723// 91750 333 10082 87/28
AAXX 24184 03544 15474 /2309 10071 20059 30118 40251 57005 60002 91750 333 10074 553// 20000 81/10 86/34
AAXX 24184 03560 15681 /2312 10071 20052 30152 40257 57009 60002 91750 333 10072 553// 20000 87/36 84/44
AAXX 24184 03604 16570 /2619 10100 20080 30209 40263 58004 60022 91750 333 10103 84/22 84/40 85/50 90710 91130 91030
AAXX 24184 03605 16657 /2524 10098 20081 30261 40269 58006 60022 91750 333 10101 81/31 83/41 86/50 90710 91130
AAXX 24184 03609 16/// /2326 10095 20080 30223 40276 57006 69962 91750 333 10098 90710 91132
AAXX 24184 03628 17470 /2415 10087 20068 30200 40274 57006 69962 723// 91750 333 10088 55300 20000 83/17 84/23
AAXX 24184 03647 16463 /2418 10067 20061 30003 40262 56010 60002 91750 333 10068 553// 20000 83/11 84/30 90710 91127
AAXX 24184 03658 16581 /2112 10074 20045 30205 40276 57008 60002 91750 333 10074 86/24
AAXX 24184 03660 15581 /2608 10065 20045 30022 40274 56009 60002 91750 333 10069 81/20 85/31
AAXX 24184 03672 16982 /2408 10071 20038 30239 40280 55004 60002 91750 333 10077 8//99
AAXX 24184 03684 15578 /2209 10056 20032 30162 40271 55007 60002 91750 333 10062 82/23
AAXX 24184 03693 16980 /2211 10071 20042 30276 40279 57010 60002 91750 333 10079 81/61
AAXX 24184 03707 17464 /2621 10093 20083 30282 40289 56005 60012 723// 91750 333 10103 82/13 87/50 90710 91131
AAXX 24184 03710 16228 /2511 10064 20064 39861 40289 57007 60032 91750 333 10067 553// 20000 85/04 86/14 91021
AAXX 24184 03743 16681 /2410 10067 20045 30119 40284 57010 60002 91750 333 10078 82/48 83/64
AAXX 24184 03749 16781 /2309 10066 20045 30175 40288 56008 60002 91750 333 10078 81/56
AAXX 24184 03761 15980 /2210 10061 20036 30140 40287 56006 60002 91750 333 10070 55300 20000 8//99
AAXX 24184 03768 16965 /2411 10066 20041 30204 40285 56009 60002 91750 333 10075 8//99
AAXX 24184 03769 15977 /2207 10066 20046 30203 40286 56008 69922 91750 333 10087 55300 20000 81/63
AAXX 24184 03770 16/// ///// 10073 20047 60002 91750 333 10083
AAXX 24184 03781 15979 /2209 10058 20042 30075 40287 57006 60002 91750 333 10071 553// 20000 81/63
AAXX 24184 03797 15972 /2311 10059 20032 30225 40286 56008 60002 91750 333 10075 55300 20000 81/66
AAXX 24184 03823 17465 /2412 10073 20065 30055 40303 56005 60042 723// 91750 333 10086 553// 20000 84/12 85/43
AAXX 24184 03839 16/// ///// 10085 20061 69922 91750 333 10101 553// 20000
AAXX 24184 03857 15767 /2823 10097 20069 30236 40300 56006 60002 91750 333 10101 84/50 84/61 86/71 90710 91130
AAXX 24184 03862 15981 /2509 10084 20053 30284 40297 58004 60002 91750 333 10095 55300 20000 81/64 88/71
AAXX 24184 03866 16/// /2623 10097 20064 30271 40295 57009 60002 91750 333 10100 90710 91129
AAXX 24184 03872 15977 /2511 10082 20064 30287 40292 56012 69902 91750 333 10091 553// 20000 81/62 87/71
AAXX 24184 03876 16/// /2511 10081 20059 30293 40295 56008 60002 91750 333 10091
AAXX 24184 03895 41470 72713 10091 20069 40332 58002 78081 878// 333 10104 81710 85818
AAXX 24184 91348 32474 80809 10278 20225 30010 40063 55002 85101 333 562/9 70064 555 92418
AAXX 24181 26554 NIL
AAXX 24181 26666 12660 82204 11050 21078 39943 40167 57009 69902 8552/ 333 11050 85634 91110
AAXX 24181 26850 32360 81903 11050 21071 39888 40171 57004 885// 333 11044 88709
AAXX 24181 26863 31458 82004 11056 21074 39944 40191 58004 71022 886// 333 11053 88712
AAXX 24181 26941 32460 81904 11037 21062 39924 40169 54000 887// 333 11035 88712
AAXX 24181 26951 32462 81803 11048 21065 39981 40189 54000 886// 333 11045 88710
AAXX 24181 33008 11113 81903 11003 21010 39979 40162 52004 69942 71052 886// 333 11003 88702 93401
AAXX 24181 33019 32560 71203 11038 21056 30004 40186 54000 875// 333 11035 87621
AAXX 24181 33036 32470 51802 11055 21097 39970 40211 54000 85500 333 11042 85715
AAXX 24181 33041 31559 31301 11085 21096 30055 40220 54000 71000 82530 333 11044
AAXX 24184 03008 16/// /2532 10082 20046 39898 49967 53008 60032 91750 333 10094 90710 91149 91044
AAXX 24184 03010 46/// /2533 10088 20050 49985 52023 333 90710 91153
AAXX 24184 03014 46/// /2840 10045 20013 49944 53008 91750 333 8//// 90710 91160
AAXX 24184 03031 17664 /2628 10078 20007 39728 40051 51025 60152 781// 91750 333 10095 553// 20000 81/34 87/59 90710 91140
AAXX 24184 03034 17558 /2516 10091 20060 30037 40050 51026 60102 723// 91750 333 10108 84/27 85/50 90710 91134 91026
AAXX 24184 03037 17759 /2421 10094 20062 30050 40072 52020 60222 723// 91750 333 10102 83/50 87/60 90710 91134 91032
AAXX 24184 03039 46/// /2441 10028 21003 91750 333 10055 90710 91151 91051
AAXX 24184 03041 46/// /2334 10014 20014 91750 333 10043 90710 91162 91055
AAXX 24184 03044 17660 /2720 10081 20028 39924 40022 52030 69982 723// 91750 333 10105 553// 20000 81/39 87/61 90710 91150 91043
AAXX 24184 03047 17974 /2116 10096 20024 39786 40085 52015 60132 723// 91750 333 10102 553// 20000 87/59 90710 91135 91031
AAXX 24184 03062 15966 /2623 10096 20017 30025 40030 53015 69942 91750 333 10111 553// 20000 85/62 90710 91134 91033
AAXX 24184 03065 46/// /2662 10004 20004 91750 333 10019 90710 91191 91086
AAXX 24184 03068 12580 72726 10103 20044 30018 40027 53005 60002 84532 91750 333 10106 81625 84645 86072 90710 91136
AAXX 24184 03080 15984 /2519 10096 20028 39885 40053 53001 69902 91750 333 10110 82/73 90710 91133 91033
AAXX 24184 03088 17458 /2215 10075 20074 39911 40074 53001 69962 782// 91750 333 10080 553// 20000 85/11 86/35 90710 91127
AAXX 24184 03094 15679 /2417 10098 20049 30027 40032 53003 60002 91750 333 10099 81/37 86/73
AAXX 24184 03105 17457 /2520 10099 20093 30110 40127 52009 60032 723// 91750 333 10103 81/10 86/61 90710 91134
AAXX 24184 03132 17481 /2320 10098 20085 30143 40157 53001 69942 723// 91750 333 10099 85/16 87/50 90710 91132
AAXX 24184 03144 17467 /2418 10095 20057 30050 40092 53004 60052 761// 91750 333 10095 553// 20000 81/10 87/44 90710 91137
AAXX 24184 03148 46/// /2628 10062 20060 91750 333 10081 90710 91153 91050
AAXX 24184 03153 17362 /2428 10084 20077 30015 40153 57005 60032 723// 91750 333 10085 553// 20000 84/08 87/16 90710 91138
AAXX 24184 03155 16380 /2324 10082 20067 39822 40118 56007 60032 91750 333 10082 88/09 90710 91139
AAXX 24184 03158 17584 /2220 10080 20067 39973 40109 57017 69902 723// 91750 333 10080 553// 20000 87/23 85/32 90710 91129
AAXX 24184 03210 16456 /2325 10080 20072 30026 40178 55004 60052 91750 333 10080 86/15 84/50 90710 91132
AAXX 24184 03212 17558 /2417 10090 20069 30074 40173 55005 60142 762// 91750 333 10091 87/22 90710 91133 91028
AAXX 24184 03214 17556 /2320 10085 20074 30168 40186 56006 60022 762// 91750 333 10089 88/20 90710 91131
AAXX 24184 03220 16475 ///// 10087 20075 30117 40151 56010 69982 91750 333 10088 83/13 87/19
AAXX 24184 03225 16456 /2317 10071 20056 39870 40178 50000 60102 91750 333 10072 553// 20000 84/14 83/28 85/40 90710 91130
AAXX 24184 03226 17466 /2415 10069 20061 39893 40171 57011 60012 762// 91750 333 10070 81/10 87/31 90710 91129 91026
AAXX 24184 03230 16339 /2420 10072 20065 39881 40138 56012 60032 91750 333 10072 87/08 84/15 90710 91135 91031
AAXX 24184 03238 17478 /2409 10073 20060 39971 40145 57011 60012 761// 91750 333 10084 87/16
AAXX 24184 03261 16566 /2318 10075 20055 30149 40189 56012 60002 91750 333 10089 81/22 90710 91133
AAXX 24184 03265 17880 /2316 10079 20054 30158 40189 56011 69902 723// 91750 333 10091 81/57 83/60 90710 91135
AAXX 24184 03266 16979 /2415 10082 20051 30174 40191 58013 60002 91750 333 10088 81/60 90710 91127
AAXX 24184 03275 17976 /2326 10074 20044 39970 40164 57016 69902 723// 91750 333 10076 83/60 90710 91140 91038
AAXX 24184 03281 16/// /2421 10064 20052 60002 91750 333 10067 90710 91130
AAXX 24184 03903 16333 /2212 10098 20096 30105 40163 53006 60032 91750 333 10099 553// 20000 87/07 85/15
AAXX 24184 03904 17356 /2417 10101 20090 30091 40150 51006 60042 704// 91750 333 10102 88/08 90710 91130
AAXX 24184 03907 17465 /2218 10095 20085 30130 40137 51008 69982 723// 91750 333 10096 55300 20000 87/11 90710 91125
AAXX 24184 03911 16262 /2412 10082 20081 39880 40153 53002 60052 91750 333 10082 85/05 87/12
AAXX 24184 03915 16238 /1707 10087 20087 30069 40147 52003 60022 91750 333 10088 86/03 87/11
AAXX 24184 03916 16256 /2707 10088 20084 39947 40136 52007 60022 91750 333 10088 553// 20000 83/05 87/13
AAXX 24184 03923 17350 /2414 10089 20083 39968 40165 55001 60032 751// 91750 333 10089 87/07 86/14 90710 91127
AAXX 24184 78255 42459 40609 10270 20190 30045 40194 57020 84201 333 10279 20196 84820
AAXX 24184 78317 NIL
AAXX 24184 78318 NIL
AAXX 24184 78325 NIL
AAXX 24184 78333 NIL
AAXX 24184 78338 NIL
AAXX 24184 78348 NIL
AAXX 24184 78349 NIL
AAXX 24184 78353 NIL
AAXX 24184 78360 NIL
AAXX 24184 78367 NIL
AAXX 24184 78369 NIL
AAXX 24181 78458 32566 60806 10280 20228 40192 57018 83220 333 10278 20200 30/// 56000 59004 83822 84457
AAXX 24181 78460 31560 31205 10282 20207 40173 57032 70544 83200 333 10287 20171 30/// 56200 59021 83824
AAXX 24181 78467 32566 20905 10279 20218 40196 57007 82200 333 10286 20197 30/// 56200 58009 82820
AAXX 24181 78479 32566 10707 10280 20210 40162 57015 81200 333 10290 20240 30/// 56000 59002 81825
AAXX 24181 78482 32566 11304 10302 20189 40186 58024 81100 333 10306 20170 30/// 56000 59006 81825
AAXX 24181 78485 32566 40904 10304 20161 40168 57003 83230 333 10307 20187 30/// 56300 59007 83825
AAXX 24181 78486 32566 30303 10306 20188 40156 57025 83200 333 10315 20213 30/// 56200 59005 83825
AAXX 24181 78488 32566 20608 10295 20208 40175 57025 82200 333 10298 20165 30/// 56000 59008 82824
AAXX 24184 91165 NIL
AAXX 24184 91182 NIL
AAXX 24184 91190 NIL
AAXX 24184 91212 NIL
AAXX 24184 91217 NIL
AAXX 24184 91285 NIL
AAXX 24184 91317 NIL
AAXX 24184 91334 32474 80510 10277 20236 30051 40054 58007 82171 333 56199 70066 555 92418
AAXX 24184 91348 NIL
AAXX 24184 91356 NIL
AAXX 24184 91366 NIL
AAXX 24184 91369 NIL
AAXX 24184 91371 NIL
AAXX 24184 91376 11474 80612 10275 20228 30054 40058 53003 69931 70282 82178 333 56199 70008 555 92418
AAXX 24184 91408 11459 80000 10261 20254 30014 40052 57012 60231 78082 8532/ 333 5619/ 70254 555 92418
AAXX 24184 91413 32469 61012 10281 20248 30041 40066 56007 82271 333 56299 70051 555 92418
AAXX 24184 91425 NIL
AAXX 24184 91434 NIL
AAXX 24184 91765 NIL
AAXX 24184 91222 NIL
AAXX 24184 91245 NIL
AAXX 24184 91323 NIL
AAXX 24184 91339 NIL
AAXX 24184 91343 NIL
AAXX 24184 91353 NIL
AAXX 24184 91442 NIL
BBXX SCKB 24183 99491 70267 41496 82130 10140 2//// 40150 56030 70022 8//// 22233 00100 20306 322// 40616 5//// 6//// 8//// ICE /////
BBXX NWS0029 24184 99415 70707 43/// /0107 11005 21081 40281 5//// 7//// 8//// 222// 04078 2//// 3//// 4//// 5//// 6//// 8//// ICE /////
BBXX NWS0003 24184 99539 71665 43/// /0000 11029 21071 40135 5//// 7//// 8//// 222// 0//// 2//// 3//// 4//// 5//// 6//// 8//// ICE /////
BBXX KAOU 24184 99007 10818 43/// /3212 10282 20244 40083 5//// 7//// 8//// 222// 04288 2//// 3//// 4//// 5//// 6//// 8//// ICE /////
BBXX NWS0020 24184 99305 70445 43/// /0714 10213 20174 40213 5//// 7//// 8//// 222// 04223 2//// 3//// 4//// 5//// 6//// 8//// ICE /////
BBXX NWS0022 24184 99416 70714 43/// /0110 10019 21086 40285 5//// 7//// 8//// 222// 04105 2//// 3//// 4//// 5//// 6//// 8//// ICE /////
BBXX WCZ5238 24184 99271 11433 41598 73024 10190 20123 40125 54/// 75052 8723/ 22263 00220 20303 331// 40505 5//// 6//// 80150 ICE /////
BBXX WKAB 24184 99215 10376 41998 03620 10243 20210 40160 52011 70100 80000 22235 00249 2//// 3//// 4//// 5//// 6//// 80220 ICE /////
BBXX V7OQ6 24184 99359 70341 41696 51315 10200 20185 40310 56020 70522 85445 22264 00260 20101 332// 40202 5//// 6//// 80190 ICE /////
BBXX PDGS 24184 99255 71400 41598 61312 10190 40260 51010 72522 8442/ 22264 00220 20301 33111 41407 51004
BBXX WAZV 24184 99505 71314 41/// 91725 10085 20081 40141 57051 75054 22272 00080 21004 399// 4//// 5//// 6//// 80083 ICE 0////
BBXX WABS 24184 99434 71258 41697 81813 10094 20085 40312 54000 72822 886// 22243 0//// 20401 329// 41006 5//// 6//// 80089 ICE /////
BBXX KQXZ 24184 99574 71432 41898 81224 10061 2101/ 49880 57040 7//22 8//4/ 22233 0//// 20605 321// 41207 5//// 6//// 80033 ICE /////
AAXX 24184 63980 11470 72706 10255 20233 40108 69952 72582 84902 333 10312 59016 81914 84816 85075 943// 91125
AAXX 24181 01281 16/// /3401 11021 21031 39797 49973 58022 60022 333 10005 91104
AAXX 24181 01447 16/// /2601 11057 21064 39408 40099 58020 60002 333 11030 91104
BBXX 46083 24181 99582 71380 46/// /1313 10049 20028 49988 58050 91750 22200 00066 11008 20504 300// 41007 70039 333 91215 555 11135 22144 31713 41517 61749 126125 130121 138122 151140 154136 151136 81515 91712
BBXX 46001 24181 99563 71480 46/// /3310 10025 49947 57006 91750 22200 00046 11509 20403 300// 41508 70043 333 91213 555 11106 22112 31731 43413 61749 328099 322100 327099 327099 329096 327099
BBXX 51000 24181 99235 71541 46/// /0710 10222 40229 53015 91750 22200 00229 10806 20805 335// 41202 70028 333 91212 555 11110 22117 31741 40714 61749 066102 065102 068102 065104 066108 068101
BBXX 51003 24181 99193 71606 46/// /0710 10244 40179 53012 91750 22200 00254 10906 20805 3//// 40904 70031 333 91213 555 11110 22116 31714 40714 61749 068104 068107 067106 067107 069101 065103
BBXX 46089 24181 99459 71258 46/// /1809 10095 20093 40291 55000 91750 22200 00094 11307 20703 327// 41306 70034 333 91210 555 11094 22101 31657 41811 61749 178087 178090 182089 181092 181091 181092
BBXX 46042 24181 99368 71224 46/// /1006 10103 40303 57005 91750 22200 00130 11608 20401 330// 41607 70038 333 91208 555 11063 22065 31738 41108 61749 098061 097061 094054 089051 085047 086048
BBXX 46053 24181 99342 71198 46/// /1001 10134 40292 53006 91750 22200 00134 11702 329// 41702 70010 333 91201 555 11006 22007 31652 40702 61749 092006 055012 038009 040006 065010 063017
AAXX 24181 78458 32566 60806 10280 20228 40192 57018 83220 333 10278 20200 30/// 56000 59004 83822 84457
AAXX 24181 78460 31560 31205 10282 20207 40173 57032 70544 83200 333 10287 20171 30/// 56200 59021 83824
AAXX 24181 78467 32566 20905 10279 20218 40196 57007 82200 333 10286 20197 30/// 56200 58009 82820
AAXX 24181 78479 32566 10707 10280 20210 40162 57015 81200 333 10290 20240 30/// 56000 59002 81825
AAXX 24181 78482 32566 11304 10302 20189 40186 58024 81100 333 10306 20170 30/// 56000 59006 81825
AAXX 24181 78485 32566 40904 10304 20161 40168 57003 83230 333 10307 20187 30/// 56300 59007 83825
AAXX 24181 78486 32566 30303 10306 20188 40156 57025 83200 333 10315 20213 30/// 56200 59005 83825
AAXX 24181 78488 32566 20608 10295 20208 40175 57025 82200 333 10298 20165 30/// 56000 59008 82824
BBXX 42363 24181 99282 70892 46/// /0714 10183 20144 40254 58007 91800 333 91215
BBXX 44011 24181 99411 70666 46/// /3310 10031 21032 40224 54000 91750 22200 00091 10705 20704 3//// 40903 70026 333 91212 555 11102 22107 31732 41613 61749 333098 334107 336102 341108 338103 338102
BBXX 42364 24181 99291 70881 46/// /0408 10156 20122 40264 58014 91800
BBXX 41046 24181 99238 70683 46/// /0806 10247 20190 40214 58018 91750 22200 00255 10904 20502 300// 40904 70022 333 91207 555 11062 22065 31659 40908 61749 084058 090059 092062 093064 091062 093066 81007 91653
BBXX 41041 24181 99142 70460 46/// /0806 10264 20210 40140 56015 91750 22200 00265 11104 20502 3//// 41103 70018 333 91208 555 11065 22069 31719 40908 61749 081062 079060 085063 086064 084061 081060 80907 91720
BBXX PCCL 24183 99343 31726 41497 40912 10160 40200 54000 70322 84/4/ 22253 04181 20501 323// 41003
BBXX PCDE 24183 99244 31534 41597 31604 10220 20183 40040 57020 7//11 824// 22273 20405 329// 40405 80195
BBXX 44008 24181 99405 70692 46/// /3511 10035 21016 40250 51003 91750 22200 00113 333 91214 555 11114 22119 31740 43614 61749 353108 355108 359103 359108 358103 353101
BBXX UCKG 24181 99668 10030 41/97 92315 10030 49700 57093 72122 22252 00020 20404 322// 40808
BBXX UCJB 24181 99715 10283 41/98 /2812 10050 49823 52030 70222 8//// 22223 00100 20503
BBXX UBEF5 24181 99361 70044 41098 01206 10160 40292 54000 70200 80000 22263 00170 2////
BBXX LAHR7 24184 99527 11770 41397 60731 10020 2105/ 40170 5//// 70222 869// 22213 00030 2//// 3//// 4//// 5//// 6//// 81005 ICE /////
BBXX WCZ5238 24184 99271 11433 41598 73024 10190 20123 40125 54/// 75052 8723/ 22263 00220 20303 331// 40505 5//// 6//// 80150 ICE /////
BBXX C6SI6 24184 99332 11343 46/// /3114 10058 21057 40175 56012 7//// 8//// 22213 0//// 2////
BBXX A8IM7 24184 99317 11562 41498 52522 10190 20167 40070 56015 75822 85/// 22225 20406 3//// 4//// 5//// 80175
BBXX ZCAO7 24184 99219 11266 41/98 80230 10198 20117 40186 58006 70282 8//// 22243 00261 2//// 80153
BBXX 46070 24181 99551 11753 46/// /0508 11017 21054 40220 58003 91750 22200 00036 10903 20603 3//// 40902 70017 333 91209 555 11084 22088 31741 40611 61749 050080 067082 094073 096067 088057 070066 80609 91741
BBXX 3FBC9 24184 99010 50973 41798 61107 10250 40104 51004 70322 84235 9//// 22233 00220 20300 316// 40303 5//// 6//// 80220
BBXX P3GY9 24184 99033 70470 41897 30819 10290 2025/ 40125 55010 70100 83188 22233 00290 20804 301// 41204 5//// 6//// 80260 ICE /////
BBXX WBP3210 24184 99526 50700 43/// /2432 10124 2//// 40125 5//// 7//// 8//// 22223 00121 2//// 3//// 4//// 5//// 6//// ICE /////
BBXX A8DE3 24183 99159 50746 41397 81404 10217 20198 40169 51003 70222 884// 22233 20101 317// 40706 80204
BBXX WCX7445 24184 99531 50709 43/// /2222 10138 2//// 40069 5//// 7//// 8//// 22200 00151 2//// 3//// 4//// 5//// 6//// ICE /////
BBXX UFTA 24181 99847 71249 11696 83208 11225 21253 40135 52005 69932 73832 885//
BBXX WDD6127 24184 99430 70369 41198 82221 10170 2015/ 40195 57005 7//00 8855/ 22224 00170 20202 320// 40707 5//// 6//// 80160 ICE /////
BBXX PDGS 24184 99255 71400 41598 61312 10190 40260 51010 72522 8442/ 22264 00220 20301 33111 41407 51004
BBXX WABS 24184 99434 71258 41697 81813 10094 20085 40312 54000 72822 886// 22243 0//// 20401 329// 41006 5//// 6//// 80089 ICE /////
BBXX WAZV 24184 99505 71314 41/// 91725 10085 20081 40141 57051 75054 8/// 22272 00080 21004 399// 4//// 5//// 6//// 80083 ICE 0////
BBXX KQXZ 24184 99574 71432 41898 81224 10061 2101/ 49880 57040 7//22 8//4/ 22233 0//// 20605 321// 41207 5//// 6//// 80033 ICE /////
BBXX J8AZ2 24183 99195 70670 41597 60819 10000 2000/ 40200 52005 7//11 84438 22263 0//// 20302 30907 40403 50505 6//// 80000 ICE /////
BBXX 46238 24181 99334 71195 46/// ///// 1//// 91750 22200 00140 11704 21001 329// 41704 70020
BBXX 51205 24181 99210 71564 46/// ///// 1//// 91748 22200 00236 11005 21005 301// 41102 70027
BBXX 46239 24181 99363 71221 46/// ///// 1//// 91751 22200 00132 11707 21002 329// 41707 70035
BBXX 44099 24181 99369 70757 46/// ///// 1//// 91752 22200 00120 10702 20702 70009
BBXX 46224 24181 99332 71175 46/// ///// 1//// 91736 22200 00142 11501 20501 319// 41501 70007
BBXX 42099 24181 99273 70842 46/// ///// 1//// 91757 22200 00234 10502 20502 70008
BBXX 41110 24181 99341 70777 46/// ///// 1//// 91751 22200 00141 10502 20502 70010
BBXX 46219 24181 99332 71199 46/// ///// 1//// 91758 22200 00136 11806 21002 330// 41806 70030
BBXX 46214 24181 99379 71235 46/// ///// 1//// 91753 22200 00121 11407 21002 330// 41407 70036
BBXX 44100 24181 99363 70756 46/// ///// 1//// 91752 22200 00126 10702 20702 70010
BBXX 41113 24181 99284 70805 46/// ///// 1//// 91751 22200 00225 11001 21001 70006
BBXX 46218 24181 99345 71208 46/// ///// 1//// 91802 22200 00135 11506 21002 330// 41506 70032
BBXX 46243 24181 99462 71241 46/// ///// 1//// 91759 22200 00082 11407 21004 326// 41406 70033
BBXX 46215 24181 99352 71209 46/// ///// 1//// 91738 22200 00137 11704 21001 325// 41704 70022
BBXX 46225 24181 99329 71174 46/// ///// 1//// 91744 22200 00143 12002 21001 326// 42001 70008
BBXX 46236 24181 99368 71219 46/// ///// 1//// 91750 22200 00123 11506 20902 328// 41506 70029
BBXX 46247 24181 99378 71228 46/// ///// 1//// 91751 22200 00118 11405 21002 329// 41405 70027
BBXX 46232 24181 99325 71174 46/// ///// 1//// 91738 22200 00148 11803 21001 328// 41802 70014
BBXX 46213 24181 99403 71247 46/// ///// 1//// 91754 22200 00098 11507 21003 329// 41507 70036
BBXX VOKJ 24184 99464 70724 46/// /3205 11162 21213 40348 58002 7//// 8//// 22213 0//// 2////
BBXX CGCC 24184 99463 70725 46/// /3602 11147 21208 40351 58002 7//// 8//// 22200 0//// 2////
BBXX VOFG 24184 99456 70614 46/// /3410 11049 21091 40222 55000 7//// 8//// 22200 0//// 2////
BBXX VAAP 24184 99489 70580 46/// /2818 11105 21157 40182 55001 7//// 8//// 22200 0//// 2////
BBXX CGJK 24184 99484 71234 46/// /0704 10075 20069 40297 51007 7//// 8//// 22200 0//// 2////
BBXX 44097 24181 99410 70711 46/// ///// 1//// 91802 22200 00118 11003 21002 321// 41101 70013
BBXX 44172 24181 99445 70634 46/// ///// 1//// 91801 22200 00063 11104 20903 320// 41102 70018
BBXX ZCDA9 24183 99264 71431 41298 81210 10192 20172 40285 53012 70222 887// 22265 00210 20202 332// 40606 5//// 80180
BBXX SHIP 24184 99294 71225 41997 10316 10150 2012/ 40305 53005 7//00 80009 22234 00190 20202 305// 40202 5//// 6//// 80130 ICE /////
BBXX VQAJ8 24183 99409 71257 41/98 13610 10100 20081 40308 57022 70100 81/40 22282 00125 20000 335// 40704 5//// 80091
BBXX KGTX 24184 99509 71325 41396 81730 10110 2009/ 40090 52006 75255 884// 22234 00086 20605 3//// 4//// 5//// 6//// 80100 ICE /////
BBXX SHIP 24184 99524 71524 41598 53432 10010 21016 40027 56010 70222 85/// 91800 22223 00050 2//// 3//// 4//// 80000
BBXX VOKF 24184 99490 70669 46/// /2414 11138 21183 40307 58005 7//// 8//// 22200 0//// 2////
BBXX VCWL 24184 99468 70712 46/// /2102 11138 21173 40352 50002 7//// 8//// 22200 0//// 2////
BBXX VOPP 24184 99456 70735 46/// /3502 11146 21186 4//// 5//// 7//// 8//// 22200 0//// 2////
BBXX CGSB 24184 99512 70586 46/// /3114 11190 21251 40179 56005 7//// 8//// 22261 00039 2////
BBXX CGDR 24184 99484 71234 46/// /0602 10080 20080 40299 51007 7//// 8//// 22200 0//// 2////
BBXX CZ9742 24184 99506 70969 46/// /1704 11064 21090 40108 56011 7//// 8//// 22200 0//// 2////
BBXX VRYO3 24184 99519 70509 46/// /0917 11082 21078 40058 51024 7//// 8//// 22264 00026 2////
BBXX CGDT 24184 99468 70712 46/// /2004 11115 21153 40352 50002 7//// 8//// 22200 0//// 2////
BBXX VCSZ 24184 99476 70596 46/// /3123 11083 21112 40187 51015 7//// 8//// 22274 0//// 2////
BBXX CGBR 24184 99518 71279 46/// /1703 10084 20083 40186 55002 7//// 8//// 22211 00073 2////
BBXX CGBY 24184 99487 71235 46/// /1308 10081 20071 40297 51008 7//// 8//// 22200 0//// 2////
BBXX VCLM 24184 99468 70712 46/// /2504 11124 21169 40347 50003 7//// 8//// 22200 0//// 2////
BBXX CGTF 24184 99476 70527 46/// /2104 11064 21100 40144 53011 7//// 8//// 22200 0//// 2////
BBXX CGDX 24184 99468 70712 46/// /1907 11133 21171 40351 50003 7//// 8//// 22200 0//// 2////
BBXX CGDG 24184 99447 70636 46/// /3410 11048 20002 40241 51004 7//// 8//// 22200 0//// 2////
BBXX 3FZK3 24184 99456 71228 46/// /1202 10048 20015 40332 53001 7//// 8//// 22200 0//// 2////
BBXX VCBW 24184 99483 70694 46/// /2308 11148 21209 40327 58001 7//// 8//// 22253 00021 2////
BBXX CG2958 24184 99543 71303 46/// /1705 10082 20049 40119 56032 7//// 8//// 22200 0//// 2////
BBXX CG2965 24184 99487 71235 46/// /1309 10078 20068 40299 53008 7//// 8//// 22200 0//// 2////
BBXX CGHL 24184 99476 70527 46/// /2901 11054 21102 40144 53012 7//// 8//// 22200 0//// 2////
BBXX CGBN 24184 99447 70636 46/// /3415 11046 21076 40240 51004 7//// 8//// 22200 0//// 2////
BBXX VOLG 24184 99446 70636 46/// /0212 11039 21086 40239 51006 7//// 8//// 22200 0//// 2////
BBXX VXKF 24184 99467 70599 46/// /3229 11077 21125 40195 55001 7//// 8//// 22254 0//// 2////
BBXX CGUM 24184 99456 70604 46/// /3418 11052 21093 40214 53006 7//// 8//// 22213 0//// 2////
BBXX 46041 24181 99474 71247 46/// /1609 10087 40292 55000 91750 22200 00083 11407 20803 3//// 41407 70037 333 91211 555 11096 22103 31738 41512 61749 155088 155088 156081 157086 154086 153081
BBXX 46026 24181 99378 71228 46/// /0807 10103 40314 56003 91750 22200 00115 11606 20401 328// 41606 70030 333 91209 555 11077 22081 31746 40909 61749 067072 289064 291063 296046 291042 296045
BBXX 46072 24181 99517 71722 46/// /0508 10001 21067 40150 56028 91750 22200 00046 11005 20501 3//// 41005 70026 333 91210 555 11085 22089 31725 40610 61749 054081 053072 061079 059067 060063 053063 80609 91744
BBXX 46077 24181 99579 71543 46/// /2307 11057 21113 40000 56006 91750 22200 00049 10603 20603 70013 333 91209 555 11075 22078 31716 42210 61749 230073 221067 225068 220066 217062 222065 82208 91741
BBXX 46061 24181 99602 71468 46/// /3608 10009 49959 58025 91750 22200 00059 11604 20502 300// 41604 70020 333 91210 555 11080 22083 31650 43610 61749 358076 358066 355059 353060 001059 010061
BBXX 46082 24181 99597 71434 46/// ///// 10040 49957 56023 91750 22200 00063 11005 70026
BBXX 46035 24181 99571 71778 46/// /3609 1//// 40232 57007 91750 22200 10805 20704 300// 40804 70027 333 91211 555 11086 22092 31735 40114 61749 002086 008102 013096 016090 019099 016084 80113 91735
BBXX 51101 24181 99243 71621 46/// /0810 10229 20180 40232 53013 91750 22200 00237 10907 20906 300// 41103 70033 333 91212 555 11107 22113 31707 40914 61749 085102 090105 086097 080100 081109 080109
BBXX VCRG 24184 99463 70623 46/// /3614 11062 21090 40244 55000 7//// 8//// 22252 00082 2////
BBXX 42057 24181 99168 70815 46/// /0810 10280 20228 40156 58013 91750 22200 00277 10705 20704 3//// 41002 70023 333 91212 555 11097 22103 31747 40912 61749 081097 079095 073094 070095 072098 067100 80811 91736
BBXX 41040 24181 99145 70530 46/// /0505 10264 20213 40142 58021 91750 22200 00276 10605 20502 3//// 40604 70023 333 91207 555 11057 22059 31725 40608 61749 055055 063054 053056 057057 061056 063054 80606 91725
BBXX 41009 24181 99285 70802 46/// /0107 10243 20209 40239 58011 91750 22200 00244 11002 20402 300// 41001 70011 333 91208 555 11070 22075
BBXX 41010 24181 99289 70785 46/// /0204 10233 40238 58010 91750 22200 00239 10803 20401 300// 40802 70013 333 91204 555 11039 22040
BBXX 42039 24181 99288 70860 46/// /0707 10186 40244 91750 22200 00231 10503 20503 70013 333 91209 555 11076 22079 31710 40610 61749 071072 070073 068075 063079 062077 064079 80608 91651
BBXX PBBB 24183 99383 70552 41596 83311 10180 20151 40130 52010 70282 8/893 22263 00200 20406 322// 41209 5//// 80162
BBXX BATFR16 24184 99241 70525 44698 40617 10257 20192 40191 56017 70300 84430 22254 00257 20904 304// 40904 5////
BBXX PHBO 24183 99224 70683 41598 30724 10262 20208 40198 58022 70180 82240 22214 20504 309// 41204 80226
BBXX LAIG7 24184 99322 71710 41797 71623 10210 2021/ 40220 57010 70322 8797/ 22223 00210 20406 332// 41306 5//// 6//// 80210 ICE /////
BBXX KRGB 24184 99289 71449 41398 43605 10200 2016/ 40260 52020 715// 84900 22254 00189 20201 327// 40805 5//// 6//// 80178 ICE /////
BBXX WSRL 24184 99434 71340 41498 61925 10130 2010/ 40214 55006 70222 865// 22214 00111 2//// 327// 40907 5//// 6//// 80115 ICE /////
BBXX 42085 24181 99179 70665 46/// /1009 10273 40155 91740 333 91211
BBXX 44007 24181 99435 70701 46/// /3504 11052 21128 40296 54000 91750 22200 00077 11001 20401 3//// 41001 70006 333 91206 555 11044 22045 31703 40108 61749 350042 357047 344049 347045 001051 007057
BBXX BAREU04 24184 99419 70663 46/// ///// 40224 52003 22252
BBXX BAREU05 24184 99456 70735 46/// ///// 40350 22200
BBXX C6TQ6 24184 99258 70885 41797 30924 10260 20232 40220 54000 70211 831// 22284 00260 20404 30908 40404 50404 6//// 80240 ICE /////
BBXX WDE2719 24183 99607 71514 41/97 33405 11150 2//// 40010 57/// 702// 8//// 222// 01022 2//00 3//// 4//// 5//// 6//// 8//// ICE /////
BBXX KEY796 24183 99571 71703 41/97 83615 11067 21111 40168 56/// 726// 8//// 222// 01011 2//// 3//// 4//// 5//// 6//// 8//// ICE /////
BBXX 44065 24181 99404 70737 46/// /3205 10013 21060 40296 57004 91750 22200 00095 10301 20301 314// 40901 70006 333 91207 555 11049 22050 31715 43409 61749 322047 328052 323059 326069 344067 337064 83508 91711
BBXX 46105 24181 99590 71522 46/// ///// 1//// 91750 22200 10704 70022
BBXX 41004 24181 99325 70791 46/// /0310 10154 20100 40277 58004 91750 22200 00218 10604 20604 70021 333 91212 555 11108 22113 31711 40313 61749 033101 028101 029103 028105 024101 029103
BBXX 44020 24181 99414 70702 46/// /3509 11002 21068 40274 55000 91750 22200 00070 10402 20402 70008 333 91212 555 11093 22099 31748 43512 61749 341086 269087 272082 271084 271083 273086
BBXX 44027 24181 99443 70673 46/// /3510 11083 21101 40275 53008 91750 22200 00078 10403 20403 3//// 41001 70015 333 91212 555 11103 22107 31651 43513 61749 350098 349100 350099 347101 351106 350099
BBXX 44009 24181 99385 70747 46/// /3408 10053 40304 58009 91750 22200 00109 10502 20502 300// 40801 70009 333 91211 555 11088 22092 31744 43411 61749 336082 344081 336068 339070 346065 343064
BBXX 41013 24181 99334 70777 46/// /0111 10131 20057 40275 58008 91750 22200 00196 10604 20604 70018 333 91214 555 11120 22125 31744 40114 61749 015112 019108 022105 019105 025106 024103
BBXX 44014 24181 99366 70748 46/// /3508 1//// 40280 58010 91750 22200 00140 10602 20602 333// 41001 70010 333 91211 555 11084 22084 31743 43511 61749 353084 348086 354083 355082 355079 351072
BBXX 46014 24181 99394 71240 46/// /1503 10097 40322 54000 91750 22200 00109 11607 20401 3//// 41607 70037 333 91204 555 11031 22032 31738 41305 61749 154030 155030 158030 156030 165026 168027
BBXX 46088 24181 99483 71232 46/// /1302 10072 40297 91750 22200 00079 1//00 70002 333 91202 555 11018 22018 31654 41704 61749 132016 162013 179014 184023 178027 172034
BBXX 46054 24181 99342 71204 46/// /1103 10133 40288 52005 91750 22200 00136 11606 20401 300// 41606 70029 333 91204 555 11031 22033 31735 41005 61749 110029 099030 096026 088025 090024 074025
BBXX 46028 24181 99357 71219 46/// /3201 10124 40294 52003 91750 22200 00133 11606 20401 329// 41606 70032 333 91201 555 11007 22007 31705 43303 61749 318006 325010 332014 341015 342018 003017
BBXX 46025 24181 99337 71191 46/// /1202 10147 20123 40281 51009 91750 22200 00147 11902 20401 331// 41902 70010 333 91202 555 11016 22017 31703 41003 61749 117015 077006 098013 105019 087023 081022
BBXX 46087 24181 99485 71247 46/// /1207 10084 20083 40283 52003 91750 22200 00086 333 91209 555 11075 22079 31745 41109 61749 118070 115066 117059 112057 110063 110063
BBXX 46029 24181 99461 71245 46/// /1909 10091 20081 40302 55000 91750 22200 00090 11406 20703 329// 41405 70028 333 91211 555 11095 22102 31701 41811 61749 186090 186087 186082 186088 183093 179091
BBXX 46086 24181 99325 71180 46/// /0202 10145 40282 52007 91750 22200 00148 11903 331// 41903 70017 333 91203 555 11024 22025 31651 40304 61749 018023 025018 038012 039020 032022 024030
BBXX 46047 24181 99324 71195 46/// /3502 10134 40286 51008 91750 22200 00135 11705 20401 329// 41705 70025 333 91202 555 11018 22018 31658 43404 61749 352017 357016 346018 350022 354023 351027
BBXX 46027 24181 99419 71244 46/// /1303 10097 40312 56009 91750 22200 00089 11506 20401 329// 41506 70031 333 91204 555 11031 22036 31716 41105 61749 129027 119029 113027 116032 122025 108025
BBXX 46069 24181 99337 71202 46/// /3503 10144 40289 53008 91750 22200 00141 11705 20401 330// 41705 70026 333 91204 555 11034 22038 31723 40305 61749 348030 352034 018043 021038 040032 041025
BBXX 46013 24181 99382 71233 46/// /0906 10088 40317 54000 91750 22200 00115 11606 20301 3//// 41606 70032 333 91207 555 11058 22060 31730 41008 61749 087056 089061 086059 085060 088058 091058
BBXX 46011 24181 99350 71210 46/// /0403 10124 40295 52004 91750 22200 00136 11606 20301 329// 41606 70030 333 91204 555 11031 22032 31717 40705 61749 037031 052036 062039 060039 064036 055030
BBXX 46050 24181 99442 71246 46/// /2105 10090 40316 52005 91750 22200 00097 11407 20401 328// 41407 70037 333 91206 555 11050 22053 31650 42007 61749 209048 208050 201049 202049 203054 205057
BBXX 46012 24181 99374 71229 46/// /0405 10115 40309 55000 91750 22200 00121 11608 20401 329// 41608 70039 333 91207 555 11056 22059 31657 40507 61749 035053 040047 035047 043046 041051 035059
BBXX 44025 24181 99402 70732 46/// /3306 10012 21053 40290 54000 91750 22200 00106 10901 20401 317// 40901 70007 333 91208 555 11067 22069 31732 43309 61749 330064 338062 339059 329068 320063 327069
BBXX 41008 24181 99314 70809 46/// /0309 10163 20140 40269 58003 91750 22200 00165 10603 20603 300// 41001 70014 333 91211 555 11094 22100 31748 40411 61749 030087 028087 029082 026081 026081 030081
BBXX 46080 24181 99580 71500 46/// /3110 10002 21041 49961 58013 91750 22200 00056 11305 20603 3//// 41303 70023 333 91212 555 11100 22105 31719 43012 61749 306095 308091 304092 309094 308095 306096 83110 91658
BBXX 46005 24181 99461 71310 46/// ///10 10108 40212 52003 91750 22200 00100 11307 20805 3//// 41305 70034 333 91212 555 11107 22115
BBXX 46002 24181 99426 71305 46/// ///// 10120 40275 55000 91750 22200 00122 11306 70032
BBXX 46075 24181 99539 71608 46/// /3209 11026 21069 40093 54000 91750 22200 00047 10604 20604 300// 41002 70020 333 91212 555 11099 22103 31711 43216 61749 323094 327077 330073 316124 313116 312091 83214 91711
BBXX 46006 24181 99408 71375 46/// /1912 10131 40192 56011 91750 22200 00122 11207 20706 3//// 41203 70034 333 91215 555 11125 22135 31730 41815 61749 191116 180112 179112 175109 172106 171106
BBXX 46084 24181 99566 71361 46/// /1215 10074 20017 49990 56064 91750 22200 00076 11108 20706 300// 41105 70041 333 91217 555 11158 22169 31749 41217 61749 118146 116140 117142 113144 116129 113142
BBXX 46059 24181 99380 71300 46/// /1806 10125 40311 55000 91750 22200 00146 11305 20401 3//// 41305 70027 333 91207 555 11059 22061 31656 41808 61749 183057 193055 201056 195055 198057 190060
BBXX 42059 24181 99151 70675 46/// /0805 10263 20216 40149 58020 91750 22200 00278 10705 20402 3//// 40705 70025 333 91207 555 11049 22051 31705 40713 61749 080047 094058 092088 080098 068106 079071 80711 91702
BBXX 42019 24181 99279 70954 46/// /0912 10196 20182 40204 58015 91750 22200 10705 20705 70027 333 91214 555 11123 22132 31717 42815 61749 081115 282121 282123 282127 282122 284123
BBXX 42056 24181 99198 70849 46/// /0806 10264 20202 40181 58011 91750 22200 00272 11003 20502 312// 41002 70013 333 91207 555 11060 22063 31701 40708 61749 075058 073059 072058 070059 071060 073058 80707 91701
BBXX 42003 24181 99260 70856 46/// /0906 1//// 91750 22200 10502 20502 318// 40901 70010 333 91208 555 11068 22073 31701 40808 61749 085064 085066 082068 085067 080067 082068 80907 91708
BBXX 44005 24181 99432 70691 46/// /0109 11046 21093 40282 51010 91750 22200 00083 10604 20604 3//// 40901 70019 333 91211 555 11091 22094 31717 40113 61749 005086 002090 004094 004100 011093 010094
BBXX 44066 24181 99396 70726 46/// /3310 10033 21029 40280 58003 91750 22200 00123 10503 20503 3//// 40801 70014 333 91212 555 11101 22105 31727 43212 61749 326095 325092 323095 326095 322086 322096
BBXX 42058 24181 99149 70749 46/// /0711 10272 20223 40126 58020 91750 22200 00273 11006 20805 309// 41004 70030 333 91213 555 11116 22123 31709 40714 61749 074108 077111 077112 077112 069112 070115 80812 91655
BBXX 42036 24181 99285 70845 46/// /0406 10189 20172 40246 58004 91750 22200 00218 10502 20502 320// 40701 70009 333 91207 555 11063 22065 31650 40407 61749 037060 035059 036059 040057 040056 045056
BBXX 41060 24181 99148 70510 46/// ///// 1//// 91750 22200 11104 70019
BBXX 41044 24181 99217 70587 46/// /0506 10248 20196 40192 58017 91750 22200 00263 333 91207 555 11059 22061
BBXX 42035 24181 99292 70944 46/// /0611 10112 20104 40252 50000 91750 22200 00158 10603 20603 70017 333 91214 555 11113 22119 31653 40714 61749 059106 058111 064110 062110 067106 066114
BBXX WKAB 24184 99215 10376 41998 03620 10243 20210 40160 52011 70100 80000 22235 00249 2//// 3//// 4//// 5//// 6//// 80220 ICE /////
BBXX A8QJ7 24184 99288 70159 41598 70515 10195 20124 40248 58006 7//22 86870 22283 20502 3//// 4//// 5//// 80155
BBXX BATFR19 24184 99066 30057 46/// /1816 10239 20202 40111 53009 22200 00255
BBXX BATFR55 24184 99068 30395 44598 10710 10282 20257 40111 70000 81100 22232 00287 205// 32121 407// 507//
BBXX BATFR08 24184 99284 30661 46/// /0917 10222 20142 40226 51006 22273 00230
BBXX A8AX3 24183 99050 70105 41597 11406 10300 40112 54000 70000 81100 22234 2//// 316// 40502
BBXX TBWUK18 24184 99342 30146 41098 21120 10180 20180 40185 57010 70200 821// 22222 20802 319// 41605 5//// 80180
BBXX 41048 24181 99320 70696 46/// /2509 10226 20191 40211 58019 91750 22200 00231 10804 20804 70018 333 91211 555 11091 22096 31714 42711 61749 252091 254091 256092 254090 248085 244087 82510 91720
BBXX 42060 24181 99163 70635 46/// /0607 10271 20213 40160 58021 91750 22200 00275 10704 20704 300// 40802 70021 333 91209 555 11076 22080 31653 40710 61749 064073 065076 062077 063083 059084 066084 80609 91653
BBXX 42040 24181 99292 70882 46/// /0708 10148 40262 58012 91750 22200 00225 10603 20602 70013 333 91210 555 11081 22084 31654 40511 61749 069081 067084 058080 060084 056086 050093
BBXX 42002 24181 99258 70937 46/// /0811 10234 20226 40203 58011 91750 22200 00231 10705 20705 70023 333 91213 555 11113 22121 31703 40914 61749 083112 083109 084110 084110 085117 083106
BBXX 41043 24181 99211 70650 46/// /0808 10252 20217 40197 58024 91750 22200 00259 10805 20703 300// 40804 70024 333 91210 555 11086 22091 31744 40810 61749 082081 085082 084076 073078 074075 076080 80809 91740
BBXX 41049 24181 99275 70630 46/// /0703 10224 20167 40232 58022 91750 22200 00239 10703 20401 300// 40703 70015 333 91204 555 11033 22034 31655 40805 61749 067033 067033 076034 063035 066038 064040 80704 91651
BBXX 42065 24181 99149 70750 46/// /0709 10274 20217 91750 22200 11006 20804 3//// 41004 70031 333 91211 555 11092 22098 31704 40713 61749 065088 069099 069103 070109 073103 072104 80712 91714
BBXX 41036 24181 99342 70770 46/// ///// 10122 20025 40282 58006 91750 22200 00186 10402 70012
BBXX 42055 24181 99222 70940 46/// /1206 10255 20225 40185 58012 91750 22200 00254 10702 20501 300// 40702 70012 333 91207 555 11061 22065 31654 41209 61749 114057 115050 115051 112062 117069 116070 81208 91654
BBXX 42012 24181 99301 70876 46/// /0406 10132 20086 40269 58010 91750 22200 00197 10502 20502 318// 40801 70009 333 91208 555 11057 22059 31707 40409 61749 043056 048063 036063 041068 039071 043072
BBXX 41047 24181 99275 70715 46/// /0904 10231 40241 58021 91750 22200 00248 10903 20401 312// 40903 70014 333 91205 555 11036 22037 31655 40906 61749 086035 065030 067037 073043 082047 085047 80905 91655
BBXX 42020 24181 99270 70967 46/// /0910 10217 20197 40182 58018 91750 22200 00229 10807 20807 311// 41102 70035 333 91212 555 11105 22112 31711 41015 61749 090100 099108 098112 097117 094108 095104
BBXX 42001 24181 99259 70897 46/// /1206 10247 20211 40231 58009 91750 22200 00244 10802 20401 3//// 40802 70012 333 91207 555 11060 22065 31652 41408 61749 124057 125057 126059 128061 128063 133068
BBXX 41001 24181 99347 70727 46/// ///// 10167 20089 40249 58009 91750 22200 00235 10704 70021
BBXX 41012 24181 99300 70805 46/// /0405 10230 40246 58011 91750 22200 00237 333 91206 555 11049 22052 31656 40207 61749 032046 042043 031044 023051 022051 019056
BBXX KGTY 24184 99540 71361 41898 72126 10067 2005/ 49985 5//// 70255 85/9/ 22274 00056 20807 32122 41010 51209 6//// 80061 ICE /////
BBXX C6SI3 24183 99500 71540 41/95 23223 10030 2001/ 40110 51010 72077 82263 22213 00050 21201 3//// 41002 5//// 6//// 80020 ICE /////
BBXX WDJK 24184 99546 71418 41597 72123 10055 20042 49885 57006 70222 8754/ 22274 00060 20805 326// 41209 5//// 6//// 80049 ICE /////
BBXX DDAC2 24180 99228 71112 41998 00209 10180 20131 40170 54000 7//00 80000 22273 04230 2//// 301// 40506 5//// 80150
BBXX CG2960 24184 99426 70825 46/// /2603 10018 21022 40281 58017 7//// 8//// 22211 00052 2////
BBXX CG2350 24184 99433 70798 46/// /0803 11005 21077 40307 58017 7//// 8//// 22200 0//// 2////
BBXX CGDS 24184 99447 70755 46/// /0603 11103 21130 4//// 5//// 7//// 8//// 22251 00057 2////
BBXX C6OT4 24184 99170 71302 41598 80824 10255 20169 40188 54000 72566 888// 22223 04232 20907 308// 41006 5//// 80201
BBXX FVNM 24184 99089 70795 46/// /2802 10302 20234 40086 58026 22200 00279
BBXX WDC6698 24184 99088 71476 43/// /1808 1//// 2//// 40110 5//// 7//// 8//// 222// 04261 2//// 3//// 4//// 5//// 6//// 8//// ICE /////
BBXX V7OQ6 24184 99359 70341 41696 51315 10200 20185 40310 56020 70522 85445 22264 00260 20101 332// 40202 5//// 6//// 80190 ICE /////
BBXX DBBH 24181 99376 70010 41/98 /0202 10136 20093 40304 52011 7//// 22200 04162
BBXX 62087 24181 99547 10068 46/// /9901 10080 20053 4//// 5//// 22230 00080
BBXX DBBI 24181 99535 10100 46/// /2604 10048 20044 40232 52029 22200 00038
BBXX WDC6925 24184 99500 70024 41898 52835 10110 20072 40295 54000 78262 83268 22253 00120 20302 327// 40606 5//// 6//// 80090 ICE /////
BBXX DDSB2 24183 99445 70293 41/96 82318 10155 20139 40260 57010 71022 8/7// 22214 29903 328// 40905 80145
BBXX DK7210 24181 99540 10066 46/// /2513 10080 20077 30202
BBXX C6LU3 24183 99468 70165 41598 82118 10135 2011/ 40370 57010 70211 886// 22214 20504 80120
BBXX SCKB 24183 99491 70267 41496 82130 10140 2//// 40150 56030 70022 8//// 22233 00100 20306 322// 40616 5//// 6//// 8//// ICE /////
BBXX BATFR56 24184 99101 30726 44598 31112 10275 20274 40102 56015 76000 83805 22213 00299 20606 31308 40606 50602
BBXX BATFR28 24184 99018 11025 46/// /0715 10254 20235 40091 50002 22263 00287
BBXX BATFR53 24184 99188 51623 44598 40119 10269 20229 40112 51020 72500 83362 22222 00282 202// 305// 40304 5//// 60/// ICE 0////
BBXX BATFR43 24184 99205 51661 46/// /0409 10274 20242 40094 53014 22263 00284
BBXX DBLK 24181 99683 30001 41397 70710 11024 21038 49752 57028 77172 8387/ 22281 05012 ICE 56195
AAXX 24181 37575 41092 91602 10031 21013 39549 40141 52001 74544 333 10060
AAXX 24181 37675 42495 81401 10007 21010 39470 40143 52008 8802/ 333 10026 555 53004
AAXX 24181 37735 41/91 /0000 10034 20029 39753 40133 58005 74542 333 10058
AAXX 24181 37749 41596 82302 10062 20041 30054 40171 52009 71022 885// 333 10080 555 53002
AAXX 24181 37756 41/93 90000 10021 20021 39372 40182 52008 74541 333 10074
AAXX 24181 37864 32597 80000 10072 20051 40133 50007 885// 333 10085 88620
AAXX 24181 37985 41495 80000 10073 20062 30145 40131 51003 75055 886// 333 10088
AAXX 24181 63332 NIL
AAXX 24181 6333342980 00000 10160 20087 38171 40190 333 10265 59004
AAXX 24181 63334 42980 02701 10146 20060 37636 40136 333 10242 58003
AAXX 24181 63340 42580 63101 10190 20108 37950 40173 85830 333 10250 58010 81825 84626 86358
AAXX 24181 63402 NIL
AAXX 24181 63450 42580 10503 10160 20057 37747 40146 81500 333 10242 58005 81625
AAXX 24181 63451 42980 00000 1//// 2//// 38152 4//// 333 10275 58005
AAXX 24181 63453 NIL
AAXX 24181 63460 NIL
AAXX 24181 63471 NIL
AAXX 24181 63478 NIL
AAXX 24181 NNNN
AAXX 24181 10004 46/60 /2412 10077 20054 30223 40223 50001 222// 00078 333 10081 20062 55300 91117 91213
AAXX 24184 78905 11476 70812 10273 20201 30136 40159 69971 70381 87860 333 10291 20240 58005 70010 87817 90936
AAXX 24184 93004 16/// /1112 10148 20130 40210 52002 60001
AAXX 24184 93023 16/// /1703 10135 20121 40224 52006 60001
AAXX 24184 93069 16/// /1307 10164 20119 40223 52007 60001
AAXX 24184 93110 17898 /0000 10152 20133 40220 52002 60001
AAXX 24184 93186 17698 /2203 10159 20143 40222 52002 60001
AAXX 24184 93196 16/// /1711 10139 20101 40217 57007 60001
AAXX 24184 93245 16498 /0801 10140 20112 40224 57004 60001
AAXX 24184 93292 17/98 /3302 10096 20095 40233 57001 60001
AAXX 24184 93309 17/98 /1606 10121 20107 40216 54000 60001
AAXX 24184 93334 16/// /0903 10056 20045 39272 52002 60001
AAXX 24184 93339 16/// /0603 10079 20054 39277 52002 60001
AAXX 24184 93373 17/98 /2401 10120 20100 40231 52001 60001
AAXX 24184 93404 17/98 /0601 10132 20096 40222 54000 60001
AAXX 24184 93420 17/98 /1102 10129 20114 40220 52001 60001
AAXX 24184 93439 17/98 /0603 10141 20106 40220 57001 60001
AAXX 24184 93498 16/// /0304 10127 20100 40229 52002 60001
AAXX 24184 93515 17/98 /1807 10152 20123 40218 57001 60001
AAXX 24184 93527 16/// /0104 10164 20163 40214 52001 60001
AAXX 24184 93546 17/98 /1902 10144 20126 40216 52005 60001
AAXX 24184 93597 16/// /1710 10148 20125 40214 57001 60001
AAXX 24184 93615 17497 /0000 10158 20142 40222 57002 60001
AAXX 24184 93678 16/98 /0000 10130 20124 40221 52001 60001
AAXX 24184 93709 16/// /0000 10122 20114 40221 52002 60001
AAXX 24184 93773 17196 /2301 10120 20120 40218 52003 60001
AAXX 24184 93781 17498 /0206 10136 20124 40221 52001 60001
AAXX 24184 93800 NIL
AAXX 24184 93805 NIL
AAXX 24184 93831 17/95 /0402 10119 20119 40224 52003 60001
AAXX 24184 93845 17998 /0205 10123 20118 40207 57001 60001
AAXX 24184 93891 17/98 /0000 10126 20119 40212 52001 60001
AAXX 24184 93909 16/// /3328 10138 20125 40192 52001 60001
AAXX 24184 93929 16/// /9901 10104 20103 40123 52004 69981
AAXX 24184 93947 16/// /3109 10110 20109 40100 57008 60021
AAXX 24184 93987 16/// /2405 10122 20109 40233 57001 60001
AAXX 24184 93994 NIL
AAXX 24181 26554 11456 81905 11026 21056 39968 40135 57004 69922 77072 8872/ 333 11020 87714 91110
AAXX 24184 78958 12578 31114 10295 20225 30126 40136 83202 333 10306 20244 58012 83822
AAXX 24184 91925 02581 31101 10284 20209 30069 40129 50008 60001 82202 333 56209 60007 82820 90710 91107 555 60005 10507 58000
AAXX 24184 91929 04564 /0914 10282 20233 30137 40140 51015 69902 700// 333 10282 20263 60007 90710 91120 555 60005
AAXX 24184 91938 01465 22106 10291 20221 30148 40150 51014 69922 715// 82800 333 10292 20238 60007 82816 90710 91110 555 60005 10710 58009
AAXX 24184 91943 36/// /1010 10284 20204 30144 40146 51016 333 10284 58008
AAXX 24184 91944 06/// /1013 10276 20209 30163 40166 51013 69942 333 10276 20243 69927 90710 91122 555 60005
AAXX 24184 91948 01481 61112 10261 20197 30099 40201 50009 69941 70286 86800 333 56200 60007 85818 90710 91119 555 60005 11319 59001
AAXX 24184 91954 06/// /0616 10277 20226 30177 40180 51012 60001 333 60007 555 58012
AAXX 24184 91958 02582 20506 10256 20208 30209 40211 51007 60001 82200 333 56100 60007 82823 90710 91108 555 60005 10409 58005
AAXX 24184 91945 NIL
AAXX 24181 26038 01040 82002 10032 20029 30008 40049 51011 60042 76162 887// 333 10035 20013 60017 88501 555 1/002 20013 3/000 50013 52000
AAXX 24181 26045 NIL
AAXX 24181 26058 NIL
AAXX 24181 26115 NIL
AAXX 24181 26135 01142 82302 10004 20003 39984 40059 52006 69992 76166 8872/ 333 10006 21010 69957 88503 555 1/000 21010 3/101 51010 52101
AAXX 24181 26141 NIL
AAXX 24181 26231 01026 82006 10029 20027 30044 40059 52005 60052 76162 8872/ 333 10029 20013 60017 88501 91008 91111 555 1/000 20013 3/100 50010
AAXX 24181 26242 01256 82003 10002 21009 39983 40070 52004 69952 76165 8872/ 333 10002 21018 69927 88505 91110 555 1/100 21018 3/101 51015 52102
AAXX 24181 26247 NIL
BBXX DDSC2 24183 99455 70159 41298 82516 10130 20063 40360 56010 70200 8677/ 22264 00137 20402 329// 41006 80095
BBXX UANA 24181 99697 10468 41/92 81819 10009 49892 57002 76565 80020 22241 00017 21016
BBXX UCKD 24181 99547 70002 41/97 92215 10112 40136 57020 70211 89/// 22213 00090 20603
BBXX PHQW 24183 99340 70136 41297 80222 10160 20090 40280 54000 70222 887// 22283 00185 20201 303// 40604 80121 90743
BBXX UFJN 24181 99724 10483 41/98 82114 11030 49854 54000 70022 88/// 22200 0//// 20502
AAXX 24184 78958 12578 31114 10295 20225 30126 40136 83202 333 10306 20244 58012 83822
AAXX 24184 47101 32970 00201 11125 21160 30174 40278 52013
AAXX 24184 47105 369// /2710 11067 21206 30198 40232 52008
AAXX 24184 47108 32970 02708 11082 21188 30171 40284 52012
AAXX 24184 47115 41540 72905 11029 21055 39914 40196 52012 78588 87800 333 92042
AAXX 24184 47133 32968 03402 11073 21129 30199 40289 52014
AAXX 24184 47138 32970 02706 11032 21165 30244 40247 52010 333 92032
AAXX 24184 47159 32970 02710 11032 21143 30165 40255 52011 333 92023
AAXX 24184 47165 41670 63615 10002 21050 30230 40279 53010 72682 86500 333 92024
AAXX 24184 47168 32670 23411 11019 21093 30184 40267 52011 82500 333 92024
AAXX 24184 47184 41562 73417 10031 20006 30253 40279 52014 78387 87800 333 92055
AAXX 24181 38353 429// 01801 11001 21092 39279 40195 58008 333 10103
AAXX 24181 38613 429// 00201 11023 21070 40225 54000 333 10072
AAXX 24181 38616 425// 61801 11026 21042 39176 40221 53006 82501 333 10050
AAXX 24181 38345 32998 40901 11038 21091 38766 48463 58007 80002 333 10082
AAXX 24181 36911 429// 00903 10032 21025 39219 40214 54000 333 10091
AAXX 24181 36974 329// 03601 11232 21250 38007 48610 51002 333 11150
AAXX 24181 36982 429// 00000 11252 21299 36506 47197 58002
BBXX 3FYB3 24184 99512 71331 41/// /1725 10090 20070 40100 56010 745// 8//// 22274 04100 20808 320// 4//// 5//// 6//// 80080 ICE /////
BBXX 3FZK3 24184 99456 71228 46/// /1202 10048 20015 40332 53001 7//// 8//// 22200 0//// 2////
BBXX 46001 24181 99563 71480 46/// /3310 10025 49947 57006 91750 22200 00046 11509 20403 300// 41508 70043 333 91213 555 11106 22112 31731 43413 61749 328099 322100 327099 327099 329096 327099
BBXX 46026 24181 99378 71228 46/// /0807 10103 40314 56003 91750 22200 00115 11606 20401 328// 41606 70030 333 91209 555 11077 22081 31746 40909 61749 067072 289064 291063 296046 291042 296045
BBXX 4XIS 24183 99355 71459 43498 42820 10150 20080 40280 54000 8312/ 22224 20606 327// 41008 80105
BBXX CG2958 24184 99543 71303 46/// /1705 10082 20049 40119 56032 7//// 8//// 22200 0//// 2////
BBXX CG2965 24184 99487 71235 46/// /1309 10078 20068 40299 53008 7//// 8//// 22200 0//// 2////
BBXX CGBR 24184 99518 71279 46/// /1703 10084 20083 40186 55002 7//// 8//// 22211 00073 2////
BBXX CGBY 24184 99487 71235 46/// /1308 10081 20071 40297 51008 7//// 8//// 22200 0//// 2////
BBXX CGDR 24184 99484 71234 46/// /0602 10080 20080 40299 51007 7//// 8//// 22200 0//// 2////
BBXX CGJK 24184 99484 71234 46/// /0704 10075 20069 40297 51007 7//// 8//// 22200 0//// 2////
BBXX KQXZ 24184 99574 71432 41898 81224 10061 21010 49880 57040 7//22 8//4/ 22233 0//// 20605 321// 41207 5//// 6//// 80033 ICE /////
BBXX WAZV 24184 99505 71314 41/// 91725 10085 20081 40141 57051 75054 22272 00080 21004 399// 4//// 5//// 6//// 80083 ICE 0////
BBXX WDJK 24184 99546 71418 41597 72123 10055 20042 49885 57006 70222 8754/ 22274 00060 20805 326// 41209 5//// 6//// 80049 ICE /////
AAXX 24184 47090 32973 02915 11044 21258 30199 40222 53002 333 92034
AAXX 24184 47095 32970 00001 11145 21189 30078 40284 52013
AAXX 24184 47097 329// /3602 11091 21176 30181 40284 52014
AAXX 24184 47098 329// /1602 11105 21169 30135 40279 52008
AAXX 24184 47099 329// /1402 11126 21158 30245 40284 52009
AAXX 24184 47100 32970 02504 11149 21209 39276 40264 52013
AAXX 24184 47102 32970 00207 11053 21112 30108 40296 52011
AAXX 24184 47104 32970 02307 11069 21223 30129 40232 52011
AAXX 24184 47106 329// /2709 11055 21224 30176 40228 52012
AAXX 24184 47112 32970 03410 11058 21153 30196 40285 52011 333 92023
AAXX 24184 47114 32968 02304 11091 21202 30084 40279 52013
AAXX 24184 47119 32970 03203 11075 21145 30243 40288 52014
AAXX 24184 47121 329// /2902 11100 21182 39960 40275 52016
AAXX 24184 47127 329// /2002 11100 21167 30134 40286 52015
AAXX 24184 47129 32970 03413 11031 21133 30256 40293 52015
AAXX 24184 47130 32970 02007 11057 21201 30167 40232 52015 333 92033
AAXX 24184 47131 32970 03202 11063 21155 30212 40287 52014
AAXX 24184 47135 329// /2711 11064 21131 39960 40275 52014
AAXX 24184 47136 32970 02905 11073 21175 30080 40262 52011
AAXX 24184 47137 329// /2301 11064 21172 30147 40272 52012
AAXX 24184 47140 41568 70202 11044 21068 30258 40288 52014 72688 87800 333 92012
AAXX 24184 47143 32970 02706 11043 21134 30190 40273 52010
AAXX 24184 47145 32970 03205 11067 21147 30254 40282 52014
AAXX 24184 47146 32663 23402 11047 21076 30216 40285 52014 81500
AAXX 24184 47150 32668 60205 11033 21089 30264 40284 52013 85500
AAXX 24184 47152 32970 02906 11035 21129 30202 40247 52011
AAXX 24184 47154 329// /2908 11051 21134 30206 40270 52010
AAXX 24184 47155 32970 00702 11029 21134 30212 40260 52011
AAXX 24184 47156 41561 50505 11032 21038 30189 40282 52009 78588 85800
AAXX 24184 47157 32973 03208 11040 21126 39971 40253 52008
AAXX 24184 47162 32970 00502 11023 21103 30220 40262 52010 333 92021
AAXX 24184 47169 32670 63621 10030 21042 30178 40274 52009 86500 333 92066
AAXX 24184 47170 41670 53408 10000 21042 30232 40277 52007 72682 85500 333 92023
AAXX 24184 47171 41561 63601 11044 21060 30229 40287 52011 78582 86800
AAXX 24184 47172 429// /3605 11036 21051 30208 40278 52009
AAXX 24184 47173 329// /3403 11048 21083 30166 40283 52011
AAXX 24184 47174 41562 62707 11040 21067 30060 40272 52012 78588 86800
AAXX 24184 47175 41565 63415 11043 21051 39679 40278 52011 72682 86500 333 92024
AAXX 24184 47185 32665 53229 10049 21022 30172 40265 53003 85500 333 92057
AAXX 24184 47188 41558 60205 10018 21009 30248 40271 52008 78588 86800 333 92032
AAXX 24184 47189 42668 53407 10039 21027 30206 40267 53006 85500 333 92033
AAXX 24184 47192 32673 40201 11025 21110 30226 40265 53010 84500
AAXX 24184 78016 11464 52318 10230 20182 30202 40206 57025 69951 70381 82504 333 10232 20200 70005 90945
AAXX 24184 17026 11570 83212 10061 20018 30122 40162 52018 60032 70262 8552/ 333 10068 85628 88458 91023 91124 92448
AAXX 24184 17034 11560 72204 10062 20036 30117 40164 52022 60082 78082 84270 333 10106 84830 87359 92437
AAXX 24184 17070 11550 82401 11008 21014 39287 40179 52011 60052 77077 8552/ 333 10029 85630 88458 91105 93103
AAXX 24184 17084 11570 81602 10009 20008 39228 40147 52016 60072 77076 8552/ 333 10044 85630 88460 91111 93100
AAXX 24184 17090 11557 80000 10011 21003 38648 48423 52010 60042 77076 8552/ 333 10052 85630 88459 93101
AAXX 24184 17098 11560 81501 11035 21035 38136 48450 52007 69942 77177 8552/ 333 11017 85630 88457 93102 96010
AAXX 24184 17150 12660 53507 10011 21032 30078 40206 52009 60002 83530 333 10030 83635 85360
AAXX 24184 17160 11670 73611 10005 21019 38956 48427 52011 69922 70272 84570 333 10031 84638 87360 91117 931 00
AAXX 24184 17184 12670 23405 10017 21028 30077 40192 52006 60002 82100 333 10050 82840 91120
AAXX 24184 17189 11457 83011 11022 21032 38977 48435 51008 69952 77022 8772/ 333 11004 82715 85630 88459 93101
AAXX 24184 17210 11565 80203 10061 20051 39097 40134 52008 60042 76166 8452/ 333 10092 84630 88459
AAXX 24184 17234 12670 52501 10063 21001 30092 40162 52016 60002 83230 333 10113 83840 85360 91108
AAXX 24184 17260 11340 72603 10063 20059 39299 40121 52009 60042 71062 87700 333 10090 85708 87625
AAXX 24184 17290 12970 03408 10073 20003 30130 40163 52021 60002 333 10128 91122 92428
AAXX 24184 17370 11565 71205 10118 20068 30099 40103 50005 60062 70282 84270 333 10173 84830 87459 92437
BBXX LAHV 24181 99589 10057 43/// /1808 10067 20050 40072 222// 04080 1////
BBXX LF4H 24184 99596 10022 46/// /2232 10078 20069 49992 57024 8//// 22200 06084 10707 70035 333 91142
AAXX 24181 26509 11/05 92302 10051 20049 30077 40086 53008 60082 76164 333 10051 91004 91106 96045 555 53008
AAXX 24181 26518 11132 81804 10004 20004 40095 53005 60032 76165 886// 333 10004 88703 91006 91107 555 4/014 53008
AAXX 24181 26524 11296 82004 10006 20003 39960 40094 52002 60042 76165 8872/ 333 10007 88705 91008 91109 555 53011
AAXX 24181 26531 11238 81903 10002 21003 40099 58001 60032 76665 8872/ 333 10002 88705 91006 91107 93404 555 4/000 53009
AAXX 24181 26629 11227 81803 10002 21001 30021 40117 53003 60032 76162 8872/ 333 10002 88705 93402 91004 91109 555 53010
AAXX 24181 26633 11457 81803 11009 21021 39985 40119 58001 60012 75665 886// 333 11008 88710 91006 91108 93402 555 53009
AAXX 24181 26730 11243 81806 11025 21028 39938 40135 53001 69922 71076 886// 333 11017 88705 91008 91110 93402 555 42997 53010
AAXX 24184 16622 12960 01004 10008 21051 30215 40226 52013 60002 333 10048 90730 91113 555 10000 40008 30000 10030 2//// 30034 4//// 5//// 40000 47692 44215 50000 51012
AAXX 24184 16641 12560 40000 10058 20044 30163 40169 52007 60002 84800 333 10126 83820 83630 90730 91104 555 10000 40026 40000 47652 44200 50000 50052
AAXX 24184 16682 12460 40000 10094 20069 30138 40156 53002 60002 81150 333 10136 81818 84358 90730 91106 555 10000 40016 30000 10105 20110 30112 40110 50122 60175 40000 47633 44190 50000 50082
AAXX 24184 16716 12570 43609 10078 20020 30170 40189 52011 60002 84800 333 10110 82820 84645 555 10000 40072 40000 47655 44180 50000 50054
AAXX 24184 16734 NIL
AAXX 24184 16743 NIL
AAXX 24184 16749 12560 32817 10108 20036 30116 40131 52017 60002 82130 333 10138 82825 83358 90730 91127 555 10000 40108 40000 47617 44190 50000 50076
AAXX 24184 16754 12460 63212 10118 20063 30129 40176 52014 69902 86800 333 10124 81818 86630 90730 91115 555 10000 40106 40000 47628 44200 50000 50092 60000 65555 60030
AAXX 24181 26645 11396 81904 11030 21040 39868 40135 57002 69932 76662 8872/ 333 11025 88709 91110 93401
AAXX 24181 26659 32561 71904 11044 21071 39936 40158 57008 875// 333 11040 87620
AAXX 24181 26763 12460 81804 11055 21085 39945 40182 57005 69902 886// 333 11054 88712
AAXX 24181 26825 11345 81804 11012 21021 39951 40137 54000 69902 71052 886// 333 11004 88708 93401
AAXX 24181 26832 11357 81803 11025 21034 39954 40153 53002 69932 76686 8872/ 333 11019 86708 93402
AAXX 24181 26887 31295 81802 11082 21088 39998 40216 53001 71022 886// 333 11050 88704
AAXX 24181 26961 32460 72003 11055 21081 39996 40197 57003 875// 333 11045 87617
AAXX 24181 33027 32497 71603 11054 21072 30030 40206 54000 875// 333 11047
AAXX 24184 78016 11464 52318 10230 20182 30202 40206 57025 69951 70381 82504 333 10232 20200 70005 90945
AAXX 24184 17022 11556 81204 10025 20003 30019 40189 51011 60112 76066 8552/ 333 10042 85625 88458 91114 92436
AAXX 24184 17031 12470 83016 10062 20027 30154 40160 52022 60022 8552/ 333 10086 83715 85636 88460
AAXX 24184 17038 11670 72921 10088 20031 30087 40138 52029 69922 78082 87200 333 10118 87833 92428
AAXX 24184 17050 12970 30802 11014 21049 30169 40234 52014 60002 83030 333 10012 83360 91113 93100
AAXX 24184 17060 11560 73615 10021 21026 30167 40208 52009 69902 70288 84250 333 10040 84830 86359
AAXX 24184 17096 11570 42510 10008 21038 38165 48435 51005 69902 70171 84500 333 10021 84630
AAXX 24184 17124 11560 72808 11004 21041 39231 40173 52009 69902 72277 84550 333 10010 84630 86360 93100
AAXX 24184 17128 11565 83308 10001 21038 39032 40156 52010 69922 72272 8552/ 333 10028 85630 88458 93100
AAXX 24184 17170 NIL
AAXX 24184 17195 11560 83101 10026 21006 38906 48431 52009 69992 77062 8552/ 333 10050 85630 88459 93100
AAXX 24184 17199 11565 82202 10049 20041 39016 40114 51007 69942 72162 8472/ 333 10088 81720 84635 88459
AAXX 24184 17219 12565 33608 10022 21014 30033 40181 53012 60002 83100 333 10081 83830 91121
AAXX 24184 17240 12570 72603 10007 21049 38975 40144 52009 60002 85570 333 10036 85630 87360 91110
AAXX 24184 17244 11570 73410 10005 21027 38934 48431 50008 69902 70272 84550 333 10034 84630 87359 93100
AAXX 24184 17280 11660 81402 10052 20048 39335 40134 51006 60042 76062 84510 333 10085 84635 88460
AAXX 24184 17350 11660 80505 10101 20092 30019 40098 51008 69972 70262 8542/ 333 10126 85635 88458
AAXX 24184 17024 11562 82010 10021 20013 30098 40178 52019 60242 70272 8552/ 333 10044 85632 88459 91118 92457 93100
AAXX 24184 17056 12970 03104 11009 21033 30220 40225 52009 60002 333 10041 91112 92428
AAXX 24184 17067 11560 73204 10028 20012 30179 40202 52011 60022 78088 87200 333 10040 87830 91110 92417
AAXX 24184 17092 12670 43001 10011 21008 38793 48429 52013 69962 82530 333 10077 82640 84359
AAXX 24184 17112 12970 50504 10013 21035 30220 40223 52015 60002 85030 333 10049 85360 91116 92418
AAXX 24184 17115 11660 63610 10017 21031 30154 40207 52009 69902 72271 83430 333 10043 83635 86360 93100
AAXX 24184 17116 11540 72203 10013 20007 30083 40209 52009 60052 78588 85250 333 10034 85830 87359 91107 93100
AAXX 24184 17188 11660 73602 11005 21029 39073 40162 50006 69922 77022 85570 333 10029 85635 87359 91107 93101
AAXX 24184 17202 11560 71006 10050 20022 39099 40124 50006 69912 72162 85550 333 10078 82720 85630 87359
AAXX 24184 17248 11665 80404 10010 20001 38915 48425 51005 60022 70262 8452/ 333 10034 84636 88460
AAXX 24184 17292 12970 03005 10020 20002 39371 40142 53010 60002 333 10080 91111
AAXX 24184 17300 12960 23217 10096 21020 30031 40103 52014 60002 82030 333 10146 82362
AAXX 24184 17310 NIL
AAXX 24184 17330 11670 72801 10109 20058 30082 40100 53010 60042 70282 84270 333 10111 84840 87360
AAXX 24184 78016 11464 52318 10230 20182 30202 40206 57025 69951 70381 82504 333 10232 20200 70005 90945
AAXX 24181 37682 11595 70000 11022 21025 38057 48450 54000 60040 77077 875// 333 11016
AAXX 24181 37717 325// 70000 11001 21018 38000 48424 54000 86531 333 10029
AAXX 24181 37788 41694 62501 11002 21014 39141 40159 52001 71022 8357/ 333 10020
BBXX BATUK01 24184 99560 70032 46/// /2508 10100 20054 40092 56009 22200 00054
AAXX 24184 64810 32460 62206 10281 20246 30059 40085 84530 333 10316 55/// 59001 84613 86364
AAXX 24184 60106 32565 23609 10131 20108 40278 53008 82200 333 10177 82820
AAXX 24184 60318 32560 60706 10135 20103 40277 53007 86200 333 10188 86820
AAXX 24184 64810 NIL
AAXX 24184 64820 32460 62408 10280 20244 30088 40097 82502 333 10307 59012 82613 86070
AAXX 24184 08001 12565 1//// 10110 20047 30270 40353 53005 60002 81500 333 10145 924/7
AAXX 24184 08015 12560 11004 10082 20037 39954 40369 52001 69912 81500 333 10108
AAXX 24184 08023 12562 31504 10098 20048 30305 40378 53004 60002 83800 333 10140
AAXX 24184 08027 12580 60704 10082 20040 30054 40373 53004 60002 84870 333 10098
AAXX 24184 08045 02981 03201 10083 20054 30024 40341 54000 60002 333 10138 60007
AAXX 24184 08141 12975 00704 10052 21004 39472 40356 53001 60002 333 10080
AAXX 24184 08160 12980 02920 10090 21007 30014 40330 53005 60002 333 10120
AAXX 24184 08181 02570 23604 10105 20023 30297 40303 53009 60002 82800 333 10161 60007
AAXX 24184 08221 02980 00805 10072 21037 39626 40326 53007 60002 333 10124 60007
AAXX 24184 08231 NIL
AAXX 24184 08261 12980 01003 10082 20037 39838 40330 53005 60002 333 10126
AAXX 24184 08284 02982 00000 10117 20001 30233 40310 53012 60002 333 10191 60007
AAXX 24184 08306 12468 40501 10101 20073 30295 40301 53011 60002 84801 333 10176
AAXX 24184 08314 02664 53415 10125 20030 30188 40293 51010 60002 85500 333 10141 60007
AAXX 24184 08430 12965 00503 10119 20066 30220 40296 53009 60002 333 10185
AAXX 24184 08482 11459 21003 10146 20125 30280 40289 52013 60002 71000 82600 333 10172
AAXX 24183 41150 42962 01308 10190 20126 40164 333 10236 59022
AAXX 24184 16614 12960 00000 11048 21064 39417 40236 52015 60002 333 10043 42999 90730 91104 555 10000 41080
AAXX 24184 16627 12560 30606 11008 21032 30227 40231 52017 60002 82130 333 10028 90730 91110 555 10000 41008 30000 10028 20036 30052 40064 50086 6//// 40000 47702 44220 50000 51016
AAXX 24184 16667 12560 73610 10064 20008 30183 40189 51009 60002 87800 333 10088 83820 86635 90730 91116 555 10000 40060 30000 20084 30098 40000 47667 44200 50000 50042
AAXX 24184 16675 NIL
AAXX 24184 16710 36/// /9902 10022 20000 39413 40204 52014 333 10086 90730 91110 555 10000 40011
AAXX 24184 16723 12560 33416 10074 20015 30149 40165 52015 60002 83200 333 10124 90730 91128 555 10000 40074 40000 47645 44230 50000 50050
AAXX 24184 16738 NIL
AAXX 24184 16746 12560 60000 10092 20062 39996 40182 52010 69912 86800 333 10114 82825 86635 90730 91105 555 10000 40092 40000 47526 44180 50000 50078 60000 60001 60015
AAXX 24181 14240 11658 80000 10029 20005 30071 40231 52026 69902 76062 885// 333 10056
AAXX 24181 14258 11940 81301 10010 21002 30034 40229 52026 60002 7102/ 8802/ 333 10055 43003 88460
AAXX 24181 14445 12970 61003 10101 20011 30014 40169 53008 60002 84072 333 10120 84499 82099 92311
AAXX 24181 06414 36/// /2103 10050 20023 30266 40299 58002 60002 333 10076 91110 91207
AAXX 24181 06459 36/// /2104 10039 20035 30124 40323 51008 60002 333 10062 91111 91208
AAXX 24181 06494 16/// /2605 10002 21001 39495 40322 50011 60072 333 10004 4/008 91110 91206
AAXX 24184 16643 12560 30000 10094 20064 30176 40182 52009 60002 82240 333 10124 82825 83360 90730 91106 555 10000 40080 40000 47665 44220 50000 50080
AAXX 24184 16648 12560 30604 10020 21002 30114 40207 52011 60002 82250 333 10080 82830 83358 90730 91110 555 10000 40020 30000 10050 2//// 30064 40074 5//// 6//// 40000 47616 44210 50000 50012
AAXX 24184 16650 11560 70708 10034 21023 30200 40205 52010 69902 75352 84560 333 10046 84630 87357 90730 91113 555 10000 40032 30000 10038 20042 30058 40050 50108 60134 40000 47681 44215 50000 50014 60000 65555 60230 70000 77D// 7D///
AAXX 24184 16684 12460 80411 10070 20021 30160 40189 51013 60002 8667/ 333 10072 82712 85620 88358 90730 91119 555 10000 40068 40000 47650 44200 50000 50050
AAXX 24184 16732 12468 53617 10102 20028 30163 40175 52012 60002 84830 333 10114 82818 83625 90730 91126 555 10000 40102 40000 47648 44160 50000 50070
AAXX 24181 15502 12970 00000 11030 21034 30191 40232 51014 60002 333 10036 21068 555 597//
AAXX 24181 15525 11556 21601 11040 21055 39951 40230 53004 60002 71000 82500 333 10040 21043 42004 555 589//
AAXX 24181 15528 12968 00000 11040 21056 30013 40213 53009 60002 333 10020 21042 44003 555 589//
AAXX 24181 15535 11540 80000 11013 21039 30177 40226 52008 60002 71022 885// 333 10004 21014 42002 555 583//
AAXX 24181 15549 12570 80000 11054 21074 39800 40240 53004 60002 886// 333 11027 21054 43004 555 584//
AAXX 24181 15552 12462 80000 11014 21046 30176 40227 52009 60002 885// 222// 2//01 333 11009 21024 555 576// 92022 92427
AAXX 24181 15614 12663 10000 11060 21080 39490 40233 52007 60002 81100 333 10007 21060 44012 555 584//
AAXX 24181 15615 11/06 93608 11138 21155 37042 47968 52007 60002 74944 333 11122 21150 555 587// 92711
AAXX 24181 15626 12970 00000 11048 21093 30030 40229 52015 60002 333 10030 21048 47004 555 571//
AAXX 24181 15627 11989 00504 11121 21963 37550 47963 53012 60002 70100 333 11120 21144 48019 555 563//
AAXX 24181 15640 11960 00000 11034 21062 39903 40232 53010 69902 70171 333 11001 21038 555 581//
AAXX 24181 15655 12570 83605 11005 21059 30192 40226 52011 60002 885// 222// 00064 20502 333 11003 21031 555 564// 92034 92438
AAXX 24181 15712 12970 53202 11019 21039 39966 40228 53018 60002 82031 333 10037 21020 43001 555 585//
AAXX 24181 15730 12970 00000 11036 21051 39818 40230 52011 60002 333 10010 21040 43009 555 590//
BBXX FLAO 2418/ 99764 70847 46/// ///// 11373 49991 57001
AAXX 24181 14008 11299 63214 11104 21112 37468 47011 52019 60022 70174 82270 333 10004 49102 92818 93102 95100
AAXX 24181 14015 11230 80801 11004 21012 39866 40238 52019 69922 71086 8557/ 333 11004 82707 85630
AAXX 24181 14026 11896 80000 10015 20001 39906 40236 52020 69902 71062 8807/ 333 10041
AAXX 24181 14031 11596 81801 10016 20004 30003 40238 52024 60002 710// 885// 333 10036 88626
AAXX 24181 14105 11799 70603 10097 20022 30195 40200 50013 69942 70262 82570 333 10097 82650
AAXX 24181 14121 11798 83201 10012 20008 39960 40235 52023 60012 72162 8557/ 333 10031 42002 85650 92851
AAXX 24181 14122 11756 83301 10014 20005 30037 40240 51025 69922 72165 885// 333 10038 88656
AAXX 24181 37740 41/91 91401 10011 20012 39324 40140 52008 74544 333 10050
AAXX 24181 37989 42496 80202 10086 20067 40136 52003 887// 333 10105
AAXX 24181 37985 41495 80000 10073 20062 30145 40131 51003 75055 886// 333 10088
AAXX 24181 37925 42997 80501 10076 20070 30158 40129 58003 8807/ 333 10089 555 53004
AAXX 24181 37851 42997 82001 10062 20043 30073 40143 52010 75152 886// 333 10080
AAXX 24181 37661 41092 92601 10032 20032 39375 40140 52013 74544 333 10085
AAXX 24181 37749 41596 82302 10062 20041 30054 40171 52009 71022 885// 333 10080 555 53002
AAXX 24181 37735 41/91 /0000 10034 20029 39753 40133 58005 74542 333 10058
AAXX 24181 37864 32597 80000 10072 20051 40133 50007 885// 333 10085 88620
AAXX 24181 37675 42495 81401 10007 21010 39470 40143 52008 8802/ 333 10026 555 53004
AAXX 24181 14241 11760 82202 10026 21001 30098 40232 53026 69902 76162 8357/ 333 10051
AAXX 24181 14284 11640 82901 10011 21001 30123 40235 52026 60002 71022 8357/ 333 10034
AAXX 24181 14307 31780 80307 10095 20026 30111 40188 52018 71522 8257/ 333 10105 82656 90084 97037
AAXX 24181 14317 NIL
AAXX 24181 14431 12680 70701 10081 20042 30078 40172 53011 60002 81570 333 10144 81640 86457
AAXX 24181 14444 32980 73602 10076 20023 30142 40172 52005 87030 333 10129
AAXX 24181 14474 12981 60402 10077 20032 39985 40177 53008 60002 86070 333 10113
AAXX 24184 61017 32960 53606 10208 20023 39748 40164 80002 333 10252 58001 85080
AAXX 24184 61024 32960 11014 10217 21027 39575 40151 80002 333 10270 58003 81080
AAXX 24184 61036 32960 70000 10275 20021 39877 40116 80008 333 10320 59006 87280
AAXX 24184 61043 32960 70608 10256 21074 39681 40126 80008 333 10302 59003 87280
AAXX 24184 61045 32965 70000 10220 21030 39631 40135 80008 333 10270 59012 87280
AAXX 24184 61049 32960 70000 10225 20020 39792 40116 80008 333 10286 59009 87280
AAXX 24184 61052 32965 20604 10274 21001 39872 40130 80002 333 10315 58004 82080
AAXX 24184 61075 32960 50000 10266 20002 39804 40115 80002 333 10325 59014 85080 61080 32960 71004 10245 21015 39706 40131 80002 333 10290 59002 87280
AAXX 24184 61090 32965 70204 10240 21080 39614 40127 80008 333 10280 59002 87280
AAXX 24184 61091 32965 30000 10220 20070 39679 40143 80002 333 10294 59005 83080
AAXX 24184 61096 32965 70404 10238 21010 39743 40130 80008 333 10299 59008 87280
AAXX 24184 61099 32960 73606 10288 20041 39869 40098 80008 333 10328 59004 87280
BBXX TFBKF 24184 99635 70202 46/// ///// 22200 10809 70046
BBXX TFBLK 24184 99657 70248 46/// ///// 22200 10707 70033
BBXX TFDRN 24184 99658 70212 46/// ///// 22200 10706 70028
BBXX TFGRS 24184 99663 70182 46/// ///// 22200 10503 70017
BBXX TFGRV 24184 99638 70225 46/// ///// 22200 11212 70060
BBXX TFGSK 24184 99641 70229 46/// ///// 22200 10911 70056
BBXX TFKGR 24184 99657 70136 46/// ///// 22200 10605 70023
BBXX TFSRT 24184 99633 70203 46/// ///// 22200 11016 70081
BBXX TFSTD 24184 99664 70234 46/// ///// 22200 10606 70030
AAXX 24184 04005 21470 73410 11021 21050 49727 52060 71533 85820 333 11003 21021 60118 555 3/316
AAXX 24184 04018 22682 72623 11001 21025 49765 52067 87500 333 10031 21001 60018 555 3//35 81632 87643
AAXX 24184 04030 22475 82915 10004 21116 49761 52080 8687/ 333 10035 20004 60038 555 3//23 82615 84825
AAXX 24184 04048 NIL
AAXX 24184 04063 21410 83120 11002 21002 49638 53111 77172 8752/ 333 10034 21004 60048 555 3//29
AAXX 24184 04077 NIL
AAXX 24184 04082 NIL
AAXX 24184 04097 22689 13206 10035 21025 49528 57023 81200 333 10062 20026 69928 555 3/323
AAXX 24183 04013 22589 32918 11020 21049 49746 52074 81240 333 10007 21020 60038 555 3//24
AAXX 24183 04064 22670 52930 10016 21019 49709 52147 83242 333 10044 20016 69958 555 3//37
AAXX 24184 48310 31556 71603 10199 20151 39699 40163 52002 71022 85546 333 58023
AAXX 24184 48325 31956 00000 10180 20170 39894 40143 52006 71000 333 58014
AAXX 24184 48329 31550 60000 10180 20167 39804 40152 52005 71011 85505 333 58021
AAXX 24184 48352 NIL
AAXX 24184 48357 32960 20502 10154 20092 30022 40198 53000 80001 333 58040
AAXX 24184 48380 31958 80000 10229 20190 30062 40158 52008 71021 80006 333 58030
AAXX 24184 48383 NIL
AAXX 24184 48403 31957 00706 10180 20105 39963 40180 52013 70500 333 58037
AAXX 24184 48405 31957 30304 10150 20094 30012 40182 52004 71011 80005 333 58043
AAXX 24184 48420 31956 30610 10230 20145 30132 40137 52008 70511 80005 333 58033
AAXX 24184 48421 31956 00000 10190 20174 30027 40144 52006 71000 333 58027
AAXX 24184 48425 31950 20304 10215 20147 30140 40150 52007 71000 80005 333 58031
AAXX 24184 48426 31957 20806 10227 20132 30136 40149 53006 70500 80001 333 58029
AAXX 24184 48429 32560 40713 10228 20135 30136 40143 52007 81105 333 58028
AAXX 24184 48430 31958 20707 10220 20123 30135 40143 52011 70500 80002 333 58032
AAXX 24184 48450 NIL
AAXX 24184 48459 32960 20306 10228 20155 30132 40135 52008 80001 333 58028
AAXX 24184 48465 31958 30512 10243 20188 30128 40133 52003 71011 80005 333 58028
AAXX 24184 48550 11558 50806 10267 20235 30101 40108 52003 60403 71061 82246 333 58014 70401
AAXX 24184 48552 31458 70000 10242 20235 30099 40105 52000 71022 82246 333 58009 70436
AAXX 24184 48566 NIL
AAXX 24184 48568 32460 51404 10268 20236 30092 40100 57005 82206 333 58012 70133
AAXX 24184 48300 31958 00000 10188 20171 39825 40144 51007 71000 333 58015
AAXX 24184 48327 32560 40000 10195 20170 39804 40167 52005 84535 333 58025
AAXX 24184 48331 NIL
AAXX 24184 48353 31930 02202 10132 20123 39888 40191 52008 71000 333 58044
AAXX 24184 48356 31958 00000 10138 20101 39995 40201 51004 71000 333 58041
AAXX 24184 48375 NIL
AAXX 24184 48378 31557 31005 10220 20123 30100 40153 51004 70522 82545 333 58029
AAXX 24184 48381 32960 20606 10159 20106 39971 40197 52016 80005 333 58051
AAXX 24184 48407 31958 60407 10161 20117 30019 40166 56001 71022 80001 333 58042
AAXX 24184 48431 32960 20606 10182 20124 39957 40177 51010 80005 333 58042
AAXX 24184 48456 NIL
AAXX 24184 48480 31957 10308 10231 20139 30121 40125 52009 70500 80001 333 58030
AAXX 24184 48500 NIL
AAXX 24184 48551 11550 60103 10235 20228 30098 40106 57004 60143 71022 82556 333 58016 70142
AAXX 24184 48565 32560 60908 10260 20226 30070 40080 57005 82246 333 58001 79999
AAXX 24184 48569 32560 70000 10243 20214 30067 40108 51008 82246 333 58015 70010
AAXX 24184 48583 NIL
AAXX 24181 33088 32597 82104 11052 21069 30002 40202 57002 885// 333 11047
AAXX 24181 33177 11496 81703 11016 21030 39942 40187 53004 69952 75687 886// 333 11014 93401
AAXX 24181 33261 31495 80000 11065 21070 30041 40234 52004 71022 886// 333 11049 88710
AAXX 24181 33275 12397 83603 11058 21069 39991 40226 52005 69902 8565/ 333 11030 85707
AAXX 24181 33301 32597 81504 11055 21073 39908 40203 57001 8255/ 333 11034
AAXX 24181 33325 32997 00000 11074 21100 39944 40228 52002 333 11038
AAXX 24181 33377 31996 80101 11074 21083 30027 40232 52008 71011 8802/ 333 11042
AAXX 24181 33415 32497 81605 11057 21071 39798 40216 52003 886// 333 11050 88712
AAXX 24181 33429 32497 21703 11090 21110 39781 40231 52004 82500 333 11060
AAXX 24181 33466 11959 00000 11059 21070 30033 40231 52007 69902 71011 333 11011
AAXX 24181 33526 32560 81303 11037 21059 39854 40208 52004 885// 333 11022 88620
AAXX 24181 33562 32997 30000 11069 21102 39851 40233 53005 83030 333 11034
AAXX 24181 33614 11575 80402 11020 21083 30102 40211 53009 69902 70282 883// 333 11013 88920
AAXX 24181 33761 12598 80404 11032 21067 39989 40222 52005 69902 885// 333 11020 88628
AAXX 24181 33902 11597 80105 11015 21052 30123 40192 52009 69902 70282 883// 333 11011
AAXX 24181 33983 11297 83608 10011 21003 30066 40128 52011 60082 70272 886// 333 10016 88706
AAXX 24181 34415 11497 80504 11036 21061 30104 40204 52007 69902 70272 886// 333 11027
AAXX 24181 34523 NIL
AAXX 24181 34712 11496 80505 11006 21010 30063 40151 52011 60032 77177 8772/ 333 11006
AAXX 24184 48302 NIL
AAXX 24184 48304 NIL
AAXX 24184 48334 31956 00000 10190 20174 39788 40158 52005 71000 333 58019
AAXX 24184 48360 31959 00815 10158 20087 39913 40183 52005 70500 333 58036
AAXX 24184 48372 31556 50000 10207 20174 30096 40155 52006 71011 81536 333 58031
AAXX 24184 48373 NIL
AAXX 24184 48386 NIL
AAXX 24184 48387 31950 20000 10145 20136 39177 40159 52008 71010 81051 333 58027
AAXX 24184 48408 32960 43605 10160 20113 30014 40169 51004 80006 333 58040
AAXX 24184 48415 NIL
AAXX 24184 48433 31956 20406 10160 20116 30003 40175 52001 71000 80005 333 58039
AAXX 24184 48437 31958 00405 10158 20105 39958 40176 52005 71000 333 58043
AAXX 24184 48440 31957 00000 10200 20154 30093 40144 52006 71000 333 58033
AAXX 24184 48451 32960 00302 10233 20162 30136 40147 52006 333 58029
AAXX 24184 48454 NIL
AAXX 24184 48457 NIL
AAXX 24184 48463 NIL
AAXX 24184 48464 31956 33305 10210 20178 30114 40127 52002 71011 80001 333 58033
AAXX 24184 48479 31956 00405 10228 20143 30075 40128 52002 70500 333 58025
AAXX 24184 48520 31558 60406 10255 20233 30095 40110 51000 71022 83546 333 58010 70012
AAXX 24184 48554 31456 80000 10245 20238 30101 40105 57001 71022 84427 333 58017 70122
AAXX 24184 48563 32560 70507 10240 20228 30053 40089 57003 82276 333 58007 70252
AAXX 24184 48571 32558 61504 10260 20215 30089 40101 57004 83236 333 58014 70102
AAXX 24183 91551 31598 50000 10251 20250 40041 53002 60211 70211 82101 333 569/9 82820 83080 91553 11598 70000 10265 20258 40046 53006 60061 72528 879// 333 568// 60061 84820 81925 87640
AAXX 24183 91554 NIL
AAXX 24183 91555 11598 30000 10260 20254 40039 53002 69921 70188 81201 333 569/9 69921 81820 83080
AAXX 24183 91557 31598 69902 10245 20244 40022 53009 70222 86800 333 569// 83820 86640
AAXX 24183 91565 11598 80210 10240 20240 40026 52005 60031 70228 8497/ 333 5699/ 60031 84820 81925 88460
AAXX 24183 91568 11598 80000 10255 20248 40045 53001 60051 76066 8482/ 333 5629/ 60051 85823 88460
AAXX 24184 48307 31950 30000 10175 20149 39787 40178 52005 71011 82056 333 58035
AAXX 24184 48324 32560 20000 10171 20154 39933 40160 53008 81105 333 58031
AAXX 24184 48333 31950 00000 10190 20165 39848 40157 54000 71000 333 58015
AAXX 24184 48350 NIL
AAXX 24184 48355 31950 00000 10120 20100 39968 40200 51004 71000 333 58043
AAXX 24184 48358 31958 10000 10160 20111 30018 40201 56006 71000 80005 333 58037
AAXX 24184 48384 31957 00000 10155 20114 39987 40186 51005 71000 333 58036
AAXX 24184 48401 31958 20000 10220 20162 30053 40163 52007 71000 80005 333 58027
AAXX 24184 48404 31958 20513 10152 20104 39997 40182 51005 71000 80005 333 58044
AAXX 24184 48409 32960 20407 10162 20122 30019 40173 52004 80001 333 58045
AAXX 24184 48419 31958 50402 10230 20173 30118 40126 57008 71011 80005 333 58012
AAXX 24184 48427 31950 20000 10212 20159 30136 40144 50005 71000 80005 333 58034
AAXX 24184 48435 31956 31028 10175 20110 39712 40163 52007 71000 80005 333 58033
AAXX 24184 48453 32960 30506 10230 20155 30133 40136 52008 80005 333 58031
AAXX 24184 48458 32960 00000 10200 20151 30076 40159 52010 333 58034
AAXX 24184 48474 31956 20000 10201 20177 30010 40137 52004 71000 80005 333 58029
AAXX 24184 48481 32960 22504 10240 20146 30093 40121 52004 80001 333 58022
AAXX 24184 48555 11550 40000 10243 20233 30086 40129 55006 60333 71011 82105 333 58014 70339
AAXX 24184 48556 NIL
AAXX 24184 48557 32560 50000 10235 20228 30062 40098 57011 82106 333 58014 70248
AAXX 24184 48560 11557 80000 10262 20249 30090 40095 56007 60053 71022 83876 333 58013 70096
AAXX 24184 48574 32560 60000 10262 20255 30067 40096 57008 82146 333 58010
AAXX 24184 48581 NIL
AAXX 24183 91551 31598 50000 10251 20250 40041 53002 60211 70211 82101 333 569/9 82820 83080 91553 11598 70000 10265 20258 40046 53006 60061 72528 879// 333 568// 60061 84820 81925 87640
AAXX 24183 91554 NIL
AAXX 24183 91555 11598 30000 10260 20254 40039 53002 69921 70188 81201 333 569/9 69921 81820 83080
AAXX 24183 91557 31598 69902 10245 20244 40022 53009 70222 86800 333 569// 83820 86640
AAXX 24183 91565 11598 80210 10240 20240 40026 52005 60031 70228 8497/ 333 5699/ 60031 84820 81925 88460
AAXX 24183 91568 11598 80000 10255 20248 40045 53001 60051 76066 8482/ 333 5629/ 60051 85823 88460
AAXX 24184 60715 12560 42612 10138 20076 30221 40228 53001 60002 82280 333 10188 59005 82823 83359 91022 91131
AAXX 24184 60723 11560 52808 10132 20093 30059 40249 50003 69942 70161 84280 333 10165 84823
AAXX 24184 60725 11560 62704 10121 2//// 30090 40270 53012 69942 70282 86800 333 10154 83820 84630
AAXX 24184 60735 12562 33304 10142 20093 30159 40241 52018 60002 83800 333 10200 82823
AAXX 24184 60745 12560 33410 10149 20051 39874 40245 53005 60002 83200 333 10182 83823
AAXX 24184 60748 NIL
AAXX 24184 60750 12560 43407 10171 20057 30212 40237 53013 60002 84200 333 10200 83823
AAXX 24184 60760 12960 02609 10143 20022 30145 40250 53005 60002 333 10194 91011 91115
AAXX 24184 60765 NIL
AAXX 24184 60767 NIL
AAXX 24184 60769 12560 32710 10138 20102 30228 40232 55000 60002 83200 333 10181 83820
AAXX 24184 60715 12560 42612 10138 20076 30221 40228 53001 60002 82280 333 10188 59005 82823 83359 91022 91131
AAXX 24184 60723 11560 52808 10132 20093 30059 40249 50003 69942 70161 84280 333 10165 84823
AAXX 24184 60725 11560 62704 10121 2//// 30090 40270 53012 69942 70282 86800 333 10154 83820 84630
AAXX 24184 60735 12562 33304 10142 20093 30159 40241 52018 60002 83800 333 10200 82823
AAXX 24184 60745 12560 33410 10149 20051 39874 40245 53005 60002 83200 333 10182 83823
AAXX 24184 60748 NIL
AAXX 24184 60750 12560 43407 10171 20057 30212 40237 53013 60002 84200 333 10200 83823
AAXX 24184 60760 12960 02609 10143 20022 30145 40250 53005 60002 333 10194 91011 91115
AAXX 24184 60765 NIL
AAXX 24184 60767 NIL
AAXX 24184 60769 12560 32710 10138 20102 30228 40232 55000 60002 83200 333 10181 83820
AAXX 24181 01160 46/// /1810 10029 20011 39865 49882 58029 333 10056 91120
AAXX 24181 26106 11/96 81505 10009 20000 40085 52002 60022 76165 8872/ 333 10009 93701
AAXX 24181 26313 11/// 82503 10035 20030 40070 5//// 69942 78082 889// 333 10038
AAXX 24181 26346 11297 82004 11017 21018 40091 57001 69992 76662 8872/ 333 11017 86704 91111 93402
AAXX 24181 26406 11294 83403 10050 20045 40080 52013 60112 76166 8872/ 333 10051 86704
AAXX 24181 26416 33/// /2003 10011 20006 40082 52004 333 10011
AAXX 24181 26424 11495 82103 10010 20005 40084 52003 60032 76165 8872/ 333 10010 86710
AAXX 24181 26544 11497 82004 11019 21028 40118 57003 60022 72582 883// 333 11015 93403
AAXX 24184 06030 01565 32306 10030 20016 30143 40159 52008 69912 72581 83501 333 10064 20024 69917 81625 83645
AAXX 24184 06060 01665 22106 10024 20013 30111 40177 51005 69902 70280 81501 333 10063 20024 69907 81638 91120
AAXX 24184 06070 05/67 02507 10024 20000 30150 40181 52019 6///2 333 10060 20023 6///7
AAXX 24184 06120 36967 12509 10029 20022 30168 40194 52019 333 10060 20017 81/69 91128 91219
AAXX 24184 06180 02980 12910 10037 20014 30168 40175 52027 60012 80001 333 10062 20034 6///7 81070 91129
AAXX 24184 06193 07/60 02817 10045 20032 30143 40154 52034 60062 70065 333 10064 20041 55300 20000 6///7
AAXX 24181 26141 01117 82204 10000 21004 39908 40058 52009 60022 77176 8872/ 333 10003 21017 69977 88502 91110 555 1/100 21017 3/101 51016 52102
AAXX 24181 13160 NIL
AAXX 24181 13262 NIL
AAXX 24181 13272 31956 50000 10009 21030 30100 40224 52015 71022 85030 333 10050 85358
AAXX 24181 13285 NIL
AAXX 24181 13289 NIL
AAXX 24181 13376 NIL
AAXX 24181 13388 NIL
AAXX 24181 13462 32970 20601 10015 21030 30149 40190 52010 82040 333 10093 82360
AAXX 24181 13473 NIL
AAXX 24181 13489 NIL
AAXX 24181 26115 01483 83402 10043 20032 30055 40064 53020 60042 70222 8567/ 333 10063 20042 60007 85716 555 1/004 20042 3/004 50054
AAXX 24184 06011 07550 72537 10055 21010 39743 49810 52007 60122 71085 333 10093 20033 55300 20000 60017 81/28 83/34 85/41 87/50 91055 91165 91251
AAXX 24184 08231 12970 00307 10073 21041 39206 48597 53011 60002 333 10135
AAXX 24184 17026 11570 83212 10061 20018 30122 40162 52018 60032 70262 8552/ 333 10068 85628 88458 91023 91124 92448
AAXX 24184 17034 11560 72204 10062 20036 30117 40164 52022 60082 78082 84270 333 10106 84830 87359 92437
AAXX 24184 17070 11550 82401 11008 21014 39287 40179 52011 60052 77077 8552/ 333 10029 85630 88458 91105 93103
AAXX 24184 17084 11570 81602 10009 20008 39228 40147 52016 60072 77076 8552/ 333 10044 85630 88460 91111 93100
AAXX 24184 17090 11557 80000 10011 21003 38648 48423 52010 60042 77076 8552/ 333 10052 85630 88459 93101
AAXX 24184 17098 11560 81501 11035 21035 38136 48450 52007 69942 77177 8552/ 333 11017 85630 88457 93102 96010
AAXX 24184 17150 12660 53507 10011 21032 30078 40206 52009 60002 83530 333 10030 83635 85360
AAXX 24184 17160 11670 73611 10005 21019 38956 48427 52011 69922 70272 84570 333 10031 84638 87360 91117 93100
AAXX 24184 17184 12670 23405 10017 21028 30077 40192 52006 60002 82100 333 10050 82840 91120
AAXX 24184 17189 11457 83011 11022 21032 38977 48435 51008 69952 77022 8772/ 333 11004 82715 85630 88459 93101
AAXX 24184 17210 11565 80203 10061 20051 39097 40134 52008 60042 76166 8452/ 333 10092 84630 88459
AAXX 24184 17234 12670 52501 10063 21001 30092 40162 52016 60002 83230 333 10113 83840 85360 91108
AAXX 24184 17260 11340 72603 10063 20059 39299 40121 52009 60042 71062 87700 333 10090 85708 87625
AAXX 24184 17290 12970 03408 10073 20003 30130 40163 52021 60002 333 10128 91122 92428
AAXX 24184 17370 11565 71205 10118 20068 30099 40103 50005 60062 70282 84270 333 10173 84830 87459 92437
AAXX 24184 08055 NIL
AAXX 24184 08075 12570 30506 10020 21004 39300 48613 53002 60002 83500 333 10060
AAXX 24184 08084 02675 22805 10072 20013 39925 40371 53005 60002 82500 333 10108 60007
AAXX 24184 08171 12970 02702 10076 20017 30072 40318 52002 60002 333 10132
AAXX 24184 08184 02575 10101 10073 20005 30140 40300 53011 60002 81101 333 10149 60007
AAXX 24184 08202 02970 00407 10042 21002 39405 42929 53002 60002 333 10089 60007
AAXX 24184 08235 NIL
AAXX 24184 08238 12960 02909 10120 20017 30230 40291 53008 60002 333 10158
AAXX 24184 08280 12980 00000 10058 20004 39472 40316 52006 60002 333 10122
AAXX 24184 08330 12980 00106 10088 20000 30069 40305 52005 60002 333 10150
AAXX 24184 08348 12970 00503 10070 20023 39565 40320 53004 60002 333 10114
AAXX 24184 08360 02570 10808 10129 20062 30267 40305 53013 60002 81100 333 10177 60007
AAXX 24184 08373 02560 13402 10101 20068 30278 40300 53007 60002 81520 333 10164 60007
AAXX 24184 08410 02981 00504 10118 20050 30169 40281 53012 60002 333 10178 60007
AAXX 24184 08419 02970 01703 10084 20013 39604 40285 53013 60002 333 10172 60007
AAXX 24184 08451 01456 10000 10111 20105 30243 40277 53010 69902 71041 81600 333 10150 60007
AAXX 24184 08487 02365 10811 10140 20093 30265 40291 53013 60002 81800 333 10198 60007
AAXX 24184 71603 11566 83612 11036 21061 30196 40250 53004 69901 78582 87501 333 10019 21037 42004 70022 90947
AAXX 24184 71607 16/// /3211 11120 21168 30261 40295 55001 60001 333 11073 21134 70003
AAXX 24184 71609 NIL
AAXX 24184 71610 15966 02903 11156 21193 30022 40337 58006 60001 333 11156 21201 70000
AAXX 24184 71621 12574 11003 11076 21141 30221 40332 58013 60001 81500 333 11071 21128 79999
AAXX 24184 71623 NIL
AAXX 24184 71624 12474 31506 11024 21063 30089 40309 58014 60001 82130 333 11014 21087 70000
AAXX 24184 71625 16964 01303 11121 21184 30164 40334 58019 60001 333 11121 21215 70000
AAXX 24184 71627 12583 10000 11141 21220 30309 40356 58002 60001 81501 333 11138 21169 70008
AAXX 24184 71628 13460 20603 11119 21163 30193 40342 56008 60001 82100 333 11117 21170 79999
AAXX 24184 71630 NIL
AAXX 24184 71631 NIL
AAXX 24184 71633 11574 51814 11012 21071 39999 40279 58017 69901 70271 82550 333 11006 21093 47001 79999 90942
AAXX 24184 71705 11574 73415 11123 21154 30185 40276 51003 69901 73687 85101 333 11054 21126 48010 70078 90943
AAXX 24184 71706 11574 73509 11082 21132 30194 40257 53001 69981 78588 87500 333 11043 21083 47013 70048 90983 93102
AAXX 24184 71707 11574 73314 11075 21127 30137 40216 53005 69921 78588 87500 333 11012 21076 48008 70080 90983
AAXX 24184 71709 11580 73213 11095 21143 30227 40241 57005 69941 73677 87500 333 11061 21103 46004 70048 90949
AAXX 24184 71711 NIL
AAXX 24184 71714 16/// /2402 11142 21189 30266 40364 58001 60001 333 11141 21193 70019 555 10030
AAXX 24184 71715 16/// /0000 11155 21212 30144 40337 58001 60001 333 11151 21186 70009 555 10020
AAXX 24184 71718 11583 62607 11148 21214 30261 40330 58003 69921 77122 86500 333 11145 21175 48003 70020 90983
AAXX 24184 71719 16/// /3010 11108 21170 30269 40275 58004 60001 333 11089 21130 70003
AAXX 24181 12105 11462 72905 10046 20037 30110 40153 52037 60042 70186 876// 333 10072 20044 87710 91112 93003
AAXX 24181 12195 11111 82003 10002 20001 39892 40124 53003 60012 72465 886// 333 10002 21020 93001
AAXX 24181 12235 11483 83206 10037 20037 39924 40137 53035 60022 75165 886// 333 10053 20036 88710 91110 93095
AAXX 24181 12270 11208 82203 10032 20032 39942 40126 53009 60022 75164 886// 333 10033 20007 93002
AAXX 24181 12280 11212 82104 10018 20018 39961 40120 52008 60022 76162 8772/ 333 10019 20001 93001
AAXX 24181 12300 11470 83405 10045 20033 30089 40180 51045 60012 70286 885// 333 10065 20040 91112 93001
AAXX 24181 12400 11460 83005 10034 20028 39948 40188 51048 60052 76162 8657/ 333 10061 20029 91010 91115 93005
AAXX 24181 12435 11459 82506 10055 20048 39977 40150 53021 69932 76165 875// 333 10059 20034 93093
AAXX 24181 12495 11237 82102 10004 20003 39864 40164 52007 60022 72162 886// 333 10005 21011 93002
AAXX 24181 12530 11559 82504 10054 20031 39971 40172 53024 69912 71062 885// 333 10056 20025 93091
AAXX 24181 12570 11308 81602 10011 20011 39843 40168 52010 69952 74285 885// 333 10014 20002 87708 88611 93093
AAXX 24181 12580 11565 82006 10004 21017 39914 40181 52009 69952 70176 8557/ 333 10006 21005 93092
AAXX 24184 71397 11332 80000 11077 21101 30228 40264 53006 60011 77177 887// 333 11004 21080 43010 70038 90983 93101
AAXX 24184 71400 16/64 /2806 11121 21157 60001 333 11085 21134 70026
AAXX 24184 71403 46/// /3522 11035 21079 30205 40225 53013 6///1 333 10007 21035 7////
AAXX 24184 71411 16/// /3507 11037 21058 30229 40242 53007 60001 333 10009 21038 70007
AAXX 24184 71412 16/// /3520 11068 21121 30219 40229 55001 60001 333 11023 21071 70013
AAXX 24184 71421 NIL
AAXX 24184 71430 16/// /1004 11053 21085 30226 40327 58011 60001 333 11048 21122 70000
AAXX 24184 71431 16/// /1205 11051 21092 30214 40314 58018 60001 333 11046 21115 70000 555 10010
AAXX 24184 71432 NIL
AAXX 24184 71433 NIL
AAXX 24184 71435 NIL
AAXX 24184 71441 NIL
AAXX 24184 71443 NIL
AAXX 24184 71444 NIL
AAXX 24184 71447 16/// /2712 10015 21055 39610 40161 58001 60001 333 10015 21080 70000
AAXX 24184 71467 16/// /1902 11277 21303 39977 40098 55003 60001 333 11277 21377 70000
AAXX 24184 71472 NIL
AAXX 24184 71474 16864 61906 11028 21048 39017 40281 53007 60001 333 11021 21057 70000
AAXX 24184 71510 NIL
AAXX 24184 71538 12469 21806 10017 21033 30043 40279 58018 60001 82100 333 10022 21039 70010
AAXX 24184 71600 17440 83621 11001 21024 30183 40189 53017 69951 74544 333 10043 21002 70100
AAXX 24184 71601 NIL
AAXX 24181 12120 11370 82903 10047 20046 30125 40132 52043 60032 76154 8672/ 333 10053 20033 91109 93002
AAXX 24181 12250 11225 82402 10055 20054 30037 40126 52016 69972 75152 886// 333 10055 20040 93091
AAXX 24181 12295 11109 81803 11002 21002 39950 40139 53002 69932 76654 8772/ 333 11002 21024 87702 93093
AAXX 24181 12330 11260 83108 10042 20035 30049 40159 53036 60032 76165 887// 333 10064 20042 83706 88613 91112 93003
AAXX 24181 12375 11457 81901 10034 20034 30008 40141 53009 69962 71065 875// 333 10034 20011 87612 93092
AAXX 24181 12424 11475 82807 10044 20027 30022 40177 53033 69902 76162 875// 333 10081 20044 82613 91112 93097
AAXX 24184 71043 11983 20000 11294 21343 30073 40171 53014 69901 70277 82070 333 11212 21299 48030 70028 90953
AAXX 24184 71045 16/// /0206 11046 21077 39220 40082 54000 60001 333 11018 21099 70000
AAXX 24184 71050 46/// /1102 11086 21098 39147 40256 56005 6///1 333 11077 21140 7////
AAXX 24184 71051 NIL
AAXX 24184 71052 NIL
AAXX 24184 71066 12774 10000 11051 21098 39695 40118 53024 60001 81500 333 11012 21124 70000
AAXX 24184 71068 NIL
AAXX 24184 71069 16964 02719 10044 21038 39468 40170 53032 60001 333 10059 20031 70000
AAXX 24184 71076 16/// /2603 11094 21108 39674 40071 53030 60001 333 11064 21143 70000
AAXX 24184 71077 16/// /3008 10019 21004 39565 40103 53025 60001 333 10025 21053 70000 555 10010
AAXX 24184 71079 11474 32711 11049 21070 39715 49995 57007 69901 70377 81570 333 11048 21228 48010 70008 90943
AAXX 24184 71081 47956 03504 11244 21281 39907 49919 58019 6///1 745// 333 11218 21326 7////
AAXX 24184 71082 NIL
AAXX 24184 71083 11562 63415 11175 21211 39872 49914 53008 69941 77177 86500 333 11127 21277 48056 70022 90983
AAXX 24184 71090 46664 82603 11277 21317 39946 49982 5/002 6///1 333 11273 21319 7////
AAXX 24184 71091 460// /0810 11273 39739 49954 56015 6///1 333 7////
AAXX 24184 71092 46964 01406 11278 39288 49967 58005 6///1 333 11209 21278 7////
AAXX 24184 71093 460// /2620 11233 39450 49955 58002 6///1 333 11216 21235 7////
AAXX 24184 71094 46064 /2606 11207 39015 49921 56007 6///1 333 11195 21208 7////
AAXX 24184 71095 NIL
AAXX 24184 71101 160// /1708 30063 56024 60091 333 70085
AAXX 24184 71104 11474 81412 10017 21029 39130 40255 55003 69901 70187 86571 333 10017 21028 44029 79999 90921
AAXX 24184 71108 11548 80205 10051 20046 30236 40310 55004 60081 76166 885// 333 10051 20025 70098 90973
AAXX 24184 71109 12680 71210 10077 20045 30192 40219 51001 60001 87500 333 10077 20053 70122
AAXX 24184 71401 17/// /1403 11041 21050 39672 40384 53010 60011 7//4/ 333 11039 21075 70029
AAXX 24184 71402 NIL
AAXX 24184 71404 NIL
AAXX 24184 71405 NIL
AAXX 24184 71406 NIL
AAXX 24184 71407 NIL
AAXX 24184 71408 NIL
AAXX 24184 71409 NIL
AAXX 24184 71410 15866 82606 11038 21063 39756 40036 56010 60001 333 11038 21135
AAXX 24184 71413 NIL
AAXX 24184 71414 NIL
AAXX 24184 71415 16/// /3615 11056 21095 30231 40234 53001 60001 333 11011 21059 70059
AAXX 24184 71417 NIL
AAXX 24184 71418 NIL
AAXX 24184 71419 46/// /3520 11041 21081 30207 40217 53010 6///1 333 10015 21046 7////
AAXX 24184 71423 NIL
AAXX 24184 71424 46/// /2506 6///1 333 7////
AAXX 24184 71425 NIL
AAXX 24184 71426 NIL
AAXX 24184 71427 NIL
AAXX 24184 71428 16/// /2411 11125 21171 30296 40303 55005 60001 333 11118 21149 70000
AAXX 24184 71429 16/// /3109 11114 21192 30239 40259 57007 60001 333 11108 21154 70010
AAXX 24184 71434 NIL
AAXX 24184 71436 15466 31303 11070 21092 30077 40323 58015 60001 333 11067 21120 70000
AAXX 24184 71437 46/// /0807 11010 21086 30203 40301 58020 6///1 333 11009 21058 7////
AAXX 24184 71438 NIL
AAXX 24184 71439 NIL
AAXX 24184 71440 NIL
AAXX 24184 71442 NIL
AAXX 24184 71445 NIL
AAXX 24184 71446 16/// /2718 10011 21053 39226 40215 53020 60001 333 10011 21027 70000
AAXX 24184 71448 NIL
AAXX 24184 71449 16/// /2407 11048 21085 39718 40127 58015 60001 333 11048 21097 70000
AAXX 24184 71201 17/// ///// 10071 20057 60131 7//4/ 333 10071 20054 70162
AAXX 24184 71202 16/// ///// 10031 21050 60001 333 10036 21057 70007
AAXX 24184 71203 15766 81508 10002 21036 39818 40352 53013 60001 333 10002 21008 70000
AAXX 24184 71209 46/// /1216 10069 6///1 333 10071 20049 7////
AAXX 24184 71211 46/// /0316 10051 20038 30288 40300 53005 6///1 333 10055 20035 7////
AAXX 24184 71212 17/// /1602 11145 21222 39451 40310 58007 69951 7//4/ 333 11137 21333 70013 555 10020
AAXX 24184 71213 46/// /1308 11123 21168 39974 40292 58030 6///1 333 11122 21251 7////
AAXX 24184 71214 NIL
AAXX 24184 71215 NIL
AAXX 24184 71216 17/// /1301 11006 21026 39723 40358 53010 60021 7//4/ 333 11006 21026 70021 555 10050
AAXX 24184 71217 NIL
AAXX 24184 71218 16/// /1203 10001 21021 39901 40340 53009 60001 333 10005 21019 70000 555 10020
AAXX 24184 71219 46/// /1422 10083 20046 30099 40105 56030 6///1 333 10087 20043 7////
AAXX 24184 71220 46/// /1432 10071 20048 6///1 333 10073 20040 7////
AAXX 24184 71221 NIL
AAXX 24184 71222 16/// /0704 11104 21113 39154 40135 58013 60001 333 11048 21141 70000
AAXX 24184 71223 NIL
AAXX 24184 71224 NIL
AAXX 24184 71225 NIL
AAXX 24184 71226 NIL
AAXX 24184 71227 NIL
AAXX 24184 71228 NIL
AAXX 24184 71229 NIL
AAXX 24184 71230 16/// /1604 10024 21050 39291 40186 51014 60001 333 10035 21007 70000
AAXX 24184 71231 16/// /2821 10067 21044 60001 333 10067 20011 70000
AAXX 24184 71232 16/// /2406 10039 21083 38735 40240 51019 60001 333 10039 20006 70000
AAXX 24184 71233 16/// /2406 10051 21084 60001 333 10051 20004 70000
AAXX 24184 71234 16/// /2720 10052 21072 39056 40251 53017 60001 333 10055 20017 70000
AAXX 24184 71235 16/// /3109 10035 21069 60001 333 10053 20010 70000
AAXX 24184 71236 46/// /3211 10021 21052 6///1 333 10021 21017 7////
AAXX 24184 71237 46/// /1503 11001 21051 39401 40230 51020 6///1 333 10047 21065 7////
AAXX 24184 71238 16/// /2805 10048 21053 60001 333 10048 20007 70000
AAXX 24184 71239 16/// /2711 10009 21045 39670 40136 58004 60001 333 10009 21127 70000 555 10010
AAXX 24184 71240 16/// ///// 10054 21077 39354 40206 53017 60001 333 10054 21012 70000
AAXX 24184 71241 NIL
AAXX 24184 71242 16/// /2712 10024 21060 60001 333 10034 21051 70000
AAXX 24184 71243 NIL
AAXX 24184 71244 16/// /2818 10041 21037 39015 40252 53012 60001 333 10041 21003 70000
AAXX 24184 71245 NIL
AAXX 24184 71246 NIL
AAXX 24184 71247 15966 02410 10061 21047 39378 40240 51016 60001 333 10061 21011 70000
AAXX 24184 71248 16/// /0000 11004 21078 38927 40244 51024 60001 333 10052 21016 70000
AAXX 24184 71249 NIL
AAXX 24184 71700 15566 63511 11128 21172 30272 40299 55000 60001 333 11056 21137 70011
AAXX 24184 71701 11474 73208 11128 21159 30232 40297 53002 69901 77172 87500 333 11060 21134 47007 70034 90917
AAXX 24184 71702 17/// /3415 11103 21146 30241 40257 53001 69941 7//4/ 333 11052 21105 70020 555 10220
AAXX 24184 71703 12974 22907 11165 21190 39999 40314 58001 60001 80002 333 11144 21192 70050
AAXX 24184 71704 15466 81905 11001 21027 30053 40280 60001 333 10000 21038 70000
AAXX 24184 71710 NIL
AAXX 24184 71712 16/// /0804 11131 21172 30284 40350 50000 60001 333 11116 21145 70000
AAXX 24184 71713 NIL
AAXX 24184 71716 NIL
AAXX 24184 71717 NIL
AAXX 24184 71720 17/// /1012 10080 20052 30127 40281 53007 60031 7//4/ 333 10080 20049 70044
AAXX 24184 71721 16/// /1802 11142 21206 30079 40341 58009 60001 333 11137 21238 70000
AAXX 24184 71723 NIL
AAXX 24184 71724 16/// /3203 11158 21217 30344 40352 58004 60001 333 11156 21197 70000
AAXX 24184 71732 NIL
AAXX 24184 71733 16/// /1006 11105 21133 39831 40287 58027 60001 333 11101 21174 70000 555 10010
AAXX 24184 71734 16/// /1206 11157 21216 39885 40303 58026 60001 333 11156 21257 70000
AAXX 24184 71736 NIL
AAXX 24184 71737 NIL
AAXX 24184 71741 16/// /1112 10016 21021 39881 40312 53008 60001 333 10016 21008 70000
AAXX 24184 71742 NIL
AAXX 24184 71743 NIL
AAXX 24184 71744 NIL
AAXX 24184 71745 NIL
AAXX 24184 71746 NIL
AAXX 24184 71747 NIL
AAXX 24184 71748 NIL
AAXX 24184 71812 NIL
AAXX 24184 71819 15966 03015 11164 21219 30093 40136 55006 60001 333 11149 21219 70000
AAXX 24184 71820 16/// /0301 11079 21159 30214 40334 58008 60001 333 11076 21134 70000
AAXX 24184 71823 16964 02106 11232 21270 39886 40296 58018 60001 333 11232 21279 70000
AAXX 24184 71824 NIL
AAXX 24184 71826 16/// /1502 11207 21234 39961 40005 57008 60001 333 11172 21215 70000
AAXX 24184 71829 16/// /2608 11151 21236 30138 40310 57007 60001 333 11151 21232 70000
AAXX 24184 71833 46/// /1705 11017 21083 6///1 333 11017 21117 7////
AAXX 24184 71835 16/// /2313 11065 21080 39612 40100 58036 60001 333 11065 21169 70006
AAXX 24184 71837 NIL
AAXX 24184 71839 NIL
AAXX 24184 71840 46/// /2719 10012 21043 6///1 333 10012 21125 7////
AAXX 24184 71846 16/// /2008 11067 21089 39789 40113 58045 60001 333 11067 21215 70000
AAXX 24184 71847 NIL
AAXX 24184 71848 NIL
AAXX 24184 71849 NIL
AAXX 24184 71930 13974 73102 10014 21074 39268 40206 52026 60003 83031 333 10051 20000 47017 70000
AAXX 24184 71931 46/// /3020 11106 21154 30105 40117 53006 6///1 333 7////
AAXX 24184 71934 11474 82908 11090 21113 39835 40095 51032 69901 77177 8857/ 333 11070 21100 47021 79999 90973
AAXX 24184 71935 11974 73109 11139 21168 39913 40126 53030 69941 77072 86079 333 11104 21144 44013 70004 90933 93101
AAXX 24184 71936 11474 62909 11165 21190 39831 40097 51029 69941 72277 86800 333 11117 21165 48022 70006 90983
AAXX 24184 71937 NIL
AAXX 24184 71938 11969 72309 11283 21312 30104 40135 53010 69901 72277 87070 333 11225 21309 46025 70006 90913
AAXX 24184 71940 12982 72610 10023 21035 39386 40196 53011 60001 83071 333 10037 20007 70000
AAXX 24184 71943 12974 72320 10021 21065 39333 40171 53009 60001 87070 333 10026 20010 70000
AAXX 24184 71944 160// ///// 11023 50001 60001 333 10011 21028 70000
AAXX 24184 71945 12983 22408 11079 21133 39654 40131 52020 60001 80001 333 10000 21128 70000
AAXX 24184 71946 12774 23103 11199 21229 39920 40142 53017 60001 81501 333 11142 21199 79999
AAXX 24184 71948 47061 /2513 11316 30017 40137 53009 6///1 745// 333 11305 21319 7////
AAXX 24184 71949 46/// /1302 11089 21101 39179 40054 53014 6///1 333 11062 21106 7////
AAXX 24184 71951 11312 80000 10008 20008 39888 40157 57025 60011 76152 887// 333 10016 20004 43018 70092 90962
AAXX 24184 71957 46864 32702 11301 21370 30082 40176 52015 6///1 333 11260 21306 7////
AAXX 24184 71964 12586 61605 11061 21093 39196 40053 50006 60001 81572 333 11036 21076 70000
AAXX 24184 71966 16/// /0401 11198 21222 39600 40075 51008 60001 333 11181 21223 70024
AAXX 24184 71968 470// /2710 11274 30113 40181 53015 6///1 745// 333 11251 21274 7////
AAXX 24184 71851 16/// /2710 10019 21041 39777 40115 58006 60001 333 10019 21097 70000
AAXX 24184 71857 NIL
AAXX 24184 71860 12783 73407 10026 21066 38847 40257 52034 60001 81571 333 10040 20012 70000
AAXX 24184 71876 15966 02919 10054 21060 39492 40158 51009 60001 333 10054 21013 70000
AAXX 24184 71885 NIL
AAXX 24184 71886 16/// /2409 11012 21062 39517 40130 55000 60001 333 11012 21094 70000
AAXX 24184 71888 NIL
AAXX 24184 71890 16/// /0508 11154 21244 30288 40317 57011 60001 333 11154 21277 70000
AAXX 24184 71895 NIL
AAXX 24184 71914 46/// /2702 10068 20057 30077 6///1 333 20043 7////
AAXX 24184 71665 NIL
AAXX 24184 71666 16/// /3210 11126 21164 30231 40278 55000 60001 333 11063 21130 70007 555 10070
AAXX 24184 71667 NIL
AAXX 24184 71668 16/// /3309 11129 21177 30250 40295 55001 60001 333 11056 21140 70003 555 10030
AAXX 24184 71669 NIL
AAXX 24184 71670 16/// ///// 11123 21154 60001 333 11088 21140 70059
AAXX 24184 71671 16/// /3507 11085 21108 30193 40255 53008 60001 333 11017 21085 70006 555 10010
AAXX 24184 71672 17/// /0501 11058 21112 30043 40319 58016 69931 7//4/ 333 11051 21139 70003
AAXX 24184 71673 NIL
AAXX 24184 71674 NIL
AAXX 24184 71675 17528 82111 11071 21081 39769 40054 58045 60041 77144 333 11071 21218 70174
AAXX 24184 71679 16/// /0803 10013 21010 39154 40170 58012 60001 333 10046 21017 70000
AAXX 24184 71680 NIL
AAXX 24184 71681 46/// /2202 11014 21035 6///1 333 11014 21072 7////
AAXX 24184 71682 NIL
AAXX 24184 71683 NIL
AAXX 24184 71684 15566 61209 11125 21176 39976 40295 58030 60001 333 11125 21246 70000
AAXX 24184 71685 17466 80602 11008 21018 39806 40361 52012 69931 7714/ 333 11005 21024 70003
AAXX 24184 71686 469// /0605 11092 21101 39154 40120 58014 6///1 333 11043 21121
AAXX 24184 71687 17/// /0000 10004 20000 39502 40298 53005 60061 7//4/ 333 10014 7////
AAXX 24184 71688 16/// /0000 10002 20002 39237 40287 53003 60001 333 10003 21022 70000 555 10200
AAXX 24184 71689 15966 32712 10019 20001 39658 40112 53034 60001 333 10038 20015 70000
AAXX 24184 71690 NIL
AAXX 24184 71691 15966 02708 11153 21234 30292 40321 58010 60001 333 11153 21270 70000
AAXX 24184 71692 NIL
AAXX 24184 71694 16/// /1303 11058 21105 39933 40312 58023 60001 333 11055 21156 70000
AAXX 24184 71695 16/// /2507 11017 21051 39712 40047 58005 60001 333 11015 21115 70006 555 10010
AAXX 24184 71696 17/// /3118 11064 21078 39876 49912 53002 69931 7//4/ 333 11053 21230 70012
AAXX 24184 71697 15466 11207 11045 21074 30139 40317 58011 60001 333 11039 21103 70000
AAXX 24184 71699 16/// /3311 11104 21140 30273 40281 53005 60001 333 11025 21107 70038
AAXX 24184 71604 17/// /3212 11130 21137 60011 7//4/ 333 11064 21131 70097 555 10150
AAXX 24184 71605 17/// /3601 10056 20056 30148 40300 53008 60161 7//4/ 333 10062 20034 70245
AAXX 24184 71611 16/// /1302 11142 21192 60001 333 11138 21189 70000
AAXX 24184 71612 16/// /0301 11124 21195 30260 40355 55003 60001 333 11122 21166 70010
AAXX 24184 71614 17/// /0701 11140 21202 30273 40343 55003 69931 7//4/ 333 11132 21177 70026 555 10010
AAXX 24184 71616 16/// /2401 11157 21184 30226 40355 58003 60001 333 11149 21229 70000
AAXX 24184 71617 16/// /0602 11194 21246 30185 40373 58004 60001 333 11187 21256 70000
AAXX 24184 71618 NIL
AAXX 24184 71619 16/// /3009 11123 21210 30218 40280 58007 60001 333 11122 21174 70020
AAXX 24184 71622 NIL
AAXX 24184 71632 46/// /3114 11030 21054 39563 40001 53013 6///1 333 11029 21151 7//// 555 10040
AAXX 24184 71634 16/// /3204 11134 21171 30133 40294 58004 60001 333 11114 21163 70024 555 10060
AAXX 24184 71638 17/// /3203 10062 20050 30180 40287 53010 60091 7//4/ 333 10080 20044 70094
AAXX 24184 71639 12474 71206 11033 21079 30058 40309 58016 60001 87500 333 11028 21104 70000
AAXX 24184 71642 12574 71707 11055 21076 39662 40224 58035 60001 84530 333 11054 21153 70000
AAXX 24184 71818 12574 12914 11200 21222 30106 40125 55002 60001 81500 333 11183 21245 70000
AAXX 24184 71500 NIL
AAXX 24184 71501 NIL
AAXX 24184 71502 NIL
AAXX 24184 71503 NIL
AAXX 24184 71504 NIL
AAXX 24184 71505 46/// /0702 11077 21100 39298 40023 51007 6///1 333 11035 21080 7////
AAXX 24184 71506 NIL
AAXX 24184 71507 NIL
AAXX 24184 71508 17/// ///// 11018 21043 30169 40312 58017 60011 7//4/ 333 11018 21065 70010
AAXX 24184 71509 NIL
AAXX 24184 71511 16/// /2815 10020 21051 39510 40151 53008 60001 333 10024 21071 70000
AAXX 24184 71512 NIL
AAXX 24184 71513 15966 03210 11183 21254 30216 40232 56012 60001 333 11183 21252 70000
AAXX 24184 71514 NIL
AAXX 24184 71515 16/// /2717 10009 21050 39444 40148 58001 60001 333 10022 21075 70000
AAXX 24184 71516 NIL
AAXX 24184 71517 NIL
AAXX 24184 71518 NIL
AAXX 24184 71519 NIL
AAXX 24184 71520 NIL
AAXX 24184 71521 NIL
AAXX 24184 71522 NIL
AAXX 24184 71523 NIL
AAXX 24184 71524 16/// /3402 11155 21211 30340 40369 55000 60001 333 11148 21193 70000 555 10010
AAXX 24184 71525 NIL
AAXX 24184 71526 NIL
AAXX 24184 71527 15366 82111 11055 21070 39609 40124 58027 60001 333 11055 21082 70000
AAXX 24184 71528 NIL
AAXX 24184 71529 46/// /14// 11131 21155 39835 40065 53024 6///1 333 11097 21132 7////
AAXX 24184 71532 15966 01408 11065 21096 39943 40303 58022 60001 333 11065 21145 70000
AAXX 24184 71534 17964 01409 11032 21078 30016 40298 58019 69951 7//44 333 11031 21163 70005
AAXX 24184 71535 NIL
AAXX 24184 71536 NIL
AAXX 24184 71537 NIL
AAXX 24184 71539 NIL
AAXX 24184 71540 NIL
AAXX 24184 71541 NIL
AAXX 24184 71542 16/// /2511 10013 21052 60001 333 10039 21005 70000
AAXX 24184 71543 NIL
AAXX 24184 71544 NIL
AAXX 24184 71545 16/// ///// 10038 21036 60001 333 10039 21024 70000
AAXX 24184 71546 NIL
AAXX 24184 71547 NIL
AAXX 24184 71548 NIL
AAXX 24184 71549 NIL
AAXX 24184 71114 160// /0000 10033 20028 30266 40315 53002 60041 333 10033 20009 70055
AAXX 24184 71120 12874 22813 10033 21047 39485 40143 57022 60001 82030 333 10033 21053 70000
AAXX 24184 71122 16/// /2408 11028 21080 38658 40291 51017 60001 333 21044 7////
AAXX 24184 71123 12674 62809 10035 21066 39339 40211 52030 60001 81571 333 10038 21063 70000
AAXX 24184 71125 12674 22823 10050 21043 39540 40125 53018 60001 81570 333 70000
AAXX 24184 71129 12974 12811 10016 21063 39362 40203 51012 60001 81070 333 10017 21047 70000
AAXX 24184 71131 NIL
AAXX 24184 71135 16/// /2714 11016 21074 39122 40226 50009 60001 333 11015 21063 70000
AAXX 24184 71137 NIL
AAXX 24184 71140 12974 72715 11012 21047 39635 40145 5/005 60001 85071 333 11011 21142 70000
AAXX 24184 71145 11474 82409 11058 21077 39737 40033 56025 69901 72277 885// 333 11058 21152 48039 70002 90973
AAXX 24184 71148 16/// /2809 10008 21046 39559 40147 58005 60001 333 10008 21129 70000 555 10010
AAXX 24184 71185 17461 82911 11139 30151 40176 55000 69951 74544 333 11108 21142 70005
AAXX 24184 71188 NIL
AAXX 24184 71200 17/// /0706 10070 20063 60051 7//4/ 333 10071 20052 70056
AAXX 24184 71207 17/// /3302 10020 30243 40309 53004 60151 7//4/ 333 10021 20000 70329
AAXX 24184 71260 13/// ///// 11024 21032 39985 40228 58029 69921 333 11024 21092 46001 70011
AAXX 24184 71900 46/// /28// 11167 21253 30103 40116 51009 6///1 333 11166 21223 7////
AAXX 24184 71903 NIL
AAXX 24184 71904 NIL
AAXX 24184 71914 17/// /2702 10068 20057 30077 40301 53008 60021 7//4/ 333 10072 20043 70034
AAXX 24184 71916 NIL
AAXX 24184 71918 460// ///// 11305 6///1 333 7////
AAXX 24184 71920 NIL
AAXX 24184 71921 NIL
AAXX 24184 71923 NIL
AAXX 24184 71927 17/// /2502 10072 20064 30237 40296 53010 60031 7//4/ 333 10072 20019 70064
AAXX 24184 71941 15966 01406 11162 21210 39880 40327 57016 60001 333 11161 21279 70000
AAXX 24184 71947 15966 01611 11184 21214 39934 40307 58026 60001 333 11184 21330 70000
AAXX 24184 17500 NIL
AAXX 24184 17501 11560 51604 10130 20079 30077 40096 51007 60012 78081 84230 333 10166 84825 92437
AAXX 24184 17505 11560 52212 10121 20084 39992 40105 52007 60052 78082 84230 333 10164 84825
AAXX 24184 17507 NIL
AAXX 24184 17510 11560 30000 10136 20076 30067 40077 53005 69952 70181 83200 333 10171 83830 92427
AAXX 24184 17515 11560 50000 10091 20069 39940 40118 53006 69952 70381 84230 333 10158 84825
AAXX 24184 17521 12560 52705 10091 20071 39956 40094 52008 60002 82230 333 10170 82830 84358
AAXX 24184 17530 11560 50000 10101 20081 30049 40106 52010 60002 70381 84230 333 10165 84825
AAXX 24184 17535 12560 50000 10103 20078 30047 40083 51006 60002 84230 333 10157 84825
AAXX 24184 17540 NIL
AAXX 24184 17547 NIL
AAXX 24184 17550 12560 50000 10113 20081 39949 40094 52009 60002 84230 333 10160 84825 92437
AAXX 24184 17572 11560 3//// 10148 20089 30080 40104 52005 60012 70181 83200 333 10166 83830 92427
AAXX 24181 12160 11213 82302 10046 20045 30059 40112 52015 60082 75364 886// 333 10047 20023 93004
AAXX 24181 12205 11462 32906 10044 20029 30176 40184 51041 60032 70161 83500 333 10071 20043 91114 93002
AAXX 24181 12465 11228 82304 10042 20041 39911 40147 52011 69902 72165 876// 333 10042 20027 87704 93097
AAXX 24181 12566 11350 82304 10035 20029 39880 40179 53017 69902 76122 875// 333 10035 20002 82708 87614 93097
AAXX 24184 71150 NIL
AAXX 24184 71151 NIL
AAXX 24184 71152 16/// /3312 11094 21149 30175 40188 53008 60001 333 11025 21095 70014
AAXX 24184 71153 NIL
AAXX 24184 71154 16/// /2317 10036 21041 60001 333 10042 20004 70000
AAXX 24184 71155 NIL
AAXX 24184 71156 NIL
AAXX 24184 71157 46/// ///// 10052 21041 6///1 333 10052 20012 7////
AAXX 24184 71158 NIL
AAXX 24184 71159 NIL
AAXX 24184 71160 NIL
AAXX 24184 71161 16/// /0304 11109 21141 30177 40333 58007 60001 333 11109 21156 70000
AAXX 24184 71162 NIL
AAXX 24184 71163 46/// /2806 11205 21224 39761 40114 53026 6///1 333 11149 21205 7////
AAXX 24184 71164 NIL
AAXX 24184 71165 NIL
AAXX 24184 71166 NIL
AAXX 24184 71167 15966 82606 10027 21072 39111 40212 53017 60001 333 10050 20002 70000
AAXX 24184 71168 NIL
AAXX 24184 71170 NIL
AAXX 24184 71171 16/// /1304 10003 21092 30197 40297 58021 60001 333 10006 21062 70000
AAXX 24184 71172 16/// ///// 11024 21092 30055 40280 58024 60001 333 11022 21124 70000
AAXX 24184 71175 NIL
AAXX 24184 71176 460// /2539 11174 39352 40052 53004 6///1 333 11162 21215 7////
AAXX 24184 71177 460// /3111 11198 39030 40069 53019 6///1 333 11190 21255 7////
AAXX 24184 71178 16/// /3123 11079 21124 30101 40133 53011 60001 333 11031 21079 70054
AAXX 24184 71179 460// /2526 11223 39206 40070 53005 6///1 333 11223 21297 7////
AAXX 24184 71180 16/// /3320 11087 21124 30165 40205 58003 60001 333 11042 21088 70012
AAXX 24184 71181 17450 83309 11060 21096 30098 40135 53002 60001 745// 333 11016 21062 70055
AAXX 24184 71183 16/// /3201 30311 55003 60001 333 70005
AAXX 24184 71184 46/// /0000 11134 21199 6///1 333 11134 21179 7////
AAXX 24184 71186 NIL
AAXX 24184 71187 17161 81201 10031 20030 30265 40314 53001 60001 761// 333 10032 20009 70000
AAXX 24184 71189 NIL
AAXX 24184 71190 NIL
AAXX 24184 71191 16/// ///// 11107 21147 60001 333 11029 21107 70000 555 10010
AAXX 24184 71192 15966 81706 10012 21021 39576 40245 56005 60001 333 10025 21017 70000
AAXX 24184 71193 16/// /1509 11111 21146 39875 40257 58030 60001 333 11111 21241 70000
AAXX 24184 71196 16/// /1304 11130 21165 30122 40333 58017 60001 333 11128 21222 70000
AAXX 24184 71197 17564 83119 11089 21148 30152 40203 55001 60001 745// 333 11033 21089 70000
AAXX 24184 71198 46/// /0305 11151 21216 6///1 333 11150 21183 7////
AAXX 24184 71199 46/// /1002 11143 21155 39274 40121 51014 6///1 333 11031 21175 7////
AAXX 24181 13168 NIL
AAXX 24181 13174 NIL
AAXX 24181 13269 NIL
AAXX 24181 13274 NIL
AAXX 24181 13278 NIL
AAXX 24181 13378 NIL
AAXX 24181 13397 NIL
AAXX 24181 13457 32670 70000 10056 20034 30170 40177 52006 81550 333 10128 81640 86360
AAXX 24181 13481 NIL
AAXX 24184 71051 NIL
AAXX 24184 71055 NIL
AAXX 24184 71057 NIL
AAXX 24184 71059 460// ///// 11284 30036 40131 53007 6///1 333 11274 21302 7////
AAXX 24184 71061 16/// /2506 10019 21054 39403 40181 51029 60001 333 10049 21012 70000
AAXX 24184 71062 46/// /3404 10027 21068 39123 40192 53020 6///1 333 10048 20008 7////
AAXX 24184 71064 460// /3218 11321 39857 40085 51006 6///1 333 11311 21336 7////
AAXX 24184 71065 NIL
AAXX 24184 71067 NIL
AAXX 24184 71070 NIL
AAXX 24184 71073 NIL
AAXX 24184 71074 NIL
AAXX 24184 71075 16/// /3107 11067 21076 39419 40024 52027 60001 333 11036 21126 70000
AAXX 24184 71078 NIL
AAXX 24184 71084 460// ///// 11317 39988 40038 53022 6///1 333 11286 21321 7////
AAXX 24184 71085 15766 33012 10025 21052 38897 40298 53008 60001 333 10030 20001 70000
AAXX 24184 71087 NIL
AAXX 24184 71088 460// /0813 11218 58019 6///1 333 11217 21271 7////
AAXX 24184 71089 NIL
AAXX 24184 71096 460// ///// 11208 39213 49954 56003 6///1 333 11177 21226 7////
AAXX 24184 71097 46964 03213 11167 39535 40016 58002 6///1 333 11151 21167 7////
AAXX 24184 71098 43/// /2208 11061 21072 39687 40051 57031 6///1 333 11060 21187 7////
AAXX 24184 71099 43/// /2015 11108 21133 39991 40012 58050 6///1 333 11107 21280 7////
AAXX 24184 17042 11560 72904 10094 20077 30110 40149 52036 60082 78022 84250 333 10122 84830 87358 92437
AAXX 24184 17074 11560 82903 11001 21028 39215 40172 52014 69982 70272 8452/ 333 10023 84630 88460 91109
AAXX 24184 17086 11665 80910 10033 21055 39404 40122 52012 60022 70262 8652/ 333 10091 86635 88460
AAXX 24184 17088 12670 30000 10020 21023 38722 48428 52018 69912 83500 333 10077 83640
AAXX 24184 17140 12457 80404 11015 21025 38632 48421 52014 60002 8672/ 333 10024 82710 85638 88459 93101
AAXX 24184 17155 11550 83503 11021 21038 39030 40182 52010 69942 77172 8552/ 333 10003 85630 88458 91109 93101
AAXX 24184 17203 11658 80000 10018 20011 38828 48482 51007 60072 76122 8552/ 333 10044 85633 88457
AAXX 24184 17237 12670 80602 10033 20003 39646 40162 50007 60002 84520 333 10058 84635 88459 91110
AAXX 24184 17250 12675 72403 10004 21003 38734 48428 52005 60042 83570 333 10020 83640 87360
AAXX 24184 17270 11660 81602 10069 20059 39477 40131 52007 60052 76162 8552/ 333 10072 85635 88459
AAXX 24184 17295 12960 03310 10086 20007 30116 40123 52015 60002 333 10141
AAXX 24184 17320 11660 73604 10105 20088 30093 40098 53012 60162 78111 85270 333 10137 85833 87358 92437
AAXX 24184 17375 11670 33502 10110 20031 30099 40101 51011 60032 70181 83200 333 10172 83833 91106 92438
AAXX 24184 71300 NIL
AAXX 24184 71301 17/// ///// 11129 21184 39862 40285 58028 60011 7//4/ 333 11129 21277 70016
AAXX 24184 71302 16/// /1811 10025 21011 39395 40219 56004 60001 333 10026 21007 70000
AAXX 24184 71303 46/// ///// 10018 21029 6///1 333 10026 21034 7////
AAXX 24184 71305 15966 02906 11084 21102 39802 40095 51037 60001 333 11003 21096 70000
AAXX 24184 71306 17408 62026 11130 21147 30087 40120 58038 60001 772// 333 11130 21178 70000
AAXX 24184 71307 16/// /2105 10011 21031 30026 40283 58020 60001 333 10011 21031 70000
AAXX 24184 71308 16/// /3414 11053 21086 30140 40226 55000 60001 333 11003 21055 70032 555 10220
AAXX 24184 71309 NIL
AAXX 24184 71310 16/// /3312 11079 21125 30206 40244 53001 60001 333 11042 21081 7//// 555 10110
AAXX 24184 71311 NIL
AAXX 24184 71312 16/// /2510 10008 21045 39631 40089 58001 60001 333 10011 21118 70000
AAXX 24184 71314 16/// /1506 11045 21090 39932 40298 58017 60001 333 11045 21129 70000
AAXX 24184 71315 16/// /2802 11136 21194 30243 40300 56008 60001 333 11118 21181 70041 555 10050
AAXX 24184 71316 16/// /2916 10047 21051 39470 40155 53029 60001 333 10047 21022 70000
AAXX 24184 71317 NIL
AAXX 24184 71318 16/// /2715 10041 21072 39257 40211 53020 60001 333 10042 21032 70000
AAXX 24184 71319 16/// /0802 11175 21191 39391 40311 50001 60001 333 11165 21284 70008
AAXX 24184 71320 NIL
AAXX 24184 71321 16/// /1103 11158 21176 30003 40047 58021 60001 333 11158 21223 70000
AAXX 24184 71322 NIL
AAXX 24184 71323 NIL
AAXX 24184 71331 NIL
AAXX 24184 71332 NIL
AAXX 24184 71334 46/// /3410 11096 21127 39650 49980 51033 6///1 333 11037 21192 7////
AAXX 24184 71335 46964 02824 11156 53011 6///1 333 11133 21202 7////
AAXX 24184 71336 46/// ///11 11066 21108 30092 40114 53011 6///1 333 11007 21067 7////
AAXX 24184 71337 46/// /2910 11124 21169 39892 40137 53002 6///1 333 11113 21136 7////
AAXX 24184 71338 46664 80000 11239 21274 39966 49973 57008 6///1 333 11224 21298 7////
AAXX 24184 71339 17964 02812 11185 21298 30102 40117 55013 69951 7//44 333 11180 21243 70005
AAXX 24184 71340 NIL
AAXX 24184 71341 NIL
AAXX 24184 71342 NIL
AAXX 24184 71343 NIL
AAXX 24184 71344 NIL
AAXX 24184 71345 NIL
AAXX 24184 71346 NIL
AAXX 24184 71347 NIL
AAXX 24184 71348 NIL
AAXX 24184 71349 NIL
AAXX 24184 71864 NIL
AAXX 24184 71865 16/// /2516 10009 21063 39451 40134 50003 60001 333 10009 21049 70000
AAXX 24184 71866 46964 02916 10042 21051 39537 40155 51006 6///1 333 10042 21057 7////
AAXX 24184 71867 12874 72708 11018 21041 39715 40051 58006 60001 85071 333 11016 21117 70008
AAXX 24184 71868 NIL
AAXX 24184 71869 12974 22915 10036 21033 39587 40113 51003 60001 82070 333 10036 21105 70000
AAXX 24184 71871 15966 02923 10050 21057 39356 40162 53016 60001 333 10050 21014 70000
AAXX 24184 71877 11686 72906 10050 21073 38977 40254 53033 60001 71411 81170 333 10062 20021 70000
AAXX 24184 71878 12974 72608 10020 21061 39150 40233 52015 60001 85071 333 10032 21077 70000
AAXX 24184 71879 16964 02810 10055 21066 39395 40199 51031 60001 333 10055 20011 70000
AAXX 24184 71880 12682 73603 11039 21073 39215 40362 53010 60001 87500 333 11017 21095 70000
AAXX 24184 71882 160// /0404 11006 21023 39806 40360 51011 69951 333 11005 21027 70005
AAXX 24184 71883 46/// /0000 11035 21040 39482 40326 52004 6///1 333 11035 21100 7////
AAXX 24184 71887 12586 81214 10019 21020 39885 40316 53008 60001 8157/ 333 10021 21014 70000
AAXX 24184 71889 12674 81914 10001 21048 39931 40362 53016 60001 8357/ 333 10004 21008 70000
AAXX 24184 71891 16564 80000 10024 21030 30010 40289 51018 60001 333 10073 20009 70005
AAXX 24184 71892 11462 81011 10068 20058 30300 40305 53010 60091 76366 885// 333 10072 20049 70100 90973
AAXX 24184 71102 NIL
AAXX 24184 71105 NIL
AAXX 24184 71107 NIL
AAXX 24184 71110 NIL
AAXX 24184 71111 17966 31710 10074 20051 30065 40073 56023 69931 7004/ 333 10076 20018 70081
AAXX 24184 71112 17/// ///// 60081 7//4/ 333 70094
AAXX 24184 71113 17/// /1801 10042 20041 30285 40309 53003 60061 7//4/ 333 10042 20021 70088
AAXX 24184 71115 17/// /0802 11017 21024 39743 40343 53009 69931 7//4/ 333 11017 21051 70003
AAXX 24184 71116 16/// /2921 10056 21043 39151 40256 50010 60001 333 10056 21018 70000
AAXX 24184 71118 16/// /2814 10033 21062 39363 40195 52026 60001 333 10037 21025 70000
AAXX 24184 71121 16964 02810 10043 21077 39374 40199 52031 60001 333 10047 21005 70005
AAXX 24184 71127 16/// /2808 10041 21067 39288 40192 53029 60001 333 10049 20012 70000
AAXX 24184 71130 15966 82311 10010 21044 39635 40094 50001 60001 333 10012 21110 70000
AAXX 24184 71132 17466 83005 11060 21074 39729 40042 51029 60001 771// 333 11042 21096 70000
AAXX 24184 71133 NIL
AAXX 24184 71139 16/// /2913 10024 21078 38760 40226 52016 60001 333 10033 20003 70000
AAXX 24184 71141 NIL
AAXX 24184 71142 15966 32518 10007 21043 39237 40218 51015 60001 333 10007 21025 70000
AAXX 24184 71143 NIL
AAXX 24184 71144 NIL
AAXX 24184 71147 16/// /2711 10012 21044 60001 333 10012 21130 70000
AAXX 24184 71149 NIL
AAXX 24184 71893 11380 81421 10079 20064 30242 40274 53005 60031 70288 886// 333 10079 20047 70058 90933
AAXX 24184 71894 17/// /1016 10092 20092 30234 40243 53004 60121 7//4/ 333 10093 20071 70392
AAXX 24184 71896 15766 81812 10024 21013 39384 40222 56005 60001 333 10024 21010 70000
AAXX 24184 71897 11332 81425 10078 20072 3//// 4//// 56006 69981 75352 887XX 333 10080 20059 70018 90914
AAXX 24184 71898 160// ///// 10079 56035 60001 333 10081 20040 70145
AAXX 24184 71899 12374 81806 10064 20057 3//// 4//// 57044 60001 888XX 333 10069 20025 70086
AAXX 24184 71902 12974 13132 11204 21284 30012 40121 50005 60001 81040 333 11196 21217 70000
AAXX 24184 71905 NIL
AAXX 24184 71906 12574 22306 11193 21250 30137 40190 58002 60001 82500 333 11138 21236 79999
AAXX 24184 71907 17308 62024 11155 21190 30086 40120 58038 69951 74544 333 11155 21210 70005
AAXX 24184 71909 16564 81104 11160 21187 39986 40030 58021 60001 333 11160 21224 70000
AAXX 24184 71910 47408 92317 11127 21137 39912 49975 58023 6///1 745// 333 11127 21215 7////
AAXX 24184 71911 46661 83306 11272 39916 49974 52018 6///1 333 11242 21323 7////
AAXX 24184 71912 11374 82413 11057 21074 39786 49969 57013 69901 70277 886// 333 11057 21255 47015 70004 90933
AAXX 24184 71915 11516 81810 11143 21179 39844 49926 56036 60021 77177 885// 333 11141 21293 48041 70018 90983 93102
AAXX 24184 71917 11861 21402 11356 21407 30002 40017 51001 69901 77677 82070 333 11336 21422 48015 79999 90983
AAXX 24184 71922 12874 72607 10011 21023 39605 40070 52008 60001 87070 333 10011 21114 70028
AAXX 24184 71924 11774 20410 11289 21332 39922 40014 53002 69921 72270 82530 333 11256 21304 48038 70002 90913
AAXX 24184 71925 11574 23213 11322 21372 30031 40074 51011 69901 77677 82500 333 11317 21332 42021 79999 90983
AAXX 24184 71926 11524 23325 11235 21287 39972 49997 53029 69901 73871 82500 333 11192 21255 48042 79999 90953
AAXX 24184 71928 NIL
AAXX 24184 71350 16/// /3409 11087 21137 30179 40247 53001 60001 333 11048 21087 70022 555 10100
AAXX 24184 71351 NIL
AAXX 24184 71352 17/// /1508 11028 21082 39823 40293 58016 69961 7//4/ 333 11025 21099 70006
AAXX 24184 71353 NIL
AAXX 24184 71354 NIL
AAXX 24184 71355 16/// /2302 11231 21260 39944 40032 53003 60001 333 11231 21305 70000
AAXX 24184 71356 NIL
AAXX 24184 71357 17/// /0501 11240 21262 39970 49977 56008 69931 7//4/ 333 11221 21297 70033
AAXX 24184 71358 17/// /2604 11276 21305 39944 49980 57002 69931 7//4/ 333 11271 21319 70014
AAXX 24184 71359 NIL
AAXX 24184 71360 NIL
AAXX 24184 71361 NIL
AAXX 24184 71362 NIL
AAXX 24184 71363 NIL
AAXX 24184 71364 NIL
AAXX 24184 71365 NIL
AAXX 24184 71368 15966 01407 11011 21079 39892 40295 58019 60001 333 11011 21098 70000
AAXX 24184 71369 15966 02720 10045 21054 39467 40171 53032 60001 333 10061 20034 70000
AAXX 24184 71370 46/// /3203 11156 21220 30198 40343 58003 6///1 333 11156 21214 7////
AAXX 24184 71371 15966 03601 11149 21214 30321 40357 55003 60001 333 11149 21177 70003
AAXX 24184 71372 16/// /0000 11133 21194 60001 333 11132 21722 70000
AAXX 24184 71373 16/// /2501 11134 21178 60001 333 11128 21180 70000
AAXX 24184 71374 NIL
AAXX 24184 71375 NIL
AAXX 24184 71376 16/// /1902 11126 21180 30030 40352 58010 60001 333 11123 21239 70000
AAXX 24184 71377 16/// /3101 11132 21206 30297 40348 58005 60001 333 11121 21170 70000 555 10010
AAXX 24184 71378 16/// /3604 11191 21262 30133 40358 58011 60001 333 11190 21268 70000
AAXX 24184 71379 16/// /0803 11219 21272 30160 40345 58008 60001 333 11215 21300 70000
AAXX 24184 71380 NIL
AAXX 24184 71381 NIL
AAXX 24184 71382 NIL
AAXX 24184 71383 NIL
AAXX 24184 71384 16/// /2103 11120 21175 30336 40344 50000 60001 333 11119 21174 70000
AAXX 24184 71385 NIL
AAXX 24184 71386 NIL
AAXX 24184 71387 NIL
AAXX 24184 71388 46/// /0703 11196 21250 30154 40356 58003 6///1 333 11191 21284 7////
AAXX 24184 71389 NIL
AAXX 24184 71390 46/// /2709 11147 6///1 333 11147 21204 7////
AAXX 24184 71391 16/// ///// 11138 21175 60001 333 11138 21191 70000
AAXX 24184 71392 16/// /2104 11145 21181 60001 333 11142 21184 70010
AAXX 24184 71393 NIL
AAXX 24184 71395 11456 83612 11069 21095 30055 40238 53006 69901 78588 885// 333 11011 21070 47012 70012 90973
AAXX 24184 71398 15666 81711 11114 21149 30212 40224 58039 60001 333 11114 21282 70000
AAXX 24184 71399 NIL
AAXX 24184 71950 15966 11405 11020 21027 39530 40163 56024 60001 333 10055 21051 70000
AAXX 24184 71952 16/// /1402 11048 21054 39320 40180 58016 60001 333 10032 21099 70000
AAXX 24184 71954 NIL
AAXX 24184 71956 NIL
AAXX 24184 71959 NIL
AAXX 24184 71960 460// /2607 11294 30020 40160 53008 6///1 333 11280 21308 7////
AAXX 24184 71962 17/// /2007 11036 21073 39704 40132 58027 60011 7//4/ 333 11036 21067 70011
AAXX 24184 71963 NIL
AAXX 24184 71967 16/// /2701 11157 21200 30249 40362 58004 60001 333 11150 21204 70000
AAXX 24184 71970 NIL
AAXX 24184 71971 16/// /0501 11339 21371 39942 49990 51001 60001 333 11302 21350 70000
AAXX 24184 71972 460// ///// 11141 39574 40043 55001 6///1 333 11127 21154 7////
AAXX 24184 71973 46/// /2808 11114 21158 39989 40183 53001 6///1 333 11084 21120 7////
AAXX 24184 71974 NIL
AAXX 24184 71975 460// /2523 11224 39227 49965 56015 6///1 333 11172 21226 7////
AAXX 24184 71976 NIL
AAXX 24184 71977 NIL
AAXX 24184 71978 NIL
AAXX 24184 71979 NIL
AAXX 24184 71980 46/// /1601 11173 21194 6///1 333 11166 21188 7////
AAXX 24184 71981 NIL
AAXX 24184 71982 NIL
AAXX 24184 71983 NIL
AAXX 24184 71984 16/// /1103 11291 21320 30137 40146 53007 60001 333 11284 21310 70000
AAXX 24184 71985 NIL
AAXX 24184 71986 NIL
AAXX 24184 71987 16/// /3315 11099 21130 30253 40263 55001 60001 333 11060 21102 70000
AAXX 24184 71988 17/// /3517 11050 21064 30247 40267 53006 60021 7//4/ 333 10012 21050 70028
AAXX 24184 71989 NIL
AAXX 24184 71990 NIL
AAXX 24184 71999 46/// ///// 10046 6///1 333 10068 20004 7////
AAXX 24184 71816 11774 62712 11202 21287 30112 40177 53002 60001 73611 86500 333 11202 21262 70000
AAXX 24184 71817 NIL
AAXX 24184 71818 12974 12914 11200 21222 30106 40125 55002 60001 81500 333 11183 21245 70000
AAXX 24184 71822 12974 11606 11211 21254 39827 40345 58012 60001 80001 333 11206 21375 70000
AAXX 24184 71825 12274 22710 11251 21313 39548 40272 57005 60001 82600 333 11250 21300 70000
AAXX 24184 71827 11974 61809 11205 21238 39983 40241 58034 69901 77671 80004 333 11192 21259 47020 79999 90937
AAXX 24184 71828 16964 03010 11226 21284 39550 40230 51007 60001 333 11222 21274 70000
AAXX 24184 71831 11974 61510 11082 21110 39934 40227 58037 69901 70277 84071 333 11082 21220 48039 79999 90951
AAXX 24184 71832 NIL
AAXX 24184 71834 11462 82106 11047 21062 39723 40161 58029 69901 77177 885// 333 11047 21141 48027 70010 90983
AAXX 24184 71841 NIL
AAXX 24184 71842 11474 82010 11059 21078 39647 40126 58024 69901 77177 885// 333 11059 21090 47012 79999 90983
AAXX 24184 71844 NIL
AAXX 24184 71845 11474 82108 11065 21080 39621 40105 57036 69901 70277 885// 333 11065 21171 44018 70002 90951
AAXX 24184 71850 11366 82309 11068 21085 39611 40119 58022 69901 77177 886// 333 11068 21077 48011 79999 90973
AAXX 24184 71852 16964 02309 11030 21068 39817 40116 58011 60001 333 11030 21102 70000
AAXX 24184 71854 12474 82110 11060 21082 39618 40098 57025 60001 885// 333 11060 21130 79999
AAXX 24184 71858 16/// /2707 11016 21046 39773 40055 58007 60001 333 11016 21106 70000
AAXX 24184 71861 16/// /2611 10004 21058 39420 40149 53002 60001 333 10007 21104 70000
AAXX 24184 71862 NIL
AAXX 24184 71863 46964 02819 10017 21045 39472 40177 53007 6///1 333 10017 21074 7////
AAXX 24184 71450 NIL
AAXX 24184 71451 NIL
AAXX 24184 71452 46/// /2710 10025 21057 39463 40180 50002 6///1 333 10025 21049 7//// 555 10010
AAXX 24184 71453 16/// /2611 10040 21041 39314 40235 53014 60001 333 10040 21003 70000
AAXX 24184 71454 16/// /2911 10024 21037 39408 40096 53006 60001 333 10032 21079 70000
AAXX 24184 71455 NIL
AAXX 24184 71456 16/// /2715 10001 21053 39511 40110 50000 60001 333 10002 21086 70000
AAXX 24184 71457 16/// /2812 10045 21038 39325 40220 51020 60001 333 10046 21024 70000
AAXX 24184 71458 16/// /2918 10045 21040 39415 40188 51028 60001 333 10047 21041 70000
AAXX 24184 71459 NIL
AAXX 24184 71460 16/// /3110 11055 21063 30019 40270 58033 60001 333 11052 21123 70000
AAXX 24184 71461 NIL
AAXX 24184 71462 NIL
AAXX 24184 71463 46/// /1306 11015 21080 30081 40312 58016 6///1 333 11014 21053 7////
AAXX 24184 71464 NIL
AAXX 24184 71465 NIL
AAXX 24184 71466 NIL
AAXX 24184 71468 NIL
AAXX 24184 71470 NIL
AAXX 24184 71471 15966 82807 10030 21047 39387 40178 53011 60001 333 10047 21030 70000
AAXX 24184 71473 17/// /1909 10066 20052 30271 40301 53012 60021 7//4/ 333 10070 20043 70028
AAXX 24184 71475 17/// /0000 10040 20037 30188 40283 53006 60091 7//4/ 333 10040 20007 70206
AAXX 24184 71476 NIL
AAXX 24184 71477 17/// /1527 10064 20059 69961 7//4/ 333 10065 20017 70076
AAXX 24184 71478 NIL
AAXX 24184 71479 NIL
AAXX 24184 71480 NIL
AAXX 24184 71481 NIL
AAXX 24184 71482 NIL
AAXX 24184 71483 NIL
AAXX 24184 71484 NIL
AAXX 24184 71485 16/// /1233 10084 20048 30177 40197 56005 60001 333 10084 20059 70046
AAXX 24184 71486 16/// /1703 11004 21063 39050 40265 51008 60001 333 10030 21010 70000
AAXX 24184 71487 NIL
AAXX 24184 71489 NIL
AAXX 24184 71490 NIL
AAXX 24184 71491 NIL
AAXX 24184 71492 NIL
AAXX 24184 71493 16/// /3407 11094 21120 30219 40259 51014 60001 333 11031 21094 70007
AAXX 24184 71494 16/// /2902 11157 21178 39769 40322 50001 60001 333 11150 21204 70000
AAXX 24184 71495 NIL
AAXX 24184 71496 16/// /3015 10040 21055 39533 40148 51007 60001 333 10041 21058 70000
AAXX 24184 71497 46/// /0905 11143 21185 39858 40125 53018 6///1 333 10045 21143 7////
AAXX 24184 71498 NIL
AAXX 24184 71499 17416 82913 11023 21041 39418 40044 53020 60001 771// 333 11008 21096 70000
AAXX 24184 71250 NIL
AAXX 24184 71251 16/// /2719 10065 21052 39316 40247 51019 60001 333 10065 20015 70000
AAXX 24184 71252 NIL
AAXX 24184 71253 46/// /0903 11060 21080 6///1 333 11013 21165 7////
AAXX 24184 71254 16/// /2911 10038 21039 60001 333 10038 21020 70000
AAXX 24184 71255 16/// /2613 10013 21017 60001 333 10024 20001 70000
AAXX 24184 71256 46/// /0000 10017 21051 39263 40205 51026 6///1 333 10052 20001 7////
AAXX 24184 71257 NIL
AAXX 24184 71258 NIL
AAXX 24184 71259 NIL
AAXX 24184 71261 16/// /1510 11004 21054 30006 40274 58023 60001 333 11003 21059 70000
AAXX 24184 71263 13560 /1705 11004 21077 30004 40303 57019 60001 81800 333 11003 21088 79999
AAXX 24184 71264 16/// /3611 11043 21089 30206 40238 53005 60001 333 10000 21046 70008
AAXX 24184 71265 15466 80809 11002 21045 30212 40309 58017 60001 333 11002 21071 70000
AAXX 24184 71266 NIL
AAXX 24184 71267 15966 02625 10062 21052 39161 40263 53023 60001 333 10062 20024 70000
AAXX 24184 71268 NIL
AAXX 24184 71269 NIL
AAXX 24184 71270 NIL
AAXX 24184 71271 16/// ///// 10045 21058 60001 333 10059 20005 70000
AAXX 24184 71272 17466 83411 11094 21119 39625 49979 51034 60001 771// 333 11035 21192 70000
AAXX 24184 71273 16/// /2914 10054 21053 39470 40126 53021 60001 333 10054 21030 70000
AAXX 24184 71274 NIL
AAXX 24184 71275 NIL
AAXX 24184 71276 NIL
AAXX 24184 71277 NIL
AAXX 24184 71278 NIL
AAXX 24184 71279 16/// /2906 11157 21233 30212 40283 55008 60001 333 11157 21322 70000
AAXX 24184 71281 NIL
AAXX 24184 71282 46/// /1308 11062 21081 30030 40311 58018 6///1 333 11062 21115 7////
AAXX 24184 71283 NIL
AAXX 24184 71284 16/// ///// 10024 21048 60001 333 10046 21026 70000
AAXX 24184 71285 NIL
AAXX 24184 71286 NIL
AAXX 24184 71287 NIL
AAXX 24184 71288 NIL
AAXX 24184 71289 NIL
AAXX 24184 71290 15966 81607 11020 21039 39380 40223 50000 60001 333 10011 21028 70000
AAXX 24184 71291 16/// /1604 11023 21043 39854 40149 58033 60001 333 11023 21083 70012 555 10020
AAXX 24184 71292 15966 62409 11010 21045 39518 40132 55000 60001 333 11010 21098 70000
AAXX 24184 71294 16/// /1901 11084 21158 39895 40318 58015 60001 333 11083 70000
AAXX 24184 71295 NIL
AAXX 24184 71296 NIL
AAXX 24184 71297 16/// /0604 10003 21065 60001 333 10004 21086 70000
AAXX 24184 71298 16/// /2307 10010 21017 30041 40279 58017 60001 333 10012 21053 70000
AAXX 24184 71299 NIL
AAXX 24184 71550 NIL
AAXX 24184 71551 NIL
AAXX 24184 71552 46/// /2111 11063 21093 6///1 333 11052 21080 7////
AAXX 24184 71553 NIL
AAXX 24184 71554 NIL
AAXX 24184 71555 16/// /2722 10014 21073 38681 40265 53022 60001 333 10026 21008 70000
AAXX 24184 71556 16/// /2816 10027 21046 39546 40154 53004 60001 333 10027 21088 70000
AAXX 24184 71557 46/// /0808 10045 20000 6///1 333 10055 21026 7////
AAXX 24184 71558 46/// ///// 11163 21217 30090 40128 55006 6///1 333 11148 21221 7////
AAXX 24184 71559 46/// /2714 10019 21056 39475 40182 50001 6///1 333 10019 21043 7////
AAXX 24184 71560 NIL
AAXX 24184 71563 NIL
AAXX 24184 71564 16/// /2712 10013 21050 39756 40129 50002 60001 333 10013 21121 70000
AAXX 24184 71565 NIL
AAXX 24184 71566 NIL
AAXX 24184 71567 NIL
AAXX 24184 71568 17/// /1317 10070 20048 30251 40263 55000 60021 7//4/ 333 10070 20046 70188
AAXX 24184 71569 16/// /2619 10014 21054 39462 40170 51009 60001 333 10015 21069 70000
AAXX 24184 71570 16/// /2407 11050 21099 39798 40114 58014 60001 333 11049 21083 70000
AAXX 24184 71571 NIL
AAXX 24184 71572 NIL
AAXX 24184 71573 17/// /1605 10000 21063 39996 40286 58019 69931 7//4/ 333 10008 21098 70003
AAXX 24184 71574 11574 13007 11130 21165 30216 40293 56004 60001 73611 81502 333 11110 21159 70074
AAXX 24184 71575 NIL
AAXX 24184 71576 NIL
AAXX 24184 71577 46/// /1904 11060 21088 6///1 333 11059 21096 7////
AAXX 24184 71578 16/// /2404 11136 21189 60001 333 11136 21169 70013
AAXX 24184 71579 NIL
AAXX 24184 71580 11659 43303 11264 21305 39950 49987 52021 69901 77177 84500 333 11239 21330 48032 79999 90983
AAXX 24184 71581 NIL
AAXX 24184 71582 17466 81106 10063 20056 30138 40191 56006 69981 7614/ 333 10066 20049 70134
AAXX 24184 71583 NIL
AAXX 24184 71584 15966 02709 11158 21234 30203 40253 56008 60001 333 11158 21243 70000
AAXX 24184 71585 NIL
AAXX 24184 71586 NIL
AAXX 24184 71587 NIL
AAXX 24184 71588 16/// /3005 11118 21161 60001 333 11100 21124 70000
AAXX 24184 71589 16/// /3007 11107 21146 30002 40138 51008 60001 333 11057 21114 70061 555 10080
AAXX 24184 71590 16/// /3407 11152 21217 30117 40319 56002 60001 333 11148 21220 70013 555 10010
AAXX 24184 71592 NIL
AAXX 24184 71593 NIL
AAXX 24184 71596 NIL
AAXX 24184 71598 16/64 /3010 11114 21164 30274 40281 58006 60001 333 11094 21135 70009 555 10030
AAXX 24184 71599 16/// /0502 11062 21072 30046 40254 53004 60001 333 11004 21063 70017
AAXX 24184 71001 15964 02804 11221 21244 39054 40049 53002 60001 333 11128 21221 70000
AAXX 24184 71002 15566 12808 11210 21263 39648 40225 53001 60001 333 11210 21315 70000
AAXX 24184 71003 15966 02006 11210 21240 39886 40295 57018 60001 333 11210 21265 70001
AAXX 24184 71005 16/// ///// 10051 21049 60001 333 10051 21054 70000
AAXX 24184 71006 NIL
AAXX 24184 71007 NIL
AAXX 24184 71008 NIL
AAXX 24184 71009 NIL
AAXX 24184 71010 NIL
AAXX 24184 71011 NIL
AAXX 24184 71012 NIL
AAXX 24184 71013 NIL
AAXX 24184 71014 NIL
AAXX 24184 71015 NIL
AAXX 24184 71016 NIL
AAXX 24184 71017 NIL
AAXX 24184 71018 NIL
AAXX 24184 71019 NIL
AAXX 24184 71020 NIL
AAXX 24184 71021 NIL
AAXX 24184 71022 15566 81316 10080 20048 30057 40101 56035 60001 333 10078 20038 70133
AAXX 24184 71023 17664 62916 10036 21040 39358 40125 53028 69951 7//44 333 10036 21047 70005
AAXX 24184 71024 16/// /2705 10007 21053 60001 333 10021 21096 70000
AAXX 24184 71026 NIL
AAXX 24184 71027 16/// /3304 11082 21127 30206 40216 55000 60001 333 11024 21082 70052 555 10050
AAXX 24184 71028 16/// /1808 10039 21004 39193 40233 57005 60001 333 10042 21012 70000
AAXX 24184 71029 17/// /0603 11305 21337 30051 40092 50000 69931 7//4/ 333 11291 21341 70016
AAXX 24184 71030 16/56 /3510 11100 21117 30174 40267 55002 60001 333 11043 21103 70018
AAXX 24184 71032 46/// /0000 11036 21054 39484 40344 53008 6///1 333 11033 21088 7////
AAXX 24184 71033 46/// /3014 11026 21043 39419 40046 53021 6///1 333 11010 21103 7////
AAXX 24184 71035 NIL
AAXX 24184 71036 15966 02721 10022 21050 39723 40101 58004 60001 333 10022 21089 70000
AAXX 24184 71039 46/// /0000 11198 6///1 333 11105 21200 7////
AAXX 24184 71040 46/// /3303 11181 21255 30137 40351 58003 6///1 333 11181 21252 7////
AAXX 24184 71041 17528 83510 11060 21083 30073 40218 55000 60001 771// 333 11010 21064 70023
AAXX 24184 71042 17/// /0902 10067 20061 30299 40303 53005 60081 7//4/ 333 10068 20032 70090
AAXX 24184 71044 16/// /0510 11226 21265 39810 40142 53015 60001 333 11216 21239 70000 555 10010
AAXX 24184 71046 460// /2714 11273 30173 40191 53011 6///1 333 11259 21273 7////
AAXX 24184 71047 16/// ///// 10052 21047 60001 333 10053 21021 70000
AAXX 24184 71048 NIL
AAXX 24184 71049 NIL
AAXX 24184 71060 NIL
AAXX 24184 71063 NIL
AAXX 24184 60710 12560 52522 10142 20082 30165 40245 50003 60002 85800 333 10168 83820 83630
AAXX 24184 60714 12562 63119 1//// 2//// 30229 40235 58002 60002 86800 333 1//// 84820 83630
AAXX 24184 60720 12560 42712 10125 20102 30171 40204 57006 60002 84200 333 10194 84820
AAXX 24184 60728 NIL
AAXX 24184 60729 NIL
AAXX 24184 60731 NIL
AAXX 24184 60732 12558 72404 10101 20055 39646 40261 53009 60002 878// 333 10130 83820 85626
AAXX 24184 60734 11558 73210 10095 20091 39727 40251 52003 69922 70282 8688/ 333 10141 83823 84630
AAXX 24184 60738 12558 63416 10059 20059 38993 48550 55000 60002 86200 333 86823 10097
AAXX 24184 60739 NIL
AAXX 24184 60740 32560 42915 10155 20092 30232 40234 53011 60002 84200 333 10187 84820
AAXX 24184 60742 NIL
AAXX 24184 60764 12962 02802 10139 20052 30212 40264 53012 60002 333 10178
AAXX 24184 60770 12575 13502 10138 20084 30104 40244 53004 60002 81200 333 10192 81826
AAXX 24184 60772 NIL
AAXX 24184 60775 12575 33502 10135 20036 39897 40255 53011 60002 83200 333 10177 83823
AAXX 24184 60780 12960 02206 10142 20061 39944 40250 53014 60002 333 10192
AAXX 24184 71726 17/// /1502 11185 21239 39757 40344 56017 60041 7//4/ 333 11183 21360 70044
AAXX 24184 71727 12982 00000 11189 21225 30147 40359 58004 60001 333 11183 21255 70004
AAXX 24184 71728 12986 11103 11200 21250 30123 40362 58005 60001 80001 333 11195 21259 70000
AAXX 24184 71730 11332 81108 11106 21135 39839 40285 58027 69901 78587 885// 333 11104 21176 41997 79999 90912
AAXX 24184 71731 11574 81207 11106 21165 39821 40296 58024 69901 77171 8657/ 333 11103 21180 41997 79999 90925
AAXX 24184 71735 NIL
AAXX 24184 71738 11462 71707 11036 21066 39841 40203 58037 69901 77172 87500 333 11036 21120 47024 79999 90957
AAXX 24184 71739 42974 41509 11103 21149 39876 40258 58029 6//// 81071 333 11103 21237 4//// 7////
AAXX 24184 71749 16564 80000 11024 21049 39907 40156 58034 60001 333 11024 21048 70005
AAXX 24184 71799 11266 81307 10079 20070 30275 40299 52012 60021 76165 885// 333 10082 20040 70034 90937
AAXX 24184 71800 16/// /3510 11044 21067 30107 40140 51016 60001 333 10009 21046 70081
AAXX 24184 71801 11574 63311 11075 21113 39960 40136 50008 69901 70272 86500 333 11017 21077 48011 70086 90927
AAXX 24184 71803 11580 52917 11118 21170 39958 40150 52005 69901 73677 85500 333 11084 21129 46009 70060 90953
AAXX 24184 71807 NIL
AAXX 24184 71808 12574 12914 11177 21268 30101 40150 55007 60001 81100 333 11177 21228 70000
AAXX 24184 71809 11666 72808 11117 21161 30155 40183 55002 60011 77177 87500 333 11079 21119 47004 70036 90973 93101
AAXX 24184 71810 16/// /3206 11142 21210 30187 40257 57003 60001 333 11141 21232 70000
AAXX 24184 71811 NIL
AAXX 24184 71813 16/// /3210 11182 21249 30213 40227 56011 60001 333 11182 21253 70000
AAXX 24184 71814 16/// /3012 11181 21242 30188 40198 50000 60001 333 11179 21236 70000
AAXX 24184 71815 11474 73112 11099 21155 30165 40197 50001 69901 70188 87500 333 11063 21105 44008 70042 90963
AAXX 24184 71744 NIL
AAXX 24184 71750 16/// /2010 11011 21052 39932 40170 58027 60001 333 11007 21089 70042 555 10060
AAXX 24184 71751 NIL
AAXX 24184 71752 NIL
AAXX 24184 71753 16/// /3410 11063 21094 30204 40234 53008 60001 333 11002 7////
AAXX 24184 71754 16/// /2919 10052 21074 39490 40154 51009 60001 333 10052 21015 70000
AAXX 24184 71755 43/// /2213 11068 21085 39699 40050 58035 6///1 333 11067 21176 7////
AAXX 24184 71756 17/// /0000 10003 20002 39183 40293 53005 60051 7//4/ 333 10003 21017 70092 555 10120
AAXX 24184 71758 NIL
AAXX 24184 71760 NIL
AAXX 24184 71761 NIL
AAXX 24184 71762 NIL
AAXX 24184 71763 NIL
AAXX 24184 71765 16/// /0101 10022 21030 30008 40288 51018 60001 333 10072 20008 70000
AAXX 24184 71766 17/// /1311 10074 20066 30197 40269 53009 60011 7//4/ 333 10074 20052 70022
AAXX 24184 71767 17/// /1811 11015 21024 39997 40266 58022 60011 7//4/ 333 11014 21100 70013 555 10060
AAXX 24184 71768 46/// /2903 11002 21052 39797 40362 53017 6///1 333 11001 21022 7////
AAXX 24184 71769 17/// /1125 10076 20067 30255 40271 53008 60011 7//4/ 333 10079 20056 70014
AAXX 24184 71770 NIL
AAXX 24184 71771 NIL
AAXX 24184 71772 17/// /1122 10077 20072 30271 40277 53010 69961 7//4/ 333 10079 20059 70008
AAXX 24184 71773 16/// /1805 11041 21065 39194 40050 51007 60001 333 11031 21057 70000
AAXX 24184 71774 46/// ///// 10058 6///1 333 10058 20024 7////
AAXX 24184 71775 NIL
AAXX 24184 71776 46/// /2604 11017 21025 39711 40375 53007 6///1 333 11017 21045 7////
AAXX 24184 71777 17/// ///// 11002 21003 30056 40314 53003 60041 7//4/ 333 11001 21035 70077
AAXX 24184 71778 46/// /0313 6///1 333 7////
AAXX 24184 71779 16/// /1605 10018 21020 39573 40241 56004 60001 333 10026 21017 70000
AAXX 24184 71780 17/// /1005 10066 20063 30267 40295 50002 60131 7//4/ 333 10066 20048 70190
AAXX 24184 71781 46/// /1132 10081 20064 30235 40260 53009 6///1 333 10081 20059 7////
AAXX 24184 71782 46/// /1707 10007 21034 38972 40326 53013 6///1 333 10007 21036 7////
AAXX 24184 71783 17/// /0901 10072 20066 30222 40297 53009 60041 7//4/ 333 10075 20054 70052
AAXX 24184 71784 17/// /0803 10074 20065 30094 40301 53010 60151 7//4/ 333 10075 20048 70193
AAXX 24184 71785 17/// /0503 10074 20064 30296 40312 53007 60081 7//4/ 333 10075 20044 70094
AAXX 24184 71786 46/// /2618 11077 21090 38453 40345 51012 6///1 333 11077 21114 7////
AAXX 24184 71787 16/// /3510 11149 21162 39747 40255 53002 60001 333 11069 21151 70000
AAXX 24184 71788 NIL
AAXX 24184 71789 NIL
AAXX 24184 71791 NIL
AAXX 24184 71792 NIL
AAXX 24184 71793 NIL
AAXX 24184 71794 NIL
AAXX 24184 71795 NIL
AAXX 24184 71796 NIL
AAXX 24184 71797 NIL
AAXX 24184 60020 NIL
AAXX 24184 60030 02570 53615 10187 20103 30186 40242 55001 60002 82504 333 10216 60007 92428
AAXX 24184 60040 02570 40312 10190 20108 30226 40251 53002 60002 84500 333 10221 60007 92427
AAXX 24184 60338 NIL
AAXX 24184 71603 11566 83612 11036 21061 30196 40250 53004 69901 78582 87501 333 10019 21037 42004 70022 90947
AAXX 24184 71607 16/// /3211 11120 21168 30261 40295 55001 60001 333 11073 21134 70003
AAXX 24184 71609 NIL
AAXX 24184 71610 15966 02903 11156 21193 30022 40337 58006 60001 333 11156 21201 70000
AAXX 24184 71621 12574 11003 11076 21141 30221 40332 58013 60001 81500 333 11071 21128 79999
AAXX 24184 71623 NIL
AAXX 24184 71624 12474 31506 11024 21063 30089 40309 58014 60001 82130 333 11014 21087 70000
AAXX 24184 71625 16964 01303 11121 21184 30164 40334 58019 60001 333 11121 21215 70000
AAXX 24184 71627 12583 10000 11141 21220 30309 40356 58002 60001 81501 333 11138 21169 70008
AAXX 24184 71628 13460 20603 11119 21163 30193 40342 56008 60001 82100 333 11117 21170 79999
AAXX 24184 71630 NIL
AAXX 24184 71631 NIL
AAXX 24184 71633 11574 51814 11012 21071 39999 40279 58017 69901 70271 82550 333 11006 21093 47001 79999 90942
AAXX 24184 71705 11574 73415 11123 21154 30185 40276 51003 69901 73687 85101 333 11054 21126 48010 70078 90943
AAXX 24184 71706 11574 73509 11082 21132 30194 40257 53001 69981 78588 87500 333 11043 21083 47013 70048 90983 93102
AAXX 24184 71707 11574 73314 11075 21127 30137 40216 53005 69921 78588 87500 333 11012 21076 48008 70080 90983
AAXX 24184 71709 11580 73213 11095 21143 30227 40241 57005 69941 73677 87500 333 11061 21103 46004 70048 90949
AAXX 24184 71711 NIL
AAXX 24184 71714 16/// /2402 11142 21189 30266 40364 58001 60001 333 11141 21193 70019 555 10030
AAXX 24184 71715 16/// /0000 11155 21212 30144 40337 58001 60001 333 11151 21186 70009 555 10020
AAXX 24184 71718 11583 62607 11148 21214 30261 40330 58003 69921 77122 86500 333 11145 21175 48003 70020 90983
AAXX 24184 71719 16/// /3010 11108 21170 30269 40275 58004 60001 333 11089 21130 70003
AAXX 24184 61974 11465 61405 10272 20251 40100 69992 72582 85842 333 10304 55000 59015 84816 83650
AAXX 24184 61986 12470 21009 10273 20237 40129 60002 82200 333 10319 58000 82818
AAXX 24184 61988 12470 31210 10248 20212 40159 60002 83800 333 10280 55090 59005 83818 91126
AAXX 24184 61989 NIL
AAXX 24184 61990 11470 30807 10256 20219 40161 69902 70281 83800 333 10296 55080 59003 83817 91119
AAXX 24184 61995 12470 21210 10220 20215 39672 60012 82800 333 10264 55071 59011 82818 91125
AAXX 24184 71726 17/// /1502 11185 21239 39757 40344 56017 60041 7//4/ 333 11183 21360 70044
AAXX 24184 71727 12982 00000 11189 21225 30147 40359 58004 60001 333 11183 21255 70004
AAXX 24184 71728 12986 11103 11200 21250 30123 40362 58005 60001 80001 333 11195 21259 70000
AAXX 24184 71730 11332 81108 11106 21135 39839 40285 58027 69901 78587 885// 333 11104 21176 41997 79999 90912
AAXX 24184 71731 11574 81207 11106 21165 39821 40296 58024 69901 77171 8657/ 333 11103 21180 41997 79999 90925
AAXX 24184 71735 NIL
AAXX 24184 71738 11462 71707 11036 21066 39841 40203 58037 69901 77172 87500 333 11036 21120 47024 79999 90957
AAXX 24184 71739 42974 41509 11103 21149 39876 40258 58029 6//// 81071 333 11103 21237 4//// 7////
AAXX 24184 71749 16564 80000 11024 21049 39907 40156 58034 60001 333 11024 21048 70005
AAXX 24184 71799 11266 81307 10079 20070 30275 40299 52012 60021 76165 885// 333 10082 20040 70034 90937
AAXX 24184 71800 16/// /3510 11044 21067 30107 40140 51016 60001 333 10009 21046 70081
AAXX 24184 71801 11574 63311 11075 21113 39960 40136 50008 69901 70272 86500 333 11017 21077 48011 70086 90927
AAXX 24184 71803 11580 52917 11118 21170 39958 40150 52005 69901 73677 85500 333 11084 21129 46009 70060 90953
AAXX 24184 71807 NIL
AAXX 24184 71808 12574 12914 11177 21268 30101 40150 55007 60001 81100 333 11177 21228 70000
AAXX 24184 71809 11666 72808 11117 21161 30155 40183 55002 60011 77177 87500 333 11079 21119 47004 70036 90973 93101
AAXX 24184 71810 16/// /3206 11142 21210 30187 40257 57003 60001 333 11141 21232 70000
AAXX 24184 71811 NIL
AAXX 24184 71813 16/// /3210 11182 21249 30213 40227 56011 60001 333 11182 21253 70000
AAXX 24184 71814 16/// /3012 11181 21242 30188 40198 50000 60001 333 11179 21236 70000
AAXX 24184 71815 11474 73112 11099 21155 30165 40197 50001 69901 70188 87500 333 11063 21105 44008 70042 90963
AAXX 24184 71816 11774 62712 11202 21287 30112 40177 53002 60001 73611 86500 333 11202 21262 70000
AAXX 24184 71817 NIL
AAXX 24184 71818 12974 12914 11200 21222 30106 40125 55002 60001 81500 333 11183 21245 70000
AAXX 24184 71822 12974 11606 11211 21254 39827 40345 58012 60001 80001 333 11206 21375 70000
AAXX 24184 71825 12274 22710 11251 21313 39548 40272 57005 60001 82600 333 11250 21300 70000
AAXX 24184 71827 11974 61809 11205 21238 39983 40241 58034 69901 77671 80004 333 11192 21259 47020 79999 90937
AAXX 24184 71828 16964 03010 11226 21284 39550 40230 51007 60001 333 11222 21274 70000
AAXX 24184 71831 11974 61510 11082 21110 39934 40227 58037 69901 70277 84071 333 11082 21220 48039 79999 90951
AAXX 24184 71832 NIL
AAXX 24184 71834 11462 82106 11047 21062 39723 40161 58029 69901 77177 885// 333 11047 21141 48027 70010 90983
AAXX 24184 71841 NIL
AAXX 24184 71842 11474 82010 11059 21078 39647 40126 58024 69901 77177 885// 333 11059 21090 47012 79999 90983
AAXX 24184 71844 NIL
AAXX 24184 71845 11474 82108 11065 21080 39621 40105 57036 69901 70277 885// 333 11065 21171 44018 70002 90951
AAXX 24184 71850 11366 82309 11068 21085 39611 40119 58022 69901 77177 886// 333 11068 21077 48011 79999 90973
AAXX 24184 71852 16964 02309 11030 21068 39817 40116 58011 60001 333 11030 21102 70000
AAXX 24184 71854 12474 82110 11060 21082 39618 40098 57025 60001 885// 333 11060 21130 79999
AAXX 24184 71858 16/// /2707 11016 21046 39773 40055 58007 60001 333 11016 21106 70000
AAXX 24184 71861 16/// /2611 10004 21058 39420 40149 53002 60001 333 10007 21104 70000
AAXX 24184 71862 NIL
AAXX 24184 71863 46964 02819 10017 21045 39472 40177 53007 6///1 333 10017 21074 7////
AAXX 24184 71397 11332 80000 11077 21101 30228 40264 53006 60011 77177 887// 333 11004 21080 43010 70038 90983 93101
AAXX 24184 71400 16/64 /2806 11121 21157 60001 333 11085 21134 70026
AAXX 24184 71403 46/// /3522 11035 21079 30205 40225 53013 6///1 333 10007 21035 7////
AAXX 24184 71411 16/// /3507 11037 21058 30229 40242 53007 60001 333 10009 21038 70007
AAXX 24184 71412 16/// /3520 11068 21121 30219 40229 55001 60001 333 11023 21071 70013
AAXX 24184 71421 NIL
AAXX 24184 71430 16/// /1004 11053 21085 30226 40327 58011 60001 333 11048 21122 70000
AAXX 24184 71431 16/// /1205 11051 21092 30214 40314 58018 60001 333 11046 21115 70000 555 10010
AAXX 24184 71432 NIL
AAXX 24184 71433 NIL
AAXX 24184 71435 NIL
AAXX 24184 71441 NIL
AAXX 24184 71443 NIL
AAXX 24184 71444 NIL
AAXX 24184 71447 16/// /2712 10015 21055 39610 40161 58001 60001 333 10015 21080 70000
AAXX 24184 71467 16/// /1902 11277 21303 39977 40098 55003 60001 333 11277 21377 70000
AAXX 24184 71472 NIL
AAXX 24184 71474 16864 61906 11028 21048 39017 40281 53007 60001 333 11021 21057 70000
AAXX 24184 71510 NIL
AAXX 24184 71538 12469 21806 10017 21033 30043 40279 58018 60001 82100 333 10022 21039 70010
AAXX 24184 71600 17440 83621 11001 21024 30183 40189 53017 69951 74544 333 10043 21002 70100
AAXX 24184 71601 NIL
AAXX 24184 71114 160// /0000 10033 20028 30266 40315 53002 60041 333 10033 20009 70055
AAXX 24184 71120 12874 22813 10033 21047 39485 40143 57022 60001 82030 333 10033 21053 70000
AAXX 24184 71122 16/// /2408 11028 21080 38658 40291 51017 60001 333 21044 7////
AAXX 24184 71123 12674 62809 10035 21066 39339 40211 52030 60001 81571 333 10038 21063 70000
AAXX 24184 71125 12674 22823 10050 21043 39540 40125 53018 60001 81570 333 70000
AAXX 24184 71129 12974 12811 10016 21063 39362 40203 51012 60001 81070 333 10017 21047 70000
AAXX 24184 71131 NIL
AAXX 24184 71135 16/// /2714 11016 21074 39122 40226 50009 60001 333 11015 21063 70000
AAXX 24184 71137 NIL
AAXX 24184 71140 12974 72715 11012 21047 39635 40145 5/005 60001 85071 333 11011 21142 70000
AAXX 24184 71145 11474 82409 11058 21077 39737 40033 56025 69901 72277 885// 333 11058 21152 48039 70002 90973
AAXX 24184 71148 16/// /2809 10008 21046 39559 40147 58005 60001 333 10008 21129 70000 555 10010
AAXX 24184 71185 17461 82911 11139 30151 40176 55000 69951 74544 333 11108 21142 70005
AAXX 24184 71188 NIL
AAXX 24184 71200 17/// /0706 10070 20063 60051 7//4/ 333 10071 20052 70056
AAXX 24184 71207 17/// /3302 10020 30243 40309 53004 60151 7//4/ 333 10021 20000 70329
AAXX 24184 71260 13/// ///// 11024 21032 39985 40228 58029 69921 333 11024 21092 46001 70011
AAXX 24184 71726 17/// /1502 11185 21239 39757 40344 56017 60041 7//4/ 333 11183 21360 70044
AAXX 24184 71727 12982 00000 11189 21225 30147 40359 58004 60001 333 11183 21255 70004
AAXX 24184 71728 12986 11103 11200 21250 30123 40362 58005 60001 80001 333 11195 21259 70000
AAXX 24184 71730 11332 81108 11106 21135 39839 40285 58027 69901 78587 885// 333 11104 21176 41997 79999 90912
AAXX 24184 71731 11574 81207 11106 21165 39821 40296 58024 69901 77171 8657/ 333 11103 21180 41997 79999 90925
AAXX 24184 71735 NIL
AAXX 24184 71738 11462 71707 11036 21066 39841 40203 58037 69901 77172 87500 333 11036 21120 47024 79999 90957
AAXX 24184 71739 42974 41509 11103 21149 39876 40258 58029 6//// 81071 333 11103 21237 4//// 7////
AAXX 24184 71749 16564 80000 11024 21049 39907 40156 58034 60001 333 11024 21048 70005
AAXX 24184 71799 11266 81307 10079 20070 30275 40299 52012 60021 76165 885// 333 10082 20040 70034 90937
AAXX 24184 71800 16/// /3510 11044 21067 30107 40140 51016 60001 333 10009 21046 70081
AAXX 24184 71801 11574 63311 11075 21113 39960 40136 50008 69901 70272 86500 333 11017 21077 48011 70086 90927
AAXX 24184 71803 11580 52917 11118 21170 39958 40150 52005 69901 73677 85500 333 11084 21129 46009 70060 90953
AAXX 24184 71807 NIL
AAXX 24184 71808 12574 12914 11177 21268 30101 40150 55007 60001 81100 333 11177 21228 70000
AAXX 24184 71809 11666 72808 11117 21161 30155 40183 55002 60011 77177 87500 333 11079 21119 47004 70036 90973 93101
AAXX 24184 71810 16/// /3206 11142 21210 30187 40257 57003 60001 333 11141 21232 70000
AAXX 24184 71811 NIL
AAXX 24184 71813 16/// /3210 11182 21249 30213 40227 56011 60001 333 11182 21253 70000
AAXX 24184 71814 16/// /3012 11181 21242 30188 40198 50000 60001 333 11179 21236 70000
AAXX 24184 71815 11474 73112 11099 21155 30165 40197 50001 69901 70188 87500 333 11063 21105 44008 70042 90963
AAXX 24184 71816 11774 62712 11202 21287 30112 40177 53002 60001 73611 86500 333 11202 21262 70000
AAXX 24184 71817 NIL
AAXX 24184 71818 12974 12914 11200 21222 30106 40125 55002 60001 81500 333 11183 21245 70000
AAXX 24184 71822 12974 11606 11211 21254 39827 40345 58012 60001 80001 333 11206 21375 70000
AAXX 24184 71825 12274 22710 11251 21313 39548 40272 57005 60001 82600 333 11250 21300 70000
AAXX 24184 71827 11974 61809 11205 21238 39983 40241 58034 69901 77671 80004 333 11192 21259 47020 79999 90937
AAXX 24184 71828 16964 03010 11226 21284 39550 40230 51007 60001 333 11222 21274 70000
AAXX 24184 71831 11974 61510 11082 21110 39934 40227 58037 69901 70277 84071 333 11082 21220 48039 79999 90951
AAXX 24184 71832 NIL
AAXX 24184 71834 11462 82106 11047 21062 39723 40161 58029 69901 77177 885// 333 11047 21141 48027 70010 90983
AAXX 24184 71841 NIL
AAXX 24184 71842 11474 82010 11059 21078 39647 40126 58024 69901 77177 885// 333 11059 21090 47012 79999 90983
AAXX 24184 71844 NIL
AAXX 24184 71845 11474 82108 11065 21080 39621 40105 57036 69901 70277 885// 333 11065 21171 44018 70002 90951
AAXX 24184 71850 11366 82309 11068 21085 39611 40119 58022 69901 77177 886// 333 11068 21077 48011 79999 90973
AAXX 24184 71852 16964 02309 11030 21068 39817 40116 58011 60001 333 11030 21102 70000
AAXX 24184 71854 12474 82110 11060 21082 39618 40098 57025 60001 885// 333 11060 21130 79999
AAXX 24184 71858 16/// /2707 11016 21046 39773 40055 58007 60001 333 11016 21106 70000
AAXX 24184 71861 16/// /2611 10004 21058 39420 40149 53002 60001 333 10007 21104 70000
AAXX 24184 71862 NIL
AAXX 24184 71863 46964 02819 10017 21045 39472 40177 53007 6///1 333 10017 21074 7////
AAXX 24184 71864 NIL
AAXX 24184 71865 16/// /2516 10009 21063 39451 40134 50003 60001 333 10009 21049 70000
AAXX 24184 71866 46964 02916 10042 21051 39537 40155 51006 6///1 333 10042 21057 7////
AAXX 24184 71867 12874 72708 11018 21041 39715 40051 58006 60001 85071 333 11016 21117 70008
AAXX 24184 71868 NIL
AAXX 24184 71869 12974 22915 10036 21033 39587 40113 51003 60001 82070 333 10036 21105 70000
AAXX 24184 71871 15966 02923 10050 21057 39356 40162 53016 60001 333 10050 21014 70000
AAXX 24184 71877 11686 72906 10050 21073 38977 40254 53033 60001 71411 81170 333 10062 20021 70000
AAXX 24184 71878 12974 72608 10020 21061 39150 40233 52015 60001 85071 333 10032 21077 70000
AAXX 24184 71879 16964 02810 10055 21066 39395 40199 51031 60001 333 10055 20011 70000
AAXX 24184 71880 12682 73603 11039 21073 39215 40362 53010 60001 87500 333 11017 21095 70000
AAXX 24184 71882 160// /0404 11006 21023 39806 40360 51011 69951 333 11005 21027 70005
AAXX 24184 71883 46/// /0000 11035 21040 39482 40326 52004 6///1 333 11035 21100 7////
AAXX 24184 71887 12586 81214 10019 21020 39885 40316 53008 60001 8157/ 333 10021 21014 70000
AAXX 24184 71889 12674 81914 10001 21048 39931 40362 53016 60001 8357/ 333 10004 21008 70000
AAXX 24184 71891 16564 80000 10024 21030 30010 40289 51018 60001 333 10073 20009 70005
AAXX 24184 71892 11462 81011 10068 20058 30300 40305 53010 60091 76366 885// 333 10072 20049 70100 90973
AAXX 24184 71818 12574 12914 11200 21222 30106 40125 55002 60001 81500 333 11183 21245 70000
AAXX 24184 71043 11983 20000 11294 21343 30073 40171 53014 69901 70277 82070 333 11212 21299 48030 70028 90953
AAXX 24184 71045 16/// /0206 11046 21077 39220 40082 54000 60001 333 11018 21099 70000
AAXX 24184 71050 46/// /1102 11086 21098 39147 40256 56005 6///1 333 11077 21140 7////
AAXX 24184 71051 NIL
AAXX 24184 71052 NIL
AAXX 24184 71066 12774 10000 11051 21098 39695 40118 53024 60001 81500 333 11012 21124 70000
AAXX 24184 71068 NIL
AAXX 24184 71069 16964 02719 10044 21038 39468 40170 53032 60001 333 10059 20031 70000
AAXX 24184 71076 16/// /2603 11094 21108 39674 40071 53030 60001 333 11064 21143 70000
AAXX 24184 71077 16/// /3008 10019 21004 39565 40103 53025 60001 333 10025 21053 70000 555 10010
AAXX 24184 71079 11474 32711 11049 21070 39715 49995 57007 69901 70377 81570 333 11048 21228 48010 70008 90943
AAXX 24184 71081 47956 03504 11244 21281 39907 49919 58019 6///1 745// 333 11218 21326 7////
AAXX 24184 71082 NIL
AAXX 24184 71083 11562 63415 11175 21211 39872 49914 53008 69941 77177 86500 333 11127 21277 48056 70022 90983
AAXX 24184 71090 46664 82603 11277 21317 39946 49982 5/002 6///1 333 11273 21319 7////
AAXX 24184 71091 460// /0810 11273 39739 49954 56015 6///1 333 7////
AAXX 24184 71092 46964 01406 11278 39288 49967 58005 6///1 333 11209 21278 7////
AAXX 24184 71093 460// /2620 11233 39450 49955 58002 6///1 333 11216 21235 7////
AAXX 24184 71094 46064 /2606 11207 39015 49921 56007 6///1 333 11195 21208 7////
AAXX 24184 71095 NIL
AAXX 24184 71101 160// /1708 30063 56024 60091 333 70085
AAXX 24184 71104 11474 81412 10017 21029 39130 40255 55003 69901 70187 86571 333 10017 21028 44029 79999 90921
AAXX 24184 71108 11548 80205 10051 20046 30236 40310 55004 60081 76166 885// 333 10051 20025 70098 90973
AAXX 24184 71109 12680 71210 10077 20045 30192 40219 51001 60001 87500 333 10077 20053 70122
AAXX 24184 71893 11380 81421 10079 20064 30242 40274 53005 60031 70288 886// 333 10079 20047 70058 90933
AAXX 24184 71894 17/// /1016 10092 20092 30234 40243 53004 60121 7//4/ 333 10093 20071 70392
AAXX 24184 71896 15766 81812 10024 21013 39384 40222 56005 60001 333 10024 21010 70000
AAXX 24184 71897 11332 81425 10078 20072 3//// 4//// 56006 69981 75352 887XX 333 10080 20059 70018 90914
AAXX 24184 71898 160// ///// 10079 56035 60001 333 10081 20040 70145
AAXX 24184 71899 12374 81806 10064 20057 3//// 4//// 57044 60001 888XX 333 10069 20025 70086
AAXX 24184 71902 12974 13132 11204 21284 30012 40121 50005 60001 81040 333 11196 21217 70000
AAXX 24184 71905 NIL
AAXX 24184 71906 12574 22306 11193 21250 30137 40190 58002 60001 82500 333 11138 21236 79999
AAXX 24184 71907 17308 62024 11155 21190 30086 40120 58038 69951 74544 333 11155 21210 70005
AAXX 24184 71909 16564 81104 11160 21187 39986 40030 58021 60001 333 11160 21224 70000
AAXX 24184 71910 47408 92317 11127 21137 39912 49975 58023 6///1 745// 333 11127 21215 7////
AAXX 24184 71911 46661 83306 11272 39916 49974 52018 6///1 333 11242 21323 7////
AAXX 24184 71912 11374 82413 11057 21074 39786 49969 57013 69901 70277 886// 333 11057 21255 47015 70004 90933
AAXX 24184 71915 11516 81810 11143 21179 39844 49926 56036 60021 77177 885// 333 11141 21293 48041 70018 90983 93102
AAXX 24184 71917 11861 21402 11356 21407 30002 40017 51001 69901 77677 82070 333 11336 21422 48015 79999 90983
AAXX 24184 71922 12874 72607 10011 21023 39605 40070 52008 60001 87070 333 10011 21114 70028
AAXX 24184 71924 11774 20410 11289 21332 39922 40014 53002 69921 72270 82530 333 11256 21304 48038 70002 90913
AAXX 24184 71925 11574 23213 11322 21372 30031 40074 51011 69901 77677 82500 333 11317 21332 42021 79999 90983
AAXX 24184 71926 11524 23325 11235 21287 39972 49997 53029 69901 73871 82500 333 11192 21255 48042 79999 90953
AAXX 24184 71928 NIL
AAXX 24184 71893 11380 81421 10079 20064 30242 40274 53005 60031 70288 886// 333 10079 20047 70058 90933
AAXX 24184 71894 17/// /1016 10092 20092 30234 40243 53004 60121 7//4/ 333 10093 20071 70392
AAXX 24184 71896 15766 81812 10024 21013 39384 40222 56005 60001 333 10024 21010 70000
AAXX 24184 71897 11332 81425 10078 20072 3//// 4//// 56006 69981 75352 887XX 333 10080 20059 70018 90914
AAXX 24184 71898 160// ///// 10079 56035 60001 333 10081 20040 70145
AAXX 24184 71899 12374 81806 10064 20057 3//// 4//// 57044 60001 888XX 333 10069 20025 70086
AAXX 24184 71902 12974 13132 11204 21284 30012 40121 50005 60001 81040 333 11196 21217 70000
AAXX 24184 71905 NIL
AAXX 24184 71906 12574 22306 11193 21250 30137 40190 58002 60001 82500 333 11138 21236 79999
AAXX 24184 71907 17308 62024 11155 21190 30086 40120 58038 69951 74544 333 11155 21210 70005
AAXX 24184 71909 16564 81104 11160 21187 39986 40030 58021 60001 333 11160 21224 70000
AAXX 24184 71910 47408 92317 11127 21137 39912 49975 58023 6///1 745// 333 11127 21215 7////
AAXX 24184 71911 46661 83306 11272 39916 49974 52018 6///1 333 11242 21323 7////
AAXX 24184 71912 11374 82413 11057 21074 39786 49969 57013 69901 70277 886// 333 11057 21255 47015 70004 90933
AAXX 24184 71915 11516 81810 11143 21179 39844 49926 56036 60021 77177 885// 333 11141 21293 48041 70018 90983 93102
AAXX 24184 71917 11861 21402 11356 21407 30002 40017 51001 69901 77677 82070 333 11336 21422 48015 79999 90983
AAXX 24184 71922 12874 72607 10011 21023 39605 40070 52008 60001 87070 333 10011 21114 70028
AAXX 24184 71924 11774 20410 11289 21332 39922 40014 53002 69921 72270 82530 333 11256 21304 48038 70002 90913
AAXX 24184 71925 11574 23213 11322 21372 30031 40074 51011 69901 77677 82500 333 11317 21332 42021 79999 90983
AAXX 24184 71926 11524 23325 11235 21287 39972 49997 53029 69901 73871 82500 333 11192 21255 48042 79999 90953
AAXX 24184 71928 NIL
AAXX 24184 71930 13974 73102 10014 21074 39268 40206 52026 60003 83031 333 10051 20000 47017 70000
AAXX 24184 71931 46/// /3020 11106 21154 30105 40117 53006 6///1 333 7////
AAXX 24184 71934 11474 82908 11090 21113 39835 40095 51032 69901 77177 8857/ 333 11070 21100 47021 79999 90973
AAXX 24184 71935 11974 73109 11139 21168 39913 40126 53030 69941 77072 86079 333 11104 21144 44013 70004 90933 93101
AAXX 24184 71936 11474 62909 11165 21190 39831 40097 51029 69941 72277 86800 333 11117 21165 48022 70006 90983
AAXX 24184 71937 NIL
AAXX 24184 71938 11969 72309 11283 21312 30104 40135 53010 69901 72277 87070 333 11225 21309 46025 70006 90913
AAXX 24184 71940 12982 72610 10023 21035 39386 40196 53011 60001 83071 333 10037 20007 70000
AAXX 24184 71943 12974 72320 10021 21065 39333 40171 53009 60001 87070 333 10026 20010 70000
AAXX 24184 71944 160// ///// 11023 50001 60001 333 10011 21028 70000
AAXX 24184 71945 12983 22408 11079 21133 39654 40131 52020 60001 80001 333 10000 21128 70000
AAXX 24184 71946 12774 23103 11199 21229 39920 40142 53017 60001 81501 333 11142 21199 79999
AAXX 24184 71948 47061 /2513 11316 30017 40137 53009 6///1 745// 333 11305 21319 7////
AAXX 24184 71949 46/// /1302 11089 21101 39179 40054 53014 6///1 333 11062 21106 7////
AAXX 24184 71951 11312 80000 10008 20008 39888 40157 57025 60011 76152 887// 333 10016 20004 43018 70092 90962
AAXX 24184 71957 46864 32702 11301 21370 30082 40176 52015 6///1 333 11260 21306 7////
AAXX 24184 71964 12586 61605 11061 21093 39196 40053 50006 60001 81572 333 11036 21076 70000
AAXX 24184 71966 16/// /0401 11198 21222 39600 40075 51008 60001 333 11181 21223 70024
AAXX 24184 71968 470// /2710 11274 30113 40181 53015 6///1 745// 333 11251 21274 7////
AAXX 24184 71930 13974 73102 10014 21074 39268 40206 52026 60003 83031 333 10051 20000 47017 70000
AAXX 24184 71931 46/// /3020 11106 21154 30105 40117 53006 6///1 333 7////
AAXX 24184 71934 11474 82908 11090 21113 39835 40095 51032 69901 77177 8857/ 333 11070 21100 47021 79999 90973
AAXX 24184 71935 11974 73109 11139 21168 39913 40126 53030 69941 77072 86079 333 11104 21144 44013 70004 90933 93101
AAXX 24184 71936 11474 62909 11165 21190 39831 40097 51029 69941 72277 86800 333 11117 21165 48022 70006 90983
AAXX 24184 71937 NIL
AAXX 24184 71938 11969 72309 11283 21312 30104 40135 53010 69901 72277 87070 333 11225 21309 46025 70006 90913
AAXX 24184 71940 12982 72610 10023 21035 39386 40196 53011 60001 83071 333 10037 20007 70000
AAXX 24184 71943 12974 72320 10021 21065 39333 40171 53009 60001 87070 333 10026 20010 70000
AAXX 24184 71944 160// ///// 11023 50001 60001 333 10011 21028 70000
AAXX 24184 71945 12983 22408 11079 21133 39654 40131 52020 60001 80001 333 10000 21128 70000
AAXX 24184 71946 12774 23103 11199 21229 39920 40142 53017 60001 81501 333 11142 21199 79999
AAXX 24184 71948 47061 /2513 11316 30017 40137 53009 6///1 745// 333 11305 21319 7////
AAXX 24184 71949 46/// /1302 11089 21101 39179 40054 53014 6///1 333 11062 21106 7////
AAXX 24184 71951 11312 80000 10008 20008 39888 40157 57025 60011 76152 887// 333 10016 20004 43018 70092 90962
AAXX 24184 71957 46864 32702 11301 21370 30082 40176 52015 6///1 333 11260 21306 7////
AAXX 24184 71964 12586 61605 11061 21093 39196 40053 50006 60001 81572 333 11036 21076 70000
AAXX 24184 71966 16/// /0401 11198 21222 39600 40075 51008 60001 333 11181 21223 70024
AAXX 24184 71968 470// /2710 11274 30113 40181 53015 6///1 745// 333 11251 21274 7////
AAXX 24184 71114 160// /0000 10033 20028 30266 40315 53002 60041 333 10033 20009 70055
AAXX 24184 71120 12874 22813 10033 21047 39485 40143 57022 60001 82030 333 10033 21053 70000
AAXX 24184 71122 16/// /2408 11028 21080 38658 40291 51017 60001 333 21044 7////
AAXX 24184 71123 12674 62809 10035 21066 39339 40211 52030 60001 81571 333 10038 21063 70000
AAXX 24184 71125 12674 22823 10050 21043 39540 40125 53018 60001 81570 333 70000
AAXX 24184 71129 12974 12811 10016 21063 39362 40203 51012 60001 81070 333 10017 21047 70000
AAXX 24184 71131 NIL
AAXX 24184 71135 16/// /2714 11016 21074 39122 40226 50009 60001 333 11015 21063 70000
AAXX 24184 71137 NIL
AAXX 24184 71140 12974 72715 11012 21047 39635 40145 5/005 60001 85071 333 11011 21142 70000
AAXX 24184 71145 11474 82409 11058 21077 39737 40033 56025 69901 72277 885// 333 11058 21152 48039 70002 90973
AAXX 24184 71148 16/// /2809 10008 21046 39559 40147 58005 60001 333 10008 21129 70000 555 10010
AAXX 24184 71185 17461 82911 11139 30151 40176 55000 69951 74544 333 11108 21142 70005
AAXX 24184 71188 NIL
AAXX 24184 71200 17/// /0706 10070 20063 60051 7//4/ 333 10071 20052 70056
AAXX 24184 71207 17/// /3302 10020 30243 40309 53004 60151 7//4/ 333 10021 20000 70329
AAXX 24184 71260 13/// ///// 11024 21032 39985 40228 58029 69921 333 11024 21092 46001 70011
AAXX 24184 71864 NIL
AAXX 24184 71865 16/// /2516 10009 21063 39451 40134 50003 60001 333 10009 21049 70000
AAXX 24184 71866 46964 02916 10042 21051 39537 40155 51006 6///1 333 10042 21057 7////
AAXX 24184 71867 12874 72708 11018 21041 39715 40051 58006 60001 85071 333 11016 21117 70008
AAXX 24184 71868 NIL
AAXX 24184 71869 12974 22915 10036 21033 39587 40113 51003 60001 82070 333 10036 21105 70000
AAXX 24184 71871 15966 02923 10050 21057 39356 40162 53016 60001 333 10050 21014 70000
AAXX 24184 71877 11686 72906 10050 21073 38977 40254 53033 60001 71411 81170 333 10062 20021 70000
AAXX 24184 71878 12974 72608 10020 21061 39150 40233 52015 60001 85071 333 10032 21077 70000
AAXX 24184 71879 16964 02810 10055 21066 39395 40199 51031 60001 333 10055 20011 70000
AAXX 24184 71880 12682 73603 11039 21073 39215 40362 53010 60001 87500 333 11017 21095 70000
AAXX 24184 71882 160// /0404 11006 21023 39806 40360 51011 69951 333 11005 21027 70005
AAXX 24184 71883 46/// /0000 11035 21040 39482 40326 52004 6///1 333 11035 21100 7////
AAXX 24184 71887 12586 81214 10019 21020 39885 40316 53008 60001 8157/ 333 10021 21014 70000
AAXX 24184 71889 12674 81914 10001 21048 39931 40362 53016 60001 8357/ 333 10004 21008 70000
AAXX 24184 71891 16564 80000 10024 21030 30010 40289 51018 60001 333 10073 20009 70005
AAXX 24184 71892 11462 81011 10068 20058 30300 40305 53010 60091 76366 885// 333 10072 20049 70100 90973
AAXX 24184 71043 11983 20000 11294 21343 30073 40171 53014 69901 70277 82070 333 11212 21299 48030 70028 90953
AAXX 24184 71045 16/// /0206 11046 21077 39220 40082 54000 60001 333 11018 21099 70000
AAXX 24184 71050 46/// /1102 11086 21098 39147 40256 56005 6///1 333 11077 21140 7////
AAXX 24184 71051 NIL
AAXX 24184 71052 NIL
AAXX 24184 71066 12774 10000 11051 21098 39695 40118 53024 60001 81500 333 11012 21124 70000
AAXX 24184 71068 NIL
AAXX 24184 71069 16964 02719 10044 21038 39468 40170 53032 60001 333 10059 20031 70000
AAXX 24184 71076 16/// /2603 11094 21108 39674 40071 53030 60001 333 11064 21143 70000
AAXX 24184 71077 16/// /3008 10019 21004 39565 40103 53025 60001 333 10025 21053 70000 555 10010
AAXX 24184 71079 11474 32711 11049 21070 39715 49995 57007 69901 70377 81570 333 11048 21228 48010 70008 90943
AAXX 24184 71081 47956 03504 11244 21281 39907 49919 58019 6///1 745// 333 11218 21326 7////
AAXX 24184 71082 NIL
AAXX 24184 71083 11562 63415 11175 21211 39872 49914 53008 69941 77177 86500 333 11127 21277 48056 70022 90983
AAXX 24184 71090 46664 82603 11277 21317 39946 49982 5/002 6///1 333 11273 21319 7////
AAXX 24184 71091 460// /0810 11273 39739 49954 56015 6///1 333 7////
AAXX 24184 71092 46964 01406 11278 39288 49967 58005 6///1 333 11209 21278 7////
AAXX 24184 71093 460// /2620 11233 39450 49955 58002 6///1 333 11216 21235 7////
AAXX 24184 71094 46064 /2606 11207 39015 49921 56007 6///1 333 11195 21208 7////
AAXX 24184 71095 NIL
AAXX 24184 71101 160// /1708 30063 56024 60091 333 70085
AAXX 24184 71104 11474 81412 10017 21029 39130 40255 55003 69901 70187 86571 333 10017 21028 44029 79999 90921
AAXX 24184 71108 11548 80205 10051 20046 30236 40310 55004 60081 76166 885// 333 10051 20025 70098 90973
AAXX 24184 71109 12680 71210 10077 20045 30192 40219 51001 60001 87500 333 10077 20053 70122
AAXX 24184 71401 17/// /1403 11041 21050 39672 40384 53010 60011 7//4/ 333 11039 21075 70029
AAXX 24184 71402 NIL
AAXX 24184 71404 NIL
AAXX 24184 71405 NIL
AAXX 24184 71406 NIL
AAXX 24184 71407 NIL
AAXX 24184 71408 NIL
AAXX 24184 71409 NIL
AAXX 24184 71410 15866 82606 11038 21063 39756 40036 56010 60001 333 11038 21135
AAXX 24184 71413 NIL
AAXX 24184 71414 NIL
AAXX 24184 71415 16/// /3615 11056 21095 30231 40234 53001 60001 333 11011 21059 70059
AAXX 24184 71417 NIL
AAXX 24184 71418 NIL
AAXX 24184 71419 46/// /3520 11041 21081 30207 40217 53010 6///1 333 10015 21046 7////
AAXX 24184 71423 NIL
AAXX 24184 71424 46/// /2506 6///1 333 7////
AAXX 24184 71425 NIL
AAXX 24184 71426 NIL
AAXX 24184 71427 NIL
AAXX 24184 71428 16/// /2411 11125 21171 30296 40303 55005 60001 333 11118 21149 70000
AAXX 24184 71429 16/// /3109 11114 21192 30239 40259 57007 60001 333 11108 21154 70010
AAXX 24184 71434 NIL
AAXX 24184 71436 15466 31303 11070 21092 30077 40323 58015 60001 333 11067 21120 70000
AAXX 24184 71437 46/// /0807 11010 21086 30203 40301 58020 6///1 333 11009 21058 7////
AAXX 24184 71438 NIL
AAXX 24184 71439 NIL
AAXX 24184 71440 NIL
AAXX 24184 71442 NIL
AAXX 24184 71445 NIL
AAXX 24184 71446 16/// /2718 10011 21053 39226 40215 53020 60001 333 10011 21027 70000
AAXX 24184 71448 NIL
AAXX 24184 71449 16/// /2407 11048 21085 39718 40127 58015 60001 333 11048 21097 70000
AAXX 24184 71665 NIL
AAXX 24184 71666 16/// /3210 11126 21164 30231 40278 55000 60001 333 11063 21130 70007 555 10070
AAXX 24184 71667 NIL
AAXX 24184 71668 16/// /3309 11129 21177 30250 40295 55001 60001 333 11056 21140 70003 555 10030
AAXX 24184 71669 NIL
AAXX 24184 71670 16/// ///// 11123 21154 60001 333 11088 21140 70059
AAXX 24184 71671 16/// /3507 11085 21108 30193 40255 53008 60001 333 11017 21085 70006 555 10010
AAXX 24184 71672 17/// /0501 11058 21112 30043 40319 58016 69931 7//4/ 333 11051 21139 70003
AAXX 24184 71673 NIL
AAXX 24184 71674 NIL
AAXX 24184 71675 17528 82111 11071 21081 39769 40054 58045 60041 77144 333 11071 21218 70174
AAXX 24184 71679 16/// /0803 10013 21010 39154 40170 58012 60001 333 10046 21017 70000
AAXX 24184 71680 NIL
AAXX 24184 71681 46/// /2202 11014 21035 6///1 333 11014 21072 7////
AAXX 24184 71682 NIL
AAXX 24184 71683 NIL
AAXX 24184 71684 15566 61209 11125 21176 39976 40295 58030 60001 333 11125 21246 70000
AAXX 24184 71685 17466 80602 11008 21018 39806 40361 52012 69931 7714/ 333 11005 21024 70003
AAXX 24184 71686 469// /0605 11092 21101 39154 40120 58014 6///1 333 11043 21121
AAXX 24184 71687 17/// /0000 10004 20000 39502 40298 53005 60061 7//4/ 333 10014 7////
AAXX 24184 71688 16/// /0000 10002 20002 39237 40287 53003 60001 333 10003 21022 70000 555 10200
AAXX 24184 71689 15966 32712 10019 20001 39658 40112 53034 60001 333 10038 20015 70000
AAXX 24184 71690 NIL
AAXX 24184 71691 15966 02708 11153 21234 30292 40321 58010 60001 333 11153 21270 70000
AAXX 24184 71692 NIL
AAXX 24184 71694 16/// /1303 11058 21105 39933 40312 58023 60001 333 11055 21156 70000
AAXX 24184 71695 16/// /2507 11017 21051 39712 40047 58005 60001 333 11015 21115 70006 555 10010
AAXX 24184 71696 17/// /3118 11064 21078 39876 49912 53002 69931 7//4/ 333 11053 21230 70012
AAXX 24184 71697 15466 11207 11045 21074 30139 40317 58011 60001 333 11039 21103 70000
AAXX 24184 71699 16/// /3311 11104 21140 30273 40281 53005 60001 333 11025 21107 70038
AAXX 24184 71201 17/// ///// 10071 20057 60131 7//4/ 333 10071 20054 70162
AAXX 24184 71202 16/// ///// 10031 21050 60001 333 10036 21057 70007
AAXX 24184 71203 15766 81508 10002 21036 39818 40352 53013 60001 333 10002 21008 70000
AAXX 24184 71209 46/// /1216 10069 6///1 333 10071 20049 7////
AAXX 24184 71211 46/// /0316 10051 20038 30288 40300 53005 6///1 333 10055 20035 7////
AAXX 24184 71212 17/// /1602 11145 21222 39451 40310 58007 69951 7//4/ 333 11137 21333 70013 555 10020
AAXX 24184 71213 46/// /1308 11123 21168 39974 40292 58030 6///1 333 11122 21251 7////
AAXX 24184 71214 NIL
AAXX 24184 71215 NIL
AAXX 24184 71216 17/// /1301 11006 21026 39723 40358 53010 60021 7//4/ 333 11006 21026 70021 555 10050
AAXX 24184 71217 NIL
AAXX 24184 71218 16/// /1203 10001 21021 39901 40340 53009 60001 333 10005 21019 70000 555 10020
AAXX 24184 71219 46/// /1422 10083 20046 30099 40105 56030 6///1 333 10087 20043 7////
AAXX 24184 71220 46/// /1432 10071 20048 6///1 333 10073 20040 7////
AAXX 24184 71221 NIL
AAXX 24184 71222 16/// /0704 11104 21113 39154 40135 58013 60001 333 11048 21141 70000
AAXX 24184 71223 NIL
AAXX 24184 71224 NIL
AAXX 24184 71225 NIL
AAXX 24184 71226 NIL
AAXX 24184 71227 NIL
AAXX 24184 71228 NIL
AAXX 24184 71229 NIL
AAXX 24184 71230 16/// /1604 10024 21050 39291 40186 51014 60001 333 10035 21007 70000
AAXX 24184 71231 16/// /2821 10067 21044 60001 333 10067 20011 70000
AAXX 24184 71232 16/// /2406 10039 21083 38735 40240 51019 60001 333 10039 20006 70000
AAXX 24184 71233 16/// /2406 10051 21084 60001 333 10051 20004 70000
AAXX 24184 71234 16/// /2720 10052 21072 39056 40251 53017 60001 333 10055 20017 70000
AAXX 24184 71235 16/// /3109 10035 21069 60001 333 10053 20010 70000
AAXX 24184 71236 46/// /3211 10021 21052 6///1 333 10021 21017 7////
AAXX 24184 71237 46/// /1503 11001 21051 39401 40230 51020 6///1 333 10047 21065 7////
AAXX 24184 71238 16/// /2805 10048 21053 60001 333 10048 20007 70000
AAXX 24184 71239 16/// /2711 10009 21045 39670 40136 58004 60001 333 10009 21127 70000 555 10010
AAXX 24184 71240 16/// ///// 10054 21077 39354 40206 53017 60001 333 10054 21012 70000
AAXX 24184 71241 NIL
AAXX 24184 71242 16/// /2712 10024 21060 60001 333 10034 21051 70000
AAXX 24184 71243 NIL
AAXX 24184 71244 16/// /2818 10041 21037 39015 40252 53012 60001 333 10041 21003 70000
AAXX 24184 71245 NIL
AAXX 24184 71246 NIL
AAXX 24184 71247 15966 02410 10061 21047 39378 40240 51016 60001 333 10061 21011 70000
AAXX 24184 71248 16/// /0000 11004 21078 38927 40244 51024 60001 333 10052 21016 70000
AAXX 24184 71249 NIL
AAXX 24184 71300 NIL
AAXX 24184 71301 17/// ///// 11129 21184 39862 40285 58028 60011 7//4/ 333 11129 21277 70016
AAXX 24184 71302 16/// /1811 10025 21011 39395 40219 56004 60001 333 10026 21007 70000
AAXX 24184 71303 46/// ///// 10018 21029 6///1 333 10026 21034 7////
AAXX 24184 71305 15966 02906 11084 21102 39802 40095 51037 60001 333 11003 21096 70000
AAXX 24184 71306 17408 62026 11130 21147 30087 40120 58038 60001 772// 333 11130 21178 70000
AAXX 24184 71307 16/// /2105 10011 21031 30026 40283 58020 60001 333 10011 21031 70000
AAXX 24184 71308 16/// /3414 11053 21086 30140 40226 55000 60001 333 11003 21055 70032 555 10220
AAXX 24184 71309 NIL
AAXX 24184 71310 16/// /3312 11079 21125 30206 40244 53001 60001 333 11042 21081 7//// 555 10110
AAXX 24184 71311 NIL
AAXX 24184 71312 16/// /2510 10008 21045 39631 40089 58001 60001 333 10011 21118 70000
AAXX 24184 71314 16/// /1506 11045 21090 39932 40298 58017 60001 333 11045 21129 70000
AAXX 24184 71315 16/// /2802 11136 21194 30243 40300 56008 60001 333 11118 21181 70041 555 10050
AAXX 24184 71316 16/// /2916 10047 21051 39470 40155 53029 60001 333 10047 21022 70000
AAXX 24184 71317 NIL
AAXX 24184 71318 16/// /2715 10041 21072 39257 40211 53020 60001 333 10042 21032 70000
AAXX 24184 71319 16/// /0802 11175 21191 39391 40311 50001 60001 333 11165 21284 70008
AAXX 24184 71320 NIL
AAXX 24184 71321 16/// /1103 11158 21176 30003 40047 58021 60001 333 11158 21223 70000
AAXX 24184 71322 NIL
AAXX 24184 71323 NIL
AAXX 24184 71331 NIL
AAXX 24184 71332 NIL
AAXX 24184 71334 46/// /3410 11096 21127 39650 49980 51033 6///1 333 11037 21192 7////
AAXX 24184 71335 46964 02824 11156 53011 6///1 333 11133 21202 7////
AAXX 24184 71336 46/// ///11 11066 21108 30092 40114 53011 6///1 333 11007 21067 7////
AAXX 24184 71337 46/// /2910 11124 21169 39892 40137 53002 6///1 333 11113 21136 7////
AAXX 24184 71338 46664 80000 11239 21274 39966 49973 57008 6///1 333 11224 21298 7////
AAXX 24184 71339 17964 02812 11185 21298 30102 40117 55013 69951 7//44 333 11180 21243 70005
AAXX 24184 71340 NIL
AAXX 24184 71341 NIL
AAXX 24184 71342 NIL
AAXX 24184 71343 NIL
AAXX 24184 71344 NIL
AAXX 24184 71345 NIL
AAXX 24184 71346 NIL
AAXX 24184 71347 NIL
AAXX 24184 71348 NIL
AAXX 24184 71349 NIL
AAXX 24184 71001 15964 02804 11221 21244 39054 40049 53002 60001 333 11128 21221 70000
AAXX 24184 71002 15566 12808 11210 21263 39648 40225 53001 60001 333 11210 21315 70000
AAXX 24184 71003 15966 02006 11210 21240 39886 40295 57018 60001 333 11210 21265 70001
AAXX 24184 71005 16/// ///// 10051 21049 60001 333 10051 21054 70000
AAXX 24184 71006 NIL
AAXX 24184 71007 NIL
AAXX 24184 71008 NIL
AAXX 24184 71009 NIL
AAXX 24184 71010 NIL
AAXX 24184 71011 NIL
AAXX 24184 71012 NIL
AAXX 24184 71013 NIL
AAXX 24184 71014 NIL
AAXX 24184 71015 NIL
AAXX 24184 71016 NIL
AAXX 24184 71017 NIL
AAXX 24184 71018 NIL
AAXX 24184 71019 NIL
AAXX 24184 71020 NIL
AAXX 24184 71021 NIL
AAXX 24184 71022 15566 81316 10080 20048 30057 40101 56035 60001 333 10078 20038 70133
AAXX 24184 71023 17664 62916 10036 21040 39358 40125 53028 69951 7//44 333 10036 21047 70005
AAXX 24184 71024 16/// /2705 10007 21053 60001 333 10021 21096 70000
AAXX 24184 71026 NIL
AAXX 24184 71027 16/// /3304 11082 21127 30206 40216 55000 60001 333 11024 21082 70052 555 10050
AAXX 24184 71028 16/// /1808 10039 21004 39193 40233 57005 60001 333 10042 21012 70000
AAXX 24184 71029 17/// /0603 11305 21337 30051 40092 50000 69931 7//4/ 333 11291 21341 70016
AAXX 24184 71030 16/56 /3510 11100 21117 30174 40267 55002 60001 333 11043 21103 70018
AAXX 24184 71032 46/// /0000 11036 21054 39484 40344 53008 6///1 333 11033 21088 7////
AAXX 24184 71033 46/// /3014 11026 21043 39419 40046 53021 6///1 333 11010 21103 7////
AAXX 24184 71035 NIL
AAXX 24184 71036 15966 02721 10022 21050 39723 40101 58004 60001 333 10022 21089 70000
AAXX 24184 71039 46/// /0000 11198 6///1 333 11105 21200 7////
AAXX 24184 71040 46/// /3303 11181 21255 30137 40351 58003 6///1 333 11181 21252 7////
AAXX 24184 71041 17528 83510 11060 21083 30073 40218 55000 60001 771// 333 11010 21064 70023
AAXX 24184 71042 17/// /0902 10067 20061 30299 40303 53005 60081 7//4/ 333 10068 20032 70090
AAXX 24184 71044 16/// /0510 11226 21265 39810 40142 53015 60001 333 11216 21239 70000 555 10010
AAXX 24184 71046 460// /2714 11273 30173 40191 53011 6///1 333 11259 21273 7////
AAXX 24184 71047 16/// ///// 10052 21047 60001 333 10053 21021 70000
AAXX 24184 71048 NIL
AAXX 24184 71049 NIL
AAXX 24184 71060 NIL
AAXX 24184 71063 NIL
AAXX 24184 71450 NIL
AAXX 24184 71451 NIL
AAXX 24184 71452 46/// /2710 10025 21057 39463 40180 50002 6///1 333 10025 21049 7//// 555 10010
AAXX 24184 71453 16/// /2611 10040 21041 39314 40235 53014 60001 333 10040 21003 70000
AAXX 24184 71454 16/// /2911 10024 21037 39408 40096 53006 60001 333 10032 21079 70000
AAXX 24184 71455 NIL
AAXX 24184 71456 16/// /2715 10001 21053 39511 40110 50000 60001 333 10002 21086 70000
AAXX 24184 71457 16/// /2812 10045 21038 39325 40220 51020 60001 333 10046 21024 70000
AAXX 24184 71458 16/// /2918 10045 21040 39415 40188 51028 60001 333 10047 21041 70000
AAXX 24184 71459 NIL
AAXX 24184 71460 16/// /3110 11055 21063 30019 40270 58033 60001 333 11052 21123 70000
AAXX 24184 71461 NIL
AAXX 24184 71462 NIL
AAXX 24184 71463 46/// /1306 11015 21080 30081 40312 58016 6///1 333 11014 21053 7////
AAXX 24184 71464 NIL
AAXX 24184 71465 NIL
AAXX 24184 71466 NIL
AAXX 24184 71468 NIL
AAXX 24184 71470 NIL
AAXX 24184 71471 15966 82807 10030 21047 39387 40178 53011 60001 333 10047 21030 70000
AAXX 24184 71473 17/// /1909 10066 20052 30271 40301 53012 60021 7//4/ 333 10070 20043 70028
AAXX 24184 71475 17/// /0000 10040 20037 30188 40283 53006 60091 7//4/ 333 10040 20007 70206
AAXX 24184 71476 NIL
AAXX 24184 71477 17/// /1527 10064 20059 69961 7//4/ 333 10065 20017 70076
AAXX 24184 71478 NIL
AAXX 24184 71479 NIL
AAXX 24184 71480 NIL
AAXX 24184 71481 NIL
AAXX 24184 71482 NIL
AAXX 24184 71483 NIL
AAXX 24184 71484 NIL
AAXX 24184 71485 16/// /1233 10084 20048 30177 40197 56005 60001 333 10084 20059 70046
AAXX 24184 71486 16/// /1703 11004 21063 39050 40265 51008 60001 333 10030 21010 70000
AAXX 24184 71487 NIL
AAXX 24184 71489 NIL
AAXX 24184 71490 NIL
AAXX 24184 71491 NIL
AAXX 24184 71492 NIL
AAXX 24184 71493 16/// /3407 11094 21120 30219 40259 51014 60001 333 11031 21094 70007
AAXX 24184 71494 16/// /2902 11157 21178 39769 40322 50001 60001 333 11150 21204 70000
AAXX 24184 71495 NIL
AAXX 24184 71496 16/// /3015 10040 21055 39533 40148 51007 60001 333 10041 21058 70000
AAXX 24184 71497 46/// /0905 11143 21185 39858 40125 53018 6///1 333 10045 21143 7////
AAXX 24184 71498 NIL
AAXX 24184 71499 17416 82913 11023 21041 39418 40044 53020 60001 771// 333 11008 21096 70000
AAXX 24184 71150 NIL
AAXX 24184 71151 NIL
AAXX 24184 71152 16/// /3312 11094 21149 30175 40188 53008 60001 333 11025 21095 70014
AAXX 24184 71153 NIL
AAXX 24184 71154 16/// /2317 10036 21041 60001 333 10042 20004 70000
AAXX 24184 71155 NIL
AAXX 24184 71156 NIL
AAXX 24184 71157 46/// ///// 10052 21041 6///1 333 10052 20012 7////
AAXX 24184 71158 NIL
AAXX 24184 71159 NIL
AAXX 24184 71160 NIL
AAXX 24184 71161 16/// /0304 11109 21141 30177 40333 58007 60001 333 11109 21156 70000
AAXX 24184 71162 NIL
AAXX 24184 71163 46/// /2806 11205 21224 39761 40114 53026 6///1 333 11149 21205 7////
AAXX 24184 71164 NIL
AAXX 24184 71165 NIL
AAXX 24184 71166 NIL
AAXX 24184 71167 15966 82606 10027 21072 39111 40212 53017 60001 333 10050 20002 70000
AAXX 24184 71168 NIL
AAXX 24184 71170 NIL
AAXX 24184 71171 16/// /1304 10003 21092 30197 40297 58021 60001 333 10006 21062 70000
AAXX 24184 71172 16/// ///// 11024 21092 30055 40280 58024 60001 333 11022 21124 70000
AAXX 24184 71175 NIL
AAXX 24184 71176 460// /2539 11174 39352 40052 53004 6///1 333 11162 21215 7////
AAXX 24184 71177 460// /3111 11198 39030 40069 53019 6///1 333 11190 21255 7////
AAXX 24184 71178 16/// /3123 11079 21124 30101 40133 53011 60001 333 11031 21079 70054
AAXX 24184 71179 460// /2526 11223 39206 40070 53005 6///1 333 11223 21297 7////
AAXX 24184 71180 16/// /3320 11087 21124 30165 40205 58003 60001 333 11042 21088 70012
AAXX 24184 71181 17450 83309 11060 21096 30098 40135 53002 60001 745// 333 11016 21062 70055
AAXX 24184 71183 16/// /3201 30311 55003 60001 333 70005
AAXX 24184 71184 46/// /0000 11134 21199 6///1 333 11134 21179 7////
AAXX 24184 71186 NIL
AAXX 24184 71187 17161 81201 10031 20030 30265 40314 53001 60001 761// 333 10032 20009 70000
AAXX 24184 71189 NIL
AAXX 24184 71190 NIL
AAXX 24184 71191 16/// ///// 11107 21147 60001 333 11029 21107 70000 555 10010
AAXX 24184 71192 15966 81706 10012 21021 39576 40245 56005 60001 333 10025 21017 70000
AAXX 24184 71193 16/// /1509 11111 21146 39875 40257 58030 60001 333 11111 21241 70000
AAXX 24184 71196 16/// /1304 11130 21165 30122 40333 58017 60001 333 11128 21222 70000
AAXX 24184 71197 17564 83119 11089 21148 30152 40203 55001 60001 745// 333 11033 21089 70000
AAXX 24184 71198 46/// /0305 11151 21216 6///1 333 11150 21183 7////
AAXX 24184 71199 46/// /1002 11143 21155 39274 40121 51014 6///1 333 11031 21175 7////
AAXX 24184 71851 16/// /2710 10019 21041 39777 40115 58006 60001 333 10019 21097 70000
AAXX 24184 71857 NIL
AAXX 24184 71860 12783 73407 10026 21066 38847 40257 52034 60001 81571 333 10040 20012 70000
AAXX 24184 71876 15966 02919 10054 21060 39492 40158 51009 60001 333 10054 21013 70000
AAXX 24184 71885 NIL
AAXX 24184 71886 16/// /2409 11012 21062 39517 40130 55000 60001 333 11012 21094 70000
AAXX 24184 71888 NIL
AAXX 24184 71890 16/// /0508 11154 21244 30288 40317 57011 60001 333 11154 21277 70000
AAXX 24184 71895 NIL
AAXX 24184 71950 15966 11405 11020 21027 39530 40163 56024 60001 333 10055 21051 70000
AAXX 24184 71952 16/// /1402 11048 21054 39320 40180 58016 60001 333 10032 21099 70000
AAXX 24184 71954 NIL
AAXX 24184 71956 NIL
AAXX 24184 71959 NIL
AAXX 24184 71960 460// /2607 11294 30020 40160 53008 6///1 333 11280 21308 7////
AAXX 24184 71962 17/// /2007 11036 21073 39704 40132 58027 60011 7//4/ 333 11036 21067 70011
AAXX 24184 71963 NIL
AAXX 24184 71967 16/// /2701 11157 21200 30249 40362 58004 60001 333 11150 21204 70000
AAXX 24184 71970 NIL
AAXX 24184 71971 16/// /0501 11339 21371 39942 49990 51001 60001 333 11302 21350 70000
AAXX 24184 71972 460// ///// 11141 39574 40043 55001 6///1 333 11127 21154 7////
AAXX 24184 71973 46/// /2808 11114 21158 39989 40183 53001 6///1 333 11084 21120 7////
AAXX 24184 71974 NIL
AAXX 24184 71975 460// /2523 11224 39227 49965 56015 6///1 333 11172 21226 7////
AAXX 24184 71976 NIL
AAXX 24184 71977 NIL
AAXX 24184 71978 NIL
AAXX 24184 71979 NIL
AAXX 24184 71980 46/// /1601 11173 21194 6///1 333 11166 21188 7////
AAXX 24184 71981 NIL
AAXX 24184 71982 NIL
AAXX 24184 71983 NIL
AAXX 24184 71984 16/// /1103 11291 21320 30137 40146 53007 60001 333 11284 21310 70000
AAXX 24184 71985 NIL
AAXX 24184 71986 NIL
AAXX 24184 71987 16/// /3315 11099 21130 30253 40263 55001 60001 333 11060 21102 70000
AAXX 24184 71988 17/// /3517 11050 21064 30247 40267 53006 60021 7//4/ 333 10012 21050 70028
AAXX 24184 71989 NIL
AAXX 24184 71990 NIL
AAXX 24184 71999 46/// ///// 10046 6///1 333 10068 20004 7////
AAXX 24184 71051 NIL
AAXX 24184 71055 NIL
AAXX 24184 71057 NIL
AAXX 24184 71059 460// ///// 11284 30036 40131 53007 6///1 333 11274 21302 7////
AAXX 24184 71061 16/// /2506 10019 21054 39403 40181 51029 60001 333 10049 21012 70000
AAXX 24184 71062 46/// /3404 10027 21068 39123 40192 53020 6///1 333 10048 20008 7////
AAXX 24184 71064 460// /3218 11321 39857 40085 51006 6///1 333 11311 21336 7////
AAXX 24184 71065 NIL
AAXX 24184 71067 NIL
AAXX 24184 71070 NIL
AAXX 24184 71073 NIL
AAXX 24184 71074 NIL
AAXX 24184 71075 16/// /3107 11067 21076 39419 40024 52027 60001 333 11036 21126 70000
AAXX 24184 71078 NIL
AAXX 24184 71084 460// ///// 11317 39988 40038 53022 6///1 333 11286 21321 7////
AAXX 24184 71085 15766 33012 10025 21052 38897 40298 53008 60001 333 10030 20001 70000
AAXX 24184 71087 NIL
AAXX 24184 71088 460// /0813 11218 58019 6///1 333 11217 21271 7////
AAXX 24184 71089 NIL
AAXX 24184 71096 460// ///// 11208 39213 49954 56003 6///1 333 11177 21226 7////
AAXX 24184 71097 46964 03213 11167 39535 40016 58002 6///1 333 11151 21167 7////
AAXX 24184 71098 43/// /2208 11061 21072 39687 40051 57031 6///1 333 11060 21187 7////
AAXX 24184 71099 43/// /2015 11108 21133 39991 40012 58050 6///1 333 11107 21280 7////
AAXX 24184 71350 16/// /3409 11087 21137 30179 40247 53001 60001 333 11048 21087 70022 555 10100
AAXX 24184 71351 NIL
AAXX 24184 71352 17/// /1508 11028 21082 39823 40293 58016 69961 7//4/ 333 11025 21099 70006
AAXX 24184 71353 NIL
AAXX 24184 71354 NIL
AAXX 24184 71355 16/// /2302 11231 21260 39944 40032 53003 60001 333 11231 21305 70000
AAXX 24184 71356 NIL
AAXX 24184 71357 17/// /0501 11240 21262 39970 49977 56008 69931 7//4/ 333 11221 21297 70033
AAXX 24184 71358 17/// /2604 11276 21305 39944 49980 57002 69931 7//4/ 333 11271 21319 70014
AAXX 24184 71359 NIL
AAXX 24184 71360 NIL
AAXX 24184 71361 NIL
AAXX 24184 71362 NIL
AAXX 24184 71363 NIL
AAXX 24184 71364 NIL
AAXX 24184 71365 NIL
AAXX 24184 71368 15966 01407 11011 21079 39892 40295 58019 60001 333 11011 21098 70000
AAXX 24184 71369 15966 02720 10045 21054 39467 40171 53032 60001 333 10061 20034 70000
AAXX 24184 71370 46/// /3203 11156 21220 30198 40343 58003 6///1 333 11156 21214 7////
AAXX 24184 71371 15966 03601 11149 21214 30321 40357 55003 60001 333 11149 21177 70003
AAXX 24184 71372 16/// /0000 11133 21194 60001 333 11132 21722 70000
AAXX 24184 71373 16/// /2501 11134 21178 60001 333 11128 21180 70000
AAXX 24184 71374 NIL
AAXX 24184 71375 NIL
AAXX 24184 71376 16/// /1902 11126 21180 30030 40352 58010 60001 333 11123 21239 70000
AAXX 24184 71377 16/// /3101 11132 21206 30297 40348 58005 60001 333 11121 21170 70000 555 10010
AAXX 24184 71378 16/// /3604 11191 21262 30133 40358 58011 60001 333 11190 21268 70000
AAXX 24184 71379 16/// /0803 11219 21272 30160 40345 58008 60001 333 11215 21300 70000
AAXX 24184 71380 NIL
AAXX 24184 71381 NIL
AAXX 24184 71382 NIL
AAXX 24184 71383 NIL
AAXX 24184 71384 16/// /2103 11120 21175 30336 40344 50000 60001 333 11119 21174 70000
AAXX 24184 71385 NIL
AAXX 24184 71386 NIL
AAXX 24184 71387 NIL
AAXX 24184 71388 46/// /0703 11196 21250 30154 40356 58003 6///1 333 11191 21284 7////
AAXX 24184 71389 NIL
AAXX 24184 71390 46/// /2709 11147 6///1 333 11147 21204 7////
AAXX 24184 71391 16/// ///// 11138 21175 60001 333 11138 21191 70000
AAXX 24184 71392 16/// /2104 11145 21181 60001 333 11142 21184 70010
AAXX 24184 71393 NIL
AAXX 24184 71395 11456 83612 11069 21095 30055 40238 53006 69901 78588 885// 333 11011 21070 47012 70012 90973
AAXX 24184 71398 15666 81711 11114 21149 30212 40224 58039 60001 333 11114 21282 70000
AAXX 24184 71399 NIL
AAXX 24184 71700 15566 63511 11128 21172 30272 40299 55000 60001 333 11056 21137 70011
AAXX 24184 71701 11474 73208 11128 21159 30232 40297 53002 69901 77172 87500 333 11060 21134 47007 70034 90917
AAXX 24184 71702 17/// /3415 11103 21146 30241 40257 53001 69941 7//4/ 333 11052 21105 70020 555 10220
AAXX 24184 71703 12974 22907 11165 21190 39999 40314 58001 60001 80002 333 11144 21192 70050
AAXX 24184 71704 15466 81905 11001 21027 30053 40280 60001 333 10000 21038 70000
AAXX 24184 71710 NIL
AAXX 24184 71712 16/// /0804 11131 21172 30284 40350 50000 60001 333 11116 21145 70000
AAXX 24184 71713 NIL
AAXX 24184 71716 NIL
AAXX 24184 71717 NIL
AAXX 24184 71720 17/// /1012 10080 20052 30127 40281 53007 60031 7//4/ 333 10080 20049 70044
AAXX 24184 71721 16/// /1802 11142 21206 30079 40341 58009 60001 333 11137 21238 70000
AAXX 24184 71723 NIL
AAXX 24184 71724 16/// /3203 11158 21217 30344 40352 58004 60001 333 11156 21197 70000
AAXX 24184 71732 NIL
AAXX 24184 71733 16/// /1006 11105 21133 39831 40287 58027 60001 333 11101 21174 70000 555 10010
AAXX 24184 71734 16/// /1206 11157 21216 39885 40303 58026 60001 333 11156 21257 70000
AAXX 24184 71736 NIL
AAXX 24184 71737 NIL
AAXX 24184 71741 16/// /1112 10016 21021 39881 40312 53008 60001 333 10016 21008 70000
AAXX 24184 71742 NIL
AAXX 24184 71743 NIL
AAXX 24184 71744 NIL
AAXX 24184 71745 NIL
AAXX 24184 71746 NIL
AAXX 24184 71747 NIL
AAXX 24184 71748 NIL
AAXX 24184 71744 NIL
AAXX 24184 71750 16/// /2010 11011 21052 39932 40170 58027 60001 333 11007 21089 70042 555 10060
AAXX 24184 71751 NIL
AAXX 24184 71752 NIL
AAXX 24184 71753 16/// /3410 11063 21094 30204 40234 53008 60001 333 11002 7////
AAXX 24184 71754 16/// /2919 10052 21074 39490 40154 51009 60001 333 10052 21015 70000
AAXX 24184 71755 43/// /2213 11068 21085 39699 40050 58035 6///1 333 11067 21176 7////
AAXX 24184 71756 17/// /0000 10003 20002 39183 40293 53005 60051 7//4/ 333 10003 21017 70092 555 10120
AAXX 24184 71758 NIL
AAXX 24184 71760 NIL
AAXX 24184 71761 NIL
AAXX 24184 71762 NIL
AAXX 24184 71763 NIL
AAXX 24184 71765 16/// /0101 10022 21030 30008 40288 51018 60001 333 10072 20008 70000
AAXX 24184 71766 17/// /1311 10074 20066 30197 40269 53009 60011 7//4/ 333 10074 20052 70022
AAXX 24184 71767 17/// /1811 11015 21024 39997 40266 58022 60011 7//4/ 333 11014 21100 70013 555 10060
AAXX 24184 71768 46/// /2903 11002 21052 39797 40362 53017 6///1 333 11001 21022 7////
AAXX 24184 71769 17/// /1125 10076 20067 30255 40271 53008 60011 7//4/ 333 10079 20056 70014
AAXX 24184 71770 NIL
AAXX 24184 71771 NIL
AAXX 24184 71772 17/// /1122 10077 20072 30271 40277 53010 69961 7//4/ 333 10079 20059 70008
AAXX 24184 71773 16/// /1805 11041 21065 39194 40050 51007 60001 333 11031 21057 70000
AAXX 24184 71774 46/// ///// 10058 6///1 333 10058 20024 7////
AAXX 24184 71775 NIL
AAXX 24184 71776 46/// /2604 11017 21025 39711 40375 53007 6///1 333 11017 21045 7////
AAXX 24184 71777 17/// ///// 11002 21003 30056 40314 53003 60041 7//4/ 333 11001 21035 70077
AAXX 24184 71778 46/// /0313 6///1 333 7////
AAXX 24184 71779 16/// /1605 10018 21020 39573 40241 56004 60001 333 10026 21017 70000
AAXX 24184 71780 17/// /1005 10066 20063 30267 40295 50002 60131 7//4/ 333 10066 20048 70190
AAXX 24184 71781 46/// /1132 10081 20064 30235 40260 53009 6///1 333 10081 20059 7////
AAXX 24184 71782 46/// /1707 10007 21034 38972 40326 53013 6///1 333 10007 21036 7////
AAXX 24184 71783 17/// /0901 10072 20066 30222 40297 53009 60041 7//4/ 333 10075 20054 70052
AAXX 24184 71784 17/// /0803 10074 20065 30094 40301 53010 60151 7//4/ 333 10075 20048 70193
AAXX 24184 71785 17/// /0503 10074 20064 30296 40312 53007 60081 7//4/ 333 10075 20044 70094
AAXX 24184 71786 46/// /2618 11077 21090 38453 40345 51012 6///1 333 11077 21114 7////
AAXX 24184 71787 16/// /3510 11149 21162 39747 40255 53002 60001 333 11069 21151 70000
AAXX 24184 71788 NIL
AAXX 24184 71789 NIL
AAXX 24184 71791 NIL
AAXX 24184 71792 NIL
AAXX 24184 71793 NIL
AAXX 24184 71794 NIL
AAXX 24184 71795 NIL
AAXX 24184 71796 NIL
AAXX 24184 71797 NIL
AAXX 24184 71550 NIL
AAXX 24184 71551 NIL
AAXX 24184 71552 46/// /2111 11063 21093 6///1 333 11052 21080 7////
AAXX 24184 71553 NIL
AAXX 24184 71554 NIL
AAXX 24184 71555 16/// /2722 10014 21073 38681 40265 53022 60001 333 10026 21008 70000
AAXX 24184 71556 16/// /2816 10027 21046 39546 40154 53004 60001 333 10027 21088 70000
AAXX 24184 71557 46/// /0808 10045 20000 6///1 333 10055 21026 7////
AAXX 24184 71558 46/// ///// 11163 21217 30090 40128 55006 6///1 333 11148 21221 7////
AAXX 24184 71559 46/// /2714 10019 21056 39475 40182 50001 6///1 333 10019 21043 7////
AAXX 24184 71560 NIL
AAXX 24184 71563 NIL
AAXX 24184 71564 16/// /2712 10013 21050 39756 40129 50002 60001 333 10013 21121 70000
AAXX 24184 71565 NIL
AAXX 24184 71566 NIL
AAXX 24184 71567 NIL
AAXX 24184 71568 17/// /1317 10070 20048 30251 40263 55000 60021 7//4/ 333 10070 20046 70188
AAXX 24184 71569 16/// /2619 10014 21054 39462 40170 51009 60001 333 10015 21069 70000
AAXX 24184 71570 16/// /2407 11050 21099 39798 40114 58014 60001 333 11049 21083 70000
AAXX 24184 71571 NIL
AAXX 24184 71572 NIL
AAXX 24184 71573 17/// /1605 10000 21063 39996 40286 58019 69931 7//4/ 333 10008 21098 70003
AAXX 24184 71574 11574 13007 11130 21165 30216 40293 56004 60001 73611 81502 333 11110 21159 70074
AAXX 24184 71575 NIL
AAXX 24184 71576 NIL
AAXX 24184 71577 46/// /1904 11060 21088 6///1 333 11059 21096 7////
AAXX 24184 71578 16/// /2404 11136 21189 60001 333 11136 21169 70013
AAXX 24184 71579 NIL
AAXX 24184 71580 11659 43303 11264 21305 39950 49987 52021 69901 77177 84500 333 11239 21330 48032 79999 90983
AAXX 24184 71581 NIL
AAXX 24184 71582 17466 81106 10063 20056 30138 40191 56006 69981 7614/ 333 10066 20049 70134
AAXX 24184 71583 NIL
AAXX 24184 71584 15966 02709 11158 21234 30203 40253 56008 60001 333 11158 21243 70000
AAXX 24184 71585 NIL
AAXX 24184 71586 NIL
AAXX 24184 71587 NIL
AAXX 24184 71588 16/// /3005 11118 21161 60001 333 11100 21124 70000
AAXX 24184 71589 16/// /3007 11107 21146 30002 40138 51008 60001 333 11057 21114 70061 555 10080
AAXX 24184 71590 16/// /3407 11152 21217 30117 40319 56002 60001 333 11148 21220 70013 555 10010
AAXX 24184 71592 NIL
AAXX 24184 71593 NIL
AAXX 24184 71596 NIL
AAXX 24184 71598 16/64 /3010 11114 21164 30274 40281 58006 60001 333 11094 21135 70009 555 10030
AAXX 24184 71599 16/// /0502 11062 21072 30046 40254 53004 60001 333 11004 21063 70017
AAXX 24184 71250 NIL
AAXX 24184 71251 16/// /2719 10065 21052 39316 40247 51019 60001 333 10065 20015 70000
AAXX 24184 71252 NIL
AAXX 24184 71253 46/// /0903 11060 21080 6///1 333 11013 21165 7////
AAXX 24184 71254 16/// /2911 10038 21039 60001 333 10038 21020 70000
AAXX 24184 71255 16/// /2613 10013 21017 60001 333 10024 20001 70000
AAXX 24184 71256 46/// /0000 10017 21051 39263 40205 51026 6///1 333 10052 20001 7////
AAXX 24184 71257 NIL
AAXX 24184 71258 NIL
AAXX 24184 71259 NIL
AAXX 24184 71261 16/// /1510 11004 21054 30006 40274 58023 60001 333 11003 21059 70000
AAXX 24184 71263 13560 /1705 11004 21077 30004 40303 57019 60001 81800 333 11003 21088 79999
AAXX 24184 71264 16/// /3611 11043 21089 30206 40238 53005 60001 333 10000 21046 70008
AAXX 24184 71265 15466 80809 11002 21045 30212 40309 58017 60001 333 11002 21071 70000
AAXX 24184 71266 NIL
AAXX 24184 71267 15966 02625 10062 21052 39161 40263 53023 60001 333 10062 20024 70000
AAXX 24184 71268 NIL
AAXX 24184 71269 NIL
AAXX 24184 71270 NIL
AAXX 24184 71271 16/// ///// 10045 21058 60001 333 10059 20005 70000
AAXX 24184 71272 17466 83411 11094 21119 39625 49979 51034 60001 771// 333 11035 21192 70000
AAXX 24184 71273 16/// /2914 10054 21053 39470 40126 53021 60001 333 10054 21030 70000
AAXX 24184 71274 NIL
AAXX 24184 71275 NIL
AAXX 24184 71276 NIL
AAXX 24184 71277 NIL
AAXX 24184 71278 NIL
AAXX 24184 71279 16/// /2906 11157 21233 30212 40283 55008 60001 333 11157 21322 70000
AAXX 24184 71281 NIL
AAXX 24184 71282 46/// /1308 11062 21081 30030 40311 58018 6///1 333 11062 21115 7////
AAXX 24184 71283 NIL
AAXX 24184 71284 16/// ///// 10024 21048 60001 333 10046 21026 70000
AAXX 24184 71285 NIL
AAXX 24184 71286 NIL
AAXX 24184 71287 NIL
AAXX 24184 71288 NIL
AAXX 24184 71289 NIL
AAXX 24184 71290 15966 81607 11020 21039 39380 40223 50000 60001 333 10011 21028 70000
AAXX 24184 71291 16/// /1604 11023 21043 39854 40149 58033 60001 333 11023 21083 70012 555 10020
AAXX 24184 71292 15966 62409 11010 21045 39518 40132 55000 60001 333 11010 21098 70000
AAXX 24184 71294 16/// /1901 11084 21158 39895 40318 58015 60001 333 11083 70000
AAXX 24184 71295 NIL
AAXX 24184 71296 NIL
AAXX 24184 71297 16/// /0604 10003 21065 60001 333 10004 21086 70000
AAXX 24184 71298 16/// /2307 10010 21017 30041 40279 58017 60001 333 10012 21053 70000
AAXX 24184 71299 NIL
AAXX 24184 71102 NIL
AAXX 24184 71105 NIL
AAXX 24184 71107 NIL
AAXX 24184 71110 NIL
AAXX 24184 71111 17966 31710 10074 20051 30065 40073 56023 69931 7004/ 333 10076 20018 70081
AAXX 24184 71112 17/// ///// 60081 7//4/ 333 70094
AAXX 24184 71113 17/// /1801 10042 20041 30285 40309 53003 60061 7//4/ 333 10042 20021 70088
AAXX 24184 71115 17/// /0802 11017 21024 39743 40343 53009 69931 7//4/ 333 11017 21051 70003
AAXX 24184 71116 16/// /2921 10056 21043 39151 40256 50010 60001 333 10056 21018 70000
AAXX 24184 71118 16/// /2814 10033 21062 39363 40195 52026 60001 333 10037 21025 70000
AAXX 24184 71121 16964 02810 10043 21077 39374 40199 52031 60001 333 10047 21005 70005
AAXX 24184 71127 16/// /2808 10041 21067 39288 40192 53029 60001 333 10049 20012 70000
AAXX 24184 71130 15966 82311 10010 21044 39635 40094 50001 60001 333 10012 21110 70000
AAXX 24184 71132 17466 83005 11060 21074 39729 40042 51029 60001 771// 333 11042 21096 70000
AAXX 24184 71133 NIL
AAXX 24184 71139 16/// /2913 10024 21078 38760 40226 52016 60001 333 10033 20003 70000
AAXX 24184 71141 NIL
AAXX 24184 71142 15966 32518 10007 21043 39237 40218 51015 60001 333 10007 21025 70000
AAXX 24184 71143 NIL
AAXX 24184 71144 NIL
AAXX 24184 71147 16/// /2711 10012 21044 60001 333 10012 21130 70000
AAXX 24184 71149 NIL
AAXX 24184 71604 17/// /3212 11130 21137 60011 7//4/ 333 11064 21131 70097 555 10150
AAXX 24184 71605 17/// /3601 10056 20056 30148 40300 53008 60161 7//4/ 333 10062 20034 70245
AAXX 24184 71611 16/// /1302 11142 21192 60001 333 11138 21189 70000
AAXX 24184 71612 16/// /0301 11124 21195 30260 40355 55003 60001 333 11122 21166 70010
AAXX 24184 71614 17/// /0701 11140 21202 30273 40343 55003 69931 7//4/ 333 11132 21177 70026 555 10010
AAXX 24184 71616 16/// /2401 11157 21184 30226 40355 58003 60001 333 11149 21229 70000
AAXX 24184 71617 16/// /0602 11194 21246 30185 40373 58004 60001 333 11187 21256 70000
AAXX 24184 71618 NIL
AAXX 24184 71619 16/// /3009 11123 21210 30218 40280 58007 60001 333 11122 21174 70020
AAXX 24184 71622 NIL
AAXX 24184 71632 46/// /3114 11030 21054 39563 40001 53013 6///1 333 11029 21151 7//// 555 10040
AAXX 24184 71634 16/// /3204 11134 21171 30133 40294 58004 60001 333 11114 21163 70024 555 10060
AAXX 24184 71638 17/// /3203 10062 20050 30180 40287 53010 60091 7//4/ 333 10080 20044 70094
AAXX 24184 71639 12474 71206 11033 21079 30058 40309 58016 60001 87500 333 11028 21104 70000
AAXX 24184 71642 12574 71707 11055 21076 39662 40224 58035 60001 84530 333 11054 21153 70000
AAXX 24184 71914 46/// /2702 10068 20057 30077 6///1 333 20043 7////
AAXX 24184 71900 46/// /28// 11167 21253 30103 40116 51009 6///1 333 11166 21223 7////
AAXX 24184 71903 NIL
AAXX 24184 71904 NIL
AAXX 24184 71914 17/// /2702 10068 20057 30077 40301 53008 60021 7//4/ 333 10072 20043 70034
AAXX 24184 71916 NIL
AAXX 24184 71918 460// ///// 11305 6///1 333 7////
AAXX 24184 71920 NIL
AAXX 24184 71921 NIL
AAXX 24184 71923 NIL
AAXX 24184 71927 17/// /2502 10072 20064 30237 40296 53010 60031 7//4/ 333 10072 20019 70064
AAXX 24184 71941 15966 01406 11162 21210 39880 40327 57016 60001 333 11161 21279 70000
AAXX 24184 71947 15966 01611 11184 21214 39934 40307 58026 60001 333 11184 21330 70000
AAXX 24184 71500 NIL
AAXX 24184 71501 NIL
AAXX 24184 71502 NIL
AAXX 24184 71503 NIL
AAXX 24184 71504 NIL
AAXX 24184 71505 46/// /0702 11077 21100 39298 40023 51007 6///1 333 11035 21080 7////
AAXX 24184 71506 NIL
AAXX 24184 71507 NIL
AAXX 24184 71508 17/// ///// 11018 21043 30169 40312 58017 60011 7//4/ 333 11018 21065 70010
AAXX 24184 71509 NIL
AAXX 24184 71511 16/// /2815 10020 21051 39510 40151 53008 60001 333 10024 21071 70000
AAXX 24184 71512 NIL
AAXX 24184 71513 15966 03210 11183 21254 30216 40232 56012 60001 333 11183 21252 70000
AAXX 24184 71514 NIL
AAXX 24184 71515 16/// /2717 10009 21050 39444 40148 58001 60001 333 10022 21075 70000
AAXX 24184 71516 NIL
AAXX 24184 71517 NIL
AAXX 24184 71518 NIL
AAXX 24184 71519 NIL
AAXX 24184 71520 NIL
AAXX 24184 71521 NIL
AAXX 24184 71522 NIL
AAXX 24184 71523 NIL
AAXX 24184 71524 16/// /3402 11155 21211 30340 40369 55000 60001 333 11148 21193 70000 555 10010
AAXX 24184 71525 NIL
AAXX 24184 71526 NIL
AAXX 24184 71527 15366 82111 11055 21070 39609 40124 58027 60001 333 11055 21082 70000
AAXX 24184 71528 NIL
AAXX 24184 71529 46/// /14// 11131 21155 39835 40065 53024 6///1 333 11097 21132 7////
AAXX 24184 71532 15966 01408 11065 21096 39943 40303 58022 60001 333 11065 21145 70000
AAXX 24184 71534 17964 01409 11032 21078 30016 40298 58019 69951 7//44 333 11031 21163 70005
AAXX 24184 71535 NIL
AAXX 24184 71536 NIL
AAXX 24184 71537 NIL
AAXX 24184 71539 NIL
AAXX 24184 71540 NIL
AAXX 24184 71541 NIL
AAXX 24184 71542 16/// /2511 10013 21052 60001 333 10039 21005 70000
AAXX 24184 71543 NIL
AAXX 24184 71544 NIL
AAXX 24184 71545 16/// ///// 10038 21036 60001 333 10039 21024 70000
AAXX 24184 71546 NIL
AAXX 24184 71547 NIL
AAXX 24184 71548 NIL
AAXX 24184 71549 NIL
AAXX 24184 71812 NIL
AAXX 24184 71819 15966 03015 11164 21219 30093 40136 55006 60001 333 11149 21219 70000
AAXX 24184 71820 16/// /0301 11079 21159 30214 40334 58008 60001 333 11076 21134 70000
AAXX 24184 71823 16964 02106 11232 21270 39886 40296 58018 60001 333 11232 21279 70000
AAXX 24184 71824 NIL
AAXX 24184 71826 16/// /1502 11207 21234 39961 40005 57008 60001 333 11172 21215 70000
AAXX 24184 71829 16/// /2608 11151 21236 30138 40310 57007 60001 333 11151 21232 70000
AAXX 24184 71833 46/// /1705 11017 21083 6///1 333 11017 21117 7////
AAXX 24184 71835 16/// /2313 11065 21080 39612 40100 58036 60001 333 11065 21169 70006
AAXX 24184 71837 NIL
AAXX 24184 71839 NIL
AAXX 24184 71840 46/// /2719 10012 21043 6///1 333 10012 21125 7////
AAXX 24184 71846 16/// /2008 11067 21089 39789 40113 58045 60001 333 11067 21215 70000
AAXX 24184 71847 NIL
AAXX 24184 71848 NIL
AAXX 24184 71849 NIL
AAXX 24184 84658 31462 63407 10318 20259 39844 40066 70300 862// 333 560// 58011 86810
AAXX 24184 84377 31560 82804 10306 20239 39992 40094 70222 86130 333 5600/ 59002 86820 83360
AAXX 24184 84474 31660 20000 10322 20238 39756 7022/ 82100 333 56900 59006 82840
AAXX 24184 84542 31670 23610 10235 20075 37341 7020/ 82800 333 56900 59009 82840
AAXX 24184 84534 31660 1//// 10310 20216 39360 40058 7021/ 81200 333 56900 59010 81840
AAXX 24184 84773 31962 02204 10240 20190 30103 40128 70111 333 59009
AAXX 24184 84735 31360 69911 10132 20047 36450 70222 82150 333 56990 58013 82810 84630
AAXX 24184 84720 31960 02804 10322 20185 39490 40156 70122 333 58010
AAXX 24184 84401 31960 22106 10304 20189 30063 40106 70200 82030 333 56000 58003 82360
AAXX 24184 84472 31560 8//// 10210 20136 37400 70302 887// 333 56900 58000 83720 87640
AAXX 24184 84691 31250 73107 10224 20192 30115 40122 71044 876// 333 560// 58006 82706 85710
AAXX 24184 84425 31560 43205 10320 20230 39913 40121 70111 84200 333 568// 58006 84820
AAXX 24184 84452 31960 51914 10246 20181 30080 40110 70300 8503/ 333 5609/ 59005 85362
AAXX 24184 84515 31460 33006 10314 20240 39919 40091 70122 83200 333 56900 58001 83820
AAXX 24181 12345 42559 40905 10286 20208 30140 40180 57021 84100 333 84830
AAXX 24181 78268 11560 31207 10288 20238 30171 40190 57021 60001 70110 83200 333 83820
AAXX 24184 68328 42660 60411 10315 20167 48499 53018 84980 333 10363
AAXX 24184 85032 31458 50210 10330 20229 39920 40078 57030 71522 85930 333 56110 58002 84817 81920
AAXX 24184 85043 32465 60308 10325 20231 39930 40091 57015 86903 333 56800 58022 85817 81920 85070
AAXX 24184 85104 32565 33208 10327 20241 39930 40089 57017 83200 333 56700 58012 83820
AAXX 24184 85109 32465 53208 10335 20235 39940 40099 57018 85200 333 56700 58013 85817
AAXX 24184 85114 32465 53004 10330 20252 39930 40093 57019 85200 333 56700 58007 85817
AAXX 24184 85116 42465 53606 10320 20239 39914 40091 57020 85200 333 56800 58018 85817
AAXX 24184 85123 32565 43108 10335 20242 39913 40077 57028 84230 333 56700 58013 84820
AAXX 24184 85139 32465 43510 10328 20246 39860 40050 57016 84200 333 56700 58015 84817
AAXX 24184 85153 32465 53610 10334 20238 39910 40091 57018 85200 333 56700 58020 85817
AAXX 24184 85154 32470 63110 10326 20250 39909 40084 57024 83230 333 56770 58015 83817 83359
AAXX 24181 01389 16/// /0801 11175 21190 39767 40103 58013 60002 333 11128 91103
AAXX 24181 01059 11789 10103 10023 21032 39855 49864 51029 69902 70110 81060 333 10053 91115
AAXX 24184 61401 NIL
AAXX 24184 61404 32960 50612 10238 21013 39889 40187 80002 333 10250 59018 85073
AAXX 24184 61415 32960 53112 10211 20140 30179 40184 85080 333 10274 59002 85363
AAXX 24184 61421 33975 20210 10270 20010 39915 40174 80002 333 10290 59002 82080
AAXX 24184 61437 32960 30404 10276 20111 30033 40172 80002 333 10295 59011 83073
AAXX 24184 61442 32957 20811 10283 21127 30151 40154 80002 333 10295 59007 82080
AAXX 24184 61450 31930 41010 10250 20018 39700 40163 80002 333 10285 59008 84073
AAXX 24184 61461 NIL
AAXX 24184 61489 NIL
AAXX 24184 61492 32960 50806 10295 21012 30139 40159 80002 333 10315 59010 85073
AAXX 24184 61497 35960 40408 10267 21056 39887 4//// 80001 333 10293 59010 84073
AAXX 24184 61498 31957 60404 10280 20101 39989 40121 705// 80002 333 10300 59033 86073
AAXX 24184 61499 NIL
AAXX 24184 61510 NIL
AAXX 24181 01441 16/// /1706 11010 21031 39071 40061 58026 60002 333 10002 91111
AAXX 24181 01180 11665 32204 10011 21037 39827 49883 58013 60042 70282 83300 333 10027 91109
AAXX 24181 01257 16/// /1805 10029 21072 39798 49958 58048 60002 333 10029 91112
AAXX 24181 01488 16/// /2601 11093 21102 60002 333 11026 4/016 91104
BBXX A8GU5 24184 99113 70215 41797 60623 10260 20186 40120 58/// 70222 85019 22284 20501 305// 40804 80210
BBXX A8EH3 24183 99556 71360 41/97 81545 10080 20038 49990 57030 76066 887// 22274 04070 20909 315// 41010 80060
AAXX 24184 65352 31950 70000 10305 20015 3//// 4//// 70522 80002 333 10355 5//// 87076
AAXX 24184 65361 32960 70000 10272 20086 3//// 4//// 80002 333 10350 5//// 87076
AAXX 24184 65376 31930 70000 10302 20115 39631 40087 70522 80002 333 10337 59010 87073
AAXX 24184 65387 32458 52206 10291 20276 30055 40073 81102 333 10340 59003 81816 85073
AAXX 24181 06431 36/// /2204 10062 20038 30284 40296 58002 60002 333 10076 91108 91206
AAXX 24181 06432 35/62 /2004 10044 20029 30237 40316 53001 333 10068 81/57 91107 91206
AAXX 24181 06458 15867 /2305 10050 20030 30156 40314 51006 69942 333 10067 87/58 91109 91207
AAXX 24181 06465 17966 /2203 10051 20027 30239 40307 53007 69982 70065 333 10071 87/58 91109 91206
AAXX 24181 06496 17257 /2404 10009 20005 39621 40319 51013 60052 70087 333 10014 81/03 87/05 91111 91207
AAXX 24181 06447 36/// /2304 10055 20025 30182 40310 52005 60002 333 10071 91108 91205
BBXX A8VL5 24184 99375 10044 41397 60220 10130 20091 40390 51010 70122 86800 22265 00170 20404 30000 80110
BBXX DHSI 24184 99487 70056 41298 52512 10120 20062 40350 58030 70200 84704 22214 21003 325// 41406 80090
AAXX 24184 64600 32960 61804 10245 20192 39435 40083 80002 333 10318 55057 59007 86080
AAXX 24184 64601 32960 00808 10243 20039 38986 48500 333 10310 59002
AAXX 24184 64605 32960 00000 10223 20145 39342 40085 333 10320 59006
AAXX 24184 64610 32960 00000 10228 20130 3//// 4//// 333 10344 5////
AAXX 24184 64650 32956 30000 10270 20224 39671 40080 80002 333 10324 55055 59004 83080
AAXX 24184 64654 32960 00806 10239 20159 39526 40098 333 10361 59004
AAXX 24184 64655 32960 00000 10260 20225 39438 40078 333 1//// 59013
AAXX 24184 64656 32960 00000 10270 20227 39530 40074 333 10322 59010
AAXX 24184 64659 NIL
AAXX 24184 64660 32960 02204 10285 20204 39545 40067 333 10335 59018
AAXX 24184 64662 32960 30000 10280 20224 39572 40065 80002 333 10328 59008 83080
AAXX 24184 64665 32960 00000 10260 20224 3//// 4//// 333 10333 5////
BBXX PBEO 24183 99523 10035 41/97 /2512 10096 20054 40269 57015 70011 8//// 22213 06088 20402 30000 80075
AAXX 24184 65501 32960 70000 10270 21005 39804 40121 80002 333 10313 59009 87076
AAXX 24184 65502 32960 40000 10285 21022 39730 40109 80002 333 10320 59007 84076
AAXX 24184 65503 31956 30404 10276 20018 39766 40112 70600 80002 333 10325 59004 83076
AAXX 24184 65505 32960 50804 10300 20030 39765 40104 80002 333 10334 59004 85076
AAXX 24184 65507 32960 70404 10275 20056 39757 40107 80002 333 10327 59003 87076
AAXX 24184 65510 31956 50606 10292 20037 39588 40101 70622 80002 333 10324 59005 85076
AAXX 24184 65516 32965 60000 10297 20016 39792 40099 80002 333 10335 59008 86076
AAXX 24184 65518 32960 50000 10278 20040 39733 40096 80002 333 10330 59006 85076
AAXX 24184 65522 32960 70000 10307 20052 39765 40094 80002 333 10338 59008 87076
BBXX UBQE6 24181 99235 70175 41998 00408 10017 2//// 40230 58005 70122 80000 22254 00015 20301 39999 49999 59999
AAXX 24184 16294 12597 60000 10134 20091 39955 40147 57015 60002 86800 333 10164 83820 84630 555 0////
AAXX 24184 16560 12560 73015 10116 20035 30197 40203 52018 60002 86530 333 10156 86620 83356
AAXX 24181 12345 42559 40905 10286 20208 30140 40180 57021 84100 333 84830
AAXX 24181 78268 11560 31207 10288 20238 30171 40190 57021 60001 70110 83200 333 83820
AAXX 24181 06428 35963 /2104 10055 20030 30255 40305 58002 333 10078 85/58 87/60 91109 91205
AAXX 24181 15501 11940 80000 11014 21025 30186 40232 52018 60002 71022 80007 333 10023 21050 555 591//
AAXX 24181 15505 12968 00000 11044 21057 39832 40224 53002 60002 333 10034 21060 43010 555 591//
AAXX 24181 15511 12970 02304 11018 21044 30199 40240 53010 60002 333 10046 21021 41998 555 580//
AAXX 24181 15514 12968 00000 11010 21041 30184 40221 52010 60002 333 10022 21011 41997 555 577//
AAXX 24181 15530 11940 02901 11050 21064 39987 40238 53010 69912 71000 333 10020 21050 43011 555 590//
AAXX 24181 15533 12970 30000 11018 21023 30169 40202 52008 60002 80001 333 10009 21018 43003 555 596//
AAXX 24181 15550 12565 70000 11014 21036 30200 40220 52003 60002 87500 333 11010 21016 41997 555 583//
AAXX 24181 15561 12475 83206 11008 21055 30208 40216 52011 60002 885// 222// 00060 2//01 333 11005 21020 555 567// 92024 92428
AAXX 24181 15562 12481 83406 11014 21070 30148 40223 52008 60002 885// 222// 2//01 333 11010 21020 555 562// 92024 92428
AAXX 24181 15600 11989 23602 11090 21101 38272 48386 52003 60002 70200 82070 333 11090 21096 48012 555 592//
AAXX 24181 15601 12970 20000 11056 21078 39576 40228 53022 60002 82030 333 10014 21056 555 584//
AAXX 24181 15605 12966 03201 11093 21093 39350 40248 53012 60002 333 11004 21095 44008 555 598//
AAXX 24181 15613 11985 03406 11108 21128 37650 47975 52002 60002 70100 333 11098 21126 48045 555 587//
AAXX 24181 15628 12975 02902 11084 21103 39967 40242 53019 60002 333 10030 21084 43011 555 586//
AAXX 24181 15642 12680 60000 11036 21047 30044 40221 53010 69972 86500 333 11010 21036 555 592//
AAXX 24181 15661 12570 83605 10002 21056 30183 40220 52010 60002 885// 222// 20402 333 10002 21006 555 561// 92033 92438
AAXX 24181 15726 11975 03404 11112 21146 38207 48479 53012 60002 70100 333 11056 21137 48045 555 576//
BBXX SHIP 24184 99434 70538 41298 73420 10049 20005 40130 52005 76022 8676/ 22264 04090 20505 327// 41207 80030
AAXX 24181 76040 32960 03002 10149 21022 30291 40306 52012 91750 333 10178 20039 30/// 59015 98660
AAXX 24181 76113 32980 01701 10128 21040 39771 40256 52003 91745 333 10135 20002 30/// 58003
AAXX 24181 76122 32568 63601 10002 21003 38623 40337 5//// 85710 91750 333 10002 21030 31/// 56880 59083 85821
AAXX 24181 76225 01560 60701 10012 21020 38704 40306 51010 69901 70175 86500 91745 333 10012 21022 30/// 56600 58079 69907 86625
AAXX 24181 76256 32980 00306 10152 20008 30232 40246 5//// 91745 333 10162 20052 30/// 59016
AAXX 24181 76258 32970 03618 10168 21003 30157 40203 57005 91750 333 10170 20062 30/// 56000 59021
AAXX 24181 76305 32970 13404 10180 21014 30218 40226 52008 81010 91740 333 10185 20110 30/// 56040 59013 81460
AAXX 24181 76323 32570 83602 10017 21037 38321 40353 50011 885// 91755 333 10020 21015 30/// 561// 58069 88623
AAXX 24181 76342 01460 80201 10062 20042 39592 40339 52010 60021 75052 887// 91750 333 10074 20035 31/// 561// 58017 60017 88710
AAXX 24181 76382 32680 53404 10094 20017 38970 40282 52001 85070 91750 333 10100 20036 30/// 56030 58055 85356
AAXX 24181 76390 31530 42102 10061 20042 38251 40249 52010 74044 81605 91730 333 10070 21004 30/// 56105 58008 81720 83070
AAXX 24181 76393 01408 83201 10084 20056 39665 40268 52003 69991 70422 887// 91752 333 10088 20054 31/// 569// 58005 69917 88712
AAXX 24181 76402 31959 13101 10180 20044 30157 40216 52002 70544 80005 91740 333 10182 20048 30/// 56006 59002
AAXX 24181 76423 32780 70000 10136 21017 38161 40181 57002 84534 91801 333 10172 20040 30/// 56099 58001 84357 83067
AAXX 24181 76458 32970 33004 10180 20097 30167 40172 50003 80001 91738 333 10200 20093 30/// 56//9 59001 83072
AAXX 24181 76471 32980 62104 10155 21012 37700 40143 54000 80006 91750 333 10160 20059 30/// 56005 58007 86075
AAXX 24181 76491 32560 73602 10134 20108 39856 40259 52002 875// 91750 333 10138 20100 30/// 569// 58001 87625
AAXX 24181 76525 31960 21914 10122 21015 37483 40165 52003 73833 80001 91745 333 10124 20072 30/// 56//5 58004 82080 91114
AAXX 24181 76543 32675 83604 10204 20119 30202 40235 58001 8357/ 91745 333 10204 20170 30/// 5633/ 59001 83644 85358
AAXX 24181 76548 32475 70504 10180 20145 30223 40233 50003 8247/ 91740 333 10194 20164 30/// 56840 58001 82614 85357
AAXX 24181 76556 32970 01402 10266 20119 39123 40157 52001 91733 333 10268 20114 30/// 59005
AAXX 24181 76577 32970 72304 10188 20137 38069 40202 50001 80003 91740 333 10196 20077 30/// 56005 58001 87080
AAXX 24181 76581 32975 01202 10220 20135 39082 40193 59001 91750 333 10225 20136 30/// 59001
AAXX 24181 76585 32680 50901 10195 20159 30051 40209 58004 83270 91730 333 10210 20157 30/// 5623/ 59009 83833
AAXX 24181 76593 32370 30503 10274 20255 30192 40194 58011 82204 91750 333 10280 20210 30/// 561/9 58016 82820 810// 91006 91505
AAXX 24181 76612 32962 10701 10221 20077 38491 40216 5//// 80001 91750 333 10228 20075 30/// 56006 59004 81072
AAXX 24181 76625 32960 00302 10223 20055 38158 40164 57017 91755 333 10227 20082 30/// 59007
AAXX 24181 76634 31670 23001 10224 20040 37872 40192 57006 70500 81101 91750 333 10226 20050 30/// 563/3 59001 81834
AAXX 24181 76644 32460 71104 10287 20198 30174 40187 57018 84206 91750 333 10296 20210 30/// 563/9 58015 84820
AAXX 24181 76647 32670 50902 10300 20214 30168 40198 58011 84230 91750 333 10304 20195 31/// 562/0 58010 84835 81358
AAXX 24181 76654 31956 02202 10302 20201 30144 40148 57011 70544 91800 333 10302 20202 30/// 59014
AAXX 24181 76658 31958 20902 10290 20150 39646 40153 57010 70540 80002 91740 333 10295 20173 30/// 56001 58001 81070 98924
AAXX 24181 76662 32970 72101 10234 20115 38482 40187 57005 80007 91750 333 10245 20060 30/// 5600/ 58000 87070
AAXX 24181 76665 32962 02902 10236 20095 38142 40189 57009 91750 333 10270 20054 30/// 58001
AAXX 24181 76675 31975 21302 10182 21009 37399 40231 56004 70540 80004 91750 333 10190 21021 30/// 56//9 58003 98475
AAXX 24181 76681 31958 03602 10198 20061 37803 40198 57005 70500 91745 333 10198 20028 30/// 58///
AAXX 24181 76683 32670 10901 10202 20089 37850 40230 51011 81100 91745 333 10210 20040 30/// 56200 58000 81840
AAXX 24181 76685 32970 01501 10204 20032 37892 40181 57002 91750 333 10206 20074 30/// 58002
AAXX 24181 76687 31562 50701 10190 20148 38721 40214 57002 70111 85500 91737 333 10200 20135 30/// 563// 59001 85622
AAXX 24181 76692 31556 73605 10246 20192 30182 40201 50002 70544 875// 91745 333 10251 20222 30/// 562// 59001 87623
AAXX 24181 76695 32460 60902 10288 20231 30172 40178 57011 84201 91748 333 10290 20212 31/// 565/0 59016 84819 82078
AAXX 24181 76698 32560 40402 10292 20240 30175 40186 57013 84200 91750 333 10306 20199 30/// 56100 58014 84820
AAXX 24181 76737 31480 51601 10207 20157 38812 40198 58001 70322 82230 91735 333 10210 20148 30/// 56220 59001 82813 83358 91104 91514
AAXX 24181 76743 31457 60501 10281 20253 30165 40173 57010 70211 86200 91745 333 10307 20235 30/// 56100 58008 86811
AAXX 24181 76750 32560 50703 10302 20225 30171 40181 57011 83107 91745 333 10339 20218 30/// 56206 58013 83820
AAXX 24181 76773 31568 12101 10236 20150 38442 40172 57011 70544 81100 91748 333 10238 20060 30/// 56900 58003 81820
AAXX 24181 76805 32970 01001 10311 20222 30131 40134 53010 91735 333 10317 20210 30/// 58008
AAXX 24181 76833 32970 03610 10326 20101 30130 40132 57007 91745 333 10326 20262 30/// 58003 92002
AAXX 24181 76840 32550 20304 10320 20248 30077 40132 57010 82200 91740 333 10327 20182 30/// 56800 58005 82827
AAXX 24181 76845 32460 70501 10162 20132 37974 40187 58003 87700 91743 333 10172 20112 30/// 56200 58011 87712
AAXX 24181 76848 32670 40503 10215 20126 38406 40120 56007 83140 91750 333 10222 20144 30/// 56190 58011 83837 81360
AAXX 24181 76243 11371 83106 10064 20052 39992 40300 52007 60011 70255 887// 91735 333 10070 20042 31/// 561// 58005 88708
AAXX 24181 76311 32980 00000 10158 20030 39893 40185 56011 91755 333 10160 20007 30/// 59012
AAXX 24181 76405 32980 03509 10190 20083 30193 40215 52008 91750 333 10190 20150 30/// 59004
AAXX 24181 76412 31966 02401 10156 21009 30134 40180 52000 70544 91750 333 10160 20048 30/// 58008
AAXX 24181 76640 31358 80403 10206 20187 30223 40235 57001 70222 8472/ 91740 333 10218 20176 30/// 5679/ 59005 84708 84440
AAXX 24181 76656 32975 31601 10245 20046 38523 40188 58006 80008 91750 333 10252 20056 30/// 56005 59003 83280
AAXX 24181 76741 01250 83207 10232 20218 30141 40160 52003 60031 76062 86220 91735 333 10240 20198 32/// 567// 58007 60027 84805 82706 82457
AAXX 24181 76855 32980 02102 10310 20227 30072 40122 50002 91745 333 10320 20208 30/// 59005 92000
AAXX 24181 76040 32960 03002 10149 21022 30291 40306 52012 91750 33310178 20039 30/// 59015 98660
AAXX 24181 76113 32980 01701 10128 21040 39771 40256 52003 91745 33310135 20002 30/// 58003
AAXX 24181 76122 32568 63601 10002 21003 38623 40337 5//// 85710 91750333 10002 21030 31/// 56880 59083 85821
AAXX 24181 76225 01560 60701 10012 21020 38704 40306 51010 69901 7017586500 91745 333 10012 21022 30/// 56600 58079 69907 86625
AAXX 24181 76256 32980 00306 10152 20008 30232 40246 5//// 91745 33310162 20052 30/// 59016
AAXX 24181 76258 32970 03618 10168 21003 30157 40203 57005 91750 33310170 20062 30/// 56000 59021
AAXX 24181 76305 32970 13404 10180 21014 30218 40226 52008 81010 91740333 10185 20110 30/// 56040 59013 81460
AAXX 24181 76323 32570 83602 10017 21037 38321 40353 50011 885// 91755333 10020 21015 30/// 561// 58069 88623
AAXX 24181 76342 01460 80201 10062 20042 39592 40339 52010 60021 75052887// 91750 333 10074 20035 31/// 561// 58017 60017 88710
AAXX 24181 76382 32680 53404 10094 20017 38970 40282 52001 85070 91750333 10100 20036 30/// 56030 58055 85356
AAXX 24181 76390 31530 42102 10061 20042 38251 40249 52010 74044 8160591730 333 10070 21004 30/// 56105 58008 81720 83070
AAXX 24181 76393 01408 83201 10084 20056 39665 40268 52003 69991 70422887// 91752 333 10088 20054 31/// 569// 58005 69917 88712
AAXX 24181 76402 31959 13101 10180 20044 30157 40216 52002 70544 8000591740 333 10182 20048 30/// 56006 59002
AAXX 24181 76423 32780 70000 10136 21017 38161 40181 57002 84534 91801333 10172 20040 30/// 56099 58001 84357 83067
AAXX 24181 76458 32970 33004 10180 20097 30167 40172 50003 80001 91738333 10200 20093 30/// 56//9 59001 83072
AAXX 24181 76471 32980 62104 10155 21012 37700 40143 54000 80006 91750333 10160 20059 30/// 56005 58007 86075
AAXX 24181 76491 32560 73602 10134 20108 39856 40259 52002 875// 91750333 10138 20100 30/// 569// 58001 87625
AAXX 24181 76525 31960 21914 10122 21015 37483 40165 52003 73833 8000191745 333 10124 20072 30/// 56//5 58004 82080 91114
AAXX 24181 76543 32675 83604 10204 20119 30202 40235 58001 8357/ 91745333 10204 20170 30/// 5633/ 59001 83644 85358
AAXX 24181 76548 32475 70504 10180 20145 30223 40233 50003 8247/ 91740333 10194 20164 30/// 56840 58001 82614 85357
AAXX 24181 76556 32970 01402 10266 20119 39123 40157 52001 91733 33310268 20114 30/// 59005
AAXX 24181 76577 32970 72304 10188 20137 38069 40202 50001 80003 91740333 10196 20077 30/// 56005 58001 87080
AAXX 24181 76581 32975 01202 10220 20135 39082 40193 59001 91750 33310225 20136 30/// 59001
AAXX 24181 76585 32680 50901 10195 20159 30051 40209 58004 83270 91730333 10210 20157 30/// 5623/ 59009 83833
AAXX 24181 76593 32370 30503 10274 20255 30192 40194 58011 82204 91750333 10280 20210 30/// 561/9 58016 82820 810// 91006 91505
AAXX 24181 76612 32962 10701 10221 20077 38491 40216 5//// 80001 91750333 10228 20075 30/// 56006 59004 81072
AAXX 24181 76625 32960 00302 10223 20055 38158 40164 57017 91755 33310227 20082 30/// 59007
AAXX 24181 76634 31670 23001 10224 20040 37872 40192 57006 70500 8110191750 333 10226 20050 30/// 563/3 59001 81834
AAXX 24181 76644 32460 71104 10287 20198 30174 40187 57018 84206 91750333 10296 20210 30/// 563/9 58015 84820
AAXX 24181 76647 32670 50902 10300 20214 30168 40198 58011 84230 91750333 10304 20195 31/// 562/0 58010 84835 81358
AAXX 24181 76654 31956 02202 10302 20201 30144 40148 57011 70544 91800333 10302 20202 30/// 59014
AAXX 24181 76658 31958 20902 10290 20150 39646 40153 57010 70540 8000291740 333 10295 20173 30/// 56001 58001 81070 98924
AAXX 24181 76662 32970 72101 10234 20115 38482 40187 57005 80007 91750333 10245 20060 30/// 5600/ 58000 87070
AAXX 24181 76665 32962 02902 10236 20095 38142 40189 57009 91750 33310270 20054 30/// 58001
AAXX 24181 76675 31975 21302 10182 21009 37399 40231 56004 70540 8000491750 333 10190 21021 30/// 56//9 58003 98475
AAXX 24181 76681 31958 03602 10198 20061 37803 40198 57005 70500 91745333 10198 20028 30/// 58///
AAXX 24181 76683 32670 10901 10202 20089 37850 40230 51011 81100 91745333 10210 20040 30/// 56200 58000 81840
AAXX 24181 76685 32970 01501 10204 20032 37892 40181 57002 91750 33310206 20074 30/// 58002
AAXX 24181 76687 31562 50701 10190 20148 38721 40214 57002 70111 8550091737 333 10200 20135 30/// 563// 59001 85622
AAXX 24181 76692 31556 73605 10246 20192 30182 40201 50002 70544 875//91745 333 10251 20222 30/// 562// 59001 87623
AAXX 24181 76695 32460 60902 10288 20231 30172 40178 57011 84201 91748333 10290 20212 31/// 565/0 59016 84819 82078
AAXX 24181 76698 32560 40402 10292 20240 30175 40186 57013 84200 91750333 10306 20199 30/// 56100 58014 84820
AAXX 24181 76737 31480 51601 10207 20157 38812 40198 58001 70322 8223091735 333 10210 20148 30/// 56220 59001 82813 83358 9110491514
AAXX 24181 76743 31457 60501 10281 20253 30165 40173 57010 70211 8620091745 333 10307 20235 30/// 56100 58008 86811
AAXX 24181 76750 32560 50703 10302 20225 30171 40181 57011 83107 91745333 10339 20218 30/// 56206 58013 83820
AAXX 24181 76773 31568 12101 10236 20150 38442 40172 57011 70544 8110091748 333 10238 20060 30/// 56900 58003 81820
AAXX 24181 76805 32970 01001 10311 20222 30131 40134 53010 91735 33310317 20210 30/// 58008
AAXX 24181 76833 32970 03610 10326 20101 30130 40132 57007 91745 33310326 20262 30/// 58003 92002
AAXX 24181 76840 32550 20304 10320 20248 30077 40132 57010 82200 91740333 10327 20182 30/// 56800 58005 82827
AAXX 24181 76845 32460 70501 10162 20132 37974 40187 58003 87700 91743333 10172 20112 30/// 56200 58011 87712
AAXX 24181 76848 32670 40503 10215 20126 38406 40120 56007 83140 91750333 10222 20144 30/// 56190 58011 83837 81360
AAXX 24181 76243 11371 83106 10064 20052 39992 40300 52007 60011 70255887// 91735 333 10070 20042 31/// 561// 58005 88708
AAXX 24181 76311 32980 00000 10158 20030 39893 40185 56011 91755 33310160 20007 30/// 59012
AAXX 24181 76405 32980 03509 10190 20083 30193 40215 52008 91750 33310190 20150 30/// 59004
AAXX 24181 76412 31966 02401 10156 21009 30134 40180 52000 70544 91750333 10160 20048 30/// 58008
AAXX 24181 76640 31358 80403 10206 20187 30223 40235 57001 70222 8472/91740 333 10218 20176 30/// 5679/ 59005 84708 84440
AAXX 24181 76656 32975 31601 10245 20046 38523 40188 58006 80008 91750333 10252 20056 30/// 56005 59003 83280
AAXX 24181 76741 01250 83207 10232 20218 30141 40160 52003 60031 7606286220 91735 333 10240 20198 32/// 567// 58007 60027 8480582706 82457
AAXX 24181 76855 32980 02102 10310 20227 30072 40122 50002 91745 33310320 20208 30/// 59005 92000
AAXX 24181 76040 32960 03002 10149 21022 30291 40306 52012 91750 333 10178 20039 30/// 59015 98660
AAXX 24181 76113 32980 01701 10128 21040 39771 40256 52003 91745 333 10135 20002 30/// 58003
AAXX 24181 76122 32568 63601 10002 21003 38623 40337 5//// 85710 91750 333 10002 21030 31/// 56880 59083 85821
AAXX 24181 76225 01560 60701 10012 21020 38704 40306 51010 69901 70175 86500 91745 333 10012 21022 30/// 56600 58079 69907 86625
AAXX 24181 76256 32980 00306 10152 20008 30232 40246 5//// 91745 333 10162 20052 30/// 59016
AAXX 24181 76258 32970 03618 10168 21003 30157 40203 57005 91750 333 10170 20062 30/// 56000 59021
AAXX 24181 76305 32970 13404 10180 21014 30218 40226 52008 81010 91740 333 10185 20110 30/// 56040 59013 81460
AAXX 24181 76323 32570 83602 10017 21037 38321 40353 50011 885// 91755 333 10020 21015 30/// 561// 58069 88623
AAXX 24181 76342 01460 80201 10062 20042 39592 40339 52010 60021 75052 887// 91750 333 10074 20035 31/// 561// 58017 60017 88710
AAXX 24181 76382 32680 53404 10094 20017 38970 40282 52001 85070 91750 333 10100 20036 30/// 56030 58055 85356
AAXX 24181 76390 31530 42102 10061 20042 38251 40249 52010 74044 81605 91730 333 10070 21004 30/// 56105 58008 81720 83070
AAXX 24181 76393 01408 83201 10084 20056 39665 40268 52003 69991 70422 887// 91752 333 10088 20054 31/// 569// 58005 69917 88712
AAXX 24181 76402 31959 13101 10180 20044 30157 40216 52002 70544 80005 91740 333 10182 20048 30/// 56006 59002
AAXX 24181 76423 32780 70000 10136 21017 38161 40181 57002 84534 91801 333 10172 20040 30/// 56099 58001 84357 83067
AAXX 24181 76458 32970 33004 10180 20097 30167 40172 50003 80001 91738 333 10200 20093 30/// 56//9 59001 83072
AAXX 24181 76471 32980 62104 10155 21012 37700 40143 54000 80006 91750 333 10160 20059 30/// 56005 58007 86075
AAXX 24181 76491 32560 73602 10134 20108 39856 40259 52002 875// 91750 333 10138 20100 30/// 569// 58001 87625
AAXX 24181 76525 31960 21914 10122 21015 37483 40165 52003 73833 80001 91745 333 10124 20072 30/// 56//5 58004 82080 91114
AAXX 24181 76543 32675 83604 10204 20119 30202 40235 58001 8357/ 91745 333 10204 20170 30/// 5633/ 59001 83644 85358
AAXX 24181 76548 32475 70504 10180 20145 30223 40233 50003 8247/ 91740 333 10194 20164 30/// 56840 58001 82614 85357
AAXX 24181 76556 32970 01402 10266 20119 39123 40157 52001 91733 333 10268 20114 30/// 59005
AAXX 24181 76577 32970 72304 10188 20137 38069 40202 50001 80003 91740 333 10196 20077 30/// 56005 58001 87080
AAXX 24181 76581 32975 01202 10220 20135 39082 40193 59001 91750 333 10225 20136 30/// 59001
AAXX 24181 76585 32680 50901 10195 20159 30051 40209 58004 83270 91730 333 10210 20157 30/// 5623/ 59009 83833
AAXX 24181 76593 32370 30503 10274 20255 30192 40194 58011 82204 91750 333 10280 20210 30/// 561/9 58016 82820 810// 91006 91505
AAXX 24181 76612 32962 10701 10221 20077 38491 40216 5//// 80001 91750 333 10228 20075 30/// 56006 59004 81072
AAXX 24181 76625 32960 00302 10223 20055 38158 40164 57017 91755 333 10227 20082 30/// 59007
AAXX 24181 76634 31670 23001 10224 20040 37872 40192 57006 70500 81101 91750 333 10226 20050 30/// 563/3 59001 81834
AAXX 24181 76644 32460 71104 10287 20198 30174 40187 57018 84206 91750 333 10296 20210 30/// 563/9 58015 84820
AAXX 24181 76647 32670 50902 10300 20214 30168 40198 58011 84230 91750 333 10304 20195 31/// 562/0 58010 84835 81358
AAXX 24181 76654 31956 02202 10302 20201 30144 40148 57011 70544 91800 333 10302 20202 30/// 59014
AAXX 24181 76658 31958 20902 10290 20150 39646 40153 57010 70540 80002 91740 333 10295 20173 30/// 56001 58001 81070 98924
AAXX 24181 76662 32970 72101 10234 20115 38482 40187 57005 80007 91750 333 10245 20060 30/// 5600/ 58000 87070
AAXX 24181 76665 32962 02902 10236 20095 38142 40189 57009 91750 333 10270 20054 30/// 58001
AAXX 24181 76675 31975 21302 10182 21009 37399 40231 56004 70540 80004 91750 333 10190 21021 30/// 56//9 58003 98475
AAXX 24181 76681 31958 03602 10198 20061 37803 40198 57005 70500 91745 333 10198 20028 30/// 58///
AAXX 24181 76683 32670 10901 10202 20089 37850 40230 51011 81100 91745 333 10210 20040 30/// 56200 58000 81840
AAXX 24181 76685 32970 01501 10204 20032 37892 40181 57002 91750 333 10206 20074 30/// 58002
AAXX 24181 76687 31562 50701 10190 20148 38721 40214 57002 70111 85500 91737 333 10200 20135 30/// 563// 59001 85622
AAXX 24181 76692 31556 73605 10246 20192 30182 40201 50002 70544 875// 91745 333 10251 20222 30/// 562// 59001 87623
AAXX 24181 76695 32460 60902 10288 20231 30172 40178 57011 84201 91748 333 10290 20212 31/// 565/0 59016 84819 82078
AAXX 24181 76698 32560 40402 10292 20240 30175 40186 57013 84200 91750 333 10306 20199 30/// 56100 58014 84820
AAXX 24181 76737 31480 51601 10207 20157 38812 40198 58001 70322 82230 91735 333 10210 20148 30/// 56220 59001 82813 83358 91104 91514
AAXX 24181 76743 31457 60501 10281 20253 30165 40173 57010 70211 86200 91745 333 10307 20235 30/// 56100 58008 86811
AAXX 24181 76750 32560 50703 10302 20225 30171 40181 57011 83107 91745 333 10339 20218 30/// 56206 58013 83820
AAXX 24181 76773 31568 12101 10236 20150 38442 40172 57011 70544 81100 91748 333 10238 20060 30/// 56900 58003 81820
AAXX 24181 76805 32970 01001 10311 20222 30131 40134 53010 91735 333 10317 20210 30/// 58008
AAXX 24181 76833 32970 03610 10326 20101 30130 40132 57007 91745 333 10326 20262 30/// 58003 92002
AAXX 24181 76840 32550 20304 10320 20248 30077 40132 57010 82200 91740 333 10327 20182 30/// 56800 58005 82827
AAXX 24181 76845 32460 70501 10162 20132 37974 40187 58003 87700 91743 333 10172 20112 30/// 56200 58011 87712
AAXX 24181 76848 32670 40503 10215 20126 38406 40120 56007 83140 91750 333 10222 20144 30/// 56190 58011 83837 81360
AAXX 24181 76243 11371 83106 10064 20052 39992 40300 52007 60011 70255 887// 91735 333 10070 20042 31/// 561// 58005 88708
AAXX 24181 76311 32980 00000 10158 20030 39893 40185 56011 91755 333 10160 20007 30/// 59012
AAXX 24181 76405 32980 03509 10190 20083 30193 40215 52008 91750 333 10190 20150 30/// 59004
AAXX 24181 76412 31966 02401 10156 21009 30134 40180 52000 70544 91750 333 10160 20048 30/// 58008
AAXX 24181 76640 31358 80403 10206 20187 30223 40235 57001 70222 8472/ 91740 333 10218 20176 30/// 5679/ 59005 84708 84440
AAXX 24181 76656 32975 31601 10245 20046 38523 40188 58006 80008 91750 333 10252 20056 30/// 56005 59003 83280
AAXX 24181 76741 01250 83207 10232 20218 30141 40160 52003 60031 76062 86220 91735 333 10240 20198 32/// 567// 58007 60027 84805 82706 82457
AAXX 24181 76855 32980 02102 10310 20227 30072 40122 50002 91745 333 10320 20208 30/// 59005 92000
AAXX 24184 68029 41460 32603 10260 20197 48510 52025 71322 83983 333 10340
AAXX 24184 85041 42570 70000 10327 20249 39809 40071 57021 84231 333 56000 58000 84820 87070
AAXX 24184 85140 32470 33205 10340 20240 39882 40088 57018 83100 333 56700 58020 83817
AAXX 24184 85141 32484 43606 10336 20263 39851 40079 57021 84100 333 56700 58019 84817
AAXX 24184 85151 NIL
AAXX 24184 85152 32470 43610 10334 20233 39850 40079 57013 84200 333 56700 58020 84820
AAXX 24184 85201 11465 72303 10110 20052 36301 57011 60011 72996 85963 333 56777 58010 83817 82920 84357 87070 96015
AAXX 24184 85230 NIL
AAXX 24184 85242 31457 71210 10150 20036 36559 57015 71792 85922 333 56400 58018 82817 83920 87070
AAXX 24183 91554 31598 70000 10250 20243 40038 56003 70222 8327/ 333 5699/ 83820 87461
AAXX 24183 91554 31598 70000 10250 20243 40038 56003 70222 8327/ 333 5699/ 83820 87461
AAXX 24181 02464 45974 /2601 11019 21025 30079 40097 51017 8//// 333 10055 21020
AAXX 24181 02500 05/81 /2306 10050 21004 30071 40114 58002 60002 333 10055 20038 60005 90710 91109
AAXX 24181 02513 NIL
AAXX 24181 02615 05/69 /3010 10050 20030 30171 40175 52028 69962 333 10057 20043 60005 90710 91112
AAXX 24181 02635 05/64 /3004 10040 20022 60022 333 10057 20038 60005 90710 91108
AAXX 24181 02019 07/99 /2605 11047 21064 39283 49904 58006 60102 70087 333 10006 21053 60005 90710 91108
AAXX 24181 02081 05/99 /2603 11028 21049 39501 49903 51022 60002 333 10008 21032 60005 90710 91105
AAXX 24181 02095 05/99 /2202 11079 21091 39723 49929 52023 60002 333 10000 21079 60005 90710 91103
AAXX 24181 02101 47683 ///// 11032 21053 39406 49966 58014 724// 8//// 333 1//// 2//// 88/37
AAXX 24181 02119 05999 /3202 11102 21110 39560 49952 50011 60002 333 10010 21102 60005 90710 91103
AAXX 24181 02124 05999 /1702 11065 21128 39443 49973 50002 60002 333 11006 21084 60005 83/59 90710 91104
AAXX 24181 02126 05/99 /0601 11095 21103 39652 49997 50006 60002 333 10007 21101 60005 90710 91103
AAXX 24181 02151 35983 01802 11041 21058 39614 49951 51016 60002 333 10017 21057 60005 91004 90710 91106 90710 91204
AAXX 24181 02186 35983 02804 11002 21040 39934 49959 51022 60002 333 10016 21003 60005 91006 90710 91107 90710 91205
AAXX 24181 02197 07/62 /2402 10000 21010 39929 49948 53020 60002 70010 333 10020 21003 60005 90710 91104
AAXX 24181 02207 05999 /2106 11035 21094 39293 49995 58029 69932 333 11019 21054 60005 84/71 90710 91111
AAXX 24181 02219 07/68 /1102 11041 21054 39322 49992 58010 69982 70087 333 11022 21041 60005 90710 91105
AAXX 24181 02226 45984 /1705 11034 21083 39567 40026 58009 8//// 333 10000 21038
AAXX 24181 02243 07/61 /1001 11104 21111 39755 40031 50003 60002 70010 333 11032 21104 60005 90710 91102
AAXX 24181 02269 05/82 /2807 11001 21033 60002 333 10020 21002 60005 90710 91110
AAXX 24181 02287 05/78 /2606 10000 21027 39996 40006 52019 60002 333 10021 20000 60005 90710 91108
AAXX 24181 02297 05/99 /2805 11004 21031 39943 49989 51024 60002 333 10016 21004 60005 90710 91110
AAXX 24181 02308 05/99 /1901 11089 21118 39168 40047 58014 60002 333 11036 21091 60005 90710 91103
AAXX 24181 02327 05/99 /0901 11186 21202 39618 40073 58008 60002 333 11075 21191 60005 90710 91102
AAXX 24181 02355 05/99 /2706 11004 21063 30048 40060 50002 60002 333 10011 21007 60005 90710 91109
AAXX 24181 02366 45972 /3302 11077 21081 30044 40050 51004 8//// 333 11029 21090
AAXX 24181 02407 05/67 /2601 11099 21105 39711 40092 50000 60002 333 11030 21099 60005 90710 91102
AAXX 24181 02418 45984 /2103 11044 21052 39975 40110 50004 8//// 333 10010 21053
AAXX 24181 02435 45984 /2602 11038 21067 39898 40089 50003 8//// 333 10001 21053
AAXX 24181 02440 07/80 /3301 11085 21093 60002 70010 333 11001 21089 60005 90710 91102
AAXX 24181 02452 05/99 /2902 11020 21020 60002 333 10023 21022 60005 90710 91104
AAXX 24181 02456 05/64 /2001 11034 21038 30043 40087 51010 60002 333 10032 21034 60005 90710 91102
AAXX 24181 02469 05/83 /0000 11025 21036 69902 333 10053 21025 60005 90710 91103
AAXX 24181 02498 05/82 /3206 10025 21013 30067 40084 51020 69912 333 10051 20022 60005 90710 91111
AAXX 24181 02518 46/// /2807 10048 20028 333 10063 20048 90710 91109
AAXX 24181 02520 35984 02003 11015 21034 30064 40133 51012 60002 333 10032 21018 60005 91004 90710 91104 90710 91203
AAXX 24181 02550 45983 /1601 11020 21020 39857 40138 51022 8//// 333 10028 21024
AAXX 24181 02562 35984 02604 11003 21010 30004 40122 51020 60002 333 10041 21014 60005 91004 90710 91104 90710 91204
AAXX 24181 02563 05/99 /3104 10006 21001 30085 40108 52026 69922 333 10041 20006 60005 90710 91106
AAXX 24181 02565 07/60 /2501 11010 21013 30005 40127 51029 60012 70010 333 10040 21014 60005 90710 91102
AAXX 24181 02589 05/81 /3605 10024 20016 30066 40088 52027 69952 333 10057 20023 60005 90710 91109
AAXX 24181 02590 45484 /3404 10038 20020 30036 40098 51024 8//// 333 10050 20037 88/14
AAXX 24181 02618 07/64 /2703 10006 20000 39984 40152 52024 69912 70010 333 10042 20001 60005 90710 91105
AAXX 24181 02664 15981 03004 10016 20005 30065 40138 52026 60022 333 10064 20015 60005 91006 90710 91106 90710 91204
AAXX 24181 02679 07482 /3408 10037 20025 30059 40104 52024 69932 70086 333 10051 20037 60005 88/12 90710 91111
AAXX 24181 01400 41497 72214 10080 20062 40120 57021 76062 8772/ 22200 06081 10606 70030 333 91116
AAXX 24181 01300 41496 82319 10084 20038 49934 57012 76082 88/// 22200 02075 10811 70057 333 91123
AAXX 24184 65306 32960 50404 10270 20065 39778 40112 800020 333 10338 59004 85076
AAXX 24184 65319 32958 50000 10290 20113 39590 40104 80002 333 10357 59006 85076
AAXX 24184 65330 31920 50000 10304 20102 39652 40088 70522 80002 333 10356 59005 85076
AAXX 24184 65335 32958 53202 10320 20132 39860 40083 80002 333 10374 59004 85076
AAXX 24184 65344 32958 52006 10295 20259 30079 40090 81032 333 10320 59001 81363 85076
AAXX 24184 65351 32960 70402 10288 20116 3//// 4//// 80002 333 10330 5//// 87076
AAXX 24184 65355 32960 73604 10270 20097 39583 40097 80002 333 10335 59004 87073
AAXX 24184 65357 32960 70000 10307 20072 39711 40101 80002 333 10365 58010 87076
AAXX 24184 65380 32960 72204 10295 20223 3//// 4//// 80002 333 10370 5//// 87076
BBXX PHCQ 24183 99299 70902 41/// /0803 10128 20075 40267 58000 7//// 8//// 22200 00087 20000 3//// 4//// 5//// 80100
AAXX 24184 08055 12970 01802 10032 21006 39278 48617 51002 60002 333 10076 95000
AAXX 24181 14024 12498 83502 10014 21001 39108 48493 52025 69952 8457/ 333 10037 42016 92855 93100 95000
AAXX 24181 14106 11698 80000 10028 20014 30132 40202 52013 69912 70262 8117/ 333 10038 81843 95000
AAXX 24181 33088 32597 82104 11052 21069 30002 40202 57002 885// 333 11047
AAXX 24181 33177 11496 81703 11016 21030 39942 40187 53004 69952 75687 886// 333 11014 93401
AAXX 24181 33261 31495 80000 11065 21070 30041 40234 52004 71022 886// 333 11049 88710
AAXX 24181 33275 12397 83603 11058 21069 39991 40226 52005 69902 8565/ 333 11030 85707
AAXX 24181 33301 32597 81504 11055 21073 39908 40203 57001 8255/ 333 11034
AAXX 24181 33325 32997 00000 11074 21100 39944 40228 52002 333 11038
AAXX 24181 33377 31996 80101 11074 21083 30027 40232 52008 71011 8802/ 333 11042
AAXX 24181 33415 32497 81605 11057 21071 39798 40216 52003 886// 333 11050 88712
AAXX 24181 33429 32497 21703 11090 21110 39781 40231 52004 82500 333 11060
AAXX 24181 33466 11959 00000 11059 21070 30033 40231 52007 69902 71011 333 11011
AAXX 24181 33526 32560 81303 11037 21059 39854 40208 52004 885// 333 11022 88620
AAXX 24181 33562 32997 30000 11069 21102 39851 40233 53005 83030 333 11034
AAXX 24181 33614 11575 80402 11020 21083 30102 40211 53009 69902 70282 883// 333 11013 88920
AAXX 24181 33761 12598 80404 11032 21067 39989 40222 52005 69902 885// 333 11020 88628
AAXX 24181 33902 11597 80105 11015 21052 30123 40192 52009 69902 70282 883// 333 11011
AAXX 24181 33983 11297 83608 10011 21003 30066 40128 52011 60082 70272 886// 333 10016 88706
AAXX 24181 34415 11497 80504 11036 21061 30104 40204 52007 69902 70272 886// 333 11027
AAXX 24181 34523 NIL
AAXX 24181 34712 11496 80505 11006 21010 30063 40151 52011 60032 77177 8772/ 333 11006
AAXX 24181 91925 02581 31101 10284 20209 30069 40129 50008 60001 82202 333 56209 60007 82820 90710 91107 555 60005 10507 58000
AAXX 24181 91929 04564 /0914 10282 20233 30137 40140 51015 69902 700// 333 10282 20263 60007 90710 91120 555 60005
AAXX 24181 91938 01465 22106 10291 20221 30148 40150 51014 69922 715// 82800 333 10292 20238 60007 82816 90710 91110 555 60005 10710 58009
AAXX 24181 91943 36/// /1010 10284 20204 30144 40146 51016 333 10284 58008= 91944 06/// /1013 10276 20209 30163 40166 51013 69942 333 10276 20243 69927 90710 91122 555 60005
AAXX 24181 91948 01481 61112 10261 20197 30099 40201 50009 69941 70286 86800 333 56200 60007 85818 90710 91119 555 60005 11319 59001
AAXX 24181 91954 06/// /0616 10277 20226 30177 40180 51012 60001 333 60007 555 58012
AAXX 24181 91958 02582 20506 10256 20208 30209 40211 51007 60001 82200 333 56100 60007 82823 90710 91108 555 60005 10409 58005
AAXX 24181 91945 36/// /0814 10284 20222 30171 40176 51012
AAXX 24184 68014 36/// /0000 10219 20158 38587 48504 55000 333 10300 20217 91002 555 91018
AAXX 24184 68110 36/// /2309 10259 20028 38262 48476 53004 333 10343 20259 91014 555 91017
AAXX 24184 68300 36/// /1819 10153 20135 39978 40129 52008 333 10212 20153 91026 555 91012
AAXX 24184 68004 36/// /2504 10271 20031 38526 48481 52013 333 10339 20264 91007 555 91015
AAXX 24184 68006 36/// /2903 10279 20099 38891 48478 52007 333 10336 20279 91004 555 91012
AAXX 24184 68018 36/// /1203 10266 20191 38893 48504 52015 333 10311 20265 91004 555 91015
AAXX 24184 68098 32989 02213 10172 20121 30034 40141 53003 333 10223 20172 91017 555 91014
AAXX 24184 68102 36/// /2209 10270 20024 38722 48477 52015 333 10333 20270 91017 555 91013
AAXX 24184 68112 16/// /2008 10270 20061 38313 48491 53005 69922 333 10333 20265 91015 555 20002 91018
AAXX 24184 68116 16/// /0306 10280 20158 38549 48498 52012 69922 333 10323 20280 91010 555 20002 91017
AAXX 24184 68212 36/// /0000 10336 20018 38860 48491 52011 333 10396 20336 91002 555 91013
AAXX 24184 68312 36/// /2508 10349 20083 38899 48482 55000 333 10384 20349 91016 555 91011
AAXX 24183 NIL
AAXX 24184 94893 NIL
AAXX 24184 94907 46/// /0406 10177 20170 30060 40070
AAXX 24184 94910 46/// /2403 10177 20155 39844 40089
AAXX 24184 94926 46/// /0104 10118 20114 39449 40104
AAXX 24184 94935 46/// /3304 10184 20167 30058 40084
AAXX 24184 94954 46/// /1606 10156 20138 39985 40094
AAXX 24184 94956 46/// /0000 10148 20142 30070 40096
AAXX 24184 94975 NIL
AAXX 24184 94983 46/// /0000 10174 20174 30058 40083
AAXX 24184 94995 46/// /0926 10208 20165 30102 40110
AAXX 24184 94996 46/// /0823 10187 20165 39990 40118
AAXX 24184 94997 NIL
AAXX 24184 94998 46/// /2811 10070 20063 30055 40066
AAXX 24184 95111 46/// /0000 10253 20220 39978 40013
AAXX 24184 95205 46/// /1905 10295 20245 30019 40026
AAXX 24184 95322 NIL
AAXX 24184 95448 46/// /1311 10292 20108 39516 40064
AAXX 24184 95458 46/// /3408 10294 20041 39785 40038
AAXX 24184 95480 46/// /2003 10253 20050 39987 40045
AAXX 24184 95481 46/// /0207 10246 20073 39999 40043
AAXX 24184 95482 46/// /0405 10270 20069 39992 40046
AAXX 24184 95485 46/// /0209 10246 2//// 39851 40049
AAXX 24184 95492 46/// /0605 10247 20145 39909 40059
AAXX 24184 95527 46/// /1005 10181 20166 39834 40081
AAXX 24184 95634 46/// /1415 10162 20089 39740 40135
AAXX 24184 95637 46/// /1307 10144 20114 39839 40168
AAXX 24184 95646 46/// /1713 10179 20146 39929 40113
AAXX 24184 95666 NIL
AAXX 24184 95719 46/// /1308 10167 20151 39768 40091
AAXX 24184 95762 46/// /1708 10145 20122 39643 40090
AAXX 24184 95826 NIL
AAXX 24184 95839 46/// /0615 10205 20146 39881 40037
AAXX 24184 95864 NIL
AAXX 24184 95909 NIL
AAXX 24184 95954 NIL
AAXX 24184 95966 46/// /3403 10154 20138 39893 40091
AAXX 24184 96995 NIL
AAXX 24184 96996 45458 81115 10267 20247 30065 40069 58001
AAXX 24184 88963 11356 81415 11004 21028 39813 49843 56007 69901 76872 885// 333 56799 85708 88625 90010 90088 92406 94075 95015
AAXX 24184 88968 11465 83212 10003 21041 39854 49869 56016 69901 72052 886// 333 56599 83715 88625 90110 90911 92417 92734 92851 94072 95002
AAXX 24184 89034 32970 00000 10013 21034 39537 49847 56005 333 92417 92850
AAXX 24184 89053 11218 80911 10006 21004 39820 49834 57007 69911 75665 8572/ 333 56279 85705 88535 90025 90094 90268 90280 90966 92414 94076 94479 95096 96010 96466 97512 97615 98518
AAXX 24184 89055 32260 71613 11015 21032 39604 49846 56007 85776 333 56444 83704 85612 85270 95110
AAXX 24184 89066 32570 80000 10022 21021 39812 49821 56004 886// 333 56799 88730 92407 94070 95000
AAXX 24184 94500 NIL
AAXX 24184 94510 46/// /1305 10193 20168 39716 40054
AAXX 24184 94515 46/// /0000 10172 20159 39723 40063
AAXX 24184 94552 46/// /1605 10145 20135 39612 40068
AAXX 24184 94578 46/// /2106 10201 20185 30059 40070
AAXX 24184 94584 46/// /1530 10223 20181 39929 40037
AAXX 24184 94601 46/// /1024 10174 20117 30169 40186
AAXX 24184 94610 46/// /0919 10202 20100 30107 40130
AAXX 24184 94637 46/// /1312 10172 20111 39713 40131
AAXX 24184 94638 46/// /0703 10159 20124 30145 40177
AAXX 24184 94642 NIL
AAXX 24184 94643 NIL
AAXX 24184 94647 46/// /1810 10181 20147 30002 40121
AAXX 24184 94651 46/// /1813 10186 20158 30029 40105
AAXX 24184 94653 46/// /2013 10199 20169 30060 40078
AAXX 24184 94659 46/// /0310 10305 20035 39843 40033
AAXX 24184 94672 46/// /2502 10213 20194 30026 40036
AAXX 24184 94691 46/// /0107 10261 20086 39731 40049
AAXX 24184 94693 46/// /3506 10272 20099 39972 40032
AAXX 24184 94700 NIL
AAXX 24184 94703 46/// /0905 10202 20160 39945 40067
AAXX 24184 94710 46/// /0000 10194 20138 39825 40071
AAXX 24184 94729 46/// /1102 10116 20114 39264 40095
AAXX 24184 94750 46/// /3204 10155 20147 39981 40103
AAXX 24184 94767 46/// /3505 10201 20183 30106 40112
AAXX 24184 94776 46/// /0704 10177 20170 30099 40109
AAXX 24184 94791 NIL
AAXX 24184 94802 46/// /2302 10091 20085 30112 40194
AAXX 24184 94804 46/// /1920 10176 20158 30023 40060
AAXX 24184 94807 NIL
AAXX 24184 94821 46/// /1807 10158 20142 39970 40051
AAXX 24184 94842 46/// /1012 10164 20154 39976 40074
AAXX 24184 94847 NIL
AAXX 24184 94850 46/// /1411 10156 20153 30029 40074
AAXX 24184 94865 46/// /1204 10182 20170 30041 40065
AAXX 24184 94866 46/// /0213 10196 20154 39925 40063
AAXX 24184 94875 46/// /0410 10204 20141 39937 40070
AAXX 24184 94893 NIL
AAXX 24184 94907 46/// /0406 10177 20170 30060 40070
AAXX 24184 94910 46/// /2403 10177 20155 39844 40089
AAXX 24184 94926 46/// /0104 10118 20114 39449 40104
AAXX 24184 94935 46/// /3304 10184 20167 30058 40084
AAXX 24184 94954 46/// /1606 10156 20138 39985 40094
AAXX 24184 94956 46/// /0000 10148 20142 30070 40096
AAXX 24184 94975 NIL
AAXX 24184 94983 46/// /0000 10174 20174 30058 40083
AAXX 24184 94995 46/// /0926 10208 20165 30102 40110
AAXX 24184 94996 46/// /0823 10187 20165 39990 40118
AAXX 24184 94997 NIL
AAXX 24184 94998 46/// /2811 10070 20063 30055 40066
AAXX 24184 95111 46/// /0000 10253 20220 39978 40013
AAXX 24184 95205 46/// /1905 10295 20245 30019 40026
AAXX 24184 95322 NIL
AAXX 24184 95448 46/// /1311 10292 20108 39516 40064
AAXX 24184 95458 46/// /3408 10294 20041 39785 40038
AAXX 24184 95480 46/// /2003 10253 20050 39987 40045
AAXX 24184 95481 46/// /0207 10246 20073 39999 40043
AAXX 24184 95482 46/// /0405 10270 20069 39992 40046
AAXX 24184 95485 46/// /0209 10246 2//// 39851 40049
AAXX 24184 95492 46/// /0605 10247 20145 39909 40059
AAXX 24184 95527 46/// /1005 10181 20166 39834 40081
AAXX 24184 95634 46/// /1415 10162 20089 39740 40135
AAXX 24184 95637 46/// /1307 10144 20114 39839 40168
AAXX 24184 95646 46/// /1713 10179 20146 39929 40113
AAXX 24184 95666 NIL
AAXX 24184 95719 46/// /1308 10167 20151 39768 40091
AAXX 24184 95762 46/// /1708 10145 20122 39643 40090
AAXX 24184 95826 NIL
AAXX 24184 95839 46/// /0615 10205 20146 39881 40037
AAXX 24184 95864 NIL
AAXX 24184 95909 NIL
AAXX 24184 95954 NIL
AAXX 24184 95966 46/// /3403 10154 20138 39893 40091
AAXX 24184 96995 NIL
AAXX 24184 96996 45458 81115 10267 20247 30065 40069 58001
AAXX 24184 94299 46/// /1708 10262 20217 30030 40040
AAXX 24184 94300 46/// /1818 10246 20196 30055 40065
AAXX 24184 94302 46/// /2012 10257 20196 30035 40041
AAXX 24184 94312 46/// /2707 10275 20253 30028 40037
AAXX 24184 94313 NIL
AAXX 24184 94317 46/// /0408 10349 20100 39441 40007
AAXX 24184 94319 46/// /2710 10321 20164 39689 40009
AAXX 24184 94324 NIL
AAXX 24184 94326 46/// /3205 10203 20010 39442 40040
AAXX 24184 94327 46/// /0000 10222 20111 39673 40036
AAXX 24184 94332 46/// /0000 10196 20170 39651 40025
AAXX 24184 94333 NIL
AAXX 24184 94341 46/// /1107 10222 20087 39808 40036
AAXX 24184 94346 46/// /1507 10207 20133 39830 40044
AAXX 24184 94363 46/// /1205 10196 20189 39847 40059
AAXX 24184 94366 NIL
AAXX 24184 94367 46/// /2406 10225 20219 30011 40052
AAXX 24184 94374 46/// /3102 10196 20194 30042 40058
AAXX 24184 94388 46/// /1813 10232 20199 30037 40042
AAXX 24184 94393 46/// /2120 10256 39995 40007 55004
AAXX 24184 94394 46/// /1933 10223 39972 49980 53005
AAXX 24184 94403 46/// /1615 10207 20171 30065 40106
AAXX 24184 94429 46/// /1511 10284 20087 39624 40076
AAXX 24184 94430 46/// /1309 10307 20093 39483 40050
AAXX 24184 94449 46/// /1212 10223 20125 39578 40096
AAXX 24184 94451 NIL
AAXX 24184 94461 46/// /2003 10290 20040 39380 40030
AAXX 24184 94462 46/// /1703 10210 20124 39495 40034
AAXX 24184 94477 NIL
AAXX 24184 94488 NIL
AAXX 24184 89564 45/// /2305 11008 21036 39752 49772 53011
AAXX 24184 89570 46/// /0622 11085 21109 39135 51016
AAXX 24184 89571 45/// /0316 11006 21054 39772 49800 53019
AAXX 24184 89573 NIL
AAXX 24184 89610 NIL
AAXX 24184 89611 43/// /1310 10000 21048 39813 49865 51011
AAXX 24184 89614 NIL
AAXX 24184 89615 467// 81014 11048 21082 38975 51011
AAXX 24184 89807 NIL
AAXX 24184 89809 46/// /1110 11034 21048 39412 53010
AAXX 24184 41241 36/// /0000 10204 20098 30123 40161 333 0E023 10256 59018
AAXX 24184 41242 36/// /1908 10201 20122 30146 40170 333 0E018 10263 59019
AAXX 24184 41244 NIL
AAXX 24184 41246 32960 02203 10198 20118 30159 40164 333 10254 59016
AAXX 24184 41251 NIL
AAXX 24184 41252 36/// /3206 10169 20001 39791 40080 333 0E019 10253 59011
AAXX 24184 41253 36/// /0000 10167 20119 39795 40178 333 0E018 10258 59014
AAXX 24184 41254 36/// /2704 10114 21166 37967 47972 333 0E006 10186 58000
AAXX 24184 41255 36/// /1202 10163 20014 39631 40193 333 0E018 10260 59016
AAXX 24184 41256 32960 01902 10195 20132 30157 40167 333 10251 59019
AAXX 24184 41257 36/// /2902 10172 20113 39686 40175 333 0E016 10258 59020
AAXX 24184 41258 NIL
AAXX 24184 41259 36/// /2714 10100 21291 37138 40314 333 0E/// 10149 58001
AAXX 24184 41262 NIL
AAXX 24184 41263 NIL
AAXX 24184 41264 36/70 /2407 10166 21011 39783 40158 333 0E019 10249 59016
AAXX 24184 41265 36/// /1502 10178 20038 39625 40178 333 0E019 10260 59018
AAXX 24184 41267 35/// /2804 10197 20107 30151 40166 333 0E019 10240 59019
AAXX 24184 41268 36/// /1901 10181 20109 30149 48010 333 0E020 10266 59018
AAXX 24184 41270 36/70 /3303 10194 20104 30110 40122 333 0E019 10238 59020
AAXX 24184 41275 NIL
AAXX 24184 41287 NIL
AAXX 24184 41288 NIL
AAXX 24184 41290 NIL
AAXX 24184 41295 NIL
AAXX 24184 41304 NIL
AAXX 24184 41312 36/// /2802 10212 20133 30122 40161 333 0E/// 10258 59007
AAXX 24184 41314 32960 00805 10174 20040 39672 40184 333 10240 59006
AAXX 24184 41315 36/// /3610 10154 20032 39173 42812 333 0E/// 10211 59007
AAXX 24184 41316 32960 09904 10206 20118 30137 40164 333 10277 59006
BBXX VRAE3 24184 99023 31417 41697 33509 10290 20260 40056 51007 70303 8313/ 22234 00310 2//// 3//// 4//// 5//// 80270
BBXX PCAM 24183 99348 31645 41598 70914 10189 20142 40188 56013 70211 874// 22273 20503 307// 40804 80160
BBXX 3ECI3 24184 99412 31748 41397 22202 10140 20122 40239 54000 70200 82101 22200 00160 20000 30000 80130
BBXX ZCBU6 24184 99412 31648 41498 40415 10167 20137 40219 56003 70222 83100 22274 00185 2//// 3//// 4//// 5//// 80150
BBXX VNSZ 24174 99402 31458 46/// /1219 10173 20166 30058 40084 57013 22236 04177 85169
BBXX VNSZ 24164 99398 31456 46/// /1519 10173 20165 30066 40092 52005 22236 85168
BBXX 9HA2479 24164 99221 31675 46/// /0821 10240 20227 30011 40040 57021 22254 04253 85231
BBXX C6FS9 24164 99392 31459 46/// /0610 10176 20169 30051 40087 57014 22263 04182 85171
BBXX VROB 24164 99363 31503 46/// /3617 10206 20189 30075 40100 57013 22213 04210 85195
BBXX 9HA2479 24174 99223 31673 46/// /0733 10239 20227 39997 40026 57028 22254 85231
BBXX VROB 24174 99361 31504 46/// /0216 10203 20186 30069 40094 57017 22283 04210 85192
BBXX C6FS9 24174 99391 31455 46/// /1907 10177 20168 30053 40089 57008 22263 04180 85171
BBXX VNSZ 24184 99406 31461 46/// /1215 10177 20169 30065 40091 52011 22236 85172
BBXX C6FS9 24184 99391 31452 46/// /0907 10183 20169 30047 40083 57015 22263 04179 85174
BBXX 9HA2479 24184 99223 31672 46/// /0640 10233 20226 39989 40018 57023 22222 04257 85228
BBXX VRWW8 24184 99381 31782 41697 72113 10150 20116 40239 55004 76000 8//// 22283 00180 2//// 3//// 4//// 5//// 80130
BBXX VMAL 24183 99374 31332 41/98 71419 10160 20137 40135 57015 70222 87/// 22223 20204 80147
BBXX C6HS4 24183 99117 30824 41697 51706 10280 20253 40080 5/010 76066 84566 22273 20302 80260
AAXX 24184 91375 NIL
AAXX 24184 91519 NIL
AAXX 24184 91531 NIL
AAXX 24184 91532 45/// /0610 10274 20234 30044 40052 52003
AAXX 24184 91559 NIL
AAXX 24184 91611 NIL
AAXX 24184 91642 NIL
AAXX 24184 91679 NIL
AAXX 24184 91689 NIL
AAXX 24184 91756 NIL
AAXX 24184 91844 NIL
AAXX 24184 92036 NIL
AAXX 24184 93713 NIL
AAXX 24184 94500 NIL
AAXX 24184 94510 46/// /1305 10193 20168 39716 40054
AAXX 24184 94515 46/// /0000 10172 20159 39723 40063
AAXX 24184 94552 46/// /1605 10145 20135 39612 40068
AAXX 24184 94578 46/// /2106 10201 20185 30059 40070
AAXX 24184 94584 46/// /1530 10223 20181 39929 40037
AAXX 24184 94601 46/// /1024 10174 20117 30169 40186
AAXX 24184 94610 46/// /0919 10202 20100 30107 40130
AAXX 24184 94637 46/// /1312 10172 20111 39713 40131
AAXX 24184 94638 46/// /0703 10159 20124 30145 40177
AAXX 24184 94642 NIL
AAXX 24184 94643 NIL
AAXX 24184 94647 46/// /1810 10181 20147 30002 40121
AAXX 24184 94651 46/// /1813 10186 20158 30029 40105
AAXX 24184 94653 46/// /2013 10199 20169 30060 40078
AAXX 24184 94659 46/// /0310 10305 20035 39843 40033
AAXX 24184 94672 46/// /2502 10213 20194 30026 40036
AAXX 24184 94691 46/// /0107 10261 20086 39731 40049
AAXX 24184 94693 46/// /3506 10272 20099 39972 40032
AAXX 24184 94700 NIL
AAXX 24184 94703 46/// /0905 10202 20160 39945 40067
AAXX 24184 94710 46/// /0000 10194 20138 39825 40071
AAXX 24184 94729 46/// /1102 10116 20114 39264 40095
AAXX 24184 94750 46/// /3204 10155 20147 39981 40103
AAXX 24184 94767 46/// /3505 10201 20183 30106 40112
AAXX 24184 94776 46/// /0704 10177 20170 30099 40109
AAXX 24184 94791 NIL
AAXX 24184 94802 46/// /2302 10091 20085 30112 40194
AAXX 24184 94804 46/// /1920 10176 20158 30023 40060
AAXX 24184 94807 NIL
AAXX 24184 94821 46/// /1807 10158 20142 39970 40051
AAXX 24184 94842 46/// /1012 10164 20154 39976 40074
AAXX 24184 94847 NIL
AAXX 24184 94850 46/// /1411 10156 20153 30029 40074
AAXX 24184 94865 46/// /1204 10182 20170 30041 40065
AAXX 24184 94866 46/// /0213 10196 20154 39925 40063
AAXX 24184 94875 46/// /0410 10204 20141 39937 40070
BBXX UCKZ 24181 99683 30761 42598 70706 11007 21046 49784 52007 87500 22243 00015 20301 ICE 27290
BBXX FHZI 24164 99666 31400 46/// /2904 11015 21029 39934 49945 54000 22200 05017 86020
BBXX FHZI 24174 99666 31400 46/// /1806 11054 21107 39934 49945 54000 22200 05018 86069
AAXX 24184 89564 45/// /2305 11008 21036 39752 49772 53011
AAXX 24184 89570 46/// /0622 11085 21109 39135 51016
AAXX 24184 89571 45/// /0316 11006 21054 39772 49800 53019
AAXX 24184 89573 NIL
AAXX 24184 89610 NIL
AAXX 24184 89611 43/// /1310 10000 21048 39813 49865 51011
AAXX 24184 89614 NIL
AAXX 24184 89615 467// 81014 11048 21082 38975 51011
AAXX 24184 89807 NIL
AAXX 24184 89809 46/// /1110 11034 21048 39412 53010
AAXX 24184 94310 46/// /2523 10283 20262 30019 40030 57011
AAXX 24184 95283 46/// /2804 10246 20236 30039 40046
AAXX 24184 95288 46/// /0000 10276 30026 40041 56008
AAXX 24184 95675 46/// /2008
AAXX 24184 95872 46/// /0710
AAXX 24184 95961 35/// /2002 10156 30054 40095 57007
AAXX 24183 91502 31470 10000 10245 20232 40035 56012 71300 81302 333 56900 81814 81915
AAXX 24183 91507 31475 30503 10239 20225 40037 56011 70510 82836 333 56999 81814 83280
AAXX 24183 91520 31475 40000 10240 20225 40040 55010 70511 81231 333 56999 81815
AAXX 24183 91541 NIL
AAXX 24184 94102 46/// /2516 10298 20284 30021 40030
AAXX 24184 94103 NIL
AAXX 24184 94120 46/// /1706 10265 20240 39956 49996
AAXX 24184 94122 46/// /1603 10251 20233 39991 49999
AAXX 24184 94131 46/// /1005 10262 20227 39858 40008
AAXX 24184 94132 NIL
AAXX 24184 94147 NIL
AAXX 24184 94150 46/// /0907 10253 20241 39954 40013
AAXX 24184 94151 46/// /0510 10264 20233 39995 4////
AAXX 24184 94170 46/// /1304 10237 20232 30015 40037
AAXX 24184 94200 NIL
AAXX 24184 94203 46/// /2406 10295 20269 30020 40030
AAXX 24184 94206 46/// /0000 10274 2//// 39892 40019
AAXX 24184 94207 46/// /2716 10293 30022 40030 55004
AAXX 24184 94211 NIL
AAXX 24184 94212 46/// /1001 10252 20192 39561 40021
AAXX 24184 94216 46/// /0000 10263 20220 39970 40020
AAXX 24184 94236 NIL
AAXX 24184 94238 46/// /1004 10260 20148 39605 40017
AAXX 24184 94248 NIL
AAXX 24184 94255 46/// /0904 10249 20190 39769 40024
AAXX 24184 94268 46/// /0000 10252 20242 30019 40031
AAXX 24184 94287 46/// /0000 10242 20232 30039 40048
AAXX 24184 94290 NIL
AAXX 24184 94294 46/// /0508 10268 20230 30041 40051
AAXX 24184 94296 NIL
AAXX 24184 94298 46/// /1915 10263 30020 40026 56008
AAXX 24184 95641 NIL
BBXX VRAE3 24184 99023 31417 41697 33509 10290 20260 40056 51007 70303 8313/ 22234 00310 2//// 3//// 4//// 5//// 80270
BBXX PCAM 24183 99348 31645 41598 70914 10189 20142 40188 56013 70211 874// 22273 20503 307// 40804 80160
BBXX 3ECI3 24184 99412 31748 41397 22202 10140 20122 40239 54000 70200 82101 22200 00160 20000 30000 80130
BBXX ZCBU6 24184 99412 31648 41498 40415 10167 20137 40219 56003 70222 83100 22274 00185 2//// 3//// 4//// 5//// 80150
BBXX VNSZ 24174 99402 31458 46/// /1219 10173 20166 30058 40084 57013 22236 04177 85169
BBXX VNSZ 24164 99398 31456 46/// /1519 10173 20165 30066 40092 52005 22236 85168
BBXX 9HA2479 24164 99221 31675 46/// /0821 10240 20227 30011 40040 57021 22254 04253 85231
BBXX C6FS9 24164 99392 31459 46/// /0610 10176 20169 30051 40087 57014 22263 04182 85171
BBXX VROB 24164 99363 31503 46/// /3617 10206 20189 30075 40100 57013 22213 04210 85195
BBXX 9HA2479 24174 99223 31673 46/// /0733 10239 20227 39997 40026 57028 22254 85231
BBXX VROB 24174 99361 31504 46/// /0216 10203 20186 30069 40094 57017 22283 04210 85192
BBXX C6FS9 24174 99391 31455 46/// /1907 10177 20168 30053 40089 57008 22263 04180 85171
BBXX VNSZ 24184 99406 31461 46/// /1215 10177 20169 30065 40091 52011 22236 85172
BBXX C6FS9 24184 99391 31452 46/// /0907 10183 20169 30047 40083 57015 22263 04179 85174
BBXX 9HA2479 24184 99223 31672 46/// /0640 10233 20226 39989 40018 57023 22222 04257 85228
BBXX VRWW8 24184 99381 31782 41697 72113 10150 20116 40239 55004 76000 8//// 22283 00180 2//// 3//// 4//// 5//// 80130
BBXX VMAL 24183 99374 31332 41/98 71419 10160 20137 40135 57015 70222 87/// 22223 20204 80147
BBXX C6HS4 24183 99117 30824 41697 51706 10280 20253 40080 5/010 76066 84566 22273 20302 80260
AAXX 24184 94102 46/// /2516 10298 20284 30021 40030
AAXX 24184 94103 NIL
AAXX 24184 94120 46/// /1706 10265 20240 39956 49996
AAXX 24184 94122 46/// /1603 10251 20233 39991 49999
AAXX 24184 94131 46/// /1005 10262 20227 39858 40008
AAXX 24184 94132 NIL
AAXX 24184 94147 NIL
AAXX 24184 94150 46/// /0907 10253 20241 39954 40013
AAXX 24184 94151 46/// /0510 10264 20233 39995 4////
AAXX 24184 94170 46/// /1304 10237 20232 30015 40037
AAXX 24184 94200 NIL
AAXX 24184 94203 46/// /2406 10295 20269 30020 40030
AAXX 24184 94206 46/// /0000 10274 2//// 39892 40019
AAXX 24184 94207 46/// /2716 10293 30022 40030 55004
AAXX 24184 94211 NIL
AAXX 24184 94212 46/// /1001 10252 20192 39561 40021
AAXX 24184 94216 46/// /0000 10263 20220 39970 40020
AAXX 24184 94236 NIL
AAXX 24184 94238 46/// /1004 10260 20148 39605 40017
AAXX 24184 94248 NIL
AAXX 24184 94255 46/// /0904 10249 20190 39769 40024
AAXX 24184 94268 46/// /0000 10252 20242 30019 40031
AAXX 24184 94287 46/// /0000 10242 20232 30039 40048
AAXX 24184 94290 NIL
AAXX 24184 94294 46/// /0508 10268 20230 30041 40051
AAXX 24184 94296 NIL
AAXX 24184 94298 46/// /1915 10263 30020 40026 56008
AAXX 24184 95641 NIL
AAXX 24184 94299 46/// /1708 10262 20217 30030 40040
AAXX 24184 94300 46/// /1818 10246 20196 30055 40065
AAXX 24184 94302 46/// /2012 10257 20196 30035 40041
AAXX 24184 94312 46/// /2707 10275 20253 30028 40037
AAXX 24184 94313 NIL
AAXX 24184 94317 46/// /0408 10349 20100 39441 40007
AAXX 24184 94319 46/// /2710 10321 20164 39689 40009
AAXX 24184 94324 NIL
AAXX 24184 94326 46/// /3205 10203 20010 39442 40040
AAXX 24184 94327 46/// /0000 10222 20111 39673 40036
AAXX 24184 94332 46/// /0000 10196 20170 39651 40025
AAXX 24184 94333 NIL
AAXX 24184 94341 46/// /1107 10222 20087 39808 40036
AAXX 24184 94346 46/// /1507 10207 20133 39830 40044
AAXX 24184 94363 46/// /1205 10196 20189 39847 40059
AAXX 24184 94366 NIL
AAXX 24184 94367 46/// /2406 10225 20219 30011 40052
AAXX 24184 94374 46/// /3102 10196 20194 30042 40058
AAXX 24184 94388 46/// /1813 10232 20199 30037 40042
AAXX 24184 94393 46/// /2120 10256 39995 40007 55004
AAXX 24184 94394 46/// /1933 10223 39972 49980 53005
AAXX 24184 94403 46/// /1615 10207 20171 30065 40106
AAXX 24184 94429 46/// /1511 10284 20087 39624 40076
AAXX 24184 94430 46/// /1309 10307 20093 39483 40050
AAXX 24184 94449 46/// /1212 10223 20125 39578 40096
AAXX 24184 94451 NIL
AAXX 24184 94461 46/// /2003 10290 20040 39380 40030
AAXX 24184 94462 46/// /1703 10210 20124 39495 40034
AAXX 24184 94477 NIL
AAXX 24184 94488 NIL
AAXX 24184 40356 42960 03008 10070 20000 39168 48464 333 10140 58000 55089 555 04410 50155
AAXX 24184 40357 42960 02508 10109 20020 39506 40149 333 10210 59004 55///
AAXX 24184 40360 42960 02708 10100 20010 39558 40157 333 10182 58007 55086
AAXX 24184 40361 42960 03403 10117 21040 39375 40147 333 10196 58002 55///
AAXX 24184 40362 42960 03002 10141 20000 39617 40130 333 10238 59009 55///
AAXX 24184 40373 42960 01507 10188 20000 39716 40131 333 10298 59014 55///
AAXX 24184 40375 42960 01910 10144 20000 39270 40151 333 10220 58011 55090
AAXX 24184 40377 42960 03207 10173 20100 39660 40139 333 10278 59010 55///
AAXX 24184 40394 42960 01403 10144 20050 39018 48499 333 10236 59005 55095 555 04410 50136
AAXX 24184 40400 42960 00104 10184 20120 30137 40165 333 10250 58016 55095
AAXX 24184 40401 42960 02108 10194 20020 39449 40139 333 10250 58000 55///
AAXX 24184 40405 42960 01506 10190 20130 39396 40129 333 10263 59013 55///
AAXX 24184 40416 42960 01205 10155 20110 30127 40147 333 10240 59021 55///
AAXX 24184 40417 42960 01409 10151 20090 30142 40157 333 10251 59024 55///
AAXX 24184 40420 42960 01905 10146 20060 39950 40159 333 10250 59023 55///
AAXX 24184 40430 42960 02407 10234 20110 39420 40131 333 10280 59004 55078
AAXX 24184 40435 NIL
AAXX 24184 40437 42960 00000 10177 20050 39458 40157 333 10280 59015 55095
AAXX 24184 40439 42960 02804 10233 20180 30129 40139 333 10274 58003 55090
AAXX 24184 41024 42960 00208 10250 20190 30120 40139 333 10320 59001 55085
AAXX 24184 41030 42960 10000 10260 20190 39861 40131 81030 333 10350 58000 55/// 81360
AAXX 24184 41036 42960 02806 10184 20130 38577 48527 333 10254 59001 55095 555 04410 50133
AAXX 24184 41055 42960 01004 10190 20080 38377 48524 333 10250 58000 55095 555 04410 50138
AAXX 24184 41061 42960 01107 10175 20070 39452 40159 333 10252 59005 55101
AAXX 24184 41084 42960 00000 10179 20020 38873 48527 333 10288 59003 55100 555 04410 50140
AAXX 24184 41112 42960 00000 10146 20130 37963 48529 333 10227 58002 55092 555 04410 50163
AAXX 24184 41114 42960 02404 10150 20130 37995 48528 333 10260 58003 55090 555 04410 50167
AAXX 24184 41128 42960 00000 10150 21010 38834 48537 333 10278 58004 55085 555 04410 50171
AAXX 24184 41136 42960 00604 10181 20010 39342 40157 333 10270 59001 55095
AAXX 24184 41140 42960 00000 10272 20210 30127 40133 333 10314 59001 55///
AAXX 24181 38141 32598 80000 11047 21104 39962 40125 58001 885// 333 11043
AAXX 24181 38149 42998 80000 11033 21084 30042 40120 54000 333 10044
AAXX 24181 38178 429// 31603 11021 21143 39845 40138 58007 83070 333 10029
AAXX 24181 38262 326// 81802 11027 21088 30037 40121 52004 885// 333 10034
AAXX 24181 38264 41596 72502 10018 21081 30033 40127 52006 70511 875// 333 10039 87629
AAXX 24181 38396 42596 72103 10030 21089 30007 40132 52003 875// 333 10045 88630
AAXX 24181 38403 429// 00000 11039 21121 39995 40119 57002 333 10039
AAXX 24181 38413 429// 00000 11018 21071 39833 40132 57004 333 10015
AAXX 24181 38457 32597 80601 10062 21078 39566 40151 57004 8655/ 333 11093
AAXX 24181 38462 NIL
AAXX 24181 38565 329// 01808 10101 21090 39553 40125 58015 333 10162
AAXX 24181 38579 325// 80000 10033 21058 39736 40157 52002 8397/ 333 10075
AAXX 24181 38583 32697 81801 10020 21041 39840 40166 58002 83541 333 10045
AAXX 24181 38611 42997 73502 11008 21036 39639 40226 52001 80001 333 10038
AAXX 24181 38618 329// 70000 11010 21042 39497 40204 57005 82031 333 10049
AAXX 24181 38683 41996 81102 10027 21090 39872 40152 54000 70522 86031 333 10112
AAXX 24181 38696 329// 60000 10027 21039 39308 40172 54000 86050 333 10117
AAXX 24181 38812 42997 60000 10044 21045 39703 40159 52004 83031 333 10150
AAXX 24181 38927 31957 70901 10018 20033 39810 40195 58002 70522 87050 333 10138
BBXX 2ALD3 24183 99075 11356 41697 60610 10260 20246 40048 54000 78000 85796 22234 04290 20101 80250
AAXX 24181 37395 31697 83004 10106 20077 39983 40122 52033 78082 8592/ 333 10166
AAXX 24181 37409 32591 82702 10010 21012 38704 48429 52014 886// 333 10014 95090
AAXX 24181 37432 32697 60000 10024 21006 38900 48442 52011 86500 333 10046
AAXX 24181 37514 32696 80000 10022 21015 38968 40128 52014 88500 333 10070
AAXX 24181 37545 325// 80000 10030 20025 39605 40123 52008 8802/ 333 10065
AAXX 24181 37621 325// 80000 10045 21003 39482 40124 52008 885// 333 10110
AAXX 24181 37484 NIL
AAXX 24181 34523 11496 80604 11018 21032 30104 40183 51007 60012 77172 8772/ 333 11012
AAXX 24184 40550 37/50 /1904 10162 20138 40138 53009 71010 333 55300 00000 10229 20000 30000 41150 51379 60000 55407 40000 90069 90401 91011 91119 91207 91305
AAXX 24184 40551 36/// /1312 10164 20065 333 90400 91019 91121 91211 91307
AAXX 24184 40552 35/68 /1412 10156 20068 40137 51010 333 55300 90069 90400 91013 91123 91219 91315
AAXX 24184 40553 37/50 /1614 10159 20142 40135 51005 71011 333 55300 90069 90401 91019 91127 91223 91319
AAXX 24184 40568 36/// /1315 10166 20151 333 90400 91017 91117 91215 91311
AAXX 24184 40569 NIL
AAXX 24184 40570 35/70 /1605 10167 20027 40136 51018 333 55300 90069 90401 91011 91121 91211 91307
AAXX 24184 40571 NIL
AAXX 24184 40572 NIL
AAXX 24184 40573 36/// /1704 10160 20049 333 90401 91015 91125 91221 91313
AAXX 24184 40580 36/// /1406 10185 20087 333 553// 00000 10262 20000 30000 41141 51403 60000 55407 40000 90400 91017 91117 91207 91305
AAXX 24184 40581 36/// /1805 10186 20122 333 90400 91015 91117 91205 91305
AAXX 24184 40582 32960 01612 10175 20072 40139 51006 333 55300 00000 10244 20000 30000 41158 51402 60000 55407 40000 90401 91017 91117 91213 91311
AAXX 24184 40583 NIL
AAXX 24184 40585 36/// /1714 10172 20150 222// 1//// 3//// 4//// 70/// 333 90400 91019 91125 91221 91315
AAXX 24184 40586 36/// /1203 10162 20080 333 90400 91007 91119 91213 91307
AAXX 24184 40587 36/// /1508 10160 20083 333 553// 00000 10210 20000 30000 41143 51353 60000 55407 40000 90400 91015 91121 91211 91307
AAXX 24184 40588 37/30 /1210 10173 20148 40141 50003 71011 333 55300 90069 90400 91015 91117 91213 91309
AAXX 24184 40589 NIL
AAXX 24184 40590 46/// /1616 10171 20064 333 90400 91019 91123 91217 91315
AAXX 24184 40591 NIL
AAXX 24184 40592 37/58 /1509 10160 20106 40143 50005 71010 333 55300 00000 10224 20000 30000 41150 51374 60000 55407 40000 90069 90400 91013 91115 91209 91307
AAXX 24184 40593 36/// /1711 10174 20149 333 90401 91013 91117 91215 91313
AAXX 24184 40594 36/// /1507 10173 20123 333 90400 91013 91113 91205 91303
AAXX 24184 40596 46/// /1416 10204 20159 333 90401 91019 91119 91215 91313
AAXX 24184 41923 31/10 90000 10140 20130 30120 40130 7432/ 89/// 333 56999 59005 70000
AAXX 24184 41936 31910 00000 10124 20120 40131 70500 333 59009 70000
AAXX 24184 41943 31930 00000 10136 20130 30128 40136 70500 333 59004 70000
AAXX 24184 41950 31/05 90000 10120 20120 30128 40131 74544 89/// 333 56999 59002 70000
AAXX 24184 41992 31906 90000 10158 20155 30105 40107 74144 89/// 333 56999 59015 70000
BBXX PFBF 24184 99124 31683 41397 53011 10280 20267 40050 51005 70311 8447/ 22233 02282 20104 312// 40204 5//// 80270
BBXX A8IP3 24183 99457 70268 41296 82125 10150 20142 40268 53003 74144 887// 22214 04140 20606 327// 41105 80145
BBXX PHIN 24184 99463 70298 41296 82136 10168 20142 40196 58045 70362 887// 22263 00140 20510 80152
BBXX MGGK4 24180 99414 70111 41598 30317 10135 20072 40340 52008 70211 8/5// 22284 00158 2//// 3//// 4//// 5//// 80104
BBXX PCAW 24183 99359 10297 41/98 /3030 10144 20084 40090 53008 70392 8//// 22263 00148 20305 80111 90743
AAXX 24181 50468 NIL
AAXX 24181 50953 NIL
AAXX 24181 51076 NIL
AAXX 24181 51243 NIL
AAXX 24181 51288 32980 02001 11126 21216 38343 57009 333 05601 11044
AAXX 24181 51463 NIL
AAXX 24181 51573 NIL
AAXX 24181 51709 NIL
AAXX 24181 52533 NIL
AAXX 24181 52652 NIL
AAXX 24181 52866 32968 02501 11134 21182 37739 52004 333 05201 11010
AAXX 24181 52983 NIL
AAXX 24181 53463 NIL
AAXX 24181 53513 NIL
AAXX 24181 53588 NIL
AAXX 24181 53772 NIL
AAXX 24181 53915 NIL
AAXX 24181 54218 NIL
AAXX 24181 54337 NIL
AAXX 24181 54342 NIL
AAXX 24181 54401 NIL
AAXX 24181 54471 NIL
AAXX 24181 54497 NIL
AAXX 24181 54511 NIL
AAXX 24181 54823 32972 01103 11018 21119 30092 40309 54000 333 10051
AAXX 24181 56080 NIL
AAXX 24181 56096 NIL
AAXX 24181 57083 NIL
AAXX 24183 61701 32960 60000 10296 20114 40111 80006 333 10335 59000 84272 83073
AAXX 24183 61705 32960 60000 10314 20118 4//// 85032 333 10325 5//// 85362
AAXX 24183 61707 32960 53603 10320 20234 4//// 80006 333 10345 5//// 82272 83073
AAXX 24183 61711 32960 30904 10296 20165 4//// 80002 333 10325 5//// 83074
AAXX 24183 61712 NIL
AAXX 24183 61717 32960 50902 10325 21005 4//// 80006 333 10346 5//// 82363 84074
AAXX 24183 61720 NIL
AAXX 24183 61721 32960 70704 10320 20041 4//// 80006 333 10345 85272 84073
AAXX 24183 61722 32960 60000 10305 20111 4//// 80006 333 10345 5//// 84274 83075
AAXX 24183 61731 32960 60902 10300 20111 4//// 82032 333 10353 5//// 82362 85074
AAXX 24183 61733 NIL
AAXX 24184 78016 11464 52318 10230 20182 30202 40206 57025 69951 70381 82504 333 10232 20200 70005 90945
AAXX 24184 04048 21458 72838 10019 21069 49750 52091 70562 8484/ 333 10049 20018 69938 555 3/761
AAXX 24184 78988 01468 61214 10246 20229 30124 40135 57022 69931 78011 86400 333 58009 69927 84815 84650
AAXX 24184 78990 01470 41017 10276 20237 30134 40141 57029 60051 71581 84831 333 58007 60127 84816
AAXX 24184 78873 NIL
AAXX 24181 48919 32598 70514 10260 20217 30081 40103 58001 82208 22200 02269 333 58012 82895 87299 91118 91505
AAXX 24181 48916 32998 70203 10266 20199 30055 40102 58001 80008 333 58014 87299
AAXX 24181 48917 32998 60506 10255 20181 30110 40116 57002 80008 222// 00280 333 58016 86299
AAXX 24181 48918 32498 70705 10246 20193 30112 40123 50003 85208 222// 00246 2//// 58021 82894 83895 86299
AAXX 24181 48900 32497 23506 10214 20153 30107 40117 52014 82100 333 58032 82894
AAXX 24181 48914 32698 70901 10246 20228 30115 40117 52005 875// 333 58023 87696
AAXX 24184 78866 01464 70817 10266 20215 30164 40169 57027 69981 72581 87460 333 59001 69987 84815 85638
AAXX 24184 89528 46/// /2114 4//// 5////
AAXX 24184 89628 46/// /3111 4//// 5////
BBXX 44139 24181 99442 70571 46/// /0007 10031 40171 54000 22200 00090 10705 70027 333 91209
AAXX 24181 01271 17984 41304 10021 21080 39950 49971 58041 6//// 700// 333 10023 91107
AAXX 24181 01415 17556 82008 10068 20050 30063 40074 58031 6//// 761// 333 10068 91112
AAXX 24181 48803 32497 81402 10127 20115 30128 40247 58002 888// 333 59001 82894 88696
AAXX 24184 78866 01464 70817 10266 20215 30164 40169 57027 69981 72581 87460 333 59001 69987 84815 85638
AAXX 24184 78988 01468 61214 10246 20229 30124 40135 57022 69931 78011 86400 333 58009 69927 84815 84650
AAXX 24184 78990 01470 41017 10276 20237 30134 40141 57029 60051 71581 84831 333 58007 60127 84816
AAXX 24184 78873 NIL
AAXX 24184 78988 01468 61214 10246 20229 30124 40135 57022 69931 78011 86400 333 58009 69927 84815 84650
AAXX 24184 78990 01470 41017 10276 20237 30134 40141 57029 60051 71581 84831 333 58007 60127 84816
AAXX 24184 78873 NIL
AAXX 24184 78866 01464 70817 10266 20215 30164 40169 57027 69981 72581 87460 333 59001 69987 84815 85638
AAXX 24184 71120 12874 22813 10033 21047 39485 40143 53022 60001 82030 333 10033 21053 70000
BBXX 44139 24181 99442 70571 46/// /0007 10031 40171 54000 22200 00090 10705 70027 333 91209
AAXX 24184 48383 31950 00205 10145 20088 30022 40189 56013 71000 333 58038
AAXX 24184 48566 32560 60405 10265 20228 30077 40086 57005 82846 333 58001 70006
AAXX 24184 71120 12874 22813 10033 21047 39485 40143 53022 60001 82030 333 10033 21053 70000
AAXX 24184 85223 32570 72204 10275 20076 37498 47151 57025 82206 333 56000 58016 82827 87070
AAXX 24184 85283 32584 70508 10221 20105 37202 47139 57021 85303 333 56100 58019 84823 81930 85070
AAXX 24184 85345 32584 81810 10230 20165 39711 40170 50009 86527 333 56440 58158 86620 87457 88270
AAXX 24184 85364 32570 61512 10223 20152 38168 48208 57012 82532 333 56000 58054 82630 85070
AAXX 24184 85365 32584 81808 10214 20164 39445 40196 57015 8653/ 333 56409 58153 86623 88357
AAXX 24184 48304 31556 80000 10190 20165 39694 40164 50003 71022 84576 333 58021
AAXX 24184 48373 31930 20000 10200 20160 30082 40146 57004 71000 80005 333 58028
BBXX A8HG2 24184 99532 11733 41798 50721 10040 40195 58015 70322 85160 22264 04040 20403 3//// 4//// 5////
BBXX A8IM7 24184 99317 11562 41498 52522 10190 20167 40070 56015 75822 85/// 22225 20406 3//// 4//// 5//// 80175
BBXX A8SI3 24183 99538 11708 43998 00418 10000 21060 40270 54000 22264 00020 20503 81020
BBXX LAHR7 24184 99527 11770 41397 60731 10020 21050 40170 5//// 70222 869// 22213 00030 2//// 3//// 4//// 5//// 6//// 81005 ICE /////
BBXX WDB9949 24184 99512 11600 43/// ///// 1//// 2//// 4//// 5//// 7//// 8//// 22211 0//// 2//// 3//// 4//// 5//// 6//// ICE /////
BBXX 9VVU 24184 99358 11495 41298 80422 10085 20063 40056 58013 76062 877// 22264 00210 2//// 3//// 4//// 5//// 80075
BBXX C6SI6 24184 99332 11343 46/// /3114 10058 21057 40175 56012 7//// 8//// 22213 0//// 2////
BBXX DGBE 24183 99355 11461 41/96 80818 10075 20055 40060 57030 76366 8//// 22214 00200 2//// 80065
BBXX DGTX 24183 99338 11371 41497 33227 10075 20007 40120 51025 70111 81145 22254 00180 20504 80045
BBXX 46035 24181 99571 71778 46/// /3609 1//// 40232 57007 91750 22200 10805 20704 300// 40804 70027 333 91211 555 11086 22092 31735 40114 61749 002086 008102 013096 016090 019099 016084 80113 91735
BBXX C6SI3 24183 99500 71540 41/95 23223 10030 20010 40110 51010 72077 82263 22213 00050 21201 3//// 41002 5//// 6//// 80020 ICE /////
BBXX KEY796 24183 99571 71703 41/97 83615 11067 21111 40168 56/// 726// 8//// 222// 01011 2//// 3//// 4//// 5//// 6//// 8//// ICE /////
BBXX LAIG7 24184 99322 71710 41797 71623 10210 20210 40220 57010 70322 8797/ 22223 00210 20406 332// 41306 5//// 6//// 80210 ICE /////
BBXX NWS0003 24184 99539 71665 43/// /0000 11029 21071 40135 5//// 7//// 8//// 222// 0//// 2//// 3//// 4//// 5//// 6//// 8//// ICE /////
BBXX SHIP 24184 99524 71524 41598 53432 10010 21016 40027 56010 70222 85/// 91800 22223 00050 2//// 3//// 4//// 80000
AAXX 24184 89002 41499 70619 11019 21041 39713 49766 57020 70273 878//
AAXX 24184 06670 32380 72103 10024 20001 39821 40352 51/// 875// 333 10053 31/// 55300 20000 81609 87646 90766 93100 91120 91211
AAXX 24184 06700 02682 50002 10007 21031 39843 40359 51/// 69922 84540 333 10061 31/// 55300 20000 60005 81640 84650 90766 93100 91115 91209
AAXX 24184 06680 01/01 93011 11122 21139 37547 47066 52/// 60322 77574 333 11077 47310 55300 20000 69965 90766 93130 91132 91218
AAXX 24184 06990 01640 82202 10014 20003 39778 40347 51/// 69972 72055 886// 333 10072 41/// 55300 20000 69915 88739 91120 91210
AAXX 24184 06760 32886 10304 10093 21118 39797 40247 51/// 81500 333 10136 30/// 55300 20000 81657 90766 93100 91130 91208
AAXX 24184 06720 02665 6//// 10026 21026 39745 40341 51/// 60022 866// 333 10049 41003 55300 20000 60005 86744 90766 93100
AAXX 24184 06610 02675 11302 10017 21020 39753 40361 52/// 69952 81500 333 10046 31/// 55300 20000 60005 81637 90766 93100 91110 91206
AAXX 24181 26058 01230 82103 10005 20003 30046 40053 52002 60082 77172 8872/ 333 10005 21017 60027 88504 555 1/100 21017 3/102 51012 52102
AAXX 24181 34523 11496 80604 11018 21032 30104 40183 51007 60012 77172 8772/ 333 11012
AAXX 24181 26045 01258 82104 10014 20014 30045 40047 52010 60032 76162 8872/ 333 10015 21005 60007 88506 91109 555 1/000 21005 3/100 51004
AAXX 24184 41244 36/// /3504 10163 20087 39826 48104 333 0E015 10238 59007
AAXX 24184 41258 36/// /1601 10217 20133 30154 40159 333 0E/// 10238 59020
AAXX 24184 41263 36/// /9902 10166 21012 39487 40178 333 0E016 10248 59015
AAXX 24184 41287 36/// /1304 10177 20113 30123 40192 333 0E019 10264 59016
AAXX 24181 26247 01247 82103 10002 21001 39998 40078 52001 60012 76662 8872/ 333 10002 21014 69957 88507 555 1/100 21014 3/101 51014
AAXX 24181 01380 11878 81804 11068 21083 60002 70221 8807/ 333 11068 4/027 91108
AAXX 24181 01311 47348 81912 10057 20050 39961 40023 58038 762// 333 10057 91116
AAXX 24181 01473 11680 20000 11057 21068 39880 40096 58012 60002 70122 82400 333 10017 91104
AAXX 24181 01494 17/82 /1902 10010 21014 30039 40105 58002 60002 700// 333 10025 91105
AAXX 24184 91753 02572 60304 10275 20241 30038 40070 53012 60012 83231 333 10283 20264 60007 81820 83826 90710 91111 555 60005
AAXX 24184 91754 06/// /0102 10248 20230 30032 40073 53020 60081 333 69927 555 60005
AAXX 24181 01025 17/37 42309 10004 21015 39865 49876 50007 60082 781// 333 10039 91120
AAXX 24184 71956 17/// /2107 11004 21022 30005 40243 58032 60011 7//4/ 333 11004 21106 70011
AAXX 24184 71959 17/// ///// 11075 21129 69981 7//4/ 333 11016 21075 70059 555 10070
AAXX 24184 71977 46/// /3101 11285 21285 39402 40145 53012 6///1 333 11226 21286 7//// 555 10010
AAXX 24184 71978 46/// /2201 11292 21322 39830 40160 53009 6///1 333 11258 21292 7////
AAXX 24184 71989 16/// /0603 11364 21402 30090 40107 52020 60001 333 11273 21367 70000
AAXX 24184 71839 16/// ///// 10049 60001 333 10051 21002 7////
AAXX 24184 71849 16/// /2309 11032 21067 39817 40119 58010 60001 333 11032 21102 70000
AAXX 24184 71807 16/// /3315 11071 21114 30138 40157 51011 60001 333 11006 21071 70058
AAXX 24184 71710 16/// /3418 11092 21139 30226 40236 58005 60001 333 11055 21101 70010
AAXX 24184 71736 46/// ///// 10025 21056 6///1 333 10031 20002 7//// 555 10010
AAXX 24184 71742 46/// /2815 11120 21157 39958 40150 53005 6///1 333 11085 21130 7////
AAXX 24184 71744 16/// /3306 11122 21173 30249 40292 55006 60001 333 11093 21151 70003
AAXX 24184 71746 16/// /2004 11001 21029 30047 40274 58020 60001 333 10001 21037 70000
AAXX 24184 71748 16/// /1702 11055 21086 39812 40104 58012 60001 333 11055 21108 70000
AAXX 24184 71300 16/// /0602 11116 21149 30207 40337 58008 60001 333 11106 21167 70000 555 10010
AAXX 24184 71311 16/// /3412 11106 21133 30240 40266 53007 60001 333 11042 21108 70016 555 10090
AAXX 24184 71317 16/// /3611 11077 21118 30201 40249 53010 60001 333 11018 21078 70011 555 10020
AAXX 24184 71320 16/// /3403 11243 21265 39911 49912 58019 60001 333 11221 21326 70003
AAXX 24184 71323 16/// /3303 11149 21183 30027 40324 53003 60001 333 11147 21177 70010
AAXX 24184 71472 17/// /1836 10074 20057 69961 7//4/ 333 10084 20044 70062
AAXX 24184 71510 16/// /2615 10033 21058 39465 40178 50013 60001 333 10033 21055 70000
AAXX 24184 71250 17/// /3307 11069 21104 39988 40126 51009 69931 7//4/ 333 11012 21072 70066
AAXX 24184 71299 16/// /1510 11081 21109 39933 40222 58040 60001 333 11081 21234 70000
AAXX 24184 71622 16/// ///// 11007 21044 39937 40284 58024 60001 333 11006 21075 70000 555 10010
AAXX 24184 71243 16/// /2717 10066 21059 39177 40257 53022 60001 333 10066 20034 70000
AAXX 24184 71246 16/// /2407 10020 21052 39491 40153 51033 60001 333 10043 20006 70000
AAXX 24184 71402 46/// /2918 11108 21162 30022 40140 53006 6///1 333 11085 21108 7////
AAXX 24184 71407 16/// /2310 11290 21324 39925 49946 50003 60001 333 11212 21308 70000
AAXX 24184 71425 16/// /3014 11124 21161 30241 40279 56006 60001 333 11121 21141 70010
AAXX 24184 71427 16/// /2909 11141 21234 30300 40308 56012 60001 333 11139 21220 70000
AAXX 24184 71434 16/// /1915 11125 21143 39998 40066 58054 60001 333 11125 70000
AAXX 24184 71448 16/// /2304 11047 21090 39777 40111 58011 60001 333 11047 21089 70000
AAXX 24184 71885 16/// ///// 10051 60001 333 10051 21007 70000
AAXX 24184 71465 46/// /2009 10018 21027 30056 40278 58019 6///1 333 10022 21025 7////
AAXX 24184 71470 16/// /0104 11230 21254 39449 40092 53021 60001 333 11191 21236 70000
AAXX 24184 71476 16/// /1111 30089 56030 60001 333 70116
AAXX 24184 71478 16/// /1628 10084 20082 30043 40179 57001 60001 333 10086 20053 70108
AAXX 24184 71482 46/// /0511 10055 30164 40202 55006 6///1 333 10057 20041 7////
AAXX 24184 71484 16/// /1730 10078 20070 30070 40088 56025 60001 333 10079 20059 70000
AAXX 24184 71492 46/// ///02 11287 21315 39383 40111 53009 6///1 333 11281 21316 7////
AAXX 24184 71631 16/// /1806 11032 21085 39770 40287 58015 60001 333 11030 21105 70000
AAXX 24184 71087 46/// /0802 11147 21175 39919 40128 53031 6///1 333 11102 21166 7////
AAXX 24184 71501 46/// /3214 11280 21311 30173 40175 5/013 6///1 333 7//// 555 10040
AAXX 24184 71512 16/// /2704 11151 21223 30251 40266 56007 60001 333 11151 21283 70000
AAXX 24184 71514 16/// /2717 10017 21052 39474 40179 53009 60001 333 10017 21075 70000
AAXX 24184 71015 16/// ///// 10030 60001 333 10031 21020 70004
AAXX 24184 71017 16/// /2708 11327 21361 30041 40056 53012 60001 333 11278 21347 70000
AAXX 24184 71019 46/// /3107 11154 21201 39994 40312 58000 6///1 333 11144 21192 7////
AAXX 24184 71020 46/// /0000 11188 21204 39852 40114 53016 6///1 333 11126 21188 7////
AAXX 24184 71021 46/// /1204 11094 21140 39734 40084 53021 6///1 333 10025 21094 7////
AAXX 24184 71551 16/// /2816 10041 21057 39510 40164 50007 60001 333 10041 21021 70000
AAXX 24184 71575 16/// /2516 11126 21140 39905 49970 56023 60001 333 11126 21215 70000
AAXX 24184 71579 16/// /2304 11037 21080 39824 40112 58012 60001 333 11036 21094 70000
AAXX 24184 71585 16/// /2712 10018 20002 39650 40099 53034 60001 333 20015 7////
AAXX 24184 71832 16/// /1806 11047 21067 39851 40187 58036 60001 333 11047 21157 70000
AAXX 24184 71862 12974 82713 10021 21057 39479 40187 50002 60001 8807/ 333 10021 21044 70000
AAXX 24184 71669 16/// /2404 10013 21076 38631 40271 53018 60001 333 10017 21022 70000
AAXX 24184 71362 16/// /2806 11090 21109 39827 40085 51031 60001 333 11064 21094 70000
AAXX 24184 71363 16/// /3514 11279 21308 39934 49991 53026 60001 333 11248 21341 70000
AAXX 24184 71365 16/// /3304 11202 21222 39914 40134 52017 60001 333 11139 21203 70000
AAXX 24184 71381 46/// /2904 11202 21253 6///1 333 21267 70000
AAXX 24184 71387 16/// /0000 11203 21262 39933 40354 57008 60001 333 11202 21340 70000
AAXX 24184 71393 16/// ///// 10043 21067 38969 40248 51032 60001 333 10058 20001 70000
AAXX 24184 71151 16/// /2114 11069 21083 39601 40113 57024 60001 333 11069 21078 70000
AAXX 24184 71155 16/// ///// 10036 21044 60001 333 10038 21059 70000
AAXX 24184 71159 16/// /3210 11103 21154 30115 40189 50001 60001 333 11069 21109 70003
AAXX 24184 71160 16/// /0404 11163 21188 39847 40065 53024 60001 333 11120 21163 70009
AAXX 24184 71162 16/// /3122 11140 21164 39867 40080 52030 60001 333 11097 21140 70000
AAXX 24184 71164 46/// /0000 11321 21357 30095 40180 5/019 6///1 333 11210 21321 7////
AAXX 24184 71165 46/// ///03 11217 21241 39827 40119 53028 6///1 333 11149 21217 7////
AAXX 24184 71166 46/// /0701 39496 53018 6///1 333 7////
AAXX 24184 71175 16/// /3407 11057 21106 30182 40218 53001 60001 333 11005 21059 70026 555 10020
AAXX 24184 71752 16/// /1105 11006 21062 30078 40302 58019 60001 333 11003 21071 70000
AAXX 24184 71758 16/// /3215 11076 21113 30136 40215 53007 60001 333 11015 21076 70045
AAXX 24184 71771 46/// /1730 10088 20061 30051 40072 58023 6///1 333 10089 20050 7////
AAXX 24184 71110 16/// /3208 11051 21072 30088 40149 50001 60001 333 11014 21059 70056 555 10030
AAXX 24184 71141 16/// /3309 11325 21358 30014 40042 53021 60001 333 11254 21328 70000
AAXX 24184 71920 17/// /3609 11023 21045 30235 40241 53010 69981 7//4/ 333 10025 21024 70008
AAXX 24184 41529 12995 00000 10041 21015 39790 40191 60003 333 59004
AAXX 24184 41598 11996 00000 10060 20009 39881 40165 60003 70500 333 58000
AAXX 24184 41620 32995 00905 10080 21137 38587 48489 333 59001
AAXX 24184 41624 02995 00000 10075 20013 39961 40170 60003 333 58000 60007
AAXX 24184 41640 01996 00000 10095 20051 39910 40168 60003 70500 333 59002 60007
AAXX 24184 41660 NIL
AAXX 24184 41675 11995 00000 10070 20021 30027 40171 60003 70400 333 59002
AAXX 24184 41712 12996 00502 10050 21116 39212 48501 60003 333 59016
AAXX 24184 41715 01996 00000 10105 20050 30100 40167 60003 70400 333 59011 60007
AAXX 24184 41756 01995 02702 10170 20135 30085 40150 60003 70500 333 59021 60007
AAXX 24184 41764 32996 03606 10145 20020 30099 40146 60003 70400 333 59018 60007
AAXX 24184 41768 02996 00000 10120 20079 30149 40156 60003 333 59017 60007
AAXX 24184 41780 02996 00504 10150 20092 30130 40157 60003 333 59017 60007
AAXX 24184 71472 17/// /1836 10074 20057 69961 7//4/ 333 10084 20044 70062
AAXX 24184 71510 16/// /2615 10033 21058 39465 40178 50013 60001 333 10033 21055 70000
AAXX 24184 71832 16/// /1806 11047 21067 39851 40187 58036 60001 333 11047 21157 70000
AAXX 24184 71862 12974 82713 10021 21057 39479 40187 50002 60001 8807/ 333 10021 21044 70000
AAXX 24184 41529 12995 00000 10041 21015 39790 40191 60003 333 59004
AAXX 24184 41598 11996 00000 10060 20009 39881 40165 60003 70500 333 58000
AAXX 24184 41620 32995 00905 10080 21137 38587 48489 333 59001
AAXX 24184 41624 02995 00000 10075 20013 39961 40170 60003 333 58000 60007
AAXX 24184 41640 01996 00000 10095 20051 39910 40168 60003 70500 333 59002 60007
AAXX 24184 41660 NIL
AAXX 24184 41675 11995 00000 10070 20021 30027 40171 60003 70400 333 59002
AAXX 24184 41712 12996 00502 10050 21116 39212 48501 60003 333 59016
AAXX 24184 41715 01996 00000 10105 20050 30100 40167 60003 70400 333 59011 60007
AAXX 24184 41756 01995 02702 10170 20135 30085 40150 60003 70500 333 59021 60007
AAXX 24184 41764 32996 03606 10145 20020 30099 40146 60003 70400 333 59018 60007
AAXX 24184 41768 02996 00000 10120 20079 30149 40156 60003 333 59017 60007
AAXX 24184 41780 02996 00504 10150 20092 30130 40157 60003 333 59017 60007
AAXX 24184 71631 16/// /1806 11032 21085 39770 40287 58015 60001 333 11030 21105 70000
AAXX 24184 71807 16/// /3315 11071 21114 30138 40157 51011 60001 333 11006 21071 70058
BBXX 44150 24181 99425 70640 46/// /0411 10031 40203 57001 22200 00104 11005 70023 333 91214
AAXX 24184 71300 16/// /0602 11116 21149 30207 40337 58008 60001 333 11106 21167 70000 555 10010
AAXX 24184 71311 16/// /3412 11106 21133 30240 40266 53007 60001 333 11042 21108 70016 555 10090
AAXX 24184 71317 16/// /3611 11077 21118 30201 40249 53010 60001 333 11018 21078 70011 555 10020
AAXX 24184 71320 16/// /3403 11243 21265 39911 49912 58019 60001 333 11221 21326 70003
AAXX 24184 71323 16/// /3303 11149 21183 30027 40324 53003 60001 333 11147 21177 70010
AAXX 24184 43400 NIL
AAXX 24184 43404 NIL
AAXX 24184 43410 NIL
AAXX 24184 43413 NIL
AAXX 24184 43415 NIL
AAXX 24184 43418 22470 63404 10258 20225 3//// 4//// 83136 333 5//// 60007 83818 85360
AAXX 24184 43421 22460 70000 10239 20230 39999 40101 871// 333 59006 60007 87818
AAXX 24184 43422 NIL
AAXX 24184 43424 22968 50000 10239 20225 30089 40091 80006 333 59007 60007 84280
AAXX 24184 43436 22470 23605 10269 20239 30087 40090 81101 333 59007 60007 81818
AAXX 24184 43441 NIL
AAXX 24184 43444 22470 50000 10214 20205 39568 40100 85100 333 59001 60007 85818
AAXX 24184 43467 22460 53608 10256 20217 30089 40094 80001 333 59003 60007 85080
AAXX 24184 43473 22970 00000 10122 20097 38116 48486 333 59006 60007
AAXX 24184 43475 NIL
AAXX 24184 43476 NIL
AAXX 24184 43479 NIL
AAXX 24184 43486 22470 50000 10246 20228 39989 40083 85100 333 59006 60007 85814
AAXX 24184 43495 22960 3//// 10256 20239 30072 40088 80001 333 59005 60007 83080
AAXX 24184 43497 22472 73604 10258 20238 30067 40084 8317/ 333 58001 60007 83818 86458
AAXX 24184 71956 17/// /2107 11004 21022 30005 40243 58032 60011 7//4/ 333 11004 21106 70011
AAXX 24184 71959 17/// ///// 11075 21129 69981 7//4/ 333 11016 21075 70059 555 10070
AAXX 24184 71977 46/// /3101 11285 21285 39402 40145 53012 6///1 333 11226 21286 7//// 555 10010
AAXX 24184 71978 46/// /2201 11292 21322 39830 40160 53009 6///1 333 11258 21292 7////
AAXX 24184 71989 16/// /0603 11364 21402 30090 40107 52020 60001 333 11273 21367 70000
AAXX 24184 71839 16/// ///// 10049 60001 333 10051 21002 7////
AAXX 24184 71849 16/// /2309 11032 21067 39817 40119 58010 60001 333 11032 21102 70000
AAXX 24184 71710 16/// /3418 11092 21139 30226 40236 58005 60001 333 11055 21101 70010
AAXX 24184 71736 46/// ///// 10025 21056 6///1 333 10031 20002 7//// 555 10010
AAXX 24184 71742 46/// /2815 11120 21157 39958 40150 53005 6///1 333 11085 21130 7////
AAXX 24184 71744 16/// /3306 11122 21173 30249 40292 55006 60001 333 11093 21151 70003
AAXX 24184 71746 16/// /2004 11001 21029 30047 40274 58020 60001 333 10001 21037 70000
AAXX 24184 71748 16/// /1702 11055 21086 39812 40104 58012 60001 333 11055 21108 70000
AAXX 24184 71250 17/// /3307 11069 21104 39988 40126 51009 69931 7//4/ 333 11012 21072 70066
AAXX 24184 71299 16/// /1510 11081 21109 39933 40222 58040 60001 333 11081 21234 70000
AAXX 24181 13168 32697 81102 10012 20000 30120 40230 53016 885// 333 10041
AAXX 24181 13174 32697 81602 10013 21018 30124 40228 53011 885// 333 10019
AAXX 24181 13269 31696 30000 10003 21019 30004 40226 52017 71000 83500 333 10051
AAXX 24181 13274 31996 61602 10016 21029 30062 40228 52016 71022 86030 333 10044
AAXX 24184 71501 46/// /3214 11280 21311 30173 40175 5/013 6///1 333 7//// 555 10040
AAXX 24184 71512 16/// /2704 11151 21223 30251 40266 56007 60001 333 11151 21283 70000
AAXX 24184 71514 16/// /2717 10017 21052 39474 40179 53009 60001 333 10017 21075 70000
AAXX 24184 71622 16/// ///// 11007 21044 39937 40284 58024 60001 333 11006 21075 70000 555 10010
AAXX 24181 14023 11596 80301 10002 20000 39936 40241 51021 69972 75165 885// 333 10004 42001 81720 88628 92851
AAXX 24184 71885 16/// ///// 10051 60001 333 10051 21007 70000
AAXX 24184 71465 46/// /2009 10018 21027 30056 40278 58019 6///1 333 10022 21025 7////
AAXX 24184 71470 16/// /0104 11230 21254 39449 40092 53021 60001 333 11191 21236 70000
AAXX 24184 71476 16/// /1111 30089 56030 60001 333 70116
AAXX 24184 71478 16/// /1628 10084 20082 30043 40179 57001 60001 333 10086 20053 70108
AAXX 24184 71482 46/// /0511 10055 30164 40202 55006 6///1 333 10057 20041 7////
AAXX 24184 71484 16/// /1730 10078 20070 30070 40088 56025 60001 333 10079 20059 70000
AAXX 24184 71492 46/// ///02 11287 21315 39383 40111 53009 6///1 333 11281 21316 7////
AAXX 24184 71402 46/// /2918 11108 21162 30022 40140 53006 6///1 333 11085 21108 7////
AAXX 24184 71407 16/// /2310 11290 21324 39925 49946 50003 60001 333 11212 21308 70000
AAXX 24184 71425 16/// /3014 11124 21161 30241 40279 56006 60001 333 11121 21141 70010
AAXX 24184 71427 16/// /2909 11141 21234 30300 40308 56012 60001 333 11139 21220 70000
AAXX 24184 71434 16/// /1915 11125 21143 39998 40066 58054 60001 333 11125 70000
AAXX 24184 71448 16/// /2304 11047 21090 39777 40111 58011 60001 333 11047 21089 70000
AAXX 24184 71243 16/// /2717 10066 21059 39177 40257 53022 60001 333 10066 20034 70000
AAXX 24184 71246 16/// /2407 10020 21052 39491 40153 51033 60001 333 10043 20006 70000
BBXX SBLI 24181 99316 11422 43/97 82925 10122 40081 56010 22263 00201 2//// 4//// 426621110
BBXX SBLW 24183 99145 70961 43/98 23619 10281 40142 50002 22274 00291 20602 41004
BBXX SKOZ 24184 99512 70392 43/92 93430 10053 49847 56056 22214 00092 2//// 40706
BBXX SMGW 24181 99343 71623 43/98 11711 10156 40288 55001 22224 00194 20404 41309
BBXX SJCD 24181 99541 71622 43/97 43314 11046 40095 53012 22263 00050
AAXX 24181 37279 /1494 80901 10104 20092 39967 40108 52023 76062 8872/ 333 10145
AAXX 24181 37308 315// 80000 10037 20011 39485 40139 52025 76166 8572/ 333 10083
AAXX 24181 37531 329// 40000 10025 20009 39421 40152 52011 80050 333 10046
AAXX 24181 37553 329// 30201 10015 21013 39468 40123 52004 80031 333 10087
AAXX 24181 37651 16/// ///00 10024 20004 3//// 4//// 5//// 60002 333 10088
AAXX 24181 37492 NIL
AAXX 24184 71087 46/// /0802 11147 21175 39919 40128 53031 6///1 333 11102 21166 7////
AAXX 24184 71151 16/// /2114 11069 21083 39601 40113 57024 60001 333 11069 21078 70000
AAXX 24184 71155 16/// ///// 10036 21044 60001 333 10038 21059 70000
AAXX 24184 71159 16/// /3210 11103 21154 30115 40189 50001 60001 333 11069 21109 70003
AAXX 24184 71160 16/// /0404 11163 21188 39847 40065 53024 60001 333 11120 21163 70009
AAXX 24184 71162 16/// /3122 11140 21164 39867 40080 52030 60001 333 11097 21140 70000
AAXX 24184 71164 46/// /0000 11321 21357 30095 40180 5/019 6///1 333 11210 21321 7////
AAXX 24184 71165 46/// ///03 11217 21241 39827 40119 53028 6///1 333 11149 21217 7////
AAXX 24184 71166 46/// /0701 39496 53018 6///1 333 7////
AAXX 24184 71175 16/// /3407 11057 21106 30182 40218 53001 60001 333 11005 21059 70026 555 10020
AAXX 24184 71669 16/// /2404 10013 21076 38631 40271 53018 60001 333 10017 21022 70000
AAXX 24184 71920 17/// /3609 11023 21045 30235 40241 53010 69981 7//4/ 333 10025 21024 70008
AAXX 24184 71110 16/// /3208 11051 21072 30088 40149 50001 60001 333 11014 21059 70056 555 10030
AAXX 24184 71141 16/// /3309 11325 21358 30014 40042 53021 60001 333 11254 21328 70000
AAXX 24184 71551 16/// /2816 10041 21057 39510 40164 50007 60001 333 10041 21021 70000
AAXX 24184 71575 16/// /2516 11126 21140 39905 49970 56023 60001 333 11126 21215 70000
AAXX 24184 71579 16/// /2304 11037 21080 39824 40112 58012 60001 333 11036 21094 70000
AAXX 24184 71585 16/// /2712 10018 20002 39650 40099 53034 60001 333 20015 7////
AAXX 24184 71752 16/// /1105 11006 21062 30078 40302 58019 60001 333 11003 21071 70000
AAXX 24184 71758 16/// /3215 11076 21113 30136 40215 53007 60001 333 11015 21076 70045
AAXX 24184 71771 46/// /1730 10088 20061 30051 40072 58023 6///1 333 10089 20050 7////
AAXX 24184 71362 16/// /2806 11090 21109 39827 40085 51031 60001 333 11064 21094 70000
AAXX 24184 71363 16/// /3514 11279 21308 39934 49991 53026 60001 333 11248 21341 70000
AAXX 24184 71365 16/// /3304 11202 21222 39914 40134 52017 60001 333 11139 21203 70000
AAXX 24184 71381 46/// /2904 11202 21253 6///1 333 21267 70000
AAXX 24184 71387 16/// /0000 11203 21262 39933 40354 57008 60001 333 11202 21340 70000
AAXX 24184 71393 16/// ///// 10043 21067 38969 40248 51032 60001 333 10058 20001 70000
AAXX 24184 71015 16/// ///// 10030 60001 333 10031 21020 70004
AAXX 24184 71017 16/// /2708 11327 21361 30041 40056 53012 60001 333 11278 21347 70000
AAXX 24184 71019 46/// /3107 11154 21201 39994 40312 58000 6///1 333 11144 21192 7////
AAXX 24184 71020 46/// /0000 11188 21204 39852 40114 53016 6///1 333 11126 21188 7////
AAXX 24184 71021 46/// /1204 11094 21140 39734 40084 53021 6///1 333 10025 21094 7////
BBXX 44150 24181 99425 70640 46/// /0411 10031 40203 57001 22200 00104 11005 70023 333 91214
BBXX 42085 24181 99179 70665 46/// /1010 10273 40152 58024 91800 22200 00274 10703 70017 333 91212
BBXX 41053 24181 99185 70661 46/// /0807 10268 40165 91750 333 91209
BBXX 41053 24181 99185 70661 46/// /0807 10268 40167 91740 333 91209
BBXX 41053 24181 99185 70661 46/// /0707 10268 40164 58025 91800 22200 00273 10903 70016 333 91209
BBXX 42085 24181 99179 70665 46/// /1010 10273 40153 91750 333 91212
AAXX 2418/ 89828 46/// ///// 11309 36535 4//// 5////
AAXX 24181 40650 12960 50000 10137 20094 40140 52012 60002 85800
AAXX 24181 40604 12960 00000 10095 20029 40133 52009 60002
AAXX 24181 40608 11557 71302 10117 20105 40140 52016 69952 70662 87500
AAXX 24181 40621 12560 51203 10144 20100 40166 52008 60002 85500
AAXX 24181 40629 12960 30000 10105 20028 40145 53004 60002 83030
AAXX 24181 40631 12960 00000 10122 20082 40146 53012 60002
AAXX 24181 40634 12960 00000 10100 20033 40130 51004 60002
AAXX 24181 40642 12960 00000 10108 21016 40167 52010 60002
AAXX 24181 40656 12560 70000 10143 20087 40116 52010 60002 84052
AAXX 24181 40665 12960 31105 10180 20127 40142 52004 60002 80001
AAXX 24181 40674 12960 00000 10144 20063 40129 51006 60002
AAXX 24181 40623 11559 61203 10130 20034 40148 52006 60002 70500 86400
AAXX 24181 40637 12960 30702 10160 20088 40143 52005 60002 80002
AAXX 24181 40670 12960 10000 10148 20087 40128 53007 60002 80002
AAXX 24181 40676 12960 01002 10168 20086 40130 52011 60002
AAXX 24181 40680 11558 40703 10165 20102 40131 53006 60002 70611 83202
AAXX 24181 40689 12960 01810 10172 20129 40146 53007 60002
AAXX 24181 40691 12960 00304 10176 20152 40162 50002 60002
AAXX 24184 41515 02995 00000 10043 21076 38570 48531 60003 333 59005 60007
AAXX 24184 41560 22696 30505 10030 21020 38272 48507 60002 81530 333 58002 60007
AAXX 24184 41571 119// 00000 10060 20013 39575 40183 60003 70500 333 58002
AAXX 24184 41594 319// 00000 10070 20021 39946 40173 70500 333 59003
AAXX 24184 41685 32993 00000 10065 21184 38918 48490 333 59012
AAXX 24184 41710 01995 00000 10050 21149 39388 40195 60003 70600 333 59016 60007
AAXX 24184 41718 12996 00000 10080 20033 30058 40167 60003 333 59018
AAXX 24184 41739 01995 00000 10100 21063 39046 48492 60003 70500 333 59040 60007
AAXX 24184 41744 32996 02702 10140 21028 38787 48510 333 59006
AAXX 24184 41749 01995 00000 10120 20068 30136 40169 60003 70400 333 59012 60007
AAXX 24184 78846 11470 70907 10244 20/// 30135 40174 60021 71582 87800 333 10277 20236 58001 58001 87818
AAXX 24184 41515 02995 00000 10043 21076 38570 48531 60003 333 59005 60007
AAXX 24184 41560 22696 30505 10030 21020 38272 48507 60002 81530 333 58002 60007
AAXX 24184 41571 119// 00000 10060 20013 39575 40183 60003 70500 333 58002
AAXX 24184 41594 319// 00000 10070 20021 39946 40173 70500 333 59003
AAXX 24184 41685 32993 00000 10065 21184 38918 48490 333 59012
AAXX 24184 41710 01995 00000 10050 21149 39388 40195 60003 70600 333 59016 60007
AAXX 24184 41718 12996 00000 10080 20033 30058 40167 60003 333 59018
AAXX 24184 41739 01995 00000 10100 21063 39046 48492 60003 70500 333 59040 60007
AAXX 24184 41744 32996 02702 10140 21028 38787 48510 333 59006
AAXX 24184 41749 01995 00000 10120 20068 30136 40169 60003 70400 333 59012 60007
BBXX VCXF 24184 99464 70484 41497 83332 10008 2102/ 40089 52044 70222 884// 22200 02022 20504 320// 40806 81002
AAXX 24184 78846 11470 70907 10244 20/// 30135 40174 60021 71582 87800 333 10277 20236 58001 58001 87818
AAXX 24181 40650 12960 50000 10137 20094 40140 52012 60002 85800
AAXX 24181 40604 12960 00000 10095 20029 40133 52009 60002
AAXX 24181 40608 11557 71302 10117 20105 40140 52016 69952 70662 87500
AAXX 24181 40621 12560 51203 10144 20100 40166 52008 60002 85500
AAXX 24181 40629 12960 30000 10105 20028 40145 53004 60002 83030
AAXX 24181 40631 12960 00000 10122 20082 40146 53012 60002
AAXX 24181 40634 12960 00000 10100 20033 40130 51004 60002
AAXX 24181 40642 12960 00000 10108 21016 40167 52010 60002
AAXX 24181 40656 12560 70000 10143 20087 40116 52010 60002 84052
AAXX 24181 40665 12960 31105 10180 20127 40142 52004 60002 80001
AAXX 24181 40674 12960 00000 10144 20063 40129 51006 60002
AAXX 24181 40623 11559 61203 10130 20034 40148 52006 60002 70500 86400
AAXX 24181 40637 12960 30702 10160 20088 40143 52005 60002 80002
AAXX 24181 40670 12960 10000 10148 20087 40128 53007 60002 80002
AAXX 24181 40676 12960 01002 10168 20086 40130 52011 60002
AAXX 24181 40680 11558 40703 10165 20102 40131 53006 60002 70611 83202
AAXX 24181 40689 12960 01810 10172 20129 40146 53007 60002
AAXX 24181 40691 12960 00304 10176 20152 40162 50002 60002
AAXX 24184 63705 32560 52704 10195 20181 38837 48511 82940 3/310230 59003 82621 81923 84367 10185
AAXX 24184 60662 36/// /0000 10116 21027 333 10143
AAXX 24184 60619 36/// /0310 10134 20019 333 10177
AAXX 24184 60663 36/// /1902 10167 21028 333 10209
BBXX VCXF 24184 99464 70484 41497 83332 10008 2102/ 40089 52044 70222 884// 22200 02022 20504 320// 40806 81002
AAXX 24184 60691 36/// /0611 10209 21049 333 10254
AAXX 24184 60621 36/// /0407 10176 20018 333 10214
AAXX 24184 60667 36/// /0000 10152 21008 333 10178
BBXX 61002 24184 99421 10047 46/// ///40 10112 2//// 40272 57004 22200 00140 10911 70053 555 1/052
AAXX 24181 89064 11208 81202 10026 29085 49815 57009 69941 77177 885//
AAXX 24184 60692 36/// /0415 10219 21011 333 10257
AAXX 24184 60664 36/// /0000 10129 21014 333 10171
AAXX 24184 60612 36/// /0708 10143 20003 333 10185
AAXX 24184 78922 46/// /0920 10261 20207 30105 40150 58025
AAXX 24184 04211 47/68 /1014 11176 21199 39756 49923 57001 77777 333 11167 21179
AAXX 24184 04220 07679 83205 11109 21145 39849 49902 54000 60022 70070 333 11109 21136 55300 20004 69917 81/46 87/57 88/59
AAXX 24184 04221 45984 30907 11161 21225 39864 49903 57002 333 11161 21222 83/66
AAXX 24184 04231 NIL
AAXX 24184 04234 47505 73111 11096 21135 39904 49914 52001 77177 333 11084 21116 87/22 91131 91031
AAXX 24184 04241 47984 13403 11102 21157 39854 49894 52009 72277 333 11085 21104 81/65
AAXX 24184 04250 07467 83205 11079 21098 39760 49866 57008 69972 78587 333 11075 21086 55300 20036 69907 83/13 85/20 88/26 91016 91116
AAXX 24184 04254 47457 83305 11086 21118 39765 49881 57007 78588 333 11079 21102 88/13
AAXX 24184 04260 45983 22501 11092 21182 39834 49878 57003 333 11074 21112 82/62
AAXX 24184 04270 45984 10605 11136 21189 39834 49874 57009 333 11070 21139 81/61
AAXX 24184 04272 07584 5//// 11102 21164 39797 49871 57011 69912 70010 333 11061 21105 6///7 81/32 85/61
AAXX 24184 04312 46/// ///// 11169 21191 39760 49802 57012
AAXX 24184 04320 47/00 /3439 11094 21107 39663 49678 52017 77377 333 11084 21094 91164 91253 91053
AAXX 24184 04339 45/84 ///// 11144 21190 39637 49728 57001 333 11127 21163 55300 20000
AAXX 24184 04360 06/// /3206 11152 21227 39673 49745 57010 6///2 333 11124 21153 55300 20000 6///7 91120
AAXX 24184 04361 46/// /2703 11159 21244 39692 49746 57011 333 11117 21188
AAXX 24184 04390 07/84 02511 11056 21166 39750 49844 57010 60122 70087 333 11046 21064 60027 91125
AAXX 24180 44214 32998 03202 11205 21252 38316 40471 57006
AAXX 24180 44231 329// 00000 11172 21241 38766 40427 54000
AAXX 24180 44259 32997 70801 11220 21248 39341 40328 51006 87070
AAXX 24180 44277 329// 02301 11195 21236 37833 40503 57005
AAXX 24180 44288 32999 03203 11118 21210 38191 40379 58001
AAXX 24180 44292 319// 00401 11265 21290 38741 40444 51004 70400
AAXX 24180 44304 329// 22304 11266 21297 39027 40399 52004 82040
AAXX 24180 44354 329// 03212 11179 21205 39138 40346 53002
AAXX 24180 44373 32999 02902 11157 21209 38579 40388 51003
AAXX 24181 50136 NIL
AAXX 24181 50745 32965 02901 11255 21307 30115 40322 52007 333 11199
AAXX 24181 50774 NIL
AAXX 24181 50788 NIL
AAXX 24181 51133 NIL
AAXX 24181 51431 NIL
AAXX 24181 51747 NIL
AAXX 24181 52203 NIL
AAXX 24181 52418 NIL
AAXX 24181 52681 NIL
AAXX 24181 53564 NIL
AAXX 24181 53614 NIL
AAXX 24181 53646 NIL
AAXX 24181 53798 NIL
AAXX 24181 53845 NIL
AAXX 24181 53959 NIL
AAXX 24181 54094 NIL
AAXX 24181 54102 NIL
AAXX 24181 54161 NIL
AAXX 24181 54292 NIL
AAXX 24181 54374 NIL
AAXX 24181 54423 NIL
AAXX 24181 54618 NIL
AAXX 24181 54843 NIL
AAXX 24181 54909 32964 01801 11007 21086 30238 40304 57002 333 10081
AAXX 24181 56029 32980 00401 11063 21207 36436 52015 333 00206 10076
AAXX 24181 57127 NIL
AAXX 24181 57131 NIL
AAXX 24184 41506 02995 03612 10040 21063 48546 60003 333 58010 60007
AAXX 24184 41508 22996 00000 10044 21076 48533 60003 333 58000 60007
AAXX 24184 41523 12996 00000 10030 21024 48512 60003 333 59006 60007
AAXX 24184 41535 12997 00000 10030 20005 48482 60003 333 58003
AAXX 24184 41536 NIL
AAXX 24184 41573 12996 03602 10050 21057 48493 60003 333 58005
AAXX 24184 41600 01994 00000 10050 20025 39854 40164 60003 71000 333 59004 60007
AAXX 24184 41630 11996 00000 10050 20012 40178 60003 70400 333 59004
AAXX 24184 41678 12996 00000 10100 20057 40182 60003 333 58010
AAXX 24184 41696 02996 00000 10000 21145 38010 48539 60003 333 59010 60007
AAXX 24184 41697 02996 00000 10072 20035 40175 60003 333 59006 60007
AAXX 24184 41700 11995 00000 10080 20046 40158 60003 70400 333 59007
AAXX 24184 41725 02996 00000 10125 20049 60003 333 59013 60007
AAXX 24184 41746 02996 00000 10105 20074 40162 60003 333 59025 60007
AAXX 24184 41759 11996 00000 10155 20050 30154 40160 60002 70500 333 59010
AAXX 24184 41785 02996 00000 10135 20085 40153 60003 333 59014 60007
OOXX AAUNI 24184 99798 50833 56093 07671 46/// /2226 11034 21121 38984 49857 57014 91800
BBXX 44255 24181 99473 70573 46/// /3210 11070 40172 52004 22200 00038 10604 70018 333 91214
BBXX 44255 24181 99473 70573 46/// /3210 11070 40172 52004 22200 00038 10604 70018 333 91214
AAXX 24181 40706 12460 73404 10042 20007 38603 40148 52012 60001 82672 333 55028 20682 82715 85358
AAXX 24181 40718 11556 80000 10108 20100 30147 40118 52010 60001 71022 8552/ 333 55040 85625 88458
AAXX 24181 40732 12960 00000 10094 20077 30131 40106 53010 60001 333 55054
AAXX 24181 40745 11956 00000 10022 21059 39003 40164 51004 60001 70500 333 55085 20961
AAXX 24181 40754 12660 20202 10064 21076 38809 40165 50009 60001 81530 333 55081 81640
AAXX 24181 40766 12660 41502 10110 21025 38682 40153 52006 60001 82430 333 55081 21215 82645 84359
AAXX 24181 40800 12960 00602 10052 21024 38436 40171 50009 60001 333 55086 2////
AAXX 24181 40811 11657 41404 10176 20134 30117 40144 50000 60001 70500 84500 333 55082 21112 84640
AAXX 24181 40841 12960 01303 10066 21081 38247 40162 51009 60001 333 55093 21439
AAXX 24181 40848 12965 02202 10056 21086 38531 40194 51014 60001 333 55093 21450
AAXX 24181 40856 11935 02002 10028 21274 38631 40174 50002 60001 70500 333 55090 2////
AAXX 24181 40875 11957 00204 10145 20092 30147 40159 51007 60001 70500 333 55095 21372
AAXX 24180 44203 329// 60000 11223 21241 38435 40432 54000 80007
AAXX 24180 44207 329// 62304 11213 21253 38334 40397 51009 86050
AAXX 24180 44212 32999 51803 11272 21303 39254 40523 58014 83077
AAXX 24180 44213 32999 00000 11324 21355 38874 40570 57003
AAXX 24180 44215 32998 00000 11256 21281 38459 40493 57002
AAXX 24180 44218 329// 00000 11262 21287 38666 40499 57008
AAXX 24180 44225 329// 00000 11299 21317 38337 40567 54000
AAXX 24180 44230 329// 00104 11178 21213 38828 40415 52006
AAXX 24180 44232 329// 01101 11202 21227 39144 40375 52006
AAXX 24180 44237 32999 00000 11146 21207 38514 40352 51001
AAXX 24180 44239 329// 03403 11214 21247 38826 40392 53006
AAXX 24180 44241 329// 00000 11284 21308 39311 40407 52003
AAXX 24180 44256 41599 60000 11264 21282 39381 40331 51007 77072 84520
AAXX 24180 44265 329// 00000 11242 21273 38883 40425 57005
AAXX 24180 44272 329// 01602 11242 21273 38268 40470 57005
AAXX 24180 44275 32998 00000 11267 21279 37755 40531 57002
AAXX 24180 44282 32999 02501 11117 21212 38326 40360 54000
AAXX 24180 44284 32999 02001 11248 21281 37879 40549 53002
AAXX 24180 44285 32999 01202 11169 21212 38349 40402 51001
AAXX 24180 44287 32999 00405 11166 21227 38147 40433 54000
AAXX 24180 44294 329// 00000 11303 21332 38591 40504 52004
AAXX 24180 44298 329// 03602 11235 21241 38742 40397 52004
AAXX 24180 44302 329// 22705 11201 21235 39138 40346 51004 80004
AAXX 24180 44305 32999 02703 11225 21259 39077 40342 52001
AAXX 24180 44313 32999 00000 11337 21372 39447 40419 51001
AAXX 24180 44314 32998 00000 11201 21234 39162 40340 54000
AAXX 24180 44317 32998 03203 11175 21194 38960 40338 54000
AAXX 24180 44336 329// 03001 11226 21249 38739 40461 51003
AAXX 24180 44341 329// 00000 11167 21206 38638 40399 53007
AAXX 24180 44347 32999 00000 11180 21214 38756 40396 55000
AAXX 24180 44352 32999 00000 11233 21251 38942 40365 51010
AAXX 24180 44358 329// 00000 11185 21197 39121 40360 50006
AAXX 24184 41288 36/// /0000 10206 20130 30148 40172 333 0E019 10258 59017
AAXX 24181 48840 32998 03201 10122 20088 30235 40241 52004 333 58019
AAXX 24184 47407 11/65 71716 11067 21142 39802 49979 58012 69901 72682 872//
AAXX 24184 47409 12975 12211 11061 21153 39895 49950 56011 60001 80001
AAXX 24184 47418 12980 02810 11045 21126 39928 49978 58013 60001
AAXX 24184 47421 17/70 /2710 11047 21119 39969 40014 56008 69951 72470
AAXX 24184 47430 11/56 73007 11058 21081 39973 40029 56001 69951 78588 873//
AAXX 24184 47570 17/60 /2804 11015 21037 39839 40106 50001 69901 77170
AAXX 24184 47575 11/50 82311 11050 21070 30056 40061 53004 69901 78582 883//
AAXX 24184 47584 11/20 82505 11045 21054 39875 40071 58004 69951 78682 883//
AAXX 24184 47604 11/60 82914 10019 21048 30107 40116 53001 69951 72682 882//
AAXX 24184 47605 11/08 83513 10004 21009 30104 40146 53011 60061 78682 882//
AAXX 24184 47610 11/65 80502 11017 21031 39605 40123 50006 69951 78582 882//
AAXX 24184 47624 12/80 13505 10019 21067 39955 40097 52008 60001 81400
AAXX 24184 47629 12980 03503 11004 21056 30047 40087 52012 60001
AAXX 24184 47636 11/60 72908 10026 21007 30065 40135 53005 69901 78381 872//
AAXX 24184 47651 13/// /2604 10031 21048 30116 40139 53005 60001
AAXX 24184 47655 15/70 /2818 10035 21031 30050 40108 55000 60001
AAXX 24184 47675 15/70 /2515 10068 20003 39991 40083 56003 60001
AAXX 24184 47741 11/30 82607 10007 21004 30149 40177 52002 60091 78582 882//
AAXX 24184 47746 11/08 82511 10006 21007 30151 40171 53001 60191 78688 882//
AAXX 24184 47750 11/56 81903 10006 21002 30128 40157 52002 60091 78582 882//
AAXX 24184 47765 11/65 53604 10009 21018 30133 40201 53005 69901 70380 85200
AAXX 24184 47772 12/80 22608 10030 21044 30059 40162 53004 60001 82800
AAXX 24184 47800 15/84 /3116 10021 21078 30241 40246 53007 60001
AAXX 24184 47815 11/70 22911 10034 21063 30204 40221 53012 69901 70280 82200
AAXX 24184 47817 11/70 83307 10047 21043 30197 40242 51009 69901 78582 882//
AAXX 24184 47830 12/70 12610 10034 21058 30197 40216 53007 60001 81400
AAXX 24184 47887 12/70 63209 10036 21069 30164 40207 53005 60001 86200
AAXX 24184 47891 12/65 22812 10033 21053 30163 40181 52002 60001 82200
AAXX 24184 47895 12/75 22809 10031 21048 30161 40169 53003 60001 82200
AAXX 24184 47927 11/70 70111 10153 20058 30189 40239 58002 69901 72582 878//
AAXX 24184 47401 11/12 82405 10004 21006 39868 49882 56014 60081 78588 883//
AAXX 24184 47412 12/60 71705 11046 21132 39958 49991 56012 60001 872//
AAXX 24184 47420 15/70 /2410 11051 21127 39936 49970 58010 60001
AAXX 24184 47426 17/29 /3114 11041 21070 39955 40004 56008 69901 77170
AAXX 24184 47582 11/60 73018 11024 21067 30064 40092 50001 60011 78588 873//
AAXX 24184 47590 11/70 13003 11013 21040 30030 40085 58002 69901 70281 81300
AAXX 24184 47600 17/70 /3209 10010 21054 30134 40142 50004 69951 77176
AAXX 24184 47648 12/80 13322 10057 21017 30041 40075 53009 60001 81200
AAXX 24184 47662 12980 03006 10034 21071 30045 40090 53013 60001
AAXX 24184 47678 17/70 /2810 10081 21006 39914 40103 54000 69901 72360
AAXX 24184 47740 17/26 /3206 10001 21010 30131 40167 53004 60011 78587
AAXX 24184 47778 15/70 /3113 10033 21016 30069 40155 53005 60001
AAXX 24184 47807 11/70 73217 10046 21060 30215 40234 51009 69901 70282 872//
AAXX 24184 47827 11/80 73605 10049 21007 30184 40224 51008 69901 72582 872//
AAXX 24184 47843 17/84 /3313 10055 21043 30217 40251 51010 69901 72386
AAXX 24184 47893 12/70 23203 10024 21072 30176 40182 51005 60001 82200
AAXX 24184 47909 11/65 73612 10137 20059 30207 40217 58001 60031 72582 872//
AAXX 24184 47918 12/65 70209 10150 20044 30223 40241 58001 60001 878//
AAXX 24184 47936 11/75 63616 10149 20031 30169 40229 53003 69901 70262 86870
AAXX 24184 47945 11/65 23412 10166 20037 30171 40196 51004 69901 70261 82800
AAXX 24184 47971 11/70 22906 10185 20111 30119 40129 58003 69901 70282 82200
AAXX 24184 47991 16/// /2110 10252 20229 30100 40110 58009 69901
AAXX 24181 48845 32798 80000 10136 20110 30227 40234 58001 885// 333 58020 88697
AAXX 24184 43466 22470 63405 10258 20216 30081 40093 82136 333 59003 60007 82818 86360
AAXX 24184 48500 31940 23610 10244 20173 30116 40122 52003 71000 80005 333 58030
AAXX 24184 40100 11556 61908 10151 20116 30089 40121 53008 60021 76096 86900 918// 333 10180 81920 85826 92436
AAXX 24184 40101 11530 80000 10069 20061 39051 48452 51008 60111 76266 889// 918// 333 10105 81923 87826
AAXX 24184 40103 31558 82210 10130 20090 40115 53004 72162 888// 333 10151 84824 85640 555 10185
AAXX 24184 40102 NIL
AAXX 24184 89514 32598 23406 10002 49806 52004 70100 82400 333 82620
AAXX 24181 56778 32660 81602 10059 20025 38134 57006 885// 333 05403 10061
AAXX 24181 57265 33/// 93601 10014 21037 30198 40312 52002 333 10131
AAXX 24181 58150 31950 02901 11028 21077 30311 40315 52003 70500 333 10064
AAXX 24181 58752 31958 02501 10038 21020 30270 40318 52008 70500 333 10130
AAXX 24181 59431 32962 02201 10032 20020 30118 40269 57001 333 10165
AAXX 24181 57816 31658 80202 10030 21019 38858 40287 57001 71000 885// 333 05302 10050
AAXX 24181 58457 32960 01801 10002 21078 30270 40325 52006 333 10091
AAXX 24181 58847 32961 03604 10065 21021 30194 40299 52002 333 10144
AAXX 24181 59134 32965 00205 10085 21019 30100 40272 52001 333 10144
AAXX 24181 59758 32964 00704 10143 20032 30157 40235 57004 333 10160
AAXX 24181 40703 12960 00000 11018 21044 38840 40135 53002 60001 333 55056
AAXX 24181 40712 11550 82002 10034 20029 38634 40145 52017 60011 78182 8532/ 333 55070 83925 83630 88458
AAXX 24181 40729 12960 00000 10010 21064 38302 40154 51007 60001 333 55073 21005
AAXX 24181 40736 12960 30804 10096 20075 30124 40098 58005 60001 83030 333 55063 83360
AAXX 24181 40739 12965 00000 10000 21090 38666 40190 51003 60001 333 55088
AAXX 24181 40743 12965 00102 10004 21063 39050 40190 51005 60001 333 55085
AAXX 24181 40762 12962 03003 11018 21160 38540 40195 51002 60001 333 55084
AAXX 24181 40768 12665 11906 10084 21040 38235 40129 52009 60001 81400 333 55091 21202 81640
AAXX 24181 40769 12660 50000 10090 21062 38282 40134 51005 60001 81570 333 55080 21132 81640 85360
AAXX 24181 40785 12960 00000 10048 21040 39060 40174 50005 60001 333 55073
AAXX 24181 40809 12960 11102 10008 21143 38498 40185 51010 60001 80001 333 55092 21257 81070
AAXX 24181 40821 12962 01502 10096 21123 38769 40161 51006 60001 333 55088 21296
AAXX 24181 40831 12960 01703 10174 20139 30136 40143 51002 60001 333 55078
AAXX 24181 56187 31958 80000 10038 20008 39640 40304 57002 71000 8807/ 333 05305 10107
AAXX 24181 57461 32960 03401 10040 21010 30160 40327 52002 333 10133
AAXX 24181 57516 31730 83201 10072 20043 39982 40301 52001 71000 885// 333 05401 10096
AAXX 24181 57687 32962 02201 10033 21039 30231 40318 52002 333 10121
AAXX 24181 58040 31957 00000 11037 21078 30301 40315 52006 71000 333 10060
AAXX 24181 58102 32970 01601 11009 21079 30271 40321 54000 333 10082
AAXX 24181 58221 31956 02501 11023 21053 30293 40322 52003 71000 333 10084
AAXX 24181 58238 32960 03601 11023 21078 30276 40322 52003 333 10080
AAXX 24181 58251 31930 00000 11032 21058 30309 40314 52003 71000 333 10065
AAXX 24181 58606 32960 01101 10024 21035 30255 40315 52006 333 10118
AAXX 24181 59117 32963 02001 10040 20000 30166 40276 52008 333 10151
AAXX 24181 59287 32965 10204 10071 21046 30183 40271 52004 80002 333 10156
AAXX 24181 59316 32962 03201 10101 20027 30252 40257 52006 333 10168
AAXX 24181 59644 31958 00203 10101 21004 30235 40252 57002 70500 333 10170
AAXX 24181 52533 32980 02201 11136 21188 38594 40376 57006 333 05200 11025
AAXX 24181 52652 32980 01601 11168 21218 38607 40375 57008 333 05200 11013
AAXX 24181 53588 32980 02705 11149 21211 37779 52002 333 11127 91119 91529
AAXX 24181 53772 32962 01401 11061 21139 39373 40334 57001 333 10030
AAXX 24181 53915 32980 02902 11065 21136 38739 40337 57003 333 05202 10030
AAXX 24181 54342 32960 00901 11185 21212 30258 40325 52015 333 11099
AAXX 24181 54511 31959 00201 11016 21147 30255 40297 52009 70500 333 10043
AAXX 24181 56080 32980 01801 11153 21208 37158 54000 333 05102 10011
AAXX 24181 56096 32775 80702 10011 21098 39023 40298 57005 885// 333 05302 10075
AAXX 24181 57494 32965 60000 11017 21020 30285 40316 57002 86030 333 10115
AAXX 24181 58362 31930 02701 11012 21045 30310 40319 52005 70500 333 10074
AAXX 24181 08501 32/// /1605 10172 20158 30276 40312 57009 333 10186 91008 91109
AAXX 24181 08505 32470 61404 10179 20144 30286 40336 56005 85802 333 10192 85814
AAXX 24181 08509 32460 21404 10166 20149 30279 40343 55003 82800 333 10184 81814
AAXX 24181 08512 32475 51104 10164 20150 30255 40341 57005 85800 333 10184 81814 85660
AAXX 24181 08515 11470 71205 10167 20151 30219 40341 55003 69932 78082 878// 333 10196 82818 87648 910// 911//
AAXX 24181 08533 32/// /0401 10106 20087 30252 40281 52009 333 10162
AAXX 24181 08541 32/// /0404 10125 20065 30169 40290 52007 333 10159 91106
AAXX 24181 08545 31965 03601 10096 20030 30246 40331 52003 70200 333 10148 91105
AAXX 24181 08548 32/// /0505 10116 20016 30106 40314 54000 333 10138 91009 91110
AAXX 24181 08554 32965 00000 10129 20083 30271 40281 52008 333 10159
AAXX 24181 08558 32/// /0403 10091 20034 39997 40297 52006 333 10157 91106
AAXX 24181 08560 32/// /0608 10065 20002 39557 40333 57002 333 10106 91014 91114
AAXX 24181 08567 32/// /0302 10063 20024 39676 40358 52001 333 10099
AAXX 24181 08570 32/// /0103 10094 20004 39852 40318 52005 333 10140 91006 91107
AAXX 24181 08575 32/// /0601 10055 20013 39530 40364 54000 333 10089
AAXX 24181 08579 NIL
AAXX 24181 50468 11970 63205 11222 21256 30043 40274 52007 69901 70070 80002 333 11217
AAXX 24181 50953 32965 02702 11228 21284 30112 40310 52008 333 11182
AAXX 24181 53513 32970 02901 11105 21180 39058 40340 57006 333 00000 11017
AAXX 24181 54337 32960 00401 11124 21186 30228 40317 52011 333 11044
AAXX 24181 54471 32960 00901 11102 21209 30310 40316 52007 333 11066
AAXX 24181 54497 32965 03603 11121 21245 30296 40313 52013 333 11050
AAXX 24181 57083 32966 02202 10023 21127 30165 40305 57004 333 10089
AAXX 24181 52983 32975 02201 11115 21157 38161 57001 333 05202 11014
AAXX 24181 54401 32965 03602 11089 21182 39418 40325 52003 333 11004
AAXX 24181 52418 32980 00904 11102 21155 38962 40358 57020 333 05405 11032
AAXX 24181 52681 32980 02701 11120 21203 38713 40363 54000 333 05251 10001
AAXX 24181 53564 32975 00000 11147 21175 39280 40362 57001 333 00100 11009
AAXX 24181 53959 32965 02001 11050 21104 39872 40333 57004 333 10056
AAXX 24181 57127 32961 81601 10018 21023 39694 40321 57002 8807/ 333 10083
AAXX 24181 57131 32965 00402 11017 21076 39824 40335 57003 333 10079
AAXX 24184 48386 31550 60000 10215 20174 30109 40154 52008 71022 81588 333 58031
AAXX 24181 53463 32962 00901 11120 21182 39034 40354 57002 333 00100 11046
AAXX 24181 54218 32970 03202 11146 21214 39480 40334 52008 333 11050
AAXX 24181 40703 12960 00000 11018 21044 38840 40135 53002 60001 333 55056
AAXX 24181 40712 11550 82002 10034 20029 38634 40145 52017 60011 78182 8532/ 333 55070 83925 83630 88458
AAXX 24181 40729 12960 00000 10010 21064 38302 40154 51007 60001 333 55073 21005
AAXX 24181 40736 12960 30804 10096 20075 30124 40098 58005 60001 83030 333 55063 83360
AAXX 24181 40739 12965 00000 10000 21090 38666 40190 51003 60001 333 55088
AAXX 24181 40743 12965 00102 10004 21063 39050 40190 51005 60001 333 55085
AAXX 24181 40762 12962 03003 11018 21160 38540 40195 51002 60001 333 55084
AAXX 24181 40768 12665 11906 10084 21040 38235 40129 52009 60001 81400 333 55091 21202 81640
AAXX 24181 40769 12660 50000 10090 21062 38282 40134 51005 60001 81570 333 55080 21132 81640 85360
AAXX 24181 40785 12960 00000 10048 21040 39060 40174 50005 60001 333 55073
AAXX 24181 40809 12960 11102 10008 21143 38498 40185 51010 60001 80001 333 55092 21257 81070
AAXX 24181 40821 12962 01502 10096 21123 38769 40161 51006 60001 333 55088 21296
AAXX 24181 40831 12960 01703 10174 20139 30136 40143 51002 60001 333 55078
AAXX 24184 17501 11560 51604 10130 20079 30077 40096 51007 60022 78081 84230 333 10166 84825 92437
AAXX 24184 17505 11560 52212 10121 20084 39992 40105 52007 60082 78082 84230 333 10164 84825
AAXX 24184 17530 11560 50000 10101 20081 30049 40106 52010 69912 70381 84230 333 10165 84825
AAXX 24181 51133 32980 00702 11082 21163 39577 40247 57010 333 05700 10015
AAXX 24181 53798 32962 02901 11019 21114 30202 40301 54000 333 10092
AAXX 24181 54423 32980 01101 11117 21171 39781 40326 52010 333 11016
AAXX 24181 54618 32962 52201 11021 21127 30279 40297 52002 80002 333 10056
AAXX 24181 50788 11970 22507 11216 21251 30096 40190 52004 69921 70070 80002 333 11207
AAXX 24181 53614 32970 01601 11109 21146 38999 40362 54000 333 00052 11001
AAXX 24181 53646 32970 00000 11101 21151 38938 40350 57003 333 00001 11017
AAXX 24181 53845 32965 02501 11084 21136 39176 40351 57004 333 05151 10034
AAXX 24181 54102 32980 32003 11205 21229 39076 40370 52005 80002 333 11155
AAXX 24181 54161 32960 00000 11245 21299 30004 40329 52011 333 11153
AAXX 24181 54292 32970 02907 11203 21299 39920 40268 52003 333 11150
AAXX 24181 54843 32970 02201 11034 21103 30281 40310 54000 333 10036
AAXX 24181 50136 32961 40000 11406 21455 39759 40384 52009 80002 333 11292
AAXX 24181 50774 11960 82703 11259 21292 39936 40276 52004 69911 77070 8802/ 333 11218
AAXX 24181 54094 32965 02702 11231 21293 39947 40278 52004 333 11178
AAXX 24181 54374 32962 00201 11226 21260 39816 40324 52015 333 11112
AAXX 24181 40656 12560 70000 10143 20087 40116 52010 60002 84052
AAXX 24181 40665 12960 31105 10180 20127 40142 52004 60002 80001
AAXX 24181 40670 12960 10000 10148 20087 40128 53007 60002 80002
AAXX 24181 40674 12960 00000 10144 20063 40129 51006 60002
AAXX 24181 40676 12960 01002 10168 20086 40130 52011 60002
AAXX 24181 40680 11558 40703 10165 20102 40131 53006 60002 70611 83202
AAXX 24181 40689 12960 01810 10172 20129 40146 53007 60002
AAXX 24181 40691 12960 00304 10176 20152 40162 50002 60002
AAXX 24181 40604 12960 00000 10095 20029 40133 52009 60002
AAXX 24181 40608 11557 71302 10117 20105 40140 52016 69952 70662 87500
AAXX 24181 40621 12560 51203 10144 20100 40166 52008 60002 85500
AAXX 24181 40623 11559 61203 10130 20034 40148 52006 60002 70500 86400
AAXX 24181 40629 12960 30000 10105 20028 40145 53004 60002 83030
AAXX 24181 40631 12960 00000 10122 20082 40146 53012 60002
AAXX 24181 40634 12960 00000 10100 20033 40130 51004 60002
AAXX 24181 40637 12960 30702 10160 20088 40143 52005 60002 80002
AAXX 24181 40642 12960 00000 10108 21016 40167 52010 60002
AAXX 24181 40650 12960 50000 10137 20094 40140 52012 60002 85800
AAXX 24184 88878 46/// /2220 10122 20086 40029 54000
AAXX 24184 88889 11586 52220 10125 20064 39954 40037 53001 69961 72165 85800 91750 333 83826 84650 90710 91129 91028
AAXX 24181 48830 32997 00000 10043 20036 39942 40270 52003 333 59002
AAXX 24181 48808 32998 00000 10058 20047 39968 40269 52007 333 59015
AAXX 24184 03896 16/// ///// 10091 60012 333 10110
AAXX 24184 NIL
AAXX 24184 83437 NIL
AAXX 24184 83550 31597 3//// 10298 20217 30105 40134 70301 83200 333 58004
AAXX 24184 83552 NIL
AAXX 24184 83565 NIL
AAXX 24184 83579 NIL
AAXX 24184 83592 NIL
AAXX 24184 83623 NIL
AAXX 24184 83630 NIL
AAXX 24184 83676 NIL
AAXX 24184 83698 32999 03606 10310 20220 30099 40113 56016
AAXX 24184 83702 NIL
AAXX 24184 83704 NIL
AAXX 24184 83716 NIL
AAXX 24184 83726 NIL
AAXX 24184 83738 31698 63603 10348 20204 39602 40083 57008 72990 869//
AAXX 24184 89667 46/// /0701 10036 39871 4//// 5////
AAXX 24184 NIL
AAXX 24184 NIL
AAXX 24183 87148 11220 82318 10163 20161 30069 40179 50004 60021 75165 886// 333 56599 88704
AAXX 24184 NIL
AAXX 24184 87007 NIL
AAXX 24184 87022 32560 81808 10195 20152 39664 40171 57007 885// 333 56499 88625
AAXX 24184 87046 11565 72308 10208 20132 39160 48544 57031 60011 70262 83570 333 56490 83620 86360
AAXX 24184 87047 11465 81802 10161 20110 38848 48561 57027 60051 70262 8512/ 333 56209 85810 88560
AAXX 24184 87097 32970 81810 10300 20215 39814 40120 57019 84076 333 56000 84360 88275
AAXX 24184 87121 32665 71407 10214 20113 39698 40214 57027 81130 333 56440 81835 87360
AAXX 24184 87129 NIL
AAXX 24184 87155 11240 81807 10175 20170 30109 40170 51004 60041 75196 886// 333 56499 88704
AAXX 24184 87162 11370 82315 10225 20216 30069 40137 51002 60301 72196 887// 333 56269 86708 88615
AAXX 24184 87166 11260 81612 10180 20167 30092 40165 50005 60041 72096 886// 333 56399 88706
AAXX 24184 87178 NIL
AAXX 24184 87217 32770 80512 10243 20133 39701 40190 57029 888// 333 56600 83850 85656
AAXX 24184 87222 32770 83608 10213 20077 39673 40195 57025 885// 333 56599 82640 88656
AAXX 24184 87257 32665 80914 10201 20088 30125 40230 57017 8117/ 333 56449 81840 88360
AAXX 24184 87270 11465 81812 10167 20132 30144 40207 58003 60021 70252 8472/ 333 56369 84710 88525 96453
AAXX 24184 87289 11256 81619 10158 20148 30117 40202 50007 69961 75055 8777/ 333 56309 87706 88360
AAXX 24184 87311 32965 21604 10250 20001 39510 40184 57025 80002 333 56006 82070
AAXX 24184 87320 32675 30503 10246 20081 39678 40210 57036 82109 333 56807 82845
AAXX 24184 87328 32780 32705 10265 20035 39550 40195 57024 82170 333 56000 82850 95000
BBXX 44067 24181 99384 70770 46/// /0606 10073 40293 58021 91800
BBXX 44032 24181 99437 70694 46/30 /3608 11055 40284 54000 91804 22200 00085 10402 70008 333 91212 555 11092 22096
AAXX 24184 89667 46/// /0501 10026 29050 39872 4//// 5////
AAXX 24184 83384 NIL
AAXX 24184 83386 NIL
AAXX 24184 83388 NIL
AAXX 24184 83393 NIL
AAXX 24184 83442 NIL
AAXX 24184 83479 NIL
AAXX 24184 83483 NIL
AAXX 24184 83531 NIL
AAXX 24184 83538 NIL
AAXX 24184 83574 NIL
AAXX 24184 83582 NIL
AAXX 24184 83595 NIL
AAXX 24184 83687 NIL
AAXX 24184 83692 NIL
AAXX 24184 83695 32698 21804 10340 20214 39987 40121 57020 82200
AAXX 24184 83718 NIL
AAXX 24181 48839 32997 00507 10152 20034 30169 40236 56004 222// 00170 2//// 333 58009
AAXX 24181 48826 31796 60502 10114 20074 30109 40250 51001 71022 865// 333 58019 86697
BBXX 46111 24181 99481 71227 46/// /1502 10079 40299 53009 91800 22200 00054
BBXX 46112 24181 99481 71227 46/// /1602 10071 40301 53009 91800
AAXX 24184 70133 12766 80303 11194 21239 30122 40130 51007 69901 91753 333 11194 21244 555 92418
AAXX 24184 70174 32966 00403 11311 21339 39865 40126 51011 91753 333 11206 21317 4/074 555 92418
AAXX 24184 70200 32966 00303 11294 21328 30110 40116 51007 91753 333 11211 21317 555 92418
AAXX 24184 70219 12666 43109 11272 21300 30039 40100 55003 69901 91753 333 11183 21272 4/003 555 92418
AAXX 24184 70231 32366 60000 11322 21350 39958 40096 52001 91753 333 11267 21344 4/097 555 92418
AAXX 24184 70261 32466 20000 11300 21322 39908 40092 52001 91753 333 11172 21317 555 92418
AAXX 24184 70267 32766 80000 11200 21217 39583 40097 57002 91753 333 11178 21217 555 92418
AAXX 24184 70271 12466 63103 11161 21178 39425 40037 58004 69931 91753 333 11139 21161 4/010 555 92418
AAXX 24184 70273 11112 8//05 11117 21133 39949 40009 58011 69901 710// 91753 333 11094 21139 4/063 555 92418
AAXX 24184 70316 11658 63113 11072 21106 30070 40106 50006 69931 771// 91753 333 11050 21072 91023 555 92418
AAXX 24184 70326 11564 83607 11144 21167 30025 40037 56011 69901 771// 91754 333 11144 21206 555 92418
AAXX 24184 70340 32266 83004 11167 21189 39985 40050 57006 91753 333 11144 21167 555 92418
AAXX 24184 70350 11561 83204 11039 21083 39952 49993 58009 69901 771// 91753 333 11039 21078 555 92418
AAXX 24184 70361 11316 /1105 10006 21006 39992 40003 56015 60031 771// 91753 333 10028 20000 96010 555 92418
AAXX 24184 70381 11459 81218 10033 20017 30051 40061 58029 60031 761// 91753 333 10039 20011 91022 96010 555 92418
AAXX 24184 70414 35566 60617 11006 21067 30139 40178 56006 91756 333 10006 21022 555 92418
AAXX 24184 NIL
AAXX 24184 NIL
AAXX 24184 NIL
AAXX 24184 NIL
AAXX 24184 82022 NIL
AAXX 24184 82193 NIL
AAXX 24184 82281 NIL
AAXX 24184 82332 NIL
AAXX 24184 82398 NIL
AAXX 24184 82400 NIL
AAXX 24184 82579 NIL
AAXX 24184 82917 32570 72803 1//// 2//// 39871 4//// 85230 333 59003
AAXX 24184 82965 NIL
AAXX 24184 82993 32570 71116 10276 20212 39995 40131 83151 333 58015
AAXX 24184 83208 NIL
AAXX 24184 83349 NIL
AAXX 24184 83362 NIL
AAXX 24184 83378 NIL
AAXX 24184 83460 32570 20713 10267 20213 30088 40144 82100 333 58008
AAXX 24184 83497 NIL
AAXX 24184 83566 NIL
AAXX 24184 83599 NIL
AAXX 24184 83612 NIL
AAXX 24184 83649 NIL
AAXX 24184 83650 NIL
AAXX 24184 83780 21556 82018 10212 20183 39236 48530 56010 79596 8593 0 333 60101
AAXX 24184 83827 NIL
AAXX 24184 83840 NIL
AAXX 24184 83899 NIL
AAXX 24184 83925 NIL
AAXX 24184 83970 NIL
AAXX 24184 83971 NIL
AAXX 24184 NIL
AAXX 24184 78526 32566 40716 10278 20206 30153 40173 58026 91756 333 10283 20250 91019 555 92418
AAXX 24184 78543 32566 20113 10283 20217 30088 40168 58025 91753 333 10294 20250 91020 555 92418
BBXX WDF7020 24184 99466 70870 41/97 81817 1//// 2//// 40183 57/// 702// 88/2/ 22263 0//// 20302 3//// 4//// 5//// 6//// 8//// ICE /////
BBXX C6VG7 24184 99232 70832 41698 51413 10258 2015/ 40190 57002 7//22 8325/ 22214 00270 20303 309// 4//// 5//// 6//// 80190 ICE /////
BBXX WFLH 24183 99330 71196 43698 22909 10156 20107 40298 52003 7//// 82//9 22254 00139 20801 330// 41203 5//// 6//// 80128 ICE /////
BBXX V7HC6 24184 99273 70907 41697 80825 10210 20195 40217 57020 70222 8874/ 222// 00222 2//// 3//// 4//// 5//// 6//// 80200 ICE /////
AAXX 24181 30372 41995 30000 11427 21456 39413 40449 52013 71000 80004
AAXX 24181 30433 42999 00000 11220 21246 39665 40313 52008
AAXX 24181 30554 419// 00000 11346 21368 39163 40412 52012 70171
AAXX 24181 30635 418// 21302 11222 21241 39696 40320 52013 70173 82030
AAXX 24181 30673 419// 01401 11403 21415 39510 40416 52008 71000
AAXX 24181 30692 41996 00000 11381 21403 39780 40358 52/// 71000
AAXX 24181 30758 41918 30000 11285 21317 39443 40366 52016 70571 80001
AAXX 24181 30802 42999 12603 11086 21177 38705 48493 52002 80001
AAXX 24181 30823 41999 00000 11141 21154 39630 40302 52014 70171
AAXX 24181 30879 42999 00000 11363 21384 39523 40405 52008
AAXX 24181 30935 42999 80000 11139 21182 39332 40320 52012 8807/
AAXX 24181 30949 42999 70000 11236 21249 39146 40343 53008 80006
AAXX 24181 30965 419// 71102 11316 21339 39448 40387 52004 77171 82042
AAXX 24181 31168 42999 80504 11113 21148 30281 40293 57001 8802/
AAXX 24181 31300 41974 80402 11187 21220 39958 40270 53005 77173 8802/ 333 91110
AAXX 24181 31329 42699 80000 11167 21201 39533 40241 52007 8653/
AAXX 24181 31369 41596 80106 11061 21076 30081 40167 58006 78582 8597/ 333 85917
AAXX 24181 31416 41998 83606 11128 21148 30124 40218 52003 77173 8802/ 333 91114
AAXX 24181 31484 41995 81402 11119 21132 39851 40202 53005 77372 8802/
AAXX 24181 31512 419// 73202 11217 21257 30086 40269 53009 70273 80001
AAXX 24181 31538 42998 21502 11267 21285 39753 40233 52008 80001
AAXX 24181 31707 42998 83410 11216 21256 30100 40199 53004 83071
AAXX 24181 31735 41595 82503 11188 21211 30049 40144 53004 78582 8692/ 333 86928
AAXX 24181 31770 41550 80212 11037 21055 39958 49988 57007 73683 889// 333 91120
AAXX 24180 44210 32999 00000 11235 21247 38576 56007
AAXX 24180 44216 32999 00000 11300 21323 39113 40541 58003
AAXX 24180 44217 32998 00000 11261 21279 37881 40531 58006
AAXX 24180 44219 329// 00000 11270 21288 38685 40502 56005
AAXX 24180 44221 329// 01603 11346 21364 38658 40582 57008
AAXX 24180 44224 329// 00000 11313 21342 38104 40576 54000
AAXX 24180 44229 32999 03602 11171 21221 37953 40402 58001
AAXX 24180 44242 329// 00000 11303 21334 39375 40417 52008
AAXX 24180 44243 329// 50000 11228 21254 39471 40388 51003 85070
AAXX 24180 44254 329// 02703 11182 21215 39047 40309 53007
AAXX 24180 44257 329// 02902 11250 21275 38988 40386 53002
AAXX 24180 44263 32998 00000 11242 21289 38098 40525 57006
AAXX 24180 44266 329// 03202 11173 21223 37791 40401 57009
AAXX 24180 44286 329// 02707 11148 21195 38666 40356 52004
AAXX 24180 44291 319// 01601 11321 21356 38779 40512 53003 70400
AAXX 24180 44325 329// 00901 11197 21223 38902 40409 52005
AAXX 24180 44329 32998 02703 11164 21206 37790 40404 56002
AAXX 24180 44338 32999 02704 11147 21190 38504 40360 52006
AAXX 24180 44348 329// 03205 11171 21183 38721 40353 51008
AAXX 24180 44374 32999 01803 11132 21207 38291 40399 53002
AAXX 24180 44385 32999 02703 11104 21188 38975 40358 53010
AAXX 24180 44386 329// 00000 11173 21207 39094 40355 52003
AAXX 24181 22271 11598 82408 10002 21015 39929 49939 53002 69960 70273 885// 333 11011 91118 92990
AAXX 24181 22520 32498 82303 10003 21011 39956 49965 57003 885// 333 10004 88619
AAXX 24181 22550 11443 82103 11028 21051 30004 40014 57011 60020 77172 8802/ 333 11024 88518
AAXX 24181 22583 32484 71602 11102 21115 39981 40064 57010 875// 333 11079 87613
AAXX 24181 22768 11497 81804 11062 21074 30029 40086 58011 69900 77071 885// 333 11066 88614
AAXX 24181 22845 NIL
AAXX 24181 22887 11597 71802 11115 21128 30057 40130 58005 69900 70281 8555/ 333 11105 85631 91105
AAXX 24181 23205 NIL
AAXX 24181 23219 32998 30902 11151 21170 39994 40105 57006 80001 333 11100
AAXX 24181 23418 11965 01603 11149 21169 30034 40112 58008 69940 70271 333 11110
AAXX 24181 23606 11960 62002 11119 21125 39943 40124 58004 69940 70271 86030 333 11104
AAXX 24181 23711 11598 61602 11093 21105 39965 40146 52001 69920 70282 83930 333 11088
AAXX 24181 23804 12997 32001 11136 21149 39983 40140 54000 69900 80001 333 11083
AAXX 24181 27037 12898 82601 11062 21085 39970 40136 57002 69900 8802/ 333 11058
AAXX 24181 27199 11998 82501 11136 21149 39958 40167 52003 69930 77172 8802/ 333 11076
AAXX 24181 27271 11597 70000 11157 21172 30005 40172 58002 69930 77171 85570 333 11114
AAXX 24181 27459 12498 82801 11083 21085 39986 40191 51003 69900 886// 333 11078 93400
AAXX 24181 27730 12998 82001 11064 21105 39999 40202 54000 69900 8803/ 333 11041
AAXX 24181 40701 12660 80000 10004 21028 38532 40148 53005 60001 885// 333 55021 88640
AAXX 24181 40704 12660 50000 10042 21013 38558 40119 51007 60001 84370 333 55045 20700 81940 83640
AAXX 24181 40708 12660 42209 10090 21029 38600 40085 52004 60001 81403 333 55065 20937 81640 83070
AAXX 24181 40710 12675 62708 10042 21030 38272 40136 50005 60001 82572 333 55005 82635 83068
AAXX 24181 40713 12660 31002 10030 21035 38619 40133 51006 60001 82301 333 55038 81935 81640
AAXX 24181 40719 11535 72602 10106 20094 30132 40122 53012 60001 71021 84570 333 55056 84620 87359
AAXX 24181 40731 12960 00702 10038 21042 38707 40159 52011 60001 333 55086 20988
AAXX 24181 40738 11908 00000 10056 20056 30123 40125 54000 60001 74200 333 55048
AAXX 24181 40740 12962 01402 10000 21030 38692 40155 54000 60001 333 55078
AAXX 24181 40747 12660 21803 10083 21033 38595 40149 51003 60001 82400 333 55070 20780 82640
AAXX 24181 40757 12965 00000 10022 21072 38883 40182 51005 60001 333 55085 21012
AAXX 24181 40763 12965 10000 10020 21052 38903 40188 53004 60001 80001 333 55082 81070
AAXX 24181 40782 11660 70902 10086 20053 38875 40185 51011 69951 70298 84370 333 55078 81935 83640 87359
AAXX 24181 40783 12665 20903 10062 21059 37976 40135 50002 60001 82500 333 55090 82640
AAXX 24181 40789 12965 00000 10044 21071 39183 40173 54000 60001 333 55086 21174
AAXX 24181 40798 12660 10000 10040 21057 37961 40192 51009 60001 81400 333 55090 2//// 81640
AAXX 24181 40818 12970 02903 10072 21092 37984 40166 53021 60001 333 55084
AAXX 24181 40827 11956 10000 10016 21109 38840 40238 51006 60001 70500 80001 333 55090 81070
AAXX 24181 40836 12965 01002 10058 21069 38205 40200 55012 60001 333 55095 21453
AAXX 24181 40851 12960 00000 10084 21092 38263 40150 50009 60001 333 55084
AAXX 24181 40853 12960 03302 10062 21157 37758 40152 52012 60001 333 55092
AAXX 24181 40854 12960 00000 10062 21123 38934 40147 53006 60001 333 55083
AAXX 24181 40857 11957 01102 10166 20138 30155 40164 51010 60001 71000 222// 00/// 20000 333 55085
AAXX 24181 40859 12965 00000 10042 21069 38718 40175 52012 60001 333 55093
AAXX 24181 40878 12960 00000 10084 21128 38842 40192 51007 60001 333 55095
AAXX 24181 40879 12960 03202 10107 21255 39488 40175 51007 60001 333 55100
AAXX 24181 40883 11956 03102 10184 20135 30137 40160 51010 60001 70500 333 55092
AAXX 24181 40898 12960 00000 10196 20029 30140 40149 51009 60001 222// 00234 10400 333 55098 2////
AAXX 24181 20107 11496 81507 11004 21010 39538 49629 52013 69932 78581 889// 333 10038 91009 91110
AAXX 24181 22113 14168 71906 10007 21004 39813 49875 52012 69932 78582 87900 333 10029 91009 91114
AAXX 24181 22217 11484 71703 10005 21006 39890 49922 52003 69902 70182 87900 333 10015 86630 91006
AAXX 24181 22235 11469 62403 11008 21018 39734 49927 51001 69962 78582 86900 333 10000 86912 91006
AAXX 24181 22349 11598 82310 10006 21008 39953 49965 57004 69972 70282 885// 333 10010 91013 91116
AAXX 24181 22408 11484 82302 10004 21013 39817 49966 52003 69922 72685 885// 333 10007 88615
AAXX 24181 22602 11158 82503 11002 21002 39761 49985 54000 69962 75652 886// 333 11002 88703 93401
AAXX 24181 22619 11258 82202 11010 21020 39840 40001 58005 60022 77172 8872/ 333 11009 87704
AAXX 24181 22721 11394 80000 11019 21021 39917 40019 57006 60032 77172 8872/ 333 11019 86709
AAXX 24181 22802 11450 81901 10000 20000 30005 40028 56003 60082 78582 889// 333 10001 93702
AAXX 24181 22820 11340 82104 11024 21036 39893 40033 57007 69972 77172 8872/ 333 11025 88707
AAXX 24181 26059 11396 82205 10001 21002 30036 40061 52001 60042 77172 8872/ 333 10001 87706 93603
AAXX 24181 26063 11496 82302 11003 21015 30047 40055 58003 60032 77172 8872/ 333 11003
AAXX 24181 26094 11458 82104 11032 21042 30008 40086 57003 60022 77172 8872/ 333 11028 88713
AAXX 24181 26157 11396 81905 10000 21003 30022 40072 52004 60022 71082 885// 333 10000 86707 93403
AAXX 24181 26167 11459 82003 11019 21021 39970 40084 57002 69972 76665 886// 333 11019 88710 93402
AAXX 24181 26258 11497 82002 11010 21017 30041 40097 53002 69962 76662 8872/ 333 11010 93403
AAXX 24181 26298 11497 82003 11045 21068 39894 40131 57009 69922 77772 886// 333 11044
AAXX 24181 26359 11471 81904 11024 21046 39987 40125 53002 69942 76686 8872/ 333 11024 93400
AAXX 24181 26702 11496 82602 10044 20037 30078 40104 52011 60072 76362 8802/ 333 10044 91004 91104
AAXX 24181 26781 12497 72203 11065 21085 39887 40193 57004 69902 875// 333 11057 87612
AAXX 24181 27208 12497 82003 11057 21075 39959 40142 58012 69902 886// 333 11044
AAXX 24181 27402 32497 81903 11060 21079 39982 40170 57009 886// 333 11047 88712
AAXX 24181 40716 12660 30000 10064 20013 38862 40142 51005 60001 81460 333 55045 81640 83359
AAXX 24181 40719 11535 72602 10106 20094 30132 40122 53012 60001 71021 84570 333 55056 84620 87359
AAXX 24181 40721 12960 00000 10138 21017 39584 40127 56002 60001 333 55062
AAXX 24181 40858 11956 00000 10152 20119 30152 40163 51007 60001 71000 91745 333 55091
AAXX 24181 40872 12960 00000 10182 20095 30159 40164 52013 60001 222// 00/// 20000 333 55092
AAXX 24181 40877 12960 00000 10108 21017 39580 40133 52003 60001 333 55096
AAXX 24181 40898 12960 00000 10196 20029 30140 40149 51009 60001 222// 00234 10400 333 55098 2////
AAXX 24181 40701 12660 80000 10004 21028 38532 40148 53005 60001 885// 333 55021 88640
AAXX 24181 40704 12660 50000 10042 21013 38558 40119 51007 60001 84370 333 55045 20700 81940 83640
AAXX 24181 40708 12660 42209 10090 21029 38600 40085 52004 60001 81403 333 55065 20937 81640 83070
AAXX 24181 40710 12675 62708 10042 21030 38272 40136 50005 60001 82572 333 55005 82635 83068
AAXX 24181 40713 12660 31002 10030 21035 38619 40133 51006 60001 82301 333 55038 81935 81640
AAXX 24181 40719 11535 72602 10106 20094 30132 40122 53012 60001 71021 84570 333 55056 84620 87359
AAXX 24181 40731 12960 00702 10038 21042 38707 40159 52011 60001 333 55086 20988
AAXX 24181 40738 11908 00000 10056 20056 30123 40125 54000 60001 74200 333 55048
AAXX 24181 40740 12962 01402 10000 21030 38692 40155 54000 60001 333 55078
AAXX 24181 40747 12660 21803 10083 21033 38595 40149 51003 60001 82400 333 55070 20780 82640
AAXX 24181 40757 12965 00000 10022 21072 38883 40182 51005 60001 333 55085 21012
AAXX 24181 40763 12965 10000 10020 21052 38903 40188 53004 60001 80001 333 55082 81070
AAXX 24181 40782 11660 70902 10086 20053 38875 40185 51011 69951 70298 84370 333 55078 81935 83640 87359
AAXX 24181 40783 12665 20903 10062 21059 37976 40135 50002 60001 82500 333 55090 82640
AAXX 24181 40789 12965 00000 10044 21071 39183 40173 54000 60001 333 55086 21174
AAXX 24181 40798 12660 10000 10040 21057 37961 40192 51009 60001 81400 333 55090 2//// 81640
AAXX 24181 40818 12970 02903 10072 21092 37984 40166 53021 60001 333 55084
AAXX 24181 40827 11956 10000 10016 21109 38840 40238 51006 60001 70500 80001 333 55090 81070
AAXX 24181 40836 12965 01002 10058 21069 38205 40200 55012 60001 333 55095 21453
AAXX 24181 40851 12960 00000 10084 21092 38263 40150 50009 60001 333 55084
AAXX 24181 40853 12960 03302 10062 21157 37758 40152 52012 60001 333 55092
AAXX 24181 40854 12960 00000 10062 21123 38934 40147 53006 60001 333 55083
AAXX 24181 40857 11957 01102 10166 20138 30155 40164 51010 60001 71000 222// 00/// 20000 333 55085
AAXX 24181 40859 12965 00000 10042 21069 38718 40175 52012 60001 333 55093
AAXX 24181 40878 12960 00000 10084 21128 38842 40192 51007 60001 333 55095
AAXX 24181 40879 12960 03202 10107 21255 39488 40175 51007 60001 333 55100
AAXX 24181 40883 11956 03102 10184 20135 30137 40160 51010 60001 70500 333 55092
AAXX 24181 40898 12960 00000 10196 20029 30140 40149 51009 60001 222// 00234 10400 333 55098 2////
AAXX 24181 40701 12660 80000 10004 21028 38532 40148 53005 60001 885// 333 55021 88640
AAXX 24181 40704 12660 50000 10042 21013 38558 40119 51007 60001 84370 333 55045 20700 81940 83640
AAXX 24181 40708 12660 42209 10090 21029 38600 40085 52004 60001 81403 333 55065 20937 81640 83070
AAXX 24181 40710 12675 62708 10042 21030 38272 40136 50005 60001 82572 333 55005 82635 83068
AAXX 24181 40713 12660 31002 10030 21035 38619 40133 51006 60001 82301 333 55038 81935 81640
AAXX 24181 40719 11535 72602 10106 20094 30132 40122 53012 60001 71021 84570 333 55056 84620 87359
AAXX 24181 40731 12960 00702 10038 21042 38707 40159 52011 60001 333 55086 20988
AAXX 24181 40738 11908 00000 10056 20056 30123 40125 54000 60001 74200 333 55048
AAXX 24181 40740 12962 01402 10000 21030 38692 40155 54000 60001 333 55078
AAXX 24181 40747 12660 21803 10083 21033 38595 40149 51003 60001 82400 333 55070 20780 82640
AAXX 24181 40757 12965 00000 10022 21072 38883 40182 51005 60001 333 55085 21012
AAXX 24181 40763 12965 10000 10020 21052 38903 40188 53004 60001 80001 333 55082 81070
AAXX 24181 40782 11660 70902 10086 20053 38875 40185 51011 69951 70298 84370 333 55078 81935 83640 87359
AAXX 24181 40783 12665 20903 10062 21059 37976 40135 50002 60001 82500 333 55090 82640
AAXX 24181 40789 12965 00000 10044 21071 39183 40173 54000 60001 333 55086 21174
AAXX 24181 40798 12660 10000 10040 21057 37961 40192 51009 60001 81400 333 55090 2//// 81640
AAXX 24181 40818 12970 02903 10072 21092 37984 40166 53021 60001 333 55084
AAXX 24181 40827 11956 10000 10016 21109 38840 40238 51006 60001 70500 80001 333 55090 81070
AAXX 24181 40836 12965 01002 10058 21069 38205 40200 55012 60001 333 55095 21453
AAXX 24181 40851 12960 00000 10084 21092 38263 40150 50009 60001 333 55084
AAXX 24181 40853 12960 03302 10062 21157 37758 40152 52012 60001 333 55092
AAXX 24181 40854 12960 00000 10062 21123 38934 40147 53006 60001 333 55083
AAXX 24181 40857 11957 01102 10166 20138 30155 40164 51010 60001 71000 222// 00/// 20000 333 55085
AAXX 24181 40859 12965 00000 10042 21069 38718 40175 52012 60001 333 55093
AAXX 24181 40878 12960 00000 10084 21128 38842 40192 51007 60001 333 55095
AAXX 24181 40879 12960 03202 10107 21255 39488 40175 51007 60001 333 55100
AAXX 24181 40883 11956 03102 10184 20135 30137 40160 51010 60001 70500 333 55092
AAXX 24181 40898 12960 00000 10196 20029 30140 40149 51009 60001 222// 00234 10400 333 55098 2////
AAXX 24181 26997 31/08 92001 11094 21094 39999 40232 58001 74942 333 11084
AAXX 24181 27595 12597 82903 11088 21101 30031 40182 52006 69920 8850/ 333 11035 88627
AAXX 24181 27612 124// 82101 11054 21079 39986 40187 56001 69902 887// 333 11030
AAXX 24181 27707 31445 82702 11103 21109 39906 40217 58001 71022 886// 333 11061 88715
AAXX 24181 27719 12997 72403 11050 21086 39955 40215 58003 69902 87030 333 11034
AAXX 24181 27786 12597 82302 11056 21070 30027 40194 52003 69900 885// 333 11023 88621
AAXX 24181 27857 11997 82901 11077 21095 30042 40213 52005 69930 70272 8802/ 333 11042
AAXX 24181 27906 31995 81802 11071 21076 39971 40225 53002 71022 8802/ 333 11054
AAXX 24181 27928 32597 70000 11053 21074 30008 40223 52009 875// 333 11049
AAXX 24181 27947 12497 70000 11080 21098 30049 40217 51001 69930 875// 333 11051 87613
AAXX 24181 27962 11497 80000 11052 21066 40203 52012 69920 77172 885// 333 11036 88610
AAXX 24181 27983 11567 70000 11051 21061 30057 40190 54000 69900 70272 875// 333 11011 87627
AAXX 24181 27995 11471 82401 11049 21052 40197 52003 69920 70272 8802/ 333 11036
AAXX 24181 28506 12997 81501 11055 21067 30056 40172 54000 69950 8807/ 333 11056
AAXX 24181 28704 11996 82701 11056 21061 30084 40183 52003 69920 71022 8807/ 333 11050 88400
AAXX 24181 28711 11297 82502 11085 21090 39794 40184 52004 69930 72272 886// 333 11087 88706
AAXX 24181 28807 11296 80000 11054 21064 30143 40196 53002 69920 77172 886// 333 11048 88705
AAXX 24181 34009 12597 60000 11056 21070 39905 40223 52004 69902 86500 333 11030
AAXX 24181 34110 32897 60402 11081 21099 39931 40224 57007 86030 333 11032
AAXX 24181 34123 12597 80402 11051 21092 30025 40216 51003 69900 885// 333 11051 88620
AAXX 24181 34152 32470 73502 11044 21053 39999 40203 52004 875// 333 11036
AAXX 24181 34163 12498 82002 11055 21066 40213 52016 60020 885// 333 11029 88620
AAXX 24181 34171 11560 89901 11038 21056 39998 40197 51003 60010 70272 885// 333 11022 88628
AAXX 24181 34186 11575 82301 11056 21067 30058 40202 52003 60020 70272 8802/ 333 11044 88524
AAXX 24181 34247 32567 80303 11033 21068 30090 40207 52007 885// 333 11016 88622
AAXX 24181 34336 32598 80303 11028 21051 30095 40202 52007 8531/ 333 11012
AAXX 24181 34391 11496 80000 11059 21063 30167 40199 52001 69930 77177 887// 333 11043 88517 93505
AAXX 24181 35011 11950 80000 11077 21007 40193 57003 69900 77172 8802/ 333 11082
AAXX 24181 35121 32598 70000 11158 21194 30044 40201 58004 87500 333 11170 87623
AAXX 24181 22028 32581 72613 10016 21015 39830 49867 52011 86930 333 10018 91017 91123
AAXX 24181 22106 11496 82301 10002 21004 39807 49884 52014 60022 78581 889// 333 10021 86919 91004
AAXX 24181 22127 32998 00502 11049 21081 39694 49896 52005 333 10008 91003
AAXX 24181 22324 11584 21905 10007 21004 39885 49934 58003 69902 70181 82500 333 10012 91008 91110
AAXX 24181 22621 11498 72204 11012 21022 39855 49994 58005 69982 72683 87900 333 11009 84915
AAXX 24181 22831 11496 72203 11024 21033 39995 40055 57006 60032 78582 87900 333 11021
AAXX 24181 22892 11496 82004 10016 20011 30014 40030 57002 60102 76176 8802/ 333 10016 88510
AAXX 24181 26275 12498 81805 11025 21051 30079 40110 57003 69902 885// 333 11025 88614
AAXX 24181 26389 31496 82002 11052 21069 39870 40142 57004 71022 886// 333 11045
AAXX 24181 26499 12497 72005 11066 21090 39932 40171 57008 69902 87500 333 11052 87613
AAXX 24181 26695 32397 82203 11071 21088 39881 40203 53001 886// 333 11059 88710
AAXX 24181 26882 32484 72502 11072 21085 39923 40212 58002 87500 333 11050 87611
AAXX 24184 91165 12566 40517 10222 20183 30182 40217 53013 69901 91753 555 92418
AAXX 24184 91182 11566 40715 10222 20178 30198 40203 53011 69981 761// 91753 333 10244 20211 555 92418
AAXX 24184 91190 32666 40506 10211 20161 30188 40209 53009 91754 333 10217 20194 555 92418
AAXX 24184 91212 32666 20910 10267 20200 31338 40076 56006 91754 333 10289 20250 91017 555 92418
AAXX 24184 91285 12666 42306 10178 20156 30195 40209 53013 60041 91753 333 10217 555 92418
AAXX 24184 91348 32474 80809 10278 20225 30010 40063 55002 85101 333 562/9 70064 555 92418
AAXX 24181 28676 329// 00601 11197 21216 30071 40208 57012 333 11116
AAXX 24181 28766 319// 41902 11198 21209 39998 40203 57011 71011 80001 333 11146
AAXX 24181 28867 32998 00000 11190 21223 39912 40203 57012 333 11145
AAXX 24181 28879 329// 01202 11164 21208 39906 40213 57012 333 11051
AAXX 24181 28952 329// 00000 11192 21211 39996 40202 57009 333 11146
AAXX 24181 28966 329// 01503 11178 21219 39906 40210 57009 333 11121
AAXX 24181 29802 329// 01302 11209 21234 30100 40256 57010 333 11140
AAXX 24181 29807 329// 01301 11190 21216 30112 40240 57024 333 11145
AAXX 24181 34691 32998 20501 11094 21134 30190 40177 52008 80002 333 11034
AAXX 24181 35067 329// 00401 11230 21261 39908 40210 57016 333 11112
AAXX 24181 35078 329// 00702 11221 21250 39811 40223 57017 333 11148
AAXX 24181 35085 329// 00000 11166 21215 39721 40228 57017 333 11069
AAXX 24181 35108 319// 80000 11079 21106 30152 40200 58002 71022 885// 333 11071
AAXX 24181 35188 319// 01601 11129 21176 39766 40222 57014 70400 333 11035
AAXX 24181 35217 325// 80501 11133 21168 30154 40195 52003 885// 333 11137
AAXX 24181 35229 329// 80601 11144 21169 39894 40182 57008 8807/ 333 11138
AAXX 24181 35302 325// 80702 11085 21113 30177 40199 52003 885// 333 11087
AAXX 24181 35357 329// 01403 11234 21259 39751 40226 57007 333 11110
AAXX 24181 35394 32998 01202 11095 21190 39526 40227 57012 333 11020
AAXX 24181 35406 329// 00402 11162 21196 30184 40186 52003 333 11115
AAXX 24181 35416 329// 53403 11174 21209 30056 40185 53003 81075 333 11101
AAXX 24181 35426 329// 80901 11114 21149 39868 40172 57005 8802/ 333 11115
AAXX 24181 35497 329// 01103 11054 21160 39404 40216 54000 333 11047 91012
AAXX 24181 35532 32998 81603 11104 21148 39670 40180 53014 8802/ 333 11124
AAXX 24181 35671 32998 00000 11210 21231 39757 40222 57007 333 11091
AAXX 24181 35700 32998 00402 11120 21126 30192 40167 52001 333 11064
AAXX 24181 35746 NIL
AAXX 24181 35796 32997 00404 11162 21196 39791 40254 57008 333 11073
AAXX 24181 35849 NIL
AAXX 24181 35925 NIL
AAXX 24181 35953 NIL
AAXX 24181 35969 NIL
AAXX 24181 36003 32998 01502 11199 21226 30087 40251 57014 333 11137
AAXX 24181 36152 319// 01406 11189 21230 30061 40266 57016 73630 333 11139
AAXX 24181 36177 329// 01104 11171 21211 30033 40297 57012 333 11144
AAXX 24181 36208 329// 01002 11118 21158 39289 40314 53006 333 11057
AAXX 24181 36397 319// 01616 11172 21209 39726 40329 56004 73633 333 11147 91020 91120
AAXX 24181 36428 329// 00000 11275 21300 39810 40369 57009 333 11196 95090
AAXX 24181 36535 329// 00000 11309 21338 39676 40396 57008 333 11218
AAXX 24181 36639 329// 01801 11153 21190 39626 40266 57008 333 11062
AAXX 24181 36821 329// 00000 11152 21176 39720 40239 57005 333 11060
AAXX 24181 36859 329// 03401 11104 21143 39444 40260 58003 333 10014
AAXX 24181 36864 329// 00000 11135 21132 39300 40243 57006 333 11006
AAXX 24181 36870 319// 00000 11060 21095 39178 40218 57001 70400 333 10000
AAXX 24181 38001 NIL
AAXX 24181 38062 NIL
AAXX 24181 38069 NIL
AAXX 24181 38196 80000 10005 21092 39186 40167 56005 80002 333 10081
AAXX 24181 38198 329// 70705 11041 21067 39900 40165 57001 87070 333 11004
AAXX 24181 38222 32997 00000 11117 21144 39625 40212 58014 333 11038
AAXX 24181 38232 NIL
AAXX 24181 38328 325// 81603 10057 21058 39434 40152 56001 8557/ 333 10085 91115
AAXX 24181 38334 32998 30903 10030 21108 39207 40163 57003 80001 333 10070
AAXX 24181 38341 32997 61802 11034 21085 39388 40188 57006 84042 333 10031
AAXX 24181 38343 32997 00000 11064 21096 39333 40201 57007 333 10064
AAXX 24181 38439 32598 81306 10026 21026 39815 40153 58005 8357/ 333 10028
AAXX 24181 38598 426// 60912 11023 21017 40191 57006 82531 333 91017
AAXX 24181 38599 NIL
AAXX 24181 38725 NIL
AAXX 24181 38734 415// 80904 11072 21085 47050 53010 78582 85903
AAXX 24181 38744 426// 50000 11116 21169 38040 48570 52001 85500
AAXX 24181 38836 326// 60000 10007 21036 39258 40217 51002 86900 333 10100
AAXX 24181 38838 429// 00502 11005 21026 39508 40197 57013
AAXX 24181 38844 426// 62703 11037 21108 48500 58002 84902
AAXX 24181 38846 416// 80503 11086 21101 38492 48460 53004 71022 83933
AAXX 24181 38847 429// 73406 10082 21098 40209 54000 81033
AAXX 24181 38932 NIL
AAXX 24181 38933 329// 00000 10006 21027 39683 40211 53005 333 10082
AAXX 24181 38944 329// 00202 11018 21040 39608 40160 52005 333 10079
AAXX 24181 38954 329// 80000 11048 21251 37992 48580 52002 80001 333 11037
AAXX 24184 91245 32566 4//// 10260 20240 30127 91755 555 92418
AAXX 24181 28676 329// 00601 11197 21216 30071 40208 57012 333 11116
AAXX 24181 28766 319// 41902 11198 21209 39998 40203 57011 71011 80001 333 11146
AAXX 24181 28867 32998 00000 11190 21223 39912 40203 57012 333 11145
AAXX 24181 28879 329// 01202 11164 21208 39906 40213 57012 333 11051
AAXX 24181 28952 329// 00000 11192 21211 39996 40202 57009 333 11146
AAXX 24181 28966 329// 01503 11178 21219 39906 40210 57009 333 11121
AAXX 24181 29802 329// 01302 11209 21234 30100 40256 57010 333 11140
AAXX 24181 29807 329// 01301 11190 21216 30112 40240 57024 333 11145
AAXX 24181 34691 32998 20501 11094 21134 30190 40177 52008 80002 333 11034
AAXX 24181 35067 329// 00401 11230 21261 39908 40210 57016 333 11112
AAXX 24181 35078 329// 00702 11221 21250 39811 40223 57017 333 11148
AAXX 24181 35085 329// 00000 11166 21215 39721 40228 57017 333 11069
AAXX 24181 35108 319// 80000 11079 21106 30152 40200 58002 71022 885// 333 11071
AAXX 24181 35188 319// 01601 11129 21176 39766 40222 57014 70400 333 11035
AAXX 24181 35217 325// 80501 11133 21168 30154 40195 52003 885// 333 11137
AAXX 24181 35229 329// 80601 11144 21169 39894 40182 57008 8807/ 333 11138
AAXX 24181 35302 325// 80702 11085 21113 30177 40199 52003 885// 333 11087
AAXX 24181 35357 329// 01403 11234 21259 39751 40226 57007 333 11110
AAXX 24181 35394 32998 01202 11095 21190 39526 40227 57012 333 11020
AAXX 24181 35406 329// 00402 11162 21196 30184 40186 52003 333 11115
AAXX 24181 35416 329// 53403 11174 21209 30056 40185 53003 81075 333 11101
AAXX 24181 35426 329// 80901 11114 21149 39868 40172 57005 8802/ 333 11115
AAXX 24181 35497 329// 01103 11054 21160 39404 40216 54000 333 11047 91012
AAXX 24181 35532 32998 81603 11104 21148 39670 40180 53014 8802/ 333 11124
AAXX 24181 35671 32998 00000 11210 21231 39757 40222 57007 333 11091
AAXX 24181 35700 32998 00402 11120 21126 30192 40167 52001 333 11064
AAXX 24181 35746 NIL
AAXX 24181 35796 32997 00404 11162 21196 39791 40254 57008 333 11073
AAXX 24181 35849 NIL
AAXX 24181 35925 NIL
AAXX 24181 35953 NIL
AAXX 24181 35969 NIL
AAXX 24181 36003 32998 01502 11199 21226 30087 40251 57014 333 11137
AAXX 24181 36152 319// 01406 11189 21230 30061 40266 57016 73630 333 11139
AAXX 24181 36177 329// 01104 11171 21211 30033 40297 57012 333 11144
AAXX 24181 36208 329// 01002 11118 21158 39289 40314 53006 333 11057
AAXX 24181 36397 319// 01616 11172 21209 39726 40329 56004 73633 333 11147 91020 91120
AAXX 24181 36428 329// 00000 11275 21300 39810 40369 57009 333 11196 95090
AAXX 24181 36535 329// 00000 11309 21338 39676 40396 57008 333 11218
AAXX 24181 36639 329// 01801 11153 21190 39626 40266 57008 333 11062
AAXX 24181 36821 329// 00000 11152 21176 39720 40239 57005 333 11060
AAXX 24181 36859 329// 03401 11104 21143 39444 40260 58003 333 10014
AAXX 24181 36864 329// 00000 11135 21132 39300 40243 57006 333 11006
AAXX 24181 36870 319// 00000 11060 21095 39178 40218 57001 70400 333 10000
AAXX 24181 38001 NIL
AAXX 24181 38062 NIL
AAXX 24181 38069 NIL
AAXX 24181 38196 80000 10005 21092 39186 40167 56005 80002 333 10081
AAXX 24181 38198 329// 70705 11041 21067 39900 40165 57001 87070 333 11004
AAXX 24181 38222 32997 00000 11117 21144 39625 40212 58014 333 11038
AAXX 24181 38232 NIL
AAXX 24181 38328 325// 81603 10057 21058 39434 40152 56001 8557/ 333 10085 91115
AAXX 24181 38334 32998 30903 10030 21108 39207 40163 57003 80001 333 10070
AAXX 24181 38341 32997 61802 11034 21085 39388 40188 57006 84042 333 10031
AAXX 24181 38343 32997 00000 11064 21096 39333 40201 57007 333 10064
AAXX 24181 38439 32598 81306 10026 21026 39815 40153 58005 8357/ 333 10028
BBXX UBQE6 24181 99235 70175 41998 00408 10017 2//// 40230 58005 70122 80000 22254 00015 20301 39999 49999 59999
BBXX A8GU5 24184 99113 70215 41797 60623 10260 20186 40120 58/// 70222 85019 22284 20501 305// 40804 80210
BBXX 3FMV6 24183 99314 30160 41498 61827 10200 20167 40108 54000 70322 84770 22234 06200 21006 80180
BBXX C6IO9 24184 99185 70224 41798 82713 10215 20157 40187 53015 70322 8/01/ 22253 06222 20502 309// 41003 5//// 80180
BBXX PBDH 24184 99111 10608 41/97 /0225 10230 40132 51/// 78088 8//// 22234 04270 2//04 304// 42003
BBXX C6VR5 24183 99286 70320 41598 41123 10220 20189 40279 51/// 70200 83165 22224 04224 2//// 311// 41006 80200
BBXX UBAU 24181 99125 70176 41798 80608 10250 40143 54000 70222 8807/ 22211 04245 20301
BBXX ZIPR7 24183 99293 30417 41598 41628 10242 20209 40172 51008 70111 844// 22214 00257 2//// 3//// 4//// 5//// 80220
BBXX DDIG2 24184 99079 50806 41498 31814 10230 20199 40110 50000 7//00 83200 22244 04180 20301 80210 40802 80160
BBXX ELUC5 24183 99170 51143 41698 21120 10250 20250 40175 53016 70222 82415 22224 06220 20903 30000 80250
BBXX SBLI 24181 99316 11422 43/97 82925 10122 40081 56010 22263 00201 2//// 4//// NNNN 426621110
BBXX DGTX 24183 99338 11371 41497 33227 10075 20007 40120 51025 70111 81145 22254 00180 20504 80045
BBXX 2ALD3 24183 99075 11356 41697 60610 10260 20246 40048 54000 78000 85796 22234 04290 20101 80250
BBXX DGBE 24183 99355 11461 41/96 80818 10075 20055 40060 57030 76366 8//// 22214 00200 2//// 80065
BBXX DGZR2 24183 99118 11099 41/96 73633 10225 20180 40120 51010 70222 8//// 22283 00240 20309 80195
BBXX A8QR9 24183 99111 11131 41395 821// 10260 20253 40100 5/000 70055 877// 22213 20710 80255
AAXX 24181 08521 32470 60205 10185 20102 30221 40292 56005 86800 333 10195 84816 84630
AAXX 24181 08524 32470 70205 10167 20143 30197 40295 57002 87800 333 10191 84814 85630 91110
AAXX 24181 08579 32/// /2403 10134 20043 30174 40300 52006 333 10157 91107
AAXX 24184 60107 32560 60604 10142 20100 40274 53011 86800 333 10169 83816 85626 95310
AAXX 24184 60127 32960 00000 10140 20057 39666 40264 53010 333 10211
AAXX 24184 60210 32970 01604 10152 21047 39063 48585 53001 333 10192
AAXX 24184 60101 32458 40709 10133 20110 40274 52001 84200 333 10172 84816
AAXX 24184 60115 32565 33606 10121 20089 40281 53015 83200 333 10174 83820
AAXX 24184 60150 31412 83502 10093 20084 39604 40271 52005 71042 886// 333 10141 88710
AAXX 24184 60156 15557 10206 10128 20098 40268 53004 60002 81500 333 10166 81620
AAXX 24184 60230 15956 02504 10144 20102 40244 53002 60002 333 10201
AAXX 24184 60252 12458 32604 10143 20105 40239 53002 60002 83500 333 10198 83616 95800
AAXX 24184 78988 01468 61214 10246 20229 30124 40135 57022 69931 78011 86400 333 58009 69927 84815 84650
AAXX 24184 78990 01470 41017 10276 20237 30134 40141 57029 60051 71581 84831 333 58007 60127 84816
AAXX 24184 78873 NIL
AAXX 24184 41978 31431 63305 10170 20150 30119 40126 70500 83530 333 56990 58001 70000 83615 86362
AAXX 24184 60340 32560 10608 10130 20104 40287 53011 81100 333 10164 81820
BBXX PHIN 24184 99463 70298 41296 82136 10168 20142 40196 58045 70362 887// 22263 00140 20510 80152
BBXX PCAW 24183 99359 10297 41/98 /3030 10144 20084 40090 53008 70392 8//// 22263 00148 20305 80111 90743
BBXX A8IP3 24183 99457 70268 41296 82125 10150 20142 40268 53003 74144 887// 22214 04140 20606 327// 41105 80145
BBXX MGGK4 24180 99414 70111 41598 30317 10135 20072 40340 52008 70211 8/5// 22284 00158 2//// 3//// 4//// 5//// 80104
BBXX OXBB2 24181 99484 70072 41/97 /2614 10138 20077 40310 52010 70022 8//// 22254 00120 299// 80105
BBXX 62023 24183 99514 70079 46/96 /2430 10105 2//// 40273 5//// 22200 10607 70036 333 91140 555 70059 80016
BBXX WKPF 24183 99376 70150 41597 83619 10145 2009/ 40333 54000 70200 886// 22235 00175 20202 307// 40604 5//// 6//// 80115 ICE /////
BBXX DPOG 24184 99410 70107 41/98 30418 10160 20081 40350 55005 70111 8//// 22245 2//// 80120
BBXX TFKGR 24184 99657 70136 46/// ///// 22200 10605 70023
BBXX TFSRT 24184 99633 70203 46/// ///// 22200 11016 70081
BBXX TFDRN 24184 99658 70212 46/// ///// 22200 10706 70028
BBXX TFGRV 24184 99638 70225 46/// ///// 22200 11212 70060
BBXX TFBKF 24184 99635 70202 46/// ///// 22200 10809 70046
BBXX TFGSK 24184 99641 70229 46/// ///// 22200 10911 70056
BBXX TFBLK 24184 99657 70248 46/// ///// 22200 10707 70033
BBXX TFGRS 24184 99663 70182 46/// ///// 22200 10503 70017
BBXX TFSTD 24184 99664 70234 46/// ///// 22200 10606 70030
BBXX LAHV 24181 99589 10057 43/// /1808 10067 20050 40072 222// 04080 1////
BBXX LF4H 24184 99596 10022 46/// /2232 10078 20069 49992 57024 8//// 22200 06084 10707 70035 333 91142
BBXX UFJN 24181 99724 10483 41/98 82114 11030 49854 54000 70022 88/// 22200 0//// 20502
BBXX PHQW 24183 99340 70136 41297 80222 10160 20090 40280 54000 70222 887// 22283 00185 20201 303// 40604 80121 90743
BBXX UCKD 24181 99547 70002 41/97 92215 10112 40136 57020 70211 89/// 22213 00090 20603
BBXX DDSC2 24183 99455 70159 41298 82516 10130 20063 40360 56010 70200 8677/ 22264 00137 20402 329// 41006 80095
BBXX UANA 24181 99697 10468 41/92 81819 10009 49892 57002 76565 80020 22241 00017 21016
BBXX UBEF5 24181 99361 70044 41098 01206 10160 40292 54000 70200 80000 22263 00170 2////
BBXX UCKG 24181 99668 10030 41/97 92315 10030 49700 57093 72122 22252 00020 20404 322// 40808
BBXX UCJB 24181 99715 10283 41/98 /2812 10050 49823 52030 70222 8//// 22223 00100 20503
BBXX 44255 24181 99473 70573 46/// /3210 11070 40172 52004 22200 00038 10604 70018 333 91214
BBXX VCXF 24184 99464 70484 41497 83332 10008 2102/ 40089 52044 70222 884// 22200 02022 20504 320// 40806 81002
BBXX ELQQ4 24184 99357 70748 43697 43209 10150 2013/ 40240 56020 7//// 841// 22244 00220 29902 3//// 4//// 5//// 6//// 80140 ICE /////
BBXX VQKR7 24184 99349 71223 41098 11003 10130 20111 40304 55030 70200 80105 22233 04120 20403 31800 40403 80120
BBXX 42085 24181 99179 70665 46/// /1010 10273 40153 91750 333 91212
BBXX 42085 24181 99179 70665 46/// /1010 10273 40152 58024 91800 22200 00274 10703 70017 333 91212
BBXX 41053 24181 99185 70661 46/// /0807 10268 40165 91750 333 91209
BBXX 41053 24181 99185 70661 46/// /0707 10268 40164 58025 91800 22200 00273 10903 70016 333 91209
BBXX 41053 24181 99185 70661 46/// /0807 10268 40167 91740 333 91209
BBXX SKOZ 24184 99512 70392 43/92 93430 10053 49847 56056 22214 00092 2//// 40706
BBXX SMGW 24181 99343 71623 43/98 11711 10156 40288 55001 22224 00194 20404 41309
BBXX SJCD 24181 99541 71622 43/97 43314 11046 40095 53012 22263 00050
BBXX 44150 24181 99425 70640 46/// /0411 10031 40203 57001 22200 00104 11005 70023 333 91214
BBXX 44139 24181 99442 70571 46/// /0007 10031 40171 54000 22200 00090 10705 70027 333 91209
BBXX WSRH 24184 99272 71481 41498 20513 10200 2015/ 40262 52002 7//00 811/3 22254 00200 20402 308// 40503 5//// 6//// 80172 ICE /////
BBXX WCDP 24184 99422 70563 41497 73313 10170 2//// 40175 52030 70222 8668/ 22264 00153 2//// 3//// 4//// 5//// 6//// ICE /////
BBXX WFLH 24183 99330 71196 43698 22909 10156 20107 40298 52003 7//// 82//9 22254 00139 20801 330// 41203 5//// 6//// 80128 ICE /////
BBXX PHCQ 24183 99299 70902 41/// /0803 10128 20075 40267 58000 7//// 8//// 22200 00087 20000 3//// 4//// 5//// 80100
BBXX SHIP 24184 99434 70538 41298 73420 10049 20005 40130 52005 76022 8676/ 22264 04090 20505 327// 41207 80030
BBXX A8EH3 24183 99556 71360 41/97 81545 10080 20038 49990 57030 76066 887// 22274 04070 20909 315// 41010 80060
BBXX C6LU4 24184 99313 70743 41394 83417 10195 2019/ 40212 58015 76065 8532/ 22284 20405 3//// 4//// 5//// 80190
BBXX 5BDK2 24184 99276 70846 43/// 60513 10240 2020/ 40280 5//// 7//// 8//// 22263 00220 2//// 3//// 4//// 5//// 6//// 80210 ICE /////
BBXX A8XD5 24184 99415 71533 41297 53205 10090 20049 40260 51000 70322 8/768 22223 2//// 326// 40810 80070
BBXX WDF2960 24184 99293 71350 41498 81115 10189 20135 40252 57008 70222 8847/ 22264 0//// 20201 311// 40604 5//// 6//// 80156 ICE /////
BBXX FLAO 2418/ 99764 70847 46/// ///// 11373 49991 57001
BBXX C6KD4 24183 99235 70550 41598 40520 10242 20192 40203 56014 70211 83570 22254 04252 20705 399// 40904 80210
BBXX DHEE 24183 99103 70788 41598 60727 10295 20194 40110 58010 70211 8548/ 22254 00290 20904 308// 41206 80225
BBXX C6KD6 24184 99306 70578 41598 31404 10225 20159 40231 57038 700// 81161 22214 02224 20704 313// 41204 80185
BBXX OWFD2 24181 99159 70685 41/97 /0512 10280 20239 40150 55010 70311 8/71/ 22254 04270 20404 306// 40404 80250
BBXX DMRX 24184 99313 71187 41998 00108 10164 20122 40278 54000 70200 80000 22234 00160 2//// 329// 41204 80139
BBXX PCBT 24183 99298 70413 41598 61122 10229 20183 40210 54000 70222 85318 22214 20604 305// 41004 80198
BBXX DHBN 24181 99339 71327 41598 71808 10165 20104 40292 51012 70222 8/4// 22224 00170 2//// 3//// 4//// 5//// 80130
BBXX C6KD8 24183 99346 70364 41398 81615 10201 20172 40275 57010 70322 87778 22254 02205 20803 311// 40904 5//// 80183
BBXX PJFF 24184 99210 70588 41599 70620 10310 20230 40210 54000 70311 877// 22254 04250 20402 324// 40803 80252
BBXX 9V8797 24184 99022 11018 43/98 80323 10265 40100 58008 22234 00287 2//// 4////
BBXX SLKR 24183 99203 51535 43/98 30618 10334 40158 51011 22254 00287 2//// 4////
BBXX PFBF 24184 99124 31683 41397 53011 10280 20267 40050 51005 70311 8447/ 22233 02282 20104 312// 40204 5//// 80270
BBXX C6HS4 24183 99117 30824 41697 51706 10280 20253 40080 5/010 76066 84566 22273 20302 80260
BBXX VRWW8 24184 99381 31782 41697 72113 10150 20116 40239 55004 76000 8//// 22283 00180 2//// 3//// 4//// 5//// 80130
BBXX VMAL 24183 99374 31332 41/98 71419 10160 20137 40135 57015 70222 87/// 22223 20204 80147
BBXX 9HA2479 24184 99223 31672 46/// /0640 10233 20226 39989 40018 57023 22222 04257 85228
BBXX C6FS9 24184 99391 31452 46/// /0907 10183 20169 30047 40083 57015 22263 04179 85174
BBXX VNSZ 24184 99406 31461 46/// /1215 10177 20169 30065 40091 52011 22236 85172
BBXX ZCBU6 24184 99412 31648 41498 40415 10167 20137 40219 56003 70222 83100 22274 00185 2//// 3//// 4//// 5//// 80150
BBXX 3ECI3 24184 99412 31748 41397 22202 10140 20122 40239 54000 70200 82101 22200 00160 20000 30000 80130
BBXX PCAM 24183 99348 31645 41598 70914 10189 20142 40188 56013 70211 874// 22273 20503 307// 40804 80160
BBXX VRAE3 24184 99023 31417 41697 33509 10290 20260 40056 51007 70303 8313/ 22234 00310 2//// 3//// 4//// 5//// 80270
BBXX PCDE 24183 99244 31534 41597 31604 10220 20183 40040 57020 7//11 824// 22273 20405 329// 40405 80195
BBXX PCCL 24183 99343 31726 41497 40912 10160 40200 54000 70322 84/4/ 22253 04181 20501 323// 41003
BBXX KAOU 24184 99007 10818 43/// /3212 10282 20244 40083 5//// 7//// 8//// 222// 04288 2//// 3//// 4//// 5//// 6//// 8//// ICE /////
BBXX UCKZ 24181 99683 30761 42598 70706 11007 21046 49784 52007 87500 22243 00015 20301 ICE 27290
BBXX 46083 24181 99582 71380 46/// /1313 10049 20028 49988 58050 91750 22200 00066 11008 20504 300// 41007 70039 333 91215 555 11135 22144 31713 41517 61749 126125 130121 138122 151140 154136 151136 81515 91712
BBXX 46001 24181 99563 71480 46/// /3310 10025 49947 57006 91750 22200 00046 11509 20403 300// 41508 70043 333 91213 555 11106 22112 31731 43413 61749 328099 322100 327099 327099 329096 327099
BBXX 41041 24181 99142 70460 46/// /0806 10264 20210 40140 56015 91750 22200 00265 11104 20502 3//// 41103 70018 333 91208 555 11065 22069 31719 40908 61749 081062 079060 085063 086064 084061 081060 80907 91720
BBXX 46042 24181 99368 71224 46/// /1006 10103 40303 57005 91750 22200 00130 11608 20401 330// 41607 70038 333 91208 555 11063 22065 31738 41108 61749 098061 097061 094054 089051 085047 086048
BBXX 44011 24181 99411 70666 46/// /3310 10031 21032 40224 54000 91750 22200 00091 10705 20704 3//// 40903 70026 333 91212 555 11102 22107 31732 41613 61749 333098 334107 336102 341108 338103 338102
BBXX 41046 24181 99238 70683 46/// /0806 10247 20190 40214 58018 91750 22200 00255 10904 20502 300// 40904 70022 333 91207 555 11062 22065 31659 40908 61749 084058 090059 092062 093064 091062 093066 81007 91653
BBXX 42364 24181 99291 70881 46/// /0408 10156 20122 40264 58014 91800
BBXX 42363 24181 99282 70892 46/// /0714 10183 20144 40254 58007 91800 333 91215
BBXX 46053 24181 99342 71198 46/// /1001 10134 40292 53006 91750 22200 00134 11702 329// 41702 70010 333 91201 555 11006 22007 31652 40702 61749 092006 055012 038009 040006 065010 063017
BBXX 46089 24181 99459 71258 46/// /1809 10095 20093 40291 55000 91750 22200 00094 11307 20703 327// 41306 70034 333 91210 555 11094 22101 31657 41811 61749 178087 178090 182089 181092 181091 181092
BBXX 44008 24181 99405 70692 46/// /3511 10035 21016 40250 51003 91750 22200 00113 333 91214 555 11114 22119 31740 43614 61749 353108 355108 359103 359108 358103 353101
BBXX NWS0022 24184 99416 70714 43/// /0110 10019 21086 40285 5//// 7//// 8//// 222// 04105 2//// 3//// 4//// 5//// 6//// 8//// ICE /////
BBXX NWS0020 24184 99305 70445 43/// /0714 10213 20174 40213 5//// 7//// 8//// 222// 04223 2//// 3//// 4//// 5//// 6//// 8//// ICE /////
BBXX WAZV 24184 99505 71314 41/// 91725 10085 20081 40141 57051 75054 22272 00080 21004 399// 4//// 5//// 6//// 80083 ICE 0////
BBXX NWS0029 24184 99415 70707 43/// /0107 11005 21081 40281 5//// 7//// 8//// 222// 04078 2//// 3//// 4//// 5//// 6//// 8//// ICE /////
BBXX NWS0003 24184 99539 71665 43/// /0000 11029 21071 40135 5//// 7//// 8//// 222// 0//// 2//// 3//// 4//// 5//// 6//// 8//// ICE /////
AAXX 24184 60360 12562 72909 10129 20094 40269 53005 60002 878// 333 10166 82830 86546 95990
AAXX 24184 60390 12560 39902 10121 20105 40298 53005 60002 82830 333 10164 82820 95990
AAXX 24184 60402 12556 80000 10126 20115 40289 53006 60002 889// 333 10149 83820 81926 86640 95990
AAXX 24184 60419 11457 83105 10081 20066 40291 51005 69922 70262 878// 333 10121 84813 87623 95990
AAXX 24184 60475 12560 73010 10083 20060 39300 48548 56003 60002 878// 333 10109 83826 86833 95990
AAXX 24184 60490 12565 40603 10121 20078 40286 53006 60002 84500 333 10162 84620 95990
AAXX 24184 60525 12965 00000 10157 20055 40246 55001 60002 333 10196 95990
AAXX 24184 60531 12560 30000 10120 20101 40294 53013 60002 83500 333 10162 83626 95990
AAXX 24184 60566 12960 00000 10125 20035 40275 53004 60002 333 10173
AAXX 24184 60571 12965 00000 10150 20020 39318 48563 53000 60002 333 10190 95900
AAXX 24184 60580 12960 00000 10151 20091 40258 53003 60002 333 10201
AAXX 24184 60590 12960 00000 10138 20065 40269 51004 60002 333 10185
AAXX 24184 60611 12860 20304 10128 20018 40245 52010 60002 81031 333 10171 81358
AAXX 24184 60620 12960 00208 10172 20005 40225 56006 60002 333 10210
AAXX 24184 60630 12960 00615 10182 20046 40212 53005 60002 333 10221
AAXX 24184 60656 12975 20803 10206 20021 40220 57006 60002 80002 333 10238 82073
AAXX 24184 60670 12975 00000 10124 21016 39110 48542 53013 60002 333 10178 95990
AAXX 24184 60680 12970 01106 10135 21033 38665 48539 53012 60002 333 10198 95990
AAXX 24184 60351 11458 80000 10125 20116 40276 51007 69932 76066 888// 333 0//11 10170 84816 87633 95990
AAXX 24184 60355 NIL
AAXX 24184 60445 12458 73005 10075 20057 39104 48569 53004 60002 872// 333 10099 82710 86826 95990
AAXX 24184 60468 12560 73306 10091 20067 39313 48569 53004 60002 872// 333 10104 87823 95990
AAXX 24184 60507 12960 00608 10088 20074 40302 53012 60002 333 10150 95990
AAXX 24184 60511 12960 00000 10045 20031 39143 48561 53006 60002 333 10103 95990
AAXX 24184 60535 12970 03606 10070 20036 38910 48565 53010 60002 333 10113 95900
AAXX 24184 60536 12960 00000 10094 20076 39389 48556 50005 60002 333 10146 95990
AAXX 24184 60549 11960 00000 10091 20016 38989 48577 55000 60002 70200 333 10132 95990
AAXX 24184 60550 12960 00000 10075 20029 38737 48570 53005 60002 333 10115 95990
AAXX 24184 60555 NIL
AAXX 24184 60559 12960 00000 10138 20053 40263 53006 60002 333 10196
AAXX 24184 60581 12960 00000 10142 20064 40263 53004 60002 333 10200
AAXX 24184 60602 12960 01002 10164 20041 40249 53001 60002 333 10197 95990
AAXX 24184 60607 NIL
AAXX 24184 60640 12960 00708 10144 20017 40247 53010 60002 333 10188
AAXX 24184 60690 NIL
BBXX SBLW 24183 99145 70961 43/98 23619 10281 40142 50002 22274 00291 20602 41004
AAXX 24184 60360 12562 72909 10129 20094 40269 53005 60002 878// 333 10166 82830 86546 95990
AAXX 24184 60390 12560 39902 10121 20105 40298 53005 60002 82830 333 10164 82820 95990
AAXX 24184 60402 12556 80000 10126 20115 40289 53006 60002 889// 333 10149 83820 81926 86640 95990
AAXX 24184 60419 11457 83105 10081 20066 40291 51005 69922 70262 878// 333 10121 84813 87623 95990
AAXX 24184 60475 12560 73010 10083 20060 39300 48548 56003 60002 878// 333 10109 83826 86833 95990
AAXX 24184 60490 12565 40603 10121 20078 40286 53006 60002 84500 333 10162 84620 95990
AAXX 24184 60525 12965 00000 10157 20055 40246 55001 60002 333 10196 95990
AAXX 24184 60531 12560 30000 10120 20101 40294 53013 60002 83500 333 10162 83626 95990
AAXX 24184 60566 12960 00000 10125 20035 40275 53004 60002 333 10173
AAXX 24184 60571 12965 00000 10150 20020 39318 48563 53000 60002 333 10190 95900
AAXX 24184 60580 12960 00000 10151 20091 40258 53003 60002 333 10201
AAXX 24184 60590 12960 00000 10138 20065 40269 51004 60002 333 10185
AAXX 24184 60611 12860 20304 10128 20018 40245 52010 60002 81031 333 10171 81358
AAXX 24184 60620 12960 00208 10172 20005 40225 56006 60002 333 10210
AAXX 24184 60630 12960 00615 10182 20046 40212 53005 60002 333 10221
AAXX 24184 60656 12975 20803 10206 20021 40220 57006 60002 80002 333 10238 82073
AAXX 24184 60670 12975 00000 10124 21016 39110 48542 53013 60002 333 10178 95990
AAXX 24184 60680 12970 01106 10135 21033 38665 48539 53012 60002 333 10198 95990
BBXX AVMI 24183 99330 31517 41398 20109 10190 20/// 40186 54002 70202 82010 22201 00213
AAXX 24184 60351 11458 80000 10125 20116 40276 51007 69932 76066 888// 333 0//11 10170 84816 87633 95990
AAXX 24184 60355 NIL
AAXX 24184 60445 12458 73005 10075 20057 39104 48569 53004 60002 872// 333 10099 82710 86826 95990
AAXX 24184 60468 12560 73306 10091 20067 39313 48569 53004 60002 872// 333 10104 87823 95990
AAXX 24184 60507 12960 00608 10088 20074 40302 53012 60002 333 10150 95990
AAXX 24184 60511 12960 00000 10045 20031 39143 48561 53006 60002 333 10103 95990
AAXX 24184 60535 12970 03606 10070 20036 38910 48565 53010 60002 333 10113 95900
AAXX 24184 60536 12960 00000 10094 20076 39389 48556 50005 60002 333 10146 95990
AAXX 24184 60549 11960 00000 10091 20016 38989 48577 55000 60002 70200 333 10132 95990
AAXX 24184 60550 12960 00000 10075 20029 38737 48570 53005 60002 333 10115 95990
AAXX 24184 60555 NIL
AAXX 24184 60559 12960 00000 10138 20053 40263 53006 60002 333 10196
AAXX 24184 60581 12960 00000 10142 20064 40263 53004 60002 333 10200
AAXX 24184 60602 12960 01002 10164 20041 40249 53001 60002 333 10197 95990
AAXX 24184 60607 NIL
AAXX 24184 60640 12960 00708 10144 20017 40247 53010 60002 333 10188
AAXX 24184 60690 NIL
BBXX 46207 24181 99509 71299 46/// /1711 10086 40154 57007 22200 00082 11206 70031 333 91214
AAXX 24184 91945 36/// /0814 10284 20222 30171 40176 51012
BBXX 46207 24181 99509 71299 46/// /1711 10086 40154 57007 22200 00082 11206 70031 333 91214
AAXX 24181 34560 11997 50903 11026 21027 30020 40191 52011 69900 70242 85030 333 11001
AAXX 24181 34720 31599 70403 10010 21003 30106 40146 52012 75165 87600 333 10003
AAXX 24181 34730 11496 80807 10006 21007 30056 40150 52010 69940 71086 8332/ 333 10018
AAXX 24181 34740 32998 31005 11008 21041 30047 40145 52014 81031 333 10044
AAXX 24181 34824 11596 80503 10025 20020 30112 40118 52008 60030 76066 8872/ 333 10031
AAXX 24181 34858 31996 01303 11026 21053 30051 40162 52016 71011 333 10028
AAXX 24181 34866 32998 01103 11051 21080 30183 40173 51012 333 10002
AAXX 24181 34880 32997 00402 11069 21123 30204 40176 52009 333 11031
AAXX 24181 37018 11597 82103 10093 20079 30023 40098 53011 60050 78088 8697/ 333 10097
AAXX 24181 37054 32496 81104 10005 21007 39754 40144 52011 885// 333 10032
AAXX 24181 37472 31596 80302 10020 21014 30172 40149 52015 71022 8563/ 333 10039
AAXX 24181 22282 NIL
AAXX 24181 22438 NIL
AAXX 24181 22471 11484 82006 11042 21065 39973 49997 57008 60010 70273 885// 333 11044 88611
AAXX 24181 22563 11496 82104 11050 21063 39986 40025 57013 69900 78582 883// 333 11052 86915
AAXX 24181 22641 11397 81804 11023 21032 39995 40011 57010 60020 77183 8672/ 333 11010 86707 91107
AAXX 24181 22695 12998 21403 11169 21181 39949 40112 58008 69900 82030 333 11091
AAXX 24181 22867 12498 81802 11052 21073 39988 40105 57008 69900 886// 333 11055 88713 91106
AAXX 24181 22939 11496 82005 11053 21071 39936 40103 57008 69900 77173 8872/ 333 11040 84714
AAXX 24181 22996 11596 61901 11128 21148 39952 40153 52002 69900 71082 83920 333 11081
AAXX 24181 23324 12981 22003 11144 21157 30031 40113 57005 69920 80001 333 11106
AAXX 24181 27008 11497 81803 11049 21055 39931 40106 57010 69920 77172 8772/ 333 11037
AAXX 24181 27051 12497 82101 11100 21113 39960 40135 57007 69930 8655/ 333 11085 86616
AAXX 24181 27225 12463 82203 11057 21083 30017 40152 58005 69900 885// 333 11039 88619
AAXX 24181 27252 12597 82001 11098 21110 39969 40164 58003 69900 885// 333 11094 88621
AAXX 24181 27333 12984 82102 11056 21074 39999 40162 57003 69900 8805/ 333 11049
AAXX 24181 27369 11997 83101 11095 21102 30039 40184 52002 69900 77172 8801/ 333 11093
AAXX 24181 27393 12998 42302 11156 21169 30002 40181 52005 69920 82031 333 11057
AAXX 24181 27479 11496 82802 11082 21096 30048 40188 52007 69920 77172 8872/ 333 11065 88711
AAXX 24181 27532 11996 82103 11055 21069 39962 40182 58002 69900 71072 8807/ 333 11056
AAXX 24181 27648 11396 82301 11075 21081 30027 40204 54000 69900 71022 886// 333 88707
AAXX 24181 27675 12597 82803 11094 21101 30021 40199 52003 69900 885// 333 11041 88620
AAXX 24181 27679 12598 83402 11088 21099 39967 40201 52003 69960 885// 333 11037 88622
AAXX 24181 28214 11996 82701 11080 21090 39945 40165 52007 60020 77172 8802/ 333 11070
AAXX 24181 48892 32598 70207 10254 20221 30098 40103 58008 878// 333 58017 82895 86697
AAXX 24181 48877 32598 63609 10223 20162 30148 40153 58005 868// 333 58028 82895 86697
AAXX 24181 48887 32998 70202 10222 20159 30103 40109 58001 80008 333 58019 87299
AAXX 24181 48920 32698 60215 10263 20234 30088 40091 58010 869// 333 58014 82996 84697 91120 91502
AAXX 24181 48870 32498 63607 10217 20151 30164 40171 58005 868// 333 58029 83894 85696
AAXX 24181 45032 36/// /1201 10059 21009 30238 40255 54000
AAXX 24181 45035 36/// /0404 10098 21042 30212 40256 54000
AAXX 24181 45039 36/// /0303 10111 21031 30234 40250 52001
AAXX 24181 45044 36/// /0106 10097 21011 30147 40245 57001
AAXX 24181 22165 NIL
AAXX 24181 22676 12484 81804 11087 21094 39997 40078 58010 69900 885// 333 11115
AAXX 24181 22837 11457 81502 11034 21045 30001 40073 57007 69980 77172 8872/ 333 11028 86710
AAXX 24181 22954 31397 81905 11061 21072 39855 40112 57007 77772 886// 333 11055 88707
AAXX 24181 23405 12575 81302 11136 21156 39971 40076 57011 69900 885// 333 11146 88633
AAXX 24181 23412 11397 81402 11140 21162 30001 40104 58005 69950 77172 8672/ 333 11116 86707
AAXX 24181 23803 12999 80000 11122 21135 39960 40149 51005 69930 8805/ 333 11088
AAXX 24181 27066 12598 72101 11151 21157 39971 40160 58002 69900 87530 333 11091 85620
AAXX 24181 27083 32584 82402 11118 21131 39915 40150 58002 885// 333 11114
AAXX 24181 27113 11458 82103 11055 21073 39978 40129 57005 69900 77187 8872/ 333 11044 86710
AAXX 24181 27242 11498 82501 11060 21068 30026 40159 57001 69900 70381 889// 333 11065 88914
AAXX 24181 27329 11584 82303 11057 21072 30037 40167 57001 69900 70272 885// 333 11038
AAXX 24181 27355 12497 81802 11084 21090 30010 40182 58004 69930 885// 333 11077
AAXX 24181 27373 11996 80000 11131 21144 39949 40181 52003 69940 77171 8807/ 333 11103
AAXX 24181 27665 12997 82501 11090 21115 39920 40204 52002 69930 8802/ 333 11065
AAXX 24181 27835 329// 70000 11104 21124 30049 40217 54000 875// 333 11051 87627
AAXX 24181 28009 11498 52501 11108 21121 39945 40166 52009 69980 70282 85500 333 11071
AAXX 24181 28411 11397 81602 11063 21071 39967 40167 58001 60020 77172 8872/ 333 11063 88708
AAXX 24181 28418 12597 82101 11063 21075 39997 40169 58011 69930 885// 333 11064 88626
AAXX 24183 87480 32965 01108 10232 20014 30206 40236 57020
AAXX 24184 87344 32965 50906 10216 20035 39682 40232 57029 85070 333 56070 85360
AAXX 24184 87349 32470 30000 10230 20031 39866 40261 56013 83800 333 56000 81818
AAXX 24184 87371 32962 21815 10248 20065 30216 40237 57017 82070 333 56030 82360
AAXX 24184 87374 32565 41114 10220 20059 30138 40227 57021 82106 333 56000 82822 83270
AAXX 24184 87395 32965 71416 10219 20077 30170 40216 58009 87070 333 56040 87360
AAXX 24184 87418 32665 50502 10268 20017 39408 40196 57020 83870 333 56660 82645 83360
AAXX 24184 87436 32670 53208 10254 20040 39381 40184 57020 85500 333 56800 85640
AAXX 24184 87448 32965 10518 10250 20063 39654 40220 57028 81050 333 56070 81360
AAXX 24184 87453 32965 00215 10220 20035 39738 40229 57025
AAXX 24184 87467 32970 11410 10216 20041 30113 40250 57019 80006 333 56009 81270
AAXX 24184 87497 32565 21412 10221 20069 30205 40232 57013 82100 333 56300 82830
AAXX 24184 87506 31562 50208 10191 20020 38634 48557 57020 70511 85800 333 56600 82632 83836 95035
AAXX 24184 87509 32670 20912 10226 20027 39361 40216 57021 57021 82500 333 56000 82640
AAXX 24184 87532 32970 01402 10232 20037 30070 40242 57025
AAXX 24184 87534 32960 00504 10239 20040 30080 40244 57027
AAXX 24184 87548 32960 11109 10224 21007 30148 40245 57019 80003 333 56007 81070
AAXX 24184 87576 32660 21411 10238 20042 30224 40247 57016 81401 333 56306 81645
AAXX 24184 87582 32960 10907 10204 20070 30241 40248 57016 80001 333 56007 81070
AAXX 24184 87585 32560 23607 10216 20095 30214 40244 57016 81106 333 56100 81825
BBXX 3ERR2 24184 99635 10053 41495 82054 10058 20049 49831 57084 76386 8672/ 22200 06096 10811 70057 333 91166
BBXX LF3F 24184 99643 10078 43/// /1725 10058 20006 49878 57057 22200 04088 10811 70057 333 91141
BBXX LF3N 24184 99653 10073 41496 82039 10067 20045 49813 57081 78082 889// 22200 00092 10810 70049
BBXX LF4B 24184 99606 10037 47/95 /2136 10075 49970 57039 781// 22200 00066 10710 70050 333 91142
BBXX LF4C 24184 99584 10019 41497 82333 10092 20068 40029 57027 76262 889// 22200 00079 10709 70043 333 91138
BBXX LF5T 24184 99660 10081 414// /1929 10065 20034 49825 57064 702// 22200 06082 10910 70050 333 91138
AAXX 24181 45032 36/// /1201 10059 21009 30238 40255 54000
AAXX 24181 45035 36/// /0404 10098 21042 30212 40256 54000
AAXX 24181 45039 36/// /0303 10111 21031 30234 40250 52001
AAXX 24181 45044 36/// /0106 10097 21011 30147 40245 57001
BBXX A8AX3 24183 99050 70105 41597 11406 10300 40112 54000 70000 81100 22234 2//// 316// 40502
BBXX BATFR08 24184 99284 30661 46/// /0917 10222 20142 40226 51006 22273 00230
BBXX BATFR19 24184 99066 30057 46/// /1816 10239 20202 40111 53009 22200 00255
BBXX BATFR55 24184 99068 30395 44598 10710 10282 20257 40111 70000 81100 22232 00287 205// 32121 407// 507//
BBXX A8QJ7 24184 99288 70159 41598 70515 10195 20124 40248 58006 7//22 86870 22283 20502 3//// 4//// 5//// 80155
BBXX A8GU5 24184 99113 70215 41797 60623 10260 20186 40120 58/// 70222 85019 22284 20501 305// 40804 80210
BBXX UBQE6 24181 99235 70175 41998 00408 10017 2//// 40230 58005 70122 80000 22254 00015 20301 39999 49999 59999
BBXX 41101 24184 99146 70562 46/// /0715 10265 20214 40134 57022 22200 00270 10704 70022
BBXX BAREU05 24184 99456 70735 46/// ///// 40350 22200
BBXX BAREU04 24184 99419 70663 46/// ///// 40224 52003 22252
BBXX BATFR16 24184 99241 70525 44698 40617 10257 20192 40191 56017 70300 84430 22254 00257 20904 304// 40904 5////
BBXX FVNM 24184 99089 70795 46/// /2802 10302 20234 40086 58026 22200 00279
BBXX PBBB 24183 99383 70552 41596 83311 10180 20151 40130 52010 70282 8/893 22263 00200 20406 322// 41209 5//// 80162
BBXX A8EH3 24183 99556 71360 41/97 81545 10080 20038 49990 57030 76066 887// 22274 04070 20909 315// 41010 80060
BBXX SHIP 24184 99434 70538 41298 73420 10049 20005 40130 52005 76022 8676/ 22264 04090 20505 327// 41207 80030
BBXX PHCQ 24183 99299 70902 41/// /0803 10128 20075 40267 58000 7//// 8//// 22200 00087 20000 3//// 4//// 5//// 80100
AAXX 24184 48375 32560 40000 10220 20164 39896 40125 52001 81146 333 58015
AAXX 24184 60353 NIL
AAXX 24184 60367 11558 7//// 10138 20087 40264 56002 60054 76062 878// 333 10165 83820 86833
AAXX 24184 60369 12560 50406 10162 20101 40286 53004 60002 83280 333 10170 83826 91837
AAXX 24184 60401 NIL
AAXX 24184 60403 11658 72806 10115 20081 40281 53007 69912 70262 878// 333 10150 83826 86836 95990
AAXX 24184 60425 12565 40000 10135 20092 40285 53005 60002 83202 333 10172 83830 95990
AAXX 24184 60461 12570 50000 10153 20086 40284 53007 60002 83530 222// 20000 333 10170 83626 83360 91828 95990
AAXX 24184 60467 12665 33408 10122 20055 40270 50001 60002 83230 333 10174 83833 95990
AAXX 24184 60492 12560 23402 10106 20079 40285 53009 60002 82200 333 10170 82830 95990
AAXX 24184 60515 12960 20000 10115 20070 40282 53004 60002 82030 333 10162 82360 95990
AAXX 24184 60517 12565 50204 10157 20113 40282 53007 60002 83202 333 10168 83826 83073 95990
AAXX 24184 60522 12470 20000 10108 20086 40293 53011 60002 82600 333 10161 82710 95990
AAXX 24184 60557 11970 00302 10098 21003 38930 48566 53008 60002 70200 333 10148 95990
AAXX 24184 60563 12960 00508 10110 20036 39367 48561 53007 60002 333 10161
AAXX 24184 60603 12960 00906 10137 20009 40271 53010 60002 333 10192
AAXX 24184 60638 12960 0//// 10148 20013 40249 53009 60002 333 10187
AAXX 24184 60686 12960 00000 10214 21023 40170 57006 60002 333 10255
BBXX BATFR28 24184 99018 11025 46/// /0715 10254 20235 40091 50002 22263 00287
BBXX BATFR53 24184 99188 51623 44598 40119 10269 20229 40112 51020 72500 83362 22222 00282 202// 305// 40304 5//// 60/// ICE 0////
BBXX BATFR43 24184 99205 51661 46/// /0409 10274 20242 40094 53014 22263 00284
BBXX BATFR56 24184 99101 30726 44598 31112 10275 20274 40102 56015 76000 83805 22213 00299 20606 31308 40606 50602
AAXX 24184 60395 12660 70000 10135 20118 40280 53002 60002 8523/ 333 10155 85840 83360 95990
AAXX 24184 60421 11558 73112 10083 20069 39220 48551 58551 60001 872// 333 10100 87830 95990
AAXX 24184 60423 11660 70000 10072 20063 39270 48532 56002 69952 70262 878// 333 10101 82833 86640 95990
AAXX 24184 60430 12258 40803 10093 20083 40298 54000 60002 84800 333 10123 82703 83633 95990
AAXX 24184 60437 12250 70000 10078 20067 39055 48551 54000 60002 876// 333 10105 83705 85820 95990
AAXX 24184 60444 12560 60000 10070 20049 39168 48568 51002 60002 86200 333 10120 86830 95900
AAXX 24184 60452 12560 4//// 10160 20081 40281 53006 60002 84200 222// 2//// 333 10174 84820 91826
AAXX 24184 60457 12560 70302 10140 20092 40283 53008 60002 875// 333 10163 87626 95990
AAXX 24184 60514 11530 60000 10055 20046 39359 48579 53008 60002 71022 86600 333 10089 86720 95990
AAXX 24184 60518 12460 50000 10139 20097 40264 53004 60002 83632 222// 20000 333 10173 83710 91806 95990
AAXX 24184 60520 12560 40104 10104 20081 40281 53007 60002 84500 333 10153 84630 95990
AAXX 24184 60540 11960 00000 10124 20043 39108 48562 53005 60002 70200 333 10149 95990
AAXX 24184 60560 11960 00000 10082 20010 39022 48558 53004 60002 70200 333 10173 95990
BBXX ELWR5 24183 99017 50820 41698 32012 10250 20199 40110 54000 70111 82647 22271 04258 20504 320// 41006 80215
BBXX IDDUK02 24184 99517 50578 46/// ///// 40039 222//
BBXX A8SF8 24184 99047 70799 41397 72423 10270 20243 40105 57015 70222 8471/ 22244 04260 20903 399// 41203 80250
BBXX BAREU56 24184 99330 10132 46/// ///// 40231 22200
BBXX BAREU11 24184 99446 70293 46/// ///// 40266 57005 22214
BBXX BAREU06 24184 99406 70276 46/// ///// 40335 52003 22241
BBXX BAREU62 24184 99401 10264 46/// ///// 40221 52012 22243
BBXX DMQN 24183 99468 70078 41398 82914 10120 20039 40369 50009 70211 85770 22254 04140 20902 330// 40705 5//// 80080
BBXX BATFR20 24184 99418 10095 46/// ///// 10144 20005 40141 22284
BBXX BATFR33 24184 99423 10060 46/// /3346 10107 20019 40233 55014 22234 00134
BBXX BATFR14 24184 99471 70114 44498 82216 10124 20052 40361 57003 70322 885// 22214 00129 20102 328// 40804 5//// 60000 ICE 0/0//
BBXX BATFR60 24184 99496 70035 46/// /2619 10109 20059 40323 56011 22212 00115
BBXX BATFR31 24184 99419 10088 46/// /3313 10144 20139 40172 22232 00157
BBXX BATFR11 24184 99380 10007 46/// ///// 10150 20089 40300 52006 22243 00174
BBXX BATFR09 24184 99360 70054 44397 80921 10152 20107 40284 53020 70241 882// 22223 00177 20304 60//0 ICE 0/0//
BBXX BATFR01 24184 99390 10148 46/// /2118 10157 20094 40152 58017 22272 00164
BBXX BATEU05 24184 99587 70038 46/// /2635 10097 20055 49994 51014 22223
BBXX BATFR46 24184 99397 10010 44/97 30213 10142 20077 40305 53010 70133 82/4/ 22253 00160 23002 320// 42502 5////
BBXX BATEU04 24184 99630 70205 46/// /2735 10032 21048 4//// 22261
BBXX PHQX 24183 99440 70132 41/97 6//02 10117 20042 40380 54000 70211 8650/ 22254 2//01 3//// 4//01 5//// 80080
BBXX 61001 24184 99434 10078 46/// /0223 10157 21007 40192 52026 22200 00146 10604 70021 555 1/032
BBXX BATUK01 24184 99560 70032 46/// /2508 10100 20054 40092 56009 22200 00054
BBXX A8VL5 24184 99375 10044 41397 60220 10130 20091 40390 51010 70122 86800 22265 00170 20404 30000 80110
BBXX PBEO 24183 99523 10035 41/97 /2512 10096 20054 40269 57015 70011 8//// 22213 06088 20402 30000 80075
BBXX DHSI 24184 99487 70056 41298 52512 10120 20062 40350 58030 70200 84704 22214 21003 325// 41406 80090
BBXX 61002 24184 99421 10047 46/// ///40 10112 2//// 40272 57004 22200 00140 10911 70053 555 1/052
BBXX VOXS 24184 99467 70480 41598 83435 10015 2101/ 40105 51051 70222 885// 22200 04018 20504 321// 40806 80004
AAXX 24181 60370 36/// /0601 10139 20117 333 10161
AAXX 24181 60371 36/// /0000 10137 20110 333 10164
AAXX 24181 60372 36/// /0704 10117 20117 333 10149
AAXX 24181 60373 NIL
AAXX 24181 60374 NIL
AAXX 24181 60376 NIL
AAXX 24181 60379 NIL
AAXX 24181 60380 NIL
AAXX 24181 60381 NIL
AAXX 24181 60393 NIL
AAXX 24181 60394 NIL
AAXX 24181 60593 NIL
AAXX 24181 60595 NIL
AAXX 24181 60605 NIL
AAXX 24181 60613 NIL
AAXX 24181 60623 NIL
AAXX 24184 60624 36/// /0000 10200 21032 333 10228
AAXX 24184 60639 NIL
AAXX 24184 60645 36/// /0000 10185 20016 333 10222
AAXX 24184 61489 32958 50804 10285 21080 30136 80002 333 10306 59005 85073
AAXX 24181 14235 NIL
AAXX 24181 14246 11962 60000 10023 20011 30026 40236 52/// 60002 700// 84072 333 10053
AAXX 24181 14314 12670 70308 10105 20029 30104 40169 51/// 60002 87800 333 10122 92323 92438
AAXX 24181 14323 11562 80812 10078 20026 30153 40187 53/// 69902 761// 8162/ 333 10115 91021 92334 92447
AAXX 24181 14324 NIL
AAXX 24181 14328 11440 82902 10015 20008 39830 40237 52/// 60022 7687/ 8772/ 333 10045 43011 93197
AAXX 24181 14330 12560 82901 10010 21007 39526 40210 52/// 60002 885// 333 10020 47011 92802
AAXX 24181 14438 11680 60000 10095 20029 30071 40162 53/// 60002 703// 86800 333 10127 923//
AAXX 24181 14443 32699 611// 10134 20100 30061 40159 57001 86054 333 10142 92312
AAXX 24181 14447 12984 30503 10103 20010 30135 40166 53/// 60002 83070 333 10144 92311
AAXX 24181 14472 12970 20000 10100 20030 30096 40161 52004 60002 82030 333 10130 92301
AAXX 24181 28676 329// 00601 11197 21216 30071 40208 57012 333 11116
AAXX 24181 28766 319// 41902 11198 21209 39998 40203 57011 71011 80001 333 11146
AAXX 24181 28867 32998 00000 11190 21223 39912 40203 57012 333 11145
AAXX 24181 28879 329// 01202 11164 21208 39906 40213 57012 333 11051
AAXX 24181 28952 329// 00000 11192 21211 39996 40202 57009 333 11146
AAXX 24181 28966 329// 01503 11178 21219 39906 40210 57009 333 11121
AAXX 24181 29802 329// 01302 11209 21234 30100 40256 57010 333 11140
AAXX 24181 29807 329// 01301 11190 21216 30112 40240 57024 333 11145
AAXX 24181 34691 32998 20501 11094 21134 30190 40177 52008 80002 333 11034
AAXX 24181 35067 329// 00401 11230 21261 39908 40210 57016 333 11112
AAXX 24181 35078 329// 00702 11221 21250 39811 40223 57017 333 11148
AAXX 24181 35085 329// 00000 11166 21215 39721 40228 57017 333 11069
AAXX 24181 35108 319// 80000 11079 21106 30152 40200 58002 71022 885// 333 11071
AAXX 24181 35188 319// 01601 11129 21176 39766 40222 57014 70400 333 11035
AAXX 24181 35217 325// 80501 11133 21168 30154 40195 52003 885// 333 11137
AAXX 24181 35229 329// 80601 11144 21169 39894 40182 57008 8807/ 333 11138
AAXX 24181 35302 325// 80702 11085 21113 30177 40199 52003 885// 333 11087
AAXX 24181 35357 329// 01403 11234 21259 39751 40226 57007 333 11110
AAXX 24181 35394 32998 01202 11095 21190 39526 40227 57012 333 11020
AAXX 24181 35406 329// 00402 11162 21196 30184 40186 52003 333 11115
AAXX 24181 35416 329// 53403 11174 21209 30056 40185 53003 81075 333 11101
AAXX 24181 35426 329// 80901 11114 21149 39868 40172 57005 8802/ 333 11115
AAXX 24181 35497 329// 01103 11054 21160 39404 40216 54000 333 11047 91012
AAXX 24181 35532 32998 81603 11104 21148 39670 40180 53014 8802/ 333 11124
AAXX 24181 35671 32998 00000 11210 21231 39757 40222 57007 333 11091
AAXX 24181 35700 32998 00402 11120 21126 30192 40167 52001 333 11064
AAXX 24181 35746 NIL
AAXX 24181 35796 32997 00404 11162 21196 39791 40254 57008 333 11073
AAXX 24181 35849 NIL
AAXX 24181 35925 119// 80902 11084 21099 40140 51003 60010 71022 8802/ 333 11073
AAXX 24181 35953 NIL
AAXX 24181 35969 NIL
AAXX 24181 36003 32998 01502 11199 21226 30087 40251 57014 333 11137
AAXX 24181 36152 319// 01406 11189 21230 30061 40266 57016 73630 333 11139
AAXX 24181 36177 329// 01104 11171 21211 30033 40297 57012 333 11144
AAXX 24181 36208 329// 01002 11118 21158 39289 40314 53006 333 11057
AAXX 24181 36397 319// 01616 11172 21209 39726 40329 56004 73633 333 11147 91020 91120
AAXX 24181 36428 329// 00000 11275 21300 39810 40369 57009 333 11196 95090
AAXX 24181 36535 329// 00000 11309 21338 39676 40396 57008 333 11218
AAXX 24181 36639 329// 01801 11153 21190 39626 40266 57008 333 11062
AAXX 24181 36821 329// 00000 11152 21176 39720 40239 57005 333 11060
AAXX 24181 36859 329// 03401 11104 21143 39444 40260 58003 333 10014
AAXX 24181 36864 329// 00000 11135 21132 39300 40243 57006 333 11006
AAXX 24181 36870 319// 00000 11060 21095 39178 40218 57001 70400 333 10000
AAXX 24181 38001 32597 80503 11043 21070 30184 40154 52016 885// 333 11030
AAXX 24181 38062 NIL
AAXX 24181 38069 NIL
AAXX 24181 38196 80000 10005 21092 39186 40167 56005 80002 333 10081
AAXX 24181 38198 329// 70705 11041 21067 39900 40165 57001 87070 333 11004
AAXX 24181 38222 32997 00000 11117 21144 39625 40212 58014 333 11038
AAXX 24181 38232 31494 63203 11013 21015 30030 40130 52008 71011 86600 333 10031
AAXX 24181 38328 325// 81603 10057 21058 39434 40152 56001 8557/ 333 10085 91115
AAXX 24181 38334 32998 30903 10030 21108 39207 40163 57003 80001 333 10070
AAXX 24181 38341 32997 61802 11034 21085 39388 40188 57006 84042 333 10031
AAXX 24181 38343 32997 00000 11064 21096 39333 40201 57007 333 10064
AAXX 24181 38439 32598 81306 10026 21026 39815 40153 58005 8357/ 333 10028
AAXX 24181 28676 329// 00601 11197 21216 30071 40208 57012 333 11116
AAXX 24181 28766 319// 41902 11198 21209 39998 40203 57011 71011 80001 333 11146
AAXX 24181 28867 32998 00000 11190 21223 39912 40203 57012 333 11145
AAXX 24181 28879 329// 01202 11164 21208 39906 40213 57012 333 11051
AAXX 24181 28952 329// 00000 11192 21211 39996 40202 57009 333 11146
AAXX 24181 28966 329// 01503 11178 21219 39906 40210 57009 333 11121
AAXX 24181 29802 329// 01302 11209 21234 30100 40256 57010 333 11140
AAXX 24181 29807 329// 01301 11190 21216 30112 40240 57024 333 11145
AAXX 24181 34691 32998 20501 11094 21134 30190 40177 52008 80002 333 11034
AAXX 24181 35067 329// 00401 11230 21261 39908 40210 57016 333 11112
AAXX 24181 35078 329// 00702 11221 21250 39811 40223 57017 333 11148
AAXX 24181 35085 329// 00000 11166 21215 39721 40228 57017 333 11069
AAXX 24181 35108 319// 80000 11079 21106 30152 40200 58002 71022 885// 333 11071
AAXX 24181 35188 319// 01601 11129 21176 39766 40222 57014 70400 333 11035
AAXX 24181 35217 325// 80501 11133 21168 30154 40195 52003 885// 333 11137
AAXX 24181 35229 329// 80601 11144 21169 39894 40182 57008 8807/ 333 11138
AAXX 24181 35302 325// 80702 11085 21113 30177 40199 52003 885// 333 11087
AAXX 24181 35357 329// 01403 11234 21259 39751 40226 57007 333 11110
AAXX 24181 35394 32998 01202 11095 21190 39526 40227 57012 333 11020
AAXX 24181 35406 329// 00402 11162 21196 30184 40186 52003 333 11115
AAXX 24181 35416 329// 53403 11174 21209 30056 40185 53003 81075 333 11101
AAXX 24181 35426 329// 80901 11114 21149 39868 40172 57005 8802/ 333 11115
AAXX 24181 35497 329// 01103 11054 21160 39404 40216 54000 333 11047 91012
AAXX 24181 35532 32998 81603 11104 21148 39670 40180 53014 8802/ 333 11124
AAXX 24181 35671 32998 00000 11210 21231 39757 40222 57007 333 11091
AAXX 24181 35700 32998 00402 11120 21126 30192 40167 52001 333 11064
AAXX 24181 35746 NIL
AAXX 24181 35796 32997 00404 11162 21196 39791 40254 57008 333 11073
AAXX 24181 35849 NIL
AAXX 24181 35925 119// 80902 11084 21099 40140 51003 60010 71022 8802/ 333 11073
AAXX 24181 35953 NIL
AAXX 24181 35969 NIL
AAXX 24181 36003 32998 01502 11199 21226 30087 40251 57014 333 11137
AAXX 24181 36152 319// 01406 11189 21230 30061 40266 57016 73630 333 11139
AAXX 24181 36177 329// 01104 11171 21211 30033 40297 57012 333 11144
AAXX 24181 36208 329// 01002 11118 21158 39289 40314 53006 333 11057
AAXX 24181 36397 319// 01616 11172 21209 39726 40329 56004 73633 333 11147 91020 91120
AAXX 24181 36428 329// 00000 11275 21300 39810 40369 57009 333 11196 95090
AAXX 24181 36535 329// 00000 11309 21338 39676 40396 57008 333 11218
AAXX 24181 36639 329// 01801 11153 21190 39626 40266 57008 333 11062
AAXX 24181 36821 329// 00000 11152 21176 39720 40239 57005 333 11060
AAXX 24181 36859 329// 03401 11104 21143 39444 40260 58003 333 10014
AAXX 24181 36864 329// 00000 11135 21132 39300 40243 57006 333 11006
AAXX 24181 36870 319// 00000 11060 21095 39178 40218 57001 70400 333 10000
AAXX 24181 38001 32597 80503 11043 21070 30184 40154 52016 885// 333 11030
AAXX 24181 38062 NIL
AAXX 24181 38069 NIL
AAXX 24181 38196 80000 10005 21092 39186 40167 56005 80002 333 10081
AAXX 24181 38198 329// 70705 11041 21067 39900 40165 57001 87070 333 11004
AAXX 24181 38222 32997 00000 11117 21144 39625 40212 58014 333 11038
AAXX 24181 38232 31494 63203 11013 21015 30030 40130 52008 71011 86600 333 10031
AAXX 24181 38328 325// 81603 10057 21058 39434 40152 56001 8557/ 333 10085 91115
AAXX 24181 38334 32998 30903 10030 21108 39207 40163 57003 80001 333 10070
AAXX 24181 38341 32997 61802 11034 21085 39388 40188 57006 84042 333 10031
AAXX 24181 38343 32997 00000 11064 21096 39333 40201 57007 333 10064
AAXX 24181 38439 32598 81306 10026 21026 39815 40153 58005 8357/ 333 10028
AAXX 24183 64800 NIL
AAXX 24183 64820 NIL
AAXX 24183 64860 32960 60000 10280 20095 39824 40095 80002 333 10340 58004 86080
AAXX 24183 64861 NIL
AAXX 24183 64870 32960 70000 10196 20065 38906 48495 80002 333 10305 58000 87080
AAXX 24183 64871 NIL
AAXX 24183 64892 NIL
AAXX 24183 64893 NIL
AAXX 24183 64894 NIL
AAXX 24184 64910 32460 72408 10280 20246 30082 40091 83302 333 10332 59009 83616 81920 87080 94945 95835
AAXX 24184 64911 NIL
AAXX 24184 64950 NIL
AAXX 24181 08501 32/// /1605 10172 20158 30276 40312 57009 333 10186 91008 91109 555 60005
AAXX 24181 08505 32470 61404 10179 20144 30286 40336 56005 85802 333 10192 85814 555 60007
AAXX 24181 08506 32/// /1604 10169 20137 30271 40344 57002 333 10186 91008 91108 555 60005
AAXX 24181 08509 32460 21404 10166 20149 30279 40343 55003 82800 333 10184 81814 555 60007
AAXX 24181 08511 32/// /1702 10165 20153 30236 40344 57003 333 10184 91105 555 60005
AAXX 24181 08512 32475 51104 10164 20150 30255 40341 57005 85800 333 10184 81814 85660 555 60005
AAXX 24181 08515 11470 71205 10167 20151 30219 40341 55003 69932 78082 878// 333 10196 82818 87648 910// 911// 555 69937 912//
AAXX 24181 08521 32470 60205 10185 20102 30221 40292 56005 86800 333 10195 84816 84630 555 60007
AAXX 24181 08522 32/// /0000 10180 20107 30219 40289 57005 333 10223 555 60005
AAXX 24181 08524 32470 70205 10167 20143 30197 40295 57002 87800 333 10191 84814 85630 91110 555 60005
AAXX 24181 08530 NIL
AAXX 24181 08531 32/// /0308 10145 20070 30268 40307 52003 333 10150 555 60005
AAXX 24181 08532 NIL
AAXX 24181 08533 32/// /0401 10106 20087 30252 40281 52009 333 10162 555 60005
AAXX 24180 08534 32970 00604 10130 20097 30281 40299 52006 333 10164 555 60007
AAXX 24181 08535 32/// /0305 10143 20047 30205 40298 52004 333 10157 91008 91110 555 60005
AAXX 24181 08537 NIL
AAXX 24181 08540 32960 03603 10114 20058 30238 40308 51002 333 10154 555 60007
AAXX 24181 08541 32/// /0404 10125 20065 30169 40290 52007 333 10159 91106 555 60005
AAXX 24181 08544 32960 09901 10106 20058 30296 40317 53006 333 10148 555 60007
AAXX 24181 08545 31965 03601 10096 20030 30246 40331 52003 70200 333 10148 91105 555 60005
AAXX 24181 08548 32/// /0505 10116 20016 30106 40314 54000 333 10138 91009 91110 555 60005
AAXX 24181 08551 32/// /0801 10081 20053 30274 40333 54000 333 10133 555 60005
AAXX 24181 08554 32965 00000 10129 20083 30271 40281 52008 333 10159 555 60005
AAXX 24181 08558 32/// /0403 10091 20034 39997 40297 52006 333 10157 91106 555 60005
AAXX 24181 08560 32/// /0608 10065 20002 39557 40333 57002 333 10106 91014 91114 555 60005
AAXX 24181 08561 32970 00604 10107 20060 30049 40285 52006 333 10146 91109 555 60007
AAXX 24181 08562 12/// /0505 10105 20053 39990 40288 52007 69912 333 10141 91007 555 60005
AAXX 24181 08567 32/// /0302 10063 20024 39676 40358 52001 333 10099 555 60005
AAXX 24181 08568 32/// /1303 10042 21096 38749 48614 52002 333 10091 91105 555 60005
AAXX 24181 08570 32/// /0103 10094 20004 39852 40318 52005 333 10140 91006 91107 555 60005
AAXX 24181 08571 32/// /0610 10103 20009 39586 40296 52001 333 10122 91115 555 60005
AAXX 24181 08575 32/// /0601 10055 20013 39530 40364 54000 333 10089 555 60005
AAXX 24181 08579 32/// /2403 10134 20043 30174 40300 52006 333 10157 91107 555 60005
BBXX VOXS 24184 99467 70480 41598 83435 10015 2101/ 40105 51051 70222 885// 22200 04018 20504 321// 40806 80004
AAXX 24181 38462 429// 00000 11025 21085 38943 48448 530003 3333 10031
AAXX 24181 50844 32962 03202 11265 21318 40328 52007 333 11173
AAXX 24181 50854 32970 02503 11258 21303 40321 52009 333 11198
AAXX 24181 50968 32962 02202 11276 21308 40315 52011 333 11181
AAXX 24181 51379 NIL
AAXX 24181 51467 NIL
AAXX 24181 51495 NIL
AAXX 24181 53480 32980 02502 11133 21196 40344 52001 333 11063
AAXX 24181 53673 32970 02201 11089 21152 40331 54000 333 10003
AAXX 24181 53698 32962 00000 11024 21119 40299 57001 333 10083
AAXX 24181 53898 32966 01601 11020 21077 40301 57003 333 10098
AAXX 24181 54308 32980 00401 11139 21185 40328 52008 333 11028
AAXX 24181 54602 32962 02502 11049 21137 40292 52003 333 10064
AAXX 24181 54725 32965 02203 11014 21121 40304 57001 333 10049
AAXX 24181 54751 32972 02205 11001 21059 40298 52002 333 10023
AAXX 24181 54916 32960 00000 11055 21070 40314 54000 333 10064
AAXX 24181 57014 32965 02702 11075 21100 40344 57002 333 05300 10049
AAXX 24181 57025 32968 03202 11041 21103 40324 57011 333 10061
AAXX 24181 57046 32974 02706 11067 21172 37986 57003 333 00104 11039
AAXX 24181 58208 32963 01801 11032 21039 40323 52001 333 10091
AAXX 24181 40700 11550 80000 10060 20046 30039 40129 51009 60001 71022 886// 333 55000 88720
AAXX 24181 40723 12860 10000 10006 21045 38879 40174 52002 60001 80070 333 55084 29608
AAXX 24181 40726 12660 11903 10070 21013 38610 40118 50005 60001 81400 333 55065 81635
AAXX 24181 40727 12660 12008 10072 21015 38440 40119 51003 60001 81500 333 55085 20724 81640
AAXX 24181 40734 11457 89901 10106 20094 30134 40109 52007 60001 71022 886// 333 55012 88718
AAXX 24181 40737 12960 00000 10064 20055 30082 40100 57008 60001 333 55060 2////
AAXX 24181 40741 11958 00000 10051 21027 39816 40152 51009 60001 70500 333 55082
AAXX 24181 40780 11558 71403 10080 20051 38671 40163 51005 60021 85970 333 55058 20982 82930 85635 87357
AAXX 24181 40791 12965 00000 10070 21190 39335 40174 51003 60001 333 55089 2////
AAXX 24181 40792 12970 00902 10050 21105 38709 40168 51010 60001 333 55092
AAXX 24181 40794 12960 10000 10150 20058 30056 40155 51008 60001 81030 333 55074 21019 81360
AAXX 24181 40812 12660 40000 10160 20036 39773 40150 52009 60001 84500 91745 333 55045 84640
AAXX 24181 40829 11930 12402 10025 21155 39620 40216 52007 60001 70500 80001 333 55050 81070
AAXX 24181 40833 12960 11205 10158 20101 30133 40165 51005 60001 80001 91750 333 55088 81070
AAXX 24181 40835 12960 00000 10109 20006 39336 40175 51004 60001 333 55090
AAXX 24181 40845 NIL
AAXX 24181 40882 11956 02803 10198 20139 30122 40157 51005 60001 70500 333 55093
AAXX 24181 40889 NIL
AAXX 24181 40890 NIL
AAXX 24181 40893 12960 03109 10209 20134 30142 40148 51007 60001 222// 0/// 20501 333 55097
AAXX 24181 40897 NIL
AAXX 24184 89022 42984 12208 11015 21039 39796 49833 57017 80051 333 81358
AAXX 24184 89062 42320 80916 11009 21019 39764 49804 57005 886// 333 81708 87715
AAXX 24184 87078 11470 81804 10184 20161 30030 40182 57001 69951 72165 886// 333 56499 88710
AAXX 24184 87244 NIL
AAXX 24184 87393 11370 81411 10176 20130 30145 40209 58003 69961 70252 886// 333 56399 84707 88617
AAXX 24184 87416 32965 20000 10243 20033 39456 40197 57024 82040 333 56050 57352 82365
AAXX 24184 87563 32965 01406 10224 20124 30167 40221 56020
AAXX 24184 87640 32965 01803 10240 20015 30132 4//// 57024
AAXX 24184 87688 32470 11804 10222 20048 30106 40245 57016 81100 333 56400 81812
AAXX 24184 87774 32982 23208 10252 20004 39166 48518 5//// 80005 333 56004 82270
AAXX 24184 87852 32584 62521 10236 20042 39656 40155 57019 82174 333 56555 82830 84070
AAXX 24183 87791 32980 03213 10284 21044 30198 40206 57021
AAXX 24184 87178 11460 81407 10236 20218 39981 40125 57021 60211 76166 8352/ 333 56659 83610 88540
AAXX 24184 87593 NIL
AAXX 24184 87623 32980 00511 10251 20033 30017 40244 57023
AAXX 24184 87641 32665 21406 10239 20081 30068 40245 57021 82100 333 56300 82835
AAXX 24184 87645 32470 41402 10209 20053 30038 40250 57015 84100 333 56300 84815
AAXX 24184 87648 32660 32006 10214 20064 30234 40246 58031 83100 333 56400 83840
AAXX 24184 87692 32560 51806 10196 20071 30229 40255 56007 83130 333 56540 83825
AAXX 24184 87715 32970 03411 10257 21044 39889 40206 57033
AAXX 24184 87750 32965 02705 10260 21046 30136 40234 57024
AAXX 24184 87765 31950 09902 10240 21103 39242 48539 57019 70400 333 96104 96120
AAXX 24184 87784 32980 02919 10300 21151 30188 40211 57021
AAXX 24184 87800 32980 00000 10261 20007 39805 40203 57033
AAXX 24184 87803 32980 12711 10249 21023 39268 40178 57024 80005 333 56006 81270
AAXX 24184 87828 32980 32712 10300 21175 30108 40158 57029 80002 333 56000 83070
AAXX 24184 87860 32980 70912 10260 20068 30090 40144 57014 81066 333 56055 81360 87070
AAXX 24184 87904 32680 32716 10192 20043 39890 40132 57004 81405 333 56606 81640
AAXX 24184 87909 32680 60512 10202 20048 30062 40136 56007 82108 333 56000 82840 84270
AAXX 24184 87925 32580 52526 10208 21017 30090 40113 56007 84106 333 56500 84825
AAXX 24184 87938 32680 22332 10117 20004 39998 40068 52013 82100 333 56500 82840
AAXX 24183 87016 11260 80906 10202 20159 39754 40159 56005 69941 70262 887// 333 56499 82705 83810 88620
AAXX 24183 87896 32680 60913 10199 20052 30056 40151 53004 81572 333 56665 81640 83360
AAXX 24181 23914 11998 81802 11116 21125 39891 40161 54000 69950 70272 8807/ 333 11087
AAXX 24181 23921 12997 20000 11185 21197 30023 40150 58002 69900 80001 333 11079
AAXX 24181 23955 41584 82301 11102 21117 30128 40192 52003 78582 883// 333 85622
AAXX 24181 23966 41496 82401 11108 21128 30051 40182 52012 78587 889//
AAXX 24181 28138 11599 72301 11108 21115 39580 40172 54000 69930 70282 86530 333 11100
AAXX 24181 28224 11597 82201 11079 21093 39946 40168 52002 69950 70272 8802/ 333 11074
AAXX 24181 28255 32594 80000 11124 21149 30027 40163 57006 884// 333 11112 88628
AAXX 24181 28440 11597 72903 11075 21095 39806 40165 54000 69900 78582 87900 333 11053
AAXX 24181 28645 32997 01601 11186 21198 39870 40189 57004 333 11144
AAXX 24181 28661 32997 21603 11178 21195 30087 40186 58009 80001 333 11152
AAXX 24181 28722 11597 81601 11092 21107 30041 40177 58002 69940 78582 889// 333 11086
AAXX 24181 28748 32964 61801 11218 21236 39927 40190 57010 80001 333 11156
AAXX 24181 28838 32996 00000 11248 21260 39685 40212 57004 333 11188
AAXX 24181 29231 42998 01901 11149 21176 30117 40219 53001
AAXX 24181 29313 42998 32002 11146 21168 30096 40226 53002 80002
AAXX 24181 29612 42998 01702 11185 21226 30095 40258 57006
AAXX 24181 29638 42998 01302 11150 21210 30107 40283 57007
AAXX 24181 29838 42997 00000 11226 21266 30052 40309 57010
AAXX 24181 29846 41936 51302 11162 21181 39903 40316 57006 71022 80001
AAXX 24181 36061 42999 00000 11237 21253 39887 40337 57007
AAXX 24181 23909 11597 82601 11103 21116 39894 40152 53001 69940 77172 8451/ 333 11082
AAXX 24181 28044 32597 72901 11088 21105 39980 40149 54000 87500 333 11067
AAXX 24181 28116 11896 61601 11137 21153 39918 40164 52004 69990 77172 86015 333 11083
AAXX 24181 28240 11598 82501 11087 21104 39829 40163 54000 69920 78582 889// 333 11063
AAXX 24181 28522 11996 82301 11093 21107 39907 40175 57006 69930 77172 8802/ 333 11091
AAXX 24181 28621 12997 80901 11090 21102 39933 40175 56002 69930 8807/ 333 11089
AAXX 24181 29023 41397 82602 11101 21121 30098 40199 52004 78582 889// 333 87707
AAXX 24181 29122 41599 82302 11112 21148 30134 40210 51002 70282 885// 333 88626
AAXX 24181 29328 42998 72203 11136 21205 30090 40237 57003 85031
AAXX 24181 29348 42997 32102 11097 21168 30090 40241 52001 81031
AAXX 24181 29405 42997 52002 11188 21207 30077 40235 57004 80001
AAXX 24181 29418 42998 01801 11104 21233 30077 40248 54000
AAXX 24181 29430 42998 32102 11142 21193 30072 40259 57001 83030
AAXX 24181 29524 42998 02202 11146 21217 30083 40257 57007
AAXX 24181 29605 42998 01502 11191 21232 30082 40235 57009
AAXX 24181 29631 42997 01803 11142 21213 30072 40268 57006
AAXX 24181 29645 42998 41601 11167 21217 30091 40292 57002 80001
AAXX 24181 29706 42998 01803 11176 21218 30094 40252 57011
AAXX 24181 29736 42998 00000 11221 21240 30038 40312 57005
AAXX 24181 29937 42997 03001 11222 21248 30073 40317 57010
AAXX 24181 36034 42998 00301 11258 21283 30003 40309 57018
AAXX 24181 36096 42997 50000 11274 21292 39567 40438 57001 80001
AAXX 24181 34357 11597 80402 11028 21031 30030 40190 52009 60030 78582 889// 333 11018
AAXX 24181 34363 11/93 90602 11027 21027 30041 40197 52005 60040 77174 333 11021 96045
AAXX 24181 34545 32498 81003 11003 21004 30063 40177 52009 886// 333 10012
AAXX 24181 34579 32998 80702 11035 21064 30146 40191 52008 80002 333 11023
AAXX 24181 34838 32997 81002 10031 20002 30024 40121 52014 8005/ 333 10047
AAXX 24181 34927 11496 80402 10047 20035 30072 40109 51005 69960 76186 8802/ 333 10055
AAXX 24181 34949 32598 71005 11005 21025 39578 40132 52010 82530 333 10051
AAXX 24181 37001 11496 80604 10049 20039 30056 40096 51012 60030 76162 8872/ 333 10049
AAXX 24181 37031 32997 81003 10032 21003 39917 40113 51010 8805/ 333 10076
AAXX 24181 37061 32965 80904 11022 21051 39987 40158 52014 8805/ 333 10024
AAXX 24181 37085 32596 80804 11022 21047 30189 40217 51008 885// 333 10018
AAXX 24181 37107 NIL
AAXX 24181 37126 42999 62403 11012 21111 37847 48416 52006 83031 333 10018
AAXX 24181 37171 11596 80703 10088 20086 30090 40108 52022 60030 78082 889// 333 10122 88921
AAXX 24181 37228 31494 83201 10000 21008 39288 40132 52008 71022 886// 333 10033
AAXX 24181 37470 32596 83401 10046 20008 30163 40141 53009 885// 333 10057
AAXX 24181 37663 32996 00801 11021 21036 38931 48407 50001 333 10083
AAXX 24181 48806 32997 00000 10092 20059 39450 40254 50001 333 58011
AAXX 24181 28049 32997 61503 11101 21110 39981 40152 57002 86050 333 11070
AAXX 24181 28144 11997 80000 11115 21125 39990 40155 54000 69900 77171 8802/ 333 11057
AAXX 24181 28319 11496 82201 11075 21092 30001 40172 58002 69990 77172 8802/ 333 11075
AAXX 24181 28321 11596 81402 11086 21093 39955 40166 52002 69950 78587 8633/ 333 11079
AAXX 24181 28334 11496 82601 11088 21107 39862 40178 53002 69980 77072 8872/ 333 11075
AAXX 24181 28434 12998 80000 11084 21099 39909 40176 52001 69970 8802/ 333 11077
AAXX 24181 28552 32998 00000 11203 21222 30060 40183 57009 333 11148
AAXX 24181 28666 32999 01601 11185 21203 30007 40195 57010 333 11110
AAXX 24181 28825 11596 80000 11104 21125 30005 40185 57002 69900 78587 8692/ 333 11096
AAXX 24181 29111 42498 82002 11105 21144 30117 40208 52001 886// 333 88712
AAXX 24181 29209 42998 62002 11200 21212 30087 40223 54000 82032
AAXX 24181 29551 41997 82103 11094 21192 30073 40262 58003 70232 82032
AAXX 24181 29602 42999 01403 11187 21237 30092 40244 57008
AAXX 24181 29636 42998 00000 11145 21238 30050 40281 57005
AAXX 24181 29654 42999 51802 11124 21196 39654 40304 57004 82071
AAXX 24181 29712 42998 01703 11165 21215 30116 40270 57007
AAXX 24181 29724 42997 01502 11164 21215 30061 40278 57009
AAXX 24181 29726 42998 00000 11212 21245 30112 40295 57009
AAXX 24181 29814 42999 01302 11193 21226 30108 40267 57015
AAXX 24181 29827 42997 00701 11211 21236 30122 40290 57011
AAXX 24181 29923 42999 00000 11232 21250 30009 40313 57009
AAXX 24181 29939 42997 00701 11242 21260 30006 40320 57009
AAXX 24181 35026 31996 80501 11145 21162 39518 40191 57005 71022 8802/ 333 11122
AAXX 24181 36021 42999 01603 11180 21206 30073 40266 57022
AAXX 24181 36022 NIL
AAXX 24181 36038 42999 00000 11240 21259 39837 40326 57013
AAXX 24181 36058 42999 01304 11147 21167 39783 40339 57008
AAXX 24181 36064 41999 10904 11041 21130 39706 40313 57008 73630 80001
AAXX 24181 36229 42999 00000 11285 21286 39147 40467 57006
AAXX 24181 36259 42999 00000 11311 21341 38289 48584 58007
AAXX 24181 37107 11596 80000 10055 20055 39443 40115 52015 60050 78182 889// 333 10085
AAXX 24181 13463 32970 30901 10038 21015 30127 40183 52010 83030 333 10100
AAXX 24181 13459 32970 51401 10004 21044 39407 40190 52010 85030 333 10062 46005 85399
AAXX 24181 13461 32870 50702 10058 21025 30172 40180 52006 85050 333 10132 85357 92323 92438
AAXX 24181 13363 32665 72501 11041 21054 39287 48480 52018 87500 333 11001 47008
AAXX 24181 13278 32697 30000 11001 21024 39995 40229 52016 82500 333 10050
AAXX 24181 13378 32999 00502 11075 21086 38241 48458 52010 333 11009 4/013
AAXX 24181 13397 32998 01401 11049 21061 39674 40240 52019 333 10036 4/001
BBXX MINUK05 2418/ 99571 70021 46/// ///// 10100 40059 57004
BBXX MINUK04 2418/ 99555 10084 46/// ///// 10063 4//// 52017
BBXX MINUK03 2418/ 99550 70015 46/// ///// 10090 40173 57024
BBXX MINUK01 2418/ 99602 70012 46/// ///// 10080 49957 52011
AAXX 24184 71503 46/// /2908 11264 21295 39868 40151 53021 6///1 333 11184 21264 7////
AAXX 24184 71506 46/// /3202 11260 21283 39179 40104 52011 6///1 333 11250 21280 7////
AAXX 24184 71507 16/// /2509 10016 21065 60001 333 10051 20007 70000
AAXX 24184 71516 16/// /2715 10010 21057 60001 333 10010 21046 70000
AAXX 24184 71107 16/// /2125 10074 20069 30015 40127 58011 60001 333 10074 20055 70000
AAXX 24184 71133 16/// /2717 10028 21060 39412 40118 53009 60001 333 10028 21030 7////
AAXX 24184 71149 16/// /2718 10017 21059 60001 333 10018 21093 70000
AAXX 24184 71421 16/// ///// 11232 21281 39485 40253 55004 60001 333 11232 21330 7////
AAXX 24184 71432 16/// /0905 11006 21085 30206 40306 58015 60001 333 11003 21046 70000
AAXX 24184 71435 16/// /2009 11059 21074 39534 40137 58028 60001 333 11058 21070 70000
AAXX 24184 71441 46/// /2816 10014 21049 39814 40127 58007 6///1 333 10014 21119 7////
AAXX 24184 71443 16/// /2412 10003 21055 39676 40091 58006 60001 333 10003 21114 70000
AAXX 24184 71444 16/// /2506 11013 21060 39357 40124 58003 60001 333 11013 21172 70000
AAXX 24184 71361 16/// /3307 11138 21169 39905 40116 53029 60001 333 11093 21143 70000
AAXX 24184 71374 46/// /3317 11175 21213 6///1 333 11169 21205 7////
AAXX 24184 71018 16/// ///06 11295 21326 39923 40013 53001 60001 333 11257 21305 70000
AAXX 24184 71026 16/// /2610 10058 21061 39371 40231 51016 60001 333 21027 7////
AAXX 24184 71063 16/// /1402 11105 21155 30237 40343 58010 60001 333 11101 21165 70000
AAXX 24184 71970 16/// /2819 10050 21043 39534 40119 53017 60001 333 10050 21054 70000
AAXX 24184 71903 47/// /2106 10059 20044 39993 40042 5/032 6///1 7//4/ 333 10063 20025 7////
AAXX 24184 71423 16/// /3111 11129 21165 30221 40231 56004 60001 333 11124 21155 70000
AAXX 24184 71442 16/// /2506 11021 21061 39779 40096 58007 60001 333 11021 21101 70000
AAXX 24184 71137 16/// /2813 11009 21049 39278 40241 53016 60001 333 11005 21097 70004
AAXX 24184 71188 11574 72914 11123 21191 30222 40267 56004 69941 77172 87500 333 11120 21147 47015 70030 90936
AAXX 24184 71581 16/// /1602 11088 21130 39802 40308 58014 60001 333 11088 70000 555 10010
AAXX 24184 71609 11462 73515 11118 21163 30137 40276 53002 69901 76162 87500 333 11028 21119 42003 70002 90931
AAXX 24184 71455 46/// /2714 10010 21044 39391 40196 51015 6///1 333 10017 21029 7////
AAXX 24184 71479 16/// /1127 10084 20084 30083 40204 50005 60001 333 10085 20068 70000
AAXX 24184 71489 16/// /2813 10033 21057 39371 40169 51010 60001 333 10033 21049 70000
AAXX 24184 71156 16/// /2706 10026 21066 39108 40208 53016 60001 333 10047 20001 70000
AAXX 24184 71158 16/// /2107 11062 21083 39791 40069 56015 60001 333 11061 21099 70000
AAXX 24184 71186 46/// /2714 11179 21221 6///1 333 11177 21218 7////
AAXX 24184 71190 46/// /3016 11124 21185 6///1 333 11120 21158 7////
AAXX 24184 71269 16/// /2415 10028 21042 60001 333 10028 21025 7////
AAXX 24184 71270 16/// /1608 11016 21071 30059 40288 58019 60001 333 11015 21104 70000
AAXX 24184 71285 46/// /2810 10024 21039 6///1 333 10025 21029 7////
AAXX 24184 71288 16/// /3314 11323 21356 30040 40066 51009 60001 333 11316 21331 70000
AAXX 24184 71295 16/// /2205 11053 21076 39653 40105 58029 60001 333 11052 21087 70000
AAXX 24184 71296 16/// /1508 11036 21074 39978 40295 58018 60001 333 11036 70000
AAXX 24184 71667 16/// /0601 11026 21061 39902 40151 58034 60001 333 11025 21047 70008
AAXX 24184 71682 16/// /0701 11201 21215 39902 40139 53013 60001 333 11140 21201 70000
AAXX 24184 71228 16/// /2912 10034 21059 60001 333 10034 21048 70000
AAXX 24184 71309 16/// /1706 11114 21153 30210 40222 58038 60001 333 11114 21302 70017
AAXX 24184 71331 16/// /2706 11017 21046 60001 333 11017 21106 70019 555 10020
AAXX 24184 71341 46/// ///// 10043 21054 6///1 333 10043 20012 7////
AAXX 24184 71342 16/// /2916 10042 21059 60001 333 10042 21041 70000
AAXX 24184 71344 16/// /2615 10023 21053 60001 333 10037 21012 70000
AAXX 24184 71348 46/// /2807 10030 21050 6///1 333 10044 20015 7////
AAXX 24184 71349 16/// ///// 10037 21056 60001 333 10037 21037 70000
AAXX 24184 71737 16/// /3402 11173 21249 39771 40330 58014 60001 333 11173 21299 70000
AAXX 24184 71743 16/// /2420 11184 21209 39950 40177 58021 60001 333 11183 21243 70000
AAXX 24184 71747 16/// /2205 11049 21073 39657 40140 58028 60001 333 11020 21063 7////
AAXX 24184 04203 46/// /0505 11189 21239 39915 49933 54000
AAXX 24184 04205 45/84 /1501 11270 21328 39916 49940 57001 333 11255 21281
AAXX 24184 04208 46/// /3107 11188 21241 39885 49931 52003
AAXX 24184 04213 46/// /1805 11171 21223 39801 49916 52001 333 11149 21172
AAXX 24184 04214 46/// /0510 11137 21213 39874 49907 57002
AAXX 24184 04224 47547 82909 11106 21159 39866 49899 57001 78588 333 11106 21124 88/31
AAXX 24184 04228 NIL
AAXX 24184 04242 46/// /0416 11091 21128 39875 49891 52002
AAXX 24184 04253 46/// /0808 11111 21189 39861 49888 54000
AAXX 24184 04266 46/// /3117 11055 21116 39831 49869 57012
AAXX 24184 04285 46/// /3020 11043 21117 39840 49859 57015
AAXX 24184 04301 46/// /2620 11223 21258 39988 49993 52001
AAXX 24184 04313 46/// /3643 11099 21114 39691 49702 57008
AAXX 24184 04330 46/// /0000 11078 21090 39695 49712 57009
AAXX 24184 04351 46/// /3515 11155 21259 39734 49750 57005
AAXX 24184 04373 46/// /3238 11116 21187 39652 49744 57020 333 91049
AAXX 24184 04382 46/// /3024 11069 21197 39735 49783 57011
AAXX 24184 04416 NIL
AAXX 24184 71421 16/// ///// 11232 21281 39485 40253 55004 60001 333 11232 21330 7////
AAXX 24184 71432 16/// /0905 11006 21085 30206 40306 58015 60001 333 11003 21046 70000
AAXX 24184 71435 16/// /2009 11059 21074 39534 40137 58028 60001 333 11058 21070 70000
AAXX 24184 71441 46/// /2816 10014 21049 39814 40127 58007 6///1 333 10014 21119 7////
AAXX 24184 71443 16/// /2412 10003 21055 39676 40091 58006 60001 333 10003 21114 70000
AAXX 24184 71444 16/// /2506 11013 21060 39357 40124 58003 60001 333 11013 21172 70000
AAXX 24184 71609 11462 73515 11118 21163 30137 40276 53002 69901 76162 87500 333 11028 21119 42003 70002 90931
AAXX 24184 71137 16/// /2813 11009 21049 39278 40241 53016 60001 333 11005 21097 70004
AAXX 24184 71188 11574 72914 11123 21191 30222 40267 56004 69941 77172 87500 333 11120 21147 47015 70030 90936
AAXX 24184 71581 16/// /1602 11088 21130 39802 40308 58014 60001 333 11088 70000 555 10010
AAXX 24184 71156 16/// /2706 10026 21066 39108 40208 53016 60001 333 10047 20001 70000
AAXX 24184 71158 16/// /2107 11062 21083 39791 40069 56015 60001 333 11061 21099 70000
AAXX 24184 71186 46/// /2714 11179 21221 6///1 333 11177 21218 7////
AAXX 24184 71190 46/// /3016 11124 21185 6///1 333 11120 21158 7////
AAXX 24184 71107 16/// /2125 10074 20069 30015 40127 58011 60001 333 10074 20055 70000
AAXX 24184 71133 16/// /2717 10028 21060 39412 40118 53009 60001 333 10028 21030 7////
AAXX 24184 71149 16/// /2718 10017 21059 60001 333 10018 21093 70000
AAXX 24184 71455 46/// /2714 10010 21044 39391 40196 51015 6///1 333 10017 21029 7////
AAXX 24184 71479 16/// /1127 10084 20084 30083 40204 50005 60001 333 10085 20068 70000
AAXX 24184 71489 16/// /2813 10033 21057 39371 40169 51010 60001 333 10033 21049 70000
AAXX 24184 71970 16/// /2819 10050 21043 39534 40119 53017 60001 333 10050 21054 70000
AAXX 24184 71018 16/// ///06 11295 21326 39923 40013 53001 60001 333 11257 21305 70000
AAXX 24184 71026 16/// /2610 10058 21061 39371 40231 51016 60001 333 21027 7////
AAXX 24184 71063 16/// /1402 11105 21155 30237 40343 58010 60001 333 11101 21165 70000
AAXX 24184 71269 16/// /2415 10028 21042 60001 333 10028 21025 7////
AAXX 24184 71270 16/// /1608 11016 21071 30059 40288 58019 60001 333 11015 21104 70000
AAXX 24184 71285 46/// /2810 10024 21039 6///1 333 10025 21029 7////
AAXX 24184 71288 16/// /3314 11323 21356 30040 40066 51009 60001 333 11316 21331 70000
AAXX 24184 71295 16/// /2205 11053 21076 39653 40105 58029 60001 333 11052 21087 70000
AAXX 24184 71296 16/// /1508 11036 21074 39978 40295 58018 60001 333 11036 70000
AAXX 24184 71667 16/// /0601 11026 21061 39902 40151 58034 60001 333 11025 21047 70008
AAXX 24184 71682 16/// /0701 11201 21215 39902 40139 53013 60001 333 11140 21201 70000
AAXX 24184 71903 47/// /2106 10059 20044 39993 40042 5/032 6///1 7//4/ 333 10063 20025 7////
AAXX 24184 71503 46/// /2908 11264 21295 39868 40151 53021 6///1 333 11184 21264 7////
AAXX 24184 71506 46/// /3202 11260 21283 39179 40104 52011 6///1 333 11250 21280 7////
AAXX 24184 71507 16/// /2509 10016 21065 60001 333 10051 20007 70000
AAXX 24184 71516 16/// /2715 10010 21057 60001 333 10010 21046 70000
AAXX 24184 71309 16/// /1706 11114 21153 30210 40222 58038 60001 333 11114 21302 70017
AAXX 24184 71331 16/// /2706 11017 21046 60001 333 11017 21106 70019 555 10020
AAXX 24184 71341 46/// ///// 10043 21054 6///1 333 10043 20012 7////
AAXX 24184 71342 16/// /2916 10042 21059 60001 333 10042 21041 70000
AAXX 24184 71344 16/// /2615 10023 21053 60001 333 10037 21012 70000
AAXX 24184 71348 46/// /2807 10030 21050 6///1 333 10044 20015 7////
AAXX 24184 71349 16/// ///// 10037 21056 60001 333 10037 21037 70000
AAXX 24184 71228 16/// /2912 10034 21059 60001 333 10034 21048 70000
AAXX 24184 71737 16/// /3402 11173 21249 39771 40330 58014 60001 333 11173 21299 70000
AAXX 24184 71743 16/// /2420 11184 21209 39950 40177 58021 60001 333 11183 21243 70000
AAXX 24184 71747 16/// /2205 11049 21073 39657 40140 58028 60001 333 11020 21063 7////
AAXX 24184 71361 16/// /3307 11138 21169 39905 40116 53029 60001 333 11093 21143 70000
AAXX 24184 71374 46/// /3317 11175 21213 6///1 333 11169 21205 7////
AAXX 24184 71423 16/// /3111 11129 21165 30221 40231 56004 60001 333 11124 21155 70000
AAXX 24184 71442 16/// /2506 11021 21061 39779 40096 58007 60001 333 11021 21101 70000
AAXX 24184 41295 36/// /2802 10170 20071 39986 40168 333 0E019 10255 59012
AAXX 24181 28216 12898 41801 11099 21107 39868 40162 52002 60020 84010 333 11086
AAXX 24181 28428 11597 82002 11088 21099 39986 40179 57001 69990 70272 885// 333 11084
AAXX 24181 28451 32996 81601 11125 21158 39999 40166 57009 8807/ 333 11124
AAXX 24181 28541 32983 80000 11099 21120 39660 40171 58005 8807/ 333 11056
AAXX 24181 28655 32998 42102 11205 21225 39948 40189 57008 80002 333 11164
AAXX 24181 28756 32997 00000 11201 21217 30038 40199 57008 333 11141
AAXX 24181 29557 41998 32505 11074 21192 39987 40262 58001 70231 80001
AAXX 24181 29625 42998 02202 11142 21203 30077 40267 57007
AAXX 24181 29813 42999 01703 11182 21215 30067 40260 57007
AAXX 24181 29822 42997 01403 11197 21230 30118 40296 57011
AAXX 24181 29915 42998 01403 11189 21215 30099 40269 57013
AAXX 24181 36020 42998 01302 11172 21206 30074 40289 57015
AAXX 24184 60595 36/// /0000 11451 333 11451
AAXX 24184 60381 36/// /0301 10135 20115 333 10162
AAXX 24184 60639 36/// /0806 10124 21016 333 10180
AAXX 24184 60605 36/// /0604 10172 21034 333 10209
AAXX 24184 16337 12598 42104 10096 20070 39590 40163 57010 60002 84800 333 10122 82820 555 0////
AAXX 24181 06590 12975 42705 10022 20001 39864 40332 52015 84031 333 10046 84360 91111 91206
AAXX 24181 23226 11356 81603 11156 21183 39887 40116 57007 69950 77174 8572/ 333 11114 85709 93612
AAXX 24181 23701 11465 81801 11130 21143 39991 40127 56010 69920 77172 8572/ 333 11106 85710
AAXX 24181 28909 11399 81701 11073 21090 30088 40191 52001 69980 77172 8472/ 333 11072
AAXX 24181 56146 32980 60000 11018 21116 36704 52022 80002 333 00005 10080
AAXX 24181 56444 32780 62902 10009 21174 36799 52003 86100 333 00004 10097
AAXX 24181 56492 31756 80000 10063 20043 39893 40313 52004 71000 885// 333 05300 10077
AAXX 24181 56571 32680 80000 10045 21019 38431 54000 888// 333 05451 10056
AAXX 24181 57799 32965 00000 10013 21032 30224 40317 52007 333 10119
AAXX 24181 57866 32968 00000 10024 21039 30101 40315 52002 333 10114
AAXX 24181 57957 32965 00201 10061 21071 30095 40299 57003 333 10140
AAXX 24181 57993 32960 00401 10023 21024 30131 40304 52007 333 10129
AAXX 24181 58027 31958 00000 11038 21071 30257 40311 52001 71000 333 10073
AAXX 24181 58141 31915 01101 11027 21050 30298 40318 52002 71000 333 10060
AAXX 24181 58265 31950 02702 11015 21070 30314 40322 52002 70500 333 10067
AAXX 24181 58472 32966 03407 10043 21084 30218 40316 52005 333 10060
AAXX 24181 58477 32970 03601 10012 21064 30269 40315 52006 333 10085
AAXX 24181 58527 32960 00701 10005 21036 30238 40317 52005 333 10111
AAXX 24181 58633 32960 00902 11002 21031 30221 40326 52012 333 10109
AAXX 24181 58666 32970 03608 10053 21038 30204 40310 52004 333 10082
AAXX 24181 58725 32960 02001 11023 21040 30042 40316 52009 333 10124
AAXX 24181 58921 31950 02201 10018 20000 30041 40298 52007 71000 333 10122
AAXX 24181 59082 32963 01602 10022 21031 30143 40295 52005 333 10139
AAXX 24181 59211 32961 73601 10093 20047 30057 40269 52004 8703/ 333 10175
AAXX 24181 59265 32960 00402 10068 21052 30133 40275 52004 333 10162
AAXX 24181 59293 32965 00405 10079 21078 30185 40273 52003 333 10137
AAXX 24181 59501 32962 00401 10096 21063 30230 40252 52003 333 10165
AAXX 24181 59663 32962 00205 10095 21060 30142 40253 54000 333 10163
AAXX 24181 59838 32960 10407 10138 20057 30215 40226 57005 80002 333 10180
AAXX 24181 59948 32370 80408 10109 20059 39722 40221 57006 888// 333 10157
AAXX 24181 59981 11568 80405 10208 20164 30169 40176 57011 69901 78080 888// 333 10227
BBXX 46145 24181 99544 71324 46/// /1809 10078 40055 57031 22200 00072 11104 70022 333 91211
BBXX 46145 24181 99544 71324 46/// /1809 10078 40055 57031 22200 00072 11104 70022 333 91211
AAXX 24181 22845 11496 81905 11045 21054 39920 40080 57008 69900 77172 8672/ 333 11038 86713
AAXX 24184 87244 32970 21405 10223 20084 39830 4//// 5//// 80009 333 56005 82170
AAXX 24181 23205 11698 82006 11085 21113 39999 40014 57017 69900 73632 885// 333 11081 88633 91110
BBXX MINFR00 2418/ 99091 70798 46/// ///// 10288 40071 57049
AAXX 24181 50353 11970 83201 11239 21304 30047 40294 52007 69901 77070 80007 333 11222
AAXX 24181 50557 32970 02501 11317 21354 39969 40311 52004 333 11230
AAXX 24181 50756 32960 02902 11273 21314 39971 40308 52009 333 11248
AAXX 24181 50949 32965 02501 11257 21307 30139 40330 52012 333 11178
AAXX 24181 50963 32962 02505 11272 21310 30136 40290 52010 333 11207
AAXX 24181 50978 32980 02705 11228 21286 39851 40233 52005 333 11179
AAXX 24181 51087 NIL
AAXX 24181 51156 NIL
AAXX 24181 51644 NIL
AAXX 24181 51656 NIL
AAXX 24181 51886 32980 23402 11171 21299 37106 57004 80002 333 05251 11076
AAXX 24181 52602 32980 00000 11198 21308 37258 57007 333 05300 11054
AAXX 24181 52713 32980 01401 11157 21297 36897 52001 333 05201 11032
AAXX 24181 52754 32980 03603 11159 21239 36782 57004 333 05100 11046
AAXX 24181 52818 32980 02001 11131 21260 37244 52001 333 05101 11048
AAXX 24181 52836 32980 01602 11176 21280 36895 52006 333 00051 11019
AAXX 24181 52955 32980 01402 11138 21245 36964 57002 333 05205 11015
AAXX 24181 53068 32980 02702 11181 21213 39117 40346 57002 333 00101 11106
AAXX 24181 53276 32980 02506 11146 21203 38907 40342 57005 333 11099
AAXX 24181 54135 32980 02501 11190 21273 30090 40334 52005 333 11121
AAXX 24181 54236 32965 03601 11182 21241 30215 40330 52009 333 11089
AAXX 24181 54539 32970 00402 11064 21117 30287 40302 52008 333 10022
AAXX 24181 54662 32970 00901 11051 21094 30184 40304 54000 333 11025
AAXX 24181 54753 32965 02002 11027 21098 30298 40305 52004 333 10031
AAXX 24181 54857 32965 02701 11013 21081 30218 40314 52005 333 10033
AAXX 24181 57067 32965 00000 11064 21104 39631 40339 57001 333 10079
AAXX 24181 57178 32962 00201 10007 21060 30158 40322 57004 333 10104
AAXX 24181 57245 32963 80901 10006 21030 39958 40322 57001 8807/ 333 05200 10097
AAXX 24181 57297 32960 02901 11008 21045 30173 40318 57004 333 10107
AAXX 24184 89062 42320 80916 11009 21019 39764 49804 57005 886// 333 81708 87715
AAXX 24181 91945 36/// /0814 10284 20222 30171 40176 51012
AAXX 24184 40582 32960 01612 10175 20072 40139 51006 333 55300 00000 10244 20000 30000 41158 51402 60000 55407 40000 90401 91017 91117 91213 91311
AAXX 24184 41150 NIL
AAXX 24184 41168 NIL
AAXX 24184 41170 42962 01504 10184 20115 30164 40177 333 10252 59020
AAXX 24184 41176 NIL
AAXX 24184 41184 41958 00000 10158 20122 40163 70600 333 10260 59009
AAXX 24184 41194 12960 02303 10209 20132 30167 40172 60001 333 10239 59012
AAXX 24184 41196 41957 09901 10152 20110 30134 40174 70500 333 10241 59011
AAXX 24184 41198 42960 03110 10205 20114 40164 333 10251 59017
AAXX 24184 41210 NIL
AAXX 24184 41216 NIL
AAXX 24184 41217 41958 03002 10182 20131 30140 40169 70500 333 10232 59011
AAXX 24184 41218 42960 03306 10159 20098 39866 40179 333 10238 59007
AAXX 24184 41226 NIL
AAXX 24184 41244 36/// /3504 10163 20087 39826 48104 333 0E015 10238 59007
AAXX 24184 41246 32960 02203 10198 20118 30159 40164 333 10254 59016
AAXX 24184 41254 36/// /2704 10114 21166 37967 47972 333 0E006 10186 58000
AAXX 24184 41256 32960 01902 10195 20132 30157 40167 333 10251 59019
AAXX 24184 41258 36/// /1601 10217 20133 30154 40159 333 0E/// 10238 59020
AAXX 24184 41268 36/// /1901 10181 20109 30149 48010 333 0E020 10266 59018
AAXX 24184 41312 36/// /2802 10212 20133 30122 40161 333 0E/// 10258 59007
AAXX 24184 41314 32960 00805 10174 20040 39672 40184 333 10240 59006
AAXX 24184 41316 32960 09904 10206 20118 30137 40164 333 10277 59006
AAXX 24184 41404 42960 09902 10124 21127 37886 48546 333 10240 59001
AAXX 24184 41407 NIL
AAXX 24184 41431 42960 01710 1//// 2//// 3//// 40127 91812 333 10290 59006
AAXX 24184 41466 42960 00000 10154 20107 38576 48477 333 10250 59003
AAXX 24184 41477 NIL
AAXX 24184 41480 42960 01104 10249 20166 30157 40160 333 10280 59008
AAXX 24181 29998 42999 31201 11150 21177 38632 48490 57005 80001
AAXX 24181 30385 41993 00000 11427 21444 39789 40423 52011 74444
AAXX 24181 30469 429// 20000 11441 21464 39541 40447 52018 80001
AAXX 24181 30636 429// 30000 11298 21309 39669 40353 52013 80001
AAXX 24181 30650 42984 50000 11332 21356 39127 40393 52016 82041
AAXX 24181 30664 41999 30000 11345 21362 39269 40398 52007 70171 82041
AAXX 24181 30781 NIL
AAXX 24181 30777 42998 00000 11370 21398 39647 40404 52007
AAXX 24181 30844 42999 32702 11190 21196 39276 40319 52015 80001
AAXX 24181 30925 428// 53401 11174 21200 39304 40339 52007 82071
AAXX 24181 31371 42999 82904 11252 21299 30008 40299 52005 80007
AAXX 24181 31388 41984 80000 11200 21212 39954 40236 52002 70272 8802/
AAXX 24181 31478 NIL
AAXX 24181 31532 41999 30000 11224 21229 39849 40218 52002 70271 80002
AAXX 24181 31594 41996 83002 11235 21254 30051 40237 53002 77172 8802/
AAXX 24181 31655 41995 81802 11212 21224 30088 40139 51002 77172 8802/
AAXX 24181 31754 41597 80000 11215 21221 39604 40139 53001 78582 889//
AAXX 24184 82824 42570 50000 10331 20237 39992 40092 83210 333 59024
AAXX 24184 83096 32695 10905 10280 20227 30125 40132 81100 333 58012
AAXX 24184 83186 32598 41409 10310 20128 39570 40094 82230 333 58012
AAXX 24184 83242 21497 62302 10300 20000 39638 40127 70352 85720 333 58014 69951
AAXX 24184 83288 32598 61402 10330 20184 39602 40086 86100 333 58003
AAXX 24184 83344 21498 60904 10245 20186 39167 40131 70151 83282 333 58005 69981
BBXX SHIP 24184 99171 11494 41/97 21216 10278 20196 40096 57003 70200 8//// 22241 06278 11004 399// 4////
BBXX 62001 24184 99452 70050 46/// /0203 10112 20034 40380 53005 22200 00141 10806 70031
BBXX 64046 24184 99605 70049 46/// /2641 10070 20025 49910 51016 22200 00079 11016 70078
BBXX 62163 24184 99475 70084 46/// /2615 10106 20050 40362 53002 22200 00126 10806 70032
BBXX 62301 24184 99524 70047 46/// /2421 10095 20078 40242 56010 22200 00088 10606 70031 333 90710 91128
BBXX 62029 24184 99487 70125 46/// /2621 10118 20090 40320 55001 22200 00129 10808 70040 333 90710 91130
BBXX 62442 24184 99490 70164 46/// /2221 1//// 2//// 40292 50000 22200 00125 333 90710 91128
BBXX 62303 24184 99516 70051 46/// /2422 10112 20079 40262 57011 22200 00112 10707 70035 333 90710 91133
BBXX 62081 24184 99510 70134 46/// ///// 10121 20095 40250 55002 22200 00121 10811 70054
BBXX 62105 24184 99554 70121 46/// /2719 10105 20069 40116 51016 22200 00106 10812 70059 333 90710 91127
BBXX 62305 24184 99504 10000 46/98 /2522 10106 20069 40317 57004 22200 00117 10602 70009 333 90710 91134
BBXX 64045 24184 99591 70117 46/// /2636 10079 20035 49966 53025 22200 00100 11020 70098 333 90710 91154
BBXX 62170 24184 99514 10020 46/97 /2425 10089 20051 40288 58005 22200 00101 10502 70010 333 90710 91137
BBXX 62128 24184 99587 10014 47697 /2239 10086 20060 40014 57024 700// 22200 10709 70045
BBXX 63057 24184 99592 10015 47497 /2337 10087 20060 49997 56018 700// 22200 10709 70044
BBXX 63110 24184 99595 10015 47496 /2229 10080 20059 49983 55017 704// 22200 10709 70045
BBXX 62150 24184 99536 10007 47598 /2121 10072 20041 40224 57010 700// 22200 10503 70014
BBXX 63056 24184 99597 10016 47396 /2230 10078 20061 49984 56029 740// 22200 10709 70045
BBXX 62121 24184 99535 10027 46/// ///// 22200
BBXX 62144 24184 99534 10017 47797 /2326 10073 20041 40239 56006 700// 22200 10504 70019
BBXX 62145 24184 99531 10028 47998 /2322 10075 20032 40241 57009 700// 22200
BBXX 62142 24184 99530 10021 47797 /2320 10071 20039 40239 58008 700// 22200 10504 70018
BBXX 62111 24184 99580 70003 46/// /2434 10092 20065 40054 55008 22200 10708 70042
BBXX PJAI 24184 99581 70014 47598 /2221 10095 20052 40030 53002 700// 22200
BBXX 62112 24184 99584 70002 47496 /2229 10088 20064 40028 55002 700// 22200
BBXX 63055 24184 99606 10016 47296 /2529 10089 20075 49960 56013 700// 22200 10810 70049
BBXX 63108 24184 99608 10017 47996 /2438 10080 20055 49949 56020 704// 22200 10809 70047
BBXX 63106 24184 99610 10017 46/// /2335 10081 49916 56027 22200
BBXX 63105 24184 99610 10017 47596 ///// 10088 20069 49920 56024 751// 22200
BBXX 63113 24184 99610 10017 46/// /2436 10087 20067 49944 55013 22200 10811 70053
BBXX 63112 24184 99611 10010 47597 /2633 10103 20034 49908 55018 700// 22200 10812 70058
BBXX 63107 24184 99611 10017 46/// /2437 10089 49913 56026 22200
BBXX 63101 24184 99612 10009 46/// /2730 10091 20049 49899 57045 22200
BBXX 63103 24184 99612 10011 46/// /2633 10086 20053 49924 55009 22200 10811 70054
BBXX 63104 24184 99612 10016 47497 /2532 10079 20063 49904 57040 700// 22200
BBXX 63117 24184 99613 10011 47597 /2532 10169 20107 49907 56039 700// 22200
BBXX 63115 24184 99616 10013 47297 /2433 10076 20040 49894 55011 700// 22200 10813 70067
BBXX MWYG6 24184 99603 70040 47996 /2629 10072 700// 22200
BBXX 64041 24184 99607 70026 47296 /2431 10059 20057 49910 52015 700// 22200 10912 70060
BBXX 62148 24184 99536 10015 46/// /2227 10074 20046 40226 57011 22200
BBXX 62149 24184 99537 10011 47998 /2227 10076 20049 40215 57011 700// 22200 10504 70019
BBXX 62131 24184 99539 10012 46/// /22// 10081 20051 40205 57016 22200
BBXX 62127 24184 99540 10007 47598 ///// 10076 20044 40201 58013 700// 22200 10504 70018
BBXX 62165 24184 99540 10009 47698 /2225 10080 20046 40205 57016 700// 22200 10504 70021
BBXX 62123 24184 99563 10022 47597 /2330 10088 20056 40117 57022 700// 22200
BBXX 62132 24184 99564 10020 46/// /2528 10088 20060 40114 57024 22200
BBXX 62120 24184 99564 10021 47597 /2432 10087 40112 57024 700// 22200
BBXX 62154 24184 99564 10022 46/// /2229 10084 20061 40119 57022 22200
BBXX 62152 24184 99570 10018 47/97 /1922 10088 20056 40105 57021 700// 22200 10507 70033
BBXX 62119 24184 99570 10019 47497 /2331 10087 20062 40098 57023 700// 22200 10607 70033
BBXX 62133 24184 99571 10009 46/// /2233 10096 20051 40075 57023 22200 10607 70033
BBXX PJGO 24184 99571 10022 47497 /2131 10086 20066 40097 57019 751// 22200
BBXX 62164 24184 99572 10008 47497 /2221 10100 20064 40081 57020 700// 22200 00093 10708 70040
BBXX 62146 24184 99572 10021 47/97 /2327 10085 20059 40088 57024 700// 22200 10707 70035
BBXX 62140 24184 99573 10013 46/// /24// 10092 20064 40068 58025 22200
BBXX 62122 24184 99573 10016 47497 /2229 10110 20068 40082 56023 700// 22200 10607 70033
BBXX 62153 24184 99573 10020 47597 /2234 10088 20065 40079 57024 700// 22200 10707 70036
BBXX 62104 24184 99574 10013 47497 /2432 10094 20064 40062 57024 700// 22200
BBXX 62116 24184 99576 10011 47497 /2436 10090 20060 40054 56022 700// 22200 10608 70039
BBXX 62155 24184 99577 10007 47497 /2334 10094 20066 40067 56015 751// 22200 10708 70042
BBXX 62118 24184 99577 10009 47997 /2236 10099 20063 40051 57020 700// 22200 10708 70041
BBXX 62143 24184 99577 10018 47497 /2322 10090 20061 40056 56024 700// 22200 10708 70039
BBXX 62117 24184 99579 10000 47397 /2233 10093 20064 40046 56010 700// 22200 10708 70042
BBXX 62102 24184 99579 10018 46/// /2329 10088 20056 40052 57024 22200 10708 70039
BBXX 62134 24184 99580 10014 47497 /2335 10091 20060 40045 56021 700// 22200 10709 70043
BBXX 62114 24184 99583 10000 46/// /2233 10091 20065 40024 55008 22200
BBXX ZQSD5 24184 99583 10007 46/// /2233 10091 20065 40032 56021 22200 10810 70052
BBXX 62113 24184 99584 10002 47497 /2231 10089 20062 40042 56016 700// 22200
BBXX 62129 24184 99584 10003 46/// ///// 10091 20064 40046 55015 22200
BBXX PENR 24183 99364 70289 41497 60910 10185 20151 40326 56016 70200 85265 22254 20301 319// 40601 80165
BBXX 62169 24183 99614 10014 41/97 82247 10065 20065 49900 56010 70282 8//// 22200 20716 3//// 4//// 5//// 80065
BBXX 63110 24183 99595 10015 41/// /2340 10080 49976 700// 8//// 22200 10709 70045
BBXX 62094 24184 99517 70067 46/// /2325 10108 20089 40254 57007 22200 00106 10607 70033 333 90710 91136
BBXX 62303 24184 99516 70051 46/// /2422 10112 20079 40262 57011 22200 00112 10708 70038 333 90710 91133
BBXX 62103 24184 99499 70029 46/99 /2828 10105 20063 40308 56015 22200 00120 10804 70021 333 90710 91140
BBXX 62107 24184 99501 70061 46/// /2528 10108 20075 40307 57005 22200 00115 10905 70026 333 90710 91141
BBXX 62304 24184 99511 10018 46/98 /2525 11003 21047 40297 56006 22200 00105 10601 70007 333 90710 91128
BBXX 64045 24184 99591 70117 46/// /2634 10079 20035 49966 53025 22200 00100 11020 70098 333 90710 91154
BBXX 62304 24184 99511 10018 46/98 /2525 10097 20049 40297 56006 22200 00104 10601 70007 333 90710 91135
BBXX MYSU5 24184 99494 70096 41498 63129 10110 20079 40324 54000 70222 8347/ 22223 00120 20604 329// 40905 5//// 80095
BBXX A8UT7 24184 99429 70236 41598 42117 10160 20144 40290 57010 70111 83549 22263 20603 328// 40803 80150
BBXX 62103 24184 99499 70029 46/99 /2727 10112 20063 40306 56010 22200 00120 10704 70022 333 90710 91138
BBXX 62095 24184 99531 70159 46/// /2320 10114 20111 40168 53006 22200 00113 10810 70052 333 90710 91129
BBXX 62027 24184 99491 70022 46/// /2720 1//// 2//// 40329 58011 22200 00110 10904 325// 70018
BBXX E5U2123 24183 99370 70128 41597 70225 10160 20103 40302 56010 70222 87800 22283 00178 20805 336// 41008 5//// 80130
BBXX 41029 24181 99328 70796 46/// /0609 1//// 91800 555 11118 22140
BBXX 44033 24181 99441 70690 46/30 /3607 11067 40291 54000 91804 22200 00069 10301 70005 333 91210 555 11086 22089
BBXX 44034 24181 99441 70681 46/30 /3411 11066 40282 53004 91804 22200 00082 10403 70013 333 91215 555 11139 22145
BBXX 42362 24181 99278 70907 46/// /0713 10200 20167 40237 58017 91800
BBXX 42362 24181 99278 70907 46/// /0812 10206 20172 40237 91815
BBXX 42364 24181 99291 70881 46/// /0509 10150 20122 40261 91815
AAXX 24181 38388 32598 80000 10050 21044 30065 40136 54000 889// 333 10076
AAXX 24181 38392 32497 72303 10028 21074 30033 40137 52006 87500 333 10053 87614
AAXX 24181 38507 21596 80000 10058 20034 30033 40136 52006 71022 885// 333 69900 88622 10081
AAXX 24181 38511 32598 70000 10025 20017 39992 40135 52008 87500 333 10025
AAXX 24181 38545 32998 01401 11038 21105 39970 40152 52007 333 10064
AAXX 24181 38647 32697 80902 10033 20001 30080 40123 52001 885// 333 10105
AAXX 24181 38656 32998 00000 10023 21048 30029 40141 58001 333 10106
AAXX 24181 38687 31595 81602 10033 21046 39915 40152 52003 70511 889// 333 10120 84920 84620
AAXX 24181 38750 32997 00902 10058 20039 30151 40122 54000 333 10122
AAXX 24181 38763 32597 81001 10055 20006 30027 40133 57001 885// 333 10115 88623
AAXX 24181 38774 32995 00000 10029 21004 39955 40153 52002 333 10095
AAXX 24181 38799 32597 71102 10059 21042 39913 40146 52005 87500 333 10140
AAXX 24181 38806 32997 61803 10080 21041 39894 40153 52002 86500 333 10132
AAXX 24181 38880 31996 40000 10029 21029 39888 40147 57007 70500 80001 333 10127
AAXX 24181 38886 32997 03101 10016 21050 39917 40149 52001 333 10199
AAXX 24181 38895 31995 21302 10070 21067 39852 40142 52002 70511 82070 333 10185
AAXX 24181 38911 32997 81505 10075 21025 39866 40160 58002 8807/ 333 10142
AAXX 24181 38915 32997 20903 10086 21071 39936 40159 58008 80002 333 10164
AAXX 24181 38974 32998 02901 10059 21027 39811 40147 52007 333 10200
AAXX 24181 38987 32996 02501 10085 21067 39417 40155 58002 333 10209
AAXX 24181 28383 32997 41401 11192 21204 30117 40208 57001 80001 333 11117
AAXX 24181 28588 31996 01601 11183 21202 30043 40214 57009 71011 333 11119
AAXX 24181 28791 32998 00902 11233 21251 30065 40224 57012 333 11145
AAXX 24181 28696 32997 00000 11225 21257 30087 40240 57005 333 11118
AAXX 24181 28465 32998 32001 11192 21211 30108 40192 57006 80001 333 11153
AAXX 24181 28586 32997 20000 11189 21208 30059 40218 57005 80001 333 11105
AAXX 24181 48820 32998 00000 10132 20048 30238 40246 51005 333 58002
AAXX 24181 28688 32997 00902 11193 21212 30044 40217 57011 333 11105
AAXX 24181 23929 12978 82001 11109 21115 30082 40152 57004 69920 85031 333 11083
AAXX 24184 60555 12970 00000 10126 20019 40265 58017 60002 333 10200
AAXX 24181 60373 36/// /1401 10131 20130 333 10158
AAXX 24181 60623 36/// /0000 10127 21079 333 10173
AAXX 24181 60393 36/// /0000 10134 20112 333 10165
BBXX DDZF2 24184 99349 11221 41697 33324 10065 21098 40305 51025 70100 81444 22274 00120 20806 80010
BBXX SHIP 24184 99315 11344 41398 53022 10080 20038 40213 52013 70311 84343 22243 00220 80060
BBXX SHIP 24184 99217 11272 41698 40125 10190 20142 40246 52009 70222 83170 22283 00247 80160
BBXX DFKP2 24184 99307 11354 41597 63032 10120 20051 40150 57010 75885 86500 22224 00210 2//// 80085
BBXX SHIP 24183 99254 11349 41/98 23516 10180 20148 40221 53000 70100 8//// 22254 00230 80160
BBXX ZQDI9 24183 99210 11186 41598 80327 10208 20135 40197 52003 70222 8472/ 22212 00248 20603 3//// 4//// 5//// 80166
BBXX DGHX 24183 99312 11296 41/98 53223 10095 20055 40210 51010 70222 8//// 22274 00190 2//// 80075
BBXX A8UE5 24184 99439 11476 41998 02317 11005 21020 49970 57010 7//// 80000 22214 04030 20804 3//// 4//// 5//// 81010
BBXX SHIP 24184 99296 11267 41498 53119 10122 20092 40256 52030 70222 8532/ 22212 00198 80009
BBXX SHIP 24184 99524 71524 41598 53432 10010 21016 40027 56010 70222 85/// 91800 22223 00050 2//// 3//// 4//// 80000
BBXX 3FMH7 24184 99292 71565 41697 40328 00/// 10210 2//// 40294 5//// 70211 82140 9//// 22273 00210 1//// 20504 30107 40807 50503 6//// 80185
BBXX MGRH9 24183 99352 31672 41498 51016 10181 20145 40199 57004 70311 82276 22273 20503 306// 40703 5//// 80160
BBXX SHIP 24184 99122 31282 41/97 62008 10296 20282 40011 57010 71722 8//// 22200 04306 10502 80285
BBXX SHIP 24184 99122 31282 41/97 62008 10296 20282 40011 57010 71722 8//// 22200 04306 10502 80285
AAXX 24181 14216 12675 80204 10098 21008 30032 40183 56/// 69902 887// 333 10109 923// 924/8
AAXX 24181 14219 11570 80901 10012 21002 39197 48496 50/// 60012 72276 885// 333 10072 43012 93197
AAXX 24181 14232 11558 82503 10027 20010 30098 40238 52/// 69932 76122 8272/ 333 10050
AAXX 24181 14234 11650 81201 10017 20005 39985 40239 52/// 69912 760// 885// 333 10036
AAXX 24181 14236 11656 80000 10044 20004 30024 40225 52/// 69902 760// 885// 333 10055
AAXX 24181 14244 12460 82602 10025 21007 30105 40239 52/// 60002 885// 333 10044
AAXX 24181 14248 12960 80502 10029 21005 30054 40233 52/// 60002 8802/ 333 10066
AAXX 24181 14253 11650 70000 10019 21011 30053 40231 52/// 60002 71022 87500 333 10046 42001
AAXX 24181 14256 11660 70302 10000 21021 39906 40235 52032 69902 7216/ 87500 333 10021 43009
AAXX 24181 14280 11960 81301 10010 20005 30112 40225 52020 69922 76022 8802/ 333 10026 4/997
AAXX 24181 14308 11562 81604 10067 20023 39830 40186 53/// 69952 76066 8272/ 333 10072
AAXX 24181 14321 12682 80103 10113 20018 30152 40176 52/// 60002 885// 333 10145 92323 92438
AAXX 24181 14370 11550 81801 10032 21019 30114 40226 52024 60002 71022 886// 333 10034
AAXX 24181 14382 11560 80301 10022 21005 30110 40233 52028 60002 76166 8672/ 333 10047
AAXX 24181 14428 12570 73501 10103 20048 30161 40168 53/// 60002 85870 333 10135 92301
AAXX 24181 14441 11984 71404 10110 20038 30129 40154 51/// 60002 700// 80006 333 10151 92322
AAXX 24181 14452 NIL
AAXX 24181 14454 12982 73500 10102 21002 30104 40164 51/// 60002 87070 333 10138 92311
AAXX 24181 14462 12980 61001 10063 21012 30171 40177 52/// 60002 86070 333 10118
AAXX 24181 21432 NIL
AAXX 24181 21824 42998 20000 11383 21397 30351 40361 57007 80001
AAXX 24181 21908 42999 00000 11400 21421 30202 40294 57004
AAXX 24181 21921 42999 00000 11448 21483 30332 40385 57010
AAXX 24181 21931 42998 02302 11416 21449 30341 40378 57008
AAXX 24181 21946 42999 02501 11379 21409 30362 40454 56001
AAXX 24181 21982 31595 73413 11156 21183 30269 40298 52007 73832 86530 333 21190 48012 91120
AAXX 24181 25062 31597 62707 11248 21273 30385 40389 53004 73632 86500 333 21250 48034 91113
AAXX 24181 25123 42996 01302 11352 21380 30429 40467 55000
AAXX 24181 25138 42599 61201 11375 21405 30329 40479 57003 82531 333 91102
AAXX 24181 25173 11392 83212 11208 21220 30332 40337 53006 69932 77173 885// 333 21211 48059 91118
AAXX 24181 25248 42998 00000 11441 21469 39957 40494 55000 333 91100
AAXX 24181 25282 11/08 93313 11209 21215 30281 40288 58006 60010 73932 333 21222 48005 91117 92997
AAXX 24181 25325 NIL
AAXX 24181 25356 32999 13202 11223 21271 30254 40362 57000 80001 333 21232 48017 55000 91004
AAXX 24181 25399 31574 23407 11216 21241 30188 40198 53006 73630 82100 333 21250 48068 55000 91111
AAXX 24181 25428 41915 60000 11450 21483 30074 40473 57003 71022 80001 333 91100
AAXX 24181 25551 32998 02902 11274 21304 30338 40372 54000 333 21396 47035 55000 91104
AAXX 24181 25563 32984 03506 11266 21290 30240 40326 58004 333 21273 44030 55028 91108
AAXX 24181 25594 31998 03510 11173 21215 30170 40224 57010 73630 333 21187 49040 91116
AAXX 24181 25677 31998 02603 11240 21272 30304 40310 57004 70230 333 21240 91106
AAXX 24181 31054 42999 80000 11393 21422 30099 40417 53007 8807/
AAXX 24181 31123 41998 80000 11302 21332 30010 40375 51006 77072 85017
AAXX 24181 48823 32997 03601 10118 20088 30236 40239 50003 333 58004
AAXX 24181 13160 31696 80000 10005 20003 30115 40228 53010 71022 885// 333 10015 4/003
AAXX 24181 13262 32697 80000 10023 21001 30074 40227 52019 885// 333 10067
AAXX 24181 13289 32998 03004 11056 21072 38977 48465 52011 333 11012 4/004
AAXX 24181 13285 32997 00000 11026 21036 30122 40230 52015 333 10034
AAXX 24181 13388 32997 00601 11011 21036 39973 40231 52012 333 10034
AAXX 24181 13376 31995 31901 11014 21029 39965 40239 52018 71000 83030 333 10022 4/001
AAXX 24181 13489 31996 00502 11017 21044 39689 40230 52006 71000 333 10037
AAXX 24184 61600 32960 70604 10283 20037 30129 40134 80002 333 10307 59001
AAXX 24184 61612 32960 60604 10290 21030 30126 40134 80002 333 10315 59005 86073
AAXX 24184 61627 32958 70606 10294 20021 3//// 4//// 80002 333 10318 5//// 87073
AAXX 24184 61630 32960 61004 10300 20098 30097 40116 80002 333 10335 59016 86073
AAXX 24184 61641 32960 73610 10246 20173 30097 40130 80002 333 10280 59002 87073
AAXX 24184 61666 32961 70404 10312 20086 30108 40117 80002 333 10332 59004 87073
AAXX 24184 61679 32960 50408 10320 20107 30106 40114 80002 333 10352 59005 85073
AAXX 24184 61687 NIL
AAXX 24184 61695 32960 53602 10298 20115 30082 40108 80002 333 10322 59006 85073
AAXX 24184 61697 32960 23206 10234 20147 30098 40113 80002 333 10318 59001 82073
AAXX 24184 61698 32960 66404 10323 20061 30087 40098 80002 333 10356 59009 86073
AAXX 24184 61699 32960 51804 10316 20068 39911 40099 80002 333 10344 59001 85073
AAXX 24184 65528 NIL
AAXX 24184 65536 NIL
AAXX 24184 65545 NIL
AAXX 24184 65548 NIL
AAXX 24184 65555 NIL
AAXX 24184 65557 32958 0//// 10292 20232 39856 40094 333 10/// 59009
AAXX 24184 65560 31950 0//// 10312 20188 39777 40083 70500 333 10352 59004
AAXX 24184 65562 NIL
AAXX 24184 65563 32958 02804 10289 20225 39853 40092 333 10330 59002
AAXX 24184 65578 32557 52404 10283 20256 30083 40100 85500 333 10310 59003 85620
AAXX 24184 65585 NIL
AAXX 24184 65592 31460 6//// 10279 20240 30065 40087 71799 85902 333 10309 59003 85913 94978 95838
AAXX 24184 65594 32460 71802 10280 20246 30062 40096 83902 333 10306 59003 83813 81920 86080 94918 94946 95876
AAXX 24184 65599 32460 3//// 10276 20248 30009 40083 83202 333 10306 59003 83815 94905
AAXX 24181 13180 32997 01401 11003 21006 30116 40231 52014 333 10025
AAXX 24181 13384 32997 00901 11022 21029 30071 40230 52015 333 10038
AAXX 24181 13173 32697 81401 10010 21010 30122 40226 52015 885// 333 10032
AAXX 24181 13266 32697 80902 10020 20000 30124 40228 52020 885// 333 10034
AAXX 24181 13369 32997 00000 11089 21115 38980 48441 52011 333 11014 4/010
AAXX 24181 13383 32694 15011 11010 21036 30016 40228 52015 84500 333 10040
AAXX 24181 13389 32998 00000 11027 21048 39933 40228 52018 333 10022 4/001
AAXX 24181 14235 11460 8//// 10001 21014 39052 48495 52029 69912 77122 885// 333 10033 44019 93197
AAXX 24184 60338 12465 70905 10152 20123 30216 40283 52010 60002 876// 333 10170 83715 86620 92417
BBXX 46042 24181 99368 71224 46/// /1006 10103 40303 57005 91750 22200 00130 11608 20401 330// 41607 70038 333 91208 555 11063 22065 31738 41108 61749 098061 097061 094054 089051 085047 086048
BBXX 46145 24181 99544 71324 46/// /1809 10078 40055 57031 22200 00072 11104 70022 333 91211
BBXX 46207 24181 99509 71299 46/// /1711 10086 40154 57007 22200 00082 11206 70031 333 91214
BBXX A8EH3 24183 99556 71360 41/97 81545 10080 20038 49990 57030 76066 887// 22274 04070 20909 315// 41010 80060
BBXX DHBN 24181 99339 71327 41598 71808 10165 20104 40292 51012 70222 8/4// 22224 00170 2//// 3//// 4//// 5//// 80130
BBXX KGTX 24184 99509 71325 41396 81730 10110 20090 40090 52006 75255 884// 22234 00086 20605 3//// 4//// 5//// 6//// 80100 ICE /////
BBXX KGTY 24184 99540 71361 41898 72126 10067 20050 49985 5//// 70255 85/9/ 22274 00056 20807 32122 41010 51209 6//// 80061 ICE /////
BBXX VQAJ8 24183 99409 71257 41/98 13610 10100 20081 40308 57022 70100 81/40 22282 00125 20000 335// 40704 5//// 80091
BBXX VQKR7 24184 99349 71223 41098 11003 10130 20111 40304 55030 70200 80105 22233 04120 20403 31800 40403 80120
BBXX WABS 24184 99434 71258 41697 81813 10094 20085 40312 54000 72822 886// 22243 0//// 20401 329// 41006 5//// 6//// 80089 ICE /////
BBXX WSRL 24184 99434 71340 41498 61925 10130 20100 40214 55006 70222 865// 22214 00111 2//// 327// 40907 5//// 6//// 80115 ICE /////
BBXX 46147 24181 99518 71312 46/// /1812 10083 40115 57014 22200 00076 10908 70039 333 91214
AAXX 24181 57265 32962 03601 10014 21037 30198 40312 52002 333 10131
AAXX 24181 51431 32980 00701 11123 21155 39417 40250 57001 333 05504 10022
AAXX 24181 51747 32970 00000 11222 21254 39021 40426 52005 333 05453 11063
AAXX 24181 52203 32980 00402 11132 21188 39427 40366 57013 333 05401 11030
AAXX 24181 51087 32980 00000 11226 21254 39312 40379 57009 333 05801 11133
AAXX 24181 51156 32980 03201 11138 21205 38741 40323 57007 333 05601 11052
AAXX 24181 51644 11960 73601 11114 21133 39029 40375 57009 69901 72270 85032 333 05401 11056
AAXX 24181 51656 32970 72001 11107 21130 39210 40384 57003 80002 333 05401 11059
AAXX 24181 51076 32980 01601 11194 21229 39392 40353 57012 333 05803 11102
AAXX 24181 51243 32965 00000 11212 21236 39754 40371 57014 333 05800 11148
AAXX 24181 51463 32970 02001 11160 21185 39159 40360 57008 333 05704 11150
AAXX 24181 51573 32975 02701 11102 21157 30334 40381 57008 333 05400 11051
AAXX 24181 51709 32965 02701 11117 21149 38793 40373 57009 333 05401 11040
AAXX 24181 51379 11765 71401 11226 21258 40379 57005 69901 77070 875// 333 05751 11141
AAXX 24181 51467 32980 00000 11161 21198 38288 57002 333 05452 11057
AAXX 24181 51495 32980 00405 11120 21190 40369 57012 333 05400 11042
BBXX 46147 24181 99518 71312 46/// /1812 10083 40115 57014 22200 00076 10908 70039 333 91214
AAXX 24184 93800 16/// /1405 10124 20101 40224 57001 60001
AAXX 24184 93805 16/// /3512 10160 20083 40212 52001 60001
AAXX 24184 93994 16/// /1204 10193 20133 40140 52008 60001
BBXX ZMFR 24184 99413 31748 43/// /0702 10138 20119 40221 54000 22200 00165
BBXX ZMENA 24184 99392 31781 46/// ///// 10162 20116 40224 57003 22243
AAXX 24181 78310 12570 11004 10267 20204 30183 40193 58014 60001 81200 333 10287 20205 30/// 56900 58000 81820 92024
AAXX 24181 78315 12575 41204 10274 20173 30121 40186 58016 60001 84200 333 10281 20190 30/// 56200 58001 84820 555 10903
AAXX 24181 78318 11561 21008 10279 20160 30187 40191 57014 60001 70500 82200 333 10281 20210 30/// 56900 58008 82820
AAXX 24181 78322 11459 30604 10292 20173 30181 40198 58018 60001 70500 83400 333 10292 20201 30/// 56200 58012 83818 555 10902
AAXX 24181 78324 11/10 10504 10261 20221 30174 40185 58013 60001 70500 81200 333 10261 20201 30/// 56900 57842 58001 818//
AAXX 24181 78325 11563 40707 10278 20157 30138 40196 58017 60001 70511 82232 333 10280 20209 30/// 56299 58010 82820 555 10902
AAXX 24181 78328 11461 21006 10266 20210 30199 40/// 58015 60001 70500 82200 333 10266 20229 30/// 56200 58010 82817 92427 555 10903
AAXX 24181 78333 11410 31901 10280 20193 30182 40189 58017 60001 70500 83200 333 10288 20191 30/// 56400 58011 83819 555 11802
AAXX 24181 78344 11563 20904 10295 20183 30131 40179 58020 60001 70500 82200 333 10298 20205 30/// 56900 57877 58007 82820
AAXX 24181 78345 12465 40505 10289 20215 30180 40183 57024 60001 84800 333 10290 20180 30/// 56900 58010 82816
AAXX 24181 78348 11556 20706 10266 20210 30138 40190 58021 60001 70500 82200 333 10268 20227 30/// 56200 57885 58010 82821 555 10902
AAXX 24181 78349 11560 40602 10288 20185 30093 40202 58012 60001 70500 84200 333 10290 20195 30/// 56200 57862 58023 84820 555 10903
AAXX 24181 78351 12550 30906 10288 20199 30167 40169 58008 60001 83200 333 10295 20193 30/// 56200 58008 83826 555 10903
AAXX 24181 78353 12570 40905 10269 20191 30162 40184 58019 60001 84800 333 10270 20230 30/// 56200 58007 83820 555 11003
AAXX 24181 78355 12570 40606 10276 20192 30047 40187 58020 60001 84200 333 10276 20195 30/// 56200 58010 84823 555 10803
AAXX 24181 78358 11540 40707 10279 20203 30167 40182 58014 60001 70500 84800 333 10283 20185 30/// 56900 58013 82823
AAXX 24181 78360 12570 11308 10290 20205 30164 40176 58017 60001 81200 333 10299 20208 30/// 56200 58004 81820 92035 555 10902
AAXX 24181 78363 11563 40502 10292 20182 30038 40152 58028 60001 70500 84200 333 10292 20160 30/// 56900 58005 84820
AAXX 24181 78365 11/62 20910 10270 20224 30184 40189 58014 60001 70511 82800 333 10275 20242 30/// 56900 57865 58012 818// 92035
AAXX 24181 78369 11568 10806 10279 20205 30169 40178 57018 69921 70581 81200 333 10279 20255 30/// 56900 58001 70002 81820 92044
AAXX 24184 71276 16/// ///21 10035 21052 60001 333 10035 21034 70000
AAXX 24184 71375 46/// /3012 11163 6///1 333 11135 21203 7////
AAXX 24184 71068 12974 12810 10022 21054 39477 40170 52026 60001 80001 333 10041 20009 70000
AAXX 24184 71770 16/// /1501 11037 21047 39581 40385 53008 60001 333 11037 21078 70000
AAXX 24184 71217 16/// /2205 10029 21051 60001 333 10040 21026 70000
AAXX 24184 71224 16/// /2611 10030 21036 60001 333 10030 21020 70000
AAXX 24184 71976 46/// /2121 11252 21280 39427 40083 56020 6///1 333 11241 21282 7////
AAXX 24184 71979 16/// ///// 11001 21078 38526 40184 51010 60001 333 10020 21014 70000
AAXX 24184 71189 46/// /2816 11161 21216 6///1 333 11161 21197 7////
AAXX 24184 71340 16/// /2712 10034 21034 60001 333 10044 21018 7////
AAXX 24184 71343 16/// /2621 10051 21043 60001 333 10051 20008 70000
AAXX 24184 71345 16/// /2712 10058 21037 60001 333 10059 20007 70000
AAXX 24184 60555 12970 00000 10126 20019 40265 58017 60002 333 10200
BBXX ZMFR 24184 99413 31748 43/// /0702 10138 20119 40221 54000 22200 00165
BBXX ZMENA 24184 99392 31781 46/// ///// 10162 20116 40224 57003 22243
AAXX 24181 25703 41999 80000 11383 21415 30148 40462 57006 70272 83037
AAXX 24181 25745 NIL
AAXX 24181 25913 42999 00704 11209 21266 30146 40307 53004
AAXX 24181 25954 42698 50306 11091 21136 30166 40283 52002 82530
AAXX 24181 25956 42598 50604 11204 21245 30313 40319 53005 83501 333 91112
AAXX 24181 31088 42999 23603 11232 21279 30308 40316 57002 80001
AAXX 24181 31873 41997 82803 11206 21233 30048 40193 53004 77172 8802/
AAXX 24181 31909 41996 62811 11181 21250 39988 40072 52005 73831 86010 333 91019 91121
AAXX 24181 31960 42998 03508 11197 21286 39953 40209 52002 333 91113
AAXX 24181 31961 42498 80301 11232 21272 30169 40220 57001 8662/ 333 86711
AAXX 24181 32053 41294 80409 11042 21042 30025 40074 57006 78683 889// 333 87704 91014 91116
AAXX 24181 32061 41540 80209 11037 21066 39992 40030 55003 78583 889// 333 91014 91114
AAXX 24181 32098 41295 80306 11011 21012 39941 49951 53013 78583 889// 333 88705 91012 91115
AAXX 24181 32150 41596 60203 11025 21044 39854 49884 54000 70282 86300 333 91005 91107
AAXX 24181 32165 42999 02307 11035 21115 39893 49954 58009 333 91010 91114
AAXX 24181 32215 41595 80911 10000 21008 30004 40033 57019 78583 889// 333 91019 91120
AAXX 24181 32252 NIL
AAXX 24181 32389 41496 80000 11296 21307 30235 40277 57011 78582 889// 333 84711
AAXX 24181 32477 42997 80603 11093 21155 30100 40133 57006 8805/
AAXX 24181 32583 41597 80507 11017 21051 30103 40134 57015 78583 889// 333 91014 91114
AAXX 24181 32618 41598 71502 11010 21053 30191 40214 57003 70283 87500
AAXX 24184 71068 12974 12810 10022 21054 39477 40170 52026 60001 80001 333 10041 20009 70000
AAXX 24184 71068 12974 12810 10022 21054 39477 40170 52026 60001 80001 333 10041 20009 70000
AAXX 24184 71276 16/// ///21 10035 21052 60001 333 10035 21034 70000
AAXX 24184 71217 16/// /2205 10029 21051 60001 333 10040 21026 70000
AAXX 24184 71224 16/// /2611 10030 21036 60001 333 10030 21020 70000
AAXX 24184 71770 16/// /1501 11037 21047 39581 40385 53008 60001 333 11037 21078 70000
AAXX 24184 91772 11398 80000 10256 20242 4//// 60031 78088 8672/ 333 5699/ 83707 85816 88559
AAXX 24184 91776 31498 50000 1//// 2//// 4//// 60001 70312 858// 333 569// 85817
AAXX 24184 91779 31498 60000 10245 20238 40088 53014 60001 70222 83201 333 569/9 83817 86078
AAXX 24184 91784 11498 70000 10250 20246 40080 53010 69911 70282 81238 333 56999 81815 84362 86277
AAXX 24184 91792 11498 71406 10245 20235 40090 52009 60071 70268 8577/ 333 5639/ 81710 84817 87462
BBXX 46183 24181 99536 71311 46/// /1614 10083 40082 57024 22200 0//// 1//// 70/// 333 912//
AAXX 24181 60379 36/// /0000 10120 20120 333 10169
AAXX 24181 60380 16/// /0402 10102 20097 69922 333 10160
AAXX 24181 60394 36/// /0000 10122 20116 333 10159
AAXX 24181 60374 36/// /1003 10125 20124 333 10168
AAXX 24181 60613 36/// /0205 10115 20004 333 10168
AAXX 24184 89002 41499 70619 11019 21041 39713 49766 57020 70273 878//
AAXX 24184 71340 16/// /2712 10034 21034 60001 333 10044 21018 7////
AAXX 24184 71343 16/// /2621 10051 21043 60001 333 10051 20008 70000
AAXX 24184 71345 16/// /2712 10058 21037 60001 333 10059 20007 70000
AAXX 24184 71189 46/// /2816 11161 21216 6///1 333 11161 21197 7////
AAXX 24184 71375 46/// /3012 11163 6///1 333 11135 21203 7////
AAXX 24184 71976 46/// /2121 11252 21280 39427 40083 56020 6///1 333 11241 21282 7////
AAXX 24184 71979 16/// ///// 11001 21078 38526 40184 51010 60001 333 10020 21014 70000
BBXX 46183 24181 99536 71311 46/// /1614 10083 40082 57024 22200 0//// 1//// 70/// 333 912//
AAXX 24181 50434 32980 01803 11421 21468 39380 40415 52011 333 11281
AAXX 24181 50527 31959 01801 11385 21426 39491 40418 52005 70400 333 11332
AAXX 24181 50603 32978 00401 11300 21337 39609 40378 52003 333 11251
AAXX 24181 50632 32980 03203 11277 21346 39358 40357 52008 333 11227
AAXX 24181 50727 32980 00000 11352 21395 39054 40398 52004 333 11233
AAXX 24181 50915 32980 02501 11214 21256 39251 40351 52006 333 11164
AAXX 24181 51716 32965 02001 11103 21131 38984 40363 57011 333 05452 11027
AAXX 24181 51765 32980 02001 11153 21172 39307 40383 54000 333 05552 11031
AAXX 24181 51777 32972 02501 11141 21179 39259 40380 52001 333 05551 11025
AAXX 24181 51811 32962 00000 11119 21146 38861 40378 57007 333 05451 11039
AAXX 24181 51828 32965 01402 11087 21128 38699 40356 57006 333 05402 11026
AAXX 24181 52267 32980 02702 11096 21207 39181 40349 57007 333 05202 11019
AAXX 24181 52323 32980 02901 11163 21213 38266 57006 333 05300 11015
AAXX 24181 52495 32980 02501 11172 21237 38755 40377 57006 333 00056 11015
AAXX 24181 53149 32980 02905 11134 21189 38828 40339 57002 333 00101 11072
AAXX 24181 53192 32980 02701 11242 21267 38930 40393 57001 333 11187
AAXX 24181 53231 32980 01605 11152 21201 38542 57002 333 00101 11080
AAXX 24181 53336 32980 02501 11133 21192 38771 40343 57004 333 00100 11042
AAXX 24181 53391 32980 02703 11168 21202 38532 40348 54000 333 00201 11107
AAXX 24181 53529 32980 01101 11124 21188 38686 40355 57009 333 00052 11024
AAXX 24181 53543 32980 02705 11089 21189 38584 40332 57006 333 11045
AAXX 24181 53723 32970 02701 11104 21175 38728 40353 57002 333 00051 11007
AAXX 24181 54012 32980 30000 11191 21240 39061 40349 52005 80002 333 11162
AAXX 24181 54026 32980 22901 11177 21246 39968 40323 52002 80002 333 11106
AAXX 24181 54027 32975 01101 11200 21254 39690 40331 52005 333 11093
AAXX 24181 54208 32980 01802 11188 21214 38790 40350 54000 333 11115
AAXX 24181 54776 32580 22703 11015 21098 30245 40305 52003 82400 333 10017
AAXX 24181 56004 32980 00000 11190 21341 35796 57003 333 00153 11017
AAXX 24181 56033 32980 20000 11139 21258 35992 52007 80002 333 00007 11029
AAXX 24181 56046 32980 01801 11149 21213 36237 52012 333 05103 11007
AAXX 24181 56193 NIL
AAXX 24181 56196 31950 80000 10043 20003 40304 57004 71000 8807/ 333 05302 10098
AAXX 24181 56287 32965 80000 10050 20025 40310 57001 8807/ 333 05300 10096
AAXX 24181 56684 32560 80901 10020 21011 37915 54000 885// 333 05504 10049
AAXX 24181 56751 32980 02502 10076 20021 38020 52007 333 05102 10179
AAXX 24181 56786 11558 81604 10019 20007 38135 57003 69901 76060 885// 333 05402 10049
AAXX 24181 56977 32462 80701 10112 20084 40208 57008 885// 333 00151 10145
AAXX 24181 57259 32968 01101 11027 21038 40328 52003 333 10129
AAXX 24181 57279 32963 01401 10008 21065 40318 57001 333 10112
AAXX 24181 57348 31858 80000 10068 20031 40303 52001 71000 885// 333 10130
AAXX 24181 57399 32962 00401 11014 21075 40329 54000 333 10119
AAXX 24181 57554 32961 80000 10039 20004 40322 57001 8807/ 333 10128
AAXX 24181 57793 32960 02002 11003 21027 40322 52006 333 10125
AAXX 24181 58345 31958 00000 11021 21051 40324 52006 71000 333 10083
AAXX 24181 58506 32963 00000 11033 21120 40330 54000 333 10032
AAXX 24181 58813 32966 00000 11009 21026 40312 52006 333 10113
AAXX 24181 58834 32965 01801 10021 21006 40308 52010 333 10125
AAXX 24181 58926 32965 03601 10018 21013 40295 52008 333 10135
AAXX 24181 58944 32963 00404 10106 20003 40280 54000 333 10112
AAXX 24181 59096 32963 03401 10055 21061 40284 52003 333 10138
AAXX 24181 59102 32961 00000 10012 21040 40289 52004 333 10114
AAXX 24181 59278 32962 00203 10107 21041 40269 52004 333 10150
AAXX 24181 59456 32968 00702 10103 21049 40253 52001 333 10173
AAXX 24181 59493 32964 00203 10102 21070 40252 52002 333 10151
AAXX 24181 59658 32960 00201 10082 21003 40245 57001 333 10183
AAXX 24181 59673 32962 00209 10121 21029 40246 57001 333 10150
AAXX 24181 59845 32960 21801 10097 20070 40240 57006 80002 333 10163
BBXX 46088 24181 99483 71232 46/// /0805 10071 40287 91820 22200 00079 1//00 70002 333 91207 555 11054 22056 31818 40807 61819 082049 087042 106026 132016 162013 179014
BBXX 46088 24181 99483 71232 46/// /0805 10071 40287 91820 22200 00079 1//00 70002 333 91207 555 11054 22056 31818 40807 61819 082049 087042 106026 132016 162013 179014
BBXX 46249 24181 99338 71197 46/// ///// 1//// 91810 22200 00146 11802 20901 325// 41802 70012
BBXX 46248 24181 99461 71247 46/// ///// 1//// 91804 22200 00096 11407 21004 328// 41406 70035
BBXX 46244 24181 99409 71244 46/// ///// 1//// 91805 22200 00093 11507 20903 329// 41507 70037
BBXX 46241 24181 99330 71173 46/// ///// 1//// 91741 22200 00142 11802 20501 326// 41801 70008
BBXX 41115 24181 99184 70673 46/// ///// 1//// 91805 22200 11102 20802 301// 41101 70012
BBXX 41114 24181 99276 70802 46/// ///// 1//// 91816 22200 00250 10901 20901 70006
BBXX 46240 24181 99366 71219 46/// ///// 1//// 91812 22200 00123 11703 21001 300// 41703 70014
BBXX 46237 24181 99378 71226 46/// ///// 1//// 91810 22200 00107 11705 21002 325// 41705 70026
AAXX 24184 60765 12558 22810 10161 20084 30246 40249 51004 60002 82500 333 10195 82630 92436 925//
AAXX 24184 60767 12960 02208 10139 20048 30099 40244 53007 60002 333 10186
BBXX 46212 24181 99408 71243 46/// ///// 1//// 91812 22200 00095 11507 21003 330// 41506 70034
BBXX 46217 24181 99342 71194 46/// ///// 1//// 91812 22200 00146 11802 20801 324// 41801 70008
BBXX 46229 24181 99438 71246 46/// ///// 1//// 91751 22200 00097 11307 21003 329// 41306 70034
AAXX 24184 64700 32960 03404 10242 20048 39776 40119 333 10329 58005
AAXX 24184 64750 32960 50000 10250 20110 39663 40074 80002 91800 333 10375 59009 85075
AAXX 24184 60765 12558 22810 10161 20084 30246 40249 51004 60002 82500 333 10195 82630 92436 925//
AAXX 24184 60767 12960 02208 10139 20048 30099 40244 53007 60002 333 10186
BBXX 46216 24181 99343 71198 46/// ///// 1//// 91757 22200 00144 11802 21001 325// 41801 70009
BBXX 46223 24181 99335 71178 46/// ///// 1//// 91800 22200 00152 11802 21001 326// 41802 70009
BBXX 46231 24181 99327 71174 46/// ///// 1//// 91754 22200 00147 11802 21001 328// 41802 70012
BBXX 46222 24181 99336 71183 46/// ///// 1//// 91756 22200 00149 11801 20901 326// 41801 70007
BBXX 46242 24181 99332 71174 46/// ///// 1//// 91758 22200 00143 11502 20501 322// 41501 70008
BBXX 46211 24181 99469 71242 46/// ///// 1//// 91806 22200 00082 11406 21004 327// 41405 70032
BBXX 46131 24181 99499 71250 46/// /1110 1//// 40274 52007 22200 00075 10502 70009 333 91213
BBXX 46221 24181 99339 71186 46/// ///// 1//// 91745 22200 00148 11802 21001 326// 41802 70011
BBXX 46131 24181 99499 71250 46/// /1110 1//// 40274 52007 22200 00075 10502 70009 333 91213
AAXX 24184 60748 12560 32606 10137 20079 39826 40245 53009 60002 83200 333 10180 83823
AAXX 24181 13262 32697 80000 10023 21001 30074 40227 52019 885// 333 10067
AAXX 24184 65257 32956 70000 10285 20136 40076 80008 333 10346 59006 87280
AAXX 24184 65252 32960 71204 10285 20213 39952 40087 80008 333 10335 59002 87280
AAXX 24184 65271 11958 40000 10294 20104 30986 40084 60001 70522 80008 333 10354 59009 84280
AAXX 24184 40153 11001 92418 10082 20081 39056 48455 52012 60122 76064 333 10102
AAXX 24184 40179 11560 52310 10167 20116 30104 40141 52006 69922 71362 85200 333 10184
AAXX 24184 40180 11560 61608 10145 20108 30098 40147 53007 60012 76162 86200 333 10186
AAXX 24184 40190 16/// ///// 10146 20045 39823 40154 52008 60002 333 10177
AAXX 24184 40199 12770 10102 10177 21021 30145 40168 52029 60002 81200 333 10236
AAXX 24181 13369 32997 00000 11089 21115 38980 48441 52011 333 11014 4/010
BBXX 46204 24181 99514 71288 46/// /0915 10078 40166 5//// 22200 00084 11207 70037 333 91218
BBXX 46204 24181 99514 71288 46/// /0915 10078 40166 5//// 22200 00084 11207 70037 333 91218
BBXX 41112 24181 99307 70813 46/// ///// 1//// 91751 22200 00165 11002 21002 70008
AAXX 24184 82106 32597 80504 10275 20234 3//// 4//// 8329/ 333 5////
AAXX 24184 82113 21696 80504 10285 20246 3//// 4//// 70362 85570 333 5//// 60021
AAXX 24184 82212 32798 60904 10308 20247 30030 40112 82180 333 59008
AAXX 24184 82336 21196 83602 10240 20233 3//// 4//// 75196 84670 333 5//// 60261
AAXX 24184 82425 32597 60903 10324 20288 3//// 4//// 84236 333 5////
AAXX 24184 82533 32497 32702 10322 20243 3//// 4//// 83200 333 5////
AAXX 24184 82704 32596 51406 10309 20252 39864 40055 85100 333 59006
AAXX 24184 82723 32598 43602 10330 20250 30030 40112 84200 333 58011
BBXX ZDLS1 24184 99734 50220 41398 61011 10007 21024 49824 57010 70122 81175 22253 05013 20101 30000 82004 ICE //100
AAXX 24184 83248 32470 51608 10271 20231 30124 40146 83230 333 59016
AAXX 24184 82042 21196 80000 10269 20239 3//// 4//// 70362 887// 333 5//// 60011
AAXX 24184 82240 21696 80000 10300 20246 3//// 4//// 70352 889// 333 5//// 69951
AAXX 24184 82317 32594 43604 10326 20238 3//// 4//// 82202 333 5////
AAXX 24184 82610 32695 60000 10318 20268 3//// 4//// 84320 333 5////
AAXX 24184 82807 32695 83602 10301 20257 3//// 4//// 8////
AAXX 24184 03008 11462 72532 10082 20046 49967 60032 72586 877// 91750 333 10094 87715 90710 91149 91044
BBXX VROB 24184 99358 31505 46/// /3610 10200 20182 30074 40099 57006 22213 04207 85188
BBXX V2OG2 24183 99306 31142 41998 01915 10223 20189 40142 50006 70000 80000 22273 20403 318// 40505 80200
AAXX 24184 91650 11599 60306 10263 2025/ 40057 53011 60001 70302 868// 333 569// 82820 85648
AAXX 24184 91652 NIL
AAXX 24184 91656 NIL
AAXX 24184 91659 NIL
AAXX 24184 91660 NIL
AAXX 24184 91669 36/// /1305 10243 2//// 40071 52004 91815
AAXX 24184 91670 36/// /0400 10254 20232 40063
AAXX 24184 91676 14/// /0802 10246 20236 30006 40067 50013 60091
AAXX 24184 91680 11698 31106 10234 20228 40065 53003 60001 70200 82801 333 569/9 82830 83080
AAXX 24184 91682 NIL
AAXX 24184 91683 11599 60000 10230 20229 40067 53003 60001 70322 83831 333 56999 83820 86078
AAXX 24184 91691 14/// /0101 10248 20243 30078 40081 50013 60061
AAXX 24184 91693 11599 60000 10238 2023/ 40063 55003 69921 70162 82831 333 56999 82822 85078
AAXX 24184 91697 14/// /1200 10230 20224 30067 40072 50001 60131
AAXX 24184 91699 14/// /0804 10241 20231 30053 40085 50010 60011
BBXX VROB 24184 99358 31505 46/// /3610 10200 20182 30074 40099 57006 22213 04207 85188
BBXX V2OG2 24183 99306 31142 41998 01915 10223 20189 40142 50006 70000 80000 22273 20403 318// 40505 80200
BBXX 44098 24181 99428 70702 46/// ///// 1//// 91807 22200 00087 10603 20603 70014
BBXX 46087 24181 99485 71247 46/// /1307 10083 20082 40288 91820 22200 00086 333 91209 555 11072 22077 31754 41209 61819 124069 118072 116068 118070 115066 117059
BBXX A8PF6 24184 99397 70620 41596 83319 10110 20092 40170 54000 75022 88/2/ 22243 0//// 20302 333// 40806 5//// 6//// 80100 ICE /////
BBXX V7NV4 24184 99300 71788 41597 61924 10210 20195 40190 54000 702// 82686 22263 00200 20201 309// 40506 5//// 6//// 80200 ICE /////
BBXX WAHP 24184 99387 70499 41597 72431 10212 20174 40186 57037 72565 875// 22264 00210 20704 325// 40803 5//// 6//// 80187 ICE /////
BBXX WHKM 24184 99075 70602 41198 10305 10230 20201 40120 54000 7//00 814// 22233 0//// 2//// 3//// 4//// 5//// 6//// 80210 ICE /////
BBXX WKAU 24184 99244 70834 41597 30513 10280 2025/ 40210 54000 70200 83/88 22272 00240 20302 305// 40302 5//// 6//// 80260 ICE /////
BBXX WZJC 24184 99260 70876 41398 30818 10250 2021/ 40210 58010 7//00 834// 22223 00256 20604 302// 40804 5//// 6//// 80222 ICE /////
BBXX 51205 24181 99210 71564 46/// ///// 1//// 91818 22200 00236 10906 20905 335// 41102 70029
BBXX 46114 24181 99364 71222 46/// ///// 1//// 91804 22200 00127 11509 21002 329// 41509 70044
BBXX 41036 24181 99342 70770 46/// ///// 10121 20023 40281 91820 22200 00187
AAXX 24181 35746 325// 80504 11108 21144 30090 40160 58004 885// 333 11112
AAXX 24181 35849 12998 50000 11092 21137 30054 40143 57005 69900 80006 333 11090
AAXX 24181 35925 119// 80902 11084 21099 40140 51003 60010 71022 8802/ 333 11073
AAXX 24181 35953 325// 80806 11120 21155 30019 40154 57016 885// 333 11125
AAXX 24181 35969 329// 70702 11132 21175 30008 40191 57007 87070 333 11119
AAXX 24181 38001 32597 80503 11043 21070 30184 40154 52016 885// 333 11030
AAXX 24181 38062 329// 70801 11122 21165 39985 40156 57014 87010 333 11100
AAXX 24181 38069 329// 00901 11050 21091 39959 40155 57008 333 10015
AAXX 24181 38232 31494 63203 11013 21015 30030 40130 52008 71011 86600 333 10031
AAXX 24181 21802 41999 01505 11360 21378 30230 40257 54000 73630
AAXX 24181 24125 42998 00903 11351 21361 39949 40267 57011
AAXX 24181 24136 42999 00103 11443 21483 30228 40347 57007
AAXX 24181 24143 41998 60000 11473 21501 30323 40383 57009 77171 86070
AAXX 24181 24266 42998 02401 11477 21505 30255 40470 57005
AAXX 24181 24329 42998 20000 11487 21516 30001 40367 57003 82010
AAXX 24181 24343 41997 80000 11390 21417 30243 40382 57003 77172 84037
AAXX 24181 24382 41992 10000 11470 21494 30179 40484 57008 74444 80001
AAXX 24181 24639 41995 40000 11478 21505 30181 40366 53004 71071 80008
AAXX 24181 24641 42999 00902 11412 21444 30195 40363 57002
AAXX 24181 24652 41997 81004 11346 21374 30259 40401 53006 73673 84031
AAXX 24181 24656 41998 80901 11344 21381 30294 40412 53002 77177 8802/
AAXX 24181 24671 42999 63001 11445 21469 39871 40482 53002 80008
AAXX 24181 24688 41997 02801 11520 21551 39486 40626 54000 70400
AAXX 24181 24724 41994 00802 11442 21469 39717 40345 56006 71000
AAXX 24181 24738 42998 00000 11487 21511 30147 40362 53004
AAXX 24181 24768 42998 60000 11379 21415 30137 40409 53003 86030
AAXX 24181 24923 41995 00000 11446 21475 39992 40359 52005 71000
AAXX 24181 24944 42997 30702 11452 21476 30025 40376 52008 80001
AAXX 24181 24951 42999 00000 11419 21448 30198 40396 51005
AAXX 24181 24661 42999 80000 11345 21381 30099 40405 53003 8801/
AAXX 24181 24959 41994 83401 11355 21383 30250 40399 52001 71022 80005
AAXX 24181 24962 42998 80000 11369 21397 30194 40412 52003 83031
AAXX 24181 24966 42999 60000 11389 21411 30148 40403 53004 81031
AAXX 24181 24967 42999 80000 11353 21390 30165 40417 53001 8801/
AAXX 24181 25206 41996 00000 11427 21461 30430 40463 57002 71000
AAXX 24181 25400 42998 00000 11426 21449 30393 40460 57003
AAXX 24181 30054 42998 20000 11436 21461 30064 40351 52008 80001
AAXX 24181 30089 42999 00000 11471 21494 30137 40409 52007
AAXX 24181 30393 41998 80000 11386 21407 39208 40421 52004 77171 80007
AAXX 24181 30493 41998 82701 11361 21390 39199 40401 52002 77171 80007
AAXX 24181 31004 42999 20000 11338 21361 39434 40385 52002 80001
AAXX 24181 31137 41998 80000 11324 21348 39226 40395 53011 77172 8802/
AAXX 24181 30157 41998 51403 11343 21378 30043 40369 52012 70272 80001
AAXX 24181 35746 325// 80504 11108 21144 30090 40160 58004 885// 333 11112
AAXX 24181 35849 12998 50000 11092 21137 30054 40143 57005 69900 80006 333 11090
AAXX 24181 35925 119// 80902 11084 21099 40140 51003 60010 71022 8802/ 333 11073
AAXX 24181 35953 325// 80806 11120 21155 30019 40154 57016 885// 333 11125
AAXX 24181 35969 329// 70702 11132 21175 30008 40191 57007 87070 333 11119
AAXX 24181 38001 32597 80503 11043 21070 30184 40154 52016 885// 333 11030
AAXX 24181 38062 329// 70801 11122 21165 39985 40156 57014 87010 333 11100
AAXX 24181 38069 329// 00901 11050 21091 39959 40155 57008 333 10015
AAXX 24181 38232 31494 63203 11013 21015 30030 40130 52008 71011 86600 333 10031
AAXX 24184 67765 41780 70904 10233 20174 38666 48510 71792 81973 333 10304 58009 81950 87460
AAXX 24184 67775 41675 71505 10218 20141 38515 48519 71792 81973 333 10298 58016 81940 87458
AAXX 24184 67779 NIL
AAXX 24184 67853 NIL
AAXX 24184 67861 NIL
AAXX 24184 67867 41880 71515 10194 20160 38583 48511 72196 81973 333 10315 5//// 81958 83460 87080
AAXX 24184 67881 41875 63504 10220 20173 38586 48515 71392 81932 333 10290 58016 81957 83360 86080
AAXX 24184 67965 41675 71515 10202 20156 38698 48522 79596 81973 333 10338 58027 81930 87458
AAXX 24184 67975 41665 81202 10193 20185 38948 48535 79596 81973 333 10325 58042 81930 81710 88459
AAXX 24184 67977 NIL
AAXX 24184 67983 41650 71705 10195 20184 38911 48536 79596 83273 333 10312 58033 81930 83835 86458
AAXX 24184 67991 42980 51306 10270 20166 39586 48513 85030 333 10217 58038 85360
BBXX 51203 24181 99208 71570 46/// ///// 1//// 91813 22200 00249 11401 21001 325// 41401 70006
BBXX 51201 24181 99217 71581 46/// ///// 1//// 91812 22200 00239 11304 21003 336// 41302 70020
AAXX 24184 60676 36/// /0512 10123 21010 333 10160
AAXX 24181 60376 36/// /0000 10128 20128 333 10164
AAXX 24181 60593 36/// /0000 10147 333 10191
AAXX 24184 60660 36/// /1702 10188 21008 333 10233
AAXX 24184 60633 36/// /1204 10210 21075 333 10245
AAXX 24184 60672 36/// /0903 10141 21038 333 10165
BBXX 3EPD8 24184 99023 50329 41698 31518 10260 20215 40097 57010 7//00 8/4// 22213 04268 29904 30000 80230
BBXX TBWUK42 24184 99285 10456 41598 61912 10240 20225 40163 54000 70111 85888 22213 20000 3//// 4//// 5//// 80230
BBXX ZQDI9 24183 99210 11186 41598 80327 10208 20135 40197 52003 70222 8472/ 22212 00248 20603 3//// 4//// 5//// 80166
BBXX A8UE5 24184 99439 11476 41998 02317 11005 21020 49970 57010 7//// 80000 22214 04030 20804 3//// 4//// 5//// 81010
BBXX SHIP 24184 99217 11272 41698 40125 10190 20142 40246 52009 70222 83170 22283 00247 80160
BBXX SHIP 24184 99315 11344 41398 53022 10080 20038 40213 52013 70311 84343 22243 00220 80060
BBXX SHIP 24184 99296 11267 41498 53119 10122 20092 40256 52030 70222 8532/ 22212 00198 80009
BBXX DGHX 24183 99312 11296 41/98 53223 10095 20055 40210 51010 70222 8//// 22274 00190 2//// 80075
BBXX DFKP2 24184 99307 11354 41597 63032 10120 20051 40150 57010 75885 86500 22224 00210 2//// 80085
BBXX SHIP 24183 99254 11349 41/98 23516 10180 20148 40221 53000 70100 8//// 22254 00230 80160
BBXX DDZF2 24184 99349 11221 41697 33324 10065 21098 40305 51025 70100 81444 22274 00120 20806 80010
BBXX SHIP 24184 99171 11494 41/97 21216 10278 20196 40096 57003 70200 8//// 22241 06278 11004 399// 4////
BBXX SHIP 24184 99276 11705 43897 /2410 10220 2019/ 40180 54000 7//// 8//// 22263 0//// 2//// 3//// 4//// 5//// 6//// 80200 ICE /////
BBXX ONFE 24184 99152 11155 43/// ///// 1//// 2//// 4//// 5//// 7//// 8//// 22211 0//// 2//// 3//// 4//// 5//// 6//// ICE /////
BBXX MTFH5 24183 99116 11100 41/96 80134 10237 20185 40142 58030 70522 8//// 22245 299// 3//// 4//// 5//// 80202
BBXX UFLC 24180 99427 11335 42/98 93411 11150 40171 57008 89/// 22222 06030 20503
BBXX IDDUK02 24184 99517 50578 46/// ///// 40039 222//
BBXX ELWR5 24183 99017 50820 41698 32012 10250 20199 40110 54000 70111 82647 22271 04258 20504 320// 41006 80215
BBXX A8SF8 24184 99047 70799 41397 72423 10270 20243 40105 57015 70222 8471/ 22244 04260 20903 399// 41203 80250
BBXX WDE5381 24184 99270 71151 43/// ///// 10200 2006/ 4//// 5//// 7//// 8//// 22211 0//// 2//// 3//// 4//// 5//// 6//// 80128 ICE /////
BBXX 46145 24181 99544 71324 46/// /1809 10078 40055 57031 22200 00072 11104 70022 333 91211
BBXX VOXS 24184 99467 70480 41598 83435 10015 2101/ 40105 51051 70222 885// 22200 04018 20504 321// 40806 80004
BBXX A8PF6 24184 99397 70620 41596 83319 10110 20092 40170 54000 75022 88/2/ 22243 0//// 20302 333// 40806 5//// 6//// 80100 ICE /////
BBXX V7NV4 24184 99300 71788 41597 61924 10210 20195 40190 54000 702// 82686 22263 00200 20201 309// 40506 5//// 6//// 80200 ICE /////
BBXX WAHP 24184 99387 70499 41597 72431 10212 20174 40186 57037 72565 875// 22264 00210 20704 325// 40803 5//// 6//// 80187 ICE /////
BBXX WDC3786 24184 99257 71381 41498 71013 10200 2016/ 40260 52020 7//22 8725/ 22224 00250 20302 311// 40604 5//// 6//// 80179 ICE /////
BBXX S6JU 24184 99405 71343 41798 82114 10135 20110 40250 54000 70222 887// 22234 04130 2//// 3//// 4//// 5//// 6//// 80120 ICE /////
BBXX 46207 24181 99509 71299 46/// /1711 10086 40154 57007 22200 00082 11206 70031 333 91214
BBXX V7HC6 24184 99273 70907 41697 80825 10210 20195 40217 57020 70222 8874/ 222// 00222 2//// 3//// 4//// 5//// 6//// 80200 ICE /////
BBXX C6VG7 24184 99232 70832 41698 51413 10258 2015/ 40190 57002 7//22 8325/ 22214 00270 20303 309// 4//// 5//// 6//// 80190 ICE /////
BBXX 46112 24181 99481 71227 46/// /1602 10071 40301 53009 91800
BBXX 44032 24181 99437 70694 46/30 /3608 11055 40284 54000 91804 22200 00085 10402 70008 333 91212 555 11092 22096
BBXX 44067 24181 99384 70770 46/// /0606 10073 40293 58021 91800
BBXX 46111 24181 99481 71227 46/// /1502 10079 40299 53009 91800 22200 00054
BBXX WDF7020 24184 99466 70870 41/97 81817 1//// 2//// 40183 57/// 702// 88/2/ 22263 0//// 20302 3//// 4//// 5//// 6//// 8//// ICE /////
BBXX WHKM 24184 99075 70602 41198 10305 10230 20201 40120 54000 7//00 814// 22233 0//// 2//// 3//// 4//// 5//// 6//// 80210 ICE /////
BBXX MINFR00 2418/ 99091 70798 46/// ///// 10288 40071 57049
BBXX 41112 24181 99307 70813 46/// ///// 1//// 91751 22200 00165 11002 21002 70008
BBXX 46204 24181 99514 71288 46/// /0915 10078 40166 5//// 22200 00084 11207 70037 333 91218
BBXX 46221 24181 99339 71186 46/// ///// 1//// 91745 22200 00148 11802 21001 326// 41802 70011
BBXX 46131 24181 99499 71250 46/// /1110 1//// 40274 52007 22200 00075 10502 70009 333 91213
BBXX 46211 24181 99469 71242 46/// ///// 1//// 91806 22200 00082 11406 21004 327// 41405 70032
BBXX 46242 24181 99332 71174 46/// ///// 1//// 91758 22200 00143 11502 20501 322// 41501 70008
BBXX 46222 24181 99336 71183 46/// ///// 1//// 91756 22200 00149 11801 20901 326// 41801 70007
BBXX 46231 24181 99327 71174 46/// ///// 1//// 91754 22200 00147 11802 21001 328// 41802 70012
BBXX 46216 24181 99343 71198 46/// ///// 1//// 91757 22200 00144 11802 21001 325// 41801 70009
BBXX 46223 24181 99335 71178 46/// ///// 1//// 91800 22200 00152 11802 21001 326// 41802 70009
BBXX 46229 24181 99438 71246 46/// ///// 1//// 91751 22200 00097 11307 21003 329// 41306 70034
BBXX 46212 24181 99408 71243 46/// ///// 1//// 91812 22200 00095 11507 21003 330// 41506 70034
BBXX 46217 24181 99342 71194 46/// ///// 1//// 91812 22200 00146 11802 20801 324// 41801 70008
BBXX 46237 24181 99378 71226 46/// ///// 1//// 91810 22200 00107 11705 21002 325// 41705 70026
BBXX 41114 24181 99276 70802 46/// ///// 1//// 91816 22200 00250 10901 20901 70006
BBXX 41115 24181 99184 70673 46/// ///// 1//// 91805 22200 11102 20802 301// 41101 70012
BBXX 46240 24181 99366 71219 46/// ///// 1//// 91812 22200 00123 11703 21001 300// 41703 70014
BBXX 46241 24181 99330 71173 46/// ///// 1//// 91741 22200 00142 11802 20501 326// 41801 70008
BBXX 46244 24181 99409 71244 46/// ///// 1//// 91805 22200 00093 11507 20903 329// 41507 70037
BBXX 46248 24181 99461 71247 46/// ///// 1//// 91804 22200 00096 11407 21004 328// 41406 70035
BBXX 46088 24181 99483 71232 46/// /0805 10071 40287 91820 22200 00079 1//00 70002 333 91207 555 11054 22056 31818 40807 61819 082049 087042 106026 132016 162013 179014
BBXX 46249 24181 99338 71197 46/// ///// 1//// 91810 22200 00146 11802 20901 325// 41802 70012
BBXX 46183 24181 99536 71311 46/// /1614 10083 40082 57024 22200 0//// 1//// 70/// 333 912//
BBXX WKAU 24184 99244 70834 41597 30513 10280 2025/ 40210 54000 70200 83/88 22272 00240 20302 305// 40302 5//// 6//// 80260 ICE /////
BBXX WDE9586 24183 99469 71254 43598 81928 10110 2009/ 40260 51030 7//// 887// 22244 00100 21006 3//// 4//// 5//// 6//// 80100 ICE /////
BBXX 9HA2064 24183 99540 71741 41797 70620 11020 21053 40180 54000 793// 87273 22264 0//// 2//03 305// 4//// 5//// 6//// 86030 ICE /////
BBXX WDB9986 24184 99375 71354 41698 71918 10130 2009/ 40306 51012 70222 8657/ 22225 00140 20403 329// 41407 5//// 6//// 80110 ICE /////
BBXX 46147 24181 99518 71312 46/// /1812 10083 40115 57014 22200 00076 10908 70039 333 91214
BBXX 3FMH7 24184 99292 71565 41697 40328 00/// 10210 2//// 40294 5//// 70211 82140 9//// 22273 00210 1//// 20504 30107 40807 50503 6//// 80185
BBXX SHIP 24184 99524 71524 41598 53432 10010 21016 40027 56010 70222 85/// 91800 22223 00050 2//// 3//// 4//// 80000
BBXX 42364 24181 99291 70881 46/// /0509 10150 20122 40261 91815
BBXX 42362 24181 99278 70907 46/// /0713 10200 20167 40237 58017 91800
BBXX 42362 24181 99278 70907 46/// /0812 10206 20172 40237 91815
BBXX 44034 24181 99441 70681 46/30 /3411 11066 40282 53004 91804 22200 00082 10403 70013 333 91215 555 11139 22145
BBXX 41029 24181 99328 70796 46/// /0609 1//// 91800 555 11118 22140
BBXX 44033 24181 99441 70690 46/30 /3607 11067 40291 54000 91804 22200 00069 10301 70005 333 91210 555 11086 22089
BBXX ZMFR 24184 99413 31748 43/// /0702 10138 20119 40221 54000 22200 00165
BBXX ZMENA 24184 99392 31781 46/// ///// 10162 20116 40224 57003 22243
BBXX SHIP 24184 99122 31282 41/97 62008 10296 20282 40011 57010 71722 8//// 22200 04306 10502 80285
BBXX MGRH9 24183 99352 31672 41498 51016 10181 20145 40199 57004 70311 82276 22273 20503 306// 40703 5//// 80160
BBXX C6UA2 24184 99240 31644 41094 80537 10240 20240 40020 56030 78188 88/// 222// 00280 21008 3//// 41504 5//// 6//// 80240 ICE /////
BBXX AVMI 24183 99330 31517 41398 20109 10190 20/// 40186 54002 70202 82010 22201 00213
BBXX A8UT7 24184 99429 70236 41598 42117 10160 20144 40290 57010 70111 83549 22263 20603 328// 40803 80150
BBXX 62095 24184 99531 70159 46/// /2320 10114 20111 40168 53006 22200 00113 10810 70052 333 90710 91129
BBXX 62103 24184 99499 70029 46/99 /2727 10112 20063 40306 56010 22200 00120 10704 70022 333 90710 91138
BBXX E5U2123 24183 99370 70128 41597 70225 10160 20103 40302 56010 70222 87800 22283 00178 20805 336// 41008 5//// 80130
BBXX 62027 24184 99491 70022 46/// /2720 1//// 2//// 40329 58011 22200 00110 10904 325// 70018
BBXX 62304 24184 99511 10018 46/98 /2525 10097 20049 40297 56006 22200 00104 10601 70007 333 90710 91135
BBXX MYSU5 24184 99494 70096 41498 63129 10110 20079 40324 54000 70222 8347/ 22223 00120 20604 329// 40905 5//// 80095
BBXX 64045 24184 99591 70117 46/// /2634 10079 20035 49966 53025 22200 00100 11020 70098 333 90710 91154
BBXX 62304 24184 99511 10018 46/98 /2525 11003 21047 40297 56006 22200 00105 10601 70007 333 90710 91128
BBXX 62169 24183 99614 10014 41/97 82247 10065 20065 49900 56010 70282 8//// 22200 20716 3//// 4//// 5//// 80065
BBXX 63110 24183 99595 10015 41/// /2340 10080 49976 700// 8//// 22200 10709 70045
BBXX 62107 24184 99501 70061 46/// /2528 10108 20075 40307 57005 22200 00115 10905 70026 333 90710 91141
BBXX 62303 24184 99516 70051 46/// /2422 10112 20079 40262 57011 22200 00112 10708 70038 333 90710 91133
BBXX 62103 24184 99499 70029 46/99 /2828 10105 20063 40308 56015 22200 00120 10804 70021 333 90710 91140
BBXX 62094 24184 99517 70067 46/// /2325 10108 20089 40254 57007 22200 00106 10607 70033 333 90710 91136
BBXX 62113 24184 99584 10002 47497 /2231 10089 20062 40042 56016 700// 22200
BBXX 62129 24184 99584 10003 46/// ///// 10091 20064 40046 55015 22200
BBXX PENR 24183 99364 70289 41497 60910 10185 20151 40326 56016 70200 85265 22254 20301 319// 40601 80165
BBXX ZQSD5 24184 99583 10007 46/// /2233 10091 20065 40032 56021 22200 10810 70052
BBXX 62134 24184 99580 10014 47497 /2335 10091 20060 40045 56021 700// 22200 10709 70043
BBXX 62114 24184 99583 10000 46/// /2233 10091 20065 40024 55008 22200
BBXX 62143 24184 99577 10018 47497 /2322 10090 20061 40056 56024 700// 22200 10708 70039
BBXX 62155 24184 99577 10007 47497 /2334 10094 20066 40067 56015 751// 22200 10708 70042
BBXX 62102 24184 99579 10018 46/// /2329 10088 20056 40052 57024 22200 10708 70039
BBXX 62116 24184 99576 10011 47497 /2436 10090 20060 40054 56022 700// 22200 10608 70039
BBXX 62118 24184 99577 10009 47997 /2236 10099 20063 40051 57020 700// 22200 10708 70041
BBXX 62117 24184 99579 10000 47397 /2233 10093 20064 40046 56010 700// 22200 10708 70042
BBXX 62104 24184 99574 10013 47497 /2432 10094 20064 40062 57024 700// 22200
BBXX 62122 24184 99573 10016 47497 /2229 10110 20068 40082 56023 700// 22200 10607 70033
BBXX 62140 24184 99573 10013 46/// /24// 10092 20064 40068 58025 22200
BBXX 62153 24184 99573 10020 47597 /2234 10088 20065 40079 57024 700// 22200 10707 70036
BBXX 62146 24184 99572 10021 47/97 /2327 10085 20059 40088 57024 700// 22200 10707 70035
BBXX 62164 24184 99572 10008 47497 /2221 10100 20064 40081 57020 700// 22200 00093 10708 70040
BBXX PJGO 24184 99571 10022 47497 /2131 10086 20066 40097 57019 751// 22200
BBXX 62133 24184 99571 10009 46/// /2233 10096 20051 40075 57023 22200 10607 70033
BBXX 62119 24184 99570 10019 47497 /2331 10087 20062 40098 57023 700// 22200 10607 70033
BBXX 62152 24184 99570 10018 47/97 /1922 10088 20056 40105 57021 700// 22200 10507 70033
BBXX 62154 24184 99564 10022 46/// /2229 10084 20061 40119 57022 22200
BBXX 62120 24184 99564 10021 47597 /2432 10087 40112 57024 700// 22200
BBXX 62123 24184 99563 10022 47597 /2330 10088 20056 40117 57022 700// 22200
BBXX 62001 24184 99452 70050 46/// /0203 10112 20034 40380 53005 22200 00141 10806 70031
BBXX WRYC 24184 99365 10136 41998 02837 10160 2014/ 40176 56009 70120 80000 22275 00173 20520 3//// 4//// 5//// 6//// 80150 ICE /////
BBXX MINUK04 2418/ 99555 10084 46/// ///// 10063 4//// 52017
BBXX MINUK03 2418/ 99550 70015 46/// ///// 10090 40173 57024
BBXX MINUK05 2418/ 99571 70021 46/// ///// 10100 40059 57004
BBXX MINUK01 2418/ 99602 70012 46/// ///// 10080 49957 52011
BBXX BAREU56 24184 99330 10132 46/// ///// 40231 22200
BBXX BAREU62 24184 99401 10264 46/// ///// 40221 52012 22243
BBXX DMQN 24183 99468 70078 41398 82914 10120 20039 40369 50009 70211 85770 22254 04140 20902 330// 40705 5//// 80080
BBXX BAREU06 24184 99406 70276 46/// ///// 40335 52003 22241
BBXX BAREU11 24184 99446 70293 46/// ///// 40266 57005 22214
BBXX BATFR33 24184 99423 10060 46/// /3346 10107 20019 40233 55014 22234 00134
BBXX BATFR20 24184 99418 10095 46/// ///// 10144 20005 40141 22284
BBXX 61002 24184 99421 10047 46/// ///40 10112 2//// 40272 57004 22200 00140 10911 70053 555 1/052
BBXX DHSI 24184 99487 70056 41298 52512 10120 20062 40350 58030 70200 84704 22214 21003 325// 41406 80090
BBXX PBEO 24183 99523 10035 41/97 /2512 10096 20054 40269 57015 70011 8//// 22213 06088 20402 30000 80075
BBXX A8VL5 24184 99375 10044 41397 60220 10130 20091 40390 51010 70122 86800 22265 00170 20404 30000 80110
BBXX BATUK01 24184 99560 70032 46/// /2508 10100 20054 40092 56009 22200 00054
BBXX 61001 24184 99434 10078 46/// /0223 10157 21007 40192 52026 22200 00146 10604 70021 555 1/032
BBXX PHQX 24183 99440 70132 41/97 6//02 10117 20042 40380 54000 70211 8650/ 22254 2//01 3//// 4//01 5//// 80080
BBXX BATEU04 24184 99630 70205 46/// /2735 10032 21048 4//// 22261
BBXX BATFR46 24184 99397 10010 44/97 30213 10142 20077 40305 53010 70133 82/4/ 22253 00160 23002 320// 42502 5////
BBXX BATEU05 24184 99587 70038 46/// /2635 10097 20055 49994 51014 22223
BBXX BATFR01 24184 99390 10148 46/// /2118 10157 20094 40152 58017 22272 00164
BBXX BATFR09 24184 99360 70054 44397 80921 10152 20107 40284 53020 70241 882// 22223 00177 20304 60//0 ICE 0/0//
BBXX BATFR11 24184 99380 10007 46/// ///// 10150 20089 40300 52006 22243 00174
BBXX BATFR31 24184 99419 10088 46/// /3313 10144 20139 40172 22232 00157
BBXX BATFR60 24184 99496 70035 46/// /2619 10109 20059 40323 56011 22212 00115
BBXX BATFR14 24184 99471 70114 44498 82216 10124 20052 40361 57003 70322 885// 22214 00129 20102 328// 40804 5//// 60000 ICE 0/0//
BBXX LF5T 24184 99660 10081 414// /1929 10065 20034 49825 57064 702// 22200 06082 10910 70050 333 91138
BBXX LF3F 24184 99643 10078 43/// /1725 10058 20006 49878 57057 22200 04088 10811 70057 333 91141
BBXX 3ERR2 24184 99635 10053 41495 82054 10058 20049 49831 57084 76386 8672/ 22200 06096 10811 70057 333 91166
BBXX LF4B 24184 99606 10037 47/95 /2136 10075 49970 57039 781// 22200 00066 10710 70050 333 91142
BBXX LF4C 24184 99584 10019 41497 82333 10092 20068 40029 57027 76262 889// 22200 00079 10709 70043 333 91138
BBXX LF3N 24184 99653 10073 41496 82039 10067 20045 49813 57081 78082 889// 22200 00092 10810 70049
BBXX 62165 24184 99540 10009 47698 /2225 10080 20046 40205 57016 700// 22200 10504 70021
BBXX 62132 24184 99564 10020 46/// /2528 10088 20060 40114 57024 22200
BBXX 62127 24184 99540 10007 47598 ///// 10076 20044 40201 58013 700// 22200 10504 70018
BBXX 62131 24184 99539 10012 46/// /22// 10081 20051 40205 57016 22200
BBXX 62149 24184 99537 10011 47998 /2227 10076 20049 40215 57011 700// 22200 10504 70019
BBXX 62148 24184 99536 10015 46/// /2227 10074 20046 40226 57011 22200
BBXX 63117 24184 99613 10011 47597 /2532 10169 20107 49907 56039 700// 22200
BBXX 64041 24184 99607 70026 47296 /2431 10059 20057 49910 52015 700// 22200 10912 70060
BBXX MWYG6 24184 99603 70040 47996 /2629 10072 700// 22200
BBXX 63115 24184 99616 10013 47297 /2433 10076 20040 49894 55011 700// 22200 10813 70067
BBXX 63101 24184 99612 10009 46/// /2730 10091 20049 49899 57045 22200
BBXX 63104 24184 99612 10016 47497 /2532 10079 20063 49904 57040 700// 22200
BBXX 63103 24184 99612 10011 46/// /2633 10086 20053 49924 55009 22200 10811 70054
BBXX 63107 24184 99611 10017 46/// /2437 10089 49913 56026 22200
BBXX 63112 24184 99611 10010 47597 /2633 10103 20034 49908 55018 700// 22200 10812 70058
BBXX 63113 24184 99610 10017 46/// /2436 10087 20067 49944 55013 22200 10811 70053
BBXX 63108 24184 99608 10017 47996 /2438 10080 20055 49949 56020 704// 22200 10809 70047
BBXX 63105 24184 99610 10017 47596 ///// 10088 20069 49920 56024 751// 22200
BBXX 63106 24184 99610 10017 46/// /2335 10081 49916 56027 22200
BBXX 63055 24184 99606 10016 47296 /2529 10089 20075 49960 56013 700// 22200 10810 70049
BBXX 62112 24184 99584 70002 47496 /2229 10088 20064 40028 55002 700// 22200
BBXX 62111 24184 99580 70003 46/// /2434 10092 20065 40054 55008 22200 10708 70042
BBXX PJAI 24184 99581 70014 47598 /2221 10095 20052 40030 53002 700// 22200
BBXX 62142 24184 99530 10021 47797 /2320 10071 20039 40239 58008 700// 22200 10504 70018
BBXX 62150 24184 99536 10007 47598 /2121 10072 20041 40224 57010 700// 22200 10503 70014
BBXX 62144 24184 99534 10017 47797 /2326 10073 20041 40239 56006 700// 22200 10504 70019
BBXX 62145 24184 99531 10028 47998 /2322 10075 20032 40241 57009 700// 22200
BBXX 62121 24184 99535 10027 46/// ///// 22200
BBXX 63056 24184 99597 10016 47396 /2230 10078 20061 49984 56029 740// 22200 10709 70045
BBXX 63110 24184 99595 10015 47496 /2229 10080 20059 49983 55017 704// 22200 10709 70045
BBXX 63057 24184 99592 10015 47497 /2337 10087 20060 49997 56018 700// 22200 10709 70044
BBXX 62170 24184 99514 10020 46/97 /2425 10089 20051 40288 58005 22200 00101 10502 70010 333 90710 91137
BBXX 62128 24184 99587 10014 47697 /2239 10086 20060 40014 57024 700// 22200 10709 70045
BBXX 64045 24184 99591 70117 46/// /2636 10079 20035 49966 53025 22200 00100 11020 70098 333 90710 91154
BBXX 62029 24184 99487 70125 46/// /2621 10118 20090 40320 55001 22200 00129 10808 70040 333 90710 91130
BBXX 62081 24184 99510 70134 46/// ///// 10121 20095 40250 55002 22200 00121 10811 70054
BBXX 62303 24184 99516 70051 46/// /2422 10112 20079 40262 57011 22200 00112 10707 70035 333 90710 91133
BBXX 62442 24184 99490 70164 46/// /2221 1//// 2//// 40292 50000 22200 00125 333 90710 91128
BBXX 62301 24184 99524 70047 46/// /2421 10095 20078 40242 56010 22200 00088 10606 70031 333 90710 91128
BBXX 62305 24184 99504 10000 46/98 /2522 10106 20069 40317 57004 22200 00117 10602 70009 333 90710 91134
BBXX 62105 24184 99554 70121 46/// /2719 10105 20069 40116 51016 22200 00106 10812 70059 333 90710 91127
BBXX 62163 24184 99475 70084 46/// /2615 10106 20050 40362 53002 22200 00126 10806 70032
BBXX 64046 24184 99605 70049 46/// /2641 10070 20025 49910 51016 22200 00079 11016 70078
AAXX 24184 61017 32960 53606 10208 20023 39748 40164 80002 333 10252 58001 85080
AAXX 24184 61024 32960 11014 10217 21027 39575 40151 80002 333 10270 58003 81080 P081
AAXX 24184 61036 32960 70000 10275 20021 39877 40116 80008 333 10320 59006 87280
AAXX 24184 61043 32960 70608 10256 21074 39681 40126 80008 333 10302 59003 87280
AAXX 24184 61045 32965 70000 10220 21030 39631 40135 80008 333 10270 59012 87280
AAXX 24184 61049 32960 70000 10225 20020 39792 40116 80008 333 10286 59009 87280
AAXX 24184 61052 32965 20604 10274 21001 39872 40130 80002 333 10315 58004 82080
AAXX 24184 61075 32960 50000 10266 20002 39804 40115 80002 333 10325 59014 85080 61080 32960 71004 10245 21015 39706 40131 80002 333 10290 59002 87280
AAXX 24184 61080 NIL
AAXX 24184 61090 32965 70204 10240 21080 39614 40127 80008 333 10280 59002 87280
AAXX 24184 61091 32965 30000 10220 20070 39679 40143 80002 333 10294 59005 83080
AAXX 24184 61096 32965 70404 10238 21010 39743 40130 80008 333 10299 59008 87280
AAXX 24184 61099 32960 73606 10288 20041 39869 40098 80008 333 10328 59004 87280
BBXX SERW 24183 99187 70222 43998 80313 10219 2//// 40178 55004 70222 80071 22252 06220 20502 300// 40904
AAXX 24184 42309 31995 20000 10120 20109 40130 70500 82030 333 58013
AAXX 24184 42314 31595 30000 10132 20109 40141 70522 81530 333 58004 81620 83360
AAXX 24184 42410 31394 90000 10122 20122 40154 74244 333 58014
AAXX 24184 42415 31995 10000 10120 20112 40165 71000 81030 333 58007 81360
AAXX 24184 42706 31995 00000 10126 20082 40140 70520 333 58004
AAXX 24184 42809 31495 60000 10144 20118 40136 70522 82531 333 59001 82618 84360
AAXX 24184 42886 31996 03201 10142 20100 40145 70500 333 59002
AAXX 24184 42895 31996 40000 10140 20084 40139 70500 82031 333 58005 82360 84075
AAXX 24184 42971 31994 23602 10164 20108 40135 71011 80001 333 58003 82075
AAXX 24184 43333 21495 80922 10274 20239 40065 70522 8547/ 333 56290 59021 6005/ 83616 84818 88458
AAXX 24184 42398 NIL
AAXX 24184 42492 NIL
AAXX 24184 42587 NIL
AAXX 24184 42591 NIL
AAXX 24184 42623 NIL
AAXX 24184 42701 NIL
AAXX 24184 42724 NIL
AAXX 24184 42798 NIL
AAXX 24184 42977 NIL
AAXX 24184 43368 NIL
AAXX 24184 60650 36/// /0416 10180 20006 333 10209
AAXX 24184 40250 NIL
AAXX 24184 40265 NIL
AAXX 24184 40296 32660 20000 10188 20059 40152 52011 82100 333 10245 82830
AAXX 24184 40310 NIL
AAXX 24184 60661 36/// /1108 10150 21046 333 10204
AAXX 24184 60679 36/// /3308 10040 21086 333 10093
AAXX 24184 60677 36/// /0000 10126 21017 333 10157
AAXX 24184 67765 41780 70904 10233 20174 38666 48510 71792 81973 333 10304 58009 81950 87460
AAXX 24184 67775 41675 71505 10218 20141 38515 48519 71792 81973 333 10298 58016 81940 87458
AAXX 24184 67779 NIL
AAXX 24184 67853 NIL
AAXX 24184 67861 NIL
AAXX 24184 67867 41880 71515 10194 20160 38583 48511 72196 81973 333 10315 5//// 81958 83460 87080
AAXX 24184 67881 41875 63504 10220 20173 38586 48515 71392 81932 333 10290 58016 81957 83360 86080
AAXX 24184 67965 41675 71515 10202 20156 38698 48522 79596 81973 333 10338 58027 81930 87458
AAXX 24184 67975 41665 81202 10193 20185 38948 48535 79596 81973 333 10325 58042 81930 81710 88459
AAXX 24184 67977 NIL
AAXX 24184 67983 41650 71705 10195 20184 38911 48536 79596 83273 333 10312 58033 81930 83835 86458
AAXX 24184 67991 42980 51306 10270 20166 39586 48513 85030 333 10217 58038 85360
AAXX 24184 94996 475// 60820 10198 20156 39985 40121 53009 7//44 91830
AAXX 24184 89050 41696 81606 10004 20004 49823 57010 77172 8802/
AAXX 24184 89512 32498 20104 11006 21055 39647 49794 57017 82100 333 10012
AAXX 24184 89574 42598 60604 11014 21038 49803 52021 81530
AAXX 24184 89592 42298 80902 11011 21021 49829 52013 886//
AAXX 24184 89606 42998 53210 11335 21382 36282 47760 52011 80001 333 11261
AAXX 24181 55299 32980 00000 11147 21304 35841 57001 333 00251 10021
AAXX 24181 55591 32980 00000 11022 21288 36493 52009 333 00251 10143
AAXX 24181 56739 32580 20401 10080 20061 38359 54000 82400 333 00002 10187
AAXX 24181 56951 32670 12001 10097 20076 38516 57002 81100 333 05101 10205
AAXX 24181 56964 32565 80902 10125 20093 38735 40175 57005 884// 333 00152 10191
AAXX 24181 57328 31956 80000 10048 20023 39885 40309 52001 71000 8807/ 333 10088
AAXX 24181 57411 31940 80201 10055 20043 39924 40309 57001 71000 8807/ 333 10066
AAXX 24181 57447 31958 82901 10036 20027 39760 40322 52003 71000 8807/ 333 10082
AAXX 24181 57662 32962 02701 10037 21050 30275 40320 52001 333 10127
AAXX 24181 57745 32965 80000 10042 21004 39976 40312 52001 8807/ 333 10129
AAXX 24181 57972 32962 00000 10024 21019 30081 40314 52005 333 10118
AAXX 24181 58203 32962 02002 11046 21084 30280 40323 52001 333 10094
AAXX 24181 58314 32965 00000 11047 21057 30214 40325 52003 333 10107
AAXX 24181 58424 31959 01101 10000 21056 30301 40328 52005 70500 333 10093
AAXX 24181 59023 32960 72001 10079 20015 39965 40282 52002 8704/ 333 10156
AAXX 24181 59417 32963 01601 10058 20040 30109 40267 52005 333 10177
AAXX 24181 59985 32570 70407 10211 20156 30175 40180 57009 878// 333 10231
AAXX 24181 59995 NIL
AAXX 24184 94996 475// 60820 10198 20156 39985 40121 53009 7//44 91830
BBXX 46185 24181 99524 71298 46/// /1614 10078 40137 57007 22200 00075 10809 70045 333 91217
AAXX 24181 38462 429// 00000 11025 21085 38943 48448 53003 333 10031
AAXX 24184 63733 32580 20000 10228 20195 38863 48504 81931 333 10272 55300 59005 81922
AAXX 24184 63791 31013 10272 20140 39119 48510 83900 333 10345 55300 59001 81928 83630
AAXX 24184 63801 32580 20000 10226 20195 39200 48525 81901 333 10279 59028 81821 81922
AAXX 24184 63832 01580 70000 10194 20180 38828 48494 60022 70396 8297/ 333 10280 55300 59006 60027 82820 81921 87358
AAXX 24184 63881 12480 50802 10175 20164 38209 48/// 60052 85900 333 0//21 10240 58002 85618 81920
AAXX 24184 63894 32580 20605 10262 20248 30053 40113 82100 333 10336 55300 59011 82823
AAXX 24184 63962 32580 30000 10224 20194 38955 48514 83900 333 10292 59005 83622 81924
AAXX 24184 63729 NIL
AAXX 24184 63756 NIL
AAXX 24184 63862 NIL
AAXX 24184 63866 NIL
AAXX 24184 63870 NIL
AAXX 24184 63887 NIL
AAXX 24184 63932 NIL
AAXX 24184 63971 NIL
BBXX 46185 24181 99524 71298 46/// /1614 10078 40137 57007 22200 00075 10809 70045 333 91217
AAXX 24184 06610 02675 11302 10017 21020 39753 40361 52014 69952 81500 333 10046 31/// 55300 20000 60005 81637 90766 93100 91110 91206
AAXX 24181 47003 42980 03203 11146 21227 30217 40221 54000
AAXX 24181 47005 42980 01404 11275 21299 38541 52004
AAXX 24181 47022 42975 03203 11218 21258 38788 52006
AAXX 24181 47028 42962 00000 11123 21185 30200 40302 52005
AAXX 24181 47031 42970 03203 11204 21237 38897 53011
AAXX 24181 47037 42970 00000 11118 21242 30167 40300 52013
AAXX 24181 47039 42960 00000 11156 21190 30096 40304 52018
AAXX 24181 47046 42969 00000 11116 21199 30192 40216 52008
AAXX 24181 47050 42965 03201 11108 21204 30250 40286 52016
AAXX 24181 47052 42965 00000 11158 21177 39917 40285 52007
AAXX 24181 47060 42960 03203 11087 21179 30227 40289 52013
AAXX 24181 47061 42980 03202 11059 21156 30179 40225 52007
AAXX 24181 47065 42965 03203 11108 21159 30218 40286 52008
AAXX 24181 47067 42965 03201 11104 21186 30169 40297 52002
AAXX 24181 47068 42960 03206 11067 21157 30253 40290 52012
AAXX 24181 47070 42970 00000 11095 21146 30192 40286 52012
AAXX 24181 47075 42980 02302 11135 21196 39747 40207 52008
AAXX 24181 47008 42970 03203 11124 21232 30172 40229 52006
AAXX 24181 47014 42950 00000 11226 21258 39856 40302 53016
AAXX 24181 47016 42970 00000 11220 21252 39362 40277 52011
AAXX 24181 47020 42965 00000 11184 21203 39905 40319 52019
AAXX 24181 47025 42960 03203 11104 21229 30180 40211 52001
AAXX 24181 47035 42970 03601 11114 21195 30297 40306 52011
AAXX 24181 47041 42970 01802 11095 21220 30204 40233 54000
AAXX 24181 47055 42970 02707 11077 21161 30209 40257 52007
AAXX 24181 47058 42960 03202 11101 21211 30251 40302 52013
AAXX 24181 47069 42965 03205 11060 21145 30178 40283 52007
AAXX 24184 06670 32380 72103 10024 20001 39821 40352 51024 875// 333 10053 31/// 55300 20000 81609 87646 90766 93100 91120 91211
AAXX 24184 06700 02682 50002 10007 21031 39843 40359 51012 69922 84540 333 10061 31/// 55300 20000 60005 81640 84650 90766 93100 91115 91209
AAXX 24184 06680 01/01 93011 11122 21139 37547 47066 52016 60322 77574 333 11077 47310 55300 20000 69965 90766 93130 91132 91218
AAXX 24184 06990 01640 82202 10014 20003 39778 40347 51028 69972 72055 886// 333 10072 41/// 55300 20000 69915 88739 91120 91210
AAXX 24184 06760 32886 10304 10093 21118 39797 40247 51031 81500 333 10136 30/// 55300 20000 81657 90766 93100 91130 91208
AAXX 24184 06720 02665 6//// 10026 21026 39745 40341 51016 60022 866// 333 10049 41003 55300 20000 60005 86744 90766 93100
AAXX 24181 24790 41999 20000 11458 21474 39558 40538 57006 77670 80001
AAXX 24181 24988 42999 03203 11264 21310 30062 40341 57006
AAXX 24181 25378 32998 00000 11168 21187 30261 40296 53001 333 21173 48004 91103
AAXX 24181 25503 41699 81102 11385 21407 30313 40463 57001 70272 84537
AAXX 24181 25705 41998 82101 11379 21403 30068 40455 57003 77172 83037
AAXX 24181 25927 42998 03205 11243 21282 30303 40311 57002
AAXX 24181 25932 NIL
AAXX 24181 31152 42997 80000 11381 21409 39937 40405 53007 80006
AAXX 24181 31174 41696 80109 11161 21168 30250 40262 58004 77173 8802/ 333 91012 91113
AAXX 24181 31489 41597 83304 11127 21154 30060 40181 52009 77172 8802/ 333 91115
AAXX 24181 31866 41998 83010 11122 21174 39982 49988 55000 73632 8802/ 333 91016 91117
AAXX 24181 31959 41998 02512 11168 21237 30012 40057 58004 73683 333 91024 91124
AAXX 24181 31989 42999 83606 11146 21242 30056 40113 55000 8805/ 333 91114
AAXX 24181 32027 41598 80209 11059 21070 30104 40113 57007 73632 889// 333 91012 91113
AAXX 24181 32076 41494 80304 11024 21030 39987 49997 56003 78683 889// 333 91013 91116
AAXX 24181 32099 41998 00805 11010 21026 39919 49927 51011 70281 333 91008 91110
AAXX 24181 32121 41597 83603 11017 21062 39886 49908 57002 70283 889// 333 91004 91109
AAXX 24181 32213 41/93 90919 11004 21007 39962 40025 57010 73933 333 91023 91127 92991
AAXX 24181 32287 41999 00403 11197 21230 30192 40203 57012 70230
AAXX 24181 32408 41497 80307 11120 21140 30197 40237 57008 78583 889//
AAXX 24181 32509 41598 60313 11040 21059 30140 40175 57012 73783 85531 333 91015 91118 92980
AAXX 24181 32594 41494 80814 11008 21015 39998 40034 53012 78683 889// 333 91018 91132 92982
AAXX 24181 47090 32973 02915 11044 21258 30199 40222 53002 333 92034
AAXX 24181 47095 32970 00001 11145 21189 30078 40284 52013
AAXX 24181 47097 329// /3602 11091 21176 30181 40284 52014
AAXX 24181 47098 329// /1602 11105 21169 30135 40279 52008
AAXX 24181 47099 329// /1402 11126 21158 30245 40284 52009
AAXX 24181 47100 32970 02504 11149 21209 39276 40264 52013
AAXX 24181 47102 32970 00207 11053 21112 30108 40296 52011
AAXX 24181 47104 32970 02307 11069 21223 30129 40232 52011
AAXX 24181 47106 329// /2709 11055 21224 30176 40228 52012
AAXX 24181 47112 32970 03410 11058 21153 30196 40285 52011 333 92023
AAXX 24181 47114 32968 02304 11091 21202 30084 40279 52013
AAXX 24181 47119 32970 03203 11075 21145 30243 40288 52014
AAXX 24181 47121 329// /2902 11100 21182 39960 40275 52016
AAXX 24181 47127 329// /2002 11100 21167 30134 40286 52015
AAXX 24181 47129 32970 03413 11031 21133 30256 40293 52015
AAXX 24181 47130 32970 02007 11057 21201 30167 40232 52015 333 92033
AAXX 24181 47131 32970 03202 11063 21155 30212 40287 52014
AAXX 24181 47135 329// /2711 11064 21131 39960 40275 52014
AAXX 24181 47136 32970 02905 11073 21175 30080 40262 52011
AAXX 24181 47137 329// /2301 11064 21172 30147 40272 52012
AAXX 24181 47140 41568 70202 11044 21068 30258 40288 52014 72688 87800 333 92012
AAXX 24181 47143 32970 02706 11043 21134 30190 40273 52010
AAXX 24181 47145 32970 03205 11067 21147 30254 40282 52014
AAXX 24181 47146 32663 23402 11047 21076 30216 40285 52014 81500
AAXX 24181 47150 32668 60205 11033 21089 30264 40284 52013 85500
AAXX 24181 47152 32970 02906 11035 21129 30202 40247 52011
AAXX 24181 47154 329// /2908 11051 21134 30206 40270 52010
AAXX 24181 47155 32970 00702 11029 21134 30212 40260 52011
AAXX 24181 47156 41561 50505 11032 21038 30189 40282 52009 78588 85800
AAXX 24181 47157 32973 03208 11040 21126 39971 40253 52008
AAXX 24181 47162 32970 00502 11023 21103 30220 40262 52010 333 92021
AAXX 24181 47169 32670 63621 10030 21042 30178 40274 52009 86500 333 92066
AAXX 24181 47170 41670 53408 10000 21042 30232 40277 52007 72682 85500 333 92023
AAXX 24181 47171 41561 63601 11044 21060 30229 40287 52011 78582 86800
AAXX 24181 47172 429// /3605 11036 21051 30208 40278 52009
AAXX 24181 47173 329// /3403 11048 21083 30166 40283 52011
AAXX 24181 47174 41562 62707 11040 21067 30060 40272 52012 78588 86800
AAXX 24181 47175 41565 63415 11043 21051 39679 40278 52011 72682 86500 333 92024
AAXX 24181 47185 32665 53229 10049 21022 30172 40265 53003 85500 333 92057
AAXX 24181 47188 41558 60205 10018 21009 30248 40271 52008 78588 86800 333 92032
AAXX 24181 47189 42668 53407 10039 21027 30206 40267 53006 85500 333 92033
AAXX 24181 47192 32673 40201 11025 21110 30226 40265 53010 84500
AAXX 24181 47101 32970 00201 11125 21160 30174 40278 52013
AAXX 24181 47105 369// /2710 11067 21206 30198 40232 52008
AAXX 24181 47108 32970 02708 11082 21188 30171 40284 52012
AAXX 24181 47115 41540 72905 11029 21055 39914 40196 52012 78588 87800 333 92042
AAXX 24181 47133 32968 03402 11073 21129 30199 40289 52014
AAXX 24181 47138 32970 02706 11032 21165 30244 40247 52010 333 92032
AAXX 24181 47159 32970 02710 11032 21143 30165 40255 52011 333 92023
AAXX 24181 47165 41670 63615 10002 21050 30230 40279 53010 72682 86500 333 92024
AAXX 24181 47168 32670 23411 11019 21093 30184 40267 52011 82500 333 92024
AAXX 24181 47184 41562 73417 10031 20006 30253 40279 52014 78387 87800 333 92055
AAXX 24184 85242 31457 71210 10150 20036 36559 57015 71792 85922 333 56400 58018 82817 83920 87070 96016
AAXX 24184 89132 NIL
AAXX 24184 89542 46/// /1501 11017 20034 49778 52004
AAXX 24184 89575 NIL
AAXX 24184 89657 NIL
BBXX NIL
AAXX 24184 40255 32560 42706 10110 20046 39426 40142 52004 84100 333 10140 84830
AAXX 24184 40260 NIL
AAXX 24184 40270 31656 42308 10100 20006 39243 40144 52009 70522 84100 333 10135 84830
AAXX 24184 40272 31556 22613 10095 21011 39313 40156 52007 70722 82100 333 10136 82840
AAXX 24184 40290 NIL
AAXX 24184 40340 32960 03606 10170 21001 40170 52031 333 10230
BBXX NIL
BBXX NIL
BBXX NIL
BBXX NIL
AAXX 24181 35746 325// 80504 11108 21144 30090 40160 58004 885// 333 11112
AAXX 24181 35849 12998 50000 11092 21137 30054 40143 57005 69900 80006 333 11090
AAXX 24181 35953 325// 80806 11120 21155 30019 40154 57016 885// 333 11125
AAXX 24181 35969 329// 70702 11132 21175 30008 40191 57007 87070 333 11119
AAXX 24181 38062 329// 70801 11122 21165 39985 40156 57014 87010 333 11100
AAXX 24181 38069 329// 00901 11050 21091 39959 40155 57008 333 10015
AAXX 24181 35746 325// 80504 11108 21144 30090 40160 58004 885// 333 11112
AAXX 24181 35849 12998 50000 11092 21137 30054 40143 57005 69900 80006 333 11090
AAXX 24181 35953 325// 80806 11120 21155 30019 40154 57016 885// 333 11125
AAXX 24181 35969 329// 70702 11132 21175 30008 40191 57007 87070 333 11119
AAXX 24181 38062 329// 70801 11122 21165 39985 40156 57014 87010 333 11100
AAXX 24181 38069 329// 00901 11050 21091 39959 40155 57008 333 10015
AAXX 24184 40250 NIL
AAXX 24184 40265 NIL
AAXX 24184 40296 32660 20000 10188 20059 40152 52011 82100 333 10245 82830
AAXX 24184 40310 NIL
AAXX 24184 71010 16/// /2813 10041 21062 60001 333 10041 21010 70000
AAXX 24184 71464 46/// ///08 10000 30067 40287 58018 6///1 333 10002 21040 7////
AAXX 24184 71466 46/// ///// 10005 30042 40285 6///1 333 7////
AAXX 24184 71525 16/// /2718 10051 21034 60001 333 10051 21004 70000
AAXX 24184 71526 16/// /2606 10023 21045 60001 333 10051 21009 70000
AAXX 24184 71535 16/// /2519 10064 21047 60001 333 10064 20030 70000
AAXX 24184 71536 16/// /2621 10055 21047 60001 333 10055 20015 70000
AAXX 24184 71537 16/// /2510 10014 21033 60001 333 10030 21062 70000
AAXX 24184 71445 17/// /2315 11052 21076 39778 40057 58015 69961 7//4/ 333 11052 21140 70025
AAXX 24184 71916 46/// /2907 11277 21299 30008 40065 53006 6///1 333 11277 21402 7////
AAXX 24184 71351 16/// /2907 10055 21055 60001 333 10055 20022 70000
AAXX 24184 71353 16/// /2509 10018 21079 60001 333 10038 20003 70000
AAXX 24184 71385 46/// /2508 11132 6///1 333 11105 21184 7////
AAXX 24184 71150 46/// /2707 11013 21064 39442 40132 56008 6///1 333 11012 21149 7////
AAXX 24184 71214 16/// /2917 10068 21074 60001 333 10068 21010 70000
AAXX 24184 71223 16/// /2819 10048 21072 60001 333 10048 21024 70000
AAXX 24184 71225 16/// /2621 10059 21045 60001 333 10060 21004 70000
AAXX 24184 71227 46/// /3015 10044 21041 6///1 333 10044 21058 7////
AAXX 24184 71257 16/// /2711 10018 21067 60001 333 10034 21058 70011
AAXX 24184 71258 16/// /2409 10004 21076 60001 333 10034 20000 70000
AAXX 24184 71259 16/// /2709 10026 21039 60001 333 10027 21070 70000
AAXX 24184 71274 16/// /2812 10022 21042 60001 333 10022 21038 70000
AAXX 24184 71275 46/// /2617 10032 21044 6///1 333 10032 21038 7////
AAXX 24184 71278 16/// /2916 10052 21042 60001 333 10053 21027 70000
AAXX 24184 71286 16/// /2815 10043 21037 60001 333 10043 21020 70000
AAXX 24184 71287 16/// /2914 10047 21050 60001 333 10052 21017 70000
AAXX 24184 71289 16/// /2710 10036 21067 60001 333 10036 21018 70000
AAXX 24184 71683 46/// /2504 11276 30036 40153 53013 6///1 333 11250 21303 7////
AAXX 24181 23973 41997 81703 11129 21142 30118 40183 52004 77172 8802/
AAXX 24181 23975 415// 52403 11114 21134 30073 40186 52011 78582 85900
AAXX 24181 23986 41996 81701 11162 21181 39529 40195 52001 77172 8802/
AAXX 24181 23987 41495 81402 11129 21149 30112 40189 53005 78582 889//
AAXX 24181 24606 419// 80902 11345 21374 39984 40290 57006 77372 8802/
AAXX 24181 29253 419// 80000 11102 21130 30033 40212 54000 77172 8802/
AAXX 24181 29471 41496 82702 11076 21107 30003 40237 53011 78582 889// 333 88916
AAXX 24181 29481 41597 83102 11075 21092 39979 40223 53006 77172 8372/
AAXX 24181 29553 41975 22502 11086 21185 39877 40254 54000 70231 80001
AAXX 24181 29562 41584 82705 11070 21177 39825 40251 53005 73632 889// 333 91112
AAXX 24181 29581 415// 82802 11056 21098 39969 40230 53003 70232 8492/
AAXX 24181 29594 41599 82705 11044 21104 39829 40218 57017 72683 889//
AAXX 24181 29653 42997 21902 11113 21186 39770 40274 53002 80001
AAXX 24181 29675 42998 33301 11069 21126 39662 40267 57004 80008
AAXX 24181 29676 41698 82803 11024 21133 39805 40230 57002 70232 885//
AAXX 24181 29752 414// 22506 11114 21223 38826 48477 58010 73611 82500 333 91115
AAXX 24181 29759 429// 82102 11067 21186 39235 40284 57005 8805/
AAXX 24181 29766 42999 70000 11148 21154 39925 40301 57008 80001
AAXX 24181 29789 42599 82702 11056 21117 39054 40250 57005 82907
AAXX 24181 29864 429// 03203 11093 21144 39617 40290 57005
AAXX 24181 29866 429// 00000 11188 21200 39959 40304 57006
AAXX 24181 29869 429// 02201 11165 21178 39908 40306 57015
AAXX 24181 29956 42984 02502 11149 21176 39738 40332 57004
AAXX 24181 30337 42998 20000 11311 21334 39837 40343 52009 80001
AAXX 24181 30405 419// 81901 11112 21125 39711 40259 57016 77172 8802/
AAXX 24181 30504 41995 81802 11105 21118 39599 40270 57010 77172 8802/
AAXX 24181 30603 41996 81401 11102 21102 39689 40280 58009 77187 8802/
AAXX 24181 30612 415// 81202 11158 21171 39740 40305 58002 78582 8597/
AAXX 24181 30622 429// 00000 11317 21335 39639 40368 51002
AAXX 24181 30627 41999 00000 11188 21207 39328 40322 58001 70171
AAXX 24181 30703 419// 80000 11147 21153 39590 40299 57006 77172 80007
AAXX 24181 36307 42997 01001 11330 21354 39049 48548 57003
AAXX 24181 23074 41495 81404 11174 21200 30101 40127 53002 77372 8802/
AAXX 24181 23274 41497 71502 11196 21222 30126 40164 53003 77172 8652/ 333 86617
AAXX 24181 23383 41897 80000 11374 21401 39841 40244 53004 77172 85017
AAXX 24181 23472 41597 80902 11187 21213 30125 40177 52005 77172 885//
AAXX 24181 23678 429// 00701 11186 21205 30127 40189 52017
AAXX 24181 23884 419// 70000 11185 21204 30105 40184 53004 77172 80006
AAXX 24181 23891 41996 80000 11284 21322 39877 57003 77177 84036
AAXX 24181 24507 419// 81102 11325 21355 39976 40251 57009 70272 8807/
AAXX 24181 24817 419// 00000 11425 21450 39892 40326 53001 74000
AAXX 24181 24908 41998 40000 11399 21434 39903 40287 57014 70271 80001
AAXX 24181 29263 41559 72302 11110 21138 30107 40211 53004 78582 83932
AAXX 24181 29282 41960 80000 11161 21174 30033 40213 57006 77177 8807/
AAXX 24181 29379 41596 83203 11082 21105 30010 40224 53003 78583 889//
AAXX 24181 29570 41896 82803 11046 21144 39886 40238 53007 73632 8807/
AAXX 24181 29698 415// 81301 11094 21105 39723 40252 57010 70282 86902
AAXX 24181 30230 41997 80000 11272 21296 39942 40304 52007 77172 82046
AAXX 24181 30252 419// 60000 11388 21412 30034 40405 53011 77072 82031
AAXX 24181 30309 41997 81806 11136 21149 39708 40251 57016 77171 8802/
AAXX 24181 30328 419// 50000 11303 21321 39867 40346 51001 70272 80008
AAXX 24181 30521 429// 80000 11295 21313 39765 40353 51004 80001
AAXX 24181 30710 41597 80000 11108 21117 39699 40306 58004 78582 889//
AAXX 24184 71445 17/// /2315 11052 21076 39778 40057 58015 69961 7//4/ 333 11052 21140 70025
AAXX 24184 71525 16/// /2718 10051 21034 60001 333 10051 21004 70000
AAXX 24184 71526 16/// /2606 10023 21045 60001 333 10051 21009 70000
AAXX 24184 71535 16/// /2519 10064 21047 60001 333 10064 20030 70000
AAXX 24184 71536 16/// /2621 10055 21047 60001 333 10055 20015 70000
AAXX 24184 71537 16/// /2510 10014 21033 60001 333 10030 21062 70000
AAXX 24184 42027 32996 00000 11026 21041 38456 48544 333 58015
AAXX 24184 42071 31995 00000 10050 20020 40168 71000 333 59004
AAXX 24184 42101 31995 20000 10092 20042 40153 70500 80001 333 59012 82070
AAXX 24184 42111 31996 00501 10056 20047 39354 40159 70500 333 59006
AAXX 24184 42131 32996 00000 10054 20030 40169 333 59003
AAXX 24184 42165 31995 00502 10120 20040 40152 70500 333 59014
AAXX 24184 42182 31994 10000 10072 20044 40163 71000 81030 333 59010 81360
AAXX 24184 42189 31995 00000 10110 20090 40142 71000 333 58///
AAXX 24184 42328 32996 00503 10122 21053 40152 333 59013
AAXX 24184 42339 31995 00502 10158 20012 40145 70520 333 59013
AAXX 24184 42348 31995 00000 10114 20058 40161 70400 333 59006
AAXX 24184 42361 31994 00000 10084 20067 40161 71044 333 59005
AAXX 24184 42369 31995 00000 10072 20054 40161 70500 333 59007
AAXX 24184 42379 31995 00000 10086 20050 40147 71000 333 59001
AAXX 24184 42452 32996 00000 10142 20104 40152 333 59009
AAXX 24184 42475 31994 00000 10114 20086 40165 71000 333 58006
AAXX 24184 42260 NIL
AAXX 24184 71351 16/// /2907 10055 21055 60001 333 10055 20022 70000
AAXX 24184 71353 16/// /2509 10018 21079 60001 333 10038 20003 70000
AAXX 24184 71385 46/// /2508 11132 6///1 333 11105 21184 7////
AAXX 24184 71150 46/// /2707 11013 21064 39442 40132 56008 6///1 333 11012 21149 7////
AAXX 24184 71683 46/// /2504 11276 30036 40153 53013 6///1 333 11250 21303 7////
AAXX 24184 71214 16/// /2917 10068 21074 60001 333 10068 21010 70000
AAXX 24184 71223 16/// /2819 10048 21072 60001 333 10048 21024 70000
AAXX 24184 71225 16/// /2621 10059 21045 60001 333 10060 21004 70000
AAXX 24184 71227 46/// /3015 10044 21041 6///1 333 10044 21058 7////
AAXX 24184 71916 46/// /2907 11277 21299 30008 40065 53006 6///1 333 11277 21402 7////
AAXX 24184 71010 16/// /2813 10041 21062 60001 333 10041 21010 70000
AAXX 24184 71464 46/// ///08 10000 30067 40287 58018 6///1 333 10002 21040 7////
AAXX 24184 71466 46/// ///// 10005 30042 40285 6///1 333 7////
AAXX 24184 71257 16/// /2711 10018 21067 60001 333 10034 21058 70011
AAXX 24184 71258 16/// /2409 10004 21076 60001 333 10034 20000 70000
AAXX 24184 71259 16/// /2709 10026 21039 60001 333 10027 21070 70000
AAXX 24184 71274 16/// /2812 10022 21042 60001 333 10022 21038 70000
AAXX 24184 71275 46/// /2617 10032 21044 6///1 333 10032 21038 7////
AAXX 24184 71278 16/// /2916 10052 21042 60001 333 10053 21027 70000
AAXX 24184 71286 16/// /2815 10043 21037 60001 333 10043 21020 70000
AAXX 24184 71287 16/// /2914 10047 21050 60001 333 10052 21017 70000
AAXX 24184 71289 16/// /2710 10036 21067 60001 333 10036 21018 70000
AAXX 24181 51711 32980 02201 11215 21237 38032 52004 333 05459 11085
AAXX 24181 51730 11770 71601 11097 21128 40363 57005 69901 70070 86502 333 05405 11025
AAXX 24181 52112 32980 02001 11162 21213 40362 57003 333 05600 11076
AAXX 24181 52737 32980 20000 11154 21298 37080 52011 80002 333 05152 11006
AAXX 24181 52787 32980 01804 11151 21215 37025 57004 333 05100 11044
AAXX 24181 53352 32980 02001 11156 21200 40355 57004 333 11059
AAXX 24181 53593 32980 00701 11122 21184 40337 52006 333 11020
AAXX 24181 53705 32970 02501 11090 21158 40353 57002 333 05151 10027
AAXX 24181 53863 32980 03601 11077 21139 40340 57007 333 10029
AAXX 24181 53975 32972 00000 11039 21133 40325 57004 333 10045
AAXX 24181 54273 32970 02502 11271 21302 40331 52012 333 11146
AAXX 24181 54324 32970 01602 11183 21223 40325 52011 333 11042
AAXX 24181 54405 32980 02904 11068 21170 40311 52004 333 11003
AAXX 24181 54436 32980 01402 11111 21173 40319 52008 333 11003
AAXX 24181 54808 32961 01401 11023 21076 40302 57001 333 10075
AAXX 24181 54826 32975 03208 11078 21179 38501 52003 333 11064
AAXX 24181 54836 32962 02501 11057 21107 40323 52005 333 10042
AAXX 24181 54863 32970 03601 11056 21092 40310 52001 333 10036
AAXX 24181 56018 32980 02002 11080 21316 36160 52004 333 00201 10053
AAXX 24181 56021 32980 00000 11165 21324 36059 52007 333 00201 10011
AAXX 24181 57071 32963 03202 11008 21104 40314 57004 333 10078
AAXX 24181 38725 429// 50904 11007 21148 48480 53002 80002
AAXX 24184 68513 36/// /1513 10180 20139 39999 40111 53003 333 10248 20180 91018 555 91011
AAXX 24184 68514 32/// /2412 10299 20048 39619 48521 52020 333 10393 20299 91026 555 91009
AAXX 24184 68523 36/// /2110 10308 21026 39068 48505 53003 333 10359 20308 91017 555 91012
AAXX 24184 68527 36/// /2207 10331 21021 39027 48493 52010 333 10372 20331 91012 555 91011
AAXX 24184 68572 NIL
AAXX 24184 68575 NIL
AAXX 24184 68581 16/// /0803 10191 20181 39388 48534 52018 69962 333 10227 20191 91006 555 20006 69965 91017
AAXX 24184 68583 16/// /2602 10228 20207 30046 40155 53010 69942 333 10253 20228 91004 555 20004 69925 91015
AAXX 24184 68589 16/// /2102 10145 20122 38282 48544 53005 69962 333 10206 20144 91004 555 20006 69925 91024
AAXX 24184 68613 36/// /2404 10187 20120 30001 40116 53001 333 10241 20187 91007 555 91011
AAXX 24184 68647 36/// /1310 10172 20139 38934 48530 53007 333 10224 20172 91015 555 91019
AAXX 24184 68651 NIL
AAXX 24184 68715 NIL
AAXX 24184 68717 36/// /1703 10266 20117 39962 40101 52009 333 10337 20266 91008 555 91010
AAXX 24184 68723 36/// /2010 10248 20097 39366 48514 52016 333 10318 20248 91018 555 91012
AAXX 24184 68737 36/// /1510 10226 20112 39240 48523 52021 333 10289 20226 91018 555 91015
AAXX 24184 68744 36/// /1617 10181 20130 39091 48504 52018 333 10279 20181 91025 555 91015
AAXX 24184 68747 36/// /1510 10198 20159 39629 48543 53007 333 10240 20198 91014 555 91016
AAXX 24184 68754 16/// /0705 10157 20152 39164 48543 52008 69982 333 10163 20157 91010 555 20008 91020
AAXX 24184 68817 36/// /1820 10243 20153 30100 40112 52001 333 10296 20240 91034 555 91011
AAXX 24184 68821 36/// /1211 10232 20123 39888 40122 52025 333 10328 20232 91019 555 91013
AAXX 24184 68835 36/// /1403 10191 20152 30051 40165 52011 333 10253 20191 91006 555 91016
AAXX 24184 68843 16/// /0912 10184 20170 30067 40166 53003 60012 333 10201 20179 91018 555 20010 69945 91016
AAXX 24184 68849 16/// /1210 10161 20151 39429 48532 53006 60012 333 10176 20153 91016 555 20010 91017
AAXX 24184 68912 NIL
AAXX 24184 68918 36/// /1118 10210 20158 30128 40146 53010 333 10267 20210 91024 555 91014
AAXX 24184 68921 36/// /0915 10198 20168 30163 40166 53010 333 10237 20198 91023 555 91016
AAXX 24184 68925 36/// /1003 10203 20136 39776 40135 52011 333 10281 20203 91011 555 91014
AAXX 24184 68926 32170 31211 10200 20148 39975 40153 52015 83500 333 10282 20200 91016 555 91015
AAXX 24184 68935 NIL
BBXX DANM 24184 99394 70194 41298 70610 10145 20063 40352 53011 70122 8671/ 22265 00150 20401 33303 41106 50602 80102
BBXX 9HA2064 24183 99540 71741 41797 70620 11020 21053 40180 54000 793// 87273 22264 0//// 2//03 305// 4//// 5//// 6//// 86030 ICE /////
BBXX A8XD5 24184 99415 71533 41297 53205 10090 20049 40260 51000 70322 8/768 22223 2//// 326// 40810 80070
BBXX SJCD 24181 99541 71622 43/97 43314 11046 40095 53012 22263 00050
BBXX SMGW 24181 99343 71623 43/98 11711 10156 40288 55001 22224 00194 20404 41309
BBXX V7NV4 24184 99300 71788 41597 61924 10210 20195 40190 54000 702// 82686 22263 00200 20201 309// 40506 5//// 6//// 80200 ICE /////
BBXX A8UE5 24184 99439 11476 41998 02317 11005 21020 49970 57010 7//// 80000 22214 04030 20804 3//// 4//// 5//// 81010
BBXX DFKP2 24184 99307 11354 41597 63032 10120 20051 40150 57010 75885 86500 22224 00210 2//// 80085
BBXX DGHX 24183 99312 11296 41/98 53223 10095 20055 40210 51010 70222 8//// 22274 00190 2//// 80075
BBXX SBLI 24181 99316 11422 43/97 82925 10122 40081 56010 22263 00201 2//// 4////
BBXX SHIP 24184 99315 11344 41398 53022 10080 20038 40213 52013 70311 84343 22243 00220 80060
BBXX UFLC 24180 99427 11335 42/98 93411 11150 40171 57008 89/// 22222 06030 20503
AAXX 24184 68572 NIL
AAXX 24184 68575 NIL
AAXX 24184 68651 NIL
AAXX 24184 68715 NIL
AAXX 24184 68912 NIL
AAXX 24184 68935 NIL
AAXX 24181 50548 32980 00000 11345 21389 40331 52003 333 11214
AAXX 24181 50564 11970 82501 11238 21264 40283 52006 69921 77070 80007 333 11223
AAXX 24181 51334 32970 02001 11220 21248 40366 57011 333 05800 11135
AAXX 24181 51818 32865 70000 11102 21128 40360 57011 85502 333 05402 11035
AAXX 24181 52378 32980 01806 11108 21197 40357 57009 333 05251 11019
AAXX 24181 53487 32965 00000 11136 21193 40344 52002 333 11030
AAXX 24181 53502 32980 02002 11123 21195 40366 57005 333 05151 11006
AAXX 24181 53923 32980 02002 11035 21158 40330 57005 333 10019
AAXX 24181 54049 32970 02201 11251 21315 40332 52010 333 11148
AAXX 24181 54115 32980 02903 11167 21225 40323 52004 333 11079
AAXX 24181 54157 32962 01401 11220 21275 40331 52011 333 11131
AAXX 24181 54186 32970 02701 11258 21320 40303 52010 333 11181
AAXX 24181 54311 32980 00202 11179 21212 40339 52009 333 11079
AAXX 24181 54346 32965 00902 11180 21226 40330 52013 333 11097
AAXX 24181 54377 32970 00202 11180 21239 40318 52014 333 11083
AAXX 24181 54386 32970 00402 11250 21286 40297 52011 333 11143
AAXX 24181 54493 32972 02501 11182 21239 40316 52007 333 11082
AAXX 24181 54587 NIL
AAXX 24181 54715 32965 00000 11047 21101 40300 57002 333 10054
AAXX 24181 54929 32963 01401 11045 21074 40318 52005 333 10061
AAXX 24181 54945 32965 02702 11017 21100 40317 52005 333 10059
AAXX 24181 56065 32980 00901 11151 21204 36606 54000 333 05206 11024
AAXX 24181 57193 32962 00000 11019 21078 40312 57005 333 10097
AAXX 24181 57290 32965 00000 10014 21074 40314 57004 333 10100
AAXX 2418/ 89828 46/// ///// 11310 36536 4//// 5//// 91810
AAXX 2418/ 89108 46/// ///// 11159 37006 4//// 5//// 91810
AAXX 2418/ 89879 46/// ///// 10000 39786 4//// 5////
AAXX 2418/ 89879 46/// ///// 10000 39786 4//// 5//// 91810
AAXX 2418/ 89872 46/// ///// 11009 39827 4//// 5//// 91810
AAXX 2418/ 89869 46/// ///// 11053 39806 4//// 5////
AAXX 2418/ 89869 46/// ///// 11048 39807 4//// 5//// 91810
AAXX 2418/ 89866 46/// ///// 11013 39764 4//// 5////
AAXX 2418/ 89866 46/// ///// 11013 39764 4//// 5//// 91810
AAXX 2418/ 89329 46/// ///// 11054 38778 4//// 5//// 91810
AAXX 2418/ 89799 46/// ///// 11160 4//// 5////
AAXX 2418/ 89799 46/// ///// 11161 4//// 5//// 91810
AAXX 2418/ 89868 46/// ///// 11038 39829 4//// 5//// 91810
AAXX 2418/ 89332 46/// ///// 11011 39209 4//// 5//// 91810
AAXX 2418/ 89769 46/// ///// 11040 39838 4//// 5//// 91810
AAXX 2418/ 89769 46/// ///// 11036 39839 4//// 5//// 91820
AAXX 2418/ 89314 46/// ///// 11053 38271 4//// 5////
AAXX 2418/ 89314 46/// ///// 11050 38271 4//// 5//// 91810
AAXX 24184 89667 46/// /0802 10003 29052 39873 4//// 5//// 91810
AAXX 24184 68298 16/// /2403 1//// 2//// 39519 4//// 52010 60122 333 1//// 2//// 91005 555 20120 91018
AAXX 24184 68174 11465 7//// 10176 20149 38813 48535 53003 60212 70522 8157/ 333 10186 20167 555 20212 91021
AAXX 24184 68191 NIL
AAXX 24184 68242 11680 60314 10164 20114 38740 48517 53002 60012 71322 82970 333 10272 20164 91018 555 20012 91019
AAXX 24184 68262 16/// /0402 10182 20151 38729 48535 53003 60012 333 10210 20181 91003 555 20010 91021
AAXX 24184 68263 12580 73505 10163 20138 38510 48535 53003 69982 875// 333 10201 20162 91009 555 20008 91022
AAXX 24184 68267 32570 60112 10166 20139 38270 48542 58002 81574 333 10207 20166 91016 555 91024
AAXX 24184 68289 16/// /0202 10196 20175 39174 48543 55000 60102 333 10208 20196 91003 555 20106 91019
AAXX 24184 68350 16/// /0308 10208 20156 38685 48536 53008 69922 333 10287 20208 91014 555 20002 91021
AAXX 24184 68368 41260 80207 10159 20152 38345 48544 53008 70522 8667/ 333 10196 555 91024
AAXX 24184 68403 36/// /2506 10187 20157 30110 40143 52011 333 10215 20187 91010 555 91014
AAXX 24184 68424 32782 12106 10325 21013 39144 48495 53007 81400 333 10403 20323 91010 555 91010
AAXX 24184 68438 32882 13412 10277 20067 38791 48493 53007 81070 333 10345 20275 91016 555 91014
AAXX 24184 68442 32980 12902 10228 20050 38641 48495 53003 81060 333 10319 20228 91003 555 91016
AAXX 24184 68461 32580 50606 10171 20093 38343 48529 53006 84570 333 10247 20170 91008 555 91022
AAXX 24184 68512 32982 02513 10214 20046 38997 48499 53006 333 10300 20214 91017 555 91015
AAXX 24184 68538 31874 22711 10283 20012 38690 48481 53003 70500 81081 333 10331 20282 91017 555 91014
AAXX 24184 68587 NIL
AAXX 24184 68588 16/// /3102 10226 20201 30144 40160 52010 69942 333 10267 20218 91003 555 20004 91016
AAXX 24184 68591 16/// /2802 10215 20208 39994 40173 52006 60032 333 10236 20210 91004 555 20032 69985 91017
AAXX 24184 68592 NIL
AAXX 24184 68618 32980 02210 10271 20017 39028 48511 53006 333 10330 20271 91013 555 91014
AAXX 24184 68633 36/// /1613 10223 20089 38493 48487 53003 333 10309 20223 91020 555 91016
AAXX 24184 68668 36/// /1108 10182 20160 39319 48541 53008 333 10216 20182 91010 555 91018
AAXX 24184 68714 36/// /2208 10206 20136 30070 40106 52003 333 10287 20206 91012 555 91010
AAXX 24184 68727 36/// /0813 10253 20072 39101 48501 52013 333 10301 20253 91023 555 91013
AAXX 24184 68752 16/// /0611 10182 20173 39490 48543 53005 69982 333 10183 20176 91015 555 20008 91018
AAXX 24184 68816 32580 11912 10235 20155 30065 40120 55002 81501 333 10276 91017 555 91012
AAXX 24184 68828 32370 21110 10186 20172 39914 40145 52010 82600 333 10243 555 91015
AAXX 24184 68842 12480 80816 10191 20146 30106 40176 52012 69902 885// 333 10217 91027 555 91017
AAXX 24184 68858 11135 80710 10192 20191 30016 40172 53007 60082 76566 885// 333 10195 555 20080 91017
AAXX 24184 68906 32598 50204 10189 20142 30075 40138 58010 85500 222// 00130 333 10215 20186 91012 555 91013
AAXX 24184 68994 11598 82413 10052 20011 30053 40082 53008 60012 72166 885// 222// 00071 333 10083 20042 91021 555 20014 91008
AAXX 24184 89004 36/// /1013 11077 21119 38788 49793 58013 333 11061 21077 91015 555
AAXX 24184 62305 32560 23009 10118 20081 40181 52016 82550 333 10174
AAXX 24184 62306 12560 63102 10124 20107 40180 52011 60552 86800 333 10166
AAXX 24184 62318 11560 62807 10132 20111 40169 52016 60062 72582 86800 333 10162
AAXX 24184 62337 NIL
AAXX 24184 62366 32960 02410 10154 20041 40176 52015 333 10183
AAXX 24184 62393 32960 02806 10122 20026 40207 52018 333 10190
AAXX 24184 62405 32960 03006 10154 20053 40188 52021 333 10230
AAXX 24184 62414 32960 00106 10170 20022 40195 52020 333 10224
AAXX 24184 62417 32960 02704 10123 20049 40191 52012 333 10182
AAXX 24184 62440 32960 02307 10137 20051 40166 52018 333 10193
AAXX 24184 62463 32960 03410 10174 20030 40144 52022 333 10222
AAXX 24184 62465 32960 02502 10178 20098 40167 52022 333 10230
AAXX 24184 62419 NIL
AAXX 24184 62305 32560 23009 10118 20081 40181 52016 82550 333 10174
AAXX 24184 62306 12560 63102 10124 20107 40180 52011 60552 86800 333 10166
AAXX 24184 62318 11560 62807 10132 20111 40169 52016 60062 72582 86800 333 10162
AAXX 24184 62337 NIL
AAXX 24184 62366 32960 02410 10154 20041 40176 52015 333 10183
AAXX 24184 62393 32960 02806 10122 20026 40207 52018 333 10190
AAXX 24184 62405 32960 03006 10154 20053 40188 52021 333 10230
AAXX 24184 62414 32960 00106 10170 20022 40195 52020 333 10224
AAXX 24184 62417 32960 02704 10123 20049 40191 52012 333 10182
AAXX 24184 62440 32960 02307 10137 20051 40166 52018 333 10193
AAXX 24184 62463 32960 03410 10174 20030 40144 52022 333 10222
AAXX 24184 62465 32960 02502 10178 20098 40167 52022 333 10230
AAXX 24184 62419 NIL
BBXX 46206 24181 99488 71260 46/// /1509 10093 40253 52006 22200 00089 11407 70035 333 91211
AAXX 24181 40001 31550 72902 10088 20035 40128 53009 70520 83510 333 10131 83626 87460
AAXX 24181 40007 11560 80000 10084 20075 40117 50005 60032 70262 84550 333 10114 84626 87360
AAXX 24181 40025 11570 70703 10112 20100 40100 53003 60222 7096 85960 333 10142 83926 84360 86360
AAXX 24181 40045 32970 42507 10110 20046 40134 52007 84040 333 10172 84360
AAXX 24181 40061 32570 52501 10110 20045 40116 52014 82550 333 10150 82630 84360
AAXX 24181 40080 11562 32507 10086 20052 39415 40128 50009 69922 70162 83200 333 10152 83830
AAXX 24181 40087 NIL
AAXX 24181 40095 NIL
BBXX A8KM9 24184 99201 71113 41198 20214 10230 40180 52/// 70300 82160 22264 20504 334// 41004
BBXX DANM 24184 99394 70194 41298 70610 10145 20063 40352 53011 70122 8671/ 22265 00150 20401 33303 41106 50602 80102
BBXX A8KM9 24184 99201 71113 41198 20214 10230 40180 52/// 70300 82160 22264 20504 334// 41004
BBXX BATFR19 24184 99066 30057 46/// /1816 10239 20202 40111 53009 22200 00255
BBXX BATFR55 24184 99068 30395 44598 10710 10282 20257 40111 70000 81100 22232 00287 205// 32121 407// 507//
BBXX BATFR56 24184 99101 30726 44598 31112 10275 20274 40102 56015 76000 83805 22213 00299 20606 31308 40606 50602
BBXX C6HS4 24183 99117 30824 41697 51706 10280 20253 40080 5/010 76066 84566 22273 20302 80260
BBXX ONCE 24184 99123 30955 41496 71422 10260 2024/ 40080 5//// 78082 8672/ 22214 00279 2//// 3//// 4//// 5//// 6//// 80245 /////
BBXX ONDY 24184 99283 30419 41397 81622 10240 2020/ 40190 54000 70221 8//// 22213 00270 2//// 3//// 4//// 5//// 6//// 80210 /////
BBXX BATFR08 24184 99284 30661 46/// /0917 10222 20142 40226 51006 22273 00230
BBXX ZIPR7 24183 99293 30417 41598 41628 10242 20209 40172 51008 70111 844// 22214 00257 2//// 3//// 4//// 5//// 80220
BBXX 3FMV6 24183 99314 30160 41498 61827 10200 20167 40108 54000 70322 84770 22234 06200 21006 80180
BBXX DBBT 24181 99339 30184 46/// /1410 10240 20151 40110 54000 22220 00159
BBXX TBWUK18 24184 99342 30146 41098 21120 10180 20180 40185 57010 70200 821// 22222 20802 319// 41605 5//// 80180
AAXX 24184 42559 32995 00000 10144 20092 40146 333 59003
AAXX 24184 42571 31996 00000 10114 20073 40157 70500 333 59004
AAXX 24184 42667 32996 01803 10164 20095 39551 40151 333 59001
AAXX 24184 42675 31996 00000 10140 20102 40161 70500 333 58002
AAXX 24184 42754 31996 01803 10170 20076 39496 40144 70500 333 58001
AAXX 24184 42779 32996 00000 10130 20062 39444 40165 333 59002
AAXX 24184 42867 31995 03402 10156 20119 40144 70500 333 59001
AAXX 24184 42874 32996 00000 10160 20095 40137 333 59010
AAXX 24184 42933 32996 00000 10168 20087 40141 333 59003
AAXX 24184 43041 32996 00000 10128 20082 39513 40152 333 59008
BBXX 46206 24181 99488 71260 46/// /1509 10093 40253 52006 22200 00089 11407 70035 333 91211
AAXX 24181 50658 31959 02902 11271 21306 40305 52007 70400 333 11248
AAXX 24181 50888 11965 82703 11194 21235 40199 52005 69901 77077 8802/ 333 11182
AAXX 24181 50983 11960 82903 11201 21240 40201 52003 69911 77070 80007 333 11190
AAXX 24181 51053 32980 00903 11174 21209 40347 57008 333 05904 11151
AAXX 24181 51542 32980 00000 11347 21384 37560 57001 333 05551 11217
AAXX 24181 52436 32980 02502 11134 21163 38532 40370 57007 333 05300 11048
AAXX 24181 52908 32980 02201 11189 21329 35732 52001 333 00102 11045
AAXX 24181 52996 32970 01605 11093 21173 37591 57003 333 05202 11029
AAXX 24181 53083 32980 20000 11250 21277 40383 57001 80002 333 00203 11167
AAXX 24181 53764 32965 03402 11092 21138 40357 57005 333 11007
AAXX 24181 53787 32980 00000 11115 21159 40335 57004 333 10009
AAXX 24181 54096 32970 42709 11247 21297 40230 52001 80002 333 11204
AAXX 24181 54226 32980 03401 11169 21230 40328 52012 333 11076
AAXX 24181 54259 32965 02501 11239 21277 40337 52016 333 11108
AAXX 24181 54527 32965 00901 11056 21109 40292 54000 333 10041
AAXX 24181 54534 32965 00202 11105 21124 40301 52010 333 10026
AAXX 24184 68191 NIL
AAXX 24184 68587 NIL
AAXX 24184 68592 NIL
BBXX 46205 24181 99542 71343 46/// /1813 10077 40013 57041 22200 00074 11108 70038 333 91216
BBXX 46132 24181 99497 71279 46/// /1308 10091 40204 57003 22200 00088 11407 70036 333 91211
BBXX 46132 24181 99497 71279 46/// /1308 10091 40204 57003 22200 00088 11407 70036 333 91211
BBXX 46205 24181 99542 71343 46/// /1813 10077 40013 57041 22200 00074 11108 70038 333 91216
BBXX 46181 24181 99538 71288 46/// /0201 10024 40157 57025 22200 00033 10300 70000 333 91201
BBXX 44062 24181 99386 70764 46/// /3506 1//// 91820 22200 00087 333 91207
BBXX 44062 24181 99386 70764 46/// /3606 1//// 40277 91810 22200 00087 333 91208
BBXX 44062 24181 99386 70764 46/// /3506 10062 40282 58016 91800 22200 00087 10301 70005 333 91208
BBXX 44063 24181 99390 70764 46/// /3506 1//// 91820 333 91208
BBXX 44063 24181 99390 70764 46/// /3407 1//// 40305 91810 333 91209
BBXX 44063 24181 99390 70764 46/// /3406 10059 40304 58014 91800 22200 00081 1//00 70002 333 91208
BBXX 44041 24181 99372 70768 46/// /0103 1//// 91820 333 91205
BBXX 44041 24181 99372 70768 46/// /0304 1//// 40316 91810 333 91206
BBXX 44041 24181 99372 70768 46/// /0304 10079 40316 58012 91800 22200 00117 1//00 70001 333 91206
BBXX 44042 24181 99380 70763 46/// /3305 1//// 91820 333 91207
BBXX 44042 24181 99380 70763 46/// /3406 1//// 40295 91810 333 91207
BBXX 44042 24181 99380 70763 46/// /3204 10074 40295 58016 91800 22200 00092 10301 70004 333 91207
BBXX 44043 24181 99392 70764 46/// /3306 1//// 91820 333 91208
BBXX 44043 24181 99392 70764 46/// /3206 1//// 40294 91810 333 91208
BBXX 44043 24181 99392 70764 46/// /3206 10058 40293 56016 91800 22200 00074 10301 70004 333 91208
BBXX MLRM6 24183 99343 30253 41798 70822 10200 20152 40171 53010 70222 8707/ 22252 00197 20203 3//// 4//// 5////
BBXX DGUG2 24184 99034 70301 41698 41215 10260 20232 40000 56020 702// 84342 22294 04280 20702 80240
BBXX ZCDF4 24183 99154 70940 41998 13323 10265 20236 40140 53017 70200 81040 22234 00280 20302 335// 40203 5//// 80245
BBXX A8CJ2 24184 99110 70789 41598 60636 10300 20231 40105 56010 70322 83144 22214 04260 20808 306// 41209 5//// 80250
BBXX LAXP4 24184 99314 70412 41697 81118 00/// 10225 2019/ 40249 57010 70222 84617 22253 00210 20503 329// 40503 80210 NNNN
AAXX 24184 89020 46/// /2108 11016 21035 39789 49823 57017 91730
AAXX 24184 82979 32498 30000 10315 20178 39664 40107 82105 333 58018
AAXX 24184 82986 32598 61410 10337 20193 39814 40093 83208 333 58017
AAXX 24184 83179 32598 40504 10347 20171 39630 40067 83201 333 58006
AAXX 24184 83192 32597 61310 10330 20126 39945 40107 84270 333 58009
AAXX 24184 83339 32497 30909 10272 20164 39149 40099 83200 333 58009
AAXX 24184 83498 32595 20507 10288 20237 30151 40156 82100 333 58005
BBXX A8MH2 24184 99080 31344 41497 33024 10280 20246 40000 54000 70100 82140 22234 20302 399// 4//// 5//// 80255
AAXX 24184 82098 32597 30509 10327 20227 30073 40090 82340 333 58006
AAXX 24184 82246 32596 83602 10289 20256 39905 40102 8673/ 333 58006
AAXX 24184 82445 32597 60906 10282 20254 30060 40112 82270 333 58024
AAXX 24184 82562 32598 70902 10281 20236 39999 40106 84260 333 58059
AAXX 24184 82571 21497 62702 10299 20244 39914 40087 70262 86200 333 58016 69931
AAXX 24184 82765 32598 73603 10276 20228 39894 40135 83270 333 58024
AAXX 24184 68183 31570 70102 10227 20183 39463 48557 53011 76022 8357/ 333 10261 20227 91003 555 91018
AAXX 24184 68188 16/// /0000 10184 20169 39224 48545 52010 60042 333 10216 20184 91002 555 20040 91019
AAXX 24184 68268 NIL
AAXX 24184 68272 16/// /0503 10193 20179 39097 48539 52004 60062 333 10210 20192 91007 555 20064 91019
AAXX 24184 68296 16/// /0000 1//// 2//// 38918 4//// 52001 60202 333 1//// 2//// 91003 555 20202
AAXX 24184 68322 32982 03502 10303 20065 39089 48482 52011 333 10401 20303 91003 555 91010
AAXX 24184 68338 32678 63614 10210 20156 38773 48507 52030 86570 333 10322 20210 91021 555 91017
AAXX 24184 68345 36/// /0109 10215 20137 38672 48516 53006 333 10297 20214 91013 555 91019
AAXX 24184 68362 36/// /3603 10187 20152 38525 48528 52017 333 10253 20186 91004 555 91021
AAXX 24184 68400 16/// /1502 10230 20209 30077 40150 52009 69922 333 10260 20229 91002 555 20002 91015
AAXX 24184 68408 32/// /2803 10153 20136 30122 40130 52011 333 10198 20153 91004 555 91013
AAXX 24184 68416 32984 02307 10314 21010 38999 48494 52007 333 10346 20314 91013 555 91012
AAXX 24184 68478 11480 60404 10206 20174 38893 48534 52011 69922 71799 86900 333 10250 20204 91010 555 20002 91020
AAXX 24184 68488 36/// /0704 10195 20174 39296 48546 52015 333 10239 20195 91007 555 91019
AAXX 24184 68494 NIL
AAXX 24184 68524 32986 22708 10317 21019 39016 48492 52008 82080 333 10357 20317 91011 555 91011
AAXX 24184 68546 36/// /1704 10192 20130 38645 48492 53012 333 10305 20192 91010 555 91016
AAXX 24184 68558 36/// /1512 10144 20114 38195 48512 52013 333 10254 20144 91017 555 91020
AAXX 24184 68570 16/// /1405 10174 20125 38526 48518 52013 60042 333 10253 20174 91011 555 20042 91020
AAXX 24184 68580 16/// /3204 10167 20160 38970 48530 51005 69922 333 10231 20165 91006 555 20002 69925 91019
AAXX 24184 68614 32980 02307 10253 20076 30051 40091 52003 333 10339 20253 91015 555 91009
AAXX 24184 68624 32882 11405 10256 20032 38723 48501 52012 81200 333 10319 20256 91010 555 91016
AAXX 24184 68674 NIL
AAXX 24184 68712 36/// /1817 10157 20140 30042 40107 53002 333 10197 20157 91021 555 91010
AAXX 24184 68718 NIL
AAXX 24184 68722 36/// /2303 10219 21057 38544 48502 52011 333 10286 20219 91006 555 91018
AAXX 24184 68814 NIL
AAXX 24184 68832 36/// /0713 10188 20104 39193 48517 52017 333 10259 20188 91024 555 91016
AAXX 24184 68916 32370 31020 10181 20161 39863 40129 50000 81101 333 10217 20181 91040 555 91013
AAXX 24184 68920 NIL
AAXX 24184 68928 NIL
BBXX LEQZ3 24183 99510 11614 41/98 70924 10010 2101/ 40100 56020 70011 22253 00110 80000 NNNN
AAXX 24184 82141 32598 40207 10303 20239 30086 40098 84200 333 58016
AAXX 24184 82145 32598 50504 10324 20219 30054 40095 83230 333 58013
AAXX 24184 82181 32496 40710 10321 20220 39973 40112 81140 333 58015
AAXX 24184 82198 32495 60510 10319 20222 30036 40087 84260 333 58000
AAXX 24184 82476 32595 61404 10340 20200 39966 40084 84540 333 58013
AAXX 24184 82861 32597 60906 10294 20236 39906 40075 86200 333 58010
AAXX 24184 68155 16/// /1102 10203 20177 39204 48529 50000 60042 333 10221 20197 91004 555 20046 91017
AAXX 24184 68171 NIL
AAXX 24184 68176 16/// /0403 10204 20168 39160 48543 53012 69922 333 10259 20204 91006 555 20002 91019
AAXX 24184 68181 NIL
AAXX 24184 68182 36/// /0000 10206 20174 39364 48549 53011 333 10263 20206 91002 555 91018
AAXX 24184 68185 NIL
AAXX 24184 68253 36/// /0502 10202 20185 39062 48531 58003 333 10212 20201 91003 555 91018
AAXX 24184 68255 36/// /0502 10190 20157 38883 48529 53005 333 10213 20190 91004 555 91019
AAXX 24184 68271 16/// /0000 10186 20171 38933 48534 53001 60102 333 10209 20184 91002 555 20104 91020
AAXX 24184 68273 16/// /3203 10163 20155 38484 48539 53002 69942 333 10211 20162 91004 555 20004 91023
AAXX 24184 68287 36/// /1302 10147 20142 38604 48538 56002 333 10169 20147 91004 555 91022
AAXX 24184 68291 16/// /1303 10208 20194 39561 48552 53007 60252 333 10224 20208 91006 555 20250 91017
AAXX 24184 68297 NIL
AAXX 24184 68329 36/// /0000 10310 20057 39049 48500 53003 333 10393 20310 91002 555 91012
AAXX 24184 68331 36/// /1406 10279 20063 38822 48515 53005 333 10354 20278 91012 555 91017
AAXX 24184 68335 36/// /0209 10249 20120 38913 48527 55000 333 10327 20249 91015 555 91018
AAXX 24184 68341 36/// /0105 10171 20140 38557 48541 53003 333 10249 20171 91012 555 91023
AAXX 24184 68342 NIL
AAXX 24184 68343 NIL
AAXX 24184 68349 NIL
AAXX 24184 68353 36/// /3406 10179 20151 38533 48512 53006 333 10235 20179 91008 555 91019
AAXX 24184 68355 36/// /0115 10210 20151 38582 48516 52014 333 10296 20210 91019 555 91019
AAXX 24184 68370 32470 80000 10178 20171 38393 48542 52007 885// 333 10235 2//// 555 91024
AAXX 24184 68377 16/// /1611 10172 20160 38792 48529 52037 60042 333 10279 20170 91015 555 20040 60405 91020
AAXX 24184 68380 36/// /2902 10162 20138 3//// 4//// 5//// 333 10198 20160 91003 555
AAXX 24184 68387 NIL
AAXX 24184 68411 36/// /1510 10293 20063 39895 40095 53021 333 10391 20293 91017 555 91010
AAXX 24184 68429 36/// /0802 10263 20071 38665 48490 56006 333 10343 20246 91004 555 91015
AAXX 24184 68449 36/// /1206 10212 20108 38395 48507 53008 333 10279 20212 91009 555 91019
AAXX 24184 68471 16/// /1802 10153 20124 38352 48532 52018 60012 333 10208 20149 91005 555 20012 91022
AAXX 24184 68474 16/// /0000 10148 20131 38654 48543 52023 60152 333 10215 20148 91004 555 20154 60285 91023
AAXX 24184 68479 16/// /2506 10200 20166 38978 48541 52020 60022 333 10271 20196 91009 555 20022 91020
AAXX 24184 68481 36/// /0000 10218 20201 39799 40166 52011 333 10241 20218 91002 555 91017
AAXX 24184 68487 36/// /1603 10194 20168 39023 48544 52017 333 10222 20193 91004 555 91020
AAXX 24184 68491 NIL
AAXX 24184 68497 36/// /0503 10225 20206 30120 40164 52012 333 10274 20225 91005 555 91016
BBXX 44029 24181 99425 70706 46/30 /0107 11025 40287 54000 91804 22200 00083 10503 70013 333 91209 555 11081 22084
BBXX 44059 24181 99368 70763 46/// /0405 1//// 91820 333 91207
BBXX 44059 24181 99368 70763 46/// /0605 1//// 40287 91810 333 91208
BBXX 44059 24181 99368 70763 46/// /0307 10076 40287 58005 91800 22200 00113 333 91210
BBXX 44057 24181 99395 70761 46/// /3506 1//// 91820 333 91207
BBXX 44057 24181 99395 70761 46/// /3505 1//// 40298 91810 333 91207
BBXX 44057 24181 99395 70761 46/// /3406 10044 40298 58013 91800 22200 00063 333 91208
BBXX 44058 24181 99376 70763 46/// /0205 1//// 91810 333 91207
BBXX 44058 24181 99376 70763 46/// /0106 10071 40292 58014 91800 22200 00097 10301 70005 333 91208
AAXX 24181 31825 42684 70000 11156 21175 39825 40042 56004 875//
AAXX 24181 31845 41996 82101 11228 21253 39997 40175 57001 77172 8802/
AAXX 24181 31878 41956 82904 11210 21248 30070 40205 53002 77173 8802/
AAXX 24181 31915 42998 52805 11210 21287 39928 40216 58002 80005
AAXX 24181 31921 41997 83004 11194 21262 30108 40214 53002 77172 8802/
AAXX 24181 31969 42/// /2910 11174 21288 30174 40227 55004 333 91120
AAXX 24181 31981 41598 52901 11211 21244 39955 40210 53004 78582 85501
AAXX 24181 31987 42699 83510 11201 21273 39901 40182 55000 885// 333 91015 91117
AAXX 24181 32069 41597 81005 11009 21070 39968 49973 57008 78582 889// 333 91006 91114
AAXX 24181 30455 429// 00000 11322 21346 38926 48446 51009
AAXX 24181 30731 429// 81502 11117 21145 39655 40291 52009 8807/
AAXX 24181 30739 429// 00502 11246 21265 39439 40336 52017
AAXX 24181 30741 429// 03003 11205 21217 38681 48464 52014
AAXX 24181 30745 419// 50101 11287 21312 39091 40367 52020 70272 80001
AAXX 24181 30764 42998 00000 11344 21374 39488 40400 52008
AAXX 24181 30829 41584 80000 11157 21184 39599 40329 52009 72682 81301
AAXX 24181 30838 41998 20000 11192 21198 39282 40334 52010 70271 81042
AAXX 24181 30846 41999 50000 11283 21313 39350 40362 52019 70172 82041
AAXX 24181 30859 41998 83101 11305 21336 39431 40372 52010 77172 80007
AAXX 24181 30862 41964 70901 11325 21362 39545 40383 52008 77171 86011
AAXX 24181 30957 429// 00301 11266 21277 39362 40351 53015
AAXX 24181 30967 NIL
AAXX 24181 30975 42898 22501 11408 21451 39665 40431 52007 82030
AAXX 24181 30499 41997 82402 11342 21358 39626 40376 52006 77171 83025
AAXX 24181 30683 429// 00000 11379 21403 39631 40384 52006
AAXX 24181 30695 42998 03603 11353 21384 39965 40351 53008
AAXX 24181 31253 41997 80000 11229 21262 39799 40296 52004 77172 8802/
AAXX 24181 31295 42999 32702 11280 21305 39804 40310 54000 80001
AAXX 24181 31348 41999 83603 11135 21139 30058 40263 52004 77272 8802/
AAXX 24181 31418 41964 83607 11126 21178 39973 40238 52007 77172 8802/
AAXX 24181 31439 41598 80206 11055 21081 30089 40134 57006 73632 889// 333 91210
AAXX 24181 31442 41997 83003 11247 21278 39885 40273 52005 77172 80007
AAXX 24181 31445 42984 83004 11238 21270 39982 40259 52008 80001
AAXX 24181 31474 42998 80000 11190 21216 39695 40208 58001 8802/
AAXX 24181 31521 31957 82901 11247 21265 39935 40254 53006 77172 80007
AAXX 24181 31527 41996 83202 11251 21263 39909 40240 51001 77173 8802/
AAXX 24181 31534 42999 60000 11274 21292 39863 40243 52005 80005
AAXX 24181 31587 41996 82903 11234 21246 30106 40266 52004 77172 80007
AAXX 24181 31632 NIL
AAXX 24181 31702 41997 80302 11262 21301 39874 40244 52001 77172 8802/
AAXX 24181 31713 41995 80000 11193 21205 30057 40163 52005 77172 8802/
AAXX 24181 31725 41896 82902 11145 21151 30070 40140 53001 77172 8802/
AAXX 24181 31801 41595 82002 11217 21235 39909 40154 54000 78587 889//
BBXX 46181 24181 99538 71288 46/// /0201 10024 40157 57025 22200 00033 10300 70000 333 91201
BBXX ZNQO3 24180 99500 70016 41/97 62612 10115 20062 40323 57010 70222 8//// 22223 04126 2//// 3//// 4//// 5//// 80090
BBXX TBWUK17 24183 99257 30600 41597 30814 10241 20217 40220 52014 70000 82445 22263 04246 20403 30808 40402 50304 80225
BBXX A8HD5 24181 99065 11077 41597 43617 10270 20210 40110 51010 70181 83145 22213 04260 20504 302// 40706 5//// 80230
AAXX 24184 42634 32996 00000 10150 20100 40135 333 59014
AAXX 24184 42647 31995 00000 10170 20135 40133 70500 333 59007
AAXX 24184 42737 32996 00202 10160 20112 40140 333 59010
AAXX 24184 42840 32996 03602 10210 20153 40135 333 59002
AAXX 24184 42909 32996 00206 10202 20111 40129 333 59003
AAXX 24184 42921 32996 00000 10130 20084 40188 333 58000
AAXX 24184 43003 31995 00000 10204 20164 40119 70500 333 58001
AAXX 24184 43014 32996 00000 10160 20094 39477 40140 333 59004
AAXX 24184 43063 32996 00000 10156 20121 39498 40138 333 59009
AAXX 24184 43110 31996 00502 10220 20171 40114 70544 333 59005
AAXX 24184 43117 32996 00501 10192 20077 40128 333 59008
AAXX 24184 43192 32996 00702 10236 20189 40114 333 59002
AAXX 24181 40009 11565 80000 10094 20078 40096 51006 60062 76166 8552/ 85630 88460
AAXX 24181 40016 40022 11565 50901 10130 20111 40090 51006 60102 70299 85800 222// 20000 10163 82830 84632
AAXX 24181 40030 11570 60000 10103 20071 40106 50004 60022 70266 83570 333 10111 83630 85360
AAXX 24181 40039 11565 70000 10098 20082 40114 51004 60032 76626 84550 333 10132 84630 87360 40066 11570 70000 10102 20090 40104 51007 60502 79596 87900 333 10105 83926 85630
AAXX 24181 40072 32970 00000 10122 20050 40139 52014 333 10200
AAXX 24181 40083 32570 33401 10054 20013 48417 51006 83200 333 10094 83826
BBXX 46184 24181 99539 71389 46/// /2014 10067 49939 57014 22200 00064 11712 70058 333 91218
AAXX 24184 68171 NIL
AAXX 24184 68181 NIL
AAXX 24184 68185 NIL
AAXX 24184 68297 NIL
AAXX 24184 68342 NIL
AAXX 24184 68343 NIL
AAXX 24184 68349 NIL
AAXX 24184 68387 NIL
AAXX 24184 68491 NIL
AAXX 24184 91723 NIL
AAXX 24184 91759 11598 30000 10258 20235 40082 53012 60001 70315 82101 333 82824 83079
AAXX 24184 91762 11598 60000 10256 20243 40081 53014 60001 71500 85202 333 85820
BBXX 46184 24181 99539 71389 46/// /2014 10067 49939 57014 22200 00064 11712 70058 333 91218
AAXX 24181 80210 31565 62502 10255 20186 38649 70521 84861 333 56499 57892 58007 84821
AAXX 24181 80214 31460 31804 10286 20214 39105 70541 83230 333 5650/ 57882 58005 83818
AAXX 24181 80222 41568 72003 10178 20109 37518 70552 84856 333 56499 58006 84820 83358
AAXX 24181 80234 01562 60730 10266 20216 39617 40110 69931 70252 83572 333 56399 58016 69937 83620 83359
AAXX 24181 80241 NIL
AAXX 24181 80259 31560 52602 10274 20195 39042 70521 84830 333 5689/ 58014 84830
AAXX 24181 80315 32565 50000 10303 20211 39576 40067 82850 333 5600/ 58006 82830 84362
AAXX 24181 80342 32565 60303 10204 20177 38212 86800 333 564// 58009 86822
AAXX 24181 80370 31462 71104 10142 20102 71522 87800 333 563// 87818
AAXX 24181 80398 32470 70000 10312 20256 30013 40108 83130 333 5699/ 58006 83817 87358
BBXX A8GH5 24183 99409 70101 41/96 /0315 10170 20123 40340 54000 70200 8//// 22244 20402 80142
AAXX 24181 80001 01470 40705 10284 20247 30129 40130 60024 70251 81236 333 56200 58010 69917 81818
AAXX 24181 80002 01470 80605 10278 20241 60031 70261 82271 333 56220 57821 60037 82817 85357
AAXX 24181 80009 31560 52302 10302 20239 30089 40094 70500 82804 333 564/0 58014 82820 85070
AAXX 24181 80022 31566 70103 10300 20243 30089 40091 70521 81107 333 561/9 58006 81820 87270
AAXX 24181 80028 1965 40304 10292 20227 40105 70500 80005 333 56//9 58007
AAXX 24181 80063 31465 80000 10304 20253 70522 85400 333 56000 85618 86460
AAXX 24181 80084 11458 80000 10256 20244 69941 71552 8481/ 333 5609/ 84812 88458
AAXX 24181 80091 31465 40290 10314 20237 70522 83202 333 560/9 83815 83070
AAXX 24181 80094 31465 43005 10248 20198 38797 70522 82871 333 56799 58002 82813
AAXX 24181 80097 32466 63603 10258 20213 39758 40107 83832 333 56999 58012 83618
AAXX 24181 80099 31466 40904 10300 20208 39943 40089 70500 84101 333 567/9 58021 84815
AAXX 24181 80110 31570 70000 10260 20139 38493 70522 83286 333 56009 57895 58009 83830 85270
AAXX 24181 80112 31570 60905 10211 20108 37897 70522 83276 333 56300 57895 58005 83820 84070
AAXX 24181 80144 01458 70000 10258 20231 60041 70552 86208 333 560/9 60017 86815 87270
AAXX 24184 45011 47959 /0115 10106 21001 40250 52005 70011 333 58012
AAXX 24184 68674 NIL
AAXX 24181 31913 NIL
AAXX 24181 32128 41497 70102 11021 21030 39840 49891 51005 78582 87300 333 91003 91107
AAXX 24181 24856 42997 80101 11379 21409 30222 40402 52003 80001
AAXX 24181 30679 NIL
AAXX 24181 30686 42999 00000 11417 21444 39945 40386 52006
AAXX 24181 30961 42999 00000 11302 21326 39491 40376 52007
AAXX 24181 30971 42999 02101 11371 21415 39280 40417 52003
AAXX 24181 30978 42999 00000 11388 21418 39625 40423 52006
AAXX 24181 31513 41999 83201 11256 21262 30008 40256 53006 70272 80006
AAXX 24181 31624 NIL
AAXX 24181 31832 41963 80000 11220 21245 30083 40176 53002 70272 8802/
AAXX 24184 87129 32565 71808 10227 20088 39990 40225 57024 84570 333 84625 84360
AAXX 24181 80001 01470 40705 10284 20247 30129 40130 60024 70251 81236 333 56200 58010 69917 81818
AAXX 24181 80002 01470 80605 10278 20241 60031 70261 82271 333 56220 57821 60037 82817 85357
AAXX 24181 80009 31560 52302 10302 20239 30089 40094 70500 82804 333 564/0 58014 82820 85070
AAXX 24181 80022 31566 70103 10300 20243 30089 40091 70521 81107 333 561/9 58006 81820 87270
AAXX 24181 80028 1965 40304 10292 20227 40105 70500 80005 333 56//9 58007
AAXX 24181 80063 31465 80000 10304 20253 70522 85400 333 56000 85618 86460
AAXX 24181 80084 11458 80000 10256 20244 69941 71552 8481/ 333 5609/ 84812 88458
AAXX 24181 80091 31465 40290 10314 20237 70522 83202 333 560/9 83815 83070
AAXX 24181 80094 31465 43005 10248 20198 38797 70522 82871 333 56799 58002 82813
AAXX 24181 80097 32466 63603 10258 20213 39758 40107 83832 333 56999 58012 83618
AAXX 24181 80099 31466 40904 10300 20208 39943 40089 70500 84101 333 567/9 58021 84815
AAXX 24181 80110 31570 70000 10260 20139 38493 70522 83286 333 56009 57895 58009 83830 85270
AAXX 24181 80112 31570 60905 10211 20108 37897 70522 83276 333 56300 57895 58005 83820 84070
AAXX 24181 80144 01458 70000 10258 20231 60041 70552 86208 333 560/9 60017 86815 87270
BBXX 46004 24181 99509 71361 46/// /2109 10080 40061 52005 22200 00075 11209 70044 333 91212
AAXX 24184 43086 32996 00000 10160 20120 39940 40124 333 59011
AAXX 24184 43128 31996 00000 10174 20071 39518 40137 70500 333 59009
AAXX 24184 43150 31596 23204 10210 20149 30054 40130 70511 81502 333 59005 81620
AAXX 24184 43185 31996 00502 10220 20178 30116 40120 70510 333 59004
AAXX 24184 43189 32996 40000 10204 20171 30116 40125 83031 333 59007
AAXX 24184 43198 32996 00000 10154 20095 39287 40130 333 59004
AAXX 24184 43201 32996 09902 10204 20138 39393 40118 333 59007
AAXX 24184 43213 32996 00000 10206 20125 39801 40123 333 59009
AAXX 24184 43226 32996 00902 10204 20134 30081 40111 333 58000
AAXX 24184 43233 32996 00000 10172 20083 39308 40130 333 59006
AAXX 24184 43237 32996 00904 10204 20157 39721 40119 333 59011
AAXX 24184 43245 32596 33402 10224 20199 30092 40119 82501 333 59008
AAXX 24184 43279 31996 30000 10218 20193 30101 40119 70520 80001 333 59007 83075
AAXX 24184 43284 32996 00905 10224 20158 39985 40102 333 59003
AAXX 24184 43295 32996 20906 10174 20130 39097 48497 80001 333 59012 82075
AAXX 24184 43311 32996 10902 10254 20224 40096 80001 333 59004 81075
AAXX 24184 43314 32996 00000 10250 20204 40103 333 59006
AAXX 24184 43321 31995 00000 10194 20142 39672 40127 70500 333 59013
AAXX 24184 43329 32996 00000 10224 20193 30099 40113 333 59008
AAXX 24184 43344 31596 40205 10210 20178 30017 40118 70522 81531 333 59007 81620 83360
AAXX 24184 43346 32596 73206 10244 20204 30098 40105 84502 333 59004 84620 85075
AAXX 24184 43353 32496 30000 10276 20223 40096 82071 333 56099 58014 82459 83072
AAXX 24184 43369 32596 40503 10274 20236 40101 82430 333 59011 82620 83360
AAXX 24184 43371 21596 30000 10234 20231 30029 40102 70396 81501 333 59006 6082/ 81620
AAXX 24184 67002 32580 20402 10274 20248 30090 40124 81800 333 10326 59011 81820 92408
AAXX 24184 67009 NIL
AAXX 24184 67025 NIL
AAXX 24184 67027 32580 22214 10290 20261 30079 40100 52012 81902 333 10332 81820 81920 94965 95835 555 81640 82073
AAXX 24184 67045 NIL
AAXX 24184 67083 31470 31004 10216 20191 38773 48549 52021 71391 82902 333 10290 81817 82917 94973/4/5/6/7 95833
AAXX 24184 67095 32475 30000 10276 20242 30137 40143 51012 83800 333 10320 83817 555 81633
AAXX 24184 67113 NIL
AAXX 24184 67117 NIL
AAXX 24184 67137 NIL
AAXX 24184 67143 NIL
AAXX 24184 67161 NIL
AAXX 24184 67197 31480 50818 10265 20249 30124 40134 52008 71311 85900 333 10306 83817 82917 83633 94967/8 95877/8
AAXX 24184 89016 46/89 /1107 11001 29071 39383 4//// 5////
AAXX 24184 89003 46/89 /3121 11069 29065 38978 4//// 5////
AAXX 24184 89507 46/89 /1411 11211 29050 36801 4//// 5////
AAXX 24184 89610 46/// /0000 4//// 5////
AAXX 2418/ 89767 46/// ///// 11170 39668 4//// 5////
AAXX 24181 14324 11/00 90906 11042 21047 38384 48488 53/// 60002 749// 333 10003 44038
BBXX 46004 24181 99509 71361 46/// /2109 10080 40061 52005 22200 00075 11209 70044 333 91212
AAXX 24181 56671 32780 80000 10066 20021 38223 54000 885// 333 05402 10074
AAXX 24181 57378 32962 01402 10030 21049 40320 57002 333 10116
AAXX 24181 57426 31750 80201 10038 20037 40309 52001 71000 885// 333 05302 10055
AAXX 24181 57476 32960 80000 10029 21004 40316 57002 8807/ 333 10124
AAXX 24181 57584 32962 50902 10053 21045 40322 52001 85040 333 10117
AAXX 24181 57598 32960 01601 11018 21034 40328 52006 333 10127
AAXX 24181 57655 32960 00000 10043 20003 40317 54000 333 10132
AAXX 24181 57713 NIL
AAXX 24181 57776 32970 00705 11019 21102 40322 57002 333 10025
AAXX 24181 58321 32960 02501 11021 21059 40336 52007 333 10095
AAXX 24181 58437 32980 03407 11082 21159 38196 54000 333 11041
AAXX 24181 58445 NIL
AAXX 24181 58556 32960 00000 11012 21054 40329 52007 333 10085
AAXX 24181 58569 32962 03204 10030 21078 40319 52005 333 10091
AAXX 24181 58646 32960 00401 10000 21048 40329 52014 333 10124
AAXX 24181 58653 NIL
AAXX 24181 58660 NIL
AAXX 24181 58715 32962 03402 10002 21046 40316 52008 333 10101
AAXX 24181 58730 32962 03602 10003 21047 40315 52004 333 10127
AAXX 24181 58731 32968 03601 11012 21045 40319 52007 333 10105
AAXX 24181 58754 32962 03601 10018 21027 40316 52006 333 10141
AAXX 24181 58911 32970 00000 11008 21047 40303 52005 333 10117
AAXX 24181 58931 32970 00918 11051 21082 38366 57008 333 11009 91120 91509
AAXX 24181 59254 32960 01101 10082 21013 40271 52003 333 10172
AAXX 24181 59632 32960 03601 10103 21017 40258 52002 333 10175
AAXX 24181 59855 32970 03602 10132 20063 40232 57005 333 10190
AAXX 24184 71067 16/// ///// 10030 21071 60001 333 10043 21011 70000
AAXX 24184 71405 16/// ///// 10049 21046 60001 333 10051 21050 70000
AAXX 24184 71417 16/// /2721 11128 21155 30103 40139 56006 60001 333 11105 21143 70000
AAXX 24184 71426 46/// /3213 11139 6///1 333 11138 21178 7////
AAXX 24184 71215 46/// /1507 11002 21053 30010 40366 53008 6///1 333 11002 21018 7////
AAXX 24184 71221 16/// /2609 10020 21053 60001 333 10035 20015 70000
AAXX 24184 71226 16/// /2612 10043 21042 60001 333 10050 20027 70000
AAXX 24184 71229 46/// /2608 10011 21067 6///1 333 10049 21012 7////
AAXX 24184 71459 16/// /2611 10003 21051 39398 40218 53016 60001 333 10010 21045 70000
AAXX 24184 71461 16/// /2608 10021 21048 60001 333 10048 20003 70000
AAXX 24184 71468 16/// /2114 11017 21036 39812 40138 58034 60001 333 21074 70000
AAXX 24184 71483 16/// ///// 10040 21042 60001 333 10061 21035 70000
AAXX 24184 71500 16/// /2808 10028 21061 60001 333 10052 20023 70000
AAXX 24184 71504 16/// ///// 10046 21057 60001 333 10052 20008 70000
AAXX 24184 71541 16/// /2412 10002 21048 60001 333 10035 21004 70000
AAXX 24184 71543 16/// /3202 11011 21058 60001 333 10029 21037 70000
AAXX 24184 71546 16/// /2510 10030 21051 60001 333 10048 20005 70000
AAXX 24184 71547 16/// /2509 10009 21062 60001 333 10027 20004 70000
AAXX 24184 71549 16/// ///// 10018 21040 60001 333 10034 7////
AAXX 24184 71283 16/// /2611 10015 21048 60001 333 10026 21003 70000
AAXX 24184 71888 16/// ///// 10046 21047 60001 333 10046 21039 70000
AAXX 24184 71895 16/// ///// 10051 21054 60001 333 10056 21048 70000
AAXX 24184 71356 16/// /3426 11237 21263 39923 49991 53023 60001 333 11197 21259 70000
AAXX 24184 71359 16/// /2916 10051 21046 60001 333 10051 21021 70000
AAXX 24184 71576 16/// /0000 11353 21392 39893 49982 56004 60001 333 11322 21357 70000
AAXX 24184 71153 16/// /2718 10049 21040 60001 333 10050 21001 70000
AAXX 24184 71168 16/// /2810 10044 21065 39642 40239 58002 60001 333 10047 21102 70000
AAXX 24184 71131 16/// /2611 11018 21059 38967 40246 51015 60001 333 11012 21086 70000
AAXX 24184 71011 16/// ///// 10047 21080 60001 333 10050 21016 70000
AAXX 24184 71928 16/// /2609 10040 21086 39056 40222 51017 60001 333 10049 21026 70000
AAXX 24184 71322 17/// /3523 11166 21181 39907 49920 53018 69931 7//4/ 333 11108 21239 70003 555 10070
AAXX 24184 71332 16/// /2408 11284 21315 30093 40124 51010 60001 333 11227 21313 70000
AAXX 24184 71788 16/// /2619 10072 21049 60001 333 10072 20020 70000
AAXX 24184 71792 16/// ///// 10023 21063 60001 333 10023 21025 70000
AAXX 24184 71673 16/// ///// 10013 21067 60001 333 10022 21038 70000
AAXX 24184 71690 16/// ///// 11034 21060 60001 333 10034 21040 70000
AAXX 24184 71954 46/// /2809 11006 21034 39670 40048 57002 6///1 333 11005 21133 7////
AAXX 24184 71928 16/// /2609 10040 21086 39056 40222 51017 60001 333 10049 21026 70000
AAXX 24184 71131 16/// /2611 11018 21059 38967 40246 51015 60001 333 11012 21086 70000
BBXX 46092 24181 99368 71220 46/// /0908 10101 40300 57004 91757 22200 00125 555 11082 22088
AAXX 24184 13601 12960 00000 10074 20031 30052 40154 54000 60002 333 10116
AAXX 24184 71283 16/// /2611 10015 21048 60001 333 10026 21003 70000
AAXX 24184 71459 16/// /2611 10003 21051 39398 40218 53016 60001 333 10010 21045 70000
AAXX 24184 71461 16/// /2608 10021 21048 60001 333 10048 20003 70000
AAXX 24184 71468 16/// /2114 11017 21036 39812 40138 58034 60001 333 21074 70000
AAXX 24184 71483 16/// ///// 10040 21042 60001 333 10061 21035 70000
AAXX 24184 71067 16/// ///// 10030 21071 60001 333 10043 21011 70000
AAXX 24184 71405 16/// ///// 10049 21046 60001 333 10051 21050 70000
AAXX 24184 71417 16/// /2721 11128 21155 30103 40139 56006 60001 333 11105 21143 70000
AAXX 24184 71426 46/// /3213 11139 6///1 333 11138 21178 7////
BBXX 46232 24181 99325 71174 46/// ///// 1//// 91808 22200 00148 11802 21001 327// 41802 70012
BBXX 46247 24181 99378 71228 46/// ///// 1//// 91821 22200 00118 11506 21002 329// 41505 70028
BBXX 44030 24181 99432 70704 46/// /3304 1//// 40296 55000 91804 22200 00082 10502 70009 333 91206 555 11048 22050
AAXX 24184 71356 16/// /3426 11237 21263 39923 49991 53023 60001 333 11197 21259 70000
AAXX 24184 71359 16/// /2916 10051 21046 60001 333 10051 21021 70000
AAXX 24184 71153 16/// /2718 10049 21040 60001 333 10050 21001 70000
AAXX 24184 71168 16/// /2810 10044 21065 39642 40239 58002 60001 333 10047 21102 70000
AAXX 24184 71500 16/// /2808 10028 21061 60001 333 10052 20023 70000
AAXX 24184 71504 16/// ///// 10046 21057 60001 333 10052 20008 70000
AAXX 24184 71541 16/// /2412 10002 21048 60001 333 10035 21004 70000
AAXX 24184 71543 16/// /3202 11011 21058 60001 333 10029 21037 70000
AAXX 24184 71546 16/// /2510 10030 21051 60001 333 10048 20005 70000
AAXX 24184 71547 16/// /2509 10009 21062 60001 333 10027 20004 70000
AAXX 24184 71549 16/// ///// 10018 21040 60001 333 10034 7////
AAXX 24184 71888 16/// ///// 10046 21047 60001 333 10046 21039 70000
AAXX 24184 71895 16/// ///// 10051 21054 60001 333 10056 21048 70000
AAXX 24184 71576 16/// /0000 11353 21392 39893 49982 56004 60001 333 11322 21357 70000
AAXX 24184 71215 46/// /1507 11002 21053 30010 40366 53008 6///1 333 11002 21018 7////
AAXX 24184 71221 16/// /2609 10020 21053 60001 333 10035 20015 70000
AAXX 24184 71226 16/// /2612 10043 21042 60001 333 10050 20027 70000
AAXX 24184 71229 46/// /2608 10011 21067 6///1 333 10049 21012 7////
AAXX 24184 71954 46/// /2809 11006 21034 39670 40048 57002 6///1 333 11005 21133 7////
AAXX 24184 71673 16/// ///// 10013 21067 60001 333 10022 21038 70000
AAXX 24184 71690 16/// ///// 11034 21060 60001 333 10034 21040 70000
AAXX 24184 71322 17/// /3523 11166 21181 39907 49920 53018 69931 7//4/ 333 11108 21239 70003 555 10070
AAXX 24184 71332 16/// /2408 11284 21315 30093 40124 51010 60001 333 11227 21313 70000
AAXX 24184 71011 16/// ///// 10047 21080 60001 333 10050 21016 70000
AAXX 24184 71788 16/// /2619 10072 21049 60001 333 10072 20020 70000
AAXX 24184 71792 16/// ///// 10023 21063 60001 333 10023 21025 70000
BBXX 46146 24181 99493 71237 46/// /0909 10074 40293 52013 22200 00069 10301 70005 333 91210
BBXX 46246 24181 99500 71451 46/// ///// 1//// 91829 22200 00071 11211 21007 326// 41208 70056
BBXX 46246 24181 99500 71451 46/// ///// 1//// 91759 22200 00071 11411 20907 326// 41408 70054
AAXX 24181 56144 32980 00000 11012 21134 36829 52016 333 00002 10109
AAXX 24181 56152 32680 81402 11036 21102 36279 52009 889// 333 05110 10041
AAXX 24181 56167 32980 00000 11048 21096 37054 52028 333 05101 10140
AAXX 24181 56182 32980 53401 11069 21130 37213 52008 80002 333 05303 10046
AAXX 24181 56357 32980 02002 10030 21246 36428 52007 333 05111 10113
AAXX 24181 56586 11458 83601 11026 21031 38088 52002 69901 76660 885// 333 05451 10013 93427
AAXX 24181 56748 32580 10000 10074 20057 38364 52002 81100 333 00002 10184
AAXX 24181 56763 32680 70201 10119 20070 40171 52002 87400 333 05100 10160
AAXX 24181 56768 32678 82502 10055 20043 38207 52001 884// 333 00052 10078
AAXX 24181 56838 32668 10000 10124 20111 40158 52001 81400 333 00002 10221
AAXX 24181 56886 32760 81802 10031 20013 38334 57002 885// 333 05301 10060
AAXX 24181 56946 32680 10901 10106 20101 40164 52002 81100 333 00002 10230
AAXX 24181 56959 32765 80000 10173 20144 40173 57002 884// 333 00201 10232
AAXX 24181 56969 32760 80901 10146 20126 40196 57006 885// 333 00201 10192
AAXX 24181 57731 32662 80000 10064 20025 40299 57001 885// 333 05304 10107
AAXX 24181 57766 32962 01401 10018 21025 40318 54000 333 10125
AAXX 24181 57845 32960 02201 11014 21034 40308 54000 333 10124
AAXX 24181 57853 32962 00000 10018 21035 40321 54000 333 10114
AAXX 24181 57916 32663 80000 10081 20052 40275 52002 885// 333 05402 10148
AAXX 24181 57922 32661 81601 10043 21023 40284 54000 885// 333 05302 10101
AAXX 24181 57932 31658 82501 10052 20017 40300 57002 71000 885// 333 05300 10148
AAXX 24181 58338 32963 02201 11004 21056 40324 52007 333 10091
AAXX 24181 59007 32665 80902 10059 21020 40259 57002 885// 333 10085
AAXX 24181 59046 32962 00401 10074 21056 40283 52001 333 10156
AAXX 24181 59058 32960 01601 10038 21012 40288 52007 333 10157
AAXX 24181 59072 31958 03603 10021 21042 40298 52003 70500 333 10137
AAXX 24181 59087 32960 00903 10064 21083 40280 52005 333 10145
AAXX 24181 59209 32561 72501 10054 20022 40268 57002 878// 333 10134
BBXX 46146 24181 99493 71237 46/// /0909 10074 40293 52013 22200 00069 10301 70005 333 91210
AAXX 24181 98134 NIL
AAXX 24181 98223 32562 13602 10228 20175 40120 58002 81100 333 56999 81820
AAXX 24181 98232 31565 80408 10225 20216 40159 52005 71542 8557/ 333 56199 84620 88358
AAXX 24181 98325 32545 50903 10250 20234 40102 51007 82271 333 56999 82817
AAXX 24181 98328 31461 41401 10150 20144 38510 40082 58006 70544 81130 333 56999 81814 84359
AAXX 24181 98330 32470 80000 10251 20235 30084 40116 58007 8427/ 333 56999 84818 88358
AAXX 24181 98336 32467 50404 10220 20203 30136 40141 58008 81278 333 56199 81815 84075
AAXX 24181 98429 31560 80803 10256 20191 40108 58008 70544 83830 333 56999 83823 88360
AAXX 24181 98430 11458 73602 10235 20214 40107 58010 69921 72580 83870 333 56999 83820 84358
AAXX 24181 98431 11458 80402 10240 20223 30059 40106 56006 69961 70382 8485/ 333 56999 84818 88358
AAXX 24181 98440 11460 80408 10254 20228 30112 40117 58002 60031 71566 8427/ 333 56199 84815 88357
AAXX 24181 98444 11460 60408 10245 20219 30071 40090 58015 60021 72186 83378 333 56899 81917 82818 83459 86270
AAXX 24181 98526 11570 80000 10260 20245 40084 58008 60011 70262 81207 333 56999 81820 88274
AAXX 24181 98531 31568 40707 10269 20223 30075 40079 58007 70544 81230 333 56199 81820 83358
AAXX 24181 98536 32465 80404 10238 20217 39890 40090 58006 8327/ 333 56199 83818 88357
AAXX 24181 98543 11468 80203 10250 20236 30078 40089 58016 60021 71462 83507 333 56999 83618 88272
AAXX 24181 98550 11460 72902 10260 20247 40079 58004 60021 72582 83270 333 56999 83818 87357
AAXX 24181 98618 11470 62902 10269 20241 40077 58007 60051 70182 82261 333 56299 82820 85075
AAXX 24181 98630 NIL
AAXX 24181 98637 NIL
AAXX 24181 98646 11458 83402 10262 20252 30065 40093 58012 69961 76122 8327/ 333 56199 83820 88359
AAXX 24181 98653 31465 70000 10267 20244 30015 40060 58005 70544 82272 333 56999 82818 84358
AAXX 24181 98741 32470 60000 10258 20247 40063 5/003 82208 333 56199 82818 85275
AAXX 24181 98747 31460 30000 10242 20230 39858 40061 58010 70544 82402 333 56999 82618 83074
AAXX 24181 98753 31465 63602 10261 20237 40061 58021 70544 81208 333 56999 81816 86279
AAXX 24181 98755 NIL
AAXX 24181 98836 32460 50000 10262 20238 40069 58010 81271 333 56999 81818 83081
BBXX 46243 24181 99462 71241 46/// ///// 1//// 91829 22200 00083 11305 21003 326// 41304 70027
BBXX 46236 24181 99368 71219 46/// ///// 1//// 91820 22200 00123 11705 21002 328// 41705 70025
BBXX 46229 24181 99438 71246 46/// ///// 1//// 91821 22200 00097 11406 20903 329// 41405 70031
BBXX 46225 24181 99329 71174 46/// ///// 1//// 91814 22200 00143 11802 21001 325// 41802 70010
BBXX 46213 24181 99403 71247 46/// ///// 1//// 91824 22200 00098 11306 20902 328// 41306 70031
BBXX 46215 24181 99352 71209 46/// ///// 1//// 91808 22200 00147 11704 21001 326// 41704 70022
BBXX 41010 24181 99289 70785 46/// /0304 10232 40234 91820 22200 00238 10803 20401 300// 40803 70013 333 91205 555 11041 22042
BBXX 41009 24181 99285 70802 46/// /0206 10242 20208 40235 91820 22200 00245 10902 20402 300// 40902 70011 333 91208 555 11068 22072
BBXX 42361 24181 99276 70925 46/// ///14 10200 20167 40210 58030 91830 333 91216 555 11111 22118
BBXX 44100 24181 99363 70756 46/// ///// 1//// 91822 22200 00126 10702 20702 70010
BBXX 41110 24181 99341 70777 46/// ///// 1//// 91821 22200 00141 10502 20502 70009
BBXX 42099 24181 99273 70842 46/// ///// 1//// 91827 22200 00234 10302 20302 70009
BBXX 41113 24181 99284 70805 46/// ///// 1//// 91821 22200 00225 10801 20801 70006
BBXX 41112 24181 99307 70813 46/// ///// 1//// 91821 22200 00164 10902 20902 70008
AAXX 24184 40250 32960 02204 10074 21014 39348 40147 52015 333 10152
AAXX 24184 40265 32560 31206 10100 20005 39360 40163 52004 83600 333 10140 83720
BBXX 42013 24181 99272 70829 46/// ///// 1//// 40232 91740 22200 00207
AAXX 24181 45032 36/// /1401 10055 21009 30238 40255 54000
AAXX 24181 45035 36/// /0404 10097 21040 30212 40256 54000
AAXX 24181 45039 36/// /0304 10110 21038 30232 40247 57002
AAXX 24181 45044 36/// /0106 10098 21013 30146 40244 57001
AAXX 24181 45032 36/// /1401 10055 21009 30238 40255 54000
AAXX 24181 45035 36/// /0404 10097 21040 30212 40256 54000
AAXX 24181 45039 36/// /0304 10110 21038 30232 40247 57002
AAXX 24181 45044 36/// /0106 10098 21013 30146 40244 57001
BBXX 44258 24181 99445 70634 46/// /0008 11034 40237 52008 22200 00062 11004 70018 333 91211
BBXX 44258 24181 99445 70634 46/// /0008 11034 40237 52008 22200 00062 11004 70018 333 91211
AAXX 24184 97014 11560 61301 10227 20220 39975 40068 57020 60021 70262 82571 333 56000 82623
AAXX 24184 97028 NIL
AAXX 24184 97048 32458 30000 10238 20228 30032 40056 57008 81231 333 56000 57803 81817 80860
AAXX 24184 97072 32558 60000 10250 20235 39973 40073 52007 82571 333 56000 82620 84460
AAXX 24184 97086 NIL
AAXX 24184 97096 NIL
AAXX 24184 97120 32460 60000 10261 20234 30027 40060 58007 82231 333 56000 57803 82818 83360 80860
AAXX 24184 97146 NIL
AAXX 24184 97180 01458 30902 10255 20255 30049 40067 56010 69941 70162 81231 333 56000 69907 81819
AAXX 24184 97192 NIL
AAXX 24184 97230 32460 83304 10275 20251 30059 40066 56008 83232 333 56000 57802 83818 85359 80857
AAXX 24184 97260 32560 51303 10248 20235 30054 40061 57007 84501 333 56000 84620
AAXX 24184 97270 NIL
AAXX 24184 97300 32560 52403 10262 20232 30023 40064 55013 82231 333 56000 82820
AAXX 24184 97340 NIL
AAXX 24184 97372 32458 60000 10248 20242 39953 40053 57014 84131 333 56000 84818 83359
AAXX 24184 97430 01458 73511 10260 20242 30031 40061 57010 60031 71562 84932 333 56700 57971 57871 60037 81915 83818 80980 80860
AAXX 24184 97460 NIL
AAXX 24184 97502 32450 30000 10260 20243 30037 40040 57018 83531 333 56000 83614
AAXX 24184 97530 NIL
AAXX 24184 97560 NIL
AAXX 24184 97686 11356 70000 10169 20158 38318 40050 56008 69981 70522 85846 333 56000 84709 86361
AAXX 24184 97690 NIL
AAXX 24184 97724 32460 73406 10280 20239 30019 40035 57018 85872 333 56700 57871 83818 80856
AAXX 24184 97748 NIL
AAXX 24184 97760 31456 83010 10285 20257 30036 40045 57007 71522 84942 333 56000 57901 82915 83816 80960
AAXX 24184 97796 NIL
AAXX 24184 97810 NIL
AAXX 24184 97900 NIL
AAXX 24184 97980 NIL
AAXX 24184 96001 NIL
AAXX 24184 96015 32430 60000 10250 20247 30076 40083 52004 84572 333 56000 84517
AAXX 24184 96033 NIL
AAXX 24184 96075 32456 70000 10250 20248 30084 40090 52009 83521 333 56000 83617 85462
AAXX 24184 96087 01456 80106 10255 20243 30057 40090 50000 60181 79196 8492/ 333 56009 5790/ 60117 81917 83615 88460 809//
AAXX 24184 96171 01440 70000 10238 20230 30068 40092 52005 69931 72162 85522 333 56000 69937 85615
AAXX 24184 96207 31420 80000 10198 20192 39231 40153 71622 85931 333 56000 57902 82920 83614 80920
AAXX 24184 96525 11457 83004 10246 20236 30064 40071 57015 69951 70262 84225 333 56000 84615 86460
AAXX 24184 96529 01450 70000 10241 20239 30064 40088 58010 60031 70362 85121 333 56000 60027 85817 86460
AAXX 24184 96559 11330 83404 10238 20233 30058 40096 50001 69941 71362 8692/ 333 56609 57962 57864 81913 85808 88462 80973 80846
AAXX 24184 96607 01458 70000 10244 20228 30066 40081 56010 69901 70262 85521 333 56000 69907 85615
AAXX 24184 96615 01450 80000 10252 20243 30071 40085 56010 60061 70262 83132 333 56200 57823 60037 83812 88082 80856
AAXX 24184 96737 31450 50000 10252 20243 30037 40067 56005 70522 83521 333 56000 83618
AAXX 24184 96739 31450 71803 10248 20241 30030 40079 57005 70522 85520 333 56000 85618
AAXX 24184 96741 32556 50000 10280 20237 30068 40072 57006 82511 333 56000 82623
AAXX 24184 96745 NIL
AAXX 24184 96751 11450 70000 10198 20184 39018 48920 57003 69901 71362 8651/ 333 56209 86617 81460
AAXX 24184 96791 NIL
AAXX 24184 96797 11457 81903 10246 20240 30062 40068 57020 60211 72162 8497/ 333 56009 57902 60047 81918 83620 80980
AAXX 24184 96837 32557 61103 10266 20239 30076 40079 50000 83272 333 56000 57800 83823
AAXX 24184 96925 01460 80304 10265 20253 30063 40068 56009 60101 79596 83972 333 56600 57960 57860 60067 81917 83817 85460 80980 80860
AAXX 24184 96933 32460 52703 10262 20250 30067 40071 57009 81521 333 56600 81617 84460
AAXX 24184 96937 32958 50000 10267 20250 30064 40069 57011 85008 333 56000 85280
AAXX 24184 96973 32558 60000 10254 20250 30062 40067 57006 82231 333 56000 57803 82820 80850
AAXX 24184 96987 32558 50000 10258 20240 30011 40070 57007 83511 333 56000 83620
AAXX 24184 96009 NIL
AAXX 24184 96011 32560 51502 10244 20231 30051 40077 57006 82532 333 56000 82620
AAXX 24184 96035 32460 70000 10258 20241 30051 40089 57005 84578 333 56000 84618
AAXX 24184 96073 31450 70000 10244 20235 30075 40086 52002 70522 83922 333 56000 57902 83915 80958
AAXX 24184 96091 01430 80206 10250 20247 30070 40093 57007 60871 79596 8592/ 333 56009 57990 60317 81920 85613 88460 809//
AAXX 24184 96109 11958 50000 10235 20229 30051 40090 52007 69901 70262 84032 333 56000 84360
AAXX 24184 96145 01420 80111 10250 20236 30088 40090 51002 60031 76062 8652/ 333 56809 60027 86615 88460
AAXX 24184 96147 NIL
AAXX 24184 96163 01558 70000 10250 20242 30094 40096 52005 60031 70262 83521 333 56000 60037 83620
AAXX 24184 96179 01457 83510 10238 20229 30056 40093 57006 60111 72162 8322/ 333 56000 57802 69907 83817 80850
AAXX 24184 96195 01456 73606 10240 20230 30059 40095 50000 69941 76162 84570 333 56800 69937 84613
AAXX 24184 96221 32460 63206 10243 20228 30067 40082 58001 82572 333 56999 82617 85080
AAXX 24184 96237 32457 80000 10241 20233 30037 40079 56006 83117 333 56000 83816 85460 88280
AAXX 24184 96249 32558 70000 10252 20243 30016 40077 57006 84232 333 56000 57801 84820 80863
AAXX 24184 96253 32458 70302 10260 20242 30042 40063 54000 83972 333 56000 57900 57800 58003 81915 81820 83460 80900 80800
AAXX 24184 96295 NIL
AAXX 24184 96509 02457 80000 10254 20243 30061 40072 57013 69961 85272 333 56000 57802 69967 84815 80865
AAXX 24184 96581 32456 80000 10250 20244 30076 40083 51002 8617/ 333 56609 86810 88462 80850
AAXX 24184 96633 NIL
AAXX 24184 96645 31440 80000 10244 20242 30041 40073 57007 71022 85572 333 56000 85612
AAXX 24184 96655 31456 60000 10246 20240 30060 40094 57012 71522 85272 333 56000 57802 81811 84611 80864
AAXX 24184 96685 32460 60000 10258 20247 30048 40072 57010 81511 333 56000 81617 84462
AAXX 24184 96749 31458 72103 10259 20230 30063 40077 58002 71322 83921 333 56000 57980 81919 82621 86461
AAXX 24184 96781 NIL
AAXX 24184 96805 01557 72305 10252 20240 30074 40084 56011 60021 76062 83271 333 56000 57801 60027 83820 80858
AAXX 24184 96839 31440 41403 10258 20231 30060 40067 58013 82531 333 56000 82619
AAXX 24184 96935 NIL
AAXX 24184 97008 32459 60000 10246 20234 30045 40056 57005 83572 333 56000 83619
AAXX 24184 97016 NIL
AAXX 24184 97126 31456 83505 10250 20236 30013 40073 56003 71322 8392/ 333 56009 57900 81915 82615 88460 80980
AAXX 24184 97182 NIL
AAXX 24184 97240 31458 50000 10250 20244 39952 40066 57014 70511 82131 333 56000 82816
AAXX 24184 97310 32556 50000 10260 20242 30035 40047 57009 83221 333 56000 57802 83820 80850
AAXX 24184 97320 32560 70000 10286 20231 30025 40038 57015 82126 333 56000 82820 85460
AAXX 24184 97378 32560 70000 10254 20248 39902 40065 52005 83171 333 56000 83820
AAXX 24184 97406 32460 70000 10240 20232 30034 40059 56001 83231 333 56000 57801 83818 85360 80860
AAXX 24184 97570 NIL
AAXX 24184 97630 NIL
AAXX 24184 97700 32460 42204 10270 20246 30026 40040 57014 82232 333 56000 57804 82817 80850
AAXX 24184 97722 NIL
AAXX 24184 40260 32960 01812 10100 20002 39351 40145 52015 333 10152
AAXX 24184 40250 32960 02204 10074 21014 39348 40147 52015 333 10152
AAXX 24184 40265 32560 31206 10100 20005 39360 40163 52004 83600 333 10140 83720
AAXX 24184 40250 32960 02204 10074 21014 39348 40147 52015 333 10152
AAXX 24184 40260 32960 01812 10100 20002 39351 40145 52015 333 10152
AAXX 24184 40265 32560 31206 10100 20005 39360 40163 52004 83600 333 10140 83720
BBXX 46036 24181 99484 71339 46/// /2011 10097 40113 57017 22200 00082 11206 70032 333 91213
BBXX 46036 24181 99484 71339 46/// /2011 10097 40113 57017 22200 00082 11206 70032 333 91213
AAXX 24184 83064 32498 52305 10333 20228 39812 40078 83241 333 58007
AAXX 24184 83264 32797 60502 10281 20224 39681 40145 83518 333 58011
AAXX 24184 83332 32698 60000 10306 20170 39194 40079 84220 333 58002
AAXX 24184 83358 32698 73206 10273 20222 39695 40092 87300 333 58005
AAXX 24184 83423 31698 63601 10289 20187 39290 40095 70391 83969 333 59002
AAXX 24184 83470 32698 50502 10300 20197 39248 40080 85100 333 58019
AAXX 24184 83552 32597 4//// 10367 20243 39931 4//// 84300 333 58024
AAXX 24184 83565 32697 53202 10344 20176 39630 40085 83202 333 58011
AAXX 24184 83623 31996 6//// 1//// 2//// 39518 4//// 58040 70544 85240
AAXX 24184 83630 32597 60000 10240 20182 3//// 4//// 57021 82230
AAXX 24184 83702 32599 82306 10319 20189 39360 40092 58017 82376
AAXX 24184 83704 32698 73606 10290 20190 39682 40086 57002 85430
AAXX 24184 83726 31597 53202 10299 20188 39168 40113 58036 70544 82302
AAXX 24184 82143 31598 40308 10300 20247 40098 7031/ 82241 222// 80260 333 58017
AAXX 24184 83117 31597 31701 10310 20271 40110 57025 7012/ 85388 222// 02230 20101 80280
BBXX 62303 24184 99516 70051 46/// /2422 10112 20079 40262 57011 22200 00112 10707 70035 333 90710 91133
BBXX 64045 24184 99591 70117 46/// /2636 10079 20035 49966 53025 22200 00100 11020 70098 333 90710 91154
BBXX 63110 24184 99595 10015 47496 /2229 10080 20059 49983 55017 704// 22200 10709 70045
BBXX 63106 24184 99610 10017 46/// /2335 10081 49916 56027 22200
BBXX 63105 24184 99610 10017 47596 ///// 10088 20069 49920 56024 751// 22200
BBXX 62304 24184 99511 10018 46/98 /2525 11003 21047 40297 56006 22200 00105 10601 70007 333 90710 91128
BBXX 62103 24184 99499 70029 46/99 /2828 10105 20063 40308 56015 22200 00120 10804 70021 333 90710 91140
AAXX 24183 63671 32980 00000 10279 20212 333 10336
AAXX 24183 63723 32980 00804 10305 20192 40094 333 10365 59012
AAXX 24183 63793 32980 00908 10260 20216 40090 333 10334 59002
AAXX 24181 20046 NIL
AAXX 24181 20069 NIL
AAXX 24181 20087 41998 21408 11305 21334 30185 40197 57008 73630 80001
AAXX 24181 20292 NIL
AAXX 24181 20353 46/// /1415 11054 21066 39970 49974 57017 333 91120
AAXX 24181 20667 11998 81808 11050 21057 30042 40049 57010 69990 73673 8802/ 333 11102
AAXX 24181 20674 42998 21802 11265 21290 30052 40117 58001 82030 333 91104
AAXX 24181 20744 11496 81816 11020 21032 39880 49898 57014 69920 78583 8695/ 333 11016 86915 91124
AAXX 24181 20891 41996 00504 11438 21456 30151 40200 57005 71000 333 91105
AAXX 24181 23022 31596 71811 11130 21150 39983 40046 57020 73832 82530 333 11105 91116 96510
AAXX 24181 23032 32997 22105 11114 21127 30053 40084 57007 80001 333 11074
AAXX 24181 23058 31998 82505 11116 21122 30130 40134 54000 73631 8805/ 333 11071
AAXX 24181 23242 32497 81802 11104 21117 30121 40137 57003 885// 333 11101 88610
AAXX 24181 23256 11498 82503 11132 21145 30116 40153 52005 69930 70272 8557/ 333 11091 85615
AAXX 24181 23330 11997 60000 11239 21257 30107 40130 57002 69960 70272 84031 333 11141 93520
AAXX 24181 23445 11997 80000 11195 21214 30123 40150 54000 69930 77172 8801/ 333 11122
AAXX 24181 23552 11297 70000 11224 21242 30136 40173 52005 69900 70272 87500 333 11156 87703
AAXX 24181 23631 11497 80000 11134 21140 30096 40139 52001 69960 77172 8357/ 333 11119 83617
AAXX 24181 23662 11998 00000 11258 21282 30124 40173 52010 69930 70271 333 11128
AAXX 24181 23724 12998 80000 11098 21110 30068 40135 58004 69930 8805/ 333 11080
AAXX 24181 23734 11996 80000 11104 21110 30049 40144 58016 69940 77172 8802/ 333 11107
AAXX 24181 23849 41896 82002 11109 21123 40174 57002 77177 8802/
AAXX 24181 23867 11996 72502 11134 21147 30115 40190 52011 60020 77172 85011 333 11093
AAXX 24181 23933 11596 81501 11130 21141 30102 40161 58007 69920 78587 8597/ 333 11082
AAXX 24181 28064 11598 82101 11098 21129 30070 40164 54000 69900 70272 885// 333 11088
AAXX 24181 28275 32597 81402 11137 21172 30118 40181 54000 885// 333 11129
AAXX 24181 28493 32997 61501 11178 21197 30122 40222 57004 86030 333 11116
AAXX 24181 28698 32997 00000 11211 21229 30062 40230 57009 333 11115
AAXX 24181 23426 11969 80000 11182 21201 30104 40130 54000 60010 77172 85071 333 11150
AAXX 24181 23625 11996 80000 11107 21120 30090 40125 57004 69930 77172 8802/ 333 11108
AAXX 24181 28076 32697 80000 11111 21131 30098 40173 57003 885// 333 11101
AAXX 24181 28367 32584 62102 11168 21194 30042 40178 57004 86500 333 11134
AAXX 24181 28382 32998 00000 11195 21214 30123 40200 57002 333 11120
AAXX 24181 28481 32997 81801 11162 21181 30103 40208 57003 80007 333 11125
AAXX 24181 28491 32997 01901 11165 21191 30097 40215 54000 333 11110
AAXX 24181 28573 32997 02101 11165 21184 30099 40211 57006 333 11152
AAXX 24181 28593 32997 01701 11153 21180 30123 40228 57005 333 11108
AAXX 24181 28786 32997 01502 11200 21219 30049 40220 57014 333 11116
AAXX 24181 28797 32997 00000 11204 21229 30058 40229 57011 333 11152
AAXX 24181 28799 32997 00000 11196 21237 30080 40237 57010 333 11153
AAXX 24184 78318 11561 21008 10279 20160 30187 40191 57014 60001 70500 82200 333 10281 20210 30/// 56900 58008 82820
AAXX 24184 78325 11563 40707 10278 20157 30138 40196 58017 60001 70511 82232 333 10280 20209 30/// 56299 58010 82820 555 10902
AAXX 24184 78333 11410 31901 10280 20193 30182 40189 58017 60001 70500 83200 333 10288 20191 30/// 56400 58011 83819 555 11802
AAXX 24184 78348 11556 20706 10266 20210 30138 40190 58021 60001 70500 82200 333 10268 20227 30/// 56200 57885 58010 82821 555 10902
AAXX 24184 78349 11560 40602 10288 20185 30093 40202 58012 60001 70500 84200 333 10290 20195 30/// 56200 57862 58023 84820 555 10903
AAXX 24184 78353 12570 40905 10269 20191 30162 40184 58019 60001 84800 333 10270 20230 30/// 56200 58007 83820 555 11003
AAXX 24184 78360 12570 11308 10290 20205 30164 40176 58017 60001 81200 333 10299 20208 30/// 56200 58004 81820 92035 555 10902
AAXX 24184 78369 11568 10806 10279 20205 30169 40178 57018 69921 70581 81200 333 10279 20255 30/// 56900 58001 70002 81820 92044
BBXX WXJ63 24183 99611 71464 41/96 80603 11023 21027 49974 5//// 771// 8//// 222// 00050 2//// 3//// 4//// 5//// 6//// 8//// ICE /////
BBXX WC5932 24184 99458 70871 43/// /2121 00/// 11002 21050 40212 55026 7//// 8//// 22200 0//// 2//// 3//// 4//// 5//// 6//// 81021 ICE /////
BBXX WDA2768 24184 99417 70874 43/// /0814 00/// 10017 21028 40252 57022 7//// 8//// 22200 0//// 2//// 3//// 4//// 5//// 6//// 81010 ICE /////
BBXX YJSW5 24184 99273 70899 41496 80720 10210 20180 40205 54000 70222 8894/ 22200 00228 20804 305// 4//// 5//// 6//// 80190 ICE /////
BBXX 42362 24181 99278 70907 46/// /0813 10206 20167 40231 91830
BBXX 42363 24181 99282 70892 46/// /0712 10178 20144 40251 91830 333 91212
BBXX 42364 24181 99291 70881 46/// /0408 10156 20128 40258 91830
BBXX 46219 24181 99332 71199 46/// ///// 1//// 91828 22200 00137 11806 20602 330// 41805 70028
BBXX 46224 24181 99332 71175 46/// ///// 1//// 91806 22200 00142 11501 20501 319// 41501 70007
BBXX 46214 24181 99379 71235 46/// ///// 1//// 91823 22200 00120 11306 21002 330// 41306 70032
BBXX 51204 24181 99213 71581 46/// ///// 1//// 91822 22200 00245 11002 21002 319// 41401 70011
BBXX 52200 24181 99134 11448 46/// ///// 1//// 91815 22200 00287 11005 21004 308// 41101 70023
BBXX 51202 24181 99214 71577 46/// ///// 1//// 91809 22200 00242 10806 20805 302// 41102 70028
BBXX 44099 24181 99369 70757 46/// ///// 1//// 91822 22200 00120 10402 20402 70010
BBXX 46238 24181 99334 71195 46/// ///// 1//// 91820 22200 00141 11806 21001 329// 41805 70028
BBXX 46239 24181 99363 71221 46/// ///// 1//// 91821 22200 00132 11507 21002 330// 41506 70034
BBXX TBWUK17 24183 99257 30600 41597 30814 10241 20217 40220 52014 70000 82445 22263 04246 20403 30808 40402 50304 80225
BBXX DGUG2 24184 99034 70301 41698 41215 10260 20232 40000 56020 702// 84342 22294 04280 20702 80240
BBXX MLRM6 24183 99343 30253 41798 70822 10200 20152 40171 53010 70222 8707/ 22252 00197 20203 3//// 4//// 5////
BBXX SERW 24183 99187 70222 43998 80313 10219 2//// 40178 55004 70222 80071 22252 06220 20502 300// 40904
BBXX PHPP 24184 99063 10793 41/97 30130 10269 20237 40085 50010 70011 8//// 22274 00290 2//03 80246
BBXX A8HD5 24181 99065 11077 41597 43617 10270 20210 40110 51010 70181 83145 22213 04260 20504 302// 40706 5//// 80230
BBXX UIFC 24181 99363 11310 41/97 93213 10039 40166 54015 70222 22212 00123 20302 3230 40603
BBXX UDWE 24181 99460 11447 41/97 92317 11010 49920 57014 70272 22262 00043 20706
BBXX LEQZ3 24183 99510 11614 41/98 70924 10010 2101/ 40100 56020 70011 22253 00110 80000 NNNN
BBXX 46036 24181 99484 71339 46/// /2011 10097 40113 57017 22200 00082 11206 70032 333 91213
BBXX 44258 24181 99445 70634 46/// /0008 11034 40237 52008 22200 00062 11004 70018 333 91211
BBXX 42013 24181 99272 70829 46/// ///// 1//// 40232 91740 22200 00207
BBXX 41009 24181 99285 70802 46/// /0206 10242 20208 40235 91820 22200 00245 10902 20402 300// 40902 70011 333 91208 555 11068 22072
BBXX 41112 24181 99307 70813 46/// ///// 1//// 91821 22200 00164 10902 20902 70008
BBXX 42099 24181 99273 70842 46/// ///// 1//// 91827 22200 00234 10302 20302 70009
BBXX 41113 24181 99284 70805 46/// ///// 1//// 91821 22200 00225 10801 20801 70006
BBXX 44100 24181 99363 70756 46/// ///// 1//// 91822 22200 00126 10702 20702 70010
BBXX 41010 24181 99289 70785 46/// /0304 10232 40234 91820 22200 00238 10803 20401 300// 40803 70013 333 91205 555 11041 22042
BBXX 41110 24181 99341 70777 46/// ///// 1//// 91821 22200 00141 10502 20502 70009
BBXX 42361 24181 99276 70925 46/// ///14 10200 20167 40210 58030 91830 333 91216 555 11111 22118
BBXX 46225 24181 99329 71174 46/// ///// 1//// 91814 22200 00143 11802 21001 325// 41802 70010
BBXX 46243 24181 99462 71241 46/// ///// 1//// 91829 22200 00083 11305 21003 326// 41304 70027
BBXX 46213 24181 99403 71247 46/// ///// 1//// 91824 22200 00098 11306 20902 328// 41306 70031
BBXX 46215 24181 99352 71209 46/// ///// 1//// 91808 22200 00147 11704 21001 326// 41704 70022
BBXX 46236 24181 99368 71219 46/// ///// 1//// 91820 22200 00123 11705 21002 328// 41705 70025
BBXX 46229 24181 99438 71246 46/// ///// 1//// 91821 22200 00097 11406 20903 329// 41405 70031
BBXX 46246 24181 99500 71451 46/// ///// 1//// 91759 22200 00071 11411 20907 326// 41408 70054
BBXX 46146 24181 99493 71237 46/// /0909 10074 40293 52013 22200 00069 10301 70005 333 91210
BBXX 46246 24181 99500 71451 46/// ///// 1//// 91829 22200 00071 11211 21007 326// 41208 70056
BBXX 46247 24181 99378 71228 46/// ///// 1//// 91821 22200 00118 11506 21002 329// 41505 70028
BBXX 46232 24181 99325 71174 46/// ///// 1//// 91808 22200 00148 11802 21001 327// 41802 70012
BBXX 44030 24181 99432 70704 46/// /3304 1//// 40296 55000 91804 22200 00082 10502 70009 333 91206 555 11048 22050
BBXX 46092 24181 99368 71220 46/// /0908 10101 40300 57004 91757 22200 00125 555 11082 22088
BBXX 46004 24181 99509 71361 46/// /2109 10080 40061 52005 22200 00075 11209 70044 333 91212
BBXX YJSW5 24184 99273 70899 41496 80720 10210 20180 40205 54000 70222 8894/ 22200 00228 20804 305// 4//// 5//// 6//// 80190 ICE /////
BBXX 46184 24181 99539 71389 46/// /2014 10067 49939 57014 22200 00064 11712 70058 333 91218
BBXX 44057 24181 99395 70761 46/// /3505 1//// 40298 91810 333 91207
BBXX 44057 24181 99395 70761 46/// /3406 10044 40298 58013 91800 22200 00063 333 91208
BBXX 44057 24181 99395 70761 46/// /3506 1//// 91820 333 91207
BBXX 44059 24181 99368 70763 46/// /0307 10076 40287 58005 91800 22200 00113 333 91210
BBXX 44058 24181 99376 70763 46/// /0205 1//// 91810 333 91207
BBXX 44058 24181 99376 70763 46/// /0106 10071 40292 58014 91800 22200 00097 10301 70005 333 91208
BBXX 44059 24181 99368 70763 46/// /0405 1//// 91820 333 91207
BBXX 44059 24181 99368 70763 46/// /0605 1//// 40287 91810 333 91208
BBXX 44029 24181 99425 70706 46/30 /0107 11025 40287 54000 91804 22200 00083 10503 70013 333 91209 555 11081 22084
BBXX LAXP4 24184 99314 70412 41697 81118 00/// 10225 2019/ 40249 57010 70222 84617 22253 00210 20503 329// 40503 80210 NNNN
BBXX A8CJ2 24184 99110 70789 41598 60636 10300 20231 40105 56010 70322 83144 22214 04260 20808 306// 41209 5//// 80250
BBXX 44042 24181 99380 70763 46/// /3204 10074 40295 58016 91800 22200 00092 10301 70004 333 91207
BBXX 44043 24181 99392 70764 46/// /3206 1//// 40294 91810 333 91208
BBXX 44043 24181 99392 70764 46/// /3306 1//// 91820 333 91208
BBXX 44062 24181 99386 70764 46/// /3606 1//// 40277 91810 22200 00087 333 91208
BBXX 44062 24181 99386 70764 46/// /3506 1//// 91820 22200 00087 333 91207
BBXX 44043 24181 99392 70764 46/// /3206 10058 40293 56016 91800 22200 00074 10301 70004 333 91208
BBXX 44041 24181 99372 70768 46/// /0103 1//// 91820 333 91205
BBXX 44041 24181 99372 70768 46/// /0304 1//// 40316 91810 333 91206
BBXX 44042 24181 99380 70763 46/// /3406 1//// 40295 91810 333 91207
BBXX 44041 24181 99372 70768 46/// /0304 10079 40316 58012 91800 22200 00117 1//00 70001 333 91206
BBXX 44062 24181 99386 70764 46/// /3506 10062 40282 58016 91800 22200 00087 10301 70005 333 91208
BBXX 44063 24181 99390 70764 46/// /3506 1//// 91820 333 91208
BBXX 44063 24181 99390 70764 46/// /3406 10059 40304 58014 91800 22200 00081 1//00 70002 333 91208
BBXX 44063 24181 99390 70764 46/// /3407 1//// 40305 91810 333 91209
BBXX 44042 24181 99380 70763 46/// /3305 1//// 91820 333 91207
BBXX 46181 24181 99538 71288 46/// /0201 10024 40157 57025 22200 00033 10300 70000 333 91201
BBXX 46205 24181 99542 71343 46/// /1813 10077 40013 57041 22200 00074 11108 70038 333 91216
BBXX 46132 24181 99497 71279 46/// /1308 10091 40204 57003 22200 00088 11407 70036 333 91211
BBXX A8KM9 24184 99201 71113 41198 20214 10230 40180 52/// 70300 82160 22264 20504 334// 41004
BBXX 46206 24181 99488 71260 46/// /1509 10093 40253 52006 22200 00089 11407 70035 333 91211
BBXX WJBU 24184 99409 71277 41/94 81419 10078 2008/ 40315 52006 74544 88/// 22233 0//// 21004 3//// 4//// 5//// 6//// 80078 ICE /////
BBXX 9V7955 24183 99324 71464 41496 73413 10185 2018/ 40270 54020 7//22 87973 22264 00180 20502 33030 40503 50503 6//// 80180 ICE /////
BBXX 46185 24181 99524 71298 46/// /1614 10078 40137 57007 22200 00075 10809 70045 333 91217
BBXX 41036 24181 99342 70770 46/// ///// 10121 20023 40281 91820 22200 00187
BBXX 46114 24181 99364 71222 46/// ///// 1//// 91804 22200 00127 11509 21002 329// 41509 70044
BBXX 51205 24181 99210 71564 46/// ///// 1//// 91818 22200 00236 10906 20905 335// 41102 70029
BBXX 44098 24181 99428 70702 46/// ///// 1//// 91807 22200 00087 10603 20603 70014
BBXX 46087 24181 99485 71247 46/// /1307 10083 20082 40288 91820 22200 00086 333 91209 555 11072 22077 31754 41209 61819 124069 118072 116068 118070 115066 117059
BBXX A8MH7 24184 99138 70819 41698 60724 10280 2024/ 40120 53020 78122 8624/ 22284 00270 20606 30707 40505 50506 6//// 80250 ICE /////
BBXX WZJC 24184 99260 70876 41398 30818 10250 2021/ 40210 58010 7//00 834// 22223 00256 20604 302// 40804 5//// 6//// 80222 ICE /////
BBXX WDA2768 24184 99417 70874 43/// /0814 00/// 10017 21028 40252 57022 7//// 8//// 22200 0//// 2//// 3//// 4//// 5//// 6//// 81010 ICE /////
BBXX WC5932 24184 99458 70871 43/// /2121 00/// 11002 21050 40212 55026 7//// 8//// 22200 0//// 2//// 3//// 4//// 5//// 6//// 81021 ICE /////
BBXX A8GH5 24183 99409 70101 41/96 /0315 10170 20123 40340 54000 70200 8//// 22244 20402 80142
BBXX ZNQO3 24180 99500 70016 41/97 62612 10115 20062 40323 57010 70222 8//// 22223 04126 2//// 3//// 4//// 5//// 80090
BBXX DANM 24184 99394 70194 41298 70610 10145 20063 40352 53011 70122 8671/ 22265 00150 20401 33303 41106 50602 80102
BBXX A8MH2 24184 99080 31344 41497 33024 10280 20246 40000 54000 70100 82140 22234 20302 399// 4//// 5//// 80255
BBXX VROB 24184 99358 31505 46/// /3610 10200 20182 30074 40099 57006 22213 04207 85188
BBXX V2OG2 24183 99306 31142 41998 01915 10223 20189 40142 50006 70000 80000 22273 20403 318// 40505 80200
BBXX ZDLS1 24184 99734 50220 41398 61011 10007 21024 49824 57010 70122 81175 22253 05013 20101 30000 82004 ICE //100
AAXX 24184 42492 31994 00000 10088 20071 40149 71000 333 59002
AAXX 24184 42587 31995 00000 10118 20081 40156 70500 333 58000
AAXX 24184 42591 31994 02703 10094 20064 40166 71000 333 58001
AAXX 24184 42623 31595 40000 10114 20099 39266 40161 70511 84500 333 58024 84620
AAXX 24184 42701 31995 00000 10102 20057 39402 40157 70500 333 59001
AAXX 24184 42724 31993 04502 10120 20112 40138 74240 333 59004
AAXX 24184 42798 31995 00000 10138 20073 40143 70500 333 58000
AAXX 24184 91723 NIL
AAXX 24184 91964 36/// /1305 10240 20204 40211 52006
AAXX 24181 26531 11238 81903 10002 21003 40099 58001 60032 76165 8872/ 333 10002 88705 91006 91107 93404 555 4/000 53009
AAXX 24181 40001 31550 72902 10088 20035 40128 53009 70520 83510 333 10131 83626 87460
AAXX 24181 40007 11560 80000 10084 20075 40117 50005 60032 70262 84550 333 10114 84626 87360
AAXX 24181 40025 11570 70703 10112 20100 40100 53003 60222 7096 85960 333 10142 83926 84360 86360
AAXX 24181 40045 32970 42507 10110 20046 40134 52007 84040 333 10172 84360
AAXX 24181 40061 32570 52501 10110 20045 40116 52014 82550 333 10150 82630 84360
AAXX 24181 40080 11562 32507 10086 20052 39415 40128 50009 69922 70162 83200 333 10152 83830
AAXX 24181 40087 NIL
AAXX 24181 40095 NIL
AAXX 24181 40009 11565 80000 10094 20078 40096 51006 60062 76166 8552/ 85630 88460
AAXX 24181 40016 40022 11565 50901 10130 20111 40090 51006 60102 70299 85800 222// 20000 10163 82830 84632
AAXX 24181 40030 11570 60000 10103 20071 40106 50004 60022 70266 83570 333 10111 83630 85360
AAXX 24181 40039 11565 70000 10098 20082 40114 51004 60032 76626 84550 333 10132 84630 87360 40066 11570 70000 10102 20090 40104 51007 60502 79596 87900 333 10105 83926 85630
AAXX 24181 40072 32970 00000 10122 20050 40139 52014 333 10200
AAXX 24181 40083 32570 33401 10054 20013 48417 51006 83200 333 10094 83826
BBXX KS098 24184 99446 71241 43/// /1803 10063 40318 22200 06000
BBXX KS007 24184 99267 70801 43/// ///// 10245 40185 22200
BBXX KS089 24184 99389 70117 43/// /0322 10141 22243
BBXX 44137 24181 99423 70620 46/// /0110 10049 40188 57001 22200 00092 11005 70026 333 91214
BBXX 46004 24181 99509 71361 46/// /2109 10080 40061 52005 22200 00075 11209 70044 333 91212
BBXX 46036 24181 99484 71339 46/// /2011 10097 40113 57017 22200 00082 11206 70032 333 91213
BBXX 46181 24181 99538 71288 46/// /0201 10024 40157 57025 22200 00033 10300 70000 333 91201
BBXX 46183 24181 99536 71311 46/// /1614 10083 40082 57024 22200 0//// 1//// 70/// 333 912//
BBXX 46185 24181 99524 71298 46/// /1614 10078 40137 57007 22200 00075 10809 70045 333 91217
BBXX 46204 24181 99514 71288 46/// /0915 10078 40166 5//// 22200 00084 11207 70037 333 91218
BBXX 46205 24181 99542 71343 46/// /1813 10077 40013 57041 22200 00074 11108 70038 333 91216
BBXX 46206 24181 99488 71260 46/// /1509 10093 40253 52006 22200 00089 11407 70035 333 91211
BBXX 9V7955 24183 99324 71464 41496 73413 10185 20180 40270 54020 7//22 87973 22264 00180 20502 33030 40503 50503 6//// 80180 ICE /////
BBXX KS098 24184 99446 71241 43/// /1803 10063 40318 22200 06000
BBXX S6JU 24184 99405 71343 41798 82114 10135 20110 40250 54000 70222 887// 22234 04130 2//// 3//// 4//// 5//// 6//// 80120 ICE /////
BBXX WDB9986 24184 99375 71354 41698 71918 10130 20090 40306 51012 70222 8657/ 22225 00140 20403 329// 41407 5//// 6//// 80110 ICE /////
BBXX WDE9586 24183 99469 71254 43598 81928 10110 20090 40260 51030 7//// 887// 22244 00100 21006 3//// 4//// 5//// 6//// 80100 ICE /////
BBXX WJBU 24184 99409 71277 41/94 81419 10078 2008/ 40315 52006 74544 88/// 22233 0//// 21004 3//// 4//// 5//// 6//// 80078 ICE /////
AAXX 24184 62458 32960 02911 10177 20045 40173 52016 333 10192
AAXX 24184 62455 32960 02105 10174 20044 40166 52018 333 10202
AAXX 24184 62420 32960 02903 10134 20052 40194 52014 333 10190
AAXX 24184 62432 32960 02403 10134 20052 40200 52018 333 10215
AAXX 24184 62435 32960 03304 10149 20034 40194 52018 333 10227
AAXX 24184 62476 32960 00106 10220 20161 40155 51024 333 10254
BBXX 44137 24181 99423 70620 46/// /0110 10049 40188 57001 22200 00092 11005 70026 333 91214
AAXX 24184 63756 24184 63756 12580 10000 20192 38869 48503 60212 81900 333 0//17 10285 59006 81820 81921
AAXX 24184 63870 32480 10000 10264 20255 30089 40107 81200 333 10325 55300 59010 81818
AAXX 24184 63971 32580 1000 10267 20247 39979 40107 81200 333 10315 55300 59017 81823
AAXX 24184 71761 16/// ///// 10024 21043 60001 333 10028 21020 70000
AAXX 24184 71592 16/// /3602 11315 21345 39965 49979 57003 60001 333 11292 21327 70000
AAXX 24184 71963 16/// /0209 11202 21220 39651 40063 53023 60001 333 11187 21210 70003 555 10010
AAXX 24184 71490 16/// /3515 11262 21285 39755 40085 51023 60001 333 11203 21262 70000 555 10010
AAXX 24184 71049 16/// /3106 11219 39913 49937 56015 60001 333 11216 21307 70000
AAXX 24184 71923 16/// ///19 11201 21218 39571 40021 51034 60001 333 11109 21202 70000
AAXX 24184 71277 46/// /2305 10020 21040 6///1 333 10038 7////
AAXX 24184 48331 32960 80000 10192 20164 39932 40168 57001 8807/ 333 58025
AAXX 24184 71277 46/// /2305 10020 21040 6///1 333 10038 7////
AAXX 24184 71923 16/// ///19 11201 21218 39571 40021 51034 60001 333 11109 21202 70000
AAXX 24184 71592 16/// /3602 11315 21345 39965 49979 57003 60001 333 11292 21327 70000
AAXX 24184 71963 16/// /0209 11202 21220 39651 40063 53023 60001 333 11187 21210 70003 555 10010
AAXX 24184 71761 16/// ///// 10024 21043 60001 333 10028 21020 70000
AAXX 24184 71049 16/// /3106 11219 39913 49937 56015 60001 333 11216 21307 70000
AAXX 24184 71490 16/// /3515 11262 21285 39755 40085 51023 60001 333 11203 21262 70000 555 10010
AAXX 24184 48415 31940 20619 10215 20123 30133 40144 52005 70520 80002 333 58032
BBXX 44138 24181 99443 70536 46/// /3508 10033 40143 52008 22200 00091 11006 70029 333 91210
BBXX CFO383 24184 99439 70602 47597 /3524 11003 2103/ 40187 5//// 771// 8/ // 22200 00071 10805 2//// 3//// 70026 81013 333 91031
BBXX CFO383 24184 99439 70602 47597 /3524 11003 2103/ 40187 5//// 771// 8/ // 22200 00071 10805 2//// 3//// 70026 81013 333 91031
BBXX 44138 24181 99443 70536 46/// /3508 10033 40143 52008 22200 00091 11006 70029 333 91210
AAXX 24184 63661 32580 30404 10183 2-145 49537 71311 81963 333 10265 58002 81920 83359
AAXX 24184 63688 32480 21104 10128 20112 48/// 82960 333 10241 58002 81918
AAXX 24184 63695 32480 10000 10171 20150 81400 333 10248 81617
AAXX 24184 63708 11470 613405 10196 20175 48490 60122 70296 869// 33310288 58009 81919 86620
AAXX 24184 63740 32575 20307 10201 20115 48516 82500 333 10274 59003 82621
AAXX 24184 63772 32980 00906 10263 20249 333 10331
AAXX 24184 63820 32580 20905 10275 20249 40113 82100 333 10326 59010 82823
AAXX 24184 63612 NIL
AAXX 24184 63671 NIL
AAXX 24184 63714 NIL
AAXX 24184 63723 NIL
AAXX 24184 63793 NIL
AAXX 24181 31152 42997 80000 11381 21409 39937 40405 53007 80006
AAXX 24181 31163 NIL
AAXX 24181 31285 41497 80501 11149 21176 30207 40291 54000 77172 83707
AAXX 24181 31561 41595 83610 11112 21140 30103 40132 52002 77387 8802/ 333 91020
AAXX 24181 31683 41495 80510 11042 21058 39957 40032 53002 77373 887//
AAXX 24181 32010 41498 80410 11052 21077 30102 40151 57007 73683 889// 333 84917 84643 91015 91116
AAXX 24184 62309 11560 62606 10122 20093 40177 52015 69922 70262 86800 333 10175
AAXX 24184 62325 12560 42505 10128 20114 40168 52018 60032 84800 333 10154
AAXX 24184 62332 32560 32511 10142 20115 40163 52016 83500 333 10185
AAXX 24184 62387 32960 02401 10117 20038 40196 52017 333 10196
AAXX 24184 62459 32960 03607 10158 20017 40175 52023 333 10213
AAXX 24184 62452 32960 02206 10080 21010 40197 52018 333 10168
AAXX 24184 62309 11560 62606 10122 20093 40177 52015 69922 70262 86800 333 10175
AAXX 24184 62325 12560 42505 10128 20114 40168 52018 60032 84800 333 10154
AAXX 24184 62332 32560 32511 10142 20115 40163 52016 83500 333 10185
AAXX 24184 62387 32960 02401 10117 20038 40196 52017 333 10196
AAXX 24184 62459 32960 03607 10158 20017 40175 52023 333 10213
AAXX 24184 62452 32960 02206 10080 21010 40197 52018 333 10168
AAXX 24184 63862 32580 20000 10228 20197 38898 48507 82963 333 10290 59006 82821 81922
AAXX 24181 48855 11596 83401 10175 20169 30197 40205 58005 60031 76362 8682/ 333 58033 85895 83697 88499 9616 3
AAXX 24181 48848 32597 83203 10143 20111 30214 40222 58007 888// 333 58029 82895 88697
AAXX 24181 48852 11497 80000 10155 20151 30198 40208 58005 60091 76166 8672/ 333 58036 86894 88499 96160
BBXX 41033 24181 99323 70804 46/// /0609 10134 40281 57007 91800 555 11112 22134
AAXX 24184 94290 46/// /0304 10266 30036 40045 56002 91824
AAXX 24184 89610 46/// /0000 4//// 5////
AAXX 24184 89614 46/// /1014 11049 29079 39000 4//// 5//// 333 90700 91117
AAXX 24184 89807 46/// /1317 11007 29100 39788 4//// 5//// 333 90700 91121
AAXX 24184 82586 32598 60906 10350 20227 39847 40081 86200 333 58010
AAXX 24184 82678 32596 81802 10328 20232 39949 40088 83221 333 58011
AAXX 24184 82784 32598 60000 10323 20234 39635 40084 86200 333 58002
AAXX 24184 82791 32599 71410 10354 20189 39800 40074 86230 333 58016
AAXX 24184 82983 32597 70906 10332 20214 39682 40088 83235 333 58009
AAXX 24184 94997 46/// ///// 10048 39887 49902 5////
AAXX 24184 94210 35/// /2510 10288 30025 40030 57005
AAXX 24184 94289 46/// /1205 10274 30036 40043 55000 91815
AAXX 24184 94379 46/// /1721 10251 30025 40034 55000 91826
AAXX 24184 94290 46/// /0304 10266 30036 40045 56002 91824
AAXX 24184 94997 46/// ///// 10048 39887 49902 5////
AAXX 24184 89610 46/// /0000 4//// 5////
AAXX 24184 89614 46/// /1014 11049 29079 39000 4//// 5//// 333 90700 91117
AAXX 24184 89807 46/// /1317 11007 29100 39788 4//// 5//// 333 90700 91121
BBXX SHIP 24184 99260 11347 41297 53423 00/// 10120 20083 40169 52007 70222 8549/ 9//// 22253 00265 2//// 3//// 4//// 5//// 6//// 80100 THNKS/B.REGARDS MASTER PACIFIC GLORY INM C - 443272110
AAXX 24181 55228 32980 02703 11098 21280 36011 52003 333 00151 11013
AAXX 24181 55578 32980 00000 11088 21212 36360 52010 333 00251 10094
AAXX 24181 55664 32980 00000 11081 21289 36003 52004 333 00155 10050
AAXX 24181 55773 32970 00401 11121 21224 36017 52005 333 00164 10056
AAXX 24181 56116 32980 00000 11070 21123 36336 52010 333 00202 10078
AAXX 24181 56137 32980 00000 11001 21156 36782 52024 333 00205 10141
AAXX 24181 56172 32980 70401 11027 21082 37343 52021 80002 333 05303 10085
AAXX 24181 56247 32980 01102 10072 21194 37389 52025 333 05106 10215
AAXX 24181 56312 32780 30000 11005 21099 37106 52010 83500 333 00203 10099
AAXX 24181 56462 32680 82901 11030 21056 37133 52010 884// 333 05153 10085
AAXX 24181 56651 32980 00402 10062 21034 37638 52010 333 05105 10168
AAXX 24181 56691 11362 81402 11017 21023 37798 54000 69911 76660 887// 333 05402 10000 93428
AAXX 24181 56985 32660 81802 10083 20034 38751 40229 57002 885// 333 05202 10101
AAXX 24181 57633 32960 81601 10044 20013 39512 40310 54000 8807/ 333 05205 10105
AAXX 24181 57902 32460 80901 10034 20013 38690 40280 54000 885// 333 05301 10048
AAXX 24181 55279 32980 02205 11089 21332 35680 57006 333 00105 11004
AAXX 24181 55472 32980 00000 11126 21309 35717 57001 333 00157 11001
AAXX 24181 55696 32980 00000 11078 21179 36347 52016 333 00151 10107
AAXX 24181 56079 32980 00202 11091 21147 36669 52005 333 05308 11002
AAXX 24181 56106 32980 02902 11088 21308 36201 52005 333 00200 10061
AAXX 24181 56257 32980 01102 11013 21214 36252 52012 333 00000 10117
AAXX 24181 56374 11580 80903 11066 21096 37449 52006 69901 78580 884// 333 05301 11004
AAXX 24181 56385 11/00 90402 11102 21107 37018 57001 69911 77074 333 05301 11081
AAXX 24181 56954 32562 80000 10152 20142 40161 57001 884// 333 00002 10236
AAXX 24181 56966 32770 81103 10153 20061 40208 57007 885// 333 00152 10176
AAXX 24181 57237 32965 83201 10016 21031 40308 57003 8807/ 333 10115
AAXX 24181 57306 31959 83201 10045 20025 40304 57002 71000 8807/ 333 10116
AAXX 24181 57604 11730 82002 10051 20047 40310 52004 60031 76060 885// 333 10083
AAXX 24181 57707 11350 80000 10009 20009 38551 54000 60011 76066 887// 333 05401 10027
AAXX 24181 57832 31959 01101 11010 21018 39550 40314 57003 71000 333 05201 10098
AAXX 24184 62357 32560 42804 10134 20091 40167 52015 84500 333 10193
AAXX 24184 62403 32960 03304 10160 20027 40191 52021 333 10220
AAXX 24184 62423 32960 02904 10118 20031 40213 52018 333 10186
AAXX 24184 62357 32560 42804 10134 20091 40167 52015 84500 333 10193
AAXX 24184 62403 32960 03304 10160 20027 40191 52021 333 10220
AAXX 24184 62423 32960 02904 10118 20031 40213 52018 333 10186
AAXX 2418/ 89329 46/// ///// 11054 38778 4//// 5//// 91820
AAXX 2418/ 89799 46/// ///// 11160 4//// 5//// 91820
AAXX 2418/ 89108 46/// ///// 11156 37006 4//// 5//// 91820
AAXX 2418/ 48969 NIL
AAXX 2418/ 48962 NIL
AAXX 2418/ 48990 NIL
AAXX 2418/ 48986 NIL
AAXX 2418/ 48995 NIL
AAXX 2418/ 48967 NIL
AAXX 2418/ 48992 NIL
AAXX 2418/ 48965 NIL
AAXX 2418/ 48985 NIL
AAXX 2418/ 48970 NIL
AAXX 2418/ 48991 NIL
AAXX 2418/ 48964 NIL
AAXX 2418/ 48997 NIL
AAXX 2418/ 48968 NIL
AAXX 2418/ 48973 NIL
AAXX 2418/ 48966 NIL
AAXX 2418/ 48983 NIL
AAXX 2418/ 48972 NIL
AAXX 2418/ 48998 NIL
AAXX 2418/ 48993 NIL
AAXX 2418/ 48971 NIL
AAXX 2418/ 48963 NIL
AAXX 2418/ 48987 NIL
AAXX 24184 71406 16/// /3023 11145 21169 30139 40149 56005 60001 333 11128 21149 70000
AAXX 24184 71418 46/// /3126 11079 21120 30169 40202 56007 6///1 333 11028 21084 7////
AAXX 24184 71354 16/// /2915 10039 21044 60001 333 10039 21025 70000
AAXX 24184 71824 46/// /1703 11210 21249 6///1 333 11209 21383 7////
AAXX 24184 71981 16/// /2515 10035 21077 60001 333 10038 20009 70000
AAXX 24184 71982 16/// /3203 10017 21071 60001 333 10044 21039 70000
AAXX 24184 71986 16/// /2614 10010 21055 60001 333 10017 21035 70000
AAXX 24184 71990 17/// /0702 11106 21118 38437 40043 53008 60011 7//4/ 333 11082 21109 70035
AAXX 24184 71553 16/// /2710 11022 21066 60001 333 11021 21139 70000
AAXX 24184 71048 16/// /2816 10004 21058 60001 333 10017 21023 70000
AAXX 24181 63021 42980 00802 10106 21045 37747 40186 333 58001
BBXX 44056 24181 99362 70757 46/// ///// 1//// 91750 22200 00124 10702 20702 70009
AAXX 24184 71354 16/// /2915 10039 21044 60001 333 10039 21025 70000
AAXX 24184 71824 46/// /1703 11210 21249 6///1 333 11209 21383 7////
AAXX 24184 71406 16/// /3023 11145 21169 30139 40149 56005 60001 333 11128 21149 70000
AAXX 24184 71418 46/// /3126 11079 21120 30169 40202 56007 6///1 333 11028 21084 7////
AAXX 24184 71981 16/// /2515 10035 21077 60001 333 10038 20009 70000
AAXX 24184 71982 16/// /3203 10017 21071 60001 333 10044 21039 70000
AAXX 24184 71986 16/// /2614 10010 21055 60001 333 10017 21035 70000
AAXX 24184 71990 17/// /0702 11106 21118 38437 40043 53008 60011 7//4/ 333 11082 21109 70035
AAXX 24184 71048 16/// /2816 10004 21058 60001 333 10017 21023 70000
AAXX 24184 71553 16/// /2710 11022 21066 60001 333 11021 21139 70000
AAXX 24181 80001 01470 40705 10284 20247 30129 40130 60024 70251 81236 333 56200 58010 69917 81818
AAXX 24181 80002 01470 80605 10278 20241 60031 70261 82271 333 56220 57821 60037 82817 85357
AAXX 24181 80009 31560 52302 10302 20239 30089 40094 70500 82804 333 564/0 58014 82820 85070
AAXX 24181 80022 31566 70103 10300 20243 30089 40091 70521 81107 333 561/9 58006 81820 87270
AAXX 24181 80028 1965 40304 10292 20227 40105 70500 80005 333 56//9 58007
AAXX 24181 80036 31568 50506 10308 20183 70522 81102 333 560/0 81820 85070
AAXX 24181 80063 31465 80000 10304 20253 70522 85400 333 56000 85618 86460
AAXX 24181 80084 11458 80000 10256 20244 69941 71552 8481/ 333 5609/ 84812 88458
AAXX 24181 80091 31465 40290 10314 20237 70522 83202 333 560/9 83815 83070
AAXX 24181 80094 31465 43005 10248 20198 38797 70522 82871 333 56799 58002 82813
AAXX 24181 80097 32466 63603 10258 20213 39758 40107 83832 333 56999 58012 83618
AAXX 24181 80099 31466 40904 10300 20208 39943 40089 70500 84101 333 567/9 58021 84815
AAXX 24181 80110 31570 70000 10260 20139 38493 70522 83286 333 56009 57895 58009 83830 85270
AAXX 24181 80112 31570 60905 10211 20108 37897 70522 83276 333 56300 57895 58005 83820 84070
AAXX 24181 80139 32570 70305 10316 20210 82870 333 5610/ 82820 85359
AAXX 24181 80144 01458 70000 10258 20231 60041 70552 86208 333 560/9 60017 86815 87270
AAXX 24181 80210 31565 62502 10255 20186 38649 70521 84861 333 56499 57892 58007 84821
AAXX 24181 80214 31460 31804 10286 20214 39105 70541 83230 333 5650/ 57882 58005 83818
AAXX 24181 80222 41568 72003 10178 20109 37518 70552 84856 333 56499 58006 84820 83358
AAXX 24181 80234 01562 60730 10266 20216 39617 40110 69931 70252 83572 333 56399 58016 69937 83620 83359
AAXX 24181 80241 NIL
AAXX 24181 80252 NIL
AAXX 24181 80259 31560 52602 10274 20195 39042 70521 84830 333 5689/ 58014 84830
AAXX 24181 80308 NIL
AAXX 24181 80315 32565 50000 10303 20211 39576 40067 82850 333 5600/ 58006 82830 84362
AAXX 24181 80322 NIL
AAXX 24181 80342 32565 60303 10204 20177 38212 86800 333 564// 58009 86822
AAXX 24181 80361 NIL
AAXX 24181 80370 31462 71104 10142 20102 71522 87800 333 563// 87818
AAXX 24181 80372 NIL
AAXX 24181 80398 32470 70000 10312 20256 30013 40108 83130 333 5699/ 58006 83817 87358
AAXX 24184 89657 46/// /1407 11071 20021 49881 52003
BBXX 64045 24184 99591 70117 46/// /2636 10079 20035 49966 53025 22200 00100 11020 70098 333 90710 91154
BBXX BATEU05 24184 99587 70038 46/// /2635 10097 20055 49994 51014 22223
BBXX 62112 24184 99584 70002 47496 /2229 10088 20064 40028 55002 700// 22200
BBXX 62113 24184 99584 10002 47497 /2231 10089 20062 40042 56016 700// 22200
BBXX 62129 24184 99584 10003 46/// ///// 10091 20064 40046 55015 22200
BBXX 62114 24184 99583 10000 46/// /2233 10091 20065 40024 55008 22200
BBXX PJAI 24184 99581 70014 47598 /2221 10095 20052 40030 53002 700// 22200
BBXX 62111 24184 99580 70003 46/// /2434 10092 20065 40054 55008 22200 10708 70042
BBXX 62117 24184 99579 10000 47397 /2233 10093 20064 40046 56010 700// 22200 10708 70042
BBXX MINUK05 2418/ 99571 70021 46/// ///// 10100 40059 57004
BBXX BATUK01 24184 99560 70032 46/// /2508 10100 20054 40092 56009 22200 00054
BBXX 62105 24184 99554 70121 46/// /2719 10105 20069 40116 51016 22200 00106 10812 70059 333 90710 91127
BBXX MINUK03 2418/ 99550 70015 46/// ///// 10090 40173 57024
BBXX UCKD 24181 99547 70002 41/97 92215 10112 40136 57020 70211 89/// 22213 00090 20603
BBXX 62095 24184 99531 70159 46/// /2320 10114 20111 40168 53006 22200 00113 10810 70052 333 90710 91129
BBXX 62301 24184 99524 70047 46/// /2421 10095 20078 40242 56010 22200 00088 10606 70031 333 90710 91128
BBXX 62094 24184 99517 70067 46/// /2325 10108 20089 40254 57007 22200 00106 10607 70033 333 90710 91136
BBXX 62303 24184 99516 70051 46/// /2422 10112 20079 40262 57011 22200 00112 10707 70035 333 90710 91133
BBXX 62023 24183 99514 70079 46/96 /2430 10105 2//// 40273 5//// 22200 10607 70036 333 91140 555 70059 80016
BBXX 62081 24184 99510 70134 46/// ///// 10121 20095 40250 55002 22200 00121 10811 70054
BBXX 62305 24184 99504 10000 46/98 /2522 10106 20069 40317 57004 22200 00117 10602 70009 333 90710 91134
BBXX 62107 24184 99501 70061 46/// /2528 10108 20075 40307 57005 22200 00115 10905 70026 333 90710 91141
BBXX WDC6925 24184 99500 70024 41898 52835 10110 20072 40295 54000 78262 83268 22253 00120 20302 327// 40606 5//// 6//// 80090 /////
BBXX ZNQO3 24180 99500 70016 41/97 62612 10115 20062 40323 57010 70222 8//// 22223 04126 2//// 3//// 4//// 5//// 80090
BBXX 62103 24184 99499 70029 46/99 /2828 10105 20063 40308 56015 22200 00120 10804 70021 333 90710 91140
BBXX BATFR60 24184 99496 70035 46/// /2619 10109 20059 40323 56011 22212 00115
BBXX MYSU5 24184 99494 70096 41498 63129 10110 20079 40324 54000 70222 8347/ 22223 00120 20604 329// 40905 5//// 80095
BBXX SCKB 24183 99491 70267 41496 82130 10140 2//// 40150 56030 70022 8//// 22233 00100 20306 322// 40616 5//// 6//// 8//// /////
BBXX 62027 24184 99491 70022 46/// /2720 1//// 2//// 40329 58011 22200 00110 10904 325// 70018
BBXX 62442 24184 99490 70164 46/// /2221 1//// 2//// 40292 50000 22200 00125 333 90710 91128
BBXX 62029 24184 99487 70125 46/// /2621 10118 20090 40320 55001 22200 00129 10808 70040 333 90710 91130
BBXX DHSI 24184 99487 70056 41298 52512 10120 20062 40350 58030 70200 84704 22214 21003 325// 41406 80090
BBXX OXBB2 24181 99484 70072 41/97 /2614 10138 20077 40310 52010 70022 8//// 22254 00120 299// 80105
BBXX 62163 24184 99475 70084 46/// /2615 10106 20050 40362 53002 22200 00126 10806 70032
BBXX BATFR14 24184 99471 70114 44498 82216 10124 20052 40361 57003 70322 885// 22214 00129 20102 328// 40804 5//// 60000 ICE 0/0//
BBXX C6LU3 24183 99468 70165 41598 82118 10135 2011/ 40370 57010 70211 886// 22214 20504 80120
BBXX DMQN 24183 99468 70078 41398 82914 10120 20039 40369 50009 70211 85770 22254 04140 20902 330// 40705 5//// 80080
BBXX PHIN 24184 99463 70298 41296 82136 10168 20142 40196 58045 70362 887// 22263 00140 20510 80152
BBXX A8IP3 24183 99457 70268 41296 82125 10150 20142 40268 53003 74144 887// 22214 04140 20606 327// 41105 80145
BBXX DDSC2 24183 99455 70159 41298 82516 10130 20063 40360 56010 70200 8677/ 22264 00137 20402 329// 41006 80095
BBXX 62001 24184 99452 70050 46/// /0203 10112 20034 40380 53005 22200 00141 10806 70031
BBXX BAREU11 24184 99446 70293 46/// ///// 40266 57005 22214
BBXX DDSB2 24183 99445 70293 41/96 82318 10155 20139 40260 57010 71022 8/7// 22214 29903 328// 40905 80145
BBXX PHQX 24183 99440 70132 41/97 6//02 10117 20042 40380 54000 70211 8650/ 22254 2//01 3//// 4//01 5//// 80080
BBXX A8UT7 24184 99429 70236 41598 42117 10160 20144 40290 57010 70111 83549 22263 20603 328// 40803 80150
BBXX MGGK4 24180 99414 70111 41598 30317 10135 20072 40340 52008 70211 8/5// 22284 00158 2//// 3//// 4//// 5//// 80104
BBXX DPOG 24184 99410 70107 41/98 30418 10160 20081 40350 55005 70111 8//// 22245 2//// 80120
BBXX A8GH5 24183 99409 70101 41/96 /0315 10170 20123 40340 54000 70200 8//// 22244 20402 80142
BBXX BAREU06 24184 99406 70276 46/// ///// 40335 52003 22241
BBXX DANM 24184 99394 70194 41298 70610 10145 20063 40352 53011 70122 8671/ 22265 00150 20401 33303 41106 50602 80102
BBXX WKPF 24183 99376 70150 41597 83619 10145 2009/ 40333 54000 70200 886// 22235 00175 20202 307// 40604 5//// 6//// 80115 /////
BBXX DBBH 24181 99376 70010 41/98 /0202 10136 20093 40304 52011 7//// 22200 04162
BBXX C6JT 24183 99372 70293 41498 71411 10175 2014/ 40330 54000 70321 85560 22255 20302 3//// 4//// 80155
BBXX E5U2123 24183 99370 70128 41597 70225 10160 20103 40302 56010 70222 87800 22283 00178 20805 336// 41008 5//// 80130
BBXX PENR 24183 99364 70289 41497 60910 10185 20151 40326 56016 70200 85265 22254 20301 319// 40601 80165
BBXX UBEF5 24181 99361 70044 41098 01206 10160 40292 54000 70200 80000 22263 00170 2////
BBXX BATFR09 24184 99360 70054 44397 80921 10152 20107 40284 53020 70241 882// 22223 00177 20304 60//0 ICE 0/0//
BBXX 61001 24184 99434 10078 46/// /0223 10157 21007 40192 52026 22200 00146 10604 70021 555 1/032
BBXX BATFR33 24184 99423 10060 46/// /3346 10107 20019 40233 55014 22234 00134
BBXX 61002 24184 99421 10047 46/// ///40 10112 2//// 40272 57004 22200 00140 10911 70053 555 1/052
BBXX BATFR31 24184 99419 10088 46/// /3313 10144 20139 40172 22232 00157
BBXX BATFR20 24184 99418 10095 46/// ///// 10144 20005 40141 22284
BBXX BAREU62 24184 99401 10264 46/// ///// 40221 52012 22243
BBXX BATFR46 24184 99397 10010 44/97 30213 10142 20077 40305 53010 70133 82/4/ 22253 00160 23002 320// 42502 5////
BBXX BATFR01 24184 99390 10148 46/// /2118 10157 20094 40152 58017 22272 00164
BBXX BATFR11 24184 99380 10007 46/// ///// 10150 20089 40300 52006 22243 00174
BBXX A8VL5 24184 99375 10044 41397 60220 10130 20091 40390 51010 70122 86800 22265 00170 20404 30000 80110
BBXX A8JH8 24184 99368 10240 41/97 /0315 10120 20111 40190 54000 7//// 8//// 22214 00170 20202 80115
BBXX WRYC 24184 99365 10136 41998 02837 10160 2014/ 40176 56009 70120 80000 22275 00173 20520 3//// 4//// 5//// 6//// 80150 /////
BBXX PCAW 24183 99359 10297 41/98 /3030 10144 20084 40090 53008 70392 8//// 22263 00148 20305 80111
BBXX BAREU56 24184 99330 10132 46/// ///// 40231 22200
BBXX 42360 24181 99267 70905 46/// /0510 10223 91800 22200 00238 10704 70020 333 91213
AAXX 24181 56357 32680 62002 10030 21246 36428 52007 86400 333 05111 10113
AAXX 24184 83384 32597 40902 10328 20206 39530 40095 84200 333 58002
AAXX 24184 83386 32498 20506 10311 20199 39570 40091 81201 333 58008
AAXX 24184 83388 32497 53606 10324 20178 39414 40064 85200 333 58016
AAXX 24184 83393 21599 60905 10252 20200 39412 40123 70362 83307 333 58009 60111
AAXX 24184 83442 32597 63202 10328 20207 39748 40088 81252 333 58004
AAXX 24184 83479 32598 53608 10298 20179 39323 40111 85200 333 58009
AAXX 24184 83483 32598 40504 10319 20205 39538 40091 82240 333 58003
AAXX 24184 83531 21597 80906 10208 20184 39092 40123 72996 884// 333 58009 60051
AAXX 24184 83538 32597 60904 10261 20140 38712 40080 86200 333 58008
AAXX 24184 83574 32794 80902 10352 20207 39556 40145 5//// 88700
AAXX 24184 83582 32598 33604 10304 20188 39343 40101 57012 83100
AAXX 24184 83595 32597 23602 10336 20221 30034 40117 81200 333 59009
AAXX 24184 83692 21798 73602 10218 20195 39100 40123 58009 72122 82280 333 60041
AAXX 24184 83811 32397 83604 10260 20184 39228 40120 50003 8677/
AAXX 24184 83844 32597 709// 10285 20223 30095 40102 56006 84460
AAXX 24184 83887 32597 82306 10214 20184 39108 40149 58004 8359/
AAXX 24184 83907 21497 80909 10203 20187 39876 40160 58004 72065 887// 333 60021
AAXX 24184 83914 21596 81409 10212 20166 39396 40159 54000 70552 8472/ 333 69901
AAXX 24184 83919 21596 70912 10170 20150 38998 40176 52008 75052 83820 333 69901
AAXX 24184 83927 21596 81802 10154 20144 30115 40188 52017 75295 887// 333 60021
AAXX 24184 83936 31496 81406 10196 20150 30076 40199 51005 70542 885//
AAXX 24184 83948 21494 81808 10196 20191 30176 40182 53004 75065 889// 333 60051
AAXX 24184 83964 21594 81410 10144 20139 39712 40208 52014 75155 8672/ 333 69941
AAXX 24184 83995 32497 81408 10194 20114 30212 40215 54000 886//
AAXX 24184 82594 32697 30510 10306 20214 30074 40082 83030 333 58002
AAXX 24184 82780 32598 50905 10368 20158 39846 40092 83240 333 58003
AAXX 24184 82795 21597 50910 10250 20192 39515 40127 70262 85800 333 58010 60021
AAXX 24184 82879 32598 60903 10344 20184 39821 40082 86500 333 58011
BBXX ZCBZ4 24183 99035 11099 41/// 20410 10275 20247 40098 54000 70000 8//// 22264 20402 30404 40302 50201 80255
BBXX PBHZ 24183 99417 70474 41295 82707 10184 20164 40111 55018 76200 887// 22213 04174 29901 322// 40705 80171
AAXX 24184 82863 32598 60000 10317 20240 39878 40087 83340 333 58006
AAXX 24184 83228 32799 60000 10340 20218 39814 40081 83201 333 58011
AAXX 24184 83270 32799 40000 10294 20226 39654 40135 83109 333 58005
AAXX 24184 83309 21695 80000 10243 20241 39787 40110 71096 887// 333 58013 60491
AAXX 24184 83319 21797 50000 10292 20222 39772 40142 70262 83204 333 58010 60011
AAXX 24184 83368 32698 60000 10316 20234 39741 40101 86200 333 59004
AAXX 24184 83374 21598 60906 10247 20210 39551 40120 70165 86800 333 58019 60071
AAXX 24184 83405 32597 6//// 10370 20244 39930 40063 86200 333 58016
AAXX 24184 83526 21498 80000 10223 20203 39180 40116 70362 885// 333 58018 60011
BBXX C6FR6 24184 99218 10673 41/// /0115 10220 2//// 40160 5//// 7//// 8//// 22223 0//// 2//// 3//// 4//// 5//// 6//// 8//// ICE /////
BBXX 41052 24181 99183 70648 46/// /0710 10261 40156 58025 91800 22200 00271 10703 70014 333 91212
BBXX 41053 24181 99185 70661 46/// /0907 10268 40161 91830 333 91208
BBXX 41053 24181 99185 70661 46/// /0907 10268 40162 91820 333 91209
BBXX 41053 24181 99185 70661 46/// /0807 10268 40163 91810 333 91209
BBXX 42085 24181 99179 70665 46/// /1010 10275 40148 91830 333 91212
BBXX 42085 24181 99179 70665 46/// /1010 10274 40149 91820 333 91212
BBXX 42085 24181 99179 70665 46/// /1010 10273 40151 91810 333 91212
BBXX 44024 24181 99423 70659 46/30 /3510 10028 40220 54000 91804 333 91213 555 11131 22144
AAXX 24184 83437 32599 20504 10298 20183 39396 40103 82200 333 58009
AAXX 24184 83579 32599 62305 10258 20185 39020 40120 86700 333 58025
AAXX 24184 83592 32597 40506 10296 20193 39454 40121 82242 333 58010
AAXX 24184 83766 32597 73206 10336 20193 39467 40101 5//// 87080
AAXX 24184 83836 32497 82704 10257 20185 39152 40110 56016 8497/
AAXX 24184 83881 21496 81404 10250 20215 39843 40122 58009 70265 8472/ 333 60261
AAXX 24184 83980 21495 81410 10152 20121 39927 40214 51001 75055 887// 333 60021
AAXX 24184 83997 32597 22306 10213 20111 30202 40246 51008 82100
AAXX 24184 83349 32570 30910 10293 20223 30140 40146 83200 333 58009
AAXX 24184 83650 42698 80402 10260 20220 40190 57005 7//// 8743/ 222// 02263 20802 80220
AAXX 24184 83925 32897 81908 10220 20206 40188 52066 7036/ 8807/ 222// 20401 80210
AAXX 24184 83970 41896 81603 10200 20154 30202 40206 52004 7035/ 887// 222// 02200 20301
BBXX SHIP 24184 99260 11347 41297 53423 00/// 10120 20083 40169 52007 70222 8549/ 9//// 22253 00265 2//// 3//// 4//// 5//// 6//// 80100 THNKS/B/REGARDS MASTER PACIFIC GLORY INM C - 443272110
BBXX SHIP 24184 99260 11347 41297 53423 00/// 10120 20083 40169 52007 70222 8549/ 9//// 22253 00265 2//// 3//// 4//// 5//// 6//// 80100 THNKS/B.REGARDS MASTER PACIFIC GLORY INM C - 443272110
BBXX C6FR6 24184 99218 10673 41/// /0115 10220 2//// 40160 5//// 7//// 8//// 22223 0//// 2//// 3//// 4//// 5//// 6//// 8//// ICE /////
BBXX OZ2049 24180 99615 70148 41/95 92530 10038 49830 78488
BBXX KS089 24184 99389 70117 43/// /0322 10141 22243
BBXX 42360 24181 99267 70905 46/// /0510 10223 91800 22200 00238 10704 70020 333 91213
BBXX 44056 24181 99362 70757 46/// ///// 1//// 91750 22200 00124 10702 20702 70009
BBXX 41033 24181 99323 70804 46/// /0609 10134 40281 57007 91800 555 11112 22134
BBXX 44138 24181 99443 70536 46/// /3508 10033 40143 52008 22200 00091 11006 70029 333 91210
BBXX CFO383 24184 99439 70602 47597 /3524 11003 2103/ 40187 5//// 771// 8/ // 22200 00071 10805 2//// 3//// 70026 81013 333 91031
BBXX 44137 24181 99423 70620 46/// /0110 10049 40188 57001 22200 00092 11005 70026 333 91214
BBXX KS098 24184 99446 71241 43/// /1803 10063 40318 22200 06000
BBXX KS007 24184 99267 70801 43/// ///// 10245 40185 22200
BBXX 46219 24181 99332 71199 46/// ///// 1//// 91828 22200 00137 11806 20602 330// 41805 70028
BBXX 46214 24181 99379 71235 46/// ///// 1//// 91823 22200 00120 11306 21002 330// 41306 70032
BBXX 46239 24181 99363 71221 46/// ///// 1//// 91821 22200 00132 11507 21002 330// 41506 70034
BBXX 46224 24181 99332 71175 46/// ///// 1//// 91806 22200 00142 11501 20501 319// 41501 70007
BBXX 42363 24181 99282 70892 46/// /0712 10178 20144 40251 91830 333 91212
BBXX 46238 24181 99334 71195 46/// ///// 1//// 91820 22200 00141 11806 21001 329// 41805 70028
BBXX 42362 24181 99278 70907 46/// /0813 10206 20167 40231 91830
BBXX 42364 24181 99291 70881 46/// /0408 10156 20128 40258 91830
BBXX 44099 24181 99369 70757 46/// ///// 1//// 91822 22200 00120 10402 20402 70010
BBXX WXJ63 24183 99611 71464 41/96 80603 11023 21027 49974 5//// 771// 8//// 222// 00050 2//// 3//// 4//// 5//// 6//// 8//// ICE /////
BBXX UDWE 24181 99460 11447 41/97 92317 11010 49920 57014 70272 22262 00043 20706
BBXX UIFC 24181 99363 11310 41/97 93213 10039 40166 54015 70222 22212 00123 20302 3230 40603
AAXX 24181 47003 42980 03203 11146 21227 30217 40221 54000
AAXX 24181 47005 42980 01404 11275 21299 38541 52004
AAXX 24181 47022 42975 03203 11218 21258 38788 52006
AAXX 24181 47028 42962 00000 11123 21185 30200 40302 52005
AAXX 24181 47031 42970 03203 11204 21237 38897 53011
AAXX 24181 47037 42970 00000 11118 21242 30167 40300 52013
AAXX 24181 47039 42960 00000 11156 21190 30096 40304 52018
AAXX 24181 47046 42969 00000 11116 21199 30192 40216 52008
AAXX 24181 47050 42965 03201 11108 21204 30250 40286 52016
AAXX 24181 47052 42965 00000 11158 21177 39917 40285 52007
AAXX 24181 47060 42960 03203 11087 21179 30227 40289 52013
AAXX 24181 47061 42980 03202 11059 21156 30179 40225 52007
AAXX 24181 47065 42965 03203 11108 21159 30218 40286 52008
AAXX 24181 47067 42965 03201 11104 21186 30169 40297 52002
AAXX 24181 47068 42960 03206 11067 21157 30253 40290 52012
AAXX 24181 47070 42970 00000 11095 21146 30192 40286 52012
AAXX 24181 47075 42980 02302 11135 21196 39747 40207 52008
AAXX 24181 47008 42970 03203 11124 21232 30172 40229 52006
AAXX 24181 47014 42950 00000 11226 21258 39856 40302 53016
AAXX 24181 47016 42970 00000 11220 21252 39362 40277 52011
AAXX 24181 47020 42965 00000 11184 21203 39905 40319 52019
AAXX 24181 47025 42960 03203 11104 21229 30180 40211 52001
AAXX 24181 47035 42970 03601 11114 21195 30297 40306 52011
AAXX 24181 47041 42970 01802 11095 21220 30204 40233 54000
AAXX 24181 47055 42970 02707 11077 21161 30209 40257 52007
AAXX 24181 47058 42960 03202 11101 21211 30251 40302 52013
AAXX 24181 47069 42965 03205 11060 21145 30178 40283 52007
AAXX 24184 47584 11/20 82505 11045 21054 39875 40071 58004 69951 78582 883//
BBXX LEQZ3 24183 99510 11614 41/98 70924 10010 21010 40100 56020 70011 22253 00110 80000
AAXX 24181 45032 36/// /9901 10055 21010 30237 40255 57001
AAXX 24181 45035 36/// /0405 10098 21050 30211 40255 57001
AAXX 24181 45039 36/// /0404 10109 21039 30231 40247 57001
AAXX 24181 45044 36/// /0107 10098 21010 30145 40242 57001
AAXX 24181 45032 36/// /9901 10055 21010 30237 40255 57001
AAXX 24181 45035 36/// /0405 10098 21050 30211 40255 57001
AAXX 24181 45039 36/// /0404 10109 21039 30231 40247 57001
AAXX 24181 45044 36/// /0107 10098 21010 30145 40242 57001
AAXX 24184 71399 16/// ///// 10044 21061 60001 333 10045 21043 70000
AAXX 24184 71073 16/// /2713 10044 21057 60001 333 10044 21031 70000
AAXX 24184 71565 17/// /2609 10042 21066 69941 7//4/ 333 10048 21017 70010
AAXX 24184 71566 16/// /2507 10044 21069 60001 333 10057 20012 70000
AAXX 24184 71567 16/// /2821 10036 21039 60001 333 10036 21036 70000
AAXX 24184 71848 46/// ///// 10042 21056 6///1 333 10042 21007 7////
AAXX 24184 71495 16/// /2611 10032 21070 60001 333 10033 20005 70000
AAXX 24184 71974 46/// /1303 11293 21318 30039 40083 53018 6///1 333 11258 21350 7////
AAXX 24184 71060 16/// /2805 10024 21082 38693 40274 51027 60001 333 10026 20000 70007
AAXX 24184 71793 16/// ///// 10053 21066 60001 333 10053 21068 70000
BBXX MINFR09 2418/ 99137 31545 46/// ///// 40034 57005
AAXX 24184 63932 24184 63932 01580 80000 10168 20155 38325 48524 60042 79596 8597/ 333 10250 59001 60047 85622 81923 88458
AAXX 24184 89646 46/// ///09 11260 29073 37620 4//// 5////
AAXX 24184 89648 46/// /2412 11270 29070 37179 4//// 5////
AAXX 24184 89659 46/// /3214 11241 29071 37673 4//// 5////
AAXX 24184 89661 46/// /2003 11027 29038 39235 4//// 5////
AAXX 24184 89662 42980 01102 10010 21100 39770 49875 52015 222 ICE 98015 333 21011
AAXX 24184 89666 46/// /1303 11039 29080 39683 4//// 5////
BBXX 46241 24181 99330 71173 46/// ///// 1//// 91811 22200 00142 11802 20501 327// 41802 70009
BBXX 46216 24181 99343 71198 46/// ///// 1//// 91827 22200 00145 11702 20601 325// 41701 70009
BBXX 46223 24181 99335 71178 46/// ///// 1//// 91830 22200 00153 11701 21001 320// 41701 70007
BBXX 46231 24181 99327 71174 46/// ///// 1//// 91824 22200 00147 11802 21001 327// 41802 70012
BBXX 46222 24181 99336 71183 46/// ///// 1//// 91826 22200 00149 11801 21001 328// 41801 70007
BBXX 46242 24181 99332 71174 46/// ///// 1//// 91828 22200 00144 11501 21001 321// 41501 70007
BBXX A8ZS7 24184 99324 50243 41998 23416 10230 20201 40190 57005 70200 8/040 22264 04200 20502 30000 80210
BBXX A8UA9 24184 99039 70105 41/98 61307 10284 20261 40100 57010 70222 829/3 22233 323// 40903 80267
BBXX A8RU5 24184 99061 10895 41297 22314 10260 20246 40025 58010 70165 821// 22264 80250
AAXX 24181 01271 17984 41304 10021 21080 39950 49971 58041 60002 700// 333 10023 91107
AAXX 24181 89063 41/94 92701 11005 21005 39807 49818 57005 77272
AAXX 24184 68588 16/// /3302 10226 20201 30147 40163 51002 69942 333 10267 20218 91003 555 20004 91016
AAXX 24184 68581 16/// /1602 10191 20181 39389 48535 51001 69962 333 10227 20191 91005 555 20006 69965 91017
AAXX 24184 68583 16/// /0000 10229 20208 30045 40154 52007 69942 333 10253 20228 91003 555 20004 69925 91015
AAXX 24184 68589 16/// /1803 10145 20122 38282 48544 53008 69962 333 10206 20144 91005 555 20006 69925 91024
AAXX 24184 97016 32460 70000 10252 20228 30052 40054 57014 82271 333 56000 57801 82818 84460 80860
BBXX 63106 24184 99610 10017 46/// /2335 10081 49916 56027 22200
BBXX 63113 24184 99610 10017 46/// /2436 10087 20067 49944 55013 22200 10811 70053
BBXX 63110 24183 99595 10015 41/// /2340 10080 49976 700// 8//// 22200 10709 70045
BBXX 62304 24184 99511 10018 46/98 /2525 10097 20049 40297 56006 22200 00104 10601 70007 333 90710 91135
BBXX 62303 24184 99516 70051 46/// /2422 10112 20079 40262 57011 22200 00112 10708 70038 333 90710 91133
BBXX 64045 24184 99591 70117 46/// /2634 10079 20035 49966 53025 22200 00100 11020 70098 333 90710 91154
BBXX 62103 24184 99499 70029 46/99 /2727 10112 20063 40306 56010 22200 00120 10704 70022 333 90710 91138
BBXX PDBP 24183 99308 70260 41397 70811 10190 20159 40292 52007 75052 81220 22224 04209 20302 311// 40603 80170
AAXX 24181 38599 31996 80807 10031 21093 39669 40191 55002 70522 8805 333 10046
AAXX 24181 38599 31996 80807 10031 21093 39669 40191 55002 70522 8805 333 10046
AAXX 24184 60607 12960 00209 10156 20007 40236 53002 60002 333 10195
BBXX 46221 24181 99339 71186 46/// ///// 1//// 91815 22200 00148 11802 20901 326// 41801 70008
BBXX S6JT 24184 99520 71360 41397 62026 10085 20074 40040 57040 71022 84778 22264 04070 20303 303// 40909 80080
BBXX A8HJ8 24183 99012 11034 41/95 /3610 10252 20247 40095 52005 76566 8//// 22200 00/// 20301 80248
BBXX PCSV 24180 99267 30451 41498 21910 10258 20217 40159 52004 70022 8/100 22253 04264 20902 319// 40912 80229
BBXX V7SY6 24184 99062 10936 41697 81422 10280 20253 40230 56010 7//22 88/// 22223 00280 20604 318// 40604 80260
BBXX MTDU5 24183 99098 30786 41698 51110 10265 20228 40095 54000 70322 8/4// 22214 04292 20702 80240
BBXX ELYJ7 24183 99026 11328 41/97 83113 10320 20307 40050 56010 76066 8//// 22274 00/// 20502 307// 41004 80310
BBXX VRGW2 24184 99207 11141 41/97 80321 10170 20155 40219 58017 70000 8//// 22244 04230 21402 80161
BBXX S6JT 24184 99520 71360 41397 62026 10085 20074 40040 57040 71022 84778 22264 04070 20303 303// 40909 80080
BBXX A8HJ8 24183 99012 11034 41/95 /3610 10252 20247 40095 52005 76566 8//// 22200 00/// 20301 80248
BBXX PCSV 24180 99267 30451 41498 21910 10258 20217 40159 52004 70022 8/100 22253 04264 20902 319// 40912 80229
BBXX V7SY6 24184 99062 10936 41697 81422 10280 20253 40230 56010 7//22 88/// 22223 00280 20604 318// 40604 80260
BBXX MTDU5 24183 99098 30786 41698 51110 10265 20228 40095 54000 70322 8/4// 22214 04292 20702 80240
BBXX ELYJ7 24183 99026 11328 41/97 83113 10320 20307 40050 56010 76066 8//// 22274 00/// 20502 307// 41004 80310
BBXX VRGW2 24184 99207 11141 41/97 80321 10170 20155 40219 58017 70000 8//// 22244 04230 21402 80161
AAXX 24181 38599 31996 80807 10031 21093 39669 40191 55002 70522 8805E 333 10046
AAXX 24184 71502 16/// /3208 11261 21282 30123 40140 53009 60001 333 11252 21277 7////
AAXX 24184 71509 16/// /2718 10064 21047 60001 333 10064 20033 70000
AAXX 24184 71517 16/// /2729 10058 21050 60001 333 10058 7////
AAXX 24184 71518 16/// /2718 10068 21053 60001 333 10068 20010 70000
AAXX 24184 71519 16/// /2713 10060 21039 60001 333 10060 20011 70000
AAXX 24184 71528 16/// /2617 10055 21052 60001 333 10056 20014 70000
AAXX 24184 71433 46/// /2121 11008 21038 39956 40190 58027 6///1 333 10000 21041 7////
AAXX 24184 71409 16/// ///// 10051 21034 60001 333 10051 20000 70000
AAXX 24184 71006 16/// /2710 10044 21052 60001 333 10044 21021 70000
AAXX 24184 71007 16/// ///// 10055 21071 60001 333 10055 20007 70000
AAXX 24184 71008 16/// /2711 10019 21033 60001 333 10022 21047 70000
AAXX 24184 71009 16/// /2708 10027 21038 60001 333 10048 20004 70000
AAXX 24184 71012 16/// /2915 10056 21068 60001 333 10056 21014 70000
AAXX 24184 71035 16/// ///// 10016 21049 60001 333 10037 21025 70000
AAXX 24184 71789 16/// ///// 10054 21061 60001 333 10054 20019 70000
AAXX 24184 71791 16/// /2823 10046 21050 60001 333 10046 21024 70000
AAXX 24184 71794 16/// ///// 10047 21060 60001 333 10047 21030 70000
AAXX 24184 71795 16/// ///// 10050 21045 60001 333 10050 20005 70000
AAXX 24184 71796 16/// ///// 10053 21068 60001 333 10053 21006 70000
AAXX 24184 71102 16/// ///// 10045 21055 60001 333 10045 21037 70000
AAXX 24184 71105 16/// ///// 10056 21053 60001 333 10057 20002 70000
AAXX 24184 71841 16/// /2005 11050 21070 39729 40135 58035 60001 333 11050 21133 7////
AAXX 24184 71051 46/// ///// 10043 21044 6///1 333 10044 21106 7////
AAXX 24184 71057 16/// ///// 10034 21056 60001 333 10043 21013 70000
AAXX 24184 71070 16/// ///// 10060 21032 60001 333 10060 21006 70000
AAXX 24184 71089 16/// ///// 10053 21065 60001 333 10056 21020 70000
AAXX 24184 71433 46/// /2121 11008 21038 39956 40190 58027 6///1 333 10000 21041 7////
AAXX 24184 71841 16/// /2005 11050 21070 39729 40135 58035 60001 333 11050 21133 7////
AAXX 24184 71006 16/// /2710 10044 21052 60001 333 10044 21021 70000
AAXX 24184 71007 16/// ///// 10055 21071 60001 333 10055 20007 70000
AAXX 24184 71008 16/// /2711 10019 21033 60001 333 10022 21047 70000
AAXX 24184 71009 16/// /2708 10027 21038 60001 333 10048 20004 70000
AAXX 24184 71012 16/// /2915 10056 21068 60001 333 10056 21014 70000
AAXX 24184 71035 16/// ///// 10016 21049 60001 333 10037 21025 70000
AAXX 24184 71102 16/// ///// 10045 21055 60001 333 10045 21037 70000
AAXX 24184 71105 16/// ///// 10056 21053 60001 333 10057 20002 70000
AAXX 24184 71789 16/// ///// 10054 21061 60001 333 10054 20019 70000
AAXX 24184 71791 16/// /2823 10046 21050 60001 333 10046 21024 70000
AAXX 24184 71794 16/// ///// 10047 21060 60001 333 10047 21030 70000
AAXX 24184 71795 16/// ///// 10050 21045 60001 333 10050 20005 70000
AAXX 24184 71796 16/// ///// 10053 21068 60001 333 10053 21006 70000
AAXX 24184 71409 16/// ///// 10051 21034 60001 333 10051 20000 70000
AAXX 24184 71051 46/// ///// 10043 21044 6///1 333 10044 21106 7////
AAXX 24184 71057 16/// ///// 10034 21056 60001 333 10043 21013 70000
AAXX 24184 71070 16/// ///// 10060 21032 60001 333 10060 21006 70000
AAXX 24184 71089 16/// ///// 10053 21065 60001 333 10056 21020 70000
AAXX 24184 71502 16/// /3208 11261 21282 30123 40140 53009 60001 333 11252 21277 7////
AAXX 24184 71509 16/// /2718 10064 21047 60001 333 10064 20033 70000
AAXX 24184 71517 16/// /2729 10058 21050 60001 333 10058 7////
AAXX 24184 71518 16/// /2718 10068 21053 60001 333 10068 20010 70000
AAXX 24184 71519 16/// /2713 10060 21039 60001 333 10060 20011 70000
AAXX 24184 71528 16/// /2617 10055 21052 60001 333 10056 20014 70000
AAXX 24184 96995 46/// /2203 10247 20235 39780 40074
AAXX 24184 96995 46/// /2203 10247 20235 39780 40074
AAXX 24184 03227 46/// /2437 10023 2//// 91750 333 10024 90710 91143
BBXX 3ELR6 24183 99121 31296 41497 51507 10280 20253 40008 57009 71322 8//// 22264 06330 2//01 80260
AAXX 24181 89063 41/94 92701 11005 21005 39807 49818 57005 77272
BBXX 3EEE2 24184 99272 70863 43897 20513 10260 20240 40106 51008 70303 83393 91800 22233 04230 2//04 320// 4//04 80240
BBXX 3ELR6 24183 99121 31296 41497 51507 10280 20253 40008 57009 71322 8//// 22264 06330 2//01 80260
BBXX PCSV 24180 99267 30451 41498 21910 10258 20217 40159 52004 70022 8/100 22253 04264 20902 319// 40912 80229
BBXX A8UA9 24184 99039 70105 41/98 61307 10284 20261 40100 57010 70222 829/3 22233 323// 40903 80267
BBXX A8ZS7 24184 99324 50243 41998 23416 10230 20201 40190 57005 70200 8/040 22264 04200 20502 30000 80210
BBXX SHIP 24184 99222 11166 41597 31120 10140 20120 40230 51015 70111 83400 22263 04205 21006 3//// 4//// 80120
BBXX VRGO8 24184 99304 11295 41/96 /3040 10090 20049 40238 52010 76455 8//// 22234 00210 2//// 3//// 4//// 80070
BBXX VRGW2 24184 99207 11141 41/97 80321 10170 20155 40219 58017 70000 8//// 22244 04230 21402 80161
BBXX V7SY6 24184 99062 10936 41697 81422 10280 20253 40230 56010 7//22 88/// 22223 00280 20604 318// 40604 80260
BBXX A8RU5 24184 99061 10895 41297 22314 10260 20246 40025 58010 70165 821// 22264 80250
BBXX ELYJ7 24183 99026 11328 41/97 83113 10320 20307 40050 56010 76066 8//// 22274 00/// 20502 307// 41004 80310
BBXX MTDU5 24183 99098 30786 41698 51110 10265 20228 40095 54000 70322 8/4// 22214 04292 20702 80240
BBXX A8HJ8 24183 99012 11034 41/95 /3610 10252 20247 40095 52005 76566 8//// 22200 00/// 20301 80248
BBXX MINFR09 2418/ 99137 31545 46/// ///// 40034 57005
BBXX ZCBZ4 24183 99035 11099 41/// 20410 10275 20247 40098 54000 70000 8//// 22264 20402 30404 40302 50201 80255
BBXX SHIP 24184 99337 10254 41497 63213 10140 20085 40180 54000 70311 86521 22234 00200 21204 31415 41302 80110
BBXX PDBP 24183 99308 70260 41397 70811 10190 20159 40292 52007 75052 81220 22224 04209 20302 311// 40603 80170
BBXX S6JT 24184 99520 71360 41397 62026 10085 20074 40040 57040 71022 84778 22264 04070 20303 303// 40909 80080
BBXX 46221 24181 99339 71186 46/// ///// 1//// 91815 22200 00148 11802 20901 326// 41801 70008
BBXX 46222 24181 99336 71183 46/// ///// 1//// 91826 22200 00149 11801 21001 328// 41801 70007
BBXX 46242 24181 99332 71174 46/// ///// 1//// 91828 22200 00144 11501 21001 321// 41501 70007
BBXX 46231 24181 99327 71174 46/// ///// 1//// 91824 22200 00147 11802 21001 327// 41802 70012
BBXX 46216 24181 99343 71198 46/// ///// 1//// 91827 22200 00145 11702 20601 325// 41701 70009
BBXX 46223 24181 99335 71178 46/// ///// 1//// 91830 22200 00153 11701 21001 320// 41701 70007
BBXX 46241 24181 99330 71173 46/// ///// 1//// 91811 22200 00142 11802 20501 327// 41802 70009
BBXX SHIP 24184 99272 70863 43897 20513 10260 20240 40106 51008 70303 83393 91800 22233 04230 2//04 320// 4//04 80240
BBXX A8OH4 24183 99151 70657 41598 30720 10265 20215 40120 58020 70000 83148 22224 04300 20606 305// 40606 80230
BBXX 41052 24181 99183 70648 46/// /0710 10261 40156 58025 91800 22200 00271 10703 70014 333 91212
BBXX 41053 24181 99185 70661 46/// /0907 10268 40162 91820 333 91209
BBXX 42085 24181 99179 70665 46/// /1010 10274 40149 91820 333 91212
BBXX 42085 24181 99179 70665 46/// /1010 10275 40148 91830 333 91212
BBXX 42085 24181 99179 70665 46/// /1010 10273 40151 91810 333 91212
BBXX 41053 24181 99185 70661 46/// /0807 10268 40163 91810 333 91209
BBXX 44024 24181 99423 70659 46/30 /3510 10028 40220 54000 91804 333 91213 555 11131 22144
BBXX 41053 24181 99185 70661 46/// /0907 10268 40161 91830 333 91208
BBXX PBHZ 24183 99417 70474 41295 82707 10184 20164 40111 55018 76200 887// 22213 04174 29901 322// 40705 80171
BBXX TBWUK17 24183 99257 30600 41597 30814 10241 20217 40220 52014 70000 82445 22263 04246 20403 30808 40402 50304 80225
BBXX MLRM6 24183 99343 30253 41798 70822 10200 20152 40171 53010 70222 8707/ 22252 00197 20203 3//// 4//// 5////
AAXX 24184 71674 16/// ///// 10046 21063 60001 333 10046 21026 70000
AAXX 24184 71797 16/// ///// 10050 21043 60001 333 10050 21016 70000
AAXX 24184 71520 16/// /1803 11254 21304 39591 40326 56008 60001 333 11248 21425 70000
AAXX 24184 71521 16/// ///// 11251 21308 60001 333 11249 21381 70000
AAXX 24184 71522 46/// /1501 11216 21270 39820 40348 50000 6///1 333 11216 21334 70000
AAXX 24184 71523 16/// ///// 11206 21242 39924 40331 58018 60001 333 11202 21365 70000
AAXX 24184 71540 16/// /2612 10029 21052 60001 333 10061 21025 70000
AAXX 24184 71544 16/// ///// 10024 21036 60001 333 10035 7////
AAXX 24184 71548 16/// ///// 10043 21052 60001 333 10044 21003 70000
AAXX 24184 71014 16/// /2607 10052 21079 60001 333 10052 21009 7////
AAXX 24184 71904 16/// ///// 10032 21082 60001 333 10043 21027 70000
AAXX 24184 71857 16/// ///// 10044 21051 60001 333 10045 21031 70000
AAXX 24184 71413 16/// ///// 10058 21067 60001 333 10058 21009 70000
AAXX 24184 71414 16/// ///// 10048 21050 60001 333 10048 21035 70000
AAXX 24184 71440 16/// ///// 10043 21048 60001 333 10046 21010 70000
AAXX 24184 71360 16/// ///// 10049 21065 60001 333 10049 21001 70000
AAXX 24184 71380 16/// /2615 10034 21056 60001 333 10036 21017 70000
AAXX 24184 71383 16/// ///// 11228 21285 39670 40326 56010 60001 333 11225 21368 70000
AAXX 24184 71481 16/// /2606 10040 21067 60001 333 10059 20020 70000
AAXX 24184 71498 16/// /2407 10023 21036 60001 333 10054 21031 70000
AAXX 24184 71249 16/// /2820 10001 21062 60001 333 10036 21015 70000
AAXX 24184 71346 16/// /2622 10065 21049 60001 333 10065 20025 70000
AAXX 24184 71055 46/// /2503 11282 21310 39787 40134 53012 6///1 333 11250 21282 7////
AAXX 24184 71065 16/// ///// 10050 21052 60001 333 10050 21018 70000
AAXX 24184 71904 16/// ///// 10032 21082 60001 333 10043 21027 70000
AAXX 24184 71797 16/// ///// 10050 21043 60001 333 10050 21016 70000
AAXX 24184 71674 16/// ///// 10046 21063 60001 333 10046 21026 70000
AAXX 24184 71857 16/// ///// 10044 21051 60001 333 10045 21031 70000
AAXX 24184 71413 16/// ///// 10058 21067 60001 333 10058 21009 70000
AAXX 24184 71414 16/// ///// 10048 21050 60001 333 10048 21035 70000
AAXX 24184 71440 16/// ///// 10043 21048 60001 333 10046 21010 70000
AAXX 24184 71014 16/// /2607 10052 21079 60001 333 10052 21009 7////
AAXX 24184 71520 16/// /1803 11254 21304 39591 40326 56008 60001 333 11248 21425 70000
AAXX 24184 71521 16/// ///// 11251 21308 60001 333 11249 21381 70000
AAXX 24184 71522 46/// /1501 11216 21270 39820 40348 50000 6///1 333 11216 21334 70000
AAXX 24184 71523 16/// ///// 11206 21242 39924 40331 58018 60001 333 11202 21365 70000
AAXX 24184 71540 16/// /2612 10029 21052 60001 333 10061 21025 70000
AAXX 24184 71544 16/// ///// 10024 21036 60001 333 10035 7////
AAXX 24184 71548 16/// ///// 10043 21052 60001 333 10044 21003 70000
AAXX 24184 71481 16/// /2606 10040 21067 60001 333 10059 20020 70000
AAXX 24184 71498 16/// /2407 10023 21036 60001 333 10054 21031 70000
AAXX 24184 71346 16/// /2622 10065 21049 60001 333 10065 20025 70000
AAXX 24184 71360 16/// ///// 10049 21065 60001 333 10049 21001 70000
AAXX 24184 71380 16/// /2615 10034 21056 60001 333 10036 21017 70000
AAXX 24184 71383 16/// ///// 11228 21285 39670 40326 56010 60001 333 11225 21368 70000
AAXX 24184 71249 16/// /2820 10001 21062 60001 333 10036 21015 70000
AAXX 24184 71055 46/// /2503 11282 21310 39787 40134 53012 6///1 333 11250 21282 7////
AAXX 24184 71065 16/// ///// 10050 21052 60001 333 10050 21018 70000
AAXX 24181 20046 11394 81315 11086 21097 39894 49926 58027 69950 77173 8372/ 333 11106 91112 92982
AAXX 24181 20069 41956 01313 11212 21243 30077 40091 57015 73830 333 91120
BBXX MTDU5 24183 99098 30786 41698 51110 10265 20228 40095 54000 70322 8/4// 22214 04292 20702 80240
BBXX PCSV 24180 99267 30451 41498 21910 10258 20217 40159 52004 70022 8/100 22253 04264 20902 319// 40912 80229
AAXX 24184 17050 12970 30802 11014 21049 30169 40234 52014 69902 83030 333 10012 83360 91113 93100
BBXX A8PI5 24181 99103 70755 41598 33305 10290 20235 40100 54000 70322 811// 22200 20101 80250
AAXX 24184 88903 45/// /1214 10036 20012 39803 49803 53022
AAXX 24184 83378 32670 60508 10281 20178 38955 48520 83231 333 58007
AAXX 24181 58968 32560 60803 10127 20055 30260 40268 58005 86500
AAXX 24181 58974 46/// /0308 10120 20049 30150 40278 58002
AAXX 24181 59358 31650 80204 10117 20051 30187 40220 55001 70511 885//
AAXX 24181 59559 32565 50311 10166 20091 30169 40198 55004 83230
AAXX 24181 59792 32460 80411 10178 20132 30201 40206 57007 8542/
AAXX 24181 59997 11458 80205 10266 20230 30095 40103 57005 6992/ 71082 8382/
AAXX 24181 59158 32960 00601 10097 20039 30118 40223 51005
AAXX 24181 59562 31959 83603 10147 20070 30223 40235 50001 70522 8802/
AAXX 24181 59567 46/// /0110 10147 20107 39825 40212 55003
BBXX PHAM 24183 99480 70058 41/98 72525 10120 20039 40355 57005 70222 877// 22283 20504 329// 40905 80080 90744
AAXX 2418/ 89327 46/// ///// 11011 39449 4//// 5//// 91810
AAXX 2418/ 89327 46/// ///// 11011 39457 4//// 5//// 91820
AAXX 2418/ 89828 46/// ///// 11310 36536 4//// 5//// 91830
AAXX 2418/ 89879 46/// ///// 10001 39787 4//// 5//// 91820
AAXX 2418/ 89872 46/// ///// 11001 39827 4//// 5//// 91820
AAXX 2418/ 89872 46/// ///// 10011 39826 4//// 5//// 91830
AAXX 2418/ 89869 46/// ///// 11045 39808 4//// 5//// 91820
AAXX 2418/ 89866 46/// ///// 11023 39765 4//// 5//// 91820
AAXX 2418/ 89868 46/// ///// 11023 39830 4//// 5//// 91820
AAXX 2418/ 89332 46/// ///// 11011 39209 4//// 5//// 91820
AAXX 2418/ 89314 46/// ///// 11046 38271 4//// 5//// 91820
AAXX 24184 89667 46/// /0703 11009 29056 39873 4//// 5//// 91820
AAXX 24184 08594 32962 70518 10244 20146 40157 84032 333 10257 58002 84360 86070
AAXX 24184 08589 31458 70516 10245 20167 40147 70622 82231 333 10266 58000 82617 83360 86070
AAXX 24184 08583 31959 80624 10233 20155 40159 70622 87072 333 10265 59001 87360
AAXX 24184 61202 32970 10000 10248 21013 39588 40145 80002 333 10278 59015 81075
AAXX 24184 61214 NIL
AAXX 24184 61223 32960 60406 10260 21021 39844 40143 80002 333 10291 59008 86075
AAXX 24184 61226 32960 40406 10267 20068 39834 40133 80002 333 10308 59010 84075
AAXX 24184 61230 32960 40408 10285 21052 39841 40114 80002 333 10310 59006 84075
AAXX 24184 61233 32960 20804 10270 21003 3//// 4//// 80002 333 10305 5//// 82075
AAXX 24184 61235 32960 50410 10300 21020 3//// 4//// 80002 333 10325 5//// 85075
AAXX 24184 61240 32960 50000 10278 20040 39794 40121 80002 333 10315 59008 85075
AAXX 24184 61250 32960 10000 10270 20065 3//// 4//// 80002 333 10304 5//// 81075
AAXX 24184 61257 32960 50412 10315 21036 30057 40150 80002 333 10330 59005 85075
AAXX 24184 61265 32975 30404 10285 21043 39810 40118 80002 333 10325 59005 83075
AAXX 24184 61270 32960 30000 10310 20073 3//// 4//// 80002 333 10340 5//// 83075
AAXX 24184 61272 32960 10000 10270 20092 39786 40114 80002 333 10330 59012 81075
AAXX 24184 61277 32960 00804 10295 20007 39795 40116 333 10330 59003
AAXX 24184 61285 32960 50806 10328 20011 39952 40101 80002 333 10349 59007 85075
AAXX 24184 61291 32960 00604 10287 20029 39692 40102 333 10319 59004
AAXX 24184 61293 32960 20406 10298 20069 3//// 4//// 80002 333 10330 5//// 82075
AAXX 24184 61296 32960 60804 10294 20119 3//// 4//// 80002 333 10335 5//// 86075
AAXX 24184 61297 32960 53604 10295 20039 3//// 4//// 80002 333 10325 5//// 85075
AAXX 24184 61017 32960 53606 10208 20023 39748 40164 80002 333 10252 58001 85080
AAXX 24184 61024 32960 11014 10217 21027 39575 40151 80002 333 10270 58003 81080
AAXX 24184 61036 32960 70000 10275 20021 39877 40116 80008 333 10320 59006 87280
AAXX 24184 61043 32960 70608 10256 21074 39681 40126 80008 333 10302 59003 87280
AAXX 24184 61045 32965 70000 10220 21030 39631 40135 80008 333 10270 59012 87280
AAXX 24184 61049 32960 70000 10225 20020 39792 40116 80008 333 10286 59009 87280
AAXX 24184 61052 32965 20604 10274 21001 39872 40130 80002 333 10315 58004 82080
AAXX 24184 61075 32960 50000 10266 20002 39804 40115 80002 333 10325 59014 85080
AAXX 24184 61080 32960 71004 10245 21015 39706 40131 80002 333 10290 59002 87280
AAXX 24184 61090 32965 70204 10240 21080 39614 40127 80008 333 10280 59002 87280
AAXX 24184 61091 32965 30000 10220 20070 39679 40143 80002 333 10294 59005 83080
AAXX 24184 61096 32965 70404 10238 21010 39743 40130 80008 333 10299 59008 87280
AAXX 24184 61099 32960 73606 10288 20041 39869 40098 80008 333 10328 59004 87280
AAXX 24184 61766 32960 80206 10310 20188 30054 40096 82081 333 10325 59004 88075
AAXX 24184 61769 31959 70403 10306 20165 3//// 4//// 70522 80001 333 10315 87075
AAXX 24184 91844 46/// /3512 10271 40120 22200 00277
AAXX 24184 96295 32460 80000 10254 20236 39979 40082 56003 8552/ 333 56000 85615
AAXX 24184 97192 01450 50000 10266 20252 30019 40076 57007 60011 70162 84440 333 56200 60017 84616
BBXX 62303 24184 99516 70051 46/// /2422 10112 20079 40262 57011 22200 00112 10707 70035 333 90710 91133
BBXX 64045 24184 99591 70117 46/// /2636 10079 20035 49966 53025 22200 00100 11020 70098 333 90710 91154
BBXX 63110 24184 99595 10015 47496 /2229 10080 20059 49983 55017 704// 22200 10709 70045
BBXX 63106 24184 99610 10017 46/// /2335 10081 49916 56027 22200
BBXX 63105 24184 99610 10017 47596 ///// 10088 20069 49920 56024 751// 22200
BBXX 62304 24184 99511 10018 46/98 /2525 11003 21047 40297 56006 22200 00105 10601 70007 333 90710 91128
BBXX 62103 24184 99499 70029 46/99 /2828 10105 20063 40308 56015 22200 00120 10804 70021 333 90710 91140
BBXX WDB9950 24183 99411 71284 41/// /2215 10110 20092 40320 54/// 701// 8//// 22274 00110 2//01 330// 4//02 5//// 6//// 80100 ICE /////
BBXX ONFP 24183 99131 30765 43796 61124 10270 2023/ 40110 54/// 7//11 85463 22213 00276 20306 31211 40205 50204 6//// 80240 ICE /////
BBXX 9HJI9 24184 99370 11504 418// /3618 10200 2//// 4//// 54/// 7//// 8//// 22254 0//// 2//// 3//// 4//// 5//// 6//// 8//// ICE /////
BBXX A8PI5 24181 99103 70755 41598 33305 10290 20235 40100 54000 70322 811// 22200 20101 80250
BBXX WDB9950 24183 99411 71284 41/// /2215 10110 20092 40320 54/// 701// 8//// 22274 00110 2//01 330// 4//02 5//// 6//// 80100 ICE /////
BBXX ONFP 24183 99131 30765 43796 61124 10270 2023/ 40110 54/// 7//11 85463 22213 00276 20306 31211 40205 50204 6//// 80240 ICE /////
BBXX 3ELR6 24183 99121 31296 41497 51507 10280 20253 40008 57009 71322 8//// 22264 06330 2//01 80260
BBXX BSH03 24181 99540 10081 46/// ///// 22200 00058 20804 70020
BBXX BSH05 24181 99549 10082 46/// ///// 22200 20803 70014
BBXX BSH02 24181 99542 10079 46/// ///// 22200 00072 20904 70018
BBXX PHAM 24183 99480 70058 41/98 72525 10120 20039 40355 57005 70222 877// 22283 20504 329// 40905 80080 90744
OOXX RUP58 24161 99442 11320 ///// 01121 26/// /0203 11199 29049 30032 91652 333 60000
OOXX RUP58 24171 99442 11320 ///// 01121 26/// /0303 11199 29048 30033 91702 333 60000
OOXX RUP58 24171 99442 11320 ///// 01121 26/// /0202 11198 29047 30033 91712 333 60000
OOXX RUP58 24171 99442 11320 ///// 01121 26/// /0203 11199 29048 30034 91722 333 60000
OOXX RUP58 24171 99442 11320 ///// 01121 26/// /0103 11199 29048 30033 91732 333 60000
OOXX RUP58 24171 99442 11320 ///// 01121 26/// /0403 11199 29048 30033 91742 333 60000
OOXX RUP58 24171 99442 11320 ///// 01121 26/// /0302 11200 29049 30033 91752 333 60000
OOXX RUP58 24181 99442 11320 ///// 01121 26/// /0302 11200 29049 30032 91802 333 60000
OOXX RUP58 24181 99442 11320 ///// 01121 26/// /0102 11200 29049 30032 91812 333 60000
OOXX RUP58 24181 99442 11320 ///// 01121 26/// /0202 11200 29050 30032 91822 333 60000
OOXX RUP58 24181 99442 11320 ///// 01121 26/// /3602 11200 29050 30031 91832 333 60000
OOXX RUP58 24181 99442 11320 ///// 01121 26/// /0302 11200 29050 30032 91842 333 60000
OOXX GBP67 24161 99159 50057 ///// 04381 26/// /0403 10179 29079 39664 91620 333 60000
OOXX GBP67 24161 99159 50057 ///// 04381 26/// /0303 10179 29082 39665 91630 333 60000
OOXX GBP67 24161 99159 50057 ///// 04381 26/// /0304 10176 29082 39665 91640 333 60000
OOXX GBP67 24161 99159 50057 ///// 04381 26/// /0104 10173 29083 39665 91650 333 60000
OOXX GBP67 24171 99159 50057 ///// 04381 26/// /0403 10175 29080 39665 91700 333 60000
OOXX GBP67 24171 99159 50057 ///// 04381 26/// /0304 10175 29081 39664 91710 333 60000
OOXX GBP67 24171 99159 50057 ///// 04381 26/// /0302 10172 29083 39664 91720 333 60000
OOXX GBP67 24171 99159 50057 ///// 04381 26/// /0303 10172 29083 39664 91730 333 60000
OOXX GBP67 24171 99159 50057 ///// 04381 26/// /0303 10171 29085 39666 91740 333 60000
OOXX GBP67 24171 99159 50057 ///// 04381 26/// /0403 10168 29090 39666 91750 333 60000
OOXX GBP67 24181 99159 50057 ///// 04381 26/// /0903 10165 29090 39668 91800 333 60000
OOXX GBP67 24181 99159 50057 ///// 04381 26/// /0904 10164 29090 39667 91810 333 60000
OOXX ARP01 24161 99345 50585 ///// 00311 26/// /1101 10093 29029 30237 91610 333 60000
OOXX ARP01 24161 99345 50585 ///// 00311 26/// /1401 10093 29029 30236 91620 333 60000
OOXX ARP01 24161 99345 50585 ///// 00311 26/// /1101 10094 29030 30234 91630 333 60000
OOXX ARP01 24161 99345 50585 ///// 00311 26/// /1101 10095 29029 30233 91640 333 60000
OOXX ARP01 24161 99345 50585 ///// 00311 26/// /1101 10094 29030 30232 91650 333 60000
OOXX ARP01 24171 99345 50585 ///// 00311 26/// /1101 10095 29030 30231 91700 333 60000
OOXX ARP01 24171 99345 50585 ///// 00311 26/// /1101 10095 29030 30228 91710 333 60000
OOXX ARP01 24171 99345 50585 ///// 00311 26/// /1101 10096 29030 30227 91720 333 60000
OOXX ARP01 24171 99345 50585 ///// 00311 26/// /1101 10097 29030 30227 91730 333 60000
OOXX ARP01 24171 99345 50585 ///// 00311 26/// /1101 10096 29030 30225 91740 333 60000
OOXX ARP01 24171 99345 50585 ///// 00311 26/// /1101 10097 29030 30224 91750 333 60000
OOXX ARP01 24181 99345 50585 ///// 00311 26/// /1101 10096 29029 30224 91800 333 60000
OOXX SEP63 24161 99594 10180 ///// 00401 26/// /1702 10006 29084 30030 91610 333 60000
OOXX SEP63 24161 99594 10180 ///// 00401 26/// /1602 10005 29084 30040 91620 333 60000
OOXX SEP63 24161 99594 10180 ///// 00401 26/// /1602 10005 29083 30040 91630 333 60000
OOXX SEP63 24161 99594 10180 ///// 00401 26/// /1502 10005 29083 30040 91640 333 60000
OOXX SEP63 24161 99594 10180 ///// 00401 26/// /1702 10005 29083 30040 91650 333 60000
OOXX SEP63 24171 99594 10180 ///// 00401 26/// /1602 10005 29083 30040 91700 333 60000
OOXX SEP63 24171 99594 10180 ///// 00401 26/// /1201 10004 29083 30040 91710 333 60000
OOXX SEP63 24171 99594 10180 ///// 00401 26/// /1501 10003 29083 30050 91720 333 60000
OOXX SEP63 24171 99594 10180 ///// 00401 26/// /0901 10003 29083 30050 91730 333 60000
OOXX SEP63 24171 99594 10180 ///// 00401 26/// /1002 10002 29084 30050 91740 333 60000
OOXX SEP63 24171 99594 10180 ///// 00401 26/// /1102 10001 29084 30050 91750 333 60000
OOXX SEP63 24181 99594 10180 ///// 00401 26/// /1501 10000 29085 30050 91800 333 60000
OOXX MXP44 24161 99280 71140 ///// 00041 26/// /1422 10112 29054 30230 91610 333 60000
OOXX MXP44 24161 99280 71140 ///// 00041 26/// /1422 10111 29054 30230 91620 333 60000
OOXX MXP44 24161 99280 71140 ///// 00041 26/// /1422 10111 29054 30231 91630 333 60000
OOXX MXP44 24161 99280 71140 ///// 00041 26/// /1422 10114 29054 30232 91640 333 60000
OOXX MXP44 24161 99280 71140 ///// 00041 26/// /1422 10129 29055 30232 91650 333 60000
OOXX MXP44 24171 99280 71140 ///// 00041 26/// /1422 10133 29055 30233 91700 333 60000
OOXX MXP44 24171 99280 71140 ///// 00041 26/// /1422 10135 29055 30233 91710 333 60000
OOXX MXP44 24171 99280 71140 ///// 00041 26/// /1422 10135 29055 30234 91720 333 60000
OOXX MXP44 24171 99280 71140 ///// 00041 26/// /1422 10142 29055 30233 91730 333 60000
OOXX MXP44 24171 99280 71140 ///// 00041 26/// /1422 10148 29055 30231 91740 333 60000
OOXX MXP44 24171 99280 71140 ///// 00041 26/// /1422 10152 29055 30231 91750 333 60000
OOXX MXP44 24181 99280 71140 ///// 00041 26/// /1422 10154 29055 30230 91800 333 60000
OOXX USP77 24151 99193 11666 ///// 00061 26/// /0802 10432 29085 30089 91503 333 60000
OOXX USP77 24151 99193 11666 ///// 00061 26/// /0703 10435 29085 30087 91513 333 60000
OOXX USP77 24151 99193 11666 ///// 00061 26/// /0703 10437 29085 30088 91523 333 60000
OOXX USP77 24151 99193 11666 ///// 00061 26/// /0703 10438 29085 30087 91533 333 60000
OOXX USP77 24151 99193 11666 ///// 00061 26/// /0802 10439 29084 30088 91543 333 60000
OOXX USP77 24151 99193 11666 ///// 00061 26/// /0802 10441 29084 30089 91553 333 60000
OOXX USP77 24161 99193 11666 ///// 00061 26/// /0703 10442 29084 30089 91603 333 60000
OOXX USP77 24161 99193 11666 ///// 00061 26/// /0703 10443 29083 30090 91613 333 60000
OOXX USP77 24161 99193 11666 ///// 00061 26/// /0703 10445 29082 30090 91623 333 60000
OOXX USP77 24161 99193 11666 ///// 00061 26/// /0703 10446 29082 30091 91633 333 60000
OOXX USP77 24161 99193 11666 ///// 00061 26/// /0704 10446 29081 30091 91643 333 60000
OOXX USP77 24161 99193 11666 ///// 00061 26/// /0604 10445 29079 30093 91653 333 60000
OOXX PAP50 24151 99090 70795 ///// 00901 26/// /1901 10312 29052 30007 91540 333 60000
OOXX PAP50 24151 99090 70795 ///// 00901 26/// /2301 10317 29050 30007 91550 333 60000
OOXX PAP50 24161 99090 70795 ///// 00901 26/// /2901 10324 29049 30005 91600 333 60000
OOXX PAP50 24161 99090 70795 ///// 00901 26/// /2302 10323 29048 30003 91610 333 60000
OOXX PAP50 24161 99090 70795 ///// 00901 26/// /2501 10310 29050 30000 91620 333 60000
OOXX PAP50 24161 99090 70795 ///// 00901 26/// /2201 10310 29052 30000 91630 333 60000
OOXX PAP50 24161 99090 70795 ///// 00901 26/// /2102 10303 29055 30000 91640 333 60000
OOXX PAP50 24161 99090 70795 ///// 00901 26/// /1702 10299 29055 30000 91650 333 60000
OOXX PAP50 24171 99090 70795 ///// 00901 26/// /2202 10303 29054 39999 91700 333 60000
OOXX PAP50 24171 99090 70795 ///// 00901 26/// /0000 10316 29049 39999 91710 333 60000
OOXX PAP50 24171 99090 70795 ///// 00901 26/// /2301 10319 29047 39996 91720 333 60000
OOXX PAP50 24171 99090 70795 ///// 00901 26/// /0302 10309 29046 39993 91730 333 60000
OOXX AUP04 24171 99377 31451 ///// 00311 26/// /2202 10185 29089 30029 91707 333 60000
OOXX AUP04 24171 99377 31451 ///// 00311 26/// /2503 10184 29090 30034 91717 333 60000
OOXX AUP04 24171 99377 31451 ///// 00311 26/// /2701 10183 29090 30033 91727 333 60000
OOXX AUP04 24171 99377 31451 ///// 00311 26/// /3501 10181 29091 30031 91737 333 60000
OOXX AUP04 24171 99377 31451 ///// 00311 26/// /0202 10181 29091 30017 91747 333 60000
OOXX AUP04 24171 99377 31451 ///// 00311 26/// /0502 10181 29089 30000 91757 333 60000
OOXX AUP04 24181 99377 31451 ///// 00311 26/// /3604 10183 29088 30002 91807 333 60000
OOXX AUP04 24181 99377 31451 ///// 00311 26/// /3603 10188 29084 30005 91817 333 60000
OOXX AUP04 24181 99377 31451 ///// 00311 26/// /3503 10187 29085 30005 91827 333 60000
OOXX AUP04 24181 99377 31451 ///// 00311 26/// /3503 10185 29087 30007 91837 333 60000
OOXX AUP04 24181 99377 31451 ///// 00311 26/// /0102 10185 29087 30006 91847 333 60000
OOXX AUP04 24181 99377 31451 ///// 00311 26/// /1102 10184 29087 30007 91857 333 60000
OOXX AUP07 24161 99/// ///// ///// ///// 26/// /2707 10073 29095 30055 91649 333 60000
OOXX AUP07 24161 99/// ///// ///// ///// 26/// /2807 10073 29095 30056 91659 333 60000
OOXX AUP07 24171 99/// ///// ///// ///// 26/// /2707 10073 29095 30056 91709 333 60000
OOXX AUP07 24171 99/// ///// ///// ///// 26/// /2807 10072 29095 30057 91719 333 60000
OOXX AUP07 24171 99/// ///// ///// ///// 26/// /2708 10071 29095 30057 91729 333 60000
OOXX AUP07 24171 99/// ///// ///// ///// 26/// /2806 10069 29095 30057 91739 333 60000
OOXX AUP07 24171 99/// ///// ///// ///// 26/// /2707 10069 29095 30059 91749 333 60000
OOXX AUP07 24171 99/// ///// ///// ///// 26/// /2706 10070 29095 30058 91759 333 60000
OOXX AUP07 24181 99/// ///// ///// ///// 26/// /2806 10070 29095 30059 91809 333 60000
OOXX AUP07 24181 99/// ///// ///// ///// 26/// /2806 10071 29095 30060 91819 333 60000
OOXX AUP07 24181 99/// ///// ///// ///// 26/// /2806 10071 29095 30062 91829 333 60000
OOXX AUP07 24181 99/// ///// ///// ///// 26/// /2805 10071 29095 30062 91839 333 60000
OOXX CAP14 24161 99487 71234 ///// 00431 26/// /1501 10078 29087 30223 91630 333 60000
OOXX CAP14 24161 99487 71234 ///// 00431 26/// /1502 10078 29087 30222 91640 333 60000
OOXX CAP14 24161 99487 71234 ///// 00431 26/// /1502 10078 29087 30224 91650 333 60000
OOXX CAP14 24171 99487 71234 ///// 00431 26/// /1503 10079 29086 30224 91700 333 60000
OOXX CAP14 24171 99487 71234 ///// 00431 26/// /1503 10079 29086 30225 91710 333 60000
OOXX CAP14 24171 99487 71234 ///// 00431 26/// /1503 10080 29086 30225 91720 333 60000
OOXX CAP14 24171 99487 71234 ///// 00431 26/// /1503 10079 29086 30226 91730 333 60000
OOXX CAP14 24171 99487 71234 ///// 00431 26/// /1403 10079 29087 30227 91740 333 60000
OOXX CAP14 24171 99487 71234 ///// 00431 26/// /1404 10078 29087 30227 91750 333 69920
OOXX CAP14 24181 99487 71234 ///// 00431 26/// /1304 10077 29087 30228 91800 333 60000
OOXX CAP14 24181 99487 71234 ///// 00431 26/// /1304 10076 29087 30228 91810 333 69920
OOXX CAP14 24181 99487 71234 ///// 00431 26/// /1403 10075 29088 30227 91820 333 60000
OOXX MYP42 24161 99045 11014 ///// 15551 26/// /0305 10173 29095 38416 91604 333 60000
OOXX MYP42 24161 99045 11014 ///// 15551 26/// /2401 10176 29095 38425 91614 333 60000
OOXX MYP42 24161 99045 11014 ///// 15551 26/// /3603 10174 29095 38431 91624 333 60000
OOXX MYP42 24161 99045 11014 ///// 15551 26/// /0804 10170 29096 38405 91634 333 60000
OOXX MYP42 24161 99045 11014 ///// 15551 26/// /0503 10178 29095 38421 91644 333 60000
OOXX MYP42 24161 99045 11014 ///// 15551 26/// /1103 10173 29095 38423 91654 333 60000
OOXX MYP42 24171 99045 11014 ///// 15551 26/// /0706 10174 29095 38421 91704 333 60000
OOXX MYP42 24171 99045 11014 ///// 15551 26/// /0204 10172 29096 38412 91714 333 60000
OOXX MYP42 24171 99045 11014 ///// 15551 26/// /3605 10175 29096 38410 91724 333 60000
OOXX MYP42 24171 99045 11014 ///// 15551 26/// /0705 10175 29095 38423 91734 333 60000
OOXX MYP42 24171 99045 11014 ///// 15551 26/// /1409 10174 29095 38410 91744 333 60000
OOXX MYP42 24171 99045 11014 ///// 15551 26/// /0209 10174 29095 38399 91754 333 60000
OOXX RUP54 24161 99586 10494 ///// 01271 26/// /0000 11168 29089 30006 91627 333 60120
OOXX RUP54 24161 99586 10494 ///// 01271 26/// /0000 11166 29089 30005 91637 333 60120
OOXX RUP54 24161 99586 10494 ///// 01271 26/// /0000 11163 29089 30004 91647 333 60120
OOXX RUP54 24161 99586 10494 ///// 01271 26/// /0000 11160 29089 30005 91657 333 60120
OOXX RUP54 24171 99586 10494 ///// 01271 26/// /0000 11158 29089 30005 91707 333 60120
OOXX RUP54 24171 99586 10494 ///// 01271 26/// /0000 11156 29089 30005 91717 333 60120
OOXX RUP54 24171 99586 10494 ///// 01271 26/// /0000 11153 29089 30006 91727 333 60120
OOXX RUP54 24171 99586 10494 ///// 01271 26/// /0000 11151 29089 30007 91737 333 60120
OOXX RUP54 24171 99586 10494 ///// 01271 26/// /0000 11149 29089 30007 91747 333 60120
OOXX RUP54 24171 99586 10494 ///// 01271 26/// /0000 11148 29089 30006 91757 333 60120
OOXX RUP54 24181 99586 10494 ///// 01271 26/// /0000 11146 29089 30006 91807 333 60120
OOXX RUP54 24181 99586 10494 ///// 01271 26/// /0000 11144 29088 30006 91817 333 60120
OOXX CAP17 24161 99476 70527 ///// 01331 26/// /3506 11059 29081 39988 91600 333 60000
OOXX CAP17 24161 99476 70527 ///// 01331 26/// /3606 11062 29079 39988 91610 333 60000
OOXX CAP17 24161 99476 70527 ///// 01331 26/// /3506 11061 29080 39987 91620 333 60000
OOXX CAP17 24161 99476 70527 ///// 01331 26/// /3606 11064 29078 39987 91630 333 60000
OOXX CAP17 24161 99476 70527 ///// 01331 26/// /3506 11063 29079 39990 91640 333 60000
OOXX CAP17 24161 99476 70527 ///// 01331 26/// /3506 11066 29078 39989 91650 333 60000
OOXX CAP17 24171 99476 70527 ///// 01331 26/// /3406 11065 29077 39991 91700 333 60000
OOXX CAP17 24171 99476 70527 ///// 01331 26/// /3504 11066 29076 39990 91710 333 60000
OOXX CAP17 24171 99476 70527 ///// 01331 26/// /3505 11066 29076 39989 91720 333 60000
OOXX CAP17 24171 99476 70527 ///// 01331 26/// /3406 11066 29077 39992 91730 333 60000
OOXX CAP17 24171 99476 70527 ///// 01331 26/// /3505 11069 29076 39991 91740 333 60000
OOXX CAP17 24171 99476 70527 ///// 01331 26/// /3406 11072 29074 39990 91750 333 60000
OOXX RUP59 24161 99539 10848 ///// 02121 26/// /0000 11247 29076 39994 91640 333 60000
OOXX RUP59 24161 99539 10848 ///// 02121 26/// /0000 11248 29076 39994 91650 333 60000
OOXX RUP59 24171 99539 10848 ///// 02121 26/// /0000 11249 29076 39994 91700 333 60000
OOXX RUP59 24171 99539 10848 ///// 02121 26/// /0000 11251 29075 39992 91710 333 60000
OOXX RUP59 24171 99539 10848 ///// 02121 26/// /0000 11253 29075 39992 91720 333 60000
OOXX RUP59 24171 99539 10848 ///// 02121 26/// /0000 11251 29076 39992 91730 333 60000
OOXX RUP59 24171 99539 10848 ///// 02121 26/// /0000 11253 29075 39991 91740 333 60000
OOXX RUP59 24171 99539 10848 ///// 02121 26/// /0000 11255 29075 39990 91750 333 60000
OOXX RUP59 24181 99539 10848 ///// 02121 26/// /0000 11258 29074 39991 91800 333 60000
OOXX RUP59 24181 99539 10848 ///// 02121 26/// /0000 11258 29074 39990 91810 333 60000
OOXX RUP59 24181 99539 10848 ///// 02121 26/// /0000 11259 29074 39991 91820 333 60000
OOXX RUP59 24181 99539 10848 ///// 02121 26/// /0000 11257 29075 39991 91830 333 60000
OOXX AUP09 24161 99124 31309 ///// 00321 26/// ///// 1//// 29/// 3//// 91614 333 6///0
OOXX AUP09 24161 99124 31309 ///// 00321 26/// ///// 1//// 29/// 3//// 91624 333 6///0
OOXX AUP09 24161 99124 31309 ///// 00321 26/// ///// 1//// 29/// 3//// 91634 333 6///0
OOXX AUP09 24161 99124 31309 ///// 00321 26/// ///// 1//// 29/// 3//// 91644 333 6///0
OOXX AUP09 24161 99124 31309 ///// 00321 26/// ///// 1//// 29/// 3//// 91654 333 6///0
OOXX AUP09 24171 99124 31309 ///// 00321 26/// ///// 1//// 29/// 3//// 91704 333 6///0
OOXX AUP09 24171 99124 31309 ///// 00321 26/// ///// 1//// 29/// 3//// 91714 333 6///0
OOXX AUP09 24171 99124 31309 ///// 00321 26/// ///// 1//// 29/// 3//// 91724 333 6///0
OOXX AUP09 24171 99124 31309 ///// 00321 26/// ///// 1//// 29/// 3//// 91734 333 6///0
OOXX AUP09 24171 99124 31309 ///// 00321 26/// ///// 1//// 29/// 3//// 91744 333 6///0
OOXX AUP09 24171 99124 31309 ///// 00321 26/// ///// 1//// 29/// 3//// 91754 333 6///0
OOXX AUP09 24181 99124 31309 ///// 00321 26/// ///// 1//// 29/// 3//// 91804 333 6///0
OOXX NZP46 24161 99438 51765 ///// 00221 26/// /2502 10091 29/// 30219 91630 333 60000
OOXX NZP46 24161 99438 51765 ///// 00221 26/// /2403 10094 29/// 30220 91640 333 60000
OOXX NZP46 24161 99438 51765 ///// 00221 26/// /2302 10101 29/// 30219 91650 333 60000
OOXX NZP46 24171 99438 51765 ///// 00221 26/// /2403 10110 29/// 30219 91700 333 60000
OOXX NZP46 24171 99438 51765 ///// 00221 26/// /2403 10112 29/// 30219 91710 333 60000
OOXX NZP46 24171 99438 51765 ///// 00221 26/// /2403 10114 29/// 30220 91720 333 60000
OOXX NZP46 24171 99438 51765 ///// 00221 26/// /2203 10119 29/// 30221 91730 333 60000
OOXX NZP46 24171 99438 51765 ///// 00221 26/// /2104 10126 29/// 30222 91740 333 60000
OOXX NZP46 24171 99438 51765 ///// 00221 26/// /2104 10128 29/// 30222 91750 333 60000
OOXX NZP46 24181 99438 51765 ///// 00221 26/// /2004 10127 29/// 30222 91800 333 60000
OOXX NZP46 24181 99438 51765 ///// 00221 26/// /1903 10133 29099 30222 91810 333 60000
OOXX NZP46 24181 99438 51765 ///// 00221 26/// /1903 10139 29096 30224 91820 333 60000
OOXX MRP43 24161 99181 70159 ///// 00101 26/// /0606 10282 29007 30141 91640 333 60000
OOXX MRP43 24161 99181 70159 ///// 00101 26/// /0606 10280 29007 30142 91650 333 60000
OOXX MRP43 24171 99181 70159 ///// 00101 26/// /0606 10278 29007 30139 91700 333 60000
OOXX MRP43 24171 99181 70159 ///// 00101 26/// /0606 10280 29007 30140 91710 333 60000
OOXX MRP43 24171 99181 70159 ///// 00101 26/// /0606 10280 29007 30141 91720 333 60000
OOXX MRP43 24171 99181 70159 ///// 00101 26/// /0606 10278 29007 30141 91730 333 60000
OOXX MRP43 24171 99181 70159 ///// 00101 26/// /0606 10277 29008 30141 91740 333 60000
OOXX MRP43 24171 99181 70159 ///// 00101 26/// /0605 10274 29008 30143 91750 333 60000
OOXX MRP43 24181 99181 70159 ///// 00101 26/// /0605 10271 29008 30143 91800 333 60000
OOXX MRP43 24181 99181 70159 ///// 00101 26/// /0505 10270 29008 30144 91810 333 60000
OOXX MRP43 24181 99181 70159 ///// 00101 26/// /0404 10268 29008 30143 91820 333 60000
OOXX MRP43 24181 99181 70159 ///// 00101 26/// /0404 10264 29009 30143 91830 333 60000
OOXX MRP43 24181 99181 70159 ///// 00101 26/// /0404 10262 29009 30146 91840 333 60000
OOXX KIP39 24161 99020 51574 ///// 00181 26/// /1204 10248 29086 30096 91630 333 60000
OOXX KIP39 24161 99020 51574 ///// 00181 26/// /1204 10249 29085 30097 91640 333 60000
OOXX KIP39 24161 99020 51574 ///// 00181 26/// /1204 10249 29086 30098 91650 333 60000
OOXX KIP39 24171 99020 51574 ///// 00181 26/// /1204 10250 29085 30099 91700 333 60000
OOXX KIP39 24171 99020 51574 ///// 00181 26/// /1204 10253 29085 30101 91710 333 60000
OOXX KIP39 24171 99020 51574 ///// 00181 26/// /1204 10253 29084 30103 91720 333 60000
OOXX KIP39 24171 99020 51574 ///// 00181 26/// /1204 10256 29083 30104 91730 333 60000
OOXX KIP39 24171 99020 51574 ///// 00181 26/// /1204 10258 29082 30103 91740 333 60000
OOXX KIP39 24171 99020 51574 ///// 00181 26/// /1205 10259 29081 30105 91750 333 60000
OOXX KIP39 24181 99020 51574 ///// 00181 26/// /1205 10262 29080 30107 91800 333 60000
OOXX KIP39 24181 99020 51574 ///// 00181 26/// /1204 10263 29080 30108 91810 333 60000
OOXX KIP39 24181 99020 51574 ///// 00181 26/// /1105 10264 29079 30109 91820 333 60000
OOXX GBP68 24161 99371 50123 ///// 00641 26/// /3508 10000 29091 30144 91610 333 60000
OOXX GBP68 24161 99371 50123 ///// 00641 26/// /3508 10000 29091 30142 91620 333 60000
OOXX GBP68 24161 99371 50123 ///// 00641 26/// /3508 10000 29091 30143 91630 333 60000
OOXX GBP68 24161 99371 50123 ///// 00641 26/// /3508 10000 29093 30143 91640 333 60000
OOXX GBP68 24161 99371 50123 ///// 00641 26/// /3507 11155 29093 30145 91650 333 60000
OOXX GBP68 24171 99371 50123 ///// 00641 26/// /3507 11109 29093 30144 91700 333 60000
OOXX GBP68 24171 99371 50123 ///// 00641 26/// /3507 10000 29093 30142 91710 333 60000
OOXX GBP68 24171 99371 50123 ///// 00641 26/// /3507 10010 29094 30142 91720 333 60000
OOXX GBP68 24171 99371 50123 ///// 00641 26/// /3507 11141 29094 30143 91730 333 60000
OOXX GBP68 24171 99371 50123 ///// 00641 26/// /3507 11315 29094 30141 91740 333 60000
OOXX GBP68 24171 99371 50123 ///// 00641 26/// /3507 10000 29094 30142 91750 333 60000
OOXX GBP68 24181 99371 50123 ///// 00641 26/// /3505 10000 29094 30144 91800 333 60000
OOXX AUP06 24161 99192 31468 ///// 00071 26/// /0504 10264 29081 30035 91653 333 60000
OOXX AUP06 24171 99192 31468 ///// 00071 26/// /0604 10267 29079 30035 91703 333 60000
OOXX AUP06 24171 99192 31468 ///// 00071 26/// /0604 10266 29080 30035 91713 333 60000
OOXX AUP06 24171 99192 31468 ///// 00071 26/// /0404 10267 29080 30035 91723 333 60000
OOXX AUP06 24171 99192 31468 ///// 00071 26/// /0404 10269 29078 30036 91733 333 60000
OOXX AUP06 24171 99192 31468 ///// 00071 26/// /0404 10267 29080 30036 91743 333 60000
OOXX AUP06 24171 99192 31468 ///// 00071 26/// /0504 10268 29079 30036 91753 333 60000
OOXX AUP06 24181 99192 31468 ///// 00071 26/// /0504 10267 29080 30037 91803 333 60000
OOXX AUP06 24181 99192 31468 ///// 00071 26/// /0604 10269 29080 30038 91813 333 60000
OOXX AUP06 24181 99192 31468 ///// 00071 26/// /0604 10271 29078 30039 91823 333 60000
OOXX AUP06 24181 99192 31468 ///// 00071 26/// /0504 10270 29078 30038 91833 333 60000
OOXX AUP06 24181 99192 31468 ///// 00071 26/// /0504 10268 29080 30037 91843 333 60000
AAXX 24184 97270 31450 70000 10258 20246 30053 40057 56013 70522 84811 333 56000 83815
OOXX AAEMI 24184 99785 31731 57083 00521 46/// /2905 11061 21116 39851 49917 52012 91810
OOXX AAPEG 24184 99779 31666 57186 00051 46/// /0802 10003 21083 39873 49879 52014 91810
OOXX AABRI 24184 99839 51342 60134 05251 46/// /0621 11026 21214 39240 49852 5//// 91810
OOXX AAMIZ 24184 99707 30443 58304 22602 46/// /1107 11195 2//// 37341 49575 5//// 91810
AAXX 24184 91559 46/// /0000 10247 40029 22200 00282
AAXX 24183 87007 32580 60505 10195 20017 36746 47146 57021 83505 333 56808 83630 83280
AAXX 24184 71386 16/// /2909 11159 21203 30087 40305 56004 60001 333 11151 21177 70000
AAXX 24184 71389 46/// /1903 11140 21203 6///1 333 11098 21250 7////
AAXX 24184 71713 16/// /0603 11143 21202 60001 333 11142 21181 70010
AAXX 24184 71775 46/// /0305 10053 20047 30305 40311 53007 6///1 333 10054 20033 7////
OOXX AAERI 24184 99849 51288 60048 09901 46/// /0821 11040 21060 38811 49918 5//// 91810
AAXX 24184 71386 16/// /2909 11159 21203 30087 40305 56004 60001 333 11151 21177 70000
AAXX 24184 71389 46/// /1903 11140 21203 6///1 333 11098 21250 7////
OOXX AAERC 24184 99815 31639 60713 00451 46/// /3005 11011 21051 39816 49871 52013 91800
OOXX AAVIT 24184 99785 31778 57087 00501 46/// /2704 11002 21087 39822 49883 5//// 91810
OOXX AALAU 24184 99775 31708 57070 00371 46/// /3506 11032 21062 39831 49877 5//// 91800
BBXX VRGO8 24184 99304 11295 41/96 /3040 10090 20049 40238 52010 76455 8//// 22234 00210 2//// 3//// 4//// 80070
BBXX S6JT 24184 99520 71360 41397 62026 10085 20074 40040 57040 71022 84778 22264 04070 20303 303// 40909 80080
BBXX WDB9950 24183 99411 71284 41/// /2215 10110 20092 40320 54/// 701// 8//// 22274 00110 2//01 330// 4//02 5//// 6//// 80100 ICE /////
AAXX 24184 97560 32460 70000 10260 20242 30032 40047 56012 84948 333 56000 57901 57803 81917 83818 85361 87279 80980 80860
AAXX 24184 91531 46/// /0606 1//// 40035 22200 00273
BBXX 46078 24181 99561 71526 46/// /3109 1//// 91800 555 11100 22106
BBXX 46078 24181 99561 71526 46/// /3109 1//// 91800 555 11100 22106
AAXX 24184 42398 31995 00000 10105 20103 40147 71000 333 58004
AAXX 24184 97630 32450 40106 10248 20236 39883 40042 56011 69961 84931 333 56000 57902 81910 83811 80974
BBXX 44056 24181 99362 70757 46/// ///// 1//// 91820 22200 00124 10702 20702 70009
AAXX 24184 71665 16/// /3135 11166 21256 30106 40116 50009 60001 333 11162 21210 70000
AAXX 24184 71451 16/// /2707 11006 21036 39603 40028 52004 60001 333 10000 21115 70006 555 10040
AAXX 24184 71868 16/// /2506 10015 21061 39643 40086 58005 60001 333 10016 21090 70000
AAXX 24184 71170 16/// /2720 11003 21049 60001 333 11003 21130 70000
AAXX 24184 71016 16/// ///// 10042 60001 333 10042 21002 70000
AAXX 24184 71550 16/// /2619 10020 21050 39725 40101 58003 60001 333 10020 21094 70000
BBXX 46109 24181 99481 71234 46/// /0904 10070 40289 91757 22200 00077
BBXX 46110 24181 99481 71230 46/// /0701 10071 40295 91758
AAXX 24184 71868 16/// /2506 10015 21061 39643 40086 58005 60001 333 10016 21090 70000
AAXX 24184 71665 16/// /3135 11166 21256 30106 40116 50009 60001 333 11162 21210 70000
AAXX 24184 71016 16/// ///// 10042 60001 333 10042 21002 70000
AAXX 24184 71550 16/// /2619 10020 21050 39725 40101 58003 60001 333 10020 21094 70000
AAXX 24184 71451 16/// /2707 11006 21036 39603 40028 52004 60001 333 10000 21115 70006 555 10040
AAXX 24184 71170 16/// /2720 11003 21049 60001 333 11003 21130 70000
AAXX 24184 91642 46/// /0000 1//// 40050 22200 0////
AAXX 2418/ 89866 46/// ///// 11023 39766 4//// 5//// 91840
AAXX 2418/ 89329 46/// ///// 11058 38777 4//// 5//// 91840
AAXX 2418/ 89799 46/// ///// 11156 4//// 5//// 91840
AAXX 2418/ 89868 46/// ///// 11006 39831 4//// 5//// 91840
AAXX 2418/ 89769 46/// ///// 11034 39840 4//// 5//// 91840
AAXX 2418/ 89108 46/// ///// 11160 37005 4//// 5//// 91840
AAXX 2418/ 89879 46/// ///// 10000 39788 4//// 5//// 91840
AAXX 2418/ 89314 46/// ///// 11043 38273 4//// 5//// 91840
AAXX 24184 89667 46/// /0802 11008 29051 39874 4//// 5//// 91840
AAXX 24184 89667 46/// /0803 11012 39874 4//// 5//// 91830
BBXX ONFP 24183 99131 30765 43796 61124 10270 2023/ 40110 54/// 7//11 85463 22213 00276 20306 31211 40205 50204 6//// 80240 /////
AAXX 24184 89807 46/// /1415 11008 29100 39788 4//// 5//// 91830 333 90700 91120
AAXX 24184 89807 46/// /1415 11008 29100 39788 4//// 5//// 91830 333 90700 91120
AAXX 24184 86330 11597 81217 10152 20134 40202 50005 69901 76062 8657/
AAXX 24184 86360 32697 71516 10228 20067 40213 57010 84570
AAXX 24184 86460 NIL
AAXX 24184 86490 32697 21510 10234 20076 40228 58011 82105
AAXX 24184 86530 32597 51809 10224 20163 40219 57009 84205
AAXX 24184 86545 32597 51815 10210 20111 40236 54000 85200
AAXX 24184 86565 32597 21806 10196 20090 40226 51001 81105
AAXX 24184 86580 32697 31509 10192 20094 40241 50002 83400
AAXX 24184 89108 46/// /1612 11156 37004 4//// 5//// 91810
AAXX 24184 89314 46/// /0818 11050 38260 4//// 5//// 91810
AAXX 24184 89329 46/// /0408 11054 38774 49832 5//// 91810
AAXX 24184 89332 46/// /0714 11011 39209 49809 5//// 91810
AAXX 24184 89376 46/// /2505 11038 39788 49855 52008 91800
AAXX 24184 89667 46/// /0802 10003 39873 49883 52014 91810
AAXX 24184 89734 46/// /1718 11256 35992 4//// 5//// 91820
AAXX 24184 89744 46/// /0708 11237 36350 4//// 5//// 91820
AAXX 24184 89769 46/// /2706 11036 39816 49868 5//// 91810
AAXX 24184 89799 46/// /0414 11160 36789 4//// 5//// 91820
AAXX 24184 89828 46/// /2804 11310 36508 4//// 5//// 91810
AAXX 24184 89832 46/// /1608 11057 39608 49906 52001 91810
AAXX 24184 89834 46/// /1609 11127 38173 4//// 54000 91810
AAXX 24184 89865 46/// ///// 1//// 3//// 4//// 5//// 91810
AAXX 24184 89866 46/// /3205 11012 39733 49865 52014 91810
AAXX 24184 89868 46/// ///02 11038 39799 49866 5//// 91800
AAXX 24184 89869 46/// /1305 11048 39790 49869 52021 91810
AAXX 24184 89872 46/// /0000 11009 39819 49874 52014 91800
AAXX 24184 89873 46/// /2204 11016 39787 49863 5//// 91810
AAXX 24184 89879 46/// ///01 10000 39767 49804 5//// 91810
AAXX 24184 82398 32570 20812 10287 20211 30072 40101 82 200 333 58007
BBXX 44055 24181 99391 70753 46/// ///// 1//// 91830 22200 00090 1//00 70002
BBXX C6VG8 24184 99368 70742 41/// /3222 10080 2//// 40230 5//// 7//// 8//// 22214 00160 20204 315// 40306 5//// 6//// 8//// ICE /////
BBXX WRAH 24183 99288 70561 41598 50410 10250 2//// 40229 56001 71522 85798 22264 00240 20101 33308 40906 50505 6//// 8//// ICE /////
AAXX 24184 71480 16/// /0802 11337 21373 30037 40166 53015 60001 333 11216 21340 70004
AAXX 24184 71364 16/// /2603 11279 21309 30028 40169 53014 60001 333 11263 21286 70000
AAXX 24184 71480 16/// /0802 11337 21373 30037 40166 53015 60001 333 11216 21340 70004
AAXX 24184 71364 16/// /2603 11279 21309 30028 40169 53014 60001 333 11263 21286 70000
AAXX 24184 97796 11450 80000 10232 20229 39993 40044 56016 60021 70522 8757/ 333 56009 87610
AAXX 24184 92036 46/// /0000 10256 40039 22200 00319
BBXX 42046 24181 99279 70940 46/// /0911 1//// 40210 91830 22200 00222 333 91212
BBXX 42046 24181 99279 70940 46/// /1011 1//// 40220 57013 91800 22200 00222 333 91213
BBXX 42047 24181 99279 70936 46/// /1010 10178 20160 40217 91830 22200 00223 333 91212
BBXX 42047 24181 99279 70936 46/// /1011 10178 20155 40219 57020 91800 22200 00223 333 91212
BBXX 46094 24181 99446 71243 46/// /1603 10091 91830
BBXX 46094 24181 99446 71243 46/// /1503 10090 91820
BBXX 46094 24181 99446 71243 46/// /1402 10090 91810
BBXX 46094 24181 99446 71243 46/// /1604 10090 91800
BBXX 46094 24181 99446 71243 46/// /2103 10090 91750
BBXX 46094 24181 99446 71243 46/// /2303 10091 91740
BBXX 63106 24184 99610 10017 46/// /2335 10081 49916 56027 22200
BBXX 63113 24184 99610 10017 46/// /2436 10087 20067 49944 55013 22200 10811 70053
BBXX 63110 24183 99595 10015 41/// /2340 10080 49976 700// 8//// 22200 10709 70045
BBXX 62304 24184 99511 10018 46/98 /2525 10097 20049 40297 56006 22200 00104 10601 70007 333 90710 91135
BBXX 62303 24184 99516 70051 46/// /2422 10112 20079 40262 57011 22200 00112 10708 70038 333 90710 91133
BBXX 64045 24184 99591 70117 46/// /2634 10079 20035 49966 53025 22200 00100 11020 70098 333 90710 91154
BBXX 62103 24184 99499 70029 46/99 /2727 10112 20063 40306 56010 22200 00120 10704 70022 333 90710 91138
AAXX 24184 93713 46/// /0000 10144 40207 22200 00163
BBXX 46109 24181 99481 71234 46/// /0904 10070 40289 91757 22200 00077
BBXX 46110 24181 99481 71230 46/// /0701 10071 40295 91758
BBXX 44056 24181 99362 70757 46/// ///// 1//// 91820 22200 00124 10702 20702 70009
BBXX 46078 24181 99561 71526 46/// /3109 1//// 91800 555 11100 22106
BBXX WRAH 24183 99288 70561 41598 50410 10250 2//// 40229 56001 71522 85798 22264 00240 20101 33308 40906 50505 6//// 8//// ICE /////
BBXX 66022 24181 99541 10142 46/// /2810 10046 30170 22200 00039
BBXX 9HJI9 24184 99370 11504 418// /3618 10200 2//// 4//// 54/// 7//// 8//// 22254 0//// 2//// 3//// 4//// 5//// 6//// 8//// ICE /////
AAXX 24184 91689 46/// /0739 10245 40060 22200 00284
BBXX ZSAF 24184 99701 50078 41499 70906 11018 21056 49754 57038 70222 875// 22224 05015 20000 31400 40601 50000 ICE 37632
BBXX FHZI 24184 99666 31400 46/// /1605 11046 21110 39936 49947 54000 22200 05018 86063
BBXX 46094 24181 99446 71243 46/// /2303 10091 91740
BBXX 46094 24181 99446 71243 46/// /2103 10090 91750
BBXX 46094 24181 99446 71243 46/// /1603 10091 91830
BBXX 46094 24181 99446 71243 46/// /1604 10090 91800
BBXX 46094 24181 99446 71243 46/// /1402 10090 91810
BBXX 46094 24181 99446 71243 46/// /1503 10090 91820
BBXX 42047 24181 99279 70936 46/// /1010 10178 20160 40217 91830 22200 00223 333 91212
BBXX 42047 24181 99279 70936 46/// /1011 10178 20155 40219 57020 91800 22200 00223 333 91212
BBXX 42046 24181 99279 70940 46/// /1011 1//// 40220 57013 91800 22200 00222 333 91213
BBXX 42046 24181 99279 70940 46/// /0911 1//// 40210 91830 22200 00222 333 91212
BBXX C6VG8 24184 99368 70742 41/// /3222 10080 2//// 40230 5//// 7//// 8//// 22214 00160 20204 315// 40306 5//// 6//// 8//// ICE /////
BBXX 44055 24181 99391 70753 46/// ///// 1//// 91830 22200 00090 1//00 70002
BBXX SHIP 24184 99337 10254 41497 63213 10140 20085 40180 54000 70311 86521 22234 00200 21204 31415 41302 80110
AAXX 2418/ 89769 46/// ///// 11034 39839 4//// 5//// 91830
AAXX 24181 98755 32575 72702 10250 20236 40063 58016 83270 333 56199 83820 87359
AAXX 24184 96633 01458 82708 10240 20238 30054 40062 57013 60131 76162 83921 333 56000 60137 81918 83618 88459
AAXX 24184 96009 11450 61107 10252 20240 30037 40072 57008 69901 70562 84922 333 56000 57902 57803 82915 82816 80965 80860
AAXX 24184 04418 NIL
AAXX 24184 04425 NIL
AAXX 24184 04432 NIL
AAXX 24184 04436 46/// /0000 11372 21408
AAXX 24184 04464 46/// /2304 11376 21413 333 553// 20004
AAXX 24184 04485 NIL
AAXX 24184 04488 46/// /2521 11409 21442 37074 57007 333 553// 20000
AAXX 24184 91367 11474 80910 10267 20228 60041 70181 84227 333 56229 84815 84460 88280 555 92418
AAXX 24184 91367 11474 80910 10267 20228 60041 70181 84227 333 56229 84815 84460 88280 555 92418
AAXX 24184 89614 46/// /1012 11050 29079 39000 4//// 5//// 91830
BBXX PHAM 24183 99480 70058 41/98 72525 10120 20039 40355 57005 70222 877// 22283 20504 329// 40905 80080 90744
BBXX KS089 24184 99389 70117 43/// /0322 10141 22243
AAXX 24184 89614 46/// /1012 11050 29079 39000 4//// 5//// 91830
BBXX ZCDQ4 24184 99390 10148 41697 32715 10150 20120 40150 51010 70301 83032 22274 00189 20401 327// 40 301 5//// 80130
BBXX ZCDQ4 24184 99390 10148 41697 32715 10150 20120 40150 51010 70301 83032 22274 00189 20401 327// 40301 5//// 80130
AAXX 24181 98132 31460 80407 10195 20155 40222 51001 70544 8427/ 333 56199 84816 88357
AAXX 24181 98133 31462 70407 10/// 20/// 40162 5//// 71544 84270 333 56199 84818 87359
AAXX 24181 98222 31575 10402 10212 20172 40116 58001 70544 81200 333 56999 81820
AAXX 24181 98233 31570 73602 10205 20183 40148 58003 70544 87500 333 56999 87620
AAXX 24181 98324 NIL
AAXX 24181 98327 NIL
AAXX 24181 98334 32460 53603 10229 20204 39929 40133 57005 82270 333 56999 82817 84359
AAXX 24181 98425 NIL
AAXX 24181 98426 21562 10605 10250 20180 40108 58009 69901 70544 81100 333 56999 81820 84358
AAXX 24181 98427 11472 80103 10226 20213 39920 40099 58001 60041 76166 8387/ 333 56199 83818 85357
AAXX 24181 98428 32458 60405 10264 20205 40106 50005 82468 333 56299 82618 84275
AAXX 24181 98432 31568 70403 10248 20215 40098 58009 70544 82270 333 56199 82820 87356
AAXX 24181 98433 11464 80405 10190 20181 39382 40107 57010 69961 70182 8487/ 333 56199 84612 88357
AAXX 24181 98434 11460 80305 10240 20226 30106 40114 58010 60011 78062 8487/ 333 56199 84817 88358
AAXX 24181 98435 11468 80404 10243 20225 40102 5//// 60051 70262 8427/ 333 56999 84818 88358
AAXX 24181 98442 NIL
AAXX 24181 98446 31460 83002 10236 20228 30046 40092 56012 71522 84207 333 56799 84818 88270
AAXX 24181 98447 11460 80906 10224 20218 39828 40093 5//// 60041 8482/ 33302 56199 84815 88456
AAXX 24181 98538 11460 10254 20244 30100 40105 58016 60061 71562 83257 333 56119 83811 84357 88272
AAXX 24181 98546 NIL
AAXX 24181 98548 11465 10000 10246 20235 30070 40076 54000 69907 70281 81100 333 56999 81816
AAXX 24181 98553 11464 63202 10258 20247 30076 40080 58004 60031 72584 84908 333 56999 81915 84818 86272
AAXX 24181 98558 11460 80407 10262 20246 40076 57004 60061 70382 8497/ 333 56999 82915 88357
AAXX 24181 98642 11462 73202 10256 20245 30058 40067 58017 60061 70382 86202 333 56199 86815 83072
AAXX 24181 98644 32465 60000 10266 20247 30064 40073 58013 81268 333 56999 81817 83358 84272
AAXX 24181 98648 11458 80000 10242 20220 30000 40082 58002 60031 71564 84967 333 56999 83912 85358 88270
AAXX 24181 98746 31462 80000 10244 20216 40070 58028 71344 8397/ 333 56999 83918 88358
AAXX 24181 98751 NIL
AAXX 24181 98752 11460 80000 10264 20259 40079 50000 69901 78022 8397/ 333 56999 83916 88358
AAXX 24181 98851 NIL
BBXX 62303 24184 99516 70051 46/// /2422 10112 20079 40262 57011 22200 00112 10707 70035 333 90710 91133
BBXX 64045 24184 99591 70117 46/// /2636 10079 20035 49966 53025 22200 00100 11020 70098 333 90710 91154
BBXX 63110 24184 99595 10015 47496 /2229 10080 20059 49983 55017 704// 22200 10709 70045
BBXX 63106 24184 99610 10017 46/// /2335 10081 49916 56027 22200
BBXX 63105 24184 99610 10017 47596 ///// 10088 20069 49920 56024 751// 22200
BBXX 62304 24184 99511 10018 46/98 /2525 11003 21047 40297 56006 22200 00105 10601 70007 333 90710 91128
BBXX 62103 24184 99499 70029 46/99 /2828 10105 20063 40308 56015 22200 00120 10804 70021 333 90710 91140
BBXX 2AUO5 24183 99608 10017 41/97 /2228 10096 20068 49939 56006 70022 8//// 22241 20706 322// 40912 80083
BBXX C6YZ5 24184 99198 70734 41998 31020 10260 2//// 40150 50/// 7//00 83//8 22224 00240 20605 309// 4//// 5//// 6//// 8//// ICE /////
BBXX 42013 24181 99272 70829 46/// ///// 1//// 40226 91820 22200 00207
BBXX 42013 24181 99272 70829 46/// ///// 1//// 40227 58016 91800 22200 00207
BBXX C6YZ5 24184 99198 70734 41998 31020 10260 2//// 40150 50/// 7//00 83//8 22224 00240 20605 309// 4//// 5//// 6//// 8//// ICE /////
BBXX ZCDQ4 24184 99390 10148 41697 32715 10150 20120 40150 51010 70301 83032 22274 00189 20401 327// 40301 5//// 80130
BBXX ZCDQ4 24184 99390 10148 41697 32715 10150 20120 40150 51010 70301 83032 22274 00189 20401 327// 40 301 5//// 80130
BBXX ZSAF 24184 99701 50078 41499 70906 11018 21056 49754 57038 70222 875// 22224 05015 20000 31400 40601 50000 ICE 37632
BBXX FHZI 24184 99666 31400 46/// /1605 11046 21110 39936 49947 54000 22200 05018 86063
BBXX SKEC 24181 99613 10194 46/// ///// 10018 40027 52025 22235 00035
AAXX 24184 71408 46/// /3121 11071 21108 30068 40149 55002 6///1 333 11018 7////
AAXX 24184 71408 46/// /3121 11071 21108 30068 40149 55002 6///1 333 11018 7////
BBXX 42369 24181 99272 70903 46/// /0711 1//// 91740 22200 10504 70019
BBXX 42370 24181 99273 70905 46/// ///// 10185 91740 22200 10503 70016
AAXX 2418/ 68902 46/// ///// 40143 57001
AAXX 24184 41251 32/60 /2802 10129 21149 3//// 4//// 92000 333 10174 5////
BBXX 41052 24181 99183 70648 46/// /0810 10260 40157 91750 333 91212
BBXX 41052 24181 99183 70648 46/// /0709 10266 40159 91740 333 91212
BBXX 41052 24181 99183 70648 46/// /0609 10262 40155 91810 333 91210
BBXX 42376 24181 99291 70879 46/// /0309 10150 40261 91740 22200 10503 70014
BBXX 42887 24181 99282 70885 46/// /0809 10199 91740 22200 10504 70019
BBXX SKEC 24181 99613 10194 46/// ///// 10018 40027 52025 22235 00035
BBXX 2AUO5 24183 99608 10017 41/97 /2228 10096 20068 49939 56006 70022 8//// 22241 20706 322// 40912 80083
BBXX 42376 24181 99291 70879 46/// /0309 10150 40261 91740 22200 10503 70014
BBXX 42887 24181 99282 70885 46/// /0809 10199 91740 22200 10504 70019
BBXX 41052 24181 99183 70648 46/// /0709 10266 40159 91740 333 91212
BBXX 41052 24181 99183 70648 46/// /0609 10262 40155 91810 333 91210
BBXX 41052 24181 99183 70648 46/// /0810 10260 40157 91750 333 91212
BBXX 42369 24181 99272 70903 46/// /0711 1//// 91740 22200 10504 70019
BBXX 42370 24181 99273 70905 46/// ///// 10185 91740 22200 10503 70016
BBXX 42013 24181 99272 70829 46/// ///// 1//// 40226 91820 22200 00207
BBXX 42013 24181 99272 70829 46/// ///// 1//// 40227 58016 91800 22200 00207
BBXX VRBK6 24184 99079 11172 41597 50316 10270 2023/ 40070 54000 70022 8519/ 22264 00300 20604 304// 40604 5//// 6//// 80240 ICE /////
AAXX 2418/ 89327 46/// ///// 11011 39456 4//// 5//// 91830
AAXX 2418/ 89828 46/// ///// 11308 36537 4//// 5//// 91840
AAXX 2418/ 89108 46/// ///// 11155 37006 4//// 5//// 91830
AAXX 2418/ 89869 46/// ///// 11041 39808 4//// 5//// 91830
AAXX 2418/ 89866 46/// ///// 11023 39766 4//// 5//// 91830
AAXX 2418/ 89329 46/// ///// 11056 38778 4//// 5//// 91830
AAXX 2418/ 89799 46/// ///// 11159 4//// 5//// 91830
AAXX 2418/ 89868 46/// ///// 11018 39831 4//// 5//// 91830
AAXX 2418/ 89332 46/// ///// 11011 39209 4//// 5//// 91830
BBXX 63108 24184 99608 10017 47996 /2438 10080 20055 49949 56020 704// 22200 10809 70047
BBXX 63106 24184 99610 10017 46/// /2335 10081 49916 56027 22200
BBXX 63113 24184 99610 10017 46/// /2436 10087 20067 49944 55013 22200 10811 70053
BBXX 63110 24183 99595 10015 41/// /2340 10080 49976 700// 8//// 22200 10709 70045
BBXX 62304 24184 99511 10018 46/98 /2525 10097 20049 40297 56006 22200 00104 10601 70007 333 90710 91135
BBXX 62303 24184 99516 70051 46/// /2422 10112 20079 40262 57011 22200 00112 10708 70038 333 90710 91133
BBXX 64045 24184 99591 70117 46/// /2634 10079 20035 49966 53025 22200 00100 11020 70098 333 90710 91154
BBXX 62103 24184 99499 70029 46/99 /2727 10112 20063 40306 56010 22200 00120 10704 70022 333 90710 91138
OOXX AAPIG 24184 99758 51003 56251 08502 46/// /0824 11096 21155 38852 49827 57003 91750
BBXX VRBK6 24184 99079 11172 41597 50316 10270 2023/ 40070 54000 70022 8519/ 22264 00300 20604 304// 40604 5//// 6//// 80240 ICE /////
AAXX 24184 89272 46/// /1017 11117 21152 38057 49695 57011 91820
AAXX 24184 89013 46/// /0919 11146 21181 37698 49699 57004 91810
AAXX 24184 89065 46/// /9901 10009 21040 39732 49808 5//// 91820
AAXX 24184 89257 46/// /2111 11076 21095 39812 49883 57012 91820
AAXX 24184 89262 46/// /1508 11018 21053 39814 49857 57011 91820
AAXX 24184 89266 46/// /1726 11060 21074 39718 49857 57013 91810
AAXX 24184 89272 46/// /1018 11116 21154 38058 49696 57013 91810
AAXX 24184 82599 32570 31215 10297 20212 30047 4//// 83100 333 59003
AAXX 24184 82899 32570 71511 10282 20221 30115 40127 84250 333 58011
AAXX 24184 83746 32570 31116 10327 20198 30085 40095 56016 83200
AAXX 24184 82022 21570 71107 10249 20217 30028 40125 72162 83230 333 59043 60011
AAXX 24184 82193 32570 63306 10299 20240 30079 40097 86200 333 59019
AAXX 24184 82281 32570 50615 10319 20191 30029 40091 85200 333 58006
AAXX 24184 82332 22570 70409 10260 20229 30012 40105 84230 333 58032 60041
AAXX 24184 82400 32470 31510 10272 20232 30046 40111 83100 333 58004
AAXX 24184 82579 32970 71703 10357 20208 30013 40089 83204 333 58024
AAXX 24184 82965 32570 61806 10300 20229 39773 40100 84234 333 58008
AAXX 24184 83208 21570 62305 10284 20239 39415 48520 72162 85230 333 59013 60061
AAXX 24184 83362 32570 40510 10318 20202 39879 40092 84100 333 59015
AAXX 24184 83566 32570 50906 10270 20152 39218 48540 85200 333 58018
AAXX 24184 83612 32570 62907 10311 20187 39483 48530 58026 86200
AAXX 24184 83649 32970 30419 10300 20225 30129 40134 56022 80009
AAXX 24184 83827 32570 62308 10291 20222 39840 40111 56019 82230
AAXX 24184 83840 21350 60315 10204 20176 39122 48520 55010 79596 86900 333 69921
AAXX 24184 83899 31462 61820 10241 20217 30139 40145 53004 71021 86500
AAXX 24184 83971 21459 81207 10189 20179 30197 40201 53006 72052 885// 333 69941
AAXX 24184 91375 46/// /0509 10235 40057 22200 00279
AAXX 24184 91165 12566 40517 10222 20183 30182 40217 53013 69901 91753
AAXX 24184 91212 32666 20910 10267 20200 31338 40076 56006 91754
AAXX 24184 91245 32566 4//// 10260 20240 30127 91755
AAXX 24184 91285 12666 42306 10178 20156 30195 40209 53013 60041 91753
AAXX 24184 91334 32474 80510 10277 20236 30051 40054 58007 82171
AAXX 24184 91348 32474 80809 10278 20225 30010 40063 55002 85101
AAXX 24184 91367 11474 80910 10267 20228 60041 70181 84227
AAXX 24184 91376 11474 80612 10275 20228 30054 40058 53003 69931 70282 82178
AAXX 24184 91408 11459 80000 10261 20254 30014 40052 57012 60231 78082 8532/
AAXX 24184 91413 32469 61012 10281 20248 30041 40066 56007 82271
AAXX 24184 91610 11599 60811 10270 20241 40053 53008 60001 70322 84208
AAXX 24184 91155 NIL
AAXX 24184 91203 NIL
AAXX 24184 91217 NIL
AAXX 24184 91232 NIL
AAXX 24184 91250 NIL
AAXX 24184 91275 NIL
AAXX 24184 91317 NIL
AAXX 24184 91324 NIL
AAXX 24184 91339 NIL
AAXX 24184 91353 NIL
AAXX 24184 91356 NIL
AAXX 24184 91366 NIL
AAXX 24184 91369 NIL
AAXX 24184 91371 NIL
AAXX 24184 91378 NIL
AAXX 24184 91425 NIL
AAXX 24184 91434 NIL
AAXX 24184 91601 NIL
BBXX MINFR05 2418/ 99176 70178 46/// ///// 10235 40147 57009
BBXX 42369 24181 99272 70903 46/// /0711 1//// 91800 22200 10504 70018
BBXX 42370 24181 99273 70905 46/// ///// 10186 91800 22200 10503 70017
AAXX 24184 89065 46/// /9901 10009 21040 39732 49808 5//// 91820
BBXX 62303 24184 99516 70051 46/// /2422 10112 20079 40262 57011 22200 00112 10707 70035 333 90710 91133
BBXX 64045 24184 99591 70117 46/// /2636 10079 20035 49966 53025 22200 00100 11020 70098 333 90710 91154
BBXX 63110 24184 99595 10015 47496 /2229 10080 20059 49983 55017 704// 22200 10709 70045
BBXX 63106 24184 99610 10017 46/// /2335 10081 49916 56027 22200
BBXX 63105 24184 99610 10017 47596 ///// 10088 20069 49920 56024 751// 22200
BBXX 62304 24184 99511 10018 46/98 /2525 11003 21047 40297 56006 22200 00105 10601 70007 333 90710 91128
BBXX 62103 24184 99499 70029 46/99 /2828 10105 20063 40308 56015 22200 00120 10804 70021 333 90710 91140
BBXX 2AUO5 24183 99608 10017 41/97 /2228 10096 20068 49939 56006 70022 8//// 22241 20706 322// 40912 80083
AAXX 24184 91165 12566 40517 10222 20183 30182 40217 53013 69901 91753
AAXX 24184 91212 32666 20910 10267 20200 31338 40076 56006 91754
AAXX 24184 91285 12666 42306 10178 20156 30195 40209 53013 60041 91753
AAXX 24184 91334 32474 80510 10277 20236 30051 40054 58007 82171
AAXX 24184 91348 32474 80809 10278 20225 30010 40063 55002 85101
AAXX 24184 91376 11474 80612 10275 20228 30054 40058 53003 69931 70282 82178
AAXX 24184 91408 11459 80000 10261 20254 30014 40052 57012 60231 78082 8532/
AAXX 24184 91413 32469 61012 10281 20248 30041 40066 56007 82271
AAXX 24184 91245 32566 4//// 10260 20240 30127 91755
BBXX MINFR05 2418/ 99176 70178 46/// ///// 10235 40147 57009
BBXX 42369 24181 99272 70903 46/// /0711 1//// 91800 22200 10504 70018
BBXX 42370 24181 99273 70905 46/// ///// 10186 91800 22200 10503 70017
AAXX 24184 71723 16/// /0404 11160 21212 30343 40354 58004 60001 333 11153 21193 70011
BBXX 42376 24181 99291 70879 46/// /0309 10152 40255 57026 91800 22200 10503 70014
BBXX 42887 24181 99282 70885 46/// /0810 10198 91800 22200 10504 70018
AAXX 24184 97690 12430 80000 10260 20245 39942 40043 57006 60041 83867 333 56000 57800 82817 88279
AAXX 24184 41660 119// 00000 10010 21054 38435 48528 60003 70500 333 59005
AAXX 24184 41660 119// 00000 10010 21054 38435 48528 60003 70500 333 59005
BBXX 42043 24181 99290 70949 46/// /0609 1//// 40246 91830 22200 00161 333 91212
BBXX 42043 24181 99290 70949 46/// /0710 1//// 40243 91800 22200 00161 333 91213
BBXX 42044 24181 99262 70971 46/// /2108 10126 20111 40202 91830 22200 00166 333 91215
BBXX 42044 24181 99262 70971 46/// /2208 10130 20116 40203 57003 91800 22200 00166 333 91214
AAXX 24184 97530 12450 50000 10248 20245 30039 40044 57005 69951 83821 333 56000 57802 83814 84460 80833
BBXX 42045 24181 99262 70965 46/// /2309 10174 40167 91830 22200 00216 333 91211
BBXX 42045 24181 99262 70965 46/// /2606 10178 40176 91800 22200 00216 333 91208
BBXX 42045 24181 99262 70965 46/// /2606 10178 40176 91800 22200 00216 333 91208
BBXX 42045 24181 99262 70965 46/// /2309 10174 40167 91830 22200 00216 333 91211
BBXX 42044 24181 99262 70971 46/// /2208 10130 20116 40203 57003 91800 22200 00166 333 91214
BBXX 42044 24181 99262 70971 46/// /2108 10126 20111 40202 91830 22200 00166 333 91215
BBXX 42043 24181 99290 70949 46/// /0710 1//// 40243 91800 22200 00161 333 91213
BBXX 42043 24181 99290 70949 46/// /0609 1//// 40246 91830 22200 00161 333 91212
BBXX 42376 24181 99291 70879 46/// /0309 10152 40255 57026 91800 22200 10503 70014
BBXX 42887 24181 99282 70885 46/// /0810 10198 91800 22200 10504 70018
BBXX 9HXC9 24184 99257 70801 41698 30808 10255 20156 40197 55003 7//00 83100 22200 04242 20000 3//// 40000 5//// 6//// 80191 ICE /////
BBXX PCBZ 24184 99164 71174 41398 71919 10230 20185 40172 54000 70222 877// 22223 00220 20503 80200 90745
AAXX 24181 15020 02997 01301 11076 21084 30018 40229 52008 60002 333 11012 21076 3/004 43002 60007 91001 91102 92840
AAXX 24184 71487 16/// /2714 10008 21041 39331 40209 53013 60001 333 10008 21049 70000
BBXX 63108 24184 99608 10017 47996 /2438 10080 20055 49949 56020 704// 22200 10809 70047
BBXX 63106 24184 99610 10017 46/// /2335 10081 49916 56027 22200
BBXX 63113 24184 99610 10017 46/// /2436 10087 20067 49944 55013 22200 10811 70053
BBXX 63110 24183 99595 10015 41/// /2340 10080 49976 700// 8//// 22200 10709 70045
BBXX 62304 24184 99511 10018 46/98 /2525 10097 20049 40297 56006 22200 00104 10601 70007 333 90710 91135
BBXX 62303 24184 99516 70051 46/// /2422 10112 20079 40262 57011 22200 00112 10708 70038 333 90710 91133
BBXX 64045 24184 99591 70117 46/// /2634 10079 20035 49966 53025 22200 00100 11020 70098 333 90710 91154
BBXX 62103 24184 99499 70029 46/99 /2727 10112 20063 40306 56010 22200 00120 10704 70022 333 90710 91138
AAXX 24184 71539 16/// /2718 10047 21061 39492 40193 53010 60001 333 10047 21030 70000
AAXX 24184 97086 32560 52504 10268 20239 30047 40071 56002 82571 333 56000 82620
BBXX 42369 24181 99272 70903 46/// /0711 1//// 91820 22200 10504 70018
BBXX 42370 24181 99273 70905 46/// ///// 10189 91820 22200 10503 70017
BBXX 42376 24181 99291 70879 46/// /0309 10152 40255 91820 22200 10503 70014
BBXX 42887 24181 99282 70885 46/// /0810 10199 91820 22200 10504 70019
BBXX 42370 24181 99273 70905 46/// ///// 10189 91820 22200 10503 70017
BBXX 42376 24181 99291 70879 46/// /0309 10152 40255 91820 22200 10503 70014
BBXX 42887 24181 99282 70885 46/// /0810 10199 91820 22200 10504 70019
BBXX 42369 24181 99272 70903 46/// /0711 1//// 91820 22200 10504 70018
BBXX 52243 24181 99193 11666 46/// ///// 1//// 91800 22200 00258
BBXX 51179 24181 99143 51708 46/// ///// 1//// 91800 22200 00288
BBXX 51178 24181 99142 51695 46/// ///// 1//// 91800 22200 00287
BBXX 52246 24181 99152 11457 46/// ///// 1//// 91800 22200 00281
BBXX 51176 24181 99278 71758 46/// ///// 1//// 91800 22200 00235
BBXX 52245 24181 99181 11458 46/// ///// 1//// 91800 22200 00280
BBXX 51174 24181 99142 51697 46/// ///// 1//// 91800 22200 00286
BBXX 52244 24181 99200 11452 46/// ///// 1//// 91800 22200 00269
BBXX 51173 24181 99260 71739 46/// ///// 1//// 91800 22200 00247
BBXX 51172 24181 99284 71783 46/// ///// 1//// 91800 22200 00228
BBXX 51171 24181 99064 71623 46/// ///// 1//// 91800 22200 00278
BBXX 51170 24181 99168 71695 46/// ///// 1//// 91800 22200 00256
BBXX 51169 24181 99004 51600 46/// ///// 1//// 91800 22200 00257
BBXX 52248 24181 99135 11448 46/// ///// 1//// 91800 22200 00284
BBXX 62303 24184 99516 70051 46/// /2422 10112 20079 40262 57011 22200 00112 10707 70035 333 90710 91133
BBXX 64045 24184 99591 70117 46/// /2636 10079 20035 49966 53025 22200 00100 11020 70098 333 90710 91154
BBXX 63110 24184 99595 10015 47496 /2229 10080 20059 49983 55017 704// 22200 10709 70045
BBXX 63106 24184 99610 10017 46/// /2335 10081 49916 56027 22200
BBXX 63105 24184 99610 10017 47596 ///// 10088 20069 49920 56024 751// 22200
BBXX 62304 24184 99511 10018 46/98 /2525 11003 21047 40297 56006 22200 00105 10601 70007 333 90710 91128
BBXX 62103 24184 99499 70029 46/99 /2828 10105 20063 40308 56015 22200 00120 10804 70021 333 90710 91140
BBXX 2AUO5 24183 99608 10017 41/97 /2228 10096 20068 49939 56006 70022 8//// 22241 20706 322// 40912 80083
BBXX 52248 24181 99135 11448 46/// ///// 1//// 91800 22200 00284
BBXX 52243 24181 99193 11666 46/// ///// 1//// 91800 22200 00258
BBXX 52245 24181 99181 11458 46/// ///// 1//// 91800 22200 00280
BBXX 52246 24181 99152 11457 46/// ///// 1//// 91800 22200 00281
BBXX 52244 24181 99200 11452 46/// ///// 1//// 91800 22200 00269
BBXX 51169 24181 99004 51600 46/// ///// 1//// 91800 22200 00257
BBXX 51178 24181 99142 51695 46/// ///// 1//// 91800 22200 00287
BBXX 51179 24181 99143 51708 46/// ///// 1//// 91800 22200 00288
BBXX 51174 24181 99142 51697 46/// ///// 1//// 91800 22200 00286
BBXX 51176 24181 99278 71758 46/// ///// 1//// 91800 22200 00235
BBXX 51172 24181 99284 71783 46/// ///// 1//// 91800 22200 00228
BBXX 51173 24181 99260 71739 46/// ///// 1//// 91800 22200 00247
BBXX 51170 24181 99168 71695 46/// ///// 1//// 91800 22200 00256
BBXX 51171 24181 99064 71623 46/// ///// 1//// 91800 22200 00278
AAXX 24184 97748 11458 63208 10264 20246 30057 40059 54000 60041 71322 83932 333 56700 57972 81914 82815 84359 80940 80850
AAXX 24184 17237 12670 80602 10033 20003 39646 40162 50007 60002 8452/ 333 10058 84635 88459 91110
AAXX 2418/ 89872 46/// ///// 11005 39824 4//// 5////
AAXX 2418/ 89869 46/// ///// 11048 39805 4//// 5////
AAXX 2418/ 89799 46/// ///// 11163 4//// 5////
AAXX 2418/ 89868 46/// ///// 11058 39829 4//// 5////
AAXX 2418/ 89828 46/// ///// 11311 36536 4//// 5////
AAXX 2418/ 89108 46/// ///// 11175 37006 4//// 5////
AAXX 2418/ 89879 46/// ///// 11001 39785 4//// 5////
AAXX 2418/ 89332 46/// ///// 11008 39209 4//// 5////
AAXX 2418/ 89769 46/// ///// 11040 39836 4//// 5////
AAXX 2418/ 89314 46/// ///// 11050 38271 4//// 5////
AAXX 24184 97810 32457 72917 10284 20242 30015 40024 57008 83232 333 56700 57871 83819 80845
BBXX 63108 24184 99608 10017 47996 /2438 10080 20055 49949 56020 704// 22200 10809 70047
BBXX 63106 24184 99610 10017 46/// /2335 10081 49916 56027 22200
BBXX 63113 24184 99610 10017 46/// /2436 10087 20067 49944 55013 22200 10811 70053
BBXX 63110 24183 99595 10015 41/// /2340 10080 49976 700// 8//// 22200 10709 70045
BBXX 62304 24184 99511 10018 46/98 /2525 10097 20049 40297 56006 22200 00104 10601 70007 333 90710 91135
BBXX 62303 24184 99516 70051 46/// /2422 10112 20079 40262 57011 22200 00112 10708 70038 333 90710 91133
BBXX 64045 24184 99591 70117 46/// /2634 10079 20035 49966 53025 22200 00100 11020 70098 333 90710 91154
BBXX 62103 24184 99499 70029 46/99 /2727 10112 20063 40306 56010 22200 00120 10704 70022 333 90710 91138
AAXX 24184 97096 32460 70602 10248 20235 30056 40078 59012 83231 333 56000 57803 83818 85460 80860
AAXX 24184 97086 32560 42705 10266 20237 30044 40068 55003 82471 333 56000 82620
AAXX 24181 30781 42999 00000 11425 21444 39875 40438 52010
AAXX 24184 97460 32460 70000 10248 20233 30040 40054 57002 83876 333 56000 57802 82817 80858
AAXX 24181 21432 42998 00000 11327 21357 30392 40414 57002
AAXX 24181 29866 429// 00000 11214 21226 39962 40310 53003
AAXX 24181 29956 42984 02503 11158 21177 39736 40333 57002
AAXX 24181 29759 429// 82401 11059 21177 39233 40277 57002 8805/
AAXX 24181 29752 414// 52507 11101 21227 38814 48459 57012 73631 83540 333 91114
AAXX 24181 29864 429// 03304 11101 21154 39617 40292 54000
BBXX 62303 24184 99516 70051 46/// /2422 10112 20079 40262 57011 22200 00112 10707 70035 333 90710 91133
BBXX 64045 24184 99591 70117 46/// /2636 10079 20035 49966 53025 22200 00100 11020 70098 333 90710 91154
BBXX 63110 24184 99595 10015 47496 /2229 10080 20059 49983 55017 704// 22200 10709 70045
BBXX 63106 24184 99610 10017 46/// /2335 10081 49916 56027 22200
BBXX 63105 24184 99610 10017 47596 ///// 10088 20069 49920 56024 751// 22200
BBXX 62304 24184 99511 10018 46/98 /2525 11003 21047 40297 56006 22200 00105 10601 70007 333 90710 91128
BBXX 62103 24184 99499 70029 46/99 /2828 10105 20063 40308 56015 22200 00120 10804 70021 333 90710 91140
BBXX 2AUO5 24183 99608 10017 41/97 /2228 10096 20068 49939 56006 70022 8//// 22241 20706 322// 40912 80083
AAXX 24184 97980 32460 70000 10272 20253 30025 40032 56016 86843 333 56000 84816 82620
AAXX 24184 71554 16/// /2607 11141 21177 30328 40334 57005 60001 333 11141 21170 70000
AAXX 24184 71382 16/// /0401 11186 21238 39310 40334 58003 60001 333 11170 21333 70000
AAXX 24184 48352 32660 60303 10145 20105 39988 40198 57002 82506 333 58040
AAXX 24184 48450 31956 00000 10220 20153 30100 40133 57003 71000 333 58018
AAXX 24184 48556 11550 20000 10235 20232 30077 40094 57009 60073 71000 81101 333 58005 70102
AAXX 24184 16172 11530 80306 10044 20026 39880 40186 52030 60062 76165 888// 333 10070 84823 84630
BBXX A8CB7 24183 99308 30353 41497 41021 10225 20211 40160 54000 70222 84462 22254 06270 21003 323// 41106 80215
AAXX 24183 63612 32980 10506 10304 20164 40084 80002 333 10357 59022 81080
BBXX A8CB7 24183 99308 30353 41497 41021 10225 20211 40160 54000 70222 84462 22254 06270 21003 323// 41106 80215
AAXX 24184 71586 16/// /2705 10010 21024 39603 40067 53007 60001 333 10010 21115 70020 555 10020
AAXX 24184 71450 16/// /2511 10016 21050 39463 40188 51012 60001 333 10018 21030 70000
AAXX 24181 25745 42698 80805 11239 21278 30314 40371 52004 885//
BBXX A8CB7 24183 99308 30353 41497 41021 10225 20211 40160 54000 70222 84462 22254 06270 21003 323// 41106 80215
BBXX 63108 24184 99608 10017 47996 /2438 10080 20055 49949 56020 704// 22200 10809 70047
BBXX 63106 24184 99610 10017 46/// /2335 10081 49916 56027 22200
BBXX 63113 24184 99610 10017 46/// /2436 10087 20067 49944 55013 22200 10811 70053
BBXX 63110 24183 99595 10015 41/// /2340 10080 49976 700// 8//// 22200 10709 70045
BBXX 62304 24184 99511 10018 46/98 /2525 10097 20049 40297 56006 22200 00104 10601 70007 333 90710 91135
BBXX 62303 24184 99516 70051 46/// /2422 10112 20079 40262 57011 22200 00112 10708 70038 333 90710 91133
BBXX 64045 24184 99591 70117 46/// /2634 10079 20035 49966 53025 22200 00100 11020 70098 333 90710 91154
BBXX 62103 24184 99499 70029 46/99 /2727 10112 20063 40306 56010 22200 00120 10704 70022 333 90710 91138
AAXX 24181 36022 36022 42998 01402 11181 21207 30011 40293 57015
AAXX 24181 20292 41998 01304 11328 21357 30200 40222 56006 70230 333 91111
BBXX 62303 24184 99516 70051 46/// /2422 10112 20079 40262 57011 22200 00112 10707 70035 333 90710 91133
BBXX 64045 24184 99591 70117 46/// /2636 10079 20035 49966 53025 22200 00100 11020 70098 333 90710 91154
BBXX 63110 24184 99595 10015 47496 /2229 10080 20059 49983 55017 704// 22200 10709 70045
BBXX 63106 24184 99610 10017 46/// /2335 10081 49916 56027 22200
BBXX 63105 24184 99610 10017 47596 ///// 10088 20069 49920 56024 751// 22200
BBXX 62304 24184 99511 10018 46/98 /2525 11003 21047 40297 56006 22200 00105 10601 70007 333 90710 91128
BBXX 62103 24184 99499 70029 46/99 /2828 10105 20063 40308 56015 22200 00120 10804 70021 333 90710 91140
BBXX 2AUO5 24183 99608 10017 41/97 /2228 10096 20068 49939 56006 70022 8//// 22241 20706 322// 40912 80083
AAXX 2418/ 89872 46/// ///// 10036 39826 4//// 5//// 91840
AAXX 2418/ 89869 46/// ///// 11038 39809 4//// 5//// 91840
AAXX 24181 98324 31462 71102 10254 20209 40099 58006 70544 81168 333 56999 81816 87280
AAXX 24181 98327 31665 73203 10228 20177 39946 40121 57005 70544 83470 333 56999 83642 87359
AAXX 24181 98425 32557 80203 10262 20202 40097 58010 8382/ 333 56999 83620 88459
AAXX 24181 98546 11440 80404 10251 20244 30082 40090 58007 60331 78086 8497/ 333 56999 84915 88360
AAXX 24181 98751 32468 50000 10210 20201 39390 40056 57010 83260 333 56999 83815
AAXX 24181 98851 32470 82701 10250 20222 39911 40058 58012 8127/ 333 56999 81818 88358
AAXX 24181 01257 11980 01805 10029 21072 39798 49958 58048 60002 70200 333 10029 91112
BBXX 63108 24184 99608 10017 47996 /2438 10080 20055 49949 56020 704// 22200 10809 70047
BBXX 63106 24184 99610 10017 46/// /2335 10081 49916 56027 22200
BBXX 63113 24184 99610 10017 46/// /2436 10087 20067 49944 55013 22200 10811 70053
BBXX 63110 24183 99595 10015 41/// /2340 10080 49976 700// 8//// 22200 10709 70045
BBXX 62304 24184 99511 10018 46/98 /2525 10097 20049 40297 56006 22200 00104 10601 70007 333 90710 91135
BBXX 62303 24184 99516 70051 46/// /2422 10112 20079 40262 57011 22200 00112 10708 70038 333 90710 91133
BBXX 64045 24184 99591 70117 46/// /2634 10079 20035 49966 53025 22200 00100 11020 70098 333 90710 91154
BBXX 62103 24184 99499 70029 46/99 /2727 10112 20063 40306 56010 22200 00120 10704 70022 333 90710 91138
AAXX 24184 48350 31940 00000 10138 20121 39880 40193 52008 71000 333 58039
BBXX 62303 24184 99516 70051 46/// /2422 10112 20079 40262 57011 22200 00112 10707 70035 333 90710 91133
BBXX 64045 24184 99591 70117 46/// /2636 10079 20035 49966 53025 22200 00100 11020 70098 333 90710 91154
BBXX 63110 24184 99595 10015 47496 /2229 10080 20059 49983 55017 704// 22200 10709 70045
BBXX 63106 24184 99610 10017 46/// /2335 10081 49916 56027 22200
BBXX 63105 24184 99610 10017 47596 ///// 10088 20069 49920 56024 751// 22200
BBXX 62304 24184 99511 10018 46/98 /2525 11003 21047 40297 56006 22200 00105 10601 70007 333 90710 91128
BBXX 62103 24184 99499 70029 46/99 /2828 10105 20063 40308 56015 22200 00120 10804 70021 333 90710 91140
BBXX 2AUO5 24183 99608 10017 41/97 /2228 10096 20068 49939 56006 70022 8//// 22241 20706 322// 40912 80083
AAXX 24184 96791 01456 80000 10246 20240 30023 40097 57010 60671 71596 8592/ 333 56009 57900 69937 81917 84617 88460 809//
AAXX 24184 71732 16/// /1606 11098 21142 60001 333 11098 21181 70000
BBXX 63108 24184 99608 10017 47996 /2438 10080 20055 49949 56020 704// 22200 10809 70047
BBXX 63106 24184 99610 10017 46/// /2335 10081 49916 56027 22200
BBXX 63113 24184 99610 10017 46/// /2436 10087 20067 49944 55013 22200 10811 70053
BBXX 63110 24183 99595 10015 41/// /2340 10080 49976 700// 8//// 22200 10709 70045
BBXX 62304 24184 99511 10018 46/98 /2525 10097 20049 40297 56006 22200 00104 10601 70007 333 90710 91135
BBXX 62303 24184 99516 70051 46/// /2422 10112 20079 40262 57011 22200 00112 10708 70038 333 90710 91133
BBXX 64045 24184 99591 70117 46/// /2634 10079 20035 49966 53025 22200 00100 11020 70098 333 90710 91154
BBXX 62103 24184 99499 70029 46/99 /2727 10112 20063 40306 56010 22200 00120 10704 70022 333 90710 91138
AAXX 24181 01392 11980 02101 11048 21055 39858 40091 58009 60002 70200 333 11038 91103
BBXX 52249 24181 99052 31503 46/// ///// 1//// 91800 22200 00305
AAXX 24184 97182 32460 60901 10255 20239 30054 40059 57012 83221 333 56000 57800 83819 83460 808//
BBXX 62303 24184 99516 70051 46/// /2422 10112 20079 40262 57011 22200 00112 10707 70035 333 90710 91133
BBXX 64045 24184 99591 70117 46/// /2636 10079 20035 49966 53025 22200 00100 11020 70098 333 90710 91154
BBXX 63110 24184 99595 10015 47496 /2229 10080 20059 49983 55017 704// 22200 10709 70045
BBXX 63106 24184 99610 10017 46/// /2335 10081 49916 56027 22200
BBXX 63105 24184 99610 10017 47596 ///// 10088 20069 49920 56024 751// 22200
BBXX 62304 24184 99511 10018 46/98 /2525 11003 21047 40297 56006 22200 00105 10601 70007 333 90710 91128
BBXX 62103 24184 99499 70029 46/99 /2828 10105 20063 40308 56015 22200 00120 10804 70021 333 90710 91140
BBXX 2AUO5 24183 99608 10017 41/97 /2228 10096 20068 49939 56006 70022 8//// 22241 20706 322// 40912 80083
BBXX WKAE 24183 99439 70570 41398 70219 10038 21002 40153 51013 71572 87840 22265 00080 20304 322// 40807 5//// 6//// 80021 ICE /////
BBXX WKAE 24183 99439 70570 41398 70219 10038 21002 40153 51013 71572 87840 22265 00080 20304 322// 40807 5//// 6//// 80021 ICE /////
BBXX A8VL8 24184 99026 11049 41597 80138 10270 20243 40190 52020 75092 887// 22213 0//// 2//// 3//// 4//// 5//// 6//// 80250 ICE ////
BBXX 52249 24181 99052 31503 46/// ///// 1//// 91800 22200 00305
BBXX A8VL8 24184 99026 11049 41597 80138 10270 20243 40190 52020 75092 887// 22213 0//// 2//// 3//// 4//// 5//// 6//// 80250 ICE
BBXX 63108 24184 99608 10017 47996 /2438 10080 20055 49949 56020 704// 22200 10809 70047
BBXX 63106 24184 99610 10017 46/// /2335 10081 49916 56027 22200
BBXX 63113 24184 99610 10017 46/// /2436 10087 20067 49944 55013 22200 10811 70053
BBXX 63110 24183 99595 10015 41/// /2340 10080 49976 700// 8//// 22200 10709 70045
BBXX 62304 24184 99511 10018 46/98 /2525 10097 20049 40297 56006 22200 00104 10601 70007 333 90710 91135
BBXX 62303 24184 99516 70051 46/// /2422 10112 20079 40262 57011 22200 00112 10708 70038 333 90710 91133
BBXX 64045 24184 99591 70117 46/// /2634 10079 20035 49966 53025 22200 00100 11020 70098 333 90710 91154
BBXX 62103 24184 99499 70029 46/99 /2727 10112 20063 40306 56010 22200 00120 10704 70022 333 90710 91138
AAXX 24181 78090 15/// /0000 10259 30227 40231 69901 91800 222// 00285
BBXX A8VL8 24184 99026 11049 41597 80138 10270 20243 40190 52020 75092 887// 22213 0//// 2//// 3//// 4//// 5//// 6//// 80250 ICE
BBXX MINFR03 2418/ 99190 10729 46/// ///// 10245 40117 52005
AAXX 24184 71245 46/// /2339 11061 21101 6///1 333 11049 21093 7////
AAXX 24184 89573 35980 70708 11017 21052 39779 49801 52021 8703/
AAXX 24184 89573 35980 70708 11017 21052 39779 49801 52021 8703/
BBXX 62303 24184 99516 70051 46/// /2422 10112 20079 40262 57011 22200 00112 10707 70035 333 90710 91133
BBXX 64045 24184 99591 70117 46/// /2636 10079 20035 49966 53025 22200 00100 11020 70098 333 90710 91154
BBXX 63110 24184 99595 10015 47496 /2229 10080 20059 49983 55017 704// 22200 10709 70045
BBXX 63106 24184 99610 10017 46/// /2335 10081 49916 56027 22200
BBXX 63105 24184 99610 10017 47596 ///// 10088 20069 49920 56024 751// 22200
BBXX 62304 24184 99511 10018 46/98 /2525 11003 21047 40297 56006 22200 00105 10601 70007 333 90710 91128
BBXX 62103 24184 99499 70029 46/99 /2828 10105 20063 40308 56015 22200 00120 10804 70021 333 90710 91140
BBXX 2AUO5 24183 99608 10017 41/97 /2228 10096 20068 49939 56006 70022 8//// 22241 20706 322// 40912 80083
BBXX MINFR03 2418/ 99190 10729 46/// ///// 10245 40117 52005
AAXX 24184 97028 32560 80000 10248 20236 30066 40072 51008 84521 333 56000 84620 87460
BBXX VRDT5 24183 99185 11338 41/// /0224 10160 2014/ 40210 57100 78088 8//// 22233 00180 21006 39999 41107 51107 6//// 80150 ICE /////
BBXX VRDT5 24183 99185 11338 41/// /0224 10160 2014/ 40210 57100 78088 8//// 22233 00180 21006 39999 41107 51107 6//// 80150 ICE /////
BBXX 63108 24184 99608 10017 47996 /2438 10080 20055 49949 56020 704// 22200 10809 70047
BBXX 63106 24184 99610 10017 46/// /2335 10081 49916 56027 22200
BBXX 63113 24184 99610 10017 46/// /2436 10087 20067 49944 55013 22200 10811 70053
BBXX 63110 24183 99595 10015 41/// /2340 10080 49976 700// 8//// 22200 10709 70045
BBXX 62304 24184 99511 10018 46/98 /2525 10097 20049 40297 56006 22200 00104 10601 70007 333 90710 91135
BBXX 62303 24184 99516 70051 46/// /2422 10112 20079 40262 57011 22200 00112 10708 70038 333 90710 91133
BBXX 64045 24184 99591 70117 46/// /2634 10079 20035 49966 53025 22200 00100 11020 70098 333 90710 91154
BBXX 62103 24184 99499 70029 46/99 /2727 10112 20063 40306 56010 22200 00120 10704 70022 333 90710 91138
BBXX 62303 24184 99516 70051 46/// /2422 10112 20079 40262 57011 22200 00112 10707 70035 333 90710 91133
BBXX 64045 24184 99591 70117 46/// /2636 10079 20035 49966 53025 22200 00100 11020 70098 333 90710 91154
BBXX 63110 24184 99595 10015 47496 /2229 10080 20059 49983 55017 704// 22200 10709 70045
BBXX 63106 24184 99610 10017 46/// /2335 10081 49916 56027 22200
BBXX 63105 24184 99610 10017 47596 ///// 10088 20069 49920 56024 751// 22200
BBXX 62304 24184 99511 10018 46/98 /2525 11003 21047 40297 56006 22200 00105 10601 70007 333 90710 91128
BBXX 62103 24184 99499 70029 46/99 /2828 10105 20063 40308 56015 22200 00120 10804 70021 333 90710 91140
BBXX 2AUO5 24183 99608 10017 41/97 /2228 10096 20068 49939 56006 70022 8//// 22241 20706 322// 40912 80083
AAXX 24181 01160 41789 41810 10029 20011 39865 49882 58029 70282 84800 333 10056 91120
AAXX 24184 91723 NIL
AAXX 24184 91964 36/// /1305 10240 20204 40211 52006
BBXX 63108 24184 99608 10017 47996 /2438 10080 20055 49949 56020 704// 22200 10809 70047
BBXX 63106 24184 99610 10017 46/// /2335 10081 49916 56027 22200
BBXX 63113 24184 99610 10017 46/// /2436 10087 20067 49944 55013 22200 10811 70053
BBXX 63110 24183 99595 10015 41/// /2340 10080 49976 700// 8//// 22200 10709 70045
BBXX 62304 24184 99511 10018 46/98 /2525 10097 20049 40297 56006 22200 00104 10601 70007 333 90710 91135
BBXX 62303 24184 99516 70051 46/// /2422 10112 20079 40262 57011 22200 00112 10708 70038 333 90710 91133
BBXX 64045 24184 99591 70117 46/// /2634 10079 20035 49966 53025 22200 00100 11020 70098 333 90710 91154
BBXX 62103 24184 99499 70029 46/99 /2727 10112 20063 40306 56010 22200 00120 10704 70022 333 90710 91138
BBXX A8PQ6 24184 99261 10558 41597 32904 10200 2012/ 40210 54/// 70200 832/3 22200 00254 20201 32929 40201 50201 6//// 80150 ICE /////
BBXX A8PQ6 24184 99261 10558 41597 32904 10200 2012/ 40210 54/// 70200 832/3 22200 00254 20201 32929 40201 50201 6//// 80150 ICE /////
AAXX 24184 97340 32560 82105 10254 20250 30042 40056 56021 82272 333 56000 82620 87460
AAXX 24184 71618 17412 83328 11153 21173 39981 40019 53057 60001 771// 333 11054 21192 70006
BBXX 62303 24184 99516 70051 46/// /2422 10112 20079 40262 57011 22200 00112 10707 70035 333 90710 91133
BBXX 64045 24184 99591 70117 46/// /2636 10079 20035 49966 53025 22200 00100 11020 70098 333 90710 91154
BBXX 63110 24184 99595 10015 47496 /2229 10080 20059 49983 55017 704// 22200 10709 70045
BBXX 63106 24184 99610 10017 46/// /2335 10081 49916 56027 22200
BBXX 63105 24184 99610 10017 47596 ///// 10088 20069 49920 56024 751// 22200
BBXX 62304 24184 99511 10018 46/98 /2525 11003 21047 40297 56006 22200 00105 10601 70007 333 90710 91128
BBXX 62103 24184 99499 70029 46/99 /2828 10105 20063 40308 56015 22200 00120 10804 70021 333 90710 91140
BBXX 2AUO5 24183 99608 10017 41/97 /2228 10096 20068 49939 56006 70022 8//// 22241 20706 322// 40912 80083
BBXX ONAN 24184 99219 11547 41598 21809 10270 2024/ 40120 51005 7//00 822// 22263 00280 20301 309// 40703 5//// 6//// 80250 ICE /////
BBXX ONAN 24184 99219 11547 41598 21809 10270 2024/ 40120 51005 7//00 822// 22263 00280 20301 309// 40703 5//// 6//// 80250 ICE /////
AAXX 24184 89625 46/// /2804 11350 29069 36509 4//// 5//// 91800
BBXX 63108 24184 99608 10017 47996 /2438 10080 20055 49949 56020 704// 22200 10809 70047
BBXX 63106 24184 99610 10017 46/// /2335 10081 49916 56027 22200
BBXX 63113 24184 99610 10017 46/// /2436 10087 20067 49944 55013 22200 10811 70053
BBXX 63110 24183 99595 10015 41/// /2340 10080 49976 700// 8//// 22200 10709 70045
BBXX 62304 24184 99511 10018 46/98 /2525 10097 20049 40297 56006 22200 00104 10601 70007 333 90710 91135
BBXX 62303 24184 99516 70051 46/// /2422 10112 20079 40262 57011 22200 00112 10708 70038 333 90710 91133
BBXX 64045 24184 99591 70117 46/// /2634 10079 20035 49966 53025 22200 00100 11020 70098 333 90710 91154
BBXX 62103 24184 99499 70029 46/99 /2727 10112 20063 40306 56010 22200 00120 10704 70022 333 90710 91138
AAXX 24184 91631 11599 10815 10280 20237 40070 60001 70200 81100 333 562//
AAXX 24184 91636 11599 40210 10280 20229 40057 60001 70300 84200 333 568//
AAXX 24184 91648 11498 70000 10267 20246 40058 69931 71428 83370 333 5629/
AAXX 24184 48583 31557 70000 10250 20222 30088 40094 57015 71022 82206 333 58005 70017
AAXX 24184 48581 31556 60907 10247 20222 30065 40106 57006 71022 82446 333 58012 70017
BBXX UGSN 24181 99514 11410 42/98 /0622 11035 40087 52007 22231 00014 2////
BBXX UGSN 24181 99514 11410 42/98 /0622 11035 40087 52007 22231 00014 2////
BBXX 62303 24184 99516 70051 46/// /2422 10112 20079 40262 57011 22200 00112 10707 70035 333 90710 91133
BBXX 64045 24184 99591 70117 46/// /2636 10079 20035 49966 53025 22200 00100 11020 70098 333 90710 91154
BBXX 63110 24184 99595 10015 47496 /2229 10080 20059 49983 55017 704// 22200 10709 70045
BBXX 63106 24184 99610 10017 46/// /2335 10081 49916 56027 22200
BBXX 63105 24184 99610 10017 47596 ///// 10088 20069 49920 56024 751// 22200
BBXX 62304 24184 99511 10018 46/98 /2525 11003 21047 40297 56006 22200 00105 10601 70007 333 90710 91128
BBXX 62103 24184 99499 70029 46/99 /2828 10105 20063 40308 56015 22200 00120 10804 70021 333 90710 91140
BBXX 2AUO5 24183 99608 10017 41/97 /2228 10096 20068 49939 56006 70022 8//// 22241 20706 322// 40912 80083
BBXX UGWJ 24181 99087 30771 42/98 52803 10298 40117 54000 22252 00287 20201
BBXX UGWJ 24181 99087 30771 42/98 52803 10298 40117 54000 22252 00287 20201
AAXX 24194 89272 46/// /1117 11117 21149 38056 49694 5//// 91850
AAXX 24194 89257 46/// /2208 11073 21092 39813 49884 5//// 91850
BBXX WDC6055 24184 99470 70858 41/97 92130 11020 40170 70222 22263
BBXX WDC6055 24184 99470 70858 41/97 92130 11020 40170 70222 22263
AAXX 24184 44454 41958 00000 10050 20030 38670 48502 71000 333 58008
AAXX 24184 96745 32556 70000 10280 20236 30071 40076 57002 82521 333 56000 82620 85460
AAXX 24184 67009 32580 71506 10270 20241 39985 40103 51012 83902 333 10331 83820 81920 94971/4 95831/4 555 81640 83075
AAXX 24181 15020 02997 01301 11076 21084 30018 40229 52008 60002 333 11012 21076 3/100 4//// 60007 91001 92840
AAXX 24184 71560 16/// /2007 11023 21054 39822 40130 58011 60001 333 11023 21114 70000
AAXX 24181 11813 11665 72805 10046 20014 39861 40215 52013 69912 70244 8257/ 333 10049 41998 82633 87358 91013 93401
AAXX 24194 89262 46/// /1509 11024 21052 39814 49857 5//// 91850
AAXX 24194 89065 46/// /9902 10004 21038 39730 49807 5//// 91850
AAXX 24181 26531 11238 81903 10002 21003 40099 58001 60032 76165 8872/ 333 10002 88705 91006 91107 93404 555 4/997 53009
BBXX KRGB 24184 99249 71520 41398 50321 10211 2018/ 40245 54000 71622 859// 22254 00211 20304 33212 41205 50805 6//// 80194 ICE /////
BBXX ZCAO7 24184 99219 11266 41/98 80230 10198 20117 40186 58006 70282 8//// 22243 00261 2//// 80153
AAXX 24181 24641 42999 00701 11437 21468 30167 40336 57014
AAXX 24181 30089 42999 00000 11477 21505 30110 40381 57014
AAXX 24181 24944 42996 30703 11438 21456 39998 40344 57011 80001
BBXX WDE8293 24184 99392 70606 41295 83020 10140 20085 40138 51008 78162 886// 22274 00200 21006 32205 41007 51006 6//// 80110 ICE /////
AAXX 24184 60210 32970 01604 10152 21047 39063 48585 53001 333 10192
AAXX 24184 85467 12970 33313 10236 20130 40136 56011 60001 80002 333 56006 83070
AAXX 24184 85406 12980 02113 10242 20153 40115 56014 60001
AAXX 24184 85418 12970 52314 10235 20145 40126 58007 60001 85030 333 56000 85363
AAXX 24184 85432 12970 32522 10244 20051 37753 48424 56002 82031 333 56000 82360 82072
AAXX 24184 85442 12570 32011 10215 20151 40118 56008 60001 81501 333 56407 81625
AAXX 24184 85467 NIL
AAXX 24184 85469 42570 43409 10240 20184 40202 57002 84800 333 56800 83820
AAXX 24184 85488 32960 02810 10197 20118 40142 58002
AAXX 24184 85574 12960 02213 10313 21016 39567 40086 58009 60001
AAXX 24184 85577 12960 02306 10317 21001 39518 40091 57008 60001
AAXX 24184 85585 12598 51919 10176 20110 40197 58004 60001 85800 333 56400 82830 83633
AAXX 24184 85586 12960 02807 10178 20108 40147 57004 60001
AAXX 24184 85629 12984 02707 10310 20074 40101 57012 60001
AAXX 24184 85672 12980 01804 10310 20070 40122 57016 60001 333
AAXX 24184 85682 12965 02414 10236 20090 40134 58003 60001
AAXX 24184 85743 12960 01907 10292 20063 40140 58020 60001
AAXX 24184 85766 12970 01507 10256 20116 40172 57026 60004
AAXX 24184 85782 11960 01511 10226 20104 40200 57023 60001 70441
AAXX 24184 85799 12960 01513 10176 20103 40221 57012 60001
AAXX 24184 85830 NIL
AAXX 24181 10609 01675 32304 10029 21002 39991 40333 51019 69902 70181 81501 333 10052 20028 31000 55300 20000 30000 69907 81640 83080
AAXX 24181 10609 01675 32304 10029 21002 39991 40333 51019 69902 70161 81501 333 10052 20028 31000 55300 20000 30000 69907 81640 83080
