BBXX ZMFR 08054 99513 31665 43/// /27// 10089 20022 40123 52020 22281 00089
BBXX 44172 08061 99445 70634 46/// ///// 1//// 90531 22200 00082 11003 21002 312// 41101 70013
BBXX 46218 08061 99345 71208 46/// ///// 1//// 90532 22200 00139 11403 20602 321// 41401 70014
BBXX WDD2876 08064 99471 70907 41/98 73137 11011 2//// 40102 55/// 70222 8//// 22266 00050 2//04 3//// 4//// 5//// 6//// 8//// ICE /////
AAXX 08064 40270 31940 02004 10030 21174 39285 401896 52008 70400 333 20030 30130
AAXX 08064 89578 46/// /0509 11360 36726 4//// 5////
BBXX ICGU 08064 99132 70614 41797 20512 10270 20213 40110 54/// 70211 82/8/ 22212 04270 21001 39999 41402 51501 6//// 85230 ICE /////
BBXX NWS0021 08064 99317 70642 43/// /1712 10213 20135 40187 5//// 7//// 8//// 222// 04228 2//// 3//// 4//// 5//// 6//// 8//// ICE /////
BBXX V7MO2 08064 99262 70914 41597 50517 10140 20063 40245 57004 70022 85972 22200 00240 20302 335// 40506 5//// 6//// 80100 ICE /////
BBXX C6DM2 08064 99054 11003 41697 81805 10330 20249 40080 54000 70322 8848/ 22200 0//// 2//// 3//// 4//// 5//// 6//// 80270 ICE /////
BBXX 42363 08061 99282 70892 46/// /0208 10106 20039 40264 90545 333 91208
BBXX 42364 08061 99291 70881 46/// /3609 10094 20044 40258 90545
AAXX 08064 40255 32960 60000 10096 20011 39464 40188 57006 83030 333 20054 30101 86360
AAXX 08064 08495 11459 50000 10120 20116 30271 40279 57003 60002 70522 83501 90550 333 20120 30008 70000 81712 83618 85075
BBXX 46249 08061 99338 71197 46/// ///// 1//// 90545 22200 00146 11402 20301 321// 41401 70008
BBXX 46248 08061 99461 71247 46/// ///// 1//// 90534 22200 00084 11103 20803 329// 41102 70016
BBXX 46244 08061 99409 71244 46/// ///// 1//// 90535 22200 00097 11203 21002 331// 41202 70014
AAXX 08064 91376 11474 60609 10287 20252 30059 40063 53007 60031 70281 84801 333 561/9 70030 555 90806
BBXX 46240 08061 99366 71219 46/// ///// 1//// 90542 22200 00115 10501 20501 336// 41201 70007
BBXX 46237 08061 99378 71226 46/// ///// 1//// 90540 22200 00114 11302 21001 326// 41301 70008
BBXX 46212 08061 99408 71243 46/// ///// 1//// 90542 22200 00094 11202 21002 331// 41201 70012
BBXX 46217 08061 99342 71194 46/// ///// 1//// 90542 22200 00146 11201 20801 326// 41201 70006
AAXX 08064 91376 11474 60609 10287 20252 30059 40063 53007 60031 70281 84801 333 561/9 70030 555 90806
BBXX 44098 08061 99428 70702 46/// ///// 1//// 90537 22200 00098 10503 20503 311// 41101 70015
BBXX 44097 08061 99410 70711 46/// ///// 1//// 90532 22200 00131 10805 20805 316// 41101 70027
BBXX 46211 08061 99469 71242 46/// ///// 1//// 90536 22200 00086 11103 20802 328// 41102 70014
AAXX 08064 91772 11398 30303 10270 20238 4//// 60051 70226 83200 333 561// 81708 83818
AAXX 08064 91776 31498 20000 1//// 2//// 4//// 60001 70100 82200 333 569// 82819
AAXX 08064 91779 31498 20609 10271 20232 40119 53011 60001 70200 82201 333 561/9 82817
AAXX 08064 91784 31499 20605 10273 20250 40120 53017 60011 70110 82201 333 561/9 82818
AAXX 08064 91792 31499 20806 10284 20256 40131 53016 60001 70200 82201 333 562/9 82816
AAXX 08064 91772 11398 30303 10270 20238 4//// 60051 70226 83200 333 561// 81708 83818
AAXX 08064 91776 31498 20000 1//// 2//// 4//// 60001 70100 82200 333 569// 82819
AAXX 08064 91779 31498 20609 10271 20232 40119 53011 60001 70200 82201 333 561/9 82817
AAXX 08064 91784 31499 20605 10273 20250 40120 53017 60011 70110 82201 333 561/9 82818
AAXX 08064 91792 31499 20806 10284 20256 40131 53016 60001 70200 82201 333 562/9 82816
AAXX 08064 78583 11460 73611 10225 20218 40174 69951 76082 87800 333 0/100 58012 81812 87640
AAXX 08064 08594 31456 20608 10212 20200 40124 71000 81501 333 20210 58000 81614
AAXX 08064 08583 31457 20706 10200 20185 40136 70600 81501 333 20192 59001 81618
AAXX 08064 08589 NIL
AAXX 08064 89664 11412 82008 11024 21036 39717 49757 53005 69901 77177 886// 333 56499 88715 90983 93197
AAXX 08064 91334 11474 80908 10270 20241 30064 40067 55005 60131 70282 83171 333 56299 70790 555 90806
AAXX 08064 89664 11412 82008 11024 21036 39717 49757 53005 69901 77177 886// 333 56499 88715 90983 93197
AAXX 08064 91334 11474 80908 10270 20241 30064 40067 55005 60131 70282 83171 333 56299 70790 555 90806
AAXX 08064 89664 11412 82008 11024 21036 39717 49757 53005 69901 77177 886// 333 56499 88715 90983 93197
AAXX 08064 61902 11582 71313 10230 20177 40124 69904 70281 878// 333 20220 59007 82824 87640
AAXX 08064 68392 16/// /2003 10173 20163 30051 4//// 53021 69924 333 20163 91008 555 10263 20002
AAXX 08064 68382 36/// /1604 10181 20155 39347 48521 53017 333 20165 91006 555 10282 91016
AAXX 08064 68906 32598 73503 10109 20052 30221 40287 57007 8257/ 222// 00122 333 20077 91005 555 10134 91028
AAXX 08064 08594 31456 20608 10212 20200 40124 71000 81501 333 20210 58000 81614
AAXX 08064 08583 31457 20706 10200 20185 40136 70600 81501 333 20192 59001 81618
AAXX 08064 08589 31456 10408 10210 20210 40124 70600 81500 333 20201 58002 81615
AAXX 08064 68994 12598 32309 10074 20029 30020 40049 53025 60214 83500 222// 00060 333 20060 91024 555 10126 20214 91004
AAXX 08064 78705 11560 41202 10206 20198 30148 40166 58009 60031 72054 84230 333 10271 20218 31/// 56200 58006 84824 83358
AAXX 08064 78708 11150 82404 10213 20213 30137 40168 58007 60075 75165 8552/ 333 10274 20213 32/// 56799 81702 84620 88458
AAXX 08064 78714 32560 81402 10195 20179 8422/ 333 10253 20173 30/// 56299 84826 88458
AAXX 08064 78717 11358 60406 10164 20161 38975 40164 58005 60084 70554 85730 333 10207 20160 31//7 56100 58000 85706 86359
AAXX 08064 78720 11258 73610 10177 20165 39051 40156 58003 69941 70554 86510 333 10260 20172 30/// 56880 58006 81705 84618
AAXX 08064 78724 32578 10310 10250 20212 30074 40131 52010 81500 333 10350 20220 30/// 56100 58015 81630
BBXX 44060 08061 99413 70721 46/// ///09 10089 49926 90545 22200 00121 333 91211 555 11098 22103
BBXX 41115 08061 99184 70673 46/// ///// 1//// 90535 22200 11004 21003 300// 41102 70018
BBXX 41114 08061 99276 70802 46/// ///// 1//// 90546 22200 00241 10503 20503 307// 41101 70015
BBXX 51205 08061 99210 71564 46/// ///// 1//// 90548 22200 00245 11205 21004 333// 41203 70023
BBXX 46114 08061 99364 71222 46/// ///// 1//// 90534 22200 00109 11303 20502 330// 41301 70013
BBXX 51203 08061 99208 71570 46/// ///// 1//// 90543 22200 00252 11102 21001 328// 41101 70009
BBXX 52200 08061 99134 11448 46/// ///// 1//// 90545 22200 00288 10904 20904 309// 41101 70019
BBXX 51201 08061 99217 71581 46/// ///// 1//// 90542 22200 00246 12204 21003 331// 42203 70022
BBXX 46088 08061 99483 71232 46/// /3404 10054 40316 51004 90550 22200 00082 1//00 70002 333 91205 555 11043 22044 30534 40107 60549 340043 015052 017041 006041 003033 359029
BBXX KSDF 08064 99361 10153 41498 22913 10178 20132 40235 54000 70200 821// 22233 0//// 20202 329// 40803 5//// 6//// 80150
BBXX A8IM7 08064 99241 11465 41597 60612 10260 20178 40152 50150 70122 85169 22264 04280 20805 304// 41205 5//// 80205
BBXX DHDH 08064 99212 10382 41597 53221 10242 20206 40140 53010 70311 8/440 22234 20404 80217
BBXX A8EH3 08063 99370 11336 41/96 /0330 10100 20038 40140 56020 76362 8/7// 22214 04160 21006 303// 41006 80070
BBXX DDLK 08063 99443 70447 41/94 80119 10101 20096 40180 55000 74141 88/// 22264 20803 80098
BBXX DMQN 08063 99176 70268 41598 10514 10230 20208 40135 55005 70100 81101 22214 04250 21102 3//// 4//// 5//// 80215
BBXX A8UT7 08064 99118 70181 41698 30308 10268 20199 40070 57010 70100 82549 22283 20601 304// 41003 80220
AAXX 08064 40272 31958 00000 10022 21137 39360 40218 52007 70500 333 21044 30106
AAXX 08061 13586 31225 70000 11016 21021 39906 40209 54000 71042 87600 333 21057 34/// 87705
BBXX TESTFR9 08064 99487 70021 46/// /2221 10107 29089 40242 57004 22235
BBXX BAREU63 08064 99424 10098 46/// /3612 10167 29060 40193 52028 22243
AAXX 08064 16597 11560 42912 10153 20106 30159 40246 53003 69902 70261 84800 333 20140 30013 70000 82829 83650 91118 91530
AAXX 08064 61901 169// /1317 10153 20135 39661 40172 53001 69942 90550 333 20144 3/013 70004 8//99 555 7/090
BBXX 41012 08061 99300 70805 46/// /3211 10118 40189 51009 90550 22200 00222 333 91214 555 11119 22124
BBXX 41001 08061 99347 70727 46/// ///// 10234 20186 40065 56020 90550 22200 00230 10910 70050
BBXX 41049 08061 99275 70630 46/// /1106 10237 20167 40184 58012 90550 22200 00249 11004 20602 300// 41003 70020 333 91208 555 11068 22071 30510 41109 60549 109065 105071 111071 108073 095063 080064 81108 90510
BBXX 42020 08061 99270 70967 46/// /0703 10144 20046 40267 58005 90550 22200 00242 10502 20401 304// 40501 70008 333 91206 555 11034 22035 30459 40906 60549 079032 102030 077027 093031 072037 080038
BBXX 41044 08061 99217 70587 46/// /0710 10265 20217 40123 57014 90550 22200 00269 10906 20604 300// 40905 70032 333 91213 555 11105 22111 30547 40613 60549 069099 070097 070093 071092 072076 075079 80711 90547
BBXX 41048 08061 99320 70696 46/// /1912 10227 20175 40168 56005 90550 22200 00230 10604 20603 3//// 41002 70020 333 91214 555 11118 22126 30456 41915 60549 195119 197114 194115 193121 194129 193129 81914 90456
BBXX 42065 08061 99149 70750 46/// /0805 10270 20214 90550 22200 10602 20501 3//// 40601 70008 333 91207 555 11058 22061 30548 40807 60549 077054 078051 074052 070053 065050 065052 80806 90548
BBXX 42012 08061 99301 70876 46/// /3611 10060 20027 40248 50000 90550 22200 00196 10402 20402 70010 333 91213 555 11110 22115 30531 43613 60549 357105 356105 001102 358093 355091 358086
BBXX 42001 08061 99259 70897 46/// /0109 10160 20074 40241 58006 90550 22200 00238 10906 20604 3//// 40904 70028 333 91212 555 11091 22095 30511 40212 60549 008088 007085 014080 012090 011088 002075
BBXX 42035 08061 99292 70944 46/// /0604 10095 20024 40275 52003 90550 22200 00163 10301 20301 70004 333 91206 555 11040 22041 30512 40708 60549 057039 061040 063041 062046 067045 067049
BBXX 42060 08061 99163 70635 46/// /0706 10272 20225 40119 58014 90550 22200 00281 11102 20401 300// 41102 70012 333 91207 555 11059 22062 30545 40707 60549 066055 069052 062056 067053 067051 067056 80706 90546
BBXX 42058 08061 99149 70749 46/// /0806 10272 20209 40113 58011 90550 22200 00278 10602 20501 303// 40601 70009 333 91207 555 11062 22066 30511 40707 60549 076058 075058 073056 075061 080061 076060 80807 90511
BBXX 42036 08061 99285 70845 46/// /3611 10118 20077 40216 51007 90550 22200 00219 10905 20604 329// 40903 70026 333 91214 555 11114 22119 30508 43614 60549 000107 001105 000108 001108 000111 001111
BBXX 42019 08061 99279 70954 46/// /0305 10137 20039 40264 54000 90550 22200 10501 20401 303// 40501 70007 333 91207 555 11050 22053 30451 42807 60549 021048 281034 283048 282049 282043 284052
BBXX 44005 08061 99432 70691 46/// /0209 10087 20087 49955 58042 90550 22200 00094 10603 20602 3//// 40802 70014 333 91211 555 11094 22099 30540 40211 60549 022090 025086 030090 029087 024077 020067
BBXX 42040 08061 99292 70882 46/// /0208 10087 40254 50000 90550 22200 00222 10603 20603 323// 40801 70017 333 91210 555 11078 22081 30502 40112 60549 019078 018081 011082 009083 017083 010086
BBXX 42055 08061 99222 70940 46/// /0208 10204 20136 40230 58005 90550 22200 00253 10906 20704 334// 40905 70031 333 91211 555 11086 22090 30453 40112 60549 019080 018081 024084 017091 017092 015095 80111 90454
BBXX 42003 08061 99260 70856 46/// /0208 1//// 90550 22200 10905 20603 329// 40903 70023 333 91211 555 11083 22089 30452 40313 60549 017081 017080 019079 016090 017091 012089 80210 90452
BBXX 42002 08061 99258 70937 46/// /0606 10156 20076 40255 58007 90550 22200 00248 10804 20502 334// 40803 70019 333 91209 555 11064 22068 30549 40609 60549 055064 050065 034056 043066 054060 050067
BBXX 42059 08061 99151 70675 46/// /0905 10276 20233 40115 58009 90550 22200 00282 11102 20402 3//// 41102 70011 333 91206 555 11054 22056 30501 41007 60549 093051 093051 090053 089055 096056 097057 80906 90451
BBXX 41047 08061 99275 70715 46/// /1509 10249 40174 57006 90550 22200 00253 11105 20703 305// 41103 70023 333 91210 555 11085 22090 30451 41411 60549 146086 142085 144086 142089 144090 142093 81410 90517
BBXX 41043 08061 99211 70650 46/// /0809 10250 20228 40138 58013 90550 22200 00273 10906 20704 300// 40905 70030 333 91211 555 11093 22098 30523 40813 60549 075089 080089 085102 072090 072091 080084 80911 90523
BBXX 41036 08061 99342 70770 46/// ///// 10129 20075 40120 51043 90550 22200 00174 10606 70029
BBXX 44066 08061 99396 70726 46/// /2916 1//// 49935 55029 90550 22200 00134 10707 20707 70034 333 91220 555 11167 22178 30507 42221 60549 286154 274161 239142 225156 217165 208153
BBXX 44025 08061 99402 70732 46/// /3218 10081 49913 55031 90550 22200 00121 10704 20504 316// 40702 70022 333 91222 555 11194 22206 30530 42924 60549 317180 308190 299189 293160 307097 296079
BBXX 41008 08061 99314 70809 46/// /3110 10089 20044 40198 52017 90550 555 11110 22118
BBXX 44014 08061 99366 70748 46/// /3114 10114 20114 40068 51071 90550 22200 00158 10805 20805 70026 333 91217 555 11142 22142 30531 43118 60549 305143 305141 307141 306121 308108 311100
BBXX 41004 08061 99325 70791 46/// /3012 10117 20065 40173 51028 90550 22200 00211 333 91215 555 11130 22136 30454 42918 60549 297120 297119 291123 293130 290130 286140
BBXX 44009 08061 99385 70747 46/// /3016 10083 40047 51098 90550 22200 00129 10604 20604 70022 333 91220 555 11172 22182 30526 43020 60549 296161 295165 293172 288156 291150 302151
BBXX 44027 08061 99443 70673 46/// /0509 10084 20078 49966 58051 90550 22200 00093 10503 20502 3//// 40801 70014 333 91211 555 11092 22097 30458 40511 60549 054088 050084 052087 051091 051085 053091
BBXX 41013 08061 99334 70777 46/// /2914 10133 20089 40140 51037 90550 22200 00235 10706 20706 329// 41201 70031 333 91218 555 11147 22155 30507 42719 60549 288139 283147 288141 281143 280149 279143
BBXX 44065 08061 99404 70737 46/// /3315 10080 20073 49946 56010 90550 22200 00118 10504 20504 312// 41101 70021 333 91218 555 11160 22170 30455 43221 60549 329151 332159 325158 324156 319152 318166 83218 90453
BBXX 44040 08061 99410 70736 46/// /0214 10060 20060 49973 90545 22200 10302 70011 333 91219 555 11160 22175
BBXX 44020 08061 99414 70702 46/// /1809 10139 20139 49928 58065 90550 22200 00102 10301 20301 70007 333 91210 555 11093 22099 30527 42511 60549 193087 251084 252094 251088 251090 245088
BBXX 46105 08061 99590 71522 46/// ///// 1//// 90550 22200 10908 70042
BBXX 46070 08061 99551 11753 46/// /3012 10004 21045 49997 51030 90550 22200 00046 11209 20706 3//// 41207 70046 333 91215 555 11129 22136 30525 42915 60549 301121 298120 297123 296119 293119 294118 83013 90550
BBXX 46060 08061 99606 71468 46/// /0107 10010 40171 58036 90550 22200 00058 11002 20401 318// 41002 70011 333 91208 555 11072 22075 30545 43608 60549 007069 009063 004059 012062 012051 022053 83607 90544
BBXX 32012 08061 99197 50856 46/// ///// 1//// 90550 22200 11505 70025
BBXX 46002 08061 99426 71305 46/// ///// 10111 40312 54000 90550 22200 00125 10604 70019
BBXX 46006 08061 99408 71375 46/// /0907 10120 40321 90550 22200 00127 11203 20602 3//// 41202 70015 333 91208 555 11071 22075 30535 40710 60549 086068 082077 072064 066058 067063 068064
BBXX 46084 08061 99566 71361 46/// /1514 10046 20027 40279 58018 90550 22200 00077 10606 20606 300// 40902 70030 333 91216 555 11147 22156 30527 41517 60549 145137 147142 147144 148146 145143 143137
BBXX 46075 08061 99539 71608 46/// /2010 10059 20055 40047 51008 90550 22200 00054 11508 20805 300// 41506 70042 333 91212 555 11108 22116 30529 42114 60549 201098 201100 199101 199102 197099 196094 82011 90529
BBXX 46005 08061 99461 71310 46/// ///06 10089 40343 54000 90550 22200 00102 11103 20402 3//// 41103 70017 333 91208 555 11066 22070
BBXX 46059 08061 99380 71300 46/// /0307 10121 40267 52004 90550 22200 00149 11103 20602 3//// 41102 70014 333 91208 555 11069 22072 30451 40410 60549 034064 041070 041067 030070 028069 035071
BBXX 46080 08061 99580 71500 46/// /1905 10054 20054 40096 57005 90550 22200 00055 10806 20402 3//// 40806 70030 333 91206 555 11053 22056 30535 41906 60549 190050 191053 191051 191051 192050 192051 81906 90530
AAXX 08064 68352 36/// /1010 10209 20003 39055 48505 53017 333 20182 91012 555 10320 91015
BBXX WCZ5238 08064 99166 51205 41998 31024 10230 20201 40177 52007 70200 80008 22273 00240 20304 325// 40604 5//// 6//// 80210 ICE /////
BBXX ZCDF4 08063 99194 70743 41/98 30718 10265 20236 40131 56010 70200 8//// 22244 00270 20301 309// 40602 5//// 80245
BBXX C6FY5 08064 99206 50398 41597 80110 10220 2021/ 40140 54/// 7//22 883// 22273 04250 2//// 399// 40601 5//// 6//// 80210 ICE /////
BBXX NWS0022 08064 99416 70714 43/// /3610 10100 20093 49930 5//// 7//// 8//// 222// 04131 2//// 3//// 4//// 5//// 6//// 8//// ICE /////
BBXX WNBE 08064 99198 71565 41/// /0536 10240 2//// 40150 5//// 7//// 8//// 222// 0//// 2//// 3//// 4//// 5//// 6//// 8//// ICE /////
BBXX WDC6698 08064 99097 71435 43/// /1120 10268 20261 40100 5//// 7//// 8//// 222// 04252 2//// 3//// 4//// 5//// 6//// 8//// ICE /////
BBXX WKAE 08063 99469 70482 41697 82021 10053 20047 40131 53008 75352 8802/ 22224 00030 2//// 3//// 4//// 5//// 6//// 80050 ICE /////
BBXX WDF5483 08064 99415 70816 43/// /2408 11005 2//// 40176 5//// 7//// 8//// 222// 0//// 2//00 3//// 4//// 5//// 6//// 8//// ICE /////
BBXX VCPX 08064 99445 70827 43/98 /3025 10001 2//// 41013 54/// 70000 8//// 22232 00056 20502 3//// 4//// 5//// 6//// 8//// ICE /////
BBXX 46053 08061 99342 71198 46/// /2601 10138 40182 54000 90550 22200 00146 333 91201 555 11007 22007 30455 42503 60549 262007 301007 335013 317014 284016 257022
BBXX 46014 08061 99394 71240 46/// /0502 10092 40222 56007 90550 22200 00105 11302 3//// 41302 70011 333 91202 555 11016 22017 30508 43404 60549 045017 034014 018020 350027 339029 341030
BBXX 46011 08061 99350 71210 46/// /3307 10127 40197 54000 90550 22200 00137 10603 20602 329// 41101 70013 333 91209 555 11079 22083 30457 43309 60549 327074 329077 328076 328075 330080 331084
BBXX 46047 08061 99324 71195 46/// /3207 10133 40197 55000 90550 22200 00137 11202 20401 327// 41201 70010 333 91208 555 11074 22079 30548 43208 60549 321070 321067 316067 316067 322067 323066
BBXX 46027 08061 99419 71244 46/// /0301 10084 40223 56008 90550 22200 00095 10703 20401 334// 40703 70016 333 91201 555 11008 22008 30500 41002 60549 038008 078005 090007 105012 097015 096016
BBXX 46086 08061 99325 71180 46/// /3105 10146 40189 52005 90550 22200 00151 11301 20401 322// 41301 70007 333 91205 555 11047 22049 30542 43105 60549 312045 313041 319039 313040 307037 309037
BBXX 46088 08061 99483 71232 46/// /3404 10054 40316 90550 22200 00082 1//00 70002 333 91205 555 11043 22044 30534 40107 60549 340043 015052 017041 006041 003033 359029
BBXX 46050 08061 99442 71246 46/// /0108 10087 40278 56005 90550 22200 00103 11103 20603 330// 41102 70017 333 91210 555 11089 22094 30525 40111 60549 006083 006084 005090 008086 002085 000087
BBXX 46069 08061 99337 71202 46/// /3209 10129 40192 54000 90550 22200 00133 10502 20502 326// 41401 70012 333 91210 555 11092 22097 30518 43210 60549 322086 321084 321086 319084 318085 315081
BBXX 46013 08061 99382 71233 46/// /3105 10099 40214 57008 90550 22200 00107 11302 20301 3//// 41302 70010 333 91206 555 11048 22050 30526 43206 60549 314047 311049 310051 307049 303049 303049
BBXX 46012 08061 99374 71229 46/// /3106 10102 40216 57007 90550 22200 00122 11402 20401 325// 41402 70010 333 91207 555 11058 22060 30517 43208 60549 314056 314059 316060 318061 321059 322058
BBXX 46087 08061 99485 71247 46/// /0504 10060 20043 40320 53008 90550 22200 00083 11103 20401 328// 41103 70013 333 91205 555 11043 22044 30519 40907 60549 054042 070050 077058 084049 089043 088042
BBXX 46029 08061 99461 71245 46/// /0407 10064 20032 40300 53006 90550 22200 00082 11103 20502 326// 41102 70015 333 91209 555 11078 22082 30547 40409 60549 040074 045072 048074 051076 051075 056075
BBXX 46054 08061 99342 71204 46/// /3208 10128 40189 55000 90550 22200 00136 333 91210 555 11084 22089 30458 43311 60549 322079 326081 325083 326085 324085 323087
BBXX 46028 08061 99357 71219 46/// /3209 10117 40199 57003 90550 22200 00131 10603 20603 328// 41201 70016 333 91211 555 11100 22106 30539 43211 60549 319094 323097 321096 323098 324094 321090
BBXX 46025 08061 99337 71191 46/// /3004 10145 40188 55000 90550 22200 00153 11301 20401 320// 41301 70006 333 91204 555 11039 22040 30451 42905 60549 296038 280039 280038 288040 293041 294036
BBXX A8IM7 08064 99241 11465 41597 60612 10260 20178 40152 50150 70122 85169 22264 04280 20805 304// 41205 5//// 80205
BBXX A8EH3 08063 99370 11336 41/96 /0330 10100 20038 40140 56020 76362 8/7// 22214 04160 21006 303// 41006 80070
BBXX V7DI8 08063 99336 11253 41397 83532 10080 2004/ 40240 57020 70282 8872/ 22223 00180 20406 333// 40705 5//// 6//// 80060 ICE /////
BBXX LAJS6 08064 99493 11663 41597 81524 10020 2103/ 40050 56015 70322 87455 22213 00050 21002 302// 41410 80000
BBXX DGHJ 08063 99031 70953 41498 61715 10231 20200 40117 50005 70222 85130 22273 00250 2//// 3//// 4//// 5//// 80210
BBXX C6FY5 08064 99206 50398 41597 80110 10220 2021/ 40140 54/// 7//22 883// 22273 04250 2//// 399// 40601 5//// 6//// 80210 ICE /////
BBXX ELZA8 08063 99249 50456 41497 60714 10240 20211 40000 58020 70322 86770 22254 04240 29902 80220
BBXX HZZB 08063 99372 10074 41598 23013 10162 2014/ 40287 56013 70200 82080 22223 0//// 20502 329// 40803 5//// 6//// 80149 ICE /////
BBXX HZRX 08063 99364 70265 41697 80910 /// 10180 20170 40242 56024 70211 88000 22263 10150 20202 30909 40101 5//// 6//// 80160 ///// /////
BBXX WDD3825 08064 99442 70201 43798 82513 10150 2013/ 40265 52005 7//// 8875/ 22264 00160 20202 327// 40703 5//// 6//// 80140 ICE /////
BBXX DDLK 08063 99443 70447 41/94 80119 10101 20096 40180 55000 74141 88/// 22264 20803 80098
BBXX WKAE 08063 99469 70482 41697 82021 10053 20047 40131 53008 75352 8802/ 22224 00030 2//// 3//// 4//// 5//// 6//// 80050 ICE /////
BBXX SHIP 08064 99335 70757 41697 72523 10170 20147 40153 51011 70302 87/// 90545 22214 0//// 1//// 20506 318// 4//// 5//// 6//// 80130 /////
BBXX WCZ5535 08064 99239 70815 43498 40232 10230 2020/ 40110 5//// 7//// 8416/ 22224 0//// 2//// 3//// 4//// 5//// 6//// 80210 ICE /////
BBXX WNBE 08064 99198 71565 41/// /0536 10240 2//// 40150 5//// 7//// 8//// 222// 0//// 2//// 3//// 4//// 5//// 6//// 8//// ICE /////
BBXX 46088 08061 99483 71232 46/// /3404 10054 40316 51004 90550 22200 00082 1//00 70002 333 91205 555 11043 22044 30534 40107 60549 340043 015052 017041 006041 003033 359029
BBXX 44060 08061 99413 70721 46/// ///09 10089 49926 90545 22200 00121 333 91211 555 11098 22103
BBXX 51205 08061 99210 71564 46/// ///// 1//// 90548 22200 00245 11205 21004 333// 41203 70023
BBXX 41114 08061 99276 70802 46/// ///// 1//// 90546 22200 00241 10503 20503 307// 41101 70015
BBXX 41115 08061 99184 70673 46/// ///// 1//// 90535 22200 11004 21003 300// 41102 70018
BBXX 46114 08061 99364 71222 46/// ///// 1//// 90534 22200 00109 11303 20502 330// 41301 70013
BBXX 4XFV 08063 99510 71488 43/97 91825 10090 00/// 20065 40210 57040 7//// 89/// 22274 0//// 20605 ///// 3//// 4//// 5//// 6//// 8////
BBXX SHIP 08063 99348 71554 41/98 70718 10160 20108 40195 52020 70222 87/// 22264 00190 2//// 3//// 4//// 80163
BBXX DGTX 08063 99294 71163 41997 03514 10160 20078 40180 52010 70100 80000 22284 20303 80115
BBXX ELYX3 08064 99224 70991 41297 70123 10190 20142 40230 51/// 70322 8/7// 22254 20403 3//// 4//// 5//// 80160
BBXX WSLH 08064 99342 71460 41498 71123 10170 2014/ 40253 51020 71511 8724/ 22215 00180 2//// 3//// 4//// 5//// 6//// 80150 ICE /////
BBXX LADQ4 08064 99442 70518 41499 72019 10120 2008/ 40170 56010 70222 8794/ 22223 00100 2//// 320// 41203 5//// 6//// 80100
BBXX 46211 08061 99469 71242 46/// ///// 1//// 90536 22200 00086 11103 20802 328// 41102 70014
BBXX 44098 08061 99428 70702 46/// ///// 1//// 90537 22200 00098 10503 20503 311// 41101 70015
BBXX 44097 08061 99410 70711 46/// ///// 1//// 90532 22200 00131 10805 20805 316// 41101 70027
BBXX 46217 08061 99342 71194 46/// ///// 1//// 90542 22200 00146 11201 20801 326// 41201 70006
BBXX 46212 08061 99408 71243 46/// ///// 1//// 90542 22200 00094 11202 21002 331// 41201 70012
BBXX 46237 08061 99378 71226 46/// ///// 1//// 90540 22200 00114 11302 21001 326// 41301 70008
BBXX 46240 08061 99366 71219 46/// ///// 1//// 90542 22200 00115 10501 20501 336// 41201 70007
BBXX 46249 08061 99338 71197 46/// ///// 1//// 90545 22200 00146 11402 20301 321// 41401 70008
BBXX 46248 08061 99461 71247 46/// ///// 1//// 90534 22200 00084 11103 20803 329// 41102 70016
BBXX 46244 08061 99409 71244 46/// ///// 1//// 90535 22200 00097 11203 21002 331// 41202 70014
BBXX DPJK 08061 99259 70544 41/98 70609 10240 20180 40168 58007 70211 8//// 22254 04285 2//// 3//// 4//// 5//// 80200
BBXX ZCDF4 08063 99194 70743 41/98 30718 10265 20236 40131 56010 70200 8//// 22244 00270 20301 309// 40602 5//// 80245
BBXX WPGK 08064 99327 70706 41498 61824 10222 2021/ 40138 57020 70222 864// 22284 00228 20404 308// 40604 5//// 6//// 80211 ICE /////
BBXX LAHE2 08064 99165 70649 41295 41013 10270 2026/ 40110 56010 70111 84260 22253 00299 20402 328// 40503 5//// 6//// 80260 ICE /////
BBXX HO7723 08064 99261 70783 41797 42505 10235 2022/ 40160 54000 70200 84/85 22263 00280 20201 32627 40201 50201 6//// 80225 ICE /////
BBXX 42363 08061 99282 70892 46/// /0208 10106 20039 40264 90545 333 91208
BBXX WCZ5238 08064 99166 51205 41998 31024 10230 20201 40177 52007 70200 80008 22273 00240 20304 325// 40604 5//// 6//// 80210 ICE /////
BBXX 42364 08061 99291 70881 46/// /3609 10094 20044 40258 90545
BBXX NWS0021 08064 99317 70642 43/// /1712 10213 20135 40187 5//// 7//// 8//// 222// 04228 2//// 3//// 4//// 5//// 6//// 8//// ICE /////
BBXX A8UT7 08064 99118 70181 41698 30308 10268 20199 40070 57010 70100 82549 22283 20601 304// 41003 80220
BBXX DHDH 08064 99212 10382 41597 53221 10242 20206 40140 53010 70311 8/440 22234 20404 80217
BBXX DMQN 08063 99176 70268 41598 10514 10230 20208 40135 55005 70100 81101 22214 04250 21102 3//// 4//// 5//// 80215
BBXX ONCE 08064 99118 50257 41998 01218 10240 2020/ 40120 50010 70104 80400 22234 00257 2//// 3//// 4//// 5//// 6//// 80210 ICE /////
AAXX 08064 48001 NIL
AAXX 08064 48004 32563 10401 10229 20163 81100 333 56900
AAXX 08064 48008 32558 20401 10250 20167 40146 82200 333 56300 59005
AAXX 08064 48010 32560 13601 10230 20198 40145 81400 333 56900 59012
AAXX 08064 48018 32360 31401 10271 20191 40140 83800 333 56500 59003
AAXX 08064 48019 32460 20402 10258 20179 40146 80030 333 56040 59004
AAXX 08064 48020 31462 13601 10240 20174 70144 81200 333 56400
AAXX 08064 48025 31458 23601 10240 20191 40150 70144 82800 333 56900 59011
AAXX 08064 48035 31560 33202 10260 20160 40117 70144 83800 333 56500 58001
AAXX 08064 48037 32966 03601 10282 20184 40134 333 59007
AAXX 08064 48042 32559 10000 10295 20219 40132 81200 333 56900 59009
AAXX 08064 48045 32157 70000 10217 20173 87600 333 56200
AAXX 08064 48048 32962 00401 10290 20196 40136 333 59010
AAXX 08064 48053 32956 03603 10290 20196 40129 333 59009
AAXX 08064 48057 32457 22201 10242 20114 82800 333 56600
AAXX 08064 48060 32440 20000 10238 20174 40127 81130 333 56500 59009
AAXX 08064 48062 32960 00903 10300 20240 40128 333 59000
AAXX 08064 48071 32960 03203 10290 20230 40133 333 58005
AAXX 08064 48077 32960 00402 10313 20203 40126 333 59003
AAXX 08064 48078 32560 23202 10302 20207 40122 81101 333 56909 59006
AAXX 08064 48080 32962 03203 10335 20191 40114 333 59003
AAXX 08064 48094 32960 00402 10310 20240 40113 333 59005
AAXX 08064 48097 32457 31402 10320 20212 40118 81831 333 56999 59001
AAXX 08064 48108 31596 70501 10329 20234 40104 70522 83206 333 56109 59005
AAXX 08064 48109 32597 10402 10315 20265 40116 81500 333 56500 58001
AAXX 08064 48110 31596 80903 10310 20225 40098 70522 84267 333 56299 59011
AAXX 08064 48112 NIL
BBXX 46002 08061 99426 71305 46/// ///// 10111 40312 54000 90550 22200 00125 10604 70019
BBXX 46005 08061 99461 71310 46/// ///06 10089 40343 54000 90550 22200 00102 11103 20402 3//// 41103 70017 333 91208 555 11066 22070
BBXX 46006 08061 99408 71375 46/// /0907 10120 40321 90550 22200 00127 11203 20602 3//// 41202 70015 333 91208 555 11071 22075 30535 40710 60549 086068 082077 072064 066058 067063 068064
BBXX 46012 08061 99374 71229 46/// /3106 10102 40216 57007 90550 22200 00122 11402 20401 325// 41402 70010 333 91207 555 11058 22060 30517 43208 60549 314056 314059 316060 318061 321059 322058
BBXX 46013 08061 99382 71233 46/// /3105 10099 40214 57008 90550 22200 00107 11302 20301 3//// 41302 70010 333 91206 555 11048 22050 30526 43206 60549 314047 311049 310051 307049 303049 303049
BBXX 46014 08061 99394 71240 46/// /0502 10092 40222 56007 90550 22200 00105 11302 3//// 41302 70011 333 91202 555 11016 22017 30508 43404 60549 045017 034014 018020 350027 339029 341030
BBXX 46029 08061 99461 71245 46/// /0407 10064 20032 40300 53006 90550 22200 00082 11103 20502 326// 41102 70015 333 91209 555 11078 22082 30547 40409 60549 040074 045072 048074 051076 051075 056075
BBXX 46050 08061 99442 71246 46/// /0108 10087 40278 56005 90550 22200 00103 11103 20603 330// 41102 70017 333 91210 555 11089 22094 30525 40111 60549 006083 006084 005090 008086 002085 000087
BBXX 46054 08061 99342 71204 46/// /3208 10128 40189 55000 90550 22200 00136 333 91210 555 11084 22089 30458 43311 60549 322079 326081 325083 326085 324085 323087
BBXX 4XFV 08063 99510 71488 43/97 91825 10090 00/// 20065 40210 57040 7//// 89/// 22274 0//// 20605 ///// 3//// 4//// 5//// 6//// 8////
AAXX 08064 81405 04981 80000 10242 20239 30083 40092 60001 700// 333 3/023 55062 60007 58016 70020 555 60005
AAXX 08064 81405 04981 80000 10242 20239 30083 40092 60001 700// 333 3/023 55062 60007 58016 70020 555 60005
AAXX 08061 76055 32970 03406 10122 21093 30166 40185 50001 90540 333 10182 20092 30/// 59071
AAXX 08061 76225 32920 70000 10080 21037 38645 40171 50001 87040 90535 333 10138 21061 30/// 55093 56050 59051 87359
AAXX 08061 76323 32910 00101 10034 21087 38282 40206 58001 90545 333 10182 21052 30/// 55083 59045
AAXX 08061 76342 32940 01201 10055 21006 39550 40274 52009 90550 333 10184 20000 30/// 55091 20733 59045
AAXX 08061 76390 31950 12001 10022 21052 38247 40199 57009 70544 80005 90530 333 10162 21025 30/// 55093 21509 56008 59024 81070
AAXX 08061 76458 32960 03602 10176 20147 30140 40145 52004 90540 333 10259 20114 30/// 55082 59019
AAXX 08061 76525 32960 01403 10113 20025 37481 40138 57000 90540 333 10148 20053 30/// 55080 22472 59009
AAXX 08061 76539 32958 03601 10067 20057 38191 40233 52002 90550 333 10140 20080 30/// 55002 58013
AAXX 08061 76556 32960 01001 10160 20128 39125 40127 52007 90534 333 10292 20105 30/// 55097 59001
AAXX 08061 76571 32910 00000 10116 20062 38182 40146 54007 90540 333 10228 20074 30/// 55083 58001
AAXX 08061 76625 32960 00903 10078 20043 38166 40150 52001 90540 333 10223 20097 30/// 55060 58013
AAXX 08061 76632 31850 30405 10094 20056 37644 40125 52004 70511 83020 90540 333 10190 20084 30/// 55085 56050 59002 83458
AAXX 08061 76654 31956 00301 10231 20211 30154 40158 52010 70544 90550 333 10298 20216 30/// 55069 20917 58007
AAXX 08061 76658 31956 20502 10198 20162 39647 40146 52012 70540 80002 90540 333 10310 20172 30/// 55083 56001 58002 82070 98914
AAXX 08061 76675 32960 01601 10065 20047 37390 40112 5//// 90545 333 10225 20007 30/// 55092 2//// 59008
AAXX 08061 76680 31956 03202 10126 20073 37767 40111 52009 70500 90550 333 10236 20090 30/// 55087 21405 58000
AAXX 08061 76683 32962 00000 10078 20059 37853 40177 51010 90540 333 10223 20064 30/// 50261 55092 21834 58002
AAXX 08061 76685 32950 00601 10090 20078 37891 40150 52001 90545 333 10208 20050 30/// 55101 58004
AAXX 08061 76726 32968 03601 10136 20071 38422 40128 52017 90535 333 10266 20126 30/// 55093 58003
AAXX 08061 76762 32902 00000 10162 20141 38772 40119 53013 90540 333 10305 20128 30/// 55096 20995 58005 91202
AAXX 08061 76775 32960 00501 10121 20070 38559 40187 52009 90545 333 10268 20074 30/// 55083 58009
AAXX 08061 76805 32760 40301 10228 20210 30130 40134 52016 84040 90545 333 10338 20200 30/// 55097 21094 56/6/ 59002 84356
AAXX 08061 76840 32501 13602 10238 20168 30090 40146 52005 81100 90540 333 10355 20167 30/// 55097 2//// 568// 58011 81827
AAXX 08061 76843 32565 30202 10184 20159 39522 40166 57007 83700 90535 333 10259 20182 30/// 55020 567// 58000 83720
AAXX 08061 76845 21120 80601 10122 20119 37969 40191 56006 75052 88700 90545 333 10164 20090 31/// 55019 56100 59001 69947 88702
AAXX 08061 76903 31970 00504 10235 20201 39994 40128 52006 70000 90540 333 10348 20223 30/// 55081 58///
AAXX 08061 76253 32605 12303 10132 20086 30101 40191 53003 81020 90556 333 10185 20120 30/// 55075 59043 81450 92002
AAXX 08061 76412 32960 00000 10136 20108 30126 40172 52005 90540 333 10290 20070 30/// 55095 59017
AAXX 08064 85442 12570 52004 10154 20138 40146 54002 60001 85500 333 56400 85620
AAXX 08064 85469 42565 31005 10192 20163 40260 51008 81102 333 56200 81820 83076
AAXX 08064 85488 12460 83005 10153 20132 40150 58007 60001 885// 333 56699 88612
AAXX 08064 78954 12582 60103 10245 20231 30040 40105 69901 70162 81241 333 10295 20236 58010 81822 86364 90950
AAXX 08061 76055 32970 03406 10122 21093 30166 40185 50001 90540 33310182 20092 30/// 59071
AAXX 08061 76225 32920 70000 10080 21037 38645 40171 50001 87040 90535333 10138 21061 30/// 55093 56050 59051 87359
AAXX 08061 76323 32910 00101 10034 21087 38282 40206 58001 90545 33310182 21052 30/// 55083 59045
AAXX 08061 76342 32940 01201 10055 21006 39550 40274 52009 90550 33310184 20000 30/// 55091 20733 59045
AAXX 08061 76390 31950 12001 10022 21052 38247 40199 57009 70544 8000590530 333 10162 21025 30/// 55093 21509 56008 59024 81070
AAXX 08061 76458 32960 03602 10176 20147 30140 40145 52004 90540 33310259 20114 30/// 55082 59019
AAXX 08061 76525 32960 01403 10113 20025 37481 40138 57000 90540 33310148 20053 30/// 55080 22472 59009
AAXX 08061 76539 32958 03601 10067 20057 38191 40233 52002 90550 33310140 20080 30/// 55002 58013
AAXX 08061 76556 32960 01001 10160 20128 39125 40127 52007 90534 33310292 20105 30/// 55097 59001
AAXX 08061 76571 32910 00000 10116 20062 38182 40146 54007 90540 33310228 20074 30/// 55083 58001
AAXX 08061 76625 32960 00903 10078 20043 38166 40150 52001 90540 33310223 20097 30/// 55060 58013
AAXX 08061 76632 31850 30405 10094 20056 37644 40125 52004 70511 8302090540 333 10190 20084 30/// 55085 56050 59002 83458
AAXX 08061 76654 31956 00301 10231 20211 30154 40158 52010 70544 90550333 10298 20216 30/// 55069 20917 58007
AAXX 08061 76658 31956 20502 10198 20162 39647 40146 52012 70540 8000290540 333 10310 20172 30/// 55083 56001 58002 82070 98914
AAXX 08061 76675 32960 01601 10065 20047 37390 40112 5//// 90545 33310225 20007 30/// 55092 2//// 59008
AAXX 08061 76680 31956 03202 10126 20073 37767 40111 52009 70500 90550333 10236 20090 30/// 55087 21405 58000
AAXX 08061 76683 32962 00000 10078 20059 37853 40177 51010 90540 33310223 20064 30/// 50261 55092 21834 58002
AAXX 08061 76685 32950 00601 10090 20078 37891 40150 52001 90545 33310208 20050 30/// 55101 58004
AAXX 08061 76726 32968 03601 10136 20071 38422 40128 52017 90535 33310266 20126 30/// 55093 58003
AAXX 08061 76762 32902 00000 10162 20141 38772 40119 53013 90540 33310305 20128 30/// 55096 20995 58005 91202
AAXX 08061 76775 32960 00501 10121 20070 38559 40187 52009 90545 33310268 20074 30/// 55083 58009
AAXX 08061 76805 32760 40301 10228 20210 30130 40134 52016 84040 90545333 10338 20200 30/// 55097 21094 56/6/ 59002 84356
AAXX 08061 76840 32501 13602 10238 20168 30090 40146 52005 81100 90540333 10355 20167 30/// 55097 2//// 568// 58011 81827
AAXX 08061 76843 32565 30202 10184 20159 39522 40166 57007 83700 90535333 10259 20182 30/// 55020 567// 58000 83720
AAXX 08061 76845 21120 80601 10122 20119 37969 40191 56006 75052 8870090545 333 10164 20090 31/// 55019 56100 59001 69947 88702
AAXX 08061 76903 31970 00504 10235 20201 39994 40128 52006 70000 90540333 10348 20223 30/// 55081 58///
AAXX 08061 76253 32605 12303 10132 20086 30101 40191 53003 81020 90556333 10185 20120 30/// 55075 59043 81450 92002
AAXX 08061 76412 32960 00000 10136 20108 30126 40172 52005 90540 33310290 20070 30/// 55095 59017
AAXX 08061 13579 32970 00000 11031 21043 39364 40235 53002 333 21035 31/// 92010
BBXX BAREU54 08064 99178 70705 46/// ///// 40115 57012 22213
BBXX BAREU60 08064 99436 10135 46/// ///// 40176 52028 22252
BBXX BAREU08 08064 99103 70759 46/// ///// 40101 57014 22223
AAXX 08061 33815 31597 72106 10010 21002 39878 40088 57009 70241 83530 333 21018 555 80010
AAXX 08064 78954 12582 60103 10245 20231 30040 40105 69901 70162 81241 333 10295 20236 58010 81822 86364 90950
AAXX 08064 85574 12960 01607 10164 20106 39598 40149 56007 60001
AAXX 08064 85577 11958 02403 10163 20112 39549 40155 58006 60001 70500
AAXX 08064 85585 139// 92013 10154 20120 30179 40215 58012 60011
AAXX 08064 85743 12260 89904 10117 20106 40186 58007 60001 886// 333 56000 88406
AAXX 08064 85799 12960 51702 10076 20073 40199 58009 60001 80001 333 56006 85070
AAXX 08064 85874 32982 /2404 10035 20002 39574 40214 57008
AAXX 08064 85934 12580 62916 10083 20045 40138 58004 60001 83130 333 56660 83820 83359
AAXX 08064 89056 11358 82913 10003 21007 49830 52014 60001 71022 886// 333 56699 88709
AAXX 08064 89057 12460 72210 10008 21011 49819 52008 60001 87500 333 56700 87615
AAXX 08064 89058 11558 82717 10002 21005 39808 49829 52010 69901 76060 885//
AAXX 08064 89059 12460 82216 11005 21012 49804 52010 60001 886// 333 75099 88713
AAXX 08064 78925 14984 80702 10239 20234 40113 58017 69941 700// 333 10298 20228 55000 21073 58015 70004
AAXX 08064 78073 12565 20000 10207 20197 40161 60001 82100 333 59015 82820
AAXX 08064 86033 NIL
AAXX 08064 86086 32870 50000 10210 20194 39990 40080 52002 85050 333 85357
AAXX 08064 86097 32970 41907 10208 20195 39454 40099 58010 84030 333 84358
AAXX 08064 86134 32870 71606 10218 20206 30003 40090 56007 87070 333 87458
AAXX 08064 86170 NIL
AAXX 08064 86192 32570 60000 10226 20201 39894 40113 51005 86500 333 86620
AAXX 08064 86210 31470 82303 10242 20225 39739 40078 56006 71792 8897/ 333 84620 82933 88356
AAXX 08064 86218 02570 70000 10226 20217 39991 40087 58017 69901 82570 333 69907 82630 87457
AAXX 08064 86221 NIL
AAXX 08064 86233 01570 70000 10216 20207 39911 40100 58020 69981 70266 87500 333 69987 87620
AAXX 08064 86246 22570 61604 10208 20208 39806 40093 57023 84570 333 60031 84320 87357
AAXX 08064 86255 32870 72702 10218 20204 30046 40113 58005 87070 333 87360
AAXX 08064 86260 32670 20000 10216 20206 39932 40084 56020 82400 333 82640
AAXX 08064 86268 01370 80000 10212 20209 39932 40098 56028 60141 70266 8255/ 333 60027 82610 88357
AAXX 08064 86297 NIL
AAXX 08064 78073 12565 20000 10207 20197 40161 60001 82100 333 59015 82820
AAXX 08064 78925 14984 80702 10239 20234 40113 58017 69941 700// 333 10298 20228 55000 21073 58015 70004
AAXX 08064 67665 42980 30703 10240 20145 48503 82031 333 10305 20185 59022 82360 81080 555 00/// 91016
AAXX 08064 68396 32370 70000 10190 20178 39447 48504 52003 875// 333 20184 555 10303 91014
AAXX 08061 10004 NIL
AAXX 08061 10015 01562 32706 10074 20039 30108 40118 51031 69952 72581 82830 222// 02076 333 10078 20057 31004 55000 55300 20000 30000 69917 70056 81830 91118 91214
AAXX 08061 10020 07482 63207 10048 20032 30062 40095 51025 69932 72365 333 10067 20024 3/001 55000 55300 20000 30000 69907 70095 83/17 86/41 86/50
AAXX 08061 10035 11720 12103 11002 21005 30048 40108 51038 69972 71081 81500 333 10035 21002 32101 55000 55300 20000 30000 40864 70057 81656
AAXX 08061 10055 12480 33009 10040 20016 30086 40097 51055 69952 83200 333 10055 20036 31003 55000 55300 20000 30000 70041 83815 91113 91211
AAXX 08061 10147 13/// /2502 10026 20020 30104 40123 51053 60032 8//// 333 10055 20025 3/100 55000 55300 20000 30000 40919 70124 91114
AAXX 08061 10162 11560 22906 10032 20018 30025 40109 51067 69952 70165 82500 333 10044 20031 31002 55000 55300 20000 30000 70050 82622
AAXX 08061 10184 11967 02904 10033 20014 30069 40077 51067 69982 70161 333 10047 20008 31000 55003 55300 20000 30000 70032
AAXX 08061 10200 01584 62605 10052 20023 30144 40142 51033 60122 70386 86500 333 10069 20034 32003 55006 55300 20000 30000 69947 70225 86624 91113
AAXX 08061 10224 01575 62805 10045 20034 30139 40145 51051 60092 76086 86800 333 10053 20032 32002 55005 55300 20000 30000 69907 70154 83831 85656 91114
AAXX 08061 10270 06460 83105 10045 20029 30045 40101 53060 60022 222// 06053 333 10048 20031 3/003 55002 55300 69927 70093 84/14 85/18 88/25 91113
AAXX 08061 10338 03/// /2806 10047 20030 30073 40147 51056 60052 8//// 333 10064 20042 3/003 55002 55300 20000 30000 69907 70085 91117 91211
AAXX 08061 10361 01586 82904 10056 20029 30023 40128 53062 69932 70262 885// 333 10063 20040 31003 55000 55300 20000 30000 69907 70033 88633 91118
AAXX 08061 10393 01365 82907 10041 20031 39951 40079 53047 60052 76162 877// 333 10048 20029 32003 55004 55300 20000 30000 69917 70107 87708 91114
AAXX 08061 10400 12982 22204 10021 21001 30151 40202 51025 69902 81031 333 10073 20020 31101 55027 55300 20000 30000 70037 81362 91114
AAXX 08061 10438 07980 02606 10041 20003 39890 40175 51042 69912 72265 333 10059 20039 3/002 55004 55300 69917 70077 91117
AAXX 08061 10469 01583 72708 10048 20015 39963 40130 53055 69902 70282 875// 333 10057 20029 31002 55002 55300 69907 70017 87627 91121 91214
AAXX 08061 10488 01465 82710 10038 20018 39829 40113 53044 69972 76162 878// 333 10051 20026 32002 55000 55300 20000 30000 41167 69977 70033 85815 87640 91122 91215
AAXX 08061 10506 11582 62504 10014 21012 39632 40230 51021 69902 70381 86500 333 10032 20014 31000 55015 55300 20000 30000 70120 81626 85640 91115 96485
AAXX 08061 10548 01580 72709 10032 21015 39637 40187 53041 69902 77172 878// 333 10036 20026 31002 55001 55300 20000 30000 69907 70054 84820 86640 91120 91212
AAXX 08061 10637 12684 72307 10049 21008 30086 40226 51033 69902 875// 333 10068 20037 31001 55015 55300 70108 87634
AAXX 08061 10685 01475 72609 10019 21013 39479 40164 53039 69902 72276 878// 333 10021 20011 3/000 44004 55002 55300 20000 30000 69907 70055 81813 83625 86636 91118 91212 96278
AAXX 08061 10738 12684 52102 10029 21024 39777 40259 52029 69902 85500 333 10073 20028 31101 55000 55300 70072 85640
AAXX 08061 10763 01782 32610 10032 21017 39819 40210 51035 69902 70261 83500 333 10045 20024 31001 55009 55300 20000 30000 69907 70082 83656 91118 91211
AAXX 08061 10788 15984 02508 10030 21010 39764 40205 52031 60032 333 10038 20017 3/001 55000 55300 20000 30000 70068 91115
AAXX 08061 10852 12688 12607 10028 21005 39664 40247 51032 69922 81500 333 10059 20019 31100 55000 55300 20000 30000 70059 81643 91114
AAXX 08061 10946 07584 22305 10023 21009 39416 40267 53034 69972 70065 333 10047 20023 3/001 55000 55300 20000 30000 69907 70127 82/22 91117
AAXX 08061 12772 11980 33010 10041 21030 39797 40083 53017 60062 70111 81042 333 20013 4/000 55035 70064
AAXX 08061 12822 16/// /2805 10050 21010 30007 40152 52019 60012 333 20039 70020
AAXX 08061 12843 11986 12905 10058 21025 39959 40130 53021 60012 70211 81040 333 20013 4/000 55046 70011
AAXX 08061 12882 11970 42505 10024 21000 39976 40110 53016 69982 70161 84070 333 20019 4/000 55047 70008
AAXX 08061 12925 36/// /3203 10016 21013 30002 40178 52028 333 21005
AAXX 08061 12942 31970 63202 10048 21012 39923 40171 52031 70162 86070 333 20021 4/000 55012
AAXX 08061 12982 11782 72806 10048 21012 30049 40152 52030 69912 70362 82572 333 20010 4/000 55070 70001 82650
AAXX 08064 78925 14984 80702 10239 20234 40113 58017 69941 700// 333 10298 20228 55000 21073 58015 70004
BBXX BATFR15 08064 99494 10006 46/// /1806 10077 20052 40228 58009 22272 00099
BBXX BATFR02 08064 99507 70011 46/// /2217 10102 20067 40186 58040 22274 00114
BBXX BATFR09 08064 99359 70057 46/// /1217 10147 20104 40283 53002 22223 00184
BBXX BATEU07 08064 99382 31371 46/// /1218 10167 40073 58016 22223
BBXX BATFR21 08064 99427 10089 46/// ///// 20075 40196 53010 22232
BBXX BATFR16 08064 99382 70352 44/97 71905 10169 40243 53002 70200 8777/ 22214 00177 21402 307// 4//// 5//// 60/// ICE 0////
BBXX BATFR31 08064 99433 10053 46/// /3017 10127 21160 40249 53059 22212 00165
BBXX BATFR52 08064 99487 70021 46/// /2119 10109 20084 40226 56001 22233 00129
BBXX BATFR24 08064 99427 10095 46/// ///// 10162 20054 40185 22213 00169
BBXX BATFR01 08064 99431 10059 46/// /2813 10134 20052 40229 53006 22200 00152
BBXX BATFR59 08064 99178 31630 46/// /0915 10267 20242 40067 55002 22212 00284
BBXX BATFR12 08064 99484 70069 46/// /2418 10129 20085 40214 56019 22241 00144
BBXX BATFR60 08064 99503 70005 46/// /2319 10122 20069 40198 56022 22223 00124
BBXX FVNM 08064 99103 71087 46/// /0913 10267 20225 40123 51010 22221 00270
BBXX BATEU09 08064 99429 10095 46/// /2429 10165 20072 40177 22241 00182
BBXX BATFR04 08064 99573 70118 44/97 22441 10087 20045 4//// 700// 8//// 22242 00110
BBXX BAREU04 08064 99464 70528 46/// ///// 40122 57001 22224
BBXX BATFR56 08064 99054 10978 44998 827// 10282 20234 40096 58017 70322 86237 22273 00304
BBXX BATFR20 08064 99415 10094 46/// /2817 10162 20087 40210 51007 22284
BBXX DBKV 08061 99281 70154 46/// /1602 10205 20137 40221 57005 22200 00208
BBXX DBBT 08061 99425 30103 46/// /2307 10068 20009 40264 52008 22201 00119
BBXX BATFR22 08064 99430 10081 46/// /2924 29066 40184 56019 22224 00149
BBXX BATEU01 08064 99483 70268 44497 73420 10109 20094 40166 53018 70222 85341 22264 00129 21002 327// 41606 5////
BBXX BATFR27 08064 99458 70042 44998 32517 10137 20057 40266 53008 700// 830// 22245 00152 327// 41208 5////
BBXX DBFR 08061 99551 10158 46/// /3409 10052 20039 40026 52047 22231 00070
BBXX DBJM 08061 99542 10080 46/// /2808 10072 20036 40125 52033 22261 00082
BBXX DBEA 08061 99540 10084 46/// /2906 10061 20031 40120 52037 22260 00054
BBXX DBEB 08061 99538 10082 41/// /2909 10059 20059 40123 52039 7//// 22221 00051
BBXX DBFH 08061 99555 10084 46/// /2703 10047 20028 40087 52024 22260 00057
BBXX DBBU 08061 99542 10119 46/// /3012 10043 20023 40095 52060 22231 00068
AAXX 08064 48698 01462 70605 10304 20246 30064 40082 60001 71522 85938 333 60007 81614 84817 81918
AAXX 08064 48698 01462 70605 10304 20246 30064 40082 60001 71522 85938 333 60007 81614 84817 81918
AAXX 08064 96315 41459 72203 10283 20238 40065 71522 83978 333 83815 81917 83364 85278
AAXX 08064 96323 NIL
AAXX 08064 96315 41459 72203 10283 20238 40065 71522 83978 333 83815 81917 83364 85278
AAXX 08064 96323 NIL
AAXX 08064 78954 12582 60104 10245 20231 30040 40105 69901 70162 81241 333 10295 20236 58010 81822 86364 90950
AAXX 08064 78954 12582 60104 10245 20231 30040 40105 69901 70162 81241 333 10295 20236 58010 81822 86364 90950
AAXX 08064 91408 11469 82205 10263 20250 30024 40062 57012 60071 78082 86908 333 569/9 70114 555 90806
AAXX 08064 78897 12470 70000 10237 20229 40116 58012 69901 85832 333 0285/ 10294 20222 58013 70090 82816 85650 85076
AAXX 08064 68386 36/// /1302 10228 20177 39688 48609 52008 333 20199 91004 555 10327 91022
AAXX 08061 01001 NIL
AAXX 08061 01008 11457 70604 11024 21047 39826 49860 52002 60002 77172 875// 333 21035 79999 91111
AAXX 08061 01010 11987 20104 11012 21086 39995 40012 52014 60002 70300 82030 333 21013 70001 91112
AAXX 08061 01026 NIL
AAXX 08061 01055 NIL
AAXX 08061 01062 NIL
AAXX 08061 01098 11580 82106 11003 21025 39972 49990 52014 69902 70222 8347/ 333 21006 70003 91109
AAXX 08061 01115 11989 00709 10024 21033 39957 49978 53010 60062 70170 333 20005 70064 91114
AAXX 08061 01152 11589 20703 11037 21048 39975 49991 52008 69922 70211 81101 333 21040 70002 91105
AAXX 08061 01205 NIL
AAXX 08061 01212 NIL
AAXX 08061 01271 16/// /1301 11016 21026 39969 49991 52013 6//// 333 21031 91104
AAXX 08061 01288 11570 62202 11099 21119 39245 40019 53013 69962 70272 85510 333 21147 47010 70021 91106
AAXX 08061 01300 NIL
AAXX 08061 01317 NIL
AAXX 08061 01367 NIL
AAXX 08061 01384 11989 10701 11100 21107 39775 40028 53016 60002 70200 80008 333 21123 91103
AAXX 08061 01403 11580 3//// 10037 20017 39944 40013 58001 60032 70200 83200 333 21003 70027
AAXX 08061 01415 16/// /1504 10020 20002 30015 40026 51008 6//// 333 21046 91108
AAXX 08061 01482 46/// /2005 1//// 2//// 30021 40028 51009 333 91106
AAXX 08061 01492 NIL
AAXX 08061 01003 NIL
AAXX 08061 01007 11789 51106 11020 21090 39867 49876 50005 60002 70221 82546 333 21053 44004 70000 91110
AAXX 08061 01028 NIL
AAXX 08061 01047 31788 60000 11178 21201 39630 40011 52016 70222 86010 333 21178 47015 70000
AAXX 08061 01049 16/// /1602 11052 21084 39999 40003 52020 69982 333 21063 70022 91104
AAXX 08061 01078 11385 72107 11010 21048 39967 49980 52012 6//// 70222 86140 333 21012 91109
AAXX 08061 01102 46/// /1704 10013 21013 39956 49976 51013 333 20011 91109
AAXX 08061 01160 NIL
AAXX 08061 01218 NIL
AAXX 08061 01238 41989 11902 11139 21174 38852 49983 50004 70200 80008 333 21166 47012 91106
AAXX 08061 01241 NIL
AAXX 08061 01281 NIL
AAXX 08061 01338 16/// /0804 11025 21056 39967 40035 50005 60002 333 21030 70000 91109
AAXX 08061 01359 NIL
AAXX 08061 01397 16/// /2601 11149 21160 39579 40042 53014 60002 333 21149 70000 91102
AAXX 08061 01400 NIL
AAXX 08061 01427 11565 40802 10002 21019 30024 40040 50008 69972 78081 84900 333 21031 70007 91105
AAXX 08061 01447 NIL
AAXX 08061 01448 46/// /3604 11021 21043 30032 40043 50006 333 21024 91124
AAXX 08064 78897 12470 70000 10237 20229 40116 58012 69901 85832 333 0285/ 10294 20222 58013 70090 82816 85650 85076
BBXX PHCQ 08063 99384 70540 41/98 /3405 10170 20151 40199 56008 70011 8//// 22264 04216 20502 3//// 41203 5//// 80158
AAXX 08061 10007 NIL
AAXX 08061 10044 NIL
AAXX 08061 10046 11250 32402 10006 21003 30069 40109 52049 60012 71081 82601 333 10040 20005 34101 55000 70058 82704
AAXX 08061 10091 11482 73210 10045 20010 30014 40065 51057 60012 70362 84801 222// 06068 333 10049 20018 31002 55000 55300 20000 30000 70026 81810 85076 91114
AAXX 08061 10113 01565 62608 10063 20026 30114 40133 51030 60042 72581 86900 222// 06055 333 10075 20049 31004 55002 55300 20000 30000 69937 70105 83928 84656 91117 91212
AAXX 08061 10124 NIL
AAXX 08061 10131 01581 12704 10046 20027 30110 40125 51041 69982 72561 81801 222// 02049 333 10066 20040 31002 55000 55300 20000 30000 69917 70206 81823 91115 91211
AAXX 08061 10170 11480 23112 10046 20024 30076 40092 51060 69982 70181 82200 333 10057 20034 31003 55000 55300 20000 30000 70045 82815 91115 91212
AAXX 08061 10264 01365 82906 10039 20029 39995 40103 53070 60022 70261 872// 333 10042 20032 31002 55000 55300 20000 30000 69967 70102 87809
AAXX 08061 10291 01582 83007 10043 20019 30009 40077 53058 60012 72162 875// 333 10045 20014 31001 55016 55300 20000 30000 69927 70070 87626
AAXX 08061 10315 01575 12604 10038 20014 30111 40176 51039 69992 72586 81500 333 10067 20037 31001 55011 55300 20000 30000 69907 70096 81628 91120 91214
AAXX 08061 10379 01484 72809 10044 20034 39971 40093 53055 60052 72162 878// 333 10050 20031 32003 55000 55300 20000 30000 41159 69917 70095 86810 86626 91119 91212
AAXX 08061 10382 01375 73006 10047 20031 30045 40090 53052 60022 72166 876// 333 10053 20031 32003 55000 55300 20000 30000 69907 70071 83708 87711 91114
AAXX 08061 10384 06/// /3008 10048 20035 30027 40087 53052 60042 333 10056 20033 3/003 55002 55300 20000 30000 69907 70102 91114
AAXX 08061 10427 01375 82910 11007 21010 39161 48453 51034 60032 72272 875// 333 11003 21010 3/101 48035 55000 55300 20000 30000 69907 70087 87608 91121 91214
AAXX 08061 10430 01568 82607 10050 20014 39981 40176 51045 60022 78065 882// 333 10061 20040 31002 55003 55300 20000 30000 69917 70062 82824 86827 91118 91212
AAXX 08061 10439 11665 32905 10054 21009 39958 40181 52035 69902 70361 83500 333 10062 20031 31002 70023 83636 91115
AAXX 08061 10453 11/90 92815 11027 21027 38789 48417 51063 60062 74984 333 11026 21035 3/103 49047 55000 55300 70140 91136 91226 96038 96286 96488 96486 96449 96439
AAXX 08061 10496 01370 82806 10044 20027 30000 40086 51044 60042 76066 885// 333 10051 20035 31003 55002 55300 20000 30000 69967 70079 83709 88521 91115
AAXX 08061 10499 01356 82708 10030 20016 39799 40092 53046 69952 75862 877// 333 10048 20026 31002 55002 55300 20000 30000 69947 70053 87709 91121 91214
AAXX 08061 10505 11580 12406 10031 20001 39928 40216 52014 69922 70261 81100 333 10054 20026 32001 55010 55300 20000 30000 70100 81820 91115 91211
AAXX 08061 10513 11982 02503 10030 21001 30092 40217 51025 69902 70261 333 10066 20026 31000 55016 55300 20000 30000 70037 91113
AAXX 08061 10532 15580 72508 10041 20001 39948 40201 51031 60002 333 10052 20033 3/002 55007 55300 20000 30000 70063 86/23 87/40 87/50 91118 91212
AAXX 08061 10544 NIL
AAXX 08061 10554 01580 72911 10040 20003 39765 40158 52050 69902 72581 878// 333 10041 20022 31001 55001 55300 20000 30000 69907 70028 84823 87630 91122 91216 96280
AAXX 08061 10567 01485 73011 10043 21000 39762 40142 53046 69902 70262 875// 333 10046 20023 31001 55001 55300 20000 30000 69907 70010 87619 91122 91213
AAXX 08061 10578 11/06 82619 11031 21034 38711 48408 53034 60012 77174 877// 333 11030 21038 3/104 48028 55000 55300 20000 30000 70095 877// 96041 96038
AAXX 08064 40310 32960 02801 10076 21066 38964 48507 54003 333 20010 31025
AAXX 08061 10609 12982 12205 10020 21006 39910 40250 53021 69902 80001 333 10066 20015 31101 55020 55300 20000 30000 70047 81076
AAXX 08061 10616 12582 32704 10007 21022 39622 40240 53023 69922 83540 333 10040 20007 32101 55002 55300 70066 83630 91113
AAXX 08061 10641 17684 82205 10051 21009 30074 40224 51038 69902 70065 333 10065 20035 3/002 55013 55300 70135 88/42 91113
AAXX 08061 10655 01782 42507 10037 21010 39886 40222 53040 69902 70261 83501 333 10054 20031 31001 55013 55300 20000 30000 69907 70111 83650 91119 91213
AAXX 08061 10675 07584 82507 10042 21015 39906 40203 53037 69902 70065 333 10052 20037 3/002 55001 55300 20000 30000 69907 70086 81/25 83/39 88/56 91115
AAXX 08061 10688 07582 82607 10029 21010 39653 40185 53032 69902 72476 333 10032 20009 3/101 55000 55300 20000 30000 69907 70075 82/28 87/40 88/50 91116
AAXX 08061 10708 12980 12304 10015 20001 39860 40258 51023 69902 80001 333 10066 20015 31101 55017 55300 20000 30000 70078 81080
AAXX 08061 10729 15982 02303 10034 21005 30128 40253 53026 69952 333 10066 20031 3/100 55017 55300 20000 30000 70062
AAXX 08061 10731 12580 12506 10048 20008 30106 40253 53020 69902 81801 333 10084 20047 31003 55005 55300 20000 30000 70105 81830
AAXX 08061 10742 15983 02607 10033 21004 39905 40245 51032 60012 333 10070 20032 3/001 55000 55300 20000 30000 70088 91116
AAXX 08061 10776 11986 02709 10029 21013 39755 40208 53035 60022 70261 333 10035 20015 31000 55000 55300 20000 30000 70066 91118 91211
AAXX 08061 10791 01/90 92712 11051 21055 38489 48436 51022 60052 77174 333 11036 21051 48049 55000 55300 60027 70259
AAXX 08061 10805 11782 12303 10047 20002 30076 40272 53018 69922 70186 81501 333 10086 20042 31002 55000 55300 20000 30000 70048 81650
AAXX 08061 10815 01482 52708 10003 21016 39295 48512 53018 60012 70182 81532 333 10030 20001 3/101 43009 55000 55300 20000 30000 69907 70269 81616 84074 91120 91212
AAXX 08061 10836 12589 72708 10002 21013 39359 40254 53029 69932 878// 333 10038 21001 31101 41998 55000 55300 20000 30000 70046 81826 87632 91118 91213
AAXX 08061 10870 12984 22708 10029 21012 39684 40230 53030 60012 82030 333 10060 20016 31001 55000 55300 70066 82365 91117
AAXX 08061 10895 11684 72510 10024 21017 39624 40206 51032 60032 70276 875// 333 10039 20005 31000 41998 55000 55300 20000 30000 70098 87640 91117 91212
AAXX 08061 10908 01/82 72612 11048 21050 38527 48521 51015 60012 72874 878// 333 11015 21048 3/105 49015 55000 55300 20000 30000 69917 70179 818// 85603 91123 91216
AAXX 08061 10929 01984 02505 10045 20003 39729 40271 53023 60012 70181 222// 06052 333 10064 20041 31002 55000 55300 20000 30000 69907 70068
AAXX 08061 10948 11688 60305 10033 21043 39309 48538 52030 60172 70162 86500 333 10050 20016 3/001 43007 55000 55300 20000 30000 70291 86646 91115
AAXX 08061 10961 11/00 93417 11142 21142 37039 47002 53024 60092 74974 333 11082 21146 49075 55000 55300 20000 40909 70194 96478 96471
AAXX 08061 10962 01480 42508 11007 21008 39073 48504 52026 60042 73698 84800 333 10015 21009 3/102 48/// 55001 55300 20000 30000 60037 70082 82813 83656 91118 96285 96494 96488 96445
AAXX 08061 10980 11/01 92621 11063 21068 38141 48496 53026 60052 74974 333 11046 21067 3/107 48023 55000 55300 20000 30000 70104 91138 91229 96471 96449 96439
AAXX 08064 89577 46/// /0705 11379 35680 4//// 5////
AAXX 08064 91487 NIL
AAXX 08064 91490 NIL
AAXX 08064 91533 NIL
AAXX 08064 91601 NIL
AAXX 08064 91610 11498 60913 10284 20243 40058 53011 60001 71552 8586/ 333 5629/ 81819 85640
AAXX 08064 91623 NIL
AAXX 08064 91629 NIL
AAXX 08064 91701 11599 10906 10271 2024/ 4//// 60001 70200 81100 333 562// 81820
BBXX VEP717 08064 99467 70487 41596 82146 10064 2006/ 40140 57017 71042 885// 22200 06035 20604 300// 40000 80062
AAXX 08064 91408 11469 82205 10263 20250 30024 40062 57012 60071 78082 86908 333 569/9 70114 555 90806
AAXX 08064 89667 46/// /2017 11029 29080 39768 4//// 5////
AAXX 0806/ 89872 46/// ///// 11035 39718 4//// 5////
AAXX 0806/ 89869 46/// ///// 11039 39704 4//// 5////
AAXX 0806/ 89866 46/// ///// 11013 39674 4//// 5////
AAXX 0806/ 89329 46/// ///// 11095 38676 4//// 5////
AAXX 0806/ 89799 46/// ///// 11261 4//// 5////
AAXX 0806/ 89868 46/// ///// 11040 39721 4//// 5////
AAXX 0806/ 89327 46/// ///// 11029 39538 4//// 5////
AAXX 0806/ 89332 46/// ///// 11035 39156 4//// 5////
AAXX 0806/ 89769 46/// ///// 11001 39745 4//// 5////
AAXX 0806/ 89828 46/// ///// 11260 36402 4//// 5////
AAXX 0806/ 89108 46/// ///// 11174 36879 4//// 5////
AAXX 0806/ 89879 46/// ///// 10043 39688 4//// 5////
AAXX 0806/ 89314 46/// ///// 11090 38160 4//// 5////
AAXX 08061 01015 NIL
AAXX 08061 01023 NIL
AAXX 08061 01033 NIL
AAXX 08061 01059 11689 71904 11046 21070 39987 49996 52016 60002 70222 82147 333 21059 70000 91108
AAXX 08061 01089 16/// /1903 11040 21046 39894 40002 52011 6//// 333 21052 91105
AAXX 08061 01167 11989 02802 11039 21061 30002 40006 52013 69902 70271 333 21042 79999 91108
AAXX 08061 01180 NIL
AAXX 08061 01210 11686 61706 10007 21047 39959 49986 50001 69904 70220 82870 333 21005 42004 70000 91112
AAXX 08061 01228 NIL
AAXX 08061 01240 16/// /1609 10038 20003 39949 49969 52006 6//// 333 20027 91112
AAXX 08061 01304 46/// /1109 10016 21000 39958 49989 50002 333 20009 91113
AAXX 08061 01311 46/// /1402 11009 21011 39948 40010 58003 333 21053 91105
AAXX 08061 01340 NIL
AAXX 08061 01355 16/// ///// 11061 21087 30040 40045 50005 60002 333 21082 70000
AAXX 08061 01360 NIL
AAXX 08061 01392 16/// /3601 11132 21145 39798 40037 52017 60002 333 21133 70000 91102
AAXX 08061 01406 46/// /1408 10009 20000 39989 40007 58003 333 20003 91111
AAXX 08061 01411 16/// /1104 10030 20012 39995 40020 50005 6//// 333 20012 91110
AAXX 08061 01425 NIL
AAXX 08061 01433 46/// /0000 11069 21094 38755 40036 53005 333 21107 91104
AAXX 08061 01442 NIL
AAXX 08061 01450 NIL
AAXX 08061 01452 NIL
AAXX 08061 01473 16/// /3001 11113 21125 39821 40040 53010 6//// 333 21117 91103
AAXX 08061 01494 16/// /1102 11067 21073 39965 40032 53014 60002 333 21069 70003 91103
AAXX 08061 01037 NIL
AAXX 08061 01046 11689 51602 11050 21091 30003 40010 52017 69902 70372 82460 333 21064 44001 79999 91108
AAXX 08061 01058 16/// /1302 11143 21161 39535 40023 53017 60002 333 21143 4/013 70000 91105
AAXX 08061 01065 NIL
AAXX 08061 01092 NIL
AAXX 08061 01107 16/// /0806 10024 20017 39985 49990 52004 60002 333 20019 70000 91115
AAXX 08061 01114 NIL
AAXX 08061 01144 46/// /0607 10011 21047 333 20011 91113
AAXX 08061 01199 NIL
AAXX 08061 01245 NIL
AAXX 08061 01259 16/// /1104 10006 21038 39952 49975 52008 69962 333 21002 70006 91106
AAXX 08061 01262 NIL
AAXX 08061 01278 11465 81201 11014 21023 39882 49986 52013 69972 71582 8497/ 333 21024 47007 70037
AAXX 08061 01293 11560 70000 11038 21043 39783 49994 53012 69972 70221 875// 333 21058 70037 91102
AAXX 08061 01329 NIL
AAXX 08061 01337 NIL
AAXX 08061 01344 NIL
AAXX 08061 01364 NIL
AAXX 08061 01373 11989 00000 11128 21141 39839 40047 53011 60002 70200 333 21131 70000 91100
AAXX 08061 01374 31889 10000 11156 21166 70200 81070 333 21158 43004 70000
AAXX 08061 01380 16/// /3501 11176 21196 6//// 333 21184 4/018 91103
AAXX 08061 01389 NIL
AAXX 08061 01393 NIL
AAXX 08061 01424 16/// ///// 11038 21048 30039 40042 50005 60032 333 21084 70027
AAXX 08061 01431 16/// /0302 11107 21118 39371 40067 50004 60002 333 21172 70003 91104
AAXX 08061 01436 NIL
AAXX 08061 01465 11982 32601 11013 21046 30025 40044 52010 60002 70200 80008 333 21017 70000 91109
AAXX 08061 01471 11989 22902 11087 21108 60002 70210 80005 333 21091 70000 91105
AAXX 08061 01483 NIL
AAXX 08061 01025 16/// /1902 11024 21039 30001 40012 52018 60032 333 21034 47004 70030 91106
AAXX 08061 01052 16/// /2309 11011 21036 39887 49985 53016 69932 333 21015 70007 91113
AAXX 08061 01122 16/// /1601 11037 21043 39900 49991 53013 60002 333 21045 70000 91102
AAXX 08061 01132 NIL
AAXX 08061 01156 NIL
AAXX 08061 01203 46/// /0902 10009 21013 39933 49982 50003 333 21003 91125
AAXX 08061 01233 16/// /2501 11151 21166 60002 333 21153 70000 91105
AAXX 08061 01265 NIL
AAXX 08061 01273 NIL
AAXX 08061 01307 46/// /1511 10023 20008 39970 49998 50003 333 21004 91115
AAXX 08061 01321 16/// /2802 11096 21102 39759 40023 51012 60002 333 21111 70000 91104
AAXX 08061 01327 16/// /0601 11056 21068 60032 333 21095 70025 91103
AAXX 08061 01350 16/// /2903 11069 21080 38602 49988 52005 60002 333 21229 70000 91111
AAXX 08061 01361 NIL
AAXX 08061 01375 NIL
AAXX 08061 01378 16/// /0203 11104 21121 39728 40033 51012 60002 333 21104 70000 91106
AAXX 08061 01385 16/// /3104 11071 21102 39750 40030 52015 60002 333 21075 70000 91106
AAXX 08061 01412 16/// /1404 10023 20005 39999 40029 51008 60022 333 21027 70021 91111
AAXX 08061 01422 16/// /0501 10004 21012 69952 333 21029 70005 91106
AAXX 08061 01440 NIL
AAXX 08061 01441 NIL
AAXX 08061 01467 NIL
AAXX 08061 01469 NIL
AAXX 08061 01477 NIL
AAXX 08061 01480 16/// /3401 11104 21116 60002 333 21108 70000 91104
AAXX 08061 01484 16/// /2301 11160 21182 39874 40041 52017 60002 333 21163 70000 91102
AAXX 08061 01490 16/// /2102 11057 21074 60002 333 21062 70000 91104
AAXX 08061 01495 16/// /1403 11005 21017 30017 40030 51011 60002 333 21034 70000 91104
AAXX 08061 01121 46/// /1205 10014 21040 39968 49980 52010 333 20009 91108
AAXX 08061 01135 NIL
AAXX 08061 01143 16/// /0503 11003 21047 60002 333 21062 70000 91111
AAXX 08061 01150 NIL
AAXX 08061 01192 NIL
AAXX 08061 01225 46/// /1808 10033 21014 39974 49979 53005 333 20031 91111
AAXX 08061 01230 16/// /0802 11238 21252 69932 333 21293 4/052 70005 91104
AAXX 08061 01232 NIL
AAXX 08061 01234 16/// /2104 11022 21036 60012 333 21042 70018 91108
AAXX 08061 01253 NIL
AAXX 08061 01254 NIL
AAXX 08061 01257 NIL
AAXX 08061 01277 NIL
AAXX 08061 01291 NIL
AAXX 08061 01332 16/// /0101 11088 21101 60002 333 21141 70000 91103
AAXX 08061 01366 46/// /2804 11128 21152 38380 40050 53009 333 21199 91105
AAXX 08061 01370 NIL
AAXX 08061 01376 16/// /0402 11096 21112 60002 333 21096 70000 91105
AAXX 08061 01383 46/// /0000 11164 21175 39713 40049 52014 333 21165 91102
AAXX 08061 01386 16/// ///// 11104 21121 60002 333 21108 70000
AAXX 08061 01416 16/// ///// 10015 20013 69952 333 21020 70005
AAXX 08061 01419 NIL
AAXX 08061 01430 16/// ///// 11035 21046 69972 333 21046 70007
AAXX 08061 01434 16/// /0000 11182 21203 39054 40039 52007 6//// 333 21209 91102
AAXX 08061 01455 NIL
AAXX 08061 01468 16/// /0000 11123 21136 60002 333 21123 70008 91102
AAXX 08061 01470 16/// /0602 11078 21083 39919 40038 52009 60002 333 21087 4/004 70000 91104
AAXX 08061 01476 NIL
AAXX 08061 01481 NIL
AAXX 08061 01488 NIL
AAXX 08064 61901 169// /1317 10153 20135 39661 40172 53001 69942 90550 333 20144 3/013 70004 8//99 555 7/090
AAXX 08064 61902 11582 71313 10230 20177 40124 69904 70281 878// 333 20220 59007 82824 87640
AAXX 08064 88889 12782 32916 10079 20047 30069 40154 52003 60001 81532 90550 333 81650 83075
AAXX 08064 03005 11480 61605 10026 21014 39854 49955 58034 69902 72681 84902 90550 333 20008 3/103 44004 55000 55300 20000 79999 81918 83822 86075
AAXX 08064 03017 15566 /1814 10038 20017 39897 49929 58072 60092 90550 333 20004 3/100 4/002 55000 55300 20000 70142 81/29 87/57
AAXX 08064 03023 17458 /1730 10076 20072 39795 49799 58154 60082 761// 90550 333 20043 3/004 70084 82/14 86/20 90710 91146 91044
AAXX 08064 03026 17422 /1329 10044 20033 39820 49839 58128 60062 762// 90550 333 20014 3/100 4/000 55003 55300 20000 70090 87/12 90710 91140 91040
AAXX 08064 03063 17567 /2012 10030 21008 39647 49923 58092 60012 781// 90550 333 21001 3/102 4/005 55005 55300 20000 70016 81/25 86/31 91022
AAXX 08064 03066 15783 /1417 10039 21007 39918 49924 58089 69922 90550 333 20012 3/101 55000 55300 20000 70126 88/50
AAXX 08064 03075 15771 /1618 10055 20005 39882 49926 58077 60002 90550 333 20008 3/101 4//// 70024 87/56 90710 91126
AAXX 08064 03091 17668 /1712 10028 20011 39896 49976 58062 69902 781// 90550 333 21002 3/104 4/000 55001 55300 20000 70018 86/30 83/39 85/50
AAXX 08064 03100 17350 /2130 10091 20087 39835 49850 56125 60122 762// 90550 333 20034 3/002 55005 55300 20000 70138 86/08 84/35 90710 91146 91040
AAXX 08064 03111 16581 /2032 10089 20066 39915 49927 56107 60092 90550 333 20046 3/003 70116 85/27 84/47 90710 91148 91044
AAXX 08064 03134 17328 /1510 10040 20035 39869 49941 58106 60102 763// 90550 333 20020 3/000 4/000 55015 55300 20000 70110 88/06 90710 91127
AAXX 08064 03136 17474 /2027 10083 20067 39912 49945 58110 60072 761// 90550 333 20042 3/003 4/000 55006 55300 20000 70118 86/17 85/25 90710 91142
AAXX 08064 03162 17350 /1814 10038 20033 39709 49996 58086 60082 762// 90550 333 20001 3/102 4/005 55023 55300 20000 70118 87/07 90710 91127 91025
AAXX 08064 03166 17664 /1812 10046 20026 39891 49961 58098 60032 762// 90550 333 20023 3/001 4/000 55036 55300 20000 70030 86/32 85/43
AAXX 08064 03171 11457 81712 10042 20023 39965 49977 58075 69982 76361 885// 90550 333 20003 32105 4//// 55053 55300 20000 70008 82619 85623 88632
AAXX 08064 03204 11462 82133 10107 20085 39986 40005 56087 60022 72165 885// 90550 333 20061 31003 4//// 55037 55300 20000 70020 81710 83715 85622 90710 91146 91045
AAXX 08064 03240 17964 /1718 10046 20025 30002 40030 58064 69902 781// 90550 333 20020 3/000 4//// 55057 55300 20000 79999 88/60 90710 91125
AAXX 08064 03257 11565 71514 10034 20017 30027 40068 58050 69902 76062 875// 90550 333 20012 31102 4//// 55028 55300 20000 70024 82622 86650
AAXX 08064 03292 167// /2111 10045 20019 30080 40098 58031 60002 90550 333 20030 3/001 4//// 70000 88/56
AAXX 08064 03302 11460 82135 10109 20090 30039 40051 56065 60022 70262 885// 90550 333 20069 31005 4//// 55028 55300 20001 70024 82618 87622 90710 91154
AAXX 08064 03354 17569 /1808 10041 20025 39972 40117 58044 69942 781// 90550 333 20022 3/101 4/000 55013 55300 20000 70038 83/28 87/40 85/50
AAXX 08064 03377 12682 82116 10052 20010 30038 40123 57034 60002 8357/ 90550 333 20027 31001 4//// 55017 55300 20000 70004 83647 88357
AAXX 08064 03414 17575 /1916 10063 20034 30010 40099 58052 69902 723// 90550 333 20032 3/100 4//// 55041 55300 20000 79999 84/25 83/34 87/40
AAXX 08064 03462 17662 /1911 10045 20024 30049 40140 57031 69902 782// 90550 333 20032 3/001 4/000 55027 55300 20000 70006 85/30 84/50
AAXX 08064 03482 12670 82010 10034 20009 30123 40149 58023 60002 885// 90550 333 20022 3/000 4//// 79999 82635 87650
AAXX 08064 03502 17669 /2224 10098 20074 39940 40101 57049 69902 723// 90550 333 20052 3/004 55038 55300 20001 70002 86/37 83/45 90710 91137 91037
AAXX 08064 03535 17468 /1710 10040 20021 30003 40122 58046 69902 723// 90550 333 20026 3/101 4/000 55051 55300 20000 79999 81/13 85/56
AAXX 08064 03590 12882 82108 10035 20011 30054 40166 57019 60002 8807/ 90550 333 20006 31102 4//// 55055 55300 20000 70012 86357 88359
AAXX 08064 03649 12675 72206 10063 20036 30049 40150 58038 60002 8553/ 90550 333 20019 31102 4//// 55045 55300 2//// 70000 82630 84650 87362
AAXX 08064 03716 15680 /2322 10104 20073 30083 40142 57036 69902 90550 333 20041 3/001 4/000 55055 55300 20000 70034 82/31 85/47 90710 91129
AAXX 08064 03740 16670 /2110 10077 20048 39979 40156 56035 60002 90550 333 20029 3/100 55054 55300 2//// 70000 87/38
AAXX 08064 03746 15668 /2012 10067 20048 30012 40167 57033 60002 90550 333 20020 3/000 70000 82/41 87/50 85/63
AAXX 08064 03772 17673 /1807 10062 20037 30139 40170 57032 69902 723// 90550 333 20027 3/101 4/000 55060 55300 20000 79999 87/44
AAXX 08064 03796 46/// /2511 10066 20027 30044 40188 57017 90550 333 20037
AAXX 08064 03803 15565 /2426 10119 20083 30137 40175 56028 69922 90550 333 20099 3/008 70004 87/27 84/50 90710 91136 91036
AAXX 08064 03808 11570 82518 10105 20075 30066 40172 56031 69922 70262 885// 90550 333 20080 31007 4//// 55008 55300 20000 70012 88625 90710 91128
AAXX 08064 03809 11358 82529 10110 20087 30082 40175 56029 69982 72165 885// 90550 333 20077 31005 4//// 70010 82708 85620 88635 90710 91140
AAXX 08064 03827 17463 /2420 10106 20092 30114 40176 57029 69942 723// 90550 333 20069 3/005 70016 81/15 87/32 90710 91133
AAXX 08064 03840 17475 /2114 10079 20071 39859 40165 58030 69902 723// 90550 333 20027 3/100 4/000 70002 85/13 86/21
AAXX 08064 03853 12465 62010 10097 20070 40159 6///2 8251/ 90550 333 20032 30100 4//// 55039 55300 20000 70010 81710 86458
AAXX 08064 03874 46/// /2417 10104 20076 30165 40176 58030 90550 333 20069
AAXX 08064 03882 17664 /2203 10048 20031 30123 40188 58022 69902 781// 90550 333 20036 3/000 4/000 55050 55300 20000 79999 86/44 85/59 85/65
AAXX 08064 03894 11370 72216 10112 20096 40206 57026 69901 76086 875// 333 20091 31006 84709 87640 90710 91126
AAXX 08064 03917 17471 /2018 10086 20066 39881 49957 56083 60022 781// 90550 333 20021 3/001 4/000 55047 55300 20000 70036 87/15 85/50 90710 91134
AAXX 08061 02741 17599 72803 10004 21002 39968 49984 52032 60022 70086 87/// 90539 333 10030 20001 3/102
AAXX 08061 02755 17125 81504 10001 20001 39898 49994 52011 60022 77176 88/// 90539 333 10001 21015 3//// 4/006
AAXX 08061 02805 37670 81601 11096 21110 39870 40007 52015 77187 81/// 90539 333 11072 21097 3/112
AAXX 08061 02807 47660 70000 11083 21088 39828 40016 771// 87/// 90600 333 11046 21084 3////
AAXX 08061 02836 17369 81803 11024 21026 39792 40016 52018 69922 77187 88/// 90539 333 11024 21045 3/105 4/010
AAXX 08061 02845 47150 81203 11026 21026 39764 40015 52012 77187 88/// 90539 333 11021 21041 3/104 4/008
AAXX 08061 02849 47399 71602 11033 21042 39752 40029 52017 70042 87/// 90539 333 11014 21033 3////
AAXX 08061 02866 37460 81403 11017 21026 39869 40020 52009 77187 88/// 90539 333 11013 21025 3/103 4/008
AAXX 08061 02924 47367 71402 10005 20004 39789 49986 52013 74187 87/// 90539 333 10006 21003 3/101
AAXX 08061 02926 37280 71504 10007 20004 39958 49970 52019 700// 87/// 90600 333 10013 20005 3/101 4/003
AAXX 08061 02935 37374 71403 10007 20000 39833 40007 52014 70072 87/// 90539 333 10008 21013 3/101 4/003
AAXX 08061 02939 37766 71304 11024 21026 39864 40060 52012 70000 87/// 90539 333 11018 21028 3/104 4/010
AAXX 08061 02947 47265 71402 10007 20004 40032 52013 70080 87/// 90551 333 10007 21013
AAXX 08061 02963 11215 81905 10004 20001 49989 52018 60164 77377 887// 333 1//// 2//// 3/101 43005
AAXX 08061 02974 11482 81906 10026 20000 39950 40017 52019 69982 72682 885// 333 10030 20020 3/001 42998
AAXX 08061 02976 46/// /1908 10030 20009 30020 40036 52018 90539 333 10035 20028 3////
AAXX 08061 02981 17599 72507 10034 20001 39977 49987 52025 60072 70086 87/// 90539 333 10044 20020 3////
AAXX 08061 02982 46/// /2014 10029 20019 39988 49996 52020 90539 333 10050 20019 3////
AAXX 08061 02897 NIL
AAXX 08061 02913 NIL
AAXX 08061 02917 NIL
AAXX 08061 02944 NIL
BBXX 46072 08061 99517 71722 46/// /2610 10056 20035 49996 52036 90550 22200 00055 11412 20606 3//// 41410 70059 333 91213 555 11105 22112 30501 42615 60549 259099 262092 259100 261102 262108 261107 82612 90502
BBXX 46001 08061 99563 71480 46/// /2009 10063 40136 56008 90550 22200 00052 10807 20806 300// 41304 70036 333 91212 555 11102 22110 30519 41912 60549 197093 197093 196092 196094 196092 196093
BBXX 46082 08061 99597 71434 46/// ///// 10025 20025 40185 56033 90550 22200 00062 10810 70049
BBXX 46072 08061 99517 71722 46/// /2610 10056 20035 49996 52036 90550 22200 00055 11412 20606 3//// 41410 70059 333 91213 555 11105 22112 30501 42615 60549 259099 262092 259100 261102 262108 261107 82612 90502
BBXX 46035 08061 99571 71778 46/// /2616 1//// 49888 53039 90550 22200 11111 20808 300// 41107 70056 333 91220 555 11156 22167 30457 42822 60549 258155 274168 261162 267165 269165 278170 82819 90452
BBXX 46077 08061 99579 71543 46/// /0307 10044 20036 40088 51007 90550 22200 00056 11103 20601 3//// 41102 70013 333 91208 555 11074 22078 30530 40308 60549 032070 034070 038068 036070 035066 031059 80308 90550
BBXX 51101 08061 99243 71621 46/// /0707 10238 20185 40192 52020 90550 22200 00245 11907 20602 333// 41907 70035 333 91208 555 11071 22075 30516 40909 60549 071067 072069 073068 080071 073070 074066
BBXX 46061 08061 99602 71468 46/// /1016 10022 40144 58047 90550 22200 00064 10808 20807 300// 41105 70040 333 91221 555 11173 22184 30500 41022 60549 095164 097169 096176 096171 096171 095172
BBXX 42039 08061 99288 70860 46/// /0110 10121 40226 90550 22200 00233 333 91213 555 11103 22107
BBXX 41040 08061 99145 70530 46/// /1304 10272 20251 40109 57016 90550 22200 00275 11103 20301 3//// 41103 70017 333 91204 555 11038 22039 30453 41305 60549 128035 136033 135035 132037 133041 131042 81305 90455
BBXX 41010 08061 99289 70785 46/// /3311 10196 40167 51011 90550 22200 00241 10605 20604 300// 41001 70023 333 91214 555 11117 22122
BBXX 41009 08061 99285 70802 46/// /3310 10172 20099 40187 51009 90550 22200 00240 10604 20604 300// 40901 70020 333 91213 555 11108 22113
BBXX 42057 08061 99168 70815 46/// /0308 10265 20206 40135 58009 90550 22200 00279 10703 20602 3//// 40701 70013 333 91209 555 11077 22081 30533 40511 60549 029076 046076 040072 043058 052059 049063 80510 90533
BBXX 44007 08061 99435 70701 46/// /3611 10047 20042 49972 58054 90550 22200 00087 10302 20302 3//// 40901 70011 333 91213 555 11115 22120 30521 40215 60549 359108 004104 007108 012114 014101 012094
BBXX 44013 08061 99423 70707 46/// /0110 10087 20083 49950 58055 90550 22200 00099 10503 20503 70013 333 91212 555 11107 22113 30450 43613 60549 010101 029096 032100 037101 038098 037091
AAXX 08061 02947 47/65 71402 10007 20004 40032 52013 70080 87/// 90551 333 10007 21013 3////
AAXX 08061 02944 47132 81504 10003 20003 39840 49987 761// 88/// 90600 333 10008 20001 3////
AAXX 08061 02917 47365 81304 10002 21008 39908 40031 700// 88/// 90600 333 10002 21030 3////
AAXX 08061 02913 47460 81303 10012 20005 39919 49971 781// 88/// 333 10015 20003 3////
AAXX 08061 02897 47370 81304 11017 21024 39845 40029 700// 88/// 90600 333 11017 21029 3////
BBXX 46026 08061 99378 71228 46/// /3106 10100 40214 56008 90550 22200 00116 11402 20401 329// 41401 70008 333 91206 555 11058 22060 30459 42908 60549 305055 288054 284055 284055 289058 289062
BBXX 46041 08061 99474 71247 46/// /1904 10069 40305 52003 90550 22200 00098 11103 20401 3//// 41103 70016 333 91204 555 11037 22038 30456 41505 60549 186036 189033 191026 174031 165033 158037
BBXX 45008 08061 99443 70824 46/// /2911 10015 39907 40124 53017 90550 22200 00065 10504 20504 70018 333 91213 555 11113 22119 60549 288109 284108 285105 286105 284104 289113
BBXX 45002 08061 99453 70864 46/// /2710 11007 21044 39929 40148 55000 90550 22200 10402 20402 70012 333 91212 555 11103 22110 30523 42813 60549 268097 268102 270106 270104 268099 270102
BBXX 51004 08061 99175 71524 46/// /0508 10234 20186 90550 555 11080 22085
BBXX 51002 08061 99171 71578 46/// /0709 10245 40145 53024 90550 22200 00251 333 91212 555 11100 22106 30545 40712 60549 072094 071089 070091 071087 065088 066091
BBXX 51100 08061 99236 71539 46/// /0709 10226 40194 53016 90550 22200 00236 11005 20603 336// 41003 70023 333 91210 555 11090 22095 30541 40711 60549 068085 066086 070084 062088 066087 066085
BBXX CGDS 08064 99447 70755 46/// /2704 11015 21034 4//// 5//// 7//// 8//// 22200 0//// 2////
BBXX BATFR42 08064 99507 70020 46/// /2517 10104 20087 40176 56045 22272 00137
BBXX BATFR47 08064 99247 51312 46/// /0415 10242 20202 40179 52019 22222
BBXX BATEU06 08064 99498 70107 46/// /2439 10129 20105 40142 56021 22223 00134
BBXX BATFR48 08064 99150 51454 46/// /0812 10269 20205 40129 22242 00304
BBXX BATEU05 08064 99601 10014 46/// /1605 10054 21006 49986 56016 22273
AAXX 08061 11816 12780 42914 10051 21011 39972 40137 52012 60012 84540 333 20032 31003 70027 84656 91120
AAXX 08061 11826 12782 62605 10044 21016 39922 40123 52019 60002 84540 333 20021 31101 70027 84650 83360
AAXX 08061 11903 11462 82505 10017 20010 39728 40114 52018 60082 76876 885// 333 20001 3/000 43001 70081 85710 88627
AAXX 08061 11934 11305 82612 11009 21014 39245 42691 51014 60042 77373 8672/ 333 21010 3/102 48008 70041 86706 88533 92982
AAXX 08061 11968 12470 49901 10001 21016 39798 40084 52019 60022 82631 333 21007 35104 70024 82715 83070 93401
BBXX BATEU08 08064 99596 70333 46/// /3334 11005 21082 40091 53008 22223
BBXX BATFR06 08064 99453 70015 46/// /2713 10142 20092 40283 56006 22241 00157
AAXX 08064 07005 02570 82007 10058 20035 30123 40215 58008 69922 85502 333 10080 20052 31004 55024 69927 70004 85620 87075 90710 91110 555 69905
AAXX 08064 07015 01782 72007 10022 20003 30154 40213 58004 60002 703// 85501 333 10066 20006 31102 55042 60007 70026 85656 87073 90710 91111 93100 555 60005
AAXX 08064 07020 02668 8//// 1//// 2//// 30178 4//// 58025 6///2 88500 333 1//// 2//// 55/// 6///7 7//// 88633 555 6///5
AAXX 08064 07027 02775 72010 10080 20061 30146 40229 56013 69922 875// 333 10080 20037 31002 55024 60007 70026 87650 90710 91116 93100 555 60005
AAXX 08064 07037 02570 52008 10054 20047 30048 40236 58002 60002 85500 333 10062 20032 32102 55003 60007 70058 83631 85637 90710 91110 93100 555 60005
AAXX 08064 07070 04970 /2207 10024 20011 30137 40252 51012 60002 700// 333 10073 20022 3/001 55014 60007 70064 90710 91112 555 60005
AAXX 08064 07110 02575 72415 10114 20073 30110 40225 56018 69902 875// 333 10116 20082 31006 55022 60007 70022 82626 87636 90710 91123 555 60005
AAXX 08064 07117 01568 82210 10106 20085 30145 40216 57021 69922 70262 885// 333 10113 20091 60007 90710 91119 92437 555 60005
AAXX 08064 07130 04463 81903 10084 20075 30192 40245 56015 60002 700// 333 10094 20047 31100 55022 60007 70012 90710 91107 555 60005
AAXX 08064 07139 01640 72101 10048 20038 30074 40253 56008 60002 71022 875// 333 10086 20045 31001 55014 60007 70010 87643 90710 91105 93100 555 60005
AAXX 08064 07149 02975 52005 10051 20045 30141 40253 56002 60002 85030 333 10082 20043 31002 55004 60007 70038 85360 90710 91109 93100 555 60005
AAXX 08064 07168 02965 52311 10047 20032 30123 40270 51009 60002 82031 333 10081 20038 31003 55000 60007 70024 82362 84075 90710 91116 93100 555 60005
AAXX 08064 07181 04369 /2209 10024 20018 39848 40273 51017 60002 700// 333 10066 20019 3/001 55/// 60007 70060 90710 91112 555 60005
AAXX 08064 07190 04985 /1905 10031 21009 30081 40270 53018 69922 700// 333 10088 20029 30001 55000 60007 70058 90710 91111 555 60005
AAXX 08064 07207 02562 42617 10130 20093 60022 84400 222// 327// 333 10132 20114 69927 91028 90710 91128 92437 555 60005
AAXX 08064 07222 01560 71906 10093 20087 30225 40257 56012 60002 703// 875// 333 10093 20053 31000 55005 60007 70022 84626 87650 90710 91109 555 60005
AAXX 08064 07240 01660 71904 10067 20061 30129 40268 56007 60002 703// 875// 333 10100 20047 31002 55002 60007 70020 87649 90710 91108 93100 555 60005
AAXX 08064 07255 01/03 92407 10064 20063 30076 40281 50001 69922 74542 333 10106 20056 32004 55001 60007 70004 90710 91111 93100 555 60005
AAXX 08064 07280 04969 61801 10026 20019 30004 40288 53007 60022 700// 333 10103 20024 31101 55000 60007 70042 90710 91106 555 60005
AAXX 08064 07299 02582 32305 10038 20020 39945 40283 53015 60022 83800 333 10077 20038 31002 55000 69907 70081 81825 83650 90710 91110 93100 555 69905
AAXX 08064 07314 06/// /2406 10133 20110 30249 40277 56008 69962 333 10139 20121 55/// 60007 70016 90710 91114 555 60005
AAXX 08064 07335 02570 71903 10084 20078 30132 40280 56004 69942 875// 333 10104 20066 31004 55010 60007 70006 83630 87640 90710 91106 555 60005
AAXX 08064 07434 01004 82004 10078 20075 39800 40288 55003 69962 75865 886// 333 10091 20075 32007 55000 69907 70050 88701 90710 91106 93100 555 69905
AAXX 08064 07460 01580 71504 10071 20052 39892 40290 53003 69922 703// 875// 333 10111 20064 31004 55000 60007 70006 82630 87648 90710 91106 93100 555 60005
AAXX 08064 07471 02584 70000 10034 20025 39303 48879 53005 60012 878// 333 10081 20034 32002 55003 69907 70012 83823 86643 90710 91104 93100 555 60005
AAXX 08064 07481 01435 70102 10070 20061 30001 40296 53011 60012 76086 875// 333 10092 20069 32006 55/// 69907 70068 84718 87623 90710 91104 93100 555 69905
AAXX 08064 07510 02668 72004 10108 20094 30223 40289 56004 69902 878// 333 10122 20107 31010 55000 60007 70010 81833 87641 90710 91106 93100 555 60005
AAXX 08064 07535 02550 71702 10092 20091 39978 40296 55004 69982 875// 333 10105 20087 31007 55001 69927 70024 87630 90710 91105 93100 555 60005
AAXX 08064 07558 01160 63113 10069 20054 39435 40285 58001 69942 72165 86700 333 10084 20063 31006 55000 69907 70018 85701 84640 90710 91121 93100 555 69905
AAXX 08064 07577 02565 30206 10098 20072 30186 40277 53008 69922 83500 333 10099 20073 31005 55003 60007 70002 83630 90710 91115 93100 555 60005
AAXX 08064 07591 04/// /0205 10024 20015 39225 4//// 53012 69902 700// 333 10068 20020 3/101 55000 60007 70077 90710 91110 555 60005
AAXX 08064 07607 01215 72902 10099 20094 30227 40300 55006 69962 7112/ 875// 333 10123 20098 3/006 55007 69967 70036 85704 85646 90710 91104 555 60005
AAXX 08064 07621 01670 61804 10078 20051 39863 40306 56005 60002 702// 86500 333 10121 20078 30007 55047 60007 70000 86636 90710 91107 93100 555 60005
AAXX 08064 07627 02680 41503 10060 20037 39810 40312 56005 60002 84500 333 10106 20045 30001 55074 60007 70000 84640 90710 91105 93100 555 60005
AAXX 08064 07630 02680 72609 10107 20085 30114 40297 56006 69902 875// 333 10119 20107 31009 55010 60007 70006 87646 90710 91110 93100 555 60005
AAXX 08064 07643 02786 10206 10112 20053 30264 40274 53009 60002 81500 333 10137 20112 30009 55045 60007 70000 81650 90710 91115 555 60005
AAXX 08064 07650 02986 03016 10101 20068 30218 40257 53008 60002 333 10132 20096 30008 55068 60007 70000 90710 91122 93100 555 60005
AAXX 08064 07661 02970 02829 10122 20056 30060 40222 52001 60002 333 10136 20120 55/// 60007 70000 90710 91139 555 60005
AAXX 08064 07690 02584 13404 10094 20025 30153 40187 53017 60002 81500 333 10173 20091 30007 55087 60007 70000 81626 90710 91107 93100 555 60005
AAXX 08064 07747 02682 23412 10133 20073 30230 40284 52010 60002 82500 333 10157 20126 30009 55079 60007 70000 82640 90710 91123 555 60005
AAXX 08064 07761 02670 63404 10154 20077 30214 40225 53009 60002 86500 333 10165 20153 30014 55014 60007 79999 86636 90710 91114 93100 555 60005
AAXX 08064 07790 02865 20702 10144 20062 30182 40196 53020 60002 82040 333 10177 20101 30006 55/// 60007 70000 82358 90710 91111 93100 555 60005
BBXX CG2350 08064 99433 70798 46/// /2312 10011 21033 40120 55001 7//// 8//// 22200 0//// 2////
BBXX CGBR 08064 99541 71305 46/// /3310 10003 20002 40337 58010 7//// 8//// 22251 00083 2////
BBXX CGJK 08064 99484 71234 46/// /0204 10024 20016 40320 50003 7//// 8//// 22200 0//// 2////
BBXX CGHL 08064 99476 70527 46/// /1805 10042 20036 40122 52024 7//// 8//// 22200 0//// 2////
BBXX VCRG 08064 99474 70619 46/// /0912 10063 20061 40058 58034 7//// 8//// 22200 0//// 2////
BBXX CGDR 08064 99501 71275 46/// /0405 10044 21024 40323 51003 7//// 8//// 22200 0//// 2////
BBXX C6SI6 08064 99533 11678 46/// /2514 11003 21063 40048 53006 7//// 8//// 22253 0//// 2////
BBXX VCBW 08064 99514 70571 46/// /0817 11017 21053 40155 53001 7//// 8//// 22281 00040 2////
BBXX CGDG 08064 99454 70552 46/// /2115 10073 20126 40117 56014 7//// 8//// 22282 00054 2////
BBXX CZ9742 08064 99506 70969 46/// /2605 11108 21168 40137 53001 7//// 8//// 22200 0//// 2////
BBXX CG2965 08064 99487 71235 46/// /3502 10034 20017 40326 52008 7//// 8//// 22200 0//// 2////
AAXX 08061 89061 179// 03405 10001 21002 39789 49795 52007 60021 77177 333 91007 91108
AAXX 08064 64500 11358 81404 10245 20233 30083 40097 69964 79596 8492/ 333 02416 20236 50091 55075 59013 84608 82920 88460 94959 95839
AAXX 08061 11423 NIL
AAXX 08061 11487 01566 82711 10024 21013 39526 40158 52026 69912 768// 885// 333 20011 31000 69905 70025 82622 88646 91016 91122
AAXX 08061 11518 01565 72711 10026 21002 39685 40130 52034 69902 76062 875// 333 20021 32001 69905 70020 83625 87656 91017 91120
AAXX 08061 11603 01470 82805 10022 21005 39619 40107 53038 69962 760// 87570 333 20016 32001 69905 70066 82614 85618 87623 91118
AAXX 08061 11659 01570 82812 10028 21015 39474 40119 51023 60002 702// 885// 333 20019 31100 60005 70016 88630 91023 91118
AAXX 08061 11723 01680 72710 10047 21026 39821 40121 53019 69902 76062 83571 333 20025 31101 69905 70031 83646 86357 91116
AAXX 08061 11782 02570 62408 10035 21005 39786 40094 52027 69932 85570 333 20021 31001 60005 70011 83623 85633 91115
AAXX 08061 76055 32970 03406 10122 21093 30166 40185 50001 90540 333 10182 20092 30/// 59071
AAXX 08061 76225 32920 70000 10080 21037 38645 40171 50001 87040 90535 333 10138 21061 30/// 55093 56050 59051 87359
AAXX 08061 76323 32910 00101 10034 21087 38282 40206 58001 90545 333 10182 21052 30/// 55083 59045
AAXX 08061 76342 32940 01201 10055 21006 39550 40274 52009 90550 333 10184 20000 30/// 55091 20733 59045
AAXX 08061 76373 32906 20000 10009 21103 38222 40172 52003 80004 90550 333 10210 21052 30/// 55097 21949 56009 59019 82067
AAXX 08061 76382 32960 00000 10084 20054 38930 40187 54000 90558 333 10179 20031 30/// 55078 2//// 59040
AAXX 08061 76390 31950 12001 10022 21052 38247 40199 57009 70544 80005 90530 333 10162 21025 30/// 55093 21509 56008 59024 81070
AAXX 08061 76393 32920 00601 10088 21006 39661 40251 57003 90550 333 10171 20036 30/// 55078 59028
AAXX 08061 76402 32950 10000 10120 20080 30110 40167 52011 80005 90545 333 10266 20056 30/// 55094 2//// 56005 59025
AAXX 08061 76458 32960 03602 10176 20147 30140 40145 52004 90540 333 10259 20114 30/// 55082 59019
AAXX 08061 76525 32960 01403 10113 20025 37481 40138 57000 90540 333 10148 20053 30/// 55080 22472 59009
AAXX 08061 76539 32958 03601 10067 20057 38191 40233 52002 90550 333 10140 20080 30/// 55002 58013
AAXX 08061 76548 32860 73402 10144 20060 30264 40274 57012 8703/ 90545 333 10185 20120 30/// 55009 5603/ 59006 87357
AAXX 08061 76556 32960 01001 10160 20128 39125 40127 52007 90534 333 10292 20105 30/// 55097 59001
AAXX 08061 76571 32910 00000 10116 20062 38182 40146 54007 90540 333 10228 20074 30/// 55083 58001
AAXX 08061 76612 32958 02101 10130 20068 38481 40124 51006 90550 333 10266 20065 30/// 55089 21163 59004
AAXX 08061 76625 32960 00903 10078 20043 38166 40150 52001 90540 333 10223 20097 30/// 55060 58013
AAXX 08061 76632 31850 30405 10094 20056 37644 40125 52004 70511 83020 90540 333 10190 20084 30/// 55085 56050 59002 83458
AAXX 08061 76634 31150 33201 10058 20054 37872 40208 57002 71042 83600 90550 333 10160 20048 30/// 55068 21644 563// 59006 83791
AAXX 08061 76654 31956 00301 10231 20211 30154 40158 52010 70544 90550 333 10298 20216 30/// 55069 20917 58007
AAXX 08061 76658 31956 20502 10198 20162 39647 40146 52012 70540 80002 90540 333 10310 20172 30/// 55083 56001 58002 82070 98914
AAXX 08061 76675 32960 01601 10065 20047 37390 40112 5//// 90545 333 10225 20007 30/// 55092 2//// 59008
AAXX 08061 76680 31956 03202 10126 20073 37767 40111 52009 70500 90550 333 10236 20090 30/// 55087 21405 58000
AAXX 08061 76683 32962 00000 10078 20059 37853 40177 51010 90540 333 10223 20064 30/// 50261 55092 21834 58002
AAXX 08061 76685 32950 00601 10090 20078 37891 40150 52001 90545 333 10208 20050 30/// 55101 58004
AAXX 08061 76695 32656 73503 10216 20180 30188 40193 50003 85530 90547 333 10276 20190 30/// 55080 5610/ 58028 85615 91006 91535
AAXX 08061 76726 32968 03601 10136 20071 38422 40128 52017 90535 333 10266 20126 30/// 55093 58003
AAXX 08061 76750 01558 83602 10216 20204 30171 40181 57001 60011 72052 88700 90550 333 10310 20208 32/// 55051 56800 58016 69947 88720
AAXX 08061 76762 32902 00000 10162 20141 38772 40119 53013 90540 333 10305 20128 30/// 55096 20995 58005 91202
AAXX 08061 76775 32960 00501 10121 20070 38559 40187 52009 90545 333 10268 20074 30/// 55083 58009
AAXX 08061 76805 32760 40301 10228 20210 30130 40134 52016 84040 90545 333 10338 20200 30/// 55097 21094 56/6/ 59002 84356
AAXX 08061 76840 32501 13602 10238 20168 30090 40146 52005 81100 90540 333 10355 20167 30/// 55097 2//// 568// 58011 81827
AAXX 08061 76843 32565 30202 10184 20159 39522 40166 57007 83700 90535 333 10259 20182 30/// 55020 567// 58000 83720
AAXX 08061 76845 21120 80601 10122 20119 37969 40191 56006 75052 88700 90545 333 10164 20090 31/// 55019 56100 59001 69947 88702
AAXX 08061 76848 32450 70501 10145 20118 38399 40107 58005 87500 90550 333 10217 20103 30/// 55085 56100 59002 87611
AAXX 08061 76903 31970 00504 10235 20201 39994 40128 52006 70000 90540 333 10348 20223 30/// 55081 58///
AAXX 08061 76243 32470 61403 10066 21012 39962 40263 54000 86050 90535 333 10166 21035 30/// 55085 56050 59048 86350
AAXX 08061 76253 32605 12303 10132 20086 30101 40191 53003 81020 90556 333 10185 20120 30/// 55075 59043 81450 92002
AAXX 08061 76311 32560 10000 10117 20082 39871 40145 52007 81100 90556 333 10306 20052 30/// 55080 59022 81820
AAXX 08061 76412 32960 00000 10136 20108 30126 40172 52005 90540 333 10290 20070 30/// 55095 59017
AAXX 08061 76647 02365 83602 10211 20199 30173 40204 52005 69901 887// 90550 333 10318 20200 30/// 55081 568// 58025 69907 88808
BBXX VCLM 08064 99621 70747 46/// /1913 11116 21161 49929 53011 7//// 8//// 22200 0//// 2////
BBXX CGBN 08064 99447 70636 46/// /1403 10126 20125 40003 58042 7//// 8//// 22200 0//// 2////
BBXX VAAZ 08064 99510 70498 46/// /0524 10003 20000 40130 56041 7//// 8//// 22231 0//// 2////
BBXX CGCC 08064 99468 70712 46/// /0204 10002 21008 40048 58024 7//// 8//// 22200 0//// 2////
BBXX VOPP 08064 99456 70735 46/// /2910 11016 21016 4//// 5//// 7//// 8//// 22200 0//// 2////
BBXX VRYO3 08064 99456 70735 46/// /0000 11011 20000 40051 56017 7//// 8//// 22200 0//// 2////
BBXX CG2958 08064 99487 71235 46/// /3502 10033 20020 40334 51008 7//// 8//// 22200 0//// 2////
BBXX CGBY 08064 99487 71235 46/// /3402 10026 20008 40325 52008 7//// 8//// 22200 0//// 2////
AAXX 08061 89061 179// 03405 10001 21002 39789 49795 52007 60021 77177 333 91007 91108
BBXX CGSB 08064 99468 70712 46/// /0203 10005 21004 40049 58024 7//// 8//// 22200 0//// 2////
BBXX VCWL 08064 99468 70712 46/// /0000 10001 21011 40049 58008 7//// 8//// 22222 00036 2////
BBXX VAAP 08064 99447 70636 46/// /1820 10128 20126 40003 58055 7//// 8//// 22271 0//// 2////
BBXX VXKF 08064 99468 70597 46/// /1018 10048 20047 40061 58020 7//// 8//// 22213 0//// 2////
BBXX CGDX 08064 99468 70712 46/// /0403 10006 21003 40049 58023 7//// 8//// 22200 0//// 2////
BBXX VOKJ 08064 99459 70732 46/// /3310 11017 21027 40053 56009 7//// 8//// 22253 0//// 2////
BBXX CGTF 08064 99476 70527 46/// /1505 10040 20033 40122 52024 7//// 8//// 22200 0//// 2////
BBXX VCSZ 08064 99489 70636 46/// /0723 10014 20014 40060 58052 7//// 8//// 22224 0//// 2////
BBXX 3FZK3 08064 99411 11398 46/// /3017 11011 21038 40129 56023 7//// 8//// 22213 0//// 2////
BBXX CGDT 08064 99490 70669 46/// /0902 11002 21020 40066 56034 7//// 8//// 22200 0//// 2////
BBXX CGJV 08064 99447 70636 46/// /1810 10113 20112 40017 58042 7//// 8//// 22200 0//// 2////
AAXX 08061 76055 32970 03406 10122 21093 30166 40185 50001 90540 333 10182 20092 30/// 59071
AAXX 08061 76225 32920 70000 10080 21037 38645 40171 50001 87040 90535 333 10138 21061 30/// 55093 56050 59051 87359
AAXX 08061 76323 32910 00101 10034 21087 38282 40206 58001 90545 333 10182 21052 30/// 55083 59045
AAXX 08061 76342 32940 01201 10055 21006 39550 40274 52009 90550 333 10184 20000 30/// 55091 20733 59045
AAXX 08061 76373 32906 20000 10009 21103 38222 40172 52003 80004 90550 333 10210 21052 30/// 55097 21949 56009 59019 82067
AAXX 08061 76382 32960 00000 10084 20054 38930 40187 54000 90558 333 10179 20031 30/// 55078 2//// 59040
AAXX 08061 76390 31950 12001 10022 21052 38247 40199 57009 70544 80005 90530 333 10162 21025 30/// 55093 21509 56008 59024 81070
AAXX 08061 76393 32920 00601 10088 21006 39661 40251 57003 90550 333 10171 20036 30/// 55078 59028
AAXX 08061 76402 32950 10000 10120 20080 30110 40167 52011 80005 90545 333 10266 20056 30/// 55094 2//// 56005 59025
AAXX 08061 76458 32960 03602 10176 20147 30140 40145 52004 90540 333 10259 20114 30/// 55082 59019
AAXX 08061 76525 32960 01403 10113 20025 37481 40138 57000 90540 333 10148 20053 30/// 55080 22472 59009
AAXX 08061 76539 32958 03601 10067 20057 38191 40233 52002 90550 333 10140 20080 30/// 55002 58013
AAXX 08061 76548 32860 73402 10144 20060 30264 40274 57012 8703/ 90545 333 10185 20120 30/// 55009 5603/ 59006 87357
AAXX 08061 76556 32960 01001 10160 20128 39125 40127 52007 90534 333 10292 20105 30/// 55097 59001
AAXX 08061 76571 32910 00000 10116 20062 38182 40146 54007 90540 333 10228 20074 30/// 55083 58001
AAXX 08061 76612 32958 02101 10130 20068 38481 40124 51006 90550 333 10266 20065 30/// 55089 21163 59004
AAXX 08061 76625 32960 00903 10078 20043 38166 40150 52001 90540 333 10223 20097 30/// 55060 58013
AAXX 08061 76632 31850 30405 10094 20056 37644 40125 52004 70511 83020 90540 333 10190 20084 30/// 55085 56050 59002 83458
AAXX 08061 76634 31150 33201 10058 20054 37872 40208 57002 71042 83600 90550 333 10160 20048 30/// 55068 21644 563// 59006 83791
AAXX 08061 76654 31956 00301 10231 20211 30154 40158 52010 70544 90550 333 10298 20216 30/// 55069 20917 58007
AAXX 08061 76658 31956 20502 10198 20162 39647 40146 52012 70540 80002 90540 333 10310 20172 30/// 55083 56001 58002 82070 98914
AAXX 08061 76675 32960 01601 10065 20047 37390 40112 5//// 90545 333 10225 20007 30/// 55092 2//// 59008
AAXX 08061 76680 31956 03202 10126 20073 37767 40111 52009 70500 90550 333 10236 20090 30/// 55087 21405 58000
AAXX 08061 76683 32962 00000 10078 20059 37853 40177 51010 90540 333 10223 20064 30/// 50261 55092 21834 58002
AAXX 08061 76685 32950 00601 10090 20078 37891 40150 52001 90545 333 10208 20050 30/// 55101 58004
AAXX 08061 76695 32656 73503 10216 20180 30188 40193 50003 85530 90547 333 10276 20190 30/// 55080 5610/ 58028 85615 91006 91535
AAXX 08061 76726 32968 03601 10136 20071 38422 40128 52017 90535 333 10266 20126 30/// 55093 58003
AAXX 08061 76750 01558 83602 10216 20204 30171 40181 57001 60011 72052 88700 90550 333 10310 20208 32/// 55051 56800 58016 69947 88720
AAXX 08061 76762 32902 00000 10162 20141 38772 40119 53013 90540 333 10305 20128 30/// 55096 20995 58005 91202
AAXX 08061 76775 32960 00501 10121 20070 38559 40187 52009 90545 333 10268 20074 30/// 55083 58009
AAXX 08061 76805 32760 40301 10228 20210 30130 40134 52016 84040 90545 333 10338 20200 30/// 55097 21094 56/6/ 59002 84356
AAXX 08061 76840 32501 13602 10238 20168 30090 40146 52005 81100 90540 333 10355 20167 30/// 55097 2//// 568// 58011 81827
AAXX 08061 76843 32565 30202 10184 20159 39522 40166 57007 83700 90535 333 10259 20182 30/// 55020 567// 58000 83720
AAXX 08061 76845 21120 80601 10122 20119 37969 40191 56006 75052 88700 90545 333 10164 20090 31/// 55019 56100 59001 69947 88702
AAXX 08061 76848 32450 70501 10145 20118 38399 40107 58005 87500 90550 333 10217 20103 30/// 55085 56100 59002 87611
AAXX 08061 76903 31970 00504 10235 20201 39994 40128 52006 70000 90540 333 10348 20223 30/// 55081 58///
AAXX 08061 76243 32470 61403 10066 21012 39962 40263 54000 86050 90535 333 10166 21035 30/// 55085 56050 59048 86350
AAXX 08061 76253 32605 12303 10132 20086 30101 40191 53003 81020 90556 333 10185 20120 30/// 55075 59043 81450 92002
AAXX 08061 76311 32560 10000 10117 20082 39871 40145 52007 81100 90556 333 10306 20052 30/// 55080 59022 81820
AAXX 08061 76412 32960 00000 10136 20108 30126 40172 52005 90540 333 10290 20070 30/// 55095 59017
AAXX 08061 76647 02365 83602 10211 20199 30173 40204 52005 69901 887// 90550 333 10318 20200 30/// 55081 568// 58025 69907 88808
AAXX 08061 01001 11575 53507 11083 21142 30020 40032 50003 69932 70272 83571 333 21096 48999 70005 91115
AAXX 08061 01055 46/// /2412 10017 21050 39952 49970 50005 333 21005 91122
AAXX 08061 01317 11580 51605 10008 21016 39993 40008 58004 60012 70182 84870 333 21041 43012 70011 91108
AAXX 08061 01367 11889 32803 11133 21153 39591 40058 53012 60002 70200 83010 333 21133 47998 70000 91106
AAXX 08061 76055 32970 03406 10122 21093 30166 40185 50001 90540 33310182 20092 30/// 59071
AAXX 08061 76225 32920 70000 10080 21037 38645 40171 50001 87040 90535333 10138 21061 30/// 55093 56050 59051 87359
AAXX 08061 76323 32910 00101 10034 21087 38282 40206 58001 90545 33310182 21052 30/// 55083 59045
AAXX 08061 76342 32940 01201 10055 21006 39550 40274 52009 90550 33310184 20000 30/// 55091 20733 59045
AAXX 08061 76373 32906 20000 10009 21103 38222 40172 52003 80004 90550333 10210 21052 30/// 55097 21949 56009 59019 82067
AAXX 08061 76382 32960 00000 10084 20054 38930 40187 54000 90558 33310179 20031 30/// 55078 2//// 59040
AAXX 08061 76390 31950 12001 10022 21052 38247 40199 57009 70544 8000590530 333 10162 21025 30/// 55093 21509 56008 59024 81070
AAXX 08061 76393 32920 00601 10088 21006 39661 40251 57003 90550 33310171 20036 30/// 55078 59028
AAXX 08061 76402 32950 10000 10120 20080 30110 40167 52011 80005 90545333 10266 20056 30/// 55094 2//// 56005 59025
AAXX 08061 76458 32960 03602 10176 20147 30140 40145 52004 90540 33310259 20114 30/// 55082 59019
AAXX 08061 76525 32960 01403 10113 20025 37481 40138 57000 90540 33310148 20053 30/// 55080 22472 59009
AAXX 08061 76539 32958 03601 10067 20057 38191 40233 52002 90550 33310140 20080 30/// 55002 58013
AAXX 08061 76548 32860 73402 10144 20060 30264 40274 57012 8703/ 90545333 10185 20120 30/// 55009 5603/ 59006 87357
AAXX 08061 76556 32960 01001 10160 20128 39125 40127 52007 90534 33310292 20105 30/// 55097 59001
AAXX 08061 76571 32910 00000 10116 20062 38182 40146 54007 90540 33310228 20074 30/// 55083 58001
AAXX 08061 76612 32958 02101 10130 20068 38481 40124 51006 90550 33310266 20065 30/// 55089 21163 59004
AAXX 08061 76625 32960 00903 10078 20043 38166 40150 52001 90540 33310223 20097 30/// 55060 58013
AAXX 08061 76632 31850 30405 10094 20056 37644 40125 52004 70511 8302090540 333 10190 20084 30/// 55085 56050 59002 83458
AAXX 08061 76634 31150 33201 10058 20054 37872 40208 57002 71042 8360090550 333 10160 20048 30/// 55068 21644 563// 59006 83791
AAXX 08061 76654 31956 00301 10231 20211 30154 40158 52010 70544 90550333 10298 20216 30/// 55069 20917 58007
AAXX 08061 76658 31956 20502 10198 20162 39647 40146 52012 70540 8000290540 333 10310 20172 30/// 55083 56001 58002 82070 98914
AAXX 08061 76675 32960 01601 10065 20047 37390 40112 5//// 90545 33310225 20007 30/// 55092 2//// 59008
AAXX 08061 76680 31956 03202 10126 20073 37767 40111 52009 70500 90550333 10236 20090 30/// 55087 21405 58000
AAXX 08061 76683 32962 00000 10078 20059 37853 40177 51010 90540 33310223 20064 30/// 50261 55092 21834 58002
AAXX 08061 76685 32950 00601 10090 20078 37891 40150 52001 90545 33310208 20050 30/// 55101 58004
AAXX 08061 76695 32656 73503 10216 20180 30188 40193 50003 85530 90547333 10276 20190 30/// 55080 5610/ 58028 85615 91006 91535
AAXX 08061 76726 32968 03601 10136 20071 38422 40128 52017 90535 33310266 20126 30/// 55093 58003
AAXX 08061 76750 01558 83602 10216 20204 30171 40181 57001 60011 7205288700 90550 333 10310 20208 32/// 55051 56800 58016 6994788720
AAXX 08061 76762 32902 00000 10162 20141 38772 40119 53013 90540 33310305 20128 30/// 55096 20995 58005 91202
AAXX 08061 76775 32960 00501 10121 20070 38559 40187 52009 90545 33310268 20074 30/// 55083 58009
AAXX 08061 76805 32760 40301 10228 20210 30130 40134 52016 84040 90545333 10338 20200 30/// 55097 21094 56/6/ 59002 84356
AAXX 08061 76840 32501 13602 10238 20168 30090 40146 52005 81100 90540333 10355 20167 30/// 55097 2//// 568// 58011 81827
AAXX 08061 76843 32565 30202 10184 20159 39522 40166 57007 83700 90535333 10259 20182 30/// 55020 567// 58000 83720
AAXX 08061 76845 21120 80601 10122 20119 37969 40191 56006 75052 8870090545 333 10164 20090 31/// 55019 56100 59001 69947 88702
AAXX 08061 76848 32450 70501 10145 20118 38399 40107 58005 87500 90550333 10217 20103 30/// 55085 56100 59002 87611
AAXX 08061 76903 31970 00504 10235 20201 39994 40128 52006 70000 90540333 10348 20223 30/// 55081 58///
AAXX 08061 76243 32470 61403 10066 21012 39962 40263 54000 86050 90535333 10166 21035 30/// 55085 56050 59048 86350
AAXX 08061 76253 32605 12303 10132 20086 30101 40191 53003 81020 90556333 10185 20120 30/// 55075 59043 81450 92002
AAXX 08061 76311 32560 10000 10117 20082 39871 40145 52007 81100 90556333 10306 20052 30/// 55080 59022 81820
AAXX 08061 76412 32960 00000 10136 20108 30126 40172 52005 90540 33310290 20070 30/// 55095 59017
AAXX 08061 76647 02365 83602 10211 20199 30173 40204 52005 69901 887//90550 333 10318 20200 30/// 55081 568// 58025 69907 88808
BBXX CG2958 08064 99487 71235 46/// /3502 10033 20020 40334 51008 7//// 8//// 22200 0//// 2////
BBXX VOPP 08064 99456 70735 46/// /2910 11016 21016 4//// 5//// 7//// 8//// 22200 0//// 2////
BBXX CGBN 08064 99447 70636 46/// /1403 10126 20125 40003 58042 7//// 8//// 22200 0//// 2////
BBXX VCLM 08064 99621 70747 46/// /1913 11116 21161 49929 53011 7//// 8//// 22200 0//// 2////
BBXX VCSZ 08064 99489 70636 46/// /0723 10014 20014 40060 58052 7//// 8//// 22224 0//// 2////
BBXX CGDT 08064 99490 70669 46/// /0902 11002 21020 40066 56034 7//// 8//// 22200 0//// 2////
BBXX VAAP 08064 99447 70636 46/// /1820 10128 20126 40003 58055 7//// 8//// 22271 0//// 2////
BBXX VAAZ 08064 99510 70498 46/// /0524 10003 20000 40130 56041 7//// 8//// 22231 0//// 2////
BBXX CGTF 08064 99476 70527 46/// /1505 10040 20033 40122 52024 7//// 8//// 22200 0//// 2////
BBXX VRYO3 08064 99456 70735 46/// /0000 11011 20000 40051 56017 7//// 8//// 22200 0//// 2////
BBXX CGSB 08064 99468 70712 46/// /0203 10005 21004 40049 58024 7//// 8//// 22200 0//// 2////
BBXX VCWL 08064 99468 70712 46/// /0000 10001 21011 40049 58008 7//// 8//// 22222 00036 2////
BBXX CGJV 08064 99447 70636 46/// /1810 10113 20112 40017 58042 7//// 8//// 22200 0//// 2////
BBXX CGDX 08064 99468 70712 46/// /0403 10006 21003 40049 58023 7//// 8//// 22200 0//// 2////
BBXX VXKF 08064 99468 70597 46/// /1018 10048 20047 40061 58020 7//// 8//// 22213 0//// 2////
BBXX CGBY 08064 99487 71235 46/// /3402 10026 20008 40325 52008 7//// 8//// 22200 0//// 2////
BBXX CGCC 08064 99468 70712 46/// /0204 10002 21008 40048 58024 7//// 8//// 22200 0//// 2////
BBXX 3FZK3 08064 99411 11398 46/// /3017 11011 21038 40129 56023 7//// 8//// 22213 0//// 2////
BBXX VOKJ 08064 99459 70732 46/// /3310 11017 21027 40053 56009 7//// 8//// 22253 0//// 2////
BBXX 46089 08061 99459 71258 46/// /0308 10086 20041 40306 53003 90550 22200 00099 10804 20503 333// 40803 70022 333 91210 555 11085 22089 30524 40111 60549 031080 024087 017084 018077 019077 014085
BBXX 41046 08061 99238 70683 46/// /1009 10252 20215 40156 58010 90550 22200 00262 10906 20704 300// 40904 70029 333 91212 555 11099 22105 30549 41012 60549 096093 094089 096087 097084 093087 093088 80910 90544
BBXX 44011 08061 99411 70666 46/// /1810 10146 20146 40016 56044 90550 22200 00104 10805 20704 3//// 40803 70023 333 91211 555 11107 22121 30518 43612 60549 179097 177100 176101 176100 175104 175101
AAXX 08064 81401 06/// /0000 10240 20231 30085 40091 60001 333 55/// 60007 7//// 555 60005
AAXX 08064 81408 06/// /0603 10247 20229 30083 40091 60001 333 55/// 60007 58018 7//// 555 60005
AAXX 08061 11812 36/// /2812 10008 21019 39429 42739 52014 333 21001 3////
AAXX 08061 11813 12682 42507 10032 21006 39791 40145 52019 69982 83540 333 20018 31001 70023 81640 83650 91012
AAXX 08061 11816 12780 42914 10051 21011 39972 40137 52012 60012 84540 333 20032 31003 70027 84656 91120
AAXX 08061 11819 16/// /2806 10039 21016 39911 40129 52020 69912 333 20021 3/001
AAXX 08061 11826 12782 62605 10044 21016 39922 40123 52019 60002 84540 333 20021 31101 70027 84650 83360
AAXX 08061 11841 11570 82406 10016 21000 39721 40102 52018 60042 77176 885// 333 20003 31100 70041 85620 88636
AAXX 08061 11855 12782 72608 10040 21006 39967 40135 52018 69922 87540 333 20028 31002 70022 83650 85656
AAXX 08061 11856 16/// /9904 10024 21007 39811 40134 52025 69992 333 20020 3/001
AAXX 08061 11858 12582 12707 10037 21005 39989 40143 52020 69952 81541 333 20037 31002 70019 81630
AAXX 08061 11867 11460 82607 10030 21010 39798 40118 52016 60042 76162 885// 333 20008 31000 70043 85715 88630 91012
AAXX 08061 11880 11562 62506 10034 21001 39956 40130 52021 60012 70266 86500 333 20030 31001 70021 86623
AAXX 08061 11900 16/// /2704 10026 21002 39785 40124 52023 60042 333 20001 3//// 70043
AAXX 08061 11903 11462 82505 10017 20010 39728 40114 52018 60082 76876 885// 333 20001 3/000 43001 70081 85710 88627
AAXX 08061 11916 11/00 93210 11091 21106 37834 48355 53012 60142 77174 333 21095 3//// 48021 70150 89/00 91023 91127 93598 96049
AAXX 08061 11918 11328 82506 11006 21009 39256 42698 52017 60012 77177 887// 333 21007 3/103 47006 70012 88706 91012
AAXX 08061 11927 12665 42503 10035 21016 39842 40106 52019 60032 84541 333 20014 32001 70029 84640 91010
AAXX 08061 11930 11/00 93110 11132 21132 37212 47868 52005 60052 77174 333 21141 3//// 48020 70064 89/00 91025 91125 93505
AAXX 08061 11933 11/03 99902 11046 21047 38546 48367 53017 60182 77374 333 21048 3/105 48034 70180 89/00
AAXX 08061 11934 11305 82612 11009 21014 39245 42691 51014 60042 77373 8672/ 333 21010 3/102 48008 70041 86706 88533 92982
AAXX 08061 11938 11320 82610 11021 21025 39010 42694 52016 60122 77177 887// 333 21027 3/103 44021 70128 88706
AAXX 08061 11952 16/// /2710 11005 21012 39236 42691 52015 69992 333 21016 3/102 70009 91015
AAXX 08061 11958 36/// /3007 11047 21055 38625 48363 52017 333 21056 3////
AAXX 08061 11968 12470 49901 10001 21016 39798 40084 52019 60022 82631 333 21007 35104 70024 82715 83070 93401
AAXX 08061 11976 11658 80000 10004 21000 39809 40077 52013 60022 71062 8257/ 333 20000 31101 70019 82633 88460
AAXX 08061 11978 12672 70801 10000 21006 39948 40081 52017 60032 87500 333 21006 31103 70028 87643
AAXX 08061 11993 11956 79901 10022 20010 39861 40080 52018 60032 72322 87070 333 20002 31102 70032 85459
AAXX 08064 60150 32960 21806 10093 20010 39617 40286 55001 80002 333 20046 30002 82070
AAXX 08064 60155 32958 614// 10084 20079 40268 58002 80002 333 20082 31004 86070
AAXX 08064 60252 32960 30610 10134 20035 40254 55006 80002 333 20083 83070 95800
AAXX 08064 60096 NIL
AAXX 08064 60101 NIL
AAXX 08064 60115 NIL
AAXX 08064 60135 NIL
AAXX 08064 60156 NIL
AAXX 08064 60230 NIL
AAXX 08064 60340 32970 02404 10047 20037 40295 53002 333 20043
AAXX 08064 60285 NIL
AAXX 08061 14648 11560 82001 10080 20071 30057 40178 53009 69942 72162 8372/ 333 20032 32001 55072 70004 83720 88457
AAXX 08061 14652 11000 82317 11022 21022 37881 48445 53022 60062 77174 8802/ 333 21052 3//// 48012 55074 70058 88500
AAXX 08061 14542 NIL
AAXX 08064 60141 32960 01910 10040 21020 39605 40299 55000 333 20032
AAXX 08064 60191 32970 00000 10037 20027 40298 5//// 333 20035 30001
AAXX 08064 60210 32970 23402 10046 20004 39103 48610 58003 80002 333 20040 82070
AAXX 08064 60060 NIL
AAXX 08064 60105 NIL
AAXX 08064 60106 NIL
AAXX 08064 60107 NIL
AAXX 08064 60127 NIL
AAXX 08064 60185 NIL
AAXX 08064 60190 NIL
AAXX 08064 60195 NIL
AAXX 08064 60220 NIL
AAXX 08064 60265 NIL
AAXX 08064 60318 NIL
AAXX 08061 14528 12670 62703 10093 20011 39855 40151 52020 60003 86500 333 10122 20093 30008 55070 70000 86640
AAXX 08061 14537 11560 82903 10078 20066 39986 40174 52031 60043 76362 8802/ 333 10078 20026 32001 55006 70036 88526
AAXX 08061 14544 11665 82501 10062 20049 39496 40164 51002 69923 70262 885// 333 10062 21014 31104 55011 70002 88643
AAXX 08061 14557 11558 81901 10032 20027 39832 40207 52050 60002 7636/ 8772/ 333 10106 21010 32102 55074 70086 87720 88533
AAXX 08061 14640 11560 70000 10057 20053 39314 48472 54000 69923 76066 87300 333 10087 20036 31000 55052 70002 87920
BBXX DBLK 08061 99429 30000 41597 82914 10095 20050 40249 57016 76082 8587/ 22252 04102 20504 321// 40905
BBXX 51000 08061 99235 71541 46/// /0708 10227 40190 53017 90550 22200 00235 11005 20703 301// 41004 70023 333 91210 555 11086 22091 30521 40811 60549 071082 070084 071085 067084 070086 072084
AAXX 08063 91502 01458 70706 10270 20244 40045 53002 60151 78088 879// 333 56399 60137 82815 81916 86630
AAXX 08063 91507 01470 30000 10270 20256 40052 55002 69961 71585 83933 333 56199 69947 83816 81917
AAXX 08063 91520 01470 73203 10295 20243 40052 55001 69901 79196 85973 333 56999 69907 82817 82919 83630 85460
AAXX 08063 91541 01475 80506 10260 20252 40069 52001 60021 78082 889// 333 56299 60027 86818 82920
AAXX 08063 91502 01458 70706 10270 20244 40045 53002 60151 78088 879// 333 56399 60137 82815 81916 86630
AAXX 08063 91507 01470 30000 10270 20256 40052 55002 69961 71585 83933 333 56199 69947 83816 81917
AAXX 08063 91520 01470 73203 10295 20243 40052 55001 69901 79196 85973 333 56999 69907 82817 82919 83630 85460
AAXX 08063 91541 01475 80506 10260 20252 40069 52001 60021 78082 889// 333 56299 60027 86818 82920
BBXX 44008 08061 99405 70692 46/// /1910 10164 20164 49961 58054 90550 22200 00138 10807 20807 70033 333 91213 555 11112 22124 30524 41821 60549 193103 193102 188144 186129 190110 194095
BBXX 44172 08061 99445 70634 46/// ///// 1//// 90601 22200 00082 11003 21003 314// 41101 70013
BBXX 44097 08061 99410 70711 46/// ///// 1//// 90602 22200 00131 10805 20805 318// 41101 70026
BBXX 46247 08061 99378 71228 46/// ///// 1//// 90551 22200 00117 11402 21001 328// 41401 70009
BBXX 46243 08061 99462 71241 46/// ///// 1//// 90559 22200 00082 11103 20802 328// 41102 70014
BBXX 46236 08061 99368 71219 46/// ///// 1//// 90550 22200 00116 10502 20502 328// 41301 70010
BBXX 46229 08061 99438 71246 46/// ///// 1//// 90551 22200 00107 11203 20603 328// 41202 70016
BBXX 46225 08061 99329 71174 46/// ///// 1//// 90544 22200 00149 11401 21001 322// 41401 70004
BBXX 46213 08061 99403 71247 46/// ///// 1//// 90554 22200 00105 10803 20803 331// 41202 70016
BBXX 46215 08061 99352 71209 46/// ///// 1//// 90538 22200 00136 11302 20602 324// 41301 70010
BBXX VOLG 08064 99/// ///// 46/// /3207 10061 20060 40117 55003 7//// 8//// 22200 0//// 2////
BBXX 46218 08061 99345 71208 46/// ///// 1//// 90602 22200 00139 10603 20603 330// 41301 70015
BBXX 46219 08061 99332 71199 46/// ///// 1//// 90558 22200 00137 11402 20502 326// 41401 70012
BBXX 46224 08061 99332 71175 46/// ///// 1//// 90536 22200 00154 11401 20601 320// 41401 70005
BBXX 46214 08061 99379 71235 46/// ///// 1//// 90557 22200 00117 11302 21002 329// 41302 70011
BBXX VOLG 08064 99/// ///// 46/// /3207 10061 20060 40117 55003 7//// 8//// 22200 0//// 2////
AAXX 08064 97180 02459 63503 10292 20250 30044 40062 56029 69941 82272 333 56000 69927 82819 83359
AAXX 08064 85442 12570 52004 10154 20138 40146 54002 60001 85500 333 56400 85620
AAXX 08064 85469 42565 31005 10192 20163 40260 51008 81102 333 56200 81820 83076
AAXX 08064 85488 12460 83005 10153 20132 40150 58007 60001 885// 333 56699 88612
AAXX 08064 85574 12960 01607 10164 20106 39598 40149 56007 60001
AAXX 08064 85577 11958 02403 10163 20112 39549 40155 58006 60001 70500
AAXX 08064 85585 139// 92013 10154 20120 30179 40215 58012 60011
AAXX 08064 85743 12260 89904 10117 20106 40186 58007 60001 886// 333 56000 88406
AAXX 08064 85799 12960 51702 10076 20073 40199 58009 60001 80001 333 56006 85070
BBXX 46238 08061 99334 71195 46/// ///// 1//// 90550 22200 00150 11202 20502 327// 41201 70010
BBXX 46239 08061 99363 71221 46/// ///// 1//// 90551 22200 00130 10503 20503 329// 41101 70015
AAXX 08061 45032 36/// /0205 10221 20095 30159 40176 57002
AAXX 08061 45035 36/// /3507 10214 20131 30133 40175 54000 333 91112
AAXX 08061 45039 36/// /0405 10221 20111 30154 40168 54000
AAXX 08061 45044 36/// /3409 10228 20135 30069 40161 57003
AAXX 08061 45032 36/// /0205 10221 20095 30159 40176 57002
AAXX 08061 45035 36/// /3507 10214 20131 30133 40175 54000 333 91112
AAXX 08061 45039 36/// /0405 10221 20111 30154 40168 54000
AAXX 08061 45044 36/// /3409 10228 20135 30069 40161 57003
AAXX 08061 45007 12565 43508 10218 20121 30166 40175 58027 60001 81531 333 58019 81630 83080
AAXX 08061 45007 12565 43508 10218 20121 30166 40175 58027 60001 81531 333 58019 81630 83080
AAXX 08064 71805 04269 80510 10044 20044 30096 40105 56002 69922 700// 333 10069 20044 31004 55000 69907 70261 90710 91114 555 69905
AAXX 08063 61701 32960 00608 10187 20117 40112 80000 333 20170 50301 55097 58007
AAXX 08063 61705 NIL
AAXX 08063 61707 NIL
AAXX 08063 61711 NIL
AAXX 08063 61712 NIL
AAXX 08063 61717 NIL
AAXX 08063 61720 NIL
AAXX 08063 61721 NIL
AAXX 08063 61722 NIL
AAXX 08063 61731 NIL
AAXX 08063 61733 NIL
AAXX 08064 89642 42682 61223 11027 21107 39659 49711 51003 81532 333 01042 55082 22974 81636 83357 91142
AAXX 08064 78970 11266 70000 10240 20234 30073 40098 6///1 71586 8387/ 333 01299 10292 20235 58015 81805 83638 87458 90935
AAXX 08064 78962 11470 70000 10250 20218 30100 40108 69901 70162 84832 333 02299 10272 20213 58015 81816 83638 87360 90940
AAXX 08061 06407 12670 62103 10019 21002 30194 40200 58004 60002 82532 333 20018 31001 81640 85364 91116 91212
AAXX 08061 06447 NIL
AAXX 08061 06431 NIL
AAXX 08061 06432 32965 11905 10018 20000 30144 40223 53003 80001 333 20012 30101 81075 91108 91206
AAXX 08061 06449 12570 42105 10022 21004 39996 40231 52009 60002 83502 333 20016 30001 83630 91109 91206
AAXX 08061 06450 12970 32204 10036 20007 30190 40207 52007 69942 80001 333 20035 31002 83070 91112 91208
AAXX 08061 06458 32969 02105 10024 20001 30065 40223 51013 333 20024 30100 91109 91206
AAXX 08061 06465 11972 12103 10030 21002 30147 40215 52013 69922 702// 80001 333 20029 30101 81075 91113 91207
AAXX 08061 06478 12570 12206 10025 21003 39999 40225 51014 69902 81500 333 20017 30001 81630 91111 91207
AAXX 08061 06496 12467 72203 10008 21014 39536 40229 52021 69922 875// 333 20008 31100 83612 85623 87627 91114 91207
AAXX 08061 06400 32570 41903 10033 20011 30190 40201 58008 82831 333 20024 31003 81825 83364 91115 91211
AAXX 08061 06428 32965 12104 10027 21001 30160 40210 56002 80001 333 20024 31101 81075 91107 91205
AAXX 08061 06451 12980 42205 10032 20000 30146 40215 53008 60002 80001 333 20031 30003 84072 91110 91207
AAXX 08061 06456 32970 12503 10014 21005 39859 40237 51011 81501 333 20012 30101 81628 91109 91206
AAXX 08061 06476 15964 02202 11016 21027 39561 40249 52014 60002 333 21016 3/102 91112 91206
AAXX 08061 06479 32670 12103 10024 21001 30134 40216 53016 81500 333 20024 30101 81635 91113 91207
AAXX 08061 06490 15571 22504 10012 21013 39647 40233 53013 60002 333 20011 3/001 82/21 91111 91206
AAXX 08061 06590 12970 02202 11002 21010 39784 40253 52021 69952 333 21008 34102 91110 91207
AAXX 08061 11423 01458 82710 11003 21011 39276 42770 53026 69992 777// 885// 333 21008 3/102 48019 69925 70103 88617 91017 91117
AAXX 08064 48300 31562 10000 10260 20198 39809 40120 57031 70140 81100 333 59002
AAXX 08064 48327 32560 73602 10301 20183 39775 40125 57030 85835 333 59014
AAXX 08064 48331 32560 50000 10306 20198 39883 40109 57031 82506 333 59009
AAXX 08064 48353 32665 41804 10310 20196 39824 40107 57027 84200 333 59003
AAXX 08064 48356 32568 50104 10300 20185 39918 40112 57032 82131 333 59007
AAXX 08064 48375 32560 60000 10315 20154 39871 40092 57031 82536 333 59004
AAXX 08064 48378 32560 43307 10330 20213 30053 40105 57028 82105 333 59011
AAXX 08064 48381 32560 40000 10303 20184 39898 40112 57026 82205 333 59007
AAXX 08064 48407 32560 70204 10315 20195 39959 40097 57023 85141 333 59004
AAXX 08064 48431 32562 60907 10302 20204 39898 40108 57028 85131 333 59013 79999
AAXX 08064 48456 NIL
AAXX 08064 48480 11558 70504 10301 20226 30087 40091 57028 69901 70562 84876 333 58000 79999
AAXX 08064 48500 11556 60205 10286 20229 30098 40104 57012 60061 71796 82975 333 58001 70475
AAXX 08064 48551 31558 60304 10307 20247 30084 40092 57017 71021 83206 333 59005
AAXX 08064 48565 32560 40903 10322 20216 30072 40081 57017 81145 333 59006
AAXX 08064 48569 32560 70407 10305 20251 30045 40085 57021 83246 333 59007
AAXX 08064 48583 32562 60405 10306 20245 30081 40086 57018 82236 333 59004
AAXX 08064 48310 31558 62302 10270 20189 39671 40122 57029 70522 84546 333 59006
AAXX 08064 48325 31662 70205 10290 20190 39870 40110 57036 70342 83556 333 58001
AAXX 08064 48329 32560 60000 10288 20194 39781 40115 57025 85505 333 59005
AAXX 08064 48352 NIL
AAXX 08064 48357 32564 31204 10294 20178 39946 40112 57030 81101 333 59007
AAXX 08064 48380 32560 50000 10312 20217 30019 40111 57025 83231 333 59006
AAXX 08064 48383 32562 30720 10296 20177 39952 40110 57027 83501 333 58003
AAXX 08064 48403 32562 60808 10300 20193 39899 40106 57028 82236 333 59010
AAXX 08064 48405 32562 70609 10294 20196 39947 40108 57028 85876 333 59002
AAXX 08064 48420 32560 70610 10303 20220 30096 40100 57019 82256 333 59004 70003
AAXX 08064 48421 31557 60000 10305 20213 39992 40104 57019 70521 83236 333 59005
AAXX 08064 48425 32560 70408 10304 20215 30100 40110 57018 82156 333 59005
AAXX 08064 48426 32562 70506 10319 20202 30088 40101 57023 83546 333 59007
AAXX 08064 48429 32560 60909 10308 20195 30100 40107 57019 82536 333 58001 79999
AAXX 08064 48430 31559 50710 10308 20206 30099 40106 56015 70522 82236 333 59007
AAXX 08064 48450 31557 80508 10295 20201 30075 40108 57017 70522 82576 333 58002
AAXX 08064 48459 32563 60905 10308 20223 30092 40095 57024 82555 333 59003
AAXX 08064 48465 31558 80106 10290 20217 30099 40104 57019 71022 83577 333 59001 70006
AAXX 08064 48550 11558 61107 10295 20251 30082 40089 57018 69901 71062 82246 333 59007 79999
AAXX 08064 48552 32460 60906 10315 20229 30088 40094 57012 83236 333 58000
AAXX 08064 48566 NIL
AAXX 08064 48568 01459 70204 10278 20230 30082 40090 57015 60161 71062 84876 333 59019 60167 70159
AAXX 08064 61980 12560 20104 10281 20211 40112 69904 82200 333 02000 20213 55053 59002 81825 90710 91109 92427 555 60005
AAXX 08064 67005 14/// /3207 10304 20233 40104 60144 700// 333 024// 20254 55076 59004 90710 91112 555 60005
AAXX 08064 48302 32462 21204 10200 20139 38493 40106 57010 81205 333 59010
AAXX 08064 48304 32562 60000 10284 20193 39663 40117 57033 82550 333 59008
AAXX 08064 48334 31558 60000 10275 20190 39758 40116 57027 70522 84556 333 59002
AAXX 08064 48360 NIL
AAXX 08064 48372 31558 50000 10320 20227 30046 40102 57030 70511 83235 333 59018
AAXX 08064 48373 NIL
AAXX 08064 48386 31556 53206 10319 20203 30060 40103 57023 70521 81136 333 59008
AAXX 08064 48387 31558 80502 10240 20193 39164 40112 57022 71022 83557 333 59003
AAXX 08064 48408 32562 60306 10317 20210 39949 40095 57026 83535 333 59005
AAXX 08064 48415 31557 70512 10299 20212 30094 40105 57025 70522 83576 333 59005
AAXX 08064 48433 31559 60404 10310 20215 39941 40104 57028 70522 82236 333 59007
AAXX 08064 48437 32565 50703 10308 20209 39901 40108 57025 84201 333 59009
AAXX 08064 48440 32560 20000 10305 20226 30047 40096 57026 82100 333 59003
AAXX 08064 48451 01558 80404 10283 20219 30100 40111 57017 69901 76022 8352/ 333 59004 69905 79999
AAXX 08064 48454 32560 70103 10308 20204 30095 40101 57020 86846 333 58000 70004
AAXX 08064 48457 31558 60605 10272 20217 30089 40106 57015 71022 82876 333 58000 70034
AAXX 08064 48463 31558 70000 10298 20215 30017 40109 56016 70522 84866 333 58004
AAXX 08064 48464 01558 82903 10280 20244 30082 40095 57018 69901 72162 85776 333 59001 69905 70004
AAXX 08064 48479 31558 60000 10290 20224 30044 40095 57023 71022 83556 333 59006 70027
AAXX 08064 48520 01559 60000 10262 20237 30082 40098 55012 69911 72162 83576 333 59002 69915 70001
AAXX 08064 48554 32462 60506 10305 20250 30084 40088 57015 82336 333 59006
AAXX 08064 48563 32560 40806 10316 20222 30053 40088 57010 82245 333 58004
AAXX 08064 48571 32562 60604 10306 20232 30078 40089 57003 82145 333 58001
BBXX 44099 08061 99369 70757 46/// ///// 1//// 90552 22200 00137 10504 20504 309// 41101 70019
AAXX 08061 01492 16/// /0403 11064 21081 39906 40028 51014 6//// 333 21064 91104
AAXX 08061 01028 11565 72406 11006 21017 39789 49809 53026 69902 70222 875// 333 21041 70015 91107
AAXX 08061 01160 41989 00406 10002 21064 39982 49999 52008 70211 333 20002 91112
AAXX 08061 01359 11989 00401 11101 21137 39099 40046 52008 6//// 70200 333 21108 48017 91106
AAXX 08064 48307 32562 20000 10312 20205 39741 40112 57030 81205 333 59008
AAXX 08064 48324 31556 33310 10298 20187 39907 40123 57022 70511 82805 333 59004
AAXX 08064 48333 32562 20000 10310 20205 39817 40112 57029 81140 333 59010
AAXX 08064 48350 NIL
AAXX 08064 48355 NIL
AAXX 08064 48358 NIL
AAXX 08064 48384 32562 60000 10294 20196 39923 40111 57032 86805 333 59009
AAXX 08064 48401 31558 50602 10310 20241 30008 40114 57021 71011 82145 333 59002
AAXX 08064 48404 32563 70609 10294 20196 39928 40104 58029 86535 333 59005
AAXX 08064 48409 32560 50305 10310 20205 39953 40098 57025 84201 333 59003
AAXX 08064 48419 31558 83203 10300 20224 30098 40106 55017 70522 82545 333 59002
AAXX 08064 48427 NIL
AAXX 08064 48435 32565 61224 10275 20200 39676 40109 57020 84576 333 59006
AAXX 08064 48453 12560 80405 10308 20218 30097 40100 57019 69901 84536 333 58002 79999
AAXX 08064 48458 NIL
AAXX 08064 48474 31558 70000 10287 20219 39980 40102 57019 71022 82876 333 58003
AAXX 08064 48481 11558 71202 10306 20224 30064 40092 57027 69901 71062 83851 333 59002 79999
AAXX 08064 48555 31558 60000 10295 20237 30068 40110 55023 71022 83876 333 59006
AAXX 08064 48556 32560 60803 10320 20230 30072 40088 57016 82106 333 59001
AAXX 08064 48557 32562 40000 10310 20238 30061 40095 57010 82101 333 59006
AAXX 08064 48560 32560 60203 10300 20235 30085 40090 57017 82246 333 59006
AAXX 08064 48574 32562 70000 10319 20247 30052 40081 57024 83146 333 59005
AAXX 08064 48581 32560 81103 10310 20222 30048 40089 57030 84146 333 59003
AAXX 08064 97180 02459 63503 10292 20250 30044 40062 56029 69941 72162 82272 333 56000 69927 82819 83359
AAXX 08064 85874 32982 /2404 10035 20002 39574 40214 57008
AAXX 08064 85934 12580 62916 10083 20045 40138 58004 60001 83130 333 56660 83820 83359
AAXX 08064 89056 11358 82913 10003 21007 49830 52014 60001 71022 886// 333 56699 88709
AAXX 08064 89057 12460 72210 10008 21011 49819 52008 60001 87500 333 56700 87615
AAXX 08064 89058 11558 82717 10002 21005 39808 49829 52010 69901 76060 885//
AAXX 08064 89059 12460 82216 11005 21012 49804 52010 60001 886// 333 75099 88713
AAXX 08061 78458 32466 30000 10224 20207 40143 58005 82200 333 10288 20202 30/// 56300 58008 83818
AAXX 08061 78460 31460 70603 10221 20215 40133 58011 70544 86950 333 10293 20180 30/// 56110 58005 81914 85616
AAXX 08061 78479 32566 20000 10256 20227 40115 57007 82200 333 10292 20205 30/// 56200 58014 82820
AAXX 08061 78485 32466 30203 10209 20196 40131 57011 82260 333 10310 20188 30/// 56100 58011 82816
AAXX 08061 78486 32466 13402 10235 20213 40116 57006 81200 333 10310 20220 30/// 56000 58010 81818
AAXX 08064 48601 11459 72108 10312 20249 30076 40080 60001 70522 82942 333 81917 86078
AAXX 08064 48615 11465 70205 10300 20247 30076 40082 60001 70522 82241 333 82818 87075
AAXX 08064 48620 11465 71906 10311 20249 30076 40085 60001 70522 83942 333 81917 83825 87078
AAXX 08064 48647 11363 81101 10253 20239 30067 40092 60121 71796 83947 333 81708 81917 83364 88276
AAXX 08064 48650 11458 73205 10250 20240 30071 40090 60021 79592 83948 333 81710 81917 83818 86277
AAXX 08064 48657 11464 73102 10304 20244 30066 40083 60001 70522 83232 333 83818 84366 86078
AAXX 08064 48665 11464 73503 10308 20246 30078 40088 6///1 71522 84962 333 81917 83820 86078
AAXX 08064 96413 11560 73003 10317 20229 30042 40068 60001 71522 84131 333 84820 85080
AAXX 08064 96421 11465 72708 10281 20254 30031 40066 60001 71522 85931 333 81915 85818 85365
AAXX 08064 96441 12480 72908 10321 20239 30035 40061 6///1 84941 333 81915 83816 87080
AAXX 08064 96449 12480 72508 10290 20249 30044 40063 60001 83963 333 83814 81915 83365 85080
AAXX 08064 96465 NIL
AAXX 08064 96471 11474 72605 10304 20243 30057 40060 60001 70522 81848 333 81814 83364 87277
AAXX 08064 96481 12462 61908 10305 20246 30031 40050 69921 82841 333 82817 83364 86080
AAXX 08064 96491 11468 70610 10293 20242 30039 40051 69921 70522 83832 333 83815 83364 87079
AAXX 08064 68399 36/// /0000 10231 20191 30026 40135 52012 333 20185 91008 555 10343 91013
AAXX 08064 68383 36/// /0000 10225 20170 39901 48556 52012 333 20196 91000 555 10330 91014
AAXX 08061 06206 47579 22508 10079 20006 30076 40129 58001 70286 8//// 333 20059 81/26 91009 91118 91215
AAXX 08061 06207 47569 72708 10061 20008 30082 40137 51010 78000 8//// 333 20035 81/21 83/29 85/35 91010 91122 91218
AAXX 08061 06239 47580 4//10 10077 20009 3//// 4//// 5//// 70385 8//// 333 20062 83/27 84/31 91012 91117 91213
AAXX 08061 06252 46/// /2609 10071 20029 30099 40145 50007 222// 00097 10706 333 20069 91010 91117 91214
AAXX 08061 06260 17967 12403 10048 20011 30177 40179 51010 69922 70286 8//// 333 20048 3/003 70061 81/76 91005 91109 91205
AAXX 08061 06270 17670 22504 10050 20022 30148 40148 51015 60022 70180 8//// 333 20050 3/004 70073 82/41 91005 91118 91212
AAXX 08061 06290 17965 02204 10040 20016 30134 40175 51026 69932 70185 333 20038 3/003 70076 91006 91117 91210
AAXX 08061 06201 45570 32408 10073 20022 30061 40114 58007 8//// 333 20056 81/22 83/67 91009 91118 91214
AAXX 08061 06203 45572 12708 10081 20018 30113 40164 50000 8//// 333 20073 81/24 91010 91120 91215
AAXX 08061 06204 45473 12610 10075 20029 30095 40146 50004 8//// 333 20075 81/17 91012 91120 91216
AAXX 08061 06205 45574 42410 10073 20013 30026 40085 58007 8//// 333 20058 81/26 84/71 91012 91115 91212
AAXX 08061 06208 47567 52807 10082 20016 30090 40139 51023 72185 8//// 333 20040 83/27 84/35 85/43 91009 91125 91221
AAXX 08061 06211 474// 72410 10076 20027 30071 40127 58003 703// 8//// 333 20074 82/19 83/22 85/37 91012 91118 91215
AAXX 08061 06212 465// 62608 1//// 2//// 30091 40154 50006 8//// 333 2//// 83/22 83/25 86/67 91010 91121 91217
AAXX 08061 06235 17571 82708 10069 20023 30157 40157 50008 69922 70380 8//// 333 20058 3/005 70028 82/30 86/37 88/45 91010 91119 91213
AAXX 08061 06240 15970 02704 10049 20019 30179 40174 51009 60002 333 20047 3/004 70059 91006 91116 91212
AAXX 08061 06251 15668 62706 10061 20024 30143 40144 51014 69992 8//// 333 20056 3/005 70031 81/39 83/45 86/67 91009 91121 91215
AAXX 08061 06258 46/// /2408 333 91009 91116 91214
AAXX 08061 06269 17967 02405 10042 20018 30179 40173 51016 69942 72380 333 20041 3/003 70047 91006 91117 91211
AAXX 08061 06280 17673 42404 10038 20016 30149 40153 51026 60042 70380 8//// 333 20032 3/002 70095 83/37 84/50 91005 91117 91211
AAXX 08061 06310 15968 12107 10051 20026 30182 40192 50000 60002 8//// 333 20051 3/004 70003 81/62 91008 91114 91210
AAXX 08061 06344 15573 82302 10040 20013 30188 40181 51004 60002 8//// 333 20040 3/002 70019 81/30 88/67 91004 91117 91210
AAXX 08061 06370 15572 12105 10034 20008 30175 40201 51017 60002 8//// 333 20032 3/003 70031 81/29 91007 91115 91208
AAXX 08061 06380 15973 02306 10026 21002 30076 40219 51013 60002 333 20024 3/002 70080 91008 91110 91207
AAXX 08064 63980 11483 32713 10285 20238 40099 60284 70181 82930 333 20237 5///0 55053 59004 81914 943// 91121
AAXX 08061 78458 32466 30000 10224 20207 40143 58005 82200 333 10288 20202 30/// 56300 58008 83818
AAXX 08061 78460 31460 70603 10221 20215 40133 58011 70544 86950 333 10293 20180 30/// 56110 58005 81914 85616
AAXX 08061 78479 32566 20000 10256 20227 40115 57007 82200 333 10292 20205 30/// 56200 58014 82820
AAXX 08061 78485 32466 30203 10209 20196 40131 57011 82260 333 10310 20188 30/// 56100 58011 82816
AAXX 08061 78486 32466 13402 10235 20213 40116 57006 81200 333 10310 20220 30/// 56000 58010 81818
AAXX 08064 17600 11559 72511 10171 20118 30115 40124 50003 60032 78098 879// 333 10193 20160 31012 50521 55063 70026 82820 82926 85650 91137 92437
AAXX 08064 17601 11562 82609 10141 20107 30096 40127 53003 60142 78098 889// 90550 333 20133 32009 4//// 70142 81822 82925 87657 90710 91127
AAXX 08064 17607 11570 71801 10126 20111 39926 40118 57/// 60034 7258/ 8698/ 333 20119 70031 82820 81925 85640
AAXX 08064 17609 11560 72713 10158 20112 30116 40120 58012 60272 72598 85983 333 10175 20132 30011 50401 55089 70273 81925 83830 91145
AAXX 08064 91574 46/// ///// 29078 30415 40421 51018
AAXX 08064 91570 NIL
AAXX 08064 91598 NIL
AAXX 08064 91573 06/// /3304 10254 20227 39983 40079 53004 60001 333 58013 60007
AAXX 08064 91582 04970 /2401 10262 20225 30043 40077 53001 60272 700// 333 10266 20232 3/023 55/// 60007 70269 90710 91106 555 60005
AAXX 08064 91583 06/// /3402 10267 20223 30059 40074 55004 60001 333 58008 60007
AAXX 08064 91587 06/// /0908 10249 20230 30033 40077 55002 60051 333 58006 60007
AAXX 08064 91590 04686 82406 10299 20223 30020 40061 55005 69902 700// 333 10324 20224 55049 60007 79999 90710 91117 555 60005
AAXX 08064 91592 06/// /0813 10283 20221 39984 40067 55004 60001 333 59012 60007
AAXX 08064 91596 06/// /0808 10236 20222 39975 40083 55004 69941 333 58000 69947
AAXX 08064 91577 NIL
AAXX 08064 91579 NIL
AAXX 08061 37682 32997 23401 11098 21124 38130 48534 57013 80004 333 21130 7000/
AAXX 08061 37717 32599 41501 11032 21100 38072 48499 57005 82531 333 21054 7000/
AAXX 08061 37788 41995 40000 11066 21094 39238 40294 52003 71000 84001 333 21012
AAXX 08064 16021 12980 03114 11030 21088 37951 48475 52014 60002 333 21030 42001 55/// 2//// 92872
AAXX 08064 16022 12988 03616 11032 21134 37833 48478 52018 60002 333 21032 34/// 55034 2////
AAXX 08064 16033 NIL
AAXX 08064 16040 11906 09901 10000 21003 39263 42789 5//// 60012 741// 333 20000 44997 55/// 2////
AAXX 08064 16052 11962 03430 11088 21110 36612 47045 52001 60012 70174 333 21136 49999 55000 22804
AAXX 08064 16061 12984 03019 10112 21006 39341 42791 52014 60002 333 20098 30/// 55073 2////
AAXX 08064 16098 NIL
AAXX 08064 16138 11960 00000 10010 20000 30156 40167 53024 60002 702// 333 20005 31/// 55/// 2////
AAXX 08064 16148 11956 02504 10003 21013 30162 40174 52028 60002 71000 333 20002 30/// 55070 2//// 55300
AAXX 08064 16168 12972 03404 10106 20043 39442 42801 53005 60002 333 20098 30///
AAXX 08064 16172 12561 30000 10076 20067 39901 40203 51014 60002 83200 333 20074 31/// 55/// 2//// 83829
AAXX 08064 16179 12581 31919 10110 20053 39492 42789 52019 60002 83101 333 20104 30/// 83827
AAXX 08064 16224 12960 00104 10086 20075 39873 40195 52010 60002 333 20080 30/// 55070 2////
AAXX 08064 16232 12998 42402 10122 20009 30108 40161 53014 60002 80001 333 20120 30/// 55077 20706 55300 555 0115/
AAXX 08064 16245 NIL
AAXX 08064 16253 12860 10304 10048 20028 30176 40189 53001 60002 81030 333 20048 30/// 55077 20842 81357
AAXX 08064 16258 12970 03404 10088 21070 39175 42781 53005 60002 333 20056 30/// 55/// 2////
AAXX 08064 16263 12980 02919 10054 20042 38919 48484 53005 60002 333 20040 31/// 55/// 2////
AAXX 08064 16294 NIL
AAXX 08064 16337 12597 62714 10108 20082 39623 40195 54000 60042 86500 333 20104 32/// 55/// 2//// 86620 555 0437/
AAXX 08064 16344 NIL
AAXX 08064 16434 13364 63316 10078 20071 39028 48528 56003 60002 86200 333 20066 30/// 55/// 2//// 86807 95070 95100
AAXX 08064 16450 12364 22909 10090 20090 39118 48579 55002 60002 82200 333 20086 31/// 55/// 2//// 82808
AAXX 08064 16459 12570 42510 10114 20095 30186 40221 53003 60002 82540 333 20102 30/// 55/// 2//// 82630 83359
AAXX 08064 16546 12562 23010 10150 20110 30217 40246 56001 60002 82200 333 20118 30/// 55/// 2//// 82825
AAXX 08064 16564 12498 23018 10158 20104 30090 40231 55001 60002 82100 333 20142 30/// 55/// 2//// 82815 555 0////
AAXX 08061 03951 17456 /2416 10121 20096 30061 40087 57037 69912 7101/ 87/// 333 20086 3/007 87/18 90710 91121
AAXX 08061 03953 11465 82313 10120 20090 30039 40075 56029 60022 70265 886// 333 20086 31006 55020 85717 87628 92457 90710 91121
AAXX 08061 03955 11357 72314 10102 20093 39871 40066 56048 60012 76062 876// 333 20029 31102 55026 87707 87712 90710 91121
AAXX 08061 03956 17457 /2311 10107 20088 39988 40064 57050 60022 71085 87/// 333 20036 3/000 87/10 90710 91120
AAXX 08061 03962 11466 82316 10115 20091 30006 40030 57048 60022 76065 885// 333 20061 3/002 55028 81716 83628 87645 90710 91122
AAXX 08061 03963 16/// /2320 10113 2//// 39945 49973 57053 60032 333 20074 3/006 90710 91127 91220
AAXX 08061 03966 17469 /2411 10110 20082 39925 40016 57054 69972 72285 87/// 333 20027 3/101 81/18 83/34 85/42
AAXX 08061 03967 11462 82114 10094 20084 39893 40006 57067 69952 75865 885// 333 20035 31001 55058 81714 88624 90710 91121
AAXX 08061 03969 11468 72214 10098 20080 39899 40001 56079 69912 75865 875// 333 20035 31002 55065 81712 83718 85626 90710 91121
AAXX 08061 03973 11256 72211 10093 20089 39709 49958 57060 60092 76261 876// 333 20015 32101 55027 87704 87708 90710 91119
AAXX 08061 03976 11340 82219 10112 20108 39908 49920 57064 60052 75865 886// 333 20068 31005 55024 88708 90710 91129 91220
AAXX 08061 03980 17565 /2216 10098 20085 39863 49888 57093 60042 75286 87/// 333 20047 3/004 87/29 90710 91122 91218
AAXX 08064 13600 NIL
AAXX 08064 13610 NIL
AAXX 08064 13611 NIL
AAXX 08064 13619 NIL
AAXX 08064 13622 NIL
AAXX 08064 13624 NIL
AAXX 08064 13625 NIL
AAXX 08064 13629 NIL
AAXX 08064 13601 12665 30000 10070 20041 30065 40167 54001 60002 83800 333 20068 31/// 81840
AAXX 08064 13602 NIL
AAXX 08064 13623 NIL
AAXX 08064 16008 NIL
AAXX 08064 16084 12975 01612 10022 20004 30008 40180 52015 60002 333 20006 30/// 55082 20570
AAXX 08064 16088 11970 01302 10070 20031 30052 40171 52026 60002 70240 333 21002 30/// 55/// 2////
AAXX 08064 16110 12998 00401 10054 20017 30159 40163 52028 60002 333 20052 30/// 55017 20455 555 0100/
AAXX 08064 16134 12984 02925 10012 21103 37832 48511 52021 60002 333 21004 30/// 55083 2//// 95030
AAXX 08064 16153 12999 00112 10104 20088 39903 40168 52011 60002 333 20100 30/// 55084 2//// 555 0////
AAXX 08064 16158 12560 52205 10120 20107 30180 40188 52020 60002 85100 333 20120 30/// 55030 2//// 85830
AAXX 08064 16206 12970 21206 10106 20089 30183 40191 52015 60002 82030 333 20098 31/// 55/// 2//// 82360
AAXX 08064 16219 42465 50428 10010 21014 38130 48516 55/// 6///2 85230 333 21010 32/// 55019 2//// 83610 9500/ 9510/
AAXX 08064 16252 12980 10000 10084 20011 39242 42800 53002 60002 80001 333 20076 30/// 55083 2//// 95000
AAXX 08064 16280 12997 03608 10152 20144 39963 40183 53001 60002 333 20138 30/// 55074 2//// 555 0327/
AAXX 08064 16310 NIL
AAXX 08064 16320 12560 52111 10084 20050 30170 40182 55002 60002 85400 333 20070 32005 55075 20816 55300 85620 555 0100/
AAXX 08064 16325 12997 03109 10050 20027 30152 40167 54000 60002 333 20050 30/// 55/// 2//// 98060 555 0117/
AAXX 08064 16360 12898 21604 10136 20072 30047 40182 56004 60002 82030 333 20110 30/// 55062 2//// 82357 555 0100/
AAXX 08064 16400 12497 53016 10158 20129 39938 40226 55001 60002 84270 333 20154 30/// 55055 2//// 55300 84815 555 0657/
AAXX 08064 16420 11497 53010 10172 20115 30141 40205 55000 60102 70261 83370 333 20138 32/// 55045 2//// 81915 83358 90955 94946 96462 555 0317/
AAXX 08064 16429 12564 52917 10160 20129 30223 40234 57009 60002 85800 333 20158 30/// 55077 2//// 55300 83820
AAXX 08064 16470 12560 63600 10156 20131 30018 40254 54000 60002 86100 333 20144 30000 40997 55073 2//// 55300 86820 95060
AAXX 08064 16480 12998 03008 10128 20083 30150 40212 56005 60002 333 20124 30/// 55086 2//// 55300 555 0316/
AAXX 08064 16522 12597 33220 10158 20131 30001 40244 53009 60002 83200 333 20156 30/// 55076 2//// 55300 83820 555 0////
AAXX 08064 16539 NIL
AAXX 08064 16550 12698 13504 10174 20047 30007 40185 52009 60002 81101 333 20158 30/// 55081 2//// 81840 555 0200/
AAXX 08064 16294 12597 40000 10138 20084 30002 40194 56002 69982 82530 333 20126 32/// 55/// 2//// 82630 83359 555 0216/
BBXX DBBH 08061 99538 10063 41598 32813 10083 20008 40132 52029 70181 82200 22262 04101
AAXX 08064 16045 NIL
AAXX 08064 16090 11907 03102 10004 20001 30083 40168 52024 60002 74440 333 20004 34/// 55062 20595
AAXX 08064 16149 11915 02204 10030 20015 30162 40178 52035 60002 71000 333 20027 30/// 55/// 2////
AAXX 08064 16261 NIL
AAXX 08064 16453 11997 00702 10132 20095 30157 40236 53002 60002 702// 333 20128 30/// 55086 2//// 55300 555 0100/
AAXX 08064 16560 12565 13120 10148 20098 30228 40234 56004 60002 81200 333 20126 30012 55057 20857 81820
AAXX 08064 16008 NIL
AAXX 08064 16084 12975 01612 10022 20004 30008 40180 52015 60002 333 20006 30/// 55082 20570
AAXX 08064 16088 11970 01302 10070 20031 30052 40171 52026 60002 70240 333 21002 30/// 55/// 2////
AAXX 08064 16110 12998 00401 10054 20017 30159 40163 52028 60002 333 20052 30/// 55017 20455 555 0100/
AAXX 08064 16134 12984 02925 10012 21103 37832 48511 52021 60002 333 21004 30/// 55083 2//// 95030
AAXX 08064 16153 12999 00112 10104 20088 39903 40168 52011 60002 333 20100 30/// 55084 2//// 555 0////
AAXX 08064 16158 12560 52205 10120 20107 30180 40188 52020 60002 85100 333 20120 30/// 55030 2//// 85830
AAXX 08064 16206 12970 21206 10106 20089 30183 40191 52015 60002 82030 333 20098 31/// 55/// 2//// 82360
AAXX 08064 16219 42465 50428 10010 21014 38130 48516 55/// 6///2 85230 333 21010 32/// 55019 2//// 83610 9500/ 9510/
AAXX 08064 16252 12980 10000 10084 20011 39242 42800 53002 60002 80001 333 20076 30/// 55083 2//// 95000
AAXX 08064 16280 12997 03608 10152 20144 39963 40183 53001 60002 333 20138 30/// 55074 2//// 555 0327/
AAXX 08064 16310 NIL
AAXX 08064 16320 12560 52111 10084 20050 30170 40182 55002 60002 85400 333 20070 32005 55075 20816 55300 85620 555 0100/
AAXX 08064 16325 12997 03109 10050 20027 30152 40167 54000 60002 333 20050 30/// 55/// 2//// 98060 555 0117/
AAXX 08064 16360 12898 21604 10136 20072 30047 40182 56004 60002 82030 333 20110 30/// 55062 2//// 82357 555 0100/
AAXX 08064 16400 12497 53016 10158 20129 39938 40226 55001 60002 84270 333 20154 30/// 55055 2//// 55300 84815 555 0657/
AAXX 08064 16420 11497 53010 10172 20115 30141 40205 55000 60102 70261 83370 333 20138 32/// 55045 2//// 81915 83358 90955 94946 96462 555 0317/
AAXX 08064 16429 12564 52917 10160 20129 30223 40234 57009 60002 85800 333 20158 30/// 55077 2//// 55300 83820
AAXX 08064 16470 12560 63600 10156 20131 30018 40254 54000 60002 86100 333 20144 30000 40997 55073 2//// 55300 86820 95060
AAXX 08064 16480 12998 03008 10128 20083 30150 40212 56005 60002 333 20124 30/// 55086 2//// 55300 555 0316/
AAXX 08064 16522 12597 33220 10158 20131 30001 40244 53009 60002 83200 333 20156 30/// 55076 2//// 55300 83820 555 0////
AAXX 08064 16539 NIL
AAXX 08064 16550 12698 13504 10174 20047 30007 40185 52009 60002 81101 333 20158 30/// 55081 2//// 81840 555 0200/
BBXX 51204 08061 99213 71581 46/// ///// 1//// 90552 22200 00249 12003 20902 331// 42002 70014
BBXX 51202 08061 99214 71577 46/// ///// 1//// 90539 22200 00242 10904 20904 304// 41102 70022
OOXX AAUNI 08064 99798 50833 56093 07671 46/// /2221 11110 21168 38909 49799 57005 90600
BBXX 44100 08061 99363 70756 46/// ///// 1//// 90552 22200 00146 10904 20903 311// 41101 70018
BBXX 41110 08061 99341 70777 46/// ///// 1//// 90551 22200 00158 10803 20803 312// 41101 70013
BBXX 41113 08061 99284 70805 46/// ///// 1//// 90551 22200 00223 11001 21001 309// 41101 70007
AAXX 08064 89532 41/60 70209 11057 21080 39847 49874 57008 77177 8357/ 333 55138 23240
AAXX 08061 80001 32470 20303 10270 20226 30122 40123 81130 333 5610/ 58003 81818
AAXX 08061 80002 NIL
AAXX 08061 80009 31560 30000 10254 20220 30088 40093 70521 81832 333 56000 81820
AAXX 08061 80022 11462 50000 10262 20239 30102 40104 69941 70552 82131 333 56000 58018 82818 83070
AAXX 08061 80028 31460 30105 10258 20219 30069 40104 70500 83600 333 569// 58007 83715
AAXX 08061 80035 NIL
AAXX 08061 80036 NIL
AAXX 08061 80063 NIL
AAXX 08061 80084 NIL
AAXX 08061 80091 NIL
AAXX 08061 80094 NIL
AAXX 08061 80097 NIL
AAXX 08061 80099 NIL
AAXX 08061 80110 NIL
AAXX 08061 80112 21356 80000 10134 20129 37902 75052 8552/ 333 56009 58010 60037 85608 88458
AAXX 08061 80139 NIL
AAXX 08061 80144 NIL
AAXX 08061 80149 NIL
AAXX 08061 80210 NIL
AAXX 08061 80211 NIL
AAXX 08061 80214 NIL
AAXX 08061 80222 31450 83002 10119 20110 37515 71022 8557/ 333 5669/ 58011 85610
AAXX 08061 80234 NIL
AAXX 08061 80241 NIL
AAXX 08061 80259 41356 80000 10197 20190 39063 71152 8262/ 333 5629/ 58017 82610 88458
AAXX 08061 80315 NIL
AAXX 08061 80342 NIL
AAXX 08061 80370 NIL
AAXX 08061 80398 NIL
AAXX 08061 11010 11883 32711 10044 21038 39810 44075 52022 60072 70281 333 20016 31001 83657 91016 91117 91213
AAXX 08061 11012 12760 52509 10036 21022 39730 40207 52026 60042 8504/ 333 10057 20014 3/000 55300 91121
AAXX 08061 11022 12565 32711 10041 21029 39744 40134 53023 69912 83130 333 10053 20035 3/002 55300 91120
AAXX 08061 11035 11682 12809 10043 20003 39893 40148 52018 60032 70261 81530 333 10071 20040 81640 91120
AAXX 08061 11036 12984 12812 10044 21011 39920 40145 52017 60022 333 20039 31004 81368 91017 91119 91213
AAXX 08061 11101 11560 61501 10037 20000 39748 40288 52023 60052 70262 83530 333 10072 20037 83627
AAXX 08061 11120 11570 79902 10028 21022 39522 40242 52029 60132 70165 333 20008 32000 81620 83656 85658
AAXX 08061 11126 17/// /3215 11097 21098 37733 48515 53028 60072 7214/ 333 11040 21097 55300 91129
AAXX 08061 11130 11440 72301 10018 20011 39647 40250 52031 60212 76162 887// 333 10046 20014 88712 91113 555 10038 6016/
AAXX 08061 11146 11/00 93403 11131 21151 36884 47987 52015 60162 77074 333 11096 21138 49111 55300 89/00 91127 92613 93145
AAXX 08061 11150 11582 62905 10043 21051 39689 40238 52031 60042 70171 333 20017 31001 81826 85650 91114 91209
AAXX 08061 11155 17/// /3213 11065 21078 38345 48477 53022 60102 7804/ 333 11033 21065 3/107 55300 91140
AAXX 08061 11157 11565 82410 10032 21056 39426 40185 52033 60092 78587 875// 333 20002 3/000 43010 81628 84636 87656 91022 91129 91211 93107
AAXX 08061 11172 NIL
AAXX 08061 11190 12965 02708 10061 21038 39921 40156 50020 69952 333 10072 20044 3/001 55300 91121
AAXX 08061 11204 11670 71601 10017 20008 39412 40218 52030 60052 70262 8357/ 333 10020 20007 83640 86360
AAXX 08061 11212 11/02 92708 11072 21081 37799 48482 50020 60012 74984 333 21073 42004 91117 92611 93101
AAXX 08061 11231 11870 79901 11011 21011 39632 40222 52034 69902 70381 333 21026 31104 84657 85359
AAXX 08061 11240 32789 20902 10012 21018 39749 40198 52034 333 21002 34103 81850 91117 91211
AAXX 08061 11244 16/// /3303 10034 21040 39859 40193 53035 60002 333 10042 21005 55300
AAXX 08061 11389 17550 82311 10041 21015 39836 40166 52013 60022 7218/ 885// 333 10056 20024 3/001 55300 91119
AAXX 08064 78958 11468 89902 10260 20241 30094 40104 69901 78022 8682/ 333 10300 20230 58010 84817 86640 87458
AAXX 08061 80001 32470 20303 10270 20226 30122 40123 81130 333 5610/ 58003 81818
AAXX 08061 80002 NIL
AAXX 08061 80009 31560 30000 10254 20220 30088 40093 70521 81832 333 56000 81820
AAXX 08061 80022 11462 50000 10262 20239 30102 40104 69941 70552 82131 333 56000 58018 82818 83070
AAXX 08061 80028 31460 30105 10258 20219 30069 40104 70500 83600 333 569// 58007 83715
AAXX 08061 80035 NIL
AAXX 08061 80036 NIL
AAXX 08061 80063 NIL
AAXX 08061 80084 NIL
AAXX 08061 80091 NIL
AAXX 08061 80094 NIL
AAXX 08061 80097 NIL
AAXX 08061 80099 NIL
AAXX 08061 80110 NIL
AAXX 08061 80112 21356 80000 10134 20129 37902 75052 8552/ 333 56009 58010 60037 85608 88458
AAXX 08061 80139 NIL
AAXX 08061 80144 NIL
AAXX 08061 80149 NIL
AAXX 08061 80210 NIL
AAXX 08061 80211 NIL
AAXX 08061 80214 NIL
AAXX 08061 80222 31450 83002 10119 20110 37515 71022 8557/ 333 5669/ 58011 85610
AAXX 08061 80234 NIL
AAXX 08061 80241 NIL
AAXX 08061 80259 41356 80000 10197 20190 39063 71152 8262/ 333 5629/ 58017 82610 88458
AAXX 08061 80315 NIL
AAXX 08061 80342 NIL
AAXX 08061 80370 NIL
AAXX 08061 80398 NIL
AAXX 08064 78958 11468 89902 10260 20241 30094 40104 69901 78022 8682/ 333 10300 20230 58010 84817 86640 87458
AAXX 08061 78221 NIL
AAXX 08061 78224 31557 20301 10162 20149 30095 40171 58006 70544 82500 333 82625
AAXX 08061 78229 42560 11102 10152 20136 30095 40170 57010 81200 333 81820
AAXX 08061 78239 120// 20204 10237 20212 30150 40153 57010 60004 82800 333 82820
AAXX 08061 78244 NIL
AAXX 08061 78243 41657 13001 10169 20163 30042 40165 57003 74100 81200 333 81840
AAXX 08061 78255 42559 10000 10215 20201 30005 40154 57010 81500 333 81820
AAXX 08061 78264 41960 03403 10221 20198 30058 40133 57010 70000
AAXX 08061 78265 31558 23101 10200 20188 30038 40138 57010 71144 82200 333 82820
AAXX 08061 78256 NIL
AAXX 08061 78259 NIL
AAXX 08061 78268 NIL
AAXX 08064 78397 112570 13004 10253 20212 30108 40124 60001 81800 333 00900 10311 20234 58005 81824
AAXX 08061 01132 16/// /1601 11054 21065 39598 49994 52016 60002 333 21065 4/060 70003 91103
AAXX 08061 01156 16/// /0704 11010 21065 39995 40005 52009 60002 333 21029 70003 91108
AAXX 08061 01273 16/// /1502 11032 21044 39795 49994 52012 60032 333 21054 70068 91104
AAXX 08061 01361 16/// /3001 11268 21294 38979 40115 53003 69922 333 21301 4/087 70002 91104
AAXX 08061 01477 16/// /3201 11118 21130 69932 333 21120 4/013 70004 91102
AAXX 08061 01023 11689 33101 11094 21097 39923 40022 52014 69922 70172 81578 333 21139 47004 70002 91102
AAXX 08061 01135 16/// /1002 11058 21062 39839 49995 53015 60002 333 21064 4/004 91104
AAXX 08061 01150 16/// /0803 11084 21113 60002 333 21084 70000 91108
AAXX 08061 01192 16/// /2101 11051 21079 60002 333 21051 4/005 70000 91103
AAXX 08061 01232 16/// /1804 11082 21122 39939 40022 53003 60002 333 21083 4/029 70005 91110
AAXX 08061 01253 16/// /3201 11058 21072 60002 333 21068 70003 91104
AAXX 08061 01254 16/// /1901 11047 21056 60032 333 21089 4/025 70068 91103
AAXX 08061 01291 16/// /0000 11067 21074 60002 333 21067 4/019 70012 91102
AAXX 08061 01455 16/// /0000 11090 21101 39725 40049 52008 60002 333 21097 70000 91103
AAXX 08061 01481 16/// /0000 11075 21082 39996 40029 51009 60002 333 21079 70000 91102
AAXX 08061 01033 46/// /2908 10011 21094 39969 40000 51018 333 20006 91115
AAXX 08061 01442 11689 83503 11061 21082 39788 40054 52004 60002 70310 885// 333 21064 70004 91106
AAXX 08061 01037 16/// /1402 11085 21099 30009 40015 52019 60002 333 21117 70000 91104
AAXX 08061 01065 11650 80000 11090 21101 39844 40011 52015 60022 78581 888// 333 21104 70029 91103
AAXX 08061 01114 16/// /0801 11030 21056 39972 49983 52006 60002 333 21032 70000 91108
AAXX 08061 01245 11983 00501 11091 21142 39285 40014 50005 60002 70200 333 21110 47018 70002 91105
AAXX 08061 01344 16/// ///// 11076 21090 60002 333 21132 4/040 70001
AAXX 08061 01364 16/// /0101 11226 21248 38894 40111 50009 60002 333 21282 4/029 70000 91102
AAXX 08061 01389 11/02 93401 11155 21168 39718 40049 52014 60002 74942 333 21179 42002 70002 91102
AAXX 08064 78397 112570 13004 10253 20212 30108 40124 60001 81800 333 00900 10311 20234 58005 81824
AAXX 08064 16344 11/00 93008 10040 20040 38324 48507 56010 60012 76064 333 20010 32/// 55000 20797 89/00 95090 95190
AAXX 08061 76040 32902 03501 10055 21025 30187 40201 57002 90545 333 10175 20010 30/// 55090 59084 98602
AAXX 08061 76055 32970 03406 10122 21093 30166 40185 50001 90540 333 10182 20092 30/// 59071
AAXX 08061 76225 32920 70000 10080 21037 38645 40171 50001 87040 90535 333 10138 21061 30/// 55093 56050 59051 87359
AAXX 08061 76323 32910 00101 10034 21087 38282 40206 58001 90545 333 10182 21052 30/// 55083 59045
AAXX 08061 76342 32940 01201 10055 21006 39550 40274 52009 90550 333 10184 20000 30/// 55091 20733 59045
AAXX 08061 76373 32906 20000 10009 21103 38222 40172 52003 80004 90550 333 10210 21052 30/// 55097 21949 56009 59019 82067
AAXX 08061 76382 32960 00000 10084 20054 38930 40187 54000 90558 333 10179 20031 30/// 55078 2//// 59040
AAXX 08061 76390 31950 12001 10022 21052 38247 40199 57009 70544 80005 90530 333 10162 21025 30/// 55093 21509 56008 59024 81070
AAXX 08061 76393 32920 00601 10088 21006 39661 40251 57003 90550 333 10171 20036 30/// 55078 59028
AAXX 08061 76402 32950 10000 10120 20080 30110 40167 52011 80005 90545 333 10266 20056 30/// 55094 2//// 56005 59025
AAXX 08061 76423 32960 00000 10080 21104 38167 40146 50005 90558 333 10208 21012 30/// 55083 21369 59020
AAXX 08061 76458 32960 03602 10176 20147 30140 40145 52004 90540 333 10259 20114 30/// 55082 59019
AAXX 08061 76525 32960 01403 10113 20025 37481 40138 57000 90540 333 10148 20053 30/// 55080 22472 59009
AAXX 08061 76539 32958 03601 10067 20057 38191 40233 52002 90550 333 10140 20080 30/// 55002 58013
AAXX 08061 76548 32860 73402 10144 20060 30264 40274 57012 8703/ 90545 333 10185 20120 30/// 55009 5603/ 59006 87357
AAXX 08061 76556 32960 01001 10160 20128 39125 40127 52007 90534 333 10292 20105 30/// 55097 59001
AAXX 08061 76571 32910 00000 10116 20062 38182 40146 54007 90540 333 10228 20074 30/// 55083 58001
AAXX 08061 76612 32958 02101 10130 20068 38481 40124 51006 90550 333 10266 20065 30/// 55089 21163 59004
AAXX 08061 76625 32960 00903 10078 20043 38166 40150 52001 90540 333 10223 20097 30/// 55060 58013
AAXX 08061 76632 31850 30405 10094 20056 37644 40125 52004 70511 83020 90540 333 10190 20084 30/// 55085 56050 59002 83458
AAXX 08061 76634 31150 33201 10058 20054 37872 40208 57002 71042 83600 90550 333 10160 20048 30/// 55068 21644 563// 59006 83791
AAXX 08061 76654 31956 00301 10231 20211 30154 40158 52010 70544 90550 333 10298 20216 30/// 55069 20917 58007
AAXX 08061 76658 31956 20502 10198 20162 39647 40146 52012 70540 80002 90540 333 10310 20172 30/// 55083 56001 58002 82070 98914
AAXX 08061 76662 32960 00801 10134 20107 38468 40112 52009 90845 333 10300 20060 30/// 55094 21605 59008
AAXX 08061 76665 32958 01802 10142 20108 38128 40111 52003 90555 333 10272 20077 30/// 55080 21135 59003
AAXX 08061 76675 32960 01601 10065 20047 37390 40112 5//// 90545 333 10225 20007 30/// 55092 2//// 59008
AAXX 08061 76680 31956 03202 10126 20073 37767 40111 52009 70500 90550 333 10236 20090 30/// 55087 21405 58000
AAXX 08061 76683 32962 00000 10078 20059 37853 40177 51010 90540 333 10223 20064 30/// 50261 55092 21834 58002
AAXX 08061 76685 32950 00601 10090 20078 37891 40150 52001 90545 333 10208 20050 30/// 55101 58004
AAXX 08061 76695 32656 73503 10216 20180 30188 40193 50003 85530 90547 333 10276 20190 30/// 55080 5610/ 58028 85615 91006 91535
AAXX 08061 76726 32968 03601 10136 20071 38422 40128 52017 90535 333 10266 20126 30/// 55093 58003
AAXX 08061 76743 31440 83601 10220 20183 30183 40191 58003 70222 885// 90545 333 10260 20220 30/// 55008 58010 88615
AAXX 08061 76750 01558 83602 10216 20204 30171 40181 57001 60011 72052 88700 90550 333 10310 20208 32/// 55051 56800 58016 69947 88720
AAXX 08061 76762 32902 00000 10162 20141 38772 40119 53013 90540 333 10305 20128 30/// 55096 20995 58005 91202
AAXX 08061 76775 32960 00501 10121 20070 38559 40187 52009 90545 333 10268 20074 30/// 55083 58009
AAXX 08061 76805 32760 40301 10228 20210 30130 40134 52016 84040 90545 333 10338 20200 30/// 55097 21094 56/6/ 59002 84356
AAXX 08061 76840 32501 13602 10238 20168 30090 40146 52005 81100 90540 333 10355 20167 30/// 55097 2//// 568// 58011 81827
AAXX 08061 76843 32565 30202 10184 20159 39522 40166 57007 83700 90535 333 10259 20182 30/// 55020 567// 58000 83720
AAXX 08061 76845 21120 80601 10122 20119 37969 40191 56006 75052 88700 90545 333 10164 20090 31/// 55019 56100 59001 69947 88702
AAXX 08061 76848 32450 70501 10145 20118 38399 40107 58005 87500 90550 333 10217 20103 30/// 55085 56100 59002 87611
AAXX 08061 76903 31970 00504 10235 20201 39994 40128 52006 70000 90540 333 10348 20223 30/// 55081 58///
AAXX 08061 76243 32470 61403 10066 21012 39962 40263 54000 86050 90535 333 10166 21035 30/// 55085 56050 59048 86350
AAXX 08061 76253 32605 12303 10132 20086 30101 40191 53003 81020 90556 333 10185 20120 30/// 55075 59043 81450 92002
AAXX 08061 76311 32560 10000 10117 20082 39871 40145 52007 81100 90556 333 10306 20052 30/// 55080 59022 81820
AAXX 08061 76412 32960 00000 10136 20108 30126 40172 52005 90540 333 10290 20070 30/// 55095 59017
AAXX 08061 76647 02365 83602 10211 20199 30173 40204 52005 69901 887// 90550 333 10318 20200 30/// 55081 568// 58025 69907 88808
AAXX 08064 48352 32570 50906 10322 20185 39910 40106 57033 85100 333 59014
AAXX 08061 06414 36/// /2103 10016 21011 30171 40205 58003 60002 333 20016 91107 91205
AAXX 08061 06459 36/// /2004 10022 20011 30031 40229 50010 60002 333 20017 3/101 91112 91208
AAXX 08061 06494 36/// /2604 11001 21012 39409 40230 52017 60002 333 21002 91113 91207
AAXX 08061 76040 32902 03501 10055 21025 30187 40201 57002 90545 33310175 20010 30/// 55090 59084 98602
AAXX 08061 76055 32970 03406 10122 21093 30166 40185 50001 90540 33310182 20092 30/// 59071
AAXX 08061 76225 32920 70000 10080 21037 38645 40171 50001 87040 90535333 10138 21061 30/// 55093 56050 59051 87359
AAXX 08061 76323 32910 00101 10034 21087 38282 40206 58001 90545 33310182 21052 30/// 55083 59045
AAXX 08061 76342 32940 01201 10055 21006 39550 40274 52009 90550 33310184 20000 30/// 55091 20733 59045
AAXX 08061 76373 32906 20000 10009 21103 38222 40172 52003 80004 90550333 10210 21052 30/// 55097 21949 56009 59019 82067
AAXX 08061 76382 32960 00000 10084 20054 38930 40187 54000 90558 33310179 20031 30/// 55078 2//// 59040
AAXX 08061 76390 31950 12001 10022 21052 38247 40199 57009 70544 8000590530 333 10162 21025 30/// 55093 21509 56008 59024 81070
AAXX 08061 76393 32920 00601 10088 21006 39661 40251 57003 90550 33310171 20036 30/// 55078 59028
AAXX 08061 76402 32950 10000 10120 20080 30110 40167 52011 80005 90545333 10266 20056 30/// 55094 2//// 56005 59025
AAXX 08061 76423 32960 00000 10080 21104 38167 40146 50005 90558 33310208 21012 30/// 55083 21369 59020
AAXX 08061 76458 32960 03602 10176 20147 30140 40145 52004 90540 33310259 20114 30/// 55082 59019
AAXX 08061 76525 32960 01403 10113 20025 37481 40138 57000 90540 33310148 20053 30/// 55080 22472 59009
AAXX 08061 76539 32958 03601 10067 20057 38191 40233 52002 90550 33310140 20080 30/// 55002 58013
AAXX 08061 76548 32860 73402 10144 20060 30264 40274 57012 8703/ 90545333 10185 20120 30/// 55009 5603/ 59006 87357
AAXX 08061 76556 32960 01001 10160 20128 39125 40127 52007 90534 33310292 20105 30/// 55097 59001
AAXX 08061 76571 32910 00000 10116 20062 38182 40146 54007 90540 33310228 20074 30/// 55083 58001
AAXX 08061 76612 32958 02101 10130 20068 38481 40124 51006 90550 33310266 20065 30/// 55089 21163 59004
AAXX 08061 76625 32960 00903 10078 20043 38166 40150 52001 90540 33310223 20097 30/// 55060 58013
AAXX 08061 76632 31850 30405 10094 20056 37644 40125 52004 70511 8302090540 333 10190 20084 30/// 55085 56050 59002 83458
AAXX 08061 76634 31150 33201 10058 20054 37872 40208 57002 71042 8360090550 333 10160 20048 30/// 55068 21644 563// 59006 83791
AAXX 08061 76654 31956 00301 10231 20211 30154 40158 52010 70544 90550333 10298 20216 30/// 55069 20917 58007
AAXX 08061 76658 31956 20502 10198 20162 39647 40146 52012 70540 8000290540 333 10310 20172 30/// 55083 56001 58002 82070 98914
AAXX 08061 76662 32960 00801 10134 20107 38468 40112 52009 90845 33310300 20060 30/// 55094 21605 59008
AAXX 08061 76665 32958 01802 10142 20108 38128 40111 52003 90555 33310272 20077 30/// 55080 21135 59003
AAXX 08061 76675 32960 01601 10065 20047 37390 40112 5//// 90545 33310225 20007 30/// 55092 2//// 59008
AAXX 08061 76680 31956 03202 10126 20073 37767 40111 52009 70500 90550333 10236 20090 30/// 55087 21405 58000
AAXX 08061 76683 32962 00000 10078 20059 37853 40177 51010 90540 33310223 20064 30/// 50261 55092 21834 58002
AAXX 08061 76685 32950 00601 10090 20078 37891 40150 52001 90545 33310208 20050 30/// 55101 58004
AAXX 08061 76695 32656 73503 10216 20180 30188 40193 50003 85530 90547333 10276 20190 30/// 55080 5610/ 58028 85615 91006 91535
AAXX 08061 76726 32968 03601 10136 20071 38422 40128 52017 90535 33310266 20126 30/// 55093 58003
AAXX 08061 76743 31440 83601 10220 20183 30183 40191 58003 70222 885//90545 333 10260 20220 30/// 55008 58010 88615
AAXX 08061 76750 01558 83602 10216 20204 30171 40181 57001 60011 7205288700 90550 333 10310 20208 32/// 55051 56800 58016 6994788720
AAXX 08061 76762 32902 00000 10162 20141 38772 40119 53013 90540 33310305 20128 30/// 55096 20995 58005 91202
AAXX 08061 76775 32960 00501 10121 20070 38559 40187 52009 90545 33310268 20074 30/// 55083 58009
AAXX 08061 76805 32760 40301 10228 20210 30130 40134 52016 84040 90545333 10338 20200 30/// 55097 21094 56/6/ 59002 84356
AAXX 08061 76840 32501 13602 10238 20168 30090 40146 52005 81100 90540333 10355 20167 30/// 55097 2//// 568// 58011 81827
AAXX 08061 76843 32565 30202 10184 20159 39522 40166 57007 83700 90535333 10259 20182 30/// 55020 567// 58000 83720
AAXX 08061 76845 21120 80601 10122 20119 37969 40191 56006 75052 8870090545 333 10164 20090 31/// 55019 56100 59001 69947 88702
AAXX 08061 76848 32450 70501 10145 20118 38399 40107 58005 87500 90550333 10217 20103 30/// 55085 56100 59002 87611
AAXX 08061 76903 31970 00504 10235 20201 39994 40128 52006 70000 90540333 10348 20223 30/// 55081 58///
AAXX 08061 76243 32470 61403 10066 21012 39962 40263 54000 86050 90535333 10166 21035 30/// 55085 56050 59048 86350
AAXX 08061 76253 32605 12303 10132 20086 30101 40191 53003 81020 90556333 10185 20120 30/// 55075 59043 81450 92002
AAXX 08061 76311 32560 10000 10117 20082 39871 40145 52007 81100 90556333 10306 20052 30/// 55080 59022 81820
AAXX 08061 76412 32960 00000 10136 20108 30126 40172 52005 90540 33310290 20070 30/// 55095 59017
AAXX 08061 76647 02365 83602 10211 20199 30173 40204 52005 69901 887//90550 333 10318 20200 30/// 55081 568// 58025 69907 88808
AAXX 08064 48373 31558 60000 10315 20214 30040 40101 57032 70522 83835 333 59015
AAXX 08061 76040 32902 03501 10055 21025 30187 40201 57002 90545 333 10175 20010 30/// 55090 59084 98602
AAXX 08061 76055 32970 03406 10122 21093 30166 40185 50001 90540 333 10182 20092 30/// 59071
AAXX 08061 76225 32920 70000 10080 21037 38645 40171 50001 87040 90535 333 10138 21061 30/// 55093 56050 59051 87359
AAXX 08061 76323 32910 00101 10034 21087 38282 40206 58001 90545 333 10182 21052 30/// 55083 59045
AAXX 08061 76342 32940 01201 10055 21006 39550 40274 52009 90550 333 10184 20000 30/// 55091 20733 59045
AAXX 08061 76373 32906 20000 10009 21103 38222 40172 52003 80004 90550 333 10210 21052 30/// 55097 21949 56009 59019 82067
AAXX 08061 76382 32960 00000 10084 20054 38930 40187 54000 90558 333 10179 20031 30/// 55078 2//// 59040
AAXX 08061 76390 31950 12001 10022 21052 38247 40199 57009 70544 80005 90530 333 10162 21025 30/// 55093 21509 56008 59024 81070
AAXX 08061 76393 32920 00601 10088 21006 39661 40251 57003 90550 333 10171 20036 30/// 55078 59028
AAXX 08061 76402 32950 10000 10120 20080 30110 40167 52011 80005 90545 333 10266 20056 30/// 55094 2//// 56005 59025
AAXX 08061 76423 32960 00000 10080 21104 38167 40146 50005 90558 333 10208 21012 30/// 55083 21369 59020
AAXX 08061 76458 32960 03602 10176 20147 30140 40145 52004 90540 333 10259 20114 30/// 55082 59019
AAXX 08061 76525 32960 01403 10113 20025 37481 40138 57000 90540 333 10148 20053 30/// 55080 22472 59009
AAXX 08061 76539 32958 03601 10067 20057 38191 40233 52002 90550 333 10140 20080 30/// 55002 58013
AAXX 08061 76548 32860 73402 10144 20060 30264 40274 57012 8703/ 90545 333 10185 20120 30/// 55009 5603/ 59006 87357
AAXX 08061 76556 32960 01001 10160 20128 39125 40127 52007 90534 333 10292 20105 30/// 55097 59001
AAXX 08061 76571 32910 00000 10116 20062 38182 40146 54007 90540 333 10228 20074 30/// 55083 58001
AAXX 08061 76612 32958 02101 10130 20068 38481 40124 51006 90550 333 10266 20065 30/// 55089 21163 59004
AAXX 08061 76625 32960 00903 10078 20043 38166 40150 52001 90540 333 10223 20097 30/// 55060 58013
AAXX 08061 76632 31850 30405 10094 20056 37644 40125 52004 70511 83020 90540 333 10190 20084 30/// 55085 56050 59002 83458
AAXX 08061 76634 31150 33201 10058 20054 37872 40208 57002 71042 83600 90550 333 10160 20048 30/// 55068 21644 563// 59006 83791
AAXX 08061 76654 31956 00301 10231 20211 30154 40158 52010 70544 90550 333 10298 20216 30/// 55069 20917 58007
AAXX 08061 76658 31956 20502 10198 20162 39647 40146 52012 70540 80002 90540 333 10310 20172 30/// 55083 56001 58002 82070 98914
AAXX 08061 76662 32960 00801 10134 20107 38468 40112 52009 90845 333 10300 20060 30/// 55094 21605 59008
AAXX 08061 76665 32958 01802 10142 20108 38128 40111 52003 90555 333 10272 20077 30/// 55080 21135 59003
AAXX 08061 76675 32960 01601 10065 20047 37390 40112 5//// 90545 333 10225 20007 30/// 55092 2//// 59008
AAXX 08061 76680 31956 03202 10126 20073 37767 40111 52009 70500 90550 333 10236 20090 30/// 55087 21405 58000
AAXX 08061 76683 32962 00000 10078 20059 37853 40177 51010 90540 333 10223 20064 30/// 50261 55092 21834 58002
AAXX 08061 76685 32950 00601 10090 20078 37891 40150 52001 90545 333 10208 20050 30/// 55101 58004
AAXX 08061 76695 32656 73503 10216 20180 30188 40193 50003 85530 90547 333 10276 20190 30/// 55080 5610/ 58028 85615 91006 91535
AAXX 08061 76726 32968 03601 10136 20071 38422 40128 52017 90535 333 10266 20126 30/// 55093 58003
AAXX 08061 76743 31440 83601 10220 20183 30183 40191 58003 70222 885// 90545 333 10260 20220 30/// 55008 58010 88615
AAXX 08061 76750 01558 83602 10216 20204 30171 40181 57001 60011 72052 88700 90550 333 10310 20208 32/// 55051 56800 58016 69947 88720
AAXX 08061 76762 32902 00000 10162 20141 38772 40119 53013 90540 333 10305 20128 30/// 55096 20995 58005 91202
AAXX 08061 76775 32960 00501 10121 20070 38559 40187 52009 90545 333 10268 20074 30/// 55083 58009
AAXX 08061 76805 32760 40301 10228 20210 30130 40134 52016 84040 90545 333 10338 20200 30/// 55097 21094 56/6/ 59002 84356
AAXX 08061 76840 32501 13602 10238 20168 30090 40146 52005 81100 90540 333 10355 20167 30/// 55097 2//// 568// 58011 81827
AAXX 08061 76843 32565 30202 10184 20159 39522 40166 57007 83700 90535 333 10259 20182 30/// 55020 567// 58000 83720
AAXX 08061 76845 21120 80601 10122 20119 37969 40191 56006 75052 88700 90545 333 10164 20090 31/// 55019 56100 59001 69947 88702
AAXX 08061 76848 32450 70501 10145 20118 38399 40107 58005 87500 90550 333 10217 20103 30/// 55085 56100 59002 87611
AAXX 08061 76903 31970 00504 10235 20201 39994 40128 52006 70000 90540 333 10348 20223 30/// 55081 58///
AAXX 08061 76243 32470 61403 10066 21012 39962 40263 54000 86050 90535 333 10166 21035 30/// 55085 56050 59048 86350
AAXX 08061 76253 32605 12303 10132 20086 30101 40191 53003 81020 90556 333 10185 20120 30/// 55075 59043 81450 92002
AAXX 08061 76311 32560 10000 10117 20082 39871 40145 52007 81100 90556 333 10306 20052 30/// 55080 59022 81820
AAXX 08061 76412 32960 00000 10136 20108 30126 40172 52005 90540 333 10290 20070 30/// 55095 59017
AAXX 08061 76647 02365 83602 10211 20199 30173 40204 52005 69901 887// 90550 333 10318 20200 30/// 55081 568// 58025 69907 88808
AAXX 08064 48355 32565 20703 10304 20192 39892 40105 57031 81180 333 59006
AAXX 08061 26038 01261 71704 10001 21007 39985 40026 51020 60002 70222 87600 333 10016 21002 43002 60007 87706 91109 555 1/101 21002 3/102 50008 52101
AAXX 08061 26135 01358 31503 11009 21016 39969 40044 53017 60002 70310 83600 333 10013 21013 43001 60007 83710 555 1/102 21013 3/102 50003 52102
AAXX 08061 26141 01359 21705 11010 21022 39897 40047 53017 60002 71011 82530 333 10006 21015 43002 60007 82609 91108 555 1/102 21015 3/103 51001 52103
AAXX 08061 26231 01662 81604 10011 21005 30021 40036 53016 60022 70222 875// 333 10028 20003 60007 87640 91108 555 12000 20003 32101 50016
AAXX 08061 26242 01760 21402 11012 21029 39968 40056 52019 60002 70210 82030 333 10014 21012 60007 82/56 555 14102 21012 34102 50005 52103
AAXX 08061 26045 NIL
AAXX 08061 26058 NIL
AAXX 08061 26115 NIL
AAXX 08061 26247 NIL
BBXX UFTA 08061 99850 71232 11696 81404 11204 21228 49990 52009 69942 77172 885// 555 48045
AAXX 08064 89061 179// 03405 10001 21002 39789 49795 52007 60021 77177 333 91007 91108
AAXX 08064 91930 36/// ///// 10259 20213 555 69964
AAXX 08064 91943 16/// /0907 10264 20203 30123 40125 52021 60014 333 20264 59006
AAXX 08064 87692 32960 10706 10158 20146 30129 40154 58008 81050 333 56060 81360 555 10153
AAXX 08064 03301 16467 /2131 10103 20102 39985 40057 56063 60032 90550 333 20060 70028 86/17 90710 91142 91042
AAXX 08064 03305 17320 /2238 10082 20068 39803 40063 58062 60102 762// 90550 333 20052 3/004 70098 85/07 86/15 90710 91153 91053
AAXX 08064 03313 16559 /2116 10087 20071 39963 40056 58074 69942 90550 333 20052 3/002 70022 84/23 84/50 90710 91133 91030
AAXX 08064 03316 17580 /1618 10061 20038 30052 40063 58063 69902 723// 90550 333 20060 3/005 70002 87/22 84/50 90710 91125
AAXX 08064 03318 16/// /1618 10060 20040 69982 90550 333 20057 70008 90710 91125
AAXX 08064 03321 16471 /1518 10060 20047 30061 40074 58064 60002 90550 333 20020 3/101 55/// 553// 20000 70008 82/11 87/23 90710 91125
AAXX 08064 03330 15566 /2014 10040 20031 39740 40104 58044 69942 90550 333 20013 3/101 4/000 70026 87/20
AAXX 08064 03344 17760 /1915 10040 20019 39752 40072 58057 60012 761// 90550 333 20019 3/001 4/000 70040 87/50 87/60 90710 91127
AAXX 08064 03346 16/// /1815 10034 20020 60002 90550 333 20026 3/001 70000
AAXX 08064 03348 15673 /1917 10057 20030 39977 40085 58055 69902 90550 333 20019 3/101 4/000 55010 55300 20000 70002 81/30 87/45
AAXX 08064 03355 15678 /1813 10045 20017 30080 40091 58044 69902 90550 333 20029 3/101 4/000 55029 55300 20000 70028 88/49
AAXX 08064 03373 16766 /2013 10050 20016 30046 40117 58034 60002 90550 333 20021 3/001 4/000 70002 87/50 87/59
AAXX 08064 03379 16778 /2017 10054 20017 30050 40128 58030 60002 90550 333 20026 3/001 4/000 70004 88/56 90710 91125
AAXX 08064 03382 15778 /1709 10042 20020 30093 40101 58035 60002 90550 333 20027 3/000 4/000 55030 55300 20000 70004 87/56 85/59
AAXX 08064 03385 46773 /2015 10044 20019 30108 40118 57031 90550 333 20030 88/56
AAXX 08064 03391 12780 82111 10048 20014 30121 40128 57031 60002 8557/ 90550 333 20027 31000 4//// 79999 85656 88359
AAXX 08064 03392 16770 /2016 10043 20023 30127 40131 58029 60002 90550 333 20019 3/001 70002 88/56
AAXX 08064 03405 16314 /2344 10100 20096 39959 40073 56060 60022 90550 333 20066 3/006 55/// 553// 20000 70020 81/07 87/09 90710 91154 91054
AAXX 08064 03409 16/// /2323 10087 20070 69942 90550 333 20049 3/003 55001 55300 2//// 70006 90710 91133 91033
AAXX 08064 03410 16241 /2226 10068 20068 39645 40078 58062 60022 90550 333 20034 3/001 55/// 553// 20000 70020 87/04 87/12 90710 91139 91039
AAXX 08064 03469 15778 /2012 10036 20018 30135 40139 57028 60002 90550 333 20021 3/000 55/// 553// 20000 70006 88/56
AAXX 08064 03488 15980 /2115 10042 20013 30114 40140 58020 60002 90550 333 20028 70004 88/59
AAXX 08064 03503 17457 /1910 10094 20082 30029 40106 58050 69982 723// 90550 333 20050 3/003 70018 84/14 86/22 91020
AAXX 08064 03507 17242 /2121 10074 20074 39748 40119 58042 60012 752// 90550 333 20016 3/101 4/000 70020 87/04 83/11 90710 91133 91031
AAXX 08064 03520 16471 /2207 10068 20054 39995 40116 58052 69922 90550 333 20033 3/100 55/// 553// 20000 70006 87/17 83/27
AAXX 08064 03522 17563 /1905 10074 20074 30031 40124 58050 69902 781// 90550 333 20041 3/101 4/000 70008 87/24
AAXX 08064 03529 15666 /2114 10071 20046 30094 40137 57042 60002 90550 333 20034 3/000 79999 81/36 87/42
AAXX 08064 03544 17566 /1908 10053 20034 30000 40132 57042 69902 723// 90550 333 20023 3/000 55/// 553// 20000 79999 81/26 87/35
AAXX 08064 03560 17667 /2013 10051 20031 30042 40147 58034 69902 781// 90550 333 20020 3/102 55/// 553// 20000 79999 88/44
AAXX 08064 03604 16468 /2418 10110 20088 30063 40117 56043 60012 90550 333 20064 3/005 70014 82/19 83/24 86/32 90710 91137 91037
AAXX 08064 03605 16460 /2331 10107 20092 30116 40125 58042 69922 90550 333 20028 70008 81/12 87/23 90710 91144
AAXX 08064 03609 16/// /2235 10109 20091 30081 40133 56043 60002 90550 333 20069 3/004 70026 90710 91145 91045
AAXX 08064 03628 15674 /2215 10089 20055 30071 40143 58041 69902 90550 333 20034 3/102 4//// 55057 55300 20000 79999 84/49 83/66 90710 91128 91025
AAXX 08064 03647 16564 /2112 10049 20040 39886 40144 57036 60002 90550 333 20007 3/103 55/// 553// 20000 70002 83/25 85/45
AAXX 08064 03658 12670 81812 10062 20036 30088 40158 56039 60002 8753/ 90550 333 20022 3/101 4/000 70000 81630 87645 87358
AAXX 08064 03660 17665 /1906 10040 20029 39911 40163 58033 69922 723// 90550 333 20031 3/102 4/000 70002 86/40 84/46
AAXX 08064 03672 11775 82008 10059 20029 30127 40168 57032 69902 72162 885// 90550 333 20030 31100 4//// 79999 88650
AAXX 08064 03684 15774 /2209 10043 20021 30057 40165 56025 60002 90550 333 20006 3/101 4/000 70000 88/56
AAXX 08064 03693 16976 /2107 10057 20035 30173 40175 57022 60002 90550 333 20046 3/003 70000 87/58
AAXX 08064 03707 15581 /2215 10099 20084 30144 40151 58035 69902 90550 333 20077 3/006 70006 81/22 86/32
AAXX 08064 03710 16159 /2318 10069 20069 39732 40154 58034 69942 90550 333 20026 3/000 55/// 553// 20000 70042 87/02 90710 91127
AAXX 08064 03743 16675 /2208 10074 20049 30002 40164 57034 60002 90550 333 20030 3/000 4/000 70002 81/41 87/50
AAXX 08064 03749 13680 72007 10066 20043 30058 40169 56033 60002 8757/ 90550 333 20018 31102 4//// 79999 82640 87650
AAXX 08064 03761 12675 82013 10077 20044 30023 40168 58035 60002 8457/ 90550 333 20026 31000 4//// 55052 55300 20000 70000 84643 87361
AAXX 08064 03768 16676 /1806 10062 20036 30088 40168 58035 60002 90550 333 20032 3/100 70000 81/47 83/61
AAXX 08064 03769 17677 /2104 10063 20043 30095 40178 57028 69922 723// 90550 333 20027 3/102 4/000 55042 55300 20000 70004 82/30 85/41 85/58
AAXX 08064 03770 16/// ///// 10069 20044 60002 90550 333 20041 3/001 70022
AAXX 08064 03781 17676 /1909 10052 20034 39969 40179 57025 69902 723// 90550 333 20030 3/000 55/// 553// 20000 79999 84/37 87/45 85/57
AAXX 08064 03784 46/// /2207 10066 20028 30168 40172 56024 90550 333 20049
AAXX 08064 03797 15969 /2107 10041 20016 30125 40186 56017 60002 90550 333 20030 3/001 4//// 55053 55300 20000 70000 87/58 87/64
AAXX 08064 03839 16/// ///// 10095 20081 60002 90550 333 20032 55/// 553// 20000 70010
AAXX 08064 03857 17462 /2625 10112 20092 30113 40176 57030 69902 723// 90550 333 20089 3/008 79999 81/15 86/27 90710 91135
AAXX 08064 03862 17569 /2407 10096 20075 30163 40175 56030 69902 723// 90550 333 20031 3/100 4/000 55035 55300 20000 70016 81/24 87/35
AAXX 08064 03866 16/// /2527 10115 20075 30154 40179 58027 60002 90550 333 20085 3/007 70000 90710 91133
AAXX 08064 03872 15567 /2311 10097 20073 30172 40177 57032 69922 90550 333 20028 3/101 55/// 553// 20000 70002 81/29 87/48
AAXX 08064 03876 16/// /2409 10090 20071 30181 40183 57028 60002 90550 333 20018 70000
AAXX 08064 03895 42475 82214 10106 20082 40218 57019 888// 333 20098 82812 87646
AAXX 08064 48601 11459 72108 10312 20249 30076 40080 60001 70522 82942 333 81917 86078
AAXX 08064 48615 11465 70205 10300 20247 30076 40082 60001 70522 82241 333 82818 87075
AAXX 08064 48620 11465 71906 10311 20249 30076 40085 60001 70522 83942 333 81917 83825 87078
AAXX 08064 48647 11363 81101 10253 20239 30067 40092 60121 71796 83947 333 81708 81917 83364 88276
AAXX 08064 48657 11464 73102 10304 20244 30066 40083 60001 70522 83232 333 83818 84366 86078
AAXX 08064 48665 11464 73503 10308 20246 30078 40088 6///1 71522 84962 333 81917 83820 86078
AAXX 08064 96413 11560 73003 10317 20229 30042 40068 60001 71522 84131 333 84820 85080
AAXX 08064 96421 11465 72708 10281 20254 30031 40066 60001 71522 85931 333 81915 85818 85365
AAXX 08064 96441 12480 72908 10321 20239 30035 40061 6///1 84941 333 81915 83816 87080
AAXX 08064 96449 12480 72508 10290 20249 30044 40063 60001 83963 333 83814 81915 83365 85080
AAXX 08064 96465 12478 72606 10308 20245 30027 40060 60001 81842 333 81815 87080
AAXX 08064 96471 11474 72605 10304 20243 30057 40060 60001 70522 81848 333 81814 83364 87277
AAXX 08064 96481 12462 61908 10305 20246 30031 40050 69921 82841 333 82817 83364 86080
AAXX 08064 96491 11468 70610 10293 20242 30039 40051 69921 70522 83832 333 83815 83364 87079
AAXX 08064 96465 12478 72606 10308 20245 30027 40060 60001 81842 333 81815 87080
AAXX 08061 01026 11489 12003 11026 21040 39867 40010 52017 60032 70181 81800 333 21031 47011 70028 91105
AAXX 08061 01062 11488 81405 11017 21025 39808 49821 52005 69972 70272 885// 333 21025 48005 70010 91111
AAXX 08064 03002 15977 /1807 10013 21020 39941 49960 58023 69962 90550 333 20000 3/102 70034 86/61 84/68
AAXX 08064 03008 16/// /1617 10047 20003 39872 49941 58051 60002 90550 333 20030 70000
AAXX 08064 03010 46/// /1526 10058 20022 49901 57083 333 90710 91134
AAXX 08064 03014 46/// /1109 10028 20003 49947 58045 90550 333 8////
AAXX 08064 03031 17306 /1317 10003 21004 39569 49895 58108 60052 772// 90550 333 21022 3/100 55/// 553// 20000 70134 85/06 86/11 90710 91128
AAXX 08064 03034 17574 /1312 10038 20017 39843 49857 58131 60022 761// 90550 333 20029 3/001 70044 85/20 87/32
AAXX 08064 03037 17418 /1913 10046 20033 39837 49859 58134 60142 763// 90550 333 20020 3/000 4/000 70158 86/14 86/25 90710 91128 91028
AAXX 08064 03039 46/// /1516 11019 21031 90550 333 21019 90710 91140 91040
AAXX 08064 03041 46/// ///// 11027 21027 90550 333 21049 90710 91162 91058
AAXX 08064 03044 17450 /1419 10024 20001 39798 49897 58093 60112 762// 90550 333 20010 3/101 55/// 553// 20000 70150 86/19 83/36 90710 91131
AAXX 08064 03047 17331 /1713 10019 20007 39620 49922 58104 60132 767// 90550 333 20007 3/000 55/// 553// 20000 70218 81/06 87/12
AAXX 08064 03062 17581 /1313 10029 21005 39913 49918 58089 60022 781// 90550 333 20001 3/101 55/// 553// 20000 70158 82/27 87/39
AAXX 08064 03065 46/// /1749 11049 21054 90550 333 21056 90710 91166 91066
AAXX 08064 03068 12581 81414 10029 21011 39923 49932 58087 69942 8557/ 90550 333 20009 3/102 41998 70106 82625 85650 88359
AAXX 08064 03072 46/// ///// 11026 21028 90550 333 21040 91000
AAXX 08064 03080 17464 /0910 10020 20010 39793 49965 58070 69902 761// 90550 333 21011 3/105 70026 87/13 84/57
AAXX 08064 03088 17462 /1924 10042 20031 39816 49979 58067 69902 761// 90550 333 20000 3/104 55/// 553// 20000 70002 87/13 90710 91133
AAXX 08064 03094 17579 /1611 10025 21001 39959 49964 58057 60022 781// 90550 333 20012 3/000 4//// 70072 84/29 86/56
AAXX 08064 03105 17500 /1923 10082 20075 39895 49912 56105 60102 733// 90550 333 20029 3/001 70122 85/20 83/26 96149 90710 91136
AAXX 08064 03132 17465 /2129 10097 20083 39958 49972 56093 60052 723// 90550 333 20042 3/002 70076 84/12 86/20 90710 91141 91039
AAXX 08064 03144 17562 /2005 10034 20013 39919 49962 58087 60012 762// 90550 333 20019 3/000 55/// 553// 20000 70012 81/29 87/33
AAXX 08064 03148 46/// /1633 11009 21009 90550 333 21015 90710 91145
AAXX 08064 03153 17135 /2030 10083 20083 39848 49983 58089 60052 762// 90550 333 20021 3/001 55/// 553// 20000 70160 87/02 84/09 90710 91143
AAXX 08064 03155 16559 /1730 10036 20036 39666 49963 58098 60072 90550 333 20012 3/101 70076 81/23 86/36 90710 91141 91040
AAXX 08064 03158 17/64 /1813 10032 20025 39867 40004 58071 69922 762// 90550 333 20002 3/102 55/// 553// 20000 70002
AAXX 08064 03210 16103 /1728 10073 20070 39861 40011 58084 60042 90550 333 20052 3/004 70084 87/02 90710 91137
AAXX 08064 03212 17550 /2011 10079 20058 39920 40018 58079 60062 762// 90550 333 20028 3/001 70226 81/20 87/23 85/37 91022
AAXX 08064 03214 17345 /1717 10062 20054 30017 40036 58073 60032 758// 90550 333 20062 3/005 70032 85/07 86/15 90710 91127
AAXX 08064 03220 16570 ///// 10057 20045 39974 40008 58082 60032 90550 333 20025 3/101 70056 87/29 85/37
AAXX 08064 03224 17456 /2015 10035 20029 39676 40022 58067 60022 762// 90550 333 21002 3/101 4/000 70042 81/12 87/17
AAXX 08064 03225 16330 /1924 10035 20025 39727 40034 58071 60102 90550 333 20019 3/000 55/// 553// 20000 70230 81/07 83/11 86/25 90710 91137
AAXX 08064 03226 17463 /1914 10045 20034 39767 40043 58061 60022 762// 90550 333 20011 3/101 70132 84/14 87/23
AAXX 08064 03227 46/// /2142 11002 2//// 90550 333 21025 90710 91154
AAXX 08064 03230 16456 /1710 10030 20024 39767 40025 58067 60022 90550 333 21007 3/103 4/000 70030 86/12 86/24
AAXX 08064 03238 17465 /1709 10040 20021 39858 40032 58062 69902 781// 90550 333 20015 3/101 4/000 70002 87/14 84/57
AAXX 08064 03261 11665 81716 10043 20014 30038 40079 58046 69902 76062 885// 90550 333 20022 31000 4//// 70054 86635 88650
AAXX 08064 03265 17666 /1515 10039 20019 30047 40078 58048 69902 781// 90550 333 20013 3/101 70024 85/31 83/41 86/50
AAXX 08064 03266 16673 /1813 10048 20015 30066 40083 58044 60002 90550 333 20029 3/001 4/000 70058 87/46
AAXX 08064 03275 15768 /1819 10033 20006 39876 40071 58042 60002 90550 333 20019 3/001 4/000 79999 85/50 87/62 90710 91129
AAXX 08064 03281 16/// /2016 10024 20011 60002 90550 333 20012 70000 90710 91125
AAXX 08064 03903 16445 /2220 10098 20087 39889 49945 56078 60032 90550 333 20020 3/100 55/// 553// 20000 70052 82/16 84/38 90710 91133
AAXX 08064 03904 17650 /2020 10094 20079 39871 49929 56077 60072 762// 90550 333 20027 3/100 4/000 70090 84/31 86/42 90710 91134
AAXX 08064 03907 17557 /2127 10088 20073 39911 49918 56085 60012 782// 90550 333 20034 3/002 55015 55300 20000 70056 81/21 87/48 90710 91141 91037
AAXX 08064 03911 16370 /2214 10077 20075 39682 49950 56075 60052 90550 333 20009 3/100 4/000 70072 86/07 90710 91131 91024
AAXX 08064 03915 16270 /1918 10086 20086 39863 49940 56086 60022 90550 333 20013 3/101 70054 81/05 85/12 85/50 90710 91129 91028
AAXX 08064 03916 16376 /2315 10071 20064 39736 49923 56100 60042 90550 333 20021 3/001 55/// 553// 20000 70094 85/09 83/56 90710 91133 91033
AAXX 08064 03923 17250 /2219 10078 20074 39773 49966 56072 60042 762// 90550 333 20013 3/101 70044 85/05 87/13 90710 91129 91029
BBXX 44022 08061 99409 70737 46/// ///12 10060 20040 49962 56012 90600 22200 00106 333 91216 555 11134 22144
BBXX 51003 08061 99193 71606 46/// /0508 10249 40157 52022 90550 22200 00259 12105 20603 3//// 42104 70023 333 91209 555 11081 22085 30507 40710 60549 055078 056078 056081 054080 060078 068066
BBXX 46042 08061 99368 71224 46/// /3508 10110 40210 54000 90550 22200 00118 11303 20502 332// 41301 70013 333 91210 555 11085 22090 30456 43510 60549 353081 354082 352079 352085 354087 346087
BBXX 46083 08061 99582 71380 46/// /1314 10019 20018 40253 58028 90550 22200 00066 10604 20604 70022 333 91217 555 11148 22158 30540 41317 60549 125139 125142 125141 124140 125138 126132 81215 90518
AAXX 08061 26554 11556 71502 11010 21020 39911 40076 52016 69952 71072 85530 333 21010 47001 555 90011
AAXX 08061 26666 11360 81601 11003 21024 39876 40095 53011 69922 70287 886// 333 21007 47997 88709 555 90011
AAXX 08061 26850 11358 81402 11005 21017 39784 40060 53006 69952 71022 885// 333 21005 88708 555 90010
AAXX 08061 26863 11358 81504 11006 21015 39842 40082 58002 69942 71072 886// 333 21010 88707
AAXX 08061 26941 11456 81103 11002 21020 39795 40035 53003 69902 77172 8872/ 333 21008 555 90010
AAXX 08061 26951 12560 71303 11008 21023 39852 40053 53001 69942 86530 333 21010 41997 86624 555 90012
AAXX 08061 33008 11222 82101 10004 21004 39827 40006 53011 60022 77172 8872/ 333 20004 43000 86703 555 90010
AAXX 08061 33019 11337 80702 11003 21009 39849 40026 57007 69962 72272 886// 333 21011 47001 86708 555 90010
AAXX 08061 33036 31135 81905 11013 21021 39837 40072 57002 71011 886// 333 21026 43002 88702 555 90011
AAXX 08061 33041 11458 71402 11010 21019 39936 40095 57004 69902 71022 875// 333 21017 43997 87617 555 90013
BBXX PJFF 08064 99456 70165 41/97 72408 10162 20159 40245 57015 70022 8//// 22214 20000 80160
BBXX PGRQ 08064 99371 10160 41598 12925 10171 2//// 40208 57002 70200 81500 22272 00189 20202 328// 40404
BBXX UCKG 08061 99557 10063 41/98 93005 10080 40100 52053 70222 22233 00100 20303
BBXX PFFH 08063 99383 10170 41/98 /2519 10168 40191 57020 7//// 8//// 22213 00171 2////
BBXX MSTM6 08063 99363 70015 41598 29902 10190 20138 40280 56010 70200 811// 22264 06170 20100 3//// 4//// 5//// 80160
BBXX OWFD2 08061 99336 70119 41/97 /0506 10195 20177 40270 50200 71622 8///8 22214 04190 20301 301// 41104 80183
BBXX UGGA 08061 99689 10378 41/98 92410 10040 40003 52020 70222 89/// 22233 20403
BBXX DGWD2 08063 99487 70058 41/98 /2527 10125 20107 40200 56005 70022 8//// 22253 00130 2//// 80115
BBXX PDHW 08063 99502 70243 41698 43316 10086 20031 40149 70244 839/2 22223 2//// 80060
BBXX A8KC6 08064 99230 51674 41598 62208 10290 20248 40140 50010 703// 8647/ 22254 04300 20602 329// 40602 5//// 80260 46379 1738081222
BBXX 41041 08061 99142 70460 46/// /1207 10266 20221 40115 58015 90550 22200 00267 10805 20603 3//// 40804 70023 333 91208 555 11073 22077 30519 41209 60549 119068 119069 124072 120077 123077 121079 81208 90453
BBXX NWS0003 08064 99601 71789 43/// /3424 10013 20011 49766 5//// 7//// 8//// 222// 04026 2//// 3//// 4//// 5//// 6//// 8//// ICE /////
BBXX KAOU 08064 99037 10916 43/// /3414 10283 20236 40080 5//// 7//// 8//// 222// 04294 2//// 3//// 4//// 5//// 6//// 8//// ICE /////
BBXX NWS0029 08064 99194 70294 43/// /0612 10230 20156 40144 5//// 7//// 8//// 222// 04251 2//// 3//// 4//// 5//// 6//// 8//// ICE /////
BBXX C6FR6 08064 99295 10350 41/// /3610 10140 2//// 40210 51030 7//// 8//// 22200 0//// 2//// 3//// 4//// 5//// 6//// 8//// ICE /////
BBXX NWS0020 08064 99362 10233 43/// /3112 10147 20062 40193 5//// 7//// 8//// 222// 04200 2//// 3//// 4//// 5//// 6//// 8//// ICE /////
BBXX V7HC8 08064 99065 70120 41/// /1407 10270 2026/ 4//// 5//// 7//// 8//// 22200 00291 20201 318// 40402 5//// 6//// 80260 ICE /////
BBXX ZCDA9 08063 99327 71193 41998 02720 10145 20117 40180 57024 70200 80000 22254 00180 20201 307// 40401 5//// 80130
BBXX NWS0009 08064 99214 71580 43/// /0607 10239 20171 40167 5//// 7//// 8//// 222// 04256 2//// 3//// 4//// 5//// 6//// 8//// ICE /////
BBXX C6FR3 08063 99179 70878 417// 13330 10230 2//// 40190 54000 7//00 817// 22272 0//// 20205 30405 40105 50105 6//// 8//// ICE /////
BBXX WBN3016 08064 99222 70734 41/// /0815 10256 2//// 40122 56003 7//// 8//// 22232 0//// 20503 30810 40602 50501 6//// 8//// ICE /////
BBXX PBIG 08064 99150 70718 41698 30822 10273 20181 40090 57000 7//// 8/2// 22234 20203 80214
BBXX 9HA2583 08064 99179 70640 41498 30610 1//// 2//// 40140 51/// 7//22 83275 22273 0//// 2//// 3//// 4//// 5//// 6//// 8//// ICE /////
BBXX PBWQ 08064 99177 70841 41498 20222 10262 20191 40159 54000 70200 822// 22254 00280 20303
BBXX ICGU 08064 99133 70614 41697 40711 10270 20213 40110 54/// 70311 849// 22212 04270 21001 39999 41202 51402 6//// 85230 ICE /////
BBXX 9HJC9 08064 99135 70624 41798 70913 10250 2//// 40110 54/// 7//22 874// 22273 00260 2//02 399// 4//// 5//// 6//// 8//// ICE /////
BBXX C6XC6 08064 99382 10011 419// 02507 10165 2//// 40270 54000 7//00 8/000 22252 0//// 2//// 3//// 4//// 5//// 6//// 8//// ICE /////
AAXX 08061 01271 16/// /1301 11016 21026 39969 49991 52013 60052 333 21031 47009 70085 91104
AAXX 08061 01492 11485 30403 11064 21081 39906 40028 51014 60002 70110 82602 333 21064 43008 70000 91104
AAXX 08064 70026 NIL
AAXX 08064 70133 NIL
AAXX 08064 70174 NIL
AAXX 08064 70200 NIL
AAXX 08064 70219 NIL
AAXX 08064 70231 NIL
AAXX 08064 70261 NIL
AAXX 08064 70267 NIL
AAXX 08064 70271 NIL
AAXX 08064 70273 NIL
AAXX 08064 70308 NIL
AAXX 08064 70316 NIL
AAXX 08064 70326 NIL
AAXX 08064 70340 NIL
AAXX 08064 70350 NIL
AAXX 08064 70361 NIL
AAXX 08064 70381 NIL
AAXX 08064 70398 NIL
AAXX 08064 70414 NIL
BBXX DBLK 08061 99429 30000 41597 82914 10095 20050 40249 57016 76082 8587/ 22252 04102 20504 321// 40905
BBXX 3FMV6 08063 99273 30140 41598 81327 10180 20146 40160 54000 71022 86770 22283 06179 20806 80160
BBXX DBKV 08061 99281 70154 46/// /1602 10205 20137 40221 57005 22200 00208
BBXX DBBT 08061 99425 30103 46/// /2307 10068 20009 40264 52008 22201 00119
BBXX V7HC8 08064 99065 70120 41/// /1407 10270 2026/ 4//// 5//// 7//// 8//// 22200 00291 20201 318// 40402 5//// 6//// 80260 ICE /////
BBXX C6FR6 08064 99295 10350 41/// /3610 10140 2//// 40210 51030 7//// 8//// 22200 0//// 2//// 3//// 4//// 5//// 6//// 8//// ICE /////
BBXX 2AKI2 08063 99328 30152 41598 51828 10156 20083 40234 53008 70111 84160 22234 00189 20504 322// 40906 5//// 80119
BBXX WDE8288 08064 99139 10518 41497 20320 10260 2017/ 40140 55025 7//00 81131 22215 0//// 20304 304// 40508 5//// 6//// 80200 ICE /////
BBXX ONDY 08064 99066 30088 41799 81816 10240 2021/ 40120 52010 70322 886// 22284 00270 21002 31817 40504 50502 6//// 80220 ICE /////
BBXX DBBC 08061 99535 10086 46/// /2605 10047 2//// 40131 52044/ 22250 00055
BBXX DBND 08061 99/// ///// 46/// //////10043 20033 40122 52044 22220 00088
BBXX DBCK 08061 99/// ///// 46/// ///// 10043 20042 40122 52044 22220 00064
BBXX DBBA 08061 99536 10086 46/// ///// 10042 20031 40130 52045 22250 00061
BBXX DBKR 08061 99547 10127 46/// /3111 10047 20040 40071 52057 22200 00062
BBXX DDAC2 08060 99142 50963 41/98 20312 10230 20169 40110 54000 7//00 82400 22233 04190 2//// 303// 40508 5//// 80190
BBXX DCLH2 08060 99342 50745 41/98 81813 10150 20142 40170 54000 70322 8//// 22274 06160 2//// 323// 41404 5//// 80145
BBXX WCX7445 08064 99596 50626 43/// /2729 10027 2//// 49860 5//// 7//// 8//// 22242 00001 2//// 3//// 4//// 5//// 6//// ICE /////
BBXX 32012 08061 99197 50856 46/// ///// 1//// 90550 22200 11505 70025
BBXX DBBI 08061 99536 10086 46/// /2605 10043 20043 40125 52043 22240 00061
BBXX C6XC2 08064 99332 11280 41498 8//23 10100 20060 40190 54000 70222 8795/ 22244 00210 20603 3//// 40804 5//// 6//// 80080 ICE /////
BBXX ONFE 08064 99060 10895 41898 30515 10300 2025/ 40120 54000 70200 82101 22223 00290 20604 320// 4//// 5//// 6//// 80260 ICE /////
BBXX 3FZK3 08064 99411 11398 46/// /3017 11011 21038 40129 56023 7//// 8//// 22213 0//// 2////
BBXX C6SI6 08064 99533 11678 46/// /2514 11003 21063 40048 53006 7//// 8//// 22253 0//// 2////
BBXX BATFR56 08064 99054 10978 44998 827// 10282 20234 40096 58017 70322 86237 22273 00304
BBXX TBWUK36 08063 99145 11147 41397 60323 10280 20241 40080 50010 70122 86478 22214 00280 20406 305// 40404 5//// 80253
BBXX 46070 08061 99551 11753 46/// /3012 10004 21045 49997 51030 90550 22200 00046 11209 20706 3//// 41207 70046 333 91215 555 11129 22136 30525 42915 60549 301121 298120 297123 296119 293119 294118 83013 90550
BBXX SHIP 08064 99123 11347 41597 40914 10300 2026/ 40110 56010 70121 83235 22254 0//// 20702 305// 40804 5//// 6//// 80270 ICE /////
BBXX 62087 08061 99547 10068 46/// /9901 10079 20030 4//// 5//// 22230 00090
BBXX UFTA 08061 99850 71232 11696 81404 11204 21228 49990 52009 69942 77172 885// 555 48045
BBXX PBIG 08064 99150 70718 41698 30822 10273 20181 40090 57000 7//// 8/2// 22234 20203 80214
BBXX WGJT 08064 99250 70739 41498 41413 10278 2023/ 40147 5//// 70210 8326/ 22234 00239 20202 312// 40603 5//// 6//// 80244 ICE /////
BBXX KRGB 08064 99371 71242 41/98 83216 10111 2006/ 40209 56002 7//22 88/// 22255 00122 20303 330// 40904 5//// 6//// 80089 ICE /////
BBXX 9HA2583 08064 99179 70640 41498 30610 1//// 2//// 40140 51/// 7//22 83275 22273 0//// 2//// 3//// 4//// 5//// 6//// 8//// ICE /////
BBXX OYCY2 08064 99410 71503 43/96 /1624 10130 2013/ 40270 52020 7//// 8//// 22224 00170 2//// 3//// 4//// 5//// 6//// 80130 ICE /////
BBXX MCUV3 08063 99432 70538 41498 52620 40172 56002 70222 85/7/ 22223 2//03 326// 4//03 5////
BBXX 9HJC9 08064 99135 70624 41798 70913 10250 2//// 40110 54/// 7//22 874// 22273 00260 2//02 399// 4//// 5//// 6//// 8//// ICE /////
BBXX ICGU 08064 99133 70614 41697 40711 10270 20213 40110 54/// 70311 849// 22212 04270 21001 39999 41202 51402 6//// 85230 ICE /////
BBXX PBWQ 08064 99177 70841 41498 20222 10262 20191 40159 54000 70200 822// 22254 00280 20303
BBXX WKAP 08063 99263 70885 41498 60319 10130 2009/ 40250 54000 7//22 86040 22234 00240 20603 330// 40904 5//// 6//// 80110 ICE /////
BBXX WBN3016 08064 99222 70734 41/// /0815 10256 2//// 40122 56003 7//// 8//// 22232 0//// 20503 30810 40602 50501 6//// 8//// ICE /////
BBXX 44100 08061 99363 70756 46/// ///// 1//// 90552 22200 00146 10904 20903 311// 41101 70018
BBXX 41113 08061 99284 70805 46/// ///// 1//// 90551 22200 00223 11001 21001 309// 41101 70007
BBXX 41110 08061 99341 70777 46/// ///// 1//// 90551 22200 00158 10803 20803 312// 41101 70013
BBXX 44099 08061 99369 70757 46/// ///// 1//// 90552 22200 00137 10504 20504 309// 41101 70019
BBXX 46239 08061 99363 71221 46/// ///// 1//// 90551 22200 00130 10503 20503 329// 41101 70015
BBXX 46238 08061 99334 71195 46/// ///// 1//// 90550 22200 00150 11202 20502 327// 41201 70010
BBXX 46214 08061 99379 71235 46/// ///// 1//// 90557 22200 00117 11302 21002 329// 41302 70011
BBXX 46224 08061 99332 71175 46/// ///// 1//// 90536 22200 00154 11401 20601 320// 41401 70005
BBXX 46219 08061 99332 71199 46/// ///// 1//// 90558 22200 00137 11402 20502 326// 41401 70012
BBXX 46218 08061 99345 71208 46/// ///// 1//// 90602 22200 00139 10603 20603 330// 41301 70015
BBXX 46215 08061 99352 71209 46/// ///// 1//// 90538 22200 00136 11302 20602 324// 41301 70010
BBXX 46229 08061 99438 71246 46/// ///// 1//// 90551 22200 00107 11203 20603 328// 41202 70016
BBXX 46213 08061 99403 71247 46/// ///// 1//// 90554 22200 00105 10803 20803 331// 41202 70016
BBXX 46247 08061 99378 71228 46/// ///// 1//// 90551 22200 00117 11402 21001 328// 41401 70009
BBXX 46236 08061 99368 71219 46/// ///// 1//// 90550 22200 00116 10502 20502 328// 41301 70010
BBXX 46243 08061 99462 71241 46/// ///// 1//// 90559 22200 00082 11103 20802 328// 41102 70014
BBXX 46225 08061 99329 71174 46/// ///// 1//// 90544 22200 00149 11401 21001 322// 41401 70004
BBXX 44097 08061 99410 70711 46/// ///// 1//// 90602 22200 00131 10805 20805 318// 41101 70026
BBXX 44172 08061 99445 70634 46/// ///// 1//// 90601 22200 00082 11003 21003 314// 41101 70013
BBXX 44008 08061 99405 70692 46/// /1910 10164 20164 49961 58054 90550 22200 00138 10807 20807 70033 333 91213 555 11112 22124 30524 41821 60549 193103 193102 188144 186129 190110 194095
BBXX 46089 08061 99459 71258 46/// /0308 10086 20041 40306 53003 90550 22200 00099 10804 20503 333// 40803 70022 333 91210 555 11085 22089 30524 40111 60549 031080 024087 017084 018077 019077 014085
BBXX 41046 08061 99238 70683 46/// /1009 10252 20215 40156 58010 90550 22200 00262 10906 20704 300// 40904 70029 333 91212 555 11099 22105 30549 41012 60549 096093 094089 096087 097084 093087 093088 80910 90544
BBXX 44011 08061 99411 70666 46/// /1810 10146 20146 40016 56044 90550 22200 00104 10805 20704 3//// 40803 70023 333 91211 555 11107 22121 30518 43612 60549 179097 177100 176101 176100 175104 175101
BBXX C6JT 08063 99165 70759 41/98 40511 10270 2021/ 40125 54000 70311 8//// 22215 20302 3//// 4//// 80230
BBXX SHIP 08064 99318 71556 41497 80212 10190 20159 40200 50010 7//22 8829/ 22223 00210 20904 306// 4//// 50602 6//// 80170 ICE /////
BBXX C6FR3 08063 99179 70878 417// 13330 10230 2//// 40190 54000 7//00 817// 22272 0//// 20205 30405 40105 50105 6//// 8//// ICE /////
BBXX WSRL 08064 99325 71476 41398 81219 10190 2016/ 40240 52015 70322 887// 22214 00211 2//// 3//// 4//// 5//// 6//// 80170 ICE /////
BBXX WKWB 08064 99228 71124 41498 40000 10180 2015/ 40168 51018 70111 80030 22272 00213 20000 336// 40502 80160
BBXX OUIY2 08064 99535 71594 41697 32022 10060 2003/ 40170 57010 70011 80/10 22263 00050 2//// 3//// 4//// 5//// 6//// 80048 ICE /////
BBXX A8JH8 08064 99158 70678 41597 40618 10268 20229 40121 57010 70200 83270 22214 20301 304// 40902 80240
BBXX CGJV 08064 99447 70636 46/// /1810 10113 20112 40017 58042 7//// 8//// 22200 0//// 2////
BBXX VAAP 08064 99447 70636 46/// /1820 10128 20126 40003 58055 7//// 8//// 22271 0//// 2////
BBXX VCSZ 08064 99489 70636 46/// /0723 10014 20014 40060 58052 7//// 8//// 22224 0//// 2////
BBXX CGCC 08064 99468 70712 46/// /0204 10002 21008 40048 58024 7//// 8//// 22200 0//// 2////
BBXX VRYO3 08064 99456 70735 46/// /0000 11011 20000 40051 56017 7//// 8//// 22200 0//// 2////
BBXX CGTF 08064 99476 70527 46/// /1505 10040 20033 40122 52024 7//// 8//// 22200 0//// 2////
BBXX CGSB 08064 99468 70712 46/// /0203 10005 21004 40049 58024 7//// 8//// 22200 0//// 2////
BBXX VOPP 08064 99456 70735 46/// /2910 11016 21016 4//// 5//// 7//// 8//// 22200 0//// 2////
BBXX VXKF 08064 99468 70597 46/// /1018 10048 20047 40061 58020 7//// 8//// 22213 0//// 2////
BBXX VOKJ 08064 99459 70732 46/// /3310 11017 21027 40053 56009 7//// 8//// 22253 0//// 2////
BBXX VAAZ 08064 99510 70498 46/// /0524 10003 20000 40130 56041 7//// 8//// 22231 0//// 2////
BBXX VCWL 08064 99468 70712 46/// /0000 10001 21011 40049 58008 7//// 8//// 22222 00036 2////
BBXX CGDT 08064 99490 70669 46/// /0902 11002 21020 40066 56034 7//// 8//// 22200 0//// 2////
BBXX CG2958 08064 99487 71235 46/// /3502 10033 20020 40334 51008 7//// 8//// 22200 0//// 2////
BBXX CGBN 08064 99447 70636 46/// /1403 10126 20125 40003 58042 7//// 8//// 22200 0//// 2////
BBXX CGBY 08064 99487 71235 46/// /3402 10026 20008 40325 52008 7//// 8//// 22200 0//// 2////
BBXX CGDX 08064 99468 70712 46/// /0403 10006 21003 40049 58023 7//// 8//// 22200 0//// 2////
BBXX VCLM 08064 99621 70747 46/// /1913 11116 21161 49929 53011 7//// 8//// 22200 0//// 2////
BBXX CGDG 08064 99454 70552 46/// /2115 10073 20126 40117 56014 7//// 8//// 22282 00054 2////
BBXX CG2965 08064 99487 71235 46/// /3502 10034 20017 40326 52008 7//// 8//// 22200 0//// 2////
BBXX CGHL 08064 99476 70527 46/// /1805 10042 20036 40122 52024 7//// 8//// 22200 0//// 2////
BBXX VCBW 08064 99514 70571 46/// /0817 11017 21053 40155 53001 7//// 8//// 22281 00040 2////
BBXX VCRG 08064 99474 70619 46/// /0912 10063 20061 40058 58034 7//// 8//// 22200 0//// 2////
BBXX CZ9742 08064 99506 70969 46/// /2605 11108 21168 40137 53001 7//// 8//// 22200 0//// 2////
BBXX CGBR 08064 99541 71305 46/// /3310 10003 20002 40337 58010 7//// 8//// 22251 00083 2////
AAXX 08061 26509 31459 80702 10002 21012 30013 40022 52025 71012 885// 333 21012 31/// 88617 91004 91108 555 53013 7004/
AAXX 08061 26518 31359 81105 11008 21014 40027 52023 71022 886// 333 21043 48011 88709 91007 91109 555 53011 7997/
AAXX 08061 26524 32497 81302 11005 21011 39904 40038 53022 885// 333 21011 47003 88617 91004 91107 555 53007 7993/
AAXX 08061 26531 31959 11203 11017 21023 40047 52017 71000 81030 333 21021 31/// 91004 91104 53006 7990/
AAXX 08061 26629 32497 81204 10003 21011 39933 40029 53016 885// 333 21003 31/// 88615 91006 91110 555 53010 7990/
AAXX 08061 26633 12566 71303 11006 21024 39916 40048 52012 69902 87500 333 21015 41998 87622 91006 91106 555 53006 7990/
AAXX 08061 26730 12464 71103 11001 21019 39840 40034 53001 69902 87600 333 21008 41998 91005 91108 555 53008 7990/
BBXX 46013 08061 99382 71233 46/// /3105 10099 40214 57008 90550 22200 00107 11302 20301 3//// 41302 70010 333 91206 555 11048 22050 30526 43206 60549 314047 311049 310051 307049 303049 303049
BBXX 46025 08061 99337 71191 46/// /3004 10145 40188 55000 90550 22200 00153 11301 20401 320// 41301 70006 333 91204 555 11039 22040 30451 42905 60549 296038 280039 280038 288040 293041 294036
BBXX 46028 08061 99357 71219 46/// /3209 10117 40199 57003 90550 22200 00131 10603 20603 328// 41201 70016 333 91211 555 11100 22106 30539 43211 60549 319094 323097 321096 323098 324094 321090
BBXX 46054 08061 99342 71204 46/// /3208 10128 40189 55000 90550 22200 00136 333 91210 555 11084 22089 30458 43311 60549 322079 326081 325083 326085 324085 323087
BBXX 46029 08061 99461 71245 46/// /0407 10064 20032 40300 53006 90550 22200 00082 11103 20502 326// 41102 70015 333 91209 555 11078 22082 30547 40409 60549 040074 045072 048074 051076 051075 056075
BBXX 46087 08061 99485 71247 46/// /0504 10060 20043 40320 53008 90550 22200 00083 11103 20401 328// 41103 70013 333 91205 555 11043 22044 30519 40907 60549 054042 070050 077058 084049 089043 088042
BBXX 46012 08061 99374 71229 46/// /3106 10102 40216 57007 90550 22200 00122 11402 20401 325// 41402 70010 333 91207 555 11058 22060 30517 43208 60549 314056 314059 316060 318061 321059 322058
BBXX 46014 08061 99394 71240 46/// /0502 10092 40222 56007 90550 22200 00105 11302 3//// 41302 70011 333 91202 555 11016 22017 30508 43404 60549 045017 034014 018020 350027 339029 341030
BBXX 46011 08061 99350 71210 46/// /3307 10127 40197 54000 90550 22200 00137 10603 20602 329// 41101 70013 333 91209 555 11079 22083 30457 43309 60549 327074 329077 328076 328075 330080 331084
BBXX 46053 08061 99342 71198 46/// /2601 10138 40182 54000 90550 22200 00146 333 91201 555 11007 22007 30455 42503 60549 262007 301007 335013 317014 284016 257022
BBXX 46047 08061 99324 71195 46/// /3207 10133 40197 55000 90550 22200 00137 11202 20401 327// 41201 70010 333 91208 555 11074 22079 30548 43208 60549 321070 321067 316067 316067 322067 323066
BBXX 46086 08061 99325 71180 46/// /3105 10146 40189 52005 90550 22200 00151 11301 20401 322// 41301 70007 333 91205 555 11047 22049 30542 43105 60549 312045 313041 319039 313040 307037 309037
BBXX 46069 08061 99337 71202 46/// /3209 10129 40192 54000 90550 22200 00133 10502 20502 326// 41401 70012 333 91210 555 11092 22097 30518 43210 60549 322086 321084 321086 319084 318085 315081
BBXX 46050 08061 99442 71246 46/// /0108 10087 40278 56005 90550 22200 00103 11103 20603 330// 41102 70017 333 91210 555 11089 22094 30525 40111 60549 006083 006084 005090 008086 002085 000087
BBXX 46088 08061 99483 71232 46/// /3404 10054 40316 90550 22200 00082 1//00 70002 333 91205 555 11043 22044 30534 40107 60549 340043 015052 017041 006041 003033 359029
BBXX 46027 08061 99419 71244 46/// /0301 10084 40223 56008 90550 22200 00095 10703 20401 334// 40703 70016 333 91201 555 11008 22008 30500 41002 60549 038008 078005 090007 105012 097015 096016
BBXX NWS0022 08064 99416 70714 43/// /3610 10100 20093 49930 5//// 7//// 8//// 222// 04131 2//// 3//// 4//// 5//// 6//// 8//// ICE /////
BBXX 46080 08061 99580 71500 46/// /1905 10054 20054 40096 57005 90550 22200 00055 10806 20402 3//// 40806 70030 333 91206 555 11053 22056 30535 41906 60549 190050 191053 191051 191051 192050 192051 81906 90530
BBXX 46005 08061 99461 71310 46/// ///06 10089 40343 54000 90550 22200 00102 11103 20402 3//// 41103 70017 333 91208 555 11066 22070
BBXX 46059 08061 99380 71300 46/// /0307 10121 40267 52004 90550 22200 00149 11103 20602 3//// 41102 70014 333 91208 555 11069 22072 30451 40410 60549 034064 041070 041067 030070 028069 035071
BBXX 46060 08061 99606 71468 46/// /0107 10010 40171 58036 90550 22200 00058 11002 20401 318// 41002 70011 333 91208 555 11072 22075 30545 43608 60549 007069 009063 004059 012062 012051 022053 83607 90544
BBXX 46084 08061 99566 71361 46/// /1514 10046 20027 40279 58018 90550 22200 00077 10606 20606 300// 40902 70030 333 91216 555 11147 22156 30527 41517 60549 145137 147142 147144 148146 145143 143137
BBXX 46075 08061 99539 71608 46/// /2010 10059 20055 40047 51008 90550 22200 00054 11508 20805 300// 41506 70042 333 91212 555 11108 22116 30529 42114 60549 201098 201100 199101 199102 197099 196094 82011 90529
BBXX 46006 08061 99408 71375 46/// /0907 10120 40321 90550 22200 00127 11203 20602 3//// 41202 70015 333 91208 555 11071 22075 30535 40710 60549 086068 082077 072064 066058 067063 068064
BBXX 44020 08061 99414 70702 46/// /1809 10139 20139 49928 58065 90550 22200 00102 10301 20301 70007 333 91210 555 11093 22099 30527 42511 60549 193087 251084 252094 251088 251090 245088
BBXX 46002 08061 99426 71305 46/// ///// 10111 40312 54000 90550 22200 00125 10604 70019
BBXX 44027 08061 99443 70673 46/// /0509 10084 20078 49966 58051 90550 22200 00093 10503 20502 3//// 40801 70014 333 91211 555 11092 22097 30458 40511 60549 054088 050084 052087 051091 051085 053091
BBXX 41013 08061 99334 70777 46/// /2914 10133 20089 40140 51037 90550 22200 00235 10706 20706 329// 41201 70031 333 91218 555 11147 22155 30507 42719 60549 288139 283147 288141 281143 280149 279143
BBXX 44065 08061 99404 70737 46/// /3315 10080 20073 49946 56010 90550 22200 00118 10504 20504 312// 41101 70021 333 91218 555 11160 22170 30455 43221 60549 329151 332159 325158 324156 319152 318166 83218 90453
BBXX 44040 08061 99410 70736 46/// /0214 10060 20060 49973 90545 22200 10302 70011 333 91219 555 11160 22175
BBXX 41004 08061 99325 70791 46/// /3012 10117 20065 40173 51028 90550 22200 00211 333 91215 555 11130 22136 30454 42918 60549 297120 297119 291123 293130 290130 286140
BBXX 44009 08061 99385 70747 46/// /3016 10083 40047 51098 90550 22200 00129 10604 20604 70022 333 91220 555 11172 22182 30526 43020 60549 296161 295165 293172 288156 291150 302151
BBXX 42055 08061 99222 70940 46/// /0208 10204 20136 40230 58005 90550 22200 00253 10906 20704 334// 40905 70031 333 91211 555 11086 22090 30453 40112 60549 019080 018081 024084 017091 017092 015095 80111 90454
BBXX 42003 08061 99260 70856 46/// /0208 1//// 90550 22200 10905 20603 329// 40903 70023 333 91211 555 11083 22089 30452 40313 60549 017081 017080 019079 016090 017091 012089 80210 90452
BBXX 44025 08061 99402 70732 46/// /3218 10081 49913 55031 90550 22200 00121 10704 20504 316// 40702 70022 333 91222 555 11194 22206 30530 42924 60549 317180 308190 299189 293160 307097 296079
BBXX 41008 08061 99314 70809 46/// /3110 10089 20044 40198 52017 90550 555 11110 22118
BBXX 44014 08061 99366 70748 46/// /3114 10114 20114 40068 51071 90550 22200 00158 10805 20805 70026 333 91217 555 11142 22142 30531 43118 60549 305143 305141 307141 306121 308108 311100
BBXX 42002 08061 99258 70937 46/// /0606 10156 20076 40255 58007 90550 22200 00248 10804 20502 334// 40803 70019 333 91209 555 11064 22068 30549 40609 60549 055064 050065 034056 043066 054060 050067
BBXX 44005 08061 99432 70691 46/// /0209 10087 20087 49955 58042 90550 22200 00094 10603 20602 3//// 40802 70014 333 91211 555 11094 22099 30540 40211 60549 022090 025086 030090 029087 024077 020067
BBXX C6XC6 08064 99382 10011 419// 02507 10165 2//// 40270 54000 7//00 8/000 22252 0//// 2//// 3//// 4//// 5//// 6//// 8//// ICE /////
BBXX WDE8265 08063 99419 70327 41398 41313 10175 2016/ 40244 57016 70222 83185 22265 0//// 20201 313// 40704 5//// 6//// 80165 ICE /////
BBXX DBBH 08061 99538 10063 41598 32813 10083 20008 40132 52029 70181 82200 22262 04101
BBXX DBFH 08061 99555 10084 46/// /2703 10047 20028 40087 52024 22260 00057
BBXX DBBU 08061 99542 10119 46/// /3012 10043 20023 40095 52060 22231 00068
BBXX DBFR 08061 99551 10158 46/// /3409 10052 20039 40026 52047 22231 00070
BBXX DBJM 08061 99542 10080 46/// /2808 10072 20036 40125 52033 22261 00082
BBXX DBEB 08061 99538 10082 41/// /2909 10059 20059 40123 52039 7//// 22221 00051
BBXX DBEA 08061 99540 10084 46/// /2906 10061 20031 40120 52037 22260 00054
BBXX WAHV 08063 99329 10288 41399 63123 10173 2015/ 40164 54000 71511 82290 22225 00202 20805 80155
BBXX TFNA 08061 99654 70247 41/94 90316 11003 49929 77472 22222 00058
BBXX ZCBW2 08063 99348 10223 43598 33121 10160 20040 40200 52015 7//// 832// 22263 00180 20605 3//// 4//// 5//// 80100
BBXX CGJK 08064 99484 71234 46/// /0204 10024 20016 40320 50003 7//// 8//// 22200 0//// 2////
BBXX CGDR 08064 99501 71275 46/// /0405 10044 21024 40323 51003 7//// 8//// 22200 0//// 2////
BBXX 46041 08061 99474 71247 46/// /1904 10069 40305 52003 90550 22200 00098 11103 20401 3//// 41103 70016 333 91204 555 11037 22038 30456 41505 60549 186036 189033 191026 174031 165033 158037
BBXX 46026 08061 99378 71228 46/// /3106 10100 40214 56008 90550 22200 00116 11402 20401 329// 41401 70008 333 91206 555 11058 22060 30459 42908 60549 305055 288054 284055 284055 289058 289062
BBXX 46082 08061 99597 71434 46/// ///// 10025 20025 40185 56033 90550 22200 00062 10810 70049
BBXX 46072 08061 99517 71722 46/// /2610 10056 20035 49996 52036 90550 22200 00055 11412 20606 3//// 41410 70059 333 91213 555 11105 22112 30501 42615 60549 259099 262092 259100 261102 262108 261107 82612 90502
BBXX 46035 08061 99571 71778 46/// /2616 1//// 49888 53039 90550 22200 11111 20808 300// 41107 70056 333 91220 555 11156 22167 30457 42822 60549 258155 274168 261162 267165 269165 278170 82819 90452
BBXX 46061 08061 99602 71468 46/// /1016 10022 40144 58047 90550 22200 00064 10808 20807 300// 41105 70040 333 91221 555 11173 22184 30500 41022 60549 095164 097169 096176 096171 096171 095172
BBXX 46077 08061 99579 71543 46/// /0307 10044 20036 40088 51007 90550 22200 00056 11103 20601 3//// 41102 70013 333 91208 555 11074 22078 30530 40308 60549 032070 034070 038068 036070 035066 031059 80308 90550
BBXX 51101 08061 99243 71621 46/// /0707 10238 20185 40192 52020 90550 22200 00245 11907 20602 333// 41907 70035 333 91208 555 11071 22075 30516 40909 60549 071067 072069 073068 080071 073070 074066
BBXX 41040 08061 99145 70530 46/// /1304 10272 20251 40109 57016 90550 22200 00275 11103 20301 3//// 41103 70017 333 91204 555 11038 22039 30453 41305 60549 128035 136033 135035 132037 133041 131042 81305 90455
BBXX 42039 08061 99288 70860 46/// /0110 10121 40226 90550 22200 00233 333 91213 555 11103 22107
BBXX 46001 08061 99563 71480 46/// /2009 10063 40136 56008 90550 22200 00052 10807 20806 300// 41304 70036 333 91212 555 11102 22110 30519 41912 60549 197093 197093 196092 196094 196092 196093
BBXX 41009 08061 99285 70802 46/// /3310 10172 20099 40187 51009 90550 22200 00240 10604 20604 300// 40901 70020 333 91213 555 11108 22113
BBXX 42057 08061 99168 70815 46/// /0308 10265 20206 40135 58009 90550 22200 00279 10703 20602 3//// 40701 70013 333 91209 555 11077 22081 30533 40511 60549 029076 046076 040072 043058 052059 049063 80510 90533
BBXX 41010 08061 99289 70785 46/// /3311 10196 40167 51011 90550 22200 00241 10605 20604 300// 41001 70023 333 91214 555 11117 22122
BBXX 44007 08061 99435 70701 46/// /3611 10047 20042 49972 58054 90550 22200 00087 10302 20302 3//// 40901 70011 333 91213 555 11115 22120 30521 40215 60549 359108 004104 007108 012114 014101 012094
BBXX 44013 08061 99423 70707 46/// /0110 10087 20083 49950 58055 90550 22200 00099 10503 20503 70013 333 91212 555 11107 22113 30450 43613 60549 010101 029096 032100 037101 038098 037091
BBXX PHCQ 08063 99384 70540 41/98 /3405 10170 20151 40199 56008 70011 8//// 22264 04216 20502 3//// 41203 5//// 80158
BBXX BAREU04 08064 99464 70528 46/// ///// 40122 57001 22224
BBXX BATFR16 08064 99382 70352 44/97 71905 10169 40243 53002 70200 8777/ 22214 00177 21402 307// 4//// 5//// 60/// ICE 0////
BBXX ZCDA9 08063 99327 71193 41998 02720 10145 20117 40180 57024 70200 80000 22254 00180 20201 307// 40401 5//// 80130
BBXX BAREU08 08064 99103 70759 46/// ///// 40101 57014 22223
BBXX BAREU54 08064 99178 70705 46/// ///// 40115 57012 22213
BBXX 42040 08061 99292 70882 46/// /0208 10087 40254 50000 90550 22200 00222 10603 20603 323// 40801 70017 333 91210 555 11078 22081 30502 40112 60549 019078 018081 011082 009083 017083 010086
BBXX 42060 08061 99163 70635 46/// /0706 10272 20225 40119 58014 90550 22200 00281 11102 20401 300// 41102 70012 333 91207 555 11059 22062 30545 40707 60549 066055 069052 062056 067053 067051 067056 80706 90546
BBXX 42036 08061 99285 70845 46/// /3611 10118 20077 40216 51007 90550 22200 00219 10905 20604 329// 40903 70026 333 91214 555 11114 22119 30508 43614 60549 000107 001105 000108 001108 000111 001111
BBXX 42019 08061 99279 70954 46/// /0305 10137 20039 40264 54000 90550 22200 10501 20401 303// 40501 70007 333 91207 555 11050 22053 30451 42807 60549 021048 281034 283048 282049 282043 284052
BBXX 46105 08061 99590 71522 46/// ///// 1//// 90550 22200 10908 70042
BBXX 42058 08061 99149 70749 46/// /0806 10272 20209 40113 58011 90550 22200 00278 10602 20501 303// 40601 70009 333 91207 555 11062 22066 30511 40707 60549 076058 075058 073056 075061 080061 076060 80807 90511
BBXX 42035 08061 99292 70944 46/// /0604 10095 20024 40275 52003 90550 22200 00163 10301 20301 70004 333 91206 555 11040 22041 30512 40708 60549 057039 061040 063041 062046 067045 067049
BBXX 41001 08061 99347 70727 46/// ///// 10234 20186 40065 56020 90550 22200 00230 10910 70050
BBXX 41049 08061 99275 70630 46/// /1106 10237 20167 40184 58012 90550 22200 00249 11004 20602 300// 41003 70020 333 91208 555 11068 22071 30510 41109 60549 109065 105071 111071 108073 095063 080064 81108 90510
BBXX 42020 08061 99270 70967 46/// /0703 10144 20046 40267 58005 90550 22200 00242 10502 20401 304// 40501 70008 333 91206 555 11034 22035 30459 40906 60549 079032 102030 077027 093031 072037 080038
BBXX 41012 08061 99300 70805 46/// /3211 10118 40189 51009 90550 22200 00222 333 91214 555 11119 22124
BBXX 42059 08061 99151 70675 46/// /0905 10276 20233 40115 58009 90550 22200 00282 11102 20402 3//// 41102 70011 333 91206 555 11054 22056 30501 41007 60549 093051 093051 090053 089055 096056 097057 80906 90451
BBXX 42001 08061 99259 70897 46/// /0109 10160 20074 40241 58006 90550 22200 00238 10906 20604 3//// 40904 70028 333 91212 555 11091 22095 30511 40212 60549 008088 007085 014080 012090 011088 002075
BBXX 41036 08061 99342 70770 46/// ///// 10129 20075 40120 51043 90550 22200 00174 10606 70029
BBXX 41048 08061 99320 70696 46/// /1912 10227 20175 40168 56005 90550 22200 00230 10604 20603 3//// 41002 70020 333 91214 555 11118 22126 30456 41915 60549 195119 197114 194115 193121 194129 193129 81914 90456
BBXX 42012 08061 99301 70876 46/// /3611 10060 20027 40248 50000 90550 22200 00196 10402 20402 70010 333 91213 555 11110 22115 30531 43613 60549 357105 356105 001102 358093 355091 358086
BBXX 42065 08061 99149 70750 46/// /0805 10270 20214 90550 22200 10602 20501 3//// 40601 70008 333 91207 555 11058 22061 30548 40807 60549 077054 078051 074052 070053 065050 065052 80806 90548
BBXX 41044 08061 99217 70587 46/// /0710 10265 20217 40123 57014 90550 22200 00269 10906 20604 300// 40905 70032 333 91213 555 11105 22111 30547 40613 60549 069099 070097 070093 071092 072076 075079 80711 90547
BBXX 44066 08061 99396 70726 46/// /2916 1//// 49935 55029 90550 22200 00134 10707 20707 70034 333 91220 555 11167 22178 30507 42221 60549 286154 274161 239142 225156 217165 208153
BBXX 41047 08061 99275 70715 46/// /1509 10249 40174 57006 90550 22200 00253 11105 20703 305// 41103 70023 333 91210 555 11085 22090 30451 41411 60549 146086 142085 144086 142089 144090 142093 81410 90517
BBXX CG2350 08064 99433 70798 46/// /2312 10011 21033 40120 55001 7//// 8//// 22200 0//// 2////
BBXX CGDS 08064 99447 70755 46/// /2704 11015 21034 4//// 5//// 7//// 8//// 22200 0//// 2////
BBXX 45002 08061 99453 70864 46/// /2710 11007 21044 39929 40148 55000 90550 22200 10402 20402 70012 333 91212 555 11103 22110 30523 42813 60549 268097 268102 270106 270104 268099 270102
BBXX 45008 08061 99443 70824 46/// /2911 10015 39907 40124 53017 90550 22200 00065 10504 20504 70018 333 91213 555 11113 22119 60549 288109 284108 285105 286105 284104 289113
BBXX VCPX 08064 99445 70827 43/98 /3025 10001 2//// 41013 54/// 70000 8//// 22232 00056 20502 3//// 4//// 5//// 6//// 8//// ICE /////
BBXX WDF5483 08064 99415 70816 43/// /2408 11005 2//// 40176 5//// 7//// 8//// 222// 0//// 2//00 3//// 4//// 5//// 6//// 8//// ICE /////
BBXX BATFR48 08064 99150 51454 46/// /0812 10269 20205 40129 22242 00304
BBXX BATFR47 08064 99247 51312 46/// /0415 10242 20202 40179 52019 22222
BBXX BATEU07 08064 99382 31371 46/// /1218 10167 40073 58016 22223
BBXX BATFR59 08064 99178 31630 46/// /0915 10267 20242 40067 55002 22212 00284
BBXX H9UY 08064 99101 70935 41798 20407 00/// 10250 40124 54/// 70200 82141 9//// 22273 04270 20301 320// 40402 5//// 6//// 80230
BBXX FVNM 08064 99103 71087 46/// /0913 10267 20225 40123 51010 22221 00270
BBXX WDC6698 08064 99097 71435 43/// /1120 10268 20261 40100 5//// 7//// 8//// 222// 04252 2//// 3//// 4//// 5//// 6//// 8//// ICE /////
BBXX 41043 08061 99211 70650 46/// /0809 10250 20228 40138 58013 90550 22200 00273 10906 20704 300// 40905 70030 333 91211 555 11093 22098 30523 40813 60549 075089 080089 085102 072090 072091 080084 80911 90523
BBXX A8EH5 08061 99471 71425 41398 81810 10085 20074 40340 54000 70352 8571/ 22273 00070 20503 328// 41404 5//// 80080
BBXX LADR4 08064 99206 71585 41898 30618 00/// 10240 2022/ 40170 52015 70200 83300 22273 00260 20504 3//// 4//// 5//// 6//// 80210
BBXX WDD6126 08064 99388 70600 41998 61919 10185 2015/ 40164 56009 70222 80006 22224 00189 20202 319// 40302 5//// 6//// 80165 ICE /////
BBXX C6JS 08063 99415 70408 41397 81312 10170 2015/ 40210 51020 70311 89/// 22224 20603 3//// 4//// 5//// 80160
BBXX WABS 08064 99396 71254 41498 73618 10111 2004/ 40220 57015 70222 874// 22283 0//// 2//// 3//// 4//// 5//// 6//// 80078 ICE /////
BBXX ELXU2 08060 99236 71318 41498 70909 10195 20147 40232 51010 70022 83267 22223 2//03 304// 40605 5//// 80165
BBXX WCOB 08064 99262 70783 41398 32705 10240 2021/ 40170 54000 7//11 831// 22273 0//// 20102 3//// 4//// 5//// 6//// 80220 ICE /////
BBXX DQVJ 08061 99541 71623 41/97 /1118 10065 20044 40010 56010 7//22 8//// 22263 00059 20803 320// 41206 5//// 80055
BBXX TFEA 08061 99650 70129 42/99 40314 11014 49955 22262 00047
BBXX TFBKF 08064 99635 70202 46/// ///// 22200 10605 70023
BBXX TFBLK 08064 99657 70248 46/// ///// 22200 10909 70044
BBXX TFDRN 08064 99658 70212 46/// ///// 22200 10803 70017
BBXX TFGRS 08064 99663 70182 46/// ///// 22200 10705 70024
BBXX TFGRV 08064 99638 70225 46/// ///// 22200 10703 70017
BBXX TFGSK 08064 99641 70229 46/// ///// 22200 10603 70016
BBXX TFHFN 08064 99642 70152 46/// ///// 22200 10603 70014
BBXX TFKGR 08064 99657 70136 46/// ///// 22200 10706 70032
BBXX TFSRT 08064 99633 70203 46/// ///// 22200 10707 70036
BBXX TFSTD 08064 99664 70234 46/// ///// 22200 10910 70052
AAXX 08064 78526 NIL
AAXX 08064 78543 NIL
AAXX 08064 04005 42989 00000 11076 21112 49948 52007 555 3/201
AAXX 08064 04018 41/10 90318 11028 21035 49919 52005 77377 555 3//23
AAXX 08064 04030 42580 70508 11019 21062 49914 57002 70272 86531 555 3//13 82628 86645
AAXX 08064 04048 NIL
AAXX 08064 04063 42682 81905 11078 21159 49970 52007 8647/ 555 3//05
AAXX 08064 04077 NIL
AAXX 08064 04082 NIL
AAXX 08064 04097 41584 80219 11012 21125 49961 57008 71582 883// 555 3/419
AAXX 08064 91925 06/// /3503 10244 20217 30051 40112 51020 69981 333 55056 69987 90710 91111 555 69925 10716 59010
AAXX 08064 91929 04/85 /1008 10268 20224 30120 40123 51013 60002 700// 333 10306 20268 55/// 60007 70071 90710 91114 555 60005
AAXX 08064 91938 01570 42504 10275 20222 30127 40129 53017 69902 70286 84800 333 10308 20274 30/// 55063 60007 79999 82820 83650 90710 91106 555 60005 12809 59011
AAXX 08064 91944 06/// /0508 10266 20209 30132 40135 51021 60002 333 10282 20262 55113 60007 70000 90710 91110 555 60005
AAXX 08064 91954 06/// /2202 1//// 2//// 30132 4//// 51011 60001 333 55/// 60007 555 59030
AAXX 08064 91958 06/// /0413 10206 20189 30165 40167 51016 69921 333 55000 69927 90710 91135 555 69925 10535 59028
AAXX 08064 91943 NIL
AAXX 08064 91945 NIL
AAXX 08064 91948 NIL
AAXX 08061 15015 01597 82505 10018 21002 39484 42705 53017 60022 7687/ 885// 333 10023 21010 3/102 43997 6///7 70021 91008 91115 92820
AAXX 08061 15020 02597 51002 10026 21027 39874 40075 53011 60002 82570 333 10047 20015 34102 60007 70000 91003 91104
AAXX 08061 15090 01596 82601 10027 21006 39994 40088 53004 60002 71022 8657/ 333 10041 21011 34101 55300 10041 20003 3//// 60007 70000 91002 91102
AAXX 08061 15108 01/91 92728 11075 21075 37964 48403 57017 60002 74511 333 11074 21091 3//// 43005 60007 70000 91034 92860
AAXX 08061 15120 01697 63101 10001 20000 39608 40115 51007 69912 70162 82570 333 10015 21020 34103 55300 10045 2//// 3//// 69917 70001 91002 91102 92707 93401
AAXX 08061 15150 02997 61602 10006 20006 39877 40094 55008 60002 86030 333 10011 21008 34103 60007 70000 91005 91106
AAXX 08061 15170 01597 81402 11001 21001 39325 42727 53004 60032 72682 883// 333 10000 21038 3/103 47003 60037 70033 91004 91105 92800
AAXX 08061 15200 01597 82102 10029 20019 39997 40144 53017 69962 70262 885// 333 10041 20016 31000 69917 70006 91005 91106
AAXX 08061 15230 01597 73001 10006 20006 39848 40149 53013 69962 76166 87500 333 10008 21034 31104 55300 10116 20003 3//// 69947 70006 91002 91103
AAXX 08061 15260 02598 81201 11010 21012 39587 40136 53003 60002 8357/ 333 11001 21061 34106 60007 70000 91002 91102 92600
AAXX 08061 15280 01/90 92514 11095 21109 37397 47925 51006 60012 77174 333 11094 21134 3//// 48024 60017 70011 91020 92815 92966 96038 96041
AAXX 08061 15292 01597 81802 10028 20028 39858 40158 53012 60052 70282 8537/ 333 10057 20017 31100 60027 70054 91004 91104 95090
AAXX 08061 15310 01995 72004 10007 20007 30033 40121 56007 60002 71041 82036 333 10034 20002 31102 55300 10115 20002 3//// 60007 70000 91007 91109
AAXX 08061 15335 01496 60501 10021 20019 30121 40128 57008 60002 710// 86600 333 10025 21032 34103 60007 70000 91001 91105 92611
AAXX 08061 15346 01596 80600 11016 21018 39849 40149 55004 60002 71011 8457/ 333 10015 21025 34104 60007 70000 91001 91102 92600
AAXX 08061 15350 01597 72105 10003 20000 30005 40128 55003 60002 70141 87500 333 10032 21010 31102 60007 70000 91007 91108 92600
AAXX 08061 15360 01492 82206 10022 20022 30114 40128 58003 60002 74422 886// 222// 06066 20301 333 10054 20006 3//// 60007 70009 91007 91107 92412
AAXX 08061 15410 01596 80000 10004 20003 30056 40154 53002 60032 76161 8802/ 333 10012 21027 31106 6///7 70030 91001 91102
AAXX 08061 15420 01997 62402 11014 21015 30027 40142 55004 60002 70341 86070 333 10025 21022 34104 55300 0//// 20000 3//// 60007 70002 91003 91103 92600
AAXX 08061 15450 01595 81801 11001 21001 39907 40149 50007 60012 76161 8652/ 333 10028 21037 35104 55300 00200 20004 30005 60017 70010 91002 91104 92707 93405 96010
AAXX 08061 15460 01492 81300 11006 21006 30114 40139 57010 60002 7444/ 886// 333 10053 21007 31102 60007 70012 91001 91102
AAXX 08061 15470 01993 62601 11033 21033 30020 40152 53003 60002 7484/ 86070 333 10021 21040 34106 60007 70000 91001 91101 92712
AAXX 08061 15480 01996 22501 10013 20013 30126 40143 56009 60002 71041 80001 222// 06078 2//// 333 10058 21002 31101 60007 79999 91002 91105 92426 92600
AAXX 08064 78255 42559 10000 10215 20201 30005 40154 57010 81500 333 81820
AAXX 08064 78317 NIL
AAXX 08064 78318 NIL
AAXX 08064 78325 NIL
AAXX 08064 78333 NIL
AAXX 08064 78338 NIL
AAXX 08064 78348 NIL
AAXX 08064 78349 NIL
AAXX 08064 78353 NIL
AAXX 08064 78360 NIL
AAXX 08064 78367 NIL
AAXX 08064 78369 NIL
AAXX 08064 48566 32560 20203 10315 20228 30076 40084 57020 82105 333 59009
AAXX 08061 01241 16/// /1502 10011 20002 39968 49979 52010 6//// 333 21029 91107
AAXX 08064 91165 NIL
AAXX 08064 91182 NIL
AAXX 08064 91190 NIL
AAXX 08064 91212 NIL
AAXX 08064 91217 NIL
AAXX 08064 91285 NIL
AAXX 08064 91317 NIL
AAXX 08064 91334 11474 80908 10270 20241 30064 40067 55005 60131 70282 83171 333 56299 70790 555 90806
AAXX 08064 91348 NIL
AAXX 08064 91356 NIL
AAXX 08064 91366 NIL
AAXX 08064 91369 NIL
AAXX 08064 91371 NIL
AAXX 08064 91376 11474 60609 10287 20252 30059 40063 53007 60031 70281 84801 333 561/9 70030 555 90806
AAXX 08064 91408 11469 82205 10263 20250 30024 40062 57012 60071 78082 86908 333 569/9 70114 555 90806
AAXX 08064 91413 NIL
AAXX 08064 91425 NIL
AAXX 08064 91434 NIL
AAXX 08064 91765 NIL
BBXX UCSJ 08061 99693 10437 41697 82408 10013 40002 52030 70222 882// 22211 20302
BBXX MGRH9 08063 99339 31715 41598 61308 10180 20116 40166 52012 70211 82578 22223 00179 20101 323// 40705 5//// 80145
BBXX UANA 08061 99780 10338 41/97 32212 10031 49942 52003 70110 83100 22272 04041 20609
BBXX DHEE 08063 99491 70131 41/98 22439 10135 20090 40155 56025 70122 8//// 22263 00140 2//// 80110
BBXX UFJN 08061 99711 10320 41/98 83108 11000 49974 54000 70022 88/// 22200 0//// 20301
AAXX 08064 91222 NIL
AAXX 08064 91245 NIL
AAXX 08064 91323 NIL
AAXX 08064 91339 NIL
AAXX 08064 91343 NIL
AAXX 08064 91353 NIL
AAXX 08064 91442 NIL
AAXX 08064 47101 32660 73205 10042 21040 30102 40199 57015 85510
AAXX 08064 47105 469// /0707 10037 20012 30158 40191 54000
AAXX 08064 47108 32962 02706 10023 21093 30106 40214 57016
AAXX 08064 47115 41530 80720 10008 20007 39889 40166 55004 77177 8682/ 333 92045
AAXX 08064 47133 32665 63210 10038 21067 30129 40215 55013 85500
AAXX 08064 47138 32962 63206 10094 21057 30173 40176 55005 80001 333 92022
AAXX 08064 47159 32965 63205 10111 21045 30085 40169 57013 80001 333 92022
AAXX 08064 47165 32668 73618 10045 21023 30178 40225 56006 87500 333 92035
AAXX 08064 47168 32665 63420 10072 21042 30116 40195 55003 85502 333 92025
AAXX 08064 47184 41665 83416 10088 20027 30196 40221 56002 72162 8552/ 333 92055
AAXX 08061 33135 31395 81605 11017 21025 39915 40098 57004 71022 886// 333 21022 88707
AAXX 08061 33317 NIL
AAXX 08061 33345 32297 81604 10005 21012 39886 40094 54000 886// 333 21016 88706
AAXX 08061 33393 11225 82305 10012 21004 39663 40057 52020 60042 78582 889// 333 21008 43004 86705
AAXX 08061 33506 31/92 90000 11034 21034 39940 40143 57004 74540 333 21041
AAXX 08061 33587 31395 82302 10001 21005 39830 40097 57013 71042 886// 333 21019 88709 555 30107
AAXX 08061 33631 11596 81101 10005 21001 39944 40090 52017 60042 71022 8357/ 333 20004 43001
AAXX 08061 33663 32597 82901 10023 20001 39973 40070 57001 8752/ 333 20006 87630
AAXX 08061 33658 11497 83304 10032 21024 39776 40076 52023 69902 78082 889// 333 21011 86712
AAXX 08061 33711 31294 81503 11030 21034 39916 40133 57002 71041 886// 333 21052 88705
AAXX 08061 33791 31/01 92902 11024 21024 39991 40147 53013 74942 333 21051 93604
AAXX 08061 33837 31550 82001 10038 20031 30069 40121 56006 71022 83551 333 20009
AAXX 08061 33924 NIL
AAXX 08061 33946 11256 80604 10032 20030 39902 40125 58005 60022 71062 83602 333 20029 83704
AAXX 08061 34300 31219 80000 11017 21022 39953 40150 57005 72822 886// 333 21019 88706
AAXX 08061 34504 31/07 90903 11006 21006 39950 40133 57008 74742 333 21010
AAXX 08061 34519 11130 80503 10024 20016 39849 40126 57006 60072 78084 889// 333 20022 87703
AAXX 08061 34601 NIL
AAXX 08064 47090 41512 80513 10009 20003 30190 40213 52018 77177 8672/ 333 92064
AAXX 08064 47095 31558 73203 11002 21064 30023 40217 57013 70522 85510
AAXX 08064 47097 329// /2906 10038 21082 30110 40207 55014
AAXX 08064 47098 329// /3205 10032 21076 30072 40208 57016
AAXX 08064 47099 329// /2707 10019 21088 30180 40217 57019
AAXX 08064 47100 31365 71404 11004 21042 39257 40187 55010 77072 87500
AAXX 08064 47102 32668 62912 11033 21089 30073 40259 55008 86500
AAXX 08064 47104 41565 83608 10021 20006 30094 40193 53003 76062 8682/
AAXX 08064 47106 329// /3606 10044 20007 30132 40182 55004
AAXX 08064 47112 31659 23211 10023 21073 30134 40220 57016 70500 81500 333 92024
AAXX 08064 47114 32662 72309 10041 21080 30011 40195 57015 87500
AAXX 08064 47119 32660 12906 10028 21058 30173 40216 56014 81500
AAXX 08064 47121 329// /2304 10045 21067 39894 40190 55009
AAXX 08064 47127 329// /2708 10040 21065 30060 40203 56016
AAXX 08064 47129 32568 72912 10027 21045 30197 40233 56011 87500
AAXX 08064 47130 32670 63212 10072 21022 30108 40169 56010 85500 333 92044
AAXX 08064 47131 32665 42905 10028 21051 30146 40218 55009 84500
AAXX 08064 47135 329// /2510 10032 21049 39895 40197 57012
AAXX 08064 47136 32662 52908 10052 21038 30015 40188 55005 82501
AAXX 08064 47137 329// /2705 10053 21059 30075 40194 57012
AAXX 08064 47140 32670 63214 10028 21031 30198 40227 56008 86500 333 92024
AAXX 08064 47143 32663 62908 10071 21037 30115 40194 55012 84501
AAXX 08064 47145 32662 62909 10018 21051 30189 40216 55009 86500
AAXX 08064 47146 32668 62911 10044 21068 30153 40220 56010 86500
AAXX 08064 47150 41562 83405 10021 21042 30208 40228 56007 78582 888//
AAXX 08064 47152 32665 63409 10100 21030 30123 40165 55017 81501
AAXX 08064 47154 329// /2906 10042 21011 30138 40199 55004
AAXX 08064 47155 32965 60207 10102 21046 30128 40173 57015 84031
AAXX 08064 47156 41568 83604 10041 21006 30134 40224 56009 76062 8572/
AAXX 08064 47157 32663 52710 10049 21036 39910 40181 57013 81501
AAXX 08064 47162 32665 73608 10103 20000 30136 40176 57013 81502 333 92023
AAXX 08064 47169 32672 73425 10050 21006 30137 40232 55005 87500 333 92066
AAXX 08064 47170 32668 63413 10056 21027 30174 40218 56005 85502 333 92024
AAXX 08064 47171 429// /3205 10039 21033 30171 40227 57010
AAXX 08064 47172 329// /2908 10045 21030 30154 40221 57008
AAXX 08064 47173 329// /3209 10038 21041 30104 40216 55007
AAXX 08064 47174 32662 73210 10039 21025 39998 40202 57012 85501
AAXX 08064 47175 32570 83213 10025 21014 39637 40217 57008 8552/ 333 92024
AAXX 08064 47185 41561 83233 10088 20034 30119 40210 55004 76062 8572/ 333 92047
AAXX 08064 47188 32665 83606 10081 20031 30188 40210 58001 8452/ 333 92022
AAXX 08064 47189 32665 73404 10102 20041 30145 40205 52010 85501 333 92022
AAXX 08064 47192 32665 63407 10078 21046 30149 40186 55013 81501
BBXX CG2960 08064 99453 70800 46/// /3408 11001 21042 40093 53007 7//// 8//// 22200 0//// 2////
AAXX 08061 14240 12665 42601 10054 20023 30023 40181 52044 60002 83530 333 20017 31101
AAXX 08061 14258 NIL
AAXX 08061 14445 12675 60201 10131 20075 30011 40164 52011 60002 85830 222// 00160 333 20115 31006 85896 82399 92301
AAXX 08064 08001 NIL
AAXX 08064 08015 12965 01804 10059 20041 39891 40307 57002 60002 333 20058 30004 50154 55084 70000
AAXX 08064 08023 12867 12107 10132 20051 30226 40298 57003 60002 81040 333 20120 50113 55029 70000
AAXX 08064 08027 12875 71704 10106 20090 39984 40298 57008 60012 87070 333 20105 31008 50100 55019 70012
AAXX 08064 08045 07/// /1902 10107 20102 39989 40302 56009 69942 721// 333 20107 3/011 55007 69907 70014
AAXX 08064 08141 11/02 93403 11004 21004 39437 40337 56005 60002 74544 333 21004 31100 55064 70000 89/92
AAXX 08064 08160 12965 02504 10046 20031 39992 40312 53001 60002 333 20046 55084 70000
AAXX 08064 08181 02568 23512 10070 20027 30279 40285 53007 60002 81170 333 20069 3/009 55045 60007 70000
AAXX 08064 08221 01132 23603 11008 21016 39614 40335 56004 60002 74041 82600 333 21008 31101 55067 60007 70000
AAXX 08064 08231 12970 02001 10001 21013 39198 48574 55004 60002 333 20001 31101 50154 55080 70000
AAXX 08064 08261 11/00 91601 10038 20038 39827 40326 57005 60002 74744 333 20030 31000 55000 70000 89/00
AAXX 08064 08284 02965 02903 10064 20039 30214 40292 53003 60002 333 20064 31013 50184 55087 60007 70000
AAXX 08064 08306 12565 10000 10058 20057 30279 40285 53001 60002 81800 333 20049 55088 70000
AAXX 08064 08314 02570 12902 10108 20094 30181 40286 53002 60002 81100 333 20098 3//// 55073 60007 70000
AAXX 08064 08430 12980 00000 10062 20044 30216 40293 57002 60002 333 20055 30004 50311 55095 70000
AAXX 08064 08482 12970 22907 10080 20058 30274 40283 56002 60002 80001 333 20080 55086 70000
AAXX 08064 16622 12960 01104 11006 21018 30179 40190 51001 60002 333 21006 30/// 50180 55000 70000 90730 91108 555 10000 30104 20000 89046 99094 30000 10072 2//// 30044 4//// 5//// 40000 47668 44240 50000 51010
AAXX 08064 16641 12570 10000 10040 20035 30189 40194 56005 60002 81200 333 20040 30/// 55056 70000 90730 91103 555 10000 30130 20000 89047 99100 40000 47674 44220 50000 50038
AAXX 08064 16682 12960 00000 10068 20035 30173 40191 52003 60002 333 20046 30/// 50270 55013 70000 90730 91107 555 10000 30148 20000 89045 99095 30000 10070 20095 30102 40128 50147 60195 40000 47661 44210 50000 50054
AAXX 08064 16716 12960 00000 10054 21004 30171 40190 52011 60002 333 20038 30/// 55029 70022 555 10000 30144 20000 89064 99090 40000 47654 44160 50000 50032
AAXX 08064 16734 16/// /9905 10119 20046 30144 40206 52007 69902 333 20096 90730 91113 555 10000 30155 20000 89043 99092 60000 65555 60002
AAXX 08064 16743 NIL
AAXX 08064 16749 11460 62916 10140 20098 30127 40142 52025 60092 75096 85850 333 20138 31/// 55074 70099 82818 85620 90730 91127 555 10000 30160 20000 89051 99089 40000 47628 44220 50000 50118 60000 60087 60300 70000 77D// 7RV//
AAXX 08064 16754 11565 23415 10144 20066 30140 40187 52017 69922 70160 82200 333 20134 31/// 50340 55003 70082 90730 91130 555 10000 30156 20000 89064 99091 40000 47636 44190 50000 50106 60000 60002 60020 70000 77/// 7R///
AAXX 08061 38353 41/96 /0000 11074 21083 39386 40339 58004 71002 8//// 333 21108
AAXX 08061 38613 42999 30201 11024 21097 40308 58007 80002 333 21076
AAXX 08061 38616 42597 30000 11010 21049 39261 40309 54000 83500 333 21075
AAXX 08061 38345 32999 12901 11022 21081 38841 48528 58010 81030 333 21103
AAXX 08061 36911 42999 50000 11057 21091 39311 40322 54000 85030 333 21104
AAXX 08061 36974 32998 02602 11098 21145 37999 48570 57035 333 21158
AAXX 08061 36982 42999 03303 11138 21199 36564 47191 54000 333 21250
BBXX CG2960 08064 99453 70800 46/// /3408 11001 21042 40093 53007 7//// 8//// 22200 0//// 2////
AAXX 08061 14241 12970 42301 10016 20004 30051 40185 51047 60002 84030 333 20002 31///
AAXX 08061 14284 11970 82702 10057 20026 30064 40174 52036 60022 70262 8802/ 333 20031 31001 70021
AAXX 08061 14307 31950 00000 10021 20004 30092 40171 52024 71000 333 20014 30///
AAXX 08061 14317 NIL
AAXX 08061 14431 12670 32604 10119 20091 30071 40164 53014 60002 83500 333 20055 31/// 83640
AAXX 08061 14444 32570 53202 10106 20086 30141 40170 52010 84830 333 20076 30///
AAXX 08061 14474 12575 60805 10095 20058 39985 40176 55000 60002 85230 333 20067 31///
AAXX 08064 16643 12660 20308 10090 20073 30203 40209 53001 60002 82200 333 20070 30/// 70000 90730 91112 555 10000 30130 20000 89049 99098 40000 47687 44240 50000 50082
AAXX 08064 16648 12960 00000 11010 21023 30102 40195 52006 60002 333 21014 30/// 50030 55031 70003 90730 91103 555 10000 30074 20000 89069 99097 30000 10020 2//// 30060 40070 5//// 6//// 40000 47607 44210 50000 51014
AAXX 08064 16650 12560 30000 10028 20001 30167 40171 52007 60062 83400 333 20028 31/// 55017 70170 90730 91105 555 10000 30098 20000 89070 99090 30000 10060 20068 30086 40076 50128 60142 40000 47659 44240 50000 50018 60000 60064 60200
AAXX 08064 16684 12565 10000 10068 20050 30146 40174 53007 60002 81100 333 20066 30/// 55014 70062 90730 91105 555 10000 30116 20000 89059 99085 40000 47640 44210 50000 50060
AAXX 08064 16732 11570 33518 10132 20061 30170 40182 52019 60002 702// 83200 333 20122 31/// 55000 70025 90730 91134 555 10000 30154 20000 89068 99088 40000 47650 44140 50000 50098
AAXX 08064 16614 12960 00000 11032 21046 39419 40234 53004 60002 333 21044 31/// 55024 70013 90730 91106 555 10000 30050 20000 89048 99094
AAXX 08064 16627 12960 00000 11004 21010 30175 40179 53002 69912 333 21004 31/// 5///0 55002 70049 90730 91105 555 10000 30072 20000 89066 99100 30000 10048 20052 30080 40096 50114 6//// 40000 47660 44200 50000 51006 60000 60001 60030
AAXX 08064 16667 12960 03004 10082 20019 30167 40173 53004 69902 333 20082 30/// 55007 79999 90730 91112 555 10000 30128 20000 89064 99088 30000 20096 30118 40000 47655 44200 50000 50056 60000 65555 60010
AAXX 08064 16675 17/// /2805 10014 21008 30178 40192 52006 69902 741// 333 20011 90730 91109 555 10000 30132 20000 89043 99095 60000 65555 6////
AAXX 08064 16710 36/// /9901 11014 21023 39441 40245 52010 333 21021 90730 91105 555 10000 30070 20000 89057 99///
AAXX 08064 16723 NIL
AAXX 08064 16738 17/// /3507 10121 20015 39994 40194 52010 69902 741// 333 20114 90730 91118 555 10000 30148 20000 89/// 99087 60000 65555 60041
AAXX 08064 16746 12560 20000 10102 20068 30013 40198 52015 60002 82100 333 20102 30/// 55022 70081 90730 91106 555 10000 30142 20000 89059 99095 40000 47540 44195 50000 50086
BBXX LDGJ 08061 99674 10143 43/// /0607 10015 21045 49996 5//// 222/1 04073 1//// 3//// 4//// 5////
BBXX LF4H 08064 99596 10022 46/// /1710 10054 21008 49998 57013 8//// 22200 06087 10704 70021 333 91122
BBXX LGWS 08061 99290 70112 43/// /0706 10186 20129 40227 5//// 222/0 04177 1//// 3//// 4//// 5////
BBXX LMEL 08061 99603 10053 43/// /1403 10013 21012 40007 5//// 222/2 04088 1//// 3//// 4//// 5////
BBXX 46001 08061 99563 71480 46/// /2009 10063 40136 56008 90550 22200 00052 10807 20806 300// 41304 70036 333 91212 555 11102 22110 30519 41912 60549 197093 197093 196092 196094 196092 196093
BBXX 46026 08061 99378 71228 46/// /3106 10100 40214 56008 90550 22200 00116 11402 20401 329// 41401 70008 333 91206 555 11058 22060 30459 42908 60549 305055 288054 284055 284055 289058 289062
BBXX 46028 08061 99357 71219 46/// /3209 10117 40199 57003 90550 22200 00131 10603 20603 328// 41201 70016 333 91211 555 11100 22106 30539 43211 60549 319094 323097 321096 323098 324094 321090
BBXX 46042 08061 99368 71224 46/// /3508 10110 40210 54000 90550 22200 00118 11303 20502 332// 41301 70013 333 91210 555 11085 22090 30456 43510 60549 353081 354082 352079 352085 354087 346087
BBXX CG2958 08064 99487 71235 46/// /3502 10033 20020 40334 51008 7//// 8//// 22200 0//// 2////
BBXX CG2965 08064 99487 71235 46/// /3502 10034 20017 40326 52008 7//// 8//// 22200 0//// 2////
BBXX CGBR 08064 99541 71305 46/// /3310 10003 20002 40337 58010 7//// 8//// 22251 00083 2////
BBXX CGBY 08064 99487 71235 46/// /3402 10026 20008 40325 52008 7//// 8//// 22200 0//// 2////
BBXX CGDR 08064 99501 71275 46/// /0405 10044 21024 40323 51003 7//// 8//// 22200 0//// 2////
BBXX CGJK 08064 99484 71234 46/// /0204 10024 20016 40320 50003 7//// 8//// 22200 0//// 2////
BBXX DQVG 08063 99319 71207 41/98 53220 10145 20109 40130 51010 70311 820/4 22264 20305 331// 40505 5//// 80126
BBXX WABS 08064 99396 71254 41498 73618 10111 20040 40220 57015 70222 874// 22283 0//// 2//// 3//// 4//// 5//// 6//// 80078 ICE /////
BBXX WSLH 08064 99342 71460 41498 71123 10170 20140 40253 51020 71511 8724/ 22215 00180 2//// 3//// 4//// 5//// 6//// 80150 ICE /////
AAXX 08061 26645 11697 11401 11018 21026 39791 40054 52011 60022 70171 81500 333 21020 47004 555 90010
AAXX 08061 26659 11360 81503 11003 21018 39864 40081 53012 69942 70272 886// 333 21007 41997 88709 555 90010
AAXX 08061 26763 31358 81603 11004 21019 39863 40093 53010 71022 886// 333 21010 88709 555 90010
AAXX 08061 26825 31558 71104 11002 21011 39826 40011 53003 71022 875// 333 21015 87620
AAXX 08061 26832 32560 71002 10001 21020 39838 40033 53006 875// 333 21010 87630 555 90010
AAXX 08061 26887 11496 81101 11030 21034 39908 40120 53010 60022 71022 886// 333 21030 47003 88713 555 90011
AAXX 08061 26961 31356 81203 11013 21024 39877 40073 57003 71022 885// 333 21015 88707 555 90011
AAXX 08061 33027 11996 81302 11015 21023 39887 40057 57008 69922 72272 8802/ 333 21020 47997 555 90013
BBXX 44060 08061 99413 70721 46/// ///10 10091 49918 58069 90600 22200 00122 333 91211 555 11108 22113
BBXX 44039 08061 99411 70727 46/// /3508 10103 20103 49934 90545 22200 00114 10402 70008 333 91212
AAXX 08064 64810 32460 60000 10230 20215 30071 40097 83530 333 20215 55/// 58005 83613 86364
AAXX 08064 64820 32460 60000 10255 20246 30098 40107 82902 333 20248 59007 82613 86070 94947 95837
BBXX BATUK01 08064 99560 70032 46/// /1808 10047 20009 49962 58094 22200 00044
BBXX 41101 08064 99146 70562 46/// /1006 10265 20233 40098 57020 22200 00276 10904 70018
BBXX 61001 08064 99434 10078 46/// /0405 10153 20119 40178 52022 22200 00160 10804 70022
AAXX 08064 60106 31/02 82202 10045 20045 40307 57002 7454/ 89/// 333 20041 88///
AAXX 08064 60127 32960 00000 10048 20026 39686 40306 5/001 333 20045 31003
AAXX 08064 60318 32956 02006 10087 20079 40282 58004 333 20076
AAXX 08061 14008 12/99 13220 11094 21140 37432 47975 51013 60002 81800 333 21094 47075 55016 70000 91136 92868 95160 444 18290
AAXX 08061 14015 12765 20701 11002 21010 39828 40199 53038 60002 81530 333 21002 34105 55001 70000 81650 555 20017 30030
AAXX 08061 14023 12699 12403 10027 21031 39888 40189 51034 60002 81500 333 21002 31104 55024 70000 81640 555 20022 30031
AAXX 08061 14024 12399 10105 10006 21065 39071 48459 52031 60002 81141 333 20000 30103 55040 70000 81807 91112 95000
AAXX 08061 14026 12699 13205 10063 21050 39866 40189 53042 60002 81800 333 20014 31102 55021 70000 81837 81650 91111 555 20021 30033
AAXX 08061 14031 12998 03006 10044 21028 39952 40184 52027 69922 333 20000 31104 55009 70002 555 20017 30020
AAXX 08061 14105 11996 01204 10020 20013 30170 40175 52028 60002 710// 333 20015 31001 55032 70000 555 20042 30058
AAXX 08061 14106 11/92 90000 11001 21004 30103 40174 52028 60002 74541 333 21004 31101 55001 70000 92600 95090 555 20028 30036
AAXX 08061 14112 12/97 03201 11017 29098 60004 333 10081 21020 3/104 70000
AAXX 08061 14121 12998 00000 11008 21012 39916 40192 52044 60002 333 21010 31104 55032 70000 555 20017 30029
AAXX 08061 14122 12780 12602 11012 21016 39991 40195 52043 60002 81500 333 21014 34/// 70000 81650
AAXX 08064 17024 11440 82907 10089 20088 30050 40127 52019 60172 76162 8572/ 333 20089 32009 55005 70182 83712 85628 88460 91114 92436
AAXX 08064 17056 12970 02902 10039 20038 30169 40173 56002 60022 333 20034 31002 55000 20117 70042 91110 92418
AAXX 08064 17067 11562 72402 10082 20074 30140 40162 52018 60062 78088 87200 333 20082 32008 55000 70132 87830 91107 92407
AAXX 08064 17092 12660 60000 11055 21070 38860 48478 56004 60002 84550 333 21096 34111 50044 55076 21043 8463 8 86359
AAXX 08064 17112 12965 01003 10035 20019 30179 40181 53001 60002 333 20035 32001 55005 20046 70078 91111 92417
AAXX 08064 17115 11660 42605 10045 20032 30123 40175 52012 60102 70181 83130 333 20041 32003 50334 55000 20121 70302 83835 84360
AAXX 08064 17116 11657 72903 10072 20063 30051 40173 52019 60182 72582 84250 333 20072 32007 55000 20004 70342 84835 87360 91110
AAXX 08064 17188 11450 72706 10044 20018 39078 40143 52028 60192 71062 85470 333 20042 32004 70355 82715 84637 87360 91111
AAXX 08064 17202 12670 52701 11003 21046 39179 40244 55000 60002 83550 333 21076 34109 83635 85360
AAXX 08064 17248 11530 83002 10043 20024 38918 48436 53004 60022 76122 8552/ 333 20043 32004 55062 2//// 70016 85630 88459
AAXX 08064 17292 11670 53103 10060 20045 39381 40139 52017 60262 70182 83230 333 20060 32006 5//// 55000 20226 70508 83835 85360 91119
AAXX 08064 17300 11460 73205 10105 20088 30024 40095 53008 60122 79599 87900 333 20102 32008 50091 55/// 2//// 70140 81915 86825
AAXX 08064 17310 NIL
AAXX 08064 17330 11665 70000 10116 20107 30092 40110 56004 60232 72992 84270 333 20082 32006 50081 55017 84836 87359
AAXX 08061 15502 11515 83201 11006 21007 30116 40157 53010 69932 76164 8802/ 333 11006 21068 55047 70003 555 31107 59900 65399 70600 92600
AAXX 08061 15525 12981 32002 11008 21054 39875 40149 53002 60002 83030 333 10015 21025 70000 555 34108 571// 92601
AAXX 08061 15528 12570 50000 11010 21035 39940 40136 53003 60002 85500 333 10016 21022 55000 70000 555 34106 583// 92602
AAXX 08061 15535 11/02 90000 11019 21022 30084 40132 54000 60002 74541 333 10026 21026 55000 70000 555 34/// 598// 92602
AAXX 08061 15549 11970 01603 10014 21033 39724 40149 57007 60002 70241 333 10020 20002 70000 555 31103 571//
AAXX 08061 15552 11970 23204 10010 21004 30099 40149 57002 60002 74000 80001 222// 2//00 333 10065 21001 55000 70000 555 31103 590// 92013 92413 92600
AAXX 08061 15614 11/04 90000 11058 21061 39462 40202 57005 60002 74744 333 10024 21060 55008 70014 555 34110 597// 92602
AAXX 08061 15615 11989 22910 11114 21143 37064 47996 58007 60002 70300 80040 333 11100 21146 46999 55000 70003 444 26244 555 579//
AAXX 08061 15626 11970 00000 11064 21072 39975 40174 53004 60002 70240 333 10052 21064 55000 70002 555 34107 594// 92601
AAXX 08061 15627 11989 03218 11054 21147 37557 47982 56000 60002 70200 333 11046 21092 41/// 55000 70001 91120 555 548//
AAXX 08061 15640 12970 03202 11006 21062 39847 40170 58003 60002 333 10060 21010 55000 70000 555 34105 566// 92601
AAXX 08061 15655 12970 02303 10022 20011 30123 40157 57002 60002 222// 00078 20000 333 10072 20015 70000 555 31/// 593// 92013 92418
AAXX 08061 15712 12980 10000 11016 21042 39939 40200 53011 60002 81030 333 10072 21019 55000 70000 555 34107 583//
AAXX 08061 15730 11/00 90000 11014 21016 39775 40181 53003 60002 74741 333 10057 21017 55000 70022 555 31104 599// 92600
AAXX 08061 12105 11457 72702 10015 20012 39990 40033 52052 60072 78076 879// 333 10032 20002 3/000 43001 55031 70074 93005
AAXX 08061 12195 11450 81103 11002 21009 39785 40015 53019 60002 71022 885// 333 10003 21014 31102 70004 93000
AAXX 08061 12235 11225 83103 10004 20004 39808 40021 52048 60032 76877 8672/ 333 10021 20001 3/000 43001 55006 70025 86703 93002
AAXX 08061 12270 11412 82703 10002 20001 39806 49990 53028 69952 77172 8552/ 333 10007 20001 3/101 43997 55016 70006 93092
AAXX 08061 12280 11535 81003 10008 20005 39842 40000 53026 69902 77172 885// 333 10012 21001 31101 55004 79999 93097
AAXX 08061 12300 11470 83105 10038 20029 39967 40057 53046 60062 76022 877// 333 10041 20016 31001 55029 70090 91111 93096
AAXX 08061 12400 11558 82706 10033 20027 39829 40066 51041 60052 78182 889// 333 10039 20020 31002 55011 70088 91011 91113 93004
AAXX 08061 12435 11484 72710 10035 20009 39859 40031 51033 60032 70182 875// 333 10039 20003 31101 55051 70042 91116 93097
AAXX 08061 12495 11470 82405 10014 20010 39725 40019 51019 60042 72582 885// 333 10014 20002 3/001 43005 70037 93003
AAXX 08061 12530 11562 72604 10029 20023 39866 40067 52035 60042 72582 879// 333 10040 20012 31001 55017 70048 91010 91114 93002
AAXX 08061 12570 11257 82506 10013 20010 39716 40037 53020 60082 78387 889// 333 10018 21001 34100 55005 70080 84706 88911 91112 93001
AAXX 08061 12580 11365 82508 10021 20015 39788 40050 52019 60032 78072 873// 333 10035 20012 31101 55046 70030 87909 91116 93002
AAXX 08061 12120 11356 82503 10016 20013 30014 40021 53045 69992 76076 8672/ 333 10025 20006 31000 55015 70009 93001
AAXX 08061 12250 11345 82802 10010 20007 39920 40010 53044 60012 77162 8772/ 333 10018 20004 31000 55025 70012 93093
AAXX 08061 12295 11331 81203 10001 20001 39815 40001 53012 69942 77172 8672/ 333 10003 21013 3/102 43001 70007 86707 93094
AAXX 08061 12330 11465 82808 10036 20026 39929 40038 52038 60052 78086 889// 333 10039 20006 32000 55035 70075 91114 93001
AAXX 08061 12375 11357 82705 10010 20007 39867 49999 53024 60012 76876 8772/ 333 10034 20004 32000 55007 70016 87707 91110 93096
AAXX 08061 12424 11470 82907 10036 20024 39916 40069 52039 69972 76186 875// 333 10051 20034 32003 55012 70010 87612 91012 91117 93096
AAXX 08061 13160 11697 73004 10062 21010 30054 40164 52027 69962 70262 87500 333 20033 31001 55034 70006
AAXX 08061 13262 11595 80202 10048 20030 30053 40204 52031 60132 76396 8802/ 333 20033 32101 55065 70129
AAXX 08061 13272 11665 72603 10053 20042 30047 40168 52023 60052 70262 84570 333 20037 31003 55060 84643 87458
AAXX 08061 13285 11696 81402 10026 20020 30059 40164 52014 60152 76266 885// 333 21020 32105 55025 70146
AAXX 08061 13289 11294 83008 11011 21012 38934 48434 52010 60032 77377 8802/ 333 21014 43010 55064 70031 91024 91124 93104
AAXX 08061 13376 11596 8//// 10020 20012 39921 40189 53032 69907 76122 885// 333 21001 30005 50000 70990
AAXX 08061 13388 31597 80000 10002 21003 39906 40162 57027 69902 72162 885// 333 21022 31102 55000 70000
AAXX 08061 13462 11657 50000 10051 20047 30151 40192 56001 69962 71062 83830 333 20046 31002 55/// 82833 85358
AAXX 08061 13473 NIL
AAXX 08061 13489 31/90 91901 11017 21017 39663 40203 58002 74744 333 21019 32104 55029 70000
AAXX 08063 04013 42589 81102 11044 21079 49944 52006 82220 555 3//09
AAXX 08063 04064 42670 80705 11032 21080 49913 57011 8452/ 555 3//09
AAXX 08064 17026 11560 80109 10105 20102 30074 40113 52013 60022 76122 8552/ 333 20105 32008 55022 20833 70025 85628 88458 91111 92427
AAXX 08064 17034 12670 71702 10158 21004 30055 40100 58007 60002 83250 333 20120 30007 83835 87360 92428
AAXX 08064 17070 11550 83401 10054 20050 39268 40136 52021 60072 76066 8552/ 333 20051 32004 50004 55000 20167 70076 85630 88457 91105
AAXX 08064 17084 11540 80902 10057 20055 39216 40121 53004 60052 76122 8552/ 333 20051 32002 55031 70050 85630 88458 91110 96010
AAXX 08064 17090 12665 70301 10049 21031 38683 48458 58001 60002 84570 333 20014 30001 55054 84638 87360
AAXX 08064 17098 12660 20000 11135 21157 38208 48528 57002 60002 82500 333 21191 3/120 42001 50044 55022 21160 82635
AAXX 08064 17150 11460 73605 10069 20048 30052 40177 50012 60072 70282 84230 333 20068 32006 50331 55000 200 80 70542 82715 83835 85360
AAXX 08064 17160 11670 82106 10071 20023 38954 48435 53005 69922 70262 84520 333 20069 32006 55069 70002 84640 88460 91118
AAXX 08064 17184 12670 33102 10070 20042 30059 40171 52018 60052 83200 333 20066 32005 55000 70294 83840 91120
AAXX 08064 17189 11460 73014 10037 20015 38972 48443 52019 60022 70362 85570 333 20035 32003 70023 82712 85630 87360
AAXX 08064 17210 12970 10101 10044 21106 39170 40221 51006 60002 80001 333 20009 34104 55074 81070
AAXX 08064 17234 12970 23503 10094 20043 30086 40154 52024 60112 82030 333 20084 32008 50124 55000 70402 82360 91109
AAXX 08064 17260 11540 70803 10068 20028 39360 40183 50002 60002 71022 83250 333 20053 30003 50104 55075 2121 8 83830 87359
AAXX 08064 17290 12970 30109 10114 20057 30122 40154 52018 60062 83030 333 20114 32010 50104 55000 70269 8336 0 91022 91122 92438
AAXX 08064 17370 11560 71306 10151 20075 30135 40139 57004 60052 78082 84270 333 20150 32014 50004 55031 2//// 70052 84830 87459 92437
AAXX 08064 17022 11557 83605 10075 20071 39983 40149 52020 60262 76086 8652/ 333 20074 32007 55002 2//// 70339 86625 88458 91123 92436
AAXX 08064 17031 12670 63004 10115 20104 30094 40100 52011 60002 83250 333 20072 30006 83836 86360
AAXX 08064 17038 12670 62207 10186 21103 30058 40108 51003 60002 82130 333 20127 30013 55061 20783 82835 86360 92418
AAXX 08064 17050 11930 33601 11014 21015 30112 40176 53001 60002 71000 83030 333 21014 34102 55003 70002 83360 91105
AAXX 08064 17060 11460 63306 10067 20055 30127 40167 52010 60102 70282 86200 333 20066 32005 50331 20130 702 34 83710 85823
AAXX 08064 17096 NIL
AAXX 08064 17124 NIL
AAXX 08064 17128 11456 81803 10052 20050 39014 40114 52008 60102 76166 8572/ 333 20043 32004 50114 55009 20130 70132 82710 85630 88458 96010
AAXX 08064 17170 NIL
AAXX 08064 17195 11460 81512 10095 20010 38902 48432 50001 69902 76122 8522/ 333 21003 31102 50084 55021 2098 0 79999 82714 85830 88458
AAXX 08064 17199 12565 73601 10008 21038 39093 40217 50001 60002 85670 333 20002 34/// 55/// 2//// 82720 84640 87360
AAXX 08064 17219 12565 33205 10080 20042 30021 40167 51014 60012 83200 333 20069 32006 55000 20046 70400 83830
AAXX 08064 17240 11570 72903 10046 20030 38973 40117 52014 60032 70282 84250 333 20043 32004 55002 20255 70034 84830 87360 91108
AAXX 08064 17244 11460 72802 10032 20019 38929 48432 52006 60052 76162 84520 333 20025 32/// 55/// 2//// 70054 82715 84635 87459
AAXX 08064 17280 12970 41204 11020 21061 39416 40240 53004 60002 84030 333 21059 30109 50151 55071 20335 84360
AAXX 08064 17350 11558 70811 10114 20109 30061 40139 53001 60362 78092 86950 333 20102 33/// 70357 82925 84830 87360
AAXX 08061 12160 11432 83501 10010 20006 39954 40007 53038 60012 77172 8652/ 333 10016 20007 3/000 41998 55010 70010 93001
AAXX 08061 12205 11484 73005 10046 20025 30058 40066 53064 60072 70282 875// 333 10048 20003 31100 55017 70108 91114 93001
AAXX 08061 12465 11461 82608 10028 20019 39784 40018 52029 60062 76162 875// 333 10034 20005 32001 55043 20307 70060 87613 91114 93002
AAXX 08061 12566 11360 82409 10017 20010 39765 40062 52023 60082 78062 879// 333 10042 20015 32000 70083 87915 91116 93004
AAXX 08064 93004 16/// /1915 10167 20122 40167 52007 60001
AAXX 08064 93023 16/// /0202 10191 20138 40171 52015 60001
AAXX 08064 93069 16/// /2206 10211 20136 40162 52010 60001
AAXX 08064 93110 17/98 /2312 10190 20143 40167 52016 60001
AAXX 08064 93186 17898 /3608 10197 20132 40163 52020 60001
AAXX 08064 93196 16/// /0909 10164 20126 40170 52015 60001
AAXX 08064 93245 16/98 /2503 10220 20069 40137 52014 60001
AAXX 08064 93292 17/98 /1506 10166 20111 40173 52018 60001
AAXX 08064 93309 17/98 /2618 10174 20135 40165 52014 60001
AAXX 08064 93334 16/// /1703 10172 20105 39217 52013 60001
AAXX 08064 93339 16/// /2208 10159 20098 39223 52013 60001
AAXX 08064 93373 17598 /1008 10170 20109 40174 52020 60001
AAXX 08064 93404 17/98 /2407 10195 20107 40165 52018 60001
AAXX 08064 93420 17598 /2305 10170 20122 40168 52018 60001
AAXX 08064 93439 17598 /1513 10132 20086 40176 52019 60001
AAXX 08064 93498 16/// /1706 10124 20094 40179 52022 60001
AAXX 08064 93515 17/97 /2315 10163 20102 40168 52012 60001
AAXX 08064 93527 16/// /2817 10183 20127 40144 52007 60001
AAXX 08064 93546 17798 /0317 10180 20145 40151 52015 60001
AAXX 08064 93597 16/// /1410 10120 20095 40182 52021 60001
AAXX 08064 93615 17/97 /2905 10164 20105 40169 52013 60001
AAXX 08064 93678 16698 /3106 10106 20088 40188 52020 60001
AAXX 08064 93709 16/// /0503 10164 20111 40160 52011 60001
AAXX 08064 93773 17598 /0706 10133 20078 40175 52018 60001
AAXX 08064 93781 17498 /0207 10121 20098 40183 52022 60001
AAXX 08064 93800 NIL
AAXX 08064 93805 NIL
AAXX 08064 93831 17/98 /1714 10185 20068 40129 52013 60001
AAXX 08064 93845 17/98 /2416 10133 20082 40175 52016 60001
AAXX 08064 93891 17798 /1311 10132 20093 40165 52019 60001
AAXX 08064 93909 16/// /2614 10139 20071 40173 52017 60001
AAXX 08064 93929 16/// /2512 10105 20028 40137 52014 60001
AAXX 08064 93947 16/// /2716 10076 20011 40103 52024 60001
AAXX 08064 93987 16/// /2316 10107 20074 40110 52034 60001
AAXX 08064 93994 NIL
BBXX VRZT9 08063 99287 70951 41698 40604 10100 2006/ 40290 51020 7//// 83488 22213 0//// 20501 305// 40501 5//// 6//// 80080 ICE /////
AAXX 08064 89009 41432 83409 11255 36778 57003 77772 83608 333 83715 85256
AAXX 08064 08055 11458 10204 10012 20006 39238 48579 58007 60002 71040 81601 333 20006 34102 55089 70000 95090
AAXX 08064 08075 12962 01102 11018 21021 39261 48570 56001 60002 333 21020 55071 70000
AAXX 08064 08084 02565 22703 10037 20019 39875 40325 56001 60002 81520 333 20030 3/002 55081 60007 70000
AAXX 08064 08171 11958 00503 10034 20030 30059 40309 55000 60002 71000 333 20030 31002 50090 55090 70000
AAXX 08064 08184 02960 00000 10041 20028 30124 40285 53005 60002 333 20041 3/002 55079 60007 70000
AAXX 08064 08202 01/02 90000 11023 21027 39370 42897 55007 60002 74544 333 21032 30105 55088 60007 70000
AAXX 08064 08235 NIL
AAXX 08064 08238 12980 03503 10126 20072 30210 40271 55003 60002 333 20120 55087 70000
AAXX 08064 08280 11056 21903 10007 20004 39470 40330 56001 60002 71040 82601 333 21004 50074 55032 70000
AAXX 08064 08330 11/03 90704 10067 20058 30065 40302 57005 69902 74644 333 20067 31006 50034 55000 79999 89/01
AAXX 08064 08348 11/01 93501 10021 20021 39562 40330 56005 69922 74544 333 20018 50014 55016 70002 89/00
AAXX 08064 08360 02965 02402 10058 20032 30246 40285 53001 60002 333 20058 30009 55089 60007 70000
AAXX 08064 08373 02960 03602 10099 20094 30260 40282 53002 69902 333 20094 3/007 55088 69907 79999
AAXX 08064 08410 02965 50803 10065 20051 30178 40292 55006 60002 80006 333 20058 31004 55070 60007 70000
AAXX 08064 08419 01940 70000 10010 20000 39620 40321 56003 60002 71022 80007 333 20009 3/000 55055 60007 70000
AAXX 08064 08451 06/// /0000 10057 20054 30247 40281 55004 60002 333 20056 3/004 55/// 60007 70000
AAXX 08064 08487 02970 00103 10094 20056 30254 40280 55000 60002 333 20094 3/009 55088 60007 70000
AAXX 08064 89009 41432 83409 11255 36778 57003 77772 83608 333 83715 85256
AAXX 08064 06011 05980 83104 11017 21061 39850 49920 57032 69912 333 10023 21026 55300 20000 6///7 70137 88/68 91219
AAXX 08064 68299 36/// /0302 10129 20122 38920 48505 52008 333 20115 91003 555 10221 91017
AAXX 08061 01281 16/// /0000 11043 21052 39817 49995 53014 60002 333 21044 70000 91100
AAXX 08064 71950 15161 11102 11140 21159 39687 40350 58005 60001 333 11063 21144 70000
AAXX 08064 71952 NIL
AAXX 08064 71954 46/// /3012 11174 21240 39749 40138 56005 6///1 333 11085 21175 7//// 555 33033 40212
AAXX 08064 71956 NIL
AAXX 08064 71959 NIL
AAXX 08064 71960 460// /1611 11277 30129 40270 56024 6///1 333 11240 21289 7//// 555 32721 40071
AAXX 08064 71962 16/// /2507 11109 21167 39707 40137 58003 60001 333 11023 21109 70000 555 32921 40001
AAXX 08064 71963 NIL
AAXX 08064 71967 17/// /3105 11004 21004 39949 40054 58025 69971 7//4/ 333 10004 21011 70011
AAXX 08064 71970 NIL
AAXX 08064 71971 16/// /0507 11174 21248 30107 40154 56001 60001 333 11168 21246 70000 555 30926 40111
AAXX 08064 71972 460// ///// 11079 39552 40015 58012 6///1 333 11077 21115 7////
AAXX 08064 71973 46/// /0906 11014 21027 39933 40122 58004 6///1 333 10001 21021 7//// 555 30719 40001
AAXX 08064 71974 NIL
AAXX 08064 71975 460// /1809 11096 39282 40008 53004 6///1 333 11096 21172 7//// 555 31440 40183
AAXX 08064 71976 NIL
AAXX 08064 71977 NIL
AAXX 08064 71978 NIL
AAXX 08064 71979 NIL
AAXX 08064 71980 NIL
AAXX 08064 71981 NIL
AAXX 08064 71982 NIL
AAXX 08064 71983 NIL
AAXX 08064 71984 NIL
AAXX 08064 71985 NIL
AAXX 08064 71986 NIL
AAXX 08064 71987 17/// /0715 10042 20039 30016 40025 58048 60031 7//4/ 333 10042 20021 70043 555 30625 40141
AAXX 08064 71988 46/// /1512 10111 20111 39960 49979 58054 6///1 333 10111 20077 7//// 555 30320 40201
AAXX 08064 71989 NIL
AAXX 08064 71990 NIL
AAXX 08064 71999 NIL
AAXX 08064 71350 17/// /0506 10043 20038 39957 40022 58046 60021 7//4/ 333 10043 20034 70040 555 30418 40081
AAXX 08064 71351 NIL
AAXX 08064 71352 16/// /2509 11011 21033 39653 40110 53005 60001 333 11007 21034 70000
AAXX 08064 71353 NIL
AAXX 08064 71354 NIL
AAXX 08064 71355 16/// /0000 11233 21256 30075 40164 53005 60001 333 11172 21255 70000 555 32523 40071
AAXX 08064 71356 17/// /1308 11200 21220 39712 49778 51012 69951 7//4/ 333 11191 21283 70005 555 10140 20005 32828 40082
AAXX 08064 71357 NIL
AAXX 08064 71358 NIL
AAXX 08064 71359 NIL
AAXX 08064 71360 NIL
AAXX 08064 71361 NIL
AAXX 08064 71362 NIL
AAXX 08064 71363 NIL
AAXX 08064 71364 NIL
AAXX 08064 71365 NIL
AAXX 08064 71368 15666 82309 11012 21039 39725 40117 53003 60001 333 10000 21037 70000
AAXX 08064 71369 15966 02606 11138 21177 39570 40307 58016 60001 333 11057 21139 70000
AAXX 08064 71370 46/// /2904 11012 21014 39908 40044 56018 6///1 333 11008 21025 7////
AAXX 08064 71371 17440 83010 11005 21012 30020 40054 58019 60001 771// 333 10013 21005 70000
AAXX 08064 71372 NIL
AAXX 08064 71373 17/// /2807 11020 21030 60021 7//4/ 333 10005 21020 70018
AAXX 08064 71374 NIL
AAXX 08064 71375 NIL
AAXX 08064 71376 16/// /2701 11048 21052 39782 40077 56009 60001 333 11001 21048 70020
AAXX 08064 71377 17/// /2908 11006 21049 30014 40062 58012 69931 7//4/ 333 10020 21009 70003
AAXX 08064 71378 16/// /3107 11037 21082 39851 40060 56010 60001 333 11003 21052 70000
AAXX 08064 71379 16/// /3206 11061 21092 39877 40049 56017 60001 333 11047 21107 70000
AAXX 08064 71380 NIL
AAXX 08064 71381 NIL
AAXX 08064 71382 NIL
AAXX 08064 71383 NIL
AAXX 08064 71384 16/// /2101 11001 21012 30033 40040 58024 60001 333 10002 21015 70000 555 30717 40161
AAXX 08064 71385 NIL
AAXX 08064 71386 NIL
AAXX 08064 71387 NIL
AAXX 08064 71388 46/// /3002 11013 21017 39855 40043 56020 6///1 333 11005 21037 7////
AAXX 08064 71389 46/// /3305 11008 21016 6///1 333 10001 21019 7//// 555 30717 40071
AAXX 08064 71390 NIL
AAXX 08064 71391 16/// ///// 11040 21050 60001 333 11001 21046 70011
AAXX 08064 71392 NIL
AAXX 08064 71393 NIL
AAXX 08064 71395 11/06 91611 10102 20102 39838 40012 58041 60041 76154 333 10102 20059 70106 90983 555 10000 20000 30218 40230
AAXX 08064 71398 17666 81906 11106 21119 30045 40056 56017 60001 771// 333 11042 21157 70000
AAXX 08064 71399 NIL
AAXX 08064 71114 16564 61011 10013 21008 30283 40332 53010 60001 333 10044 20007 70010
AAXX 08064 71120 12974 03111 11154 21269 39595 40281 52003 60001 333 11117 21156 79999 555 10000 20000 33133 40221
AAXX 08064 71122 16/// /2304 11147 21170 38641 40303 58003 60001 333 11052 21158 70000 555 30817 40231
AAXX 08064 71123 12974 01503 11199 21236 39412 40322 56005 60001 333 11032 21211 79999 555 19999 29999 33127 40191
AAXX 08064 71125 NIL
AAXX 08064 71129 12974 02810 11142 21186 39421 40284 50004 60001 333 11022 21142 70000 555 10000 20000 33326 40191
AAXX 08064 71131 16/// /3115 11154 21192 38982 40286 51006 60001 333 11029 21161 70003 555 33230 40032
AAXX 08064 71135 16/// /3219 11139 21191 39141 40264 51003 60001 333 11021 21139 70000 555 33229 40062
AAXX 08064 71137 16/// /2304 11191 21218 39309 40295 51006 60001 333 11003 21192 70000 555 33419 40231
AAXX 08064 71140 12574 12914 11110 21132 39668 40184 53004 60001 81500 333 11042 21122 70002 555 10002 20002 32825 40041
AAXX 08064 71145 11474 12815 11162 21213 39760 40061 51001 69901 73671 81500 333 11056 21162 48028 70004 90930 555 10004 20004 32725 40201
AAXX 08064 71148 16/// /2912 11110 21156 39582 40177 58005 60001 333 11023 21127 70000 555 33126 40201
AAXX 08064 71182 16564 61107 11146 21182 39559 40118 58019 60001 333 11145 21334 70000
AAXX 08064 71185 16964 01205 11009 30099 40123 56010 69951 333 11009 21032 70005
AAXX 08064 71188 11320 82502 11027 21034 30027 40070 57042 60011 77172 887// 333 11027 21044 47008 70072 90962 93101 555 10076 20072
AAXX 08064 71200 NIL
AAXX 08064 71207 NIL
AAXX 08064 71260 13/// ///// 11031 21036 39876 40115 50001 69921 333 11002 21056 46997 70007 555 10010 20007
AAXX 08064 71930 NIL
AAXX 08064 71931 16/// /0515 10017 20005 30098 40110 53014 60001 333 10044 21009 70000 555 30934 40003
AAXX 08064 71934 11548 82815 11185 21213 39982 40252 52005 69901 77177 885// 333 11120 21185 44019 70020 90973 555 10028 20020 32929 40182
AAXX 08064 71935 12974 02604 11234 21282 30079 40300 58006 60001 333 11127 21235 70000 555 10000 20000 33135 40103
AAXX 08064 71936 12974 03010 11251 21287 39990 40266 56004 60001 333 11189 21251 70000 555 10000 20000 32830 40091
AAXX 08064 71937 NIL
AAXX 08064 71938 11774 22713 11233 21268 30230 40261 55001 69901 73671 82500 333 11190 21244 44024 70004 90931 555 10016 20004 33349 40103
AAXX 08064 71940 12982 20000 11185 21209 39465 40313 57023 60001 81071 333 11051 21194 79999 555 19999 29999
AAXX 08064 71943 12974 11403 11147 21183 39423 40300 57016 60001 81070 333 11081 21155 70000 555 10000 20000
AAXX 08064 71944 160// ///// 11167 56009 60001 333 11060 21177 70000
AAXX 08064 71945 12974 00000 11228 21280 39804 40305 57011 60001 333 11063 21230 70000 555 10000 20000
AAXX 08064 71946 12974 00000 11310 21324 30081 40312 56010 60001 333 11130 21310 48038 79999 555 19999 29999 33023 41091
AAXX 08064 71948 46964 02408 11268 30163 40283 56006 6///1 333 11236 21268 7//// 555 33033 40092
AAXX 08064 71949 NIL
AAXX 08064 71951 12280 20000 11068 21077 30076 40354 50000 60001 81630 333 11019 21071 70000 555 10000 20000
AAXX 08064 71957 46964 01009 11235 21306 30150 40244 58032 6///1 333 11222 21290 7////
AAXX 08064 71958 43/// /0000 11153 21180 39330 40321 58014 6///1 333 11139 21224 7////
AAXX 08064 71964 12986 82008 11117 21141 39356 40247 57026 60001 8807/ 333 11117 21277 79999 555 19999 29999 31918 40020
AAXX 08064 71966 NIL
AAXX 08064 71968 46064 /1012 11291 30115 40183 57039 6///1 333 11193 21295 7//// 555 32030 40152
AAXX 08064 71726 16/// /3201 11121 21131 39515 40063 57016 60001 333 11045 21134 70014
AAXX 08064 71727 11332 83004 11015 21022 39852 40049 55018 69941 77182 887// 333 11005 21042 47002 70004 90927 555 10004 20004
AAXX 08064 71728 11332 83205 11058 21071 39842 40065 58011 69921 77122 885// 333 11027 21093 44001 70004 90952 555 10004 20004
AAXX 08064 71730 11469 83006 11045 21063 39665 40093 53010 69961 77182 885// 333 11012 21108 47002 70006 90977 93101 555 10020 20006
AAXX 08064 71731 11274 83109 11034 21049 39627 40081 55002 69961 72282 885// 333 11018 21080 46997 70006 90973 555 10006 20006
AAXX 08064 71735 NIL
AAXX 08064 71738 NIL
AAXX 08064 71739 41874 41703 11105 21115 39715 40084 58003 6//// 70277 84070 333 11043 21186 4//// 7//// 90983 555 1//// 2////
AAXX 08064 71749 16664 82911 11057 21105 39853 40101 55002 60001 333 11011 21068 70005 555 33222 40171
AAXX 08064 71799 12480 12906 11010 21012 30299 40324 53009 60001 81501 333 10060 21011 70002 555 10000 20000
AAXX 08064 71800 NIL
AAXX 08064 71801 11269 82901 10026 20025 39944 40117 51019 60021 72065 886// 333 10074 20016 70206 90923 555 10000 20000 32625 40031
AAXX 08064 71803 11140 80207 11011 21018 39949 40137 53013 69941 75675 887// 333 10000 21015 43005 70060 90917 555 10060 20060 30823 40200
AAXX 08064 71807 NIL
AAXX 08064 71808 12574 60912 11035 21062 30111 40158 55009 60001 86500 333 11032 21122 70000 555 10000 20000 30620 40000
AAXX 08064 71809 11474 80000 11018 21027 30109 40137 58003 60001 79277 886// 333 11991 21020 43211 70112 555 19112 29112
AAXX 08064 71810 16/// /0611 11017 21031 30014 40081 56033 60001 333 11017 21090 70000 555 30617 40051
AAXX 08064 71811 NIL
AAXX 08064 71813 NIL
AAXX 08064 71814 16/// /0710 11001 21016 30107 40117 58023 60001 333 11001 21132 70000 555 30220 40081
AAXX 08064 71815 NIL
AAXX 08064 71201 NIL
AAXX 08064 71202 16/// ///// 11151 21190 60001 333 11031 21151 70000
AAXX 08064 71203 15466 80703 11025 21055 39810 40346 53010 60001 333 11001 21069 70000
AAXX 08064 71209 NIL
AAXX 08064 71211 NIL
AAXX 08064 71212 NIL
AAXX 08064 71213 46/// /3207 11057 21076 39780 40083 52012 6///1 333 11018 21172 7//// 555 33217 40051
AAXX 08064 71214 NIL
AAXX 08064 71215 NIL
AAXX 08064 71216 NIL
AAXX 08064 71217 NIL
AAXX 08064 71218 16/// /1803 11069 21077 39906 40349 51009 60001 333 10007 21076 70000
AAXX 08064 71219 NIL
AAXX 08064 71220 NIL
AAXX 08064 71221 NIL
AAXX 08064 71222 NIL
AAXX 08064 71223 NIL
AAXX 08064 71224 NIL
AAXX 08064 71225 NIL
AAXX 08064 71226 NIL
AAXX 08064 71227 NIL
AAXX 08064 71228 NIL
AAXX 08064 71229 NIL
AAXX 08064 71230 16/// /1901 11169 21189 39364 40300 56020 60001 333 11067 21177 70000
AAXX 08064 71231 16/// /3203 11128 21183 60001 333 11007 21140 70014 555 30318 40201
AAXX 08064 71232 16/// /0000 11117 21134 38742 40293 58011 60001 333 11038 21118 70003
AAXX 08064 71233 16/// /2701 11176 21211 60001 333 11038 21176 70005 555 33022 40221
AAXX 08064 71234 16/// /2402 11097 21125 39089 40321 58007 60001 333 11013 21098 70000 555 10010 30417 40211
AAXX 08064 71235 16/// /3004 11131 21170 60001 333 11039 21134 70000 555 33618 40171
AAXX 08064 71236 46/// /1503 11108 21146 6///1 333 10001 21108 7//// 555 31223 40001
AAXX 08064 71237 46/// /0000 11213 21231 39465 40321 58005 6///1 333 11026 21218 7//// 555 33320 40201
AAXX 08064 71238 16/// /2703 11160 21190 60001 333 7////
AAXX 08064 71239 NIL
AAXX 08064 71240 16/// /0000 11160 21190 39417 40300 58001 60001 333 11021 21160 70000
AAXX 08064 71241 NIL
AAXX 08064 71242 16/// /2606 11211 21235 60001 333 11041 21211 70009 555 33221 40191
AAXX 08064 71243 NIL
AAXX 08064 71244 NIL
AAXX 08064 71245 NIL
AAXX 08064 71246 NIL
AAXX 08064 71247 15966 02308 11160 21184 39434 40326 58005 60001 333 11013 21177 70008
AAXX 08064 71248 16/// /0000 11222 21250 38958 40327 57011 60001 333 11042 21222 70000 555 33423 40161
AAXX 08064 71249 NIL
AAXX 08064 71001 NIL
AAXX 08064 71002 NIL
AAXX 08064 71003 NIL
AAXX 08064 71005 46/// ///// 11148 21194 6///1 333 11050 21148 7////
AAXX 08064 71006 NIL
AAXX 08064 71007 NIL
AAXX 08064 71008 NIL
AAXX 08064 71009 NIL
AAXX 08064 71010 NIL
AAXX 08064 71011 NIL
AAXX 08064 71012 NIL
AAXX 08064 71013 NIL
AAXX 08064 71014 NIL
AAXX 08064 71015 NIL
AAXX 08064 71016 NIL
AAXX 08064 71017 NIL
AAXX 08064 71018 NIL
AAXX 08064 71019 NIL
AAXX 08064 71020 NIL
AAXX 08064 71021 NIL
AAXX 08064 71022 15666 11302 11010 21020 30291 40336 58006 60001 333 10020 21029 70000
AAXX 08064 71023 16964 03111 11178 21276 39460 40263 50000 60001 333 11103 21178 70000 555 33233 40222
AAXX 08064 71024 16/// /2701 11227 21253 60001 333 11118 21228 70000 555 33020 40141
AAXX 08064 71026 NIL
AAXX 08064 71027 17/// /3401 10055 20054 30062 40072 56017 60041 7//4/ 333 10061 20040 70088
AAXX 08064 71028 NIL
AAXX 08064 71029 16/// /0108 11255 21281 30190 40231 58002 60001 333 11212 21269 70003 555 10210 20003 30136 40073
AAXX 08064 71030 NIL
AAXX 08064 71032 NIL
AAXX 08064 71033 46/// /3016 11197 21233 39499 40155 55004 6///1 333 11118 21204 7//// 555 33037 40233
AAXX 08064 71035 NIL
AAXX 08064 71036 15966 03010 11116 21185 39782 40167 53006 60001 333 11051 21118 70000
AAXX 08064 71039 NIL
AAXX 08064 71040 46/// /2805 11019 21028 39844 40043 56016 6///1 333 11012 21040 7////
AAXX 08064 71041 17/16 /0607 10070 20069 39909 40049 58027 60051 71044 333 10102 20058 70111
AAXX 08064 71042 NIL
AAXX 08064 71044 NIL
AAXX 08064 71046 460// /0927 11208 30096 40114 56060 6///1 333 11208 21332 7//// 555 30132 40062
AAXX 08064 71047 16/// ///// 11144 21191 60001 333 11054 21145 70000
AAXX 08064 71048 NIL
AAXX 08064 71049 NIL
AAXX 08064 71060 NIL
AAXX 08064 71063 NIL
AAXX 08064 71812 NIL
AAXX 08064 71819 15566 60607 11057 21071 30120 40162 56011 60001 333 11041 21093 70000
AAXX 08064 71820 16/// /2607 11001 21025 39977 40092 58005 60001 333 10021 21006 70000
AAXX 08064 71823 17662 82207 11102 21117 39650 40036 58008 60001 745// 333 11101 21221 70010 555 32021 40181
AAXX 08064 71824 NIL
AAXX 08064 71826 17/// /1408 11057 21081 39937 49979 55003 69931 7//4/ 333 11057 21137 70003 555 31133 40172
AAXX 08064 71829 17/// /0405 11026 21035 39896 40058 58028 60021 7//4/ 333 11026 21077 70015 555 30417 40141
AAXX 08064 71833 NIL
AAXX 08064 71835 16/// /2411 11139 21164 39568 40056 58015 60001 333 11069 21139 70000 555 32924 40201
AAXX 08064 71837 NIL
AAXX 08064 71839 NIL
AAXX 08064 71840 46/// /2814 11103 21149 6///1 333 11022 21103 7//// 555 33125 40211
AAXX 08064 71846 16/// /2306 11159 21175 39731 40052 56007 60001 333 11065 21168 70004 555 32321 40071
AAXX 08064 71847 NIL
AAXX 08064 71848 NIL
AAXX 08064 71849 NIL
AAXX 08064 71816 11474 82604 11170 21210 30102 40166 58020 69901 70281 88500 333 11141 21241 47010 79999 90931 555 19999 29999
AAXX 08064 71817 NIL
AAXX 08064 71818 12874 11704 11150 21168 30172 40191 57013 60001 81070 333 11084 21155 70000 555 10000 20000 32921 40090
AAXX 08064 71822 11948 80000 11094 21107 39571 40052 58015 69981 77171 8807/ 333 11090 21196 47021 70008 90942 93101 555 10014 20008
AAXX 08064 71825 11432 80000 11115 21125 39399 40092 57020 60011 77177 885// 333 11114 21338 47072 70014 90973 93104 555 10046 20014
AAXX 08064 71827 11674 11807 11156 21167 39791 40040 58005 69901 70377 81500 333 11079 21159 47017 70016 90953 555 10016 20016
AAXX 08064 71828 17464 81609 11146 21166 39416 40075 58014 60001 745// 333 11145 21288 70000
AAXX 08064 71831 11574 32304 11105 21117 39795 40080 57006 69901 72611 83500 333 11048 21131 47016 70020 90911 555 10028 20020
AAXX 08064 71832 NIL
AAXX 08064 71834 11566 80000 11096 21113 39642 40076 57007 69901 77111 885// 333 11045 21136 48008 70010 90910 555 10016 20010
AAXX 08064 71841 NIL
AAXX 08064 71842 11774 32712 11112 21156 39618 40097 50012 69901 70181 85300 333 11046 21121 48003 79999 90946 555 19999 29999 33325 40091
AAXX 08064 71844 16664 32811 11159 21191 39742 40025 56002 60001 333 11085 21162 70000 555 32719 40191
AAXX 08064 71845 NIL
AAXX 08064 71850 12974 02506 11117 21167 39610 40120 57003 60001 333 11032 21118 79999 555 19999 29999 33321 40080
AAXX 08064 71852 16564 62910 11103 21124 39847 40148 55001 60001 333 11021 21105 70000 555 33024 40191
AAXX 08064 71854 NIL
AAXX 08064 71858 NIL
AAXX 08064 71861 NIL
AAXX 08064 71862 12974 03015 11111 21159 39509 40231 55001 60001 333 11028 21117 70000 555 10000 20000 33027 40231
AAXX 08064 71863 46964 33117 11125 21180 39515 40237 53002 6///1 333 11044 21125 7//// 555 33138 40213
AAXX 08064 71250 NIL
AAXX 08064 71251 16/// /2603 11125 21176 39369 40333 58005 60001 333 11006 21133 70007 555 30117 40191
AAXX 08064 71252 NIL
AAXX 08064 71253 46/// /1502 11223 21256 6///1 333 11103 21223 7//// 555 33223 40101
AAXX 08064 71254 16/// /2807 11181 21203 60001 333 11040 21184 70000 555 33025 40171
AAXX 08064 71255 16/// /3110 11172 21239 60001 333 11085 21172 70000 555 33029 40162
AAXX 08064 71256 46/// /0000 11159 21183 39334 40311 58013 6///1 333 11050 21160 7//// 555 32924 40211
AAXX 08064 71257 NIL
AAXX 08064 71258 NIL
AAXX 08064 71259 NIL
AAXX 08064 71261 16/// /3014 10013 21034 39861 40123 53014 60001 333 10020 21011 70000 555 33124 40061
AAXX 08064 71263 NIL
AAXX 08064 71264 17/// /1506 10102 20102 39982 40013 58043 60031 7//4/ 333 10110 20077 70138
AAXX 08064 71265 15666 82615 10008 21031 30020 40114 55003 60001 333 10021 21005 70000
AAXX 08064 71266 NIL
AAXX 08064 71267 15766 83503 11081 21143 39198 40334 58008 60001 333 11005 21086 70000
AAXX 08064 71268 NIL
AAXX 08064 71269 NIL
AAXX 08064 71270 16/// /2806 10010 21033 39877 40097 53004 60001 333 10012 21014 70000
AAXX 08064 71271 NIL
AAXX 08064 71272 17524 83018 11186 21217 39594 49954 58002 60001 771// 333 11133 21204 70000
AAXX 08064 71273 16/// /2908 11151 21243 39570 40257 51002 60001 333 11063 21154 70000 555 33030 40212
AAXX 08064 71274 NIL
AAXX 08064 71275 NIL
AAXX 08064 71276 NIL
AAXX 08064 71277 NIL
AAXX 08064 71278 NIL
AAXX 08064 71279 16/// /0305 11068 21083 30020 40087 56032 60001 333 11066 21142 70000
AAXX 08064 71281 NIL
AAXX 08064 71282 46/// /2517 10011 21002 39825 40095 56005 6///1 333 10012 21013 7//// 555 32621 40011
AAXX 08064 71283 NIL
AAXX 08064 71284 16/// ///// 11157 21192 60001 333 11044 21161 70004
AAXX 08064 71285 NIL
AAXX 08064 71286 NIL
AAXX 08064 71287 NIL
AAXX 08064 71288 NIL
AAXX 08064 71289 NIL
AAXX 08064 71290 15966 81404 11150 21166 39482 40358 56008 60001 333 11050 21166 70000
AAXX 08064 71291 16/// /3504 11065 21097 39797 40089 55004 60001 333 11014 21083 70013 555 10010 20013 32619 40211
AAXX 08064 71292 15666 13013 11140 21182 39568 53005 60001
AAXX 08064 71294 16/// /2203 11027 21032 39676 40080 58006 60001 333 11016 70000
AAXX 08064 71295 16/// /2707 11124 21164 39641 40095 58005 60001 333 11039 21126 70000 555 33224 40081
AAXX 08064 71296 NIL
AAXX 08064 71297 16/// /2503 11003 21031 60001 333 10019 21027 70000
AAXX 08064 71298 16/// /2808 11001 21049 39930 40165 53021 60001 333 10018 21011 70000 555 10010 32719 40041
AAXX 08064 71299 NIL
AAXX 08064 71665 16/// /2007 11125 21163 30104 40114 58020 60001 333 11118 21171 70000 555 32518 40091
AAXX 08064 71666 17/// /0507 10034 20032 39976 40020 58049 60051 7//4/ 333 10036 20024 7////
AAXX 08064 71667 NIL
AAXX 08064 71668 17/// /3605 10014 20004 39968 40011 58045 60061 7//4/ 333 10020 20012 70078
AAXX 08064 71669 NIL
AAXX 08064 71670 17/// ///// 10034 20032 69991 7//4/ 333 10034 20016 70038
AAXX 08064 71671 NIL
AAXX 08064 71672 16/// /2205 11015 21053 39830 40095 55003 60001 333 10008 21020 70000
AAXX 08064 71673 NIL
AAXX 08064 71674 NIL
AAXX 08064 71675 17666 32911 11159 21197 39741 40024 56002 60051 70044 333 11087 21160 70183
AAXX 08064 71679 NIL
AAXX 08064 71680 NIL
AAXX 08064 71681 NIL
AAXX 08064 71682 NIL
AAXX 08064 71683 NIL
AAXX 08064 71684 15566 63108 11059 21082 39782 40085 53011 60001 333 11019 21171 70000
AAXX 08064 71685 15966 03406 11040 21064 39779 40336 51011 60001 333 11001 21065 70000
AAXX 08064 71686 NIL
AAXX 08064 71687 NIL
AAXX 08064 71688 16/// /0201 11067 21070 39242 40304 50002 60001 333 10004 21069 70000
AAXX 08064 71689 15966 02707 11178 21250 39804 40282 56003 60001 333 11089 21179 70000
AAXX 08064 71690 NIL
AAXX 08064 71691 17256 80811 11013 21019 30034 40061 58028 60001 771// 333 11013 21055 70000
AAXX 08064 71692 NIL
AAXX 08064 71694 16/// /2703 11005 21032 39731 40094 55003 60001 333 11002 21040 70000
AAXX 08064 71695 16/// /2917 11162 21231 39791 40135 51003 60001 333 11061 21163 70000 555 33036 40033
AAXX 08064 71696 NIL
AAXX 08064 71697 15666 82405 11005 21053 39936 40108 55003 60001 333 10019 21018 70000
AAXX 08064 71699 17/// /0308 10041 20036 39981 49989 58046 60071 7//4/ 333 10045 20032 70153
AAXX 08064 71300 NIL
AAXX 08064 71301 NIL
AAXX 08064 71302 NIL
AAXX 08064 71303 46/// ///// 10014 21044 6///1 333 10026 21003 7////
AAXX 08064 71305 15566 62912 11190 21237 39948 40262 52001 60001 333 11087 21190 70000
AAXX 08064 71306 17420 82620 11070 21096 39897 49929 53002 60001 771// 333 11029 21075 70000 555 31955 40083
AAXX 08064 71307 NIL
AAXX 08064 71308 17/// /1506 10086 20082 39953 40036 58033 60051 7//4/ 333 10086 20059 70110
AAXX 08064 71309 NIL
AAXX 08064 71310 17/// /0603 10043 20038 39991 40027 58042 60011 7//4/ 333 10043 20032 70022 555 30521 40071
AAXX 08064 71311 NIL
AAXX 08064 71312 16/// /3113 11155 21218 39724 40197 51008 60001 333 11044 21155 70000 555 32934 40183
AAXX 08064 71314 NIL
AAXX 08064 71315 16/// /1002 11011 21018 30006 40060 56040 60001 333 11008 21019 70026 555 10060 20026
AAXX 08064 71316 16/// /3009 11158 21238 39580 40295 58001 60001 333 11073 21158 70000 555 33026 40221
AAXX 08064 71317 NIL
AAXX 08064 71318 16/// /2909 11162 21197 39316 40303 55001 60001 333 11030 21172 70000 555 33130 40182
AAXX 08064 71319 16/// /3201 11037 21037 39167 40026 58025 60001 333 11036 21074 70011
AAXX 08064 71320 NIL
AAXX 08064 71321 NIL
AAXX 08064 71322 NIL
AAXX 08064 71323 17/// /3203 11006 21009 39736 40015 58032 60021 7//4/ 333 10003 21016 70020
AAXX 08064 71331 16/// /2915 11178 21242 60001 333 11093 21179 70000 555 32828 40002
AAXX 08064 71332 NIL
AAXX 08064 71334 46/// /3020 11187 21222 39620 49956 58002 6///1 333 11135 21205 7//// 555 32935 40033
AAXX 08064 71335 46764 62021 11140 57017 6///1 333 11097 21144 7//// 555 32638 40103
AAXX 08064 71336 46/// ///09 10024 20021 30073 40095 53013 6///1 333 10061 20016 7////
AAXX 08064 71337 46/// /0804 11023 21025 39896 40136 58004 6///1 333 11022 21039 7//// 555 30720 40211
AAXX 08064 71338 46964 00506 11157 21182 30010 40017 55001 6///1 333 11155 21207 7////
AAXX 08064 71339 16564 33003 11111 21127 30162 40177 56013 60001 333 11096 21173 70000
AAXX 08064 71340 NIL
AAXX 08064 71341 NIL
AAXX 08064 71342 NIL
AAXX 08064 71343 NIL
AAXX 08064 71344 NIL
AAXX 08064 71345 NIL
AAXX 08064 71346 NIL
AAXX 08064 71347 NIL
AAXX 08064 71348 NIL
AAXX 08064 71349 NIL
AAXX 08064 71401 NIL
AAXX 08064 71402 NIL
AAXX 08064 71404 NIL
AAXX 08064 71405 NIL
AAXX 08064 71406 NIL
AAXX 08064 71407 NIL
AAXX 08064 71408 NIL
AAXX 08064 71409 NIL
AAXX 08064 71410 15666 12911 11168 21238 39805 40092 56005 60001 333 11061 21169 70000
AAXX 08064 71413 NIL
AAXX 08064 71414 NIL
AAXX 08064 71415 17/// /0912 10070 20067 30013 40016 58043 60081 7//4/ 333 10070 20054 70136 555 30618 40081
AAXX 08064 71417 NIL
AAXX 08064 71418 NIL
AAXX 08064 71419 46/// /1808 10091 20090 30038 40048 58027 6///1 333 10102 20067 7//// 555 32222 40071
AAXX 08064 71423 NIL
AAXX 08064 71424 46/// /0310 6///1 333 7//// 555 30428 40072
AAXX 08064 71425 17/// /0000 11016 21031 30038 40074 56037 60021 7//4/ 333 11009 21040 70020 555 31021 40171
AAXX 08064 71426 NIL
AAXX 08064 71427 NIL
AAXX 08064 71428 16/// /1902 11012 21029 30054 40060 56033 60001 333 11006 21027 70000 555 30520 40121
AAXX 08064 71429 17/// /0719 10022 20015 30033 40052 56041 60011 7//4/ 333 10022 21027 70030 555 30525 40091
AAXX 08064 71434 NIL
AAXX 08064 71436 15666 82305 11016 21043 39865 40101 55005 60001 333 10008 21025 70000
AAXX 08064 71437 46/// /2307 10016 21037 30022 40118 55001 6///1 333 10024 20004 7////
AAXX 08064 71438 NIL
AAXX 08064 71439 NIL
AAXX 08064 71440 NIL
AAXX 08064 71442 NIL
AAXX 08064 71445 NIL
AAXX 08064 71446 16/// /2918 11149 21192 39258 40277 53002 60001 333 11028 21151 70000 555 33030 40202
AAXX 08064 71448 NIL
AAXX 08064 71449 NIL
AAXX 08064 71043 11980 20804 11272 21316 30193 40293 58017 69901 77677 81071 333 11198 21295 48019 79999 90983 555 19999 29999
AAXX 08064 71045 NIL
AAXX 08064 71050 NIL
AAXX 08064 71051 NIL
AAXX 08064 71052 NIL
AAXX 08064 71066 12974 00000 11258 21302 39866 40312 56018 60001 333 11100 21261 70000 555 10000 20000 31221 40101
AAXX 08064 71068 12874 22403 11160 21202 39577 40302 57023 60001 80001 333 11066 21177 70000 555 10000 20000
AAXX 08064 71069 16964 02705 11147 21172 39570 40307 58016 60001 333 11058 21149 70000 555 33028 40092
AAXX 08064 71076 16/// /3110 11199 21238 39789 40200 53002 60001 333 11126 21200 70000 555 32934 40193
AAXX 08064 71077 16/// /3116 11170 21235 39687 40251 58002 60001 333 11089 21170 70000 555 33233 40172
AAXX 08064 71079 11666 62816 11177 21239 39756 40043 58004 69901 77131 83540 333 11086 21179 48004 79999 90942 555 19999 29999 32835 40211
AAXX 08064 71081 47959 01019 11079 21092 39833 49845 52008 6///1 745// 333 11073 21119 7//// 555 31148 40073
AAXX 08064 71082 NIL
AAXX 08064 71083 11959 03512 11283 21322 39718 49760 52009 69901 77677 333 11214 21293 48053 70002 90983 555 10002 20002 33025 40071
AAXX 08064 71090 46208 83220 11215 21250 30022 40058 6///1 333 11209 21306 7////
AAXX 08064 71091 460// /0935 11131 39691 49897 51006 6///1 333 7////
AAXX 08064 71092 47002 00930 11173 39281 49948 58003 6///1 745// 333 11168 21201 7////
AAXX 08064 71093 460// /3606 11190 39505 40008 56006 6///1 333 11159 21204 7//// 555 30924 40151
AAXX 08064 71094 46002 /1834 11106 39093 49990 56006 6///1 333 11104 21200 7////
AAXX 08064 71095 47958 80827 11190 21244 39976 40058 58006 6///1 745// 333 11169 21255 7////
AAXX 08064 71101 160// /1804 30322 58004 60001 333 70000
AAXX 08064 71104 12974 01302 11171 21188 39190 40361 58008 60001 333 11053 21171 70000 555 10000 20000
AAXX 08064 71108 12474 40000 10000 21008 30250 40324 53009 60001 84600 333 10048 20000 70020 555 10000 20000
AAXX 08064 71109 12474 32404 10006 21021 30310 40337 53001 60001 82501 333 10057 21002 70000 555 10000 20000
AAXX 08064 71150 46/// /3119 11130 21174 39470 40171 51004 6///1 333 11064 21130 7//// 555 33030 40042
AAXX 08064 71151 NIL
AAXX 08064 71152 17/// /0710 10023 20004 30087 40100 58003 69971 7//4/ 333 10060 20020 70067 555 30629 40162
AAXX 08064 71153 16/// /1701 11108 21121 60001 333 11037 21108 70015
AAXX 08064 71154 17/// /0502 11111 21138 69971 7//4/ 333 10001 21111 70007 555 32232 40092
AAXX 08064 71155 NIL
AAXX 08064 71156 NIL
AAXX 08064 71157 46/// ///// 11140 21172 6///1 333 11034 21141 7////
AAXX 08064 71158 NIL
AAXX 08064 71159 NIL
AAXX 08064 71160 NIL
AAXX 08064 71161 16/// /2403 11018 21038 39932 40081 55006 60001 333 10006 21020 70000
AAXX 08064 71162 NIL
AAXX 08064 71163 46/// /2905 11258 21283 39929 40293 53006 6///1 333 11189 21258 7//// 555 33125 40131
AAXX 08064 71164 NIL
AAXX 08064 71165 NIL
AAXX 08064 71166 NIL
AAXX 08064 71167 15966 02904 11219 21238 39172 40328 58013 60001 333 11055 21222 70000
AAXX 08064 71168 16/// /0000 11040 21058 39630 40226 51007 60001 333 10023 21140 70000 555 33017 40201
AAXX 08064 71170 NIL
AAXX 08064 71171 47/// /2509 10005 21044 30015 40112 55002 6///1 7//4/ 333 10027 21020 7//// 555 33017 40011
AAXX 08064 71172 17/// ///// 11003 21043 39864 40081 53010 69931 7//4/ 333 10022 21036 70003
AAXX 08064 71175 NIL
AAXX 08064 71176 460// /1710 11090 39328 40012 57019 6///1 333 11082 21146 7//// 555 32036 40163
AAXX 08064 71177 460// /2014 11128 39053 40072 58015 6///1 333 11122 21185 7//// 555 32137 40103
AAXX 08064 71178 46/// /0211 10016 20012 30079 53008 6///1 333 7////
AAXX 08064 71179 460// /1421 11157 39293 40144 57019 6///1 333 11139 21176 7////
AAXX 08064 71180 17/// /3204 10040 20030 30046 40085 58013 60011 7//4/ 333 10058 20027 70043
AAXX 08064 71181 17006 80000 10034 20027 30057 40093 53008 60001 743// 333 10068 20031 70335 555 31019 40181
AAXX 08064 71183 16/// /3010 30018 58015 60001 333 70000
AAXX 08064 71184 46/// /3413 11012 21025 6///1 333 10013 21012 7//// 555 33521 40061
AAXX 08064 71186 NIL
AAXX 08064 71187 15566 61111 10011 21001 30282 40331 53009 60001 333 10044 20006 70000
AAXX 08064 71189 NIL
AAXX 08064 71190 NIL
AAXX 08064 71191 17/// ///// 10049 20043 60061 7//4/ 333 10054 20038 70097
AAXX 08064 71192 15261 81002 11120 21128 39671 40366 56008 60001 333 11090 21126 70000
AAXX 08064 71193 16/// /2002 11108 21113 39714 40082 58003 60001 333 11047 21204 70000
AAXX 08064 71196 16/// /2101 11031 21042 39876 40075 58006 60001 333 11007 21042 70000
AAXX 08064 71197 17464 80815 10027 20018 30041 40090 58015 60021 74344 333 10049 20025 70065 555 30826 40161
AAXX 08064 71198 46/// /3114 11004 21011 6///1 333 10011 21004 7//// 555 33217 40061
AAXX 08064 71199 NIL
AAXX 08064 71550 NIL
AAXX 08064 71551 NIL
AAXX 08064 71552 46/// /3214 11095 21139 6///1 333 11023 21095 7//// 555 33133 40032
AAXX 08064 71553 16/// /3115 11144 21196 60001 333 11071 21144 70000 555 33030 40012
AAXX 08064 71554 NIL
AAXX 08064 71555 16/// /0000 11119 21148 38688 40313 58010 60001 333 11042 21123 70006 555 30320 40191
AAXX 08064 71556 NIL
AAXX 08064 71557 NIL
AAXX 08064 71558 46/// ///// 11055 21070 30117 40154 55011 6///1 333 11041 21094 7////
AAXX 08064 71559 16/// /3117 11109 21156 39506 40227 55002 60001 333 11028 21115 7//// 555 33330 40002
AAXX 08064 71560 16/// /2611 11112 21151 39856 40169 55002 60001 333 11008 21122 70000 555 33428 40072
AAXX 08064 71563 NIL
AAXX 08064 71564 NIL
AAXX 08064 71565 NIL
AAXX 08064 71566 NIL
AAXX 08064 71567 NIL
AAXX 08064 71568 16/// /3407 10032 21002 30322 40335 53002 60001 333 10059 20030 70000 555 33024 40071
AAXX 08064 71569 16/// /3020 11115 21167 39501 40223 53002 60001 333 11041 21117 70000 555 32834 40213
AAXX 08064 71570 16/// /3003 11107 21142 39814 40133 55000 60001 333 11026 21111 70000 555 33121 40201
AAXX 08064 71571 NIL
AAXX 08064 71572 NIL
AAXX 08064 71573 16/// /2305 11001 21051 39841 40125 53008 60001 333 10011 21026 70000
AAXX 08064 71574 11624 80305 10001 21001 39984 40057 57038 60021 77177 8802/ 333 10003 21019 43013 70092 90947 93102 555 10108 20092
AAXX 08064 71575 16/// /2211 11108 21160 39817 49881 53014 60001 333 11052 21112 70013 555 31743 40093
AAXX 08064 71576 NIL
AAXX 08064 71577 NIL
AAXX 08064 71578 NIL
AAXX 08064 71579 16/// /2803 11093 21129 39853 40142 55001 60001 333 11015 21094 70000 555 33218 40201
AAXX 08064 71580 NIL
AAXX 08064 71581 NIL
AAXX 08064 71582 17/06 /2602 11003 21003 30303 40358 53004 60001 735// 333 10015 21015 70000
AAXX 08064 71583 NIL
AAXX 08064 71584 15566 80613 11035 21048 30053 40101 58034 60001 333 11035 21121 70000
AAXX 08064 71585 NIL
AAXX 08064 71586 16/// /3013 11173 21237 39707 40190 58002 60001 333 11097 21174 70000 555 33335 40183
AAXX 08064 71587 NIL
AAXX 08064 71588 16/// /1205 11008 21038 60001 333 10000 21018 70000
AAXX 08064 71589 17/// /3603 11002 21002 39992 40125 53013 69961 7//4/ 333 10021 21006 70160 555 10010 20160 30618 40211
AAXX 08064 71590 17/// /2901 11007 21016 39849 40039 58031 69951 7//4/ 333 10008 21019 70018 555 10020 20018
AAXX 08064 71592 NIL
AAXX 08064 71593 NIL
AAXX 08064 71596 NIL
AAXX 08064 71598 17/48 /0506 10015 20011 30045 40051 56049 60011 7//4/ 333 10017 21012 70033 555 30423 40201
AAXX 08064 71599 NIL
AAXX 08064 71500 NIL
AAXX 08064 71501 NIL
AAXX 08064 71502 NIL
AAXX 08064 71503 NIL
AAXX 08064 71504 NIL
AAXX 08064 71505 NIL
AAXX 08064 71506 NIL
AAXX 08064 71507 16/// /0000 11213 21237 60001 333 11105 21217 70000
AAXX 08064 71508 16/// ///// 10006 21030 39978 40117 55003 60001 333 10022 21002 70000
AAXX 08064 71509 NIL
AAXX 08064 71511 16/// /3113 11124 21186 39570 40229 51007 60001 333 11032 21125 70000 555 33131 40022
AAXX 08064 71512 NIL
AAXX 08064 71513 17466 80610 11030 21037 30089 40105 58021 60001 771// 333 11030 21130 70000
AAXX 08064 71514 NIL
AAXX 08064 71515 16/// /3117 11124 21169 39491 40213 51007 60001 333 11046 21124 70000 555 33137 40063
AAXX 08064 71516 16/// /3115 11135 21176 60001 333 11013 21141 70000 555 33125 40221
AAXX 08064 71517 NIL
AAXX 08064 71518 NIL
AAXX 08064 71519 NIL
AAXX 08064 71520 NIL
AAXX 08064 71521 NIL
AAXX 08064 71522 NIL
AAXX 08064 71523 NIL
AAXX 08064 71524 17/// /3309 11018 21038 30038 40064 57018 60021 7//4/ 333 10005 21020 70020
AAXX 08064 71525 NIL
AAXX 08064 71526 NIL
AAXX 08064 71527 15666 32611 11111 21162 39592 40107 56007 60001 333 11038 21118 70000
AAXX 08064 71528 NIL
AAXX 08064 71529 46/// /3211 11192 21226 39971 40208 50001 6///1 333 11160 21195 7//// 555 33147 40143
AAXX 08064 71532 17564 82106 11014 21031 39741 40087 55004 60001 771// 333 11001 21028 70000
AAXX 08064 71534 16564 82305 11001 21041 39831 40104 53002 60001 333 10005 21023 70000
AAXX 08064 71535 NIL
AAXX 08064 71536 NIL
AAXX 08064 71537 NIL
AAXX 08064 71539 NIL
AAXX 08064 71540 NIL
AAXX 08064 71541 NIL
AAXX 08064 71542 16/// /2702 11215 21251 60001 333 11106 21215 70000 555 33024 40141
AAXX 08064 71543 NIL
AAXX 08064 71544 NIL
AAXX 08064 71545 16/// ///// 11148 21186 60001 333 11049 21148 70000
AAXX 08064 71546 NIL
AAXX 08064 71547 NIL
AAXX 08064 71548 NIL
AAXX 08064 71549 NIL
AAXX 08064 71744 NIL
AAXX 08064 71750 NIL
AAXX 08064 71751 NIL
AAXX 08064 71752 NIL
AAXX 08064 71753 17/// /0605 10092 20087 39981 40009 58043 60051 7//4/ 333 10093 20061 70111
AAXX 08064 71754 16/// /3015 11139 21217 39574 40263 53004 60001 333 11046 21140 70000 555 33031 40222
AAXX 08064 71755 43/// /3005 11175 21193 39690 40042 55001 6///1 333 11071 21175 7//// 555 32724 40221
AAXX 08064 71756 NIL
AAXX 08064 71758 NIL
AAXX 08064 71760 NIL
AAXX 08064 71761 NIL
AAXX 08064 71762 NIL
AAXX 08064 71763 NIL
AAXX 08064 71765 NIL
AAXX 08064 71766 NIL
AAXX 08064 71767 NIL
AAXX 08064 71768 NIL
AAXX 08064 71769 NIL
AAXX 08064 71770 NIL
AAXX 08064 71771 NIL
AAXX 08064 71772 16/// /3115 10055 20018 30300 40306 57002 60001 333 10060 20046 70000 555 33022 40061
AAXX 08064 71773 NIL
AAXX 08064 71774 NIL
AAXX 08064 71775 NIL
AAXX 08064 71776 NIL
AAXX 08064 71777 NIL
AAXX 08064 71778 NIL
AAXX 08064 71779 NIL
AAXX 08064 71780 NIL
AAXX 08064 71781 NIL
AAXX 08064 71782 NIL
AAXX 08064 71783 NIL
AAXX 08064 71784 NIL
AAXX 08064 71785 NIL
AAXX 08064 71786 NIL
AAXX 08064 71787 17/// /0809 10031 20031 39520 40001 58056 60061 7//4/ 333 10032 20007 70102
AAXX 08064 71788 NIL
AAXX 08064 71789 NIL
AAXX 08064 71791 NIL
AAXX 08064 71792 NIL
AAXX 08064 71793 NIL
AAXX 08064 71794 NIL
AAXX 08064 71795 NIL
AAXX 08064 71796 NIL
AAXX 08064 71797 NIL
AAXX 08064 71900 46/// /19// 11111 21137 30128 40141 56022 6///1 333 11107 21145 7////
AAXX 08064 71903 NIL
AAXX 08064 71904 NIL
AAXX 08064 71914 NIL
AAXX 08064 71916 NIL
AAXX 08064 71918 460// ///// 11112 6///1 333 7////
AAXX 08064 71920 NIL
AAXX 08064 71921 NIL
AAXX 08064 71923 NIL
AAXX 08064 71927 NIL
AAXX 08064 71941 17564 82804 11046 21053 39643 40062 56010 60001 771// 333 11031 21138 70000
AAXX 08064 71947 17966 83205 11091 21096 39714 40066 55000 60001 771// 333 11067 21225 70000
AAXX 08061 01205 46/// ///// 10025 21001 39929 49975 58004 333 20015
AAXX 08064 71120 12974 03111 11154 21269 39595 40281 52003 60001 333 11117 21156 79999 555 19999 29999 33133 40221
AAXX 08064 71397 11120 80707 10062 20062 39969 40003 57049 60121 76166 887// 333 10087 20053 70210 90983 555 10000 20000
AAXX 08064 71400 17/64 /0302 11016 21017 69961 7//4/ 333 11005 21018 7////
AAXX 08064 71403 46/// /1813 10091 20088 30007 40026 58038 6///1 333 10094 20076 7////
AAXX 08064 71411 17/// /2310 10103 20103 39996 40008 56042 60021 7//4/ 333 10111 20087 70134
AAXX 08064 71412 17/// /1010 10059 20054 30021 40030 58039 60031 7//4/ 333 10060 20045 70041 555 30426 40091
AAXX 08064 71421 NIL
AAXX 08064 71430 16/// /3114 10012 21055 30001 40098 56003 60001 333 10021 20002 70000 555 33219 40041
AAXX 08064 71431 16/// /3006 10004 21054 39997 40093 56007 60001 333 10021 21009 70000
AAXX 08064 71432 NIL
AAXX 08064 71433 NIL
AAXX 08064 71435 NIL
AAXX 08064 71441 46/// /2812 11104 21153 39850 40166 55000 6///1 333 11011 21112 7//// 555 33529 40072
AAXX 08064 71443 16/// /2912 11141 21206 39750 40175 53010 60001 333 11055 21141 70000 555 33030 40012
AAXX 08064 71444 16/// /3009 11138 21197 39376 40154 51004 60001 333 11061 21145 70000 555 32923 40191
AAXX 08064 71447 16/// /2710 11113 21155 39645 40205 53001 60001 333 11025 21117 70000 555 33425 40181
AAXX 08064 71467 16/// /2810 11244 21267 30132 40253 58005 60001 333 11242 21292 70000 555 33224 40091
AAXX 08064 71472 NIL
AAXX 08064 71474 16964 00000 11134 21156 39059 40352 51002 60001 333 11041 21135 70000
AAXX 08064 71510 16/// /3014 11128 21181 39531 40264 53001 60001 333 11023 21132 70000 555 33229 40182
AAXX 08064 71538 12674 82915 10006 21055 39935 40169 53025 60001 885// 333 10023 21011 79999 555 19999 29999 33217 40170
AAXX 08064 71600 17304 81914 10111 20110 30072 40078 58023 60021 74344 333 10119 20103 70035 555 32127 40151
AAXX 08064 71601 NIL
AAXX 08064 71851 16/// /3007 11093 21135 39817 40159 53002 60001 333 11033 21093 70000 555 32921 40221
AAXX 08064 71857 NIL
AAXX 08064 71860 NIL
AAXX 08064 71876 15966 03015 11123 21191 39578 40267 53004 60001 333 11043 21124 70000
AAXX 08064 71885 NIL
AAXX 08064 71888 NIL
AAXX 08064 71895 NIL
AAXX 08064 71450 16/// /3015 11120 21174 39506 40249 50002 60001 333 11029 21121 70000 555 33033 40022
AAXX 08064 71451 NIL
AAXX 08064 71452 NIL
AAXX 08064 71453 16/// /2509 11159 21200 39362 40315 58002 60001 333 11013 21175 70000 555 10020 33019 40231
AAXX 08064 71454 16/// /3212 11168 21235 39494 40210 55000 60001 333 11065 21168 70000 555 33033 40202
AAXX 08064 71455 NIL
AAXX 08064 71456 NIL
AAXX 08064 71457 16/// /2907 11179 21205 39385 40316 58006 60001 333 11021 21194 70011 555 10070 20011 33521 40221
AAXX 08064 71458 16/// /3009 11143 21183 39499 40305 58003 60001 333 11045 21143 70000 555 33129 40222
AAXX 08064 71459 16/// /2709 11165 21205 39458 40302 55000 60001 333 11016 21165 70000 555 33024 40211
AAXX 08064 71460 16/// /3408 11017 21071 39865 40108 51013 60001 333 10010 21064 70000 555 32822 40151
AAXX 08064 71461 NIL
AAXX 08064 71462 NIL
AAXX 08064 71463 NIL
AAXX 08064 71464 NIL
AAXX 08064 71465 NIL
AAXX 08064 71466 NIL
AAXX 08064 71468 NIL
AAXX 08064 71470 NIL
AAXX 08064 71471 15966 02602 11204 21226 39472 40310 58020 60001 333 11124 21223 70000
AAXX 08064 71473 NIL
AAXX 08064 71475 NIL
AAXX 08064 71476 NIL
AAXX 08064 71477 NIL
AAXX 08064 71478 NIL
AAXX 08064 71479 NIL
AAXX 08064 71480 NIL
AAXX 08064 71481 NIL
AAXX 08064 71482 NIL
AAXX 08064 71483 NIL
AAXX 08064 71484 NIL
AAXX 08064 71485 NIL
AAXX 08064 71486 16/// /1703 11190 21204 39077 40336 51004 60001 333 11030 21192 70000
AAXX 08064 71487 16/// /2818 11139 21176 39363 40260 50002 60001 333 11024 21139 70000 555 33027 40211
AAXX 08064 71489 NIL
AAXX 08064 71490 NIL
AAXX 08064 71491 16/// /0702 11340 21376 60001 333 11080 21393 70003
AAXX 08064 71492 NIL
AAXX 08064 71493 17/// /0502 10054 20048 39965 40003 56054 60071 7//4/ 333 10063 20046 70147
AAXX 08064 71494 17/// /0102 11012 21012 39504 40021 58032 60011 7//4/ 333 11005 21021 70010
AAXX 08064 71495 NIL
AAXX 08064 71496 16/// /3114 11131 21197 39610 40243 53005 60001 333 11039 21131 70000 555 33231 40012
AAXX 08064 71497 46/// /0000 11212 21240 30020 40302 58010 6///1 333 11101 21214 7//// 555 30424 40071
AAXX 08064 71498 NIL
AAXX 08064 71499 17559 63016 11180 21217 39498 40150 55003 60001 704// 333 11111 21185 70000
AAXX 08064 71051 NIL
AAXX 08064 71055 NIL
AAXX 08064 71057 NIL
AAXX 08064 71059 460// ///// 11220 30174 40269 53001 6///1 333 11203 21222 7////
AAXX 08064 71061 16/// /2806 11158 21196 39482 40308 58013 60001 333 11039 21179 70000 555 33221 40221
AAXX 08064 71062 46/// /2404 11161 21206 39178 40301 58007 6///1 333 11045 21161 7//// 555 33125 40191
AAXX 08064 71064 460// /3431 11252 39916 40139 51018 6///1 333 11166 21252 7////
AAXX 08064 71065 NIL
AAXX 08064 71067 NIL
AAXX 08064 71070 NIL
AAXX 08064 71073 NIL
AAXX 08064 71074 NIL
AAXX 08064 71075 NIL
AAXX 08064 71078 NIL
AAXX 08064 71084 460// ///// 11181 39927 49975 51025 6///1 333 11127 21231 7////
AAXX 08064 71085 17564 81204 11104 21117 38888 40321 58010 60001 771// 333 11014 21104 70003
AAXX 08064 71087 NIL
AAXX 08064 71088 460// /1033 11105 53002 6///1 333 11089 21139 7////
AAXX 08064 71089 NIL
AAXX 08064 71096 460// ///// 11118 39274 40009 56001 6///1 333 11116 21197 7////
AAXX 08064 71097 47406 62131 11079 39537 40010 50000 6///1 745// 333 11077 21123 7//// 555 32254 40013
AAXX 08064 71098 43/// /3006 11150 21163 39687 40054 56003 6///1 333 11061 21150 7//// 555 30321 40061
AAXX 08064 71099 43/// /2310 11197 21223 39950 49970 57016 6///1 333 11079 21199 7//// 555 32729 40072
AAXX 08064 06030 02570 12304 11003 21015 30046 40062 52022 6///2 81501 333 10008 21021 34104 6///7 70004 81630
AAXX 08064 06060 02960 32006 11016 21020 30010 40077 52021 69902 83031 333 10023 21026 34104 6///7 79999 83360
AAXX 08064 06070 07/60 02303 11021 21034 30048 40079 52034 69992 71000 333 10032 21022 6///7 70029
AAXX 08064 06120 36/58 02204 11007 21008 30064 40090 52035 333 10040 21007
AAXX 08064 06180 02575 43008 10029 20001 30062 40068 52048 69902 84500 333 10042 20027 31001 6///7 70019 84627
AAXX 08064 06193 07364 83216 10029 20014 30042 40054 52060 69982 70085 333 10054 20023 55300 20000 6///7 70018 81/08 88/10
AAXX 08064 71603 11108 81815 10120 20118 39930 49982 58044 60121 74666 887// 333 10127 20093 70322 90927 555 10000 20000 31822 40050
AAXX 08064 71607 17/// /0302 10028 20022 39965 49997 58044 60071 7//4/ 333 10033 20023 70104
AAXX 08064 71609 11248 80104 10049 20039 39866 49998 58047 60061 76166 887// 333 10057 20030 70113 90983 555 10000 20000
AAXX 08064 71610 17224 82907 11003 21004 39736 40030 58027 60041 77144 333 10015 21003 70040
AAXX 08064 71621 16664 62407 11007 21041 39996 40103 55005 60001 333 10016 21011 70000
AAXX 08064 71623 NIL
AAXX 08064 71624 12674 82510 11005 21040 39900 40113 55001 60001 8657/ 333 10013 21022 79999 555 19999 29999
AAXX 08064 71625 16564 30000 11036 21078 39916 40078 58005 60001 333 11008 21043 70000
AAXX 08064 71627 11574 73009 11006 21057 30017 40062 58017 69981 72272 85530 333 10020 21007 42001 70008 90962 93101 555 10010 20008
AAXX 08064 71628 12674 62203 11019 21049 39941 40082 58005 60001 86500 333 11005 21029 70002 555 10004 20002
AAXX 08064 71630 NIL
AAXX 08064 71631 16/// /3008 11011 21044 39606 40109 53010 60001 333 11007 21029 70000
AAXX 08064 71633 11/16 92806 11010 21024 39835 40108 53011 69941 77172 333 10017 21019 47997 70004 90946 555 10004 20004 32718 40110
AAXX 08064 71705 11112 80408 10036 20034 39931 40018 58053 60051 76166 887// 333 10039 20028 70090 90983 555 10000 20000 30517 40070
AAXX 08064 71706 11259 80506 10045 20043 39968 40028 57047 60021 76166 885// 333 10046 20037 70054 90983 555 10000 20000
AAXX 08064 71707 NIL
AAXX 08064 71709 NIL
AAXX 08064 71711 NIL
AAXX 08064 71714 46/// /3602 11001 39967 6///1 333 7////
AAXX 08064 71715 16/// /0000 11014 21018 39853 40034 56037 60001 333 11009 21046 70012
AAXX 08064 71718 11558 80905 11014 21017 39990 40055 56026 69921 77122 885// 333 10003 21036 47006 70004 90952 555 10006 20004
AAXX 08064 71719 NIL
AAXX 08064 71604 NIL
AAXX 08064 71605 NIL
AAXX 08064 71611 NIL
AAXX 08064 71612 17/// /3405 11012 21027 39968 40059 58018 60011 7//4/ 333 10018 21012 70010
AAXX 08064 71614 17/// /2907 11010 21041 39987 40053 58016 69951 7//4/ 333 10021 21013 70005
AAXX 08064 71616 16/// /3004 11003 21005 39930 40050 56025 60001 333 10003 21018 70000
AAXX 08064 71617 17/// /2403 11016 21020 39886 40054 56018 60011 7//4/ 333 11014 21039 70010 555 31117 40071
AAXX 08064 71618 17524 82827 11162 21189 39818 49856 56018 60001 771// 333 11150 21199
AAXX 08064 71619 16/// /0305 10004 21004 39995 40053 56042 60001 333 10005 21027 70010
AAXX 08064 71622 NIL
AAXX 08064 71632 46/// /3223 11186 21221 39609 40062 56004 6///1 333 11100 21186 7//// 555 33138 40183
AAXX 08064 71634 17/// /3603 11006 21008 39903 40056 56042 60021 7//4/ 333 11003 21017 70040
AAXX 08064 71638 NIL
AAXX 08064 71639 12674 82507 11006 21056 39866 40109 53001 60001 885// 333 10012 21020 79999 555 19999 29999
AAXX 08064 71642 NIL
AAXX 08064 71893 12980 02806 10004 21035 30294 40326 50000 60001 333 10060 21002 79999 555 10000 20000
AAXX 08064 71894 NIL
AAXX 08064 71896 17040 33202 11170 21186 39480 40361 57009 60001 710// 333 11071 21174 70000
AAXX 08064 71897 12274 73610 10012 21036 3//// 4//// 57008 60001 87550 333 10034 20008 70000
AAXX 08064 71898 160// ///// 11013 58006 60001 333 10022 21034 70000
AAXX 08064 71899 12574 81610 10028 20002 3//// 4//// 57004 60001 8142/ 333 10041 20019 70000
AAXX 08064 71902 NIL
AAXX 08064 71905 NIL
AAXX 08064 71906 11662 82008 11110 21161 39970 40021 55003 69901 77122 8857/ 333 11110 21177 48008 79999 90910 555 19999 29999
AAXX 08064 71907 17222 92617 11088 21111 39898 49930 53002 60001 745// 333 11037 21089 70010 555 32051 40083
AAXX 08064 71909 16764 31818 11053 21100 39910 49953 51005 60021 333 11051 21073 70306 555 31842 40193
AAXX 08064 71910 46564 32012 11108 21146 39823 49884 53012 6///1 333 11052 21113 7//// 555 31646 40083
AAXX 08064 71911 47000 00133 11140 39820 49875 52026 6///1 745// 333 11105 21140 7////
AAXX 08064 71912 11974 02620 11183 21235 39796 49983 57015 60001 73611 333 11097 21190 70014 555 10014 20014 32930 40211
AAXX 08064 71915 NIL
AAXX 08064 71917 11974 20000 11367 21414 30165 40180 52004 69901 7767/ 82070 333 11341 21377 47013 79999 90999 555 19999 29999
AAXX 08064 71922 12974 03017 11174 21254 39709 40193 58003 60001 333 11097 21174 79999 555 19999 29999
AAXX 08064 71924 NIL
AAXX 08064 71925 NIL
AAXX 08064 71926 11508 81407 11194 21237 39750 49774 53011 60021 77372 885// 333 11192 21270 48042 70024 90973 93102 555 10024 20024 32827 40081
AAXX 08064 71928 16/// /0000 11230 21257 39105 40332 58008 60001 333 11047 21238 70000 555 33321 40211
AAXX 08064 71700 17361 80109 10016 20010 39989 40014 58043 60051 76144 333 10021 20014 70069
AAXX 08064 71701 11148 80108 10018 20013 39952 40014 56043 60071 76166 887// 333 10020 20014 70100 90983 555 10000 20000
AAXX 08064 71702 NIL
AAXX 08064 71703 NIL
AAXX 08064 71704 17566 82910 11004 21044 39928 40151 53022 69931 7004/ 333 10021 21019 70009
AAXX 08064 71710 17/// /1012 10047 20042 30036 40045 58035 60021 7//4/ 333 10047 20016 70068 555 30625 40101
AAXX 08064 71712 16/// /2704 11009 21055 30017 40078 57004 60001 333 10024 21010 70000
AAXX 08064 71713 NIL
AAXX 08064 71716 NIL
AAXX 08064 71717 NIL
AAXX 08064 71720 NIL
AAXX 08064 71721 NIL
AAXX 08064 71723 NIL
AAXX 08064 71724 NIL
AAXX 08064 71732 16/// /3204 11018 21039 60001 333 11014 21077 70000
AAXX 08064 71733 NIL
AAXX 08064 71734 NIL
AAXX 08064 71736 NIL
AAXX 08064 71737 NIL
AAXX 08064 71741 NIL
AAXX 08064 71742 NIL
AAXX 08064 71743 NIL
AAXX 08064 71744 NIL
AAXX 08064 71745 NIL
AAXX 08064 71746 NIL
AAXX 08064 71747 NIL
AAXX 08064 71748 NIL
AAXX 08064 71864 NIL
AAXX 08064 71865 16/// /3010 11140 21203 39510 40213 53006 60001 333 11057 21141 70000 555 32927 40221
AAXX 08064 71866 46964 03013 11131 21201 39612 40248 51004 6///1 333 11040 21131 7//// 555 33030 40022
AAXX 08064 71867 11974 03019 11164 21239 39795 40140 53005 60001 73611 333 11061 21165 79999 555 10002 29999 33137 40032
AAXX 08064 71868 16/// /3016 11149 21215 39721 40175 50004 60001 333 11044 21153 70000 555 32934 40203
AAXX 08064 71869 11974 03212 11149 21212 39681 40224 53006 69901 70277 333 11024 21149 42004 79999 90961 555 19999 29999
AAXX 08064 71871 15966 03113 11152 21200 39440 40281 53002 60001 333 11061 21154 70000
AAXX 08064 71877 12674 22704 11113 21175 39000 40323 57012 60001 82500 333 11029 21113 70004 555 10006 20004 33620 40171
AAXX 08064 71878 12974 02608 11164 21220 39204 40327 58008 60001 333 11044 21179 70008 555 10012 20008 33121 40210
AAXX 08064 71879 16964 02805 11136 21181 39474 40313 58005 60001 333 11029 21140 70000 555 33226 40211
AAXX 08064 71880 12582 70000 11065 21081 39162 40305 53005 60001 87500 333 11039 21136 70000 555 10000 20000
AAXX 08064 71882 16964 33309 11040 21074 39780 40337 51011 60001 333 10005 21067 70000 555 30118 40011
AAXX 08064 71883 NIL
AAXX 08064 71887 12986 00000 11083 21097 39923 40362 51010 60001 333 11007 21084 70000 555 10000 20000
AAXX 08064 71889 12474 63406 11034 21051 39912 40343 53009 60001 86600 333 10019 21068 70000 555 10000 20000
AAXX 08064 71891 16964 01403 11026 21045 30064 40347 50009 60001 333 10016 21036 70000
AAXX 08064 71892 12469 31204 10021 20013 30315 40320 50003 60001 83500 333 10054 20005 70000 555 10000 20000
AAXX 08064 71102 NIL
AAXX 08064 71105 NIL
AAXX 08064 71107 NIL
AAXX 08064 71110 NIL
AAXX 08064 71111 16566 81904 10030 20002 30323 40331 58004 60001 333 10045 20022 70000
AAXX 08064 71112 NIL
AAXX 08064 71113 NIL
AAXX 08064 71115 NIL
AAXX 08064 71116 16/// /3109 11122 21161 39186 40322 50000 60001 333 11016 21127 70000 555 10010 33320 40041
AAXX 08064 71118 16/// /2911 11159 21201 39433 40295 56001 60001 333 11035 21159 70000 555 33228 40222
AAXX 08064 71121 16964 02806 11155 21222 39451 40311 57006 60001 333 11036 21160 70000 555 33426 40101
AAXX 08064 71127 16/// /2807 11140 21178 39356 40322 58009 60001 333 11038 21143 70000 555 33025 40181
AAXX 08064 71130 15666 12813 11144 21209 39727 40200 51009 60001 333 11043 21144 70000
AAXX 08064 71132 15966 02912 11173 21221 39816 40140 53010 60001 333 11097 21174 70000
AAXX 08064 71133 NIL
AAXX 08064 71139 NIL
AAXX 08064 71141 NIL
AAXX 08064 71142 15966 02815 11155 21181 39270 40277 50002 60001 333 11032 21156 70000
AAXX 08064 71143 NIL
AAXX 08064 71144 NIL
AAXX 08064 71147 NIL
AAXX 08064 71149 NIL
AAXX 08064 71930 NIL
AAXX 08064 71931 16/// /0515 10017 20005 30098 40110 53014 60001 333 10044 21009 70000 555 30934 40003
AAXX 08064 71934 11548 82815 11185 21213 39982 40252 52005 69901 77177 885// 333 11120 21185 44019 70020 90973 555 10028 20020 32929 40182
AAXX 08064 71935 12974 02604 11234 21282 30079 40300 58006 60001 333 11127 21235 70000 555 10000 20000 33135 40103
AAXX 08064 71936 12974 03010 11251 21287 39990 40266 56004 60001 333 11189 21251 70000 555 10000 20000 32830 40091
AAXX 08064 71937 NIL
AAXX 08064 71938 11774 22713 11233 21268 30230 40261 55001 69901 73671 82500 333 11190 21244 44024 70004 90931 555 10016 20004 33349 40103
AAXX 08064 71940 12982 20000 11185 21209 39465 40313 57023 60001 81071 333 11051 21194 79999 555 19999 29999
AAXX 08064 71943 12974 11403 11147 21183 39423 40300 57016 60001 81070 333 11081 21155 70000 555 10000 20000
AAXX 08064 71944 160// ///// 11167 56009 60001 333 11060 21177 70000
AAXX 08064 71945 12974 00000 11228 21280 39804 40305 57011 60001 333 11063 21230 70000 555 10000 20000
AAXX 08064 71946 12974 00000 11310 21324 30081 40312 56010 60001 333 11130 21310 48038 79999 555 19999 29999 33023 41091
AAXX 08064 71948 46964 02408 11268 30163 40283 56006 6///1 333 11236 21268 7//// 555 33033 40092
AAXX 08064 71949 NIL
AAXX 08064 71951 12280 20000 11068 21077 30076 40354 50000 60001 81630 333 11019 21071 70000 555 10000 20000
AAXX 08064 71957 46964 01009 11235 21306 30150 40244 58032 6///1 333 11222 21290 7////
AAXX 08064 71958 43/// /0000 11153 21180 39330 40321 58014 6///1 333 11139 21224 7////
AAXX 08064 71964 12986 82008 11117 21141 39356 40247 57026 60001 8807/ 333 11117 21277 79999 555 19999 29999 31918 40020
AAXX 08064 71966 NIL
AAXX 08064 71968 46064 /1012 11291 30115 40183 57039 6///1 333 11193 21295 7//// 555 32030 40152
AAXX 08064 71726 16/// /3201 11121 21131 39515 40063 57016 60001 333 11045 21134 70014
AAXX 08064 71727 11332 83004 11015 21022 39852 40049 55018 69941 77182 887// 333 11005 21042 47002 70004 90927 555 10004 20004
AAXX 08064 71728 11332 83205 11058 21071 39842 40065 58011 69921 77122 885// 333 11027 21093 44001 70004 90952 555 10004 20004
AAXX 08064 71730 11469 83006 11045 21063 39665 40093 53010 69961 77182 885// 333 11012 21108 47002 70006 90977 93101 555 10020 20006
AAXX 08064 71731 11274 83109 11034 21049 39627 40081 55002 69961 72282 885// 333 11018 21080 46997 70006 90973 555 10006 20006
AAXX 08064 71735 NIL
AAXX 08064 71738 NIL
AAXX 08064 71739 41874 41703 11105 21115 39715 40084 58003 6//// 70277 84070 333 11043 21186 4//// 7//// 90983 555 1//// 2////
AAXX 08064 71749 16664 82911 11057 21105 39853 40101 55002 60001 333 11011 21068 70005 555 33222 40171
AAXX 08064 71799 12480 12906 11010 21012 30299 40324 53009 60001 81501 333 10060 21011 70002 555 10000 20000
AAXX 08064 71800 NIL
AAXX 08064 71801 11269 82901 10026 20025 39944 40117 51019 60021 72065 886// 333 10074 20016 70206 90923 555 10000 20000 32625 40031
AAXX 08064 71803 11140 80207 11011 21018 39949 40137 53013 69941 75675 887// 333 10000 21015 43005 70060 90917 555 10060 20060 30823 40200
AAXX 08064 71807 NIL
AAXX 08064 71808 12574 60912 11035 21062 30111 40158 55009 60001 86500 333 11032 21122 70000 555 10000 20000 30620 40000
AAXX 08064 71809 11474 80000 11018 21027 30109 40137 58003 60001 79277 886// 333 11991 21020 43211 70112 555 19112 29112
AAXX 08064 71810 16/// /0611 11017 21031 30014 40081 56033 60001 333 11017 21090 70000 555 30617 40051
AAXX 08064 71811 NIL
AAXX 08064 71813 NIL
AAXX 08064 71814 16/// /0710 11001 21016 30107 40117 58023 60001 333 11001 21132 70000 555 30220 40081
AAXX 08064 71815 NIL
AAXX 08064 17042 12670 51315 10153 21132 30082 40121 52006 60002 83250 333 20120 30011 55067 83835 85360 92438
AAXX 08064 17074 11561 72101 10050 20049 39185 40119 52017 60032 76062 84520 333 20046 32003 55037 20599 70034 84629 87459 91103
AAXX 08064 17086 12670 70902 10096 21009 39398 40112 53002 60002 85550 333 20064 30005 2//// 85635 87360
AAXX 08064 17088 12670 80000 10010 21122 38778 48478 57005 60002 8552/ 333 21012 34102 2//// 85640 88460
AAXX 08064 17140 11665 82005 10051 20020 38637 48429 55000 60032 72162 8552/ 333 20041 32003 55048 2//// 70035 85638 88459
AAXX 08064 17155 11670 83003 10034 20018 39020 40144 52021 60092 70262 8452/ 333 20034 32003 55000 70462 84635 88459 91112
AAXX 08064 17203 12670 30000 11022 21105 38907 48549 51002 60002 83100 333 21060 34107 55078 2//// 83840
AAXX 08064 17237 11660 83002 10064 20061 39651 40155 52035 60172 76062 8552/ 333 20063 32006 55005 70212 85633 88458 91115
AAXX 08064 17250 11662 61808 10066 20030 38739 48438 53002 69932 76022 84450 333 21018 32102 55067 2//// 70003 84640 86360
AAXX 08064 17270 12670 71102 10078 21040 39545 40200 51003 60002 85250 333 20058 30000 55061 85835 87360
AAXX 08064 17295 11560 30905 10084 20076 30124 40131 52013 60072 70298 83100 333 20064 32005 50264 55020 70140 83830
AAXX 08064 17320 11657 73404 10111 20095 30103 40108 56002 60532 78088 84270 333 20108 32007 50091 55007 70725 84836 87357 92436
AAXX 08064 17375 11570 73603 10117 20116 30095 40097 53008 60242 72582 84270 333 20112 32010 50041 55012 70569 84832 87360 91110 92438
AAXX 08061 26106 32/97 61202 10001 21011 40046 52019 83601 333 20000
AAXX 08061 26346 32397 81602 11004 21006 40063 52018 886// 333 21005 47004 88707
AAXX 08061 26406 11396 81002 11004 21013 40028 52029 69922 71011 886// 333 21012 88709
AAXX 08061 26416 33/// /1303 11012 21021 40037 52022 333 21022
AAXX 08061 26424 31496 81703 11002 21016 40041 52020 71022 885// 333 21021 41998 88616
AAXX 08061 26544 11596 71602 11006 21018 40062 52016 60012 71082 86330 333 21014 47997 83920
AAXX 08061 26313 NIL
AAXX 08064 17022 11557 83605 10075 20071 39983 40149 52020 60262 76086 8652/ 333 20074 32007 55002 2//// 70339 86625 88458 91123 92436
AAXX 08064 17031 12670 63004 10115 20104 30094 40100 52011 60002 83250 333 20072 30006 83836 86360
AAXX 08064 17038 12670 62207 10186 21103 30058 40108 51003 60002 82130 333 20127 30013 55061 20783 82835 86360 92418
AAXX 08064 17050 11930 33601 11014 21015 30112 40176 53001 60002 71000 83030 333 21014 34102 55003 70002 83360 91105
AAXX 08064 17060 11460 63306 10067 20055 30127 40167 52010 60102 70282 86200 333 20066 32005 50331 20130 70234 83710 85823
AAXX 08064 17096 NIL
AAXX 08064 17124 NIL
AAXX 08064 17128 11456 81803 10052 20050 39014 40114 52008 60102 76166 8572/ 333 20043 32004 50114 55009 20130 70132 82710 85630 88458 96010
AAXX 08064 17170 NIL
AAXX 08064 17195 11460 81512 10095 20010 38902 48432 50001 69902 76122 8522/ 333 21003 31102 50084 55021 20980 79999 82714 85830 88458
AAXX 08064 17199 12565 73601 10008 21038 39093 40217 50001 60002 85670 333 20002 34/// 55/// 2//// 82720 84640 87360
AAXX 08064 17219 12565 33205 10080 20042 30021 40167 51014 60012 83200 333 20069 32006 55000 20046 70400 83830
AAXX 08064 17240 11570 72903 10046 20030 38973 40117 52014 60032 70282 84250 333 20043 32004 55002 20255 70034 84830 87360 91108
AAXX 08064 17244 11460 72802 10032 20019 38929 48432 52006 60052 76162 84520 333 20025 32/// 55/// 2//// 70054 82715 84635 87459
AAXX 08064 17280 12970 41204 11020 21061 39416 40240 53004 60002 84030 333 21059 30109 50151 55071 20335 84360
AAXX 08064 17350 11558 70811 10114 20109 30061 40139 53001 60362 78092 86950 333 20102 33/// 70357 82925 84830 87360
AAXX 08064 17024 11440 82907 10089 20088 30050 40127 52019 60172 76162 8572/ 333 20089 32009 55005 70182 83712 85628 88460 91114 92436
AAXX 08064 17056 12970 02902 10039 20038 30169 40173 56002 60022 333 20034 31002 55000 20117 70042 91110 92418
AAXX 08064 17067 11562 72402 10082 20074 30140 40162 52018 60062 78088 87200 333 20082 32008 55000 70132 87830 91107 92407
AAXX 08064 17092 12660 60000 11055 21070 38860 48478 56004 60002 84550 333 21096 34111 50044 55076 21043 84638 86359
AAXX 08064 17112 12965 01003 10035 20019 30179 40181 53001 60002 333 20035 32001 55005 20046 70078 91111 92417
AAXX 08064 17115 11660 42605 10045 20032 30123 40175 52012 60102 70181 83130 333 20041 32003 50334 55000 20121 70302 83835 84360
AAXX 08064 17116 11657 72903 10072 20063 30051 40173 52019 60182 72582 84250 333 20072 32007 55000 20004 70342 84835 87360 91110
AAXX 08064 17188 11450 72706 10044 20018 39078 40143 52028 60192 71062 85470 333 20042 32004 70355 82715 84637 87360 91111
AAXX 08064 17202 12670 52701 11003 21046 39179 40244 55000 60002 83550 333 21076 34109 83635 85360
AAXX 08064 17248 11530 83002 10043 20024 38918 48436 53004 60022 76122 8552/ 333 20043 32004 55062 2//// 70016 85630 88459
AAXX 08064 17292 11670 53103 10060 20045 39381 40139 52017 60262 70182 83230 333 20060 32006 5//// 55000 20226 70508 83835 85360 91119
AAXX 08064 17300 11460 73205 10105 20088 30024 40095 53008 60122 79599 87900 333 20102 32008 50091 55/// 2//// 70140 81915 86825
AAXX 08064 17310 NIL
AAXX 08064 17330 11665 70000 10116 20107 30092 40110 56004 60232 72992 84270 333 20082 32006 50081 55017 84836 87359
AAXX 08064 17500 11560 70000 10126 20108 30068 40126 57012 60032 72582 85850 333 20113 32010 50001 55071 20577 70030 82825 84630 86360
AAXX 08064 17501 11560 70000 10150 20077 30095 40114 55005 60012 72582 87930 333 20143 30013 55042 20830 70011 82925 85830 92437
AAXX 08064 17505 11560 71603 10121 20102 30011 40124 58008 60032 72582 87930 333 20122 30010 55069 21088 70032 82925 85830
AAXX 08064 17507 11560 72411 10140 20071 30016 40136 55004 60072 72582 85850 333 20115 32009 5///1 55/// 2//// 70074 82825 84630 86360
AAXX 08064 17510 11560 70000 10132 20102 30080 40090 58015 60022 78082 85830 333 20130 32011 50131 55056 20608 70035 82630 83830 92417 00188
AAXX 08064 17515 11560 72903 10120 20096 39965 40141 55007 60042 72582 87930 333 20113 30009 50051 55069 21133 70041 82925 85830
AAXX 08064 17521 11560 72909 10127 20104 39981 40119 55005 60012 72582 85950 333 20125 31010 50111 55066 21167 70011 81925 84830 85360
AAXX 08064 17530 11560 71705 10136 20106 30072 40108 57014 60022 70282 867930 333 20117 30010 55066 21200 70022 82925 85830
AAXX 08064 17535 12560 71705 10136 20106 30072 40108 57014 60022 70282 87930 333 20129 30011 55033 21084 70017 82925 85830
AAXX 08064 17540 11558 72307 10149 20108 30117 40141 5//// 60122 780// 85950 333 20134 31009 50221 55/// 2//// 70116 82925 83830 85360 92426
AAXX 08064 17547 12560 71726 10142 20117 39877 40119 5//// 60072 85950 333 20126 31009 5///1 55029 20654 70068 82925 83830 85360 92427
AAXX 08064 17550 11560 71518 10149 20121 39971 40115 57011 60052 70282 87930 333 20130 30012 55051 20892 70054 82925 85830 92437
AAXX 08064 17572 11560 7//// 10140 20090 30092 40116 57015 60062 78082 85830 333 20140 32011 70089 82630 83830 92417
AAXX 08061 10044 46/// /2507 10024 20006 30071 40103 51050 222// 00062 333 10055 20014 55000 55300 91211
AAXX 08061 10124 46/// /2609 10062 20062 30083 40122 51036 222// 00059 333 10074 20043 55/// 553// 91118 91215
AAXX 08064 17026 11560 80109 10105 20102 30074 40113 52013 60022 76122 8552/ 333 20105 32008 55022 20833 70025 85628 88458 91111 92427
AAXX 08064 17034 12670 71702 10158 21004 30055 40100 58007 60002 83250 333 20120 30007 83835 87360 92428
AAXX 08064 17070 11550 83401 10054 20050 39268 40136 52021 60072 76066 8552/ 333 20051 32004 50004 55000 20167 70076 85630 88457 91105
AAXX 08064 17084 11540 80902 10057 20055 39216 40121 53004 60052 76122 8552/ 333 20051 32002 55031 70050 85630 88458 91110 96010
AAXX 08064 17090 12665 70301 10049 21031 38683 48458 58001 60002 84570 333 20014 30001 55054 84638 87360
AAXX 08064 17098 12660 20000 11135 21157 38208 48528 57002 60002 82500 333 21191 3/120 42001 50044 55022 21160 82635
AAXX 08064 17150 11460 73605 10069 20048 30052 40177 50012 60072 70282 84230 333 20068 32006 50331 55000 20080 70542 82715 83835 85360
AAXX 08064 17160 11670 82106 10071 20023 38954 48435 53005 69922 70262 84520 333 20069 32006 55069 70002 84640 88460 91118
AAXX 08064 17184 12670 33102 10070 20042 30059 40171 52018 60052 83200 333 20066 32005 55000 70294 83840 91120
AAXX 08064 17189 11460 73014 10037 20015 38972 48443 52019 60022 70362 85570 333 20035 32003 70023 82712 85630 87360
AAXX 08064 17210 12970 10101 10044 21106 39170 40221 51006 60002 80001 333 20009 34104 55074 81070
AAXX 08064 17234 12970 23503 10094 20043 30086 40154 52024 60112 82030 333 20084 32008 50124 55000 70402 82360 91109
AAXX 08064 17260 11540 70803 10068 20028 39360 40183 50002 60002 71022 83250 333 20053 30003 50104 55075 21218 83830 87359
AAXX 08064 17290 12970 30109 10114 20057 30122 40154 52018 60062 83030 333 20114 32010 50104 55000 70269 83360 91022 91122 92438
AAXX 08064 17370 11560 71306 10151 20075 30135 40139 57004 60052 78082 84270 333 20150 32014 50004 55031 2//// 70052 84830 87459 92437
AAXX 08064 71816 11474 82604 11170 21210 30102 40166 58020 69901 70281 88500 333 11141 21241 47010 79999 90931 555 19999 29999
AAXX 08064 71817 NIL
AAXX 08064 71818 12874 11704 11150 21168 30172 40191 57013 60001 81070 333 11084 21155 70000 555 10000 20000 32921 40090
AAXX 08064 71822 11948 80000 11094 21107 39571 40052 58015 69981 77171 8807/ 333 11090 21196 47021 70008 90942 93101 555 10014 20008
AAXX 08064 71825 11432 80000 11115 21125 39399 40092 57020 60011 77177 885// 333 11114 21338 47072 70014 90973 93104 555 10046 20014
AAXX 08064 71827 11674 11807 11156 21167 39791 40040 58005 69901 70377 81500 333 11079 21159 47017 70016 90953 555 10016 20016
AAXX 08064 71828 17464 81609 11146 21166 39416 40075 58014 60001 745// 333 11145 21288 70000
AAXX 08064 71831 11574 32304 11105 21117 39795 40080 57006 69901 72611 83500 333 11048 21131 47016 70020 90911 555 10028 20020
AAXX 08064 71832 NIL
AAXX 08064 71834 11566 80000 11096 21113 39642 40076 57007 69901 77111 885// 333 11045 21136 48008 70010 90910 555 10016 20010
AAXX 08064 71841 NIL
AAXX 08064 71842 11774 32712 11112 21156 39618 40097 50012 69901 70181 85300 333 11046 21121 48003 79999 90946 555 19999 29999 33325 40091
AAXX 08064 71844 16664 32811 11159 21191 39742 40025 56002 60001 333 11085 21162 70000 555 32719 40191
AAXX 08064 71845 NIL
AAXX 08064 71850 12974 02506 11117 21167 39610 40120 57003 60001 333 11032 21118 79999 555 19999 29999 33321 40080
AAXX 08064 71852 16564 62910 11103 21124 39847 40148 55001 60001 333 11021 21105 70000 555 33024 40191
AAXX 08064 71854 NIL
AAXX 08064 71858 NIL
AAXX 08064 71861 NIL
AAXX 08064 71862 12974 03015 11111 21159 39509 40231 55001 60001 333 11028 21117 70000 555 10000 20000 33027 40231
AAXX 08064 71863 46964 33117 11125 21180 39515 40237 53002 6///1 333 11044 21125 7//// 555 33138 40213
AAXX 08061 33317 11496 81803 11005 21008 39702 40043 56000 60022 78588 889// 333 21025 47001 88914
AAXX 08061 33924 31996 80000 10002 21004 30126 40138 53003 71022 8807/ 333 21007
AAXX 08061 34601 31/05 90402 10002 20002 39995 40134 57005 74742 333 20001 89/03
AAXX 08064 16310 11597 63106 10118 20075 39960 40183 55003 60022 72161 83530 333 20114 32/// 55078 2//// 83625 84357 555 0316/
BBXX MINUK05 0806/ 99571 70021 46/// ///// 10048 49976 57054
BBXX FLAO 0806/ 99764 70847 46/// ///// 11185 40158 52001
BBXX MINUK01 0806/ 99599 70012 46/// ///// 10060 49951 57060
BBXX MINFR05 0806/ 99513 10043 46/// ///// 10043 40201 52004
BBXX MINFR00 0806/ 99499 70012 46/// ///// 10108 40190 57040
AAXX 08064 13601 12665 30000 10070 20041 30065 40167 54001 60002 83800 333 20068 31/// 81840
AAXX 08061 33088 NIL
AAXX 08061 33177 NIL
AAXX 08061 33261 31996 71303 11028 21035 39945 40133 53002 71022 85031 333 21029
AAXX 08061 33275 31995 31103 11058 21062 39917 40150 57002 71000 83030 333 21060
AAXX 08061 33301 11496 82306 10002 21001 39748 40032 56003 60042 78580 883// 333 21022 47006 86611
AAXX 08061 33325 11496 81503 11002 21011 39790 40062 57008 69932 78582 883// 333 21012 47001 86914
AAXX 08061 33377 31/02 91502 11033 21033 39936 40136 54000 74941 333 21033
AAXX 08061 33415 11697 72506 10008 21003 39650 40053 53008 60032 70282 86930 333 21027 43002
AAXX 08061 33429 NIL
AAXX 08061 33466 31350 81803 10000 21005 39914 40105 56005 71022 8672/ 333 21005 86707
AAXX 08061 33526 11660 62402 10034 21020 39721 40061 53014 69902 70282 86300 333 21017 82920
AAXX 08061 33562 31596 71706 11001 21015 39697 40063 56009 71011 83530 333 21020
AAXX 08061 33614 31/93 91401 11020 21023 30029 40137 57001 74940 333 21047
AAXX 08061 33761 31/08 92006 10001 20001 39880 40107 57013 74544 333 21006
AAXX 08061 33902 31/92 90000 11033 21033 30064 40153 55000 74744 333 21033
AAXX 08061 33983 12195 83603 10044 20042 30054 40116 53003 60172 78082 889// 333 20043 87003
AAXX 08061 34415 11307 80000 10007 20007 30039 40137 57009 69912 74754 886// 333 21010
AAXX 08061 34523 NIL
AAXX 08061 34712 11425 83603 10041 20039 30025 40111 57011 60162 76166 8772/ 333 20040
AAXX 08064 78958 11468 89902 10260 20241 30094 40104 69901 78022 8682/ 333 10300 20230 58010 84817 86640 87458
AAXX 08064 71043 11980 20804 11272 21316 30193 40293 58017 69901 77677 81071 333 11198 21295 48019 79999 90983 555 19999 29999
AAXX 08064 71045 NIL
AAXX 08064 71050 NIL
AAXX 08064 71051 NIL
AAXX 08064 71052 NIL
AAXX 08064 71066 12974 00000 11258 21302 39866 40312 56018 60001 333 11100 21261 70000 555 10000 20000 31221 40101
AAXX 08064 71068 12874 22403 11160 21202 39577 40302 57023 60001 80001 333 11066 21177 70000 555 10000 20000
AAXX 08064 71069 16964 02705 11147 21172 39570 40307 58016 60001 333 11058 21149 70000 555 33028 40092
AAXX 08064 71076 16/// /3110 11199 21238 39789 40200 53002 60001 333 11126 21200 70000 555 32934 40193
AAXX 08064 71077 16/// /3116 11170 21235 39687 40251 58002 60001 333 11089 21170 70000 555 33233 40172
AAXX 08064 71079 11666 62816 11177 21239 39756 40043 58004 69901 77131 83540 333 11086 21179 48004 79999 90942 555 19999 29999 32835 40211
AAXX 08064 71081 47959 01019 11079 21092 39833 49845 52008 6///1 745// 333 11073 21119 7//// 555 31148 40073
AAXX 08064 71082 NIL
AAXX 08064 71083 11959 03512 11283 21322 39718 49760 52009 69901 77677 333 11214 21293 48053 70002 90983 555 10002 20002 33025 40071
AAXX 08064 71090 46208 83220 11215 21250 30022 40058 6///1 333 11209 21306 7////
AAXX 08064 71091 460// /0935 11131 39691 49897 51006 6///1 333 7////
AAXX 08064 71092 47002 00930 11173 39281 49948 58003 6///1 745// 333 11168 21201 7////
AAXX 08064 71093 460// /3606 11190 39505 40008 56006 6///1 333 11159 21204 7//// 555 30924 40151
AAXX 08064 71094 46002 /1834 11106 39093 49990 56006 6///1 333 11104 21200 7////
AAXX 08064 71095 47958 80827 11190 21244 39976 40058 58006 6///1 745// 333 11169 21255 7////
AAXX 08064 71101 160// /1804 30322 58004 60001 333 70000
AAXX 08064 71104 12974 01302 11171 21188 39190 40361 58008 60001 333 11053 21171 70000 555 10000 20000
AAXX 08064 71108 12474 40000 10000 21008 30250 40324 53009 60001 84600 333 10048 20000 70020 555 10000 20000
AAXX 08064 71109 12474 32404 10006 21021 30310 40337 53001 60001 82501 333 10057 21002 70000 555 10000 20000
AAXX 08064 71397 11120 80707 10062 20062 39969 40003 57049 60121 76166 887// 333 10087 20053 70210 90983 555 10000 20000
AAXX 08064 71400 17/64 /0302 11016 21017 69961 7//4/ 333 11005 21018 7////
AAXX 08064 71403 46/// /1813 10091 20088 30007 40026 58038 6///1 333 10094 20076 7////
AAXX 08064 71411 17/// /2310 10103 20103 39996 40008 56042 60021 7//4/ 333 10111 20087 70134
AAXX 08064 71412 17/// /1010 10059 20054 30021 40030 58039 60031 7//4/ 333 10060 20045 70041 555 30426 40091
AAXX 08064 71421 NIL
AAXX 08064 71430 16/// /3114 10012 21055 30001 40098 56003 60001 333 10021 20002 70000 555 33219 40041
AAXX 08064 71431 16/// /3006 10004 21054 39997 40093 56007 60001 333 10021 21009 70000
AAXX 08064 71432 NIL
AAXX 08064 71433 NIL
AAXX 08064 71435 NIL
AAXX 08064 71441 46/// /2812 11104 21153 39850 40166 55000 6///1 333 11011 21112 7//// 555 33529 40072
AAXX 08064 71443 16/// /2912 11141 21206 39750 40175 53010 60001 333 11055 21141 70000 555 33030 40012
AAXX 08064 71444 16/// /3009 11138 21197 39376 40154 51004 60001 333 11061 21145 70000 555 32923 40191
AAXX 08064 71447 16/// /2710 11113 21155 39645 40205 53001 60001 333 11025 21117 70000 555 33425 40181
AAXX 08064 71467 16/// /2810 11244 21267 30132 40253 58005 60001 333 11242 21292 70000 555 33224 40091
AAXX 08064 71472 NIL
AAXX 08064 71474 16964 00000 11134 21156 39059 40352 51002 60001 333 11041 21135 70000
AAXX 08064 71510 16/// /3014 11128 21181 39531 40264 53001 60001 333 11023 21132 70000 555 33229 40182
AAXX 08064 71538 12674 82915 10006 21055 39935 40169 53025 60001 885// 333 10023 21011 79999 555 19999 29999 33217 40170
AAXX 08064 71600 17304 81914 10111 20110 30072 40078 58023 60021 74344 333 10119 20103 70035 555 32127 40151
AAXX 08064 71601 NIL
AAXX 08064 71603 11108 81815 10120 20118 39930 49982 58044 60121 74666 887// 333 10127 20093 70322 90927 555 10000 20000 31822 40050
AAXX 08064 71607 17/// /0302 10028 20022 39965 49997 58044 60071 7//4/ 333 10033 20023 70104
AAXX 08064 71609 11248 80104 10049 20039 39866 49998 58047 60061 76166 887// 333 10057 20030 70113 90983 555 10000 20000
AAXX 08064 71610 17224 82907 11003 21004 39736 40030 58027 60041 77144 333 10015 21003 70040
AAXX 08064 71621 16664 62407 11007 21041 39996 40103 55005 60001 333 10016 21011 70000
AAXX 08064 71623 NIL
AAXX 08064 71624 12674 82510 11005 21040 39900 40113 55001 60001 8657/ 333 10013 21022 79999 555 19999 29999
AAXX 08064 71625 16564 30000 11036 21078 39916 40078 58005 60001 333 11008 21043 70000
AAXX 08064 71627 11574 73009 11006 21057 30017 40062 58017 69981 72272 85530 333 10020 21007 42001 70008 90962 93101 555 10010 20008
AAXX 08064 71628 12674 62203 11019 21049 39941 40082 58005 60001 86500 333 11005 21029 70002 555 10004 20002
AAXX 08064 71630 NIL
AAXX 08064 71631 16/// /3008 11011 21044 39606 40109 53010 60001 333 11007 21029 70000
AAXX 08064 71633 11/16 92806 11010 21024 39835 40108 53011 69941 77172 333 10017 21019 47997 70004 90946 555 10004 20004 32718 40110
AAXX 08064 71705 11112 80408 10036 20034 39931 40018 58053 60051 76166 887// 333 10039 20028 70090 90983 555 10000 20000 30517 40070
AAXX 08064 71706 11259 80506 10045 20043 39968 40028 57047 60021 76166 885// 333 10046 20037 70054 90983 555 10000 20000
AAXX 08064 71707 NIL
AAXX 08064 71709 NIL
AAXX 08064 71711 NIL
AAXX 08064 71714 46/// /3602 11001 39967 6///1 333 7////
AAXX 08064 71715 16/// /0000 11014 21018 39853 40034 56037 60001 333 11009 21046 70012
AAXX 08064 71718 11558 80905 11014 21017 39990 40055 56026 69921 77122 885// 333 10003 21036 47006 70004 90952 555 10006 20004
AAXX 08064 71719 NIL
AAXX 08064 71893 12980 02806 10004 21035 30294 40326 50000 60001 333 10060 21002 79999 555 10000 20000
AAXX 08064 71894 NIL
AAXX 08064 71896 17040 33202 11170 21186 39480 40361 57009 60001 710// 333 11071 21174 70000
AAXX 08064 71897 12274 73610 10012 21036 3//// 4//// 57008 60001 87550 333 10034 20008 70000
AAXX 08064 71898 160// ///// 11013 58006 60001 333 10022 21034 70000
AAXX 08064 71899 12574 81610 10028 20002 3//// 4//// 57004 60001 8142/ 333 10041 20019 70000
AAXX 08064 71902 NIL
AAXX 08064 71905 NIL
AAXX 08064 71906 11662 82008 11110 21161 39970 40021 55003 69901 77122 8857/ 333 11110 21177 48008 79999 90910 555 19999 29999
AAXX 08064 71907 17222 92617 11088 21111 39898 49930 53002 60001 745// 333 11037 21089 70010 555 32051 40083
AAXX 08064 71909 16764 31818 11053 21100 39910 49953 51005 60021 333 11051 21073 70306 555 31842 40193
AAXX 08064 71910 46564 32012 11108 21146 39823 49884 53012 6///1 333 11052 21113 7//// 555 31646 40083
AAXX 08064 71911 47000 00133 11140 39820 49875 52026 6///1 745// 333 11105 21140 7////
AAXX 08064 71912 11974 02620 11183 21235 39796 49983 57015 60001 73611 333 11097 21190 70014 555 10014 20014 32930 40211
AAXX 08064 71915 NIL
AAXX 08064 71917 11974 20000 11367 21414 30165 40180 52004 69901 7767/ 82070 333 11341 21377 47013 79999 90999 555 19999 29999
AAXX 08064 71922 12974 03017 11174 21254 39709 40193 58003 60001 333 11097 21174 79999 555 19999 29999
AAXX 08064 71924 NIL
AAXX 08064 71925 NIL
AAXX 08064 71926 11508 81407 11194 21237 39750 49774 53011 60021 77372 885// 333 11192 21270 48042 70024 90973 93102 555 10024 20024 32827 40081
AAXX 08064 71928 16/// /0000 11230 21257 39105 40332 58008 60001 333 11047 21238 70000 555 33321 40211
AAXX 08064 71250 NIL
AAXX 08064 71251 16/// /2603 11125 21176 39369 40333 58005 60001 333 11006 21133 70007 555 30117 40191
AAXX 08064 71252 NIL
AAXX 08064 71253 46/// /1502 11223 21256 6///1 333 11103 21223 7//// 555 33223 40101
AAXX 08064 71254 16/// /2807 11181 21203 60001 333 11040 21184 70000 555 33025 40171
AAXX 08064 71255 16/// /3110 11172 21239 60001 333 11085 21172 70000 555 33029 40162
AAXX 08064 71256 46/// /0000 11159 21183 39334 40311 58013 6///1 333 11050 21160 7//// 555 32924 40211
AAXX 08064 71257 NIL
AAXX 08064 71258 NIL
AAXX 08064 71259 NIL
AAXX 08064 71261 16/// /3014 10013 21034 39861 40123 53014 60001 333 10020 21011 70000 555 33124 40061
AAXX 08064 71263 NIL
AAXX 08064 71264 17/// /1506 10102 20102 39982 40013 58043 60031 7//4/ 333 10110 20077 70138
AAXX 08064 71265 15666 82615 10008 21031 30020 40114 55003 60001 333 10021 21005 70000
AAXX 08064 71266 NIL
AAXX 08064 71267 15766 83503 11081 21143 39198 40334 58008 60001 333 11005 21086 70000
AAXX 08064 71268 NIL
AAXX 08064 71269 NIL
AAXX 08064 71270 16/// /2806 10010 21033 39877 40097 53004 60001 333 10012 21014 70000
AAXX 08064 71271 NIL
AAXX 08064 71272 17524 83018 11186 21217 39594 49954 58002 60001 771// 333 11133 21204 70000
AAXX 08064 71273 16/// /2908 11151 21243 39570 40257 51002 60001 333 11063 21154 70000 555 33030 40212
AAXX 08064 71274 NIL
AAXX 08064 71275 NIL
AAXX 08064 71276 NIL
AAXX 08064 71277 NIL
AAXX 08064 71278 NIL
AAXX 08064 71279 16/// /0305 11068 21083 30020 40087 56032 60001 333 11066 21142 70000
AAXX 08064 71281 NIL
AAXX 08064 71282 46/// /2517 10011 21002 39825 40095 56005 6///1 333 10012 21013 7//// 555 32621 40011
AAXX 08064 71283 NIL
AAXX 08064 71284 16/// ///// 11157 21192 60001 333 11044 21161 70004
AAXX 08064 71285 NIL
AAXX 08064 71286 NIL
AAXX 08064 71287 NIL
AAXX 08064 71288 NIL
AAXX 08064 71289 NIL
AAXX 08064 71290 15966 81404 11150 21166 39482 40358 56008 60001 333 11050 21166 70000
AAXX 08064 71291 16/// /3504 11065 21097 39797 40089 55004 60001 333 11014 21083 70013 555 10010 20013 32619 40211
AAXX 08064 71292 15666 13013 11140 21182 39568 53005 60001
AAXX 08064 71294 16/// /2203 11027 21032 39676 40080 58006 60001 333 11016 70000
AAXX 08064 71295 16/// /2707 11124 21164 39641 40095 58005 60001 333 11039 21126 70000 555 33224 40081
AAXX 08064 71296 NIL
AAXX 08064 71297 16/// /2503 11003 21031 60001 333 10019 21027 70000
AAXX 08064 71298 16/// /2808 11001 21049 39930 40165 53021 60001 333 10018 21011 70000 555 10010 32719 40041
AAXX 08064 71299 NIL
AAXX 08064 71864 NIL
AAXX 08064 71865 16/// /3010 11140 21203 39510 40213 53006 60001 333 11057 21141 70000 555 32927 40221
AAXX 08064 71866 46964 03013 11131 21201 39612 40248 51004 6///1 333 11040 21131 7//// 555 33030 40022
AAXX 08064 71867 11974 03019 11164 21239 39795 40140 53005 60001 73611 333 11061 21165 79999 555 10002 29999 33137 40032
AAXX 08064 71868 16/// /3016 11149 21215 39721 40175 50004 60001 333 11044 21153 70000 555 32934 40203
AAXX 08064 71869 11974 03212 11149 21212 39681 40224 53006 69901 70277 333 11024 21149 42004 79999 90961 555 19999 29999
AAXX 08064 71871 15966 03113 11152 21200 39440 40281 53002 60001 333 11061 21154 70000
AAXX 08064 71877 12674 22704 11113 21175 39000 40323 57012 60001 82500 333 11029 21113 70004 555 10006 20004 33620 40171
AAXX 08064 71878 12974 02608 11164 21220 39204 40327 58008 60001 333 11044 21179 70008 555 10012 20008 33121 40210
AAXX 08064 71879 16964 02805 11136 21181 39474 40313 58005 60001 333 11029 21140 70000 555 33226 40211
AAXX 08064 71880 12582 70000 11065 21081 39162 40305 53005 60001 87500 333 11039 21136 70000 555 10000 20000
AAXX 08064 71882 16964 33309 11040 21074 39780 40337 51011 60001 333 10005 21067 70000 555 30118 40011
AAXX 08064 71883 NIL
AAXX 08064 71887 12986 00000 11083 21097 39923 40362 51010 60001 333 11007 21084 70000 555 10000 20000
AAXX 08064 71889 12474 63406 11034 21051 39912 40343 53009 60001 86600 333 10019 21068 70000 555 10000 20000
AAXX 08064 71891 16964 01403 11026 21045 30064 40347 50009 60001 333 10016 21036 70000
AAXX 08064 71892 12469 31204 10021 20013 30315 40320 50003 60001 83500 333 10054 20005 70000 555 10000 20000
AAXX 08064 71114 16564 61011 10013 21008 30283 40332 53010 60001 333 10044 20007 70010
AAXX 08064 71120 12974 03111 11154 21269 39595 40281 52003 60001 333 11117 21156 79999 555 10000 20000 33133 40221
AAXX 08064 71122 16/// /2304 11147 21170 38641 40303 58003 60001 333 11052 21158 70000 555 30817 40231
AAXX 08064 71123 12974 01503 11199 21236 39412 40322 56005 60001 333 11032 21211 79999 555 19999 29999 33127 40191
AAXX 08064 71125 NIL
AAXX 08064 71129 12974 02810 11142 21186 39421 40284 50004 60001 333 11022 21142 70000 555 10000 20000 33326 40191
AAXX 08064 71131 16/// /3115 11154 21192 38982 40286 51006 60001 333 11029 21161 70003 555 33230 40032
AAXX 08064 71135 16/// /3219 11139 21191 39141 40264 51003 60001 333 11021 21139 70000 555 33229 40062
AAXX 08064 71137 16/// /2304 11191 21218 39309 40295 51006 60001 333 11003 21192 70000 555 33419 40231
AAXX 08064 71140 12574 12914 11110 21132 39668 40184 53004 60001 81500 333 11042 21122 70002 555 10002 20002 32825 40041
AAXX 08064 71145 11474 12815 11162 21213 39760 40061 51001 69901 73671 81500 333 11056 21162 48028 70004 90930 555 10004 20004 32725 40201
AAXX 08064 71148 16/// /2912 11110 21156 39582 40177 58005 60001 333 11023 21127 70000 555 33126 40201
AAXX 08064 71182 16564 61107 11146 21182 39559 40118 58019 60001 333 11145 21334 70000
AAXX 08064 71185 16964 01205 11009 30099 40123 56010 69951 333 11009 21032 70005
AAXX 08064 71188 11320 82502 11027 21034 30027 40070 57042 60011 77172 887// 333 11027 21044 47008 70072 90962 93101 555 10076 20072
AAXX 08064 71200 NIL
AAXX 08064 71207 NIL
AAXX 08064 71260 13/// ///// 11031 21036 39876 40115 50001 69921 333 11002 21056 46997 70007 555 10010 20007
AAXX 08064 71120 12974 03111 11154 21269 39595 40281 52003 60001 333 11117 21156 79999 555 19999 29999 33133 40221
AAXX 08064 71150 46/// /3119 11130 21174 39470 40171 51004 6///1 333 11064 21130 7//// 555 33030 40042
AAXX 08064 71151 NIL
AAXX 08064 71152 17/// /0710 10023 20004 30087 40100 58003 69971 7//4/ 333 10060 20020 70067 555 30629 40162
AAXX 08064 71153 16/// /1701 11108 21121 60001 333 11037 21108 70015
AAXX 08064 71154 17/// /0502 11111 21138 69971 7//4/ 333 10001 21111 70007 555 32232 40092
AAXX 08064 71155 NIL
AAXX 08064 71156 NIL
AAXX 08064 71157 46/// ///// 11140 21172 6///1 333 11034 21141 7////
AAXX 08064 71158 NIL
AAXX 08064 71159 NIL
AAXX 08064 71160 NIL
AAXX 08064 71161 16/// /2403 11018 21038 39932 40081 55006 60001 333 10006 21020 70000
AAXX 08064 71162 NIL
AAXX 08064 71163 46/// /2905 11258 21283 39929 40293 53006 6///1 333 11189 21258 7//// 555 33125 40131
AAXX 08064 71164 NIL
AAXX 08064 71165 NIL
AAXX 08064 71166 NIL
AAXX 08064 71167 15966 02904 11219 21238 39172 40328 58013 60001 333 11055 21222 70000
AAXX 08064 71168 16/// /0000 11040 21058 39630 40226 51007 60001 333 10023 21140 70000 555 33017 40201
AAXX 08064 71170 NIL
AAXX 08064 71171 47/// /2509 10005 21044 30015 40112 55002 6///1 7//4/ 333 10027 21020 7//// 555 33017 40011
AAXX 08064 71172 17/// ///// 11003 21043 39864 40081 53010 69931 7//4/ 333 10022 21036 70003
AAXX 08064 71175 NIL
AAXX 08064 71176 460// /1710 11090 39328 40012 57019 6///1 333 11082 21146 7//// 555 32036 40163
AAXX 08064 71177 460// /2014 11128 39053 40072 58015 6///1 333 11122 21185 7//// 555 32137 40103
AAXX 08064 71178 46/// /0211 10016 20012 30079 53008 6///1 333 7////
AAXX 08064 71179 460// /1421 11157 39293 40144 57019 6///1 333 11139 21176 7////
AAXX 08064 71180 17/// /3204 10040 20030 30046 40085 58013 60011 7//4/ 333 10058 20027 70043
AAXX 08064 71181 17006 80000 10034 20027 30057 40093 53008 60001 743// 333 10068 20031 70335 555 31019 40181
AAXX 08064 71183 16/// /3010 30018 58015 60001 333 70000
AAXX 08064 71184 46/// /3413 11012 21025 6///1 333 10013 21012 7//// 555 33521 40061
AAXX 08064 71186 NIL
AAXX 08064 71187 15566 61111 10011 21001 30282 40331 53009 60001 333 10044 20006 70000
AAXX 08064 71189 NIL
AAXX 08064 71190 NIL
AAXX 08064 71191 17/// ///// 10049 20043 60061 7//4/ 333 10054 20038 70097
AAXX 08064 71192 15261 81002 11120 21128 39671 40366 56008 60001 333 11090 21126 70000
AAXX 08064 71193 16/// /2002 11108 21113 39714 40082 58003 60001 333 11047 21204 70000
AAXX 08064 71196 16/// /2101 11031 21042 39876 40075 58006 60001 333 11007 21042 70000
AAXX 08064 71197 17464 80815 10027 20018 30041 40090 58015 60021 74344 333 10049 20025 70065 555 30826 40161
AAXX 08064 71198 46/// /3114 11004 21011 6///1 333 10011 21004 7//// 555 33217 40061
AAXX 08064 71199 NIL
AAXX 08064 71665 16/// /2007 11125 21163 30104 40114 58020 60001 333 11118 21171 70000 555 32518 40091
AAXX 08064 71666 17/// /0507 10034 20032 39976 40020 58049 60051 7//4/ 333 10036 20024 7////
AAXX 08064 71667 NIL
AAXX 08064 71668 17/// /3605 10014 20004 39968 40011 58045 60061 7//4/ 333 10020 20012 70078
AAXX 08064 71669 NIL
AAXX 08064 71670 17/// ///// 10034 20032 69991 7//4/ 333 10034 20016 70038
AAXX 08064 71671 NIL
AAXX 08064 71672 16/// /2205 11015 21053 39830 40095 55003 60001 333 10008 21020 70000
AAXX 08064 71673 NIL
AAXX 08064 71674 NIL
AAXX 08064 71675 17666 32911 11159 21197 39741 40024 56002 60051 70044 333 11087 21160 70183
AAXX 08064 71679 NIL
AAXX 08064 71680 NIL
AAXX 08064 71681 NIL
AAXX 08064 71682 NIL
AAXX 08064 71683 NIL
AAXX 08064 71684 15566 63108 11059 21082 39782 40085 53011 60001 333 11019 21171 70000
AAXX 08064 71685 15966 03406 11040 21064 39779 40336 51011 60001 333 11001 21065 70000
AAXX 08064 71686 NIL
AAXX 08064 71687 NIL
AAXX 08064 71688 16/// /0201 11067 21070 39242 40304 50002 60001 333 10004 21069 70000
AAXX 08064 71689 15966 02707 11178 21250 39804 40282 56003 60001 333 11089 21179 70000
AAXX 08064 71690 NIL
AAXX 08064 71691 17256 80811 11013 21019 30034 40061 58028 60001 771// 333 11013 21055 70000
AAXX 08064 71692 NIL
AAXX 08064 71694 16/// /2703 11005 21032 39731 40094 55003 60001 333 11002 21040 70000
AAXX 08064 71695 16/// /2917 11162 21231 39791 40135 51003 60001 333 11061 21163 70000 555 33036 40033
AAXX 08064 71696 NIL
AAXX 08064 71697 15666 82405 11005 21053 39936 40108 55003 60001 333 10019 21018 70000
AAXX 08064 71699 17/// /0308 10041 20036 39981 49989 58046 60071 7//4/ 333 10045 20032 70153
AAXX 08064 71043 11980 20804 11272 21316 30193 40293 58017 69901 77677 81071 333 11198 21295 48019 79999 90983 555 19999 29999
AAXX 08064 71045 NIL
AAXX 08064 71050 NIL
AAXX 08064 71051 NIL
AAXX 08064 71052 NIL
AAXX 08064 71066 12974 00000 11258 21302 39866 40312 56018 60001 333 11100 21261 70000 555 10000 20000 31221 40101
AAXX 08064 71068 12874 22403 11160 21202 39577 40302 57023 60001 80001 333 11066 21177 70000 555 10000 20000
AAXX 08064 71069 16964 02705 11147 21172 39570 40307 58016 60001 333 11058 21149 70000 555 33028 40092
AAXX 08064 71076 16/// /3110 11199 21238 39789 40200 53002 60001 333 11126 21200 70000 555 32934 40193
AAXX 08064 71077 16/// /3116 11170 21235 39687 40251 58002 60001 333 11089 21170 70000 555 33233 40172
AAXX 08064 71079 11666 62816 11177 21239 39756 40043 58004 69901 77131 83540 333 11086 21179 48004 79999 90942 555 19999 29999 32835 40211
AAXX 08064 71081 47959 01019 11079 21092 39833 49845 52008 6///1 745// 333 11073 21119 7//// 555 31148 40073
AAXX 08064 71082 NIL
AAXX 08064 71083 11959 03512 11283 21322 39718 49760 52009 69901 77677 333 11214 21293 48053 70002 90983 555 10002 20002 33025 40071
AAXX 08064 71090 46208 83220 11215 21250 30022 40058 6///1 333 11209 21306 7////
AAXX 08064 71091 460// /0935 11131 39691 49897 51006 6///1 333 7////
AAXX 08064 71092 47002 00930 11173 39281 49948 58003 6///1 745// 333 11168 21201 7////
AAXX 08064 71093 460// /3606 11190 39505 40008 56006 6///1 333 11159 21204 7//// 555 30924 40151
AAXX 08064 71094 46002 /1834 11106 39093 49990 56006 6///1 333 11104 21200 7////
AAXX 08064 71095 47958 80827 11190 21244 39976 40058 58006 6///1 745// 333 11169 21255 7////
AAXX 08064 71101 160// /1804 30322 58004 60001 333 70000
AAXX 08064 71104 12974 01302 11171 21188 39190 40361 58008 60001 333 11053 21171 70000 555 10000 20000
AAXX 08064 71108 12474 40000 10000 21008 30250 40324 53009 60001 84600 333 10048 20000 70020 555 10000 20000
AAXX 08064 71109 12474 32404 10006 21021 30310 40337 53001 60001 82501 333 10057 21002 70000 555 10000 20000
AAXX 08064 71401 NIL
AAXX 08064 71402 NIL
AAXX 08064 71404 NIL
AAXX 08064 71405 NIL
AAXX 08064 71406 NIL
AAXX 08064 71407 NIL
AAXX 08064 71408 NIL
AAXX 08064 71409 NIL
AAXX 08064 71410 15666 12911 11168 21238 39805 40092 56005 60001 333 11061 21169 70000
AAXX 08064 71413 NIL
AAXX 08064 71414 NIL
AAXX 08064 71415 17/// /0912 10070 20067 30013 40016 58043 60081 7//4/ 333 10070 20054 70136 555 30618 40081
AAXX 08064 71417 NIL
AAXX 08064 71418 NIL
AAXX 08064 71419 46/// /1808 10091 20090 30038 40048 58027 6///1 333 10102 20067 7//// 555 32222 40071
AAXX 08064 71423 NIL
AAXX 08064 71424 46/// /0310 6///1 333 7//// 555 30428 40072
AAXX 08064 71425 17/// /0000 11016 21031 30038 40074 56037 60021 7//4/ 333 11009 21040 70020 555 31021 40171
AAXX 08064 71426 NIL
AAXX 08064 71427 NIL
AAXX 08064 71428 16/// /1902 11012 21029 30054 40060 56033 60001 333 11006 21027 70000 555 30520 40121
AAXX 08064 71429 17/// /0719 10022 20015 30033 40052 56041 60011 7//4/ 333 10022 21027 70030 555 30525 40091
AAXX 08064 71434 NIL
AAXX 08064 71436 15666 82305 11016 21043 39865 40101 55005 60001 333 10008 21025 70000
AAXX 08064 71437 46/// /2307 10016 21037 30022 40118 55001 6///1 333 10024 20004 7////
AAXX 08064 71438 NIL
AAXX 08064 71439 NIL
AAXX 08064 71440 NIL
AAXX 08064 71442 NIL
AAXX 08064 71445 NIL
AAXX 08064 71446 16/// /2918 11149 21192 39258 40277 53002 60001 333 11028 21151 70000 555 33030 40202
AAXX 08064 71448 NIL
AAXX 08064 71449 NIL
AAXX 08064 71114 16564 61011 10013 21008 30283 40332 53010 60001 333 10044 20007 70010
AAXX 08064 71120 12974 03111 11154 21269 39595 40281 52003 60001 333 11117 21156 79999 555 10000 20000 33133 40221
AAXX 08064 71122 16/// /2304 11147 21170 38641 40303 58003 60001 333 11052 21158 70000 555 30817 40231
AAXX 08064 71123 12974 01503 11199 21236 39412 40322 56005 60001 333 11032 21211 79999 555 19999 29999 33127 40191
AAXX 08064 71125 NIL
AAXX 08064 71129 12974 02810 11142 21186 39421 40284 50004 60001 333 11022 21142 70000 555 10000 20000 33326 40191
AAXX 08064 71131 16/// /3115 11154 21192 38982 40286 51006 60001 333 11029 21161 70003 555 33230 40032
AAXX 08064 71135 16/// /3219 11139 21191 39141 40264 51003 60001 333 11021 21139 70000 555 33229 40062
AAXX 08064 71137 16/// /2304 11191 21218 39309 40295 51006 60001 333 11003 21192 70000 555 33419 40231
AAXX 08064 71140 12574 12914 11110 21132 39668 40184 53004 60001 81500 333 11042 21122 70002 555 10002 20002 32825 40041
AAXX 08064 71145 11474 12815 11162 21213 39760 40061 51001 69901 73671 81500 333 11056 21162 48028 70004 90930 555 10004 20004 32725 40201
AAXX 08064 71148 16/// /2912 11110 21156 39582 40177 58005 60001 333 11023 21127 70000 555 33126 40201
AAXX 08064 71182 16564 61107 11146 21182 39559 40118 58019 60001 333 11145 21334 70000
AAXX 08064 71185 16964 01205 11009 30099 40123 56010 69951 333 11009 21032 70005
AAXX 08064 71188 11320 82502 11027 21034 30027 40070 57042 60011 77172 887// 333 11027 21044 47008 70072 90962 93101 555 10076 20072
AAXX 08064 71200 NIL
AAXX 08064 71207 NIL
AAXX 08064 71260 13/// ///// 11031 21036 39876 40115 50001 69921 333 11002 21056 46997 70007 555 10010 20007
AAXX 08064 71864 NIL
AAXX 08064 71865 16/// /3010 11140 21203 39510 40213 53006 60001 333 11057 21141 70000 555 32927 40221
AAXX 08064 71866 46964 03013 11131 21201 39612 40248 51004 6///1 333 11040 21131 7//// 555 33030 40022
AAXX 08064 71867 11974 03019 11164 21239 39795 40140 53005 60001 73611 333 11061 21165 79999 555 10002 29999 33137 40032
AAXX 08064 71868 16/// /3016 11149 21215 39721 40175 50004 60001 333 11044 21153 70000 555 32934 40203
AAXX 08064 71869 11974 03212 11149 21212 39681 40224 53006 69901 70277 333 11024 21149 42004 79999 90961 555 19999 29999
AAXX 08064 71871 15966 03113 11152 21200 39440 40281 53002 60001 333 11061 21154 70000
AAXX 08064 71877 12674 22704 11113 21175 39000 40323 57012 60001 82500 333 11029 21113 70004 555 10006 20004 33620 40171
AAXX 08064 71878 12974 02608 11164 21220 39204 40327 58008 60001 333 11044 21179 70008 555 10012 20008 33121 40210
AAXX 08064 71879 16964 02805 11136 21181 39474 40313 58005 60001 333 11029 21140 70000 555 33226 40211
AAXX 08064 71880 12582 70000 11065 21081 39162 40305 53005 60001 87500 333 11039 21136 70000 555 10000 20000
AAXX 08064 71882 16964 33309 11040 21074 39780 40337 51011 60001 333 10005 21067 70000 555 30118 40011
AAXX 08064 71883 NIL
AAXX 08064 71887 12986 00000 11083 21097 39923 40362 51010 60001 333 11007 21084 70000 555 10000 20000
AAXX 08064 71889 12474 63406 11034 21051 39912 40343 53009 60001 86600 333 10019 21068 70000 555 10000 20000
AAXX 08064 71891 16964 01403 11026 21045 30064 40347 50009 60001 333 10016 21036 70000
AAXX 08064 71892 12469 31204 10021 20013 30315 40320 50003 60001 83500 333 10054 20005 70000 555 10000 20000
AAXX 08064 71300 NIL
AAXX 08064 71301 NIL
AAXX 08064 71302 NIL
AAXX 08064 71303 46/// ///// 10014 21044 6///1 333 10026 21003 7////
AAXX 08064 71305 15566 62912 11190 21237 39948 40262 52001 60001 333 11087 21190 70000
AAXX 08064 71306 17420 82620 11070 21096 39897 49929 53002 60001 771// 333 11029 21075 70000 555 31955 40083
AAXX 08064 71307 NIL
AAXX 08064 71308 17/// /1506 10086 20082 39953 40036 58033 60051 7//4/ 333 10086 20059 70110
AAXX 08064 71309 NIL
AAXX 08064 71310 17/// /0603 10043 20038 39991 40027 58042 60011 7//4/ 333 10043 20032 70022 555 30521 40071
AAXX 08064 71311 NIL
AAXX 08064 71312 16/// /3113 11155 21218 39724 40197 51008 60001 333 11044 21155 70000 555 32934 40183
AAXX 08064 71314 NIL
AAXX 08064 71315 16/// /1002 11011 21018 30006 40060 56040 60001 333 11008 21019 70026 555 10060 20026
AAXX 08064 71316 16/// /3009 11158 21238 39580 40295 58001 60001 333 11073 21158 70000 555 33026 40221
AAXX 08064 71317 NIL
AAXX 08064 71318 16/// /2909 11162 21197 39316 40303 55001 60001 333 11030 21172 70000 555 33130 40182
AAXX 08064 71319 16/// /3201 11037 21037 39167 40026 58025 60001 333 11036 21074 70011
AAXX 08064 71320 NIL
AAXX 08064 71321 NIL
AAXX 08064 71322 NIL
AAXX 08064 71323 17/// /3203 11006 21009 39736 40015 58032 60021 7//4/ 333 10003 21016 70020
AAXX 08064 71331 16/// /2915 11178 21242 60001 333 11093 21179 70000 555 32828 40002
AAXX 08064 71332 NIL
AAXX 08064 71334 46/// /3020 11187 21222 39620 49956 58002 6///1 333 11135 21205 7//// 555 32935 40033
AAXX 08064 71335 46764 62021 11140 57017 6///1 333 11097 21144 7//// 555 32638 40103
AAXX 08064 71336 46/// ///09 10024 20021 30073 40095 53013 6///1 333 10061 20016 7////
AAXX 08064 71337 46/// /0804 11023 21025 39896 40136 58004 6///1 333 11022 21039 7//// 555 30720 40211
AAXX 08064 71338 46964 00506 11157 21182 30010 40017 55001 6///1 333 11155 21207 7////
AAXX 08064 71339 16564 33003 11111 21127 30162 40177 56013 60001 333 11096 21173 70000
AAXX 08064 71340 NIL
AAXX 08064 71341 NIL
AAXX 08064 71342 NIL
AAXX 08064 71343 NIL
AAXX 08064 71344 NIL
AAXX 08064 71345 NIL
AAXX 08064 71346 NIL
AAXX 08064 71347 NIL
AAXX 08064 71348 NIL
AAXX 08064 71349 NIL
AAXX 08064 71744 NIL
AAXX 08064 71750 NIL
AAXX 08064 71751 NIL
AAXX 08064 71752 NIL
AAXX 08064 71753 17/// /0605 10092 20087 39981 40009 58043 60051 7//4/ 333 10093 20061 70111
AAXX 08064 71754 16/// /3015 11139 21217 39574 40263 53004 60001 333 11046 21140 70000 555 33031 40222
AAXX 08064 71755 43/// /3005 11175 21193 39690 40042 55001 6///1 333 11071 21175 7//// 555 32724 40221
AAXX 08064 71756 NIL
AAXX 08064 71758 NIL
AAXX 08064 71760 NIL
AAXX 08064 71761 NIL
AAXX 08064 71762 NIL
AAXX 08064 71763 NIL
AAXX 08064 71765 NIL
AAXX 08064 71766 NIL
AAXX 08064 71767 NIL
AAXX 08064 71768 NIL
AAXX 08064 71769 NIL
AAXX 08064 71770 NIL
AAXX 08064 71771 NIL
AAXX 08064 71772 16/// /3115 10055 20018 30300 40306 57002 60001 333 10060 20046 70000 555 33022 40061
AAXX 08064 71773 NIL
AAXX 08064 71774 NIL
AAXX 08064 71775 NIL
AAXX 08064 71776 NIL
AAXX 08064 71777 NIL
AAXX 08064 71778 NIL
AAXX 08064 71779 NIL
AAXX 08064 71780 NIL
AAXX 08064 71781 NIL
AAXX 08064 71782 NIL
AAXX 08064 71783 NIL
AAXX 08064 71784 NIL
AAXX 08064 71785 NIL
AAXX 08064 71786 NIL
AAXX 08064 71787 17/// /0809 10031 20031 39520 40001 58056 60061 7//4/ 333 10032 20007 70102
AAXX 08064 71788 NIL
AAXX 08064 71789 NIL
AAXX 08064 71791 NIL
AAXX 08064 71792 NIL
AAXX 08064 71793 NIL
AAXX 08064 71794 NIL
AAXX 08064 71795 NIL
AAXX 08064 71796 NIL
AAXX 08064 71797 NIL
AAXX 08064 71500 NIL
AAXX 08064 71501 NIL
AAXX 08064 71502 NIL
AAXX 08064 71503 NIL
AAXX 08064 71504 NIL
AAXX 08064 71505 NIL
AAXX 08064 71506 NIL
AAXX 08064 71507 16/// /0000 11213 21237 60001 333 11105 21217 70000
AAXX 08064 71508 16/// ///// 10006 21030 39978 40117 55003 60001 333 10022 21002 70000
AAXX 08064 71509 NIL
AAXX 08064 71511 16/// /3113 11124 21186 39570 40229 51007 60001 333 11032 21125 70000 555 33131 40022
AAXX 08064 71512 NIL
AAXX 08064 71513 17466 80610 11030 21037 30089 40105 58021 60001 771// 333 11030 21130 70000
AAXX 08064 71514 NIL
AAXX 08064 71515 16/// /3117 11124 21169 39491 40213 51007 60001 333 11046 21124 70000 555 33137 40063
AAXX 08064 71516 16/// /3115 11135 21176 60001 333 11013 21141 70000 555 33125 40221
AAXX 08064 71517 NIL
AAXX 08064 71518 NIL
AAXX 08064 71519 NIL
AAXX 08064 71520 NIL
AAXX 08064 71521 NIL
AAXX 08064 71522 NIL
AAXX 08064 71523 NIL
AAXX 08064 71524 17/// /3309 11018 21038 30038 40064 57018 60021 7//4/ 333 10005 21020 70020
AAXX 08064 71525 NIL
AAXX 08064 71526 NIL
AAXX 08064 71527 15666 32611 11111 21162 39592 40107 56007 60001 333 11038 21118 70000
AAXX 08064 71528 NIL
AAXX 08064 71529 46/// /3211 11192 21226 39971 40208 50001 6///1 333 11160 21195 7//// 555 33147 40143
AAXX 08064 71532 17564 82106 11014 21031 39741 40087 55004 60001 771// 333 11001 21028 70000
AAXX 08064 71534 16564 82305 11001 21041 39831 40104 53002 60001 333 10005 21023 70000
AAXX 08064 71535 NIL
AAXX 08064 71536 NIL
AAXX 08064 71537 NIL
AAXX 08064 71539 NIL
AAXX 08064 71540 NIL
AAXX 08064 71541 NIL
AAXX 08064 71542 16/// /2702 11215 21251 60001 333 11106 21215 70000 555 33024 40141
AAXX 08064 71543 NIL
AAXX 08064 71544 NIL
AAXX 08064 71545 16/// ///// 11148 21186 60001 333 11049 21148 70000
AAXX 08064 71546 NIL
AAXX 08064 71547 NIL
AAXX 08064 71548 NIL
AAXX 08064 71549 NIL
AAXX 08064 71550 NIL
AAXX 08064 71551 NIL
AAXX 08064 71552 46/// /3214 11095 21139 6///1 333 11023 21095 7//// 555 33133 40032
AAXX 08064 71553 16/// /3115 11144 21196 60001 333 11071 21144 70000 555 33030 40012
AAXX 08064 71554 NIL
AAXX 08064 71555 16/// /0000 11119 21148 38688 40313 58010 60001 333 11042 21123 70006 555 30320 40191
AAXX 08064 71556 NIL
AAXX 08064 71557 NIL
AAXX 08064 71558 46/// ///// 11055 21070 30117 40154 55011 6///1 333 11041 21094 7////
AAXX 08064 71559 16/// /3117 11109 21156 39506 40227 55002 60001 333 11028 21115 7//// 555 33330 40002
AAXX 08064 71560 16/// /2611 11112 21151 39856 40169 55002 60001 333 11008 21122 70000 555 33428 40072
AAXX 08064 71563 NIL
AAXX 08064 71564 NIL
AAXX 08064 71565 NIL
AAXX 08064 71566 NIL
AAXX 08064 71567 NIL
AAXX 08064 71568 16/// /3407 10032 21002 30322 40335 53002 60001 333 10059 20030 70000 555 33024 40071
AAXX 08064 71569 16/// /3020 11115 21167 39501 40223 53002 60001 333 11041 21117 70000 555 32834 40213
AAXX 08064 71570 16/// /3003 11107 21142 39814 40133 55000 60001 333 11026 21111 70000 555 33121 40201
AAXX 08064 71571 NIL
AAXX 08064 71572 NIL
AAXX 08064 71573 16/// /2305 11001 21051 39841 40125 53008 60001 333 10011 21026 70000
AAXX 08064 71574 11624 80305 10001 21001 39984 40057 57038 60021 77177 8802/ 333 10003 21019 43013 70092 90947 93102 555 10108 20092
AAXX 08064 71575 16/// /2211 11108 21160 39817 49881 53014 60001 333 11052 21112 70013 555 31743 40093
AAXX 08064 71576 NIL
AAXX 08064 71577 NIL
AAXX 08064 71578 NIL
AAXX 08064 71579 16/// /2803 11093 21129 39853 40142 55001 60001 333 11015 21094 70000 555 33218 40201
AAXX 08064 71580 NIL
AAXX 08064 71581 NIL
AAXX 08064 71582 17/06 /2602 11003 21003 30303 40358 53004 60001 735// 333 10015 21015 70000
AAXX 08064 71583 NIL
AAXX 08064 71584 15566 80613 11035 21048 30053 40101 58034 60001 333 11035 21121 70000
AAXX 08064 71585 NIL
AAXX 08064 71586 16/// /3013 11173 21237 39707 40190 58002 60001 333 11097 21174 70000 555 33335 40183
AAXX 08064 71587 NIL
AAXX 08064 71588 16/// /1205 11008 21038 60001 333 10000 21018 70000
AAXX 08064 71589 17/// /3603 11002 21002 39992 40125 53013 69961 7//4/ 333 10021 21006 70160 555 10010 20160 30618 40211
AAXX 08064 71590 17/// /2901 11007 21016 39849 40039 58031 69951 7//4/ 333 10008 21019 70018 555 10020 20018
AAXX 08064 71592 NIL
AAXX 08064 71593 NIL
AAXX 08064 71596 NIL
AAXX 08064 71598 17/48 /0506 10015 20011 30045 40051 56049 60011 7//4/ 333 10017 21012 70033 555 30423 40201
AAXX 08064 71599 NIL
AAXX 08064 89667 46/// /2015 11027 29076 39769 4//// 5////
AAXX 0806/ 89872 46/// ///// 11035 39718 4//// 5////
AAXX 0806/ 89869 46/// ///// 11039 39704 4//// 5////
AAXX 0806/ 89866 46/// ///// 11011 39673 4//// 5////
AAXX 0806/ 89329 46/// ///// 11094 38676 4//// 5////
AAXX 0806/ 89828 46/// ///// 11256 36402 4//// 5////
AAXX 08064 71900 46/// /19// 11111 21137 30128 40141 56022 6///1 333 11107 21145 7////
AAXX 08064 71903 NIL
AAXX 08064 71904 NIL
AAXX 08064 71914 NIL
AAXX 08064 71916 NIL
AAXX 08064 71918 460// ///// 11112 6///1 333 7////
AAXX 08064 71920 NIL
AAXX 08064 71921 NIL
AAXX 08064 71923 NIL
AAXX 08064 71927 NIL
AAXX 08064 71941 17564 82804 11046 21053 39643 40062 56010 60001 771// 333 11031 21138 70000
AAXX 08064 71947 17966 83205 11091 21096 39714 40066 55000 60001 771// 333 11067 21225 70000
AAXX 08064 60020 NIL
AAXX 08064 60030 02960 83203 10193 20108 30158 40214 55005 60004 82077 333 018// 20190 55030 60007 924/7
AAXX 08064 60040 02970 80510 10204 20131 30202 40226 58010 60004 8807/ 333 018// 20193 55066 60007 924/7
AAXX 08064 60338 12965 00000 10106 20098 30212 40280 57006 60004 333 20106 55087 92417
AAXX 08061 10004 46/60 /2808 10085 20030 30119 40119 51016 222// 00102 333 10089 20062 55003 55300 91120 91214
AAXX 08064 71700 17361 80109 10016 20010 39989 40014 58043 60051 76144 333 10021 20014 70069
AAXX 08064 71701 11148 80108 10018 20013 39952 40014 56043 60071 76166 887// 333 10020 20014 70100 90983 555 10000 20000
AAXX 08064 71702 NIL
AAXX 08064 71703 NIL
AAXX 08064 71704 17566 82910 11004 21044 39928 40151 53022 69931 7004/ 333 10021 21019 70009
AAXX 08064 71710 17/// /1012 10047 20042 30036 40045 58035 60021 7//4/ 333 10047 20016 70068 555 30625 40101
AAXX 08064 71712 16/// /2704 11009 21055 30017 40078 57004 60001 333 10024 21010 70000
AAXX 08064 71713 NIL
AAXX 08064 71716 NIL
AAXX 08064 71717 NIL
AAXX 08064 71720 NIL
AAXX 08064 71721 NIL
AAXX 08064 71723 NIL
AAXX 08064 71724 NIL
AAXX 08064 71732 16/// /3204 11018 21039 60001 333 11014 21077 70000
AAXX 08064 71733 NIL
AAXX 08064 71734 NIL
AAXX 08064 71736 NIL
AAXX 08064 71737 NIL
AAXX 08064 71741 NIL
AAXX 08064 71742 NIL
AAXX 08064 71743 NIL
AAXX 08064 71744 NIL
AAXX 08064 71745 NIL
AAXX 08064 71746 NIL
AAXX 08064 71747 NIL
AAXX 08064 71748 NIL
AAXX 08064 71604 NIL
AAXX 08064 71605 NIL
AAXX 08064 71611 NIL
AAXX 08064 71612 17/// /3405 11012 21027 39968 40059 58018 60011 7//4/ 333 10018 21012 70010
AAXX 08064 71614 17/// /2907 11010 21041 39987 40053 58016 69951 7//4/ 333 10021 21013 70005
AAXX 08064 71616 16/// /3004 11003 21005 39930 40050 56025 60001 333 10003 21018 70000
AAXX 08064 71617 17/// /2403 11016 21020 39886 40054 56018 60011 7//4/ 333 11014 21039 70010 555 31117 40071
AAXX 08064 71618 17524 82827 11162 21189 39818 49856 56018 60001 771// 333 11150 21199
AAXX 08064 71619 16/// /0305 10004 21004 39995 40053 56042 60001 333 10005 21027 70010
AAXX 08064 71622 NIL
AAXX 08064 71632 46/// /3223 11186 21221 39609 40062 56004 6///1 333 11100 21186 7//// 555 33138 40183
AAXX 08064 71634 17/// /3603 11006 21008 39903 40056 56042 60021 7//4/ 333 11003 21017 70040
AAXX 08064 71638 NIL
AAXX 08064 71639 12674 82507 11006 21056 39866 40109 53001 60001 885// 333 10012 21020 79999 555 19999 29999
AAXX 08064 71642 NIL
AAXX 08064 71450 16/// /3015 11120 21174 39506 40249 50002 60001 333 11029 21121 70000 555 33033 40022
AAXX 08064 71451 NIL
AAXX 08064 71452 NIL
AAXX 08064 71453 16/// /2509 11159 21200 39362 40315 58002 60001 333 11013 21175 70000 555 10020 33019 40231
AAXX 08064 71454 16/// /3212 11168 21235 39494 40210 55000 60001 333 11065 21168 70000 555 33033 40202
AAXX 08064 71455 NIL
AAXX 08064 71456 NIL
AAXX 08064 71457 16/// /2907 11179 21205 39385 40316 58006 60001 333 11021 21194 70011 555 10070 20011 33521 40221
AAXX 08064 71458 16/// /3009 11143 21183 39499 40305 58003 60001 333 11045 21143 70000 555 33129 40222
AAXX 08064 71459 16/// /2709 11165 21205 39458 40302 55000 60001 333 11016 21165 70000 555 33024 40211
AAXX 08064 71460 16/// /3408 11017 21071 39865 40108 51013 60001 333 10010 21064 70000 555 32822 40151
AAXX 08064 71461 NIL
AAXX 08064 71462 NIL
AAXX 08064 71463 NIL
AAXX 08064 71464 NIL
AAXX 08064 71465 NIL
AAXX 08064 71466 NIL
AAXX 08064 71468 NIL
AAXX 08064 71470 NIL
AAXX 08064 71471 15966 02602 11204 21226 39472 40310 58020 60001 333 11124 21223 70000
AAXX 08064 71473 NIL
AAXX 08064 71475 NIL
AAXX 08064 71476 NIL
AAXX 08064 71477 NIL
AAXX 08064 71478 NIL
AAXX 08064 71479 NIL
AAXX 08064 71480 NIL
AAXX 08064 71481 NIL
AAXX 08064 71482 NIL
AAXX 08064 71483 NIL
AAXX 08064 71484 NIL
AAXX 08064 71485 NIL
AAXX 08064 71486 16/// /1703 11190 21204 39077 40336 51004 60001 333 11030 21192 70000
AAXX 08064 71487 16/// /2818 11139 21176 39363 40260 50002 60001 333 11024 21139 70000 555 33027 40211
AAXX 08064 71489 NIL
AAXX 08064 71490 NIL
AAXX 08064 71491 16/// /0702 11340 21376 60001 333 11080 21393 70003
AAXX 08064 71492 NIL
AAXX 08064 71493 17/// /0502 10054 20048 39965 40003 56054 60071 7//4/ 333 10063 20046 70147
AAXX 08064 71494 17/// /0102 11012 21012 39504 40021 58032 60011 7//4/ 333 11005 21021 70010
AAXX 08064 71495 NIL
AAXX 08064 71496 16/// /3114 11131 21197 39610 40243 53005 60001 333 11039 21131 70000 555 33231 40012
AAXX 08064 71497 46/// /0000 11212 21240 30020 40302 58010 6///1 333 11101 21214 7//// 555 30424 40071
AAXX 08064 71498 NIL
AAXX 08064 71499 17559 63016 11180 21217 39498 40150 55003 60001 704// 333 11111 21185 70000
AAXX 08064 71851 16/// /3007 11093 21135 39817 40159 53002 60001 333 11033 21093 70000 555 32921 40221
AAXX 08064 71857 NIL
AAXX 08064 71860 NIL
AAXX 08064 71876 15966 03015 11123 21191 39578 40267 53004 60001 333 11043 21124 70000
AAXX 08064 71885 NIL
AAXX 08064 71888 NIL
AAXX 08064 71895 NIL
AAXX 08064 71051 NIL
AAXX 08064 71055 NIL
AAXX 08064 71057 NIL
AAXX 08064 71059 460// ///// 11220 30174 40269 53001 6///1 333 11203 21222 7////
AAXX 08064 71061 16/// /2806 11158 21196 39482 40308 58013 60001 333 11039 21179 70000 555 33221 40221
AAXX 08064 71062 46/// /2404 11161 21206 39178 40301 58007 6///1 333 11045 21161 7//// 555 33125 40191
AAXX 08064 71064 460// /3431 11252 39916 40139 51018 6///1 333 11166 21252 7////
AAXX 08064 71065 NIL
AAXX 08064 71067 NIL
AAXX 08064 71070 NIL
AAXX 08064 71073 NIL
AAXX 08064 71074 NIL
AAXX 08064 71075 NIL
AAXX 08064 71078 NIL
AAXX 08064 71084 460// ///// 11181 39927 49975 51025 6///1 333 11127 21231 7////
AAXX 08064 71085 17564 81204 11104 21117 38888 40321 58010 60001 771// 333 11014 21104 70003
AAXX 08064 71087 NIL
AAXX 08064 71088 460// /1033 11105 53002 6///1 333 11089 21139 7////
AAXX 08064 71089 NIL
AAXX 08064 71096 460// ///// 11118 39274 40009 56001 6///1 333 11116 21197 7////
AAXX 08064 71097 47406 62131 11079 39537 40010 50000 6///1 745// 333 11077 21123 7//// 555 32254 40013
AAXX 08064 71098 43/// /3006 11150 21163 39687 40054 56003 6///1 333 11061 21150 7//// 555 30321 40061
AAXX 08064 71099 43/// /2310 11197 21223 39950 49970 57016 6///1 333 11079 21199 7//// 555 32729 40072
AAXX 08064 71102 NIL
AAXX 08064 71105 NIL
AAXX 08064 71107 NIL
AAXX 08064 71110 NIL
AAXX 08064 71111 16566 81904 10030 20002 30323 40331 58004 60001 333 10045 20022 70000
AAXX 08064 71112 NIL
AAXX 08064 71113 NIL
AAXX 08064 71115 NIL
AAXX 08064 71116 16/// /3109 11122 21161 39186 40322 50000 60001 333 11016 21127 70000 555 10010 33320 40041
AAXX 08064 71118 16/// /2911 11159 21201 39433 40295 56001 60001 333 11035 21159 70000 555 33228 40222
AAXX 08064 71121 16964 02806 11155 21222 39451 40311 57006 60001 333 11036 21160 70000 555 33426 40101
AAXX 08064 71127 16/// /2807 11140 21178 39356 40322 58009 60001 333 11038 21143 70000 555 33025 40181
AAXX 08064 71130 15666 12813 11144 21209 39727 40200 51009 60001 333 11043 21144 70000
AAXX 08064 71132 15966 02912 11173 21221 39816 40140 53010 60001 333 11097 21174 70000
AAXX 08064 71133 NIL
AAXX 08064 71139 NIL
AAXX 08064 71141 NIL
AAXX 08064 71142 15966 02815 11155 21181 39270 40277 50002 60001 333 11032 21156 70000
AAXX 08064 71143 NIL
AAXX 08064 71144 NIL
AAXX 08064 71147 NIL
AAXX 08064 71149 NIL
AAXX 08061 01265 16/// /1901 11201 21223 39428 40056 50008 60002 333 21208 70000 91102
AAXX 08061 01375 16/// /3403 11107 21158 6//// 333 21116 91111
AAXX 08061 01440 46/// /2606 11046 21050 38730 40024 52006 333 21117 91107
AAXX 08061 01467 46/// /2602 11007 21055 30029 40035 52009 333 21016 91107
AAXX 08061 01469 16/// /3202 11083 21100 39859 40038 52013 60002 333 21102 70002 91103
AAXX 08061 01015 46/// /3604 10007 21091 333 21002 91111
AAXX 08061 01228 46/// /2803 10040 21013 39968 49975 53005 333 20027 91114
AAXX 08061 01340 16/// /1403 11074 21119 39146 40040 50002 60002 333 21122 70000 91107
AAXX 08061 01425 16/// /3502 11037 21042 39966 40048 52002 60022 333 21107 91106
AAXX 08061 01257 11360 62002 11016 21029 39827 49990 52012 60062 70222 84338 333 21022 70076 91107
AAXX 08061 01277 16/// /0000 11009 21015 60022 333 21034 70041 91102
AAXX 08061 01370 16/// /2801 11157 21194 38905 40146 51005 60002 333 21160 4/010 70000 91105
AAXX 08061 01419 16/// /0501 11003 21007 60012 333 21066 70010 91104
AAXX 08061 01092 46/// /2305 11014 21065 333 21025 91109
AAXX 08061 01329 16/// /3601 11020 21038 39969 40032 51009 60002 333 21026 70000 91110
AAXX 08061 01337 16/// /0000 11075 21091 39975 40044 53003 60002 333 21111 70000 91103
AAXX 08061 01436 11465 80502 10024 20001 69942 70282 8637/ 333 21004 40001 70004 91104
AAXX 08061 02019 07/99 /2502 11095 21113 39382 40016 52013 69902 72487 333 11055 21109 69905 70001 90710 91104
AAXX 08061 02081 07/56 /1701 11100 21108 39600 40012 52013 60032 77177 333 11094 21121 69905 70035 90710 91101
AAXX 08061 02095 07162 /3001 11069 21076 39808 40015 52015 69982 77171 333 11058 21070 69905 70008 88/03 90710 91104
AAXX 08061 02101 47350 /0000 11133 21148 39439 40013 52016 785// 8//// 333 11079 21136 83/10
AAXX 08061 02119 07299 /3501 11123 21132 39620 40016 52019 69992 70087 333 11090 21149 60005 70010 82/05 88/30 90710 91102
AAXX 08061 02124 07699 /0601 11084 21093 39471 40006 53014 60012 70087 333 11084 21101 60005 70018 88/39 90710 91102
AAXX 08061 02126 07365 /3102 11060 21065 39655 49997 52014 69922 70030 333 11060 21085 60005 70007 88/07 90710 91103
AAXX 08061 02151 37284 80000 11109 21113 39668 40012 51014 60002 72031 333 11099 21122 60005 70005 86/04 87/06 88/64 91000 90710 91100 90710 91200
AAXX 08061 02186 01260 83504 11042 21047 39964 49989 51010 60012 77177 877// 333 11033 21051 47002 69905 70013 81706 86708 87713 91006 90710 91106 90710 91204
AAXX 08061 02197 07/59 /1102 11006 21009 39981 40000 53009 60022 71087 333 10006 21042 69915 70017 90710 91105
AAXX 08061 02207 07499 /1901 11065 21072 39280 49985 53012 69922 72487 333 11040 21093 69905 70027 86/15 87/30 90710 91103
AAXX 08061 02219 05/63 /0901 11053 21054 39315 49987 53016 69982 333 11028 21067 60005 70020 90710 91102
AAXX 08061 02226 45684 /3202 11039 21048 39528 49986 52015 8//// 333 11020 21041 88/38
AAXX 08061 02243 07/58 /2802 11083 21089 39710 49983 53013 69932 77171 333 11063 21094 69905 90710 91104
AAXX 08061 02269 07217 /3503 11011 21011 60072 77170 333 11005 21018 69925 70079 82/05 87/18 90710 91105
AAXX 08061 02287 07480 /1202 10012 21001 39960 49969 52013 69972 70086 333 10016 20002 60005 70013 88/19 90710 91103
AAXX 08061 02297 07057 /3304 10004 20004 39932 49978 52013 60012 72487 333 10012 21005 69925 70016 81/01 85/08 87/12 90710 91106
AAXX 08061 02308 07599 /0200 11086 21098 39124 49998 53010 69902 72487 333 11040 21096 69905 70002 90710 91103
AAXX 08061 02327 05/99 /3002 11142 21155 39559 40007 53016 69902 333 11036 21142 60005 70004 90710 91102
AAXX 08061 02355 05499 /3005 11023 21045 39960 49972 53020 69962 333 11018 21036 60005 70009 87/15 88/35 90710 91107
AAXX 08061 02366 45584 /3103 11037 21051 39966 49972 51020 8//// 333 11032 21063 88/28
AAXX 08061 02407 05/99 /1401 11143 21154 39639 40020 52020 60002 333 11082 21144 60005 70016 90710 91101
AAXX 08061 02418 45984 /2502 11065 21071 39894 40029 52024 8//// 333 11009 21073
AAXX 08061 02435 45984 /2605 11058 21078 39812 40003 52020 8//// 333 11016 21058
AAXX 08061 02440 05/99 /3101 11048 21062 69912 333 11020 21059 60005 70041 90710 91103
AAXX 08061 02452 07/99 /2902 11056 21058 69912 70070 333 11018 21056 60005 70053 90710 91105
AAXX 08061 02456 07599 /2201 11037 21043 39950 49993 53026 69932 70010 333 10005 21040 60005 70030 85/22 90710 91103
AAXX 08061 02469 07/99 /2803 11019 21032 69932 70070 333 10018 21022 60005 70019 90710 91105
AAXX 08061 02498 05499 /2607 10017 21004 39980 49997 52027 69942 333 10041 20015 60005 70022 88/14 90710 91110
AAXX 08061 02518 46/// /0402 10010 21008 333 10040 21001 90710 91107
AAXX 08061 02520 12984 02304 11028 21044 39976 40045 51028 60012 333 10004 21040 47002 60005 70010 91005 90710 91105 90710 91205
AAXX 08061 02550 47357 /2903 11020 21020 39766 40044 52036 777// 8//// 333 10003 21021 88/07
AAXX 08061 02562 11482 52903 11013 21027 39912 40029 52033 69902 72272 85500 333 11001 21022 34/// 60005 70001 85611 91005 90710 91105 90710 91204
AAXX 08061 02563 05499 /3104 11004 21023 39998 40020 53032 60002 333 10016 21004 60005 70000 88/13 90710 91108
AAXX 08061 02565 07560 /2701 11012 21017 39913 40033 52035 69902 78587 333 11004 21038 69905 70003 88/23 90710 91102
AAXX 08061 02589 07599 /2704 10008 21001 39985 40006 53026 60062 70086 333 10040 20008 60005 70073 87/20 90710 91108
AAXX 08061 02590 45484 /3103 10018 21001 39956 40018 52031 8//// 333 10032 20004 87/14
AAXX 08061 02618 07/71 /3003 11011 21014 39890 40057 53040 69902 70071 333 10014 21012 60005 70019 90710 91105
AAXX 08061 02664 11465 73402 10009 21001 39970 40042 51048 69962 70282 875// 333 10034 20008 32/// 60005 70006 83610 87620 91003 90710 91106 90710 91204
AAXX 08061 02679 07376 /0501 10022 20018 39975 40019 52031 60022 70086 333 10042 20020 60005 70024 88/09 90710 91102
AAXX 08064 64600 32960 73604 10162 20134 39454 40104 85032 333 01300 20131 55084 59002 85365 85080
AAXX 08064 64601 31958 03617 10194 20066 38994 48504 70400 333 01500 20174 59005
AAXX 08064 64605 32956 00000 10148 20123 39352 40093 333 01000 20125 59010
AAXX 08064 64610 32970 30404 10132 20125 3//// 4//// 80002 333 01000 20120 5//// 83080
AAXX 08064 64650 31940 40000 10182 20162 39691 40103 71011 82032 333 01600 20174 55098 59006 82365 83080
AAXX 08064 64654 32970 00000 10200 20066 39545 40115 333 01300 20160 59007
AAXX 08064 64655 32960 00000 10146 20128 39465 40114 333 01000 20130 58001
AAXX 08064 64656 31156 10000 10180 20164 39549 40105 72844 81600 333 01300 20141 59008 81703
AAXX 08064 64659 NIL
AAXX 08064 64660 32960 00000 10165 20148 39573 40101 333 01200 20153 59004
AAXX 08064 64662 32965 00000 10155 20138 39596 40098 333 01300 20140 59006
AAXX 08064 64665 32970 00000 10180 20160 3//// 4//// 333 00500 20156 5////
AAXX 08061 13397 32598 51305 11032 21053 39626 40186 57014 85500 333 21039 31105 55000 70000
AAXX 08061 13278 11596 80301 10036 20020 39954 40183 52034 60022 76166 885// 333 20009 31101 55057 70023
AAXX 08061 13378 32498 62307 11023 21029 38223 48447 58018 86500 333 21046 3/107 43013 55053 70000
AAXX 08061 13383 31696 83103 10024 20018 39950 40158 55002 71022 885// 333 21014 31105 55000 70000
AAXX 08061 13173 11697 82502 10051 20036 30060 40161 52014 60012 70262 885// 333 20018 31002 55059 70014
AAXX 08061 13369 32698 12004 10023 21015 38946 48429 57010 81500 333 21099 3/112 43016 55000 70000
AAXX 08061 13266 11698 82702 10060 20045 30076 40178 52031 60102 72166 885// 333 20012 32001 55063 70104
AAXX 08061 13384 11594 83201 10022 20020 30022 40178 53023 69972 76164 887// 333 21004 31102 55000 70007
AAXX 08061 13180 11697 82304 10047 20045 30050 40162 60052 72162 885// 333 20016 32001 55054 70047
AAXX 08061 13389 32698 80501 10026 21002 39872 40158 57010 885// 333 21020 31105 55000 70000
AAXX 08061 15501 11512 82302 11003 21005 30111 40157 53010 69952 76164 8802/ 333 10021 21040 70005 555 31/// 59801 65499 92602
AAXX 08061 15505 12775 63205 10064 21036 39762 40136 57006 60002 86500 333 10085 21010 70000 555 34106 549// 92600
AAXX 08061 15511 11557 80000 11025 21025 30126 40167 53005 69932 76664 8802/ 333 10044 21037 55033 70003 555 35/// 50000 66399 92702
AAXX 08061 15514 11/04 90000 11024 21027 30096 40133 57014 60002 74541 333 10049 21025 70000 555 34/// 598// 92601
AAXX 08061 15530 12967 20000 11034 21052 39912 40160 51001 60002 81045 333 10050 21034 70000 555 34108 587// 92601
AAXX 08061 15533 11968 52302 11015 21018 30088 40121 53011 60002 70341 82061 333 10046 21015 70000 555 34/// 598// 92602
AAXX 08061 15550 11902 20000 11005 21011 30116 40136 57008 60002 74640 80001 333 10052 21005 70007 555 31/// 596// 92601
AAXX 08061 15561 12475 22704 10006 21011 30132 40140 57006 60002 82100 222// 00096 2//00 333 10062 21002 70000 555 31102 588// 92600 92013 92418
AAXX 08061 15562 12474 22703 10055 20033 30078 40151 57005 60002 82500 222// 2//00 333 10062 20038 55000 70000 555 31001 586// 92012 92418
AAXX 08061 15600 11989 62312 11031 21099 38259 48466 57007 60002 70310 85099 333 11031 21058 47003 55000 444 46104 555 559//
AAXX 08061 15601 12770 20000 11068 21075 39549 40202 53006 60002 82300 333 10012 21080 55010 70000 555 34110 594// 92602
AAXX 08061 15605 12978 50201 11076 21076 39315 40204 57009 60002 85030 333 11019 21080 70000 555 34109 595// 92602
AAXX 08061 15613 11189 62512 11078 21093 37659 47993 53001 60002 70321 83141 333 11073 21098 46002 55000 70030 555 590//
AAXX 08061 15628 12684 10000 11043 21066 39904 40173 57002 60002 81200 333 10035 21052 55000 70000 555 30111 584// 92600
AAXX 08061 15642 11940 00000 11036 21041 39986 40162 57009 60002 71000 333 10058 21038 55000 70000 555 34106 596// 92601
AAXX 08061 15661 12970 02303 10030 21003 30117 40153 52005 60002 222// 20000 333 10080 20024 70000 555 31000 579// 92012 92418
AAXX 08061 15726 11982 03003 11027 21174 38222 48485 54000 60002 70200 333 11017 21058 47006 55000 70049 555 531//
AAXX 08061 02464 45384 /2604 11004 21025 39988 40006 52030 8//// 333 10022 21004 87/10
AAXX 08061 02500 05/81 /1302 11019 21029 39993 40036 51014 60002 333 10001 21022 60005 70000 90710 91104
AAXX 08061 02513 05/83 /0000 11018 21034 30047 40051 51029 60002 333 10004 21018 60005 70009 90710 91101
AAXX 08061 02615 05582 /3209 10040 20005 30065 40069 51050 69912 333 10046 20031 60005 70026 82/31 90710 91114
AAXX 08061 02635 07/99 /3205 10035 20000 69912 70010 333 10037 20012 60005 70020 90710 91111
BBXX 3FZK3 08064 99411 11398 46/// /3017 11011 21038 40129 56023 7//// 8//// 22213 0//// 2////
BBXX A8EH3 08063 99370 11336 41/96 /0330 10100 20038 40140 56020 76362 8/7// 22214 04160 21006 303// 41006 80070
BBXX C6XC2 08064 99332 11280 41498 8//23 10100 20060 40190 54000 70222 8795/ 22244 00210 20603 3//// 40804 5//// 6//// 80080 ICE /////
BBXX DHBN 08061 99301 11267 41597 83317 10165 20108 40170 52020 70286 85720 22264 00230 20705 303// 41206 5//// 80132
BBXX PBOF 08063 99339 11256 41397 83434 10070 21005 40230 53010 70222 8/7// 22273 04150 20607 80038 90095
BBXX V7DI8 08063 99336 11253 41397 83532 10080 20040 40240 57020 70282 8872/ 22223 00180 20406 333 // 40705 5//// 6//// 80060 ICE /////
AAXX 08064 48360 32665 30000 10298 20194 39843 40099 57034 82101 333 59019
AAXX 08061 48921 31320 82701 10165 20148 38576 48071 57017 71044 886// 333 59001
AAXX 08061 48924 31558 43602 10255 20188 39505 40121 57030 71044 83101 333 59007
AAXX 08061 48925 31340 80202 10230 20172 39394 40119 57023 71044 8562/ 333 59006
AAXX 08061 48926 32560 61402 10277 20181 39363 40123 57028 81150 333 59009
AAXX 08061 48927 01210 80703 10159 20151 39172 48616 57013 60011 75054 887// 333 58007 69937
AAXX 08061 48928 01210 80402 10165 20153 39083 48554 57020 69971 75055 888// 333 58002 69927
AAXX 08061 48930 31458 82202 10270 20193 39784 40130 57024 70544 8387/ 333 59014
AAXX 08061 48935 32470 30408 10220 20157 38965 48461 57021 83200 333 59003
AAXX 08061 48938 31558 43601 10287 20192 39794 40123 57017 84830 333 59009
AAXX 08061 48940 31658 41802 10317 20208 39908 40098 57029 70544 84200 333 59012
AAXX 08061 48941 31465 32203 10306 20204 3//// 4//// 5//// 70544 83200 333 5////
AAXX 08061 48944 32460 30406 10234 20151 39520 40113 57005 83800 333 59002
AAXX 08061 48945 32460 50401 10308 20184 39942 40117 57010 82800 333 59006
AAXX 08061 48946 31559 30904 10304 20230 39946 40109 57021 70544 82110 333 59004
AAXX 08061 48947 32461 50901 10305 20190 39982 40145 57012 84230 333 59008
AAXX 08061 48948 32465 40908 10280 20166 39910 40120 57020 84100 333 59007
AAXX 08061 48952 31559 53601 10310 20205 39901 40089 57009 70544 85800 333 59006
AAXX 08061 48953 31559 73601 10310 20215 39902 40064 57019 70544 84800 333 58000
AAXX 08061 48955 32565 43601 10326 20196 39974 40088 57023 82800 333 59003
AAXX 08061 48957 31568 73603 10315 20193 39962 40067 57034 70544 8587/ 333 59010
AAXX 08064 48350 32568 61403 10308 20209 39805 40099 57034 86201 333 59018
AAXX 08064 48427 32560 80000 10295 20220 30095 40103 57023 82256 333 59009
AAXX 08061 48823 01497 83603 10162 20145 30185 40188 57026 60063 76066 8772/ 333 58033 60011 87894 88499 9616 0 555 20152
AAXX 08061 48820 01598 80202 10196 20112 30184 40192 57028 60053 70262 888// 333 58025 69901 83895 88697
AAXX 08061 01008 11457 70604 11024 21047 39826 49860 52002 69922 77172 875// 333 21035 48013 70002 91111
AAXX 08061 01218 16/// /0901 11065 21082 39993 40015 53007 60002 333 21074 70000 91104
AAXX 08061 01400 41498 42409 10074 20017 40054 57013 70282 8386/ 22200 06089 10605 70025 333 91113
AAXX 08061 01447 16/// /0000 11144 21158 39356 40067 51008 60002 333 21160 70000 91100
AAXX 08061 01212 16/// /1808 10023 21049 39971 49987 51010 6//// 333 20019 91112
AAXX 08061 01300 41699 22504 10055 21044 49977 57010 70200 82/// 22200 02062 10806 70028 333 91112
BBXX OXHY2 08064 99450 70084 41/98 62610 10144 20118 40272 56022 70222 86/// 22214 00150 20804 3//// 4//// 5//// 80129
AAXX 08064 17096 11828 41504 11168 21173 38241 48524 55002 60002 71000 84040 333 21227 3/123 45002 50024 55040 20368 84358
AAXX 08064 17310 1//// /0402 10123 20099 30092 40099 55012 60272 333 20122 3/012 4//// 70388
AAXX 08064 60715 12560 62210 10138 20104 30265 40272 53002 69904 83282 333 20134 58018 70000 83823 83359 91014 91115
AAXX 08064 60723 13560 42408 10142 20115 30101 40291 55000 69984 83280 333 20114 70008 83823
AAXX 08064 60725 12558 61904 10114 2//// 30118 40299 51003 60004 86800 333 20090 84820 83630
AAXX 08064 60735 12558 12502 10116 20083 30193 40276 55003 60004 81200 333 20110 81823
AAXX 08064 60745 12960 00408 10067 20042 39916 40299 53001 69924 333 20066
AAXX 08064 60748 13660 21804 10088 20068 39867 40296 58006 60004 82500 333 20086 82633
AAXX 08064 60750 12560 13302 10094 20058 30256 40282 55000 60004 81200 333 20094 81826
AAXX 08064 60760 12958 02707 10091 20045 30186 40293 53001 60004 333 20093 91008 91109
AAXX 08064 60765 13958 02604 10113 20080 30295 40299 51008 60004 333 20113 92426 925//
AAXX 08064 60767 12560 12906 10075 20053 30143 40293 53004 60004 81200 333 20075 81820
AAXX 08064 60769 12456 12808 10152 20107 30274 40278 53003 60004 81800 333 20117 81816
AAXX 08061 13168 11698 82904 10057 20021 30059 40167 53031 60052 70262 885// 333 20037 31000 55058 70046
AAXX 08061 13174 32697 72704 10047 20000 30050 40152 52022 87500 333 20022 31002 55062 70000
AAXX 08061 13269 11597 82902 10026 20021 39979 40199 52072 60092 76366 8802/ 333 21010 32104 55073 70086
AAXX 08061 13274 11596 82603 10057 20049 30011 40173 52026 60102 72166 8587/ 333 20034 31001 55068 70095
AAXX 08061 13278 NIL
AAXX 08061 13378 NIL
AAXX 08061 13397 NIL
AAXX 08061 13457 32665 70000 10064 20057 30172 40179 54002 81520 333 20035 32003 55///
AAXX 08061 13481 NIL
AAXX 08061 13269 11597 82902 10026 20021 39979 40199 52072 60092 76366 8802/ 333 21010 32104 55073 70086
AAXX 08064 60710 12560 62408 10143 20105 30203 40283 58002 60024 86800 333 20136 70020 83820 84630
AAXX 08064 60714 12460 52910 10160 2//// 30275 40281 53002 69924 85800 333 20123 70002 84816
AAXX 08064 60720 13560 22406 10140 20122 30227 40261 55000 60004 82200 333 20127 82820
AAXX 08064 60728 13962 02716 10142 20132 30169 40263 58008 60004 333 20127
AAXX 08064 60729 13550 22310 10116 20100 30103 40293 53006 69964 82500 333 20113 70006 82626
AAXX 08064 60731 05960 /2306 10122 20089 30267 40274 52002 69924 333 10162 20114 3//// 58021 5///4 60007 70002 91008 91114
AAXX 08064 60732 13558 72504 10074 20058 39581 40290 53001 69964 878// 333 20070 70006 83820 85626
AAXX 08064 60734 13558 72808 10112 20093 39761 40289 58005 60004 8688/ 333 20057 83823 84630
AAXX 08064 60738 NIL
AAXX 08064 60739 13956 22006 10034 20025 39467 40320 55002 60004 80002 333 20028 82073 94224
AAXX 08064 60740 12460 12510 10127 20078 30272 40274 58005 60004 81202 333 20126 81816
AAXX 08064 60742 13958 00109 10106 20078 30281 40283 52005 60004 333 20106
AAXX 08064 60764 NIL
AAXX 08064 60770 13975 00000 10111 20088 30149 40291 53004 60004 333 20105
AAXX 08064 60772 13965 01706 10112 20079 30033 40294 58002 60004 333 20108
AAXX 08064 60775 13975 02704 10106 20054 39938 40301 53004 60004 333 20101 55087
AAXX 08064 60780 13960 00000 10067 20037 39998 40316 53007 60004 333 20066
AAXX 08061 02947 47/65 71402 10007 20004 40032 52013 70080 87/// 90551 333 10007 21013 3////
AAXX 08064 17096 11828 41504 11168 21173 38241 48524 55002 60002 71000 84040 333 21227 3/123 45002 50024 5504 0 20368 84358
AAXX 08061 33088 NIL
AAXX 08061 33177 NIL
AAXX 08061 33261 31996 71303 11028 21035 39945 40133 53002 71022 85031 333 21029
AAXX 08061 33275 31995 31103 11058 21062 39917 40150 57002 71000 83030 333 21060
AAXX 08061 33301 11496 82306 10002 21001 39748 40032 56003 60042 78580 883// 333 21022 47006 86611
AAXX 08061 33325 11496 81503 11002 21011 39790 40062 57008 69932 78582 883// 333 21012 47001 86914
AAXX 08061 33377 31/02 91502 11033 21033 39936 40136 54000 74941 333 21033
AAXX 08061 33415 11697 72506 10008 21003 39650 40053 53008 60032 70282 86930 333 21027 43002
AAXX 08061 33429 NIL
AAXX 08061 33466 31350 81803 10000 21005 39914 40105 56005 71022 8672/ 333 21005 86707
AAXX 08061 33526 11660 62402 10034 21020 39721 40061 53014 69902 70282 86300 333 21017 82920
AAXX 08061 33562 31596 71706 11001 21015 39697 40063 56009 71011 83530 333 21020
AAXX 08061 33614 31/93 91401 11020 21023 30029 40137 57001 74940 333 21047
AAXX 08061 33761 31/08 92006 10001 20001 39880 40107 57013 74544 333 21006
AAXX 08061 33902 31/92 90000 11033 21033 30064 40153 55000 74744 333 21033
AAXX 08061 33983 12195 83603 10044 20042 30054 40116 53003 60172 78082 889// 333 20043 87003
AAXX 08061 34415 11307 80000 10007 20007 30039 40137 57009 69912 74754 886// 333 21010
AAXX 08061 34523 NIL
AAXX 08061 34712 11425 83603 10041 20039 30025 40111 57011 60162 76166 8772/ 333 20040
AAXX 08064 61974 12581 11903 10300 20228 40097 69914 81100 333 0//19 20233 58000 81820 94329
AAXX 08064 61986 11575 11107 10300 20245 40084 60094 70181 81842 333 0//13 20253 59006 81820 94329
AAXX 08064 61988 12475 71318 10272 20219 40093 69904 87802 333 0//19 20240 50502 59001 86818 91132
AAXX 08064 61989 12475 61221 10280 20221 40103 69914 85802 333 0//19 20240 58000 85818
AAXX 08064 61990 11465 60710 10281 20215 40110 60004 71511 86840 333 02000 20217 50992 59001 83416 83650 94322
AAXX 08064 61995 11468 71306 10238 20195 39633 60004 71511 8784/ 333 01500 20192 50562 58001 85817 86650 94323
AAXX 08061 48900 32497 63004 10300 20230 30078 40088 57016 862// 333 58001 86894
AAXX 08061 48917 12598 60904 10303 20232 30090 40096 57013 60053 83208 222// 00305 2//00 333 58000 83895 8629 9
AAXX 08061 48918 01470 70502 10272 20222 30085 40096 57016 60023 70382 8321/ 222// 00280 2//01 333 58006 6001 1 82894 87499 555 20255
AAXX 08061 48914 01598 71402 10264 20241 30087 40089 57017 60063 72582 878// 333 58004 60061 83895 85696 555 20246
AAXX 08061 48919 01498 70207 10250 20231 30070 40092 58020 60113 72582 83908 22200 02278 2//03 333 59005 6011 1 81894 83995 87299
AAXX 08061 48916 01598 63604 10293 20249 30040 40086 58004 60263 70382 862// 333 59005 60081 86895
AAXX 08061 91925 06/// /3503 10244 20217 30051 40112 51020 69981 333 55056 69987 90710 91111 555 69925 10716 59010
AAXX 08061 91929 04/85 /1008 10268 20224 30120 40123 51013 60002 700// 333 10306 20268 55/// 60007 70071 90710 91114 555 60005
AAXX 08061 91938 01570 42504 10275 20222 30127 40129 53017 69902 70286 84800 333 10308 20274 30/// 55063 60007 79999 82820 83650 90710 91106 555 60005 12809 59011
AAXX 08061 91944 06/// /0508 10266 20209 30132 40135 51021 60002 333 10282 20262 55113 60007 70000 90710 91110 555 60005
AAXX 08061 91954 06/// /2202 1//// 2//// 30132 4//// 51011 60001 333 55/// 60007 555 59030
AAXX 08061 91958 06/// /0413 10206 20189 30165 40167 51016 69921 333 55000 69927 90710 91135 555 69925 10535 59028
AAXX 08061 91945 36/// /0902 10237 20202 30134 40139 51017 555 59018
AAXX 08064 88963 32960 60000 10003 20001 39765 49794 53013 85076 333 56055 85360 86270 92407 94030 95000
AAXX 08064 88968 11457 83228 10019 21018 39773 49788 50004 69941 71072 887// 333 56799 88712 90068 90091 90961 92436 92731 92851 93000 93100 94075 95065
AAXX 08064 89034 32970 01810 11112 21146 39436 49754 56016 333 92418 92851
AAXX 08064 89053 31330 82725 10002 21014 39822 49836 51008 71022 887// 333 56699 88708 90068 90084 92435 92851 94070 94479 95080 97530 98530
AAXX 08064 89055 31258 62320 11041 21050 39548 49790 53009 71042 82640 333 56560 57312 82706 86360 90035 90083 92736 92840 95170
AAXX 08064 89066 32570 80910 10002 21053 39746 49755 51003 886// 333 56199 88725 92417 92731 92881 94070
AAXX 08063 NIL
AAXX 08064 94893 46/// /0318 10189 20163 39982 40097
AAXX 08064 94907 46/// /0912 10249 20132 30084 40094
AAXX 08064 94910 46/// /0907 10272 20059 39839 40083
AAXX 08064 94926 46/// /0112 10212 20101 39453 40108
AAXX 08064 94935 46/// /0311 10225 20146 30086 40112
AAXX 08064 94954 46/// /0928 10186 20139 39986 40095
AAXX 08064 94956 46/// /1809 10212 20098 30072 40098
AAXX 08064 94975 46/// /0511 10227 20101 30078 40110
AAXX 08064 94983 46/// /0515 10195 20154 30105 40130
AAXX 08064 94995 46/// /1023 10201 20150 30105 40113
AAXX 08064 94996 46/// /0913 10202 20120 30007 40135
AAXX 08064 94997 NIL
AAXX 08064 94998 46/// /3525 10062 20047 30016 40027
AAXX 08064 95111 46/// /3107 10334 20254 39990 40025
AAXX 08064 95205 46/// /3212 10355 20176 30022 40029
AAXX 08064 95322 NIL
AAXX 08064 95448 46/// /2610 10302 20055 39446 49990
AAXX 08064 95458 46/// /0322 10285 20116 39759 40011
AAXX 08064 95480 46/// /3114 10317 20060 30003 40061
AAXX 08064 95481 46/// /1006 10330 20047 30017 40061
AAXX 08064 95482 46/// /0709 10356 20006 39989 40043
AAXX 08064 95485 46/// /0907 10304 20056 39866 40064
AAXX 08064 95492 46/// /1608 10290 20102 39915 40065
AAXX 08064 95527 46/// /2205 10246 20157 39821 40068
AAXX 08064 95634 46/// /1712 10246 20125 39634 40024
AAXX 08064 95637 46/// /1615 10215 20133 39728 40054
AAXX 08064 95646 46/// /0815 10285 20147 39791 49972
AAXX 08064 95666 NIL
AAXX 08064 95719 46/// /1010 10214 20143 39767 40090
AAXX 08064 95762 46/// /1009 10242 20119 39628 40073
AAXX 08064 95826 NIL
AAXX 08064 95839 46/// /3410 10323 20033 39885 40041
AAXX 08064 95864 NIL
AAXX 08064 95909 NIL
AAXX 08064 95954 NIL
AAXX 08064 95966 46/// /3609 10205 20112 39914 40112
AAXX 08064 96995 46/// /3307 10284 20230 39785 40079
AAXX 08064 96996 41459 73213 10292 20254 30052 40056 58009 70522 81233
AAXX 08064 94299 46/// /2307 10303 20232 30039 40049
AAXX 08064 94300 46/// /2412 10270 20159 30058 40068
AAXX 08064 94302 46/// /2610 10325 20148 30045 40051
AAXX 08064 94312 46/// /3121 10304 20163 30020 40029
AAXX 08064 94313 NIL
AAXX 08064 94317 46/// /2412 10341 20072 39426 49992
AAXX 08064 94319 46/// /2914 10379 20086 39671 49991
AAXX 08064 94324 NIL
AAXX 08064 94326 46/// /3411 10332 20124 39409 40006
AAXX 08064 94327 46/// /0303 10364 20051 39651 40013
AAXX 08064 94332 46/// /1710 10350 20043 39649 40023
AAXX 08064 94333 NIL
AAXX 08064 94341 46/// /1807 10348 20044 39797 40025
AAXX 08064 94346 46/// /2204 10321 20067 39816 40029
AAXX 08064 94363 46/// /3304 10309 20141 39821 40033
AAXX 08064 94366 NIL
AAXX 08064 94367 46/// /0811 10279 20223 30001 40042
AAXX 08064 94374 46/// /1009 10293 20179 30025 40041
AAXX 08064 94388 46/// /1309 10264 20191 30055 40060
AAXX 08064 94393 46/// /0000 10263 30035 40047 56008
AAXX 08064 94394 46/// /2214 10254 30042 40050 53001
AAXX 08064 94403 46/// /2018 10261 20150 30016 40057
AAXX 08064 94429 46/// /2511 10278 20105 39570 40020
AAXX 08064 94430 46/// /2508 10275 20076 39448 40013
AAXX 08064 94449 46/// /2513 10303 20081 39478 49990
AAXX 08064 94451 NIL
AAXX 08064 94461 46/// /3218 10340 20054 39327 49974
AAXX 08064 94462 46/// /3116 10353 20117 39439 49974
AAXX 08064 94477 NIL
AAXX 08064 94488 NIL
AAXX 08064 89564 41981 00608 11061 21146 39730 49749 50003 70200
AAXX 08064 89570 46/// /0613 11072 21145 39071 53004
AAXX 08064 89571 41570 40119 11023 21108 39703 49731 53003 71511 84530
AAXX 08064 89573 NIL
AAXX 08064 89610 NIL
AAXX 08064 89611 41480 72809 11009 21077 39601 49652 52010 71422 8163/
AAXX 08064 89614 46/// /1129 11082 29090 38788 4//// 5//// 333 90700 91137
AAXX 08064 89615 46829 71130 11075 21108 38756 51005
AAXX 08064 89807 NIL
AAXX 08064 89809 46/// /1003 11019 21104 39205 51007
BBXX VNAA 08044 99627 31121 41698 82210 11020 21028 49596 53003 70222 8652/ 22253 05012 20201 329// 41001
AAXX 08064 94500 NIL
AAXX 08064 94510 46/// /2205 10271 20151 39708 40046
AAXX 08064 94515 46/// /1506 10247 20151 39710 40050
AAXX 08064 94552 46/// /1310 10233 20168 39612 40068
AAXX 08064 94578 46/// /1707 10231 20166 30064 40075
AAXX 08064 94584 46/// /1631 10219 20177 39945 40053
AAXX 08064 94601 46/// /1319 10211 20148 30084 40101
AAXX 08064 94610 46/// /1709 10250 20130 30039 40062
AAXX 08064 94637 46/// /1610 10250 20120 39600 40013
AAXX 08064 94638 46/// /1313 10188 20161 30026 40057
AAXX 08064 94642 NIL
AAXX 08064 94643 NIL
AAXX 08064 94647 46/// /0811 10234 20169 39881 49999
AAXX 08064 94651 46/// /1118 10199 20191 39937 40012
AAXX 08064 94653 46/// /0810 10193 20173 30013 40031
AAXX 08064 94659 46/// /3620 10279 20068 39867 40057
AAXX 08064 94672 46/// /3509 10310 20031 30028 40038
AAXX 08064 94691 46/// /2806 10320 20055 39739 40057
AAXX 08064 94693 46/// /0508 10339 20068 39994 40054
AAXX 08064 94700 NIL
AAXX 08064 94703 46/// /1307 10273 20101 39950 40072
AAXX 08064 94710 46/// /2209 10284 20059 39820 40066
AAXX 08064 94729 46/// /1604 10144 20138 39270 40103
AAXX 08064 94750 46/// /3504 10178 20151 30015 40138
AAXX 08064 94767 46/// /1713 10186 20164 30129 40135
AAXX 08064 94776 46/// /1315 10224 20146 30108 40118
AAXX 08064 94791 NIL
AAXX 08064 94802 46/// /1613 10180 20147 30013 40094
AAXX 08064 94804 46/// /0811 10195 20156 39997 40034
AAXX 08064 94807 NIL
AAXX 08064 94821 46/// /2212 10270 20140 39970 40051
AAXX 08064 94842 46/// /0715 10207 20150 39964 40062
AAXX 08064 94847 NIL
AAXX 08064 94850 46/// /0818 10197 20146 30026 40071
AAXX 08064 94865 46/// /3608 10309 20074 30038 40062
AAXX 08064 94866 46/// /3514 10311 20052 39932 40070
AAXX 08064 94875 46/// /3205 10292 20046 39946 40079
AAXX 08064 94102 46/// /2517 10323 20249 30027 40036
AAXX 08064 94103 NIL
AAXX 08064 94120 46/// /2908 10299 20257 39996 40036
AAXX 08064 94122 NIL
AAXX 08064 94131 46/// /0904 10361 20186 39866 40016
AAXX 08064 94132 NIL
AAXX 08064 94147 NIL
AAXX 08064 94150 46/// /0109 10334 20203 39971 40030
AAXX 08064 94151 46/// /0906 10327 20231 30019 4////
AAXX 08064 94170 46/// /2709 10319 20246 30010 40032
AAXX 08064 94200 NIL
AAXX 08064 94203 46/// /2713 10309 20189 30039 40049
AAXX 08064 94206 46/// /2915 10377 20182 39888 40015
AAXX 08064 94207 46/// /2415 10275 30039 40047 56022
AAXX 08064 94211 NIL
AAXX 08064 94212 46/// /3008 10368 20146 39548 40007
AAXX 08064 94216 46/// /0106 10350 20203 39967 40017
AAXX 08064 94236 NIL
AAXX 08064 94238 46/// /3206 10352 20148 39606 40018
AAXX 08064 94248 NIL
AAXX 08064 94255 46/// /1205 10362 20055 39773 40028
AAXX 08064 94268 46/// /3011 10330 20194 30014 40026
AAXX 08064 94287 46/// /1209 10324 20195 30020 40029
AAXX 08064 94290 NIL
AAXX 08064 94294 46/// /3510 10317 20163 30022 40032
AAXX 08064 94296 NIL
AAXX 08064 94298 46/// /3408 10286 30038 40044 56010
AAXX 08064 95641 NIL
AAXX 08064 94500 NIL
AAXX 08064 94510 46/// /2205 10271 20151 39708 40046
AAXX 08064 94515 46/// /1506 10247 20151 39710 40050
AAXX 08064 94552 46/// /1310 10233 20168 39612 40068
AAXX 08064 94578 46/// /1707 10231 20166 30064 40075
AAXX 08064 94584 46/// /1631 10219 20177 39945 40053
AAXX 08064 94601 46/// /1319 10211 20148 30084 40101
AAXX 08064 94610 46/// /1709 10250 20130 30039 40062
AAXX 08064 94637 46/// /1610 10250 20120 39600 40013
AAXX 08064 94638 46/// /1313 10188 20161 30026 40057
AAXX 08064 94642 NIL
AAXX 08064 94643 NIL
AAXX 08064 94647 46/// /0811 10234 20169 39881 49999
AAXX 08064 94651 46/// /1118 10199 20191 39937 40012
AAXX 08064 94653 46/// /0810 10193 20173 30013 40031
AAXX 08064 94659 46/// /3620 10279 20068 39867 40057
AAXX 08064 94672 46/// /3509 10310 20031 30028 40038
AAXX 08064 94691 46/// /2806 10320 20055 39739 40057
AAXX 08064 94693 46/// /0508 10339 20068 39994 40054
AAXX 08064 94700 NIL
AAXX 08064 94703 46/// /1307 10273 20101 39950 40072
AAXX 08064 94710 46/// /2209 10284 20059 39820 40066
AAXX 08064 94729 46/// /1604 10144 20138 39270 40103
AAXX 08064 94750 46/// /3504 10178 20151 30015 40138
AAXX 08064 94767 46/// /1713 10186 20164 30129 40135
AAXX 08064 94776 46/// /1315 10224 20146 30108 40118
AAXX 08064 94791 NIL
AAXX 08064 94802 46/// /1613 10180 20147 30013 40094
AAXX 08064 94804 46/// /0811 10195 20156 39997 40034
AAXX 08064 94807 NIL
AAXX 08064 94821 46/// /2212 10270 20140 39970 40051
AAXX 08064 94842 46/// /0715 10207 20150 39964 40062
AAXX 08064 94847 NIL
AAXX 08064 94850 46/// /0818 10197 20146 30026 40071
AAXX 08064 94865 46/// /3608 10309 20074 30038 40062
AAXX 08064 94866 46/// /3514 10311 20052 39932 40070
AAXX 08064 94875 46/// /3205 10292 20046 39946 40079
AAXX 08064 91503 01475 60000 10293 20242 40047 55002 60071 70582 82933 333 56000 60077 81817 81918 83360 85080
AAXX 08064 91517 NIL
BBXX VRDB3 08064 99386 31479 41298 11011 10200 20169 40106 52015 70200 81181 22214 00160 20603 306// 40503 80180
BBXX VRAE2 08063 99036 31444 41598 63109 10295 20245 40045 57028 70100 85161 22234 04310 20501 302// 40702 80260
BBXX ZCAS2 08063 99150 31198 41598 32112 10290 20287 40039 57/// 70200 81117 22254 00304 20201 320// 40201 80288
BBXX YJZC5 08063 99263 31560 41296 81537 10240 20185 49994 51/// 76462 87726 22252 02235 20303 31712 40808 52012 80205
BBXX PCAM 08063 99345 31734 41998 32014 10185 20127 40164 57002 70111 80002 22233 00205 20402 30000 80150
BBXX VRDB3 08064 99389 31479 41298 11011 10200 20169 40106 52015 70200 81181 22214 00160 20603 306// 40503 80180
BBXX 3ECI3 08064 99333 31744 41598 61210 10185 20132 40158 52020 70311 844/3 22253 00200 20301 321// 40903 80155
BBXX ZCBU6 08064 99389 31783 41/98 12020 10150 20094 40165 52022 70222 81//1 22214 00171 20301 317// 40502 5//// 80121
BBXX VNSZ 08044 99378 31449 46/// /3309 10300 20060 30040 40065 57017 22200 04189 85163
BBXX VNSZ 08054 99378 31449 46/// /2910 10305 20056 30034 40059 57022 22200 04190 85163
BBXX 9HA2479 08044 99223 31664 46/// /1114 10270 20236 30039 40068 57012 22200 04272 85245
BBXX C6FS9 08044 99193 31468 46/// /0512 10293 20200 30014 40049 57019 22200 04295 85227
BBXX VROB 08044 99068 31470 46/// /1414 10306 20216 30019 40043 57018 22200 04309 85241
BBXX S6CW 08063 99224 31634 41798 53415 10265 20236 40064 55002 70322 83468 22274 00252 21802 80245
BBXX 9KWP 08063 99243 31079 41397 81207 10240 20194 40083 57020 75052 8673/ 22284 00230 2//// 80210
BBXX 9V7548 08044 99214 31545 41598 31813 10305 20233 40072 50015 70322 81140 22284 04270 20304 80255
BBXX FHZI 08044 99560 31423 46/// /2812 10032 20012 39904 49915 52037 22283 04017 85023
BBXX VROC 08063 99265 31532 41298 61823 10235 20196 40088 51020 70122 867// 22283 20404 31316 41008 50506 80210
BBXX C6FS9 08054 99193 31468 46/// /0313 10295 20198 30007 40042 57019 22200 04294 85227
BBXX VROB 08054 99068 31470 46/// /1112 10304 20219 30016 40040 57017 22200 04308 85242
BBXX FHZI 08054 99558 31424 46/// /2712 10033 20014 39916 49927 52036 22283 04021 85025
BBXX VNSZ 08064 99378 31449 46/// /3311 10306 20053 30032 40057 57018 22200 04195 85162
BBXX 9HA2479 08064 99223 31664 46/// /0911 10284 20212 30040 40068 57005 22200 04271 85233
BBXX C6FS9 08064 99193 31468 46/// /0313 10289 20206 30002 40037 57018 22200 85230
AAXX 08064 91503 01475 60000 10293 20242 40047 55002 60071 70582 82933 333 56000 60077 81817 81918 83360 85080
AAXX 08064 91517 NIL
AAXX 08064 94102 46/// /2517 10323 20249 30027 40036
AAXX 08064 94103 NIL
AAXX 08064 94120 46/// /2908 10299 20257 39996 40036
AAXX 08064 94122 NIL
AAXX 08064 94131 46/// /0904 10361 20186 39866 40016
AAXX 08064 94132 NIL
AAXX 08064 94147 NIL
AAXX 08064 94150 46/// /0109 10334 20203 39971 40030
AAXX 08064 94151 46/// /0906 10327 20231 30019 4////
AAXX 08064 94170 46/// /2709 10319 20246 30010 40032
AAXX 08064 94200 NIL
AAXX 08064 94203 46/// /2713 10309 20189 30039 40049
AAXX 08064 94206 46/// /2915 10377 20182 39888 40015
AAXX 08064 94207 46/// /2415 10275 30039 40047 56022
AAXX 08064 94211 NIL
AAXX 08064 94212 46/// /3008 10368 20146 39548 40007
AAXX 08064 94216 46/// /0106 10350 20203 39967 40017
AAXX 08064 94236 NIL
AAXX 08064 94238 46/// /3206 10352 20148 39606 40018
AAXX 08064 94248 NIL
AAXX 08064 94255 46/// /1205 10362 20055 39773 40028
AAXX 08064 94268 46/// /3011 10330 20194 30014 40026
AAXX 08064 94287 46/// /1209 10324 20195 30020 40029
AAXX 08064 94290 NIL
AAXX 08064 94294 46/// /3510 10317 20163 30022 40032
AAXX 08064 94296 NIL
AAXX 08064 94298 46/// /3408 10286 30038 40044 56010
AAXX 08064 95641 NIL
AAXX 08064 94310 46/// /2818 10288 20148 30027 40039 57024
AAXX 08064 95283 46/// /0811 10324 20252 30020 40027
AAXX 08064 95288 46/// /3206 10307 30023 40038 56013
AAXX 08064 95675 46/// /3302
AAXX 08064 95872 46/// /3610
AAXX 08064 95961 35/// /1518 10178 30068 40109 57014
AAXX 08064 94893 46/// /0318 10189 20163 39982 40097
AAXX 08064 94907 46/// /0912 10249 20132 30084 40094
AAXX 08064 94910 46/// /0907 10272 20059 39839 40083
AAXX 08064 94926 46/// /0112 10212 20101 39453 40108
AAXX 08064 94935 46/// /0311 10225 20146 30086 40112
AAXX 08064 94954 46/// /0928 10186 20139 39986 40095
AAXX 08064 94956 46/// /1809 10212 20098 30072 40098
AAXX 08064 94975 46/// /0511 10227 20101 30078 40110
AAXX 08064 94983 46/// /0515 10195 20154 30105 40130
AAXX 08064 94995 46/// /1023 10201 20150 30105 40113
AAXX 08064 94996 46/// /0913 10202 20120 30007 40135
AAXX 08064 94997 NIL
AAXX 08064 94998 46/// /3525 10062 20047 30016 40027
AAXX 08064 95111 46/// /3107 10334 20254 39990 40025
AAXX 08064 95205 46/// /3212 10355 20176 30022 40029
AAXX 08064 95322 NIL
AAXX 08064 95448 46/// /2610 10302 20055 39446 49990
AAXX 08064 95458 46/// /0322 10285 20116 39759 40011
AAXX 08064 95480 46/// /3114 10317 20060 30003 40061
AAXX 08064 95481 46/// /1006 10330 20047 30017 40061
AAXX 08064 95482 46/// /0709 10356 20006 39989 40043
AAXX 08064 95485 46/// /0907 10304 20056 39866 40064
AAXX 08064 95492 46/// /1608 10290 20102 39915 40065
AAXX 08064 95527 46/// /2205 10246 20157 39821 40068
AAXX 08064 95634 46/// /1712 10246 20125 39634 40024
AAXX 08064 95637 46/// /1615 10215 20133 39728 40054
AAXX 08064 95646 46/// /0815 10285 20147 39791 49972
AAXX 08064 95666 NIL
AAXX 08064 95719 46/// /1010 10214 20143 39767 40090
AAXX 08064 95762 46/// /1009 10242 20119 39628 40073
AAXX 08064 95826 NIL
AAXX 08064 95839 46/// /3410 10323 20033 39885 40041
AAXX 08064 95864 NIL
AAXX 08064 95909 NIL
AAXX 08064 95954 NIL
AAXX 08064 95966 46/// /3609 10205 20112 39914 40112
AAXX 08064 96995 46/// /3307 10284 20230 39785 40079
AAXX 08064 96996 41459 73213 10292 20254 30052 40056 58009 70522 81233
AAXX 08064 94299 46/// /2307 10303 20232 30039 40049
AAXX 08064 94300 46/// /2412 10270 20159 30058 40068
AAXX 08064 94302 46/// /2610 10325 20148 30045 40051
AAXX 08064 94312 46/// /3121 10304 20163 30020 40029
AAXX 08064 94313 NIL
AAXX 08064 94317 46/// /2412 10341 20072 39426 49992
AAXX 08064 94319 46/// /2914 10379 20086 39671 49991
AAXX 08064 94324 NIL
AAXX 08064 94326 46/// /3411 10332 20124 39409 40006
AAXX 08064 94327 46/// /0303 10364 20051 39651 40013
AAXX 08064 94332 46/// /1710 10350 20043 39649 40023
AAXX 08064 94333 NIL
AAXX 08064 94341 46/// /1807 10348 20044 39797 40025
AAXX 08064 94346 46/// /2204 10321 20067 39816 40029
AAXX 08064 94363 46/// /3304 10309 20141 39821 40033
AAXX 08064 94366 NIL
AAXX 08064 94367 46/// /0811 10279 20223 30001 40042
AAXX 08064 94374 46/// /1009 10293 20179 30025 40041
AAXX 08064 94388 46/// /1309 10264 20191 30055 40060
AAXX 08064 94393 46/// /0000 10263 30035 40047 56008
AAXX 08064 94394 46/// /2214 10254 30042 40050 53001
AAXX 08064 94403 46/// /2018 10261 20150 30016 40057
AAXX 08064 94429 46/// /2511 10278 20105 39570 40020
AAXX 08064 94430 46/// /2508 10275 20076 39448 40013
AAXX 08064 94449 46/// /2513 10303 20081 39478 49990
AAXX 08064 94451 NIL
AAXX 08064 94461 46/// /3218 10340 20054 39327 49974
AAXX 08064 94462 46/// /3116 10353 20117 39439 49974
AAXX 08064 94477 NIL
AAXX 08064 94488 NIL
AAXX 08064 89564 41981 00608 11061 21146 39730 49749 50003 70200
AAXX 08064 89570 46/// /0613 11072 21145 39071 53004
AAXX 08064 89571 41570 40119 11023 21108 39703 49731 53003 71511 84530
AAXX 08064 89573 NIL
AAXX 08064 89610 NIL
AAXX 08064 89611 41480 72809 11009 21077 39601 49652 52010 71422 8163/
AAXX 08064 89614 46/// /1129 11082 29090 38788 4//// 5//// 333 90700 91137
AAXX 08064 89615 46829 71130 11075 21108 38756 51005
AAXX 08064 89807 NIL
AAXX 08064 89809 46/// /1003 11019 21104 39205 51007
AAXX 08060 67693 32980 00303 10270 20127 39240 48496 80000 333 20200 5//// 55/// 59026 555 10319 7//00
AAXX 08061 38141 32998 01101 11129 21172 30162 40333 54000 333 21140
AAXX 08061 38149 42998 00101 11084 21142 30247 40329 53003 333 21140
AAXX 08061 38178 41495 82102 11072 21120 30026 40330 58001 71042 886// 333 21077
AAXX 08061 38262 32998 20000 11100 21131 30242 40330 54000 82030 333 21124
AAXX 08061 38264 41396 40502 11111 21124 30226 40327 52004 77171 84700 333 21130 84706
AAXX 08061 38396 41195 80802 11085 21100 30194 40328 52004 72842 886// 333 21102 88702
AAXX 08061 38403 41495 80903 11061 21096 30186 40314 57015 71022 886// 333 21069
AAXX 08061 38413 42998 80902 11025 21045 30003 40306 57004 8807/ 333 21066
AAXX 08061 38457 31996 32901 11021 21030 39694 40304 52003 71042 82042 333 21059
AAXX 08061 38462 42999 00000 11023 21105 38798 48532 57011 333 21101
AAXX 08061 38565 32998 00000 10007 21036 39694 40295 53001 333 21075
AAXX 08061 38579 31595 71702 11007 21049 39875 40309 52005 71022 87500 333 21010
AAXX 08061 38583 31996 80201 11023 21029 39984 40320 53006 71022 8802/ 333 21034
AAXX 08061 38611 42997 50801 10001 21050 39724 40314 57007 83061 333 21024
AAXX 08061 38618 32997 83601 10020 21045 39579 40284 57006 80008 333 21007
AAXX 08061 38683 41/92 90000 11044 21044 30015 40307 52007 74544 333 21049 89/01
AAXX 08061 38696 32999 00902 10011 21015 39405 40284 58003 333 21065
AAXX 08061 38812 41996 01501 10022 21012 39817 40282 52002 71044 333 21070
AAXX 08061 38927 31001 92401 11017 21025 39907 40300 50014 74544 89/// 333 21052 89/01
AAXX 08064 91577 06/// /0306 10282 20200 30047 40067 53005 60001 333 58004 60007
AAXX 08064 91579 06/// /0804 10267 20230 30066 40074 55003 69921 333 58010 60007
BBXX 2ALD3 08063 99284 11427 41598 61617 10240 20198 40128 57000 70211 85263 22284 04260 20403 319// 40704 80211
BBXX AUYI 08064 99083 10824 41598 80715 10280 20250 40055 51008 70365 8412/ 22283 00300
AAXX 08061 37395 32999 70908 10132 21030 39995 40133 53001 87030 333 20076
AAXX 08061 37409 32598 20910 11018 21068 38772 48490 57002 82530 333 21029 95010
AAXX 08061 37432 32997 00000 11040 21077 38975 48503 57027 333 21058
AAXX 08061 37514 32699 30000 11037 21077 39054 40253 54000 83501 333 21085
AAXX 08061 37545 32995 03603 11036 21039 40229 57005 71000 555 21045 7000/
AAXX 08061 37621 32699 10000 10008 21072 39555 40212 57005 80001 333 21040
AAXX 08061 37484 NIL
AAXX 08064 17116 11657 72903 10072 20064 30051 40173 52019 60182 72582 84250 333 20072 32007 55000 20004 70344 84835 87360 91110
AAXX 08064 06670 02782 32306 10039 21011 39757 40281 5//// 60032 8353/ 333 20035 32001 55000 553// 20000 60005 70137 82650 83656 90768 93100
AAXX 08064 06700 01585 42203 10041 20036 39787 40293 5//// 60042 70186 84500 333 20035 32002 55000 553// 20000 60005 70163 81630 84640 90768 93100
AAXX 08064 06680 01/01 92622 11090 21096 37508 47034 5//// 60282 77074 333 21098 47085 55000 553// 20000 69965 70796 90768 93112
AAXX 08064 06990 01750 80208 10074 21021 39708 40261 5//// 60022 72522 886// 333 20042 32004 55000 553// 20000 60005 70182 88750
AAXX 08064 06760 32984 03505 10104 21050 39743 40189 5//// 333 20069 30004 55018 553// 20000 70000 90768 93100
AAXX 08064 06720 01770 52312 10069 20022 39687 40269 5//// 60022 70161 8502/ 333 20066 32006 55000 553// 20000 60005 70096 85450 90768 93100
AAXX 08064 06610 01673 12005 10040 20021 39690 40289 5//// 60042 70161 81500 333 20039 32002 55000 553// 20000 60005 70095 81640 90768 93100
AAXX 08061 26313 12997 21904 11003 21017 40028 52018 69942 82031 333 21005 43997
BBXX A8NQ5 08063 99502 70321 41298 83420 10090 20049 40185 51015 70222 887// 22224 04091 20304 80070
AAXX 08061 50468 32970 03404 11116 21195 30099 40325 57019 333 21202
AAXX 08061 50953 32965 02901 11112 21224 30157 40352 57015 333 21199
AAXX 08061 51076 NIL
AAXX 08061 51243 NIL
AAXX 08061 51288 NIL
AAXX 08061 51463 NIL
AAXX 08061 51573 NIL
AAXX 08061 51709 NIL
AAXX 08061 52533 NIL
AAXX 08061 52652 NIL
AAXX 08061 52866 32972 02001 11024 21114 37757 57030 333 05100 21118
AAXX 08061 52983 NIL
AAXX 08061 53463 32975 23203 11079 21189 39129 40472 57022 80002 333 00351 21146
AAXX 08061 53513 32970 41601 11055 21176 39155 40468 57023 80002 333 00151 21170
AAXX 08061 53588 NIL
AAXX 08061 53772 NIL
AAXX 08061 53915 NIL
AAXX 08061 54218 32980 03606 11073 21212 39544 40409 57014 333 21162
AAXX 08061 54337 NIL
AAXX 08061 54342 NIL
AAXX 08061 54401 NIL
AAXX 08061 54471 32960 00208 11087 21196 30356 40362 57011 333 21117
AAXX 08061 54497 32980 03407 11054 21215 30261 40278 57019 333 21090
AAXX 08061 54511 NIL
AAXX 08061 54823 32980 00202 11011 21127 30163 40384 57013 333 21042
AAXX 08061 56080 NIL
AAXX 08061 56096 NIL
AAXX 08061 57083 32961 01104 10053 21072 30233 40374 57025 333 20006
AAXX 08061 56187 32966 80402 10086 21039 39649 40311 57032 8807/ 333 00252 20075
AAXX 08061 56778 NIL
AAXX 08061 57265 NIL
AAXX 08061 57461 32968 71402 10089 21030 30187 40354 57030 8703/ 333 20062
AAXX 08061 57494 NIL
AAXX 08061 57516 NIL
AAXX 08061 57687 32762 73403 10093 20031 30236 40322 57019 875// 333 20065
AAXX 08061 57816 11663 80403 10031 20007 38869 40299 57031 69921 70060 885// 333 00354 20017
AAXX 08061 58040 32668 23606 10035 21073 30323 40337 57011 82500 333 20014
AAXX 08061 58102 NIL
AAXX 08061 58150 NIL
AAXX 08061 58221 32966 23405 10061 21086 30324 40353 57010 80002 333 20037
AAXX 08061 58238 NIL
AAXX 08061 58251 NIL
AAXX 08061 58362 NIL
AAXX 08061 58457 11360 83604 10065 20028 30254 40308 54000 69911 76060 887// 333 20065
AAXX 08061 58606 NIL
AAXX 08061 58752 NIL
AAXX 08061 58847 11450 80403 10147 20137 30111 40212 57014 60021 76060 885// 333 20147
AAXX 08061 59117 32680 73604 10170 20062 30106 40212 57027 875// 333 20156
AAXX 08061 59134 NIL
AAXX 08061 59287 NIL
AAXX 08061 59316 32766 61102 10230 20114 30169 40174 57027 86500 333 20190
AAXX 08061 59431 32578 73604 10154 20074 30085 40233 57034 878// 333 20117
AAXX 08061 59644 32568 73607 10152 20089 30179 40196 57032 878// 333 20129
AAXX 08061 59758 NIL
AAXX 08064 63705 32559 23402 10227 20197 38857 48512 82903 333 20189 59010 81822 81925 555 10205
AAXX 08061 01241 11486 71502 10011 20002 39968 49979 52010 60011 70382 8687/ 333 21029 91107
BBXX 44139 08061 99442 70571 46/// /2010 10109 40121 57015 22200 00088 10704 70019 333 91211
AAXX 08061 48870 01474 73605 10272 20227 30099 40106 58019 60023 70262 878// 333 58000 69921 83894 87696
AAXX 08061 48877 01456 83605 10263 20237 30087 40092 57022 69953 78182 889// 333 59013 69951 82894 82995 8669 6 96162
AAXX 08061 48887 12570 71403 10278 20228 30081 40087 57017 69983 878// 333 58002 81895 87697
AAXX 08061 48920 01597 82904 10248 20236 30068 40071 58025 60413 76162 8322/ 222// 00284 2//01 333 59008 6015 1 83895 88499 96161
AAXX 08061 48892 12598 70207 10280 20249 30063 40068 57017 60123 879// 333 59008 83995 85697
AAXX 08064 60667 36/// /0000 10110 21050 333 20074
AAXX 08064 60619 36/// /0309 10051 20003 333 20049
AAXX 08061 89064 36/// /3102 10006 29086 49827 52002
AAXX 08064 60621 36/// /0510 10112 20004 333 20112
AAXX 08064 60663 36/// /0702 10132 21035 333 20132
AAXX 08064 60645 36/// /0000 10145 20001 333 20137
AAXX 08064 60692 36/// /0419 10175 21070 333 20174
AAXX 08064 60664 36/// /0000 10131 21071 333 20112
AAXX 08064 60612 36/// /0111 10086 21057 333 20085
AAXX 08061 26058 27463 71802 10012 21007 30055 40063 53020 70010 87/// 333 10017 20005 60007 87/12 555 1/100 20005 3/101 50010 52101
BBXX 61002 08064 99421 10047 46/// ///22 10150 2//// 40272 54000 22200 00158 10604 70022 555 1/028
BBXX 44139 08061 99442 70571 46/// /2010 10109 40121 57015 22200 00088 10704 70019 333 91211
AAXX 08061 26045 01862 21503 11006 21015 30044 40046 53019 60002 70200 81031 333 10017 21007 60007 81/98 555 14102 21007 34102 50008
AAXX 08064 13601 12665 30000 10070 20041 30065 40167 54001 60002 83800 333 20068 31/// 81840
AAXX 08061 26247 27/42 /1502 11011 21011 39974 40055 52019 71011 333 10008 21014 60007 555 1/104 21014 3/106 51000
AAXX 08061 26115 27160 71804 10017 20013 39998 40006 53020 76166 87/// 333 10042 20013 60107 87/02 91008 91113 555 1/000 20013 3/000 50036
AAXX 08064 48358 32562 20910 10304 20285 39942 40115 56025 82101 333 59006
AAXX 08064 48458 32560 60000 10288 20218 30034 40114 57023 86535 333 59001 70006
AAXX 08064 78922 46/// /2504 10246 20225 30067 40112 58017
AAXX 08064 65338 32458 82802 10242 20232 39911 40097 885// 333 02200 20240 50564 55082 59005 88611
BBXX SKOZ 08064 99471 70202 43/97 72228 10129 40208 57018 22253 00137 2//// 4////
AAXX 08063 91551 11497 80000 10248 20238 4//// 5//// 60271 78089 8692/ 333 5699/ 60271 82714 84818 81922 88460
AAXX 08063 91553 NIL
AAXX 08063 91554 11598 70000 10277 20253 40064 57003 60251 71728 84917 333 56999 60251 83820 81925 87276
AAXX 08063 91555 31598 80000 10275 20258 40066 56002 72922 8697/ 333 5699/ 84823 82925 88461
AAXX 08063 91557 11498 80602 10257 20251 40060 53004 60221 78095 8592/ 333 5619/ 60221 84818 81922 88460
AAXX 08063 91565 31598 80000 10275 20247 40071 53002 71522 8397/ 333 5639/ 83820 81922 88460
AAXX 08063 91568 11598 80000 10274 20254 40085 53004 60011 72982 8482/ 333 5639/ 60011 84822 88460
AAXX 08063 91551 11497 80000 10248 20238 4//// 5//// 60271 78089 8692/ 333 5699/ 60271 82714 84818 81922 88460
AAXX 08063 91553 NIL
AAXX 08063 91554 11598 70000 10277 20253 40064 57003 60251 71728 84917 333 56999 60251 83820 81925 87276
AAXX 08063 91555 31598 80000 10275 20258 40066 56002 72922 8697/ 333 5699/ 84823 82925 88461
AAXX 08063 91557 11498 80602 10257 20251 40060 53004 60221 78095 8592/ 333 5619/ 60221 84818 81922 88460
AAXX 08063 91565 31598 80000 10275 20247 40071 53002 71522 8397/ 333 5639/ 83820 81922 88460
AAXX 08063 91568 11598 80000 10274 20254 40085 53004 60011 72982 8482/ 333 5639/ 60011 84822 88460
BBXX C6SI6 08064 99533 11678 46/// /2514 11003 21063 40048 53006 7//// 8//// 22253 0//// 2////
BBXX DGBE 08063 99432 11520 41497 63224 10005 21018 40041 58010 77072 84870 22254 00040 20403 322// 40604 6202/ 81004
BBXX LAJS6 08064 99493 11663 41597 81524 10020 21030 40050 56015 70322 87455 22213 00050 21002 302// 41410 80000
BBXX 46035 08061 99571 71778 46/// /2616 1//// 49888 53039 90550 22200 11111 20808 300// 41107 70056 333 91220 555 11156 22167 30457 42822 60549 258155 274168 261162 267165 269165 278170 82819 90452
BBXX DQVJ 08061 99541 71623 41/97 /1118 10065 20044 40010 56010 7//22 8//// 22263 00059 20803 320// 41206 5//// 80055
BBXX OUIY2 08064 99535 71594 41697 32022 10060 20030 40170 57010 70011 80/10 22263 00050 2//// 3//// 4//// 5//// 6//// 80048 ICE /////
BBXX OYCY2 08064 99410 71503 43/96 /1624 10130 20130 40270 52020 7//// 8//// 22224 00170 2//// 3//// 4//// 5//// 6//// 80130 ICE /////
BBXX SHIP 08063 99348 71554 41/98 70718 10160 20108 40195 52020 70222 87/// 22264 00190 2//// 3//// 4//// 80163
BBXX SHIP 08064 99318 71556 41497 80212 10190 20159 40200 50010 7//22 8829/ 22223 00210 20904 306// 4//// 50602 6//// 80170 ICE /////
AAXX 0806/ 89769 46/// ///// 10011 39746 4//// 5////
BBXX 42363 08061 99282 70892 46/// /0107 10106 20039 40264 58004 90600 333 91208
BBXX 42364 08061 99291 70881 46/// /3510 10094 20050 40258 50004 90600
BBXX 41037 08061 99340 70775 46/// /3112 10128 40131 51041 90600 22200 00175 333 91214
BBXX 44022 08061 99409 70737 46/// ///12 10060 20040 49962 90600 22200 00106 333 91216 555 11134 22144
AAXX 08061 37575 42999 00202 11002 21047 40223 57003
AAXX 08061 37675 42999 00000 10055 21075 40159 57001
AAXX 08061 37735 42995 03601 10002 21007 40169 53001
AAXX 08061 37749 42998 03402 10019 21027 40255 53002
AAXX 08061 37756 41/93 93004 11012 21012 40270 58020 74541
AAXX 08061 37864 32597 81709 10102 20055 40200 57003 885// 333 20056 88626 555 30///
AAXX 08061 37985 42598 40000 10019 20014 40213 58005 84540
AAXX 08064 41241 32960 00105 10241 20077 30161 40196 333 00027 20182 58013
AAXX 08064 41242 36/// /0000 10251 20085 30183 40207 333 0E019 20157 58016
AAXX 08064 41244 NIL
AAXX 08064 41246 32960 13406 10243 20129 30187 40191 80001 333 20187 58014 81070
AAXX 08064 41251 36/// /1804 10109 20046 38043 49920 333 0E007 20060 59000
AAXX 08064 41252 36/// /3202 10207 20124 39811 40101 333 0E017 20139 58000
AAXX 08064 41253 36/// /0604 10224 20147 39816 40200 333 0E019 20171 58010
AAXX 08064 41254 36/// /3004 10127 20034 38207 48212 333 0E003 20062 58020
AAXX 08064 41255 36/// /3003 10218 20098 39650 40202 333 0E020 20155 59002
AAXX 08064 41256 32565 52607 10241 20128 30178 40188 85430 333 20198 58007 83625 83360
AAXX 08064 41257 NIL
AAXX 08064 41258 36/// /2606 10241 20140 30174 40179 333 0E/// 20229 58004
AAXX 08064 41259 36/// /2716 10074 21277 37120 40290 333 0E/// 20031 59004
AAXX 08064 41262 NIL
AAXX 08064 41263 NIL
AAXX 08064 41264 36/70 /1202 10220 20124 39804 40172 333 0E018 20144 59001
AAXX 08064 41265 36/// /3402 10223 20133 39642 40196 333 0E022 20151 59003
AAXX 08064 41267 35/73 /3316 10252 20136 30163 40179 333 0E020 20211 59002
AAXX 08064 41268 32560 23510 10258 20140 30165 40181 82500 333 20185 3/020 58001 82625
AAXX 08064 41270 36/70 /3411 10255 20134 30124 40136 333 0E019 20182 59001
AAXX 08064 41275 NIL
AAXX 08064 41287 36/// /3004 10204 20130 30137 40206 333 0E017 20145 59004
AAXX 08064 41288 32460 13407 10239 20169 30163 40185 81500 333 20209 58000 81610
AAXX 08064 41290 NIL
AAXX 08064 41295 NIL
AAXX 08064 41304 NIL
AAXX 08064 41312 36/// /0110 10246 20034 30135 40175 333 0E057 20224 58002
AAXX 08064 41314 32960 03209 10186 21029 39703 40215 333 20113 59001
AAXX 08064 41315 36/// /3423 10151 21015 39184 42822 3 0E/// 20123 59010
AAXX 08064 41316 NIL
AAXX 08064 40356 NIL
AAXX 08064 40357 42960 00000 10050 21140 39562 40216 333 20000 59029
AAXX 08064 40360 42960 00604 10000 21030 39599 40201 333 21020 59041
AAXX 08064 40361 42960 00903 10070 21190 39421 40212 333 20025 59035
AAXX 08064 40362 41960 01602 10055 21200 39696 40230 70233 333 210015 59012
AAXX 08064 40373 42960 02402 10045 21010 39799 40233 333 20010 59004
AAXX 08064 40375 42960 20000 10060 21120 39306 40203 80002 333 20020 59029 82070
AAXX 08064 40377 42960 02504 10092 20020 39744 40231 333 20010 59005
AAXX 08064 40394 NIL
AAXX 08064 40400 42960 03606 10200 20060 30146 40174 333 20154 59002
AAXX 08064 40401 42960 00000 10140 21060 39481 40191 333 20080 58016
AAXX 08064 40405 42960 01702 10130 20030 39477 40229 333 20050 58000
AAXX 08064 40416 42960 02912 10135 21010 30183 40203 333 20070 58000
AAXX 08064 40417 42960 02809 10123 21050 30208 40223 333 20073 58003
AAXX 08064 40420 41959 03110 10134 21040 30014 40228 70600 333 20060 58009
AAXX 08064 40430 42960 10508 10170 21030 39462 40182 80001 333 20145 58002 81070
AAXX 08064 40435 42960 00507 10130 21020 39165 40214 333 20080 58002
AAXX 08064 40437 42960 02903 10119 21050 39526 40247 333 20047 58008
AAXX 08064 40439 42960 10000 10190 20100 30126 40145 80001 333 20160 59008 81070
AAXX 08061 01476 16/// /3003 11025 21044 30028 40034 51009 6//// 333 21037 91106
AAXX 08061 01488 16/// /2701 11109 21120 60002 333 21116 4/016 70000 91104
AAXX 08064 91753 01459 80913 10264 20242 30067 40099 53013 60022 78086 84231 333 10309 20251 32024 55058 60027 70047 84819 84076 90710 91120 555 60025
AAXX 08064 91754 36/// /0000 10269 20234 30054 40095 53015 555 10307 20246 60044 60005
AAXX 08061 01441 16/// /3601 11147 21165 39031 40071 53006 69942 333 21239 70004 91103
AAXX 08061 01450 16/// /1802 11112 21124 38864 40049 50003 60002 333 21134 70003 91103
AAXX 08064 41024 42960 23606 10256 20170 30125 40144 82030 333 20210 59001 82360
AAXX 08064 41030 42960 10000 10234 20140 39865 40137 81030 333 20212 59003 81360
AAXX 08064 41036 42960 01608 10186 20120 38586 48536 333 20090 59003 555 04410 5 0142
AAXX 08064 41055 42960 01304 10136 21010 38390 48539 333 20090 59003 555 04410 50178
AAXX 08064 41061 42960 01113 10157 20010 39501 40218 333 20150 58015
AAXX 08064 41084 42960 00000 10148 20000 38899 48547 333 20098 58002 555 04410 50183
AAXX 08064 41112 42960 01806 10164 20080 37971 48540 333 20084 59001 555 04410 50180
AAXX 08064 41114 42960 00000 10160 20050 38005 48539 333 20080 58000 555 04410 50175
AAXX 08064 41128 42960 01504 10164 21020 38867 48566 333 20080 58012 555 04410 50216
AAXX 08064 41136 42960 00810 10174 21040 39380 40204 333 20110 58004
AAXX 08064 41140 42560 21407 10288 20240 30139 40142 82100 333 20250 59002 82830
AAXX 08061 01262 46/// /1407 10019 21006 333 20001 91109
AAXX 08061 01393 16/// /0000 11171 21188 39195 40047 53012 6//// 333 21171 91102
AAXX 08061 01144 41989 00607 10011 21047 70100 333 20011 91113
AAXX 08061 01380 11986 03501 11176 21196 60002 70200 333 21184 49018 70000 91103
AAXX 08061 01473 11670 63001 11113 21125 39821 40040 53010 60002 70122 85130 333 21117 47007 70000 91103
AAXX 08064 68398 16/// /3607 10210 20170 39357 48505 52008 69924 333 20185 91010 555 10302 20002 91013
AAXX 08064 04211 47/83 /0716 11131 21199 39980 40148 52004 72487 333 11117 21135
AAXX 08064 04220 07676 81415 11074 21104 30093 40146 52011 69922 70087 333 11073 21110 55300 20004 69917 70002 88/47
AAXX 08064 04221 45684 80812 11111 21190 30119 40158 52013 333 11106 21144 83/35 87/40 88/46
AAXX 08064 04231 12984 70709 11119 21167 30090 40167 52009 6///2 8707/ 333 11103 21190 81359 87461
AAXX 08064 04234 47650 80916 11053 21108 30119 40129 57001 78587 333 11046 21071 88/33 91128
AAXX 08064 04241 47416 71327 11051 21070 30109 40149 52005 77177 333 11050 21073 83/17 87/20 91035
AAXX 08064 04250 07559 51521 11044 21111 30043 40151 52002 60042 78587 333 11043 21062 55300 20000 69937 70163 81/26 85/50 91136
AAXX 08064 04254 47514 71612 11044 21140 30051 40169 52004 78587 333 11044 21065 83/24 84/// 87/68 91129
AAXX 08064 04260 45783 51705 11082 21222 30150 40196 52008 333 11072 21112 85/56
AAXX 08064 04270 45/84 /0902 11151 21247 30160 40202 52005 333 11102 21176
AAXX 08064 04272 05/84 0//// 11105 21162 30120 40196 52009 6///2 333 11087 21115 6///7
AAXX 08064 04312 46/// /2308 11263 21316 30123 40166 52016
AAXX 08064 04320 47/18 93013 11187 21223 30117 40133 52004 77177 333 11186 21227 55300 89/13
AAXX 08064 04339 45/84 ///// 11201 21313 30056 40154 52006 333 11192 21239 55300 20000
AAXX 08064 04360 06/// /2905 11148 21263 30056 40130 52014 6///2 333 11143 21169 55300 20000 6///7 70000 91135
AAXX 08064 04361 46/// /2603 11176 21273 30078 40134 52016 333 11152 21196
AAXX 08064 04390 05/84 02706 11066 21159 30070 40167 52006 6///2 333 11061 21081 6///7 70000
AAXX 08064 16723 11460 53412 10116 20084 30146 40162 53013 60072 70161 85800 333 20100 32/// 55000 70319 83818 84625 90730 91122 555 10000 30140 20000 89071 99093 40000 47645 44240 50000 50100 60000 60071 60500 70000 77/// 7R///
AAXX 08064 71402 46/// /0613 11006 21012 30023 40138 51012 6///1 333 11005 21022 7//// 555 30737 40223
AAXX 08064 71407 16/// /0521 11094 21106 39804 49824 53016 60001 333 11071 21095 70006 555 30639 40233
AAXX 08064 71427 16/// /0207 11033 21042 30051 40058 58038 60001 333 11033 21077 70000 555 30421 40121
AAXX 08064 71442 16/// /3310 11118 21143 39823 40145 53007 60001 333 11048 21119 70000 555 32925 40201
AAXX 08064 71449 16/// /2406 11127 21177 39735 40147 56002 60001 333 11021 21136 70000 555 30024 40081
AAXX 08064 71622 16/// ///// 11001 21046 39793 40133 53012 60001 333 10007 21020 70000
AAXX 08064 71250 17/// /3004 10030 20024 39974 40110 53019 60021 7//4/ 333 10084 20023 70133 555 32517 40041
AAXX 08064 71296 16/// /2305 11010 21029 39792 40099 53002 60001 333 10002 70000
AAXX 08064 71299 16/// /2406 11125 21135 39796 40075 56006 60001 333 11050 21146 70000 555 10030
AAXX 08064 71110 16/// /0707 10043 20043 30044 40104 53002 60001 333 10073 20040 70244 555 30518 40181
AAXX 08064 71133 46/// /3113 11153 21256 39495 40227 53003 6///1 333 11048 21154 7//// 555 33032 40202
AAXX 08064 71139 16/// /3010 11160 21193 38760 40275 58003 60001 333 11051 21169 70018 555 32923 40021
AAXX 08064 71141 16/// /3617 11204 21222 30018 40045 53019 60001 333 11129 21205 70000 555 30243 40173
AAXX 08064 71147 16/// /2813 11091 21151 60001 333 11023 21100 70000 555 33023 40031
AAXX 08064 71149 16/// /3013 11115 21202 60001 333 11031 21117 70000 555 33132 40212
AAXX 08064 71956 17/// /3206 11022 21057 39876 40109 53014 69961 7//4/ 333 10018 21025 70006 555 32820 40221
AAXX 08064 71959 17/// ///// 10082 20076 60041 7//4/ 333 10095 20056 70117
AAXX 08064 71970 16/// /3012 11155 21241 39645 40254 53001 60001 333 11063 21156 70000 555 33132 40202
AAXX 08064 71977 46/// /0000 11293 21293 39464 40226 56033 6///1 333 11293 21355 7//// 555 10010
AAXX 08064 71978 46/// /2418 11204 21275 39816 40142 56060 6///1 333 11189 21291 7////
AAXX 08064 71989 16/// /2309 11217 21238 30172 40189 55005 60001 333 11214 21329 70000
AAXX 08064 71707 11132 80804 10058 20050 39989 40065 58025 60021 71052 886// 333 10059 20044 70146 90936 555 10000 20000
AAXX 08064 71719 17/// /0613 10027 20020 30046 40052 56048 69971 7//4/ 333 10027 21015 70013 555 30425 40111
AAXX 08064 71074 16/// ///02 11339 21373 30083 40165 51001 60001 333 11282 21339 7////
AAXX 08064 71075 16/// /3016 11213 21247 39466 40094 51006 60001 333 11117 21213 70000 555 33036 40083
AAXX 08064 71087 46/// /2702 11264 21288 30079 40297 58013 6///1 333 11128 21266 7//// 555 32925 40111
AAXX 08064 71212 16/// /0501 11026 21031 39227 40026 58020 60001 333 11007 21038 70003
AAXX 08064 71239 16/// /3014 11103 21154 39700 40176 56001 60001 333 11021 21125 70000 555 10010 33126 40191
AAXX 08064 71243 16/// /0102 11082 21158 39214 40349 58006 60001 333 10003 21083 70000 555 30321 40211
AAXX 08064 71246 16/// /1401 11228 21253 39608 40307 58018 60001 333 11083 21230 70000 555 33222 40211
AAXX 08064 71357 16/// /0505 11157 21174 30013 40020 55002 60001 333 11154 21203 70000
AAXX 08064 71358 16/// /3220 11213 21234 30021 40057 58005 60001 333 11207 21308 70000 555 33226 40031
AAXX 08064 71361 16/// /2502 11228 21263 30070 40290 58005 60001 333 11125 21232 70000 555 33335 40113
AAXX 08064 71362 16/// /2909 11184 21211 39976 40244 51005 60001 333 11113 21186 70010 555 33328 40072
AAXX 08064 71364 16/// /1308 11234 21270 30096 40236 58031 60001 333 11224 21263 70000
AAXX 08064 71365 16/// /3502 11312 21342 30076 40305 56010 60001 333 11132 21312 70000 555 33324 40071
AAXX 08064 71372 17/// /2807 11009 21020 60011 7//4/ 333 10015 21009 70012
AAXX 08064 71381 47/// /3109 11044 21054 6///1 7//4/ 333 7////
AAXX 08064 71392 16/// /3602 11003 21008 60001 333 11001 21018 70000 555 30722 40081
AAXX 08064 71393 16/// ///// 11117 21178 38995 40320 58011 60001 333 11030 21121 70000
AAXX 08064 71925 11704 23630 11222 21246 30036 40073 50010 60001 73933 82500 333 11138 21226 70000 555 10000 20000 30146 40143
AAXX 08064 71472 16/// /1407 10044 20028 30308 40326 58002 60001 333 10050 20032 70000
AAXX 08064 71017 16/// /2907 11278 21306 30151 40166 53004 60001 333 11174 21279 70000 555 30424 40091
AAXX 08064 71018 16/// ///14 11213 21247 30027 40117 50000 60001 333 11185 21241 70000
AAXX 08064 71019 46/// /0403 11012 21012 39739 40039 58033 6///1 333 10005 21016 7////
AAXX 08064 71020 46/// /0000 11245 21271 30012 40283 58011 6///1 333 11122 21254 7////
AAXX 08064 71021 46/// /0000 11253 21281 39921 40298 58012 6///1 333 11118 21280 7//// 555 31221 40071
AAXX 08064 71837 46/// ///// 11109 6///1 333 11041 21111 7////
AAXX 08064 71839 16/// ///// 11104 60001 333 11034 21105 70011
AAXX 08064 71849 16/// /2910 11103 21126 39846 40151 55001 60001 333 11022 21104 70000 555 33024 40201
AAXX 08064 71667 16/// /2911 11056 21108 39848 40096 55002 60001 333 11011 21067 70000 555 33123 40171
AAXX 08064 71669 16/// /0000 11124 21136 38624 40307 58011 60001 333 11042 21125 70015
AAXX 08064 71671 17/// /0703 10059 20059 39940 49999 56052 60101 7//4/ 333 10069 20055 70180
AAXX 08064 71832 16/// /2004 11132 21146 39744 40076 57002 60001 333 11046 21141 70000 555 31922 40071
AAXX 08064 71858 16/// /3009 11157 21203 39839 40128 52007 60001 333 11048 21158 70000 555 33230 40192
AAXX 08064 71861 47/// /3114 11124 21171 39449 40196 53001 6///1 7//4/ 333 11056 21124 7//// 555 32925 40041
AAXX 08064 71151 16/// /2607 11117 21164 39601 40114 56003 60001 333 11033 21118 70000 555 33425 40101
AAXX 08064 71155 16/// ///// 11201 21218 60001 333 11034 21208 70000
AAXX 08064 71158 16/// /3114 11139 21193 39830 40112 53003 60001 333 11036 21139 70000 555 33031 40012
AAXX 08064 71159 16/// /0810 10002 21014 30029 40101 58006 60001 333 10021 21001 70030 555 30521 40171
AAXX 08064 71160 16/// /3120 11201 21228 39960 40183 50007 60001 333 11177 21202 70000 555 33046 40183
AAXX 08064 71164 46/// /0805 11321 21353 30204 40292 58027 6///1 333 11245 21350 7////
AAXX 08064 71165 46/// ///06 11253 21282 39985 40285 56001 6///1 333 11181 21284 7////
AAXX 08064 71166 46/// /1101 39651 56012 6///1 333 7////
AAXX 08064 71170 16/// /3014 11111 21149 60001 333 11051 21112 70000 555 33026 40041
AAXX 08064 71733 16/// /3105 11044 21062 39659 40089 53011 60001 333 11009 21121 70003
AAXX 08064 71736 46/// ///// 11111 21128 6///1 333 11015 21111 7//// 555 10030
AAXX 08064 71742 46/// /0206 11012 21012 39950 40138 52013 6///1 333 11001 21015 7//// 555 30721 40201
AAXX 08064 71744 17/// /0205 10007 20002 30000 40041 56046 60031 7//4/ 333 10007 21005 7////
AAXX 08064 71746 46/// /2910 11004 21047 39922 40145 53023 6///1 333 10023 21019 7//// 555 33023 40051
AAXX 08064 71920 17/// /1820 10113 20113 39993 49999 57040 60021 7//4/ 333 10113 20090 70218 555 31824 40061
AAXX 08064 71885 17/// ///// 11106 69931 7//4/ 333 11036 21107 70012
AAXX 08064 71451 16/// /2815 11188 21243 39684 40126 55002 60001 333 11097 21194 70000 555 32730 40042
AAXX 08064 71452 46/// /3119 11112 21158 39496 40228 56001 6///1 333 11028 21112 7//// 555 33141 40223
AAXX 08064 71455 46/// /3118 11128 21175 39440 40266 51005 6///1 333 11030 21128 7//// 555 33136 40203
AAXX 08064 71456 16/// /3111 11160 21220 39591 40210 52005 60001 333 11060 21162 70000 555 33029 40232
AAXX 08064 71465 46/// /2610 10011 21048 39931 40150 53018 6///1 333 10020 21004 7//// 555 32720 40041
AAXX 08064 71470 16/// /3224 11259 21285 39534 40188 56010 60001 333 11224 21259 70035 555 33153 40083
AAXX 08064 71476 16/// /0808 30327 58004 60001 333 70000
AAXX 08064 71480 16/// /1106 11267 21296 30157 40287 58017 60001 333 11197 21331 70003
AAXX 08064 71482 46/// /0804 10014 30312 40351 53003 6///1 333 10038 20012 7////
AAXX 08064 71484 16/// /1303 10030 21019 30310 40329 58005 60001 333 10049 20019 70000
AAXX 08064 71489 16/// /2911 11144 21187 39439 40281 53004 60001 333 11037 21144 70000 555 32826 40211
AAXX 08064 71492 46/// ///01 11305 21333 39528 40268 58007 6///1 333 11267 21311 7//// 555 10060
AAXX 08064 71800 17/// /2510 10069 20069 30080 40113 53004 60061 7//4/ 333 10079 20037 70200 555 32128 40232
AAXX 08064 71807 17/// /0306 10035 20031 30103 40122 53006 69961 7//4/ 333 10076 20034 70275 555 31921 40221
AAXX 08064 71815 11574 80710 10008 21009 30075 40106 58008 69901 70282 885// 333 10019 20005 42001 70016 90962 555 10010 20010 30720 40180
AAXX 08061 33177 11560 81903 10010 20002 39784 40023 53007 60032 78082 889// 333 20003 43001
AAXX 08064 71750 16/// /0301 11057 21081 39840 40076 58017 60001 333 11007 21058 70004 555 32528 40092
AAXX 08064 71752 16/// /2608 10003 21051 39904 40122 55000 60001 333 10020 21021 70000
AAXX 08064 71771 46/// /1704 10048 20013 30310 40331 58003 6///1 333 10060 20033 7////
AAXX 08064 71300 16/// /2302 11021 21032 39959 40082 56003 60001 333 10002 21022 70003 555 10010 20003
AAXX 08064 71311 17/// /0203 10049 20043 39990 40014 58050 60041 7//4/ 333 10052 20040 70074
AAXX 08064 71317 17/// /0906 10069 20064 39964 40010 58048 60111 7//4/ 333 10069 20051 70177
AAXX 08064 71321 16/// /1712 11051 21093 39926 49969 51005 60001 333 11050 21072 70000 555 31636 40163
AAXX 08064 71332 16/// /2812 11234 21259 30220 40251 55000 60001 333 11193 21240 70000 555 33347 40173
AAXX 08064 71551 16/// /2915 11121 21165 39578 40267 51005 60001 333 11014 21122 70000 555 33124 40211
AAXX 08064 71554 16/// /0903 11006 21015 30045 40051 58028 60001 333 10014 21032 70010
AAXX 08064 71556 16/// /3114 11121 21179 39604 40228 50000 60001 333 11032 21126 70000 555 33129 40032
AAXX 08064 71564 16/// /2910 11092 21154 39792 40171 55005 60001 333 11012 21096 70000 555 33122 40221
AAXX 08064 71577 46/// /2804 11108 21162 6///1 333 11017 21109 7//// 555 33023 40211
AAXX 08064 71578 16/// /3504 10001 21017 60001 333 10003 21014 70000 555 30724 40071
AAXX 08064 71580 11602 70229 11139 21160 39884 49920 52021 60061 73973 87500 333 11111 21153 48034 70184 90933 93106 555 10184 20184 30451 40143
AAXX 08064 71585 16/// /2706 11177 21241 39797 40285 56002 60001 333 11088 21177 70000 555 32933 40162
AAXX 08064 71599 17/// /0803 10084 20084 39801 49998 56047 60131 7//4/ 333 10116 20078 70254
AAXX 08064 71501 16/// /1221 11215 21240 30144 40146 58053 60001 333 11205 21306 70008 555 31328 40062
AAXX 08061 33088 11597 81903 11001 21009 39837 40030 57014 60022 70282 885// 333 21020 47004
AAXX 08061 33429 11395 82206 11006 21010 39632 40061 53005 60012 78582 883// 333 21026 47004 85707
AAXX 08061 34523 11496 83401 10034 20029 30057 40134 56002 60112 76162 8772/ 333 20034
AAXX 08064 71832 16/// /2004 11132 21146 39744 40076 57002 60001 333 11046 21141 70000 555 31922 40071
AAXX 08064 71858 16/// /3009 11157 21203 39839 40128 52007 60001 333 11048 21158 70000 555 33230 40192
AAXX 08064 71861 47/// /3114 11124 21171 39449 40196 53001 6///1 7//4/ 333 11056 21124 7//// 555 32925 40041
AAXX 08064 71472 16/// /1407 10044 20028 30308 40326 58002 60001 333 10050 20032 70000
AAXX 08064 71707 11132 80804 10058 20050 39989 40065 58025 60021 71052 886// 333 10059 20044 70146 90936 555 10000 20000
AAXX 08064 71719 17/// /0613 10027 20020 30046 40052 56048 69971 7//4/ 333 10027 21015 70013 555 30425 40111
AAXX 08064 71925 11704 23630 11222 21246 30036 40073 50010 60001 73933 82500 333 11138 21226 70000 555 10000 20000 30146 40143
AAXX 08064 71800 17/// /2510 10069 20069 30080 40113 53004 60061 7//4/ 333 10079 20037 70200 555 32128 40232
AAXX 08064 71807 17/// /0306 10035 20031 30103 40122 53006 69961 7//4/ 333 10076 20034 70275 555 31921 40221
AAXX 08064 71815 11574 80710 10008 21009 30075 40106 58008 69901 70282 885// 333 10019 20005 42001 70016 90962 555 10010 20010 30720 40180
BBXX 44067 08061 99384 70770 46/// /0307 10059 40106 51065 90600
BBXX 44150 08061 99425 70640 46/// /1909 10129 40040 57044 22200 00106 10804 70018 333 91211
BBXX 44150 08061 99425 70640 46/// /1909 10129 40040 57044 22200 00106 10804 70018 333 91211
AAXX 08061 48845 01497 83402 10181 20173 30170 40177 58018 60153 76166 888// 333 58022 60051 86894 88696 96160 555 20181
AAXX 08061 48840 01497 83602 10162 20155 30176 40182 57019 60083 76066 888// 333 58029 60021 85894 88696 96160 555 20162
BBXX A8TG2 08064 99321 71446 41798 60915 10200 20167 40230 51010 70355 85464 22224 20204 309// 40204 5//// 80180
AAXX 08061 48855 01560 80202 10251 20215 30128 40136 58019 60053 70362 888// 333 58015 60011 86895 88697
AAXX 08061 48848 01495 83606 10208 20205 30153 40161 58014 60613 76566 8672/ 333 58024 60371 86894 88499 96163
AAXX 08064 40550 37/59 /3206 10097 21075 40235 53020 71011 333 55308 00373 10000 21106 30363 40911 51275 61469 55407 40742 90069 90400 91011 91111 91205 91303
AAXX 08064 40551 36/// /2212 10083 21097 333 90400 91015 91115 91213 91309
AAXX 08064 40552 35/70 /2713 10093 21083 40236 51020 333 55310 90069 90401 91015 91117 91213 91311
AAXX 08064 40553 35/68 /2910 10083 21077 40232 53018 333 55308 90069 90401 91011 91111 91209 91305
AAXX 08064 40568 36/// /2910 10104 21019 333 90400 91013 91113 91211 91309
AAXX 08064 40569 NIL
AAXX 08064 40570 35/70 /2507 10077 21125 40242 51009 333 55310 90069 90401 91009 91111 91209 91305
AAXX 08064 40571 NIL
AAXX 08064 40572 NIL
AAXX 08064 40573 36/// /2609 10081 21117 333 90401 91011 91113 91211 91307
AAXX 08064 40580 46/// /2102 10122 21060 333 553// 00424 10023 21021 30236 40903 51279 61257 55407 40785 90401 91005 91105 91201 91301
AAXX 08064 40581 36/// /2503 10129 21013 333 90400 91007 91111 91205 91301
AAXX 08064 40582 31957 02706 10089 21073 40234 53019 70500 333 55310 00506 10000 21213 30397 40952 51257 61610 55407 40816 90401 91007 91107 91205 91303
AAXX 08064 40583 NIL
AAXX 08064 40585 36/// /2810 10128 20005 222// 1//// 3//// 4//// 70/// 333 90401 91013 91121 91213 91311
AAXX 08064 40586 36/// /2609 10104 21079 333 90401 91013 91113 91207 91305
AAXX 08064 40587 36/// /2610 10117 21072 333 553// 00437 10000 21200 30407 40918 51268 61607 55407 40793 90400 91011 91111 91209 91305
AAXX 08064 40588 35/62 /3009 10113 20006 40228 53014 333 55309 90069 90400 91011 91113 91211 91307
AAXX 08064 40589 NIL
AAXX 08064 40590 36/// /2807 10098 21088 333 90400 91007 91111 91209 91307
AAXX 08064 40591 NIL
AAXX 08064 40592 35/68 /2905 10133 21043 40234 53014 333 55310 00567 10000 21249 30310 40938 51303 61560 55407 40939 90069 90401 91007 91111 91207 91303
AAXX 08064 40593 36/// /3109 10115 21041 333 90401 91013 91113 91209 91307
AAXX 08064 40594 36/// /3006 10129 21042 333 90401 91011 91113 91207 91305
AAXX 08064 40596 36/// /2909 10155 20094 333 90400 91011 91119 91213 91311
AAXX 08061 48852 01598 70701 10253 20227 30124 40134 57021 60063 70382 8621/ 333 58006 60021 86895 87499
BBXX 44255 08061 99473 70573 46/// ///// 1//// 4//// 5//// 22200 0//// 1//// 70/// 333 912//
BBXX 44255 08061 99473 70573 46/// ///// 1//// 4//// 5//// 22200 0//// 1//// 70/// 333 912//
BBXX SBLI 08061 99196 71073 43/98 80103 10234 40149 51012 22274 00269 2//// 4//// 426621110
AAXX 08064 89002 41897 71121 11076 21094 39640 49693 54000 73733 8307/ 333 92921
BBXX SLKQ 08061 99172 11187 43/98 73607 10286 40073 58034 22254 00282 2////4////
AAXX 08064 68014 32489 81502 10191 20170 38591 48507 52003 83682 333 20181 91004 555 10304 91018
AAXX 08064 68110 12489 70102 10188 20147 38277 48497 53007 60174 81680 333 20162 91005 555 10283 20170 91019
AAXX 08064 68300 36/// /1424 10174 20086 39986 40136 52003 333 20137 91033 555 10239 91013
AAXX 08064 65352 31930 70404 10205 20024 3//// 4//// 70522 80002 333 20205 5//// 87076
AAXX 08064 65361 32957 71802 10185 20081 3//// 4//// 80002 333 20153 5//// 87076
AAXX 08064 65376 32958 72802 10225 20196 39645 40103 80002 333 20220 58001 87076
AAXX 08064 65387 32457 73002 10252 20251 30070 40088 85502 333 20250 58006 85610 86073
AAXX 08061 06447 36/// /2003 10032 21003 30089 40217 52007 60002 333 20027 3/101 91108 91205
AAXX 08064 65306 31956 50604 10205 20011 39788 40118 70422 80002 333 01200 20202 50924 55099 58009 85076
AAXX 08064 65319 32958 53206 10240 21013 39597 40105 80002 333 01800 20222 50814 55097 59005 85076
AAXX 08064 65330 31925 51206 10202 20040 39663 40098 70522 80002 333 02100 20199 50914 55095 00455 58000 85076
AAXX 08064 65335 31445 80000 10225 20202 39879 40101 71022 885// 333 01700 20219 50324 55098 59003 88610
AAXX 08064 65344 31420 73202 10250 20243 30084 40095 71022 83802 333 02300 20241 50274 55065 59001 82612 85076 94904 95834
AAXX 08061 11916 11/00 93210 11091 21106 37834 48355 53012 60092 77174 333 21095 3//// 48016 70095 89/00 91023 91127 93598 96049
AAXX 08064 65351 31950 70406 10220 20042 3//// 4//// 70522 80002 333 20215 5//// 87076
AAXX 08064 65355 31935 70808 10218 21008 39588 40100 70522 80002 333 20200 59002 87073
AAXX 08064 65357 32960 70806 10225 20048 39719 40106 80002 333 20220 58001 87076
AAXX 08064 65380 31906 70000 10228 20221 3//// 4//// 74642 80002 333 20223 5//// 87076
AAXX 08064 91631 11599 10708 10283 20243 40070 60001 70100 81100 333 561//
AAXX 08064 91643 11499 70712 10287 20249 40065 53010 60001 71522 83308 333 562/9 83918 87280
AAXX 08064 91648 11499 50807 10281 20245 40071 60011 70228 8323/ 333 5629/
AAXX 08060 67586 31570 10063 10250 20177 38766 48494 70500 81130 333 20158 59021 55109 59021 81820 555 10318 7//11
AAXX 08064 68004 16/// /1004 10217 20171 38532 48487 52010 69964 333 20190 91010 555 10296 20006 91016
AAXX 08064 68006 32689 61808 10225 20152 38903 48483 52008 81581 333 20219 555 10317 91013
AAXX 08064 68010 36/// /1604 10212 20147 38906 48506 52008 333 20202 91008 555 10324 91016
AAXX 08064 68018 16/// /2206 10198 20186 38893 48495 52007 60264 333 20191 91009 555 10327 20260 61205 91015
AAXX 08064 68098 32580 83308 10140 20122 30021 40130 53006 88500 333 20126 91011 555 10271 91012
AAXX 08064 68102 36/// /1802 10193 20117 38732 48481 52010 333 20174 91004 555 10304 91014
AAXX 08064 68112 16/// /1105 10194 20155 38338 48521 53005 60074 333 20164 91008 555 10228 20078 91021
AAXX 08064 68116 16/// /1902 10206 20170 38564 48512 52008 60074 333 20177 91005 555 10299 20072 91019
AAXX 08064 68212 16/// /2506 10212 20156 38911 48526 52006 69954 333 20193 91009 555 10311 20005 91018
AAXX 08064 68312 32889 12208 10159 20077 38958 48513 53006 81080 333 20134 91011 555 10311 91017
AAXX 08063 68452 NIL
AAXX 08063 68454 12489 70000 10160 20126 38381 48/// 52003 60024 81640 333 20150 555 10295 20015
AAXX 08063 68456 NIL
AAXX 08061 37279 32498 70000 10056 20027 39985 40129 53002 87700 555 20049
AAXX 08061 37308 32698 50000 11028 21041 39549 40227 53007 85030 333 21061
AAXX 08061 37531 32999 50000 11086 21097 39492 40262 57003 80004 333 21117 47006
AAXX 08061 37553 32999 00801 10021 21040 39544 40199 57003 333 21043
AAXX 08061 37651 16/// ///00 11007 21032 3//// 4//// 5//// 60002 333 21053
AAXX 08061 37492 NIL
AAXX 08064 17124 11460 73012 10041 20022 39219 40140 52025 60052 70262 84630 333 20041 32004 50124 55000 20113 70134 82715 84635 86359
AAXX 08061 12570 11257 82506 10013 20010 39716 40037 53020 60082 78387 889// 333 10018 21001 3/100 44004 55005 70080 84706 88911 91112 93001
AAXX 08064 17320 11657 73404 10111 20095 30103 40108 56002 60532 78082 84270 333 20108 32007 50091 55007 70725 84836 87357 92436
AAXX 08064 91631 11599 10708 10283 20243 40070 60001 70100 81100 333 561//
AAXX 08064 91643 11499 70712 10287 20249 40065 53010 60001 71522 83308 333 562/9 83918 87280
AAXX 08064 91648 11499 50807 10281 20245 40071 60011 70228 8323/ 333 5629/
AAXX 08063 68452 NIL
AAXX 08063 68454 12489 70000 10160 20126 38381 48/// 52003 60024 81640 333 20150 555 10295 20015
AAXX 08063 68456 NIL
AAXX 08061 50136 32970 00901 11166 21227 39797 40397 57027 333 21340
AAXX 08061 50745 32968 03204 11107 21220 30169 40371 57016 333 21226
AAXX 08061 50774 32968 00000 11125 21212 39991 40327 57021 333 21287
AAXX 08061 50788 32970 02706 11130 21199 30183 40276 57015 333 21218
AAXX 08061 51133 NIL
AAXX 08061 51431 NIL
AAXX 08061 51747 NIL
AAXX 08061 52203 NIL
AAXX 08061 52418 NIL
AAXX 08061 52681 NIL
AAXX 08061 53564 NIL
AAXX 08061 53614 32980 02901 11038 21143 39069 40437 57029 333 00153 21094
AAXX 08061 53646 32975 02902 11056 21151 39010 40448 57024 333 00252 21145
AAXX 08061 53798 NIL
AAXX 08061 53845 32975 00701 11007 21161 39238 40418 57028 333 00252 21066
AAXX 08061 53959 NIL
AAXX 08061 54094 32975 02002 11136 21207 39997 40324 57021 333 21231
AAXX 08061 54102 11680 73205 11150 21189 39175 40482 57007 69911 70070 83502 333 21233
AAXX 08061 54161 32962 03402 11119 21234 30048 40368 57009 333 21201
AAXX 08061 54292 32980 02704 11101 21211 39968 40309 57014 333 21162
AAXX 08061 54374 32970 00403 11096 21213 39818 40315 57014 333 21146
AAXX 08061 54423 NIL
AAXX 08061 54618 NIL
AAXX 08061 54843 NIL
AAXX 08061 54909 32972 03606 10024 21092 30316 40382 57013 333 21013
AAXX 08061 56029 32680 72902 10044 21185 36456 57026 84502 333 00154 21101
AAXX 08061 57127 NIL
AAXX 08061 57131 NIL
AAXX 08064 89628 46/// /3129 11241 4//// 5////
AAXX 08061 51133 32980 00905 11018 21130 39701 40383 57007 333 00051 21087
AAXX 08061 52418 32980 02902 11014 21121 39047 40452 57008 333 00101 21139
AAXX 08061 52681 32980 00702 11027 21147 38768 40424 57022 333 05251 21148
AAXX 08061 53798 32962 00702 10007 21099 30294 40395 57019 333 21024
AAXX 08061 54423 32980 03409 11054 21211 39842 40392 57026 333 21133
AAXX 08061 54618 32965 23403 11008 21166 30372 40391 57015 80002 333 21051
AAXX 08061 37545 32995 03603 11036 21039 39692 40229 57005 71000 555 21045 7000/
AAXX 08061 51076 32980 12501 11052 21145 39527 40481 54000 80002 333 05103 21184
AAXX 08061 51243 31965 22001 11068 21103 39863 40459 57008 70040 80002 333 05200 21131
AAXX 08061 51288 32980 02001 11051 21200 38468 52003 333 00001 21138
AAXX 08061 52652 32970 03202 11037 21099 38665 40438 57016 333 05100 21158
AAXX 08061 52983 32961 70202 11026 21079 38194 57023 80002 333 05101 21067
AAXX 08061 54511 32980 03606 11006 21202 30344 40386 57017 333 21051
AAXX 08061 57265 32962 30902 10080 21018 30251 40366 57031 80002 333 20021
AAXX 08061 57494 32968 30406 10091 20005 30313 40344 57025 83030 333 20052
AAXX 08061 58238 11563 53607 10070 21030 30283 40329 57010 69901 70060 85800 333 20044
AAXX 08061 58362 11575 83206 10081 20026 30283 40291 57001 69911 70060 8677/ 333 20081
AAXX 08061 58752 11475 83206 10132 20054 30200 40246 57014 60011 76066 887// 333 20126
AAXX 08061 59134 32566 60902 10197 20143 30020 40186 57020 82140 333 20187
AAXX 08061 59287 32580 73610 10172 20091 30112 40198 57031 878// 333 20143
AAXX 08061 51431 32970 80701 11068 21092 39515 40356 57012 8802/ 333 05151 21077
AAXX 08061 52203 32980 11802 10001 21163 39519 40449 57002 80002 333 00151 21128
AAXX 08061 54401 32680 23205 11082 21206 39521 40456 57018 82100 333 21131
AAXX 08061 56778 32565 81102 10089 20055 38144 57029 884// 333 00160 20076
AAXX 08061 57516 11450 83402 10089 20069 39984 40302 57031 60021 76066 8572/ 333 00251 20088
AAXX 08061 58102 32970 03404 10047 21068 30326 40376 57017 333 20006
AAXX 08061 58150 11565 73405 10029 20000 30323 40327 57004 69951 72560 874// 333 20029
AAXX 08061 58251 32561 83609 10054 20011 30312 40317 57006 885// 333 20054
AAXX 08061 58606 32560 70905 10093 20047 30245 40305 57012 878// 333 20074
AAXX 08061 59758 32468 70404 10190 20143 30094 40170 57024 8614/ 333 20183
AAXX 08061 51463 32762 70402 11081 21103 39269 40451 57004 85502 333 05152 21097
AAXX 08061 51573 32980 01801 10017 21101 30398 40444 57003 333 00051 21056
AAXX 08061 51709 32968 22002 11047 21090 38875 40447 57004 80002 333 05153 21107
AAXX 08061 53564 32980 01401 11053 21156 39367 40455 57023 333 00354 21121
AAXX 08061 53959 32980 00202 10034 21121 39943 40404 57027 333 21027
AAXX 08061 54843 11678 63602 11011 21024 30330 40359 52001 60041 77070 86500 333 21016
AAXX 08061 57127 32962 60403 10080 21005 39721 40345 57035 80002 333 20036
AAXX 08061 57131 32975 20402 10047 21081 39891 40403 57030 80002 333 20005
AAXX 08061 52533 32980 00703 11035 21106 38660 40447 57008 333 05101 21136
AAXX 08061 53588 32980 03403 11130 21277 37829 57005 333 21196
AAXX 08061 53772 32965 01602 11010 21156 39436 40405 57025 333 21063
AAXX 08061 53915 32980 11102 11004 21114 38789 40401 57029 80002 333 00051 21073
AAXX 08061 54337 32970 23606 11060 21180 30281 40370 57018 82030 333 21113
AAXX 08061 54342 32975 20203 11114 21193 30296 40363 57007 80002 333 21146
AAXX 08061 56080 11970 61602 11029 21102 37174 57026 69911 70070 80002 333 05100 21105
AAXX 08061 56096 32780 72002 10070 21057 39048 40316 57039 83502 333 00152 20035
AAXX 08060 44214 32998 00701 11115 21187 38442 40546 54000
AAXX 08060 44231 31996 20000 11190 21264 38895 40594 58002 70400 80004
AAXX 08060 44259 32997 12805 11188 21229 39480 40463 56007 80004
AAXX 08060 44277 32999 42706 11148 21191 37925 40569 81032 555 81001 82002
AAXX 08060 44288 32699 83503 11133 21194 38278 40504 58004 8654/
AAXX 08060 44292 31995 61302 11214 21262 38858 40550 58002 70422 80006
AAXX 08060 44304 32999 22304 11235 21267 39159 40538 58010 80009
AAXX 08060 44354 32999 20000 11188 21221 39272 40499 57007 80004
AAXX 08060 44373 32999 73202 11149 21202 38662 40482 58010 85084
AAXX 08064 64560 32360 8//// 10215 20212 39566 40102 885// 333 0//00 20202 50054 55/// 59007 84608 88620
AAXX 08064 47407 11/80 23609 11042 21123 39960 40139 53006 69901 70281 82200
AAXX 08064 47409 11/02 92810 11046 21061 30062 40118 53001 60021 78681
AAXX 08064 47418 12/82 23611 11007 21120 30064 40114 53003 60001 82202
AAXX 08064 47421 17/70 /0406 11015 21076 30077 40121 55007 60021 72470
AAXX 08064 47430 11/65 22810 11007 21086 30074 40129 55006 69901 70281 82200
AAXX 08064 47570 17/70 /2704 10046 20020 39869 40130 55007 69951 76160
AAXX 08064 47575 11/65 72707 10007 21053 30131 40136 55004 69901 78582 873//
AAXX 08064 47584 12/80 32606 10041 21041 39932 40123 56006 60001 82202
AAXX 08064 47604 11/20 80507 10047 20026 30132 40141 55004 60071 78082 882//
AAXX 08064 47605 11/58 80408 10065 20047 30084 40125 55007 69901 78082 882//
AAXX 08064 47610 11470 80507 10038 20009 39617 40124 56008 69901 78082 8187/
AAXX 08064 47624 11/58 8//// 10083 2//// 3//// 4//// 5//// 60001 70522 8807/
AAXX 08064 47629 11/70 80309 10069 20026 30075 40114 56008 69901 76162 885//
AAXX 08064 47636 11/60 83204 10108 20075 30037 40105 56015 69951 76162 8572/
AAXX 08064 47651 11/60 82608 10108 20075 30088 40110 56015 69901 76122 8282/
AAXX 08064 47655 17/60 /2812 10108 20080 30038 40094 55010 69951 76160
AAXX 08064 47675 17/50 /0408 10105 20093 30001 40092 58011 69951 76160
AAXX 08064 47741 11/80 72705 10115 20087 30104 40131 57011 60041 72582 83332
AAXX 08064 47746 11/60 8//// 10093 2//// 30103 4//// 5//// 6///1 78082 882//
AAXX 08064 47750 11365 72502 10099 20083 30087 40115 56014 60011 78082 872//
AAXX 08064 47765 11/65 23407 10128 20057 30070 40135 56018 69951 72586 82200
AAXX 08064 47772 11/58 82405 10105 20083 30016 40116 56021 60091 72166 8277/
AAXX 08064 47800 15/66 /3310 10116 20024 30167 40172 55007 60001
AAXX 08064 47815 11/65 63306 10118 20059 30128 40144 56014 60091 70262 82271
AAXX 08064 47817 11/70 33405 10129 20074 30124 40167 55001 60011 70162 81230
AAXX 08064 47830 11/50 82803 10106 20098 30115 40133 55004 60101 76062 8252/
AAXX 08064 47887 11/65 21803 10114 20067 30095 40136 55017 60081 70162 81231
AAXX 08064 47891 11/65 72611 10107 20076 30104 40121 56022 60071 70262 82272
AAXX 08064 47895 11270 82908 10095 20066 30109 40117 58023 60081 72166 8172/
AAXX 08064 47927 11/70 70118 10229 20187 30103 40151 56013 69901 72582 8783/
AAXX 08064 47401 12/88 20211 11026 21124 30125 40140 53003 60001 82903
AAXX 08064 47412 11/65 13503 11020 21069 30097 40130 55001 69901 70281 81200
AAXX 08064 47420 17/70 /3318 11018 21077 30067 40101 55002 69901 72470
AAXX 08064 47426 15/70 /2909 10005 21125 30067 40115 55001 69901
AAXX 08064 47582 11/65 73308 10029 21034 30113 40140 55006 69901 72582 872//
AAXX 08064 47590 11/80 73505 10067 21017 30069 40123 56011 69901 70162 81872
AAXX 08064 47600 17/50 /0315 10060 20037 30131 40139 56009 60081 76166
AAXX 08064 47648 11/60 60319 10103 20074 30064 40098 56005 69951 76162 888//
AAXX 08064 47662 11/56 83503 10080 20044 30063 40108 56008 60011 76122 885//
AAXX 08064 47678 17/56 /0104 10131 20123 39911 40096 56013 60051 76166
AAXX 08064 47740 17/80 /3202 10087 20067 30098 40132 56011 60071 72386
AAXX 08064 47778 17/66 /0304 10109 20088 30017 40100 56034 60041 76166
AAXX 08064 47807 11/70 23308 10141 20033 30142 40160 55014 60031 70261 82130
AAXX 08064 47827 11/82 83311 10121 20082 30114 40152 53012 60121 70286 8127/
AAXX 08064 47843 17/66 /3409 10130 20050 30147 40179 53003 69951 70065
AAXX 08064 47893 11/65 72402 10105 20091 30111 40117 56023 60091 72166 8127/
AAXX 08064 47909 11/65 83413 10198 20148 30124 40134 53002 60041 72598 8727/
AAXX 08064 47918 11470 70214 10224 20176 30135 40152 56016 69901 72586 878//
AAXX 08064 47936 11/65 70119 10220 20182 30083 40141 55008 60031 72582 878//
AAXX 08064 47945 12/70 72316 10254 20209 30094 40118 56021 60001 878//
AAXX 08064 47971 12/80 21706 10231 20171 30122 40132 56017 60001 82200
AAXX 08064 47991 16/// /3406 10261 20209 30122 40132 55001 60001
AAXX 08064 08001 11365 81604 10133 20120 30205 40287 58012 69952 70252 885// 333 20129 32010 50054 55004 70020 924/7
AAXX 08064 67341 32580 70105 10238 20185 40116 52012 875// 333 20208 50//0 55/// 10000
AAXX 08064 67315 32580 6//// 10262 20217 40100 52016 86800 333 5///0 55115 94380 555 10000
AAXX 08064 71145 11474 12815 11162 21213 39760 40061 51001 69901 73671 81500 333 11056 21162 48028 70004 90930 555 10004 20004 32725 40201
AAXX 08064 71145 11474 12815 11162 21213 39760 40061 51001 69901 73671 81500 333 11056 21162 48028 70004 90930 555 10004 20004 32725 40201
AAXX 08060 44203 31598 70000 11283 21306 38577 40660 58005 71522 83580
AAXX 08060 44207 32999 62502 11207 21247 38451 40548 58002 80008
AAXX 08060 44212 32699 70000 11141 21161 39343 40561 58001 82530
AAXX 08060 44213 32699 70000 11160 21188 38994 40593 57002 87500
AAXX 08060 44215 32698 60000 11129 21181 38588 40542 52006 86500
AAXX 08060 44218 32998 83601 11125 21187 38792 40537 50000 8802/
AAXX 08060 44225 41997 80000 11244 21262 38437 40645 51005 71522 8802/
AAXX 08060 44230 32998 03501 11186 21227 38967 40585 58005
AAXX 08060 44232 32999 03501 11233 21267 39305 40573 57008
AAXX 08060 44237 32999 52302 11201 21242 38631 40538 51002 82040
AAXX 08060 44239 32999 31801 11165 21234 38958 40500 56003 83040
AAXX 08060 44241 32999 20902 11202 21243 39457 40538 54000 82010
AAXX 08060 44256 32999 02704 11143 21170 39514 40427 56008
AAXX 08060 44265 32999 00000 11146 21207 39015 40530 58003
AAXX 08060 44272 32998 30000 11198 21247 38374 40556 57002 80008
AAXX 08060 44275 32998 10000 11168 21202 37823 40590 58004 80001
AAXX 08060 44282 41496 73203 11137 21190 38427 40502 58001 77172 87500
AAXX 08060 44284 32999 20501 11223 21280 37957 40624 58004 80004
AAXX 08060 44285 41597 80000 11168 21199 38451 40528 58005 77172 885//
AAXX 08060 44287 32899 30803 11138 21222 38232 40514 58005 82041
AAXX 08060 44294 32998 23603 11207 21234 38695 40551 57006 80002
AAXX 08060 44298 32899 53405 11222 21221 38854 40513 58005 85040
AAXX 08060 44302 32999 12706 11217 21258 39277 4//// 56006 80001
AAXX 08060 44305 32999 02903 11195 21229 39208 40477 58009
AAXX 08060 44313 32999 50000 11202 21228 39535 40462 58007 83088
AAXX 08060 44314 41998 53405 11145 2//// 39287 40458 57015 70272 85080
AAXX 08060 44317 32998 73204 11162 21196 39082 40470 57005 83048
AAXX 08060 44336 32999 70000 11167 21201 38834 4//// 58007 80007
AAXX 08060 44341 41999 83603 11151 21189 38734 40503 58008 72272 8807/
AAXX 08060 44347 32999 73205 11147 21190 38849 40482 57011 85048
AAXX 08060 44352 32999 00000 11202 21243 39069 40496 51003
AAXX 08060 44358 32998 00000 11194 21213 39252 40512 58007
AAXX 08064 68024 31560 40000 10215 20194 48491 52009 64020 81580 333 20186
AAXX 08064 68029 32960 30304 10255 20201 48489 51010 83074 333 20220
AAXX 08064 68032 31560 71809 10240 20186 48494 52011 71722 84980 333 20226
AAXX 08064 68038 32960 89902 10241 20177 48497 52011 88080 333 20232
AAXX 08064 68040 32960 71408 10258 20158 48488 52009 87080 333 20165
AAXX 08064 68070 32960 51410 10250 20175 48496 51012 85080 333 20230
AAXX 08064 68148 42960 80000 10245 20191 48500 53012 88080 333 20196
AAXX 08064 68234 12560 70000 10210 20186 48499 52016 60084 81580 333 20195
AAXX 08064 68240 12960 63103 10243 20148 48496 52010 69904 86080 333 20220
AAXX 08064 68328 12560 52303 10218 20120 48506 52010 69914 81582 333 20208
AAXX 08064 68030 32960 51804 10276 20200 48488 51005 83074 333 20216
AAXX 08064 13601 12665 30000 10070 20041 30065 40167 54001 60002 83800 333 20068 31/// 81840
AAXX 08061 08501 32/// /1602 10153 20120 30223 40259 57007 333 20152 30013 5//// 55014 20480
AAXX 08061 08505 NIL
AAXX 08061 08509 32460 51003 10158 20135 30197 40262 57011 85800 333 20144 50012 55000 83812 83630
AAXX 08061 08512 11370 60804 10153 20149 30169 40255 57008 60032 72582 86832 333 20147 30014 5//// 55050 20780 81708 83812 91106
AAXX 08061 08515 NIL
AAXX 08061 08533 32/// /0902 10086 20079 30253 40282 57005 333 20080 30004 5//// 55082 21133
AAXX 08061 08541 32/// /1103 10055 20047 30164 40287 57006 333 20048 30004 5//// 55072 20992
AAXX 08061 08545 31107 70904 10073 20064 30214 40300 57007 74444 8760/ 333 20072 30004 50144 55040 20698 82702 86704
AAXX 08061 08548 32/// /0802 10073 20059 30088 40299 57006 333 20073 30004 5//// 55081 20988
AAXX 08061 08554 32/// /0401 10095 20070 30276 40286 57004 333 20088 30010 5//// 55085 21082
AAXX 08061 08558 NIL
AAXX 08061 08560 32/// /0304 10073 20050 39530 40302 57007 333 20072 30004 5//// 55077 20962 91106
AAXX 08061 08567 32/// /0000 10049 20043 39634 40317 57005 333 20047 30001 5//// 55061 20823
AAXX 08061 08570 12/// /1301 10035 20035 39837 40313 57002 69922 333 20030 31003 5//// 55083 20964
AAXX 08061 08575 32/// /0000 11003 21009 39487 40336 57010 333 21003 30102 5//// 55074 20870
AAXX 08061 08579 NIL
AAXX 08061 33088 11597 81903 11001 21009 39837 40030 57014 60022 70282 885// 333 21020 47004
AAXX 08061 33429 11395 82206 11006 21010 39632 40061 53005 60012 78582 883// 333 21026 47004 85707
AAXX 08061 34523 11496 83401 10034 20029 30057 40134 56002 60112 76162 8772/ 333 20034
AAXX 08061 33177 11560 81903 10010 20002 39784 40023 53007 60032 78082 889// 333 20003 43001
AAXX 08064 64500 11358 81404 10245 20233 30083 40097 69964 79596 8492/ 333 02416 20236 50091 55075 59013 84608 82920 88460 94959 95839
AAXX 08064 64501 32358 60000 10258 20241 3//// 4//// 83530 333 0//00 20255 50254 55046 5//// 83608 86360
AAXX 08064 64550 32358 8//// 10245 20235 30/// 40/// 885// 333 0//00 20240 50124 55/// 5//// 84608 88620
AAXX 08064 64551 32358 60000 10241 20234 30078 40107 83530 333 0//00 20217 50024 55/// 59010 82705 83610 86362
AAXX 08064 64560 32360 8//// 10215 20212 39566 40102 885// 333 0//00 20202 50054 55/// 59007 84608 88620
AAXX 08064 64570 31108 61601 10225 20225 39608 40116 74242 84630 333 02000 20221 50104 55/// 59018 84702 86361
AAXX 08060 67423 21580 70000 10271 20231 39501 48524 70399 8137/ 333 20243 59028 81920 87359 555 10304 7//99
AAXX 08060 67485 12580 20402 10240 20174 69904 81232 333 20187 5//// 55044 79999 81822 819// 555 10279 7//96
AAXX 08060 67791 31970 02601 10251 20141 70500 333 20164 5//// 55/// 555 10299 7//00
AAXX 08061 28676 32997 01602 11138 21162 30302 40439 52005 333 21160
AAXX 08061 28766 31996 02001 11194 21220 30226 40435 52002 71000 333 21213
AAXX 08061 28867 32998 00000 11205 21230 30144 40444 52001 333 21216
AAXX 08061 28879 31995 00000 11133 21173 30137 40447 58002 71000 333 21176
AAXX 08061 28952 32999 01601 11168 21187 30226 40436 53004 333 21186
AAXX 08061 28966 32998 80000 11168 21189 30141 40450 53007 8807/ 333 21229
AAXX 08061 29802 32997 02401 11121 21145 30286 40440 52004 333 21161
AAXX 08061 29807 32997 00000 11141 21179 30310 40438 58009 333 21186
AAXX 08061 34691 32698 81107 11039 21060 30254 40241 53009 88500 333 21051
AAXX 08061 35067 31996 60401 11182 21207 30140 40443 52005 71022 83015 333 21249
AAXX 08061 35078 31497 30202 11177 21199 30032 40446 57007 70241 83600 333 21269
AAXX 08061 35085 32998 00801 11101 21117 39930 40434 57002 333 21212
AAXX 08061 35108 NIL
AAXX 08061 35188 31997 00202 11120 21139 39955 40418 57012 70400 333 21176
AAXX 08061 35217 NIL
AAXX 08061 35229 32998 50000 11148 21162 30094 40388 52005 80001 333 21177
AAXX 08061 35302 NIL
AAXX 08061 35357 32997 00501 11134 21154 39920 40384 57009 333 21180
AAXX 08061 35394 11998 01101 11108 21156 39684 40400 57006 69900 70271 333 21143
AAXX 08061 35406 NIL
AAXX 08061 35416 32997 31302 11140 21167 30222 40352 51006 80001 333 21172
AAXX 08061 35426 32999 60902 11125 21148 30069 40380 58002 80005 333 21178
AAXX 08061 35497 32998 00502 11063 21159 39540 40366 53005 333 21097
AAXX 08061 35532 32998 00901 11104 21167 39851 40370 57003 333 21148
AAXX 08061 35671 32998 30402 11111 21152 39910 40364 57005 81041 333 21159
AAXX 08061 35700 32998 81307 11085 21113 30310 40285 52004 80005 333 21103
AAXX 08061 35746 32999 10204 11174 21200 30285 40358 54000 80001 333 21193
AAXX 08061 35796 11596 80705 11078 21109 39908 40362 58005 69900 77173 8802/ 333 21124
AAXX 08061 35849 32998 00203 11159 21193 30250 40351 57002 333 21189
AAXX 08061 35925 32998 01103 11118 21131 40338 54000 333 21157
AAXX 08061 35953 32999 20603 11118 21153 30197 40334 57010 80002 333 21174
AAXX 08061 35969 32999 60000 11112 21132 30167 40351 54000 83071 333 21175
AAXX 08061 36003 32999 31601 11156 21173 30279 40443 54000 80001 333 21190
AAXX 08061 36152 32998 01402 11172 21231 30242 40447 58006 333 21215
AAXX 08061 36177 31996 01301 11160 21188 30185 40452 58009 71000 333 21211
AAXX 08061 36208 32999 00301 11076 21129 39393 40411 57007 333 21173
AAXX 08061 36397 32999 00000 11153 21197 39845 40450 58002 333 21210
AAXX 08061 36428 32999 10000 11140 21201 39922 40457 58002 80001 333 21226 95000
AAXX 08061 36535 32999 00000 11196 21237 39786 40479 58003 333 21274
AAXX 08061 36639 32999 00901 11008 21128 39737 40349 58012 333 21229
AAXX 08061 36821 32599 80000 11037 21062 39834 40336 58007 889// 333 21090
AAXX 08061 36859 31994 81101 11064 21076 39543 40354 58008 71022 8802/ 333 21060
AAXX 08061 36864 31596 81102 11054 21072 39404 40272 57007 71022 886// 333 21066
AAXX 08061 36870 11/93 90101 11057 21068 39271 40317 57010 69900 77774 333 21073
AAXX 08061 38001 32997 80506 10007 21026 30254 40224 57006 8807/ 333 20001
AAXX 08061 38062 11596 80802 11123 21150 30159 40333 58002 69900 77772 886// 333 21131
AAXX 08061 38069 31996 81201 11078 21092 30132 40333 53001 77171 8802/ 333 21113
AAXX 08061 38196 32998 80000 11016 21089 39300 40301 53002 80002 333 21091
AAXX 08061 38198 31/93 90901 11047 21050 30062 40331 57001 74942 333 21100
AAXX 08061 38222 32598 83202 11035 21079 39749 40324 58002 885// 333 21042
AAXX 08061 38232 32998 00906 11043 21059 30184 40287 57008 333 21063
AAXX 08061 38328 31595 60000 11046 21052 39560 40316 54000 71041 85570 333 21093
AAXX 08061 38334 32998 00000 11020 21128 39313 40299 57003 333 21112
AAXX 08061 38341 31995 00000 11080 21086 39502 40326 58006 72842 333 21135
AAXX 08061 38343 31/92 90000 11094 21115 39450 40338 58001 74544 333 21102
AAXX 08061 38439 32597 80602 11012 21045 39966 40314 53006 885// 333 21041
AAXX 08061 28676 32997 01602 11138 21162 30302 40439 52005 333 21160
AAXX 08061 28766 31996 02001 11194 21220 30226 40435 52002 71000 333 21213
AAXX 08061 28867 32998 00000 11205 21230 30144 40444 52001 333 21216
AAXX 08061 28879 31995 00000 11133 21173 30137 40447 58002 71000 333 21176
AAXX 08061 28952 32999 01601 11168 21187 30226 40436 53004 333 21186
AAXX 08061 28966 32998 80000 11168 21189 30141 40450 53007 8807/ 333 21229
AAXX 08061 29802 32997 02401 11121 21145 30286 40440 52004 333 21161
AAXX 08061 29807 32997 00000 11141 21179 30310 40438 58009 333 21186
AAXX 08061 34691 32698 81107 11039 21060 30254 40241 53009 88500 333 21051
AAXX 08061 35067 31996 60401 11182 21207 30140 40443 52005 71022 83015 333 21249
AAXX 08061 35078 31497 30202 11177 21199 30032 40446 57007 70241 83600 333 21269
AAXX 08061 35085 32998 00801 11101 21117 39930 40434 57002 333 21212
AAXX 08061 35108 NIL
AAXX 08061 35188 31997 00202 11120 21139 39955 40418 57012 70400 333 21176
AAXX 08061 35217 NIL
AAXX 08061 35229 32998 50000 11148 21162 30094 40388 52005 80001 333 21177
AAXX 08061 35302 NIL
AAXX 08061 35357 32997 00501 11134 21154 39920 40384 57009 333 21180
AAXX 08061 35394 11998 01101 11108 21156 39684 40400 57006 69900 70271 333 21143
AAXX 08061 35406 NIL
AAXX 08061 35416 32997 31302 11140 21167 30222 40352 51006 80001 333 21172
AAXX 08061 35426 32999 60902 11125 21148 30069 40380 58002 80005 333 21178
AAXX 08061 35497 32998 00502 11063 21159 39540 40366 53005 333 21097
AAXX 08061 35532 32998 00901 11104 21167 39851 40370 57003 333 21148
AAXX 08061 35671 32998 30402 11111 21152 39910 40364 57005 81041 333 21159
AAXX 08061 35700 32998 81307 11085 21113 30310 40285 52004 80005 333 21103
AAXX 08061 35746 32999 10204 11174 21200 30285 40358 54000 80001 333 21193
AAXX 08061 35796 11596 80705 11078 21109 39908 40362 58005 69900 77173 8802/ 333 21124
AAXX 08061 35849 32998 00203 11159 21193 30250 40351 57002 333 21189
AAXX 08061 35925 32998 01103 11118 21131 40338 54000 333 21157
AAXX 08061 35953 32999 20603 11118 21153 30197 40334 57010 80002 333 21174
AAXX 08061 35969 32999 60000 11112 21132 30167 40351 54000 83071 333 21175
AAXX 08061 36003 32999 31601 11156 21173 30279 40443 54000 80001 333 21190
AAXX 08061 36152 32998 01402 11172 21231 30242 40447 58006 333 21215
AAXX 08061 36177 31996 01301 11160 21188 30185 40452 58009 71000 333 21211
AAXX 08061 36208 32999 00301 11076 21129 39393 40411 57007 333 21173
AAXX 08061 36397 32999 00000 11153 21197 39845 40450 58002 333 21210
AAXX 08061 36428 32999 10000 11140 21201 39922 40457 58002 80001 333 21226 95000
AAXX 08061 36535 32999 00000 11196 21237 39786 40479 58003 333 21274
AAXX 08061 36639 32999 00901 11008 21128 39737 40349 58012 333 21229
AAXX 08061 36821 32599 80000 11037 21062 39834 40336 58007 889// 333 21090
AAXX 08061 36859 31994 81101 11064 21076 39543 40354 58008 71022 8802/ 333 21060
AAXX 08061 36864 31596 81102 11054 21072 39404 40272 57007 71022 886// 333 21066
AAXX 08061 36870 11/93 90101 11057 21068 39271 40317 57010 69900 77774 333 21073
AAXX 08061 38001 32997 80506 10007 21026 30254 40224 57006 8807/ 333 20001
AAXX 08061 38062 11596 80802 11123 21150 30159 40333 58002 69900 77772 886// 333 21131
AAXX 08061 38069 31996 81201 11078 21092 30132 40333 53001 77171 8802/ 333 21113
AAXX 08061 38196 32998 80000 11016 21089 39300 40301 53002 80002 333 21091
AAXX 08061 38198 31/93 90901 11047 21050 30062 40331 57001 74942 333 21100
AAXX 08061 38222 32598 83202 11035 21079 39749 40324 58002 885// 333 21042
AAXX 08061 38232 32998 00906 11043 21059 30184 40287 57008 333 21063
AAXX 08061 38328 31595 60000 11046 21052 39560 40316 54000 71041 85570 333 21093
AAXX 08061 38334 32998 00000 11020 21128 39313 40299 57003 333 21112
AAXX 08061 38341 31995 00000 11080 21086 39502 40326 58006 72842 333 21135
AAXX 08061 38343 31/92 90000 11094 21115 39450 40338 58001 74544 333 21102
AAXX 08061 38439 32597 80602 11012 21045 39966 40314 53006 885// 333 21041
AAXX 08064 78388 112570 11606 10246 20203 30115 40124 60001 81800 333 01200 10309 20223 58000 81824
AAXX 08061 01003 16/// /0102 11002 21046 39815 49827 52009 6//// 333 21011 91113
AAXX 08061 30372 42999 50000 11244 21276 39470 40432 57025 81041
AAXX 08061 30433 41698 70000 11146 21173 39801 40438 57017 78581 87900
AAXX 08061 30554 42998 00000 11231 21264 39264 40465 57024
AAXX 08061 30635 41699 81202 11155 21189 39841 40458 58012 73673 82552
AAXX 08061 30673 42999 00000 11150 21201 39564 40382 58024
AAXX 08061 30692 42997 12304 11165 21207 39820 40349 57/// 80001
AAXX 08061 30758 41996 00000 11216 21243 39571 40475 58022 70511
AAXX 08061 30802 42799 82606 11078 21157 38836 48607 58009 83531
AAXX 08061 30823 42999 02601 11166 21208 39797 40488 58014
AAXX 08061 30879 42999 00000 11234 21266 39596 40437 57013
AAXX 08061 30935 42699 52101 11126 21169 39484 40482 58008 82541
AAXX 08061 30949 42999 00000 11147 21190 39295 40467 58014
AAXX 08061 30965 42999 02801 11188 21221 39552 40451 58016
AAXX 08061 31168 42999 72304 11122 21217 30175 40187 57008 80009
AAXX 08061 31300 42999 20000 11126 21188 30000 40306 56016 80001
AAXX 08061 31329 42999 70000 11245 21301 39586 40322 57019 80001
AAXX 08061 31369 41598 82808 11134 21169 30091 40181 57013 70232 82502 333 91111
AAXX 08061 31416 42999 51401 11177 21227 30130 40225 57018 83511
AAXX 08061 31484 42999 20000 11140 21201 39884 40239 57018 80001 31362 41596 83205 11095 21107 30142 40167 57006 78583 889//
AAXX 08061 31512 429// 03402 11111 21184 30141 40317 56019
AAXX 08061 31538 42999 02202 11169 21219 39828 40292 57007
AAXX 08061 31707 42999 03203 11127 21222 30185 40284 57015
AAXX 08061 31735 42997 02603 11170 21227 30161 40256 55003
AAXX 08061 31770 42999 83210 11095 21186 30148 40179 57007 80045 333 91014 91116
AAXX 08063 87007 32580 50505 10102 20062 36729 47124 58008 85500 333 56000 85625
AAXX 08063 87148 32970 72305 10206 20203 39998 40107 55004 87070 333 56060 87360
AAXX 08064 70133 11416 81132 11089 21106 39966 49973 57009 60011 773// 90553 333 11089 21183 91038 96038 555 90806
AAXX 08064 70174 11548 83405 11172 21194 39878 40138 56013 69901 771// 90553 333 11167 21294 4/061 96010 555 90806
AAXX 08064 70200 11220 81016 10000 20000 39903 49909 56008 60041 771// 90553 333 10000 21078 4/046 96010 555 90806
AAXX 08064 70219 11564 81518 10022 20006 39904 49962 58003 69931 761// 90553 333 10022 20000 91024 555 90806
AAXX 08064 70231 17448 80000 11056 21067 39931 40062 56007 60021 710// 90553 333 11050 21133 555 90806
AAXX 08064 70261 32766 80000 11078 21106 39931 40111 58008 90553 333 11067 21183 555 90806
AAXX 08064 70267 12966 81215 11083 21128 39645 40143 56012 69931 90553 333 11078 21167 91026 555 90806
AAXX 08064 70271 32766 81707 11061 21089 39567 40181 58026 90553 333 11061 21206 555 90806
AAXX 08064 70273 11266 83304 11039 21050 30074 40133 58015 69901 771// 90553 333 11028 21083 4/025 555 90806
AAXX 08064 70316 15766 61620 10050 20022 39948 49985 51005 69901 90553 333 10061 20044 91029 555 90806
AAXX 08064 70326 32666 21513 10044 20006 30021 40032 90554 333 10056 21010 91018 555 90806
AAXX 08064 70340 32566 81214 10044 21006 30012 40075 56008 90553 333 10050 20017 91021 555 90806
AAXX 08064 70350 12666 80000 10028 20017 30044 40084 53001 69901 90553 333 10044 20017 555 90806
AAXX 08064 70361 17420 80606 10000 21011 30239 40250 58036 60031 771// 90553 333 10000 21094 96010 555 90806
AAXX 08064 70381 32666 81010 11006 21039 30298 40309 56015 90553 333 11006 21039 555 90806
AAXX 08064 70414 37361 82615 11006 21011 30018 40056 53024 771// 90556 333 10039 21006 555 90806
AAXX 08064 87022 11358 82304 10200 20194 39594 40098 56012 60021 76166 8372/ 333 56499 83710 81620 88525
AAXX 08064 87046 11457 82705 10178 20162 39116 48499 56012 60021 75052 8462/ 333 83710 84620 88535
AAXX 08064 87047 NIL
AAXX 08064 87097 32560 51804 10199 20194 39786 40094 58020 81570 333 56440 81625 84360
AAXX 08064 87121 NIL
AAXX 08064 87129 11462 80906 10186 20175 39912 40140 57013 60341 72196 886// 333 88715
AAXX 08064 87155 31150 70000 10218 20217 30045 40105 55005 71042 82670 333 56470 82703 86360
AAXX 08064 87162 32570 22304 10217 20210 30023 40091 58007 81570 333 56670 81625
AAXX 08064 87166 NIL
AAXX 08064 87178 11270 70705 10224 20209 39945 40087 55020 60101 70296 83670 333 56300 83706 97360
AAXX 08064 87217 NIL
AAXX 08064 87222 11760 80510 10197 20173 39605 40115 58001 69981 76062 8342/ 333 83650 85556
AAXX 08064 87257 32965 71407 10210 20130 30024 40124 53003 80008 333 56006 87270
AAXX 08064 87270 32965 31405 10223 20179 30053 40114 58004 80006 333 56006 83270
AAXX 08064 87289 NIL
AAXX 08064 87311 11665 40000 10185 20134 39453 40118 58005 60021 70192 81172 333 56000 81840
AAXX 08064 87320 NIL
AAXX 08064 87328 NIL
BBXX 42067 08061 99300 70886 46/// /0509 10041 20016 40258 90540 22200 00188 10402 70012 333 91212
AAXX 08064 NIL
AAXX 08064 NIL
AAXX 08064 78388 12570 11606 10246 20203 30115 40124 60001 81800 333 01200 10309 20223 58000 81824
AAXX 08064 DUPE
AAXX 08064 NIL
AAXX 08064 NIL
AAXX 08064 NIL
AAXX 08064 82143 NIL
AAXX 08064 82599 32570 11208 10249 20213 30032 40092 81100 333 59003
AAXX 08064 82824 32470 50000 10264 20249 39971 40071 83530 333 59007
AAXX 08064 82899 32570 30906 10261 20202 30090 40102 83100 333 58007
AAXX 08064 83117 NIL
AAXX 08064 83248 32470 30507 10257 20221 30093 40115 83200 333 59007
AAXX 08064 83746 21256 71303 10238 20223 40097 57025 71096 87530 333 60021
AAXX 08064 NIL
AAXX 08064 NIL
AAXX 08064 NIL
AAXX 08064 88878 46/// /2721 10092 20063 40150 52001
AAXX 08064 88883 46/// /2815 10089 20052 40149 57003
AAXX 08064 88897 46/// /3022 10088 20054 40118 57001
AAXX 08064 82022 NIL
AAXX 08064 82193 32970 00202 10257 20245 30067 40085 333 58022
AAXX 08064 82281 32970 00308 10263 20200 30018 40079 333 58021
AAXX 08064 82332 32470 72105 10272 20242 39985 40077 84530 333 59006
AAXX 08064 82398 32570 21009 10253 20212 30057 40086 82100 333 59035
AAXX 08064 82400 NIL
AAXX 08064 82579 32970 03402 10251 20229 39994 40070 333 58018
AAXX 08064 82917 32570 13002 10263 20250 39860 40078 81100 333 59012
AAXX 08064 82965 NIL
AAXX 08064 82993 32970 03403 10205 20200 39976 40112 333 59012
AAXX 08064 83208 NIL
AAXX 08064 83349 21570 52504 10257 20225 30114 40120 70161 84830 333 58006 69921
AAXX 08064 83362 32570 53603 10246 20217 39859 40073 82130 333 59008
AAXX 08064 83378 32670 22503 10189 20156 38940 48500 82100 333 58000
AAXX 08064 83460 32570 33303 10222 20209 30064 40121 83100 333 58006
AAXX 08064 83497 NIL
AAXX 08064 83566 22970 61404 10182 20168 39195 48510 83130 333 59002 69941
AAXX 08064 83599 NIL
AAXX 08064 83612 32970 40903 10233 20197 39447 48500 57017 82330
AAXX 08064 83649 32570 70000 10233 20223 30121 40126 56014 84530
AAXX 08064 83650 NIL
AAXX 08064 83780 31960 00701 10201 20181 39212 48500 57018 71011
AAXX 08064 83827 21302 51802 10205 20204 39812 40085 51024 74696 81530 333 60021
AAXX 08064 83840 21370 80403 10184 20171 39102 48500 56013 70252 886// 333 69911
AAXX 08064 83899 21465 72803 10219 20206 30110 4//// 56012 76162 87500 333 69981
AAXX 08064 83925 NIL
AAXX 08064 83970 NIL
AAXX 08064 83971 32870 41905 10209 20183 30114 40118 58011 84030
AAXX 08064 NIL
AAXX 08064 NIL
AAXX 08064 78526 12566 20000 10244 20228 30105 40126 57013 60041 90556 333 10261 20239 555 90806
AAXX 08064 78543 35966 00803 10250 20222 30038 40120 58015 90553 555 90806
AAXX 08061 22028 32581 32204 11042 21068 39975 40014 52018 82530 333 21063 42005 91007 91111
AAXX 08061 22106 11598 70000 11060 21068 39938 40018 52012 69902 70282 87500 333 21102 47006 87631
AAXX 08061 22127 32598 83501 11080 21090 39831 40038 52017 8697/ 333 21182 47012 85639 91002
AAXX 08061 22324 12584 72303 11010 21026 30007 40057 52024 69962 87900 333 21011 47004 91005
AAXX 08061 22621 12482 70000 11036 21047 39935 40078 52019 69962 86930 333 21036 47008 85913
AAXX 08061 22831 11496 81401 11006 21010 30041 30101 52019 60062 78582 889// 333 21012 47020
AAXX 08061 22892 11497 81604 10010 20002 30040 40056 52015 69952 78082 889// 333 20007 88921
AAXX 08061 26275 11598 81502 10007 21026 30063 40094 52015 69902 70272 885// 333 20006 88622
AAXX 08061 26389 12462 81301 11010 21036 39839 40107 52005 69902 886// 333 21012 47002
AAXX 08061 26499 11497 81404 11010 21014 39894 40127 52004 69952 78582 889// 333 21010 47001 87710
AAXX 08061 26695 11396 81703 11005 21017 39813 40125 57001 69922 71072 886// 333 21013 47997 88709
AAXX 08061 26882 11459 71703 11006 21015 39839 40118 53007 60032 71022 87500 333 21011 47004 87611
AAXX 08061 26997 31958 61602 11012 21027 39912 40136 53008 71022 86030 333 21027
AAXX 08061 27595 11598 81502 11056 21063 30087 40241 52020 60080 70272 885// 333 21046
AAXX 08061 27612 31596 81702 11005 21026 39960 40156 57006 71011 885// 333 21017
AAXX 08061 27707 31558 71804 11017 21029 39842 40141 53006 71011 84570 333 21031
AAXX 08061 27719 32997 81101 11034 21045 39913 40170 53003 85031 333 21034
AAXX 08061 27786 11596 81102 11054 21061 30066 40232 52010 60100 77172 8802/ 333 21047 88523 93121
AAXX 08061 27857 12397 80501 10004 21002 30014 40179 52003 69900 886// 333 20000 88709
AAXX 08061 27906 31996 61103 11035 21043 39908 40156 53002 71022 82031 333 21035
AAXX 08061 27928 31495 81402 11028 21032 39959 40171 53001 71011 886// 333 21052
AAXX 08061 27947 32397 89902 10002 21007 30015 40177 56001 886// 333 21005 88708
AAXX 08061 27962 11295 81204 10004 21002 40188 53005 60070 75152 886// 333 20000 88704
AAXX 08061 27983 11498 81404 11069 21078 30109 40244 53005 60030 77177 886// 333 21064 88715 93402
AAXX 08061 27995 11498 81504 11086 21105 40262 52007 69900 77172 8802/ 333 21077
AAXX 08061 28506 11996 81703 11059 21078 30141 40260 52011 60050 77172 8802/ 333 21046
AAXX 08061 28704 11396 81706 11084 21099 30164 40267 52010 69900 77173 8802/ 333 21083 88508 91112
AAXX 08061 28711 31498 81707 11090 21129 39898 40294 52016 73632 86531 333 21096 86611 91012 91113
AAXX 08061 28807 11497 81403 11092 21126 30227 40281 52008 69920 70272 885// 333 21089 88611
AAXX 08061 34009 31596 31201 11027 21037 39841 40153 54000 71010 82401 333 21030
AAXX 08061 34110 31896 80602 11030 21037 39872 40158 57007 71011 333 21054
AAXX 08061 34123 31314 80501 11012 21025 39979 40167 57002 71022 886// 333 21020 88707
AAXX 08061 34152 11/93 91301 10012 20012 39962 40161 57003 60060 76164 333 20001 96047
AAXX 08061 34163 12498 81003 10002 21001 40190 58002 60060 885// 333 88620
AAXX 08061 34171 11/09 91706 10002 21004 30005 40201 53003 60180 74574 333 20001 89/02
AAXX 08061 34186 32498 81506 11086 21097 30106 40251 52008 887// 333 21071 88711 91112 93407
AAXX 08061 34247 11350 80702 10007 20004 30035 40150 57009 60020 77162 8872/ 333 20012 85709
AAXX 08061 34336 11448 80302 10016 20013 30051 40156 57004 60032 78082 883// 333 20014
AAXX 08061 34391 32997 61405 11086 21097 30218 40251 53005 84072 333 21076
AAXX 08061 35011 32999 81404 11110 21146 40325 52003 80009 333 21116
AAXX 08061 35121 32998 51002 11138 21159 30202 40360 53007 82031 333 21154
AAXX 08061 20107 41597 70108 11020 21062 39762 49855 54000 73632 86530 333 21038 91011 91114
AAXX 08061 22113 32584 71903 11046 21059 39954 40019 52014 86530 333 21062 47004 91005 91110
AAXX 08061 22217 32984 71802 11016 21021 30009 40041 52019 87030 333 21064 47011 91005
AAXX 08061 22235 32581 82402 11021 21024 39847 40043 52019 885// 333 21030 47012 88633 91003
AAXX 08061 22349 NIL
AAXX 08061 22408 32484 81903 11039 21051 39915 40067 52022 885// 333 21039 47004 88612
AAXX 08061 22602 11474 81501 11027 21030 39836 40064 52023 69922 70272 885// 333 21044 47008 88610
AAXX 08061 22619 32382 83001 11028 21041 39921 40084 52030 886// 333 21033 48008 88708
AAXX 08061 22721 32498 72301 11010 21029 39983 40085 52026 87500 333 21014 43023 87616
AAXX 08061 22802 32598 81702 10019 21000 30044 40067 52014 885// 333 21005
AAXX 08061 22820 44184 72203 11016 21027 39952 40093 52022 69992 70272 85530 333 21024 47007
AAXX 08061 26059 12997 71602 10005 21003 30037 40062 52013 69902 87070 333 20005
AAXX 08061 26063 12497 72002 10019 21003 30066 40074 52016 69902 87500 333 20010 87613
AAXX 08061 26094 12470 81502 10000 21011 30025 40102 52014 69902 885// 333 21015 47003 88618 93704
AAXX 08061 26157 32497 71703 10009 21005 30015 40065 52018 87500 333 20005 86713
AAXX 08061 26167 11462 81703 10004 21005 39965 40078 52013 69942 72287 8672/ 333 21002 46997 86710
AAXX 08061 26258 11498 81703 10005 21012 30020 40076 52017 69942 70272 8872/ 333 20003
AAXX 08061 26298 12497 81503 11007 21035 39886 40119 52013 69922 886// 333 21013 47005
AAXX 08061 26359 11583 71303 10004 21019 39944 40080 52012 69902 70272 87900 333 20001 43997
AAXX 08061 26702 31496 80901 10006 21005 39982 40008 52026 60002 77172 885// 333 21013 91001 91103
AAXX 08061 26781 11496 71702 11004 21010 39805 40101 53006 60022 71082 875// 333 21017 47002 87612
AAXX 08061 27208 12597 71603 11003 21030 39949 40128 52006 69902 87500 333 21020 43003
AAXX 08061 27402 11294 81203 11009 21016 39949 40132 52003 69932 77172 8872/ 333 21009 47997 88703
AAXX 08061 22271 11498 72406 11001 21031 30027 40037 52016 69940 70282 86330 333 21026
AAXX 08061 22520 32499 82201 11029 21060 30064 40073 52019 885// 333 21029 88617
AAXX 08061 22550 NIL
AAXX 08061 22583 31459 81902 11017 21031 30045 40126 52021 77172 875// 333 21027 87614
AAXX 08061 22768 12597 61703 11032 21049 30082 40139 52018 69900 82531 333 21011
AAXX 08061 22845 11498 82003 11017 21034 39969 40127 52016 69930 70272 875// 333 21012 86714
AAXX 08061 22887 32598 71903 11028 21051 30103 40174 52021 78582 8695/ 333 21027 86927 91106
AAXX 08061 23205 NIL
AAXX 08061 23219 12998 72306 11028 21048 30030 40137 52013 69902 87070 333 47043
AAXX 08061 23418 32670 72003 11027 21046 30084 40158 52020 87500 333 21038 87647
AAXX 08061 23606 32560 81802 11027 21050 39993 40168 52012 8555/ 333 21026 85632
AAXX 08061 23711 11598 81602 11010 21014 30019 40194 52017 60020 78582 889// 333 21006
AAXX 08061 23804 11598 72002 11030 21043 30041 40193 52020 69900 70272 87500 333 21016 87626
AAXX 08061 27037 NIL
AAXX 08061 27199 11398 82101 11008 21012 30014 40214 52020 69960 70275 8772/ 333 21010 93404
AAXX 08061 27271 31996 81402 11026 21032 30043 40203 52011 71022 8802/ 333 21052
AAXX 08061 27459 31/07 91202 11032 21039 30004 40205 52008 74511 333 21042
AAXX 08061 27730 32997 81401 11046 21059 39978 40179 52004 8803/ 333 21047 41998
BBXX 41029 08061 99328 70796 46/// /3109 1//// 90600 555 11121 22143
BBXX 44033 08061 99441 70690 46/30 /0109 10056 49969 58050 90604 22200 00088 10601 70007 333 91211 555 11109 22115
AAXX 08064 91165 12466 20513 10228 20167 30148 40183 51023 69901 90553 555 90806
AAXX 08064 91182 32566 40209 10239 20161 30167 40172 53024 90553 333 10283 20217 555 90806
AAXX 08064 91190 32666 20308 10217 20161 30161 40179 53025 90554 333 10272 20211 555 90806
AAXX 08064 91212 12466 20812 10289 20244 31342 40080 56009 69931 90554 555 90806
AAXX 08064 91285 12566 81603 10194 20178 30161 40173 51022 60061 90553 555 90806
BBXX 46111 08061 99481 71227 46/// /0205 10065 40310 50000 90600 22200 00064
BBXX 46112 08061 99481 71227 46/// /3305 10064 40311 50000 90600
BBXX C6XC2 08064 99332 11280 41498 8//23 10100 20060 40190 54000 70222 8795/ 22244 00210 20603 3//// 40804 5//// 6//// 80080 ICE /////
BBXX C6FM8 08064 99278 70800 41798 43224 10250 20207 40190 50020 7//00 84200 22273 04254 2//// 3//// 4//// 5//// 6//// 85220 ICE /////
BBXX 9HRJ9 08063 99321 70555 41798 20509 1//// 2//// 40210 54000 70200 82030 22264 04230 20302 3//// 4//// 5//// 6//// 80210 ICE 0////
BBXX 9HXC9 08064 99185 70656 41698 30515 10260 20204 40106 56003 7//11 83100 22274 04285 20603 3//// 40802 5//// 6//// 80221 ICE /////
BBXX C6FM5 08064 99098 70788 41/// 33415 10250 2024/ 40120 54/// 7//22 83740 22264 00280 20306 3//// 40306 5//// 6//// 80240 ICE /////
BBXX C6SE3 08064 99120 70693 41597 71017 10280 20268 40130 54/// 70311 87/// 22233 00305 21002 310// 41503 5//// 6//// 80271 ICE /////
BBXX WXJ63 08063 99611 71464 41/94 80505 11037 21046 40184 57/// 771// 8//// 222// 00050 2//// 3//// 4//// 5//// 6//// 8//// ICE /////
BBXX VRCQ2 08063 99319 10311 41/98 /2620 10200 20153 40160 56/// 702// 8//// 22223 0//// 2//// 3//// 4//// 5//// 6//// 80170 ICE /////
BBXX WACW 08064 99558 71418 41497 82030 10100 2006/ 40240 54000 7//55 889// 22233 00060 202// 3//// 403// 5//// 6//// 80080 ICE /////
BBXX A8TG2 08064 99321 71446 41798 60915 10200 20167 40230 51010 70355 85464 22224 20204 309// 40204 5//// 80180
BBXX WFLH 08063 99330 71200 43698 23314 10144 20083 40201 57004 7//// 82/4/ 22223 00139 20501 3//// 4//// 5//// 6//// 80111 ICE /////
AAXX 08064 78388 112570 11606 10246 20203 30115 40124 60001 81800 333 01200 10309 20223 58000 81824
AAXX 08064 78388 12570 11606 10246 20203 30115 40124 60001 81800 333 01200 10309 20223 58000 81824
AAXX 08064 DUPE
BBXX WAHK 08064 99413 70348 41798 52013 10160 2014/ 40246 57011 70222 82231 22264 00175 2//// 3//// 4//// 5//// 6//// 80150 ICE /////
BBXX SKOZ 08064 99471 70202 43/97 72228 10129 40208 57018 22253 00137 2//// 4////
BBXX A8NQ5 08063 99502 70321 41298 83420 10090 20049 40185 51015 70222 887// 22224 04091 20304 80070
BBXX VRCQ2 08063 99319 10311 41/98 /2620 10200 20153 40160 56/// 702// 8//// 22223 0//// 2//// 3//// 4//// 5//// 6//// 80170 ICE /////
BBXX 62023 08063 99514 70079 46/96 /2334 10110 2//// 40116 5//// 22200 10606 70032 333 91142 555 70057 80007
BBXX MINUK05 0806/ 99571 70021 46/// ///// 10048 49976 57054
BBXX MINFR00 0806/ 99499 70012 46/// ///// 10108 40190 57040
BBXX MINFR05 0806/ 99513 10043 46/// ///// 10043 40201 52004
BBXX MINUK01 0806/ 99599 70012 46/// ///// 10060 49951 57060
BBXX MGSG6 08063 99538 10003 41298 82325 10070 20021 40112 54000 70222 887// 22281 04134 20404 323// 40505 5//// 80050
BBXX LMEL 08061 99603 10053 43/// /1403 10013 21012 40007 5//// 222/2 04088 1//// 3//// 4//// 5////
BBXX LDGJ 08061 99674 10143 43/// /0607 10015 21045 49996 5//// 222/1 04073 1//// 3//// 4//// 5////
BBXX LF4H 08064 99596 10022 46/// /1710 10054 21008 49998 57013 8//// 22200 06087 10704 70021 333 91122
BBXX UANA 08061 99780 10338 41/97 32212 10031 49942 52003 70110 83100 22272 04041 20609
BBXX UFJN 08061 99711 10320 41/98 83108 11000 49974 54000 70022 88/// 22200 0//// 20301
BBXX UCSJ 08061 99693 10437 41697 82408 10013 40002 52030 70222 882// 22211 20302
BBXX DHEE 08063 99491 70131 41/98 22439 10135 20090 40155 56025 70122 8//// 22263 00140 2//// 80110
BBXX TFSTD 08064 99664 70234 46/// ///// 22200 10910 70052
BBXX TFKGR 08064 99657 70136 46/// ///// 22200 10706 70032
BBXX TFHFN 08064 99642 70152 46/// ///// 22200 10603 70014
BBXX TFSRT 08064 99633 70203 46/// ///// 22200 10707 70036
BBXX TFDRN 08064 99658 70212 46/// ///// 22200 10803 70017
BBXX TFBLK 08064 99657 70248 46/// ///// 22200 10909 70044
BBXX TFBKF 08064 99635 70202 46/// ///// 22200 10605 70023
BBXX TFGSK 08064 99641 70229 46/// ///// 22200 10603 70016
BBXX TFGRV 08064 99638 70225 46/// ///// 22200 10703 70017
BBXX TFGRS 08064 99663 70182 46/// ///// 22200 10705 70024
BBXX 62087 08061 99547 10068 46/// /9901 10079 20030 4//// 5//// 22230 00090
BBXX DBBA 08061 99536 10086 46/// ///// 10042 20031 40130 52045 22250 00061
BBXX DBKR 08061 99547 10127 46/// /3111 10047 20040 40071 52057 22200 00062
BBXX DBBI 08061 99536 10086 46/// /2605 10043 20043 40125 52043 22240 00061
BBXX DBBC 08061 99535 10086 46/// /2605 10047 2//// 40131 52044/ 22250 00055
BBXX NWS0020 08064 99362 10233 43/// /3112 10147 20062 40193 5//// 7//// 8//// 222// 04200 2//// 3//// 4//// 5//// 6//// 8//// ICE /////
BBXX OWFD2 08061 99336 70119 41/97 /0506 10195 20177 40270 50200 71622 8///8 22214 04190 20301 301// 41104 80183
BBXX PGRQ 08064 99371 10160 41598 12925 10171 2//// 40208 57002 70200 81500 22272 00189 20202 328// 40404
BBXX PFFH 08063 99383 10170 41/98 /2519 10168 40191 57020 7//// 8//// 22213 00171 2////
BBXX UGGA 08061 99689 10378 41/98 92410 10040 40003 52020 70222 89/// 22233 20403
BBXX PDHW 08063 99502 70243 41698 43316 10086 20031 40149 70244 839/2 22223 2//// 80060
BBXX DGWD2 08063 99487 70058 41/98 /2527 10125 20107 40200 56005 70022 8//// 22253 00130 2//// 80115
BBXX PJFF 08064 99456 70165 41/97 72408 10162 20159 40245 57015 70022 8//// 22214 20000 80160
BBXX MSTM6 08063 99363 70015 41598 29902 10190 20138 40280 56010 70200 811// 22264 06170 20100 3//// 4//// 5//// 80160
BBXX UCKG 08061 99557 10063 41/98 93005 10080 40100 52053 70222 22233 00100 20303
BBXX VVML 08063 99170 10587 41598 40109 10025 20192 40170 51025 70000 86100 22213
BBXX LGWS 08061 99290 70112 43/// /0706 10186 20129 40227 5//// 222/0 04177 1//// 3//// 4//// 5////
BBXX 9LD2206 08063 99200 70217 41996 30610 10217 20176 40151 53005 70200 83010 22251 04224 20301 305// 40602 80190
BBXX PDHP 08063 99259 10569 41998 00105 10240 40195 51016 70200 80000 22234 00261 20301 30000
BBXX NWS0029 08064 99194 70294 43/// /0612 10230 20156 40144 5//// 7//// 8//// 222// 04251 2//// 3//// 4//// 5//// 6//// 8//// ICE /////
BBXX PHPP 08064 99132 10494 41598 30616 10255 20194 40157 51018 70300 83100 22224 00280 2//02 309// 40603 80213
BBXX PHQW 08063 99051 70116 41/// /1410 10272 20233 40083 53003 7//62 8//// 22233 00279 2//// 80244 90095
BBXX ATSS 08063 99245 10619 41997 10604 10260 20199 40241 50302 70100 80001 22273 02260 44190 6410081222
BBXX A8RL3 08061 99240 30575 41098 10910 10250 40100 54000 70200 81100 22214 00260 2//04 3//// 4//05 5////
BBXX DGZR2 08063 99167 10559 41/97 10123 10235 20221 40165 52008 70222 8//// 22214 00270 20305 80225
BBXX PCIH 08063 99064 50040 41498 61108 10228 20178 40115 56005 70122 22275 20201 312// 40503 80195
BBXX DBRE 08064 99112 50240 41598 21014 10236 20192 40145 56005 70200 8147/ 22273 04265 20803 314// 41404 80206
BBXX SLKQ 08061 99172 11187 43/98 73607 10286 40073 58034 22254 00282 2////4////
BBXX OXOR2 08064 99195 11140 41297 50520 10250 20236 40128 57012 70322 84210 22284 00257 20306 303// 40608 80240
BBXX TBWUK14 08063 99129 11205 41698 40709 10290 40073 54000 70311 844// 22273 06300 20401 30000
BBXX 2ALD3 08063 99284 11427 41598 61617 10240 20198 40128 57000 70211 85263 22284 04260 20403 319// 40704 80211
BBXX AUYI 08064 99083 10824 41598 80715 10280 20250 40055 51008 70365 8412/ 22283 00300
BBXX MIBR 08063 99220 11142 41598 70410 10212 20136 40166 58003 70222 85538 22200 00211 20301 307// 40603 5//// 80168
BBXX UCJU 08061 99739 10795 41/98 91705 11105 40025 52012 70222 22200 ICE52092
BBXX DGBE 08063 99432 11520 41497 63224 10005 21018 40041 58010 77072 84870 22254 00040 20403 322// 40604 6202/ 81004
BBXX A8QR9 08061 99070 10786 41397 21831 10275 20255 40110 50/// 701// 81145 22274 20502 80260
BBXX A8IQ2 08060 99079 11094 41698 80207 10255 20234 40100 54000 75188 86540 22253 00270 20502 302// 41003 5//// 80240
BBXX DHBN 08061 99301 11267 41597 83317 10165 20108 40170 52020 70286 85720 22264 00230 20705 303// 41206 5//// 80132
BBXX PBOF 08063 99339 11256 41397 83434 10070 21005 40230 53010 70222 8/7// 22273 04150 20607 80038 90095
BBXX A8EH7 08064 99182 11295 41598 70924 10265 20236 40130 58/// 7//22 84618 22283 00280 20807 30999 41006 5//// 80245
BBXX DDSB2 08063 99138 50768 41498 51718 10195 20164 40125 58005 70222 821/4 22284 20203 318// 40203 80175
BBXX DFCX2 08063 99025 70954 41997 11410 10230 20183 40128 58005 70200 80005 22274 06236 20401
BBXX 3EPD8 08064 99159 50765 41/// /1422 10195 20165 40133 7//11 8//// 22243 04206 2//03 80177
BBXX SBLI 08061 99196 71073 43/98 80103 10234 40149 51012 22274 00269 2//// 4//// NNNN 426621110
BBXX 44255 08061 99473 70573 46/// ///// 1//// 4//// 5//// 22200 0//// 1//// 70/// 333 912//
BBXX WDD6127 08064 99330 70772 41598 42938 10150 2012/ 40130 52040 70200 842// 22263 00250 20911 322// 41011 5//// 6//// 80130 ICE /////
BBXX VQKR7 08064 99356 71228 41298 23325 10110 20090 40229 51010 70000 82050 22273 04120 20305 333// 40305 80100
BBXX A8CN8 08060 99386 71287 41/97 /0513 40265 56010 70255 8//// 22235 2//// 327// 40505 5////
BBXX WFLH 08063 99330 71200 43698 23314 10144 20083 40201 57004 7//// 82/4/ 22223 00139 20501 3//// 4//// 5//// 6//// 80111 ICE /////
BBXX VQKZ5 08063 99156 70716 41498 41005 10275 20236 40117 54000 70211 832/2 22254 02282 20200 311// 40200 5//// 80248
BBXX WACW 08064 99558 71418 41497 82030 10100 2006/ 40240 54000 7//55 889// 22233 00060 202// 3//// 403// 5//// 6//// 80080 ICE /////
BBXX 3FBC9 08064 99306 71766 41697 60816 10210 40195 51005 70222 86966 9//// 22223 00230 20303 331// 41208 5//// 6//// 80180
BBXX A8TG2 08064 99321 71446 41798 60915 10200 20167 40230 51010 70355 85464 22224 20204 309// 40204 5//// 80180
BBXX 44150 08061 99425 70640 46/// /1909 10129 40040 57044 22200 00106 10804 70018 333 91211
BBXX 44067 08061 99384 70770 46/// /0307 10059 40106 51065 90600
BBXX 41037 08061 99340 70775 46/// /3112 10128 40131 51041 90600 22200 00175 333 91214
BBXX 42364 08061 99291 70881 46/// /3510 10094 20050 40258 50004 90600
BBXX 42363 08061 99282 70892 46/// /0107 10106 20039 40264 58004 90600 333 91208
BBXX 44022 08061 99409 70737 46/// ///12 10060 20040 49962 90600 22200 00106 333 91216 555 11134 22144
BBXX 44139 08061 99442 70571 46/// /2010 10109 40121 57015 22200 00088 10704 70019 333 91211
BBXX PCBT 08063 99244 70481 41598 70715 10240 20196 40138 57005 70222 85598 22254 20401 308// 40803 80210
BBXX A8OF7 08064 99262 70639 41298 70919 10245 20155 40185 56005 70222 857// 22254 04250 2//// 309// 41404 5//// 80190
BBXX C6SE5 08064 99200 70845 41/// /0216 1//// 2//// 40160 54/// 7//// 8//// 22274 0//// 2//// 3//// 4//// 5//// 6//// 8//// ICE /////
BBXX WJBJ 08063 99251 70737 41298 31316 10260 2023/ 40147 57008 70200 83200 22234 00270 20402 309// 40605 5//// 6//// 80240 ICE /////
BBXX 9HA2064 08063 99319 71795 41797 60525 10200 20169 40210 54000 7//22 86172 22224 0//// 2//// 3//// 4//// 5//// 6//// 80180 ICE /////
BBXX OXBB2 08061 99154 70718 41698 50721 10270 20213 40090 57/// 70311 85264 22215 00280 20103 80230
BBXX WDE5381 08064 99206 71087 43/// /0410 10211 2015/ 40130 5//// 7//// 8//// 22211 0//// 2//// 3//// 4//// 5//// 6//// 80172 ICE /////
BBXX FLAO 0806/ 99764 70847 46/// ///// 11185 40158 52001
BBXX SHIP 08064 99366 71412 41598 60513 10160 20127 40281 52010 70322 85570 90555 22223 00195 2//// 3//// 4//// 80140
BBXX C6FT7 08063 99181 70636 41498 40512 10263 2023/ 40110 5//// 7//11 841// 22222 00200 2//// 3//// 4//// 5//// 6//// 80242 ICE /////
BBXX V7DI7 08064 99457 70383 41597 80515 10125 2013/ 40150 53005 76262 886// 22200 0//// 20302 311// 40603 5//// 6//// 80125 ICE /////
BBXX PDXQ 08063 99262 70910 41/// 73220 10162 20122 54000 703// 8//// 22223 04236 2//04 399// 41003 80138
BBXX C6SE3 08064 99120 70693 41597 71017 10280 20268 40130 54/// 70311 87/// 22233 00305 21002 310// 41503 5//// 6//// 80271 ICE /////
BBXX C6FM5 08064 99098 70788 41/// 33415 10250 2024/ 40120 54/// 7//22 83740 22264 00280 20306 3//// 40306 5//// 6//// 80240 ICE /////
BBXX 9HRJ9 08063 99321 70555 41798 20509 1//// 2//// 40210 54000 70200 82030 22264 04230 20302 3//// 4//// 5//// 6//// 80210 ICE 0////
BBXX CG2960 08064 99453 70800 46/// /3408 11001 21042 40093 53007 7//// 8//// 22200 0//// 2////
BBXX 9HXC9 08064 99185 70656 41698 30515 10260 20204 40106 56003 7//11 83100 22274 04285 20603 3//// 40802 5//// 6//// 80221 ICE /////
BBXX MHNO6 08063 99333 70431 41397 71117 10199 20159 40146 56003 71392 84940 22263 00217 20804 3//// 4//// 5//// 80175
BBXX C6FM8 08064 99278 70800 41798 43224 10250 20207 40190 50020 7//00 84200 22273 04254 2//// 3//// 4//// 5//// 6//// 85220 ICE /////
BBXX MZDL7 08063 99313 71190 41997 03114 10144 20071 40226 54000 70200 80000 22231 00170 20101 399// 40302 5//// 80108
BBXX VRZT9 08063 99287 70951 41698 40604 10100 2006/ 40290 51020 7//// 83488 22213 0//// 20501 305// 40501 5//// 6//// 80080 ICE /////
BBXX 41101 08064 99146 70562 46/// /1006 10265 20233 40098 57020 22200 00276 10904 70018
BBXX 44039 08061 99411 70727 46/// /3508 10103 20103 49934 90545 22200 00114 10402 70008 333 91212
BBXX 44060 08061 99413 70721 46/// ///10 10091 49918 58069 90600 22200 00122 333 91211 555 11108 22113
BBXX A8IP3 08063 99289 70568 41598 60514 10220 20178 40190 57010 70211 83479 22254 04240 20401 80192
BBXX PDNN 08063 99284 70795 41/98 /3320 10189 20141 40174 51012 70222 8//// 22262 20404 80159 90095
BBXX NWS0009 08064 99214 71580 43/// /0607 10239 20171 40167 5//// 7//// 8//// 222// 04256 2//// 3//// 4//// 5//// 6//// 8//// ICE /////
BBXX NWS0003 08064 99601 71789 43/// /3424 10013 20011 49766 5//// 7//// 8//// 222// 04026 2//// 3//// 4//// 5//// 6//// 8//// ICE /////
BBXX C6KD6 08064 99165 70670 414// 50712 10260 20231 40120 57010 70166 85470 22254 02282 20705 336// 41124 80240
BBXX DILE 08063 99184 70749 41/97 /0615 10275 20219 40110 58010 70222 8//// 22214 04280 2//// 80235
BBXX DQVG 08063 99319 71207 41/98 53220 10145 20109 40130 51010 70311 820/4 22264 20305 331// 40505 5//// 80126
BBXX DPLE 08063 99422 70657 41/93 /1810 10135 20127 40030 57020 74144 8//// 22215 00190 2//// 80130
BBXX PHDL 08063 99288 70893 41/97 /0215 10080 20033 40260 58/// 70000 8//// 22200 00225 20404 80058 90095
BBXX DEDI 08064 99236 70842 41297 82312 10230 20208 40185 53005 70322 8/72/ 22263 00267 20606 30000 80215
BBXX 46083 08061 99582 71380 46/// /1314 10019 20018 40253 58028 90550 22200 00066 10604 20604 70022 333 91217 555 11148 22158 30540 41317 60549 125139 125142 125141 124140 125138 126132 81215 90518
BBXX 41041 08061 99142 70460 46/// /1207 10266 20221 40115 58015 90550 22200 00267 10805 20603 3//// 40804 70023 333 91208 555 11073 22077 30519 41209 60549 119068 119069 124072 120077 123077 121079 81208 90453
BBXX 44022 08061 99409 70737 46/// ///12 10060 20040 49962 56012 90600 22200 00106 333 91216 555 11134 22144
BBXX 46042 08061 99368 71224 46/// /3508 10110 40210 54000 90550 22200 00118 11303 20502 332// 41301 70013 333 91210 555 11085 22090 30456 43510 60549 353081 354082 352079 352085 354087 346087
BBXX A8KX4 08064 99087 70854 41598 12407 10260 20231 40100 54000 70200 8/1// 22234 04277 20101 80240
BBXX 9HA2479 08064 99223 31664 46/// /0911 10284 20212 30040 40068 57005 22200 04271 85233
BBXX C6FS9 08064 99193 31468 46/// /0313 10289 20206 30002 40037 57018 22200 85230
BBXX VNSZ 08064 99378 31449 46/// /3311 10306 20053 30032 40057 57018 22200 04195 85162
BBXX VROC 08063 99265 31532 41298 61823 10235 20196 40088 51020 70122 867// 22283 20404 31316 41008 50506 80210
BBXX SHIP 08063 99224 31634 41798 53415 10265 20236 40064 55002 70322 83468 22274 00252 21802 80245
BBXX 9KWP 08063 99243 31079 41397 81207 10240 20194 40083 57020 75052 8673/ 22284 00230 2//// 80210
BBXX SHIP 08064 99389 31479 41298 11011 10200 20169 40106 52015 70200 81181 22214 00160 20603 306// 40503 80180
BBXX PCAM 08063 99345 31734 41998 32014 10185 20127 40164 57002 70111 80002 22233 00205 20402 30000 80150
BBXX 3ECI3 08064 99333 31744 41598 61210 10185 20132 40158 52020 70311 844/3 22253 00200 20301 321// 40903 80155
BBXX ZCBU6 08064 99389 31783 41/98 12020 10150 20094 40165 52022 70222 81//1 22214 00171 20301 317// 40502 5//// 80121
BBXX VRAE2 08063 99036 31444 41598 63109 10295 20245 40045 57028 70100 85161 22234 04310 20501 302// 40702 80260
BBXX SHIP 08064 99386 31479 41298 11011 10200 20169 40106 52015 70200 81181 22214 00160 20603 306// 40503 80180
BBXX YJZC5 08063 99263 31560 41296 81537 10240 20185 49994 51/// 76462 87726 22252 02235 20303 31712 40808 52012 80205
BBXX ZCAS2 08063 99150 31198 41598 32112 10290 20287 40039 57/// 70200 81117 22254 00304 20201 320// 40201 80288
BBXX MGRH9 08063 99339 31715 41598 61308 10180 20116 40166 52012 70211 82578 22223 00179 20101 323// 40705 5//// 80145
BBXX KAOU 08064 99037 10916 43/// /3414 10283 20236 40080 5//// 7//// 8//// 222// 04294 2//// 3//// 4//// 5//// 6//// 8//// ICE /////
BBXX A8KC6 08064 99230 51674 41598 62208 10290 20248 40140 50010 703// 8647/ 22254 04300 20602 329// 40602 5//// 80260 46379 1738081222
AAXX 08061 40716 11958 00000 11032 21069 38964 40287 51006 60001 71000 333 30112 70000
AAXX 08061 40719 11230 70000 10044 20029 30211 40200 50002 60001 71020 87600 333 30103 50091 70000 87704
AAXX 08061 40721 12960 00000 10068 21016 39668 40224 55001 60001 333 34103 5///1 70000
AAXX 08061 40858 11940 00000 10154 20047 30204 40214 52020 60001 70500 333 30007 50331 70000
AAXX 08061 40872 12962 03304 10196 20028 30193 40198 52023 60001 222// 00228 20301 333 30012 50421 70000
AAXX 08061 40877 12965 03603 10128 21107 39647 40204 52031 60001 333 30001 50371 70000
AAXX 08061 40898 12960 00000 10230 20016 30162 40171 51022 60001 222// 00251 10700 333 30015 50531 70000
AAXX 08061 40703 11958 00000 11040 21058 38949 40272 58006 60001 71000 333 34114 70000
AAXX 08061 40712 11915 42902 11018 21038 38710 40274 55002 60001 71000 80002 333 34115 70000 84068
AAXX 08061 40729 12965 01004 10010 21079 38364 40259 53003 60001 333 34113 70000
AAXX 08061 40736 12960 00000 10070 20026 30226 40199 55003 60001 333 31102 50121 70000
AAXX 08061 40739 12965 02102 10006 21044 38731 40276 52010 60001 333 31107 70000
AAXX 08061 40743 12965 00903 10032 21028 39123 40276 52009 60001 333 30105 70000
AAXX 08061 40762 12965 00000 10044 21068 38584 40253 51007 60001 333 30109 70000
AAXX 08061 40768 12960 00000 10000 21062 38290 40271 58002 60001 333 34113 70000
AAXX 08061 40769 11957 00000 11016 21074 38339 40277 51014 60001 70500 333 30110 5//// 70000
AAXX 08061 40785 12960 00000 10038 21014 39135 40264 50001 60001 333 30105 5///1 70000
AAXX 08061 40809 12962 01002 10048 21151 38544 40268 53009 60001 333 30110 70000
AAXX 08061 40821 12965 01206 10050 21092 38838 40271 51005 60001 333 30104 50261 70000
AAXX 08061 40831 12960 03003 10086 20012 30218 40227 52013 60001 333 30103 50381 70000
AAXX 08061 40706 11940 10803 11022 21073 38675 40273 56005 60001 70500 80001 333 34110 70000 81069
AAXX 08061 40718 11557 70000 10056 20051 30228 40199 50000 60001 71000 87600 222// 00074 20000 333 31004 50131 70000 87720
AAXX 08061 40732 12970 01302 10104 20070 30220 40196 51003 60001 333 30103 50091 70000
AAXX 08061 40745 11925 00000 10018 20012 39078 40262 52005 60001 71040 333 30106 70000
AAXX 08061 40754 11935 02302 10034 21019 38873 40253 52009 60001 70500 333 30102 5//// 70000
AAXX 08061 40766 12960 00000 10016 21072 38745 40276 52011 60001 333 30112 70000
AAXX 08061 40800 11940 00000 10010 21011 38504 40273 51015 60001 71000 333 34107 5///1 70000
AAXX 08061 40811 11956 00000 10100 20006 30184 40211 51010 60001 70500 333 30002 50351 70000
AAXX 08061 40841 12970 01002 10024 21115 38305 40276 51005 60001 333 30111 5//// 70000
AAXX 08061 40848 12962 00000 10072 21029 38574 40250 53009 60001 333 31106 50321 70000
AAXX 08061 40856 12970 01602 10084 21050 38678 40245 50015 60001 333 30111 5//// 70000
AAXX 08061 40875 12965 00607 10204 21153 30197 40209 52024 60001 333 30003 50451 70000
AAXX 08064 16098 11958 00000 11008 21019 30114 40168 53035 60002 71000 333 21010 34/// 55/// 2////
AAXX 08064 40100 12560 51806 10175 20084 30129 40161 58002 69924 81270 906// 333 20124 30/// 50554 55057 20859 81826 85357 92437
AAXX 08064 40101 12857 50000 10035 21003 39101 48489 50000 60004 85070 906// 333 20022 31/// 50214 55073 20908 85358
AAXX 08064 40103 32560 52012 10127 20051 40156 58604 85800 333 20099 30/// 50284 20911 82824 84640
AAXX 08064 40102 NIL
AAXX 08061 08579 32/// /36// 10069 20067 30164 40293 57006 333 20069 31008 5//// 55071 20979
AAXX 08061 08558 12/// /0702 10057 20057 39990 40294 57006 69912 333 20054 31001 5//// 55001 20747
AAXX 08061 08521 32465 79901 10185 20130 30189 40260 58004 87800 333 20184 30/// 55004 84816 84630
AAXX 08061 08524 32465 51105 10174 20140 30160 40258 57005 84830 333 20173 30016 5//// 55006 20587 82815 83630 91108
AAXX 08061 38598 42997 50908 10025 21021 40300 52002 82031
AAXX 08061 38599 31996 40705 10012 20026 39771 40300 51002 71000 80002 333 21003
AAXX 08061 38725 NIL
AAXX 08061 38734 42699 30908 11010 21115 47070 58008 81503
AAXX 08061 38744 42999 60000 11105 21168 38072 48600 51005 80002
AAXX 08061 38836 32899 60000 10061 21078 39312 40257 53006 82031 333 21060
AAXX 08061 38838 429998 30000 10016 21012 39594 40293 57004 80001
AAXX 08061 38844 42999 50203 11026 21145 48520 58013 80002
AAXX 08061 38846 42999 42102 10008 21042 38537 48510 58007 82033
AAXX 08061 38847 NIL
AAXX 08061 38932 NIL
AAXX 08061 38933 31996 60000 10020 20004 39762 40291 53014 71041 80002 333 21033
AAXX 08061 38944 32998 40000 10016 21009 39644 40191 57003 82031 333 21018
AAXX 08061 38954 32799 60000 11013 21013 37999 47540 58013 81501 333 21048
AAXX 08061 10791 01/90 92712 11051 21055 38489 48436 51022 60052 77174 333 11036 21051 48049 55000 55300 60027 70259 92912 96049 96036
AAXX 08064 91943 16/// /0907 10264 20203 30123 40125 52021 60014 333 20264 59006
AAXX 08064 91945 36/// /0902 10237 20202 30134 40139 51017 555 59018
AAXX 08064 91948 06/// /0103 10235 20200 30054 40156 51013 60001 333 55059 60007 90710 91109 555 60005 10212 59022
AAXX 08061 38598 42997 50908 10025 21021 40300 52002 82031
AAXX 08061 38599 31996 40705 10012 20026 39771 40300 51002 71000 80002 333 21003
AAXX 08061 38725 NIL
AAXX 08061 38734 42699 30908 11010 21115 47070 58008 81503
AAXX 08061 38744 42999 60000 11105 21168 38072 48600 51005 80002
AAXX 08061 38836 32899 60000 10061 21078 39312 40257 53006 82031 333 21060
AAXX 08061 38838 429998 30000 10016 21012 39594 40293 57004 80001
AAXX 08061 38844 42999 50203 11026 21145 48520 58013 80002
AAXX 08061 38846 42999 42102 10008 21042 38537 48510 58007 82033
AAXX 08061 38847 NIL
AAXX 08061 38932 NIL
AAXX 08061 38933 31996 60000 10020 20004 39762 40291 53014 71041 80002 333 21033
AAXX 08061 38944 32998 40000 10016 21009 39644 40191 57003 82031 333 21018
AAXX 08061 38954 32799 60000 11013 21013 37999 47540 58013 81501 333 21048
AAXX 08061 14258 11660 80303 10055 20026 39987 40178 52035 60032 70262 885// 333 20041 32003 70029
AAXX 08064 41257 36/// /0306 10221 20126 39705 40195 333 0E016 20171 58002
BBXX 46207 08061 99509 71299 46/// /2701 10066 40339 57005 22200 00085 11203 70013 333 91202
AAXX 08061 45032 36/// /0105 10222 20094 30157 40174 57002
AAXX 08061 45035 36/// /0008 10215 20133 30130 40172 57003
AAXX 08061 45039 36/// /0404 10224 20114 30150 40165 57004
AAXX 08061 45044 36/// /3409 10229 20136 30068 40160 57001
AAXX 08061 45032 36/// /0105 10222 20094 30157 40174 57002
AAXX 08061 45035 36/// /0008 10215 20133 30130 40172 57003
AAXX 08061 45039 36/// /0404 10224 20114 30150 40165 57004
AAXX 08061 45044 36/// /3409 10229 20136 30068 40160 57001
AAXX 08061 80402 NIL
AAXX 08061 80412 NIL
AAXX 08061 80416 NIL
AAXX 08061 80420 NIL
AAXX 08061 80425 32460 50701 10250 20242 30074 40105 8242/ 333 31/// 5699/ 58004 82613 83460 555 10106
AAXX 08061 80426 32460 81101 10206 20194 39482 40130 8351/ 333 31/// 5699/ 58012 83620 86460 555 10157
AAXX 08061 80427 32560 40202 10242 20228 39849 40099 82520 333 30/// 56990 58006 82623 555 10117
AAXX 08061 80431 NIL
AAXX 08061 80437 NIL
AAXX 08061 80440 32570 80201 10219 20216 39890 40101 8356/ 333 32/// 5699/ 58011 83620 85858 555 10110
AAXX 08061 80442 NIL
AAXX 08061 80472 NIL
AAXX 08061 80475 NIL
AAXX 08061 80476 11360 3//// 10236 20235 30083 40113 60301 70292 865// 333 32/// 569// 58013 86610
AAXX 08061 80478 NIL
AAXX 08061 80479 NIL
BBXX 46207 08061 99509 71299 46/// /2701 10066 40339 57005 22200 00085 11203 70013 333 91202
AAXX 08064 87344 32560 62705 10189 20153 39614 40152 58005 83570 333 56770 83630 83360
AAXX 08064 87349 32570 72302 10185 20160 39774 40162 50001 87500 333 56700 87620
AAXX 08064 87371 32962 30906 10206 20149 30122 40143 58005 83050 333 56060 83360
AAXX 08064 87374 32965 60000 10196 20105 30050 40136 57008 82076 333 56066 82360 85270
AAXX 08064 87395 32965 41408 10181 20092 30090 40135 58003 84070 333 56060 84360
AAXX 08064 87418 32665 30000 10202 20146 39344 40117 58003 82506 333 56505 82645
AAXX 08064 87436 NIL
AAXX 08064 87448 32965 40000 10156 20141 39596 40145 58007 83055 333 56022 83360
AAXX 08064 87453 32965 32904 10179 20136 39669 40147 54000 83070 333 56000 83360
AAXX 08064 87467 NIL
AAXX 08064 87497 NIL
AAXX 08064 87506 NIL
AAXX 08064 87509 32670 21802 10182 20113 39301 40127 58008 82500 333 56500 82640
AAXX 08064 87534 32960 00000 10165 20128 39993 40151 58003
AAXX 08064 87548 32962 02703 10184 20137 30042 40135 57009
AAXX 08064 87576 32960 01103 10196 20132 30126 40149 56004
AAXX 08064 87582 32960 00503 10233 20124 30144 40150 56003
AAXX 08064 87585 NIL
AAXX 08063 87480 32962 40000 10192 20152 30108 40137 56008 80001 333 56000 84070
AAXX 08063 87532 32965 23602 10190 20131 39982 40148 53003 82040 333 56030 57309 82360
AAXX 08061 34560 11220 81309 10013 20012 30004 40172 57005 60010 71084 886// 333 20012 41997 88703
AAXX 08061 34720 11598 80602 10042 20038 30073 40113 55003 60030 70265 8262/ 333 20035
AAXX 08061 34730 11396 80705 10029 20016 30019 40112 57008 60030 71022 8335/ 333 20026
AAXX 08061 34740 11596 81305 10028 20019 30028 40125 57008 69910 71011 885// 333 20011
AAXX 08061 34824 11596 80601 10063 20058 30092 40096 55009 60030 71022 8557/ 333 20049
AAXX 08061 34858 31494 81403 10037 20022 30038 40146 57006 71022 886// 333 20033
AAXX 08061 34866 32498 81206 10044 20034 30174 40165 57002 8567/ 333 20039
AAXX 08061 34880 11496 81004 10009 20002 30235 40209 55000 69900 71052 886// 333 20012 88711
AAXX 08061 37018 32698 81604 10140 20026 30027 40100 50006 885// 333 20126
AAXX 08061 37054 31/93 92801 11031 21033 39763 40159 57006 74542 333 21029
AAXX 08061 37472 31/93 93202 10011 20005 30171 40149 56009 74542 333 21017
AAXX 08061 22165 12598 61805 11002 21033 39960 40021 52018 69932 86500 333 21001
AAXX 08061 22676 32568 81603 11016 21027 30055 40134 52016 885// 333 21032
AAXX 08061 22954 11358 81903 11030 21043 39900 40155 53022 69900 78581 889// 333 21044 85709
AAXX 08061 23405 32980 29901 11043 21081 30041 40133 52020 82030 333 21018
AAXX 08061 23412 32599 71903 11038 21056 30042 40141 52020 87500 333 21029 87627
AAXX 08061 23803 11599 82102 11004 21013 30018 40200 53021 60020 70272 889// 333 21004 88925
AAXX 08061 27066 31597 82001 11038 21043 30016 40198 52019 71022 888// 333 21078 88632
AAXX 08061 27083 12499 82202 11021 21030 39967 40195 52017 69900 885// 333 21023
AAXX 08061 27113 11560 81602 11016 21033 39996 40144 53018 69900 72272 8553/ 333 21024 85628
AAXX 08061 27242 32471 81402 11026 21039 30049 40180 52019 8695/ 333 21020
AAXX 08061 27329 32563 81502 11028 21038 30039 40167 52008 8655/ 333 21047
AAXX 08061 27355 31496 81602 11046 21049 30044 40213 52025 71022 885// 333 21026
AAXX 08061 27373 12499 71601 11012 21019 39988 40210 52014 69940 87500 333 21014 87619
AAXX 08061 27665 31/93 90802 11004 21004 39923 40198 54000 74542 333 21002
AAXX 08061 27835 31340 81002 11023 21026 30017 40175 58004 71011 886// 333 21055 88709
AAXX 08061 28009 11498 82003 11026 21036 30007 40222 52014 60010 70283 885// 333 21020
AAXX 08061 28411 11395 81707 11061 21076 30063 40265 52009 60030 78582 883// 333 21052 88908
AAXX 08061 28418 11599 81803 11056 21103 30098 40271 53014 69990 70232 885// 333 21047 88628
AAXX 08064 81225 12970 21002 10230 20224 40097 60001 81032 333 56099 58016 81360
AAXX 08064 81200 NIL
AAXX 08064 81202 NIL
AAXX 08064 81209 NIL
AAXX 08064 81251 NIL
AAXX 08061 01392 11982 03601 11132 21145 39798 40037 52017 60002 70200 333 21133 47001 70000 91102
AAXX 08064 68006 36/// /1807 10227 20156 38905 48485 52007 333 20219 91013 555 10317 91013
AAXX 08061 22282 324// 72507 11008 21021 30025 40033 53012 84650 333 21009
AAXX 08061 22438 NIL
AAXX 08061 22471 11432 82404 11012 21022 30061 40085 52023 78582 85931 333 20000 85910
AAXX 08061 22563 12497 82003 11012 21022 30065 40104 52017 69940 885// 333 21008 88612
AAXX 08061 22641 32999 71601 11008 21020 30068 40084 52016 87050 333 21008 91104
AAXX 08061 22695 32498 82104 11039 21047 39996 40153 52017 887// 333 21035 87711
AAXX 08061 22867 32598 61602 11034 21055 30030 40146 52017 84530 333 21036 91105
AAXX 08061 22939 11597 71704 11044 21060 39972 40134 52019 69900 70272 86530 333 21043 86625
AAXX 08061 22996 11598 71901 11013 21021 30005 40198 52019 69900 70272 86570 333 21014
AAXX 08061 23324 31683 62304 11023 21048 30064 40142 52010 70232 86500 333 21014 86646
AAXX 08061 27051 32597 81702 11023 21042 30000 40170 52025 8455/ 333 21034
AAXX 08061 27225 32464 81403 11020 21041 30023 40156 52014 885// 333 21024 88618
AAXX 08061 27252 31459 82002 11031 21041 30002 40192 52019 71022 885// 333 21070 88619
AAXX 08061 27333 32880 81504 11033 21044 30013 40174 52009 8805/ 333 21044 40001
AAXX 08061 27369 32659 81602 11024 21033 30071 40212 52013 71022 885// 333 21021
AAXX 08061 27393 11497 82304 11034 21038 30057 40229 52021 60010 71073 886// 333 21034
AAXX 08061 27479 11/01 91301 10003 20003 30070 40206 52018 69900 74742 333 20001
AAXX 08061 27532 31395 61701 11043 21045 39962 40181 52005 72842 85730 333 21045
AAXX 08061 27648 31997 80000 11076 21082 30020 40196 52006 71011 8803/ 333 21066
AAXX 08061 27675 41493 81306 11002 21002 30019 40191 54000 74442 885// 333 21002 88512
AAXX 08061 27679 11598 81302 11020 21026 39975 40204 52005 60010 70242 885// 333 21010 88620
AAXX 08061 28214 11496 81703 11035 21043 30025 40243 52012 60040 78587 889// 333 21036
AAXX 08061 01199 16/// /1201 11099 21108 39537 40019 52014 6//// 333 21155 91102
BBXX 3ERR2 08064 99635 10053 41598 52316 10035 49953 57013 70222 8317/ 22200 06096 10904 70021 333 91126
BBXX LF3F 08064 99643 10078 41599 32106 10045 21031 49970 54000 70221 83500 22200 04090 10804 70021 333 91110
BBXX LF3N 08064 99653 10073 41598 51311 10052 21005 49958 57004 70282 8//// 22200 00091 10706 70030
BBXX LF4B 08064 99606 10037 47/98 /2402 10057 49996 57001 700// 22200 00060 10804 70018 333 91122
BBXX LF4C 08064 99584 10019 41599 32210 10046 20009 40016 57011 702// 89/// 22200 00077 10704 70022 333 91120
BBXX LF5T 08064 99660 10081 41698 51213 10046 21001 49967 57003 70222 85/// 22200 10705 70025 333 91126
AAXX 08064 81225 12970 21002 10230 20224 40097 60001 81032 333 56099 58016 81360
AAXX 08064 81200 NIL
AAXX 08064 81202 NIL
AAXX 08064 81209 NIL
AAXX 08064 81251 NIL
AAXX 08061 40700 11408 82402 10008 20002 30126 40218 54000 60001 74242 886// 333 30000 70000 88715
AAXX 08061 40723 11930 00000 10006 21059 38954 40277 50005 60001 70500 333 3/110 41002 5///1 70000
AAXX 08061 40726 12960 00000 11004 21058 EIYUI 40252 58005 60001 333 34113 70000
AAXX 08061 40727 12965 00000 11012 21076 38510 40277 51002 60001 333 34114 70000
AAXX 08061 40734 12970 01302 10096 20036 30225 40199 50002 60001 333 30103 50180 70000
AAXX 08061 40737 12975 00000 10060 20041 30183 50201 54000 60001 333 30106 50041 70000
AAXX 08061 40741 11540 82402 10014 20011 39945 40294 51007 60001 71021 886// 333 31102 70000 88720
AAXX 08061 40780 12968 01103 10054 21113 38721 40243 50006 60001 333 34104 5//// 70000
AAXX 08061 40791 12965 00000 10056 21062 39426 40274 52018 60001 333 30104 50131 70000
AAXX 08061 40792 12970 00000 10054 21036 38761 40251 51009 60001 333 30105 70000
AAXX 08061 40794 12960 00000 10122 201053 30118 40218 51012 60001 90545 333 31000 50361 70000
AAXX 08061 40812 12960 00000 10114 20044 39824 40205 52013 60001 333 30004 50181 70000
AAXX 08061 40829 12960 09901 10100 21107 39663 40254 51003 60001 333 30111 5//// 70000
AAXX 08061 40833 12960 01802 10116 20016 30189 40222 51014 60001 90545 333 30002 50421 70000
AAXX 08061 40835 12970 00000 10112 20022 39379 40224 52014 60001 333 30101 50401 70000
AAXX 08061 40845 12962 00304 10186 20117 30202 40207 52011 60003 90545 333 30015 50641 70000
AAXX 08061 40882 11956 01002 10240 20158 30160 40195 52020 60001 70500 333 30013 50351 70000
AAXX 08061 40889 12660 10604 10246 20133 30191 40196 52018 60003 81300 222// 00262 20500 333 30016 50251 70000 81935
AAXX 08061 40890 11558 20204 10240 20121 30177 40184 51018 60003 70500 82300 222// 00234 20301 333 30014 50660 70000 81925 81630
AAXX 08061 40893 12962 03603 10226 21021 30181 40188 52018 60001 222// 00225 20401 333 30016 50601 70000
AAXX 08061 40897 NIL
AAXX 08064 60351 12560 10000 10095 20079 40285 55001 60004 81200 333 00600 20084 81820 95990
AAXX 08064 60355 12560 62208 10122 20091 40286 53003 60004 85802 333 20120 82830 83833 95990
AAXX 08064 60445 12960 00000 10003 21010 39123 48587 55002 60004 333 05500 20000 95990
AAXX 08064 60468 12960 00000 11000 21005 39242 48589 57001 60004 333 05600 21005 95900
AAXX 08064 60507 12965 10000 10023 20020 40301 58002 60004 80002 333 00000 20022 81073 95990
AAXX 08064 60511 12960 10000 10010 20002 39157 48579 56006 60004 80002 333 05600 20005 81071 95990
AAXX 08064 60535 11970 00000 10005 20005 38940 48594 58005 60004 700// 333 05200 20000 95900
AAXX 08064 60536 12960 30000 10057 20032 39410 48584 54000 60004 80002 333 05300 20055 83073 95990
AAXX 08064 60549 NIL
AAXX 08064 60550 12960 00000 10037 20003 38766 48599 57004 60004 333 05100 20030 95990
AAXX 08064 60555 12970 00000 10052 20030 40302 55000 60004 333 00000 20050
AAXX 08064 60559 12960 00000 10060 20036 40298 53002 60004 333 20055
AAXX 08064 60581 12960 00000 10048 20034 40301 53004 60004 333 00000 20045
AAXX 08064 60602 11960 00000 10061 20040 40291 54000 60004 700// 333 0//00 20058 95990
AAXX 08064 60607 NIL
AAXX 08064 60640 12960 00000 10080 20016 40278 53005 60004 333 00600 20070
AAXX 08064 60690 NIL
AAXX 08061 40701 12660 10000 11044 21108 38613 40269 56006 60001 81500 333 30113 70000 81640
AAXX 08061 40704 12970 03006 10040 21106 38622 40215 51001 60001 333 31107 70000
AAXX 08061 40708 12960 01811 10050 21064 38672 40203 53003 60001 333 30108 70000
AAXX 08061 40710 12980 02302 11064 21102 38343 40311 58001 60001 333 34118 70000
AAXX 08061 40713 12962 10000 11006 21085 38692 40267 50001 60001 81040 333 34109 70000 81359
AAXX 08061 40731 11920 00000 10024 21027 38776 40269 53005 60001 70500 333 30108 70000
AAXX 08061 40740 12965 00602 11058 21098 38754 40287 51004 60001 333 3/115 47005 70000
AAXX 08061 40747 12960 00000 11010 21078 38680 40285 51008 60001 333 34112 70000
AAXX 08061 40757 12965 00000 10056 21022 38945 40259 51003 60001 333 31105 70000
AAXX 08061 40763 12965 00000 10042 21041 38967 40271 52011 60001 333 30/// 70000
AAXX 08061 40782 12960 00000 10032 21063 38929 40270 53013 60001 333 40783 12970 01306 11002 21105 38021 40266 51007 60001 333 30107 5///1 70000
AAXX 08061 40783 12970 01306 11002 21105 38021 40266 51007 60001 333 30107 5///1 70000
AAXX 08061 40789 12965 00000 10050 21018 39264 40267 51010 60001 333 31103 50101 70000
AAXX 08061 40798 12960 00000 11024 21109 38007 40314 52011 60001 333 30114 70000
AAXX 08061 40818 12970 00000 10010 21105 38014 40262 51006 60001 333 30109 5///1 70000
AAXX 08061 40827 12970 02503 10050 20007 38889 40298 53018 60001 333 30110 5//// 70000
AAXX 08061 40836 12970 00000 10022 21082 38239 40268 53006 60001 333 30110 5///1 70000
AAXX 08061 40851 12960 03003 10032 21050 38314 40271 51014 60001 333 30113 5//// 70000
AAXX 08061 40853 12965 00000 10052 21114 37774 40220 52016 60001 333 30109 5//// 70000
AAXX 08061 40854 12960 00000 10116 21109 39007 40232 52011 60001 333 30100 50181 70000
AAXX 08061 40857 12960 00105 10146 20077 30204 40214 52015 60001 222// 00178 20301 333 30008 50171 70000
AAXX 08061 40859 12965 00000 10088 21013 38750 40208 52013 60001 333 31106 50301 70000
AAXX 08061 40878 12965 00107 10092 21153 38883 40251 50005 60001 333 30103 5//// 70000
AAXX 08061 40879 12970 02502 10129 21131 39535 40230 50005 60001 333 30001 50461 70000
AAXX 08061 40883 11958 00806 10222 20076 30176 40199 52024 60001 70500 222// 00210 20401 333 30013 50681 70000
AAXX 08064 60360 12560 62204 10125 20117 40291 53004 60024 85830 333 00700 20113 82826 84640 95990
AAXX 08064 60390 11430 21703 10045 20041 40305 53006 60004 71000 82600 333 00100 20041 82716 95990
AAXX 08064 60402 12960 02607 10094 20080 40301 53002 60004 333 00700 20088 95990
AAXX 08064 60419 11925 00000 10016 20002 40317 55001 60004 71040 333 05000 20013 95990
AAXX 08064 60475 12958 10000 10024 20017 39335 48582 56007 60004 81030 333 05300 20015 81360 95990
AAXX 08064 60490 12950 00000 10054 20047 40283 58003 60004 333 05100 20046 95990
AAXX 08064 60525 12960 00000 10105 20062 40284 56004 60004 333 00100 20095 95900
AAXX 08064 60531 12965 30000 10050 20048 40295 53001 60004 81032 333 05100 20047 81360 83073 95990
AAXX 08064 60566 12960 00000 10071 20041 40310 55003 60004 333 00100 20066
AAXX 08064 60571 12970 20000 10040 20033 39361 48600 50005 60004 80002 333 20039 82073 95990
AAXX 08064 60580 12960 00000 10050 20038 40303 53004 60001 333 00200 20044
AAXX 08064 60590 12960 03208 10040 20015 40312 58007 60004 333 0//00 20030
AAXX 08064 60611 12960 00506 10058 21033 40301 53009 60004 333 00500 20058
AAXX 08064 60620 12958 00313 10083 21013 40269 55003 60004 333 0//00 20080
AAXX 08064 60630 12960 00717 10155 20037 40250 55000 60004 333 01200 20149
AAXX 08064 60656 12960 20608 10100 20004 40243 55000 60004 80002 333 00700 20100 82073
AAXX 08064 60670 12980 00220 10116 21041 39143 48583 53006 60004 333 00800 20104 95900
AAXX 08064 60680 12970 20716 10136 21059 38695 48568 53006 60004 80002 333 00900 20122 82073 95900
BBXX DMQN 08063 99176 70268 41598 10514 10230 20208 40135 55005 70100 81101 22214 04250 21102 3//// 4//// 5//// 80215
BBXX DHDH 08064 99212 10382 41597 53221 10242 20206 40140 53010 70311 8/440 22234 20404 80217
BBXX A8UT7 08064 99118 70181 41698 30308 10268 20199 40070 57010 70100 82549 22283 20601 304// 41003 80220
BBXX DDLK 08063 99443 70447 41/94 80119 10101 20096 40180 55000 74141 88/// 22264 20803 80098
BBXX BAREU08 08064 99103 70759 46/// ///// 40101 57014 22223
BBXX BAREU54 08064 99178 70705 46/// ///// 40115 57012 22213
BBXX BAREU04 08064 99464 70528 46/// ///// 40122 57001 22224
BBXX BATFR16 08064 99382 70352 44/97 71905 10169 40243 53002 70200 8777/ 22214 00177 21402 307// 4//// 5//// 60/// ICE 0////
BBXX FVNM 08064 99103 71087 46/// /0913 10267 20225 40123 51010 22221 00270
BBXX PHCQ 08063 99384 70540 41/98 /3405 10170 20151 40199 56008 70011 8//// 22264 04216 20502 3//// 41203 5//// 80158
BBXX 41101 08064 99146 70562 46/// /1006 10265 20233 40098 57020 22200 00276 10904 70018
BBXX BAREU11 08064 99139 50769 46/// ///// 40130 57017 22284
AAXX 08064 41170 42962 02805 10179 20096 30209 40222 333 20138 58004 555 00118
AAXX 08064 60353 11570 21806 10108 20088 40284 53008 60004 700// 82100 333 00700 20105 82820 91838 95900
AAXX 08064 60367 11560 6//// 10130 20095 40292 54000 60034 700// 86800 333 0//// 20120 83820 84640
AAXX 08064 60369 12960 00000 10166 20076 40288 53004 60004 333 20121 91827
AAXX 08064 60401 NIL
AAXX 08064 60403 11962 20000 10050 20043 40301 53004 60004 700// 82030 333 00200 20046 82360 95900
AAXX 08064 60425 12970 00807 10095 20078 40295 55000 60004 80002 333 00700 20090 81073 95990
AAXX 08064 60461 13970 01806 10120 20081 40280 56005 60004 700// 222// 20000 333 20120 91808 95990
AAXX 08064 60467 NIL
AAXX 08064 60492 11965 20000 10060 20056 40291 58003 60004 700// 80002 333 002// 20042 82073 95990
AAXX 08064 60515 11960 00000 10040 20033 40314 51002 60004 700// 333 00100 20032 95990
AAXX 08064 60517 11458 61204 10086 20069 40287 53004 60004 700// 83280 333 0//00 20085 82710 83360 95990
AAXX 08064 60522 11970 10000 10026 20018 40297 5//// 60004 700// 80001 333 05100 20026 81073 95990
AAXX 08064 60557 11965 10000 10005 21008 38958 48593 56002 60004 700// 80001 333 05400 21002 81073 95990
AAXX 08064 60563 NIL
AAXX 08064 60603 12960 00000 10053 20001 40288 56005 60004 333 0//00 20053
AAXX 08064 60638 12960 0//// 10072 21019 40280 53006 60004 333 00500 20067
AAXX 08064 60686 NIL
AAXX 08064 60395 12965 00000 10076 20072 40297 53006 60004 333 00400 20076 95990
AAXX 08064 60421 11965 00000 11005 21011 39251 48597 56004 60004 700// 333 05400 21006 95900
AAXX 08064 60423 11665 60000 10093 20078 39301 48565 58003 60004 700// 86800 333 20075 82833 85640 95990
AAXX 08064 60430 11970 20000 10080 20050 40303 56005 60004 700// 80001 333 00300 20079 82073 95990
AAXX 08064 60437 11970 00000 10088 20043 39073 48572 56004 60004 700// 333 00600 20081 95900
AAXX 08064 60444 12960 00000 10047 20032 39186 48590 56006 60004 333 00200 20031 95990
AAXX 08064 60452 12965 0//// 10110 20082 40277 56010 60004 222// 20000 333 0//00 20104 91826
AAXX 08064 60457 12962 00000 10072 20068 40281 56005 60004 333 00100 20057 95990
AAXX 08064 60514 11960 00000 10024 20009 39381 48605 53002 60004 700// 333 05200 20021 95990
AAXX 08064 60518 11960 31808 10115 20085 40264 56002 60004 700// 81032 222// 20000 333 00600 20110 81360 83073 91806 95990
AAXX 08064 60520 11960 00000 10006 21005 40293 56002 60004 700// 333 05200 20001 95990
AAXX 08064 60540 11402 60000 11006 21006 39130 48581 5//// 60004 742// 86600 333 05400 21006 86713 95990
AAXX 08064 60560 11960 00000 11006 21014 39055 48590 58017 60004 700// 333 05300 21008 95990
AAXX 08061 50844 32962 03203 11087 21228 40374 57020 333 21211
AAXX 08061 50854 32970 02902 11100 21210 40363 57015 333 21205
AAXX 08061 50968 32962 02504 11131 21200 40355 57012 333 21239
AAXX 08061 51379 32980 02501 11038 21127 40452 57008 333 05201 21170
AAXX 08061 51467 32980 71803 11042 21188 38366 57010 80002 333 05151 21109
AAXX 08061 51495 32980 01403 11007 21161 40452 52002 333 00051 21092
AAXX 08061 53480 32680 12002 11112 21193 40471 57016 81500 333 21199
AAXX 08061 53673 32961 03604 11053 21168 40430 57018 333 21095
AAXX 08061 53698 NIL
AAXX 08061 53898 32965 00403 10020 21090 40387 57020 333 21011
AAXX 08061 54308 32980 03407 11085 21219 40424 57013 333 21148
AAXX 08061 54602 32970 02202 10011 21138 40390 57017 333 21079
AAXX 08061 54725 32967 03604 11013 21112 40386 57012 333 21049
AAXX 08061 54751 11562 73411 11026 21075 40342 57006 69901 78580 874// 333 21028 91119 91534
AAXX 08061 54916 32966 03204 10019 21103 40372 57014 333 21010
AAXX 08061 57014 32980 51402 10037 21111 40361 57035 85030 333 00000 21026
AAXX 08061 57025 32772 60902 10034 21066 40391 57029 83530 333 21023
AAXX 08061 57046 32971 31801 11069 21134 38022 57015 80002 333 00100 21124
AAXX 08061 58208 32968 70204 10069 21054 40363 57020 8703/ 333 20044
BBXX BATEU07 08064 99382 31371 46/// /1218 10167 40073 58016 22223
BBXX BATFR59 08064 99178 31630 46/// /0915 10267 20242 40067 55002 22212 00284
BBXX BATFR47 08064 99247 51312 46/// /0415 10242 20202 40179 52019 22222
BBXX BATFR48 08064 99150 51454 46/// /0812 10269 20205 40129 22242 00304
AAXX 08061 14235 12460 2//// 10002 21025 39012 48461 52030 60002 82100 333 21005 31///
AAXX 08061 14246 12680 12804 10039 21024 39968 40175 51026 60002 81500 333 20005 31104
AAXX 08061 14314 12670 13002 10108 20047 30100 40165 52020 60002 81100 333 20105 30004 70000 92311 92418
AAXX 08061 14323 12680 20302 10113 20064 30126 40160 52027 60002 82500 333 20113 31009 92312 92428
AAXX 08061 14324 11370 32905 11019 21019 38380 48485 53020 60002 72844 82602 333 21022 34103 41998 70000
AAXX 08061 14328 12565 73501 10046 20033 39781 40181 53047 60002 87800 333 20046 31001
AAXX 08061 14330 12670 23301 10090 20028 39493 40155 52018 60042 82200 333 20090 32005 70041
AAXX 08061 14438 12680 41901 10137 20085 30067 40157 53011 60002 84400 222// 00165 333 20104 31000 92301
AAXX 08061 14443 32699 323// 10134 20100 30078 40169 52017 84800 333 20132 92312
AAXX 08061 14447 12684 61201 10138 20086 30139 40170 53/// 60002 86800 222// 00174 333 20096 31006 92311
AAXX 08061 14472 12670 61206 10140 20108 30101 40165 56004 60002 86200 222// 00181 333 20097 31/// 92312
AAXX 08061 08501 32/// /1602 10153 20120 30223 40259 57007 333 20152 30013 5//// 55014 20480 555 60005
AAXX 08061 08505 NIL
AAXX 08061 08506 32/// /9901 10148 20136 30189 40262 57011 333 20134 30014 5//// 55020 20524 555 60005
AAXX 08061 08509 32460 51003 10158 20135 30197 40262 57011 85800 333 20144 50012 55000 83812 83630 555 60007
AAXX 08061 08511 NIL
AAXX 08061 08512 11370 60804 10153 20149 30169 40255 57008 60032 72582 86832 333 20147 30014 5//// 55050 20780 81708 83812 91106 555 69915
AAXX 08061 08515 NIL
AAXX 08061 08521 32465 79901 10185 20130 30189 40260 58004 87800 333 20184 30/// 55004 84816 84630 555 60007
AAXX 08061 08522 32/// /9902 10178 20124 30186 40255 57003 333 20176 30016 5//// 55008 20455 91005 91108 555 60005
AAXX 08061 08524 32465 51105 10174 20140 30160 40258 57005 84830 333 20173 30016 5//// 55006 20587 82815 83630 91108 555 60005
AAXX 08061 08530 NIL
AAXX 08061 08531 32/// /0703 10115 20105 30252 40291 57008 333 20115 30009 5//// 55074 20959 91107 555 60005
AAXX 08061 08532 NIL
AAXX 08061 08533 32/// /0902 10086 20079 30253 40282 57005 333 20080 30004 5//// 55082 21133 555 60005
AAXX 08061 08534 31/01 90000 10082 20082 30274 40292 58004 333 20082 50174 55078 89/// 555 60007 90203 96647
AAXX 08061 08535 32/// /0403 10080 20073 30199 40294 57004 333 20080 30008 5//// 55077 21112 91006 91107 555 60005
AAXX 08061 08537 NIL
AAXX 08061 08540 31/01 91402 10066 20066 30223 40294 56006 74444 333 20064 50114 55082 89/01 555 60007 96644
AAXX 08061 08541 32/// /1103 10055 20047 30164 40287 57006 333 20048 30004 5//// 55072 20992 555 60005
AAXX 08061 08544 31002 72001 10046 20046 30271 40293 56007 74644 876// 333 20044 50114 55053 87701 555 60007 96646
AAXX 08061 08545 31107 70904 10073 20064 30214 40300 57007 74444 8760/ 333 20072 30004 50144 55040 20698 82702 86704 555 60005
AAXX 08061 08548 32/// /0802 10073 20059 30088 40299 57006 333 20073 30004 5//// 55081 20988 555 60005
AAXX 08061 08551 32/// /1102 10083 20076 30239 40298 57011 333 20083 30007 5//// 55/// 2//// 555 60005
AAXX 08061 08554 32/// /0401 10095 20070 30276 40286 57004 333 20088 30010 5//// 55085 21082 555 60005
AAXX 08061 08558 12/// /0702 10057 20057 39990 40294 57006 69912 333 20054 31001 5//// 55001 20747 555 69915
AAXX 08061 08560 32/// /0304 10073 20050 39530 40302 57007 333 20072 30004 5//// 55077 20962 91106 555 60005
AAXX 08061 08561 31104 40803 10070 20070 30051 40290 57006 74444 84600 333 20070 50204 55086 84701 555 60007 96644
AAXX 08061 08562 12/// /0902 10065 20061 39985 40288 57006 69912 333 20064 31005 5//// 55078 21067 555 60005
AAXX 08061 08567 32/// /0000 10049 20043 39634 40317 57005 333 20047 30001 5//// 55061 20823 555 60005
AAXX 08061 08568 32/// /3001 10080 21094 38722 48592 57007 333 20065 30101 5//// 55079 21241 555 60005
AAXX 08061 08570 12/// /1301 10035 20035 39837 40313 57002 69922 333 20030 31003 5//// 55083 20964 555 69915
AAXX 08061 08571 32/// /0000 10107 20019 39580 40288 57004 333 20070 30006 5//// 55071 20964 555 60005
AAXX 08061 08575 32/// /0000 11003 21009 39487 40336 57010 333 21003 30102 5//// 55074 20870 555 60005
AAXX 08061 08579 32/// /36// 10069 20067 30164 40293 57006 333 20069 31008 5//// 55071 20979 555 60005
AAXX 08061 60370 16/// /2501 10101 20081 69924 333 20099
AAXX 08061 60371 16/// /1802 10096 20079 69924 333 20096
AAXX 08061 60372 36/// /0000 10131 20058 333 20122
AAXX 08061 60373 NIL
AAXX 08061 60374 NIL
AAXX 08061 60376 NIL
AAXX 08061 60379 NIL
AAXX 08061 60380 NIL
AAXX 08061 60381 NIL
AAXX 08061 60393 NIL
AAXX 08061 60394 NIL
AAXX 08061 60593 NIL
AAXX 08061 60595 NIL
AAXX 08061 60605 NIL
AAXX 08061 60613 NIL
AAXX 08061 60623 NIL
AAXX 08064 60624 36/// /0000 10123 21019 333 20122
AAXX 08064 60639 NIL
AAXX 08064 60645 36/// /0000 10145 20001 333 20137
AAXX 08064 40340 31958 03606 10096 20006 40210 54000 70500 333 20085 30006
AAXX 08064 60595 36/// /0000 11451 333 21451
AAXX 08063 64800 NIL
AAXX 08063 64820 NIL
AAXX 08063 64860 32960 50000 10171 20075 39845 40116 80002 333 00500 20161 51070 55109 58002 85080
AAXX 08063 64861 NIL
AAXX 08063 64870 32960 70000 10128 20046 38912 48504 80002 333 00900 20092 50710 55112 59011 87080
AAXX 08063 64871 NIL
AAXX 08063 64892 NIL
AAXX 08063 64893 NIL
AAXX 08063 64894 NIL
AAXX 08064 64910 31420 70000 10252 20249 30099 40108 71022 87300 333 02200 20246 50351 55081 59006 87613 81916 94945 95835
AAXX 08064 64911 NIL
AAXX 08064 64950 NIL
BBXX KSDF 08064 99361 10153 41498 22913 10178 20132 40235 54000 70200 821// 22233 0//// 20202 329// 40803 5//// 6//// 80150
BBXX BAREU63 08064 99424 10098 46/// /3612 10167 29060 40193 52028 22243
BBXX TESTFR9 08064 99487 70021 46/// /2221 10107 29089 40242 57004 22235
BBXX BAREU60 08064 99436 10135 46/// ///// 40176 52028 22252
BBXX BATFR02 08064 99507 70011 46/// /2217 10102 20067 40186 58040 22274 00114
BBXX BATFR22 08064 99430 10081 46/// /2924 29066 40184 56019 22224 00149
BBXX BATFR15 08064 99494 10006 46/// /1806 10077 20052 40228 58009 22272 00099
BBXX BATFR20 08064 99415 10094 46/// /2817 10162 20087 40210 51007 22284
BBXX BATFR60 08064 99503 70005 46/// /2319 10122 20069 40198 56022 22223 00124
BBXX BATFR09 08064 99359 70057 46/// /1217 10147 20104 40283 53002 22223 00184
BBXX BATEU01 08064 99483 70268 44497 73420 10109 20094 40166 53018 70222 85341 22264 00129 21002 327// 41606 5////
BBXX BATFR21 08064 99427 10089 46/// ///// 20075 40196 53010 22232
BBXX BATFR27 08064 99458 70042 44998 32517 10137 20057 40266 53008 700// 830// 22245 00152 327// 41208 5////
BBXX BATFR24 08064 99427 10095 46/// ///// 10162 20054 40185 22213 00169
BBXX BATFR31 08064 99433 10053 46/// /3017 10127 21160 40249 53059 22212 00165
BBXX BATFR01 08064 99431 10059 46/// /2813 10134 20052 40229 53006 22200 00152
BBXX BATFR04 08064 99573 70118 44/97 22441 10087 20045 4//// 700// 8//// 22242 00110
BBXX BATFR12 08064 99484 70069 46/// /2418 10129 20085 40214 56019 22241 00144
BBXX BATEU09 08064 99429 10095 46/// /2429 10165 20072 40177 22241 00182
BBXX BATFR52 08064 99487 70021 46/// /2119 10109 20084 40226 56001 22233 00129
BBXX BATEU06 08064 99498 70107 46/// /2439 10129 20105 40142 56021 22223 00134
BBXX BATFR42 08064 99507 70020 46/// /2517 10104 20087 40176 56045 22272 00137
BBXX BATFR06 08064 99453 70015 46/// /2713 10142 20092 40283 56006 22241 00157
BBXX BATEU05 08064 99601 10014 46/// /1605 10054 21006 49986 56016 22273
BBXX BATEU08 08064 99596 70333 46/// /3334 11005 21082 40091 53008 22223
BBXX 61001 08064 99434 10078 46/// /0405 10153 20119 40178 52022 22200 00160 10804 70022
BBXX BATUK01 08064 99560 70032 46/// /1808 10047 20009 49962 58094 22200 00044
BBXX OXHY2 08064 99450 70084 41/98 62610 10144 20118 40272 56022 70222 86/// 22214 00150 20804 3//// 4//// 5//// 80129
BBXX 61002 08064 99421 10047 46/// ///22 10150 2//// 40272 54000 22200 00158 10604 70022 555 1/028
AAXX 08064 87078 NIL
AAXX 08064 87244 NIL
AAXX 08064 87393 NIL
AAXX 08064 87416 32965 30000 10198 20147 39401 40125 58003 80001 333 56007 83070
AAXX 08064 87563 NIL
AAXX 08064 87640 NIL
AAXX 08064 87688 NIL
AAXX 08064 87774 NIL
AAXX 08064 87852 NIL
AAXX 08064 87896 NIL
AAXX 08064 87593 NIL
AAXX 08064 87623 31930 01609 10174 20136 39945 40164 50003 70600
AAXX 08064 87641 NIL
AAXX 08064 87645 32965 12011 10160 20148 39949 40150 58004 81050 333 56050 81360
AAXX 08064 87648 NIL
AAXX 08064 87692 32960 10706 10158 20146 30129 40154 58008 81050 333 56060 81360
AAXX 08064 87715 NIL
AAXX 08064 87750 11360 82010 10164 20147 30094 40192 54000 69901 72095 886// 333 56399 88708
AAXX 08064 87765 NIL
AAXX 08064 87784 NIL
AAXX 08064 87791 NIL
AAXX 08064 87800 NIL
AAXX 08064 87803 NIL
AAXX 08064 87828 32980 02703 10076 20039 30180 40232 58016
AAXX 08064 87860 31975 33210 10162 20014 30121 40176 58012 70600 80006 333 56006 83270
AAXX 08064 87904 NIL
AAXX 08064 87909 NIL
AAXX 08064 87925 32980 63208 10089 20023 30152 40174 51003 81076 333 56069 81360 85270
AAXX 08064 87938 NIL
AAXX 08061 01003 11558 80102 11002 21046 39815 49827 52009 69901 77172 8351/ 333 21011 40001 91113
AAXX 08063 87016 11356 80000 10208 20203 39698 40103 58015 60051 71596 8587/ 333 81808 85615
AAXX 08063 NIL
AAXX 08064 89022 46/// /0706 11115 21152 39706 49744 57016
AAXX 08064 89062 46/// /0712 11014 21023 39702 49742 52001 333 55089
AAXX 08061 28049 32999 61906 11016 21065 30100 40268 53012 80050 333 21006
AAXX 08061 28144 32599 71903 11006 21060 30108 40268 52006 82532 333 21004
AAXX 08061 28319 11496 81803 11064 21105 30108 40279 52013 69980 77177 8802/ 333 21057
AAXX 08061 28321 11596 81504 11059 21074 30058 40270 52011 69980 78587 8633/ 333 21049
AAXX 08061 28334 32599 72203 11033 21122 39979 40291 52003 86440 333 21028
AAXX 08061 28434 32999 71203 11044 21123 30039 40305 52004 80001 333 21035
AAXX 08061 28552 32597 62302 11115 21150 30253 40373 52009 85502 333 21118
AAXX 08061 28666 32998 01803 11132 21147 30230 40418 52009 333 21153
AAXX 08061 28825 32998 71901 11080 21102 30158 40339 53003 80005 333 21086
AAXX 08061 29111 42498 82204 11037 21052 30264 40354 52003 886// 333 88710
AAXX 08061 29209 42998 22002 11102 21115 30258 40392 52006 80001
AAXX 08061 29551 42997 22402 11040 21085 30229 40417 54000 80001
AAXX 08061 29602 42999 02001 11134 21147 30280 40432 52003
AAXX 08061 29636 42999 02401 11093 21118 30209 40439 52003
AAXX 08061 29654 42699 41903 11033 21088 39800 40432 52004 82501
AAXX 08061 29712 42998 01901 11143 21163 30281 40436 52004
AAXX 08061 29724 42998 02201 11143 21156 30229 40449 52003
AAXX 08061 29726 42998 02701 11136 21156 30271 40451 54000
AAXX 08061 29814 42998 00000 11128 21141 30288 40446 58002
AAXX 08061 29827 42997 30000 11142 21155 30283 40450 52002 80005
AAXX 08061 29923 42997 20000 11139 21159 30157 40455 58005 80001
AAXX 08061 29939 42998 00701 11105 21125 30144 40444 57012
AAXX 08061 35026 32997 60000 11153 21182 39717 40407 52003 80001 333 21155
AAXX 08061 36021 42999 21701 11142 21155 30253 40447 58002 80002
AAXX 08061 36022 42998 30101 11170 21189 30166 40452 58006 80001
AAXX 08061 36038 42999 02501 11120 21155 39969 40441 58007
AAXX 08061 36058 42999 00903 11078 21123 39914 40463 58017
AAXX 08061 36064 42999 01202 11001 21065 39839 40445 58010
AAXX 08061 36229 42999 00901 11174 21184 39272 40549 58007
AAXX 08061 36259 42999 00000 11196 21229 38417 48691 52002
AAXX 08061 23914 11395 81803 11035 21039 39967 40230 51007 60070 77373 8872/ 333 21029
AAXX 08061 23921 32699 82302 11006 21054 30116 40236 52015 8457/ 333 21007
AAXX 08061 23955 41498 72106 11026 21039 30246 40309 57005 73683 85330 333 83916
AAXX 08061 23966 41996 82101 11026 21033 30180 40303 52007 77072 8807/
AAXX 08061 28138 11599 82103 11048 21058 39691 40276 52003 60010 72682 883// 333 21049
AAXX 08061 28224 11598 81903 11045 21065 30048 40268 52010 60010 72272 8657/ 333 21036
AAXX 08061 28255 32999 82302 11063 21123 30180 40314 52011 83031 333 21057
AAXX 08061 28440 32599 71602 11049 21121 39958 40320 52007 83506 333 21030
AAXX 08061 28645 32969 61802 11114 21149 30058 40372 52003 83041 333 21124
AAXX 08061 28661 32999 62105 11119 21143 30299 40398 52006 82031 333 21139
AAXX 08061 28722 32997 71804 11072 21102 30188 40325 52004 82031 333 21085
AAXX 08061 28748 32960 41802 11148 21168 30146 40407 52003 80001 333 21168
AAXX 08061 28838 11997 62401 11166 21179 39893 40412 54000 69930 70272 80005 333 21211
AAXX 08061 29231 41497 82202 11057 21061 30276 40376 54000 78582 889// 333 86711
AAXX 08061 29313 41998 32003 11084 21112 30264 40393 52005 70271 80001
AAXX 08061 29612 41998 02001 11134 21134 30270 40434 52002 70241
AAXX 08061 29638 42972 21702 11120 21133 30265 40442 52005 80001
AAXX 08061 29838 42997 00000 11113 21148 30199 40448 58006
AAXX 08061 29846 42997 00000 11039 21084 30044 40443 58007
AAXX 08061 36061 42999 00000 11089 21128 30021 40452 57012
AAXX 08061 23909 11398 82104 11019 21024 39966 40217 52014 69990 72272 8772/ 333 21014
AAXX 08061 28044 32599 72203 11011 21059 30088 40254 53008 87500 333 21010
AAXX 08061 28116 11596 81703 11038 21046 30002 40240 52012 60040 78587 889// 333 21037
AAXX 08061 28240 32598 82202 11014 21076 39955 40284 52007 84531 333 21015
AAXX 08061 28522 32998 51804 11084 21125 30035 40306 58007 82043 333 21086
AAXX 08061 28621 32998 61605 11081 21138 30060 40304 58001 85032 333 21088
AAXX 08061 29023 41297 82105 11039 21044 30243 40343 52004 77172 8872/ 333 87704
AAXX 08061 29122 41398 82204 11047 21050 30285 40360 58002 70232 886// 333 88709
AAXX 08061 29328 42398 82303 11083 21093 30262 40408 52003 886// 333 88708
AAXX 08061 29348 41496 82402 11083 21097 30256 40408 51002 78582 8697/ 333 83711
AAXX 08061 29405 42997 02302 11131 21144 30260 40417 52007
AAXX 08061 29418 42998 02203 11123 21150 30252 40423 52013
AAXX 08061 29430 42498 72101 11095 21111 30234 40419 52002 87500
AAXX 08061 29524 41498 31901 11120 21126 30252 40426 54000 70281 81502
AAXX 08061 29605 42998 02502 11104 21124 30280 40431 52006
AAXX 08061 29631 42697 61903 11131 21144 30242 40441 52007 82531
AAXX 08061 29645 42997 31301 11061 21101 30242 40436 58004 80001
AAXX 08061 29706 42998 00000 11124 21137 30282 40440 52001
AAXX 08061 29736 42997 00000 11130 21143 30187 40455 58005
AAXX 08061 29937 42997 00601 11111 21155 30209 40445 57003
AAXX 08061 36034 41998 00000 11160 21187 30151 40450 57008 71000
AAXX 08061 36096 41997 80401 11184 21210 39734 40587 58003 77177 8807/ 333 95000
AAXX 08061 34357 11497 81603 10028 20026 39996 40152 53005 60050 78082 889// 333 20030
AAXX 08061 34363 11295 81406 11000 21000 30043 40198 55000 60030 72864 886// 333 20003
AAXX 08061 34545 11396 81405 10033 20033 30030 40142 55004 60040 71062 886// 333 20032
AAXX 08061 34579 32998 71104 11003 21010 30166 40212 54001 8750/ 333 20001
AAXX 08061 34838 12997 80102 10050 21003 30005 40101 58008 69940 8807/ 333 20041
AAXX 08061 34927 32697 80000 10070 20010 30062 40099 54001 8695/ 333 20068
AAXX 08061 34949 32998 81302 11013 21029 39582 40138 57006 84031 333 21028
AAXX 08061 37001 11596 80103 10065 20056 30057 40098 52008 60020 78082 889// 333 20076
AAXX 08061 37031 12997 81102 10015 21027 39916 40113 56012 69900 8805/ 333 21001
AAXX 08061 37061 31395 81403 11001 21003 39982 40152 56002 75152 886// 333 20019
AAXX 08061 37085 32598 71204 10070 20043 30182 40209 57004 87500 333 20042
AAXX 08061 37107 32799 70101 10045 20012 39455 40131 57007 87500 333 20036
AAXX 08061 37126 32999 81602 10013 21155 37896 48456 57002 86031 333 21014 49004
AAXX 08061 37171 32798 80901 10097 20040 30097 40115 53008 8297/ 333 20080
AAXX 08061 37228 32999 70000 10055 21068 39298 40126 57014 80004 333 20007
AAXX 08061 37470 32998 03101 10081 20034 30165 40142 56016 333 20021
AAXX 08061 37663 32999 03004 10089 21114 38973 48461 57007 333 21004
AAXX 08064 71737 16/// /2901 11075 21086 39532 40055 58017 60001 333 11001 21076 70003
AAXX 08064 71743 16/// /2011 11097 21120 39752 49969 58002 60001 333 11091 21167 70000 555 31935 40163
AAXX 08064 71747 47/// /2401 11129 21151 39634 40118 6///1 7//4/ 333 11002 21129 7////
AAXX 08064 71748 17/// /2707 11113 21158 39841 40136 57001 69941 7//4/ 333 11019 21115 70004 555 32824 40201
AAXX 08064 71833 46/// /2406 11014 21040 6///1 333 11003 21040 7////
AAXX 08064 71766 16/// /2903 10019 21016 30246 40319 58003 60001 333 10059 20003 70000
AAXX 08064 71268 43/// ///// 333 11007 21100 79999 555 19999 29999
AAXX 08064 71269 16/// /2711 11172 21205 60001 333 11020 21182 70005 555 30024 40191
AAXX 08064 71285 46/// /3005 11163 21196 6///1 333 11063 21163 7//// 555 33226 40201
AAXX 08064 71503 46/// /3108 11293 21326 30017 40308 56013 6///1 333 11206 21305 7//// 555 32822 40131
AAXX 08064 71506 46/// /2603 11141 21199 39262 40176 56030 6///1 333 11123 21233 7////
AAXX 08064 71514 16/// /3016 11123 21174 39515 40236 53003 60001 333 11044 21123 70000 555 33037 40043
AAXX 08064 71539 16/// /3014 11117 21167 39538 40256 51005 60001 333 11022 21118 70000 555 33234 40213
AAXX 08064 71550 16/// /2910 11123 21195 39781 40166 53006 60001 333 11051 21127 70000 555 32733 40222
AAXX 08064 71576 16/// /0727 11188 21232 39972 40059 58005 60001 333 11167 21255 70000 555 10050 30543 40233
AAXX 08064 71581 16/// /2601 11030 21043 39590 40073 58004 60001 333 11019 70000
AAXX 08064 71156 16/// /2803 11231 21250 39171 40327 58013 60001 333 11057 21234 70000
AAXX 08064 71186 46/// /0804 10000 21019 6///1 333 10001 21032 7//// 555 30927 40141
AAXX 08064 71190 46/// /2907 10004 21005 6///1 333 10007 21036 7////
AAXX 08064 71026 16/// /2305 11186 21219 39428 40322 58004 60001 333 7//// 555 10030
AAXX 08064 71228 16/// /2910 11166 21204 60001 333 11034 21166 7////
AAXX 08064 71309 17/// /1803 11107 21125 30042 40054 58017 69931 7//4/ 333 11041 21165 70010 555 10010 20010 31717 40111
AAXX 08064 71320 16/// /0918 11078 21088 39837 49841 52008 60001 333 11073 21118 70006 555 31045 40073
AAXX 08064 71340 16/// /2806 11171 21203 60001 333 11049 21171 70000 555 33026 40101
AAXX 08064 71341 16/// /2202 11104 21124 60001 333 11024 21108 70005 555 30120 40191
AAXX 08064 71342 16/// /3011 11148 21192 60001 333 11022 21148 70009 555 33329 40202
AAXX 08064 71344 16/// /3015 11145 21201 60001 333 11042 21146 70015 555 33325 40221
AAXX 08064 71347 16/// /1203 11184 21205 60001 333 11069 21206 70000 555 33018 40091
AAXX 08064 71348 16/// /0703 11201 21221 60001 333 11063 21216 7////
AAXX 08064 71349 16/// ///// 11162 21238 60001 333 11078 21162 7////
AAXX 08064 71423 16/// /0816 10021 20011 30073 40082 58023 60001 333 10023 21031 70008 555 30628 40122
AAXX 08064 71448 17/// /2604 11113 21138 39791 40128 57002 69931 7//4/ 333 11026 21115 70003 555 33423 40071
AAXX 08064 71638 16/// /3104 10021 20010 30205 40313 53001 60001 333 10058 20006 70000
AAXX 08064 61970 16/// ///// 10295 20220 40103 60004 333 20247 55/// 59013 555 60005
AAXX 08064 61972 16/// /3508 10270 20224 40096 60024 333 20225 55/// 59011 90710 91113 555 60005
AAXX 08064 71363 17/// /0334 11138 21152 39846 49900 52031 60071 7//4/ 333 11113 21197 70469 555 30454 40203
AAXX 08064 71374 46/// /0818 10006 21017 6///1 333 10006 21102 7//// 555 30432 40182
AAXX 08064 71387 17/// /0501 11024 21026 39659 40033 56023 69981 7//4/ 333 11011 21073 70000
AAXX 08064 71976 46/// /1814 11159 21176 39306 49934 51006 6///1 333 11111 21180 7//// 555 31742 40133
AAXX 08064 71707 11132 80804 10058 20050 39989 40065 58025 60021 76152 886// 333 10059 20044 70146 90936 555 10000 20000
AAXX 08064 71682 16/// /0000 11294 21318 30064 40311 58009 60001 333 11150 21294 70000
AAXX 08064 71696 16/// /2725 11162 21189 39816 49853 56017 60001 333 11150 21200 70000 555 32836 40053
AAXX 08064 71107 16/// /1904 10044 20027 30226 40341 56004 60001 333 10064 20025 70000
AAXX 08064 71421 16/// ///// 11094 21103 39405 40134 58026 60001 333 11094 21250 7////
AAXX 08064 71435 16/// /2606 11117 21173 39497 40100 51007 60001 333 11036 21118 70000 555 10020 32521 40181
AAXX 08064 13601 12665 30000 10070 20041 30065 40167 54001 60002 83800 333 20068 31/// 81840
AAXX 08064 61401 NIL
AAXX 08064 61404 NIL
AAXX 08064 61415 31956 63607 10182 20095 30151 40156 70622 86070 333 20181 50554 55025 59002 86463
AAXX 08064 61421 NIL
AAXX 08064 61437 NIL
AAXX 08064 61442 32958 50606 10184 21031 30132 40136 80002 333 01700 20181 50534 55054 59004 85073
AAXX 08064 61450 NIL
AAXX 08064 61461 NIL
AAXX 08064 61489 NIL
AAXX 08064 61492 NIL
AAXX 08064 61497 NIL
AAXX 08064 61498 31956 00405 10170 20128 30000 40133 705// 333 0//00 20170 5//// 55/// 59002
AAXX 08064 61499 32958 03606 10166 21024 39880 40136 333 0//00 20160 50854 55/// 58006
AAXX 08064 61510 NIL
AAXX 08063 91802 NIL
AAXX 08063 91809 NIL
AAXX 08063 91831 36/// /1007 10250 20211 40159 52005
AAXX 08063 91841 36/// /1304 10245 20210 4//// 5////
AAXX 08063 91848 36/// /1304 10242 20227 40156 57036
AAXX 08063 91843 31499 21203 10251 20228 40145 53011 60001 70100 82100 333 563// 82817
AAXX 08064 65201 31450 73404 10236 20232 30067 40122 71022 82508 333 20225 56500 57632 59001 82608 87280 91106 94463
AAXX 08064 40250 32960 00000 10028 21176 39391 40200 54002 333 21020 301//
AAXX 08064 40260 32960 5000 10040 21148 39405 40204 54001 80002 333 2//// 3//// 85070
AAXX 08064 40265 31957 00000 10024 21120 39409 40229 52004 70500 333 21015 30106
AAXX 08064 40296 32960 00000 10104 20035 40205 54002 333 20075 30005
AAXX 08061 13463 12565 72901 10067 20060 30128 40189 53001 69962 85820 333 20061 32002 55047
AAXX 08061 13459 32670 82001 10030 20030 39425 40201 58005 8487/ 333 20017 32000 55063 84696 88498
AAXX 08061 13461 32670 60503 10103 20071 30175 40183 57002 85830 333 20086 31006 55056 83834 92322 92428 92515
AAXX 08061 13363 31/02 93602 11042 21042 39238 48439 57003 74544 333 21046 3/107 43010 55000
AAXX 08064 60467 11970 00000 10029 20024 40313 54004 60004 700// 333 05000 20027 95990
AAXX 08064 71707 11132 80804 10058 20050 39989 40065 58025 60021 76152 886// 333 10059 20044 70146 90936 555 10000 20000
AAXX 08064 71421 16/// ///// 11094 21103 39405 40134 58026 60001 333 11094 21250 7////
AAXX 08064 71435 16/// /2606 11117 21173 39497 40100 51007 60001 333 11036 21118 70000 555 10020 32521 40181
AAXX 08064 71026 16/// /2305 11186 21219 39428 40322 58004 60001 333 7//// 555 10030
AAXX 08064 71423 16/// /0816 10021 20011 30073 40082 58023 60001 333 10023 21031 70008 555 30628 40122
AAXX 08064 71448 17/// /2604 11113 21138 39791 40128 57002 69931 7//4/ 333 11026 21115 70003 555 33423 40071
AAXX 08064 71309 17/// /1803 11107 21125 30042 40054 58017 69931 7//4/ 333 11041 21165 70010 555 10010 20010 31717 40111
AAXX 08064 71320 16/// /0918 11078 21088 39837 49841 52008 60001 333 11073 21118 70006 555 31045 40073
AAXX 08064 71340 16/// /2806 11171 21203 60001 333 11049 21171 70000 555 33026 40101
AAXX 08064 71341 16/// /2202 11104 21124 60001 333 11024 21108 70005 555 30120 40191
AAXX 08064 71342 16/// /3011 11148 21192 60001 333 11022 21148 70009 555 33329 40202
AAXX 08064 71344 16/// /3015 11145 21201 60001 333 11042 21146 70015 555 33325 40221
AAXX 08064 71347 16/// /1203 11184 21205 60001 333 11069 21206 70000 555 33018 40091
AAXX 08064 71348 16/// /0703 11201 21221 60001 333 11063 21216 7////
AAXX 08064 71349 16/// ///// 11162 21238 60001 333 11078 21162 7////
AAXX 08064 71363 17/// /0334 11138 21152 39846 49900 52031 60071 7//4/ 333 11113 21197 70469 555 30454 40203
AAXX 08064 71374 46/// /0818 10006 21017 6///1 333 10006 21102 7//// 555 30432 40182
AAXX 08064 71387 17/// /0501 11024 21026 39659 40033 56023 69981 7//4/ 333 11011 21073 70000
AAXX 08064 71107 16/// /1904 10044 20027 30226 40341 56004 60001 333 10064 20025 70000
AAXX 08061 48826 12560 83603 10170 20151 30045 40183 58022 60033 888// 333 58023 82895 88697 555 20161
AAXX 08061 48839 32497 80216 10172 20135 30109 40176 57023 888// 222// 00210 2//06 333 58033 82894 88696 91122 91502 555 20171
AAXX 08064 71682 16/// /0000 11294 21318 30064 40311 58009 60001 333 11150 21294 70000
AAXX 08064 71696 16/// /2725 11162 21189 39816 49853 56017 60001 333 11150 21200 70000 555 32836 40053
AAXX 08064 71638 16/// /3104 10021 20010 30205 40313 53001 60001 333 10058 20006 70000
AAXX 08064 71976 46/// /1814 11159 21176 39306 49934 51006 6///1 333 11111 21180 7//// 555 31742 40133
AAXX 08061 48808 12470 73203 10193 20106 39926 40212 57029 69903 878// 333 58035 83894 87696
AAXX 08061 48830 01470 80502 10146 20109 39897 40212 57026 60023 70262 8412/ 333 58035 69941 84894 88499 555 20130
AAXX 08064 71228 16/// /2910 11166 21204 60001 333 11034 21166 7////
AAXX 08061 23226 11960 82008 11035 21075 39913 40132 52012 69920 70372 8805/ 333 21022
AAXX 08061 23701 32999 81801 11064 21076 30042 40176 52017 8805/ 333 21059
AAXX 08061 28909 32997 71606 11100 21144 30196 40302 58002 80001 333 21099
AAXX 08063 64800 NIL
AAXX 08063 64820 NIL
AAXX 08063 64860 32960 50000 10171 20075 39845 40116 80002 333 00500 20161 51070 55109 58002 85080
AAXX 08063 64861 NIL
AAXX 08063 64870 32960 70000 10128 20046 38912 48504 80002 333 00900 20092 50710 55112 59011 87080
AAXX 08063 64871 NIL
AAXX 08063 64892 NIL
AAXX 08063 64893 NIL
AAXX 08063 64894 NIL
AAXX 08063 64910 31420 70000 10252 20249 30099 40108 71022 87300 333 02200 20246 50351 55081 59006 87613 81916 94945 95835
AAXX 08063 64911 NIL
AAXX 08063 64950 NIL
AAXX 08061 48808 12470 73203 10193 20106 39926 40212 57029 69903 878// 333 58035 83894 87696
AAXX 08061 48830 01470 80502 10146 20109 39897 40212 57026 60023 70262 8412/ 333 58035 69941 84894 88499 555 20130
BBXX VOXS 08064 99467 70480 41496 81821 10041 2004/ 40152 56016 76162 885// 22200 04027 20402 317// 40803 80040
BBXX VCXF 08064 99464 70484 41597 81928 10051 2005/ 40149 57015 76162 885// 22200 02040 20402 316// 40803 80051
BBXX 46249 08061 99338 71197 46/// ///// 1//// 90615 22200 00146 11402 20501 323// 41401 70008
BBXX 46248 08061 99461 71247 46/// ///// 1//// 90604 22200 00084 10803 20803 328// 41202 70017
BBXX 46244 08061 99409 71244 46/// ///// 1//// 90605 22200 00097 11203 20802 331// 41202 70015
BBXX VCXF 08064 99464 70484 41597 81928 10051 2005/ 40149 57015 76162 885// 22200 02040 20402 316// 40803 80051
BBXX VOXS 08064 99467 70480 41496 81821 10041 2004/ 40152 56016 76162 885// 22200 04027 20402 317// 40803 80040
BBXX 46241 08061 99330 71173 46/// ///// 1//// 90541 22200 00145 11301 20901 326// 41301 70004
AAXX 08061 28216 11597 81603 11054 21072 39960 40251 52012 60020 77377 8872/ 333 21047
AAXX 08061 28428 31998 51906 11073 21126 30105 40299 52001 70232 80001 333 21073
AAXX 08061 28451 32998 32702 11099 21146 30172 40340 52010 80001 333 21094
AAXX 08061 28541 32984 70000 11064 21140 39820 40332 52006 80001 333 21067
AAXX 08061 28655 32998 42104 11137 21164 30146 40386 52005 80002 333 21141
AAXX 08061 28756 32998 21903 11147 21163 30261 40422 52003 80001 333 21164
AAXX 08061 29557 42998 62604 10002 21087 30136 40407 52005 82031
AAXX 08061 29625 42998 02401 11130 21143 30247 40438 52004
AAXX 08061 29813 42999 01901 11132 21145 30239 40433 52003
AAXX 08061 29822 41996 51602 11142 21155 30275 40452 54000 71011 85070
AAXX 08061 29915 42998 01501 11126 21139 30270 40439 53003
AAXX 08061 36020 42998 52101 11135 21148 30235 40450 58001 80002
AAXX 08064 71574 11624 80305 10001 21001 39984 40057 57038 60021 77172 8802/ 333 10003 21019 43013 70092 90947 93102 555 10108 20092
AAXX 08064 40153 11658 62211 10079 20034 39104 48498 52005 60002 70522 82480 333 20066 70000
AAXX 08064 40179 12660 41711 10139 20107 30149 40187 52002 60002 84800 333 20083 50131 70000
AAXX 08064 40180 11557 51609 10138 20099 30143 40192 51004 60002 71021 85100 333 20089 70000
AAXX 08064 40190 16/// ///// 10107 20096 39866 40203 52008 60002 333 20059 70000
AAXX 08064 40199 12970 00703 10104 21001 30184 40207 52016 60002 222// 00228 333 20080 50941 55093 70000
AAXX 08064 41263 36/// /2802 10193 20110 39507 40200 333 0E014 20139 59001
BBXX 41115 08061 99184 70673 46/// ///// 1//// 90605 22200 11004 21003 300// 41102 70018
BBXX 41114 08061 99276 70802 46/// ///// 1//// 90616 22200 00242 11003 21003 306// 41101 70014
BBXX 46223 08061 99335 71178 46/// ///// 1//// 90600 22200 00155 11301 20401 318// 41301 70005
BBXX 46231 08061 99327 71174 46/// ///// 1//// 90554 22200 00157 11301 21001 322// 41301 70005
BBXX 46222 08061 99336 71183 46/// ///// 1//// 90556 22200 00156 10401 20401 70006
AAXX 08064 04203 46/// /1109 11152 21213 30167 40185 52003
AAXX 08064 04205 45/84 /3601 11216 21312 30175 40199 52005 333 11210 21250
AAXX 08064 04208 46/// /0920 11143 21212 30108 40155 52005
AAXX 08064 04213 46/// /1420 11140 21212 30048 40164 52010 333 11133 21143
AAXX 08064 04214 46/// /2406 11070 21191 30102 40135 52010
AAXX 08064 04224 45884 81411 11072 21126 30110 40144 52011 333 11071 21103 88/56
AAXX 08064 04228 NIL
AAXX 08064 04242 46/// /1524 11047 21079 30141 40158 52008
AAXX 08064 04253 46/// /1017 11070 21151 30163 40190 52002
AAXX 08064 04266 46/// /3108 11036 21108 30156 40195 52009
AAXX 08064 04285 46/// /3212 11046 21118 30167 40186 52010
AAXX 08064 04301 46/// /2508 11198 21254 30159 40164 52008
AAXX 08064 04313 46/// /3629 11177 21220 30096 40108 52008
AAXX 08064 04330 46/// /3206 11260 21336 30124 40142 52003
AAXX 08064 04351 46/// /2803 11157 21275 30090 40107 52014
AAXX 08064 04373 NIL
AAXX 08064 04382 46/// /2703 11063 21168 30112 40162 52012
AAXX 08064 04416 46/// ///// 29078 36562 52010
AAXX 08061 60381 16/// /2301 10069 20061 69924 333 20068
AAXX 08061 60639 36/// /0808 10072 21033 333 20072
AAXX 08061 60605 36/// /0000 10102 20005 333 20101
BBXX 46216 08061 99343 71198 46/// ///// 1//// 90557 22200 00146 11201 20501 70005
BBXX 46240 08061 99366 71219 46/// ///// 1//// 90612 22200 00115 11101 20501 335// 41101 70007
BBXX 46237 08061 99378 71226 46/// ///// 1//// 90610 22200 00114 11302 21001 325// 41301 70008
BBXX 46212 08061 99408 71243 46/// ///// 1//// 90612 22200 00094 11303 21002 329// 41302 70013
BBXX 46217 08061 99342 71194 46/// ///// 1//// 90612 22200 00147 11201 20801 327// 41201 70006
BBXX 46211 08061 99469 71242 46/// ///// 1//// 90606 22200 00086 10803 20803 328// 41101 70015
AAXX 08061 56146 32780 11602 10068 21129 36714 57036 81100 333 00154 21065
AAXX 08061 56444 32780 10902 10075 21034 36818 57022 81100 333 05151 21002
AAXX 08061 56492 32760 80000 10107 20050 39885 40300 57031 885// 333 00101 20093
AAXX 08061 56571 11580 80000 10082 20016 38436 57034 69931 78080 884// 333 00358 20072
AAXX 08061 57799 11780 83205 10093 20064 30206 40298 57018 69921 70060 885// 333 20076
AAXX 08061 57866 32863 80205 10106 20029 30092 40305 57026 885// 333 20062
AAXX 08061 57957 32560 60204 10120 20027 30076 40279 57031 84842 333 20075
AAXX 08061 57993 11780 83603 10100 20060 30108 40278 57022 69911 70060 885// 333 20091
AAXX 08061 58027 32980 03407 10034 21113 30302 40356 57009 333 20012
AAXX 08061 58141 31558 23603 10057 21044 30317 40337 57011 70500 82100 333 20032
AAXX 08061 58265 11565 83407 10074 20025 30291 40299 57002 69951 70060 8552/ 333 20072
AAXX 08061 58472 11365 83416 10086 20050 30169 40265 52008 69971 76060 8677/ 333 20086 91124 91536
AAXX 08061 58477 11473 83609 10093 20055 30215 40260 57002 60031 76066 887// 333 20093
AAXX 08061 58527 11670 80204 10092 20042 30223 40301 57014 69901 70060 885// 333 20075
AAXX 08061 58633 11662 80903 10094 20070 30180 40282 57014 60021 70060 885// 333 20086
AAXX 08061 58666 11480 83615 10112 20079 30137 40240 57011 69951 72160 888// 333 20109 91122 91536
AAXX 08061 58725 11660 82702 10091 20065 30000 40268 57018 69931 72160 885// 333 20084
AAXX 08061 58921 11665 82903 10102 20078 30000 40251 57018 69951 70060 885// 333 20102
AAXX 08061 59082 32675 83405 10105 20038 30110 40260 57026 885// 333 20095
AAXX 08061 59211 32580 72202 10180 20062 30024 40232 57036 8113/ 333 20145
AAXX 08061 59265 32575 70404 10140 20056 30095 40235 57033 878// 333 20107
AAXX 08061 59293 32580 70209 10155 20057 30130 40216 57027 8214/ 333 20139
AAXX 08061 59501 32780 73603 10206 20118 30147 40168 57023 875// 333 20191
AAXX 08061 59663 32980 43607 10204 20102 30070 40177 57030 80002 333 20153
AAXX 08061 59838 11562 80209 10192 20157 30150 40160 57023 69901 70060 888// 333 20192
AAXX 08061 59948 32480 70708 10227 20187 39658 40139 57021 81102 333 20194
AAXX 08061 59981 11578 80406 10270 20235 30102 40109 57025 69901 78080 882// 333 20254
AAXX 08061 31484 42999 20000 11140 21201 39884 40239 57018 80001
AAXX 08061 27037 32598 71702 11025 21038 30001 40166 52024 87500 333 21031 87623
AAXX 08061 22550 32471 72002 11002 21029 30087 40097 52018 87500 333 21001 87619
AAXX 08061 23205 11497 82204 11003 21027 30062 40077 52019 69940 78582 883// 333 21013 86913 91109
AAXX 08060 44210 32999 00000 11113 21116 38698 56005
AAXX 08060 44216 41598 70000 11162 21188 39224 40585 51005 77872 83657
AAXX 08060 44217 32998 10000 10109 21171 37992 40506 51007 81040
AAXX 08060 44219 32998 00901 11174 21200 38812 40582 52001
AAXX 08060 44221 32998 60000 11236 21257 38786 40648 58005 82082
AAXX 08060 44224 41996 80000 11205 21217 38212 40598 58002 77071 8802/
AAXX 08060 44229 32999 72504 11193 21242 38038 40541 58005 84041
AAXX 08060 44242 32998 01801 11232 21262 39530 40558 57006
AAXX 08060 44243 32999 00000 11243 21273 39629 40568 58010
AAXX 08060 44254 32998 02704 11194 21236 39197 40485 58011
AAXX 08060 44257 32998 00000 11223 21299 39140 40525 56013
AAXX 08060 44263 32998 30000 11101 21164 38194 40496 57002 82042
AAXX 08060 44266 32699 40000 11126 21161 37897 40502 52007 82840
AAXX 08060 44286 41998 52704 11168 21202 38790 40514 58002 70371 80008
AAXX 08060 44291 31996 60000 11221 21254 38894 40573 58006 70422
AAXX 08060 44325 32999 41102 11119 21181 39011 40488 58017 83089
AAXX 08060 44329 32898 53607 11122 21194 37858 40452 58007 82044
AAXX 08060 44338 32699 63605 11111 21173 38613 40462 58010 83854
AAXX 08060 44348 32997 83207 11146 21166 38823 40460 58004 8802/
AAXX 08060 44374 32999 10203 11094 21213 38375 40470 58012 80004
AAXX 08060 44385 32999 70000 11114 21176 39073 40468 57007 87040
AAXX 08060 44386 32999 20000 11162 21196 39212 40486 57008 80004
AAXX 08061 08515 32475 71108 10157 20134 30130 40252 57008 8583/ 333 20156 30014 5///4 55/// 82818 84637 910// 911//
AAXX 08064 16245 12965 00105 10090 20074 30168 40194 53012 60002 333 20088 30/// 55/// 2////
AAXX 08064 17098 12660 20000 11135 21157 38208 48528 57002 60002 82500 333 21191 3/120 42997 50044 55022 21160 82635
BBXX MINFR09 0806/ 99230 31110 46/// ///// 40079 57012
AAXX 08061 08515 32475 71108 10157 20134 30130 40252 57008 8583/ 333 20156 30014 5///4 55/// 82818 84637 910// 911// 555 60007 912//
AAXX 08064 84377 31460 80000 10230 20218 39976 40082 70222 83640 333 5600/ 59009 83710 86458
AAXX 08064 84686 31660 60000 10101 20065 36863 70222 8353/ 333 56990 59010 83643 83358
AAXX 08064 84691 31958 51402 10185 20164 30118 40125 71022 8503/ 333 56000 58002 85360
AAXX 08064 84782 31562 80000 10160 20122 39629 40141 70222 885// 333 569// 59004 88630
AAXX 08064 84501 31957 51405 10176 20154 30103 40130 71000 8503/ 333 56000 58004 85363
AAXX 08064 84752 32960 03505 10118 20046 37527 70200 333 58002
AAXX 08064 84452 31960 81810 10186 20164 30106 40137 70222 8801/ 333 5609/ 58010 88462
AAXX 08064 84515 21560 80000 10234 20225 39909 40087 70325 8542/ 333 5699/ 59010 69951 85620 83458
AAXX 08064 84401 31960 41603 10210 20170 30097 40142 70222 8403/ 333 56000 58013 84360
AAXX 08064 84628 34960 51705 10187 20170 30112 40128 70261 8503/ 333 5601/ 59001 69901 85366
BBXX 41052 08061 99183 70648 46/// /0204 10268 40109 90550 333 91205
BBXX 41052 08061 99183 70648 46/// /0204 10269 40109 90540 333 91205
BBXX 42085 08061 99179 70665 46/// /0603 10268 40115 57012 90600 22200 00284 10501 70006 333 91204
AAXX 08061 50353 32970 00202 11126 21206 30092 40336 57020 333 21300
AAXX 08061 50557 32970 02701 11153 21219 30030 40367 57018 333 21306
AAXX 08061 50756 32960 02902 11152 21207 30032 40361 57012 333 21230
AAXX 08061 50949 32965 03402 11109 21237 30184 40370 57012 333 21197
AAXX 08061 50963 32970 02508 11137 21204 30183 40334 57019 333 21231
AAXX 08061 50978 32980 02506 11104 21201 39922 40299 57021 333 21212
AAXX 08061 51087 32980 01801 11092 21164 39440 40500 57003 333 05105 21214
AAXX 08061 51156 32980 00201 11039 21202 38868 40460 52003 333 00002 21144
AAXX 08061 51644 32960 02002 10013 21077 39100 40413 57008 333 00051 21077
AAXX 08061 51656 32768 71601 11009 21075 39279 40432 57005 81532 333 00052 21064
AAXX 08061 51886 32980 23601 11059 21203 37167 57010 80002 333 00000 21157
AAXX 08061 52602 32980 70000 11041 21227 37321 57009 80002 333 00052 21182
AAXX 08061 52713 32980 12202 11042 21209 36951 57010 80002 333 00051 21170
AAXX 08061 52754 32980 12002 11042 21161 36807 57022 80002 333 00052 21160
AAXX 08061 52818 32980 73201 11005 21172 37288 57016 80002 333 00002 21107
AAXX 08061 52836 32980 12904 11029 21169 36935 57013 80002 333 00151 21144
AAXX 08061 52955 32980 13601 11018 21156 36996 57024 80002 333 00051 21179
AAXX 08061 53068 32980 02701 11182 21225 39248 40528 57009 333 00351 21255
AAXX 08061 53276 32980 02704 11150 21194 39024 40505 57009 333 21219
AAXX 08061 54135 32980 03604 11094 21234 30150 40391 57016 333 21166
AAXX 08061 54236 32980 03605 11089 21245 30261 40375 57016 333 21146
AAXX 08061 54539 32980 03403 11034 21151 30363 40378 57016 333 21074
AAXX 08061 54662 32675 50205 11070 21154 30218 40340 57007 85100 333 21081 91118 91502
AAXX 08061 54753 11560 73608 11021 21068 30343 40350 57004 69911 78587 874// 333 21022
AAXX 08061 54857 11572 23408 11005 21042 30239 40336 57002 69911 72680 82100 333 21013
AAXX 08061 57067 32970 23603 10053 21131 39678 40381 57026 82030 333 21018
AAXX 08061 57178 32980 11104 10078 21053 30205 40370 57024 80002 333 20013
AAXX 08061 57245 32577 70702 10096 21012 39986 40347 57037 82102 333 00202 20034
AAXX 08061 57297 32960 70404 10058 21041 30220 40366 57025 8703/ 333 20031
BBXX 44098 08061 99428 70702 46/// ///// 1//// 90607 22200 00097 10603 20603 309// 41101 70015
BBXX 44034 08061 99441 70681 46/30 /0209 10063 49971 56042 90604 22200 00093 10503 70014 333 91211 555 11116 22122
BBXX 44039 08061 99411 70727 46/// /3511 10101 20101 49929 57050 90600 22200 00114 10402 70008 333 91216
BBXX 41052 08061 99183 70648 46/// /0304 10269 40108 56014 90600 22200 00279 333 91205
AAXX 08061 27595 11598 81502 11056 21063 30087 40241 52020 60080 70272 885// 333 21046 93402
AAXX 08061 91943 16/// /0907 10264 20203 30123 40125 52021 60014 333 20264 59006
AAXX 08061 91945 36/// /0902 10237 20202 30134 40139 51017 555 59018
AAXX 08061 91948 06/// /0103 10235 20200 30054 40156 51013 60001 333 55059 60007 90710 91109 555 60005 10212 59022
AAXX 08061 89062 46/// /0712 11014 21023 39702 49742 52001 333 55089
BBXX 62001 08064 99452 70050 46/// /2509 10142 20096 40278 57008 22200 00153 10907 70033
BBXX 64046 08064 99606 70049 46/// /1116 10048 20026 49896 57069 22200 00096 11008 70040
BBXX 62301 08064 99524 70047 46/// /2332 10108 20088 40086 56054 22200 00111 10606 70030 333 90710 91146
BBXX 62303 08064 99516 70051 46/// /2327 10120 20094 40116 56043 22200 00121 10606 70032 333 90710 91140
BBXX 62029 08064 99487 70125 46/// /2523 10134 20117 40186 56018 22200 00135 10808 70040 333 90710 91133
BBXX 62442 08064 99490 70164 46/// /2427 1//// 2//// 40166 57017 22200 00131 333 90710 91135
BBXX 64045 08064 99591 70117 46/// /0832 10049 20038 49716 57152 22200 00101 10709 70044 333 90710 91144
BBXX 62105 08064 99554 70121 46/// /2541 10106 20060 49812 56078 22200 00110 10813 70065 333 90710 91156
BBXX 62081 08064 99510 70134 46/// ///// 10131 20104 40086 56027 22200 00120 10811 70055
BBXX VQKZ6 08064 99401 70238 41398 60819 10150 20113 40279 57020 70266 83878 22254 02080 20302 328// 40605 5//// 80130
BBXX AMOUK06 08064 99507 70014 46/// ///// 10111 20086 30155 40171 57020 90550
BBXX AMOUK14 08064 99535 70030 46/// ///// 10065 20036 30034 40069 57047 90550
BBXX AMOUK10 08064 99508 70011 46/// ///// 10108 20074 30182 4//// 57010 90550
BBXX AMOUK13 08064 99525 10018 46/// ///// 10042 20010 30153 40166 57009 90550
BBXX AMOUK12 08064 99533 70047 46/// ///// 10115 20089 30013 40054 57073 90550
BBXX AMOUK19 08064 99573 70019 46/// ///// 10062 20023 39967 49970 54003 90550
BBXX AMOUK09 08064 99534 10012 46/// ///// 10074 20043 30109 40124 57011 90550
BBXX AMOUK03 08064 99534 10005 46/// ///// 10056 20040 30079 40109 57015 90550
BBXX AMOUK16 08064 99523 70062 46/// ///// 10116 20090 30052 40056 57065 90550
BBXX PJAI 08064 99581 70014 47998 /1820 10075 21000 49965 57057 700// 22200
BBXX 62111 08064 99580 70003 46/// /2221 10065 20000 49998 57039 22200 10604 70020
BBXX 63056 08064 99597 10016 47998 /2013 10055 21004 49984 58012 700// 22200 10705 70023
BBXX 63057 08064 99592 10015 47999 /1911 10053 21003 49994 57021 700// 22200 10705 70023
BBXX 62128 08064 99587 10014 47698 /1912 10057 20004 40003 58022 700// 22200 10705 70023
BBXX 62129 08064 99584 10003 46/// ///// 10062 20001 49997 57026 22200
BBXX 62113 08064 99584 10002 47599 /2116 10060 20001 49998 57025 700// 22200
BBXX 62112 08064 99584 70002 47598 /2018 10061 21002 49987 57037 700// 22200
BBXX 63055 08064 99606 10016 47999 /2106 10056 21046 49978 58013 700// 22200 10704 70022
BBXX 63108 08064 99608 10017 47998 /2210 10044 21050 49972 58011 700// 22200 10704 70021
BBXX 63106 08064 99610 10017 46/// /2411 10056 49972 58012 22200
BBXX 63105 08064 99610 10017 47997 ///// 10060 21044 49972 58012 700// 22200
BBXX 63113 08064 99610 10017 46/// /2510 10058 21048 49974 58017 22200 10806 70028
BBXX 63112 08064 99611 10010 47/98 /2311 10062 21053 49967 58011 700// 22200 10706 70028
BBXX 63107 08064 99611 10017 46/// /2313 10056 49970 58012 22200
BBXX 63101 08064 99612 10009 46/// /2509 10054 21044 49965 58009 22200
BBXX 63103 08064 99612 10011 46/// /2311 10057 21055 49970 58013 22200 10806 70029
BBXX 63104 08064 99612 10016 47698 /2410 10055 21040 49968 58009 700// 22200
BBXX 63117 08064 99613 10011 47698 /2210 10090 21051 49968 58010 700// 22200
BBXX 63115 08064 99616 10013 47698 /2312 10055 21042 49962 57009 700// 22200 10706 70032
BBXX MWYG6 08064 99603 70040 47998 /1315 10053 700// 22200
BBXX 64041 08064 99607 70026 47598 /1416 10049 20006 49931 57048 700// 22200 10907 70037
BBXX 62164 08064 99572 10008 47598 /2117 10084 20018 40030 57027 700// 22200 10605 70026
BBXX PJGO 08064 99571 10022 47598 /2106 10070 20011 40038 57022 700// 22200
BBXX 62133 08064 99571 10009 46/// /2116 10070 21006 40027 57026 22200
BBXX 62119 08064 99570 10019 47998 /2317 10071 20003 40042 57024 700// 22200 10605 70026
BBXX 62152 08064 99570 10018 47/98 /2013 10071 20006 40043 57021 700// 22200 10505 70025
BBXX 62154 08064 99564 10022 46/// /2318 10072 20011 40052 57018 22200
BBXX 62120 08064 99564 10021 47598 /2419 10074 20012 40051 57020 700// 22200
BBXX 62132 08064 99564 10020 46/// /2617 10070 20009 40056 57025 22200
BBXX 62123 08064 99563 10022 47598 /2319 10072 20014 40056 57016 700// 22200
BBXX 62165 08064 99540 10009 47998 /2420 10071 20026 40117 57022 700// 22200 10505 70026
BBXX 62127 08064 99540 10007 47898 ///// 10070 20023 40109 57027 700// 22200 10605 70023
BBXX 62131 08064 99539 10012 46/// /22// 10071 20031 40116 57020 22200
BBXX 62149 08064 99537 10011 47998 /2322 10071 20027 40123 57025 700// 22200 10605 70025
BBXX 62148 08064 99536 10015 46/// /2323 10070 20028 40135 57017 22200
BBXX 62150 08064 99536 10007 47998 /2219 10063 20023 40130 57022 700// 22200 10605 70023
BBXX 62121 08064 99535 10027 46/// /2419 10073 20018 40139 58003 22200
BBXX 62144 08064 99534 10017 47998 /2221 10067 20033 40139 58020 700// 22200 10505 70025
BBXX 62145 08064 99531 10028 47998 /2315 10065 20016 40149 58012 700// 22200 10606 70029
BBXX 62142 08064 99530 10021 469// /2416 10059 20024 40145 58012 22200 10605 70024
BBXX ZQSD5 08064 99583 10007 46/// /1916 10067 20014 40009 57025 22200 10905 70025
BBXX 62114 08064 99583 10000 46/// /2016 10062 21001 49991 57032 22200
BBXX 62134 08064 99580 10014 47598 /2115 10065 21000 40015 58022 700// 22200 10605 70024
BBXX 62102 08064 99579 10018 46/// ///// 22200
BBXX 62117 08064 99579 10000 47597 /2118 10068 20006 40003 57031 700// 22200 10604 70020
BBXX 62143 08064 99577 10018 47698 /2010 10067 21002 40024 57029 700// 22200 10605 70026
BBXX 62118 08064 99577 10009 47698 /2118 10085 20003 40009 57026 700// 22200 10605 70024
BBXX 62155 08064 99577 10007 47598 /2118 10069 20006 40015 57029 751// 22200 10605 70024
BBXX 62116 08064 99576 10011 47598 /2216 10066 20001 40017 58022 700// 22200 10605 70025
BBXX 62104 08064 99574 10013 47598 /2315 10072 20003 40022 57024 700// 22200
BBXX 62153 08064 99573 10020 47999 /2217 10070 21003 40033 57020 700// 22200 10605 70026
BBXX 62122 08064 99573 10016 47598 /2316 10086 20005 40034 57022 700// 22200 10605 70026
BBXX 62140 08064 99573 10013 46/// /23// 10070 20002 40027 57020 22200
BBXX 62146 08064 99572 10021 47/99 /2314 10069 21002 40036 57024 700// 22200 10605 70026
BBXX AMOUK21 08064 99564 70055 46/// ///// 10059 20048 39900 49901 57104 90550
BBXX AMOUK05 08064 99534 10008 46/// ///// 10058 20028 30061 40100 57019 90550
BBXX AMOUK08 08064 99501 70061 46/// ///// 10125 20091 30164 40166 57030 90550
BBXX AMOUK27 08064 99582 70064 46/// ///// 10045 20035 39833 49836 57113 90550
BBXX 62027 08064 99491 70022 46/// /2119 1//// 2//// 40213 57019 22200 00133 11104 310// 70020
BBXX 62103 08064 99499 70029 46/99 /2427 10122 20085 40186 58030 22200 00132 10703 70016 333 90710 91137
BBXX 62163 08064 99475 70084 46/// /2420 10122 20080 40234 57019 22200 00134 10808 70039 333 90710 91127
BBXX 62094 08064 99517 70067 46/// /2231 10114 20114 40096 56045 22200 00116 10608 70039 333 90710 91146
BBXX 62170 08064 99514 10020 46/97 /2422 10091 20041 40190 57010 22200 00118 10602 70010 333 90710 91129
BBXX 62304 08064 99511 10018 46/98 /2419 10099 20048 40195 57009 22200 00122 10602 70008 333 90710 91126
BBXX 62305 08064 99504 10000 46/97 /2219 10119 20079 40205 57021 22200 00131 10602 70008 333 90710 91126
BBXX 63110 08063 99595 10015 41/98 /1915 10054 49988 700// 8//// 22200 10805 70025
BBXX C6SI2 08064 99509 10015 41298 82721 10104 20059 40190 58022 70322 887// 22213 20601 322// 40603 5//// 80083
BBXX 62107 08064 99501 70061 46/// /2431 10121 20078 40169 56029 22200 00123 10805 70025 333 90710 91138
BBXX 62092 08064 99512 70105 46/// /2432 10130 20101 40100 56026 22200 00122 10811 70053 333 90710 91143
BBXX 62095 08064 99530 70159 46/// /2732 10096 20058 40012 53032 22200 00118 10914 70071 333 90710 91147
BBXX 62305 08064 99504 10000 46/97 /2219 10119 20079 40205 57021 22200 00131 10202 70008 333 90710 91126
BBXX PHBO 08063 99497 70040 41/97 82128 10125 20091 40179 58024 70362 8/7// 22264 20503 80108
BBXX A8JC5 08064 99408 70278 41598 51711 10160 20139 40255 57005 70222 859// 22264 00176 299// 3//// 4//// 5//// 80147
BBXX 41112 08061 99307 70813 46/// ///// 1//// 90552 22200 00169 10402 20402 308// 41201 70009
BBXX JPBN 08064 99342 11486 41/97 82526 10198 20130 40074 55012 78082 882// 22241 00213 1//03 20503 30427 41003 50802 70017
BBXX JGQH 08064 99288 11370 41/98 62129 10251 20185 40087 56029 70122 83231 22241 00238 1//03 20402 320// 40802 70015
BBXX JGQH 08064 99288 11370 41/98 62129 10251 20185 40087 56029 70122 83231 22241 00238 1//03 20402 320// 40802 70015
BBXX JPBN 08064 99342 11486 41/97 82526 10198 20130 40074 55012 78082 882// 22241 00213 1//03 20503 30427 41003 50802 70017
AAXX 08061 22438 32571 82605 11016 21050 30042 40063 52014 885// 333 21017
AAXX 08064 62357 32960 02204 10124 20046 40201 54000 333 20108
AAXX 08064 62423 32960 00000 10087 20057 40244 52014 333 20070
AAXX 08064 62403 31956 00000 10102 20063 40209 52010 71000 333 20070
AAXX 08061 48806 01470 81603 10182 20148 39399 40176 57020 69933 70262 888// 333 58004 69931 83894 88696
AAXX 08061 38388 31593 80000 11070 21095 30237 40311 52007 74442 886// 333 21083
AAXX 08061 38392 32298 41304 11078 21010 30214 40324 52001 84700 333 21098
AAXX 08061 38507 32998 00802 10021 21047 30129 40234 53002 333 21040
AAXX 08061 38511 32998 00905 11022 21047 30124 40271 53001 333 21050
AAXX 08061 38545 31/93 90000 11042 21054 30135 40320 52009 74544 333 21062
AAXX 08061 38647 31496 80912 10012 21008 30189 40232 54000 71022 886// 333 21003
AAXX 08061 38656 32698 80905 11024 21040 30186 40301 52009 885// 333 21047
AAXX 08061 38687 31/92 90000 11040 21045 30065 40313 52007 74544 333 21045 89/01
AAXX 08061 38750 32997 00701 10031 20010 30248 40219 58004 333 21004
AAXX 08061 38763 31395 80909 10001 21008 30140 40249 52001 71022 886// 333 21014 88710
AAXX 08061 38774 31/93 91402 10000 21003 30092 40296 52005 74544 333 21006
AAXX 08061 38799 32597 80702 11002 21017 30062 40304 52003 885// 333 21014
AAXX 08061 38806 31/92 90000 11026 21036 30033 40306 52003 74544 333 21035
AAXX 08061 38880 31/93 90605 10014 20009 30017 40281 51003 74554 333 20003
AAXX 08061 38886 32697 80801 10021 21010 30052 40287 52005 885// 333 20007
AAXX 08061 38895 32496 80503 10016 21000 39996 40296 53008 887// 333 21010
AAXX 08061 38911 31/92 93404 11022 21022 39995 40304 52005 74544 333 21029 89/02
AAXX 08061 38915 31993 82401 11008 21014 39959 40296 54000 74444 8801/ 333 21025
AAXX 08061 38974 31997 80000 10010 21001 39936 40382 52006 71022 8802/ 333 21007
AAXX 08061 38987 32996 02601 10018 21032 39521 40285 53014 333 21025
AAXX 08061 29998 41797 72001 11214 21226 38789 48625 58004 71571 85520
AAXX 08061 30385 42999 20000 11239 21264 39805 40391 57036 80001
AAXX 08061 30469 42999 21801 11276 21307 39627 40478 58033 80001
AAXX 08061 30636 42698 20000 11235 21254 39813 40488 57015 82500
AAXX 08061 30650 42999 00000 11230 21249 39249 40477 57023
AAXX 08061 30664 42999 00000 11191 21232 39368 40436 57027
AAXX 08061 30781 42999 00000 11212 21252 39918 40433 57025
AAXX 08061 30777 42998 02902 11229 21269 39737 40457 57013
AAXX 08061 30844 41599 72704 11128 21155 39430 40464 58011 875// 333 87630
AAXX 08061 30925 42999 01502 11148 21191 39458 40500 58003
AAXX 08061 31371 42999 02903 11132 21193 30058 40338 57018
AAXX 08061 31388 42999 02701 11138 21209 30016 40293 57019
AAXX 08061 31478 NIL
AAXX 08061 31532 42999 00000 11234 21266 39936 40311 57014
AAXX 08061 31594 42999 02901 11174 21216 30123 40306 57013
AAXX 08061 31655 42998 00000 11168 21195 30195 40245 57017
AAXX 08061 31754 42999 20000 11158 21209 39722 40253 57014 80002
AAXX 08061 48803 01460 81802 10191 20169 30075 40189 58014 69923 70262 888// 333 58035 69921 84894 88696 555 20191
AAXX 08061 23929 32978 82203 11023 21066 30188 40256 52021 85031 333 21001
AAXX 08061 28791 32999 01904 11151 21178 30284 40441 52003 333 21162
AAXX 08061 28383 12974 81702 11092 21154 30295 40383 52005 69900 82032 333 21134
AAXX 08061 28586 32998 02204 11106 21159 30257 40415 52009 333 21135
AAXX 08061 28465 32999 81906 11110 21146 30290 40373 52001 80001 333 21116
AAXX 08061 28588 32982 12103 11125 21168 30255 40426 52008 80001 333 21143
AAXX 08061 28696 32980 02101 11122 21165 30288 40438 52005 333 21145
AAXX 08061 28688 32998 02401 11138 21165 30267 40439 52003 333 21158
BBXX 42085 08061 99179 70665 46/// /0504 10268 40116 90550 333 91205
BBXX 42085 08061 99179 70665 46/// /0404 10269 40117 90540 333 91204
BBXX 46221 08061 99339 71186 46/// ///// 1//// 90545 22200 00153 11401 20401 323// 41401 70006
BBXX 51205 08061 99210 71564 46/// ///// 1//// 90618 22200 00245 12204 20803 331// 42203 70022
BBXX 46114 08061 99364 71222 46/// ///// 1//// 90604 22200 00108 11303 20502 326// 41301 70013
AAXX 08061 38847 3//// /2000 10034 20007 39480 40260 333 21023 777 92083
AAXX 08064 78866 02585 11102 10253 20223 30115 40120 57012 60001 81200 333 58010 60007 81821
BBXX 51203 08061 99208 71570 46/// ///// 1//// 90613 22200 00252 11302 20902 328// 41301 70009
BBXX 52200 08061 99134 11448 46/// ///// 1//// 90615 22200 00288 10804 20804 308// 41101 70019
BBXX 51201 08061 99217 71581 46/// ///// 1//// 90612 22200 00246 12004 21003 331// 42003 70021
AAXX 08064 78866 02585 11102 10253 20223 30115 40120 57012 60001 81200 333 58010 60007 81821
BBXX SHIP 08064 99268 11680 41397 51816 10255 20231 40157 53006 70311 84231 22263 06260 20202 33212 40908 50604 80238
BBXX 7JJA 08064 99135 11138 41796 80420 00 10270 40085 57015 75166 86650 9//// 22213 00290 2 04 302 4 04 5 6//// 80260 ICE/////
BBXX SHIP 08064 99211 11428 41/97 70816 10261 40115 57010 70311 874// 9//// 22273 00278 20201 304// 40604
BBXX SHIP 08064 99307 11344 41393 70234 10170 20154 40115 57025 76266 86676 22284 00220 20605 301// 40707 80160
BBXX SHIP 08063 99278 11337 41/98 72328 10250 20222 40135 57015 70322 8/456 22243 00240 20303 320// 40306 80230
BBXX SHIP 08064 99168 11493 41899 33233 00/// 10300 20274 40097 55001 70111 84235 9//// 22243 00290 1//// 20202 306// 40202 5//// 6//// 80280
BBXX SHIP 08064 99317 11468 41598 72322 10215 20161 40092 50041 70322 8556/ 90600 22262 00220 20302 305// 40506 80180
BBXX SHIP 08064 99423 11638 41798 32813 10100 20081 40055 57003 70121 83131 22223 00110 20203 311// 40304 80090
BBXX SHIP 08064 99229 11609 41497 21504 10267 20227 40133 53003 71511 82200 22223 04261 20301 30508 40704 50703
BBXX SHIP 08064 99149 11317 41397 50820 10280 20253 40076 50009 70211 85523 22293 00295 20603 305// 40807 5//// 80260
AAXX 08063 91553 31598 70000 10280 20244 40068 54000 72929 879// 333 563// 84820 81925 87640
BBXX TBWUK35 08064 99624 10040 41/98 /1732 10050 20031 49947 50002 70382 8/400 22243 00100 20304 80042
AAXX 08063 91553 31598 70000 10280 20244 40068 54000 72929 879// 333 563// 84820 81925 87640
AAXX 08064 78866 02585 11102 10253 20223 30115 40120 57012 60001 81200 333 58010 60007 81821
BBXX SHIP 08064 99282 30816 41498 21118 10220 20175 40178 56008 70111 8213/ 22224 00213 20603 309// 40806 80190
BBXX SHIP 08064 99074 30881 41497 72919 10279 20243 40072 58006 70322 82416 22261 00280 10804 20302 32926 40706 50605 85252
BBXX VQIC2 08064 99345 31734 41798 32215 10188 20130 40166 54000 71900 81144 22233 00210 20402 322// 41802 5//// 80155
BBXX ZMFR 08064 99513 31667 43/// /27// 10086 20023 40129 52018 22211 00088
BBXX V2QD4 08063 99342 31691 41597 51911 10180 20164 40176 51010 70211 85588 22263 00200 204// 317// 41204
AAXX 08064 93800 16/// /2613 10145 20089 40177 52014 60001
AAXX 08064 93805 16/// /2305 10114 20075 40190 52015 60001
AAXX 08064 93994 16/// /2702 10217 20194 40127 52012 69961
BBXX ZMFR 08064 99513 31667 43/// /27// 10086 20023 40129 52018 22211 00088
BBXX V2QD4 08063 99342 31691 41597 51911 10180 20164 40176 51010 70211 85588 22263 00200 204// 317// 41204
BBXX SHIP 08064 99282 30816 41498 21118 10220 20175 40178 56008 70111 8213/ 22224 00213 20603 309// 40806 80190
BBXX SHIP 08064 99074 30881 41497 72919 10279 20243 40072 58006 70322 82416 22261 00280 10804 20302 32926 40706 50605 85252
BBXX VQIC2 08064 99345 31734 41798 32215 10188 20130 40166 54000 71900 81144 22233 00210 20402 322// 41802 5//// 80155
AAXX 08064 67969 31970 40000 10286 20156 3//// 48/// 70511 83032 333 20188 5//// 83360
AAXX 08064 67767 NIL
AAXX 08064 67843 12980 61807 10261 20190 38921 48484 69954 81038 333 20188 59031 81359 86280
AAXX 08064 67969 NIL
AAXX 08064 87803 32980 60000 10124 20038 39258 40155 56003 80006 333 56006 86270
AAXX 08061 21432 42998 72403 11225 21257 30133 40154 53001 87030
AAXX 08061 21824 41998 12602 11181 21203 30197 40176 53001 70231 81030 333 1/119
AAXX 08061 21908 42999 00000 11372 21388 30063 40155 57006
AAXX 08061 21921 41996 80000 11314 21342 30150 40199 57011 77072 83037
AAXX 08061 21931 41997 82004 11234 21259 30147 40181 57015 77172 8805/
AAXX 08061 21946 41497 82905 11250 21267 30078 40163 57011 77172 8553/ 333 85613
AAXX 08061 21982 31998 83406 11151 21170 30062 40090 57012 73632 84537 333 11149 91109
AAXX 08061 25062 11997 83005 11189 21208 30114 40118 57013 69982 73673 80005 333 11168 91107
AAXX 08061 25123 41496 81502 11311 21340 30147 40183 57013 77172 8455/ 333 84619
AAXX 08061 25138 42699 61701 11367 21397 30052 40190 56013 82531 333 91101
AAXX 08061 25173 11295 83108 11170 21176 30082 40087 57016 69962 77173 885// 333 11165 91112
AAXX 08061 25248 42998 81001 11364 21394 39665 40168 57009 8805/ 333 91102
AAXX 08061 25282 11/20 93611 11130 21136 30012 40018 57011 60030 73873 333 11130 91116 92982
AAXX 08061 25325 NIL
AAXX 08061 25356 11997 83606 11176 21217 39937 40040 57002 69922 77173 8807/ 333 11170 91010
AAXX 08061 25399 11456 83503 11060 21075 39911 49920 53004 60020 77173 8872/ 333 1//// 91107
AAXX 08061 25428 42984 70000 11371 21401 39833 40209 56008 85031 333 91100
AAXX 08061 25551 11996 83604 11169 21203 30015 40047 57005 69900 77173 8802/ 333 11/// 91109
AAXX 08061 25563 11440 80110 11138 21151 39893 49973 57001 60042 77173 8872/ 333 11128 91119
AAXX 08061 25594 11498 80110 11024 21033 39817 49866 57006 69982 73673 8657/ 333 11021 91113
AAXX 08061 25677 11594 83214 11104 21110 39904 49910 52015 69942 73883 883// 333 11090 88920 91116
AAXX 08061 31054 41998 80000 11290 21320 30042 40345 57023 77172 8802/
AAXX 08061 31123 42599 81801 11294 21324 30012 40376 58030 85501
AAXX 08064 61600 32960 00606 10185 20090 30114 40119 333 20175 50824 55083 58000
AAXX 08064 61612 32960 20000 10176 20026 30119 40127 80002 333 01700 20170 50411 55025 59003 82073
AAXX 08064 61627 32958 00402 10180 20029 3//// 4//// 333 00900 20175 50664 55092 5////
AAXX 08064 61630 32960 00000 10194 20057 30094 40113 333 01500 20188 50582 55079 59001
AAXX 08064 61641 32957 00207 10218 20085 30077 40110 333 01800 20213 50694 55103 59001
AAXX 08064 61666 32958 00000 10186 20079 30100 40108 333 01600 20150 50584 55083 58000
AAXX 08064 61679 32958 00406 10205 20109 30108 40116 333 01800 20202 50084 55095
AAXX 08064 61687 32960 00404 10200 20061 30043 40100 333 01200 20167 51001 55096 59005
AAXX 08064 61695 32958 00204 10181 20163 30078 40104 333 01400 20180 50094 55095 59017
AAXX 08064 61697 32960 00404 10196 20194 30090 40104 333 01800 20184 50314 55099 59001
AAXX 08064 61698 32958 00000 10138 20123 30095 40106 333 01100 20136 50414 55088 59001
AAXX 08064 61699 32958 01006 10180 20131 39892 40081 333 01500 20161 50764 55097 59010
AAXX 08064 60563 12960 00000 10020 20006 39403 48592 54000 60004 333 05400 20010
AAXX 08064 60691 36/// /0519 10156 21087 333 20151
AAXX 08064 60676 36/// /0310 10126 21043 333 20115
AAXX 08064 60633 36/// /3514 10145 21061 333 20144
AAXX 08064 60662 36/// /0000 10089 21079 333 20081
AAXX 0806/ 89799 46/// ///// 11263 4//// 5////
AAXX 0806/ 89332 46/// ///// 11045 39155 4//// 5////
AAXX 0806/ 89879 46/// ///// 10038 39689 4//// 5////
AAXX 08064 60661 36/// /0101 10088 21037 333 20083
AAXX 08064 60650 36/// /0000 10119 21029 333 20119
AAXX 08064 60672 36/// /1008 10135 21080 333 20135
AAXX 08064 60679 36/// /0619 10026 21129 333 20026
BBXX 46207 08061 99509 71299 46/// /2701 10066 40339 57005 22200 00085 11203 70013 333 91202
BBXX A8CN8 08060 99386 71287 41/97 /0513 40265 56010 70255 8//// 22235 2//// 327// 40505 5////
BBXX A8EH5 08061 99471 71425 41398 81810 10085 20074 40340 54000 70352 8571/ 22273 00070 20503 328// 41404 5//// 80080
BBXX A8TG2 08064 99321 71446 41798 60915 10200 20167 40230 51010 70355 85464 22224 20204 309// 40204 5//// 80180
BBXX KRGB 08064 99371 71242 41/98 83216 10111 20060 40209 56002 7//22 88/// 22255 00122 20303 330// 40904 5//// 6//// 80089 ICE /////
BBXX SHIP 08064 99366 71412 41598 60513 10160 20127 40281 52010 70322 85570 90555 22223 00195 2//// 3//// 4//// 80140
BBXX VQKR7 08064 99356 71228 41298 23325 10110 20090 40229 51010 70000 82050 22273 04120 20305 333 // 40305 80100
BBXX WACW 08064 99558 71418 41497 82030 10100 20060 40240 54000 7//55 889// 22233 00060 202// 3//// 403// 5//// 6//// 80080 ICE /////
BBXX WFLH 08063 99330 71200 43698 23314 10144 20083 40201 57004 7//// 82/4/ 22223 00139 20501 3//// 4//// 5//// 6//// 80111 ICE /////
BBXX WSRL 08064 99325 71476 41398 81219 10190 20160 40240 52015 70322 887// 22214 00211 2//// 3//// 4//// 5//// 6//// 80170 ICE /////
AAXX 08064 60677 36/// /0000 10103 21065 333 20048
AAXX 08064 17310 11560 70501 10124 20099 30092 40099 56012 60322 78082 84270 333 20122 32012 55000 70413 84830 87460 91126 92447
AAXX 08064 40582 31957 02706 10089 21073 40234 53019 70500 333 55310 00506 10000 21213 30397 40952 51257 61610 55407 40816 90401 91007 91107 91205 91303
AAXX 08064 41150 NIL
AAXX 08064 41168 NIL
AAXX 08064 41170 42962 02805 10179 20096 30209 40222 333 20138 58004 555 00118
AAXX 08064 41176 NIL
AAXX 08064 41184 NIL
AAXX 08064 41194 NIL
AAXX 08064 41196 NIL
AAXX 08064 41198 NIL
AAXX 08064 41210 NIL
AAXX 08064 41216 NIL
AAXX 08064 41217 NIL
AAXX 08064 41218 NIL
AAXX 08064 41226 NIL
AAXX 08064 41244 36/// /3103 10194 20132 39849 48371 333 0E016 20136 58006
AAXX 08064 41246 32960 13406 10243 20129 30187 40191 80001 333 20187 58014 81070
AAXX 08064 41254 36/// /3004 10127 20034 38207 48212 333 0E003 20062 58020
AAXX 08064 41256 32565 52607 10241 20128 30178 40188 85430 333 20198 58007 83625 83360
AAXX 08064 41258 36/// /2606 10241 20140 30174 40179 333 0E/// 20229 58004
AAXX 08064 41268 32560 23510 10258 20140 30165 40181 82500 333 20185 3/020 58001 82625
AAXX 08064 41312 36/// /0110 10246 20034 30135 40175 333 0E057 20224 58002
AAXX 08064 41314 32960 03209 10186 21029 39703 40215 333 20113 59001
AAXX 08064 41316 NIL
AAXX 08064 41404 42965 09902 10144 21059 37895 48551 333 20043 30102 58002
AAXX 08064 41407 42970 00608 10174 21023 38988 48541 333 20090 30/// 58018
AAXX 08064 41431 42960 00000 10266 20233 30134 40147 333 20226 30/// 58000
AAXX 08064 41466 42960 01306 10190 20122 38590 48490 333 20120 30/// 59002
AAXX 08064 41477 42960 01709 10262 20199 333 20240 30///
AAXX 08064 41480 42460 50509 10272 20197 30164 40167 85800 333 20250 30/// 58000 82818 85625
AAXX 08064 41244 36/// /3103 10194 20132 39849 48371 333 0E016 20136 58006
AAXX 08061 60373 36/// /2302 10121 20120 333 20112
AAXX 08061 60623 36/// /0000 10089 21115 333 20085
AAXX 08061 60393 16/// /1402 10076 20067 69924 333 20076
AAXX 08061 13492 ///// 0//// 11050 333 21061
AAXX 08061 13584 NIL
AAXX 08061 13585 42998 00702 11006 21019 39383 40201 52007 333 21026 34108 92001
AAXX 08061 13597 42998 00000 11021 21025 30105 40181 53005 333 21024 30106
AAXX 08061 13598 42998 10000 11078 21081 48437 51006 81030 333 21090 34111 92012
AAXX 08061 14216 12975 00302 10093 20046 30007 40159 52024 60002 333 20087 31004 70000 923// 924/8
AAXX 08061 14219 11458 13002 10018 21001 39169 48473 52/// 60002 71011 81100 333 20010 31102
AAXX 08061 14232 12782 32702 10015 20010 30050 40190 52046 60002 82530 333 20009 31102
AAXX 08061 14234 12680 12102 10020 20003 39931 40184 51037 60002 81800 333 20016 31102
AAXX 08061 14236 12662 32201 10050 20023 39979 40179 52/// 60002 82530 333 20043 31001
AAXX 08061 14244 12575 61601 10044 20026 30056 40187 52048 69902 86500 333 20024 31102 79999
AAXX 08061 14248 12670 21402 10038 21003 30001 40178 52/// 60002 82500 333 20003 31103
AAXX 08061 14253 12660 43401 10052 20003 30006 40182 52032 60002 84800 333 20032 31001
AAXX 08061 14256 11570 53004 10052 21013 39853 40175 52029 69912 7016/ 85500 333 20042 31/// 70001
AAXX 08061 14280 11520 82702 10048 20030 30056 40167 52032 60022 72065 8352/ 333 20022 32102 70018
AAXX 08061 14308 11903 00000 11020 21025 39812 40178 51023 60002 74244 333 21020 31106 92611
AAXX 08061 14321 12982 00000 10106 20069 30143 40167 52/// 60002 222// 00138 333 20106 31006 92300 92408
AAXX 08061 14370 11530 83001 10039 20030 30069 40180 52038 60072 71062 886// 333 21011 32101 70065
AAXX 08061 14382 12660 83002 10068 20019 30053 40173 52029 60092 885// 333 20034 32003 70085
AAXX 08061 14428 12470 33003 10147 20087 30153 40160 53015 60002 83800 222// 00152 333 20103 31011 92312
AAXX 08061 14441 12682 23402 10116 20090 30141 40165 53015 60002 82530 222// 00178 333 20093 31007 70001 92311
AAXX 08061 14452 12598 62002 10131 20093 39945 40168 51/// 60002 84530 333 20116 92311
AAXX 08061 14454 12677 71201 10140 20076 30102 40162 52010 60002 87500 333 20120 31009 92312
AAXX 08061 14462 12680 70202 10087 20059 30166 40172 53/// 60002 87800 333 20051 31002
AAXX 08064 91631 11599 10708 10283 20243 40070 60001 70100 81100 333 561//
AAXX 08064 91643 11499 70712 10287 20249 40065 53010 60001 71522 83308 333 562/9 83918 87280
AAXX 08064 91648 11499 50807 10281 20245 40071 60011 70228 8323/ 333 5629/
AAXX 08064 61017 31958 50424 10170 21031 39763 40171 7072/ 80002 333 00900 20170 50754 55098 59006 85080
AAXX 08064 61024 32960 31012 10170 21016 39583 40150 80002 333 01100 20154 51581 59001 83080
AAXX 08064 61036 31956 70806 10220 21005 39886 40122 7052/ 80008 333 01700 20192 51211 50024 55076 58006 87280
AAXX 08064 61043 32960 50612 10204 21050 39692 40130 80002 333 0//00 20200 51421 55086 58006 85080
AAXX 08064 61045 32965 70000 10165 21046 39646 40145 80008 333 00400 20155 50090 55083 59001 87280
AAXX 08064 61049 32960 70804 10156 20012 39815 40137 80008 333 01300 20145 51041 50934 55104 58009 87280
AAXX 08064 61052 31930 50608 10224 21050 39878 40133 70622 80002 333 01500 20204 51121 55090 58009 85080
AAXX 08064 61075 32960 50000 10195 20016 39831 40129 80002 333 01700 20195 51291 50874 55075 58007 85080
AAXX 08064 61080 31957 71004 10164 21043 39720 40143 7062/ 80008 333 00900 20160 51271 51124 55085 58011 87280
AAXX 08064 61090 32960 70404 10166 21028 39628 40139 80008 333 01400 20165 51221 51054 55088 58002 87280
AAXX 08064 61091 31956 70000 10145 20017 39696 40154 70622 80008 333 00900 20140 50641 50564 55090 58004 87280
AAXX 08064 61096 32960 70404 10155 21068 39762 40146 80008 333 01300 20148 51261 50934 55099 58007 87280
AAXX 08064 61099 31956 70610 10232 21008 39879 40106 7062/ 80008 333 01900 20225 51071 55089 58004 87280
AAXX 08061 08511 12/// /0802 10154 20144 30153 40261 57009 69912 333 20144 30013 5//// 55059 27424 555 60005
BBXX 41053 08061 99185 70661 46/// /1802 10257 40116 58013 90600 22200 00280 11204 70021 333 91203
BBXX 46147 08061 99518 71312 46/// /1304 10058 40335 57006 22200 00083 11002 70012 333 91205
BBXX 46147 08061 99518 71312 46/// /1304 10058 40335 57006 22200 00083 11002 70012 333 91205
AAXX 08064 62305 32560 32610 10102 20085 40221 52004 83500 333 20096
AAXX 08064 62306 32560 32713 10140 20109 40204 52009 83200 333 20126
AAXX 08064 62318 32560 22007 10122 20097 40186 54000 82500 333 20100
AAXX 08064 62337 NIL
AAXX 08064 62366 31120 02007 10148 20070 40207 52006 70500 333 20132
AAXX 08064 62393 32960 03205 10084 20052 40236 52013 333 20062
AAXX 08064 62405 32960 00000 10116 20075 40101 52016 333 20078
AAXX 08064 62414 NIL
AAXX 08064 62417 32960 02606 10108 20047 40229 52006 333 20074
AAXX 08064 62440 32960 01706 10114 20085 40198 52006 333 20095
AAXX 08064 62463 32960 23012 10148 20071 40196 52012 80002 333 20128
AAXX 08064 62465 32960 23107 10170 20074 40185 52014 80001 333 20122
AAXX 08064 62419 NIL
AAXX 08061 25703 41999 30000 11351 21380 39932 40236 57006 70171 82031
AAXX 08061 25745 42698 70000 11228 21253 30002 40057 57004 87500
AAXX 08061 25913 42999 50703 11140 21211 39954 40107 57012 81031
AAXX 08061 25954 42998 13503 11202 21251 39875 49995 53004 80001
AAXX 08061 25956 42699 20604 11136 21179 39939 49945 53005 82500
AAXX 08061 31088 42999 60104 11147 21217 30137 40144 57013 82041
AAXX 08061 31873 42998 02303 11139 21204 30139 40282 56017
AAXX 08061 31909 42999 02808 11060 21187 30115 40195 56012 333 91012 91114
AAXX 08061 31960 42998 00111 11125 21197 30021 40270 57007 333 91016 91119
AAXX 08061 31961 42998 00203 11113 21197 30242 40291 57019
AAXX 08061 32053 41597 83106 11101 21145 30081 40131 55004 78583 84932 333 91011 91112
AAXX 08061 32061 41596 83507 11097 21109 30120 40161 56003 78583 889// 333 91012 91113
AAXX 08061 32098 42598 23503 11084 21142 30127 40137 57002 81901 333 91005 91111
AAXX 08061 32150 42599 53403 11062 21126 30106 40136 57005 85300 333 91005 91112
AAXX 08061 32165 41598 32907 11027 21112 30037 40099 56001 72781 83900 333 91010 91111
AAXX 08061 32215 42980 72503 11048 21110 39994 40024 57013 87010 333 91005 91105
AAXX 08061 32252 NIL
AAXX 08061 32389 41998 30000 11205 21217 39999 40038 57008 74011 83030
AAXX 08061 32477 42999 20702 11144 21179 39988 40021 56010 80001
AAXX 08061 32583 42999 23003 11088 21122 30007 40038 56009 80001
AAXX 08061 32618 41597 63108 11024 21053 39999 40021 57004 78583 86900
AAXX 08064 71915 11569 70611 11218 21255 39762 49844 51013 69901 77177 84501 333 11217 21263 48045 79999 90983 555 19999 29999
AAXX 08064 71217 16/// /2405 11089 21120 60001 333 11018 21093 70006 555 30121 40201
AAXX 08064 71224 16/// /3402 11116 21138 60001 333 11055 21126 70000 555 30223 40231
AAXX 08064 71189 46/// /1004 11006 21019 6///1 333 11006 21038 7////
AAXX 08064 71434 16/// /2305 11201 21220 39925 49992 56007 60001 333 11068 70000 555 33023 40101
AAXX 08064 71063 16/// /1902 11017 21039 39979 40078 58006 60001 333 11001 21020 70000
AAXX 08064 71767 17/// /3310 11004 21047 39844 40106 51011 60031 7//4/ 333 10008 21026 70025 555 10010 20025 32723 40021
AAXX 08064 71343 16/// /3201 11095 21137 60001 333 11013 21095 70004 555 30219 40231
AAXX 08064 71345 16/// /3205 11094 21144 60001 333 11028 21094 70004 555 30320 40231
AAXX 08064 71276 16/// ///12 11166 21197 60001 333 11071 21166 70000
AAXX 08064 71979 16/// ///// 11272 21296 38550 40291 58015 60001 333 11075 21274 70000
AAXX 08064 71432 16/// /2512 10021 21024 30018 40115 56005 60001 333 10029 20001 70000 555 32924 40011
BBXX 46183 08061 99536 71311 46/// /1404 10047 40332 57009 22200 00081 11000 70002 333 91204
AAXX 08064 13601 12665 30000 10070 20041 30065 40167 54001 60002 83800 333 20068 31/// 81840
AAXX 08064 89002 41897 71121 11076 21094 39640 49693 54000 73733 8307/ 333 92921
AAXX 08064 71915 11569 70611 11218 21255 39762 49844 51013 69901 77177 84501 333 11217 21263 48045 79999 90983 555 19999 29999
AAXX 08064 71432 16/// /2512 10021 21024 30018 40115 56005 60001 333 10029 20001 70000 555 32924 40011
AAXX 08064 71434 16/// /2305 11201 21220 39925 49992 56007 60001 333 11068 70000 555 33023 40101
BBXX 46183 08061 99536 71311 46/// /1404 10047 40332 57009 22200 00081 11000 70002 333 91204
AAXX 08064 71063 16/// /1902 11017 21039 39979 40078 58006 60001 333 11001 21020 70000
AAXX 08064 71217 16/// /2405 11089 21120 60001 333 11018 21093 70006 555 30121 40201
AAXX 08064 71224 16/// /3402 11116 21138 60001 333 11055 21126 70000 555 30223 40231
AAXX 08064 71767 17/// /3310 11004 21047 39844 40106 51011 60031 7//4/ 333 10008 21026 70025 555 10010 20025 32723 40021
AAXX 08064 71189 46/// /1004 11006 21019 6///1 333 11006 21038 7////
AAXX 08064 71343 16/// /3201 11095 21137 60001 333 11013 21095 70004 555 30219 40231
AAXX 08064 71345 16/// /3205 11094 21144 60001 333 11028 21094 70004 555 30320 40231
AAXX 08064 71979 16/// ///// 11272 21296 38550 40291 58015 60001 333 11075 21274 70000
AAXX 08064 71276 16/// ///12 11166 21197 60001 333 11071 21166 70000
AAXX 08064 61017 31958 50424 10170 21031 39763 40171 7072/ 80002 333 00900 20170 50754 55098 59006 85080
AAXX 08064 61024 32960 31012 10170 21016 39583 40150 80002 333 01100 20154 51581 59001 83080
AAXX 08064 61036 31956 70806 10220 21005 39886 40122 7052/ 80008 333 01700 20192 51211 50024 55076 58006 87280
AAXX 08064 61043 32960 50612 10204 21050 39692 40130 80002 333 0//00 20200 51421 55086 58006 85080
AAXX 08064 61045 32965 70000 10165 21046 39646 40145 80008 333 00400 20155 50090 55083 59001 87280
AAXX 08064 61049 32960 70804 10156 20012 39815 40137 80008 333 01300 20145 51041 50934 55104 58009 87280
AAXX 08064 61052 31930 50608 10224 21050 39878 40133 70622 80002 333 01500 20204 51121 55090 58009 85080
AAXX 08064 61075 32960 50000 10195 20016 39831 40129 80002 333 01700 20195 51291 50874 55075 58007 85080
AAXX 08064 61080 31957 71004 10164 21043 39720 40143 7062/ 80008 333 00900 20160 51271 51124 55085 58011 87280
AAXX 08064 61090 32960 70404 10166 21028 39628 40139 80008 333 01400 20165 51221 51054 55088 58002 87280
AAXX 08064 61091 31956 70000 10145 20017 39696 40154 70622 80008 333 00900 20140 50641 50564 55090 58004 87280
AAXX 08064 61096 32960 70404 10155 21068 39762 40146 80008 333 01300 20148 51261 50934 55099 58007 87280
AAXX 08064 61099 31956 70610 10232 21008 39879 40106 7062/ 80008 333 01900 20225 51071 55089 58004 87280
AAXX 08061 10338 01475 72806 10047 20030 30073 40147 51056 60052 70262 875// 333 10064 20042 32003 55002 55300 20000 30000 69907 70085 81613 85620 85650 91117 91211
AAXX 08061 50434 32980 02902 11221 21272 39449 40468 57016 333 21392
AAXX 08061 50527 32968 50000 11260 21287 39582 40487 57008 80002 333 21325
AAXX 08061 50603 32980 02903 11170 21212 39710 40468 57010 333 21287
AAXX 08061 50632 32980 02905 11171 21227 39428 40418 57014 333 21264
AAXX 08061 50727 11980 13603 11202 21253 39143 40465 57007 69901 70070 80002 333 21299
AAXX 08061 50915 11980 73402 11151 21211 39363 40457 57003 69911 70070 80002 333 21188
AAXX 08061 51716 31958 72201 11037 21047 39067 40432 57002 72840 80002 333 00053 21068
AAXX 08061 51765 32980 32202 10014 21101 39386 40447 57003 80002 333 00151 21125
AAXX 08061 51777 32962 02501 10013 21121 39339 40442 57007 333 00203 21092
AAXX 08061 51811 11965 73601 11017 21057 38937 40428 57007 69901 70070 85032 333 00000 21054
AAXX 08061 51828 11865 83203 11027 21050 38777 40421 57008 69901 77070 885// 333 00152 21043
AAXX 08061 52267 32980 70901 11063 21189 39281 40471 57016 80002 333 05152 21152
AAXX 08061 52323 32980 73602 11062 21162 38348 57006 83042 333 05102 21218
AAXX 08061 52495 32980 01802 11043 21197 38825 40465 57022 333 05102 21195
AAXX 08061 53149 32980 22903 11120 21178 38935 40494 57008 80002 333 00205 21225
AAXX 08061 53192 32980 32503 11183 21221 39042 40512 57007 80002 333 21249
AAXX 08061 53231 32980 82502 11096 21183 38617 57016 80007 333 05103 21208
AAXX 08061 53336 32980 21601 11102 21171 38866 40479 57019 80002 333 00102 21186
AAXX 08061 53391 32980 02905 11168 21208 38626 40496 57009 333 00351 21219
AAXX 08061 53529 32980 02901 11053 21218 38758 40450 57027 333 00151 21163
AAXX 08061 53543 32980 03602 11088 21181 38665 40465 57018 333 21164
AAXX 08061 53723 32975 00703 11055 21164 38794 40446 57022 333 00052 21138
AAXX 08061 54012 11975 72906 11174 21217 39162 40461 57004 69901 77077 80002 333 21207
AAXX 08061 54026 32980 23403 11076 21218 30035 40386 57016 80002 333 21155
AAXX 08061 54027 32980 13403 11090 21217 39766 40404 57007 81030 333 21164
AAXX 08061 54208 32980 22906 11163 21210 38882 40479 57005 80002 333 21209
AAXX 08061 54776 32580 73416 11022 21059 30234 40294 57012 874// 333 21023 91124 91534
AAXX 08061 56004 32680 62909 11022 21206 35838 57006 86900 333 00000 21160
AAXX 08061 56033 32580 62905 11042 21250 36020 57013 81101 333 05100 21169
AAXX 08061 56046 32780 71101 11002 21161 36246 57023 83502 333 00051 21106
AAXX 08061 56193 NIL
AAXX 08061 56196 32774 80403 10096 21055 40312 57033 8147/ 333 00252 20066
AAXX 08061 56287 11970 82701 10076 20031 40319 57030 69961 70060 8807/ 333 00253 20067
AAXX 08061 56684 11560 80902 10015 21014 37939 57027 60011 70070 885// 333 00259 20007
AAXX 08061 56751 32780 31604 10173 20013 38023 57030 83400 333 05151 20093
AAXX 08061 56786 11556 82903 10043 20023 38150 57029 69901 76060 885// 333 00364 20031
AAXX 08061 56977 32580 71602 10209 20157 40158 57025 87800 333 05101 20102
AAXX 08061 57259 31975 2//// 70040 82030 333 20005
AAXX 08061 57279 32965 60202 10076 21039 40366 57025 86030 333 20029
AAXX 08061 57348 32870 83603 10103 21005 40313 57032 885// 333 20094
AAXX 08061 57399 32962 03408 10093 21054 40344 57017 333 20058
AAXX 08061 57554 32868 80403 10076 21001 40340 57027 885// 333 20059
AAXX 08061 57793 11618 82902 10077 20077 40311 57017 69911 76000 885// 333 20068
AAXX 08061 58345 11561 43402 10074 20002 40322 57013 69951 70060 84100 333 20052
AAXX 08061 58506 11/00 93603 11007 21008 40327 57016 69921 74576 333 21008
AAXX 08061 58813 11467 83603 10081 20064 40286 57014 69951 76066 887// 333 20077
AAXX 08061 58834 11765 82901 10121 20088 40249 57015 60011 70060 885// 333 20120
AAXX 08061 58926 32780 80203 10149 20084 40221 57017 8757/ 333 20147
AAXX 08061 58944 11570 80705 10163 20119 40212 57013 69901 70060 885// 333 20163
AAXX 08061 59096 32575 83603 10134 20060 40239 57025 885// 333 20126
AAXX 08061 59102 32680 70203 10113 20052 40244 57022 875// 333 20106
AAXX 08061 59278 11580 70203 10179 20073 40211 57033 69901 70060 878// 333 20134
AAXX 08061 59456 32580 60403 10155 20073 40197 57033 81140 333 20136
AAXX 08061 59493 32963 13604 10212 20121 40175 57025 81040 333 20186
AAXX 08061 59658 32980 63403 10204 20102 40172 57030 82042 333 20156
AAXX 08061 59673 32973 23615 10183 20107 40170 57030 82040 333 20165 91120 91536
AAXX 08061 59845 11458 80201 10180 20149 40173 57024 69961 71060 888// 333 20178
AAXX 08061 01212 16/// /1808 10023 21049 39971 49987 51010 60004 333 20019 70000 91112
AAXX 08061 60379 16/// /1401 10079 20079 69924 333 20077
AAXX 08061 60380 16/// /0000 10036 20035 69924 333 20035
AAXX 08061 60394 16/// /0000 10050 20049 69924 333 20047
AAXX 08061 60374 36/// /1004 10089 20088 333 20089
AAXX 08061 60613 36/// /0000 10065 21032 333 20062
BBXX 46131 08061 99499 71250 46/// /3106 1//// 40329 54000 22200 00072 10200 70002 333 91206
BBXX 46131 08061 99499 71250 46/// /3106 1//// 40329 54000 22200 00072 10200 70002 333 91206
AAXX 08061 51747 31950 02501 11025 21112 39083 40452 57009 70600 333 00052 21158
AAXX 08064 45011 47967 /3512 10214 20127 40177 57024 70010 333 58017
AAXX 08061 53698 32965 03602 10036 21132 40391 57023 333 21032
BBXX BAREU62 08064 99405 10270 46/// ///// 40174 52005 22214
BBXX BAREU06 08064 99376 70094 46/// ///// 40280 57003 22284
BBXX BAREU12 08064 99529 10039 46/// ///// 40144 52022 22254
BBXX BAREU00 08064 99394 70740 46/// ///// 40003 52051 22243
AAXX 08061 40001 32970 00302 10039 21039 40224 53007 333 20013 30///
AAXX 08061 40007 32560 61005 10058 20043 40184 50001 85550 333 20022 30/// 85630 86360
AAXX 08061 40025 11560 71304 10146 20117 40145 57009 60072 70266 87800 333 20134 31/// 83826 85630
AAXX 08061 40045 32970 20000 10024 21050 40217 55000 80002 333 21010 30/// 82070
AAXX 08061 40061 32970 20000 11006 21087 40204 53003 80002 333 21033 30/// 82070
AAXX 08061 40080 32970 00000 11030 21110 39477 40217 53006 333 21068 30///
AAXX 08061 40087 NIL
AAXX 08061 40095 NIL
BBXX 41053 08061 99185 70661 46/// /1902 10260 40117 90550 333 91204
BBXX 41053 08061 99185 70661 46/// /1902 10260 40119 90540 333 91203
AAXX 08064 17112 12965 01003 10035 20019 30179 40181 53001 60042 333 20035 32001 5///4 55005 20046 70078 91111 92417
AAXX 08064 86330 32998 41208 10198 20087 40120 56008 80006
AAXX 08064 86360 NIL
AAXX 08064 86460 NIL
AAXX 08064 86490 NIL
AAXX 08064 86530 NIL
AAXX 08064 86545 32997 00000 10146 20135 40158 52///
AAXX 08064 86565 31396 70000 10132 20128 40139 56011 71011 87600
AAXX 08064 86580 41/97 0//// 10164 20154 40148 57009 702//
AAXX 08061 35108 32997 71805 11119 21154 30255 40304 52007 87049 333 21128
AAXX 08061 35217 32998 31407 11112 21132 30275 40316 52004 80001 333 21132
AAXX 08061 35302 32998 51806 11116 21136 30269 40289 52002 80001 333 21118
AAXX 08061 35406 32997 71507 11113 21157 30295 40297 53004 87050 333 21120
AAXX 08064 08451 02970 30000 10057 20054 30247 40281 55004 60002 80008 333 20056 3/004 55079 60007 70000
BBXX 45137 08061 99455 70810 46/// /3209 10009 39877 40094 52015 22200 00064 10503 70013 333 91211
BBXX 46204 08061 99514 71288 46/// /3005 10059 40339 57001 22200 00082 11103 70014 333 91206
BBXX VROB 08064 99068 31470 46/// /1208 10298 20225 30014 40038 57009 22200 04311 85245
BBXX FHZI 08064 99556 31425 46/// /2913 10036 20014 39928 49939 52036 22283 04021 85026
BBXX SHIP 08064 99213 31503 41/98 11120 10250 40041 70200 22234
AAXX 08064 91650 11599 30405 10280 2025/ 40076 53011 60001 70200 83100 333 569// 83820
AAXX 08064 91652 NIL
AAXX 08064 91656 NIL
AAXX 08064 91659 NIL
AAXX 08064 91660 NIL
AAXX 08064 91669 36/// /11// 10279 20258 40094 52008
AAXX 08064 91670 36/// /0100 10274 20223 40088
AAXX 08064 91676 14/// /0602 10270 20233 30029 40089 50013 60001
AAXX 08064 91680 11599 72104 10282 20234 40094 53012 60001 71592 8683/ 333 5699/ 84828 84645
AAXX 08064 91682 NIL
AAXX 08064 91683 11599 60409 10280 20238 40093 53013 60001 70211 84833 333 56199 84820 86364
AAXX 08064 91691 14/// /0301 10284 20237 30101 40104 50015 60001
AAXX 08064 91693 11599 62005 10270 2024/ 40092 53012 60001 70222 8283/ 333 5649/ 82825 85362
AAXX 08064 91697 14/// /1602 10264 20223 30100 40105 50014 60001
AAXX 08064 91699 14/// /0902 10264 20232 30084 40116 50011 60001
AAXX 08064 03896 16/// ///// 10111 60002 333 20090 55018
BBXX VROB 08064 99068 31470 46/// /1208 10298 20225 30014 40038 57009 22200 04311 85245
BBXX FHZI 08064 99556 31425 46/// /2913 10036 20014 39928 49939 52036 22283 04021 85026
BBXX SHIP 08064 99213 31503 41/98 11120 10250 40041 70200 22234
BBXX 46204 08061 99514 71288 46/// /3005 10059 40339 57001 22200 00082 11103 70014 333 91206
BBXX 44029 08061 99425 70706 46/10 /3512 10069 49949 58050 90604 22200 00098 10503 70013 333 91214 555 11145 22154
BBXX 44030 08061 99432 70704 46/// /3510 1//// 49969 56046 90604 22200 00094 10502 70010 333 91211 555 11119 22127
BBXX 45137 08061 99455 70810 46/// /3209 10009 39877 40094 52015 22200 00064 10503 70013 333 91211
BBXX 42363 08061 99282 70892 46/// /3608 10111 20039 40261 90615 333 91209
BBXX 42363 08061 99282 70892 46/// /0109 10111 20033 40261 90630 333 91209
BBXX 42364 08061 99291 70881 46/// /0108 10094 20044 40258 90615
BBXX 41036 08061 99342 70770 46/// ///// 10128 20073 40126 90620 22200 00174
AAXX 08061 01415 16/// /1504 10020 20002 30015 40026 51008 6//// 333 21046 4/001 70033 91108
AAXX 08061 21802 42999 00000 11340 21355 30131 40158 57006
AAXX 08061 24125 42998 20000 11270 21288 39848 40153 57016 82021
AAXX 08061 24136 41999 20000 11321 21350 30065 40274 57012 70271 82070
AAXX 08061 24143 41597 82307 11247 21278 30140 40194 52017 77173 84025
AAXX 08061 24266 42999 00000 11403 21432 30031 40235 57023
AAXX 08061 24329 41998 80000 11241 21266 39850 40173 57027 77171 8802/
AAXX 08061 24343 41495 81504 11266 21290 30083 40214 57027 77373 8672/ 333 86715
AAXX 08061 24382 42999 20000 11397 21422 39974 40263 57021 80001
AAXX 08061 24639 41997 82305 11181 21207 30073 40234 57044 77173 8802/
AAXX 08061 24641 41998 82102 11173 21192 30086 40237 57036 77172 8807/
AAXX 08061 24652 41598 81005 11300 21330 30167 40305 57029 72682 82331
AAXX 08061 24656 41998 81102 11302 21339 30223 40338 57021 77172 82037
AAXX 08061 24671 42998 80000 11392 21411 39757 40344 57018 86031
AAXX 08061 24688 41999 60000 11416 21449 39320 40387 57015 70411 85031
AAXX 08061 24724 41996 82305 11179 21205 39657 40216 57035 77373 8807/ 333 91110
AAXX 08061 24738 41995 81904 11183 21189 30062 40249 57059 77372 8802/
AAXX 08061 24768 41998 72401 11277 21312 30061 40320 57020 70272 87030
AAXX 08061 24923 41596 82307 11157 21191 39960 40285 57055 77173 885// 333 88623 91114
AAXX 08061 24944 41699 82602 11194 21213 30016 40329 57039 70272 85502
AAXX 08061 24951 41999 72602 11228 21253 30156 40338 57031 70232 87030
AAXX 08061 24661 42999 80000 11325 21348 30027 40329 57021 82037
AAXX 08061 24959 41998 80201 11296 21326 30171 40315 57020 77172 8803/
AAXX 08061 24962 41998 82202 11223 21248 30111 40314 57022 72272 8807/
AAXX 08061 24966 41595 80501 11299 21323 30082 40325 57018 77372 8652/ 333 86620
AAXX 08061 24967 42999 82601 11197 21223 30098 40333 57022 80005
AAXX 08061 25206 41999 72102 11288 21312 30169 40199 57014 70272 82031
AAXX 08061 25400 42999 31801 11334 21362 30155 40218 57006 80001
AAXX 08061 30054 41995 82004 11169 21203 30079 40337 57047 77371 86047
AAXX 08061 30089 41999 80000 11219 21237 30130 40374 57036 70272 83072
AAXX 08061 30393 42599 81701 11267 21285 39261 40418 57027 81531
AAXX 08061 30493 42999 80000 11196 21237 39251 40377 57024 80001
AAXX 08061 31004 41597 82402 11195 21221 39467 40366 57027 77172 83537
AAXX 08061 31137 42999 60000 11301 21332 39240 40399 58026 83011
AAXX 08061 30157 42998 81603 11215 21255 30098 40408 58042 83031
BBXX 46088 08061 99483 71232 46/// /3505 10053 40318 90620 22200 00082 1//00 70002 333 91207 555 11047 22048 30534 40107 60619 347044 347032 341033 340043 015052 017041
BBXX 46088 08061 99483 71232 46/// /3505 10053 40318 90620 22200 00082 1//00 70002 333 91207 555 11047 22048 30534 40107 60619 347044 347032 341033 340043 015052 017041
BBXX 46087 08061 99485 71247 46/// /0904 10060 20037 40315 90620 22200 00083 333 91205 555 11044 22045 30524 40807 60619 085042 080045 056039 054042 070050 077058
BBXX V7HC6 08064 99273 70907 41697 70314 10120 20102 40248 56004 70222 84477 22200 00233 20602 305// 40702 5//// 6//// 80110 ICE /////
BBXX ONDE 08063 99360 11410 41897 80420 10090 20070 40080 54000 75055 8896/ 22200 00170 20604 336// 4//// 5//// 6//// 80080 ICE /////
BBXX ZCDM8 08063 99440 70036 41598 72118 10151 20128 40285 54000 70222 86479 22263 00152 20303 335// 40607 5//// 80138
BBXX WDA5598 08064 99601 71458 41396 80955 10006 2//// 40173 57/// 76976 8762/ 22272 0//// 20000 309// 4//07 5//// 6//// 8//// ICE /////
BBXX C6VG7 08064 99188 70793 41497 70625 10219 2020/ 40128 57001 78280 863// 22275 00280 20303 336// 4//// 5//// 6//// 80208 ICE /////
BBXX C6TQ6 08064 99168 70874 41797 20217 10240 20196 40170 52020 70211 82967 22232 00270 20204 31920 40204 50104 6//// 80210 ICE /////
BBXX ZCDG8 08063 99121 70645 41698 80932 10270 20234 40109 58010 72522 8/340 22224 00290 20204 319// 40204 5//// 80245
BBXX WKAB 08063 99331 70780 41397 73240 10125 20098 40140 52075 7//62 87/// 22255 00227 20806 319// 40809 5//// 6//// 80110 ICE /////
BBXX A8SG3 08064 99166 50761 41397 81420 10200 20153 40130 56005 70311 87778 22244 04220 29906 80170
BBXX BAREU11 08064 99139 50769 46/// ///// 40130 57017 22284
BBXX DFFA2 08063 99362 50735 41997 11930 10140 20105 40175 54000 70111 80007 22245 00130 20506 3//// 4//// 5//// 80120
BBXX AVBC 08063 99251 10530 41597 43118 10260 20170 40247 70301 84000 22270
BBXX SHIP 08064 99229 11609 41497 21504 10267 20227 40133 53003 71511 82200 22223 04261 20301 30508 40704 50703
BBXX SHIP 08064 99423 11638 41798 32813 10100 20081 40055 57003 70121 83131 22223 00110 20203 311// 40304 80090
BBXX SHIP 08064 99149 11317 41397 50820 10280 20253 40076 50009 70211 85523 22293 00295 20603 305// 40807 5//// 80260
BBXX SHIP 08064 99317 11468 41598 72322 10215 20161 40092 50041 70322 8556/ 90600 22262 00220 20302 305// 40506 80180
BBXX SHIP 08064 99168 11493 41899 33233 00/// 10300 20274 40097 55001 70111 84235 9//// 22243 00290 1//// 20202 306// 40202 5//// 6//// 80280
BBXX SHIP 08063 99278 11337 41/98 72328 10250 20222 40135 57015 70322 8/456 22243 00240 20303 320// 40306 80230
BBXX SHIP 08064 99307 11344 41393 70234 10170 20154 40115 57025 76266 86676 22284 00220 20605 301// 40707 80160
BBXX SHIP 08064 99211 11428 41/97 70816 10261 40115 57010 70311 874// 9//// 22273 00278 20201 304// 40604
BBXX 7JJA 08064 99135 11138 41796 80420 00 10270 40085 57015 75166 86650 9//// 22213 00290 2 04 302 4 04 5 6//// 80260 ICE/////
BBXX SHIP 08064 99268 11680 41397 51816 10255 20231 40157 53006 70311 84231 22263 06260 20202 33212 40908 50604 80238
BBXX JPBN 08064 99342 11486 41/97 82526 10198 20130 40074 55012 78082 882// 22241 00213 1//03 20503 30427 41003 50802 70017
BBXX JGQH 08064 99288 11370 41/98 62129 10251 20185 40087 56029 70122 83231 22241 00238 1//03 20402 320// 40802 70015
BBXX ONDE 08063 99360 11410 41897 80420 10090 20070 40080 54000 75055 8896/ 22200 00170 20604 336// 4//// 5//// 6//// 80080 ICE /////
BBXX DGXS 08064 99252 11207 41497 52814 10175 20151 40200 55030 75852 83217 22254 00220 21608 30202 41609 51308 80160
BBXX A8NO8 08064 99098 11099 41/95 80125 10290 20249 40080 56020 76566 8//// 22255 04290 20306 30000 80260
BBXX 46204 08061 99514 71288 46/// /3005 10059 40339 57001 22200 00082 11103 70014 333 91206
BBXX 41053 08061 99185 70661 46/// /1902 10260 40117 90550 333 91204
BBXX 41053 08061 99185 70661 46/// /1902 10260 40119 90540 333 91203
BBXX BAREU00 08064 99394 70740 46/// ///// 40003 52051 22243
BBXX 46131 08061 99499 71250 46/// /3106 1//// 40329 54000 22200 00072 10200 70002 333 91206
BBXX 46183 08061 99536 71311 46/// /1404 10047 40332 57009 22200 00081 11000 70002 333 91204
BBXX A8CI8 08064 99450 70456 41/94 /2007 10100 40180 50000 74944 8//// 22263 04100 20905 320// 40805
BBXX SHIP 08064 99499 71504 41697 81824 10100 2008/ 40256 57049 75152 87720 22274 00160 20204 318// 40707 5//// 6//// 80090 ICE /////
BBXX DARU 08064 99350 70745 41298 82645 10180 20121 40085 52020 70062 8/72/ 22252 04230 21214 80145
BBXX WDB9918 08064 99411 71258 41/98 /3630 10111 2009/ 40221 54000 70200 8//// 22273 00117 2//// 3//// 4//// 5//// 6//// 80100 ICE /////
BBXX 46147 08061 99518 71312 46/// /1304 10058 40335 57006 22200 00083 11002 70012 333 91205
BBXX 41053 08061 99185 70661 46/// /1802 10257 40116 58013 90600 22200 00280 11204 70021 333 91203
BBXX 42085 08061 99179 70665 46/// /0504 10268 40116 90550 333 91205
BBXX 42085 08061 99179 70665 46/// /0404 10269 40117 90540 333 91204
BBXX 41112 08061 99307 70813 46/// ///// 1//// 90552 22200 00169 10402 20402 308// 41201 70009
BBXX 46114 08061 99364 71222 46/// ///// 1//// 90604 22200 00108 11303 20502 326// 41301 70013
BBXX 46221 08061 99339 71186 46/// ///// 1//// 90545 22200 00153 11401 20401 323// 41401 70006
BBXX 51205 08061 99210 71564 46/// ///// 1//// 90618 22200 00245 12204 20803 331// 42203 70022
BBXX 41052 08061 99183 70648 46/// /0204 10268 40109 90550 333 91205
BBXX 42085 08061 99179 70665 46/// /0603 10268 40115 57012 90600 22200 00284 10501 70006 333 91204
BBXX 41052 08061 99183 70648 46/// /0204 10269 40109 90540 333 91205
BBXX 41052 08061 99183 70648 46/// /0304 10269 40108 56014 90600 22200 00279 333 91205
BBXX 44098 08061 99428 70702 46/// ///// 1//// 90607 22200 00097 10603 20603 309// 41101 70015
BBXX 44039 08061 99411 70727 46/// /3511 10101 20101 49929 57050 90600 22200 00114 10402 70008 333 91216
BBXX 44034 08061 99441 70681 46/30 /0209 10063 49971 56042 90604 22200 00093 10503 70014 333 91211 555 11116 22122
BBXX ZCDG8 08063 99121 70645 41698 80932 10270 20234 40109 58010 72522 8/340 22224 00290 20204 319// 40204 5//// 80245
BBXX WECH 08064 99329 71206 43498 43219 10144 2010/ 40217 52023 7//// 8469/ 22255 00150 2//// 3//// 4//// 5//// 6//// 80122 ICE /////
BBXX 46211 08061 99469 71242 46/// ///// 1//// 90606 22200 00086 10803 20803 328// 41101 70015
BBXX 46222 08061 99336 71183 46/// ///// 1//// 90556 22200 00156 10401 20401 70006
BBXX 46223 08061 99335 71178 46/// ///// 1//// 90600 22200 00155 11301 20401 318// 41301 70005
BBXX 46231 08061 99327 71174 46/// ///// 1//// 90554 22200 00157 11301 21001 322// 41301 70005
BBXX 46212 08061 99408 71243 46/// ///// 1//// 90612 22200 00094 11303 21002 329// 41302 70013
BBXX 46240 08061 99366 71219 46/// ///// 1//// 90612 22200 00115 11101 20501 335// 41101 70007
BBXX 46237 08061 99378 71226 46/// ///// 1//// 90610 22200 00114 11302 21001 325// 41301 70008
BBXX 46217 08061 99342 71194 46/// ///// 1//// 90612 22200 00147 11201 20801 327// 41201 70006
BBXX 46216 08061 99343 71198 46/// ///// 1//// 90557 22200 00146 11201 20501 70005
BBXX 41115 08061 99184 70673 46/// ///// 1//// 90605 22200 11004 21003 300// 41102 70018
BBXX 41114 08061 99276 70802 46/// ///// 1//// 90616 22200 00242 11003 21003 306// 41101 70014
BBXX 46241 08061 99330 71173 46/// ///// 1//// 90541 22200 00145 11301 20901 326// 41301 70004
BBXX 45137 08061 99455 70810 46/// /3209 10009 39877 40094 52015 22200 00064 10503 70013 333 91211
BBXX 46249 08061 99338 71197 46/// ///// 1//// 90615 22200 00146 11402 20501 323// 41401 70008
BBXX 46248 08061 99461 71247 46/// ///// 1//// 90604 22200 00084 10803 20803 328// 41202 70017
BBXX 46244 08061 99409 71244 46/// ///// 1//// 90605 22200 00097 11203 20802 331// 41202 70015
BBXX VCXF 08064 99464 70484 41597 81928 10051 2005/ 40149 57015 76162 885// 22200 02040 20402 316// 40803 80051
BBXX VOXS 08064 99467 70480 41496 81821 10041 2004/ 40152 56016 76162 885// 22200 04027 20402 317// 40803 80040
BBXX 46207 08061 99509 71299 46/// /2701 10066 40339 57005 22200 00085 11203 70013 333 91202
BBXX WXJ63 08063 99611 71464 41/94 80505 11037 21046 40184 57/// 771// 8//// 222// 00050 2//// 3//// 4//// 5//// 6//// 8//// ICE /////
BBXX 46111 08061 99481 71227 46/// /0205 10065 40310 50000 90600 22200 00064
BBXX 46112 08061 99481 71227 46/// /3305 10064 40311 50000 90600
BBXX 41029 08061 99328 70796 46/// /3109 1//// 90600 555 11121 22143
BBXX 44033 08061 99441 70690 46/30 /0109 10056 49969 58050 90604 22200 00088 10601 70007 333 91211 555 11109 22115
BBXX 42067 08061 99300 70886 46/// /0509 10041 20016 40258 90540 22200 00188 10402 70012 333 91212
BBXX V2QD4 08063 99342 31691 41597 51911 10180 20164 40176 51010 70211 85588 22263 00200 204// 317// 41204
BBXX ZMFR 08064 99513 31667 43/// /27// 10086 20023 40129 52018 22211 00088
BBXX SHIP 08064 99282 30816 41498 21118 10220 20175 40178 56008 70111 8213/ 22224 00213 20603 309// 40806 80190
BBXX VQIC2 08064 99345 31734 41798 32215 10188 20130 40166 54000 71900 81144 22233 00210 20402 322// 41802 5//// 80155
BBXX SHIP 08064 99074 30881 41497 72919 10279 20243 40072 58006 70322 82416 22261 00280 10804 20302 32926 40706 50605 85252
BBXX MINFR09 0806/ 99230 31110 46/// ///// 40079 57012
BBXX TBWUK35 08064 99624 10040 41/98 /1732 10050 20031 49947 50002 70382 8/400 22243 00100 20304 80042
BBXX PHBO 08063 99497 70040 41/97 82128 10125 20091 40179 58024 70362 8/7// 22264 20503 80108
BBXX 62092 08064 99512 70105 46/// /2432 10130 20101 40100 56026 22200 00122 10811 70053 333 90710 91143
BBXX 62305 08064 99504 10000 46/97 /2219 10119 20079 40205 57021 22200 00131 10202 70008 333 90710 91126
BBXX A8JC5 08064 99408 70278 41598 51711 10160 20139 40255 57005 70222 859// 22264 00176 299// 3//// 4//// 5//// 80147
BBXX 62095 08064 99530 70159 46/// /2732 10096 20058 40012 53032 22200 00118 10914 70071 333 90710 91147
BBXX C6SI2 08064 99509 10015 41298 82721 10104 20059 40190 58022 70322 887// 22213 20601 322// 40603 5//// 80083
BBXX 63110 08063 99595 10015 41/98 /1915 10054 49988 700// 8//// 22200 10805 70025
BBXX 62107 08064 99501 70061 46/// /2431 10121 20078 40169 56029 22200 00123 10805 70025 333 90710 91138
BBXX 62305 08064 99504 10000 46/97 /2219 10119 20079 40205 57021 22200 00131 10602 70008 333 90710 91126
BBXX 62094 08064 99517 70067 46/// /2231 10114 20114 40096 56045 22200 00116 10608 70039 333 90710 91146
BBXX 62304 08064 99511 10018 46/98 /2419 10099 20048 40195 57009 22200 00122 10602 70008 333 90710 91126
BBXX 62170 08064 99514 10020 46/97 /2422 10091 20041 40190 57010 22200 00118 10602 70010 333 90710 91129
BBXX 62027 08064 99491 70022 46/// /2119 1//// 2//// 40213 57019 22200 00133 11104 310// 70020
BBXX 62163 08064 99475 70084 46/// /2420 10122 20080 40234 57019 22200 00134 10808 70039 333 90710 91127
BBXX 62103 08064 99499 70029 46/99 /2427 10122 20085 40186 58030 22200 00132 10703 70016 333 90710 91137
BBXX AMOUK27 08064 99582 70064 46/// ///// 10045 20035 39833 49836 57113 90550
BBXX AMOUK21 08064 99564 70055 46/// ///// 10059 20048 39900 49901 57104 90550
BBXX 62140 08064 99573 10013 46/// /23// 10070 20002 40027 57020 22200
BBXX 62146 08064 99572 10021 47/99 /2314 10069 21002 40036 57024 700// 22200 10605 70026
BBXX AMOUK05 08064 99534 10008 46/// ///// 10058 20028 30061 40100 57019 90550
BBXX AMOUK08 08064 99501 70061 46/// ///// 10125 20091 30164 40166 57030 90550
BBXX 62122 08064 99573 10016 47598 /2316 10086 20005 40034 57022 700// 22200 10605 70026
BBXX 62153 08064 99573 10020 47999 /2217 10070 21003 40033 57020 700// 22200 10605 70026
BBXX 62104 08064 99574 10013 47598 /2315 10072 20003 40022 57024 700// 22200
BBXX 62116 08064 99576 10011 47598 /2216 10066 20001 40017 58022 700// 22200 10605 70025
BBXX 62118 08064 99577 10009 47698 /2118 10085 20003 40009 57026 700// 22200 10605 70024
BBXX 62117 08064 99579 10000 47597 /2118 10068 20006 40003 57031 700// 22200 10604 70020
BBXX 62134 08064 99580 10014 47598 /2115 10065 21000 40015 58022 700// 22200 10605 70024
BBXX 62143 08064 99577 10018 47698 /2010 10067 21002 40024 57029 700// 22200 10605 70026
BBXX 62155 08064 99577 10007 47598 /2118 10069 20006 40015 57029 751// 22200 10605 70024
BBXX 62102 08064 99579 10018 46/// ///// 22200
BBXX 62114 08064 99583 10000 46/// /2016 10062 21001 49991 57032 22200
BBXX ZQSD5 08064 99583 10007 46/// /1916 10067 20014 40009 57025 22200 10905 70025
BBXX 62142 08064 99530 10021 469// /2416 10059 20024 40145 58012 22200 10605 70024
BBXX 62145 08064 99531 10028 47998 /2315 10065 20016 40149 58012 700// 22200 10606 70029
BBXX 62121 08064 99535 10027 46/// /2419 10073 20018 40139 58003 22200
BBXX 62144 08064 99534 10017 47998 /2221 10067 20033 40139 58020 700// 22200 10505 70025
BBXX 62150 08064 99536 10007 47998 /2219 10063 20023 40130 57022 700// 22200 10605 70023
BBXX 62149 08064 99537 10011 47998 /2322 10071 20027 40123 57025 700// 22200 10605 70025
BBXX LF4B 08064 99606 10037 47/98 /2402 10057 49996 57001 700// 22200 00060 10804 70018 333 91122
BBXX LF5T 08064 99660 10081 41698 51213 10046 21001 49967 57003 70222 85/// 22200 10705 70025 333 91126
BBXX 3ERR2 08064 99635 10053 41598 52316 10035 49953 57013 70222 8317/ 22200 06096 10904 70021 333 91126
BBXX ZCDM8 08063 99440 70036 41598 72118 10151 20128 40285 54000 70222 86479 22263 00152 20303 335// 40607 5//// 80138
BBXX IDDUK02 08064 99678 50689 46/// ///// 49741 222//
BBXX VQKZ6 08064 99401 70238 41398 60819 10150 20113 40279 57020 70266 83878 22254 02080 20302 328// 40605 5//// 80130
BBXX 64045 08064 99591 70117 46/// /0832 10049 20038 49716 57152 22200 00101 10709 70044 333 90710 91144
BBXX 62105 08064 99554 70121 46/// /2541 10106 20060 49812 56078 22200 00110 10813 70065 333 90710 91156
BBXX 62442 08064 99490 70164 46/// /2427 1//// 2//// 40166 57017 22200 00131 333 90710 91135
BBXX 62303 08064 99516 70051 46/// /2327 10120 20094 40116 56043 22200 00121 10606 70032 333 90710 91140
BBXX 64046 08064 99606 70049 46/// /1116 10048 20026 49896 57069 22200 00096 11008 70040
BBXX 62029 08064 99487 70125 46/// /2523 10134 20117 40186 56018 22200 00135 10808 70040 333 90710 91133
BBXX 62301 08064 99524 70047 46/// /2332 10108 20088 40086 56054 22200 00111 10606 70030 333 90710 91146
BBXX 62001 08064 99452 70050 46/// /2509 10142 20096 40278 57008 22200 00153 10907 70033
BBXX BATFR22 08064 99430 10081 46/// /2924 29066 40184 56019 22224 00149
BBXX OXHY2 08064 99450 70084 41/98 62610 10144 20118 40272 56022 70222 86/// 22214 00150 20804 3//// 4//// 5//// 80129
BBXX 61002 08064 99421 10047 46/// ///22 10150 2//// 40272 54000 22200 00158 10604 70022 555 1/028
BBXX 61001 08064 99434 10078 46/// /0405 10153 20119 40178 52022 22200 00160 10804 70022
BBXX BATFR42 08064 99507 70020 46/// /2517 10104 20087 40176 56045 22272 00137
BBXX BATEU05 08064 99601 10014 46/// /1605 10054 21006 49986 56016 22273
BBXX BATEU08 08064 99596 70333 46/// /3334 11005 21082 40091 53008 22223
BBXX BATUK01 08064 99560 70032 46/// /1808 10047 20009 49962 58094 22200 00044
BBXX BATFR52 08064 99487 70021 46/// /2119 10109 20084 40226 56001 22233 00129
BBXX BATEU06 08064 99498 70107 46/// /2439 10129 20105 40142 56021 22223 00134
BBXX BATFR24 08064 99427 10095 46/// ///// 10162 20054 40185 22213 00169
BBXX BATFR06 08064 99453 70015 46/// /2713 10142 20092 40283 56006 22241 00157
BBXX BATEU09 08064 99429 10095 46/// /2429 10165 20072 40177 22241 00182
BBXX BATFR31 08064 99433 10053 46/// /3017 10127 21160 40249 53059 22212 00165
BBXX BATFR01 08064 99431 10059 46/// /2813 10134 20052 40229 53006 22200 00152
BBXX BATFR04 08064 99573 70118 44/97 22441 10087 20045 4//// 700// 8//// 22242 00110
BBXX BATFR27 08064 99458 70042 44998 32517 10137 20057 40266 53008 700// 830// 22245 00152 327// 41208 5////
BBXX BATFR12 08064 99484 70069 46/// /2418 10129 20085 40214 56019 22241 00144
BBXX BATFR21 08064 99427 10089 46/// ///// 20075 40196 53010 22232
BBXX BATEU01 08064 99483 70268 44497 73420 10109 20094 40166 53018 70222 85341 22264 00129 21002 327// 41606 5////
BBXX BATFR09 08064 99359 70057 46/// /1217 10147 20104 40283 53002 22223 00184
BBXX BATFR60 08064 99503 70005 46/// /2319 10122 20069 40198 56022 22223 00124
BBXX BATFR20 08064 99415 10094 46/// /2817 10162 20087 40210 51007 22284
BBXX KSDF 08064 99361 10153 41498 22913 10178 20132 40235 54000 70200 821// 22233 0//// 20202 329// 40803 5//// 6//// 80150
BBXX TESTFR9 08064 99487 70021 46/// /2221 10107 29089 40242 57004 22235
BBXX BAREU60 08064 99436 10135 46/// ///// 40176 52028 22252
BBXX BAREU63 08064 99424 10098 46/// /3612 10167 29060 40193 52028 22243
BBXX BATFR02 08064 99507 70011 46/// /2217 10102 20067 40186 58040 22274 00114
BBXX BATFR15 08064 99494 10006 46/// /1806 10077 20052 40228 58009 22272 00099
BBXX LF3F 08064 99643 10078 41599 32106 10045 21031 49970 54000 70221 83500 22200 04090 10804 70021 333 91110
BBXX LF4C 08064 99584 10019 41599 32210 10046 20009 40016 57011 702// 89/// 22200 00077 10704 70022 333 91120
BBXX LF3N 08064 99653 10073 41598 51311 10052 21005 49958 57004 70282 8//// 22200 00091 10706 70030
BBXX 62131 08064 99539 10012 46/// /22// 10071 20031 40116 57020 22200
BBXX 62148 08064 99536 10015 46/// /2323 10070 20028 40135 57017 22200
BBXX 62132 08064 99564 10020 46/// /2617 10070 20009 40056 57025 22200
BBXX 62165 08064 99540 10009 47998 /2420 10071 20026 40117 57022 700// 22200 10505 70026
BBXX 62127 08064 99540 10007 47898 ///// 10070 20023 40109 57027 700// 22200 10605 70023
BBXX 62123 08064 99563 10022 47598 /2319 10072 20014 40056 57016 700// 22200
BBXX 62133 08064 99571 10009 46/// /2116 10070 21006 40027 57026 22200
BBXX 62120 08064 99564 10021 47598 /2419 10074 20012 40051 57020 700// 22200
BBXX 62152 08064 99570 10018 47/98 /2013 10071 20006 40043 57021 700// 22200 10505 70025
BBXX 62154 08064 99564 10022 46/// /2318 10072 20011 40052 57018 22200
BBXX MWYG6 08064 99603 70040 47998 /1315 10053 700// 22200
BBXX 62119 08064 99570 10019 47998 /2317 10071 20003 40042 57024 700// 22200 10605 70026
BBXX 62164 08064 99572 10008 47598 /2117 10084 20018 40030 57027 700// 22200 10605 70026
BBXX 64041 08064 99607 70026 47598 /1416 10049 20006 49931 57048 700// 22200 10907 70037
BBXX PJGO 08064 99571 10022 47598 /2106 10070 20011 40038 57022 700// 22200
BBXX 63115 08064 99616 10013 47698 /2312 10055 21042 49962 57009 700// 22200 10706 70032
BBXX 63101 08064 99612 10009 46/// /2509 10054 21044 49965 58009 22200
BBXX 63113 08064 99610 10017 46/// /2510 10058 21048 49974 58017 22200 10806 70028
BBXX 63112 08064 99611 10010 47/98 /2311 10062 21053 49967 58011 700// 22200 10706 70028
BBXX 63103 08064 99612 10011 46/// /2311 10057 21055 49970 58013 22200 10806 70029
BBXX 63117 08064 99613 10011 47698 /2210 10090 21051 49968 58010 700// 22200
BBXX 63105 08064 99610 10017 47997 ///// 10060 21044 49972 58012 700// 22200
BBXX 63108 08064 99608 10017 47998 /2210 10044 21050 49972 58011 700// 22200 10704 70021
BBXX 63106 08064 99610 10017 46/// /2411 10056 49972 58012 22200
BBXX 63107 08064 99611 10017 46/// /2313 10056 49970 58012 22200
BBXX 63104 08064 99612 10016 47698 /2410 10055 21040 49968 58009 700// 22200
BBXX 63056 08064 99597 10016 47998 /2013 10055 21004 49984 58012 700// 22200 10705 70023
BBXX PJAI 08064 99581 70014 47998 /1820 10075 21000 49965 57057 700// 22200
BBXX 63055 08064 99606 10016 47999 /2106 10056 21046 49978 58013 700// 22200 10704 70022
BBXX 62112 08064 99584 70002 47598 /2018 10061 21002 49987 57037 700// 22200
BBXX AMOUK16 08064 99523 70062 46/// ///// 10116 20090 30052 40056 57065 90550
BBXX 62111 08064 99580 70003 46/// /2221 10065 20000 49998 57039 22200 10604 70020
BBXX 63057 08064 99592 10015 47999 /1911 10053 21003 49994 57021 700// 22200 10705 70023
BBXX 62128 08064 99587 10014 47698 /1912 10057 20004 40003 58022 700// 22200 10705 70023
BBXX 62113 08064 99584 10002 47599 /2116 10060 20001 49998 57025 700// 22200
BBXX 62129 08064 99584 10003 46/// ///// 10062 20001 49997 57026 22200
BBXX AMOUK09 08064 99534 10012 46/// ///// 10074 20043 30109 40124 57011 90550
BBXX AMOUK19 08064 99573 70019 46/// ///// 10062 20023 39967 49970 54003 90550
BBXX AMOUK03 08064 99534 10005 46/// ///// 10056 20040 30079 40109 57015 90550
BBXX 62081 08064 99510 70134 46/// ///// 10131 20104 40086 56027 22200 00120 10811 70055
BBXX AMOUK10 08064 99508 70011 46/// ///// 10108 20074 30182 4//// 57010 90550
BBXX AMOUK14 08064 99535 70030 46/// ///// 10065 20036 30034 40069 57047 90550
BBXX AMOUK12 08064 99533 70047 46/// ///// 10115 20089 30013 40054 57073 90550
BBXX AMOUK06 08064 99507 70014 46/// ///// 10111 20086 30155 40171 57020 90550
BBXX AMOUK13 08064 99525 10018 46/// ///// 10042 20010 30153 40166 57009 90550
AAXX 08061 40001 32970 00302 10039 21039 40224 53007 333 20013 30
AAXX 08061 40007 32560 61005 10058 20043 40184 50001 85550 333 20022 30 85630 86360
AAXX 08061 40025 11560 71304 10146 20117 40145 57009 60072 70266 87800 333 20134 31 83826 85630
AAXX 08061 40045 32970 20000 10024 21050 40217 55000 80002 333 21010 30 82070
AAXX 08061 40061 32970 20000 11006 21087 40204 53003 80002 333 21033 30 82070
AAXX 08061 40080 32970 00000 11030 21110 39477 40217 53006 333 21068 30
AAXX 08061 40087 NIL
AAXX 08061 40095 NIL
BBXX BAREU00 08064 99394 70740 46/// ///// 40003 52051 22243
BBXX BAREU06 08064 99376 70094 46/// ///// 40280 57003 22284
BBXX BAREU12 08064 99529 10039 46/// ///// 40144 52022 22254
BBXX BAREU62 08064 99405 10270 46/// ///// 40174 52005 22214
AAXX 08061 60376 16/// /1603 10083 20083 69924 333 20081
AAXX 08061 60593 36/// /3605 10085 333 20078
AAXX 08061 40009 32565 50000 10056 20005 40179 54000 83530 333 20020 30 83630 85360
AAXX 08061 40016 32970 00000 10000 21059 40145 51005 333 21028 30
AAXX 08061 40022 11565 71102 10146 20124 40140 55001 60142 79599 87900 222// 20000 333 20132 32/// 84950 86632
AAXX 08061 40030 32970 30000 10065 21030 40165 54000 80002 333 20040 30 83070
AAXX 08061 40039 32970 60000 10035 20022 40186 54000 80008 333 20019 30/// 55081 70000 87270
AAXX 08061 40066 32570 52001 10136 20032 40150 56002 85400 333 20120 30 85626
AAXX 08061 40072 32970 00000 10030 21028 40225 54000 333 20000 30
AAXX 08061 40083 32970 31801 10050 21064 48478 54000 80005 333 20010 30 83070
AAXX 08064 04048 41/00 90948 11016 21024 49859 57005 77377 555 3//51
AAXX 08061 55299 32780 12708 10014 21259 35886 57013 81100 333 00252 21152
AAXX 08061 55591 32980 00401 10108 21185 36536 57024 333 00254 21033
AAXX 08061 56739 32578 22204 10197 20071 38362 57025 82100 333 05100 20098
AAXX 08061 56951 32680 42005 10225 20086 38508 57029 84200 333 05101 20097
AAXX 08061 56964 32580 31802 10231 20130 38718 40137 57026 83200 333 05101 20135
AAXX 08061 57328 11980 80000 10091 20029 39884 40304 57029 69901 76000 8807/ 333 20083
AAXX 08061 57411 32968 83602 10101 20022 39926 40306 57033 8807/ 333 20070
AAXX 08061 57447 11464 82001 10081 20062 39762 40319 57029 69901 76060 8172/ 333 20071
AAXX 08061 57662 32963 70402 10108 21013 30296 40341 57026 8704/ 333 20071
AAXX 08061 57745 32762 80203 10098 20012 39982 40318 57030 885// 333 20063
AAXX 08061 57972 11450 80202 10068 20054 30074 40307 57020 69971 76066 887// 333 20060
AAXX 08061 58203 32975 00208 10068 21087 30326 40369 57021 333 20024
AAXX 08061 58314 32662 63604 10076 21033 30240 40350 57017 86500 333 20049
AAXX 08061 58424 11760 40204 10080 21021 30311 40337 57016 69921 70060 84500 333 20052
AAXX 08061 59023 32578 80202 10126 20033 39956 40271 57027 888// 333 20116
AAXX 08061 59417 32573 80903 10170 20099 30063 40218 57034 888// 333 20145
AAXX 08061 59985 11580 80406 10256 20239 30105 40110 57025 69901 78000 882// 333 20247
AAXX 08061 59995 NIL
OOXX AAEMI 08064 99785 31731 57083 00521 46/// /1910 11064 21103 39744 49809 5//// 90600
BBXX 46185 08061 99524 71298 46/// /0302 10046 40342 57003 22200 00073 11401 70007 333 91203
AAXX 08061 10147 11159 42502 10026 20020 30104 40123 51053 60032 70181 83501 333 10055 20025 31100 55000 55300 20000 30000 40919 70124 82703 91114
BBXX 46185 08061 99524 71298 46/// /0302 10046 40342 57003 22200 00073 11401 70007 333 91203
AAXX 08064 64400 11458 71002 10232 20228 30085 40104 60764 71022 82132 333 01959 20220 50044 55016 59007 82810 84360 87080
AAXX 08061 24790 42999 30000 11385 21407 39388 40319 57013 80001
AAXX 08061 24988 42999 52903 11167 21226 39894 40159 57018 82031
AAXX 08061 25378 11694 83214 11136 21171 39942 49976 56002 60042 73873 8552/ 333 11132 85638 91124
AAXX 08061 25503 42999 00000 11371 21395 30092 40237 57008
AAXX 08061 25705 41698 82701 11288 21305 39853 40217 57007 77172 84537
AAXX 08061 25927 42698 13304 11204 21244 30094 40101 57010 81500
AAXX 08061 25932 42999 02702 11179 21270 30020 40059 57005
AAXX 08061 31152 41996 81802 11264 21296 39879 40322 57021 77172 8802/
AAXX 08061 31174 41599 63204 11106 21159 30196 40208 57010 70231 81501 333 91112
AAXX 08061 31489 42999 00000 11150 21220 30114 40237 57012
AAXX 08061 31866 42999 03205 11059 21206 30179 40185 55005
AAXX 08061 31959 42999 02202 11042 21177 30155 40199 58008
AAXX 08061 31989 42999 01102 11059 21201 30171 40227 55002 333 91112
AAXX 08061 32027 41999 62910 11115 21150 30148 40157 57006 73632 84032 333 91012 91114
AAXX 08061 32076 42599 73104 11074 21170 30103 40113 56004 81530 333 91006 91107
AAXX 08061 32099 42998 03512 11058 21115 30105 40113 57006 333 91014 91117
AAXX 08061 32121 41599 83505 11073 21112 30121 40144 57006 70231 84901 333 91007 91111
AAXX 08061 32213 42598 70201 11039 21068 39955 40019 57014 81501
AAXX 08061 32287 42599 71502 11163 21197 30043 40054 57008 85570
AAXX 08061 32408 42999 10902 11167 21201 39996 40036 57002 80001
AAXX 08061 32509 42999 03104 11083 21179 39992 40027 56005
AAXX 08061 32594 41497 71607 11028 21077 39978 40014 57011 78583 87900 333 91112
AAXX 08064 61017 31958 50424 10170 21031 39763 40171 7072/ 80002 333 00900 20170 50754 55098 59006 85080
AAXX 08064 61024 32960 31012 10170 21016 39583 40150 80002 333 01100 20154 51581 55/// 59001 83080 P 048
AAXX 08064 61036 31956 70806 10220 21005 39886 40122 7052/ 80008 333 01700 20192 51211 50024 55076 58006 87280
AAXX 08064 61043 32960 50612 10204 21050 39692 40130 80002 333 0//00 20200 51421 55086 58006 85080
AAXX 08064 61045 32965 70000 10165 21046 39646 40145 80008 333 00400 20155 50090 55083 59001 87280
AAXX 08064 61049 32960 70804 10156 20012 39815 40137 80008 333 01300 20145 51041 50934 55104 58009 87280
AAXX 08064 61052 31930 50608 10224 21050 39878 40133 70622 80002 333 01500 20204 51121 55090 58009 85080
AAXX 08064 61075 32960 50000 10195 20016 39831 40129 80002 333 01700 20195 51291 50874 55075 58007 85080
AAXX 08064 61080 31957 71004 10164 21043 39720 40143 7062/ 80008 333 00900 20160 51271 51124 55085 58011 87280
AAXX 08064 61090 32960 70404 10166 21028 39628 40139 80008 333 01400 20165 51221 51054 55088 58002 87280
AAXX 08064 61091 31956 70000 10145 20017 39696 40154 70622 80008 333 00900 20140 50641 50564 55090 58004 87280
AAXX 08064 61096 32960 70404 10155 21068 39762 40146 80008 333 01300 20148 51261 50934 55099 58007 87280
AAXX 08064 61099 31956 70610 10232 21008 39879 40106 7062/ 80008 333 01900 20225 51071 55089 58004 87280
AAXX 08064 89050 41396 83414 10003 21002 49830 52014 71022 8751/
AAXX 08064 89512 11395 81230 11084 21110 39628 49779 57019 69932 77372 8802/ 333 21085
AAXX 08064 89574 42498 80707 11042 21101 49730 52003 85670
AAXX 08064 89592 42998 50000 11032 21121 49705 52005 80001
AAXX 08064 89606 42998 21206 11289 21357 36205 47863 52002 80001 333 21367
BBXX NIL
BBXX NIL
BBXX NIL
BBXX NIL
BBXX NIL
AAXX 08064 06610 01673 12005 10040 20021 39690 40289 52009 60042 70161 81500 333 20039 32002 55000 55300 20000 60005 70095 81640 90768 93100 91110 91207
AAXX 08063 64401 31460 60000 10220 20216 39733 40107 60064 82570 333 01829 20210 50064 55024 59010 81616 86363
AAXX 08063 64450 11458 72804 10225 20212 39743 40095 69914 70362 8457/ 333 01918 20216 50184 55043 59012 84616 87463
AAXX 08063 64453 32960 63804 10203 20192 39/// 40/// 86030 333 01900 20190 50014 55035 5//// 86363
AAXX 08063 64456 32958 33202 10228 20216 39/// 40/// 80002 333 0//00 20215 50204 55092 5//// 83080
AAXX 08063 64458 31460 70000 10225 20217 39700 40086 71799 8597/ 333 01800 20212 50244 55/// 59006 84610 81926 87363 94942 95832
AAXX 08063 64459 31440 30000 10228 20221 39741 40102 71040 82202 333 01900 20215 50234 55/// 59008 82813 94923 95833
AAXX 08064 40250 32960 00000 10028 21176 39391 40200 54002 333 21020 301//
AAXX 08064 40265 31957 00000 10024 21120 39409 40229 52004 70500 333 21015 30106
AAXX 08064 40296 32960 00000 10104 20035 40205 54002 333 20075 30005
AAXX 08064 40310 32960 02801 10076 21066 38964 48507 54003 333 20010 31025
AAXX 08064 06670 02782 32306 10039 21011 39757 40281 53020 60032 8353/ 333 20035 32001 55000 55300 20000 60005 70137 82650 83656 90768 93100 91123 91212
AAXX 08064 06700 01585 42203 10041 20036 39787 40293 52007 60042 70186 84500 333 20035 32002 55000 55300 20000 60005 70163 81630 84640 90768 93100 91108 91205
AAXX 08064 06680 01/01 92622 11090 21096 37508 47034 52018 60282 77074 333 21098 47085 55000 55300 20000 69965 70796 90768 93112 91161 91236
AAXX 08064 06990 01750 80208 10074 21021 39708 40261 52016 60022 72522 886// 333 20042 32004 55000 55300 20000 60005 70182 88750 91136 91217
AAXX 08064 06760 32984 03505 10104 21050 39743 40189 53019 333 20069 30004 55018 55300 20000 70000 90768 93100 91120 91206
AAXX 08064 06720 01770 52312 10069 20022 39687 40269 52012 60022 70161 8502/ 333 20066 32006 55000 55300 20000 60005 70096 85450 90768 93100 91123 91216
AAXX 08064 41529 12697 40000 10172 20028 39801 40182 60001 82520 333 56990 59019 82640 82460
AAXX 08064 41598 11696 33102 10190 20059 39888 40159 60001 70400 83500 333 59018
AAXX 08064 41620 32997 03105 10110 21205 38615 48517 333 58013
AAXX 08064 41624 02997 03106 10200 21004 39965 40165 60001 333 59012 60007
AAXX 08064 41640 01695 60000 10200 20140 39903 40151 60001 70520 82530 333 56990 59014 60007 82644 84362
AAXX 08064 41660 11996 03108 10070 21045 38456 48547 60001 70500 333 59011
AAXX 08064 41675 11996 03608 10200 20031 30030 40174 60001 70500 333 58000
AAXX 08064 41712 12997 00504 10080 21106 39254 48545 60001 333 59008
AAXX 08064 41715 01996 03602 10205 20104 30109 40174 60001 70500 333 59004 60007
AAXX 08064 41756 01996 03608 10220 21074 30103 40168 60001 70504 333 58000 60007
AAXX 08064 41764 32996 03410 10220 20064 30114 40161 60001 333 58005 60007
AAXX 08064 41768 02996 03602 10230 20165 30141 40148 60001 333 59005 60007
AAXX 08064 41780 02996 00508 10250 20070 30137 40164 60001 333 58001 60007
AAXX 08064 40356 42960 01205 10040 21170 39210 48505 333 21020 59033 555 04410 50206
AAXX 08064 41515 02697 80000 10068 21054 38598 48558 60001 8552/ 333 5699/ 58013 60007 85650 83458
AAXX 08064 41560 22696 41803 10050 21024 38292 48522 60001 83430 333 59001 60007
AAXX 08064 41571 11694 60000 10160 20063 39583 40169 60001 70522 82530 333 56990 59022
AAXX 08064 41594 31996 03106 10200 20060 39946 40163 70500 333 59016
AAXX 08064 41685 32997 00000 10165 21018 38927 48512 333 58000
AAXX 08064 41710 02997 01802 10115 21106 39411 40200 60001 333 59014 60007
AAXX 08064 41718 11995 03604 10195 20067 30063 40168 60001 70500 333 58000
AAXX 08064 41739 02997 03608 10120 21123 39081 48528 60001 333 59004 60007
AAXX 08064 41744 32996 01802 10155 21019 38788 48512 333 58000
AAXX 08064 41749 01995 03104 10200 20109 30139 40173 60001 70400 333 58003 60007
AAXX 08064 40250 32960 00000 10028 21176 39391 40200 54002 333 21020 301//
AAXX 08064 40265 31957 00000 10024 21120 39409 40229 52004 70500 333 21015 30106
AAXX 08064 40296 32960 00000 10104 20035 40205 54002 333 20075 30005
AAXX 08064 40310 32960 02801 10076 21066 38964 48507 54003 333 20010 31025
OOXX AAPEG 08064 99779 31666 57186 00051 46/// /2015 11027 21063 39769 49775 5//// 90600
OOXX AABRI 08064 99839 51342 60134 05251 46/// /0610 11059 21213 39216 49834 5//// 90550
OOXX AAERI 08064 99849 51288 60048 09901 46/// /0716 11080 21090 38712 49823 5//// 90540
OOXX AALAU 08064 99775 31708 57070 00371 46/// /1910 11059 21086 39723 49769 5//// 90550
AAXX 08064 87641 32965 11809 10156 20144 39982 40153 57003 81030 333 56050 81360
AAXX 08061 01271 17464 81301 11016 21026 39969 49991 52013 60052 785// 333 21031 47009 70085 91104
AAXX 08061 01415 17/56 81504 10020 20002 30015 40026 51008 6//// 767// 333 21046 4/001 70033 91108
AAXX 08061 23973 41896 81803 11022 21028 30256 40319 52006 77187 8802/
AAXX 08061 23975 41598 82405 11028 21038 30218 40329 52001 78587 889//
AAXX 08061 23986 41498 82104 11054 21058 39678 40326 51003 78583 883// 333 95002
AAXX 08061 23987 41395 81903 11032 21043 30259 40335 52008 78582 889//
AAXX 08061 24606 41896 80000 11174 21193 39940 40223 57011 77172 86037
AAXX 08061 29253 41699 82002 11056 21067 30199 40374 52003 70282 8852/
AAXX 08061 29471 41496 82702 11040 21055 30154 40388 52005 78582 889// 333 88916
AAXX 08061 29481 41597 83102 11033 21041 30132 40376 52007 77172 8372/
AAXX 08061 29553 42976 22702 11035 21075 30033 40408 52002 80001
AAXX 08061 29562 41598 62703 11030 21064 39976 40403 54000 70282 82930
AAXX 08061 29581 41998 82704 11010 21029 30115 40376 58003 77187 8802/
AAXX 08061 29594 41596 82703 11027 21037 39983 40376 57007 78682 889//
AAXX 08061 29653 42998 70202 11020 21048 39913 40407 52006 87030
AAXX 08061 29675 41898 82601 11026 21068 39811 40415 58002 70272 8807/
AAXX 08061 29676 41696 82602 11009 21025 39953 40381 53003 77172 885//
AAXX 08061 29752 41599 72403 11042 21058 38977 48623 52001 70283 82549 333 91112
AAXX 08061 29759 41999 62503 11008 21050 39377 40416 58002 70282 86030
AAXX 08061 29766 41899 81104 11037 21062 30079 40444 58003 70272 8802/
AAXX 08061 29789 42599 82001 11054 21072 39199 40413 57003 85931
AAXX 08061 29864 42999 73203 11026 21067 39765 40430 58001 83031
AAXX 08061 29866 42699 80000 11022 21058 30106 40434 58003 885//
AAXX 08061 29869 42998 80601 11050 21053 30065 40454 57006 8802/ 333 95030
AAXX 08061 29956 42699 22303 11036 21084 39869 40443 58008 82501
AAXX 08061 30337 42598 70000 11216 21248 39958 40451 57031 82902
AAXX 08061 30405 41598 82301 11100 21113 39848 40401 57016 78582 8495/
AAXX 08061 30504 41598 82302 11132 21145 39739 40427 57015 78582 883//
AAXX 08061 30603 41996 81901 11149 21169 39834 40444 57012 71022 84036
AAXX 08061 30612 42999 81203 11226 21225 39892 40482 57013 80005
AAXX 08061 30622 41998 32101 11214 21232 39792 40502 57017 72272 82033
AAXX 08061 30627 42999 00203 11207 21216 39494 40491 57016
AAXX 08061 30703 42999 70000 11130 21157 39731 40446 58017 87050
AAXX 08061 36307 41999 61502 11184 21210 38971 48664 58001 70272 86030 333 95000
AAXX 08061 23074 41497 82306 11033 21047 30090 40115 52028 78583 889// 333 88910 91113
AAXX 08061 23274 41497 72505 11014 21028 30139 40174 52026 78583 8696/ 333 85916 91114
AAXX 08061 23383 41496 80000 11139 21159 39819 40186 52006 77172 8872/
AAXX 08061 23472 41598 82504 11014 21054 30168 40216 52020 73683 889//
AAXX 08061 23678 42498 81801 11015 21023 30212 40270 52007 889//
AAXX 08061 23884 NIL
AAXX 08061 23891 41698 83501 11133 21160 39971 52003 77172 8652/
AAXX 08061 24507 41998 82603 11142 21162 39968 40221 57004 77172 8807/
AAXX 08061 24817 41596 81802 11144 21164 39864 40249 56026 78582 86903
AAXX 08061 24908 41468 82402 11099 21120 39954 40295 56002 78588 889// 333 83711 85927
AAXX 08061 29263 42599 82604 11035 21056 30264 40367 52008 8695/
AAXX 08061 29282 41597 82602 11048 21061 30166 40339 54000 77187 8277/
AAXX 08061 29379 41597 83003 11035 21049 30163 40377 52005 78582 8692/
AAXX 08061 29570 41599 72602 11005 21047 30039 40391 52003 70282 87900
AAXX 08061 29698 41595 80000 11080 21090 39865 40399 57012 78687 8692/
AAXX 08061 30230 41593 83401 11239 21264 30025 40386 57044 78687 8697/
AAXX 08061 30252 42999 70000 11208 21241 30075 40420 57040 83031
AAXX 08061 30309 41595 81806 11106 21112 39833 40377 57017 78682 889//
AAXX 08061 30328 42998 81103 11218 21250 39991 40461 57034 8802/
AAXX 08061 30521 42997 81001 11244 21276 39913 40496 58023 82039
AAXX 08061 30710 41998 02701 11153 21168 39840 40467 57019 74140
AAXX 08064 67280 32575 1//// 10270 20200 40090 81031 333 20206 50800 55110 59030 94300 555 10000
AAXX 08064 67291 32980 0//// 10234 20182 3//// 48/// 333 20205 50/// 55069 5//// 94300 555 10000
AAXX 08064 67323 32580 40000 10255 20207 40099 52013 84200 333 20184 50620 55112 94320 555 10000
AAXX 08064 67327 32580 20604 10250 20197 40106 52010 82200 333 20186 50580 55094 94321 555 10000
AAXX 08064 67331 32580 51806 10236 20184 40104 57011 85100 333 20184 50/// 55/// 94310 555 10000
AAXX 08064 67346 32580 83605 10/// 20/// 40122 52012 8417/ 333 20/// 50710 55070 94318 555 10000
AAXX 08064 67243 32970 01206 10290 20191 4//// 333 20246 50/// 55/// 5//// 555 10000
AAXX 08064 67280 32575 1//// 10270 20200 40090 81031 333 20206 50800 55110 59030 94300 555 10000
AAXX 08064 67291 32980 0//// 10234 20182 3//// 48/// 333 20205 50/// 55069 5//// 94300 555 10000
AAXX 08064 67323 32580 40000 10255 20207 40099 52013 84200 333 20184 50620 55112 94320 555 10000
AAXX 08064 67327 32580 20604 10250 20197 40106 52010 82200 333 20186 50580 55094 94321 555 10000
AAXX 08064 67331 32580 51806 10236 20184 40104 57011 85100 333 20184 50/// 55/// 94310 555 10000
AAXX 08064 67346 32580 83605 10/// 20/// 40122 52012 8417/ 333 20/// 50710 55070 94318 555 10000
AAXX 08064 67243 32970 01206 10290 20191 4//// 333 20246 50/// 55/// 5//// 555 10000
AAXX 08064 71115 16/// /1005 11045 21063 39741 40342 51009 60001 333 10006 21064 70000
AAXX 08064 71605 16/// /3302 10016 20009 30160 40313 51002 60001 333 10048 20012 70000
AAXX 08064 71916 46/// /1804 11268 21289 30158 40216 55004 6///1 333 11260 21302 7//// 555 33323 40071
AAXX 08064 71927 16/// /2101 11020 21026 30264 40323 53004 60001 333 10067 21021 70000
AAXX 08064 71525 17/// /2810 11165 21190 69941 7//4/ 333 11013 21194 70019 555 30121 40201
AAXX 08064 71535 16/// /3004 11086 21131 60001 333 11004 21088 70012 555 30218 40201
AAXX 08064 71536 16/// /2802 11094 21125 60001 333 11022 21097 70005 555 30319 40211
AAXX 08064 71537 16/// /2408 11222 21247 60001 333 11023 21223 70021 555 33223 40221
AAXX 08064 71200 16/// /3505 10021 21003 60001 333 10059 20019 70014
AAXX 08064 71207 16/// /0201 11021 30255 40321 50005 60001 333 10025 21026 70000
AAXX 08064 71401 16/// /0301 11065 21075 39608 40316 53006 60001 333 11015 21083 70010
AAXX 08064 71445 16/// /3128 11143 21199 39828 40112 53002 60001 333 11029 21144 70000 555 33142 40033
AAXX 08064 71257 17/// /3204 11181 21215 69981 7//4/ 333 11037 21187 70017 555 30026 40201
AAXX 08064 71258 16/// /2808 11155 21217 60001 333 11048 21176 70009 555 33323 40221
AAXX 08064 71259 16/// /2814 11183 21216 60001 333 11024 21205 70014 555 33325 40211
AAXX 08064 71274 16/// /3008 11157 21197 60001 333 11076 21158 70000 555 33127 40211
AAXX 08064 71275 46/// /2909 11159 21220 6///1 333 11081 21159 7////
AAXX 08064 71278 16/// /3109 11144 21190 60001 333 11050 21144 70000 555 33126 40231
AAXX 08064 71286 16/// /3010 11147 21184 60001 333 11051 21147 70000 555 33128 40232
AAXX 08064 71287 16/// /2505 11171 21205 60001 333 11070 21171 70004 555 33026 40211
AAXX 08064 71289 17/// /2708 11182 21216 69941 7//4/ 333 11031 21183 70008 555 33225 40211
AAXX 08064 71679 16/// /0603 11102 21108 39269 40322 55009 60001 333 11036 21105 70000
AAXX 08064 71464 46/// ///21 10019 39904 40119 53002 6///1 333 10028 21003 7////
AAXX 08064 71466 46/// ///// 10016 39927 52018 6///1 333 7////
AAXX 08064 71473 16/// /3310 10028 20007 30283 40314 52005 60001 333 10036 20019 70008 555 30117 40061
AAXX 08064 71477 16/// /1207 10026 21015 60001 333 10038 21006 7////
AAXX 08064 71751 46/// /2822 11042 21090 39821 40081 56008 6///1 333 11008 21061 7//// 555 33032 40152
AAXX 08064 71765 16/// /1403 11028 21044 30061 40344 50008 60001 333 10880 21078 70000
AAXX 08064 71769 16/// /2712 10046 20007 30293 40309 58002 60001 333 10057 20038 70000 555 32818 40211
AAXX 08064 71773 16/// /2008 11115 21121 39352 40242 58030 60001 333 11115 21265 70000 555 33425 40071
AAXX 08064 71774 46/// ///// 10006 6///1 333 10032 21003 7////
AAXX 08064 71777 16/// ///// 11052 21057 30081 40342 50006 60001 333 11011 21056 70000
AAXX 08064 71778 46/// /0305 6///1 333 7//// 555 30218 40161
AAXX 08064 71780 16/// /0605 10038 20003 30295 40323 51007 60001 333 10067 20034 70002
AAXX 08064 71781 46/// /3113 10043 20005 30288 40313 58003 6///1 333 10062 20042 7//// 555 33218 40131
AAXX 08064 71783 16/// /3002 10001 21004 30243 40318 51006 60001 333 10059 21006 70022
AAXX 08064 71784 16/// /0301 10018 20012 30103 40312 53004 60001 333 10038 20011 70000
AAXX 08064 71785 16/// /0601 10035 20023 30313 40329 53009 60001 333 10057 20017 70008
AAXX 08064 71952 16/// /0000 11195 21214 39448 40349 56007 60001 333 11080 21213 70000
AAXX 08064 71949 46/// /1006 11177 21199 39366 40286 58024 6///1 333 11128 21246 7//// 555 33019 40111
AAXX 08064 71966 16/// /1501 11141 21169 39760 40242 56024 60001 333 11141 21249 70000
AAXX 08064 71351 17/// /2903 11161 21190 69961 7//4/ 333 11034 21161 70006 555 33222 40201
AAXX 08064 71353 16/// /2707 11175 21215 60001 333 11043 21177 70008 555 33322 40181
AAXX 08064 71375 46/// /0717 11028 6///1 333 11027 21122 7//// 555 30724 40051
AAXX 08064 71385 46/// /0906 11004 6///1 333 10012 21027 7//// 555 30424 40111
AAXX 08064 71201 16/// ///// 10036 20011 60001 333 10053 20029 70004
AAXX 08064 71211 46/// /0116 10034 20007 30303 40315 51003 6///1 333 10047 20027 7//// 555 30221 40061
AAXX 08064 71219 46/// /1205 10021 21045 30323 40329 58005 6///1 333 10034 20004 7////
AAXX 08064 71220 46/// /1209 10013 21030 6///1 333 10034 20011 7////
AAXX 08064 71222 16/// /0000 11153 21169 39319 40336 57014 60001 333 11139 21226 70000
AAXX 08064 71223 16/// /3015 11145 21189 60001 333 11026 21145 70000 555 33131 40222
AAXX 08064 71225 16/// /3206 11095 21155 60001 333 11009 21095 70004 555 30119 40211
AAXX 08064 71227 46/// /2910 11162 21191 6///1 333 11039 21166 7//// 555 33230 40192
AAXX 08064 71045 16/// /0805 11184 21202 39400 40310 57020 60001 333 11184 21257 70000 555 10010
AAXX 08064 71720 16/// /0000 10003 20001 30169 40326 58001 60001 333 10049 21007 70006
AAXX 08064 71741 16/// /0000 11078 21090 39919 40357 51010 60001 333 11006 21084 70000
AAXX 08064 71044 16/// /2602 11295 21329 39882 40225 58031 60001 333 11293 21350 70000
AAXX 08061 22349 12598 62804 11005 21020 30055 40067 52023 69942 86500 333 21008 47003 91006
AAXX 08064 71949 46/// /1006 11177 21199 39366 40286 58024 6///1 333 11128 21246 7//// 555 33019 40111
AAXX 08064 71966 16/// /1501 11141 21169 39760 40242 56024 60001 333 11141 21249 70000
AAXX 08064 71200 16/// /3505 10021 21003 60001 333 10059 20019 70014
AAXX 08064 71207 16/// /0201 11021 30255 40321 50005 60001 333 10025 21026 70000
AAXX 08064 71045 16/// /0805 11184 21202 39400 40310 57020 60001 333 11184 21257 70000 555 10010
AAXX 08064 13601 12665 30000 10070 20041 30065 40167 54001 60002 83800 333 20068 31/// 81840
AAXX 08064 71605 16/// /3302 10016 20009 30160 40313 51002 60001 333 10048 20012 70000
BBXX DDZF2 08064 99249 10356 41998 23317 10200 20153 40185 51005 70200 80008 22234 00250 20202 30000 80170
AAXX 08061 10544 01066 82607 11016 21016 39093 48459 53040 69912 70272 875// 333 11014 21018 3/102 44014 55000 55300 69907 70061 81700 87605 91120 91212 96236 96478 96471
BBXX A8ME3 08060 99063 10935 41498 60905 10320 20298 40090 54000 702// 8/5// 22264 04293 20502 3//// 4//// 5////
BBXX PBEO 08063 99375 10075 41497 63113 10172 20114 40285 53009 70022 86800 22262 02181 20402 333// 40603 80138
AAXX 08061 10962 01480 42508 11007 21008 39073 48504 52026 60042 73698 84800 333 10015 21009 3/102 48004 55001 55300 20000 30000 60037 70082 82813 83656 91118 96285 96494 96488 96445
AAXX 08064 71525 17/// /2810 11165 21190 69941 7//4/ 333 11013 21194 70019 555 30121 40201
AAXX 08064 71535 16/// /3004 11086 21131 60001 333 11004 21088 70012 555 30218 40201
AAXX 08064 71536 16/// /2802 11094 21125 60001 333 11022 21097 70005 555 30319 40211
AAXX 08064 71537 16/// /2408 11222 21247 60001 333 11023 21223 70021 555 33223 40221
AAXX 08064 71115 16/// /1005 11045 21063 39741 40342 51009 60001 333 10006 21064 70000
BBXX 2BLY5 08063 99157 70209 41/98 /0911 10242 20201 40126 56008 70200 8//// 22253 00258 20301 80215
BBXX DEIR 08064 99204 30119 41698 41419 10175 20143 40144 51009 7//11 84200 22243 20504 318// 41005 80155
AAXX 08064 89610 46/// /0429 11043 39452 4//// 5//// 333 90700 91135
AAXX 08064 63729 32480 10000 10212 20180 38870 81930 333 20179 50381 55066 55310 59012 81617 81919
AAXX 08064 63733 32580 10000 10233 20190 38864 48505 81909 333 20180 50591 55098 55310 59011 81921
AAXX 08064 63756 12580 50308 10250 20194 38867 48506 60024 81240 333 0//19 20182 50471 55078 55310 59016 81824 84363
AAXX 08064 63791 32580 51209 10240 20190 39130 48514 84230 333 20202 50501 55067 55305 59002 84826
AAXX 08064 63801 11580 70000 10216 20193 39206 48531 69904 71792 8197/ 333 0//19 20193 50301 55053 55300 59006 81820 81921 87359
AAXX 08064 63832 32580 30000 10223 20193 38823 48498 81130 333 20182 50501 55067 55310 59014 81820 83358
AAXX 08064 63866 12580 60000 10225 20203 39514 48/// 69904 86500 333 20221 50551 55037 55310 59011 86622
AAXX 08064 63881 01480 70000 10170 20162 38199 48/// 60204 76022 84920 333 0//24 20145 50061 55016 55300 59007 69907 84619 81920 86458
AAXX 08064 63887 11480 70000 10200 20167 38587 48496 60071 70222 83817 333 0//29 20175 50101 55099 55300 59009 83819 87358
AAXX 08064 63894 11480 73606 10248 20243 30006 40126 60134 76162 8591/ 333 0//11 20241 50231 55037 55300 59009 70133 85819 81920 86457
AAXX 08064 63962 31480 70812 10217 20192 38947 48507 60704 8293/ 333 20189 50501 55092 59006 82619 81921 87357
AAXX 08064 63971 11570 60000 10256 20241 29976 40104 60104 78002 84932 333 0//11 20235 50491 55056 55300 59006 84823 81924 84358
AAXX 08064 63862 NIL
AAXX 08064 63870 NIL
AAXX 08064 63932 NIL
AAXX 08064 71201 16/// ///// 10036 20011 60001 333 10053 20029 70004
AAXX 08064 71211 46/// /0116 10034 20007 30303 40315 51003 6///1 333 10047 20027 7//// 555 30221 40061
AAXX 08064 71219 46/// /1205 10021 21045 30323 40329 58005 6///1 333 10034 20004 7////
AAXX 08064 71220 46/// /1209 10013 21030 6///1 333 10034 20011 7////
AAXX 08064 71222 16/// /0000 11153 21169 39319 40336 57014 60001 333 11139 21226 70000
AAXX 08064 71223 16/// /3015 11145 21189 60001 333 11026 21145 70000 555 33131 40222
AAXX 08064 71225 16/// /3206 11095 21155 60001 333 11009 21095 70004 555 30119 40211
AAXX 08064 71227 46/// /2910 11162 21191 6///1 333 11039 21166 7//// 555 33230 40192
AAXX 08064 71751 46/// /2822 11042 21090 39821 40081 56008 6///1 333 11008 21061 7//// 555 33032 40152
AAXX 08064 71765 16/// /1403 11028 21044 30061 40344 50008 60001 333 10880 21078 70000
AAXX 08064 71769 16/// /2712 10046 20007 30293 40309 58002 60001 333 10057 20038 70000 555 32818 40211
AAXX 08064 71773 16/// /2008 11115 21121 39352 40242 58030 60001 333 11115 21265 70000 555 33425 40071
AAXX 08064 71774 46/// ///// 10006 6///1 333 10032 21003 7////
AAXX 08064 71777 16/// ///// 11052 21057 30081 40342 50006 60001 333 11011 21056 70000
AAXX 08064 71778 46/// /0305 6///1 333 7//// 555 30218 40161
AAXX 08064 71780 16/// /0605 10038 20003 30295 40323 51007 60001 333 10067 20034 70002
AAXX 08064 71781 46/// /3113 10043 20005 30288 40313 58003 6///1 333 10062 20042 7//// 555 33218 40131
AAXX 08064 71783 16/// /3002 10001 21004 30243 40318 51006 60001 333 10059 21006 70022
AAXX 08064 71784 16/// /0301 10018 20012 30103 40312 53004 60001 333 10038 20011 70000
AAXX 08064 71785 16/// /0601 10035 20023 30313 40329 53009 60001 333 10057 20017 70008
AAXX 08064 71351 17/// /2903 11161 21190 69961 7//4/ 333 11034 21161 70006 555 33222 40201
AAXX 08064 71353 16/// /2707 11175 21215 60001 333 11043 21177 70008 555 33322 40181
AAXX 08064 71375 46/// /0717 11028 6///1 333 11027 21122 7//// 555 30724 40051
AAXX 08064 71385 46/// /0906 11004 6///1 333 10012 21027 7//// 555 30424 40111
AAXX 08064 71720 16/// /0000 10003 20001 30169 40326 58001 60001 333 10049 21007 70006
AAXX 08064 71741 16/// /0000 11078 21090 39919 40357 51010 60001 333 11006 21084 70000
AAXX 08064 71464 46/// ///21 10019 39904 40119 53002 6///1 333 10028 21003 7////
AAXX 08064 71466 46/// ///// 10016 39927 52018 6///1 333 7////
AAXX 08064 71473 16/// /3310 10028 20007 30283 40314 52005 60001 333 10036 20019 70008 555 30117 40061
AAXX 08064 71477 16/// /1207 10026 21015 60001 333 10038 21006 7////
AAXX 08064 71916 46/// /1804 11268 21289 30158 40216 55004 6///1 333 11260 21302 7//// 555 33323 40071
AAXX 08064 71927 16/// /2101 11020 21026 30264 40323 53004 60001 333 10067 21021 70000
AAXX 08064 71044 16/// /2602 11295 21329 39882 40225 58031 60001 333 11293 21350 70000
AAXX 08064 71257 17/// /3204 11181 21215 69981 7//4/ 333 11037 21187 70017 555 30026 40201
AAXX 08064 71258 16/// /2808 11155 21217 60001 333 11048 21176 70009 555 33323 40221
AAXX 08064 71259 16/// /2814 11183 21216 60001 333 11024 21205 70014 555 33325 40211
AAXX 08064 71274 16/// /3008 11157 21197 60001 333 11076 21158 70000 555 33127 40211
AAXX 08064 71275 46/// /2909 11159 21220 6///1 333 11081 21159 7////
AAXX 08064 71278 16/// /3109 11144 21190 60001 333 11050 21144 70000 555 33126 40231
AAXX 08064 71286 16/// /3010 11147 21184 60001 333 11051 21147 70000 555 33128 40232
AAXX 08064 71287 16/// /2505 11171 21205 60001 333 11070 21171 70004 555 33026 40211
AAXX 08064 71289 17/// /2708 11182 21216 69941 7//4/ 333 11031 21183 70008 555 33225 40211
AAXX 08064 71401 16/// /0301 11065 21075 39608 40316 53006 60001 333 11015 21083 70010
AAXX 08064 71445 16/// /3128 11143 21199 39828 40112 53002 60001 333 11029 21144 70000 555 33142 40033
AAXX 08064 71952 16/// /0000 11195 21214 39448 40349 56007 60001 333 11080 21213 70000
AAXX 08064 71679 16/// /0603 11102 21108 39269 40322 55009 60001 333 11036 21105 70000
AAXX 08061 47008 42970 03205 11035 21185 30221 40277 58006
AAXX 08061 47014 42950 40000 11097 21190 39869 40293 57011 80001
AAXX 08061 47016 11970 02702 11094 21184 39370 40267 57008 69901 70171
AAXX 08061 47020 42565 73202 11070 21133 39895 40292 58013 87500
AAXX 08061 47025 12568 30504 11037 21094 30218 40248 57005 69901 83500
AAXX 08061 47035 42970 03607 11049 21129 30270 40279 57021
AAXX 08061 47041 41560 80000 11008 21020 30191 40219 57006 77274 8802/
AAXX 08061 47055 11520 80000 10000 20000 30179 40226 58006 60031 77377 8802/
AAXX 08061 47058 42960 03205 11011 21090 30198 40246 58014
AAXX 08061 47069 42565 33204 11003 21061 30142 40245 58003 83500
AAXX 08061 47101 32660 73205 10042 21040 30102 40199 57015 85510
AAXX 08061 47105 469// /0707 10037 20012 30158 40191 54000
AAXX 08061 47108 32962 02706 10023 21093 30106 40214 57016
AAXX 08061 47115 41530 80720 10008 20007 39889 40166 55004 77177 8682/ 333 92045
AAXX 08061 47133 32665 63210 10038 21067 30129 40215 55013 85500
AAXX 08061 47138 32962 63206 10094 21057 30173 40176 55005 80001 333 92022
AAXX 08061 47159 32965 63205 10111 21045 30085 40169 57013 80001 333 92022
AAXX 08061 47165 32668 73618 10045 21023 30178 40225 56006 87500 333 92035
AAXX 08061 47168 32665 63420 10072 21042 30116 40195 55003 85502 333 92025
AAXX 08061 47184 41665 83416 10088 20027 30196 40221 56002 72162 8552/ 333 92055
AAXX 08061 47090 41512 80513 10009 20003 30190 40213 52018 77177 8672/ 333 92064
AAXX 08061 47095 31558 73203 11002 21064 30023 40217 57013 70522 85510
AAXX 08061 47097 329// /2906 10038 21082 30110 40207 55014
AAXX 08061 47098 329// /3205 10032 21076 30072 40208 57016
AAXX 08061 47099 329// /2707 10019 21088 30180 40217 57019
AAXX 08061 47100 31365 71404 11004 21042 39257 40187 55010 77072 87500
AAXX 08061 47102 32668 62912 11033 21089 30073 40259 55008 86500
AAXX 08061 47104 41565 83608 10021 20006 30094 40193 53003 76062 8682/
AAXX 08061 47106 329// /3606 10044 20007 30132 40182 55004
AAXX 08061 47112 31659 23211 10023 21073 30134 40220 57016 70500 81500 333 92024
AAXX 08061 47114 32662 72309 10041 21080 30011 40195 57015 87500
AAXX 08061 47119 32660 12906 10028 21058 30173 40216 56014 81500
AAXX 08061 47121 329// /2304 10045 21067 39894 40190 55009
AAXX 08061 47127 329// /2708 10040 21065 30060 40203 56016
AAXX 08061 47129 32568 72912 10027 21045 30197 40233 56011 87500
AAXX 08061 47130 32670 63212 10072 21022 30108 40169 56010 85500 333 92044
AAXX 08061 47131 32665 42905 10028 21051 30146 40218 55009 84500
AAXX 08061 47135 329// /2510 10032 21049 39895 40197 57012
AAXX 08061 47136 32662 52908 10052 21038 30015 40188 55005 82501
AAXX 08061 47137 329// /2705 10053 21059 30075 40194 57012
AAXX 08061 47140 32670 63214 10028 21031 30198 40227 56008 86500 333 92024
AAXX 08061 47143 32663 62908 10071 21037 30115 40194 55012 84501
AAXX 08061 47145 32662 62909 10018 21051 30189 40216 55009 86500
AAXX 08061 47146 32668 62911 10044 21068 30153 40220 56010 86500
AAXX 08061 47150 41562 83405 10021 21042 30208 40228 56007 78582 888//
AAXX 08061 47152 32665 63409 10100 21030 30123 40165 55017 81501
AAXX 08061 47154 329// /2906 10042 21011 30138 40199 55004
AAXX 08061 47155 32965 60207 10102 21046 30128 40173 57015 84031
AAXX 08061 47156 41568 83604 10041 21006 30134 40224 56009 76062 8572/
AAXX 08061 47157 32663 52710 10049 21036 39910 40181 57013 81501
AAXX 08061 47162 32665 73608 10103 20000 30136 40176 57013 81502 333 92023
AAXX 08061 47169 32672 73425 10050 21006 30137 40232 55005 87500 333 92066
AAXX 08061 47170 32668 63413 10056 21027 30174 40218 56005 85502 333 92024
AAXX 08061 47171 429// /3205 10039 21033 30171 40227 57010
AAXX 08061 47172 329// /2908 10045 21030 30154 40221 57008
AAXX 08061 47173 329// /3209 10038 21041 30104 40216 55007
AAXX 08061 47174 32662 73210 10039 21025 39998 40202 57012 85501
AAXX 08061 47175 32570 83213 10025 21014 39637 40217 57008 8552/ 333 92024
AAXX 08061 47185 41561 83233 10088 20034 30119 40210 55004 76062 8572/ 333 92047
AAXX 08061 47188 32665 83606 10081 20031 30188 40210 58001 8452/ 333 92022
AAXX 08061 47189 32665 73404 10102 20041 30145 40205 52010 85501 333 92022
AAXX 08061 47192 32665 63407 10078 21046 30149 40186 55013 81501
AAXX 08061 51711 32980 12503 11058 21138 38117 57004 80002 333 05100 21124
AAXX 08061 51730 32975 01601 10026 21100 40424 57005 333 05100 21115
AAXX 08061 52112 32980 13201 11034 21160 40478 57013 80002 333 05100 21119
AAXX 08061 52737 32980 10000 11031 21182 37122 57014 80002 333 00153 21125
AAXX 08061 52787 32980 03606 11064 21161 37056 57015 333 05102 21153
AAXX 08061 53352 32980 22704 11110 21176 40491 57013 80002 333 21201
AAXX 08061 53593 32770 40703 11101 21185 40453 57020 83502 333 21144
AAXX 08061 53705 32980 20703 11021 21122 40419 57026 80002 333 05152 21085
AAXX 08061 53863 32980 02504 10002 21146 40404 57028 333 21061
AAXX 08061 53975 32980 03203 10035 21168 40379 57028 333 21031
AAXX 08061 54273 32970 02202 11126 21211 40353 57010 333 21229
AAXX 08061 54324 32670 63405 11060 21204 40381 57015 82102 333 21118
AAXX 08061 54405 32680 12911 11072 21207 40431 57020 81400 333 21116
AAXX 08061 54436 32980 00203 11042 21184 40382 57019 333 21090
AAXX 08061 54808 32964 00204 10004 21101 40388 57018 333 21027
AAXX 08061 54826 32980 10209 11141 21171 38514 57007 80002 333 21141 91121 91536
AAXX 08061 54836 32680 23605 11013 21085 40363 57008 82100 333 21028
AAXX 08061 54863 11570 63607 11008 21082 40326 57006 69901 70080 86400 333 21013
AAXX 08061 56018 32680 62503 10036 21232 36179 57027 82102 333 00053 21122
AAXX 08061 56021 32680 72506 11015 21168 36080 57008 85902 333 05151 21118
AAXX 08061 57071 32970 12202 10058 21078 40375 57027 80002 333 21011
OOXX AAKOM 08064 99795 51121 56392 18332 46/// /0504 11168 21193 37782 49683 57003 90550
OOXX AAVIT 08064 99785 31778 57087 00501 46/// /1010 11046 21086 39707 49769 5//// 90600
OOXX AAERC 08064 99815 31639 60713 00451 46/// /1607 11035 21074 39730 49785 5//// 90550
AAXX 08061 47003 42980 03209 11058 21161 30266 40270 57014
AAXX 08061 47005 42980 13603 11142 21213 38589 57001 80001
AAXX 08061 47022 42475 83601 11127 21162 38827 54000 82507
AAXX 08061 47028 42967 00503 11051 21175 30186 40281 57015
AAXX 08061 47031 41560 80000 11076 21094 38904 57015 77177 8802/
AAXX 08061 47037 42970 03204 11042 21132 30127 40255 58012
AAXX 08061 47039 42960 03203 11009 21127 30039 40235 57021
AAXX 08061 47046 11550 80504 11013 21050 30201 40224 57005 69931 77072 8802/
AAXX 08061 47050 42965 03403 11017 21137 30203 40238 57017
AAXX 08061 47052 42565 83204 11024 21068 39875 40223 57013 885//
AAXX 08061 47060 42560 62704 10019 21051 30193 40252 58011 86100
AAXX 08061 47061 11650 80000 11003 21006 30181 40225 54000 60241 77177 8802/
AAXX 08061 47065 41960 63207 11022 21065 30187 40254 57005 71022 86040
AAXX 08061 47067 41960 83205 10002 21042 30120 40243 57019 71022 80001
AAXX 08061 47068 42570 83207 11028 21077 30209 40245 58011 885//
AAXX 08061 47070 42970 02704 10009 21051 30138 40227 58016
AAXX 08061 47075 42580 82303 11011 21047 39716 40152 57009 885//
AAXX 08064 68513 36/// /1122 10167 20071 30071 40184 53005 333 20131 91029 555 10223 91018
AAXX 08064 68514 31900 01313 10188 20079 39698 48553 52005 79999 333 20146 91017 555 10331 91017
AAXX 08064 68523 36/// /2109 10139 20068 39132 48532 52013 333 20112 91016 555 10290 91019
AAXX 08064 68527 36/// /2006 10206 20039 39077 48519 52016 333 20159 91009 555 10339 91016
AAXX 08064 68572 11324 80904 10153 20141 38404 48513 52008 60014 75155 886// 333 20128 91007 555 10305 20016 69985 91020
AAXX 08064 68575 36/// /1907 10169 20156 39099 48520 52010 333 20167 91014 555 10336 91017
AAXX 08064 68581 36/// /1804 10206 20178 39372 48524 52009 333 20203 91010 555 10326 91015
AAXX 08064 68583 36/// /2105 10225 20185 30024 40133 52016 333 20220 91017 555 10285 91013
AAXX 08064 68589 36/// /0000 10170 20109 38250 48509 52002 333 20157 91005 555 10292 91020
AAXX 08064 68613 36/// /1918 10161 20071 30097 40214 52013 333 20104 91025 555 10217 91021
AAXX 08064 68647 16/// /1411 10128 20110 38930 48519 53017 69964 333 20127 91016 555 10335 20006 91019
AAXX 08064 68651 16/// /1510 10124 20114 38568 48529 55000 69984 333 20123 91014 555 10315 20008 91021
AAXX 08064 68715 36/// /1806 10164 20048 30093 40222 53008 333 20121 91014 555 10237 91022
AAXX 08064 68717 36/// /1603 10152 20068 30067 40213 52010 333 20120 91009 555 10239 91021
AAXX 08064 68723 36/// /1306 10134 20046 39441 48549 53015 333 20123 91013 555 10288 91020
AAXX 08064 68737 32470 71806 10162 20105 39266 48531 52012 875// 333 20138 91010 555 10344 91018
AAXX 08064 68744 36/// /1611 10142 20102 39111 48515 52013 333 20130 91017 555 10360 91017
AAXX 08064 68747 16/// /1702 10148 20130 39654 48547 53012 60024 333 20143 91006 555 10307 20024 69925 91019
AAXX 08064 68754 16/// /2204 10130 20117 39161 48534 53013 60054 333 20124 91009 555 10285 20054 69945 91020
AAXX 08064 68817 36/// /1511 10165 20049 30223 40236 52011 333 20143 91022 555 10196 91023
AAXX 08064 68821 36/// /1616 10158 20036 39974 40217 53016 333 20125 91023 555 10242 91021
AAXX 08064 68835 36/// /2104 10151 20101 30092 40208 53022 333 20151 91009 555 10263 91020
AAXX 08064 68843 36/// /2712 10166 20124 30081 40181 53018 333 20164 91022 555 10231 91018
AAXX 08064 68849 16/// /2312 10118 20103 39442 48531 53017 69924 333 20116 91019 555 10233 20002 91019
AAXX 08064 68912 16/// /1509 10137 20085 30227 40236 52012 69944 333 20113 91011 555 10172 20004 91023
AAXX 08064 68918 16/// /2107 10167 20057 30214 40233 53012 69944 333 20142 91014 555 10238 20004 91023
AAXX 08064 68921 16/// /2309 10169 20029 30222 40225 53015 69964 333 20142 91016 555 10253 20006 91022
AAXX 08064 68925 16/// /1902 10116 20063 39858 40231 52012 60054 333 20094 91005 555 10191 20052 91022
AAXX 08064 68926 36/// /2707 10154 20045 30044 40226 52013 333 20135 91015 555 10294 91022
AAXX 08064 68935 16/// /2904 10128 20115 30149 40214 52018 60184 333 20123 91008 555 10225 20182 69945 91021
AAXX 08061 01311 47/84 /1402 11009 21011 39948 40010 58003 721// 333 21053 91105
AAXX 08061 01494 17/79 01102 11067 21073 39965 40032 53014 60002 700// 333 21069 70003 91103
AAXX 08061 01025 17/83 21902 11024 21039 30001 40012 52018 60032 700// 333 21034 47004 70030 91106
AAXX 08061 34247 11350 80702 10007 20004 30035 40150 57009 60020 77162 8872/ 333 20006 85709
AAXX 08064 67017 NIL
AAXX 08064 67020 12582 30000 10293 20233 30072 40099 51005 60024 83902 333 02369 10329 20239 50224 55/// 83820 81920 94975 95836 555 81640 81073
AAXX 08064 67023 12582 31612 10306 20224 30098 40104 51005 69914 82209 333 02019 10314 20212 50544 55/// 82820 555 81075
AAXX 08064 67037 32582 5//// 10/// 20/// 30055 40096 5/014 83830 333 0//00 10/// 20/// 50//4 55/// 82820 84360 555 82640
AAXX 08064 67067 31570 5//// 10250 20180 39242 48/// 52006 7101/ 85830 333 0//00 10256 20187 50524 55/// 84823 555 82630 81360
AAXX 08064 67107 NIL
AAXX 08064 67131 32582 23204 10/// 20/// 30087 40092 51008 82102 333 0//00 10/// 20/// 50//4 55/// 82823 555 81073
BBXX A8AD7 08063 99154 70174 41695 49903 10230 20152 40115 55005 70000 83578 22253 02240 2//// 30000 80180
BBXX C6OM8 08060 99339 70166 41/98 81308 10198 20141 40261 57/// 70322 8/727 22253 04195 20904 334// 40904 5//// 80165
BBXX SHIP 08064 99428 10067 41068 02845 10150 20134 40190 56020 70200 80000 22273 20505 80140
AAXX 08064 67002 32581 32804 10295 20222 30082 40116 82831 333 20233 59002 81822 92408
AAXX 08064 67009 12582 71408 10290 20232 39988 40103 51010 60014 872// 333 02319 10330 20240 50454 55035 87820 = RR= 1.3MM 67012 12582 70406 10288 20251 30092 40102 51005 69944 8523/ 333 0//18 10298 20242 50194 55/// 85820 83360
AAXX 08064 67025 NIL
AAXX 08064 67027 32582 63608 10295 20245 30079 40100 51005 85232 333 02200 10320 20250 50274 55110 85820 555 81360 82073
AAXX 08064 67045 NIL
AAXX 08064 67072 11470 63606 10260 20237 30118 40121 51007 60174 71562 86800 333 02209 10292 20240 50354 55/// 83817 85640 92428= RR =17.2MM 67073 32582 4//// 10296 20217 30072 40098 52013 81830 333 0//00 10308 20230 50//4 55/// 81820 555 81633 82360 81073
AAXX 08064 67083 11475 70000 10220 20187 38733 48507 51022 60324 70362 8683/ 333 01116 20162 50134 55018 81710 86620=31.9 67095 32475 70000 10278 20221 30109 40116 52012 71521 8683/ 333 02000 10307 20210 50294 55/// 83817 86640 555 84360
AAXX 08064 67113 32575 6//// 10278 20250 30/// 40// 5//// 86830 333 0//00 10305 20232 50114 55/// 84820 555 82640 82360
AAXX 08064 67117 NIL
AAXX 08064 67137 12480 1//06 10229 20155 38885 48490 51008 60084 81832 333 0//29 10273 20164 50264 55/// 81817 555 81623 81360 81073
AAXX 08064 RR= 8.1MM 67143 11575 6//// 10/// 20/// 30106 40113 51002 60114 70262 86800 333 0//14 10/// 20/// 50//4 55/// 82820 86633 92437 = RR10.6MM 67152 12582 1//// 10245 20201 39182 48492 52011 60054 81200 333 01719 10290 20189 50294 55/// 81820 = RR= 4.6MM 67157 11581 6//// 10/// 20/// 30130 40137 53007 60274 70162 86800 333 0//14 10/// 20/// 50//4 55/// 83823 85640 = RR =27.4MM 67161 32582 2//04 10256 20226 30084 40093 51010 82800 333 0//00 10305 20195 50464 55/// 81823 555 82640
AAXX 08064 67197 32582 20819 10270 20218 30092 40102 50001 82800 333 01400 10279 20227 50524 55118 82820 555 81633
BBXX 2ALE5 08063 99049 70038 41397 61909 10270 20234 40098 53009 70222 857// 22211 20301 80245
BBXX 2AQK9 08064 99324 70097 41597 31015 10190 20118 40268 55003 70200 831// 22212 20403 336// 40504 5//// 80150
BBXX DDFG 08063 99032 11053 41498 23604 10270 20241 40085 58015 70200 81141 22253 20200 80250
BBXX ONDY 08064 99066 30088 41799 81816 10240 2021/ 40120 52010 70322 886// 22284 00270 21002 31817 40504 50502 6//// 80220 /////
BBXX SHIP 08064 99074 30881 41497 72919 10279 20243 40072 58006 70322 82416 22261 00280 10804 20302 32926 40706 50605 85252
BBXX A8RL3 08061 99240 30575 41098 10910 10250 40100 54000 70200 81100 22214 00260 2//04 3//// 4//05 5////
BBXX 9KWP 08063 99243 31079 41397 81207 10240 20194 40083 57020 75052 8673/ 22284 00230 2//// 80210
BBXX 3FMV6 08063 99273 30140 41598 81327 10180 20146 40160 54000 71022 86770 22283 06179 20806 80160
BBXX SHIP 08064 99282 30816 41498 21118 10220 20175 40178 56008 70111 8213/ 22224 00213 20603 309// 40806 80190
BBXX 2AKI2 08063 99328 30152 41598 51828 10156 20083 40234 53008 70111 84160 22234 00189 20504 322// 40906 5//// 80119
BBXX DBBT 08061 99425 30103 46/// /2307 10068 20009 40264 52008 22201 00119
BBXX DBLK 08061 99429 30000 41597 82914 10095 20050 40249 57016 76082 8587/ 22252 04102 20504 321// 40905
AAXX 08064 42314 31596 42704 10274 20157 40143 70522 82130 333 59001 82825 84360
AAXX 08064 42492 31993 00000 10172 20159 40162 74444 333 59004
AAXX 08064 42587 31995 00000 10240 20138 40154 70500 333 59005
AAXX 08064 42591 31994 03203 10220 20178 40159 71000 333 59003
AAXX 08064 42623 31495 32702 10234 20135 39271 40128 70542 83500 333 59006 83618
AAXX 08064 42701 31995 00502 10244 20111 39419 40139 70500 333 59002
AAXX 08064 42706 31995 03201 10260 20170 40142 70500 333 59007
AAXX 08064 42798 31994 03202 10250 20146 40141 70400 333 59007
AAXX 08064 42809 31995 03602 10270 20175 40137 70500 333 59006
AAXX 08064 42886 31996 00000 10272 20133 40144 70500 333 59006
AAXX 08064 42895 31996 03602 10286 20164 40139 70500 333 59004
AAXX 08064 42971 31995 00505 10278 20170 40140 70500 333 59003
AAXX 08064 43333 31495 60909 10296 20235 40098 70522 85401 333 56209 59013 82616 85818
AAXX 08064 42309 NIL
AAXX 08064 42398 NIL
AAXX 08064 42410 NIL
AAXX 08064 42415 NIL
AAXX 08064 42724 NIL
AAXX 08064 42977 NIL
AAXX 08064 43368 NIL
AAXX 08061 50548 32980 00000 11146 21223 40374 57025 333 21304
AAXX 08061 50564 32970 02902 11114 21215 40336 57020 333 21289
AAXX 08061 51334 11770 72501 11049 21073 40449 57004 69951 77077 83532 333 00051 21063
AAXX 08061 51818 32865 52501 11025 21070 40424 57007 81502 333 00051 21079
AAXX 08061 52378 32980 70401 11057 21191 40474 57017 80002 333 05151 21179
AAXX 08061 53487 32973 03605 11093 21190 40457 57020 333 21162
AAXX 08061 53502 32980 00902 11052 21190 40468 57029 333 00053 21179
AAXX 08061 53923 32980 23202 11024 21112 40413 57022 80002 333 21074
AAXX 08061 54049 32970 03403 11107 21235 40378 57012 333 21220
AAXX 08061 54115 32680 73607 11122 21225 40424 57001 84502 333 21155
AAXX 08061 54157 32968 00203 11113 21225 40371 57011 333 21185
AAXX 08061 54186 32970 03402 11124 21224 40333 57012 333 21223
AAXX 08061 54311 32980 02907 11101 21237 40412 57008 333 21196
AAXX 08061 54346 32968 03403 11113 21222 40352 57010 333 21145
AAXX 08061 54377 32575 10704 11071 21181 40298 57010 81100 333 21124
AAXX 08061 54386 32970 02703 11101 21188 40268 57009 333 21172
AAXX 08061 54493 32974 03603 11075 21225 40296 57013 333 21111
AAXX 08061 54587 NIL
AAXX 08061 54715 32970 00204 11005 21144 40392 57012 333 21043
AAXX 08061 54929 32980 03406 10023 21099 40351 57011 333 21002
AAXX 08061 54945 11570 63207 10009 21030 40343 57003 69901 70070 86500 333 20002
AAXX 08061 56065 11680 22701 11028 21142 36632 57022 69921 70070 81102 333 05100 21117
AAXX 08061 57193 32962 00202 10051 21053 40376 57021 333 20007
AAXX 08061 57290 32962 13601 10059 21037 40371 57023 80002 333 20021
AAXX 08064 68174 31965 13202 10219 20141 38767 48494 53005 70500 80002 333 20180 91006 555 10333 91015
AAXX 08064 68191 36/// /1203 10245 20166 39616 48525 52010 333 20193 91006 555 10329 91012
AAXX 08064 68242 32880 71512 10205 20079 38708 48489 52006 8707/ 333 20143 91016 555 10330 91015
AAXX 08064 68262 36/// /0903 10252 20142 38678 48489 52010 333 20205 91007 555 10331 91015
AAXX 08064 68263 32980 20906 10231 20139 38462 48487 52010 80002 333 20183 91010 555 10311 91017
AAXX 08064 68267 NIL
AAXX 08064 68289 36/// /0802 10176 20161 39136 48503 53010 333 20172 91004 555 10273 91015
AAXX 08064 68350 36/// /1903 10226 20095 38655 48507 52006 333 20172 91007 555 10356 91018
AAXX 08064 68368 41870 51103 10219 20147 38305 48490 50005 70522 84082 333 20170 555 10294 91019
AAXX 08064 68403 36/// /1618 10187 20069 30161 40194 52005 333 20154 91024 555 10232 91019
AAXX 08064 68424 12882 11810 10170 20085 39212 48526 53014 69944 81070 333 20121 91014 555 10303 20004 91017
AAXX 08064 68438 32882 22108 10211 20118 38808 48504 52011 82030 333 20140 91012 555 10318 91016
AAXX 08064 68442 NIL
AAXX 08064 68461 32580 71905 10207 20094 38310 48493 53007 8157/ 333 20150 91008 555 10287 91018
AAXX 08064 68512 32482 11510 10123 20064 39035 48520 53002 81600 333 20099 91014 555 10225 91019
AAXX 08064 68538 11870 11709 10187 20106 38719 48504 53010 60014 70500 81080 333 20124 91013 555 10319 20010 91017
AAXX 08064 68587 36/// /2308 10206 20166 30130 40142 52017 333 20202 91014 555 10239 91014
AAXX 08064 68588 16/// /1913 10223 20164 30131 40147 52013 60014 333 20208 91022 555 10296 20010 91014
AAXX 08064 68591 36/// /2111 10216 20182 39973 40152 52015 333 20207 91017 555 10272 91015
AAXX 08064 68592 NIL
AAXX 08064 68618 32480 51403 10134 20063 39078 48533 52006 85500 333 20104 91009 555 10239 91020
AAXX 08064 68633 36/// /1407 10159 20102 38506 48500 53013 333 20117 91011 555 10310 91018
AAXX 08064 68668 11460 81806 10151 20129 39310 48524 52008 60034 75144 886// 333 20144 91009 555 10364 20030 91017
AAXX 08064 68714 36/// /1715 10165 20036 30179 40216 53011 333 20111 91022 555 10216 91021
AAXX 08064 68727 36/// /2213 10163 20076 39146 48526 53015 333 20144 91017 555 10300 91018
AAXX 08064 68752 16/// /2412 10154 20142 39496 48540 53011 69984 333 20151 91015 555 10280 20008 91018
AAXX 08064 68816 12675 21717 10160 20065 30176 40231 53018 69984 82500 333 20137 91021 555 10217 20008 91023
AAXX 08064 68828 12570 72810 10139 20107 39979 40215 51022 69914 875// 333 20217 555 10120 20001 91021
AAXX 08064 68842 12670 72422 10163 20108 30116 40187 51024 60002 87570 333 20151 555 10233 20000 91019
AAXX 08064 68858 11480 82511 10173 20155 30017 40174 51023 60054 70226 885// 333 20164 555 10244 20048 91017
AAXX 08064 68906 32598 73503 10109 20052 30221 40287 57007 8257/ 222// 00122 333 20077 91005 555 10134 91028
AAXX 08064 68994 12598 32309 10074 20029 30020 40049 53025 60214 83500 222// 00060 333 20060 91024 555 10126 20214 91004
AAXX 08064 89004 31000 80833 11135 21141 38689 49706 58002 77377 886// 333 21151 91061 555 11135
BBXX 46206 08061 99488 71260 46/// /1500 10071 40319 57002 22200 00090 11103 70014 333 91201
BBXX 46206 08061 99488 71260 46/// /1500 10071 40319 57002 22200 00090 11103 70014 333 91201
AAXX 08064 65545 32956 0//// 10205 20176 39684 40109 333 20200 59004
AAXX 08064 65557 11408 8//// 10231 20227 39861 40100 60134 74644 885// 333 20224 59003 88611
AAXX 08064 65560 31306 8//// 10224 20224 39791 40098 74444 885// 333 20198 58002 84705 88613
AAXX 08064 65562 31202 8//// 10220 20214 3//// 4//// 74644 885// 333 20213 5//// 84703 88613
AAXX 08064 65563 31201 80000 10215 20215 39861 40100 74444 886// 333 20190 59005 88703
AAXX 08064 65578 12458 70000 10270 20253 30/// 40/// 60074 87800 333 20260 5//// 87620 94903
AAXX 08064 65585 32458 4//// 10232 20222 3//// 4//// 83502 333 20230 5//// 83613 84076
AAXX 08064 65592 11456 6//// 10227 20227 30074 40097 60044 72166 86500 333 20227 58004 86613
AAXX 08064 65594 12450 40202 10230 20226 30068 40102 60164 85200 333 20225 58000 84611 94903
AAXX 08064 65599 12458 6//// 10235 20231 30018 40092 60044 86200 333 20234 58001 86613 94912
BBXX DDFG 08063 99032 11053 41498 23604 10270 20241 40085 58015 70200 81141 22253 20200 80250
BBXX DEIR 08064 99204 30119 41698 41419 10175 20143 40144 51009 7//11 84200 22243 20504 318// 41005 80155
BBXX 2BLY5 08063 99157 70209 41/98 /0911 10242 20201 40126 56008 70200 8//// 22253 00258 20301 80215
BBXX DDZF2 08064 99249 10356 41998 23317 10200 20153 40185 51005 70200 80008 22234 00250 20202 30000 80170
BBXX A8AD7 08063 99154 70174 41695 49903 10230 20152 40115 55005 70000 83578 22253 02240 2//// 30000 80180
BBXX 2ALE5 08063 99049 70038 41397 61909 10270 20234 40098 53009 70222 857// 22211 20301 80245
BBXX PBEO 08063 99375 10075 41497 63113 10172 20114 40285 53009 70022 86800 22262 02181 20402 333// 40603 80138
BBXX C6OM8 08060 99339 70166 41/98 81308 10198 20141 40261 57/// 70322 8/727 22253 04195 20904 334// 40904 5//// 80165
BBXX 2AQK9 08064 99324 70097 41597 31015 10190 20118 40268 55003 70200 831// 22212 20403 336// 40504 5//// 80150
BBXX SHIP 08064 99428 10067 41068 02845 10150 20134 40190 56020 70200 80000 22273 20505 80140
BBXX C6XQ2 08064 99143 50355 41598 40911 10246 20208 40123 54000 70200 841// 22243 04270 2//// 3//// 4//// 5//// 80221
BBXX V7OX3 08061 99284 50367 41/97 /0905 10190 20190 40150 54000 7//// 8//// 22264 20902 3//// 4//// 5//// 80190
AAXX 08064 60195 32960 30000 10038 21043 38599 48609 5//// 80002 333 20030 30001 83073 95500
AAXX 08064 62309 32560 32408 10122 20029 40189 52009 83500 333 20107
AAXX 08064 62325 32960 01905 10132 20096 40182 57001 333 20130
AAXX 08064 62332 31956 02210 10140 20112 40189 57007 71000 333 20130
AAXX 08064 62387 31920 03003 10095 20080 40229 52010 71000 333 20072
AAXX 08064 62459 32960 03607 10124 20025 40191 52011 333 20101
AAXX 08064 62452 32960 02306 10038 20000 40238 52012 333 20016
AAXX 08061 50658 32970 03202 11153 21199 40360 57011 333 21237
AAXX 08061 50888 32980 03206 11102 21218 40276 57017 333 21219
AAXX 08061 50983 32970 02701 11112 21198 40285 57019 333 21197
AAXX 08061 51053 32980 01105 11077 21156 40461 57004 333 05204 21157
AAXX 08061 51542 32980 72503 11104 21152 37622 57009 80002 333 05101 21235
AAXX 08061 52436 32980 03203 11033 21108 38600 40449 57008 333 05103 21170
AAXX 08061 52908 32580 72510 11021 21239 35766 57008 82102 333 05102 21179
AAXX 08061 52996 32465 71402 11073 21077 37623 57020 82502 333 05101 21117
AAXX 08061 53083 11980 03203 11175 21218 40496 57004 69901 70070 333 00301 21238
AAXX 08061 53764 32973 02902 11035 21137 40427 57024 333 21088
AAXX 08061 53787 32980 03205 11031 21167 40398 57021 333 21097
AAXX 08061 54096 32970 02705 11138 21207 40305 57013 333 21220
AAXX 08061 54226 32680 23405 11099 21201 40395 57011 82102 333 21154
AAXX 08061 54259 32980 00703 11115 21224 40354 57008 333 21177
AAXX 08061 54527 32970 03408 11011 21182 40390 57020 333 21059
AAXX 08061 54534 32975 03405 11028 21155 40382 57020 333 21078
BBXX 46132 08061 99497 71279 46/// /3310 10063 40324 5//// 22200 00084 11004 70019 333 91212
BBXX 46205 08061 99542 71343 46/// /2305 10077 40304 57013 22200 00081 10503 70016 333 91206
AAXX 08064 68442 12882 40404 10190 20145 38651 48503 53007 60014 84070 333 20144 91007 555 10323 20012 91018
AAXX 08064 89020 46/// /0705 11118 21152 39701 49736 57015 90550
AAXX 08064 89257 46/// /2204 11207 21223 39739 49813 57012 90550
AAXX 08064 89262 46/// /2210 11052 21059 39743 49786 57001 90550
AAXX 08064 89266 46/// /9901 11124 21138 39673 49815 5//// 90550
AAXX 08064 89272 46/// /0510 11152 21181 37962 49603 57006 90550
AAXX 08064 89314 46/// /0811 11090 38151 4//// 57007 90550
AAXX 08064 89329 46/// /0306 11094 38671 49732 5//// 90550
AAXX 08064 89332 46/// ///02 11045 39155 49759 5//// 90550
AAXX 08064 89376 46/// /1005 11054 39708 49775 5//// 90550
AAXX 08064 89667 46/// /2015 11027 39769 49779 5//// 90600
AAXX 08064 89734 46/// /1705 11342 35898 4//// 5//// 90550
AAXX 08064 89744 46/// /1702 11310 36277 4//// 57002 90550
AAXX 08064 89769 46/// /0000 10011 39718 49769 5//// 90550
AAXX 08064 89799 46/// /1808 11262 36676 4//// 5//// 90550
AAXX 08064 89828 46/// /1212 11256 36369 4//// 5//// 90550
AAXX 08064 89832 46/// /0717 11040 39382 49671 5//// 90600
AAXX 08064 89834 46/// /1321 11148 37963 4//// 5//// 90600
AAXX 08064 89865 46/// ///// 1//// 3//// 4//// 5//// 90550
AAXX 08064 89866 46/// /2906 11011 39634 49765 5//// 90550
AAXX 08064 89869 46/// /1911 11039 39694 49771 5//// 90550
AAXX 08064 89872 46/// /2307 11035 39711 49766 52003 90550
AAXX 08064 89873 46/// /1609 11049 39709 49786 5//// 90550
AAXX 08064 89879 46/// ///02 10038 39659 49695 5//// 90550
BBXX A8MV6 08063 99158 11174 41597 50418 10275 20254 40090 58010 70322 82178 22253 04290 20703 30499 41003 5//// 80260
BBXX MGSM3 08064 99139 11337 41597 70726 10290 20265 40039 57020 70222 87900 22233 04295 20604 30909 41004 51004 80265
BBXX ZCDF4 08063 99194 70743 41/98 30718 10265 20236 40131 56010 70200 8//// 22244 00270 20301 309// 40602 5//// 80245
BBXX DEDM 08064 99498 70363 41/97 80510 10060 20015 40210 51015 75122 83620 22264 04130 20401 80040
BBXX A8SI9 08063 99542 71680 43498 82315 10060 2006/ 49920 54000 887// 22265 00063 80060
BBXX V2FU8 08063 99281 70534 41/98 /0218 10230 20152 40180 52020 7//// 8/440 22214 29901 304// 4//04 5//// 80180
BBXX PENR 08063 99189 70685 41497 20908 10270 20226 40128 57010 70200 81145 22274 20301 304// 40902 80240
BBXX GDTT 08064 99171 70650 41498 30715 10270 20270 40129 58/// 7//66 83140 22212 00300 20202 304// 40202 80270
BBXX ZCDT2 08064 99181 70757 41498 30512 10265 20205 40118 58004 70100 83200 22274 00280 20101 3//// 4//// 5//// 80225
BBXX MCCW7 08064 99046 10992 41497 70107 10299 20237 40090 52012 70566 87/5/ 22273 00275 29901 334// 4//01 5//// 80256
BBXX ELZU8 08063 99015 11044 41598 60207 10285 20237 40085 54000 70222 84175 22200 20101 303// 40303 5//// 80250
BBXX MCCN6 08064 99073 30918 41398 82718 10278 20278 40081 58010 70222 8/7// 22233 00269 2//02 327// 4//06 5//// 80278
BBXX A8QL5 08061 99228 70189 41/97 /1109 10214 20155 40160 56005 70511 8//// 22254 04230 299// 80176
BBXX ZDLS1 08063 99294 30140 41598 51430 10162 20091 40201 52010 70122 82173 22232 04173 20607 80125
BBXX AMOUK15 08064 99241 30049 46/// ///// 10185 20141 30181 40207 54002 90550
BBXX AMOUK01 08064 99295 30141 46/// ///// 10166 20094 30196 40207 52004 90550
BBXX TBWUK30 08063 99090 70160 41698 31605 10270 20256 40076 5/000 70211 8/470 22274 06281 20202 319// 40202 5//// 80260
BBXX A8FQ8 08063 99197 30059 41298 31421 10200 20177 40160 54000 70322 8341/ 22234 00192 20504 314// 40605 80185
BBXX TBWUK34 08064 99137 70185 41/97 83612 10260 20182 40105 58000 7//// 8//// 2228/ 00290 21801 300// 40000 5//// 80210
BBXX VQHO7 08064 99335 50478 41498 31813 10190 20165 40097 56001 70211 82240 22214 00212 29901 3//// 4//// 5//// 80175
AAXX 08064 88900 46/// /2515 10029 20022 30015 40017 53009 333 55000
AAXX 08064 68267 NIL
AAXX 08064 68442 NIL
AAXX 08064 68592 NIL
AAXX 08064 68155 36/// /0303 10265 20154 39160 48501 53006 333 20234 91007 555 10373 91012
AAXX 08064 68171 NIL
AAXX 08064 68176 36/// /0704 10255 20154 39105 48500 52010 333 20200 91007 555 10363 91013
AAXX 08064 68181 NIL
AAXX 08064 68182 36/// /0903 10250 20178 39314 48514 52006 333 20179 91006 555 10323 91013
AAXX 08064 68185 36/// /2602 10220 20163 38472 48404 53001 333 20144 91003 555 10307 91007
AAXX 08064 68253 NIL
AAXX 08064 68255 36/// /1402 10244 20119 38830 48483 53002 333 20222 91004 555 10329 91013
AAXX 08064 68271 16/// /3305 10247 20160 38886 48496 52006 69944 333 20210 91007 555 10371 20004 91014
AAXX 08064 68273 NIL
AAXX 08064 68287 36/// /1603 10149 20145 38558 48493 52006 333 20131 91006 555 10227 91017
AAXX 08064 68291 36/// /0902 10239 20168 39512 48517 52010 333 20171 91007 555 10316 91012
AAXX 08064 68297 NIL
AAXX 08064 68329 36/// /1908 10223 20102 39089 48522 52003 333 20145 91013 555 10317 91016
AAXX 08064 68331 36/// /2008 10207 20111 38829 48514 53001 333 20138 91012 555 10303 91018
AAXX 08064 68335 36/// /1903 10211 20110 38923 48532 52011 333 20183 91005 555 10326 91019
AAXX 08064 68341 16/// /1905 10184 20115 38524 48509 53006 60034 333 20161 91009 555 10321 20036 91019
AAXX 08064 68342 NIL
AAXX 08064 68343 NIL
AAXX 08064 68349 36/// /1806 10204 20119 38495 48488 52007 333 20172 91010 555 10304 91017
AAXX 08064 68353 16/// /1906 10215 20110 38500 48478 52006 60024 333 20187 91008 555 10320 20022 91015
AAXX 08064 68355 36/// /1307 10201 20103 38562 48496 53003 333 20179 91011 555 10333 91017
AAXX 08064 68370 NIL
AAXX 08064 68377 NIL
AAXX 08064 68380 36/// /3103 10226 20135 3//// 4//// 5//// 333 20135 91006 555 10315
AAXX 08064 68387 NIL
AAXX 08064 68411 36/// /1506 10211 20098 39974 40181 52005 333 20178 91009 555 10315 91018
AAXX 08064 68429 NIL
AAXX 08064 68449 16/// /2603 10152 20127 38385 48499 52007 69984 333 20148 91005 555 10301 20008 69985 91018
AAXX 08064 68471 36/// /1308 10191 20152 38316 48493 52011 333 20160 91010 555 10293 91018
AAXX 08064 68474 11470 81003 10218 20125 38612 48505 52005 60024 70266 8/100 333 20144 91005 555 10319 20028 91018
AAXX 08064 68479 36/// /1207 10226 20173 38938 48506 52017 333 20217 91011 555 10350 91016
AAXX 08064 68481 36/// /0902 10218 20186 39764 40130 52011 333 20189 91004 555 10313 91014
AAXX 08064 68487 16/// /1908 10178 20166 38993 48512 52010 69984 333 20177 91014 555 10333 20008 69925 91017
AAXX 08064 68491 36/// /0302 10228 20203 30110 40119 52008 333 20194 91004 555 10300 91011
AAXX 08064 68497 36/// /2411 10242 20206 30084 40128 52016 333 20208 91017 555 10330 91012
AAXX 08064 68183 32570 21103 10244 20165 39411 48513 52002 82100 333 20189 91008 555 10321 91012
AAXX 08064 68188 36/// /1602 10235 20171 39175 48510 52007 333 20174 91004 555 10299 91014
AAXX 08064 68268 36/// /2805 10301 20132 38857 48510 52005 333 20229 91010 555 10374 91015
AAXX 08064 68272 NIL
AAXX 08064 68296 32575 30703 10270 20170 39798 48537 52003 82501 333 20172 91005 555 10330 91010
AAXX 08064 68322 12982 01908 10198 20100 39148 48518 52006 69924 333 20157 91014 555 10278 20002 91016
AAXX 08064 68338 32878 51104 10225 20080 38760 48495 50000 85070 333 20174 91007 555 10331 91016
AAXX 08064 68345 NIL
AAXX 08064 68362 32680 70000 10231 20122 38485 48487 52005 82150 333 20158 91003 555 10329 91017
AAXX 08064 68400 12675 80000 10226 20194 30045 40118 52013 69944 85222 333 20188 91003 555 10328 20004 91012
AAXX 08064 68408 36/// /1509 10166 20107 30182 40190 52006 333 20143 91015 555 10222 91019
AAXX 08064 68416 NIL
AAXX 08064 68478 12589 41508 10211 20167 38863 48506 52010 69964 84500 333 20196 91017 555 10335 20006 91016
AAXX 08064 68488 36/// /1804 10202 20165 39261 48515 52011 333 20173 91011 555 10297 91015
AAXX 08064 68494 36/// /1906 10239 20186 30002 40131 53015 333 20209 91016 555 10338 91013
AAXX 08064 68524 12986 01705 10196 20046 39069 48522 52006 69924 333 20118 91011 555 10294 20002 91017
AAXX 08064 68546 NIL
AAXX 08064 68558 36/// /1903 10152 20123 38184 48500 53001 333 20139 91006 555 10295 91019
AAXX 08064 68570 16/// /1305 10168 20135 38508 48500 58004 60014 333 20156 91009 555 10320 20010 91018
AAXX 08064 68580 36/// /1505 10159 20155 38951 48511 52007 333 20158 91010 555 10319 91017
AAXX 08064 68614 32980 02014 10178 20073 30153 40194 52001 333 20131 91022 555 10251 91019
AAXX 08064 68624 32482 11508 10141 20041 38763 48531 52010 81600 333 20108 91015 555 10290 91021
AAXX 08064 68674 16/// /2305 10206 20164 30125 48567 52012 60014 333 20206 91007 555 10312 20018 91015
AAXX 08064 68712 12470 11719 10156 20061 30148 40214 52010 69964 81500 333 20116 91026 555 10193 20006 91021
AAXX 08064 68718 32689 70604 10137 20066 39978 40230 52010 875// 333 20123 91007 555 10259 91022
AAXX 08064 68722 36/// /1607 10118 20031 38568 48524 52005 333 20065 91012 555 10231 91021
AAXX 08064 68814 36/// /1815 10148 20092 30224 40232 52011 333 20136 91019 555 10216 91023
AAXX 08064 68832 36/// /1913 10114 20055 39226 48530 52013 333 20100 91023 555 10299 91020
AAXX 08064 68916 12370 20304 10147 20058 39962 40234 52012 69964 82500 333 20121 91008 555 10184 20006 91023
AAXX 08064 68920 12470 32209 10169 20036 30215 40228 52015 60014 83800 333 20143 91017 555 10229 20016 91022
AAXX 08064 68928 36/// /2510 10173 20098 30055 40216 53017 333 20154 91017 555 10244 91021
BBXX 46205 08061 99542 71343 46/// /2305 10077 40304 57013 22200 00081 10503 70016 333 91206
BBXX 44061 08061 99388 70770 46/// /3304 1//// 90620 333 91208
BBXX 44061 08061 99388 70770 46/// /3204 1//// 40113 90610 333 91209
BBXX 44061 08061 99388 70770 46/// /3304 10045 40112 90600 22200 00100 333 91206
BBXX 44059 08061 99368 70763 46/// /3509 1//// 90620 333 91213
BBXX 44059 08061 99368 70763 46/// /3509 1//// 40110 90610 333 91214
BBXX 44059 08061 99368 70763 46/// /3409 10074 40107 90600 22200 00135 333 91214
BBXX 44057 08061 99395 70761 46/// /3210 1//// 90620 333 91215
BBXX 44057 08061 99395 70761 46/// /3209 1//// 40082 90610 333 91212
BBXX 44057 08061 99395 70761 46/// /3209 10039 40080 90600 22200 00082 333 91213
BBXX 44058 08061 99376 70763 46/// /3312 1//// 90620 333 91215
BBXX 44058 08061 99376 70763 46/// /3312 1//// 40112 90610 333 91215
BBXX 44058 08061 99376 70763 46/// /3212 10061 40112 90600 22200 00118 10301 70007 333 91214
BBXX 44062 08061 99386 70764 46/// /3312 1//// 90620 22200 00109 333 91215
BBXX 44062 08061 99386 70764 46/// /3212 1//// 40089 90610 22200 00110 333 91216
BBXX 44062 08061 99386 70764 46/// /3212 10048 40087 90600 22200 00109 10302 70009 333 91216
BBXX 44063 08061 99390 70764 46/// /3210 1//// 90620 333 91214
BBXX 44063 08061 99390 70764 46/// /3210 1//// 40106 90610 333 91214
BBXX 44063 08061 99390 70764 46/// /3110 10046 40104 90600 22200 00102 10201 70003 333 91212
BBXX 44041 08061 99372 70768 46/// /3409 1//// 90620 333 91211
BBXX 44041 08061 99372 70768 46/// /3409 1//// 40140 90610 333 91211
BBXX 44041 08061 99372 70768 46/// /3509 10061 40137 90600 22200 00126 10301 70003 333 91212
BBXX 44042 08061 99380 70763 46/// /3313 1//// 90620 333 91216
BBXX 44042 08061 99380 70763 46/// /3312 1//// 40105 90610 333 91216
BBXX 44042 08061 99380 70763 46/// /3312 10060 40102 90600 22200 00115 10402 70012 333 91215
BBXX 44043 08061 99392 70764 46/// /3213 1//// 90620 333 91217
BBXX 44043 08061 99392 70764 46/// /3213 1//// 40090 90610 333 91216
BBXX 44043 08061 99392 70764 46/// /3112 10057 40086 90600 22200 00098 10301 70007 333 91215
BBXX 46132 08061 99497 71279 46/// /3310 10063 40324 5//// 22200 00084 11004 70019 333 91212
BBXX 46181 08061 99538 71288 46/// /0504 11008 40351 57002 22200 00034 10200 70001 333 91205
AAXX 08061 31825 42999 13002 11092 21204 39988 40203 55017 80009
AAXX 08061 31845 42999 02002 11132 21226 30093 40267 57014
AAXX 08061 31878 42998 02201 11146 21212 30160 40293 57016
AAXX 08061 31915 42999 02703 11086 21192 30005 40281 57021
AAXX 08061 31921 42999 01303 11101 21186 30183 40286 56020
AAXX 08061 31969 42998 03008 11073 21182 30220 40271 57016 333 91013 91113
AAXX 08061 31981 42999 00000 11112 21208 30036 40284 56013
AAXX 08061 31987 42999 03506 11096 21196 39984 40256 57009 333 91112
AAXX 08061 32069 41595 83605 11082 21101 30150 40155 54000 78683 889// 333 91008 91118
AAXX 08061 30455 42999 31301 11250 21281 39038 48544 57022 80001
AAXX 08061 30731 41597 81904 11085 21128 39797 40435 58009 77172 8251/
AAXX 08061 30739 42699 22003 11141 21184 39590 40463 58010 81540
AAXX 08061 30741 42598 33105 11124 21137 38829 48606 58005 83500
AAXX 08061 30745 42999 02402 11154 21167 39218 40441 57014
AAXX 08061 30764 42999 00000 11205 21253 39481 40448 57029
AAXX 08061 30829 42999 03502 11175 21209 39758 40506 58017
AAXX 08061 30838 42998 12302 11155 21182 39439 40493 58013 81040
AAXX 08061 30846 42999 82204 11104 21157 39479 40431 58018 86030
AAXX 08061 30859 42999 03102 11105 21158 39540 40417 57020
AAXX 08061 30862 42998 02502 11207 21226 39639 40444 57018
AAXX 08061 30957 42999 02205 11154 21196 39497 40456 58021
AAXX 08061 30975 42999 01601 11286 21332 39747 40478 57010
AAXX 08061 30499 42999 32602 11180 21206 39664 40368 57024 80001
AAXX 08061 30683 42999 02302 11161 21203 39675 40365 57022
AAXX 08061 30695 42999 03201 11171 21213 30001 40361 57022
AAXX 08061 31253 42999 82001 11249 21289 39830 40334 57022 80001
AAXX 08061 31295 42999 42502 11142 21203 39850 40331 57020 80001
AAXX 08061 31348 42999 10000 11147 21198 30032 40238 57012 80001
AAXX 08061 31418 42999 60000 11111 21207 39963 40227 57025 86030
AAXX 08061 31439 42999 63604 11141 21192 30147 40194 57008 80041
AAXX 08061 31442 42999 02704 11136 21218 39942 40314 57014
AAXX 08061 31445 42999 03104 11120 21215 30039 40305 57020
AAXX 08061 31474 42999 00000 11200 21267 39775 40294 57013
AAXX 08061 31521 32999 03003 11172 21214 30002 40314 57019
AAXX 08061 31527 42998 02903 11172 21222 39984 40307 57014
AAXX 08061 31534 42999 02903 11182 21215 39932 40301 57017
AAXX 08061 31587 42999 00000 11242 21260 30162 40323 57005
AAXX 08061 31632 NIL
AAXX 08061 31702 42998 03502 11193 21202 39942 40304 56012
AAXX 08061 31713 42999 01402 11123 21195 30152 40255 57010
AAXX 08061 31725 42998 00000 11122 21194 30184 40253 57006
AAXX 08061 31801 42999 00000 11138 21190 30010 40250 57019
BBXX 46092 08061 99368 71220 46/// /3603 10103 40204 90557 22200 00116 555 11031 22031
BBXX 46184 08061 99539 71389 46/// /2210 10071 40290 57005 22200 00068 10704 70020 333 91211
AAXX 08064 17310 11560 70501 10124 20099 30092 40099 56012 60322 78082 84270 333 20122 32012 55000 70469 84830 87460 91126 92447
AAXX 08064 13601 12665 30000 10070 20041 30065 40167 54001 60002 83800 333 20068 31/// 81840
AAXX 08061 35700 32998 81307 11085 21113 30310 40285 52004 80005 333 21103
AAXX 08061 34691 32698 81107 11039 21060 30254 40241 53009 88500 333 21051
BBXX UCAD 08061 99671 10088 41/97 90812 10050 49970 52013 70221 88/// 22212 00080 20404
BBXX 46184 08061 99539 71389 46/// /2210 10071 40290 57005 22200 00068 10704 70020 333 91211
AAXX 08064 68171 NIL
AAXX 08064 68181 NIL
AAXX 08064 68253 NIL
AAXX 08064 68273 NIL
AAXX 08064 68297 NIL
AAXX 08064 68342 NIL
AAXX 08064 68343 NIL
AAXX 08064 68370 NIL
AAXX 08064 68377 NIL
AAXX 08064 68387 NIL
AAXX 08064 68429 NIL
AAXX 08064 63729 32480 10000 10212 20180 38870 81930 333 20179 50381 55066 55310 59012 81617 81919
AAXX 08064 63733 32580 10000 10233 20190 38864 48505 81909 333 20180 50591 55098 55310 59011 81921
AAXX 08064 63756 12580 50308 10250 20194 38867 48506 60024 81240 333 0//19 20182 50471 55078 55310 59016 81824 84363
AAXX 08064 63791 32580 51209 10240 20190 39130 48514 84230 333 20202 50501 55067 55305 59002 84826
AAXX 08064 63801 11580 70000 10216 20193 39206 48531 69904 71792 8197/ 333 0//19 20193 50301 55053 55300 59006 81820 81921 87359
AAXX 08064 63832 32580 30000 10223 20193 38823 48498 81130 333 20182 50501 55067 55310 59014 81820 83358
AAXX 08064 63866 12580 60000 10225 20203 39514 48/// 69904 86500 333 20221 50551 55037 55310 59011 86622
AAXX 08064 63881 01480 70000 10170 20162 38199 48/// 60204 76022 84920 333 0//24 20145 50061 55016 55300 59007 69907 84619 81920 86458
AAXX 08064 63887 11480 70000 10200 20167 38587 48496 60071 70222 83817 333 0//29 20175 50101 55099 55300 59009 83819 87358
AAXX 08064 63894 11480 73606 10248 20243 30006 40126 60134 76162 8591/ 333 0//11 20241 50231 55037 55300 59009 70133 85819 81920 86457
AAXX 08064 63962 31480 70812 10217 20192 38947 48507 60704 8293/ 333 20189 50501 55092 59006 82619 81921 87357
AAXX 08064 63971 11570 60000 10256 20241 40104 60104 78002 84932 333 0//11 20235 50491 55056 55300 59006 84823 81924 84358
AAXX 08064 63862 NIL
AAXX 08064 63870 NIL
AAXX 08064 63932 NIL
AAXX 08061 34691 32698 81107 11039 21060 30254 40241 53009 88500 333 21051
AAXX 08061 35700 32998 81307 11085 21113 30310 40285 52004 80005 333 21103
AAXX 08064 61017 31958 50424 10170 21031 39763 40171 7072/ 80002 333 00900 20170 50754 55098 59006 85080
AAXX 08064 61024 32960 31012 10170 21016 39583 40150 80002 333 01100 20154 51581 55/// 59001 83080
AAXX 08064 61036 31956 70806 10220 21005 39886 40122 7052/ 80008 333 01700 20192 51211 50024 55076 58006 87280
AAXX 08064 61043 32960 50612 10204 21050 39692 40130 80002 333 0//00 20200 51421 55086 58006 85080
AAXX 08064 61045 32965 70000 10165 21046 39646 40145 80008 333 00400 20155 50090 55083 59001 87280
AAXX 08064 61049 32960 70804 10156 20012 39815 40137 80008 333 01300 20145 51041 50934 55104 58009 87280
AAXX 08064 61052 31930 50608 10224 21050 39878 40133 70622 80002 333 01500 20204 51121 55090 58009 85080
AAXX 08064 61075 32960 50000 10195 20016 39831 40129 80002 333 01700 20195 51291 50874 55075 58007 85080
AAXX 08064 61080 31957 71004 10164 21043 39720 40143 7062/ 80008 333 00900 20160 51271 51124 55085 58011 87280
AAXX 08064 61090 32960 70404 10166 21028 39628 40139 80008 333 01400 20165 51221 51054 55088 58002 87280
AAXX 08064 61091 31956 70000 10145 20017 39696 40154 70622 80008 333 00900 20140 50641 50564 55090 58004 87280
AAXX 08064 61096 32960 70404 10155 21068 39762 40146 80008 333 01300 20148 51261 50934 55099 58007 87280
AAXX 08064 61099 31956 70610 10232 21008 39879 40106 7062/ 80008 333 01900 20225 51071 55089 58004 87280
AAXX 08064 91723 NIL
AAXX 08064 91759 11598 59902 10257 20228 40112 53020 60001 71592 85808 333 85820
AAXX 08064 91762 11598 71304 10258 20230 40109 53017 60001 71592 868/8 333 83820 83640 87277
BBXX A8GH5 08063 99169 70209 41/97 /1218 10240 20184 40136 54000 70200 8//// 22214 20102 80202
AAXX 08064 87121 11465 81812 10190 20164 39636 40140 52005 60051 70262 8572/ 333 56339 85712 88540
AAXX 08061 24856 41997 82402 11198 21217 30142 30309 57023 77172 8802/
AAXX 08061 30679 NIL
AAXX 08061 30686 42999 01601 11203 21234 39981 40384 57017
AAXX 08061 30961 42999 00000 11180 21214 39597 40448 58014
AAXX 08061 30971 42999 00000 11137 21198 39369 40408 58018
AAXX 08061 30978 42999 01602 11252 21291 39715 40474 58006
AAXX 08061 31513 42999 03201 11143 21194 30070 40308 57017
AAXX 08061 31624 NIL
AAXX 08061 31832 42998 00000 11116 21188 30178 40269 57013
AAXX 08061 31913 43/// /3003 11099 21208 30160 40284 57015
AAXX 08061 32128 41598 73504 11065 21111 30101 40154 55004 78583 87300 333 91008 91114
AAXX 08064 68345 NIL
AAXX 08061 45032 36/// /3504 10224 20092 30155 40172 57002 333 91110
AAXX 08061 45035 36/// /0007 10215 20128 30127 40169 57003
AAXX 08061 45039 36/// /0305 10223 20112 30149 40163 57001
AAXX 08061 45044 36/// /3409 10228 20136 30067 40159 57001
AAXX 08061 45032 36/// /3504 10224 20092 30155 40172 57002 333 91110
AAXX 08061 45035 36/// /0007 10215 20128 30127 40169 57003
AAXX 08061 45039 36/// /0305 10223 20112 30149 40163 57001
AAXX 08061 45044 36/// /3409 10228 20136 30067 40159 57001
BBXX 46004 08061 99509 71361 46/// /2506 10066 40347 57006 22200 00080 11104 70018 333 91208
AAXX 08064 67002 32581 32804 10295 20222 30082 40116 82831 333 20233 59002 81822 92408
AAXX 08064 67009 12582 71408 10290 20232 39988 40103 51010 60014 872// 333 02319 10330 20240 50454 55035 87820
AAXX 08064 67012 12582 70406 10288 20251 30092 40102 51005 69944 8523/ 333 0//18 10298 20242 50194 55/// 85820 83360
AAXX 08064 67025 NIL
AAXX 08064 67027 32582 63608 10295 20245 30079 40100 51005 85232 333 02200 10320 20250 50274 55110 85820 555 81360 82073
AAXX 08064 67045 NIL
AAXX 08064 67072 11470 63606 10260 20237 30118 40121 51007 60174 71562 86800 333 02209 10292 20240 50354 55/// 83817 85640 92428
AAXX 08064 67073 32582 4//// 10296 20217 30072 40098 52013 81830 333 0//00 10308 20230 50//4 55/// 81820 555 81633 82360 81073
AAXX 08064 67083 11475 70000 10220 20187 38733 48507 51022 60324 70362 8683/ 333 01116 20162 50134 55018 81710 86620
AAXX 08064 67095 32475 70000 10278 20221 30109 40116 52012 71521 8683/ 333 02000 10307 20210 50294 55/// 83817 86640 555 84360
AAXX 08064 67113 32575 6//// 10278 20250 30/// 40/// 5//// 86830 333 0//00 10305 20232 50114 55/// 84820 555 82640 82360
AAXX 08064 67117 NIL
AAXX 08064 67137 12480 1//06 10229 20155 38885 48490 51008 60084 81832 333 0//29 10273 20164 50264 55/// 81817 555 81623 81360 81073
AAXX 08064 67143 11575 6//// 10/// 20/// 30106 40113 51002 60114 70262 86800 333 0//14 10/// 20/// 50//4 55/// 82820 86633 92437
AAXX 08064 67152 12582 1//// 10245 20201 39182 48492 52011 60054 81200 333 01719 10290 20189 50294 55/// 81820
AAXX 08064 67157 11581 6//// 10/// 20/// 30130 40137 53007 60274 70162 86800 333 0//14 10/// 20/// 50//4 55/// 83823 85640
AAXX 08064 67161 32582 2//04 10256 20226 30084 40093 51010 82800 333 0//00 10305 20195 50464 55/// 81823 555 82640
AAXX 08064 67197 32582 20819 10270 20218 30092 40102 50001 82800 333 01400 10279 20227 50524 55118 82820 555 81633
BBXX 3FBC9 08064 99306 71766 41697 60816 10210 40195 51005 70222 86966 9//// 22223 00230 20303 331// 41208 5//// 6//// 80180
BBXX 9HA2064 08063 99319 71795 41797 60525 10200 20169 40210 54000 7//22 86172 22224 0//// 2//// 3//// 4//// 5//// 6//// 80180 ICE /////
BBXX A8SI9 08063 99542 71680 43498 82315 10060 20060 49920 54000 887// 22265 00063 80060
BBXX SHIP 08064 99499 71504 41697 81824 10100 20080 40256 57049 75152 87720 22274 00160 20204 318// 40707 5//// 6//// 80090 ICE /////
AAXX 08064 89528 46/// /0108 4//// 5////
BBXX 46004 08061 99509 71361 46/// /2506 10066 40347 57006 22200 00080 11104 70018 333 91208
AAXX 08061 56671 32780 72002 10116 20053 38225 57027 874// 333 00157 20094
AAXX 08061 57378 32562 20404 10092 21034 40354 57031 81102 333 20042
AAXX 08061 57426 11562 83602 10075 20060 40304 57029 69951 76066 887// 333 00351 20072
AAXX 08061 57476 32962 00203 10093 21003 40352 57024 333 20057
AAXX 08061 57584 31958 60204 10082 20016 40342 57021 71000 86040 333 20059
AAXX 08061 57598 11660 83601 10072 20052 40325 57014 69901 70060 885// 333 20062
AAXX 08061 57655 32962 70404 10099 21027 40328 57028 8703/ 333 20065
AAXX 08061 57713 NIL
AAXX 08061 57776 31/00 93604 11008 21011 40323 57018 74944 333 21016
AAXX 08061 58321 11960 23604 10079 21052 40352 57012 69901 70060 80009 333 20058
AAXX 08061 58437 11/00 93609 11066 21069 38194 57010 60011 74974 333 21066
AAXX 08061 58445 NIL
AAXX 08061 58556 11465 83605 10065 20042 40291 54000 69931 76066 885// 333 20065
AAXX 08061 58569 11472 83407 10092 20070 40258 57003 69901 76060 887// 333 20092
AAXX 08061 58646 32662 80403 10108 20047 40269 57014 885// 333 20108
AAXX 08061 58653 NIL
AAXX 08061 58660 NIL
AAXX 08061 58715 11357 82905 10079 20057 40290 57018 69911 72166 8757/ 333 20072
AAXX 08061 58730 11780 83203 10108 20051 40264 57018 69911 70060 885// 333 20102
AAXX 08061 58731 11680 83605 10088 20057 40261 57019 69911 70060 8357/ 333 20088
AAXX 08061 58754 11575 83603 10134 20063 40237 57014 60021 76066 885// 333 20132
AAXX 08061 58911 11567 83204 10080 20048 40267 57019 69931 70060 885// 333 20080
AAXX 08061 58931 31/00 90206 10043 20043 38377 57017 74544 333 20042
AAXX 08061 59254 11575 83602 10139 20083 40237 57032 69911 70060 888// 333 20112
AAXX 08061 59632 32566 73605 10154 20069 40212 57036 878// 333 20130
AAXX 08061 59855 32474 83603 10203 20161 40163 57020 888// 333 20203
AAXX 08064 67441 12380 80000 10195 20180 48580 60064 887// 333 10302 20/// 59016 88709
AAXX 08064 67655 32780 60000 10250 20192 48495 86080 333 10320 20/// 59026 86359
AAXX 08064 67665 32980 30703 10240 20145 48503 82031 333 10305 20185 59022 82360 81080 555 00/// 91016
AAXX 08064 67599 32580 13605 10293 20204 48520 70100 81201 333 10386 20225 59024 81830 81080
AAXX 08064 67666 32980 41006 10240 20125 48502 84070 333 10305 20197 59018 84361
AAXX 08064 42634 32996 00000 10256 20154 40141 333 58001
AAXX 08064 42647 32996 00000 10286 20152 40138 333 59003
AAXX 08064 42737 32996 03404 10280 20187 40137 333 58001
AAXX 08064 42840 31995 00000 10300 20178 40139 70500 333 59002
AAXX 08064 42909 32997 00000 10294 20182 40139 222// 20000 333 58000
AAXX 08064 42921 32996 01104 10274 20130 40165 333 58003
AAXX 08064 43003 31995 00903 10318 20150 40129 70400 333 58004
AAXX 08064 43014 31996 01110 10270 20120 39494 40133 70540 333 58002
AAXX 08064 43063 32997 00903 10274 20113 39514 40129 333 58001
AAXX 08064 43110 31996 01406 10304 20143 40133 70544 333 58005
AAXX 08064 43117 32997 01401 10286 20077 40105 333 59004
AAXX 08064 43192 NIL
AAXX 08064 42559 32996 01401 10280 20138 40128 333 58000
AAXX 08064 42571 32996 00000 10264 20099 40144 333 59006
AAXX 08064 42667 31996 01606 10280 20121 39561 40139 70500 333 58000
AAXX 08064 42675 31996 00502 10254 20089 40150 70500 333 59001
AAXX 08064 42754 31996 01410 10282 20141 39502 40123 70500 333 59002
AAXX 08064 42867 31996 01104 10280 20108 40142 70500 333 59006
AAXX 08064 42933 32997 00901 10296 20118 40141 333 58000
AAXX 08064 42779 NIL
AAXX 08064 42874 NIL
AAXX 08064 43041 NIL
AAXX 08064 67441 12380 80000 10195 20180 48580 60064 887// 333 10302 20/// 59016 88709
AAXX 08064 67655 32780 60000 10250 20192 48495 86080 333 10320 20/// 59026 86359
AAXX 08064 67665 32980 30703 10240 20145 48503 82031 333 10305 20185 59022 82360 81080 555 00/// 91016
AAXX 08064 67599 32580 13605 10293 20204 48520 70100 81201 333 10386 20225 59024 81830 81080
AAXX 08064 67666 32980 41006 10240 20125 48502 84070 333 10305 20197 59018 84361
AAXX 08064 87585 32960 00505 10206 20153 30104 40133 58023
AAXX 08064 62458 32960 00107 10152 20041 40192 52010 333 20082
AAXX 08064 62420 32960 00000 10126 20056 40233 52010 333 20100
AAXX 08064 62432 32960 03201 10132 20072 40235 52008 333 20086
AAXX 08064 62435 32960 03608 10154 20077 40218 52011 333 20106
AAXX 08064 62455 32960 00401 10114 20070 40204 52010 333 20095
AAXX 08064 62476 32960 02705 10194 20160 40166 52014 333 20152
AAXX 08064 71758 17/// /0705 10053 20053 39989 40065 58025 60021 7//4/ 333 10054 20039 70116
AAXX 08064 71770 46/// /1001 11021 21041 39511 40304 5/001 6///1 333 11013 21051 7////
AAXX 08064 71788 16/// /2807 11124 21164 60001 333 11005 21127 70024 555 30217 40201
AAXX 08064 71792 16/// ///// 11187 21218 60001 333 11041 21187 70004
AAXX 08064 71359 16/// /3007 11149 21211 60001 333 11066 21149 70000 555 33225 40211
AAXX 08064 71010 16/// /2906 11164 21191 60001 333 11027 21164 70000 555 33133 40222
AAXX 08064 71011 16/// ///// 11160 21204 60001 333 11031 21168 7////
AAXX 08064 71030 17/16 /0615 10070 20068 39885 49973 58053 60081 7//4/ 333 10070 20045 70160
AAXX 08064 71032 46/// /0000 11091 21099 39485 40350 53011 6///1 333 11001 21111 7////
AAXX 08064 71888 16/// ///// 11167 21199 60001 333 11051 21169 7////
AAXX 08064 71895 17/// ///// 11186 21216 69941 7//4/ 333 11034 21186 7////
AAXX 08064 71067 17/// ///// 11163 21205 69941 7//4/ 333 11038 21165 70004
AAXX 08064 71673 16/// ///// 11178 21213 60001 333 11039 21180 70000
AAXX 08064 71690 16/// ///// 11199 21218 60001 333 11048 21202 70000
AAXX 08064 71216 16/// /1001 11014 21034 39688 40321 53007 60001 333 10003 21050 70000
AAXX 08064 71221 17/// /0201 11211 21230 60021 7//4/ 333 11076 21216 70026
AAXX 08064 71226 16/// /1705 11159 21186 60001 333 11058 21169 70000 555 33022 40111
AAXX 08064 71229 46/// /2103 11202 21227 6///1 333 11093 21202 7////
AAXX 08064 71244 16/// /0102 11103 21147 39043 40316 58003 60001 333 11040 21117 70000 555 10010 30324 40231
AAXX 08064 71283 16/// /0102 11180 21197 60001 333 11070 21195 70000 555 33017 40101
AAXX 08064 71288 16/// /3628 11220 21240 30045 40070 50011 60001 333 11137 21224 70000 555 30250 40153
AAXX 08064 71461 16/// /1705 11153 21181 60001 333 11054 21170 70000 555 33122 40101
AAXX 08064 71468 17/// /3119 11046 21071 39754 40078 55002 69961 7//4/ 333 21054 70027 555 32934 40233
AAXX 08064 71483 16/// ///// 11165 21200 60001 333 11047 21166 70000
AAXX 08064 71405 16/// ///// 11168 21198 60001 333 11036 21172 70004
AAXX 08064 71417 17/// /1008 11020 21020 30118 40153 56009 69971 7//4/ 333 11020 21059 70057 555 30824 40011
AAXX 08064 71426 46/// /0706 10006 6///1 333 10007 21042 7//// 555 30423 40071
AAXX 08064 71984 16/// /1912 11266 21292 30280 40289 58011 60001 333 11222 21266 70000 555 33032 40072
AAXX 08064 71500 16/// /2605 11147 21187 60001 333 11043 21150 70000 555 33026 40201
AAXX 08064 71504 16/// ///// 11177 21219 60001 333 11038 21177 70000
AAXX 08064 71526 16/// /3107 11142 21190 60001 333 11031 21157 70005 555 30120 40231
AAXX 08064 71541 16/// /2206 11148 21182 60001 333 11068 21155 70000 555 33225 40091
AAXX 08064 71543 17/// /0403 11228 21250 69941 7//4/ 333 11068 21235 70004
AAXX 08064 71546 16/// /1906 11185 21212 60001 333 11064 21188 70000
AAXX 08064 71547 16/// /0303 11183 21227 60001 333 11085 21183 70000
BBXX 44039 08061 99411 70727 46/// /3511 10101 20101 49929 90553 22200 00114 10402 70008 333 91216
AAXX 08061 38847 42999 70000 10040 20009 40287 53008 80004
BBXX 46247 08061 99378 71228 46/// ///// 1//// 90621 22200 00117 11302 21001 327// 41301 70009
AAXX 08064 71758 17/// /0705 10053 20053 39989 40065 58025 60021 7//4/ 333 10054 20039 70116
AAXX 08064 71770 46/// /1001 11021 21041 39511 40304 5/001 6///1 333 11013 21051 7////
AAXX 08064 71788 16/// /2807 11124 21164 60001 333 11005 21127 70024 555 30217 40201
AAXX 08064 71792 16/// ///// 11187 21218 60001 333 11041 21187 70004
AAXX 08064 71283 16/// /0102 11180 21197 60001 333 11070 21195 70000 555 33017 40101
AAXX 08064 71288 16/// /3628 11220 21240 30045 40070 50011 60001 333 11137 21224 70000 555 30250 40153
AAXX 08064 71216 16/// /1001 11014 21034 39688 40321 53007 60001 333 10003 21050 70000
AAXX 08064 71221 17/// /0201 11211 21230 60021 7//4/ 333 11076 21216 70026
AAXX 08064 71226 16/// /1705 11159 21186 60001 333 11058 21169 70000 555 33022 40111
AAXX 08064 71229 46/// /2103 11202 21227 6///1 333 11093 21202 7////
AAXX 08064 71244 16/// /0102 11103 21147 39043 40316 58003 60001 333 11040 21117 70000 555 10010 30324 40231
AAXX 08064 71888 16/// ///// 11167 21199 60001 333 11051 21169 7////
AAXX 08064 71895 17/// ///// 11186 21216 69941 7//4/ 333 11034 21186 7////
AAXX 08064 71067 17/// ///// 11163 21205 69941 7//4/ 333 11038 21165 70004
AAXX 08064 71673 16/// ///// 11178 21213 60001 333 11039 21180 70000
AAXX 08064 71690 16/// ///// 11199 21218 60001 333 11048 21202 70000
AAXX 08064 71359 16/// /3007 11149 21211 60001 333 11066 21149 70000 555 33225 40211
AAXX 08064 71010 16/// /2906 11164 21191 60001 333 11027 21164 70000 555 33133 40222
AAXX 08064 71011 16/// ///// 11160 21204 60001 333 11031 21168 7////
AAXX 08064 71030 17/16 /0615 10070 20068 39885 49973 58053 60081 7//4/ 333 10070 20045 70160
AAXX 08064 71032 46/// /0000 11091 21099 39485 40350 53011 6///1 333 11001 21111 7////
AAXX 08064 71984 16/// /1912 11266 21292 30280 40289 58011 60001 333 11222 21266 70000 555 33032 40072
AAXX 08064 71405 16/// ///// 11168 21198 60001 333 11036 21172 70004
AAXX 08064 71417 17/// /1008 11020 21020 30118 40153 56009 69971 7//4/ 333 11020 21059 70057 555 30824 40011
AAXX 08064 71426 46/// /0706 10006 6///1 333 10007 21042 7//// 555 30423 40071
AAXX 08064 71500 16/// /2605 11147 21187 60001 333 11043 21150 70000 555 33026 40201
AAXX 08064 71504 16/// ///// 11177 21219 60001 333 11038 21177 70000
AAXX 08064 71526 16/// /3107 11142 21190 60001 333 11031 21157 70005 555 30120 40231
AAXX 08064 71541 16/// /2206 11148 21182 60001 333 11068 21155 70000 555 33225 40091
AAXX 08064 71543 17/// /0403 11228 21250 69941 7//4/ 333 11068 21235 70004
AAXX 08064 71546 16/// /1906 11185 21212 60001 333 11064 21188 70000
AAXX 08064 71547 16/// /0303 11183 21227 60001 333 11085 21183 70000
AAXX 08064 71461 16/// /1705 11153 21181 60001 333 11054 21170 70000 555 33122 40101
AAXX 08064 71468 17/// /3119 11046 21071 39754 40078 55002 69961 7//4/ 333 21054 70027 555 32934 40233
AAXX 08064 71483 16/// ///// 11165 21200 60001 333 11047 21166 70000
BBXX 46246 08061 99500 71451 46/// ///// 1//// 90559 22200 00076 12007 21004 329// 42006 70037
BBXX 46146 08061 99493 71237 46/// /3205 10050 40321 52001 22200 00065 10301 70004 333 91205
AAXX 08061 56144 32680 51802 10092 21153 36841 57041 85400 333 00153 21045
AAXX 08061 56152 32780 20701 10051 21124 36295 57028 82102 333 00000 21126
AAXX 08061 56167 32780 11401 10139 21087 37048 57053 81100 333 00052 21066
AAXX 08061 56182 32680 70000 10020 21068 37207 57031 878// 333 05100 21032
AAXX 08061 56357 32680 10201 10065 21094 36452 57030 81100 333 00051 21089
AAXX 08061 56586 11458 83601 10014 21015 38103 57029 69901 77070 885// 333 00153 20001
AAXX 08061 56748 32580 32504 10187 20078 38364 57025 83200 333 05151 20089
AAXX 08061 56763 32680 73201 10212 20121 40117 57038 872// 333 05154 20120
AAXX 08061 56768 32680 52004 10169 20105 38194 57027 85200 333 05151 20096
AAXX 08061 56838 11670 22001 10219 20157 40149 57029 69901 70054 82200 333 00053 20147
AAXX 08061 56886 11470 82501 10082 20051 38338 57028 69901 70060 884// 333 00363 20071
AAXX 08061 56946 31675 60000 10225 20154 40143 57034 70040 86400 333 05101 20109
AAXX 08061 56959 32770 21602 10260 20174 40136 57034 82102 333 00051 20154
AAXX 08061 56969 32580 61601 10241 20169 40145 57034 86800 333 05100 20150
AAXX 08061 57731 11668 80201 10083 20043 40316 57028 69901 70060 885// 333 00451 20074
AAXX 08061 57766 32762 73603 10113 20004 40312 57025 87500 333 20065
AAXX 08061 57845 32962 80203 10091 20010 40296 57024 8807/ 333 20062
AAXX 08061 57853 32760 80404 10099 20000 40313 57028 885// 333 20059
AAXX 08061 57916 32675 80901 10145 20056 40267 57035 888// 333 00452 20109
AAXX 08061 57922 32666 83604 10049 20016 40299 57026 885// 333 00356 20040
AAXX 08061 57932 32670 80201 10098 20029 40300 57029 885// 333 00452 20087
AAXX 08061 58338 11662 63406 10079 21008 40329 57012 69991 70060 86500 333 20058
AAXX 08061 59007 32671 80402 10084 20042 40250 57027 885// 333 20079
AAXX 08061 59046 32576 83204 10123 20050 40268 57026 888// 333 20090
AAXX 08061 59058 11764 83203 10126 20048 40254 57030 69911 70060 885// 333 20090
AAXX 08061 59072 11763 83605 10090 20042 40278 57026 69971 76060 885// 333 20070
AAXX 08061 59087 32570 70406 10159 20055 40230 57023 878// 333 20119
AAXX 08061 59209 11570 83601 10122 20065 40237 57028 69911 70060 888// 333 20107
BBXX 46146 08061 99493 71237 46/// /3205 10050 40321 52001 22200 00065 10301 70004 333 91205
AAXX 08061 23884 41970 82201 11026 21030 30230 40301 54000 77172 8802/
BBXX 46246 08061 99500 71451 46/// ///// 1//// 90629 22200 00076 11807 20904 328// 41805 70034
BBXX 46243 08061 99462 71241 46/// ///// 1//// 90629 22200 00081 11103 20802 327// 41102 70013
BBXX 46236 08061 99368 71219 46/// ///// 1//// 90620 22200 00115 10502 20502 327// 41301 70010
BBXX 46229 08061 99438 71246 46/// ///// 1//// 90621 22200 00107 11103 20603 330// 41102 70017
BBXX 46225 08061 99329 71174 46/// ///// 1//// 90614 22200 00149 11301 21001 321// 41301 70004
BBXX 46213 08061 99403 71247 46/// ///// 1//// 90624 22200 00105 11303 20703 329// 41301 70015
BBXX 46215 08061 99352 71209 46/// ///// 1//// 90608 22200 00135 10602 20602 327// 41101 70009
BBXX CFO383 08064 99439 70602 47793 /1929 10126 2013/ 40076 5//// 734// 8//// 22200 00094 10603 2//// 3//// 70014 80129 91030
BBXX 41010 08061 99289 70785 46/// /3311 10194 40166 90620 22200 00241 10605 20605 300// 41002 70024 333 91213 555 11117 22122
BBXX 41009 08061 99285 70802 46/// /3311 10164 20102 40186 90620 22200 00240 10604 20604 300// 41102 70021 333 91214 555 11115 22120
BBXX 42364 08061 99291 70881 46/// /3609 10094 20039 40254 90630
BBXX 42361 08061 99276 70925 46/// ///09 10128 20039 40251 58006 90630 555 11070 22074
BBXX 44100 08061 99363 70756 46/// ///// 1//// 90622 22200 00146 10904 20904 311// 41101 70019
BBXX 41110 08061 99341 70777 46/// ///// 1//// 90621 22200 00158 10903 20902 315// 41101 70013
BBXX 42099 08061 99273 70842 46/// ///// 1//// 90627 22200 00243 11106 20905 328// 41102 70028
BBXX 41113 08061 99284 70805 46/// ///// 1//// 90621 22200 00222 11102 21001 310// 41101 70008
BBXX 41112 08061 99307 70813 46/// ///// 1//// 90621 22200 00168 10402 20402 311// 41101 70010
BBXX 42013 08061 99272 70829 46/// ///// 1//// 40204 90540 22200 00207
AAXX 08064 60060 32956 60406 10212 21036 40244 5//// 80002 333 20200 30013 86070 95300
BBXX CFO383 08064 99439 70602 47793 /1929 10126 2013/ 40076 5//// 734// 8//// 22200 00094 10603 2//// 3//// 70014 80129 91030
BBXX 44258 08061 99445 70634 46/// /1811 10102 40010 57045 22200 00081 11002 70012 333 91213
AAXX 08061 40650 11556 12803 10044 21011 40232 52017 60002 70500 81100
AAXX 08061 40604 12960 10000 10072 21032 40217 53007 60002 81030
AAXX 08061 40621 12960 03602 10063 21040 40239 52001 60002
AAXX 08061 40623 12960 00000 10032 21064 40259 53009 60002
AAXX 08061 40629 12960 20000 10020 21028 40236 54000 60002 80002
AAXX 08061 40631 12960 00000 10051 21015 40233 53009 60002
AAXX 08061 40634 12960 00000 10020 21020 40236 52006 60002
AAXX 08061 40637 12960 00000 10105 20030 40230 52005 60002
AAXX 08061 40642 12960 2000 10012 21126 40269 57007 60002 82030
AAXX 08061 40656 12960 12702 10045 21025 40213 52012 60002 80002
AAXX 08061 40665 12960 02702 10080 20004 40238 52017 60002
AAXX 08061 40670 12960 00000 10055 21054 20223 53009 60002
AAXX 08061 40674 12960 03003 10046 21099 40235 52016 60002
AAXX 08061 40676 12960 02405 10048 21057 40240 52018 60002
AAXX 08061 40680 12960 02901 10075 20018 40212 54000 60002
AAXX 08061 40689 12960 02705 10058 21038 40232 52010 60002
AAXX 08061 40691 12960 02102 10085 21009 40244 52010 60002
AAXX 08064 43086 32997 00502 10280 20076 39960 40136 333 59006
AAXX 08064 43128 32997 01406 10272 20181 39532 40131 333 59005
AAXX 08064 43150 31996 00208 10298 20172 30061 40135 70500 333 59009
AAXX 08064 43185 31596 30904 10294 20200 30124 40127 70500 83400 333 59008 82620
AAXX 08064 43189 32997 10903 10300 20182 30124 40133 80001 333 59010
AAXX 08064 43198 32496 30910 10248 20149 39303 40121 83500 333 56200 59002 83615
AAXX 08064 43201 32497 10904 10260 20188 39403 40115 81500 333 59005 81615
AAXX 08064 43213 32597 30902 10286 20144 39815 40129 81502 333 56209 59006
AAXX 08064 43226 32997 01403 10300 20154 30096 40125 333 58004
AAXX 08064 43233 32497 20908 10250 20131 39319 40122 82600 333 56200 59004
AAXX 08064 43237 32497 60905 10262 20165 39739 40129 84830 333 59005 83615 83825 85360
AAXX 08064 43245 32597 70502 10306 20197 30104 40131 82807 333 59005
AAXX 08064 43279 32597 60505 10298 20201 30107 40125 85430 333 59007 84620 85360
AAXX 08064 43284 32996 01110 10296 20240 30000 40114 333 58007
AAXX 08064 43295 32497 60508 10236 20134 39109 48521 85601 333 56109 59005 83710 83615
AAXX 08064 43311 32597 30000 10310 20238 40107 81501 333 59003 81620 83075
AAXX 08064 43314 32997 22702 10314 20220 40112 80001 333 58002
AAXX 08064 43321 31495 30206 10270 20164 39685 40130 70500 333 58000
AAXX 08064 43329 32597 80502 10290 20225 30104 40118 83537 333 59007
AAXX 08064 43344 31496 60510 10282 20213 30021 40120 70522 83531 333 59002 83618 84358
AAXX 08064 43346 31597 60508 10280 20243 30099 40106 84501 333 59005 84615 86075
AAXX 08064 43353 31996 03506 10304 20156 40112 70500 333 58006
AAXX 08064 43369 32597 20903 10308 20233 40104 82500 333 58002 82620
AAXX 08064 43371 32997 03603 10314 20165 30031 40102 333 58006
BBXX 44258 08061 99445 70634 46/// /1811 10102 40010 57045 22200 00081 11002 70012 333 91213
BBXX 44140 08061 99429 70515 46/// /1906 10139 40194 57009 22200 00111 10903 70014 333 91207
AAXX 08064 97008 01458 70000 10276 20250 30045 40055 57014 60031 72162 83272 333 56000 57801 60037 83818 80860
AAXX 08064 97016 32564 71801 10311 20231 30056 40058 57013 84232 333 56000 57801 84820 80860
AAXX 08064 97126 32458 71605 10316 20232 30050 40061 57026 83220 333 56000 57803 83817 85460 80860
AAXX 08064 97142 32560 62703 10312 20250 30028 40043 56025 82231 333 56000 57802 82820 84360 80859
AAXX 08064 97182 01468 63303 10293 20245 30051 40056 55031 60021 82271 333 56000 57802 60027 82820 85360 80866
AAXX 08064 97240 31460 72407 10302 20260 39952 40066 57031 70522 83132 333 56000 83816
AAXX 08064 97284 01450 80000 10213 20199 38839 40077 57015 60051 71796 86921 333 56000 57901 60057 83910 85812 80959
AAXX 08064 97310 31466 61814 10330 20242 30037 40049 57018 71421 83221 333 56000 57802 83818 84460 80840
AAXX 08064 97320 32562 50905 10320 20246 30029 40042 57020 84202 333 56000 57801 84820 80850
AAXX 08064 97378 32570 61808 10304 20221 39890 40053 50000 85101 333 56600 85820
AAXX 08064 97380 32464 12510 10343 20209 30027 40047 57025 81101 333 56000 81820
AAXX 08064 97406 NIL
AAXX 08064 97570 NIL
AAXX 08064 97630 NIL
AAXX 08064 97682 32456 73604 10308 20270 30043 40050 72216 86871 333 56000 57802 85816 87362 80860
AAXX 08064 97698 11458 80703 10268 20244 30069 40076 57018 60081 71562 8582/ 333 56009 57802 82815 83617 88461 80865
AAXX 08064 97700 32460 60204 10300 20245 30021 40035 58020 83872 333 56000 57804 82818 84358 80850
AAXX 08064 97722 32462 71706 10302 20244 30030 40045 57011 85872 333 56600 57861 83818 80857
AAXX 08064 97780 NIL
AAXX 08064 97790 11463 71103 10288 20241 30009 40029 57013 69901 70362 81132 333 56000 57805 81819 84359 87074 80858
AAXX 08064 96001 31558 71109 10304 20279 39955 40103 57013 70522 84272 333 56000 57802 84820 80860
AAXX 08064 96015 11462 71606 10296 20253 30073 40080 57018 69901 70262 85872 333 56000 57802 82816 83618 80860
AAXX 08064 96033 01460 50505 10316 20232 30085 40091 57018 69901 70262 82936 333 56000 57903 69907 81920 82617 80980
AAXX 08064 96075 01458 71205 10306 20251 30078 40083 57027 60011 70562 83271 333 56000 57802 69907 83816 80850
AAXX 08064 96087 01458 70000 10286 20255 30054 40088 58016 60011 72196 83278 333 56000 57803 60017 83815 85360 86280 80860
AAXX 08064 96171 32457 70000 10282 20238 30059 40083 57025 82222 333 56000 57802 82815 86458 80850
AAXX 08064 96207 32558 60000 10253 20215 39236 40157 57006 82232 333 56000 57800 81820 83080
AAXX 08064 96505 NIL
AAXX 08064 96525 32460 52106 10343 20239 30045 40052 57028 83971 333 56000 57901 81917 83817 80980
AAXX 08064 96529 32460 51504 10322 20251 30046 40070 57019 83101 333 56000 83818
AAXX 08064 96535 32460 52903 10326 20256 30066 40086 57018 83231 333 56000 57802 83814 80864
AAXX 08064 96557 32460 61904 10319 20223 30011 40061 57034 84221 333 56600 57861 84813 85460 80857
AAXX 08064 96559 32459 50000 10326 20233 30031 40069 57026 85200 333 56200 57823 85812 80858
AAXX 08064 96565 32459 62904 10314 20242 30030 40082 57024 84221 333 56000 57802 84810 80850
AAXX 08064 96595 31463 72608 10318 20228 30024 40076 57026 71422 85876 333 56600 57861 82818 84613 80862
AAXX 08064 96607 32460 72506 10324 20232 30055 40070 57021 85221 333 56000 85814
AAXX 08064 96615 32460 72504 10312 20240 30074 40088 56018 87201 333 56200 57823 87812 80857
AAXX 08064 96695 32458 62309 10321 20228 30051 40057 58024 83211 333 56000 57803 83617 83465 80860
AAXX 08064 96737 32458 60203 10328 20232 30033 40063 58019 84221 333 56000 57802 84815 80859
AAXX 08064 96739 32456 72203 10316 20225 30033 40082 57023 84522 333 56000 84618
AAXX 08064 96741 32560 80205 10320 20228 30066 40070 57021 82571 333 56000 82622 85460
AAXX 08064 96745 32560 83303 10327 20229 30070 40074 57023 8452/ 333 56009 84620 88460
AAXX 08064 96751 31561 73008 10263 20196 39017 48920 57017 70522 87201 333 56300 57831 82820 85620 81080 80880
AAXX 08064 96791 32560 60704 10324 20237 30013 40087 57029 82171 333 56000 57802 82820
AAXX 08064 96797 32562 53208 10316 20245 30062 40067 57032 83231 333 56000 57802 83820 80860
AAXX 08064 96837 32559 70000 10322 20222 30059 40062 56038 84231 333 56000 57800 84823
AAXX 08064 96925 01465 62105 10314 20239 30065 40070 57027 69901 70162 83272 333 56500 57850 59027 69907 83817 80860
AAXX 08064 96933 72910 10314 20237 30065 40059 57039 83921 333 56200 57921 81919 82819 86459 80973
AAXX 08064 96937 NIL
AAXX 08064 96973 01462 72406 10298 20249 30065 40071 57023 60011 70262 84971 333 56000 57902 60017 81919 80976 83820 80850
AAXX 08064 96987 32459 61705 10310 20250 30005 40065 57017 83531 333 56400 83618
AAXX 08064 96009 32458 70306 10310 20235 30051 40087 57015 83931 333 56000 57903 57803 81917 82818 84360 80962 80862
AAXX 08064 96011 32460 60104 10314 20230 30064 40090 57016 84932 333 56000 57903 81919 83620 80960
AAXX 08064 96035 32460 70000 10312 20226 30050 40088 57023 84276 333 56000 57802 84818 80845
AAXX 08064 96073 32460 70000 10292 20229 30066 40078 56034 83972 333 56000 57901 83913 80958
AAXX 08064 96091 01458 70805 10248 20236 30073 40096 57014 60391 72996 84928 333 56000 57901 60397 81920 83613 85460 80980
AAXX 08064 96109 32460 60000 10314 20239 30035 40074 57024 84232 333 56000 57803 84815 80840
AAXX 08064 96145 31450 53506 10288 20237 30085 40088 58011 70510 83211 333 56800 57883 83817 80857
AAXX 08064 96147 NIL
AAXX 08064 96163 32561 72307 10312 20252 30088 40091 83521 333 56000 83620
AAXX 08064 96179 01440 70000 10259 20245 30063 40100 57004 60211 79596 84928 333 56000 57802 60217 81920 83817 80956 80850
AAXX 08064 96195 32460 72806 10299 20241 30055 40091 58022 82171 333 56000 82815 84460
AAXX 08064 96221 NIL
AAXX 08064 96237 01458 73003 10305 20249 30038 40079 57022 60011 70262 83278 333 56000 57801 60017 83816 84360 80858
AAXX 08064 96249 01560 71608 10297 20237 30018 40079 57011 60031 70262 83232 333 56000 57801 60037 83820 80863
AAXX 08064 96253 32562 52709 10312 20230 30050 40070 57019 83832 333 56000 57800 82820 80800
AAXX 08064 96295 32460 61504 10316 20232 39976 40080 56021 83221 333 56000 57800 83815 80800
AAXX 08064 96509 32460 52104 10314 20241 30041 40052 57028 83231 333 56000 57801 83815 80858
AAXX 08064 96581 31460 71003 10031 20226 30067 40075 57022 71522 85331 333 56400 57942 81911 85810 84361 80975 80860
AAXX 08064 96633 32459 72505 10286 20251 30048 40056 57022 84971 333 56000 57901 81918 83618 85460 80980
AAXX 08064 96645 31450 72805 10315 20275 30034 40066 57025 71522 85972 333 56000 57902 57802 82912 85812 80982 80857
AAXX 08064 96655 01458 70000 10260 20236 30069 40103 57008 60031 71596 85572 333 56000 60037 85613
AAXX 08064 96685 31459 62211 10300 20237 30044 40071 57021 71562 85811 333 56000 57802 81820 80860
AAXX 08064 96749 32560 73509 10311 20229 30062 40075 57022 82522 333 56000 82622 86462
AAXX 08064 96781 31456 40000 10276 20147 39260 48732 58031 70521 82131 333 56000 57802 82818 80858
AAXX 08064 96805 32562 41004 10308 20242 30074 40083 56025 82171 333 56000 57801 82820 80860
AAXX 08064 96839 32558 70504 10320 20223 30056 40063 57038 83232 333 56000 57803 83820 80860
AAXX 08064 96935 32560 62605 10315 20239 30056 40062 57033 81232 333 56000 57801 81820 85080 80860
AAXX 08064 97014 32560 62305 10305 20227 39962 40055 57021 82171 333 56000 82822
AAXX 08064 97028 32563 83103 10290 20247 30054 40060 51009 84221 333 56000 57802 84820 87460 80860
AAXX 08064 97048 32463 53203 10340 20224 30014 40014 57022 83232 333 56000 57801 83817 80860
AAXX 08064 97072 32560 63411 10338 20211 39959 40059 57025 83221 333 56000 57806 82820 85460 80856
AAXX 08064 97086 32560 60000 10318 20245 30029 40053 56032 83231 333 56000 57803 83820 85360 80859
AAXX 08064 97096 32460 30410 10320 20258 30043 40064 57019 82231 333 56000 57803 82817 83360 80857
AAXX 08064 97120 32462 71905 10316 20251 30027 40060 57025 83236 333 56000 57802 83818 80860
AAXX 08064 97146 01457 72109 10288 20223 39982 40042 57028 69901 71796 85971 333 56000 57901 57801 69907 81912 83813 84460 80980 80860
AAXX 08064 97180 02459 63503 10292 20250 30044 40062 56029 69941 82272 333 56000 69927 82819 83359
AAXX 08064 97192 01430 82308 10264 20261 30020 40077 57016 60081 79796 889// 333 56299 57921 60077 83917 86615 80958
AAXX 08064 97230 32460 72407 10298 20241 30059 40066 57021 82272 333 56000 57802 82817 85360 80858
AAXX 08064 97260 73205 32564 10307 20244 30046 40053 57022 84931 333 56000 57903 81920 80980 83820
AAXX 08064 97270 01456 70000 10298 20253 30050 40055 58025 69961 71462 8682/ 333 56000 69967 83815 86460
AAXX 08064 97300 31560 72308 10310 20225 30031 40072 57004 71521 84271 333 56400 57841 84820 83360 80858
AAXX 08064 97340 32570 63513 10326 20260 30030 40045 57023 83232 333 56000 83820
AAXX 08064 97372 01458 80406 10256 20242 39938 40058 57015 60141 79596 86971 333 56000 60257 81915 85815
AAXX 08064 97430 11458 70000 10282 20250 30029 40058 57021 69901 71522 84932 333 56700 57971 57871 81915 83818 80980 80860
AAXX 08064 97460 32459 72404 10308 20228 30018 40032 57023 83876 333 56400 57842 82817 80858
AAXX 08064 97502 32458 73204 10296 20242 30045 40049 57014 86831 333 56000 83810 85618
AAXX 08064 97530 01456 80000 10280 20260 30045 40050 57019 60011 76166 8482/ 333 56009 57801 60017 82814 83615 85460 80860
AAXX 08064 97560 01459 80000 10248 20242 30045 40060 57018 60091 76166 84947 333 56000 57901 60097 81917 83620 86361 87279 80980
AAXX 08064 97580 01459 82705 10252 20249 30064 40071 57008 60261 76166 8482/ 333 56000 57800 69907 81814 83620 88462 80860
AAXX 08064 97600 NIL
AAXX 08064 97686 01460 72910 10251 20147 38301 40033 57021 69901 71662 85846 333 56000 57802 69907 84812 86361 80859
AAXX 08064 97690 02460 80000 10276 20247 39940 40041 57034 60011 83837 333 56000 57803 69907 83815 88279
AAXX 08064 97724 11459 81804 10286 20248 30034 40050 57015 69901 70562 83872 333 56009 57804 82817 86459 80850
AAXX 08064 97748 31460 71908 10286 20249 30060 40062 54000 71522 83976 333 56400 57941 82914 84075 80940
AAXX 08064 97760 31457 83408 10282 20244 30044 40054 57019 71522 8497/ 333 56800 57801 82915 83816 80960
AAXX 08064 97796 01320 82710 10288 20245 30000 40051 57022 69901 76022 889// 333 56009 57900 69907 82911 86707
AAXX 08064 97810 01457 73108 10270 20256 30030 40039 58018 60161 76162 85872 333 56000 57801 60107 82818 80860
AAXX 08064 97876 11360 52103 10314 20254 30039 40069 57030 69921 71562 84231 333 56000 57801 82809 82610 80858
AAXX 08064 97900 NIL
AAXX 08064 97980 02460 63605 10300 20229 30027 40034 57016 60001 84842 333 56000 84817
AAXX 08064 13601 12665 30000 10070 20041 30065 40167 54001 60002 83800 333 20068 31/// 81840
AAXX 08064 60764 13962 00000 10063 20035 30245 40299 52010 60004 333 20058
AAXX 08063 41150 42968 02809 10158 20088 40218 333 20141 30012 58004
BBXX 44140 08061 99429 70515 46/// /1906 10139 40194 57009 22200 00111 10903 70014 333 91207
BBXX 46036 08061 99484 71339 46/// /2904 10082 40369 52002 22200 00086 11103 70016 333 91205
BBXX 46036 08061 99484 71339 46/// /2904 10082 40369 52002 22200 00086 11103 70016 333 91205
AAXX 08064 40656 12960 12702 10045 21025 40213 52012 60002 80002
AAXX 08064 40665 12960 02702 10080 20004 40238 52017 60002
AAXX 08064 40670 12960 00000 10055 21054 20223 53009 60002
AAXX 08064 40674 12960 03003 10046 21099 40235 52016 60002
AAXX 08064 40676 12960 02405 10048 21057 40240 52018 60002
AAXX 08064 40680 12960 02901 10075 20018 40212 54000 60002
AAXX 08064 40689 12960 02705 10058 21038 40232 52010 60002
AAXX 08064 40691 12960 02102 10085 21009 40244 52010 60002
AAXX 08064 40604 12960 10000 10072 21032 40217 53007 60002 81030
AAXX 08064 40621 12960 03602 10063 21040 40239 52001 60002
AAXX 08064 40623 12960 00000 10032 21064 40259 53009 60002
AAXX 08064 40629 12960 20000 10020 21028 40236 54000 60002 80002
AAXX 08064 40631 12960 00000 10051 21015 40233 53009 60002
AAXX 08064 40634 12960 00000 10020 21020 40236 52006 60002
AAXX 08064 40637 12960 00000 10105 20030 40230 52005 60002
AAXX 08064 40650 11556 12803 10044 21011 40232 52017 60002 70500 81100
AAXX 08061 88900 46/// /2515 10029 20022 30015 40017 53009 333 55000
BBXX 63106 08064 99610 10017 46/// /2411 10056 49972 58012 22200
BBXX 63105 08064 99610 10017 47997 ///// 10060 21044 49972 58012 700// 22200
BBXX AMOUK08 08064 99501 70061 46/// ///// 10125 20091 30164 40166 57030 90550
BBXX 62305 08064 99504 10000 46/97 /2219 10119 20079 40205 57021 22200 00131 10602 70008 333 90710 91126
BBXX 2AUO5 08063 99606 10016 41597 21813 10066 21032 49981 56010 7//// 8/4// 22261 20001 399// 40603 80031
BBXX UAST 08061 99691 10351 41/// /1909 11010 49990 52020 7//// 8//// 222// 20403
BBXX ZCDV9 08063 99381 70332 41/98 61208 10170 20153 40247 54000 70322 8//// 22264 04210 2//// 80160
BBXX 46238 08061 99334 71195 46/// ///// 1//// 90620 22200 00150 10502 20502 327// 41301 70010
BBXX 46239 08061 99363 71221 46/// ///// 1//// 90621 22200 00130 10503 20503 329// 41301 70015
AAXX 08061 20046 11998 51402 11098 21110 39992 40024 52008 69930 70273 85030 333 21067
AAXX 08061 20069 41464 81207 11079 21115 30020 40033 51001 77173 8451/ 333 84617
AAXX 08061 20087 41897 81307 11163 21189 30076 40087 57002 77173 8807/
AAXX 08061 20292 42498 71801 11174 21215 30114 40134 54000 82531 333 91104
AAXX 08061 20353 46/// /0103 11051 21062 39990 49994 52011
AAXX 08061 20667 32998 72204 11035 21043 30032 40039 52015 69900 83031 333 21078
AAXX 08061 20674 41897 81904 11138 21151 39983 40044 52010 77187 8802/ 333 91106
AAXX 08061 20744 11056 51252 90510 91516 739//
AAXX 08061 20891 42998 20704 11277 21301 30050 40096 58004 82031 333 91105
AAXX 08061 23022 11497 72309 11017 21025 30010 40070 52013 69900 73683 87600 333 21030 91113
AAXX 08061 23032 11497 82207 11019 21034 30055 40085 52015 69930 73633 885// 333 21031 88616
AAXX 08061 23058 11598 82205 11042 21054 30115 40119 52014 69970 70232 87500 333 21071 87628
AAXX 08061 23242 31997 62304 11086 21101 30122 40138 52011 70232 86030 333 21072
AAXX 08061 23256 31998 72309 11065 21077 30123 40159 52007 73632 87030 333 21065 91012 91113
AAXX 08061 23330 32998 82003 11091 21106 30134 40155 52010 84036 333 21095
AAXX 08061 23445 32297 81704 11011 21018 30155 40181 52004 886// 333 21049 88705
AAXX 08061 23552 32297 81801 11004 21016 30173 40208 57005 885// 333 21037 88706
AAXX 08061 23631 11499 82304 11003 21015 30138 40179 52009 69900 70272 8455/ 333 21030 84610
AAXX 08061 23662 31496 82102 11004 21016 30200 40244 52003 78582 883// 333 21004
AAXX 08061 23724 12699 82203 10001 21028 30137 40202 52017 69940 885// 333 21009
AAXX 08061 23734 11598 82402 11005 21014 30121 40212 52003 69980 70272 885// 333 21020
AAXX 08061 23849 42996 52107 11059 21086 40274 52002 85030
AAXX 08061 23867 11497 82102 11019 21031 30229 40302 58001 69900 77172 8872/ 333 21024
AAXX 08061 23933 12697 82003 11049 21082 30199 40257 52005 69900 83539 333 21034
AAXX 08061 28064 32599 82102 11019 21081 30188 40281 52016 85505 333 21024
AAXX 08061 28275 32598 31804 11074 21150 30275 40337 52001 82502 333 21106
AAXX 08061 28493 32998 61602 11132 21152 30307 40407 52009 80001 333 21170
AAXX 08061 28698 31959 12101 11109 21145 30271 40436 51001 71000 80001 333 21158
AAXX 08061 23426 32989 82001 11063 21071 30137 40162 52009 8807/ 333 21080
AAXX 08061 23625 32999 62202 10001 21025 30142 40176 52010 86070 333 21026
AAXX 08061 28076 32997 72302 11062 21106 30223 40297 52009 80008 333 21077
AAXX 08061 28367 32996 32003 11094 21140 30218 40354 52005 82041 333 21093
AAXX 08061 28382 32984 50000 11148 21161 30301 40378 52011 80001 333 21170
AAXX 08061 28481 32999 62003 11110 21172 30284 40389 53007 80001 333 21138
AAXX 08061 28491 32970 12101 11092 21154 30274 40390 57002 80001 333 21137
AAXX 08061 28573 32998 22003 11150 21177 30296 40409 53014 80001 333 11148
AAXX 08061 28593 32998 22102 11116 21160 30312 40417 52007 80001 333 21153
AAXX 08061 28786 32998 02702 11140 21167 30276 40446 52004 333 21146
AAXX 08061 28797 32997 00000 11133 21160 30274 40444 51003 333 21156
AAXX 08061 28799 32998 00000 11133 21153 30286 40443 52001 333 21172
BBXX 44099 08061 99369 70757 46/// ///// 1//// 90622 22200 00136 10504 20504 308// 41101 70020
AAXX 08063 63671 32580 70905 10254 20219 878// 333 20220 83620 86821
AAXX 08063 63723 32582 60702 10283 20229 40105 862// 333 20232 58002 86825
AAXX 08064 63688 32480 30613 10185 20105 48/// 82932 333 20096 59002 81919 83078
AAXX 08064 63708 12580 11405 10240 20175 48499 60014 81900 333 20165 59004 81922
AAXX 08064 63772 12580 60000 10294 20264 60024 865// 333 20240 86620
AAXX 08064 63820 32480 73506 10283 20240 40113 81152 333 20257 59003 81819 87079
AAXX 08064 63612 NIL
AAXX 08064 63661 NIL
AAXX 08064 63671 NIL
AAXX 08064 63695 NIL
AAXX 08064 63714 NIL
AAXX 08064 63723 NIL
AAXX 08064 63740 NIL
AAXX 08064 63793 NIL
BBXX 46219 08061 99332 71199 46/// ///// 1//// 90628 22200 00137 10502 20502 329// 41201 70012
BBXX 46224 08061 99332 71175 46/// ///// 1//// 90606 22200 00154 11401 21001 320// 41401 70005
BBXX 46214 08061 99379 71235 46/// ///// 1//// 90627 22200 00117 11402 21002 327// 41402 70011
BBXX KNJK 08063 99243 70812 41798 83213 10211 20195 40168 54000 70320 8694/ 22253 00261 20302 331// 40504 5//// 6//// 80200 ICE /////
BBXX WYP8657 08064 99456 70870 41/98 32728 11055 2//// 40135 5//// 70310 8//// 22242 00044 20201 3//// 4//// 5//// 6//// 8//// ICE /////
BBXX VRWG3 08064 99401 70199 41797 /1214 10170 20100 40300 54000 70300 8//// 22223 00160 21202 3//// 4//// 5//// 6//// 80130 ICE /////
BBXX 51204 08061 99213 71581 46/// ///// 1//// 90622 22200 00249 12003 20902 331// 42002 70014
BBXX 51202 08061 99214 71577 46/// ///// 1//// 90609 22200 00243 10904 20904 300// 41202 70021
BBXX UGWJ 08061 99241 11188 41498 60112 10214 40206 54000 70201 8621/ 22252 00209 20604
BBXX A8MV6 08063 99158 11174 41597 50418 10275 20254 40090 58010 70322 82178 22253 04290 20703 30499 41003 5//// 80260
BBXX MGSM3 08064 99139 11337 41597 70726 10290 20265 40039 57020 70222 87900 22233 04295 20604 30909 41004 51004 80265
BBXX A8ME3 08060 99063 10935 41498 60905 10320 20298 40090 54000 702// 8/5// 22264 04293 20502 3//// 4//// 5////
BBXX UFLC 08060 99515 11442 41397 83410 11060 40149 54000 77072 8672/ 22243 06024 20704
BBXX A8GH5 08063 99169 70209 41/97 /1218 10240 20184 40136 54000 70200 8//// 22214 20102 80202
BBXX A8UL5 08063 99327 30319 41597 81820 10220 20179 40110 51010 70522 8577/ 22213 04205 20301 302// 40503 5//// 80193
BBXX TBWUK30 08063 99090 70160 41698 31605 10270 20256 40076 5/000 70211 8/470 22274 06281 20202 319// 40202 5//// 80260
BBXX A8QL5 08061 99228 70189 41/97 /1109 10214 20155 40160 56005 70511 8//// 22254 04230 299// 80176
BBXX TBWUK34 08064 99137 70185 41/97 83612 10260 20182 40105 58000 7//// 8//// 2228/ 00290 21801 300// 40000 5//// 80210
BBXX A8FQ8 08063 99197 30059 41298 31421 10200 20177 40160 54000 70322 8341/ 22234 00192 20504 314// 40605 80185
BBXX AMOUK15 08064 99241 30049 46/// ///// 10185 20141 30181 40207 54002 90550
BBXX ZDLS1 08063 99294 30140 41598 51430 10162 20091 40201 52010 70122 82173 22232 04173 20607 80125
BBXX AMOUK01 08064 99295 30141 46/// ///// 10166 20094 30196 40207 52004 90550
BBXX 2ALE5 08063 99049 70038 41397 61909 10270 20234 40098 53009 70222 857// 22211 20301 80245
BBXX A8AD7 08063 99154 70174 41695 49903 10230 20152 40115 55005 70000 83578 22253 02240 2//// 30000 80180
BBXX 2BLY5 08063 99157 70209 41/98 /0911 10242 20201 40126 56008 70200 8//// 22253 00258 20301 80215
BBXX DDZF2 08064 99249 10356 41998 23317 10200 20153 40185 51005 70200 80008 22234 00250 20202 30000 80170
BBXX DEIR 08064 99204 30119 41698 41419 10175 20143 40144 51009 7//11 84200 22243 20504 318// 41005 80155
BBXX PHOB 08064 99190 10398 41297 40908 10280 20267 40139 52012 70511 8114/ 22273 00270 20601 3//// 4//// 5//// 80270
BBXX C6VF5 08064 99119 10455 419// 01017 10260 2020/ 40140 5//// 70500 80000 22214 00280 2//// 3//// 4//// 5//// 6//// 80220 ICE /////
BBXX VQHO7 08064 99335 50478 41498 31813 10190 20165 40097 56001 70211 82240 22214 00212 29901 3//// 4//// 5//// 80175
BBXX V7OX3 08061 99284 50367 41/97 /0905 10190 20190 40150 54000 7//// 8//// 22264 20902 3//// 4//// 5//// 80190
BBXX C6XQ2 08064 99143 50355 41598 40911 10246 20208 40123 54000 70200 841// 22243 04270 2//// 3//// 4//// 5//// 80221
BBXX 46036 08061 99484 71339 46/// /2904 10082 40369 52002 22200 00086 11103 70016 333 91205
BBXX 44140 08061 99429 70515 46/// /1906 10139 40194 57009 22200 00111 10903 70014 333 91207
BBXX 44258 08061 99445 70634 46/// /1811 10102 40010 57045 22200 00081 11002 70012 333 91213
BBXX 41113 08061 99284 70805 46/// ///// 1//// 90621 22200 00222 11102 21001 310// 41101 70008
BBXX 41010 08061 99289 70785 46/// /3311 10194 40166 90620 22200 00241 10605 20605 300// 41002 70024 333 91213 555 11117 22122
BBXX 44100 08061 99363 70756 46/// ///// 1//// 90622 22200 00146 10904 20904 311// 41101 70019
BBXX 41009 08061 99285 70802 46/// /3311 10164 20102 40186 90620 22200 00240 10604 20604 300// 41102 70021 333 91214 555 11115 22120
BBXX 41112 08061 99307 70813 46/// ///// 1//// 90621 22200 00168 10402 20402 311// 41101 70010
BBXX 42013 08061 99272 70829 46/// ///// 1//// 40204 90540 22200 00207
BBXX 42099 08061 99273 70842 46/// ///// 1//// 90627 22200 00243 11106 20905 328// 41102 70028
BBXX 42361 08061 99276 70925 46/// ///09 10128 20039 40251 58006 90630 555 11070 22074
BBXX 42364 08061 99291 70881 46/// /3609 10094 20039 40254 90630
BBXX 41110 08061 99341 70777 46/// ///// 1//// 90621 22200 00158 10903 20902 315// 41101 70013
BBXX CFO383 08064 99439 70602 47793 /1929 10126 2013/ 40076 5//// 734// 8//// 22200 00094 10603 2//// 3//// 70014 80129 91030
BBXX 46243 08061 99462 71241 46/// ///// 1//// 90629 22200 00081 11103 20802 327// 41102 70013
BBXX 46213 08061 99403 71247 46/// ///// 1//// 90624 22200 00105 11303 20703 329// 41301 70015
BBXX 46236 08061 99368 71219 46/// ///// 1//// 90620 22200 00115 10502 20502 327// 41301 70010
BBXX 46229 08061 99438 71246 46/// ///// 1//// 90621 22200 00107 11103 20603 330// 41102 70017
BBXX 46215 08061 99352 71209 46/// ///// 1//// 90608 22200 00135 10602 20602 327// 41101 70009
BBXX 46225 08061 99329 71174 46/// ///// 1//// 90614 22200 00149 11301 21001 321// 41301 70004
BBXX 46246 08061 99500 71451 46/// ///// 1//// 90629 22200 00076 11807 20904 328// 41805 70034
BBXX 46146 08061 99493 71237 46/// /3205 10050 40321 52001 22200 00065 10301 70004 333 91205
BBXX 46246 08061 99500 71451 46/// ///// 1//// 90559 22200 00076 12007 21004 329// 42006 70037
BBXX 46247 08061 99378 71228 46/// ///// 1//// 90621 22200 00117 11302 21001 327// 41301 70009
BBXX 44039 08061 99411 70727 46/// /3511 10101 20101 49929 90553 22200 00114 10402 70008 333 91216
BBXX 46004 08061 99509 71361 46/// /2506 10066 40347 57006 22200 00080 11104 70018 333 91208
BBXX 46184 08061 99539 71389 46/// /2210 10071 40290 57005 22200 00068 10704 70020 333 91211
BBXX 46092 08061 99368 71220 46/// /3603 10103 40204 90557 22200 00116 555 11031 22031
BBXX 46181 08061 99538 71288 46/// /0504 11008 40351 57002 22200 00034 10200 70001 333 91205
BBXX 44058 08061 99376 70763 46/// /3312 1//// 40112 90610 333 91215
BBXX 44058 08061 99376 70763 46/// /3212 10061 40112 90600 22200 00118 10301 70007 333 91214
BBXX 44043 08061 99392 70764 46/// /3213 1//// 40090 90610 333 91216
BBXX 44043 08061 99392 70764 46/// /3112 10057 40086 90600 22200 00098 10301 70007 333 91215
BBXX 44042 08061 99380 70763 46/// /3312 1//// 40105 90610 333 91216
BBXX 44058 08061 99376 70763 46/// /3312 1//// 90620 333 91215
BBXX 44057 08061 99395 70761 46/// /3210 1//// 90620 333 91215
BBXX 44057 08061 99395 70761 46/// /3209 1//// 40082 90610 333 91212
BBXX 44057 08061 99395 70761 46/// /3209 10039 40080 90600 22200 00082 333 91213
BBXX 44059 08061 99368 70763 46/// /3409 10074 40107 90600 22200 00135 333 91214
BBXX 44059 08061 99368 70763 46/// /3509 1//// 40110 90610 333 91214
BBXX 44059 08061 99368 70763 46/// /3509 1//// 90620 333 91213
BBXX 44061 08061 99388 70770 46/// /3204 1//// 40113 90610 333 91209
BBXX 44061 08061 99388 70770 46/// /3304 10045 40112 90600 22200 00100 333 91206
BBXX 44061 08061 99388 70770 46/// /3304 1//// 90620 333 91208
BBXX 44043 08061 99392 70764 46/// /3213 1//// 90620 333 91217
BBXX 44042 08061 99380 70763 46/// /3312 10060 40102 90600 22200 00115 10402 70012 333 91215
BBXX 44041 08061 99372 70768 46/// /3409 1//// 40140 90610 333 91211
BBXX 44041 08061 99372 70768 46/// /3409 1//// 90620 333 91211
BBXX 44042 08061 99380 70763 46/// /3313 1//// 90620 333 91216
BBXX 44041 08061 99372 70768 46/// /3509 10061 40137 90600 22200 00126 10301 70003 333 91212
BBXX 44062 08061 99386 70764 46/// /3212 10048 40087 90600 22200 00109 10302 70009 333 91216
BBXX 44063 08061 99390 70764 46/// /3210 1//// 40106 90610 333 91214
BBXX 44062 08061 99386 70764 46/// /3212 1//// 40089 90610 22200 00110 333 91216
BBXX 44063 08061 99390 70764 46/// /3210 1//// 90620 333 91214
BBXX 44062 08061 99386 70764 46/// /3312 1//// 90620 22200 00109 333 91215
BBXX 44063 08061 99390 70764 46/// /3110 10046 40104 90600 22200 00102 10201 70003 333 91212
BBXX DEDM 08064 99498 70363 41/97 80510 10060 20015 40210 51015 75122 83620 22264 04130 20401 80040
BBXX V2FU8 08063 99281 70534 41/98 /0218 10230 20152 40180 52020 7//// 8/440 22214 29901 304// 4//04 5//// 80180
BBXX A8SI9 08063 99542 71680 43498 82315 10060 2006/ 49920 54000 887// 22265 00063 80060
BBXX PENR 08063 99189 70685 41497 20908 10270 20226 40128 57010 70200 81145 22274 20301 304// 40902 80240
BBXX GDTT 08064 99171 70650 41498 30715 10270 20270 40129 58/// 7//66 83140 22212 00300 20202 304// 40202 80270
BBXX ZCDT2 08064 99181 70757 41498 30512 10265 20205 40118 58004 70100 83200 22274 00280 20101 3//// 4//// 5//// 80225
BBXX 46205 08061 99542 71343 46/// /2305 10077 40304 57013 22200 00081 10503 70016 333 91206
BBXX 46132 08061 99497 71279 46/// /3310 10063 40324 5//// 22200 00084 11004 70019 333 91212
BBXX 46206 08061 99488 71260 46/// /1500 10071 40319 57002 22200 00090 11103 70014 333 91201
BBXX KNJK 08063 99243 70812 41798 83213 10211 20195 40168 54000 70320 8694/ 22253 00261 20302 331// 40504 5//// 6//// 80200 ICE /////
BBXX C6YA7 08064 99271 71698 41497 80523 10195 2017/ 40190 51010 75152 8894/ 22223 0//// 20404 331// 41005 5//// 6//// 80180 ICE /////
BBXX 46185 08061 99524 71298 46/// /0302 10046 40342 57003 22200 00073 11401 70007 333 91203
BBXX C6VG7 08064 99188 70793 41497 70625 10219 2020/ 40128 57001 78280 863// 22275 00280 20303 336// 4//// 5//// 6//// 80208 ICE /////
BBXX C6TQ6 08064 99168 70874 41797 20217 10240 20196 40170 52020 70211 82967 22232 00270 20204 31920 40204 50104 6//// 80210 ICE /////
BBXX V7HC6 08064 99273 70907 41697 70314 10120 20102 40248 56004 70222 84477 22200 00233 20602 305// 40702 5//// 6//// 80110 ICE /////
BBXX WDA5598 08064 99601 71458 41396 80955 10006 2//// 40173 57/// 76976 8762/ 22272 0//// 20000 309// 4//07 5//// 6//// 8//// ICE /////
BBXX 46087 08061 99485 71247 46/// /0904 10060 20037 40315 90620 22200 00083 333 91205 555 11044 22045 30524 40807 60619 085042 080045 056039 054042 070050 077058
BBXX 46088 08061 99483 71232 46/// /3505 10053 40318 90620 22200 00082 1//00 70002 333 91207 555 11047 22048 30534 40107 60619 347044 347032 341033 340043 015052 017041
BBXX 44030 08061 99432 70704 46/// /3510 1//// 49969 56046 90604 22200 00094 10502 70010 333 91211 555 11119 22127
BBXX 44029 08061 99425 70706 46/10 /3512 10069 49949 58050 90604 22200 00098 10503 70013 333 91214 555 11145 22154
BBXX 41036 08061 99342 70770 46/// ///// 10128 20073 40126 90620 22200 00174
BBXX 42364 08061 99291 70881 46/// /0108 10094 20044 40258 90615
BBXX 42363 08061 99282 70892 46/// /0109 10111 20033 40261 90630 333 91209
BBXX 42363 08061 99282 70892 46/// /3608 10111 20039 40261 90615 333 91209
BBXX WKAB 08063 99331 70780 41397 73240 10125 20098 40140 52075 7//62 87/// 22255 00227 20806 319// 40809 5//// 6//// 80110 ICE /////
BBXX A8HJ8 08063 99012 11034 41696 32606 10336 20265 40090 58010 70500 83300 22200 20201 30000 80282
BBXX MCCW7 08064 99046 10992 41497 70107 10299 20237 40090 52012 70566 87/5/ 22273 00275 29901 334// 4//01 5//// 80256
BBXX MCCN6 08064 99073 30918 41398 82718 10278 20278 40081 58010 70222 8/7// 22233 00269 2//02 327// 4//06 5//// 80278
BBXX ELZU8 08063 99015 11044 41598 60207 10285 20237 40085 54000 70222 84175 22200 20101 303// 40303 5//// 80250
BBXX DDFG 08063 99032 11053 41498 23604 10270 20241 40085 58015 70200 81141 22253 20200 80250
BBXX SHIP 08064 99213 31503 41/98 11120 10250 40041 70200 22234
BBXX VROB 08064 99068 31470 46/// /1208 10298 20225 30014 40038 57009 22200 04311 85245
BBXX FHZI 08064 99556 31425 46/// /2913 10036 20014 39928 49939 52036 22283 04021 85026
BBXX UCAD 08061 99671 10088 41/97 90812 10050 49970 52013 70221 88/// 22212 00080 20404
BBXX PBEO 08063 99375 10075 41497 63113 10172 20114 40285 53009 70022 86800 22262 02181 20402 333// 40603 80138
BBXX 2AQK9 08064 99324 70097 41597 31015 10190 20118 40268 55003 70200 831// 22212 20403 336// 40504 5//// 80150
BBXX C6OM8 08060 99339 70166 41/98 81308 10198 20141 40261 57/// 70322 8/727 22253 04195 20904 334// 40904 5//// 80165
BBXX SHIP 08064 99428 10067 41068 02845 10150 20134 40190 56020 70200 80000 22273 20505 80140
BBXX VRWG3 08064 99401 70199 41797 /1214 10170 20100 40300 54000 70300 8//// 22223 00160 21202 3//// 4//// 5//// 6//// 80130 ICE /////
BBXX BAREU62 08064 99405 10270 46/// ///// 40174 52005 22214
BBXX BAREU06 08064 99376 70094 46/// ///// 40280 57003 22284
BBXX BAREU12 08064 99529 10039 46/// ///// 40144 52022 22254
BBXX MINUK04 0806/ 99544 10056 46/// ///// 10080 4//// 57005
BBXX JPBN 08064 99342 11486 41/97 82526 10198 20130 40074 55012 78082 882// 22241 00213 1//03 20503 30427 41003 50802 70017
BBXX ONDE 08063 99360 11410 41897 80420 10090 20070 40080 54000 75055 8896/ 22200 00170 20604 336// 4//// 5//// 6//// 80080 ICE /////
BBXX SHIP 08064 99307 11344 41393 70234 10170 20154 40115 57025 76266 86676 22284 00220 20605 301// 40707 80160
BBXX SHIP 08064 99317 11468 41598 72322 10215 20161 40092 50041 70322 8556/ 90600 22262 00220 20302 305// 40506 80180
BBXX UFLC 08060 99515 11442 41397 83410 11060 40149 54000 77072 8672/ 22243 06024 20704
BBXX PEBT 08063 99402 10264 41998 10810 10075 20030 40180 53020 7//00 80005 22213 02120 20000 300// 40000 5//// 80054
AAXX 08064 91723 NIL
AAXX 08064 91964 NIL
AAXX 08064 94996 41580 70913 10200 20113 30003 40139 53006 71482 81181 90630
AAXX 08064 94996 41580 70913 10200 20113 30003 40139 53006 71482 81181 90630
BBXX KS094 08064 99185 70645 43/// /1007 10267 40129 22200 06271
BBXX KS078 08064 99400 31633 43/// /2832 10158 40184 22223
BBXX KS098 08064 99446 71240 43/// /2405 10045 40279 22200 06000
BBXX SHIP 08064 99423 11638 41798 32813 10100 20081 40055 57003 70121 83131 22223 00110 20203 311// 40304 80090
BBXX 44137 08061 99423 70620 46/// /1706 10139 40084 57024 22200 00113 11004 70018 333 91207
AAXX 08061 31152 41996 81802 11264 21296 39879 40322 57021 77172 8802/
AAXX 08061 31163 NIL
AAXX 08061 31285 42699 72002 11204 21271 30199 40284 57016 82576
AAXX 08061 31561 42998 01602 11181 21207 30229 40259 57013
AAXX 08061 31683 42699 30000 11105 21189 30116 40193 57007 81501
AAXX 08061 32010 41596 73206 11072 21089 30071 40121 57007 78582 87900 333 87919 91011 91113
BBXX 44137 08061 99423 70620 46/// /1706 10139 40084 57024 22200 00113 11004 70018 333 91207
AAXX 08064 71277 46/// /1807 11176 21199 6///1 333 11058 21176 7////
AAXX 08064 71592 16/// /0709 11156 21231 30022 40035 58002 60001 333 11146 21189 70000 555 31023 40001
AAXX 08064 71761 16/// ///// 11154 21205 60001 333 11070 21154 70000
AAXX 08064 71768 46/// /2906 11055 21075 39777 40343 53011 6///1 333 10017 21057 7////
AAXX 08064 71775 46/// /0000 10030 20018 30319 40325 53007 6///1 333 10047 20020 7////
AAXX 08064 71776 46/// /2205 11042 21057 39650 40312 53006 6///1 333 10005 21052 7////
AAXX 08064 71779 16/// /0802 11117 21127 39668 40361 56008 60001 333 11086 21128 70000 555 10010
AAXX 08064 71782 46/// /1212 11078 21125 38926 40300 51005 6///1 333 11028 21148 7//// 555 31221 40041
AAXX 08064 71923 16/// ///50 11179 21193 39491 49941 53017 60001 333 11176 21228 70004
AAXX 08064 71924 11974 00620 11216 21267 30025 40117 57001 60001 73600 333 11185 21241 48037 70000 555 10000 20000 30826 40071
AAXX 08064 71963 17/// /3340 11206 21224 39634 40046 53013 69971 7//4/ 333 11187 21222 70021 555 33357 40203
AAXX 08064 71999 46/// ///// 11031 6///1 333 10019 21048 7////
AAXX 08064 71199 46/// /3002 11191 21212 39435 40323 56014 6///1 333 11190 21280 7////
AAXX 08064 71215 46/// /0103 11013 21043 39970 40325 53010 6///1 333 10037 21073 7////
AAXX 08064 71049 16/// /0709 11251 39812 49836 51047 60001 333 11185 21251 70000 555 31424 40031
AAXX 08064 71475 16/// /3302 11010 21011 30234 40330 58001 60001 333 10057 21022 70000
AAXX 08064 71490 17/// /3549 11209 21226 39674 49994 51027 60021 7//4/ 333 11151 21214 70049 555 10020 20049 33561 40023
AAXX 08064 60549 11960 01809 10020 20007 39018 48607 53007 60004 700// 333 00000 20016 95900
AAXX 08064 71924 11974 00620 11216 21267 30025 40117 57001 60001 73600 333 11185 21241 48037 70000 555 10000 20000 30826 40071
BBXX MINUK03 0806/ 99536 10024 46/// ///// 10068 40098 57012
AAXX 08064 71592 16/// /0709 11156 21231 30022 40035 58002 60001 333 11146 21189 70000 555 31023 40001
AAXX 08064 71215 46/// /0103 11013 21043 39970 40325 53010 6///1 333 10037 21073 7////
AAXX 08064 71923 16/// ///50 11179 21193 39491 49941 53017 60001 333 11176 21228 70004
AAXX 08064 71199 46/// /3002 11191 21212 39435 40323 56014 6///1 333 11190 21280 7////
AAXX 08064 71277 46/// /1807 11176 21199 6///1 333 11058 21176 7////
AAXX 08064 71475 16/// /3302 11010 21011 30234 40330 58001 60001 333 10057 21022 70000
AAXX 08064 71490 17/// /3549 11209 21226 39674 49994 51027 60021 7//4/ 333 11151 21214 70049 555 10020 20049 33561 40023
AAXX 08064 71761 16/// ///// 11154 21205 60001 333 11070 21154 70000
AAXX 08064 71768 46/// /2906 11055 21075 39777 40343 53011 6///1 333 10017 21057 7////
AAXX 08064 71775 46/// /0000 10030 20018 30319 40325 53007 6///1 333 10047 20020 7////
AAXX 08064 71776 46/// /2205 11042 21057 39650 40312 53006 6///1 333 10005 21052 7////
AAXX 08064 71779 16/// /0802 11117 21127 39668 40361 56008 60001 333 11086 21128 70000 555 10010
AAXX 08064 71782 46/// /1212 11078 21125 38926 40300 51005 6///1 333 11028 21148 7//// 555 31221 40041
AAXX 08064 71049 16/// /0709 11251 39812 49836 51047 60001 333 11185 21251 70000 555 31424 40031
AAXX 08064 71963 17/// /3340 11206 21224 39634 40046 53013 69971 7//4/ 333 11187 21222 70021 555 33357 40203
AAXX 08064 71999 46/// ///// 11031 6///1 333 10019 21048 7////
BBXX 44138 08061 99443 70536 46/// /1908 10109 40149 57011 22200 00091 11004 70019 333 91210
BBXX 44138 08061 99443 70536 46/// /1908 10109 40149 57011 22200 00091 11004 70019 333 91210
AAXX 08064 63870 11465 73610 10250 20238 30092 40110 60164 76196 8393/ 333 0//19 20238 50731 55035 55300 59012 83214 81916 86358
AAXX 08064 13601 12665 30000 10070 20041 30065 40167 54001 60002 83800 333 20068 31/// 81840
AAXX 08064 41184 42960 02202 10234 20148 40189 333 20135 58011
AAXX 08064 41194 11958 01603 10222 20137 30194 40199 60001 70600 333 20179 58011
AAXX 08064 41196 42960 09902 10224 20139 30161 40200 333 20127 30012 58013
AAXX 08064 41198 42560 10306 10248 20099 40192 81500 333 20194 58014 81625
AAXX 08064 41217 42660 32304 10214 20142 30162 40191 83400 333 20152 30014 58005 83645
AAXX 08064 41218 41958 03603 10195 20133 39891 40201 70510 333 20147 30013 58003
AAXX 08064 40394 42960 02208 10088 21050 39073 48537 333 20040 59012 555 04410 50224
BBXX 46004 08061 99509 71361 46/// /2506 10066 40347 57006 22200 00080 11104 70018 333 91208
BBXX 46036 08061 99484 71339 46/// /2904 10082 40369 52002 22200 00086 11103 70016 333 91205
BBXX 46181 08061 99538 71288 46/// /0504 11008 40351 57002 22200 00034 10200 70001 333 91205
BBXX 46183 08061 99536 71311 46/// /1404 10047 40332 57009 22200 00081 11000 70002 333 91204
BBXX 46185 08061 99524 71298 46/// /0302 10046 40342 57003 22200 00073 11401 70007 333 91203
BBXX 46204 08061 99514 71288 46/// /3005 10059 40339 57001 22200 00082 11103 70014 333 91206
BBXX 46205 08061 99542 71343 46/// /2305 10077 40304 57013 22200 00081 10503 70016 333 91206
BBXX 46206 08061 99488 71260 46/// /1500 10071 40319 57002 22200 00090 11103 70014 333 91201
BBXX KS098 08064 99446 71240 43/// /2405 10045 40279 22200 06000
BBXX WDB9918 08064 99411 71258 41/98 /3630 10111 20090 40221 54000 70200 8//// 22273 00117 2//// 3//// 4//// 5//// 6//// 80100 ICE /////
BBXX WECH 08064 99329 71206 43498 43219 10144 20100 40217 52023 7//// 8469/ 22255 00150 2//// 3//// 4//// 5//// 6//// 80122 ICE /////
AAXX 08061 98134 11456 80000 10238 20232 39925 40115 5//// 60011 78082 8527/ 333 56999 85817 88357
AAXX 08061 98223 31462 73602 10298 20231 40068 57048 70544 82878 333 56999 82819 84360 85279
AAXX 08061 98232 31570 60402 10276 20248 40113 57020 70242 82270 222// 20100 333 56199 82820 86358
AAXX 08061 98325 31460 63001 10285 20245 40070 58032 70544 82570 333 56999 82816 84358
AAXX 08061 98328 31462 71401 10224 20153 38495 40067 57017 70544 82231 333 56999 82814 84358 84079
AAXX 08061 98330 11470 60405 10315 20266 30036 40068 57039 69901 70564 82270 333 56999 82818 86358
AAXX 08061 98336 11475 70406 10277 20242 30081 40086 57030 60011 70544 81238 333 56199 81818 87277
AAXX 08061 98429 31560 52704 10298 20236 40064 57031 70544 83930 333 56999 81922 82823 83360
AAXX 08061 98430 31458 73602 10304 20233 40060 57015 69941 70544 85970 333 56999 82918 83720 85358
AAXX 08061 98431 31469 70601 10276 20248 30023 40070 58032 70544 82270 333 56999 82818 87359
AAXX 08061 98440 11458 80404 10265 20252 30057 40062 57026 60061 76366 8522/ 333 56299 85815 88457
AAXX 08061 98444 11450 80301 10265 20253 30040 40059 58033 60097 76086 8422/ 333 56999 84817 88359
AAXX 08061 98526 32570 80000 10320 20281 40058 57025 81237 333 56999 81820 83358 88274 98315
AAXX 08061 98531 31570 60904 10320 20252 30043 40047 58037 70544 82202 333 56199 82820 85075
AAXX 08061 98536 31470 80404 10262 20237 39859 40057 58033 70544 8327/ 222// 20000 333 56199 83818 88357
AAXX 08061 98543 11475 80000 10268 20248 30049 40060 57023 69921 70282 83407 333 56299 83618 88272
AAXX 08061 98550 11458 80000 10262 20239 40062 57019 60041 76066 8422/ 333 56999 84818 88457
AAXX 08061 98618 11480 80903 10290 20248 40059 58019 69961 70282 82977 333 56999 81917 82820 86458 88274
AAXX 08061 98630 11470 80201 10258 20236 40123 58006 60251 70266 8422/ 222// 2//01 333 56199 84818 88458
AAXX 08061 98637 NIL
AAXX 08061 98646 11560 83402 10260 20247 30046 40074 57024 60081 72166 8327/ 333 56999 83820 88459
AAXX 08061 98653 31465 80402 10275 20248 30005 40050 57020 71544 83278 333 56999 83818 84358 86272
AAXX 08061 98741 21466 83602 10281 20251 40040 57036 69901 71588 81977 333 56999 81917 84358 88275
AAXX 08061 98747 11460 83601 10285 20245 39839 40042 57029 69901 70584 8327/ 333 56999 83818 88358
AAXX 08061 98753 11465 80401 10268 20249 40055 57024 60011 70564 83277 333 56899 83816 86359 88279
AAXX 08061 98755 11465 80000 10253 20246 40058 58020 60141 78088 8452/ 333 56999 84617 88458
AAXX 08061 98836 32462 71203 10302 20247 40060 57016 83970 333 56999 83918 87362
AAXX 08061 78310 12402 70106 10236 20220 30164 40174 58001 60001 84902 333 10280 20193 30/// 56909 57943 58000 70005 83819 85075 819// 92035
AAXX 08061 78315 12564 63601 10198 20187 30100 40165 58005 60001 84230 333 10293 20179 30/// 56990 59001 84820 86360
AAXX 08061 78318 01459 73610 10234 20214 30161 40165 58006 60031 76186 878// 333 10278 20174 32/// 56999 59005 60017 70025 84818 83620
AAXX 08061 78322 12956 00000 10171 20158 30149 40166 58008 60001 333 10310 20157 30/// 59007
AAXX 08061 78324 12/00 20201 10226 20204 30151 40162 58005 60001 82500 333 10264 20203 30/// 56900 58000 826//
AAXX 08061 78325 11530 30302 10236 20180 30108 40166 56006 60001 70400 83200 333 10266 20195 30/// 56100 58000 83820 555 10402
AAXX 08061 78328 12/62 10205 10242 20173 30160 40/// 58002 60001 81100 333 10275 20211 30/// 56900 59006 818//
AAXX 08061 78333 12/10 13402 10197 20188 30152 40159 56003 60001 81100 333 10303 20183 30/// 56900 59003 818//
AAXX 08061 78344 11910 00301 10201 20199 30109 40157 58003 60001 71000 333 10300 20189 30/// 56000 58002
AAXX 08061 78345 12965 03601 10211 20204 30151 40154 58002 60001 333 10298 20183 30/// 59002
AAXX 08061 78348 11550 30000 10210 20201 30104 40156 58004 60001 70500 83800 333 10265 20210 30/// 56800 57832 59004 83820 555 10202
AAXX 08061 78349 12440 23301 10208 20203 30049 40158 58005 60001 82100 333 10293 20193 30/// 56900 59005 82819
AAXX 08061 78351 12550 10105 10221 20211 30136 40138 58003 60001 81500 333 10307 20187 30/// 56900 59004 81626
AAXX 08061 78353 12560 10301 10241 20223 30123 40145 58009 60001 81200 333 10282 20224 31/// 56900 59007 81820
AAXX 08061 78355 12560 50102 10222 20215 30008 40148 56008 60001 85800 333 10276 20199 30/// 56900 59005 84820
AAXX 08061 78358 12530 10301 10241 20228 30120 40135 58008 60001 81200 333 10288 20207 31/// 56900 59002 81823
AAXX 08061 78360 11/60 10303 10230 20215 30125 40136 56009 60021 70160 81800 333 10300 20220 31/// 56900 59001 70015 818// 92023
AAXX 08061 78363 12557 50000 10206 20199 30006 40120 58009 60001 85500 333 10284 20206 30/// 56900 59005 85621
AAXX 08061 78365 01550 40908 10257 20228 30137 40142 58007 60011 72580 84860 333 10275 20250 32/// 56290 57863 58000 60017 70026 84820 92035 555 10903
AAXX 08061 78369 11464 30604 10259 20224 30120 40129 56004 69951 70380 83200 333 10281 20249 30/// 56900 57860 58003 70006 83818
AAXX 08064 89573 35970 70711 11045 21131 39706 49728 52002 8707/
AAXX 08064 89610 46/// /0429 11043 39452 4//// 5//// 333 90700 91135
AAXX 08064 89807 46/// /2015 11035 29064 39588 4//// 5//// 333 90700 91127
AAXX 08064 94290 46/// /1509 10291 30034 40043 56007 90624
AAXX 08064 94210 35/// /2413 10319 30038 40043 57019
AAXX 08064 94289 46/// /3206 10295 30030 40037 56010 90615
AAXX 08064 94379 46/// /1314 10258 30045 40054 55001 90626
AAXX 08064 95287 41/98 31305 10315 20256 3//// 4//// 70211 82206
AAXX 08064 95290 41/98 31110 10290 20255 3//// 4//// 70222 82206
AAXX 08061 01494 11484 11102 11067 21073 39965 40032 53014 60002 70200 81500 333 21069 70003 91103
BBXX 44040 08061 99410 70736 46/// /0214 10060 20060 49973 90549 22200 10302 70011 333 91219 555 11160 22175
BBXX 44056 08061 99362 70757 46/// ///// 1//// 90550 22200 00145 11002 21002 310// 41101 70012
AAXX 08064 94290 46/// /1509 10291 30034 40043 56007 90624
AAXX 08064 89573 35970 70711 11045 21131 39706 49728 52002 8707/
AAXX 08064 89610 46/// /0429 11043 39452 4//// 5//// 333 90700 91135
AAXX 08064 89807 46/// /2015 11035 29064 39588 4//// 5//// 333 90700 91127
BBXX SHIP 08064 99499 71504 41697 81825 10100 20081 40256 57049 75152 86720 22274 00160 20204 318// 40707 80090
AAXX 0806/ 48969 NIL
AAXX 0806/ 48962 NIL
AAXX 0806/ 48990 NIL
AAXX 0806/ 48986 NIL
AAXX 0806/ 48995 NIL
AAXX 0806/ 48967 NIL
AAXX 0806/ 48992 NIL
AAXX 0806/ 48965 NIL
AAXX 0806/ 48985 NIL
AAXX 0806/ 48970 NIL
AAXX 0806/ 48991 NIL
AAXX 0806/ 48964 NIL
AAXX 0806/ 48997 NIL
AAXX 0806/ 48968 NIL
AAXX 0806/ 48973 NIL
AAXX 0806/ 48966 NIL
AAXX 0806/ 48983 NIL
AAXX 0806/ 48972 NIL
AAXX 0806/ 48998 NIL
AAXX 0806/ 48993 NIL
AAXX 0806/ 48971 NIL
AAXX 0806/ 48963 NIL
AAXX 0806/ 48987 NIL
AAXX 08064 63740 43570 33610 10195 20154 48515 83200 333 20160 59001 83820
AAXX 08064 63932 12580 70000 10187 20162 38306 48503 60144 8397/ 333 0//29 20162 50491 55012 55300 59013 83822 81923 87358
AAXX 08064 71824 46/// /2701 11095 21103 6///1 333 11087 21220 7////
AAXX 08064 71048 16/// /2913 11151 21197 60001 333 11018 21151 70004 555 33230 40202
AAXX 08064 71981 16/// /2002 11107 21135 60001 333 11031 21112 70010
AAXX 08064 71982 16/// /1903 11114 21138 60001 333 11032 21114 70009 555 30318 40181
AAXX 08064 71986 16/// /2709 11169 21203 60001 333 11020 21177 70009 555 33226 40211
AAXX 08064 71990 17/// /0403 11204 21225 38586 40263 58012 69961 7//4/ 333 11158 21227 70015 555 32017 40001
AAXX 08064 71406 16/// /0911 11023 21038 30134 40144 56006 60001 333 11023 21069 70000 555 30624 40231
AAXX 08064 71418 46/// /1124 10042 20035 30025 40057 58019 6///1 333 10047 20034 7//// 555 31128 40192
AAXX 08064 71354 16/// /3009 11145 21183 60001 333 11049 21145 70000 555 33228 40212
AAXX 08061 38725 42699 40901 10010 21199 48520 53003 82501
AAXX 08064 71354 16/// /3009 11145 21183 60001 333 11049 21145 70000 555 33228 40212
AAXX 08064 71981 16/// /2002 11107 21135 60001 333 11031 21112 70010
AAXX 08064 71982 16/// /1903 11114 21138 60001 333 11032 21114 70009 555 30318 40181
AAXX 08064 71986 16/// /2709 11169 21203 60001 333 11020 21177 70009 555 33226 40211
AAXX 08064 71990 17/// /0403 11204 21225 38586 40263 58012 69961 7//4/ 333 11158 21227 70015 555 32017 40001
AAXX 08064 71824 46/// /2701 11095 21103 6///1 333 11087 21220 7////
AAXX 08064 71048 16/// /2913 11151 21197 60001 333 11018 21151 70004 555 33230 40202
AAXX 08064 71406 16/// /0911 11023 21038 30134 40144 56006 60001 333 11023 21069 70000 555 30624 40231
AAXX 08064 71418 46/// /1124 10042 20035 30025 40057 58019 6///1 333 10047 20034 7//// 555 31128 40192
AAXX 08064 78982 01484 50806 10253 20238 30093 40098 57017 60041 70282 83231 333 58009 60047 83816 83081
AAXX 08063 63674 32470 71105 10229 20193 39062 48511 8253/ 333 20200 59005 82618 87361 555 10205
AAXX 08063 63658 32980 40702 10235 20165 38880 48511 80005 333 20182 59007 84040 555 10190
AAXX 08063 63702 11470 70000 10197 20186 60264 70242 81538 333 20160 81618 86363 555 10190
AAXX 08063 63630 12980 10904 10245 20184 48/// 69944 80001 333 20184 81079 555 10205
AAXX 08063 63726 11530 3000 10155 20147 38140 48493 60064 71044 81230 333 20126 59010 81820 83363 555 10150
AAXX 08063 63682 32478 70903 10198 20192 48/// 82971 333 20170 82818 81919 88361 87077 555 10194
AAXX 08064 13601 12665 30000 10070 20041 30065 40167 54001 60002 83800 333 20068 31/// 81840
AAXX 08064 60101 32458 40806 10113 20096 40277 54000 82202 333 20073 82816 83070
AAXX 08064 60135 31320 31306 10072 20066 40277 53002 71042 83600 333 20043 30002 83706
AAXX 08064 60156 17150 31404 10039 20032 40289 58004 69904 71030 83600 333 20038 83703
AAXX 08064 60230 12960 01302 10070 20047 40284 58001 60004 333 20065
AAXX 0806/ 89327 46/// ///// 11026 39738 4//// 5//// 90630
BBXX 45143 08061 99449 70806 46/// /3210 10023 39880 40096 52011 22200 00076 10503 70014 333 91212
AAXX 08061 25563 11440 80110 11138 21151 39893 49973 57001 60042 77173 8872/ 333 11138 91119
BBXX 45143 08061 99449 70806 46/// /3210 10023 39880 40096 52011 22200 00076 10503 70014 333 91212
BBXX 42360 08061 99267 70905 46/// /0308 10145 90600 22200 00250 10804 70021 333 91211
AAXX 08064 89657 46/// /1402 11059 20042 49784 57008
AAXX 08064 68325 12960 60000 10212 20142 48496 52008 60044 86080 333 20180
AAXX 08064 91367 32474 21008 10294 20272 82100 333 562// 82815 70000 555 90806 91369 32474 80915 10294 20251 30070 40073 82121 333 56229 82815 81260 82180 70000 555 90806 91371 32474 40912 10278 20252 30084 40087 84221 333 56229 84815 82160 82280 70000 555 90806
AAXX 08064 91324 NIF 91329 11474 81406 10272 20256 30125 40128 60141 70282 84301 333 563/9 70140 84918 88075 555 90806
AAXX 08064 91336 11474 81205 10283 20256 30125 40128 60151 70282 8321/ 333 56399 70269 83818 88462 555 90806
AAXX 08064 91339 11474 80805 10283 20246 30051 40057 69951 70282 8522/ 333 56299 70005 85818 88462 555 90806
AAXX 08064 91320 11474 80410 10289 20261 30105 40090 60041 70262 8191/ 333 56199 70043 81916 81916 555 90806
AAXX 08064 91203 32474 70810 10308 20277 30080 40085 57010 81176 333 56299 70000 81818 85080 555 90806
AAXX 08064 91317 32474 51405 10306 20291 30082 40086 5//// 82170 333 5639/ 70051 82815 83365 555 90806
AAXX 08064 91413 32469 80908 10300 20253 30042 40068 56012 84531 333 56299 70020 555 90806
BBXX 41053 08061 99185 70661 46/// /2201 10257 40113 90630 333 91202
BBXX 41053 08061 99185 70661 46/// /2001 10257 40114 90620 333 91203
BBXX 41053 08061 99185 70661 46/// /2002 10257 40114 90610 333 91203
BBXX 41052 08061 99183 70648 46/// /0504 10271 40106 90630 333 91205
BBXX 41052 08061 99183 70648 46/// /0603 10270 40106 90620 333 91204
BBXX 41052 08061 99183 70648 46/// /0403 10269 40107 90610 333 91205
BBXX 42085 08061 99179 70665 46/// /0604 10270 40109 90630 333 91205
BBXX 42085 08061 99179 70665 46/// /0504 10268 40111 90620 333 91205
BBXX 42085 08061 99179 70665 46/// /0604 10268 40112 90610 333 91205
AAXX 08064 91413 32469 80908 10300 20253 30042 40068 56012 84531 333 56299 70020 555 90806
AAXX 08064 91203 32474 70810 10308 20277 30080 40085 57010 81176 333 56299 70000 81818 85080 555 90806
AAXX 08064 91324 NIF 91329 11474 81406 10272 20256 30125 40128 60141 70282 84301 333 563/9 70140 84918 88075 555 90806
AAXX 08064 91336 11474 81205 10283 20256 30125 40128 60151 70282 8321/ 333 56399 70269 83818 88462 555 90806
AAXX 08064 91339 11474 80805 10283 20246 30051 40057 69951 70282 8522/ 333 56299 70005 85818 88462 555 90806
AAXX 08064 91320 11474 80410 10289 20261 30105 40090 60041 70262 8191/ 333 56199 70043 81916 81916 555 90806
AAXX 08064 91324 NIF 91329 11474 81406 10272 20256 30125 40128 60141 70282 84301 333 563/9 70140 84918 88075 555 90806
AAXX 08064 91336 11474 81205 10283 20256 30125 40128 60151 70282 8321/ 333 56399 70269 83818 88462 555 90806
AAXX 08064 91339 11474 80805 10283 20246 30051 40057 69951 70282 8522/ 333 56299 70005 85818 88462 555 90806
AAXX 08064 91320 11474 80410 10289 20261 30105 40090 60041 70262 8191/ 333 56199 70043 81916 81916 555 90806
AAXX 08064 91367 32474 21008 10294 20272 82100 333 562// 82815 70000 555 90806 91369 32474 80915 10294 20251 30070 40073 82121 333 56229 82815 81260 82180 70000 555 90806 91371 32474 40912 10278 20252 30084 40087 84221 333 56229 84815 82160 82280 70000 555 90806
AAXX 08064 91317 32474 51405 10306 20291 30082 40086 5//// 82170 333 5639/ 70051 82815 83365 555 90806
BBXX ONFP 08064 99331 30042 43593 81624 10140 2006/ 40310 51010 7//// 8875/ 22233 04168 20804 31918 41007 51006 6//// 80100 ICE /////
BBXX WRAH 08064 99247 10579 41498 43413 10240 2//// 40169 57004 7//// 8265/ 22234 00264 20303 3//// 4//// 5//// 6//// 8//// ICE /////
BBXX KS078 08064 99400 31633 43/// /2832 10158 40184 22223
BBXX WRAH 08064 99247 10579 41498 43413 10240 2//// 40169 57004 7//// 8265/ 22234 00264 20303 3//// 4//// 5//// 6//// 8//// ICE /////
BBXX ONFP 08064 99331 30042 43593 81624 10140 2006/ 40310 51010 7//// 8875/ 22233 04168 20804 31918 41007 51006 6//// 80100 ICE /////
BBXX DGZL 08063 99061 10883 41598 40612 10305 20229 40095 57010 70111 83173 22263 00290 20702 304// 40702 80250
BBXX 42360 08061 99267 70905 46/// /0308 10145 90600 22200 00250 10804 70021 333 91211
BBXX SHIP 08064 99499 71504 41697 81825 10100 20081 40256 57049 75152 86720 22274 00160 20204 318// 40707 80090
BBXX 44056 08061 99362 70757 46/// ///// 1//// 90550 22200 00145 11002 21002 310// 41101 70012
BBXX 44040 08061 99410 70736 46/// /0214 10060 20060 49973 90549 22200 10302 70011 333 91219 555 11160 22175
BBXX 44138 08061 99443 70536 46/// /1908 10109 40149 57011 22200 00091 11004 70019 333 91210
BBXX 44137 08061 99423 70620 46/// /1706 10139 40084 57024 22200 00113 11004 70018 333 91207
BBXX KS094 08064 99185 70645 43/// /1007 10267 40129 22200 06271
BBXX KS098 08064 99446 71240 43/// /2405 10045 40279 22200 06000
BBXX DGOS 08063 99326 70696 41297 81732 10230 20145 40150 50000 70222 8/7// 22224 299// 80176
BBXX 46214 08061 99379 71235 46/// ///// 1//// 90627 22200 00117 11402 21002 327// 41402 70011
BBXX 46219 08061 99332 71199 46/// ///// 1//// 90628 22200 00137 10502 20502 329// 41201 70012
BBXX 46224 08061 99332 71175 46/// ///// 1//// 90606 22200 00154 11401 21001 320// 41401 70005
BBXX 46238 08061 99334 71195 46/// ///// 1//// 90620 22200 00150 10502 20502 327// 41301 70010
BBXX 46239 08061 99363 71221 46/// ///// 1//// 90621 22200 00130 10503 20503 329// 41301 70015
BBXX 44099 08061 99369 70757 46/// ///// 1//// 90622 22200 00136 10504 20504 308// 41101 70020
BBXX 45143 08061 99449 70806 46/// /3210 10023 39880 40096 52011 22200 00076 10503 70014 333 91212
BBXX WYP8657 08064 99456 70870 41/98 32728 11055 2//// 40135 5//// 70310 8//// 22242 00044 20201 3//// 4//// 5//// 6//// 8//// ICE /////
BBXX MINUK03 0806/ 99536 10024 46/// ///// 10068 40098 57012
BBXX PEBT 08063 99402 10264 41998 10810 10075 20030 40180 53020 7//00 80005 22213 02120 20000 300// 40000 5//// 80054
BBXX MINUK04 0806/ 99544 10056 46/// ///// 10080 4//// 57005
BBXX ZCDV9 08063 99381 70332 41/98 61208 10170 20153 40247 54000 70322 8//// 22264 04210 2//// 80160
BBXX UAST 08061 99691 10351 41/// /1909 11010 49990 52020 7//// 8//// 222// 20403
BBXX 2AUO5 08063 99606 10016 41597 21813 10066 21032 49981 56010 7//// 8/4// 22261 20001 399// 40603 80031
AAXX 08064 87648 32960 00000 10168 20154 30140 40151 54000
AAXX 08061 47008 42970 03205 11035 21185 30221 40277 58006
AAXX 08061 47014 42950 40000 11097 21190 39869 40293 57011 80001
AAXX 08061 47016 11970 02702 11094 21184 39370 40267 57008 69901 70171
AAXX 08061 47020 42565 73202 11070 21133 39895 40292 58013 87500
AAXX 08061 47025 12568 30504 11037 21094 30218 40248 57005 69901 83500
AAXX 08061 47035 42970 03607 11049 21129 30270 40279 57021
AAXX 08061 47041 41560 80000 11008 21020 30191 40219 57006 77274 8802/
AAXX 08061 47055 11520 80000 10000 20000 30179 40226 58006 60031 77377 8802/
AAXX 08061 47058 42960 03205 11011 21090 30198 40246 58014
AAXX 08061 47069 42565 33204 11003 21061 30142 40245 58003 83500
AAXX 08061 47003 42980 03209 11058 21161 30266 40270 57014
AAXX 08061 47005 42980 13603 11142 21213 38589 57001 80001
AAXX 08061 47022 42475 83601 11127 21162 38827 54000 82507
AAXX 08061 47028 42967 00503 11051 21175 30186 40281 57015
AAXX 08061 47031 41560 80000 11076 21094 38904 57015 77177 8802/
AAXX 08061 47037 42970 03204 11042 21132 30127 40255 58012
AAXX 08061 47039 42960 03203 11009 21127 30039 40235 57021
AAXX 08061 47046 11550 80504 11013 21050 30201 40224 57005 69931 77072 8802/
AAXX 08061 47050 42965 03403 11017 21137 30203 40238 57017
AAXX 08061 47052 42565 83204 11024 21068 39875 40223 57013 885//
AAXX 08061 47060 42560 62704 10019 21051 30193 40252 58011 86100
AAXX 08061 47061 11650 80000 11003 21006 30181 40225 54000 60241 77177 8802/
AAXX 08061 47065 41960 63207 11022 21065 30187 40254 57005 71022 86040
AAXX 08061 47067 41960 83205 10002 21042 30120 40243 57019 71022 80001
AAXX 08061 47068 42570 83207 11028 21077 30209 40245 58011 885//
AAXX 08061 47070 42970 02704 10009 21051 30138 40227 58016
AAXX 08061 47075 42580 82303 11011 21047 39716 40152 57009 885//
AAXX 08064 16360 12898 21604 10136 20072 30047 40182 56004 60002 82030 333 20102 30/// 55062 2//// 82357 555 0100/
AAXX 08064 47418 12/82 23611 11007 21120 30064 40114 53003 60001 82202
AAXX 08064 47746 11/60 8//// 10093 20084 30103 4//// 5//// 6///1 78082 882//
AAXX 08064 61202 32965 21408 10217 21089 39608 40158 81042 333 01500 20200 51334 55099 58009 81365
AAXX 08064 61214 NIL
AAXX 08064 61223 32960 50604 10147 21014 39843 40154 80002 333 01200 20145 50784 55090 59003 85075
AAXX 08064 61226 31958 20408 10162 20002 39851 40149 70600 80002 333 01500 20160 51014 55072 58009 82075
AAXX 08064 61230 32960 20404 10155 21010 39834 40103 80002 333 0//00 20160 50914 55094 58002 82075
AAXX 08064 61233 32960 70000 10172 20013 3//// 4//// 80002 333 01000 20170 50834 55/// 5//// 87075
AAXX 08064 61235 32960 20410 10232 21005 3//// 4//// 80002 333 02400 20225 51674 55082 5//// 82075
AAXX 08064 61240 31959 50000 10220 21015 39808 40131 70611 80002 333 01800 20205 51134 55092 58003 85075
AAXX 08064 61250 32960 20000 10175 20040 3//// 4//// 81042 333 01800 20175 51044 55098 5//// 81365
AAXX 08064 61257 32960 01204 10175 20028 30053 40147 333 01600 20170 50614 55086 59012
AAXX 08064 61265 32965 50806 10163 20033 39815 40122 80002 333 01300 20162 50950 55095 58003 85075
AAXX 08064 61270 32960 00404 10207 20042 3//// 4//// 333 01700 20190 50824 55094 5////
AAXX 08064 61272 32960 50404 10202 20077 39794 40118 80002 333 01600 20202 5//// 55097 59001 85075
AAXX 08064 61277 32960 20402 10175 20093 39798 40117 80002 333 01600 20170 50731 55098 59006 82075
AAXX 08064 61285 32960 33206 10247 20016 39949 40097 80002 333 01500 20228 50994 55101 59006 83075
AAXX 08064 61291 32960 40608 10220 20023 39694 40101 80002 333 01600 20201 51071 55091 59004 84075
AAXX 08064 61293 32960 40000 10170 20106 3//// 4//// 80002 333 01300 20178 50900 55086 5//// 84075
AAXX 08064 61296 32960 70404 10178 20096 3//// 4//// 86072 333 01200 20174 50600 55090 5//// 86365
AAXX 08064 61297 31956 60202 10172 20117 3//// 4//// 70411 80002 333 01300 20169 51041 55101 5//// 86075
AAXX 08064 91367 32474 21008 10294 20272 82100 333 562// 82815 70000 555 90806 91369 32474 80915 10294 20251 30070 40073 82121 333 56229 82815 81260 82180 70000 555 90806 91371 32474 40912 10278 20252 30084 40087 84221 333 56229 84815 82160 82280 70000 555 90806
AAXX 08064 65046 31910 60609 10143 20004 39606 70522 80008 333 20132 58002 86280
AAXX 08064 65125 31950 70000 10185 20051 30730 40134 70522 80008 333 20112 58004 87280
AAXX 08064 65236 31909 70000 10246 20237 30000 4//// 74242 80008 333 20243 5//// 87280 65252 11905 70000 10219 20210 39966 40104 74642 80008 333 20211 59005 87280
AAXX 08064 65271 11956 70000 110148 20124 300616 40119 60001 70522 80008 333 20127 59001 87280
AAXX 08061 45032 36/// /0205 10222 20096 30155 40172 54000 333 91110
AAXX 08061 45035 36/// /3508 10215 20126 30125 40167 57002
AAXX 08061 45039 36/// /0304 10225 20118 30149 40163 54000
AAXX 08061 45044 36/// /3409 10228 20133 30065 40157 57002
AAXX 08061 45032 36/// /0205 10222 20096 30155 40172 54000 333 91110
AAXX 08061 45035 36/// /3508 10215 20126 30125 40167 57002
AAXX 08061 45039 36/// /0304 10225 20118 30149 40163 54000
AAXX 08061 45044 36/// /3409 10228 20133 30065 40157 57002
AAXX 08064 42779 32996 00000 10254 20088 39451 40141 333 59007
AAXX 08064 42874 32996 00502 10276 20107 40140 333 59006
AAXX 08064 43041 32996 00000 10260 20092 39521 40132 333 59013
AAXX 08061 55279 32980 02706 10017 21291 35740 57008 333 00251 21059
AAXX 08061 55472 32980 02710 10029 21282 35775 57009 333 00151 21086
AAXX 08061 55696 32980 00000 10067 21101 36358 57036 333 00000 21088
AAXX 08061 56079 32680 70702 11018 21075 36688 57019 879// 333 05100 21105
AAXX 08061 56106 32780 22707 10054 21228 36234 57018 82100 333 00151 21122
AAXX 08061 56257 32680 10903 10065 21121 36268 57031 81100 333 05152 21062
AAXX 08061 56374 11580 80907 11001 21055 37445 57037 69901 70080 884// 333 00051 21035
AAXX 08061 56385 11/00 93202 11065 21066 37033 57026 69961 77074 333 00053 21089
AAXX 08061 56954 32580 20401 10253 20150 40137 57035 82100 333 05100 20126
AAXX 08061 56966 32780 21404 10283 20142 40130 57046 82100 333 05101 20147
AAXX 08061 57237 32980 73603 10084 21028 40314 57032 8704/ 333 20050
AAXX 08061 57306 32975 80000 10106 20009 40305 57035 8807/ 333 20053
AAXX 08061 57604 11750 81101 10092 20076 40302 57031 69911 71060 885// 333 20081
AAXX 08061 57707 11473 80202 10030 20012 38566 57031 69901 76000 887// 333 00253 20021
AAXX 08061 57832 11766 80203 10058 20017 39554 40315 57029 69901 70060 885// 333 00301 20041
AAXX 08061 55228 32780 10701 11011 21269 36056 57009 81140 333 00201 21156
AAXX 08061 55578 32980 02204 10127 21260 36400 57017 333 00151 21044
AAXX 08061 55664 32980 02201 10073 21235 36047 57015 333 00151 21116
AAXX 08061 55773 31970 02705 10117 21202 36031 57017 70040 333 00004 21116
AAXX 08061 56116 32680 12906 10060 21195 36344 57027 81100 333 00052 21083
AAXX 08061 56137 32680 71101 10103 21160 36785 57038 83142 333 00054 21065
AAXX 08061 56172 32680 12905 10089 21054 37337 57043 81100 333 00052 21039
AAXX 08061 56247 32880 12504 10154 21074 37412 57052 81100 333 05100 20011
AAXX 08061 56312 32680 21602 10127 21073 37099 57027 82100 333 00003 20009
AAXX 08061 56462 32680 21803 10123 21062 37124 57040 82400 333 00051 21018
AAXX 08061 56651 32680 52505 10155 21007 37646 57031 85400 333 05102 20009
AAXX 08061 56691 11470 80000 11007 21020 37818 57027 69911 76866 887// 333 00152 21022 93428
AAXX 08061 56985 32560 70202 10170 20092 38733 40168 57027 86402 333 00256 20129
AAXX 08061 57633 32667 81601 10064 20011 39525 40328 57028 884// 333 00400 20052
AAXX 08061 57902 11475 80702 10063 20040 38697 40274 57029 69901 70060 885// 333 00252 20055
AAXX 08064 42724 31595 23601 10278 20170 40136 70522 82500 333 59004 82620
AAXX 08063 63674 32470 71105 10229 20193 39062 48511 8253/ 333 20200 59005 82618 87361 555 10205
AAXX 08063 63658 32980 40702 10235 20165 38880 48511 80005 333 20182 59007 84040 555 10190
AAXX 08063 63702 11470 70000 10197 20186 60264 70242 81538 333 20160 81618 86363 555 10190
AAXX 08063 63630 12980 10904 10245 20184 48/// 69944 80001 333 20184 81079 555 10205
AAXX 08063 63726 11530 3000 10155 20147 38140 48493 60064 71044 81230 333 20126 59010 81820 83363 555 10150
AAXX 08063 63682 32478 70903 10198 20192 48/// 82971 333 20170 82818 81919 88361 87077 555 10194
AAXX 08061 11130 11440 82301 10018 20011 39647 40250 52031 60212 76162 887// 333 10046 20014 88712 91113 91113 555 10038 6016/
BBXX VQOG5 08064 99060 10897 41598 20515 10299 20247 40089 58006 70200 82100 22223 00279 20303 302// 41003 80262
BBXX VRBQ6 08064 99247 11307 41/98 /2414 10290 20235 40144 56010 70200 8//// 22214 00260 20303 307// 40402 80250
BBXX A80K4 08063 99058 10846 41598 30607 10285 20230 40010 57010 70211 82145 22264 04290 20601 303// 40601 80245
BBXX PDWT 08063 99058 31272 41898 79904 10/// 20/// 40060 56019 70200 87101 22283 06286 20401 80245
BBXX DQVN 08063 99297 11225 41298 83530 10125 20078 40240 54000 760// 887// 22200 00174 20505 80100
BBXX VVPG 08063 99191 10726 41798 43406 10300 20271 40102 51005 70201 84021 22200 00/// 2////
BBXX 9MBW7 08064 99288 11316 41497 82735 10210 20197 40070 56030 75151 8888/ 22233 00247 20410 327// 40410 80205
BBXX DQXQ 08064 99260 11209 41598 80240 10158 20106 40215 57010 70262 8651/ 22253 00210 20712 302// 40812 80128
BBXX DGZS2 08063 99028 11052 41598 50106 10290 20235 40100 52/// 70222 83146 22214 00280 2//// 80250
BBXX ZCBV4 08064 99042 11059 41297 42802 10300 20280 40135 5//// 70211 81668 22253 00300 20500 304// 40401 80285
BBXX A8RH4 08064 99262 11208 41396 70345 10180 20163 40190 5/000 71022 86623 22213 04210 20714 30302 40813 50913 80170
BBXX MTDU5 08063 99346 30229 41598 /2527 10185 20078 40200 52015 70122 8/44/ 22262 04189 20804 80130
BBXX VQOG5 08064 99060 10897 41598 20515 10299 20247 40089 58006 70200 82100 22223 00279 20303 302// 41003 80262
BBXX VRBQ6 08064 99247 11307 41/98 /2414 10290 20235 40144 56010 70200 8//// 22214 00260 20303 307// 40402 80250
BBXX A80K4 08063 99058 10846 41598 30607 10285 20230 40010 57010 70211 82145 22264 04290 20601 303// 40601 80245
BBXX PDWT 08063 99058 31272 41898 79904 10/// 20/// 40060 56019 70200 87101 22283 06286 20401 80245
BBXX DQVN 08063 99297 11225 41298 83530 10125 20078 40240 54000 760// 887// 22200 00174 20505 80100
BBXX VVPG 08063 99191 10726 41798 43406 10300 20271 40102 51005 70201 84021 22200 00/// 2////
BBXX 9MBW7 08064 99288 11316 41497 82735 10210 20197 40070 56030 75151 8888/ 22233 00247 20410 327// 40410 80205
BBXX DQXQ 08064 99260 11209 41598 80240 10158 20106 40215 57010 70262 8651/ 22253 00210 20712 302// 40812 80128
BBXX DGZS2 08063 99028 11052 41598 50106 10290 20235 40100 52/// 70222 83146 22214 00280 2//// 80250
BBXX ZCBV4 08064 99042 11059 41297 42802 10300 20280 40135 5//// 70211 81668 22253 00300 20500 304// 40401 80285
BBXX A8RH4 08064 99262 11208 41396 70345 10180 20163 40190 5/000 71022 86623 22213 04210 20714 30302 40813 50913 80170
BBXX MTDU5 08063 99346 30229 41598 /2527 10185 20078 40200 52015 70122 8/44/ 22262 04189 20804 80130
AAXX 08064 89646 46/// /0107 11188 29072 37484 4//// 5////
AAXX 08064 89648 46/// /1006 11248 29076 37072 4//// 5////
AAXX 08064 89659 46/// /2405 11168 29067 37569 4//// 5////
AAXX 08064 89661 46/// /2404 11041 29044 39140 4//// 5////
AAXX 08064 89662 42975 01109 11001 21066 39671 49774 52006 222 ICE 98015 333 10013
AAXX 08064 89666 46/// /1004 11023 29082 39594 4//// 5////
AAXX 08064 13601 12665 30000 10070 20041 30065 40167 54001 60002 83800 333 20068 31/// 81840
AAXX 08064 65046 31910 60609 10143 20004 39606 70522 80008 333 20132 58002 86280
AAXX 08064 65125 31950 70000 10185 20051 30730 40134 70522 80008 333 20112 58004 87280
AAXX 08064 65236 31909 70000 10246 20237 30000 4//// 74242 80008 333 20243 5//// 87280 65252 11905 70000 10219 20210 39966 40104 74642 80008 333 20211 59005 87280
AAXX 08064 65271 11956 70000 110148 20124 300616 40119 60001 70522 80008 333 20127 59001 87280
AAXX 08064 71848 16/// ///// 11100 21154 60001 333 11020 21107 70012
AAXX 08064 71793 16/// ///// 11158 21196 60001 333 11039 21158 70000
AAXX 08064 71495 16/// /3207 11191 21221 60001 333 11045 21194 70004 555 33524 40161
AAXX 08064 71073 16/// /3406 11160 21210 60001 333 11032 21161 70010 555 33422 40231
AAXX 08064 71565 17/// /3102 11199 21239 69951 7//4/ 333 11046 21199 70012 555 32827 40201
AAXX 08064 71566 16/// /2602 11179 21204 60001 333 11040 21181 70004 555 33224 40211
AAXX 08064 71567 16/// /3112 11151 21234 60001 333 11065 21151 7////
AAXX 08064 71974 46/// /2403 11231 21251 30171 40215 58005 6///1 333 11230 21293 7//// 555 33027 40091
AAXX 08064 71013 16/// ///// 11174 21204 60001 333 11035 21190 70015
AAXX 08064 71060 16/// /3203 11206 21217 38712 40360 58008 60001 333 11047 21221 70008 555 10010 20008
AAXX 08064 63862 12580 71806 10224 20168 38899 48507 69904 8372/ 333 0//59 20202 50601 55033 55300 58012 82822 85358
BBXX 46232 08061 99325 71174 46/// ///// 1//// 90608 22200 00145 11301 21001 323// 41301 70006
BBXX 46241 08061 99330 71173 46/// ///// 1//// 90611 22200 00145 11301 21001 325// 41301 70004
AAXX 08064 64700 31956 20406 10144 20002 39786 40128 70600 80002 333 01200 20145 50801 ///// 55105 58002 82075
AAXX 08064 64701 NIL
AAXX 08064 64702 NIL
AAXX 08064 64705 NIL
AAXX 08064 64706 33960 40000 10152 20134 39634 40112 80002 333 01200 20134 50764 55102 58000 84075
AAXX 08064 64708 31956 00000 10250 20000 3//// 4//// 705// 90600 333 0//00 20120 50404 ///// 55/// 5////
AAXX 08064 64709 31958 30206 10190 21004 3//// 4//// 705// 80002 90600 333 0//00 20163 5//// ///// 55/// 5//// 83075
AAXX 08064 64710 NIL
AAXX 08064 64713 33960 40000 10144 20090 3//// 4//// 80002 90550 333 0//00 20127 50904 ///// 55/// 5//// 84075
AAXX 08064 64722 33962 10000 10170 20072 3//// 4//// 80002 90600 333 0//00 20110 50464 ///// 55/// 5//// 81075
AAXX 08064 64750 NIL
AAXX 08064 64751 33960 20404 10150 21030 3//// 4//// 80002 90550 333 0//00 20071 50713 ///// 55/// 5//// 82075
AAXX 08064 64753 NIL
AAXX 08064 64754 NIL
AAXX 08064 64756 33962 20408 10190 21052 39515 4//// 80002 90600 333 0//00 20176 5//// ///// 55/// 59002 82075
AAXX 08064 64757 33960 50416 10200 21050 3//// 4//// 80002 90600 333 0//00 20140 5//// ///// 55/// 85075
AAXX 08064 64758 NIL
AAXX 08064 64761 NIL
AAXX 08061 02935 12374 71403 10007 20000 39833 40007 52014 69902 700// 87/// 333 10008 21013 3/101 4/003
AAXX 08061 02924 11367 71402 10005 20004 39789 49986 52013 60054 769// 87/// 333 10006 21003 3/101 4/004
AAXX 08061 02849 12399 71602 11033 21042 39752 40029 52017 69934 700// 87/// 333 11014 21033 3//// 4/005
AAXX 08061 02981 12599 72507 10034 20001 39977 49987 52025 60102 700// 87/// 333 10044 20020 3////
AAXX 08061 89063 41/94 90204 11009 21013 39785 49796 52014 77372
AAXX 08064 16033 12968 00000 10004 21023 38795 48498 52036 60022 333 21016 43006 55/// 2//// 92822 93106
AAXX 08064 68546 16/// /2902 10182 20139 38651 48497 52008 60014 333 20158 91004 555 10338 20016 91017
BBXX 63055 08064 99606 10016 47999 /2106 10056 21046 49978 58013 700// 22200 10704 70022
BBXX 63106 08064 99610 10017 46/// /2411 10056 49972 58012 22200
BBXX 63113 08064 99610 10017 46/// /2510 10058 21048 49974 58017 22200 10806 70028
BBXX 62305 08064 99504 10000 46/97 /2219 10119 20079 40205 57021 22200 00131 10202 70008 333 90710 91126
BBXX 62107 08064 99501 70061 46/// /2431 10121 20078 40169 56029 22200 00123 10805 70025 333 90710 91138
BBXX 63119 08064 99578 70022 41297 81534 10040 20014 49912 57060 70222 8/678 22200 20402 315// 40603 5//// 80030
AAXX 08064 87436 32670 63205 10183 20153 39341 40144 56001 84570 333 56770 84640 83360
AAXX 08061 40001 32970 00302 10039 21039 40224 53007 333 20013 30
AAXX 08061 40007 32560 61005 10058 20043 40184 50001 85550 333 20022 30 85630 86360
AAXX 08061 40025 11560 71304 10146 20117 40145 57009 60072 70266 87800 333 20134 31 83826 85630
AAXX 08061 40045 32970 20000 10024 21050 40217 55000 80002 333 21010 30 82070
AAXX 08061 40061 32970 20000 11006 21087 40204 53003 80002 333 21033 30 82070
AAXX 08061 40080 32970 00000 11030 21110 39477 40217 53006 333 21068 30
AAXX 08061 40087 NIL
AAXX 08061 40095 NIL
AAXX 08061 40009 32565 50000 10056 20005 40179 54000 83530 333 20020 30 83630 85360
AAXX 08061 40016 32970 00000 10000 21059 40145 51005 333 21028 30
AAXX 08061 40022 11565 71102 10146 20124 40140 55001 60142 79599 87900 222// 20000 333 20132 32/// 84950 86632
AAXX 08061 40030 32970 30000 10065 21030 40165 54000 80002 333 20040 30 83070
AAXX 08061 40039 32970 60000 10035 20022 40186 54000 80008 333 20019 30/// 55081 70000 87270
AAXX 08061 40066 32570 52001 10136 20032 40150 56002 85400 333 20120 30 85626
AAXX 08061 40072 32970 00000 10030 21028 40225 54000 333 20000 30
AAXX 08061 40083 32970 31801 10050 21064 48478 54000 80005 333 20010 30 83070
AAXX 08064 17116 11657 72903 10072 20064 30051 40173 52019 60182 72582 84250 333 20072 32007 55000 20004 70344 84835 87360 91110 96010
AAXX 08064 13601 12665 30000 10070 20041 30065 40167 54001 60002 83800 333 20068 31/// 81840
AAXX 08061 26247 27/42 /1502 11011 21011 39974 40055 52019 71011 333 10008 21014 4/005 60007 555 1/104 21014 3/106 51000
BBXX 46216 08061 99343 71198 46/// ///// 1//// 90627 22200 00146 11301 20501 324// 41301 70005
BBXX 46223 08061 99335 71178 46/// ///// 1//// 90630 22200 00155 11301 20401 320// 41301 70005
BBXX 46231 08061 99327 71174 46/// ///// 1//// 90624 22200 00156 11301 20801 324// 41301 70005
BBXX 46222 08061 99336 71183 46/// ///// 1//// 90626 22200 00156 10401 20401 70006
BBXX 46221 08061 99339 71186 46/// ///// 1//// 90615 22200 00153 11401 20401 321// 41401 70007
BBXX 44024 08061 99423 70659 46/14 /1910 10127 40005 56040 90604 22200 00099 10804 70020 333 91212 555 11131 22144
BBXX 44039 08061 99411 70727 46/// /3511 10101 20101 49929 90600 22200 00114 10402 70008 333 91216
AAXX 08064 71502 16/// /1418 11248 21269 30172 40189 58034 60001 333 11217 21266 70000 555 31524 40051
AAXX 08064 71509 17/// /0101 11084 21131 69941 7//4/ 333 10001 21084 70004 555 30321 40201
AAXX 08064 71517 16/// /2302 11102 21122 60001 333 11032 21112 70005 555 30422 40211
AAXX 08064 71518 46/// /2605 11127 21156 6///1 333 7////
AAXX 08064 71519 17/// /2003 11190 21207 69941 7//4/ 333 11007 21196 70024
AAXX 08064 71520 16/// /1804 11106 21117 39374 40054 56018 60001 333 7////
AAXX 08064 71521 16/// ///// 11064 21075 60001 333 7////
AAXX 08064 71522 46/// /3001 11065 21079 39572 40063 56011 6///1 333 7////
AAXX 08064 71523 16/// ///// 11139 21151 39670 40051 56018 60001 333 7////
AAXX 08064 71528 16/// /2804 11086 21136 60001 333 11007 21089 70009 555 30418 40201
AAXX 08064 71409 16/// ///// 11118 21160 60001 333 11011 21127 70010
AAXX 08064 71789 16/// ///// 11094 21121 60001 333 11010 21094 70004
AAXX 08064 71791 16/// /2914 11140 21195 60001 333 11048 21140 70000 555 33031 40012
AAXX 08064 71794 16/// ///// 11151 21194 60001 333 11031 21151 70000
AAXX 08064 71795 16/// ///// 11164 21192 60001 333 11017 21170 70016
AAXX 08064 71796 16/// ///// 11146 21185 60001 333 11021 21146 70000
AAXX 08064 71841 16/// /3005 11109 21154 39679 40082 50002 60001 333 11039 21168 70006 555 10010 20006 32818 40181
AAXX 08064 71006 16/// /3007 11150 21182 60001 333 11026 21150 70000 555 33133 40222
AAXX 08064 71007 17/// ///// 11093 21129 69971 7//4/ 333 11013 21097 70019
AAXX 08064 71008 16/// /2904 11196 21224 60001 333 11028 21197 70013 555 33325 40221
AAXX 08064 71009 17/// /3505 11186 21222 69941 7//4/ 333 11037 21188 70009 555 33426 40221
AAXX 08064 71012 16/// /3016 11141 21190 60001 333 11020 21142 70000 555 33034 40213
AAXX 08064 71035 17/// ///// 11202 21231 69941 7//4/ 333 11039 21203 70010
AAXX 08064 71051 16/// ///// 11169 21191 60001 333 11012 21169 7////
AAXX 08064 71057 17/// ///// 11152 21197 69941 7//4/ 333 11026 21157 70009
AAXX 08064 71070 16/// ///// 11096 21146 60001 333 11013 21096 70000
AAXX 08064 71089 16/// ///// 11142 21190 60001 333 11024 21142 70000
AAXX 08064 71433 46/// /2518 11011 21022 39858 40090 55007 6///1 333 10010 21017 7//// 555 32933 40062
AAXX 08064 71102 16/// ///// 11146 21193 60001 333 11055 21152 70000
AAXX 08064 71105 16/// ///// 11165 21197 60001 333 11014 21180 7////
AAXX 08064 71383 16/// ///// 11087 21104 39440 40055 58019 60001 333 7////
AAXX 08064 71433 46/// /2518 11011 21022 39858 40090 55007 6///1 333 10010 21017 7//// 555 32933 40062
AAXX 08064 71841 16/// /3005 11109 21154 39679 40082 50002 60001 333 11039 21168 70006 555 10010 20006 32818 40181
AAXX 08064 71789 16/// ///// 11094 21121 60001 333 11010 21094 70004
AAXX 08064 71791 16/// /2914 11140 21195 60001 333 11048 21140 70000 555 33031 40012
AAXX 08064 71794 16/// ///// 11151 21194 60001 333 11031 21151 70000
AAXX 08064 71795 16/// ///// 11164 21192 60001 333 11017 21170 70016
AAXX 08064 71796 16/// ///// 11146 21185 60001 333 11021 21146 70000
AAXX 08064 71006 16/// /3007 11150 21182 60001 333 11026 21150 70000 555 33133 40222
AAXX 08064 71007 17/// ///// 11093 21129 69971 7//4/ 333 11013 21097 70019
AAXX 08064 71008 16/// /2904 11196 21224 60001 333 11028 21197 70013 555 33325 40221
AAXX 08064 71009 17/// /3505 11186 21222 69941 7//4/ 333 11037 21188 70009 555 33426 40221
AAXX 08064 71012 16/// /3016 11141 21190 60001 333 11020 21142 70000 555 33034 40213
AAXX 08064 71035 17/// ///// 11202 21231 69941 7//4/ 333 11039 21203 70010
AAXX 08064 71502 16/// /1418 11248 21269 30172 40189 58034 60001 333 11217 21266 70000 555 31524 40051
AAXX 08064 71509 17/// /0101 11084 21131 69941 7//4/ 333 10001 21084 70004 555 30321 40201
AAXX 08064 71517 16/// /2302 11102 21122 60001 333 11032 21112 70005 555 30422 40211
AAXX 08064 71518 46/// /2605 11127 21156 6///1 333 7////
AAXX 08064 71519 17/// /2003 11190 21207 69941 7//4/ 333 11007 21196 70024
AAXX 08064 71520 16/// /1804 11106 21117 39374 40054 56018 60001 333 7////
AAXX 08064 71521 16/// ///// 11064 21075 60001 333 7////
AAXX 08064 71522 46/// /3001 11065 21079 39572 40063 56011 6///1 333 7////
AAXX 08064 71523 16/// ///// 11139 21151 39670 40051 56018 60001 333 7////
AAXX 08064 71528 16/// /2804 11086 21136 60001 333 11007 21089 70009 555 30418 40201
AAXX 08064 71409 16/// ///// 11118 21160 60001 333 11011 21127 70010
AAXX 08064 71051 16/// ///// 11169 21191 60001 333 11012 21169 7////
AAXX 08064 71057 17/// ///// 11152 21197 69941 7//4/ 333 11026 21157 70009
AAXX 08064 71070 16/// ///// 11096 21146 60001 333 11013 21096 70000
AAXX 08064 71089 16/// ///// 11142 21190 60001 333 11024 21142 70000
AAXX 08064 71102 16/// ///// 11146 21193 60001 333 11055 21152 70000
AAXX 08064 71105 16/// ///// 11165 21197 60001 333 11014 21180 7////
AAXX 08064 71383 16/// ///// 11087 21104 39440 40055 58019 60001 333 7////
AAXX 08061 58968 11564 80902 10185 20155 30192 40200 57012 69901 70262 885//
AAXX 08061 58974 32265 83614 10164 20133 30077 40202 57011 887//
AAXX 08061 59358 31956 50106 10246 20177 30111 40142 57025 70511 85070
AAXX 08061 59559 32565 70306 10230 20197 30108 40136 57016 8522/
AAXX 08061 59792 32460 60310 10240 20208 30134 40139 57022 84470
AAXX 08061 59997 32460 80706 10286 20262 30060 40071 57021 8322/
AAXX 08061 59158 32665 60104 10225 20154 30046 40146 58023 86500
AAXX 08061 59562 32668 80405 10217 20184 30134 40145 57020 885//
AAXX 08061 59567 11/01 90117 10197 20197 39751 40128 56032 60091 74564
AAXX 08064 16098 11958 00000 11008 21019 30114 40168 53035 60002 71000 333 21012 34/// 55/// 2////
AAXX 08064 68343 36/// /0303 10206 20113 38773 48498 51001 333 20191 91006 555 10328 91016
AAXX 08064 68345 16/// /1209 10194 20136 38661 48504 52010 60024 333 20153 91012 555 10338 20024 69925 91017
AAXX 08061 98646 11560 83202 10260 20247 30046 40074 57024 60081 72166 8327/ 333 56999 83820 88459
AAXX 08061 89063 41/94 90204 11009 21013 39785 49796 52014 77372
BBXX C6HS4 08063 99073 30815 41697 62815 10280 20267 40090 5/010 71022 84461 22233 20401 80270
BBXX C6HS4 08063 99073 30815 41697 62815 10280 20267 40090 5/010 71022 84461 22233 20401 80270
BBXX UFML 08061 99450 11386 42898 23612 11020 40156 54000 82200 22253 00048 20705
BBXX A8AT8 08064 99095 11108 41/96 83013 10250 20222 40130 54000 78166 88/// 22253 00280 2//// 3//// 4//// 5//// 6//// 80230 ICE /////
BBXX SHIP 08064 99247 11307 41/98 /2414 10290 20235 40144 56010 70200 8//// 22214 00260 20303 307// 40402 80250
BBXX SHIP 08064 99288 11316 41497 82735 10210 20197 40070 56030 75151 8888/ 22233 00247 20410 327// 40410 80205
BBXX VVPG 08063 99191 10726 41798 43406 10300 20271 40102 51005 70201 84021 22200 00/// 2////
BBXX DQVN 08063 99297 11225 41298 83530 10125 20078 40240 54000 760// 887// 22200 00174 20505 80100
BBXX DQXQ 08064 99260 11209 41598 80240 10158 20106 40215 57010 70262 8651/ 22253 00210 20712 302// 40812 80128
BBXX A80K4 08063 99058 10846 41598 30607 10285 20230 40010 57010 70211 82145 22264 04290 20601 303// 40601 80245
BBXX A8RH4 08064 99262 11208 41396 70345 10180 20163 40190 5/000 71022 86623 22213 04210 20714 30302 40813 50913 80170
BBXX VQOG5 08064 99060 10897 41598 20515 10299 20247 40089 58006 70200 82100 22223 00279 20303 302// 41003 80262
BBXX MTDU5 08063 99346 30229 41598 /2527 10185 20078 40200 52015 70122 8/44/ 22262 04189 20804 80130
BBXX 63119 08064 99578 70022 41297 81534 10040 20014 49912 57060 70222 8/678 22200 20402 315// 40603 5//// 80030
BBXX 66022 08061 99541 10142 46/// /3112 10046 30050 22200 00053
BBXX VRHO2 08064 99448 71339 41898 70413 10110 20072 40330 51020 70122 867/1 22274 00100 20901 30303 40601 50701 6//// 80090 ICE /////
BBXX 44024 08061 99423 70659 46/14 /1910 10127 40005 56040 90604 22200 00099 10804 70020 333 91212 555 11131 22144
BBXX 44039 08061 99411 70727 46/// /3511 10101 20101 49929 90600 22200 00114 10402 70008 333 91216
BBXX 46216 08061 99343 71198 46/// ///// 1//// 90627 22200 00146 11301 20501 324// 41301 70005
BBXX 46231 08061 99327 71174 46/// ///// 1//// 90624 22200 00156 11301 20801 324// 41301 70005
BBXX 46222 08061 99336 71183 46/// ///// 1//// 90626 22200 00156 10401 20401 70006
BBXX 46223 08061 99335 71178 46/// ///// 1//// 90630 22200 00155 11301 20401 320// 41301 70005
BBXX 46221 08061 99339 71186 46/// ///// 1//// 90615 22200 00153 11401 20401 321// 41401 70007
BBXX 46241 08061 99330 71173 46/// ///// 1//// 90611 22200 00145 11301 21001 325// 41301 70004
BBXX 46232 08061 99325 71174 46/// ///// 1//// 90608 22200 00145 11301 21001 323// 41301 70006
BBXX 3FQS8 08064 99189 70748 41198 40508 00/// 10264 2025/ 40123 52007 70200 83231 22214 0//// 2//// 3//// 4//// 5//// 6//// 80252 /////
BBXX 41052 08061 99183 70648 46/// /0603 10270 40106 90620 333 91204
BBXX 42085 08061 99179 70665 46/// /0604 10270 40109 90630 333 91205
BBXX 42085 08061 99179 70665 46/// /0504 10268 40111 90620 333 91205
BBXX 42085 08061 99179 70665 46/// /0604 10268 40112 90610 333 91205
BBXX 41052 08061 99183 70648 46/// /0403 10269 40107 90610 333 91205
BBXX 41053 08061 99185 70661 46/// /2002 10257 40114 90610 333 91203
BBXX 41053 08061 99185 70661 46/// /2201 10257 40113 90630 333 91202
BBXX 41053 08061 99185 70661 46/// /2001 10257 40114 90620 333 91203
BBXX 41052 08061 99183 70648 46/// /0504 10271 40106 90630 333 91205
BBXX PDWT 08063 99058 31272 41898 79904 10/// 20/// 40060 56019 70200 87101 22283 06286 20401 80245
BBXX DGZS2 08063 99028 11052 41598 50106 10290 20235 40100 52/// 70222 83146 22214 00280 2//// 80250
BBXX ZCBV4 08064 99042 11059 41297 42802 10300 20280 40135 5//// 70211 81668 22253 00300 20500 304// 40401 80285
BBXX WCF3012 08064 99437 70825 41/98 32835 11010 40130 70321 22283 00070 20403
AAXX 08064 13601 12665 30000 10070 20041 30065 40167 54001 60002 83800 333 20068 31/// 81840
BBXX WCF3012 08064 99437 70825 41/98 32835 11010 40130 70321 22283 00070 20403
BBXX WYL4318 08064 99606 71475 41/93 90423 11011 2//// 40145 57/// 77572 89/// 22231 0//// 20202 3//// 4//00 5//// 6//// 8//// ICE /////
BBXX WDD2451 08064 99608 71513 41398 80235 10006 21050 40130 54000 77172 8762/ 22200 0//// 20101 3//// 4//00 5//// 64021 8//// ICE /////
BBXX WCQ6174 08064 99600 71493 41395 89905 10022 2//// 40140 57/// 78587 8762/ 22200 0//// 20000 3//// 4//00 5//// 6//// 8//// ICE /////
BBXX WTD4576 08064 99607 71462 41/93 90407 11006 2//// 40175 57/// 77372 89/// 22200 0//// 20000 3//// 4//00 5//// 6//// 8//// ICE /////
BBXX A8AT8 08064 99095 11108 41/96 83013 10250 20222 40130 54000 78166 88/// 22253 00280 2//// 3//// 4//// 5//// 6//// 80230 ICE /////
BBXX VRHO2 08064 99448 71339 41898 70413 10110 20072 40330 51020 70122 867/1 22274 00100 20901 30303 40601 50701 6//// 80090 ICE /////
AAXX 08064 89003 46/// /3229 29062 38893 4//// 5////
AAXX 08061 15015 01597 82505 10018 21002 39484 42705 53017 60022 7687/ 885// 333 10023 21010 3/102 43997 6///7 70021 91008 91115 92820
AAXX 08061 15020 02597 51002 10026 21027 39874 40075 53011 60002 82570 333 10047 20015 34102 60007 70000 91003 91104
AAXX 08061 15090 01596 82601 10027 21006 39994 40088 53004 60002 71022 8657/ 333 10041 21011 34101 55300 10041 20003 3//// 60007 70000 91002 91102
AAXX 08061 15108 01/91 92728 11075 21075 37964 48403 57017 60002 74511 333 11074 21091 3//// 43005 60007 70000 91034 92860
AAXX 08061 15120 01697 63101 10001 20000 39608 40115 51007 69912 70162 82570 333 10015 21020 34103 55300 10045 2//// 3//// 69917 70001 91002 91102 92707 93401
AAXX 08061 15150 02997 61602 10006 20006 39877 40094 55008 60002 86030 333 10011 21008 34103 60007 70000 91005 91106
AAXX 08061 15170 01597 81402 11001 21001 39325 42727 53004 60032 72682 883// 333 10000 21038 3/103 47003 60037 70033 91004 91105 92800
AAXX 08061 15200 01597 82102 10029 20019 39997 40144 53017 69962 70262 885// 333 10041 20016 31000 69917 70006 91005 91106
AAXX 08061 15230 01597 73001 10006 20006 39848 40149 53013 69962 76166 87500 333 10008 21034 31104 55300 10116 20003 3//// 69947 70006 91002 91103
AAXX 08061 15260 02598 81201 11010 21012 39587 40136 53003 60002 8357/ 333 11001 21061 34106 60007 70000 91002 91102 92600
AAXX 08061 15280 01/90 92514 11095 21109 37397 47925 51006 60012 77174 333 11094 21134 3//// 48024 60017 70011 91020 92815 92966 96038 96041
AAXX 08061 15292 01597 81802 10028 20028 39858 40158 53012 60052 70282 8537/ 333 10057 20017 31100 60027 70054 91004 91104 95090
AAXX 08061 15310 01995 72004 10007 20007 30033 40121 56007 60002 71041 82036 333 10034 20002 31102 55300 10115 20002 3//// 60007 70000 91007 91109
AAXX 08061 15335 01496 60501 10021 20019 30121 40128 57008 60002 710// 86600 333 10025 21032 34103 60007 70000 91001 91105 92611
AAXX 08061 15346 01596 80600 11016 21018 39849 40149 55004 60002 71011 8457/ 333 10015 21025 34104 60007 70000 91001 91102 92600
AAXX 08061 15350 01597 72105 10003 20000 30005 40128 55003 60002 70141 87500 333 10032 21010 31102 60007 70000 91007 91108 92600
AAXX 08061 15360 01492 82206 10022 20022 30114 40128 58003 60002 74422 886// 222// 06066 20301 333 10054 20006 3//// 60007 70009 91007 91107 92412
AAXX 08061 15410 01596 80000 10004 20003 30056 40154 53002 60032 76161 8802/ 333 10012 21027 31106 6///7 70030 91001 91102
AAXX 08061 15420 01997 62402 11014 21015 30027 40142 55004 60002 70341 86070 333 10025 21022 34104 55300 0//// 20000 3//// 60007 70002 91003 91103 92600
AAXX 08061 15450 01595 81801 11001 21001 39907 40149 50007 60012 76161 8652/ 333 10028 21037 35104 55300 00200 20004 30005 60017 70010 91002 91104 92707 93405 96010
AAXX 08061 15460 01492 81300 11006 21006 30114 40139 57010 60002 7444/ 886// 333 10053 21007 31102 60007 70012 91001 91102
AAXX 08061 15470 01993 62601 11033 21033 30020 40152 53003 60002 7484/ 86070 333 10021 21040 34106 60007 70000 91001 91101 92712
AAXX 08061 15480 01996 22501 10013 20013 30126 40143 56009 60002 71041 80001 222// 06078 2//// 333 10058 21002 31101 60007 79999 91002 91105 92426 92600
AAXX 08064 43533 11458 70707 10303 20222 30096 40099 60001 70520 81202 333 59004 81818 87078
AAXX 08064 43555 11459 70508 10299 20246 30096 40099 69901 70582 82262 333 58000 82818 83363 86077
AAXX 08064 43577 11462 70705 10271 20250 30104 40106 69901 72582 8397/ 333 58001 82817 81919 87362
AAXX 08064 43588 11456 70503 10255 20252 30098 40100 60191 76186 8492/ 333 59001 83816 81917 87461
AAXX 08064 43599 11457 73208 10265 20243 30104 40106 60031 78082 84968 333 58004 83817 81918 87275
AAXX 08064 43533 11458 70707 10303 20222 30096 40099 60001 70520 81202 333 59004 81818 87078
AAXX 08064 43555 11459 70508 10299 20246 30096 40099 69901 70582 82262 333 58000 82818 83363 86077
AAXX 08064 43577 11462 70705 10271 20250 30104 40106 69901 72582 8397/ 333 58001 82817 81919 87362
AAXX 08064 43588 11456 70503 10255 20252 30098 40100 60191 76186 8492/ 333 59001 83816 81917 87461
AAXX 08064 43599 11457 73208 10265 20243 30104 40106 60031 78082 84968 333 58004 83817 81918 87275
AAXX 08064 60715 12560 62210 10138 20104 30265 40272 53002 69904 83282 333 20134 58018 70000 83823 83359 91014 91115
AAXX 08064 60723 13560 42408 10142 20115 30101 40291 55000 69984 83280 333 20114 70008 83823
AAXX 08064 60725 12558 61904 10114 2//// 30118 40299 51003 60004 86800 333 20090 84820 83630
AAXX 08064 60735 12558 12502 10116 20083 30193 40276 55003 60004 81200 333 20110 81823
AAXX 08064 60745 12960 00408 10067 20042 39916 40299 53001 69924 333 20066
AAXX 08064 60748 13660 21804 10088 20068 39867 40296 58006 60004 82500 333 20086 82633
AAXX 08064 60750 12560 13302 10094 20058 30256 40282 55000 60004 81200 333 20094 81826
AAXX 08064 60760 12958 02707 10091 20045 30186 40293 53001 60004 333 20093 91008 91109
AAXX 08064 60765 13958 02604 10113 20080 30295 40299 51008 60004 333 20113 92426 925//
AAXX 08064 60767 12560 12906 10075 20053 30143 40293 53004 60004 81200 333 20075 81820
AAXX 08064 60769 12456 12808 10152 20107 30274 40278 53003 60004 81800 333 20117 81816
AAXX 08064 17022 11557 83605 10075 20071 39983 40149 52020 60262 76086 8652/ 333 20074 32007 55002 2//// 70339 86625 88458 91123 92436
AAXX 08064 17031 12670 63004 10115 20104 30094 40100 52011 60002 83250 333 20072 30006 83836 86360
AAXX 08064 17038 12670 62207 10186 21103 30058 40108 51003 60002 82130 333 20127 30013 55061 20783 82835 86360 92418
AAXX 08064 17050 11930 33601 11014 21015 30112 40176 53001 60002 71000 83030 333 21014 34102 55003 70002 83360 91105
AAXX 08064 17060 11460 63306 10067 20055 30127 40167 52010 60102 70282 86200 333 20066 32005 50331 20130 70234 83710 85823
AAXX 08064 17096 NIL
AAXX 08064 17124 NIL
AAXX 08064 17128 11456 81803 10052 20050 39014 40114 52008 60102 76166 8572/ 333 20043 32004 50114 55009 20130 70132 82710 85630 88458 96010
AAXX 08064 17170 NIL
AAXX 08064 17195 11460 81512 10095 20010 38902 48432 50001 69902 76122 8522/ 333 21003 31102 50084 55021 20980 79999 82714 85830 88458
AAXX 08064 17199 12565 73601 10008 21038 39093 40217 50001 60002 85670 333 20002 34/// 55/// 2//// 82720 84640 87360
AAXX 08064 17219 12565 33205 10080 20042 30021 40167 51014 60012 83200 333 20069 32006 55000 20046 70400 83830
AAXX 08064 17240 11570 72903 10046 20030 38973 40117 52014 60032 70282 84250 333 20043 32004 55002 20255 70034 84830 87360 91108
AAXX 08064 17244 11460 72802 10032 20019 38929 48432 52006 60052 76162 84520 333 20025 32/// 55/// 2//// 70054 82715 84635 87459
AAXX 08064 17280 12970 41204 11020 21061 39416 40240 53004 60002 84030 333 21059 30109 50151 55071 20335 84360
AAXX 08064 17350 11558 70811 10114 20109 30061 40139 53001 60362 78092 86950 333 20102 33/// 70357 82925 84830 87360
AAXX 08064 17024 11440 82907 10089 20088 30050 40127 52019 60172 76162 8572/ 333 20089 32009 55005 70182 83712 85628 88460 91114 92436
AAXX 08064 17056 12970 02902 10039 20038 30169 40173 56002 60022 333 20034 31002 55000 20117 70042 91110 92418
AAXX 08064 17067 11562 72402 10082 20074 30140 40162 52018 60062 78088 87200 333 20082 32008 55000 70132 87830 91107 92407
AAXX 08064 17092 12660 60000 11055 21070 38860 48478 56004 60002 84550 333 21096 34111 50044 55076 21043 84638 86359
AAXX 08064 17112 12965 01003 10035 20019 30179 40181 53001 60002 333 20035 32001 55005 20046 70078 91111 92417
AAXX 08064 17115 11660 42605 10045 20032 30123 40175 52012 60102 70181 83130 333 20041 32003 50334 55000 20121 70302 83835 84360
AAXX 08064 17116 11657 72903 10072 20063 30051 40173 52019 60182 72582 84250 333 20072 32007 55000 20004 70342 84835 87360 91110
AAXX 08064 17188 11450 72706 10044 20018 39078 40143 52028 60192 71062 85470 333 20042 32004 70355 82715 84637 87360 91111
AAXX 08064 17202 12670 52701 11003 21046 39179 40244 55000 60002 83550 333 21076 34109 83635 85360
AAXX 08064 17248 11530 83002 10043 20024 38918 48436 53004 60022 76122 8552/ 333 20043 32004 55062 2//// 70016 85630 88459
AAXX 08064 17292 11670 53103 10060 20045 39381 40139 52017 60262 70182 83230 333 20060 32006 5//// 55000 20226 70508 83835 85360 91119
AAXX 08064 17300 11460 73205 10105 20088 30024 40095 53008 60122 79599 87900 333 20102 32008 50091 55/// 2//// 70140 81915 86825
AAXX 08064 17310 NIL
AAXX 08064 17330 11665 70000 10116 20107 30092 40110 56004 60232 72992 84270 333 20082 32006 50081 55017 84836 87359
AAXX 08064 17042 12670 51315 10153 21132 30082 40121 52006 60002 83250 333 20120 30011 55067 83835 85360 92438
AAXX 08064 17074 11561 72101 10050 20049 39185 40119 52017 60032 76062 84520 333 20046 32003 55037 20599 70034 84629 87459 91103
AAXX 08064 17086 12670 70902 10096 21009 39398 40112 53002 60002 85550 333 20064 30005 2//// 85635 87360
AAXX 08064 17088 12670 80000 10010 21122 38778 48478 57005 60002 8552/ 333 21012 34102 2//// 85640 88460
AAXX 08064 17140 11665 82005 10051 20020 38637 48429 55000 60032 72162 8552/ 333 20041 32003 55048 2//// 70035 85638 88459
AAXX 08064 17155 11670 83003 10034 20018 39020 40144 52021 60092 70262 8452/ 333 20034 32003 55000 70462 84635 88459 91112
AAXX 08064 17203 12670 30000 11022 21105 38907 48549 51002 60002 83100 333 21060 34107 55078 2//// 83840
AAXX 08064 17237 11660 83002 10064 20061 39651 40155 52035 60172 76062 8552/ 333 20063 32006 55005 70212 85633 88458 91115
AAXX 08064 17250 11662 61808 10066 20030 38739 48438 53002 69932 76022 84450 333 21018 32102 55067 2//// 70003 84640 86360
AAXX 08064 17270 12670 71102 10078 21040 39545 40200 51003 60002 85250 333 20058 30000 55061 85835 87360
AAXX 08064 17295 11560 30905 10084 20076 30124 40131 52013 60072 70298 83100 333 20064 32005 50264 55020 70140 83830
AAXX 08064 17320 11657 73404 10111 20095 30103 40108 56002 60532 78088 84270 333 20108 32007 50091 55007 70725 84836 87357 92436
AAXX 08064 17375 11570 73603 10117 20116 30095 40097 53008 60242 72582 84270 333 20112 32010 50041 55012 70569 84832 87360 91110 92438
AAXX 08064 17026 11560 80109 10105 20102 30074 40113 52013 60022 76122 8552/ 333 20105 32008 55022 20833 70025 85628 88458 91111 92427
AAXX 08064 17034 12670 71702 10158 21004 30055 40100 58007 60002 83250 333 20120 30007 83835 87360 92428
AAXX 08064 17070 11550 83401 10054 20050 39268 40136 52021 60072 76066 8552/ 333 20051 32004 50004 55000 20167 70076 85630 88457 91105
AAXX 08064 17084 11540 80902 10057 20055 39216 40121 53004 60052 76122 8552/ 333 20051 32002 55031 70050 85630 88458 91110 96010
AAXX 08064 17090 12665 70301 10049 21031 38683 48458 58001 60002 84570 333 20014 30001 55054 84638 87360
AAXX 08064 17098 12660 20000 11135 21157 38208 48528 57002 60002 82500 333 21191 3/120 42001 50044 55022 21160 82635
AAXX 08064 17150 11460 73605 10069 20048 30052 40177 50012 60072 70282 84230 333 20068 32006 50331 55000 20080 70542 82715 83835 85360
AAXX 08064 17160 11670 82106 10071 20023 38954 48435 53005 69922 70262 84520 333 20069 32006 55069 70002 84640 88460 91118
AAXX 08064 17184 12670 33102 10070 20042 30059 40171 52018 60052 83200 333 20066 32005 55000 70294 83840 91120
AAXX 08064 17189 11460 73014 10037 20015 38972 48443 52019 60022 70362 85570 333 20035 32003 70023 82712 85630 87360
AAXX 08064 17210 12970 10101 10044 21106 39170 40221 51006 60002 80001 333 20009 34104 55074 81070
AAXX 08064 17234 12970 23503 10094 20043 30086 40154 52024 60112 82030 333 20084 32008 50124 55000 70402 82360 91109
AAXX 08064 17260 11540 70803 10068 20028 39360 40183 50002 60002 71022 83250 333 20053 30003 50104 55075 21218 83830 87359
AAXX 08064 17290 12970 30109 10114 20057 30122 40154 52018 60062 83030 333 20114 32010 50104 55000 70269 83360 91022 91122 92438
AAXX 08064 17370 11560 71306 10151 20075 30135 40139 57004 60052 78082 84270 333 20150 32014 50004 55031 2//// 70052 84830 87459 92437
AAXX 08064 43400 NIL
AAXX 08064 43404 21470 7//// 10266 20226 30100 40110 70282 81267 333 58000 60027 70023 81818 85458
AAXX 08064 43410 NIL
AAXX 08064 43413 22470 30509 10282 20236 30105 40109 83100 333 59003 60007 70000 83818
AAXX 08064 43415 22470 50502 10288 20236 39998 40106 85200 333 59002 60007 70000 85818
AAXX 08064 43418 21470 73504 10264 20243 3//// 4//// 72186 85932 333 58/// 69957 70005 84818 81920 84080
AAXX 08064 43421 22470 53602 10290 20229 30004 40106 83130 333 59001 60007 70000 83818
AAXX 08064 43422 22470 405// 10288 20226 39974 40104 84100 333 58000 60007 70000 84818
AAXX 08064 43424 22498 40206 10294 20219 30090 40092 84100 333 59001 60007 70000 84816
AAXX 08064 43436 22470 80507 10280 20243 30099 40103 8517/ 333 58003 60007 70000 85818 88460
AAXX 08064 43441 22970 205// 10304 20191 39961 40090 80001 333 58000 60007 70000 82080
AAXX 08064 43444 22970 00904 10283 20180 39567 40099 333 59001 60007 70000
AAXX 08064 43467 22466 13605 10307 20223 30092 40097 81101 333 58005 60007 70000 81817
AAXX 08064 43473 22470 60901 10182 20144 38125 48486 86200 333 58005 60007 70000 86812
AAXX 08064 43475 22470 40505 10310 20238 30091 40100 83201 333 58005 60007 70000 83818
AAXX 08064 43476 22470 30908 10233 20155 38770 48518 83100 333 58000 60007 70000 83816
AAXX 08064 43479 21460 10902 10253 20173 39263 70240 81101 333 59001 60007 70000 81818
AAXX 08064 43486 22460 40000 10310 20235 39992 40086 84100 333 59001 60007 70000 84814
AAXX 08064 43495 22466 6//// 10302 20245 30082 40098 83201 333 58007 60007 70000 83818 85080
AAXX 08064 43497 22476 60910 10318 20244 30071 40089 83201 333 58003 60007 70000 83818 85080
AAXX 08064 43466 22470 30000 10311 20221 30079 40091 82101 333 58002 60007 70000 82818 83080
AAXX 08064 43400 NIL
AAXX 08064 43404 21470 7//// 10266 20226 30100 40110 70282 81267 333 58000 60027 70023 81818 85458
AAXX 08064 43410 NIL
AAXX 08064 43413 22470 30509 10282 20236 30105 40109 83100 333 59003 60007 70000 83818
AAXX 08064 43415 22470 50502 10288 20236 39998 40106 85200 333 59002 60007 70000 85818
AAXX 08064 43418 21470 73504 10264 20243 3//// 4//// 72186 85932 333 58/// 69957 70005 84818 81920 84080
AAXX 08064 43421 22470 53602 10290 20229 30004 40106 83130 333 59001 60007 70000 83818
AAXX 08064 43422 22470 405// 10288 20226 39974 40104 84100 333 58000 60007 70000 84818
AAXX 08064 43424 22498 40206 10294 20219 30090 40092 84100 333 59001 60007 70000 84816
AAXX 08064 43436 22470 80507 10280 20243 30099 40103 8517/ 333 58003 60007 70000 85818 88460
AAXX 08064 43441 22970 205// 10304 20191 39961 40090 80001 333 58000 60007 70000 82080
AAXX 08064 43444 22970 00904 10283 20180 39567 40099 333 59001 60007 70000
AAXX 08064 43467 22466 13605 10307 20223 30092 40097 81101 333 58005 60007 70000 81817
AAXX 08064 43473 22470 60901 10182 20144 38125 48486 86200 333 58005 60007 70000 86812
AAXX 08064 43475 22470 40505 10310 20238 30091 40100 83201 333 58005 60007 70000 83818
AAXX 08064 43476 22470 30908 10233 20155 38770 48518 83100 333 58000 60007 70000 83816
AAXX 08064 43479 21460 10902 10253 20173 39263 70240 81101 333 59001 60007 70000 81818
AAXX 08064 43486 22460 40000 10310 20235 39992 40086 84100 333 59001 60007 70000 84814
AAXX 08064 43495 22466 6//// 10302 20245 30082 40098 83201 333 58007 60007 70000 83818 85080
AAXX 08064 43497 22476 60910 10318 20244 30071 40089 83201 333 58003 60007 70000 83818 85080
AAXX 08061 40703 11958 00000 11040 21058 38949 40272 58006 60001 71000 333 34114 70000
AAXX 08061 40712 11915 42902 11018 21038 38710 40274 55002 60001 71000 80002 333 34115 70000 84068
AAXX 08061 40729 12965 01004 10010 21079 38364 40259 53003 60001 333 34113 70000
AAXX 08061 40736 12960 00000 10070 20026 30226 40199 55003 60001 333 31102 50121 70000
AAXX 08061 40739 12965 02102 10006 21044 38731 40276 52010 60001 333 31107 70000
AAXX 08061 40743 12965 00903 10032 21028 39123 40276 52009 60001 333 30105 70000
AAXX 08061 40762 12965 00000 10044 21068 38584 40253 51007 60001 333 30109 70000
AAXX 08061 40768 12960 00000 10000 21062 38290 40271 58002 60001 333 34113 70000
AAXX 08061 40769 11957 00000 11016 21074 38339 40277 51014 60001 70500 333 30110 5//// 70000
AAXX 08061 40785 12960 00000 10038 21014 39135 40264 50001 60001 333 30105 5///1 70000
AAXX 08061 40809 12962 01002 10048 21151 38544 40268 53009 60001 333 30110 70000
AAXX 08061 40821 12965 01206 10050 21092 38838 40271 51005 60001 333 30104 50261 70000
AAXX 08061 40831 12960 03003 10086 20012 30218 40227 52013 60001 333 30103 50381 70000
AAXX 08064 60360 12560 62204 10125 20117 40291 53004 60024 85830 333 00700 20113 82826 84640 95990
AAXX 08064 60390 11430 21703 10045 20041 40305 53006 60004 71000 82600 333 00100 20041 82716 95990
AAXX 08064 60402 12960 02607 10094 20080 40301 53002 60004 333 00700 20088 95990
AAXX 08064 60419 11925 00000 10016 20002 40317 55001 60004 71040 333 05000 20013 95990
AAXX 08064 60475 12958 10000 10024 20017 39335 48582 56007 60004 81030 333 05300 20015 81360 95990
AAXX 08064 60490 12950 00000 10054 20047 40283 58003 60004 333 05100 20046 95990
AAXX 08064 60525 12960 00000 10105 20062 40284 56004 60004 333 00100 20095 95900
AAXX 08064 60531 12965 30000 10050 20048 40295 53001 60004 81032 333 05100 20047 81360 83073 95990
AAXX 08064 60566 12960 00000 10071 20041 40310 55003 60004 333 00100 20066
AAXX 08064 60571 12970 20000 10040 20033 39361 48600 50005 60004 80002 333 20039 82073 95990
AAXX 08064 60580 12960 00000 10050 20038 40303 53004 60001 333 00200 20044
AAXX 08064 60590 12960 03208 10040 20015 40312 58007 60004 333 0//00 20030
AAXX 08064 60611 12960 00506 10058 21033 40301 53009 60004 333 00500 20058
AAXX 08064 60620 12958 00313 10083 21013 40269 55003 60004 333 0//00 20080
AAXX 08064 60630 12960 00717 10155 20037 40250 55000 60004 333 01200 20149
AAXX 08064 60656 12960 20608 10100 20004 40243 55000 60004 80002 333 00700 20100 82073
AAXX 08064 60670 12980 00220 10116 21041 39143 48583 53006 60004 333 00800 20104 95900
AAXX 08064 60680 12970 20716 10136 21059 38695 48568 53006 60004 80002 333 00900 20122 82073 95900
AAXX 08064 62305 32560 32610 10102 20085 40221 52004 83500 333 20096
AAXX 08064 62306 32560 32713 10140 20109 40204 52009 83200 333 20126
AAXX 08064 62318 32560 22007 10122 20097 40186 54000 82500 333 20100
AAXX 08064 62337 NIL
AAXX 08064 62366 31120 02007 10148 20070 40207 52006 70500 333 20132
AAXX 08064 62393 32960 03205 10084 20052 40236 52013 333 20062
AAXX 08064 62405 32960 00000 10116 20075 40101 52016 333 20078
AAXX 08064 62414 NIL
AAXX 08064 62417 32960 02606 10108 20047 40229 52006 333 20074
AAXX 08064 62440 32960 01706 10114 20085 40198 52006 333 20095
AAXX 08064 62463 32960 23012 10148 20071 40196 52012 80002 333 20128
AAXX 08064 62465 32960 23107 10170 20074 40185 52014 80001 333 20122
AAXX 08064 62419 NIL
AAXX 08064 60351 12560 10000 10095 20079 40285 55001 60004 81200 333 00600 20084 81820 95990
AAXX 08064 60355 12560 62208 10122 20091 40286 53003 60004 85802 333 20120 82830 83833 95990
AAXX 08064 60445 12960 00000 10003 21010 39123 48587 55002 60004 333 05500 20000 95990
AAXX 08064 60468 12960 00000 11000 21005 39242 48589 57001 60004 333 05600 21005 95900
AAXX 08064 60507 12965 10000 10023 20020 40301 58002 60004 80002 333 00000 20022 81073 95990
AAXX 08064 60511 12960 10000 10010 20002 39157 48579 56006 60004 80002 333 05600 20005 81071 95990
AAXX 08064 60535 11970 00000 10005 20005 38940 48594 58005 60004 700// 333 05200 20000 95900
AAXX 08064 60536 12960 30000 10057 20032 39410 48584 54000 60004 80002 333 05300 20055 83073 95990
AAXX 08064 60549 NIL
AAXX 08064 60550 12960 00000 10037 20003 38766 48599 57004 60004 333 05100 20030 95990
AAXX 08064 60555 12970 00000 10052 20030 40302 55000 60004 333 00000 20050
AAXX 08064 60559 12960 00000 10060 20036 40298 53002 60004 333 20055
AAXX 08064 60581 12960 00000 10048 20034 40301 53004 60004 333 00000 20045
AAXX 08064 60602 11960 00000 10061 20040 40291 54000 60004 700// 333 0//00 20058 95990
AAXX 08064 60607 NIL
AAXX 08064 60640 12960 00000 10080 20016 40278 53005 60004 333 00600 20070
AAXX 08064 60690 NIL
AAXX 08064 41506 02696 80000 10090 20023 48543 60001 8442/ 333 5699/ 58006 60007 84640 84460
AAXX 08064 41508 22696 70000 10075 21028 48565 60001 84530 333 56990 59001 60007 84635 83360
AAXX 08064 41523 12696 80000 10125 20014 48539 60001 8252/ 333 5699/ 59016 60007 82640 86460
AAXX 08064 41535 12697 60000 10150 20022 48498 60001 83520 333 56990 59013 83635 84460
AAXX 08064 41536 12697 70000 10145 20043 48527 60001 85230 333 56990 59015 85840 82362
AAXX 08064 41573 12697 71304 10100 20062 48510 60001 84420 333 59009
AAXX 08064 41600 02696 60902 10195 20124 39859 40154 60001 82570 333 59016 60007
AAXX 08064 41630 11996 03604 10200 20061 40165 60001 70500 333 59012
AAXX 08064 41678 01996 00000 10185 20132 40162 60001 70500 333 59006 60007
AAXX 08064 41696 32997 03102 10100 21090 38021 48531 60001 333 59001 60007
AAXX 08064 41697 02997 00000 10219 20090 40174 60001 333 59003 60007
AAXX 08064 41700 11996 03604 10185 20078 40159 60001 70400 333 59001
AAXX 08064 41725 02997 00504 10220 20034 40173 60001 333 59004 60007
AAXX 08064 41746 02996 03602 10200 20086 40179 60001 333 58007 60007
AAXX 08064 41759 12996 03604 10240 20002 30166 40171 60001 333 58004
AAXX 08064 41785 02997 00502 10205 20126 40154 333 58002 60007
AAXX 0806/ 89667 46/// ///// 4//// 5//// 90620
AAXX 0806/ 89667 46/// ///// 4//// 5//// 90610
AAXX 0806/ 89329 46/// ///// 11094 38675 4//// 5//// 90640
AAXX 0806/ 89799 46/// ///// 11099 4//// 5//// 90640
AAXX 0806/ 89332 46/// ///// 11078 39155 4//// 5//// 90640
AAXX 0806/ 89108 46/// ///// 11181 36878 4//// 5//// 90640
AAXX 0806/ 89879 46/// ///// 10039 39687 4//// 5//// 90640
AAXX 0806/ 89314 46/// ///// 11090 38157 4//// 5//// 90640
AAXX 08064 89667 46/// /1812 11027 39768 4//// 5//// 90640
AAXX 08064 89667 46/// /1815 11028 39767 4//// 5//// 90630
AAXX 08064 42027 31595 70000 10080 20039 38474 48560 70521 85510 333 59001
AAXX 08064 42071 31695 60000 10214 20138 40152 70522 83430 333 59013 83640 84360
AAXX 08064 42101 32996 00902 10220 20145 40147 333 59012
AAXX 08064 42111 31996 01801 10218 20115 39384 40145 70500 333 59015
AAXX 08064 42131 31995 01402 10240 20158 40145 70540 333 59008
AAXX 08064 42182 31995 01103 10252 20168 40148 70400 333 59007
AAXX 08064 42328 31995 00203 10192 20120 40150 70500 333 59001
AAXX 08064 42339 31995 02301 10250 20138 40132 70500 333 59011
AAXX 08064 42369 31995 01803 10182 20148 40167 71000 333 59005
AAXX 08064 42379 31/93 90000 10170 20142 40161 74344 89/// 333 59002
AAXX 08064 42475 31/93 90000 10172 20162 40162 74344 333 59007
AAXX 08064 42165 NIL
AAXX 08064 42189 NIL
AAXX 08064 42260 NIL
AAXX 08064 42348 NIL
AAXX 08064 42361 NIL
AAXX 08064 42452 NIL
AAXX 08064 42260 31995 01405 10256 20149 40149 70540 333 59009
AAXX 08064 42361 31995 00000 10272 20138 40144 70500 333 59008
AAXX 08064 42165 31994 00000 10190 20142 40141 70500 333 59005
AAXX 08064 42348 31995 01606 10262 20133 40131 70500 333 59007
AAXX 08064 42452 32996 01802 10294 20114 40137 333 58002
AAXX 08064 78792 32460 50000 10240 20205 30100 40113 57010 82230 333 010// 10290 20232 30/// 58007 82818 83359
AAXX 08064 78792 32460 50000 10240 20205 30100 40113 57010 82230 333 010// 10290 20232 30/// 58007 82818 83359
AAXX 08064 41891 31950 00902 10278 20170 30094 40132 70500 333 59006 70000
AAXX 08064 41943 31950 00000 10273 20160 30126 40133 70500 333 59003 70000
AAXX 08064 41950 31940 00000 10275 20190 30128 40130 70540 333 59006 70000
AAXX 08064 41978 31940 03304 10280 20160 30124 40129 70500 333 59002 70000
AAXX 08064 41992 31935 00000 10304 20190 30120 40125 70500 333 58001 70000
AAXX 08064 41858 31957 03105 10276 20170 30097 40143 70240 333 59006 70000
AAXX 08064 41863 32957 00902 10261 20160 30100 40144 333 59008 70000
AAXX 08064 41886 31956 00000 10270 20180 30120 40140 70544 333 59006 70000
AAXX 08064 41895 NIL
AAXX 08064 41909 NIL
AAXX 08064 41915 31956 02701 10273 20180 30113 40138 70540 333 59003 70000
AAXX 08064 41926 32956 03601 10260 20180 30132 40145 333 59004 70000
AAXX 08064 41929 NIL
AAXX 08064 41933 NIL
AAXX 08064 41939 31940 00000 10272 20190 40135 70544 333 59004 70000
AAXX 08064 41941 32956 03602 10277 20200 30128 40134 333 58000 70000
AAXX 08064 41946 32956 03601 10270 20180 30136 40141 333 59005 70000
AAXX 08064 41947 31956 00000 10272 20200 30141 40143 70500 333 58004 70000
AAXX 08064 41951 NIL
AAXX 08064 41953 31950 03602 10280 20190 30124 40130 70500 333 59005 70000
AAXX 08064 41958 31950 00000 10270 20190 30127 40129 70544 333 58005 70000
AAXX 08064 41960 31950 00000 20173 20180 30113 41039 70500 333 58002 70000
AAXX 08064 41963 NIL
AAXX 08064 41964 32957 03601 10284 20190 30144 40147 333 59002 70000
AAXX 08064 41965 NIL
AAXX 08064 41966 32956 00000 10276 20200 30059 40138 333 58003 70000
AAXX 08064 41984 32958 03604 10272 20190 30126 40128 333 59005 70000
AAXX 08064 41989 32956 02702 10290 20190 30127 40130 333 58002 70000
AAXX 08064 41998 32957 02501 10310 20200 30118 40124 333 58004 70000
AAXX 08064 41895 32957 03603 10253 20160 30121 40143 333 59005 70000
AAXX 08064 41909 32956 02902 10270 20180 30117 40129 333 59010 70000
AAXX 08064 41929 31950 03602 10264 20180 30128 40138 70544 333 59007 70000
AAXX 08064 41933 31940 00000 10280 20160 30122 40130 70544 333 59007 70000
AAXX 08061 02917 47365 81304 10002 21008 39908 40031 700// 88/// 90600 333 10002 21030 3////
AAXX 08061 02944 47132 81504 10003 20003 39840 49987 761// 88/// 90600 333 10008 20001 3////
AAXX 08061 02897 47370 81304 11017 21024 39845 40029 700// 88/// 90600 333 11017 21029 3////
AAXX 08061 02913 47460 81303 10012 20005 39919 49971 781// 88/// 333 10015 20003 3////
AAXX 08061 02741 17599 72803 10004 21002 39968 49984 52032 60022 70086 87/// 90539 333 10030 20001 3/102
AAXX 08061 02755 17125 81504 10001 20001 39898 49994 52011 60022 77176 88/// 90539 333 10001 21015 3//// 4/006
AAXX 08061 02805 37670 81601 11096 21110 39870 40007 52015 77187 81/// 90539 333 11072 21097 3/112
AAXX 08061 02807 47660 70000 11083 21088 39828 40016 771// 87/// 90600 333 11046 21084 3////
AAXX 08061 02836 17369 81803 11024 21026 39792 40016 52018 69922 77187 88/// 90539 333 11024 21045 3/105 4/010
AAXX 08061 02845 47150 81203 11026 21026 39764 40015 52012 77187 88/// 90539 333 11021 21041 3/104 4/008
AAXX 08061 02849 47399 71602 11033 21042 39752 40029 52017 70042 87/// 90539 333 11014 21033 3////
AAXX 08061 02866 37460 81403 11017 21026 39869 40020 52009 77187 88/// 90539 333 11013 21025 3/103 4/008
AAXX 08061 02924 47367 71402 10005 20004 39789 49986 52013 74187 87/// 90539 333 10006 21003 3/101
AAXX 08061 02926 37280 71504 10007 20004 39958 49970 52019 700// 87/// 90600 333 10013 20005 3/101 4/003
AAXX 08061 02935 37374 71403 10007 20000 39833 40007 52014 70072 87/// 90539 333 10008 21013 3/101 4/003
AAXX 08061 02939 37766 71304 11024 21026 39864 40060 52012 70000 87/// 90539 333 11018 21028 3/104 4/010
AAXX 08061 02947 47265 71402 10007 20004 40032 52013 70080 87/// 90551 333 10007 21013
AAXX 08061 02963 11215 81905 10004 20001 49989 52018 60164 77377 887// 333 1//// 2//// 3/101 43005
AAXX 08061 02974 11482 81906 10026 20000 39950 40017 52019 69982 72682 885// 333 10030 20020 3/001 42998
AAXX 08061 02976 46/// /1908 10030 20009 30020 40036 52018 90539 333 10035 20028 3////
AAXX 08061 02981 17599 72507 10034 20001 39977 49987 52025 60072 70086 87/// 90539 333 10044 20020 3////
AAXX 08061 02982 46/// /2014 10029 20019 39988 49996 52020 90539 333 10050 20019 3////
AAXX 08061 02897 NIL
AAXX 08061 02913 NIL
AAXX 08061 02917 NIL
AAXX 08061 02944 NIL
AAXX 08061 02947 47/65 71402 10007 20004 40032 52013 70080 87/// 90551 333 10007 21013 3////
AAXX 08064 71249 16/// /3016 11169 21207 60001 333 11037 21176 70009 555 33430 40212
AAXX 08064 71904 16/// ///// 11139 21193 60001 333 11041 21141 70010
AAXX 08064 71797 16/// ///// 11152 21192 60001 333 11072 21152 70000
AAXX 08064 71014 46/// /2604 11151 21201 6///1 333 7////
AAXX 08064 71674 16/// ///// 11157 21192 60001 333 11026 21157 70000
AAXX 08064 71540 17/// /2607 11163 21211 69941 7//4/ 333 11043 21166 70008 555 33119 40211
AAXX 08064 71544 17/// ///// 11155 21185 69941 7//4/ 333 11054 21161 70004
AAXX 08064 71548 16/// ///// 11150 21250 60001 333 11062 21150 70000
AAXX 08064 71413 16/// ///// 11160 21199 60001 333 11031 21160 70005
AAXX 08064 71414 16/// ///// 11153 21260 60001 333 11076 21154 70000
AAXX 08064 71440 17/// ///// 11136 21195 69941 7//4/ 333 11035 21141 70018
AAXX 08064 71055 46/// /1601 11363 21399 39934 40291 57016 6///1 333 11225 21363 7//// 555 32520 40081
AAXX 08064 71065 16/// ///// 11149 21201 60001 333 11061 21150 70000
AAXX 08064 71360 16/// ///// 11145 21192 60001 333 11040 21145 7////
AAXX 08064 71380 16/// /3008 11148 21198 60001 333 11036 21155 70010 555 33230 40222
AAXX 08064 71271 16/// ///// 11153 21189 60001 333 11063 21153 70000
AAXX 08064 71857 16/// ///// 11145 21238 60001 333 11053 21148 70004
AAXX 08064 71481 17/// /2503 11145 21196 69941 7//4/ 333 11046 21147 7////
AAXX 08064 71498 17/// /2907 11153 21200 69941 7//4/ 333 11031 21161 70008 555 33325 40231
AAXX 08064 71346 16/// /2704 11087 21125 60001 333 11002 21087 70012 555 30319 40201
AAXX 08061 02947 47/65 71402 10007 20004 40032 52013 70080 87/// 90551 333 10007 21013 3////
AAXX 08064 60115 32970 03104 10050 20027 40298 55000 333 20043
AAXX 08064 60285 32960 40605 10110 20071 40231 5//// 80002 333 20098 84073
BBXX C6HS4 08063 99073 30815 41697 62815 10280 20267 40090 5/010 71022 84461 22233 20401 80270
BBXX MTDU5 08063 99346 30229 41598 /2527 10185 20078 40200 52015 70122 8/44/ 22262 04189 20804 80130
AAXX 08064 71925 11704 23630 11222 21246 30036 40078 50010 60001 73933 82500 333 11138 21226 70000 555 10000 20000 30146 40143
AAXX 08064 71925 11704 23630 11222 21246 30036 40078 50010 60001 73933 82500 333 11138 21226 70000 555 10000 20000 30146 40143
AAXX 08064 42309 31596 10000 20272 20154 40136 70500 81500 333 59003
AAXX 08064 42398 31596 19902 10272 20149 40141 70500 81500 333 59013
AAXX 08064 42410 31995 00000 10266 20202 40147 70500 333 59008
AAXX 08064 42415 32996 10360 10274 20176 40159 333 59006
BBXX MLJA8 08064 99124 31149 41597 41604 10290 20216 40117 54000 70322 83130 22283 00280 2//// 322// 42002 5//// 80240
AAXX 08064 88903 45/// /3112 10101 21005 39960 49960 55000 333 55093
BBXX 44040 08061 99410 70736 46/// /0214 10060 20060 49973 90545 22200 10302 70011 333 91219 555 11160 22175
AAXX 08064 13601 12665 30000 10070 20041 30065 40167 54001 60002 83800 333 20068 31/// 81840
AAXX 08063 67765 32981 10118 10247 20114 38648 48493 80002 333 20187 81080
AAXX 08064 67765 32981 10118 10247 20114 38648 48493 80002 333 20187 59024 81080
AAXX 08064 60190 32970 00606 10070 20033 40284 54000 333 20056 30003
AAXX 08064 91844 46/// /0000 10250 40140 22200 00272
AAXX 08064 71894 16/// /3303 10014 20014 30309 40318 53001 60001 333 10070 20012 70000
AAXX 08064 71209 46/// /0207 10047 6///1 333 10057 20032 7//// 555 33322 40021
AAXX 08064 71245 46/// /2417 11136 21217 6///1 333 11078 21184 7//// 555 32540 40123
AAXX 08064 71485 16/// /3308 10038 20009 30313 40334 55000 60001 333 10059 20036 70000 555 33323 40151
AAXX 08064 71883 46/// /0000 11073 21079 39506 40356 51002 6///1 333 11037 21138 7////
AAXX 08064 71702 17/// /0507 10045 20038 30006 40021 58046 60041 7//4/ 333 10045 20033 70045 555 30620 40071
AAXX 08064 71713 16/// /0000 11010 21011 60001 333 11009 21028 70010
AAXX 08064 71050 46/// /0000 11159 21179 39225 40355 58003 6///1 333 11031 21169 7////
AAXX 08064 71756 16/// /0000 11055 21064 39190 40313 50003 60001 333 11009 21055 70000
AAXX 08064 71786 46/// /0000 11192 21212 38415 40329 50002 6///1 333 11095 21192 7//// 555 32620 40071
AAXX 08064 71681 46/// /1802 11063 21083 6///1 333 10023 21064 7////
AAXX 08064 71687 16/// /2001 11060 21066 39515 40320 50004 60001 333 10005 21061 70000
AAXX 08064 71505 46/// /0101 11196 21226 39480 40247 58028 6///1 333 11193 21292 7////
AAXX 08064 71557 46/// /0901 11063 21070 6///1 333 11003 21102 7////
AAXX 08064 71302 16/// /3001 11170 21185 39491 40355 57009 60001 333 11070 21170 70000
AAXX 08064 71914 16/// /3603 10027 20009 30093 40319 53007 60001 333 10040 20017 70008
AAXX 08064 71112 16/// ///// 60001 333 70000
AAXX 08064 71113 16/// /0703 10002 20002 30297 40321 53006 60001 333 10062 21023 70024
AAXX 08064 71028 16/// /0601 11128 21137 39277 40356 57007 60001 333 11010 21128 70000
AAXX 08064 71039 46/// /1101 11169 6///1 333 11169 21312 7////
AAXX 08064 71042 16/// /1201 11003 21006 30312 40316 53005 60001 333 10053 21018 70000
AAXX 08064 71894 16/// /3303 10014 20014 30309 40318 53001 60001 333 10070 20012 70000
AAXX 08064 71050 46/// /0000 11159 21179 39225 40355 58003 6///1 333 11031 21169 7////
AAXX 08064 71883 46/// /0000 11073 21079 39506 40356 51002 6///1 333 11037 21138 7////
AAXX 08064 71702 17/// /0507 10045 20038 30006 40021 58046 60041 7//4/ 333 10045 20033 70045 555 30620 40071
AAXX 08064 71713 16/// /0000 11010 21011 60001 333 11009 21028 70010
AAXX 08064 71681 46/// /1802 11063 21083 6///1 333 10023 21064 7////
AAXX 08064 71687 16/// /2001 11060 21066 39515 40320 50004 60001 333 10005 21061 70000
AAXX 08064 71112 16/// ///// 60001 333 70000
AAXX 08064 71113 16/// /0703 10002 20002 30297 40321 53006 60001 333 10062 21023 70024
AAXX 08064 71505 46/// /0101 11196 21226 39480 40247 58028 6///1 333 11193 21292 7////
AAXX 08064 71485 16/// /3308 10038 20009 30313 40334 55000 60001 333 10059 20036 70000 555 33323 40151
AAXX 08064 71756 16/// /0000 11055 21064 39190 40313 50003 60001 333 11009 21055 70000
AAXX 08064 71786 46/// /0000 11192 21212 38415 40329 50002 6///1 333 11095 21192 7//// 555 32620 40071
AAXX 08064 71557 46/// /0901 11063 21070 6///1 333 11003 21102 7////
AAXX 08064 71209 46/// /0207 10047 6///1 333 10057 20032 7//// 555 33322 40021
AAXX 08064 71245 46/// /2417 11136 21217 6///1 333 11078 21184 7//// 555 32540 40123
AAXX 08064 71028 16/// /0601 11128 21137 39277 40356 57007 60001 333 11010 21128 70000
AAXX 08064 71039 46/// /1101 11169 6///1 333 11169 21312 7////
AAXX 08064 71042 16/// /1201 11003 21006 30312 40316 53005 60001 333 10053 21018 70000
AAXX 08064 71302 16/// /3001 11170 21185 39491 40355 57009 60001 333 11070 21170 70000
AAXX 08064 71914 16/// /3603 10027 20009 30093 40319 53007 60001 333 10040 20017 70008
AAXX 08061 26531 31959 11203 11017 21023 40047 52017 71000 81030 333 21021 34/// 91004 91104 53006 7990/
AAXX 08064 87715 32762 50908 10180 20030 39885 40194 52013 83950 333 56200 57925 82956
AAXX 08064 13601 12665 30000 10070 20041 30065 40167 54001 60002 83800 333 20068 31/// 81840
BBXX BAREU60 08064 99436 10135 46/// ///// 40176 52028 22252
BBXX 61001 08064 99434 10078 46/// /0405 10153 20119 40178 52022 22200 00160 10804 70022
BBXX BATFR31 08064 99433 10053 46/// /3017 10127 21160 40249 53059 22212 00165
BBXX BATFR01 08064 99431 10059 46/// /2813 10134 20052 40229 53006 22200 00152
BBXX BATFR22 08064 99430 10081 46/// /2924 29066 40184 56019 22224 00149
BBXX BATEU09 08064 99429 10095 46/// /2429 10165 20072 40177 22241 00182
BBXX SHIP 08064 99428 10067 41068 02845 10150 20134 40190 56020 70200 80000 22273 20505 80140
BBXX BATFR21 08064 99427 10089 46/// ///// 20075 40196 53010 22232
BBXX BATFR24 08064 99427 10095 46/// ///// 10162 20054 40185 22213 00169
BBXX BAREU63 08064 99424 10098 46/// /3612 10167 29060 40193 52028 22243
BBXX 61002 08064 99421 10047 46/// ///22 10150 2//// 40272 54000 22200 00158 10604 70022 555 1/028
BBXX BATFR20 08064 99415 10094 46/// /2817 10162 20087 40210 51007 22284
BBXX BAREU62 08064 99405 10270 46/// ///// 40174 52005 22214
BBXX PEBT 08063 99402 10264 41998 10810 10075 20030 40180 53020 7//00 80005 22213 02120 20000 300// 40000 5//// 80054
BBXX PFFH 08063 99383 10170 41/98 /2519 10168 40191 57020 7//// 8//// 22213 00171 2////
BBXX C6XC6 08064 99382 10011 419// 02507 10165 2//// 40270 54000 7//00 8/000 22252 0//// 2//// 3//// 4//// 5//// 6//// 8//// /////
BBXX PBEO 08063 99375 10075 41497 63113 10172 20114 40285 53009 70022 86800 22262 02181 20402 333// 40603 80138
BBXX HZZB 08063 99372 10074 41598 23013 10162 2014/ 40287 56013 70200 82080 22223 0//// 20502 329// 40803 5//// 6//// 80149 /////
BBXX PGRQ 08064 99371 10160 41598 12925 10171 2//// 40208 57002 70200 81500 22272 00189 20202 328// 40404
BBXX NWS0020 08064 99362 10233 43/// /3112 10147 20062 40193 5//// 7//// 8//// 222// 04200 2//// 3//// 4//// 5//// 6//// 8//// /////
BBXX KSDF 08064 99361 10153 41498 22913 10178 20132 40235 54000 70200 821// 22233 0//// 20202 329// 40803 5//// 6//// 80150
BBXX ZCBW2 08063 99348 10223 43598 33121 10160 20040 40200 52015 7//// 832// 22263 00180 20605 3//// 4//// 5//// 80100
BBXX WAHV 08063 99329 10288 41399 63123 10173 2015/ 40164 54000 71511 82290 22225 00202 20805 80155
BBXX MCCN6 08064 99073 30918 41398 82718 10278 20278 40081 58010 70222 8/7// 22233 00269 2//02 327// 4//06 5//// 80278
BBXX A8FQ8 08063 99197 30059 41298 31421 10200 20177 40160 54000 70322 8341/ 22234 00192 20504 314// 40605 80185
BBXX DEIR 08064 99204 30119 41698 41419 10175 20143 40144 51009 7//11 84200 22243 20504 318// 41005 80155
BBXX AMOUK15 08064 99241 30049 46/// ///// 10185 20141 30181 40207 54002 90550
BBXX ZDLS1 08063 99294 30140 41598 51430 10162 20091 40201 52010 70122 82173 22232 04173 20607 80125
BBXX AMOUK01 08064 99295 30141 46/// ///// 10166 20094 30196 40207 52004 90550
BBXX A8UL5 08063 99327 30319 41597 81820 10220 20179 40110 51010 70522 8577/ 22213 04205 20301 302// 40503 5//// 80193
BBXX ONFP 08064 99331 30042 43593 81624 10140 2006/ 40310 51010 7//// 8875/ 22233 04168 20804 31918 41007 51006 6//// 80100 /////
AAXX 08063 62414 32960 20106 10118 20041 40212 52014 80001 333 20090
AAXX 08063 62414 32960 20106 10118 20041 40212 52014 80001 333 20090
AAXX 08064 67002 32581 32804 10295 20222 30082 40116 82831 333 20233 59002 81822 92408
AAXX 08064 67009 12582 71408 10290 20232 39988 40103 51010 60014 872// 333 02319 10330 20240 50454 55035 87820
AAXX 08064 67012 12582 70406 10288 20251 30092 40102 51005 69944 8523/ 333 0//18 10298 20242 50194 55/// 85820 83360
AAXX 08064 67025 NIL
AAXX 08064 67027 32582 63608 10295 20245 30079 40100 51005 85232 333 02200 10320 20250 50274 55110 85820 555 81360 82073
AAXX 08064 67045 NIL
AAXX 08064 67072 11470 63606 10260 20237 30118 40121 51007 60174 71562 86800 333 02209 10292 20240 50354 55/// 83817 85640 92428
AAXX 08064 67073 32582 4//// 10296 20217 30072 40098 52013 81830 333 0//00 10308 20230 50//4 55/// 81820 555 81633 82360 81073
AAXX 08064 67083 11475 70000 10220 20187 38733 48507 51022 60324 70362 8683/ 333 01116 20162 50134 55018 81710 86620
AAXX 08064 67095 32475 70000 10278 20221 30109 40116 52012 71521 8683/ 333 02000 10307 20210 50294 55/// 83817 86640 555 84360
AAXX 08064 67113 32575 6//// 10278 20250 30/// 40/// 5//// 86830 333 0//00 10305 20232 50114 55/// 84820 555 82640 82360
AAXX 08064 67117 NIL
AAXX 08064 67137 12480 1//06 10229 20155 38885 48490 51008 60084 81832 333 0//29 10273 20164 50264 55/// 81817 555 81623 81360 81073
AAXX 08064 67143 11575 6//// 10/// 20/// 30106 40113 51002 60114 70262 86800 333 0//14 10/// 20/// 50//4 55/// 82820 86633 92437
AAXX 08064 67152 12582 1//// 10245 20201 39182 48492 52011 60054 81200 333 01719 10290 20189 50294 55/// 81820
AAXX 08064 67157 11581 6//// 10/// 20/// 30130 40137 53007 60274 70162 86800 333 0//14 10/// 20/// 50//4 55/// 83823 85640
AAXX 08064 67161 32582 2//04 10256 20226 30084 40093 51010 82800 333 0//00 10305 20195 50464 55/// 81823 555 82640
AAXX 08064 67197 32582 20819 10270 20218 30092 40102 50001 82800 333 01400 10279 20227 50524 55118 82820 555 81633
AAXX 08063 63674 32470 71105 10229 20193 39062 48511 8253/ 333 20200 59005 82618 87361 555 10205
AAXX 08063 63658 32980 40702 10235 20165 38880 48511 80005 333 20182 59007 84040 555 10190
AAXX 08063 63702 11470 70000 10197 20186 60264 70242 81538 333 20160 81618 86363 555 10190
AAXX 08063 63630 12980 10904 10245 20184 48/// 69944 80001 333 20184 81079 555 10205
AAXX 08063 63726 11530 30000 10155 20147 38140 48493 60064 71044 81230 333 20126 59010 81820 83363 555 10150
AAXX 08063 63682 32478 70903 10198 20192 48/// 82971 333 20170 82818 81919 88361 87077 555 10194
BBXX 63106 08064 99610 10017 46/// /2411 10056 49972 58012 22200
BBXX 63105 08064 99610 10017 47997 ///// 10060 21044 49972 58012 700// 22200
BBXX AMOUK08 08064 99501 70061 46/// ///// 10125 20091 30164 40166 57030 90550
BBXX 62305 08064 99504 10000 46/97 /2219 10119 20079 40205 57021 22200 00131 10602 70008 333 90710 91126
BBXX 2AUO5 08063 99606 10016 41597 21813 10066 21032 49981 56010 7//// 8/4// 22261 20001 399// 40603 80031
AAXX 08064 78318 01459 73610 10234 20214 30161 40165 58006 60031 76186 878// 333 10278 20174 32/// 56999 59005 60017 70025 84818 83620
AAXX 08064 78325 11530 30302 10236 20180 30108 40166 56006 60001 70400 83200 333 10266 20195 30/// 56100 58000 83820 555 10402
AAXX 08064 78333 12/10 13402 10197 20188 30152 40159 56003 60001 81100 333 10303 20183 30/// 56900 59003 818//
AAXX 08064 78348 11550 30000 10210 20201 30104 40156 58004 60001 70500 83800 333 10265 20210 30/// 56800 57832 59004 83820 555 10202
AAXX 08064 78349 12440 23301 10208 20203 30049 40158 58005 60001 82100 333 10293 20193 30/// 56900 59005 82819
AAXX 08064 78353 12560 10301 10241 20223 30123 40145 58009 60001 81200 333 10282 20224 31/// 56900 59007 81820
AAXX 08064 78360 11/60 10303 10230 20215 30125 40136 56009 60021 70160 81800 333 10300 20220 31/// 56900 59001 70015 818// 92023
AAXX 08064 78369 11464 30604 10259 20224 30120 40129 56004 69951 70380 83200 333 10281 20249 30/// 56900 57860 58003 70006 83818
AAXX 08064 08284 02965 02903 10064 20039 30214 40292 53003 60002 333 20064 3//// 50184 55087 60007 70000
AAXX 08064 91317 32474 51405 10306 20291 30082 40086 5//// 82170 333 5639/ 70051 82815 83365 555 90806
AAXX 08064 91369 32474 80915 10294 20251 30070 40073 82121 333 56229 82815 81260 82180 70000 555 90806 91371 32474 40912 10278 20252 30084 40087 84221 333 56229 84815 82160 82280 70000 555 90806
AAXX 08064 91413 32469 80908 10300 20253 30042 40068 56012 84531 333 56299 70020 555 90806
AAXX 08064 65046 31910 60609 10143 20004 39606 70522 80008 333 20132 58002 86280
AAXX 08064 65125 31950 70000 10185 20051 30730 40134 70522 80008 333 20112 58004 87280
AAXX 08064 65236 31909 70000 10246 20237 30000 4//// 74242 80008 333 20243 5//// 87280
AAXX 08064 65252 11905 70000 10219 20210 39966 40104 74642 80008 333 20211 59005 87280
AAXX 08064 65271 11956 70000 110148 20124 300616 40119 60001 70522 80008 333 20127 59001 87280
BBXX 3ECJ7 08064 99108 10740 415// 63413 10310 20227 40120 51010 705// 8/216 222// 0//// 20102 3//// 40102 5//// 6//// 80250 ICE /////
BBXX WDE8293 08064 99098 10710 41597 20509 10310 20256 40105 52005 70500 821// 22275 00300 20102 305// 40303 5//// 6//// 80270 ICE /////
AAXX 08064 65046 31910 60609 10143 20004 39606 70522 80008 333 20132 58002 86280
AAXX 08064 65125 31950 70000 10185 20051 30730 40134 70522 80008 333 20112 58004 87280
AAXX 08064 65236 31909 70000 10246 20237 30000 4//// 74242 80008 333 20243 5//// 87280
AAXX 08064 65252 11905 70000 10219 20210 39966 40104 74642 80008 333 20211 59005 87280
AAXX 08064 65271 11956 70000 110148 20124 300616 40119 60001 70522 80008 333 20127 59001 87280
BBXX WDE8293 08064 99098 10710 41597 20509 10310 20256 40105 52005 70500 821// 22275 00300 20102 305// 40303 5//// 6//// 80270 ICE /////
BBXX 3ECJ7 08064 99108 10740 415// 63413 10310 20227 40120 51010 705// 8/216 222// 0//// 20102 3//// 40102 5//// 6//// 80250 ICE /////
BBXX BSH03 08061 99540 10081 46/// ///// 22200 00072 1//04 70022
BBXX BSH02 08061 99542 10079 46/// ///// 22200 00087 1//05 70025
BBXX WYL4318 08064 99606 71475 41/93 90423 11011 2//// 40145 57/// 77572 89/// 22231 0//// 20202 3//// 4//00 5//// 6//// 8//// ICE /////
BBXX WCQ6174 08064 99600 71493 41395 89905 10022 2//// 40140 57/// 78587 8762/ 22200 0//// 20000 3//// 4//00 5//// 6//// 8//// ICE /////
BBXX WTD4576 08064 99607 71462 41/93 90407 11006 2//// 40175 57/// 77372 89/// 22200 0//// 20000 3//// 4//00 5//// 6//// 8//// ICE /////
BBXX WDD2451 08064 99608 71513 41398 80235 10006 21050 40130 54000 77172 8762/ 22200 0//// 20101 3//// 4//00 5//// 64021 8//// ICE /////
BBXX MLJA8 08064 99124 31149 41597 41604 10290 20216 40117 54000 70322 83130 22283 00280 2//// 322// 42002 5//// 80240
BBXX C6HS4 08063 99073 30815 41697 62815 10280 20267 40090 5/010 71022 84461 22233 20401 80270
AAXX 08064 89614 46/// /1128 11080 29092 38788 4//// 5//// 90630 333 90700 91134
AAXX 08064 89807 46/// /2016 11032 29060 39588 4//// 5//// 90630 333 90700 91123
AAXX 0806/ 89767 46/// ///// 11112 39636 4//// 5////
AAXX 08064 89016 46/// /1112 29073 39313 4//// 5////
AAXX 08064 94997 46/// ///// 10040 30082 40097 5////
AAXX 08064 60105 31401 81006 10080 20080 40281 5//// 74442 886// 333 20066 31005 88710
AAXX 08064 89807 46/// /2016 11032 29060 39588 4//// 5//// 90630 333 90700 91123
AAXX 08064 94997 46/// ///// 10040 30082 40097 5////
AAXX 08064 89614 46/// /1128 11080 29092 38788 4//// 5//// 90630 333 90700 91134
OOXX GBP67 08041 99159 50057 ///// 04381 26/// /0903 10163 29081 39665 90400 333 60000
OOXX GBP67 08041 99159 50057 ///// 04381 26/// /0804 10163 29091 39663 90410 333 60000
OOXX GBP67 08041 99159 50057 ///// 04381 26/// /0604 10156 29096 39663 90420 333 60000
OOXX GBP67 08041 99159 50057 ///// 04381 26/// /0804 10152 29097 39665 90430 333 60000
OOXX GBP67 08041 99159 50057 ///// 04381 26/// /0904 10147 29097 39666 90440 333 69920
OOXX GBP67 08041 99159 50057 ///// 04381 26/// /0903 10146 29098 39665 90450 333 60000
OOXX GBP67 08051 99159 50057 ///// 04381 26/// /0903 10149 29097 39663 90500 333 60000
OOXX GBP67 08051 99159 50057 ///// 04381 26/// /0904 10149 29095 39664 90510 333 60000
OOXX GBP67 08051 99159 50057 ///// 04381 26/// /0804 10154 29087 39664 90520 333 60000
OOXX GBP67 08051 99159 50057 ///// 04381 26/// /0904 10156 29084 39664 90530 333 60000
OOXX GBP67 08051 99159 50057 ///// 04381 26/// /0904 10156 29082 39665 90540 333 60000
OOXX GBP67 08051 99159 50057 ///// 04381 26/// /0704 10155 29091 39667 90550 333 60000
OOXX NOP49 08041 99782 10154 ///// 04691 26/// ///// 1//// 29/// 3//// 90410 333 6///0
OOXX NOP49 08041 99782 10154 ///// 04691 26/// ///// 1//// 29/// 3//// 90420 333 6///0
OOXX NOP49 08041 99782 10154 ///// 04691 26/// ///// 1//// 29/// 3//// 90430 333 6///0
OOXX NOP49 08041 99782 10154 ///// 04691 26/// ///// 1//// 29/// 3//// 90440 333 6///0
OOXX NOP49 08041 99782 10154 ///// 04691 26/// ///// 1//// 29/// 3//// 90450 333 6///0
OOXX NOP49 08051 99782 10154 ///// 04691 26/// ///// 1//// 29/// 3//// 90500 333 6///0
OOXX NOP49 08051 99782 10154 ///// 04691 26/// ///// 1//// 29/// 3//// 90510 333 6///0
OOXX NOP49 08051 99782 10154 ///// 04691 26/// ///// 1//// 29/// 3//// 90520 333 6///0
OOXX NOP49 08051 99782 10154 ///// 04691 26/// ///// 1//// 29/// 3//// 90530 333 6///0
OOXX NOP49 08051 99782 10154 ///// 04691 26/// ///// 1//// 29/// 3//// 90540 333 6///0
OOXX NOP49 08051 99782 10154 ///// 04691 26/// ///// 1//// 29/// 3//// 90550 333 6///0
OOXX NOP49 08061 99782 10154 ///// 04691 26/// ///// 1//// 29/// 3//// 90600 333 6///0
OOXX FJP26 08041 99178 31775 ///// 00311 26/// /2704 10290 29071 30050 90410 333 60000
OOXX FJP26 08041 99178 31775 ///// 00311 26/// /2504 10290 29071 30051 90420 333 60000
OOXX FJP26 08041 99178 31775 ///// 00311 26/// /2504 10290 29073 30052 90430 333 60000
OOXX FJP26 08041 99178 31775 ///// 00311 26/// /2303 10290 29074 30052 90440 333 60000
OOXX FJP26 08041 99178 31775 ///// 00311 26/// /2403 10291 29073 30053 90450 333 60000
OOXX FJP26 08051 99178 31775 ///// 00311 26/// /2403 10287 29074 30054 90500 333 60000
OOXX FJP26 08051 99178 31775 ///// 00311 26/// /2503 10284 29075 30055 90510 333 60000
OOXX FJP26 08051 99178 31775 ///// 00311 26/// /2203 10284 29074 30056 90520 333 60000
OOXX FJP26 08051 99178 31775 ///// 00311 26/// /2103 10283 29073 30057 90530 333 60000
OOXX FJP26 08051 99178 31775 ///// 00311 26/// /2103 10282 29074 30059 90540 333 60000
OOXX FJP26 08051 99178 31775 ///// 00311 26/// /2202 10282 29073 30061 90550 333 60000
OOXX FJP26 08061 99178 31775 ///// 00311 26/// /2302 10284 29072 30062 90600 333 60000
OOXX MRP43 08041 99181 70159 ///// 00101 26/// /0302 10176 29024 30125 90440 333 60000
OOXX MRP43 08041 99181 70159 ///// 00101 26/// /0302 10177 29024 30126 90450 333 60000
OOXX MRP43 08051 99181 70159 ///// 00101 26/// /0302 10178 29024 30127 90500 333 60000
OOXX MRP43 08051 99181 70159 ///// 00101 26/// /0402 10179 29024 30128 90510 333 60000
OOXX MRP43 08051 99181 70159 ///// 00101 26/// /0402 10178 29024 30127 90520 333 60000
OOXX MRP43 08051 99181 70159 ///// 00101 26/// /0503 10175 29024 30127 90530 333 60000
OOXX MRP43 08051 99181 70159 ///// 00101 26/// /0603 10174 29024 30126 90540 333 60000
OOXX MRP43 08051 99181 70159 ///// 00101 26/// /0502 10172 29025 30127 90550 333 60000
OOXX MRP43 08061 99181 70159 ///// 00101 26/// /0502 10173 29025 30127 90600 333 60000
OOXX MRP43 08061 99181 70159 ///// 00101 26/// /0402 10174 29025 30127 90610 333 60000
OOXX MRP43 08061 99181 70159 ///// 00101 26/// /3602 10164 29026 30130 90620 333 60000
OOXX MRP43 08061 99181 70159 ///// 00101 26/// /0202 10162 29027 30129 90630 333 60000
OOXX AUP09 08041 99124 31309 ///// 00321 26/// ///// 1//// 29/// 3//// 90414 333 6///0
OOXX AUP09 08041 99124 31309 ///// 00321 26/// ///// 1//// 29/// 3//// 90424 333 6///0
OOXX AUP09 08041 99124 31309 ///// 00321 26/// ///// 1//// 29/// 3//// 90434 333 6///0
OOXX AUP09 08041 99124 31309 ///// 00321 26/// ///// 1//// 29/// 3//// 90444 333 6///0
OOXX AUP09 08041 99124 31309 ///// 00321 26/// ///// 1//// 29/// 3//// 90454 333 6///0
OOXX AUP09 08051 99124 31309 ///// 00321 26/// ///// 1//// 29/// 3//// 90504 333 6///0
OOXX AUP09 08051 99124 31309 ///// 00321 26/// ///// 1//// 29/// 3//// 90514 333 6///0
OOXX AUP09 08051 99124 31309 ///// 00321 26/// ///// 1//// 29/// 3//// 90524 333 6///0
OOXX AUP09 08051 99124 31309 ///// 00321 26/// ///// 1//// 29/// 3//// 90534 333 6///0
OOXX AUP09 08051 99124 31309 ///// 00321 26/// ///// 1//// 29/// 3//// 90544 333 6///0
OOXX AUP09 08051 99124 31309 ///// 00321 26/// ///// 1//// 29/// 3//// 90554 333 6///0
OOXX AUP09 08061 99124 31309 ///// 00321 26/// ///// 1//// 29/// 3//// 90604 333 6///0
OOXX KIP39 08041 99020 51574 ///// 00181 26/// /1102 10257 29081 30086 90430 333 60000
OOXX KIP39 08041 99020 51574 ///// 00181 26/// /1103 10257 29081 30088 90440 333 60000
OOXX KIP39 08041 99020 51574 ///// 00181 26/// /1203 10257 29081 30087 90450 333 60000
OOXX KIP39 08051 99020 51574 ///// 00181 26/// /1303 10256 29082 30089 90500 333 60000
OOXX KIP39 08051 99020 51574 ///// 00181 26/// /1402 10255 29083 30090 90510 333 60000
OOXX KIP39 08051 99020 51574 ///// 00181 26/// /1202 10256 29083 30091 90520 333 60000
OOXX KIP39 08051 99020 51574 ///// 00181 26/// /1202 10256 29083 30091 90530 333 60000
OOXX KIP39 08051 99020 51574 ///// 00181 26/// /1203 10258 29083 30091 90540 333 60000
OOXX KIP39 08051 99020 51574 ///// 00181 26/// /1203 10256 29083 30091 90550 333 60000
OOXX KIP39 08061 99020 51574 ///// 00181 26/// /1203 10256 29083 30092 90600 333 60000
OOXX KIP39 08061 99020 51574 ///// 00181 26/// /1103 10256 29082 30092 90610 333 60000
OOXX KIP39 08061 99020 51574 ///// 00181 26/// /1103 10256 29082 30095 90620 333 60000
OOXX RUP54 08041 99586 10494 ///// 01271 26/// /0601 11016 29092 30047 90427 333 60120
OOXX RUP54 08041 99586 10494 ///// 01271 26/// /0701 11016 29092 30049 90437 333 60120
OOXX RUP54 08041 99586 10494 ///// 01271 26/// /0901 11016 29092 30050 90447 333 60120
OOXX RUP54 08041 99586 10494 ///// 01271 26/// /0801 11016 29092 30052 90457 333 60120
OOXX RUP54 08051 99586 10494 ///// 01271 26/// /0601 11017 29092 30053 90507 333 60120
OOXX RUP54 08051 99586 10494 ///// 01271 26/// /0000 11017 29092 30053 90517 333 60120
OOXX RUP54 08051 99586 10494 ///// 01271 26/// /2901 11019 29092 30055 90527 333 60120
OOXX RUP54 08051 99586 10494 ///// 01271 26/// /0501 11020 29092 30057 90537 333 60120
OOXX RUP54 08051 99586 10494 ///// 01271 26/// /0501 11020 29092 30058 90547 333 60120
OOXX RUP54 08051 99586 10494 ///// 01271 26/// /0601 11019 29092 30060 90557 333 60120
OOXX RUP54 08061 99586 10494 ///// 01271 26/// /0401 11019 29092 30061 90607 333 60120
OOXX RUP54 08061 99586 10494 ///// 01271 26/// /3101 11019 29092 30062 90617 333 60120
OOXX SEP63 08041 99594 10180 ///// 00401 26/// /1002 10007 29086 39930 90410 333 60000
OOXX SEP63 08041 99594 10180 ///// 00401 26/// /1002 10007 29087 39930 90420 333 60000
OOXX SEP63 08041 99594 10180 ///// 00401 26/// /0602 10007 29086 39940 90430 333 60000
OOXX SEP63 08041 99594 10180 ///// 00401 26/// /1302 10007 29085 39940 90440 333 60000
OOXX SEP63 08041 99594 10180 ///// 00401 26/// /0702 10006 29083 39940 90450 333 60000
OOXX SEP63 08051 99594 10180 ///// 00401 26/// /1003 10005 29083 39940 90500 333 60000
OOXX SEP63 08051 99594 10180 ///// 00401 26/// /1302 10005 29083 39940 90510 333 60000
OOXX SEP63 08051 99594 10180 ///// 00401 26/// /1202 10004 29083 39940 90520 333 60000
OOXX SEP63 08051 99594 10180 ///// 00401 26/// /1302 10004 29082 39940 90530 333 60000
OOXX SEP63 08051 99594 10180 ///// 00401 26/// /0502 10004 29084 39950 90540 333 60000
OOXX SEP63 08051 99594 10180 ///// 00401 26/// /1002 10004 29084 39950 90550 333 60000
OOXX SEP63 08061 99594 10180 ///// 00401 26/// /0903 10003 29084 39950 90600 333 60000
OOXX ISP34 08041 99641 70219 ///// 01301 26/// /0803 11023 29001 39842 90410 333 6///0
OOXX ISP34 08041 99641 70219 ///// 01301 26/// /0803 11019 29001 39842 90420 333 6///0
OOXX ISP34 08041 99641 70219 ///// 01301 26/// /1004 11018 29001 39843 90430 333 6///0
OOXX ISP34 08041 99641 70219 ///// 01301 26/// /0804 11018 29001 39843 90440 333 6///0
OOXX ISP34 08041 99641 70219 ///// 01301 26/// /0804 11018 29001 39843 90450 333 6///0
OOXX ISP34 08051 99641 70219 ///// 01301 26/// /0803 11018 29001 39844 90500 333 6///0
OOXX ISP34 08051 99641 70219 ///// 01301 26/// /0804 11015 29001 39844 90510 333 6///0
OOXX ISP34 08051 99641 70219 ///// 01301 26/// /1004 11013 29001 39844 90520 333 6///0
OOXX ISP34 08051 99641 70219 ///// 01301 26/// /0905 11011 29001 39844 90530 333 6///0
OOXX ISP34 08051 99641 70219 ///// 01301 26/// /0904 11012 29001 39844 90540 333 6///0
OOXX ISP34 08051 99641 70219 ///// 01301 26/// /0904 11012 29001 39845 90550 333 6///0
OOXX ISP34 08061 99641 70219 ///// 01301 26/// /1103 11011 29001 39847 90600 333 6///0
OOXX ARP01 08041 99345 50585 ///// 00311 26/// /0000 10107 29032 30125 90410 333 60000
OOXX ARP01 08041 99345 50585 ///// 00311 26/// /0000 10106 29031 30125 90420 333 60000
OOXX ARP01 08041 99345 50585 ///// 00311 26/// /0000 10105 29031 30125 90430 333 60000
OOXX ARP01 08041 99345 50585 ///// 00311 26/// /0000 10105 29030 30124 90440 333 60000
OOXX ARP01 08041 99345 50585 ///// 00311 26/// /0000 10104 29030 30123 90450 333 60000
OOXX ARP01 08051 99345 50585 ///// 00311 26/// /0000 10104 29030 30123 90500 333 60000
OOXX ARP01 08051 99345 50585 ///// 00311 26/// /0000 10104 29030 30123 90510 333 60000
OOXX ARP01 08051 99345 50585 ///// 00311 26/// /0000 10103 29030 30123 90520 333 60000
OOXX ARP01 08051 99345 50585 ///// 00311 26/// /0000 10103 29030 30122 90530 333 60000
OOXX ARP01 08051 99345 50585 ///// 00311 26/// /0000 10103 29030 30123 90540 333 60000
OOXX ARP01 08051 99345 50585 ///// 00311 26/// /0000 10103 29030 30124 90550 333 60000
OOXX ARP01 08061 99345 50585 ///// 00311 26/// /0000 10103 29031 30124 90600 333 60000
OOXX MXP44 08041 99280 71140 ///// 00041 26/// /1422 10138 29055 30147 90410 333 60000
OOXX MXP44 08041 99280 71140 ///// 00041 26/// /1422 10138 29055 30147 90420 333 60000
OOXX MXP44 08041 99280 71140 ///// 00041 26/// /1422 10135 29054 30146 90430 333 60000
OOXX MXP44 08041 99280 71140 ///// 00041 26/// /1422 10133 29054 30147 90440 333 60000
OOXX MXP44 08041 99280 71140 ///// 00041 26/// /1422 10130 29054 30146 90450 333 60000
OOXX MXP44 08051 99280 71140 ///// 00041 26/// /1422 10128 29054 30148 90500 333 60000
OOXX MXP44 08051 99280 71140 ///// 00041 26/// /1422 10128 29054 30148 90510 333 60000
OOXX MXP44 08051 99280 71140 ///// 00041 26/// /1422 10123 29054 30148 90520 333 60000
OOXX MXP44 08051 99280 71140 ///// 00041 26/// /1422 10119 29054 30149 90530 333 60000
OOXX MXP44 08051 99280 71140 ///// 00041 26/// /1422 10117 29054 30149 90540 333 60000
OOXX MXP44 08051 99280 71140 ///// 00041 26/// /1422 10112 29054 30150 90550 333 60000
OOXX MXP44 08061 99280 71140 ///// 00041 26/// /1422 10108 29054 30150 90600 333 60000
OOXX RUP59 08041 99539 10848 ///// 02121 26/// /0000 11139 29066 30140 90440 333 60000
OOXX RUP59 08041 99539 10848 ///// 02121 26/// /0000 11126 29064 30139 90450 333 60000
OOXX RUP59 08051 99539 10848 ///// 02121 26/// /0000 11124 29063 30139 90500 333 60000
OOXX RUP59 08051 99539 10848 ///// 02121 26/// /0000 11104 29061 30137 90510 333 60000
OOXX RUP59 08051 99539 10848 ///// 02121 26/// /0000 11098 29061 30138 90520 333 60000
OOXX RUP59 08051 99539 10848 ///// 02121 26/// /0000 11090 29059 30136 90530 333 60000
OOXX RUP59 08051 99539 10848 ///// 02121 26/// /0000 11079 29058 30136 90540 333 60000
OOXX RUP59 08051 99539 10848 ///// 02121 26/// /0201 11084 29066 30136 90550 333 60000
OOXX RUP59 08061 99539 10848 ///// 02121 26/// /0101 11088 29065 30136 90600 333 60000
OOXX RUP59 08061 99539 10848 ///// 02121 26/// /0201 11083 29061 30136 90610 333 60000
OOXX RUP59 08061 99539 10848 ///// 02121 26/// /0301 11080 29060 30135 90620 333 60000
OOXX RUP59 08061 99539 10848 ///// 02121 26/// /0301 11075 29056 30135 90630 333 60000
OOXX FRP31 08031 99052 70527 ///// 00091 26/// /0504 10270 29079 30184 90357 333 60000
OOXX FRP31 08041 99052 70527 ///// 00091 26/// /0503 10269 29080 30182 90407 333 60000
OOXX FRP31 08041 99052 70527 ///// 00091 26/// /0504 10270 29080 30179 90417 333 60000
OOXX FRP31 08041 99052 70527 ///// 00091 26/// /0505 10271 29080 30180 90427 333 60000
OOXX FRP31 08041 99052 70527 ///// 00091 26/// /0505 10271 29080 30180 90437 333 60000
OOXX FRP31 08041 99052 70527 ///// 00091 26/// /0505 10270 29080 30181 90447 333 60000
OOXX FRP31 08041 99052 70527 ///// 00091 26/// /0506 10271 29079 30181 90457 333 60000
OOXX FRP31 08051 99052 70527 ///// 00091 26/// /0405 10270 29079 30180 90507 333 60000
OOXX FRP31 08051 99052 70527 ///// 00091 26/// /0505 10270 29079 30179 90517 333 60000
OOXX FRP31 08051 99052 70527 ///// 00091 26/// /0505 10270 29080 30176 90527 333 60000
OOXX FRP31 08051 99052 70527 ///// 00091 26/// /0505 10270 29081 30176 90537 333 60000
OOXX FRP31 08051 99052 70527 ///// 00091 26/// /0505 10270 29081 30175 90547 333 60000
OOXX RUP58 08041 99442 11320 ///// 01121 26/// /3202 11114 29042 30116 90442 333 60000
OOXX RUP58 08041 99442 11320 ///// 01121 26/// /3402 11113 29043 30114 90452 333 60000
OOXX RUP58 08051 99442 11320 ///// 01121 26/// /2902 11110 29042 30113 90502 333 60000
OOXX RUP58 08051 99442 11320 ///// 01121 26/// /3402 11112 29041 30112 90512 333 60000
OOXX RUP58 08051 99442 11320 ///// 01121 26/// /3102 11105 29039 30111 90522 333 60000
OOXX RUP58 08051 99442 11320 ///// 01121 26/// /2802 11100 29038 30110 90532 333 60000
OOXX RUP58 08051 99442 11320 ///// 01121 26/// /3001 11098 29038 30109 90542 333 60000
OOXX RUP58 08051 99442 11320 ///// 01121 26/// /2902 11098 29038 30109 90552 333 60000
OOXX RUP58 08061 99442 11320 ///// 01121 26/// /2902 11106 29041 30109 90602 333 60000
OOXX RUP58 08061 99442 11320 ///// 01121 26/// /2602 11101 29040 30109 90612 333 60000
OOXX RUP58 08061 99442 11320 ///// 01121 26/// /2202 11111 29042 30109 90622 333 60000
OOXX RUP58 08061 99442 11320 ///// 01121 26/// /2202 11111 29043 30109 90632 333 60000
OOXX NZP46 08041 99438 51765 ///// 00221 26/// /2309 10118 29079 30077 90420 333 60000
OOXX NZP46 08041 99438 51765 ///// 00221 26/// /2209 10119 29076 30079 90430 333 60000
OOXX NZP46 08041 99438 51765 ///// 00221 26/// /2309 10120 29078 30081 90440 333 60000
OOXX NZP46 08041 99438 51765 ///// 00221 26/// /2311 10120 29074 30083 90450 333 60000
OOXX NZP46 08051 99438 51765 ///// 00221 26/// /2211 10117 29077 30084 90500 333 60000
OOXX NZP46 08051 99438 51765 ///// 00221 26/// /2112 10112 29085 30087 90510 333 60000
OOXX NZP46 08051 99438 51765 ///// 00221 26/// /2210 10110 29087 30088 90520 333 60000
OOXX NZP46 08051 99438 51765 ///// 00221 26/// /2210 10116 29081 30090 90530 333 60000
OOXX NZP46 08051 99438 51765 ///// 00221 26/// /2211 10111 29084 30094 90540 333 60000
OOXX NZP46 08051 99438 51765 ///// 00221 26/// /2111 10108 29085 30096 90550 333 60000
OOXX NZP46 08061 99438 51765 ///// 00221 26/// /2110 10112 29079 30099 90600 333 60000
OOXX NZP46 08061 99438 51765 ///// 00221 26/// /2210 10114 29076 30100 90610 333 60000
AAXX 08064 64700 31956 20406 10144 20002 39786 40128 70600 80002 333 01200 20145 50801 55105 58002 82075
AAXX 08064 64701 NIL
AAXX 08064 64702 NIL
AAXX 08064 64705 NIL
AAXX 08064 64706 33960 40000 10152 20134 39634 40112 80002 333 01200 20134 50764 55102 58000 84075
AAXX 08064 64708 31956 00000 10250 20000 3//// 4//// 705// 90600 333 0//00 20120 50404 55/// 5////
AAXX 08064 64709 31958 30206 10190 21004 3//// 4//// 705// 80002 90600 333 0//00 20163 5//// 55/// 5//// 83075
AAXX 08064 64710 NIL
AAXX 08064 64713 33960 40000 10144 20090 3//// 4//// 80002 90550 333 0//00 20127 50904 55/// 5//// 84075
AAXX 08064 64722 33962 10000 10170 20072 3//// 4//// 80002 90600 333 0//00 20110 50464 55/// 5//// 81075
AAXX 08064 64750 NIL
AAXX 08064 64751 33960 20404 10150 21030 3//// 4//// 80002 90550 333 0//00 20071 50713 55/// 5//// 82075
AAXX 08064 64753 NIL
AAXX 08064 64754 NIL
AAXX 08064 64756 33962 20408 10190 21052 39515 4//// 80002 90600 333 0//00 20176 5//// 55/// 59002 82075
AAXX 08064 64757 33960 50416 10200 21050 3//// 4//// 80002 90600 333 0//00 20140 5//// 55/// 85075
AAXX 08064 64758 NIL
AAXX 08064 64761 NIL
OOXX RUP60 08041 99531 11588 ///// 00651 26/// /3002 11086 29068 39943 90452 333 60000
OOXX RUP60 08051 99531 11588 ///// 00651 26/// /3303 11089 29068 39943 90502 333 60000
OOXX RUP60 08051 99531 11588 ///// 00651 26/// /2801 11095 29071 39943 90512 333 60000
OOXX RUP60 08051 99531 11588 ///// 00651 26/// /3202 11097 29072 39943 90522 333 60000
OOXX RUP60 08051 99531 11588 ///// 00651 26/// /3105 11104 29072 39943 90532 333 60000
OOXX RUP60 08051 99531 11588 ///// 00651 26/// /2705 11118 29075 39943 90542 333 60000
OOXX RUP60 08051 99531 11588 ///// 00651 26/// /3105 11126 29078 39944 90552 333 60000
OOXX RUP60 08061 99531 11588 ///// 00651 26/// /3001 11128 29082 39944 90602 333 60000
OOXX RUP60 08061 99531 11588 ///// 00651 26/// /3103 11125 29082 39944 90612 333 60000
OOXX RUP60 08061 99531 11588 ///// 00651 26/// /3202 11134 29081 39944 90622 333 60000
OOXX RUP60 08061 99531 11588 ///// 00651 26/// /2405 11137 29081 39944 90632 333 60000
OOXX RUP60 08061 99531 11588 ///// 00651 26/// /3105 11130 29078 39943 90642 333 60000
OOXX AUP07 08041 99/// ///// ///// ///// 26/// /0113 10064 29085 30021 90456 333 60000
OOXX AUP07 08051 99/// ///// ///// ///// 26/// /0113 10063 29086 30020 90506 333 60000
OOXX AUP07 08051 99/// ///// ///// ///// 26/// /3613 10063 29087 30020 90516 333 60000
OOXX AUP07 08051 99/// ///// ///// ///// 26/// /3613 10063 29088 30019 90526 333 60000
OOXX AUP07 08051 99/// ///// ///// ///// 26/// /3613 10063 29089 30019 90536 333 60000
OOXX AUP07 08051 99/// ///// ///// ///// 26/// /3612 10062 29090 30019 90546 333 60000
OOXX AUP07 08051 99/// ///// ///// ///// 26/// /3612 10062 29090 30019 90556 333 60000
OOXX AUP07 08061 99/// ///// ///// ///// 26/// /3512 10062 29091 30020 90606 333 60000
OOXX AUP07 08061 99/// ///// ///// ///// 26/// /3412 10062 29091 30021 90616 333 60000
OOXX AUP07 08061 99/// ///// ///// ///// 26/// /3412 10062 29091 30021 90626 333 60000
OOXX AUP07 08061 99/// ///// ///// ///// 26/// /3412 10062 29091 30021 90636 333 60000
OOXX AUP07 08061 99/// ///// ///// ///// 26/// /3311 10062 29092 30022 90646 333 60000
OOXX CKP23 08041 99212 51598 ///// 00051 26/// /1003 10268 29082 30127 90450 333 60000
OOXX CKP23 08051 99212 51598 ///// 00051 26/// /1102 10265 29083 30127 90500 333 60000
OOXX CKP23 08051 99212 51598 ///// 00051 26/// /1202 10262 29084 30128 90510 333 60000
OOXX CKP23 08051 99212 51598 ///// 00051 26/// /1202 10259 29086 30129 90520 333 60000
OOXX CKP23 08051 99212 51598 ///// 00051 26/// /1302 10255 29086 30129 90530 333 60000
OOXX CKP23 08051 99212 51598 ///// 00051 26/// /1302 10253 29087 30131 90540 333 60000
OOXX CKP23 08051 99212 51598 ///// 00051 26/// /1202 10253 29088 30132 90550 333 60000
OOXX CKP23 08061 99212 51598 ///// 00051 26/// /1202 10252 29088 30132 90600 333 60000
OOXX CKP23 08061 99212 51598 ///// 00051 26/// /1202 10252 29088 30133 90610 333 60000
OOXX CKP23 08061 99212 51598 ///// 00051 26/// /1202 10250 29089 30134 90620 333 60000
OOXX CKP23 08061 99212 51598 ///// 00051 26/// /1202 10248 29089 30134 90630 333 60000
OOXX CKP23 08061 99212 51598 ///// 00051 26/// /1202 10247 29090 30134 90640 333 60000
OOXX CAP16 08051 99624 71145 ///// 02061 26/// /0304 11242 29070 39847 90500 333 60000
OOXX CAP16 08051 99624 71145 ///// 02061 26/// /0303 11243 29070 39846 90510 333 60000
OOXX CAP16 08051 99624 71145 ///// 02061 26/// /0303 11243 29070 39847 90520 333 60000
OOXX CAP16 08051 99624 71145 ///// 02061 26/// /0303 11245 29070 39850 90530 333 60000
OOXX CAP16 08051 99624 71145 ///// 02061 26/// /0203 11245 29071 39850 90540 333 60000
OOXX CAP16 08051 99624 71145 ///// 02061 26/// /0403 11248 29071 39849 90550 333 60000
OOXX CAP16 08061 99624 71145 ///// 02061 26/// /0404 11250 29071 39849 90600 333 60000
OOXX CAP16 08061 99624 71145 ///// 02061 26/// /0504 11250 29071 39849 90610 333 60000
OOXX CAP16 08061 99624 71145 ///// 02061 26/// /0404 11251 29071 39849 90620 333 60000
OOXX CAP16 08061 99624 71145 ///// 02061 26/// /0504 11251 29071 39850 90630 333 60000
OOXX CAP16 08061 99624 71145 ///// 02061 26/// /0504 11253 29071 39852 90640 333 60000
OOXX CAP16 08061 99624 71145 ///// 02061 26/// /0504 11252 29071 39848 90650 333 60000
AAXX 0806/ 89828 46/// ///// 11250 36402 4//// 5//// 90640
AAXX 0806/ 89872 46/// ///// 11036 39719 4//// 5//// 90640
AAXX 08064 91559 46/// /0000 10247 40066 22200 00280
AAXX 08064 71301 17/// ///// 11070 21078 39676 40078 51010 69931 7//4/ 333 11035 21197 70016 555 10010 20016
AAXX 08064 71386 16/// /1502 11018 21031 39843 40048 58031 60001 333 11008 21036 70040
AAXX 08064 71721 16/// /2302 11055 21067 39826 40074 58009 60001 333 11015 21063 70000
AAXX 08064 71723 17/// /3105 11002 21010 30035 40045 56026 60021 7//4/ 333 10001 21013 70017
AAXX 08064 71724 16/// /3005 11004 21011 30039 40046 56021 60001 333 10003 21010 70010
AAXX 08064 71721 16/// /2302 11055 21067 39826 40074 58009 60001 333 11015 21063 70000
AAXX 08064 71723 17/// /3105 11002 21010 30035 40045 56026 60021 7//4/ 333 10001 21013 70017
AAXX 08064 71724 16/// /3005 11004 21011 30039 40046 56021 60001 333 10003 21010 70010
AAXX 08064 71301 17/// ///// 11070 21078 39676 40078 51010 69931 7//4/ 333 11035 21197 70016 555 10010 20016
AAXX 08064 71386 16/// /1502 11018 21031 39843 40048 58031 60001 333 11008 21036 70040
AAXX 08061 13289 11294 83008 11011 21012 38934 48434 52010 60032 77377 8802/ 333 21014 3/103 43010 55064 70031 91024 91124 93104
AAXX 08064 91531 46/// /0706 1//// 40045 22200 00280
BBXX UFML 08061 99450 11386 42898 23612 11020 40156 54000 82200 22253 00048 20705
AAXX 08064 13601 12665 30000 10070 20041 30065 40167 54001 60002 83800 333 20068 31/// 81840
AAXX 08064 87467 32970 00906 10194 20129 30011 40144 50005
BBXX 41038 08061 99341 70777 46/// /3210 10133 40140 51047 90600 22200 00158 333 91212
AAXX 08064 68054 32960 61304 10242 20142 48505 50008 60196 86070 333 20206
BBXX VRHO2 08064 99448 71339 41898 70413 10110 20072 40330 51020 70122 867/1 22274 00100 20901 30303 40601 50701 6//// 80090 ICE /////
BBXX WCQ6174 08064 99600 71493 41395 89905 10022 2//// 40140 57/// 78587 8762/ 22200 0//// 20000 3//// 4//00 5//// 6//// 8//// ICE /////
BBXX 44056 08061 99362 70757 46/// ///// 1//// 90620 22200 00145 10503 20503 310// 41101 70014
AAXX 08064 71016 17/// ///// 11121 69931 7//4/ 333 11023 21121 70015
BBXX 46109 08061 99481 71234 46/// /1403 10044 40314 90557 22200 00083
BBXX 46110 08061 99481 71230 46/// /2404 10053 40314 90558
AAXX 08064 91642 46/// /0000 1//// 40066 22200 0////
BBXX 41038 08061 99341 70777 46/// /3210 10133 40140 90600 22200 00158 333 91212
AAXX 08064 71016 17/// ///// 11121 69931 7//4/ 333 11023 21121 70015
AAXX 08064 60107 32560 51602 10082 20068 40279 56002 82502 333 20080 31007 82623 84070 95300
BBXX SHIP 08064 99118 11283 41597 70228 10270 20243 40067 56006 76222 878// 22243 04320 20703 310// 40603 80250
BBXX 44032 08061 99437 70694 46/30 /0309 10055 49952 58060 90604 22200 00095 10502 70010 333 91211 555 11106 22112
BBXX WQZ 08064 99459 70857 41/98 12626 10000 2//// 40122 5//// 70100 8//// 22253 0//// 2//// 3//// 4//// 5//// 6//// 8//// ICE /////
BBXX VRJC8 08064 99192 10690 43798 43209 10295 20225 40075 51010 7//11 83619 22273 0//// 20502 33232 40602 50501 6//// 80245 ICE /////
AAXX 08063 63612 32980 10908 10286 20200 40121 81040 333 20216 59002 81359
AAXX 08063 63793 12380 80506 10242 20225 40097 60214 876// 333 20210 58000 87708
AAXX 08064 13601 12665 30000 10070 20041 30065 40167 54001 60002 83800 333 20068 31/// 81840
BBXX MINFR03 0806/ 99297 30312 46/// ///// 10215 40130 52024
AAXX 08064 13601 12665 30000 10070 20041 30065 40167 54001 60002 83800 333 20068 31/// 81840
BBXX 46094 08061 99446 71243 46/// /0502 10073 90550
BBXX 46094 08061 99446 71243 46/// /0702 10073 90540
BBXX 46094 08061 99446 71243 46/// /0102 10067 90630
BBXX 46094 08061 99446 71243 46/// /0402 10069 90620
BBXX 46094 08061 99446 71243 46/// /0804 10071 90610
BBXX 46094 08061 99446 71243 46/// /0803 10072 90600
AAXX 08064 92036 46/// /0102 10294 40039 22200 00316
BBXX SHIP 08064 99118 11283 41597 70228 10270 20243 40067 56006 76222 878// 22243 04320 20703 310// 40603 80250
BBXX 41038 08061 99341 70777 46/// /3210 10133 40140 90600 22200 00158 333 91212
BBXX 46110 08061 99481 71230 46/// /2404 10053 40314 90558
BBXX 46109 08061 99481 71234 46/// /1403 10044 40314 90557 22200 00083
BBXX 44056 08061 99362 70757 46/// ///// 1//// 90620 22200 00145 10503 20503 310// 41101 70014
BBXX 41038 08061 99341 70777 46/// /3210 10133 40140 51047 90600 22200 00158 333 91212
BBXX 63055 08064 99606 10016 47999 /2106 10056 21046 49978 58013 700// 22200 10704 70022
BBXX 63106 08064 99610 10017 46/// /2411 10056 49972 58012 22200
BBXX 63113 08064 99610 10017 46/// /2510 10058 21048 49974 58017 22200 10806 70028
BBXX 62305 08064 99504 10000 46/97 /2219 10119 20079 40205 57021 22200 00131 10202 70008 333 90710 91126
BBXX 62107 08064 99501 70061 46/// /2431 10121 20078 40169 56029 22200 00123 10805 70025 333 90710 91138
AAXX 08064 93713 46/// /0000 10171 40144 22200 00153
AAXX 08063 63695 32580 18603 10224 20113 81100 333 20116 81820
AAXX 08064 13601 12665 30000 10070 20041 30065 40167 54001 60002 83800 333 20068 31/// 81840
AAXX 08064 60686 12960 20605 10110 21077 40194 52003 60004 80002 333 00700 20105 82073
OOXX AAPIG 08064 99758 51003 56251 08502 46/// /1018 11130 21179 38774 49753 52003 90600
AAXX 08064 63714 31480 10000 10187 20146 48502 70500 81100 333 20116 59001 81816
AAXX 08061 01199 11575 81201 11099 21108 39537 40019 52014 69962 70272 885// 333 21155 47026 70006 91102
BBXX A8PF6 08064 99418 70240 415// 53309 10140 20123 40290 54000 75022 857// 22273 0//// 2//// 333// 40604 5//// 6//// 80130 ICE /////
AAXX 08064 13601 12665 30000 10070 20041 30065 40167 54001 60002 83800 333 20068 31/// 81840
BBXX 63119 08064 99578 70022 41297 81534 10040 20014 49912 57060 70222 8/678 22200 20402 315// 40603 5//// 80030
BBXX 46094 08061 99446 71243 46/// /0804 10071 90610
BBXX 46094 08061 99446 71243 46/// /0502 10073 90550
BBXX 46094 08061 99446 71243 46/// /0702 10073 90540
BBXX 46094 08061 99446 71243 46/// /0102 10067 90630
BBXX 46094 08061 99446 71243 46/// /0803 10072 90600
BBXX 46094 08061 99446 71243 46/// /0402 10069 90620
BBXX 44032 08061 99437 70694 46/30 /0309 10055 49952 58060 90604 22200 00095 10502 70010 333 91211 555 11106 22112
BBXX MINFR03 0806/ 99297 30312 46/// ///// 10215 40130 52024
BBXX VRJC8 08064 99192 10690 43798 43209 10295 20225 40075 51010 7//11 83619 22273 0//// 20502 33232 40602 50501 6//// 80245 ICE /////
BBXX A8PF6 08064 99418 70240 415// 53309 10140 20123 40290 54000 75022 857// 22273 0//// 2//// 333// 40604 5//// 6//// 80130 ICE /////
BBXX WQZ 08064 99459 70857 41/98 12626 10000 2//// 40122 5//// 70100 8//// 22253 0//// 2//// 3//// 4//// 5//// 6//// 8//// ICE /////
AAXX 08061 26531 31959 11203 11017 21023 40047 52017 71000 81030 333 21021 34/// 91004 91104 555 53006 7990/
AAXX 08064 71683 46/// /1615 11226 30093 40209 58037 6///1 333 11213 21262 7//// 555 31619 40061
AAXX 08064 71214 16/// /3011 11140 21189 60001 333 11017 21140 70000 555 33129 40212
AAXX 08064 71683 46/// /1615 11226 30093 40209 58037 6///1 333 11213 21262 7//// 555 31619 40061
AAXX 08064 71214 16/// /3011 11140 21189 60001 333 11017 21140 70000 555 33129 40212
AAXX 08064 17210 12970 10101 10044 21106 39170 40221 51006 60002 80001 333 20011 34104 55074 81070
AAXX 08064 13601 12665 30000 10070 20041 30065 40167 54001 60002 83800 333 20068 31/// 81840
AAXX 08064 04418 NIL
AAXX 08064 04425 NIL
AAXX 08064 04432 NIL
AAXX 08064 04436 NIL
AAXX 08064 04464 46/// /2507 11262 21286 333 553// 20004
AAXX 08064 04485 NIL
AAXX 08064 04488 46/// /2612 11383 21413 37346 52013 333 553// 20000
BBXX MINFR03 0806/ 99297 30312 46/// ///// 10215 40130 52024
AAXX 08061 26531 31959 11203 11017 21023 40047 52017 71000 81030 333 21021 34/// 91004 91104
BBXX SKEC 08061 99625 10200 46/// ///// 10010 49920 52017 22241 00055
AAXX 08064 89507 46/// /1113 11297 29067 36686 4//// 5////
BBXX 42043 08061 99290 70949 46/// /0303 1//// 40266 90630 22200 00164 333 91205
BBXX 42043 08061 99290 70949 46/// /0504 1//// 40268 90600 22200 00164 333 91205
AAXX 08061 10496 01370 82806 10044 20027 30000 40086 51044 60042 76065 885// 333 10051 20035 31003 55002 55300 20000 30000 69967 70079 83709 88521 91115
BBXX 42044 08061 99262 70971 46/// /3006 10124 20056 40255 90630 22200 00197 333 91208
BBXX 42044 08061 99262 70971 46/// /3301 10139 20048 40259 57014 90600 22200 00197 333 91207
BBXX 42045 08061 99262 70965 46/// /0902 10131 40256 90630 22200 00222 333 91205
BBXX 42045 08061 99262 70965 46/// /0704 10131 40257 57011 90600 22200 00222 333 91205
BBXX 42046 08061 99279 70940 46/// /0606 1//// 40259 57008 90600 22200 00228 333 91208
BBXX 42047 08061 99279 70936 46/// /0606 10124 20056 40254 90630 22200 00231 333 91208
BBXX 42047 08061 99279 70936 46/// /0606 10120 20040 40259 57007 90600 22200 00231 333 91208
AAXX 08064 13601 12665 30000 10070 20041 30065 40167 54001 60002 83800 333 20068 31/// 81840
AAXX 08064 17088 12670 80000 10010 21122 38778 48478 57005 60002 8552/ 333 21006 34101 55011 20209 85640 88460
BBXX 44039 08061 99411 70727 46/// /3511 10101 20101 49929 90553 22200 00114 10402 70008 333 91216
BBXX 44040 08061 99410 70736 46/// /0214 10060 20060 49973 90549 22200 10302 70011 333 91219 555 11160 22175
BBXX 63106 08064 99610 10017 46/// /2411 10056 49972 58012 22200
BBXX 63105 08064 99610 10017 47997 ///// 10060 21044 49972 58012 700// 22200
BBXX AMOUK08 08064 99501 70061 46/// ///// 10125 20091 30164 40166 57030 90550
BBXX 62305 08064 99504 10000 46/97 /2219 10119 20079 40205 57021 22200 00131 10602 70008 333 90710 91126
BBXX 2AUO5 08063 99606 10016 41597 21813 10066 21032 49981 56010 7//// 8/4// 22261 20001 399// 40603 80031
BBXX ONAN 08064 99062 51254 41596 41013 10240 2023/ 40100 50020 70122 8324/ 22273 00250 20905 3//// 40704 5//// 6//// 80230 ICE /////
BBXX 42013 08061 99272 70829 46/// ///// 1//// 40205 90620 22200 00207
BBXX 42013 08061 99272 70829 46/// ///// 1//// 40203 51003 90600 22200 00207
BBXX 42047 08061 99279 70936 46/// /0606 10120 20040 40259 57007 90600 22200 00231 333 91208
BBXX 42047 08061 99279 70936 46/// /0606 10124 20056 40254 90630 22200 00231 333 91208
BBXX 42046 08061 99279 70940 46/// /0606 1//// 40259 57008 90600 22200 00228 333 91208
BBXX 42044 08061 99262 70971 46/// /3301 10139 20048 40259 57014 90600 22200 00197 333 91207
BBXX 42045 08061 99262 70965 46/// /0902 10131 40256 90630 22200 00222 333 91205
BBXX 42045 08061 99262 70965 46/// /0704 10131 40257 57011 90600 22200 00222 333 91205
BBXX 42044 08061 99262 70971 46/// /3006 10124 20056 40255 90630 22200 00197 333 91208
BBXX 42043 08061 99290 70949 46/// /0303 1//// 40266 90630 22200 00164 333 91205
BBXX 42043 08061 99290 70949 46/// /0504 1//// 40268 90600 22200 00164 333 91205
BBXX ONAN 08064 99062 51254 41596 41013 10240 2023/ 40100 50020 70122 8324/ 22273 00250 20905 3//// 40704 5//// 6//// 80230 ICE /////
BBXX SKEC 08061 99625 10200 46/// ///// 10010 49920 52017 22241 00055
AAXX 08064 71408 46/// /0414 10025 20016 30027 40106 53003 6///1 333 7////
AAXX 08064 13601 12665 30000 10070 20041 30065 40167 54001 60002 83800 333 20068 31/// 81840
BBXX SHIP 08064 99237 30495 41297 60115 10272 20219 40175 5/010 70000 8467/ 22252 04265 2//// 321// 40704 5//// 8////
BBXX SHIP 08064 99237 30495 41297 60115 10272 20219 40175 5/010 70000 8467/ 22252 04265 2//// 321// 40704 5//// 8////
BBXX A8PF6 08064 99418 70240 415// 53309 10140 20123 40290 54000 75022 857// 22273 0//// 2//// 333// 40604 5//// 6//// 80130 /////
AAXX 08064 71408 46/// /0414 10025 20016 30027 40106 53003 6///1 333 7////
AAXX 08061 01055 46/// /2412 10017 21050 39952 49970 51008 333 21005 91122
AAXX 08061 98132 11462 80705 10257 20234 40150 56021 60021 70564 8527/ 333 56199 85816 88357
AAXX 08061 98133 31467 80704 10/// 20/// 40103 5//// 70544 82207 222// 20702 333 56299 82818 88270
AAXX 08061 98222 31575 73202 10304 20245 40079 57033 70544 81236 333 56799 81820 83357 86078
AAXX 08061 98233 31570 50000 10295 20249 40095 57033 70544 82570 333 56999 82620 85358
AAXX 08061 98324 31465 72703 10308 20270 40062 57022 70544 81478 333 56999 81616 83358 87280
AAXX 08061 98327 31668 50305 10293 20196 39906 40086 57021 70544 82278 333 56999 82848 83360 85280
AAXX 08061 98334 32480 80000 10282 20250 39886 40089 57024 8227/ 333 56999 82818 88358
AAXX 08061 98425 11562 81402 10300 20234 40073 57025 69901 71544 8687/ 333 56999 86618 88457
AAXX 08061 98426 31570 60604 10303 20210 40071 57024 70544 81189 333 56999 81820 86180
AAXX 08061 98427 11470 63603 10270 20243 39880 40057 57028 60021 70162 83270 333 56999 83818 86357
AAXX 08061 98428 11464 73605 10302 20261 40061 57034 69901 71584 83961 333 56199 82917
AAXX 08061 98432 11568 70403 10305 20254 40059 57031 69901 70564 83272 333 56999 83820 85356
AAXX 08061 98433 31465 70208 10245 20225 39349 40064 58021 70544 83270 333 56999 83812 84357
AAXX 08061 98434 11465 83602 10280 20255 30068 40076 57027 60021 72162 8487/ 333 56199 84817 88357
AAXX 08061 98435 11465 80402 10250 20236 40063 5//// 60121 76266 8527/ 333 56999 85816 88557
AAXX 08061 98442 NIL
AAXX 08061 98446 11475 81102 10260 20258 30030 40076 57019 60091 76182 84207 333 56199 84818 88270
AAXX 08061 98447 11465 80906 10250 20239 39811 40075 5//// 60121 76162 8487/ 333 56299 84816 88356
AAXX 08061 98538 11460 83606 10258 20240 30042 40047 58021 60121 72564 83267 333 56229 83811 84357 88272
AAXX 08061 98546 11468 80403 10264 20254 30050 40058 57024 60061 71582 84907 333 56999 84918 88275
AAXX 08061 98548 11475 80000 10267 20247 30060 40066 58023 60051 70262 84807 333 56299 84816 88272 98312
AAXX 08061 98553 11460 82202 10260 20247 30063 40067 57016 60281 78086 8397/ 333 56999 83915 88358
AAXX 08061 98558 11462 80602 10254 20246 30000 40068 58025 60161 76086 8552/ 222// 20500 333 56999 85615 88457
AAXX 08061 98642 11462 70403 10295 20245 30034 40043 57030 60461 70262 83272 333 56199 83815 84358 86072
AAXX 08061 98644 11465 80402 10286 20259 30042 40051 58027 69901 70584 8327/ 333 56199 83817 88358
AAXX 08061 98648 31468 80901 10284 20259 39980 40062 57022 71544 83967 333 56299 82912 84358 88270
AAXX 08061 98746 11462 80000 10298 20250 40065 58027 69901 70584 82978 333 56999 82918 85358 87275
AAXX 08061 98751 31475 80901 10268 20238 39381 40051 57019 70544 8497/ 333 56999 84915 88356
AAXX 08061 98752 11457 80701 10267 20252 40058 57023 60011 78082 8457/ 333 56999 84616 88358
AAXX 08061 98851 11470 81401 10270 20243 39906 40055 57022 69901 71582 83277 333 56339 83818 84358 88275
BBXX SHIP 08064 99237 30495 41297 60115 10272 20219 40175 5/010 70000 8467/ 22252 04265 2//// 321// 40704 5//// 8////
AAXX 08064 62600 31968 00210 10140 20080 39988 40212 70600 10245 20110 59004
AAXX 08064 62640 31965 03614 10180 20000 39785 40152 70700 10300 20145 58003
AAXX 08064 62641 32970 73416 10235 20175 30109 40157 83570 10267 20214 56990 59015 83650 87275
AAXX 08064 62650 32970 73510 10130 20020 39896 40177 80007 10280 20102 56009 59009 87275
AAXX 08064 62660 32970 23601 10170 21020 39862 40071 80007 10300 20135 56009 59003 87275
AAXX 08064 62721 32970 73616 10200 20000 39690 40178 80007 10300 20165 56009 59007 87275
AAXX 08064 62730 32970 00000 10255 20235 39578 40141 10347 20214 58000
AAXX 08064 62750 32970 73208 10195 20045 39634 40114 80007 10322 20170 56009 59010 87275
AAXX 08064 62752 32970 00907 10240 20180 39430 40103 10367 20195 59003
AAXX 08064 62760 31765 70406 10140 21024 39320 40159 70622 80007 10295 20090 56009 59009 87275
AAXX 08064 62762 32970 70407 10198 20182 39626 40104 80007 10335 20142 56009 59001 87275
AAXX 08064 62600 31968 00210 10140 20080 39988 40212 70600 10245 20110 59004
AAXX 08064 62640 31965 03614 10180 20000 39785 40152 70700 10300 20145 58003
AAXX 08064 62641 32970 73416 10235 20175 30109 40157 83570 10267 20214 56990 59015 83650 87275
AAXX 08064 62650 32970 73510 10130 20020 39896 40177 80007 10280 20102 56009 59009 87275
AAXX 08064 62660 32970 23601 10170 21020 39862 40071 80007 10300 20135 56009 59003 87275
AAXX 08064 62721 32970 73616 10200 20000 39690 40178 80007 10300 20165 56009 59007 87275
AAXX 08064 62730 32970 00000 10255 20235 39578 40141 10347 20214 58000
AAXX 08064 62750 32970 73208 10195 20045 39634 40114 80007 10322 20170 56009 59010 87275
AAXX 08064 62752 32970 00907 10240 20180 39430 40103 10367 20195 59003
AAXX 08064 62760 31765 70406 10140 21024 39320 40159 70622 80007 10295 20090 56009 59009 87275
AAXX 08064 62762 32970 70407 10198 20182 39626 40104 80007 10335 20142 56009 59001 87275
AAXX 08064 16008 11660 43603 10002 21050 38557 48514 52036 69942 70171 84100 333 20000 43011 55/// 2//// 84840 92811 93105
BBXX 42013 08061 99272 70829 46/// ///// 1//// 40205 90620 22200 00207
BBXX 42013 08061 99272 70829 46/// ///// 1//// 40203 51003 90600 22200 00207
BBXX SHIP 08064 99237 30495 41297 60115 10272 20219 40175 5/010 70000 8467/ 22252 04265 2//// 321// 40704 5//// 8////
AAXX 08061 08554 32965 40401 10095 20070 30276 40286 57004 80002 333 20088 30010 55085 21082 84080
AAXX 08061 08554 32965 40401 10095 20070 30276 40286 57004 80002 333 20088 30010 55085 21082 84080 555 60005
AAXX 08063 63680 32560 30000 10216 20195 38825 48/// 83900 333 20170 59010 83821 81922 555 10202
AAXX 08064 71399 16/// ///// 11183 21210 60001 333 11029 21184 70000
AAXX 08064 71399 16/// ///// 11183 21210 60001 333 11029 21184 70000
BBXX 9VBM6 08063 99372 10121 41898 52921 10180 20148 40260 54/// 7//11 84288 22273 04220 20704 32999 40705 50704 80160
AAXX 08061 10338 01475 72806 10047 20030 30073 40147 51056 60052 70262 875// 333 10064 20042 32003 55002 55300 20000 30000 69907 7//// 81613 85620 85650 91117 91211
BBXX 63055 08064 99606 10016 47999 /2106 10056 21046 49978 58013 700// 22200 10704 70022
BBXX 63106 08064 99610 10017 46/// /2411 10056 49972 58012 22200
BBXX 63113 08064 99610 10017 46/// /2510 10058 21048 49974 58017 22200 10806 70028
BBXX 62305 08064 99504 10000 46/97 /2219 10119 20079 40205 57021 22200 00131 10202 70008 333 90710 91126
BBXX 62107 08064 99501 70061 46/// /2431 10121 20078 40169 56029 22200 00123 10805 70025 333 90710 91138
AAXX 08061 08540 31/01 91402 10066 20066 30223 40294 56006 74544 333 20064 50114 55082 89/01 555 60007 96645
BBXX 44039 08061 99411 70727 46/// /3511 10101 20101 49929 90600 22200 00114 10402 70008 333 91216
AAXX 08061 33506 32596 47256
BBXX VRFN8 08063 99363 31249 41/97 81118 10180 20127 40069 7//// 8//// 22224 00165 20703 32311 42005 50602 80150
BBXX SHIP 08064 99366 31748 41/98 12417 10198 40158 70120 22290
BBXX VRFN8 08063 99363 31249 41/97 81118 10180 20127 40069 7//// 8//// 22224 00165 20703 32311 42005 50602 80150
BBXX SHIP 08064 99366 31748 41/98 12417 10198 40158 70120 22290
AAXX 08064 48355 32565 20703 10304 20192 39894 40110 57027 81180 333 59013
BBXX C6VG8 08064 99253 70774 41/// 60106 10230 2//// 40160 54000 7//22 8//// 22242 00260 2//// 3//// 4//// 5//// 6//// 8//// ICE /////
BBXX 9VBM6 08063 99372 10121 41898 52921 10180 20148 40260 54/// 7//11 84288 22273 04220 20704 32999 40705 50704 80160
BBXX 9VBM6 08063 99372 10121 41898 52921 10180 20148 40260 54/// 7//11 84288 22273 04220 20704 32999 40705 50704 80160
AAXX 08064 07005 01570 82007 10058 20035 30123 40215 58008 69922 72122 85502 333 10080 20052 31004 55024 69927 70004 85620 87075 90710 91110 555 60005
AAXX 08064 62770 32970 70411 10145 21070 39239 40160 80007 10305 20115 56009 59005 87275
AAXX 08064 62771 31965 73311 10165 21010 39458 40155 70622 80007 10305 20140 56009 59004 87275
AAXX 08064 62772 32970 03607 10214 20084 39691 40129 10326 20185 58002
AAXX 08064 62781 32970 70206 10180 21040 39502 40149 80007 10310 20135 56009 59004 87275
AAXX 08064 62790 32970 70208 10170 21060 39417 40158 80007 10306 20113 56009 59005 87275
AAXX 08064 62795 32970 70205 10240 20070 39597 40096 80007 10370 20210 56009 59010 87275
AAXX 08064 62803 31969 70516 10220 20070 3//// 4//// 70722 80007 10304 20178 56009 5//// 87275
AAXX 08064 62805 32970 73605 10235 20075 39565 40095 80007 10365 20200 56009 58004 87275
AAXX 08064 62809 32970 70509 10182 21020 39623 40146 80007 10317 20140 56009 59004 87275
AAXX 08064 62810 32970 70305 10205 20105 3//// 4//// 80007 10337 20185 56009 5//// 87275
AAXX 08064 91375 46/// /0309 10285 40062 22200 00287
AAXX 08064 91165 12466 20513 10228 20167 30148 40183 51023 69901 90553
AAXX 08064 91203 32474 70810 10308 20277 30080 40085 57010 81176
AAXX 08064 91212 12466 20812 10289 20244 31342 40080 56009 69931 90554
AAXX 08064 91285 12566 81603 10194 20178 30161 40173 51022 60061 90553
AAXX 08064 91317 32474 51405 10306 20291 30082 40086 5//// 82170
AAXX 08064 91334 11474 80908 10270 20241 30064 40067 55005 60131 70282 83171
AAXX 08064 91367 32474 21008 10294 20272 82100
AAXX 08064 91369 32474 80915 10294 20251 30070 40073 82121
AAXX 08064 91376 11474 60609 10287 20252 30059 40063 53007 60031 70281 84801
AAXX 08064 91408 11469 82205 10263 20250 30024 40062 57012 60071 78082 86908
AAXX 08064 91413 32469 80908 10300 20253 30042 40068 56012 84531
AAXX 08064 91610 11498 60913 10284 20243 40058 53011 60001 71552 8586/
AAXX 08064 91155 NIL
AAXX 08064 91217 NIL
AAXX 08064 91232 NIL
AAXX 08064 91245 NIL
AAXX 08064 91250 NIL
AAXX 08064 91275 NIL
AAXX 08064 91324 NIL
AAXX 08064 91339 NIL
AAXX 08064 91348 NIL
AAXX 08064 91353 NIL
AAXX 08064 91356 NIL
AAXX 08064 91366 NIL
AAXX 08064 91371 NIL
AAXX 08064 91378 NIL
AAXX 08064 91425 NIL
AAXX 08064 91434 NIL
AAXX 08064 91601 NIL
BBXX 63106 08064 99610 10017 46/// /2411 10056 49972 58012 22200
BBXX 63105 08064 99610 10017 47997 ///// 10060 21044 49972 58012 700// 22200
BBXX AMOUK08 08064 99501 70061 46/// ///// 10125 20091 30164 40166 57030 90550
BBXX 62305 08064 99504 10000 46/97 /2219 10119 20079 40205 57021 22200 00131 10602 70008 333 90710 91126
BBXX 2AUO5 08063 99606 10016 41597 21813 10066 21032 49981 56010 7//// 8/4// 22261 20001 399// 40603 80031
AAXX 08064 03008 12482 81617 10047 20003 49941 60002 8472/ 90550 333 20030 41998 70000 84715 88458
AAXX 08064 91165 12466 20513 10228 20167 30148 40183 51023 69901 90553
AAXX 08064 91212 12466 20812 10289 20244 31342 40080 56009 69931 90554
AAXX 08064 91285 12566 81603 10194 20178 30161 40173 51022 60061 90553
AAXX 08064 91317 32474 51405 10306 20291 30082 40086 5//// 82170
AAXX 08064 91334 11474 80908 10270 20241 30064 40067 55005 60131 70282 83171
AAXX 08064 91369 32474 80915 10294 20251 30070 40073 82121
AAXX 08064 91376 11474 60609 10287 20252 30059 40063 53007 60031 70281 84801
AAXX 08064 91408 11469 82205 10263 20250 30024 40062 57012 60071 78082 86908
AAXX 08064 91413 32469 80908 10300 20253 30042 40068 56012 84531
BBXX C6VG8 08064 99253 70774 41/// 60106 10230 2//// 40160 54000 7//22 8//// 22242 00260 2//// 3//// 4//// 5//// 6//// 8//// ICE /////
BBXX VRFN8 08063 99363 31249 41/97 81118 10180 20127 40069 7//// 8//// 22224 00165 20703 32311 42005 50602 80150
BBXX SHIP 08064 99366 31748 41/98 12417 10198 40158 70120 22290
AAXX 08064 41316 36/56 /3516 10246 20009 30154 40179 333 0E021 20214 58002
AAXX 08064 71734 16/// /2908 11062 21086 39676 40070 53004 60001 333 11035 21160 70012
AAXX 08064 71512 16/// /0605 11032 21043 30087 40101 56031 60001 333 11032 21134 70000
AAXX 08064 71734 16/// /2908 11062 21086 39676 40070 53004 60001 333 11035 21160 70012
AAXX 08064 71512 16/// /0605 11032 21043 30087 40101 56031 60001 333 11032 21134 70000
AAXX 0806/ 89327 46/// ///// 11029 39883 4//// 5//// 90640
AAXX 0806/ 89108 46/// ///// 11178 36879 4//// 5//// 90630
AAXX 0806/ 89869 46/// ///// 11034 39706 4//// 5//// 90640
AAXX 0806/ 89866 46/// ///// 11013 39672 4//// 5//// 90640
AAXX 0806/ 89329 46/// ///// 11095 38674 4//// 5//// 90630
AAXX 0806/ 89332 46/// ///// 11076 39155 4//// 5//// 90630
AAXX 0806/ 89769 46/// ///// 10013 39749 4//// 5//// 90640
AAXX 0806/ 89314 46/// ///// 11091 38157 4//// 5//// 90630
AAXX 08064 60185 32960 /1004 10083 20074 40276 5//// 8//// 333 20082 30005 8////
AAXX 08064 41316 36/56 /3516 10246 20009 30154 40179 333 0E021 20214 58002
AAXX 08064 89514 21696 81424 11080 49775 57020 73833 87027 333 6001/ 88440 87260
AAXX 08064 89514 21696 81424 11080 49775 57020 73833 87027 333 6001/ 88440 87260
AAXX 08064 13629 12964 01403 10020 21025 39124 42778 56004 60002 333 20012 31///
BBXX VRAC9 08064 99193 10693 41396 30911 10300 2026/ 40100 54/// 7//00 83/6/ 22274 00300 2//// 3//// 4//// 5//// 6//// 80270 ICE /////
BBXX 63055 08064 99606 10016 47999 /2106 10056 21046 49978 58013 700// 22200 10704 70022
BBXX 63106 08064 99610 10017 46/// /2411 10056 49972 58012 22200
BBXX 63113 08064 99610 10017 46/// /2510 10058 21048 49974 58017 22200 10806 70028
BBXX 62305 08064 99504 10000 46/97 /2219 10119 20079 40205 57021 22200 00131 10202 70008 333 90710 91126
BBXX 62107 08064 99501 70061 46/// /2431 10121 20078 40169 56029 22200 00123 10805 70025 333 90710 91138
BBXX 44055 08061 99391 70753 46/// ///// 1//// 90630 22200 00110 10302 70008
AAXX 08064 17199 12565 73601 10008 21038 39093 40217 50001 60002 85670 333 21009 34105 55072 20218 82720 84640 87360
AAXX 08064 60220 32960 00802 10128 20049 40260 57010 333 20126
AAXX 08064 41295 36/// /3116 10201 20127 30002 40179 333 0E017 20137 59000
AAXX 08064 13622 12665 30404 10092 20027 30202 40209 54000 60002 83500 333 20050 30/// 83640
AAXX 08061 22127 32598 83501 11080 21090 39831 40038 52017 8697/ 333 21182 47012 85639 91002 93604
BBXX WDE4430 08063 99338 71208 41698 53213 10133 20093 40195 52022 70311 8246/ 22273 0//// 20302 33234 40803 50603 6//// 80111 ICE /////
BBXX VRAC9 08064 99193 10693 41396 30911 10300 2026/ 40100 54/// 7//00 83/6/ 22274 00300 2//// 3//// 4//// 5//// 6//// 80270 ICE /////
BBXX 44055 08061 99391 70753 46/// ///// 1//// 90630 22200 00110 10302 70008
BBXX WDE4430 08063 99338 71208 41698 53213 10133 20093 40195 52022 70311 8246/ 22273 0//// 20302 33234 40803 50603 6//// 80111 ICE /////
BBXX 52243 08061 99193 11666 46/// ///// 1//// 90600 22200 00274
BBXX 51179 08061 99143 51708 46/// ///// 1//// 90600 22200 00286
BBXX 51178 08061 99142 51695 46/// ///// 1//// 90600 22200 00282
BBXX 52246 08061 99152 11457 46/// ///// 1//// 90600 22200 00285
BBXX 51176 08061 99278 71758 46/// ///// 1//// 90600 22200 00232
BBXX 52245 08061 99181 11458 46/// ///// 1//// 90600 22200 00288
BBXX 51174 08061 99142 51697 46/// ///// 1//// 90600 22200 00284
BBXX 52244 08061 99200 11452 46/// ///// 1//// 90600 22200 00271
BBXX 51173 08061 99260 71739 46/// ///// 1//// 90600 22200 00239
BBXX 51172 08061 99284 71783 46/// ///// 1//// 90600 22200 00234
BBXX 51171 08061 99064 71623 46/// ///// 1//// 90600 22200 00281
BBXX 51170 08061 99168 71695 46/// ///// 1//// 90600 22200 00266
BBXX 51169 08061 99004 51600 46/// ///// 1//// 90600 22200 00254
BBXX 52248 08061 99135 11448 46/// ///// 1//// 90600 22200 00290
AAXX 08064 13600 12962 40000 10052 20031 30144 40198 50004 60002 84030 333 20050 30/// 84360
AAXX 08064 13610 12760 32208 10064 20013 39759 40188 52004 60002 83500 333 20026 31/// 83650
AAXX 08064 13619 12970 02704 10006 21006 39427 42808 54004 60002 333 21024 34///
AAXX 08064 13624 12965 31406 10054 20012 30146 40186 57007 60002 83030 333 20040 30/// 83360
BBXX 42046 08061 99279 70940 46/// /0606 1//// 40257 90630 22200 00228 333 91208
AAXX 08061 01218 11989 00901 11065 21082 39993 40015 53007 60002 70200 333 21074 43019 70000 91104
AAXX 08064 13623 12970 00000 10040 20040 30182 40188 54000 60002 333 20040 30///
BBXX 63106 08064 99610 10017 46/// /2411 10056 49972 58012 22200
BBXX 63105 08064 99610 10017 47997 ///// 10060 21044 49972 58012 700// 22200
BBXX AMOUK08 08064 99501 70061 46/// ///// 10125 20091 30164 40166 57030 90550
BBXX 62305 08064 99504 10000 46/97 /2219 10119 20079 40205 57021 22200 00131 10602 70008 333 90710 91126
BBXX 2AUO5 08063 99606 10016 41597 21813 10066 21032 49981 56010 7//// 8/4// 22261 20001 399// 40603 80031
BBXX 51179 08061 99143 51708 46/// ///// 1//// 90600 22200 00286
BBXX 51169 08061 99004 51600 46/// ///// 1//// 90600 22200 00254
BBXX 51174 08061 99142 51697 46/// ///// 1//// 90600 22200 00284
BBXX 51178 08061 99142 51695 46/// ///// 1//// 90600 22200 00282
BBXX 52243 08061 99193 11666 46/// ///// 1//// 90600 22200 00274
BBXX 52248 08061 99135 11448 46/// ///// 1//// 90600 22200 00290
BBXX 52244 08061 99200 11452 46/// ///// 1//// 90600 22200 00271
BBXX 52245 08061 99181 11458 46/// ///// 1//// 90600 22200 00288
BBXX 52246 08061 99152 11457 46/// ///// 1//// 90600 22200 00285
BBXX 42046 08061 99279 70940 46/// /0606 1//// 40257 90630 22200 00228 333 91208
BBXX 51172 08061 99284 71783 46/// ///// 1//// 90600 22200 00234
BBXX 51173 08061 99260 71739 46/// ///// 1//// 90600 22200 00239
BBXX 51176 08061 99278 71758 46/// ///// 1//// 90600 22200 00232
BBXX 51170 08061 99168 71695 46/// ///// 1//// 90600 22200 00266
BBXX 51171 08061 99064 71623 46/// ///// 1//// 90600 22200 00281
AAXX 08064 13611 12662 61810 10086 20035 30084 40176 52005 60002 84530 333 20072 30/// 84633
AAXX 0806/ 68902 46/// ///// 40237 57002
AAXX 08061 03955 11357 72314 10102 20093 39871 40066 56048 60012 76062 876// 333 20029 31101 55026 87707 87712 90710 91121
AAXX 08064 17320 11657 73404 10111 20095 30103 40108 56002 60582 78082 84270 333 20108 32007 50091 55007 70725 84836 87357 92436
BBXX WDE4430 08063 99338 71208 41698 53213 10133 20093 40195 52022 70311 8246/ 22273 0//// 20302 33234 40803 50603 6//// 80111 ICE /////
AAXX 08061 01424 11570 8//// 11038 21048 30039 40042 50005 60032 70282 8432/ 333 21084 70027
BBXX 3FHX2 08063 99351 11301 41/98 /2912 10140 20100 40160 56010 70201 8//// 22200 00/// 2////
BBXX 63055 08064 99606 10016 47999 /2106 10056 21046 49978 58013 700// 22200 10704 70022
BBXX 63106 08064 99610 10017 46/// /2411 10056 49972 58012 22200
BBXX 63113 08064 99610 10017 46/// /2510 10058 21048 49974 58017 22200 10806 70028
BBXX 62305 08064 99504 10000 46/97 /2219 10119 20079 40205 57021 22200 00131 10202 70008 333 90710 91126
BBXX 62107 08064 99501 70061 46/// /2431 10121 20078 40169 56029 22200 00123 10805 70025 333 90710 91138
AAXX 08061 30879 42999 00000 11263 21287 39591 40441 57005
BBXX 3FHX2 08063 99351 11301 41/98 /2912 10140 20100 40160 56010 70201 8//// 22200 00/// 2////
AAXX 08060 08534 31/01 90000 10082 20082 30274 40292 58004 74741 333 20082 50174 55078 89/// 555 60007 90203 96647
AAXX 08061 01424 11570 8//// 11038 21048 30039 40042 50005 60032 70282 8432/ 333 21084 7002
AAXX 08061 28451 42996 81902 11095 21115 39878 40041 57005 8807/
AAXX 08064 40270 31940 02004 10030 21174 39285 401896 52008 70400 333 20030 30103
AAXX 08061 08561 31104 40803 10070 20070 30051 40290 57006 74444 84600 333 20070 50064 55086 84701 555 60007 96644
AAXX 08064 96221 32460 73207 10288 20242 30066 40081 57021 85232 333 56999 57892 85815 80857
BBXX 63106 08064 99610 10017 46/// /2411 10056 49972 58012 22200
BBXX 63105 08064 99610 10017 47997 ///// 10060 21044 49972 58012 700// 22200
BBXX AMOUK08 08064 99501 70061 46/// ///// 10125 20091 30164 40166 57030 90550
BBXX 62305 08064 99504 10000 46/97 /2219 10119 20079 40205 57021 22200 00131 10602 70008 333 90710 91126
BBXX 2AUO5 08063 99606 10016 41597 21813 10066 21032 49981 56010 7//// 8/4// 22261 20001 399// 40603 80031
BBXX 9V7645 08063 99113 70888 418// 60908 10265 20237 40120 51030 70311 86/5/ 22234 04290 2//// 3//// 4//// 5//// 6//// 80245 ICE /////
BBXX 9V7645 08063 99113 70888 418// 60908 10265 20237 40120 51030 70311 86/5/ 22234 04290 2//// 3//// 4//// 5//// 6//// 80245 ICE /////
BBXX 3FHX2 08063 99351 11301 41/98 /2912 10140 20100 40160 56010 70201 8//// 22200 00/// 2////
AAXX 08064 71390 46/// /0306 11045 6///1 333 11045 21108 7//// 555 30417 40161
AAXX 08064 71390 46/// /0306 11045 6///1 333 11045 21108 7//// 555 30417 40161
AAXX 08064 61404 31958 61212 10153 21041 39771 40166 7062/ 81032 333 0//00 20153 5//// 55/// 59008 81363 86073
AAXX 08064 61421 33970 50610 10186 21020 39898 40155 85080 333 0//00 20183 5//// 55/// 58018 85363
AAXX 08064 61437 31956 50404 10198 20102 30013 40151 705// 80002 333 0//00 20198 5//// 55/// 59019 85073
AAXX 08064 61450 31956 40804 10146 20023 39699 40150 706// 80002 333 0//00 20135 5//// 55/// 58003 84073
AAXX 08064 61461 32960 40804 10185 20059 30059 40146 80002 333 0//00 20185 5//// 55/// 59008 84073
AAXX 08064 61489 32958 60000 10174 20042 30120 40127 80002 333 0//00 20170 50734 55/// 59010 86073
AAXX 08064 61492 32958 30810 10200 21022 30138 40157 80002 333 0//00 20200 5//// 58000 83073
AAXX 08064 61497 34956 00816 10203 21008 39900 4//// 707// 333 0//00 20197 5//// 55/// 58010
AAXX 08061 10791 01/90 92712 11051 21055 38489 48436 51022 60052 77174 333 11036 21051 48049 55000 55300 60027 70259 96049 96036
AAXX 08061 38974 31997 80000 10010 21001 39936 40282 52006 71022 8802/ 333 21007
BBXX DDID2 08063 99236 50403 41598 80416 10240 20214 40125 58015 70352 8736/ 22254 04230 20602 80222
BBXX A8RV8 08064 99126 11112 41398 80432 10275 20241 40075 56/// 76022
BBXX A8ZS7 08063 99003 10903 41898 30204 10300 20231 40100 56011 7//44 8/2// 22254 04280 20300 80250
BBXX A8TG2 08064 99321 71446 41798 60915 10200 20167 40230 51010 70355 85464 22224 20204 309// 40204 80180
BBXX A8RU5 08064 99319 11240 41296 83630 10130 20121 40240 52040 76186 8/7// 22284 20812 80125
BBXX DEFY 08063 99143 70486 41/98 41212 10270 20227 40106 57013 70311 22272 00276 80239
AAXX 08061 20107 31597 70108 11020 21062 39762 49855 54000 73632 86530 333 21038 91011 91114
BBXX A8RV8 08064 99126 11112 41398 80432 10275 20241 40075 56/// 76022
BBXX A8RU5 08064 99319 11240 41296 83630 10130 20121 40240 52040 76186 8/7// 22284 20812 80125
BBXX DDID2 08063 99236 50403 41598 80416 10240 20214 40125 58015 70352 8736/ 22254 04230 20602 80222
BBXX DEFY 08063 99143 70486 41/98 41212 10270 20227 40106 57013 70311 22272 00276 80239
BBXX A8TG2 08064 99321 71446 41798 60915 10200 20167 40230 51010 70355 85464 22224 20204 309// 40204 80180
BBXX A8ZS7 08063 99003 10903 41898 30204 10300 20231 40100 56011 7//44 8/2// 22254 04280 20300 80250
AAXX 08061 30823 42999 02202 11180 21221 39790 40484 57007
AAXX 08064 17250 11662 61808 10066 20030 38739 48438 53002 69932 76022 84450 333 21018 32102 55067 70003 84640 86360
BBXX 63055 08064 99606 10016 47999 /2106 10056 21046 49978 58013 700// 22200 10704 70022
BBXX 63106 08064 99610 10017 46/// /2411 10056 49972 58012 22200
BBXX 63113 08064 99610 10017 46/// /2510 10058 21048 49974 58017 22200 10806 70028
BBXX 62305 08064 99504 10000 46/97 /2219 10119 20079 40205 57021 22200 00131 10202 70008 333 90710 91126
BBXX 62107 08064 99501 70061 46/// /2431 10121 20078 40169 56029 22200 00123 10805 70025 333 90710 91138
AAXX 08064 65352 31930 70404 10205 20024 3//// 4//// 70522 80002 333 20205 5//// 87076
AAXX 08064 65361 32957 71802 10185 20081 3//// 4//// 80002 333 20153 5//// 87076
AAXX 08064 65376 32958 72802 10225 20196 39645 40103 80002 333 20220 58001 87076
AAXX 08064 65387 32457 73002 10252 20251 30070 40088 85502 333 20250 58006 85610 86073
AAXX 08064 DUPE
AAXX 08064 65338 32458 82802 10242 20232 39911 40097 885// 333 02200 20240 50564 55082 59005 88611
AAXX 08064 DUPE
AAXX 08064 65501 32960 70000 10179 21026 39814 40128 80002 333 01300 20169 50934 55093 58004 87076
AAXX 08064 65502 31958 70802 10198 21013 39736 40114 70622 80002 333 01700 20198 51264 55086 58003 87076
AAXX 08064 65503 31956 70802 10184 20036 39774 40119 70622 80002 333 01300 20183 50870 55100 51674 58006 87076
AAXX 08064 65505 32960 60406 10210 20020 39775 40111 80002 333 01500 20205 51044 55091 58000 86076
AAXX 08064 65507 32960 70404 10194 21003 39776 40116 80002 333 01200 20194 50874 55090 58006 87076
AAXX 08064 65510 31958 50606 10197 20041 39593 40105 70622 80002 333 01800 20195 50980 55087 59001 85076
AAXX 08064 65516 32960 60000 10183 20044 39806 40111 80002 333 01600 20180 50804 55083 58006 86076
AAXX 08064 65518 32960 70404 10200 21022 39735 40097 80002 333 01300 20187 51054 55100 58000 87076
AAXX 08064 65522 31956 70000 10166 20077 39777 40105 70622 80002 333 01400 20160 50694 55091 59002 87076
AAXX 08064 DUPE
BBXX SCKB 08063 99516 70178 41597 83330 10100 20060 40050 50/// 7//22 88/4/ 22224 00100 20808 323// 41608 5//// 6//// 80080 ICE /////
BBXX SCKB 08063 99516 70178 41597 83330 10100 20060 40050 50/// 7//22 88/4/ 22224 00100 20808 323// 41608 5//// 6//// 80080 ICE /////
BBXX A8OY7 08063 99358 10178 03498 22618 10155 20130 40230 57020 821// 22224 00190 20205 80120
BBXX A8OY7 08063 99358 10178 03498 22618 10155 20130 40230 57020 821// 22224 00190 20205 80120
BBXX A8RU5 08064 99319 11240 41296 83630 10130 20121 40240 52040 76186 8/7// 22284 20812 80125
AAXX 08061 29209 42998 22002 11102 21122 30258 40392 52006 80001
BBXX SCKB 08063 99516 70178 41597 83330 10100 20060 40050 50/// 7//22 88/4/ 22224 00100 20808 323// 41608 5//// 6//// 80080 /////
BBXX 63106 08064 99610 10017 46/// /2411 10056 49972 58012 22200
BBXX 63105 08064 99610 10017 47997 ///// 10060 21044 49972 58012 700// 22200
BBXX AMOUK08 08064 99501 70061 46/// ///// 10125 20091 30164 40166 57030 90550
BBXX 62305 08064 99504 10000 46/97 /2219 10119 20079 40205 57021 22200 00131 10602 70008 333 90710 91126
BBXX 2AUO5 08063 99606 10016 41597 21813 10066 21032 49981 56010 7//// 8/4// 22261 20001 399// 40603 80031
BBXX A8OY7 08063 99358 10178 03498 22618 10155 20130 40230 57020 821// 22224 00190 20205 80120
BBXX 3FHX2 08063 99351 11301 41/98 /2912 10140 20100 40160 56010 70201 8//// 22200 00/// 2////
BBXX DUPE
BBXX 63055 08064 99606 10016 47999 /2106 10056 21046 49978 58013 700// 22200 10704 70022
BBXX 63106 08064 99610 10017 46/// /2411 10056 49972 58012 22200
BBXX 63113 08064 99610 10017 46/// /2510 10058 21048 49974 58017 22200 10806 70028
BBXX 62305 08064 99504 10000 46/97 /2219 10119 20079 40205 57021 22200 00131 10202 70008 333 90710 91126
BBXX 62107 08064 99501 70061 46/// /2431 10121 20078 40169 56029 22200 00123 10805 70025 333 90710 91138
AAXX 08064 71854 43/// ///// 333 11047 21127 48009 70002 555 10002 20002
AAXX 08064 71854 43/// ///// 333 11047 21127 48009 70002 555 10002 20002
AAXX 08064 96937 32560 31006 10319 20249 30059 40064 57032 84171 333 56000 84820
AAXX 08064 13625 12965 00000 10006 21021 39972 40213 54002 60002 333 20005 30///
BBXX 63106 08064 99610 10017 46/// /2411 10056 49972 58012 22200
BBXX 63105 08064 99610 10017 47997 ///// 10060 21044 49972 58012 700// 22200
BBXX AMOUK08 08064 99501 70061 46/// ///// 10125 20091 30164 40166 57030 90550
BBXX 62305 08064 99504 10000 46/97 /2219 10119 20079 40205 57021 22200 00131 10602 70008 333 90710 91126
BBXX 2AUO5 08063 99606 10016 41597 21813 10066 21032 49981 56010 7//// 8/4// 22261 20001 399// 40603 80031
BBXX A8VL8 08064 99313 30381 41198 30522 10240 20211 40140 54000 7//00 838// 22233 00230 202// 3//// 402// 5//// 6//// 80220 ICE /////
BBXX A8VL8 08064 99313 30381 41198 30522 10240 20211 40140 54000 7//00 838// 22233 00230 202// 3//// 402// 5//// 6//// 80220 ICE /////
AAXX 08064 71463 46/// /2921 10017 21075 39903 40128 56002 6///1 333 10021 21009 7//// 555 32927 40061
AAXX 08064 82022 32970 00906 10260 20224 39998 40094 333 59020
AAXX 08061 03967 11462 82114 10094 20084 39893 40005 57067 69952 75865 885// 333 20035 31001 55058 81714 88624 90710 91121
BBXX 63055 08064 99606 10016 47999 /2106 10056 21046 49978 58013 700// 22200 10704 70022
BBXX 63106 08064 99610 10017 46/// /2411 10056 49972 58012 22200
BBXX 63113 08064 99610 10017 46/// /2510 10058 21048 49974 58017 22200 10806 70028
BBXX 62305 08064 99504 10000 46/97 /2219 10119 20079 40205 57021 22200 00131 10202 70008 333 90710 91126
BBXX 62107 08064 99501 70061 46/// /2431 10121 20078 40169 56029 22200 00123 10805 70025 333 90710 91138
AAXX 08061 20667 31998 72204 11035 21043 30032 40039 52015 69900 70272 83031 333 21078
BBXX A8VL8 08064 99313 30381 41198 30522 10240 20211 40140 54000 7//00 838// 22233 00230 202// 3//// 402// 5//// 6//// 80220 /////
AAXX 08064 71801 11269 82901 10026 20025 39944 40117 51019 60021 72065 886// 333 10074 20016 70206 90983 555 10000 20000 32625 40031
AAXX 08064 71801 11269 82901 10026 20025 39944 40117 51019 60021 72065 886// 333 10074 20016 70206 90983 555 10000 20000 32625 40031
BBXX 52249 08061 99052 31503 46/// ///// 1//// 90600 22200 00312
AAXX 08064 89013 46/// /0916 11267 21312 37550 49609 57007 90550
BBXX 63106 08064 99610 10017 46/// /2411 10056 49972 58012 22200
BBXX 63105 08064 99610 10017 47997 ///// 10060 21044 49972 58012 700// 22200
BBXX AMOUK08 08064 99501 70061 46/// ///// 10125 20091 30164 40166 57030 90550
BBXX 62305 08064 99504 10000 46/97 /2219 10119 20079 40205 57021 22200 00131 10602 70008 333 90710 91126
BBXX 2AUO5 08063 99606 10016 41597 21813 10066 21032 49981 56010 7//// 8/4// 22261 20001 399// 40603 80031
BBXX 52249 08061 99052 31503 46/// ///// 1//// 90600 22200 00312
BBXX 63055 08064 99606 10016 47999 /2106 10056 21046 49978 58013 700// 22200 10704 70022
BBXX 63106 08064 99610 10017 46/// /2411 10056 49972 58012 22200
BBXX 63113 08064 99610 10017 46/// /2510 10058 21048 49974 58017 22200 10806 70028
BBXX 62305 08064 99504 10000 46/97 /2219 10119 20079 40205 57021 22200 00131 10202 70008 333 90710 91126
BBXX 62107 08064 99501 70061 46/// /2431 10121 20078 40169 56029 22200 00123 10805 70025 333 90710 91138
AAXX 08061 78090 15/// /0000 10191 30164 40167 69901 90600 222// 00187
AAXX 08064 71642 13/// ///// 11120 69901 333 11047 21120 70024 555 10024 20024
AAXX 08064 71642 13/// ///// 11120 69901 333 11047 21120 70024 555 10024 20024
BBXX A8CB9 08063 99112 30757 41598 32508 10300 20243 40090 50000 70200 82134 22254 04290 327// 40404 80260
BBXX 63106 08064 99610 10017 46/// /2411 10056 49972 58012 22200
BBXX 63105 08064 99610 10017 47997 ///// 10060 21044 49972 58012 700// 22200
BBXX AMOUK08 08064 99501 70061 46/// ///// 10125 20091 30164 40166 57030 90550
BBXX 62305 08064 99504 10000 46/97 /2219 10119 20079 40205 57021 22200 00131 10602 70008 333 90710 91126
BBXX 2AUO5 08063 99606 10016 41597 21813 10066 21032 49981 56010 7//// 8/4// 22261 20001 399// 40603 80031
BBXX A8CB9 08063 99112 30757 41598 32508 10300 20243 40090 50000 70200 82134 22254 04290 327// 40404 80260
BBXX A8CB9 08063 99112 30757 41598 32508 10300 20243 40090 50000 70200 82134 22254 04290 327// 40404 80260
AAXX 08064 71845 43/// ///// 333 11070 21139 43010 70006 90999 555 10010 20006 32923 40190
AAXX 08064 71845 43/// ///// 333 11070 21139 43010 70006 90999 555 10010 20006 32923 40190
AAXX 08061 21982 31598 83406 11151 21170 30062 40090 57012 73632 84537 333 11149 91109
AAXX 08061 30844 41599 72704 11128 21155 39430 40464 58011 70372 875// 333 87630
BBXX S6SR 08064 99506 50615 41/97 /2822 10100 20081 40180 51010 7//// 8//// 22213 00090 2//06 328// 4//// 5//// 6//// 80090 ICE /////
BBXX S6SR 08064 99506 50615 41/97 /2822 10100 20081 40180 51010 7//// 8//// 22213 00090 2//06 328// 4//// 5//// 6//// 80090 ICE /////
BBXX WDA2768 08064 99473 70899 43/// /3235 00/// 11018 21072 40104 57005 7//// 8//// 22223 0//// 2//// 3//// 4//// 5//// 6//// 81037 ICE /////
BBXX 63055 08064 99606 10016 47999 /2106 10056 21046 49978 58013 700// 22200 10704 70022
BBXX 63106 08064 99610 10017 46/// /2411 10056 49972 58012 22200
BBXX 63113 08064 99610 10017 46/// /2510 10058 21048 49974 58017 22200 10806 70028
BBXX 62305 08064 99504 10000 46/97 /2219 10119 20079 40205 57021 22200 00131 10202 70008 333 90710 91126
BBXX 62107 08064 99501 70061 46/// /2431 10121 20078 40169 56029 22200 00123 10805 70025 333 90710 91138
BBXX WDA2768 08064 99473 70899 43/// /3235 00/// 11018 21072 40104 57005 7//// 8//// 22223 0//// 2//// 3//// 4//// 5//// 6//// 81037 ICE /////
BBXX 63106 08064 99610 10017 46/// /2411 10056 49972 58012 22200
BBXX 63105 08064 99610 10017 47997 ///// 10060 21044 49972 58012 700// 22200
BBXX AMOUK08 08064 99501 70061 46/// ///// 10125 20091 30164 40166 57030 90550
BBXX 62305 08064 99504 10000 46/97 /2219 10119 20079 40205 57021 22200 00131 10602 70008 333 90710 91126
BBXX 2AUO5 08063 99606 10016 41597 21813 10066 21032 49981 56010 7//// 8/4// 22261 20001 399// 40603 80031
AAXX 08061 01293 11560 70000 11038 21043 39783 49994 53012 69972 70282 875// 333 21058 70037 91102
AAXX 08064 71574 11224 80305 10001 21001 39984 40057 57038 60021 77172 8802/ 333 10003 21019 43013 70092 90947 93102 555 10108 20092
BBXX A8OY7 08063 99358 10178 03498 22618 10155 20130 40230 57020 821// 22224 00190 20205 80120
BBXX UCAD 08061 99683 10106 41/97 90812 10030 49983 52005 70222 88/// 22213 00080 20404
AAXX 08064 91723 NIL
AAXX 08064 91964 NIL
BBXX 63055 08064 99606 10016 47999 /2106 10056 21046 49978 58013 700// 22200 10704 70022
BBXX 63106 08064 99610 10017 46/// /2411 10056 49972 58012 22200
BBXX 63113 08064 99610 10017 46/// /2510 10058 21048 49974 58017 22200 10806 70028
BBXX 62305 08064 99504 10000 46/97 /2219 10119 20079 40205 57021 22200 00131 10202 70008 333 90710 91126
BBXX 62107 08064 99501 70061 46/// /2431 10121 20078 40169 56029 22200 00123 10805 70025 333 90710 91138
BBXX UCAD 08061 99683 10106 41/97 90812 10030 49983 52005 70222 88/// 22213 00080 20404
AAXX 08061 01329 11150 83601 11020 21038 39969 40032 51009 60002 78587 888// 333 21026 43003 70000 91110
AAXX 08064 48581 32560 81103 10310 20222 30048 40089 57030 84146 333 59003
AAXX 08061 01023 11689 33101 11094 21097 39923 40022 52014 69922 70172 81578 333 21139 47004 91102
BBXX 63106 08064 99610 10017 46/// /2411 10056 49972 58012 22200
BBXX 63105 08064 99610 10017 47997 ///// 10060 21044 49972 58012 700// 22200
BBXX AMOUK08 08064 99501 70061 46/// ///// 10125 20091 30164 40166 57030 90550
BBXX 62305 08064 99504 10000 46/97 /2219 10119 20079 40205 57021 22200 00131 10602 70008 333 90710 91126
BBXX 2AUO5 08063 99606 10016 41597 21813 10066 21032 49981 56010 7//// 8/4// 22261 20001 399// 40603 80031
AAXX 08064 71307 16/// /2910 10004 21042 39902 40155 53018 60001 333 10012 21014 70000
AAXX 08064 71307 16/// /2910 10004 21042 39902 40155 53018 60001 333 10012 21014 70000
AAXX 08061 57259 33/// 90201 10092 21010 40351 57041 333 20005
AAXX 08061 57259 33/// 90201 10092 21010 40351 57041 333 20005
AAXX 08061 01028 11565 72406 11006 21017 39789 49809 53026 6//// 70222 875// 333 21041 91107
BBXX 63055 08064 99606 10016 47999 /2106 10056 21046 49978 58013 700// 22200 10704 70022
BBXX 63106 08064 99610 10017 46/// /2411 10056 49972 58012 22200
BBXX 63113 08064 99610 10017 46/// /2510 10058 21048 49974 58017 22200 10806 70028
BBXX 62305 08064 99504 10000 46/97 /2219 10119 20079 40205 57021 22200 00131 10202 70008 333 90710 91126
BBXX 62107 08064 99501 70061 46/// /2431 10121 20078 40169 56029 22200 00123 10805 70025 333 90710 91138
AAXX 08064 67025 12582 21404 10316 20211 30001 40101 52002 69994 82802 333 0//29 10311 20220 50274 55/// 82820 55581640 81073
BBXX WC5932 08064 99417 70874 43/// /3010 00/// 11009 21061 40214 50015 7//// 8//// 22200 0//// 2//// 3//// 4//// 5//// 6//// 81028 ICE /////
BBXX WC5932 08064 99417 70874 43/// /3010 00/// 11009 21061 40214 50015 7//// 8//// 22200 0//// 2//// 3//// 4//// 5//// 6//// 81028 ICE /////
AAXX 08064 67025 12582 21404 10316 20211 30001 40101 52002 69994 82802 333 0//29 10311 20220 50274 55/// 82820
AAXX 08064 89262 46/// /2407 11051 21058 39745 49788 57001 90640
AAXX 08064 89065 46/// /3315 10014 21057 39632 49707 57006 90640
BBXX A8IZ2 08064 99404 70547 43/98 /1916 10170 20100 40200 54000 22264 80130
AAXX 08064 67025 12582 21404 10316 20211 30001 40101 52002 69994 82802 333 0//29 10311 20220 50274 55/// 82820 555 81640 81073
AAXX 08061 01452 11880 10602 11064 21072 30024 40046 51006 6//// 70200 81031 333 70000
AAXX 08064 89065 46/// /3315 10014 21057 39632 49707 57006 90640
BBXX A8IZ2 08064 99404 70547 43/98 /1916 10170 20100 40200 54000 22264 80130
AAXX 08061 01452 11880 10602 11064 21072 30024 40046 51006 60002 70200 81031 333 21072 70000 91103
BBXX 63106 08064 99610 10017 46/// /2411 10056 49972 58012 22200
BBXX 63105 08064 99610 10017 47997 ///// 10060 21044 49972 58012 700// 22200
BBXX AMOUK08 08064 99501 70061 46/// ///// 10125 20091 30164 40166 57030 90550
BBXX 62305 08064 99504 10000 46/97 /2219 10119 20079 40205 57021 22200 00131 10602 70008 333 90710 91126
BBXX 2AUO5 08063 99606 10016 41597 21813 10066 21032 49981 56010 7//// 8/4// 22261 20001 399// 40603 80031
AAXX 08061 31521 32999 03003 11172 21214 30002 40313 57019
AAXX 08061 31587 42999 03003 11159 21210 30168 40324 57018
AAXX 08064 44404 42975 02706 10195 20012 38158 48496 333 59001
AAXX 08064 44406 NIL
AAXX 08064 44409 41/05 90000 10151 20145 39937 40140 74344 89/// 333 59005
AAXX 08064 44416 NIL
AAXX 08064 44418 42360 40902 10201 20169 39974 40167 84600 333 59016
AAXX 08064 44424 42970 02504 10162 21024 37713 47127 333 58049
AAXX 08064 44429 41955 00702 10212 20160 39400 40165 71044 333 59012
AAXX 08064 44434 NIL
AAXX 08064 44438 41315 80000 10176 20160 30043 40171 71044 888// 333 59009
AAXX 08064 44449 41505 73601 10182 20162 30006 40162 74244 82130 333 59005
AAXX 08064 44454 41540 10000 10193 20125 38687 48522 71000 81100 333 59013
AAXX 08064 44462 42260 30000 10164 20120 38277 48497 83400 333 58006
AAXX 08064 44474 NIL
AAXX 08064 44477 42558 10000 10260 20170 38828 48536 81100 333 59020
AAXX 08064 44478 42956 02703 10232 20134 30067 40149 333 59013
AAXX 08061 38932 42999 30000 10014 20003 40276 54000 80001
AAXX 08064 71322 46/// /3505 11200 21217 39748 49761 55008 6///1 333 11144 21220 7//// 555 33237 40073
AAXX 08064 71322 46/// /3505 11200 21217 39748 49761 55008 6///1 333 11144 21220 7//// 555 33237 40073
AAXX 08064 03823 17378 /2317 10089 20074 39927 40170 56031 69922 723// 90550 333 20055 3/004 55/// 553// 20000 70022 81/08 87/19 90710 91127
BBXX WYR4481 08064 99476 70877 41/96 92828 11031 40130 77372 22213 20303
AAXX 08061 01210 11686 61706 10007 21047 39959 49986 50001 6//// 70220 82870 333 21005 42004 91112
BBXX WYR4481 08064 99476 70877 41/96 92828 11031 40130 77372 22213 20303
AAXX 08061 10791 01/90 92712 11051 21055 38489 48436 51022 60052 77174 333 11036 21051 48049 55000 55300 60027 70259 92912 96049 96036
BBXX VRZN8 08064 99138 51511 41297 41109 10280 2022/ 40150 5//// 70200 8446/ 22213 00280 20902 327// 41203 5//// 6//// 80240 ICE /////
AAXX 08061 10496 01370 82806 10044 20027 30000 40086 51044 60042 76065 885// 333 10051 20035 31003 55002 55300 20000 30000 69967 70079 83709 88621 91115
BBXX ZCDQ5 08063 99393 10148 43398 72925 10150 20130 40200 51001 70225 8777/ 22234 00127 20303 3//// 40303 5//// 80140
BBXX ZCDQ5 08063 99393 10148 43398 72925 10150 20130 40200 51001 70225 8777/ 22234 00127 20303 3//// 40303 5//// 80140
BBXX ZCDQ5 08063 99393 10148 43398 72925 10150 20130 40200 51001 70225 8777/ 22234 00127 20303 3//// 40303 5//// 80140
AAXX 08064 67341 32580 70105 10238 20185 40116 52012 875// 333 20208 50//0 55/// 555 10000
AAXX 08064 67237 11570 70902 10242 20224 40124 60244 70162 84230 333 20220 50980 55089 59012 94322 555 00237 10000
AAXX 08064 67241 32580 60904 10288 20249 40090 84250 333 20270 5///0 55111 59010 94343 555 10000
AAXX 08064 67273 32580 30203 10293 20218 40052 81230 333 20245 5///0 55/// 59030 94300 555 10000
AAXX 08064 67283 32980 10108 10235 20137 40102 80001 333 20158 5///0 55123 59023 94300 555 10000
AAXX 08064 67335 32580 60000 10252 20196 40095 52015 86200 333 20/// 50//0 55059 94320 555 10000
AAXX 08064 67205 32580 60000 10293 20250 40104 84930 333 20253 5///0 55073 59007 94398 555 10000
AAXX 08064 67215 11575 70304 10284 20251 40112 60044 70262 82950 333 20245 5///0 55061 59018 94390 555 00037 10018
AAXX 08064 67217 32370 30608 10214 20178 38664 48527 83903 333 20162 50500 55100 59013 94362 555 10000
AAXX 08064 67221 12470 53404 10237 20211 39131 48/// 60024 85900 333 20167 5///0 55/// 59013 94320 555 00019 10000
AAXX 08064 71078 17516 83120 11184 21221 39606 40062 56004 60001 771// 333 11099 21184 70000
AAXX 08064 71078 17516 83120 11184 21221 39606 40062 56004 60001 771// 333 11099 21184 70000
AAXX 08064 71604 17/// /1211 10025 20025 60031 7//4/ 333 10047 20009 70088
AAXX 08061 12772 11980 33010 10041 21030 39797 40083 53017 60062 70111 81042 333 20013 4/000 55035
AAXX 08061 37740 42999 00901 10019 21058 40404 57004
AAXX 08061 37989 42999 50000 10033 20023 40218 53005 85030
AAXX 08061 37985 42598 40000 10019 20014 40213 58005 84540
AAXX 08061 37925 42/92 92702 10064 20053 40212 53001 74142 333 20045
AAXX 08061 37832 32998 00000 11010 21036 40219 57004 333 21044
AAXX 08061 37661 42998 03201 11024 21029 40267 57009
AAXX 08061 37735 42995 03601 10002 21007 40169 53001
AAXX 08061 37675 42999 00000 10055 21075 40159 57001
AAXX 08061 37851 42598 62504 10091 20056 40208 57007 86500 333 91115 555 20057
AAXX 08061 37864 32597 81709 10102 20055 40200 57003 885// 333 20056 88626 555 30///
BBXX 63055 08064 99606 10016 47999 /2106 10056 21046 49978 58013 700// 22200 10704 70022
BBXX 63106 08064 99610 10017 46/// /2411 10056 49972 58012 22200
BBXX 63113 08064 99610 10017 46/// /2510 10058 21048 49974 58017 22200 10806 70028
BBXX 62305 08064 99504 10000 46/97 /2219 10119 20079 40205 57021 22200 00131 10202 70008 333 90710 91126
BBXX 62107 08064 99501 70061 46/// /2431 10121 20078 40169 56029 22200 00123 10805 70025 333 90710 91138
BBXX 63118 08063 99591 10016 41496 83177 10052 20013 49739 52064 700// 8//// 22200 10917 70085
AAXX 08061 10091 11482 73210 10045 20010 30014 40065 51057 60012 70365 84801 222// 06068 333 10049 20018 31002 55000 55300 20000 30000 70026 81810 85076 91114
AAXX 08061 08579 32/// ///// 10069 20067 30164 40293 57006 333 20069 31008 5//// 55071 20979
AAXX 08061 08579 32/// ///// 10069 20067 30164 40293 57006 333 20069 31008 5//// 55071 20979 555 60005
AAXX 08061 10113 01565 62608 10063 20026 30114 40133 51030 60042 72586 86900 222// 06055 333 10075 20049 31004 55002 55300 20000 30000 69937 70105 83928 84656 91117 91212
AAXX 08061 10015 01562 32706 10074 20039 30108 40118 51031 69962 72581 82830 222// 02076 333 10078 20057 31004 55000 55300 20000 30000 69927 70056 81830 91118 91214
AAXX 08061 08515 12475 71108 10157 20134 30130 40252 57008 69912 8583/ 333 20156 30014 5///4 55/// 82818 84637 910// 911//
AAXX 08061 08515 12475 71108 10157 20134 30130 40252 57008 69912 8583/ 333 20156 30014 5///4 55/// 82818 84637 910// 911// 555 60007 912//
AAXX 08064 71382 16/// /2302 11024 21031 39096 40019 56017 60001 333 11011 21063 70000
AAXX 08064 71382 16/// /2302 11024 21031 39096 40019 56017 60001 333 11011 21063 70000
AAXX 08061 10382 01375 73006 10047 20031 30045 40090 53052 60032 72166 876// 333 10053 20031 32003 55000 55300 20000 30000 69907 70081 83708 87711 91114
