AAXX 21004 40340 32960 03606 10150 20033 40166 54000
AAXX 21004 78764 31560 30710 10210 20160 38992 40121 54000 71522 83500 10250 20177 30/// 562// 59028 83625
AAXX 21004 78764 31560 30710 10210 20160 38992 40121 54000 71522 83500 10250 20177 30/// 562// 59028 83625
AAXX 21004 78764 31560 30710 10210 20160 38992 40121 54000 71522 83500 10250 20177 30/// 562// 59028 83625
BBXX 44172 21001 99445 70634 46/// ///// 1//// 92331 22200 00065 10802 20802 319// 41101 70011
BBXX 44097 21001 99410 70711 46/// ///// 1//// 92332 22200 00121 10803 20803 316// 41301 70015
BBXX 46218 21001 99345 71208 46/// ///// 1//// 92332 22200 00141 11206 21004 331// 41205 70031
AAXX 21004 40270 31950 20000 10097 20011 39288 40180 57004 70500 80002 333 82070
AAXX 21004 40255 32960 00000 10130 20060 39474 40180 54003
BBXX 42362 21001 99278 70907 46/// /1706 10233 20211 40146 92345
BBXX 42363 21001 99282 70892 46/// /1706 10233 20194 40156 92345 333 91206
BBXX 42364 21001 99291 70881 46/// /1509 10222 20206 40159 92345
BBXX DBBT 21001 99361 30141 46/// /2706 10171 20127 40127 57012 22213 00172
BBXX DBBU 21001 99547 10134 46/// /1806 10007 20001 40067 54000 22222 00053
BBXX DBKV(21001 99169 70250 46/// /0705 10226 20158 40172 52008 22210 00235
BBXX DBFR 21001 99538 10074 46/// /3012 10067 20036 40102 52019 22261 00059
AAXX 21004 08495 12975 02308 10126 20014 30274 40282 58002 60001 92350
BBXX BAREU56 21004 99339 10134 46/// ///// 40204 57009 22242
AAXX 21004 68906 32698 12709 10102 20061 30082 40147 50000 81500 333 10140 20098 91020 555 91014
AAXX 21004 91334 12474 80412 10295 20246 30078 40081 50005 69934 82271 333 20272 56399 59005 70003 555 92100
AAXX 21004 91413 11469 80813 10273 20252 30069 40095 51015 60154 70282 84271 333 20259 56299 59008 70150 555 92100
AAXX 21004 91334 12474 80412 10295 20246 30078 40081 50005 69934 82271 333 20272 56399 59005 70003 555 92100
AAXX 21004 91413 11469 80813 10273 20252 30069 40095 51015 60154 70282 84271 333 20259 56299 59008 70150 555 92100
AAXX 21004 91376 12480 40413 10300 20238 30068 40071 58014 69904 82101 333 20268 561/9 59007 555 92100
AAXX 21004 68392 36/// /3205 10162 20129 30119 4//// 58012 333 10264 20162 91009 555
AAXX 21004 68382 36/// /3102 10175 20122 39349 48521 58015 333 10286 20175 91005 555 91016
BBXX BAREU61 21004 99045 70058 46/// /2313 10276 29077 40124 57003 22224
BBXX 46249 21001 99338 71197 46/// ///// 1//// 92342 22200 00149 11502 20902 324// 41502 70012
BBXX 46248 21001 99461 71247 46/// ///// 1//// 92334 22200 00094 11508 21004 329// 41507 70039
BBXX 46244 21001 99409 71244 46/// ///// 1//// 92335 22200 00097 11307 20805 329// 41305 70037
AAXX 21004 91376 12480 40413 10300 20238 30068 40071 58014 69904 82101 333 20268 561/9 59007 555 92100
BBXX 46240 21001 99366 71219 46/// ///// 1//// 92342 22200 00124 11102 21001 335// 41102 70012
BBXX 46237 21001 99378 71226 46/// ///// 1//// 92340 22200 00111 11304 21002 325// 41303 70020
BBXX 46212 21001 99408 71243 46/// ///// 1//// 92342 22200 00098 11507 20805 331// 41504 70033
BBXX 46217 21001 99342 71194 46/// ///// 1//// 92342 22200 00150 11302 21001 327// 41301 70009
BBXX 41115 21001 99184 70673 46/// ///// 1//// 92335 22200 11105 21004 335// 41103 70026
BBXX 41114 21001 99276 70802 46/// ///// 1//// 92346 22200 00236 11103 21003 305// 41101 70015
BBXX 51205 21001 99210 71564 46/// ///// 1//// 92348 22200 00242 10905 20905 333// 41302 70026
BBXX 46114 21001 99364 71222 46/// ///// 1//// 92334 22200 00123 11406 21004 330// 41404 70028
BBXX 51203 21001 99208 71570 46/// ///// 1//// 92343 22200 00248 11302 20302 330// 41301 70009
BBXX 52200 21001 99134 11448 46/// ///// 1//// 92345 22200 00287 11105 21004 310// 41102 70026
BBXX 51201 21001 99217 71581 46/// ///// 1//// 92342 22200 00241 11304 20703 333// 41303 70022
BBXX 44098 21001 99428 70702 46/// ///// 1//// 92337 22200 00089 11102 20301 311// 41101 70008
AAXX 21004 08594 32462 40709 10218 20188 40166 84500 333 58007 84615
AAXX 21004 08589 32470 20410 10215 20183 40164 82500 333 58009 82616
AAXX 21004 08583 32562 10708 10206 20155 40176 81500 333 58005 81620
AAXX 21004 78774 32670 10606 10262 20200 39979 40063 55002 81500 333 10316 20186 30/// 56200 59022 81640
AAXX 21004 78774 32670 10606 10262 20200 39979 40063 55002 81500 333 10316 20186 30/// 56200 59022 81640
AAXX 21004 78774 32670 10606 10262 20200 39979 40063 55002 81500 333 10316 20186 30/// 56200 59022 81640
AAXX 21004 89664 32661 21010 11010 21162 39736 49777 52005 81878 333 12005 21040 56333 59098 81640 91529
AAXX 21004 91643 11599 20812 10317 20245 40071 58018 60001 70200 82100 333 20272 562// 70000 82820
AAXX 21004 91636 11599 31010 10311 20254 40071 60001 70200 83200 333 20269 562// 70000
AAXX 21004 89664 32661 21010 11010 21162 39736 49777 52005 81878 333 12005 21040 56333 59098 81640 91529
AAXX 21004 91643 11599 20812 10317 20245 40071 58018 60001 70200 82100 333 20272 562// 70000 82820
AAXX 21004 91636 11599 31010 10311 20254 40071 60001 70200 83200 333 20269 562// 70000
AAXX 21004 78954 12482 60816 10260 20215 30078 40143 69901 70122 83808 333 10295 20244 59001 83818 86080
AAXX 21004 89664 32661 21010 11010 21162 39736 49777 52005 81878 333 12005 21040 56333 59098 81640 91529
AAXX 21004 78954 12482 60816 10260 20215 30078 40143 69901 70122 83808 333 10295 20244 59001 83818 86080
BBXX 44025 21001 99402 70732 46/// /1002 10070 20006 40225 51008 92350 22200 00110 11302 20401 311// 41302 70012 333 91203 555 11020 22021 32321 41105 62349 101020 096019 114023 125020 125014 124015
BBXX 41008 21001 99314 70809 46/// /1002 10179 20169 40224 52011 92350 22200 00170 11301 300// 41301 70007 333 91203 555 11024 22028 32336 40903 62349 102021 093022 093017 091015 066011 039007
BBXX 41004 21001 99325 70791 46/// /1907 10218 20140 40227 55000 92350 22200 00206 11102 20401 3//// 41101 70010 333 91209 555 11078 22086 32330 41809 62349 189073 189077 188073 189073 192064 183041
BBXX 44009 21001 99385 70747 46/// /1504 10111 40235 53012 92350 22200 00114 11302 20401 300// 41302 70011 333 91204 555 11039 22041 32255 41206 62349 145037 139035 134036 129035 128038 121044
BBXX 44014 21001 99366 70748 46/// /1701 1//// 40223 53006 92350 22200 00144 11202 20401 306// 41202 70012 333 91202 555 11013 22013 32316 42003 62349 174013 189017 199017 193022 202022 199013
AAXX 21004 16597 11460 72207 10107 20083 30078 40166 58024 69941 78086 878// 333 83818 86650 91119 91525
AAXX 21004 68994 32498 73025 10105 20089 30040 40069 58007 875// 333 10130 20090 91034 555 91006
AAXX 21004 78384 12460 21011 10247 20214 40154 60001 81132 333 10292 20235 59009 79999 81816 90908
AAXX 21004 78383 12460 60911 10267 20211 40158 60001 82242 333 10282 20260 59011 70000 82816 83357
AAXX 21004 67665 42980 00000 10191 20191 48506 333 58004
AAXX 21004 68352 36/// /2615 10195 21008 39068 48515 57008 333 10314 20194 91022 555 91016
BBXX TESTFR9 21004 99500 70038 46/// /2917 10115 29100 40208 22233
BBXX BAREU63 21004 99370 10193 46/// /1208 10131 29046 40152 57005 22262
AAXX 21004 78384 12460 21011 10247 20214 40154 60001 81132 333 10292 20235 59009 79999 81816 90908
AAXX 21004 78383 12460 60911 10267 20211 40158 60001 82242 333 10282 20260 59011 70000 82816 83357
AAXX 21003 91487 NIL
AAXX 21003 91490 NIL
AAXX 21003 91533 NIL
AAXX 21003 91601 NIL
AAXX 21003 91610 11599 20917 10300 20235 40064 58015 60001 70200 82100 333 20235
AAXX 21003 562// 70000 91623 NIL
AAXX 21003 91629 NIL
AAXX 21003 91701 NIL
AAXX 21003 91487 NIL
AAXX 21003 91490 NIL
AAXX 21003 91533 NIL
AAXX 21003 91601 NIL
AAXX 21003 91610 11599 20917 10300 20235 40064 58015 60001 70200 82100 333 20235
AAXX 21003 562// 70000 91623 NIL
AAXX 21003 91629 NIL
AAXX 21003 91701 NIL
AAXX 21004 91824 11499 60508 10292 20232 40117 57010 60001 70322 858/2 333 20220 561/9 70000 555 1////
AAXX 21004 Scanned by MailMarshal - M86 Security's comprehensive email content s ecur
AAXX 21004 ity solution.
AAXX 21004 --_000_15A73B2E9A32B34CBBB7D7F59DAEB2C0DCC01DBEmailniuegovloca_ html code found in mail The rest of this message has been deleted
AAXX 21004 78700 32578 72304 10290 20232 30100 40105 56003 81100 333 10330 20230 30/// 56000 58000 70000 81830
AAXX 21004 78703 31466 20714 10262 20227 30104 40106 52001 70544 82102 333 10289 20219 30//7 56000 59033 70000 82819
AAXX 21004 78704 31568 20904 10261 20233 30113 40118 56005 70544 82200 333 10302 20196 30/// 56200 59031 70011 82825
AAXX 21004 78705 31560 41603 10239 20214 30091 40109 53005 70544 83130 333 10287 20187 30/// 56100 59036 70000 83820 84358
AAXX 21004 78706 31568 40000 10274 20234 30120 40125 57012 70544 84200 333 10300 20200 30/// 56200 59020 70000 84824
AAXX 21004 78707 NIL
AAXX 21004 78708 31560 23606 10251 20236 30074 40104 53006 70544 81430 333 10294 20191 30/// 56000 59035 70000 81630
AAXX 21004 78711 NIL
AAXX 21004 78714 32570 43002 10242 20196 84200 333 10276 20194 30//7 56700 70004 84828
AAXX 21004 78717 31560 30000 10214 20185 38926 40108 53005 70544 82231 333 10250 20147 32/// 56100 59028 70000 82825
AAXX 21004 78718 31660 60000 10264 70544 83260 333 10305 20148 30/// 56000 70000 83840 83359
AAXX 21004 78719 32570 30000 10155 20144 38333 40128 53003 82201 333 10248 20078 30/// 56200 59018 70000 82824
AAXX 21004 78720 31565 20000 10209 20153 39015 40103 53006 70544 82100 333 10263 20145 30/// 56000 59017 70000 82830
AAXX 21004 78724 32578 40508 10302 20201 30019 40076 51006 82130 333 10339 20248 30/// 56100 59031 70000 82832 83358
AAXX 21004 62010 32960 02306 10051 21025 40230 56012
AAXX 21004 91408 32474 70910 10311 20251 30047 40085 52017 82208 333 20261 569/9 59005 555 92100
AAXX 21001 13579 32770 52401 10002 21016 39289 40142 51006 85500 333 85650
AAXX 21004 61901 169// /1312 10155 20150 39675 40186 58002 69921 92350 333 8//99 555 7/090
AAXX 21004 91408 32474 70910 10311 20251 30047 40085 52017 82208 333 20261 569/9 59005 555 92100
AAXX 21004 91317 11474 40810 10294 20272 30073 40077 5//// 60024 70282 84200 333 562// 70033 59006 84818 555 92100
BBXX NWS0022 21004 99416 70714 43/// /2902 10042 21040 40226 5//// 7//// 8//// 222// 04110 2//// 3//// 4//// 5//// 6//// 8//// ICE /////
BBXX WDC6698 21004 99097 71435 43/// /0510 1//// 2//// 40080 5//// 7//// 8//// 222// 04254 2//// 3//// 4//// 5//// 6//// 8//// ICE /////
BBXX 4XIS 21003 99371 11760 43498 63220 10180 2011/ 40180 51010 83871 22224 20404 334// 41008 80140
BBXX C6YA7 21004 99069 11144 41898 50518 10270 2024/ 40060 54000 70211 851// 22253 00290 20400 304// 40902 5//// 6//// 80250 ICE /////
BBXX C6SI3 21003 99464 11790 41896 32717 10040 2002/ 40050 55010 78577 83283 22213 00070 21201 3//// 41003 5//// 6//// 80030 ICE /////
BBXX C6DM2 21004 99057 10999 41999 70222 10270 20243 40100 54/// 7//11 8764/ 22232 0//// 2//// 3//// 4//// 5//// 6//// 80250 ICE /////
BBXX ELZA8 21004 99064 50345 41598 21339 10255 20220 40128 54000 70280 811// 22284 04290 2//// 80230
BBXX ELVF4 21001 99333 30175 41/97 /1709 10180 20155 40179 56005 7//// 8//// 22233 06170 20302 31718 40404 50304 80165
BBXX DBKV/ 21001 99169 70250 46/// /0705 10226 20158 40172 52008 22210 00235
BBXX A8SU4 21004 99191 10393 41997 10809 10280 20237 40114 57012 70100 80005 22233 00270 20202 3//// 4//// 5//// 80250
BBXX DBBT 21001 99361 30141 46/// /2706 10171 20127 40127 57012 22213 00172
BBXX A8ID9 21004 99050 71575 41598 40917 10265 20215 40085 56015 70311 83461 22214 04270 20602 308// 41004 5//// 80230
BBXX DBFR 21001 99538 10074 46/// /3012 10067 20036 40102 52019 22261 00059
BBXX DBBU 21001 99547 10134 46/// /1806 10007 20001 40067 54000 22222 00053
BBXX WDE8288 21004 99035 11001 41397 70114 10280 2024/ 40061 51005 75022 87276 22234 0//// 20202 323// 40303 5//// 6//// 80250 ICE /////
BBXX 42363 21001 99282 70892 46/// /1706 10233 20194 40156 92345 333 91206
BBXX 42364 21001 99291 70881 46/// /1509 10222 20206 40159 92345
BBXX 42362 21001 99278 70907 46/// /1706 10233 20211 40146 92345
BBXX 44014 21001 99366 70748 46/// /1701 1//// 40223 53006 92350 22200 00144 11202 20401 306// 41202 70012 333 91202 555 11013 22013 32316 42003 62349 174013 189017 199017 193022 202022 199013
BBXX 41008 21001 99314 70809 46/// /1002 10179 20169 40224 52011 92350 22200 00170 11301 300// 41301 70007 333 91203 555 11024 22028 32336 40903 62349 102021 093022 093017 091015 066011 039007
BBXX 44025 21001 99402 70732 46/// /1002 10070 20006 40225 51008 92350 22200 00110 11302 20401 311// 41302 70012 333 91203 555 11020 22021 32321 41105 62349 101020 096019 114023 125020 125014 124015
BBXX 41004 21001 99325 70791 46/// /1907 10218 20140 40227 55000 92350 22200 00206 11102 20401 3//// 41101 70010 333 91209 555 11078 22086 32330 41809 62349 189073 189077 188073 189073 192064 183041
BBXX 44009 21001 99385 70747 46/// /1504 10111 40235 53012 92350 22200 00114 11302 20401 300// 41302 70011 333 91204 555 11039 22041 32255 41206 62349 145037 139035 134036 129035 128038 121044
BBXX 9HA2583 21004 99184 70635 41898 50636 1//// 2//// 40170 54/// 7//// 84476 22274 04278 2//// 3//// 4//// 5//// 6//// 8//// ICE /////
BBXX VQFS4 21004 99516 71365 41698 73416 10060 2002/ 40350 51030 70122 86114 22273 00060 20710 32629 41010 50809 6//// 80040 ICE /////
BBXX 44098 21001 99428 70702 46/// ///// 1//// 92337 22200 00089 11102 20301 311// 41101 70008
BBXX 51205 21001 99210 71564 46/// ///// 1//// 92348 22200 00242 10905 20905 333// 41302 70026
BBXX 46114 21001 99364 71222 46/// ///// 1//// 92334 22200 00123 11406 21004 330// 41404 70028
BBXX 41115 21001 99184 70673 46/// ///// 1//// 92335 22200 11105 21004 335// 41103 70026
BBXX 41114 21001 99276 70802 46/// ///// 1//// 92346 22200 00236 11103 21003 305// 41101 70015
BBXX 46212 21001 99408 71243 46/// ///// 1//// 92342 22200 00098 11507 20805 331// 41504 70033
BBXX 46217 21001 99342 71194 46/// ///// 1//// 92342 22200 00150 11302 21001 327// 41301 70009
BBXX 46240 21001 99366 71219 46/// ///// 1//// 92342 22200 00124 11102 21001 335// 41102 70012
BBXX 46237 21001 99378 71226 46/// ///// 1//// 92340 22200 00111 11304 21002 325// 41303 70020
BBXX 46249 21001 99338 71197 46/// ///// 1//// 92342 22200 00149 11502 20902 324// 41502 70012
BBXX 46244 21001 99409 71244 46/// ///// 1//// 92335 22200 00097 11307 20805 329// 41305 70037
BBXX 46248 21001 99461 71247 46/// ///// 1//// 92334 22200 00094 11508 21004 329// 41507 70039
BBXX 9HXC9 21004 99177 70630 41698 20625 10241 20188 40160 52010 7//00 82005 22242 00277 2//// 3//// 4//// 5//// 6//// 80205 ICE /////
BBXX SHIP 21004 99300 71648 41798 62708 10220 2019/ 40250 56010 70222 83/38 22263 0//// 20301 329// 40603 5//// 6//// 80200 ICE /////
BBXX WFLH 21003 99314 71287 41/98 80324 10156 20107 40190 57020 7//22 8//// 22213 00161 20503 334// 41405 5//// 6//// 80128 ICE /////
BBXX KGTZ 21004 99560 71446 41598 81829 10033 2001/ 40186 52012 7//22 83818 22224 00056 21009 319// 41305 5//// 6//// 80022 ICE /////
BBXX 3FSB4 21004 99244 71137 41698 42705 10190 2014/ 40130 57020 7//11 8457/ 22234 0//// 2//// 3//// 4//// 5//// 6//// 80160 ICE /////
BBXX 9HA2064 21003 99437 71386 41/97 73305 10130 20112 40310 56010 7//00 8//// 22274 0//// 20304 330// 4//// 5//// 6//// 80120 ICE /////
BBXX KGTY 21004 99500 71306 41498 63217 10061 2005/ 40300 54000 7//22 84281 22234 00072 21005 325// 41307 5//// 6//// 80056 ICE /////
BBXX ICGU 21004 99179 70682 41/97 /0540 10250 20207 40180 54/// 7//// 8//// 22224 04280 2//05 305// 4//// 5//// 6//// 80220 ICE /////
BBXX WGAX 21004 99344 70512 43/// /2620 10170 2009/ 40153 52011 7//// 8//// 22263 00204 2//// 3//// 4//// 5//// 6//// 80125 ICE /////
AAXX 21003 CCR 91487 NIL
AAXX 21004 91317 11474 40810 10294 20272 30073 40077 5//// 60024 70282 84200 333 562// 70033 59006 84818 555 92100
AAXX 21003 CCR 91487 NIL
AAXX 21001 13586 32660 70204 10008 21021 39845 40143 51004 87500 333 87645
BBXX DBFH/2/001 99535 10086 42/// /3006 10054 20036 40091 52011 22240 00043
BBXX DBEA 21001 99540 10083 46/// /3316 10056 20010 40085 52010 22250 00052
BBXX DBBA 21001 99544 10113 46/// /3004 10017 20017 40061 52005 22230 00052
BBXX DBKR 21001 99541 10121 46/// /9901 10007 20007 40061 52003 22200 00050
BBXX DBEB 21001 99539 10078 41/// /3113 10065 20065 40090 52014 / 7//// 22261 00060
BBXX DBJM 21001 99540 10085 46/// /3113 10057 20031 40084 52009 22250 00043
BBXX DBND 21001 99536 10086 46/// /3006 10049 20035/40090 56011/ 22250 00050
BBXX BAREU60 21004 99438 10141 46/// ///// 40136 22222
BBXX BAREU04 21004 99514 70429 46/// ///// 49892 52154 22253
BBXX BAREU11 21004 99277 70583 46/// ///// 40255 52013 22214
BBXX BAREU00 21004 99535 70048 46/// ///// 40124 57015 22263
BBXX BAREU08 21004 99515 10022 46/// ///// 40178 57010 22214
BBXX DBBC 21001 99535 10100 46/// /2805 10027 2//// 40076 52018 22240 00034
BBXX DBCK 21001 99/// ///// 46/// ///// 10057 20057 40089 52011 22220 00043
BBXX DBBI 21001 99535 10100 46/// /2805 10027 20027 40075 52018 22230 00032
BBXX BAREU05 21004 99471 70707 46/// ///// 40206 52011 22253
AAXX 21004 81405 04884 /0000 10244 20237 30110 40119 69921 700// 333 10309 69927 59004 555 60005
AAXX 21004 81405 04884 /0000 10244 20237 30110 40119 69921 700// 333 10309 69927 59004 555 60005
BBXX 41012 21001 99300 70805 46/// /1609 10228 40212 55000 92350 22200 00231 10503 20502 306// 41001 70013 333 91211 555 11096 22102 32318 41512 62349 155089 155093 158088 154088 154086 155083
BBXX 41001 21001 99347 70727 46/// ///// 10193 20150 40234 53012 92350 22200 00222 10704 70022
BBXX 41049 21001 99275 70630 46/// /0505 10205 20121 40259 53011 92350 22200 00235 11407 20502 300// 41407 70034 333 91207 555 11054 22056 32252 40508 62349 053052 045052 055057 054058 061060 048067 80507 92252
BBXX 42020 21001 99270 70967 46/// /0110 10181 20110 40134 53014 92350 22200 00235 10604 20604 70021 333 91212 555 11102 22107 32251 40113 62349 011098 008098 006099 008101 006102 014103
BBXX 41060 21001 99148 70510 46/// ///// 1//// 92350 22200 11003 70017
BBXX 41044 21001 99217 70587 46/// /0410 10239 20173 40206 51016 92350 22200 00261 11307 20704 300// 41305 70035 333 91212 555 11101 22106 32337 40413 62349 039096 043103 053102 062101 063096 059095 80412 92338
BBXX 41048 21001 99320 70696 46/// /2505 10190 20104 40267 51012 92350 22200 00225 11205 20401 3//// 41205 70025 333 91206 555 11048 22050 32259 42507 62349 246048 251049 239051 242049 248048 244048 82506 92349
BBXX 42065 21001 99149 70750 46/// /0812 10271 20211 92350 22200 10807 20806 3//// 41003 70033 333 91214 555 11124 22133 32341 40815 62349 075116 073117 078115 082104 078110 077105 80713 92335
BBXX 42012 21001 99301 70876 46/// /1606 10216 20206 40150 55000 92350 22200 00209 10803 20402 315// 40803 70016 333 91208 555 11066 22073 32347 41608 62349 156061 161063 157059 154057 158059 159060
BBXX 42001 21001 99259 70897 46/// /1508 10247 20219 40151 53005 92350 22200 00256 10803 20602 3//// 40802 70014 333 91209 555 11086 22091 32258 41709 62349 153081 157078 158073 156073 160074 158080
BBXX 42035 21001 99292 70944 46/// /3404 10150 20133 40133 51009 92350 22200 00156 10802 20301 318// 40802 70009 333 91205 555 11041 22042 32347 43405 62349 340039 349035 359029 355034 357038 359035
BBXX 42058 21001 99149 70749 46/// /0812 10273 20212 40116 53011 92350 22200 00278 10806 20806 306// 41002 70030 333 91214 555 11125 22133 32316 40815 62349 085119 085120 081115 081127 084115 084113 80913 92307
BBXX 42060 21001 99163 70635 46/// /0511 10269 20197 40161 51010 92350 22200 00277 10604 20604 300// 41102 70020 333 91214 555 11120 22127 32349 40514 62349 047110 044107 043110 044105 048102 048100 80412 92326
BBXX 42036 21001 99285 70845 46/// /1508 10219 20198 40179 53006 92350 22200 00216 10703 20703 70015 333 91210 555 11090 22097 32309 41510 62349 147084 145081 146083 146088 146087 149084
BBXX 42056 21001 99198 70849 46/// /1010 10269 20238 40136 53009 92350 22200 00273 10805 20805 70024 333 91211 555 11103 22109 32315 41313 62349 103098 106098 111097 119100 115101 117094 81211 92315
BBXX 42019 21001 99279 70954 46/// /3609 10188 20139 40121 53011 92350 22200 10804 20804 70019 333 91212 555 11098 22105 32309 42812 62349 347093 284093 284093 284097 284097 288094
BBXX 42059 21001 99151 70675 46/// /0710 10272 20192 40147 52013 92350 22200 00278 10705 20705 3//// 41001 70024 333 91212 555 11108 22114 32256 40613 62349 071102 069101 073101 062102 064102 063103 80611 92256
BBXX 44005 21001 99432 70691 46/// /3205 10011 21110 40229 53025 92350 22200 00085 10502 20402 3//// 40501 70011 333 91206 555 11053 22054 32308 43308 62349 323051 326048 318050 326058 324055 327052
BBXX 42040 21001 99292 70882 46/// /1508 10224 40148 54000 92350 22200 00228 10804 20502 313// 40803 70020 333 91210 555 11078 22084 32349 41510 62349 147079 147071 149072 145073 147069 146066
BBXX 42003 21001 99260 70856 46/// /1209 1//// 92350 22200 10804 20804 309// 41401 70020 333 91211 555 11097 22104 32334 41211 62349 124090 122092 122087 124085 122092 120089 81210 92303
BBXX 42055 21001 99222 70940 46/// /1106 10251 20208 40105 53011 92350 22200 00253 10603 20502 310// 40602 70013 333 91207 555 11063 22066 32301 41207 62349 112058 117060 117059 121057 119061 119060 81206 92311
BBXX 46088 21001 99483 71232 46/// /2711 10084 40240 57011 92350 22200 00079 10401 20401 70005 333 91214 555 11114 22122 32347 42714 62349 271106 267095 270084 274082 277086 280084
BBXX 46014 21001 99394 71240 46/// /1802 10092 40184 56014 92350 22200 00107 11306 20401 3//// 41306 70029 333 91204 555 11025 22025 32254 42604 62349 180025 175025 172029 205027 258029 246032
BBXX 46011 21001 99350 71210 46/// /3205 10126 40166 56011 92350 22200 00142 11405 20401 330// 41405 70026 333 91206 555 11050 22052 32344 43106 62349 316048 313042 318046 314045 313046 316039
BBXX 46047 21001 99324 71195 46/// /3305 10138 40156 56006 92350 22200 00139 11405 20401 329// 41405 70026 333 91206 555 11050 22053 32343 43306 62349 330047 330046 325047 323044 325042 326044
BBXX 46027 21001 99419 71244 46/// /3413 10098 40209 56012 92350 22200 00091 11306 20705 327// 41304 70032 333 91217 555 11144 22155 32349 43417 62349 338134 337140 338135 338134 339128 340132
BBXX 46086 21001 99325 71180 46/// /3304 10146 40145 56006 92350 22200 00150 11403 20301 328// 41403 70016 333 91205 555 11038 22039 32255 43205 62349 325036 320035 316038 312038 322042 324045
BBXX 46088 21001 99483 71232 46/// /2711 10084 40240 92350 22200 00079 10401 20401 70005 333 91214 555 11114 22122 32347 42714 62349 271106 267095 270084 274082 277086 280084
BBXX 46050 21001 99442 71246 46/// /3607 10094 40276 55000 92350 22200 00098 11506 20401 328// 41506 70032 333 91208 555 11074 22079 32253 43609 62349 004071 005071 006072 007069 010071 008073
BBXX 46069 21001 99337 71202 46/// /3307 10136 40156 56009 92350 22200 00142 11405 20601 330// 41405 70024 333 91208 555 11072 22076 32345 43208 62349 325068 324068 322061 322059 322062 321063
BBXX 46012 21001 99374 71229 46/// /2903 10109 40175 56011 92350 22200 00126 11405 20401 329// 41405 70024 333 91205 555 11033 22034 32337 43006 62349 293034 297043 303032 298033 317035 334024
BBXX 46013 21001 99382 71233 46/// /2602 10098 40178 56009 92350 22200 00113 11104 20401 3//// 41104 70022 333 91203 555 11018 22019 32258 42703 62349 264018 257011 259015 247019 242021 247020
BBXX 46087 21001 99485 71247 46/// /3109 10088 20070 40260 57003 92350 22200 00077 11408 20704 328// 41407 70038 333 91212 555 11101 22109 32328 43113 62349 307094 307096 306098 303103 304106 305092
BBXX 46029 21001 99461 71245 46/// /3408 10090 20060 40283 53004 92350 22200 00092 11507 20602 329// 41507 70037 333 91210 555 11087 22092 32257 43410 62349 341080 338075 337072 340071 344079 344081
BBXX 46054 21001 99342 71204 46/// /3108 10133 40154 56011 92350 22200 00138 11205 20602 300// 41204 70024 333 91209 555 11083 22088 32304 43110 62349 311078 312076 310072 311081 311086 308080
BBXX 46028 21001 99357 71219 46/// /0000 10126 40159 56013 92350 22200 00131 11405 20401 329// 41405 70026 333 91201 555 11002 22002 32252 42604 62349 230003 276014 274018 216019 237021 252030
BBXX 46025 21001 99337 71191 46/// /3006 10158 20093 40140 56008 92350 22200 00154 11403 20401 328// 41402 70013 333 91208 555 11067 22072 32334 43108 62349 303061 306068 301062 300065 295064 302065
BBXX 44060 21001 99413 70721 46/// ///03 10051 40231 92345 22200 00098 333 91204 555 11026 22026
BBXX 44022 21001 99409 70737 46/// ///03 10061 21026 40224 92345 22200 00080 333 91204 555 11031 22031
BBXX 44027 21001 99443 70673 46/// /3109 11026 21124 40215 51026 92350 22200 00083 10703 20702 3//// 40901 70014 333 91211 555 11090 22094 32323 43212 62349 308085 314084 320090 309081 320080 311078
BBXX 41013 21001 99334 70777 46/// /1603 10202 20151 40228 53005 92350 22200 00199 11202 20301 311// 41201 70008 333 91204 555 11034 22038 32255 41604 62349 165032 165031 163029 163032 160030 162034
BBXX 44065 21001 99404 70737 46/// /1801 10062 20018 40227 53008 92350 22200 00090 11302 312// 41302 70010 333 91202 555 11012 22012 32341 41802 62349 180012 186010 172007 137004 148009 149010 81802 92344
BBXX 32012 21001 99197 50856 46/// ///// 1//// 92350 22200 11406 70028
BBXX 46002 21001 99426 71305 46/// ///// 10111 40303 56010 92350 22200 00119 11407 70036
BBXX 46006 21001 99408 71375 46/// /1203 10120 40321 56019 92350 22200 00128 11306 20401 3//// 41306 70030 333 91204 555 11032 22033 32315 41005 62349 125031 102028 094029 097030 101030 092027
BBXX 46084 21001 99566 71361 46/// /2807 10057 20012 40257 51021 92350 22200 00070 11408 20603 300// 41407 70039 333 91209 555 11070 22073 32256 42811 62349 282067 285071 284078 286072 283081 280085
BBXX 46075 21001 99539 71608 46/// /2409 10041 21018 40015 51022 92350 22200 00050 11314 20705 300// 41313 70070 333 91212 555 11094 22099 32253 42415 62349 241088 244094 248095 247101 243112 243118 82513 92254
BBXX 46005 21001 99461 71310 46/// ///05 10090 40321 55000 92350 22200 00100 11508 20401 3//// 41508 70042 333 91207 555 11053 22055
BBXX 46059 21001 99380 71300 46/// /0213 10130 40256 56010 92350 22200 00146 10908 20605 3//// 40906 70041 333 91216 555 11143 22152 32324 40217 62349 016135 016134 014133 014131 013125 011119
BBXX 46080 21001 99580 71500 46/// /1916 10052 20041 40018 56028 92350 22200 00052 11011 20706 3//// 41009 70055 333 91220 555 11170 22182 32303 41820 62349 187157 187156 187153 186155 186162 186157 81917 92303
BBXX 46105 21001 99590 71522 46/// ///// 1//// 92350 22200 10804 70018
BBXX 46070 21001 99551 11753 46/// /2904 11012 21071 49972 51007 92350 22200 00039 11005 20401 3//// 41004 70023 333 91205 555 11038 22039 32348 42805 62349 285037 268031 261031 257026 270023 268024 82804 92348
AAXX 21004 91648 11599 20912 10316 20261 40071 60001 70200 82100 333 20268 562// 70008
BBXX 41101 21004 99146 70562 46/// /0521 10264 20214 40146 52014 22200 00272 10704 70020 555 1/029
AAXX 21004 91648 11599 20912 10316 20261 40071 60001 70200 82100 333 20268 562// 70008
BBXX 61001 21004 99434 10078 46/// /0208 10112 20054 40134 52010 22200 00149 10502 70012
AAXX 21004 78858 11479 40511 10251 20209 30116 40172 69901 72511 83202 333 10280 20242 58003 79990 83818
AAXX 21004 78948 11468 70715 10246 20228 30141 40149 60041 72582 86401 333 06205 10298 20242 59005 70035 86819 86079 90914
AAXX 21004 85864 11557 71907 10061 20057 40096 51005 60051 78182 87200 333 10138 56500 87826
AAXX 21004 85874 11982 /3112 10049 20001 39460 40089 51013 60031 7006/ 333 10119
AAXX 21004 85934 11580 62512 10092 20040 49941 52005 60021 70382 84130 333 10149 56660 84820 83360
AAXX 21004 89056 11565 80211 10036 20020 49941 54038 60024 76021 884// 333 10039 20015 56899 88630
AAXX 21004 89057 12460 80000 10030 20017 49941 54000 60094 8651/ 333 10048 20015 56669 86610 88458
AAXX 21004 89058 11466 73411 10040 20024 39924 49945 57001 69901 76060 875//
AAXX 21004 89059 11460 80313 10012 21027 49960 51049 60024 72072 884// 333 10026 20012 71799 88616
AAXX 21004 89251 11361 81416 10049 20019 49942 52012 69952 76062 84630 333 10061
AAXX 21004 85574 12960 02018 10238 20066 39578 40113 53005 60001 333 10320
AAXX 21004 85586 12960 02306 10174 20124 40149 53003 60001 333 10213
AAXX 21004 85629 12980 02510 10260 20124 40118 53006 60001 333 10297
AAXX 21004 85682 12965 02410 10174 20117 40168 53002 60001 333 10217
AAXX 21004 85743 11560 62306 10156 20096 40169 53007 69921 70182 85501 333 10193 56600 85620 81070
AAXX 21004 85799 11660 33205 10134 20087 40149 52003 69921 70182 83230 333 10174 56660 83840 83356
AAXX 21004 85406 12980 02703 10205 20138 40138 53026 60001 333 10236
AAXX 21004 85418 12565 22011 10203 20143 40134 52017 60001 82500 333 10237 56000 82625
AAXX 21004 85432 12970 22614 10184 21017 37755 48440 52025 60001 80001 333 10278 56006 82074
AAXX 21004 85442 12570 41807 10190 20134 40120 53009 60001 82508 333 10220 56407 82620
AAXX 21004 85467 12460 82410 10169 20131 40136 53006 60001 885// 333 10239 56699 88611
AAXX 21004 85469 42565 31009 10218 20132 40194 56012 83100 333 56200 83820
AAXX 21004 85488 12960 02906 10169 20142 40114 56007 60001 333 10209
AAXX 21004 40296 32960 00000 10169 20109 40189 52011
BBXX BATFR21 21004 99429 10070 46/// /2602 40140 51021 22263
BBXX BAREU12 21004 99547 10071 46/// ///// 40088 52019 22233
BBXX BAREU62 21004 99365 10218 46/// ///// 40161 57004 22224
BBXX BATFR03 21004 99496 70004 46/// /2420 10089 20075 40208 22282
BBXX BAREU51 21004 99444 10089 46/// ///// 40134 22200
BBXX BATFR20 21004 99421 10084 46/// ///// 10117 20039 40106 53021 22283
BBXX FVNM 21004 99068 70809 46/// /2903 10260 20232 40077 53011 22221 00277
BBXX BATFR14 21004 99321 70414 44397 32301 10202 20142 40177 52011 76000 83200 22214 00215 20502 309// 40804 5////
BBXX BATFR16 21004 99406 70261 44597 61617 10159 20130 40319 56011 70222 86570 22254 00170 21202 318// 41202 5////
BBXX BATFR53 21004 99184 51790 46/// /0710 10275 20229 40112 56010 22222 00285
BBXX 44020 21001 99414 70702 46/// /0604 10030 21052 40231 51017 92350 22200 00076 11001 20301 310// 41001 70004 333 91206 555 11045 22047 32250 40306 62349 049041 257042 258039 255043 256045 258048
BBXX 44040 21001 99410 70736 46/// /1203 10062 21029 40232 92345 22200 1//00 70001 333 91203 555 11031 22036
AAXX 21004 41170 32960 03004 10186 20144 30198 40211 333 58004
AAXX 21004 78925 11570 50405 10247 20228 40152 53011 69961 70186 85800 333 10287 20236 59004 70028 84820
AAXX 21004 97180 11460 70804 10256 20247 30075 40093 51020 60044 72962 82271 333 20246 5///4 55048 51925 56000 58006 82819 85460
AAXX 21004 97180 01460 70704 10256 20249 30074 40092 51020 60044 72962 82271 333 20246 50200 55048 55508 60027 51925 56000 58006 82819 85460
AAXX 21004 85406 12980 02703 10205 20138 40138 53026 60001 333 10236
AAXX 21004 85418 12565 22011 10203 20143 40134 52017 60001 82500 333 10237 56000 82625
AAXX 21004 85432 12970 22614 10184 21017 37755 48440 52025 60001 80001 333 10278 56006 82074
AAXX 21004 85442 12570 41807 10190 20134 40120 53009 60001 82508 333 10220 56407 82620
AAXX 21004 85467 12460 82410 10169 20131 40136 53006 60001 885// 333 10239 56699 88611
AAXX 21004 85469 42565 31009 10218 20132 40194 56012 83100 333 56200 83820
AAXX 21004 85488 12960 02906 10169 20142 40114 56007 60001 333 10209
AAXX 21004 81225 11170 50000 10240 20234 40121 60171 70186 82552 333 10304 56229 59003 70199 81702 85360
AAXX 21004 81200 12465 50000 10265 20230 40119 60001 84852 333 10/// 56229 59001 70359 82812 84625
AAXX 21004 81202 11470 50913 10266 20246 40121 60031 72582 84832 333 10300 56299 59001 70031 82815 84625
AAXX 21004 81209 NIL
AAXX 21004 81251 NIL
AAXX 21004 78925 11570 50405 10247 20228 40152 53011 69961 70186 85800 333 10287 20236 59004 70028 84820
AAXX 21004 81225 11170 50000 10240 20234 40121 60171 70186 82552 333 10304 56229 59003 70199 81702 85360
AAXX 21004 81200 12465 50000 10265 20230 40119 60001 84852 333 10/// 56229 59001 70359 82812 84625
AAXX 21004 81202 11470 50913 10266 20246 40121 60031 72582 84832 333 10300 56299 59001 70031 82815 84625
AAXX 21004 81209 NIL
AAXX 21004 81251 NIL
AAXX 21001 12772 31560 52702 11011 21030 39838 40131 50002 70122 85500 333 85626
AAXX 21001 12822 36/// /0000 11081 21086 39993 40145 54000
AAXX 21001 12843 31962 02402 11042 21056 39961 40139 52004 70200
AAXX 21001 12882 31967 82902 10004 21009 39990 40125 50001 70222 8807/
AAXX 21001 12925 36/// /0000 11074 21085 39971 40152 52003
AAXX 21001 12942 31980 02903 11038 21049 39899 40155 52002 70200
AAXX 21001 12982 31965 02801 11048 21068 30036 40142 52001 70210
BBXX BATFR32 21004 99430 10079 46/// /3514 10115 20066 40129 51010 7//// 8//// 22264 00144
AAXX 21001 10004 46/60 /2910 10071 20037 30111 40111 51012 222// 00079 333 55300 91118 91215
AAXX 21001 10015 01475 63207 10058 20030 30083 40093 53012 69911 72581 83230 333 31/// 55/// 20134 30126 55300 20000 30000 69917 83814 85357 91116 91212
AAXX 21001 10020 07541 83103 10023 20022 30046 40079 51019 69951 72365 333 55/// 20027 30027 55300 20000 30000 69957 82/27 88/56 88/60
AAXX 21001 10035 01113 83103 10011 20008 30016 40076 53008 69931 75376 876// 333 32/// 55/// 20038 30038 42717 55300 20000 30000 41146 69917 87703 96468
AAXX 21001 10055 01259 83204 10026 20015 30054 40065 53006 69921 76152 877// 333 31/// 55/// 20056 30056 55300 20000 30000 69927 87706
AAXX 21001 10147 01148 82803 10025 20019 30059 40078 51014 69921 72162 876// 333 31/// 55/// 20053 30052 42735 55300 20000 30000 41157 69907 82703 87705
AAXX 21001 10162 07234 82804 10005 20005 39982 40066 53010 60011 77176 333 55/// 20072 30072 55300 20000 30000 60017 88/03
AAXX 21001 10184 01525 81502 11003 21008 30058 40066 56005 69921 77172 885// 333 45998 55/// 20228 30099 55300 20000 30000 69927 88620
AAXX 21001 10200 07/79 /2805 10046 20026 30115 40113 53014 69931 70065 333 55/// 20081 30081 55300 20000 30000 69907 91113
AAXX 21001 10224 01580 42705 10043 20029 30095 40101 51018 69911 70262 83530 333 32/// 55/// 20078 30076 55300 20000 30000 69907 83631 83358 91113
AAXX 21001 10270 06121 81603 10012 20011 30011 40067 56006 69931 222// 06040 333 55300 69927 88/02
AAXX 21001 10338 01475 82805 10048 20034 30025 40098 51027 69941 70386 875// 333 31/// 55/// 20061 30061 55300 20000 30000 69917 85613 87632 91114 96480 96463 96461
AAXX 21001 10361 07346 82904 10044 20037 39966 40070 53003 60021 75865 333 55/// 20178 30174 55300 20000 30000 60027 86/08 87/14 88/19
AAXX 21001 10393 01220 81703 10000 21003 39943 40072 58013 69901 77172 877// 333 31/// 55/// 20368 30105 55300 20000 30000 69907 87705
AAXX 21001 10400 12570 72605 10040 20024 30107 40158 51015 60001 8153/ 333 31/// 55/// 20125 30122 55300 20000 30000 81630 87363
AAXX 21001 10438 07457 82704 10036 20025 39840 40124 53019 60061 75765 333 4/002 55300 60037 87/18 88/25
AAXX 21001 10469 01465 82407 10028 20017 39913 40080 55004 69961 72176 875// 333 31/// 55300 69917 83712 87616
AAXX 21001 10488 01464 82105 10018 20003 39804 40090 56009 69921 72272 885// 333 31/// 4/998 55/// 20324 30138 42333 55300 20000 30000 41148 69927 88612
AAXX 21001 10506 01278 82804 10013 20004 39580 40175 51013 69901 72276 885// 333 42001 55/// 20157 30154 55300 20000 30000 69907 86706 88509
AAXX 21001 10548 07370 82805 10020 20008 39575 40124 53006 69941 76176 333 4/002 55/// 20127 30127 55300 20000 30000 69937 88/08
AAXX 21001 10637 11575 62103 10021 20008 30021 40162 51017 69901 70362 83536 333 44006 55300 81622 83640 86270
AAXX 21001 10685 07150 82404 11005 21009 39430 40117 53001 69911 77175 333 4/004 55/// 20213 30211 55300 20000 30000 69917 88/02
AAXX 21001 10738 11681 52602 10001 21015 39704 40187 53016 60011 70176 82530 333 44007 55300 82642 83360 96469 96461
AAXX 21001 10763 01256 82605 10018 20007 39753 40143 52004 69951 76877 885// 333 43001 55/// 20115 30114 55300 20000 30000 69927 82705 87608
AAXX 21001 10788 07328 70401 11010 21011 39711 40156 53009 69951 72575 333 55/// 20291 30194 55300 20000 30000 69937 87/06
AAXX 21001 10852 07462 82504 10014 20009 39589 40170 51015 69951 72376 333 4/002 55/// 20157 30157 55300 20000 30000 69927 84/10 87/20 88/25
AAXX 21001 10946 07456 82403 10004 20004 39335 40184 52012 60031 77176 333 4/012 55/// 20138 30137 55300 20000 30000 60017 88/11
BBXX 42002 21001 99258 70937 46/// /1605 10243 20235 40124 53009 92350 22200 00242 10703 20401 312// 40703 70016 333 91206 555 11049 22052 32256 41606 62349 161049 158046 159048 159051 160051 160052
BBXX 41047 21001 99275 70715 46/// /0907 10218 40260 53012 92350 22200 00251 11105 20602 304// 41105 70027 333 91209 555 11068 22071 32331 40909 62349 085068 086071 086070 086067 090070 086068 80908 92332
BBXX 41043 21001 99211 70650 46/// /0709 10246 20181 40204 52016 92350 22200 00263 11206 20705 300// 41205 70032 333 91211 555 11099 22104 32301 40612 62349 069091 072091 072090 064092 065096 057094 80611 92302
BBXX 41036 21001 99342 70770 46/// ///// 10192 20126 40229 53008 92350 22200 00193 11101 70007
BBXX 44066 21001 99396 70726 46/// /0702 10088 20031 40226 51010 92350 22200 00131 11303 20401 3//// 41303 70016 333 91204 555 11025 22025 32311 40606 62349 067025 059027 052030 059031 042033 051030
BBXX 46002 21001 99426 71305 46/// ///// 10111 40303 56010 92350 22200 00119 11407 70036
BBXX 46005 21001 99461 71310 46/// ///05 10090 40321 55000 92350 22200 00100 11508 20401 3//// 41508 70042 333 91207 555 11053 22055
BBXX 46012 21001 99374 71229 46/// /2903 10109 40175 56011 92350 22200 00126 11405 20401 329// 41405 70024 333 91205 555 11033 22034 32337 43006 62349 293034 297043 303032 298033 317035 334024
BBXX 46013 21001 99382 71233 46/// /2602 10098 40178 56009 92350 22200 00113 11104 20401 3//// 41104 70022 333 91203 555 11018 22019 32258 42703 62349 264018 257011 259015 247019 242021 247020
BBXX 46014 21001 99394 71240 46/// /1802 10092 40184 56014 92350 22200 00107 11306 20401 3//// 41306 70029 333 91204 555 11025 22025 32254 42604 62349 180025 175025 172029 205027 258029 246032
BBXX 46028 21001 99357 71219 46/// /0000 10126 40159 56013 92350 22200 00131 11405 20401 329// 41405 70026 333 91201 555 11002 22002 32252 42604 62349 230003 276014 274018 216019 237021 252030
BBXX 46050 21001 99442 71246 46/// /3607 10094 40276 55000 92350 22200 00098 11506 20401 328// 41506 70032 333 91208 555 11074 22079 32253 43609 62349 004071 005071 006072 007069 010071 008073
BBXX 9HA2064 21003 99437 71386 41/97 73305 10130 20112 40310 56010 7//00 8//// 22274 0//// 20304 330// 4//// 5//// 6//// 80120 ICE /////
BBXX KGTY 21004 99500 71306 41498 63217 10061 20050 40300 54000 7//22 84281 22234 00072 21005 325// 41307 5//// 6//// 80056 ICE /////
BBXX KGTZ 21004 99560 71446 41598 81829 10033 20010 40186 52012 7//22 83818 22224 00056 21009 319// 41305 5//// 6//// 80022 ICE /////
BBXX VQFS4 21004 99516 71365 41698 73416 10060 20020 40350 51030 70122 86114 22273 00060 20710 32629 41010 50809 6//// 80040 ICE /////
BBXX WFLH 21003 99314 71287 41/98 80324 10156 20107 40190 57020 7//22 8//// 22213 00161 20503 334// 41405 5//// 6//// 80128 ICE /////
AAXX 21001 01003 NIL
AAXX 21001 01007 16/// /0000 11090 21136 30090 40100 50005 60001 333 91108
AAXX 21001 01028 41687 30608 11015 21057 30061 40081 52002 70120 83500 333 91111
AAXX 21001 01047 41656 80000 11016 21027 39647 40021 52011 77172 8802/
AAXX 21001 01049 16/// /1401 11016 21030 30028 40032 52009 60001 333 91107
AAXX 21001 01078 16/// /3308 10030 21006 39991 40004 52007 6//// 333 91113
AAXX 21001 01102 46/// /1909 10037 20016 39984 40003 52005 333 91110
AAXX 21001 01160 NIL
AAXX 21001 01218 NIL
AAXX 21001 01238 46/// /2201 11139 21157 38888 40023 52010 333 91104
AAXX 21001 01241 16/// /1503 10002 21020 30010 40021 53013 6//// 333 91111
AAXX 21001 01281 NIL
AAXX 21001 01338 16/// /1104 11014 21031 30002 40069 53014 60001 333 91107
AAXX 21001 01359 16/// /2401 11073 21089 39120 40059 57002 60001 333 91104
AAXX 21001 01397 16/// /0000 11156 21167 39623 40090 52007 60001 333 91102
AAXX 21001 01400 NIL
AAXX 21001 01427 16/// /3304 10025 20009 30048 40065 53008 69941 333 91108
AAXX 21001 01447 NIL
AAXX 21001 01448 46/// /3504 10001 21012 30044 40054 53007 333 91110
AAXX 21001 01001 11430 82018 11008 21012 39845 49857 55001 69901 76872 887// 333 91125
AAXX 21001 01008 41587 11005 11101 21127 30068 40103 50005 70110 81500 333 91107
AAXX 21001 01010 41688 81803 10013 21008 39992 40008 52004 70322 8757/ 333 91104
AAXX 21001 01026 41689 72501 10008 21000 39873 40015 52006 70222 8557/ 333 4/020 91102
AAXX 21001 01055 46/// /0608 10023 21003 30012 40030 52009 333 91113
AAXX 21001 01062 11457 80203 11078 21086 30090 40103 52006 60001 71022 885// 333 91106
AAXX 21001 01098 41480 32807 10024 20008 39967 49985 52006 70152 83500 333 91111
AAXX 21001 01115 16/// /1605 10031 20002 39980 40001 52005 6//// 333 91109
AAXX 21001 01152 11688 71005 10003 21041 39992 40008 52006 60001 70311 8157/ 333 91108
AAXX 21001 01205 46/// /2713 10037 20014 39988 40034 53016 333 91115
AAXX 21001 01212 16/// /2606 10032 20017 30015 40031 52017 6//// 333 91115
AAXX 21001 01271 17/84 01201 11060 21070 30012 40034 52014 6//// 700// 333 91104
AAXX 21001 01288 16/// /1901 11212 21232 39289 40103 52009 6//// 333 91103
AAXX 21001 01300 NIL
AAXX 21001 01317 16/// /1402 10002 21013 30046 40061 52014 6//// 333 91105
AAXX 21001 01367 41287 13105 11176 21198 39623 40100 53004 70100 81600 333 91107
AAXX 21001 01384 41120 90102 11066 21071 39805 40058 50001 71042 333 91104
AAXX 21001 01403 16/// ///// 10033 20004 39994 40063 53009 69991
AAXX 21001 01415 17870 41703 11001 21011 30053 40064 53006 6//// 700// 333 91110
AAXX 21001 01482 46/// /0405 11002 21013 30042 40049 57003 333 91107
AAXX 21001 01492 41385 70203 11060 21076 39935 40057 57001 70222 8667/ 333 91105
BBXX UGPK 21001 99545 11504 43/98 80906 11020 40140 53080 22233 00012 2//20 3//04
AAXX 21001 45032 16/// /1501 10161 20137 30183 40200 54000 60000 333 70000
AAXX 21001 45035 16/// /0603 10175 20110 30159 40201 54000 60000 333 70000
AAXX 21001 45039 16/// /0202 10181 20108 30184 40198 52002 60000 333 70000
AAXX 21001 45044 16/// /0205 10175 20116 30103 40196 52002 60000 333 70000
AAXX 21004 85574 12960 02018 10238 20066 39578 40113 53005 60001 333 10320
AAXX 21004 85586 12960 02306 10174 20124 40149 53003 60001 333 10213
AAXX 21004 85629 12980 02510 10260 20124 40118 53006 60001 333 10297
AAXX 21004 85682 12965 02410 10174 20117 40168 53002 60001 333 10217
AAXX 21004 85743 11560 62306 10156 20096 40169 53007 69921 70182 85501 333 10193 56600 85620 81070
AAXX 21004 85799 11660 33205 10134 20087 40149 52003 69921 70182 83230 333 10174 56660 83840 83356
AAXX 21004 85864 11557 71907 10061 20057 40096 51005 60051 78182 87200 333 10138 56500 87826
AAXX 21004 85874 11982 /3112 10049 20001 39460 40089 51013 60031 7006/ 333 10119
AAXX 21004 85934 11580 62512 10092 20040 49941 52005 60021 70382 84130 333 10149 56660 84820 83360
AAXX 21004 89056 11565 80211 10036 20020 49941 54038 60024 76021 884// 333 10039 20015 56899 88630
AAXX 21004 89057 12460 80000 10030 20017 49941 54000 60094 8651/ 333 10048 20015 56669 86610 88458
AAXX 21004 89058 11466 73411 10040 20024 39924 49945 57001 69901 76060 875//
AAXX 21004 89059 11460 80313 10012 21027 49960 51049 60024 72072 884// 333 10026 20012 71799 88616
AAXX 21004 89251 11361 81416 10049 20019 49942 52012 69952 76062 84630 333 10061
AAXX 21001 78221 NIL
AAXX 21001 78224 31659 20704 10223 20182 30103 40177 53014 70544 82501 333 10277 82640
AAXX 21001 78229 42559 31001 10194 20169 30126 40201 52010 81264 333 81820
AAXX 21001 78239 41559 40906 10234 20161 30190 40193 52010 70500 84800 333 10275 83820
AAXX 21001 78244 NIL
AAXX 21001 78243 42559 30905 10214 20176 30066 40189 52009 82209 333 82820 83170
AAXX 21001 78255 42959 00505 10211 20179 30043 40192 52010 333 10258
AAXX 21001 78264 31560 20404 10239 20169 30097 40172 52010 70200 82200 333 10289 82825
AAXX 21001 78265 31560 20706 10224 20171 30081 40181 52010 70122 82200 333 10265 82830
AAXX 21001 78256 NIL
AAXX 21001 78259 NIL
AAXX 21001 78268 NIL
AAXX 21001 45032 16/// /1501 10161 20137 30183 40200 54000 60000 333 70000
AAXX 21001 45035 16/// /0603 10175 20110 30159 40201 54000 60000 333 70000
AAXX 21001 45039 16/// /0202 10181 20108 30184 40198 52002 60000 333 70000
AAXX 21001 45044 16/// /0205 10175 20116 30103 40196 52002 60000 333 70000
AAXX 21004 78897 12584 70604 10253 20185 40171 53017 60001 81202 333 022/6 10281 20236 58005 70008 81826 87078
AAXX 21004 48698 01456 73002 10253 20246 30066 40084 69964 71022 81232 333 20244 58000 60007 70006 81818 84366 86080
AAXX 21004 78897 12584 70604 10253 20185 40171 53017 60001 81202 333 022/6 10281 20236 58005 70008 81826 87078
AAXX 21001 10609 01465 72803 10027 20014 39847 40184 50009 69901 72161 875// 333 31/// 55/// 20136 30128 55300 20000 30000 69907 87611
AAXX 21001 10616 01030 82904 10009 20004 39565 40179 52012 69901 75185 876// 333 42003 55300 69907 81701 87702 96010
AAXX 21001 10641 15569 82103 10022 20011 30010 40160 53016 60001 333 4/001 55300 83/27 87/33 88/60
AAXX 21001 10655 01481 72909 10030 20016 39810 40144 53006 69901 72176 878// 333 42002 55/// 20141 30139 55300 20000 30000 69907 84816 87622 91113
AAXX 21001 10675 07363 72605 10024 20010 39841 40138 53004 69951 76176 333 55/// 20097 30097 55300 20000 30000 69957 87/09
AAXX 21001 10688 07220 81902 11003 21008 39601 40136 56002 69921 77176 333 55/// 20212 30173 55300 20000 30000 69927 87/04 87/35 88/50
AAXX 21001 10708 12265 82705 10018 20011 39794 40189 51007 60001 875// 333 42003 55/// 20116 30114 55300 20000 30000 87606
AAXX 21001 10729 17559 81602 10012 20011 30060 40186 53015 69901 70065 333 4/003 55/// 20116 30116 55300 20000 30000 85/30 87/50 88/58
AAXX 21001 10731 17461 82205 10032 20020 30036 40183 51014 69901 70065 333 55/// 20052 30052 55300 20000 30000 83/12 88/57 88/65
AAXX 21001 10742 07459 82605 10020 20013 39835 40174 53016 69911 72365 333 4/002 55/// 20130 30130 55300 20000 30000 69907 86/10 87/15 88/20
AAXX 21001 10776 07214 81602 11010 21015 39693 40150 51005 69971 77176 333 4/002 55/// 20197 30174 55300 20000 30000 69917 85/06 87/12 88/17
AAXX 21001 10791 06/// ///// 11056 21060 38454 48403 51006 69921 333 55300 69907
AAXX 21001 10805 07659 82004 10033 20022 30006 40201 51015 60021 70086 333 55/// 20067 30067 55300 20000 30000 69907 88/42
AAXX 21001 10815 07/60 /2806 11003 21003 39230 48455 52014 60031 77176 333 4/027 55/// 20176 30176 55300 20000 30000 60017
AAXX 21001 10836 07000 82808 11006 21006 39286 40176 51015 60021 73576 333 4/013 55/// 20217 30217 55300 20000 30000 69917 88/00
AAXX 21001 10870 01358 82703 10010 20006 39616 40162 51011 69981 72377 8272/ 333 43004 55300 69947 82707 88509 96473
AAXX 21001 10895 07212 72203 11018 21021 39566 40153 51004 69921 75476 333 55/// 20432 30177 55300 20000 30000 69927 87/03
AAXX 21001 10908 06001 83007 11047 21049 38464 48462 53014 60041 333 55/// 20120 30120 55300 20000 30000 60037 88/00 91117 91213
AAXX 21001 10929 01358 82503 10016 20008 39653 40197 51015 69951 76876 877// 333 42003 55/// 20135 30135 55300 20000 30000 69957 87709
AAXX 21001 10948 07/39 /2201 11001 21002 39221 48454 51012 60041 77170 333 4/055 55/// 20085 30085 55300 20000 30000 69967
AAXX 21001 10961 46/// /3506 11139 21142 36983 47942 51006 333 55/// 20285 42109 55300 20000 40981 91115
AAXX 21001 10962 01/01 92704 11014 21014 39000 48439 51010 60021 77374 333 48014 55/// 20155 30154 55300 20000 30000 60017 96045
AAXX 21001 10980 46/// /2913 11066 21069 38077 48434 52011 333 55/// 20216 30209 55300 20000 30000 91120 91216
BBXX BATFR01 21004 99346 10282 46/// /2618 10165 20077 40174 53004 222// 00172
BBXX BATFR22 21004 99430 10074 46/// /0508 10112 40140 56008 22224 00142
BBXX BATFR55 21004 99097 30453 44697 43210 10287 20247 40102 70311 82522 22262 00292 20702
BBXX BATFR52 21004 99500 70038 46/// /2917 10117 20112 40192 22233 00119
BBXX BATFR19 21004 99065 30060 46/// /1512 10237 20199 40144 50001 222// 00255
BBXX BATFR46 21004 99367 70017 44/97 02416 10150 20109 40267 58013 700// 22213 00169
BBXX A8QJ7 21004 99144 70227 41/98 /0504 10250 20235 40154 52014 70200 8//// 22213 06250 2//// 3//// 4//// 5//// 80240
BBXX BATEU01 21004 99504 70134 46/// /2720 10135 20107 40249 51009 222// 00124
BBXX BATFR04 21004 99584 70062 46/// /2604 10044 20019 40095 52001 22200 00099
AAXX 21001 10007 NIL
AAXX 21001 10044 46/// /2806 10018 20006 30036 40068 53007 222// 00050 333 55300
AAXX 21001 10046 41135 82803 10014 20006 30032 40072 53009 71052 886// 333 88703
AAXX 21001 10091 07458 81805 10004 21010 30015 40067 55003 69901 77175 333 55/// 20276 30117 55300 20000 30000 69907 87/10 87/14 88/19
AAXX 21001 10113 17662 83010 10060 20033 30088 40107 53013 69921 70065 333 55/// 20131 30123 55300 20000 30000 81/38 83/64 88/66 91117 91214
AAXX 21001 10124 46/// ///// 10064 2//// 30048 40086 53010 222// 00049 333 553// 911// 912//
AAXX 21001 10131 07681 73109 10054 20023 30070 40085 53007 69901 72365 333 55/// 20039 30039 55300 20000 30000 69907 81/39 87/56 87/59 91116
AAXX 21001 10170 01230 81701 10005 21003 30047 40063 52003 69971 77175 877// 333 42997 55/// 20118 30116 55300 20000 30000 69977 87704
AAXX 21001 10264 06008 72301 10010 20008 39951 40059 53005 69921 333 55/// 20116 30116 55300 20000 30000 69907 87/01
AAXX 21001 10291 01462 81603 10006 21019 30000 40069 58011 69901 72272 876// 333 34/// 55/// 20249 30143 55300 20000 30000 69907 87711
AAXX 21001 10315 01575 82705 10047 20029 30068 40133 51020 60031 70162 875// 333 31/// 55/// 20070 30070 55300 20000 30000 69907 81625 87650
AAXX 21001 10379 01240 81904 10010 20007 39939 40063 56010 69931 75875 877// 333 31/// 55/// 20167 30147 42507 55300 20000 30000 41154 69927 87704
AAXX 21001 10382 01148 81803 10013 20006 30021 40067 58008 69901 75076 876// 333 31/// 55/// 20128 30109 55300 20000 30000 69907 82703 87704
AAXX 21001 10384 06/// /1602 10011 20005 30005 40066 57011 69921 333 55/// 20151 30127 55300 20000 30000 69927
AAXX 21001 10427 01/02 93009 11006 21006 39110 48409 52018 60081 77374 333 48058 55/// 20114 30114 55300 20000 30000 60027 91120 91213 96041 96473 96449
AAXX 21001 10430 07366 82806 10041 20031 39932 40126 51023 60031 72365 333 55/// 20076 30076 55300 20000 30000 60027 83/09 87/14 88/20
AAXX 21001 10439 41465 83002 10037 20021 39907 40130 52017 76162 875// 333 85619 87642
AAXX 21001 10453 11/90 93115 11026 21026 38737 48370 53013 60021 77174 333 49120 55300 91124 91217 96049 96036
AAXX 21001 10496 07365 82003 10014 21012 39993 40080 56013 69901 72275 333 55/// 20382 30130 55300 20000 30000 69907 88/09
AAXX 21001 10499 01566 72008 11004 21028 39796 40093 58010 69901 70272 875// 333 42997 55/// 20401 30124 55300 20000 30000 69907 85620 87626
AAXX 21001 10505 01265 82606 10028 20022 39889 40176 51012 69961 70282 878// 333 32/// 55/// 20088 30088 55300 20000 30000 69927 82806 87625
AAXX 21001 10513 11480 72803 10039 20029 30042 40165 51014 69901 70262 8657/ 333 42001 55/// 20081 30081 55300 20000 30000 86612
AAXX 21001 10532 15568 82406 10033 20014 39891 40143 51018 60001 333 55/// 20140 30140 55300 20000 30000 87/22 88/66 88/77
AAXX 21001 10544 01/00 92908 11013 21013 39031 48406 53008 60051 74974 333 48028 55300 60047 91115 96049 96036 96147 96271 96475 96473
AAXX 21001 10554 01475 82808 10022 20010 39712 40105 53011 69911 76076 875// 333 31/// 4/998 55/// 20139 30137 55300 20000 30000 69907 84610 87656
AAXX 21001 10567 01467 82408 10013 20001 39716 40098 56001 69901 76872 876// 333 43002 55/// 20178 30175 55300 20000 30000 69907 87711
AAXX 21001 10578 11/01 92614 11042 21046 38675 48375 56004 60021 77374 333 48058 55/// 20244 30229 55300 20000 30000 96049 96036
BBXX BATFR09 21004 99415 70101 46/// /0303 10137 20122 40330 52001 22243 00162
BBXX BATFR12 21004 99481 70065 46/// /2918 10130 20119 40245 58011 22200 00144
BBXX BATEU07 21004 99295 31131 46/// /1413 10222 40151 51011 22284
BBXX BATEU08 21004 99592 70437 46/// /0328 11031 21082 49931 56029 22263
BBXX BATFR45 21004 99069 10562 46/// ///// 10254 20232 40113 55005 22213 00292
BBXX BATFR11 21004 99381 10113 46/// /1609 10147 20095 40083 58061 22272 00172
AAXX 21004 48698 01456 73002 10253 20246 30066 40084 69964 71022 81232 333 20244 58000 60007 70006 81818 84366 86080
AAXX 21001 01015 NIL
AAXX 21001 01023 41689 80000 11039 21040 39921 40017 52006 70222 8657/ 333 91101
AAXX 21001 01033 46/// /0806 10032 21017 39983 40014 52006 333 91108
AAXX 21001 01059 16/// /1602 11005 21011 30018 40028 52011 6//// 333 91107
AAXX 21001 01089 16/// /2204 11031 21037 39900 40008 52011 6//// 333 91106
AAXX 21001 01167 41785 52102 10005 21017 30002 40006 53006 70121 82481 333 91104
AAXX 21001 01180 NIL
AAXX 21001 01210 16/// /1803 10018 20000 30010 40037 51017 6//// 333 91110
AAXX 21001 01228 46/// /3009 10048 20002 30005 40012 53011 333 91115
AAXX 21001 01240 16/// /2009 10032 20009 39985 40004 52005 6//// 333 91114
AAXX 21001 01304 46/// /1709 10029 20013 30015 40046 53014 333 91112
AAXX 21001 01311 47372 61202 11011 21011 30000 40063 53014 724// 333 91103
AAXX 21001 01340 16/// /2601 11067 21077 39176 40070 53013 60021 333 91104
AAXX 21001 01355 16/// ///// 11031 21076 30070 40075 53015 60001
AAXX 21001 01360 NIL
AAXX 21001 01392 16/// /0601 11085 21094 39835 40071 52002 69921 333 91102
AAXX 21001 01406 46/// /0303 10039 20015 30040 40058 53013 333 91114
AAXX 21001 01411 16/// /2602 10029 20016 30039 40064 53010 6//// 333 91116
AAXX 21001 01425 16/// /3601 11023 21025 39987 40069 53008 60021 333 91102
AAXX 21001 01433 46/// /3105 11049 21061 38779 40053 53009 333 91109
AAXX 21001 01442 NIL
AAXX 21001 01450 NIL
AAXX 21001 01452 16/// /3302 11008 21018 30035 40057 52005 60031 333 91107
AAXX 21001 01473 16/// /3301 11091 21102 39846 40064 55003 6//// 333 91102
AAXX 21001 01494 17156 80201 11035 21036 39987 40054 58002 60001 741// 333 91103
AAXX 21001 01025 17769 70000 10003 21008 30004 40015 52006 6//// 700// 333 91104
AAXX 21001 01052 16/// /0202 11001 21014 39928 40027 52010 60001 333 91104
AAXX 21001 01122 16/// /0000 11033 21039 39931 40022 52005 69951 333 91102
AAXX 21001 01132 16/// /0201 11043 21052 39630 40026 52006 60011 333 4/043 91102
AAXX 21001 01156 16/// /0803 10019 21005 39994 40004 52006 60001 333 91106
AAXX 21001 01203 46/// /1909 10023 21003 39992 40041 53020 333 91118
AAXX 21001 01233 16/// /3602 11155 21166 60021 333 91103
AAXX 21001 01265 16/// /0000 11265 21293 39477 40126 52013 69921 333 91101
AAXX 21001 01273 16/// /1702 11094 21106 39839 40044 53013 60001 333 91103
AAXX 21001 01307 46/// /1306 10017 20004 30027 40055 51015 333 91107
AAXX 21001 01321 NIL
AAXX 21001 01327 16/// /1801 11071 21083 60001 333 91103
AAXX 21001 01350 16/// /2907 11069 21073 38627 40017 53006 60021 333 91108
AAXX 21001 01361 16/// /1401 11116 21129 39012 40083 53010 69971 333 91102
AAXX 21001 01375 16/// /3103 11103 21116 6//// 333 91104
AAXX 21001 01378 16/// /3404 11141 21160 39767 40077 52005 60001 333 91106
AAXX 21001 01385 16/// /3602 11124 21133 39791 40078 52005 60001 333 91103
AAXX 21001 01412 16/// /0802 10006 20000 30034 40064 52005 60001 333 91105
AAXX 21001 01422 16/// /1002 11001 21010 69971 333 91104
AAXX 21001 01440 NIL
AAXX 21001 01441 NIL
AAXX 21001 01467 NIL
AAXX 21001 01469 16/// /3302 11084 21104 39888 40067 54001 60001 333 91105
AAXX 21001 01477 16/// /3001 11061 21068 60001 333 4/020 91102
AAXX 21001 01480 16/// /3401 11066 21079 69921 333 91104
AAXX 21001 01484 16/// /2801 11034 21043 39897 40056 57001 69921 333 91102
AAXX 21001 01490 16/// /0000 11064 21071 60001 333 91102
AAXX 21001 01495 16/// /0402 11011 21019 30037 40050 57004 60001 333 91104
AAXX 21001 01037 16/// /1301 11023 21028 30016 40022 52008 60001 333 91102
AAXX 21001 01046 41689 60601 11005 21014 30017 40024 52008 70122 82460 333 91104
AAXX 21001 01058 16/// /3101 11051 21061 39564 40036 52009 60001 333 4/018 91104
AAXX 21001 01065 16/// /2201 11083 21095 39867 40034 52014 60001 333 91102
AAXX 21001 01092 46/// /3308 10030 21001 333 91111
AAXX 21001 01107 16/// /1605 10042 2//// 39993 49998 52005 60001 333 91110
AAXX 21001 01114 16/// /0502 11012 21033 39995 40006 52006 60001 333 91104
AAXX 21001 01144 46/// /1304 10020 21025 333 91109
AAXX 21001 01199 NIL
AAXX 21001 01245 NIL
AAXX 21001 01259 16/// /1605 10028 21012 39985 40008 52005 60001 333 91109
AAXX 21001 01262 NIL
AAXX 21001 01278 NIL
AAXX 21001 01293 16/// /1401 11086 21092 39825 40041 53011 60001 333 91104
AAXX 21001 01329 16/// /0201 11013 21024 30008 40070 52015 60031 333 91109
AAXX 21001 01337 16/// /0801 11037 21051 30008 40076 52015 60041 333 91103
AAXX 21001 01344 16/// ///// 11064 21076 60031 333 4/081
AAXX 21001 01364 16/// /3001 11122 21136 38914 40083 50006 60001 333 4/040 91103
AAXX 21001 01373 16/// /0000 11145 21159 39873 40082 53003 60001 333 91101
AAXX 21001 01374 NIL
AAXX 21001 01380 16/// /3502 11183 21201 6//// 333 4/030 91104
AAXX 21001 01389 11780 82001 11170 21186 39761 40096 52007 60001 70242 8172/ 333 91102
AAXX 21001 01393 NIL
AAXX 21001 01424 16/// ///// 11040 21049 30072 40075 53010 60021
AAXX 21001 01431 16/// /0701 11086 21094 39393 40085 53007 69971 333 91103
AAXX 21001 01436 NIL
AAXX 21001 01465 16/// /0205 11005 21009 30033 40052 54001 60041 333 91110
AAXX 21001 01471 16/// /3003 11088 21112 60001 333 91105
AAXX 21001 01483 NIL
AAXX 21001 01121 46/// /1206 10024 21009 39994 40006 52007 333 91110
AAXX 21001 01135 16/// /0701 11028 21031 39868 40023 52006 69981 333 91101
AAXX 21001 01143 16/// /2103 11028 21043 60001 333 91104
AAXX 21001 01150 16/// /0000 11068 21089 60001 333 91104
AAXX 21001 01192 16/// /1901 10005 21032 60001 333 4/006 91102
AAXX 21001 01225 46/// /2509 10056 21004 30013 40018 53016 333 91114
AAXX 21001 01230 16/// /1001 11139 21153 69931 333 4/037 91104
AAXX 21001 01232 16/// /1704 11067 21092 39989 40072 53014 60001 333 4/027 91111
AAXX 21001 01234 16/// /2004 11059 21080 60001 333 91108
AAXX 21001 01253 16/// /2201 11111 21129 60001 333 4/034 91106
AAXX 21001 01254 16/// /1501 11127 21141 60001 333 4/021 91102
AAXX 21001 01257 NIL
AAXX 21001 01277 NIL
AAXX 21001 01291 16/// /0000 11025 21030 60001 333 4/023 91101
AAXX 21001 01332 NIL
AAXX 21001 01366 46/// /3203 11093 21110 38405 40056 53010 333 91105
AAXX 21001 01370 16/// /1501 11139 21155 38936 40172 52005 60001 333 4/026 91103
AAXX 21001 01376 16/// /0601 11100 21119 60001 333 91103
AAXX 21001 01383 46/// /0000 11166 21177 39757 40094 52006 333 91101
AAXX 21001 01386 16/// ///// 11113 21125 60001
AAXX 21001 01416 16/// ///// 10001 20001 60021
AAXX 21001 01419 16/// /0301 11032 21035 60011 333 91102
AAXX 21001 01430 16/// ///// 11014 21024 60011
AAXX 21001 01434 16/// /0000 11117 21132 39071 40051 53004 60001 333 91102
AAXX 21001 01455 16/// /0000 11051 21063 39743 40062 55002 69961 333 91102
AAXX 21001 01468 16/// /1001 11060 21070 60001 333 91103
AAXX 21001 01470 16/// /0502 11062 21069 39941 40059 55003 69921 333 4/006 91104
AAXX 21001 01476 NIL
AAXX 21001 01481 16/// /3501 11043 21053 30023 40056 57003 69931 333 91104
AAXX 21001 01488 NIL
AAXX 21001 11816 12960 40000 11056 21079 39969 40141 57001 60001 84040 333 55076 84362
AAXX 21001 11826 17/57 /9902 11079 21092 39930 40141 57002 60001 71000 333 55000
AAXX 21001 11903 12960 00000 11087 21092 39745 40148 51001 60001 333 55033
AAXX 21001 11934 12470 72604 11058 21081 39282 42723 58004 60001 876// 333 55012 87713
AAXX 21001 11968 12780 19901 11020 21060 39835 40124 50000 60001 81500 333 55000 81650
AAXX 21004 78862 11478 70413 10250 20197 30147 40170 60001 70522 84202 333 10272 20242 58004 84817 86076
AAXX 21004 TAF TQPF 202200Z 2100/2124 05016KT 9999 SCT022 PROB30 TEMPO 2100/2114 SHRA BKN018 BKN036
AAXX 21004 TAF TUPJ 202200Z 2100/2124 05016KT 9999 SCT022 PROB30 TEMPO 2100/2114 SHRA BKN018 BKN036
AAXX 21004 PROB40 TEMPO 1818/1918 5000 SHRA BKN015 BKN035
AAXX 21004 EMPO 0600/0624 SHRA BKN015=+TSRA SCT012CB
AAXX 21004 TAF TUPJ 041000Z 04012/0512 07008KT 9999 SCT016 BKN038 SCT270 TEMPO 0412/0512 SHRA BKN015 PROB40 TEMPO 0418/0512 5000 SHRA BKN014 BKN036 PROB30 0420/0512 4000 TSRA FEW012CB
AAXX 21004 918 4000 TSRA FEW012CB
AAXX 21004 N015 BKN036 PROB40 TEMPO 0704/0724 3000 +TSRA SCT011CB BKN012 BECMG 0712/0714 14008KT
AAXX 21004 21/2712 07017G28KT 5000 SHRA BKN015 BKN036 PROB TEMPO 2700/2712 4000 TSRA FEW013CB
AAXX 21004 PROB30 TEMPO 0800/0806 4000 TSRA FEW012CB PROB40 TEMPO 0800/0824 2000 +SHRA/TSRA SCT010CB BKN012 BKN250
AAXX 21004 78862 11478 70413 10250 20197 30147 40170 60001 70522 84202 333 10272 20242 58004 84817 86076
AAXX 21004 TAF TQPF 202200Z 2100/2124 05016KT 9999 SCT022 PROB30 TEMPO 2100/2114 SHRA BKN018 BKN036
AAXX 21004 TAF TUPJ 202200Z 2100/2124 05016KT 9999 SCT022 PROB30 TEMPO 2100/2114 SHRA BKN018 BKN036
AAXX 21004 PROB40 TEMPO 1818/1918 5000 SHRA BKN015 BKN035
AAXX 21004 EMPO 0600/0624 SHRA BKN015=+TSRA SCT012CB
AAXX 21004 TAF TUPJ 041000Z 04012/0512 07008KT 9999 SCT016 BKN038 SCT270 TEMPO 0412/0512 SHRA BKN015 PROB40 TEMPO 0418/0512 5000 SHRA BKN014 BKN036 PROB30 0420/0512 4000 TSRA FEW012CB
AAXX 21004 918 4000 TSRA FEW012CB
AAXX 21004 N015 BKN036 PROB40 TEMPO 0704/0724 3000 +TSRA SCT011CB BKN012 BECMG 0712/0714 14008KT
AAXX 21004 21/2712 07017G28KT 5000 SHRA BKN015 BKN036 PROB TEMPO 2700/2712 4000 TSRA FEW013CB
AAXX 21004 PROB30 TEMPO 0800/0806 4000 TSRA FEW012CB PROB40 TEMPO 0800/0824 2000 +SHRA/TSRA SCT010CB BKN012 BKN250
AAXX 21004 07005 04/70 /2003 10055 20032 30107 40199 58002 60001 700// 333 60007 90710 91106 555 60005
AAXX 21004 07015 02980 82505 10043 20023 30133 40192 51005 60001 8707/ 333 60007 87360 90710 91110 93100 555 60005
AAXX 21004 07020 06/// /2216 10100 20094 30180 40207 58017 60011 333 60017 90710 91120 555 69965
AAXX 21004 07027 04569 82107 10075 20066 30130 40213 58010 60021 761// 333 60027 90710 91110 555 60015
AAXX 21004 07037 04561 82104 10049 20042 30024 40212 58002 69921 761// 333 69927 90710 91106 555 69925
AAXX 21004 07070 04970 82405 10037 20016 30093 40206 50001 60001 700// 333 60007 90710 91111 555 60005
AAXX 21004 07110 01235 82612 10109 20104 30119 40235 58007 69901 75152 887// 333 69907 87704 90710 91122 93100 555 69905
AAXX 21004 07117 01420 82414 10105 20099 30148 40219 58011 60011 76362 887// 333 60017 90710 91122 92435 555 69985
AAXX 21004 07130 04556 82104 10080 20074 30188 40241 50000 60021 763// 333 60027 90710 91111 555 60025
AAXX 21004 07139 06/// /2504 10072 20055 30052 40229 50000 69921 333 69927 90710 91108 555 69925
AAXX 21004 07149 02770 72606 10058 20043 30108 40219 50002 60001 875// 333 60007 87650 90710 91108 93100 555 60005
AAXX 21004 07168 04/70 /2509 10052 20024 30076 40222 52006 60001 700// 333 60007 90710 91112 555 60005
AAXX 21004 07181 04466 82506 10016 20010 39788 40211 51008 60011 700// 333 60007 90710 91109 555 60005
AAXX 21004 07190 04783 82708 10037 20012 30010 40197 51015 69921 700// 333 60007 90710 91111 555 60005
AAXX 21004 07207 02565 82817 10118 20100 60001 885// 222// 327// 333 60007 90710 91127 92437 555 60005
AAXX 21004 07222 01558 81902 10084 20073 30225 40257 51008 69901 76062 875// 333 69907 87630 90710 91105 555 69905
AAXX 21004 07240 01350 82406 10078 20069 30104 40242 50005 69901 76162 877// 333 69907 87709 90710 91110 93100 555 69905
AAXX 21004 07255 04670 /2704 10073 20058 30035 40239 51007 60001 700// 333 60007 90710 91109 555 60005
AAXX 21004 07280 04984 82605 10026 20013 39947 40229 52011 69901 700// 333 69907 90710 91108 555 60005
AAXX 21004 07299 04679 82610 10033 20012 39871 40207 51016 60001 700// 333 60007 90710 91118 555 60005
AAXX 21004 07314 06/// /2906 10120 20094 30243 40271 51004 60001 333 60007 90710 91109 555 60005
AAXX 21004 07335 04681 82706 10084 20065 30110 40257 52003 69901 761// 333 69907 90710 91111 555 69905
AAXX 21004 07434 04235 82704 10062 20056 39770 40259 51005 69901 761// 333 69907 90710 91110 555 69905
AAXX 21004 07460 01670 83104 10065 20028 39845 40242 51005 69981 70162 875// 333 69907 81633 87657 90710 91109 93100 555 60005
AAXX 21004 07471 04470 /3008 10023 20008 39255 48837 52011 60011 700// 333 69967 90710 91115 555 60005
AAXX 21004 07481 01550 82002 10035 20028 39941 40238 51013 69921 70165 875// 333 69907 82625 87630 90710 91103 93100 555 60005
AAXX 21004 07510 01560 72205 10095 20089 30209 40275 52001 69901 72165 875// 333 69907 81623 87643 90710 91108 93100 555 69905
AAXX 21004 07535 06/// /2803 10075 20068 39952 40271 51012 60001 333 60007 90710 91107 555 60005
AAXX 21004 07558 06/// /3112 10047 20030 39390 40243 50010 69921 333 69927 90710 91127 555 60005
AAXX 21004 07577 04/70 /0305 10058 20035 30135 40227 51014 69941 700// 333 69907 90710 91115 555 60005
AAXX 21004 07591 04/// /0302 11045 21050 39150 4//// 53003 69901 700// 333 60007 90710 91107 555 60005
AAXX 21004 07607 04506 72101 10086 20083 30216 40289 53002 60031 745// 333 60017 90710 91103 555 60005
AAXX 21004 07621 01570 82807 10092 20071 39855 40295 53006 69981 70262 8557/ 333 69947 85630 87360 90710 91115 93100 555 60005
AAXX 21004 07627 06/// /3107 10087 20061 39792 40288 53011 60031 333 69947 90710 91120 555 69925
AAXX 21004 07630 04682 82910 10094 20070 30094 40278 51011 60001 700// 333 60007 90710 91115 555 60005
AAXX 21004 07643 04986 /3110 10106 20027 30206 40216 51014 60001 700// 333 60007 90710 91116 555 60005
AAXX 21004 07650 04986 /3215 10080 20024 30154 40193 51012 60001 700// 333 60007 90710 91124 555 60005
AAXX 21004 07661 06/// /2940 10096 20010 39967 40129 58016 60001 333 60007 91055 90710 91155 555 60005
AAXX 21004 07690 04685 83310 10039 21034 30113 40148 52009 60001 700// 333 60007 90710 91114 555 60005
AAXX 21004 07747 04686 83111 10120 20049 30178 40232 53010 69901 700// 333 60007 90710 91137 555 60005
AAXX 21004 07761 01565 30705 10046 20033 30106 40117 51013 69941 70386 81501 333 60007 81625 83073 90710 91109 93100 555 60005
AAXX 21004 07790 04686 62208 10060 20030 30112 40127 51012 69901 700// 333 60007 90710 91113 555 60005
AAXX 21004 89009 41/16 92921 11229 36888 51003 77773 333 11229 21264 89/04
AAXX 21001 89061 179// 00000 10021 20012 39929 49935 52007 60054 70066 333 10043 20016 91001 91103
AAXX 21004 89009 41/16 92921 11229 36888 51003 77773 333 11229 21264 89/04
AAXX 21001 89061 179// 00000 10021 20012 39929 49935 52007 60054 70066 333 10043 20016 91001 91103
AAXX 21004 78951 12574 41111 10271 20206 30135 40150 60001 82202 333 10298 20242 59006 82820 84080
AAXX 21004 91203 11473 80906 10288 20260 30105 40110 51014 60024 78086 85271 333 56299 70023 59010 85817 83367 86080 555 92100
AAXX 21004 03005 11675 13011 10028 21008 39972 40073 53013 69941 70281 81500 92350 333 55/// 20071 81631
AAXX 21004 03017 15666 /2407 10016 20004 30059 40092 50008 60021 92350 333 55/// 20088 84/44 85/58
AAXX 21004 03023 17470 /1405 10058 20053 30080 40085 55006 60011 781// 92350 333 81/17 88/46
AAXX 21004 03026 15676 /2502 10031 20022 30075 40094 54000 69901 92350 333 55/// 20030 81/43 83/49 88/58
AAXX 21004 03063 15579 /0301 10014 20009 39827 40109 57001 69921 92350 333 4/004 55/// 20071 85/26 87/32
AAXX 21004 03066 15786 /2102 10019 20011 30099 40105 55001 69901 92350 333 55/// 20052 85/50 88/59
AAXX 21004 03075 15774 /2505 10008 21003 30051 40096 52004 69921 92350 333 81/50
AAXX 21004 03091 15781 /0602 10026 20006 30029 40110 55001 69921 92350 333 55/// 20095 88/56
AAXX 21004 03100 17260 /1814 10077 20075 30072 40088 55011 60031 723// 92350 333 55/// 20037 82/05 83/19 86/33
AAXX 21004 03111 16435 /1308 10073 20068 30082 40094 58017 60021 92350 333 87/15
AAXX 21004 03134 17238 /1403 10056 20053 30033 40106 57013 60021 762// 92350 333 55/// 20091 88/03
AAXX 21004 03136 17456 /1404 10063 20057 30070 40103 58017 60031 761// 92350 333 55/// 20069 81/10 85/23 85/35
AAXX 21004 03162 17108 /1502 10032 20031 39833 40123 58011 60041 761// 92350 333 55/// 20067 87/02 84/06
AAXX 21004 03166 17783 /2209 10060 20043 30037 40107 58013 69941 757// 92350 333 55/// 20060 88/56
AAXX 21004 03171 11456 80202 10026 20024 30099 40111 58005 69941 72162 8652/ 92350 333 55/// 20070 82710 85638 88459
AAXX 21004 03204 11260 82411 10095 20091 30093 40113 56017 60071 75165 886// 92350 333 55/// 20090 83703 88707
AAXX 21004 03240 17664 /1804 10040 20035 30095 40124 57008 69961 761// 92350 333 55/// 20097 85/39 87/50
AAXX 21004 03257 17556 /1506 10049 20043 30099 40140 55004 60011 762// 92350 333 55/// 20110 82/21 87/45
AAXX 21004 03292 NIL
AAXX 21004 03302 17120 /2412 10099 20099 30114 40127 56013 60041 722// 92350 333 55/// 20071 88/02
AAXX 21004 03354 17250 /2104 10049 20043 30011 40155 57013 60011 723// 92350 333 55/// 20194 84/03 83/26 85/50
AAXX 21004 03377 17258 /2206 10048 20043 30071 40156 57006 60011 762// 92350 333 55/// 20182 83/05 87/41
AAXX 21004 03414 17450 /1406 10058 20054 30057 40146 56021 60031 751// 92350 333 55/// 20138 87/15
AAXX 21004 03462 17777 /2509 10052 20043 30072 40163 57010 69941 761// 92350 333 55/// 20213 87/50
AAXX 21004 03482 17660 /2407 10043 20037 30138 40164 55007 69961 761// 92350 333 85/31 84/40 86/45
AAXX 21004 03502 17359 /2625 10105 20102 39988 40149 55011 60061 722// 92350 333 55/// 2//// 86/09 83/31 90710 91132
AAXX 21004 03535 17246 /1807 10047 20047 30033 40152 58023 60021 751// 92350 333 55/// 20162 83/04 86/28
AAXX 21004 03590 11670 82405 10040 20031 30058 40170 58007 69921 76162 885// 92350 333 55/// 20236 88630
AAXX 21004 03649 11235 81603 10054 20050 30066 40168 58023 60021 75265 887// 92350 333 86704
AAXX 21004 03716 17150 /2410 10094 20091 30093 40153 57031 60071 762// 92350 333 55/// 20119 88/02
AAXX 21004 03740 16022 /1806 10058 20058 39989 40168 58026 60041 92350 333 55/// 2//// 87/01
AAXX 21004 03746 17128 /1908 10056 20055 30022 40178 57026 60041 762// 92350 333 86/02 85/22
AAXX 21004 03772 17658 /2205 10058 20051 30149 40180 57011 69961 761// 92350 333 55/// 20247 81/34 87/41
AAXX 21004 03796 46/// /2909 10056 20037 30039 40184 57003 92350
AAXX 21004 03803 NIL
AAXX 21004 03808 11015 82818 10110 20109 30092 40198 56007 60011 75865 887// 92350 333 55/// 20201 88701 90710 91129 91029
AAXX 21004 03809 11125 82917 10112 20112 30105 40197 56009 60021 72065 886// 92350 333 83702 86706 88712 90710 91131 91027
AAXX 21004 03827 17032 /2515 10108 20108 30124 40186 57024 60041 751// 92350 333 85/01 83/11
AAXX 21004 03840 17033 /2112 10079 20079 39865 40171 58027 60021 723// 92350 333 88/01
AAXX 21004 03853 17581 /1907 10090 20083 30145 40169 58032 60021 723// 92350 333 55/// 20148 81/24 87/38
AAXX 21004 03874 46/// /2106 10078 20068 30174 40185 57017 92350
AAXX 21004 03882 17562 /2603 10052 20044 30126 40191 58001 69941 762// 92350 333 55/// 20211 83/27 83/39 86/50
AAXX 21004 03894 11125 82413 10098 20094 40209 58017 60031 75965 887// 333 83702 87703
AAXX 21004 03917 17226 /2107 10074 20072 30031 40108 55004 60021 723// 92350 333 55/// 20121 88/03
AAXX 21004 61901 169// /1312 10155 20150 39675 40186 58002 69921 92350 333 8//99 555 7/090
AAXX 21004 88878 46/// /2814 10121 20089 49960 52002
BBXX 46082 21001 99597 71434 46/// ///// 10047 20047 40178 58008 92350 22200 00064 11106 70028
BBXX 46072 21001 99517 71722 46/// /2309 10024 21026 40006 54000 92350 22200 00044 11109 20805 3//// 41107 70045 333 91211 555 11094 22099 32313 42411 62349 234089 230085 228081 226081 221083 225079 82309 92343
BBXX 46077 21001 99579 71543 46/// /1811 10050 20006 49927 56015 92350 22200 00048 11008 20806 3//// 41005 70038 333 91215 555 11121 22130 32255 41818 62349 175113 189120 189127 183136 194141 185134 81815 92313
BBXX 46035 21001 99571 71778 46/// /2709 1//// 49926 51008 92350 22200 11106 20704 300// 41104 70029 333 91210 555 11085 22091 32326 42712 62349 273086 269089 271096 273094 273097 281095 82711 92301
BBXX 42039 21001 99288 70860 46/// /1509 10230 40161 55000 92350 22200 00228 10804 20703 300// 40802 70020 333 91211 555 11095 22102 32342 41511 62349 152088 151086 155092 155090 156083 159071 81610 92326
BBXX 46026 21001 99378 71228 46/// /2903 10113 40175 56012 92350 22200 00116 11404 20301 329// 41404 70020 333 91204 555 11034 22035 32346 42904 62349 290032 288026 285026 284020 281015 276008
BBXX 46041 21001 99474 71247 46/// /3309 10083 40274 54000 92350 22200 00083 11509 20602 3//// 41509 70047 333 91210 555 11092 22098 32252 43311 62349 327084 330080 329082 330081 331080 332084
BBXX 46072 21001 99517 71722 46/// /2309 10024 21026 40006 54000 92350 22200 00044 11109 20805 3//// 41107 70045 333 91211 555 11094 22099 32313 42411 62349 234089 230085 228081 226081 221083 225079 82309 92343
BBXX 44007 21001 99435 70701 46/// /2804 10004 21112 40232 53023 92350 22200 00079 11201 3//// 41201 70004 333 91205 555 11038 22039 32343 42905 62349 282036 288036 286037 280032 261029 257026
BBXX 51004 21001 99175 71524 46/// /0610 10233 20207 92350 555 11107 22114
BBXX 51002 21001 99171 71578 46/// /0509 10227 40124 58021 92350 22200 00251 333 91211 555 11095 22100 32303 40515 62349 048089 049090 043086 039093 045109 044100
BBXX 51100 21001 99236 71539 46/// /0610 10224 40177 56026 92350 22200 00234 10905 20604 309// 40904 70027 333 91212 555 11102 22108 32311 40512 62349 058098 053096 057097 056098 051098 055096
AAXX 21004 78583 32570 21004 10258 20224 40116 60001 82200 333 00300 10288 20/// 59026 70000 82823
AAXX 21001 14648 12970 00501 10017 21047 30015 40138 51002 60001
AAXX 21001 14652 12989 02703 11095 21108 37818 48397 52003 60001
AAXX 21001 14542 11940 02901 11086 21097 39966 40169 54000 60001 71000 333 95990
AAXX 21004 78951 12574 41111 10271 20206 30135 40150 60001 82202 333 10298 20242 59006 82820 84080
AAXX 21001 02974 41680 32004 10013 20006 30035 40102 52004 70181 83500
AAXX 21001 02741 47773 52304 10011 21002 30058 40073 52003 70000 83/// 92339
AAXX 21001 02755 47460 71602 10000 21001 39956 40052 52007 72487 87/// 92339
AAXX 21001 02805 47999 01801 11106 21125 39891 40029 52015 70020 92339
AAXX 21001 02836 47276 72602 11050 21053 39818 40045 52012 72287 87/// 92339
AAXX 21001 02845 47106 92201 11018 21018 39795 40046 52011 73332 92339
AAXX 21001 02849 47282 72301 11013 21015 39770 40046 52010 70000 87/// 92339
AAXX 21001 02866 47057 81602 11007 21007 39905 40056 52010 72474 88/// 92339
AAXX 21001 02924 47243 81901 10001 20001 39860 40059 52004 77170 88/// 92339
AAXX 21001 02935 47267 71702 10002 21002 39899 40074 52005 771// 87/// 92339
AAXX 21001 02939 47256 72102 11004 21005 39902 40098 52011 77187 87/// 92339
AAXX 21001 02976 46/// /2307 10033 20020 30093 40109 52005 92339
AAXX 21001 02981 47683 72311 10043 21008 30074 40084 54000 70080 87/// 92339
AAXX 21001 02982 46/// /2412 10044 21018 30085 40093 54002 92339
AAXX 21001 02807 NIL
AAXX 21001 02897 NIL
AAXX 21001 02913 NIL
AAXX 21001 02917 NIL
AAXX 21001 02926 NIL
AAXX 21001 02944 NIL
AAXX 21001 02947 NIL
AAXX 21001 02963 NIL
BBXX A8SI8 21004 99324 10295 43598 62715 10190 2014/ 40280 54000 22275 00170 80160
AAXX 21004 40260 32960 00000 10070 21066 39406 40183 54000
AAXX 21004 40265 32960 01206 10090 21029 39410 40199 54000
AAXX 21004 40270 31950 20000 10097 20011 39288 40180 57004 70500 80002 333 82070
AAXX 21004 78583 32570 21004 10258 20224 40116 60001 82200 333 00300 10288 20/// 59026 70000 82823
AAXX 21004 91203 11473 80906 10288 20260 30105 40110 51014 60024 78086 85271 333 56299 70023 59010 85817 83367 86080 555 92100
AAXX 21004 81401 06/// /1202 10245 20233 30110 40116 60011 333 10300 60017 59005 555 60005
AAXX 21004 81408 06/// /3402 10250 20238 30104 40112 60001 333 10314 60007 59008 555 60005
BBXX CG2960 21004 99423 70830 46/// /1202 10027 20006 4//// 5//// 7//// 8//// 22200 0//// 2////
BBXX VAAZ 21004 99535 70522 46/// /3618 11035 21061 49982 53001 7//// 8//// 22231 0//// 2////
BBXX 3FZK3 21004 99507 71336 46/// /3218 10069 20042 40285 53011 7//// 8//// 22233 0//// 2////
BBXX CG2965 21004 99487 71235 46/// /2102 10089 20054 40249 58004 7//// 8//// 22200 0//// 2////
BBXX CGDR 21004 99492 71239 46/// /3111 10081 20062 40247 57004 7//// 8//// 22251 00120 2////
BBXX CG2350 21004 99433 70798 46/// /0302 11003 21036 40187 58011 7//// 8//// 22200 0//// 2////
BBXX CGJK 21004 99484 71234 46/// /2712 10084 20051 40249 56008 7//// 8//// 22200 0//// 2////
BBXX CGDS 21004 99450 70746 46/// /0410 11053 21109 4//// 5//// 7//// 8//// 22221 00056 2////
BBXX CGUM 21004 99444 70635 46/// /3316 11041 21095 40188 53039 7//// 8//// 22241 0//// 2////
BBXX VCRG 21004 99463 70623 46/// /3021 11047 21064 40154 53034 7//// 8//// 22200 0//// 2////
AAXX 21004 81401 06/// /1202 10245 20233 30110 40116 60011 333 10300 60017 59005 555 60005
AAXX 21004 81408 06/// /3402 10250 20238 30104 40112 60001 333 10314 60007 59008 555 60005
BBXX VXKF 21004 99462 70602 46/// /3011 11047 21092 40109 51044 7//// 8//// 22200 0//// 2////
BBXX CGTF 21004 99476 70527 46/// /1405 11012 21015 49953 53012 7//// 8//// 22200 0//// 2////
BBXX CGDG 21004 99447 70636 46/// /3116 11050 21015 40187 53040 7//// 8//// 22200 0//// 2////
BBXX CGDX 21004 99490 70669 46/// /2917 11086 21140 40184 51024 7//// 8//// 22200 0//// 2////
BBXX VOLG 21004 99466 70532 46/// /2930 10011 21033 49962 51032 7//// 8//// 22253 0//// 2////
AAXX 21001 01281 16/// /0201 11034 21045 39849 40027 52008 60011 333 91102
AAXX 21004 78016 32664 42610 10182 20111 30257 40261 52011 83501 333 10191 20158 79999
AAXX 21004 78905 11478 70806 10258 20195 30146 40169 60011 71582 86861 333 10265 20233 58003 84817 85638 90950
AAXX 21001 11423 07005 /2707 11028 21031 39226 42727 57001 69911 77183 333 55017 69905 89/01 91112
AAXX 21001 11487 07369 /2705 11011 21025 39493 40131 53002 69901 70087 333 55059 60005 81/09 85/13 87/26
AAXX 21001 11518 01575 72206 11005 21026 39665 40115 57005 69901 70272 8657/ 333 55051 60005 86630 87357
AAXX 21001 11603 07460 /1203 11022 21046 39617 40113 57004 69911 78571 333 55052 69905 81/10 87/23
AAXX 21001 11659 07659 /1302 11030 21049 39467 40126 57006 60001 78577 333 55064 60005 81/39 87/49 88/61
AAXX 21001 11723 02960 80501 11055 21078 39827 40139 55004 60001 8802/ 333 55066 60005 88459
AAXX 21001 11782 01950 22503 11080 21092 39816 40139 58005 60001 71000 80002 333 55070 60005 82075
AAXX 21004 78905 11478 70806 10258 20195 30146 40169 60011 71582 86861 333 10265 20233 58003 84817 85638 90950
AAXX 21004 78016 32664 42610 10182 20111 30257 40261 52011 83501 333 10191 20158 79999
AAXX 21004 78905 11478 70806 10258 20195 30146 40169 60011 71582 86861 333 10265 20233 58003 84817 85638 90950
BBXX CG2958 21004 99517 71281 46/// /3007 10077 20045 40293 51003 7//// 8//// 22200 0//// 2////
BBXX CZ9742 21004 99506 70969 46/// /2307 10014 21026 49970 53005 7//// 8//// 22200 0//// 2////
BBXX CGBY 21004 99487 71235 46/// /2102 10088 20055 40247 58004 7//// 8//// 22200 0//// 2////
BBXX CGSB 21004 99488 70676 46/// /2814 11086 21139 40190 51014 7//// 8//// 22231 00017 2////
BBXX VCWL 21004 99456 70735 46/// /0000 11055 21104 40219 55000 7//// 8//// 22200 0//// 2////
BBXX VOKF 21004 99490 70669 46/// /2818 11091 21152 40180 51028 7//// 8//// 22200 0//// 2////
BBXX VCBW 21004 99491 70672 46/// /2818 11097 21156 40177 51022 7//// 8//// 22213 00018 2////
BBXX VAAP 21004 99447 70636 46/// /3018 11052 21105 40178 53039 7//// 8//// 22200 0//// 2////
AAXX 21004 78016 32664 42610 10182 20111 30257 40261 52011 83501 333 10191 20158 79999
BBXX CGBR 21004 99536 71297 46/// /0115 10032 20031 40287 53028 7//// 8//// 22233 00075 2////
BBXX C6SI6 21004 99318 11209 46/// /0503 10074 20065 40275 53008 7//// 8//// 22200 0//// 2////
BBXX CGBN 21004 99447 70636 46/// /2917 11046 21101 40172 53040 7//// 8//// 22200 0//// 2////
BBXX VRYO3 21004 99496 70098 46/// /0919 10127 20140 40230 52020 7//// 8//// 22264 00120 2////
BBXX VOKJ 21004 99512 70574 46/// /0323 11042 21058 49988 51025 7//// 8//// 22254 0//// 2////
BBXX VOPP 21004 99456 70735 46/// /2103 11055 21103 4//// 5//// 7//// 8//// 22200 0//// 2////
BBXX VOFG 21004 99456 70614 46/// /3022 11032 21087 40136 53045 7//// 8//// 22200 0//// 2////
BBXX CGDT 21004 99468 70712 46/// /2602 11099 21145 40233 51009 7//// 8//// 22200 0//// 2////
BBXX CGCC 21004 99460 70731 46/// /2003 11067 21122 40217 55001 7//// 8//// 22200 0//// 2////
BBXX VCLM 21004 99501 70663 46/// /3021 11105 21158 40153 53049 7//// 8//// 22263 00006 2////
BBXX VCSZ 21004 99460 70732 46/// /2509 11064 21098 40213 55003 7//// 8//// 22213 0//// 2////
AAXX 21004 68399 36/// /0703 10206 20180 30029 40139 57012 333 10341 20199 91013 555 91014
AAXX 21004 68383 36/// /0000 10203 20157 39902 48546 57011 333 10336 20203 91000 555 91014
AAXX 21004 68379 16/// /3303 10194 20151 39825 48544 57002 69923 333 10338 20194 91005 555 20002 91015
AAXX 21004 48310 31901 00000 10118 20116 39703 40180 52021 74400 333 20111 58000
AAXX 21004 48325 31/00 90000 10134 20132 39906 40160 52011 74742 333 20123 59003
AAXX 21004 48329 31940 00000 10121 20115 39810 40165 52013 71000 333 20120 59001
AAXX 21004 48352 31920 10000 10165 20135 39948 40156 52016 71000 80001 333 20153 59012
AAXX 21004 48357 31940 30000 10157 20148 39979 40155 52018 71000 80005 333 20152 59012
AAXX 21004 48380 32960 50000 10171 20159 30048 40145 52015 80006 333 20163 59003
AAXX 21004 48383 31920 00000 10180 20147 39979 40144 52018 71000 333 20175 59012
AAXX 21004 48403 31956 20000 10170 20160 39931 40149 52020 71000 80005 333 20166 59007
AAXX 21004 48405 31557 70000 10176 20157 39972 40140 52019 71022 85876 333 20169 59008
AAXX 21004 48420 NIL
AAXX 21004 48421 NIL
AAXX 21004 48425 31940 20000 10200 20174 30124 40135 52017 71000 80005 333 20195 59003
AAXX 21004 48426 31557 71102 10230 20155 30116 40130 52018 70521 82556 333 20212 59007
AAXX 21004 48429 31557 40102 10219 20152 30116 40123 52019 71011 81105 333 20212 59003
AAXX 21004 48430 31559 80000 10218 20181 30106 40114 51009 71022 82556 333 20211 59008
AAXX 21004 48450 NIL
AAXX 21004 48459 32560 60603 10225 20170 30113 40116 52015 83576 333 20221 59006
AAXX 21004 48465 31958 63203 10215 20169 30106 40111 52012 71022 80006 333 20208 59019
AAXX 21004 48550 31558 73602 10263 20232 30090 40097 52010 71022 82246 333 20252 59004
AAXX 21004 48552 31457 73203 10232 20217 30086 40092 52010 71022 86806 333 20220 59004
AAXX 21004 48566 NIL
AAXX 21004 48568 NIL
AAXX 21004 48300 31/05 90000 10145 20143 39839 40163 52013 74740 333 20141 59001
AAXX 21004 48327 31956 10000 10140 20131 39806 40176 52008 71000 80005 333 20134 59009
AAXX 21004 48331 31/00 90000 10130 20126 39927 40169 52019 74740 333 20123 59006
AAXX 21004 48353 31910 20000 10135 20124 39861 40163 52020 71000 80001 333 20130 59004
AAXX 21004 48356 31956 10000 10154 20143 39955 40159 53018 71000 80001 333 20153 59012
AAXX 21004 48375 NIL
AAXX 21004 48378 31550 20000 10175 20158 30089 40144 52020 71000 81505 333 20170 58000
AAXX 21004 48381 31950 50105 10175 20140 39924 40148 51014 71011 82036 333 20166 59010
AAXX 21004 48407 31958 73505 10185 20165 39985 40130 52023 71022 86066 333 20176 59011
AAXX 21004 48431 31959 70000 10190 20163 39928 40146 52020 71022 86036 333 20190 59013
AAXX 21004 48456 NIL
AAXX 21004 48480 31958 73502 10236 20173 30103 40107 52015 71022 84056 333 20235 59013
AAXX 21004 48500 NIL
AAXX 21004 48551 31540 40000 10215 20207 30090 40098 71011 82506 333 20214 59004
AAXX 21004 48565 32560 60706 10244 20209 30076 40086 52008 81246 333 20239 58002
AAXX 21004 48569 01450 70000 10240 20220 30060 40101 52015 60074 76122 82876 333 20239 58005 60057 70070
AAXX 21004 48583 NIL
AAXX 21004 48302 31958 21103 10107 20087 38488 40156 71000 80005 333 20104 59001
AAXX 21004 48304 31/00 90000 10105 20103 39698 40182 52018 74722 333 20101 58002
AAXX 21004 48334 31956 20000 10122 20118 39789 40168 52016 71000 80005 333 20120 58000
AAXX 21004 48360 NIL
AAXX 21004 48372 31940 20000 10172 20169 30094 40154 52011 71000 80001 333 20166 58001
AAXX 21004 48373 NIL
AAXX 21004 48386 31910 60000 10178 20173 30089 40134 52026 71021 80006 333 20166 59002
AAXX 21004 48387 NIL
AAXX 21004 48408 NIL
AAXX 21004 48415 31557 50412 10223 20154 30115 40126 52007 71011 81536 333 20190 59013
AAXX 21004 48433 NIL
AAXX 21004 48437 31957 20202 10170 20153 39926 40143 52014 71000 81041 333 20157 59015
AAXX 21004 48440 NIL
AAXX 21004 48451 NIL
AAXX 21004 48454 32960 53503 10238 20168 30108 40115 82046 333 20231 59008
AAXX 21004 48457 31920 60303 10237 20169 30101 40118 71022 80006 333 20235 59008
AAXX 21004 48463 31530 60601 10234 20163 30036 40131 71022 82146 333 20226 59002
AAXX 21004 48464 31956 33206 10215 20166 30099 40112 52011 71011 80001 333 20210 59007
AAXX 21004 48479 31556 60104 10235 20161 30060 40112 52018 70522 82506 333 20225 59006
AAXX 21004 48520 31957 40000 10208 20187 30084 40100 50007 71011 80005 333 20202 59007
AAXX 21004 48554 31458 73604 10240 20225 30088 40092 52007 71022 85976 333 20234 59002
AAXX 21004 48563 31559 40505 10240 20216 30054 40090 52009 71011 81145 333 20206 58003
AAXX 21004 48571 01558 80000 10240 20233 30080 40092 52010 60124 76022 83238 333 20230 59005 60077 70120
AAXX 21004 85201 11465 69902 10098 20046 36287 52017 69902 78092 84933 333 10142 56000 58002 83615 81917 83357 86070 96013
AAXX 21004 85244 32570 63605 10264 20217 39650 40074 52016 82903 333 10352 56707 58012 81820 81927 85070
AAXX 21004 85223 11570 62806 10204 20089 37481 47114 52017 69991 76021 84930 333 10272 56000 59005 83627 81930 85357
AAXX 21004 65338 33958 50000 10255 20241 39931 40116 80002 333 0//00 58002 85076
AAXX 21004 60141 32960 01907 10045 20028 39624 40317 56002
AAXX 21004 60060 NIL
AAXX 21004 60105 NIL
AAXX 21004 60106 NIL
AAXX 21004 60107 NIL
AAXX 21004 60127 NIL
AAXX 21004 60185 NIL
AAXX 21004 60190 NIL
AAXX 21004 60191 NIL
AAXX 21004 60195 NIL
AAXX 21004 60210 NIL
AAXX 21004 60220 NIL
AAXX 21004 60265 NIL
AAXX 21004 60318 NIL
AAXX 21004 48307 31956 00000 10129 20121 39777 40174 51010 71000 333 20125 59005
AAXX 21004 48324 31915 10901 10131 20129 39926 40156 52012 71000 80005 333 20128 59003
AAXX 21004 48333 31/01 90000 10125 20115 39858 40174 52019 74700 333 20120 58000
AAXX 21004 48350 NIL
AAXX 21004 48355 31550 10000 10145 20136 39923 40151 50014 71000 81100 333 20140 59015
AAXX 21004 48358 31920 10000 10136 20125 39974 40158 51014 74200 80005 333 20135 59014
AAXX 21004 48384 NIL
AAXX 21004 48401 31556 63403 10200 20163 30037 40147 52020 71022 81536 333 20190 59002
AAXX 21004 48404 NIL
AAXX 21004 48409 NIL
AAXX 21004 48419 31558 60402 10225 20168 30121 40129 52022 71022 83845 333 20220 58003
AAXX 21004 48427 31957 50207 10206 20163 30124 40132 52022 71011 80002 333 20198 59005
AAXX 21004 48435 31556 71322 10200 20137 39693 40138 52017 71010 83576 333 20183 59011
AAXX 21004 48453 31958 40504 10231 20171 30116 40119 52016 71011 80006 333 20226 59008
AAXX 21004 48458 31550 80000 10210 20172 30056 40138 52017 71022 885// 333 20195 59008
AAXX 21004 48474 31956 30000 10199 20164 39997 40123 52016 71000 80005 333 20190 59010
AAXX 21004 48481 31558 80000 10229 20190 30084 40112 52017 71011 86676 333 20215 59005
AAXX 21004 48555 11556 50000 10218 20206 30086 40129 50016 69924 71011 82145 333 20212 59001 70002
AAXX 21004 48556 NIL
AAXX 21004 48557 NIL
AAXX 21004 48560 11458 80000 10240 20225 30091 40096 51011 60014 71022 82876 333 20237 59003 70010
AAXX 21004 48574 01460 80000 10243 20234 30066 40095 52013 69904 72162 86876 333 20234 58000 69906 79999
AAXX 21004 48581 NIL
AAXX 21001 02944 47375 71803 10001 21003 39929 40078 700// 87/// 90000
AAXX 21004 63980 41480 42105 10280 20238 40096 70281 84802 333 59001 84817 943// 91130
AAXX 21001 02926 47482 72203 10015 20003 30053 40066 52008 700// 87/// 90000
AAXX 21001 02897 47399 81901 11003 21007 39881 40065 700// 88/// 90000
AAXX 21001 11812 36/// /3005 11034 21089 39416 42725 57003 333 55068
AAXX 21001 11813 16/// /9901 11028 21079 39779 40141 57001 60001 333 55065
AAXX 21001 11816 12960 40000 11056 21079 39969 40141 57001 60001 84040 333 55076 84362
AAXX 21001 11819 36/// /0302 11061 21074 39916 40143 57001 333 55068
AAXX 21001 11826 17/57 /9902 11079 21092 39930 40141 57002 60001 71000 333 55000
AAXX 21001 11841 16/// /1001 11084 21099 39752 40149 54000 60001 333 55058
AAXX 21001 11855 16/// /9901 11068 21079 39967 40142 54000 60001 333 55000
AAXX 21001 11856 36/// /9901 11061 21072 39809 40143 52002 333 55060
AAXX 21001 11858 16/// /2001 11066 21073 39983 40143 52002 60001 333 55057
AAXX 21001 11867 17/47 /0000 11080 21101 39813 40147 54000 60001 71000 333 55050
AAXX 21001 11880 16/// /0601 11080 21089 39963 40144 52002 60001 333 55028
AAXX 21001 11900 16/// /0000 11077 21091 39799 40152 52004 60001 333 55043
AAXX 21001 11903 12960 00000 11087 21092 39745 40148 51001 60001 333 55033
AAXX 21001 11916 46/// /3407 11139 21168 37838 48371 52002 6///1
AAXX 21001 11918 46/// ///// 11093 21102 39289 42726 57001 6///1
AAXX 21001 11927 16/// /2301 11054 21059 39862 40136 52002 60001 333 55019
AAXX 21001 11930 46/// /3305 11173 21189 37212 47864 52002 6///1 333 55000
AAXX 21001 11933 16/// /9901 11123 21136 38563 48381 57005 60001 333 55021
AAXX 21001 11934 12470 72604 11058 21081 39282 42723 58004 60001 876// 333 55012 87713
AAXX 21001 11938 16/// /0702 11109 21124 39031 42720 57004 60001
AAXX 21001 11952 16/// /3002 11073 21086 39274 42723 57003 60001 333 55023
AAXX 21001 11958 36/// /2202 11087 21099 38651 48384 57001 333 55///
AAXX 21001 11968 12780 19901 11020 21060 39835 40124 50000 60001 81500 333 55000 81650
AAXX 21001 11976 16/// /9901 11005 21038 39853 40123 57002 60001 333 55000
AAXX 21001 11978 16/// /3402 10003 21032 39985 40118 57001 60001 333 55000
AAXX 21001 11993 16/// /1901 11006 21013 39902 40124 57002 60001 333 55000
AAXX 21003 91502 11470 43606 10319 20254 40060 50002 60394 71521 84901 333 20245 56809 59007 84816 81917
AAXX 21003 91507 11470 61604 10304 20245 40066 58001 60034 71522 84933 333 20241 56299 59014 82817 81918 83630 85361
AAXX 21003 91520 11575 30505 10306 20254 40066 58005 69984 70510 82235 333 20244 56100 59012 82820
AAXX 21003 91541 32480 50000 10305 20254 40087 57004 82206 333 20235 56000 59009 82818 85281
AAXX 21001 02807 47456 82204 11051 21055 39844 40030 771// 88/// 90000
AAXX 21001 02913 47381 81703 10009 20003 39987 40039 771// 88///
AAXX 21004 60150 32960 00000 10064 20049 39635 40312 56005
AAXX 21004 60155 32960 216// 10114 20098 40290 53001 80002 333 82070
AAXX 21004 60096 NIL
AAXX 21004 60101 NIL
AAXX 21004 60115 NIL
AAXX 21004 60135 NIL
AAXX 21004 60156 NIL
AAXX 21004 60230 NIL
AAXX 21004 60252 NIL
AAXX 21001 02917 47399 81804 10000 21006 39956 40080 700// 88/// 90000
AAXX 21004 64500 11360 82008 10265 20244 30101 40114 69921 72166 885// 333 0//11 58005 84608 88630VERSION CORRECTE
AAXX 21004 89642 42580 23035 11008 21024 39786 49839 52009 82800 333 02943 11005 21020 82820
BBXX DBLK 21001 99705 50081 41/97 /2206 11065 21081 49805 57011 7//// 22200 05017
AAXX 21004 60285 NIL
AAXX 21004 60340 NIL
BBXX BATFR54 21004 99532 70049 46/// /2418 10105 20099 40130 56015 22282 00104
AAXX 21003 91502 11470 43606 10319 20254 40060 50002 60394 71521 84901 333 20245 56809 59007 84816 81917
AAXX 21003 91507 11470 61604 10304 20245 40066 58001 60034 71522 84933 333 20241 56299 59014 82817 81918 83630 85361
AAXX 21003 91520 11575 30505 10306 20254 40066 58005 69984 70510 82235 333 20244 56100 59012 82820
AAXX 21003 91541 32480 50000 10305 20254 40087 57004 82206 333 20235 56000 59009 82818 85281
AAXX 21004 78862 11478 70413 10250 20197 30147 40170 60001 70522 84202 333 10272 20242 58004 84817 86076
AAXX 21004 TAF TQPF 202200Z 2100/2124 05016KT 9999 SCT022 PROB30 TEMPO 2100/2114 SHRA BKN018 BKN036
AAXX 21004 TAF TUPJ 202200Z 2100/2124 05016KT 9999 SCT022 PROB30 TEMPO 2100/2114 SHRA BKN018 BKN036
AAXX 21004 PROB40 TEMPO 1818/1918 5000 SHRA BKN015 BKN035
AAXX 21004 EMPO 0600/0624 SHRA BKN015=+TSRA SCT012CB
AAXX 21004 TAF TUPJ 041000Z 04012/0512 07008KT 9999 SCT016 BKN038 SCT270 TEMPO 0412/0512 SHRA BKN015 PROB40 TEMPO 0418/0512 5000 SHRA BKN014 BKN036 PROB30 0420/0512 4000 TSRA FEW012CB
AAXX 21004 918 4000 TSRA FEW012CB
AAXX 21004 N015 BKN036 PROB40 TEMPO 0704/0724 3000 +TSRA SCT011CB BKN012 BECMG 0712/0714 14008KT
AAXX 21004 21/2712 07017G28KT 5000 SHRA BKN015 BKN036 PROB TEMPO 2700/2712 4000 TSRA FEW013CB
AAXX 21004 PROB30 TEMPO 0800/0806 4000 TSRA FEW012CB PROB40 TEMPO 0800/0824 2000 +SHRA/TSRA SCT010CB BKN012 BKN250
AAXX 21004 78958 11572 50905 10266 20221 30129 40139 69901 70682 84842 333 10303 20233 59002 82821 83640 85077
AAXX 21001 76040 32960 23301 10176 20109 30130 40144 57009 82030 92345 333 10178 20056 30/// 50180 56070 59013 82375 98660
AAXX 21001 76122 32570 21102 10099 21020 38482 40118 57006 81120 92345 333 10120 21032 30/// 50311 56590 58/// 70000 81835
AAXX 21001 76220 32858 12404 10124 21017 38079 40103 57006 81030 92340 333 10142 21036 30/// 50151 56050 58/// 70000
AAXX 21001 76225 32760 50701 10109 21028 38575 40100 53005 85038 92345 333 10118 20008 30/// 50121 56055 58005 70000 83350 82870
AAXX 21001 76256 32980 02001 10185 20100 30119 40133 57008 92345 333 10215 20081 30/// 50150 59047 70000
AAXX 21001 76305 32970 00402 10200 20100 30112 40119 57009 92350 333 10218 20100 30/// 50211 59047 70000
AAXX 21001 76323 32570 73601 10138 21018 38221 40147 57018 83202 92340 333 10168 20011 30/// 50421 56505 58012 70000 83630 84268
AAXX 21001 76342 31862 60303 10144 20042 39467 40179 52005 70321 86020 92350 333 10184 20090 30/// 50371 56050 58051 70000 86458
AAXX 21001 76382 32980 20000 10226 20142 38834 40066 57010 80008 92347 333 10264 20063 30/// 50311 56001 58002 70000 82274
AAXX 21001 76390 31864 11405 10155 20055 38183 40063 54000 70544 81040 92330 333 10228 20065 30/// 50571 56080 58011 70000 81356
AAXX 21001 76393 32950 31250 10184 20082 39553 40123 52007 83010 92345 333 10228 20140 30/// 50421 56030 58049 70000 83460
AAXX 21001 76402 31562 52903 10184 20103 30068 40126 57007 70544 85500 92340 333 10203 20056 30/// 50261 56600 59034 70000 85628
AAXX 21001 76423 32584 52405 10182 38107 40093 52001 82144 92355 333 10230 21012 30/// 50470 56999 59005 70000 81820 81627 81357 82067
AAXX 21001 76458 32870 73204 10202 20129 30109 40114 57002 82054 92346 333 10232 20098 30/// 50171 56075 59013 70000 82358 85079
AAXX 21001 76491 32660 63605 10224 20142 39747 40131 52010 86500 92350 333 10279 20147 30/// 50231 56800 59/// 70000 86640
AAXX 21001 76519 32560 62704 10201 20042 38329 40105 57003 81102 92350 333 10238 20030 30/// 50341 56506 58004 70000 81823 85070
AAXX 21001 76525 32780 82411 10129 20004 37433 40081 55001 82101 92340 333 10161 20060 30/// 50531 565/5 59004 70000 82850 86080 91111
AAXX 21001 76543 32975 03602 10279 20184 30078 40111 53012 92340 333 10312 20142 30/// 5//// 58/// 70000
AAXX 21001 76548 32570 10505 10232 20209 30103 40113 53011 81100 92335 333 10286 20194 30/// 50111 56100 58006 70000 81822
AAXX 21001 76556 32970 22103 10220 20153 39092 40103 57009 80002 92330 333 10268 20105 30/// 50231 56007 59007 70000 82070
AAXX 21001 76571 32770 42101 10212 21052 38124 40076 55004 82204 92348 333 10238 20050 30/// 50741 56505 59009 70000 82850
AAXX 21001 76577 32970 02305 10204 20149 38005 40077 56008 92340 333 10230 20074 30/// 50271 59008 70000
AAXX 21001 76581 32970 01105 10260 20155 38983 40055 52004 92350 333 10315 20078 30/// 50430 59004 70000
AAXX 21001 76593 32350 31403 10278 20254 30110 40112 53008 81240 92350 333 10324 20195 30/// 50430 5633/ 59028 70000 81820 82330 91005 91514
AAXX 21001 76612 32662 43102 10215 20071 38434 40077 55004 81130 92350 333 10269 20070 30/// 50221 56550 59012 70000 81840 83358
AAXX 21001 76625 32550 03203 10214 20035 38102 40038 54002 92345 333 10246 20104 30/// 50290 56000 58000 70000
AAXX 21001 76632 31656 40706 10160 20095 37600 40046 57002 70511 84400 92340 333 10210 20078 30/// 5//// 56100 58/// 59/// 70000 84640
AAXX 21001 76634 31670 50402 10168 20078 37822 40074 52010 70511 85100 92350 333 10239 20093 30/// 50381 563// 58000 70000 85840
AAXX 21001 76644 32460 11202 10278 20204 30100 40114 52008 81200 92350 333 10329 20199 30/// 50451 56300 59027 70000 81820
AAXX 21001 76654 31456 02301 10273 20216 30111 40115 55002 70544 81100 92350 333 10305 20222 30/// 50311 56900 59012 70000 81820
AAXX 21001 76658 31560 12307 10265 20191 39595 40091 57005 70540 81200 92343 333 10314 20170 30/// 50370 56100 59010 70000 81822 94084 98904
AAXX 21001 76662 32670 12503 10234 20061 38422 40070 57005 81100 92345 333 10270 20052 30/// 50600 56/00 59016 70000 81833
AAXX 21001 76665 31964 01602 10200 20095 38083 40060 57005 70102 92350 333 10264 20065 30/// 50300 59009 70000
AAXX 21001 76675 31575 12003 10150 20050 37352 40075 52005 70544 81100 92348 333 10204 21017 30/// 50291 569// 59007 70000 81826 98475
AAXX 21001 76680 31568 32904 10203 20012 37714 40046 55012 70544 83800 92340 333 10235 20079 30/// 50361 56500 57881 59013 70000 83827
AAXX 21001 76685 32970 01401 10190 20024 37834 40059 57001 92350 333 10238 20052 30/// 50271 59017 70000
AAXX 21001 76687 32966 01401 10204 20160 38641 40085 53006 92345 333 10270 20115 30/// 50300 59013 70000
AAXX 21001 76692 31956 00703 10254 20205 30072 40091 55000 71044 92345 333 10277 20179 30/// 50261 59027 70000
AAXX 21001 76695 32956 00602 10274 20197 30086 40092 52005 92345 333 10326 20174 30/// 50220 59032 70000
AAXX 21001 76698 32558 11201 10253 20219 30121 40132 52010 81200 92350 333 10322 20199 30/// 50121 56300 59018 70000 81820
AAXX 21001 76737 32980 03201 10216 20172 38734 40073 52010 92335 333 10293 20121 30/// 50331 59011 70000 91106 91514
AAXX 21001 76743 31956 00901 10278 20240 30078 40086 63008 70000 92350 333 10300 20192 30/// 50310 560// 59003 70000
AAXX 21001 76750 32558 31102 10264 20231 30109 40119 52005 81107 92345 333 10308 20206 30/// 50161 56306 59023 70000 81820
AAXX 21001 76773 31568 22701 10244 20081 38377 40046 57008 70500 81101 92346 333 10276 20041 30/// 50381 56209 59018 70000 81820
AAXX 21001 76775 31565 51901 10252 20052 38471 40060 57004 70300 83460 82345 333 10291 20084 30/// 50371 56880 59015 70000 81827 82627
AAXX 21001 76805 32570 72602 10278 20230 30089 40095 53003 82131 92350 333 10312 20230 30/// 50431 56766 59010 70000 82830 82356 83062
AAXX 21001 76833 31570 31806 10271 20243 30084 40086 57002 70300 83500 92345 333 10306 20188 30/// 5//// 56400 59016 70000 83620 92002
AAXX 21001 76843 32765 20801 10288 20153 39438 40066 53003 81104 92340 333 10326 20160 30/// 50261 568// 59022 70000 81823
AAXX 21001 76845 32960 00000 10172 20115 37923 40120 51006 92340 333 10228 20038 30/// 50281 59011 70000
AAXX 21001 76848 32570 50000 10199 20118 38353 40022 53002 81231 92350 333 10272 20093 30/// 50211 56199 59018 70000 81833 83360
AAXX 21001 76855 32580 42701 10284 20229 30048 40097 55002 81228 92345 333 10335 20216 30/// 50410 56999 59005 70000 81820 81458 92001
AAXX 21001 76903 31770 52801 10283 20215 39964 40094 53005 70122 82580 92355 333 10337 20224 30/// 50611 56190 59015 70000 82650 83358
AAXX 21001 76160 32962 02301 10190 20041 39866 40116 57006 92331 333 10195 20035 30/// 50130 59051 70000
AAXX 21001 76243 32472 83603 10130 20036 39857 40155 57004 884// 92335 333 10140 20062 30/// 50281 568// 58052 70000 88616
AAXX 21001 76253 32582 10502 10162 20097 30039 40129 56001 81600 92348 333 10215 20110 30/// 50441 56700 59046 70000 81620 92002
AAXX 21001 76311 32680 62701 10205 20056 39823 40100 57014 86400 92345 333 10251 20072 30/// 50200 56500 59027 70000 86625
AAXX 21001 76405 32980 13202 10230 20131 30096 40117 57013 81050 92350 333 10242 20087 30/// 50253 56050 59041 70000 81457
AAXX 21001 76412 31966 72201 10222 20062 30092 40137 57009 70544 87050 92345 333 10256 20060 30/// 50330 56050 58000 70000 87356
AAXX 21001 76640 31358 23601 10250 20233 30106 40118 52009 70200 824// 92340 333 10276 20172 30/// 50121 567// 59006 70000 82607
AAXX 21001 76647 32465 11402 10261 20215 30107 40138 52016 81100 92350 333 10320 20206 32/// 50421 56300 59021 70012 81818
AAXX 21001 76741 31970 03602 10260 20243 30052 40070 52020 70544 92330 333 10315 20176 30/// 50131 59034 70000
AAXX 21004 17600 12560 40207 10121 20086 30172 40182 53006 60001 84800 333 81820 84645
AAXX 21004 17601 12662 12705 10149 20110 30146 40177 53007 60001 81500 92350 333 81630
AAXX 21004 17607 NIL
AAXX 21004 17609 11545 43004 10141 20123 30172 40176 53007 60001 71011 84500 333 83620
AAXX 21001 76040 32960 23301 10176 20109 30130 40144 57009 82030 92345333 10178 20056 30/// 50180 56070 59013 82375 98660
AAXX 21001 76122 32570 21102 10099 21020 38482 40118 57006 81120 92345333 10120 21032 30/// 50311 56590 58/// 70000 81835
AAXX 21001 76220 32858 12404 10124 21017 38079 40103 57006 81030 92340333 10142 21036 30/// 50151 56050 58/// 70000
AAXX 21001 76225 32760 50701 10109 21028 38575 40100 53005 85038 92345333 10118 20008 30/// 50121 56055 58005 70000 83350 82870
AAXX 21001 76256 32980 02001 10185 20100 30119 40133 57008 92345 33310215 20081 30/// 50150 59047 70000
AAXX 21001 76305 32970 00402 10200 20100 30112 40119 57009 92350 33310218 20100 30/// 50211 59047 70000
AAXX 21001 76323 32570 73601 10138 21018 38221 40147 57018 83202 92340333 10168 20011 30/// 50421 56505 58012 70000 83630 84268
AAXX 21001 76342 31862 60303 10144 20042 39467 40179 52005 70321 8602092350 333 10184 20090 30/// 50371 56050 58051 70000 86458
AAXX 21001 76382 32980 20000 10226 20142 38834 40066 57010 80008 92347333 10264 20063 30/// 50311 56001 58002 70000 82274
AAXX 21001 76390 31864 11405 10155 20055 38183 40063 54000 70544 8104092330 333 10228 20065 30/// 50571 56080 58011 70000 81356
AAXX 21001 76393 32950 31250 10184 20082 39553 40123 52007 83010 92345333 10228 20140 30/// 50421 56030 58049 70000 83460
AAXX 21001 76402 31562 52903 10184 20103 30068 40126 57007 70544 8550092340 333 10203 20056 30/// 50261 56600 59034 70000 85628
AAXX 21001 76423 32584 52405 10182 38107 40093 52001 82144 92355 33310230 21012 30/// 50470 56999 59005 70000 81820 81627 8135782067
AAXX 21001 76458 32870 73204 10202 20129 30109 40114 57002 82054 92346333 10232 20098 30/// 50171 56075 59013 70000 82358 85079
AAXX 21001 76491 32660 63605 10224 20142 39747 40131 52010 86500 92350333 10279 20147 30/// 50231 56800 59/// 70000 86640
AAXX 21001 76519 32560 62704 10201 20042 38329 40105 57003 81102 92350333 10238 20030 30/// 50341 56506 58004 70000 81823 85070
AAXX 21001 76525 32780 82411 10129 20004 37433 40081 55001 82101 92340333 10161 20060 30/// 50531 565/5 59004 70000 82850 8608091111
AAXX 21001 76543 32975 03602 10279 20184 30078 40111 53012 92340 33310312 20142 30/// 5//// 58/// 70000
AAXX 21001 76548 32570 10505 10232 20209 30103 40113 53011 81100 92335333 10286 20194 30/// 50111 56100 58006 70000 81822
AAXX 21001 76556 32970 22103 10220 20153 39092 40103 57009 80002 92330333 10268 20105 30/// 50231 56007 59007 70000 82070
AAXX 21001 76571 32770 42101 10212 21052 38124 40076 55004 82204 92348333 10238 20050 30/// 50741 56505 59009 70000 82850
AAXX 21001 76577 32970 02305 10204 20149 38005 40077 56008 92340 33310230 20074 30/// 50271 59008 70000
AAXX 21001 76581 32970 01105 10260 20155 38983 40055 52004 92350 33310315 20078 30/// 50430 59004 70000
AAXX 21001 76593 32350 31403 10278 20254 30110 40112 53008 81240 92350333 10324 20195 30/// 50430 5633/ 59028 70000 81820 8233091005 91514
AAXX 21001 76612 32662 43102 10215 20071 38434 40077 55004 81130 92350333 10269 20070 30/// 50221 56550 59012 70000 81840 83358
AAXX 21001 76625 32550 03203 10214 20035 38102 40038 54002 92345 33310246 20104 30/// 50290 56000 58000 70000
AAXX 21001 76632 31656 40706 10160 20095 37600 40046 57002 70511 8440092340 333 10210 20078 30/// 5//// 56100 58/// 59/// 7000084640
AAXX 21001 76634 31670 50402 10168 20078 37822 40074 52010 70511 8510092350 333 10239 20093 30/// 50381 563// 58000 70000 85840
AAXX 21001 76644 32460 11202 10278 20204 30100 40114 52008 81200 92350333 10329 20199 30/// 50451 56300 59027 70000 81820
AAXX 21001 76654 31456 02301 10273 20216 30111 40115 55002 70544 8110092350 333 10305 20222 30/// 50311 56900 59012 70000 81820
AAXX 21001 76658 31560 12307 10265 20191 39595 40091 57005 70540 8120092343 333 10314 20170 30/// 50370 56100 59010 70000 8182294084 98904
AAXX 21001 76662 32670 12503 10234 20061 38422 40070 57005 81100 92345333 10270 20052 30/// 50600 56/00 59016 70000 81833
AAXX 21001 76665 31964 01602 10200 20095 38083 40060 57005 70102 92350333 10264 20065 30/// 50300 59009 70000
AAXX 21001 76675 31575 12003 10150 20050 37352 40075 52005 70544 8110092348 333 10204 21017 30/// 50291 569// 59007 70000 8182698475
AAXX 21001 76680 31568 32904 10203 20012 37714 40046 55012 70544 8380092340 333 10235 20079 30/// 50361 56500 57881 59013 7000083827
AAXX 21001 76685 32970 01401 10190 20024 37834 40059 57001 92350 33310238 20052 30/// 50271 59017 70000
AAXX 21001 76687 32966 01401 10204 20160 38641 40085 53006 92345 33310270 20115 30/// 50300 59013 70000
AAXX 21001 76692 31956 00703 10254 20205 30072 40091 55000 71044 92345333 10277 20179 30/// 50261 59027 70000
AAXX 21001 76695 32956 00602 10274 20197 30086 40092 52005 92345 33310326 20174 30/// 50220 59032 70000
AAXX 21001 76698 32558 11201 10253 20219 30121 40132 52010 81200 92350333 10322 20199 30/// 50121 56300 59018 70000 81820
AAXX 21001 76737 32980 03201 10216 20172 38734 40073 52010 92335 33310293 20121 30/// 50331 59011 70000 91106 91514
AAXX 21001 76743 31956 00901 10278 20240 30078 40086 63008 70000 92350333 10300 20192 30/// 50310 560// 59003 70000
AAXX 21001 76750 32558 31102 10264 20231 30109 40119 52005 81107 92345333 10308 20206 30/// 50161 56306 59023 70000 81820
AAXX 21001 76773 31568 22701 10244 20081 38377 40046 57008 70500 8110192346 333 10276 20041 30/// 50381 56209 59018 70000 81820
AAXX 21001 76775 31565 51901 10252 20052 38471 40060 57004 70300 8346082345 333 10291 20084 30/// 50371 56880 59015 70000 8182782627
AAXX 21001 76805 32570 72602 10278 20230 30089 40095 53003 82131 92350333 10312 20230 30/// 50431 56766 59010 70000 82830 8235683062
AAXX 21001 76833 31570 31806 10271 20243 30084 40086 57002 70300 8350092345 333 10306 20188 30/// 5//// 56400 59016 70000 8362092002
AAXX 21001 76843 32765 20801 10288 20153 39438 40066 53003 81104 92340333 10326 20160 30/// 50261 568// 59022 70000 81823
AAXX 21001 76845 32960 00000 10172 20115 37923 40120 51006 92340 33310228 20038 30/// 50281 59011 70000
AAXX 21001 76848 32570 50000 10199 20118 38353 40022 53002 81231 92350333 10272 20093 30/// 50211 56199 59018 70000 81833 83360
AAXX 21001 76855 32580 42701 10284 20229 30048 40097 55002 81228 92345333 10335 20216 30/// 50410 56999 59005 70000 81820 8145892001
AAXX 21001 76903 31770 52801 10283 20215 39964 40094 53005 70122 8258092355 333 10337 20224 30/// 50611 56190 59015 70000 8265083358
AAXX 21001 76160 32962 02301 10190 20041 39866 40116 57006 92331 33310195 20035 30/// 50130 59051 70000
AAXX 21001 76243 32472 83603 10130 20036 39857 40155 57004 884// 92335333 10140 20062 30/// 50281 568// 58052 70000 88616
AAXX 21001 76253 32582 10502 10162 20097 30039 40129 56001 81600 92348333 10215 20110 30/// 50441 56700 59046 70000 81620 92002
AAXX 21001 76311 32680 62701 10205 20056 39823 40100 57014 86400 92345333 10251 20072 30/// 50200 56500 59027 70000 86625
AAXX 21001 76405 32980 13202 10230 20131 30096 40117 57013 81050 92350333 10242 20087 30/// 50253 56050 59041 70000 81457
AAXX 21001 76412 31966 72201 10222 20062 30092 40137 57009 70544 8705092345 333 10256 20060 30/// 50330 56050 58000 70000 87356
AAXX 21001 76640 31358 23601 10250 20233 30106 40118 52009 70200 824//92340 333 10276 20172 30/// 50121 567// 59006 70000 82607
AAXX 21001 76647 32465 11402 10261 20215 30107 40138 52016 81100 92350333 10320 20206 32/// 50421 56300 59021 70012 81818
AAXX 21001 76741 31970 03602 10260 20243 30052 40070 52020 70544 92330333 10315 20176 30/// 50131 59034 70000
AAXX 21004 78958 11572 50905 10266 20221 30129 40139 69901 70682 84842 333 10303 20233 59002 82821 83640 85077
AAXX 21004 86011 31670 40000 10340 20224 39905 40070 51009 71392 84900 333 10398 55115 83630 81940
AAXX 21004 86033 32870 20000 10322 20231 39984 40077 53005 83090 333 10386 55113 83457
AAXX 21004 86065 32670 20000 10316 20219 39827 40056 53020 81209 333 10400 55123 81840 81170
AAXX 21004 86068 31570 30905 10292 20200 39868 40056 52025 71791 83900 333 10400 55095 82630 81940
AAXX 21004 86086 32870 60000 10324 20160 39982 40069 52002 84076 333 10380 55095 84457 82270
AAXX 21004 86097 02970 43506 10252 20185 39454 40090 53008 69991 80006 333 10354 55093 84270
AAXX 21004 86128 31670 53606 10296 20195 39952 40063 52020 71322 84970 333 10394 55114 84840 81940 85457
AAXX 21004 86134 32970 20000 10308 20239 39970 40054 54000 80005 333 10385 55080 82270
AAXX 21004 86170 32870 30604 10322 20139 39943 40042 53013 83030 333 10405 55124 83358
AAXX 21004 86185 32970 00000 10282 20187 39986 40078 52018 333 10386 55122
AAXX 21004 86192 32970 00000 10294 20090 39890 40106 51013 333 10375 55///
AAXX 21004 86210 32970 01402 10284 20100 39734 40068 52002 333 10352 55130
AAXX 21004 86218 31959 01103 10297 20134 39972 40066 53006 70400 333 10388 55128
AAXX 21004 86221 32970 00000 10320 20160 39953 40073 57005 333 10396 55117
AAXX 21004 86233 32970 00502 10292 20162 39905 40091 51005 333 10380 55130
AAXX 21004 86234 32970 00000 10280 20148 39850 40030 53015 333 10375 55130
AAXX 21004 86246 32970 01903 10304 20154 39796 40074 51003 333 10366 55128
AAXX 21004 86251 31670 53606 10296 20195 39952 40063 52020 71322 84970 333 10394 55114 84840 81940 85457
AAXX 21004 86255 32970 00904 10304 20174 30005 40071 53017 333 10410 55105
AAXX 21004 86260 32970 00000 10300 20210 39917 40065 54000 333 10380 55082
AAXX 21004 86268 32970 00602 10330 20156 39915 40074 56014 333 10376 55120
AAXX 21004 86285 32970 00905 10300 20175 39800 40074 54000 333 10382 55118
AAXX 21004 86297 32970 02302 10308 20223 39960 40061 52010 333 10395 55///
AAXX 21004 96315 31470 71502 10271 20252 40077 60054 70292 81968 333 20249 55086 81815 81916 86080
AAXX 21004 96323 NIL
AAXX 21004 96315 31470 71502 10271 20252 40077 60054 70292 81968 333 20249 55086 81815 81916 86080
AAXX 21004 96323 NIL
AAXX 21004 71805 04685 83023 11015 21072 30021 40030 53040 69901 700// 333 42/// 69907 91034 90710 91135 555 69905
AAXX 21004 40272 32960 00000 10080 21024 39360 40191 54000
AAXX 21001 01241 11430 81503 10002 21020 30010 40021 53013 69911 77072 887// 333 91111
AAXX 21001 01003 11670 80808 11034 21047 30078 40090 52003 69921 72272 875//
AAXX 21001 45007 11557 70306 10191 20097 30193 40202 53024 69902 70262 84501 333 20181 59011 79999 81630 83645 85080
AAXX 21003 91802 NIL
AAXX 21003 91809 NIL
AAXX 21003 91831 36/// /0808 10288 20226 40126 57007
AAXX 21003 91841 36/// /1109 10285 20205 40119 57018 333 20285
AAXX 21003 91843 31599 40711 10297 20237 40127 57016 60001 70200 84200 333 20244 561// 333 70000 84825
AAXX 21003 91848 36/// /1306 10307 20216 40141 52038 333 20307
AAXX 21001 45007 11557 70306 10191 20097 30193 40202 53024 69902 70262 84501 333 20181 59011 79999 81630 83645 85080
AAXX 21004 91772 31598 30706 10311 20248 4//// 60001 70210 83200 333 20242 561// 70005 83820
AAXX 21004 91776
AAXX 21004 91779 31498 40809 10292 20234 40117 58005 60001 70210 82201 333 20220 562/9 70000 82819 84080
AAXX 21004 91784 31498 70306 10294 20246 40115 58004 60001 70222 8223/ 333 20236 5619/ 70352 82817 87361
AAXX 21004 91792 11498 71206 10270 20255 40129 58005 60044 70362 8573/ 333 20229 5639/ 70450 82710 85815 87360
AAXX 21001 45032 36/// /1601 10162 20139 30183 40200 54000
AAXX 21001 45035 36/// /0603 10175 20110 30160 40202 52001
AAXX 21001 45039 36/// /0102 10181 20107 30185 40200 52003
AAXX 21001 45044 36/// /0105 10175 20117 30103 40196 52002
AAXX 21004 61970 16/// ///// 10266 20207 40103 60001 333 58012 555 60005
AAXX 21004 61980 12560 31405 10252 20207 40117 60001 81130 333 58017 81823 83368 90710 91108 924/7 555 60005
AAXX 21004 67005 14/// /9901 10246 20232 40102 69901 700// 333 58010 90710 91105 555 60005
AAXX 21001 45032 36/// /1601 10162 20139 30183 40200 54000
AAXX 21001 45035 36/// /0603 10175 20110 30160 40202 52001
AAXX 21001 45039 36/// /0102 10181 20107 30185 40200 52003
AAXX 21001 45044 36/// /0105 10175 20117 30103 40196 52002
AAXX 21004 48601 11558 70305 10260 20233 30086 40090 60004 70522 82832 333 20254 50440 58005 70000 81820 84364 87077
AAXX 21004 48615 11457 72103 10239 20232 30086 40092 60124 72162 85748 333 20236 50370 59002 70122 81710 84620 87272
AAXX 21004 48620 11561 70402 10240 20229 30082 40091 69924 70522 81852 333 20235 50230 58003 70002 81820 85364
AAXX 21004 48647 11040 70201 10251 20245 30066 40091 60094 71022 84948 333 20245 50210 58003 70092 81700 81917 84364 87276
AAXX 21004 48657 11257 83402 10234 20231 30070 40088 60104 76166 84687 333 20233 50320 59003 70098 82705 84624 88276
AAXX 21004 48665 11050 70000 10236 20231 30082 40092 60004 71022 82372 333 20233 50180 59001 70000 81700 81917 85364 85078
AAXX 21004 96413 11056 71603 10255 20249 30061 40087 60014 72166 85541 333 20249 50310 58008 70010 82700 83620 86365
AAXX 21004 96421 11170 71503 10254 20249 30048 40084 60014 72842 87631 333 20245 50280 55069 58003 70010 83702 84614 85365
AAXX 21004 96441 12480 71004 10257 20243 30050 40077 60004 83931 333 20243 50350 55069 59008 70000 81915 85365
AAXX 21004 96449 12480 71103 10268 20250 30058 40077 60334 82941 333 20242 50340 59009 70332 82814 81915 86080
AAXX 21004 96465 12478 73003 10284 20260 30048 40081 60004 82842 333 20258 50510 55099 59004 70000 82812 87080
AAXX 21004 96471 11470 61203 10286 20249 30076 40079 60004 70522 81932 333 20259 50400 59006 70000 81815 81917 86080
AAXX 21004 96481 12462 63001 10261 20244 30070 40089 69964 82841 333 20235 50310 55087 59007 70006 81817 85080
AAXX 21004 96491 11464 73004 10272 20250 30075 40087 60014 70522 81832 333 20250 50380 55077 59016 70010 81817 87080
AAXX 21004 48601 11558 70305 10260 20233 30086 40090 60004 70522 82832 333 20254 50440 58005 70000 81820 84364 87077
AAXX 21004 48615 11457 72103 10239 20232 30086 40092 60124 72162 85748 333 20236 50370 59002 70122 81710 84620 87272
AAXX 21004 48620 11561 70402 10240 20229 30082 40091 69924 70522 81852 333 20235 50230 58003 70002 81820 85364
AAXX 21004 48647 11040 70201 10251 20245 30066 40091 60094 71022 84948 333 20245 50210 58003 70092 81700 81917 84364 87276
AAXX 21004 48650 11056 73301 10239 20234 30071 40090 60124 71022 82942 333 20235 58004 70124 81700 81917 84364 86078
AAXX 21004 48657 11257 83402 10234 20231 30070 40088 60104 76166 84687 333 20233 50320 59003 70098 82705 84624 88276
AAXX 21004 48665 11050 70000 10236 20231 30082 40092 60004 71022 82372 333 20233 50180 59001 70000 81700 81917 85364 85078
AAXX 21004 96413 11056 71603 10255 20249 30061 40087 60014 72166 85541 333 20249 50310 58008 70010 82700 83620 86365
AAXX 21004 96421 11170 71503 10254 20249 30048 40084 60014 72842 87631 333 20245 50280 55069 58003 70010 83702 84614 85365
AAXX 21004 96441 12480 71004 10257 20243 30050 40077 60004 83931 333 20243 50350 55069 59008 70000 81915 85365
AAXX 21004 96449 12480 71103 10268 20250 30058 40077 60334 82941 333 20242 50340 59009 70332 82814 81915 86080
AAXX 21004 96465 12478 73003 10284 20260 30048 40081 60004 82842 333 20258 50510 55099 59004 70000 82812 87080
AAXX 21004 96471 11470 61203 10286 20249 30076 40079 60004 70522 81932 333 20259 50400 59006 70000 81815 81917 86080
AAXX 21004 96481 12462 63001 10261 20244 30070 40089 69964 82841 333 20235 50310 55087 59007 70006 81817 85080
AAXX 21004 96491 11464 73004 10272 20250 30075 40087 60014 70522 81832 333 20250 50380 55077 59016 70010 81817 87080
AAXX 21001 06206 46578 82908 10078 20016 30083 40136 51008 8//// 333 83/23 83/27 85/63 91010 91115 91212
AAXX 21001 06207 45575 8//09 10062 21003 30075 40130 51009 8//// 333 81/29 83/49 88/62 91011 91117 91213
AAXX 21001 06239 47580 8//09 10074 20013 3//// 4//// 5//// 70380 8//// 333 83/28 84/31 85/45 91011 91115 91213
AAXX 21001 06252 46/// /3007 10074 20028 30099 40145 51005 222// 00095 10704 333 91008 91113 91211
AAXX 21001 06260 17571 82602 10047 20025 30153 40155 50007 69911 72385 8//// 333 82/23 84/28 85/36 91003 91108 91204
AAXX 21001 06270 17568 82904 10052 20025 30132 40132 51010 69991 70286 8//// 333 81/31 83/65 88/69 91005 91112 91209
AAXX 21001 06290 17568 82703 10046 20023 30099 40140 51014 69921 72286 8//// 333 81/26 83/31 86/43 91005 91112 91207
AAXX 21001 06201 45969 22906 10072 20034 30080 40133 51002 8//// 333 82/66 91007 91114 91211
AAXX 21001 06203 45468 4//08 10074 20032 30106 40157 50001 8//// 333 82/16 83/21 91010 91112 91210
AAXX 21001 06204 45476 73006 10073 20030 30093 40144 51004 8//// 333 82/18 83/21 87/56 91009 91113 91211
AAXX 21001 06205 47579 83007 10075 20015 30050 40109 50002 70385 8//// 333 82/27 83/38 88/62 91008 91114 91211
AAXX 21001 06208 47567 83010 10069 20026 30072 40121 51012 70280 8//// 333 81/22 83/27 86/45 91012 91119 91214
AAXX 21001 06211 47475 62608 10072 20031 30082 40138 51004 72386 8//// 333 83/16 83/18 86/56 91009 91114 91212
AAXX 21001 06212 45580 62909 1//// 2//// 30083 40146 53005 8//// 333 82/20 83/25 85/34 91010 91114 91212
AAXX 21001 06235 17971 83006 10067 20018 30145 40145 51007 69951 70280 8//// 333 88/61 91008 91113 91208
AAXX 21001 06240 17668 82905 10059 20034 30158 40153 51005 69951 70285 8//// 333 81/37 85/47 85/50 91007 91112 91208
AAXX 21001 06251 17969 83007 10066 20020 30131 40132 51008 69911 70285 8//// 333 88/63 91010 91115 91209
AAXX 21001 06258 46/// /2906 333 91007 91113 91210
AAXX 21001 06269 17578 83004 10052 20023 30155 40149 52008 60001 70285 8//// 333 81/30 84/49 88/56 91007 91110 91207
AAXX 21001 06280 17572 82703 10041 20029 30124 40128 51014 69971 72385 8//// 333 86/25 87/30 88/46 91005 91114 91210
AAXX 21001 06310 15873 72805 10069 20037 30163 40173 51002 60001 8//// 333 87/57 87/62 91007 91108 91205
AAXX 21001 06344 17873 82803 10056 20032 30166 40159 52002 69931 70285 8//// 333 88/58 91005 91113 91207
AAXX 21001 06370 17565 82403 10041 20030 30139 40165 51006 60001 70285 8//// 333 81/22 88/62 91005 91107 91205
AAXX 21001 06380 17563 52403 10032 20022 30035 40177 51008 69971 70185 8//// 333 82/25 85/62 91005 91107 91204
AAXX 21001 37682 32997 33301 11114 21120 38198 48600 57004 83040
AAXX 21001 37717 325// 20000 11033 21076 38128 48559 57007 82500 555 1/110
AAXX 21001 37788 41495 62502 11035 21046 39310 40361 57005 71022 866// 333 86711
AAXX 21004 16008 11457 60406 11042 21073 38458 48422 52010 69901 71072 86700 333 86714 92810
AAXX 21004 16084 12980 02709 10038 20008 39980 40150 52005 60001
AAXX 21004 16088 12960 00000 11040 21040 30027 40150 51001 60001
AAXX 21004 16110 12998 00707 10030 21044 30132 40137 51003 60001 555 0////
AAXX 21004 16134 11980 03022 11054 21083 37730 48423 53008 60001 70241 333 92845
AAXX 21004 16153 12999 02704 10067 21001 39861 40129 51010 60001 555 0////
AAXX 21004 16158 12762 41106 10036 20033 30129 40137 52008 60001 84500 333 84650
AAXX 21004 16206 12682 50103 10048 20020 30117 40126 51008 60001 83430 333 83640 83357
AAXX 21004 16219 NIL
AAXX 21004 16252 12965 00000 11006 21097 39171 42738 58010 60001
AAXX 21004 16280 11497 80913 10086 20059 39858 40080 58032 69901 76062 84575 333 84615 83356 555 0////
AAXX 21004 16310 NIL
AAXX 21004 16320 12960 02609 10034 21010 30130 40143 53001 60001
AAXX 21004 16325 12998 02808 10020 20001 30115 40130 58005 60001 333 98070 555 0////
AAXX 21004 16360 12998 23510 10054 21042 30003 40141 58002 60001 82030 333 82359 555 0////
AAXX 21004 16400 NIL
AAXX 21004 16420 12597 62405 10104 20018 30065 40131 57028 60001 83570 333 83630 86358 555 0////
AAXX 21004 16429 11457 82820 10100 20089 30092 40103 57046 60151 79596 883// 333 83910 85812
AAXX 21004 16470 NIL
AAXX 21004 16480 12997 03404 10072 20025 30097 40160 58010 60001 555 0////
AAXX 21004 16522 11497 53523 10126 20096 39870 40113 51010 60011 70296 85800 333 84812 84620 555 0////
AAXX 21004 16539 NIL
AAXX 21004 16550 11598 33026 10116 20029 39877 40056 57015 60031 70261 83200 333 83830 555 0////
AAXX 21004 16450 11/00 91311 10028 20028 39030 48489 57022 69981 76041 333 89/00
AAXX 21004 16021 12965 03010 11064 21117 37889 48420 51004 60001 333 92842
AAXX 21004 16022 12984 03616 11064 21119 37761 48413 51011 60001 333 92835
AAXX 21004 16033 12962 32703 11078 21113 38729 48432 52005 60001 80008 333 92822
AAXX 21004 16040 NIL
AAXX 21004 16052 11/01 90639 11190 21210 36526 47963 50008 69901 74574 333 89/01 93199
AAXX 21004 16061 12984 02908 10024 21078 39291 42745 51001 60001
AAXX 21004 16098 12965 03304 11016 21046 30092 40145 52002 60001
AAXX 21004 16138 NIL
AAXX 21004 16148 12770 62703 10019 20000 30131 40144 52008 60001 86050 333 86356
AAXX 21004 16168 12780 60517 10026 21025 39351 42719 53001 60001 83031 333 83350
AAXX 21004 16172 12864 30000 10024 21018 39840 40146 54000 60001 83030 333 83358
AAXX 21004 16179 12980 41802 10002 21052 39440 42736 53006 60001 84010 333 84461 92852
AAXX 21004 16224 11565 80406 10048 21025 39793 40116 56006 69901 70262 8352/ 333 83622 86457
AAXX 21004 16232 12998 21805 10062 21043 30074 40128 58002 60001 80001 555 0////
AAXX 21004 16245 11560 50204 10062 20040 30088 40115 57010 60011 72165 82130 333 82830 83356
AAXX 21004 16253 12965 50307 10026 21005 30105 40117 58027 60001 80001
AAXX 21004 16258 12962 23107 11030 21060 39120 42736 51001 60001 82030 333 82360
AAXX 21004 16263 12462 50508 11014 21084 38851 48414 58011 60001 85200 333 85615 92822
AAXX 21004 16294 12597 70107 10070 20009 39919 40115 57030 60001 87800 333 84820 84622 555 0////
AAXX 21004 16337 NIL
AAXX 21004 16344 NIL
AAXX 21004 16434 NIL
AAXX 21004 16450 NIL
AAXX 21004 16459 12660 22702 10026 20026 30117 40154 57022 60001 82200 333 82635
AAXX 21004 16546 11457 73318 10136 20084 30084 40112 56006 60031 79596 87300 333 83816 81920 85640
AAXX 21004 16564 11497 62638 10124 20073 39952 40093 57006 60031 70361 84970 333 81815 84920 555 0////
AAXX 21004 16045 NIL
AAXX 21004 16090 11956 00000 11038 21041 30062 40149 51002 60001 71000 333 92611
AAXX 21004 16149 12665 82807 10018 21027 30128 40144 52010 60001 8551/ 333 85640 83460
AAXX 21004 16261 NIL
AAXX 21004 16453 NIL
AAXX 21004 16560 NIL
AAXX 21003 78970 11456 70305 10254 20232 30109 40134 60021 78082 85872 333 02299 10330 20228 58008 83816 83078 90916
AAXX 21003 78962 11465 30703 10247 20218 30130 40138 60061 71581 81832 333 02299 10277 20226 59005 81814 83078 90935
AAXX 21004 13600 NIL
AAXX 21004 13610 NIL
AAXX 21004 13611 NIL
AAXX 21004 13619 NIL
AAXX 21004 13622 NIL
AAXX 21004 13624 NIL
AAXX 21004 13625 NIL
AAXX 21004 13629 NIL
AAXX 21004 13601 11559 82206 10048 20042 30011 40114 52007 60021 76266 885// 333 88626
AAXX 21004 13602 NIL
AAXX 21004 13623 NIL
AAXX 21004 91579 06/// /0910 10253 20226 30111 40119 55005 60021 333 10253 59002 60017
AAXX 21004 91582 04470 81011 10252 20236 30083 40117 58008 60021 760// 333 60017 90710 91116 555 69925
AAXX 21004 91583 06/// /1404 10243 20220 30107 40122 50001 60011 333 10243 58000 69987
AAXX 21004 91587 06/// /1108 10242 20228 30080 40125 58002 60021 333 10243 59002 60027
AAXX 21004 91590 04984 60603 10264 20177 30076 40118 58002 69901 700// 333 69907 90710 91114 555 60005
AAXX 21004 91592 06/// /0617 10250 20182 30045 40130 53004 60001 333 10252 58003 60007
AAXX 21004 91596 06/// /0910 10233 20210 30027 40136 55000 60021 333 10257 58003 60027
AAXX 21004 91573 NIL
AAXX 21004 91577 NIL
AAXX 21003 61701 32960 30000 10214 20198 40133 80002 333 59006 83071
AAXX 21003 61705 NIL
AAXX 21003 61707 NIL
AAXX 21003 61711 NIL
AAXX 21003 61712 NIL
AAXX 21003 61717 NIL
AAXX 21003 61720 NIL
AAXX 21003 61721 NIL
AAXX 21003 61722 NIL
AAXX 21003 61731 32960 50000 10200 20122 4//// 80002 333 5//// 85073
AAXX 21003 61733 NIL
AAXX 21004 91503 11475 40000 10294 20261 40058 58001 60034 71521 83978 333 20242 56000 59007 82819 81920 84360
AAXX 21004 91517 11480 30506 10310 20254 40067 57005 60194 70500 82838 333 20235 56199 59014 82820
AAXX 21004 91574 46/// ///// 29092 39986 49992 53045 333 58045
AAXX 21004 91570 NIL
AAXX 21004 91598 NIL
BBXX DBBH 21001 99360 70107 41/98 /0309 10161 20125 40325 57003 7//// 22241 04180
AAXX 21001 10046 41135 82803 10014 20006 30032 40072 53009 76165 886// 333 88703
BBXX BAREU06 21004 99473 70591 46/// ///// 40063 22234
AAXX 21001 03951 17232 /2810 10112 20108 30176 40202 50015 69911 71081 88/// 333 88/04
AAXX 21001 03953 11250 82305 10111 20107 30170 40207 52016 69921 75165 886// 333 88703 92425
AAXX 21001 03955 11280 82907 10118 20110 39989 40185 52019 69901 72052 886// 333 81705 87708
AAXX 21001 03956 17479 /3006 10115 20100 30080 40156 52011 60021 70386 87/// 333 87/12 87/36
AAXX 21001 03962 11230 82607 10107 20105 30148 40172 53022 60021 75165 886// 333 82704 85707 87711
AAXX 21001 03963 17118 /2710 10107 20101 30131 40159 52019 69921 71085 88/// 333 88/02
AAXX 21001 03966 17359 /2605 10108 20101 30066 40158 52017 60021 71086 88/// 333 83/06 88/08
AAXX 21001 03967 11240 82509 10105 20102 30021 40134 51013 60021 75865 886// 333 88704
AAXX 21001 03969 11259 82609 10105 20104 30027 40130 53008 60021 75065 886// 333 83703 87707
AAXX 21001 03973 16/// /2607 10099 20098 39885 40138 52013 60021
AAXX 21001 03976 NIL
AAXX 21001 03980 17124 /2509 10098 20095 30064 40089 55005 60051 75265 88/// 333 88/02
AAXX 21004 91503 11475 40000 10294 20261 40058 58001 60034 71521 83978 333 20242 56000 59007 82819 81920 84360
AAXX 21004 91517 11480 30506 10310 20254 40067 57005 60194 70500 82838 333 20235 56199 59014 82820
AAXX 21001 01440 46/// /3007 11058 21064 38755 40059 52009 333 91110
AAXX 21001 01015 46/// /1705 10026 20002 333 91108
AAXX 21001 01442 16/// /0103 11047 21066 39802 40067 55001 60041 333 91108
AAXX 21001 01450 16/// /1302 11111 21128 38884 40073 53001 60001 333 91103
AAXX 21001 01245 16/// /2702 11101 21139 39323 40058 51011 60001 333 91105
AAXX 21001 01262 46/// /1707 10029 20005 333 91109
AAXX 21001 01436 16/// /3303 10005 21008 6//// 333 91109
AAXX 21001 01257 16/// /2204 11063 21093 39867 40034 52010 60001 333 91106
AAXX 21001 01277 16/// /0000 11028 21036 60001 333 91104
AAXX 21001 01476 16/// /3301 11012 21040 30046 40052 57002 6//// 333 91104
AAXX 21001 01488 16/// /2902 11090 21098 60001 333 4/012 91103
BBXX TFBKF 21004 99635 70202 46/// ///// 22200 10806 70029
BBXX TFDRN 21004 99658 70212 46/// ///// 22200 10402 70008
BBXX TFGRS 21004 99663 70182 46/// ///// 22200 10503 70017
BBXX TFGRV 21004 99638 70225 46/// ///// 22200 10705 70024
BBXX TFGSK 21004 99641 70229 46/// ///// 22200 10807 70037
BBXX TFHFN 21004 99642 70152 46/// ///// 22200 10704 70021
BBXX TFKGR 21004 99657 70136 46/// ///// 22200 10402 70012
BBXX TFSRT 21004 99633 70203 46/// ///// 22200 10806 70032
BBXX TFSTD 21004 99664 70234 46/// ///// 22200 10906 70030
AAXX 21004 89532 42/70 70713 11033 21069 39736 49763 56015 875// 333 10006 21034
OOXX AAUNI 21004 99798 50833 56093 07671 46/// /0706 11115 21131 39048 49954 57004 90000
BBXX 41010 21001 99289 70785 46/// /1307 10222 40238 53012 92350 22200 00237 11103 20502 300// 41102 70015 333 91208 555 11069 22072
BBXX 42057 21001 99168 70815 46/// /0810 10277 20209 40129 53010 92350 22200 00278 10704 20704 70021 333 91212 555 11104 22111 32335 40813 62349 081105 076110 076108 075110 075105 072109 80712 92257
BBXX 41009 21001 99285 70802 46/// /1409 10234 20161 40220 55000 92350 22200 00247 11303 20502 300// 41302 70016 333 91211 555 11096 22101
BBXX 41046 21001 99238 70683 46/// /0810 10238 20153 40225 53011 92350 22200 00256 11306 20703 300// 41305 70029 333 91211 555 11101 22106 32319 40913 62349 083095 077095 084093 082095 080093 077092 80910 92319
BBXX 44011 21001 99411 70666 46/// /3408 10033 21023 40221 51032 92350 22200 00093 10908 20605 3//// 40906 70039 333 91210 555 11088 22092 32341 41712 62349 343087 344088 335080 334088 340086 335086
BBXX 41041 21001 99142 70460 46/// /0806 1//// 40155 53019 92350 22200 00267 333 91208 555 11065 22069
BBXX 44008 21001 99405 70692 46/// /0205 10054 21002 40231 51022 92350 22200 00112 10905 20401 323// 40904 70023 333 91207 555 11052 22054 32253 40107 62349 016051 020049 025048 005046 006049 008053
AAXX 21003 78970 11456 70305 10254 20232 30109 40134 60021 78082 85872 333 02299 10330 20228 58008 83816 83078 90916
AAXX 21003 78962 11465 30703 10247 20218 30130 40138 60061 71581 81832 333 02299 10277 20226 59005 81814 83078 90935
AAXX 21004 41859 NIL
AAXX 21004 41883 NIL
AAXX 21004 41891 NIL
AAXX 21004 41907 NIL
AAXX 21004 41923 31/04 90000 10134 20120 30136 40146 74544 89/// 333 56999 59003 70000
AAXX 21004 41936 NIL
AAXX 21004 41943 31/05 90000 10100 20100 30144 40152 74544 89/// 333 58004 70000
AAXX 21004 41950 NIL
AAXX 21004 41978 31316 40000 10135 20120 30122 40128 71000 84700 333 56900 59007 70000 84704
AAXX 21004 41992 31905 90000 10142 20140 30120 40122 74544 89/// 333 56999 59013 70000
BBXX 44039 21001 99411 70727 46/// /0301 10058 21060 40241 92345 22200 00094 1//00 70001 333 91202
BBXX 51101 21001 99243 71621 46/// /0610 10234 20163 40197 56020 92350 22200 00239 10906 20604 309// 40905 70031 333 91212 555 11103 22109 32333 40612 62349 060095 057099 056094 057093 065087 064091
BBXX 46061 21001 99602 71468 46/// /1414 10028 40097 58032 92350 22200 00059 10505 20505 300// 41102 70024 333 91217 555 11150 22158 32339 41418 62349 143139 147139 144130 148133 142134 141136
BBXX 46083 21001 99582 71380 46/// /3205 10050 20007 40236 51023 92350 22200 00060 11307 20402 300// 41307 70035 333 91206 555 11055 22059 32310 43108 62349 319053 325053 318055 319062 314062 310062 83207 92310
AAXX 21001 33135 NIL
AAXX 21001 33317 31496 82903 11012 21025 39745 40088 54000 71022 886// 333 88711
AAXX 21001 33345 NIL
AAXX 21001 33393 /1215 82703 11016 21024 39716 40117 58001 78588 889// 333 86705 555 69941
AAXX 21001 33506 /1495 81304 10040 20038 39878 40074 57012 78088 889// 555 60031
AAXX 21001 33587 31456 83202 10014 20006 39811 40076 52003 71022 886// 333 88710
AAXX 21001 33631 32797 82801 10001 21010 39972 40119 58001 885// 333 88650
AAXX 21001 33663 32597 73002 10019 21006 39990 40087 52003 875// 333 87626
AAXX 21001 33658 32497 83104 11014 21031 39801 40107 52001 889// 333 86711
AAXX 21001 33711 /1/93 92102 10071 20071 39851 40058 57005 75354 333 96043 555 69941
AAXX 21001 33791 /1/02 91803 10061 20061 39916 40066 57006 75165 333 96043 555 60011
AAXX 21001 33837 /1445 80201 10038 20031 30015 40067 58006 78082 883// 555 69931
AAXX 21001 33924 /1596 71805 10106 20094 30065 40077 57011 71062 83670 555 60031
AAXX 21001 33946 /1997 21603 10082 20064 39866 40085 58009 70186 82040 555 60011
AAXX 21001 34300 /1217 81204 10029 20021 39906 40098 57009 76162 8772/ 333 87704 555 69951
AAXX 21001 34504 /1115 81404 10044 20042 39901 40079 57011 71062 886// 333 88703 555 69961
AAXX 21001 34519 31250 81405 10034 20019 39831 40107 57008 71022 886// 333 88704
AAXX 21001 34601 /1222 81603 10049 20045 39950 40086 57016 72582 886// 333 88704 555 60011
BBXX 46089 21001 99459 71258 46/// /3508 10089 20060 40292 55000 92350 22200 00090 11508 20603 330// 41508 70042 333 91210 555 11081 22086 32252 43410 62349 349076 349075 350076 348078 352081 349081
BBXX 46042 21001 99368 71224 46/// /2703 10120 40168 56012 92350 22200 00128 11505 20401 328// 41505 70026 333 91204 555 11030 22031 32348 42804 62349 264028 238018 230023 232025 245023 257019
BBXX 46053 21001 99342 71198 46/// /2607 10143 40147 56018 92350 22200 00144 11402 20501 324// 41402 70012 333 91208 555 11075 22079 32346 42608 62349 256070 257065 266067 266066 264057 256051
AAXX 21001 11010 06057 /2603 11004 21005 39764 40152 52002 69921 333 55/// 69905
AAXX 21001 11012 17/// /2504 10003 21007 39670 40150 52003 69971 7408/
AAXX 21001 11022 16/// /2403 11028 21056 39732 40131 58005 60001
AAXX 21001 11035 32975 62702 11024 21046 39873 40135 58004 86030 333 86360
AAXX 21001 11036 32970 79901 11052 21074 39908 40141 58002 333 55076 86362
AAXX 21001 11101 17/// /1001 10007 20007 39665 40206 53013 60111 7808/
AAXX 21001 11120 06417 /9901 11027 21028 39457 40187 52006 60081 333 55000 60015
AAXX 21001 11126 17/// /3109 11093 21093 37659 48438 53010 60041 7404/ 333 91114
AAXX 21001 11130 17/// /2201 11023 21027 39574 40182 53008 60031 7404/
AAXX 21001 11146 NIL
AAXX 21001 11150 06056 /1503 11018 21022 39610 40166 52007 60041 333 55/// 69995
AAXX 21001 11155 17/// /3209 11063 21071 38284 48419 53007 60031 7404/ 333 91116
AAXX 21001 11157 NIL
AAXX 21001 11172 NIL
AAXX 21001 11190 12970 82901 11036 21071 39898 40141 50001 60001 885//
AAXX 21001 11204 16/// /3102 11022 21075 39351 40165 53005 60001
AAXX 21001 11212 NIL
AAXX 21001 11231 36067 /3002 11067 21076 39576 40174 52006 333 55072
AAXX 21001 11240 36062 /9901 11029 21044 39692 40145 54000 333 55///
AAXX 21001 11244 16/// /0000 11063 21071 39807 40152 52003 60001
AAXX 21001 11389 17/// /2206 11009 21022 39807 40142 58002 69901 7804/
BBXX 51000 21001 99235 71541 46/// /0510 10225 40174 56026 92350 22200 00232 10906 20905 333// 41403 70031 333 91212 555 11104 22110 32311 40612 62349 054096 058094 058092 061099 056095 059094
BBXX 51003 21001 99193 71606 46/// /0410 10246 40137 58020 92350 22200 00257 10806 20504 3//// 40805 70032 333 91212 555 11106 22112 32328 40412 62349 040099 045099 041102 041098 041101 047100
AAXX 21001 01218 16/// /2801 11014 21030 30030 40052 53012 60001 333 91113
AAXX 21001 01447 16/// /0201 11109 21121 39374 40076 55001 60001 333 91103
BBXX 44060 21001 99413 70721 46/// ///02 10051 40232 53014 90000 22200 00098 333 91203 555 11021 22021
BBXX 44022 21001 99409 70737 46/// ///03 10060 21024 40226 53007 90000 22200 00080 333 91204 555 11031 22031
BBXX 44097 21001 99410 70711 46/// ///// 1//// 90002 22200 00120 10803 20803 316// 41301 70015
BBXX 44100 21001 99363 70756 46/// ///// 1//// 92352 22200 00117 11302 21001 307// 41302 70011
BBXX 41110 21001 99341 70777 46/// ///// 1//// 92351 22200 00139 11201 21001 311// 41201 70005
BBXX 42099 21001 99273 70842 46/// ///// 1//// 92357 22200 00231 10704 20704 70020
BBXX 41113 21001 99284 70805 46/// ///// 1//// 92351 22200 00211 10502 20502 309// 41101 70012
BBXX 41112 21001 99307 70813 46/// ///// 1//// 92351 22200 00162 11301 20501 309// 41301 70007
AAXX 21004 43533 11459 73604 10260 20235 30086 40089 60002 70522 82278 333 58000 70000 82818 84362 86276
AAXX 21004 43555 12460 73608 10281 20242 30080 40083 60002 82238 333 59002 79997 82818 87276
AAXX 21004 43577 11462 43605 10257 20245 30086 40088 69902 72582 83202 333 58002 79999 83818
AAXX 21004 43588 11462 72703 10255 20249 30088 40090 60172 70282 8397/ 333 58007 70017 83817 87362
AAXX 21004 43599 11460 72713 10265 20245 30093 40095 60082 70286 8327/ 333 58011 70016 83817 87461
AAXX 21001 15015 01596 81101 11015 21018 39496 42713 54000 60001 71022 885// 333 42998 55009 60007 91001 91101
AAXX 21001 15020 01596 80000 11014 21020 39898 40101 57004 60001 71022 8457/ 333 43003 55012 60007 91000 91100
AAXX 21001 15090 01496 82901 10004 21006 30000 40095 58002 60001 71022 886// 333 55300 10038 20001 3//// 55000 10022 20115 30113 60007 91003 91105
AAXX 21001 15108 01/91 92702 11076 21076 37963 48403 54000 69991 77174 333 47014 55015 69997 92727 96045
AAXX 21001 15120 01597 82902 11003 21005 39609 40116 52003 69951 78587 8537/ 333 43001 55300 10034 2//// 3//// 55004 00026 20213 30200 69917 91004 91104
AAXX 21001 15150 01596 83501 10001 21013 39879 40096 57005 60001 71022 8557/ 333 55010 60007 91003 91103
AAXX 21001 15170 01494 80201 11011 21011 39289 42696 58004 60011 77172 8802/ 333 47005 55000 60017 91001 91102 96010
AAXX 21001 15200 01496 82401 11002 21008 39987 40136 54001 60001 71022 886// 333 55000 60007 91001 91101
AAXX 21001 15230 01597 82603 10006 21008 39830 40130 52004 69931 77072 885// 333 55300 10057 20002 3//// 55000 10083 20097 30097 69927 91005 91106
AAXX 21001 15260 01595 83102 11002 21007 39567 40114 52003 60011 77174 8557/ 333 43002 55000 69937 91004 91104
AAXX 21001 15280 NIL
AAXX 21001 15292 01596 82902 11005 21005 39836 40139 52002 60021 76877 8802/ 333 55000 69967 91005 91105 96010
AAXX 21001 15310 02597 83503 10013 20000 30002 40090 53004 60001 8557/ 333 55300 10031 20001 3//// 55000 00070 20164 30150 60007 91005 91106
AAXX 21001 15335 03/// /3503 10024 20022 30067 40074 58002 6///1 333 4//// 55/// 6///7 91005 91105
AAXX 21001 15346 01596 81501 10014 20013 39793 40088 54001 60051 76166 8672/ 333 55010 60027 91002 91102 96010
AAXX 21001 15350 NIL
AAXX 21001 15360 02497 83406 10037 20031 30044 40059 58015 60001 886// 222// 0//// 2//// /000 60007 91008 91108 92427
AAXX 21001 15410 02997 32905 10027 21020 39999 40096 54001 60001 83030 333 55000 60007 91008 91110
AAXX 21001 15420 01496 83601 10011 20011 39974 40088 54000 60101 76876 8672/ 333 55300 0//// 20000 3//// 55000 0//// 20108 3//// 60027 91001 91102 96010 96021
AAXX 21001 15450 01497 82704 10005 20002 39853 40093 50000 60021 72276 8672/ 333 55300 10051 20001 3//// 55000 10026 20083 30075 69967 91005 91106
AAXX 21001 15460 01496 82603 10011 20009 30062 40087 50003 60051 76876 8672/ 333 55000 60047 91005 91107 96010
AAXX 21001 15470 NIL
AAXX 21001 15480 01497 83102 10045 20045 30053 40070 50001 60061 76122 8672/ 222// 0//// 2//// 333 55000 60027 91005 91105 92427
BBXX UFTA 21001 99849 71235 41596 83105 11132 21149 40047 58006 78582 889// 333 21174
AAXX 21004 43533 11459 73604 10260 20235 30086 40089 60002 70522 82278 333 58000 70000 82818 84362 86276
AAXX 21004 43555 12460 73608 10281 20242 30080 40083 60002 82238 333 59002 79997 82818 87276
AAXX 21004 43577 11462 43605 10257 20245 30086 40088 69902 72582 83202 333 58002 79999 83818
AAXX 21004 43588 11462 72703 10255 20249 30088 40090 60172 70282 8397/ 333 58007 70017 83817 87362
AAXX 21004 43599 11460 72713 10265 20245 30093 40095 60082 70286 8327/ 333 58011 70016 83817 87461
AAXX 21004 43533 11459 73604 10260 20235 30086 40089 60002 70522 82278 333 58000 70000 82818 84362 86276
AAXX 21004 43555 12460 73608 10281 20242 30080 40083 60002 82238 333 59002 79997 82818 87276
AAXX 21004 43577 11462 43605 10257 20245 30086 40088 69902 72582 83202 333 58002 79999 83818
AAXX 21004 43588 11462 72703 10255 20249 30088 40090 60172 70282 8397/ 333 58007 70017 83817 87362
AAXX 21004 43599 11460 72713 10265 20245 30093 40095 60082 70286 8327/ 333 58011 70016 83817 87461
AAXX 21004 43533 11459 73604 10260 20235 30086 40089 60002 70522 82278 333 58000 70000 82818 84362 86276
AAXX 21004 43555 12460 73608 10281 20242 30080 40083 60002 82238 333 59002 79997 82818 87276
AAXX 21004 43577 11462 43605 10257 20245 30086 40088 69902 72582 83202 333 58002 79999 83818
AAXX 21004 43588 11462 72703 10255 20249 30088 40090 60172 70282 8397/ 333 58007 70017 83817 87362
AAXX 21004 43599 11460 72713 10265 20245 30093 40095 60082 70286 8327/ 333 58011 70016 83817 87461
BBXX 46238 21001 99334 71195 46/// ///// 1//// 92350 22200 00146 11503 21002 329// 41502 70015
BBXX 46239 21001 99363 71221 46/// ///// 1//// 92351 22200 00136 11106 21004 332// 41105 70031
BBXX 3FZK3 21004 99507 71336 46/// /3218 10069 20042 40285 53011 7//// 8//// 22233 0//// 2////
BBXX 46006 21001 99408 71375 46/// /1203 10120 40321 56019 92350 22200 00128 11306 20401 3//// 41306 70030 333 91204 555 11032 22033 32315 41005 62349 125031 102028 094029 097030 101030 092027
BBXX 46026 21001 99378 71228 46/// /2903 10113 40175 56012 92350 22200 00116 11404 20301 329// 41404 70020 333 91204 555 11034 22035 32346 42904 62349 290032 288026 285026 284020 281015 276008
BBXX 46029 21001 99461 71245 46/// /3408 10090 20060 40283 53004 92350 22200 00092 11507 20602 329// 41507 70037 333 91210 555 11087 22092 32257 43410 62349 341080 338075 337072 340071 344079 344081
BBXX 46042 21001 99368 71224 46/// /2703 10120 40168 56012 92350 22200 00128 11505 20401 328// 41505 70026 333 91204 555 11030 22031 32348 42804 62349 264028 238018 230023 232025 245023 257019
BBXX 46054 21001 99342 71204 46/// /3108 10133 40154 56011 92350 22200 00138 11205 20602 300// 41204 70024 333 91209 555 11083 22088 32304 43110 62349 311078 312076 310072 311081 311086 308080
BBXX CG2958 21004 99517 71281 46/// /3007 10077 20045 40293 51003 7//// 8//// 22200 0//// 2////
BBXX CG2965 21004 99487 71235 46/// /2102 10089 20054 40249 58004 7//// 8//// 22200 0//// 2////
BBXX CGBR 21004 99536 71297 46/// /0115 10032 20031 40287 53028 7//// 8//// 22233 00075 2////
BBXX CGBY 21004 99487 71235 46/// /2102 10088 20055 40247 58004 7//// 8//// 22200 0//// 2////
BBXX CGDR 21004 99492 71239 46/// /3111 10081 20062 40247 57004 7//// 8//// 22251 00120 2////
BBXX CGJK 21004 99484 71234 46/// /2712 10084 20051 40249 56008 7//// 8//// 22200 0//// 2////
AAXX 2100/ 89799 46/// ///// 11235 4//// 5////
AAXX 21004 89061 179// 00000 10021 20012 39929 49935 52007 60054 70066 333 10043 20016 91001 91103
AAXX 21004 91930 16/// ///// 10305 20218 60094 333 20218
AAXX 21004 91943 36/// /0807 10269 20225 30100 40102 56017 333 59014
AAXX 21004 03292 166// /2505 10044 20036 30121 40140 57007 69921 92350 333 87/47
AAXX 21004 70026 NIL
AAXX 21004 70133 NIL
AAXX 21004 70174 NIL
AAXX 21004 70200 NIL
AAXX 21004 70219 NIL
AAXX 21004 70231 NIL
AAXX 21004 70261 NIL
AAXX 21004 70267 NIL
AAXX 21004 70271 NIL
AAXX 21004 70273 NIL
AAXX 21004 70308 NIL
AAXX 21004 70316 NIL
AAXX 21004 70326 NIL
AAXX 21004 70340 NIL
AAXX 21004 70350 NIL
AAXX 21004 70361 NIL
AAXX 21004 70381 NIL
AAXX 21004 70398 NIL
AAXX 21004 70414 NIL
AAXX 21004 68032 42960 03201 10212 20186 48501 57010
AAXX 21004 68040 42960 00000 10214 20154 48500 5/010
AAXX 21004 68054 42960 00505 10190 20128 48534 58007
AAXX 21004 68240 42960 01105 10257 20134 48515 51005 83080
AAXX 21004 03301 16114 /2111 10091 20091 30058 40131 56013 60041 92350 333 87/02
AAXX 21004 03305 17457 /2117 10079 20064 39870 40132 57019 60051 723// 92350 333 87/10 90710 91126
AAXX 21004 03313 16574 /1905 10083 20071 30034 40128 56019 60021 92350 333 84/23 86/50
AAXX 21004 03316 17456 /1408 10066 20059 30122 40133 58014 60021 710// 92350 333 81/18 87/23
AAXX 21004 03318 16/// /1308 10060 20056 60011 92350
AAXX 21004 03321 16557 /1606 10061 20058 30124 40136 56020 60011 92350 333 55/// 20112 81/26 87/36
AAXX 21004 03330 17015 /2206 10042 20041 39784 40149 57018 60011 751// 92350 333 88/01
AAXX 21004 03344 17237 /2105 10045 20038 39823 40144 55007 69941 761// 92350 333 82/04 87/42
AAXX 21004 03346 16/// /2409 10047 20042 60001 92350
AAXX 21004 03348 17665 /1907 10057 20053 30032 40141 58019 60011 723// 92350 333 55/// 20120 85/32 83/56 85/58
AAXX 21004 03355 17657 /2205 10054 20047 30134 40145 55008 60021 761// 92350 333 55/// 20137 87/41
AAXX 21004 03373 16341 /2207 10046 20042 30081 40152 56007 60011 92350 333 83/07 86/50
AAXX 21004 03379 16662 /2409 10051 20045 30079 40157 57008 60011 92350 333 83/44 87/50
AAXX 21004 03382 17659 /2307 10054 20050 30132 40141 58010 69921 761// 92350 333 55/// 20147 81/38 84/49 85/59
AAXX 21004 03385 46658 /2407 10047 20042 30139 40149 56005 92350 333 87/47
AAXX 21004 03391 11660 82403 10045 20040 30149 40156 58007 69961 76162 8752/ 92350 333 87630
AAXX 21004 03392 16762 /2207 10040 20036 30152 40156 57004 69921 92350 333 88/50
AAXX 21004 03405 16164 /2719 10101 20101 30027 40142 55012 60061 92350 333 55/// 20076 86/02 87/19 90710 91125
AAXX 21004 03409 16/// /2507 10083 20080 60001 92350 333 55/// 2////
AAXX 21004 03410 16206 /0502 10055 20055 39703 40140 56020 60041 92350 333 55/// 20092 88/03
AAXX 21004 03469 17663 /2307 10043 20042 30158 40162 56005 69921 761// 92350 333 55/// 20200 87/37
AAXX 21004 03488 17677 /2413 10050 20034 30129 40156 56006 69901 723// 92350 333 85/36 87/64
AAXX 21004 03503 17325 /2206 10099 20099 30069 40145 56020 60061 761// 92350 333 88/08
AAXX 21004 03507 17132 /2409 10080 20080 39781 40152 55020 60061 753// 92350 333 88/02
AAXX 21004 03520 16228 /0502 10055 20053 30030 40152 55026 60041 92350 333 55/// 20127 87/03
AAXX 21004 03522 17356 /1802 10063 20063 30063 40157 55026 60041 723// 92350 333 81/06 87/19
AAXX 21004 03529 17236 /1805 10062 20062 30118 40162 58026 60041 751// 92350 333 82/04 84/23 86/34
AAXX 21004 03544 17347 /1804 10047 20045 30027 40159 58021 60021 751// 92350 333 55/// 20181 83/07 86/18
AAXX 21004 03560 17662 /2304 10049 20044 30060 40166 58012 60011 761// 92350 333 55/// 20247 88/44
AAXX 21004 03604 16163 /2913 10111 20108 30103 40156 56011 60101 92350 333 88/02 91024
AAXX 21004 03605 16258 /2617 10102 20100 30146 40155 56019 60051 92350 333 81/03 86/08 85/23
AAXX 21004 03609 16/// /2514 10100 20100 30107 40160 56026 60061 92350
AAXX 21004 03628 17/59 /1907 10073 20070 30086 40159 58031 60041 761// 92350 333 55/// 20102
AAXX 21004 03647 16006 /2011 10048 20048 39904 40162 58023 60021 92350 333 55/// 20159 88/01
AAXX 21004 03658 16458 /1906 10057 20051 30104 40175 57015 60021 92350 333 81/18 87/21
AAXX 21004 03660 17457 /2405 10049 20046 39926 40178 58012 60011 762// 92350 333 85/16 85/21
AAXX 21004 03672 16660 /2203 10057 20045 30138 40179 57012 60011 92350 333 81/35 84/42 87/50
AAXX 21004 03684 17762 /2406 10045 20036 30064 40172 58010 69921 761// 92350 333 87/50
AAXX 21004 03693 16677 /2506 10063 20045 30175 40178 58006 60001 92350 333 83/40 87/56
AAXX 21004 03707 17226 /2719 10111 20111 30160 40167 56023 60041 751// 92350 333 88/03
AAXX 21004 03710 16105 /2409 10073 20073 39745 40167 58025 60041 92350 333 55/// 20168 86/02 87/17
AAXX 21004 03743 16120 /2105 10057 20055 30013 40176 57027 60051 92350 333 87/02
AAXX 21004 03749 16236 /1906 10062 20056 30068 40180 57023 60031 92350 333 83/04 86/17
AAXX 21004 03761 11456 82107 10056 20052 30037 40183 56014 60011 76162 885// 92350 333 55/// 20229 82710 86632 88650
AAXX 21004 03768 16656 /2404 10057 20048 30102 40182 56014 60011 92350 333 87/44 84/59
AAXX 21004 03769 17661 /2103 10052 20049 30102 40185 57008 69901 761// 92350 333 55/// 20175 87/45
AAXX 21004 03770 16/// ///// 10062 20054 69981 92350
AAXX 21004 03781 17664 /2205 10050 20045 39974 40184 58009 60011 762// 92350 333 55/// 20247 86/31 84/50
AAXX 21004 03784 46/// /2406 10063 20044 30173 40177 58008 92350
AAXX 21004 03797 15775 /2408 10054 20031 30121 40182 58002 60001 92350 333 55/// 20279 81/50 87/58
AAXX 21004 03839 16/// ///// 10094 20094 60011 92350 333 55/// 20170
AAXX 21004 03857 17225 /2517 10101 20101 30119 40182 57025 60031 752// 92350 333 85/03 86/10
AAXX 21004 03862 17227 /2104 10083 20083 30169 40182 56025 60041 762// 92350 333 55/// 20158 86/04 83/11
AAXX 21004 03866 16/// /2412 10090 20076 30162 40187 57017 60031 92350
AAXX 21004 03876 16/// /2504 10060 20055 30187 40189 58008 69981 92350
AAXX 21004 03895 41125 82510 10095 20087 40212 58013 76366 887// 333 84702 87703
AAXX 21004 03008 16/// /2911 10051 21010 30008 40078 52012 60001 92350
AAXX 21004 03014 46/// /3210 10028 21023 40081 52013 92350 333 8////
AAXX 21004 03031 15484 /0403 10007 20003 39776 40110 54000 69981 92350 333 55/// 20079 82/11 87/31
AAXX 21004 03034 15484 /1606 10043 20034 30085 40098 56003 60011 92350 333 81/16 86/43 85/59
AAXX 21004 03037 15480 /1402 10048 20043 30077 40100 56003 60011 92350 333 84/16 85/26 85/57
AAXX 21004 03039 46/// /2213 10002 21029 92350
AAXX 21004 03041 46/// /2213 11006 21006 92350 333 90710 91129
AAXX 21004 03044 15583 /1101 10007 20001 30000 40101 53001 69901 92350 333 55/// 20059 86/23
AAXX 21004 03047 17481 /1003 10024 20017 39806 40113 56006 60011 723// 92350 333 55/// 20074 81/11 83/26 87/56
AAXX 21004 03062 15784 /2205 10011 21002 30100 40105 55000 69901 92350 333 55/// 20048 82/50 88/59
AAXX 21004 03065 46/// /2605 11021 21026 92350
AAXX 21004 03068 11780 71004 10021 20015 30097 40106 55001 69921 70362 875// 92350 333 87650
AAXX 21004 03072 46/// ///// 11018 21019 92350 333 91000
AAXX 21004 03080 15684 /2802 10007 20001 39937 40112 54000 69901 92350 333 88/46
AAXX 21004 03088 15682 /3006 10024 20012 39944 40111 55002 69901 92350 333 55/// 20079 88/47
AAXX 21004 03094 15/81 /2307 10025 20001 30095 40100 53002 69901 92350
AAXX 21004 03105 17246 /1509 10075 20075 30075 40092 56021 60021 757// 92350 333 86/03 86/15 85/20
AAXX 21004 03132 17150 /1706 10081 20081 30093 40106 58019 60041 751// 92350 333 87/02
AAXX 21004 03144 17359 /1302 10026 20019 30069 40113 56009 69921 751// 92350 333 55/// 20064 88/06
AAXX 21004 03148 46/// /1708 10019 20019 92350
AAXX 21004 03153 17/01 /1706 10066 20066 39972 40111 58018 60031 751// 92350 333 55/// 20064
AAXX 21004 03155 16768 /1908 10046 2//// 39810 40110 57017 60021 92350 333 88/50
AAXX 21004 03158 17860 /2306 10031 20030 39976 40115 58010 60011 761// 92350 333 55/// 20060 88/57
AAXX 21004 03210 16/01 /1608 10067 20066 39969 40121 58013 60031 92350
AAXX 21004 03212 17460 /0903 10061 20054 30026 40126 58011 69981 761// 92350 333 83/19 86/45
AAXX 21004 03214 17135 /1408 10063 20059 30106 40125 58015 69901 751// 92350 333 86/02 84/14
AAXX 21004 03220 16457 ///// 10053 20053 30086 40121 58012 60011 92350 333 83/18 86/24
AAXX 21004 03225 16357 /0702 10051 20043 39823 40131 58006 69941 92350 333 55/// 20053 87/06
AAXX 21004 03226 17349 /1801 10049 20045 39852 40130 56008 60011 761// 92350 333 86/07 86/14
AAXX 21004 03227 46/// /2218 10007 2//// 92350
AAXX 21004 03230 16359 /1903 10036 20033 39865 40125 58009 69981 92350 333 87/07
AAXX 21004 03238 17412 /2202 10036 20032 39947 40123 58012 60011 761// 92350 333 83/14 83/22 87/47
AAXX 21004 03261 16439 /1804 10052 20047 30103 40144 57004 60021 92350 333 82/17 87/50
AAXX 21004 03265 17428 /1404 10038 20036 30112 40143 57005 60021 762// 92350 333 81/15 87/50
AAXX 21004 03266 16457 /1905 10055 20047 30124 40142 58007 60031 92350 333 81/15 87/50
AAXX 21004 03275 17662 /2306 10039 20030 39939 40134 58006 60011 761// 92350 333 87/31 84/40
AAXX 21004 03281 16/// /2107 10025 20025 69981 92350
AAXX 21004 03903 16358 /2813 10111 20110 30057 40113 51009 69981 92350 333 55/// 20079 84/08 87/16
AAXX 21004 03904 17357 /2308 10099 20095 30045 40104 51006 69961 723// 92350 333 88/07
AAXX 21004 03907 17246 /2110 10081 20078 30086 40094 58009 60031 751// 92350 333 55/// 20089 84/04 84/16
AAXX 21004 03911 16135 /2902 10072 20072 39832 40105 57004 60031 92350 333 88/02
AAXX 21004 03915 16002 /1707 10065 20065 30021 40099 56008 60021 92350 333 88/01
AAXX 21004 03916 16350 /2704 10070 20066 39904 40094 56014 60021 92350 333 55/// 20101 85/06 85/24
AAXX 21004 03923 15263 /2910 10096 20096 39909 40104 58004 60021 92350 333 84/05 87/63 91020
AAXX 21004 68398 36/// /3605 10186 20176 39367 48507 57008 333 10290 20184 91007 555 91014
AAXX 21004 68299 36/// /0104 10112 20065 38936 48518 57003 333 10214 20112 91006 555 91019
AAXX 21004 78526 NIL
AAXX 21004 78543 NIL
AAXX 21004 78255 42959 00505 10211 20179 30043 40192 52010 333 10258
AAXX 21004 78317 NIL
AAXX 21004 78318 NIL
AAXX 21004 78325 NIL
AAXX 21004 78333 NIL
AAXX 21004 78338 NIL
AAXX 21004 78348 NIL
AAXX 21004 78349 NIL
AAXX 21004 78353 NIL
AAXX 21004 78360 NIL
AAXX 21004 78367 NIL
AAXX 21004 78369 NIL
AAXX 21001 76040 32960 23301 10176 20109 30130 40144 57009 82030 92345 333 10178 20056 30/// 50180 56070 59013 82375 98660
AAXX 21001 76056 06/// /3306 10150 20087 30110 40134 55006 60011 7//// 8//// 92350 333 0//// 10165 20098 30/// 4//// 50159 54/// 56/// 57/// 59015 60007 70096 8//// 8//// 8//// 9//// 9/
AAXX 21001 76122 32570 21102 10099 21020 38482 40118 57006 81120 92345 333 10120 21032 30/// 50311 56590 58/// 70000 81835
AAXX 21001 76123 06/// /0805 10102 21037 3//// 4//// 5//// 60001 7//// 8//// 92350 333 0//// 10137 21041 50189 56/// 57/// 5//// 60007 70000 8//// 8//// 8//// 8//// 9//// 9//// 9//// 44
AAXX 21001 76220 32858 12404 10124 21017 38079 40103 57006 81030 92340 333 10142 21036 30/// 50151 56050 58/// 70000
AAXX 21001 76225 32760 50701 10109 21028 38575 40100 53005 85038 92345 333 10118 20008 30/// 50121 56055 58005 70000 83350 82870
AAXX 21001 76256 32980 02001 10185 20100 30119 40133 57008 92345 333 10215 20081 30/// 50150 59047 70000
AAXX 21001 76305 32970 00402 10200 20100 30112 40119 57009 92350 333 10218 20100 30/// 50211 59047 70000
AAXX 21001 76323 32570 73601 10138 21018 38221 40147 57018 83202 92340 333 10168 20011 30/// 50421 56505 58012 70000 83630 84268
AAXX 21001 76342 31862 60303 10144 20042 39467 40179 52005 70321 86020 92350 333 10184 20090 30/// 50371 56050 58051 70000 86458
AAXX 21001 76373 32665 51501 10153 21122 38155 40088 53002 85500 92350 333 10220 20080 30/// 50291 56900 59007 70000 85623
AAXX 21001 76382 32980 20000 10226 20142 38834 40066 57010 80008 92347 333 10264 20063 30/// 50311 56001 58002 70000 82274
AAXX 21001 76390 31864 11405 10155 20055 38183 40063 54000 70544 81040 92330 333 10228 20065 30/// 50571 56080 58011 70000 81356
AAXX 21001 76393 32950 312// 10184 20082 39553 40123 52007 83010 92345 333 10228 20140 30/// 50421 56030 58049 70000 83460
AAXX 21001 76402 31562 52903 10184 20103 30068 40126 57007 70544 85500 92340 333 10203 20056 30/// 50261 56600 59034 70000 85628
AAXX 21001 76423 32584 52405 10182 38107 40093 52001 82144 92355 333 10230 21012 30/// 50470 56999 59005 70000 81820 81627 81357 82067
AAXX 21001 76458 32870 73204 10202 20129 30109 40114 57002 82054 92346 333 10232 20098 30/// 50171 56075 59013 70000 82358 85079
AAXX 21001 76471 32580 32403 10152 20036 37652 40053 57005 81501 92350 333 10190 20011 30/// 50560 56505 59015 70000 81635 82075
AAXX 21001 76490 06/// /0104 10223 20108 39734 40117 53013 60001 7//// 8//// 92350 333 0//// 10279 20127 30/// 50309 54/// 56/// 57/// 58052 60007 70000 8//// 8//// 8//// 8//// 9//// 9/
AAXX 21001 76491 32660 63605 10224 20142 39747 40131 52010 86500 92350 333 10279 20147 30/// 50231 56800 59/// 70000 86640
AAXX 21001 76519 32560 62704 10201 20042 38329 40105 57003 81102 92350 333 10238 20030 30/// 50341 56506 58004 70000 81823 85070
AAXX 21001 76525 32780 82411 10129 20004 37433 40081 55001 82101 92340 333 10161 20060 30/// 50531 565/5 59004 70000 82850 86080 91111
AAXX 21001 76538 06/// /2304 10199 38118 40046 55001 60001 7//// 8//// 92350 333 0//// 10251 20090 30/// 4//// 50369 54/// 56/// 57/// 59004 60007 70000 8//// 8//// 8//// 9//// 9//// 9/
AAXX 21001 76543 32975 03602 10279 20184 30078 40111 53012 92340 333 10312 20142 30/// 5//// 58/// 70000
AAXX 21001 76547 06/// /0405 10227 20209 30096 40108 53015 60001 7//// 8//// 92350 333 0//// 10291 20195 50289 56/// 57/// 58009 60007 70000 8//// 8//// 8//// 8//// 9//// 9//// 9//// 44
AAXX 21001 76548 32570 10505 10232 20209 30103 40113 53011 81100 92335 333 10286 20194 30/// 50111 56100 58006 70000 81822
AAXX 21001 76556 32970 22103 10220 20153 39092 40103 57009 80002 92330 333 10268 20105 30/// 50231 56007 59007 70000 82070
AAXX 21001 76571 32770 42101 10212 21052 38124 40076 55004 82204 92348 333 10238 20050 30/// 50741 56505 59009 70000 82850
AAXX 21001 76577 32970 02305 10204 20149 38005 40077 56008 92340 333 10230 20074 30/// 50271 59008 70000
AAXX 21001 76578 06/// /2207 10202 21035 38004 40047 55004 60001 7//// 8//// 92350 333 0//// 10246 20075 30/// 4//// 50279 54/// 56/// 57/// 59008 60007 70000 8//// 8//// 8//// 9//// 9/
AAXX 21001 76581 32970 01105 10260 20155 38983 40055 52004 92350 333 10315 20078 30/// 50430 59004 70000
AAXX 21001 76586 06/// /0000 10236 20202 39944 40097 53012 60001 7//// 8//// 92350 333 0//// 10300 20137 30/// 4//// 50259 54/// 56/// 57/// 58002 60007 70000 8//// 8//// 8//// 9//// 9/
AAXX 21001 76592 06/// /1205 10276 20193 30111 40111 53011 60001 7//// 8//// 92350 333 0//// 10324 20195 30/// 4//// 50599 54/// 56/// 57/// 59028 60007 70000 8//// 8//// 8//// 9//// 9/
AAXX 21001 76593 32350 31403 10278 20254 30110 40112 53008 81240 92350 333 10324 20195 30/// 50430 5633/ 59028 70000 81820 82330 91005 91514
AAXX 21001 76612 32662 43102 10215 20071 38434 40077 55004 81130 92350 333 10269 20070 30/// 50221 56550 59012 70000 81840 83358
AAXX 21001 76625 32550 03203 10214 20035 38102 40038 54002 92345 333 10246 20104 30/// 50290 56000 58000 70000
AAXX 21001 76632 31656 40706 10160 20095 37600 40046 57002 70511 84400 92340 333 10210 20078 30/// 5//// 56100 58/// 59/// 70000 84640
AAXX 21001 76634 31670 50402 10168 20078 37822 40074 52010 70511 85100 92350 333 10239 20093 30/// 50381 563// 58000 70000 85840
AAXX 21001 76641 06/// /1501 10239 20209 30095 40107 53015 60001 7//// 8//// 92350 333 0//// 10295 20174 30/// 4//// 50179 54/// 56/// 57/// 59002 60007 70000 8//// 8//// 8//// 8//// 9/
AAXX 21001 76644 32460 11202 10278 20204 30100 40114 52008 81200 92350 333 10329 20199 30/// 50451 56300 59027 70000 81820
AAXX 21001 76648 32465 11102 10259 20202 30095 40126 53014 60001 7//// 81100 92350 333 0//// 10324 20204 30/// 4//// 50269 54/// 56300 57/// 59023 60007 70010 81818 8//// 8//// 8//// 9/
AAXX 21001 76654 31456 02301 10273 20216 30111 40115 55002 70544 81100 92350 333 10305 20222 30/// 50311 56900 59012 70000 81820
AAXX 21001 76658 31560 12307 10265 20191 39595 40091 57005 70540 81200 92343 333 10314 20170 30/// 50370 56100 59010 70000 81822 94084 98904
AAXX 21001 76659 02/// ///// 1//// 2//// 3//// 4//// 5//// 6//// 7//// 8//// 9//// 333 0//// 1//// 2//// 30/// 4//// 5//// 54/// 56/// 57/// 5//// 6//// 7//// 8//// 8//// 8//// 9//// 9/
AAXX 21001 76662 32670 12503 10234 20061 38422 40070 57005 81100 92345 333 10270 20052 30/// 50600 56/00 59016 70000 81833
AAXX 21001 76665 31964 01602 10200 20095 38083 40060 57005 70102 92350 333 10264 20065 30/// 50300 59009 70000
AAXX 21001 76675 31575 12003 10150 20050 37352 40075 52005 70544 81100 92348 333 10204 21017 30/// 50291 569// 59007 70000 81826 98475
AAXX 21001 76680 31568 32904 10203 20012 37714 40046 55012 70544 83800 92340 333 10235 20079 30/// 50361 56500 57881 59013 70000 83827
AAXX 21001 76684 06/// /2004 10176 20043 37797 40083 53005 60001 7//// 8//// 92350 333 0//// 10248 20031 30/// 4//// 50319 54/// 56/// 57/// 59010 60007 70000 8//// 8//// 8//// 9//// 9/
AAXX 21001 76685 32970 01401 10190 20024 37834 40059 57001 92350 333 10238 20052 30/// 50271 59017 70000
AAXX 21001 76687 32966 01401 10204 20160 38641 40085 53006 92345 333 10270 20115 30/// 50300 59013 70000
AAXX 21001 76692 31956 00703 10254 20205 30072 40091 55000 71044 92345 333 10277 20179 30/// 50261 59027 70000
AAXX 21001 76693 06/// /0602 10245 20208 30079 40098 53010 60001 7//// 8//// 92350 333 0//// 10277 20178 30/// 4//// 50209 56/// 57/// 59023 60007 70000 8//// 8//// 8//// 8//// 9//// 9/
AAXX 21001 76695 32956 00602 10274 20197 30086 40092 52005 92345 333 10326 20174 30/// 50220 59032 70000
AAXX 21001 76698 32558 11201 10253 20219 30121 40132 52010 81200 92350 333 10322 20199 30/// 50121 56300 59018 70000 81820
AAXX 21001 76727 06/// /0000 10215 20041 38361 40049 55000 60001 7//// 8//// 92350 333 0//// 10274 20123 30/// 4//// 50229 54/// 56/// 57/// 59010 60007 70000 8//// 8//// 8//// 9//// 9/
AAXX 21001 76737 32980 03201 10216 20172 38734 40073 52010 92335 333 10293 20121 30/// 50331 59011 70000 91106 91514
AAXX 21001 76738 06/// /2701 10204 20162 38736 40090 53010 60001 7//// 8//// 333 10305 20119 30/// 50289 56/// 57/// 59012 60007 70000 8//// 8//// 8//// 8//// 9//// 9//// 9//// 444 ////
AAXX 21001 76743 31956 00901 10278 20240 30078 40086 63008 70000 92350 333 10300 20192 30/// 50310 560// 59003 70000
AAXX 21001 76750 32558 31102 10264 20231 30109 40119 52005 81107 92345 333 10308 20206 30/// 50161 56306 59023 70000 81820
AAXX 21001 76751 06/// /1002 10258 20231 30109 40119 53004 60001 7//// 8//// 92350 333 0//// 10305 20205 30/// 4//// 50209 54/// 56/// 57/// 59023 60007 70000 8//// 8//// 8//// 9//// 9/
AAXX 21001 76772 06/// /3002 10240 20080 38383 40048 55002 60001 7//// 8//// 92350 333 0//// 10279 20051 30/// 4//// 5///9 56/// 57/// 59016 60007 70000 8//// 8//// 8//// 9//// 9//// 9/
AAXX 21001 76773 31568 22701 10244 20081 38377 40046 57008 70500 81101 92346 333 10276 20041 30/// 50381 56209 59018 70000 81820
AAXX 21001 76775 31565 51901 10252 20052 38471 40060 57004 70300 83460 82345 333 10291 20084 30/// 50371 56880 59015 70000 81827 82627
AAXX 21001 76776 06/// /1801 10227 20057 38457 40045 53001 60001 7//// 8//// 92350 333 0//// 10313 20098 30/// 4//// 50369 56/// 57/// 59015 60007 70000 8//// 8//// 8//// 9//// 9//// 9/
AAXX 21001 76805 32570 72602 10278 20230 30089 40095 53003 82131 92350 333 10312 20230 30/// 50431 56766 59010 70000 82830 82356 83062
AAXX 21001 76806 06/// /2602 10269 20229 30089 40093 55000 60001 7//// 8//// 92350 333 10309 20222 30/// 50219 56/// 57/// 59014 60007 70000 8//// 8//// 8//// 8//// 9//// 9//// 9//// 55
AAXX 21001 76833 31570 31806 10271 20243 30084 40086 57002 70300 83500 92345 333 10306 20188 30/// 5//// 56400 59016 70000 83620 92002
AAXX 21001 76843 32765 20801 10288 20153 39438 40066 53003 81104 92340 333 10326 20160 30/// 50261 568// 59022 70000 81823
AAXX 21001 76845 32960 00000 10172 20115 37923 40120 51006 92340 333 10228 20038 30/// 50281 59011 70000
AAXX 21001 76848 32570 50000 10199 20118 38353 40022 53002 81231 92350 333 10272 20093 30/// 50211 56199 59018 70000 81833 83360
AAXX 21001 76855 32580 42701 10284 20229 30048 40097 55002 81228 92345 333 10335 20216 30/// 50410 56999 59005 70000 81820 81458 92001
AAXX 21001 76902 06/// /2702 10279 20214 39961 40097 53004 60001 7//// 8//// 92350 333 0//// 10328 20223 30/// 4//// 50399 54/// 56/// 57/// 59017 60007 70000 8//// 8//// 8//// 8//// 9/
AAXX 21001 76903 31770 52801 10283 20215 39964 40094 53005 70122 82580 92355 333 10337 20224 30/// 50611 56190 59015 70000 82650 83358
AAXX 21001 76160 32962 02301 10190 20041 39866 40116 57006 92331 333 10195 20035 30/// 50130 59051 70000
AAXX 21001 76243 32472 83603 10130 20036 39857 40155 57004 884// 92335 333 10140 20062 30/// 50281 568// 58052 70000 88616
AAXX 21001 76253 32582 10502 10162 20097 30039 40129 56001 81600 92348 333 10215 20110 30/// 50441 56700 59046 70000 81620 92002
AAXX 21001 76311 32680 62701 10205 20056 39823 40100 57014 86400 92345 333 10251 20072 30/// 50200 56500 59027 70000 86625
AAXX 21001 76405 32980 13202 10230 20131 30096 40117 57013 81050 92350 333 10242 20087 30/// 50251 56050 59041 70000 81457
AAXX 21001 76412 31966 72201 10222 20062 30092 40137 57009 70544 87050 92345 333 10256 20060 30/// 50330 56050 58000 70000 87356
AAXX 21001 76640 31358 23601 10250 20233 30106 40118 52009 70200 824// 92340 333 10276 20172 30/// 50121 567// 59006 70000 82607
AAXX 21001 76647 32465 11402 10261 20215 30107 40138 52016 81100 92350 333 10320 20206 32/// 50421 56300 59021 70012 81818
AAXX 21001 76741 31970 03602 10260 20243 30052 40070 52020 70544 92330 333 10315 20176 30/// 50131 59034 70000
AAXX 21004 91165 NIL
AAXX 21004 91182 NIL
AAXX 21004 91190 NIL
AAXX 21004 91212 NIL
AAXX 21004 91217 NIL
AAXX 21004 91285 NIL
AAXX 21004 91317 11474 40810 10294 20272 30073 40077 5//// 60024 70282 84200 333 562// 70033 59006 84818 555 92100
AAXX 21004 91334 12474 80412 10295 20246 30078 40081 50005 69934 82271 333 20272 56399 59005 70003 555 92100
AAXX 21004 91348 NIL
AAXX 21004 91356 NIL
AAXX 21004 91366 NIL
AAXX 21004 91369 NIL
AAXX 21004 91371 NIL
AAXX 21004 91376 12480 40413 10300 20238 30068 40071 58014 69904 82101 333 20268 561/9 59007 555 92100
AAXX 21004 91408 32474 70910 10311 20251 30047 40085 52017 82208 333 20261 569/9 59005 555 92100
AAXX 21004 91413 11469 80813 10273 20252 30069 40095 51015 60154 70282 84271 333 20259 56299 59008 70150 555 92100
AAXX 21004 91425 NIL
AAXX 21004 91434 NIL
AAXX 21004 91765 NIL
BBXX 46232 21001 99325 71174 46/// ///// 1//// 92338 22200 00152 11503 21002 327// 41502 70015
BBXX 46247 21001 99378 71228 46/// ///// 1//// 92351 22200 00114 11404 21003 328// 41403 70022
BBXX 46243 21001 99462 71241 46/// ///// 1//// 92359 22200 00082 11406 21003 326// 41405 70028
BBXX 46236 21001 99368 71219 46/// ///// 1//// 92350 22200 00125 11404 21002 328// 41403 70021
BBXX 46229 21001 99438 71246 46/// ///// 1//// 92351 22200 00100 11406 20902 329// 41405 70030
BBXX 46225 21001 99329 71174 46/// ///// 1//// 92344 22200 00148 11502 21001 328// 41501 70009
BBXX 46213 21001 99403 71247 46/// ///// 1//// 92354 22200 00100 10808 20806 330// 41504 70038
BBXX 46215 21001 99352 71209 46/// ///// 1//// 92338 22200 00160 11103 21002 327// 41103 70016
BBXX 46219 21001 99332 71199 46/// ///// 1//// 92358 22200 00140 11305 21003 331// 41304 70024
BBXX 46224 21001 99332 71175 46/// ///// 1//// 92336 22200 00150 11301 21001 326// 41301 70007
BBXX 46211 21001 99469 71242 46/// ///// 1//// 92336 22200 00086 11507 21004 328// 41506 70035
BBXX 46214 21001 99379 71235 46/// ///// 1//// 92355 22200 00118 11305 21004 330// 41304 70027
BBXX WFLG 21004 99268 71445 41698 70819 10228 20186 40223 57010 70222 8727/ 22254 04183 20602 309// 41004 5//// 6//// 80200 ICE /////
BBXX C6XC2 21004 99024 31327 41897 82804 10260 20246 40070 52/// 78155 886// 2226/ 00300 2//// 3//// 4//// 5//// 6//// 80250 ICE /////
BBXX ONFW 21004 99352 11198 41/95 /3613 10070 20026 40270 54/// 710// 8//// 22200 04100 20303 3//// 4//// 5//// 6//// 80050 ICE /////
BBXX KAOU 21004 99001 10809 43/// /0406 10271 20245 40059 5//// 7//// 8//// 222// 04288 2//// 3//// 4//// 5//// 6//// 8//// ICE /////
BBXX NWS0003 21004 99539 71665 43/// /0000 10012 21028 49974 5//// 7//// 8//// 222// 0//// 2//// 3//// 4//// 5//// 6//// 8//// ICE /////
BBXX NWS0020 21004 99335 70236 43/// /1121 10191 20105 40286 5//// 7//// 8//// 222// 04206 2//// 3//// 4//// 5//// 6//// 8//// ICE /////
BBXX LAOW5 21004 99356 31776 41498 51213 10240 20163 40260 51030 70311 85163 22254 00190 20204 31313 40102 50102 6//// 80190 ICE /////
BBXX NWS0029 21004 99352 70618 43/// /2727 10194 20146 40210 5//// 7//// 8//// 222// 04217 2//// 3//// 4//// 5//// 6//// 8//// ICE /////
BBXX C6FR6 21004 99252 10552 41/// /0906 10200 2//// 40210 54/// 7//// 8//// 222// 0//// 2//// 3//// 4//// 5//// 6//// 8//// ICE /////
BBXX WCZ5238 21004 99206 11674 41898 30913 10250 20222 40182 54000 70200 838// 22273 00276 20302 328// 40602 5//// 6//// 80230 ICE /////
BBXX PHET 21001 99186 70656 41/98 /0616 10253 20180 40170 54000 7//// 8//// 22274 00280 2//// 3//// 4//// 5////
BBXX C6VG7 21004 99204 70740 415// 40630 10250 2//// 40180 5/010 7//11 84/6/ 22244 0//// 20305 3//// 40305 50305 6//// 8//// ICE /////
BBXX 46001 21001 99563 71480 46/// /1916 10056 40098 58028 92350 22200 00049 10910 20607 300// 40907 70050 333 91219 555 11171 22184 32322 42020 62349 190159 191157 190159 190160 192157 192158
BBXX 44099 21001 99369 70757 46/// ///// 1//// 92352 22200 00116 11301 20701 308// 41301 70007
BBXX DCQR2 21003 99369 31504 41698 72017 10185 20142 40180 54000 70182 8677/ 22243 04200 20404 317// 40604 5//// 80160
BBXX A8GP6 21003 99257 31576 41598 41205 10250 20183 40120 52010 70211 83244 22234 04234 20404 80205
BBXX PFBF 21003 99108 31562 41298 80408 10259 20170 40073 52014 76282 887// 22213 02286 2//01 318// 4//05 5//// 80200
BBXX A8OY9 21004 99028 11012 43398 43210 10275 20260 40093 56011 848/2 22224 00305 20402 333// 40403 5//// 80255
BBXX PHJV 21004 99063 31181 41598 21211 10300 20246 40078 52016 71300 82260 22263 06296 20100 30000 80260
BBXX A8RV7 21004 99125 31545 41498 73015 10285 20244 40060 51020 70311 86298 22283 00300 20903 32324 41203 50501 80255
BBXX PCDE 21003 99393 31444 41597 31112 10174 20148 40199 52003 70300 81460 22223 20201 399// 40502 80158
BBXX 42363 21001 99282 70892 46/// /1706 10228 20194 40153 55000 90000 333 91207
BBXX 42364 21001 99291 70881 46/// /1509 10222 20206 40159 55000 90000
BBXX 41038 21001 99341 70777 46/// /2004 10157 40223 52009 90000 22200 00138 333 91205
BBXX UBEF5 21001 99364 10196 41/97 92910 10120 40170 54000 76461 89/// 22263 00170 20403
BBXX C6IO9 21004 99360 70131 41598 23107 10160 20108 40330 54000 70211 81402 22243 06180 20301 323// 40502 5//// 80132
BBXX UITJ 21001 99714 10226 41498 70408 10025 40039 52014 70222 878// 22253 00050 20402 33600 40803
BBXX UCAC 21001 99708 10313 41/98 90707 10030 49985 57020 700// 89/// 22233 00080 20605 307// 40605
BBXX C6KD4 21003 99395 70251 41298 81612 10155 20143 40322 58015 75052 8/77/ 22254 02168 20405 334// 40404 80148
BBXX UCAB 21001 99632 10043 41/98 92413 10060 40023 52034 70011 8//// 22253 00110 20705
BBXX DGZL 21003 99360 10152 41/98 62720 10130 20094 40165 57015 70022 8//// 22264 00170 2//// 80110
AAXX 21001 26554 41116 83502 11037 21039 39952 40120 57016 71042 886// 333 88702 555 14102
AAXX 21001 26666 41215 80302 11018 21026 39876 40096 57019 77372 8872/ 333 88705 555 1/101
AAXX 21001 26850 41432 83301 11017 21038 39817 40094 57012 77372 8652/ 333 86714 555 14102
AAXX 21001 26863 41212 80202 11016 21021 39831 40072 57016 77372 8872/ 333 88704 555 1/101
AAXX 21001 26941 41956 43502 11021 21033 39862 40105 57007 71011 80007 555 14102
AAXX 21001 26951 41329 80103 11015 21018 39885 40088 57008 77372 8802/ 333 88508 555 1/101
AAXX 21001 33008 41250 83501 11010 21024 39929 40111 57007 71022 886// 333 88706 555 1/101
AAXX 21001 33019 41336 82902 11010 21014 39919 40089 57007 71072 886// 333 88707 555 1/101
AAXX 21001 33036 41158 83602 11005 21017 39831 40066 57008 71022 886// 333 88702 93702 555 1/101
AAXX 21001 33041 41250 80000 10002 21001 39893 40050 57011 77175 8872/ 333 88704 93702 555 1/000
AAXX 21004 91222 NIL
AAXX 21004 91245 NIL
AAXX 21004 91323 NIL
AAXX 21004 91339 NIL
AAXX 21004 91343 NIL
AAXX 21004 91353 NIL
AAXX 21004 91442 NIL
AAXX 21004 78016 32664 42610 10182 20111 30257 40261 52011 83501 333 10191 20158 79999
AAXX 21004 48001 NIL
AAXX 21004 48004 31901 90000 10088 20088 74744 89/// 333 20078 56999
AAXX 21004 48008 21540 20000 10115 20102 40159 71044 82400 333 20105 56400 59010
AAXX 21004 48010 31210 30000 10105 20105 40153 74244 83700 333 20105 56900 59016
AAXX 21004 48018 31940 00000 10120 20102 40147 74244 333 20055 59003
AAXX 21004 48019 32950 00000 10106 20079 40159 333 20104 59000
AAXX 21004 48020 NIL
AAXX 21004 48025 NIL
AAXX 21004 48035 31/01 90000 10089 20068 40163 74744 89/// 333 20070 56999 58001
AAXX 21004 48037 32510 23201 10143 20124 40145 80030 333 20135 56060 59022
AAXX 21004 48042 32957 00000 10145 20129 40150 333 20140 59002
AAXX 21004 48045 NIL
AAXX 21004 48048 32940 00000 10129 20112 40143 333 20133 59011
AAXX 21004 48053 32950 00000 10150 20134 40139 333 20144 59017
AAXX 21004 48057 31939 11401 10120 20102 71000 80001 333 20115 56009
AAXX 21004 48060 31310 10000 10100 20072 40195 74044 81400 333 20096 56500 59003
AAXX 21004 48062 NIL
AAXX 21004 48071 31956 03603 10210 20175 40143 71000 333 20180 58000
AAXX 21004 48077 31956 00402 10170 20154 40126 71000 333 20144 59018
AAXX 21004 48078 32540 21801 10166 20157 40135 81501 333 20138 56909 59008
AAXX 21004 48080 31940 00000 10145 20124 40126 71044 333 20133 58006
AAXX 21004 48094 32956 10000 10175 20170 40125 80001 333 20170 56009 58001
AAXX 21004 48097 31956 50401 10190 20175 40133 71011 80006 333 20174 56009 59001
AAXX 21004 48108 31596 80000 10180 20165 40119 71022 82405 333 20170 56109 59006
AAXX 21004 48109 NIL
AAXX 21004 48110 31996 41303 10225 20177 40112 70522 80006 333 20220 56009 59002
AAXX 21004 48112 21597 80405 10245 20205 40100 70522 83876 333 20185 56199 58005
AAXX 21004 78905 11478 70806 10258 20195 30146 40169 60011 71582 86861 333 10265 20233 58003 84817 85638 90950
BBXX 51204 21001 99213 71581 46/// ///// 1//// 92352 22200 00247 11303 20502 332// 41302 70015
BBXX 51202 21001 99214 71577 46/// ///// 1//// 92339 22200 00244 10906 20905 334// 41302 70028
AAXX 21004 78762 32970 10706 10222 20153 39065 40082 53006 81500 333 10264 20175 30/// 562// 59019 81635
AAXX 21001 06414 36/// /2403 10049 20023 30148 40181 50002 60001 333 91105 91204
AAXX 21001 06459 36/// /2404 10027 20026 39996 40194 50006 60001 333 91108 91206
AAXX 21001 06494 16/// /3105 10001 21002 39365 40181 52011 69961 333 4/027 91112 91207
AAXX 21001 37864 31395 81610 10078 20054 40245 57013 71022 885// 333 88608
AAXX 21001 37925 42597 83201 10065 20051 30311 40282 53001 8807/ 555 11004
AAXX 21001 37851 41395 82302 10071 20033 30185 40257 57008 885//
AAXX 21001 37985 41495 83401 10069 20060 30277 40262 57005 71022 886// 555 11006
AAXX 21001 37661 42998 53301 10016 21003 39501 40251 57002 85050 555 14101
AAXX 21001 37989 42596 03601 10060 20049 30290 40263 57009 86500 555 10016
AAXX 21001 37749 41596 82901 10057 20043 30185 40304 56003 71022 885// 555 11006
AAXX 21001 37740 42596 82301 10025 21005 39446 40268 57013 885// 555 10002
BBXX C6TZ9 21004 99232 50427 415// 60304 10230 20216 40150 54/// 7//11 86/6/ 22212 00230 2//// 3//// 4//// 5//// 6//// 80220 ICE /////
BBXX ELWR5 21000 99026 70844 41497 82008 10250 20216 40078 53013 70011 8/7// 22234 04269 20303 80226
BBXX 3EPD8 21004 99237 50396 41498 20327 10237 20203 40117 7//00 81105 22213 04246 299// 80215
BBXX MZDL7 21003 99122 51041 41498 51218 10217 20184 40118 57013 70311 855// 22243 00240 20504 318// 40706 5//// 80196
BBXX WBP3210 21004 99531 50709 43/// /1815 10064 2//// 49952 5//// 7//// 8//// 22200 00114 2//// 3//// 4//// 5//// 6//// ICE /////
BBXX WCX7445 21004 99531 50709 43/// /2517 10069 2//// 49894 5//// 7//// 8//// 22200 00151 2//// 3//// 4//// 5//// 6//// ICE /////
BBXX 32012 21001 99197 50856 46/// ///// 1//// 92350 22200 11406 70028
BBXX 46238 21001 99334 71195 46/// ///// 1//// 92350 22200 00146 11503 21002 329// 41502 70015
BBXX 46239 21001 99363 71221 46/// ///// 1//// 92351 22200 00136 11106 21004 332// 41105 70031
BBXX UFTA 21001 99849 71235 41596 83105 11132 21149 40047 58006 78582 889// 333 21174
BBXX 41110 21001 99341 70777 46/// ///// 1//// 92351 22200 00139 11201 21001 311// 41201 70005
BBXX 42099 21001 99273 70842 46/// ///// 1//// 92357 22200 00231 10704 20704 70020
BBXX 41112 21001 99307 70813 46/// ///// 1//// 92351 22200 00162 11301 20501 309// 41301 70007
BBXX 41113 21001 99284 70805 46/// ///// 1//// 92351 22200 00211 10502 20502 309// 41101 70012
BBXX 44100 21001 99363 70756 46/// ///// 1//// 92352 22200 00117 11302 21001 307// 41302 70011
BBXX 44022 21001 99409 70737 46/// ///03 10060 21024 40226 53007 90000 22200 00080 333 91204 555 11031 22031
BBXX 44097 21001 99410 70711 46/// ///// 1//// 90002 22200 00120 10803 20803 316// 41301 70015
BBXX 44060 21001 99413 70721 46/// ///02 10051 40232 53014 90000 22200 00098 333 91203 555 11021 22021
BBXX 46053 21001 99342 71198 46/// /2607 10143 40147 56018 92350 22200 00144 11402 20501 324// 41402 70012 333 91208 555 11075 22079 32346 42608 62349 256070 257065 266067 266066 264057 256051
BBXX 46089 21001 99459 71258 46/// /3508 10089 20060 40292 55000 92350 22200 00090 11508 20603 330// 41508 70042 333 91210 555 11081 22086 32252 43410 62349 349076 349075 350076 348078 352081 349081
BBXX 46042 21001 99368 71224 46/// /2703 10120 40168 56012 92350 22200 00128 11505 20401 328// 41505 70026 333 91204 555 11030 22031 32348 42804 62349 264028 238018 230023 232025 245023 257019
BBXX 46083 21001 99582 71380 46/// /3205 10050 20007 40236 51023 92350 22200 00060 11307 20402 300// 41307 70035 333 91206 555 11055 22059 32310 43108 62349 319053 325053 318055 319062 314062 310062 83207 92310
BBXX 46061 21001 99602 71468 46/// /1414 10028 40097 58032 92350 22200 00059 10505 20505 300// 41102 70024 333 91217 555 11150 22158 32339 41418 62349 143139 147139 144130 148133 142134 141136
BBXX 51101 21001 99243 71621 46/// /0610 10234 20163 40197 56020 92350 22200 00239 10906 20604 309// 40905 70031 333 91212 555 11103 22109 32333 40612 62349 060095 057099 056094 057093 065087 064091
BBXX 44039 21001 99411 70727 46/// /0301 10058 21060 40241 92345 22200 00094 1//00 70001 333 91202
BBXX C6FT7 21003 99148 70613 41499 40332 10259 2023/ 40140 5//// 7//00 841// 22244 00210 2//// 3//// 4//// 5//// 6//// 80240 ICE /////
BBXX SHIP 21004 99405 71564 41596 71827 10160 2014/ 40080 56020 75155 8774/ 22224 00150 20204 313// 40306 5//// 6//// 85150 ICE /////
BBXX A8IG2 21003 99426 70528 41598 63030 10080 20068 40060 52020 70211 84566 22223 2//// 324// 40705 80074
BBXX PHET 21001 99186 70656 41/98 /0616 10253 20180 40170 54000 7//// 8//// 22274 00280 2//// 3//// 4//// 5////
BBXX SHIP 21004 99322 71193 41497 13510 10130 2009/ 40070 54000 7//00 81/// 22213 00140 20000 303// 40604 5//// 6//// 80110 ICE /////
BBXX 44008 21001 99405 70692 46/// /0205 10054 21002 40231 51022 92350 22200 00112 10905 20401 323// 40904 70023 333 91207 555 11052 22054 32253 40107 62349 016051 020049 025048 005046 006049 008053
BBXX 41010 21001 99289 70785 46/// /1307 10222 40238 53012 92350 22200 00237 11103 20502 300// 41102 70015 333 91208 555 11069 22072
BBXX 42057 21001 99168 70815 46/// /0810 10277 20209 40129 53010 92350 22200 00278 10704 20704 70021 333 91212 555 11104 22111 32335 40813 62349 081105 076110 076108 075110 075105 072109 80712 92257
BBXX 41009 21001 99285 70802 46/// /1409 10234 20161 40220 55000 92350 22200 00247 11303 20502 300// 41302 70016 333 91211 555 11096 22101
BBXX TBWUK18 21004 99320 50024 41198 22808 10180 20180 40204 57014 70122 821// 22222 00200 20402 304// 41203 5//// 80180
BBXX C6FR6 21004 99252 10552 41/// /0906 10200 2//// 40210 54/// 7//// 8//// 222// 0//// 2//// 3//// 4//// 5//// 6//// 8//// ICE /////
BBXX A8QJ7 21004 99144 70227 41/98 /0504 10250 20235 40154 52014 70200 8//// 22213 06250 2//// 3//// 4//// 5//// 80240
BBXX BATFR45 21004 99069 10562 46/// ///// 10254 20232 40113 55005 22213 00292
BBXX BATFR19 21004 99065 30060 46/// /1512 10237 20199 40144 50001 222// 00255
BBXX BATFR55 21004 99097 30453 44697 43210 10287 20247 40102 70311 82522 22262 00292 20702
BBXX OZBY2 21004 99285 11264 43/// /0514 10180 2013/ 40210 54000 7//// 8//// 22214 00210 20406 3//// 4//// 5//// 6//// 80150 ICE /////
BBXX DFWV2 21004 99316 11528 41298 83620 10150 20076 40200 52040 70322 8/71/ 22264 04190 2//05 333// 4//03 5//// 80110
BBXX OUJI2 21004 99453 11397 41997 02607 11050 2106/ 40350 52030 758// 8//// 22211 00060 2//// 3//// 4//// 5//// 6//// 86050 ICE /////
BBXX WCZ5238 21004 99206 11674 41898 30913 10250 20222 40182 54000 70200 838// 22273 00276 20302 328// 40602 5//// 6//// 80230 ICE /////
BBXX HZGH 21003 99176 10714 41297 43502 10269 20239 40101 56010 70100 82118 22274 02265 20201 30300 40301 5//// 80248
BBXX C6SI6 21004 99318 11209 46/// /0503 10074 20065 40275 53008 7//// 8//// 22200 0//// 2////
BBXX UGPK 21001 99545 11504 43/98 80906 11020 40140 53080 22233 00012 2//20 3//04
BBXX ONFW 21004 99352 11198 41/95 /3613 10070 20026 40270 54/// 710// 8//// 22200 04100 20303 3//// 4//// 5//// 6//// 80050 ICE /////
BBXX 46070 21001 99551 11753 46/// /2904 11012 21071 49972 51007 92350 22200 00039 11005 20401 3//// 41004 70023 333 91205 555 11038 22039 32348 42805 62349 285037 268031 261031 257026 270023 268024 82804 92348
BBXX SHIP 21004 99104 10751 41/97 43522 10260 2022/ 40115 50010 7//22 8//// 22273 0//// 2//// 3//// 4//// 5//// 6//// 80230 ICE /////
BBXX DGHX 21003 99329 11613 41298 83227 10165 20141 40115 52015 70222 887// 22264 00200 20804 332// 40806 80150
BBXX CG2965 21004 99487 71235 46/// /2102 10089 20054 40249 58004 7//// 8//// 22200 0//// 2////
BBXX VCRG 21004 99463 70623 46/// /3021 11047 21064 40154 53034 7//// 8//// 22200 0//// 2////
BBXX CGUM 21004 99444 70635 46/// /3316 11041 21095 40188 53039 7//// 8//// 22241 0//// 2////
BBXX 46026 21001 99378 71228 46/// /2903 10113 40175 56012 92350 22200 00116 11404 20301 329// 41404 70020 333 91204 555 11034 22035 32346 42904 62349 290032 288026 285026 284020 281015 276008
BBXX 46041 21001 99474 71247 46/// /3309 10083 40274 54000 92350 22200 00083 11509 20602 3//// 41509 70047 333 91210 555 11092 22098 32252 43311 62349 327084 330080 329082 330081 331080 332084
BBXX 44007 21001 99435 70701 46/// /2804 10004 21112 40232 53023 92350 22200 00079 11201 3//// 41201 70004 333 91205 555 11038 22039 32343 42905 62349 282036 288036 286037 280032 261029 257026
BBXX 46035 21001 99571 71778 46/// /2709 1//// 49926 51008 92350 22200 11106 20704 300// 41104 70029 333 91210 555 11085 22091 32326 42712 62349 273086 269089 271096 273094 273097 281095 82711 92301
BBXX 46072 21001 99517 71722 46/// /2309 10024 21026 40006 54000 92350 22200 00044 11109 20805 3//// 41107 70045 333 91211 555 11094 22099 32313 42411 62349 234089 230085 228081 226081 221083 225079 82309 92343
BBXX 46077 21001 99579 71543 46/// /1811 10050 20006 49927 56015 92350 22200 00048 11008 20806 3//// 41005 70038 333 91215 555 11121 22130 32255 41818 62349 175113 189120 189127 183136 194141 185134 81815 92313
BBXX 46082 21001 99597 71434 46/// ///// 10047 20047 40178 58008 92350 22200 00064 11106 70028
BBXX 42039 21001 99288 70860 46/// /1509 10230 40161 55000 92350 22200 00228 10804 20703 300// 40802 70020 333 91211 555 11095 22102 32342 41511 62349 152088 151086 155092 155090 156083 159071 81610 92326
BBXX BATEU08 21004 99592 70437 46/// /0328 11031 21082 49931 56029 22263
BBXX 41043 21001 99211 70650 46/// /0709 10246 20181 40204 52016 92350 22200 00263 11206 20705 300// 41205 70032 333 91211 555 11099 22104 32301 40612 62349 069091 072091 072090 064092 065096 057094 80611 92302
BBXX 44066 21001 99396 70726 46/// /0702 10088 20031 40226 51010 92350 22200 00131 11303 20401 3//// 41303 70016 333 91204 555 11025 22025 32311 40606 62349 067025 059027 052030 059031 042033 051030
BBXX 41047 21001 99275 70715 46/// /0907 10218 40260 53012 92350 22200 00251 11105 20602 304// 41105 70027 333 91209 555 11068 22071 32331 40909 62349 085068 086071 086070 086067 090070 086068 80908 92332
BBXX 42002 21001 99258 70937 46/// /1605 10243 20235 40124 53009 92350 22200 00242 10703 20401 312// 40703 70016 333 91206 555 11049 22052 32256 41606 62349 161049 158046 159048 159051 160051 160052
BBXX 41036 21001 99342 70770 46/// ///// 10192 20126 40229 53008 92350 22200 00193 11101 70007
BBXX PBFM 21003 99145 70660 41/97 /0625 10268 20229 40151 54000 70211 8//// 22254 2//// 80240
BBXX A8EH2 21004 99419 71401 41/98 81809 10125 20085 40315 54000 70222 8/77/ 22285 00115 20201 330// 40606 80105
BBXX C6FV8 21003 99168 70626 41498 50625 10260 2//// 40110 51010 7//11 85839 22233 04290 20502 3//// 40502 50401 6//// 8//// ICE /////
BBXX C6JS 21003 99349 70388 41397 82330 10180 2016/ 40160 58020 76022 89/// 22254 20705 3//// 4//// 5//// 80170
BBXX 9VVD 21004 99452 70428 41/97 /2320 10095 20038 40050 51020 70200 8//// 22224 04170 20505 30606 40301 50401 80070
BBXX 44040 21001 99410 70736 46/// /1203 10062 21029 40232 92345 22200 1//00 70001 333 91203 555 11031 22036
BBXX 41041 21001 99142 70460 46/// /0806 1//// 40155 53019 92350 22200 00267 333 91208 555 11065 22069
BBXX 41046 21001 99238 70683 46/// /0810 10238 20153 40225 53011 92350 22200 00256 11306 20703 300// 41305 70029 333 91211 555 11101 22106 32319 40913 62349 083095 077095 084093 082095 080093 077092 80910 92319
BBXX 44011 21001 99411 70666 46/// /3408 10033 21023 40221 51032 92350 22200 00093 10908 20605 3//// 40906 70039 333 91210 555 11088 22092 32341 41712 62349 343087 344088 335080 334088 340086 335086
BBXX BAREU06 21004 99473 70591 46/// ///// 40063 22234
BBXX C6RM7 21003 99524 70525 41198 60522 10060 20009 49980 55/// 70200 83778 22264 04000 20805 313// 41006 5//// 80040
BBXX HZRX 21003 99243 70816 41797 71718 /// 10260 20215 40208 55007 70322 87150 22253 10240 20303 31717 40202 5//// 6//// 80190 ///// /////
BBXX PDBP 21003 99372 70543 41/98 /2335 10199 20138 40144 53015 762// 8//// 22234 04211 21010 332// 41207 80161
BBXX A8ER9 21001 99486 71425 41798 31410 10083 20057 40300 57030 70200 81075 22274 04115 20804 327// 41208 5//// 80070
BBXX VCLM 21004 99501 70663 46/// /3021 11105 21158 40153 53049 7//// 8//// 22263 00006 2////
BBXX CGCC 21004 99460 70731 46/// /2003 11067 21122 40217 55001 7//// 8//// 22200 0//// 2////
BBXX CGBN 21004 99447 70636 46/// /2917 11046 21101 40172 53040 7//// 8//// 22200 0//// 2////
BBXX VCSZ 21004 99460 70732 46/// /2509 11064 21098 40213 55003 7//// 8//// 22213 0//// 2////
BBXX VOKJ 21004 99512 70574 46/// /0323 11042 21058 49988 51025 7//// 8//// 22254 0//// 2////
BBXX CZ9742 21004 99506 70969 46/// /2307 10014 21026 49970 53005 7//// 8//// 22200 0//// 2////
BBXX CGBY 21004 99487 71235 46/// /2102 10088 20055 40247 58004 7//// 8//// 22200 0//// 2////
BBXX VCWL 21004 99456 70735 46/// /0000 11055 21104 40219 55000 7//// 8//// 22200 0//// 2////
BBXX CGSB 21004 99488 70676 46/// /2814 11086 21139 40190 51014 7//// 8//// 22231 00017 2////
BBXX VCBW 21004 99491 70672 46/// /2818 11097 21156 40177 51022 7//// 8//// 22213 00018 2////
BBXX VOFG 21004 99456 70614 46/// /3022 11032 21087 40136 53045 7//// 8//// 22200 0//// 2////
BBXX VOKF 21004 99490 70669 46/// /2818 11091 21152 40180 51028 7//// 8//// 22200 0//// 2////
BBXX CGBR 21004 99536 71297 46/// /0115 10032 20031 40287 53028 7//// 8//// 22233 00075 2////
BBXX VOPP 21004 99456 70735 46/// /2103 11055 21103 4//// 5//// 7//// 8//// 22200 0//// 2////
BBXX CGDT 21004 99468 70712 46/// /2602 11099 21145 40233 51009 7//// 8//// 22200 0//// 2////
BBXX CG2958 21004 99517 71281 46/// /3007 10077 20045 40293 51003 7//// 8//// 22200 0//// 2////
BBXX VAAP 21004 99447 70636 46/// /3018 11052 21105 40178 53039 7//// 8//// 22200 0//// 2////
BBXX CGDX 21004 99490 70669 46/// /2917 11086 21140 40184 51024 7//// 8//// 22200 0//// 2////
BBXX CGTF 21004 99476 70527 46/// /1405 11012 21015 49953 53012 7//// 8//// 22200 0//// 2////
BBXX VOLG 21004 99466 70532 46/// /2930 10011 21033 49962 51032 7//// 8//// 22253 0//// 2////
BBXX VXKF 21004 99462 70602 46/// /3011 11047 21092 40109 51044 7//// 8//// 22200 0//// 2////
BBXX CGDG 21004 99447 70636 46/// /3116 11050 21015 40187 53040 7//// 8//// 22200 0//// 2////
BBXX CGJK 21004 99484 71234 46/// /2712 10084 20051 40249 56008 7//// 8//// 22200 0//// 2////
BBXX CGDR 21004 99492 71239 46/// /3111 10081 20062 40247 57004 7//// 8//// 22251 00120 2////
BBXX CGDS 21004 99450 70746 46/// /0410 11053 21109 4//// 5//// 7//// 8//// 22221 00056 2////
BBXX VAAZ 21004 99535 70522 46/// /3618 11035 21061 49982 53001 7//// 8//// 22231 0//// 2////
BBXX 3FZK3 21004 99507 71336 46/// /3218 10069 20042 40285 53011 7//// 8//// 22233 0//// 2////
BBXX 44020 21001 99414 70702 46/// /0604 10030 21052 40231 51017 92350 22200 00076 11001 20301 310// 41001 70004 333 91206 555 11045 22047 32250 40306 62349 049041 257042 258039 255043 256045 258048
BBXX BATFR14 21004 99321 70414 44397 32301 10202 20142 40177 52011 76000 83200 22214 00215 20502 309// 40804 5////
BBXX 41101 21004 99146 70562 46/// /0521 10264 20214 40146 52014 22200 00272 10704 70020 555 1/029
BBXX 46005 21001 99461 71310 46/// ///05 10090 40321 55000 92350 22200 00100 11508 20401 3//// 41508 70042 333 91207 555 11053 22055
BBXX 46006 21001 99408 71375 46/// /1203 10120 40321 56019 92350 22200 00128 11306 20401 3//// 41306 70030 333 91204 555 11032 22033 32315 41005 62349 125031 102028 094029 097030 101030 092027
BBXX 46075 21001 99539 71608 46/// /2409 10041 21018 40015 51022 92350 22200 00050 11314 20705 300// 41313 70070 333 91212 555 11094 22099 32253 42415 62349 241088 244094 248095 247101 243112 243118 82513 92254
BBXX 46084 21001 99566 71361 46/// /2807 10057 20012 40257 51021 92350 22200 00070 11408 20603 300// 41407 70039 333 91209 555 11070 22073 32256 42811 62349 282067 285071 284078 286072 283081 280085
BBXX 44022 21001 99409 70737 46/// ///03 10061 21026 40224 92345 22200 00080 333 91204 555 11031 22031
BBXX 41013 21001 99334 70777 46/// /1603 10202 20151 40228 53005 92350 22200 00199 11202 20301 311// 41201 70008 333 91204 555 11034 22038 32255 41604 62349 165032 165031 163029 163032 160030 162034
BBXX 44027 21001 99443 70673 46/// /3109 11026 21124 40215 51026 92350 22200 00083 10703 20702 3//// 40901 70014 333 91211 555 11090 22094 32323 43212 62349 308085 314084 320090 309081 320080 311078
BBXX 44065 21001 99404 70737 46/// /1801 10062 20018 40227 53008 92350 22200 00090 11302 312// 41302 70010 333 91202 555 11012 22012 32341 41802 62349 180012 186010 172007 137004 148009 149010 81802 92344
BBXX 46080 21001 99580 71500 46/// /1916 10052 20041 40018 56028 92350 22200 00052 11011 20706 3//// 41009 70055 333 91220 555 11170 22182 32303 41820 62349 187157 187156 187153 186155 186162 186157 81917 92303
BBXX 46025 21001 99337 71191 46/// /3006 10158 20093 40140 56008 92350 22200 00154 11403 20401 328// 41402 70013 333 91208 555 11067 22072 32334 43108 62349 303061 306068 301062 300065 295064 302065
BBXX 46028 21001 99357 71219 46/// /0000 10126 40159 56013 92350 22200 00131 11405 20401 329// 41405 70026 333 91201 555 11002 22002 32252 42604 62349 230003 276014 274018 216019 237021 252030
BBXX 46059 21001 99380 71300 46/// /0213 10130 40256 56010 92350 22200 00146 10908 20605 3//// 40906 70041 333 91216 555 11143 22152 32324 40217 62349 016135 016134 014133 014131 013125 011119
BBXX 46029 21001 99461 71245 46/// /3408 10090 20060 40283 53004 92350 22200 00092 11507 20602 329// 41507 70037 333 91210 555 11087 22092 32257 43410 62349 341080 338075 337072 340071 344079 344081
BBXX 46054 21001 99342 71204 46/// /3108 10133 40154 56011 92350 22200 00138 11205 20602 300// 41204 70024 333 91209 555 11083 22088 32304 43110 62349 311078 312076 310072 311081 311086 308080
BBXX 46014 21001 99394 71240 46/// /1802 10092 40184 56014 92350 22200 00107 11306 20401 3//// 41306 70029 333 91204 555 11025 22025 32254 42604 62349 180025 175025 172029 205027 258029 246032
BBXX 46087 21001 99485 71247 46/// /3109 10088 20070 40260 57003 92350 22200 00077 11408 20704 328// 41407 70038 333 91212 555 11101 22109 32328 43113 62349 307094 307096 306098 303103 304106 305092
BBXX 46027 21001 99419 71244 46/// /3413 10098 40209 56012 92350 22200 00091 11306 20705 327// 41304 70032 333 91217 555 11144 22155 32349 43417 62349 338134 337140 338135 338134 339128 340132
BBXX 46088 21001 99483 71232 46/// /2711 10084 40240 92350 22200 00079 10401 20401 70005 333 91214 555 11114 22122 32347 42714 62349 271106 267095 270084 274082 277086 280084
BBXX 46050 21001 99442 71246 46/// /3607 10094 40276 55000 92350 22200 00098 11506 20401 328// 41506 70032 333 91208 555 11074 22079 32253 43609 62349 004071 005071 006072 007069 010071 008073
BBXX 46013 21001 99382 71233 46/// /2602 10098 40178 56009 92350 22200 00113 11104 20401 3//// 41104 70022 333 91203 555 11018 22019 32258 42703 62349 264018 257011 259015 247019 242021 247020
BBXX 46069 21001 99337 71202 46/// /3307 10136 40156 56009 92350 22200 00142 11405 20601 330// 41405 70024 333 91208 555 11072 22076 32345 43208 62349 325068 324068 322061 322059 322062 321063
BBXX 46002 21001 99426 71305 46/// ///// 10111 40303 56010 92350 22200 00119 11407 70036
BBXX 46012 21001 99374 71229 46/// /2903 10109 40175 56011 92350 22200 00126 11405 20401 329// 41405 70024 333 91205 555 11033 22034 32337 43006 62349 293034 297043 303032 298033 317035 334024
BBXX 46088 21001 99483 71232 46/// /2711 10084 40240 57011 92350 22200 00079 10401 20401 70005 333 91214 555 11114 22122 32347 42714 62349 271106 267095 270084 274082 277086 280084
BBXX 46047 21001 99324 71195 46/// /3305 10138 40156 56006 92350 22200 00139 11405 20401 329// 41405 70026 333 91206 555 11050 22053 32343 43306 62349 330047 330046 325047 323044 325042 326044
BBXX 46011 21001 99350 71210 46/// /3205 10126 40166 56011 92350 22200 00142 11405 20401 330// 41405 70026 333 91206 555 11050 22052 32344 43106 62349 316048 313042 318046 314045 313046 316039
BBXX 46086 21001 99325 71180 46/// /3304 10146 40145 56006 92350 22200 00150 11403 20301 328// 41403 70016 333 91205 555 11038 22039 32255 43205 62349 325036 320035 316038 312038 322042 324045
BBXX 46105 21001 99590 71522 46/// ///// 1//// 92350 22200 10804 70018
BBXX 44060 21001 99413 70721 46/// ///03 10051 40231 92345 22200 00098 333 91204 555 11026 22026
BBXX 42003 21001 99260 70856 46/// /1209 1//// 92350 22200 10804 20804 309// 41401 70020 333 91211 555 11097 22104 32334 41211 62349 124090 122092 122087 124085 122092 120089 81210 92303
BBXX 42055 21001 99222 70940 46/// /1106 10251 20208 40105 53011 92350 22200 00253 10603 20502 310// 40602 70013 333 91207 555 11063 22066 32301 41207 62349 112058 117060 117059 121057 119061 119060 81206 92311
BBXX 42012 21001 99301 70876 46/// /1606 10216 20206 40150 55000 92350 22200 00209 10803 20402 315// 40803 70016 333 91208 555 11066 22073 32347 41608 62349 156061 161063 157059 154057 158059 159060
BBXX 42065 21001 99149 70750 46/// /0812 10271 20211 92350 22200 10807 20806 3//// 41003 70033 333 91214 555 11124 22133 32341 40815 62349 075116 073117 078115 082104 078110 077105 80713 92335
BBXX 42001 21001 99259 70897 46/// /1508 10247 20219 40151 53005 92350 22200 00256 10803 20602 3//// 40802 70014 333 91209 555 11086 22091 32258 41709 62349 153081 157078 158073 156073 160074 158080
BBXX 41048 21001 99320 70696 46/// /2505 10190 20104 40267 51012 92350 22200 00225 11205 20401 3//// 41205 70025 333 91206 555 11048 22050 32259 42507 62349 246048 251049 239051 242049 248048 244048 82506 92349
BBXX 41060 21001 99148 70510 46/// ///// 1//// 92350 22200 11003 70017
BBXX DGHJ 21003 99300 71591 41999 22703 10233 20159 40228 57017 70200 80002 22263 00220 20000 33000 40708 5//// 80185
BBXX 41044 21001 99217 70587 46/// /0410 10239 20173 40206 51016 92350 22200 00261 11307 20704 300// 41305 70035 333 91212 555 11101 22106 32337 40413 62349 039096 043103 053102 062101 063096 059095 80412 92338
BBXX 42019 21001 99279 70954 46/// /3609 10188 20139 40121 53011 92350 22200 10804 20804 70019 333 91212 555 11098 22105 32309 42812 62349 347093 284093 284093 284097 284097 288094
BBXX 44005 21001 99432 70691 46/// /3205 10011 21110 40229 53025 92350 22200 00085 10502 20402 3//// 40501 70011 333 91206 555 11053 22054 32308 43308 62349 323051 326048 318050 326058 324055 327052
BBXX 42040 21001 99292 70882 46/// /1508 10224 40148 54000 92350 22200 00228 10804 20502 313// 40803 70020 333 91210 555 11078 22084 32349 41510 62349 147079 147071 149072 145073 147069 146066
BBXX 42059 21001 99151 70675 46/// /0710 10272 20192 40147 52013 92350 22200 00278 10705 20705 3//// 41001 70024 333 91212 555 11108 22114 32256 40613 62349 071102 069101 073101 062102 064102 063103 80611 92256
BBXX 42056 21001 99198 70849 46/// /1010 10269 20238 40136 53009 92350 22200 00273 10805 20805 70024 333 91211 555 11103 22109 32315 41313 62349 103098 106098 111097 119100 115101 117094 81211 92315
BBXX 42060 21001 99163 70635 46/// /0511 10269 20197 40161 51010 92350 22200 00277 10604 20604 300// 41102 70020 333 91214 555 11120 22127 32349 40514 62349 047110 044107 043110 044105 048102 048100 80412 92326
BBXX 42036 21001 99285 70845 46/// /1508 10219 20198 40179 53006 92350 22200 00216 10703 20703 70015 333 91210 555 11090 22097 32309 41510 62349 147084 145081 146083 146088 146087 149084
BBXX 42035 21001 99292 70944 46/// /3404 10150 20133 40133 51009 92350 22200 00156 10802 20301 318// 40802 70009 333 91205 555 11041 22042 32347 43405 62349 340039 349035 359029 355034 357038 359035
BBXX 41001 21001 99347 70727 46/// ///// 10193 20150 40234 53012 92350 22200 00222 10704 70022
BBXX 42058 21001 99149 70749 46/// /0812 10273 20212 40116 53011 92350 22200 00278 10806 20806 306// 41002 70030 333 91214 555 11125 22133 32316 40815 62349 085119 085120 081115 081127 084115 084113 80913 92307
BBXX 41049 21001 99275 70630 46/// /0505 10205 20121 40259 53011 92350 22200 00235 11407 20502 300// 41407 70034 333 91207 555 11054 22056 32252 40508 62349 053052 045052 055057 054058 061060 048067 80507 92252
BBXX 42020 21001 99270 70967 46/// /0110 10181 20110 40134 53014 92350 22200 00235 10604 20604 70021 333 91212 555 11102 22107 32251 40113 62349 011098 008098 006099 008101 006102 014103
BBXX 41012 21001 99300 70805 46/// /1609 10228 40212 55000 92350 22200 00231 10503 20502 306// 41001 70013 333 91211 555 11096 22102 32318 41512 62349 155089 155093 158088 154088 154086 155083
BBXX BAREU05 21004 99471 70707 46/// ///// 40206 52011 22253
BBXX BAREU04 21004 99514 70429 46/// ///// 49892 52154 22253
BBXX BAREU11 21004 99277 70583 46/// ///// 40255 52013 22214
BBXX NWS0022 21004 99416 70714 43/// /2902 10042 21040 40226 5//// 7//// 8//// 222// 04110 2//// 3//// 4//// 5//// 6//// 8//// ICE /////
BBXX PGQI 21003 99327 70740 41/97 32015 10192 20135 40245 56012 70200 8//// 22283 20401 305// 41204 80157
BBXX WFLG 21004 99268 71445 41698 70819 10228 20186 40223 57010 70222 8727/ 22254 04183 20602 309// 41004 5//// 6//// 80200 ICE /////
BBXX 9HXD9 21004 99166 70795 41698 60929 10270 20243 40100 5//// 7//11 86/// 22274 00280 20506 308// 4//// 5//// 6//// 80250 ICE /////
BBXX C6LU3 21003 99395 70551 41/97 83128 10145 2012/ 40140 52010 70322 88/// 22224 20807 80130
BBXX SHIP 21003 99316 71299 41697 80122 10150 2010/ 40250 57020 70222 886// 22223 00170 20807 332// 40806 5//// 6//// 80120 ICE /////
BBXX CG2350 21004 99433 70798 46/// /0302 11003 21036 40187 58011 7//// 8//// 22200 0//// 2////
BBXX CG2960 21004 99423 70830 46/// /1202 10027 20006 4//// 5//// 7//// 8//// 22200 0//// 2////
BBXX DEGI 21003 99367 10008 41/98 /2727 10161 20122 40230 54000 70200 8//// 22263 04167 29904 80138
BBXX TFSTD 21004 99664 70234 46/// ///// 22200 10906 70030
BBXX TFKGR 21004 99657 70136 46/// ///// 22200 10402 70012
BBXX TFGRV 21004 99638 70225 46/// ///// 22200 10705 70024
BBXX TFGSK 21004 99641 70229 46/// ///// 22200 10807 70037
BBXX TFSRT 21004 99633 70203 46/// ///// 22200 10806 70032
BBXX TFHFN 21004 99642 70152 46/// ///// 22200 10704 70021
BBXX TFBKF 21004 99635 70202 46/// ///// 22200 10806 70029
BBXX TFDRN 21004 99658 70212 46/// ///// 22200 10402 70008
BBXX TFGRS 21004 99663 70182 46/// ///// 22200 10503 70017
BBXX DBBH 21001 99360 70107 41/98 /0309 10161 20125 40325 57003 7//// 22241 04180
BBXX VRYO3 21004 99496 70098 46/// /0919 10127 20140 40230 52020 7//// 8//// 22264 00120 2////
BBXX A8SI8 21004 99324 10295 43598 62715 10190 2014/ 40280 54000 22275 00170 80160
BBXX MDTE9 21003 99385 70177 41296 40905 10148 20141 40343 52003 75051 836// 22223 00160 20201 329// 41202 5//// 80144
BBXX DBBI 21001 99535 10100 46/// /2805 10027 20027 40075 52018 22230 00032
BBXX DBND 21001 99536 10086 46/// /3006 10049 20035/40090 56011/ 22250 00050
BBXX DBKR 21001 99541 10121 46/// /9901 10007 20007 40061 52003 22200 00050
BBXX DBBA 21001 99544 10113 46/// /3004 10017 20017 40061 52005 22230 00052
BBXX DBEB 21001 99539 10078 41/// /3113 10065 20065 40090 52014 / 7//// 22261 00060
BBXX DBJM 21001 99540 10085 46/// /3113 10057 20031 40084 52009 22250 00043
BBXX DBBC 21001 99535 10100 46/// /2805 10027 2//// 40076 52018 22240 00034
BBXX DBEA 21001 99540 10083 46/// /3316 10056 20010 40085 52010 22250 00052
BBXX C6TQ3 21004 99204 51228 41598 30819 10243 20188 40166 57018 70200 83247 04250 20805 324// 41206 5//// 80208
BBXX BATEU07 21004 99295 31131 46/// /1413 10222 40151 51011 22284
BBXX LAOW5 21004 99356 31776 41498 51213 10240 20163 40260 51030 70311 85163 22254 00190 20204 31313 40102 50102 6//// 80190 ICE /////
BBXX BATFR53 21004 99184 51790 46/// /0710 10275 20229 40112 56010 22222 00285
BBXX C6XC2 21004 99024 31327 41897 82804 10260 20246 40070 52/// 78155 886// 2226/ 00300 2//// 3//// 4//// 5//// 6//// 80250 ICE /////
BBXX DDAC2 21000 99156 70993 41498 62403 10272 20240 40080 54000 7//22 84168 22272 04296 20200 330// 40704 5//// 80249
BBXX 3FBC9 21004 99094 71138 41597 71122 10260 40042 57013 70322 86986 9//// 22233 00280 20406 307// 40608 5//// 6//// 80240
BBXX FVNM 21004 99068 70809 46/// /2903 10260 20232 40077 53011 22221 00277
BBXX WDC6698 21004 99097 71435 43/// /0510 1//// 2//// 40080 5//// 7//// 8//// 222// 04254 2//// 3//// 4//// 5//// 6//// 8//// ICE /////
BBXX DBLK 21001 99705 50081 41/97 /2206 11065 21081 49805 57011 7//// 22200 05017
AAXX 21001 03976 11356 82606 10113 20111 30129 40141 52020 69941 75052 886// 333 88707
AAXX 21004 04005 41489 69901 11030 21054 49957 52014 71582 86800 555 3/207
AAXX 21004 04018 41684 62308 11002 21043 49991 57004 72688 85860 555 3//15 82833 85650 86357
AAXX 21004 04030 41682 71602 11018 21033 49996 58004 72622 84960 555 3//08 84932 86350
AAXX 21004 04048 NIL
AAXX 21004 04063 42682 51606 11016 21070 49978 52012 83310 555 3//08
AAXX 21004 04077 NIL
AAXX 21004 04082 NIL
AAXX 21004 04097 42689 13304 11012 21103 40003 52014 81200 555 3/307
AAXX 21004 78762 32970 10706 10222 20153 39065 40082 53006 81500 333 10264 20175 30/// 562// 59019 81635
AAXX 21001 76040 32960 23301 10176 20109 30130 40144 57009 82030 92345 333 10178 20056 30/// 50180 56070 59013 82375 98660
AAXX 21001 76056 06/// /3306 10150 20087 30110 40134 55006 60011 7//// 8//// 92350 333 0//// 10165 20098 30/// 4//// 50159 54/// 56/// 57/// 59015 60007 70096 8//// 8//// 8//// 9//// 9/
AAXX 21001 76122 32570 21102 10099 21020 38482 40118 57006 81120 92345 333 10120 21032 30/// 50311 56590 58/// 70000 81835
AAXX 21001 76123 06/// /0805 10102 21037 3//// 4//// 5//// 60001 7//// 8//// 92350 333 0//// 10137 21041 50189 56/// 57/// 5//// 60007 70000 8//// 8//// 8//// 8//// 9//// 9//// 9//// 44
AAXX 21001 76220 32858 12404 10124 21017 38079 40103 57006 81030 92340 333 10142 21036 30/// 50151 56050 58/// 70000
AAXX 21001 76225 32760 50701 10109 21028 38575 40100 53005 85038 92345 333 10118 20008 30/// 50121 56055 58005 70000 83350 82870
AAXX 21001 76256 32980 02001 10185 20100 30119 40133 57008 92345 333 10215 20081 30/// 50150 59047 70000
AAXX 21001 76305 32970 00402 10200 20100 30112 40119 57009 92350 333 10218 20100 30/// 50211 59047 70000
AAXX 21001 76323 32570 73601 10138 21018 38221 40147 57018 83202 92340 333 10168 20011 30/// 50421 56505 58012 70000 83630 84268
AAXX 21001 76342 31862 60303 10144 20042 39467 40179 52005 70321 86020 92350 333 10184 20090 30/// 50371 56050 58051 70000 86458
AAXX 21001 76373 32665 51501 10153 21122 38155 40088 53002 85500 92350 333 10220 20080 30/// 50291 56900 59007 70000 85623
AAXX 21001 76382 32980 20000 10226 20142 38834 40066 57010 80008 92347 333 10264 20063 30/// 50311 56001 58002 70000 82274
AAXX 21001 76390 31864 11405 10155 20055 38183 40063 54000 70544 81040 92330 333 10228 20065 30/// 50571 56080 58011 70000 81356
AAXX 21001 76393 32950 312// 10184 20082 39553 40123 52007 83010 92345 333 10228 20140 30/// 50421 56030 58049 70000 83460
AAXX 21001 76402 31562 52903 10184 20103 30068 40126 57007 70544 85500 92340 333 10203 20056 30/// 50261 56600 59034 70000 85628
AAXX 21001 76423 32584 52405 10182 38107 40093 52001 82144 92355 333 10230 21012 30/// 50470 56999 59005 70000 81820 81627 81357 82067
AAXX 21001 76458 32870 73204 10202 20129 30109 40114 57002 82054 92346 333 10232 20098 30/// 50171 56075 59013 70000 82358 85079
AAXX 21001 76471 32580 32403 10152 20036 37652 40053 57005 81501 92350 333 10190 20011 30/// 50560 56505 59015 70000 81635 82075
AAXX 21001 76490 06/// /0104 10223 20108 39734 40117 53013 60001 7//// 8//// 92350 333 0//// 10279 20127 30/// 50309 54/// 56/// 57/// 58052 60007 70000 8//// 8//// 8//// 8//// 9//// 9/
AAXX 21001 76491 32660 63605 10224 20142 39747 40131 52010 86500 92350 333 10279 20147 30/// 50231 56800 59/// 70000 86640
AAXX 21001 76519 32560 62704 10201 20042 38329 40105 57003 81102 92350 333 10238 20030 30/// 50341 56506 58004 70000 81823 85070
AAXX 21001 76525 32780 82411 10129 20004 37433 40081 55001 82101 92340 333 10161 20060 30/// 50531 565/5 59004 70000 82850 86080 91111
AAXX 21001 76538 06/// /2304 10199 38118 40046 55001 60001 7//// 8//// 92350 333 0//// 10251 20090 30/// 4//// 50369 54/// 56/// 57/// 59004 60007 70000 8//// 8//// 8//// 9//// 9//// 9/
AAXX 21001 76543 32975 03602 10279 20184 30078 40111 53012 92340 333 10312 20142 30/// 5//// 58/// 70000
AAXX 21001 76547 06/// /0405 10227 20209 30096 40108 53015 60001 7//// 8//// 92350 333 0//// 10291 20195 50289 56/// 57/// 58009 60007 70000 8//// 8//// 8//// 8//// 9//// 9//// 9//// 44
AAXX 21001 76548 32570 10505 10232 20209 30103 40113 53011 81100 92335 333 10286 20194 30/// 50111 56100 58006 70000 81822
AAXX 21001 76556 32970 22103 10220 20153 39092 40103 57009 80002 92330 333 10268 20105 30/// 50231 56007 59007 70000 82070
AAXX 21001 76571 32770 42101 10212 21052 38124 40076 55004 82204 92348 333 10238 20050 30/// 50741 56505 59009 70000 82850
AAXX 21001 76577 32970 02305 10204 20149 38005 40077 56008 92340 333 10230 20074 30/// 50271 59008 70000
AAXX 21001 76578 06/// /2207 10202 21035 38004 40047 55004 60001 7//// 8//// 92350 333 0//// 10246 20075 30/// 4//// 50279 54/// 56/// 57/// 59008 60007 70000 8//// 8//// 8//// 9//// 9/
AAXX 21001 76581 32970 01105 10260 20155 38983 40055 52004 92350 333 10315 20078 30/// 50430 59004 70000
AAXX 21001 76586 06/// /0000 10236 20202 39944 40097 53012 60001 7//// 8//// 92350 333 0//// 10300 20137 30/// 4//// 50259 54/// 56/// 57/// 58002 60007 70000 8//// 8//// 8//// 9//// 9/
AAXX 21001 76592 06/// /1205 10276 20193 30111 40111 53011 60001 7//// 8//// 92350 333 0//// 10324 20195 30/// 4//// 50599 54/// 56/// 57/// 59028 60007 70000 8//// 8//// 8//// 9//// 9/
AAXX 21001 76593 32350 31403 10278 20254 30110 40112 53008 81240 92350 333 10324 20195 30/// 50430 5633/ 59028 70000 81820 82330 91005 91514
AAXX 21001 76612 32662 43102 10215 20071 38434 40077 55004 81130 92350 333 10269 20070 30/// 50221 56550 59012 70000 81840 83358
AAXX 21001 76625 32550 03203 10214 20035 38102 40038 54002 92345 333 10246 20104 30/// 50290 56000 58000 70000
AAXX 21001 76632 31656 40706 10160 20095 37600 40046 57002 70511 84400 92340 333 10210 20078 30/// 5//// 56100 58/// 59/// 70000 84640
AAXX 21001 76634 31670 50402 10168 20078 37822 40074 52010 70511 85100 92350 333 10239 20093 30/// 50381 563// 58000 70000 85840
AAXX 21001 76641 06/// /1501 10239 20209 30095 40107 53015 60001 7//// 8//// 92350 333 0//// 10295 20174 30/// 4//// 50179 54/// 56/// 57/// 59002 60007 70000 8//// 8//// 8//// 8//// 9/
AAXX 21001 76644 32460 11202 10278 20204 30100 40114 52008 81200 92350 333 10329 20199 30/// 50451 56300 59027 70000 81820
AAXX 21001 76648 32465 11102 10259 20202 30095 40126 53014 60001 7//// 81100 92350 333 0//// 10324 20204 30/// 4//// 50269 54/// 56300 57/// 59023 60007 70010 81818 8//// 8//// 8//// 9/
AAXX 21001 76654 31456 02301 10273 20216 30111 40115 55002 70544 81100 92350 333 10305 20222 30/// 50311 56900 59012 70000 81820
AAXX 21001 76658 31560 12307 10265 20191 39595 40091 57005 70540 81200 92343 333 10314 20170 30/// 50370 56100 59010 70000 81822 94084 98904
AAXX 21001 76659 02/// ///// 1//// 2//// 3//// 4//// 5//// 6//// 7//// 8//// 9//// 333 0//// 1//// 2//// 30/// 4//// 5//// 54/// 56/// 57/// 5//// 6//// 7//// 8//// 8//// 8//// 9//// 9/
AAXX 21001 76662 32670 12503 10234 20061 38422 40070 57005 81100 92345 333 10270 20052 30/// 50600 56/00 59016 70000 81833
AAXX 21001 76665 31964 01602 10200 20095 38083 40060 57005 70102 92350 333 10264 20065 30/// 50300 59009 70000
AAXX 21001 76675 31575 12003 10150 20050 37352 40075 52005 70544 81100 92348 333 10204 21017 30/// 50291 569// 59007 70000 81826 98475
AAXX 21001 76680 31568 32904 10203 20012 37714 40046 55012 70544 83800 92340 333 10235 20079 30/// 50361 56500 57881 59013 70000 83827
AAXX 21001 76684 06/// /2004 10176 20043 37797 40083 53005 60001 7//// 8//// 92350 333 0//// 10248 20031 30/// 4//// 50319 54/// 56/// 57/// 59010 60007 70000 8//// 8//// 8//// 9//// 9/
AAXX 21001 76685 32970 01401 10190 20024 37834 40059 57001 92350 333 10238 20052 30/// 50271 59017 70000
AAXX 21001 76687 32966 01401 10204 20160 38641 40085 53006 92345 333 10270 20115 30/// 50300 59013 70000
AAXX 21001 76692 31956 00703 10254 20205 30072 40091 55000 71044 92345 333 10277 20179 30/// 50261 59027 70000
AAXX 21001 76693 06/// /0602 10245 20208 30079 40098 53010 60001 7//// 8//// 92350 333 0//// 10277 20178 30/// 4//// 50209 56/// 57/// 59023 60007 70000 8//// 8//// 8//// 8//// 9//// 9/
AAXX 21001 76695 32956 00602 10274 20197 30086 40092 52005 92345 333 10326 20174 30/// 50220 59032 70000
AAXX 21001 76698 32558 11201 10253 20219 30121 40132 52010 81200 92350 333 10322 20199 30/// 50121 56300 59018 70000 81820
AAXX 21001 76727 06/// /0000 10215 20041 38361 40049 55000 60001 7//// 8//// 92350 333 0//// 10274 20123 30/// 4//// 50229 54/// 56/// 57/// 59010 60007 70000 8//// 8//// 8//// 9//// 9/
AAXX 21001 76737 32980 03201 10216 20172 38734 40073 52010 92335 333 10293 20121 30/// 50331 59011 70000 91106 91514
AAXX 21001 76738 06/// /2701 10204 20162 38736 40090 53010 60001 7//// 8//// 333 10305 20119 30/// 50289 56/// 57/// 59012 60007 70000 8//// 8//// 8//// 8//// 9//// 9//// 9//// 444 ////
AAXX 21001 76743 31956 00901 10278 20240 30078 40086 63008 70000 92350 333 10300 20192 30/// 50310 560// 59003 70000
AAXX 21001 76750 32558 31102 10264 20231 30109 40119 52005 81107 92345 333 10308 20206 30/// 50161 56306 59023 70000 81820
AAXX 21001 76751 06/// /1002 10258 20231 30109 40119 53004 60001 7//// 8//// 92350 333 0//// 10305 20205 30/// 4//// 50209 54/// 56/// 57/// 59023 60007 70000 8//// 8//// 8//// 9//// 9/
AAXX 21001 76772 06/// /3002 10240 20080 38383 40048 55002 60001 7//// 8//// 92350 333 0//// 10279 20051 30/// 4//// 5///9 56/// 57/// 59016 60007 70000 8//// 8//// 8//// 9//// 9//// 9/
AAXX 21001 76773 31568 22701 10244 20081 38377 40046 57008 70500 81101 92346 333 10276 20041 30/// 50381 56209 59018 70000 81820
AAXX 21001 76775 31565 51901 10252 20052 38471 40060 57004 70300 83460 82345 333 10291 20084 30/// 50371 56880 59015 70000 81827 82627
AAXX 21001 76776 06/// /1801 10227 20057 38457 40045 53001 60001 7//// 8//// 92350 333 0//// 10313 20098 30/// 4//// 50369 56/// 57/// 59015 60007 70000 8//// 8//// 8//// 9//// 9//// 9/
AAXX 21001 76805 32570 72602 10278 20230 30089 40095 53003 82131 92350 333 10312 20230 30/// 50431 56766 59010 70000 82830 82356 83062
AAXX 21001 76806 06/// /2602 10269 20229 30089 40093 55000 60001 7//// 8//// 92350 333 10309 20222 30/// 50219 56/// 57/// 59014 60007 70000 8//// 8//// 8//// 8//// 9//// 9//// 9//// 55
AAXX 21001 76833 31570 31806 10271 20243 30084 40086 57002 70300 83500 92345 333 10306 20188 30/// 5//// 56400 59016 70000 83620 92002
AAXX 21001 76843 32765 20801 10288 20153 39438 40066 53003 81104 92340 333 10326 20160 30/// 50261 568// 59022 70000 81823
AAXX 21001 76845 32960 00000 10172 20115 37923 40120 51006 92340 333 10228 20038 30/// 50281 59011 70000
AAXX 21001 76848 32570 50000 10199 20118 38353 40022 53002 81231 92350 333 10272 20093 30/// 50211 56199 59018 70000 81833 83360
AAXX 21001 76855 32580 42701 10284 20229 30048 40097 55002 81228 92345 333 10335 20216 30/// 50410 56999 59005 70000 81820 81458 92001
AAXX 21001 76902 06/// /2702 10279 20214 39961 40097 53004 60001 7//// 8//// 92350 333 0//// 10328 20223 30/// 4//// 50399 54/// 56/// 57/// 59017 60007 70000 8//// 8//// 8//// 8//// 9/
AAXX 21001 76903 31770 52801 10283 20215 39964 40094 53005 70122 82580 92355 333 10337 20224 30/// 50611 56190 59015 70000 82650 83358
AAXX 21001 76160 32962 02301 10190 20041 39866 40116 57006 92331 333 10195 20035 30/// 50130 59051 70000
AAXX 21001 76243 32472 83603 10130 20036 39857 40155 57004 884// 92335 333 10140 20062 30/// 50281 568// 58052 70000 88616
AAXX 21001 76253 32582 10502 10162 20097 30039 40129 56001 81600 92348 333 10215 20110 30/// 50441 56700 59046 70000 81620 92002
AAXX 21001 76311 32680 62701 10205 20056 39823 40100 57014 86400 92345 333 10251 20072 30/// 50200 56500 59027 70000 86625
AAXX 21001 76405 32980 13202 10230 20131 30096 40117 57013 81050 92350 333 10242 20087 30/// 50251 56050 59041 70000 81457
AAXX 21001 76412 31966 72201 10222 20062 30092 40137 57009 70544 87050 92345 333 10256 20060 30/// 50330 56050 58000 70000 87356
AAXX 21001 76640 31358 23601 10250 20233 30106 40118 52009 70200 824// 92340 333 10276 20172 30/// 50121 567// 59006 70000 82607
AAXX 21001 76647 32465 11402 10261 20215 30107 40138 52016 81100 92350 333 10320 20206 32/// 50421 56300 59021 70012 81818
AAXX 21001 76741 31970 03602 10260 20243 30052 40070 52020 70544 92330 333 10315 20176 30/// 50131 59034 70000
AAXX 21004 78762 32970 10706 10222 20153 39065 40082 53006 81500 333 10264 20175 30/// 562// 59019 81635
AAXX 21001 76040 32960 23301 10176 20109 30130 40144 57009 82030 92345333 10178 20056 30/// 50180 56070 59013 82375 98660
AAXX 21001 76056 06/// /3306 10150 20087 30110 40134 55006 60011 7////8//// 92350 333 0//// 10165 20098 30/// 4//// 50159 54///56/// 57/// 59015 60007 70096 8//// 8//// 8//// 9//// 9/
AAXX 21001 76122 32570 21102 10099 21020 38482 40118 57006 81120 92345333 10120 21032 30/// 50311 56590 58/// 70000 81835
AAXX 21001 76123 06/// /0805 10102 21037 3//// 4//// 5//// 60001 7////8//// 92350 333 0//// 10137 21041 50189 56/// 57/// 5////60007 70000 8//// 8//// 8//// 8//// 9//// 9//// 9//// 44
AAXX 21001 76220 32858 12404 10124 21017 38079 40103 57006 81030 92340333 10142 21036 30/// 50151 56050 58/// 70000
AAXX 21001 76225 32760 50701 10109 21028 38575 40100 53005 85038 92345333 10118 20008 30/// 50121 56055 58005 70000 83350 82870
AAXX 21001 76256 32980 02001 10185 20100 30119 40133 57008 92345 33310215 20081 30/// 50150 59047 70000
AAXX 21001 76305 32970 00402 10200 20100 30112 40119 57009 92350 33310218 20100 30/// 50211 59047 70000
AAXX 21001 76323 32570 73601 10138 21018 38221 40147 57018 83202 92340333 10168 20011 30/// 50421 56505 58012 70000 83630 84268
AAXX 21001 76342 31862 60303 10144 20042 39467 40179 52005 70321 8602092350 333 10184 20090 30/// 50371 56050 58051 70000 86458
AAXX 21001 76373 32665 51501 10153 21122 38155 40088 53002 85500 92350333 10220 20080 30/// 50291 56900 59007 70000 85623
AAXX 21001 76382 32980 20000 10226 20142 38834 40066 57010 80008 92347333 10264 20063 30/// 50311 56001 58002 70000 82274
AAXX 21001 76390 31864 11405 10155 20055 38183 40063 54000 70544 8104092330 333 10228 20065 30/// 50571 56080 58011 70000 81356
AAXX 21001 76393 32950 312// 10184 20082 39553 40123 52007 83010 92345333 10228 20140 30/// 50421 56030 58049 70000 83460
AAXX 21001 76402 31562 52903 10184 20103 30068 40126 57007 70544 8550092340 333 10203 20056 30/// 50261 56600 59034 70000 85628
AAXX 21001 76423 32584 52405 10182 38107 40093 52001 82144 92355 33310230 21012 30/// 50470 56999 59005 70000 81820 81627 8135782067
AAXX 21001 76458 32870 73204 10202 20129 30109 40114 57002 82054 92346333 10232 20098 30/// 50171 56075 59013 70000 82358 85079
AAXX 21001 76471 32580 32403 10152 20036 37652 40053 57005 81501 92350333 10190 20011 30/// 50560 56505 59015 70000 81635 82075
AAXX 21001 76490 06/// /0104 10223 20108 39734 40117 53013 60001 7////8//// 92350 333 0//// 10279 20127 30/// 50309 54/// 56///57/// 58052 60007 70000 8//// 8//// 8//// 8//// 9//// 9/
AAXX 21001 76491 32660 63605 10224 20142 39747 40131 52010 86500 92350333 10279 20147 30/// 50231 56800 59/// 70000 86640
AAXX 21001 76519 32560 62704 10201 20042 38329 40105 57003 81102 92350333 10238 20030 30/// 50341 56506 58004 70000 81823 85070
AAXX 21001 76525 32780 82411 10129 20004 37433 40081 55001 82101 92340333 10161 20060 30/// 50531 565/5 59004 70000 82850 8608091111
AAXX 21001 76538 06/// /2304 10199 38118 40046 55001 60001 7//// 8////92350 333 0//// 10251 20090 30/// 4//// 50369 54/// 56///57/// 59004 60007 70000 8//// 8//// 8//// 9//// 9//// 9/
AAXX 21001 76543 32975 03602 10279 20184 30078 40111 53012 92340 33310312 20142 30/// 5//// 58/// 70000
AAXX 21001 76547 06/// /0405 10227 20209 30096 40108 53015 60001 7////8//// 92350 333 0//// 10291 20195 50289 56/// 57/// 5800960007 70000 8//// 8//// 8//// 8//// 9//// 9//// 9//// 44
AAXX 21001 76548 32570 10505 10232 20209 30103 40113 53011 81100 92335333 10286 20194 30/// 50111 56100 58006 70000 81822
AAXX 21001 76556 32970 22103 10220 20153 39092 40103 57009 80002 92330333 10268 20105 30/// 50231 56007 59007 70000 82070
AAXX 21001 76571 32770 42101 10212 21052 38124 40076 55004 82204 92348333 10238 20050 30/// 50741 56505 59009 70000 82850
AAXX 21001 76577 32970 02305 10204 20149 38005 40077 56008 92340 33310230 20074 30/// 50271 59008 70000
AAXX 21001 76578 06/// /2207 10202 21035 38004 40047 55004 60001 7////8//// 92350 333 0//// 10246 20075 30/// 4//// 50279 54///56/// 57/// 59008 60007 70000 8//// 8//// 8//// 9//// 9/
AAXX 21001 76581 32970 01105 10260 20155 38983 40055 52004 92350 33310315 20078 30/// 50430 59004 70000
AAXX 21001 76586 06/// /0000 10236 20202 39944 40097 53012 60001 7////8//// 92350 333 0//// 10300 20137 30/// 4//// 50259 54///56/// 57/// 58002 60007 70000 8//// 8//// 8//// 9//// 9/
AAXX 21001 76592 06/// /1205 10276 20193 30111 40111 53011 60001 7////8//// 92350 333 0//// 10324 20195 30/// 4//// 50599 54///56/// 57/// 59028 60007 70000 8//// 8//// 8//// 9//// 9/
AAXX 21001 76593 32350 31403 10278 20254 30110 40112 53008 81240 92350333 10324 20195 30/// 50430 5633/ 59028 70000 81820 8233091005 91514
AAXX 21001 76612 32662 43102 10215 20071 38434 40077 55004 81130 92350333 10269 20070 30/// 50221 56550 59012 70000 81840 83358
AAXX 21001 76625 32550 03203 10214 20035 38102 40038 54002 92345 33310246 20104 30/// 50290 56000 58000 70000
AAXX 21001 76632 31656 40706 10160 20095 37600 40046 57002 70511 8440092340 333 10210 20078 30/// 5//// 56100 58/// 59/// 7000084640
AAXX 21001 76634 31670 50402 10168 20078 37822 40074 52010 70511 8510092350 333 10239 20093 30/// 50381 563// 58000 70000 85840
AAXX 21001 76641 06/// /1501 10239 20209 30095 40107 53015 60001 7////8//// 92350 333 0//// 10295 20174 30/// 4//// 50179 54///56/// 57/// 59002 60007 70000 8//// 8//// 8//// 8//// 9/
AAXX 21001 76644 32460 11202 10278 20204 30100 40114 52008 81200 92350333 10329 20199 30/// 50451 56300 59027 70000 81820
AAXX 21001 76648 32465 11102 10259 20202 30095 40126 53014 60001 7////81100 92350 333 0//// 10324 20204 30/// 4//// 50269 54///56300 57/// 59023 60007 70010 81818 8//// 8//// 8//// 9/
AAXX 21001 76654 31456 02301 10273 20216 30111 40115 55002 70544 8110092350 333 10305 20222 30/// 50311 56900 59012 70000 81820
AAXX 21001 76658 31560 12307 10265 20191 39595 40091 57005 70540 8120092343 333 10314 20170 30/// 50370 56100 59010 70000 8182294084 98904
AAXX 21001 76659 02/// ///// 1//// 2//// 3//// 4//// 5//// 6//// 7////8//// 9//// 333 0//// 1//// 2//// 30/// 4//// 5//// 54///56/// 57/// 5//// 6//// 7//// 8//// 8//// 8//// 9//// 9/
AAXX 21001 76662 32670 12503 10234 20061 38422 40070 57005 81100 92345333 10270 20052 30/// 50600 56/00 59016 70000 81833
AAXX 21001 76665 31964 01602 10200 20095 38083 40060 57005 70102 92350333 10264 20065 30/// 50300 59009 70000
AAXX 21001 76675 31575 12003 10150 20050 37352 40075 52005 70544 8110092348 333 10204 21017 30/// 50291 569// 59007 70000 8182698475
AAXX 21001 76680 31568 32904 10203 20012 37714 40046 55012 70544 8380092340 333 10235 20079 30/// 50361 56500 57881 59013 7000083827
AAXX 21001 76684 06/// /2004 10176 20043 37797 40083 53005 60001 7////8//// 92350 333 0//// 10248 20031 30/// 4//// 50319 54///56/// 57/// 59010 60007 70000 8//// 8//// 8//// 9//// 9/
AAXX 21001 76685 32970 01401 10190 20024 37834 40059 57001 92350 33310238 20052 30/// 50271 59017 70000
AAXX 21001 76687 32966 01401 10204 20160 38641 40085 53006 92345 33310270 20115 30/// 50300 59013 70000
AAXX 21001 76692 31956 00703 10254 20205 30072 40091 55000 71044 92345333 10277 20179 30/// 50261 59027 70000
AAXX 21001 76693 06/// /0602 10245 20208 30079 40098 53010 60001 7////8//// 92350 333 0//// 10277 20178 30/// 4//// 50209 56///57/// 59023 60007 70000 8//// 8//// 8//// 8//// 9//// 9/
AAXX 21001 76695 32956 00602 10274 20197 30086 40092 52005 92345 33310326 20174 30/// 50220 59032 70000
AAXX 21001 76698 32558 11201 10253 20219 30121 40132 52010 81200 92350333 10322 20199 30/// 50121 56300 59018 70000 81820
AAXX 21001 76727 06/// /0000 10215 20041 38361 40049 55000 60001 7////8//// 92350 333 0//// 10274 20123 30/// 4//// 50229 54///56/// 57/// 59010 60007 70000 8//// 8//// 8//// 9//// 9/
AAXX 21001 76737 32980 03201 10216 20172 38734 40073 52010 92335 33310293 20121 30/// 50331 59011 70000 91106 91514
AAXX 21001 76738 06/// /2701 10204 20162 38736 40090 53010 60001 7////8//// 333 10305 20119 30/// 50289 56/// 57/// 59012 6000770000 8//// 8//// 8//// 8//// 9//// 9//// 9//// 444 ////
AAXX 21001 76743 31956 00901 10278 20240 30078 40086 63008 70000 92350333 10300 20192 30/// 50310 560// 59003 70000
AAXX 21001 76750 32558 31102 10264 20231 30109 40119 52005 81107 92345333 10308 20206 30/// 50161 56306 59023 70000 81820
AAXX 21001 76751 06/// /1002 10258 20231 30109 40119 53004 60001 7////8//// 92350 333 0//// 10305 20205 30/// 4//// 50209 54///56/// 57/// 59023 60007 70000 8//// 8//// 8//// 9//// 9/
AAXX 21001 76772 06/// /3002 10240 20080 38383 40048 55002 60001 7////8//// 92350 333 0//// 10279 20051 30/// 4//// 5///9 56///57/// 59016 60007 70000 8//// 8//// 8//// 9//// 9//// 9/
AAXX 21001 76773 31568 22701 10244 20081 38377 40046 57008 70500 8110192346 333 10276 20041 30/// 50381 56209 59018 70000 81820
AAXX 21001 76775 31565 51901 10252 20052 38471 40060 57004 70300 8346082345 333 10291 20084 30/// 50371 56880 59015 70000 8182782627
AAXX 21001 76776 06/// /1801 10227 20057 38457 40045 53001 60001 7////8//// 92350 333 0//// 10313 20098 30/// 4//// 50369 56///57/// 59015 60007 70000 8//// 8//// 8//// 9//// 9//// 9/
AAXX 21001 76805 32570 72602 10278 20230 30089 40095 53003 82131 92350333 10312 20230 30/// 50431 56766 59010 70000 82830 8235683062
AAXX 21001 76806 06/// /2602 10269 20229 30089 40093 55000 60001 7////8//// 92350 333 10309 20222 30/// 50219 56/// 57/// 5901460007 70000 8//// 8//// 8//// 8//// 9//// 9//// 9//// 55
AAXX 21001 76833 31570 31806 10271 20243 30084 40086 57002 70300 8350092345 333 10306 20188 30/// 5//// 56400 59016 70000 8362092002
AAXX 21001 76843 32765 20801 10288 20153 39438 40066 53003 81104 92340333 10326 20160 30/// 50261 568// 59022 70000 81823
AAXX 21001 76845 32960 00000 10172 20115 37923 40120 51006 92340 33310228 20038 30/// 50281 59011 70000
AAXX 21001 76848 32570 50000 10199 20118 38353 40022 53002 81231 92350333 10272 20093 30/// 50211 56199 59018 70000 81833 83360
AAXX 21001 76855 32580 42701 10284 20229 30048 40097 55002 81228 92345333 10335 20216 30/// 50410 56999 59005 70000 81820 8145892001
AAXX 21001 76902 06/// /2702 10279 20214 39961 40097 53004 60001 7////8//// 92350 333 0//// 10328 20223 30/// 4//// 50399 54///56/// 57/// 59017 60007 70000 8//// 8//// 8//// 8//// 9/
AAXX 21001 76903 31770 52801 10283 20215 39964 40094 53005 70122 8258092355 333 10337 20224 30/// 50611 56190 59015 70000 8265083358
AAXX 21001 76160 32962 02301 10190 20041 39866 40116 57006 92331 33310195 20035 30/// 50130 59051 70000
AAXX 21001 76243 32472 83603 10130 20036 39857 40155 57004 884// 92335333 10140 20062 30/// 50281 568// 58052 70000 88616
AAXX 21001 76253 32582 10502 10162 20097 30039 40129 56001 81600 92348333 10215 20110 30/// 50441 56700 59046 70000 81620 92002
AAXX 21001 76311 32680 62701 10205 20056 39823 40100 57014 86400 92345333 10251 20072 30/// 50200 56500 59027 70000 86625
AAXX 21001 76405 32980 13202 10230 20131 30096 40117 57013 81050 92350333 10242 20087 30/// 50251 56050 59041 70000 81457
AAXX 21001 76412 31966 72201 10222 20062 30092 40137 57009 70544 8705092345 333 10256 20060 30/// 50330 56050 58000 70000 87356
AAXX 21001 76640 31358 23601 10250 20233 30106 40118 52009 70200 824//92340 333 10276 20172 30/// 50121 567// 59006 70000 82607
AAXX 21001 76647 32465 11402 10261 20215 30107 40138 52016 81100 92350333 10320 20206 32/// 50421 56300 59021 70012 81818
AAXX 21001 76741 31970 03602 10260 20243 30052 40070 52020 70544 92330333 10315 20176 30/// 50131 59034 70000
AAXX 21004 47101 11556 80701 11033 21051 30162 40262 52004 69902 71022 8552/ 333 21062 3/102 48///
AAXX 21004 47105 369// /2705 10026 21050 30203 40236 53001 333 20009 3/000
AAXX 21004 47108 11656 80204 10001 21029 30142 40251 53004 69952 71072 8551/ 333 21007 3/000 48///
AAXX 21004 47115 12668 52502 10035 21062 39957 40233 51001 69902 82501 333 20017 3/101 46001 9//3/
AAXX 21004 47133 12661 60902 10003 21051 30172 40260 52006 69902 81502 333 21008 34000
AAXX 21004 47138 32563 72003 10031 21079 30253 40256 52007 85530 333 20020 30004 92022
AAXX 21004 47159 32960 31402 10063 21063 30170 40256 52009 80001 333 20029 30002 92021
AAXX 21004 47165 11659 81401 10025 21024 30213 40261 52008 69902 72162 8452/ 333 20015 30003 92021
AAXX 21004 47168 32961 62902 10029 21067 30180 40261 52009 86020 333 20019 30000 92021
AAXX 21004 47184 32665 61603 10054 21024 30239 40265 51008 81501 333 20044 30005 92022
BBXX PJFF 21004 99337 70312 41/97 /1815 10220 40240 57030 702// 8/7// 22254 04170 2//// 30000 81005
BBXX PDNN 21003 99468 70280 41/98 /2040 10141 20121 40199 52005 70200 8//// 22223 20409 80129 90585
AAXX 21004 16622 12560 20000 10030 21021 30109 40119 52010 60001 82100 333 90730 91111 555 40000 47612 44220 50000 50012
AAXX 21004 16641 11560 30000 10036 20026 30138 40143 51002 60001 71300 83900 333 81920 83630 90730 91107 555 40000 47631 44185 50000 50032 70000 77P// 7/P//
AAXX 21004 16682 11560 50000 10070 20042 30125 40143 50000 69921 70162 83250 333 83820 84358 90730 91106 555 40000 47624 44200 50000 50058 70000 77/// 7R///
AAXX 21004 16716 NIL
AAXX 21004 16734 NIL
AAXX 21004 16743 NIL
AAXX 21004 16749 11560 52613 10144 20085 30143 40158 52008 60051 70261 84550 333 84620 84357 90730 91120 555 40000 47640 44220 50000 50114 70000 77/// 7RY//
AAXX 21004 16754 12560 31705 10106 20064 30113 40160 58001 60001 83200 333 90730 91112 555 40000 47617 44210 50000 50086
BBXX LAHV 21001 99589 10057 43/// /1500 10016 20002 40065 222// 04080 1////
BBXX LDGJ 21001 99603 10053 43/// /1501 10007 21013 40065 5//// 222/0 04083 1//// 3//// 4//// 5////
BBXX LF4H 21004 99596 10022 46/// /3115 10057 21000 40066 52012 8//// 22200 06083 10604 70020 333 91123
BBXX LMEL 21001 99603 10053 43/// /1301 10002 21006 40061 5//// 222/0 04084 1//// 3//// 4//// 5////
AAXX 21004 78767 31565 80807 10253 20214 30100 40110 51010 71522 87850 333 10267 20177 31/// 56000 70018 81820 86635
AAXX 21004 78866 01483 70916 10243 20203 30176 40181 52014 69911 72581 86401 333 10286 20232 58005 69917 83819 84630
AAXX 21004 78982 01475 70816 10246 20232 30116 40121 52013 60021 78022 83278 333 10295 20245 59008 60027 70056 83815 84458 87281
AAXX 21004 91925 01575 60207 10287 20188 30023 40083 56023 60054 70186 85831 333 20227 56126 59005 60007 83820 85650 90710 91117 555 60005 10217
AAXX 21004 91929 04569 80313 10278 20223 30103 40106 58017 60001 700// 333 60007 90710 91122 555 60005
AAXX 21004 91938 01575 60809 10290 20196 30103 40105 56019 69921 70198 82832 333 69927 81820 85080 90710 91116 555 60005 10327
AAXX 21004 91944 06/// /1011 10277 20210 30126 40129 56011 60031 333 60007 90710 91122 555 60005
AAXX 21004 91948 02581 30304 10270 20194 30073 40175 58012 69924 83240 333 20236 56220 58004 60007 83821 90710 91113 555 60005 10813
AAXX 21004 91954 06/// /0810 10295 20227 30138 40141 56015 60004 333 20246 59015 60007
AAXX 21004 91958 02582 40506 10266 20207 30174 40176 56013 60004 84202 333 20218 56203 59010 60007 84825 90710 91110 555 60005 10511
AAXX 21004 91943 NIL
AAXX 21004 91945 NIL
AAXX 21004 47090 32670 60000 10037 21063 30209 40232 54000 81530 333 21002 3/101 42001 92010
AAXX 21004 47095 11560 80000 11034 21063 30057 40254 54000 69902 77077 8672/ 333 21068 30102
AAXX 21004 47097 11550 60701 11016 21054 30160 40260 52007 69902 72272 86500 333 21030 3/000 45///
AAXX 21004 47098 11525 80000 11011 21028 30108 40247 53002 69912 77072 8552/ 333 21026 3/101 47///
AAXX 21004 47099 11640 80000 11016 21028 30215 40253 53006 69932 72272 8352/ 333 21039 3/101
AAXX 21004 47100 11420 82510 11044 21060 39299 40248 55003 69902 77072 8552/ 333 21089 3/104 49026
AAXX 21004 47102 12662 62913 10034 21060 30062 40242 53007 69912 85501 333 20025 30000
AAXX 21004 47104 32662 61802 10003 21061 30136 40236 54000 85500 333 21026 3/101 43003
AAXX 21004 47106 329// /0001 10024 21050 30187 40237 56001 333 21001 3/101
AAXX 21004 47112 11656 81603 10021 21034 30163 40249 53005 69902 77072 8452/ 333 20010 30000 92012
AAXX 21004 47114 32560 80001 11026 21080 30070 40260 53006 8552/ 333 21039 30101
AAXX 21004 47119 11657 61101 10013 21017 30210 40253 52008 69912 71022 86500 333 21007 3/102 42///
AAXX 21004 47121 329// /0001 11036 21079 39960 40267 51001 333 21061 3/102
AAXX 21004 47127 329// /1101 11013 21039 30115 40262 52005 333 21036 3/101
AAXX 21004 47129 11640 80202 10011 21005 30219 40256 52007 69912 71022 8352/ 333 21015 3/001 41///
AAXX 21004 47130 32665 62306 10026 21053 30186 40249 53003 82530 333 20009 30001 92022
AAXX 21004 47131 12662 82501 10004 21050 30185 40258 52007 69902 8552/ 333 21011 30000
AAXX 21004 47135 329// /0000 11013 21048 39956 40265 52009 333 21036 3/101
AAXX 21004 47136 12668 63201 11018 21069 30086 40265 52007 69902 86500 333 21044 30101
AAXX 21004 47137 329// /0000 11017 21070 30141 40264 52008 333 21025 3/101
AAXX 21004 47140 31658 83201 10007 21025 30231 40261 52007 71022 8552/ 333 21006 31001 92011
AAXX 21004 47143 32963 60502 10011 21069 30189 40270 52008 84031 333 20000 30001
AAXX 21004 47145 12662 81104 10012 21057 30219 40246 52005 69902 8352/ 333 20000 34000
AAXX 21004 47146 32668 70901 10027 21061 30191 40258 52005 87500 333 21001 31001
AAXX 21004 47150 11650 30000 10005 21015 30233 40253 52008 69932 71022 81501 333 21002 3/000 45///
AAXX 21004 47152 32965 62302 10021 21055 30213 40257 52006 80001 333 20002 30101
AAXX 21004 47154 329// /2901 11003 21067 30205 40267 52011 333 21029 3/000
AAXX 21004 47155 32961 61102 10028 21061 30214 40261 52010 85030 333 20009 30000
AAXX 21004 47156 11658 80001 10014 20000 30176 40268 50005 69912 72162 8352/ 333 20004 31002
AAXX 21004 47157 32662 62901 11031 21067 39978 40259 52008 85501 333 21049 30102
AAXX 21004 47162 32670 40001 10028 21046 30219 40260 52008 84500 333 20000 30000 92022
AAXX 21004 47169 12661 83409 10081 20031 30161 40255 51006 60012 8352/ 333 20053 31006 92023
AAXX 21004 47170 32662 81601 10024 21007 30219 40264 53005 8451/ 333 20001 30000 92021
AAXX 21004 47171 329// /1402 10035 21024 30202 40258 51006 333 21001 3/000
AAXX 21004 47172 329// /0000 10033 21008 30185 40253 50003 333 21003 3/004
AAXX 21004 47173 329// /0000 11013 21044 30156 40271 52008 333 21036 3/101
AAXX 21004 47174 11662 82702 10007 21025 30058 40266 52006 69902 72162 8552/ 333 21027 31000
AAXX 21004 47175 11558 82707 10023 20008 39678 40261 53005 69912 76062 8552/ 333 20005 31000 92022
AAXX 21004 47185 32665 60211 10083 21007 30169 40260 51009 83530 333 20072 30007 92023
AAXX 21004 47188 32662 63603 10078 20016 30235 40257 50005 84501 333 20050 31005 92022
AAXX 21004 47189 32665 70000 10094 20031 30191 40251 51007 84530 333 20065 30009 92020
AAXX 21004 47192 32665 80902 11019 21064 30229 40268 52013 8552/ 333 21044 30101
AAXX 21001 38353 425// 80502 11192 21218 39500 40512 57011 885//
AAXX 21001 38613 429// 20101 11090 21134 39473 40443 56002 80002
AAXX 21001 38616 425// 60000 11117 21123 39342 40446 53001 86500
AAXX 21001 38345 41696 81001 11246 21270 38928 48575 58004 71022 885// 555 1/125
AAXX 21001 36911 429// 80000 11178 21197 39428 40504 53035 8802/ 555 1/116
AAXX 21001 36974 427// 81101 11175 21194 38052 48622 53004 885// 555 15119
AAXX 21001 36982 429// 70000 11167 21217 36524 47173 57010 87020
AAXX 21001 14240 12965 03401 11047 21059 39988 40151 51001 60001
AAXX 21001 14258 12960 01501 11074 21083 39957 40156 52006 60001
AAXX 21001 14445 12970 00604 10022 21071 39973 40133 52002 60001 333 92312
AAXX 21001 15502 12970 62703 10008 21015 30072 40112 51001 60001 86050 333 10020 20006 555 585//
AAXX 21001 15525 11958 62702 10012 21007 39835 40106 52003 69941 71072 86050 333 10016 20012 555 587//
AAXX 21001 15528 12570 82508 10012 21020 39890 40083 51001 60001 8802/ 333 10020 20010 555 579//
AAXX 21001 15535 11540 82306 10014 20011 30034 40081 52001 60031 76872 8802/ 333 10018 20010 555 59801 66299
AAXX 21001 15549 11/02 92703 11004 21018 39674 40100 54000 60031 77174 333 10019 21004 555 59003 69999 70068
AAXX 21001 15552 11458 82708 10032 20017 30025 40075 52004 60021 76166 8802/ 333 10085 20032 555 59000 69999 70071 92025 92426
AAXX 21001 15614 11658 73203 11012 21036 39400 40122 52004 69901 71087 87800 333 11002 21013 555 584// 69499 70000
AAXX 21001 15615 11/00 92710 11134 21150 36978 47903 54000 69931 74974 333 11110 21134 555 588// 69399 70000 92711
AAXX 21001 15626 12670 82716 10022 21031 39897 40088 52004 60001 82830 333 10052 20022 91118 555 568//
AAXX 21001 15627 11/00 93212 11099 21111 37476 47880 58005 69941 74974 333 11072 21100 48006 93512 555 591// 69199 92711
AAXX 21001 15640 11660 83205 10040 21031 39764 40079 53005 69971 70262 885// 333 10062 20038 555 560//
AAXX 21001 15655 11570 82703 10050 20038 30039 40072 52011 60011 70262 885// 222// 309// 4//01 333 10090 20050 555 592// 70055 92022 92428
AAXX 21001 15712 11665 33402 10025 21014 39864 40119 51008 69921 70181 83200 333 10045 20025 555 576// 70000
AAXX 21001 15730 11656 80000 10038 20031 39692 40087 52010 69921 78082 8592/ 333 10053 20036 555 59500 66299 70000
AAXX 21004 78767 31565 80807 10253 20214 30100 40110 51010 71522 87850 333 10267 20177 31/// 56000 70018 81820 86635
AAXX 21004 78866 01483 70916 10243 20203 30176 40181 52014 69911 72581 86401 333 10286 20232 58005 69917 83819 84630
AAXX 21004 78767 31565 80807 10253 20214 30100 40110 51010 71522 87850 333 10267 20177 31/// 56000 70018 81820 86635
AAXX 21004 78866 01483 70916 10243 20203 30176 40181 52014 69911 72581 86401 333 10286 20232 58005 69917 83819 84630
AAXX 21004 91348 11474 80606 10289 20235 30030 40083 58002 60124 70282 83171 333 20217 56199 59010 70124 555 92100
AAXX 21004 87692 11560 60210 10212 20193 30041 40066 55001 60051 72991 83923 333 10253 20191 56660 57920 81623 81940 83550 555 10065 64116 65090
AAXX 21001 26038 21170 11903 10002 21001 30071 40112 54000 70200 81600 333 10035 21005 60007 81703 555 1/101 21005 3/101 50018 52102
AAXX 21001 26045 27361 42004 10005 20001 30118 40120 54001 70000 84/// 333 10032 20002 60007 84/07 555 1/101 20002 3/101 50021
AAXX 21001 26058 27/52 01600 11023 21028 30121 40129 50000 71010 80/// 333 10028 21023 60007 80/// 555 1/103 21023 3/102 50016 52105
AAXX 21001 26115 27568 72406 10031 21003 30094 40102 54000 76140 87/// 333 10048 20031 60007 87/33 91012 91112 555 1/002 20031 3/001 50045
AAXX 21001 26135 27017 81702 11002 21003 30050 40126 54000 71011 88/// 333 10023 21002 60007 88/02 555 1/001 21002 3/000 50017 52100
AAXX 21001 26141 21158 82103 11002 21007 39975 40126 50001 71022 886// 333 10015 21002 60007 88703 555 1/000 21002 3/100 50009 52100
AAXX 21001 26231 21132 81702 10003 21001 30107 40122 57004 71081 886// 333 10034 20001 60007 88702 555 1/001 20001 3/100 50028
AAXX 21001 26242 21564 22201 11014 21028 30041 40129 57006 70110 82500 333 10020 21016 60007 82633 555 1/101 21016 3/101 50012 52104
AAXX 21001 26247 27/65 /2101 11005 21014 30049 40130 57007 70000 333 10017 21006 60007 555 1/100 21006 3/101 50014
AAXX 21001 26106 42/97 81101 11003 21018 30085 40129 57009 886//
AAXX 21001 26313 43/// /2102 11004 21010 30112 40119 57006
AAXX 21001 26346 42497 80000 11030 21031 39880 40131 57010 886// 333 88711
AAXX 21001 26406 42397 81404 11013 21019 30110 40116 57008 886// 333 88708
AAXX 21001 26416 43/// /1901 11021 21026 39983 40127 57007
AAXX 21001 26424 41/93 91502 11014 21016 30073 40128 57009 74742
AAXX 21001 26544 41496 60000 11055 21060 39965 40124 57012 71011 86600
AAXX 21001 26645 41295 80501 11042 21044 39850 40118 57012 71011 886// 333 88703 555 1/104
AAXX 21001 26659 41350 83503 11020 21032 39885 40105 57014 77172 8872/ 333 88509 555 14101
AAXX 21001 26763 41456 80103 11018 21026 39850 40081 57020 77172 8872/ 333 88710 555 1/102
AAXX 21001 26825 41958 73402 11026 21032 39922 40109 57011 71022 8703/ 555 14103
AAXX 21001 26832 41958 62901 11029 21042 39913 40111 57012 71022 86030 555 14102
AAXX 21001 26887 41295 80503 11009 21016 39859 40067 57020 77172 8872/ 333 88705 555 1/101
AAXX 21001 26961 41356 83603 11012 21018 39872 40068 57017 77172 8872/ 333 88709 555 1////
AAXX 21001 33027 41496 83402 11009 21013 39915 40085 57006 77172 8872/ 555 1/101
BBXX BATUK01 21004 99582 70032 44/97 02512 10049 20009 40100 51008 70000 22200 00090 21002
AAXX 21001 14241 12970 12502 11059 21072 30013 40150 52002 60001 81030
AAXX 21001 14284 11940 00000 11065 21073 30040 40154 54002 60001 71000
AAXX 21001 14307 32980 20602 10002 21079 30061 40141 52001 82030 333
AAXX 21001 14317 NIL
AAXX 21001 14431 12980 01202 11039 21063 30043 40141 53003 60001
AAXX 21001 14444 32970 03503 10011 21056 30107 40137 52004 333
AAXX 21001 14474 12975 00504 10032 21042 39934 40129 51004 60001
AAXX 21001 14015 41394 50000 11021 21035 39782 40134 52002 60001 71022 85670 333 84705
AAXX 21001 14121 36/// /0000 11040 21044 39870 40147 52001
AAXX 21001 26509 31/04 90902 11028 21032 30108 40117 57009 74541 333 91005 91105 93401 555 1/104
AAXX 21001 26518 31/01 90901 11060 21060 39913 40125 57010 74942 333 91002 91102 93502 555 1/106 4/015
AAXX 21001 26524 /1/92 90000 11025 21025 39989 40126 58010 74942 333 91002 91103 93401 555 1/100
AAXX 21001 26531 31120 80601 11023 21026 30047 40125 58012 71022 886// 333 88702 91003 91104 555 1/101
AAXX 21001 26629 31895 80000 11029 21033 30023 40121 57009 71022 8807/ 333 91001 91102 555 1/102
AAXX 21001 26633 31536 40000 11059 21066 39987 40123 58009 71000 82552 333 91000 91101 555 1/104
AAXX 21001 26730 31950 63301 11037 21039 39921 40118 57010 71022 86030 333 91003 91103 555 1/104
AAXX 21003 04013 42589 82309 11008 21021 49981 52006 82220 555 3//18
AAXX 21003 04064 42680 62902 11072 21098 40016 54000 8353/ 555 3//05
AAXX 21004 16643 NIL
AAXX 21004 16648 12560 10000 10042 21006 30030 40122 53010 60001 81100 333 90730 91108 555 40000 47553 44210 50000 50024
AAXX 21004 16650 11460 50000 10100 20056 30086 40090 52009 69981 72186 84860 333 81818 84620 90730 91117 555 40000 47594 44210 50000 50080 60000 60008 60045 70000 77R// 7HR//
AAXX 21004 16684 12560 42613 10110 20033 30073 40100 51007 60001 84140 333 90730 91127 555 40000 47586 44220 50000 50076
AAXX 21004 16732 NIL
AAXX 21004 16614 36/// /9902 11020 21033 39350 40155 52010 333 90730 91105
AAXX 21004 16627 NIL
AAXX 21004 16667 11565 22105 10126 20043 30115 40120 51006 69931 70162 82100 333 90730 91121 555 40000 47619 44230 50000 50088 70000 77/// 7R///
AAXX 21004 16675 NIL
AAXX 21004 16710 36/// /9902 10027 21004 39383 40169 52002 333 90730 91113
AAXX 21004 16723 NIL
AAXX 21004 16738 NIL
AAXX 21004 16746 11560 52510 10120 20056 39978 40160 53003 69901 70361 84250 333 84820 85358 90730 91128 555 40000 47513 44190 50000 50090 70000 77/// 7R///
AAXX 21004 91348 11474 80606 10289 20235 30030 40083 58002 60124 70282 83171 333 20217 56199 59010 70124 555 92100
AAXX 21004 93004 16/// /0725 10197 20142 40250 57003 60004 333 20145 70000
AAXX 21004 93023 16/// /0911 10193 20128 40278 52007 60004 333 20143 70000
AAXX 21004 93069 16/// /1316 10173 20132 40280 52008 60004 333 20155 70000
AAXX 21004 93110 17698 /2403 10212 20136 40275 57001 60034 333 20120 70030
AAXX 21004 93186 17/98 /0407 10197 20117 40282 52001 60004 333 20130 70000
AAXX 21004 93196 16/// /1415 10185 20133 40283 52005 60004 333 20122 70000
AAXX 21004 93245 16698 /2504 10185 20103 40272 57010 60004 333 20048 70000
AAXX 21004 93292 17798 /1508 10177 20107 40297 52005 60004 333 20109 70000
AAXX 21004 93309 17/98 /3008 10190 20149 40280 54000 60004 333 20116 70000
AAXX 21004 93334 16/// /2603 10159 20079 39320 52001 60004 333 20031 70000
AAXX 21004 93339 16/// /2107 10161 20096 39327 52001 60004 333 20046 70000
AAXX 21004 93373 17698 /0810 10169 20094 40298 52001 60004 333 20116 70000
AAXX 21004 93404 17/98 /1213 10190 20103 40288 57002 60004 333 20108 70000
AAXX 21004 93420 17/98 /2507 10176 20115 40288 57004 60004 333 20046 70000
AAXX 21004 93439 17/98 /1714 10163 20089 40298 57001 60004 333 20128 70000
AAXX 21004 93498 16/// /1307 10155 20095 40303 52001 60004 333 20112 70000
AAXX 21004 93515 17498 /3508 10184 20154 40291 52003 6///4 333 20120
AAXX 21004 93527 16/// /0611 10181 20120 40295 54000 60004 333 20120 70000
AAXX 21004 93546 17/98 /3510 10196 20149 40287 57002 60004 333 20104 70000
AAXX 21004 93597 16/// /1207 10155 20086 40304 57001 60004 333 20123 70000
AAXX 21004 93615 17/97 /2909 10199 20160 40285 54000 60004 333 20142 70000
AAXX 21004 93678 16598 /0707 10149 20092 40305 57002 60004 333 20115 70000
AAXX 21004 93709 16/// /2709 10195 20153 40290 52009 60004 333 20114 70000
AAXX 21004 93773 17498 /0404 10158 20116 40296 57002 60004 333 20119 70000
AAXX 21004 93781 17598 /0709 10166 20107 40299 57003 60004 333 20096 70000
AAXX 21004 93800 NIL
AAXX 21004 93805 NIL
AAXX 21004 93831 17/98 /2610 10212 20106 40254 57021 60004 333 20109 70000
AAXX 21004 93845 17/98 /1708 10214 20120 40277 57005 60004 333 20055 70000
AAXX 21004 93891 17/98 /1505 10213 20104 40277 57009 60004 333 20077 70000
AAXX 21004 93909 16/// /3414 10190 20124 40281 52002 60004 333 70000
AAXX 21004 93929 16/// /0000 10112 20096 40255 57002 60004 333 70000
AAXX 21004 93947 16/// /2915 10102 20088 40247 57001 60004 333 70000
AAXX 21004 93987 16/// /2412 10134 20056 40292 52008 60004 333 20076 70000
AAXX 21004 93994 16/// /1110 10227 20171 40193 52001 60004 333 70000
AAXX 21001 13160 32997 02802 11040 21048 30037 40151 51004
AAXX 21001 13262 32997 02501 11028 21043 30004 40159 51002
AAXX 21001 13272 32560 52603 11013 21033 30027 40151 58001 85500 333 85633
AAXX 21001 13285 11596 82702 11001 21015 30038 40144 51002 69911 71052 886//
AAXX 21001 13289 31/91 93114 11068 21076 38894 48390 56001 74944 333 91023 91127
AAXX 21001 13376 31594 62701 11012 21019 39887 40159 51001 69921 71072 86020
AAXX 21001 13388 11596 82901 10001 21017 39892 40147 52007 69911 71022 885//
AAXX 21001 13462 31956 03502 10019 20013 30094 40135 51004 70401
AAXX 21001 13473 NIL
AAXX 21001 13489 31596 70402 11008 21016 39612 40147 53002 71022 87600
AAXX 21001 33088 /1596 83602 11009 21013 39896 40091 57003 77177 8872/ 555 60011
AAXX 21001 33177 /1496 82501 11005 21011 39867 40109 58008 77177 8672/ 555 69921
AAXX 21001 33261 /1395 81503 10030 20025 39875 40058 57009 78082 889// 333 87707 555 60021
AAXX 21001 33275 /1395 81506 10026 20021 39851 40075 57014 76162 8772/ 333 86707 555 60031
AAXX 21001 33301 /1297 83203 11012 21016 39808 40096 58001 70272 886// 333 88705 555 69911
AAXX 21001 33325 /1396 83401 11002 21008 39806 40078 52004 71072 886// 333 88707 555 69911
AAXX 21001 33377 /1/93 91501 10050 20050 39867 40060 57007 75165 333 96047 555 69911
AAXX 21001 33415 /1396 83205 11009 21013 39692 40098 58004 75652 886// 333 88706 93401 555 69901
AAXX 21001 33429 32397 83103 11006 21012 39661 40091 52002 886// 333 88708
AAXX 21001 33466 NIL
AAXX 21001 33526 32560 83103 11008 21030 39764 40111 58002 885// 333 88620
AAXX 21001 33562 31240 82904 11005 21014 39712 40079 54000 71042 886// 333 88705
AAXX 21001 33614 /1325 81705 10058 20053 39958 40062 57011 71062 886// 333 88707 555 69951
AAXX 21001 33761 31396 83402 10020 20012 39843 40068 58005 71022 886// 333 88709
AAXX 21001 33902 /1/93 90000 10088 20088 39998 40064 56006 74582 555 69911
AAXX 21001 33983 31996 50000 10073 20067 30041 40101 57003 71011 85050
AAXX 21001 34415 32497 81802 10042 20027 30012 40109 57011 886//
AAXX 21001 34523 32497 81003 10046 20029 30052 40129 56011 886// 333 88715
AAXX 21001 34712 NIL
AAXX 21004 17026 12970 03501 10113 20080 30069 40107 52003 60001 333 91108 92418
AAXX 21004 17034 12970 42005 10169 20002 30064 40109 57005 60001 84030 333 84360 92428
AAXX 21004 17070 1//// /2402 10083 20056 39246 40099 55003 69941
AAXX 21004 17084 12970 51003 10025 20017 39236 40145 56003 60001 85050 333 85360 91108
AAXX 21004 17090 12965 50000 10070 21032 38723 48498 58002 60001 85030 333 85360
AAXX 21004 17098 12960 02601 11169 21169 38262 48576 55003 60001
AAXX 21004 17150 11660 42209 10097 20053 39996 40119 52012 60011 70281 84200 333 84835 91128
AAXX 21004 17160 3//// /1806 10095 20017 38990 40125 55002 60001
AAXX 21004 17184 1//// /1906 10107 20045 30022 40132 53006 60021
AAXX 21004 17189 11670 62208 10060 20015 38979 48454 51009 69921 78022 84250 333 84835 86360
AAXX 21004 17210 3//// /0000 10037 21013 39195 40254 5//// 60001
AAXX 21004 17234 12670 33201 10120 20057 30084 40152 52007 60001 83200 333 83840 91112
AAXX 21004 17260 12660 53504 10069 20007 39393 40211 55001 60001 83130 333 83840 85360
AAXX 21004 17290 3//// /2012 10150 20077 30127 40159 58002 60001
AAXX 21004 17370 12665 61307 10175 20014 30168 40172 50006 60001 82230 333 82835 86360 92437
AAXX 21004 17042 12670 61316 10193 21094 30102 40140 53001 60001 83250 333 83835 86360 92428
AAXX 21004 17074 1//// /1805 10075 20063 39186 40115 55002 60021
AAXX 21004 17086 12670 32401 10117 21023 39427 40124 55002 60001 83500 333 83635
AAXX 21004 17088 12970 02503 10044 21120 38804 48509 57005 60001
AAXX 21004 17140 3//// /2102 10079 20004 38672 40114 5//// 60001
AAXX 21004 17155 1//// /2108 10059 20018 39006 40112 53003 60031
AAXX 21004 17203 12970 00000 11027 21071 38941 48585 55004 60001
AAXX 21004 17237 11670 41405 10109 20031 39640 40137 56002 60011 70182 84200 333 84840 91109
AAXX 21004 17250 3//// /1707 10105 21005 38780 40122 5//// 60001
AAXX 21004 17270 12970 02702 10056 20001 39569 40219 55003 60001
AAXX 21004 17295 11560 60504 10099 20090 30162 40169 51007 60101 70292 83250 333 83820 85358
AAXX 21004 17320 12670 43303 10133 20077 30168 40173 54000 60001 84200 333 84836 92448
AAXX 21004 17375 1//// /0101 10122 20119 30150 40152 55001 69961
AAXX 21004 17022 12562 81503 10110 20085 39938 40102 53007 60001 8552/ 333 85628 88459 91114 92427
AAXX 21004 17031 12670 52106 10161 20004 30099 40105 53004 60001 83550 333 83636 85360
AAXX 21004 17038 12960 32801 10196 21079 30074 40124 55012 60001 83030 333 83360 92427
AAXX 21004 17050 11670 73104 10053 20042 30027 40090 52011 69981 70162 84570 333 84635 87360 91110
AAXX 21004 17060 11560 72216 10108 20074 30055 40095 53004 60011 72582 85250 333 85830 86358
AAXX 21004 17096 12560 12404 11112 21112 38283 48555 55000 60001 81500 333 81630
AAXX 21004 17124 11660 51701 10073 20036 39204 40112 58002 69901 76011 84550 333 84640 84360
AAXX 21004 17128 11670 63303 10079 20039 39037 40121 55006 60021 72582 84250 333 84835 86359
AAXX 21004 17170 NIL
AAXX 21004 17195 12670 31320 10098 20000 38942 48475 57007 60001 83100 333 83840 91030
AAXX 21004 17199 11558 83401 10009 21005 39136 40262 57009 60001 71022 8562/ 333 82720 85635 88459
AAXX 21004 17219 11565 53504 10084 20053 39992 40136 51006 60021 70298 83250 333 83830 85360 91131
AAXX 21004 17240 11560 72207 10068 20020 39004 40145 53006 60021 78082 85250 333 85830 87360 91118
AAXX 21004 17244 12670 31704 10046 20014 38959 48465 55002 60001 82530 333 82640 83360
AAXX 21004 17280 11/01 90000 11018 21026 39448 40273 55002 60001 74944 333 89/01
AAXX 21004 17350 12660 60307 10127 20047 30093 40170 52004 60001 83250 333 83835 86360
AAXX 21004 17024 1//// /1813 10108 20081 30010 40085 57027 69981
AAXX 21004 17056 11670 52502 10085 20083 30087 40091 52008 60031 72582 83230 333 83833 85360 92438
AAXX 21004 17067 11670 62607 10126 20037 30077 40099 52005 69981 70381 86200 333 86840 91017 91123 92428
AAXX 21004 17092 12970 21502 10011 21069 38890 48518 57009 60001 82030 333 82362
AAXX 21004 17112 1//// /2615 10105 20066 30095 40097 52010 60071
AAXX 21004 17115 11660 62505 10089 20063 30051 40102 52011 69921 70282 83250 333 83835 86360
AAXX 21004 17116 11662 62014 10114 20034 39989 40109 52009 69901 70282 84250 333 84835 86360 91134
AAXX 21004 17188 11660 51102 10054 20047 39081 40142 52006 60021 70182 83250 333 83835 85359 91108
AAXX 21004 17202 12560 60000 11017 21022 39215 40276 50000 60001 84550 333 82720 84630 86359
AAXX 21004 17248 12975 02708 10107 20004 38943 48469 58010 60001
AAXX 21004 17292 11570 72002 10068 20065 39407 40167 52007 60041 70282 84270 333 84830 87359 91111
AAXX 21004 17300 12560 52205 10122 20091 30068 40138 58002 60001 83250 333 83830 85360
AAXX 21004 17310 1//// /0901 10161 20112 30162 40170 55001 69921
AAXX 21004 17330 3//// /0000 10140 20070 30157 40177 5//// 60001
AAXX 21004 17500 NIL
AAXX 21004 17501 12560 22106 10152 20086 30157 40176 52005 60001 82100 333 82830 92427
AAXX 21004 17505 12560 23208 10153 20102 30072 40185 52004 60001 82100 333 82830
AAXX 21004 17507 NIL
AAXX 21004 17510 12560 22604 10156 20119 30142 40152 51004 60001 82100 333 82830 92427
AAXX 21004 17515 11558 20000 10112 20092 30017 40194 52003 60001 71011 82100 333 82830
AAXX 21004 17521 NIL
AAXX 21004 17530 11558 20000 10097 20084 30124 40181 52003 60001 71011 82100 333 82830
AAXX 21004 17535 12560 22710 10126 20106 30122 40158 55001 60001 82100 333 82830
AAXX 21004 17540 NIL
AAXX 21004 17547 NIL
AAXX 21004 17550 12560 20000 10152 20129 30025 40169 52005 60001 82100 333 82830 92437
AAXX 21004 17572 12560 2//// 10161 20115 30160 40184 52005 60001 82100 333 82830 92427
AAXX 21004 06030 01325 81907 10014 20007 30031 40047 57010 69911 77072 885// 333 69907 84708 87616
AAXX 21004 06060 01240 82110 10010 20005 39993 40059 57004 69941 71076 885// 333 69947 83706 86618
AAXX 21004 06070 07457 82102 10015 20001 30036 40066 54000 69901 76166 333 6///7 88/18
AAXX 21004 06120 36534 82503 10007 20007 30045 40071 52005 333 88/23
AAXX 21004 06180 02580 71702 10027 21005 30063 40069 52001 6///1 87500 333 6///7 87626
AAXX 21004 06193 05869 71002 10009 21023 30067 40079 57006 6///1 333 55300 20000 6///7 85/59 87/65
BBXX 62087 21001 99547 10068 46/// /1503 10067 20037 4//// 5//// 22240 00086
AAXX 21004 60645 36/// /0000 10089 21062
AAXX 21004 60621 36/// /0407 10056 21059
AAXX 21004 60619 36/// /0206 10011 21062
AAXX 21004 60663 36/// /1305 10095 21026
BBXX 61002 21004 99421 10047 46/// ///31 10139 2//// 40198 52026 22200 00141 10808 70040 555 1/043
AAXX 21004 60612 36/// /0000 10085 21033
AAXX 21004 65352 31940 70402 10244 20035 3//// 4//// 70522 80002 333 5//// 87076
AAXX 21004 65361 32958 70000 10202 20088 3//// 4//// 80002 333 5//// 87076
AAXX 21004 65376 32958 62806 10246 20194 39666 40122 80002 333 58002 86076
AAXX 21004 65387 32460 72802 10275 20268 30089 40107 82502 333 58000 82610 87073
AAXX 21004 60715 11558 62214 10118 20071 30150 40157 56029 60023 72186 83280 333 59054 55/// 2//// 83823 84358 91023 91126
AAXX 21004 60723 NIL
AAXX 21004 60725 12558 62317 10115 2//// 30015 40195 56024 60073 86800 333 55015 20514 84630 83630
AAXX 21004 60735 12560 42208 10121 20027 30113 40196 58016 60003 84880 333 55054 20744 81823 83630
AAXX 21004 60745 NIL
AAXX 21004 60748 NIL
AAXX 21004 60750 12560 32608 10081 21034 30183 40209 56013 60003 83800 333 55058 20763 82826
AAXX 21004 60760 12560 22411 10091 21019 30132 40239 56011 60003 82200 333 55088 21133 82830
AAXX 21004 60765 NIL
AAXX 21004 60767 12560 32314 10073 21035 30085 40233 58012 60003 81500 333 55076 21130 81630 83070
AAXX 21004 60769 12558 42721 10128 20021 30211 40215 58014 60003 82802 333 55089 21230 82820 83070
AAXX 21003 64400 11456 81804 10248 20239 30101 40120 60024 70366 888// 333 0//52 58004 82810 88626
AAXX 21003 64401 32460 61804 10235 20214 39747 40119 86500 333 0//00 58001 81615 86640
AAXX 21004 64450 32560 60000 10240 20219 39755 40106 82530 333 0//00 58006 82626 86363
AAXX 21003 64458 NIL
AAXX 21003 64459 32960 32202 10220 20208 39743 40101 80002 333 0//00 58001 83078
AAXX 21001 13168 32998 02502 11022 21027 30041 40152 51001
AAXX 21001 13174 32697 22502 11035 21045 30037 40142 50002 82500
AAXX 21001 13269 32997 02802 11032 21043 39937 40161 51002
AAXX 21001 13274 32697 72903 11007 21029 39986 40152 51001 87500
AAXX 21001 13278 12697 50000 11015 21027 39924 40158 51002 69901 85500
AAXX 21001 13378 11397 72402 11096 21109 38164 48379 50001 69901 70274 87500
AAXX 21001 13397 11698 83005 11015 21025 39586 40140 51005 69921 76072 885//
AAXX 21001 13457 32970 02401 11002 21006 30124 40132 51005
AAXX 21001 13481 NIL
AAXX 21004 71900 46/// /27// 11135 21174 30044 40057 53013 6///1 333 11119 21142 7////
AAXX 21004 71903 NIL
AAXX 21004 71904 NIL
AAXX 21004 71914 16/// /1801 10042 20024 30021 40245 56008 60001 333 10067 20042 70000
AAXX 21004 71916 NIL
AAXX 21004 71918 460// ///// 11317 6///1 333 7////
AAXX 21004 71920 NIL
AAXX 21004 71921 NIL
AAXX 21004 71923 NIL
AAXX 21004 71927 16/// /2301 10069 20038 30188 40246 55010 60001 333 10107 20038 70000
AAXX 21004 71941 15966 61913 11082 21109 39709 40136 56024 60001 333 11082 21146 70000
AAXX 21004 71947 17558 82114 11075 21094 39736 40091 55000 60001 771// 333 11075 21193 70000
AAXX 21004 71001 15966 32801 11166 21183 39177 40188 53008 60001 333 11149 21219 70000
AAXX 21004 71002 15966 02906 11210 21235 39553 40115 51021 60001 333 11158 21211 70005
AAXX 21004 71003 17512 81916 11128 21151 39620 40009 58031 60001 771// 333 11126 21177 70000
AAXX 21004 71005 16/// ///// 10018 21008 60001 333 10064 21008 70000
AAXX 21004 71006 NIL
AAXX 21004 71007 NIL
AAXX 21004 71008 NIL
AAXX 21004 71009 NIL
AAXX 21004 71010 NIL
AAXX 21004 71011 NIL
AAXX 21004 71012 NIL
AAXX 21004 71013 NIL
AAXX 21004 71014 NIL
AAXX 21004 71015 NIL
AAXX 21004 71016 NIL
AAXX 21004 71017 NIL
AAXX 21004 71018 NIL
AAXX 21004 71019 NIL
AAXX 21004 71020 NIL
AAXX 21004 71021 NIL
AAXX 21004 71022 17666 62908 10060 20010 30232 40276 53018 69981 7004/ 333 10066 20041 70046
AAXX 21004 71023 17964 03406 11028 21048 39286 40051 53023 69951 7//44 333 10027 21038 70035
AAXX 21004 71024 16/// /2702 11082 21091 60001 333 11061 21098 70000 555 10010
AAXX 21004 71026 NIL
AAXX 21004 71027 17/// /2806 11049 21082 30095 40105 53045 60021 7//4/ 333 10008 21050 70057 555 10070
AAXX 21004 71028 16/// /3103 10014 21076 39199 40242 53015 60001 333 10056 20014 70000
AAXX 21004 71029 16/// /0406 11311 21345 30090 40131 51010 60001 333 11288 21318 70004
AAXX 21004 71030 16/64 /3007 11059 21147 30116 40208 51022 60001 333 11010 21059 70000
AAXX 21004 71032 46/// /2203 10044 21041 39354 40193 55003 6///1 333 10058 21060 7////
AAXX 21004 71033 46/// /3004 11093 21109 39408 40042 51028 6///1 333 11061 21093 7////
AAXX 21004 71035 NIL
AAXX 21004 71036 15966 02511 10000 21027 39621 49992 51023 60001 333 10051 21010 70000
AAXX 21004 71039 NIL
AAXX 21004 71040 46/// /0301 11182 21207 39981 40189 58004 6///1 333 11107 21188 7////
AAXX 21004 71041 15566 83019 11050 21098 39995 40139 51044 60001 333 10003 21049 70023
AAXX 21004 71042 16/// /2808 10065 20034 30235 40239 55010 60001 333 10081 20052 70004
AAXX 21004 71044 16/// /0501 11198 21221 39770 40097 51010 60001 333 11177 21223 70000
AAXX 21004 71046 460// /1903 11261 30095 40113 54000 6///1 333 11260 21292 7////
AAXX 21004 71047 16/// ///// 10013 21002 60001 333 10063 20013 70000
AAXX 21004 71048 NIL
AAXX 21004 71049 NIL
AAXX 21004 71060 NIL
AAXX 21004 71063 NIL
AAXX 21004 71397 12974 03108 11050 21122 30171 40206 53033 60001 333 10035 21055 70076
AAXX 21004 71400 17/64 /2604 11065 21073 69961 7//4/ 333 11041 21122 70021
AAXX 21004 71403 46/// /3119 11049 21097 30157 40177 51050 6///1 333 10015 21051 7////
AAXX 21004 71411 16/// /3006 11055 21106 30194 40207 51038 60001 333 10028 21056 70014
AAXX 21004 71412 16/// /3128 11040 21093 30125 40135 51040 60001 333 10002 21046 70043 555 10010
AAXX 21004 71421 NIL
AAXX 21004 71430 16/// /1513 10008 21025 30092 40191 58017 60001 333 10008 21064 70000
AAXX 21004 71431 16/// /1309 10007 21017 30084 40182 56017 60001 333 10007 21058 70000
AAXX 21004 71432 NIL
AAXX 21004 71433 NIL
AAXX 21004 71435 NIL
AAXX 21004 71441 NIL
AAXX 21004 71443 16/// /2306 11012 21030 39587 49995 53024 60001 333 10034 21017 70000
AAXX 21004 71444 NIL
AAXX 21004 71447 16/// /2706 10023 21015 39478 40021 53004 60001 333 10030 21061 70000
AAXX 21004 71467 16/// /1202 11240 21262 30009 40128 51009 60001 333 11232 21247 70000
AAXX 21004 71472 NIL
AAXX 21004 71474 46964 03507 10016 21096 38955 40200 53019 6///1 333 10045 21056 7////
AAXX 21004 71510 NIL
AAXX 21004 71538 11461 80000 10020 21002 39932 40165 55014 69901 78082 885// 333 10020 20000 79999 90915
AAXX 21004 71600 17664 83226 11008 21092 30144 40150 53047 69951 7//44 333 10058 21009 70025
AAXX 21004 71601 NIL
AAXX 21004 71604 16/// /3021 11083 21093 60001 333 11039 21089 70052 555 10270
AAXX 21004 71605 16/// /2504 10069 20007 30072 40223 55015 60001 333 10092 20049 70050
AAXX 21004 71611 NIL
AAXX 21004 71612 NIL
AAXX 21004 71614 NIL
AAXX 21004 71616 16/// /1301 11134 21148 30103 40229 56004 60001 333 11069 21134 70000
AAXX 21004 71617 16/// /1304 11147 21171 30028 40207 58002 60001 333 11119 21161 70000
AAXX 21004 71618 NIL
AAXX 21004 71619 NIL
AAXX 21004 71622 NIL
AAXX 21004 71632 46/// /0206 11138 21163 39582 40025 51046 6///1 333 11048 21138 7//// 555 10010
AAXX 21004 71634 16/// /2703 11126 21167 30039 40198 51036 60001 333 11061 21128 70000
AAXX 21004 71638 16/// /2907 10068 20014 30127 40233 56009 60001 333 10079 20046 70007
AAXX 21004 71639 12474 72202 11017 21058 39944 40191 55012 60001 87800 333 11015 21051 70000
AAXX 21004 71642 11474 82115 11042 21061 39545 40100 58017 60001 73622 885// 333 11042 21146 79999
AAXX 21001 13173 32997 02702 11024 21032 30040 40144 51001
AAXX 21001 13180 32697 82903 11003 21006 30033 40147 52001 885//
AAXX 21001 13266 32997 02701 11030 21037 30050 40155 51002
AAXX 21001 13369 32598 82701 11052 21066 38904 48380 54000 885//
AAXX 21001 13383 11697 83001 10000 21012 39936 40145 54000 69911 70272 885//
AAXX 21001 13384 11696 83201 10000 21019 39998 40155 52003 69911 71072 885//
AAXX 21001 13389 11697 80000 11002 21012 39854 40143 51003 69931 72227 885//
AAXX 21001 13477 NIL
AAXX 21004 71812 46933 33318 11305 21350 30009 40023 6///1 333 11195 7////
AAXX 21004 71819 17348 80211 11043 21051 39942 49983 53025 60001 771// 333 11041 21107 70000
AAXX 21004 71820 16/// /0604 11059 21088 30083 40201 58015 60001 333 11031 21066 70000
AAXX 21004 71823 17411 82017 11139 21163 39620 40009 58032 69951 74544 333 11138 21195 70010
AAXX 21004 71824 NIL
AAXX 21004 71826 16/// /0000 11161 21187 39913 49956 51006 60001 333 11135 21169 70000
AAXX 21004 71829 16/// /2108 11141 21195 30013 40180 51017 60001 333 11105 21145 7////
AAXX 21004 71833 46/// /1202 11026 21049 6///1 333 11018 21079 7////
AAXX 21004 71835 16/// /2409 11040 21053 39494 49971 56004 60001 333 11040 21095 70008
AAXX 21004 71837 NIL
AAXX 21004 71839 NIL
AAXX 21004 71840 NIL
AAXX 21004 71846 16/// /2310 11030 21048 39653 49967 52007 60001 333 11028 21094 70000
AAXX 21004 71847 NIL
AAXX 21004 71848 NIL
AAXX 21004 71849 16/// /2209 10008 21028 39691 49984 56001 60001 333 10016 21064 70000
AAXX 21004 71914 46/// /1801 10042 20024 30021 6///1 333 20045 7////
AAXX 21004 71450 NIL
AAXX 21004 71451 NIL
AAXX 21004 71452 46/// /3010 10030 21031 39329 40036 51012 6///1 333 10051 21059 7////
AAXX 21004 71453 16/// /2502 10007 21006 39184 40093 51012 60001 333 10057 20007 70000
AAXX 21004 71454 16/// /3307 11018 21053 39342 40028 53025 60001 333 10020 21019 70000
AAXX 21004 71455 46/// /2811 10012 21018 39261 40054 51010 6///1 333 10048 21015 7////
AAXX 21004 71456 NIL
AAXX 21004 71457 16/// /2709 10028 21016 39170 40053 56011 60001 333 10036 21016 70000
AAXX 21004 71458 16/// /2808 10012 21010 39289 40048 53012 60001 333 10067 20001 70000
AAXX 21004 71459 NIL
AAXX 21004 71460 16/// /2119 10006 21034 39911 40157 57024 60001 333 10007 21097 70000
AAXX 21004 71461 NIL
AAXX 21004 71462 NIL
AAXX 21004 71463 46/// /0305 10021 21036 39958 40185 56013 6///1 333 10026 21021 7////
AAXX 21004 71464 NIL
AAXX 21004 71465 NIL
AAXX 21004 71466 NIL
AAXX 21004 71468 NIL
AAXX 21004 71470 NIL
AAXX 21004 71471 17459 82912 11018 21032 39342 40133 51063 60001 771// 333 10049 21018 70000
AAXX 21004 71473 16/// /2204 10049 20017 30210 40240 56009 60001 333 10070 20046 70000
AAXX 21004 71475 NIL
AAXX 21004 71476 NIL
AAXX 21004 71477 16/// /2712 10048 20026 60001 333 10056 20040 70016
AAXX 21004 71478 NIL
AAXX 21004 71479 NIL
AAXX 21004 71480 NIL
AAXX 21004 71481 NIL
AAXX 21004 71482 NIL
AAXX 21004 71483 NIL
AAXX 21004 71484 NIL
AAXX 21004 71485 17/// /3112 10072 20041 30263 40284 53001 69921 7//4/ 333 10083 20061 70066
AAXX 21004 71486 16/// /0401 10013 21075 38915 40115 53010 60001 333 10048 21031 70000
AAXX 21004 71487 16/// /2910 10016 21021 39193 40056 53006 60001 333 10031 21025 70000
AAXX 21004 71489 16/// /2806 11002 21044 39250 40040 52011 60001 333 10060 21040 70000
AAXX 21004 71490 NIL
AAXX 21004 71491 16/// /0602 11243 21269 60001 333 11069 21338 70000
AAXX 21004 71492 NIL
AAXX 21004 71493 16/// /3206 11076 21132 30152 40191 51038 60001 333 11012 21077 70049
AAXX 21004 71494 16/// /2503 11155 21169 39677 40221 53001 60001 333 11104 21158 70019
AAXX 21004 71495 NIL
AAXX 21004 71496 16/// /3009 10001 21032 39421 40029 53016 60001 333 10067 21036 70000
AAXX 21004 71497 46/// /2104 11132 21149 39877 40149 52021 6///1 333 11070 21133 7////
AAXX 21004 71498 NIL
AAXX 21004 71499 17564 83005 11088 21104 39408 40040 51027 60001 771// 333 11058 21088 70000
AAXX 21004 71350 16/// /2814 11074 21130 30099 40166 53041 60001 333 11029 21074 70008 555 10020
AAXX 21004 71351 NIL
AAXX 21004 71352 16/// /1505 11024 21045 39710 40173 58016 60001 333 11019 21064 70000
AAXX 21004 71353 NIL
AAXX 21004 71354 NIL
AAXX 21004 71355 17/// /2521 11208 21229 39929 40017 53001 69931 7//4/ 333 11195 21296 70003 555 10010
AAXX 21004 71356 NIL
AAXX 21004 71357 NIL
AAXX 21004 71358 16/// /2504 11234 21266 39946 49982 51008 60001 333 11207 21301 70012 555 10120
AAXX 21004 71359 NIL
AAXX 21004 71360 NIL
AAXX 21004 71361 NIL
AAXX 21004 71362 NIL
AAXX 21004 71363 NIL
AAXX 21004 71364 NIL
AAXX 21004 71365 NIL
AAXX 21004 71368 15566 81306 11021 21049 39779 40176 58018 60001 333 11013 21071 70000
AAXX 21004 71369 17566 82906 10002 21010 39366 40064 53022 60041 7714/ 333 10065 20000 70038
AAXX 21004 71370 NIL
AAXX 21004 71371 15966 01603 11075 21104 30187 40222 56002 60001 333 11037 21078 70000
AAXX 21004 71372 NIL
AAXX 21004 71373 NIL
AAXX 21004 71374 NIL
AAXX 21004 71375 NIL
AAXX 21004 71376 NIL
AAXX 21004 71377 NIL
AAXX 21004 71378 16/// /1603 11146 21175 39986 40204 58005 60001 333 11090 21184 70010 555 10010
AAXX 21004 71379 NIL
AAXX 21004 71380 NIL
AAXX 21004 71381 NIL
AAXX 21004 71382 NIL
AAXX 21004 71383 NIL
AAXX 21004 71384 16/// /2902 11117 21163 30208 40216 53001 60001 333 11070 21125 70000
AAXX 21004 71385 NIL
AAXX 21004 71386 NIL
AAXX 21004 71387 NIL
AAXX 21004 71388 NIL
AAXX 21004 71389 46/// /0401 11165 21184 6///1 333 11045 21165 7////
AAXX 21004 71390 NIL
AAXX 21004 71391 NIL
AAXX 21004 71392 16/// /2302 11126 21156 60001 333 11085 21127 70000
AAXX 21004 71393 NIL
AAXX 21004 71395 12574 13215 11067 21127 30001 40183 53036 60001 81500 333 11003 21069 70040
AAXX 21004 71398 17448 82316 11017 21028 39980 49991 50000 60001 771// 333 11017 21203 70000
AAXX 21004 71399 NIL
AAXX 21004 71550 NIL
AAXX 21004 71551 NIL
AAXX 21004 71552 46/// /2316 11003 21026 6///1 333 10002 21054 7////
AAXX 21004 71553 16/// /3008 11003 21031 60001 333 10025 21026 70000
AAXX 21004 71554 NIL
AAXX 21004 71555 16/// /2718 10008 21106 38539 40098 53002 60001 333 10048 20002 70000
AAXX 21004 71556 16/// /2709 10009 21018 39429 40030 52017 60001 333 10050 21039 70000
AAXX 21004 71557 46/// /2207 10044 21014 6///1 333 10071 20042 7////
AAXX 21004 71558 46/// ///// 11044 21053 39939 49976 53025 6///1 333 11041 21105 7////
AAXX 21004 71559 46/// /2807 10035 21021 39341 40038 53007 6///1 333 10049 21041 7////
AAXX 21004 71560 16/// /1911 10024 21039 39695 49992 58012 60001 333 10029 21077 70000
AAXX 21004 71563 NIL
AAXX 21004 71564 NIL
AAXX 21004 71565 NIL
AAXX 21004 71566 NIL
AAXX 21004 71567 NIL
AAXX 21004 71568 16/// /3023 10075 20035 30259 40271 53003 60001 333 10080 20054 70096
AAXX 21004 71569 16/// /2812 10021 21023 39330 40026 52010 60001 333 10044 21030 70000
AAXX 21004 71570 16/// /2409 10006 21046 39671 49980 56003 60001 333 10006 21052 70003
AAXX 21004 71571 NIL
AAXX 21004 71572 NIL
AAXX 21004 71573 16/// /1002 11006 21039 39880 40166 58016 60001 333 10003 21034 70000
AAXX 21004 71574 12674 12708 11113 21149 30118 40193 52035 60001 81500 333 11058 21120 79999
AAXX 21004 71575 17/// /0309 11185 21202 39822 49888 58019 60021 7//4/ 333 11183 21229 70015 555 10050
AAXX 21004 71576 16/// /2802 11190 21211 39892 49978 53018 60001 333 11178 21219 70007
AAXX 21004 71577 46/// /2507 10015 21027 6///1 333 10018 21061 7////
AAXX 21004 71578 NIL
AAXX 21004 71579 16/// /2406 10017 21034 39699 49980 56001 60001 333 10018 21057 70000
AAXX 21004 71580 12974 01706 11361 21396 39972 40010 52009 60001 333 11334 21362 70002
AAXX 21004 71581 NIL
AAXX 21004 71582 17666 63202 10039 20032 30245 40299 53015 69931 7004/ 333 10078 20039 70106
AAXX 21004 71583 NIL
AAXX 21004 71584 15966 02911 11127 21166 30068 40117 51033 60001 333 11082 21127 70000
AAXX 21004 71585 NIL
AAXX 21004 71586 16/// /3309 11049 21082 39570 40034 51044 60001 333 11005 21049 70000
AAXX 21004 71587 NIL
AAXX 21004 71588 16/// /2613 11037 21041 60001 333 11028 21085 70000
AAXX 21004 71589 17/// /3008 11054 21063 39833 49966 53023 60041 7//4/ 333 11040 21072 70036 555 10040
AAXX 21004 71590 16/// /3502 11186 21206 30005 40205 51019 60001 333 11089 21186 70000
AAXX 21004 71592 NIL
AAXX 21004 71593 NIL
AAXX 21004 71596 NIL
AAXX 21004 71598 16/64 /2920 11083 21136 30167 40173 51037 60001 333 11042 21085 70000
AAXX 21004 71599 NIL
AAXX 21004 71201 17/// ///// 10073 20033 69921 7//4/ 333 10074 20057 70028
AAXX 21004 71202 16/// ///// 10030 21022 60001 333 10064 21017 70000
AAXX 21004 71203 15466 80702 10008 21018 39680 40207 53009 60001 333 10022 21005 70000
AAXX 21004 71209 46/// /3121 10073 6///1 333 10074 20056 7////
AAXX 21004 71211 46/// /1413 10083 20023 30213 40225 55014 6///1 333 10086 20053 7////
AAXX 21004 71212 16/// /0000 11225 21252 39362 40208 50006 60001 333 11126 21226 70000
AAXX 21004 71213 46/// /2117 11050 21074 39817 40124 58020 6///1 333 11050 21122 7////
AAXX 21004 71214 NIL
AAXX 21004 71215 46/// /1605 10002 21032 39856 40206 55011 6///1 333 10008 21013 7////
AAXX 21004 71216 16/// /0903 10006 21024 39555 40176 56011 60001 333 10026 20000 70000
AAXX 21004 71217 NIL
AAXX 21004 71218 16/// /1803 11001 21018 39757 40191 56005 60001 333 10026 21034 70000
AAXX 21004 71219 46/// /2914 10067 20019 30267 40273 53018 6///1 333 10071 20049 7////
AAXX 21004 71220 46/// /2917 10060 20003 6///1 333 10067 20042 7////
AAXX 21004 71221 NIL
AAXX 21004 71222 17/// /2203 11051 21056 39233 40216 51024 69981 7//4/ 333 11031 21061 70029 555 10030
AAXX 21004 71223 NIL
AAXX 21004 71224 NIL
AAXX 21004 71225 NIL
AAXX 21004 71226 NIL
AAXX 21004 71227 NIL
AAXX 21004 71228 NIL
AAXX 21004 71229 NIL
AAXX 21004 71230 17/// /3212 11013 21025 39213 40104 53037 69931 7//4/ 333 10039 21013 70003
AAXX 21004 71231 16/// /2715 10042 21032 60001 333 10057 20031 70000
AAXX 21004 71232 16/// /2612 10009 21122 38591 40074 58002 60001 333 10048 20007 70000
AAXX 21004 71233 16/// /2908 10019 21034 60001 333 10038 20000 70000
AAXX 21004 71234 16/// /2711 10025 21067 38911 40091 50001 60001 333 10064 20011 70000
AAXX 21004 71235 16/// /2913 10011 21103 60001 333 10075 20011 70000
AAXX 21004 71236 46/// /2806 11002 21065 6///1 333 10023 21013 7////
AAXX 21004 71237 46/// /2102 11013 21037 39249 40064 55001 6///1 333 10049 21041 7////
AAXX 21004 71238 16/// /2904 10016 21011 60001 333 10052 20011 70000
AAXX 21004 71239 16/// /2505 10016 21023 39548 40004 53007 60001 333 10019 21051 70000
AAXX 21004 71240 16/// ///// 10013 21046 39225 40066 53008 60001 333 10069 21017 70000
AAXX 21004 71241 NIL
AAXX 21004 71242 16/// /3505 10023 21057 60001 333 10058 21049 70000
AAXX 21004 71243 NIL
AAXX 21004 71244 NIL
AAXX 21004 71245 NIL
AAXX 21004 71246 NIL
AAXX 21004 71247 15966 81008 10033 21007 39226 40074 56007 60001 333 10054 20011 70000
AAXX 21004 71248 16/// /2805 11004 21145 38783 40082 53011 60001 333 10060 21047 70000
AAXX 21004 71249 NIL
AAXX 21004 71665 16/// /3003 11181 21229 30053 40063 53010 60001 333 11126 21187 70000
AAXX 21004 71666 16/// /2608 11100 21155 30144 40190 52040 60001 333 11042 21100 70010 555 10010
AAXX 21004 71667 NIL
AAXX 21004 71668 16/// /2605 11099 21159 30168 40213 51028 60001 333 11039 21101 70000
AAXX 21004 71669 NIL
AAXX 21004 71670 16/// ///// 11102 21156 60001 333 11039 21102 70000
AAXX 21004 71671 16/// /2908 11059 21120 30131 40192 51036 60001 333 10002 21060 70055
AAXX 21004 71672 16/// /0000 11074 21095 39920 40192 56013 60001 333 11014 21100 70000
AAXX 21004 71673 NIL
AAXX 21004 71674 NIL
AAXX 21004 71675 17466 82606 11027 21041 39652 49928 50005 60021 7004/ 333 11022 21084 70099
AAXX 21004 71679 16/// /2920 10013 21047 39193 40214 52023 60001 333 10028 20011 70000
AAXX 21004 71680 NIL
AAXX 21004 71681 46/// /1603 10005 21018 6///1 333 10019 21031 7////
AAXX 21004 71682 NIL
AAXX 21004 71683 NIL
AAXX 21004 71684 15566 82019 11053 21082 39819 40126 58021 60001 333 11053 21122 70000
AAXX 21004 71685 15466 80602 10000 21009 39642 40186 56008 60001 333 10018 21002 70000
AAXX 21004 71686 469// /2105 11044 21047 39233 40200 51024 6///1 333 11028 21058
AAXX 21004 71687 16/// /1602 10019 21001 39431 40219 53003 60001 333 10029 20012 70000
AAXX 21004 71688 16/// /1701 11002 21004 39169 40212 53001 60001 333 10019 21004 70000 555 10010
AAXX 21004 71689 15966 03105 11080 21100 39629 40087 51031 60001 333 10014 21083 70000
AAXX 21004 71690 NIL
AAXX 21004 71691 15966 32405 11150 21189 30163 40191 51017 60001 333 11098 21178 70000
AAXX 21004 71692 NIL
AAXX 21004 71694 16/// /1603 11060 21087 39817 40191 58011 60001 333 11018 21122 70000
AAXX 21004 71695 16/// /3206 11031 21055 39657 49988 53031 60001 333 10003 21052 70000
AAXX 21004 71696 16/// /3418 11233 21259 39974 40011 51041 60001 333 11110 21233 70000
AAXX 21004 71697 15566 80401 11030 21050 30015 40190 56015 60001 333 11017 21071 70000
AAXX 21004 71699 16/// /3108 11058 21139 30209 40217 51028 60001 333 11009 21058 70000
AAXX 21004 71150 46/// /2808 11007 21035 39325 40002 53008 6///1 333 10016 21058 7////
AAXX 21004 71151 NIL
AAXX 21004 71152 NIL
AAXX 21004 71153 NIL
AAXX 21004 71154 16/// /2314 10017 21058 60001 333 10032 20003 70023
AAXX 21004 71155 NIL
AAXX 21004 71156 NIL
AAXX 21004 71157 NIL
AAXX 21004 71158 NIL
AAXX 21004 71159 NIL
AAXX 21004 71160 NIL
AAXX 21004 71161 16/// /0701 11089 21110 30048 40201 58012 60001 333 11040 21093 70000
AAXX 21004 71162 NIL
AAXX 21004 71163 46/// /3105 11232 21253 39767 40121 51027 6///1 333 11158 21235 7////
AAXX 21004 71164 NIL
AAXX 21004 71165 NIL
AAXX 21004 71166 NIL
AAXX 21004 71167 17766 82918 10027 21088 38992 40081 53020 69931 7004/ 333 10046 21034 70006
AAXX 21004 71168 16/// /0000 11037 21066 39501 40103 57028 60001 333 10018 21136 70000
AAXX 21004 71170 NIL
AAXX 21004 71171 16/// /3602 10012 21029 30075 40173 58013 60001 333 10015 21010 70000
AAXX 21004 71172 16/// ///// 11042 21079 39938 40160 58014 60001 333 11014 21099 70000
AAXX 21004 71175 NIL
AAXX 21004 71176 460// /2310 11206 39301 49998 56009 6///1 333 11169 21210 7////
AAXX 21004 71177 460// /2703 11166 38995 40017 53002 6///1 333 11159 21191 7////
AAXX 21004 71178 17/// /2908 11024 21030 39925 49957 53016 60041 7//4/ 333 11003 21034 70041
AAXX 21004 71179 460// ///// 11148 39176 40014 53010 6///1 333 11125 21167 7////
AAXX 21004 71180 16/// /3028 11032 21071 30030 40069 51042 60001 333 10008 21046 70035 555 10030
AAXX 21004 71181 17562 83024 11023 21071 39951 49987 53044 69951 745// 333 10007 21092 70020
AAXX 21004 71183 16/// /2802 30177 56002 60001 333 70000
AAXX 21004 71184 NIL
AAXX 21004 71186 NIL
AAXX 21004 71187 15766 62910 10067 20038 30167 40215 56012 60001 333 10074 20049 70000
AAXX 21004 71189 NIL
AAXX 21004 71190 NIL
AAXX 21004 71191 16/// ///// 11095 21130 60001 333 11023 21095 70104
AAXX 21004 71192 15966 83109 10035 21063 39537 40204 53018 60001 333 10051 21021 70000
AAXX 21004 71193 16/// /2111 11046 21067 39721 40090 58013 60001 333 11045 21133 70000 555 10020
AAXX 21004 71196 16/// /1404 11092 21118 39982 40187 58010 60001 333 11040 21094 70000
AAXX 21004 71197 17556 63030 11039 21079 30008 40058 51036 60001 745// 333 10009 21043 70035
AAXX 21004 71198 46/// /2113 11045 21114 6///1 333 11041 21086 7////
AAXX 21004 71199 46/// /0000 11170 21187 39333 40202 53015 6///1 333 11156 21217 7////
AAXX 21004 71603 12974 03212 11031 21108 30160 40214 52030 60001 333 10022 21037 70004
AAXX 21004 71607 16/// /2802 11102 21139 30188 40222 51027 60001 333 11020 21103 70000
AAXX 21004 71609 12974 03105 11084 21156 30073 40211 51030 60001 333 10002 21088 70042
AAXX 21004 71610 15966 01002 11124 21137 39919 40226 51001 60001 333 11064 21124 70015
AAXX 21004 71621 12474 61005 11032 21063 30089 40198 57014 60001 86500 333 11004 21070 70000
AAXX 21004 71623 NIL
AAXX 21004 71624 12574 70000 11018 21048 39971 40187 57016 60001 85502 333 11002 21056 70000
AAXX 21004 71625 169// 01506 11052 21105 30024 40189 58008 60001 333 7////
AAXX 21004 71627 12974 00000 11076 21126 30176 40222 56001 60001 333 11042 21083 79999
AAXX 21004 71628 13060 /1305 11104 21145 30063 40209 58011 60001 80/// 333 11051 21107 70008
AAXX 21004 71630 NIL
AAXX 21004 71631 16/// /1704 11022 21046 39661 40170 56015 60001 333 11013 21063 70000
AAXX 21004 71633 12574 81805 11007 21049 39887 40163 58016 60001 885// 333 10000 21044 70000
AAXX 21004 71705 12974 02712 11099 21149 30102 40192 51039 60001 333 11043 21099 70022
AAXX 21004 71706 11674 63015 11071 21135 30112 40174 53039 69901 78581 86500 333 10008 21072 43002 70042 90927
AAXX 21004 71707 11674 72914 11054 21090 30036 40113 53038 69921 78582 87500 333 10004 21055 44004 70038 90916
AAXX 21004 71709 11558 83126 11050 21079 30105 40118 53035 60021 78588 885// 333 11010 21057 46006 70090 90973 93102
AAXX 21004 71711 NIL
AAXX 21004 71714 16/// /3401 11181 21203 30148 40245 53003 60001 333 11086 21191 70004
AAXX 21004 71715 NIL
AAXX 21004 71718 12583 62006 11102 21145 30126 40194 50016 60001 86500 333 11084 21105 79999
AAXX 21004 71719 NIL
AAXX 21004 71300 NIL
AAXX 21004 71301 16/// ///// 11066 21081 39701 40107 58016 60001 333 11066 21121 70000
AAXX 21004 71302 NIL
AAXX 21004 71303 46/// ///// 10035 20022 6///1 333 10043 20007 7////
AAXX 21004 71305 17459 82707 11111 21123 39793 40089 51021 60001 771// 333 11077 21130 70000
AAXX 21004 71306 17416 82117 11060 21072 39789 49821 58024 60001 771// 333 11058 21142 70000
AAXX 21004 71307 NIL
AAXX 21004 71308 46/// /2916 11049 21105 30066 40152 51038 6///1 333 11001 21051 7////
AAXX 21004 71309 NIL
AAXX 21004 71310 16/// /3018 11059 21087 30118 40156 51042 60001 333 11010 21063 70020 555 10030
AAXX 21004 71311 NIL
AAXX 21004 71312 16/// /3108 11019 21051 39556 40010 51027 60001 333 10030 21023 70000
AAXX 21004 71314 NIL
AAXX 21004 71315 NIL
AAXX 21004 71316 17/// /3405 11013 21022 39377 40056 53021 69941 7//4/ 333 10057 21014 70004
AAXX 21004 71317 NIL
AAXX 21004 71318 16/// /2706 11018 21042 39125 40067 53007 60001 333 10059 21039 70000 555 10030
AAXX 21004 71319 NIL
AAXX 21004 71320 16/// /1310 11217 21235 39921 49922 53017 60001 333 11196 21300 70000
AAXX 21004 71321 NIL
AAXX 21004 71322 17/// /3418 11305 21334 30010 40023 53024 69931 7//4/ 333 11193 21305 70025
AAXX 21004 71323 NIL
AAXX 21004 71331 16/// /0106 11056 21095 60001 333 11025 21071 70000
AAXX 21004 71332 NIL
AAXX 21004 71334 46/// /3606 11235 21267 39714 40050 53035 6///1 333 11079 21235 7////
AAXX 21004 71335 46964 02508 11154 57004 6///1 333 11135 21165 7////
AAXX 21004 71336 46/// ///06 11012 21016 39912 49934 53016 6///1 333 11003 21026 7////
AAXX 21004 71337 46/// /2905 11061 21069 39728 49966 53024 6///1 333 11057 21090 7////
AAXX 21004 71338 46964 01903 11233 21279 39960 49967 50002 6///1 333 11209 21263 7////
AAXX 21004 71339 17964 03411 11072 21099 39985 40000 53026 60001 745// 333 11044 21141 70000
AAXX 21004 71340 NIL
AAXX 21004 71341 NIL
AAXX 21004 71342 NIL
AAXX 21004 71343 NIL
AAXX 21004 71344 NIL
AAXX 21004 71345 NIL
AAXX 21004 71346 NIL
AAXX 21004 71347 NIL
AAXX 21004 71348 NIL
AAXX 21004 71349 NIL
AAXX 21004 71102 NIL
AAXX 21004 71105 NIL
AAXX 21004 71107 NIL
AAXX 21004 71110 NIL
AAXX 21004 71111 15966 02402 10050 20020 30280 40288 53013 60001 333 10063 20041 70018
AAXX 21004 71112 17/// ///// 69921 7//4/ 333 70012
AAXX 21004 71113 17/// /2305 10074 20039 30206 40230 56010 69961 7//4/ 333 10075 20049 70082
AAXX 21004 71115 16/// /3103 10007 21010 39607 40197 53005 60001 333 10017 21041 70000
AAXX 21004 71116 16/// /2903 10038 21029 39001 40094 58002 60001 333 10044 21034 70000
AAXX 21004 71118 16/// /3213 10017 21012 39236 40053 53009 60001 333 10060 21016 70000
AAXX 21004 71121 17564 82913 10024 21044 39244 40059 51017 60001 745// 333 10054 20015 70000
AAXX 21004 71127 16/// /2914 10009 21011 39164 40057 53022 60001 333 10062 20009 70000
AAXX 21004 71130 15966 02908 11016 21049 39559 40013 51027 60001 333 10031 21020 70000
AAXX 21004 71132 17861 81003 11136 21150 39738 40055 51019 60001 771// 333 11057 21136 70000
AAXX 21004 71133 NIL
AAXX 21004 71139 16/// /3305 11017 21024 38628 40077 51016 60001 333 10042 21018 70000
AAXX 21004 71141 NIL
AAXX 21004 71142 15966 82817 10015 21021 39101 40062 53003 60001 333 10028 21017 70000
AAXX 21004 71143 NIL
AAXX 21004 71144 NIL
AAXX 21004 71147 NIL
AAXX 21004 71149 NIL
AAXX 21004 71700 15966 02305 11112 21159 30187 40214 51027 60001 333 11038 21113 70000
AAXX 21004 71701 12874 12703 11096 21163 30150 40214 52030 60001 81070 333 11038 21164 79999
AAXX 21004 71702 16/// /3114 11080 21138 30158 40174 51047 60001 333 11029 21081 70004
AAXX 21004 71703 NIL
AAXX 21004 71704 15466 81506 10011 21005 39944 40168 56012 60001 333 10011 21030 70003
AAXX 21004 71710 NIL
AAXX 21004 71712 NIL
AAXX 21004 71713 NIL
AAXX 21004 71716 NIL
AAXX 21004 71717 NIL
AAXX 21004 71720 16/// /3206 10068 20010 30107 40261 53003 60001 333 10072 20033 70006
AAXX 21004 71721 NIL
AAXX 21004 71723 NIL
AAXX 21004 71724 NIL
AAXX 21004 71732 NIL
AAXX 21004 71733 16/// /1912 11045 21064 39709 40152 56023 60001 333 11044 21141 70000
AAXX 21004 71734 NIL
AAXX 21004 71736 NIL
AAXX 21004 71737 NIL
AAXX 21004 71741 16/// /3303 11006 21028 39779 40207 53009 60001 333 10009 21039 70000
AAXX 21004 71742 NIL
AAXX 21004 71743 NIL
AAXX 21004 71744 NIL
AAXX 21004 71745 NIL
AAXX 21004 71746 NIL
AAXX 21004 71747 NIL
AAXX 21004 71748 NIL
AAXX 21004 71893 12780 12903 10067 20027 30226 40258 55005 60001 81500 333 10079 20050 70002
AAXX 21004 71894 NIL
AAXX 21004 71896 15866 82813 10023 21065 39351 40188 53021 60001 333 10036 21013 70000
AAXX 21004 71897 12474 63215 10048 20028 3//// 4//// 54000 60021 86901 333 10080 20044 70028
AAXX 21004 71898 160// ///// 10061 53018 69951 333 10067 20041 70045
AAXX 21004 71899 11466 63016 10055 20038 3//// 4//// 52019 69961 71681 86300 333 10064 20044 70042 90950
AAXX 21004 71902 12974 02903 11181 21239 30059 40068 51010 60001 333 11109 21201 70000
AAXX 21004 71905 NIL
AAXX 21004 71906 11574 81812 11166 21207 39960 40012 57033 69901 70277 81570 333 11166 21254 48015 79999 90952
AAXX 21004 71907 17424 82119 11070 21085 39788 49820 58025 60011 74544 333 11069 21169 70030
AAXX 21004 71909 16964 00304 11185 21230 39911 49955 58006 60001 333 11126 21237 70000
AAXX 21004 71910 47330 90109 11186 21214 39831 49894 57017 6///1 745// 333 11183 21230 7////
AAXX 21004 71911 46964 01008 11412 39952 40012 53007 6///1 333 11388 21414 7////
AAXX 21004 71912 11562 80215 11151 21178 39809 49993 51051 69941 77177 886// 333 11021 21151 47016 70050 90983
AAXX 21004 71915 11974 03312 11363 21410 39823 49908 55000 69901 77677 333 11347 21380 44043 79999 90983
AAXX 21004 71917 11532 81602 11316 21360 30019 40034 52003 69941 77177 885// 333 11315 21412 47013 70004 90983
AAXX 21004 71922 12574 83112 11049 21083 39572 40037 51041 60001 885// 333 11003 21049 70000
AAXX 21004 71924 12974 63008 11283 21327 39955 40048 52007 60001 86030 333 11231 21302 48038 79999
AAXX 21004 71925 11569 23208 11308 21353 30047 40090 51018 69901 77677 82500 333 11283 21350 42021 79999 90983
AAXX 21004 71926 11566 73416 11309 21365 30002 40028 53009 69901 77672 87500 333 11309 21339 43043 79999 90962
AAXX 21004 71928 16/// /3008 11006 21111 38919 40083 53015 60001 333 10055 21056 70000
AAXX 21004 71744 NIL
AAXX 21004 71750 16/// /2310 10016 21041 39822 40055 58013 60001 333 10016 21094 70000
AAXX 21004 71751 NIL
AAXX 21004 71752 NIL
AAXX 21004 71753 16/// /3005 11076 21128 30151 40181 51046 60001 333 10000 21076 70036
AAXX 21004 71754 16/// /3208 10006 21040 39379 40037 52013 60001 333 10061 21018 70000
AAXX 21004 71755 43/// /2307 11042 21054 39597 49938 53005 6///1 333 11015 21072 7////
AAXX 21004 71756 16/// /0401 11002 21007 39117 40220 53004 60001 333 10014 21007 70000
AAXX 21004 71758 NIL
AAXX 21004 71760 NIL
AAXX 21004 71761 NIL
AAXX 21004 71762 NIL
AAXX 21004 71763 NIL
AAXX 21004 71765 16/// /1609 10082 21005 39917 40191 53017 60001 333 10107 20060 70000
AAXX 21004 71766 16/// /2904 10060 20031 30176 40248 55006 60001 333 10084 20045 70000
AAXX 21004 71767 16/// /2108 10002 21040 39892 40157 58020 60001 333 10002 21052 70000
AAXX 21004 71768 46/// /2703 11005 21033 39647 40203 55004 6///1 333 10020 21021 7////
AAXX 21004 71769 16/// /2915 10072 20043 30225 40241 56007 60001 333 10075 20063 70002
AAXX 21004 71770 16/// /1602 11013 21022 39409 40192 55008 60001 333 10007 21028 70000
AAXX 21004 71771 NIL
AAXX 21004 71772 16/// /3115 10075 20047 30230 40236 55007 60001 333 10078 20061 70004
AAXX 21004 71773 16/// /1702 11118 21131 39312 40199 51022 60001 333 11089 21185 70000
AAXX 21004 71774 46/// ///// 10045 6///1 333 10071 20037 7////
AAXX 21004 71775 46/// /2504 10062 20032 30230 40236 55008 6///1 333 10083 20049 7////
AAXX 21004 71776 46/// /2812 10007 21022 39543 40192 55010 6///1 333 10008 21018 7////
AAXX 21004 71777 16/// ///// 10017 20007 39973 40228 53002 60001 333 10024 21006 70000 555 10020
AAXX 21004 71778 46/// /2823 6///1 333 7////
AAXX 21004 71779 16/// /3107 10036 21062 39534 40199 53019 60001 333 10051 21029 70000
AAXX 21004 71780 16/// /2819 10073 20057 30231 40259 55004 60001 333 10078 20068 70000
AAXX 21004 71781 46/// /3014 10074 20041 30223 40248 55007 6///1 333 10089 20062 7////
AAXX 21004 71782 46/// /1705 11001 21040 38806 40135 55006 6///1 333 10010 21019 7////
AAXX 21004 71783 16/// /2605 10073 20040 30170 40244 58005 60001 333 10095 20052 70000
AAXX 21004 71784 16/// /3005 10062 20019 30017 40223 56011 60001 333 10082 20048 70020
AAXX 21004 71785 16/// /2704 10073 20042 30229 40245 55009 60001 333 10089 20062 70002
AAXX 21004 71786 46/// /2709 11053 21062 38306 40153 55001 6///1 333 11046 21072 7////
AAXX 21004 71787 16/// /2910 11121 21149 39683 40185 51029 60001 333 11057 21123 70034
AAXX 21004 71788 NIL
AAXX 21004 71789 NIL
AAXX 21004 71791 NIL
AAXX 21004 71792 NIL
AAXX 21004 71793 NIL
AAXX 21004 71794 NIL
AAXX 21004 71795 NIL
AAXX 21004 71796 NIL
AAXX 21004 71797 NIL
AAXX 21004 71401 16/// /1705 11015 21031 39505 40200 56014 60001 333 11012 21033 70000
AAXX 21004 71402 NIL
AAXX 21004 71404 NIL
AAXX 21004 71405 NIL
AAXX 21004 71406 NIL
AAXX 21004 71407 NIL
AAXX 21004 71408 NIL
AAXX 21004 71409 NIL
AAXX 21004 71410 15566 13205 11052 21066 39690 49967 53027 60001 333 11008 21052 70000
AAXX 21004 71413 NIL
AAXX 21004 71414 NIL
AAXX 21004 71415 16/// /3030 11033 21068 30155 40158 52041 60001 333 10008 21039 70029 555 10010
AAXX 21004 71417 NIL
AAXX 21004 71418 NIL
AAXX 21004 71419 46/// /2923 11031 21079 30133 40143 53049 6///1 333 10022 21035 7////
AAXX 21004 71423 NIL
AAXX 21004 71424 46/// /2112 6///1 333 7////
AAXX 21004 71425 NIL
AAXX 21004 71426 NIL
AAXX 21004 71427 NIL
AAXX 21004 71428 16/// /2817 11082 21132 30173 40179 51024 60001 333 11055 21089 70000
AAXX 21004 71429 16/// /3009 11104 21161 30124 40144 52032 60001 333 11050 21104 70000
AAXX 21004 71434 NIL
AAXX 21004 71436 15466 30201 11059 21067 39954 40195 56013 60001 333 11015 21081 70000
AAXX 21004 71437 46/// /0403 10000 21039 30081 40178 58017 6///1 333 10002 21024 7////
AAXX 21004 71438 NIL
AAXX 21004 71439 NIL
AAXX 21004 71440 NIL
AAXX 21004 71442 NIL
AAXX 21004 71445 NIL
AAXX 21004 71446 NIL
AAXX 21004 71448 16/// /2407 10012 21046 39650 49976 50000 60001 333 10013 21054 70000
AAXX 21004 71449 NIL
AAXX 21004 71950 15966 03410 10020 21061 39581 40216 53022 60001 333 10051 20013 70000
AAXX 21004 71952 16/// /3001 10000 21064 39354 40213 53029 60001 333 10031 21011 70000
AAXX 21004 71954 46/// /3509 11031 21057 39624 49998 52032 6///1 333 11010 21034 7////
AAXX 21004 71956 NIL
AAXX 21004 71959 NIL
AAXX 21004 71960 460// /1307 11288 39984 40123 50001 6///1 333 11271 21291 7////
AAXX 21004 71962 17/// /2008 10009 21071 39600 40022 58011 60031 7//4/ 333 10020 21077 70033
AAXX 21004 71963 NIL
AAXX 21004 71967 16/// /1705 11095 21120 30126 40235 56001 60001 333 11054 21096 70000
AAXX 21004 71970 NIL
AAXX 21004 71971 NIL
AAXX 21004 71972 460// ///// 11152 39522 49990 57004 6///1 333 11135 21158 7////
AAXX 21004 71973 46/// /2608 11054 21069 39821 40010 53030 6///1 333 11021 21081 7////
AAXX 21004 71974 NIL
AAXX 21004 71975 460// /2105 11164 39222 49953 52002 6///1 333 11156 21168 7////
AAXX 21004 71976 NIL
AAXX 21004 71977 NIL
AAXX 21004 71978 NIL
AAXX 21004 71979 NIL
AAXX 21004 71980 NIL
AAXX 21004 71981 NIL
AAXX 21004 71982 NIL
AAXX 21004 71983 NIL
AAXX 21004 71984 16/// /2902 11221 21245 30117 40126 51010 60001 333 11220 21250 70000 555 10010
AAXX 21004 71985 NIL
AAXX 21004 71986 NIL
AAXX 21004 71987 16/// /3026 11063 21097 30149 40159 51039 60001 333 11020 21064 70006
AAXX 21004 71988 NIL
AAXX 21004 71989 NIL
AAXX 21004 71990 NIL
AAXX 21004 71999 46/// ///// 10093 6///1 333 10099 20032 7////
AAXX 21004 71500 NIL
AAXX 21004 71501 NIL
AAXX 21004 71502 NIL
AAXX 21004 71503 NIL
AAXX 21004 71504 NIL
AAXX 21004 71505 46/// /1102 11170 21196 39444 40204 53016 6///1 333 11170 21236 7////
AAXX 21004 71506 NIL
AAXX 21004 71507 17/// /0204 11029 21035 69991 7//4/ 333 10003 21029 70009
AAXX 21004 71508 16/// ///// 10002 21025 30053 40193 55013 60001 333 10004 21035 70008
AAXX 21004 71509 NIL
AAXX 21004 71511 NIL
AAXX 21004 71512 NIL
AAXX 21004 71513 15966 03214 11129 21170 30063 40079 51040 60001 333 11072 21129 70013
AAXX 21004 71514 NIL
AAXX 21004 71515 16/// /2910 10007 21020 39330 40027 53010 60001 333 10037 21036 70000
AAXX 21004 71516 16/// /3108 10022 21020 60001 333 10046 21034 70000
AAXX 21004 71517 NIL
AAXX 21004 71518 NIL
AAXX 21004 71519 NIL
AAXX 21004 71520 NIL
AAXX 21004 71521 NIL
AAXX 21004 71522 NIL
AAXX 21004 71523 NIL
AAXX 21004 71524 NIL
AAXX 21004 71525 NIL
AAXX 21004 71526 NIL
AAXX 21004 71527 15666 82110 11012 21054 39487 49991 58013 60001 333 11011 21075 70000
AAXX 21004 71528 NIL
AAXX 21004 71529 46/// /16// 11196 21220 39842 40076 51023 6///1 333 11167 21200 7//// 555 10020
AAXX 21004 71532 15966 01607 11057 21073 39829 40183 58008 60001 333 11023 21117 70000
AAXX 21004 71534 16564 81608 11029 21053 39906 40184 56009 60001 333 11007 21067 70000
AAXX 21004 71535 NIL
AAXX 21004 71536 NIL
AAXX 21004 71537 NIL
AAXX 21004 71539 NIL
AAXX 21004 71540 NIL
AAXX 21004 71541 NIL
AAXX 21004 71542 16/// /2706 11067 21093 60001 333 11022 21071 70000
AAXX 21004 71543 NIL
AAXX 21004 71544 NIL
AAXX 21004 71545 16/// ///// 10009 21001 60001 333 10052 20009 70000
AAXX 21004 71546 NIL
AAXX 21004 71547 NIL
AAXX 21004 71548 NIL
AAXX 21004 71549 NIL
AAXX 21004 71051 NIL
AAXX 21004 71055 NIL
AAXX 21004 71057 NIL
AAXX 21004 71059 460// ///// 11231 30040 40134 51013 6///1 333 11226 21284 7////
AAXX 21004 71061 16/// /2810 10016 21001 39280 40048 53017 60001 333 10051 20016 70000
AAXX 21004 71062 46/// /2910 10016 21041 38995 40052 53017 6///1 333 10057 21012 7////
AAXX 21004 71064 460// /3425 11311 39875 40103 50014 6///1 333 11304 21342 7////
AAXX 21004 71065 NIL
AAXX 21004 71067 NIL
AAXX 21004 71070 NIL
AAXX 21004 71073 NIL
AAXX 21004 71074 NIL
AAXX 21004 71075 NIL
AAXX 21004 71078 15466 80109 11138 21162 39580 40026 51046 60001 333 11047 21138 70000
AAXX 21004 71084 460// ///// 11289 39994 40044 53014 6///1 333 11276 21343 7////
AAXX 21004 71085 15966 62714 10007 21056 38735 40113 55001 60001 333 10041 20007 70000
AAXX 21004 71087 NIL
AAXX 21004 71088 460// /1215 11254 51013 6///1 333 11204 21272 7////
AAXX 21004 71089 NIL
AAXX 21004 71096 460// ///// 11208 39214 49955 50002 6///1 333 11200 21223 7////
AAXX 21004 71097 46364 32607 11143 39489 49965 58002 6///1 333 11139 21145 7////
AAXX 21004 71098 43/// /2404 11015 21026 39591 49946 52009 6///1 333 11006 21061 7////
AAXX 21004 71099 43/// /3211 11099 21121 39898 49918 53038 6///1 333 11026 21134 7////
AAXX 21004 71930 11416 83008 10004 21024 39151 40078 53018 69961 77182 885// 333 10046 20001 47018 70006 90952
AAXX 21004 71931 NIL
AAXX 21004 71934 11374 13009 11137 21192 39831 40094 53032 69901 73671 81600 333 11060 21155 47021 70004 90922
AAXX 21004 71935 12574 63213 11127 21163 39916 40130 52031 60001 81570 333 11105 21176 70000
AAXX 21004 71936 11974 13108 11206 21241 39836 40105 51028 60001 73611 81070 333 11153 21206 70010
AAXX 21004 71937 NIL
AAXX 21004 71938 12574 12105 11326 21358 30124 40155 51020 60001 81500 333 11248 21326 79999
AAXX 21004 71940 11/16 92815 10002 20000 39299 40102 53031 69981 78588 333 10055 20001 42001 70008 90946 93101
AAXX 21004 71943 11866 72910 11032 21074 39300 40139 52053 69901 70282 87070 333 10036 21035 79999 90912
AAXX 21004 71944 160// ///// 10009 53042 60021 333 10039 20004 70075
AAXX 21004 71945 12883 20503 11066 21100 39667 40144 53029 60001 82071 333 11012 21082 79999
AAXX 21004 71946 12674 70000 11106 21136 39921 40140 52019 60001 87500 333 11102 21180 70000
AAXX 21004 71948 46064 /0000 11257 30012 40130 53013 6///1 333 11254 21273 7////
AAXX 21004 71949 46/// /1102 11216 21239 39290 40203 53024 6///1 333 11192 21236 7////
AAXX 21004 71951 11369 61909 10022 20011 39993 40264 52020 69941 70182 85570 333 10036 20019 43025 70057 90922
AAXX 21004 71957 46964 30504 11262 21330 30027 40120 53004 6///1 333 11249 21299 7////
AAXX 21004 71964 12986 61805 11127 21143 39315 40202 52021 60001 80001 333 11111 21183 70000
AAXX 21004 71966 16/// /0000 11197 21220 39686 40165 51018 60001 333 11171 21237 70000
AAXX 21004 71968 460// /2303 11279 30045 40112 53006 6///1 333 11267 21302 7////
AAXX 21004 71864 NIL
AAXX 21004 71865 16/// /2707 10022 21023 39345 40019 51018 60001 333 10047 21021 70000
AAXX 21004 71866 46664 32909 10002 21048 39424 40035 53016 6///1 333 10068 21036 7////
AAXX 21004 71867 12574 83308 11030 21048 39661 49993 53031 60001 885// 333 10002 21052 70000
AAXX 21004 71868 16/// /2704 11017 21041 39561 49998 53022 60001 333 10029 21029 70000
AAXX 21004 71869 12574 63107 10008 21014 39505 40025 52027 60001 86500 333 10037 21026 70000
AAXX 21004 71871 15566 32912 10014 21020 39245 40043 53012 60001 333 10053 20010 70000
AAXX 21004 71877 12983 12714 10029 21094 38823 40079 55001 60001 81070 333 10081 20028 70000
AAXX 21004 71878 12674 62803 10003 21088 39012 40084 53012 60001 83470 333 10040 21070 70000
AAXX 21004 71879 17664 82913 10027 21016 39265 40060 51017 60001 745// 333 10058 20006 70000
AAXX 21004 71880 12782 21210 10014 21039 39037 40144 56010 60001 81502 333 10026 21013 70000
AAXX 21004 71882 160// /0802 11002 21016 39643 40187 56008 60001 333 10017 21002 70000
AAXX 21004 71883 NIL
AAXX 21004 71887 12986 83203 11005 21022 39782 40209 53008 60001 8807/ 333 10015 21043 70000
AAXX 21004 71889 12574 81815 10008 21031 39782 40206 55004 60001 8167/ 333 10016 21008 70000
AAXX 21004 71891 16864 31709 10083 21001 39920 40194 53017 60001 333 10107 20062 70000
AAXX 21004 71892 12580 22820 10066 20036 30231 40236 55014 60001 82100 333 10076 20056 70008
AAXX 21004 71250 NIL
AAXX 21004 71251 16/// /2709 10028 21032 39159 40078 56010 60001 333 10056 20028 70000
AAXX 21004 71252 NIL
AAXX 21004 71253 46/// /0301 11114 21119 6///1 333 11096 21145 7////
AAXX 21004 71254 16/// /3209 10013 20003 60001 333 10047 20002 70000 555 10010
AAXX 21004 71255 16/// /0403 11101 21123 60001 333 10013 21104 70000
AAXX 21004 71256 46/// /2808 10004 20001 39146 40076 53017 6///1 333 10048 20003 7////
AAXX 21004 71257 NIL
AAXX 21004 71258 NIL
AAXX 21004 71259 NIL
AAXX 21004 71261 16/// /1405 11007 21033 39896 40161 58016 60001 333 10004 21046 70000
AAXX 21004 71263 13460 /0705 11017 21039 39887 40182 58016 60001 817// 333 10000 21054 79999
AAXX 21004 71264 16/// /3209 11055 21108 30158 40190 51039 60001 333 10019 21055 70021
AAXX 21004 71265 15566 82803 10002 21029 30095 40191 55013 60001 333 10003 21038 70000
AAXX 21004 71266 NIL
AAXX 21004 71267 15966 82423 10041 21049 39007 40091 55000 60001 333 10069 20040 70000
AAXX 21004 71268 NIL
AAXX 21004 71269 NIL
AAXX 21004 71270 NIL
AAXX 21004 71271 17/// ///// 11001 21007 60011 7//4/ 333 10064 21001 70013
AAXX 21004 71272 15966 33607 11233 21260 39687 40048 53034 60001 333 11078 21233 70000
AAXX 21004 71273 16/// /3604 11003 21045 39384 40036 53023 60001 333 10053 21004 70000
AAXX 21004 71274 NIL
AAXX 21004 71275 NIL
AAXX 21004 71276 NIL
AAXX 21004 71277 NIL
AAXX 21004 71278 NIL
AAXX 21004 71279 NIL
AAXX 21004 71281 NIL
AAXX 21004 71282 46/// /1710 11023 21026 39914 40190 56009 6///1 333 11014 21074 7////
AAXX 21004 71283 NIL
AAXX 21004 71284 16/// ///// 10012 21005 60001 333 10050 20004 70000
AAXX 21004 71285 NIL
AAXX 21004 71286 NIL
AAXX 21004 71287 NIL
AAXX 21004 71288 NIL
AAXX 21004 71289 NIL
AAXX 21004 71290 17866 83005 10010 21049 39332 40166 53041 69951 7004/ 333 10041 20005 70088
AAXX 21004 71291 NIL
AAXX 21004 71292 15566 62709 10017 21004 39409 40011 53015 60001 333 10037 21017 70000
AAXX 21004 71294 16/// /0000 11097 21107 39772 40188 58011 60001 333 11029 70000
AAXX 21004 71295 NIL
AAXX 21004 71296 NIL
AAXX 21004 71297 16/// /0502 11012 21037 60001 333 10004 21044 70000
AAXX 21004 71298 16/// /1303 10027 20019 39927 40161 56012 60001 333 10028 20002 70000
AAXX 21004 71299 NIL
AAXX 21004 71816 11574 72906 11131 21164 30008 40071 52031 60011 78588 87500 333 11084 21132 47050 70044 90983 93101
AAXX 21004 71817 NIL
AAXX 21004 71818 12474 63112 11090 21109 30013 40031 53025 60001 86500 333 11064 21132 70008
AAXX 21004 71822 12974 81812 11138 21157 39629 40121 56029 60001 85078 333 11134 21196 70008
AAXX 21004 71825 12974 02303 11220 21263 39424 40125 52004 60001 333 11170 21221 70008
AAXX 21004 71827 11424 82013 11069 21073 39697 49943 56017 60021 77175 885// 333 11069 21174 47018 70018 90983 93102
AAXX 21004 71828 16964 31809 11206 21247 39423 40088 58008 60001 333 11190 21248 70005
AAXX 21004 71831 11574 72015 11021 21051 39762 40045 58015 69901 72222 85570 333 11020 21138 48039 79999 90911
AAXX 21004 71832 NIL
AAXX 21004 71834 11248 82310 11031 21050 39594 40025 58005 60011 77177 885// 333 11030 21097 48025 70018 90973 93101
AAXX 21004 71841 NIL
AAXX 21004 71842 11666 81904 11023 21054 39525 49994 58008 60021 77122 885// 333 11022 21090 48016 70018 90962
AAXX 21004 71844 16464 82505 11027 21044 39654 49929 51005 60001 333 11020 21083 70010
AAXX 21004 71845 11474 82204 11041 21053 39504 49978 58003 69901 70272 885// 333 11040 21101 44016 70006 90953
AAXX 21004 71850 11774 82010 11014 21059 39487 49985 58015 60001 73622 8257/ 333 11014 21065 79999
AAXX 21004 71852 16964 02209 10010 21027 39693 49985 55000 60001 333 10018 21065 70000
AAXX 21004 71854 11548 82306 11034 21046 39511 49982 53004 69941 77177 885// 333 11028 21071 48013 70036 90983
AAXX 21004 71858 16/// /3105 11027 21040 39695 49973 53022 60001 333 10016 21029 70000
AAXX 21004 71861 NIL
AAXX 21004 71862 12674 72906 10033 21024 39344 40042 53007 60001 87500 333 10050 21045 70000
AAXX 21004 71863 46864 32710 10010 21020 39344 40039 53012 6///1 333 10032 21031 7////
AAXX 21004 78922 46/// /1023 10252 20217 30113 40158 52014
AAXX 21001 15501 12970 02707 10010 21013 30058 40103 51002 60001 333 10020 20010 555 585//
AAXX 21001 15505 12663 60000 11008 21015 39727 40109 54000 60001 86500 333 10010 21010 43007 555 595//
AAXX 21001 15511 11970 02708 10011 21012 30076 40116 52005 69911 70161 333 10022 20011 555 585//
AAXX 21001 15514 11568 32916 10018 21016 30056 40092 54000 69951 70161 83500 333 10025 20012 91120 555 57800 69499
AAXX 21001 15530 11658 82701 10017 20009 39868 40110 52005 60021 71072 8552/ 333 10018 20011 555 59401 69799 70056
AAXX 21001 15533 11570 82704 10010 21007 30031 40063 54000 69941 76872 8802/ 333 10023 20010 555 58900 63599
AAXX 21001 15550 11465 80000 10021 20016 30054 40074 53004 60061 76166 8802/ 333 10046 20021 555 59604 69999
AAXX 21001 15561 11465 82908 10044 20021 30062 40069 53004 60021 70262 885// 222// 2//01 333 10083 20037 555 585// 70052 92025 92427
AAXX 21001 15562 11481 83207 10058 20029 39995 40067 53006 69931 70262 885// 222// 2//01 333 10072 20056 555 582// 92024 92428
AAXX 21001 15600 11/00 93604 11084 21087 38191 48404 53005 60001 74944 333 11058 21084 44011 555 598// 92712
AAXX 21001 15601 12770 33602 11016 21038 39493 40129 52015 60001 83300 333 10012 21018 555 583//
AAXX 21001 15605 12666 82704 11030 21035 39259 40127 53008 60001 885// 333 11022 21032 47002 555 596//
AAXX 21001 15613 11/00 92704 11089 21096 37581 47909 53001 60001 74944 333 11076 21090 48044 555 595//
AAXX 21001 15628 11675 62705 10024 21021 39847 40108 52007 69931 70282 86800 333 10040 20016 555 572//
AAXX 21001 15642 11540 80000 10040 20038 39916 40085 52011 60001 71022 885// 333 10064 20038 555 598//
AAXX 21001 15661 11460 83604 10076 20067 30032 40067 54000 60031 76162 8802/ 222// 20501 333 10090 20072 555 59403 69599 70054 92023 92427
AAXX 21001 15726 11/02 92602 11042 21047 38135 48404 58004 60061 77174 333 11028 21044 47018 555 59705 69999 70045
AAXX 21001 12105 11956 41303 11015 21029 30047 40091 57012 60001 71011 84030 333 93000
AAXX 21001 12195 11719 53001 11035 21038 39885 40120 57011 60001 71011 85500 333 93000
AAXX 21001 12235 11940 01303 11022 21035 39888 40105 57012 60001 71000 333 93000
AAXX 21001 12270 11/00 90000 11064 21064 39933 40124 57009 60001 74740 333 93000
AAXX 21001 12280 11230 80000 11020 21023 39960 40122 57009 60001 71041 886// 333 93000
AAXX 21001 12300 11758 81702 11013 21038 39991 40083 57013 69901 77111 885// 333 93097
AAXX 21001 12400 11650 81602 11021 21046 39851 40093 56012 69901 78511 889// 333 93097
AAXX 21001 12435 11950 01403 11044 21072 39936 40115 58011 60001 71000 333 93000
AAXX 21001 12495 11216 83101 11015 21016 39813 40113 56005 60011 77177 8672/ 333 93001
AAXX 21001 12530 11915 00901 11085 21086 39913 40124 58010 60001 71000 333 93000
AAXX 21001 12570 11/00 90000 11080 21083 39797 40132 57006 60001 74940 333 93000
AAXX 21001 12580 11560 82604 11015 21021 39854 40121 57004 69911 77172 885// 333 93091
AAXX 21004 71726 17/// /1802 11122 21149 39614 40175 58009 69931 7//4/ 333 11112 21164 70008 555 10010
AAXX 21004 71727 11574 61502 11165 21196 39994 40200 50000 69901 70288 81570 333 11105 21180 48029 70030 90952
AAXX 21004 71728 12980 61905 11112 21175 39949 40179 58015 60001 86070 333 11105 21148 79999
AAXX 21004 71730 11574 82012 11045 21065 39717 40152 56023 69901 70272 885// 333 11045 21123 41997 70002 90941
AAXX 21004 71731 12974 12307 11061 21103 39700 40162 58016 60001 81030 333 11051 21106 79999
AAXX 21004 71735 NIL
AAXX 21004 71738 12574 62112 11002 21054 39730 40085 58017 60001 86500 333 11002 21148 79999
AAXX 21004 71739 41569 82209 11043 21072 39722 40091 57014 6//// 73672 885// 333 11042 21124 4//// 7//// 90931
AAXX 21004 71749 16964 82309 10001 21061 39800 40048 58012 60001 333 10001 21102 70000
AAXX 21004 71799 12583 10000 10060 20040 30223 40247 57005 60001 81500 333 10096 20044 79999
AAXX 21004 71800 NIL
AAXX 21004 71801 11448 82910 11022 21027 39781 49953 53017 60071 77188 885// 333 11021 21033 47012 70070 90973 93108
AAXX 21004 71803 11274 32809 11062 21083 39790 49977 53024 60031 70177 81670 333 11049 21073 47006 70050 90923 93104
AAXX 21004 71807 NIL
AAXX 21004 71808 11556 60314 11058 21080 39945 49992 53035 60041 77177 86500 333 11041 21069 44021 70046 90973 93104
AAXX 21004 71809 11462 82212 11048 21078 39966 49993 51027 60041 77177 885// 333 11030 21113 46007 70106 90983 93104
AAXX 21004 71810 NIL
AAXX 21004 71811 NIL
AAXX 21004 71813 16/// /3113 11129 21166 30060 40074 51040 60001 333 7////
AAXX 21004 71814 NIL
AAXX 21004 71815 11432 82919 11048 21073 30003 40034 53036 60031 78588 885// 333 11014 21052 48010 70100 90973 93103
AAXX 21004 71114 160// /2910 10069 20036 30168 40216 56012 60021 333 10079 20049 70065
AAXX 21004 71120 11674 63406 11002 21039 39410 40054 53023 69901 70282 83570 333 10050 21002 42002 79999 90950
AAXX 21004 71122 16/// /2404 11025 21073 38512 40118 53001 60001 333 11003 7////
AAXX 21004 71123 11574 83019 10017 21006 39212 40071 53017 69901 78022 885// 333 10055 21003 44006 79999 90921
AAXX 21004 71125 12574 63105 11025 21040 39462 40046 53025 60001 82570 333 70002
AAXX 21004 71129 12774 42606 11001 21039 39237 40066 53013 60001 81571 333 10055 21047 70000
AAXX 21004 71131 16/// /3411 10003 21020 38833 40090 53013 60001 333 10032 21071 70000
AAXX 21004 71135 16/// /3211 10023 21040 38984 40064 53007 60001 333 10036 21031 70000
AAXX 21004 71137 NIL
AAXX 21004 71140 12974 72711 10003 21018 39510 40010 5/003 60001 87070 333 10008 21053 70000
AAXX 21004 71145 12574 73005 11032 21046 39657 49948 53019 60001 87500 333 11014 21053 70006
AAXX 21004 71148 16/// /2506 10006 21034 39439 40017 53002 60001 333 10010 21053 70000
AAXX 21004 71185 17464 6//// 11034 39946 49970 53026 60001 745// 333 11014 21065 70005
AAXX 21004 71188 12574 32711 11101 21153 30105 40149 52039 60001 83100 333 11060 21105 79999
AAXX 21004 71200 16/// /2611 10073 20039 60001 333 10092 20060 70000
AAXX 21004 71207 46/// /3502 10040 30166 40231 6///1 333 10051 20029 7////
AAXX 21004 71260 13/// ///// 11015 21058 39891 40131 56021 60001 333 11002 21066 70000
AAXX 21004 71851 NIL
AAXX 21004 71857 NIL
AAXX 21004 71860 11780 12812 11004 21099 38697 40086 55000 60001 71511 81570 333 10069 21004 70000
AAXX 21004 71876 15966 03108 10004 21030 39381 40041 53013 60001 333 10063 21014 70000
AAXX 21004 71885 NIL
AAXX 21004 71886 NIL
AAXX 21004 71888 NIL
AAXX 21004 71890 16/// /0504 11148 21194 30159 40187 51017 60001 333 11100 21177 70003 555 10040
AAXX 21004 71895 NIL
AAXX 21004 71043 12783 61103 11228 21276 30032 40129 52008 60001 81571 333 11187 21240 70015
AAXX 21004 71045 16/// /3201 11154 21172 39320 40215 53020 60001 333 11119 21189 70000
AAXX 21004 71050 46/// /2813 10004 21081 39142 40224 53013 6///1 333 10041 21026 7////
AAXX 21004 71051 NIL
AAXX 21004 71052 NIL
AAXX 21004 71066 12869 80000 11067 21110 39689 40114 51031 60001 86041 333 11047 21100 70000
AAXX 21004 71068 11748 83407 11012 21026 39403 40093 52038 69921 77177 885// 333 10043 21012 46002 70002 90973
AAXX 21004 71069 17564 33004 10002 20002 39366 40063 53023 60021 74144 333 10067 21001 70020
AAXX 21004 71076 16/// /2804 11115 21129 39658 40055 52016 60001 333 11079 21133 70000 555 10010
AAXX 21004 71077 16/// /3507 11090 21110 39532 40075 53033 60001 333 10002 21091 70000
AAXX 21004 71079 11456 80113 11102 21127 39712 49993 53053 69901 77122 885// 333 11035 21106 48009 70006 90952
AAXX 21004 71081 46464 31410 11218 21254 39917 49929 53017 6///1 333 11197 21301 7////
AAXX 21004 71082 NIL
AAXX 21004 71083 11932 03216 11333 21375 39938 49982 53014 69901 77677 333 11273 21335 48054 70018 90983
AAXX 21004 71090 46964 02504 11233 21275 39948 49984 51009 6///1 333 11207 21290 7////
AAXX 21004 71091 460// /1006 11256 39738 49951 51009 6///1 333 7////
AAXX 21004 71092 46964 01410 11254 39277 49955 51008 6///1 333 11227 21254 7////
AAXX 21004 71093 460// /1402 11197 39452 49954 50001 6///1 333 11197 21224 7////
AAXX 21004 71094 46004 /1810 11174 39025 49930 50001 6///1 333 11174 21213 7////
AAXX 21004 71095 47414 93102 11190 21217 39896 49977 53018 6///1 745// 333 11178 21218 7////
AAXX 21004 71101 160// /2302 30282 53014 60001 333 70000
AAXX 21004 71104 12674 73214 10011 21077 39090 40214 53020 60001 86570 333 10030 21054 70000
AAXX 21004 71108 11574 22007 10058 20029 30169 40242 55005 69901 70281 82200 333 10071 20046 70019 90945
AAXX 21004 71109 12580 22705 10057 20018 30260 40287 55000 60001 82270 333 10078 20051 70122
AAXX 21001 01180 16/// /0000 10004 21031 39953 40010 52006 60001 333 91102
AAXX 21001 01441 16/// /0000 11101 21117 39047 40071 53003 60001 333 91102
AAXX 21001 01199 16/// /0000 11059 21067 39560 40035 52009 6//// 333 91105
AAXX 21001 01393 16/// /0000 11260 21284 39229 40116 52003 6//// 333 91102
BBXX VEP717 21004 99467 70487 41296 81936 10018 2002/ 49947 58037 78582 886// 22200 06025 20403 311// 40706 80017
AAXX 21004 71864 NIL
AAXX 21004 71865 16/// /2707 10022 21023 39345 40019 51018 60001 333 10047 21021 70000
AAXX 21004 71866 46664 32909 10002 21048 39424 40035 53016 6///1 333 10068 21036 7////
AAXX 21004 71867 12574 83308 11030 21048 39661 49993 53031 60001 885// 333 10002 21052 70000
AAXX 21004 71868 16/// /2704 11017 21041 39561 49998 53022 60001 333 10029 21029 70000
AAXX 21004 71869 12574 63107 10008 21014 39505 40025 52027 60001 86500 333 10037 21026 70000
AAXX 21004 71871 15566 32912 10014 21020 39245 40043 53012 60001 333 10053 20010 70000
AAXX 21004 71877 12983 12714 10029 21094 38823 40079 55001 60001 81070 333 10081 20028 70000
AAXX 21004 71878 12674 62803 10003 21088 39012 40084 53012 60001 83470 333 10040 21070 70000
AAXX 21004 71879 17664 82913 10027 21016 39265 40060 51017 60001 745// 333 10058 20006 70000
AAXX 21004 71880 12782 21210 10014 21039 39037 40144 56010 60001 81502 333 10026 21013 70000
AAXX 21004 71882 160// /0802 11002 21016 39643 40187 56008 60001 333 10017 21002 70000
AAXX 21004 71883 NIL
AAXX 21004 71887 12986 83203 11005 21022 39782 40209 53008 60001 8807/ 333 10015 21043 70000
AAXX 21004 71889 12574 81815 10008 21031 39782 40206 55004 60001 8167/ 333 10016 21008 70000
AAXX 21004 71891 16864 31709 10083 21001 39920 40194 53017 60001 333 10107 20062 70000
AAXX 21004 71892 12580 22820 10066 20036 30231 40236 55014 60001 82100 333 10076 20056 70008
AAXX 21004 71114 160// /2910 10069 20036 30168 40216 56012 60021 333 10079 20049 70065
AAXX 21004 71120 11674 63406 11002 21039 39410 40054 53023 69901 70282 83570 333 10050 21002 42002 79999 90950
AAXX 21004 71122 16/// /2404 11025 21073 38512 40118 53001 60001 333 11003 7////
AAXX 21004 71123 11574 83019 10017 21006 39212 40071 53017 69901 78022 885// 333 10055 21003 44006 79999 90921
AAXX 21004 71125 12574 63105 11025 21040 39462 40046 53025 60001 82570 333 70002
AAXX 21004 71129 12774 42606 11001 21039 39237 40066 53013 60001 81571 333 10055 21047 70000
AAXX 21004 71131 16/// /3411 10003 21020 38833 40090 53013 60001 333 10032 21071 70000
AAXX 21004 71135 16/// /3211 10023 21040 38984 40064 53007 60001 333 10036 21031 70000
AAXX 21004 71137 NIL
AAXX 21004 71140 12974 72711 10003 21018 39510 40010 5/003 60001 87070 333 10008 21053 70000
AAXX 21004 71145 12574 73005 11032 21046 39657 49948 53019 60001 87500 333 11014 21053 70006
AAXX 21004 71148 16/// /2506 10006 21034 39439 40017 53002 60001 333 10010 21053 70000
AAXX 21004 71185 17464 6//// 11034 39946 49970 53026 60001 745// 333 11014 21065 70005
AAXX 21004 71188 12574 32711 11101 21153 30105 40149 52039 60001 83100 333 11060 21105 79999
AAXX 21004 71200 16/// /2611 10073 20039 60001 333 10092 20060 70000
AAXX 21004 71207 46/// /3502 10040 30166 40231 6///1 333 10051 20029 7////
AAXX 21004 71260 13/// ///// 11015 21058 39891 40131 56021 60001 333 11002 21066 70000
AAXX 21004 71726 17/// /1802 11122 21149 39614 40175 58009 69931 7//4/ 333 11112 21164 70008 555 10010
AAXX 21004 71727 11574 61502 11165 21196 39994 40200 50000 69901 70288 81570 333 11105 21180 48029 70030 90952
AAXX 21004 71728 12980 61905 11112 21175 39949 40179 58015 60001 86070 333 11105 21148 79999
AAXX 21004 71730 11574 82012 11045 21065 39717 40152 56023 69901 70272 885// 333 11045 21123 41997 70002 90941
AAXX 21004 71731 12974 12307 11061 21103 39700 40162 58016 60001 81030 333 11051 21106 79999
AAXX 21004 71735 NIL
AAXX 21004 71738 12574 62112 11002 21054 39730 40085 58017 60001 86500 333 11002 21148 79999
AAXX 21004 71739 41569 82209 11043 21072 39722 40091 57014 6//// 73672 885// 333 11042 21124 4//// 7//// 90931
AAXX 21004 71749 16964 82309 10001 21061 39800 40048 58012 60001 333 10001 21102 70000
AAXX 21004 71799 12583 10000 10060 20040 30223 40247 57005 60001 81500 333 10096 20044 79999
AAXX 21004 71800 NIL
AAXX 21004 71801 11448 82910 11022 21027 39781 49953 53017 60071 77188 885// 333 11021 21033 47012 70070 90973 93108
AAXX 21004 71803 11274 32809 11062 21083 39790 49977 53024 60031 70177 81670 333 11049 21073 47006 70050 90923 93104
AAXX 21004 71807 NIL
AAXX 21004 71808 11556 60314 11058 21080 39945 49992 53035 60041 77177 86500 333 11041 21069 44021 70046 90973 93104
AAXX 21004 71809 11462 82212 11048 21078 39966 49993 51027 60041 77177 885// 333 11030 21113 46007 70106 90983 93104
AAXX 21004 71810 NIL
AAXX 21004 71811 NIL
AAXX 21004 71813 16/// /3113 11129 21166 30060 40074 51040 60001 333 7////
AAXX 21004 71814 NIL
AAXX 21004 71815 11432 82919 11048 21073 30003 40034 53036 60031 78588 885// 333 11014 21052 48010 70100 90973 93103
AAXX 21004 71930 11416 83008 10004 21024 39151 40078 53018 69961 77182 885// 333 10046 20001 47018 70006 90952
AAXX 21004 71931 NIL
AAXX 21004 71934 11374 13009 11137 21192 39831 40094 53032 69901 73671 81600 333 11060 21155 47021 70004 90922
AAXX 21004 71935 12574 63213 11127 21163 39916 40130 52031 60001 81570 333 11105 21176 70000
AAXX 21004 71936 11974 13108 11206 21241 39836 40105 51028 60001 73611 81070 333 11153 21206 70010
AAXX 21004 71937 NIL
AAXX 21004 71938 12574 12105 11326 21358 30124 40155 51020 60001 81500 333 11248 21326 79999
AAXX 21004 71940 11/16 92815 10002 20000 39299 40102 53031 69981 78588 333 10055 20001 42001 70008 90946 93101
AAXX 21004 71943 11866 72910 11032 21074 39300 40139 52053 69901 70282 87070 333 10036 21035 79999 90912
AAXX 21004 71944 160// ///// 10009 53042 60021 333 10039 20004 70075
AAXX 21004 71945 12883 20503 11066 21100 39667 40144 53029 60001 82071 333 11012 21082 79999
AAXX 21004 71946 12674 70000 11106 21136 39921 40140 52019 60001 87500 333 11102 21180 70000
AAXX 21004 71948 46064 /0000 11257 30012 40130 53013 6///1 333 11254 21273 7////
AAXX 21004 71949 46/// /1102 11216 21239 39290 40203 53024 6///1 333 11192 21236 7////
AAXX 21004 71951 11369 61909 10022 20011 39993 40264 52020 69941 70182 85570 333 10036 20019 43025 70057 90922
AAXX 21004 71957 46964 30504 11262 21330 30027 40120 53004 6///1 333 11249 21299 7////
AAXX 21004 71964 12986 61805 11127 21143 39315 40202 52021 60001 80001 333 11111 21183 70000
AAXX 21004 71966 16/// /0000 11197 21220 39686 40165 51018 60001 333 11171 21237 70000
AAXX 21004 71968 460// /2303 11279 30045 40112 53006 6///1 333 11267 21302 7////
AAXX 21004 71397 12974 03108 11050 21122 30171 40206 53033 60001 333 10035 21055 70076
AAXX 21004 71400 17/64 /2604 11065 21073 69961 7//4/ 333 11041 21122 70021
AAXX 21004 71403 46/// /3119 11049 21097 30157 40177 51050 6///1 333 10015 21051 7////
AAXX 21004 71411 16/// /3006 11055 21106 30194 40207 51038 60001 333 10028 21056 70014
AAXX 21004 71412 16/// /3128 11040 21093 30125 40135 51040 60001 333 10002 21046 70043 555 10010
AAXX 21004 71421 NIL
AAXX 21004 71430 16/// /1513 10008 21025 30092 40191 58017 60001 333 10008 21064 70000
AAXX 21004 71431 16/// /1309 10007 21017 30084 40182 56017 60001 333 10007 21058 70000
AAXX 21004 71432 NIL
AAXX 21004 71433 NIL
AAXX 21004 71435 NIL
AAXX 21004 71441 NIL
AAXX 21004 71443 16/// /2306 11012 21030 39587 49995 53024 60001 333 10034 21017 70000
AAXX 21004 71444 NIL
AAXX 21004 71447 16/// /2706 10023 21015 39478 40021 53004 60001 333 10030 21061 70000
AAXX 21004 71467 16/// /1202 11240 21262 30009 40128 51009 60001 333 11232 21247 70000
AAXX 21004 71472 NIL
AAXX 21004 71474 46964 03507 10016 21096 38955 40200 53019 6///1 333 10045 21056 7////
AAXX 21004 71510 NIL
AAXX 21004 71538 11461 80000 10020 21002 39932 40165 55014 69901 78082 885// 333 10020 20000 79999 90915
AAXX 21004 71600 17664 83226 11008 21092 30144 40150 53047 69951 7//44 333 10058 21009 70025
AAXX 21004 71601 NIL
AAXX 21004 71893 12780 12903 10067 20027 30226 40258 55005 60001 81500 333 10079 20050 70002
AAXX 21004 71894 NIL
AAXX 21004 71896 15866 82813 10023 21065 39351 40188 53021 60001 333 10036 21013 70000
AAXX 21004 71897 12474 63215 10048 20028 3//// 4//// 54000 60021 86901 333 10080 20044 70028
AAXX 21004 71898 160// ///// 10061 53018 69951 333 10067 20041 70045
AAXX 21004 71899 11466 63016 10055 20038 3//// 4//// 52019 69961 71681 86300 333 10064 20044 70042 90950
AAXX 21004 71902 12974 02903 11181 21239 30059 40068 51010 60001 333 11109 21201 70000
AAXX 21004 71905 NIL
AAXX 21004 71906 11574 81812 11166 21207 39960 40012 57033 69901 70277 81570 333 11166 21254 48015 79999 90952
AAXX 21004 71907 17424 82119 11070 21085 39788 49820 58025 60011 74544 333 11069 21169 70030
AAXX 21004 71909 16964 00304 11185 21230 39911 49955 58006 60001 333 11126 21237 70000
AAXX 21004 71910 47330 90109 11186 21214 39831 49894 57017 6///1 745// 333 11183 21230 7////
AAXX 21004 71911 46964 01008 11412 39952 40012 53007 6///1 333 11388 21414 7////
AAXX 21004 71912 11562 80215 11151 21178 39809 49993 51051 69941 77177 886// 333 11021 21151 47016 70050 90983
AAXX 21004 71915 11974 03312 11363 21410 39823 49908 55000 69901 77677 333 11347 21380 44043 79999 90983
AAXX 21004 71917 11532 81602 11316 21360 30019 40034 52003 69941 77177 885// 333 11315 21412 47013 70004 90983
AAXX 21004 71922 12574 83112 11049 21083 39572 40037 51041 60001 885// 333 11003 21049 70000
AAXX 21004 71924 12974 63008 11283 21327 39955 40048 52007 60001 86030 333 11231 21302 48038 79999
AAXX 21004 71925 11569 23208 11308 21353 30047 40090 51018 69901 77677 82500 333 11283 21350 42021 79999 90983
AAXX 21004 71926 11566 73416 11309 21365 30002 40028 53009 69901 77672 87500 333 11309 21339 43043 79999 90962
AAXX 21004 71928 16/// /3008 11006 21111 38919 40083 53015 60001 333 10055 21056 70000
AAXX 21004 71603 12974 03212 11031 21108 30160 40214 52030 60001 333 10022 21037 70004
AAXX 21004 71607 16/// /2802 11102 21139 30188 40222 51027 60001 333 11020 21103 70000
AAXX 21004 71609 12974 03105 11084 21156 30073 40211 51030 60001 333 10002 21088 70042
AAXX 21004 71610 15966 01002 11124 21137 39919 40226 51001 60001 333 11064 21124 70015
AAXX 21004 71621 12474 61005 11032 21063 30089 40198 57014 60001 86500 333 11004 21070 70000
AAXX 21004 71623 NIL
AAXX 21004 71624 12574 70000 11018 21048 39971 40187 57016 60001 85502 333 11002 21056 70000
AAXX 21004 71625 169// 01506 11052 21105 30024 40189 58008 60001 333 7////
AAXX 21004 71627 12974 00000 11076 21126 30176 40222 56001 60001 333 11042 21083 79999
AAXX 21004 71628 13060 /1305 11104 21145 30063 40209 58011 60001 80/// 333 11051 21107 70008
AAXX 21004 71630 NIL
AAXX 21004 71631 16/// /1704 11022 21046 39661 40170 56015 60001 333 11013 21063 70000
AAXX 21004 71633 12574 81805 11007 21049 39887 40163 58016 60001 885// 333 10000 21044 70000
AAXX 21004 71705 12974 02712 11099 21149 30102 40192 51039 60001 333 11043 21099 70022
AAXX 21004 71706 11674 63015 11071 21135 30112 40174 53039 69901 78581 86500 333 10008 21072 43002 70042 90927
AAXX 21004 71707 11674 72914 11054 21090 30036 40113 53038 69921 78582 87500 333 10004 21055 44004 70038 90916
AAXX 21004 71709 11558 83126 11050 21079 30105 40118 53035 60021 78588 885// 333 11010 21057 46006 70090 90973 93102
AAXX 21004 71711 NIL
AAXX 21004 71714 16/// /3401 11181 21203 30148 40245 53003 60001 333 11086 21191 70004
AAXX 21004 71715 NIL
AAXX 21004 71718 12583 62006 11102 21145 30126 40194 50016 60001 86500 333 11084 21105 79999
AAXX 21004 71719 NIL
AAXX 21004 71043 12783 61103 11228 21276 30032 40129 52008 60001 81571 333 11187 21240 70015
AAXX 21004 71045 16/// /3201 11154 21172 39320 40215 53020 60001 333 11119 21189 70000
AAXX 21004 71050 46/// /2813 10004 21081 39142 40224 53013 6///1 333 10041 21026 7////
AAXX 21004 71051 NIL
AAXX 21004 71052 NIL
AAXX 21004 71066 12869 80000 11067 21110 39689 40114 51031 60001 86041 333 11047 21100 70000
AAXX 21004 71068 11748 83407 11012 21026 39403 40093 52038 69921 77177 885// 333 10043 21012 46002 70002 90973
AAXX 21004 71069 17564 33004 10002 20002 39366 40063 53023 60021 74144 333 10067 21001 70020
AAXX 21004 71076 16/// /2804 11115 21129 39658 40055 52016 60001 333 11079 21133 70000 555 10010
AAXX 21004 71077 16/// /3507 11090 21110 39532 40075 53033 60001 333 10002 21091 70000
AAXX 21004 71079 11456 80113 11102 21127 39712 49993 53053 69901 77122 885// 333 11035 21106 48009 70006 90952
AAXX 21004 71081 46464 31410 11218 21254 39917 49929 53017 6///1 333 11197 21301 7////
AAXX 21004 71082 NIL
AAXX 21004 71083 11932 03216 11333 21375 39938 49982 53014 69901 77677 333 11273 21335 48054 70018 90983
AAXX 21004 71090 46964 02504 11233 21275 39948 49984 51009 6///1 333 11207 21290 7////
AAXX 21004 71091 460// /1006 11256 39738 49951 51009 6///1 333 7////
AAXX 21004 71092 46964 01410 11254 39277 49955 51008 6///1 333 11227 21254 7////
AAXX 21004 71093 460// /1402 11197 39452 49954 50001 6///1 333 11197 21224 7////
AAXX 21004 71094 46004 /1810 11174 39025 49930 50001 6///1 333 11174 21213 7////
AAXX 21004 71095 47414 93102 11190 21217 39896 49977 53018 6///1 745// 333 11178 21218 7////
AAXX 21004 71101 160// /2302 30282 53014 60001 333 70000
AAXX 21004 71104 12674 73214 10011 21077 39090 40214 53020 60001 86570 333 10030 21054 70000
AAXX 21004 71108 11574 22007 10058 20029 30169 40242 55005 69901 70281 82200 333 10071 20046 70019 90945
AAXX 21004 71109 12580 22705 10057 20018 30260 40287 55000 60001 82270 333 10078 20051 70122
AAXX 21004 71816 11574 72906 11131 21164 30008 40071 52031 60011 78588 87500 333 11084 21132 47050 70044 90983 93101
AAXX 21004 71817 NIL
AAXX 21004 71818 12474 63112 11090 21109 30013 40031 53025 60001 86500 333 11064 21132 70008
AAXX 21004 71822 12974 81812 11138 21157 39629 40121 56029 60001 85078 333 11134 21196 70008
AAXX 21004 71825 12974 02303 11220 21263 39424 40125 52004 60001 333 11170 21221 70008
AAXX 21004 71827 11424 82013 11069 21073 39697 49943 56017 60021 77175 885// 333 11069 21174 47018 70018 90983 93102
AAXX 21004 71828 16964 31809 11206 21247 39423 40088 58008 60001 333 11190 21248 70005
AAXX 21004 71831 11574 72015 11021 21051 39762 40045 58015 69901 72222 85570 333 11020 21138 48039 79999 90911
AAXX 21004 71832 NIL
AAXX 21004 71834 11248 82310 11031 21050 39594 40025 58005 60011 77177 885// 333 11030 21097 48025 70018 90973 93101
AAXX 21004 71841 NIL
AAXX 21004 71842 11666 81904 11023 21054 39525 49994 58008 60021 77122 885// 333 11022 21090 48016 70018 90962
AAXX 21004 71844 16464 82505 11027 21044 39654 49929 51005 60001 333 11020 21083 70010
AAXX 21004 71845 11474 82204 11041 21053 39504 49978 58003 69901 70272 885// 333 11040 21101 44016 70006 90953
AAXX 21004 71850 11774 82010 11014 21059 39487 49985 58015 60001 73622 8257/ 333 11014 21065 79999
AAXX 21004 71852 16964 02209 10010 21027 39693 49985 55000 60001 333 10018 21065 70000
AAXX 21004 71854 11548 82306 11034 21046 39511 49982 53004 69941 77177 885// 333 11028 21071 48013 70036 90983
AAXX 21004 71858 16/// /3105 11027 21040 39695 49973 53022 60001 333 10016 21029 70000
AAXX 21004 71861 NIL
AAXX 21004 71862 12674 72906 10033 21024 39344 40042 53007 60001 87500 333 10050 21045 70000
AAXX 21004 71863 46864 32710 10010 21020 39344 40039 53012 6///1 333 10032 21031 7////
AAXX 21004 71864 NIL
AAXX 21004 71865 16/// /2707 10022 21023 39345 40019 51018 60001 333 10047 21021 70000
AAXX 21004 71866 46664 32909 10002 21048 39424 40035 53016 6///1 333 10068 21036 7////
AAXX 21004 71867 12574 83308 11030 21048 39661 49993 53031 60001 885// 333 10002 21052 70000
AAXX 21004 71868 16/// /2704 11017 21041 39561 49998 53022 60001 333 10029 21029 70000
AAXX 21004 71869 12574 63107 10008 21014 39505 40025 52027 60001 86500 333 10037 21026 70000
AAXX 21004 71871 15566 32912 10014 21020 39245 40043 53012 60001 333 10053 20010 70000
AAXX 21004 71877 12983 12714 10029 21094 38823 40079 55001 60001 81070 333 10081 20028 70000
AAXX 21004 71878 12674 62803 10003 21088 39012 40084 53012 60001 83470 333 10040 21070 70000
AAXX 21004 71879 17664 82913 10027 21016 39265 40060 51017 60001 745// 333 10058 20006 70000
AAXX 21004 71880 12782 21210 10014 21039 39037 40144 56010 60001 81502 333 10026 21013 70000
AAXX 21004 71882 160// /0802 11002 21016 39643 40187 56008 60001 333 10017 21002 70000
AAXX 21004 71883 NIL
AAXX 21004 71887 12986 83203 11005 21022 39782 40209 53008 60001 8807/ 333 10015 21043 70000
AAXX 21004 71889 12574 81815 10008 21031 39782 40206 55004 60001 8167/ 333 10016 21008 70000
AAXX 21004 71891 16864 31709 10083 21001 39920 40194 53017 60001 333 10107 20062 70000
AAXX 21004 71892 12580 22820 10066 20036 30231 40236 55014 60001 82100 333 10076 20056 70008
AAXX 21004 71043 12783 61103 11228 21276 30032 40129 52008 60001 81571 333 11187 21240 70015
AAXX 21004 71045 16/// /3201 11154 21172 39320 40215 53020 60001 333 11119 21189 70000
AAXX 21004 71050 46/// /2813 10004 21081 39142 40224 53013 6///1 333 10041 21026 7////
AAXX 21004 71051 NIL
AAXX 21004 71052 NIL
AAXX 21004 71066 12869 80000 11067 21110 39689 40114 51031 60001 86041 333 11047 21100 70000
AAXX 21004 71068 11748 83407 11012 21026 39403 40093 52038 69921 77177 885// 333 10043 21012 46002 70002 90973
AAXX 21004 71069 17564 33004 10002 20002 39366 40063 53023 60021 74144 333 10067 21001 70020
AAXX 21004 71076 16/// /2804 11115 21129 39658 40055 52016 60001 333 11079 21133 70000 555 10010
AAXX 21004 71077 16/// /3507 11090 21110 39532 40075 53033 60001 333 10002 21091 70000
AAXX 21004 71079 11456 80113 11102 21127 39712 49993 53053 69901 77122 885// 333 11035 21106 48009 70006 90952
AAXX 21004 71081 46464 31410 11218 21254 39917 49929 53017 6///1 333 11197 21301 7////
AAXX 21004 71082 NIL
AAXX 21004 71083 11932 03216 11333 21375 39938 49982 53014 69901 77677 333 11273 21335 48054 70018 90983
AAXX 21004 71090 46964 02504 11233 21275 39948 49984 51009 6///1 333 11207 21290 7////
AAXX 21004 71091 460// /1006 11256 39738 49951 51009 6///1 333 7////
AAXX 21004 71092 46964 01410 11254 39277 49955 51008 6///1 333 11227 21254 7////
AAXX 21004 71093 460// /1402 11197 39452 49954 50001 6///1 333 11197 21224 7////
AAXX 21004 71094 46004 /1810 11174 39025 49930 50001 6///1 333 11174 21213 7////
AAXX 21004 71095 47414 93102 11190 21217 39896 49977 53018 6///1 745// 333 11178 21218 7////
AAXX 21004 71101 160// /2302 30282 53014 60001 333 70000
AAXX 21004 71104 12674 73214 10011 21077 39090 40214 53020 60001 86570 333 10030 21054 70000
AAXX 21004 71108 11574 22007 10058 20029 30169 40242 55005 69901 70281 82200 333 10071 20046 70019 90945
AAXX 21004 71109 12580 22705 10057 20018 30260 40287 55000 60001 82270 333 10078 20051 70122
AAXX 21004 71930 11416 83008 10004 21024 39151 40078 53018 69961 77182 885// 333 10046 20001 47018 70006 90952
AAXX 21004 71931 NIL
AAXX 21004 71934 11374 13009 11137 21192 39831 40094 53032 69901 73671 81600 333 11060 21155 47021 70004 90922
AAXX 21004 71935 12574 63213 11127 21163 39916 40130 52031 60001 81570 333 11105 21176 70000
AAXX 21004 71936 11974 13108 11206 21241 39836 40105 51028 60001 73611 81070 333 11153 21206 70010
AAXX 21004 71937 NIL
AAXX 21004 71938 12574 12105 11326 21358 30124 40155 51020 60001 81500 333 11248 21326 79999
AAXX 21004 71940 11/16 92815 10002 20000 39299 40102 53031 69981 78588 333 10055 20001 42001 70008 90946 93101
AAXX 21004 71943 11866 72910 11032 21074 39300 40139 52053 69901 70282 87070 333 10036 21035 79999 90912
AAXX 21004 71944 160// ///// 10009 53042 60021 333 10039 20004 70075
AAXX 21004 71945 12883 20503 11066 21100 39667 40144 53029 60001 82071 333 11012 21082 79999
AAXX 21004 71946 12674 70000 11106 21136 39921 40140 52019 60001 87500 333 11102 21180 70000
AAXX 21004 71948 46064 /0000 11257 30012 40130 53013 6///1 333 11254 21273 7////
AAXX 21004 71949 46/// /1102 11216 21239 39290 40203 53024 6///1 333 11192 21236 7////
AAXX 21004 71951 11369 61909 10022 20011 39993 40264 52020 69941 70182 85570 333 10036 20019 43025 70057 90922
AAXX 21004 71957 46964 30504 11262 21330 30027 40120 53004 6///1 333 11249 21299 7////
AAXX 21004 71964 12986 61805 11127 21143 39315 40202 52021 60001 80001 333 11111 21183 70000
AAXX 21004 71966 16/// /0000 11197 21220 39686 40165 51018 60001 333 11171 21237 70000
AAXX 21004 71968 460// /2303 11279 30045 40112 53006 6///1 333 11267 21302 7////
AAXX 21004 71893 12780 12903 10067 20027 30226 40258 55005 60001 81500 333 10079 20050 70002
AAXX 21004 71894 NIL
AAXX 21004 71896 15866 82813 10023 21065 39351 40188 53021 60001 333 10036 21013 70000
AAXX 21004 71897 12474 63215 10048 20028 3//// 4//// 54000 60021 86901 333 10080 20044 70028
AAXX 21004 71898 160// ///// 10061 53018 69951 333 10067 20041 70045
AAXX 21004 71899 11466 63016 10055 20038 3//// 4//// 52019 69961 71681 86300 333 10064 20044 70042 90950
AAXX 21004 71902 12974 02903 11181 21239 30059 40068 51010 60001 333 11109 21201 70000
AAXX 21004 71905 NIL
AAXX 21004 71906 11574 81812 11166 21207 39960 40012 57033 69901 70277 81570 333 11166 21254 48015 79999 90952
AAXX 21004 71907 17424 82119 11070 21085 39788 49820 58025 60011 74544 333 11069 21169 70030
AAXX 21004 71909 16964 00304 11185 21230 39911 49955 58006 60001 333 11126 21237 70000
AAXX 21004 71910 47330 90109 11186 21214 39831 49894 57017 6///1 745// 333 11183 21230 7////
AAXX 21004 71911 46964 01008 11412 39952 40012 53007 6///1 333 11388 21414 7////
AAXX 21004 71912 11562 80215 11151 21178 39809 49993 51051 69941 77177 886// 333 11021 21151 47016 70050 90983
AAXX 21004 71915 11974 03312 11363 21410 39823 49908 55000 69901 77677 333 11347 21380 44043 79999 90983
AAXX 21004 71917 11532 81602 11316 21360 30019 40034 52003 69941 77177 885// 333 11315 21412 47013 70004 90983
AAXX 21004 71922 12574 83112 11049 21083 39572 40037 51041 60001 885// 333 11003 21049 70000
AAXX 21004 71924 12974 63008 11283 21327 39955 40048 52007 60001 86030 333 11231 21302 48038 79999
AAXX 21004 71925 11569 23208 11308 21353 30047 40090 51018 69901 77677 82500 333 11283 21350 42021 79999 90983
AAXX 21004 71926 11566 73416 11309 21365 30002 40028 53009 69901 77672 87500 333 11309 21339 43043 79999 90962
AAXX 21004 71928 16/// /3008 11006 21111 38919 40083 53015 60001 333 10055 21056 70000
AAXX 21004 71603 12974 03212 11031 21108 30160 40214 52030 60001 333 10022 21037 70004
AAXX 21004 71607 16/// /2802 11102 21139 30188 40222 51027 60001 333 11020 21103 70000
AAXX 21004 71609 12974 03105 11084 21156 30073 40211 51030 60001 333 10002 21088 70042
AAXX 21004 71610 15966 01002 11124 21137 39919 40226 51001 60001 333 11064 21124 70015
AAXX 21004 71621 12474 61005 11032 21063 30089 40198 57014 60001 86500 333 11004 21070 70000
AAXX 21004 71623 NIL
AAXX 21004 71624 12574 70000 11018 21048 39971 40187 57016 60001 85502 333 11002 21056 70000
AAXX 21004 71625 169// 01506 11052 21105 30024 40189 58008 60001 333 7////
AAXX 21004 71627 12974 00000 11076 21126 30176 40222 56001 60001 333 11042 21083 79999
AAXX 21004 71628 13060 /1305 11104 21145 30063 40209 58011 60001 80/// 333 11051 21107 70008
AAXX 21004 71630 NIL
AAXX 21004 71631 16/// /1704 11022 21046 39661 40170 56015 60001 333 11013 21063 70000
AAXX 21004 71633 12574 81805 11007 21049 39887 40163 58016 60001 885// 333 10000 21044 70000
AAXX 21004 71705 12974 02712 11099 21149 30102 40192 51039 60001 333 11043 21099 70022
AAXX 21004 71706 11674 63015 11071 21135 30112 40174 53039 69901 78581 86500 333 10008 21072 43002 70042 90927
AAXX 21004 71707 11674 72914 11054 21090 30036 40113 53038 69921 78582 87500 333 10004 21055 44004 70038 90916
AAXX 21004 71709 11558 83126 11050 21079 30105 40118 53035 60021 78588 885// 333 11010 21057 46006 70090 90973 93102
AAXX 21004 71711 NIL
AAXX 21004 71714 16/// /3401 11181 21203 30148 40245 53003 60001 333 11086 21191 70004
AAXX 21004 71715 NIL
AAXX 21004 71718 12583 62006 11102 21145 30126 40194 50016 60001 86500 333 11084 21105 79999
AAXX 21004 71719 NIL
AAXX 21004 71114 160// /2910 10069 20036 30168 40216 56012 60021 333 10079 20049 70065
AAXX 21004 71120 11674 63406 11002 21039 39410 40054 53023 69901 70282 83570 333 10050 21002 42002 79999 90950
AAXX 21004 71122 16/// /2404 11025 21073 38512 40118 53001 60001 333 11003 7////
AAXX 21004 71123 11574 83019 10017 21006 39212 40071 53017 69901 78022 885// 333 10055 21003 44006 79999 90921
AAXX 21004 71125 12574 63105 11025 21040 39462 40046 53025 60001 82570 333 70002
AAXX 21004 71129 12774 42606 11001 21039 39237 40066 53013 60001 81571 333 10055 21047 70000
AAXX 21004 71131 16/// /3411 10003 21020 38833 40090 53013 60001 333 10032 21071 70000
AAXX 21004 71135 16/// /3211 10023 21040 38984 40064 53007 60001 333 10036 21031 70000
AAXX 21004 71137 NIL
AAXX 21004 71140 12974 72711 10003 21018 39510 40010 5/003 60001 87070 333 10008 21053 70000
AAXX 21004 71145 12574 73005 11032 21046 39657 49948 53019 60001 87500 333 11014 21053 70006
AAXX 21004 71148 16/// /2506 10006 21034 39439 40017 53002 60001 333 10010 21053 70000
AAXX 21004 71185 17464 6//// 11034 39946 49970 53026 60001 745// 333 11014 21065 70005
AAXX 21004 71188 12574 32711 11101 21153 30105 40149 52039 60001 83100 333 11060 21105 79999
AAXX 21004 71200 16/// /2611 10073 20039 60001 333 10092 20060 70000
AAXX 21004 71207 46/// /3502 10040 30166 40231 6///1 333 10051 20029 7////
AAXX 21004 71260 13/// ///// 11015 21058 39891 40131 56021 60001 333 11002 21066 70000
AAXX 21004 91324 12474 80110 10089 20258 30072 40074 60024 83204 333 561/9 59003 70023 83819 88075 555 92100
AAXX 21004 91329 32474 80912 10300 20256 30159 40162 84202 333 562/9 58000 84818 88075 555 92100
AAXX 21004 91336 12468 80917 10272 20233 30139 40142 69954 8332/ 333 56199 59013 70005 83918 88463 555 92100
AAXX 21004 91339 11460 80812 10294 20249 30078 40084 60674 78086 8636/ 333 56299 58000 70670 86910 88362 555 92100
AAXX 21004 91320 12474 80510 10294 20278 30105 40110 60014 83209 333 561/9 58003 70013 83816 85274 555 92100
AAXX 21004 78397 111570 13205 10273 20202 30129 40145 60001 70511 81832 333 01299 10314 20234 59005 81824
AAXX 21004 78388 111575 31111 10254 20198 30141 40150 69911 70186 81880 333 00330 10292 20223 59009 81822
AAXX 21003 78970 11456 70305 10254 20232 30109 40134 60021 78082 85872 333 05299 10330 20228 58008 83816 83078 90916
AAXX 21003 78962 11465 30703 10247 20218 30130 40138 60061 71581 81832 333 05299 10277 20226 59005 81814 83078 90935
AAXX 21001 12120 11956 01302 11020 21028 30096 40104 56009 60001 71000 333 93000
AAXX 21001 12250 11932 01101 11055 21056 30022 40115 57011 60001 71000 333 93000
AAXX 21001 12295 11657 33601 11021 21027 39921 40110 57009 60001 71022 83500 333 93000
AAXX 21001 12330 12960 21602 11033 21053 39990 40102 56012 60001 80002 333 93000
AAXX 21001 12375 11240 82902 11017 21018 39983 40118 56008 69911 77171 8772/ 333 87705 93091
AAXX 21001 12424 12970 71202 11052 21063 39951 40110 57011 60001 8703/ 333 93000
AAXX 21001 02019 05/99 /2201 11028 21033 39394 40019 52006 60001 333 60005 90710 91102
AAXX 21001 02081 07/60 /0902 11060 21064 39620 40030 52009 69951 77170 333 69905 90710 91103
AAXX 21001 02095 07119 /1702 11072 21078 39837 40045 51009 60001 71031 333 60005 87/02 90710 91103
AAXX 21001 02101 47756 /0000 11100 21112 39471 40044 51009 771// 8//// 333 88/56
AAXX 21001 02119 07431 /0500 11045 21046 39640 40030 53009 69921 77177 333 69905 88/16 90710 91101
AAXX 21001 02124 07271 /0000 11128 21135 39505 40046 52009 69911 78587 333 69905 82/04 84/25 88/50 90710 91101
AAXX 21001 02126 05599 /3102 11087 21099 39697 40043 53006 60001 333 60005 88/31 90710 91103
AAXX 21001 02151 17277 60000 11171 21181 39696 40045 51005 69921 77180 333 60005 81/05 86/45 91001 90710 91101 90710 91200
AAXX 21001 02186 35483 83502 11036 21043 30017 40042 51008 60001 333 60005 84/19 87/23 88/27 91003 90710 91104 90710 91202
AAXX 21001 02197 07/56 /0601 11005 21005 30022 40041 52008 69931 72187 333 69905 90710 91102
AAXX 21001 02207 05999 /2202 11067 21097 39315 40024 52005 60001 333 60005 84/71 90710 91106
AAXX 21001 02219 07/14 /0500 11051 21055 39348 40023 52005 60021 77174 333 69935 90710 91102
AAXX 21001 02226 47957 /0000 11023 21024 39564 40022 52003 771// 8////
AAXX 21001 02243 07/49 /1000 11104 21112 39759 40035 52003 69921 77187 333 69905 90710 91101
AAXX 21001 02269 07460 /0002 11016 21018 69901 77174 333 69905 83/17 83/50 87/56 90710 91103
AAXX 21001 02287 07480 /1702 10007 20000 30019 40029 52003 69911 70087 333 60005 82/13 88/33 90710 91104
AAXX 21001 02297 07019 /3503 10004 20004 39986 40031 52002 69931 78186 333 69925 83/01 85/05 87/20 90710 91105
AAXX 21001 02308 05/99 /0900 11112 21126 39161 40042 52003 60001 333 60005 90710 91102
AAXX 21001 02327 07/99 /1901 11148 21161 39602 40053 52006 60001 70010 333 60005 90710 91102
AAXX 21001 02355 07/99 /2405 11016 21039 30027 40040 52003 69941 70070 333 60005 90710 91108
AAXX 21001 02366 47119 /3202 11044 21048 30029 40035 52002 771// 8//// 333 81/03
AAXX 21001 02407 07481 /3400 11076 21082 39681 40059 54001 69901 70070 333 60005 88/12 90710 91101
AAXX 21001 02418 47638 /0301 11017 21018 39927 40061 55000 710// 8//// 333 88/34
AAXX 21001 02435 47220 /2401 11070 21083 39871 40063 53003 771// 8//// 333 88/05
AAXX 21001 02440 07969 /0000 11064 21071 60001 70010 333 60005 82/64 90710 91100
AAXX 21001 02452 07356 /2101 11007 21007 60001 72031 333 60005 87/07 87/41 90710 91103
AAXX 21001 02456 07250 /2002 10003 21001 30025 40068 52002 69901 71087 333 60005 88/04 90710 91104
AAXX 21001 02469 07/59 /2003 10005 21005 69951 77177 333 69905 90710 91105
AAXX 21001 02498 07482 /2209 10026 20001 30062 40079 57001 69901 70086 333 60005 81/17 84/44 86/58 90710 91112
AAXX 21001 02518 463// /2105 10029 20019 333 82/09 83/12 90710 91107
AAXX 21001 02520 37360 81402 11001 21008 39995 40063 57001 60001 70031 333 60005 81/08 83/13 88/24 91002 90710 91102 90710 91202
AAXX 21001 02550 47364 /1904 11014 21014 39790 40069 55001 724// 8//// 333 81/08 88/50
AAXX 21001 02562 07571 81903 11002 21009 39957 40074 55000 69911 72480 333 69905 87/29 88/48 91004 90710 91105 90710 91204
AAXX 21001 02563 07581 /2004 10014 21003 30057 40080 57002 69901 70087 333 60005 81/23 84/29 85/34 88/// 90710 91108
AAXX 21001 02565 07661 /2901 11021 21028 39962 40084 57002 69901 70087 333 60005 88/42 90710 91102
AAXX 21001 02589 07482 /2105 10026 21003 30069 40090 57002 69911 72386 333 69915 81/13 87/39 90710 91112
AAXX 21001 02590 47460 /1402 10005 20003 30030 40092 57005 785// 8//// 333 83/20 87/43 88/50
AAXX 21001 02618 07/58 /1601 11005 21005 39906 40072 54001 60011 71074 333 60005 90710 91103
AAXX 21001 02664 35683 81803 10023 21021 30010 40082 56004 60001 333 60005 88/37 91005 90710 91105 90710 91203
AAXX 21001 02679 05480 /2106 10024 21007 30053 40098 57004 60001 333 60005 83/17 90710 91109
AAXX 21001 10488 01464 82105 10018 20003 39804 40090 56009 69921 72272 885// 333 31/// 41998 55/// 20324 30138 42333 55300 20000 30000 41148 69927 88612
AAXX 21001 12160 11940 01202 11021 21025 30059 40113 57012 60001 71011 333 93000
AAXX 21001 12205 11565 81404 10006 21025 30065 40073 57011 69901 77171 8552/ 333 93097
AAXX 21001 12465 11908 00000 11076 21081 39880 40126 57008 60001 74840 333 93000
AAXX 21001 12566 11/01 92501 11084 21091 39828 40139 56005 60001 74900 333 93000
AAXX 21004 48500 31556 30000 10225 20177 30105 40112 52013 71000 82845 333 20200 59006
AAXX 21004 48583 01410 80000 10238 20232 30085 40091 52019 60444 76162 8382/ 333 20230 58000 60347 70436
AAXX 21003 78970 11456 70305 10254 20232 30109 40134 60021 78082 85872 333 05299 10330 20228 58008 83816 83078 90916
AAXX 21003 78962 11465 30703 10247 20218 30130 40138 60061 71581 81832 333 05299 10277 20226 59005 81814 83078 90935
AAXX 21004 60710 11558 72311 10106 20071 30097 40177 56015 60133 72598 878// 333 55005 20355 84820 84630
AAXX 21004 60714 11458 72721 1//// 2//// 30153 40159 58030 60083 70186 878// 333 55056 20805 84816 85630
AAXX 21004 60720 NIL
AAXX 21004 60728 NIL
AAXX 21004 60729 NIL
AAXX 21004 60731 05959 01910 10106 20045 30171 40178 56025 69943 333 59045 55021 60007 91015 91120
AAXX 21004 60732 NIL
AAXX 21004 60734 NIL
AAXX 21004 60738 NIL
AAXX 21004 60739 NIL
AAXX 21004 60740 12460 62216 10124 20008 30182 40184 56021 60003 83880 333 55/// 20953 81816 83626
AAXX 21004 60742 NIL
AAXX 21004 60764 NIL
AAXX 21004 60770 NIL
AAXX 21004 60772 NIL
AAXX 21004 60775 NIL
AAXX 21004 60780 NIL
AAXX 21004 64600 31959 83208 10188 20152 39458 40100 710// 84072 333 58001 84365 88080
AAXX 21004 64601 33960 63616 10200 20012 39001 48516 80002 333 58000 86080
AAXX 21004 64605 33960 00000 10157 20127 39358 40089 333 58002
AAXX 21004 64610 33960 80000 10175 20164 3//// 4//// 80002 333 5//// 88080
AAXX 21004 64650 32956 02802 10194 20154 39695 40102 80000 333 0//00 58006
AAXX 21004 64654 33960 50000 10232 20056 39532 40088 80002 333 59011 85080
AAXX 21004 64655 33960 00000 10160 20139 39448 40083 333 59004
AAXX 21004 64656 33960 00000 10190 20161 39538 40084 333 59003
AAXX 21004 64659 NIL
AAXX 21004 64660 NIL
AAXX 21004 64662 NIL
AAXX 21004 64665 NIL
AAXX 21004 65351 32957 70410 10260 20076 3//// 4//// 80002 333 5//// 87076
AAXX 21004 65355 32958 70000 10220 20093 39610 40121 80002 333 58003 87073
AAXX 21004 65357 32960 70806 10220 20092 39734 40121 82032 333 58001 82362 87076
AAXX 21004 65380 32958 70000 10250 20241 3//// 4//// 80002 333 5//// 87076
AAXX 21001 01300 41599 23005 10050 21023 40056 52014 70210 8//// 22200 02055 10805 70024 333 91111
AAXX 21004 48373 31900 20000 10170 20158 30082 40147 52014 71000 80001 333 20168 58000
AAXX 21004 48433 31950 50000 10179 20157 39976 40147 52020 71010 82056 333 20174 59007
AAXX 21004 48440 31556 80000 10207 20180 30069 40120 52012 71010 84536 333 20194 59017
AAXX 21004 48451 31958 30000 10185 20178 30122 40134 52020 71000 80006 333 20181 59004
AAXX 21004 48405 31557 70000 10176 20157 39972 40140 52019 71022 85876 333 20169 59008
AAXX 21004 48420 31510 80000 10216 20186 30114 40118 52017 71022 81246 333 20214 59007
AAXX 21004 48568 01458 80000 10251 20235 30085 40092 52013 60064 76062 84877 333 20246 59003 60017 70060
AAXX 21001 01160 46/// /0603 10023 21009 39990 40007 52006 333 91106
AAXX 21001 01400 41599 53009 10071 20022 40094 57002 70282 84206 22200 06082 10605 70023 333 91116
AAXX 21004 91631 11599 110009 10302 20247 40074 60001 70200 81100 333 20257 562// 70000
AAXX 21004 91631 11599 110009 10302 20247 40074 60001 70200 81100 333 20257 562// 70000
AAXX 21001 76040 32960 23301 10176 20109 30130 40144 57009 82030 92345 333 10178 20056 30/// 50180 56070 59013 70000 82375 98660
AAXX 21001 76056 06/// /3306 10150 20087 30110 40134 55006 60011 7//// 8//// 92350 333 0//// 10165 20098 30/// 4//// 50159 54/// 56/// 57/// 59015 60007 70096 8//// 8//// 8//// 9//// 9/
AAXX 21001 76122 32570 21102 10099 21020 38482 40118 57006 81120 92345 333 10120 21032 30/// 50311 56590 58/// 70000 81835
AAXX 21001 76123 06/// /0805 10102 21037 3//// 4//// 5//// 60001 7//// 8//// 92350 333 0//// 10137 21041 50189 56/// 57/// 5//// 60007 70000 8//// 8//// 8//// 8//// 9//// 9//// 9//// 44
AAXX 21001 76220 32858 12404 10124 21017 38079 40103 57006 81030 92340 333 10142 21036 30/// 50151 56050 58/// 70000
AAXX 21001 76225 32760 50701 10109 21028 38575 40100 53005 85038 92345 333 10118 20008 30/// 50121 56055 58005 70000 83350 82870
AAXX 21001 76256 32980 02001 10185 20100 30119 40133 57008 92345 333 10215 20081 30/// 50150 59047 70000
AAXX 21001 76305 32970 00402 10200 20100 30112 40119 57009 92350 333 10218 20100 30/// 50211 59047 70000
AAXX 21001 76323 32570 73601 10138 21018 38221 40147 57018 83202 92340 333 10168 20011 30/// 50421 56505 58012 70000 83630 84268
AAXX 21001 76342 31862 60303 10144 20042 39467 40179 52005 70321 86020 92350 333 10184 20090 30/// 50371 56050 58051 70000 86458
AAXX 21001 76373 32665 51501 10153 21122 38155 40088 53002 85500 92350 333 10220 20080 30/// 50291 56900 59007 70000 85623
AAXX 21001 76382 32980 20000 10226 20142 38834 40066 57010 80008 92347 333 10264 20063 30/// 50311 56001 58002 70000 82274
AAXX 21001 76390 31864 11405 10155 20055 38183 40063 54000 70544 81040 92330 333 10228 20065 30/// 50571 56080 58011 70000 81356
AAXX 21001 76393 32950 312// 10184 20082 39553 40123 52007 83010 92345 333 10228 20140 30/// 50421 56030 58049 70000 83460
AAXX 21001 76402 31562 52903 10184 20103 30068 40126 57007 70544 85500 92340 333 10203 20056 30/// 50261 56600 59034 70000 85628
AAXX 21001 76423 32584 52405 10182 38107 40093 52001 82144 92355 333 10230 21012 30/// 50470 56999 59005 70000 81820 81627 81357 82067
AAXX 21001 76458 32870 73204 10202 20129 30109 40114 57002 82054 92346 333 10232 20098 30/// 50171 56075 59013 70000 82358 85079
AAXX 21001 76471 32580 32403 10152 20036 37652 40053 57005 81501 92350 333 10190 20011 30/// 50560 56505 59015 70000 81635 82075
AAXX 21001 76490 06/// /0104 10223 20108 39734 40117 53013 60001 7//// 8//// 92350 333 0//// 10279 20127 30/// 50309 54/// 56/// 57/// 58052 60007 70000 8//// 8//// 8//// 8//// 9//// 9/
AAXX 21001 76491 32660 63605 10224 20142 39747 40131 52010 86500 92350 333 10279 20147 30/// 50231 56800 59/// 70000 86640
AAXX 21001 76519 32560 62704 10201 20042 38329 40105 57003 81102 92350 333 10238 20030 30/// 50341 56506 58004 70000 81823 85070
AAXX 21001 76525 32780 82411 10129 20004 37433 40081 55001 82101 92340 333 10161 20060 30/// 50531 565/5 59004 70000 82850 86080 91111
AAXX 21001 76538 06/// /2304 10199 38118 40046 55001 60001 7//// 8//// 92350 333 0//// 10251 20090 30/// 4//// 50369 54/// 56/// 57/// 59004 60007 70000 8//// 8//// 8//// 9//// 9//// 9/
AAXX 21001 76543 32975 03602 10279 20184 30078 40111 53012 92340 333 10312 20142 30/// 5//// 58/// 70000
AAXX 21001 76547 06/// /0405 10227 20209 30096 40108 53015 60001 7//// 8//// 92350 333 0//// 10291 20195 50289 56/// 57/// 58009 60007 70000 8//// 8//// 8//// 8//// 9//// 9//// 9//// 44
AAXX 21001 76548 32570 10505 10232 20209 30103 40113 53011 81100 92335 333 10286 20194 30/// 50111 56100 58006 70000 81822
AAXX 21001 76556 32970 22103 10220 20153 39092 40103 57009 80002 92330 333 10268 20105 30/// 50231 56007 59007 70000 82070
AAXX 21001 76571 32770 42101 10212 21052 38124 40076 55004 82204 92348 333 10238 20050 30/// 50741 56505 59009 70000 82850
AAXX 21001 76577 32970 02305 10204 20149 38005 40077 56008 92340 333 10230 20074 30/// 50271 59008 70000
AAXX 21001 76578 06/// /2207 10202 21035 38004 40047 55004 60001 7//// 8//// 92350 333 0//// 10246 20075 30/// 4//// 50279 54/// 56/// 57/// 59008 60007 70000 8//// 8//// 8//// 9//// 9/
AAXX 21001 76581 32970 01105 10260 20155 38983 40055 52004 92350 333 10315 20078 30/// 50430 59004 70000
AAXX 21001 76586 06/// /0000 10236 20202 39944 40097 53012 60001 7//// 8//// 92350 333 0//// 10300 20137 30/// 4//// 50259 54/// 56/// 57/// 58002 60007 70000 8//// 8//// 8//// 9//// 9/
AAXX 21001 76592 06/// /1205 10276 20193 30111 40111 53011 60001 7//// 8//// 92350 333 0//// 10324 20195 30/// 4//// 50599 54/// 56/// 57/// 59028 60007 70000 8//// 8//// 8//// 9//// 9/
AAXX 21001 76593 32350 31403 10278 20254 30110 40112 53008 81240 92350 333 10324 20195 30/// 50430 5633/ 59028 70000 81820 82330 91005 91514
AAXX 21001 76612 32662 43102 10215 20071 38434 40077 55004 81130 92350 333 10269 20070 30/// 50221 56550 59012 70000 81840 83358
AAXX 21001 76625 32550 03203 10214 20035 38102 40038 54002 92345 333 10246 20104 30/// 50290 56000 58000 70000
AAXX 21001 76632 31656 40706 10160 20095 37600 40046 57002 70511 84400 92340 333 10210 20078 30/// 5//// 56100 58/// 59/// 70000 84640
AAXX 21001 76634 31670 50402 10168 20078 37822 40074 52010 70511 85100 92350 333 10239 20093 30/// 50381 563// 58000 70000 85840
AAXX 21001 76641 06/// /1501 10239 20209 30095 40107 53015 60001 7//// 8//// 92350 333 0//// 10295 20174 30/// 4//// 50179 54/// 56/// 57/// 59002 60007 70000 8//// 8//// 8//// 8//// 9/
AAXX 21001 76644 32460 11202 10278 20204 30100 40114 52008 81200 92350 333 10329 20199 30/// 50451 56300 59027 70000 81820
AAXX 21001 76648 32465 11102 10259 20202 30095 40126 53014 60001 7//// 81100 92350 333 0//// 10324 20204 30/// 4//// 50269 54/// 56300 57/// 59023 60007 70010 81818 8//// 8//// 8//// 9/
AAXX 21001 76654 31456 02301 10273 20216 30111 40115 55002 70544 81100 92350 333 10305 20222 30/// 50311 56900 59012 70000 81820
AAXX 21001 76658 31560 12307 10265 20191 39595 40091 57005 70540 81200 92343 333 10314 20170 30/// 50370 56100 59010 70000 81822 94084 98904
AAXX 21001 76659 02/// ///// 1//// 2//// 3//// 4//// 5//// 6//// 7//// 8//// 9//// 333 0//// 1//// 2//// 30/// 4//// 5//// 54/// 56/// 57/// 5//// 6//// 7//// 8//// 8//// 8//// 9//// 9/
AAXX 21001 76662 32670 12503 10234 20061 38422 40070 57005 81100 92345 333 10270 20052 30/// 50600 56/00 59016 70000 81833
AAXX 21001 76665 31964 01602 10200 20095 38083 40060 57005 70102 92350 333 10264 20065 30/// 50300 59009 70000
AAXX 21001 76675 31575 12003 10150 20050 37352 40075 52005 70544 81100 92348 333 10204 21017 30/// 50291 569// 59007 70000 81826 98475
AAXX 21001 76680 31568 32904 10203 20012 37714 40046 55012 70544 83800 92340 333 10235 20079 30/// 50361 56500 57881 59013 70000 83827
AAXX 21001 76684 06/// /2004 10176 20043 37797 40083 53005 60001 7//// 8//// 92350 333 0//// 10248 20031 30/// 4//// 50319 54/// 56/// 57/// 59010 60007 70000 8//// 8//// 8//// 9//// 9/
AAXX 21001 76685 32970 01401 10190 20024 37834 40059 57001 92350 333 10238 20052 30/// 50271 59017 70000
AAXX 21001 76687 32966 01401 10204 20160 38641 40085 53006 92345 333 10270 20115 30/// 50300 59013 70000
AAXX 21001 76692 31956 00703 10254 20205 30072 40091 55000 71044 92345 333 10277 20179 30/// 50261 59027 70000
AAXX 21001 76693 06/// /0602 10245 20208 30079 40098 53010 60001 7//// 8//// 92350 333 0//// 10277 20178 30/// 4//// 50209 56/// 57/// 59023 60007 70000 8//// 8//// 8//// 8//// 9//// 9/
AAXX 21001 76695 32956 00602 10274 20197 30086 40092 52005 92345 333 10326 20174 30/// 50220 59032 70000
AAXX 21001 76698 32558 11201 10253 20219 30121 40132 52010 81200 92350 333 10322 20199 30/// 50121 56300 59018 70000 81820
AAXX 21001 76727 06/// /0000 10215 20041 38361 40049 55000 60001 7//// 8//// 92350 333 0//// 10274 20123 30/// 4//// 50229 54/// 56/// 57/// 59010 60007 70000 8//// 8//// 8//// 9//// 9/
AAXX 21001 76737 32980 03201 10216 20172 38734 40073 52010 92335 333 10293 20121 30/// 50331 59011 70000 91106 91514
AAXX 21001 76738 06/// /2701 10204 20162 38736 40090 53010 60001 7//// 8//// 333 10305 20119 30/// 50289 56/// 57/// 59012 60007 70000 8//// 8//// 8//// 8//// 9//// 9//// 9//// 444 ////
AAXX 21001 76743 31956 00901 10278 20240 30078 40086 63008 70000 92350 333 10300 20192 30/// 50310 560// 59003 70000
AAXX 21001 76750 32558 31102 10264 20231 30109 40119 52005 81107 92345 333 10308 20206 30/// 50161 56306 59023 70000 81820
AAXX 21001 76751 06/// /1002 10258 20231 30109 40119 53004 60001 7//// 8//// 92350 333 0//// 10305 20205 30/// 4//// 50209 54/// 56/// 57/// 59023 60007 70000 8//// 8//// 8//// 9//// 9/
AAXX 21001 76772 06/// /3002 10240 20080 38383 40048 55002 60001 7//// 8//// 92350 333 0//// 10279 20051 30/// 4//// 5///9 56/// 57/// 59016 60007 70000 8//// 8//// 8//// 9//// 9//// 9/
AAXX 21001 76773 31568 22701 10244 20081 38377 40046 57008 70500 81101 92346 333 10276 20041 30/// 50381 56209 59018 70000 81820
AAXX 21001 76775 31565 51901 10252 20052 38471 40060 57004 70300 83460 82345 333 10291 20084 30/// 50371 56880 59015 70000 81827 82627
AAXX 21001 76776 06/// /1801 10227 20057 38457 40045 53001 60001 7//// 8//// 92350 333 0//// 10313 20098 30/// 4//// 50369 56/// 57/// 59015 60007 70000 8//// 8//// 8//// 9//// 9//// 9/
AAXX 21001 76805 32570 72602 10278 20230 30089 40095 53003 82131 92350 333 10312 20230 30/// 50431 56766 59010 70000 82830 82356 83062
AAXX 21001 76806 06/// /2602 10269 20229 30089 40093 55000 60001 7//// 8//// 92350 333 10309 20222 30/// 50219 56/// 57/// 59014 60007 70000 8//// 8//// 8//// 8//// 9//// 9//// 9//// 55
AAXX 21001 76833 31570 31806 10271 20243 30084 40086 57002 70300 83500 92345 333 10306 20188 30/// 5//// 56400 59016 70000 83620 92002
AAXX 21001 76843 32765 20801 10288 20153 39438 40066 53003 81104 92340 333 10326 20160 30/// 50261 568// 59022 70000 81823
AAXX 21001 76845 32960 00000 10172 20115 37923 40120 51006 92340 333 10228 20038 30/// 50281 59011 70000
AAXX 21001 76848 32570 50000 10199 20118 38353 40022 53002 81231 92350 333 10272 20093 30/// 50211 56199 59018 70000 81833 83360
AAXX 21001 76855 32580 42701 10284 20229 30048 40097 55002 81228 92345 333 10335 20216 30/// 50410 56999 59005 70000 81820 81458 92001
AAXX 21001 76902 06/// /2702 10279 20214 39961 40097 53004 60001 7//// 8//// 92350 333 0//// 10328 20223 30/// 4//// 50399 54/// 56/// 57/// 59017 60007 70000 8//// 8//// 8//// 8//// 9/
AAXX 21001 76903 31770 52801 10283 20215 39964 40094 53005 70122 82580 92355 333 10337 20224 30/// 50611 56190 59015 70000 82650 83358
AAXX 21001 76160 32962 02301 10190 20041 39866 40116 57006 92331 333 10195 20035 30/// 50130 59051 70000
AAXX 21001 76243 32472 83603 10130 20036 39857 40155 57004 884// 92335 333 10140 20062 30/// 50281 568// 58052 70000 88616
AAXX 21001 76253 32582 10502 10162 20097 30039 40129 56001 81600 92348 333 10215 20110 30/// 50441 56700 59046 70000 81620 92002
AAXX 21001 76311 32680 62701 10205 20056 39823 40100 57014 86400 92345 333 10251 20072 30/// 50200 56500 59027 70000 86625
AAXX 21001 76405 32980 13202 10230 20131 30096 40117 57013 81050 92350 333 10242 20087 30/// 50251 56050 59041 70000 81457
AAXX 21001 76412 31966 72201 10222 20062 30092 40137 57009 70544 87050 92345 333 10256 20060 30/// 50330 56050 58000 70000 87356
AAXX 21001 76640 31358 23601 10250 20233 30106 40118 52009 70200 824// 92340 333 10276 20172 30/// 50121 567// 59006 70000 82607
AAXX 21001 76647 32465 11402 10261 20215 30107 40138 52016 81100 92350 333 10320 20206 32/// 50421 56300 59021 70012 81818
AAXX 21001 76741 31970 03602 10260 20243 30052 40070 52020 70544 92330 333 10315 20176 30/// 50131 59034 70000
AAXX 21004 78397 111570 13205 10273 20202 30129 40145 60001 70511 81832 333 01299 10314 20234 59005 81824
AAXX 21004 48384 31957 20000 10161 20154 39955 40153 51019 71000 80002 333 20153 59010
AAXX 21004 48404 31557 73502 10176 20159 39959 40142 53022 71020 86536 333 20161 59010
AAXX 21004 48409 31950 30000 10180 20154 39985 40137 52022 71010 82041 333 20178 59010
AAXX 21004 48556 31557 60000 10222 20213 30083 40099 52010 71022 81106 333 20212 58001
AAXX 21004 48581 01540 80000 10238 20234 30056 40098 52010 60044 76162 84576 333 20235 58001 60037 70041
AAXX 21004 78388 111575 31111 10254 20198 30141 40150 69911 70186 81880 333 00330 10292 20223 59009 81822
AAXX 21004 91324 12474 80110 10089 20258 30072 40074 60024 83204 333 561/9 59003 70023 83819 88075 555 92100
AAXX 21004 91329 32474 80912 10300 20256 30159 40162 84202 333 562/9 58000 84818 88075 555 92100
AAXX 21004 91336 12468 80917 10272 20233 30139 40142 69954 8332/ 333 56199 59013 70005 83918 88463 555 92100
AAXX 21004 91339 11460 80812 10294 20249 30078 40084 60674 78086 8636/ 333 56299 58000 70670 86910 88362 555 92100
AAXX 21004 91320 12474 80510 10294 20278 30105 40110 60014 83209 333 561/9 58003 70013 83816 85274 555 92100
AAXX 21001 76040 32960 23301 10176 20109 30130 40144 57009 82030 92345 333 10178 20056 30/// 50180 56070 59013 70000 82375 98660
AAXX 21001 76056 06/// /3306 10150 20087 30110 40134 55006 60011 7//// 8//// 92350 333 0//// 10165 20098 30/// 4//// 50159 54/// 56/// 57/// 59015 60007 70096 8//// 8//// 8//// 9//// 9/
AAXX 21001 76122 32570 21102 10099 21020 38482 40118 57006 81120 92345 333 10120 21032 30/// 50311 56590 58/// 70000 81835
AAXX 21001 76123 06/// /0805 10102 21037 3//// 4//// 5//// 60001 7//// 8//// 92350 333 0//// 10137 21041 50189 56/// 57/// 5//// 60007 70000 8//// 8//// 8//// 8//// 9//// 9//// 9//// 44
AAXX 21001 76220 32858 12404 10124 21017 38079 40103 57006 81030 92340 333 10142 21036 30/// 50151 56050 58/// 70000
AAXX 21001 76225 32760 50701 10109 21028 38575 40100 53005 85038 92345 333 10118 20008 30/// 50121 56055 58005 70000 83350 82870
AAXX 21001 76256 32980 02001 10185 20100 30119 40133 57008 92345 333 10215 20081 30/// 50150 59047 70000
AAXX 21001 76305 32970 00402 10200 20100 30112 40119 57009 92350 333 10218 20100 30/// 50211 59047 70000
AAXX 21001 76323 32570 73601 10138 21018 38221 40147 57018 83202 92340 333 10168 20011 30/// 50421 56505 58012 70000 83630 84268
AAXX 21001 76342 31862 60303 10144 20042 39467 40179 52005 70321 86020 92350 333 10184 20090 30/// 50371 56050 58051 70000 86458
AAXX 21001 76373 32665 51501 10153 21122 38155 40088 53002 85500 92350 333 10220 20080 30/// 50291 56900 59007 70000 85623
AAXX 21001 76382 32980 20000 10226 20142 38834 40066 57010 80008 92347 333 10264 20063 30/// 50311 56001 58002 70000 82274
AAXX 21001 76390 31864 11405 10155 20055 38183 40063 54000 70544 81040 92330 333 10228 20065 30/// 50571 56080 58011 70000 81356
AAXX 21001 76393 32950 312// 10184 20082 39553 40123 52007 83010 92345 333 10228 20140 30/// 50421 56030 58049 70000 83460
AAXX 21001 76402 31562 52903 10184 20103 30068 40126 57007 70544 85500 92340 333 10203 20056 30/// 50261 56600 59034 70000 85628
AAXX 21001 76423 32584 52405 10182 38107 40093 52001 82144 92355 333 10230 21012 30/// 50470 56999 59005 70000 81820 81627 81357 82067
AAXX 21001 76458 32870 73204 10202 20129 30109 40114 57002 82054 92346 333 10232 20098 30/// 50171 56075 59013 70000 82358 85079
AAXX 21001 76471 32580 32403 10152 20036 37652 40053 57005 81501 92350 333 10190 20011 30/// 50560 56505 59015 70000 81635 82075
AAXX 21001 76490 06/// /0104 10223 20108 39734 40117 53013 60001 7//// 8//// 92350 333 0//// 10279 20127 30/// 50309 54/// 56/// 57/// 58052 60007 70000 8//// 8//// 8//// 8//// 9//// 9/
AAXX 21001 76491 32660 63605 10224 20142 39747 40131 52010 86500 92350 333 10279 20147 30/// 50231 56800 59/// 70000 86640
AAXX 21001 76519 32560 62704 10201 20042 38329 40105 57003 81102 92350 333 10238 20030 30/// 50341 56506 58004 70000 81823 85070
AAXX 21001 76525 32780 82411 10129 20004 37433 40081 55001 82101 92340 333 10161 20060 30/// 50531 565/5 59004 70000 82850 86080 91111
AAXX 21001 76538 06/// /2304 10199 38118 40046 55001 60001 7//// 8//// 92350 333 0//// 10251 20090 30/// 4//// 50369 54/// 56/// 57/// 59004 60007 70000 8//// 8//// 8//// 9//// 9//// 9/
AAXX 21001 76543 32975 03602 10279 20184 30078 40111 53012 92340 333 10312 20142 30/// 5//// 58/// 70000
AAXX 21001 76547 06/// /0405 10227 20209 30096 40108 53015 60001 7//// 8//// 92350 333 0//// 10291 20195 50289 56/// 57/// 58009 60007 70000 8//// 8//// 8//// 8//// 9//// 9//// 9//// 44
AAXX 21001 76548 32570 10505 10232 20209 30103 40113 53011 81100 92335 333 10286 20194 30/// 50111 56100 58006 70000 81822
AAXX 21001 76556 32970 22103 10220 20153 39092 40103 57009 80002 92330 333 10268 20105 30/// 50231 56007 59007 70000 82070
AAXX 21001 76571 32770 42101 10212 21052 38124 40076 55004 82204 92348 333 10238 20050 30/// 50741 56505 59009 70000 82850
AAXX 21001 76577 32970 02305 10204 20149 38005 40077 56008 92340 333 10230 20074 30/// 50271 59008 70000
AAXX 21001 76578 06/// /2207 10202 21035 38004 40047 55004 60001 7//// 8//// 92350 333 0//// 10246 20075 30/// 4//// 50279 54/// 56/// 57/// 59008 60007 70000 8//// 8//// 8//// 9//// 9/
AAXX 21001 76581 32970 01105 10260 20155 38983 40055 52004 92350 333 10315 20078 30/// 50430 59004 70000
AAXX 21001 76586 06/// /0000 10236 20202 39944 40097 53012 60001 7//// 8//// 92350 333 0//// 10300 20137 30/// 4//// 50259 54/// 56/// 57/// 58002 60007 70000 8//// 8//// 8//// 9//// 9/
AAXX 21001 76592 06/// /1205 10276 20193 30111 40111 53011 60001 7//// 8//// 92350 333 0//// 10324 20195 30/// 4//// 50599 54/// 56/// 57/// 59028 60007 70000 8//// 8//// 8//// 9//// 9/
AAXX 21001 76593 32350 31403 10278 20254 30110 40112 53008 81240 92350 333 10324 20195 30/// 50430 5633/ 59028 70000 81820 82330 91005 91514
AAXX 21001 76612 32662 43102 10215 20071 38434 40077 55004 81130 92350 333 10269 20070 30/// 50221 56550 59012 70000 81840 83358
AAXX 21001 76625 32550 03203 10214 20035 38102 40038 54002 92345 333 10246 20104 30/// 50290 56000 58000 70000
AAXX 21001 76632 31656 40706 10160 20095 37600 40046 57002 70511 84400 92340 333 10210 20078 30/// 5//// 56100 58/// 59/// 70000 84640
AAXX 21001 76634 31670 50402 10168 20078 37822 40074 52010 70511 85100 92350 333 10239 20093 30/// 50381 563// 58000 70000 85840
AAXX 21001 76641 06/// /1501 10239 20209 30095 40107 53015 60001 7//// 8//// 92350 333 0//// 10295 20174 30/// 4//// 50179 54/// 56/// 57/// 59002 60007 70000 8//// 8//// 8//// 8//// 9/
AAXX 21001 76644 32460 11202 10278 20204 30100 40114 52008 81200 92350 333 10329 20199 30/// 50451 56300 59027 70000 81820
AAXX 21001 76648 32465 11102 10259 20202 30095 40126 53014 60001 7//// 81100 92350 333 0//// 10324 20204 30/// 4//// 50269 54/// 56300 57/// 59023 60007 70010 81818 8//// 8//// 8//// 9/
AAXX 21001 76654 31456 02301 10273 20216 30111 40115 55002 70544 81100 92350 333 10305 20222 30/// 50311 56900 59012 70000 81820
AAXX 21001 76658 31560 12307 10265 20191 39595 40091 57005 70540 81200 92343 333 10314 20170 30/// 50370 56100 59010 70000 81822 94084 98904
AAXX 21001 76659 02/// ///// 1//// 2//// 3//// 4//// 5//// 6//// 7//// 8//// 9//// 333 0//// 1//// 2//// 30/// 4//// 5//// 54/// 56/// 57/// 5//// 6//// 7//// 8//// 8//// 8//// 9//// 9/
AAXX 21001 76662 32670 12503 10234 20061 38422 40070 57005 81100 92345 333 10270 20052 30/// 50600 56/00 59016 70000 81833
AAXX 21001 76665 31964 01602 10200 20095 38083 40060 57005 70102 92350 333 10264 20065 30/// 50300 59009 70000
AAXX 21001 76675 31575 12003 10150 20050 37352 40075 52005 70544 81100 92348 333 10204 21017 30/// 50291 569// 59007 70000 81826 98475
AAXX 21001 76680 31568 32904 10203 20012 37714 40046 55012 70544 83800 92340 333 10235 20079 30/// 50361 56500 57881 59013 70000 83827
AAXX 21001 76684 06/// /2004 10176 20043 37797 40083 53005 60001 7//// 8//// 92350 333 0//// 10248 20031 30/// 4//// 50319 54/// 56/// 57/// 59010 60007 70000 8//// 8//// 8//// 9//// 9/
AAXX 21001 76685 32970 01401 10190 20024 37834 40059 57001 92350 333 10238 20052 30/// 50271 59017 70000
AAXX 21001 76687 32966 01401 10204 20160 38641 40085 53006 92345 333 10270 20115 30/// 50300 59013 70000
AAXX 21001 76692 31956 00703 10254 20205 30072 40091 55000 71044 92345 333 10277 20179 30/// 50261 59027 70000
AAXX 21001 76693 06/// /0602 10245 20208 30079 40098 53010 60001 7//// 8//// 92350 333 0//// 10277 20178 30/// 4//// 50209 56/// 57/// 59023 60007 70000 8//// 8//// 8//// 8//// 9//// 9/
AAXX 21001 76695 32956 00602 10274 20197 30086 40092 52005 92345 333 10326 20174 30/// 50220 59032 70000
AAXX 21001 76698 32558 11201 10253 20219 30121 40132 52010 81200 92350 333 10322 20199 30/// 50121 56300 59018 70000 81820
AAXX 21001 76727 06/// /0000 10215 20041 38361 40049 55000 60001 7//// 8//// 92350 333 0//// 10274 20123 30/// 4//// 50229 54/// 56/// 57/// 59010 60007 70000 8//// 8//// 8//// 9//// 9/
AAXX 21001 76737 32980 03201 10216 20172 38734 40073 52010 92335 333 10293 20121 30/// 50331 59011 70000 91106 91514
AAXX 21001 76738 06/// /2701 10204 20162 38736 40090 53010 60001 7//// 8//// 333 10305 20119 30/// 50289 56/// 57/// 59012 60007 70000 8//// 8//// 8//// 8//// 9//// 9//// 9//// 444 ////
AAXX 21001 76743 31956 00901 10278 20240 30078 40086 63008 70000 92350 333 10300 20192 30/// 50310 560// 59003 70000
AAXX 21001 76750 32558 31102 10264 20231 30109 40119 52005 81107 92345 333 10308 20206 30/// 50161 56306 59023 70000 81820
AAXX 21001 76751 06/// /1002 10258 20231 30109 40119 53004 60001 7//// 8//// 92350 333 0//// 10305 20205 30/// 4//// 50209 54/// 56/// 57/// 59023 60007 70000 8//// 8//// 8//// 9//// 9/
AAXX 21001 76772 06/// /3002 10240 20080 38383 40048 55002 60001 7//// 8//// 92350 333 0//// 10279 20051 30/// 4//// 5///9 56/// 57/// 59016 60007 70000 8//// 8//// 8//// 9//// 9//// 9/
AAXX 21001 76773 31568 22701 10244 20081 38377 40046 57008 70500 81101 92346 333 10276 20041 30/// 50381 56209 59018 70000 81820
AAXX 21001 76775 31565 51901 10252 20052 38471 40060 57004 70300 83460 82345 333 10291 20084 30/// 50371 56880 59015 70000 81827 82627
AAXX 21001 76776 06/// /1801 10227 20057 38457 40045 53001 60001 7//// 8//// 92350 333 0//// 10313 20098 30/// 4//// 50369 56/// 57/// 59015 60007 70000 8//// 8//// 8//// 9//// 9//// 9/
AAXX 21001 76805 32570 72602 10278 20230 30089 40095 53003 82131 92350 333 10312 20230 30/// 50431 56766 59010 70000 82830 82356 83062
AAXX 21001 76806 06/// /2602 10269 20229 30089 40093 55000 60001 7//// 8//// 92350 333 10309 20222 30/// 50219 56/// 57/// 59014 60007 70000 8//// 8//// 8//// 8//// 9//// 9//// 9//// 55
AAXX 21001 76833 31570 31806 10271 20243 30084 40086 57002 70300 83500 92345 333 10306 20188 30/// 5//// 56400 59016 70000 83620 92002
AAXX 21001 76843 32765 20801 10288 20153 39438 40066 53003 81104 92340 333 10326 20160 30/// 50261 568// 59022 70000 81823
AAXX 21001 76845 32960 00000 10172 20115 37923 40120 51006 92340 333 10228 20038 30/// 50281 59011 70000
AAXX 21001 76848 32570 50000 10199 20118 38353 40022 53002 81231 92350 333 10272 20093 30/// 50211 56199 59018 70000 81833 83360
AAXX 21001 76855 32580 42701 10284 20229 30048 40097 55002 81228 92345 333 10335 20216 30/// 50410 56999 59005 70000 81820 81458 92001
AAXX 21001 76902 06/// /2702 10279 20214 39961 40097 53004 60001 7//// 8//// 92350 333 0//// 10328 20223 30/// 4//// 50399 54/// 56/// 57/// 59017 60007 70000 8//// 8//// 8//// 8//// 9/
AAXX 21001 76903 31770 52801 10283 20215 39964 40094 53005 70122 82580 92355 333 10337 20224 30/// 50611 56190 59015 70000 82650 83358
AAXX 21001 76160 32962 02301 10190 20041 39866 40116 57006 92331 333 10195 20035 30/// 50130 59051 70000
AAXX 21001 76243 32472 83603 10130 20036 39857 40155 57004 884// 92335 333 10140 20062 30/// 50281 568// 58052 70000 88616
AAXX 21001 76253 32582 10502 10162 20097 30039 40129 56001 81600 92348 333 10215 20110 30/// 50441 56700 59046 70000 81620 92002
AAXX 21001 76311 32680 62701 10205 20056 39823 40100 57014 86400 92345 333 10251 20072 30/// 50200 56500 59027 70000 86625
AAXX 21001 76405 32980 13202 10230 20131 30096 40117 57013 81050 92350 333 10242 20087 30/// 50251 56050 59041 70000 81457
AAXX 21001 76412 31966 72201 10222 20062 30092 40137 57009 70544 87050 92345 333 10256 20060 30/// 50330 56050 58000 70000 87356
AAXX 21001 76640 31358 23601 10250 20233 30106 40118 52009 70200 824// 92340 333 10276 20172 30/// 50121 567// 59006 70000 82607
AAXX 21001 76647 32465 11402 10261 20215 30107 40138 52016 81100 92350 333 10320 20206 32/// 50421 56300 59021 70012 81818
AAXX 21001 76741 31970 03602 10260 20243 30052 40070 52020 70544 92330 333 10315 20176 30/// 50131 59034 70000
AAXX 21001 76040 32960 23301 10176 20109 30130 40144 57009 82030 92345333 10178 20056 30/// 50180 56070 59013 70000 82375 98660
AAXX 21001 76056 06/// /3306 10150 20087 30110 40134 55006 60011 7////8//// 92350 333 0//// 10165 20098 30/// 4//// 50159 54///56/// 57/// 59015 60007 70096 8//// 8//// 8//// 9//// 9/
AAXX 21001 76122 32570 21102 10099 21020 38482 40118 57006 81120 92345333 10120 21032 30/// 50311 56590 58/// 70000 81835
AAXX 21001 76123 06/// /0805 10102 21037 3//// 4//// 5//// 60001 7////8//// 92350 333 0//// 10137 21041 50189 56/// 57/// 5////60007 70000 8//// 8//// 8//// 8//// 9//// 9//// 9//// 44
AAXX 21001 76220 32858 12404 10124 21017 38079 40103 57006 81030 92340333 10142 21036 30/// 50151 56050 58/// 70000
AAXX 21001 76225 32760 50701 10109 21028 38575 40100 53005 85038 92345333 10118 20008 30/// 50121 56055 58005 70000 83350 82870
AAXX 21001 76256 32980 02001 10185 20100 30119 40133 57008 92345 33310215 20081 30/// 50150 59047 70000
AAXX 21001 76305 32970 00402 10200 20100 30112 40119 57009 92350 33310218 20100 30/// 50211 59047 70000
AAXX 21001 76323 32570 73601 10138 21018 38221 40147 57018 83202 92340333 10168 20011 30/// 50421 56505 58012 70000 83630 84268
AAXX 21001 76342 31862 60303 10144 20042 39467 40179 52005 70321 8602092350 333 10184 20090 30/// 50371 56050 58051 70000 86458
AAXX 21001 76373 32665 51501 10153 21122 38155 40088 53002 85500 92350333 10220 20080 30/// 50291 56900 59007 70000 85623
AAXX 21001 76382 32980 20000 10226 20142 38834 40066 57010 80008 92347333 10264 20063 30/// 50311 56001 58002 70000 82274
AAXX 21001 76390 31864 11405 10155 20055 38183 40063 54000 70544 8104092330 333 10228 20065 30/// 50571 56080 58011 70000 81356
AAXX 21001 76393 32950 312// 10184 20082 39553 40123 52007 83010 92345333 10228 20140 30/// 50421 56030 58049 70000 83460
AAXX 21001 76402 31562 52903 10184 20103 30068 40126 57007 70544 8550092340 333 10203 20056 30/// 50261 56600 59034 70000 85628
AAXX 21001 76423 32584 52405 10182 38107 40093 52001 82144 92355 33310230 21012 30/// 50470 56999 59005 70000 81820 81627 8135782067
AAXX 21001 76458 32870 73204 10202 20129 30109 40114 57002 82054 92346333 10232 20098 30/// 50171 56075 59013 70000 82358 85079
AAXX 21001 76471 32580 32403 10152 20036 37652 40053 57005 81501 92350333 10190 20011 30/// 50560 56505 59015 70000 81635 82075
AAXX 21001 76490 06/// /0104 10223 20108 39734 40117 53013 60001 7////8//// 92350 333 0//// 10279 20127 30/// 50309 54/// 56///57/// 58052 60007 70000 8//// 8//// 8//// 8//// 9//// 9/
AAXX 21001 76491 32660 63605 10224 20142 39747 40131 52010 86500 92350333 10279 20147 30/// 50231 56800 59/// 70000 86640
AAXX 21001 76519 32560 62704 10201 20042 38329 40105 57003 81102 92350333 10238 20030 30/// 50341 56506 58004 70000 81823 85070
AAXX 21001 76525 32780 82411 10129 20004 37433 40081 55001 82101 92340333 10161 20060 30/// 50531 565/5 59004 70000 82850 8608091111
AAXX 21001 76538 06/// /2304 10199 38118 40046 55001 60001 7//// 8////92350 333 0//// 10251 20090 30/// 4//// 50369 54/// 56///57/// 59004 60007 70000 8//// 8//// 8//// 9//// 9//// 9/
AAXX 21001 76543 32975 03602 10279 20184 30078 40111 53012 92340 33310312 20142 30/// 5//// 58/// 70000
AAXX 21001 76547 06/// /0405 10227 20209 30096 40108 53015 60001 7////8//// 92350 333 0//// 10291 20195 50289 56/// 57/// 5800960007 70000 8//// 8//// 8//// 8//// 9//// 9//// 9//// 44
AAXX 21001 76548 32570 10505 10232 20209 30103 40113 53011 81100 92335333 10286 20194 30/// 50111 56100 58006 70000 81822
AAXX 21001 76556 32970 22103 10220 20153 39092 40103 57009 80002 92330333 10268 20105 30/// 50231 56007 59007 70000 82070
AAXX 21001 76571 32770 42101 10212 21052 38124 40076 55004 82204 92348333 10238 20050 30/// 50741 56505 59009 70000 82850
AAXX 21001 76577 32970 02305 10204 20149 38005 40077 56008 92340 33310230 20074 30/// 50271 59008 70000
AAXX 21001 76578 06/// /2207 10202 21035 38004 40047 55004 60001 7////8//// 92350 333 0//// 10246 20075 30/// 4//// 50279 54///56/// 57/// 59008 60007 70000 8//// 8//// 8//// 9//// 9/
AAXX 21001 76581 32970 01105 10260 20155 38983 40055 52004 92350 33310315 20078 30/// 50430 59004 70000
AAXX 21001 76586 06/// /0000 10236 20202 39944 40097 53012 60001 7////8//// 92350 333 0//// 10300 20137 30/// 4//// 50259 54///56/// 57/// 58002 60007 70000 8//// 8//// 8//// 9//// 9/
AAXX 21001 76592 06/// /1205 10276 20193 30111 40111 53011 60001 7////8//// 92350 333 0//// 10324 20195 30/// 4//// 50599 54///56/// 57/// 59028 60007 70000 8//// 8//// 8//// 9//// 9/
AAXX 21001 76593 32350 31403 10278 20254 30110 40112 53008 81240 92350333 10324 20195 30/// 50430 5633/ 59028 70000 81820 8233091005 91514
AAXX 21001 76612 32662 43102 10215 20071 38434 40077 55004 81130 92350333 10269 20070 30/// 50221 56550 59012 70000 81840 83358
AAXX 21001 76625 32550 03203 10214 20035 38102 40038 54002 92345 33310246 20104 30/// 50290 56000 58000 70000
AAXX 21001 76632 31656 40706 10160 20095 37600 40046 57002 70511 8440092340 333 10210 20078 30/// 5//// 56100 58/// 59/// 7000084640
AAXX 21001 76634 31670 50402 10168 20078 37822 40074 52010 70511 8510092350 333 10239 20093 30/// 50381 563// 58000 70000 85840
AAXX 21001 76641 06/// /1501 10239 20209 30095 40107 53015 60001 7////8//// 92350 333 0//// 10295 20174 30/// 4//// 50179 54///56/// 57/// 59002 60007 70000 8//// 8//// 8//// 8//// 9/
AAXX 21001 76644 32460 11202 10278 20204 30100 40114 52008 81200 92350333 10329 20199 30/// 50451 56300 59027 70000 81820
AAXX 21001 76648 32465 11102 10259 20202 30095 40126 53014 60001 7////81100 92350 333 0//// 10324 20204 30/// 4//// 50269 54///56300 57/// 59023 60007 70010 81818 8//// 8//// 8//// 9/
AAXX 21001 76654 31456 02301 10273 20216 30111 40115 55002 70544 8110092350 333 10305 20222 30/// 50311 56900 59012 70000 81820
AAXX 21001 76658 31560 12307 10265 20191 39595 40091 57005 70540 8120092343 333 10314 20170 30/// 50370 56100 59010 70000 8182294084 98904
AAXX 21001 76659 02/// ///// 1//// 2//// 3//// 4//// 5//// 6//// 7////8//// 9//// 333 0//// 1//// 2//// 30/// 4//// 5//// 54///56/// 57/// 5//// 6//// 7//// 8//// 8//// 8//// 9//// 9/
AAXX 21001 76662 32670 12503 10234 20061 38422 40070 57005 81100 92345333 10270 20052 30/// 50600 56/00 59016 70000 81833
AAXX 21001 76665 31964 01602 10200 20095 38083 40060 57005 70102 92350333 10264 20065 30/// 50300 59009 70000
AAXX 21001 76675 31575 12003 10150 20050 37352 40075 52005 70544 8110092348 333 10204 21017 30/// 50291 569// 59007 70000 8182698475
AAXX 21001 76680 31568 32904 10203 20012 37714 40046 55012 70544 8380092340 333 10235 20079 30/// 50361 56500 57881 59013 7000083827
AAXX 21001 76684 06/// /2004 10176 20043 37797 40083 53005 60001 7////8//// 92350 333 0//// 10248 20031 30/// 4//// 50319 54///56/// 57/// 59010 60007 70000 8//// 8//// 8//// 9//// 9/
AAXX 21001 76685 32970 01401 10190 20024 37834 40059 57001 92350 33310238 20052 30/// 50271 59017 70000
AAXX 21001 76687 32966 01401 10204 20160 38641 40085 53006 92345 33310270 20115 30/// 50300 59013 70000
AAXX 21001 76692 31956 00703 10254 20205 30072 40091 55000 71044 92345333 10277 20179 30/// 50261 59027 70000
AAXX 21001 76693 06/// /0602 10245 20208 30079 40098 53010 60001 7////8//// 92350 333 0//// 10277 20178 30/// 4//// 50209 56///57/// 59023 60007 70000 8//// 8//// 8//// 8//// 9//// 9/
AAXX 21001 76695 32956 00602 10274 20197 30086 40092 52005 92345 33310326 20174 30/// 50220 59032 70000
AAXX 21001 76698 32558 11201 10253 20219 30121 40132 52010 81200 92350333 10322 20199 30/// 50121 56300 59018 70000 81820
AAXX 21001 76727 06/// /0000 10215 20041 38361 40049 55000 60001 7////8//// 92350 333 0//// 10274 20123 30/// 4//// 50229 54///56/// 57/// 59010 60007 70000 8//// 8//// 8//// 9//// 9/
AAXX 21001 76737 32980 03201 10216 20172 38734 40073 52010 92335 33310293 20121 30/// 50331 59011 70000 91106 91514
AAXX 21001 76738 06/// /2701 10204 20162 38736 40090 53010 60001 7////8//// 333 10305 20119 30/// 50289 56/// 57/// 59012 6000770000 8//// 8//// 8//// 8//// 9//// 9//// 9//// 444 ////
AAXX 21001 76743 31956 00901 10278 20240 30078 40086 63008 70000 92350333 10300 20192 30/// 50310 560// 59003 70000
AAXX 21001 76750 32558 31102 10264 20231 30109 40119 52005 81107 92345333 10308 20206 30/// 50161 56306 59023 70000 81820
AAXX 21001 76751 06/// /1002 10258 20231 30109 40119 53004 60001 7////8//// 92350 333 0//// 10305 20205 30/// 4//// 50209 54///56/// 57/// 59023 60007 70000 8//// 8//// 8//// 9//// 9/
AAXX 21001 76772 06/// /3002 10240 20080 38383 40048 55002 60001 7////8//// 92350 333 0//// 10279 20051 30/// 4//// 5///9 56///57/// 59016 60007 70000 8//// 8//// 8//// 9//// 9//// 9/
AAXX 21001 76773 31568 22701 10244 20081 38377 40046 57008 70500 8110192346 333 10276 20041 30/// 50381 56209 59018 70000 81820
AAXX 21001 76775 31565 51901 10252 20052 38471 40060 57004 70300 8346082345 333 10291 20084 30/// 50371 56880 59015 70000 8182782627
AAXX 21001 76776 06/// /1801 10227 20057 38457 40045 53001 60001 7////8//// 92350 333 0//// 10313 20098 30/// 4//// 50369 56///57/// 59015 60007 70000 8//// 8//// 8//// 9//// 9//// 9/
AAXX 21001 76805 32570 72602 10278 20230 30089 40095 53003 82131 92350333 10312 20230 30/// 50431 56766 59010 70000 82830 8235683062
AAXX 21001 76806 06/// /2602 10269 20229 30089 40093 55000 60001 7////8//// 92350 333 10309 20222 30/// 50219 56/// 57/// 5901460007 70000 8//// 8//// 8//// 8//// 9//// 9//// 9//// 55
AAXX 21001 76833 31570 31806 10271 20243 30084 40086 57002 70300 8350092345 333 10306 20188 30/// 5//// 56400 59016 70000 8362092002
AAXX 21001 76843 32765 20801 10288 20153 39438 40066 53003 81104 92340333 10326 20160 30/// 50261 568// 59022 70000 81823
AAXX 21001 76845 32960 00000 10172 20115 37923 40120 51006 92340 33310228 20038 30/// 50281 59011 70000
AAXX 21001 76848 32570 50000 10199 20118 38353 40022 53002 81231 92350333 10272 20093 30/// 50211 56199 59018 70000 81833 83360
AAXX 21001 76855 32580 42701 10284 20229 30048 40097 55002 81228 92345333 10335 20216 30/// 50410 56999 59005 70000 81820 8145892001
AAXX 21001 76902 06/// /2702 10279 20214 39961 40097 53004 60001 7////8//// 92350 333 0//// 10328 20223 30/// 4//// 50399 54///56/// 57/// 59017 60007 70000 8//// 8//// 8//// 8//// 9/
AAXX 21001 76903 31770 52801 10283 20215 39964 40094 53005 70122 8258092355 333 10337 20224 30/// 50611 56190 59015 70000 8265083358
AAXX 21001 76160 32962 02301 10190 20041 39866 40116 57006 92331 33310195 20035 30/// 50130 59051 70000
AAXX 21001 76243 32472 83603 10130 20036 39857 40155 57004 884// 92335333 10140 20062 30/// 50281 568// 58052 70000 88616
AAXX 21001 76253 32582 10502 10162 20097 30039 40129 56001 81600 92348333 10215 20110 30/// 50441 56700 59046 70000 81620 92002
AAXX 21001 76311 32680 62701 10205 20056 39823 40100 57014 86400 92345333 10251 20072 30/// 50200 56500 59027 70000 86625
AAXX 21001 76405 32980 13202 10230 20131 30096 40117 57013 81050 92350333 10242 20087 30/// 50251 56050 59041 70000 81457
AAXX 21001 76412 31966 72201 10222 20062 30092 40137 57009 70544 8705092345 333 10256 20060 30/// 50330 56050 58000 70000 87356
AAXX 21001 76640 31358 23601 10250 20233 30106 40118 52009 70200 824//92340 333 10276 20172 30/// 50121 567// 59006 70000 82607
AAXX 21001 76647 32465 11402 10261 20215 30107 40138 52016 81100 92350333 10320 20206 32/// 50421 56300 59021 70012 81818
AAXX 21001 76741 31970 03602 10260 20243 30052 40070 52020 70544 92330333 10315 20176 30/// 50131 59034 70000
AAXX 21001 33088 /1596 83602 11009 21013 39896 40091 57003 77177 8872/ 555 60011
AAXX 21001 33177 /1496 82501 11005 21011 39867 40109 58008 77177 8672/ 555 69921
AAXX 21001 33261 /1395 81503 10030 20025 39875 40058 57009 78082 889// 333 87707 555 60021
AAXX 21001 33275 /1395 81506 10026 20021 39851 40075 57014 76162 8772/ 333 86707 555 60031
AAXX 21001 33301 /1297 83203 11012 21016 39808 40096 58001 70272 886// 333 88705 555 69911
AAXX 21001 33325 /1396 83401 11002 21008 39806 40078 52004 71072 886// 333 88707 555 69911
AAXX 21001 33377 /1/93 91501 10050 20050 39867 40060 57007 75165 333 96047 555 69911
AAXX 21001 33415 /1396 83205 11009 21013 39692 40098 58004 75652 886// 333 88706 93401 555 69901
AAXX 21001 33429 32397 83103 11006 21012 39661 40091 52002 886// 333 88708
AAXX 21001 33466 NIL
AAXX 21001 33526 32560 83103 11008 21030 39764 40111 58002 885// 333 88620
AAXX 21001 33562 31240 82904 11005 21014 39712 40079 54000 71042 886// 333 88705
AAXX 21001 33614 /1325 81705 10058 20053 39958 40062 57011 71062 886// 333 88707 555 69951
AAXX 21001 33761 31396 83402 10020 20012 39843 40068 58005 71022 886// 333 88709
AAXX 21001 33902 /1/93 90000 10088 20088 39998 40064 56006 74582 555 69911
AAXX 21001 33983 31996 50000 10073 20067 30041 40101 57003 71011 85050
AAXX 21001 34415 32497 81802 10042 20027 30012 40109 57011 886//
AAXX 21001 34523 32497 81003 10046 20029 30052 40129 56011 886// 333 88715
AAXX 21001 34712 NIL
AAXX 21004 78947 11580 70812 10247 20226 30150 40153 60051 72582 84800 333 05299 10289 20240 58005 70048 84820 90915
AAXX 21001 33135 /1294 80000 10009 20006 39867 40046 57011 75187 886// 333 88704 555 60031
AAXX 21004 91367 32474 71015 10300 20263 83231 333 20256 56229 83815 83360 82180 555 92100 91369 32474 40920 10306 20267 30073 40076 83100 333 20261 562// 58001 83815 555 92100
AAXX 21004 91356 11316 80815 10256 20250 30072 40079 50000 60474 70186 889// 333 20217 56299 58006 70465 88906 555 92100
AAXX 21004 89667 46/// /0706 11021 29033 39776 4//// 5////
AAXX 2100/ 89872 46/// ///// 11040 39725 4//// 5////
AAXX 2100/ 89869 46/// ///// 11024 39695 4//// 5////
AAXX 2100/ 89327 46/// ///// 10000 39727 4//// 5////
AAXX 2100/ 89108 46/// ///// 11216 36998 4//// 5////
AAXX 2100/ 89314 46/// ///// 11060 38228 4//// 5////
AAXX 2100/ 89332 46/// ///// 11008 39182 4//// 5////
AAXX 2100/ 89769 46/// ///// 11014 39742 4//// 5////
AAXX 21001 02464 47260 /1802 10007 20000 30057 40075 57001 771// 8//// 333 81/06 85/08 88/10
AAXX 21001 02500 07857 /1303 10013 20008 30005 40048 57004 69901 71086 333 60005 84/57 90710 91105
AAXX 21001 02513 NIL
AAXX 21001 02615 05478 /1704 10025 21006 30066 40070 52001 60001 333 60005 87/19 90710 91105
AAXX 21001 02635 05/64 /0701 10010 21008 60001 333 60005 90710 91102
AAXX 21004 65501 32960 70000 10173 20033 39824 40138 80002 333 0//00 58010 87076
AAXX 21004 65502 32960 50000 10215 21026 39756 40132 80002 333 0//00 58017 85076
AAXX 21004 65503 32960 70202 10208 20067 39791 40133 80002 333 0//00 58013 87076
AAXX 21004 65505 32960 50406 10230 20010 39793 40128 80002 333 0//00 58011 85076
AAXX 21004 65507 32960 50202 10219 20063 39780 40125 80002 333 0//00 58007 85076
AAXX 21004 65510 32960 50204 10245 20038 39615 40122 80002 333 0//00 58008 85076
AAXX 21004 65516 32960 50000 10208 20040 39822 40127 80002 333 0//00 58013 85076
AAXX 21004 65518 32965 70000 10238 20012 39760 40118 80002 333 0//00 58013 87076
AAXX 21004 65522 32960 70000 10220 20092 39796 40121 80002 333 0//00 58009 87076
AAXX 21001 14024 46/// ///// 1//// 2//// 3//// 4//// 5////
AAXX 21004 89564 45/// /1528 10023 21073 39690 49709 53011
AAXX 21004 89570 46/// /1045 11056 21082 39013 53026 333 21079
AAXX 21004 89571 41675 10737 10027 21098 39642 49670 51026 70200 81530
AAXX 21004 89573 NIL
AAXX 21004 89610 NIL
AAXX 21004 89611 41775 70623 11002 21041 39730 49782 52012 70222 8357/
AAXX 21004 89614 NIL
AAXX 21004 89615 468// 80817 11042 21098 38906 51015 333 21072
AAXX 21004 89807 NIL
AAXX 21004 89809 NIL
AAXX 21001 91925 01575 60207 10287 20188 30023 40083 56023 60054 70186 85831 333 20227 56126 59005 60007 83820 85650 90710 91117 555 60005 10217
AAXX 21001 91938 01575 60809 10290 20196 30103 40105 56019 69921 70198 82832 333 69927 81820 85080 90710 91116 555 60005 10327
AAXX 21001 91944 06/// /1011 10277 20210 30126 40129 56011 60031 333 60007 90710 91122 555 60005
AAXX 21001 91958 02582 40506 10266 20207 30174 40176 56013 60004 84202 333 20218 56203 59010 60007 84825 90710 91110 555 60005 10511
AAXX 21001 91929 04569 80313 10278 20223 30103 40106 58017 60001 700// 333 60007 90710 91122 555 60005
AAXX 21001 91948 02581 30304 10270 20194 30073 40175 58012 69924 83240 333 20236 56220 58004 60007 83821 90710 91113 555 60005 10813
AAXX 21001 91954 06/// /0810 10295 20227 30138 40141 56015 60004 333 20246 59015 60007
AAXX 21001 91945 36/// /0714 10301 20233 30127 40132 56015 333 20258 59008
AAXX 21004 03377 11258 82206 10048 20043 30071 40156 57006 60011 76362 885// 92350 333 55/// 20182 81705 83708 87640
BBXX ZMKA 21004 99414 31759 41598 61404 10152 20066 40307 51005 70222 865// 22252 20000 318// 40503 80110
BBXX VRUB2 21003 99079 31287 41298 72714 10310 20297 40064 51016 70222 82176 22264 04300 20401 327// 40602 80300
BBXX V2OG2 21003 99284 31141 41398 11622 10225 20203 40135 53012 70000 81100 22233 20403 320// 40505 80210
BBXX SHIP 21004 99104 31057 41/97 42710 10276 20269 40017 70222 222// 0//// 20101 301// 40101 5////
BBXX PCAM 21003 99412 31732 41597 23602 10218 20127 40296 52/// 7//00 82400 22200 20300 80162
BBXX VNVF 21004 99010 31267 41398 63509 10285 20250 40080 52028 70222 83264 22244 00295 20301 30000 80260
BBXX ZMIQ 21003 99351 31727 41598 11111 10180 20127 40259 58009 7//22 811// 22273 00189 20101 30000 80150
BBXX VRAE2 21003 99194 31778 41397 61218 10270 20241 40097 58005 70381 8/7// 22254 04290 20604 314// 40704 80250
BBXX MPRZ 20224 99234 31665 41297 81125 10250 20195 40116 57/// 703// 86792 22223 20403 312// 40805 80214
BBXX VNSZ 20224 99412 31464 46/// /1714 10146 20089 30191 40218 52015 22200 04187 85115
BBXX VNSZ 20234 99412 31464 46/// /1810 10164 20099 30192 40218 52011 22200 04189 85127
BBXX C6FS9 20234 99274 31531 46/// /0809 10240 20177 30124 40160 52012 22200 04247 85198
BBXX 9HA2479 20224 99267 31610 46/// /1229 10220 20162 30126 40155 52006 22214 04228 85182
BBXX C6FS9 20224 99274 31531 46/// /0608 10240 20185 30123 40159 52017 22200 04247 85203
BBXX VROB 20224 99386 31450 46/// /1413 10160 20130 30170 40196 52013 22274 04176 85142
BBXX VNAH 20224 99333 31157 46/// /1404 10154 20109 30111 40135 52007 22200 04216 85128
BBXX VNAH 20234 99332 31156 46/// /1505 10176 20129 30117 40141 52014 22283 04215 85148
BBXX VROB 20234 99385 31447 46/// /1512 10162 20127 30168 40194 52007 22274 04174 85141
BBXX VRRD 21003 99173 31564 41398 80811 10280 20252 40044 53012 72586 887// 22243 04300 20402 335// 40604 80260
BBXX VNSZ 21004 99412 31464 46/// /1904 10180 20104 30192 40218 52006 22200 04189 85136
BBXX C6NR5 20224 99044 11273 41698 40710 10280 20253 40077 52010 70211 82315 22233 04300 20402 307// 40902 5//// 80262
BBXX 9HA2479 21004 99264 31615 46/// /1228 10226 20178 30127 40156 57001 22214 04230 85194
BBXX C6FS9 21004 99274 31531 46/// /0712 10244 20182 30123 40159 52003 22200 04252 85202
BBXX VROB 21004 99383 31445 46/// /1615 10166 20134 30166 40192 57001 22273 04175 85147
BBXX ZM2619 21003 99442 51796 41/98 72109 10140 20108 40301 52010 70222 22262 29901 320// 40902 80123
BBXX YJYY2 21004 99209 31499 41598 31703 10280 20213 70100 82163 22273 20203 80235
AAXX 21004 41241 NIL
AAXX 21004 41242 36/// /2202 10128 20062 30190 40214 333 0E017 58003
AAXX 21004 41244 NIL
AAXX 21004 41246 32960 02403 10163 20100 30193 40198 333 58005
AAXX 21004 41251 NIL
AAXX 21004 41252 NIL
AAXX 21004 41253 36/// /0000 10157 20110 39823 40208 333 0E017 58001
AAXX 21004 41254 NIL
AAXX 21004 41255 NIL
AAXX 21004 41256 32960 00000 10164 20071 30188 40198 333 58005
AAXX 21004 41257 36/// /0402 10144 20074 39715 40205 333 0E013 58004
AAXX 21004 41258 NIL
AAXX 21004 41259 NIL
AAXX 21004 41262 NIL
AAXX 21004 41263 36/// /0902 10159 20060 39508 40201 333 0E016 58004
AAXX 21004 41264 36/66 /3105 10152 20074 39804 40182 333 0E020 58005
AAXX 21004 41265 NIL
AAXX 21004 41267 35/72 /3117 10223 20050 30167 40182 333 0E020 58004
AAXX 21004 41268 36/// /3312 10216 20027 30165 48223 333 0E021 58005
AAXX 21004 41270 36/70 /3513 10210 20071 30128 40140 333 0E020 58010
AAXX 21004 41275 NIL
AAXX 21004 41287 NIL
AAXX 21004 41288 NIL
AAXX 21004 41290 NIL
AAXX 21004 41295 NIL
AAXX 21004 41304 NIL
AAXX 21004 41312 36/// /3216 10221 20064 30126 40166 333 0E/// 58002
AAXX 21004 41314 NIL
AAXX 21004 41315 36/// /3214 10127 20033 39182 42820 333 0E/// 58013
AAXX 21004 41316 NIL
AAXX 21004 92001 NIL
AAXX 21004 92014 NIL
AAXX 21004 92044 11480 79903 10290 20262 30068 40074 52009 60374 70222 84236
AAXX 21004 92047 NIL
AAXX 21004 92100 NIL
AAXX 21004 40356 32960 01006 10070 21010 39217 48523 333 59035 555 04410 50186
AAXX 21004 40357 32960 00000 10059 20030 39566 40210 333 59033
AAXX 21004 40360 32960 00902 10070 21010 39601 40194 333 58000
AAXX 21004 40361 32960 01203 10086 21050 39420 40190 333 59042
AAXX 21004 40362 32960 01505 10032 21040 39689 40214 333 59027
AAXX 21004 40373 32960 02402 10052 21030 39797 40223 333 59012
AAXX 21004 40375 32660 20703 10120 21010 39295 40164 82200 333 59015 82840
AAXX 21004 40377 NIL
AAXX 21004 40394 NIL
AAXX 21004 40400 32660 23608 10214 20140 30125 40153 82400 333 58002 82640
AAXX 21004 40401 NIL
AAXX 21004 40405 32960 00000 10070 20030 39469 40238 333 59013
AAXX 21004 40416 31957 03207 10150 20130 30178 40198 71000 333 58003
AAXX 21004 40417 31956 02907 10121 20080 30202 40217 70500 333 58005
AAXX 21004 40420 32960 03406 10128 20040 30001 40211 333 58003
AAXX 21004 40430 32960 00804 10166 21030 39457 40171 333 59014
AAXX 21004 40435 NIL
AAXX 21004 40437 32960 00000 10053 21060 39514 40233 333 59007
AAXX 21004 40439 32960 00905 10184 20070 30120 40130 333 59004
AAXX 21004 94102 46/// /1906 10323 20243 30050 40059
AAXX 21004 94103 NIL
AAXX 21004 94120 46/// /1310 10290 20256 30014 40054
AAXX 21004 94122 46/// /1304 10292 20256 30042 40050
AAXX 21004 94131 46/// /1110 10304 20235 39909 40059
AAXX 21004 94132 NIL
AAXX 21004 94147 NIL
AAXX 21004 94150 46/// /0509 10285 20249 39995 40054
AAXX 21004 94151 46/// /0809 10296 20240 30038 4////
AAXX 21004 94170 NIL
AAXX 21004 94200 NIL
AAXX 21004 94203 46/// /3105 10321 20231 30059 40069
AAXX 21004 94206 46/// /3302 10335 21221 39932 40060
AAXX 21004 94207 46/// /2416 10290 30059 40067 51019
AAXX 21004 94211 NIL
AAXX 21004 94212 46/// /0105 10332 20209 39596 40059
AAXX 21004 94216 46/// /1207 10345 20230 30009 40059
AAXX 21004 94236 NIL
AAXX 21004 94238 46/// /0502 10315 20211 39664 40078
AAXX 21004 94248 NIL
AAXX 21004 94255 46/// /2605 10321 20233 39821 40077
AAXX 21004 94268 46/// /0607 10296 20229 30063 40075
AAXX 21004 94287 46/// /1611 10301 20206 30075 40084
AAXX 21004 94290 NIL
AAXX 21004 94294 46/// /0911 10291 20178 30087 40097
AAXX 21004 94296 35/// /1517 10268 30047 40057 52001
AAXX 21004 94298 46/// /1322 10268 30065 40071 58002
AAXX 21004 95641 NIL
BBXX ZMKA 21004 99414 31759 41598 61404 10152 20066 40307 51005 70222 865// 22252 20000 318// 40503 80110
BBXX VRUB2 21003 99079 31287 41298 72714 10310 20297 40064 51016 70222 82176 22264 04300 20401 327// 40602 80300
BBXX V2OG2 21003 99284 31141 41398 11622 10225 20203 40135 53012 70000 81100 22233 20403 320// 40505 80210
BBXX SHIP 21004 99104 31057 41/97 42710 10276 20269 40017 70222 222// 0//// 20101 301// 40101 5////
BBXX PCAM 21003 99412 31732 41597 23602 10218 20127 40296 52/// 7//00 82400 22200 20300 80162
BBXX VNVF 21004 99010 31267 41398 63509 10285 20250 40080 52028 70222 83264 22244 00295 20301 30000 80260
BBXX ZMIQ 21003 99351 31727 41598 11111 10180 20127 40259 58009 7//22 811// 22273 00189 20101 30000 80150
BBXX VRAE2 21003 99194 31778 41397 61218 10270 20241 40097 58005 70381 8/7// 22254 04290 20604 314// 40704 80250
BBXX MPRZ 20224 99234 31665 41297 81125 10250 20195 40116 57/// 703// 86792 22223 20403 312// 40805 80214
BBXX VNSZ 20224 99412 31464 46/// /1714 10146 20089 30191 40218 52015 22200 04187 85115
BBXX VNSZ 20234 99412 31464 46/// /1810 10164 20099 30192 40218 52011 22200 04189 85127
BBXX C6FS9 20234 99274 31531 46/// /0809 10240 20177 30124 40160 52012 22200 04247 85198
BBXX 9HA2479 20224 99267 31610 46/// /1229 10220 20162 30126 40155 52006 22214 04228 85182
BBXX C6FS9 20224 99274 31531 46/// /0608 10240 20185 30123 40159 52017 22200 04247 85203
BBXX VROB 20224 99386 31450 46/// /1413 10160 20130 30170 40196 52013 22274 04176 85142
BBXX VNAH 20224 99333 31157 46/// /1404 10154 20109 30111 40135 52007 22200 04216 85128
BBXX VNAH 20234 99332 31156 46/// /1505 10176 20129 30117 40141 52014 22283 04215 85148
BBXX VROB 20234 99385 31447 46/// /1512 10162 20127 30168 40194 52007 22274 04174 85141
BBXX VRRD 21003 99173 31564 41398 80811 10280 20252 40044 53012 72586 887// 22243 04300 20402 335// 40604 80260
BBXX VNSZ 21004 99412 31464 46/// /1904 10180 20104 30192 40218 52006 22200 04189 85136
BBXX C6NR5 20224 99044 11273 41698 40710 10280 20253 40077 52010 70211 82315 22233 04300 20402 307// 40902 5//// 80262
BBXX 9HA2479 21004 99264 31615 46/// /1228 10226 20178 30127 40156 57001 22214 04230 85194
BBXX C6FS9 21004 99274 31531 46/// /0712 10244 20182 30123 40159 52003 22200 04252 85202
BBXX VROB 21004 99383 31445 46/// /1615 10166 20134 30166 40192 57001 22273 04175 85147
BBXX ZM2619 21003 99442 51796 41/98 72109 10140 20108 40301 52010 70222 22262 29901 320// 40902 80123
BBXX YJYY2 21004 99209 31499 41598 31703 10280 20213 70100 82163 22273 20203 80235
AAXX 21004 94299 46/// /1419 10291 20233 30059 40069
AAXX 21004 94300 46/// /1615 10263 20134 30104 40114
AAXX 21004 94302 46/// /1712 10315 20119 30083 40089
AAXX 21004 94312 46/// /2708 10317 20235 30045 40054
AAXX 21004 94313 NIL
AAXX 21004 94317 46/// /1206 10359 20087 39500 40070
AAXX 21004 94319 46/// /1009 10344 20153 39724 40045
AAXX 21004 94324 NIL
AAXX 21004 94326 46/// /3411 10328 20136 39472 40072
AAXX 21004 94327 46/// /0607 10354 20148 39717 40081
AAXX 21004 94332 46/// /1305 10331 20196 39694 40070
AAXX 21004 94333 NIL
AAXX 21004 94341 46/// /0507 10330 20150 39848 40077
AAXX 21004 94346 46/// /0311 10325 20180 39872 40087
AAXX 21004 94363 46/// /0709 10277 20192 39899 40113
AAXX 21004 94366 NIL
AAXX 21004 94367 46/// /1513 10274 20201 30065 40106
AAXX 21004 94374 46/// /1206 10261 20193 30106 40122
AAXX 21004 94388 46/// /1213 10277 20201 30123 40128
AAXX 21004 94393 46/// /1325 10245 30068 40080 50000
AAXX 21004 94394 46/// /1123 10259 30102 40110 50002
AAXX 21004 94403 46/// /1413 10227 20156 30094 40135
AAXX 21004 94429 46/// /1807 10255 20130 39650 40104
AAXX 21004 94430 46/// /1405 10303 20073 39522 40091
AAXX 21004 94449 46/// /0915 10253 20104 39609 40128
AAXX 21004 94451 NIL
AAXX 21004 94461 46/// /1110 10305 20140 39426 40080
AAXX 21004 94462 46/// /2804 10228 20196 39561 40103
AAXX 21004 94477 NIL
AAXX 21004 94488 NIL
AAXX 21004 94299 46/// /1419 10291 20233 30059 40069
AAXX 21004 94300 46/// /1615 10263 20134 30104 40114
AAXX 21004 94302 46/// /1712 10315 20119 30083 40089
AAXX 21004 94312 46/// /2708 10317 20235 30045 40054
AAXX 21004 94313 NIL
AAXX 21004 94317 46/// /1206 10359 20087 39500 40070
AAXX 21004 94319 46/// /1009 10344 20153 39724 40045
AAXX 21004 94324 NIL
AAXX 21004 94326 46/// /3411 10328 20136 39472 40072
AAXX 21004 94327 46/// /0607 10354 20148 39717 40081
AAXX 21004 94332 46/// /1305 10331 20196 39694 40070
AAXX 21004 94333 NIL
AAXX 21004 94341 46/// /0507 10330 20150 39848 40077
AAXX 21004 94346 46/// /0311 10325 20180 39872 40087
AAXX 21004 94363 46/// /0709 10277 20192 39899 40113
AAXX 21004 94366 NIL
AAXX 21004 94367 46/// /1513 10274 20201 30065 40106
AAXX 21004 94374 46/// /1206 10261 20193 30106 40122
AAXX 21004 94388 46/// /1213 10277 20201 30123 40128
AAXX 21004 94393 46/// /1325 10245 30068 40080 50000
AAXX 21004 94394 46/// /1123 10259 30102 40110 50002
AAXX 21004 94403 46/// /1413 10227 20156 30094 40135
AAXX 21004 94429 46/// /1807 10255 20130 39650 40104
AAXX 21004 94430 46/// /1405 10303 20073 39522 40091
AAXX 21004 94449 46/// /0915 10253 20104 39609 40128
AAXX 21004 94451 NIL
AAXX 21004 94461 46/// /1110 10305 20140 39426 40080
AAXX 21004 94462 46/// /2804 10228 20196 39561 40103
AAXX 21004 94477 NIL
AAXX 21004 94488 NIL
AAXX 21004 94893 NIL
AAXX 21004 94907 46/// /1118 10186 20129 30189 40199
AAXX 21004 94910 46/// /0411 10246 20134 39903 40149
AAXX 21004 94926 46/// /0508 10182 20122 39514 40174
AAXX 21004 94935 46/// /1908 10199 20145 30171 40198
AAXX 21004 94954 46/// /0511 10161 20130 30106 40217
AAXX 21004 94956 46/// /1506 10200 20123 30191 40218
AAXX 21004 94975 46/// /1714 10149 20059 30209 40242
AAXX 21004 94983 46/// /1823 10170 20084 30194 40219
AAXX 21004 94995 46/// /0315 10233 20177 30179 40187
AAXX 21004 94996 46/// /0919 10239 20166 30057 40186
AAXX 21004 94997 NIL
AAXX 21004 94998 46/// /3308 10074 20035 30183 40194
AAXX 21004 95111 46/// /1409 10320 20248 30019 40055
AAXX 21004 95205 46/// /2706 10338 20211 30055 40062
AAXX 21004 95322 NIL
AAXX 21004 95448 46/// /0712 10287 20104 39550 40100
AAXX 21004 95458 46/// /3519 10316 20103 39849 40103
AAXX 21004 95480 46/// /0814 10311 20088 30067 40125
AAXX 21004 95481 46/// /1008 10343 20095 30070 40114
AAXX 21004 95482 46/// /0714 10351 20064 30038 40092
AAXX 21004 95485 46/// /1309 10301 2//// 39927 40127
AAXX 21004 95492 46/// /0809 10309 20145 39955 40106
AAXX 21004 95527 46/// /0316 10266 20154 39884 40132
AAXX 21004 95634 46/// /0512 10257 20125 39731 40125
AAXX 21004 95637 46/// /0108 10236 20117 39803 40131
AAXX 21004 95646 46/// /1513 10227 20153 39951 40135
AAXX 21004 95666 NIL
AAXX 21004 95719 46/// /0814 10249 20152 39818 40142
AAXX 21004 95762 46/// /3605 10261 20139 39691 40140
AAXX 21004 95826 NIL
AAXX 21004 95839 46/// /1512 10201 20057 30017 40175
AAXX 21004 95864 NIL
AAXX 21004 95909 NIL
AAXX 21004 95954 NIL
AAXX 21004 95966 46/// /1314 10166 20056 30022 40222
AAXX 21004 96995 46/// /0000 10248 20244 39799 40093
AAXX 21004 96996 41564 61211 10263 20224 30074 40078 53015 70222 81102
AAXX 21004 94500 NIL
AAXX 21004 94510 46/// /3307 10292 20186 39761 40100
AAXX 21004 94515 46/// /0309 10266 20171 39772 40114
AAXX 21004 94552 46/// /0512 10250 20164 39681 40140
AAXX 21004 94578 46/// /0711 10258 20177 30140 40151
AAXX 21004 94584 46/// /1310 10255 20177 30035 40144
AAXX 21004 94601 46/// /2610 10205 20143 30125 40142
AAXX 21004 94610 46/// /2105 10230 20139 30109 40132
AAXX 21004 94637 46/// /0708 10233 20108 39721 40140
AAXX 21004 94638 46/// /0109 10224 20134 30122 40153
AAXX 21004 94642 NIL
AAXX 21004 94643 NIL
AAXX 21004 94647 46/// /1711 10199 20164 30021 40140
AAXX 21004 94651 46/// /2010 10226 20169 30029 40105
AAXX 21004 94653 46/// /0621 10324 20063 30073 40091
AAXX 21004 94659 46/// /0813 10289 20055 39935 40126
AAXX 21004 94672 46/// /0614 10259 20090 30157 40167
AAXX 21004 94691 46/// /1112 10267 20077 39827 40149
AAXX 21004 94693 46/// /1309 10242 20072 30107 40168
AAXX 21004 94700 NIL
AAXX 21004 94703 46/// /3506 10307 20135 39992 40115
AAXX 21004 94710 46/// /0607 10287 20122 39874 40121
AAXX 21004 94729 46/// /0904 10195 20115 39315 40151
AAXX 21004 94750 46/// /1306 10209 20150 30058 40181
AAXX 21004 94767 46/// /1713 10213 20152 30177 40183
AAXX 21004 94776 46/// /1812 10227 20157 30170 40180
AAXX 21004 94791 NIL
AAXX 21004 94802 46/// /3404 10206 20135 30048 40130
AAXX 21004 94804 46/// /0920 10209 20159 30124 40161
AAXX 21004 94807 NIL
AAXX 21004 94821 46/// /1512 10188 20083 30118 40200
AAXX 21004 94842 46/// /1112 10184 20106 30098 40197
AAXX 21004 94847 NIL
AAXX 21004 94850 46/// /0714 10197 20136 30152 40198
AAXX 21004 94865 46/// /1711 10176 20137 30157 40181
AAXX 21004 94866 46/// /1908 10171 20126 30041 40180
AAXX 21004 94875 46/// /0706 10243 20119 30016 40149
AAXX 21004 92001 NIL
AAXX 21004 92014 NIL
AAXX 21004 92044 11480 79903 10290 20262 30068 40074 52009 60374 70222 84236
AAXX 21004 92047 NIL
AAXX 21004 92100 NIL
AAXX 21004 94893 NIL
AAXX 21004 94907 46/// /1118 10186 20129 30189 40199
AAXX 21004 94910 46/// /0411 10246 20134 39903 40149
AAXX 21004 94926 46/// /0508 10182 20122 39514 40174
AAXX 21004 94935 46/// /1908 10199 20145 30171 40198
AAXX 21004 94954 46/// /0511 10161 20130 30106 40217
AAXX 21004 94956 46/// /1506 10200 20123 30191 40218
AAXX 21004 94975 46/// /1714 10149 20059 30209 40242
AAXX 21004 94983 46/// /1823 10170 20084 30194 40219
AAXX 21004 94995 46/// /0315 10233 20177 30179 40187
AAXX 21004 94996 46/// /0919 10239 20166 30057 40186
AAXX 21004 94997 NIL
AAXX 21004 94998 46/// /3308 10074 20035 30183 40194
AAXX 21004 95111 46/// /1409 10320 20248 30019 40055
AAXX 21004 95205 46/// /2706 10338 20211 30055 40062
AAXX 21004 95322 NIL
AAXX 21004 95448 46/// /0712 10287 20104 39550 40100
AAXX 21004 95458 46/// /3519 10316 20103 39849 40103
AAXX 21004 95480 46/// /0814 10311 20088 30067 40125
AAXX 21004 95481 46/// /1008 10343 20095 30070 40114
AAXX 21004 95482 46/// /0714 10351 20064 30038 40092
AAXX 21004 95485 46/// /1309 10301 2//// 39927 40127
AAXX 21004 95492 46/// /0809 10309 20145 39955 40106
AAXX 21004 95527 46/// /0316 10266 20154 39884 40132
AAXX 21004 95634 46/// /0512 10257 20125 39731 40125
AAXX 21004 95637 46/// /0108 10236 20117 39803 40131
AAXX 21004 95646 46/// /1513 10227 20153 39951 40135
AAXX 21004 95666 NIL
AAXX 21004 95719 46/// /0814 10249 20152 39818 40142
AAXX 21004 95762 46/// /3605 10261 20139 39691 40140
AAXX 21004 95826 NIL
AAXX 21004 95839 46/// /1512 10201 20057 30017 40175
AAXX 21004 95864 NIL
AAXX 21004 95909 NIL
AAXX 21004 95954 NIL
AAXX 21004 95966 46/// /1314 10166 20056 30022 40222
AAXX 21004 96995 46/// /0000 10248 20244 39799 40093
AAXX 21004 96996 41564 61211 10263 20224 30074 40078 53015 70222 81102
AAXX 21004 41024 32960 03104 10230 20140 30111 40130 333 59001
AAXX 21004 41030 32960 00000 10240 20190 39854 40122 333 59002
AAXX 21004 41036 32960 01603 10118 21010 38582 48531 333 59001 555 04410 50140
AAXX 21004 41055 32960 01204 10100 20000 38389 48537 333 59003 555 04410 50171
AAXX 21004 41061 32960 01006 10091 20040 39488 40204 333 59005
AAXX 21004 41084 NIL
AAXX 21004 41112 32960 00000 10092 20000 37961 48531 333 59005 555 04410 50169
AAXX 21004 41114 32960 00000 10100 20010 37994 48528 333 59004 555 04410 50161
AAXX 21004 41128 32960 00000 10096 21030 38854 48555 333 59004 555 04410 50196
AAXX 21004 41136 32960 00000 10110 21020 39367 40192 333 59005
AAXX 21004 41140 32960 00000 10246 20210 30129 40132 333 58003
AAXX 21004 94102 46/// /1906 10323 20243 30050 40059
AAXX 21004 94103 NIL
AAXX 21004 94120 46/// /1310 10290 20256 30014 40054
AAXX 21004 94122 46/// /1304 10292 20256 30042 40050
AAXX 21004 94131 46/// /1110 10304 20235 39909 40059
AAXX 21004 94132 NIL
AAXX 21004 94147 NIL
AAXX 21004 94150 46/// /0509 10285 20249 39995 40054
AAXX 21004 94151 46/// /0809 10296 20240 30038 4////
AAXX 21004 94170 NIL
AAXX 21004 94200 NIL
AAXX 21004 94203 46/// /3105 10321 20231 30059 40069
AAXX 21004 94206 46/// /3302 10335 21221 39932 40060
AAXX 21004 94207 46/// /2416 10290 30059 40067 51019
AAXX 21004 94211 NIL
AAXX 21004 94212 46/// /0105 10332 20209 39596 40059
AAXX 21004 94216 46/// /1207 10345 20230 30009 40059
AAXX 21004 94236 NIL
AAXX 21004 94238 46/// /0502 10315 20211 39664 40078
AAXX 21004 94248 NIL
AAXX 21004 94255 46/// /2605 10321 20233 39821 40077
AAXX 21004 94268 46/// /0607 10296 20229 30063 40075
AAXX 21004 94287 46/// /1611 10301 20206 30075 40084
AAXX 21004 94290 NIL
AAXX 21004 94294 46/// /0911 10291 20178 30087 40097
AAXX 21004 94296 35/// /1517 10268 30047 40057 52001
AAXX 21004 94298 46/// /1322 10268 30065 40071 58002
AAXX 21004 95641 NIL
BBXX 46060 21001 99606 71468 46/// /1212 10025 40101 92350 22200 00057 333 91215 555 11131 22138
AAXX 21003 NIL
AAXX 21004 89564 45/// /1528 10023 21073 39690 49709 53011
AAXX 21004 89570 46/// /1045 11056 21082 39013 53026 333 21079
AAXX 21004 89571 41675 10737 10027 21098 39642 49670 51026 70200 81530
AAXX 21004 89573 NIL
AAXX 21004 89610 NIL
AAXX 21004 89611 41775 70623 11002 21041 39730 49782 52012 70222 8357/
AAXX 21004 89614 NIL
AAXX 21004 89615 468// 80817 11042 21098 38906 51015 333 21072
AAXX 21004 89807 NIL
AAXX 21004 89809 NIL
AAXX 21004 94500 NIL
AAXX 21004 94510 46/// /3307 10292 20186 39761 40100
AAXX 21004 94515 46/// /0309 10266 20171 39772 40114
AAXX 21004 94552 46/// /0512 10250 20164 39681 40140
AAXX 21004 94578 46/// /0711 10258 20177 30140 40151
AAXX 21004 94584 46/// /1310 10255 20177 30035 40144
AAXX 21004 94601 46/// /2610 10205 20143 30125 40142
AAXX 21004 94610 46/// /2105 10230 20139 30109 40132
AAXX 21004 94637 46/// /0708 10233 20108 39721 40140
AAXX 21004 94638 46/// /0109 10224 20134 30122 40153
AAXX 21004 94642 NIL
AAXX 21004 94643 NIL
AAXX 21004 94647 46/// /1711 10199 20164 30021 40140
AAXX 21004 94651 46/// /2010 10226 20169 30029 40105
AAXX 21004 94653 46/// /0621 10324 20063 30073 40091
AAXX 21004 94659 46/// /0813 10289 20055 39935 40126
AAXX 21004 94672 46/// /0614 10259 20090 30157 40167
AAXX 21004 94691 46/// /1112 10267 20077 39827 40149
AAXX 21004 94693 46/// /1309 10242 20072 30107 40168
AAXX 21004 94700 NIL
AAXX 21004 94703 46/// /3506 10307 20135 39992 40115
AAXX 21004 94710 46/// /0607 10287 20122 39874 40121
AAXX 21004 94729 46/// /0904 10195 20115 39315 40151
AAXX 21004 94750 46/// /1306 10209 20150 30058 40181
AAXX 21004 94767 46/// /1713 10213 20152 30177 40183
AAXX 21004 94776 46/// /1812 10227 20157 30170 40180
AAXX 21004 94791 NIL
AAXX 21004 94802 46/// /3404 10206 20135 30048 40130
AAXX 21004 94804 46/// /0920 10209 20159 30124 40161
AAXX 21004 94807 NIL
AAXX 21004 94821 46/// /1512 10188 20083 30118 40200
AAXX 21004 94842 46/// /1112 10184 20106 30098 40197
AAXX 21004 94847 NIL
AAXX 21004 94850 46/// /0714 10197 20136 30152 40198
AAXX 21004 94865 46/// /1711 10176 20137 30157 40181
AAXX 21004 94866 46/// /1908 10171 20126 30041 40180
AAXX 21004 94875 46/// /0706 10243 20119 30016 40149
AAXX 21004 NIL
BBXX UCKZ 21001 99670 30447 42498 80705 11024 21052 49770 56022 885// 22200 01014 2//// ICE 57895
BBXX FHZI 20224 99653 31443 46/// /2926 11006 21022 39882 49893 52008 22200 05017 86012
BBXX FHZI 21004 99653 31444 46/// /2930 11001 21021 39879 49890 54000 22200 05016 86009
AAXX 21004 94310 46/// /2616 10305 20246 30037 40050 52009 333 20276
AAXX 21004 95283 46/// /1112 10291 20223 30073 40080
AAXX 21004 95288 46/// /1516 10277 30056 40071 50003
AAXX 21004 95675 46/// /0909
AAXX 21004 95872 46/// /1112
AAXX 21004 95961 35/// /1517 10170 30184 40226 57002
BBXX VRAE3 21004 99075 11193 41597 40210 10285 20245 40079 52018 70201 83834 22233 00300 20301 305// 40401 5//// 80260
BBXX V2BE4 21001 99128 11426 41598 31110 10290 20240 40104 51016 70200 82160 22243 04305 20301 80255
BBXX VNVG 21003 99068 11284 41398 40314 10290 20249 40086 51/// 70322 84775 22283 00290 20401 305// 40403 80260
BBXX VRAE3 21004 99075 11193 41597 40210 10285 20245 40079 52018 70201 83834 22233 00300 20301 305// 40401 5//// 80260
AAXX 21004 40550 35/70 /3003 10056 21003 40228 50000 333 0/004 55300 00000 10206 20000 30000 40984 51190 60000 55407 40000 90069 90467 91005 91107 91203 91301
AAXX 21004 40551 36/// /2110 10052 21014 333 0//// 90467 91011 91113 91213 91309
AAXX 21004 40552 35/70 /2608 10058 21011 40231 50003 333 0/004 55300 90069 90467 91007 91111 91209 91307
AAXX 21004 40553 35/65 /2801 10074 20003 40228 50002 333 0/004 55300 90069 90467 91001 91105 91205 91303
AAXX 21004 40568 36/// /3008 10077 20019 333 0//// 90467 91009 91111 91209 91307
AAXX 21004 40569 NIL
AAXX 21004 40570 35/69 /2506 10066 21013 40236 56003 333 0/004 55300 90069 90467 91007 91109 91207 91305
AAXX 21004 40571 NIL
AAXX 21004 40572 NIL
AAXX 21004 40573 36/// /2610 10043 21019 333 0//// 90467 91011 91111 91209 91307
AAXX 21004 40580 36/// /1601 10068 20014 333 0/002 553// 00000 10216 20000 30000 40978 51193 60000 55407 40000 90467 91001 91103 91200 91301
AAXX 21004 40581 36/// /1801 10111 20023 333 0//// 90467 91003 91105 91201 91301
AAXX 21004 40582 32960 00000 10076 21007 40229 50002 333 00005 55300 00000 10165 20000 30000 41043 51208 60000 55407 40000 90467 91001 91107 91205 91303
AAXX 21004 40583 NIL
AAXX 21004 40585 36/// /2809 10133 20043 222// 1//// 3//// 4//// 70/// 333 0//// 90467 91009 91115 91211 91305
AAXX 21004 40586 36/// /2505 10079 21002 333 0//// 90467 91007 91109 91205 91303
AAXX 21004 40587 36/// /2506 10065 20002 333 0/005 553// 00000 10201 20000 30000 40987 51188 60000 55407 40000 90467 91007 91107 91207 91305
AAXX 21004 40588 35/66 /3106 10089 20045 40226 50003 333 0/006 55300 90069 90467 91007 91107 91207 91305
AAXX 21004 40589 NIL
AAXX 21004 40590 36/// /3003 10075 21002 333 0//// 90467 91003 91107 91205 91303
AAXX 21004 40591 NIL
AAXX 21004 40592 35/65 /2703 10064 20019 40231 50002 333 0/004 55300 00000 10213 20000 30000 41005 51218 60000 55407 40000 90069 90467 91003 91107 91203 91301
AAXX 21004 40593 36/// /3208 10110 20023 333 0//// 90467 91011 91111 91207 91305
AAXX 21004 40594 36/// /3004 10097 20043 333 0//// 90467 91005 91109 91207 91305
AAXX 21004 40596 36/// /2808 10158 20090 333 0//// 90467 91011 91111 91209 91303
AAXX 21001 37395 42797 80918 10156 21005 30015 40151 57004 8352/ 333 91124 555 10012
AAXX 21001 37409 41/91 90913 11028 21028 38795 48515 57001 74544 333 95090 555 1/104
AAXX 21001 37432 42999 00000 11022 21045 39015 48521 52004 555 14105
AAXX 21001 37514 42696 80000 11015 21063 39110 40306 52005 88500
AAXX 21001 37545 429// 80000 11008 21008 39730 40263 57008 88011
AAXX 21001 37621 429// 00000 11016 21045 39607 40273 57010 555 14104
AAXX 21001 37484 NIL
AAXX 21001 38141 42998 01305 11170 21212 30276 40454 57011 555 1/118
AAXX 21001 38149 42998 00301 11165 21199 30363 40449 57014 555 14117
AAXX 21001 38178 429// 00102 11230 21306 30162 40490 57009 555 14123
AAXX 21001 38262 429// 03605 11162 21202 30367 40458 57015 555 14118
AAXX 21001 38264 42998 00704 11156 21198 30346 40451 57008 333 04116 555 14118
AAXX 21001 38396 42997 00803 11137 21189 30309 40447 57013 333 04115 555 14115
AAXX 21001 38403 429// 00204 11150 21201 30317 40451 57015 555 10119
AAXX 21001 38413 429// 01003 11152 21163 30128 40451 57010 555 14121
AAXX 21001 38457 42997 82701 11106 21134 39806 40446 57004 8807/ 555 1/110
AAXX 21001 38462 426// 60000 11145 21179 38868 48583 53003 84550 555 1/117
AAXX 21001 38565 329// 00000 11136 21149 39816 40459 57007 555 14115
AAXX 21001 38579 325// 23001 11133 21153 39993 40454 57010 82500 333 0/111 555 1/111
AAXX 21001 38583 32997 82301 11102 21115 30101 40452 57007 85041 333 04111 555 14108
AAXX 21001 38611 41596 82102 11077 21099 39832 40436 54000 77177 8802/ 333 0/108 83085 555 1/107
AAXX 21001 38618 415// 82901 11083 21111 39688 40430 55001 77177 8802/ 333 04107 555 14105
AAXX 21001 38683 NIL
AAXX 21001 38696 329// 00701 11126 21146 39505 40443 57008 333 04114 555 14114
AAXX 21001 38812 42997 80000 11097 21118 39930 40424 57007 85031 555 14111
AAXX 21001 38927 31949 03501 11073 21086 30006 40412 56002 71000 555 14106
AAXX 21004 91577 06/// /3604 10246 20215 30083 40104 50003 69921 333 10250 59002 69927
AAXX 21001 56187 11930 83601 10059 20034 39628 40293 52017 69921 76060 8807/ 333 00101 70002
AAXX 21001 56778 NIL
AAXX 21001 57265 NIL
AAXX 21001 57461 11450 81101 10074 20010 30139 40306 52025 69901 76060 8177/ 333 00101 79999
AAXX 21001 57494 NIL
AAXX 21001 57516 11412 83201 10074 20055 39961 40280 52019 69931 76066 887// 333 00051 70003
AAXX 21001 57687 NIL
AAXX 21001 57816 11430 80203 10023 20020 38840 40273 52024 60011 76066 885// 333 00001 30030 70017
AAXX 21001 58040 31720 50000 11007 21023 30267 40281 52005 71000 85500 333 05202 31018
AAXX 21001 58102 31930 02902 11012 21037 30259 40309 52019 71000 333 00000 31009
AAXX 21001 58150 NIL
AAXX 21001 58221 NIL
AAXX 21001 58238 NIL
AAXX 21001 58251 NIL
AAXX 21001 58362 NIL
AAXX 21001 58457 NIL
AAXX 21001 58606 NIL
AAXX 21001 58752 NIL
AAXX 21001 58847 NIL
AAXX 21001 59117 NIL
AAXX 21001 59134 NIL
AAXX 21001 59287 NIL
AAXX 21001 59316 32760 70701 10176 20133 30203 40208 52021 875// 333 05202
AAXX 21001 59431 NIL
AAXX 21001 59644 31558 80204 10162 20096 30183 40200 52022 70500 888// 333 05203
AAXX 21001 59758 NIL
BBXX MGRX9 21004 99035 10815 41/97 /2416 10271 20093 40064 54000 70322 8/7// 22233 20503 313// 40503 5//// 80172
BBXX MHNN5 21004 99455 70281 41/98 21911 10120 20101 40239 56030 70100 8//// 22263 00140 299// 3//// 4//// 5//// 80110
AAXX 21001 50468 NIL
AAXX 21001 50953 31957 22001 11146 21170 30004 40194 57001 70400 80002 333 05903
AAXX 21001 51076 NIL
AAXX 21001 51243 NIL
AAXX 21001 51288 32980 00402 11146 21258 38464 57011 333 00003 92508
AAXX 21001 51463 NIL
AAXX 21001 51573 NIL
AAXX 21001 51709 NIL
AAXX 21001 52533 NIL
AAXX 21001 52652 NIL
AAXX 21001 52866 32965 72201 11091 21152 37763 52004 80002 333 00504
AAXX 21001 52983 NIL
AAXX 21001 53463 32975 03604 11105 21204 39074 40396 52016 333 00301
AAXX 21001 53513 32970 02203 11144 21187 39121 40436 52016 333 00501
AAXX 21001 53588 NIL
AAXX 21001 53772 NIL
AAXX 21001 53915 NIL
AAXX 21001 54218 32780 62905 11101 21223 39450 40299 52028 86500 333 05206
AAXX 21001 54337 32960 02501 11091 21139 30161 40249 52010 333 05501
AAXX 21001 54342 NIL
AAXX 21001 54401 NIL
AAXX 21001 54471 NIL
AAXX 21001 54497 31557 60404 11059 21112 30228 40245 52003 70400 86500 333 05703
AAXX 21001 54511 NIL
AAXX 21001 54823 31920 21403 11031 21067 30081 40300 52008 71000 80002 333 05151
AAXX 21001 56080 NIL
AAXX 21001 56096 NIL
AAXX 21001 57083 NIL
BBXX 44139 21001 99442 70571 46/// /3115 10017 40107 52048 22200 00093 10908 70042 333 91219
BBXX 44139 21001 99442 70571 46/// /3115 10017 40107 52048 22200 00093 10908 70042 333 91219
AAXX 21001 11157 17/// /0601 11058 21066 39370 40171 52002 60011 7404/
AAXX 21004 06610 31360 72105 10014 21002 39625 40225 52016 71022 875// 333 55300 20000 82709 87634 91113 91208
AAXX 21004 06670 01460 82307 10017 21001 39680 40204 51015 69911 78087 875// 333 55300 20000 60005 81611 84621 87657 91113 91210
AAXX 21004 06700 01245 81701 10009 20004 39726 40235 52016 69911 78087 885// 333 55300 20000 60005 81705 88635 91111 91206
AAXX 21004 06680 03/// /2610 11113 21113 37437 47957 52005 60111 333 55300 20000 69985 91136 91213
AAXX 21004 06990 01250 81503 11013 21013 39638 40205 52011 60021 77172 887// 333 55300 20000 60005 88705 91109 91205
AAXX 21004 06760 33/// /3602 10018 21033 39703 40161 52007 333 55300 20000 91107 91205
AAXX 21004 06720 32565 8//// 11011 21021 39627 40224 52014 886// 333 55300 20000 88731
AAXX 2100/ 89866 46/// ///// 11014 39677 4//// 5////
AAXX 21004 89667 46/// /0904 11015 39777 4//// 5////
AAXX 2100/ 89329 46/// ///// 11054 38721 4//// 5////
AAXX 21004 84142 11110 80000 10166 20160 60011 72054 887// 333 10210 555 10011 30096
AAXX 21004 84072 32557 70502 10151 20109 37275 86400 333 10217 59012 555 30076
AAXX 21004 84008 32770 11408 10237 20192 30082 40092 81030 00212 333 10287 59013 555 30076
AAXX 21004 84036 12570 80902 10122 20104 60011 8441/ 333 10158 555 10012 30088
AAXX 21004 84143 32558 81804 10131 20104 37386 84456 333 10236 58001 555 30084
AAXX 21004 84202 32565 71402 10276 20220 30108 84430 333 10292 59005 555 30072
AAXX 21004 84135 31565 51402 10252 20206 30034 70544 85400 333 10322 59013 555 30076
AAXX 21004 84088 32565 60902 10113 20104 37045 86800 333 10182 59012 555 30094
AAXX 21004 84056 11220 43608 10128 20120 69931 72054 84400 333 10200 555 10003 30095
AAXX 21004 84270 12560 73304 10162 20108 69971 85430 333 10197 555 10007 30070
AAXX 21004 84140 32930 50000 10280 20217 39984 40069 85040 333 10323 59012 555 30069
AAXX 21004 84076 31565 50000 10140 20133 70544 85400 333 10222 555 30095
AAXX 21004 84050 32560 83604 10250 20221 886// 333 10295 555 30084
AAXX 21004 84045 11558 70000 10101 20099 69911 74052 87800 333 10142 555 10001 30099
AAXX 21004 84179 11550 70000 10201 20196 39044 60091 72586 87400 333 10242 58002 555 10085 30097
AAXX 21004 84160 31450 81804 10122 20086 37254 74044 888// 333 10171 58000 555 30078
AAXX 21004 84173 31562 80402 10127 20095 71644 86772 333 10185 555 30081
AAXX 21004 84105 32557 80404 10256 20214 39986 8541/ 333 10295 59001 555 30078
AAXX 21004 84132 32565 70000 10252 20238 39864 85202 333 10292 59003 555 30088
AAXX 21004 61974 12475 20000 10247 20231 40104 60001 82202 333 58010 82819
AAXX 21004 61986 12470 10910 10271 20241 40112 60001 81200 333 58003 81819
AAXX 21004 61988 12470 41005 10240 20194 40139 60001 83802 333 58004 83818 91124
AAXX 21004 61989 NIL
AAXX 21004 61990 12470 41005 10240 20194 40139 60001 83802 333 58004 83818 91124
AAXX 21004 61995 11468 51006 10227 20220 39647 69921 71398 84902 333 0//11 58008 81914 83817
BBXX 46035 21001 99571 71778 46/// /2709 1//// 49926 51008 92350 22200 11106 20704 300// 41104 70029 333 91210 555 11085 22091 32326 42712 62349 273086 269089 271096 273094 273097 281095 82711 92301
BBXX DGHJ 21003 99300 71591 41999 22703 10233 20159 40228 57017 70200 80002 22263 00220 20000 33000 40708 5//// 80185
BBXX DHBN 21001 99334 71698 41/97 82303 10230 20201 40165 57020 70222 8/72/ 22224 00210 20503 326// 40804 5//// 80210
BBXX NWS0003 21004 99539 71665 43/// /0000 10012 21028 49974 5//// 7//// 8//// 222// 0//// 2//// 3//// 4//// 5//// 6//// 8//// ICE /////
BBXX SHIP 21004 99405 71564 41596 71827 10160 20140 40080 56020 75155 8774/ 22224 00150 20204 313// 40306 5//// 6//// 85150 ICE /////
BBXX SHIP 21004 99300 71648 41798 62708 10220 20190 40250 56010 70222 83/38 22263 0//// 20301 329// 40603 5//// 6//// 80200 ICE /////
BBXX 4XIS 21003 99371 11760 43498 63220 10180 20110 40180 51010 83871 22224 20404 334// 41008 80140
BBXX C6SI3 21003 99464 11790 41896 32717 10040 20020 40050 55010 78577 83283 22213 00070 21201 3//// 41003 5//// 6//// 80030 ICE /////
BBXX DFWV2 21004 99316 11528 41298 83620 10150 20076 40200 52040 70322 8/71/ 22264 04190 2//05 333 // 4//03 5//// 80110
BBXX DGHX 21003 99329 11613 41298 83227 10165 20141 40115 52015 70222 887// 22264 00200 20804 332// 40806 80150
BBXX UGPK 21001 99545 11504 43/98 80906 11020 40140 53080 22233 00012 2//20 3//04
AAXX 21004 41254 36/// /2608 10061 20014 38029 48034 333 0E006 58001
AAXX 21004 91753 02580 40913 10310 20244 30057 40088 58014 60001 83201 333 60007 83822 90710 91117 555 60005
AAXX 21004 91754 01582 40606 10303 20242 30049 40089 58012 69944 701// 84200 333 20262 59015 60007 84820 555 60005
BBXX 41053 21001 99185 70661 46/// /0609 10259 40174 53014 90000 22200 00273 11206 70030 333 91212
BBXX 41053 21001 99185 70661 46/// /0609 10260 40173 92350 333 91211
BBXX 41053 21001 99185 70661 46/// /0609 10262 40171 92340 333 91211
AAXX 2100/ 89767 46/// ///// 11112 39624 4//// 5////
AAXX 21004 91367 32474 71015 10300 20263 83231 333 20256 56229 83815 83360 82180 555 92100 91369 32474 40920 10306 20267 30073 40076 83100 333 20261 562// 58001 83815 555 92100
AAXX 21004 89016 46/89 /3407 11087 29081 39378 4//// 5////
AAXX 21004 89578 46/// /0405 11343 36816 4//// 5////
BBXX MINFR00 2100/ 99242 70750 46/// ///// 10230 40211 52003
AAXX 21004 68298 36/// /0102 1//// 2//// 39496 4//// 57001 333 1//// 2//// 91004 555 91016
AAXX 21004 89002 41697 42108 11101 21110 39748 49802 57011 74041 84600 333 11021 21103
AAXX 21004 71243 16/// /2520 10045 21057 39021 40083 56002 60001 333 10068 20043 70000
AAXX 21004 71246 16/// /3604 11024 21064 39427 40090 53033 60001 333 10011 21024 70003
AAXX 21004 71402 46/// /2917 11031 21057 39851 49965 53018 6///1 333 11031 21053 7////
AAXX 21004 71407 16/// /2514 11310 21347 39961 49983 51005 60001 333 11304 21343 70000
AAXX 21004 71434 16/// /2509 11026 21038 39823 49888 51014 60001 333 11026 70009
AAXX 21004 71446 16/// /2814 10011 21028 39090 40061 53004 60001 333 10032 21024 70000
AAXX 21004 71449 16/// /2209 10016 21057 39601 40002 56017 60001 333 10017 21068 70000
AAXX 21004 71501 17/// /0601 11257 21284 30105 40107 50002 69941 7//4/ 333 11257 21314 70007 555 10010
AAXX 21004 71522 46/// /1902 11164 21191 39668 40175 55003 6///1 333 11132 21165 7////
AAXX 21004 71758 16/// /2815 11056 21077 30035 40113 51039 60001 333 10002 21056 70026
AAXX 21004 71771 46/// /3006 10061 20019 30267 40288 53013 6///1 333 10077 20049 7////
AAXX 21004 71669 16/// /2702 11017 21100 38487 40105 55003 60001 333 10034 21019 70000
AAXX 21004 71075 16/// /0105 11158 21176 39430 40042 51028 60001 333 11051 21158 70006 555 10010
AAXX 21004 71087 46/// /0802 11136 21158 39916 40127 51029 6///1 333 11136 21199 7////
AAXX 21004 71151 16/// /2015 11014 21052 39478 49979 58014 60001 333 11014 21066 70000
AAXX 21004 71155 16/// ///// 10014 20008 60001 333 10053 21002 70000
AAXX 21004 71157 46/// ///// 10024 20002 6///1 333 10053 20005 7////
AAXX 21004 71158 17/// /2805 11023 21026 39686 49958 51011 60011 7//4/ 333 10004 21057 70013
AAXX 21004 71159 17/// /3016 11050 21073 39953 40025 53036 69951 7//4/ 333 11020 21075 70119
AAXX 21004 71160 17/// /0804 11211 21242 39857 40078 51023 69931 7//4/ 333 11179 21211 7////
AAXX 21004 71162 16/// /3121 11165 21188 39869 40083 51029 60001 333 11139 21166 70000
AAXX 21004 71164 46/// /2103 11218 21243 30052 40136 53005 6///1 333 11215 21243 7////
AAXX 21004 71165 46/// ///01 11225 21251 39836 40130 51029 6///1 333 11167 21230 7////
AAXX 21004 71166 46/// /2302 39512 51024 6///1 333 7////
AAXX 21004 71175 17/// /3013 11044 21074 30093 40128 51041 69961 7//4/ 333 10011 21048 70045 555 10030
AAXX 21004 71356 16/// /3315 11310 21346 39962 40032 51015 60001 333 11310 21339 70000
AAXX 21004 71357 16/// /1903 11234 21261 39963 49970 50001 60001 333 11207 21262 70000
AAXX 21004 71361 16/// /3609 11126 21163 39907 40120 53032 60001 333 11104 21174 70000
AAXX 21004 71364 16/// /1003 11254 21279 39975 40114 53005 60001 333 11247 21271 70000
AAXX 21004 71365 16/// /0000 11105 21124 39915 40131 51019 60001 333 11104 21186 70000
AAXX 21004 71381 46/// /1505 11124 21168 6///1 333 11106 21130 70000
AAXX 21004 71386 16/// /2907 11117 21178 39970 40182 53022 60001 333 11088 21119 70040
AAXX 21004 71393 16/// ///// 10021 21082 38815 40074 55000 60001 333 10075 20021 70000
AAXX 21004 71851 16/// /2608 10030 21015 39659 49990 53013 60001 333 10031 21017 70000
AAXX 21004 71885 46/// ///// 10018 6///1 333 10064 21014 7////
AAXX 21004 71886 16/// /2709 10016 21014 39408 40009 53014 60001 333 10037 21018 70000
AAXX 21004 71450 16/// /2708 10021 21024 39336 40050 53013 60001 333 10054 21013 70000
AAXX 21004 71451 16/// /3503 11080 21112 39603 40030 51043 60001 333 11027 21090 70000
AAXX 21004 71456 16/// /3007 11011 21030 39428 40022 53027 60001 333 10023 21034 70000
AAXX 21004 71459 16/// /2510 10022 21019 39266 40070 53006 60001 333 10050 21020 70000
AAXX 21004 71465 46/// /1110 10038 20014 39944 40163 56014 6///1 333 10038 20002 7////
AAXX 21004 71470 16/// /3604 11283 21313 39456 40108 51021 60001 333 11239 21289 70000
AAXX 21004 71475 16/// /0000 10045 20038 30174 40269 55003 60001 333 10050 20010 70008
AAXX 21004 71476 16/// /2603 30263 53020 60001 333 70034
AAXX 21004 71478 16/// /3117 10065 20030 30156 40294 53003 60001 333 10075 20065 70000
AAXX 21004 71479 16/// /3019 10070 20035 30165 40287 55001 60001 333 10077 20065 70000
AAXX 21004 71480 16/// /1303 11220 21242 39997 40124 53007 60001 333 11197 21262 70009 555 10020
AAXX 21004 71482 46/// /1704 10038 30250 40289 51015 6///1 333 10074 20036 7////
AAXX 21004 71484 16/// /3213 10062 20025 30261 40280 53015 60001 333 10071 20061 70000
AAXX 21004 71492 46/// ///01 11271 21297 39384 40101 51015 6///1 333 11192 21272 7////
AAXX 21004 71250 17/// /2909 11015 21022 39809 49944 53017 60061 7//4/ 333 11015 21030 70062
AAXX 21004 71279 16/// /3107 11147 21187 30090 40158 51026 60001 333 11098 21147 70013
AAXX 21004 71291 16/// /1706 11015 21049 39741 40033 58012 60001 333 11015 21165 70000
AAXX 21004 71295 17/// /2003 11031 21051 39539 49982 56010 69931 7//4/ 333 11028 21073 70015
AAXX 21004 71837 16/// ///// 10024 60001 333 10046 20013 70000
AAXX 21004 71839 16/// ///// 10020 60001 333 10046 20016 70009
AAXX 21004 71840 46/// /2714 10026 21026 6///1 333 10030 21026 7////
AAXX 21004 71956 16/// /2412 10000 21044 39909 40145 56019 60001 333 10002 21091 70000
AAXX 21004 71959 17/// ///// 11036 21076 69981 7//4/ 333 10011 21042 70067 555 10040
AAXX 21004 71977 46/// /3001 11282 21282 39364 40104 53010 6///1 333 11211 21285 7////
AAXX 21004 71978 46/// /2202 11288 21316 39765 40093 51007 6///1 333 11266 21290 7////
AAXX 21004 71989 16/// /0702 11369 21408 30137 40154 51004 60001 333 11360 21380 70000
AAXX 21004 71715 16/// /1703 11119 21158 30004 40192 58001 60001 333 11090 21121 70000
AAXX 21004 71719 16/// /3016 11087 21143 30160 40166 53036 60001 333 11043 21088 70000 555 10020
AAXX 21004 71800 17/// /2826 11008 21030 39941 49974 53047 60011 7//4/ 333 10022 21048 70013
AAXX 21004 71807 17/// /3021 11002 21037 39972 49990 53051 60021 7//4/ 333 10017 21027 70044
AAXX 21004 71432 16/// /0000 10021 21041 30083 40181 56011 60001 333 10023 21008 70000
AAXX 21004 71435 16/// /2112 11007 21072 39426 40020 58004 60001 333 11006 21100 70000
AAXX 21004 71441 46/// /2208 10036 21038 39692 49998 50000 6///1 333 10036 21070 7////
AAXX 21004 71472 17/// /3109 10058 20018 30275 40293 51010 69921 7//4/ 333 10069 20051 70024
AAXX 21004 71510 16/// /2610 10004 21032 39339 40043 51013 60001 333 10054 21060 70000
AAXX 21004 71832 16/// /2009 11024 21029 39698 40025 55002 60001 333 11018 21138 70000 555 10120
AAXX 21004 71861 16/// /2709 10011 21022 39299 40019 53008 60001 333 10036 21029 7////
AAXX 21004 71564 16/// /2908 10038 21039 39637 49999 53007 60001 333 10040 21024 70000
AAXX 21004 71581 16/// /0000 11104 21118 39680 40177 58006 60001 333 11027 70000
AAXX 21004 71585 16/// /3205 11083 21104 39621 40079 51031 60001 333 10016 7////
AAXX 21004 71599 16/// /3201 11074 21099 30002 40209 52029 60001 333 11005 21076 70032
AAXX 21004 71736 46/// ///// 10007 21060 6///1 333 10042 20007 7////
AAXX 21004 71742 46/// /2707 11061 21072 39791 49978 53024 6///1 333 11048 21075 7////
AAXX 21004 71744 16/// /2805 11104 21160 30156 40198 51035 60001 333 11043 21104 70000
AAXX 21004 71110 17/// /2819 11026 21046 39947 40007 53042 69961 7//4/ 333 10008 21088 70058 555 10060
AAXX 21004 71133 46/// /3105 11005 21031 39325 40026 53024 6///1 333 10043 21009 7////
AAXX 21004 71141 16/// /3510 11313 21344 30020 40048 53016 60001 333 11278 21319 70000
AAXX 21004 71147 16/// /2508 10021 21018 60001 333 10027 21028 70000
AAXX 21004 71149 16/// /3010 10035 21021 60001 333 10044 21004 70000
AAXX 21004 71300 16/// /1302 11098 21124 30077 40204 58013 60001 333 11039 21099 70000
AAXX 21004 71309 16/// /2206 11018 21033 39979 49991 50001 60001 333 11018 21206 70007 555 10010
AAXX 21004 71311 16/// /3015 11077 21134 30171 40196 51045 60001 333 11023 21077 70038 555 10010
AAXX 21004 71314 16/// /1805 11037 21064 39821 40182 56008 60001 333 11020 21093 70000
AAXX 21004 71317 16/// /2806 11088 21135 30137 40185 53040 60001 333 11013 21089 70035
AAXX 21004 71920 16/// /3406 11046 21093 30208 40214 51035 60001 333 10033 21047 70022
AAXX 21004 71015 16/// ///// 10014 60001 333 10037 20006 70000
AAXX 21004 71017 16/// /3107 11320 21354 30084 40099 53010 60001 333 11289 21326 70000
AAXX 21004 71018 16/// ///07 11285 21313 39956 40046 51007 60001 333 11232 21302 70000
AAXX 21004 71019 46/// /0000 11156 21184 39891 40205 51020 6///1 333 11092 21166 7////
AAXX 21004 71020 46/// /3001 11174 21190 39865 40126 51020 6///1 333 11100 21174 7////
AAXX 21004 71021 46/// /0000 11230 21256 39786 40154 51019 6///1 333 11186 21230 7////
AAXX 21004 71039 46/// /0000 11223 6///1 333 11180 21237 7////
AAXX 21001 57687 11456 82902 10075 20039 30194 40280 52017 69901 76066 8772/ 333 00051 79999
AAXX 21001 58150 31930 70202 10042 20011 30275 40279 52001 71000 8704/ 333 05201 30005
AAXX 21001 58221 31930 73401 10026 20016 30260 40289 52013 71000 8704/ 333 05102 31032
AAXX 21001 58238 31912 83401 10058 20041 30233 40279 52008 71000 8807/ 333 00001 30043
AAXX 21001 58251 31520 80401 10058 20044 30271 40276 52007 71000 885// 333 05102 30044 79999
AAXX 21001 58457 31730 83202 10071 20039 30222 40276 52019 71000 885// 333 05102 70002
AAXX 21001 58606 31958 80902 10085 20012 30207 40266 52016 70500 8807/ 333 05102
AAXX 21001 58752 31757 72701 10111 20078 30198 40244 52019 71000 875// 333 05300
AAXX 21001 58847 11768 82201 10136 20102 30128 40230 52019 69901 70060 885// 333 05200 79999
AAXX 21001 59117 31657 82201 10150 20110 30117 40224 52025 70500 885// 333 05203 79999
AAXX 21001 59134 11665 73403 10155 20117 30054 40223 52020 69901 70060 875// 333 05202 79999
AAXX 21001 59431 31557 80401 10136 20076 30070 40219 52021 70500 888// 333 05107
AAXX 21001 59758 11456 80903 10185 20168 30111 40187 52024 69911 72160 888// 333 05101 70001
AAXX 21001 37279 42894 50904 10148 20056 30000 40140 58003 85070
AAXX 21001 37308 429// 00000 11017 21026 39584 40259 52004
AAXX 21001 37531 429// 40000 11005 21008 39516 40264 57007 80050
AAXX 21001 37651 16/// ///00 11027 21033 3//// 4//// 5//// 60001 333 55///
AAXX 21001 37492 NIL
AAXX 21001 37553 NIL
AAXX 21001 50468 11968 83601 11227 21245 39947 40176 52002 69911 77000 8802/ 333 05752 70001 92507
AAXX 21001 53588 32980 02912 11157 21233 37775 57006 333 05253 31042 70001 91122 91529
AAXX 21001 53772 32960 02901 11058 21134 39391 40358 52014 333 00200
AAXX 21001 54342 31950 00000 11152 21166 30182 40248 52011 71000 333 05651
AAXX 21001 54471 31930 33601 11086 21102 30242 40248 52012 71000 80002 333 05552
AAXX 21001 54511 32980 03202 10010 21201 30248 40290 52015 333 05205
AAXX 21001 57083 31/06 92201 11019 21038 30162 40306 52013 74740 333 05151 31015
BBXX SERW 21003 99263 70162 43/98 00418 10204 2//// 40237 51010 70200 80000 22252 06204 2//// 3//// 4////
BBXX SBHI 21003 99580 10194 43/98 42518 10050 40094 56010 22213 06051
AAXX 21001 56778 32560 22502 10038 20032 38123 52018 82400 333 05151 31006
AAXX 21001 57265 31957 80000 10043 20006 30194 40309 52019 71000 8802/ 333 00101 30005
AAXX 21001 57494 32962 83602 10046 20023 30260 40291 52021 8807/ 333 00151 30035
AAXX 21001 58362 32962 80402 10086 20074 30257 40265 52009 8807/ 333 05200 70055
AAXX 21001 59287 32664 70203 10160 20072 30125 40211 52021 875// 333 05203
BBXX SFIR 21004 99451 70457 43/97 22130 10075 40035 58002 22223 00100 2//08 4//06
BBXX SHJC 21001 99175 11150 43/97 80610 10242 40146 53016 22254 01247 2//// 4////
BBXX 9V8797 21004 99075 10777 43/97 50127 10255 40087 55006 22234 00276 2//// 4////
AAXX 21001 54401 32670 23206 11082 21200 39449 40363 52026 82100 333 00202
AAXX 21001 51076 32980 00402 11237 21269 39570 40580 57006 333 00104 31014 92526
AAXX 21001 51243 11870 73601 11154 21176 39930 40550 57012 69901 77070 86502 333 00103 79999
AAXX 21001 51463 11768 72202 11149 21176 39316 40528 57009 69901 77070 85502 333 05152 31018 70009 92518
AAXX 21001 51573 32975 23201 11085 21139 30418 40465 57001 80002 333 00852
AAXX 21001 51709 11860 70201 11055 21075 38861 40426 54000 69901 77070 86502 333 00700 31013 70013 92508
AAXX 21001 52533 32980 02202 11163 21195 38665 40495 52007 333 00751
AAXX 21001 52652 32980 11101 11198 21227 38678 40510 52009 80002 333 00757
AAXX 21001 52983 11762 72702 11094 21133 38203 52009 69901 70070 83502 333 00701 79999
AAXX 21001 53915 32780 83202 11051 21121 38780 40390 52014 885// 333 00652 79999
AAXX 21001 56080 32970 72501 11120 21152 37176 52006 83032 333 00302
AAXX 21001 56096 11668 80403 10059 21043 39033 40294 52013 69901 76000 885// 333 00303 30034 79999
AAXX 21004 71715 16/// /1703 11119 21158 30004 40192 58001 60001 333 11090 21121 70000
AAXX 21004 71719 16/// /3016 11087 21143 30160 40166 53036 60001 333 11043 21088 70000 555 10020
AAXX 21004 71800 17/// /2826 11008 21030 39941 49974 53047 60011 7//4/ 333 10022 21048 70013
AAXX 21004 71807 17/// /3021 11002 21037 39972 49990 53051 60021 7//4/ 333 10017 21027 70044
AAXX 21004 71832 16/// /2009 11024 21029 39698 40025 55002 60001 333 11018 21138 70000 555 10120
AAXX 21004 71861 16/// /2709 10011 21022 39299 40019 53008 60001 333 10036 21029 7////
AAXX 21004 71432 16/// /0000 10021 21041 30083 40181 56011 60001 333 10023 21008 70000
AAXX 21004 71435 16/// /2112 11007 21072 39426 40020 58004 60001 333 11006 21100 70000
AAXX 21004 71441 46/// /2208 10036 21038 39692 49998 50000 6///1 333 10036 21070 7////
AAXX 21004 71472 17/// /3109 10058 20018 30275 40293 51010 69921 7//4/ 333 10069 20051 70024
AAXX 21004 71510 16/// /2610 10004 21032 39339 40043 51013 60001 333 10054 21060 70000
AAXX 21001 48918 11470 70204 10258 20232 30088 40099 52015 69912 70382 879// 222// 00255 2//01 333 01025 2024 5 3/024 58001 82894 86995
AAXX 21001 48914 32698 70502 10242 20212 30097 40099 52018 875// 333 00024 20239 3/022 59001 87696
AAXX 21001 48917 12598 70505 10275 20177 30084 40090 52014 69972 8221/ 222// 00268 2//00 333 01026 20250 3/02 4 59002 82895 87499
AAXX 21001 48900 32497 83505 10231 20228 30086 40096 52012 888// 333 20230 59002 83894 85696
AAXX 21001 48919 12598 70507 10270 20249 30074 40096 53019 69912 83208 22200 02273 2//03 333 20261 58014 8389 5 87299
AAXX 21001 48916 12598 70203 10267 20212 30047 40094 53012 69962 878// 333 00/// 20238 3//// 58001 83895 8769 6
AAXX 21004 68328 42960 03207 10286 20111 48481 56011 81080
AAXX 20184 91631 11599 10912 10276 20243 40068 60001 70200 811001 333 562/9
AAXX 20184 91636 11599 31008 10273 20249 40073 60001 70200 83200 333 562//
AAXX 20184 91648 11498 40513 10274 20238 40081 60001 70212 84200 333 561//
AAXX 20184 91631 11599 10912 10276 20243 40068 60001 70200 811001 333 562/9
AAXX 20184 91636 11599 31008 10273 20249 40073 60001 70200 83200 333 562//
AAXX 20184 91648 11498 40513 10274 20238 40081 60001 70212 84200 333 561//
AAXX 21004 91643 11599 20812 10317 20245 40071 58018 60001 70200 82100 333 20272 562// 70000 82820
AAXX 21004 91636 11599 31010 10311 20254 40071 60001 70200 83200 333 20269 562// 70000
AAXX 21004 91648 11599 20912 10316 20261 40071 60001 70200 82100 333 20268 562// 70008
AAXX 21004 65306 32960 50000 10234 20050 39777 40121 80002 333 0//00 58003 85076
AAXX 21004 65319 33956 50000 10227 20082 39613 40120 80002 333 0//00 58004 85076
AAXX 21004 65330 31915 50000 10234 20074 39681 40114 70522 80002 333 0//00 58007 85076
AAXX 21004 65335 33958 52002 10249 20209 39897 40118 80002 333 0//00 58005 85076
AAXX 21004 65344 32458 72208 10285 20257 30111 40122 85502 333 0//00 58010 85610 85076
AAXX 21004 61902 32584 71210 10234 20171 40155 878// 333 58003 82827 87638
AAXX 21004 43466 22470 10501 10242 20227 30061 40073 81101 333 58001 60007 81818
AAXX 21001 50136 11970 72901 11283 21316 39634 40221 52015 69981 77077 8703/ 333 00003 70019 92510
AAXX 21001 50745 32965 70000 11163 21194 39986 40183 52003 83032 333 05704 92500
AAXX 21001 50774 31957 50000 11265 21289 39875 40212 57001 70400 80002 333 05800 92513
AAXX 21001 50788 32970 21103 11194 21213 30120 40213 57001 80002 333 05551 92501
AAXX 21001 51133 32980 00401 11201 21231 39783 40509 57015 333 05554 31043 79999 92511
AAXX 21001 51431 32970 80401 11161 21186 39609 40482 57012 8802/ 333 05455 31018 79999 92519
AAXX 21001 51747 11961 80000 11138 21162 39076 40459 57003 69901 77070 8802/ 333 00754 79999
AAXX 21001 52203 NIL
AAXX 21001 52418 32980 23601 11165 21199 39042 40480 52006 80002 333 01156
AAXX 21001 52681 32980 02702 11154 21195 38782 40477 52010 333 00852
AAXX 21001 53564 32970 03601 11162 21179 39319 40424 52014 333 00357
AAXX 21001 53614 31920 30000 11110 21127 39052 40431 52013 71040 80002 333 00553
AAXX 21001 53646 32970 03203 11135 21171 38977 40414 52014 333 00453
AAXX 21001 53798 31958 00000 11030 21063 30205 40306 52012 71000 333 05100
AAXX 21001 53845 32765 62702 11045 21090 39210 40386 52015 86500 333 00452
AAXX 21001 53959 32960 21103 10004 21074 39892 40354 52023 82030 333 00302 31004
AAXX 21001 54094 32962 01801 11216 21244 39915 40243 57002 333 05800 92504
AAXX 21001 54102 11980 02002 11215 21250 39075 40379 52018 69901 70070 333 05151 79999
AAXX 21001 54161 32962 52504 11131 21178 39910 40221 52006 80002 333 05700
AAXX 21001 54292 31958 02501 11195 21219 39911 40257 52001 71000 333 05654
AAXX 21001 54374 32970 03401 11169 21195 39784 40287 52002 333 05703 92504
AAXX 21001 54423 32980 63202 11079 21201 39759 40304 52010 81032 333 05308
AAXX 21001 54618 31920 60000 11061 21076 30274 40293 52009 71000 86030 333 05153
AAXX 21001 54843 31918 62902 11022 21042 30262 40291 52005 71000 80002 333 05202
AAXX 21001 54909 31920 62701 11032 21045 30237 40304 52014 71000 86030 333 00052 31021
AAXX 21001 56029 32980 02201 11169 21203 36431 52013 333 05301
AAXX 21001 57127 11959 80201 10062 20059 39683 40303 52019 69901 76000 8807/ 333 00200 30049 79999
AAXX 21001 57131 11930 82002 10031 20007 39854 40366 52020 69901 72160 8807/ 333 00402 30011 79999
BBXX 44255 21001 99473 70573 46/// /2814 11013 40031 52045 22200 00039 10706 70031 333 91217
AAXX 21004 41259 36/// /2908 10015 21128 37102 40266 333 0E/// 59017
AAXX 21004 41287 36/// /0507 10186 20097 30138 40207 333 0E019 58008
BBXX 44255 21001 99473 70573 46/// /2814 11013 40031 52045 22200 00039 10706 70031 333 91217
AAXX 21004 88963 11245 81404 10004 21006 39945 49975 54000 69941 76872 887// 333 10038 20004 56799 88706 90062 90088 92406 92800 93100 94070 95010
AAXX 21004 88968 31456 70912 10012 21002 39950 49966 53012 74042 87600 333 10038 20010 56700 87710 90008 90091 92416 92731 92851 94075 95065
AAXX 21004 89053 11450 73610 10060 20036 39946 49959 53009 69901 76062 85770 333 10068 20034 56770 85710 83557 90009 90088 90901 92415 94075 94477 95000 97518 98550
AAXX 21004 89055 31358 81809 11018 21026 39733 49978 50004 71022 8372/ 333 10006 21018 56449 83708 88540 90063 90090 95110
AAXX 21004 89066 32970 60000 10056 21017 39944 49953 51004 84056 333 10071 20031 56077 84360 83270 92407 94030
AAXX 21004 40100 12558 51803 10182 20157 30153 40184 52014 60001 85200 900// 333 85826 92426
AAXX 21004 40101 13/// /0000 10120 21001 39115 48519 56006 60001 900//
AAXX 21004 40103 32660 50402 10129 20056 40182 52010 83502 333 83640 84070 555 10188
AAXX 21004 40102 NIL
AAXX 21004 47401 11/12 71707 11049 21070 30194 40209 53001 69902 78511 873// 333 21087 4/055 70010
AAXX 21004 47412 12/75 71404 11059 21118 30199 40233 51004 60002 8127/ 333 21096 4/017 70000
AAXX 21004 47420 17/70 /2705 11029 21054 30193 40228 51010 69902 72470 333 21056
AAXX 21004 47426 15/70 /0402 11022 21137 30183 40232 52007 60002 333 21079
AAXX 21004 47582 11/80 71208 11011 21046 30217 40245 52004 69902 70381 87200 333 21029 4/008 79999
AAXX 21004 47590 12/75 73204 11003 21047 30189 40245 55002 60002 81531 333 21029 79999
AAXX 21004 47600 17/70 /2007 10038 20020 30204 40212 56010 60032 76160 333 20007
AAXX 21004 47648 11/70 80611 10084 20011 30199 40234 51004 69902 70282 888// 333 20069 79999
AAXX 21004 47662 12/70 73304 10040 21066 30198 40244 51007 60002 81232 333 20029 70000
AAXX 21004 47678 15/70 /2904 10127 20044 30046 40234 51008 60002 333 20094
AAXX 21004 47740 17/76 /3603 10055 20027 30193 40228 53001 69902 72386 333 20027
AAXX 21004 47778 15/70 /0203 10092 20021 30154 40239 50005 60002 333 20068
AAXX 21004 47807 12/70 21603 10070 20009 30232 40251 55000 60002 81131 333 20054 70000
AAXX 21004 47827 12/70 63305 10097 21016 30204 40243 50002 60002 82532 333 20082 70000
AAXX 21004 47843 15/63 /1802 10080 20040 30216 40249 51004 60002 333 20053
AAXX 21004 47893 12/75 72802 10076 20004 30239 40245 51002 60002 85072 333 20041 70000
AAXX 21004 47909 12/75 61603 10147 20115 30210 40220 50006 60002 81130 333 20124 70000
AAXX 21004 47918 12/70 41109 10227 20174 30160 40177 52013 60002 84830 333 20212 70005
AAXX 21004 47936 12/80 21008 10214 20141 30135 40193 51008 60002 82230 333 20179 79999
AAXX 21004 47945 11/65 70713 10212 20151 30174 40198 51009 69902 70281 878// 333 20195 79999
AAXX 21004 47971 11/00 83302 10168 20132 30220 40230 51018 69902 72582 8227/ 333 20165 79999
AAXX 21004 47991 16/// /0319 10234 20187 30172 40182 51014 60032 333 20220 70095
AAXX 21004 47407 11/70 10201 11126 21149 30063 40249 51009 69902 70287 81200 333 21159 4/037 79999
AAXX 21004 47409 12/80 12506 11088 21144 30174 40231 51007 69902 81200 333 21106 4/012 70005
AAXX 21004 47418 12/65 10206 11085 21128 30185 40237 51008 60002 81200 333 21129 70000
AAXX 21004 47421 17/69 /1407 11032 21068 30182 40227 50002 69902 77170 333 21071
AAXX 21004 47430 11/75 70201 11037 21087 30181 40238 51006 69902 70282 872// 333 21071 4/010 79999
AAXX 21004 47570 15/70 /2701 11011 21041 39984 40254 53002 69902 333 21046
AAXX 21004 47575 11/58 71503 11018 21041 30234 40239 51002 69952 78582 873// 333 21050 4/061 70015
AAXX 21004 47584 11/70 52302 11028 21051 30055 40254 53008 69902 72611 82332 333 21053 79999
AAXX 21004 47604 11/65 70904 10016 21020 30227 40236 56004 69902 70282 872// 333 20004 4/007 79999
AAXX 21004 47605 11/65 72015 10057 20022 30179 40221 55005 60022 78082 87202 333 20017 70015
AAXX 21004 47610 12360 71702 11011 21048 39724 40247 51003 60002 82232 333 21030 70005
AAXX 21004 47624 12/84 63107 10015 21063 30102 40246 51005 60002 81832 333 21005 70000
AAXX 21004 47629 12/80 73502 10002 21042 30201 40241 53002 60002 81802 333 21026 70000
AAXX 21004 47636 12/80 70105 10043 21007 30176 40247 51006 60002 81178 333 20022 70000
AAXX 21004 47651 12/70 42703 10048 20004 30222 40245 51001 60002 81536 333 20027 70000
AAXX 21004 47655 15/70 /2806 10067 21017 30176 40234 50006 60002 333 20033
AAXX 21004 47675 15/70 /1504 10083 20034 30140 40233 51005 60002 333 20044
AAXX 21004 47741 11165 70501 10053 20041 30207 40235 50001 69902 72582 872// 333 20038 70020
AAXX 21004 47746 11/75 71305 10046 20028 30217 40237 58002 60012 70282 82872 333 20030 70025
AAXX 21004 47750 12365 62503 10036 20020 30211 40240 58003 69902 83232 333 20028 70020
AAXX 21004 47765 12/70 70109 10040 21008 30184 40252 51002 60002 81132 333 20028 70000
AAXX 21004 47772 12/65 70603 10062 20015 30140 40243 58003 60002 81101 333 20041 79999
AAXX 21004 47800 15/64 /2401 10057 20020 30246 40251 51003 60002 333 20025
AAXX 21004 47815 12/70 61905 10044 21008 30236 40253 55001 60002 86530 333 20029 70000
AAXX 21004 47817 12965 70203 10074 20029 30206 40251 55001 60002 80002 333 20056 70000
AAXX 21004 47830 12/70 72907 10072 20013 30227 40246 51004 69902 8287/ 333 20049 79999
AAXX 21004 47887 12/75 31205 10071 21006 30208 40250 51001 60002 81131 333 20035 70000
AAXX 21004 47891 12/75 71902 10072 20004 30227 40244 56003 69902 81132 333 20050 79999
AAXX 21004 47895 12/80 72911 10081 21004 30234 40242 52001 60002 81132 333 20060 70000
AAXX 21004 47927 12/70 21206 10217 20167 30134 40183 53011 69902 81130 333 20189 79999
AAXX 21003 91551 31598 69902 10310 20257 40088 58003 70222 82201 333 563/9 59007 82825 86080
AAXX 21003 91553 31598 79902 10305 20256 40092 58002 70222 879// 333 20225 568// 59003 83820 81925 87640
AAXX 21003 91554 11598 60507 10300 20261 40086 58004 60124 70222 86230 333 20225 5619/ 58006 60124 86820
AAXX 21003 91555 31598 79903 10303 20257 40086 58006 70222 84933 333 20255 56999 59009 82825 82928 87075
AAXX 21003 91557 11395 81006 10248 20244 40083 52012 60764 79588 8697/ 333 20240 5619/ 58008 83705 86810 83918 88490
AAXX 21003 91565 11498 81006 10255 20233 40097 54000 69924 72528 889// 333 20225 562// 58006 69924 86718 84820 81922 88640
AAXX 21003 91568 11598 81012 10270 20218 40122 51007 69964 70282 8587/ 333 20220 5639/ 58002 69964 85825 88461
AAXX 21003 91551 31598 69902 10310 20257 40088 58003 70222 82201 333 563/9 59007 82825 86080
AAXX 21003 91553 31598 79902 10305 20256 40092 58002 70222 879// 333 20225 568// 59003 83820 81925 87640
AAXX 21003 91554 11598 60507 10300 20261 40086 58004 60124 70222 86230 333 20225 5619/ 58006 60124 86820
AAXX 21003 91555 31598 79903 10303 20257 40086 58006 70222 84933 333 20255 56999 59009 82825 82928 87075
AAXX 21003 91557 11395 81006 10248 20244 40083 52012 60764 79588 8697/ 333 20240 5619/ 58008 83705 86810 83918 88490
AAXX 21003 91565 11498 81006 10255 20233 40097 54000 69924 72528 889// 333 20225 562// 58006 69924 86718 84820 81922 88640
AAXX 21003 91568 11598 81012 10270 20218 40122 51007 69964 70282 8587/ 333 20220 5639/ 58002 69964 85825 88461
AAXX 21004 86330 11998 11510 10300 20084 40073 53019 69901 70192 81070 333 10405 20291
AAXX 21004 86360 NIL
AAXX 21004 86460 32998 41204 10282 20102 40073 54000 84075 333 1//// 20248
AAXX 21004 86490 31697 40904 10291 20120 40067 56005 71322 81366 333 10379 20271
AAXX 21004 86530 32997 31008 10252 20129 40073 55002 80006 333 10336 20250
AAXX 21004 86545 32997 20906 10240 20158 40078 57005 80001 333 10324 20162
AAXX 21004 86565 32997 20000 10204 20179 40086 53004 80005 333 10273 20202
AAXX 21004 86580 32897 21010 10238 20196 40081 55002 81035 333 10272 20220
AAXX 21004 48421 31950 20000 10165 20158 30028 40146 52024 71000 80005 333 20164 58005
AAXX 21004 48360 31957 00000 10145 20138 39885 40156 52013 71000 333 20141 59002
AAXX 21004 48408 31659 63502 10187 20167 39977 40131 52019 71010 82535 333 20171 59013
AAXX 21003 91487 NIL
AAXX 21003 91490 NIL
AAXX 21003 91533 NIL
AAXX 21003 91601 NIL
AAXX 21003 91610 11599 20917 10300 40064 58015 60001 70200 82100 333 20235 562// 70000
AAXX 21003 91623 NIL
AAXX 21003 91629 NIL
AAXX 21003 91701 NIL
AAXX 21003 91487 NIL
AAXX 21003 91490 NIL
AAXX 21003 91533 NIL
AAXX 21003 91601 NIL
AAXX 21003 91610 11599 20917 10300 20235 40064 58015 60001 70200 82100 333 20235 562// 70000
AAXX 21003 91623 NIL
AAXX 21003 91629 NIL
AAXX 21003 91701 NIL
AAXX 21004 91772 31598 30706 10311 20248 4//// 60001 70210 83200 333 20242 561// 70005 83820
AAXX 21004 91779 31498 40809 10292 20234 40117 58005 60001 70210 82201 333 20220 562/9 70000 82819 84080
AAXX 21004 91784 31498 70306 10294 20246 40115 58004 60001 70222 8223/ 333 20236 5619/ 70352 82817 87361
AAXX 21004 91792 11498 71206 10270 20255 40129 58005 60044 70362 8573/ 333 20229 5639/ 70450 82710 85815 87360
AAXX 21004 04211 45/84 /1111 11097 21134 39857 40020 57001
AAXX 21004 04220 05/84 01013 11127 21179 39955 40009 57005 69911 333 55300 20004 6///7
AAXX 21004 04221 45/69 /0822 11133 21257 39975 40014 57006 333 91136 91032
AAXX 21004 04231 12/84 00609 11170 21245 39949 40026 57007 6///1
AAXX 21004 04234 45984 81010 11079 21199 39975 49985 57009 333 88/59
AAXX 21004 04241 45/84 /0817 11089 21162 39944 49985 57016
AAXX 21004 04250 05884 80615 11079 21147 39869 49976 57009 6///1 333 55300 20000 6///7 81/59 88/62
AAXX 21004 04254 45884 70715 11089 21167 39865 49982 57018 333 83/56 87/59
AAXX 21004 04260 45783 41505 11069 21214 39915 49959 57021 333 83/56 84/70 91216
AAXX 21004 04270 45983 71103 11099 21244 39922 49962 57034 333 81/61 87/72
AAXX 21004 04272 05984 1//// 11091 21188 39881 49955 57028 6///1 333 6///7 81/67
AAXX 21004 04312 46/// ///// 11227 21258 30042 40085 52011
AAXX 21004 04320 47/13 93208 11088 21105 30024 40039 57009 77177 333 89/04 91120 91020
AAXX 21004 04339 45/84 ///// 11114 21134 39833 49925 52008 333 55300 20000
AAXX 21004 04360 06/// /2704 11127 21178 39875 49948 54000 6///1 333 55300 20000 6///7 91117
AAXX 21004 04361 46/// /1804 11114 21200 39896 49950 52003
AAXX 21004 04390 05984 73507 11064 21115 39854 49948 57022 60101 333 60057 83/63 87/64
AAXX 21003 91802 NIL
AAXX 21003 91809 NIL
AAXX 21003 91831 36/// /0808 10288 20226 40126 57007
AAXX 21003 91841 36/// /1109 10285 20205 40119 57018 333 20285
AAXX 21003 91843 31599 40711 10297 20237 40127 57016 60001 70200 84200 333 20244 561// 70000 84825
AAXX 21003 91848 36/// /1306 10307 20216 40141 52038 333 20307
AAXX 21001 44214 32998 03101 11223 21276 38433 40635 58002 333 21232 47001 555 31279
AAXX 21001 44231 329// 23204 11149 21235 38830 40487 54000 80001 333 21170 47009 55013 555 31213
AAXX 21001 44259 32997 02804 11239 21284 39345 40336 53010 333 21244 47011 555 31274
AAXX 21001 44277 329// 32005 11218 21243 37915 40641 53002 81534 333 21245 46000 555 31281
AAXX 21001 44288 32999 03102 11145 21231 38239 40465 52008 333 21170 41998 555 31235
AAXX 21001 44292 118// 22701 11234 21252 38776 40469 52008 69932 70400 82080 333 21235 47007 55026 555 31310 93100
AAXX 21001 44304 32999 12304 11270 21301 39047 40421 52008 81040 333 21272 47011 555 31299
AAXX 21001 44354 32999 63210 11183 21216 39177 40391 54000 86070 333 21192 46002 555 31215 91012
AAXX 21001 44373 32999 02503 11188 21242 38635 40480 51002 333 21193 47006 55078 555 31279
AAXX 21004 48384 31957 20000 10161 20154 39955 40153 51019 71000 80002 333 20153 59010
AAXX 21004 48557 31558 40000 10215 20212 30067 40102 52015 71011 82101 333 20210 58002
AAXX 21004 83384 NIL
AAXX 21004 83386 NIL
AAXX 21004 83388 NIL
AAXX 21004 83393 NIL
AAXX 21004 83442 NIL
AAXX 21004 83479 NIL
AAXX 21004 83483 NIL
AAXX 21004 83531 NIL
AAXX 21004 83538 NIL
AAXX 21004 83574 NIL
AAXX 21004 83582 NIL
AAXX 21004 83595 NIL
AAXX 21004 83687 NIL
AAXX 21004 83692 NIL
AAXX 21004 83695 326// 50000 10278 20236 39990 40125 51010 857// 333 10340 29075 55090
AAXX 21004 83718 325// 80000 10230 20207 39558 40122 51010 887// 333 10304 29/// 55081
AAXX 21004 NIL
AAXX 21004 82143 NIL
AAXX 21004 82599 32570 31212 10263 20230 30060 40120 83100 333 10302 59007
AAXX 21004 82824 42970 50000 10266 20244 39990 40091 85030 333 10301 59002
AAXX 21004 82899 32570 41212 10271 20216 30120 40132 84200 333 10298 59005
AAXX 21004 83117 NIL
AAXX 21004 83248 32470 20808 10272 20237 30118 40140 82100 333 10298 59005
AAXX 21004 83746 31566 42403 10267 20197 30095 40105 51011 71391 82960 333 10356
AAXX 21004 NIL
AAXX 21004 NIL
AAXX 21004 82022 32970 00606 10282 20191 39995 40091 333 10338 59002
AAXX 21004 82193 21570 70503 10258 20246 30088 40106 70296 84230 333 10330 59001 60151
AAXX 21004 82281 32970 00612 10276 20207 30038 40100 333 10328 59012
AAXX 21004 82332 32570 21902 10283 20257 39993 40085 82100 333 10328 59010
AAXX 21004 82398 32470 50810 10263 20232 30086 40115 85500 333 10305 59006
AAXX 21004 82400 NIL
AAXX 21004 82579 32970 43101 10309 20212 39998 40074 80001 333 10372 59017
AAXX 21004 82917 32570 50000 1//// 2//// 39864 4//// 83230 333 10269 59005
AAXX 21004 82965 31570 70000 10245 20237 39778 40106 71322 81931 333 10314 58000
AAXX 21004 82993 32570 20804 10235 20222 30000 40136 82100 333 10288 59005
AAXX 21004 83208 32570 50801 10220 20215 39415 48530 82230 333 10299 58004
AAXX 21004 83349 32970 00605 10267 20214 30138 40144 333 10298 59005
AAXX 21004 83362 21570 33610 10241 20213 39884 40099 72991 84200 333 10330 58014 69921
AAXX 21004 83378 21670 70704 10192 20172 38971 48530 70262 85530 333 10258 59004 60031
AAXX 21004 83460 32570 70304 10235 20214 30085 40142 81104 333 10284 59005
AAXX 21004 83497 NIL
AAXX 21004 83566 32570 50000 10194 20181 39215 48530 82130 333 10236 59005
AAXX 21004 83599 NIL
AAXX 21004 83612 32970 23603 10275 20178 39463 48510 51008 82200 333 10323
AAXX 21004 83649 32570 70311 10254 20221 30124 40129 52012 83530 333 10320
AAXX 21004 83650 NIL
AAXX 21004 83780 32470 21403 10248 20101 39233 48540 53009 82500 333 10308
AAXX 21004 83827 32970 00802 10241 20148 39810 40081 53012 333 10371
AAXX 21004 83840 32970 00602 10205 20118 39112 48520 51012 333 10299
AAXX 21004 83899 32970 01603 10227 20208 30098 40104 53014 333 10338
AAXX 21004 83925 NIL
AAXX 21004 83970 NIL
AAXX 21004 83971 32970 01113 10246 20195 30073 40077 52019 333 10359
AAXX 21004 83437 NIL
AAXX 21004 83550 215// 8//// 10244 20234 30093 40123 70251 885// 333 10308 29083 55006 58000 69961
AAXX 21004 83552 NIL
AAXX 21004 83565 NIL
AAXX 21004 83579 NIL
AAXX 21004 83592 NIL
AAXX 21004 83623 NIL
AAXX 21004 83630 NIL
AAXX 21004 83676 NIL
AAXX 21004 83698 32/// 60000 10256 20233 30095 40109 51010 866// 333 10338 29076 55///
AAXX 21004 83702 NIL
AAXX 21004 83704 NIL
AAXX 21004 83716 NIL
AAXX 21004 83726 NIL
AAXX 21004 83738 31/// 20000 10214 20186 39628 40123 52006 71390 82300 333 10324 29075 55054
AAXX 21004 61902 32584 71210 10234 20171 40155 878// 333 58003 82827 87638
AAXX 21004 NIL
AAXX 21004 NIL
AAXX 21004 NIL
AAXX 21004 NIL
AAXX 21001 30372 12999 60000 11261 21316 39365 40324 52015 69902 82042 333 21261 47009 55000
AAXX 21001 30433 32999 03201 11226 21292 39721 40374 52007 333 21223 47003 55037
AAXX 21001 30554 329// 60000 11234 21300 39146 40335 52020 80001 333 21239 47009 55031
AAXX 21001 30635 328// 21001 11185 21197 39739 40357 52007 82030 333 21186 47014
AAXX 21001 30673 NIL
AAXX 21001 30692 11595 80000 11214 21232 39671 40204 52/// 60022 77372 8802/ 333 21219 55000
AAXX 21001 30758 32984 23301 11206 21264 39432 40321 52017 82031 333 21207 47003 55027
AAXX 21001 30802 32799 22709 11095 21171 38755 48536 57009 82501 333 21120 47005 55047 91118
AAXX 21001 30823 32999 82404 11158 21200 39688 40368 52003 86031 333 21165 47008 55000
AAXX 21001 30879 12999 00000 11294 21311 39397 40242 52003 69902 333 21299 47005 55040
AAXX 21001 30935 NIL
AAXX 21001 30949 32699 13202 11184 21225 39159 40331 52010 81100 333 21196 47003 55000
AAXX 21001 30965 32999 33501 11216 21248 39387 40280 52014 80002 333 21218 47005 55030
AAXX 21001 31168 32999 20502 11213 21246 30184 40196 52010 80001 333 21220 47025 55039
AAXX 21001 31300 11995 80402 11205 21211 39875 40185 58002 60032 77372 8802/ 333 21225 47012
AAXX 21001 31329 32999 80000 11340 21368 39518 40279 57007 80004 333 21362 55064
AAXX 21001 31369 32999 00000 11267 21285 30133 40226 53009 333 21275 47046
AAXX 21001 31416 31998 60000 11332 21350 30133 40234 53003 77171 86020 333 21357 47009 55069
AAXX 21001 31484 32999 80000 11297 21315 39858 40237 53003 80001 333 21302 47011
AAXX 21001 31512 119// 80000 11226 21251 39989 40170 54000 69902 77171 8802/ 333 21251 47///
AAXX 21001 31538 32999 50000 11316 21333 39763 40256 57012 80001 333 21326 47019
AAXX 21001 31707 32999 80000 11237 21256 30114 40215 57001 81081 333 21246 47004
AAXX 21001 31735 32997 31502 11198 21232 30134 40230 56002 80001 333 21236 47012
AAXX 21001 31770 32999 02302 11213 21253 30204 40237 52005 333 21237 48032 55071
AAXX 21003 NIL
AAXX 21004 87007 31663 20902 10104 20056 36741 47150 52016 71396 81923 333 10192 20094 56666 57986 69961 81942
AAXX 21004 87022 32960 50000 10300 20184 39529 40015 53021 80006 333 10385 20267
AAXX 21004 87046 32965 12705 10292 20148 39053 48458 52017 80001 333 10350 20265 56000 81070 98365
AAXX 21004 87047 32970 13603 10261 20139 38750 48474 53016 81030 333 10320 20219 56050 81360
AAXX 21004 87097 32960 01804 10284 20178 39782 40086 52009 333 10362 20250
AAXX 21004 87121 NIL
AAXX 21004 87129 32965 00205 10342 20141 39782 40002 53008 333 10422 20294
AAXX 21004 87148 NIL
AAXX 21004 87155 31950 00906 10315 20150 39998 40056 52012 70400 333 10406 20199
AAXX 21004 87162 31935 00905 10293 20161 39993 40059 53012 70400 333 10410 20293
AAXX 21004 87166 31956 00705 10304 20158 39988 40058 52009 70400 333 10403 20210
AAXX 21004 87178 31956 00000 10306 20148 39932 40072 53009 70500 333 10387 20292
AAXX 21004 87217 32970 00506 10367 20122 39496 49955 52014 333 10436 20308
AAXX 21004 87222 32970 00211 10355 20124 39474 49963 53008 333 10410 20317
AAXX 21004 87257 32960 00509 10340 20106 39925 40023 53004 333 10429 20295
AAXX 21004 87270 31950 00505 10307 20177 39992 40052 53009 70500 333 10407 20297
AAXX 21004 87289 31958 31409 10306 20156 39990 40070 53013 70590 83070 333 10400 20304 56030 83360
AAXX 21004 87311 32965 01606 10338 20093 39334 49975 53008 333 10395 20280 55510025 64167 65090
AAXX 21004 87320 32970 00000 10378 20140 39480 49975 53007 333 10425 20298
AAXX 21004 87328 31970 03410 10329 20052 39381 49996 51012 70400 333 10403 20278 95090
BBXX 41037 21001 99340 70775 46/// /1905 10193 40217 52006 90000 22200 00191 333 91205
AAXX 21001 20107 41497 80302 11063 21108 30006 40103 52004 78582 889// 333 91004
AAXX 21001 22113 41461 81905 11027 21043 39948 40011 52005 78582 889// 333 91008
AAXX 21001 22217 41463 82001 11009 21013 30013 40045 52010 70282 889// 333 85638 91003 93730
AAXX 21001 22235 42376 82402 11019 21021 39853 40049 52007 886// 333 91003
AAXX 21001 22349 41596 82206 10008 21003 30044 40056 52004 78082 889// 333 91007 91111
AAXX 21001 22408 42382 82301 11009 21009 39922 40072 52012 886// 333 88708
AAXX 21001 22602 41459 82502 10000 21006 39856 40082 52010 77172 8872/ 333 88711
AAXX 21001 22619 41580 52501 10001 21010 39939 40101 52012 70282 85500 333 85624
AAXX 21001 22721 41598 81801 10007 20004 30011 40112 52009 70272 885// 333 86622
AAXX 21001 22802 41584 72002 10010 20002 30097 40120 51006 70282 87500
AAXX 21001 22820 42984 72203 11002 21014 39992 40132 52005 87030
AAXX 21001 26059 42497 81502 11006 21018 30108 40133 57004 886// 333 88713
AAXX 21001 26063 42497 70000 11004 21028 30129 40137 58002 87500 333 87620
AAXX 21001 26094 42967 00601 11055 21059 30073 40152 57010
AAXX 21001 26157 42497 81702 11009 21019 30085 40136 58005 885// 333 86712
AAXX 21001 26167 42368 81401 11025 21041 30026 40141 57010 886// 333 88709
AAXX 21001 26258 42998 83601 11022 21034 30081 40137 57010 8802/
AAXX 21001 26298 41496 80702 11033 21037 39910 40146 57020 71022 886//
AAXX 21001 26359 42999 00301 11050 21060 39996 40135 57017
AAXX 21001 26702 41996 00000 11054 21058 30093 40120 57007 71100 333 91000 91101
AAXX 21001 26781 41396 80803 11021 21027 39789 40087 57019 77172 8872/ 333 86707
AAXX 21001 27208 41294 80701 11032 21036 39963 40144 57024 77374 8872/
AAXX 21001 27402 41294 80803 11027 21031 39958 40142 57022 77372 8872/ 333 88703
AAXX 21004 NIL
AAXX 21004 40360 32960 00902 10070 21010 39601 40194 333 59035
AAXX 21001 38598 429// 02702 11110 21139 40457 57008
AAXX 21001 38599 NIL
AAXX 21001 38725 425// 70902 11110 21296 37575 48550 52011 86902
AAXX 21001 38734 NIL
AAXX 21001 38744 416// 80000 11136 21156 38055 48500 57011 71182 889//
AAXX 21001 38836 426// 60000 10132 21167 39396 40426 57011 84901
AAXX 21001 38838 NIL
AAXX 21001 38844 NIL
AAXX 21001 38846 NIL
AAXX 21001 38847 NIL
AAXX 21001 38932 NIL
AAXX 21001 38933 429// 00000 11062 21104 39861 40413 57004
AAXX 21001 38944 429// 00000 11072 21085 39684 40254 57013
AAXX 21001 38954 429// 00000 11091 21220 37983 48590 58009
AAXX 21001 22271 41498 82008 11002 21019 30046 40056 58002 72683 883//
AAXX 21001 22520 41498 82103 10009 20001 30058 40067 52012 70282 885// 333 88617
AAXX 21001 22550 41570 82105 10008 21018 30101 40111 52002 70282 885// 333 88630
AAXX 21001 22583 42484 71802 11008 21033 30078 40159 58001 875// 333 87619
AAXX 21001 22768 42997 02003 11042 21061 30125 40182 58006
AAXX 21001 22845 42398 71903 11041 21043 30012 40172 58003 885// 333 85707
AAXX 21001 22887 42597 71805 11050 21067 30161 40234 57004 8355/ 333 91110
AAXX 21001 23205 41496 82205 11009 21028 30099 40114 51002 78583 889// 333 87712 91109
AAXX 21001 23219 NIL
AAXX 21001 23418 41437 81906 11044 21067 30143 40219 58002 77373 8552/ 333 85613
AAXX 21001 23606 41460 82006 11066 21090 30065 40244 58002 73632 885// 333 88610
AAXX 21001 23711 41498 81803 11083 21111 30109 40291 58010 70272 885//
AAXX 21001 23804 41397 82003 11086 21093 30112 40268 58007 70232 885// 333 84707
AAXX 21001 27037 42498 81102 11037 21045 30025 40191 57020 8672/ 333 86710
AAXX 21001 27199 41495 81502 11090 21101 30085 40294 57016 77373 8872/
AAXX 21001 27271 41995 80904 11085 21092 30085 40249 57021 77372 8802/
AAXX 21001 27459 41397 81704 11072 21089 30015 40219 57019 77172 8872/ 333 88707
AAXX 21001 27730 41396 81604 11048 21054 39963 40163 57019 71062 886// 333 88708
AAXX 21001 26997 41441 81403 10006 20001 39856 40077 57011 71072 886// 333 88710
AAXX 21001 27595 42997 81402 11070 21108 30148 40304 57020 8005/
AAXX 21001 27612 414// 81802 11043 21052 39944 40143 57017 77372 8872/
AAXX 21001 27707 41836 81104 11017 21020 39798 40095 57016 71072 8802/
AAXX 21001 27719 41496 81304 11036 21038 39881 40138 57011 78572 883//
AAXX 21001 27786 42497 81406 11077 21122 30137 40307 57013 8555/
AAXX 21001 27857 42497 81406 11066 21078 30041 40212 57012 886// 333 88710 91113 93401
AAXX 21001 27906 41497 81106 10002 21003 39854 40097 57014 70282 886// 333 93402
AAXX 21001 27928 41396 81602 11015 21023 39928 40139 57015 71022 886// 333 93403
AAXX 21001 27947 41497 81307 11046 21062 30022 40186 57020 70262 886// 333 88710 934//
AAXX 21001 27962 41497 81309 11086 21105 30021 40253 57017 73632 885// 333 88611
AAXX 21001 27983 42566 71504 11089 21128 30184 40321 57018 875// 333 87620 91112
AAXX 21001 27995 42971 51504 11083 21135 40343 57012 82011
AAXX 21001 28506 42997 81703 11055 21126 30231 40351 57017 8807/
AAXX 21001 28704 41498 81707 11076 21116 30240 40341 57015 73632 8802/ 333 88512 91010 91112
AAXX 21001 28711 41697 81909 11078 21163 39970 40367 57018 73632 8555/ 333 85643 91014 91114 1/109
AAXX 21001 28807 42597 81606 11070 21133 30306 40360 57014 8357/
AAXX 21001 34009 41/93 91504 10001 20001 39789 40096 57011 78084 333 96045
AAXX 21001 34110 41496 81702 10004 21002 39833 40113 57013 71022 886// 333 88715
AAXX 21001 34123 41296 81305 11007 21014 39958 40145 57012 71022 886// 333 88706 93402
AAXX 21001 34152 42470 81205 11054 21068 30005 40209 57019 889// 333 88916 93400
AAXX 21001 34163 42498 81006 11089 21109 40266 57014 885// 333 88619
AAXX 21001 34171 42560 81406 11084 21117 30072 40276 56013 885// 333 88625
AAXX 21001 34186 41978 71508 11099 21141 30168 40315 57010 73631 86021 333 91012 91113
AAXX 21001 34247 NIL
AAXX 21001 34336 42997 81203 10003 20000 30052 40157 57013 8802/
AAXX 21001 34391 42997 21405 11090 21124 30278 40311 57010 82070
AAXX 21001 35011 42984 81206 11094 21163 30258 40422 57006 8807/ 333 91112
AAXX 21001 35121 42998 31404 11127 21175 30306 40465 57010 80001
BBXX 46060 21001 99606 71468 46/// /1212 10025 40101 92350 22200 00057 333 91215 555 11131 22138 32331 41215 62349 118122 122122 124112 124105 124088 123082 81214 92332
AAXX 21001 22028 41580 72410 11013 21030 39967 40005 54000 73632 82535 333 91014 91114
AAXX 21001 22106 41597 80000 11036 21041 39942 40021 52008 78582 889// 333 86922
AAXX 21001 22127 42598 80000 11068 21080 39828 40034 52008 885// 333 88631 93503
AAXX 21001 22324 42584 82202 11006 21009 30002 40052 52008 885// 333 91003 93603
AAXX 21001 22621 41498 72104 10005 21003 39952 40092 52010 70282 87900 333 84916
AAXX 21001 22831 42497 71701 11010 21023 30093 40154 52003 87900
AAXX 21001 22892 41597 82204 10025 20009 30102 40118 52009 70282 8697/ 333 86922
AAXX 21001 26275 41996 70701 11044 21050 30108 40140 57016 71011 80001
AAXX 21001 26389 41496 80602 11032 21043 39855 40125 57024 71022 886//
AAXX 21001 26499 41296 80503 11026 21033 39894 40128 57023 77174 8872/ 333 87704
AAXX 21001 26695 41296 80903 11032 21036 39800 40115 57020 77172 8672/ 333 86706
AAXX 21001 26882 41342 80902 11018 21026 39799 40079 57019 77172 8872/ 333 88709
BBXX V7NV4 21004 99300 71531 41898 61918 10210 20180 40220 56020 7//21 84466 22263 00230 20204 31818 40204 50204 6//// 80190 ICE /////
BBXX WXJ63 21003 99611 71464 41/93 80204 11002 21005 40106 5//// 773// 8//// 222// 00039 2//// 3//// 4//// 5//// 6//// 8//// ICE /////
BBXX WACW 21004 99600 71459 41297 82038 10038 2003/ 40150 57016 77272 8864/ 22233 00060 20202 316// 40509 5//// 6//// 80035 ICE /////
BBXX WKAB 21003 99360 10176 41598 32919 10120 20083 40179 57010 7//00 83/// 22224 00177 21002 330// 41003 5//// 6//// 80100 ICE /////
AAXX 21001 28676 426// 62002 11124 21159 30347 40484 57005 85530 555 1/113
AAXX 21001 28766 419// 02105 11140 21164 30289 40495 57002 71011 555 1/116
AAXX 21001 28867 42598 32305 11164 21198 30232 40530 53001 83500 555 1/117
AAXX 21001 28879 429// 02507 11104 21159 30207 40515 58004 555 1/112
AAXX 21001 28952 429// 02003 11168 21194 30320 40531 54000 555 1/118
AAXX 21001 28966 425// 21802 11206 21233 30237 40554 57004 82500 555 1/123
AAXX 21001 29802 429// 82502 11169 21201 30325 40481 57004 85031 555 1/117
AAXX 21001 29807 429// 72401 11215 21233 30362 40494 58036 80005 555 1/124
AAXX 21001 34691 42998 61408 11061 21125 30298 40285 57011 80002 555 1/106
AAXX 21001 35067 429// 00502 11279 21307 30255 40574 57006 555 1/126
AAXX 21001 35078 429// 01902 11272 21302 30142 40577 57006 555 1/128
AAXX 21001 35085 429// 00000 11268 21292 30021 40565 57003 555 1/130
AAXX 21001 35108 419// 21607 11090 21135 30328 40377 57010 73633 80001
AAXX 21001 35188 425// 61502 11276 21304 30082 40581 57006 86600 555 1/128
AAXX 21001 35217 415// 71408 11104 21132 30357 40399 57016 70332 87500 333 91115 555 1/112
AAXX 21001 35229 429// 21801 11188 21210 30204 40507 57011 80001 555 1/127
AAXX 21001 35302 419// 01808 11095 21136 30347 40369 57010 73633 555 1/111
AAXX 21001 35357 429// 00000 11306 21329 30076 40583 57008 555 1/131
AAXX 21001 35394 42998 00000 11256 21283 39809 40579 57010 555 1/131
AAXX 21001 35406 419// 01718 11108 21161 30371 40373 57014 73633 333 91123 555 1/113
AAXX 21001 35416 419// 21408 11137 21204 30318 40449 56006 73631 81071 333 91116 555 1/115
AAXX 21001 35426 429// 01004 11178 21212 30184 40506 58013 555 1/122
AAXX 21001 35497 429// 00000 11237 21276 39665 40563 57016 555 1/128
AAXX 21001 35532 41998 01114 11186 21212 39981 40526 58010 73633 333 91018 555 1/119
AAXX 21001 35671 42998 03201 11229 21253 30076 40560 57011 555 1/126
AAXX 21001 35700 41998 01312 11087 21130 30376 40351 57014 70230 333 91016 91120 555 1/110
AAXX 21001 35746 429// 00403 11202 21228 30451 40526 57013 555 1/121
AAXX 21001 35796 42997 00304 11229 21260 30045 40534 57016 555 1/125
AAXX 21001 35849 42998 00502 11203 21236 30414 40510 57014 555 1/119
AAXX 21001 35925 429// 01608 11149 21176 40316 40437 57018 555 1/116
AAXX 21001 35953 429// 00706 11223 21248 30365 40511 57014 555 1/124
AAXX 21001 35969 429// 00000 11256 21288 30337 40535 57008 555 1/126
AAXX 21001 36003 42998 01801 11275 21294 30342 40515 57011 555 1/131
AAXX 21001 36152 NIL
AAXX 21001 36177 429// 01101 11244 21265 30266 40544 57016 555 1/126
AAXX 21001 36208 429// 00501 11234 21263 39449 40542 57024 555 1/127
AAXX 21001 36397 429// 00000 11220 21247 39922 40549 57013 555 1/123
AAXX 21001 36428 419// 00202 11277 21302 30013 40584 58008 77600 333 95090 555 1/132
AAXX 21001 36535 429// 00000 11345 21367 39871 40616 57011 555 1/138
AAXX 21001 36639 429// 00000 11292 21312 39836 40529 57019 555 1/133
AAXX 21001 36821 415// 80000 11205 21231 39975 40519 57012 78581 889// 333 91100
AAXX 21001 36859 429// 80000 11130 21150 39637 40478 57015 8807/ 333 91103 555 1/112
AAXX 21001 36864 428// 80703 11184 21210 39519 40504 57012 8807/ 555 91105
AAXX 21001 36870 429// 80000 11179 21198 39377 40489 57012 80002 333 91102 555 1/120
AAXX 21001 38001 42997 20513 10010 21154 30288 40258 57008 80002 333 91123 555 10100
AAXX 21001 38062 429// 00504 11215 21255 30322 40505 57002 555 1/120
AAXX 21001 38069 429// 01103 11182 21215 30256 40468 57010
AAXX 21001 38196 41996 00504 11106 21206 39402 40451 58007 73833
AAXX 21001 38198 429// 00000 11143 21186 30184 40468 57002 555 1/118
AAXX 21001 38222 42997 00000 11204 21223 39885 40510 57010 555 1/124
AAXX 21001 38232 42998 01007 11069 21131 30281 40386 57004 555 14109
AAXX 21001 38328 415// 71501 11114 21134 39659 40445 56002 71022 87500 555 1/114
AAXX 21001 38334 42997 53602 11156 21207 39406 40457 57007 82081 555 1/115
AAXX 21001 38341 42997 82002 11203 21228 39629 40507 57010 8802/ 555 1/118 91104
AAXX 21001 38343 42697 80000 11190 21209 39562 40497 57009 885//
AAXX 21001 38439 42998 20000 11132 21175 30082 40451 57006 80001 555 14111
BBXX 44067 21001 99384 70770 46/// /2003 10103 40206 90000
BBXX 44033 21001 99441 70690 46/30 /3102 11019 40226 51022 90004 22200 00069 11101 70004 333 91205 555 11026 22027
AAXX 21001 28676 426// 62002 11124 21159 30347 40484 57005 85530 555 1/113
AAXX 21001 28766 419// 02105 11140 21164 30289 40495 57002 71011 555 1/116
AAXX 21001 28867 42598 32305 11164 21198 30232 40530 53001 83500 555 1/117
AAXX 21001 28879 429// 02507 11104 21159 30207 40515 58004 555 1/112
AAXX 21001 28952 429// 02003 11168 21194 30320 40531 54000 555 1/118
AAXX 21001 28966 425// 21802 11206 21233 30237 40554 57004 82500 555 1/123
AAXX 21001 29802 429// 82502 11169 21201 30325 40481 57004 85031 555 1/117
AAXX 21001 29807 429// 72401 11215 21233 30362 40494 58036 80005 555 1/124
AAXX 21001 34691 42998 61408 11061 21125 30298 40285 57011 80002 555 1/106
AAXX 21001 35067 429// 00502 11279 21307 30255 40574 57006 555 1/126
AAXX 21001 35078 429// 01902 11272 21302 30142 40577 57006 555 1/128
AAXX 21001 35085 429// 00000 11268 21292 30021 40565 57003 555 1/130
AAXX 21001 35108 419// 21607 11090 21135 30328 40377 57010 73633 80001
AAXX 21001 35188 425// 61502 11276 21304 30082 40581 57006 86600 555 1/128
AAXX 21001 35217 415// 71408 11104 21132 30357 40399 57016 70332 87500 333 91115 555 1/112
AAXX 21001 35229 429// 21801 11188 21210 30204 40507 57011 80001 555 1/127
AAXX 21001 35302 419// 01808 11095 21136 30347 40369 57010 73633 555 1/111
AAXX 21001 35357 429// 00000 11306 21329 30076 40583 57008 555 1/131
AAXX 21001 35394 42998 00000 11256 21283 39809 40579 57010 555 1/131
AAXX 21001 35406 419// 01718 11108 21161 30371 40373 57014 73633 333 91123 555 1/113
AAXX 21001 35416 419// 21408 11137 21204 30318 40449 56006 73631 81071 333 91116 555 1/115
AAXX 21001 35426 429// 01004 11178 21212 30184 40506 58013 555 1/122
AAXX 21001 35497 429// 00000 11237 21276 39665 40563 57016 555 1/128
AAXX 21001 35532 41998 01114 11186 21212 39981 40526 58010 73633 333 91018 555 1/119
AAXX 21001 35671 42998 03201 11229 21253 30076 40560 57011 555 1/126
AAXX 21001 35700 41998 01312 11087 21130 30376 40351 57014 70230 333 91016 91120 555 1/110
AAXX 21001 35746 429// 00403 11202 21228 30451 40526 57013 555 1/121
AAXX 21001 35796 42997 00304 11229 21260 30045 40534 57016 555 1/125
AAXX 21001 35849 42998 00502 11203 21236 30414 40510 57014 555 1/119
AAXX 21001 35925 429// 01608 11149 21176 40316 40437 57018 555 1/116
AAXX 21001 35953 429// 00706 11223 21248 30365 40511 57014 555 1/124
AAXX 21001 35969 429// 00000 11256 21288 30337 40535 57008 555 1/126
AAXX 21001 36003 42998 01801 11275 21294 30342 40515 57011 555 1/131
AAXX 21001 36152 NIL
AAXX 21001 36177 429// 01101 11244 21265 30266 40544 57016 555 1/126
AAXX 21001 36208 429// 00501 11234 21263 39449 40542 57024 555 1/127
AAXX 21001 36397 429// 00000 11220 21247 39922 40549 57013 555 1/123
AAXX 21001 36428 419// 00202 11277 21302 30013 40584 58008 77600 333 95090 555 1/132
AAXX 21001 36535 429// 00000 11345 21367 39871 40616 57011 555 1/138
AAXX 21001 36639 429// 00000 11292 21312 39836 40529 57019 555 1/133
AAXX 21001 36821 415// 80000 11205 21231 39975 40519 57012 78581 889// 333 91100
AAXX 21001 36859 429// 80000 11130 21150 39637 40478 57015 8807/ 333 91103 555 1/112
AAXX 21001 36864 428// 80703 11184 21210 39519 40504 57012 8807/ 555 91105
AAXX 21001 36870 429// 80000 11179 21198 39377 40489 57012 80002 333 91102 555 1/120
AAXX 21001 38001 42997 20513 10010 21154 30288 40258 57008 80002 333 91123 555 10100
AAXX 21001 38062 429// 00504 11215 21255 30322 40505 57002 555 1/120
AAXX 21001 38069 429// 01103 11182 21215 30256 40468 57010
AAXX 21001 38196 41996 00504 11106 21206 39402 40451 58007 73833
AAXX 21001 38198 429// 00000 11143 21186 30184 40468 57002 555 1/118
AAXX 21001 38222 42997 00000 11204 21223 39885 40510 57010 555 1/124
AAXX 21001 38232 42998 01007 11069 21131 30281 40386 57004 555 14109
AAXX 21001 38328 415// 71501 11114 21134 39659 40445 56002 71022 87500 555 1/114
AAXX 21001 38334 42997 53602 11156 21207 39406 40457 57007 82081 555 1/115
AAXX 21001 38341 42997 82002 11203 21228 39629 40507 57010 8802/ 555 1/118 91104
AAXX 21001 38343 42697 80000 11190 21209 39562 40497 57009 885//
AAXX 21001 38439 42998 20000 11132 21175 30082 40451 57006 80001 555 14111
BBXX OVZV2 21000 99063 50308 41/98 21211 10264 20229 40129 51007 70200 82500 22253 00277 20304 31300 40404 5//// 80240
BBXX ONDY 21004 99356 30209 41698 32212 10190 2016/ 40120 58020 70111 834// 22223 00209 2//// 3//// 4//// 5//// 6//// 80170 ICE /////
BBXX TBWUK42 21004 99353 30246 41798 50615 10225 20187 40092 57030 70261 8356/ 22222 20402 324// 40605 5//// 80201
BBXX SERW 21003 99263 70162 43/98 00418 10204 2//// 40237 51010 70200 80000 22252 06204 2//// 3//// 4////
BBXX OZDM2 21004 99204 10387 41997 40308 10260 20225 40142 56007 70211 83041 22234 04280 20101 30000 80235
BBXX UBAU 21001 99130 70174 41/98 90404 10250 40159 54000 70000 22242 04243 20100
BBXX A8RL4 21004 99032 50070 41/98 21709 10245 20209 40140 52010 7//22 828// 22233 00260 299// 80220
BBXX PCIM 21004 99154 10573 41/98 10221 10253 20198 40145 58010 70200 81130 22234 00247 20404 80215
BBXX A8UU3 21004 99266 70316 41998 01114 10210 20195 40230 56010 7//00 80000 22233 2//// 312// 40502 80200
BBXX DEIR 21003 99259 30572 41497 70318 10240 20196 40160 54000 70200 8677/ 22223 04235 20605 80210
BBXX V7LZ9 21004 99260 30452 41/97 /0913 10230 20201 40080 56000 70011 8/465 22254 00180 2//// 3//// 4//// 5//// 80210
BBXX PHQW 21003 99168 70177 41/98 /3621 10230 20179 40145 51007 7//// 8//// 22283 00231 2//// 80196 90585
BBXX 46111 21001 99481 71227 46/// /3207 10087 40246 55008 90000 22200 00057
BBXX 46112 21001 99481 71227 46/// /2505 10086 40247 57005 90000
BBXX 44255 21001 99473 70573 46/// /2814 11013 40031 52045 22200 00039 10706 70031 333 91217
BBXX DIHE 21004 99446 70562 41/98 /3133 10010 21002 40080 52020 77222 8//// 22224 00050 2//// 80005
BBXX DDSB2 21003 99277 70582 41598 50415 10220 20149 40240 52010 70122 8318/ 22214 20402 334// 41209 80175
BBXX WABS 21004 99461 71259 41498 73421 10083 2006/ 40290 54000 7//22 872// 22283 0//// 20205 333// 40612 5//// 6//// 80072 ICE /////
BBXX A8SI3 21003 99533 71463 43497 81827 10070 2003/ 40260 57050 22264 00040 20606 320// 40807 80050
BBXX SFIR 21004 99451 70457 43/97 22130 10075 40035 58002 22223 00100 2//08 4//06
BBXX MINFR00 2100/ 99242 70750 46/// ///// 10230 40211 52003
BBXX 41053 21001 99185 70661 46/// /0609 10259 40174 53014 90000 22200 00273 11206 70030 333 91212
BBXX 41053 21001 99185 70661 46/// /0609 10262 40171 92340 333 91211
BBXX 41053 21001 99185 70661 46/// /0609 10260 40173 92350 333 91211
BBXX 44139 21001 99442 70571 46/// /3115 10017 40107 52048 22200 00093 10908 70042 333 91219
BBXX 46060 21001 99606 71468 46/// /1212 10025 40101 92350 22200 00057 333 91215 555 11131 22138
BBXX WACW 21004 99600 71459 41297 82038 10038 2003/ 40150 57016 77272 8864/ 22233 00060 20202 316// 40509 5//// 6//// 80035 ICE /////
BBXX OYCY2 21004 99535 71574 41797 62524 10050 2000/ 40050 51010 70300 8418/ 22273 00080 20808 325// 41412 5//// 6//// 80030 ICE /////
BBXX WDB9949 21004 99527 71554 41598 62421 10050 2003/ 40040 5//// 70122 8684/ 22273 00030 20503 324// 41309 5//// 6//// 80040 ICE /////
BBXX WDE9586 21003 99427 71409 41498 81612 10140 2012/ 40305 57005 7//22 884// 22214 00120 20202 328// 40905 5//// 6//// 80130 ICE /////
BBXX V7NV4 21004 99300 71531 41898 61918 10210 20180 40220 56020 7//21 84466 22263 00230 20204 31818 40204 50204 6//// 80190 ICE /////
BBXX C6OT4 21004 99181 71481 41397 41227 10242 20206 40175 58019 70366 84417 22223 04249 20208 31010 40208 50309 80218
BBXX DCLH2 21003 99224 71143 41598 43210 10186 20107 40124 57003 70200 83101 22263 06210 20202 3//// 4//// 5//// 80140
BBXX WDC6736 21004 99328 70655 43/// /2809 10190 2012/ 40250 54005 7//// 8//// 22211 00240 2//// 3//// 4//// 5//// 6//// 80150 ICE /////
BBXX PECF 21003 99186 70778 41498 40913 10265 20219 40155 53/// 70182 84200 22263 20402 309// 40704 80232
BBXX A8IH2 21003 99357 71261 41/97 /3617 10160 20144 40200 54000 70122 8///2 22213 06140 20503 33633 40504 503// 80150
BBXX DHBN 21001 99334 71698 41/97 82303 10230 20201 40165 57020 70222 8/72/ 22224 00210 20503 326// 40804 5//// 80210
BBXX C6VR5 21003 99202 70586 41296 70427 10248 20185 40195 51016 70222 8/7// 22224 04265 20905 302// 41406 80208
BBXX 41038 21001 99341 70777 46/// /2004 10157 40223 52009 90000 22200 00138 333 91205
BBXX OWFD2 21001 99297 70400 41/97 /1712 10220 20198 40161 57035 70355 8//// 22254 04210 20802 80205
BBXX 42364 21001 99291 70881 46/// /1509 10222 20206 40159 55000 90000
BBXX 42363 21001 99282 70892 46/// /1706 10228 20194 40153 55000 90000 333 91207
BBXX A8IP3 21003 99312 70590 41597 63014 10200 20102 40255 53010 70222 8587/ 22214 04220 20509 334// 41209 80143
BBXX DHEE 21003 99270 70757 41/98 30821 10220 20166 40235 52010 70111 8//// 22234 00250 2//// 80185
BBXX PCEX 21003 99101 70799 41/98 60425 10270 20228 40082 57010 70382 8//// 22283 2//// 80240
BBXX A8NQ5 21003 99474 70494 41/94 /1021 10005 21005 49920 57030 72452 8//// 22254 29902 399// 4//// 80001
BBXX PDHW 21003 99454 70381 41/97 72535 10130 20094 40030 52010 70211 8661/ 22263 00140 21010 80110
BBXX C6VG7 21004 99204 70740 415// 40630 10250 2//// 40180 5/010 7//11 84/6/ 22244 0//// 20305 3//// 40305 50305 6//// 8//// ICE /////
BBXX DFCW2 21004 99077 70937 41398 71620 10264 20223 40055 58007 70152 8577/ 22284 04266 20601 322// 41203 5//// 80235
BBXX 44099 21001 99369 70757 46/// ///// 1//// 92352 22200 00116 11301 20701 308// 41301 70007
BBXX 46214 21001 99379 71235 46/// ///// 1//// 92355 22200 00118 11305 21004 330// 41304 70027
BBXX 46211 21001 99469 71242 46/// ///// 1//// 92336 22200 00086 11507 21004 328// 41506 70035
BBXX 46001 21001 99563 71480 46/// /1916 10056 40098 58028 92350 22200 00049 10910 20607 300// 40907 70050 333 91219 555 11171 22184 32322 42020 62349 190159 191157 190159 190160 192157 192158
BBXX NWS0003 21004 99539 71665 43/// /0000 10012 21028 49974 5//// 7//// 8//// 222// 0//// 2//// 3//// 4//// 5//// 6//// 8//// ICE /////
BBXX NWS0029 21004 99352 70618 43/// /2727 10194 20146 40210 5//// 7//// 8//// 222// 04217 2//// 3//// 4//// 5//// 6//// 8//// ICE /////
BBXX 46229 21001 99438 71246 46/// ///// 1//// 92351 22200 00100 11406 20902 329// 41405 70030
BBXX 46224 21001 99332 71175 46/// ///// 1//// 92336 22200 00150 11301 21001 326// 41301 70007
BBXX 46219 21001 99332 71199 46/// ///// 1//// 92358 22200 00140 11305 21003 331// 41304 70024
BBXX 46243 21001 99462 71241 46/// ///// 1//// 92359 22200 00082 11406 21003 326// 41405 70028
BBXX 46215 21001 99352 71209 46/// ///// 1//// 92338 22200 00160 11103 21002 327// 41103 70016
BBXX 46247 21001 99378 71228 46/// ///// 1//// 92351 22200 00114 11404 21003 328// 41403 70022
BBXX 46232 21001 99325 71174 46/// ///// 1//// 92338 22200 00152 11503 21002 327// 41502 70015
BBXX 46225 21001 99329 71174 46/// ///// 1//// 92344 22200 00148 11502 21001 328// 41501 70009
BBXX 46213 21001 99403 71247 46/// ///// 1//// 92354 22200 00100 10808 20806 330// 41504 70038
BBXX 46236 21001 99368 71219 46/// ///// 1//// 92350 22200 00125 11404 21002 328// 41403 70021
BBXX DQXQ 21004 99366 11719 41698 71819 10153 20055 40155 50010 70322 84122 22224 00190 20403 33227 40806 51006 80102
BBXX 9V8797 21004 99075 10777 43/97 50127 10255 40087 55006 22234 00276 2//// 4////
BBXX SHJC 21001 99175 11150 43/97 80610 10242 40146 53016 22254 01247 2//// 4////
BBXX V2BE4 21001 99128 11426 41598 31110 10290 20240 40104 51016 70200 82160 22243 04305 20301 80255
BBXX VRAE3 21004 99075 11193 41597 40210 10285 20245 40079 52018 70201 83834 22233 00300 20301 305// 40401 5//// 80260
BBXX VNVG 21003 99068 11284 41398 40314 10290 20249 40086 51/// 70322 84775 22283 00290 20401 305// 40403 80260
BBXX 4XFX 21004 99506 11572 41598 32714 00/// 11070 21/// 40050 52030 701// 82/// 22553 04022 20306 327// 40706 5//// 6//// 8//// ICE /////
BBXX 9VVN 21004 99540 11799 41879 52712 10030 2102/ 40010 51005 70211 82430 22224 04030 20101 33527 40302 5//// 65023 80010
BBXX MIBR 21003 99246 11263 41498 41118 10225 20150 40181 57020 70111 83102 22264 00243 20301 311// 40802 5//// 80180
BBXX DGBE 21003 99327 11338 41998 53603 10135 20020 40189 55042 70111 8/068 22214 20302 399// 40304 80080
BBXX PHEC 21003 99264 11210 41298 82030 10165 20141 40299 52009 70222 87710 22213 00196 2//03 80150
BBXX DGDD 21001 99324 11342 41/98 83309 10130 20063 40240 53005 70222 887// 22214 00220 20902 303// 40802 5//// 80095
BBXX DQVG 21003 99322 11341 41298 73216 10140 20071 40160 51010 70322 877// 22254 20504 330// 40704 5//// 80106
BBXX AUBE 21003 99068 10821 41297 90915 10260 20230 40080 52008 76203 8932/ 22243 0//// 2//// 3//// 4//// 5////
BBXX FHZI 21004 99653 31444 46/// /2930 11001 21021 39879 49890 54000 22200 05016 86009
BBXX UCKZ 21001 99670 30447 42498 80705 11024 21052 49770 56022 885// 22200 01014 2//// ICE 57895
BBXX DFCX2 21003 99153 50760 41698 61512 10222 20186 40115 52025 70311 81548 22234 06189 20502 320// 41704 80198
BBXX DCHO 21004 99217 50403 41497 10512 10240 20211 40120 55010 703// 811// 22253 00200 2//// 80220
AAXX 2100/ 41858 NIL
AAXX 2100/ 41863 NIL
AAXX 2100/ 41886 NIL
AAXX 2100/ 41895 NIL
AAXX 2100/ 41909 NIL
AAXX 2100/ 41915 NIL
AAXX 2100/ 41926 NIL
AAXX 2100/ 41929 NIL
AAXX 2100/ 41933 NIL
AAXX 2100/ 41939 NIL
AAXX 2100/ 41941 NIL
AAXX 2100/ 41946 NIL
AAXX 2100/ 41947 NIL
AAXX 2100/ 41951 NIL
AAXX 2100/ 41953 NIL
AAXX 2100/ 41958 NIL
AAXX 2100/ 41960 NIL
AAXX 2100/ 41963 NIL
AAXX 2100/ 41964 NIL
AAXX 2100/ 41965 NIL
AAXX 2100/ 41966 NIL
AAXX 2100/ 41984 NIL
AAXX 2100/ 41989 NIL
AAXX 2100/ 41998 NIL
BBXX SLCO 21004 99167 31546 43/98 71813 10279 40041 51005 22244 00280 2//04 40705
BBXX SLKR 21003 99123 51337 43/98 30918 10321 40110 57018 22254 00272 20000 40000
BBXX MGRX9 21004 99035 10815 41/97 /2416 10271 20093 40064 54000 70322 8/7// 22233 20503 313// 40503 5//// 80172
BBXX YJYY2 21004 99209 31499 41598 31703 10280 20213 70100 82163 22273 20203 80235
BBXX ZM2619 21003 99442 51796 41/98 72109 10140 20108 40301 52010 70222 22262 29901 320// 40902 80123
BBXX 9HA2479 21004 99264 31615 46/// /1228 10226 20178 30127 40156 57001 22214 04230 85194
BBXX C6FS9 21004 99274 31531 46/// /0712 10244 20182 30123 40159 52003 22200 04252 85202
BBXX VROB 21004 99383 31445 46/// /1615 10166 20134 30166 40192 57001 22273 04175 85147
BBXX VNSZ 21004 99412 31464 46/// /1904 10180 20104 30192 40218 52006 22200 04189 85136
BBXX VRRD 21003 99173 31564 41398 80811 10280 20252 40044 53012 72586 887// 22243 04300 20402 335// 40604 80260
BBXX PCAM 21003 99412 31732 41597 23602 10218 20127 40296 52/// 7//00 82400 22200 20300 80162
BBXX VRAE2 21003 99194 31778 41397 61218 10270 20241 40097 58005 70381 8/7// 22254 04290 20604 314// 40704 80250
BBXX SHIP 21003 99079 31287 41298 72714 10310 20297 40064 51016 70222 82176 22264 04300 20401 327// 40602 80300
BBXX V2OG2 21003 99284 31141 41398 11622 10225 20203 40135 53012 70000 81100 22233 20403 320// 40505 80210
BBXX ZMIQ 21003 99351 31727 41598 11111 10180 20127 40259 58009 7//22 811// 22273 00189 20101 30000 80150
BBXX VNVF 21004 99010 31267 41398 63509 10285 20250 40080 52028 70222 83264 22244 00295 20301 30000 80260
BBXX SHIP 21004 99104 31057 41/97 42710 10276 20269 40017 70222 222// 0//// 20101 301// 40101 5////
BBXX ZMKA 21004 99414 31759 41598 61404 10152 20066 40307 51005 70222 865// 22252 20000 318// 40503 80110
BBXX DCQR2 21003 99369 31504 41698 72017 10185 20142 40180 54000 70182 8677/ 22243 04200 20404 317// 40604 5//// 80160
BBXX PCDE 21003 99393 31444 41597 31112 10174 20148 40199 52003 70300 81460 22223 20201 399// 40502 80158
BBXX PHJV 21004 99063 31181 41598 21211 10300 20246 40078 52016 71300 82260 22263 06296 20100 30000 80260
BBXX A8OY9 21004 99028 11012 43398 43210 10275 20260 40093 56011 848/2 22224 00305 20402 333// 40403 5//// 80255
BBXX PFBF 21003 99108 31562 41298 80408 10259 20170 40073 52014 76282 887// 22213 02286 2//01 318// 4//05 5//// 80200
BBXX A8GP6 21003 99257 31576 41598 41205 10250 20183 40120 52010 70211 83244 22234 04234 20404 80205
BBXX A8RV7 21004 99125 31545 41498 73015 10285 20244 40060 51020 70311 86298 22283 00300 20903 32324 41203 50501 80255
BBXX KAOU 21004 99001 10809 43/// /0406 10271 20245 40059 5//// 7//// 8//// 222// 04288 2//// 3//// 4//// 5//// 6//// 8//// ICE /////
BBXX WKAB 21003 99360 10176 41598 32919 10120 20083 40179 57010 7//00 83/// 22224 00177 21002 330// 41003 5//// 6//// 80100 ICE /////
BBXX SBHI 21003 99580 10194 43/98 42518 10050 40094 56010 22213 06051
BBXX MHNN5 21004 99455 70281 41/98 21911 10120 20101 40239 56030 70100 8//// 22263 00140 299// 3//// 4//// 5//// 80110
BBXX V7CY9 21003 99368 10005 41898 22624 10144 2012/ 40230 5//// 7//00 81733 22262 0//// 20601 330// 40802 5//// 6//// 80133 ICE /////
BBXX 62023 21003 99514 70079 46/95 /2736 10113 2//// 40188 5//// 22200 10505 70025 333 91141 555 70037 80010
BBXX 62087 21001 99547 10068 46/// /1503 10067 20037 4//// 5//// 22240 00086
BBXX A8TI2 21004 99338 70319 41/97 /1225 10200 20167 40230 54000 70200 8//// 22214 20904 315// 40904 80180
BBXX LAHV 21001 99589 10057 43/// /1500 10016 20002 40065 222// 04080 1////
BBXX LMEL 21001 99603 10053 43/// /1301 10002 21006 40061 5//// 222/0 04084 1//// 3//// 4//// 5////
BBXX LF4H 21004 99596 10022 46/// /3115 10057 21000 40066 52012 8//// 22200 06083 10604 70020 333 91123
BBXX LDGJ 21001 99603 10053 43/// /1501 10007 21013 40065 5//// 222/0 04083 1//// 3//// 4//// 5////
BBXX PDNN 21003 99468 70280 41/98 /2040 10141 20121 40199 52005 70200 8//// 22223 20409 80129 90585
BBXX PJFF 21004 99337 70312 41/97 /1815 10220 40240 57030 702// 8/7// 22254 04170 2//// 30000 81005
BBXX DGZL 21003 99360 10152 41/98 62720 10130 20094 40165 57015 70022 8//// 22264 00170 2//// 80110
BBXX UCAB 21001 99632 10043 41/98 92413 10060 40023 52034 70011 8//// 22253 00110 20705
BBXX UBEF5 21001 99364 10196 41/97 92910 10120 40170 54000 76461 89/// 22263 00170 20403
BBXX UCAC 21001 99708 10313 41/98 90707 10030 49985 57020 700// 89/// 22233 00080 20605 307// 40605
BBXX C6KD4 21003 99395 70251 41298 81612 10155 20143 40322 58015 75052 8/77/ 22254 02168 20405 334// 40404 80148
BBXX C6IO9 21004 99360 70131 41598 23107 10160 20108 40330 54000 70211 81402 22243 06180 20301 323// 40502 5//// 80132
BBXX UITJ 21001 99714 10226 41498 70408 10025 40039 52014 70222 878// 22253 00050 20402 33600 40803
BBXX NWS0020 21004 99335 70236 43/// /1121 10191 20105 40286 5//// 7//// 8//// 222// 04206 2//// 3//// 4//// 5//// 6//// 8//// ICE /////
AAXX 21004 70133 32666 61017 11072 21094 39990 49997 58001 92353 333 11072 21106 555 92100
AAXX 21004 70174 11366 83305 11117 21133 39805 40059 58006 69901 771// 92353 333 11117 21150 4/071 555 92100
AAXX 21004 70200 32466 60813 11061 21072 39951 49957 58002 92353 333 11033 21078 555 92100
AAXX 21004 70219 31659 60422 11033 21044 39780 49836 56034 738// 92353 333 11033 21050 555 92100
AAXX 21004 70231 32866 80000 11078 21094 39817 49948 56046 92353 333 11078 21167 4/107 555 92100
AAXX 21004 70261 12466 60203 11094 21106 39874 40052 58024 69901 92353 333 11067 21139 555 92100
AAXX 21004 70267 32166 61111 11094 21111 39583 40076 58024 92353 333 11072 21156 555 92100
AAXX 21004 70271 32766 81714 11028 21100 39496 40095 58022 92353 333 11028 21111 91020 555 92100
AAXX 21004 70273 32766 81517 10028 21033 39919 49976 56073 92353 333 10039 21022 4/046 91031 555 92100
AAXX 21004 70316 12666 42514 10017 21033 39935 49971 50019 69901 92353 333 10033 20006 555 92100
AAXX 21004 70326 11561 81720 10022 20006 39846 49859 53003 69901 761// 92354 333 10039 21060 4/008 91028 555 92100
AAXX 21004 70340 12766 81215 10044 21006 39837 49897 56019 69901 92353 333 10044 21027 91021 555 92100
AAXX 21004 70350 12566 82014 10050 21011 39919 49961 56019 60031 92353 333 10056 21016 91030 555 92100
AAXX 21004 70361 32766 60000 11006 21017 30215 40225 51022 92353 333 10011 21028 555 92100
AAXX 21004 70381 12166 60000 10022 20011 30223 40233 51028 69981 92353 333 10028 20000 555 92100
AAXX 21004 70414 35966 02707 11011 21083 39950 49986 51007 92356 333 11011 21044 555 92100
AAXX 21004 60360 32560 52313 10114 20071 40201 56014 60001 85800 333 0//00 82826 84633 95990
AAXX 21004 60390 12570 62007 10090 20044 40254 56009 60001 81132 333 81820 84360 95990
AAXX 21004 60402 12560 52606 10104 20061 40230 58010 60001 84830 333 82820 83640 95990
AAXX 21004 60419 12565 32408 10058 20015 40226 58010 60001 83502 333 83630 95990
AAXX 21004 60475 12660 20000 10024 20017 39269 48518 54000 60001 82500 333 82633 95990
AAXX 21004 60490 12970 62103 10051 20046 40282 58004 60001 80002 333 86073 95990
AAXX 21004 60525 12960 03209 10093 20004 40233 58009 60001 333 0//00 95990
AAXX 21004 60531 12970 10000 10038 21011 40295 58003 60001 80002 333 0//00 81073 95990
AAXX 21004 60566 12960 00000 10070 21030 40282 58003 60001 333 0//00
AAXX 21004 60571 12962 00000 10070 20048 39343 48585 54000 60001 333 0//00 95990
AAXX 21004 60580 12960 00000 10056 20008 40268 58005 60001
AAXX 21004 60590 12960 03007 10012 21023 40291 51001 60001
AAXX 21004 60611 12960 20305 10040 21044 40265 58008 60001 80001 333 0//00 82073
AAXX 21004 60620 12960 00309 10072 21056 40277 58001 60001 333 0//00
AAXX 21004 60630 12960 30316 10094 21024 40252 50000 60001 80002 333 83075
AAXX 21004 60656 12960 00804 10120 20031 40266 51011 60001 333 0//00
AAXX 21004 60670 NIL
AAXX 21004 60680 12970 21108 10062 21061 38667 48537 56004 60001 80002 333 0//00 82073 95990
BBXX 41052 21001 99183 70648 46/// /0609 10255 40167 53011 90000 22200 00274 333 91212
AAXX 21004 60351 12560 62410 10137 20053 40212 58008 60001 86800 333 83823 84633 95990
AAXX 21004 60355 12560 52208 10142 20072 40200 58001 60001 85800 333 0//00 81830 84840 95990
AAXX 21004 60445 12560 52603 10035 20014 39062 48534 58007 60001 84202 333 84826 95990
AAXX 21004 60468 12560 32608 10028 21003 39280 48538 54000 60001 83200 333 0//00 83826 95990
AAXX 21004 60507 12960 00000 10016 20012 40303 58003 60001 333 95990
AAXX 21004 60511 12960 02414 10018 21011 39136 48559 54000 60001 333 0//00 95990
AAXX 21004 60536 12960 00000 10008 21011 39399 48564 50000 60001 333 95990
AAXX 21004 60550 12960 03302 10002 21048 38740 48571 58003 60001 333 0//00 95990
AAXX 21004 60555 12970 00000 10042 21003 40265 52004 60001
AAXX 21004 60559 12960 02205 10048 21005 40255 58008 60001 333 0//00
AAXX 21004 60581 12960 00000 10027 21031 40271 58001 60001 333 0//00
AAXX 21004 60607 12960 00306 10060 21049 40273 58003 60001 333 0//00
AAXX 21004 60640 NIL
BBXX 41052 21001 99183 70648 46/// /0508 10253 40166 92350 333 91211
BBXX 41052 21001 99183 70648 46/// /0508 10253 40165 92340 333 91210
BBXX 42085 21001 99179 70665 46/// /0608 10258 40167 52017 90000 22200 00276 10602 70011 333 91209
BBXX 42085 21001 99179 70665 46/// /0608 10259 40165 92350 333 91209
BBXX 42085 21001 99179 70665 46/// /0608 10258 40164 92340 333 91210
BBXX AVMI 21004 99324 31530 41298 71818 10220 20/// 40264 52026 70322 85222 22243 00260
AAXX 21004 60360 32560 52313 10114 20071 40201 56014 60001 85800 333 0//00 82826 84633 95990
AAXX 21004 60390 12570 62007 10090 20044 40254 56009 60001 81132 333 81820 84360 95990
AAXX 21004 60402 12560 52606 10104 20061 40230 58010 60001 84830 333 82820 83640 95990
AAXX 21004 60419 12565 32408 10058 20015 40226 58010 60001 83502 333 83630 95990
AAXX 21004 60475 12660 20000 10024 20017 39269 48518 54000 60001 82500 333 82633 95990
AAXX 21004 60490 12970 62103 10051 20046 40282 58004 60001 80002 333 86073 95990
AAXX 21004 60525 12960 03209 10093 20004 40233 58009 60001 333 0//00 95990
AAXX 21004 60531 12970 10000 10038 21011 40295 58003 60001 80002 333 0//00 81073 95990
AAXX 21004 60566 12960 00000 10070 21030 40282 58003 60001 333 0//00
AAXX 21004 60571 12962 00000 10070 20048 39343 48585 54000 60001 333 0//00 95990
AAXX 21004 60580 12960 00000 10056 20008 40268 58005 60001
AAXX 21004 60590 12960 03007 10012 21023 40291 51001 60001
AAXX 21004 60611 12960 20305 10040 21044 40265 58008 60001 80001 333 0//00 82073
AAXX 21004 60620 12960 00309 10072 21056 40277 58001 60001 333 0//00
AAXX 21004 60630 12960 30316 10094 21024 40252 50000 60001 80002 333 83075
AAXX 21004 60656 12960 00804 10120 20031 40266 51011 60001 333 0//00
AAXX 21004 60670 NIL
AAXX 21004 60680 12970 21108 10062 21061 38667 48537 56004 60001 80002 333 0//00 82073 95990
AAXX 21000 44214 32998 03101 11223 21276 38433 40635 58002 333 21232 47001 555 31279
AAXX 21000 44231 329// 23204 11149 21235 38830 40487 54000 80001 333 21170 47009 55013 555 31213
AAXX 21000 44259 32997 02804 11239 21284 39345 40336 53010 333 21244 47011 555 31274
AAXX 21000 44277 329// 32005 11218 21243 37915 40641 53002 81534 333 21245 46000 555 31281
AAXX 21000 44288 32999 03102 11145 21231 38239 40465 52008 333 21170 41998 555 31235
AAXX 21000 44292 118// 22701 11234 21252 38776 40469 52008 69932 70400 82080 333 21235 47007 55026 555 31310 93100
AAXX 21000 44304 32999 12304 11270 21301 39047 40421 52008 81040 333 21272 47011 555 31299
AAXX 21000 44354 32999 63210 11183 21216 39177 40391 54000 86070 333 21192 46002 555 31215 91012
AAXX 21000 44373 32999 02503 11188 21242 38635 40480 51002 333 21193 47006 55078 555 31279
AAXX 21004 60351 12560 62410 10137 20053 40212 58008 60001 86800 333 83823 84633 95990
AAXX 21004 60355 12560 52208 10142 20072 40200 58001 60001 85800 333 0//00 81830 84840 95990
AAXX 21004 60445 12560 52603 10035 20014 39062 48534 58007 60001 84202 333 84826 95990
AAXX 21004 60468 12560 32608 10028 21003 39280 48538 54000 60001 83200 333 0//00 83826 95990
AAXX 21004 60507 12960 00000 10016 20012 40303 58003 60001 333 95990
AAXX 21004 60511 12960 02414 10018 21011 39136 48559 54000 60001 333 0//00 95990
AAXX 21004 60536 12960 00000 10008 21011 39399 48564 50000 60001 333 95990
AAXX 21004 60550 12960 03302 10002 21048 38740 48571 58003 60001 333 0//00 95990
AAXX 21004 60555 12970 00000 10042 21003 40265 52004 60001
AAXX 21004 60559 12960 02205 10048 21005 40255 58008 60001 333 0//00
AAXX 21004 60581 12960 00000 10027 21031 40271 58001 60001 333 0//00
AAXX 21004 60607 12960 00306 10060 21049 40273 58003 60001 333 0//00
AAXX 21004 60640 NIL
BBXX C6KD7 21003 99366 70275 41598 41424 10178 20147 40287 54000 70311 8344/ 22214 02185 20602 317// 40803 5//// 80160
AAXX 21004 78526 12566 60511 10250 20189 30163 40183 53014 69981 92356 333 10272 20222 555 92100
AAXX 21004 78543 12566 60514 10239 20200 30098 40179 53013 69981 92353 333 10278 20222 91022 555 92100
BBXX 3ERR2 21004 99635 10053 43/// /2816 10039 20004 40020 52025 22200 10605 70026 333 91132
BBXX LF3F 21004 99643 10078 43/// /2921 10045 21021 49995 52010 22200 04088 10704 70020 333 91130
BBXX LF3N 21004 99653 10073 43/// /3016 10037 20023 49981 52008 22200 10704 70020
BBXX LF4B 21004 99606 10037 47/98 /2910 10045 40061 52014 700// 22200 00051 10706 70030 333 91124
BBXX LF4C 21004 99584 10019 43/// /3116 10064 20011 40083 52007 22200 10704 70022 333 91123
BBXX LF5T 21004 99660 10081 41/// /1820 10061 21006 49978 54000 702// 22200 10703 70015 333 91124
BBXX 46207 21001 99509 71299 46/// /3306 10079 40299 52007 22200 00081 11509 70044 333 91207
AAXX 21004 84072 32557 70502 10151 20109 37275 86400 333 10217 59012 555 30076
AAXX 21004 84008 32770 11408 10237 20192 30082 40092 81030 00212 333 10287 59013 555 30076
AAXX 21004 84036 12570 80902 10122 20104 60011 8441/ 333 10158 555 10012 30088
AAXX 21004 84143 32558 81804 10131 20104 37386 84456 333 10236 58001 555 30084
AAXX 21004 84202 32565 71402 10276 20220 30108 84430 333 10292 59005 555 30072
AAXX 21004 84135 31565 51402 10252 20206 30034 70544 85400 333 10322 59013 555 30076
AAXX 21004 84088 32565 60902 10113 20104 37045 86800 333 10182 59012 555 30094
AAXX 21004 84056 11220 43608 10128 20120 69931 72054 84400 333 10200 555 10003 30095
AAXX 21004 84270 12560 73304 10162 20108 69971 85430 333 10197 555 10007 30070
AAXX 21004 84140 32930 50000 10280 20217 39984 40069 85040 333 10323 59012 555 30069
AAXX 21004 84076 31565 50000 10140 20133 70544 85400 333 10222 555 30095
AAXX 21004 84050 32560 83604 10250 20221 886// 333 10295 555 30084
AAXX 21004 84045 11558 70000 10101 20099 69911 74052 87800 333 10142 555 10001 30099
AAXX 21004 84179 11550 70000 10201 20196 39044 60091 72586 87400 333 10242 58002 555 10085 30097
AAXX 21004 84160 31450 81804 10122 20086 37254 74044 888// 333 10171 58000 555 30078
AAXX 21004 84105 32557 80404 10256 20214 39986 8541/ 333 10295 59001 555 30078
AAXX 21004 84132 32565 70000 10252 20238 39864 85202 333 10292 59003 555 30088
AAXX 21004 84001 31560 11414 10244 20191 30063 40083 70544 81100 333 10287 59017
AAXX 21004 84010 32970 01412 10233 20208 333 10280
AAXX 21004 84071 31565 53303 10145 20093 37261 47111 70242 83530 333 10195 59013
AAXX 21004 84117 31560 52606 10250 20207 30066 40089 70544 85400 333 10289 59013
AAXX 21004 84203 31560 72112 10281 20196 30065 40070 71544 86430 333 10314 58000
AAXX 21004 84239 32680 80505 10166 20088 37271 47128 884// 333 10215 59008
AAXX 21004 84252 31662 82505 10261 20208 30079 40087 70544 884// 333 10293 59007
AAXX 21001 10170 01230 81701 10005 21003 30047 40063 52003 69971 77175 877// 333 42997 55/// 20118 30116 55300 20000 30000 69977 87704 98030
BBXX SMGW 21001 99350 11653 43/98 81809 10160 40121 58018 22224 00197 20603 41107
BBXX SBLI 21001 99300 11696 43/98 82110 10226 40152 58017 22264 00226 2//// 4//// 426621110
BBXX FLAO 2100/ 99764 70847 46/// ///// 11190 40019 57003
AAXX 21004 64005 NIL
AAXX 21004 64040 NIL
AAXX 21004 64210 32460 40000 10250 20221 39761 40109 81530 333 0//00 58006 81618 84360
AAXX 21004 64360 NIL
AAXX 21003 64500 NIL
AAXX 21003 64501 31458 72206 10255 20241 3//// 4//// 70162 875// 333 0//12 5//// 83610 87626
AAXX 21003 64570 NIL
AAXX 21001 30673 11999 80107 11196 21229 39413 40234 52014 69932 73631 8802/ 333 21237 47010 55000
AAXX 21004 04048 41475 23404 10004 21025 40004 57001 71588 81960 555 3/520
AAXX 21000 44203 329// 00000 11336 21359 38507 40630 55008 333 21342 47006 555 31386
AAXX 21000 44207 329// 01806 11177 21227 38385 40434 57004 333 21209 47009 55/// 555 31249
AAXX 21000 44212 32999 41802 11286 21316 39374 40671 58004 82044 333 21294 47012 55000 555 31295
AAXX 21000 44213 11699 70000 11271 21302 38984 40661 57003 69952 70272 87500 333 21282 47010 555 31301 93100
AAXX 21000 44215 32998 20000 11275 21299 38563 40635 56001 82080 333 21285 47002 555 31303
AAXX 21000 44218 329// 01601 11287 21318 38781 40655 58001 333 21289 47001 55069 555 3////
AAXX 21000 44225 119// 23602 11248 21266 38411 40610 54000 69922 70271 82040 333 21299 47014 555 31/// 93100
AAXX 21000 44230 329// 00105 11211 21255 38887 40509 53002 333 21230 47009 555 31251
AAXX 21000 44232 329// 01801 11204 21242 39208 40448 54003 333 21205 43008 555 31270
AAXX 21000 44237 32999 22305 11124 21186 38570 40402 53001 82041 333 21181 47014 555 31263
AAXX 21000 44239 329// 02801 11200 21249 38883 40432 53011 333 21249 43009 555 31294
AAXX 21000 44241 129// 30000 11257 21274 39369 40465 52007 69902 83040 333 21260 47005 555 31270 93100
AAXX 21000 44256 32999 12704 11207 21247 39367 40301 53010 80004 333 21209 47005 555 31257
AAXX 21000 44265 329// 00000 11292 21315 39022 40623 56014 333 21298 43004 555 31331
AAXX 21000 44272 129// 10000 11275 21313 38356 40624 56005 69902 81040 333 21295 47005 55042 333 31330 93100
AAXX 21000 44275 32998 03202 11254 21272 37811 40574 52004 333 21283 47002 555 31332
AAXX 21000 44282 32999 22703 11134 21228 38386 40443 53006 82040 333 21149 42000 55021 555 31220
AAXX 21000 44284 32999 00000 11279 21315 37933 40662 52007 333 21282 47009 555 31308
AAXX 21000 44285 32999 03404 11154 21226 38397 40449 52002 333 21179 44005 555 31255
AAXX 21000 44287 32999 00205 11230 21278 38208 40579 53008 333 21230 46003 55053 555 31252
AAXX 21000 44294 329// 03304 11201 21230 38615 40449 57002 333 21251 43003 555 31291
AAXX 21000 44298 32999 03204 11211 21223 38779 40422 52001 333 21245 47004 31286
AAXX 21000 44302 32999 02707 11225 21269 39151 40370 53010 333 21237 48010 555 31264
AAXX 21000 44305 32999 03203 11190 21255 39090 40341 52013 333 21219 42006 555 31257
AAXX 21000 44313 11999 33207 11174 21215 39381 40175 52008 69902 73671 83080 333 21211 47009 555 3////
AAXX 21000 44314 32998 33206 11188 21229 39164 40335 52004 82088 333 21195 46003 555 31223
AAXX 21000 44317 32998 22706 11216 21256 38962 40362 52012 82040 333 21218 47003 555 31225
AAXX 21000 44336 329// 03002 11216 21254 38798 40524 53009 333 21248 43002 555 31274
AAXX 21000 44341 329// 00202 11211 21257 38684 40488 52006 333 21200 46002 555 31280
AAXX 21000 44347 32999 00000 11194 21235 38811 40462 53006 333 21194 45998 555 31219
AAXX 21000 44352 32999 22907 11193 21226 38960 40364 52019 82040 333 21208 44004 555 31221
AAXX 21000 44358 32998 12703 11206 21231 39171 40431 52016 81040 333 21212 46000 555 31255
AAXX 21004 91943 36/// /0807 10269 20225 30100 40102 56017 333 59014
AAXX 21004 91945 36/// /0714 10301 20233 30127 40132 56015 333 20258 59008
AAXX 21001 45032 36/// /2101 10164 20134 30187 40204 52004
AAXX 21001 45035 36/// /0604 10179 20108 30160 40202 54000
AAXX 21001 45039 36/// /0302 10182 20109 30185 40200 54000
AAXX 21001 45044 36/// /0104 10177 20115 30105 40198 52002
AAXX 21003 87480 11962 30507 10289 20141 30017 40045 54000 69901 70191 82085 333 10350 20261 56056 82360
AAXX 21004 87344 32960 10510 10318 20125 39493 40011 52008 80005 333 10388 20271 56000 81270
AAXX 21004 87349 31960 30506 10320 20133 39640 40012 55000 70500 83070 333 10385 20270 56000 83360
AAXX 21004 87371 32562 40909 10329 20146 30025 40045 55004 82570 333 10387 20274 56650 82620 83360
AAXX 21004 87374 32965 30905 10302 20095 39961 40045 57001 80006 333 10376 20270 56006 83270
AAXX 21004 87395 32965 41404 10298 20096 30029 40072 52007 82078 333 10396 20298 56056 82360 83270
AAXX 21004 87418 32965 11402 10300 20126 39237 49992 53003 81070 333 10356 20272 56050 81360
AAXX 21004 87436 32670 11605 10336 20095 39224 49982 53007 81500 333 10394 20310 56800 81640
AAXX 21004 87448 32960 20210 10293 20154 39466 49997 53007 81062 333 10387 20286 56066 81360
AAXX 21004 87453 11660 70207 10248 20170 39549 40016 52015 60031 71791 83926 333 10363 20248 56056 57901 83940 85550
AAXX 21004 87467 NIL
AAXX 21004 87497 31565 70904 10307 20110 30029 40054 58012 71792 85973 333 10353 20262 56566 57900 84625 81950 84360
AAXX 21004 87506 32570 12710 10248 21096 38530 48456 51009 81100 333 10315 20108 56300 81830 95000
AAXX 21004 87509 32970 01803 10280 20128 39201 40013 53001 333 10334 20238
AAXX 21004 87532 32870 73613 10333 20150 39854 40015 53001 83970 333 10381 20247 56060 57901 83958 85360
AAXX 21004 87534 32660 50510 10301 20147 39869 40023 53008 82974 333 10382 20251 56555 57996 82940
AAXX 21004 87548 32765 70210 10263 20116 39950 40043 56008 82266 333 10367 20263 56666 57895 82850 83360 85270
AAXX 21004 87576 NIL
AAXX 21004 87582 31760 21105 10263 20204 30058 40066 55004 71321 81930 333 10315 20253 56960 57910 81950
AAXX 21004 87585 32960 00000 10266 20167 30032 40060 57011 333 10337 20266
AAXX 21001 45032 36/// /2101 10164 20134 30187 40204 52004
AAXX 21001 45035 36/// /0604 10179 20108 30160 40202 54000
AAXX 21001 45039 36/// /0302 10182 20109 30185 40200 54000
AAXX 21001 45044 36/// /0104 10177 20115 30105 40198 52002
AAXX 21003 64800 NIL
AAXX 21003 64820 NIL
AAXX 21003 64860 32965 50000 10206 20091 39846 40115 80002 333 0//00 58008 85080
AAXX 21003 64861 NIL
AAXX 21003 64870 32960 70000 10110 20073 38921 48515 80002 333 0//00 58001 87080
AAXX 21003 64871 NIL
AAXX 21003 64892 NIL
AAXX 21003 64893 NIL
AAXX 21003 64894 NIL
AAXX 21004 64910 31456 40000 10248 20244 30113 40122 71022 84300 333 0//00 58006 84616 81920 94945 95835
AAXX 21004 64911 NIL
AAXX 21004 64950 NIL
AAXX 21004 91165 11566 60420 10228 20200 30135 40170 56017 69951 761// 92353 333 91026 555 92100
AAXX 21004 91182 11566 40518 10267 20183 30144 40149 58027 69901 761// 92353 333 10272 20233 91024 555 92100
AAXX 21004 91190 32566 40617 10250 20172 30131 40151 58033 92354 333 10256 20206 91025 555 92100
AAXX 21004 91212 12566 40712 10283 20228 31379 40112 50010 60011 92354 333 10283 20256 555 92100
AAXX 21004 91285 12566 63507 10244 20200 30127 40141 58032 60161 92353 333 10244 20200 555 92100
AAXX 21004 91348 11474 80606 10289 20235 30030 40083 58002 60124 70282 83171 333 20217 56199 59010 70124 555 92100
AAXX 21004 91356 11316 80815 10256 20250 30072 40079 50000 60474 70186 889// 333 20217 56299 58006 70465 88906 555 92100
AAXX 21001 22165 41496 81505 10001 21002 39981 40042 52003 78587 889//
AAXX 21001 22676 42584 81805 11018 21049 30097 40176 54000 885//
AAXX 21001 22954 42298 81704 11069 21074 39939 40199 57009 886// 333 88705
AAXX 21001 23405 41570 81904 11010 21056 30070 40171 58003 70272 885// 333 88621
AAXX 21001 23412 NIL
AAXX 21001 23803 41699 81703 11095 21107 30112 40302 57005 70232 885// 333 88635
AAXX 21001 27066 41396 81704 11074 21087 30063 40249 57013 8872/ 333 88707
AAXX 21001 27083 41450 81603 11090 21115 30039 40275 57014 77172 8802/
AAXX 21001 27113 41258 80902 11049 21055 30030 40181 57012 71011 8663/ 333 86704
AAXX 21001 27242 NIL
AAXX 21001 27329 41459 81404 11044 21055 30035 40164 57020 77372 8572/
AAXX 21001 27355 41496 81403 11074 21080 30048 40220 57014 77172 8872/
AAXX 21001 27373 41496 81405 11091 21106 30033 40263 57019 77172 8872/ 333 88713 93401
AAXX 21001 27665 41295 81406 11086 21110 39954 40238 57020 71073 8872/ 333 86706 91113
AAXX 21001 27835 41396 81404 11046 21052 30004 40167 57018 71062 886// 333 88707 93401
AAXX 21001 28009 42498 81803 11082 21105 30107 40329 57026 885//
AAXX 21001 28411 42597 81605 11076 21106 30154 40359 57017 8457/
AAXX 21001 28418 41598 81605 11065 21125 30194 40369 57017 73632 885// 333 88625
BBXX 46207 21001 99509 71299 46/// /3306 10079 40299 52007 22200 00081 11509 70044 333 91207
AAXX 21001 34560 42497 81308 11008 21052 30039 40209 56011 885// 333 88617
AAXX 21001 34720 42599 60903 10042 20031 30080 40120 56008 86500
AAXX 21001 34730 42497 61006 10043 20034 30036 40128 57010 84530 333 84610
AAXX 21001 34740 41596 71204 10048 20039 30041 40137 56013 71022 86530
AAXX 21001 34824 41996 81002 10036 20023 30098 40103 58007 71022 82031
AAXX 21001 34858 41395 81403 10044 20040 30045 40153 58008 75152 886//
AAXX 21001 34866 42998 81407 10050 20021 30198 40189 55009 8007/ 333 88300
AAXX 21001 34880 41996 71106 10018 21072 30258 40231 58011 70511 80001 333 87000 91114
AAXX 21001 37018 41598 81204 10135 20044 30039 40112 56013 70282 8397/
AAXX 21001 37054 41496 81202 11005 21009 39774 40166 57010 71022 885//
AAXX 21001 37472 31596 81407 10080 20058 30179 40157 52003 71022 886// 333 91015 91118
AAXX 21001 22282 415// 82209 11004 21016 30052 40060 54000 78582 889//
AAXX 21001 22438 NIL
AAXX 21001 22471 41484 82107 10002 21019 30075 40099 52001 70282 889// 333 86913
AAXX 21001 22563 41497 82003 11009 21013 30086 40125 58001 72272 885// 333 88616
AAXX 21001 22641 41599 82104 10011 21003 30094 40110 52012 70282 885// 333 88625 91111
AAXX 21001 22695 42498 81806 11035 21063 30043 40200 54000 885// 333 88617
AAXX 21001 22867 42998 81302 11057 21071 30080 40198 57002 83030 333 91104
AAXX 21001 22939 42997 71703 11052 21062 30007 40175 57009 8705/
AAXX 21001 22996 41496 81804 11087 21102 30083 40283 57016 77172 8452/
AAXX 21001 23324 41479 62306 11058 21084 30123 40203 58004 73632 86600 333 86716
AAXX 21001 27051 42497 81503 11045 21061 30038 40210 57019 8655/ 333 83915
AAXX 21001 27225 41459 81003 11032 21046 30039 40173 57021 77172 8872/ 333 88716
AAXX 21001 27252 41496 81104 11076 21094 30027 40222 57019 77172 8877/ 333 88715
AAXX 21001 27333 41468 81504 11056 21070 30025 40189 57022 77172 887//
AAXX 21001 27369 41595 81503 11084 21094 30098 40243 57022 77173 8802/ 333 88517
AAXX 21001 27393 41496 81806 11078 21096 30129 40306 57023 77173 8872/
AAXX 21001 27479 41495 81505 11077 21087 30129 40270 57021 77373 8872/ 333 88710 9298/
AAXX 21001 27532 41295 81504 11058 21065 39952 40172 57019 72272 8872/ 333 86706
AAXX 21001 27648 41297 81302 11065 21077 30020 40195 57018 73673 886// 333 88706
AAXX 21001 27675 41497 81506 11076 21106 30089 40268 57012 70273 885// 333 88619
AAXX 21001 27679 41598 71506 11085 21113 30044 40280 57016 73632 87500 333 87620
AAXX 21001 28214 41495 81503 11078 21092 30111 40334 57019 77372 8872/
AAXX 20124 91636 11599 31008 10269 20248 40076 60001 70200 83200 333 10315 562//
AAXX 20124 91648 11498 70000 10276 20245 40082 60011 71482 8337/ 333 10318 5619/
BBXX IDDUK02 21004 99567 50398 46/// ///// 40021 222//
BBXX 61001 21004 99434 10078 46/// /0208 10112 20054 40134 52010 22200 00149 10502 70012
BBXX BAREU12 21004 99547 10071 46/// ///// 40088 52019 22233
BBXX BAREU62 21004 99365 10218 46/// ///// 40161 57004 22224
BBXX BATFR21 21004 99429 10070 46/// /2602 40140 51021 22263
BBXX BATFR20 21004 99421 10084 46/// ///// 10117 20039 40106 53021 22283
BBXX BATFR16 21004 99406 70261 44597 61617 10159 20130 40319 56011 70222 86570 22254 00170 21202 318// 41202 5////
BBXX BATFR03 21004 99496 70004 46/// /2420 10089 20075 40208 22282
BBXX BATFR32 21004 99430 10079 46/// /3514 10115 20066 40129 51010 7//// 8//// 22264 00144
BBXX BATFR09 21004 99415 70101 46/// /0303 10137 20122 40330 52001 22243 00162
BBXX BATEU01 21004 99504 70134 46/// /2720 10135 20107 40249 51009 222// 00124
BBXX BATFR04 21004 99584 70062 46/// /2604 10044 20019 40095 52001 22200 00099
BBXX BATFR01 21004 99346 10282 46/// /2618 10165 20077 40174 53004 222// 00172
BBXX BATFR52 21004 99500 70038 46/// /2917 10117 20112 40192 22233 00119
BBXX BATFR46 21004 99367 70017 44/97 02416 10150 20109 40267 58013 700// 22213 00169
BBXX BATFR12 21004 99481 70065 46/// /2918 10130 20119 40245 58011 22200 00144
BBXX BATFR11 21004 99381 10113 46/// /1609 10147 20095 40083 58061 22272 00172
BBXX BATFR22 21004 99430 10074 46/// /0508 10112 40140 56008 22224 00142
BBXX BATFR54 21004 99532 70049 46/// /2418 10105 20099 40130 56015 22282 00104
BBXX BATUK01 21004 99582 70032 44/97 02512 10049 20009 40100 51008 70000 22200 00090 21002
BBXX 61002 21004 99421 10047 46/// ///31 10139 2//// 40198 52026 22200 00141 10808 70040 555 1/043
AAXX 21004 60395 12660 60000 10110 20063 40243 58008 60001 84230 333 0//00 84840 83360 95990
AAXX 21004 60444 12960 02205 10039 20007 39141 48549 51002 60001 333 95990
AAXX 21004 60452 12965 2//// 10110 20055 40275 53002 60001 80002 222// 2//// 333 82073 91826
AAXX 21004 60457 12962 12103 10080 20034 40274 51001 60001 80001 333 0//00 81073 95990
BBXX A8QJ7 21004 99144 70227 41/98 /0504 10250 20235 40154 52014 70200 8//// 22213 06250 2//// 3//// 4//// 5//// 80240
BBXX BATFR19 21004 99065 30060 46/// /1512 10237 20199 40144 50001 222// 00255
BBXX BATFR55 21004 99097 30453 44697 43210 10287 20247 40102 70311 82522 22262 00292 20702
BBXX BATFR45 21004 99069 10562 46/// ///// 10254 20232 40113 55005 22213 00292
BBXX BATFR53 21004 99184 51790 46/// /0710 10275 20229 40112 56010 22222 00285
BBXX BATEU07 21004 99295 31131 46/// /1413 10222 40151 51011 22284
BBXX 41101 21004 99146 70562 46/// /0521 10264 20214 40146 52014 22200 00272 10704 70020 555 1/029
BBXX BATFR14 21004 99321 70414 44397 32301 10202 20142 40177 52011 76000 83200 22214 00215 20502 309// 40804 5////
BBXX FVNM 21004 99068 70809 46/// /2903 10260 20232 40077 53011 22221 00277
BBXX BATEU08 21004 99592 70437 46/// /0328 11031 21082 49931 56029 22263
BBXX BAREU06 21004 99473 70591 46/// ///// 40063 22234
AAXX 21004 91245 32566 20715 10290 20220 30157 92351 555 92100
AAXX 21001 14235 12960 0//// 11064 21085 38954 48398 51002 60001
AAXX 21001 14246 NIL
AAXX 21001 14314 NIL
AAXX 21001 14323 NIL
AAXX 21001 14324 NIL
AAXX 21001 14328 NIL
AAXX 21001 14330 NIL
AAXX 21001 14438 NIL
AAXX 21001 14443 NIL
AAXX 21001 14447 NIL
AAXX 21001 14472 NIL
AAXX 21004 60369 12560 31614 10140 20022 40236 58010 60001 82082 333 0//00 82360 91837
AAXX 21004 60403 NIL
AAXX 21004 60425 12965 20000 10065 20034 40271 56002 60001 80002 333 0//00 82073 95990
AAXX 20124 91636 11599 31008 10269 20248 40076 60001 70200 83200 333 10315 562//
AAXX 20124 91648 11498 70000 10276 20245 40082 60011 71482 8337/ 333 10318 5619/
AAXX 21004 64700 32960 03404 10178 20026 39786 40124 333 0//00 58005
AAXX 21004 64750 32960 63006 10204 20098 39683 40089 80002 333 0//00 59004 86075
AAXX 21001 60370 36/// /2606 10120 20032
AAXX 21001 60371 36/// /1904 10117 20038
AAXX 21001 60372 36/// /2606 10089 20033
AAXX 21001 60373 NIL
AAXX 21001 60374 NIL
AAXX 21001 60376 NIL
AAXX 21001 60379 NIL
AAXX 21001 60380 NIL
AAXX 21001 60381 NIL
AAXX 21001 60393 NIL
AAXX 21001 60394 NIL
AAXX 21001 60593 NIL
AAXX 21001 60595 NIL
AAXX 21001 60605 NIL
AAXX 21001 60613 NIL
AAXX 21001 60623 NIL
AAXX 21004 60624 36/// /0000 10131 21010
AAXX 21004 60639 NIL
AAXX 21004 60645 36/// /0000 10089 21062
AAXX 21003 64400 11456 81804 10248 20239 30101 40120 60024 70366 888// 333 0//52 58004 82810 88626
AAXX 21003 64401 32460 61804 10235 20214 39747 40119 86500 333 0//00 58001 81615 86640
AAXX 21004 64450 32560 60000 10240 20219 39755 40106 82530 333 0//00 58006 82626 86363
AAXX 21004 64458 NIL
AAXX 21003 64459 32960 32202 10220 20208 39743 40101 80002 333 0//00 58001 83078
AAXX 21001 50844 32962 72202 11136 21186 40189 52001 80002 333 05708
AAXX 21001 50854 32762 32502 11187 21214 40189 52001 81502 333 05852
AAXX 21001 50968 32962 00000 11201 21218 40215 57004 333 05951 92501
AAXX 21001 51379 11970 01603 11244 21279 40565 57010 69901 70070 333 05152 79999 92510
AAXX 21001 51467 32980 03404 11111 21200 38371 57005 333 00552
AAXX 21001 51495 32980 00403 11095 21225 40465 52001 333 00951
AAXX 21001 53480 32980 02705 11137 21208 40397 52024 333 00203 91117 91532
AAXX 21001 53673 32980 03404 11052 21179 40346 52009 333 00202
AAXX 21001 53698 32961 03401 10008 21095 40302 52011 333 05102
AAXX 21001 53898 31911 60000 11037 21045 40301 52014 72840 86030 333 05200 31042
AAXX 21001 54308 32980 03409 11096 21210 40311 52010 333 05308
AAXX 21001 54602 31920 81101 11085 21103 40287 52003 71000 80007 333 05300
AAXX 21001 54725 31/00 92901 11062 21063 40298 52008 74540 333 05153
AAXX 21001 54751 32962 02908 10033 21067 40262 52004 333 05401 31010
AAXX 21001 54916 31915 83201 11012 21031 40300 52010 71000 80007 333 05101 31017
AAXX 21001 57014 32962 83203 10006 21081 40356 52021 8807/ 333 00600 31006
AAXX 21001 57025 32961 83606 10019 21103 40361 52020 8802/ 333 00501 31001
AAXX 21001 57046 11/00 93204 11093 21094 37996 52015 69961 77074 333 00254 70010 92501
AAXX 21001 58208 31958 53401 10016 20000 40296 52015 71000 85040 333 00000 31022
AAXX 21001 27242 41497 81502 11054 21072 30083 40216 57011 78582 887// 333 88711
AAXX 21004 89022 42565 70503 11033 21058 39779 49816 57008 875// 333 11015 21034 87623
AAXX 21004 89062 42986 22404 10036 21018 39903 49943 52005 81049 333 10057 20023 81359
AAXX 21001 23914 41497 81804 11090 21106 30075 40348 58015 77172 8677/
AAXX 21001 23921 42697 80000 11163 21176 30204 40332 57010 84531
AAXX 21001 23955 NIL
AAXX 21001 23966 11496 82101 11110 21130 30151 40283 52007 69942 78582 889// 333 21126 47041 55000
AAXX 21001 28138 42999 72102 11096 21125 39783 40385 57020 87030
AAXX 21001 28224 41598 81803 11070 21127 30142 40367 57020 77172 8652/
AAXX 21001 28255 42594 82502 11056 21110 30266 40402 58005 885// 333 88622
AAXX 21001 28440 42597 72203 11027 21182 30049 40410 57010 85506
AAXX 21001 28645 42997 82002 11072 21153 30147 40459 57013 8802/
AAXX 21001 28661 42997 62105 11112 21149 30373 40472 53002 82031
AAXX 21001 28722 41997 81806 11067 21141 30282 40420 57015 73632 8807/
AAXX 21001 28748 42966 22303 11142 21185 30235 40497 57012 80001
AAXX 21001 28838 42996 20000 11178 21197 39995 40524 57007 82030
AAXX 21001 29231 32998 02201 11146 21166 30263 40367 52003 333 21147 47024 55021
AAXX 21001 29313 NIL
AAXX 21001 29612 32998 72302 11185 21211 30291 40457 57003 80006 333 21209 48018 55055
AAXX 21001 29638 11598 61803 11179 21198 30281 40463 57007 69902 70272 83501 333 21203 47015 55003
AAXX 21001 29838 11997 31801 11215 21233 30240 40500 57013 69902 70271 83030 333 21216 47018 55003
AAXX 21001 29846 11342 81906 11156 21175 30073 40490 57012 69902 77172 8872/ 333 21156 47010 86707
AAXX 21001 36061 11596 80000 11169 21175 30072 40519 57016 69902 78582 889// 333 21170 47043 55000
AAXX 21001 28049 42997 62005 11076 21112 30192 40364 58010 86050
AAXX 21001 28144 42598 82001 11074 21110 30208 40374 57016 8357/
AAXX 21001 28319 42499 81903 11068 21136 30199 40371 57020 885// 333 88614
AAXX 21001 28321 42599 81404 11069 21121 30147 40361 57021 8653/
AAXX 21001 28334 41996 82403 11052 21156 30086 40403 57015 70272 8807/
AAXX 21001 28434 42698 81502 11042 21150 30141 40408 57018 885// 333 88632
AAXX 21001 28552 42998 02403 11080 21145 30332 40451 54000
AAXX 21001 28666 42599 82005 11085 21122 30278 40464 58006 8802/
AAXX 21001 28825 42597 81904 11071 21142 30262 40444 57011 885//
AAXX 21001 29111 NIL
AAXX 21001 29209 32998 22001 11163 21189 30272 40408 54000 80002 333 21173 47025
AAXX 21001 29551 31597 82404 11117 21170 30214 40408 57003 73631 883// 333 21139 47010
AAXX 21001 29602 32999 82102 11169 21195 30302 40456 58006 80002 333 21207 47017
AAXX 21001 29636 32998 02502 11155 20189 30212 40448 57006 333 21157 47015
AAXX 21001 29654 11498 82106 11142 21155 39795 40451 57008 69902 78583 85931 333 21164 48084
AAXX 21001 29712 32998 62202 11180 21206 30307 40465 57009 86070 333 21223 47015
AAXX 21001 29724 32997 62303 11208 21233 30258 40484 57006 83031 333 21238 47004
AAXX 21001 29726 12998 82503 11194 21227 30290 40475 57008 69902 8805/ 333 21195 47018
AAXX 21001 29814 32999 32102 11235 21260 30327 40491 57008 83030 333 21238 48013
AAXX 21001 29827 32997 02303 11221 21247 30321 40494 57014 333 21225 47010
AAXX 21001 29923 32999 02403 11220 21239 30199 40506 57016 333 21220 43028 55005
AAXX 21001 29939 32997 61902 11186 21205 30206 40520 57010 82031 333 21189 47027
AAXX 21001 35026 42997 61402 11127 21186 39816 40505 57012 80008
AAXX 21001 36021 32999 02502 11212 21245 30309 40510 57014 333 21214 47009
AAXX 21001 36022 32998 01901 11243 21261 30230 40525 57014 333 21254 47024
AAXX 21001 36038 32999 00000 11249 21268 30053 40553 57014 333 21251 48046 55032
AAXX 21001 36058 32999 01103 11151 21185 39965 40532 57010 333 21155 47006 55001
AAXX 21001 36064 11999 00504 11056 21112 39869 40491 57017 69922 73630 333 21060 47018 55000
AAXX 21001 36229 32999 00000 11318 21330 39313 40677 57009 333 21318 47017 55070
AAXX 21001 36259 32999 20000 11310 21348 38418 48694 57003 80001 333 21311 47002 55036
AAXX 21001 23909 41497 81903 11089 21104 30067 40328 57016 77173 8652/
AAXX 21001 28044 42597 81802 11074 21102 30182 40353 58011 885//
AAXX 21001 28116 41496 81503 11079 21106 30096 40341 57025 77172 8872/
AAXX 21001 28240 42598 82202 11050 21157 30048 40385 58015 885//
AAXX 21001 28522 41997 81807 11066 21141 30133 57019 73632 8802/
AAXX 21001 28621 42597 81604 11072 21131 30159 40405 57011 885//
AAXX 21001 29023 11396 82704 11129 21149 30216 40319 58002 69932 77187 8572/ 333 21129 47032 55008 85707
AAXX 21001 29122 32999 02505 11128 21148 30275 40353 58003 333 21128 43021
AAXX 21001 29328 32998 22203 11173 21307 30260 40413 52002 80001 333 21173 47010 55047
AAXX 21001 29348 NIL
AAXX 21001 29405 32997 82403 11168 21194 30278 40437 58002 80001 333 21178 47022 55032
AAXX 21001 29418 32998 02102 11176 21218 30266 40440 58002 333 21184 47016 55057
AAXX 21001 29430 32998 72303 11154 21181 30226 40416 57001 87070 333 21174 47028 55000
AAXX 21001 29524 32998 82302 11191 21224 30261 40441 54000 8802/ 333 21205 47026
AAXX 21001 29605 32998 82402 11160 21187 30305 40459 58005 80002 333 21198 47019 55048
AAXX 21001 29631 32997 72104 11182 21208 30242 40445 54000 87080 333 21188 47017
AAXX 21001 29645 12598 71603 11165 21191 30256 40461 57004 69902 82531 333 21170 47025 55000
AAXX 21001 29706 32998 02503 11170 21204 30314 40475 53003 333 21208 48017 55066
AAXX 21001 29736 11997 82003 11165 21184 30206 40478 57018 69902 77172 8802/ 333 21185 47017
AAXX 21001 29937 31997 21903 11201 21227 30271 40517 57013 70231 80005 333 21201 47015
AAXX 21001 36034 32998 02202 11244 21262 30230 40542 57009 333 21245 48019
AAXX 21001 36096 11996 80000 11282 21307 39714 40601 58001 69902 77177 8807/ 333 21282 47010 55000 95090
AAXX 21001 34357 42597 81405 11019 21035 30019 40178 58015 885//
AAXX 21001 34363 42597 81406 11050 21085 30087 40246 56016 885//
AAXX 21001 34545 41295 81305 10013 20013 30041 40154 56018 75152 886//
AAXX 21001 34579 42998 61105 11033 21100 30204 40249 57013 8003/
AAXX 21001 34838 42997 01303 10040 20017 30023 40120 56008
AAXX 21001 34927 42697 60701 10043 20018 30070 40107 56015 83530
AAXX 21001 34949 42498 80702 10003 21007 39592 40145 55005 8355/
AAXX 21001 37001 42597 81803 10125 20064 30057 40097 55007 885//
AAXX 21001 37031 42597 81403 10033 20001 39930 40126 50001 885//
AAXX 21001 37061 41337 80803 10059 20054 39989 40155 58007 75152 886//
AAXX 21001 37085 42596 81310 10074 20047 30194 40220 57005 885// 333 91015 91117
AAXX 21001 37126 42999 71904 10066 21105 37936 48491 57005 85031
AAXX 21001 37171 42996 81105 10157 20023 30101 40119 57004 8807/
AAXX 21001 37228 42997 83401 10023 21028 39314 40153 55001 8802/
AAXX 21001 37470 42996 63101 10071 20042 30187 40165 57007 86530
AAXX 21001 37663 42996 03004 10115 21115 38996 48488 57011
AAXX 21004 87078 32970 00902 10338 20155 39904 40047 52013 333 10424 20338
AAXX 21004 87244 31965 00205 10330 20152 39637 40011 5//// 70500 333 10415 20290
AAXX 21004 87393 NIL
AAXX 21004 87416 32965 00000 10311 20115 39288 49993 53005 333 10366 20263
AAXX 21004 87563 32965 02502 10307 20084 39994 40035 58017 333 10368 20244
AAXX 21004 87640 32565 53602 10255 20144 39941 40048 53009 83236 333 10356 20247 56660 57864 83833
AAXX 21004 87688 11462 30906 10205 20153 39924 40056 52012 60211 70196 81970333 10360 20185 56880 57895 81912
AAXX 21004 87774 32682 62718 10140 20094 39110 48476 5//// 86700 333 10150 20135 87636
AAXX 21004 87852 32584 12521 10080 21023 39540 40045 51009 81200 333 10153 20080 56600 57869 81830
AAXX 21003 NIL
AAXX 21003 87148 32970 00905 10306 20079 39933 40037 53009 333 10410 20306
AAXX 21003 87016 32560 32704 10314 20233 39615 40005 53011 81206 333 10378 20264 81820
AAXX 21003 87896 31560 43230 10180 21027 39882 49976 55000 70722 84200 333 10250 2//// 56600 57856 84830
AAXX 21004 87593 32960 10704 10238 20197 30050 40077 55001 80001 333 10317 20238 56006 81070
AAXX 21004 87623 31960 40908 10296 20165 39805 40020 53003 71300 84980 333 10382 20253 56660 57920 82159 82960 84360 96006
AAXX 21004 87641 32665 43606 10284 20116 39881 40048 53004 81175 333 10361 20234 56866 81845
AAXX 21004 87645 32570 33204 10260 20121 39852 40052 53007 81270 333 10349 20190 56440 57842 81820
AAXX 21004 87648 32960 00910 10215 20188 30061 40071 54000 333 10317 20202
AAXX 21004 87692 11560 60210 10212 20193 30041 40066 55001 60051 72991 83923 333 10253 20191 56660 57920 81623 81940 83550
AAXX 21004 87715 32770 42308 10238 20060 39762 40071 52019 81270 333 10308 20191 56660 57866 81856 83360
AAXX 21004 87750 32960 02506 10288 20113 39946 40041 52011 333 10352 20258 96104
AAXX 21004 87765 32560 33218 10100 20009 39153 48451 57001 83500 333 10157 20100 56600 83625
AAXX 21004 87784 31960 02714 10290 21026 30025 40048 53017 70400 333 10338 20240
AAXX 21004 87791 32980 00905 10233 20063 30053 40061 52029 333 10305 20230
AAXX 21004 87800 32680 53614 10127 20047 39732 40129 52011 85500 333 10202 20125 56600 85640
AAXX 21004 87803 32580 32717 10086 20010 39161 40078 51001 83505 333 10148 20086 56000 83630
AAXX 21004 87828 31558 70905 10232 20093 39978 40028 53007 70422 86808 333 10265 20212 56505 86630
AAXX 21004 87860 31965 12722 10167 21052 39986 40041 52024 70711 81060 333 10249 20162 56070 81360 96004 96120 99357
AAXX 21004 87904 32680 62524 10094 20006 39725 49966 52025 82470 333 10158 20085 56666 82640 85359
AAXX 21004 87909 31680 73212 10150 21018 39884 49957 53004 71422 85276 333 10213 20150 56000 57890 85840
AAXX 21004 87925 11580 41613 10086 20086 39914 49937 51004 69901 72782 82303 333 10178 20077 56300 57900 82920
AAXX 21004 87938 11570 71404 10071 20033 39885 49954 52013 69941 76162 87800 333 10155 20065 56300 85625
AAXX 21004 68386 36/// /0000 10171 20156 39703 48600 57004 333 10328 20171 91002 555 91024
AAXX 21000 44210 32999 00000 11260 21271 38696 54000 333 21266 555 31288
AAXX 21000 44216 32599 53603 11310 21334 39243 40697 51003 82540 333 21331 47005 555 31335
AAXX 21000 44217 32998 00000 11291 21309 37984 40702 56002 333 21296 47001 555 31334
AAXX 21000 44219 329// 21402 11290 21313 38796 40664 56003 82040 333 21311 43005 555 31318
AAXX 21000 44221 329// 00000 11325 21345 38758 40678 53001 333 21341 47013 555 31375 93101
AAXX 21000 44224 329// 00000 11330 21360 38184 40704 53004 333 21340 48013 555 31352
AAXX 21000 44229 31999 72704 11159 21193 38017 40483 51003 70331 87010 333 21197 91110 47007 555 31252
AAXX 21000 44242 129// 02301 11299 21328 39440 40487 52008 69902 333 21308 47014 555 31338 93101
AAXX 21000 44243 329// 10000 11338 21375 39528 40496 53005 81070 333 21339 47006 555 31347
AAXX 21000 44254 32998 22902 11176 21261 39062 40320 53006 80001 333 21198 47011 555 31270
AAXX 21000 44257 315// 23207 11151 21232 39006 40350 52012 73633 81140 333 21151 48010 555 31200
AAXX 21000 44263 32998 00000 11267 21313 38206 40701 53001 333 21271 43015 555 31310
AAXX 21000 44266 329// 03602 11227 21267 37883 40593 53001 333 21239 47001 555 31285
AAXX 21000 44286 319// 22508 11184 21236 38722 40438 52001 73630 333 21196 44009 555 31223
AAXX 21000 44291 119// 00501 11274 21303 38814 40518 53008 69902 70400 333 21292 47010 555 31309 93100
AAXX 21000 44325 329// 00901 11195 21228 38981 40503 53002 333 21206 47002 555 31235
AAXX 21000 44329 32998 03207 11179 21212 37842 40493 55000 333 21187 46003 555 31228
AAXX 21000 44338 32999 02302 11203 21244 38558 40473 52009 333 21205 555 31253
AAXX 21000 44348 32997 03207 11198 21204 38768 40433 52012 333 21205 46001 555 31252
AAXX 21000 44374 32999 03205 11150 21225 38353 40494 53012 333 21156 555 31198
AAXX 21000 44385 32999 02305 11164 21224 39039 40462 53012 333 21169 555 31197
AAXX 21000 44386 32999 02502 11222 21247 39151 40450 52017 333 21235 47001 55/// 555 31231
AAXX 21001 37575 42596 50202 10016 21015 39670 40273 58011 85550 555 14100
AAXX 21001 37675 42995 00000 10019 21018 39508 40177 57012 555 14101
AAXX 21001 37735 42697 80000 10038 20004 39821 40204 57008 885// 555 10000
AAXX 21001 37749 41596 82901 10057 20043 30185 40304 56003 71022 885// 555 11006
AAXX 21001 37756 41/93 92705 10019 20019 39383 40301 56007 74542 555 11002
AAXX 21001 37864 31395 81610 10078 20054 40245 57013 71022 885// 333 88608
AAXX 21001 37985 41495 83401 10069 20060 30277 40262 57005 71022 886// 555 11006
AAXX 21001 13463 32668 42901 10024 20018 30073 40135 52006 82230
AAXX 21001 13459 32670 53601 11036 21038 39363 40152 52012 83840 333 83696 84399
AAXX 21001 13461 32665 71102 10061 20003 30121 40129 54000 85830 333 82833 83645 92333 92437
AAXX 21001 13363 NIL
AAXX 21004 04203 46/// /1612 11118 21181 39989 40007 52005
AAXX 21004 04205 47/32 /0820 11116 21232 39987 40010 52005 77871 333 91130 91220 91030
AAXX 21004 04208 46/// /2705 11103 21136 39983 40030 52011
AAXX 21004 04213 46/// /1417 11117 21184 39904 40017 57002
AAXX 21004 04214 46/// /1211 11085 21148 39972 40005 57001
AAXX 21004 04224 45/84 /1108 11126 21201 39972 40006 57005
AAXX 21004 04228 NIL
AAXX 21004 04242 46/// /0514 11087 21136 39972 49988 57016
AAXX 21004 04253 46/// /0810 11066 21162 39939 49966 57019
AAXX 21004 04266 NIL
AAXX 21004 04285 46/// /1609 11043 21119 39930 49949 57022
AAXX 21004 04301 46/// ///// 11300 21344 30065 40070 52009
AAXX 21004 04313 46/// ///// 11225 21256 30080 40092 52011
AAXX 21004 04330 46/// /3242 11095 21116 39968 49986 52002 333 91056
AAXX 21004 04351 46/// /3307 11103 21191 39929 49945 52014
AAXX 21004 04373 46/// /3127 11108 21182 39845 49939 52002
AAXX 21004 04382 46/// /3105 11068 21181 39912 49961 57023
AAXX 21004 04416 46/// ///// 11459 21474 36479 52002
AAXX 21004 71063 16/// /1403 11069 21115 30103 40205 58011 60001 333 11042 21094 70000
AAXX 21004 71362 16/// /3107 11140 21172 39824 40085 53032 60001 333 11108 21144 70000
AAXX 21004 71370 46/// /0101 11117 21141 30069 40210 53001 6///1 333 11069 21117 7////
AAXX 21004 71373 16/// /1504 11078 21128 60001 333 11048 21085 70016
AAXX 21004 71374 46/// /3223 11076 21102 6///1 333 11032 21080 7////
AAXX 21004 71376 16/// /0000 11148 21159 39912 40223 50001 60001 333 11057 21148 70000
AAXX 21004 71377 16/// /2901 11091 21113 30168 40218 56002 60001 333 11043 21094 70000
AAXX 21004 71379 16/// /1306 11131 21176 39981 40158 58015 60001 333 11116 21172 70000
AAXX 21004 71382 16/// /2105 11176 21193 39214 40207 50004 60001 333 11141 21182 70000
AAXX 21004 71387 16/// /1703 11160 21184 39786 40184 58001 60001 333 11128 21180 70000
AAXX 21004 71391 16/// ///// 11103 21133 60001 333 11071 21103 70000
AAXX 21004 71156 16/// /2811 10030 21092 38990 40078 52020 60001 333 10045 21036 70000
AAXX 21004 71170 16/// /2710 10008 21024 60001 333 10020 21030 70000
AAXX 21004 71184 46/// /1603 11072 21109 6///1 333 11035 21079 7////
AAXX 21004 71186 46/// /3002 11116 21178 6///1 333 11096 21120 7////
AAXX 21004 71190 46/// /3010 11082 21136 6///1 333 11064 21085 7////
AAXX 21004 71319 16/// /2303 11158 21189 39286 40181 53002 60001 333 11122 21163 70000
AAXX 21004 71340 16/// /3008 10014 20003 60001 333 10053 20012 7////
AAXX 21004 71341 16/// /2618 10019 21061 60001 333 10052 20019 70000
AAXX 21004 71342 16/// /2609 11014 21043 60001 333 10047 21014 70000
AAXX 21004 71344 16/// /2815 10016 21056 60001 333 10045 21002 70000
AAXX 21004 71347 16/// /3304 11008 21022 60001 333 10041 21008 70000
AAXX 21004 71348 17/// /3612 10004 21011 69951 7//4/ 333 10051 20004 70005
AAXX 21004 71349 17/// ///// 11022 21031 69951 7//4/ 333 10049 21022 7////
AAXX 21004 71971 16/// /0401 11212 21230 39971 40017 58004 60001 333 11203 21239 70000
AAXX 21004 71976 46/// /1620 11192 21213 39258 49894 58026 6///1 333 11192 21244 7////
AAXX 21004 71550 16/// /2409 10004 21026 39622 49992 51022 60001 333 10050 21006 70000 555 10010
AAXX 21004 71551 16/// /2714 10025 21017 39390 40035 53016 60001 333 10057 21004 70000
AAXX 21004 71578 16/// /2404 11113 21162 60001 333 11085 21113 70000
AAXX 21004 71107 16/// /3516 10060 20025 30183 40298 53010 60001 333 10083 20053 70000
AAXX 21004 71228 16/// /3208 10013 21030 60001 333 10052 21012 70000
AAXX 21004 71752 16/// /0105 10006 21027 39958 40178 56012 60001 333 10023 21019 70000
AAXX 21004 71503 46/// /3207 11214 21247 39850 40131 51007 6///1 333 11214 21246 7////
AAXX 21004 71506 46/// /1703 11127 21135 39167 40060 52013 6///1 333 11099 21166 7////
AAXX 21004 71512 16/// /2905 11145 21165 30120 40135 53031 60001 333 11083 21150 70022
AAXX 21004 71514 16/// /2709 10009 21027 39344 40040 53011 60001 333 10032 21031 70000
AAXX 21004 71524 16/// /1701 11089 21118 30201 40228 56003 60001 333 11044 21095 70000
AAXX 21004 71269 17/// /0806 10004 21002 69961 7//4/ 333 10032 21007 70006
AAXX 21004 71270 16/// /1203 11010 21055 39948 40172 58010 60001 333 11002 21041 70003
AAXX 21004 71285 46/// /3204 11001 21004 6///1 333 10038 21001 7////
AAXX 21004 71288 16/// /3208 11307 21338 30058 40084 52019 60001 333 11282 21346 70003
AAXX 21004 71296 16/// /1606 11036 21055 39868 40181 56008 60001 333 11012 70000
AAXX 21004 71299 16/// /2217 11023 21047 39764 40038 58015 60001 333 11022 21150 70000 555 10120
AAXX 21004 71810 16/// /3006 11104 21159 30059 40127 51031 60001 333 11074 21105 70000
AAXX 21004 71814 16/// /3415 11083 21106 30011 40021 51052 60001 333 11035 21084 70093
AAXX 21004 71667 16/// /2308 10001 21061 39795 40042 58010 60001 333 10001 21101 70000
AAXX 21004 71682 16/// /0000 11175 21185 39911 40148 51021 60001 333 11114 21180 70010
AAXX 21004 71712 16/// /0501 11090 21102 30158 40222 55000 60001 333 11039 21090 70000
AAXX 21004 71721 16/// /1905 11101 21136 39940 40195 58004 60001 333 11061 21135 70000
AAXX 21004 71723 16/// /1504 11091 21135 30212 40222 53001 60001 333 11060 21103 70014
AAXX 21004 71724 16/// /1608 11067 21109 30211 40219 55000 60001 333 11054 21099 70000
AAXX 21004 71732 16/// /1803 11058 21101 60001 333 11030 21095 70000
AAXX 21004 71737 16/// /0000 11159 21174 39650 40194 58004 60001 333 11090 21167 70000
AAXX 21004 71743 16/// /1818 11160 21186 39704 49925 58030 60001 333 11151 21249 70000
AAXX 21004 71746 16/// /1505 10011 21009 39938 40162 56012 60001 333 10011 21029 70000
AAXX 21004 71747 16/// /2206 11001 21082 39552 40027 58007 60001 333 10035 21088 70000
AAXX 21004 71748 16/// /2610 10009 21030 39689 49970 53004 60001 333 10021 21057 70000
AAXX 21004 71423 16/// /3017 11096 21128 30080 40090 51048 60001 333 11044 21097 70004
AAXX 21004 71421 16/// ///// 11197 21219 39387 40127 52031 60001 333 11145 21198 70030
AAXX 21004 71444 16/// /2603 11027 21040 39245 49997 51009 60001 333 10010 21044 70000
AAXX 21004 71612 16/// /2103 11056 21108 30130 40223 56002 60001 333 11040 21079 70000
AAXX 21004 71619 16/// /2810 11106 21176 30117 40177 53037 60001 333 11059 21110 70000
AAXX 21004 71622 16/// ///// 11009 21029 39828 40171 58015 60001 333 11005 21038 70000
AAXX 21004 71421 16/// ///// 11197 21219 39387 40127 52031 60001 333 11145 21198 70030
AAXX 21004 71444 16/// /2603 11027 21040 39245 49997 51009 60001 333 10010 21044 70000
AAXX 21004 71810 16/// /3006 11104 21159 30059 40127 51031 60001 333 11074 21105 70000
AAXX 21004 71814 16/// /3415 11083 21106 30011 40021 51052 60001 333 11035 21084 70093
BBXX C6SI6 21004 99318 11209 46/// /0503 10074 20065 40275 53008 7//// 8//// 22200 0//// 2////
BBXX DGBE 21003 99327 11338 41998 53603 10135 20020 40189 55042 70111 8/068 22214 20302 399// 40304 80080
BBXX DGDD 21001 99324 11342 41/98 83309 10130 20063 40240 53005 70222 887// 22214 00220 20902 303// 40802 5//// 80095
BBXX DQVG 21003 99322 11341 41298 73216 10140 20071 40160 51010 70322 877// 22254 20504 330// 40704 5//// 80106
BBXX OUJI2 21004 99453 11397 41997 02607 11050 21060 40350 52030 758// 8//// 22211 00060 2//// 3//// 4//// 5//// 6//// 86050 ICE /////
BBXX UHMI 21001 99425 11340 42999 23205 11070 40250 52010 22233 06020 20301 33200 40402
AAXX 21004 61968 16/// /1901 10273 20235 40105 60001 333 58014 90710 91110 555 60005
AAXX 21004 61972 16/// /2008 10248 20219 40091 60001 333 59015 90710 91116 555 60005
AAXX 21001 34712 31396 60904 10030 20027 30026 40112 57009 71022 86600 333 86708
AAXX 21001 30935 11997 80000 11205 21224 39376 40396 52006 69922 71572 8807/ 333 21205 47016 55009
AAXX 21004 41244 36/// /1006 10161 20022 39839 48210 333 0E017 58006
AAXX 21001 28216 41597 81805 11080 21103 30049 40346 57025 77172 885//
AAXX 21001 28428 41598 82106 11066 21144 30208 40404 57014 73632 885//
AAXX 21001 28451 42996 82303 11038 21124 30260 40426 57007 8807/
AAXX 21001 28537 42996 72005 11040 21102 39978 40414 57014 87070
AAXX 21001 28541 42984 80000 11056 21157 39916 40431 57010 8807/
AAXX 21001 28615 41997 81704 11053 21118 30207 40371 57016 73632 8807/
AAXX 21001 28655 42998 02304 11120 21166 30234 40474 58003
AAXX 21001 28756 42997 02104 11137 21176 30337 40499 57002
AAXX 21001 29557 31998 82508 11093 21155 30117 40397 53002 73632 8805/ 333 21129 48008
AAXX 21001 29625 32598 72403 11199 21225 30263 40461 53003 85530 333 21212 47021
AAXX 21001 29813 32999 02302 11216 21241 30270 40470 57009 333 21244 47015
AAXX 21001 29822 32997 12003 11215 21240 30306 40489 57012 80001 333 21237 47016 55007
AAXX 21001 29915 32998 02403 11245 21270 30319 40497 57013 333 21245 48013
AAXX 21001 36020 32998 02103 11212 21224 30290 40513 57016 333 21212 48017 55029
AAXX 21004 65201 31458 70000 10262 20248 30077 40132 70522 82508 333 565000 57632 58002 82610 86280 91105 94463
AAXX 21004 60664 36/// /0000 10075 21016
AAXX 21001 23226 41321 82108 11056 21074 39970 40192 54000 77372 8672/ 333 86709
AAXX 21001 23701 41984 01802 11088 21103 30109 40245 51002 70131
AAXX 21001 28909 42499 81407 11088 21148 30285 40392 57015 84502 333 91012 91116
AAXX 21001 89064 11470 70603 10027 29087 49936 54000 69101 72166 8564/ 333 10063
BBXX A8UA9 21004 99201 70181 41797 71013 10210 20195 40210 50//7 ////8 75
AAXX 21004 60692 36/// /3606 10140 21063
AAXX 21004 60667 36/// /0000 10070 21006
AAXX 21004 60677 36/// /0000 10092 21007
AAXX 21004 60672 36/// /1103 10085 21045
AAXX 21004 60691 36/// /0113 10136 21107
AAXX 21004 60595 36/// /0000 11451
AAXX 21004 60381 36/// /1602 10116 20038
AAXX 21004 60639 36/// /0704 10052 21055
AAXX 21004 60605 36/// /1305 10102 21040
AAXX 21004 60676 36/// /0509 10101 20005
AAXX 21004 60661 36/// /0109 10060 21034
AAXX 21004 60650 36/// /0917 10122 21016
AAXX 21004 60633 36/// /3607 10124 21082
AAXX 21004 60662 36/// /0000 10074 21014
AAXX 21004 60679 36/// /2302 10014 21119
BBXX 46249 21001 99338 71197 46/// ///// 1//// 90012 22200 00149 11402 21002 325// 41401 70011
BBXX 46248 21001 99461 71247 46/// ///// 1//// 90004 22200 00094 11407 21004 329// 41406 70037
BBXX 46244 21001 99409 71244 46/// ///// 1//// 90005 22200 00097 11507 20805 330// 41505 70036
AAXX 21001 34247 41558 81505 11004 21010 30055 40171 57015 71022 885// 333 88621
BBXX 46241 21001 99330 71173 46/// ///// 1//// 92341 22200 00144 11302 20901 326// 41301 70009
AAXX 21001 56146 32980 02001 11105 21137 36710 52010 333 05500
AAXX 21001 56444 32980 02703 11065 21130 36803 52006 333 05201
AAXX 21001 56492 11740 82701 10079 20047 39872 40289 52020 69901 71060 885// 333 00101 79999
AAXX 21001 56571 32980 43401 10034 21001 38408 52029 80002 333 05101 30012
AAXX 21001 57799 31959 70000 10076 20040 30178 40269 52021 71000 87030 333 05104 30039
AAXX 21001 57866 32962 00000 10065 20004 30063 40275 52020 333 00001 30040
AAXX 21001 57957 31758 70203 10098 21016 30051 40254 52019 70500 875// 333 00000
AAXX 21001 57993 32960 00701 10061 20044 30090 40261 52026 333 00002 30025
AAXX 21001 58027 31925 33201 10003 21033 30234 40288 52014 71000 83040 333 00001 31009
AAXX 21001 58141 31915 60202 10031 20015 30263 40283 52008 71040 86040 333 05203 30005
AAXX 21001 58265 11930 82901 10074 20060 30267 40275 52011 69901 76060 8802/ 333 05202 70030
AAXX 21001 58472 11463 80205 10099 20082 30165 40261 52016 69901 76060 8377/ 333 05300 70003
AAXX 21001 58477 11465 83402 10102 20071 30211 40256 52018 69901 70060 888// 333 05201 70008
AAXX 21001 58527 32660 80000 10085 20047 30183 40261 52014 885// 333 05102
AAXX 21001 58633 31656 80703 10087 20056 30157 40259 52013 71000 885// 333 05202
AAXX 21001 58666 32962 73609 10115 20094 30135 40238 52018 86042 333 05301
AAXX 21001 58725 31930 32001 10041 20032 39992 40262 52022 71000 83040 333 05154 30028
AAXX 21001 58921 31956 72001 10095 20084 39993 40244 52020 71000 87040 333 05100
AAXX 21001 59082 31956 71602 10079 20064 30092 40242 52018 71000 8704/ 333 05103
AAXX 21001 59211 31820 73401 10128 20107 30004 40213 52023 71000 875// 333 05151
AAXX 21001 59265 31856 70702 10112 20073 30082 40222 52019 71000 875// 333 05101
AAXX 21001 59293 32761 80404 10152 20040 30137 40223 52024 885// 333 05103
AAXX 21001 59501 32760 60702 10175 20132 30179 40200 52023 86500 333 05201 70003
AAXX 21001 59663 32660 70404 10171 20063 30093 40201 52026 875// 333 05103
AAXX 21001 59838 32762 70704 10194 20162 30162 40172 52021 875// 333 05102
AAXX 21001 59948 32380 70410 10178 20156 39683 40172 52019 878// 333 05100 79999
AAXX 21001 59981 11576 80704 10236 20224 30131 40138 52019 60011 78080 888// 333 00000 70018
AAXX 21004 84370 31460 82405 10240 20216 30051 40084 70220 8353/ 333 10309 56090 59006 83617 88357
AAXX 21004 84452 31560 81716 10200 20169 30082 40113 70322 8351/ 333 10250 5649/ 59004 83630 85460
AAXX 21004 84377 31460 81209 10266 20238 39969 40073 70220 85230 333 10312 56000 59011 85818 85360
AAXX 21004 84735 31456 8//// 10065 20053 36439 79122 86150 333 10195 56990 58005 86815 88630
AAXX 21004 84691 31560 72108 10213 20184 30102 40109 70224 83501 333 10243 56000 58000 83630 84073
AAXX 21004 84401 31660 81812 10260 20173 30057 40101 70200 8853/ 333 10318 5600/ 58003 85640 83359
AAXX 21004 84782 31965 02207 10184 20119 39628 40136 70200 333 10268 58007
AAXX 21004 84501 21958 81606 10183 20163 30080 40107 75822 8802/ 333 10212 56000 59005 69921 88463
AAXX 21004 84686 31660 52309 10151 20048 36856 70302 852// 333 10194 56900 59015 81840 84656
AAXX 21004 84455 21560 20000 10250 20214 39780 40132 70162 82500 333 10285 56000 58010 60031 82615
AAXX 21004 84752 32960 82804 10139 20013 37529 70222 84031 333 10211 56099 58003 84360 84073
AAXX 21004 84628 34258 71607 10190 20170 30100 40116 71022 876// 333 10255 564// 58001 82705 85706
AAXX 21004 84515 21460 60000 10240 20226 39907 40085 70126 8650/ 333 10330 5690/ 59005 69911 86617
BBXX 46240 21001 99366 71219 46/// ///// 1//// 90012 22200 00124 11302 21001 336// 41302 70012
BBXX 46237 21001 99378 71226 46/// ///// 1//// 90010 22200 00111 11304 21002 326// 41303 70018
BBXX 46212 21001 99408 71243 46/// ///// 1//// 90012 22200 00097 11407 20804 330// 41405 70033
BBXX 46217 21001 99342 71194 46/// ///// 1//// 90012 22200 00149 11302 21001 327// 41301 70010
BBXX 46223 21001 99335 71178 46/// ///// 1//// 90000 22200 00151 11302 21002 328// 41302 70012
AAXX 21001 29111 32998 02504 11126 21150 30272 40365 52003 333 21127 47029 55007
BBXX 46216 21001 99343 71198 46/// ///// 1//// 92357 22200 00147 11502 21002 327// 41502 70012
BBXX 46218 21001 99345 71208 46/// ///// 1//// 90002 22200 00140 11506 21004 329// 41505 70031
BBXX 46231 21001 99327 71174 46/// ///// 1//// 92354 22200 00150 11403 21002 327// 41402 70014
BBXX 46222 21001 99336 71183 46/// ///// 1//// 92356 22200 00153 11502 20902 327// 41501 70011
AAXX 21001 48887 12770 73401 10245 20229 30088 40094 53008 69902 83508 333 01025 20244 3/024 59001 83697 8529 9
AAXX 21001 48870 11460 83403 10221 20206 30123 40130 53020 60082 76062 8672/ 333 01023 20218 3/020 59002 8689 4 88499 96160
AAXX 21001 48920 32598 60506 10272 20258 30082 40085 52019 83208 222// 00281 2//02 333 20267 58005 83895 8629 9
AAXX 21001 48877 11470 82702 10233 20215 30111 40116 52014 60062 72162 8572/ 333 01024 20225 3/023 59001 8589 4 88499
AAXX 21001 48892 32598 60504 10269 20252 30091 40096 53014 81108 333 20264 58000 81895 86299
AAXX 21001 50353 11970 83602 11215 21247 39939 40182 52007 69971 77070 8801/ 333 05404 70007 92507
AAXX 21001 50557 11962 72201 11220 21245 39855 40186 52004 69901 72270 80002 333 05705 79999 92504
AAXX 21001 50756 31956 41401 11199 21210 39873 40196 57002 71000 80002 333 05804 92510
AAXX 21001 50949 32965 32502 11146 21205 30021 40204 52006 80002 333 05701
AAXX 21001 50963 32960 00202 11219 21247 30054 40205 57002 333 05902 92500
AAXX 21001 50978 32975 02503 11163 21191 39853 40226 57002 333 05701
AAXX 21001 51087 32980 02201 11270 21299 39483 40593 57004 333 00101 31029 92519
AAXX 21001 51156 NIL
AAXX 21001 51644 32960 70201 11089 21120 39100 40440 52002 80002 333 00753
AAXX 21001 51656 32965 00000 11088 21131 39284 40448 57004 333 00956
AAXX 21001 51886 32980 82201 11119 21249 37117 54000 80007 333 00202
AAXX 21001 52602 32980 80206 11089 21268 37254 57001 80007 333 05107
AAXX 21001 52713 32680 71101 11133 21246 36890 52001 82502 333 00002
AAXX 21001 52754 32980 73401 11125 21210 36793 52005 80002 333 00202
AAXX 21001 52818 32980 12002 11115 21246 37234 54000 80002 333 00200
AAXX 21001 52836 32780 71601 11149 21221 36888 52002 83502 333 00258
AAXX 21001 52955 32980 10000 11163 21207 36971 52005 80002 333 00052
AAXX 21001 53068 32980 02904 11192 21227 39167 40417 52015 333 00303
AAXX 21001 53276 32980 42505 11178 21219 38951 40418 52015 83032 333 00200
AAXX 21001 54135 32975 72703 11131 21207 30009 40247 52012 80002 333 05503
AAXX 21001 54236 32970 42902 11084 21188 30134 40245 52012 80002 333 05608
AAXX 21001 54539 32970 02901 11068 21131 30260 40275 52011 333 05300
AAXX 21001 54662 32975 03202 10002 21109 30136 40254 52010 333 05502
AAXX 21001 54753 31/06 92203 11021 21028 30267 40274 52004 74740 333 05352 31031
AAXX 21001 54857 31/08 93404 11008 21033 30190 40286 52004 74540 333 05251 31030
AAXX 21001 57067 31930 80402 10032 21029 39630 40329 52023 71000 8807/ 333 00205 30008
AAXX 21001 57178 31920 80000 10018 21016 30150 40315 52019 71000 8807/ 333 00100 30004
AAXX 21001 57245 31758 81101 10061 20038 39946 40305 52020 71000 8357/ 333 00251
AAXX 21001 57297 31930 82901 10002 21023 30161 40308 52018 71000 8807/ 333 00152 31008
AAXX 21001 34712 31396 60904 10030 20027 30026 40112 57009 71022 86600 333 86708
AAXX 21001 29348 31997 22202 11152 21186 30240 40396 53005 70231 80001 333 21152 47021
AAXX 21001 23955 11984 82604 11108 21128 30259 40324 52002 69902 70281 80001 333 21124 47032 55005
BBXX 46242 21001 99332 71174 46/// ///// 1//// 92358 22200 00145 11401 20301 323// 41401 70007
BBXX 46221 21001 99339 71186 46/// ///// 1//// 92345 22200 00150 11402 21002 325// 41401 70011
AAXX 21004 91943 36/// /0807 10269 20225 30100 40102 56017 333 59014
AAXX 21004 91945 36/// /0714 10301 20233 30127 40132 56015 333 20258 59008
AAXX 21001 89062 42986 22404 10036 21018 39903 49943 52005 81049 333 10057 20023 81359
AAXX 21004 82586 32594 43607 10271 20230 39885 40121 84400 333 10357 29069 55103 58000
AAXX 21004 82678 32992 02301 10312 20217 39940 40077 333 10371 29056 55094 59017
AAXX 21004 82784 32595 30000 10268 20218 39642 40091 83100 333 10357 29066 55115 59004
AAXX 21004 82791 32995 00915 10294 20203 39815 40089 333 10376 29053 55114 59006
AAXX 21004 82983 32595 61406 10316 20199 39682 40086 861// 333 10358 29053 55116 59010
AAXX 21004 40582 32960 00000 10076 21007 40229 50002 333 00005 55300 00000 10165 20000 30000 41043 51208 60000 55407 40000 90467 91001 91107 91205 91303
AAXX 21004 41150 NIL
AAXX 21004 41168 NIL
AAXX 21004 41170 32960 03004 10186 20144 30198 40211 333 58004
AAXX 21004 41176 NIL
AAXX 21004 41184 NIL
AAXX 21004 41194 NIL
AAXX 21004 41196 NIL
AAXX 21004 41198 NIL
AAXX 21004 41210 NIL
AAXX 21004 41216 NIL
AAXX 21004 41217 NIL
AAXX 21004 41218 NIL
AAXX 21004 41226 NIL
AAXX 21004 41244 36/// /1006 10161 20022 39839 48210 333 0E017 58006
AAXX 21004 41246 32960 02403 10163 20100 30193 40198 333 58005
AAXX 21004 41254 36/// /2608 10061 20014 38029 48034 333 0E006 58001
AAXX 21004 41256 32960 00000 10164 20071 30188 40198 333 58005
AAXX 21004 41258 NIL
AAXX 21004 41268 36/// /3312 10216 20027 30165 48223 333 0E021 58005
AAXX 21004 41312 36/// /3216 10221 20064 30126 40166 333 0E/// 58002
AAXX 21004 41314 NIL
AAXX 21004 41316 NIL
AAXX 21004 41404 12960 01803 10053 21048 37884 48559 60002 333 59005
AAXX 21004 41407 NIL
AAXX 21004 41431 12960 00000 10220 20205 30119 40132 60002 333 58000
AAXX 21004 41466 NIL
AAXX 21004 41477 NIL
AAXX 21004 41480 12960 00103 10230 20169 30152 40155 60002 333 59009
AAXX 21004 41314 36/// /2408 10133 20021 39673 40227 333 0E013 58000
BBXX 62123 21004 99563 10022 41/97 /3120 10074 40128 53002 70200 8//// 22200 2//// 330// 40605 5////
BBXX DDYZ2 21004 99500 70017 41296 52414 10130 20130 40210 56/// 76466 85797 22223 20310 80130
BBXX AMOUK09 21004 99517 10021 46/// ///// 10077 20048 30158 40173 54003 92350
BBXX 62303 21004 99516 70051 46/// /2720 10118 20109 40158 56014 22200 00111 10504 70020 333 90710 91126
BBXX 62094 21004 99517 70067 46/// /2720 10114 20107 40168 52008 22200 00105 10505 70023 333 90710 91127
BBXX 62001 21004 99452 70050 46/// /2915 10134 20111 40294 50001 22200 00142 10604 70019
BBXX 62163 21004 99475 70084 46/// /2917 10120 20109 40280 52005 22200 00127 10604 70022
BBXX 62103 21004 99499 70029 46/96 /2420 10111 20100 40196 58021 22200 00122 10702 70012
BBXX 62081 21004 99510 70134 46/// ///// 10120 20110 40230 51008 22200 00119 10809 70043
BBXX 62105 21004 99554 70122 46/// /2620 10114 20110 40100 51016 22200 00107 10808 70042 333 90710 91127
BBXX 64045 21004 99591 70117 46/// /1512 10070 20035 40060 58012 22200 00101 11110 70049
BBXX 62170 21004 99514 10020 46/97 /2919 10084 20052 40180 51005 22200 00108 10602 70010 333 90710 91125
BBXX 62304 21004 99511 10018 46/98 /3015 10081 20037 40185 50001 22200 00111 10602 70008
BBXX 62305 21004 99504 10000 46/98 /2715 10095 20063 40203 58004 22200 00119 10501 70007
BBXX AMOUK03 21004 99532 10009 46/// ///// 10057 20045 30122 40153 54002 92350
BBXX AMOUK14 21004 99535 70030 46/// ///// 10066 20059 30101 40135 57010 92350
BBXX AMOUK06 21004 99512 10014 46/// ///// 10082 20039 30161 40178 57006 92350
BBXX AMOUK08 21004 99501 70061 46/// ///// 10118 20115 30196 40202 57012 92350
BBXX 62112 21004 99584 70002 47598 /3007 10064 20015 40094 53007 700// 22200
BBXX PJAI 21004 99581 70014 47599 /2910 10072 20011 40100 52008 700// 22200
BBXX 62111 21004 99580 70003 46/// /3115 10064 20020 40103 53006 22200 10503 70017
BBXX 63056 21004 99597 10016 47698 /2914 10058 21020 40055 52015 700// 22200 10604 70022
BBXX 63110 21004 99595 10015 47598 /3017 10074 21000 40068 52014 700// 22200 10604 70021
BBXX 63057 21004 99592 10015 47998 /3017 10064 21005 40073 52013 700// 22200 10705 70025
BBXX 62128 21004 99587 10014 47998 /3012 10053 20012 40084 52012 700// 22200 10705 70025
BBXX 62129 21004 99584 10003 46/// ///// 10063 20012 40087 51007 22200
BBXX 62113 21004 99584 10002 47598 /3012 10073 20010 40087 51007 700// 22200
BBXX 63055 21004 99606 10016 47997 /2914 10056 21011 40056 52012 751// 22200 10604 70021
BBXX 63108 21004 99608 10017 47999 /3112 10047 21029 40049 53015 700// 22200 10704 70020
BBXX 63106 21004 99610 10017 46/// /3011 10035 40054 53015 22200
BBXX 63105 21004 99610 10017 47697 ///// 10058 21001 40054 53016 700// 22200
BBXX 63113 21004 99610 10017 46/// /3208 10045 21009 40055 52017 22200 10705 70024
BBXX 63112 21004 99611 10010 47498 /3317 10051 21009 40049 53015 700// 22200 10705 70025
BBXX 63107 21004 99611 10017 46/// /3011 10032 40053 52017 22200
BBXX 63101 21004 99612 10009 46/// /3515 10045 20003 40053 53017 22200
BBXX 63103 21004 99612 10011 46/// /3019 10044 21009 40059 53021 22200 10705 70027
BBXX 63104 21004 99612 10016 47598 /2812 10048 21002 40051 52017 700// 22200
BBXX 63117 21004 99613 10011 47598 /3018 10047 21017 40052 53015 762// 22200
BBXX 63115 21004 99616 10013 47398 /3123 10035 21009 40056 53026 700// 22200 10806 70032
BBXX MWYG6 21004 99603 70040 47998 /3106 10059 700// 22200
BBXX 64041 21004 99607 70026 47698 /2913 10052 21019 40072 52015 700// 22200 10908 70040
BBXX 62164 21004 99572 10008 47598 /2815 10080 20029 40104 52003 741// 22200 00094 10504 70020
BBXX PJGO 21004 99571 10022 47598 /2821 10066 20027 40098 53001 700// 22200
BBXX 62133 21004 99571 10009 46/// /2913 10061 20010 40103 52003 22200 10604 70022
BBXX 62119 21004 99570 10019 47698 /3118 10066 20016 40100 55003 700// 22200 10504 70022
BBXX 62152 21004 99570 10018 47/98 /3015 10069 20017 40103 55001 700// 22200 10504 70022
BBXX 62154 21004 99564 10022 46/// /3117 10070 20015 40098 55002 22200
BBXX 62120 21004 99564 10021 47598 /3118 10068 20012 40103 55000 700// 22200
BBXX 62132 21004 99564 10020 46/// /3218 10073 20012 40111 55002 22200
BBXX 62123 21004 99563 10022 47598 /3020 10074 20017 40102 55000 700// 22200
BBXX 62165 21004 99540 10009 47998 /2712 10069 20038 40150 56003 700// 22200 10504 70020
BBXX 62127 21004 99540 10007 47898 ///// 10067 20037 40145 56004 700// 22200 10604 70018
BBXX 62131 21004 99539 10012 46/// /28// 10070 20043 40145 57002 22200
BBXX 62149 21004 99537 10011 47998 /2714 10073 20043 40151 58001 751// 22200 10604 70019
BBXX 62148 21004 99536 10015 46/// /2715 10070 20042 40153 57003 22200
BBXX 62150 21004 99536 10007 47497 /2613 10065 20037 40160 55003 762// 22200 10604 70021
BBXX 62121 21004 99535 10027 46/// ///// 22200
BBXX 62144 21004 99534 10017 47997 /2714 10065 20040 40155 57003 700// 22200 10504 70018
BBXX 62145 21004 99531 10028 47498 /2813 10068 20031 40155 58002 700// 22200 10504 70019
BBXX 62142 21004 99530 10021 47897 /2717 10069 20046 40151 58002 700// 22200 10503 70015
BBXX 62134 21004 99580 10014 47798 /3013 10057 20014 40089 51005 700// 22200 10604 70019
BBXX 62102 21004 99579 10018 46/// /3115 10065 20014 40089 52007 22200 10604 70020
BBXX 62117 21004 99579 10000 47398 /2707 10060 20015 40099 52012 762// 22200 10503 70017
BBXX 62143 21004 99577 10018 47498 /3111 10054 20016 40097 53006 762// 22200 10504 70020
BBXX 62118 21004 99577 10009 47598 /3212 10059 20024 40091 52008 700// 22200 10604 70020
BBXX 62155 21004 99577 10007 47499 /3116 10061 20023 40098 52007 751// 22200 10504 70019
BBXX 62116 21004 99576 10011 47597 /3213 10063 20019 40095 53009 700// 22200 10504 70020
BBXX 62104 21004 99574 10013 47598 /3018 10065 20027 40094 52006 700// 22200
BBXX 62114 21004 99583 10000 46/// /3014 10065 21010 40091 53004 22200
BBXX 62153 21004 99573 10020 47498 /2808 10043 20036 40095 53004 762// 22200 10604 70022
BBXX 62122 21004 99573 10016 47598 /3116 10061 20022 40095 51003 762// 22200 10604 70021
BBXX 62140 21004 99573 10013 46/// /30// 10064 20022 40094 52004 22200
BBXX 62146 21004 99572 10021 47/98 /2502 10061 20022 40100 55000 762// 22200 10604 70022
BBXX ZQSD5 21004 99583 10007 46/// /2611 10050 20007 40094 52010 22200 10704 70020
BBXX AMOUK27 21004 99582 70064 46/// ///// 11203 2//// 30094 40099 54001 92350
BBXX AMOUK19 21004 99583 70016 46/// ///// 10064 20026 30093 40097 57015 92350
BBXX AMOUK05 21004 99533 10009 46/// ///// 10061 20043 30107 40143 54000 92350
BBXX 62027 21004 99491 70022 46/// /2514 1//// 2//// 40216 58013 22200 00110 10703 328// 70013
BBXX TBWUK35 21004 99592 70069 41/98 30402 10065 20015 40085 54000 70300 83/// 22214 00110 2//// 399// 41008 80045
BBXX 62107 21004 99501 70061 46/// /3035 10116 20108 40199 57007 22200 00117 10703 70017 333 90710 91142
BBXX 62095 21004 99531 70159 46/// /2520 10116 20107 40182 53011 22200 00113 10809 70044 333 90710 91129
BBXX 62301 21004 99524 70047 46/// /2514 10098 20094 40144 55010 22200 00086 10503 70014
BBXX GHJV 21004 99359 70134 41598 40615 10166 20128 40329 52007 70311 84100 22251 02175 20301 80145
AAXX 21004 87467 31670 80912 10290 20147 39909 40038 52005 71311 8292/ 333 10360 20251 57940 82940 88560
AAXX 21001 22438 41567 82206 10010 21004 30042 40063 52011 70282 889//
AAXX 21001 38847 ///// /2603 11095 21123 39570 40400
AAXX 21001 38388 42998 00502 11118 21170 30333 40410 58025 555 14114
AAXX 21001 38392 42997 01005 11126 21198 30336 40449 57018 555 14115
AAXX 21001 38507 42996 00807 11016 21155 30168 40275 57016 555 10104
AAXX 21001 38511 42998 00706 11077 21155 30205 40357 57015 555 14109
AAXX 21001 38545 42998 00701 11124 21168 30252 40445 57013 555 14114
AAXX 21001 38647 42997 00914 11057 21153 30261 40306 57005 333 91018 91118 555 10107
AAXX 21001 38656 42998 00906 11088 21122 30285 40404 57009 555 10110
AAXX 21001 38687 42996 00000 11117 21147 30182 40442 57007 555 14111
AAXX 21001 38750 42997 00703 11003 21059 30287 40257 57010 555 10101
AAXX 21001 38763 42997 00910 11061 21147 30212 40324 57003 333 91018 91119 555 14107
AAXX 21001 38774 42995 01404 11071 21105 30163 40372 57003 555 10109
AAXX 21001 38799 42997 00701 11135 21162 30182 40439 57006 555 10114
AAXX 21001 38806 42997 00000 11118 21143 30149 40436 57004 555 14113
AAXX 21001 38880 42997 01007 11068 21125 30106 40381 58002 555 14107
AAXX 21001 38886 42997 01005 11081 21113 30156 40403 57006 555 14110
AAXX 21001 38895 42996 00802 11102 21129 30111 40428 54000 555 14111
AAXX 21001 38911 42997 00000 11083 21093 30105 40423 57004 555 14108
AAXX 21001 38915 42997 03401 11068 21073 30075 40423 58008 555 14109
AAXX 21001 38974 42998 01102 11084 21112 30037 40399 57006 555 14107
AAXX 21001 38987 42996 02601 11084 21103 39606 40409 57007 555 14104
AAXX 21001 23929 41976 82305 11077 21103 30275 40345 57010 73631 80001
AAXX 21001 28688 42997 02502 11130 21165 30304 40477 57002
AAXX 21001 28791 42998 82404 11130 21150 30317 40473 57007 80005
AAXX 21001 28383 42997 12103 11129 21172 30336 40426 57003 80001
AAXX 21001 28465 42998 81905 11110 21138 30360 40443 57004 83032
AAXX 21001 28586 42997 62504 11132 21167 30294 40455 57005 86030
BBXX 41029 21001 99328 70796 46/// /0000 1//// 90000
BBXX 44172 21001 99445 70634 46/// ///// 1//// 90001 22200 00065 11102 21002 318// 41101 70011
BBXX 44098 21001 99428 70702 46/// ///// 1//// 90007 22200 00089 11202 20501 313// 41201 70008
BBXX 42362 21001 99278 70907 46/// /1706 10233 20211 40146 55000 90000
BBXX 42362 21001 99278 70907 46/// /1707 10233 20211 40149 90015
BBXX 42364 21001 99291 70881 46/// /1509 10222 20206 40159 90015
BBXX 41115 21001 99184 70673 46/// ///// 1//// 90005 22200 11105 20904 335// 41103 70025
BBXX 41114 21001 99276 70802 46/// ///// 1//// 90016 22200 00236 11103 20903 306// 41101 70015
BBXX 51203 21001 99208 71570 46/// ///// 1//// 90013 22200 00248 11102 20302 329// 41101 70009
BBXX 52200 21001 99134 11448 46/// ///// 1//// 90015 22200 00287 10905 20904 311// 41101 70023
AAXX 21001 28588 42998 02403 11130 21173 30287 40458 57009
AAXX 21001 29998 32999 52603 11144 21215 38701 48555 52001 85030 333 21177 55009
AAXX 21001 30385 32999 50000 11262 21274 39704 40289 52027 80009 333 21263 55000
AAXX 21001 30469 329// 12601 11273 21312 39476 40313 52040 81040 333 21312 47015 55000
AAXX 21001 30636 119// 20701 11214 21232 39688 40349 52014 69902 70271 80001 333 21216 47035 55005
AAXX 21001 30650 32984 03501 11265 21312 39124 40353 53018 333 21269 47007
AAXX 21001 30664 12999 61501 11237 21270 39229 40302 52015 69902 84041 333 21275 55006
AAXX 21001 30781 11996 80000 11299 21317 39734 40261 52015 69962 77171 8807/ 333 21307
AAXX 21001 30777 32998 52403 11219 21268 39555 40259 52015 80002 333 21220 47008 55000
AAXX 21001 30844 31999 62707 11187 21220 39308 40354 52014 73633 80001 333 21188 47006
AAXX 21001 30925 328// 31702 11170 21204 39349 40388 58002 81041 333 21216 47001 55001
AAXX 21001 31371 11996 80202 11219 21252 39902 40187 57001 60012 77172 8801/ 333 21225 55070
AAXX 21001 31388 32999 80000 11228 21247 39907 40194 57003 8802/ 333 21257 47005 55060
AAXX 21001 31478 NIL
AAXX 21001 31532 11997 80000 11295 21313 39885 40269 57004 69900 77172 85027 333 21351 47016 55074
AAXX 21001 31594 32998 81002 11175 21201 30004 40185 54000 80001 333 21177 47018
AAXX 21001 31655 32998 00000 11225 21243 30180 40231 53004 333 21226 47019
AAXX 21001 31754 32999 00000 11335 21359 39730 40302 57002 333 21369
BBXX 46088 21001 99483 71232 46/// /2712 10081 40239 90020 22200 00079 10501 20501 70006 333 91215 555 11125 22133 30019 42615 60019 271114 271108 273101 271106 267095 270084
BBXX 51205 21001 99210 71564 46/// ///// 1//// 90018 22200 00241 10905 20905 334// 41302 70027
BBXX 46114 21001 99364 71222 46/// ///// 1//// 90004 22200 00123 11405 20903 328// 41404 70025
AAXX 21004 78988 01470 61015 10267 20232 30115 40126 52011 69951 70182 82242 333 10293 20245 59009 60007 70036 82818 86081
AAXX 21004 78990 01480 60916 10260 20231 30125 40132 52010 60001 71622 84201 333 10301 20257 59011 60007 84816 85081
AAXX 21004 78873 01060 /0515 10245 20203 30128 52014 60001 70000 333 10277 20241 58000 60007
AAXX 21001 28696 42997 82203 11145 21179 30313 40465 57006 8805/
AAXX 21004 61017 NIL
AAXX 21004 61024 NIL
AAXX 21004 61036 NIL
AAXX 21004 61043 32960 70610 10214 21080 39692 40130 80008 333 0//00 58006 87280
AAXX 21004 61045 32965 50202 10183 21040 39644 40140 80002 333 0//00 59004 85080
AAXX 21004 61049 NIL
AAXX 21004 61052 32960 23604 10210 20019 39876 40131 80002 333 0//00 58002 82080
AAXX 21004 61075 32960 50404 10225 20013 39821 40127 80002 333 0//00 58006 85080
AAXX 21004 61080 NIL
AAXX 21004 61090 32960 70408 10190 21077 39636 40145 80008 333 0//00 58006 87280
AAXX 21004 61091 NIL
AAXX 21004 61096 32965 73604 10178 21048 39755 40136 80008 333 0//00 58000 87280
AAXX 21004 61099 32960 73610 10240 20040 39887 40113 80008 333 0//00 58002 87280
AAXX 21004 60623 36/// /0000 10068 21104
AAXX 21004 60393 36/// /0901 10101 20047
BBXX SHIP 21004 99222 11323 41597 80517 10220 20175 40178 52001 76162 886// 22284 00280 20604 303// 40505 80190
BBXX DNDD 21004 99483 11570 41297 83525 10000 21048 40080 54000 7//72 8/7// 22214 04070 2//// 334// 40302 5//// 81017
BBXX DDZI2 21003 99342 11408 41598 73016 10135 20033 40220 50/// 70122 879// 22215 00214 20601 80085
AAXX 21004 78988 01470 61015 10267 20232 30115 40126 52011 69951 70182 82242 333 10293 20245 59009 60007 70036 82818 86081
AAXX 21004 78990 01480 60916 10260 20231 30125 40132 52010 60001 71622 84201 333 10301 20257 59011 60007 84816 85081
AAXX 21004 78873 01060 /0515 10245 20203 30128 52014 60001 70000 333 10277 20241 58000 60007
BBXX SHIP 21004 99301 31125 41998 11514 10211 20157 40134 52006 70100 81030 22232 00223 11105 21002 320// 40703
BBXX SHIP 21004 99301 31125 41998 11514 10211 20157 40134 52006 70100 81030 22232 00223 11105 21002 320// 40703
AAXX 21001 14216 NIL
AAXX 21001 14219 NIL
AAXX 21001 14232 NIL
AAXX 21001 14234 NIL
AAXX 21001 14236 NIL
AAXX 21001 14244 NIL
AAXX 21001 14248 NIL
AAXX 21001 14253 NIL
AAXX 21001 14256 12970 02303 11043 21057 39812 40144 53002 60001
AAXX 21001 14280 11920 03601 11078 21081 30033 40149 51002 60001 710//
AAXX 21001 14308 NIL
AAXX 21001 14321 NIL
AAXX 21001 14370 11901 00000 11062 21073 30038 40153 52003 60001 74444
AAXX 21001 14382 12960 02301 11036 21041 30025 40150 54000 60001
AAXX 21001 14428 NIL
AAXX 21001 14441 NIL
AAXX 21001 14452 NIL
AAXX 21001 14454 NIL
AAXX 21001 14462 NIL
AAXX 21001 21432 31998 01401 11299 21330 30317 40338 54000 333 21304 48007
AAXX 21001 21824 11998 81902 11340 21353 30280 40290 54000 69952 70272 82035 333 21347 48006
AAXX 21001 21908 12998 23201 11280 21304 30228 40317 57004 69942 80001 333 21298
AAXX 21001 21921 32999 22003 11393 21429 30229 40280 52009 82030 333 21404 48036
AAXX 21001 21931 12998 00502 11385 21413 30248 40285 58002 69902 333 21386 48019
AAXX 21001 21946 11498 80000 11290 21313 30198 40286 53001 69900 77872 8653/ 333 21306 47025 86616
AAXX 21001 21982 41595 83514 11163 21189 30113 40141 58014 73831 8357/ 333 91120
AAXX 21001 25062 41996 32602 11284 21315 30201 40205 52005 70511 83030 333 91104
AAXX 21001 25123 11998 51403 11359 21386 30218 40255 52009 69900 70271 82011 333 21372 47027
AAXX 21001 25138 32699 40000 11400 21427 30123 40264 52006 82531 333 21435 47022 91102
AAXX 21001 25173 41494 83111 11231 21249 30162 40167 52006 73832 885// 333 91116
AAXX 21001 25248 32999 00000 11423 21448 39744 40265 52006 333 21425 47030 91100
AAXX 21001 25282 41938 83510 11212 21224 30101 40108 52008 73832 8803/ 333 91115
AAXX 21001 25325 NIL
AAXX 21001 25356 42999 63204 11208 21265 30031 40137 52004 82031 333 91008
AAXX 21001 25399 41458 83204 11170 21189 30010 40019 52010 78587 889// 333 91107
AAXX 21001 25428 31919 60000 11452 21483 39892 40284 52008 71022 83031 333 21458 47024 55000 91101
AAXX 21001 25551 42999 42702 11254 21292 30100 40133 52006 80001 333 91104
AAXX 21001 25563 41599 70110 11139 21166 39982 40063 52012 73673 86570 333 91115
AAXX 21001 25594 41496 83612 11082 21088 39907 49958 52015 73873 8655/ 333 91119
AAXX 21001 25677 41396 83309 11151 21164 30007 40013 52007 73873 8572/ 333 85708 91112
AAXX 21001 31054 12999 50000 11426 21455 39992 40312 52015 69942 82026 333 21444 47034 55029
AAXX 21001 31123 11997 62801 11375 21305 39951 40327 51010 69932 77172 82016 333 21378 47019
AAXX 21004 61600 32960 73604 10196 20156 30143 40148 8707/ 333 58006 87463
AAXX 21004 61612 NIL
AAXX 21004 61627 32958 70406 10250 20004 3//// 4//// 80002 333 0//00 5//// 87073
AAXX 21004 61630 32960 00204 10239 20054 30122 40141 333 0//00 58009
AAXX 21004 61641 32958 53606 10220 20205 30111 40144 83032 333 0//00 58002 83363 84073
AAXX 21004 61666 NIL
AAXX 21004 61679 32958 33004 10252 20137 30136 40144 80002 333 0//00 58003 83073
AAXX 21004 61687 32960 00606 10254 21016 30077 40134 333 0//00 58007
AAXX 21004 61695 32960 62802 10212 20190 30116 40142 80002 333 0//00 58008 86073
AAXX 21004 61697 32960 30000 10217 20209 30126 40141 80002 333 0//00 58007 83073
AAXX 21004 61698 NIL
AAXX 21004 61699 NIL
AAXX 21004 08001 11357 8//// 10132 20129 30243 40325 53008 69931 70252 887// 333 924/6
AAXX 21004 08023 11560 63113 10132 20119 30238 40310 52009 69901 70252 85878
AAXX 21004 08027 11110 83312 10113 20108 39979 40291 51001 69941 75155 887//
AAXX 21004 08141 11804 12005 10030 20026 39445 40333 51008 60001 74641 81030
AAXX 21004 08430 12870 22808 10150 20029 30187 40262 50001 60001 81041
AAXX 21004 65528 NIL
AAXX 21004 65536 NIL
AAXX 21004 65545 NIL
AAXX 21004 65548 NIL
AAXX 21004 65555 NIL
AAXX 21004 65557 32958 0//// 10239 20221 39900 40140 333 58014
AAXX 21004 65560 32956 0//// 10245 20231 39808 40116 333 59006
AAXX 21004 65562 32958 0//// 10261 20242 3//// 4//// 333 5////
AAXX 21004 65563 32956 00000 10227 20217 39883 40122 333 59004
AAXX 21004 65578 32457 72606 10266 20249 30115 40132 87500 333 58003 87616
AAXX 21004 65585 32958 0//// 10260 20238 3//// 4//// 333 5////
AAXX 21004 65592 NIL
AAXX 21004 65594 31458 70000 10260 20241 30096 40130 70399 82532 333 59001 82613 84360
AAXX 21004 65599 32958 0//// 10250 20240 30045 40119 333 58005
AAXX 21004 93800 16/// /3603 10213 20155 40292 52006 60004 333 70000
AAXX 21004 93805 16/// /3121 10164 20135 40282 57004 60004 333 70000
BBXX 46001 21001 99563 71480 46/// /1916 10056 40098 58028 92350 22200 00049 10910 20607 300// 40907 70050 333 91219 555 11171 22184 32322 42020 62349 190159 191157 190159 190160 192157 192158
BBXX 46207 21001 99509 71299 46/// /3306 10079 40299 52007 22200 00081 11509 70044 333 91207
BBXX A8EH2 21004 99419 71401 41/98 81809 10125 20085 40315 54000 70222 8/77/ 22285 00115 20201 330// 40606 80105
BBXX A8ER9 21001 99486 71425 41798 31410 10083 20057 40300 57030 70200 81075 22274 04115 20804 327// 41208 5//// 80070
BBXX A8IH2 21003 99357 71261 41/97 /3617 10160 20144 40200 54000 70122 8///2 22213 06140 20503 33633 40504 503// 80150
BBXX A8SI3 21003 99533 71463 43497 81827 10070 20030 40260 57050 22264 00040 20606 320// 40807 80050
BBXX SHIP 21003 99316 71299 41697 80122 10150 20100 40250 57020 70222 886// 22223 00170 20807 332// 40806 5//// 6//// 80120 ICE /////
BBXX WABS 21004 99461 71259 41498 73421 10083 20060 40290 54000 7//22 872// 22283 0//// 20205 333 // 40612 5//// 6//// 80072 ICE /////
BBXX WACW 21004 99600 71459 41297 82038 10038 20030 40150 57016 77272 8864/ 22233 00060 20202 316// 40509 5//// 6//// 80035 ICE /////
BBXX WDE9586 21003 99427 71409 41498 81612 10140 20120 40305 57005 7//22 884// 22214 00120 20202 328// 40905 5//// 6//// 80130 ICE /////
AAXX 21001 33345 /1298 82803 10005 21001 39857 40064 52003 70262 886// 333 88704 555 69941
BBXX 46147 21001 99518 71312 46/// /3206 10076 40297 52009 22200 00080 11310 70051 333 91208
AAXX 21004 62309 32560 40000 10126 20101 40196 52001 84500
AAXX 21004 62325 NIL
AAXX 21004 62332 31956 02604 10153 20135 40196 57004 71000
AAXX 21004 62387 32960 02903 10082 20054 40204 57004
AAXX 21004 62452 31440 81904 10126 20118 40208 57004 71021 886//
AAXX 21004 62459 32960 00310 10160 20083 40173 52003
AAXX 21004 43400 NIL
AAXX 21004 43404 22470 6//// 10248 20205 30089 40099 82105 333 59010 60008 82818 86280
AAXX 21004 43410 NIL
AAXX 21004 43413 21470 10508 10254 20215 30087 40091 70280 81101 333 59011 69948 81818
AAXX 21004 43415 21470 10000 10226 20220 39981 40089 7//// 81100 333 59010 60018 81818
AAXX 21004 43418 22470 61112 10255 20227 3//// 4//// 82131 333 5//// 60007 82818
AAXX 21004 43421 22460 20000 10228 20222 39983 40085 82100 333 59010 60007 82818
AAXX 21004 43422 22469 305// 10230 20221 39951 40081 83100 333 59005 60028 83818
AAXX 21004 43424 21968 50205 10237 20219 30072 40074 70282 85031 333 59005 60007 85360
AAXX 21004 43436 21470 80508 10262 20236 30073 40076 70282 8417/ 333 59009 60017 84818 88460
AAXX 21004 43441 21460 80000 10237 20227 39942 40071 780// 86706 333 59001 69992 83716 84818 88280
AAXX 21004 43444 22470 70000 10214 20208 39546 40081 871// 333 59004 60007 87818
AAXX 21004 43467 22960 00503 10238 20226 30068 40075 333 59005 60007
AAXX 21004 43473 21365 80712 10152 20149 38107 48477 76086 887// 333 59003 60017 85708 87810
AAXX 21004 43475 21470 80509 10262 20239 30069 40078 702// 8512/ 333 59009 60038 85818 88460
AAXX 21004 43476 21440 80000 10180 20177 38750 48493 7608/ 8522/ 333 59005 60027 85811 88459
AAXX 21004 43479 21410 80502 10200 20200 39240 780// 8677/ 333 59004 60022 85714 87450
AAXX 21004 43486 21470 20000 10228 20225 39988 40082 82100 333 58004 60007 82810
AAXX 21004 43495 22460 4//// 10236 20227 30061 40077 82230 333 59006 60007 82818 83360
AAXX 21004 43497 22472 30506 10246 20231 30051 40069 82130 333 59005 60007 82818
AAXX 21004 71302 16/// /2913 10022 21058 39362 40185 53021 60001 333 10037 21005 70000
AAXX 21004 71343 16/// /2622 10036 21039 60001 333 10058 20029 70000
AAXX 21004 71734 16/// /2113 11068 21102 39715 40115 58018 60001 333 11068 21127 70000
AAXX 21004 71276 16/// ///08 11004 21012 60001 333 10044 21004 70000
AAXX 21004 71189 46/// /2715 11108 21146 6///1 333 11087 21110 7////
AAXX 21004 71979 16/// ///// 11030 21103 38426 40078 53015 60001 333 11001 21030 70000
AAXX 21004 71883 46/// /2801 11023 21027 39346 40174 53001 6///1 333 10037 21036 7////
AAXX 21004 71217 16/// /2616 10030 21067 60001 333 10057 20009 70000
AAXX 21004 71224 16/// /2711 10002 21051 60001 333 10032 20002 70000
AAXX 21004 41241 36/// /1406 10177 21018 30166 40204 333 0E/// 58008
AAXX 21001 48803 31456 81402 10149 20127 30079 40196 52021 71022 888// 333 00015 20149 3/015 59008 83894 8869 6
AAXX 21001 25703 11995 20000 11433 21468 39991 40307 52009 69900 77670 81031 333 21424 47026 55000
AAXX 21001 25745 32699 23003 11279 21317 30088 40145 52005 82500 333 21302 47007 55000
AAXX 21001 25913 32999 00404 11214 21271 30022 40181 52007 333 21214 48019 55034
AAXX 21001 25954 32999 80206 11193 21251 39952 40072 52003 80001 333 21210 48023 55000
AAXX 21001 25956 70803 11177 21236 30024 40030 51001 84401 333 21204 44018 55000
AAXX 21001 31088 11596 83605 11190 21216 30160 40168 52010 69930 78582 8692/ 333 21203 47001 55049
AAXX 21001 31873 32998 00902 11235 21259 30096 40243 56007 333 21247 47014
AAXX 21001 31909 32999 12904 11120 21215 30155 40237 54000 80001 333 21144 44017 55073
AAXX 21001 31960 31997 01301 11096 21137 39981 40227 57009 70400 333 21106 41998 55071
AAXX 21001 31961 31996 00000 11214 21232 30187 40238 55000 70400 333 21219 42002 55080
AAXX 21001 32053 32999 02303 11219 21237 30168 40222 53004 333 21264 47055 91005 91105
AAXX 21001 32061 11598 31203 11180 21199 30183 40224 53005 69920 70281 83900 333 21211 47015 91004 91105
AAXX 21001 32098 32998 03102 11191 21210 30223 40234 52005 333 21222 47024 91003 91103
AAXX 21001 32150 32698 83502 11138 21151 30192 40224 53003 81574 333 21192 47020 91004 91105
AAXX 21001 32165 11596 53401 11015 21059 30164 40227 52012 69920 78582 85900 333 21040 47015 91004 91105
AAXX 21001 32215 11523 73508 11074 21087 30063 40093 53017 60010 78583 87900 333 21079 47046 91016 91120
AAXX 21001 32252 NIL
AAXX 21001 32389 31698 73001 11320 21337 30097 40138 52015 74041 82531 333 21340 44004 55004
AAXX 21001 32477 32999 03603 11191 21240 30088 40122 52013 333 21224 47058 55059
AAXX 21001 32583 32599 23307 11129 21201 30062 40094 52019 81501 333 21147 48037
AAXX 21001 32618 12598 30704 11037 21094 30005 40027 52007 69930 82201 333 21066 48016 55000
AAXX 21001 31960 31997 01301 11096 21137 39981 40227 57009 70400 333 21106 41998 55071
AAXX 21001 31909 32999 12904 11120 21215 30155 40237 54000 80001 333 21144 44017 55073
AAXX 21001 31961 31996 00000 11214 21232 30187 40238 55000 70400 333 21219 42002 55080
AAXX 21001 31873 32998 00902 11235 21259 30096 40243 56007 333 21247 47014
BBXX 46147 21001 99518 71312 46/// /3206 10076 40297 52009 22200 00080 11310 70051 333 91208
AAXX 21004 71883 46/// /2801 11023 21027 39346 40174 53001 6///1 333 10037 21036 7////
BBXX A8XY2 21004 99439 70257 41/96 82023 10152 20114 40290 57020 702// 8//// 22264 04150 20404 80130
BBXX DCAX2 21003 99055 11610 41296 70827 10291 20263 40071 52011 72588 87779 22233 21006 309// 41006 5//// 80271
BBXX DHSI 21004 99245 70163 41998 00929 10210 20164 40200 51010 702// 80000 22284 20306 80180
BBXX TBWUK03 21003 99322 70145 41498 20719 10175 20114 40305 54000 70200 81140 22243 20402 306// 40902 5//// 80139
AAXX 21004 40153 11957 21604 10118 21009 39118 48519 57002 60001 70500 82080
AAXX 21004 40179 11440 62203 10161 20145 30150 40187 52002 60001 71022 86600
AAXX 21004 40180 11559 70000 10165 20133 30140 40189 53001 60001 71022 876//
AAXX 21004 40190 16/// ///// 10160 20160 39855 40186 57002 60001
AAXX 21004 40199 13/// /0704 10163 20053 30156 40179 52014 60001
AAXX 21004 89002 41697 42108 11101 21110 39748 49802 57011 74041 84600 333 11021 21103
BBXX A8CI9 21004 99084 10583 41597 70418 10269 20220 40120 57025 71352 8707/ 22244 04280 2//// 3//// 4//// 5//// 80234
BBXX A8CI9 21004 99084 10583 41597 70418 10269 20220 40120 57025 71352 8707/ 22244 04280 2//// 3//// 4//// 5//// 80234
BBXX DHSI 21004 99245 70163 41998 00929 10210 20164 40200 51010 702// 80000 22284 20306 80180
BBXX A8VL5 21004 99289 10328 41/97 /3523 10180 20148 40290 50/// 7//// 8//// 22273 00200 2//// 80160
BBXX A8VL5 21004 99289 10328 41/97 /3523 10180 20148 40290 50/// 7//// 8//// 22273 00200 2//// 80160
BBXX A8YW2 21004 99124 30783 41/97 81222 10245 20238 40075 55010 76022 8//// 22214 00270 20102 80240
AAXX 21004 62458 32960 03308 10175 20098 40168 57003
AAXX 21004 62455 32960 03405 10150 20125 40188 57001
AAXX 21004 62420 32960 00000 10096 20038 40206 57005
AAXX 21004 62432 32960 02302 10100 20045 40198 57011
AAXX 21004 62435 32960 03604 10108 20036 40187 57005
AAXX 21004 62476 32960 00000 10196 20178 40141 56006
BBXX C6XQ2 21003 99249 50446 41798 31013 10253 20240 40105 51002 70211 82/4/ 22213 04250 20602 307// 40802 5//// 80244
BBXX A8YW2 21004 99124 30783 41/97 81222 10245 20238 40075 55010 76022 8//// 22214 00270 20102 80240
BBXX A8XY2 21004 99439 70257 41/96 82023 10152 20114 40290 57020 702// 8//// 22264 04150 20404 80130
BBXX TBWUK03 21003 99322 70145 41498 20719 10175 20114 40305 54000 70200 81140 22243 20402 306// 40902 5//// 80139
AAXX 21004 62357 32960 02703 10114 20081 40198 57003
AAXX 21004 62423 32960 00000 10074 20011 40216 57005
AAXX 21004 62403 32960 00000 10122 20043 40195 52002
AAXX 21001 50434 11980 21803 11304 21338 39256 40250 52007 69911 70070 80002 333 05503 70002
AAXX 21001 50527 11970 72706 11221 21246 39381 40238 52014 69901 70070 82032 333 05404 79999 92515
AAXX 21001 50603 32980 12904 11184 21241 39546 40280 52017 80002 333 00007
AAXX 21001 50632 32980 32903 11188 21226 39246 40203 52009 82032 333 05601
AAXX 21001 50727 11570 73202 11199 21233 38986 40285 52011 69911 77077 875// 333 05510 70001
AAXX 21001 50915 32980 12904 11189 21237 39236 40334 52019 80002 333 05104
AAXX 21001 51716 32965 73601 11070 21110 39055 40423 57001 80002 333 00600
AAXX 21001 51765 32980 00000 11141 21172 39387 40471 57001 333 00951
AAXX 21001 51777 32970 41801 11113 21153 39331 40456 57003 80002 333 00852
AAXX 21001 51811 11961 72701 11070 21084 38925 40429 57002 69971 77070 86032 333 00700 31025 70029 92507
AAXX 21001 51828 11865 62502 11085 21107 38764 40431 57001 69921 70070 82502 333 00753 70012 92502
AAXX 21001 52267 32980 02202 11157 21219 39263 40468 52012 333 00501
AAXX 21001 52323 32980 02504 11168 21237 38347 52002 333 00501 92502
AAXX 21001 52495 32980 02501 11186 21226 38811 40466 52005 333 00500
AAXX 21001 53149 32980 03205 11169 21206 38880 40430 52014 333 00303
AAXX 21001 53192 32980 22702 11226 21257 38947 40420 52016 80002 333 00104
AAXX 21001 53231 32980 01604 11189 21230 38594 52011 333 00551
AAXX 21001 53336 32980 03204 11148 21214 38823 40429 52017 333 00402
AAXX 21001 53391 32680 12906 11184 21211 38557 40400 52018 81500 333 00151
AAXX 21001 53529 32980 03203 11127 21188 38732 40428 52006 333 00400 79999
AAXX 21001 53543 32980 02903 11117 21198 38621 40397 52013 333 00352
AAXX 21001 53723 32962 10000 11131 21152 38780 40445 52015 80002 333 00654 79999
AAXX 21001 54012 32980 72708 11185 21223 39043 40329 52020 80002 333 05200
AAXX 21001 54026 32970 72902 11101 21220 39896 40241 52014 86032 333 05405
AAXX 21001 54027 32680 22904 11115 21216 39644 40271 52019 82500 333 05206
AAXX 21001 54208 11980 72704 11176 21208 38799 40372 52018 69901 77000 80002 333 05110 79999
AAXX 21001 54776 31956 73203 10021 21032 30205 40264 52005 71000 80002 333 05451 31011
AAXX 21001 56004 32980 02702 11223 21336 35787 52005 333 05202
AAXX 21001 56033 32980 20401 11200 21273 35979 57001 80002 333 05351
AAXX 21001 56046 32980 00000 11200 21241 36229 52005 333 05352 92500
AAXX 21001 56193 NIL
AAXX 21001 56196 11525 80000 10059 20044 40287 52013 69941 76060 885// 333 00100 70004
AAXX 21001 56287 11440 80000 10053 20049 40305 52016 60011 76066 885// 333 00200 70017
AAXX 21001 56684 11560 80703 10025 20006 37913 52019 69901 76000 885// 333 00002 30005 79999
AAXX 21001 56751 32980 02704 10034 21001 38019 52013 333 05200 31001
AAXX 21001 56786 32560 82201 10058 20035 38117 52021 884// 333 05101 30002
AAXX 21001 56977 32470 72701 10093 20093 40199 52016 875// 333 05101
AAXX 21001 57259 11461 80000 10044 20040 40313 52021 69901 76060 8277/ 333 00101 30044 79999
AAXX 21001 57279 31957 83601 10029 20000 40307 52018 71000 8807/ 333 00101 30019
AAXX 21001 57348 11856 83602 10082 20062 40272 52018 69981 76066 885// 333 00051 70008
AAXX 21001 57399 32960 70202 10043 20001 40290 52016 8707/ 333 00001 30017
AAXX 21001 57554 11820 81101 10056 20044 40292 52018 69931 71060 885// 333 00000 70003
AAXX 21001 57793 31930 80000 10080 20042 40269 52012 71000 8807/ 333 05102
AAXX 21001 58345 31920 72501 10058 20044 40280 52010 71000 8704/ 333 00100 30038
AAXX 21001 58506 11765 80202 10025 21006 40273 52006 69901 70060 885// 333 05100 30017 79999
AAXX 21001 58813 32961 02701 10037 20034 40264 52020 333 00000 30028
AAXX 21001 58834 32962 72701 10103 20084 40253 52024 8704/ 333 05251
AAXX 21001 58926 11658 70401 10112 20095 40241 52024 69901 71060 8354/ 333 05202 79999
AAXX 21001 58944 11563 70203 10141 20101 40228 52021 69921 76060 875// 333 05200 70002
AAXX 21001 59096 32562 72001 10127 20031 40234 52020 8554/ 333 05104
AAXX 21001 59102 31959 60701 10097 20043 40240 52020 71000 86030 333 05105
AAXX 21001 59278 32762 70402 10170 20059 40214 52023 875// 333 05204
AAXX 21001 59456 32865 70701 10175 20067 40196 52022 875// 333 05103
AAXX 21001 59493 31757 80402 10179 20093 40202 52024 70500 885// 333 05102 70001
AAXX 21001 59658 31657 73601 10169 20122 40194 52021 70500 875// 333 05103
AAXX 21001 59673 32563 80404 10173 20104 40200 52023 888// 333 05102
AAXX 21001 59845 11560 81101 10176 20168 40189 52020 69931 72160 888// 333 05101 70003
BBXX 46183 21001 99536 71311 46/// /2806 10061 40293 52022 22200 00077 11402 70008 333 91207
AAXX 21001 29313 32998 22203 11163 21189 30264 40397 58003 80002 333 21163 47024 55044
AAXX 21001 23412 41496 81704 11037 21052 30094 40194 53003 77187 8872/ 333 86514
BBXX 46183 21001 99536 71311 46/// /2806 10061 40293 52022 22200 00077 11402 70008 333 91207
AAXX 21004 64500 11360 82008 10265 20244 30101 40114 69921 72166 885// 333 0//11 58005 84608 88630
BBXX DGPT2 21004 99118 70289 41498 21812 10255 20220 40140 54000 70200 821/1 22214 00260 20503 80230
BBXX SLKU 21004 99154 11363 41/98 50822 10284 40074 52024 70111 852// 22274 00293 20603 33405 40905 50904
AAXX 21001 37553 426// 81901 11019 21045 39592 40264 57025 885// 333 55/// 555 14103
AAXX 21001 60380 36/// /3303 10096 20048
AAXX 21001 60379 36/// /2002 10093 20093
AAXX 21001 60394 36/// /2402 10122 20035
AAXX 21001 60374 36/// /1804 10114 20049
AAXX 21001 60613 36/// /0000 10038 21061
BBXX 46131 21001 99499 71250 46/// /3505 1//// 40261 57001 22200 00076 10301 70004 333 91206
BBXX 46131 21001 99499 71250 46/// /3505 1//// 40261 57001 22200 00076 10301 70004 333 91206
AAXX 21001 40650 4296020000 10039 20013 40237 54000 80001
AAXX 21001 40603 42960 03503 10080 21012 40266 53002
AAXX 21001 40608 42960 00000 10028 20001 40247 51003
AAXX 21001 40621 42960 00902 10068 21012 40260 54000
AAXX 21001 40627 42960 01202 10044 20002 40229 58005
AAXX 21001 40642 42960 00000 10076 21002 40239 58006
AAXX 21001 40656 42960 00000 10050 20014 40217 58008
AAXX 21001 40664 42960 00000 10050 20008 40224 54001
AAXX 21001 40665 42960 00000 10065 20042 40235 57005
AAXX 21001 40670 42960 00000 10067 20023 40227 58002
AAXX 21001 40674 42960 00000 10057 20006 40230 53006
AAXX 21001 40676 42960 02502 10074 20031 40227 57004
AAXX 21001 40680 42960 00501 10070 2002140212 58005
AAXX 21001 40689 42960 00000 10078 20026 40232 54000
AAXX 21001 40691 42960 02102 10094 20029 40248 53008
AAXX 21001 78310 12501 71103 10248 20219 30149 40159 53009 60001 83242 333 10283 20216 30/// 56999 59015 70068 83820 84074 92023
AAXX 21001 78315 12564 50801 10219 20197 30099 40165 53008 60001 83232 333 10272 20181 30/// 56999 59022 83820 83360
AAXX 21001 78318 12565 21502 10233 20196 30160 40164 51007 60001 82800 333 10265 20213 31/// 56900 59016 81820
AAXX 21001 78322 12556 50301 10237 20182 30161 40178 53012 60001 83242 333 10274 20180 30/// 56999 59011 83820
AAXX 21001 78324 12/00 21205 10251 20197 30150 40161 51007 60001 81240 333 10274 20235 30/// 56990 59012 79999 818//
AAXX 21001 78325 12530 30906 10230 20196 30116 40174 53013 60001 82242 333 10277 20194 30/// 56999 59017 82820
AAXX 21001 78328 12/62 41006 10234 20193 30181 40/// 51008 60001 82802 333 10250 20223 30/// 56902 59018 818// 84073 92427 555 20010
AAXX 21001 78333 12410 50501 10236 20188 30163 40170 53008 60001 83232 333 10284 20203 30/// 56199 59012 83818 555 10402
AAXX 21001 78344 NIL
AAXX 21001 78345 12565 60704 10230 20189 30176 40180 53008 60001 82502 333 10277 20180 30/// 56900 59013 70026 82626 84073
AAXX 21001 78348 11550 30706 10226 20186 30131 40184 51008 60001 70511 81502 333 10255 20212 30/// 56909 59015 81820 83070
AAXX 21001 78349 12550 40601 10226 20182 30065 40175 53001 60001 83801 333 10280 20202 30/// 56009 59023 70006 83820
AAXX 21001 78351 12550 10104 10224 20182 30154 40156 53003 60001 81500 333 10306 20201 30/// 56900 59002 81626
AAXX 21001 78353 12560 50804 10239 20183 30157 40179 53007 60001 84802 333 10260 20226 31/// 56909 59018 70011 83820
AAXX 21001 78355 12560 10303 10212 20191 30045 40188 51008 60001 81801 333 10258 20190 30/// 56909 59006 70020 81820
AAXX 21001 78358 12530 30707 10243 20192 30166 40181 52006 60001 83800 333 10268 20229 31/// 56900 59006 70009 82823
AAXX 21001 78360 12560 10903 10263 20212 30153 40165 53008 60001 81800 333 10300 20206 30/// 56900 59007 70002 81820 92033
AAXX 21001 78363 NIL
AAXX 21001 78365 12/50 30913 10252 20189 30185 40190 52005 60001 83800 333 10269 20233 31/// 56900 57865 59001 70001 828// 92046
AAXX 21001 78369 11464 10608 10250 20185 30168 40177 52008 60001 70511 81200 333 10261 20229 30/// 56900 57860 59006 70016 81818 92045
AAXX 21001 48826 31756 80202 10178 20147 30048 40186 53018 71022 885// 333 00018 20178 3/018 59016 88697
AAXX 21001 48839 32497 80506 10194 20146 30118 40184 53020 888// 222// 00198 2//02 333 00/// 20189 59014 8389 4 88696
AAXX 21001 48830 31440 70000 10138 20112 39888 40203 52020 71022 878// 333 00014 20110 3/011 59015 82894 8769 7
AAXX 21001 48808 31440 70000 10129 20118 39913 40206 52019 71022 878// 333 00014 20120 3/011 59013 82894 8769 6
AAXX 22001 33815 42597 83303 10008 21001 39863 40073 57004 885// 555 11001
AAXX 21001 51156 32980 02901 11187 21245 38879 40536 57015 333 00052 92504
AAXX 21004 60670 12970 00000 10061 21012 39107 48545 55005 60001 333 0//00 95990
AAXX 21001 52203 32980 00401 11161 21200 39518 40475 52001 333 00853
BBXX VRVB5 21004 99404 70714 41498 71910 10070 20004 40220 5/020 70202 87/// 22224 00130 2//// 3//// 4//// 80030
BBXX MGGK4 21001 99161 70176 41397 20108 10263 20161 40147 53023 70011 81738 22284 00240 20602 30102 40402 50302 80200
AAXX 21001 38846 419// 60404 11156 21162 38612 48560 53010 71022 82033
BBXX 46204 21001 99514 71288 46/// /2607 10079 40290 52007 22200 00083 11310 70051 333 91209
AAXX 2100/ 89872 46/// ///// 11040 39724 4//// 5////
AAXX 2100/ 89869 46/// ///// 11026 39694 4//// 5////
AAXX 2100/ 89329 46/// ///// 11055 38721 4//// 5////
AAXX 2100/ 89799 46/// ///// 11234 4//// 5////
AAXX 2100/ 89327 46/// ///// 10000 39718 4//// 5////
AAXX 2100/ 89332 46/// ///// 11009 39183 4//// 5//// 90010
AAXX 2100/ 89828 46/// ///// 11246 36460 4//// 5////
AAXX 2100/ 89108 46/// ///// 11213 36998 4//// 5////
AAXX 2100/ 89314 46/// ///// 11060 38227 4//// 5////
BBXX 46204 21001 99514 71288 46/// /2607 10079 40290 52007 22200 00083 11310 70051 333 91209
AAXX 21004 89050 11597 70608 10036 20019 49945 54000 60022 78082 86330
AAXX 21004 89512 42598 71328 11012 21075 39612 49759 57018 87500
AAXX 21004 89574 32998 11016 10018 21107 49699 52036 81030 333 20011
AAXX 21004 89592 11395 80918 11018 21019 49673 52043 60042 77373 8802/
AAXX 21004 89606 11996 81310 11258 21308 36246 47826 53008 69902 77671 80007
AAXX 21001 40656 42960 00000 10050 20014 40217 58008
AAXX 21001 40664 42960 00000 10050 20008 40224 54001
AAXX 21001 40665 42960 00000 10065 20042 40235 57005
AAXX 21001 40670 42960 00000 10067 20023 40227 58002
AAXX 21001 40674 42960 00000 10057 20006 40230 53006
AAXX 21001 40676 42960 02502 10074 20031 40227 57004
AAXX 21001 40680 42960 00501 10070 20021 40212 58005
AAXX 21001 40689 42960 00000 10078 20026 40232 54000
AAXX 21001 40691 42960 02102 10094 20029 40248 53008
AAXX 21001 40603 42960 03503 10080 21012 40266 53002
AAXX 21001 40608 42960 00000 10028 20001 40247 51003
AAXX 21001 40621 42960 00902 10068 21012 40260 54000
AAXX 21001 40627 42960 01202 10044 20002 40229 58005
AAXX 21001 40642 42960 00000 10076 21002 40239 58006
AAXX 21001 40650 42960 20000 10039 20013 40237 54000 80001
AAXX 21004 41184 32960 00604 10184 20062 40192 333 58007
AAXX 21004 41194 12960 00506 10183 20060 30192 40197 60001 333 58005 70000
AAXX 21004 41196 33960 00804 10123 20036 30159 40200 333 58005 70000
AAXX 21004 41198 32960 03006 10169 20067 40199 333 58005
AAXX 21004 41217 32960 00105 10134 20041 30155 40185 333 58006
AAXX 21004 41218 32960 00910 10178 20023 39876 40187 333 58005
AAXX 21004 41314 36/// /2408 10133 20021 39673 40227 333 0E013 58000
BBXX ZDLS1 21003 99611 30040 41/98 81719 11020 2//// 49780 52010 70272 8//// 22243 05019 20300 30000
BBXX AMOUK01 21004 99612 30040 46/// ///// 11019 21038 39774 49782 52009 92350
BBXX ZSAF 21004 99685 50049 41599 82106 11023 21067 49808 52001 70322 885// 22252 05015 2//// 30000 4//// 5//// ICE 10//0
AAXX 21001 30157 11998 70000 11276 21307 30078 40397 53008 69902 72272 80001 333 21277 47032
AAXX 21004 40394 32960 02106 10078 21040 39066 48541 333 59025 555 04410 50192
AAXX 21004 91650 NIL
AAXX 21004 91652 NIL
AAXX 21004 91656 NIL
AAXX 21004 91659 11599 70000 10296 2024/ 40100 58011 60001 70222 84872 333 20256 56999 70016 82822 84645 85078
AAXX 21004 91660 NIL
AAXX 21004 91669 36/// /1208 10321 20288 40103 57007 90015 333 20239
AAXX 21004 91670 36/// /0100 10288 20232 40096
AAXX 21004 91676 14/// /0906 10288 20243 30032 40092 50008 69951 333 20243
AAXX 21004 91680 11599 70000 10294 20246 40097 58009 69911 72186 82836 333 20232 56299 70101 81828 83360 87278
AAXX 21004 91682 NIL
AAXX 21004 91683 11599 60905 10296 20243 40097 58011 60001 70222 868// 333 20225 569// 70671 84820 85645
AAXX 21004 91691 14/// /1103 10293 20251 30104 40107 50008 60001 333 20236
AAXX 21004 91693 NIL
AAXX 21004 91697 14/// /0402 10276 20240 30099 40104 55009 60001 333 20233
AAXX 21004 91699 14/// /1005 10246 20237 30088 40120 50003 60181 333 20233
AAXX 21001 21802 32999 03402 11336 21354 30306 40333 57003 333 21337
AAXX 21001 24125 12998 60000 11305 21321 30007 40321 54000 69902 80001 333 21315 47025
AAXX 21001 24136 32999 00000 11469 21501 30196 40314 54000 333 21469 47025 55000
AAXX 21001 24143 32999 23601 11478 21511 30230 40290 52004 82010 333 21478
AAXX 21001 24266 11997 80701 11423 21448 30114 40320 52008 69922 77177 81035 333 21458 47025
AAXX 21001 24329 NIL
AAXX 21001 24343 32998 80000 11411 21438 30162 40301 52010 69902 77171 80007 333 21427 47058 55000
AAXX 21001 24382 11997 80000 11316 21338 30014 40295 52007 69920 77077 8802/ 333 21335 47010 55000
AAXX 21001 24639 11993 82201 11421 21448 30152 40333 52003 69922 74442 80007 333 21425 47025 55000
AAXX 21001 24641 31998 02201 11407 21438 30152 40319 52002 71200 333 21425 47035 55000
AAXX 21001 24652 32997 00000 11457 21485 30169 40316 52016 333 21461 47041
AAXX 21001 24656 32999 20000 11448 21483 30187 40309 52015 80001 333 21457 47045
AAXX 21001 24671 32999 50000 11455 21476 39727 40330 52008 80001 333 21455 47022 55000
AAXX 21001 24688 11999 40000 11479 21511 39281 40375 52008 69900 70400 80001 333 21472 47018 55000
AAXX 21001 24724 11997 82803 11333 21362 39731 40332 51001 69932 77172 8807/ 333 21339 48052 55000 93555
AAXX 21001 24738 31996 60000 11401 21415 30128 40335 54000 71011 80001 333 21407 47025 55000
AAXX 21001 24768 11997 30000 11440 21475 30027 40304 52013 69932 70270 80001 333 21449 47028
AAXX 21001 24923 11998 82304 11300 21337 30003 40347 57004 69942 77172 80007 333 21331 47044
AAXX 21001 24944 11996 80000 11357 21380 30017 40351 52008 69962 77172 84037 333 21382 47033 55000
AAXX 21001 24951 11998 82901 11333 21362 30142 40332 52024 69962 77177 80007 333 21378 47018
AAXX 21001 24661 31997 00000 11451 21483 39989 40306 53015 74000 333 21458 48049
AAXX 21001 24959 11998 83101 11388 21417 30155 40305 52021 69942 77172 80005 333 21398 47025 55000 93501
AAXX 21001 24962 11996 80000 11443 21469 30093 40315 52021 69922 77171 80007 333 21461 47021 55000
AAXX 21001 24966 11999 80000 11437 21461 30040 40297 52016 69900 70272 80007 333 21443 47028 55011
AAXX 21001 24967 32999 80000 11445 21475 30069 40330 52017 80001 333 21455 47028
AAXX 21001 25206 11998 82201 11367 21397 30251 40282 52002 69900 77171 85037 333 21426 47026
AAXX 21001 25400 31996 00000 11411 21431 30230 40294 52007 71000 333 21415 48020 55000
AAXX 21001 30054 11998 81902 11297 21335 30116 40388 57005 69952 77172 83047 333 21318 47049
AAXX 21001 30089 11999 80000 11350 21374 30095 40352 52016 69922 70272 80005 333 21350 47030
AAXX 21001 30393 11998 83604 11274 21291 39148 40296 52016 60012 77172 8802/ 333 21284 47021
AAXX 21001 30493 11497 83604 11257 21282 39116 40251 53005 69932 77173 8872/ 333 21252 47011 55000
AAXX 21001 31004 11999 20000 11296 21313 39385 40315 52018 69922 70271 80001 333 21297 47043 55000
AAXX 21001 31137 11999 80000 11352 21374 39131 40301 52005 69902 77172 80005 333 21421 47024
BBXX ZCGY8 21001 99209 31149 41598 12006 10294 20250 40072 50007 70222 81100 22200 20502 80263
BBXX VNAH 21004 99330 31155 46/// /2008 10191 20140 30117 40140 52010 22273 04209 85159
BBXX VRDG4 21003 99387 31479 41596 51114 10168 20117 40207 51011 701// 84466 22253 20404 80140
BBXX SHIP 21000 99184 31604 43/// 80520 1//// 2//// 40180 5//// 7//// 8//// 22273 0//// 2//05 3//// 4//// 5//// 6//// 8//// ICE /////
BBXX AUYI 21004 99145 10738 41798 23314 10250 20175 40067 54003 70200 82111 22233 00300
BBXX ZCAS2 21003 99293 11340 41698 10706 10175 20086 40232 51015 70200 81100 22283 00232 20101 80129
BBXX ZCGY8 21001 99209 31149 41598 12006 10294 20250 40072 50007 70222 81100 22200 20502 80263
BBXX VNAH 21004 99330 31155 46/// /2008 10191 20140 30117 40140 52010 22273 04209 85159
BBXX VRDG4 21003 99387 31479 41596 51114 10168 20117 40207 51011 701// 84466 22253 20404 80140
BBXX SHIP 21000 99184 31604 43/// 80520 1//// 2//// 40180 5//// 7//// 8//// 22273 0//// 2//05 3//// 4//// 5//// 6//// 8//// ICE /////
AAXX 21004 67765 42980 10210 10194 20132 38662 48504 80002 333 59002 81080
AAXX 21004 67775 42980 00805 10152 20104 38511 48515 333 58001
AAXX 21004 67779 NIL
AAXX 21004 67853 NIL
AAXX 21004 67861 NIL
AAXX 21004 67867 NIL
AAXX 21004 67881 NIL
AAXX 21004 67965 NIL
AAXX 21004 67975 42975 00000 10155 20120 38931 48516 333 59002
AAXX 21004 67977 NIL
AAXX 21004 67983 42980 00000 10156 20132 38893 48515 333 58005
AAXX 21004 67991 42975 00000 10218 20157 39574 48482 333 59016
BBXX 44034 21001 99441 70681 46/30 /3005 11018 40223 53018 90004 22200 00084 10301 70006 333 91207 555 11062 22064
BBXX 44039 21001 99411 70727 46/// /0301 10059 21058 40242 53012 90000 22200 00094 1//00 70001 333 91202
BBXX 44060 21001 99413 70721 46/// ///02 10050 40233 90015 22200 00099 333 91203 555 11015 22021
BBXX 44022 21001 99409 70737 46/// ///02 10061 21014 40227 90015 22200 00080 333 91205 555 11026 22026
BBXX 44029 21001 99425 70706 46/30 /3503 10019 40226 51017 90004 22200 00087 11102 70008 333 91204 555 11027 22028
BBXX 44030 21001 99432 70704 46/// /2803 1//// 40229 51022 90004 22200 00084 11101 70005 333 91204 555 11031 22033
BBXX 44032 21001 99437 70694 46/30 /3205 11004 40221 51021 90004 22200 00089 10301 70004 333 91206 555 11052 22054
BBXX 44040 21001 99410 70736 46/// /1203 10063 21020 40235 90015 22200 1//00 70001 333 91204 555 11031 22036
BBXX 41036 21001 99342 70770 46/// ///// 10193 20134 40231 90020 22200 00192
AAXX 21001 36152 429// 01602 11262 21305 30319 40533 57011 555 1/128
BBXX C6WK7 21004 99303 70164 41798 10832 10180 2//// 40280 57010 70200 81480 22244 0//// 20303 308// 40605 5//// 6//// 8//// ICE /////
AAXX 21001 48806 32760 40000 10095 20093 39414 40213 52014 84500 333 00008 20091 3/007 84697 96122
BBXX 46088 21001 99483 71232 46/// /2712 10081 40239 90020 22200 00079 10501 20501 70006 333 91215 555 11125 22133 30019 42615 60019 271114 271108 273101 271106 267095 270084
BBXX 46087 21001 99485 71247 46/// /3110 10088 20069 40260 90020 22200 00078 333 91212 555 11103 22111 32352 43113 60019 314095 312095 309099 307094 307096 306098
AAXX 21001 33815 42597 83303 10008 21001 39863 40073 57004 885// 555 11001
AAXX 21004 42809 31994 00000 10124 20113 40157 71000 333 58010
AAXX 21004 42309 NIL
AAXX 21004 42314 NIL
AAXX 21004 42398 NIL
AAXX 21004 42410 NIL
AAXX 21004 42415 NIL
AAXX 21004 42492 NIL
AAXX 21004 42587 NIL
AAXX 21004 42591 NIL
AAXX 21004 42623 NIL
AAXX 21004 42701 NIL
AAXX 21004 42706 NIL
AAXX 21004 42724 NIL
AAXX 21004 42798 NIL
AAXX 21004 42886 NIL
AAXX 21004 42895 NIL
AAXX 21004 42971 NIL
AAXX 21004 42977 NIL
AAXX 21004 43333 NIL
AAXX 21004 43368 NIL
AAXX 21004 40250 NIL
AAXX 21004 40265 32960 01206 10090 21029 39410 40199 54000
AAXX 21004 40296 32960 00000 10169 20109 40189 52011
AAXX 21004 40310 NIL
BBXX MGGK4 21001 99161 70176 41397 20108 10263 20161 40147 53023 70011 81738 22284 00240 20602 30102 40402 50302 80200
BBXX DGPT2 21004 99118 70289 41498 21812 10255 20220 40140 54000 70200 821/1 22214 00260 20503 80230
BBXX A8VL5 21004 99289 10328 41/97 /3523 10180 20148 40290 50/// 7//// 8//// 22273 00200 2//// 80160
BBXX DHSI 21004 99245 70163 41998 00929 10210 20164 40200 51010 702// 80000 22284 20306 80180
BBXX A8CI9 21004 99084 10583 41597 70418 10269 20220 40120 57025 71352 8707/ 22244 04280 2//// 3//// 4//// 5//// 80234
BBXX DGZT2 21003 99134 10496 41/97 /0815 10240 20180 40160 57010 70200 8//// 22265 04260 2//// 80200
BBXX A8UA9 21004 99201 70181 41797 71013 10210 20195 40210 50//7 ////8 75
BBXX SLKU 21004 99154 11363 41/98 50822 10284 40074 52024 70111 852// 22274 00293 20603 33405 40905 50904
BBXX DCAX2 21003 99055 11610 41296 70827 10291 20263 40071 52011 72588 87779 22233 21006 309// 41006 5//// 80271
BBXX S6AJ8 21003 99310 11334 41/96 83606 10140 2011/ 40240 5//// 75055 8862/ 22253 0//// 2//// 3//// 4//// 5//// 6//// 80120 ICE /////
BBXX DNDD 21004 99483 11570 41297 83525 10000 21048 40080 54000 7//72 8/7// 22214 04070 2//// 334// 40302 5//// 81017
BBXX SHIP 21004 99222 11323 41597 80517 10220 20175 40178 52001 76162 886// 22284 00280 20604 303// 40505 80190
BBXX MGPU2 21003 99420 11351 41998 01602 10040 20040 40235 54000 70200 80000 22221 00080 20101 333// 40101 5//// 80040
BBXX DDZI2 21003 99342 11408 41598 73016 10135 20033 40220 50/// 70122 879// 22215 00214 20601 80085
BBXX DCDO2 21003 99164 11250 41595 30715 10235 20235 40122 51013 71022 82872 22274 00280 20604 336// 40504 5//// 80235
BBXX WDB3161 21004 99395 11454 41598 63224 10030 2//// 40218 50010 71672 862// 22255 00123 20405 328// 40706 5//// 6//// ICE /////
BBXX SMGW 21001 99350 11653 43/98 81809 10160 40121 58018 22224 00197 20603 41107
BBXX SBLI 21001 99300 11696 43/98 82110 10226 40152 58017 22264 00226 2//// 4//// NNNN 426621110
BBXX UHMI 21001 99425 11340 42999 23205 11070 40250 52010 22233 06020 20301 33200 40402
BBXX C6XQ2 21003 99249 50446 41798 31013 10253 20240 40105 51002 70211 82/4/ 22213 04250 20602 307// 40802 5//// 80244
BBXX IDDUK02 21004 99567 50398 46/// ///// 40021 222//
BBXX WDC6698 21004 99097 71435 41698 50309 10272 2024/ 40082 57028 70211 851// 22261 00257 20201 303// 40703 5//// 6//// 80250 ICE /////
BBXX 41052 21001 99183 70648 46/// /0508 10253 40166 92350 333 91211
BBXX 42085 21001 99179 70665 46/// /0608 10258 40167 52017 90000 22200 00276 10602 70011 333 91209
BBXX 42085 21001 99179 70665 46/// /0608 10258 40164 92340 333 91210
BBXX 42085 21001 99179 70665 46/// /0608 10259 40165 92350 333 91209
BBXX 41052 21001 99183 70648 46/// /0609 10255 40167 53011 90000 22200 00274 333 91212
BBXX 46112 21001 99481 71227 46/// /2505 10086 40247 57005 90000
BBXX 46111 21001 99481 71227 46/// /3207 10087 40246 55008 90000 22200 00057
BBXX WXJ63 21003 99611 71464 41/93 80204 11002 21005 40106 5//// 773// 8//// 222// 00039 2//// 3//// 4//// 5//// 6//// 8//// ICE /////
BBXX 44033 21001 99441 70690 46/30 /3102 11019 40226 51022 90004 22200 00069 11101 70004 333 91205 555 11026 22027
BBXX 44067 21001 99384 70770 46/// /2003 10103 40206 90000
BBXX 41037 21001 99340 70775 46/// /1905 10193 40217 52006 90000 22200 00191 333 91205
BBXX 46060 21001 99606 71468 46/// /1212 10025 40101 92350 22200 00057 333 91215 555 11131 22138 32331 41215 62349 118122 122122 124112 124105 124088 123082 81214 92332
BBXX A8YW2 21004 99124 30783 41/97 81222 10245 20238 40075 55010 76022 8//// 22214 00270 20102 80240
BBXX SHIP 21004 99301 31125 41998 11514 10211 20157 40134 52006 70100 81030 22232 00223 11105 21002 320// 40703
BBXX AVMI 21004 99324 31530 41298 71818 10220 20/// 40264 52026 70322 85222 22243 00260
BBXX A8XY2 21004 99439 70257 41/96 82023 10152 20114 40290 57020 702// 8//// 22264 04150 20404 80130
BBXX TBWUK03 21003 99322 70145 41498 20719 10175 20114 40305 54000 70200 81140 22243 20402 306// 40902 5//// 80139
BBXX 62095 21004 99531 70159 46/// /2520 10116 20107 40182 53011 22200 00113 10809 70044 333 90710 91129
BBXX GHJV 21004 99359 70134 41598 40615 10166 20128 40329 52007 70311 84100 22251 02175 20301 80145
BBXX 62301 21004 99524 70047 46/// /2514 10098 20094 40144 55010 22200 00086 10503 70014
BBXX 62107 21004 99501 70061 46/// /3035 10116 20108 40199 57007 22200 00117 10703 70017 333 90710 91142
BBXX TBWUK35 21004 99592 70069 41/98 30402 10065 20015 40085 54000 70300 83/// 22214 00110 2//// 399// 41008 80045
BBXX AMOUK05 21004 99533 10009 46/// ///// 10061 20043 30107 40143 54000 92350
BBXX 62027 21004 99491 70022 46/// /2514 1//// 2//// 40216 58013 22200 00110 10703 328// 70013
BBXX 62140 21004 99573 10013 46/// /30// 10064 20022 40094 52004 22200
BBXX AMOUK19 21004 99583 70016 46/// ///// 10064 20026 30093 40097 57015 92350
BBXX 62143 21004 99577 10018 47498 /3111 10054 20016 40097 53006 762// 22200 10504 70020
BBXX AMOUK27 21004 99582 70064 46/// ///// 11203 2//// 30094 40099 54001 92350
BBXX ZQSD5 21004 99583 10007 46/// /2611 10050 20007 40094 52010 22200 10704 70020
BBXX 62104 21004 99574 10013 47598 /3018 10065 20027 40094 52006 700// 22200
BBXX 62146 21004 99572 10021 47/98 /2502 10061 20022 40100 55000 762// 22200 10604 70022
BBXX 62122 21004 99573 10016 47598 /3116 10061 20022 40095 51003 762// 22200 10604 70021
BBXX 62153 21004 99573 10020 47498 /2808 10043 20036 40095 53004 762// 22200 10604 70022
BBXX 62114 21004 99583 10000 46/// /3014 10065 21010 40091 53004 22200
BBXX 62118 21004 99577 10009 47598 /3212 10059 20024 40091 52008 700// 22200 10604 70020
BBXX 62155 21004 99577 10007 47499 /3116 10061 20023 40098 52007 751// 22200 10504 70019
BBXX 62116 21004 99576 10011 47597 /3213 10063 20019 40095 53009 700// 22200 10504 70020
BBXX 62117 21004 99579 10000 47398 /2707 10060 20015 40099 52012 762// 22200 10503 70017
BBXX 62102 21004 99579 10018 46/// /3115 10065 20014 40089 52007 22200 10604 70020
BBXX 62142 21004 99530 10021 47897 /2717 10069 20046 40151 58002 700// 22200 10503 70015
BBXX 62134 21004 99580 10014 47798 /3013 10057 20014 40089 51005 700// 22200 10604 70019
BBXX 62121 21004 99535 10027 46/// ///// 22200
BBXX 62150 21004 99536 10007 47497 /2613 10065 20037 40160 55003 762// 22200 10604 70021
BBXX 62144 21004 99534 10017 47997 /2714 10065 20040 40155 57003 700// 22200 10504 70018
BBXX 62145 21004 99531 10028 47498 /2813 10068 20031 40155 58002 700// 22200 10504 70019
BBXX 62131 21004 99539 10012 46/// /28// 10070 20043 40145 57002 22200
BBXX 62148 21004 99536 10015 46/// /2715 10070 20042 40153 57003 22200
BBXX 62149 21004 99537 10011 47998 /2714 10073 20043 40151 58001 751// 22200 10604 70019
BBXX 62127 21004 99540 10007 47898 ///// 10067 20037 40145 56004 700// 22200 10604 70018
BBXX 62123 21004 99563 10022 47598 /3020 10074 20017 40102 55000 700// 22200
BBXX 62165 21004 99540 10009 47998 /2712 10069 20038 40150 56003 700// 22200 10504 70020
BBXX 62132 21004 99564 10020 46/// /3218 10073 20012 40111 55002 22200
BBXX 62154 21004 99564 10022 46/// /3117 10070 20015 40098 55002 22200
BBXX 62152 21004 99570 10018 47/98 /3015 10069 20017 40103 55001 700// 22200 10504 70022
BBXX 62119 21004 99570 10019 47698 /3118 10066 20016 40100 55003 700// 22200 10504 70022
BBXX 62133 21004 99571 10009 46/// /2913 10061 20010 40103 52003 22200 10604 70022
BBXX 62120 21004 99564 10021 47598 /3118 10068 20012 40103 55000 700// 22200
BBXX PJGO 21004 99571 10022 47598 /2821 10066 20027 40098 53001 700// 22200
BBXX 62164 21004 99572 10008 47598 /2815 10080 20029 40104 52003 741// 22200 00094 10504 70020
BBXX MWYG6 21004 99603 70040 47998 /3106 10059 700// 22200
BBXX 62081 21004 99510 70134 46/// ///// 10120 20110 40230 51008 22200 00119 10809 70043
BBXX 64041 21004 99607 70026 47698 /2913 10052 21019 40072 52015 700// 22200 10908 70040
BBXX 63115 21004 99616 10013 47398 /3123 10035 21009 40056 53026 700// 22200 10806 70032
BBXX 63117 21004 99613 10011 47598 /3018 10047 21017 40052 53015 762// 22200
BBXX 63104 21004 99612 10016 47598 /2812 10048 21002 40051 52017 700// 22200
BBXX 63103 21004 99612 10011 46/// /3019 10044 21009 40059 53021 22200 10705 70027
BBXX 63101 21004 99612 10009 46/// /3515 10045 20003 40053 53017 22200
BBXX 63107 21004 99611 10017 46/// /3011 10032 40053 52017 22200
BBXX 63112 21004 99611 10010 47498 /3317 10051 21009 40049 53015 700// 22200 10705 70025
BBXX 63105 21004 99610 10017 47697 ///// 10058 21001 40054 53016 700// 22200
BBXX 63113 21004 99610 10017 46/// /3208 10045 21009 40055 52017 22200 10705 70024
BBXX 63108 21004 99608 10017 47999 /3112 10047 21029 40049 53015 700// 22200 10704 70020
BBXX 62128 21004 99587 10014 47998 /3012 10053 20012 40084 52012 700// 22200 10705 70025
BBXX 63106 21004 99610 10017 46/// /3011 10035 40054 53015 22200
BBXX 63055 21004 99606 10016 47997 /2914 10056 21011 40056 52012 751// 22200 10604 70021
BBXX 62129 21004 99584 10003 46/// ///// 10063 20012 40087 51007 22200
BBXX 63110 21004 99595 10015 47598 /3017 10074 21000 40068 52014 700// 22200 10604 70021
BBXX 63057 21004 99592 10015 47998 /3017 10064 21005 40073 52013 700// 22200 10705 70025
BBXX 62113 21004 99584 10002 47598 /3012 10073 20010 40087 51007 700// 22200
BBXX PJAI 21004 99581 70014 47599 /2910 10072 20011 40100 52008 700// 22200
BBXX 62111 21004 99580 70003 46/// /3115 10064 20020 40103 53006 22200 10503 70017
BBXX AMOUK14 21004 99535 70030 46/// ///// 10066 20059 30101 40135 57010 92350
BBXX 63056 21004 99597 10016 47698 /2914 10058 21020 40055 52015 700// 22200 10604 70022
BBXX AMOUK06 21004 99512 10014 46/// ///// 10082 20039 30161 40178 57006 92350
BBXX 62112 21004 99584 70002 47598 /3007 10064 20015 40094 53007 700// 22200
BBXX AMOUK08 21004 99501 70061 46/// ///// 10118 20115 30196 40202 57012 92350
BBXX 64045 21004 99591 70117 46/// /1512 10070 20035 40060 58012 22200 00101 11110 70049
BBXX 62170 21004 99514 10020 46/97 /2919 10084 20052 40180 51005 22200 00108 10602 70010 333 90710 91125
BBXX 62304 21004 99511 10018 46/98 /3015 10081 20037 40185 50001 22200 00111 10602 70008
BBXX 62305 21004 99504 10000 46/98 /2715 10095 20063 40203 58004 22200 00119 10501 70007
BBXX AMOUK03 21004 99532 10009 46/// ///// 10057 20045 30122 40153 54002 92350
BBXX 62105 21004 99554 70122 46/// /2620 10114 20110 40100 51016 22200 00107 10808 70042 333 90710 91127
BBXX DDYZ2 21004 99500 70017 41296 52414 10130 20130 40210 56/// 76466 85797 22223 20310 80130
BBXX 62001 21004 99452 70050 46/// /2915 10134 20111 40294 50001 22200 00142 10604 70019
BBXX AMOUK09 21004 99517 10021 46/// ///// 10077 20048 30158 40173 54003 92350
BBXX 62103 21004 99499 70029 46/96 /2420 10111 20100 40196 58021 22200 00122 10702 70012
BBXX 62094 21004 99517 70067 46/// /2720 10114 20107 40168 52008 22200 00105 10505 70023 333 90710 91127
BBXX 62163 21004 99475 70084 46/// /2917 10120 20109 40280 52005 22200 00127 10604 70022
BBXX 62303 21004 99516 70051 46/// /2720 10118 20109 40158 56014 22200 00111 10504 70020 333 90710 91126
BBXX 62123 21004 99563 10022 41/97 /3120 10074 40128 53002 70200 8//// 22200 2//// 330// 40605 5////
BBXX 46204 21001 99514 71288 46/// /2607 10079 40290 52007 22200 00083 11310 70051 333 91209
BBXX VRVB5 21004 99404 70714 41498 71910 10070 20004 40220 5/020 70202 87/// 22224 00130 2//// 3//// 4//// 80030
BBXX 46131 21001 99499 71250 46/// /3505 1//// 40261 57001 22200 00076 10301 70004 333 91206
BBXX 46183 21001 99536 71311 46/// /2806 10061 40293 52022 22200 00077 11402 70008 333 91207
BBXX 46147 21001 99518 71312 46/// /3206 10076 40297 52009 22200 00080 11310 70051 333 91208
BBXX 46088 21001 99483 71232 46/// /2712 10081 40239 90020 22200 00079 10501 20501 70006 333 91215 555 11125 22133 30019 42615 60019 271114 271108 273101 271106 267095 270084
BBXX 46114 21001 99364 71222 46/// ///// 1//// 90004 22200 00123 11405 20903 328// 41404 70025
BBXX 51205 21001 99210 71564 46/// ///// 1//// 90018 22200 00241 10905 20905 334// 41302 70027
BBXX 41114 21001 99276 70802 46/// ///// 1//// 90016 22200 00236 11103 20903 306// 41101 70015
BBXX 42364 21001 99291 70881 46/// /1509 10222 20206 40159 90015
BBXX 41029 21001 99328 70796 46/// /0000 1//// 90000
BBXX 42362 21001 99278 70907 46/// /1707 10233 20211 40149 90015
BBXX 44172 21001 99445 70634 46/// ///// 1//// 90001 22200 00065 11102 21002 318// 41101 70011
BBXX 41115 21001 99184 70673 46/// ///// 1//// 90005 22200 11105 20904 335// 41103 70025
BBXX 44098 21001 99428 70702 46/// ///// 1//// 90007 22200 00089 11202 20501 313// 41201 70008
BBXX 42362 21001 99278 70907 46/// /1706 10233 20211 40146 55000 90000
BBXX 46221 21001 99339 71186 46/// ///// 1//// 92345 22200 00150 11402 21002 325// 41401 70011
BBXX 46242 21001 99332 71174 46/// ///// 1//// 92358 22200 00145 11401 20301 323// 41401 70007
BBXX WCZ5535 21004 99330 70390 41797 83409 10195 2018/ 40115 52005 75222 88/// 22223 0//// 20304 3//// 40304 50304 6//// 80185 ICE /////
BBXX WSRL 21003 99243 71551 41598 30730 10230 2017/ 40172 55018 70200 821/5 22214 0//// 20505 3//// 4//// 5//// 6//// 80190 ICE /////
BBXX WDD6127 21004 99372 70731 41598 30803 10130 2011/ 40215 51004 70200 8213/ 22263 00160 20101 322// 41204 5//// 6//// 80120 ICE /////
BBXX 46222 21001 99336 71183 46/// ///// 1//// 92356 22200 00153 11502 20902 327// 41501 70011
BBXX 46231 21001 99327 71174 46/// ///// 1//// 92354 22200 00150 11403 21002 327// 41402 70014
BBXX 46218 21001 99345 71208 46/// ///// 1//// 90002 22200 00140 11506 21004 329// 41505 70031
BBXX 46223 21001 99335 71178 46/// ///// 1//// 90000 22200 00151 11302 21002 328// 41302 70012
BBXX 46216 21001 99343 71198 46/// ///// 1//// 92357 22200 00147 11502 21002 327// 41502 70012
BBXX 46240 21001 99366 71219 46/// ///// 1//// 90012 22200 00124 11302 21001 336// 41302 70012
BBXX 46217 21001 99342 71194 46/// ///// 1//// 90012 22200 00149 11302 21001 327// 41301 70010
BBXX 46237 21001 99378 71226 46/// ///// 1//// 90010 22200 00111 11304 21002 326// 41303 70018
BBXX 46212 21001 99408 71243 46/// ///// 1//// 90012 22200 00097 11407 20804 330// 41405 70033
BBXX 46241 21001 99330 71173 46/// ///// 1//// 92341 22200 00144 11302 20901 326// 41301 70009
BBXX 46244 21001 99409 71244 46/// ///// 1//// 90005 22200 00097 11507 20805 330// 41505 70036
BBXX 46248 21001 99461 71247 46/// ///// 1//// 90004 22200 00094 11407 21004 329// 41406 70037
BBXX 46249 21001 99338 71197 46/// ///// 1//// 90012 22200 00149 11402 21002 325// 41401 70011
BBXX FLAO 2100/ 99764 70847 46/// ///// 11190 40019 57003
BBXX 46207 21001 99509 71299 46/// /3306 10079 40299 52007 22200 00081 11509 70044 333 91207
BBXX A8IN9 21003 99303 70429 41/97 /3320 10212 20130 40175 52010 70222 8//// 22214 06220 20504 329// 41207 5//// 80165
BBXX 41052 21001 99183 70648 46/// /0508 10253 40165 92340 333 91210
BBXX 3EDI6 21003 99333 70234 41/98 80919 10195 20134 40279 52012 70222 8//// 22213 04191 2//// 3//// 4//// 5//// 80160
BBXX BAREU62 21004 99365 10218 46/// ///// 40161 57004 22224
BBXX BATFR20 21004 99421 10084 46/// ///// 10117 20039 40106 53021 22283
BBXX 61001 21004 99434 10078 46/// /0208 10112 20054 40134 52010 22200 00149 10502 70012
BBXX BATFR16 21004 99406 70261 44597 61617 10159 20130 40319 56011 70222 86570 22254 00170 21202 318// 41202 5////
BBXX BATFR21 21004 99429 10070 46/// /2602 40140 51021 22263
BBXX BAREU12 21004 99547 10071 46/// ///// 40088 52019 22233
BBXX BATUK01 21004 99582 70032 44/97 02512 10049 20009 40100 51008 70000 22200 00090 21002
BBXX 61002 21004 99421 10047 46/// ///31 10139 2//// 40198 52026 22200 00141 10808 70040 555 1/043
BBXX BATFR22 21004 99430 10074 46/// /0508 10112 40140 56008 22224 00142
BBXX BATFR54 21004 99532 70049 46/// /2418 10105 20099 40130 56015 22282 00104
BBXX BATFR11 21004 99381 10113 46/// /1609 10147 20095 40083 58061 22272 00172
BBXX BATFR46 21004 99367 70017 44/97 02416 10150 20109 40267 58013 700// 22213 00169
BBXX BATFR12 21004 99481 70065 46/// /2918 10130 20119 40245 58011 22200 00144
BBXX BATFR52 21004 99500 70038 46/// /2917 10117 20112 40192 22233 00119
BBXX BATFR01 21004 99346 10282 46/// /2618 10165 20077 40174 53004 222// 00172
BBXX BATEU01 21004 99504 70134 46/// /2720 10135 20107 40249 51009 222// 00124
BBXX BATFR04 21004 99584 70062 46/// /2604 10044 20019 40095 52001 22200 00099
BBXX BATFR09 21004 99415 70101 46/// /0303 10137 20122 40330 52001 22243 00162
BBXX BATFR32 21004 99430 10079 46/// /3514 10115 20066 40129 51010 7//// 8//// 22264 00144
BBXX BATFR03 21004 99496 70004 46/// /2420 10089 20075 40208 22282
BBXX LF5T 21004 99660 10081 41/// /1820 10061 21006 49978 54000 702// 22200 10703 70015 333 91124
BBXX LF3F 21004 99643 10078 43/// /2921 10045 21021 49995 52010 22200 04088 10704 70020 333 91130
BBXX LF3N 21004 99653 10073 43/// /3016 10037 20023 49981 52008 22200 10704 70020
BBXX LF4B 21004 99606 10037 47/98 /2910 10045 40061 52014 700// 22200 00051 10706 70030 333 91124
BBXX LF4C 21004 99584 10019 43/// /3116 10064 20011 40083 52007 22200 10704 70022 333 91123
BBXX 3ERR2 21004 99635 10053 43/// /2816 10039 20004 40020 52025 22200 10605 70026 333 91132
BBXX C6KD7 21003 99366 70275 41598 41424 10178 20147 40287 54000 70311 8344/ 22214 02185 20602 317// 40803 5//// 80160
AAXX 21001 33466 /1456 82703 10027 20017 39876 40065 52005 71052 886// 333 88713 555 69931
BBXX VRVB5 21004 99404 70714 41498 71910 10070 20004 40220 5/020 70202 87/// 22224 00130 2//// 3//// 4//// 80030
BBXX DGPT2 21004 99118 70289 41498 21812 10255 20220 40140 54000 70200 821/1 22214 00260 20503 80230
BBXX MGGK4 21001 99161 70176 41397 20108 10263 20161 40147 53023 70011 81738 22284 00240 20602 30102 40402 50302 80200
AAXX 21004 78988 01470 61015 10267 20232 30115 40126 52011 69951 70182 82242 333 10293 20245 59009 60007 70036 82818 86081
AAXX 21004 78990 01480 60916 10260 20231 30125 40132 52010 60001 71622 84201 333 10301 20257 59011 60007 84816 85081
AAXX 21004 78873 01060 /0515 10245 20203 30128 52014 60001 70000 333 10277 20241 58000 60007
BBXX 9V8072 21003 99260 70700 41/97 /2427 10210 20160 40257 5/000 7//22 8//// 22263 29905 80180
BBXX PHOB 21004 99048 10846 41397 70526 10260 20260 40053 53003 76288 86778 22222 00275 20606 307// 40304 5//// 80260
AAXX 21004 61017 NIL
AAXX 21004 61024 NIL
AAXX 21004 61036 NIL
AAXX 21004 61043 32960 70610 10214 21080 39692 40130 80008 333 0//00 58006 87280
AAXX 21004 61045 32965 50202 10183 21040 39644 40140 80002 333 0//00 59004 85080
AAXX 21004 61049 NIL
AAXX 21004 61052 32960 23604 10210 20019 39876 40131 80002 333 0//00 58002 82080
AAXX 21004 61075 32960 50404 10225 20013 39821 40127 80002 333 0//00 58006 85080
AAXX 21004 61080 NIL
AAXX 21004 61090 32960 70408 10190 21077 39636 40145 80008 333 0//00 58006 87280
AAXX 21004 61091 NIL
AAXX 21004 61096 32965 73604 10178 21048 39755 40136 80008 333 0//00 58000 87280
AAXX 21004 61099 32960 73610 10240 20040 39887 40113 80008 333 0//00 58002 87280
AAXX 21001 60376 36/// /1803 10095 20065
AAXX 21001 60593 36/// /0000 10046
BBXX 46185 21001 99524 71298 46/// /2907 10077 40292 52017 22200 00075 11504 70021 333 91208
AAXX 21001 55299 32980 00201 11171 21251 35846 52008 333 00002
AAXX 21001 55591 32980 01101 11067 21184 36520 52013 333 05152
AAXX 21001 56739 32980 00401 10016 21010 38366 52011 333 05151 31030
AAXX 21001 56951 32980 01101 10038 20018 38527 52015 333 00051 30001
AAXX 21001 56964 32570 70000 10123 20105 38727 40174 52014 874// 333 05103
AAXX 21001 57328 11815 81801 10073 20051 39852 40272 52016 69901 76060 885// 333 00000 79999
AAXX 21001 57411 11950 83401 10076 20051 39898 40278 52016 69901 76000 8807/ 333 00001 79999
AAXX 21001 57447 11420 83201 10069 20066 39721 40277 52017 60011 76066 8372/ 333 00001 70012
AAXX 21001 57662 11858 80000 10075 20028 30246 40291 52021 69901 76060 885// 333 00100 79999
AAXX 21001 57745 31758 80902 10065 20016 39945 40282 52020 71000 885// 333 00000 79999
AAXX 21001 57972 32961 20000 10053 20025 30040 40271 52011 82040 333 05101 30021
AAXX 21001 58203 31915 82902 10012 21020 30260 40303 52017 71000 8807/ 333 00102 31022
AAXX 21001 58314 31940 62001 10009 20009 30182 40294 52011 71000 86040 333 00101 31002
AAXX 21001 58424 31930 70703 10050 20004 30255 40281 52008 71000 8707/ 333 00000 30041
AAXX 21001 59023 31558 73201 10112 20089 39922 40236 52024 71000 878// 333 00000
AAXX 21001 59417 31550 70000 10136 20115 30053 40209 52024 71000 878// 333 05205
AAXX 21001 59985 11578 80406 10234 20227 30134 40139 52020 69931 78080 882// 333 00000 70020
AAXX 21001 59995 NIL
BBXX 46185 21001 99524 71298 46/// /2907 10077 40292 52017 22200 00075 11504 70021 333 91208
AAXX 21001 48845 32498 82301 10170 20164 30175 40182 52015 888// 333 01017 20164 3/016 59015 85894 88697
AAXX 21001 47008 31560 23201 11067 21083 30186 40242 53006 71000 82500 333 21078
AAXX 21001 47014 32950 80000 11190 21202 39836 40275 57002 8804/ 333 21195
AAXX 21001 47016 31560 80502 11208 21233 39373 40291 53003 71042 886// 333 21212
AAXX 21001 47020 32565 80000 11124 21137 39877 40282 53001 885// 333 21149
AAXX 21001 47025 32967 23201 11046 21066 30201 40231 53001 80002 333 21061
AAXX 21001 47035 32970 50501 11058 21106 30236 40245 57012 85030 333 21069
AAXX 21001 47041 32970 00000 11072 21106 30207 40236 57003 333 21097
AAXX 21001 47055 32565 40000 11016 21061 30191 40238 57008 84500 333 21033
AAXX 21001 47058 11960 80000 11023 21035 30201 40249 57003 69982 70272 8802/ 333 21032
AAXX 21001 47069 31539 81101 11006 21021 30146 40248 53003 71022 885// 333 21020
AAXX 21001 47003 12580 20000 11109 21122 30230 40234 52002 69902 81502 333 21121
AAXX 21001 47005 32680 41801 11171 21183 38576 57008 82502 333 21188
AAXX 21001 47022 32975 00000 11193 21212 38820 57012 333 21221
AAXX 21001 47028 32665 80000 11071 21092 30144 40244 53007 885// 333 21088
AAXX 21001 47031 32970 00000 11188 21200 38928 57001 333 21195
AAXX 21001 47037 11542 80000 11060 21071 30117 40245 57006 69912 77077 8802/ 333 21100
AAXX 21001 47039 32560 80000 11094 21119 30057 40259 57010 885// 333 21126
AAXX 21001 47046 32969 22301 11058 21088 30202 40226 53009 80002 333 21074
AAXX 21001 47050 11565 80504 11052 21083 30213 40248 52005 69902 70272 885// 333 21075
AAXX 21001 47052 12565 80000 11058 21073 39909 40262 57007 69902 885// 333 21069
AAXX 21001 47060 11540 80201 11020 21026 30173 40233 57013 60042 77377 8802/ 333 21025
AAXX 21001 47061 32980 00000 10034 21037 30188 40232 57007 333 21006
AAXX 21001 47065 11520 80000 11022 21031 30183 40250 57005 60012 77177 8802/ 333 21028
AAXX 21001 47067 11560 80000 11040 21049 30144 40269 57006 69922 77077 8802/ 333 21055
AAXX 21001 47068 11540 83604 11022 21040 30200 40236 58003 69902 70272 885// 333 21027
AAXX 21001 47070 12520 80000 11011 21023 30163 40253 54000 69952 885// 333 21029
AAXX 21001 47075 11570 80000 11033 21044 39743 40184 57003 69912 72272 885// 333 21072
AAXX 21001 47090 32670 60000 10037 21063 30209 40232 54000 81530 333 21002 3/101 42001 92010
AAXX 21001 47095 11560 80000 11034 21063 30057 40254 54000 69902 77077 8672/ 333 21068 30102
AAXX 21001 47097 11550 60701 11016 21054 30160 40260 52007 69902 72272 86500 333 21030 3/000 45///
AAXX 21001 47098 11525 80000 11011 21028 30108 40247 53002 69912 77072 8552/ 333 21026 3/101 47///
AAXX 21001 47099 11640 80000 11016 21028 30215 40253 53006 69932 72272 8352/ 333 21039 3/101
AAXX 21001 47100 11420 82510 11044 21060 39299 40248 55003 69902 77072 8552/ 333 21089 3/104 49026
AAXX 21001 47102 12662 62913 10034 21060 30062 40242 53007 69912 85501 333 20025 30000
AAXX 21001 47104 32662 61802 10003 21061 30136 40236 54000 85500 333 21026 3/101 43003
AAXX 21001 47106 329// /0001 10024 21050 30187 40237 56001 333 21001 3/101
AAXX 21001 47112 11656 81603 10021 21034 30163 40249 53005 69902 77072 8452/ 333 20010 30000 92012
AAXX 21001 47114 32560 80001 11026 21080 30070 40260 53006 8552/ 333 21039 30101
AAXX 21001 47119 11657 61101 10013 21017 30210 40253 52008 69912 71022 86500 333 21007 3/102 42///
AAXX 21001 47121 329// /0001 11036 21079 39960 40267 51001 333 21061 3/102
AAXX 21001 47127 329// /1101 11013 21039 30115 40262 52005 333 21036 3/101
AAXX 21001 47129 11640 80202 10011 21005 30219 40256 52007 69912 71022 8352/ 333 21015 3/001 41///
AAXX 21001 47130 32665 62306 10026 21053 30186 40249 53003 82530 333 20009 30001 92022
AAXX 21001 47131 12662 82501 10004 21050 30185 40258 52007 69902 8552/ 333 21011 30000
AAXX 21001 47135 329// /0000 11013 21048 39956 40265 52009 333 21036 3/101
AAXX 21001 47136 12668 63201 11018 21069 30086 40265 52007 69902 86500 333 21044 30101
AAXX 21001 47137 329// /0000 11017 21070 30141 40264 52008 333 21025 3/101
AAXX 21001 47140 31658 83201 10007 21025 30231 40261 52007 71022 8552/ 333 21006 31001 92011
AAXX 21001 47143 32963 60502 10011 21069 30189 40270 52008 84031 333 20000 30001
AAXX 21001 47145 12662 81104 10012 21057 30219 40246 52005 69902 8352/ 333 20000 34000
AAXX 21001 47146 32668 70901 10027 21061 30191 40258 52005 87500 333 21001 31001
AAXX 21001 47150 11650 30000 10005 21015 30233 40253 52008 69932 71022 81501 333 21002 3/000 45///
AAXX 21001 47152 32965 62302 10021 21055 30213 40257 52006 80001 333 20002 30101
AAXX 21001 47154 329// /2901 11003 21067 30205 40267 52011 333 21029 3/000
AAXX 21001 47155 32961 61102 10028 21061 30214 40261 52010 85030 333 20009 30000
AAXX 21001 47156 11658 80001 10014 20000 30176 40268 50005 69912 72162 8352/ 333 20004 31002
AAXX 21001 47157 32662 62901 11031 21067 39978 40259 52008 85501 333 21049 30102
AAXX 21001 47162 32670 40001 10028 21046 30219 40260 52008 84500 333 20000 30000 92022
AAXX 21001 47169 12661 83409 10081 20031 30161 40255 51006 60012 8352/ 333 20053 31006 92023
AAXX 21001 47170 32662 81601 10024 21007 30219 40264 53005 8451/ 333 20001 30000 92021
AAXX 21001 47171 329// /1402 10035 21024 30202 40258 51006 333 21001 3/000
AAXX 21001 47172 329// /0000 10033 21008 30185 40253 50003 333 21003 3/004
AAXX 21001 47173 329// /0000 11013 21044 30156 40271 52008 333 21036 3/101
AAXX 21001 47174 11662 82702 10007 21025 30058 40266 52006 69902 72162 8552/ 333 21027 31000
AAXX 21001 47175 11558 82707 10023 20008 39678 40261 53005 69912 76062 8552/ 333 20005 31000 92022
AAXX 21001 47185 32665 60211 10083 21007 30169 40260 51009 83530 333 20072 30007 92023
AAXX 21001 47188 32662 63603 10078 20016 30235 40257 50005 84501 333 20050 31005 92022
AAXX 21001 47189 32665 70000 10094 20031 30191 40251 51007 84530 333 20065 30009 92020
AAXX 21001 47192 32665 80902 11019 21064 30229 40268 52013 8552/ 333 21044 30101
AAXX 21001 48840 32498 82901 10180 20165 30175 40181 52018 888// 333 00018 20180 3/017 59012 83894 88696
AAXX 21004 60670 12970 00000 10061 21012 39107 48545 55005 60001 333 0//00 95990
AAXX 21004 41255 36/// /2905 10184 20068 39650 40209 333 0E021 58004
AAXX 21001 24790 31984 30000 11443 21458 39396 40353 52009 77670 82031 333 21438 48023 55000
AAXX 21001 24988 11699 82803 11224 21256 39914 40184 52005 69960 72272 8552/ 333 21280 43005
AAXX 21001 25378 41697 73513 11135 21206 30029 40063 52017 73632 83531 333 91124
AAXX 21001 25503 31699 20000 11461 21485 30158 40311 52007 77670 82500 333 21464 47025 55000
AAXX 21001 25705 11998 80000 11398 21421 39908 40291 52002 69920 77072 83037 333 21391 47067 55000
AAXX 21001 25927 32999 00000 11257 21288 30177 40184 52010 333 21263 42015 55055
AAXX 21001 25932 32999 03003 11197 21238 30100 40141 52008 333 21216 42014 55024
AAXX 21001 31152 32998 21801 11405 21439 39831 40301 53016 80002 333 21415 47027 55022
AAXX 21001 31174 32599 40202 11264 21270 30198 40211 53007 81509 333 21269 47006 55063
AAXX 21001 31489 32997 00000 11326 21348 30107 40239 53006 333 21339 47019
AAXX 21001 31866 32998 22507 11191 21249 30222 40228 50001 82040 333 21196 44011
AAXX 21001 31959 32598 63003 11109 21193 30186 40231 53001 83532 333 21150 41998 55084
AAXX 21001 31989 32599 10205 11085 21162 30180 40236 52004 81100 333 21121 41998
AAXX 21001 32027 32999 31102 11162 21294 30214 40224 52001 82032 333 21284 48023 91003 91104
AAXX 21001 32076 11456 72803 11189 21201 30214 40225 53010 69900 77072 85620 333 21187 47065 91005 91105
AAXX 21001 32099 32596 30402 11082 21092 30214 40222 52009 82201 333 21095 48011 91003 91104
AAXX 21001 32121 12999 01203 11184 21203 30200 40224 52003 69940 333 21134 47010 91003 91104
AAXX 21001 32213 31599 23223 11103 21123 30010 40076 52008 73731 82500 333 21082 44009 55048 91027 91127
AAXX 21001 32287 12999 71504 11265 21290 30138 40149 52013 69900 87030 333 21256 47070 55000
AAXX 21001 32408 11598 73504 11171 21213 30056 40097 52011 69900 78582 85930 333 21261 48084 55055 85924
AAXX 21001 32509 31999 03308 11128 21238 30048 40084 51010 73630 333 21143 55070 91013 91115
AAXX 21001 32594 34599 20406 11140 21222 30062 40100 53021 70231 81301 333 21130 48007 55/// 91120
AAXX 21001 47101 11556 80701 11033 21051 30162 40262 52004 69902 71022 8552/ 333 21062 3/102 48///
AAXX 21001 47105 369// /2705 10026 21050 30203 40236 53001 333 20009 3/000
AAXX 21001 47108 11656 80204 10001 21029 30142 40251 53004 69952 71072 8551/ 333 21007 3/000 48///
AAXX 21001 47115 12668 52502 10035 21062 39957 40233 51001 69902 82501 333 20017 3/101 46001 9//3/
AAXX 21001 47133 12661 60902 10003 21051 30172 40260 52006 69902 81502 333 21008 34000
AAXX 21001 47138 32563 72003 10031 21079 30253 40256 52007 85530 333 20020 30004 92022
AAXX 21001 47159 32960 31402 10063 21063 30170 40256 52009 80001 333 20029 30002 92021
AAXX 21001 47165 11659 81401 10025 21024 30213 40261 52008 69902 72162 8452/ 333 20015 30003 92021
AAXX 21001 47168 32961 62902 10029 21067 30180 40261 52009 86020 333 20019 30000 92021
AAXX 21001 47184 32665 61603 10054 21024 30239 40265 51008 81501 333 20044 30005 92022
AAXX 21001 35925 429// 01608 11149 21176 30316 40437 57018 555 1/116
AAXX 21001 36152 429// 01602 11262 21305 30319 40533 57011 555 1/128
AAXX 21001 38944 429// 00502 11104 21148 48520 56008
AAXX 21004 89132 NIL
AAXX 21004 89542 46/// /1508 11043 20041 49784 57018
AAXX 21004 89575 NIL
AAXX 21004 89657 NIL
BBXX 51171 21001 99064 71623 46/// ///// 1//// 92346 22200 00279
BBXX 51170 21001 99168 71695 46/// ///// 1//// 92348 22200 00260
BBXX 52243 21001 99193 11666 46/// ///// 1//// 92354 22200 00263
BBXX 51174 21001 99142 51697 46/// ///// 1//// 92354 22200 00287
BBXX 51169 21001 99004 51600 46/// ///// 1//// 92354 22200 00259
BBXX 51178 21001 99142 51695 46/// ///// 1//// 92357 22200 00288
BBXX MINUK05 2100/ 99603 70043 46/// ///// 10060 40083 52014
BBXX NIL
BBXX NIL
BBXX NIL
BBXX NIL
AAXX 21004 40255 32960 00000 10130 20060 39474 40180 54003
AAXX 21004 40260 32960 00000 10070 21066 39406 40183 54000
AAXX 21004 40270 31950 20000 10097 20011 39288 40180 57004 70500 80002 333 82070
AAXX 21004 40272 32960 00000 10080 21024 39360 40191 54000
AAXX 21004 40290 NIL
AAXX 21004 40340 32960 03606 10150 20033 40166 54000
BBXX 9V8072 21003 99260 70700 41/97 /2427 10210 20160 40257 5/000 7//22 8//// 22263 29905 80180
BBXX NIL
AAXX 21004 40250 NIL
AAXX 21004 40265 32960 01206 10090 21029 39410 40199 54000
AAXX 21004 40296 32960 00000 10169 20109 40189 52011
AAXX 21004 40310 NIL
AAXX 21000 44272 129// 10000 11275 21313 38356 40624 56005 69902 81040 333 21295 47005 55042 555 31330 93100
AAXX 21001 48820 32597 50000 10178 20147 30178 40186 52020 85800 333 00017 20177 3/016 59018 83895 84697
AAXX 21001 48823 31696 83402 10182 20159 30185 40188 52024 71022 885// 333 00018 20181 3/018 59012 88696
AAXX 21001 33466 /1456 82703 10027 20017 39876 40065 52005 71052 886// 333 88713 555 69931
AAXX 21004 71916 46/// /0000 11380 21416 30075 40134 52009 6///1 333 11323 21394 7////
AAXX 21004 71464 46/// ///05 10031 39945 40160 58018 6///1 333 10031 21003 7////
AAXX 21004 71257 17/// /0206 10005 21040 69971 7//4/ 333 10042 21029 70035
AAXX 21004 71258 16/// /3014 10012 21106 60001 333 10045 21020 70000
AAXX 21004 71259 16/// /0603 11008 21037 60001 333 10034 21039 70000
AAXX 21004 71274 17/// /0607 11003 21010 60021 7//4/ 333 10035 21009 7////
AAXX 21004 71275 46/// /3405 11012 21027 6///1 333 10040 21012 7////
AAXX 21004 71278 16/// /2912 10022 21006 60001 333 10067 20020 70000
AAXX 21004 71287 17/// /0104 10001 21009 69971 7//4/ 333 10064 20001 70007
AAXX 21004 71289 16/// /2107 11001 21035 60001 333 10050 21011 70000
AAXX 21004 71351 16/// /3007 10026 21007 60001 333 10057 20018 70000
AAXX 21004 71353 16/// /3608 10025 21071 60001 333 10050 20015 70000
AAXX 21004 71375 46/// /3220 11105 6///1 333 11056 21107 7////
AAXX 21004 71385 46/// /2622 11090 6///1 333 11061 21097 7////
AAXX 21004 71445 16/// /3112 11024 21043 39689 49963 53018 60001 333 11002 21042 70000
AAXX 21004 71345 16/// /2615 10039 21034 60001 333 10065 20023 70000
AAXX 21004 71683 46/// /2303 11277 39982 40098 53006 6///1 333 11255 21286 7////
AAXX 21004 71137 16/// /3311 10026 21019 39141 40082 53019 60001 333 10029 21067 70000
AAXX 21004 71525 16/// /1703 10027 21010 60001 333 10056 20004 70000
AAXX 21004 71535 16/// /2515 10049 21037 60001 333 10072 20043 70000
AAXX 21004 71536 16/// /2622 10039 21045 60001 333 10067 20035 70000
AAXX 21004 71537 47/// /2705 10000 21021 6///1 7//4/ 333 10031 21020 7////
AAXX 21004 71214 16/// /2807 10000 21042 60001 333 10063 21035 70000
AAXX 21004 71223 16/// /2713 11001 21046 60001 333 21038 7////
AAXX 21004 71225 16/// /2611 10036 21024 60001 333 10061 20028 70000
AAXX 21001 23074 11997 80803 11196 21215 30180 40207 57001 69902 77171 8802/ 333 21256 47034
AAXX 21001 23274 11597 71305 11194 21213 30165 40204 57003 69972 77172 8252/ 333 21226 47045 55000
AAXX 21001 23383 32998 00000 11429 21461 39940 40359 57014 333 21451 47042
AAXX 21001 23472 11495 81003 11193 21219 30153 40205 57005 60032 78682 889// 333 21200 48050 55000
AAXX 21001 23678 119// 81402 11129 21149 30152 40213 54000 60022 77177 8802/ 333 21163 47044
AAXX 21001 23884 119// 82201 11122 21135 30170 40247 57005 60012 77172 8802/ 333 21165 47051 55000
AAXX 21001 23891 11996 80000 11350 21387 39973 57023 69952 77171 8807/ 333 21383 47051 55012
AAXX 21001 24507 319// 00000 11418 21444 30095 40383 57010 71000 333 21418 47024 55000
AAXX 21001 24817 319// 00000 11430 21456 39950 40388 57006 74000 333 21432 47035 55015
AAXX 21001 24908 31996 00401 11434 21476 30011 40405 57023 71000 333 21434 47038 55030
AAXX 21001 29263 11559 82603 11131 21158 30210 40316 57007 60012 78583 8695/ 333 21132 47033 55000
AAXX 21001 29282 11925 80000 11208 21227 30142 40327 57029 60022 77377 8807/ 333 21248 47031 55011
AAXX 21001 29379 11598 82903 11130 21165 30120 40340 57014 60032 70282 82901 333 21140 47026
AAXX 21001 29570 11596 72604 11070 21133 39993 40352 57013 69942 78583 83941 333 21110 47018
AAXX 21001 29698 115// 81101 11124 21137 39819 40360 57016 60032 78682 889// 333 21128 47016 55///
AAXX 21001 30230 12998 20000 11396 21429 30044 40430 58003 69902 80001 333 21399 47026 55000
AAXX 21001 30252 119// 80000 11239 21271 30035 40383 53004 69902 77072 8805/ 333 21239 47022 55000
AAXX 21001 30309 11997 81801 11194 21213 39810 40373 57010 69942 77172 8807/ 333 21233 47026 55032
AAXX 21001 30328 119// 50000 11348 21371 39959 40453 52002 69942 70272 80005 333 21357 47026 55000
AAXX 21001 30521 329// 00000 11347 21365 39849 40455 53003 333 21354 47017 55002
AAXX 21001 30710 11596 80901 11143 21160 39778 40399 57005 60022 78582 889// 333 21143 47024 55000
AAXX 21001 23973 11997 82204 11117 21137 30197 40262 57010 60022 77173 8802/ 333 21140 47043
AAXX 21001 23975 115// 62603 11121 21148 30162 40276 53005 69972 78582 86900 333 21120 47027 55000
AAXX 21001 23986 11997 81704 11152 21172 39607 40275 56013 60052 77372 8801/ 333 21160 47052
AAXX 21001 23987 11495 82003 11124 21144 30203 40283 56005 60012 78582 889// 333 21149 47028 55000
AAXX 21001 24606 329// 00000 11422 21450 30064 40381 57012 333 21422 47026 55000
AAXX 21001 29253 119// 82304 11138 21165 30148 40331 53002 69902 77172 8802/ 333 21140 47028
AAXX 21001 29471 11598 72502 11127 21162 30112 40353 57009 60012 70281 87900 333 21150 47034 87920
AAXX 21001 29481 11999 82901 11131 21158 30093 40345 57014 60022 70272 8802/ 333 21133 47027
AAXX 21001 29553 11976 82704 11103 21156 30002 40386 53001 69902 70231 8802/ 333 21140 47013 55000 91113
AAXX 21001 29562 11584 82705 11101 21145 39944 40380 57007 69932 73631 889// 333 21141 47036
AAXX 21001 29581 119// 82503 11107 21127 30084 40355 57018 60032 70272 8802/ 333 21125 47016
AAXX 21001 29594 11596 80000 11118 21131 39949 40355 57018 60032 78682 889// 333 21131 48019 55000
AAXX 21001 29653 32997 83002 11071 21119 39888 40390 57003 8802/ 333 21179 47033
AAXX 21001 29675 12898 62702 11077 21117 39779 40394 57013 60022 86010 333 21112 47028
AAXX 21001 29676 11898 83004 11049 21127 39913 40348 57014 60032 73633 8807/ 333 21102 47013
AAXX 21001 29752 114// 42405 11147 21153 38936 48572 57002 60012 78583 84900 333 21153 49033 55000 91119
AAXX 21001 29759 119// 82406 11121 21148 39361 40446 53002 69902 73832 80005 333 21129 47028 91116
AAXX 21001 29766 12999 00901 11186 21192 30063 40451 58008 60012 333 21195 47038 55000
AAXX 21001 29789 32999 80000 11147 21160 39143 40396 54000 80001 333 21147 47006 55000
AAXX 21001 29864 328// 61401 11109 21145 39757 40444 53006 83041 333 21116 43005
AAXX 21001 29866 329// 02402 11066 21112 30097 40430 58005 333 21067 48006 55000
AAXX 21001 29869 119// 21601 11109 21109 30052 40448 53005 60022 70231 80001 333 21116 48036 95090
AAXX 21001 29956 11671 82505 11070 21122 39884 40468 57018 69922 70232 889// 333 21070 47011 55000 88940
AAXX 21001 30337 12998 30000 11367 21388 39924 40447 58011 69922 80001 333 21367 47027 55003
AAXX 21001 30405 119// 82101 11146 21159 39808 40367 57014 69972 77177 86035 333 21171 47018
AAXX 21001 30504 11997 81902 11137 21150 39688 40374 57014 60012 77177 8802/ 333 21148 47018 55000
AAXX 21001 30603 11596 82101 11135 21141 39776 40380 57010 60022 77172 8802/ 333 21143 47020
AAXX 21001 30612 115// 81303 11178 21190 39824 40399 57005 69952 78582 8597/ 333 21194 47014 55///
AAXX 21001 30622 329// 00000 11346 21362 39715 40459 51001 333 21346 47015
AAXX 21001 30627 32999 02801 11227 21252 39398 40416 58004 333 21249 47015 55019
AAXX 21001 30703 119// 80000 11148 21154 39679 40394 56009 60022 77372 8802/ 333 21148 47022 55006
AAXX 21001 36307 11897 83001 11281 21312 39162 48634 58003 69952 70272 8802/ 333 21290 47018 95090
AAXX 21004 71137 16/// /3311 10026 21019 39141 40082 53019 60001 333 10029 21067 70000
AAXX 21004 89003 46/81 /1203 11067 29066 39003 4//// 5////
AAXX 21004 89577 46/// /1610 11327 35796 4//// 5////
AAXX 21004 89507 46/89 /1207 11259 29076 36791 4//// 5////
AAXX 21001 51711 11920 80901 11101 21116 38105 57002 60041 77077 8802/ 333 00651 70082 92520
AAXX 21001 51730 32970 30000 11098 21121 40437 57001 80002 333 00753
AAXX 21001 52112 32980 00000 11169 21212 40507 52002 333 00454
AAXX 21001 52737 32980 83201 11116 21225 37073 52006 8801/ 333 00151
AAXX 21001 52787 32970 73403 11180 21192 37047 52002 80002 333 00458 79999 92500
AAXX 21001 53352 32980 02903 11163 21208 40434 52006 333 00306
AAXX 21001 53593 32770 10000 11105 21176 40357 52020 81500 333 00102
AAXX 21001 53705 32965 42903 11090 21151 40436 52010 84030 333 00800
AAXX 21001 53863 32962 02203 11029 21109 40366 52019 333 00304
AAXX 21001 53975 31956 70000 11018 21055 40335 52017 71000 85032 333 00103 31030
AAXX 21001 54273 11958 70000 11247 21279 40262 57002 69901 71070 80002 333 05802 31027 79999 92518
AAXX 21001 54324 32970 71101 11118 21197 40262 52011 80002 333 05503
AAXX 21001 54405 32980 02907 11066 21199 40339 52027 333 00102
AAXX 21001 54436 32980 52501 11104 21163 40281 52009 80002 333 05403
AAXX 21001 54808 31958 01801 11048 21060 40302 52011 71000 333 05151 31029
AAXX 21001 54826 32960 63608 11064 21159 38492 52007 80002 333 05151 31011 92501
AAXX 21001 54836 31956 20000 11036 21062 40299 52007 71000 82040 333 05101 31046
AAXX 21001 54863 31940 42903 10000 21043 40277 52005 71000 80002 333 05300 31029
AAXX 21001 56018 32980 01801 11168 21270 36158 52014 333 05302
AAXX 21001 56021 32980 00000 11191 21288 36041 52006 333 05201
AAXX 21001 57071 31909 72702 10004 21017 40322 52023 74244 80002 333 00102 31018
AAXX 21003 42071 31994 05002 10072 20062 40188 71000 333 58025
AAXX 21004 42027 21595 80000 10018 20009 38450 48537 70262 8472/ 333 58031 6004/
AAXX 21004 42101 31993 00000 10080 20067 40183 74400 333 58022
AAXX 21004 42111 31995 00000 10068 20027 39398 40203 70500 333 58029
AAXX 21004 42131 31/93 90000 10054 20049 40178 74344 333 58016
AAXX 21004 42165 31995 00000 10076 20039 40171 70500 333 58032
AAXX 21004 42182 31993 00000 10076 20067 40179 74444 333 58013
AAXX 21004 42189 31/92 90000 10086 20086 40176 74744 333 58///
AAXX 21004 42328 31994 00203 10090 20036 40173 71000 333 58024
AAXX 21004 42339 31995 00504 10146 20025 40158 70500 333 58017
AAXX 21004 42348 31995 09004 10124 20084 40160 70400 333 58002
AAXX 21004 42369 31/92 99902 10088 20084 40182 74544 89/// 333 58005
AAXX 21004 42379 31594 83201 10098 20073 40169 71022 8652/ 333 58005 86625 88458
AAXX 21004 42452 32996 00000 10134 20095 40156 333 58000
AAXX 21004 42475 31/90 90000 10086 20086 40176 74544 89/// 333 59002
AAXX 21004 42071 NIL
AAXX 21004 42260 NIL
AAXX 21004 42361 NIL
AAXX 21004 42348 31995 00904 10124 20084 40160 70400 333 58002
AAXX 21004 63729 12480 60000 10202 20191 38862 48/// 69903 8297/ 333 0//19 55300 58002 82617 81919 86359
AAXX 21004 63756 32480 70000 10204 20191 38859 48493 8297/ 333 58001 82819 81920 87359
AAXX 21004 63791 32580 20606 10240 20165 39117 48502 82500 333 55300 58012 82624 Q1014
AAXX 21004 63801 01580 73020 10214 20187 49210 69901 76022 8192/ 333 58010 69907 81819 81920 87458
AAXX 21004 63832 32480 80000 10190 20183 38821 48494 8197/ 333 55300 58013 81817 81919 88457
AAXX 21004 63862 32480 32105 10206 20192 38894 48503 81531 333 58013 81618
AAXX 21004 63881 31480 70000 10160 20153 38204 48/// 71352 82933 333 58006 82616 81918 87074
AAXX 21004 63894 31580 50000 10250 20248 30039 40099 71321 85900 333 55300 59017 85820 81921
AAXX 21004 63962 12480 70000 10200 20191 38949 48506 69951 8392/ 333 58000 83618 81920 87458
AAXX 21004 63971 22205 10235 20232 39971 40101 82200 333 55300 59009 82820
AAXX 21004 63733 NIL
AAXX 21004 63866 NIL
AAXX 21004 63870 NIL
AAXX 21004 63887 NIL
AAXX 21004 63932 NIL
AAXX 21004 68513 36/// /1311 10170 20129 30009 40121 51001 333 10241 20166 91016 555 91012
AAXX 21004 68514 36/// ///// 1//// 2//// 3//// 4//// 5//// 333 1//// 2//// 555
AAXX 21004 68523 36/// /2305 10180 20003 39065 48477 57007 333 10380 20180 91009 555 91012
AAXX 21004 68527 36/// /0806 10254 20131 39031 48483 50000 333 10392 20254 91011 555 91011
AAXX 21004 68572 16/// /1603 10127 20086 38391 48501 57006 60023 333 10273 20119 91005 555 20024 91018
AAXX 21004 68575 16/// /3503 10147 20135 39064 48483 58012 69943 333 10239 20147 91004 555 20004 91014
AAXX 21004 68581 36/// /0603 10189 20174 39331 48480 58012 333 10268 20188 91005 555 91011
AAXX 21004 68583 NIL
AAXX 21004 68589 NIL
AAXX 21004 68613 36/// /2108 10138 20120 30004 40121 58002 333 10237 20137 91013 555 91012
AAXX 21004 68647 36/// /1904 10182 20137 38889 48487 57013 333 10318 20163 91006 555 91014
AAXX 21004 68651 16/// /3606 10195 20103 38545 48508 58022 60143 333 10245 20157 91012 555 20148 91019
AAXX 21004 68715 36/// /2203 10161 20130 39987 40115 58007 333 10319 20161 91007 555 91011
AAXX 21004 68717 36/// /2205 10164 20131 39971 40115 57005 333 10327 20161 91006 555 91011
AAXX 21004 68723 36/// /1902 10195 20097 39349 48482 58003 333 10370 20195 91005 555 91011
AAXX 21004 68737 16/// /2302 10186 20147 39205 48479 52003 60033 333 10321 20185 91004 555 20036 91012
AAXX 21004 68744 16/// /3206 10200 20133 39063 48481 57009 69923 333 10355 20200 91010 555 20002 91012
AAXX 21004 68747 36/// /2102 10184 20153 39565 48479 58002 333 10313 20183 91003 555 91009
AAXX 21004 68754 36/// /2804 10215 20122 39093 48488 57013 333 10267 20194 91006 555 91012
AAXX 21004 68817 36/// /1708 10187 20120 30104 40117 58002 333 10285 20187 91020 555 91011
AAXX 21004 68821 36/// /1203 10187 20131 39863 40100 57010 333 10332 20184 91005 555 91010
AAXX 21004 68835 36/// /1902 10199 20171 39984 40097 57013 333 10287 20198 91002 555 91009
AAXX 21004 68843 36/// /2603 10178 20159 39986 40084 58010 333 10240 20178 91005 555 91008
AAXX 21004 68849 36/// /1703 10152 20139 39359 48465 58001 333 10249 20152 91004 555 91010
AAXX 21004 68912 36/// /1509 10147 20116 30111 40120 57011 333 10189 20145 91011 555 91012
AAXX 21004 68918 36/// /1604 10185 20140 30106 40124 58003 333 10235 20185 91006 555 91012
AAXX 21004 68921 36/// /1908 10192 20149 30111 40114 58010 333 10241 20192 91012 555 91011
AAXX 21004 68925 36/// /1802 10160 20133 39756 40120 57006 333 10261 20159 91005 555 91012
AAXX 21004 68926 36/// /2502 10181 20155 39929 40107 57011 333 10311 20175 91004 555 91010
AAXX 21004 68935 36/// /2705 10191 20163 30034 40097 58003 333 10266 20188 91009 555 91009
AAXX 21004 41258 36/// /3506 10226 20089 30186 40190 333 0E/// 58005
AAXX 21004 67023 NIL
AAXX 21004 67131 NIL
AAXX 21001 02963 46/// /1901 11005 21006 40084
AAXX 21004 62305 32960 02609 10093 20074 40211 57002
AAXX 21004 62306 32960 02609 10120 20095 40204 57001
AAXX 21004 62318 32560 40000 10116 20091 40198 57002 84800
AAXX 21004 62337 NIL
AAXX 21004 62366 31956 00000 10132 20092 40205 57002 71000
AAXX 21004 62393 32960 03004 10088 20065 40210 56006
AAXX 21004 62405 32960 01504 10130 20037 40178 57001
AAXX 21004 62414 32960 00107 10156 20038 40178 54000
AAXX 21004 62417 32960 00000 10128 20052 40210 57003
AAXX 21004 62440 31915 42602 10126 20126 40199 57002 71000 84050
AAXX 21004 62463 32960 03012 10169 20118 40179 52003
AAXX 21004 62465 32960 02904 10182 20118 40162 57001
AAXX 21004 62419 NIL
AAXX 21001 40001 32970 00802 10006 21030 40218 58001
AAXX 21001 40007 32560 70804 10092 20038 40208 55001 83550 333 83630 87360
AAXX 21001 40025 32960 40502 10132 20076 40168 52006 84030 333 84360
AAXX 21001 40045 32970 00000 10010 21022 40231 56001
AAXX 21001 40061 32970 00000 10050 20005 40203 55001
AAXX 21001 40080 32965 00201 10070 21039 39479 40186 55005
AAXX 21001 40087 NIL
AAXX 21001 40095 NIL
AAXX 21004 67002 32580 50000 10245 20232 30086 40120 84800 333 0//00 58012 81820 85630 92408
AAXX 21004 67009 NIL
AAXX 21004 67012 NIL
AAXX 21004 67025 NIL
AAXX 21004 67027 32580 22012 10263 20201 30071 40092 57009 81830 333 0//00 81820 555 81640 81360
AAXX 21004 67045 NIL
AAXX 21004 67072 NIL
AAXX 21004 67073 NIL
AAXX 21004 67083 32470 10000 10165 20140 38709 48487 58010 81800 333 0//00 81817
AAXX 21004 67095 32475 20000 10227 20220 30068 40075 57011 82800 333 0//00 818917 555 82633
AAXX 21004 67113 NIL
AAXX 21004 67117 NIL
AAXX 21004 67137 NIL
AAXX 21004 67143 NIL
AAXX 21004 67157 NIL
AAXX 21004 67161 NIL
AAXX 21004 67197 11460 70804 10214 20207 30064 40074 56005 69981 72196 873// 333 0//11 82817 81917 85633 94961 95831
AAXX 21004 68583 NIL
AAXX 21004 68589 NIL
BBXX 46206 21001 99488 71260 46/// /3110 10085 40275 57003 22200 00089 11610 70050 333 91212
AAXX 21004 68174 36/// /0705 10173 20118 38793 48515 58008 333 10285 20173 91006 555 91018
AAXX 21004 68191 36/// /1704 10200 20128 39642 48533 57002 333 10319 20200 91005 555 91015
AAXX 21004 68242 36/// /0614 10201 20127 38716 48497 57006 333 10343 20196 91020 555 91016
AAXX 21004 68262 36/// /0906 10209 20139 38706 48514 50000 333 10311 20208 91015 555 91018
AAXX 21004 68263 32880 41509 10176 20133 38491 48516 58007 84070 333 10286 20176 91013 555 91020
AAXX 21004 68267 NIL
AAXX 21004 68289 36/// /2402 10173 20116 39157 48522 57010 333 10280 20173 91003 555 91017
AAXX 21004 68350 16/// /1107 10178 20159 38665 48515 58022 60033 333 10347 20176 91012 555 20038 60145 91019
AAXX 21004 68368 11970 61911 10150 20144 38334 48532 58014 69961 70286 84072 555 20006 91022
AAXX 21004 68403 36/// /2203 10171 20147 30119 40152 57005 333 10229 20170 91005 555 91015
AAXX 21004 68424 36/// /2008 10277 21000 39141 48482 51001 333 10422 20270 91013 555 91010
AAXX 21004 68438 36/// /0809 10204 20122 38798 48493 57007 333 10345 20203 91012 555 91015
AAXX 21004 68442 16/// /0809 10170 20129 38670 48521 57013 60013 333 10326 20166 91017 555 20012 91020
AAXX 21004 68461 16/// /1205 10144 20112 38340 48527 57022 60013 333 10294 20138 91008 555 20016 91022
AAXX 21004 68512 36/// /2709 10118 20102 38993 48479 58005 333 10295 20118 91011 555 91014
AAXX 21004 68538 16/// /0310 10203 20136 38693 48479 58004 60033 333 10300 20190 91017 555 20036 91014
AAXX 21004 68587 36/// /2703 10214 20186 30067 40079 56001 333 10258 20214 91005 555 91008
AAXX 21004 68588 36/// /3503 10228 20194 30083 40099 58017 333 10298 20228 91006 555 91009
AAXX 21004 68591 36/// /3505 10221 20200 39914 40092 57031 333 10265 20217 91009 555 91009
AAXX 21004 68592 NIL
AAXX 21004 68618 36/// /2004 10137 20051 39022 48481 58001 333 10347 20137 91006 555 91014
AAXX 21004 68633 36/// /0606 10185 20109 38486 48480 57011 333 10309 20159 91010 555 91016
AAXX 21004 68668 16/// /0411 10240 20125 39239 48480 58018 69923 333 10240 20199 91015 555 20002 91010
AAXX 21004 68714 36/// /2006 10151 20113 30078 40115 57007 333 10269 20151 91009 555 91011
AAXX 21004 68727 36/// /0703 10210 20047 39076 48468 58005 333 10348 20210 91006 555 91010
AAXX 21004 68752 36/// /2404 10179 20167 39419 48477 57008 333 10233 20175 91008 555 91010
AAXX 21004 68816 32580 61813 10178 20131 30066 40120 58007 86500 333 91016 555 91012
AAXX 21004 68828 13470 /2905 10185 20166 39870 40100 58010 60001
AAXX 21004 68842 32260 59903 10194 20169 30023 40092 57013 85600 555 91009
AAXX 21004 68858 NIL
AAXX 21004 68906 32698 12709 10102 20061 30082 40147 50000 81500 333 10140 20098 91020 555 91014
AAXX 21004 68994 32498 73025 10105 20089 30040 40069 58007 875// 333 10130 20090 91034 555 91006
AAXX 21004 89004 36/// /0809 11081 21101 38794 49802 58005 333 11052 21084 91011 555
AAXX 21004 48375 31940 00000 10145 20138 39902 40136 52015 71000 333 20140 59001
BBXX 46206 21001 99488 71260 46/// /3110 10085 40275 57003 22200 00089 11610 70050 333 91212
AAXX 21004 48387 31558 30000 10125 20115 39174 40162 52002 71011 81541 333 20109 58002
AAXX 21004 48350 31910 10000 10130 20128 39851 40165 52021 71000 80001 333 20126 59005
AAXX 21004 68267 NIL
AAXX 21004 68592 NIL
AAXX 21004 68858 NIL
AAXX 21004 64500 11360 82008 10265 20244 30101 40114 69921 72166 885// 333 0//11 58005 84608 88630
AAXX 21003 64501 31458 72206 10255 20241 3//// 4//// 70162 875// 333 0//12 5//// 83610 87626
AAXX 21003 64570 NIL
AAXX 21001 40009 32965 00000 10028 20007 40194 55003
AAXX 21001 40016 NIL
AAXX 21001 40022 32965 30502 10137 20066 40168 52006 83050 222// 20000 333 83360
AAXX 21001 40030 31560 50000 10042 20037 40199 55001 71042 85500 333 85630
AAXX 21001 40039 32970 00000 10040 20022 40202 56007
AAXX 21001 40066 32970 00701 10138 20041 40167 52009
AAXX 21001 40072 NIL
AAXX 21001 40083 32970 02601 10052 21011 48506 57006
AAXX 21001 50658 31920 80000 11218 21227 40189 52001 70400 80007 333 05805 92506
AAXX 21001 50888 32970 31403 11173 21199 40216 57003 80002 333 05653
AAXX 21001 50983 32960 31101 11171 21200 40235 57007 80002 333 05502 92502
AAXX 21001 51053 32980 20903 11235 21267 40578 57007 80002 333 00004 31049 92516
AAXX 21001 51542 32675 70702 11206 21230 37634 57006 875// 333 00353 70009 92502
AAXX 21001 52436 32980 01402 11156 21197 38598 40477 52004 333 00751
AAXX 21001 52908 32980 23401 11204 21335 35719 52001 80002 333 05152
AAXX 21001 52996 11962 70204 11142 21151 37615 52004 69901 70070 8704/ 333 00457 79999
AAXX 21001 53083 32980 13202 11236 21271 40422 52017 80002 333 00107
AAXX 21001 53764 31959 03202 11087 21111 40394 52018 71000 333 00455
AAXX 21001 53787 32962 50704 11085 21116 40356 52017 80002 333 00252
AAXX 21001 54096 32970 03202 11176 21196 40238 57003 333 05652 92501
AAXX 21001 54226 32980 63205 11080 21215 40263 52017 86032 333 05410
AAXX 21001 54259 31658 10000 11180 21206 40259 52003 70400 81500 333 05703 92510
AAXX 21001 54527 31956 02902 11055 21101 40283 52007 71000 333 05300
AAXX 21001 54534 32965 03602 11083 21145 40277 52010 333 05303
BBXX 46132 21001 99497 71279 46/// /3009 10082 40291 57002 22200 00090 11311 70053 333 91212
BBXX 46205 21001 99542 71343 46/// /3306 10062 40288 52021 22200 00077 11308 70038 333 91207
BBXX 46205 21001 99542 71343 46/// /3306 10062 40288 52021 22200 00077 11308 70038 333 91207
BBXX 46132 21001 99497 71279 46/// /3009 10082 40291 57002 22200 00090 11311 70053 333 91212
AAXX 21004 42867 31995 03602 10110 20077 40161 70500 333 59008
AAXX 21004 42933 32996 00000 10150 20064 40150 333 59001
AAXX 21004 42559 NIL
AAXX 21004 42571 NIL
AAXX 21004 42667 NIL
AAXX 21004 42675 NIL
AAXX 21004 42754 NIL
AAXX 21004 42779 NIL
AAXX 21004 42874 NIL
AAXX 21004 43041 NIL
AAXX 21004 41858 31301 82708 10116 20110 30113 40161 74644 8662/ 333 56699 58003 70000 86708 88458
AAXX 21004 41863 31910 02702 10111 20110 30114 40160 71020 333 58005 70000
AAXX 21004 41886 31908 80000 10132 20130 30133 40155 74044 8802/ 333 56099 59005 70000 88460
AAXX 21004 41895 31950 02702 10110 20110 30128 40152 70500 333 59004 70000
AAXX 21004 41909 31/05 93602 10125 20125 30132 40145 74344 89/// 333 56999 58000 70000
AAXX 21004 41933 31/00 93102 10129 20129 30142 40151 74544 89/// 333 56999 58001 70000
AAXX 21004 41946 31920 03602 10130 20130 30149 40154 71000 333 58002 70000
AAXX 21004 41953 31930 03103 10144 20130 30140 40146 70500 333 58007 70000
AAXX 21004 41958 31930 00000 10135 20135 30147 40149 70500 333 85004 70000
AAXX 21001 31825 32999 00000 11289 21307 30055 40289 51005 333 21313 47020
AAXX 21001 31845 32999 00000 11322 21346 30078 40256 57013 333 21341 47038
AAXX 21001 31878 32998 61802 11199 21228 30105 40239 55005 80001 333 21237 47021
AAXX 21001 31915 32998 02803 11180 21206 39949 40233 56005 333 21188 47007
AAXX 21001 31921 31996 01802 11187 21213 30124 40230 55002 70400 333 21208 41997
AAXX 21001 31969 32597 83103 11115 21168 30184 40236 53001 81533 333 21116
AAXX 21001 31981 32999 02402 11222 21248 39998 40256 56002 333 21238 47023
AAXX 21001 31987 32999 03401 11157 21197 39977 40255 52003 333 21173 42001
AAXX 21001 32069 11598 51305 11184 21203 30221 40226 52002 69920 70282 85900 333 21199 47009 91007 91107
AAXX 21004 82392 32996 00510 10274 20226 39990 40092 333 10378 29071 55087 59005
AAXX 21004 82583 32996 00903 10305 20183 39746 40079 333 10372 29050 55076 59014
AAXX 21004 82594 32697 20907 10284 20204 30094 40102 82110 333 10350 29061 55110 59007
AAXX 21004 82683 32994 00000 10296 20174 39640 40085 333 10365 29050 55112 59017
AAXX 21004 82780 32595 31404 10350 20168 39845 40090 83100 333 10390 29037 55110 59017
AAXX 21004 82789 32994 01410 10246 20150 38926 40010 333 10307 29/// 55105 59010
AAXX 21004 82795 32594 50908 10223 20199 39527 40142 85200 333 10309 29073 55093 58000
AAXX 21004 82879 32992 01404 10314 20162 39814 40074 333 10376 29041 55117 59020
BBXX A8AX3 21003 99206 70186 41/// /0403 10200 40190 51/// 7//// 8//// 22244 2//// 30000
BBXX MZFC6 21003 99103 10667 41998 00410 10288 20217 40103 57002 70200 80000 22264 04286 2//// 3//// 4//// 5//// 80240
BBXX AMOUK17 21004 99340 30260 46/// ///// 10204 20190 30083 40085 57010 92350
BBXX AMOUK15 21004 99120 50102 46/// ///// 10223 20174 30140 40167 52011 92350
AAXX 21001 30455 329// 20000 11258 21313 38926 48455 52016 80002 333 21258 47010
AAXX 21001 30669 32999 63202 11220 21287 39329 40263 52016 82036 333 21230 47006
AAXX 21001 30731 115// 83303 11143 21178 39712 40358 52008 69902 78583 8595/ 333 21145 47033
AAXX 21001 30739 316// 32304 11187 21220 39473 40351 53011 73630 82901 333 21192 47004
AAXX 21001 30741 319// 82806 11225 21243 38705 48493 53017 73832 80007 333 21230
AAXX 21001 30745 329// 12402 11228 21261 39096 40342 52013 80002 333 21228 47006 55039
AAXX 21001 30764 32998 23103 11268 21307 39439 40317 52021 81041 333 21281 47002
AAXX 21001 30829 11984 83203 11199 21218 39654 40402 53006 69922 70282 85031 333 21217 47001
AAXX 21001 30838 11998 32101 11218 21230 39330 40399 52007 69902 70283 82042 333 21218 47012
AAXX 21001 30846 32999 32703 11188 21256 39359 40332 53018 81031 333 21188 47997
AAXX 21001 30859 11599 83002 11177 21219 39399 40288 52009 69902 72681 82903 333 21180 47006
AAXX 21001 30862 32999 50104 11235 21292 39482 40283 52019 82041 333 21240 47008
AAXX 21001 30957 32999 23106 11174 21243 39364 40316 52011 82040 333 21174 46001
AAXX 21001 30975 32899 80000 11302 21332 39543 40264 52009 8801/ 333 21348 47013
AAXX 21004 82141 32797 60207 10279 20246 30085 40097 86030 333 10312 29078 55098 59011
AAXX 21004 82145 32995 00000 10268 20235 30068 40109 333 10344 29073 55092 59013
AAXX 21004 82181 32797 30504 10285 20219 39972 40112 83040 333 10336 29064 55089 59007
AAXX 21004 82198 32992 00205 10269 20239 30050 40101 333 10338 29073 55098 59016
AAXX 21004 82353 32996 00000 10287 20233 39977 40061 333 10354 29071 55079 58004
AAXX 21004 82361 32496 03203 10278 20227 30055 40092 333 10339 29072 55081 59016
AAXX 21004 82476 32795 21801 10295 20205 39956 40073 82030 333 10373 29055 55102 59016
AAXX 21004 82861 21997 01804 10269 20245 39894 40063 70252 333 10330 29082 55072 59016 69921
BBXX ZDLP 21003 99567 50398 41/91 93315 10021 20018 40016 54000 74544 89/// 22283 04017 20501 32835 41003 50603 80020
BBXX 62141 21003 99493 50591 41798 63313 10117 40003 54000 70122 86578 22200 20602 334// 40702 5//// 80014
BBXX AMOUK20 21004 99229 50431 46/// ///// 10273 20195 30108 40120 54/// 92350
BBXX VQKZ6 21003 99091 50805 41597 81316 10224 20194 40204 51005 70022 85718 22244 02213 20402 313// 40605 5//// 80205
BBXX LAVN4 21004 99351 50499 41/// /2410 10280 2023/ 40090 54000 70010 8//// 22213 00190 20402 304// 4//// NNNN
AAXX 21004 82098 32496 40504 10282 20236 30098 40115 8234/ 333 10341 29072 55065 58016
AAXX 21004 82246 32997 00000 10270 20248 39900 40097 333 10324 29084 55091 59009
AAXX 21004 82445 32997 00000 10292 20250 30052 40104 333 10342 29076 55068 59007
AAXX 21004 82460 32595 60503 10283 20224 30061 40090 83500 333 10390 29064 55073 59001
AAXX 21004 82562 32995 00901 10283 20247 39955 40062 333 10333 29076 55055 59035
AAXX 21004 82571 31497 13201 10284 20238 39906 40078 71320 81300 333 10362 29068 55082 59020
AAXX 21004 82765 32598 10000 10282 20260 39880 40119 81100 333 10329 29084 55068 59021
AAXX 21004 83552 32594 2//// 10322 20217 39924 40095 82300 333 10403 29053 55120 58004
AAXX 21004 83565 32/94 40000 10296 20210 39620 40075 845// 333 10344 29/// 55097 58002
AAXX 21004 83623 31995 0//// 1//// 2//// 39508 4//// 53026 70544 333 1//// 29/// 55098
AAXX 21004 83630 32997 00000 10230 20175 3//// 4//// 51007 333 10306 29062 55095
AAXX 21004 83676 31997 01402 10248 20229 39460 40079 56005 70292 333 10324 29/// 55081
AAXX 21004 83702 32998 33202 10275 20172 39343 40080 53002 80008 333 10352 29044 55///
AAXX 21004 83704 32997 00000 10295 20150 39656 40051 53002 333 10368 29041 55121
AAXX 21004 83716 32997 00905 10270 20183 39592 40074 54000 333 10355 29/// 55111
AAXX 21004 83726 32996 00902 10219 20190 39170 40123 54000 333 10305 29075 55082
AAXX 21004 88900 46/// /0901 10043 20037 30056 40059 52001 333 10067 20037
AAXX 21004 89020 46/// /9901 11032 21048 39773 49808 57009 92350
AAXX 21001 30499 11956 80203 11203 21215 39515 40214 54000 60022 77173 8802/ 333 21249 47015
AAXX 21001 30683 11999 83402 11192 21225 39531 40222 52020 60012 72272 8807/ 333 21218 47011
AAXX 21001 30695 11996 82902 11222 21248 39846 40208 53011 60012 77172 8801/ 333 21222 47012
AAXX 21001 31253 11997 80501 11235 21268 39715 40209 57005 60012 77172 8802/ 333 21273 55059
AAXX 21001 31295 11996 80702 11211 21230 39708 40196 53006 60022 77172 8801/ 333 21228 47009
AAXX 21001 31348 32999 03501 11353 21355 30035 40258 52005 333 21372 47020
AAXX 21001 31418 32999 00000 11286 21304 39961 40244 53003 333 21293
AAXX 21001 31439 32999 00000 11291 21309 30189 40239 52005 333 21298 47011
AAXX 21001 31442 11997 80701 11230 21255 39789 40170 57006 69922 77172 8802/ 333 21253 47007
AAXX 21001 31445 11995 80000 11249 21274 39899 40175 54000 69902 77372 8802/ 333 21299 47006
AAXX 21001 31474 32999 60501 11305 21344 39724 40264 57007 84051 333 21359 47013
AAXX 21001 31521 32975 81504 11221 21240 39869 40183 57007 82047 333 21245 47012
AAXX 21001 31527 32998 31402 11201 21213 39858 40181 56001 83030 333 21220 47012
AAXX 21001 31534 11999 81401 11243 21268 39849 40223 57005 69900 70272 84027 333 21283
AAXX 21001 31587 31996 80000 11260 21271 30027 40187 56002 71011 80004 333 21278 47016
AAXX 21001 31632 NIL
AAXX 21001 31702 32998 80301 11250 21281 39854 40222 56003 80001 333 21263 47020
AAXX 21001 31713 32998 03601 11261 21273 30127 40235 54000 333 21288 47014
AAXX 21001 31725 32998 00502 11249 21256 30160 40234 53001 333 21264
AAXX 21001 31801 32598 10000 11292 21309 30018 40272 57005 81500 333 21321
AAXX 21004 82863 31596 20000 10274 20236 39879 40089 71320 82300 333 10342 29076 55091 59021
AAXX 21004 83228 32996 00903 10254 20236 39809 40081 333 10346 29076 55101 59028
AAXX 21004 83270 21/94 90000 10234 20220 39647 40129 71395 8//// 333 1//// 29082 55047 59008 69951
AAXX 21004 83309 31692 50000 10259 20240 39794 40115 71341 836// 333 10322 29083 55/// 59005
AAXX 21004 83319 32991 00000 10246 20238 39763 40135 333 10313 29088 55017 58002
AAXX 21004 83368 32796 70000 10254 20022 39732 40095 85230 333 10307 29082 55016 59001
AAXX 21004 83374 32/95 90000 10250 20225 39536 40104 333 10313 29080 55026 59016
AAXX 21004 83405 32992 0//// 10302 20214 39924 40057 333 10376 29071 55088 58004
AAXX 21004 83526 32997 03603 10226 20171 39175 40106 333 10293 29069 55/// 59008
AAXX 21004 83064 21/96 90000 10264 20233 39820 40087 70096 333 10346 29073 55066 59011 60071
AAXX 21004 83235 31697 30000 10254 20219 39430 40092 74492 83100 333 10342 29074 55/// 59014
AAXX 21004 83264 21793 80502 10241 20232 39679 40143 70066 885// 333 10323 29089 55021 58000 69931
AAXX 21004 83332 32696 10000 10230 20172 39198 40095 81100 333 10284 55000 59013
AAXX 21004 83358 21593 80000 10254 20231 39681 40077 71362 8359/ 333 10338 29076 55036 59002 60041
AAXX 21004 83423 32495 80000 10256 20204 39290 40093 887// 333 10301 29066 55/// 59014
AAXX 21004 83470 32997 00902 10244 20205 39238 40082 333 10305 29074 55027 58000
BBXX DCPL2 21004 99235 11178 41797 70120 10172 20132 40200 52025 70122 8707/ 22254 00170 2//// 303// 40004 80148
BBXX S6OM 21004 99142 11202 41898 20522 10270 20263 40109 51/// 71800 811// 22233 00281 20304 305// 40304 5//// 80265
BBXX ZCDS4 21003 99147 51498 41697 60924 10280 20221 40092 54000 71866 86376 22222 04278 20302 30903 40504 50504 80240
AAXX 21004 41258 36/// /3506 10226 20089 30186 40190 333 0E/// 58005
AAXX 21001 50548 11966 72901 11200 21228 40191 52009 69911 72270 82032 333 05709 70001
AAXX 21001 50564 32962 71801 11187 21209 40179 57002 80002 333 05701
AAXX 21001 51334 11770 82201 11141 21161 40536 57007 69931 77077 885// 333 00154 70003 92507
AAXX 21001 51818 11865 72504 11084 21115 40430 57007 69911 72270 875// 333 00652 70007 92501
AAXX 21001 52378 32980 22203 11161 21212 40481 52014 80002 333 00603
AAXX 21001 53487 32962 13401 11152 21207 40381 52014 81030 333 00252
AAXX 21001 53502 32980 02003 11153 21194 40466 52010 333 00703
AAXX 21001 53923 11980 73602 11056 21115 40383 52014 69901 70070 83042 333 00553 79999
AAXX 21001 54049 32970 72504 11152 21216 40221 52006 80002 333 05601
AAXX 21001 54115 32680 62704 11149 21224 40302 52017 84102 333 05200
AAXX 21001 54157 32668 72001 11111 21166 40236 52007 82502 333 05601 92501
AAXX 21001 54186 31958 01401 11207 21234 40259 57001 70400 333 05701 92506
AAXX 21001 54311 32980 00202 11140 21219 40314 52011 333 05207
AAXX 21001 54346 32965 01102 11117 21141 40255 52009 333 05603
AAXX 21001 54377 31458 50201 11128 21148 40269 52001 71000 85600 333 05703 92502
AAXX 21001 54386 32570 70701 11220 21252 40306 57001 875// 333 05601 92502
AAXX 21001 54493 32962 70201 11092 21116 40260 52006 80002 333 05605
AAXX 21001 54587 NIL
AAXX 21001 54715 31/04 90000 11071 21086 40301 52011 74944 333 05153
AAXX 21001 54929 31940 83201 11008 21030 40291 52009 71000 8802/ 333 05202 31026
AAXX 21001 54945 31950 70000 10015 21050 40282 54000 71000 80002 333 05201 31035
AAXX 21001 56065 32980 10701 11138 21171 36617 52009 80002 333 00003
AAXX 21001 57193 31920 70000 11011 21035 40309 52019 71000 8703/ 333 00000 31015
AAXX 21001 57290 31956 82902 10011 21025 40312 52023 71000 8807/ 333 00102 31007
AAXX 21004 41265 36/// /3402 10140 21017 39639 40193 333 0E021 59000
AAXX 21004 68155 36/// /1002 10224 20133 39186 48517 58001 333 10337 20224 91003 555 91015
AAXX 21004 68171 NIL
AAXX 21004 68176 36/// /0203 10171 20122 39137 48514 57005 333 10303 20169 91004 555 91016
AAXX 21004 68181 NIL
AAXX 21004 68182 36/// /2304 10194 20127 39340 48523 57008 333 10295 20189 91006 555 91016
AAXX 21004 68185 36/// /0000 10164 20142 38463 48396 58003 333 10286 20160 91001 555 91006
AAXX 21004 68253 36/// /0000 10257 20124 39046 48526 56001 333 10347 20257 91003 555 91016
AAXX 21004 68255 36/// /2106 10216 20138 38855 48504 51001 333 10333 20215 91011 555 91016
AAXX 21004 68271 36/// /3405 10214 20115 38912 48517 58005 333 10313 20209 91009 555 91017
AAXX 21004 68273 NIL
AAXX 21004 68287 36/// /0403 10128 20113 38577 48511 57013 333 10242 20124 91005 555 91019
AAXX 21004 68291 36/// /1002 10189 20140 39538 48525 57005 333 10323 20189 91004 555 91015
AAXX 21004 68297 NIL
AAXX 21004 68329 36/// /0000 10221 20029 39042 48477 58006 333 10412 20221 91003 555 91011
AAXX 21004 68331 36/// /0506 10225 20108 38817 48504 58002 333 10373 20224 91010 555 91016
AAXX 21004 68335 36/// /0304 10215 20140 38909 48518 58007 333 10364 20215 91007 555 91017
AAXX 21004 68341 16/// /0810 10177 20140 38532 48516 58005 60013 333 10315 20173 91016 555 20016 91020
AAXX 21004 68342 NIL
AAXX 21004 68343 16/// ///// 10189 20156 38770 48493 57008 60053 333 10346 20189 555 20052 91016
AAXX 21004 68349 36/// /0607 10186 20143 38512 48506 58008 333 10311 20186 91012 555 91019
AAXX 21004 68353 16/// /1705 10169 20145 38535 48513 58010 60013 333 10303 20166 91007 555 20014 91019
AAXX 21004 68355 16/// /0415 10170 20137 38576 48509 58012 60083 333 10330 20169 91021 555 20088 91019
AAXX 21004 68370 NIL
AAXX 21004 68377 NIL
AAXX 21004 68380 NIL
AAXX 21004 68387 NIL
AAXX 21004 68411 36/// /2107 10205 20123 39915 40122 51002 333 10386 20205 91014 555 91012
AAXX 21004 68429 36/// /0402 10229 20105 38656 48479 57006 333 10361 20224 91005 555 91014
AAXX 21004 68449 16/// /1609 10158 20118 38406 48520 52007 60173 333 10302 20158 91012 555 20176 91021
AAXX 21004 68471 16/// /3308 10146 20110 38324 48504 58025 60133 333 10264 20144 91017 555 20136 91019
AAXX 21004 68474 16/// /0000 10113 20102 38624 48512 57027 60073 333 10264 20112 91002 555 20070 91019
AAXX 21004 68479 NIL
AAXX 21004 68481 36/// /0000 10207 20159 39759 40126 57011 333 10320 20207 91003 555 91013
AAXX 21004 68487 NIL
AAXX 21004 68491 36/// /3605 10223 20191 30101 40110 57016 333 10303 20220 91009 555 91011
AAXX 21004 68497 NIL
AAXX 21004 68183 36/// /2705 10175 20142 39438 48517 57008 333 10293 20175 91007 555 91015
AAXX 21004 68188 36/// /0603 10170 20144 39203 48522 58006 333 10286 20168 91006 555 91017
AAXX 21004 68268 36/// /3605 10212 20137 38881 48523 52002 333 10357 20201 91009 555 91018
AAXX 21004 68272 36/// /1803 10204 20141 39074 48519 55000 333 10338 20191 91003 555 91017
AAXX 21004 68296 36/// /2602 1//// 2//// 38916 4//// 54000 333 1//// 20589 91002 555
AAXX 21004 68322 16/// /2707 10291 20048 39094 48485 55000 69963 333 10420 20228 91013 555 20006 91010
AAXX 21004 68338 36/// /0309 10201 20124 38752 48485 57006 333 10354 20201 91013 555 91015
AAXX 21004 68345 16/// /0714 10179 20140 38672 48514 57013 60013 333 10331 20176 91021 555 20014 91019
AAXX 21004 68362 16/// /0702 10157 20132 38516 48518 57016 60073 333 10321 20156 91003 555 20078 91020
AAXX 21004 68400 36/// /0302 10208 20176 30040 40113 57015 333 10360 20208 91004 555 91011
AAXX 21004 68408 36/// /1402 10148 20131 30131 40139 57002 333 10198 20139 91003 555 91013
AAXX 21004 68416 36/// /2012 10204 21031 38999 48476 58002 333 10370 20204 91015 555 91012
AAXX 21004 68478 16/// /2504 10177 20138 38860 48499 57017 60033 333 10294 20171 91006 555 20032 91016
AAXX 21004 68488 NIL
AAXX 21004 68494 NIL
AAXX 21004 68524 36/// /2604 10262 20049 39015 48481 50000 333 10392 20247 91007 555 91011
AAXX 21004 68546 16/// /0103 10169 20134 38670 48515 56003 60063 333 10306 20167 91007 555 20068 91019
AAXX 21004 68558 16/// /0207 10162 20087 38196 48511 57016 60043 333 10270 20129 91016 555 20044 91021
AAXX 21004 68570 16/// /2803 10171 20096 38518 48510 53002 60063 333 10318 20149 91006 555 20064 91019
AAXX 21004 68580 36/// /0402 10172 20106 38921 48484 57016 333 10247 20171 91004 555 91014
AAXX 21004 68614 36/// /2403 10156 20127 30069 40110 57003 333 10320 20156 91006 555 91011
AAXX 21004 68624 36/// /1104 10190 20029 38708 48481 57009 333 10356 20181 91009 555 91014
AAXX 21004 68674 36/// /0304 10222 20192 30034 48494 51006 333 10284 20215 91007 555 91006
AAXX 21004 68712 36/// /1813 10129 20114 30046 40112 57008 333 10201 20129 91015 555 91011
AAXX 21004 68718 36/// /0604 10172 20137 39870 40116 57007 333 10349 20171 91005 555 91011
AAXX 21004 68722 36/// /1802 10092 20016 38521 48478 58001 333 10305 20092 91010 555 91015
AAXX 21004 68814 36/// /2010 1//// 2//// 30115 4//// 57010 333 1//// 2//// 91012 555 91012
AAXX 21004 68832 36/// /1804 10179 20045 39150 48474 57008 333 10345 20178 91011 555 91011
AAXX 21004 68916 36/// /0103 10164 20111 39855 40123 57012 333 10222 20164 91008 555 91012
AAXX 21004 68920 36/// /1904 10191 20146 30105 40118 57007 333 10234 20191 91013 555 91011
AAXX 21004 68928 36/// /2703 10190 20170 39947 40106 58003 333 10237 20186 91005 555 91010
BBXX 51179 21001 99143 51708 46/// ///// 1//// 90003 22200 00288
BBXX 51176 21001 99278 71758 46/// ///// 1//// 90003 22200 00239
BBXX 52245 21001 99181 11458 46/// ///// 1//// 90005 22200 00283
BBXX 52248 21001 99135 11448 46/// ///// 1//// 90006 22200 00287
BBXX 52246 21001 99152 11457 46/// ///// 1//// 90007 22200 00282
BBXX 52244 21001 99200 11452 46/// ///// 1//// 90008 22200 00269
BBXX 51173 21001 99260 71739 46/// ///// 1//// 90011 22200 00245
BBXX 51172 21001 99284 71783 46/// ///// 1//// 90014 22200 00231
BBXX 41010 21001 99289 70785 46/// /1407 10221 40239 90020 22200 00237 11103 20502 300// 41102 70016 333 91208 555 11073 22076
BBXX 41009 21001 99285 70802 46/// /1409 10236 20163 40222 90020 22200 00247 11003 20502 300// 41002 70015 333 91210 555 11090 22095
BBXX 46181 21001 99538 71288 46/// /2107 10048 40277 52027 22200 00067 10200 70002 333 91208
AAXX 21004 60738 12558 60216 10041 20008 38950 48509 58015 60003 86200 333 55/// 20370 86823
AAXX 21004 68171 NIL
AAXX 21004 68181 NIL
AAXX 21004 68273 NIL
AAXX 21004 68297 NIL
AAXX 21004 68342 NIL
AAXX 21004 68370 NIL
AAXX 21004 68377 NIL
AAXX 21004 68380 NIL
AAXX 21004 68387 NIL
AAXX 21004 68479 NIL
AAXX 21004 68487 NIL
AAXX 21004 68497 NIL
BBXX 4XFX 21004 99506 11572 41598 32714 00/// 11070 21/// ///// 04022 20306 22553 327// 40050 40706 5//// 52030 6//// 701// 8//// 82/// ICE
BBXX 9VVN 21004 99540 11799 41879 52712 10030 21020 40010 51005 70211 82430 22224 04030 20101 33527 40302 5//// 65023 80010
BBXX DNDD 21004 99483 11570 41297 83525 10000 21048 40080 54000 7//72 8/7// 22214 04070 2//// 334// 40302 5//// 81017
BBXX DQXQ 21004 99366 11719 41698 71819 10153 20055 40155 50010 70322 84122 22224 00190 20403 33227 40806 51006 80102
BBXX SBLI 21001 99300 11696 43/98 82110 10226 40152 58017 22264 00226 2//// 4////
BBXX SMGW 21001 99350 11653 43/98 81809 10160 40121 58018 22224 00197 20603 41107
BBXX 46181 21001 99538 71288 46/// /2107 10048 40277 52027 22200 00067 10200 70002 333 91208
AAXX 21001 38683 42997 03403 11126 21161 30135 40439 57005 333 04114 555 14113
BBXX 46184 21001 99539 71389 46/// /2306 10057 40294 52002 22200 00064 11307 70034 333 91208
AAXX 21004 91723 NIL
AAXX 21004 91759 11598 20720 10312 20238 40090 58016 60001 70500 82100 333 20233 70000 82820
AAXX 21004 91762 11598 30910 10305 20249 40088 58017 60001 70500 83200 333 20244 70002 83822
AAXX 21004 42634 32996 00000 10150 20132 40133 333 59007
AAXX 21004 42647 31995 03602 10144 20089 40138 70500 333 59002
AAXX 21004 42737 31996 00203 10152 20094 40143 70500 333 58004
AAXX 21004 42840 32996 03602 10180 20134 40131 333 59004
AAXX 21004 42909 32996 20509 10184 20069 40123 80001 333 59004 82070
AAXX 21004 42921 32996 00000 10112 20089 40185 333 59004
AAXX 21004 43003 31995 00000 10186 20163 40111 70500 333 59003
AAXX 21004 43063 32996 00000 10118 20111 39498 40148 333 59002
AAXX 21004 43110 32996 00902 10204 20138 40108 333 59006
AAXX 21004 43117 32996 21401 10176 20088 40132 80001 333 59003
AAXX 21004 43192 32996 40504 10210 20188 40101 80002 333 59008
AAXX 21004 43014 NIL
AAXX 21001 31913 33/// /2901 11198 21224 30102 40229 57004 333 21208
AAXX 21001 31939 32998 10000 11251 21277 39914 40271 57002 80009 333 21284 47026
AAXX 21001 32128 11599 61201 11079 21110 30170 40225 52001 69920 70281 82330 333 21093 48034 91003 91105
AAXX 21001 24856 11996 82401 11418 21443 30133 40316 52024 69932 77171 80007 333 21440 47021 55000
AAXX 21001 30679 NIL
AAXX 21001 30686 11976 80000 11241 21260 39821 40225 52018 60012 77172 80007 333 21245 47012
AAXX 21001 30961 32999 23105 11206 21246 39437 40282 52013 80009 333 21207
AAXX 21001 30971 32999 03504 11205 21254 39196 40245 52012 333 21243 47004
AAXX 21001 30978 20121
AAXX 21001 31513 31996 61402 11218 21224 39926 40169 56005 71011 80001 333 21239 47009
AAXX 21001 31624 NIL
AAXX 21001 31832 32998 21302 11197 21223 30146 40238 57006 80009 333 21208 47014
AAXX 21001 33466 /1456 82703 10027 20017 39876 40064 52005 71052 886// 333 88713 555 69931
AAXX 21001 31913 33/// /2901 11198 21224 30102 40229 57004 333 21208
AAXX 21001 31939 32998 10000 11251 21277 39914 40271 57002 80009 333 21284 47026
BBXX 46092 21001 99368 71220 46/// /3104 10124 40164 92337 22200 00127 555 11036 22041
BBXX 44039 21001 99411 70727 46/// /0801 10058 21063 40241 92353 22200 00094 1//00 70001 333 91202
BBXX 44059 21001 99368 70763 46/// /1502 1//// 90020 333 91203
BBXX 44059 21001 99368 70763 46/// /1303 1//// 40208 90010 333 91203
BBXX 44059 21001 99368 70763 46/// /1302 10112 40207 52007 90000 22200 00098 333 91204
BBXX 44057 21001 99395 70761 46/// /0602 1//// 90020 333 91203
BBXX 44057 21001 99395 70761 46/// /0502 1//// 40218 90010 333 91203
BBXX 44057 21001 99395 70761 46/// /0502 10066 40218 51013 90000 22200 00057 333 91203
BBXX 44058 21001 99376 70763 46/// /1703 1//// 90020 333 91204
BBXX 44058 21001 99376 70763 46/// /1703 1//// 40215 90010 333 91204
BBXX 44058 21001 99376 70763 46/// /1603 10088 40213 53007 90000 22200 00087 1//00 70001 333 91203
BBXX 46247 21001 99378 71228 46/// ///// 1//// 90021 22200 00114 11304 21003 328// 41303 70020
BBXX 46004 21001 99509 71361 46/// /3605 10066 40321 52006 22200 00075 11209 70045 333 91207
BBXX OYCY2 21004 99535 71574 41797 62524 10050 20000 40050 51010 70300 8418/ 22273 00080 20808 325// 41412 5//// 6//// 80030 ICE /////
BBXX V7NV4 21004 99300 71531 41898 61918 10210 20180 40220 56020 7//21 84466 22263 00230 20204 31818 40204 50204 6//// 80190 ICE /////
BBXX WDB9949 21004 99527 71554 41598 62421 10050 20030 40040 5//// 70122 8684/ 22273 00030 20503 324// 41309 5//// 6//// 80040 ICE /////
AAXX 21004 61202 NIL
AAXX 21004 61214 NIL
AAXX 21004 61223 32960 40208 10180 21046 39871 40179 80002 333 0//00 58027 84075
AAXX 21004 61226 32960 33604 10185 20040 39857 40153 80002 333 0//00 58015 83075
AAXX 21004 61230 32960 20806 10204 21060 39860 40129 80002 333 0//00 58018 82075
AAXX 21004 61233 32960 20804 10202 21035 3//// 4//// 80002 333 0//00 5//// 82075
AAXX 21004 61235 32960 30416 10260 21032 3//// 4//// 80002 333 0//00 5//// 83075
AAXX 21004 61240 32960 20000 10229 21003 39820 40143 80002 333 0//00 58013 82075
AAXX 21004 61250 32960 10000 10200 20035 3//// 4//// 80002 333 0//00 5//// 81075
AAXX 21004 61257 32960 30806 10260 21037 30080 40173 80002 333 0//00 58013 83075
AAXX 21004 61265 32960 13604 10190 20021 39830 40135 80002 333 0//00 58013 81075
AAXX 21004 61270 32960 20404 10242 20027 3//// 4//// 80002 333 0//00 5//// 82075
AAXX 21004 61272 32960 00000 10202 20061 39824 40149 333 0//00 58023
AAXX 21004 61277 32960 00408 10215 20045 39815 40133 333 0//00 58010
AAXX 21004 61285 32960 40000 10204 20053 39979 40129 80002 333 0//00 58005 84075
AAXX 21004 61291 32960 20606 10188 20043 39715 40126 80002 333 0//00 58007 82075
AAXX 21004 61293 32960 20604 10227 20070 3//// 4//// 80002 333 0//00 5//// 82075
AAXX 21004 61296 32960 50000 10214 20107 3//// 4//// 80002 333 0//00 5//// 85075
AAXX 21004 61297 NIL
AAXX 21001 56671 32780 11601 10001 21018 38211 52016 81400 333 05100 31028
AAXX 21001 57378 31940 83402 10051 20014 40300 52020 71000 8807/ 333 00101 30044
AAXX 21001 57426 11530 80000 10062 20061 40273 52016 69931 76066 885// 333 00000 70003
AAXX 21001 57476 32960 80202 10068 20003 40296 52021 8807/ 333 00101
AAXX 21001 57584 31958 83603 10074 20019 40290 52022 71000 8807/ 333 00100 79999
AAXX 21001 57598 11758 83401 10074 20035 40273 52011 69901 76060 885// 333 05102 79999
AAXX 21001 57655 11930 80202 10063 20033 40286 52018 69951 76060 8802/ 333 00051 70009
AAXX 21001 57713 NIL
AAXX 21001 57776 32568 70402 10015 21036 40280 52012 875// 333 05152 30009
AAXX 21001 58321 31920 83202 10034 20025 40298 52016 71000 8807/ 333 00001 31006
AAXX 21001 58437 31470 82501 10004 21003 38189 52011 70040 885// 333 00001 79999
AAXX 21001 58445 NIL
AAXX 21001 58556 11620 83604 10081 20072 40268 52021 69901 76060 885// 333 05102 79999
AAXX 21001 58569 32462 73403 10107 20086 40252 52021 8113/ 333 05300 79999
AAXX 21001 58646 31940 72201 10076 20061 40261 52020 71000 83042 333 05251
AAXX 21001 58653 NIL
AAXX 21001 58660 NIL
AAXX 21001 58715 31957 70202 10069 20032 40268 52024 71000 8704/ 333 00000 30037
AAXX 21001 58730 32761 22201 10066 20051 40256 52017 82500 333 05153 30038
AAXX 21001 58731 31957 60401 10048 20039 40255 52012 71000 86040 333 05253 30025
AAXX 21001 58754 32668 73201 10121 20072 40238 52015 875// 333 05301
AAXX 21001 58911 31659 70000 10071 20062 40252 52021 71000 82530 333 05102
AAXX 21001 58931 11/00 90706 10055 20055 38388 52018 69921 74564 333 05102 30028 70002
AAXX 21001 59254 31758 73401 10141 20065 40220 52023 70500 875// 333 05100
AAXX 21001 59632 31759 73402 10156 20069 40207 52025 70500 875// 333 05102
AAXX 21001 59855 11470 83602 10186 20171 40183 52022 69951 76060 888// 333 05101 70005
BBXX 46004 21001 99509 71361 46/// /3605 10066 40321 52006 22200 00075 11209 70045 333 91207
AAXX 21004 43086 31996 00000 10140 20125 39952 40137 70500 333 59005
AAXX 21004 43128 31996 00000 10150 20129 39523 40149 70500 333 59002
AAXX 21004 43150 31996 23204 10214 20161 30063 40139 70500 80001 333 58000 81075
AAXX 21004 43185 31996 03602 10210 20194 30118 40122 70520 333 59006
AAXX 21004 43189 32596 30000 10198 20165 30126 40135 81501 333 58001
AAXX 21004 43198 32996 30000 10140 20119 39281 40130 80001 333 59002 83075
AAXX 21004 43201 32997 00000 10150 20122 39387 40126 333 59005
AAXX 21004 43213 32996 20000 10180 20163 39804 40129 80002 333 59005
AAXX 21004 43226 32996 00902 10220 20153 30070 40100 333 59009
AAXX 21004 43233 32996 20903 10170 20147 39300 40125 80001 333 59005
AAXX 21004 43237 32996 30000 10166 20149 39728 40132 80001 333 59003 84075
AAXX 21004 43245 32596 33602 10208 20195 30096 40123 81501 333 59003
AAXX 21004 43279 31596 40000 10224 20202 30100 40118 70500 82530 333 59009 82620 83360
AAXX 21004 43284 32996 20906 10214 20118 39977 40094 80001 333 58000 82075
AAXX 21004 43295 31396 60903 10156 20139 39093 48490 70510 83601 333 56209 59008 83708 83075
AAXX 21004 43311 32996 00000 10230 20224 40085 333 59005
AAXX 21004 43314 32996 10702 10218 20162 40092 80001 333 59006
AAXX 21004 43321 31495 40202 10188 20165 39663 40119 70521 82531 333 59013
AAXX 21004 43329 31996 20202 10216 20204 30089 40102 70500 80001 333 59010
AAXX 21004 43344 31996 23403 10200 20187 30008 40110 70500 80001 333 59007 82075
AAXX 21004 43346 32596 50508 10254 20202 30085 40092 83501 333 59014 83620 85075
AAXX 21004 43353 31496 70504 10246 20210 40098 70500 82870 333 56690 58000 82614 87458
AAXX 21004 43369 32596 53604 10248 20230 40087 82530 333 59004 82620 83360
AAXX 21004 43371 32596 70000 10244 20201 30013 40086 83438 333 59002 82620 83360 86275
BBXX 46246 21001 99500 71451 46/// ///// 1//// 92359 22200 00073 11306 21004 326// 41304 70031
AAXX 21004 94996 41568 50819 10236 20168 30050 40187 57004 70511 83230 90030 333 20193
AAXX 21004 94996 41568 50819 10236 20168 30050 40187 57004 70511 83230 90030 333 20193
AAXX 21004 71283 17/// /3508 11013 21026 69941 7//4/ 333 10039 21013 70004
AAXX 21004 71500 16/// /3118 10018 21012 60001 333 10058 20018 70000
AAXX 21004 71504 16/// ///// 10025 21029 60001 333 10049 21004 70000
AAXX 21004 71511 16/// /2709 10008 21027 39395 40028 53018 60001 333 10052 21019 70000
AAXX 21004 71526 16/// /2912 10014 21070 60001 333 10060 20014 70000
AAXX 21004 71541 16/// /3609 11014 21020 60001 333 10041 21014 70000
AAXX 21004 71543 17/// /3113 11015 21019 69981 7//4/ 333 10031 21015 70008
AAXX 21004 71546 16/// /3509 10003 21012 60001 333 10048 20003 70000
AAXX 21004 71547 16/// /3212 11013 21056 60001 333 10033 21013 70000
AAXX 21004 71549 17/// ///// 10002 21008 69971 7//4/ 333 10050 20002 70007
AAXX 21004 71461 16/// /3606 11003 21012 60001 333 10043 21003 70000
AAXX 21004 71468 16/// /2209 11011 21047 39699 40022 56005 60001 333 21082 70000
AAXX 21004 71483 16/// ///// 10016 21006 60001 333 10057 20011 70000
AAXX 21004 71359 16/// /3206 10014 20002 60001 333 10058 20012 70000
AAXX 21004 71988 16/// /3219 11022 21079 30200 40220 51028 60001 333 10023 21027 70006
AAXX 21004 71010 16/// /2807 11003 21041 60001 333 10053 21016 70000
AAXX 21004 71011 16/// ///// 10018 21061 60001 333 10052 21006 70000
AAXX 21004 71049 46/// /3108 11314 39948 49973 6///1 333 11312 21340 7////
AAXX 21004 71761 16/// ///// 11009 21021 60001 333 10040 21009 70000
AAXX 21004 71788 16/// /2610 10045 21035 60001 333 10077 20037 70000
AAXX 21004 71792 16/// ///// 11001 21038 60001 333 10038 21012 70000
AAXX 21004 71067 16/// ///// 10007 21011 60001 333 10056 20007 70000
AAXX 21004 71405 16/// ///// 10011 21003 60001 333 10064 21002 70000
AAXX 21004 71417 17/// /3208 11045 21046 39940 49974 53027 69961 7//4/ 333 11036 21092 70019
AAXX 21004 71426 46/// /3116 11087 6///1 333 11074 21096 7////
AAXX 21004 71888 16/// ///// 10011 21007 60001 333 10063 21004 70000
AAXX 21004 71673 16/// ///// 10028 21029 60001 333 10057 21006 70000
AAXX 21004 71690 17/// ///// 10006 20002 69971 7//4/ 333 10036 20002 70007
AAXX 21004 71152 16/// /2917 11042 21075 30021 40034 51042 60001 333 10014 21054 70072
AAXX 21004 71153 16/// /2511 10028 21049 60001 333 10050 20023 70000
AAXX 21004 71221 16/// /3308 11017 21050 60001 333 10042 21019 70000
AAXX 21004 71226 17/// /2805 10007 20001 69941 7//4/ 333 10048 20007 70004
AAXX 21004 71229 46/// /0207 11021 21027 6///1 333 11004 21021 7//// 555 10020
AAXX 21004 71244 16/// /2715 10024 21038 38863 40078 55002 60001 333 10059 20018 70000
AAXX 21004 71315 16/// /2507 11110 21166 30138 40193 53032 60001 333 11063 21111 70004
AAXX 21004 71321 16/// /0204 11184 21211 39927 49971 58006 60001 333 11126 21229 70000
AAXX 21004 71332 16/// /2004 11328 21364 30113 40144 51021 60001 333 11254 21328 70000
AAXX 21004 71283 17/// /3508 11013 21026 69941 7//4/ 333 10039 21013 70004
AAXX 21004 71461 16/// /3606 11003 21012 60001 333 10043 21003 70000
AAXX 21004 71468 16/// /2209 11011 21047 39699 40022 56005 60001 333 21082 70000
AAXX 21004 71483 16/// ///// 10016 21006 60001 333 10057 20011 70000
AAXX 21004 71761 16/// ///// 11009 21021 60001 333 10040 21009 70000
AAXX 21004 71788 16/// /2610 10045 21035 60001 333 10077 20037 70000
AAXX 21004 71792 16/// ///// 11001 21038 60001 333 10038 21012 70000
AAXX 21004 71888 16/// ///// 10011 21007 60001 333 10063 21004 70000
AAXX 21004 71010 16/// /2807 11003 21041 60001 333 10053 21016 70000
AAXX 21004 71011 16/// ///// 10018 21061 60001 333 10052 21006 70000
AAXX 21004 71049 46/// /3108 11314 39948 49973 6///1 333 11312 21340 7////
AAXX 21004 71315 16/// /2507 11110 21166 30138 40193 53032 60001 333 11063 21111 70004
AAXX 21004 71321 16/// /0204 11184 21211 39927 49971 58006 60001 333 11126 21229 70000
AAXX 21004 71332 16/// /2004 11328 21364 30113 40144 51021 60001 333 11254 21328 70000
AAXX 21004 71359 16/// /3206 10014 20002 60001 333 10058 20012 70000
AAXX 21004 71405 16/// ///// 10011 21003 60001 333 10064 21002 70000
AAXX 21004 71417 17/// /3208 11045 21046 39940 49974 53027 69961 7//4/ 333 11036 21092 70019
AAXX 21004 71426 46/// /3116 11087 6///1 333 11074 21096 7////
AAXX 21004 71673 16/// ///// 10028 21029 60001 333 10057 21006 70000
AAXX 21004 71690 17/// ///// 10006 20002 69971 7//4/ 333 10036 20002 70007
AAXX 21004 71067 16/// ///// 10007 21011 60001 333 10056 20007 70000
AAXX 21004 71221 16/// /3308 11017 21050 60001 333 10042 21019 70000
AAXX 21004 71226 17/// /2805 10007 20001 69941 7//4/ 333 10048 20007 70004
AAXX 21004 71229 46/// /0207 11021 21027 6///1 333 11004 21021 7//// 555 10020
AAXX 21004 71244 16/// /2715 10024 21038 38863 40078 55002 60001 333 10059 20018 70000
AAXX 21004 71988 16/// /3219 11022 21079 30200 40220 51028 60001 333 10023 21027 70006
AAXX 21004 71152 16/// /2917 11042 21075 30021 40034 51042 60001 333 10014 21054 70072
AAXX 21004 71153 16/// /2511 10028 21049 60001 333 10050 20023 70000
AAXX 21004 71500 16/// /3118 10018 21012 60001 333 10058 20018 70000
AAXX 21004 71504 16/// ///// 10025 21029 60001 333 10049 21004 70000
AAXX 21004 71511 16/// /2709 10008 21027 39395 40028 53018 60001 333 10052 21019 70000
AAXX 21004 71526 16/// /2912 10014 21070 60001 333 10060 20014 70000
AAXX 21004 71541 16/// /3609 11014 21020 60001 333 10041 21014 70000
AAXX 21004 71543 17/// /3113 11015 21019 69981 7//4/ 333 10031 21015 70008
AAXX 21004 71546 16/// /3509 10003 21012 60001 333 10048 20003 70000
AAXX 21004 71547 16/// /3212 11013 21056 60001 333 10033 21013 70000
AAXX 21004 71549 17/// ///// 10002 21008 69971 7//4/ 333 10050 20002 70007
AAXX 21004 16344 11260 83008 11036 21036 38230 48422 58010 60001 70242 82510 333 82605 87456 95000 95100
AAXX 21001 06407 11468 82905 10071 20033 30178 40184 52003 69901 76022 8557/ 333 70020 83618 83635 85360 91111 91208
AAXX 21001 06447 NIL
BBXX 46146 21001 99493 71237 46/// /2909 10073 40246 57003 22200 00067 10401 70007 333 91211
AAXX 21001 06431 NIL
AAXX 21001 06432 NIL
AAXX 21001 06449 12564 62304 10031 20013 39959 40193 52006 60001 865// 333 70042 86622 91107 91205
AAXX 21001 06450 17965 02603 10047 20019 30159 40175 52002 69941 70065 333 70030 81/61 91110 91207
AAXX 21001 06458 NIL
AAXX 21001 06465 NIL
AAXX 21001 06478 12662 62604 10028 20012 39958 40183 52008 69921 8353/ 333 70048 83635 85362 91109 91206
AAXX 21001 06496 NIL
AAXX 21001 06400 32470 82805 10076 20037 30176 40187 51003 8557/ 333 82618 83635 86359 91110 91207
AAXX 21001 06428 NIL
AAXX 21001 06451 11565 72303 10040 20017 30114 40182 51005 69901 70282 82532 333 70017 82626 86361 91108 91205
AAXX 21001 06456 32570 72803 10026 20013 39820 40195 51006 8157/ 333 81621 87361 91107 91205
AAXX 21001 06476 17018 8//// 10003 21002 39516 40196 51011 69931 72061 333 70098 88/01 911// 912//
AAXX 21001 06479 11561 72504 10034 20028 30094 40175 51006 69981 70282 8353/ 333 81623 85362 91108 91205
AAXX 21001 06490 17/08 93003 10011 20005 39603 40187 52011 69951 73461 333 70144 91110 91205
AAXX 21001 06590 12362 72504 10019 20013 39725 40187 51007 69921 875// 333 41997 84708 87645 91106 91205
AAXX 21001 56144 32980 00901 11088 21186 36851 52014 333 05400
AAXX 21001 56152 32980 02901 11180 21209 36281 52007 333 05400 92501
AAXX 21001 56167 32980 00000 11102 21135 37079 52013 333 05451
AAXX 21001 56182 32780 80000 11060 21095 37214 52018 885// 333 05103
AAXX 21001 56357 32980 00000 11126 21209 36449 52009 333 05201
AAXX 21001 56586 11460 80201 10003 21016 38082 52019 69901 70070 885// 333 00000 30009 79999
AAXX 21001 56748 32980 01401 10017 20010 38370 52015 333 05151 31016
AAXX 21001 56763 32680 11102 10077 20045 40147 52017 81100 333 05201
AAXX 21001 56768 32980 01401 10037 20031 38190 52015 333 05100 30006
AAXX 21001 56838 31/06 90902 10105 20096 40189 52017 74340 333 00051
AAXX 21001 56886 31760 70000 10065 20061 38311 52017 70040 874// 333 00001 30016
AAXX 21001 56946 31/03 92001 10042 20042 40211 52018 74700 333 00052 30038
AAXX 21001 56959 31558 82501 10129 20129 40183 52020 71000 884// 333 05101
AAXX 21001 56969 31420 80901 10119 20116 40197 52019 72840 886// 333 00001
AAXX 21001 57731 11458 80000 10062 20044 40279 52022 69961 76066 887// 333 00001 70008
AAXX 21001 57766 32960 71601 10070 20025 40280 52019 8704/ 333 00001
AAXX 21001 57845 32960 70201 10050 20013 40268 52020 8704/ 333 00052 30031
AAXX 21001 57853 31956 70000 10059 21002 40280 52019 70500 87040 333 00051 30036
AAXX 21001 57916 32661 80000 10094 20077 40241 52023 885// 333 00052
AAXX 21001 57922 31440 83401 10040 20030 40264 52022 71000 885// 333 00000 30048
AAXX 21001 57932 31656 70000 10079 20047 40265 52020 71000 875// 333 00051
AAXX 21001 58338 31956 82201 10049 20032 40282 52011 71000 8807/ 333 00100 30004
AAXX 21001 59007 31/01 90000 10037 20025 40225 52021 74700 333 00000 30028
AAXX 21001 59046 31757 70201 10115 20040 40233 52020 70500 875// 333 00000
AAXX 21001 59058 31858 73402 10111 20008 40240 52020 70500 875// 333 00000
AAXX 21001 59072 31756 73201 10066 20041 40256 52020 71000 875// 333 00002 30046
AAXX 21001 59087 32761 70904 10147 20032 40222 52019 875// 333 05103
AAXX 21001 59209 32462 73401 10123 20091 40202 52016 878// 333 05102
BBXX 46146 21001 99493 71237 46/// /2909 10073 40246 57003 22200 00067 10401 70007 333 91211
AAXX 21001 33466 /1456 82703 10027 20017 39876 40064 52005 71052 886// 333 88713 555 69931
AAXX 21004 45011 17556 /0109 10170 20103 40200 52024 60002 71011 333 20157 59008 70000
AAXX 21004 45011 17556 /0109 10170 20103 40200 52024 60002 71011 333 20157 59008 70000
AAXX 21001 45032 36/// /0501 10167 20129 30188 40205 52001
AAXX 21001 45035 36/// /0603 10182 20108 30160 40202 54000
AAXX 21001 45039 36/// /0402 10183 20106 30188 40202 52003
AAXX 21001 45044 36/// /0105 10178 20120 30106 40200 52001
AAXX 21001 45032 36/// /0501 10167 20129 30188 40205 52001
AAXX 21001 45035 36/// /0603 10182 20108 30160 40202 54000
AAXX 21001 45039 36/// /0402 10183 20106 30188 40202 52003
AAXX 21001 45044 36/// /0105 10178 20120 30106 40200 52001
BBXX 44062 21001 99386 70764 46/// /1504 1//// 90020 22200 00083 333 91204
BBXX 44062 21001 99386 70764 46/// /1604 1//// 40192 90010 22200 00084 333 91204
BBXX 44062 21001 99386 70764 46/// /1703 10081 40193 51004 90000 22200 00084 1//00 70001 333 91204
BBXX 44063 21001 99390 70764 46/// /0000 1//// 90020 333 91200
BBXX 44063 21001 99390 70764 46/// /0000 1//// 40222 90010 333 91200
BBXX 44063 21001 99390 70764 46/// /0000 10077 40222 50008 90000 22200 00076 1//00 70000 333 91200
BBXX 44041 21001 99372 70768 46/// /1002 1//// 90020 333 91202
BBXX 44041 21001 99372 70768 46/// /1102 1//// 40231 90010 333 91202
BBXX 44041 21001 99372 70768 46/// /1102 10100 40231 51006 90000 22200 00088 1//00 70001 333 91202
BBXX 44042 21001 99380 70763 46/// /1603 1//// 90020 333 91204
BBXX 44042 21001 99380 70763 46/// /1504 1//// 40213 90010 333 91204
BBXX 44042 21001 99380 70763 46/// /1503 10092 40212 52004 90000 22200 00089 1//00 70000 333 91204
BBXX 44043 21001 99392 70764 46/// /0502 1//// 90020 333 91203
BBXX 44043 21001 99392 70764 46/// /0302 1//// 40210 90010 333 91206
BBXX 44043 21001 99392 70764 46/// /0401 10071 40211 53011 90000 22200 00068 1//00 70001 333 91202
BBXX 42361 21001 99276 70925 46/// ///09 10233 20206 40125 51010 90030 555 11074 22079
BBXX 44100 21001 99363 70756 46/// ///// 1//// 90022 22200 00117 11302 21001 308// 41302 70010
BBXX 41110 21001 99341 70777 46/// ///// 1//// 90021 22200 00139 11301 21001 310// 41301 70006
BBXX 42099 21001 99273 70842 46/// ///// 1//// 90027 22200 00231 10704 20704 70019
BBXX 41113 21001 99284 70805 46/// ///// 1//// 90021 22200 00211 10502 20502 308// 41101 70012
BBXX 41112 21001 99307 70813 46/// ///// 1//// 90021 22200 00161 11301 20501 310// 41301 70007
BBXX 42362 21001 99278 70907 46/// /1706 10233 20211 40146 90030
BBXX 42363 21001 99282 70892 46/// /1706 10233 20183 40153 90030 333 91206
BBXX 42364 21001 99291 70881 46/// /1510 10222 20206 40163 90030
BBXX 42013 21001 99272 70829 46/// ///// 1//// 40193 92340 22200 00198
BBXX MINUK04 2100/ 99532 10034 46/// ///// 10073 4//// 52037
BBXX MINUK03 2100/ 99539 10016 46/// ///// 10070 40168 57010
BBXX 44258 21001 99445 70634 46/// /3212 11033 40186 52040 22200 00061 11002 70011 333 91215
BBXX 44258 21001 99445 70634 46/// /3212 11033 40186 52040 22200 00061 11002 70011 333 91215
AAXX 21004 71120 11674 63406 11002 21039 39401 40054 53023 69901 70282 83570 333 10050 21002 42002 79999 90950
AAXX 21004 41252 36/// /1108 10178 20088 39813 40103 333 0E020 58010
AAXX 21004 96009 NIL
AAXX 21004 96011 12459 61105 10230 20222 30059 40086 52005 60024 83521 333 20230 50020 55028 56000 58010 83619
AAXX 21004 96035 11456 70000 10238 20223 30052 40090 52013 60044 70522 84576 333 20234 50040 55002 56000 58004 84617
AAXX 21004 96073 11457 70000 10232 20226 30065 40077 51007 60154 70522 83972 333 20213 50800 55023 56000 57901 59009 83915 80959
AAXX 21004 96091 12458 70000 10250 20238 30061 40084 51008 60304 83578 333 20246 50000 55000 56000 59002 83613 86280
AAXX 21004 96109 11420 80000 10236 20234 30035 40074 52019 60294 71022 83538 333 20230 50550 55000 56000 59001 83610
AAXX 21004 96145 12456 73506 10260 20242 30068 40070 5//// 60044 85520 333 20242 50009 55000 56800 59002 85616 86460
AAXX 21004 96147 31456 60000 10260 20239 30082 40077 5//// 71622 84621 333 20230 56000 58004 84712 84460
AAXX 21004 96163 12560 60000 10231 20230 30082 40084 52018 60344 82571 333 20228 55000 56000 59003 82620
AAXX 21004 96179 12460 70000 10248 20242 30052 40088 52001 60644 83238 333 20220 55000 56000 57802 58003 83817 80850
AAXX 21004 96195 NIL
AAXX 21004 96221 31950 82003 10252 20244 30085 40100 52027 70522 83036 333 20232 50410 55045 56099 58014 83362 86280
AAXX 21004 96237 12456 80000 10252 20246 30045 40087 52018 60024 84418 333 20236 50160 55000 56500 58005 84616 86460 85280
AAXX 21004 96249 12559 72708 10254 20245 30019 40080 52007 69971 83232 333 20230 50070 55005 56700 57871 58011 83820 80863
AAXX 21004 96253 12460 60000 10242 20231 30045 40066 52015 69984 82932 333 20234 50164 55024 55508 50657 56000 57900 57800 59012 81915 81820 84080
AAXX 21004 96295 11310 80000 10246 20240 39990 40093 51020 60044 71022 8552/ 333 20235 50110 55045 55508 50577 56009 58012 85610
AAXX 21004 96509 11458 50000 10264 20255 30077 40088 52014 60044 70262 84231 333 20250 50200 55005 56400 57841 59007 84815 80860
AAXX 21004 96581 11458 80000 10249 20245 30077 40084 52022 60034 70262 8517/ 333 20238 50330 55015 56209 58013 60017 85812 84361 88462 80860
AAXX 21004 96633 01458 80000 10257 20249 30076 40084 52015 60354 70296 8497/ 333 20244 5///0 55/// 56009 57900 58007 60027 81916 84617 88459 809//
AAXX 21004 96645 01430 73202 10249 20245 30054 40086 52017 60134 72162 86572 333 20239 50800 55025 56600 58008 69907 86610
AAXX 21004 96655 12457 73206 10258 20249 30078 40112 52021 60054 84511 333 20239 50030 55060 56000 58009 84612
AAXX 21004 96685 01450 81404 10240 20237 30069 40095 50018 60924 76166 8651/ 333 20240 52060 55052 56009 58006 60527 86612 88462
AAXX 21004 96749 12559 72708 10266 20233 30074 40088 53013 60014 82571 333 20250 50400 55003 56000 58006 82621 86460
AAXX 21004 96781 31557 63007 10230 20189 39275 48732 52014 70522 82531 333 20216 56000 58012 82620
AAXX 21004 96805 11559 60000 10248 20236 30089 40098 51018 60144 71462 83271 333 20240 50110 55004 56000 57801 58015 83820 84460 80860
AAXX 21004 96839 11556 70000 10262 20241 30079 40086 52022 60084 70162 83532 333 20248 50501 55038 56000 58014 83622
AAXX 21004 96935 11557 30000 10264 20246 30080 40087 52024 60324 70511 81101 333 20248 50750 55032 56000 58013 81820 83080
AAXX 21004 71120 11674 63406 11002 21039 39401 40054 53023 69901 70282 83570 333 10050 21002 42002 79999 90950
AAXX 21004 97014 01559 60000 10265 20238 39999 40092 52016 60024 72162 83271 333 20240 50400 55069 55508 51559 56700 57872 59003 69907 83820 80860
AAXX 21004 97028 12564 60000 10272 20230 30068 40074 53012 69904 81211 333 20240 50210 55070 56000 57802 58000 81820 85460 80860
AAXX 21004 97048 32459 42002 10284 20252 30050 40074 52018 81132 333 20230 50420 55090 56000 57803 59004 81817 83080 80860
AAXX 21004 97072 32560 41703 10283 20223 30000 40100 52020 81521 333 20240 50830 55090 56400 58004 81620
AAXX 21004 97086 32560 71805 10296 20260 30061 40086 51018 83220 333 20250 50660 55104 56000 57803 59006 82820 86460 80858
AAXX 21004 97096 32460 50000 10264 20243 30076 40097 52010 82231 333 20230 50110 55085 56000 57803 59004 82818 84360 80857
AAXX 21004 97120 11461 60000 10272 20249 30047 40080 51020 60014 72992 83931 333 20254 50290 55068 56000 57902 57802 59001 81917 82818 84360 80981 80860
AAXX 21004 97146 11456 62806 10274 20251 30025 40086 5//// 60024 70522 83572 333 20250 56000 58004 83614
AAXX 21004 97180 01460 70704 10256 20249 30074 40092 51020 60044 72962 82271 333 20246 50200 55048 55508 60027 51925 56000 58006 82819 85460
AAXX 21004 97192 11466 60402 10267 20260 30051 40108 52014 60114 70162 81324 333 20248 50181 55027 56000 57904 58009 81917 80957
AAXX 21004 97230 11460 73005 10280 20247 30073 40080 52014 60044 70262 81201 333 20250 50280 55024 56000 57803 58004 81817 86080 80859
AAXX 21004 97260 NIL
AAXX 21004 97270 31457 70000 10278 20245 30069 40074 51010 70521 84811 333 20252 50450 55082 56000 59007 83815 85080
AAXX 21004 97300 11561 60000 10298 20252 30044 40084 52015 60054 70196 82236 333 20256 50660 55075 56000 57803 59003 82820 80856
AAXX 21004 97340 32570 82105 10290 20268 30067 40081 57016 81132 333 20245 50710 55093 56000 59002 81820 88080
AAXX 21004 97372 32462 63404 10283 20266 39956 40076 52012 85231 333 20254 50650 55095 56600 57862 59006 85816 80860
AAXX 21004 97430 12460 63002 10282 20244 30053 40082 52015 60044 83232 333 20262 50380 55083 56700 57872 58005 83818 80860
AAXX 21004 97460 11460 60000 10276 20245 30051 40065 52016 60054 70262 83876 333 20236 50340 55045 56700 57872 59005 82818 80857
AAXX 21004 97502 32458 73308 10295 20253 30067 40071 52014 84832 333 20249 55030 56020 57802 59010 83810 80850
AAXX 21004 97530 NIL
AAXX 21004 97560 01459 80000 10254 20242 30067 40082 52015 60104 76166 83847 333 20237 50310 55070 56000 57804 58000 60057 81818 82620 85361 87279 80860
AAXX 21004 97580 32462 70000 10274 20254 30098 40105 81270 333 20200 55062 56000 57802 58017 81814 80850
AAXX 21004 97600 32460 60000 10286 20252 30072 40078 5//// 82231 333 20258 5//// 55076 56600 57863 58000 82818 84360 80858
AAXX 21004 97686 11359 70000 10210 20164 38344 40076 52018 70522 85845 333 20156 50/// 55080 56000 57801 58000 84809 86361 80858
AAXX 21004 97690 11459 80000 10268 20248 39980 40082 52019 69914 71522 85877 333 20250 55054 56000 57801 58013 84815 86362 88278
AAXX 21004 97724 31459 83605 10294 20242 30056 40072 52020 70522 8387/ 333 20246 50550 55065 56709 57872 59009 82817 87459 80850
AAXX 21004 97748 31459 72703 10298 20252 30056 40057 55001 70522 82232 333 20266 50400 55068 56000 57802 59002 82816 85074 80856
AAXX 21004 97760 32460 63004 10301 20248 30065 40074 52016 82202 333 20250 55076 56000 57801 59008 82816 80860
AAXX 21004 97796 12460 42704 10292 20240 30028 40079 52010 69904 82131 333 20238 55085 56000 59004 82815
AAXX 21004 97810 01457 80000 10249 20241 30053 40063 53012 60194 76166 8582/ 333 20252 50820 55088 56009 57801 59001 60177 83818 88458 80860
AAXX 21004 97876 12360 70903 10278 20240 30074 40104 51008 60034 83532 333 20246 55094 56000 59008 83608 86177
AAXX 21004 97900 01467 82810 10267 20257 30028 40057 52012 60424 70296 8382/ 333 20248 50460 55013 56609 57861 59012 60087 82617 88460 80857
AAXX 21004 97980 12460 50303 10302 20251 30053 40060 51008 60284 83842 333 20244 51250 55040 56100 59008 83815
AAXX 21004 97008 01458 70504 10291 20253 30060 40071 52012 60044 70262 84272 333 20260 50300 55063 56000 57801 59006 60017 84818 80860
AAXX 21004 97016 32561 40903 10289 20243 30072 40074 52003 82231 333 20270 50650 55096 56800 57882 59007 82820 80859
AAXX 21004 97126 11458 83301 10264 20249 30037 40098 52028 69904 70262 8392/ 333 20230 50470 55059 56009 57901 58007 69907 81916 82616 88460 80980
AAXX 21004 97142 32559 70000 10272 20243 30062 40076 5//// 82220 333 20256 50290 55030 56000 57803 58013 81820 86459 80858
AAXX 21004 97182 12466 71003 10264 20237 30081 40085 52017 60034 8227/ 333 20258 50190 55040 56000 57800 58004 82818 86460 808//
AAXX 21004 97240 11450 30000 10260 20249 39970 40084 52006 60034 70511 81131 333 20240 52000 55037 56000 58005 81816
AAXX 21004 97284 02464 50000 10230 20182 38858 40095 5//// 60044 82131 333 20192 50350 55062 56000 59005 60037 82813
AAXX 21004 97310 32568 40000 10294 20251 30056 40068 5//// 83101 333 20216 50/// 55102 56000 59011 83820
AAXX 21004 97320 12565 61904 10312 20258 30055 40068 5//// 69904 82131 333 20263 50410 55098 56000 59014 82820 84080
AAXX 21004 97378 32570 50000 10300 20270 39904 40067 5//// 81131 333 20246 50420 55109 56000 59002 81820
AAXX 21004 97380 32564 30000 10305 20269 30050 40071 5//// 81131 333 20262 50730 55116 56000 59005 81820
AAXX 21004 97406 11460 70000 10266 20242 30042 40066 52008 60204 70262 84232 333 20218 50560 55056 56000 57801 59010 84819 80860
AAXX 21004 97570 11460 70000 10272 20241 30075 40082 52021 60014 70542 82872 333 20234 55080 56000 58000 81813 86360
AAXX 21004 97630 31460 71807 10292 20237 39916 40076 51016 71522 86972 333 20244 50440 55010 56000 57901 59004 82912 84813 86280 80978
AAXX 21004 97682 12462 73205 10296 20268 30061 40068 52013 60064 84872 333 20254 55078 56000 57802 58000 83816 85361 80860
AAXX 21004 97698 11457 81003 10304 20246 30084 40091 52014 60014 70562 8487/ 333 20268 55037 56000 57802 58010 82814 83615 86460 80860
AAXX 21004 97700 01458 72103 10272 20249 30056 40070 52022 60344 70562 83872 333 20240 50109 55071 56000 57803 59001 60027 83817 84358 80850
AAXX 21004 97722 12564 70000 10286 20240 30061 40076 52014 60024 83806 333 20230 50070 55057 56000 57803 59006 82820 85074 80850
AAXX 21004 97780 01463 60904 10177 20147 4//// 60064 70144 84821 333 20141 55058 57902 82813 82614 80962
AAXX 21004 97790 11458 82910 10296 20251 30028 40049 52015 60034 70522 8387/ 333 20227 50480 55083 56009 57802 59004 82819 86458 80858
AAXX 21004 96001 NIL
AAXX 21004 96015 01440 40000 10228 20228 30065 40072 5//// 60044 70511 83572 333 20208 50770 55070 56000 59007 60027 83613
AAXX 21004 96033 01450 80000 10242 20231 30093 40098 52020 60174 70562 84927 333 20236 50184 55000 56000 57903 58006 60017 81920 84617 86457 80980
AAXX 21004 96075 01458 60000 10230 20227 30065 40070 5//// 60044 70522 81271 333 20215 50180 55004 56000 57803 59003 69987 81814 85362 80840
AAXX 21004 96087 12459 70000 10254 20234 30049 40083 51013 60034 82231 333 20238 50190 55000 56000 57803 59008 82815 85360 80857
AAXX 21004 96171 31440 70000 10238 20230 30047 40071 54000 70522 85522 333 20236 50160 55000 56000 59006 85615
AAXX 21004 96207 01456 70000 10196 20189 39221 40143 57003 60144 71562 83972 333 20183 55005 56000 57900 58005 81915 83360
AAXX 21004 96505 11410 80000 10210 20205 39063 4//// 5//// 60304 71042 886// 333 20200 55000 56099 58007 88710
AAXX 21004 96525 12460 32504 10271 20249 30086 40093 52019 60114 82235 333 20242 50280 55038 56000 59002 82815
AAXX 21004 96529 11/05 90000 10250 20250 30079 40103 52015 60024 74544 333 20242 50020 55031 56999 59002 89/04
AAXX 21004 96535 12460 70000 10250 20243 30069 40090 5//// 69914 83131 333 20242 50340 55034 56000 58005 83814 87362
AAXX 21004 96557 12458 80000 10244 20234 30035 40084 69904 8592/ 333 20236 50400 55064 56009 57900 57800 58009 82912 83813 88460 80980 80857
AAXX 21004 96559 31230 80000 10248 20234 30056 40094 52022 70522 8472/ 333 10232 50440 55015 56609 57764 58023 84706 88462 80726
AAXX 21004 96565 01340 70000 10242 20236 30049 40101 5//// 60454 72162 84221 333 20236 50640 55085 56000 58010 69907 84808 80840
AAXX 21004 96595 11240 70000 10252 20240 30052 40108 60094 70522 86576 333 20244 50660 55084 56600 58005 86606
AAXX 21004 96607 12458 72404 10262 20235 30085 40100 52021 60054 85221 333 20248 50430 55033 56000 59001 85815
AAXX 21004 96615 11459 72104 10262 20244 30080 40094 60164 72162 84931 333 20250 50470 55038 56000 57901 57802 59014 83917 81814 83363 80967 80857
AAXX 21004 96695 01456 71802 10263 20251 30081 40087 5//// 60024 70362 83221 333 20253 50420 55084 56000 57803 58005 60018 82816 83460 80858
AAXX 21004 96737 12458 70000 10250 20236 30044 40074 52008 60014 84671 333 20244 50200 55000 56000 58007 84617 83460
AAXX 21004 96739 12458 82505 10254 20231 30041 40090 52010 69904 8557/ 333 20234 50810 55000 56009 58003 85618
AAXX 21004 96741 11457 82705 10272 20228 30076 40080 52015 69904 70522 8557/ 333 20266 50540 55000 56009 58005 85619 87460
AAXX 21004 96745 12557 70000 10270 20231 30084 40088 52015 69904 83521 333 20262 50260 55002 56000 58008 83620 87460
AAXX 21004 96751 12558 70000 10203 20185 39036 48920 51003 69974 84510 333 20198 50210 55021 56400 58013 84620 85460
AAXX 21004 96791 32458 60000 10252 20240 30029 40104 52015 82571 333 20248 50220 55002 56000 58012 82619 83360
AAXX 21004 96797 12459 72207 10264 20225 30082 40088 57022 60084 82971 333 20244 50030 55005 5//// 56000 57902 58014 81918 84460 80980
AAXX 21004 96837 11559 71501 10258 20243 30080 40083 52018 60174 70562 83272 333 20250 50200 55004 56000 57800 58014 83823
AAXX 21004 96925 NIL
AAXX 21004 96933 12560 10000 10262 20244 30086 40090 52027 60164 81511 333 20250 50431 55031 56600 58019 81620
AAXX 21004 96937 12559 42004 10259 20245 30080 40085 52021 60094 82101 333 20256 50390 55031 56000 58010 82820
AAXX 21004 96973 12560 50000 10266 20248 30081 40087 52028 60034 82131 333 20256 50281 55025 56000 57806 58012 82820 80850
AAXX 21004 96987 12560 20000 10264 20234 30026 40085 52020 69944 81511 333 20240 50611 55048 56000 58011 81620
AAXX 21001 06447 36/// /2502 10034 20014 30056 40184 50004 60001 333 91107 91203
AAXX 21001 06428 35962 /2402 10044 20028 30135 40185 53001 333 83/62 87/63 91104 91203
AAXX 21001 06431 36/// /2303 10043 20027 30163 40175 50002 60001 333 91106 91205
AAXX 21001 06432 35/62 /2203 10035 20019 30115 40193 53005 333 83/59 87/60 91106 91204
AAXX 21001 06458 37968 /2404 10038 20020 30030 40187 51007 70086 333 88/60 91108 91205
AAXX 21001 06465 17967 /2504 10041 20020 30110 40178 51006 69921 70086 333 88/61 91108 91205
AAXX 21001 06496 17161 /2906 10008 20001 39490 40179 53011 60011 72487 333 81/02 85/04 87/07 91112 91207
BBXX KS088 21004 99267 70801 43/// /0703 10234 40212 22200 06226
BBXX KS089 21004 99504 10003 43/// /2912 10089 22253
BBXX KS007 21004 99267 70801 43/// ///// 10233 40171 22200
BBXX KS094 21004 99123 70616 43/// /0716 10272 40142 22200 06267
AAXX 21004 61401 NIL
AAXX 21004 61404 NIL
AAXX 21004 61415 32960 33509 10180 20149 30178 40183 83030 333 0//00 58010 83363
AAXX 21004 61421 NIL
AAXX 21004 61437 NIL
AAXX 21004 61442 32960 40507 10217 21089 30164 40168 80002 92355 333 58013 84073
AAXX 21004 61450 NIL
AAXX 21004 61461 NIL
AAXX 21004 61489 NIL
AAXX 21004 61492 NIL
AAXX 21004 61497 NIL
AAXX 21004 61498 NIL
AAXX 21004 61499 NIL
AAXX 21004 60640 12960 30000 10066 20007 40249 58006 60001 80002 333 0//00 83073
BBXX 46036 21001 99484 71339 46/// /3107 10079 40331 52002 22200 00084 11408 70038 333 91208
BBXX 46036 21001 99484 71339 46/// /3107 10079 40331 52002 22200 00084 11408 70038 333 91208
BBXX 62123 21004 99563 10022 41/97 /3120 10074 40128 53002 70200 8//// 22200 2//// 330// 40605 5////
BBXX AMOUK08 21004 99501 70061 46/// ///// 10118 20115 30196 40202 57012 92350
BBXX 63106 21004 99610 10017 46/// /3011 10035 40054 53015 22200
BBXX 63105 21004 99610 10017 47697 ///// 10058 21001 40054 53016 700// 22200
AAXX 21001 88900 46/// /0901 10043 20037 30056 40059 52001 333 10067 20037
AAXX 21004 82106 32196 80906 10267 20250 3//// 4//// 847// 333 10337 29086 55058 5////
AAXX 21004 82113 32595 50000 10284 20254 3//// 4//// 83340 333 10345 29080 55076 5////
AAXX 21004 82212 32696 61404 10279 20234 30014 40096 8472/ 333 10329 29080 55052 59002
AAXX 21004 82336 32998 33602 10286 20239 3//// 4//// 80005 333 10339 29076 55080 5////
AAXX 21004 82425 21193 81802 10258 20248 3//// 4//// 70266 887// 333 10302 29093 55/// 5//// 60181
AAXX 21004 82533 21195 80000 10252 20243 3//// 4//// 75055 887// 333 10318 29092 55027 5//// 69981
AAXX 21004 82704 32594 40000 10262 20244 39852 40045 84100 333 10306 29086 55000 59007
AAXX 21004 82723 32896 51402 10263 20252 30023 40105 85060 333 10298 29090 55001 58007
AAXX 21004 82042 32597 50000 10286 20262 3//// 4//// 83300 333 10340 29082 55083 5////
AAXX 21004 82240 32096 00000 10289 20246 3//// 4//// 333 10343 29070 55097 5////
AAXX 21004 82317 32693 70000 10256 20242 3//// 4//// 85530 333 10285 29091 55008 5////
AAXX 21004 82610 21190 80000 10251 20245 3//// 4//// 76166 887// 333 10329 29092 55021 5//// 60051
AAXX 21004 82807 32994 00000 10261 20246 3//// 4//// 333 10290 29088 55015 5////
AAXX 21004 82143 31396 30209 10270 20243 40098 7012/ 82170 222// 80250 333 10/// 59005
AAXX 21004 83117 31796 40201 10250 20222 40114 51008 7010/ 8295/ 222// 02210 80230 333 10320
AAXX 21004 63688 32980 01002 10065 20061 48/// 333 58009
AAXX 21004 63740 32470 30403 10160 20143 48509 81530 333 58003 81619
AAXX 21004 63820 32580 50000 10264 20244 40102 85100 333 58006 85819
AAXX 21004 63612 NIL
AAXX 21004 63661 NIL
AAXX 21004 63671 NIL
AAXX 21004 63695 NIL
AAXX 21004 63708 NIL
AAXX 21004 63714 NIL
AAXX 21004 63723 NIL
AAXX 21004 63772 NIL
AAXX 21004 63793 NIL
BBXX 46246 21001 99500 71451 46/// ///// 1//// 90029 22200 00073 11306 20905 325// 41305 70032
BBXX 46243 21001 99462 71241 46/// ///// 1//// 90029 22200 00078 11506 21003 326// 41505 70029
BBXX 46236 21001 99368 71219 46/// ///// 1//// 90020 22200 00125 11404 21003 328// 41403 70022
BBXX 46229 21001 99438 71246 46/// ///// 1//// 90021 22200 00099 11406 21002 329// 41406 70030
BBXX 46225 21001 99329 71174 46/// ///// 1//// 90014 22200 00148 11302 20901 326// 41301 70009
BBXX 46213 21001 99403 71247 46/// ///// 1//// 90024 22200 00101 11508 20806 330// 41505 70038
BBXX 46215 21001 99352 71209 46/// ///// 1//// 90008 22200 00170 11404 21002 326// 41403 70019
BBXX 46219 21001 99332 71199 46/// ///// 1//// 90028 22200 00140 11405 21003 330// 41404 70023
BBXX 46224 21001 99332 71175 46/// ///// 1//// 90006 22200 00149 11302 21001 326// 41301 70008
BBXX 46211 21001 99469 71242 46/// ///// 1//// 90006 22200 00086 11408 20904 328// 41406 70039
BBXX 46214 21001 99379 71235 46/// ///// 1//// 90025 22200 00118 11006 21004 329// 41304 70028
BBXX 44099 21001 99369 70757 46/// ///// 1//// 90022 22200 00115 11301 20701 308// 41301 70007
BBXX 44060 21001 99413 70721 46/// ///02 10050 40233 90030 22200 00099 333 91202 555 11015 22015
BBXX 44022 21001 99409 70737 46/// ///03 10061 21011 40227 90030 22200 00080 333 91204 555 11026 22026
BBXX 44040 21001 99410 70736 46/// /1203 10063 21020 40235 90019 22200 1//00 70001 333 91204 555 11031 22036
BBXX 46238 21001 99334 71195 46/// ///// 1//// 90020 22200 00145 11403 21002 329// 41402 70015
BBXX 46239 21001 99363 71221 46/// ///// 1//// 90021 22200 00135 11406 21004 329// 41405 70031
BBXX 51204 21001 99213 71581 46/// ///// 1//// 90022 22200 00247 11303 21002 331// 41302 70015
BBXX 51201 21001 99217 71581 46/// ///// 1//// 90012 22200 00241 11205 20704 333// 41203 70023
BBXX 51202 21001 99214 71577 46/// ///// 1//// 90009 22200 00244 10906 20905 335// 41302 70028
AAXX 21004 78318 12565 21502 10233 20196 30160 40164 51007 60001 82800 333 10265 20213 31/// 56900 59016 81820
AAXX 21004 78325 12530 30906 10230 20196 30116 40174 53013 60001 82242 333 10277 20194 30/// 56999 59017 82820
AAXX 21004 78333 12410 50501 10236 20188 30163 40170 53008 60001 83232 333 10284 20203 30/// 56199 59012 83818 555 10402
AAXX 21004 78348 11550 30706 10226 20186 30131 40184 51008 60001 70511 81502 333 10255 20212 30/// 56909 59015 81820 83070
AAXX 21004 78349 12550 40601 10226 20182 30065 40175 53001 60001 83801 333 10280 20202 30/// 56009 59023 70006 83820
AAXX 21004 78353 12560 50804 10239 20183 30157 40179 53007 60001 84802 333 10260 20226 31/// 56909 59018 70011 83820
AAXX 21004 78360 12560 10903 10263 20212 30153 40165 53008 60001 81800 333 10300 20206 30/// 56900 59007 70002 81820 92033
AAXX 21004 78369 11464 10608 10250 20185 30168 40177 52008 60001 70511 81200 333 10261 20229 30/// 56900 57860 59006 70016 81818 92045
AAXX 21001 20046 41498 73602 11052 21059 30074 40106 52006 70272 875//
AAXX 21001 20069 11474 71708 11069 21098 30122 40135 56001 69902 73632 875// 333 21072 47017 87619 91112
AAXX 21001 20087 11498 71508 11207 21232 30195 40206 54000 69902 73632 8653/ 333 21214 48018 86612
AAXX 21001 20292 31998 22106 11238 21263 30249 40270 53002 73630 82030 333 21238 91108
AAXX 21001 20353 46/// /1409 11057 21078 30074 40077 54000 333 91111
AAXX 21001 20667 41998 81610 11067 21079 30089 40096 58001 73773 8802/
AAXX 21001 20674 11496 71810 11186 21205 30117 40180 57003 69932 73873 875// 333 21207 48022 87613 91115 92980
AAXX 21001 20744 41998 01707 11019 21040 30045 40063 52005 70283
AAXX 21001 20891 31995 00503 11369 21391 30249 40297 57010 71000 333 21398 47/// 91104
AAXX 21001 23022 41597 22008 11058 21073 30064 40126 58006 73631 82500 333 91112
AAXX 21001 23032 41497 82508 11040 21055 30111 40142 51002 73673 885// 333 88617
AAXX 21001 23058 41998 80602 11159 21178 30144 40149 53010 70273 8805/
AAXX 21001 23242 41296 83007 11044 21057 30142 40158 52019 77173 8802/ 333 88707
AAXX 21001 23256 41296 81201 11111 21124 30101 40137 52010 78587 883// 333 84704
AAXX 21001 23330 42597 81804 11119 21128 30186 40208 57002 8553/ 333 85629
AAXX 21001 23445 41997 82404 11110 21123 30189 40216 52011 70272 80001
AAXX 21001 23552 41496 82705 11076 21089 30157 40192 52011 77187 884// 333 88614 91114
AAXX 21001 23631 42998 02304 11111 21124 30215 40258 57007
AAXX 21001 23662 41496 82504 11069 21085 30153 40198 52010 77172 8652/
AAXX 21001 23724 42998 22002 11117 21130 30223 40291 58015 82030
AAXX 21001 23734 42998 02201 11128 21141 30201 40298 58009
AAXX 21001 23849 42996 22507 11121 21139 40320 57001 82030
AAXX 21001 23867 41495 82505 11087 21102 30218 40292 52007 77173 8677/
AAXX 21001 23933 42997 82403 11121 21134 30279 40339 58002 80001
AAXX 21001 28064 42598 82202 11087 21111 30270 40366 57008 84501
AAXX 21001 28275 42597 62202 11102 21146 30344 40408 58010 86500
AAXX 21001 28493 42997 62102 11153 21187 30333 40434 58002 80001
AAXX 21001 28698 42997 82301 11137 21164 30300 40468 57008 82032
AAXX 21001 38847 ///// /2603 11095 21123 39570 40400
AAXX 21001 23426 42984 52302 11134 21147 30195 40221 57007 80001
AAXX 21001 23625 42998 02503 11068 21106 30230 40265 57009
AAXX 21001 28076 42997 12302 11131 21144 30292 40369 58007 80001
AAXX 21001 28367 42984 82303 11075 21130 30290 40426 57010 8805/
AAXX 21001 28382 42998 30000 11170 21189 30345 40422 57004 83030
AAXX 21001 28481 42997 02002 11145 21172 30335 40442 57004
AAXX 21001 28491 42997 22202 11141 21176 30312 40431 54000 80001
AAXX 21001 28573 42997 01902 11145 21165 30346 40459 57001
AAXX 21001 28593 42997 82101 11159 21193 30342 40449 57004 83032
AAXX 21001 28786 42997 82603 11122 21149 30318 40488 57002 8807/
AAXX 21001 28797 42997 82502 11138 21165 30311 40482 57006 80002
AAXX 21001 28799 42997 82402 11151 21178 30319 40476 57009 8802/
BBXX WRAH 21004 99335 70237 41698 60919 10200 2//// 40263 52003 7//22 8385/ 22264 00211 20303 306// 40305 5//// 6//// 8//// ICE /////
BBXX PCHM 21004 99368 31556 41298 73514 10180 20163 40136 56000 70322 86764 22234 00180 20102 305// 40203 80170
BBXX WC5932 21004 99443 70873 43/// /2211 00/// 10013 21044 40146 57022 7//// 8//// 22284 0//// 2//// 3//// 4//// 5//// 6//// 81007 ICE /////
BBXX ICRA 21004 99125 30482 418// /2315 10270 2024/ 40110 54040 7//// 8/007 22254 00290 2//// 3//// 4//// 5//// 6//// 80250 ICE /////
BBXX WKAE 21004 99484 70161 41598 62621 10140 20105 40285 52010 70111 86/// 22264 00130 20502 329// 41007 5//// 6//// 80120 ICE /////
BBXX A8UX3 21004 99063 10033 41397 59904 10280 20267 40130 51/// 70211 84123 22200 04270 22503 80270
BBXX AMOUK15 21004 99120 50102 46/// ///// 10223 20174 30140 40167 52011 92350
BBXX A8AX3 21003 99206 70186 41/// /0403 10200 40190 51/// 7//// 8//// 22244 2//// 30000
BBXX MZFC6 21003 99103 10667 41998 00410 10288 20217 40103 57002 70200 80000 22264 04286 2//// 3//// 4//// 5//// 80240
BBXX AMOUK17 21004 99340 30260 46/// ///// 10204 20190 30083 40085 57010 92350
BBXX ICRA 21004 99125 30482 418// /2315 10270 2024/ 40110 54040 7//// 8/007 22254 00290 2//// 3//// 4//// 5//// 6//// 80250 ICE /////
BBXX 52245 21001 99181 11458 46/// ///// 1//// 90005 22200 00283
BBXX 52248 21001 99135 11448 46/// ///// 1//// 90006 22200 00287
BBXX 52244 21001 99200 11452 46/// ///// 1//// 90008 22200 00269
BBXX 52246 21001 99152 11457 46/// ///// 1//// 90007 22200 00282
BBXX UEYO 21001 99542 11480 41797 83007 11040 40160 54000 72272 8807/ 22213 00010 20402
BBXX UGSN 21001 99486 11408 42698 23607 11076 40230 52011 82500 22213 00033 20302 32800 40402
BBXX DCPL2 21004 99235 11178 41797 70120 10172 20132 40200 52025 70122 8707/ 22254 00170 2//// 303// 40004 80148
BBXX S6OM 21004 99142 11202 41898 20522 10270 20263 40109 51/// 71800 811// 22233 00281 20304 305// 40304 5//// 80265
BBXX UGOD 21001 99462 11445 42998 43308 11030 40215 51002 84200 22213 00044 20402 30400 40604
BBXX 52243 21001 99193 11666 46/// ///// 1//// 92354 22200 00263
BBXX AUYI 21004 99145 10738 41798 23314 10250 20175 40067 54003 70200 82111 22233 00300
BBXX ZCAS2 21003 99293 11340 41698 10706 10175 20086 40232 51015 70200 81100 22283 00232 20101 80129
BBXX 62141 21003 99493 50591 41798 63313 10117 40003 54000 70122 86578 22200 20602 334// 40702 5//// 80014
BBXX AMOUK20 21004 99229 50431 46/// ///// 10273 20195 30108 40120 54/// 92350
BBXX VQKZ6 21003 99091 50805 41597 81316 10224 20194 40204 51005 70022 85718 22244 02213 20402 313// 40605 5//// 80205
BBXX LAVN4 21004 99351 50499 41/// /2410 10280 2023/ 40090 54000 70010 8//// 22213 00190 20402 304// 4//// NNNN
BBXX ZDLP 21003 99567 50398 41/91 93315 10021 20018 40016 54000 74544 89/// 22283 04017 20501 32835 41003 50603 80020
BBXX PDZS 21003 99544 50362 41295 81005 10041 20025 40049 56003 70311 886// 22200 02076 20201 399// 40501 5//// 80034
BBXX 46036 21001 99484 71339 46/// /3107 10079 40331 52002 22200 00084 11408 70038 333 91208
BBXX KS088 21004 99267 70801 43/// /0703 10234 40212 22200 06226
BBXX KS007 21004 99267 70801 43/// ///// 10233 40171 22200
BBXX KS094 21004 99123 70616 43/// /0716 10272 40142 22200 06267
BBXX 44258 21001 99445 70634 46/// /3212 11033 40186 52040 22200 00061 11002 70011 333 91215
BBXX 42362 21001 99278 70907 46/// /1706 10233 20211 40146 90030
BBXX 42364 21001 99291 70881 46/// /1510 10222 20206 40163 90030
BBXX 42363 21001 99282 70892 46/// /1706 10233 20183 40153 90030 333 91206
BBXX 41112 21001 99307 70813 46/// ///// 1//// 90021 22200 00161 11301 20501 310// 41301 70007
BBXX 41113 21001 99284 70805 46/// ///// 1//// 90021 22200 00211 10502 20502 308// 41101 70012
BBXX 42099 21001 99273 70842 46/// ///// 1//// 90027 22200 00231 10704 20704 70019
BBXX 41110 21001 99341 70777 46/// ///// 1//// 90021 22200 00139 11301 21001 310// 41301 70006
BBXX 44043 21001 99392 70764 46/// /0302 1//// 40210 90010 333 91206
BBXX 44100 21001 99363 70756 46/// ///// 1//// 90022 22200 00117 11302 21001 308// 41302 70010
BBXX 42361 21001 99276 70925 46/// ///09 10233 20206 40125 51010 90030 555 11074 22079
BBXX 44043 21001 99392 70764 46/// /0502 1//// 90020 333 91203
BBXX 44042 21001 99380 70763 46/// /1503 10092 40212 52004 90000 22200 00089 1//00 70000 333 91204
BBXX 44043 21001 99392 70764 46/// /0401 10071 40211 53011 90000 22200 00068 1//00 70001 333 91202
BBXX 44042 21001 99380 70763 46/// /1504 1//// 40213 90010 333 91204
BBXX 44062 21001 99386 70764 46/// /1604 1//// 40192 90010 22200 00084 333 91204
BBXX 44041 21001 99372 70768 46/// /1102 10100 40231 51006 90000 22200 00088 1//00 70001 333 91202
BBXX 44063 21001 99390 70764 46/// /0000 1//// 90020 333 91200
BBXX 44041 21001 99372 70768 46/// /1102 1//// 40231 90010 333 91202
BBXX 44041 21001 99372 70768 46/// /1002 1//// 90020 333 91202
BBXX 44062 21001 99386 70764 46/// /1703 10081 40193 51004 90000 22200 00084 1//00 70001 333 91204
BBXX 44062 21001 99386 70764 46/// /1504 1//// 90020 22200 00083 333 91204
BBXX 44042 21001 99380 70763 46/// /1603 1//// 90020 333 91204
BBXX 44063 21001 99390 70764 46/// /0000 10077 40222 50008 90000 22200 00076 1//00 70000 333 91200
BBXX 44063 21001 99390 70764 46/// /0000 1//// 40222 90010 333 91200
BBXX 42013 21001 99272 70829 46/// ///// 1//// 40193 92340 22200 00198
BBXX 46146 21001 99493 71237 46/// /2909 10073 40246 57003 22200 00067 10401 70007 333 91211
BBXX 46246 21001 99500 71451 46/// ///// 1//// 92359 22200 00073 11306 21004 326// 41304 70031
BBXX 46004 21001 99509 71361 46/// /3605 10066 40321 52006 22200 00075 11209 70045 333 91207
BBXX 46247 21001 99378 71228 46/// ///// 1//// 90021 22200 00114 11304 21003 328// 41303 70020
BBXX 44058 21001 99376 70763 46/// /1703 1//// 40215 90010 333 91204
BBXX 44057 21001 99395 70761 46/// /0502 1//// 40218 90010 333 91203
BBXX 44059 21001 99368 70763 46/// /1502 1//// 90020 333 91203
BBXX 44039 21001 99411 70727 46/// /0801 10058 21063 40241 92353 22200 00094 1//00 70001 333 91202
BBXX 44057 21001 99395 70761 46/// /0502 10066 40218 51013 90000 22200 00057 333 91203
BBXX 44058 21001 99376 70763 46/// /1603 10088 40213 53007 90000 22200 00087 1//00 70001 333 91203
BBXX 44058 21001 99376 70763 46/// /1703 1//// 90020 333 91204
BBXX 46092 21001 99368 71220 46/// /3104 10124 40164 92337 22200 00127 555 11036 22041
BBXX 44059 21001 99368 70763 46/// /1303 1//// 40208 90010 333 91203
BBXX 44057 21001 99395 70761 46/// /0602 1//// 90020 333 91203
BBXX 44059 21001 99368 70763 46/// /1302 10112 40207 52007 90000 22200 00098 333 91204
BBXX A8XD5 21004 99425 71776 41597 52804 10120 20062 40100 50000 70322 8/262 22223 2//// 327// 40806 80090
BBXX 46184 21001 99539 71389 46/// /2306 10057 40294 52002 22200 00064 11307 70034 333 91208
BBXX 46181 21001 99538 71288 46/// /2107 10048 40277 52027 22200 00067 10200 70002 333 91208
BBXX 51172 21001 99284 71783 46/// ///// 1//// 90014 22200 00231
BBXX 51173 21001 99260 71739 46/// ///// 1//// 90011 22200 00245
BBXX 51176 21001 99278 71758 46/// ///// 1//// 90003 22200 00239
BBXX 41009 21001 99285 70802 46/// /1409 10236 20163 40222 90020 22200 00247 11003 20502 300// 41002 70015 333 91210 555 11090 22095
BBXX 41010 21001 99289 70785 46/// /1407 10221 40239 90020 22200 00237 11103 20502 300// 41102 70016 333 91208 555 11073 22076
BBXX 46205 21001 99542 71343 46/// /3306 10062 40288 52021 22200 00077 11308 70038 333 91207
BBXX 46132 21001 99497 71279 46/// /3009 10082 40291 57002 22200 00090 11311 70053 333 91212
BBXX 46206 21001 99488 71260 46/// /3110 10085 40275 57003 22200 00089 11610 70050 333 91212
BBXX 46185 21001 99524 71298 46/// /2907 10077 40292 52017 22200 00075 11504 70021 333 91208
BBXX PCBT 21003 99162 70626 41/98 40518 10260 20194 40150 52010 70011 8//// 22214 29904 80215
BBXX 9V8072 21003 99260 70700 41/97 /2427 10210 20160 40257 5/000 7//22 8//// 22263 29905 80180
BBXX 46087 21001 99485 71247 46/// /3110 10088 20069 40260 90020 22200 00078 333 91212 555 11103 22111 32352 43113 60019 314095 312095 309099 307094 307096 306098
BBXX 41036 21001 99342 70770 46/// ///// 10193 20134 40231 90020 22200 00192
BBXX 44039 21001 99411 70727 46/// /0301 10059 21058 40242 53012 90000 22200 00094 1//00 70001 333 91202
BBXX 44032 21001 99437 70694 46/30 /3205 11004 40221 51021 90004 22200 00089 10301 70004 333 91206 555 11052 22054
BBXX 44034 21001 99441 70681 46/30 /3005 11018 40223 53018 90004 22200 00084 10301 70006 333 91207 555 11062 22064
BBXX 44040 21001 99410 70736 46/// /1203 10063 21020 40235 90015 22200 1//00 70001 333 91204 555 11031 22036
BBXX 44060 21001 99413 70721 46/// ///02 10050 40233 90015 22200 00099 333 91203 555 11015 22021
BBXX 44030 21001 99432 70704 46/// /2803 1//// 40229 51022 90004 22200 00084 11101 70005 333 91204 555 11031 22033
BBXX 44022 21001 99409 70737 46/// ///02 10061 21014 40227 90015 22200 00080 333 91205 555 11026 22026
BBXX 44029 21001 99425 70706 46/30 /3503 10019 40226 51017 90004 22200 00087 11102 70008 333 91204 555 11027 22028
BBXX C6KJ5 21004 99213 70865 41497 70910 10240 2023/ 40140 52120 70322 87210 22243 00272 80230
BBXX WDB9986 21004 99435 71678 41597 80719 10050 2003/ 40040 57040 75155 886// 22224 00090 20303 328// 40606 5//// 6//// 80040 ICE /////
BBXX WC5932 21004 99443 70873 43/// /2211 00/// 10013 21044 40146 57022 7//// 8//// 22284 0//// 2//// 3//// 4//// 5//// 6//// 81007 ICE /////
BBXX ZDLS1 21003 99611 30040 41/98 81719 11020 2//// 49780 52010 70272 8//// 22243 05019 20300 30000
BBXX ZSAF 21004 99685 50049 41599 82106 11023 21067 49808 52001 70322 885// 22252 05015 2//// 30000 4//// 5//// ICE 10//0
BBXX AMOUK01 21004 99612 30040 46/// ///// 11019 21038 39774 49782 52009 92350
BBXX 51170 21001 99168 71695 46/// ///// 1//// 92348 22200 00260
BBXX 51171 21001 99064 71623 46/// ///// 1//// 92346 22200 00279
BBXX KS089 21004 99504 10003 43/// /2912 10089 22253
BBXX WKAE 21004 99484 70161 41598 62621 10140 20105 40285 52010 70111 86/// 22264 00130 20502 329// 41007 5//// 6//// 80120 ICE /////
BBXX MINUK04 2100/ 99532 10034 46/// ///// 10073 4//// 52037
BBXX MINUK03 2100/ 99539 10016 46/// ///// 10070 40168 57010
BBXX WRAH 21004 99335 70237 41698 60919 10200 2//// 40263 52003 7//22 8385/ 22264 00211 20303 306// 40305 5//// 6//// 8//// ICE /////
BBXX MINUK05 2100/ 99603 70043 46/// ///// 10060 40083 52014
BBXX C6WK7 21004 99303 70164 41798 10832 10180 2//// 40280 57010 70200 81480 22244 0//// 20303 308// 40605 5//// 6//// 8//// ICE /////
BBXX 51179 21001 99143 51708 46/// ///// 1//// 90003 22200 00288
BBXX ZCDS4 21003 99147 51498 41697 60924 10280 20221 40092 54000 71866 86376 22222 04278 20302 30903 40504 50504 80240
BBXX PCHM 21004 99368 31556 41298 73514 10180 20163 40136 56000 70322 86764 22234 00180 20102 305// 40203 80170
BBXX 51174 21001 99142 51697 46/// ///// 1//// 92354 22200 00287
BBXX 51169 21001 99004 51600 46/// ///// 1//// 92354 22200 00259
BBXX 51178 21001 99142 51695 46/// ///// 1//// 92357 22200 00288
BBXX PHOB 21004 99048 10846 41397 70526 10260 20260 40053 53003 76288 86778 22222 00275 20606 307// 40304 5//// 80260
BBXX SHIP 21000 99184 31604 43/// 80520 1//// 2//// 40180 5//// 7//// 8//// 22273 0//// 2//05 3//// 4//// 5//// 6//// 8//// ICE /////
BBXX VRDG4 21003 99387 31479 41596 51114 10168 20117 40207 51011 701// 84466 22253 20404 80140
BBXX ZCGY8 21001 99209 31149 41598 12006 10294 20250 40072 50007 70222 81100 22200 20502 80263
BBXX VNAH 21004 99330 31155 46/// /2008 10191 20140 30117 40140 52010 22273 04209 85159
AAXX 21004 42314 31995 20000 10100 20088 40159 70540 82030 333 59002 82360
AAXX 21004 42410 31594 20000 10114 20110 40150 71000 82530 333 58004 82620 81360
AAXX 21004 42415 31994 10000 10102 20094 40175 71000 81030 333 59001 81360
AAXX 21004 42591 31/90 92703 10080 20080 40180 74744 333 58003
AAXX 21004 42623 31/93 00000 10040 20035 39277 40200 74440 333 58001
AAXX 21004 42701 31995 03202 10074 20044 39409 40173 70500 333 59004
AAXX 21004 42724 31/91 90000 10126 20115 40154 74744 89/// 333 58002
AAXX 21004 42886 31995 00000 10102 20068 40168 70500 333 58004
AAXX 21004 42971 31994 00206 10158 20105 40151 71010 333 58004
AAXX 21004 43333 31495 60000 10240 20219 40100 70522 84401 333 56109 59001 81616 83818 85070
AAXX 21001 78458 21466 20000 10221 20206 40197 52013 72161 82800 333 10272 20208 31/// 56000 58002 60025 82618
AAXX 21001 78460 31460 51403 10224 20203 40190 52017 70544 84501 333 10260 20177 30/// 56300 58004 84618
AAXX 21001 78467 32466 30907 10248 20195 40189 52023 83200 333 10250 20186 31/// 56200 58005 83818
AAXX 21001 78479 31466 50708 10252 20201 40164 52012 70166 84270 333 10268 20205 31/// 56100 58003 84818 84357
AAXX 21001 78482 32466 31304 10256 20210 40181 52018 82556 333 10302 10175 30/// 56000 58008 82618 83280
AAXX 21001 78485 21466 30203 10211 20189 40181 52015 70162 82270 333 10270 20182 31/// 56000 58003 69907 82818 83357
AAXX 21001 78486 21466 23402 10228 20208 40171 52017 70161 82200 333 10271 20215 31/// 56000 58005 60017 82818
AAXX 21001 78488 31466 30605 10219 20206 40180 52015 70362 83800 333 10257 20157 31/// 56000 58005 83616
AAXX 21004 63887 02480 80000 10181 20172 38584 48504 60213 8197/ 333 0//99 58011 60055 81616 81917 88358
AAXX 21001 48852 11460 82901 10183 20181 30157 40167 53021 60072 76166 888// 333 01019 20181 3/018 59009 8689 4 88697 96160
AAXX 21001 48855 11560 80000 10200 20195 30150 40158 53018 69922 76062 888// 333 01020 20195 3/020 59013 8389 5 88697 96160
AAXX 21001 48848 32565 83202 10182 20151 30166 40174 52022 888// 333 00017 20171 3/017 59008 82895 88697
AAXX 21001 78458 21466 20000 10221 20206 40197 52013 72161 82800 333 10272 20208 31/// 56000 58002 60025 82618
AAXX 21001 78460 31460 51403 10224 20203 40190 52017 70544 84501 333 10260 20177 30/// 56300 58004 84618
AAXX 21001 78467 32466 30907 10248 20195 40189 52023 83200 333 10250 20186 31/// 56200 58005 83818
AAXX 21001 78479 31466 50708 10252 20201 40164 52012 70166 84270 333 10268 20205 31/// 56100 58003 84818 84357
AAXX 21001 78482 32466 31304 10256 20210 40181 52018 82556 333 10302 10175 30/// 56000 58008 82618 83280
AAXX 21001 78485 21466 30203 10211 20189 40181 52015 70162 82270 333 10270 20182 31/// 56000 58003 69907 82818 83357
AAXX 21001 78486 21466 23402 10228 20208 40171 52017 70161 82200 333 10271 20215 31/// 56000 58005 60017 82818
AAXX 21001 78488 31466 30605 10219 20206 40180 52015 70362 83800 333 10257 20157 31/// 56000 58005 83616
AAXX 21004 91723 NIL
AAXX 21004 91964 NIL
BBXX DDZI2 21003 99342 11408 41598 73016 10135 20033 40220 50/// 70122 879// 22215 00214 20601 80085
BBXX MGPU2 21003 99420 11351 41998 01602 10040 20040 40235 54000 70200 80000 22221 00080 20101 333 // 40101 5//// 80040
BBXX S6AJ8 21003 99310 11334 41/96 83606 10140 20110 40240 5//// 75055 8862/ 22253 0//// 2//// 3//// 4//// 5//// 6//// 80120 ICE /////
BBXX UEYO 21001 99542 11480 41797 83007 11040 40160 54000 72272 8807/ 22213 00010 20402
BBXX UGOD 21001 99462 11445 42998 43308 11030 40215 51002 84200 22213 00044 20402 30400 40604
BBXX UGSN 21001 99486 11408 42698 23607 11076 40230 52011 82500 22213 00033 20302 32800 40402
BBXX WDB3161 21004 99395 11454 41598 63224 10030 2//// 40218 50010 71672 862// 22255 00123 20405 328// 40706 5//// 6//// ICE /////
BBXX 44137 21001 99423 70620 46/// /3211 10035 40179 52045 22200 00095 11008 70042 333 91215
AAXX 2100/ 89828 46/// ///// 11243 36460 4//// 5//// 90010
AAXX 2100/ 89828 46/// ///// 11251 36461 4//// 5//// 90020
AAXX 2100/ 89108 46/// ///// 11215 36999 4//// 5//// 90020
AAXX 2100/ 89879 46/// ///// 10023 39657 4//// 5//// 90020
AAXX 2100/ 89667 46/// ///// 11018 39777 4//// 5//// 90010
AAXX 2100/ 89872 46/// ///// 11038 39725 4//// 5//// 90010
AAXX 2100/ 89872 46/// ///// 11035 39724 4//// 5//// 90020
AAXX 2100/ 89869 46/// ///// 11026 39694 4//// 5//// 90020
AAXX 2100/ 89866 46/// ///// 11006 39678 4//// 5//// 90020
AAXX 2100/ 89329 46/// ///// 11059 38723 4//// 5//// 90020
AAXX 2100/ 89799 46/// ///// 11235 4//// 5//// 90020
AAXX 2100/ 89799 46/// ///// 11233 4//// 5//// 90030
AAXX 2100/ 89332 46/// ///// 11013 39185 4//// 5//// 90030
AAXX 2100/ 89314 46/// ///// 11060 38230 4//// 5//// 90020
AAXX 21004 89667 46/// /0506 11021 29037 39777 4//// 5//// 90020
BBXX 44137 21001 99423 70620 46/// /3211 10035 40179 52045 22200 00095 11008 70042 333 91215
AAXX 21004 71592 16/// /0303 11208 21236 39966 49979 53007 60001 333 11201 21270 70000
AAXX 21004 71490 16/// /3009 11336 21367 39758 40103 52010 60001 333 11332 21352 70000
AAXX 21004 71963 16/// /3406 11307 21337 39670 40095 52014 60001 333 11291 21327 7////
AAXX 21004 71277 46/// /2614 10001 20000 6///1 333 10042 20001 7////
AAXX 21004 71923 16/// ///10 11295 21321 39607 40071 51020 60001 333 11223 21298 70000
AAXX 21004 41859 31/05 93102 10114 20100 30116 40155 74544 89/// 333 56999 58005 70000 89///
AAXX 21004 41883 31320 60000 10116 20110 30137 40158 71042 86600 333 56600 58004 70000 86709
AAXX 21004 41891 31/01 90000 10132 20130 30106 40146 74342 89/// 333 56999 58000 70000
AAXX 21004 41907 31/03 93601 10112 20110 30133 40148 74544 89/// 333 56999 58007 70000
AAXX 21004 41936 31302 60000 10116 20110 40153 74240 86030 333 56900 58003 70000 86306
AAXX 21004 41950 31340 80000 10141 20130 30141 40144 70542 8662/ 333 56899 58001 70000 83708 84616 88459
AAXX 21004 71963 16/// /3406 11307 21337 39670 40095 52014 60001 333 11291 21327 7////
AAXX 21004 71592 16/// /0303 11208 21236 39966 49979 53007 60001 333 11201 21270 70000
AAXX 21004 71490 16/// /3009 11336 21367 39758 40103 52010 60001 333 11332 21352 70000
AAXX 21004 71277 46/// /2614 10001 20000 6///1 333 10042 20001 7////
BBXX BATFR19 21004 99065 30060 46/// /1512 10237 20199 40144 50001 222// 00255
BBXX BATFR55 21004 99097 30453 44697 43210 10287 20247 40102 70311 82522 22262 00292 20702
BBXX SHIP 21004 99104 31057 41/97 42710 10276 20269 40017 70222 222// 0//// 20101 301// 40101 5////
BBXX A8YW2 21004 99124 30783 41/97 81222 10245 20238 40075 55010 76022 8//// 22214 00270 20102 80240
BBXX DEIR 21003 99259 30572 41497 70318 10240 20196 40160 54000 70200 8677/ 22223 04235 20605 80210
BBXX V7LZ9 21004 99260 30452 41/97 /0913 10230 20201 40080 56000 70011 8/465 22254 00180 2//// 3//// 4//// 5//// 80210
BBXX ELVF4 21001 99333 30175 41/97 /1709 10180 20155 40179 56005 7//// 8//// 22233 06170 20302 31718 40404 50304 80165
BBXX TBWUK42 21004 99353 30246 41798 50615 10225 20187 40092 57030 70261 8356/ 22222 20402 324// 40605 5//// 80201
BBXX ONDY 21004 99356 30209 41698 32212 10190 2016/ 40120 58020 70111 834// 22223 00209 2//// 3//// 4//// 5//// 6//// 80170 /////
BBXX DBBT 21001 99361 30141 46/// /2706 10171 20127 40127 57012 22213 00172
AAXX 21001 08505 32575 71307 10176 20103 30243 40292 57003 878// 333 81820 87640
AAXX 21001 08515 32587 51305 10166 20141 30185 40307 58003 85800 333 81822 85645 910// 911//
AAXX 21001 08545 11340 80000 10115 20102 30248 40332 54000 69911 71052 888// 333 82709 85815 87630
AAXX 21001 08545 11340 80000 10115 20102 30248 40332 54000 69911 71052 888// 333 82709 85815 87630 555 60005
AAXX 21001 08515 32587 51305 10166 20141 30185 40307 58003 85800 333 81822 85645 910// 911// 555 60007 912//
AAXX 21001 08505 32575 71307 10176 20103 30243 40292 57003 878// 333 81820 87640 555 60007
AAXX 21004 71923 16/// ///10 11295 21321 39607 40071 51020 60001 333 11223 21298 70000
AAXX 21004 42361 31/91 /0000 10062 20053 40174 74744 8//// 333 58003 8////
AAXX 21003 63723 32980 00000 10253 209229 40092 333 59001
AAXX 21003 63793 32480 80000 10237 20227 40086 885// 333 58005 88614
BBXX 44138 21001 99443 70536 46/// /2814 10044 40044 52035 22200 00096 10808 70040 333 91217
BBXX 44138 21001 99443 70536 46/// /2814 10044 40044 52035 22200 00096 10808 70040 333 91217
AAXX 21001 31152 32998 21801 11405 21439 39831 40301 53016 80002 333 21415 47027 55022
AAXX 21001 31163 NIL
AAXX 21001 31285 32999 60000 11295 21326 30141 40229 54000 80009 333 21299
AAXX 21001 31561 32998 00000 11294 21311 30209 40240 55000 333 21310
AAXX 21001 31683 32999 00000 11291 21303 30177 40261 52004 333 21311 47012
AAXX 21001 32010 32998 00000 11245 21270 30163 40217 53009 333 21229 48047 91001 91103
AAXX 21001 38734 426// 50702 11168 21227 37475 47050 57003 81503
AAXX 21001 40001 32970 00802 10006 21030 40218 58001
AAXX 21001 40007 32560 70804 10092 20038 40208 55001 83550 333 83630 87360
AAXX 21001 40025 32960 40502 10132 20076 40168 52006 84030 333 84360
AAXX 21001 40045 32970 00000 10010 21022 40231 56001
AAXX 21001 40061 32970 00000 10050 20005 40203 55001
AAXX 21001 40080 32965 00201 10070 21039 39479 40186 55005
AAXX 21001 40087 NIL
AAXX 21001 40095 NIL
AAXX 21001 40009 32965 00000 10028 20007 40194 55003
AAXX 21001 40016 NIL
AAXX 21001 40022 32965 30502 10137 20066 40168 52006 83050 222// 20000 333 83360
AAXX 21001 40030 31560 50000 10042 20037 40199 55001 71042 85500 333 85630
AAXX 21001 40039 32970 00000 10040 20022 40202 56007
AAXX 21001 40066 32970 00701 10138 20041 40167 52009
AAXX 21001 40072 NIL
AAXX 21001 40083 32970 02601 10052 21011 48506 57006
AAXX 21003 41150 31950 03204 10178 20156 40212 70500 333 58004
BBXX 46004 21001 99509 71361 46/// /3605 10066 40321 52006 22200 00075 11209 70045 333 91207
BBXX 46036 21001 99484 71339 46/// /3107 10079 40331 52002 22200 00084 11408 70038 333 91208
BBXX 46181 21001 99538 71288 46/// /2107 10048 40277 52027 22200 00067 10200 70002 333 91208
BBXX 46183 21001 99536 71311 46/// /2806 10061 40293 52022 22200 00077 11402 70008 333 91207
BBXX 46185 21001 99524 71298 46/// /2907 10077 40292 52017 22200 00075 11504 70021 333 91208
BBXX 46204 21001 99514 71288 46/// /2607 10079 40290 52007 22200 00083 11310 70051 333 91209
BBXX 46205 21001 99542 71343 46/// /3306 10062 40288 52021 22200 00077 11308 70038 333 91207
BBXX 46206 21001 99488 71260 46/// /3110 10085 40275 57003 22200 00089 11610 70050 333 91212
AAXX 21004 41915 31/03 92702 10135 20135 30130 40156 74944 89/// 333 58003 70000
AAXX 21004 41926 31920 03401 10095 20095 30139 40154 71000 333 58003 70000
AAXX 21004 41941 31440 50000 10138 20130 30145 40151 70522 83520 333 56990 58001 70000 83614 85460
AAXX 21004 41947 31905 00000 10122 20120 30142 40144 74244 333 59002 70000
AAXX 21004 41960 31430 83202 10144 20140 30149 40151 70520 8452/ 333 56999 58003 70000 84616 88458
AAXX 21004 41964 31430 53501 10150 20150 30152 40155 71042 83510 333 56990 58002 70000 83618 85460
AAXX 21004 16643 12460 30000 10044 20019 30159 40165 53006 60001 82750 333 90730 91104 555 40000 47649 44200 50000 50034
AAXX 21004 41929 31/02 93602 10132 20132 30143 40153 74544 89/// 333 58003 70000
AAXX 21004 42559 32996 00901 10116 20055 40154 333 58001
AAXX 21004 42571 32996 00000 10076 20063 40172 333 58000
AAXX 21004 42667 31996 01403 10134 20063 39551 40158 70500 333 58000
AAXX 21004 42779 32996 00000 10094 20017 39452 40182 333 58003
AAXX 21004 42874 32996 00000 10120 20066 40162 333 58004
AAXX 21004 43041 31995 00000 10090 20070 39524 40173 71000 333 58003
AAXX 21004 42706 31994 00000 10086 20073 40158 71000 333 58000
AAXX 21004 94170 46/// /0910 10295 20234 30046 40068
AAXX 21004 94290 46/// /1317 10278 30067 40076 56004 90024
AAXX 21004 94997 46/// ///// 10034 39936 49951 5////
AAXX 21004 89573 35980 00938 10005 21109 39676 49697 52035
AAXX 21004 89573 35980 00938 10005 21109 39676 49697 52035
AAXX 21004 94170 46/// /0910 10295 20234 30046 40068
AAXX 21004 94290 46/// /1317 10278 30067 40076 56004 90024
AAXX 21004 94997 46/// ///// 10034 39936 49951 5////
AAXX 21004 83766 32997 00000 10282 20177 39472 40100 5//// 333 10356 29048 55117
AAXX 21004 83836 32497 22301 10198 20130 39132 40087 53007 81660 333 10317 29051 55113
AAXX 21004 83881 31996 00000 10284 20173 39792 40067 53005 70540 333 10368 29050 55119
AAXX 21004 83980 32997 01406 10265 20202 39804 40076 53021 333 10332 29058 55112
AAXX 21004 83997 32997 11404 10199 20187 30072 40115 53004 80001 333 10271 29083 55114
AAXX 21004 87576 32960 20904 10280 20150 30041 40064 53001 80005 333 10365 20279 56009 82270
AAXX 21004 91532 45/// /0709 10303 20230 30056 40064 57009 333 20271
AAXX 21004 94210 35/// /2407 10319 30060 40065 52011
AAXX 21004 94289 46/// /1318 10279 30064 40071 50001 90015
AAXX 21004 94379 46/// /1321 10261 30093 40102 50000 90026
BBXX 41033 21001 99323 70804 46/// /1401 10153 40227 52013 90000 555 11015 22017
AAXX 21001 08521 NIL
AAXX 21001 08524 32465 60906 10167 20112 30207 40305 57002 86800 333 83815 84630 91010 91111
AAXX 21001 08501 32/// /1609 10174 20140 30224 40260 57002 333 91115
AAXX 21001 08505 NIL
AAXX 21001 08509 32560 61305 10162 20139 30239 40304 57006 868// 333 82825 86635
AAXX 21001 08512 32/// /1005 10157 20126 30221 40307 57004
AAXX 21001 08515 NIL
AAXX 21001 08533 32/// /0204 10125 20104 30288 40318 52001 333 91107
AAXX 21001 08541 32/// /0105 10095 20082 30203 40325 52001
AAXX 21001 08545 11340 80000 10115 20102 30248 40332 54000 69911 71022 888// 333 82709 85815 87630
AAXX 21001 08548 32/// /0102 10118 20104 30121 40330 57002
AAXX 21001 08554 32965 23303 10108 20063 30305 40315 57002 80001 333 82080
AAXX 21001 08558 32/// /3303 10078 20075 30017 40319 54000 333 91106
AAXX 21001 08560 32/// /3501 10096 20085 39565 40333 52001
AAXX 21001 08567 32/// /0000 10083 20079 39660 40336 52001
AAXX 21001 08570 32/// /3302 10069 20063 39857 40328 52005
AAXX 21001 08575 32/// /0000 10043 20039 39506 40342 52005
AAXX 21001 08579 NIL
AAXX 21001 08579 32/// /2402 10127 20101 30201 40328 54000
AAXX 21001 08501 32/// /1609 10174 20140 30224 40260 57002 333 91115 555 60005
AAXX 21001 08505 NIL
AAXX 21001 08506 32/// /1606 10173 20100 30226 40298 57008 333 91010 91116 555 60005
AAXX 21001 08509 32560 61305 10162 20139 30239 40304 57006 868// 333 82825 86635 555 60007
AAXX 21001 08511 32/// /1503 10159 20129 30198 40307 57005 333 91106 555 60005
AAXX 21001 08512 32/// /1005 10157 20126 30221 40307 57004 555 60005
AAXX 21001 08515 NIL
AAXX 21001 08521 NIL
AAXX 21001 08522 32/// /9903 10168 20089 30230 40300 52006 333 91005 91106 555 60005
AAXX 21001 08524 32465 60906 10167 20112 30207 40305 57002 86800 333 83815 84630 91010 91111 555 60005
AAXX 21001 08530 NIL
AAXX 21001 08531 32/// /3502 10148 20125 30291 40330 54000 555 60005
AAXX 21001 08532 NIL
AAXX 21001 08533 32/// /0204 10125 20104 30288 40318 52001 333 91107 555 60005
AAXX 21001 08534 32570 60000 10102 20095 30309 40327 51002 86500 333 86625 555 60007
AAXX 21001 08535 32/// /3503 10129 20104 30235 40329 52001 333 91006 91106 555 60005
AAXX 21001 08537 NIL
AAXX 21001 08540 31457 79901 10112 20101 30257 40327 50000 71011 8683/ 333 81818 86623 555 60007
AAXX 21001 08541 32/// /0105 10095 20082 30203 40325 52001 555 60005
AAXX 21001 08544 32460 50101 10112 20101 30306 40327 50001 85800 333 81812 84622 555 60007
AAXX 21001 08545 11340 80000 10115 20102 30248 40332 54000 69911 71022 888// 333 82709 85815 87630 555 60005
AAXX 21001 08548 32/// /0102 10118 20104 30121 40330 57002 555 60005
AAXX 21001 08551 12/// /1002 10106 20098 30276 40335 52001 69951 555 60005
AAXX 21001 08554 32965 23303 10108 20063 30305 40315 57002 80001 333 82080 555 60005
AAXX 21001 08558 32/// /3303 10078 20075 30017 40319 54000 333 91106 555 60005
AAXX 21001 08560 32/// /3501 10096 20085 39565 40333 52001 555 60005
AAXX 21001 08561 31157 23002 10074 20070 30081 40321 53001 71000 82600 333 82703 555 60007
AAXX 21001 08562 32/// /3103 10080 20072 30019 40321 52002 333 91105 555 60005
AAXX 21001 08567 32/// /0000 10083 20079 39660 40336 52001 555 60005
AAXX 21001 08568 32/// /3008 10072 20016 38746 48613 57001 333 91112 555 60005
AAXX 21001 08570 32/// /3302 10069 20063 39857 40328 52005 555 60005
AAXX 21001 08571 32/// /9901 10097 20069 39605 40317 57001 333 91107 555 60005
AAXX 21001 08575 32/// /0000 10043 20039 39506 40342 52005 555 60005
AAXX 21001 08579 32/// /2402 10127 20101 30201 40328 54000 555 60005
AAXX 21004 63866 32580 60000 10240 20231 39506 48/// 865// 333 59001 86620
AAXX 21004 63932 01480 80000 10150 20150 38305 48505 60351 70262 8191/ 333 0//57 58004 60107 81618 81920 88458
BBXX 44056 21001 99362 70757 46/// ///// 1//// 92350 22200 00116 11302 21001 309// 41302 70010
BBXX SHIP 21004 99328 11486 41698 63218 10120 20102 40221 51013 70121 8313/ 92350 22264 00200 20602 33228 40804 50602 80110
BBXX SHIP 21004 99546 11790 41398 73022 10000 21027 49960 52008 77022 87492 92355 22264 00040 20402 336// 40604 81010
BBXX SHIP 21004 99107 11384 41098 80512 10280 20253 40091 56005 7022/ 85129 22273 00320 20201 309// 40604 80260
BBXX SHIP 21004 99148 11120 41/98 80416 10250 20243 40064 55012 70222 886// 22244 00260 20302 305// 40403 80245
AAXX 21001 98134 11450 80908 10210 20206 39962 40155 5//// 60144 76064 8552/ 333 20164 56299 59012 70144 85617 88456 555 20030
AAXX 21001 98223 31462 30901 10258 20230 40102 53021 70540 81842 333 20225 56999 59009 81619
AAXX 21001 98232 11565 80904 10243 20235 40137 53022 60474 78082 8557/ 222// 20105 333 20235 56299 59015 70470 85620 88358
AAXX 21001 98325 31462 30000 10260 20237 40107 53028 70500 81201 222// 20000 333 20235 56999 59008 81817 98308
AAXX 21001 98328 NIL
AAXX 21001 98330 31475 10401 10260 20234 30075 40107 52018 70544 81200 333 56999 59012 81818 555 00020
AAXX 21001 98336 11470 80404 10238 20236 30124 40129 53013 60344 71562 82270 333 20220 56199 59014 70337 82615 87356 555 20068
AAXX 21001 98429 31560 52201 10263 20251 40109 52025 70544 83830 333 20254 56999 59003 82823 84360
AAXX 21001 98430 11558 60000 10253 20241 40100 53017 60024 70544 82870 333 20230 56199 59013 70016 82820 84358
AAXX 21001 98431 11458 60901 10264 20245 30055 40102 53023 60044 70544 82230 333 20240 56999 59003 70036 82818 86359
AAXX 21001 98440 11458 60906 10274 20260 30102 40107 52018 60204 72564 85230 333 20260 56299 59009 70199 85815 555 20119
AAXX 21001 98444 NIL
AAXX 21001 98526 32575 80000 10284 20258 40102 52031 81107 333 20245 56299 59005 81820 88274 98315
AAXX 21001 98531 31568 53401 10275 20254 30088 40092 52029 70544 81230 333 20245 56199 59007 81820 85358
AAXX 21001 98536 11470 60402 10258 20231 39905 40104 53026 69904 70542 82260 222// 20000 333 20251 56199 59015 79999 82818 84357
AAXX 21001 98543 11475 80000 10279 20250 30087 40098 53022 69924 71422 83407 333 20252 56999 59011 70002 83618 88272
AAXX 21001 98550 11460 30000 10272 20248 40104 52032 60054 70181 81261 333 20252 56999 58001 70046 81818 555 20042
AAXX 21001 98618 32580 32702 10258 20242 40093 53019 81201 333 20245 56999 59008 81820 83075 555 0////
AAXX 21001 98630 32575 40202 10278 20252 40135 53005 82202 222// 2//01 333 20262 56199 58003 82820
AAXX 21001 98637 NIL
AAXX 21001 98646 11560 80000 10262 20254 30088 40116 52023 60024 72162 83870 333 20252 56999 59004 70020 83820 88459 555 20020
AAXX 21001 98653 11470 61602 10290 20244 30040 40085 53028 60084 70584 82272 333 20230 56999 59010 70078 82818 84358 555 20020
AAXX 21001 98741 11468 80000 10274 20257 40089 52013 69904 78022 82907 333 20240 56199 58000 79999 82917 88275 555 29999
AAXX 21001 98747 31462 41501 10252 20223 39881 40085 52020 70544 82101 333 20230 56999 59014 82818 84075
AAXX 21001 98753 31468 70402 10270 20247 40095 53025 70544 82231 333 20253 55079 2//// 56999 59003 82816 86079
AAXX 21001 98755 12575 63601 10270 20257 51023 60204 85201 333 20240 56299 59007 70196 85820
AAXX 21001 98836 32462 50000 10272 20254 40092 53016 81201 333 20250 56999 59014 81818 84081
AAXX 21001 55228 32980 00000 11160 21329 35991 52005 333 00255
AAXX 21001 55578 32980 00000 11133 21238 36382 52011 333 00154
AAXX 21001 55664 32980 00000 11161 21284 36018 52006 333 00152
AAXX 21001 55773 32970 00201 11156 21244 36023 52006 333 00154
AAXX 21001 56116 32980 00000 11101 21162 36328 52015 333 05203
AAXX 21001 56137 32980 00000 11100 21189 36783 52017 333 05301
AAXX 21001 56172 32980 00901 11078 21103 37339 52017 333 05451
AAXX 21001 56247 32980 00000 11031 21136 37440 52020 333 05301
AAXX 21001 56312 32680 70000 11012 21056 37099 52008 874// 333 05107 31039
AAXX 21001 56462 32980 12901 11067 21093 37137 52011 80002 333 05300
AAXX 21001 56651 32980 10202 10005 21059 37630 52010 80002 333 05201
AAXX 21001 56691 11361 80203 11020 21024 37796 52019 69931 76666 887// 333 00051 31004 70004 93428
AAXX 21001 56985 32962 01401 10084 20053 38725 40192 52012 333 05151 30050
AAXX 21001 57633 11450 83601 10038 20023 39486 40291 52017 69981 76066 887// 333 00000 30045 70013
AAXX 21001 57902 11450 80402 10049 20049 38666 40246 52024 69951 76066 887// 333 00051 70016
AAXX 21001 55279 32980 02007 11061 21351 35687 52004 333 00003
AAXX 21001 55472 32980 02506 11054 21346 35726 54000 333 00102
AAXX 21001 55696 32980 00000 11114 21128 36362 52009 333 00000
AAXX 21001 56079 32980 00708 11107 21132 36666 52010 333 05204
AAXX 21001 56106 32980 00000 11152 21240 36205 52015 333 05102
AAXX 21001 56257 32680 11101 11083 21176 36266 52009 81400 333 05305
AAXX 21001 56374 32480 80704 11037 21057 37443 52016 884// 333 00001 31015
AAXX 21001 56385 31/00 93602 11091 21095 37022 52013 74944 333 00152 30001 92506
AAXX 21001 56954 31/08 92701 10081 20081 40200 52016 74700 333 05151
AAXX 21001 56966 32762 21105 10152 20102 40171 52018 82400 333 05101
AAXX 21001 57237 32962 83407 10076 21006 40274 52013 8807/ 333 00002 30049 79999
AAXX 21001 57306 11959 83201 10070 20064 40280 52015 69911 76060 8807/ 333 00000 70001
AAXX 21001 57604 11708 83202 10068 20065 40287 52023 60011 76064 885// 333 00100 70010
AAXX 21001 57707 11462 80000 10020 20011 38545 52021 69921 76066 887// 333 00001 30026 70009
AAXX 21001 57832 32761 80202 10039 20009 39520 40281 52022 885// 333 00000 30036
AAXX 21001 01115 41884 71605 10031 20002 39980 40001 52005 70222 87070 333 91109
AAXX 21001 29430 32998 72303 11154 21181 30226 40416 57001 87070 333 21174 47028 55000
BBXX 62141 21003 99493 50591 41798 63313 10117 40003 54000 70122 86578 22200 20602 334// 40702 5//// 80014
BBXX AMOUK20 21004 99229 50431 46/// ///// 10273 20195 30108 40120 54/// 92350
BBXX VQKZ6 21003 99091 50805 41597 81316 10224 20194 40204 51005 70022 85718 22244 02213 20402 313// 40605 5//// 80205
BBXX LAVN4 21004 99351 50499 41/// /2410 10280 2023/ 40090 54000 70010 8//// 22213 00190 20402 304// 4////
BBXX ZDLP 21003 99567 50398 41/91 93315 10021 20018 40016 54000 74544 89/// 22283 04017 20501 32835 41003 50603 80020
BBXX PDZS 21003 99544 50362 41295 81005 10041 20025 40049 56003 70311 886// 22200 02076 20201 399// 40501 5//// 80034
AAXX 21001 48969 ///// ///// 10/// 20/// 30/// 40/// 8//// 333 20175
AAXX 21001 48962 ///// ///// 10/// 20/// 30/// 40/// 8//// 333 20222
AAXX 21001 48990 NIL
AAXX 21001 48986 ///// ///// 10/// 20/// 30/// 40/// 8//// 333 20180
AAXX 21001 48995 ///// ///// 10/// 20/// 30/// 40/// 8//// 333 20227
AAXX 21001 48967 NIL
AAXX 21001 48992 NIL
AAXX 21001 48965 NIL
AAXX 21001 48985 ///// ///// 10/// 20/// 30/// 40/// 8//// 333 20235
AAXX 21001 48970 NIL
AAXX 21001 48991 32660 73603 10250 20214 30086 40098 84502 333 20228 59017
AAXX 21001 48964 NIL
AAXX 21001 48997 32497 70502 10242 20212 30106 40114 87800 333 20220 58000
AAXX 21001 48968 ///// ///// 10/// 20/// 30/// 40/// 8//// 333 20222
AAXX 21001 48973 NIL
AAXX 21001 48966 NIL
AAXX 21001 48983 ///// ///// 10/// 20/// 30/// 40/// 8//// 333 20230
AAXX 21001 48972 ///// ///// 10/// 20/// 30/// 40/// 8//// 333 20210
AAXX 21001 48998 ///// ///// 10/// 20/// 30/// 40/// 8//// 333 20205
AAXX 21001 48993 NIL
AAXX 21001 48971 NIL
AAXX 21001 48963 NIL
AAXX 21001 48987 NIL
AAXX 21004 89514 32597 81320 11006 49740 57027 8562/ 333 10029 21025 85724 87446
AAXX 21004 89514 32597 81320 11006 49740 57027 8562/ 333 10029 21025 85724 87446
AAXX 21004 71981 16/// /2711 10010 21079 60001 333 10061 20010 70000
AAXX 21004 71982 16/// /2812 10012 21090 60001 333 10067 21028 7////
AAXX 21004 71986 16/// /1607 10013 21015 60001 333 10051 21027 70000
AAXX 21004 71990 16/// /2207 11114 21126 38499 40124 51011 60001 333 11103 21128 7////
AAXX 21004 71354 16/// /2808 10007 21011 60001 333 10059 20003 70000
AAXX 21004 71406 17/// /0514 11038 21046 39966 49976 53034 69971 7//4/ 333 11030 21076 70007
AAXX 21004 71418 46/// /3037 11028 21049 30043 40076 53044 6///1 333 10010 21037 7////
AAXX 21004 71048 16/// /2608 10018 21029 60001 333 10053 21001 70000
AAXX 21004 71048 16/// /2608 10018 21029 60001 333 10053 21001 70000
AAXX 21004 71354 16/// /2808 10007 21011 60001 333 10059 20003 70000
AAXX 21004 71981 16/// /2711 10010 21079 60001 333 10061 20010 70000
AAXX 21004 71982 16/// /2812 10012 21090 60001 333 10067 21028 7////
AAXX 21004 71986 16/// /1607 10013 21015 60001 333 10051 21027 70000
AAXX 21004 71990 16/// /2207 11114 21126 38499 40124 51011 60001 333 11103 21128 7////
AAXX 21004 71406 17/// /0514 11038 21046 39966 49976 53034 69971 7//4/ 333 11030 21076 70007
AAXX 21004 71418 46/// /3037 11028 21049 30043 40076 53044 6///1 333 10010 21037 7////
BBXX BAREU51 21004 99444 10089 46/// ///// 40134 22200
BBXX BAREU60 21004 99438 10141 46/// ///// 40136 22222
BBXX 61001 21004 99434 10078 46/// /0208 10112 20054 40134 52010 22200 00149 10502 70012
BBXX BATFR22 21004 99430 10074 46/// /0508 10112 40140 56008 22224 00142
BBXX BATFR32 21004 99430 10079 46/// /3514 10115 20066 40129 51010 7//// 8//// 22264 00144
BBXX BATFR21 21004 99429 10070 46/// /2602 40140 51021 22263
BBXX 61002 21004 99421 10047 46/// ///31 10139 2//// 40198 52026 22200 00141 10808 70040 555 1/043
BBXX BATFR20 21004 99421 10084 46/// ///// 10117 20039 40106 53021 22283
BBXX BATFR11 21004 99381 10113 46/// /1609 10147 20095 40083 58061 22272 00172
BBXX BAREU63 21004 99370 10193 46/// /1208 10131 29046 40152 57005 22262
BBXX V7CY9 21003 99368 10005 41898 22624 10144 2012/ 40230 5//// 7//00 81733 22262 0//// 20601 330// 40802 5//// 6//// 80133 /////
BBXX DEGI 21003 99367 10008 41/98 /2727 10161 20122 40230 54000 70200 8//// 22263 04167 29904 80138
BBXX BAREU62 21004 99365 10218 46/// ///// 40161 57004 22224
BBXX UBEF5 21001 99364 10196 41/97 92910 10120 40170 54000 76461 89/// 22263 00170 20403
BBXX DGZL 21003 99360 10152 41/98 62720 10130 20094 40165 57015 70022 8//// 22264 00170 2//// 80110
BBXX WKAB 21003 99360 10176 41598 32919 10120 20083 40179 57010 7//00 83/// 22224 00177 21002 330// 41003 5//// 6//// 80100 /////
BBXX BATFR01 21004 99346 10282 46/// /2618 10165 20077 40174 53004 222// 00172
BBXX BAREU56 21004 99339 10134 46/// ///// 40204 57009 22242
BBXX A8SI8 21004 99324 10295 43598 62715 10190 2014/ 40280 54000 22275 00170 80160
BBXX TBWUK35 21004 99592 70069 41/98 30402 10065 20015 40085 54000 70300 83/// 22214 00110 2//// 399// 41008 80045
BBXX 64045 21004 99591 70117 46/// /1512 10070 20035 40060 58012 22200 00101 11110 70049
BBXX BATFR04 21004 99584 70062 46/// /2604 10044 20019 40095 52001 22200 00099
BBXX 62112 21004 99584 70002 47598 /3007 10064 20015 40094 53007 700// 22200
BBXX 62113 21004 99584 10002 47598 /3012 10073 20010 40087 51007 700// 22200
BBXX 62129 21004 99584 10003 46/// ///// 10063 20012 40087 51007 22200
BBXX AMOUK19 21004 99583 70016 46/// ///// 10064 20026 30093 40097 57015 92350
BBXX 62114 21004 99583 10000 46/// /3014 10065 21010 40091 53004 22200
BBXX AMOUK27 21004 99582 70064 46/// ///// 11203 2//// 30094 40099 54001 92350
BBXX BATUK01 21004 99582 70032 44/97 02512 10049 20009 40100 51008 70000 22200 00090 21002
BBXX PJAI 21004 99581 70014 47599 /2910 10072 20011 40100 52008 700// 22200
BBXX 62111 21004 99580 70003 46/// /3115 10064 20020 40103 53006 22200 10503 70017
BBXX 62117 21004 99579 10000 47398 /2707 10060 20015 40099 52012 762// 22200 10503 70017
BBXX 62105 21004 99554 70122 46/// /2620 10114 20110 40100 51016 22200 00107 10808 70042 333 90710 91127
BBXX BAREU00 21004 99535 70048 46/// ///// 40124 57015 22263
BBXX AMOUK14 21004 99535 70030 46/// ///// 10066 20059 30101 40135 57010 92350
BBXX BATFR54 21004 99532 70049 46/// /2418 10105 20099 40130 56015 22282 00104
BBXX 62095 21004 99531 70159 46/// /2520 10116 20107 40182 53011 22200 00113 10809 70044 333 90710 91129
BBXX 62301 21004 99524 70047 46/// /2514 10098 20094 40144 55010 22200 00086 10503 70014
BBXX 62094 21004 99517 70067 46/// /2720 10114 20107 40168 52008 22200 00105 10505 70023 333 90710 91127
BBXX 62303 21004 99516 70051 46/// /2720 10118 20109 40158 56014 22200 00111 10504 70020 333 90710 91126
BBXX 62023 21003 99514 70079 46/95 /2736 10113 2//// 40188 5//// 22200 10505 70025 333 91141 555 70037 80010
BBXX 62081 21004 99510 70134 46/// ///// 10120 20110 40230 51008 22200 00119 10809 70043
BBXX BATEU01 21004 99504 70134 46/// /2720 10135 20107 40249 51009 222// 00124
BBXX 62305 21004 99504 10000 46/98 /2715 10095 20063 40203 58004 22200 00119 10501 70007
BBXX KS089 21004 99504 10003 43/// /2912 10089 22253
BBXX AMOUK08 21004 99501 70061 46/// ///// 10118 20115 30196 40202 57012 92350
BBXX TESTFR9 21004 99500 70038 46/// /2917 10115 29100 40208 22233
BBXX DDYZ2 21004 99500 70017 41296 52414 10130 20130 40210 56/// 76466 85797 22223 20310 80130
BBXX 62103 21004 99499 70029 46/96 /2420 10111 20100 40196 58021 22200 00122 10702 70012
BBXX VRYO3 21004 99496 70098 46/// /0919 10127 20140 40230 52020 7//// 8//// 22264 00120 2////
BBXX BATFR03 21004 99496 70004 46/// /2420 10089 20075 40208 22282
BBXX 62027 21004 99491 70022 46/// /2514 1//// 2//// 40216 58013 22200 00110 10703 328// 70013
BBXX WKAE 21004 99484 70161 41598 62621 10140 20105 40285 52010 70111 86/// 22264 00130 20502 329// 41007 5//// 6//// 80120 /////
BBXX BATFR12 21004 99481 70065 46/// /2918 10130 20119 40245 58011 22200 00144
BBXX 62163 21004 99475 70084 46/// /2917 10120 20109 40280 52005 22200 00127 10604 70022
BBXX PDNN 21003 99468 70280 41/98 /2040 10141 20121 40199 52005 70200 8//// 22223 20409 80129 90585
BBXX MHNN5 21004 99455 70281 41/98 21911 10120 20101 40239 56030 70100 8//// 22263 00140 299// 3//// 4//// 5//// 80110
BBXX 62001 21004 99452 70050 46/// /2915 10134 20111 40294 50001 22200 00142 10604 70019
BBXX A8XY2 21004 99439 70257 41/96 82023 10152 20114 40290 57020 702// 8//// 22264 04150 20404 80130
BBXX BATFR09 21004 99415 70101 46/// /0303 10137 20122 40330 52001 22243 00162
BBXX BATFR16 21004 99406 70261 44597 61617 10159 20130 40319 56011 70222 86570 22254 00170 21202 318// 41202 5////
BBXX C6KD4 21003 99395 70251 41298 81612 10155 20143 40322 58015 75052 8/77/ 22254 02168 20405 334// 40404 80148
BBXX MDTE9 21003 99385 70177 41296 40905 10148 20141 40343 52003 75051 836// 22223 00160 20201 329// 41202 5//// 80144
BBXX V7CY9 21003 99368 10005 41898 22624 10144 2012/ 40230 5//// 7//00 81733 22262 0//// 20601 330// 40802 5//// 6//// 80133 ICE /////
BBXX BATFR46 21004 99367 70017 44/97 02416 10150 20109 40267 58013 700// 22213 00169
BBXX C6KD7 21003 99366 70275 41598 41424 10178 20147 40287 54000 70311 8344/ 22214 02185 20602 317// 40803 5//// 80160
BBXX C6IO9 21004 99360 70131 41598 23107 10160 20108 40330 54000 70211 81402 22243 06180 20301 323// 40502 5//// 80132
BBXX DBBH 21001 99360 70107 41/98 /0309 10161 20125 40325 57003 7//// 22241 04180
BBXX GHJV 21004 99359 70134 41598 40615 10166 20128 40329 52007 70311 84100 22251 02175 20301 80145
BBXX 42360 21001 99267 70905 46/// /1604 10239 90000 22200 00246 10804 70019 333 91206
AAXX 2100/ 89314 46/// ///// 11060 38208 4//// 5//// 90030
AAXX 21004 89657 46/// /3215 11027 20006 49751 58008
BBXX 41053 21001 99185 70661 46/// /0610 10261 40174 90030 333 91213
BBXX 41053 21001 99185 70661 46/// /0609 10262 40174 90020 333 91212
BBXX 41053 21001 99185 70661 46/// /0610 10262 40174 90010 333 91212
BBXX 41052 21001 99183 70648 46/// /0509 10258 40168 90030 333 91212
BBXX 41052 21001 99183 70648 46/// /0508 10255 40168 90020 333 91211
BBXX 41052 21001 99183 70648 46/// /0610 10254 40168 90010 333 91213
AAXX 21004 42675 31996 00000 10070 20047 40180 70500 333 58004
AAXX 21004 42754 31996 01404 10144 20056 39495 40148 70500 333 59002
AAXX 21004 43014 32996 00000 10138 20085 39476 40143 333 59002
AAXX 21004 48405 31557 70000 10176 20157 39972 40140 52019 71011 85876 333 20169 59008
BBXX VCXF 21004 99464 70484 41396 71734 10020 2002/ 49947 57040 76322 87500 22200 02021 20504 301// 40805 80019
BBXX VCXF 21004 99464 70484 41396 71734 10020 2002/ 49947 57040 76322 87500 22200 02021 20504 301// 40805 80019
BBXX SHIP 21004 99095 50791 41897 71512 10210 20188 40110 53010 70222 86078 22274 20103 320// 41004 80195
BBXX ZIPR7 21003 99310 30155 41598 42224 10180 20116 40140 56001 7//// 844// 22234 04191 2//// 3//// 4//// 5//// 80145
BBXX A8MV6 21003 99194 10671 41997 03616 10240 20158 40140 54000 70200 80000 22273 04290 2//// 3//// 4//// 5//// 80190
BBXX UGWJ 21001 99018 30862 42398 62408 10260 40096 54000 86170 22252 00284 20201 32100 40603
AAXX 21004 83437 21597 70902 10224 20209 39403 40116 70262 875// 333 10305 29078 55032 59003 60011
AAXX 21004 83579 32596 30503 10218 20172 39010 40116 83200 333 10306 29072 55096 59001
AAXX 21004 83592 325// 50000 10223 20209 39455 40131 83260 333 10273 29086 55031 58008
AAXX 21004 83384 325// 60000 10248 20232 39546 40123 8437/ 333 10285 29087 55/// 59005
AAXX 21004 83386 32595 22303 10257 20221 39576 40100 81408 333 10320 29073 55063 59011
AAXX 21004 83388 32496 30000 10260 20196 39425 40083 83200 333 10329 29063 55048 58000
AAXX 21004 83393 329// 00000 10232 20191 39412 40127 333 10298 29070 55055 58000
AAXX 21004 83442 32595 60000 10240 20205 39768 40111 81106 333 10316 29074 55/// 58008
AAXX 21004 83479 31598 53602 10222 20208 39332 40126 70191 85200 333 10293 29087 55021 59007
AAXX 21004 83483 21596 80000 10217 20212 39556 40123 70262 887// 333 10261 29093 55002 59010 60031
AAXX 21004 83531 215// 30902 10206 20176 39091 40117 70162 83100 333 10279 29081 55017 59001 60051
AAXX 21004 83538 21594 80000 10179 20172 38719 40112 75052 887// 333 10216 29094 55001 58002 69921
AAXX 21004 83574 329// 00000 10268 20181 39558 40155 5//// 333 1//// 29060 55102
AAXX 21004 83582 215// 21801 10209 20200 39346 40109 53027 70162 82200 333 10306 29082 55066 69921
AAXX 21004 83595 215// 83202 10240 20224 30071 40156 76166 888// 333 10295 29086 55000 58020 60051
AAXX 21004 83687 32696 11800 10222 20180 39101 40095 56002 81200 333 10301 29066 55086
AAXX 21004 83692 21696 73604 10190 20180 39096 40130 53007 72162 87200 333 10296 29082 55091 60091
AAXX 21004 83599 31998 099// 10270 20257 40073 51006 71000 80000 222// 20501 80260
AAXX 21004 83650 42997 01010 10245 20217 40193 52003 7//// 80000 222// 80225 333 10295
AAXX 21004 83925 32/98 /0700 10242 20225 40090 52010 7000/ 8//// 222// 20000 80230 333 10290
AAXX 21004 83811 32997 02302 10222 20146 39211 40092 55002 333 10340 29052 55124
AAXX 21004 83844 32597 100// 10259 20199 30088 40095 53011 81100 333 10362 29056 55///
AAXX 21004 83887 32997 00000 10240 20107 39074 40101 52009 333 10305 29039 55124
AAXX 21004 83907 31497 11404 10290 20159 39820 40091 51016 71300 81300 333 10393 29038 55106
AAXX 21004 83914 31596 50908 10240 20120 39342 40088 52007 71310 81330 333 10331 29040 55110
AAXX 21004 83919 32997 03202 10202 20127 38973 40140 52003 333 10284 29052 55114
AAXX 21004 83927 32997 02302 10330 20141 39966 40035 54000 333 10406 29038 55117
AAXX 21004 83936 32997 03205 10300 20120 39956 40073 52010 333 10390 29035 55102
AAXX 21004 83948 32997 00506 10235 20213 30086 40092 53004 333 10270 29082 55111
AAXX 21004 83964 31596 31406 10238 20171 39599 40076 52008 71340 83300 333 10350 29058 55118
AAXX 21004 83995 32497 30906 10230 20190 30088 40091 54000 82101 333 10279 29076 55///
BBXX C6PZ8 21004 99263 70785 41/// 31116 10230 2017/ 40240 54/// 7//// 8//// 222// 0//// 2//// 3//// 4//// 5//// 6//// 80190 ICE /////
BBXX WZJC 21003 99263 70887 41298 81309 10222 2022/ 40141 52002 72565 887// 22272 00244 2//// 3//// 4//// 5//// 6//// 80217 ICE /////
BBXX C6FR4 21004 99080 70831 41598 42414 10240 2//// 40070 54/// 7//// 841// 22273 04280 20401 325// 40802 5//// 6//// 8//// ICE /////
BBXX WCX9106 21003 99603 71465 41194 81230 10022 2//// 49995 57030 78477 88/// 22200 0//// 2//01 322// 4//02 5//// 6//// 8//// ICE /////
BBXX 9V7645 21003 99313 70800 41697 81520 10220 20166 40200 52010 70222 888// 22234 04230 2//// 3//// 4//// 5//// 6//// 80185 ICE /////
BBXX 44024 21001 99423 70659 46/30 /3409 10012 40218 53038 90004 22200 00080 10808 70042 333 91211 555 11103 22107
BBXX UGWJ 21001 99018 30862 42398 62408 10260 40096 54000 86170 22252 00284 20201 32100 40603
BBXX UCDM 21000 99512 11573 42498 33516 11065 40069 53002 70210 83404 22212 06012 20403 30400 40603
BBXX SHIP 21004 99546 11790 41398 73022 10000 21027 49960 52008 77022 87492 92355 22264 00040 20402 336// 40604 81010
BBXX SHIP 21004 99148 11120 41/98 80416 10250 20243 40064 55012 70222 886// 22244 00260 20302 305// 40403 80245
BBXX SHIP 21004 99107 11384 41098 80512 10280 20253 40091 56005 7022/ 85129 22273 00320 20201 309// 40604 80260
BBXX SHIP 21004 99328 11486 41698 63218 10120 20102 40221 51013 70121 8313/ 92350 22264 00200 20602 33228 40804 50602 80110
BBXX C6FR4 21004 99080 70831 41598 42414 10240 2//// 40070 54/// 7//// 841// 22273 04280 20401 325// 40802 5//// 6//// 8//// ICE /////
BBXX VCXF 21004 99464 70484 41396 71734 10020 2002/ 49947 57040 76322 87500 22200 02021 20504 301// 40805 80019
BBXX 41052 21001 99183 70648 46/// /0508 10255 40168 90020 333 91211
BBXX 41052 21001 99183 70648 46/// /0610 10254 40168 90010 333 91213
BBXX 41053 21001 99185 70661 46/// /0609 10262 40174 90020 333 91212
BBXX 41052 21001 99183 70648 46/// /0509 10258 40168 90030 333 91212
BBXX 41053 21001 99185 70661 46/// /0610 10262 40174 90010 333 91212
BBXX 41053 21001 99185 70661 46/// /0610 10261 40174 90030 333 91213
BBXX 9V7645 21003 99313 70800 41697 81520 10220 20166 40200 52010 70222 888// 22234 04230 2//// 3//// 4//// 5//// 6//// 80185 ICE /////
BBXX 42360 21001 99267 70905 46/// /1604 10239 90000 22200 00246 10804 70019 333 91206
BBXX 44056 21001 99362 70757 46/// ///// 1//// 92350 22200 00116 11302 21001 309// 41302 70010
BBXX 41033 21001 99323 70804 46/// /1401 10153 40227 52013 90000 555 11015 22017
BBXX WCX9106 21003 99603 71465 41194 81230 10022 2//// 49995 57030 78477 88/// 22200 0//// 2//01 322// 4//02 5//// 6//// 8//// ICE /////
BBXX 44138 21001 99443 70536 46/// /2814 10044 40044 52035 22200 00096 10808 70040 333 91217
BBXX C6PZ8 21004 99263 70785 41/// 31116 10230 2017/ 40240 54/// 7//// 8//// 222// 0//// 2//// 3//// 4//// 5//// 6//// 80190 ICE /////
BBXX WZJC 21003 99263 70887 41298 81309 10222 2022/ 40141 52002 72565 887// 22272 00244 2//// 3//// 4//// 5//// 6//// 80217 ICE /////
BBXX 44137 21001 99423 70620 46/// /3211 10035 40179 52045 22200 00095 11008 70042 333 91215
BBXX 44040 21001 99410 70736 46/// /1203 10063 21020 40235 90019 22200 1//00 70001 333 91204 555 11031 22036
BBXX 44060 21001 99413 70721 46/// ///02 10050 40233 90030 22200 00099 333 91202 555 11015 22015
BBXX 44099 21001 99369 70757 46/// ///// 1//// 90022 22200 00115 11301 20701 308// 41301 70007
BBXX 44022 21001 99409 70737 46/// ///03 10061 21011 40227 90030 22200 00080 333 91204 555 11026 22026
BBXX 46224 21001 99332 71175 46/// ///// 1//// 90006 22200 00149 11302 21001 326// 41301 70008
BBXX 46214 21001 99379 71235 46/// ///// 1//// 90025 22200 00118 11006 21004 329// 41304 70028
BBXX 46238 21001 99334 71195 46/// ///// 1//// 90020 22200 00145 11403 21002 329// 41402 70015
BBXX 46239 21001 99363 71221 46/// ///// 1//// 90021 22200 00135 11406 21004 329// 41405 70031
BBXX 46211 21001 99469 71242 46/// ///// 1//// 90006 22200 00086 11408 20904 328// 41406 70039
BBXX 46236 21001 99368 71219 46/// ///// 1//// 90020 22200 00125 11404 21003 328// 41403 70022
BBXX 46246 21001 99500 71451 46/// ///// 1//// 90029 22200 00073 11306 20905 325// 41305 70032
BBXX 46219 21001 99332 71199 46/// ///// 1//// 90028 22200 00140 11405 21003 330// 41404 70023
BBXX 46229 21001 99438 71246 46/// ///// 1//// 90021 22200 00099 11406 21002 329// 41406 70030
BBXX 46243 21001 99462 71241 46/// ///// 1//// 90029 22200 00078 11506 21003 326// 41505 70029
BBXX 46215 21001 99352 71209 46/// ///// 1//// 90008 22200 00170 11404 21002 326// 41403 70019
BBXX 46225 21001 99329 71174 46/// ///// 1//// 90014 22200 00148 11302 20901 326// 41301 70009
BBXX 46213 21001 99403 71247 46/// ///// 1//// 90024 22200 00101 11508 20806 330// 41505 70038
BBXX A8QM9 21004 99372 70313 41698 61318 10180 20164 40250 54000 70222 84545 22263 04180 2//02 80170
AAXX 21004 89610 46/// /0419 11026 39612 4//// 5//// 333 90700 91122
AAXX 21004 89610 46/// /0419 11026 39612 4//// 5//// 333 90700 91122
AAXX 21004 89610 46/// /0419 11026 39612 4//// 5//// 333 90700 91122
BBXX CFO383 21004 99439 70602 47698 /3016 11004 2109/ 40145 5//// 700// 8//// 22200 0//// 1//// 2//// 3//// 70// 81026 91031
AAXX 21004 41939 31440 80000 10136 20136 40160 70542 8451/ 333 56999 58002 70000 84615 88456
AAXX 21001 47008 31560 23201 11067 21083 30186 40242 53006 71000 82500 333 21078
AAXX 21001 47014 32950 80000 11190 21202 39836 40275 57002 8804/ 333 21195
AAXX 21001 47016 31560 80502 11208 21233 39373 40291 53003 71042 886// 333 21212
AAXX 21001 47020 32565 80000 11124 21137 39877 40282 53001 885// 333 21149
AAXX 21001 47025 32967 23201 11046 21066 30201 40231 53001 80002 333 21061
AAXX 21001 47035 32970 50501 11058 21106 30236 40245 57012 85030 333 21069
AAXX 21001 47041 32970 00000 11072 21106 30207 40236 57003 333 21097
AAXX 21001 47055 32565 40000 11016 21061 30191 40238 57008 84500 333 21033
AAXX 21001 47058 11960 80000 11023 21035 30201 40249 57003 69982 70272 8802/ 333 21032
AAXX 21001 47069 31539 81101 11006 21021 30146 40248 53003 71022 885// 333 21020
BBXX CFO383 21004 99439 70602 47698 /3016 11004 2109/ 40145 5//// 700// 8//// 22200 0//// 1//// 2//// 3//// 70// 81026 91031
AAXX 21001 47003 12580 20000 11109 21122 30230 40234 52002 69902 81502 333 21121
AAXX 21001 47005 32680 41801 11171 21183 38576 57008 82502 333 21188
AAXX 21001 47022 32975 00000 11193 21212 38820 57012 333 21221
AAXX 21001 47028 32665 80000 11071 21092 30144 40244 53007 885// 333 21088
AAXX 21001 47031 32970 00000 11188 21200 38928 57001 333 21195
AAXX 21001 47037 11542 80000 11060 21071 30117 40245 57006 69912 77077 8802/ 333 21100
AAXX 21001 47039 32560 80000 11094 21119 30057 40259 57010 885// 333 21126
AAXX 21001 47046 32969 22301 11058 21088 30202 40226 53009 80002 333 21074
AAXX 21001 47050 11565 80504 11052 21083 30213 40248 52005 69902 70272 885// 333 21075
AAXX 21001 47052 12565 80000 11058 21073 39909 40262 57007 69902 885// 333 21069
AAXX 21001 47060 11540 80201 11020 21026 30173 40233 57013 60042 77377 8802/ 333 21025
AAXX 21001 47061 32980 00000 10034 21037 30188 40232 57007 333 21006
AAXX 21001 47065 11520 80000 11022 21031 30183 40250 57005 60012 77177 8802/ 333 21028
AAXX 21001 47067 11560 80000 11040 21049 30144 40269 57006 69922 77077 8802/ 333 21055
AAXX 21001 47068 11540 83604 11022 21040 30200 40236 58003 69902 70272 885// 333 21027
AAXX 21001 47070 12520 80000 11011 21023 30163 40253 54000 69952 885// 333 21029
AAXX 21001 47075 11570 80000 11033 21044 39743 40184 57003 69912 72272 885// 333 21072
AAXX 21004 42798 31995 00000 10086 20064 40161 70500 333 59006
AAXX 21004 47971 11/65 83302 10168 20132 30220 40230 51018 69902 72582 8227/ 333 20165 79999
AAXX 21004 47418 12/80 10206 11085 21128 30185 40237 51008 60002 81200 333 21129 70000
AAXX 21004 47815 12/70 61905 10044 21008 30236 40253 55001 60002 81530 333 20029 70000
AAXX 21001 45032 36/// /0701 10171 20134 30189 40206 52001
AAXX 21001 45035 36/// /0603 10185 20106 30164 40206 52004
AAXX 21001 45039 36/// /0202 10184 20108 30189 40203 52001
AAXX 21001 45044 36/// /0104 10178 20122 30107 40201 52001
AAXX 21001 45032 36/// /0701 10171 20134 30189 40206 52001
AAXX 21001 45035 36/// /0603 10185 20106 30164 40206 52004
AAXX 21001 45039 36/// /0202 10184 20108 30189 40203 52001
AAXX 21001 45044 36/// /0104 10178 20122 30107 40201 52001
AAXX 21004 71974 46/// /1406 11348 21380 30098 40143 51006 6///1 333 11324 21372 7////
AAXX 21004 71073 16/// /2715 10013 21053 60001 333 10045 20004 70000
AAXX 21004 71012 16/// /2506 11012 21046 60001 333 10060 21044 70000
AAXX 21004 71013 16/// ///// 10023 21038 60001 333 10058 20000 7////
AAXX 21004 71060 16/// /3603 11019 21126 38556 40115 53012 60001 333 10038 21019 70000
AAXX 21004 71565 16/// /3008 10007 21074 60001 333 10060 21035 70007
AAXX 21004 71566 16/// /3208 10022 21035 60001 333 10039 21007 70000
AAXX 21004 71567 17/// /3306 10002 21013 69961 7//4/ 333 10051 20000 70006
AAXX 21004 71399 16/// ///// 11005 21043 60001 333 10056 21029 70000
AAXX 21004 71495 16/// /2814 11004 21098 60001 333 10059 21004 70000
AAXX 21004 71793 16/// ///// 11011 21050 60001 333 10047 21042 70000
AAXX 21004 71848 16/// ///// 10027 21058 60001 333 10051 20020 70000
AAXX 21004 71073 16/// /2715 10013 21053 60001 333 10045 20004 70000
AAXX 21004 71848 16/// ///// 10027 21058 60001 333 10051 20020 70000
AAXX 21004 71974 46/// /1406 11348 21380 30098 40143 51006 6///1 333 11324 21372 7////
AAXX 21004 71565 16/// /3008 10007 21074 60001 333 10060 21035 70007
AAXX 21004 71566 16/// /3208 10022 21035 60001 333 10039 21007 70000
AAXX 21004 71567 17/// /3306 10002 21013 69961 7//4/ 333 10051 20000 70006
AAXX 21004 71793 16/// ///// 11011 21050 60001 333 10047 21042 70000
AAXX 21004 71012 16/// /2506 11012 21046 60001 333 10060 21044 70000
AAXX 21004 71013 16/// ///// 10023 21038 60001 333 10058 20000 7////
AAXX 21004 71060 16/// /3603 11019 21126 38556 40115 53012 60001 333 10038 21019 70000
AAXX 21004 71399 16/// ///// 11005 21043 60001 333 10056 21029 70000
AAXX 21004 71495 16/// /2814 11004 21098 60001 333 10059 21004 70000
AAXX 21004 89646 46/// /0117 11175 29090 37470 4//// 5////
AAXX 21004 89648 46/// /2211 11246 29073 37104 4//// 5////
AAXX 21004 89659 46/// /2299 00104 11173 29054 37569 4//// 5////
AAXX 21004 89661 46/// /0706 11070 29087 39121 4//// 5////
AAXX 21004 89662 42980 32622 10006 21155 39646 49749 54000 80008 222 ICE 98015
AAXX 21004 89666 46/// /1615 11040 29081 39589 4//// 5////
BBXX 46241 21001 99330 71173 46/// ///// 1//// 90011 22200 00144 11402 21001 327// 41401 70008
BBXX 46216 21001 99343 71198 46/// ///// 1//// 90027 22200 00147 11203 20702 326// 41202 70013
BBXX 46223 21001 99335 71178 46/// ///// 1//// 90030 22200 00152 11402 21002 326// 41402 70012
BBXX 46231 21001 99327 71174 46/// ///// 1//// 90024 22200 00150 11303 21002 327// 41302 70014
BBXX 46222 21001 99336 71183 46/// ///// 1//// 90026 22200 00152 11302 21002 328// 41302 70012
BBXX 46242 21001 99332 71174 46/// ///// 1//// 90028 22200 00145 11401 20401 323// 41401 70007
BBXX MFLM9 21003 99302 31145 41/97 11714 10230 20183 40134 54000 70200 80005 22283 00218 20502 318// 40604 80200
BBXX MRSA8 21004 99092 31230 41498 52308 10285 20271 40071 54000 70311 8544/ 22213 04280 20401 325// 40401 80275
BBXX VRCI9 21004 99396 71751 41/95 /2636 10110 20042 49965 55100 74264 8//// 22235 00152 20809 329// 41206 80100
BBXX VQOG5 21004 99061 10924 41598 30712 10255 20248 40085 52004 70300 82802 22263 00280 20501 320// 40503 80250
BBXX ZQDI9 21003 99082 11091 41597 70315 10270 20249 40086 53002 70186 878// 22212 00262 20403 303// 40605 80255
BBXX 3FHX2 21003 99042 11392 41/97 70928 10280 20253 40070 54000 70211 8/611 22233 00/// 2////
BBXX 9MEZ2 21004 99305 11322 41498 60417 10160 20104 40200 51001 70102 8411/ 22214 00240 20401 80130
BBXX 9MBW7 21004 99370 11338 41498 63303 10080 20050 40150 54/// 70303 8626/ 22213 00150 2//// 334// 40304 80050
BBXX TBWUK37 21003 99311 11339 41298 83405 10140 20102 40232 54000 76166 8772/ 22214 04240 20101 334// 40101 80120
AAXX 21001 89063 41/94 92601 10007 20007 39933 49944 52007 75275 333 10030 20005
AAXX 21004 48650 11056 73301 10239 20234 30071 40090 60124 71022 82942 333 20235 50350 58004 70122 81700 81917 84364 86078
AAXX 21004 96195 31450 80000 10245 20235 30054 40090 52016 70522 8252/ 333 20237 50231 55003 56009 59005 82613
AAXX 21001 98646 11560 80000 10262 20254 30088 40116 52023 60024 72162 83870 333 20252 56999 59004 70020 83820 88459 555 20020
AAXX 21001 40706 11402 89901 11040 21051 38746 40359 55003 60001 74444 886XX 333 88715
AAXX 21001 40718 11557 60000 10090 20082 30284 40255 58008 60001 71022 82570 333 82625 86359
AAXX 21001 40732 12960 00000 10068 20050 30257 40232 57007 60001 333
AAXX 21001 40745 12962 00000 11080 21148 39151 40366 57011 60001 333
AAXX 21001 40754 12960 00000 10024 21064 38917 40293 57007 60001 333
AAXX 21001 40766 12960 00000 11030 21080 38766 40273 54000 60001 333
AAXX 21001 40800 11957 00000 11028 21050 38535 40296 56003 60001 71000 333
AAXX 21001 40811 11958 02501 10082 20060 30195 40222 51001 60001 71000 333
AAXX 21001 40841 12960 00000 11068 21114 38331 40312 56003 60001 333
AAXX 21001 40848 NIL
AAXX 21001 40856 11940 02003 11103 21388 38694 40296 58002 60001 70500 333
AAXX 21001 40875 11930 03604 10135 21168 30207 40219 51003 60001 70500 333
AAXX 21001 40706 11402 89901 11040 21051 38746 40359 55003 60001 74444 886XX 333 88715
AAXX 21001 40718 11557 60000 10090 20082 30284 40255 58008 60001 71022 82570 333 82625 86359
AAXX 21001 40732 12960 00000 10068 20050 30257 40232 57007 60001 333
AAXX 21001 40745 12962 00000 11080 21148 39151 40366 57011 60001 333
AAXX 21001 40754 12960 00000 10024 21064 38917 40293 57007 60001 333
AAXX 21001 40766 12960 00000 11030 21080 38766 40273 54000 60001 333
AAXX 21001 40800 11957 00000 11028 21050 38535 40296 56003 60001 71000 333
AAXX 21001 40811 11958 02501 10082 20060 30195 40222 51001 60001 71000 333
AAXX 21001 40841 12960 00000 11068 21114 38331 40312 56003 60001 333
AAXX 21001 40848 NIL
AAXX 21001 40856 11940 02003 11103 21388 38694 40296 58002 60001 70500 333
AAXX 21001 40875 11930 03604 10135 21168 30207 40219 51003 60001 70500 333
BBXX 62123 21004 99563 10022 47598 /3020 10074 20017 40102 55000 700// 22200
BBXX 63106 21004 99610 10017 46/// /3011 10035 40054 53015 22200
BBXX 63113 21004 99610 10017 46/// /3208 10045 21009 40055 52017 22200 10705 70024
BBXX 62107 21004 99501 70061 46/// /3035 10116 20108 40199 57007 22200 00117 10703 70017 333 90710 91142
BBXX DANV 21004 99361 70009 41998 12622 10162 20129 40270 50002 7//00 80006 22224 04150 20204 80142
BBXX PDXQ 21003 99441 70263 41397 81822 10160 20127 40301 52001 70222 847// 22223 04130 205// 80140
BBXX A8NW9 21004 99466 70203 41/98 82117 10139 20125 40362 54000 70311 8//// 22214 04130 20603 328// 41003 80131
BBXX V2NA1 21004 99451 70231 41297 82015 10130 20051 40310 52022 703// 8/7// 22223 04120 20704 80090
AAXX 21001 40701 11/20 90000 11070 21072 38674 40356 56004 60001 71042 333 89/20
AAXX 21001 40704 12970 03305 10030 21042 38655 40235 56005 60001 333
AAXX 21001 40708 12960 01809 10046 21034 38698 40208 57006 60001 333
AAXX 21001 40710 12965 09901 11148 21160 38384 40356 56004 60001 333
AAXX 21001 40713 11905 00502 11026 38747 40316 58001 60001 74100 333
AAXX 21001 40719 11/01 90000 10060 20060 30250 40239 56016 60001 74742 333 89/01
AAXX 21001 40731 12960 00000 11024 21055 38826 40309 57004 60001 333
AAXX 21001 40738 12960 00000 10016 20016 30261 40263 57018 60001 333
AAXX 21001 40740 12962 00703 11100 21130 38811 40330 57014 60001 333
AAXX 21001 40747 12960 00000 11049 21065 38713 40293 53002 60001 333
AAXX 21001 40757 12962 00000 10002 21065 38989 40303 57008 60001 333
AAXX 21001 40763 12965 00000 11030 21191 39010 40331 57009 60001 333
AAXX 21001 40782 12960 00000 11022 21070 38946 40269 53004 60001 333
AAXX 21001 40783 12965 01105 11002 21081 38049 40250 56004 60001 333
AAXX 21001 40789 12965 00000 11014 21111 39301 40307 56009 60001 333
AAXX 21001 40798 12960 00000 11100 21130 38035 40320 56002 60001 333
AAXX 21001 40818 NIL
AAXX 21001 40827 12965 00000 11052 21196 38916 40333 58004 60001 333
AAXX 21001 40836 12965 00000 11010 21095 38255 40259 53002 60001 333
AAXX 21001 40851 12960 00000 11038 21112 38325 40248 54000 60001 333
AAXX 21001 40853 12960 00000 11024 21123 37782 40225 54000 60001 333
AAXX 21001 40854 12960 02804 10034 21105 39032 40263 56006 60001 333
AAXX 21001 40857 11956 00000 10124 20092 30209 40219 54000 60001 71000 222// 00/// 20000 333
AAXX 21001 40859 NIL
AAXX 21001 40878 11958 00209 10022 21395 38893 40268 56004 60001 70700 333
AAXX 21001 40879 12960 03302 10031 21227 39553 40249 54000 60001 333
AAXX 21001 40883 11950 00000 10168 20056 30177 40199 56004 60001 70500 333
AAXX 21001 40898 11957 03504 10146 21097 30180 40190 58008 60001 70500 222// 00240 10501 333
AAXX 21001 40703 11530 80000 11022 21037 39010 40332 56003 60001 71022 886// 333 88720
AAXX 21001 40712 11/03 92902 11030 21034 38763 40327 56006 60001 74744 333 89/04
AAXX 21001 40729 12962 00000 11044 21083 38412 40289 57008 60001 333
AAXX 21001 40736 12560 60000 10058 20047 30275 40249 58003 60001 86600 333 86725
AAXX 21001 40739 12965 00000 11038 21123 38769 40311 56009 60001 333
AAXX 21001 40743 12965 00806 11026 21243 39171 40328 57007 60001 333
AAXX 21001 40762 12962 03202 11110 21272 38630 40338 57012 60001 333
AAXX 21001 40768 12960 00000 11073 21093 38344 40315 53003 60001 333
AAXX 21001 40769 11958 00000 11032 21054 38375 40288 58004 60001 71000 333
AAXX 21001 40785 12960 00000 10002 21046 39185 40306 56004 60001 333
AAXX 21001 40809 12968 01305 11114 21212 38576 40326 57010 60001 333
AAXX 21001 40821 12962 01202 10014 21079 38874 40298 57009 60001 333
AAXX 21001 40831 12960 00000 10070 20042 30227 40235 51007 60001 333
AAXX 21001 40701 11/20 90000 11070 21072 38674 40356 56004 60001 71042 333 89/20
AAXX 21001 40704 12970 03305 10030 21042 38655 40235 56005 60001 333
AAXX 21001 40708 12960 01809 10046 21034 38698 40208 57006 60001 333
AAXX 21001 40710 12965 09901 11148 21160 38384 40356 56004 60001 333
AAXX 21001 40713 11905 00502 11026 38747 40316 58001 60001 74100 333
AAXX 21001 40719 11/01 90000 10060 20060 30250 40239 56016 60001 74742 333 89/01
AAXX 21001 40731 12960 00000 11024 21055 38826 40309 57004 60001 333
AAXX 21001 40738 12960 00000 10016 20016 30261 40263 57018 60001 333
AAXX 21001 40740 12962 00703 11100 21130 38811 40330 57014 60001 333
AAXX 21001 40747 12960 00000 11049 21065 38713 40293 53002 60001 333
AAXX 21001 40757 12962 00000 10002 21065 38989 40303 57008 60001 333
AAXX 21001 40763 12965 00000 11030 21191 39010 40331 57009 60001 333
AAXX 21001 40782 12960 00000 11022 21070 38946 40269 53004 60001 333
AAXX 21001 40783 12965 01105 11002 21081 38049 40250 56004 60001 333
AAXX 21001 40789 12965 00000 11014 21111 39301 40307 56009 60001 333
AAXX 21001 40798 12960 00000 11100 21130 38035 40320 56002 60001 333
AAXX 21001 40818 NIL
AAXX 21001 40827 12965 00000 11052 21196 38916 40333 58004 60001 333
AAXX 21001 40836 12965 00000 11010 21095 38255 40259 53002 60001 333
AAXX 21001 40851 12960 00000 11038 21112 38325 40248 54000 60001 333
AAXX 21001 40853 12960 00000 11024 21123 37782 40225 54000 60001 333
AAXX 21001 40854 12960 02804 10034 21105 39032 40263 56006 60001 333
AAXX 21001 40857 11956 00000 10124 20092 30209 40219 54000 60001 71000 222// 00/// 20000 333
AAXX 21001 40859 NIL
AAXX 21001 40878 11958 00209 10022 21395 38893 40268 56004 60001 70700 333
AAXX 21001 40879 12960 03302 10031 21227 39553 40249 54000 60001 333
AAXX 21001 40883 11950 00000 10168 20056 30177 40199 56004 60001 70500 333
AAXX 21001 40898 11957 03504 10146 21097 30180 40190 58008 60001 70500 222// 00240 10501 333
AAXX 21001 40700 12960 02503 11006 21025 30161 40252 57010 60001 333
AAXX 21001 40723 NIL
AAXX 21001 40726 11620 80000 11002 21018 38734 40303 57006 60001 71022 8352/ 333 83635 88458
AAXX 21001 40727 12960 00000 11068 21080 38572 40328 54000 60001 333
AAXX 21001 40734 11950 00000 10044 20034 30269 40243 57015 60001 71000 333
AAXX 21001 40737 12960 00000 10006 20003 30236 40255 58001 60001 333
AAXX 21001 40741 12960 01102 11073 21103 30045 40405 58005 60001 333
AAXX 21001 40780 12960 01404 10036 21079 38743 40225 58005 60001 333
AAXX 21001 40791 12960 00000 10000 21140 39452 40303 58004 60001 333
AAXX 21001 40792 12970 00403 11062 21147 38807 40326 58004 60001 333
AAXX 21001 40794 12960 02502 10064 20030 30131 40230 53005 60001 92345 333
AAXX 21001 40812 12960 00000 10096 20015 39836 40211 58002 60001 92345 333
AAXX 21001 40829 12960 03005 11010 21303 39707 40308 56002 60001 333
AAXX 21001 40833 12960 00000 10076 20044 30199 40231 51004 60001 92345 333
AAXX 21001 40835 12970 00000 10060 20000 39385 40219 56003 60001 333
AAXX 21001 40845 NIL
AAXX 21001 40882 12960 00702 10192 20094 30169 40204 54000 60001 333
AAXX 21001 40889 NIL
AAXX 21001 40890 NIL
AAXX 21001 40893 12960 00306 10176 21098 30189 40195 56007 60001 222// 00/// 20401 333
AAXX 21001 40897 NIL
AAXX 21001 40700 12960 02503 11006 21025 30161 40252 57010 60001 333
AAXX 21001 40723 NIL
AAXX 21001 40726 11620 80000 11002 21018 38734 40303 57006 60001 71022 8352/ 333 83635 88458
AAXX 21001 40727 12960 00000 11068 21080 38572 40328 54000 60001 333
AAXX 21001 40734 11950 00000 10044 20034 30269 40243 57015 60001 71000 333
AAXX 21001 40737 12960 00000 10006 20003 30236 40255 58001 60001 333
AAXX 21001 40741 12960 01102 11073 21103 30045 40405 58005 60001 333
AAXX 21001 40780 12960 01404 10036 21079 38743 40225 58005 60001 333
AAXX 21001 40791 12960 00000 10000 21140 39452 40303 58004 60001 333
AAXX 21001 40792 12970 00403 11062 21147 38807 40326 58004 60001 333
AAXX 21001 40794 12960 02502 10064 20030 30131 40230 53005 60001 92345 333
AAXX 21001 40812 12960 00000 10096 20015 39836 40211 58002 60001 92345 333
AAXX 21001 40829 12960 03005 11010 21303 39707 40308 56002 60001 333
AAXX 21001 40833 12960 00000 10076 20044 30199 40231 51004 60001 92345 333
AAXX 21001 40835 12970 00000 10060 20000 39385 40219 56003 60001 333
AAXX 21001 40845 NIL
AAXX 21001 40882 12960 00702 10192 20094 30169 40204 54000 60001 333
AAXX 21001 40889 NIL
AAXX 21001 40890 NIL
AAXX 21001 40893 12960 00306 10176 21098 30189 40195 56007 60001 222// 00/// 20401 333
AAXX 21001 40897 NIL
AAXX 21001 40701 11/20 90000 11070 21072 38674 40356 56004 60001 71042 333 89/20
AAXX 21001 40704 12970 03305 10030 21042 38655 40235 56005 60001 333
AAXX 21001 40708 12960 01809 10046 21034 38698 40208 57006 60001 333
AAXX 21001 40710 12965 09901 11148 21160 38384 40356 56004 60001 333
AAXX 21001 40713 11905 00502 11026 38747 40316 58001 60001 74100 333
AAXX 21001 40719 11/01 90000 10060 20060 30250 40239 56016 60001 74742 333 89/01
AAXX 21001 40731 12960 00000 11024 21055 38826 40309 57004 60001 333
AAXX 21001 40738 12960 00000 10016 20016 30261 40263 57018 60001 333
AAXX 21001 40740 12962 00703 11100 21130 38811 40330 57014 60001 333
AAXX 21001 40747 12960 00000 11049 21065 38713 40293 53002 60001 333
AAXX 21001 40757 12962 00000 10002 21065 38989 40303 57008 60001 333
AAXX 21001 40763 12965 00000 11030 21191 39010 40331 57009 60001 333
AAXX 21001 40782 12960 00000 11022 21070 38946 40269 53004 60001 333
AAXX 21001 40783 12965 01105 11002 21081 38049 40250 56004 60001 333
AAXX 21001 40789 12965 00000 11014 21111 39301 40307 56009 60001 333
AAXX 21001 40798 12960 00000 11100 21130 38035 40320 56002 60001 333
AAXX 21001 40818 NIL
AAXX 21001 40827 12965 00000 11052 21196 38916 40333 58004 60001 333
AAXX 21001 40836 12965 00000 11010 21095 38255 40259 53002 60001 333
AAXX 21001 40851 12960 00000 11038 21112 38325 40248 54000 60001 333
AAXX 21001 40853 12960 00000 11024 21123 37782 40225 54000 60001 333
AAXX 21001 40854 12960 02804 10034 21105 39032 40263 56006 60001 333
AAXX 21001 40857 11956 00000 10124 20092 30209 40219 54000 60001 71000 222// 00/// 20000 333
AAXX 21001 40859 NIL
AAXX 21001 40878 11958 00209 10022 21395 38893 40268 56004 60001 70700 333
AAXX 21001 40879 12960 03302 10031 21227 39553 40249 54000 60001 333
AAXX 21001 40883 11950 00000 10168 20056 30177 40199 56004 60001 70500 333
AAXX 21001 40898 11957 03504 10146 21097 30180 40190 58008 60001 70500 222// 00240 10501 333
AAXX 21001 40703 11530 80000 11022 21037 39010 40332 56003 60001 71022 886// 333 88720
AAXX 21001 40712 11/03 92902 11030 21034 38763 40327 56006 60001 74744 333 89/04
AAXX 21001 40729 12962 00000 11044 21083 38412 40289 57008 60001 333
AAXX 21001 40736 12560 60000 10058 20047 30275 40249 58003 60001 86600 333 86725
AAXX 21001 40739 12965 00000 11038 21123 38769 40311 56009 60001 333
AAXX 21001 40743 12965 00806 11026 21243 39171 40328 57007 60001 333
AAXX 21001 40762 12962 03202 11110 21272 38630 40338 57012 60001 333
AAXX 21001 40768 12960 00000 11073 21093 38344 40315 53003 60001 333
AAXX 21001 40769 11958 00000 11032 21054 38375 40288 58004 60001 71000 333
AAXX 21001 40785 12960 00000 10002 21046 39185 40306 56004 60001 333
AAXX 21001 40809 12968 01305 11114 21212 38576 40326 57010 60001 333
AAXX 21001 40821 12962 01202 10014 21079 38874 40298 57009 60001 333
AAXX 21001 40831 12960 00000 10070 20042 30227 40235 51007 60001 333
AAXX 21001 98328 31463 31102 10190 20160 38523 40097 53024 70544 82201 333 20150 50300 55008 56999 58004 82814
AAXX 21001 98444 11463 70000 10262 20254 30082 40101 53026 60844 72582 84278 333 20220 56999 59007 70838 84818 85459 87270 555 20308
AAXX 21001 38599 42997 02501 11124 21144 39885 40450 58008
AAXX 21004 87121 32965 22708 10320 20162 39508 409994 52013 80002 333 10404 20292 56007 82070
AAXX 21001 01332 16/// /0000 11032 21042 69961 333 91102
BBXX A8XD5 21004 99425 71776 41597 52804 10120 20062 40100 50000 70322 8/262 22223 2//// 327// 40806 80090
BBXX VRCI9 21004 99396 71751 41/95 /2636 10110 20042 49965 55100 74264 8//// 22235 00152 20809 329// 41206 80100
BBXX WDB9986 21004 99435 71678 41597 80719 10050 20030 40040 57040 75155 886// 22224 00090 20303 328// 40606 5//// 6//// 80040 ICE /////
BBXX 46221 21001 99339 71186 46/// ///// 1//// 90015 22200 00150 11402 21002 325// 41401 70012
BBXX VRDN3 21004 99010 10754 41/98 00412 00/// 10270 2023/ 40100 54000 70200 80000 22274 0//// 2//// 3//// 4//// 5//// 6//// 80240
BBXX VRCI9 21004 99396 71751 41/95 /2636 10110 20042 49965 55100 74264 8//// 22235 00152 20809 329// 41206 80100
BBXX VRCI9 21004 99396 71751 41/95 /2636 10110 20042 49965 55100 74264 8//// 22235 00152 20809 329// 41206 80100
BBXX VRDN3 21004 99010 10754 41/98 00412 00/// 10270 2023/ 40100 54000 70200 80000 22274 0//// 2//// 3//// 4//// 5//// 6//// 80240
AAXX 21004 17330 12670 50000 10135 20059 30155 40173 56001 60001 82250 333 82840 85360
AAXX 21004 71102 16/// ///// 10017 21015 60001 333 10056 21023 70000
AAXX 21004 71105 16/// ///// 10037 21024 60001 333 10053 20010 70000
AAXX 21004 71409 16/// ///// 10037 21019 60001 333 10047 21034 70000
AAXX 21004 71841 16/// /2103 11036 21049 39610 40009 50001 60001 333 11029 21100 70000
AAXX 21004 71789 16/// ///// 10032 21073 60001 333 10055 20030 70000
AAXX 21004 71791 16/// /2916 10025 21013 60001 333 10064 20017 70000
AAXX 21004 71794 16/// ///// 11013 21040 60001 333 10060 21041 70000
AAXX 21004 71795 16/// ///// 10010 21002 60001 333 10051 20010 70000
AAXX 21004 71796 16/// ///// 11004 21049 60001 333 10059 21012 70000
AAXX 21004 71006 16/// /2708 10012 21029 60001 333 10057 21006 70000
AAXX 21004 71007 16/// ///// 10029 21079 60001 333 10058 20016 70000
AAXX 21004 71008 16/// /2609 11001 21046 60001 333 10042 21009 70000
AAXX 21004 71009 16/// /3205 11022 21056 60001 333 10045 21022 70000
AAXX 21004 71035 16/// ///// 11007 21067 60001 333 10044 21018 70000
AAXX 21004 71383 16/// ///// 11167 21203 39513 40144 58004 60001 333 11157 21192 70000
AAXX 21004 71051 16/// ///// 10036 21020 60001 333 10041 21084 70000
AAXX 21004 71057 16/// ///// 11003 21056 60001 333 10065 21003 70000
AAXX 21004 71070 16/// ///// 10033 21023 60001 333 10062 20008 70000
AAXX 21004 71089 16/// ///// 10004 21026 60001 333 10063 21021 70000
AAXX 21004 71502 16/// /1603 11247 21266 30070 40086 51006 60001 333 11243 21290 70000
AAXX 21004 71509 16/// /2521 10045 21045 60001 333 10070 20042 70000
AAXX 21004 71517 16/// /2717 10032 21050 60001 333 10063 20032 70000
AAXX 21004 71518 16/// /2513 10024 21025 60001 333 10057 20024 70000
AAXX 21004 71519 16/// /2507 10043 21020 60001 333 10066 20033 70000
AAXX 21004 71520 16/// /1515 11175 21196 39417 40114 58014 60001 333 11166 21233 70000
AAXX 21004 71521 16/// ///// 11172 21206 60001 333 11166 21199 70000
AAXX 21004 71523 16/// ///// 11146 21162 39748 40136 58024 60001 333 11139 21180 70000
AAXX 21004 71528 16/// /2416 10033 21043 60001 333 10058 20033 70000
AAXX 21004 71433 46/// /2224 10015 21023 39855 40086 58020 6///1 333 10016 21020 7////
AAXX 21004 71433 46/// /2224 10015 21023 39855 40086 58020 6///1 333 10016 21020 7////
AAXX 21004 71841 16/// /2103 11036 21049 39610 40009 50001 60001 333 11029 21100 70000
AAXX 21004 71409 16/// ///// 10037 21019 60001 333 10047 21034 70000
AAXX 21004 71383 16/// ///// 11167 21203 39513 40144 58004 60001 333 11157 21192 70000
AAXX 21004 71102 16/// ///// 10017 21015 60001 333 10056 21023 70000
AAXX 21004 71105 16/// ///// 10037 21024 60001 333 10053 20010 70000
AAXX 21004 71789 16/// ///// 10032 21073 60001 333 10055 20030 70000
AAXX 21004 71791 16/// /2916 10025 21013 60001 333 10064 20017 70000
AAXX 21004 71794 16/// ///// 11013 21040 60001 333 10060 21041 70000
AAXX 21004 71795 16/// ///// 10010 21002 60001 333 10051 20010 70000
AAXX 21004 71796 16/// ///// 11004 21049 60001 333 10059 21012 70000
AAXX 21004 71006 16/// /2708 10012 21029 60001 333 10057 21006 70000
AAXX 21004 71007 16/// ///// 10029 21079 60001 333 10058 20016 70000
AAXX 21004 71008 16/// /2609 11001 21046 60001 333 10042 21009 70000
AAXX 21004 71009 16/// /3205 11022 21056 60001 333 10045 21022 70000
AAXX 21004 71035 16/// ///// 11007 21067 60001 333 10044 21018 70000
AAXX 21004 60745 12960 02602 10043 21025 39851 40236 52006 60003 333 55064 21054
AAXX 21004 60745 12960 02602 10043 21025 39851 40236 52006 60003 333 55064 21054
AAXX 21004 48450 31958 00000 10200 20167 30094 40127 52014 71000 333 20195 59008
AAXX 21004 64500 11360 82008 10265 20244 30101 40114 69921 72166 885// 333 0//11 58005 84608
AAXX 21004 89528 46/// /0427 36835 4//// 5////
AAXX 21004 89628 46/// /3134 4//// 5////
AAXX 21004 65201 31458 70000 10262 20248 30077 40132 70522 82508 333 57632 58002 82610 86280 91105 94463
AAXX 21001 89063 41/94 92601 10007 20007 39933 49944 52007 75275 333 10030 20005
BBXX 3ECI3 21004 99412 31740 41397 41510 10139 20079 40324 52003 70200 84640 22253 00140 20201 318// 40604 80109
BBXX VJRB 21003 99143 31447 41598 51315 10300 20243 40070 52020 70222 85260 22233 2//// 3//// 4//// 5//// 80260
BBXX 3ECI3 21004 99412 31740 41397 41510 10139 20079 40324 52003 70200 84640 22253 00140 20201 318// 40604 80109
BBXX VJRB 21003 99143 31447 41598 51315 10300 20243 40070 52020 70222 85260 22233 2//// 3//// 4//// 5//// 80260
AAXX 21004 63729 12480 60000 10202 20191 38862 48/// 69903 8297/ 333 0//19 55300 58002 82617 81919 86359
AAXX 21004 63756 32480 70000 10204 20191 38859 48493 8297/ 333 58001 82819 81920 87359
AAXX 21004 63791 32580 20606 10240 20165 39117 48502 82500 333 55300 58012 82624
AAXX 21004 63801 01580 73020 10214 20187 49210 69901 76022 8192/ 333 58010 69907 81819 81920 87458
AAXX 21004 63832 32480 80000 10190 20183 38821 48494 8197/ 333 55300 58013 81817 81919 88457
AAXX 21004 63862 32480 32105 10206 20192 38894 48503 81531 333 58013 81618
AAXX 21004 63881 31480 70000 10160 20153 38204 48/// 71352 82933 333 58006 82616 81918 87074
AAXX 21004 63894 31580 50000 10250 20248 30039 40099 71321 85900 333 55300 59017 85820 81921
AAXX 21004 63962 12480 70000 10200 20191 38949 48506 69951 8392/ 333 58000 83618 81920 87458
AAXX 21004 63971 22205 10235 20232 39971 40101 82200 333 55300 59009 82820
AAXX 21004 63733 NIL
AAXX 21004 63866 NIL
AAXX 21004 63870 NIL
AAXX 21004 63887 NIL
AAXX 21004 63932 NIL
BBXX VRFJ6 21004 99235 11447 41598 80427 10200 20169 40181 52020 70222 8872/ 22274 00290 20306 305// 40506 80180
BBXX SHIP 21004 99222 11159 41297 80820 10180 20148 40191 57010 70222 88479 22264 00150 20605 308// 40706 80160
BBXX UICN 21000 99475 11419 42597 70407 11028 40234 54000 84781 22273 2////
BBXX TBWUK37 21003 99311 11339 41298 83405 10140 20102 40232 54000 76166 8772/ 22214 04240 20101 334// 40101 80120
BBXX VQOG5 21004 99061 10924 41598 30712 10255 20248 40085 52004 70300 82802 22263 00280 20501 320// 40503 80250
BBXX SHIP 21004 99370 11338 41498 63303 10080 20050 40150 54/// 70303 8626/ 22213 00150 2//// 334// 40304 80050
BBXX ZQDI9 21003 99082 11091 41597 70315 10270 20249 40086 53002 70186 878// 22212 00262 20403 303// 40605 80255
BBXX SHIP 21004 99305 11322 41498 60417 10160 20104 40200 51001 70102 8411/ 22214 00240 20401 80130
BBXX A8MV6 21003 99194 10671 41997 03616 10240 20158 40140 54000 70200 80000 22273 04290 2//// 3//// 4//// 5//// 80190
BBXX ZIPR7 21003 99310 30155 41598 42224 10180 20116 40140 56001 7//// 844// 22234 04191 2//// 3//// 4//// 5//// 80145
BBXX SHIP 21004 99095 50791 41897 71512 10210 20188 40110 53010 70222 86078 22274 20103 320// 41004 80195
BBXX VRDN3 21004 99010 10754 41/98 00412 00/// 10270 2023/ 40100 54000 70200 80000 22274 0//// 2//// 3//// 4//// 5//// 6//// 80240
BBXX 3FHX2 21003 99042 11392 41/97 70928 10280 20253 40070 54000 70211 8/611 22233 00/// 2////
BBXX MFLM9 21003 99302 31145 41/97 11714 10230 20183 40134 54000 70200 80005 22283 00218 20502 318// 40604 80200
BBXX MRSA8 21004 99092 31230 41498 52308 10285 20271 40071 54000 70311 8544/ 22213 04280 20401 325// 40401 80275
BBXX UGWJ 21001 99018 30862 42398 62408 10260 40096 54000 86170 22252 00284 20201 32100 40603
BBXX A8NW9 21004 99466 70203 41/98 82117 10139 20125 40362 54000 70311 8//// 22214 04130 20603 328// 41003 80131
BBXX V2NA1 21004 99451 70231 41297 82015 10130 20051 40310 52022 703// 8/7// 22223 04120 20704 80090
BBXX PDXQ 21003 99441 70263 41397 81822 10160 20127 40301 52001 70222 847// 22223 04130 205// 80140
BBXX DANV 21004 99361 70009 41998 12622 10162 20129 40270 50002 7//00 80006 22224 04150 20204 80142
BBXX 46221 21001 99339 71186 46/// ///// 1//// 90015 22200 00150 11402 21002 325// 41401 70012
BBXX VRCI9 21004 99396 71751 41/95 /2636 10110 20042 49965 55100 74264 8//// 22235 00152 20809 329// 41206 80100
BBXX 46242 21001 99332 71174 46/// ///// 1//// 90028 22200 00145 11401 20401 323// 41401 70007
BBXX 46222 21001 99336 71183 46/// ///// 1//// 90026 22200 00152 11302 21002 328// 41302 70012
BBXX 46231 21001 99327 71174 46/// ///// 1//// 90024 22200 00150 11303 21002 327// 41302 70014
BBXX 46223 21001 99335 71178 46/// ///// 1//// 90030 22200 00152 11402 21002 326// 41402 70012
BBXX 46216 21001 99343 71198 46/// ///// 1//// 90027 22200 00147 11203 20702 326// 41202 70013
BBXX 46241 21001 99330 71173 46/// ///// 1//// 90011 22200 00144 11402 21001 327// 41401 70008
BBXX CFO383 21004 99439 70602 47698 /3016 11004 2109/ 40145 5//// 700// 8//// 22200 0//// 1//// 2//// 3//// 70// 81026 91031
BBXX 44024 21001 99423 70659 46/30 /3409 10012 40218 53038 90004 22200 00080 10808 70042 333 91211 555 11103 22107
AAXX 21003 63723 32980 00000 10253 40092 333 59001
AAXX 21003 63793 32480 80000 10237 20227 40086 885// 333 58005 88614
AAXX 21001 80001 01470 30805 10272 20237 30098 40099 60051 70165 81236 333 10284 56300 59021 69967 81816 84359
AAXX 21001 80002 32470 80405 10276 20233 82128 333 10285 56290 82817 84270
AAXX 21001 80009 31560 30303 10272 20207 30065 40070 70500 82804 333 10322 560/0 59011 82820 83070
AAXX 21001 80022 31565 40303 10276 20233 30076 40078 70521 81101 333 10306 566/9 59009 81820 83070
AAXX 21001 80028 31560 10304 10272 20232 30052 40087 70511 81500 333 10307 561// 59010 81620
AAXX 21001 80035 31565 60903 10256 20228 30110 40115 70522 82506 333 10298 562/9 59012 82620 84070
AAXX 21001 80036 31568 20404 10268 20199 70500 81102 333 10329 560/0 81820
AAXX 21001 80063 NIL
AAXX 21001 80084 11562 70000 10267 20251 60011 70552 84831 333 10312 56099 84820 83358
AAXX 21001 80091 NIL
AAXX 21001 80094 31250 72902 10200 20191 38786 74022 82645 333 10247 56999 59007 82706 84357
AAXX 21001 80097 NIL
AAXX 21001 80099 31462 50000 10266 20240 39915 40058 70522 84832 333 10314 56199 58008 84815
AAXX 21001 80110 NIL
AAXX 21001 80112 31470 30402 10163 20142 37883 70500 82801 333 10213 560/0 59007 82618
AAXX 21001 80139 NIL
AAXX 21001 80144 NIL
AAXX 21001 80149 NIL
AAXX 21001 80210 31462 50000 10226 20180 38623 70522 81835 333 10262 56000 57894 59036 81818 83358
AAXX 21001 80211 NIL
AAXX 21001 80214 31560 53501 10228 20214 39088 70520 82835 333 10276 56059 59014 82823 83359
AAXX 21001 80222 31568 20504 10144 20102 37504 70522 82500 333 10197 563// 58000 82620
AAXX 21001 80234 NIL
AAXX 21001 80241 31570 30000 10236 20181 70521 83400 333 10274 562// 83627
AAXX 21001 80259 31660 23104 10240 20182 39010 70520 81505 333 10297 563/9 59035 81640
AAXX 21001 80315 32665 30000 10272 20225 39552 40048 81150 333 10315 5609/ 59020 81843 83362
AAXX 21001 80342 11420 80000 10170 20167 38188 60012 74062 884// 333 10222 564// 88610
AAXX 21001 80370 NIL
AAXX 21001 80398 11470 60000 10244 20239 30000 40096 60071 70165 82570 333 10294 5609/ 58009 82610 86458
BBXX SHIP 21004 99546 11790 41398 73022 10000 21027 49960 52008 77022 87492 92355 22264 00040 20402 336// 40604 81010
BBXX UCDM 21000 99512 11573 42498 33516 11065 40069 53002 70210 83404 22212 06012 20403 30400 40603
BBXX 9MBW7 21004 99370 11338 41498 63303 10080 20050 40150 54/// 70303 8626/ 22213 00150 2//// 334// 40304 80050
BBXX 9MEZ2 21004 99305 11322 41498 60417 10160 20104 40200 51001 70102 8411/ 22214 00240 20401 80130
BBXX SHIP 21004 99370 11338 41498 63303 10080 20050 40150 54/// 70303 8626/ 22213 00150 2//// 334// 40304 80050
BBXX SHIP 21004 99328 11486 41698 63218 10120 20102 40221 51013 70121 8313/ 92350 22264 00200 20602 33228 40804 50602 80110
BBXX SHIP 21004 99305 11322 41498 60417 10160 20104 40200 51001 70102 8411/ 22214 00240 20401 80130
BBXX TBWUK37 21003 99311 11339 41298 83405 10140 20102 40232 54000 76166 8772/ 22214 04240 20101 334// 40101 80120
BBXX UGOD 21001 99462 11445 42998 43308 11030 40215 51002 84200 22213 00044 20402 30400 40604
BBXX UICN 21000 99475 11419 42597 70407 11028 40234 54000 84781 22273 2////
AAXX 21004 42492 31993 02703 10088 20080 40174 74444 333 58003
AAXX 21004 42587 31994 00000 10062 20043 40177 71000 333 58001
AAXX 21004 71055 46/// /0503 11303 21332 39769 40115 51011 6///1 333 11228 21306 7////
AAXX 21004 71065 16/// ///// 10014 21003 60001 333 10068 20007 70000
AAXX 21004 71360 16/// ///// 10023 21024 60001 333 10063 21014 70000
AAXX 21004 71380 16/// /3217 10025 21038 60001 333 10056 20001 70000
AAXX 21004 71904 16/// ///// 10018 21101 60001 333 10051 21035 70000
AAXX 21004 71346 16/// /2619 10045 21044 60001 333 10072 20043 70000
AAXX 21004 71797 16/// ///// 10016 21012 60001 333 10055 20009 70000
AAXX 21004 71674 16/// ///// 10013 21037 60001 333 10060 20000 70000
AAXX 21004 71014 16/// /3305 10025 21068 60001 333 10040 20005 70000
AAXX 21004 71413 16/// ///// 11002 21044 60001 333 10054 21012 70000
AAXX 21004 71414 16/// ///// 10000 21031 60001 333 10056 21004 70000
AAXX 21004 71440 16/// ///// 10006 21040 60001 333 10067 21001 70000
AAXX 21004 71540 16/// /2907 10030 21110 60001 333 10066 21046 70005
AAXX 21004 71544 16/// ///// 10017 21003 60001 333 10046 20014 70000
AAXX 21004 71548 16/// ///// 11011 21026 60001 333 10046 21012 70000
AAXX 21004 71857 16/// ///// 10009 21008 60001 333 10057 20005 70000
AAXX 21004 71481 16/// /3103 10012 21024 60001 333 10043 21012 70000
AAXX 21004 71498 16/// /2509 11001 21055 60001 333 10050 21006 70000
AAXX 21004 71245 46/// /2415 11086 21158 6///1 333 11048 21087 7////
AAXX 21004 71249 16/// /3212 10011 21065 60001 333 10055 21002 70000
BBXX 42085 21001 99179 70665 46/// /0608 10257 40169 90030 333 91209
BBXX 42085 21001 99179 70665 46/// /0608 10256 40168 90020 333 91209
BBXX 42085 21001 99179 70665 46/// /0708 10258 40167 90010 333 91210
AAXX 2100/ 89866 46/// ///// 11016 39675 4//// 5////
AAXX 2100/ 89828 46/// ///// 11248 36460 4//// 5////
AAXX 2100/ 89332 46/// ///// 11005 39181 4//// 5////
AAXX 2100/ 89769 46/// ///// 11031 39743 4//// 5////
AAXX 21004 40255 32960 00000 10130 20060 39474 40180 54003
BBXX UGWJ 21001 99018 30862 42398 62408 10260 40096 54000 86170 22252 00284 20201 32100 40603
AAXX 21004 41963 31910 80000 10144 20130 31050 40153 74044 8452/ 333 56999 58009 70000 84618 88458
AAXX 21004 41989 31920 00502 10150 20140 30141 40144 70500 333 58004 70000
BBXX A8IY4 21001 99336 70426 41998 03206 10190 20187 40169 52030 70100 80000 22254 00203 2//02 318// 41206 80188
BBXX DCDP2 21003 99427 70514 41/97 82925 10075 20020 40050 52020 70322 8//// 22224 00090 20706 80050
BBXX DGUG2 21004 99273 70203 41998 00917 10200 20153 40240 54000 70200 80000 22254 04220 20504 80170
AAXX 21001 38838 429// /0000 11153 21172 39691 40335 52006
AAXX 21004 16310 12897 41205 10062 21048 39891 40116 58023 60001 84050 333 84358 555 0////
AAXX 21004 91844 46/// /0506 10286 40121 22200 00285
AAXX 21001 58968 11550 81402 10187 20173 30184 40192 53016 69902 75152 887//
AAXX 21001 58974 11465 70208 10188 20175 30065 40189 51015 60112 76166 877//
AAXX 21001 59358 31640 70105 10191 20169 30154 40186 51020 71022 875//
AAXX 21001 59559 11562 83502 10206 20190 30144 40172 52020 69952 76061 8572/
AAXX 21001 59792 11458 80310 10212 20190 30165 40170 52022 69902 75052 8542/
AAXX 21001 59997 32460 30605 10278 20256 30092 40098 52014 83800
AAXX 21001 59158 32662 63602 10196 20155 30078 40179 52018 86500
AAXX 21001 59562 32575 73401 10200 20165 30163 40175 51016 878//
AAXX 21001 59567 11260 80209 10195 20187 39795 40174 51018 60022 70262 885//
AAXX 21004 83096 32695 20905 10264 20231 30125 40132 82500 333 10301 29078 55106 58002
AAXX 21004 83186 32999 01404 10260 20206 39571 40097 333 10312 29067 55102 59014
AAXX 21004 83236 32998 52302 10260 20223 39596 40082 80003 333 10337 29/// 55092 59012
AAXX 21004 83242 32995 01801 10249 20215 39633 40124 333 10318 29074 55068 59007
AAXX 21004 83288 32995 01804 10267 20216 38595 40090 333 10323 29068 55089 59009
BBXX 62123 21004 99563 10022 41/97 /3120 10074 40128 53002 70200 8//// 22200 2//// 330// 40605 5////
BBXX AMOUK08 21004 99501 70061 46/// ///// 10118 20115 30196 40202 57012 92350
BBXX 63106 21004 99610 10017 46/// /3011 10035 40054 53015 22200
BBXX 63105 21004 99610 10017 47697 ///// 10058 21001 40054 53016 700// 22200
BBXX AMOUK04 21004 99533 70062 46/// ///// 10113 20102 30127 4//// 54001 92350
BBXX DDYZ2 21004 99500 70017 41697 22518 10120 20073 40195 51010 75055 8177/ 22223 04130 20504 80095
BBXX BSH05 21001 99550 10079 46/// ///// 22200 20803 70013
BBXX BSH03 21001 99540 10081 46/// ///// 22200 00064 20704 70022
BBXX VJRB 21003 99143 31447 41598 51315 10300 20243 40070 52020 70222 85260 22233 2//// 3//// 4//// 5//// 80260
BBXX 3ECI3 21004 99412 31740 41397 41510 10139 20079 40324 52003 70200 84640 22253 00140 20201 318// 40604 80109
BBXX DGUG2 21004 99273 70203 41998 00917 10200 20153 40240 54000 70200 80000 22254 04220 20504 80170
BBXX DCDP2 21003 99427 70514 41/97 82925 10075 20020 40050 52020 70322 8//// 22224 00090 20706 80050
BBXX A8IY4 21001 99336 70426 41998 03206 10190 20187 40169 52030 70100 80000 22254 00203 2//02 318// 41206 80188
BBXX 42085 21001 99179 70665 46/// /0608 10257 40169 90030 333 91209
BBXX 42085 21001 99179 70665 46/// /0708 10258 40167 90010 333 91210
BBXX 42085 21001 99179 70665 46/// /0608 10256 40168 90020 333 91209
OOXX MRP43 20221 99181 70159 ///// 00101 26/// /0302 10205 29014 30159 92240 333 60000
OOXX MRP43 20221 99181 70159 ///// 00101 26/// /0202 10199 29014 30159 92250 333 60000
OOXX MRP43 20231 99181 70159 ///// 00101 26/// /0201 10198 29014 30160 92300 333 60000
OOXX MRP43 20231 99181 70159 ///// 00101 26/// /0402 10198 29014 30158 92310 333 60000
OOXX MRP43 20231 99181 70159 ///// 00101 26/// /0502 10198 29014 30160 92320 333 60000
OOXX MRP43 20231 99181 70159 ///// 00101 26/// /0502 10198 29014 30160 92330 333 60000
OOXX MRP43 20231 99181 70159 ///// 00101 26/// /0302 10196 29014 30160 92340 333 60000
OOXX MRP43 20231 99181 70159 ///// 00101 26/// /0202 10191 29015 30159 92350 333 60000
OOXX MRP43 21001 99181 70159 ///// 00101 26/// /0202 10191 29015 30157 90000 333 60000
OOXX MRP43 21001 99181 70159 ///// 00101 26/// /0403 10202 29014 30154 90010 333 60000
OOXX MRP43 21001 99181 70159 ///// 00101 26/// /0604 10199 29014 30153 90020 333 60000
OOXX MRP43 21001 99181 70159 ///// 00101 26/// /0503 10205 29013 30157 90030 333 60000
OOXX RUP54 20221 99586 10494 ///// 01271 26/// /0303 11096 29089 30139 92227 333 60120
OOXX RUP54 20221 99586 10494 ///// 01271 26/// /0605 11096 29089 30138 92237 333 60120
OOXX RUP54 20221 99586 10494 ///// 01271 26/// /0404 11096 29089 30136 92247 333 60120
OOXX RUP54 20221 99586 10494 ///// 01271 26/// /0203 11096 29089 30135 92257 333 60120
OOXX RUP54 20231 99586 10494 ///// 01271 26/// /0704 11095 29089 30135 92307 333 60120
OOXX RUP54 20231 99586 10494 ///// 01271 26/// /0604 11096 29089 30134 92317 333 60120
OOXX RUP54 20231 99586 10494 ///// 01271 26/// /0503 11095 29089 30133 92327 333 60120
OOXX RUP54 20231 99586 10494 ///// 01271 26/// /0503 11095 29089 30132 92337 333 60120
OOXX RUP54 20231 99586 10494 ///// 01271 26/// /0303 11095 29089 30131 92347 333 60120
OOXX RUP54 20231 99586 10494 ///// 01271 26/// /0605 11095 29089 30130 92357 333 60120
OOXX RUP54 21001 99586 10494 ///// 01271 26/// /0503 11095 29089 30128 90007 333 60120
OOXX RUP54 21001 99586 10494 ///// 01271 26/// /0503 11095 29089 30126 90017 333 60120
OOXX AUP07 20221 99/// ///// ///// ///// 26/// /0803 10073 29073 30192 92249 333 60000
OOXX AUP07 20221 99/// ///// ///// ///// 26/// /3002 10069 29071 30193 92259 333 60000
OOXX AUP07 20231 99/// ///// ///// ///// 26/// /3103 10074 29076 30192 92309 333 60000
OOXX AUP07 20231 99/// ///// ///// ///// 26/// /3403 10072 29074 30191 92319 333 60000
OOXX AUP07 20231 99/// ///// ///// ///// 26/// /3303 10073 29074 30190 92329 333 60000
OOXX AUP07 20231 99/// ///// ///// ///// 26/// /3303 10075 29076 30189 92339 333 60000
OOXX AUP07 20231 99/// ///// ///// ///// 26/// /3304 10075 29076 30188 92349 333 60000
OOXX AUP07 20231 99/// ///// ///// ///// 26/// /3304 10075 29078 30187 92359 333 60000
OOXX AUP07 21001 99/// ///// ///// ///// 26/// /3304 10074 29077 30186 90009 333 60000
OOXX AUP07 21001 99/// ///// ///// ///// 26/// /3305 10076 29078 30187 90019 333 60000
OOXX AUP07 21001 99/// ///// ///// ///// 26/// /3305 10077 29080 30187 90029 333 60000
OOXX AUP07 21001 99/// ///// ///// ///// 26/// /3305 10075 29079 30187 90039 333 60000
OOXX RUP59 20221 99539 10848 ///// 02121 26/// /0901 11176 29078 30177 92240 333 60000
OOXX RUP59 20221 99539 10848 ///// 02121 26/// /0601 11191 29076 30173 92250 333 60000
OOXX RUP59 20231 99539 10848 ///// 02121 26/// /0401 11214 29075 30172 92300 333 60000
OOXX RUP59 20231 99539 10848 ///// 02121 26/// /0501 11221 29077 30170 92310 333 60000
OOXX RUP59 20231 99539 10848 ///// 02121 26/// /0501 11214 29080 30170 92320 333 60000
OOXX RUP59 20231 99539 10848 ///// 02121 26/// /0601 11221 29077 30170 92330 333 60000
OOXX RUP59 20231 99539 10848 ///// 02121 26/// /0000 11225 29077 30172 92340 333 60000
OOXX RUP59 20231 99539 10848 ///// 02121 26/// /0000 11217 29080 30171 92350 333 60000
OOXX RUP59 21001 99539 10848 ///// 02121 26/// /0101 11212 29079 30172 90000 333 60000
OOXX RUP59 21001 99539 10848 ///// 02121 26/// /0000 11208 29079 30171 90010 333 60000
OOXX RUP59 21001 99539 10848 ///// 02121 26/// /0000 11201 29078 30173 90020 333 60000
OOXX RUP59 21001 99539 10848 ///// 02121 26/// /0000 11200 29078 30174 90030 333 60000
OOXX KIP39 20221 99020 51574 ///// 00181 26/// /0805 10278 29070 30093 92230 333 60000
OOXX KIP39 20221 99020 51574 ///// 00181 26/// /0804 10278 29071 30092 92240 333 60000
OOXX KIP39 20221 99020 51574 ///// 00181 26/// /0904 10278 29070 30092 92250 333 60000
OOXX KIP39 20231 99020 51574 ///// 00181 26/// /0905 10280 29070 30090 92300 333 60000
OOXX KIP39 20231 99020 51574 ///// 00181 26/// /0905 10282 29070 30088 92310 333 60000
OOXX KIP39 20231 99020 51574 ///// 00181 26/// /0805 10276 29072 30086 92320 333 60000
OOXX KIP39 20231 99020 51574 ///// 00181 26/// /0805 10275 29072 30085 92330 333 60000
OOXX KIP39 20231 99020 51574 ///// 00181 26/// /0905 10275 29071 30083 92340 333 60000
OOXX KIP39 20231 99020 51574 ///// 00181 26/// /0905 10270 29073 30082 92350 333 60000
OOXX KIP39 21001 99020 51574 ///// 00181 26/// /0805 10271 29074 30080 90000 333 60000
OOXX KIP39 21001 99020 51574 ///// 00181 26/// /0905 10270 29074 30079 90010 333 60000
OOXX KIP39 21001 99020 51574 ///// 00181 26/// /0905 10270 29074 30077 90020 333 60000
OOXX ISP34 20221 99641 70219 ///// 01301 26/// /2902 11006 29001 39928 92210 333 6///0
OOXX ISP34 20221 99641 70219 ///// 01301 26/// /3003 11004 29001 39928 92220 333 6///0
OOXX ISP34 20221 99641 70219 ///// 01301 26/// /3002 11001 29001 39926 92230 333 6///0
OOXX ISP34 20221 99641 70219 ///// 01301 26/// /2902 11002 29001 39925 92240 333 6///0
OOXX ISP34 20221 99641 70219 ///// 01301 26/// /3003 11004 29001 39924 92250 333 6///0
OOXX ISP34 20231 99641 70219 ///// 01301 26/// /3103 11003 29001 39924 92300 333 6///0
OOXX ISP34 20231 99641 70219 ///// 01301 26/// /3004 11002 29001 39926 92310 333 6///0
OOXX ISP34 20231 99641 70219 ///// 01301 26/// /3004 11003 29001 39925 92320 333 6///0
OOXX ISP34 20231 99641 70219 ///// 01301 26/// /2803 11008 29001 39924 92330 333 6///0
OOXX ISP34 20231 99641 70219 ///// 01301 26/// /2802 11010 29001 39923 92340 333 6///0
OOXX ISP34 20231 99641 70219 ///// 01301 26/// /2602 11011 29001 39922 92350 333 6///0
OOXX ISP34 21001 99641 70219 ///// 01301 26/// /2402 11012 29001 39922 90000 333 6///0
OOXX RUP58 20221 99442 11320 ///// 01121 26/// /2001 11158 29072 30051 92242 333 60000
OOXX RUP58 20221 99442 11320 ///// 01121 26/// /2101 11163 29072 30050 92252 333 60000
OOXX RUP58 20231 99442 11320 ///// 01121 26/// /0000 11165 29072 30051 92302 333 60000
OOXX RUP58 20231 99442 11320 ///// 01121 26/// /1401 11163 29074 30050 92312 333 60000
OOXX RUP58 20231 99442 11320 ///// 01121 26/// /2201 11161 29072 30051 92322 333 60000
OOXX RUP58 20231 99442 11320 ///// 01121 26/// /2401 11157 29072 30052 92332 333 60000
OOXX RUP58 20231 99442 11320 ///// 01121 26/// /2301 11151 29070 30051 92342 333 60000
OOXX RUP58 20231 99442 11320 ///// 01121 26/// /2201 11149 29067 30051 92352 333 60000
OOXX RUP58 21001 99442 11320 ///// 01121 26/// /2301 11148 29066 30051 90002 333 60000
OOXX RUP58 21001 99442 11320 ///// 01121 26/// /2302 11146 29066 30053 90012 333 60000
OOXX RUP58 21001 99442 11320 ///// 01121 26/// /2701 11140 29065 30052 90022 333 60000
OOXX RUP58 21001 99442 11320 ///// 01121 26/// /2902 11142 29063 30052 90032 333 60000
OOXX PTP53 20221 99377 70257 ///// 00121 26/// /0708 10155 29001 30248 92210 333 60000
OOXX PTP53 20221 99377 70257 ///// 00121 26/// /0807 10156 29001 30248 92220 333 60000
OOXX PTP53 20221 99377 70257 ///// 00121 26/// /0707 10157 29001 30248 92230 333 60000
OOXX PTP53 20221 99377 70257 ///// 00121 26/// /0707 10159 29001 30248 92240 333 60000
OOXX PTP53 20221 99377 70257 ///// 00121 26/// /0806 10161 29001 30248 92250 333 60000
OOXX PTP53 20231 99377 70257 ///// 00121 26/// /0805 10162 29001 30248 92300 333 60000
OOXX PTP53 20231 99377 70257 ///// 00121 26/// /0704 10162 29001 30247 92310 333 60000
OOXX PTP53 20231 99377 70257 ///// 00121 26/// /0703 10161 29001 30246 92320 333 60000
OOXX PTP53 20231 99377 70257 ///// 00121 26/// /1005 10163 29001 30246 92330 333 60000
OOXX PTP53 20231 99377 70257 ///// 00121 26/// /0804 10164 29001 30244 92340 333 60000
OOXX PTP53 20231 99377 70257 ///// 00121 26/// /0706 10163 29001 30244 92350 333 60000
OOXX PTP53 21001 99377 70257 ///// 00121 26/// /0606 10162 29001 30243 90000 333 60000
OOXX AUP04 20231 99377 31451 ///// 00311 26/// /2301 10175 29071 30122 92306 333 60000
OOXX AUP04 20231 99377 31451 ///// 00311 26/// /2501 10177 29069 30121 92316 333 60000
OOXX AUP04 20231 99377 31451 ///// 00311 26/// /2802 10179 29068 30121 92326 333 60000
OOXX AUP04 20231 99377 31451 ///// 00311 26/// /2901 10186 29066 30119 92336 333 60000
OOXX AUP04 20231 99377 31451 ///// 00311 26/// /2601 10192 29064 30119 92346 333 60000
OOXX AUP04 20231 99377 31451 ///// 00311 26/// /2801 10190 29062 30119 92356 333 60000
OOXX AUP04 21001 99377 31451 ///// 00311 26/// /0401 10195 29060 30119 90006 333 60000
OOXX AUP04 21001 99377 31451 ///// 00311 26/// /3001 10195 29059 30118 90016 333 60000
OOXX AUP04 21001 99377 31451 ///// 00311 26/// /2101 10202 29056 30118 90026 333 60000
OOXX AUP04 21001 99377 31451 ///// 00311 26/// /0301 10199 29059 30118 90036 333 60000
OOXX AUP04 21001 99377 31451 ///// 00311 26/// /2201 10207 29055 30118 90046 333 60000
OOXX AUP04 21001 99377 31451 ///// 00311 26/// /2901 10208 29056 30117 90056 333 60000
OOXX CAP14 20221 99487 71234 ///// 00431 26/// /3001 10084 29074 30178 92230 333 60000
OOXX CAP14 20221 99487 71234 ///// 00431 26/// /2901 10085 29073 30175 92240 333 60000
OOXX CAP14 20221 99487 71234 ///// 00431 26/// /3001 10089 29073 30177 92250 333 60000
OOXX CAP14 20231 99487 71234 ///// 00431 26/// /2901 10097 29070 30178 92300 333 60000
OOXX CAP14 20231 99487 71234 ///// 00431 26/// /2201 10091 29070 30176 92310 333 60000
OOXX CAP14 20231 99487 71234 ///// 00431 26/// /1301 10087 29072 30177 92320 333 60000
OOXX CAP14 20231 99487 71234 ///// 00431 26/// /1701 10084 29074 30178 92330 333 60000
OOXX CAP14 20231 99487 71234 ///// 00431 26/// /0000 10081 29075 30176 92340 333 60000
OOXX CAP14 20231 99487 71234 ///// 00431 26/// /0000 10073 29077 30177 92350 333 60000
OOXX CAP14 21001 99487 71234 ///// 00431 26/// /0000 10070 29078 30175 90000 333 60000
OOXX CAP14 21001 99487 71234 ///// 00431 26/// /2501 10066 29080 30178 90010 333 60000
OOXX CAP14 21001 99487 71234 ///// 00431 26/// /2602 10067 29078 30176 90020 333 60000
OOXX AUP06 20221 99192 31468 ///// 00071 26/// /1304 10283 29056 30087 92253 333 60000
OOXX AUP06 20231 99192 31468 ///// 00071 26/// /1204 10282 29054 30086 92303 333 60000
OOXX AUP06 20231 99192 31468 ///// 00071 26/// /1405 10290 29052 30086 92313 333 60000
OOXX AUP06 20231 99192 31468 ///// 00071 26/// /1205 10286 29053 30085 92323 333 60000
OOXX AUP06 20231 99192 31468 ///// 00071 26/// /1305 10292 29051 30084 92333 333 60000
OOXX AUP06 20231 99192 31468 ///// 00071 26/// /0907 10288 29051 30084 92343 333 60000
OOXX AUP06 20231 99192 31468 ///// 00071 26/// /1007 10290 29050 30084 92353 333 60000
OOXX AUP06 21001 99192 31468 ///// 00071 26/// /1007 10291 29051 30083 90003 333 60000
OOXX AUP06 21001 99192 31468 ///// 00071 26/// /0906 10293 29050 30083 90013 333 60000
OOXX AUP06 21001 99192 31468 ///// 00071 26/// /0807 10296 29052 30083 90023 333 60000
OOXX AUP06 21001 99192 31468 ///// 00071 26/// /0906 10296 29053 30083 90033 333 60000
OOXX AUP06 21001 99192 31468 ///// 00071 26/// /0906 10290 29056 30082 90043 333 60000
OOXX RUP60 20221 99531 11588 ///// 00651 26/// /2804 11145 29042 39993 92252 333 60000
OOXX RUP60 20231 99531 11588 ///// 00651 26/// /2803 11142 29041 39994 92302 333 60000
OOXX RUP60 20231 99531 11588 ///// 00651 26/// /2807 11136 29040 39996 92312 333 60000
OOXX RUP60 20231 99531 11588 ///// 00651 26/// /3003 11133 29039 39996 92322 333 60000
OOXX RUP60 20231 99531 11588 ///// 00651 26/// /3406 11130 29038 39996 92332 333 60000
OOXX RUP60 20231 99531 11588 ///// 00651 26/// /3405 11129 29038 39997 92342 333 60000
OOXX RUP60 20231 99531 11588 ///// 00651 26/// /2803 11127 29038 39997 92352 333 60000
OOXX RUP60 21001 99531 11588 ///// 00651 26/// /3104 11126 29038 39997 90002 333 60000
OOXX RUP60 21001 99531 11588 ///// 00651 26/// /3304 11127 29038 39997 90012 333 60000
OOXX RUP60 21001 99531 11588 ///// 00651 26/// /2903 11124 29037 39997 90022 333 60000
OOXX RUP60 21001 99531 11588 ///// 00651 26/// /2903 11122 29036 39996 90032 333 60000
OOXX RUP60 21001 99531 11588 ///// 00651 26/// /2804 11120 29036 39996 90042 333 60000
OOXX ARP01 20221 99345 50585 ///// 00311 26/// /0000 10141 29034 30037 92210 333 60000
OOXX ARP01 20221 99345 50585 ///// 00311 26/// /0000 10140 29035 30036 92220 333 60000
OOXX ARP01 20221 99345 50585 ///// 00311 26/// /0000 10138 29035 30036 92230 333 60000
OOXX ARP01 20221 99345 50585 ///// 00311 26/// /0000 10135 29035 30036 92240 333 60000
OOXX ARP01 20221 99345 50585 ///// 00311 26/// /0000 10134 29034 30036 92250 333 60000
OOXX ARP01 20231 99345 50585 ///// 00311 26/// /0000 10133 29033 30035 92300 333 60000
OOXX ARP01 20231 99345 50585 ///// 00311 26/// /0000 10132 29031 30035 92310 333 60000
OOXX ARP01 20231 99345 50585 ///// 00311 26/// /0000 10132 29031 30035 92320 333 60000
OOXX ARP01 20231 99345 50585 ///// 00311 26/// /0000 10132 29032 30036 92330 333 60000
OOXX ARP01 20231 99345 50585 ///// 00311 26/// /0000 10131 29033 30037 92340 333 60000
OOXX ARP01 20231 99345 50585 ///// 00311 26/// /0000 10130 29035 30036 92350 333 60000
OOXX ARP01 21001 99345 50585 ///// 00311 26/// /0000 10129 29036 30038 90000 333 60000
OOXX MXP44 20221 99280 71140 ///// 00041 26/// /1422 10173 29055 30102 92210 333 60000
OOXX MXP44 20221 99280 71140 ///// 00041 26/// /1422 10171 29055 30101 92220 333 60000
OOXX MXP44 20221 99280 71140 ///// 00041 26/// /1422 10176 29055 30101 92230 333 60000
OOXX MXP44 20221 99280 71140 ///// 00041 26/// /1422 10180 29055 30101 92240 333 60000
OOXX MXP44 20221 99280 71140 ///// 00041 26/// /1422 10177 29055 30100 92250 333 60000
OOXX MXP44 20231 99280 71140 ///// 00041 26/// /1422 10171 29055 30100 92300 333 60000
OOXX MXP44 20231 99280 71140 ///// 00041 26/// /1422 10167 29055 30099 92310 333 60000
OOXX MXP44 20231 99280 71140 ///// 00041 26/// /1422 10165 29055 30100 92320 333 60000
OOXX MXP44 20231 99280 71140 ///// 00041 26/// /1422 10164 29055 30099 92330 333 60000
OOXX MXP44 20231 99280 71140 ///// 00041 26/// /1422 10163 29055 30098 92340 333 60000
OOXX MXP44 20231 99280 71140 ///// 00041 26/// /1422 10168 29055 30099 92350 333 60000
OOXX MXP44 21001 99280 71140 ///// 00041 26/// /1422 10167 29055 30100 90000 333 60000
OOXX FRP31 20211 99052 70527 ///// 00091 26/// /0902 10247 29095 30175 92157 333 60000
OOXX FRP31 20221 99052 70527 ///// 00091 26/// /0902 10247 29094 30176 92207 333 60000
OOXX FRP31 20221 99052 70527 ///// 00091 26/// /0901 10245 29094 30177 92217 333 69920
OOXX FRP31 20221 99052 70527 ///// 00091 26/// /1102 10245 29093 30180 92227 333 60050
OOXX FRP31 20221 99052 70527 ///// 00091 26/// /0904 10242 29094 30182 92237 333 60000
OOXX FRP31 20221 99052 70527 ///// 00091 26/// /0903 10241 29094 30183 92247 333 69940
OOXX FRP31 20221 99052 70527 ///// 00091 26/// /0802 10240 29094 30184 92257 333 60030
OOXX FRP31 20231 99052 70527 ///// 00091 26/// /0701 10240 29094 30184 92307 333 69940
OOXX FRP31 20231 99052 70527 ///// 00091 26/// /0801 10240 29094 30184 92317 333 60000
OOXX FRP31 20231 99052 70527 ///// 00091 26/// /0000 10240 29094 30184 92327 333 60000
OOXX FRP31 20231 99052 70527 ///// 00091 26/// /1401 10239 29094 30184 92337 333 69920
OOXX FRP31 20231 99052 70527 ///// 00091 26/// /1201 10239 29094 30183 92347 333 69920
OOXX AUP09 20221 99124 31309 ///// 00321 26/// ///// 1//// 29/// 3//// 92214 333 6///0
OOXX AUP09 20221 99124 31309 ///// 00321 26/// ///// 1//// 29/// 3//// 92224 333 6///0
OOXX AUP09 20221 99124 31309 ///// 00321 26/// ///// 1//// 29/// 3//// 92234 333 6///0
OOXX AUP09 20221 99124 31309 ///// 00321 26/// ///// 1//// 29/// 3//// 92244 333 6///0
OOXX AUP09 20221 99124 31309 ///// 00321 26/// ///// 1//// 29/// 3//// 92254 333 6///0
OOXX AUP09 20231 99124 31309 ///// 00321 26/// ///// 1//// 29/// 3//// 92304 333 6///0
OOXX AUP09 20231 99124 31309 ///// 00321 26/// ///// 1//// 29/// 3//// 92314 333 6///0
OOXX AUP09 20231 99124 31309 ///// 00321 26/// ///// 1//// 29/// 3//// 92324 333 6///0
OOXX AUP09 20231 99124 31309 ///// 00321 26/// ///// 1//// 29/// 3//// 92334 333 6///0
OOXX AUP09 20231 99124 31309 ///// 00321 26/// ///// 1//// 29/// 3//// 92344 333 6///0
OOXX AUP09 20231 99124 31309 ///// 00321 26/// ///// 1//// 29/// 3//// 92354 333 6///0
OOXX AUP09 21001 99124 31309 ///// 00321 26/// ///// 1//// 29/// 3//// 90004 333 6///0
OOXX FRP30 20221 99493 30703 ///// 00361 26/// /3401 10081 29078 39986 92257 333 60000
OOXX FRP30 20231 99493 30703 ///// 00361 26/// /2702 10083 29078 39983 92307 333 60000
OOXX FRP30 20231 99493 30703 ///// 00361 26/// /0903 10079 29080 39981 92317 333 60000
OOXX FRP30 20231 99493 30703 ///// 00361 26/// /0203 10075 29083 39980 92327 333 60000
OOXX FRP30 20231 99493 30703 ///// 00361 26/// /2503 10074 29084 39979 92337 333 60000
OOXX FRP30 20231 99493 30703 ///// 00361 26/// /3204 10078 29084 39979 92347 333 60000
OOXX FRP30 20231 99493 30703 ///// 00361 26/// /3205 10082 29082 39976 92357 333 60000
OOXX FRP30 21001 99493 30703 ///// 00361 26/// /3105 10084 29083 39974 90007 333 60000
OOXX FRP30 21001 99493 30703 ///// 00361 26/// /3004 10091 29079 39970 90017 333 60000
OOXX FRP30 21001 99493 30703 ///// 00361 26/// /2603 10093 29080 39970 90027 333 60000
OOXX FRP30 21001 99493 30703 ///// 00361 26/// /3602 10090 29084 39970 90037 333 60000
OOXX FRP30 21001 99493 30703 ///// 00361 26/// /3002 10094 29083 39967 90047 333 60000
AAXX 21004 62600 32970 00204 10170 20070 39962 40182 333 58010
AAXX 21004 62640 32970 03612 10220 20090 39754 40114 333 59004
AAXX 21004 62641 31962 03208 10230 20190 30105 40143 70600 333 58005
AAXX 21004 62650 32970 00211 10170 20020 39873 40150 333 59003
AAXX 21004 62660 31968 03620 10200 20040 39848 40152 70700 333 58000
AAXX 21004 62680 32970 03605 10226 20134 39708 40105 333 59010
AAXX 21004 62721 32970 73310 10220 20040 39672 40116 80007 333 56009 59001 87275
AAXX 21004 62730 NIL
AAXX 21004 62733 32970 03203 10235 20150 39592 40100 333 59003
AAXX 21004 62750 32970 73206 10210 20090 39658 40090 80007 333 56009 59003 87275
AAXX 21004 62751 32970 70205 10267 20023 39656 40127 80007 333 56009 58000 87275
AAXX 21004 62752 32970 70204 10240 20100 39419 40092 80007 333 56009 59010 87275
AAXX 21004 62762 32970 73603 10265 20075 39613 40098 80007 333 56009 58001 87275
AAXX 21004 62771 32970 73209 10200 21040 39484 40137 80007 333 56009 58006 87275
AAXX 21004 62772 32970 03604 10212 20048 39674 40107 333 59001
AAXX 21004 62781 32970 70203 10165 21010 39495 40195 80007 333 56009 58006 87275
AAXX 21004 62790 32970 73606 10200 20000 39401 40140 80007 333 56009 58005 87275
AAXX 21004 62795 32970 73602 10210 20044 39592 40097 80007 333 56009 59003 87275
AAXX 21004 62600 32970 00204 10170 20070 39962 40182 333 58010
AAXX 21004 62640 32970 03612 10220 20090 39754 40114 333 59004
AAXX 21004 62641 31962 03208 10230 20190 30105 40143 70600 333 58005
AAXX 21004 62650 32970 00211 10170 20020 39873 40150 333 59003
AAXX 21004 62660 31968 03620 10200 20040 39848 40152 70700 333 58000
AAXX 21004 62680 32970 03605 10226 20134 39708 40105 333 59010
AAXX 21004 62721 32970 73310 10220 20040 39672 40116 80007 333 56009 59001 87275
AAXX 21004 62730 NIL
AAXX 21004 62733 32970 03203 10235 20150 39592 40100 333 59003
AAXX 21004 62750 32970 73206 10210 20090 39658 40090 80007 333 56009 59003 87275
AAXX 21004 62751 32970 70205 10267 20023 39656 40127 80007 333 56009 58000 87275
AAXX 21004 62752 32970 70204 10240 20100 39419 40092 80007 333 56009 59010 87275
AAXX 21004 62762 32970 73603 10265 20075 39613 40098 80007 333 56009 58001 87275
AAXX 21004 62771 32970 73209 10200 21040 39484 40137 80007 333 56009 58006 87275
AAXX 21004 62772 32970 03604 10212 20048 39674 40107 333 59001
AAXX 21004 62781 32970 70203 10165 21010 39495 40195 80007 333 56009 58006 87275
AAXX 21004 62790 32970 73606 10200 20000 39401 40140 80007 333 56009 58005 87275
AAXX 21004 62795 32970 73602 10210 20044 39592 40097 80007 333 56009 59003 87275
AAXX 21004 91559 46/// /9901 10235 40090 22200 00281
AAXX 21004 71713 16/// /2317 11094 21142 60001 333 11075 21096 70000
AAXX 21004 71824 46/// /2005 11126 21141 6///1 333 11126 21225 7////
AAXX 21004 71554 16/// /2514 11088 21145 30190 40196 50014 60001 333 11069 21090 70000
AAXX 21004 71323 16/// /0000 11151 21172 39924 40217 53001 60001 333 11086 21153 70020
AAXX 21004 91531 46/// /0810 1//// 40047 22200 00272
BBXX ICRA 21004 99125 30482 418// /2315 10270 2024/ 40110 54040 7//// 8/007 22254 00290 2//// 3//// 4//// 5//// 6//// 80250 /////
BBXX ZIPR7 21003 99310 30155 41598 42224 10180 20116 40140 56001 7//// 844// 22234 04191 2//// 3//// 4//// 5//// 80145
BBXX AMOUK17 21004 99340 30260 46/// ///// 10204 20190 30083 40085 57010 92350
AAXX 21004 41295 36/// /0006 10169 20137 39996 40178 333 0E020 58006
AAXX 21004 96925 12465 60000 10273 20252 30078 40083 52020 60014 84232 333 20259 50400 55000 56600 57860 58009 84817 80860
AAXX 21004 48566 32560 30000 10235 20220 30088 40096 52013 82104 333 20230 59010
AAXX 21004 89807 46/// /1516 4//// 5//// 90030 333 90700 91122
AAXX 21004 89807 46/// /1516 4//// 5//// 90030 333 90700 91122
AAXX 21004 48384 31957 20000 10161 20154 39955 40153 51019 71000 80002 333 20153 59010
AAXX 21004 71016 16/// ///// 10008 60001 333 10033 20006 70003
AAXX 21004 91642 46/// /0000 1//// 40062 22200 0////
AAXX 2100/ 68902 46/// ///// 40124 57006
AAXX 2100/ 89108 46/// ///// 11214 36998 4//// 5//// 90030
AAXX 2100/ 89866 46/// ///// 11005 39678 4//// 5//// 90030
AAXX 2100/ 89769 46/// ///// 11015 39745 4//// 5//// 90030
AAXX 2100/ 89314 46/// ///// 11060 38231 4//// 5//// 90040
AAXX 21004 89667 46/// /1207 11019 39775 4//// 5//// 90040
AAXX 21004 89667 46/// /1004 11013 29026 39776 4//// 5//// 90030
AAXX 21001 30829 11984 83203 11199 21218 39654 40402 53006 69922 70282 85031 333 21217 47001
BBXX 44056 21001 99362 70757 46/// ///// 1//// 90020 22200 00116 11302 21001 307// 41302 70011
BBXX SHIP 21004 99195 11312 41397 70625 10245 20224 40152 52008 70311 87417 90015 22243 00280 1//// 20302 307// 40302 5//// 6//// 80230 /////
BBXX MHMZ8 21003 99314 11319 41/98 63608 10145 20062 40234 55/// 70111 82151 22213 2//// 30000 80105
BBXX SHIP 21004 99518 11666 41598 43619 10000 21049 40993 56002 70322 841/3 90000 22214 00020 20202 304// 40302 80000
BBXX 46109 21001 99481 71234 46/// /2610 10095 40251 92357 22200 00079
BBXX 46110 21001 99481 71230 46/// /2609 10086 40245 92358
BBXX 46094 21001 99446 71243 46/// /3604 10090 90030
BBXX 46094 21001 99446 71243 46/// /3404 10089 90020
BBXX 46094 21001 99446 71243 46/// /3504 10087 90010
BBXX 46094 21001 99446 71243 46/// /3604 10086 90000
BBXX 46094 21001 99446 71243 46/// /3402 10085 92350
BBXX 46094 21001 99446 71243 46/// /3402 10085 92340
AAXX 21004 82979 32993 00000 10285 20205 39642 40083 333 10334 29056 55102 59007
AAXX 21004 83179 32594 81402 10305 20202 39634 40071 885// 333 10355 29049 55096 59012
AAXX 21004 83192 32995 01204 1254 20204 39971 40135 333 10358 29057 55078 58000
AAXX 21004 83339 32459 21804 10237 20161 39145 40101 82200 333 10288 29064 55092 59002
AAXX 21004 83498 32595 63603 10242 20235 38146 40151 83510 333 10298 29088 55/// 59002
BBXX 44055 21001 99391 70753 46/// ///// 1//// 90030 22200 00090 1//00 70002
BBXX WDE8293 21004 99364 70236 41698 81013 10180 20130 40310 56010 70022 882// 22265 00200 20204 309// 40404 5//// 6//// 80150 ICE /////
BBXX WDA2768 21004 99443 70873 43/// /3034 00/// 10019 21033 40124 55010 7//// 8//// 22253 0//// 2//// 3//// 4//// 5//// 6//// 81001 ICE /////
BBXX 46208 21001 99525 71327 46/// /3006 10072 40298 52012 22200 00076 11408 70042 333 91207
BBXX 46208 21001 99525 71327 46/// /3006 10072 40298 52012 22200 00076 11408 70042 333 91207
BBXX 46145 21001 99544 71324 46/// /3208 10054 40283 52020 22200 00070 11307 70037 333 91212
BBXX 46145 21001 99544 71324 46/// /3208 10054 40283 52020 22200 00070 11307 70037 333 91212
AAXX 21004 71970 16/// /3204 11025 21041 39460 40041 52028 60001 333 10052 21025 70000
AAXX 21004 71539 16/// /2811 10029 21028 39360 40051 53012 60001 333 10064 21006 70000
AAXX 21004 71026 16/// /1211 10033 21016 39220 40066 56007 60001 333 10055 7////
AAXX 21004 71363 16/// /3411 11336 21372 39952 40009 51007 60001 333 11317 21367 70000
AAXX 21004 92036 46/// /9901 10285 40066 22200 00316
BBXX V7QN8 21003 99311 11226 41596 80510 10100 2006/ 40250 55/// 75355 88627 22200 04100 20601 305// 40601 5//// 6//// 80080 ICE /////
BBXX MHMZ8 21003 99314 11319 41/98 63608 10145 20062 40234 55/// 70111 82151 22213 2//// 30000 80105
BBXX SHIP 21004 99518 11666 41598 43619 10000 21049 40993 56002 70322 841/3 90000 22214 00020 20202 304// 40302 80000
BBXX SHIP 21004 99195 11312 41397 70625 10245 20224 40152 52008 70311 87417 90015 22243 00280 1//// 20302 307// 40302 5//// 6//// 80230 /////
BBXX 46094 21001 99446 71243 46/// /3402 10085 92340
BBXX 46094 21001 99446 71243 46/// /3402 10085 92350
BBXX 46094 21001 99446 71243 46/// /3404 10089 90020
BBXX 46094 21001 99446 71243 46/// /3604 10086 90000
BBXX 46094 21001 99446 71243 46/// /3604 10090 90030
BBXX 46094 21001 99446 71243 46/// /3504 10087 90010
BBXX 46109 21001 99481 71234 46/// /2610 10095 40251 92357 22200 00079
BBXX 46110 21001 99481 71230 46/// /2609 10086 40245 92358
BBXX 44056 21001 99362 70757 46/// ///// 1//// 90020 22200 00116 11302 21001 307// 41302 70011
BBXX WDA2768 21004 99443 70873 43/// /3034 00/// 10019 21033 40124 55010 7//// 8//// 22253 0//// 2//// 3//// 4//// 5//// 6//// 81001 ICE /////
BBXX DDYZ2 21004 99500 70017 41296 52414 10130 20130 40210 56/// 76466 85797 22223 20310 80130
BBXX 62123 21004 99563 10022 47598 /3020 10074 20017 40102 55000 700// 22200
BBXX 63106 21004 99610 10017 46/// /3011 10035 40054 53015 22200
BBXX 63113 21004 99610 10017 46/// /3208 10045 21009 40055 52017 22200 10705 70024
BBXX 62107 21004 99501 70061 46/// /3035 10116 20108 40199 57007 22200 00117 10703 70017 333 90710 91142
BBXX 66022 21001 99541 10142 46/// /1607 10011 30060 22200 00035
BBXX WDE8293 21004 99364 70236 41698 81013 10180 20130 40310 56010 70022 882// 22265 00200 20204 309// 40404 5//// 6//// 80150 ICE /////
BBXX DDYZ2 21004 99500 70017 41697 22518 10120 20073 40195 51010 75055 8177/ 22223 04130 20504 80095
BBXX AMOUK04 21004 99533 70062 46/// ///// 10113 20102 30127 4//// 54001 92350
AAXX 21004 93713 46/// /0000 10180 40270 22200 00171
AAXX 21004 41506 02994 80000 10020 21006 48514 60002 8442/ 333 5699/ 58014 60007 84640 84460
AAXX 21004 41508 22696 80000 10006 21008 48545 60052 8572/ 333 5699/ 58002 60007 82725 83630 83460
AAXX 21004 41523 12695 80000 10010 21017 48520 60012 8452/ 333 5699/ 58011 60007 84640 84460
AAXX 21004 41535 12697 50000 10020 20008 48482 60032 82530 333 56990 58006 82635 83460
AAXX 21004 41536 NIL
AAXX 21004 41573 01696 83602 10010 21015 48519 60032 84520 333 58024
AAXX 21004 41600 01994 00000 10070 20047 39873 40181 60002 71000 333 59014 60007
AAXX 21004 41630 11996 00000 10070 20047 40194 60002 70400 333 58025
AAXX 21004 41678 11995 00000 10090 20069 40184 60002 71000 333 58020 60007
AAXX 21004 41696 NIL
AAXX 21004 41697 02996 00000 10111 20015 39982 40144 60002 333 59021 60007
AAXX 21004 41700 11994 00000 10075 20053 30043 40178 60002 70400 333 58039
AAXX 21004 41725 01995 00000 10110 20068 30076 40158 60002 70500 333 59002 60007
AAXX 21004 41746 02996 00000 10090 20069 30105 40164 60002 333 58004 60007
AAXX 21004 41759 11995 03612 10130 21065 30188 40194 60002 70700 333 58013
AAXX 21004 41785 02996 00000 10120 20079 30130 40143 60002 333 58007 60007
AAXX 21004 41529 12995 00000 10025 21018 39840 40243 60002 333 58052
AAXX 21004 41598 11995 00000 10075 20040 39904 40188 60002 70400 333 58019
AAXX 21004 41620 32995 01805 10015 21133 38603 48503 333 58015
AAXX 21004 41624 02995 03102 10067 20015 39994 40204 60002 333 58029 60007
AAXX 21004 41640 01995 00000 10100 20079 39919 40176 60002 70400 333 58018 60007
AAXX 21004 41660 119// 03104 11070 21110 38471 48536 60002 70600 333 58020
AAXX 21004 41675 11994 00000 10070 20047 30040 40184 60002 71000 333 58036
AAXX 21004 41712 12996 00502 11005 21114 39294 48556 60002 333 58032
AAXX 21004 41715 01995 03102 10090 20057 30119 40188 60002 70400 333 58035 60007
AAXX 21004 41756 NIL
AAXX 21004 41764 32996 03404 10095 20038 30102 40155 60002 333 58010 60007
AAXX 21004 41768 02996 00000 10100 20068 30138 40145 60002 333 58000 60007
AAXX 21004 41780 02996 10105 20047 30140 40169 60002 333 58019 60007
AAXX 21004 41710 01994 03110 10015 21133 39454 40278 60002 70600 333 59001 60007
AAXX 21004 41515 02695 60000 10035 21051 38551 48513 60002 84520 333 56990 59016 60007 84650 82458
AAXX 21004 41560 02696 53603 11025 21136 38247 48484 60002 83230 333 58001 60007
AAXX 21004 41571 116// 30000 10050 20014 39603 40212 60002 70511 81530 333 56990 58033
AAXX 21004 41594 319// 00000 10060 20036 39968 40196 71000 333 58027
AAXX 21004 41685 32993 00000 10045 21037 38906 48477 333 58005
AAXX 21004 41710 NIL
AAXX 21004 41718 11995 00502 10085 20063 30073 40182 60002 70400 333 58030
AAXX 21004 41739 01993 03106 11010 21040 39095 48516 60002 70540 333 58025 60007
AAXX 21004 41744 32996 00000 10025 21030 38783 48495 333 59004
AAXX 21004 41749 01994 00000 10100 20079 30137 40170 60002 71000 333 58010 60007
AAXX 21004 91689 46/// /1310 10283 40089 22200 00284
BBXX V7QN8 21003 99311 11226 41596 80510 10100 2006/ 40250 55/// 75355 88627 22200 04100 20601 305// 40601 5//// 6//// 80080 ICE /////
BBXX 46145 21001 99544 71324 46/// /3208 10054 40283 52020 22200 00070 11307 70037 333 91212
BBXX 46208 21001 99525 71327 46/// /3006 10072 40298 52012 22200 00076 11408 70042 333 91207
BBXX 44055 21001 99391 70753 46/// ///// 1//// 90030 22200 00090 1//00 70002
AAXX 21004 71227 46/// /2913 10010 20000 6///1 333 10055 21006 7////
BBXX SKEC 21001 99552 10136 46/// ///// 10020 40031 52001 22233 00057
AAXX 21001 23987 11495 82003 11124 21144 30203 40280 56005 60012 78582 889// 333 21149 47028 55000
AAXX 21004 04418 NIL
AAXX 21004 04425 NIL
AAXX 21004 04432 NIL
AAXX 21004 04436 46/// /0000 11436 21478
AAXX 21004 04464 46/// /1510 11430 21473 333 553// 20004
AAXX 21004 04485 46/// /0000 11443 21474 37185 57017 333 553// 20000
AAXX 21004 04488 46/// /2815 11408 21442 37228 333 553// 20000
AAXX 21004 89065 46/// /3403 11002 21041 39857 49935 52002 92350
AAXX 21004 89266 46/// /1507 11063 21075 39834 49975 57002 90000
BBXX MHMZ8 21003 99314 11319 41/98 63608 10145 20062 40234 55/// 70111 82151 22213 2//// 30000 80105
BBXX V7QN8 21003 99311 11226 41596 80510 10100 20060 40250 55/// 75355 88627 22200 04100 20601 305// 40601 5//// 6//// 80080 ICE /////
BBXX SHIP 21004 99518 11666 41598 43619 10000 21049 40993 56002 70322 841/3 90000 22214 00020 20202 304// 40302 80000
BBXX 46145 21001 99544 71324 46/// /3208 10054 40283 52020 22200 00070 11307 70037 333 91212
BBXX 46208 21001 99525 71327 46/// /3006 10072 40298 52012 22200 00076 11408 70042 333 91207
AAXX 21004 64500 11360 52008 10265 20244 30101 40114 69921 72166 885// 333 0//11 58005 84608 88630
AAXX 21004 64500 11360 52008 10265 20244 30101 40114 69921 72166 885// 333 0//11 58005 84608 88630
AAXX 21004 64501 31458 72206 10255 20241 3//// 4//// 70162 875// 333 0//12 5//// 83610 87626
BBXX 42013 21001 99272 70829 46/// ///// 1//// 40192 90020 22200 00198
BBXX 42013 21001 99272 70829 46/// ///// 1//// 40189 50000 90000 22200 00198
BBXX 62123 21004 99563 10022 41/97 /3120 10074 40128 53002 70200 8//// 22200 2//// 330// 40605 5////
BBXX AMOUK08 21004 99501 70061 46/// ///// 10118 20115 30196 40202 57012 92350
BBXX 63106 21004 99610 10017 46/// /3011 10035 40054 53015 22200
BBXX 63105 21004 99610 10017 47697 ///// 10058 21001 40054 53016 700// 22200
BBXX DDYZ2 21004 99500 70017 41697 22518 10120 20073 40195 51010 75055 8177/ 22223 04130 20504 80095
BBXX BAREU61 21004 99045 70058 46/// /2313 10276 29077 40124 57003 22224
BBXX BAREU05 21004 99471 70707 46/// ///// 40206 52011 22253
BBXX BAREU11 21004 99277 70583 46/// ///// 40255 52013 22214
BBXX BAREU04 21004 99514 70429 46/// ///// 49892 52154 22253
BBXX BAREU56 21004 99339 10134 46/// ///// 40204 57009 22242
BBXX TESTFR9 21004 99500 70038 46/// /2917 10115 29100 40208 22233
BBXX BAREU63 21004 99370 10193 46/// /1208 10131 29046 40152 57005 22262
BBXX BAREU08 21004 99515 10022 46/// ///// 40178 57010 22214
BBXX BAREU60 21004 99438 10141 46/// ///// 40136 22222
BBXX BAREU00 21004 99535 70048 46/// ///// 40124 57015 22263
BBXX BAREU51 21004 99444 10089 46/// ///// 40134 22200
BBXX 42013 21001 99272 70829 46/// ///// 1//// 40189 50000 90000 22200 00198
BBXX 42013 21001 99272 70829 46/// ///// 1//// 40192 90020 22200 00198
BBXX V7HP4 21004 99214 70854 41696 61424 10260 20217 40100 57010 7//// 86213 22233 00230 20606 3//// 4//// 5//// 6//// 80230 ICE /////
BBXX SKEC 21001 99552 10136 46/// ///// 10020 40031 52001 22233 00057
AAXX 21004 71408 46/// /2934 11022 21069 39910 49989 53038 6///1 333 10017 21059 7////
AAXX 21004 42895 31996 03601 10116 20079 40159 70500 333 58004
AAXX 21004 67002 32580 50000 10245 20232 30086 40120 84800 333 0//00 58012 81820 85630 92408
AAXX 21004 67009 NIL
AAXX 21004 67012 NIL
AAXX 21004 67025 NIL
AAXX 21004 67027 32580 22012 10263 20201 30071 40092 57009 81830 333 0//00 81820 555 81640 81360
AAXX 21004 67045 NIL
AAXX 21004 67072 NIL
AAXX 21004 67073 NIL
AAXX 21004 67083 32470 10000 10165 20140 38709 48487 58010 81800 333 0//00 81817
AAXX 21004 67095 32475 20000 10227 20220 30068 40075 57011 82800 333 0//00 81817 555 82633
AAXX 21004 67113 NIL
AAXX 21004 67117 NIL
AAXX 21004 67137 NIL
AAXX 21004 67143 NIL
AAXX 21004 67157 NIL
AAXX 21004 67161 NIL
AAXX 21004 67197 11460 70804 10214 20207 30064 40074 56005 69981 72196 873// 333 0//11 82817 81917 85633 94961 95831
AAXX 21001 98132 11458 80905 10214 20210 40189 5/001 60154 76064 8657/ 333 20192 56999 59019 70148 86616 88357
AAXX 21001 98133 11462 80707 10/// 20/// 40136 5//// 60184 71666 8562/ 222// 20703 333 20/// 56299 59024 70178 85718 88458 555 20042
AAXX 21001 98222 31570 20000 10242 20226 40110 52021 70544 81231 333 20225 56999 59006 81820
AAXX 21001 98233 11568 80000 10240 20223 40122 52018 60394 76064 8557/ 333 20190 56299 59018 70395 85620 88358 555 20223
AAXX 21001 98324 31965 10000 10280 20251 40099 52020 70544 80001 333 20242 56999 59011 81078
AAXX 21001 98327 31668 73203 10266 20218 39944 40118 52023 70544 81108 333 20224 56999 59007 81842 87280
AAXX 21001 98334 11475 63605 10240 20229 39920 40125 52025 60124 70262 83830 333 20220 56999 59014 70118 83817 86357 555 20042
AAXX 21001 98425 11558 63601 10266 20239 40100 52012 69954 70544 84270 333 20262 56999 59013 79995 84820 86358
AAXX 21001 98426 31570 10301 10268 20220 40108 52014 70544 81100 333 20246 56999 59008 81820
AAXX 21001 98427 11472 83602 10260 20247 39915 40092 53015 60034 71522 8327/ 333 20235 56999 59017 70031 83818 88357
AAXX 21001 98428 31460 60401 10268 20244 40102 52020 70541 82431 333 20262 56999 59006 82618 84360
AAXX 21001 98432 11568 60402 10266 20246 40104 52014 69904 70544 83272 333 20235 56999 59007 79999 83820
AAXX 21001 98433 11462 70203 10221 20211 39390 40110 55012 69924 71584 84230 333 20203 56999 59005 70002 84812 84357 555 20002
AAXX 21001 98434 11459 83602 10261 20257 30106 40114 53031 60084 76186 8452/ 333 20250 56199 59010 70076 84617 88457 555 20018
AAXX 21001 98435 11472 70402 10266 20238 40110 5//// 60024 70262 84270 333 20216 56199 59012 70022 84818 87358 555 20022
AAXX 21001 98442 NIL
AAXX 21001 98446 11465 81204 10262 20253 30072 40118 52020 60374 71562 84207 333 20234 56399 59008 70366 84818 88270 555 20266
AAXX 21001 98447 11465 80906 10250 20241 39850 40115 5//// 60384 76166 8482/ 222// 2//// 333 20/// 56199 58000 70376 84816 88456 555 20230
AAXX 21001 98538 11468 30402 10285 20253 30094 40099 52021 70541 82201 333 20255 56199 59011 82811
AAXX 21001 98546 11575 71801 10270 20268 30088 40096 52022 60094 70382 83208 333 20236 56999 59012 70093 83820 87275 555 20009
AAXX 21001 98548 12480 50902 10270 20250 30092 40098 53022 60024 84231 333 20250 56299 59008 70018 84816 98323
AAXX 21001 98553 11464 70905 10285 20254 30097 40101 52023 60304 71586 84908 333 20250 56299 59005 70301 82915 86272 555 20094
AAXX 21001 98558 11468 50908 10282 20257 40098 52031 60064 70584 83970 222// 20502 333 20250 56299 59001 70063 81915 83357
AAXX 21001 98642 32470 50000 10287 20249 30081 40090 52023 82201 33302 20253 56199 59010 82815 84075
AAXX 21001 98644 11465 70402 10252 30091 40100 53026 60074 70544 82268 333 20236 56199 59001 70074 82817 84358 56272
AAXX 21001 98648 11470 50302 10280 20256 30015 40097 52020 60014 70584 82201 333 20220 56299 59007 70014 82817 83075 555 29996
AAXX 21001 98746 11462 71403 10285 20237 40095 52027 69904 70584 82278 333 20239 56999 59005 79999 82818 84358 86275
AAXX 21001 98751 11475 30000 10240 20219 39426 40097 52031 60024 70544 82201 333 20182 56199 58007 70025 82815
AAXX 21001 98752 11466 71301 10277 20242 40097 52015 60064 70522 82338 333 20240 56999 59010 70062 82916 87272
AAXX 21001 98851 31468 70901 10278 20244 39936 40084 53026 70544 82270 333 56299 59011 82818 87358
AAXX 21004 96001 11556 81012 10262 20250 39954 40102 5//// 60184 70522 84272 333 20186 50000 55000 56200 57822 58004 84820 80860
BBXX 42369 21001 99272 70903 46/// /1904 1//// 92340 22200 10603 70017
BBXX 42370 21001 99273 70905 46/// ///// 10177 92340 22200 10403 70013
BBXX 42376 21001 99291 70879 46/// /1110 10242 40135 92340 22200 10704 70019
BBXX 42887 21001 99282 70885 46/// /1905 1//// 92340 22200 10604 70020
BBXX V7HP4 21004 99214 70854 41696 61424 10260 20217 40100 57010 7//// 86213 22233 00230 20606 3//// 4//// 5//// 6//// 80230 ICE /////
BBXX C6TH9 21003 99175 51498 41297 50410 10270 2020/ 40150 54/// 7//11 841/3 22200 00270 2//// 3//// 4//// 5//// 6//// 80220 ICE /////
BBXX A8VL8 21004 99056 10936 41897 60418 10290 20263 40090 52010 7//51 8548/ 22213 00250 20603 304// 40502 5//// 6//// 80270 ICE /////
AAXX 2100/ 89828 46/// ///// 11243 36461 4//// 5//// 90040
AAXX 2100/ 89108 46/// ///// 11216 36998 4//// 5//// 90040
AAXX 2100/ 89879 46/// ///// 10018 39659 4//// 5//// 90040
AAXX 2100/ 89872 46/// ///// 11035 39723 4//// 5//// 90040
AAXX 2100/ 89869 46/// ///// 11025 39692 4//// 5//// 90040
AAXX 2100/ 89329 46/// ///// 11059 38722 4//// 5//// 90040
AAXX 2100/ 89868 46/// ///// 11036 39680 4//// 5//// 90040
AAXX 21001 15350 01597 81102 10011 20011 39970 40093 54000 60051 72162 8802/ 333 55000 60037 91004 91104
BBXX UFLT 21001 99493 11455 42/96 53206 11070 40200 52002 85260 22213 00040 301// 40404
BBXX BAREU61 21004 99045 70058 46/// /2313 10276 29077 40124 57003 22224
BBXX A8VL8 21004 99056 10936 41897 60418 10290 20263 40090 52010 7//51 8548/ 22213 00250 20603 304// 40502 5//// 6//// 80270 ICE /////
BBXX BAREU63 21004 99370 10193 46/// /1208 10131 29046 40152 57005 22262
BBXX BAREU08 21004 99515 10022 46/// ///// 40178 57010 22214
BBXX TESTFR9 21004 99500 70038 46/// /2917 10115 29100 40208 22233
BBXX BAREU60 21004 99438 10141 46/// ///// 40136 22222
BBXX BAREU00 21004 99535 70048 46/// ///// 40124 57015 22263
BBXX BAREU51 21004 99444 10089 46/// ///// 40134 22200
BBXX BAREU56 21004 99339 10134 46/// ///// 40204 57009 22242
BBXX 42376 21001 99291 70879 46/// /1110 10242 40135 92340 22200 10704 70019
BBXX 42887 21001 99282 70885 46/// /1905 1//// 92340 22200 10604 70020
BBXX 42369 21001 99272 70903 46/// /1904 1//// 92340 22200 10603 70017
BBXX 42370 21001 99273 70905 46/// ///// 10177 92340 22200 10403 70013
BBXX A8PB2 21004 99100 10758 41/97 30712 10255 20227 40030 53/// 70111 81/37 22274 04290 29903 80235
BBXX AMOUK04 21004 99533 70062 46/// ///// 10113 20102 30127 4//// 54001 92350
BBXX A8NW9 21004 99466 70203 41/98 82117 10139 20125 40362 54000 70311 8//// 22214 04130 20603 328// 41003 80131
BBXX V2NA1 21004 99451 70231 41297 82015 10130 20051 40310 52022 703// 8/7// 22223 04120 20704 80090
BBXX PDXQ 21003 99441 70263 41397 81822 10160 20127 40301 52001 70222 847// 22223 04130 205// 80140
BBXX WDE8293 21004 99364 70236 41698 81013 10180 20130 40310 56010 70022 882// 22265 00200 20204 309// 40404 5//// 6//// 80150 /////
BBXX DANV 21004 99361 70009 41998 12622 10162 20129 40270 50002 7//00 80006 22224 04150 20204 80142
AAXX 21004 89614 46/// /0818 11058 29077 38929 4//// 5//// 90030 333 90700 91122
AAXX 21004 89614 46/// /0818 11058 29077 38929 4//// 5//// 90030 333 90700 91122
BBXX DDYZ2 21004 99500 70017 41296 52414 10130 20130 40210 56/// 76466 85797 22223 20310 80130
BBXX 62123 21004 99563 10022 47598 /3020 10074 20017 40102 55000 700// 22200
BBXX 63106 21004 99610 10017 46/// /3011 10035 40054 53015 22200
BBXX 63113 21004 99610 10017 46/// /3208 10045 21009 40055 52017 22200 10705 70024
BBXX 62107 21004 99501 70061 46/// /3035 10116 20108 40199 57007 22200 00117 10703 70017 333 90710 91142
BBXX 9V7631 21004 99010 31252 41/98 40108 10300 20216 40086 51020 70111 8/164 22201 00350 20200 336// 40201 80240
BBXX 9V7631 21004 99010 31252 41/98 40108 10300 20216 40086 51020 70111 8/164 22201 00350 20200 336// 40201 80240
AAXX 21001 27595 42997 81402 11070 21108 30148 40304 57020 8805/
BBXX A8TX8 21003 99265 31125 41/98 31621 10250 20222 40133 53006 70200 83/4/ 22285 04250 21004 31620 41204 51005 80230
BBXX A8TX8 21003 99265 31125 41/98 31621 10250 20222 40133 53006 70200 83/4/ 22285 04250 21004 31620 41204 51005 80230
BBXX A8PB2 21004 99100 10758 41/97 30712 10255 20227 40030 53/// 70111 81/37 22274 04290 29903 80235
AAXX 21004 63705 32457 62904 10204 20198 38848 48502 8397/ 333 59001 83618 81920 85365 555 10200
BBXX 9V7631 21004 99010 31252 41/98 40108 10300 20216 40086 51020 70111 8/164 22201 00350 20200 336// 40201 80240
BBXX C6TH9 21003 99175 51498 41297 50410 10270 2020/ 40150 54/// 7//11 841/3 22200 00270 2//// 3//// 4//// 5//// 6//// 80220 ICE /////
AAXX 21004 63705 32457 62904 10204 20198 38848 48502 8397/ 333 59001 83618 81920 85365 555 10200
AAXX 21004 89266 46/// /1706 11065 21075 39834 49975 57003 90030
AAXX 21004 89262 46/// /1602 11013 21024 39923 49967 5//// 90040
AAXX 21004 89013 46/// /1017 11165 21200 37647 49650 5//// 90020
AAXX 21004 89065 46/// /9901 10001 21041 39857 49935 54000 90030
AAXX 21004 89257 46/// /2310 11099 21116 39890 49962 57008 90030
AAXX 21004 89262 46/// /1603 11013 21024 39923 49967 57002 90030
BBXX UFLT 21001 99493 11455 42/96 53206 11070 40200 52002 85260 22213 00040 301// 40404
AAXX 21004 91375 46/// /0314 10290 40070 22200 00283
AAXX 21004 91165 11566 60420 10228 20200 30135 40170 56017 69951 761// 92353
AAXX 21004 91203 11473 80906 10288 20260 30105 40110 51014 60024 78086 85271
AAXX 21004 91212 12566 40712 10283 20228 31379 40112 50010 60011 92354
AAXX 21004 91245 32566 20715 10290 20220 30157 92351
AAXX 21004 91285 12566 63507 10244 20200 30127 40141 58032 60161 92353
AAXX 21004 91317 11474 40810 10294 20272 30073 40077 5//// 60024 70282 84200
AAXX 21004 91324 12474 80110 10089 20258 30072 40074 60024 83204
AAXX 21004 91334 12474 80412 10295 20246 30078 40081 50005 69934 82271
AAXX 21004 91348 11474 80606 10289 20235 30030 40083 58002 60124 70282 83171
AAXX 21004 91356 11316 80815 10256 20250 30072 40079 50000 60474 70186 889//
AAXX 21004 91367 32474 71015 10300 20263 83231
AAXX 21004 91376 12480 40413 10300 20238 30068 40071 58014 69904 82101
AAXX 21004 91408 32474 70910 10311 20251 30047 40085 52017 82208
AAXX 21004 91413 11469 80813 10273 20252 30069 40095 51015 60154 70282 84271
AAXX 21004 91610 11599 20917 10300 20235 40064 58015 60001 70200 82100
AAXX 21004 91155 NIL
AAXX 21004 91217 NIL
AAXX 21004 91232 NIL
AAXX 21004 91250 NIL
AAXX 21004 91275 NIL
AAXX 21004 91339 NIL
AAXX 21004 91353 NIL
AAXX 21004 91366 NIL
AAXX 21004 91369 NIL
AAXX 21004 91371 NIL
AAXX 21004 91378 NIL
AAXX 21004 91425 NIL
AAXX 21004 91434 NIL
AAXX 21004 91601 NIL
BBXX 42369 21001 99272 70903 46/// /1804 1//// 90000 22200 10604 70018
BBXX 42370 21001 99273 70905 46/// ///// 10179 90000 22200 10403 70014
BBXX 42376 21001 99291 70879 46/// /1210 10243 40138 53006 90000 22200 10704 70019
BBXX 42887 21001 99282 70885 46/// /1804 1//// 90000 22200 10604 70018
BBXX 62123 21004 99563 10022 41/97 /3120 10074 40128 53002 70200 8//// 22200 2//// 330// 40605 5////
BBXX AMOUK08 21004 99501 70061 46/// ///// 10118 20115 30196 40202 57012 92350
BBXX 63106 21004 99610 10017 46/// /3011 10035 40054 53015 22200
BBXX 63105 21004 99610 10017 47697 ///// 10058 21001 40054 53016 700// 22200
BBXX DDYZ2 21004 99500 70017 41697 22518 10120 20073 40195 51010 75055 8177/ 22223 04130 20504 80095
AAXX 21004 03872 17461 /2401 10067 20062 30182 40187 58013 60021 761// 92350 333 55/// 20245 82/19 85/33
AAXX 21004 91245 32566 20715 10290 20220 30157 92351
AAXX 21004 91165 11566 60420 10228 20200 30135 40170 56017 69951 761// 92353
AAXX 21004 91212 12566 40712 10283 20228 31379 40112 50010 60011 92354
AAXX 21004 91285 12566 63507 10244 20200 30127 40141 58032 60161 92353
AAXX 21004 91317 11474 40810 10294 20272 30073 40077 5//// 60024 70282 84200
AAXX 21004 91334 12474 80412 10295 20246 30078 40081 50005 69934 82271
AAXX 21004 91348 11474 80606 10289 20235 30030 40083 58002 60124 70282 83171
AAXX 21004 91356 11316 80815 10256 20250 30072 40079 50000 60474 70186 889//
AAXX 21004 91376 12480 40413 10300 20238 30068 40071 58014 69904 82101
AAXX 21004 91408 32474 70910 10311 20251 30047 40085 52017 82208
AAXX 21004 91413 11469 80813 10273 20252 30069 40095 51015 60154 70282 84271
BBXX A8TX8 21003 99265 31125 41/98 31621 10250 20222 40133 53006 70200 83/4/ 22285 04250 21004 31620 41204 51005 80230
BBXX 42376 21001 99291 70879 46/// /1210 10243 40138 53006 90000 22200 10704 70019
BBXX 42887 21001 99282 70885 46/// /1804 1//// 90000 22200 10604 70018
BBXX 42370 21001 99273 70905 46/// ///// 10179 90000 22200 10403 70014
BBXX 42369 21001 99272 70903 46/// /1804 1//// 90000 22200 10604 70018
AAXX 21004 71425 16/// /3120 11080 21136 30123 40160 52036 60001 333 11056 21082 70000
AAXX 21004 71710 16/// /3126 11048 21075 30104 40114 53037 60001 333 11013 21057 70030
AAXX 21004 71427 16/// /2815 11116 21168 30175 40183 51018 60001 333 11082 21118 70012
AAXX 21004 71388 46/// /1404 11169 21192 30000 40196 50000 6///1 333 11115 21213 7////
AAXX 21004 41316 36/77 /3315 10213 20046 30141 40167 333 0E020 59000
AAXX 21004 48568 01458 80000 10251 20235 30085 40092 52013 60064 71062 84877 333 20246 59003 60017 70060
BBXX SHIP 21004 99276 11218 41498 80309 10150 20133 40208 54000 70322 887// 22254 00163 20305 304// 40405 80140
BBXX DDYZ2 21004 99500 70017 41296 52414 10130 20130 40210 56/// 76466 85797 22223 20310 80130
BBXX 62123 21004 99563 10022 47598 /3020 10074 20017 40102 55000 700// 22200
BBXX 63106 21004 99610 10017 46/// /3011 10035 40054 53015 22200
BBXX 63113 21004 99610 10017 46/// /3208 10045 21009 40055 52017 22200 10705 70024
BBXX 62107 21004 99501 70061 46/// /3035 10116 20108 40199 57007 22200 00117 10703 70017 333 90710 91142
AAXX 21004 41316 36/77 /3315 10213 20046 30141 40167 333 0E020 59000
BBXX MINUK01 2100/ 99588 70014 46/// ///// 10063 40088 52019
BBXX 42369 21001 99272 70903 46/// /1804 1//// 90020 22200 10604 70018
BBXX 42370 21001 99273 70905 46/// ///// 10180 90020 22200 10403 70013
BBXX 42376 21001 99291 70879 46/// /1210 10243 40138 90020 22200 10704 70019
BBXX 42887 21001 99282 70885 46/// /1805 1//// 90020 22200 10604 70021
BBXX MINUK01 2100/ 99588 70014 46/// ///// 10063 40088 52019
BBXX 42887 21001 99282 70885 46/// /1805 1//// 90020 22200 10604 70021
BBXX 42370 21001 99273 70905 46/// ///// 10180 90020 22200 10403 70013
BBXX 42376 21001 99291 70879 46/// /1210 10243 40138 90020 22200 10704 70019
BBXX 42369 21001 99272 70903 46/// /1804 1//// 90020 22200 10604 70018
BBXX MINUK01 2100/ 99588 70014 46/// ///// 10063 40088 52019
BBXX MINFR05 2100/ 99325 70139 46/// ///// 10175 40283 52001
AAXX 21004 60265 32970 00000 10064 21043 38986 48592 52006
BBXX 62123 21004 99563 10022 41/97 /3120 10074 40128 53002 70200 8//// 22200 2//// 330// 40605 5////
BBXX AMOUK08 21004 99501 70061 46/// ///// 10118 20115 30196 40202 57012 92350
BBXX 63106 21004 99610 10017 46/// /3011 10035 40054 53015 22200
BBXX 63105 21004 99610 10017 47697 ///// 10058 21001 40054 53016 700// 22200
BBXX DDYZ2 21004 99500 70017 41697 22518 10120 20073 40195 51010 75055 8177/ 22223 04130 20504 80095
BBXX MINFR05 2100/ 99325 70139 46/// ///// 10175 40283 52001
BBXX WDF9323 21003 99019 11681 41398 70319 1//// 2//// 40060 5//// 703// 84368 22213 0//// 2//// 3//// 4//// 5//// 6//// ICE /////
AAXX 21004 96607 32460 72505 10296 20244 30082 40097 52003 85221 333 56000 85815
AAXX 21001 12843 31972 02402 11042 21056 39961 40139 52004 70200
AAXX 2100/ 89869 46/// ///// 11024 39694 4//// 5//// 90010
AAXX 2100/ 89866 46/// ///// 11014 39678 4//// 5//// 90010
AAXX 2100/ 89329 46/// ///// 11055 38722 4//// 5//// 90010
AAXX 2100/ 89799 46/// ///// 11234 4//// 5//// 90010
AAXX 2100/ 89868 46/// ///// 11041 39681 4//// 5//// 90010
AAXX 2100/ 89769 46/// ///// 11024 39741 4//// 5//// 90010
AAXX 2100/ 89327 46/// ///// 10000 39686 4//// 5//// 90010
AAXX 2100/ 89108 46/// ///// 11215 36998 4//// 5//// 90010
AAXX 2100/ 89879 46/// ///// 10029 39658 4//// 5////
AAXX 2100/ 89879 46/// ///// 10025 39656 4//// 5//// 90010
BBXX DDYZ2 21004 99500 70017 41296 52414 10130 20130 40210 56/// 76466 85797 22223 20310 80130
BBXX 62123 21004 99563 10022 47598 /3020 10074 20017 40102 55000 700// 22200
BBXX 63106 21004 99610 10017 46/// /3011 10035 40054 53015 22200
BBXX 63113 21004 99610 10017 46/// /3208 10045 21009 40055 52017 22200 10705 70024
BBXX 62107 21004 99501 70061 46/// /3035 10116 20108 40199 57007 22200 00117 10703 70017 333 90710 91142
AAXX 21001 24329 32998 00000 11443 21469 39990 40347 52002 333 21445 47028 55000
AAXX 21004 96009 12457 82103 10226 20217 30051 40860 52013 69964 83921 333 20220 50460 55052 56000 57903 58001 81917 82618 85460 80962
AAXX 21001 01321 16/// /0801 11028 21031 39799 40058 52017 69931 333 91105
OOXX AAERC 21004 99815 31639 60713 00451 46/// /2011 11022 21058 39706 49761 57011 92350
OOXX AABRI 21004 99839 51342 60134 05251 46/// /0106 10006 21191 39243 49849 52019 92350
AAXX 21001 23955 11984 82604 11108 21125 30259 40324 52002 69902 70281 80001 333 21126 47032 55005
AAXX 21004 89329 46/// /0110 11054 38717 49768 52011 92350
AAXX 21004 89376 46/// /2907 11076 39661 49728 54000 92350
AAXX 21004 89734 46/// /0614 11229 36054 4//// 57002 92350
AAXX 21004 89744 46/// /0118 11244 36403 4//// 57006 92350
AAXX 21004 89769 46/// /2110 11014 39716 49767 52001 92350
AAXX 21004 89799 46/// /1216 11235 36776 4//// 52005 92350
AAXX 21004 89866 46/// /1304 11014 39646 49777 52010 92350
AAXX 21004 89873 46/// /1619 11013 39678 49753 57002 92350
AAXX 21001 02805 42999 01801 11106 21125 39891 40029 52015 70211
AAXX 21001 31866 32998 22507 11191 21249 30222 40228 58001 82040 333 21196 44011
BBXX 62123 21004 99563 10022 41/97 /3120 10074 40128 53002 70200 8//// 22200 2//// 330// 40605 5////
BBXX AMOUK08 21004 99501 70061 46/// ///// 10118 20115 30196 40202 57012 92350
BBXX 63106 21004 99610 10017 46/// /3011 10035 40054 53015 22200
BBXX 63105 21004 99610 10017 47697 ///// 10058 21001 40054 53016 700// 22200
BBXX DDYZ2 21004 99500 70017 41697 22518 10120 20073 40195 51010 75055 8177/ 22223 04130 20504 80095
AAXX 21004 71894 16/// /2921 10075 20051 30269 40278 56005 60001 333 10087 20061 70204
AAXX 21004 71390 46/// /2609 11122 6///1 333 11082 21124 7////
AAXX 21004 71614 16/// /0000 11095 21113 30142 40210 58003 60001 333 11040 21096 70000
AAXX 21004 71894 16/// /2921 10075 20051 30269 40278 56005 60001 333 10087 20061 70204
AAXX 21001 38847 429// 22504 11094 21124 40435 54000 80003
AAXX 21004 61995 11468 51006 10227 20220 39647 69921 71798 84902 333 0//11 58008 81914 83817
AAXX 21004 89332 46/// /0210 11008 39182 49780 52015 92350
AAXX 21003 64810 32456 40000 10250 20238 30088 40114 83530 333 55/// 58009 83613 83363
AAXX 21004 61049 32960 50000 10168 21045 39808 40127 80002 333 0//00 58003 85080
AAXX 21004 61049 32960 50000 10168 21045 39808 40127 80002 333 0//00 58003 85080
AAXX 21004 63612 32980 00000 10212 20159 40129 333 58003
AAXX 21004 63661 32980 00505 10139 20097 48533 333 58006
AAXX 21004 63695 3298002502 10233 20112 333
AAXX 21004 63708 325801000010197 20183 48481 81400 333 58008 81620
AAXX 21004 63714 32980 00000 10124 20104 48511 333 58007
BBXX DDYZ2 21004 99500 70017 41296 52414 10130 20130 40210 56/// 76466 85797 22223 20310 80130
BBXX 62123 21004 99563 10022 47598 /3020 10074 20017 40102 55000 700// 22200
BBXX 63106 21004 99610 10017 46/// /3011 10035 40054 53015 22200
BBXX 63113 21004 99610 10017 46/// /3208 10045 21009 40055 52017 22200 10705 70024
BBXX 62107 21004 99501 70061 46/// /3035 10116 20108 40199 57007 22200 00117 10703 70017 333 90710 91142
AAXX 21001 15280 01/93 83406 11112 21121 37355 47885 56004 60071 77374 8452/ 333 48038 55040 60047 96041
AAXX 21004 61049 32960 50000 10168 21045 39808 40127 80002 333 0//00 58003 85080
AAXX 21004 44404 42905 02701 10060 21092 38131 48482 333 58009 44406 NIL
AAXX 21004 44409 41/04 90000 10096 20092 39936 40145 74744 89/// 333 58003 44416 NIL
AAXX 21004 44418 41/07 90000 10098 20098 39994 40192 743// 89/// 333 58008
AAXX 21004 44424 42765 13602 11072 21094 37697 47127 81010 333 58007 44429 NIL
AAXX 21004 44434 42456 10000 10070 20068 39244 48538 81600 333 58003 44438 NIL
AAXX 21004 44449 41/02 92404 10110 20110 30018 40179 747// 333 58000
AAXX 21004 44454 41550 10000 10038 20016 38670 48503 81100 333 59015
AAXX 21004 44462 42960 00000 10060 2//// 38266 48487 333 58004 44474 NIL
AAXX 21004 44477 NIL
AAXX 21004 44478 NIL
AAXX 21000 44213 11699 70000 11271 21302 38984 40661 57003 69952 70272 87500 333 21296 47010 555 31301 93100
BBXX MINFR09 2100/ 99281 31539 46/// ///// 40164 57002
BBXX 62123 21004 99563 10022 41/97 /3120 10074 40128 53002 70200 8//// 22200 2//// 330// 40605 5////
BBXX AMOUK08 21004 99501 70061 46/// ///// 10118 20115 30196 40202 57012 92350
BBXX 63106 21004 99610 10017 46/// /3011 10035 40054 53015 22200
BBXX 63105 21004 99610 10017 47697 ///// 10058 21001 40054 53016 700// 22200
BBXX DDYZ2 21004 99500 70017 41697 22518 10120 20073 40195 51010 75055 8177/ 22223 04130 20504 80095
BBXX MINFR09 2100/ 99281 31539 46/// ///// 40164 57002
AAXX 21004 62325 31958 00000 10141 20122 40199 57002 71000
AAXX 21004 67009 33580 30000 10250 20236 39986 40104 56005 83800 333 0//00 81820 83640
AAXX 21004 67012 11465 7//// 10250 20231 30094 40105 54000 69921 7606/ 878// 333 0//11 83817 86633
AAXX 21004 67073 33980 0//// 10256 20192 30070 40096 56007 333 0//00
AAXX 21004 67137 31260 50000 10176 20160 38858 48465 56003 710// 84830 333 0//00 81705 81817 83620 555 82360
AAXX 21004 67157 33580 1//// 10/// 20/// 30079 40086 54000 81200 333 0//00 81820
AAXX 21004 67023 11465 72208 10238 20226 30085 40091 58009 60101 7299/ 879// 333 0//11 83817 81917 87640 94973/6/8 95873/6/8
AAXX 21004 67131 33580 40000 10/// 20/// 30068 40073 56009 84800 333 0//00 83820 555 81640
AAXX 21001 38844 429// 00502 11104 21148 48520 56008
AAXX 21004 41696 02996 00000 11110 21183 38025 48567 60002 333 58011 60007
BBXX DDYZ2 21004 99500 70017 41296 52414 10130 20130 40210 56/// 76466 85797 22223 20310 80130
BBXX 62123 21004 99563 10022 47598 /3020 10074 20017 40102 55000 700// 22200
BBXX 63106 21004 99610 10017 46/// /3011 10035 40054 53015 22200
BBXX 63113 21004 99610 10017 46/// /3208 10045 21009 40055 52017 22200 10705 70024
BBXX 62107 21004 99501 70061 46/// /3035 10116 20108 40199 57007 22200 00117 10703 70017 333 90710 91142
AAXX 21004 67023 11465 72208 10238 20226 30085 40091 58009 60101 7299/ 879// 333 0//11 83817 81917 87640 94973 94976 94978 95873 95836 95838
AAXX 21004 67131 33580 40000 10/// 20/// 30068 40073 56009 84800 333 0//00 83820 555 81640
AAXX 21004 89272 46/// /0506 11124 21140 38139 49798 5//// 90030
AAXX 21004 89272 46/// /0604 11118 21146 38139 49795 5//// 90010
AAXX 21004 89272 46/// /0404 11124 21149 38139 49798 5//// 90020
BBXX 62123 21004 99563 10022 41/97 /3120 10074 40128 53002 70200 8//// 22200 2//// 330// 40605 5////
BBXX AMOUK08 21004 99501 70061 46/// ///// 10118 20115 30196 40202 57012 92350
BBXX 63106 21004 99610 10017 46/// /3011 10035 40054 53015 22200
BBXX 63105 21004 99610 10017 47697 ///// 10058 21001 40054 53016 700// 22200
BBXX DDYZ2 21004 99500 70017 41697 22518 10120 20073 40195 51010 75055 8177/ 22223 04130 20504 80095
AAXX 21004 07690 02670 43310 10039 21034 30113 40148 52009 60001 82502 333 60007 82640 83073 90710 91114 93100 555 60005
BBXX DDYZ2 21004 99500 70017 41296 52414 10130 20130 40210 56/// 76466 85797 22223 20310 80130
BBXX 62123 21004 99563 10022 47598 /3020 10074 20017 40102 55000 700// 22200
BBXX 63106 21004 99610 10017 46/// /3011 10035 40054 53015 22200
BBXX 63113 21004 99610 10017 46/// /3208 10045 21009 40055 52017 22200 10705 70024
BBXX 62107 21004 99501 70061 46/// /3035 10116 20108 40199 57007 22200 00117 10703 70017 333 90710 91142
BBXX MINFR03 2100/ 99090 10698 46/// ///// 10275 40094 52003
BBXX MINFR03 2100/ 99090 10698 46/// ///// 10275 40094 52003
BBXX 52243 21001 99193 11666 46/// ///// 1//// 90000 22200 00264
BBXX 51178 21001 99142 51695 46/// ///// 1//// 90000 22200 00288
BBXX 51174 21001 99142 51697 46/// ///// 1//// 90000 22200 00289
BBXX 51171 21001 99064 71623 46/// ///// 1//// 90000 22200 00279
BBXX 51170 21001 99168 71695 46/// ///// 1//// 90000 22200 00261
BBXX 51169 21001 99004 51600 46/// ///// 1//// 90000 22200 00260
AAXX 21004 89272 46/// /0803 11111 21152 38139 49790 57003 90000
BBXX 62123 21004 99563 10022 41/97 /3120 10074 40128 53002 70200 8//// 22200 2//// 330// 40605 5////
BBXX AMOUK08 21004 99501 70061 46/// ///// 10118 20115 30196 40202 57012 92350
BBXX 63106 21004 99610 10017 46/// /3011 10035 40054 53015 22200
BBXX 63105 21004 99610 10017 47697 ///// 10058 21001 40054 53016 700// 22200
BBXX DDYZ2 21004 99500 70017 41697 22518 10120 20073 40195 51010 75055 8177/ 22223 04130 20504 80095
BBXX 51170 21001 99168 71695 46/// ///// 1//// 90000 22200 00261
BBXX 51171 21001 99064 71623 46/// ///// 1//// 90000 22200 00279
BBXX 52243 21001 99193 11666 46/// ///// 1//// 90000 22200 00264
BBXX 51178 21001 99142 51695 46/// ///// 1//// 90000 22200 00288
BBXX 51174 21001 99142 51697 46/// ///// 1//// 90000 22200 00289
BBXX 51169 21001 99004 51600 46/// ///// 1//// 90000 22200 00260
AAXX 21004 13600 12960 60904 10055 20037 30076 40129 54003 60001 86050 333 86360
AAXX 21001 11659 07659 /1302 11030 21049 39467 40126 57006 69901 78577 333 55064 69905 81/39 87/49 88/61
AAXX 21004 13610 11660 50000 10008 21014 39672 40106 58003 60011 70272 85500 333 85633
AAXX 21004 13619 11540 80000 11002 21002 39351 42744 52009 69921 71074 885// 333 88623
AAXX 21004 13624 11958 81410 10032 20017 30088 40128 54004 60011 76066 8802/ 333 88460
AAXX 21004 13629 11662 71406 11012 21026 39060 42723 53008 69981 70177 87500 333 87636
AAXX 21004 13625 11550 80000 10030 20005 39906 40143 52012 60011 76066 885// 333 88623
BBXX DDYZ2 21004 99500 70017 41296 52414 10130 20130 40210 56/// 76466 85797 22223 20310 80130
BBXX 62123 21004 99563 10022 47598 /3020 10074 20017 40102 55000 700// 22200
BBXX 63106 21004 99610 10017 46/// /3011 10035 40054 53015 22200
BBXX 63113 21004 99610 10017 46/// /3208 10045 21009 40055 52017 22200 10705 70024
BBXX 62107 21004 99501 70061 46/// /3035 10116 20108 40199 57007 22200 00117 10703 70017 333 90710 91142
AAXX 21004 97530 12462 80000 10276 20250 30072 40077 52020 60024 8684/ 333 20236 55070 56000 57802 58002 82814 84615 86460 80833
AAXX 21001 78090 15/// /0000 10209 30244 40247 69901 90000 222// 00124
BBXX 62123 21004 99563 10022 41/97 /3120 10074 40128 53002 70200 8//// 22200 2//// 330// 40605 5////
BBXX AMOUK08 21004 99501 70061 46/// ///// 10118 20115 30196 40202 57012 92350
BBXX 63106 21004 99610 10017 46/// /3011 10035 40054 53015 22200
BBXX 63105 21004 99610 10017 47697 ///// 10058 21001 40054 53016 700// 22200
BBXX DDYZ2 21004 99500 70017 41697 22518 10120 20073 40195 51010 75055 8177/ 22223 04130 20504 80095
AAXX 21001 15020 01596 80000 11014 21020 39898 40101 57004 60001 71022 8457/ 333 43003 55020 60007 91000 91100
AAXX 21004 71307 16/// /1508 10032 20010 39917 40170 56013 60001 333 10032 21010 7//// 555 10010
AAXX 21001 15020 01596 80000 11014 21020 39898 40101 57004 60001 71022 8457/ 333 43003 55020 60007 91000 91100
AAXX 21001 15470 02597 82605 10014 20014 39958 40087 57004 60001 8457/ 333 55000 60007 91007 91108
AAXX 21004 42260 31990 00702 10073 20736 40177 74444 333 58006
BBXX DDYZ2 21004 99500 70017 41296 52414 10130 20130 40210 56/// 76466 85797 22223 20310 80130
BBXX 62123 21004 99563 10022 47598 /3020 10074 20017 40102 55000 700// 22200
BBXX 63106 21004 99610 10017 46/// /3011 10035 40054 53015 22200
BBXX 63113 21004 99610 10017 46/// /3208 10045 21009 40055 52017 22200 10705 70024
BBXX 62107 21004 99501 70061 46/// /3035 10116 20108 40199 57007 22200 00117 10703 70017 333 90710 91142
AAXX 21001 10637 11575 62103 10021 20008 30021 40162 51017 69901 70262 83536 333 44006 55300 81622 83640 86270
AAXX 21004 60135 32958 31305 10075 20061 40301 51001 80002 333 83070
AAXX 21004 60101 32458 20702 10058 20043 40307 57001 82200 333 82816
AAXX 21004 60115 15960 22605 10029 21002 40309 50000 60001 80002 333 82073
AAXX 21004 60156 15460 20903 10071 20057 40309 56002 60001 82600 333 82710
AAXX 21004 60230 15957 00804 10080 20058 40292 50000 60001
BBXX 62123 21004 99563 10022 41/97 /3120 10074 40128 53002 70200 8//// 22200 2//// 330// 40605 5////
BBXX AMOUK08 21004 99501 70061 46/// ///// 10118 20115 30196 40202 57012 92350
BBXX 63106 21004 99610 10017 46/// /3011 10035 40054 53015 22200
BBXX 63105 21004 99610 10017 47697 ///// 10058 21001 40054 53016 700// 22200
BBXX DDYZ2 21004 99500 70017 41697 22518 10120 20073 40195 51010 75055 8177/ 22223 04130 20504 80095
AAXX 21001 11916 46/// /3407 11139 21168 37838 48371 52002 6///1 333 55022
AAXX 21004 91723 NIL
AAXX 21004 91964 NIL
BBXX WJRX 21004 99508 70097 42/97 83027 10130 40210 22262 20305
BBXX DDYZ2 21004 99500 70017 41296 52414 10130 20130 40210 56/// 76466 85797 22223 20310 80130
BBXX 62123 21004 99563 10022 47598 /3020 10074 20017 40102 55000 700// 22200
BBXX 63106 21004 99610 10017 46/// /3011 10035 40054 53015 22200
BBXX 63113 21004 99610 10017 46/// /3208 10045 21009 40055 52017 22200 10705 70024
BBXX 62107 21004 99501 70061 46/// /3035 10116 20108 40199 57007 22200 00117 10703 70017 333 90710 91142
BBXX WJRX 21004 99508 70097 42/97 83027 10130 40210 22262 20305
AAXX 21004 96607 32460 72805 10324 20238 30055 40070 57027 85221 333 56000 85814
BBXX VRDO9 21004 99063 10033 41/96 21908 10240 20211 40110 5//// 70110 81/// 22200 04200 20102 318// 40102 5//// 6//// 80220 ICE /////
BBXX WJRX 21004 99508 70097 42/97 83027 10130 40210 22262 20305
BBXX VRDO9 21004 99063 10033 41/96 21908 10240 20211 40110 5//// 70110 81/// 22200 04200 20102 318// 40102 5//// 6//// 80220 ICE /////
AAXX 21004 60252 32960 00904 10091 20053 40273 50009
AAXX 21004 71618 15966 02811 11277 21307 30023 40062 51015 60001 333 11153 21278 70000
AAXX 21004 71618 15966 02811 11277 21307 30023 40062 51015 60001 333 11153 21278 70000
BBXX 62123 21004 99563 10022 41/97 /3120 10074 40128 53002 70200 8//// 22200 2//// 330// 40605 5////
BBXX AMOUK08 21004 99501 70061 46/// ///// 10118 20115 30196 40202 57012 92350
BBXX 63106 21004 99610 10017 46/// /3011 10035 40054 53015 22200
BBXX 63105 21004 99610 10017 47697 ///// 10058 21001 40054 53016 700// 22200
BBXX DDYZ2 21004 99500 70017 41697 22518 10120 20073 40195 51010 75055 8177/ 22223 04130 20504 80095
AAXX 21004 68148 32960 30208 10243 20145 48531 52020 83081 333 20177
AAXX 21004 71372 16/// /0000 60001 333 7////
AAXX 21001 10946 07456 82403 10004 20004 39335 40184 52012 60031 77176 333 55/// 20138 30137 55300 20000 30000 60017 88/11
BBXX 42046 21001 99279 70940 46/// /3510 1//// 40123 90030 22200 00227 333 91213
BBXX 42046 21001 99279 70940 46/// /0108 1//// 40123 90000 22200 00227 333 91210
AAXX 21001 36864 32698 62302 11160 21202 39515 40490 58005 84531 333 21188
BBXX DDYZ2 21004 99500 70017 41296 52414 10130 20130 40210 56/// 76466 85797 22223 20310 80130
BBXX 62123 21004 99563 10022 47598 /3020 10074 20017 40102 55000 700// 22200
BBXX 63106 21004 99610 10017 46/// /3011 10035 40054 53015 22200
BBXX 63113 21004 99610 10017 46/// /3208 10045 21009 40055 52017 22200 10705 70024
BBXX 62107 21004 99501 70061 46/// /3035 10116 20108 40199 57007 22200 00117 10703 70017 333 90710 91142
BBXX A8CB7 21003 99199 30591 41297 20921 10250 20236 40120 56020 70111 82225 22254 06270 21004 31817 40905 50804 80240
BBXX A8CB7 21003 99199 30591 41297 20921 10250 20236 40120 56020 70111 82225 22254 06270 21004 31817 40905 50804 80240
BBXX S6SR 21004 99151 50047 41797 61310 10200 20169 40170 54000 7//11 8629/ 22213 00200 2//// 3//// 4//// 5//// 6//// 80180 ICE /////
BBXX A8CB7 21003 99199 30591 41297 20921 10250 20236 40120 56020 70111 82225 22254 06270 21004 31817 40905 50804 80240
BBXX S6SR 21004 99151 50047 41797 61310 10200 20169 40170 54000 7//11 8629/ 22213 00200 2//// 3//// 4//// 5//// 6//// 80180 ICE /////
BBXX 42046 21001 99279 70940 46/// /0108 1//// 40123 90000 22200 00227 333 91210
BBXX 42046 21001 99279 70940 46/// /3510 1//// 40123 90030 22200 00227 333 91213
AAXX 21004 67072 33680 2//08 10272 20239 30079 40085 56017 82500 333 0//00 82640 924/8
AAXX 21004 67113 33475 2//// 10232 20218 40/// 5//// 82800 333 0//00 81817 555 81633
BBXX 62123 21004 99563 10022 41/97 /3120 10074 40128 53002 70200 8//// 22200 2//// 330// 40605 5////
BBXX AMOUK08 21004 99501 70061 46/// ///// 10118 20115 30196 40202 57012 92350
BBXX 63106 21004 99610 10017 46/// /3011 10035 40054 53015 22200
BBXX 63105 21004 99610 10017 47697 ///// 10058 21001 40054 53016 700// 22200
BBXX DDYZ2 21004 99500 70017 41697 22518 10120 20073 40195 51010 75055 8177/ 22223 04130 20504 80095
BBXX VRXL7 21003 99354 70178 41297 72009 10170 2012/ 40325 50010 70311 87276 22253 00180 20102 33332 40102 50102 6//// 80140 ICE 0/0//
BBXX VRXL7 21003 99354 70178 41297 72009 10170 2012/ 40325 50010 70311 87276 22253 00180 20102 33332 40102 50102 6//// 80140 ICE 0/0//
BBXX VRXL7 21003 99354 70178 41297 72009 10170 2012/ 40325 50010 70311 87276 22253 00180 20102 33332 40102 50102 6//// 80140
AAXX 21001 10091 07458 81805 10004 21010 30015 40067 55003 69901 77170 333 55/// 20276 30117 55300 20000 30000 69907 87/10 87/14 88/19
BBXX A8IZ2 21004 99275 70572 43598 63513 10210 20120 40245 52005 86/// 22214 80150
BBXX A8IZ2 21004 99275 70572 43598 63513 10210 20120 40245 52005 86/// 22214 80150
AAXX 21001 15335 03/// /3503 10024 20022 30067 40074 58002 6///1 333 4//// 55000 6///7 91005 91105
AAXX 21001 26781 41396 80804 11023 21025 39787 40086 57018 77172 8872/ 333 88707
AAXX 21001 25428 11919 60000 11452 21483 39892 40284 52008 69900 71022 83031 333 21458 47024 55000 91101
BBXX 4XFB 2100/ 99371 70011 41498 22517 10160 20110 40250 54000 70000 8//// 22214 00190 2//00 3//// 4//// 5//// 80130
BBXX 4XFB 2100/ 99371 70011 41498 22517 10160 20110 40250 54000 70000 8//// 22214 00190 2//00 3//// 4//// 5//// 80130
AAXX 21004 41756 01993 03612 10100 20031 30127 40192 60002 70700 333 58027 60007
BBXX PBEN 21003 99349 10223 41/98 22730 10150 20097 40180 54000 7//22 821// 22262 21004 327// 41305 80120
BBXX PBEN 21003 99349 10223 41/98 22730 10150 20097 40180 54000 7//22 821// 22262 21004 327// 41305 80120
BBXX PBEN 21003 99349 10223 41/98 22730 10150 20097 40180 54000 7//22 821// 22262 21004 327// 41305 80120
BBXX 62123 21004 99563 10022 41/97 /3120 10074 40128 53002 70200 8//// 22200 2//// 330// 40605 5////
BBXX AMOUK08 21004 99501 70061 46/// ///// 10118 20115 30196 40202 57012 92350
BBXX 63106 21004 99610 10017 46/// /3011 10035 40054 53015 22200
BBXX 63105 21004 99610 10017 47697 ///// 10058 21001 40054 53016 700// 22200
BBXX DDYZ2 21004 99500 70017 41697 22518 10120 20073 40195 51010 75055 8177/ 22223 04130 20504 80095
BBXX 62029 21004 99487 70125 46/// /2718 10130 20116 40278 52007 22200 00129 10706 70029 333 90710 91128
BBXX 62442 21004 99490 70164 46/// /2516 1//// 2//// 40282 52008 22200 00126
BBXX 64046 21004 99605 70049 46/// /2906 10058 20008 40080 52015 22200 00078 10907 70037
BBXX 62103 21004 99499 70029 46/96 /2618 10113 20103 40188 57027 22200 00122 10702 70011 333 90710 91129
BBXX 62442 21004 99490 70164 46/// /2516 1//// 2//// 40282 52008 22200 00126
BBXX 62029 21004 99487 70125 46/// /2718 10130 20116 40278 52007 22200 00129 10706 70029 333 90710 91128
BBXX 62103 21004 99499 70029 46/96 /2618 10113 20103 40188 57027 22200 00122 10702 70011 333 90710 91129
BBXX 62029 21004 99487 70125 46/// /2718 10130 20116 40278 52007 22200 00129 10706 70029 333 90710 91128
BBXX 62442 21004 99490 70164 46/// /2516 1//// 2//// 40282 52008 22200 00126
BBXX 64046 21004 99605 70049 46/// /2906 10058 20008 40080 52015 22200 00078 10907 70037
AAXX 21004 03010 46/// /1502 10055 20024 40093 53009
BBXX DDYZ2 21004 99500 70017 41296 52414 10130 20130 40210 56/// 76466 85797 22223 20310 80130
BBXX 62103 21004 99499 70029 46/96 /2420 10111 20100 40196 58021 22200 00122 10702 70012
BBXX 62123 21004 99563 10022 47598 /3020 10074 20017 40102 55000 700// 22200
BBXX 63106 21004 99610 10017 46/// /3011 10035 40054 53015 22200
BBXX 63113 21004 99610 10017 46/// /3208 10045 21009 40055 52017 22200 10705 70024
BBXX 62107 21004 99501 70061 46/// /3035 10116 20108 40199 57007 22200 00117 10703 70017 333 90710 91142
BBXX 62123 21004 99563 10022 41/97 /3120 10074 40128 53002 70200 8//// 22200 2//// 330// 40605 5////
BBXX AMOUK08 21004 99501 70061 46/// ///// 10118 20115 30196 40202 57012 92350
BBXX 63106 21004 99610 10017 46/// /3011 10035 40054 53015 22200
BBXX 63105 21004 99610 10017 47697 ///// 10058 21001 40054 53016 700// 22200
BBXX DDYZ2 21004 99500 70017 41697 22518 10120 20073 40195 51010 75055 8177/ 22223 04130 20504 80095
BBXX 62103 21004 99499 70029 46/96 /2618 10113 20103 40188 57027 22200 00122 10702 70011 333 90710 91129
AAXX 21001 37054 41496 81202 11005 21009 39774 40166 57010 70922 885//
BBXX VREN5 21004 99351 31684 41299 53121 10190 20174 40167 54000 70211 8/748 22223 02180 20503 80180
BBXX VREN5 21004 99351 31684 41299 53121 10190 20174 40167 54000 70211 8/748 22223 02180 20503 80180
BBXX VREN5 21004 99351 31684 41299 53121 10190 20174 40167 54000 70211 8/748 22223 02180 20503 80180
BBXX VREN5 21004 99351 31684 41299 53121 10190 20174 40167 54000 70211 8/748 22223 02180 20503 80180
BBXX VREN5 21004 99351 31684 41299 53121 10190 20174 40167 54000 70211 8/748 22223 02180 20503 80180
AAXX 21004 71442 16/// /2910 10008 21027 39663 49973 53013 60001 333 10008 21030 70000
AAXX 21004 71442 16/// /2910 10008 21027 39663 49973 53013 60001 333 10008 21030 70000
AAXX 21004 71611 16/// /1502 11102 21125 60001 333 7////
AAXX 21004 89809 46/// /0825 11018 21032 39335 52014 333 21045
AAXX 21004 89809 46/// /0825 11018 21032 39335 52014 333 21045
AAXX 21004 78951 11474 41116 10274 20208 30132 40147 69901 70380 84200 333 10303 20235 59003 84818
AAXX 21004 78951 11474 41116 10274 20208 30132 40147 69901 70380 84200 333 10303 20235 59003 84818
AAXX 21004 78397 11570 13205 10273 20202 30129 40145 60001 70511 81832 333 01299 10314 20234 59005 81824
AAXX 21004 DUPE
AAXX 21004 78388 111575 31111 10254 20198 30141 40150 69911 70186 81880 333 00330 10292 20223 59009 81822
AAXX 21004 DUPE
AAXX 21004 78397 11570 13205 10273 20202 30129 40145 60001 70511 81832 333 01299 10314 20234 59005 81824
AAXX 21004 DUPE
AAXX 21004 78388 111575 31111 10254 20198 30141 40150 69911 70186 81880 333 00330 10292 20223 59009 81822
AAXX 21004 DUPE
AAXX 21001 02947 47584 51802 10003 21001 40098 52005 70020 85/// 92351
AAXX 21004 91772 31598 30706 10311 20248 4//// 60001 70210 83200 333 20242 561// 70005 83820
AAXX 21004 91776
AAXX 21004 91779 31498 40809 10292 20234 40117 58005 60001 70210 82201 333 20220 562/9 70000 82819 84080
AAXX 21004 91784 31498 70306 10294 20246 40115 58004 60001 70222 8223/ 333 20236 5619/ 70352 82817 87361
AAXX 21004 91792 11498 71206 10270 20255 40129 58005 60044 70362 8573/ 333 20229 5639/ 70450 82710 85815 87360
