BBXX ZMENA 21114 99377 31762 46/// ///// 10179 20137 40293 52007 22200
BBXX 44172 21121 99445 70634 46/// ///// 1//// 91131 22200 00064 11002 21002 320// 41101 70009
BBXX 44097 21121 99410 70711 46/// ///// 1//// 91132 22200 00120 10803 20802 315// 41101 70013
AAXX 21124 40272 31950 63606 10160 20091 39341 40174 57016 70500 80001 333 86070
BBXX 46218 21121 99345 71208 46/// ///// 1//// 91132 22200 00138 11006 21004 331// 41104 70028
AAXX 21124 40255 32660 60000 10154 20106 39472 40181 57007 83130 333 83830 84360
AAXX 21124 40296 31956 40000 10222 20117 40184 57008 80002 333 84070
BBXX 42362 21121 99278 70907 46/// /2109 10228 20211 40153 91145
BBXX 42363 21121 99282 70892 46/// /2107 10228 20200 40156 91145 333 91207
BBXX 42364 21121 99291 70881 46/// /2305 10217 20200 40153 91145
BBXX WFLG 21124 99252 71485 41698 60819 10194 20169 40206 57010 78082 8627/ 22254 04189 20803 399// 41003 5//// 6//// 80178 ICE /////
BBXX KIRH 21123 99211 70689 41398 60619 10244 20213 40194 52019 7//22 866// 22214 00233 20806 303// 41304 5//// 6//// 80222 ICE /////
AAXX 21124 40270 31940 73204 10146 20102 39280 40176 57008 70522 81032 333 81360 87070
AAXX 21124 64500 32460 71806 10280 20237 30101 40114 878// 333 0//00 58001 84613 87633 94919 95839
AAXX 21124 40340 32960 33610 10200 20095 40164 57024 80001 333 83070
AAXX 21124 91334 11474 83410 10267 20233 30078 40081 51003 69931 70282 82171 333 10306 56899 58000 70003 555 92112
AAXX 21124 91334 11474 83410 10267 20233 30078 40081 51003 69931 70282 82171 333 10306 56899 58000 70003 555 92112
AAXX 21124 91376 32474 80516 10280 20235 30075 40078 50002 85878 333 10300 56119 58002 555 92112
AAXX 21124 68392 36/// /1208 10296 20119 30085 4//// 57012 333 10300 20158 91016 555
BBXX 46249 21121 99338 71197 46/// ///// 1//// 91142 22200 00150 11402 21002 324// 41402 70012
BBXX 46248 21121 99461 71247 46/// ///// 1//// 91134 22200 00097 11408 21005 329// 41407 70041
BBXX 46244 21121 99409 71244 46/// ///// 1//// 91135 22200 00097 11408 20806 330// 41406 70041
BBXX DBJM 21121 99540 10085 46/// /2906 10065 20441 40137 52017 22260 00039
BBXX DBBT 21121 99350 30162 46/// /2810 10198 20141 40118 57003 22212 00200
BBXX DBKV 21121 99169 70250 46/// /0406 10232 20164 40167 52007 22210 00234
BBXX DBEA 21121 99540 10084 46/// /3106 10057 20029 40133 52014 22260 00045
BBXX DBBU 21121 99543 10131 46/// /2902 10021 20021 40098 52012 22220 00047
BBXX DBFR 21121 99535 100/6 46/// /2505 10052 20038 40133 52009 22240 00042
AAXX 21124 61901 12480 71215 10188 20140 39678 40183 60001 878// 91150 333 59005 82815 87633
AAXX 21124 91376 32474 80516 10280 20235 30075 40078 50002 85878 333 10300 56119 58002 555 92112
BBXX 46240 21121 99366 71219 46/// ///// 1//// 91142 22200 00123 11202 20901 335// 41202 70011
BBXX 46237 21121 99378 71226 46/// ///// 1//// 91140 22200 00111 11504 21002 326// 41503 70020
BBXX 46212 21121 99408 71243 46/// ///// 1//// 91142 22200 00096 11508 20805 330// 41506 70039
BBXX 46217 21121 99342 71194 46/// ///// 1//// 91142 22200 00148 11402 21002 326// 41401 70010
BBXX 46211 21121 99469 71242 46/// ///// 1//// 91136 22200 00082 11407 20904 328// 41406 70034
BBXX 44098 21121 99428 70702 46/// ///// 1//// 91137 22200 00089 10503 20503 312// 41101 70013
BBXX 41115 21121 99184 70673 46/// ///// 1//// 91135 22200 11205 21003 335// 41203 70023
BBXX 41114 21121 99276 70802 46/// ///// 1//// 91146 22200 00234 11103 20603 306// 41101 70016
BBXX 46114 21121 99364 71222 46/// ///// 1//// 91134 22200 00122 11506 21003 330// 41505 70029
BBXX 46060 21121 99606 71468 46/// /1907 10048 49983 91150 22200 00058 333 91209 555 11075 22079 31053 41710 61149 189069 192069 191070 184071 182076 179084 81809 91053
AAXX 21124 68396 32680 10000 10314 20177 39412 48500 57008 81200 333 10317 20226 555 91011
BBXX 46088 21121 99483 71232 46/// /0202 10072 40294 51019 91150 22200 00078 1//00 70002 333 91204 555 11024 22025 31117 43304 61149 016025 015032 347031 316021 208011 329004
BBXX 51203 21121 99208 71570 46/// ///// 1//// 91143 22200 00247 11101 21001 326// 41101 70006
BBXX 52200 21121 99134 11448 46/// ///// 1//// 91145 22200 00287 11104 20904 311// 41102 70022
BBXX 51201 21121 99217 71581 46/// ///// 1//// 91142 22200 00241 11304 20704 332// 41302 70022
AAXX 21124 91643 11499 20406 10283 20243 40072 53004 69941 70280 82200 333 10317 561// 82819
AAXX 21124 91643 11499 20406 10283 20243 40072 53004 69941 70280 82200 333 10317 561// 82819
AAXX 21124 78764 32560 21211 10192 20146 39007 40132 53007 82500 333 10250 20189 30/// 59020 82620
AAXX 21124 78764 32560 21211 10192 20146 39007 40132 53007 82500 333 10250 20189 30/// 59020 82620
AAXX 21124 08594 32465 30616 10240 20176 40159 83500 333 58001 83615
AAXX 21124 08583 32562 40416 10252 20145 40170 84200 333 59001 84823
AAXX 21124 08589 32562 10412 10255 20185 40153 81500 333 58001 81617
AAXX 21124 68906 32698 52514 10163 20093 30086 40150 53011 83506 222// 00123 333 10168 20098 91024 555 91015
AAXX 21124 91408 11474 81008 10271 20247 30037 40075 53005 60021 70282 82278 333 10328 56999 59010 70015 555 92112
AAXX 21124 89664 32561 83512 11014 21083 39731 49772 54000 8557/ 333 10016 21018 56339 58004 85630 85457 91504
AAXX 21124 91408 11474 81008 10271 20247 30037 40075 53005 60021 70282 82278 333 10328 56999 59010 70015 555 92112
AAXX 21124 89664 32561 83512 11014 21083 39731 49772 54000 8557/ 333 10016 21018 56339 58004 85630 85457 91504
AAXX 21124 89664 32561 83512 11014 21083 39731 49772 54000 8557/ 333 10016 21018 56339 58004 85630 85457 91504
AAXX 21121 13579 11670 72801 10037 21010 39302 40146 57014 69901 70227 83532 333 83633 83361
AAXX 21124 68994 11497 83018 10097 20090 30002 40031 57012 69941 76022 885// 222// 00076 303// 41002 333 10111 20090 91025 555 20004 91003
BBXX 44025 21121 99402 70732 46/// /1605 10120 20096 40184 56014 91150 22200 00109 11202 20401 311// 41202 70011 333 91207 555 11060 22067 31109 41608 61149 158055 154055 154059 155064 156064 155066
BBXX 41008 21121 99314 70809 46/// /1906 10183 20175 40201 56003 91150 22200 00164 10602 20501 300// 40602 70011 333 91207 555 11065 22074 31110 41907 61149 193057 190053 183057 186057 188060 182056
BBXX 41004 21121 99325 70791 46/// /1909 10222 20157 40210 52004 91150 22200 00210 10603 20603 3//// 41201 70017 333 91212 555 11100 22108 31145 41912 61149 190091 193085 192083 192085 189082 194088
BBXX 44009 21121 99385 70747 46/// /1808 10126 40193 56013 91150 22200 00115 11202 20401 300// 41201 70010 333 91210 555 11089 22097 31136 41810 61149 177083 178089 174082 171080 173076 174076
AAXX 21124 61902 11582 71413 10259 20172 40146 69901 70282 878// 333 59013 81824 87640
AAXX 21124 68382 36/// /1007 10307 20119 39315 48526 58015 333 10309 20166 91014 555 91012
AAXX 21124 68352 36/// /0914 10335 20326 39028 48501 57013 333 10351 20193 91021 555 91012
BBXX A8SI8 21124 99249 10307 41398 62318 10180 2016/ 40264 58020 78086 85419 22275 00170 20303 329// 40604 80150
AAXX 21124 78954 12474 60715 10270 20210 30080 40145 60001 85848 333 10295 20253 59003 83816 84640
AAXX 21124 78954 12474 60715 10270 20210 30080 40145 60001 85848 333 10295 20253 59003 83816 84640
AAXX 21124 91643 11499 20406 10283 20243 40072 53004 69941 70280 82200 333 10317 561// 82819
BBXX A8SI8 21124 99249 10307 41398 62318 10180 2016/ 40264 58020 78086 85419 22275 00170 20303 329// 40 604 80150
AAXX 21124 16597 11660 72825 10124 20069 39988 40075 58017 60151 72982 8527/ 333 85833 84362 91140 91525
BBXX TESTFR9 21124 99489 70023 46/// /3029 10114 29100 40248 22274
BBXX BAREU63 21124 99377 10166 46/// /0511 10115 29080 40041 57010 22263
AAXX 21124 78862 11478 70615 10249 20207 30149 40172 60031 70582 84802 333 10279 20218 59004 70031 84815 86077
AAXX 21124 TAF TQPF 202200Z 2100/2124 05016KT 9999 SCT022 PROB30 TEMPO 2100/2114 SHRA BKN018 BKN036
AAXX 21124 TAF TUPJ 202200Z 2100/2124 05016KT 9999 SCT022 PROB30 TEMPO 2100/2114 SHRA BKN018 BKN036
AAXX 21124 PROB40 TEMPO 1818/1918 5000 SHRA BKN015 BKN035
AAXX 21124 EMPO 0600/0624 SHRA BKN015=+TSRA SCT012CB
AAXX 21124 TAF TUPJ 041000Z 04012/0512 07008KT 9999 SCT016 BKN038 SCT270 TEMPO 0412/0512 SHRA BKN015 PROB40 TEMPO 0418/0512 5000 SHRA BKN014 BKN036 PROB30 0420/0512 4000 TSRA FEW012CB
AAXX 21124 918 4000 TSRA FEW012CB
AAXX 21124 N015 BKN036 PROB40 TEMPO 0704/0724 3000 +TSRA SCT011CB BKN012 BECMG 0712/0714 14008KT
AAXX 21124 21/2712 07017G28KT 5000 SHRA BKN015 BKN036 PROB TEMPO 2700/2712 4000 TSRA FEW013CB
AAXX 21124 PROB30 TEMPO 0800/0806 4000 TSRA FEW012CB PROB40 TEMPO 0800/0824 2000 +SHRA/TSRA SCT010CB BKN012 BKN250
AAXX 21124 78862 11478 70615 10249 20207 30149 40172 60031 70582 84802 333 10279 20218 59004 70031 84815 86077
AAXX 21124 TAF TQPF 202200Z 2100/2124 05016KT 9999 SCT022 PROB30 TEMPO 2100/2114 SHRA BKN018 BKN036
AAXX 21124 TAF TUPJ 202200Z 2100/2124 05016KT 9999 SCT022 PROB30 TEMPO 2100/2114 SHRA BKN018 BKN036
AAXX 21124 PROB40 TEMPO 1818/1918 5000 SHRA BKN015 BKN035
AAXX 21124 EMPO 0600/0624 SHRA BKN015=+TSRA SCT012CB
AAXX 21124 TAF TUPJ 041000Z 04012/0512 07008KT 9999 SCT016 BKN038 SCT270 TEMPO 0412/0512 SHRA BKN015 PROB40 TEMPO 0418/0512 5000 SHRA BKN014 BKN036 PROB30 0420/0512 4000 TSRA FEW012CB
AAXX 21124 918 4000 TSRA FEW012CB
AAXX 21124 N015 BKN036 PROB40 TEMPO 0704/0724 3000 +TSRA SCT011CB BKN012 BECMG 0712/0714 14008KT
AAXX 21124 21/2712 07017G28KT 5000 SHRA BKN015 BKN036 PROB TEMPO 2700/2712 4000 TSRA FEW013CB
AAXX 21124 PROB30 TEMPO 0800/0806 4000 TSRA FEW012CB PROB40 TEMPO 0800/0824 2000 +SHRA/TSRA SCT010CB BKN012 BKN250
AAXX 21124 78862 11478 70615 10249 20207 30149 40172 60031 70582 84802 333 10279 20218 59004 70031 84815 86077
AAXX 21124 TAF TQPF 202200Z 2100/2124 05016KT 9999 SCT022 PROB30 TEMPO 2100/2114 SHRA BKN018 BKN036
AAXX 21124 TAF TUPJ 202200Z 2100/2124 05016KT 9999 SCT022 PROB30 TEMPO 2100/2114 SHRA BKN018 BKN036
AAXX 21124 PROB40 TEMPO 1818/1918 5000 SHRA BKN015 BKN035
AAXX 21124 EMPO 0600/0624 SHRA BKN015=+TSRA SCT012CB
AAXX 21124 TAF TUPJ 041000Z 04012/0512 07008KT 9999 SCT016 BKN038 SCT270 TEMPO 0412/0512 SHRA BKN015 PROB40 TEMPO 0418/0512 5000 SHRA BKN014 BKN036 PROB30 0420/0512 4000 TSRA FEW012CB
AAXX 21124 918 4000 TSRA FEW012CB
AAXX 21124 N015 BKN036 PROB40 TEMPO 0704/0724 3000 +TSRA SCT011CB BKN012 BECMG 0712/0714 14008KT
AAXX 21124 21/2712 07017G28KT 5000 SHRA BKN015 BKN036 PROB TEMPO 2700/2712 4000 TSRA FEW013CB
AAXX 21124 PROB30 TEMPO 0800/0806 4000 TSRA FEW012CB PROB40 TEMPO 0800/0824 2000 +SHRA/TSRA SCT010CB BKN012 BKN250
AAXX 21124 91643 11499 20406 10283 20243 40072 53004 69941 70280 82200 333 10317 561// 82819
AAXX 21124 91413 11469 80908 10257 20240 30064 40090 52010 60071 72582 83372 333 10301 56299 58007 70163 555 92112
BBXX WFLH 21123 99321 71253 41/98 80305 10133 20083 40202 57003 7//22 8//// 22213 00144 20402 335// 41305 5//// 6//// 80106 ICE /////
BBXX C6FR6 21124 99264 10566 41/// /0508 10230 2//// 40230 54/// 7//// 8//// 222// 0//// 2//// 3//// 4//// 5//// 6//// 8//// ICE /////
BBXX NWS0022 21124 99416 70714 43/// /1909 10102 20071 40190 5//// 7//// 8//// 222// 04113 2//// 3//// 4//// 5//// 6//// 8//// ICE /////
BBXX WDE3569 21124 99419 70873 43/92 92806 10038 2//// 40034 5//// 7//// 8//// 22253 00056 20000 3//// 4//// 5//// 6//// 8//// ICE /////
BBXX WDC6698 21124 99096 71439 43/// /0617 1//// 2//// 40080 5//// 7//// 8//// 222// 04257 2//// 3//// 4//// 5//// 6//// 8//// ICE /////
BBXX WHKM 21124 99118 10449 41397 60919 10281 20221 40130 57032 70122 84209 22233 0//// 20603 309// 4//// 5//// 6//// 80238 ICE /////
BBXX A8SI8 21124 99249 10307 41398 62318 10180 2016/ 40264 58020 78086 85419 22275 00170 20303 329// 40 604 80150
BBXX A8SI8 21124 99249 10307 41398 62318 10180 2016/ 40264 58020 78086 85419 22275 00170 20303 329// 40604 80150
BBXX WHKM 21124 99118 10449 41397 60919 10281 20221 40130 57032 70122 84209 22233 0//// 20603 309// 4//// 5//// 6//// 80238 ICE /////
BBXX DBKV 21121 99169 70250 46/// /0406 10232 20164 40167 52007 22210 00234
BBXX DBBT 21121 99350 30162 46/// /2810 10198 20141 40118 57003 22212 00200
BBXX C6FR6 21124 99264 10566 41/// /0508 10230 2//// 40230 54/// 7//// 8//// 222// 0//// 2//// 3//// 4//// 5//// 6//// 8//// ICE /////
AAXX 21124 91413 11469 80908 10257 20240 30064 40090 52010 60071 72582 83372 333 10301 56299 58007 70163 555 92112
BBXX 41008 21121 99314 70809 46/// /1906 10183 20175 40201 56003 91150 22200 00164 10602 20501 300// 40602 70011 333 91207 555 11065 22074 31110 41907 61149 193057 190053 183057 186057 188060 182056
BBXX 44009 21121 99385 70747 46/// /1808 10126 40193 56013 91150 22200 00115 11202 20401 300// 41201 70010 333 91210 555 11089 22097 31136 41810 61149 177083 178089 174082 171080 173076 174076
BBXX 41004 21121 99325 70791 46/// /1909 10222 20157 40210 52004 91150 22200 00210 10603 20603 3//// 41201 70017 333 91212 555 11100 22108 31145 41912 61149 190091 193085 192083 192085 189082 194088
BBXX 44025 21121 99402 70732 46/// /1605 10120 20096 40184 56014 91150 22200 00109 11202 20401 311// 41202 70011 333 91207 555 11060 22067 31109 41608 61149 158055 154055 154059 155064 156064 155066
BBXX WDC6736 21124 99327 70698 43/// /2609 10190 2012/ 40250 54005 7//// 8//// 22211 00240 2//// 3//// 4//// 5//// 6//// 80150 ICE /////
BBXX LAVX4 21124 99354 70691 41598 73007 10190 2019/ 40245 5//// 70203 83/87 22213 0//// 20705 329// 40904 5//// 6//// 80190
BBXX 3FSB4 21124 99223 71102 41598 33415 10200 2014/ 40140 54000 7//00 8348/ 22234 0//// 2//// 3//// 4//// 5//// 6//// 80160 ICE /////
BBXX A8SI3 21123 99438 71514 43/98 2//// 10060 2002/ 40170 54000 22264 00030 80040
BBXX 46088 21121 99483 71232 46/// /0202 10072 40294 51019 91150 22200 00078 1//00 70002 333 91204 555 11024 22025 31117 43304 61149 016025 015032 347031 316021 208011 329004
BBXX 44098 21121 99428 70702 46/// ///// 1//// 91137 22200 00089 10503 20503 312// 41101 70013
BBXX 41114 21121 99276 70802 46/// ///// 1//// 91146 22200 00234 11103 20603 306// 41101 70016
BBXX 41115 21121 99184 70673 46/// ///// 1//// 91135 22200 11205 21003 335// 41203 70023
BBXX 46060 21121 99606 71468 46/// /1907 10048 49983 91150 22200 00058 333 91209 555 11075 22079 31053 41710 61149 189069 192069 191070 184071 182076 179084 81809 91053
BBXX 46114 21121 99364 71222 46/// ///// 1//// 91134 22200 00122 11506 21003 330// 41505 70029
BBXX 46211 21121 99469 71242 46/// ///// 1//// 91136 22200 00082 11407 20904 328// 41406 70034
BBXX 46212 21121 99408 71243 46/// ///// 1//// 91142 22200 00096 11508 20805 330// 41506 70039
BBXX 46217 21121 99342 71194 46/// ///// 1//// 91142 22200 00148 11402 21002 326// 41401 70010
BBXX 46237 21121 99378 71226 46/// ///// 1//// 91140 22200 00111 11504 21002 326// 41503 70020
BBXX 46240 21121 99366 71219 46/// ///// 1//// 91142 22200 00123 11202 20901 335// 41202 70011
BBXX 46249 21121 99338 71197 46/// ///// 1//// 91142 22200 00150 11402 21002 324// 41402 70012
BBXX 46248 21121 99461 71247 46/// ///// 1//// 91134 22200 00097 11408 21005 329// 41407 70041
BBXX 46244 21121 99409 71244 46/// ///// 1//// 91135 22200 00097 11408 20806 330// 41406 70041
BBXX WFLH 21123 99321 71253 41/98 80305 10133 20083 40202 57003 7//22 8//// 22213 00144 20402 335// 41305 5//// 6//// 80106 ICE /////
BBXX DMDZ 21123 99221 70570 41598 80620 10245 20178 40210 51020 70322 89954 22263 00260 20603 301// 41206 5//// 80200
BBXX 42364 21121 99291 70881 46/// /2305 10217 20200 40153 91145
BBXX 42362 21121 99278 70907 46/// /2109 10228 20211 40153 91145
BBXX 42363 21121 99282 70892 46/// /2107 10228 20200 40156 91145 333 91207
BBXX LAIG7 21124 99349 11696 41/// /3321 10150 2012/ 40110 51010 7//22 8//// 22233 00198 20503 334// 40704 5//// 6//// 80130 ICE /////
BBXX DBEA 21121 99540 10084 46/// /3106 10057 20029 40133 52014 22260 00045
BBXX DBBU 21121 99543 10131 46/// /2902 10021 20021 40098 52012 22220 00047
BBXX DBFR 21121 99535 100/6 46/// /2505 10052 20038 40133 52009 22240 00042
BBXX DBJM 21121 99540 10085 46/// /2906 10065 20441 40137 52017 22260 00039
BBXX WRYD 21124 99358 10159 41597 82634 10140 2011/ 40061 57034 76222 8874/ 22224 00179 20407 330// 40806 5//// 6//// 80120 ICE /////
BBXX WDD6126 21124 99470 70133 41598 72417 10150 2012/ 40335 52030 70122 871// 22254 00120 20504 327// 40604 5//// 6//// 80130 ICE /////
AAXX 21121 76040 32902 03300 10064 20039 30135 40149 57004 92045 333 10178 20058 30/// 59019 70000 98602
AAXX 21121 76220 32920 00000 11074 21074 38095 40184 5//// 91145 333 10142 21074 31010 59010 70000
AAXX 21121 76305 32970 03401 10125 20068 30136 40144 5//// 91145 333 10218 20118 30100 59001 70000
AAXX 21121 76323 32910 00000 10048 21060 38218 40170 57002 91155 333 10168 20027 30005 59018 70000
AAXX 21121 76342 31840 62001 10088 20056 39479 40202 57001 70310 86050 91147 333 10180 20085 30080 56050 58014 70000 86358
AAXX 21121 76390 31950 22405 10133 21001 38188 40104 54000 70544 80005 91130 333 10228 20116 30110 56004 59007 70000 82070
AAXX 21121 76423 32560 42401 10070 21001 38109 40109 57007 83260 91148 333 10230 20060 30/// 56990 59014 70000 83820 81357
AAXX 21121 76458 32460 13302 10140 20101 30129 40134 57003 81100 91143 333 10232 20110 30100 563// 58006 70000 81816
AAXX 21121 76499 31956 00000 10151 20114 30117 40139 5//// 70200 91150 333 10270 20150 30148 58039 70000
AAXX 21121 76539 32958 03601 10061 20055 38137 40160 52004 91150 333 10250 20049 30023 58002 70000
AAXX 21121 76556 32960 00000 10126 20091 39102 40125 57007 91130 333 10268 20107 30102 58007 70000
AAXX 21121 76581 32965 40101 10158 20147 39023 40118 5//// 84060 91150 333 10315 20145 30138 56010 58005 70000 84359
AAXX 21121 76612 32958 00000 10090 20081 38456 40148 57004 91150 333 10269 20085 30075 55093 58000 70000
AAXX 21121 76654 31956 00403 10219 20188 30124 40128 57002 70544 91152 333 10305 20219 30204 59002 70000
AAXX 21121 76685 32950 00000 10078 20045 37856 40136 57012 91156 333 10238 20076 30042 58005 70000
AAXX 21121 76687 32962 02201 10122 20109 38665 40157 53001 91135 333 10270 20116 30104 58024 70000
AAXX 21121 76692 31520 62301 10201 20191 30116 40135 52003 74041 865// 91145 333 10277 20199 30/// 568// 58027 70000 86628
AAXX 21121 76737 32980 03201 10110 20089 38760 40147 55001 91135 333 10293 20110 30093 58025 70000
AAXX 21121 76773 32940 01701 10076 20060 38413 40137 52004 91148 333 10276 20061 30052 50441 55101 59007 70000
AAXX 21121 76840 32920 00000 10204 20192 30052 40108 5//// 91140 333 10350 20170 30/// 55098 59009 70000
AAXX 21121 76243 32470 81801 10082 20051 39872 40173 54000 884// 91140 333 10140 20052 30046 563// 58014 70000 88616
AAXX 21121 76311 32920 00000 10054 20048 39858 40142 50001 91148 333 10251 20052 30042 58012 70000
AAXX 21121 76412 32960 02201 10128 20080 30109 40156 57002 91145 333 10265 20120 30/// 58015 70000
AAXX 21121 76640 31010 63201 10200 20197 30137 40148 57010 70311 8427/ 91145 333 10276 20196 30192 5699/ 58038 70000 84801
AAXX 21121 76741 31240 33203 10230 20216 30091 40109 52005 70340 83200 91135 333 10315 20200 30196 568// 58016 70000 83806
AAXX 21121 76040 32902 03300 10064 20039 30135 40149 57004 92045 333 10178 20058 30/// 59019 70000 98602
AAXX 21121 76220 32920 00000 11074 21074 38095 40184 5//// 91145 333 10142 21074 31010 59010 70000
AAXX 21121 76305 32970 03401 10125 20068 30136 40144 5//// 91145 333 10218 20118 30100 59001 70000
AAXX 21121 76323 32910 00000 10048 21060 38218 40170 57002 91155 333 10168 20027 30005 59018 70000
AAXX 21121 76342 31840 62001 10088 20056 39479 40202 57001 70310 86050 91147 333 10180 20085 30080 56050 58014 70000 86358
AAXX 21121 76390 31950 22405 10133 21001 38188 40104 54000 70544 80005 91130 333 10228 20116 30110 56004 59007 70000 82070
AAXX 21121 76423 32560 42401 10070 21001 38109 40109 57007 83260 91148 333 10230 20060 30/// 56990 59014 70000 83820 81357
AAXX 21121 76458 32460 13302 10140 20101 30129 40134 57003 81100 91143 333 10232 20110 30100 563// 58006 70000 81816
AAXX 21121 76499 31956 00000 10151 20114 30117 40139 5//// 70200 91150 333 10270 20150 30148 58039 70000
AAXX 21121 76539 32958 03601 10061 20055 38137 40160 52004 91150 333 10250 20049 30023 58002 70000
AAXX 21121 76556 32960 00000 10126 20091 39102 40125 57007 91130 333 10268 20107 30102 58007 70000
AAXX 21121 76581 32965 40101 10158 20147 39023 40118 5//// 84060 91150 333 10315 20145 30138 56010 58005 70000 84359
AAXX 21121 76612 32958 00000 10090 20081 38456 40148 57004 91150 333 10269 20085 30075 55093 58000 70000
AAXX 21121 76654 31956 00403 10219 20188 30124 40128 57002 70544 91152 333 10305 20219 30204 59002 70000
AAXX 21121 76685 32950 00000 10078 20045 37856 40136 57012 91156 333 10238 20076 30042 58005 70000
AAXX 21121 76687 32962 02201 10122 20109 38665 40157 53001 91135 333 10270 20116 30104 58024 70000
AAXX 21121 76692 31520 62301 10201 20191 30116 40135 52003 74041 865// 91145 333 10277 20199 30/// 568// 58027 70000 86628
AAXX 21121 76737 32980 03201 10110 20089 38760 40147 55001 91135 333 10293 20110 30093 58025 70000
AAXX 21121 76773 32940 01701 10076 20060 38413 40137 52004 91148 333 10276 20061 30052 50441 55101 59007 70000
AAXX 21121 76840 32920 00000 10204 20192 30052 40108 5//// 91140 333 10350 20170 30/// 55098 59009 70000
AAXX 21121 76243 32470 81801 10082 20051 39872 40173 54000 884// 91140 333 10140 20052 30046 563// 58014 70000 88616
AAXX 21121 76311 32920 00000 10054 20048 39858 40142 50001 91148 333 10251 20052 30042 58012 70000
AAXX 21121 76412 32960 02201 10128 20080 30109 40156 57002 91145 333 10265 20120 30/// 58015 70000
AAXX 21121 76640 31010 63201 10200 20197 30137 40148 57010 70311 8427/ 91145 333 10276 20196 30192 5699/ 58038 70000 84801
AAXX 21121 76741 31240 33203 10230 20216 30091 40109 52005 70340 83200 91135 333 10315 20200 30196 568// 58016 70000 83806
AAXX 21121 76040 32902 03300 10064 20039 30135 40149 57004 92045 33310178 20058 30/// 59019 70000 98602
AAXX 21121 76220 32920 00000 11074 21074 38095 40184 5//// 91145 33310142 21074 31010 59010 70000
AAXX 21121 76305 32970 03401 10125 20068 30136 40144 5//// 91145 33310218 20118 30100 59001 70000
AAXX 21121 76323 32910 00000 10048 21060 38218 40170 57002 91155 33310168 20027 30005 59018 70000
AAXX 21121 76342 31840 62001 10088 20056 39479 40202 57001 70310 8605091147 333 10180 20085 30080 56050 58014 70000 86358
AAXX 21121 76390 31950 22405 10133 21001 38188 40104 54000 70544 8000591130 333 10228 20116 30110 56004 59007 70000 82070
AAXX 21121 76423 32560 42401 10070 21001 38109 40109 57007 83260 91148333 10230 20060 30/// 56990 59014 70000 83820 81357
AAXX 21121 76458 32460 13302 10140 20101 30129 40134 57003 81100 91143333 10232 20110 30100 563// 58006 70000 81816
AAXX 21121 76499 31956 00000 10151 20114 30117 40139 5//// 70200 91150333 10270 20150 30148 58039 70000
AAXX 21121 76539 32958 03601 10061 20055 38137 40160 52004 91150 33310250 20049 30023 58002 70000
AAXX 21121 76556 32960 00000 10126 20091 39102 40125 57007 91130 33310268 20107 30102 58007 70000
AAXX 21121 76581 32965 40101 10158 20147 39023 40118 5//// 84060 91150333 10315 20145 30138 56010 58005 70000 84359
AAXX 21121 76612 32958 00000 10090 20081 38456 40148 57004 91150 33310269 20085 30075 55093 58000 70000
AAXX 21121 76654 31956 00403 10219 20188 30124 40128 57002 70544 91152333 10305 20219 30204 59002 70000
AAXX 21121 76685 32950 00000 10078 20045 37856 40136 57012 91156 33310238 20076 30042 58005 70000
AAXX 21121 76687 32962 02201 10122 20109 38665 40157 53001 91135 33310270 20116 30104 58024 70000
AAXX 21121 76692 31520 62301 10201 20191 30116 40135 52003 74041 865//91145 333 10277 20199 30/// 568// 58027 70000 86628
AAXX 21121 76737 32980 03201 10110 20089 38760 40147 55001 91135 33310293 20110 30093 58025 70000
AAXX 21121 76773 32940 01701 10076 20060 38413 40137 52004 91148 33310276 20061 30052 50441 55101 59007 70000
AAXX 21121 76840 32920 00000 10204 20192 30052 40108 5//// 91140 33310350 20170 30/// 55098 59009 70000
AAXX 21121 76243 32470 81801 10082 20051 39872 40173 54000 884// 91140333 10140 20052 30046 563// 58014 70000 88616
AAXX 21121 76311 32920 00000 10054 20048 39858 40142 50001 91148 33310251 20052 30042 58012 70000
AAXX 21121 76412 32960 02201 10128 20080 30109 40156 57002 91145 33310265 20120 30/// 58015 70000
AAXX 21121 76640 31010 63201 10200 20197 30137 40148 57010 70311 8427/91145 333 10276 20196 30192 5699/ 58038 70000 84801
AAXX 21121 76741 31240 33203 10230 20216 30091 40109 52005 70340 8320091135 333 10315 20200 30196 568// 58016 70000 83806
AAXX 21124 78762 32970 01111 10200 20150 39077 40091 55011 333 10264 20183 30/// 59013
AAXX 21124 78762 32970 01111 10200 20150 39077 40091 55011 333 10264 20183 30/// 59013
AAXX 21124 81405 01260 62002 10254 20242 30117 40126 60284 72586 85830 333 20236 60027 59007 81705 83816 555 60025
AAXX 21124 81405 01260 62002 10254 20242 30117 40126 60284 72586 85830 333 20236 60027 59007 81705 83816 555 60025
BBXX 41012 21121 99300 70805 46/// /1907 10219 40208 54000 91150 22200 00229 10503 20502 310// 41201 70013 333 91208 555 11073 22077 31102 42009 61149 193069 194067 194073 198070 197074 202073
BBXX 41049 21121 99275 70630 46/// /0706 10205 20117 40272 53012 91150 22200 00235 11306 20502 300// 41306 70031 333 91208 555 11064 22066 31121 40609 61149 069061 067062 058066 064062 073049 078051 80607 91123
BBXX 41001 21121 99347 70727 46/// ///// 10211 20147 40236 52004 91150 22200 00222 10603 70017
BBXX 42020 21121 99270 70967 46/// /0407 10176 20108 40151 56004 91150 22200 00234 10703 20703 70014 333 91209 555 11075 22078 31137 40310 61149 040072 029075 031066 037064 037068 032067
BBXX 41044 21121 99217 70587 46/// /0711 10247 20158 40219 53018 91150 22200 00261 333 91213 555 11114 22121
BBXX 41048 21121 99320 70696 46/// /2103 10192 20112 40278 53013 91150 22200 00227 11303 20401 3//// 41303 70017 333 91205 555 11032 22033 31130 42306 61149 213033 223039 215036 219034 225033 225042 82405 91130
BBXX 42065 21121 99149 70750 46/// /0811 10268 20218 91150 22200 10907 20906 3//// 41903 70033 333 91213 555 11117 22125 31149 40713 61149 076106 078105 079106 076098 077090 078100 80812 91149
BBXX 42001 21121 99259 70897 46/// /1708 10247 20224 40161 55000 91150 22200 00254 10803 20602 3//// 40802 70014 333 91210 555 11089 22095 31058 41710 61149 172084 171085 168084 169083 169083 166086
BBXX 41060 21121 99148 70510 46/// ///// 1//// 91150 22200 10604 70022
BBXX 42012 21121 99301 70876 46/// /1103 10210 20204 40144 55000 91150 22200 00208 10703 20401 316// 40702 70013 333 91203 555 11028 22031 31050 41306 61149 112026 114028 114025 125025 126036 136046
BBXX 42035 21121 99292 70944 46/// /3609 10107 20053 40162 53010 91150 22200 00157 10402 20402 314// 40801 70009 333 91211 555 11095 22099 31147 43611 61149 356090 000084 002089 002090 002087 001091
BBXX 42058 21121 99149 70749 46/// /0813 10271 20213 40120 53013 91150 22200 00278 10907 20706 309// 40904 70035 333 91216 555 11144 22153 31055 40817 61149 083131 087121 081128 077124 078128 081132 80915 91132
BBXX 42060 21121 99163 70635 46/// /0509 10261 20214 40168 53017 91150 22200 00276 10605 20605 300// 41001 70024 333 91211 555 11096 22101 31057 40513 61149 047091 043100 047100 039103 041101 045104 80412 91100
BBXX 42036 21121 99285 70845 46/// /1611 10220 20186 40177 53008 91150 22200 00215 10705 20705 70024 333 91213 555 11115 22124 31110 41614 61149 161106 159109 160112 160103 158106 160102
BBXX 42056 21121 99198 70849 46/// /1210 10268 20237 40142 53003 91150 22200 00273 10804 20804 70022 333 91211 555 11107 22113 31103 41112 61149 115099 115097 111097 112100 112097 107103 81211 91103
BBXX 42019 21121 99279 70954 46/// /0207 10163 20102 40150 55000 91150 22200 10703 20502 315// 40701 70013 333 91209 555 11079 22084 31140 42810 61149 009074 288074 287074 287074 287074 290076
BBXX 42059 21121 99151 70675 46/// /0711 10274 20201 40149 53015 91150 22200 00277 10806 20806 70030 333 91213 555 11119 22127 31134 40714 61149 070109 067111 068108 065096 067105 063104 80712 91140
BBXX 44005 21121 99432 70691 46/// /1911 10057 21002 40197 58010 91150 22200 00085 10503 20503 3//// 40901 70014 333 91214 555 11117 22123 31148 42014 61149 191109 190110 185104 187102 189099 189096
BBXX 42040 21121 99292 70882 46/// /2104 10221 40146 53005 91150 22200 00227 10904 20401 316// 40903 70018 333 91205 555 11043 22045 31142 42105 61149 210043 217041 212041 207040 211034 223032
BBXX 42055 21121 99222 70940 46/// /1004 10247 20215 40127 54000 91150 22200 00252 10602 20401 313// 40601 70008 333 91204 555 11039 22040 31140 41004 61149 105038 105033 111034 112034 109035 107035 81004 91140
AAXX 21124 78862 11478 70615 10249 20207 30149 40172 60031 70582 84802 333 10279 20218 59004 70031 84815 86077
AAXX 21124 TAF TQPF 202200Z 2100/2124 05016KT 9999 SCT022 PROB30 TEMPO 2100/2114 SHRA BKN018 BKN036
AAXX 21124 TAF TUPJ 202200Z 2100/2124 05016KT 9999 SCT022 PROB30 TEMPO 2100/2114 SHRA BKN018 BKN036
AAXX 21124 PROB40 TEMPO 1818/1918 5000 SHRA BKN015 BKN035
AAXX 21124 EMPO 0600/0624 SHRA BKN015=+TSRA SCT012CB
AAXX 21124 TAF TUPJ 041000Z 04012/0512 07008KT 9999 SCT016 BKN038 SCT270 TEMPO 0412/0512 SHRA BKN015 PROB40 TEMPO 0418/0512 5000 SHRA BKN014 BKN036 PROB30 0420/0512 4000 TSRA FEW012CB
AAXX 21124 918 4000 TSRA FEW012CB
AAXX 21124 N015 BKN036 PROB40 TEMPO 0704/0724 3000 +TSRA SCT011CB BKN012 BECMG 0712/0714 14008KT
AAXX 21124 21/2712 07017G28KT 5000 SHRA BKN015 BKN036 PROB TEMPO 2700/2712 4000 TSRA FEW013CB
AAXX 21124 PROB30 TEMPO 0800/0806 4000 TSRA FEW012CB PROB40 TEMPO 0800/0824 2000 +SHRA/TSRA SCT010CB BKN012 BKN250
BBXX 44060 21121 99413 70721 46/// ///06 10092 40196 91145 22200 00099 333 91207 555 11062 22062
BBXX 44022 21121 99409 70737 46/// ///02 10076 20055 40182 91145 22200 00078 333 91202 555 11015 22015
BBXX 44027 21121 99443 70673 46/// /2110 10037 21027 40204 56013 91150 22200 00082 10902 20502 3//// 40901 70012 333 91212 555 11107 22112 31105 42213 61149 209101 211102 213104 207100 215102 211097
BBXX 41013 21121 99334 70777 46/// /1909 10217 20158 40211 55000 91150 22200 00208 10603 20603 312// 41101 70017 333 91211 555 11093 22101 31127 41911 61149 190088 190089 187091 187089 186089 187088
BBXX 44065 21121 99404 70737 46/// /1606 10109 20095 40182 56015 91150 22200 00093 11202 20401 311// 41202 70010 333 91206 555 11063 22072 31138 41606 61149 161057 160055 156052 154055 150048 153047 81606 91142
BBXX 44014 21121 99366 70748 46/// /2105 1//// 40211 53003 91150 22200 00145 11302 20301 307// 41302 70011 333 91206 555 11051 22051 31107 42107 61149 206051 207048 203049 205054 204058 206051
BBXX 46014 21121 99394 71240 46/// /0105 10106 40183 54000 91150 22200 00108 11407 20402 3//// 41407 70036 333 91206 555 11050 22052 31127 43507 61149 006048 001053 352057 347051 353053 358056
BBXX 46011 21121 99350 71210 46/// /3402 10110 40178 50000 91150 22200 00137 11504 20401 330// 41504 70018 333 91203 555 11016 22017 31051 40104 61149 348015 017014 031018 043024 038024 021029
BBXX 46047 21121 99324 71195 46/// /3007 10133 40167 50000 91150 22200 00134 11304 20502 330// 41304 70019 333 91208 555 11070 22075 31050 43008 61149 300067 305063 308067 310063 312058 311063
BBXX 46086 21121 99325 71180 46/// /3205 10148 40156 50000 91150 22200 00150 11403 20401 328// 41403 70016 333 91206 555 11053 22056 31055 42908 61149 318050 318049 316054 311048 298056 295062
BBXX 46027 21121 99419 71244 46/// /3410 10091 40234 54000 91150 22200 00090 11507 20704 328// 41506 70036 333 91212 555 11106 22113 31103 43613 61149 345100 346101 347098 348105 351107 349103
BBXX 46050 21121 99442 71246 46/// /0107 10089 40301 52004 91150 22200 00098 11508 20702 329// 41508 70041 333 91209 555 11079 22083 31122 40111 61149 012076 006076 001084 354083 006086 004087
BBXX 46088 21121 99483 71232 46/// /0202 10072 40294 91150 22200 00078 1//00 70002 333 91204 555 11024 22025 31117 43304 61149 016025 015032 347031 316021 208011 329004
BBXX 46069 21121 99337 71202 46/// /3008 10127 40168 57003 91150 22200 00140 11405 20702 329// 41404 70024 333 91209 555 11083 22087 31124 43110 61149 303078 309078 307080 310076 311074 313072
BBXX 46013 21121 99382 71233 46/// /2101 10074 40184 51004 91150 22200 00110 11506 20401 3//// 41506 70029 333 91202 555 11007 22007 31054 43004 61149 211007 198005 207007 201007 314012 314024
BBXX 46012 21121 99374 71229 46/// /3402 10099 40184 52005 91150 22200 00122 11405 20401 329// 41405 70025 333 91203 555 11022 22022 31115 43104 61149 346020 330021 317019 314021 330018 327018
BBXX 46087 21121 99485 71247 46/// /1401 10065 20024 40296 53010 91150 22200 00076 11406 20401 327// 41406 70032 333 91202 555 11011 22012 31052 40905 61149 136010 118012 108017 133019 127019 101024
BBXX 46029 21121 99461 71245 46/// /3507 10085 20030 40301 50000 91150 22200 00085 11407 20502 328// 41407 70036 333 91208 555 11070 22075 31058 43209 61149 348066 351068 342063 341067 338070 334071
BBXX 46028 21121 99357 71219 46/// /3004 10121 40172 58003 91150 22200 00127 11606 20401 330// 41606 70028 333 91205 555 11039 22040 31121 43006 61149 301037 310041 307043 306040 304039 311035
BBXX 46054 21121 99342 71204 46/// /3109 10121 40166 50000 91150 22200 00135 11304 20602 300// 41304 70021 333 91210 555 11091 22096 31128 43010 61149 309085 307085 304088 301085 300079 297073
BBXX 46025 21121 99337 71191 46/// /3107 10142 20120 40151 54000 91150 22200 00152 11402 20501 327// 41401 70010 333 91208 555 11070 22073 31108 43108 61149 308066 308064 309064 312068 313069 316066
BBXX 46105 21121 99590 71522 46/// ///// 1//// 91150 22200 11306 70030
BBXX 46070 21121 99551 11753 46/// /3203 11015 21087 40006 53008 91150 22200 00039 11004 20401 3//// 41004 70021 333 91204 555 11032 22033 31118 43406 61149 320030 336036 343025 336036 334035 331028 83405 91133
BBXX 32012 21121 99197 50856 46/// ///// 1//// 91150 22200 11706 70030
BBXX 46006 21121 99408 71375 46/// /1405 10120 40316 56011 91150 22200 00125 11105 20401 3//// 41105 70025 333 91206 555 11053 22055 31104 41307 61149 136049 128050 139045 143047 133046 131041
BBXX 46002 21121 99426 71305 46/// ///// 10100 40322 50000 91150 22200 00118 11307 70034
BBXX 46084 21121 99566 71361 46/// /0000 10060 20013 40254 57010 91150 22200 00070 333 91200 555 31051 41813 61149 000000 170098 172096 176097 171094 171106
BBXX 46075 21121 99539 71608 46/// /2007 10038 21017 40063 51011 91150 22200 00053 11309 20603 300// 41308 70044 333 91209 555 11075 22079 31137 42010 61149 205072 208080 214071 212074 216070 221059 82209 91132
BBXX 46005 21121 99461 71310 46/// ///02 10080 40333 50000 91150 22200 00099 11306 20401 3//// 41306 70031 333 91203 555 11015 22016
BBXX 46059 21121 99380 71300 46/// /0211 10123 40272 58004 91150 22200 00145 11408 20906 3//// 41406 70042 333 91213 555 11113 22119 31119 40213 61149 017107 019104 012101 017107 017100 023104
BBXX 46080 21121 99580 71500 46/// /2411 10045 21020 40047 51035 91150 22200 00052 11109 20606 3//// 41107 70046 333 91214 555 11119 22126 31132 42315 61149 243112 242119 248115 244117 248100 249100 82413 91120
BBXX BAREU54 21124 99113 70810 46/// ///// 40086 52004 22213
BBXX BAREU05 21124 99461 70731 46/// ///// 40151 57011 22252
BBXX BAREU51 21124 99404 10118 46/// ///// 40136 57013 22235
BBXX A8XY2 21124 99430 70296 41797 21834 10158 20137 40200 57025 70111 8//7/ 22263 04150 20507 323// 40906 80145
AAXX 21124 64510 32560 7//// 10262 20203 3//// 4//// 872// 333 0//00 5//// 87820 94919 95819
AAXX 21124 64550 32470 8//// 10275 20238 30/// 40/// 888// 333 0//00 5//// 84815 88626 94939 95839
AAXX 21124 64551 32470 71810 10288 20240 30090 40119 879// 333 0//00 58005 83813 81923 87640 94942 95832
AAXX 21124 64556 32465 8//// 10253 20222 39537 40124 885// 333 0//00 58015 88612
BBXX BAREU00 21124 99504 70060 46/// ///// 40246 52033 22243
BBXX BAREU12 21124 99535 10099 46/// ///// 40122 52010 22222
BBXX BAREU04 21124 99496 70469 46/// ///// 49962 52044 22253
BBXX BAREU11 21124 99303 70551 46/// ///// 40263 52010 22214
BBXX BATFR53 21124 99185 51767 46/// /0915 10279 20227 40112 58009 22222 00287
BBXX A8YW2 21124 99103 30803 41598 60814 10295 20245 40060 57015 70322 84839 22213 00270 20202 316// 40801 80260
AAXX 21124 91772 NIL
AAXX 21124 91776 NIL
AAXX 21124 91779 31498 51007 10266 20234 40116 58007 60001 70222 83201 333 10300 562/9 83817 85079
AAXX 21124 91784 11498 70712 10271 20244 40111 58009 69921 78022 8471/ 333 10303 5619/ 81710 84817 87460
AAXX 21124 91792 31498 61304 10247 20240 40124 58100 60001 70200 84231 333 10272 56399 84815 86077
AAXX 21124 91487 NIL
AAXX 21124 91490 NIL
AAXX 21124 91533 NIL
AAXX 21124 91601 NIL
AAXX 21124 91610 11498 70812 10259 20239 40068 50003 69941 72518 85220 333 10///
AAXX 21124 5629/
AAXX 21124 91623 NIL
AAXX 21124 91629 NIL
AAXX 21124 91701 NIL
AAXX 21124 91487 NIL
AAXX 21124 91490 NIL
AAXX 21124 91533 NIL
AAXX 21124 91601 NIL
AAXX 21124 91610 11498 70812 10259 20239 40068 50003 69941 72518 85220 333 10///
AAXX 21124 5629/
AAXX 21124 91623 NIL
AAXX 21124 91629 NIL
AAXX 21124 91701 NIL
AAXX 21124 91487 NIL
AAXX 21124 91490 NIL
AAXX 21124 91533 NIL
AAXX 21124 91601 NIL
AAXX 21124 91610 11498 70812 10259 20239 40068 50003 69941 72518 85220 333 10///
AAXX 21124 5629/
AAXX 21124 91623 NIL
AAXX 21124 91629 NIL
AAXX 21124 91701 NIL
AAXX 21121 33815 41496 83205 10002 21004 39876 40087 52006 77172 8872/ 555 11000
AAXX 21124 78700 NIL
AAXX 21124 78703 NIL
AAXX 21124 78704 31570 61003 10264 20201 30130 40135 705// 82170 333 10302 20242 30/// 56200 59016 82825 85358
AAXX 21124 78705 31570 61402 10197 20189 30113 40131 53009 705// 82963 333 10287 20197 30/// 56600 59008 70000 82926 85072
AAXX 21124 78706 31568 30000 10202 20194 30140 40145 710// 83100 333 10300 20192 30/// 56000 58000 70000 83824
AAXX 21124 78707 NIL
AAXX 21124 333 78708 31560 32606 10203 20203 30103 40133 53011 70544 85530 333 10294 20203 30/// 56000 59009 70000 81624 83358
AAXX 21124 78711 NIL
AAXX 21124 333 78714 12568 40000 10202 20198 60011 84200 333 10276 20202 31/// 56100 70014 84826
AAXX 21124 78717 31358 70000 10174 20171 38946 40120 710// 87500 333 10250 20174 31/// 56100 59006 70000 82706 87620
AAXX 21124 78718 31660 10000 10164 705// 81430 333 10305 20164 30/// 56000 70000 81835
AAXX 21124 78719 32260 10000 10072 20072 38348 40152 81400 333 10248 20070 30/// 56000 59005 70000 81704
AAXX 21124 78720 31257 70105 10168 20163 39033 40139 52007 70544 86531 333 10263 20143 30/// 56800 58007 70000 81704 85624
AAXX 21124 78724 32578 50410 10258 20207 30045 40102 81531 333 10339 20251 30/// 56100 59009 70000 81630 83358
AAXX 21124 85574 12960 01606 10183 20095 39592 40138 52014 60004 333 20143 30/// 55127 70000
AAXX 21124 85577 12960 02602 10186 20105 39542 40142 52012 60004 333 20134 30011 50800 55119 70000
AAXX 21124 85586 12960 02604 10166 20126 40161 52023 60004 333 20093 30/// 50350 55128
AAXX 21124 85629 12580 11910 10146 20111 40161 52/// 60004 81100 333 20120 30/// 50900 55136 56400 70000 81825
AAXX 21124 85672 13980 02010 10147 20093 40173 52015 60004 333 20094 30/// 55129 70000
AAXX 21124 85682 12765 11903 10162 20095 40179 52015 60004 81500 333 20090 30/// 50950 55117 56500 70000 81656
AAXX 21124 85743 12560 49903 10148 20096 40178 52007 69984 84500 333 20072 30/// 55013 56006 70008 84625
AAXX 21124 85766 11460 73503 10122 20113 40171 52012 60024 78082 85130 333 20107 32/// 55040 56770 70020 85812 85359
AAXX 21124 85799 11540 72211 10102 20094 40159 52015 60104 78188 85230 333 20078 33/// 50500 55055 56660 70100 85830 84358
AAXX 21124 85418 12570 52207 10206 20128 40139 53009 60004 85500 333 20180 30/// 55106 56000 70000 85626
AAXX 21124 85442 12570 41905 10194 20134 40138 52008 60004 84508 333 20175 30/// 50650 55102 56000 70000 84625 83076
AAXX 21124 85469 42562 51205 10196 20146 40181 57005 85800 333 56300 84820
AAXX 21124 85488 12462 33104 10158 20137 40150 52036 60004 83500 333 20127 30007 50470 55100 56000 70000 83613
AAXX 21124 78583 32570 11203 10244 20233 40132 60001 81802 333 02305 10288 20/// 59003 81820
AAXX 21124 85832 11558 82506 10052 20027 40122 53018 60204 7808/ 882// 333 20051 31/// 70197 83720 88836
AAXX 21124 85864 11470 73505 10042 20040 40079 52016 60134 7258/ 87200 333 20024 32/// 55062 56600 70132 83816 87833
AAXX 21124 85874 12582 53116 10038 20015 39443 40073 53008 60054 7028/ 85200 333 20009 32/// 56600 70046 85827
AAXX 21124 85886 12670 13316 10084 20080 40047 53002 60004 81200 333 20004 30/// 56600 70000 81840
AAXX 21124 85892 12570 42706 10038 20005 40028 52006 69921 84200 333 20034 30/// 56600 70002 84830
AAXX 21124 85934 12480 72614 10073 21002 49973 52007 60024 83230 333 20043 55086 56660 70020 83816 84360
AAXX 21124 85968 12462 80000 10054 20044 49937 50/// 60194 8162/ 333 20042 32/// 55/// 56009 70185 81710 85640 88460
AAXX 21124 89056 11120 80109 10009 20005 49927 58006 60032 71062 886// 333 10036 20007 41997 56099 88703
AAXX 21124 89057 11207 80000 10012 20009 49929 57006 60022 74422 886// 333 10031 20008 42060 56099 88704
AAXX 21124 89058 11462 83207 10014 20005 39910 49931 57002 60041 70060 885//
AAXX 21124 89059 11456 80511 11003 21020 49932 57011 60022 77177 884// 333 10012 21008 43014 55000 71099 88616
AAXX 21124 89251 11363 83404 10016 20005 49922 58004 60012 86062 8672/
AAXX 21124 78583 32570 11203 10244 20233 40132 60001 81802 333 02305 10288 20/// 59003 81820
AAXX 21124 78925 12670 40615 10273 20186 40161 53021 60001 81801 333 10287 20245 58001 70016 81840 84080
BBXX A8GU5 21124 99109 50330 41598 40918 10270 20198 40150 53/// 70322 83271 22214 21003 80220
BBXX TBWUK03 21123 99297 70153 41498 20714 10197 20148 40299 52010 70200 81140 22243 20401 306// 40803 5//// 80166
BBXX C6CU6 21123 99274 70650 41597 70813 10203 20165 40281 51002 70222 86561 22263 04240 21007 301// 41506 5//// 80180
AAXX 21124 78925 12670 40615 10273 20186 40161 53021 60001 81801 333 10287 20245 58001 70016 81840 84080
BBXX 46002 21121 99426 71305 46/// ///// 10100 40322 50000 91150 22200 00118 11307 70034
BBXX 46005 21121 99461 71310 46/// ///02 10080 40333 50000 91150 22200 00099 11306 20401 3//// 41306 70031 333 91203 555 11015 22016
BBXX 46006 21121 99408 71375 46/// /1405 10120 40316 56011 91150 22200 00125 11105 20401 3//// 41105 70025 333 91206 555 11053 22055 31104 41307 61149 136049 128050 139045 143047 133046 131041
BBXX 46012 21121 99374 71229 46/// /3402 10099 40184 52005 91150 22200 00122 11405 20401 329// 41405 70025 333 91203 555 11022 22022 31115 43104 61149 346020 330021 317019 314021 330018 327018
BBXX 46014 21121 99394 71240 46/// /0105 10106 40183 54000 91150 22200 00108 11407 20402 3//// 41407 70036 333 91206 555 11050 22052 31127 43507 61149 006048 001053 352057 347051 353053 358056
BBXX 46028 21121 99357 71219 46/// /3004 10121 40172 58003 91150 22200 00127 11606 20401 330// 41606 70028 333 91205 555 11039 22040 31121 43006 61149 301037 310041 307043 306040 304039 311035
BBXX 46029 21121 99461 71245 46/// /3507 10085 20030 40301 50000 91150 22200 00085 11407 20502 328// 41407 70036 333 91208 555 11070 22075 31058 43209 61149 348066 351068 342063 341067 338070 334071
BBXX 46050 21121 99442 71246 46/// /0107 10089 40301 52004 91150 22200 00098 11508 20702 329// 41508 70041 333 91209 555 11079 22083 31122 40111 61149 012076 006076 001084 354083 006086 004087
BBXX 46054 21121 99342 71204 46/// /3109 10121 40166 50000 91150 22200 00135 11304 20602 300// 41304 70021 333 91210 555 11091 22096 31128 43010 61149 309085 307085 304088 301085 300079 297073
BBXX WFLH 21123 99321 71253 41/98 80305 10133 20083 40202 57003 7//22 8//// 22213 00144 20402 335// 41305 5//// 6//// 80106 ICE /////
AAXX 21124 78583 32570 11203 10244 20233 40132 60001 81802 333 02305 10288 20/// 59003 81820
BBXX 44040 21121 99410 70736 46/// /1101 10082 20069 40189 91145 22200 1//00 70000 333 91202 555 11015 22015
BBXX 44020 21121 99414 70702 46/// /1607 1//// 40204 58012 91150 22200 00076 333 91208 555 11075 22080
AAXX 21124 78925 12670 40615 10273 20186 40161 53021 60001 81801 333 10287 20245 58001 70016 81840 84080
AAXX 21124 91348 11472 80903 10261 20246 30042 40095 50002 69981 78082 8527/ 333 10294 56299 58004 70015 555 92112
AAXX 21124 97180 32458 60701 10284 20270 30067 40085 51023 82232 333 10314 56000 58006 82819 84080
AAXX 21124 85418 12570 52207 10206 20128 40139 53009 60004 85500 333 20180 30/// 55106 56000 70000 85626
AAXX 21124 85442 12570 41905 10194 20134 40138 52008 60004 84508 333 20175 30/// 50650 55102 56000 70000 84625 83076
AAXX 21124 85469 42562 51205 10196 20146 40181 57005 85800 333 56300 84820
AAXX 21124 85488 12462 33104 10158 20137 40150 52036 60004 83500 333 20127 30007 50470 55100 56000 70000 83613
AAXX 21124 85574 12960 01606 10183 20095 39592 40138 52014 60004 333 20143 30/// 55127 70000
AAXX 21124 85577 12960 02602 10186 20105 39542 40142 52012 60004 333 20134 30011 50800 55119 70000
AAXX 21124 85586 12960 02604 10166 20126 40161 52023 60004 333 20093 30/// 50350 55128
AAXX 21124 85629 12580 11910 10146 20111 40161 52/// 60004 81100 333 20120 30/// 50900 55136 56400 70000 81825
AAXX 21124 85672 13980 02010 10147 20093 40173 52015 60004 333 20094 30/// 55129 70000
AAXX 21124 85682 12765 11903 10162 20095 40179 52015 60004 81500 333 20090 30/// 50950 55117 56500 70000 81656
AAXX 21124 85743 12560 49903 10148 20096 40178 52007 69984 84500 333 20072 30/// 55013 56006 70008 84625
AAXX 21124 85766 11460 73503 10122 20113 40171 52012 60024 78082 85130 333 20107 32/// 55040 56770 70020 85812 85359
AAXX 21124 85799 11540 72211 10102 20094 40159 52015 60104 78188 85230 333 20078 33/// 50500 55055 56660 70100 85830 84358
AAXX 21123 78970 11360 70605 10257 20244 30110 40135 60132 71566 83972 333 06299 10330 20243 59008 70134 81908 83636 85458 90926
AAXX 21124 78962 11463 70708 10261 20218 30133 40141 60001 71522 878// 333 02299 10277 20231 59010 70071 82812 87638
BBXX 42002 21121 99258 70937 46/// /1804 10240 20225 40138 53003 91150 22200 00238 10703 20401 310// 40703 70017 333 91205 555 11039 22041 31054 41906 61149 179039 184043 187045 190045 191046 192048
BBXX 42003 21121 99260 70856 46/// /1409 1//// 91150 22200 10804 20603 313// 40802 70021 333 91210 555 11092 22098 31126 41311 61149 135088 137094 136094 129089 133085 136089 81410 91127
BBXX 41043 21121 99211 70650 46/// /0809 10247 20180 40211 53014 91150 22200 00262 11307 20705 300// 41306 70036 333 91212 555 11100 22105 31052 40813 61149 078095 076097 082103 076107 075109 076108 80812 91052
BBXX 41036 21121 99342 70770 46/// ///// 10206 20156 40214 55000 91150 22200 00188 10603 70014
BBXX 44066 21121 99396 70726 46/// /1906 10140 20109 40193 57013 91150 22200 00130 11202 20501 3//// 41202 70011 333 91208 555 11070 22077 31141 41908 61149 186064 187064 186059 189060 192060 193062
BBXX 41047 21121 99275 70715 46/// /1108 10227 40252 52005 91150 22200 00249 11406 20602 305// 41405 70028 333 91210 555 11079 22083 31149 41110 61149 109079 108077 112075 103071 101069 103068 81209 91150
AAXX 21124 85832 11558 82506 10052 20027 40122 53018 60204 7808/ 882// 333 20051 31/// 70197 83720 88836
AAXX 21124 85864 11470 73505 10042 20040 40079 52016 60134 7258/ 87200 333 20024 32/// 55062 56600 70132 83816 87833
AAXX 21124 85874 12582 53116 10038 20015 39443 40073 53008 60054 7028/ 85200 333 20009 32/// 56600 70046 85827
AAXX 21124 85886 12670 13316 10084 20080 40047 53002 60004 81200 333 20004 30/// 56600 70000 81840
AAXX 21124 85892 12570 42706 10038 20005 40028 52006 69921 84200 333 20034 30/// 56600 70002 84830
AAXX 21124 85934 12480 72614 10073 21002 49973 52007 60024 83230 333 20043 55086 56660 70020 83816 84360
AAXX 21124 85968 12462 80000 10054 20044 49937 50/// 60194 8162/ 333 20042 32/// 55/// 56009 70185 81710 85640 88460
AAXX 21124 89056 11120 80109 10009 20005 49927 58006 60032 71062 886// 333 10036 20007 41997 56099 88703
AAXX 21124 89057 11207 80000 10012 20009 49929 57006 60022 74422 886// 333 10031 20008 42060 56099 88704
AAXX 21124 89058 11462 83207 10014 20005 39910 49931 57002 60041 70060 885//
AAXX 21124 89059 11456 80511 11003 21020 49932 57011 60022 77177 884// 333 10012 21008 43014 55000 71099 88616
AAXX 21124 89251 11363 83404 10016 20005 49922 58004 60012 86062 8672/
AAXX 21123 78970 11360 70605 10257 20244 30110 40135 60132 71566 83972 333 06299 10330 20243 59008 70134 81908 83636 85458 90926
AAXX 21124 78962 11463 70708 10261 20218 30133 40141 60001 71522 878// 333 02299 10277 20231 59010 70071 82812 87638
AAXX 21124 91348 11472 80903 10261 20246 30042 40095 50002 69981 78082 8527/ 333 10294 56299 58004 70015 555 92112
BBXX BATFR03 21124 99499 70005 46/// /3124 10130 20117 40204 51030 22244
BBXX BATFR09 21124 99382 70099 46/// /0114 10167 20127 40324 58001 22243 00177
BBXX BAREU06 21124 99460 70549 46/// ///// 40168 52027 22224
BBXX BATEU05 21124 99583 70369 46/// /3219 10012 21003 49905 53042 22222
BBXX BATFR55 21124 99087 30433 44597 83510 10290 20249 40094 70322 86726 22262 00297 20602
BBXX BAREU62 21124 99383 10248 46/// ///// 40151 57016 22214
BBXX BATFR56 21124 99198 30571 44698 70818 10259 20224 40124 56014 70222 8772/ 22213 00277 20502 324// 40502 5////
BBXX BATFR12 21124 99481 70066 46/// /3418 10125 20112 40281 50001 22271 00144
BBXX BATFR45 21124 99099 10581 46/// ///// 10269 20220 40111 55012 22213 00287
BBXX BATFR35 21124 99167 51511 46/// /1310 10260 20209 40095 22262 00287
BBXX BATEU07 21124 99260 31118 46/// /1822 10227 40128 51012 22284
BBXX BATFR11 21124 99401 10100 46/// /3024 10130 20059 40146 58001 22283 00179
BBXX BATFR16 21124 99389 70302 44598 11525 10182 20154 40235 55010 70100 81120 22254 00180 21402 318// 41402 5////
BBXX FVNM 21124 99072 70797 46/// /3309 10257 20232 40090 51011 22211 00265
BBXX BATFR04 21124 99584 70062 44/96 82229 10107 20095 40039 56016 76066 8/7// 22200 00102 2//02
BBXX BATFR46 21124 99390 10007 44/97 13116 10159 20092 40239 58002 701// 8//// 22213 00167 22002
BBXX BATFR14 21124 99342 70379 44597 40007 10199 20157 40199 51021 70200 84299 22214 00210 20502 312// 40906 5////
BBXX BATFR52 21124 99489 70023 46/// /2929 10120 20114 40231 22274 00112
AAXX 21121 12772 31557 61301 11008 21036 39847 40140 57006 70310 82532 333 82630
AAXX 21121 12822 16/// /2203 10001 21005 39995 40142 58008 69981
AAXX 21121 12843 11420 82202 11013 21023 39971 40147 58005 69911 77172 8802/ 333 88513
AAXX 21121 12882 31565 12106 10010 21035 30012 40147 58003 70311 81140 333 81820
AAXX 21121 12925 36/// /2101 10015 21036 39985 40161 58007
AAXX 21121 12942 31970 72905 11019 21046 39915 40169 57006 70222 8707/
AAXX 21121 12982 31965 62103 11009 21044 30055 40160 57009 71411 86070
AAXX 21121 10004 NIL
AAXX 21121 10015 01582 43007 10064 20032 30125 40135 51013 60021 72581 83931 333 31/// 55302 20403 30355 69977 81822 83367 91113 96488 96481
AAXX 21121 10020 17969 03206 10060 20040 30089 40122 51014 69971 70065 333 55309 20660 30219
AAXX 21121 10035 01780 22904 10046 20029 30060 40119 51012 69911 70186 81530 333 32/// 55310 20627 30172 40875 69907 81656
AAXX 21121 10055 12680 12808 10046 20033 30098 40109 51012 60001 81501 333 31/// 55310 20609 30236 81635
AAXX 21121 10147 01373 72803 10048 20036 30109 40128 51009 69991 78081 879// 333 31/// 55300 20376 30362 41124 69997 82809 82915 86620
AAXX 21121 10162 12680 52804 10041 20022 30034 40118 51012 60001 85500 333 31/// 55304 20476 30350 85640
AAXX 21121 10184 01240 82603 10014 20010 30092 40100 51011 60011 76877 876// 333 43004 55300 20091 30090 69947 84704 87707
AAXX 21121 10200 01582 62903 10060 20047 30148 40146 51009 69941 70181 82332 333 32/// 55305 20563 30438 69947 81920 85364 96487
AAXX 21121 10224 01580 52705 10058 20039 30134 40140 51005 69951 72186 83831 333 32/// 55302 20416 30343 69907 81826 83650
AAXX 21121 10270 16460 83003 10036 20020 30064 40120 51014 69911 222// 06041 333 55300 88/12
AAXX 21121 10338 01470 72705 10049 20032 30070 40143 51006 69931 72582 8483/ 333 31/// 55300 20284 30283 69907 82810 84625 87358
AAXX 21121 10361 11475 72805 10053 20026 30032 40137 51009 69901 70362 878// 333 31/// 55300 20468 30458 85816 86657
AAXX 21121 10393 01370 83106 10025 20018 39977 40106 52013 69971 72176 872// 333 32/// 55300 20126 30122 69937 85709 87820
AAXX 21121 10400 01461 82303 10051 20037 30121 40171 50002 69901 76152 8652/ 333 31/// 55300 20085 30085 69907 83711 84619 88525
AAXX 21121 10438 07450 82403 10032 20018 39879 40164 51004 69921 75765 333 55300 69927 83/13 87/33 88/58
AAXX 21121 10469 01482 72804 10044 20020 39971 40138 51009 69931 70382 878// 333 31/// 55300 69907 86815 87640
AAXX 21121 10488 01470 72907 10031 20012 39844 40129 52020 60011 72176 8683/ 333 32/// 55300 20219 30216 41151 69977 84813 85622 86632 91114
AAXX 21121 10506 01275 82503 10016 20004 39590 40185 58004 69901 70276 876// 333 31/// 41998 55300 20152 30152 69907 81704 87705
AAXX 21121 10548 01466 82803 10018 21001 39617 40169 51004 69921 75175 877// 333 35/// 42002 55300 20146 30146 69907 87710
AAXX 21121 10637 11482 82205 10038 20014 30044 40184 50000 69901 70362 878// 333 31/// 41998 55300 81818 84631 87656 96460
AAXX 21121 10685 01359 82604 10006 21006 39469 40156 51007 69921 77176 877// 333 43007 55300 20440 30435 69927 87808 96473 96468 96460
AAXX 21121 10738 01570 82202 10022 21002 39720 40200 58003 69901 72372 875// 333 44003 55300 69907 83630 87639
AAXX 21121 10763 01359 82704 10021 20006 39789 40180 51003 69901 76162 877// 333 31/// 55300 20126 30126 69907 87808
AAXX 21121 10788 07569 72506 10023 20007 39733 40174 50001 69911 72276 333 55300 20236 30236 69907 81/22 84/33 87/46
AAXX 21121 10852 01565 82606 10018 20002 39613 40195 58002 60011 72176 8282/ 333 31/// 4/998 55300 20356 30356 69907 81822 88460
AAXX 21121 10946 07/57 /2504 10004 21012 39356 40208 58006 60011 77174 333 55300 20469 30469 69927
BBXX DBBC 21121 99535 10100 46/// /2605 10044 2//// 40125 52008 22260 00035
BBXX DBND 21121 99536 10086 46/// //705 10053 20035 40132 52008 22260 00049
BBXX DBBI 21121 99535 10100 46/// /2606 10044 20044 40123 52008 22230 00031
BBXX DBBA 21121 99541 10121 46/// /2805 10054 20040 40103 52009 22231 00034
BBXX DBFH /1121 99535 100/6 46/// /2705 10062 20440 40134 52/07 22240 04042
BBXX DBCK 21121 99/// ///// 46/// ///// 10056 20056 40132 52008 22220 00042
BBXX 41101 21124 99146 70562 46/// /0522 10264 20216 40146 52016 22200 00271 10704 70022 555 1/026
BBXX DBKR 21121 99541 10121 46/// /2903 10047 20047 40104 52012 22200 00041
BBXX DBEB 2/121 99538 10081 41/// /2710 10050 20050 40131 52012 7//// 22200 00044
AAXX 21121 01003 NIL
AAXX 21121 01007 11689 11504 11086 21167 30095 40105 50002 60001 70200 81050 333 91105
AAXX 21121 01028 11380 60507 11038 21050 30067 40087 57004 60001 70320 86600 222// 01001 333 91111
AAXX 21121 01047 41640 81403 11065 21076 39686 40064 51009 77172 8802/
AAXX 21121 01049 16/// /1902 11073 21085 30063 40067 50006 60001 333 91104
AAXX 21121 01078 11365 82705 10024 21016 30025 40038 52008 6//// 70322 86360 333 91112
AAXX 21121 01102 46/// /2105 10032 20001 30038 40058 53017 333 91116
AAXX 21121 01160 NIL
AAXX 21121 01218 11787 51801 11022 21037 30094 40116 50009 60001 70320 82288 333 91103
AAXX 21121 01238 41689 31404 11075 21109 38948 40090 50012 70300 83100 333 91106
AAXX 21121 01241 11484 72408 10022 21004 30073 40085 53011 69901 72582 86872 333 91111
AAXX 21121 01281 NIL
AAXX 21121 01338 16/// /0903 11007 21035 30069 40137 51013 60001 333 91107
AAXX 21121 01359 11989 02301 11113 21135 39191 40152 51016 60001 70100 333 91108
AAXX 21121 01397 16/// /1901 11171 21185 39671 40143 52012 60001 333 91104
AAXX 21121 01400 NIL
AAXX 21121 01427 11586 20202 10024 21009 30104 40120 51015 60001 70200 81102 333 91105
AAXX 21121 01447 NIL
AAXX 21121 01448 46/// /0702 10000 21030 30107 40117 51019 333 91105
BBXX 61001 21124 99434 10078 46/// /2709 10123 20066 40160 57008 22200 00147 10702 70009
AAXX 21121 01001 11665 72006 11008 21053 39932 49944 50004 60001 70222 875// 222// 00004 333 91113
AAXX 21121 01008 41585 41105 11093 21133 30075 40110 52002 70310 84500 333 91107
AAXX 21121 01010 41589 72003 10014 21015 30019 40035 52008 70222 8117/ 333 91105
AAXX 21121 01026 41689 73001 10006 21009 39897 40039 52006 70222 8757/ 333 4/020 91102
AAXX 21121 01055 46/// /2202 10025 21014 30033 40051 50004 333 91108
AAXX 21121 01062 NIL
AAXX 21121 01098 41475 62709 10019 21010 30015 40033 52015 70282 84670 333 91112
AAXX 21121 01115 16/// /1910 10039 20011 30013 40034 52006 6//// 333 91112
AAXX 21121 01152 NIL
AAXX 21121 01205 NIL
AAXX 21121 01212 16/// /2212 10036 21000 30079 40095 51014 6//// 333 91117
AAXX 21121 01271 16/// /1002 11047 21061 30076 40098 52014 6//// 333 91105
AAXX 21121 01288 41683 22202 11137 21159 39349 40143 52015 70121 81138 333 91104
AAXX 21121 01300 NIL
AAXX 21121 01317 41070 11702 11014 21023 30109 40124 50008 70141 81601 333 91103
AAXX 21121 01367 11989 03104 11141 21161 39679 40152 51013 60002 70100 333 91107
AAXX 21121 01384 41283 33602 11088 21103 39863 40118 51016 70200 81630 333 91106
AAXX 21121 01403 11X05 90804 10002 21006 30056 40126 51013 60001 74541
AAXX 21121 01415 16/// /0901 11001 21007 30114 40125 51015 6//// 333 91102
AAXX 21121 01482 46/// /3507 11030 21049 30102 40109 52021 333 91111
AAXX 21121 01492 41587 31901 11039 21073 39994 40116 51018 70220 81571 333 91105
AAXX 21124 86011 32870 23010 10286 20203 39943 40100 52017 82030 333 20245 5//// 82358
AAXX 21124 86033 32870 13212 10318 20201 30016 40109 52020 81030 333 20260 5//// 81357
AAXX 21124 86065 32970 00510 10286 20227 39843 40075 52013 333 20240 5////
AAXX 21124 86068 32970 03604 10296 20212 39893 40081 51008 333 20246 51304
AAXX 21124 86086 32870 43602 10304 20225 39988 40076 52013 84030 333 20250 5//// 84357
AAXX 21124 86097 01965 30408 10296 20196 39477 40102 52018 69994 70500 83030 333 20236 50774 70009 83358
AAXX 21124 86128 32670 30206 10308 20208 39966 40076 52011 82101 333 20216 5//// 82840 82070
AAXX 21124 86134 32970 00402 10300 20210 30006 40092 52020 333 20220 51004
AAXX 21124 86170 32970 50106 10298 20209 39969 40069 52018 80005 333 20208 51164 85270
AAXX 21124 86185 32970 00000 10284 20202 30011 40103 52022 333 20208 5////
AAXX 21124 86192 32970 00000 10292 20160 39893 40109 51004 333 20235 5////
AAXX 21124 86210 NIL
AAXX 21124 86218 32970 00705 10300 20170 39998 40092 52018 333 20198 51724
AAXX 21124 86221 32970 00000 10290 20140 39972 40104 52002 333 20216 50904
AAXX 21124 86233 32970 03602 10264 20141 39921 40108 51016 333 20184 5////
AAXX 21124 86234 32970 01002 10270 20158 39873 40053 51018 333 20180 50104
AAXX 21124 86246 NIL
AAXX 21124 86251 32970 00000 10292 20142 39919 40083 53026 333 20244 5////
AAXX 21124 86255 32970 03602 10270 20212 30008 40074 57005 333 20230 50164
AAXX 21124 86260 32970 00906 10292 20135 39945 40093 52038 333 20210 51274
AAXX 21124 86268 32970 00602 10278 20152 39925 40086 52011 333 20200 5////
AAXX 21124 86285 32970 00000 10274 20188 39821 40098 58020 333 20230 50844
AAXX 21124 86297 31965 00000 10286 20217 39979 40082 52018 70500 333 20220 51144
AAXX 21121 13586 32660 12501 10037 21015 39872 40168 57016 81500 333 81640
AAXX 21121 10609 01160 82103 10027 20020 39855 40192 58006 69971 75876 887// 333 31/// 55300 20141 30140 69957 81702 87705
AAXX 21121 10616 01038 82703 10009 20004 39576 40190 58004 69931 76872 887// 333 41998 55300 69927 81701 84702 87703 96010 96469
AAXX 21121 10641 07663 82102 10033 20015 30033 40183 58001 69901 72365 333 55300 69907 87/45 88/56
AAXX 21121 10655 01475 82806 10034 20016 39846 40180 50001 69911 72162 878// 333 31/// 55300 20203 30202 69907 85813 84626 87650
AAXX 21121 10675 07475 72704 10033 20008 39877 40174 51002 69901 70065 333 55300 20294 30294 69907 87/11 87/57 87/60
AAXX 21121 10688 07359 82604 10013 20006 39634 40168 51006 60011 76176 333 4/001 55300 20247 30247 69997 86/09 87/20 88/38
AAXX 21121 10708 01035 82203 10014 20011 39805 40201 58007 60031 76876 887// 333 42002 55300 20142 30135 60027 82701 88702
AAXX 21121 10729 07464 81703 10027 20018 30078 40203 58003 69901 75165 333 4/002 55300 20070 30070 69907 87/16 88/21
AAXX 21121 10731 01359 82307 10033 20022 30052 40199 58008 69961 76062 888// 333 31/// 55300 20093 30093 69957 84808 87619
AAXX 21121 10742 07368 82605 10027 20012 39858 40197 51001 69901 72365 333 55300 20069 30069 69907 88/08
AAXX 21121 10776 01462 82805 10018 20007 39724 40178 51004 69921 75865 888// 333 31/// 4/998 55300 20142 30142 69927 83815 88620
AAXX 21121 10791 01/00 92809 11051 21051 38474 48422 53006 60041 77374 333 49098 55300 60027 96049 96038
AAXX 21121 10805 01365 81905 10029 20019 30016 40212 58004 60021 76166 8372/ 333 31/// 55300 20161 30161 60027 82707 88459
AAXX 21121 10815 01212 82504 11006 21008 39239 48462 58006 60021 77177 887// 333 43037 55300 20172 30172 69967 88705 96010
AAXX 21121 10836 01/08 92707 11010 21010 39308 40202 52002 60011 77174 333 48020 55300 20247 30247 69907 89/03 91114 96041
AAXX 21121 10870 01360 82607 10019 20002 39645 40191 50001 69951 77172 885// 333 42002 55300 69907 82707 84710 87614 96473
AAXX 21121 10895 01260 82608 10009 20003 39589 40172 50000 69921 77172 885// 333 44004 55300 20208 30206 69927 83705 86714 88633 91114 96478 96471
AAXX 21121 10908 01/01 92311 11052 21054 38464 48462 58011 69921 77174 333 49066 55300 20328 30328 69927 89/01 91117 91213 96049
AAXX 21121 10929 01457 82704 10019 20002 39671 40215 58006 69901 77176 8452/ 333 41998 55300 20178 30178 69907 82713 84619 88457
AAXX 21121 10948 01567 82501 11004 21012 39245 48474 58006 60021 77177 885// 333 43062 55300 20316 30316 69987 88633
AAXX 21121 10961 11/00 93307 11157 21160 36995 47955 58005 60091 77174 333 49180 55300 20361 40949 91119 91211 96049
AAXX 21121 10962 01060 82406 11020 21021 39025 48460 58003 69951 77174 8877/ 333 48017 55300 20298 30294 69917 87701 91113 96036 96447
AAXX 21121 10980 11/01 92916 11080 21083 38096 48455 57002 60061 74974 333 48/// 55300 20335 30335 91125 90203 91218 91218 96471 96449
AAXX 21121 10007 NIL
AAXX 21121 10044 46/// /2707 10049 20024 30082 40114 51013 222// 00048 333 55310
AAXX 21121 10046 42980 12604 10042 20021 30078 40117 51010 81041 333 81360
AAXX 21121 10091 NIL
AAXX 21121 10113 01575 52603 10058 20038 30124 40143 50007 60011 72582 83832 333 31/// 55303 20469 30357 69927 83820 83075
AAXX 21121 10124 46/// ///// 10056 2//// 30094 40132 51013 222// 00048 333 553// 91116
AAXX 21121 10131 01575 53005 10060 20036 30117 40132 51011 69981 70386 84932 333 31/// 55305 20480 30298 69987 82822 81925 83635 96487
AAXX 21121 10170 11475 53008 10048 20031 30090 40106 51012 69901 70162 85240 333 31/// 55307 20541 30294 85816 91114 91211
AAXX 21121 10264 01369 72705 10036 20025 30007 40115 51011 69901 72562 872// 333 31/// 55300 20290 30287 69907 87809
AAXX 21121 10291 01359 82905 10017 20010 30032 40101 51010 69971 72176 875// 333 42002 55300 20160 30159 69927 83709 87627
AAXX 21121 10315 01462 72504 10052 20039 30096 40161 51006 69901 72162 878// 333 31/// 55300 20239 30239 69907 82710 83820 87656
AAXX 21121 10379 01480 73006 10037 20022 39992 40115 51013 69931 70376 878// 333 31/// 55300 20243 30233 41146 69907 86811 85616 91114
AAXX 21121 10382 01480 63004 10041 20021 30068 40114 52012 69941 72576 84231 333 31/// 55302 20408 30363 69907 84812
AAXX 21121 10384 06/// /3107 10044 20021 30049 40110 52011 69971 333 55303 20432 30348 69927
AAXX 21121 10427 01/00 92706 11009 21009 39140 48434 50003 69931 77187 333 48058 55300 20180 30180 69907 91113 96049 96485 96473 96470
AAXX 21121 10430 01230 82604 10038 20030 39967 40162 50007 69901 72162 886// 333 31/// 55300 20031 30031 69907 82705 87706
AAXX 21121 10439 41465 72704 10043 20011 39943 40166 50002 72162 8687/ 333 81816 83648 87358
AAXX 21121 10453 11/90 92909 11030 21030 38788 48416 51009 60021 78774 333 49125 55300 91123 91215 96085 96049 96288 96286
AAXX 21121 10496 01370 83004 10030 20018 30025 40111 51015 60031 72176 885// 333 31/// 55300 20067 30067 60017 84708 88620
AAXX 21121 10499 01235 83003 10006 20001 39814 40110 53013 60031 77176 877// 333 43001 55300 20100 30099 60027 87704 96273
AAXX 21121 10505 01468 82206 10036 20025 39890 40176 58005 69931 70262 878// 333 32/// 55300 20363 30363 69907 82811 87620
AAXX 21121 10513 01482 82603 10051 20028 30058 40181 50000 69911 70262 878// 333 31/// 55300 20134 30134 69907 86815 87625
AAXX 21121 10532 17659 82505 10031 20021 39919 40172 50001 69931 70065 333 55300 20193 30193 87/40 88/50 88/57
AAXX 21121 10544 01/00 92806 11018 21018 39066 48435 51002 69961 77174 333 48028 55300 69937 96049 96147 96478 96477 96473
AAXX 21121 10554 01370 72806 10027 20013 39761 40155 51005 69911 76086 8587/ 333 31/// 55300 20292 30291 69917 82808 84612 87363 96480
AAXX 21121 10567 01478 73007 10032 20008 39766 40147 51009 69921 72186 8527/ 333 31/// 55300 20373 30372 69927 85812 86357 86460
AAXX 21121 10578 11/01 92818 11038 21042 38701 48399 50005 60021 77374 333 48064 55300 20275 30264 96049
AAXX 21124 78897 11575 50906 10265 20196 40172 53020 69901 72586 84802 333 022/6 10281 20198 59002 79999 83820 83650
AAXX 21121 10004 46/60 /2906 10077 20044 30146 40146 51014 222// 00078 333 55305 91114
AAXX 21124 78897 11575 50906 10265 20196 40172 53020 69901 72586 84802 333 022/6 10281 20198 59002 79999 83820 83650
BBXX CGDS 21124 99450 70746 46/// /0601 11011 21034 4//// 5//// 7//// 8//// 22200 0//// 2////
AAXX 21121 01037 16/// /1001 11046 21052 30043 40049 52005 69931 333 91102
AAXX 21121 01046 41889 61604 10001 21045 30043 40050 51008 70122 86030 333 91107
AAXX 21121 01058 16/// /1201 11092 21104 39595 40077 52006 69961 333 4/018 91102
AAXX 21121 01065 11650 60000 11142 21156 39917 40089 52010 60001 71041 86500 333 91102
AAXX 21121 01092 NIL
AAXX 21121 01107 16/// /1906 10030 2//// 30025 40030 50009 60031 333 91110
AAXX 21121 01114 16/// /0502 10008 21001 30035 40046 52010 69961 333 91103
AAXX 21121 01144 41340 81306 10015 20005 76362 8572/ 333 91108
AAXX 21121 01199 NIL
AAXX 21121 01245 11683 22201 11066 21097 39388 40118 51016 60001 70300 82100 333 91104
AAXX 21121 01259 16/// /2113 10040 20009 30035 40058 53000 60041 333 91115
AAXX 21121 01262 NIL
AAXX 21121 01278 41585 70000 11020 21029 39987 40091 51016 70222 878//
AAXX 21121 01293 16/// /0000 11055 21065 39889 40104 52014 60001 333 91103
AAXX 21121 01329 11375 70402 11003 21021 30070 40132 51010 69921 70222 83130 333 91105
AAXX 21121 01337 16/// /0401 11042 21060 30073 40142 51009 60001 333 91103
AAXX 21121 01344 16/// ///// 11058 21079 60001 333 4/079
AAXX 21121 01364 16/// /0201 11120 21133 38981 40157 50012 60001 333 4/039 91103
AAXX 21121 01373 11989 00000 11131 21144 39932 40142 51018 60001 70120 333 91101
AAXX 21121 01374 41889 30000 11096 21102 70300 83050
AAXX 21121 01380 16/// /0101 11092 21113 6//// 333 4/025 91106
AAXX 21121 01389 11887 43204 11161 21184 39818 40153 51012 60001 70172 83038 333 91107
AAXX 21121 01393 NIL
AAXX 21121 01424 11985 0//// 11061 21073 30133 40136 51012 60001 70210
AAXX 21121 01431 16/// /0000 11123 21143 39450 40157 51014 60001 333 91103
AAXX 21121 01436 41689 13101 10021 21015 70200 81101 222// 00077 333 91107
AAXX 21121 01465 11982 03603 11007 21031 30101 40120 51021 60001 70200 333 91106
AAXX 21121 01471 11889 12903 11056 21083 60001 70210 81040 333 91104
AAXX 21121 01483 NIL
AAXX 21121 01015 NIL
AAXX 21121 01023 41689 70000 11037 21038 39949 40047 52009 70222 81538 333 91101
AAXX 21121 01033 46/// /0201 10033 21032 30003 40034 50004 333 91110
AAXX 21121 01059 16/// /2003 11085 21098 30056 40066 52009 6//// 333 91104
AAXX 21121 01089 41287 32204 11080 21083 39951 40062 51015 70110 81140 333 91109
AAXX 21121 01167 41888 72101 10000 21028 30030 40034 52008 70221 86078 333 91103
AAXX 21121 01180 NIL
AAXX 21121 01210 16/// /1704 10015 21007 30074 40101 50013 6//// 333 91111
AAXX 21121 01228 46/// /2908 10018 21004 30070 40077 53009 333 91120
AAXX 21121 01240 16/// /2408 10018 21001 30051 40071 51015 6//// 333 91115
AAXX 21121 01304 46/// /1608 10032 20008 30079 40111 50005 333 91109
AAXX 21121 01311 46/// /1502 11006 21019 30061 40125 51009 333 91102
AAXX 21121 01340 16/// /0901 11086 21102 39242 40150 51015 60001 333 91103
AAXX 21121 01355 16/// ///// 11025 21059 30137 40142 51012 60001
AAXX 21121 01360 NIL
AAXX 21121 01392 11878 20101 11104 21125 39893 40132 51014 60001 70221 82040 333 91103
AAXX 21121 01406 46/// /1502 10003 21003 30105 40124 51011 333 91104
AAXX 21121 01411 16/// /0403 10009 20002 30101 40127 51015 6//// 333 91106
AAXX 21121 01425 NIL
AAXX 21121 01433 46/// /0000 11079 21118 38840 40139 50014 333 91105
AAXX 21121 01442 11989 00104 11027 21054 39858 40123 51016 69921 70200 333 91107
AAXX 21121 01450 NIL
AAXX 21121 01452 16/// /0702 11039 21055 30097 40119 51018 60001 333 91104
AAXX 21121 01473 16/// /0000 11087 21101 39910 40129 51019 6//// 333 91102
AAXX 21121 01494 11481 53503 11052 21067 30047 40114 52021 60001 70272 84531 333 91106
AAXX 21121 01025 16/// /2402 10009 21009 30028 40039 52006 6//// 333 91103
AAXX 21121 01052 16/// /0601 11033 21047 39952 40052 50004 60001 333 91104
AAXX 21121 01122 16/// /0000 11024 21030 39970 40062 52010 69921 333 91102
AAXX 21121 01132 16/// /3401 11028 21038 39677 40073 52012 69961 333 91103
AAXX 21121 01156 16/// /1605 10031 20003 30023 40033 52008 60001 333 91107
AAXX 21121 01203 46/// /1807 10037 21016 30051 40101 50005 333 91112
AAXX 21121 01233 16/// /2001 11119 21132 60001 333 91104
AAXX 21121 01265 NIL
AAXX 21121 01273 16/// /1401 11065 21077 39904 40108 52014 60001 333 91102
AAXX 21121 01307 46/// /1305 10020 20001 30091 40119 51008 333 91107
AAXX 21121 01321 16/// /1501 11026 21030 39860 40120 51007 69951 333 91105
AAXX 21121 01327 16/// /0000 11034 21062 60001 333 91102
AAXX 21121 01350 16/// /3003 11074 21090 38693 40094 51014 60001 222// 00045 333 91110
AAXX 21121 01361 16/// /0000 11154 21169 39071 40166 51013 60001 333 91104
AAXX 21121 01375 NIL
AAXX 21121 01378 16/// /0302 11115 21141 39825 40135 52017 60001 333 91106
AAXX 21121 01385 16/// /3201 11123 21134 39851 40140 52014 60001 333 91103
AAXX 21121 01412 16/// /0603 10000 21014 30094 40125 51015 60001 333 91105
AAXX 21121 01422 16/// /0801 11016 21025 60001 333 91105
AAXX 21121 01440 NIL
AAXX 21121 01441 NIL
AAXX 21121 01467 NIL
AAXX 21121 01469 NIL
AAXX 21121 01477 16/// /3001 11073 21091 60001 333 4/020 91106
AAXX 21121 01480 16/// /3303 11074 21099 60001 333 91106
AAXX 21121 01484 16/// /3402 11078 21098 39957 40121 52021 69941 333 91106
AAXX 21121 01490 16/// /0201 11040 21075 60001 333 91106
AAXX 21121 01495 16/// /3504 11038 21056 30098 40111 51023 60001 333 91108
AAXX 21121 01121 46/// /1306 10025 21008 30037 40049 52012 333 91108
AAXX 21121 01135 16/// /0501 11024 21028 39908 40063 52011 60001 333 91102
AAXX 21121 01143 16/// /2004 11015 21029 60001 333 91107
AAXX 21121 01150 16/// /0000 11040 21055 69971 333 91103
AAXX 21121 01192 16/// /2802 10001 21041 60001 333 4/006 91104
AAXX 21121 01225 46/// /2305 10029 21002 30078 40083 53014 333 91117
AAXX 21121 01230 16/// /1302 11154 21171 60001 333 4/037 91104
AAXX 21121 01232 16/// /1503 11056 21090 30036 40119 50009 60001 333 4/026 91108
AAXX 21121 01234 16/// /2005 11053 21077 60001 333 91108
AAXX 21121 01253 16/// /0101 11102 21114 60001 333 4/033 91102
AAXX 21121 01254 16/// /1301 11117 21131 60001 333 4/017 91102
AAXX 21121 01257 11584 12304 11051 21071 39933 40100 52014 60001 70100 81130 333 91106
AAXX 21121 01277 NIL
AAXX 21121 01291 16/// /0000 11022 21027 60001 333 4/023 91102
AAXX 21121 01332 16/// /0000 11033 21043 69931 333 91102
AAXX 21121 01366 46/// /3101 11097 21118 38467 40133 52012 333 91103
AAXX 21121 01370 16/// /2901 11085 21114 38998 40216 52012 60001 333 4/027 91107
AAXX 21121 01376 16/// /0301 11060 21095 60001 333 91103
AAXX 21121 01383 46/// /3102 11179 21194 39817 40158 53012 333 91103
AAXX 21121 01386 16/// ///// 11113 21128 60001
AAXX 21121 01416 16/// ///// 11002 2//// 60001
AAXX 21121 01419 16/// /0401 11061 21068 60001 333 91103
AAXX 21121 01430 16/// ///// 11018 21034 60001
AAXX 21121 01434 16/// /1801 11085 21127 39140 40123 51017 69921 333 91106
AAXX 21121 01455 16/// /0301 11031 21044 39802 40121 51019 60001 333 91102
AAXX 21121 01468 16/// /0202 11094 21114 60001 333 91106
AAXX 21121 01470 16/// /0501 11051 21065 39998 40117 51017 60001 333 4/006 91105
AAXX 21121 01476 NIL
AAXX 21121 01481 16/// /3603 11040 21073 30084 40117 51019 60001 333 91106
AAXX 21121 01488 NIL
AAXX 21121 11816 11565 72404 10007 21009 39971 40138 56005 60031 72277 8554/ 333 85628 86357
AAXX 21121 11826 11310 89901 11013 21029 39932 40138 57005 60021 77177 885// 333 88608
AAXX 21121 11903 11223 80000 11046 21050 39750 40146 57009 69931 77172 887// 333 84705 88709
AAXX 21121 11934 11575 79901 11027 21067 39273 42715 57012 69901 70277 8357/ 333 82630 87457
AAXX 21121 11968 12465 52004 11006 21045 39841 40129 57010 60001 82650 333 82715 84360
AAXX 21121 02741 47482 82702 10010 20002 30087 40103 52011 70010 88/// 91139
AAXX 21121 02755 47356 71703 10000 21003 39992 40089 52013 77170 87/// 91139
AAXX 21121 02805 47999 01502 11191 21217 39939 40082 52011 70087 91139
AAXX 21121 02807 47665 72203 11065 21072 39892 40080 771// 82/// 91200
AAXX 21121 02845 47050 71502 11013 21013 39831 40082 52009 76776 87/// 91139
AAXX 21121 02849 47577 71702 11018 21020 39811 40089 52009 72487 87/// 91139
AAXX 21121 02866 47149 81301 11004 21004 39934 40085 52005 77187 88/// 91139
AAXX 21121 02897 47399 82002 11002 21008 39916 40100 700// 88/// 91200
AAXX 21121 02913 47599 11603 10007 21009 30032 40085 700// 81///
AAXX 21121 02917 47580 82104 10003 21024 39991 40115 700// 88/// 91200
AAXX 21121 02924 47478 82001 11004 21008 39905 40105 52013 70084 88/// 91139
AAXX 21121 02926 47667 71702 10004 21001 30088 40101 52009 700// 87/// 91200
AAXX 21121 02939 47473 71602 11007 21012 39928 40125 52004 77787 87/// 91139
AAXX 21121 02944 47570 51502 11010 21013 39960 40110 700// 85/// 91200
AAXX 21121 02963 41157 71902 11004 21010 40109 52008 71081 87300
AAXX 21121 02974 41480 72002 10011 21003 30055 40122 52004 70282 875//
AAXX 21121 02976 46/// /0501 10012 20012 30107 40123 52005 91139
AAXX 21121 02981 47999 12407 10032 20000 30097 40107 52008 70086 81/// 91139
AAXX 21121 02982 46/// /2107 10036 20002 30104 40113 52008 91139
AAXX 21121 02836 NIL
AAXX 21121 02935 NIL
AAXX 21121 02947 NIL
AAXX 21124 89009 41448 83212 11222 36887 58002 77772 8262/ 333 11218 21231 82715 88441
AAXX 21124 78948 12584 50819 10270 20196 30146 40154 60001 70311 82401 333 02205 10298 20242 59003 70072 81826 85079
AAXX 21124 89009 41448 83212 11222 36887 58002 77772 8262/ 333 11218 21231 82715 88441
AAXX 21124 61901 12480 71215 10188 20140 39678 40183 60001 878// 91150 333 59005 82815 87633
AAXX 21124 61902 11582 71413 10259 20172 40146 69901 70282 878// 333 59013 81824 87640
AAXX 21124 88878 46/// /2817 10126 20072 49897 57018
AAXX 21124 88883 46/// /2807 10078 20067 49906 57017
AAXX 21124 88897 46/// /1305 10098 20071 49889 57035
AAXX 21124 03005 12479 71816 10053 20018 39980 40081 58019 60001 8457/ 91150 333 55300 20090 81712 84624 87362
AAXX 21124 03017 17450 /1819 10053 20043 30039 40071 58023 60011 751// 91150 333 55300 20086 86/11 86/20 90710 91126
AAXX 21124 03023 17344 /2320 10101 20101 30067 40072 50003 60011 710// 91150 333 88/07 90710 91126
AAXX 21124 03026 15482 /2110 10104 20100 30029 40047 57006 60051 91150 333 55300 20053 87/10
AAXX 21124 03063 15780 /2007 10046 20037 39811 40089 56011 60031 91150 333 4/003 55300 20242 88/56
AAXX 21124 03066 15589 /2405 10059 20044 30072 40079 57016 60041 91150 333 55300 20123 84/29 86/50
AAXX 21124 03075 17236 /1516 10057 20052 30026 40071 58027 60021 781// 91150 333 87/05 90710 91127
AAXX 21124 03091 17250 /1707 10053 20049 30024 40104 57014 60051 751// 91150 333 55300 20114 87/05
AAXX 21124 03100 17350 /2519 10109 20107 30090 40106 50006 60001 710// 91150 333 55300 20109 87/07 87/50 90710 91125
AAXX 21124 03111 16459 /2617 10105 20097 30122 40134 51005 60001 91150 333 87/14 90710 91125
AAXX 21124 03134 17350 /2511 10105 20100 30046 40118 50003 60011 757// 91150 333 55300 20125 85/08 86/26
AAXX 21124 03136 NIL
AAXX 21124 03162 11205 81706 10068 20065 39850 40138 51003 60021 74465 886// 91150 333 55300 20043 88705
AAXX 21124 03166 15369 /2412 10101 20101 30041 40110 58004 60011 91150 333 55300 20133 87/08 86/22
AAXX 21124 03171 11205 83103 10041 20037 30100 40113 56004 60021 74465 886// 91150 333 55300 20154 86703 88707
AAXX 21124 03204 11370 72514 10112 20098 30149 40169 51016 6///1 70252 875// 91150 333 55300 20190 81706 86618 87645
AAXX 21124 03240 17533 /1706 10057 20056 30097 40125 58004 60011 710// 91150 333 55300 20086 86/24 85/31
AAXX 21124 03257 17150 /1406 10058 20055 30104 40145 51004 69921 710// 91150 333 55300 20188 81/02 86/13 85/56
AAXX 21124 03292 160// /2202 10056 20056 30129 40147 50004 69961 91150 333 86/01 88/22
AAXX 21124 03302 15461 /2617 10113 20107 30175 40187 50017 60001 91150 333 55300 20244 81/11 88/44
AAXX 21124 03354 15364 /1702 10098 20098 30020 40163 51010 60001 91150 333 55300 20136 88/09
AAXX 21124 03377 11440 72305 10074 20074 30073 40158 51011 69921 72065 876// 91150 333 55300 20153 87714
AAXX 21124 03414 15563 /2606 10133 20117 30087 40174 51016 60001 91150 333 55301 20433 84/27 85/50
AAXX 21124 03462 15464 /2711 10108 20108 30075 40163 51013 69921 91150 333 55300 20405 81/18 87/35 86/57
AAXX 21124 03482 11223 82305 10071 20068 30136 40162 51011 69921 75165 887// 91150 333 88703
AAXX 21124 03502 12470 72624 10105 20095 30047 40209 52014 60001 875// 91150 333 55300 20317 81711 87641 90710 91131 98080
AAXX 21124 03535 15474 /2606 10110 20105 30057 40174 51016 60001 91150 333 55300 20186 87/11
AAXX 21124 03590 11017 82605 10066 20066 30055 40166 51012 69941 71065 886// 91150 333 55300 20242 82701 88702
AAXX 21124 03649 11482 72705 10128 20103 30083 40182 51015 69901 70152 868/2 91150 333 55300 2//// 81814 84620 85640 96450
AAXX 21124 03716 15372 /3012 10112 20100 30150 40210 51024 60001 91150 333 55300 20283 81/07 87/10
AAXX 21124 03740 16463 /2409 10111 20111 30020 40196 51021 60001 91150 333 55300 2//// 87/13
AAXX 21124 03746 12370 72913 10113 20101 30044 40197 51020 60001 875// 91150 333 85707 87620
AAXX 21124 03772 15473 /2806 10115 20102 30150 40181 51019 69901 91150 333 55300 20244 87/15 85/21
AAXX 21124 03796 46/// /3108 10085 20084 30025 40168 51016 91150
AAXX 21124 03803 NIL
AAXX 21124 03808 11258 83015 10103 20100 30144 40251 51017 69901 75054 887// 91150 333 55300 20164 88703
AAXX 21124 03809 11220 83217 10105 20105 30154 40247 52016 69901 75152 887// 91150 333 83703 86705 90710 91127 91027
AAXX 21124 03827 15374 /3112 10116 20106 30169 40231 51018 60001 91150 333 88/08
AAXX 21124 03840 17163 /2909 10102 20102 39914 40219 51023 69921 722// 91150 333 88/02
AAXX 21124 03853 15483 /2912 10127 20110 30188 40213 51025 60001 91150 333 55300 20121 88/11
AAXX 21124 03874 46/// /3016 10110 20098 30183 40194 51020 91150
AAXX 21124 03882 17256 /2804 10104 20102 30116 40179 51018 69941 722// 91150 333 55300 20144 82/03 87/10
AAXX 21124 03894 11257 83018 10116 20112 40226 50017 72052 886// 333 83703 87704 90710 91127
AAXX 21124 03917 15469 /2306 10105 20095 30083 40160 50006 69901 91150 333 55300 20068 87/10 86/43
AAXX 21121 78221 11462 20805 10228 20199 30152 40179 52010 60004 70102 82200 333 82818
AAXX 21121 78224 31559 10903 10197 20161 30111 40186 53007 70544 81200 333 20195 81825
AAXX 21121 78229 12559 21001 10194 20169 30126 40201 52010 60002 82461 333 82625
AAXX 21121 78239 11559 30904 10226 20171 30191 40194 52010 60004 70500 83800 333 20225 82820
AAXX 21121 12345 12559 30703 10198 20174 30140 40180 52009 60004 83870 333 83835 84360
AAXX 21121 78243 12859 41003 10178 20166 30071 40194 52007 60004 83099 333 83357
AAXX 21121 78255 12459 40703 10185 20167 30046 40195 54000 60004 83831 333 20174 83838
AAXX 21121 78264 11560 23502 10209 20172 30103 40177 52010 60004 70300 82100 333 20204 82825
AAXX 21121 78265 11558 60706 10212 20180 30082 40182 54000 60004 71141 81220 333 20160 81830 85460
AAXX 21121 78256 NIL
AAXX 21121 78259 11556 40000 10167 20155 30110 40198 54000 60004 70544 84000 333 20166 84830
AAXX 21121 78268 11456 81803 10236 20225 30179 40198 54000 60014 76100 83200 333 83810 88825
AAXX 21124 91356 11466 81007 10272 20241 30072 40079 51003 60131 70282 85272 333 10294 56299 58010 70973 85812 555 92112
BBXX 46072 21121 99517 71722 46/// /2709 10015 21002 40032 54000 91150 22200 00047 11006 20703 3//// 41006 70032 333 91211 555 11093 22098 31130 42613 61149 265089 262102 244092 208045 205037 213037 82612 91130
BBXX 42039 21121 99288 70860 46/// /1611 10233 40153 53004 91150 22200 00228 10806 20806 70029 333 91213 555 11113 22121 31114 41614 61149 159106 159111 160115 158121 157112 158108 81613 91114
BBXX 41040 21121 99145 70530 46/// /0611 10261 20232 40154 53020 91150 22200 00279 10605 20604 3//// 40902 70024 333 91213 555 11112 22118 31103 40313 61149 060104 043096 039101 036099 032107 027102 80412 91108
BBXX 46082 21121 99597 71434 46/// ///// 10053 40052 56030 91150 22200 00064 11010 70052
BBXX 46072 21121 99517 71722 46/// /2709 10015 21002 40032 54000 91150 22200 00047 11006 20703 3//// 41006 70032 333 91211 555 11093 22098 31130 42613 61149 265089 262102 244092 208045 205037 213037 82612 91130
BBXX 46077 21121 99579 71543 46/// /2307 10013 20005 40015 53024 91150 22200 00043 11404 20603 3//// 41403 70021 333 91208 555 11074 22077 31111 42114 61149 233071 234074 218094 212115 209111 213097 82212 91114
BBXX 46035 21121 99571 71778 46/// /2906 1//// 49974 53011 91150 22200 11105 20402 300// 41104 70024 333 91208 555 11062 22066 31118 42809 61149 288062 287067 280071 284069 286073 284069 82808 91102
BBXX 51004 21121 99175 71524 46/// /0803 10225 20201 91150 555 11030 22031
BBXX 51002 21121 99171 71578 46/// /0708 10241 40120 56022 91150 22200 00251 333 91210 555 11087 22092 31059 40711 61149 070082 069083 067088 063087 067090 072089
BBXX 51100 21121 99236 71539 46/// /0810 10217 40183 56011 91150 22200 00233 10905 20804 310// 40904 70025 333 91213 555 11103 22109 31144 40713 61149 075096 073095 074089 071094 067091 068093
BBXX 46026 21121 99378 71228 46/// /0000 10092 40184 52005 91150 22200 00109 11505 20401 330// 41505 70023 333 91201 555 11004 22004 31106 42903 61149 351005 312004 314007 308013 310011 316016
BBXX 46041 21121 99474 71247 46/// /3506 10079 40295 52007 91150 22200 00087 11408 20502 3//// 41407 70038 333 91207 555 11062 22065 31149 43508 61149 353059 345065 347063 345064 349063 349064
AAXX 21124 78073 11565 61305 10218 20189 40209 69901 72581 86800 333 10260 20196 59017 83825 86640 90910
BBXX 44007 21121 99435 70701 46/// /2604 10011 21032 40199 58005 91150 22200 00073 10502 20301 3//// 40501 70008 333 91205 555 11036 22037 31123 42705 61149 258034 269038 274033 273035 277033 277029
AAXX 21124 65338 32558 71804 10326 20210 39920 40105 84202 333 0//00 59015 84826 84076 94919 95839
AAXX 21124 07005 01265 83011 10100 20092 30082 40172 53010 69961 70365 887// 333 69907 87803 90710 91123 93100 555 60005
AAXX 21124 07015 01125 81805 10061 20057 30110 40168 57002 60021 75165 887// 333 69987 87703 90710 91109 93100 555 69925
AAXX 21124 07020 06/// /3114 10128 20114 30196 40223 51016 60001 333 60007 90710 91122 555 60005
AAXX 21124 07027 01475 82817 10123 20110 30126 40207 51018 69901 70152 885// 333 69907 88612 90710 91130 93100 555 60005
AAXX 21124 07037 01370 83113 10107 20105 30001 40184 51013 60021 70154 887// 333 69987 88707 90710 91124 93100 555 60005
AAXX 21124 07070 04243 81806 10060 20051 30068 40180 58010 69981 750// 333 69987 90710 91109 555 69905
AAXX 21124 07110 01260 83112 10114 20108 30145 40261 51014 69901 70252 887// 333 69907 88705 90710 91124 93100 555 60005
AAXX 21124 07117 01540 82814 10116 20110 30177 40248 51011 69901 75365 887// 333 69907 90710 91124 92446 555 69905
AAXX 21124 07130 04363 83014 10118 20112 30183 40235 50016 69921 700// 333 60007 90710 91123 555 60005
AAXX 21124 07139 01230 83010 10117 20101 30031 40205 51017 69961 71065 886// 333 69927 88705 90710 91118 93100 555 60005
AAXX 21124 07149 01156 82505 10084 20084 30071 40181 50000 60031 75165 887// 333 69967 84702 88704 90710 91109 93100 555 69945
AAXX 21124 07168 01362 81607 10063 20053 30045 40190 58009 60021 76166 885// 333 60027 85706 88610 90710 91110 93100 555 69965
AAXX 21124 07181 04368 82210 10025 20018 39781 40203 58007 60021 761// 333 60017 90710 91114 555 69925
AAXX 21124 07190 04366 82006 10035 20023 30019 40207 58007 60021 761// 333 60027 90710 91112 555 69965
AAXX 21124 07207 02565 83215 10126 20107 60001 885// 222// 327// 333 60007 90710 91127 92437 555 60005
AAXX 21124 07222 02460 83010 10129 20111 30209 40241 51013 60001 875// 333 60007 87612 90710 91120 555 60005
AAXX 21124 07240 04386 82912 10120 20107 30072 40207 51008 60021 700// 333 69907 90710 91120 555 69905
AAXX 21124 07255 01125 83007 10092 20089 30000 40201 56006 60041 75065 887// 333 60017 88702 90710 91115 93100 555 69925
AAXX 21124 07280 04265 81908 10033 20027 39934 40215 58014 60031 761// 333 60027 90710 91113 555 69965
AAXX 21124 07299 01460 80903 10031 20013 39878 40215 58011 60011 76162 878// 333 69987 85612 87630 90710 91107 93100 555 69945
AAXX 21124 07314 01660 72917 10132 20116 30225 40253 50005 69901 70162 85240 333 60007 85833 90710 91126 555 60005
AAXX 21124 07335 01240 83012 10116 20111 30080 40225 50007 60011 75065 887// 333 69927 88706 90710 91121 555 60005
AAXX 21124 07434 01012 83012 10096 20093 39742 40223 58004 60061 75065 887// 333 60017 88701 90710 91121 93100 555 69905
AAXX 21124 07460 01480 71902 10073 20056 39810 40204 58024 60021 72162 878// 333 69967 81810 87630 90710 91114 93100 555 69905
AAXX 21124 07471 04556 73005 10040 20031 39230 48815 58012 69961 758// 333 69927 90710 91110 555 69905
AAXX 21124 07481 01360 81303 10044 20026 39930 40226 58017 60031 76162 886// 333 69927 85708 88648 90710 91106 93100 555 60005
AAXX 21124 07510 01356 72911 10132 20121 30198 40263 50002 69941 75065 875// 333 69907 85707 85620 90710 91124 93100 555 69905
AAXX 21124 07535 01117 82808 10106 20104 39918 40232 58015 60051 72865 887// 333 60017 88703 90710 91117 93100 555 69925
AAXX 21124 07558 01206 72406 10058 20057 39373 40221 58016 69941 75865 875// 333 69927 85703 87606 90710 91112 93100 555 69925
AAXX 21124 07577 02584 70309 10073 20032 30122 40213 58014 60001 82871 333 60007 81823 84359 86075 90710 91114 93100 555 60005
AAXX 21124 07591 04/// /1702 10031 21041 39157 4//// 58011 60001 700// 333 60007 90710 91107 555 60005
AAXX 21124 07607 01256 82911 10134 20128 30205 40277 58002 69921 72052 885// 333 69907 85705 85616 87636 90710 91117 555 69905
AAXX 21124 07621 01350 82512 10109 20101 39851 40288 50001 60011 75165 885// 333 69967 86708 86612 90710 91125 93100 555 69925
AAXX 21124 07627 01570 82914 10127 20076 39773 40260 58011 60021 70262 885// 333 69927 88630 90710 91129 93100 555 60005
AAXX 21124 07630 01365 82719 10118 20105 30069 40250 58014 60041 75866 887// 333 69947 87709 90710 91132 93100 555 69925
AAXX 21124 07643 02684 73014 10137 20056 30194 40204 58024 60001 875// 333 60007 87646 90710 91122 555 60005
AAXX 21124 07650 02986 43331 10116 20015 30156 40195 58011 60001 81042 333 60007 81361 84073 90710 91125 93100 555 60005
AAXX 21124 07661 02980 52821 10106 20006 30001 40163 58018 60001 85040 333 60007 85358 90710 91130 555 60005
AAXX 21124 07690 02984 33006 10128 21027 30133 40167 58011 60001 82032 333 60007 82363 90710 91111 93100 555 60005
AAXX 21124 07747 02583 73116 10158 20085 30157 40210 58017 60001 8583/ 333 60007 81820 85640 86361 91029 90710 91136 93100 555 60005
AAXX 21124 07761 02670 22603 10128 20047 30149 40160 58006 60001 81102 333 60007 81833 90710 91104 93100 555 60005
AAXX 21124 07790 02680 52907 10125 20037 30144 40159 58006 60001 82231 333 60007 81833 84358 90710 91117 93100 555 60005
BBXX BATEU04 21124 99583 10055 46/// /3508 10054 20009 40121 51024 22273
BBXX BATEU08 21124 99607 70486 46/// /3308 11041 21075 49932 50006 22273
BBXX BATFR27 21124 99507 70010 46/// /2917 10129 20102 40192 22225 00100
AAXX 21124 91356 11466 81007 10272 20241 30072 40079 51003 60131 70282 85272 333 10294 56299 58010 70973 85812 555 92112
BBXX BATFR01 21124 99348 10260 46/// /2311 10172 20075 40163 56016 22262 00192
AAXX 21124 48601 11560 70409 10275 20241 30076 40080 60001 70522 82552 333 10296 82625 85364 87077
AAXX 21124 48615 11560 70512 10272 20242 30080 40086 60001 70522 83547 333 10284 83620 83364 87272
AAXX 21124 48620 11559 70702 10269 20242 30068 40077 60001 70522 83548 333 10304 83630 83365 87276
AAXX 21124 48647 11458 73502 10292 20260 30053 40078 60001 71322 82942 333 10320 81917 83364 87078
AAXX 21124 48657 11020 83401 10241 20238 30064 40082 60401 76196 85557 333 10264 81700 84624 85464
AAXX 21124 48665 11564 70503 10265 20240 30073 40083 60001 70522 82542 333 10311 82628 84364 86077
AAXX 21124 96413 11540 72606 10241 20236 30057 40084 60541 76366 8547/ 333 10321 85620 87365
AAXX 21124 96421 12468 72802 10272 20247 30039 40074 60001 82531 333 10311 82618 87365
AAXX 21124 96441 12468 72701 10265 20248 30047 40074 60001 8457/ 333 10305 84614 87365
AAXX 21124 96449 11458 73102 10244 20241 30053 40072 60551 79599 8496/ 333 10316 84614 81915 87464
AAXX 21124 96465 11470 70507 10289 20264 30040 40073 69901 70196 84838 333 10325 83810 83364 87279
AAXX 21124 96471 11468 81005 10278 20247 30071 40074 69961 76062 84858 333 10337 82813 83640 85363
AAXX 21124 96481 12462 60203 10275 20255 30064 40083 60001 82841 333 10324 81817 85080
AAXX 21124 96491 12465 70805 10279 20252 30073 40085 60001 82832 333 10306 82816 87080
AAXX 21121 11812 36/// /2907 11006 21006 39422 42732 54000
AAXX 21121 11813 11270 72403 10011 21000 39783 40139 58003 60031 70274 87500 333 82706 87622
AAXX 21121 11816 11565 72404 10007 21009 39971 40138 56005 60031 72277 8554/ 333 85628 86357
AAXX 21121 11819 36/// /0000 11014 21029 39919 40142 57004
AAXX 21121 11826 11310 89901 11013 21029 39932 40138 57005 60021 77177 885// 333 88608
AAXX 21121 11841 11225 80000 11037 21057 39745 40135 57009 69941 77172 887// 333 88706
AAXX 21121 11855 11427 89902 11016 21032 39971 40142 57009 60011 77172 887// 333 88710
AAXX 21121 11856 16/// /1202 11034 21046 39814 40144 57005 69991
AAXX 21121 11858 11540 82402 11001 21008 39986 40142 57009 60011 77077 885// 333 88630
AAXX 21121 11867 11422 80000 11020 21045 39813 40140 58006 60011 77177 885// 333 86714 88625
AAXX 21121 11880 11520 80000 11026 21037 39967 40145 58008 69911 77122 885// 333 88620
AAXX 21121 11900 16/// /0401 11042 21058 39801 40150 57007 69921
AAXX 21121 11903 11223 80000 11046 21050 39750 40146 57009 69931 77172 887// 333 84705 88709
AAXX 21121 11916 11/00 93005 11093 21109 37841 48363 58006 69941 77141 333 89/00 91010 93598 96049
AAXX 21121 11918 11450 82708 11048 21062 39277 42716 58007 69921 77122 885// 333 82710 87623 93504
AAXX 21121 11927 11220 89901 11032 21037 39870 40142 57008 69911 77174 885// 333 81705 83633 88650 93502
AAXX 21121 11930 11/62 73209 11126 21136 37212 47868 58008 69941 77122 83571 333 836// 85430 93560 444 36//0
AAXX 21121 11933 11570 79902 11050 21070 38559 48379 57007 69911 77071 83572 333 83626 85458
AAXX 21121 11934 11575 79901 11027 21067 39273 42715 57012 69901 70277 8357/ 333 82630 87457
AAXX 21121 11938 12665 72204 11064 21086 39029 42714 57009 60001 86542 333 86633
AAXX 21121 11952 16/// /1402 11043 21079 39265 42716 57011 60001
AAXX 21121 11958 36/// /2107 11074 21085 38650 48384 57007
AAXX 21121 11968 12465 52004 11006 21045 39841 40129 57010 60001 82650 333 82715 84360
AAXX 21121 11976 12667 31702 10021 21040 39856 40124 58012 60001 81140 333 81833 83360
AAXX 21121 11978 12775 21102 10022 21023 39993 40126 57011 60001 81130 333 81850
AAXX 21121 11993 12567 39901 10030 21029 39908 40127 58010 60001 82140 333 82827
AAXX 21121 14648 12970 03601 10054 21051 30029 40151 57013 60001
AAXX 21121 14652 12889 10207 11121 21162 37845 48431 53003 60001 81040 333 81356
AAXX 21121 14542 11930 01101 10020 21053 39986 40181 55008 60001 71000 333 95990
AAXX 21121 14528 12970 00000 11031 21041 39866 40176 57014 60001
AAXX 21121 14537 12970 00000 11020 21037 39972 40166 56011 60001
AAXX 21121 14544 12660 73601 11062 21089 39500 40203 58011 60001 87500 333 87643
AAXX 21121 14557 11956 12401 11001 21039 39799 40178 57015 60001 710// 81030 333 81360
AAXX 21121 14640 12670 12501 11025 21050 39295 48433 58007 60001 81500 333 81640
AAXX 21124 91356 11466 81007 10272 20241 30072 40079 51003 60131 70282 85272 333 10294 56299 58010 70973 85812 555 92112
AAXX 21124 91503 31470 30000 10251 20246 40073 51013 70500 81208 333 10315 56900 59011 81816 83280
AAXX 21124 91517 31480 11805 10258 20247 40080 52008 70500 81208 333 10321 56200 59006 81815
AAXX 21123 91802 NIL
AAXX 21123 91809 NIL
AAXX 21123 91831 36/// /1006 10252 20211 40138 58007 333 1////
AAXX 21123 91841 36/// /0708 10249 20209 40121 57020 333 10293
AAXX 21123 91843 31498 31203 10256 20224 10130 58018 60001 70200 83200 333 10302 563// 83818
AAXX 21123 91848 16/// /1205 10233 20224 40099 57039 60021 333 10311
AAXX 21124 91503 31470 30000 10251 20246 40073 51013 70500 81208 333 10315 56900 59011 81816 83280
AAXX 21124 91517 31480 11805 10258 20247 40080 52008 70500 81208 333 10321 56200 59006 81815
BBXX CGDR 21124 99492 71239 46/// /3313 10061 20031 40296 51013 7//// 8//// 22200 0//// 2////
BBXX VOLG 21124 99465 70571 46/// /3024 11014 21064 40174 51052 7//// 8//// 22263 0//// 2////
BBXX CZ9742 21124 99506 70969 46/// /3107 11032 21046 40061 51021 7//// 8//// 22200 0//// 2////
BBXX VAAZ 21124 99537 70523 46/// /3122 11036 21084 40046 51029 7//// 8//// 22281 0//// 2////
BBXX VRYO3 21124 99494 70158 46/// /0920 10136 20148 40281 50000 7//// 8//// 22264 00133 2////
BBXX VCWL 21124 99456 70735 46/// /0102 11061 21086 40151 55005 7//// 8//// 22200 0//// 2////
BBXX CGDX 21124 99490 70669 46/// /2008 11049 21156 40132 56014 7//// 8//// 22200 0//// 2////
BBXX VOKJ 21124 99501 70630 46/// /2211 11063 21096 40130 58014 7//// 8//// 22264 0//// 2////
BBXX VCBW 21124 99488 70643 46/// /2904 11094 21146 40152 55005 7//// 8//// 22241 00026 2////
BBXX VOPP 21124 99456 70735 46/// /3503 11063 21071 4//// 5//// 7//// 8//// 22200 0//// 2////
BBXX VCRG 21124 99463 70623 46/// /2606 11077 21102 40226 51008 7//// 8//// 22200 0//// 2////
BBXX CGUM 21124 99448 70622 46/// /2610 11046 21092 40241 53006 7//// 8//// 22212 0//// 2////
BBXX VOFG 21124 99456 70614 46/// /2506 11077 21102 40233 53022 7//// 8//// 22200 0//// 2////
BBXX CGJK 21124 99484 71234 46/// /0102 10011 20003 40299 53017 7//// 8//// 22200 0//// 2////
BBXX CG2960 21124 99423 70830 46/// /0605 10042 20041 4//// 5//// 7//// 8//// 22200 0//// 2////
BBXX CG2350 21124 99433 70798 46/// /0202 10025 20007 40095 56023 7//// 8//// 22200 0//// 2////
BBXX CGBY 21124 99487 71235 46/// /2704 10036 20017 40300 53018 7//// 8//// 22200 0//// 2////
BBXX CGBN 21124 99447 70636 46/// /2101 11051 21090 40227 51006 7//// 8//// 22200 0//// 2////
BBXX CG2965 21124 99487 71235 46/// /2604 10035 20016 40301 53017 7//// 8//// 22200 0//// 2////
BBXX CGTF 21124 99476 70527 46/// /1711 11023 21053 40121 53043 7//// 8//// 22200 0//// 2////
BBXX CGBR 21124 99526 71285 46/// /2602 10014 20013 40331 51005 7//// 8//// 22200 0//// 2////
BBXX CGDT 21124 99468 70712 46/// /2504 11100 21114 40175 55001 7//// 8//// 22200 0//// 2////
BBXX VAAP 21124 99447 70636 46/// /2405 11055 21082 40231 51004 7//// 8//// 22200 0//// 2////
BBXX VXKF 21124 99475 70592 46/// /2722 11029 21084 40178 52010 7//// 8//// 22214 0//// 2////
BBXX C6SI6 21124 99317 11211 46/// /3411 10069 20030 40281 51011 7//// 8//// 22221 0//// 2////
BBXX CG2958 21124 99517 71281 46/// /0805 10023 20022 40333 51003 7//// 8//// 22200 0//// 2////
BBXX 3FZK3 21124 99493 71303 46/// /0504 10072 20030 40298 58001 7//// 8//// 22233 0//// 2////
AAXX 21124 78905 11478 60912 10253 20174 30149 40172 60002 703// 86201 333 10265 20253 58001 70012 86819
AAXX 21124 78016 31564 72708 10196 20147 30274 40278 52017 71611 87801 333 10191 20182 79999
BBXX VCSZ 21124 99481 70695 46/// /2029 11029 21032 40137 58016 7//// 8//// 22214 0//// 2////
AAXX 21121 01062 11582 62702 11058 21063 30093 40106 58004 60001 70310 84530 333 91107
AAXX 21121 01152 11X40 91404 10013 21013 30031 40047 52011 69901 76872 333 91105
AAXX 21121 01205 46/// /2308 10036 20007 30053 40099 50011 333 91115
AAXX 21121 11423 01/06 92807 11007 21010 39259 42755 52004 60021 77174 333 69935 89/02 91113 93502
AAXX 21121 11487 01364 72807 10011 21001 39513 40147 50003 69961 72687 873// 333 69905 81708 81916 86816 91115
AAXX 21121 11518 01582 72706 10023 21006 39685 40131 52006 69911 72187 875// 333 69905 82625 87650 91111
AAXX 21121 11603 01110 83202 10003 21010 39623 40115 53006 60031 77382 887// 333 69995 85703 88705 91111
AAXX 21121 11659 01460 82906 10006 20005 39470 40120 58003 6///1 70374 885// 333 6///5 88618
AAXX 21121 11723 01550 61202 11011 21035 39822 40129 56004 69931 71072 82530 333 60005 82630 84358
AAXX 21121 11782 01615 82207 11005 21013 39801 40114 57007 69951 77377 885// 333 69915 88635
AAXX 21124 67665 42680 60901 10289 20201 48506 86200 333 59008 86840
BBXX CGDX 21124 99490 70669 46/// /2008 11049 21156 40132 56014 7//// 8//// 22200 0//// 2////
BBXX VOLG 21124 99465 70571 46/// /3024 11014 21064 40174 51052 7//// 8//// 22263 0//// 2////
BBXX CGDR 21124 99492 71239 46/// /3313 10061 20031 40296 51013 7//// 8//// 22200 0//// 2////
BBXX CZ9742 21124 99506 70969 46/// /3107 11032 21046 40061 51021 7//// 8//// 22200 0//// 2////
BBXX VOFG 21124 99456 70614 46/// /2506 11077 21102 40233 53022 7//// 8//// 22200 0//// 2////
BBXX VAAZ 21124 99537 70523 46/// /3122 11036 21084 40046 51029 7//// 8//// 22281 0//// 2////
BBXX CGBN 21124 99447 70636 46/// /2101 11051 21090 40227 51006 7//// 8//// 22200 0//// 2////
BBXX VCBW 21124 99488 70643 46/// /2904 11094 21146 40152 55005 7//// 8//// 22241 00026 2////
BBXX CGJK 21124 99484 71234 46/// /0102 10011 20003 40299 53017 7//// 8//// 22200 0//// 2////
BBXX CGUM 21124 99448 70622 46/// /2610 11046 21092 40241 53006 7//// 8//// 22212 0//// 2////
BBXX VRYO3 21124 99494 70158 46/// /0920 10136 20148 40281 50000 7//// 8//// 22264 00133 2////
BBXX VCRG 21124 99463 70623 46/// /2606 11077 21102 40226 51008 7//// 8//// 22200 0//// 2////
BBXX VOKJ 21124 99501 70630 46/// /2211 11063 21096 40130 58014 7//// 8//// 22264 0//// 2////
BBXX VOPP 21124 99456 70735 46/// /3503 11063 21071 4//// 5//// 7//// 8//// 22200 0//// 2////
BBXX VCWL 21124 99456 70735 46/// /0102 11061 21086 40151 55005 7//// 8//// 22200 0//// 2////
BBXX CG2960 21124 99423 70830 46/// /0605 10042 20041 4//// 5//// 7//// 8//// 22200 0//// 2////
BBXX VAAP 21124 99447 70636 46/// /2405 11055 21082 40231 51004 7//// 8//// 22200 0//// 2////
BBXX CG2965 21124 99487 71235 46/// /2604 10035 20016 40301 53017 7//// 8//// 22200 0//// 2////
BBXX CGBY 21124 99487 71235 46/// /2704 10036 20017 40300 53018 7//// 8//// 22200 0//// 2////
BBXX CGTF 21124 99476 70527 46/// /1711 11023 21053 40121 53043 7//// 8//// 22200 0//// 2////
BBXX CGBR 21124 99526 71285 46/// /2602 10014 20013 40331 51005 7//// 8//// 22200 0//// 2////
BBXX CG2350 21124 99433 70798 46/// /0202 10025 20007 40095 56023 7//// 8//// 22200 0//// 2////
BBXX CG2958 21124 99517 71281 46/// /0805 10023 20022 40333 51003 7//// 8//// 22200 0//// 2////
AAXX 21124 78016 31564 72708 10196 20147 30274 40278 52017 71611 87801 333 10191 20182 79999
AAXX 21124 78905 11478 60912 10253 20174 30149 40172 60002 703// 86201 333 10265 20253 58001 70012 86819
BBXX CGDT 21124 99468 70712 46/// /2504 11100 21114 40175 55001 7//// 8//// 22200 0//// 2////
BBXX VXKF 21124 99475 70592 46/// /2722 11029 21084 40178 52010 7//// 8//// 22214 0//// 2////
BBXX C6SI6 21124 99317 11211 46/// /3411 10069 20030 40281 51011 7//// 8//// 22221 0//// 2////
BBXX 3FZK3 21124 99493 71303 46/// /0504 10072 20030 40298 58001 7//// 8//// 22233 0//// 2////
BBXX VCSZ 21124 99481 70695 46/// /2029 11029 21032 40137 58016 7//// 8//// 22214 0//// 2////
BBXX CGDG 21124 99447 70636 46/// /2206 11055 21027 40240 51005 7//// 8//// 22200 0//// 2////
AAXX 21121 76040 32902 03300 10064 20039 30135 40149 57004 92045 333 10178 20058 30/// 59019 70000 98602
AAXX 21121 76122 32956 00000 11032 21037 38490 40162 5//// 91150 333 10120 21032 30105 55079 59023 70000
AAXX 21121 76220 32920 00000 11074 21074 38095 40184 5//// 91145 333 10142 21074 31100 59010 70000
AAXX 21121 76225 32920 00000 11020 21045 38581 40137 53001 91140 333 10118 21020 31043 59025 70000
AAXX 21121 76305 32970 03401 10125 20068 30136 40144 5//// 91145 333 10218 20118 30100 59001 70000
AAXX 21121 76323 32910 00000 10048 21060 38218 40170 57002 91155 333 10168 20027 30005 59018 70000
AAXX 21121 76342 31840 62001 10088 20056 39479 40202 57001 70310 86050 91147 333 10180 20085 30080 56050 58014 70000 86358
AAXX 21121 76382 32960 01804 10186 20078 38856 40077 57002 91158 333 10264 20125 30165 59015 70000
AAXX 21121 76390 31950 22405 10133 21001 38188 40104 54000 70544 80005 91130 333 10228 20116 30110 56004 59007 70000 82070
AAXX 21121 76402 32950 00000 10077 20065 30089 40147 57006 91145 333 10203 20070 30061 58003 70000
AAXX 21121 76423 32560 42401 10070 21001 38109 40109 57007 83260 91148 333 10230 20060 30/// 56990 59014 70000 83820 81357
AAXX 21121 76458 32460 13302 10140 20101 30129 40134 57003 81100 91143 333 10232 20110 30100 563// 58006 70000 81816
AAXX 21121 76471 32580 22105 10070 20043 37657 40099 5//// 82500 91150 333 10190 20049 30025 55099 56400 59003 70000 82635
AAXX 21121 76499 31956 00000 10151 20114 30117 40139 5//// 70200 91150 333 10270 20150 30148 58039 70000
AAXX 21121 76539 32958 03601 10061 20055 38137 40160 52004 91150 333 10250 20049 30023 58002 70000
AAXX 21121 76543 32675 82701 10192 20132 30126 40159 56/// 885// 91145 333 10312 20190 30/// 563// 58038 70000 88650
AAXX 21121 76548 32760 70502 10188 20122 30140 40150 57003 8705/ 91150 333 10286 20184 30184 5604/ 58040 79999 87356
AAXX 21121 76556 32960 00000 10126 20091 39102 40125 57007 91130 333 10268 20107 30102 58007 70000
AAXX 21121 76577 32960 00000 10084 20071 38024 40136 57004 91140 333 10230 20077 30065 59005 70000
AAXX 21121 76581 32965 40101 10158 20147 39023 40118 5//// 84060 91150 333 10315 20145 30138 56010 58005 70000 84359
AAXX 21121 76593 32964 01203 10210 20209 30138 40140 52001 91150 333 10324 20208 30207 58003 70000
AAXX 21121 76612 32958 00000 10090 20081 38456 40148 57004 91150 333 10269 20085 30075 55093 58000 70000
AAXX 21121 76625 32960 01801 10104 20049 38125 40106 57001 91145 333 10246 20098 30090 58000 70000
AAXX 21121 76634 31970 01402 10092 20077 37835 40155 5//// 70500 91150 333 10239 20070 30045 59001 70000
AAXX 21121 76644 32550 21201 10214 20205 30124 40137 58002 82100 91150 333 10329 20214 30208 563// 58000 70000 82820
AAXX 21121 76654 31956 00403 10219 20188 30124 40128 57002 70544 91152 333 10305 20219 30204 59002 70000
AAXX 21121 76662 32960 00601 10070 20047 38449 40147 57002 91140 333 10270 20048 30038 59003 70000
AAXX 21121 76683 32962 00000 10050 20035 37820 40188 55005 91145 333 10233 20050 30025 50251 55098 21731 58002 70000
AAXX 21121 76685 32950 00000 10078 20045 37856 40136 57012 91156 333 10238 20076 30042 58005 70000
AAXX 21121 76687 32962 02201 10122 20109 38665 40157 53001 91135 333 10270 20116 30104 58024 70000
AAXX 21121 76692 31520 62301 10201 20191 30116 40135 52003 74041 865// 91145 333 10277 20199 30/// 568// 58027 70000 86628
AAXX 21121 76695 32156 21402 10207 20203 30114 40119 52003 82600 91148 333 10326 20205 30195 562// 59001 70000 82701
AAXX 21121 76698 32558 20000 10207 20203 30134 40146 5//// 82200 91150 333 10322 20207 30178 56300 58004 70000 82820
AAXX 21121 76737 32980 03201 10110 20089 38760 40147 55001 91135 333 10293 20110 30093 58025 70000
AAXX 21121 76743 31940 01101 10205 20169 30109 40117 53005 70000 91150 333 10300 20205 30185 56/// 58006 70000
AAXX 21121 76750 32560 13201 10215 20205 30122 40132 5//// 81100 91250 333 10308 20211 30190 56100 59003 70000 81820
AAXX 21121 76773 32940 01701 10076 20060 38413 40137 52004 91148 333 10276 20061 30052 50441 55101 59007 70000
AAXX 21121 76775 31560 20301 10122 20083 38512 40148 52002 70300 82400 91145 333 10296 20118 30/// 56800 59008 70000 82627
AAXX 21121 76805 32960 23201 10224 20221 30107 40111 55005 80008 91150 333 10312 20220 30214 56/// 59008 70000 82262
AAXX 21121 76833 31865 43001 10231 20222 30106 40108 57001 70111 84010 91155 333 10306 20220 30211 56090 59005 70000 84458 92021
AAXX 21121 76840 32920 00000 10204 20192 30052 40108 5//// 91140 333 10350 20170 30/// 55098 59009 70000
AAXX 21121 76843 32965 00000 10196 20172 39478 40117 52008 91140 333 10326 20192 30180 58000 70000
AAXX 21121 76848 32950 03201 10116 20054 38371 40095 58002 91150 333 10272 20109 30063 58004 70000 96722
AAXX 21121 76243 32470 81801 10082 20051 39872 40173 54000 884// 91140 333 10140 20052 30046 563// 58014 70000 88616
AAXX 21121 76311 32920 00000 10054 20048 39858 40142 50001 91148 333 10251 20052 30042 58012 70000
AAXX 21121 76405 32940 00000 10136 20114 30126 40148 52002 91150 333 10242 20125 30119 58003 70000
AAXX 21121 76412 32960 02201 10128 20080 30109 40156 57002 91145 333 10265 20120 30/// 58015 70000
AAXX 21121 76525 32460 21809 10062 20035 37438 40112 57004 81600 91150 333 10161 20058 30024 55089 22713 565// 59001 70000 82711
AAXX 21121 76640 31010 63201 10200 20197 30137 40148 57010 70311 8427/ 91145 333 10276 20196 30192 5699/ 58038 70000 84801
AAXX 21121 76647 32965 00901 10214 20211 30120 40151 50005 91150 333 10320 20208 30198 58002 79999
AAXX 21121 76656 31/00 90000 10098 20092 38495 40149 54000 74544 889// 91150 333 10255 20085 30048 58000 70000
AAXX 21121 76741 31240 33203 10230 20216 30091 40109 52005 70340 83200 91135 333 10315 20200 30196 568// 58016 70000 83806
AAXX 21124 68399 36/// /0506 10359 20165 39975 40079 57020 333 10360 20181 91044 555 91008
AAXX 21124 68383 36/// /0000 10351 20142 39850 48565 57022 333 10356 20184 91000 555 91009
AAXX 21124 68379 36/// /0305 10353 20160 39770 48560 57018 333 10379 20189 91010 555 91009
BBXX 44039 21121 99411 70727 46/// /1805 10094 20068 40199 91145 22200 00093 10201 70003 333 91206
BBXX VOKF 21124 99490 70669 46/// /1908 11052 21161 40127 56017 7//// 8//// 22200 0//// 2////
BBXX CGSB 21124 99488 70676 46/// /1812 11091 21143 40139 56011 7//// 8//// 22200 0//// 2////
BBXX VCLM 21124 99484 70693 46/// /2230 11029 21057 40112 56016 7//// 8//// 22253 00015 2////
BBXX CGDG 21124 99447 70636 46/// /2206 11055 21027 40240 51005 7//// 8//// 22200 0//// 2////
AAXX 21121 76040 32902 03300 10064 20039 30135 40149 57004 92045 33310178 20058 30/// 59019 70000 98602
AAXX 21121 76122 32956 00000 11032 21037 38490 40162 5//// 91150 33310120 21032 30105 55079 59023 70000
AAXX 21121 76220 32920 00000 11074 21074 38095 40184 5//// 91145 33310142 21074 31100 59010 70000
AAXX 21121 76225 32920 00000 11020 21045 38581 40137 53001 91140 33310118 21020 31043 59025 70000
AAXX 21121 76305 32970 03401 10125 20068 30136 40144 5//// 91145 33310218 20118 30100 59001 70000
AAXX 21121 76323 32910 00000 10048 21060 38218 40170 57002 91155 33310168 20027 30005 59018 70000
AAXX 21121 76342 31840 62001 10088 20056 39479 40202 57001 70310 8605091147 333 10180 20085 30080 56050 58014 70000 86358
AAXX 21121 76382 32960 01804 10186 20078 38856 40077 57002 91158 33310264 20125 30165 59015 70000
AAXX 21121 76390 31950 22405 10133 21001 38188 40104 54000 70544 8000591130 333 10228 20116 30110 56004 59007 70000 82070
AAXX 21121 76402 32950 00000 10077 20065 30089 40147 57006 91145 33310203 20070 30061 58003 70000
AAXX 21121 76423 32560 42401 10070 21001 38109 40109 57007 83260 91148333 10230 20060 30/// 56990 59014 70000 83820 81357
AAXX 21121 76458 32460 13302 10140 20101 30129 40134 57003 81100 91143333 10232 20110 30100 563// 58006 70000 81816
AAXX 21121 76471 32580 22105 10070 20043 37657 40099 5//// 82500 91150333 10190 20049 30025 55099 56400 59003 70000 82635
AAXX 21121 76499 31956 00000 10151 20114 30117 40139 5//// 70200 91150333 10270 20150 30148 58039 70000
AAXX 21121 76539 32958 03601 10061 20055 38137 40160 52004 91150 33310250 20049 30023 58002 70000
AAXX 21121 76543 32675 82701 10192 20132 30126 40159 56/// 885// 91145333 10312 20190 30/// 563// 58038 70000 88650
AAXX 21121 76548 32760 70502 10188 20122 30140 40150 57003 8705/ 91150333 10286 20184 30184 5604/ 58040 79999 87356
AAXX 21121 76556 32960 00000 10126 20091 39102 40125 57007 91130 33310268 20107 30102 58007 70000
AAXX 21121 76577 32960 00000 10084 20071 38024 40136 57004 91140 33310230 20077 30065 59005 70000
AAXX 21121 76581 32965 40101 10158 20147 39023 40118 5//// 84060 91150333 10315 20145 30138 56010 58005 70000 84359
AAXX 21121 76593 32964 01203 10210 20209 30138 40140 52001 91150 33310324 20208 30207 58003 70000
AAXX 21121 76612 32958 00000 10090 20081 38456 40148 57004 91150 33310269 20085 30075 55093 58000 70000
AAXX 21121 76625 32960 01801 10104 20049 38125 40106 57001 91145 33310246 20098 30090 58000 70000
AAXX 21121 76634 31970 01402 10092 20077 37835 40155 5//// 70500 91150333 10239 20070 30045 59001 70000
AAXX 21121 76644 32550 21201 10214 20205 30124 40137 58002 82100 91150333 10329 20214 30208 563// 58000 70000 82820
AAXX 21121 76654 31956 00403 10219 20188 30124 40128 57002 70544 91152333 10305 20219 30204 59002 70000
AAXX 21121 76662 32960 00601 10070 20047 38449 40147 57002 91140 33310270 20048 30038 59003 70000
AAXX 21121 76683 32962 00000 10050 20035 37820 40188 55005 91145 33310233 20050 30025 50251 55098 21731 58002 70000
AAXX 21121 76685 32950 00000 10078 20045 37856 40136 57012 91156 33310238 20076 30042 58005 70000
AAXX 21121 76687 32962 02201 10122 20109 38665 40157 53001 91135 33310270 20116 30104 58024 70000
AAXX 21121 76692 31520 62301 10201 20191 30116 40135 52003 74041 865//91145 333 10277 20199 30/// 568// 58027 70000 86628
AAXX 21121 76695 32156 21402 10207 20203 30114 40119 52003 82600 91148333 10326 20205 30195 562// 59001 70000 82701
AAXX 21121 76698 32558 20000 10207 20203 30134 40146 5//// 82200 91150333 10322 20207 30178 56300 58004 70000 82820
AAXX 21121 76737 32980 03201 10110 20089 38760 40147 55001 91135 33310293 20110 30093 58025 70000
AAXX 21121 76743 31940 01101 10205 20169 30109 40117 53005 70000 91150333 10300 20205 30185 56/// 58006 70000
AAXX 21121 76750 32560 13201 10215 20205 30122 40132 5//// 81100 91250333 10308 20211 30190 56100 59003 70000 81820
AAXX 21121 76773 32940 01701 10076 20060 38413 40137 52004 91148 33310276 20061 30052 50441 55101 59007 70000
AAXX 21121 76775 31560 20301 10122 20083 38512 40148 52002 70300 8240091145 333 10296 20118 30/// 56800 59008 70000 82627
AAXX 21121 76805 32960 23201 10224 20221 30107 40111 55005 80008 91150333 10312 20220 30214 56/// 59008 70000 82262
AAXX 21121 76833 31865 43001 10231 20222 30106 40108 57001 70111 8401091155 333 10306 20220 30211 56090 59005 70000 84458 92021
AAXX 21121 76840 32920 00000 10204 20192 30052 40108 5//// 91140 33310350 20170 30/// 55098 59009 70000
AAXX 21121 76843 32965 00000 10196 20172 39478 40117 52008 91140 33310326 20192 30180 58000 70000
AAXX 21121 76848 32950 03201 10116 20054 38371 40095 58002 91150 33310272 20109 30063 58004 70000 96722
AAXX 21121 76243 32470 81801 10082 20051 39872 40173 54000 884// 91140333 10140 20052 30046 563// 58014 70000 88616
AAXX 21121 76311 32920 00000 10054 20048 39858 40142 50001 91148 33310251 20052 30042 58012 70000
AAXX 21121 76405 32940 00000 10136 20114 30126 40148 52002 91150 33310242 20125 30119 58003 70000
AAXX 21121 76412 32960 02201 10128 20080 30109 40156 57002 91145 33310265 20120 30/// 58015 70000
AAXX 21121 76525 32460 21809 10062 20035 37438 40112 57004 81600 91150333 10161 20058 30024 55089 22713 565// 59001 70000 82711
AAXX 21121 76640 31010 63201 10200 20197 30137 40148 57010 70311 8427/91145 333 10276 20196 30192 5699/ 58038 70000 84801
AAXX 21121 76647 32965 00901 10214 20211 30120 40151 50005 91150 33310320 20208 30198 58002 79999
AAXX 21121 76656 31/00 90000 10098 20092 38495 40149 54000 74544 889//91150 333 10255 20085 30048 58000 70000
AAXX 21121 76741 31240 33203 10230 20216 30091 40109 52005 70340 8320091135 333 10315 20200 30196 568// 58016 70000 83806
BBXX CGSB 21124 99488 70676 46/// /1812 11091 21143 40139 56011 7//// 8//// 22200 0//// 2////
BBXX VOKF 21124 99490 70669 46/// /1908 11052 21161 40127 56017 7//// 8//// 22200 0//// 2////
BBXX VCLM 21124 99484 70693 46/// /2230 11029 21057 40112 56016 7//// 8//// 22253 00015 2////
AAXX 21124 60135 32958 30406 10167 20041 40293 56006 80002 333 83070
AAXX 21124 60155 32965 106// 10166 20083 40288 58003 80002 333 81070
AAXX 21124 60096 NIL
AAXX 21124 60101 NIL
AAXX 21124 60115 NIL
AAXX 21124 60150 NIL
AAXX 21124 60156 NIL
AAXX 21124 60230 NIL
AAXX 21124 60252 NIL
AAXX 21124 60060 32960 03003 10183 20079 40278 50010
AAXX 21124 60105 32956 31405 10150 20104 40296 50007 80002 333 83070
AAXX 21124 60127 32965 22704 10152 20072 39688 40285 58005 80002 333 82073
AAXX 21124 60141 32960 20000 10155 20062 39621 40286 56005 80002 333 82073
AAXX 21124 60185 32970 00809 10165 20070 40292 58002
AAXX 21124 60190 32975 10202 10168 20043 40275 50004 80002 333 81071
AAXX 21124 60191 32970 02802 10175 20078 40281 53012
AAXX 21124 60220 32960 03606 10160 20102 40289 50018
AAXX 21124 60265 32970 00000 10123 21028 38982 48601 58008
AAXX 21124 60106 NIL
AAXX 21124 60107 NIL
AAXX 21124 60195 NIL
AAXX 21124 60210 NIL
AAXX 21124 60318 NIL
AAXX 21124 60285 32960 01202 10205 20023 40275 50007
AAXX 21124 60340 32965 21406 10160 20038 40282 50000 80002 333 82070
AAXX 21124 81401 06/// /1008 10274 20230 30118 40124 60254 333 20231 60027 59007 555 60005
AAXX 21124 81408 06/// /3602 10272 20234 30116 40124 69944 333 20232 60007 59006 555 60005
AAXX 21124 78958 01565 50705 10285 20225 30133 40143 60001 71522 84841 333 10303 20249 59007 79999 84820
AAXX 21124 78958 01565 50705 10285 20225 30133 40143 60001 71522 84841 333 10303 20249 59007 79999 84820
AAXX 21124 78958 01565 50705 10285 20225 30133 40143 60001 71522 84841 333 10303 20249 59007 79999 84820
AAXX 21121 37682 31996 30000 11060 21068 38164 48550 57004 72841 83040
AAXX 21121 37717 32599 20000 10019 21066 38097 48529 57012 81530 555 1/102
AAXX 21121 37788 41496 62301 11026 21056 39282 40326 57012 71022 866// 333 86713
AAXX 21124 16450 11/00 92108 10030 20030 38921 48392 57023 60011 76064 333 89/00
AAXX 21124 16008 12562 80105 11026 21083 38494 48455 58002 60001 887// 333 88720 92810
AAXX 21124 16084 12970 71404 10034 21058 39994 40165 58012 60001 81036 333 55309 81360
AAXX 21124 16088 11858 42405 10026 21005 30047 40168 58011 60001 71010 83031 333 83358
AAXX 21124 16110 12998 63204 10082 21019 30152 40156 58006 60001 83051 333 55310 83360 555 0100/
AAXX 21124 16134 12684 53012 11046 21127 37765 48456 51006 60001 85030 333 55303 85340 92845
AAXX 21124 16153 12999 32008 10126 21017 39893 40156 50003 60001 80001 333 55310 555 0213/
AAXX 21124 16158 12762 41307 10070 20000 30156 40164 57011 60001 84035 333 55310 82356
AAXX 21124 16206 12984 33305 10096 21030 30152 40161 50000 60001 80001
AAXX 21124 16219 42970 00334 11058 21090 38038 48435 52010 6///1 333 55310
AAXX 21124 16252 12562 73305 10008 21037 39183 42749 58002 60001 86550 333 55301 86620 87340 95061
AAXX 21124 16280 12998 00207 10108 21026 39900 40121 58002 60001 333 55310 555 0321/
AAXX 21124 16310 12597 60515 10078 21067 39849 40072 58002 60001 83530 333 55302 83625 83357 555 0322/
AAXX 21124 16320 12460 80209 10092 20036 30118 40130 58007 60001 8582/ 333 55300 81815 85635 85456 555 0218/
AAXX 21124 16325 12498 83612 10088 20042 30090 40104 58023 60001 8681/ 333 82812 85630 88458 98075 555 0100/
AAXX 21124 16360 11496 80420 10072 20068 39963 40099 58022 60111 76162 8522/ 333 55300 85816 86550 555 0311/
AAXX 21124 16400 11497 53520 10112 20026 39807 40096 52027 60071 70162 83130 333 55305 83815 83358 555 0768/
AAXX 21124 16420 11498 72506 10122 20082 39970 40035 56009 69901 72122 85520 333 55300 85618 87458 90910 96260 555 0200/
AAXX 21124 16429 11568 53620 10120 20033 30097 40108 51016 69981 70266 85800 333 55310 83822
AAXX 21124 16470 NIL
AAXX 21124 16480 11496 63014 10114 20069 39959 40020 57032 60161 71096 85830 333 55305 83812 84615 91031 555 0426/
AAXX 21124 16522 12498 43508 10124 20085 39924 40168 50003 60001 84200 333 55310 84818 555 0300/
AAXX 21124 16539 12598 53408 10130 20104 30054 40168 50003 60001 82201 333 82820 555 0499/
AAXX 21124 16550 12698 30213 10130 20039 39950 40129 51007 60001 83800 333 55310 81835 555 0311/
AAXX 21124 16021 12989 43012 11048 21132 37924 48452 50000 60001 80001 333 92842
AAXX 21124 16022 12888 50203 11052 21145 37796 48446 50001 60001 82039 333 55307 82358 92835
AAXX 21124 16033 12875 52903 11044 21080 38755 48458 50001 60001 85020 333 85457 92822
AAXX 21124 16040 12965 02401 11020 21042 39225 42757 58006 60001 333 92832
AAXX 21124 16052 11/01 90532 11146 21167 36558 47992 51001 69901 77074 333 55300 89/01 93199 96045
AAXX 21124 16061 12984 21905 10078 21053 39317 42769 58008 60001 80001 333 55310
AAXX 21124 16098 12970 32403 10044 21034 30116 40169 58005 60001 80001
AAXX 21124 16138 11958 52202 10036 21034 30158 40170 58006 60001 71011 85030 333 85359
AAXX 21124 16148 12970 22906 10066 21048 30155 40167 58011 60001 82030 333 55310 82360
AAXX 21124 16168 12980 33612 10038 21089 39390 42753 51008 60001 80001
AAXX 21124 16172 12966 22402 10070 21086 39866 40168 56001 60001 80001
AAXX 21124 16179 12982 02606 10018 21144 39470 42763 54000 60001 333 92842
AAXX 21124 16224 12970 10109 10078 21040 39812 40132 50008 60001 80001 333 55310
AAXX 21124 16232 11598 62822 10074 20044 30087 40141 51007 69921 75052 85830 333 55303 82825 83626 555 0327/
AAXX 21124 16245 12980 00108 10106 21038 30106 40132 52003 60001
AAXX 21124 16253 12865 30811 10110 21011 30115 40127 58004 60001 83030 333 55310 83358
AAXX 21124 16258 12865 33415 10000 21052 39120 42734 58002 60001 83030 333 83358
AAXX 21124 16263 12170 50110 10000 21022 38852 48416 58001 60001 84202 333 84803 92852
AAXX 21124 16294 12998 00512 10094 20018 39920 40114 51009 60001 555 0321/
AAXX 21124 16337 NIL
AAXX 21124 16344 11/00 90825 11030 21030 38184 48377 58006 69921 74574 333 55300 89/00 95090 95190
AAXX 21124 16434 NIL
AAXX 21124 16450 NIL
AAXX 21124 16459 NIL
AAXX 21124 16546 12575 23211 10136 20050 30129 40158 50002 60001 82201 333 82825
AAXX 21124 16564 12598 22718 10150 20068 30005 40145 50000 60001 82200 333 82822 555 0400/
AAXX 21124 71805 02684 72918 11024 21079 30162 40171 51030 60001 875// 333 42998 60007 87633 91030 90710 91133 93100 555 60005
BBXX DBLK 21121 99705 50081 41499 32408 11029 21055 49764 57009 70210 82841 22200 05016 ICE 18780
AAXX 21124 16045 12965 33001 10050 21015 30095 40161 58006 60001 83001
AAXX 21124 16090 12960 31803 10068 21029 30081 40164 57014 60001 83001 333 55310
AAXX 21124 16149 12970 03008 10067 21084 30152 40168 58009 60001
AAXX 21124 16261 12570 42617 10082 20037 30059 40132 58011 60001 82501 333 55310 82630
AAXX 21124 16453 11497 63517 10130 20054 39965 40042 55015 60021 76062 84870 333 55300 83819 84620 85358 91033 555 0435/
AAXX 21124 16560 NIL
AAXX 21124 89642 41570 13030 11013 21030 39812 49865 53006 73633 81100 333 03049 10003 21013 81820
AAXX 21124 48300 32962 10903 10211 20159 39802 40118 52009 80001 333 10266 58004
AAXX 21124 48327 32960 10000 10217 20170 39772 40131 52009 80002 333 10297 59005
AAXX 21124 48331 32962 20000 10217 20159 39895 40128 52012 80001 333 10300 58003
AAXX 21124 48353 31957 10000 10230 20164 39835 40127 52013 71000 80001 333 10293 59003
AAXX 21124 48356 31958 61202 10240 20172 39937 40135 53016 71011 86050 333 10286 58002
AAXX 21124 48375 32960 00000 10254 20193 39876 40101 52017 333 10310 58001
AAXX 21124 48378 31556 20000 10244 20180 30069 40122 52014 71000 81505 333 10292 58006
AAXX 21124 48381 32560 20303 10248 20174 39908 40126 52013 81535 333 10292 59002
AAXX 21124 48407 31959 60504 10250 20173 39974 40115 52014 70522 81041 333 10301 58001
AAXX 21124 48431 32960 80601 10268 20180 39905 40117 52002 87036 333 10293 59003
AAXX 21124 48456 NIL
AAXX 21124 48480 31957 30000 10268 20202 30091 40096 52014 71011 81045 333 10298 58000
AAXX 21124 48500 31556 33410 10270 20193 30089 40096 52009 70521 81245 333 10302 59001
AAXX 21124 48551 11550 80203 10257 20232 30083 40091 52010 60022 71062 82867 333 10270 59003 70015
AAXX 21124 48565 31459 60703 10270 20243 30064 40074 52012 71022 82247 333 10311 59008
AAXX 21124 48569 01458 70000 10247 20228 30053 40094 52018 60102 71062 83876 333 10274 58003 60047 70156
AAXX 21124 48583 31458 80612 10269 20240 30078 40083 52011 71022 82876 333 10284 59002 70384
AAXX 21121 01281 16/// /0000 11023 21033 39901 40080 52014 69951 333 91100
AAXX 21121 01447 16/// /0000 11116 21125 39439 40148 51019 60001 333 91103
AAXX 21124 13600 12662 63206 10068 20031 30092 40145 57013 60001 82530 333 82640 84360
AAXX 21124 13610 11657 70000 10028 21018 39743 40177 52010 60001 71022 87500 333 87633
AAXX 21124 13611 12662 63604 10112 20089 30038 40128 54001 60001 86500 333 86633
AAXX 21124 13619 11/10 90000 11004 21004 39371 42761 54002 60001 74542
AAXX 21124 13622 12665 80412 10066 20005 30105 40113 57018 60001 885// 333 88636
AAXX 21124 13624 12970 81412 10068 20009 30084 40123 57017 60001 8802/ 333 88460
AAXX 21124 13625 11660 80000 10045 20008 39919 40155 54000 69901 75062 885// 333 88633
AAXX 21124 13629 12966 71402 10014 21047 39069 42730 54001 60001 87020 333 87460
AAXX 21124 13601 NIL
AAXX 21124 13602 NIL
AAXX 21124 13623 12970 60402 10068 20035 30117 40123 57029 60001 83053 333 83360
AAXX 21124 48310 32960 00000 10191 20166 39677 40140 52014 333 10277 59002
AAXX 21124 48325 31958 20000 10211 20179 39867 40113 52015 71000 80005 333 10313 59002
AAXX 21124 48329 31950 20000 10228 20166 39787 40128 52009 71000 80001 333 10286 58006
AAXX 21124 48352 31956 00000 10240 20176 39925 40127 52011 71000 333 10300 59009
AAXX 21124 48357 31959 20703 10235 20165 39968 40138 52016 71000 81031 333 10292 58002
AAXX 21124 48380 32960 00000 10251 20195 30025 40119 52011 333 10306 59003
AAXX 21124 48383 31957 60805 10237 20169 39969 40130 52017 71022 86030 333 10284 58000
AAXX 21124 48403 31956 00000 10262 20180 39904 40114 52015 70500 333 10295 59012
AAXX 21124 48405 31558 70303 10250 20187 39955 40118 52012 71022 84536 333 10280 59008
AAXX 21124 48420 31957 80000 10280 20204 30095 40099 52007 70522 84036 333 10312 59003
AAXX 21124 48421 31957 00000 10256 20217 39992 40106 52014 71000 333 10334 58000
AAXX 21124 48425 31956 60000 10266 20191 30102 40112 52009 70522 84056 333 10298 58000
AAXX 21124 48426 31958 60000 10285 20176 30092 40105 52003 70522 80006 333 10315 59005
AAXX 21124 48429 31958 43307 10295 20160 30096 40103 52009 70511 82045 333 10308 59004
AAXX 21124 48430 31959 60000 10290 20180 30091 40098 52005 70522 84056 333 10330 59007
AAXX 21124 48450 31956 00000 10270 20169 30075 40108 52011 70500 333 10315 59001
AAXX 21124 48459 NIL
AAXX 21124 48465 31558 70110 10273 20194 30102 40106 52013 70522 82556 333 10303 58004
AAXX 21124 48550 31558 60405 10268 20231 30085 40092 52013 71022 81146 333 10294 58001 70136
AAXX 21124 48552 01456 80000 10250 20241 30085 40092 52012 60102 72162 85777 333 10283 58000 60047 70102
AAXX 21124 48566 NIL
AAXX 21124 48568 01459 60509 10280 20236 30081 40088 52014 60252 71062 83876 333 10283 58000 69937 70259
AAXX 21124 48302 31958 21103 10150 20106 38481 40121 52004 71000 80005 333 10192 59006
AAXX 21124 48304 32965 00000 10197 20169 39670 40137 52009 333 10263 59003
AAXX 21124 48334 31958 00000 10213 20167 39759 40125 52011 71000 333 10285 59001
AAXX 21124 48360 31958 00000 10226 20176 39866 40129 52014 71000 333 10282 59001
AAXX 21124 48372 31958 23003 10248 20212 30056 40114 52003 71000 80005 333 10294 59007
AAXX 21124 48373 NIL
AAXX 21124 48386 NIL
AAXX 21124 48387 NIL
AAXX 21124 48408 32960 60306 10242 20180 39966 40116 52013 82046 333 10296 58002
AAXX 21124 48415 31557 70202 10280 20177 30097 40108 52010 70522 82556 333 10318 59007
AAXX 21124 48433 NIL
AAXX 21124 48437 32960 30501 10237 20198 39909 40120 52009 80001 333 10292 59005
AAXX 21124 48440 NIL
AAXX 21124 48451 32960 00000 10247 20207 30102 40113 52005 333 10288 58000
AAXX 21124 48454 32960 60203 10294 20185 30094 40101 52009 85056 333 10317 59002
AAXX 21124 48457 31920 60000 10290 20199 30083 40100 52005 70522 80006 333 10292 59002
AAXX 21124 48463 31540 63607 10270 20201 30023 40117 53012 71022 83146 333 10310 58002
AAXX 21124 48464 NIL
AAXX 21124 48479 31556 80303 10285 20193 30051 40103 52013 70522 83506 333 10318 58002
AAXX 21124 48520 31957 40000 10258 20208 30075 40090 50007 71011 80005 333 10300 58000
AAXX 21124 48554 11458 80000 10257 20253 30086 40090 52010 60082 71062 84877 333 10272 59004 70082
AAXX 21124 48563 31559 60404 10254 20232 30045 40080 52005 71022 82246 333 10308 59001
AAXX 21124 48571 01459 80705 10257 20233 30076 40087 52005 60222 76022 83278 333 10290 59005 60197 70310
AAXX 21121 89061 179// 01202 10014 20010 39931 49938 57002 69952 73077 333 10022 20006 91002 91103
AAXX 21124 78858 11472 70416 10248 20213 30122 40178 69922 7258/ 85402 333 10280 20225 59001 85819 85078
AAXX 21124 78982 01465 70817 10240 20229 30127 40132 52018 60021 72588 8438 333 10295 20240 59008 60017 70076 84815 84358 85281
AAXX 21124 48307 31958 00000 10198 20165 39752 40138 52014 71000 333 10297 58001
AAXX 21124 48324 31958 10404 10237 20171 39897 40117 52004 71000 80005 333 10299 59006
AAXX 21124 48333 32960 10000 10220 20162 39826 40131 52012 80001 333 10290 59001
AAXX 21124 48350 32960 02702 10209 20161 39824 40128 52013 333 10289 59011
AAXX 21124 48355 31956 30000 10230 20182 39911 40132 50012 71011 80006 333 10290 58000
AAXX 21124 48358 32560 70903 10225 20168 39962 40140 51011 82536 333 10280 58007
AAXX 21124 48384 NIL
AAXX 21124 48401 31557 20505 10262 20196 30011 40118 52011 71000 81545 333 10311 59003
AAXX 21124 48404 31557 60000 10250 20187 39942 40121 51013 71022 82536 333 10288 59001
AAXX 21124 48409 32960 30000 10250 20202 39970 40118 52015 82041 333 10285 58004
AAXX 21124 48419 31558 50304 10280 20177 30101 40109 52010 70511 82806 333 10308 58004
AAXX 21124 48427 32561 80302 10252 20193 30101 40108 52008 82132 333 10295 59001
AAXX 21124 48435 31558 81006 10246 20163 39676 40113 53008 70521 885// 333 10280 59007
AAXX 21124 48453 32960 50403 10290 20182 30097 40100 52009 82036 333 10324 59001
AAXX 21124 48458 32960 10000 10274 20201 30037 40117 52010 80001 333 10320 59003
AAXX 21124 48474 31958 80000 10273 20175 39978 40101 52012 70522 80007 333 10317 59003
AAXX 21124 48481 31958 23402 10270 20186 30070 40098 52014 70500 80001 333 10299 59004
AAXX 21124 48555 11550 60000 10250 20241 30072 40114 51005 60082 71022 83545 333 10276 59004 70080
AAXX 21124 48556 32560 80000 10253 20240 30073 40089 52009 84877 333 10287 58000
AAXX 21124 48557 01560 60000 10250 20235 30070 40105 52022 69992 72162 84806 333 10310 58013 69996 70009
AAXX 21124 48560 31457 80000 10260 20243 30087 40092 51013 71022 82876 333 10275 58003 70054
AAXX 21124 48574 01460 80000 10245 20239 30058 40087 52015 60062 76062 8687/ 333 10278 58002 69997 70057
AAXX 21124 48581 01540 70000 10252 20245 30048 40090 52012 60112 71062 83576 333 10273 59002 60017 70147
AAXX 21124 17600 12570 42910 10191 20101 30172 40181 58010 60001 83880 333 83825 92438
AAXX 21124 17601 12682 22712 10183 20091 30141 40172 56012 60001 82832 91150 333 81830
AAXX 21124 17607 42580 62704 10185 20101 39983 40173 56012 85880 333 82825 84640
AAXX 21124 17609 11575 52006 10195 20125 30171 40175 58011 60001 71511 83460 333 83825 97018
AAXX 21124 61968 16/// /2704 10298 20237 40091 60021 333 58004 90710 91112 555 60005
AAXX 21124 61980 12560 40809 10282 20227 40125 60141 82833 333 58024 81820 83363 90710 91114 92427 555 60005
AAXX 21124 67005 11575 51905 10296 20226 40094 60031 72522 82872 333 58001 82822 85360 90710 91108 555 69925
AAXX 21121 89061 179// 01202 10014 20010 39931 49938 57002 69952 73077 333 10022 20006 91002 91103
AAXX 21124 48601 11560 70409 10275 20241 30076 40080 60001 70522 82552 333 10296 82625 85364 87077
AAXX 21124 48615 11560 70512 10272 20242 30080 40086 60001 70522 83547 333 10284 83620 83364 87272
AAXX 21124 48620 11559 70702 10269 20242 30068 40077 60001 70522 83548 333 10304 83630 83365 87276
AAXX 21124 48647 11458 73502 10292 20260 30053 40078 60001 71322 82942 333 10320 81917 83364 87078
AAXX 21124 48650 11460 72804 10264 20251 30057 40075 69901 71396 82948 333 10312 81917 84364 86277
AAXX 21124 48657 11020 83401 10241 20238 30064 40082 60401 76196 85557 333 10264 81700 84624 85464
AAXX 21124 48665 11564 70503 10265 20240 30073 40083 60001 70522 82542 333 10311 82628 84364 86077
AAXX 21124 96413 11540 72606 10241 20236 30057 40084 60541 76366 8547/ 333 10321 85620 87365
AAXX 21124 96421 12468 72802 10272 20247 30039 40074 60001 82531 333 10311 82618 87365
AAXX 21124 96441 12468 72701 10265 20248 30047 40074 60001 8457/ 333 10305 84614 87365
AAXX 21124 96449 11458 73102 10244 20241 30053 40072 60551 79599 8496/ 333 10316 84614 81915 87464
AAXX 21124 96465 11470 70507 10289 20264 30040 40073 69901 70196 84838 333 10325 83810 83364 87279
AAXX 21124 96471 11468 81005 10278 20247 30071 40074 69961 76062 84858 333 10337 82813 83640 85363
AAXX 21124 96481 12462 60203 10275 20255 30064 40083 60001 82841 333 10324 81817 85080
AAXX 21124 96491 12465 70805 10279 20252 30073 40085 60001 82832 333 10306 82816 87080
AAXX 21121 06201 47571 82704 10072 20059 30101 40154 50006 70285 8//// 333 83/23 84/26 86/32 91005 91106 91205
AAXX 21121 06203 47029 8//03 10072 20060 30113 40164 50007 75286 8//// 333 81/00 83/02 85/04 91003 91105 91204
AAXX 21121 06204 45382 83003 10078 20059 30108 40159 51009 8//// 333 82/07 84/08 87/36 91007 91108 91206
AAXX 21121 06205 47981 82902 10071 20035 30088 40148 51009 70385 8//// 333 88/63 91002 91107 91206
AAXX 21121 06208 45680 62904 10067 20040 30103 40153 51009 8//// 333 84/43 86/50 91005 91108 91206
AAXX 21121 06211 47382 72705 10077 20056 30099 40155 50008 701// 8//// 333 82/07 83/09 85/33 91005 91107 91205
AAXX 21121 06212 45483 82805 1//// 2//// 30095 40159 50006 8//// 333 84/12 85/15 88/20 91006 91108 91207
AAXX 21121 06235 15476 83002 10074 20054 30159 40159 51007 60001 8//// 333 81/13 83/18 87/20 91004 91105 91204
AAXX 21121 06240 15366 82404 10073 20064 30168 40163 50004 69901 8//// 333 87/07 88/08 91006 91106 91204
AAXX 21121 06251 17465 82804 10071 20055 30154 40155 51010 60001 75100 8//// 333 81/14 83/16 87/35 91005 91107 91205
AAXX 21121 06258 46/// /2305 333 91005 91107 91206
AAXX 21121 06269 17228 82303 10056 20056 30169 40163 50007 69961 75881 8//// 333 81/04 85/06 87/07 91004 91105 91204
AAXX 21121 06280 15677 62703 10067 20047 30149 40153 50007 60001 8//// 333 81/41 86/50 91005 91105 91204
AAXX 21121 06310 17147 81501 10059 20058 30160 40170 51004 60011 71065 8//// 333 87/03 88/04 91002 91107 91205
AAXX 21121 06344 17257 82403 10068 20059 30175 40168 50006 69901 71065 8//// 333 85/06 88/08 91005 91106 91204
AAXX 21121 06370 17260 82304 10059 20047 30146 40172 50002 69921 70265 8//// 333 81/06 88/59 91005 91106 91205
AAXX 21121 06380 17364 82104 10047 20037 30038 40180 58002 69931 70265 8//// 333 84/08 88/09 91005 91107 91205
AAXX 21121 06206 45482 82903 10081 20038 30104 40157 50007 8//// 333 83/12 84/15 85/32 91003 91107 91206
AAXX 21121 06207 47480 7//04 10063 20023 30100 40155 51011 70180 8//// 333 81/15 87/34 87/72 91005 91108 91206
AAXX 21121 06239 45483 8//05 10073 20030 3//// 4//// 5//// 8//// 333 82/16 88/72 91005 91109 91207
AAXX 21121 06252 46/// /2704 10077 20058 30114 40160 50008 222// 00095 10603 333 91005 91107 91206
AAXX 21121 06260 17256 82403 10063 20054 30163 40165 50004 69911 71051 8//// 333 88/05 91005 91106 91204
AAXX 21121 06270 15673 82703 10064 20049 30156 40156 51010 60001 8//// 333 83/40 88/46 91004 91105 91204
AAXX 21121 06290 15261 82403 10054 20043 30120 40161 50005 60001 8//// 333 84/06 87/08 88/26 91004 91107 91204
AAXX 21124 91574 46/// ///// 29090 30013 40019 56035
AAXX 21124 91570 NIL
AAXX 21124 91598 NIL
AAXX 21124 91573 06/// /0316 10248 20223 30016 40113 50009 60294 333 20230 58005 60017
AAXX 21124 91577 06/// /0303 10244 20195 30087 40108 50004 60044 333 20237 59006 60007
AAXX 21124 91579 06/// /0712 10248 20215 30109 40117 50001 60214 333 20237 59017 60027
AAXX 21124 91582 04970 70808 10251 20197 30086 40120 50002 60001 700// 333 60007 90710 91117 555 60005
AAXX 21124 91583 06/// /1602 10232 20225 30105 40120 50001 60284 333 20235 59016 60137
AAXX 21124 91587 06/// /0904 10234 20203 30079 40124 58003 60034 333 20228 59011 60007
AAXX 21124 91590 04986 /0506 10250 20184 30075 40117 50000 60001 700// 333 60007 90710 91116 555 60005
AAXX 21124 91592 06/// /0714 10245 20196 30040 40125 50002 60004 333 20244 59007 60007
AAXX 21124 91596 06/// /0812 10238 20195 30030 40139 50003 60024 333 20231 59005 60007
AAXX 21121 10091 01262 82701 10010 20009 30044 40096 51012 69991 76076 877// 222// 06054 333 42001 55300 20107 30081 69967 87706
AAXX 21121 10805 01365 81905 10029 20019 30016 40212 58004 60021 76162 8372/ 333 31/// 55300 20161 30161 60027 82707 88459
BBXX DBBH 21121 99360 70083 41498 10105 10160 20119 40309 58002 70111 81101 22223 04178 20402 332// 40903
AAXX 21121 06431 NIL
AAXX 21121 06432 NIL
AAXX 21121 06449 11262 82104 10052 20043 39947 40178 58004 60031 72065 875// 333 85706 86626 91106 91205
AAXX 21121 06450 11238 72303 10057 20041 30158 40174 51004 60011 71002 877// 333 85704 87708 91106 91204
AAXX 21121 06458 NIL
AAXX 21121 06465 NIL
AAXX 21121 06478 11358 82104 10041 20028 39957 40181 58003 60021 72162 876// 333 86709 91107 91205
AAXX 21121 06496 NIL
AAXX 21121 06407 11150 81803 10062 20050 30163 40169 51002 60021 72065 876// 333 87703 91106 91204
AAXX 21121 06447 NIL
AAXX 21121 06400 11135 81803 10065 20065 30159 40170 51003 60031 76065 877// 333 84702 87704 91105 91204
AAXX 21121 06428 NIL
AAXX 21121 06451 11239 82302 10055 20046 30107 40176 50001 60021 75865 877// 333 85704 85705 91105 91203
AAXX 21121 06456 11142 82303 10042 20038 39806 40178 58006 60021 75876 877// 333 82702 85704 87706 91106 91205
AAXX 21121 06476 17002 82102 10005 20001 39509 40188 58005 60041 76177 333 88/00 911// 912//
AAXX 21121 06479 11360 72204 10057 20047 30098 40179 58002 69941 70262 875// 333 83706 87626 91106 91204
AAXX 21121 06490 17283 82003 10014 20003 39605 40188 58002 60021 70076 333 82/05 83/06 88/09 91106 91204
AAXX 21121 06590 11250 82102 10023 20020 39730 40192 57005 60021 75866 877// 333 87705 91105 91203
AAXX 21121 45007 12650 69901 10201 20131 30178 40187 53018 60002 8153/ 333 10226 59003 81635 85359
AAXX 21121 45007 12650 69901 10201 20131 30178 40187 53018 60002 8153/ 333 10226 59003 81635 85359
AAXX 21124 48001 32450 22301 10170 20135 40138 82200 333 10210 56500 58000
AAXX 21124 48004 32520 10000 10180 20147 81100 333 10242 56900
AAXX 21124 48008 32956 00000 10200 20150 40118 333 10265 59008
AAXX 21124 48010 32510 10000 10205 20185 40132 81400 333 10260 56900 58001
AAXX 21124 48018 32940 00000 10220 20156 40120 333 10283 59001
AAXX 21124 48019 32950 00000 10219 20156 40131 333 10257 58000
AAXX 21124 48020 32440 10000 10195 20139 81400 333 10250 56900
AAXX 21124 48025 32456 20000 10212 20160 40130 81540 333 10255 56690 59001
AAXX 21124 48035 31910 00000 10201 20130 40100 70500 333 10266 58007
AAXX 21124 48037 32630 10000 10244 20174 40104 80001 333 10282 56009 59009
AAXX 21124 48042 32957 00000 10248 20186 40113 333 10290 58002
AAXX 21124 48045 32958 10000 10148 20134 80008 333 10203 56009
AAXX 21124 48048 32940 00000 10242 20191 40115 333 10285 58002
AAXX 21124 48053 32950 00000 10250 20167 40111 333 10285 58002
AAXX 21124 48057 32939 10000 10184 20026 80001 333 10262 56004
AAXX 21124 48060 32910 00000 10208 20143 40111 333 10250 59011
AAXX 21124 48062 31556 42702 10245 20190 40107 71022 83830 333 10290 56690 59008
AAXX 21124 48071 32456 23203 10250 20186 40116 81201 333 10274 56909 59001
AAXX 21124 48077 31956 10000 10260 20179 40102 70511 80001 333 10314 56009 58002
AAXX 21124 48078 32956 23201 10262 20169 40107 80001 333 10305 56009 59001
AAXX 21124 48080 32556 10000 10277 20220 40112 81500 333 10328 56900 59008
AAXX 21124 48094 32950 20000 10250 20230 40104 80006 333 10308 56009 59003
AAXX 21124 48097 32957 33201 10260 20215 40108 70211 80006 333 10325 56009 59007
AAXX 21124 48108 31996 40000 10275 20197 40100 70511 80005 333 10340 56009 59005
AAXX 21124 48109 32496 10401 10270 20226 40099 80001 333 10310 56009 59007
AAXX 21124 48110 31996 33202 10275 20215 40085 705// 80006 333 10330 56009 59005
AAXX 21124 48112 31597 80407 10275 20197 40081 83876 333 10305 56199 59010
AAXX 21121 03951 17657 /2609 10116 20097 30214 40240 50005 60001 7101/ 87/// 333 87/49
AAXX 21121 03953 11575 82408 10126 20095 30208 40244 51007 69931 70252 888// 333 81820 88650 92438
AAXX 21121 03955 12481 71702 10119 20098 30037 40234 51012 69901 84502 333 81719 84648 86075
AAXX 21121 03956 15480 /2303 10120 20094 30138 40215 52013 60001 87/// 333 86/11 87/43
AAXX 21121 03962 11466 72508 10113 20097 30190 40214 50002 69911 70252 875// 333 81712 87650
AAXX 21121 03963 17756 /2512 10113 20093 30169 40197 50002 60001 7101/ 87/// 333 87/50
AAXX 21121 03966 15460 /2405 10108 20096 30116 40209 50006 60001 88/// 333 81/16 88/50
AAXX 21121 03967 11480 82508 10109 20100 30077 40191 50006 69911 70365 886// 333 87710 87642
AAXX 21121 03969 11370 82510 10109 20099 30086 40190 51011 69901 70265 886// 333 81707 85709 86642
AAXX 21121 03973 11362 72510 10105 20093 39929 40182 58001 69911 70254 875// 333 81706 86644 86650
AAXX 21121 03976 11464 72308 10115 20103 30164 40176 53002 69901 71052 875// 333 82712 87637
AAXX 21121 03980 17759 /2512 10112 20101 30109 40134 54000 60001 7101/ 88/// 333 88/50
AAXX 21121 45032 36/// /0000 10150 20125 30173 40190 52002
AAXX 21121 45035 36/// /0102 10191 20136 30145 40187 52003
AAXX 21121 45039 36/// /0101 10164 20129 30172 40187 52002
AAXX 21121 45044 36/// /1601 10173 20153 30091 40186 52002
AAXX 21124 48001 32450 22301 10170 20135 40138 82200 333 10210 56500 58000
AAXX 21124 48004 32520 10000 10180 20147 81100 333 10242 56900
AAXX 21124 48008 32956 00000 10200 20150 40118 333 10265 59008
AAXX 21124 48010 32510 10000 10205 20185 40132 81400 333 10260 56900 58001
AAXX 21124 48018 32940 00000 10220 20156 40120 333 10283 59001
AAXX 21124 48019 32950 00000 10219 20156 40131 333 10257 58000
AAXX 21124 48020 32440 10000 10195 20139 81400 333 10250 56900
AAXX 21124 48025 32456 20000 10212 20160 40130 81540 333 10255 56690 59001
AAXX 21124 48035 31910 00000 10201 20130 40100 70500 333 10266 58007
AAXX 21124 48037 32630 10000 10244 20174 40104 80001 333 10282 56009 59009
AAXX 21124 48042 32957 00000 10248 20186 40113 333 10290 58002
AAXX 21124 48045 32958 10000 10148 20134 80008 333 10203 56009
AAXX 21124 48048 32940 00000 10242 20191 40115 333 10285 58002
AAXX 21124 48053 32950 00000 10250 20167 40111 333 10285 58002
AAXX 21124 48057 32939 10000 10184 20026 80001 333 10262 56004
AAXX 21124 48060 32910 00000 10208 20143 40111 333 10250 59011
AAXX 21124 48062 31556 42702 10245 20190 40107 71022 83830 333 10290 56690 59008
AAXX 21124 48071 32456 23203 10250 20186 40116 81201 333 10274 56909 59001
AAXX 21124 48077 31956 10000 10260 20179 40102 70511 80001 333 10314 56009 58002
AAXX 21124 48078 32956 23201 10262 20169 40107 80001 333 10305 56009 59001
AAXX 21124 48080 32556 10000 10277 20220 40112 81500 333 10328 56900 59008
AAXX 21124 48094 32950 20000 10250 20230 40104 80006 333 10308 56009 59003
AAXX 21124 48097 32957 33201 10260 20215 40108 70211 80006 333 10325 56009 59007
AAXX 21124 48108 31996 40000 10275 20197 40100 70511 80005 333 10340 56009 59005
AAXX 21124 48109 32496 10401 10270 20226 40099 80001 333 10310 56009 59007
AAXX 21124 48110 31996 33202 10275 20215 40085 705// 80006 333 10330 56009 59005
AAXX 21124 48112 31597 80407 10275 20197 40081 83876 333 10305 56199 59010
AAXX 21121 45032 36/// /0000 10150 20125 30173 40190 52002
AAXX 21121 45035 36/// /0102 10191 20136 30145 40187 52003
AAXX 21121 45039 36/// /0101 10164 20129 30172 40187 52002
AAXX 21121 45044 36/// /1601 10173 20153 30091 40186 52002
AAXX 21121 01015 46/// /1606 10029 21018 333 91109
AAXX 21121 01180 11680 80000 10018 21023 39981 40038 52008 60001 70222 8757/ 333 91103
AAXX 21121 01425 16/// /3601 11043 21047 30045 40128 51016 60001 333 91102
AAXX 21121 01450 16/// /2801 11044 21103 38952 40118 51017 60001 333 91115
AAXX 21123 91551 31598 20000 10260 20246 40094 51008 70112 82100 333 10320 569// 58000 82820
AAXX 21123 91553 31598 41210 10270 20241 40098 58004 70222 84900 333 10310 563// 58000 83820 81925
AAXX 21123 91554 NIL
AAXX 21123 91555 31598 71613 10262 20242 40100 51005 70222 8427/ 333 10312 5639/ 58004 84820 87461
AAXX 21123 91557 11498 80806 10250 20235 40080 58005 60041 70256 8691/ 333 10/// 5699/ 59002 60041 86818 81925 88460
AAXX 21123 91565 31598 80000 10255 20210 40104 51008 70222 8487/ 333 10265 5699/ 58008 84822 88461
AAXX 21123 91568 31598 40810 10260 20215 40120 51001 70222 84800 333 10275 562// 59001 84825
OOXX AAUNI 21124 99798 50833 56093 07671 46/// /2217 11070 21137 38984 49868 57020 91200
AAXX 21123 91551 31598 20000 10260 20246 40094 51008 70112 82100 333 10320 569// 58000 82820
AAXX 21123 91553 31598 41210 10270 20241 40098 58004 70222 84900 333 10310 563// 58000 83820 81925
AAXX 21123 91554 NIL
AAXX 21123 91555 31598 71613 10262 20242 40100 51005 70222 8427/ 333 10312 5639/ 58004 84820 87461
AAXX 21123 91557 11498 80806 10250 20235 40080 58005 60041 70256 8691/ 333 10/// 5699/ 59002 60041 86818 81925 88460
AAXX 21123 91565 31598 80000 10255 20210 40104 51008 70222 8487/ 333 10265 5699/ 58008 84822 88461
AAXX 21123 91568 31598 40810 10260 20215 40120 51001 70222 84800 333 10275 562// 59001 84825
AAXX 21124 89532 42/75 31805 11003 21045 39703 49730 56007 81532 333 10000 21036
AAXX 21121 01265 16/// /1901 11213 21236 39535 40173 52013 60001 333 91102
AAXX 21121 01375 16/// /3108 11073 21101 6//// 333 91112
AAXX 21121 01440 46/// /0301 11064 21072 38811 40126 53012 333 91107
AAXX 21121 01469 16/// /0401 11087 21115 39954 40135 52019 60001 333 91105
AAXX 21121 01277 16/// /2202 10009 21015 60001 333 91107
AAXX 21121 01476 16/// /3401 11001 21040 30107 40114 51018 6//// 333 91105
AAXX 21121 01092 46/// /2907 10016 21008 333 91112
AAXX 21121 01262 46/// /2309 10040 20001 333 91118
AAXX 21121 01393 16/// /3401 11173 21190 39287 40149 51014 6//// 333 91103
AAXX 21124 78388 111570 71404 10232 20203 30151 40160 60071 76186 87801 333 01209 10292 20220 59003 83822 86630 90946
AAXX 21124 91324 NIL
AAXX 21124 91329 NIL
AAXX 21124 91336 NIL
AAXX 21124 91339 11474 80815 10289 20243 30071 40077 60041 70282 8636/ 333 56299 59007 70040 86918 88362 555 92112
AAXX 21124 91320 NIL
AAXX 21124 78388 111570 71404 10232 20203 30151 40160 60071 76186 87801 333 01209 10292 20220 59003 83822 86630 90946
AAXX 21124 91324 NIL
AAXX 21124 91329 NIL
AAXX 21124 91336 NIL
AAXX 21124 91339 11474 80815 10289 20243 30071 40077 60041 70282 8636/ 333 56299 59007 70040 86918 88362 555 92112
AAXX 21124 91320 NIL
AAXX 21121 15015 01596 70501 11010 21023 39522 42735 54001 69941 71074 87500 333 42998 69917 91002 91103
AAXX 21121 15020 02597 73003 10014 21018 39913 40115 56002 60001 83270 333 43003 60007 91006 91108
AAXX 21121 15090 01496 82902 10018 21007 30020 40114 54000 69901 71072 8657/ 333 55300 00262 20402 30391 60007 91005 91108
AAXX 21121 15108 01/91 92704 11091 21091 37970 48408 52005 60001 74544 333 47016 60007 92727
AAXX 21121 15120 01598 63304 10013 21020 39635 40141 57004 69931 70287 85340 333 55307 00474 20958 30616 69907 91006 91106
AAXX 21121 15150 01596 73501 10022 21007 39904 40120 54000 69921 71077 84570 333 42998 60007 91002 91104
AAXX 21121 15170 02597 72404 11013 21034 39327 42728 52004 60001 87300 333 47005 60007 91007 91109
AAXX 21121 15200 02597 22102 10015 21024 30015 40163 58004 60001 81230 333 60007 91005 91106
AAXX 21121 15230 02597 63504 10011 21016 39862 40163 54000 60001 86300 333 55305 00339 20777 30562 60007 91006 91107
AAXX 21121 15260 02597 73302 10012 21030 39602 40148 54000 60001 83570 333 43002 60007 91004 91104 95050
AAXX 21121 15280 01/93 82504 11112 21121 37364 47885 58002 60011 74174 885// 333 48042 60007
AAXX 21121 15292 01596 70102 10002 21006 39869 40173 50001 69931 71072 87500 333 69917 91003 91103 95090
AAXX 21121 15310 01495 82503 10018 20008 30039 40127 52007 60031 71072 8567/ 333 44003 55301 00114 20536 30502 60017 91005 91108
AAXX 21121 15335 01494 82904 10010 20010 30114 40121 52012 60061 77177 8802/ 333 43002 60037 91007 91107 96010
AAXX 21121 15346 01596 81802 10027 20023 39837 40131 54000 60001 71022 8672/ 333 60007 91003 91104
AAXX 21121 15350 01597 72306 10037 20024 30006 40128 52002 60011 70272 87500 333 60017 91008 91110
AAXX 21121 15360 01497 82910 10015 20006 30090 40104 52013 69971 70276 886// 222// 06070 20402 333 69927 91012 91113 92437
AAXX 21121 15410 02997 23004 10046 21041 30039 40136 50000 60001 82030 333 60007 91007 91107
AAXX 21121 15420 01497 82301 10024 20019 30020 40134 52005 69961 70276 886// 333 41998 55300 0//// 20197 3//// 69927 91002 91102
AAXX 21121 15450 02597 62704 10030 21018 39896 40136 57002 60001 82370 333 55300 00313 20539 30492 60007 91008 91108
AAXX 21121 15460 01496 82405 10018 20007 30114 40138 52003 69941 71072 8277/ 333 69927 91008 91109
AAXX 21121 15470 01596 82505 10018 20006 30010 40139 52004 69941 71072 8457/ 333 60007 91006 91107
AAXX 21121 15480 01496 82904 10028 20025 30120 40137 53015 69931 71076 886// 222// 06065 2//// 333 60007 91009 91109 92447
BBXX 44060 21121 99413 70721 46/// ///06 10093 40193 56016 91200 22200 00100 333 91207 555 11062 22067
BBXX 44008 21121 99405 70692 46/// /1407 10103 20071 40220 58008 91150 22200 00109 10703 20501 325// 40702 70014 333 91208 555 11069 22073 31050 41408 61149 138067 133065 131067 127068 127070 127065
AAXX 21124 16434 11360 70317 10020 20017 38861 48368 52038 60021 72162 87800 333 85809 85614 95070 95100
AAXX 21124 16470 11560 63418 10124 20079 39878 40113 51009 69921 70296 86200 333 55306 22/// 86820 95000
BBXX 46089 21121 99459 71258 46/// /3406 10084 20040 40312 50000 91150 22200 00089 11407 20502 329// 41407 70034 333 91208 555 11062 22066 31053 43309 61149 339058 346061 350058 354061 348060 348064
BBXX 46042 21121 99368 71224 46/// /0903 10108 40180 55000 91150 22200 00125 11606 20401 330// 41606 70030 333 91204 555 11030 22031 31127 40904 61149 090029 087027 073028 033014 038013 028009
AAXX 21124 63980 41450 72420 10280 20237 40077 78098 85932 333 59004 81915 85816 94327 91130
AAXX 21121 11010 11475 72607 10034 20009 39784 40168 57002 60021 70282 333 81613 86616
AAXX 21121 11012 17/// /2405 10018 20006 39697 40175 50000 60021 7404/ 333 55300 91114
AAXX 21121 11022 11578 72506 10034 20003 39737 40127 53004 69901 70272 878// 333 55303 86827 91114
AAXX 21121 11035 11575 52808 10049 20017 39878 40132 52001 69951 70176 83831 333 55305 81821 84081 91115
AAXX 21121 11036 11583 72807 10041 20000 39914 40139 52002 69911 70187 333 81822 84650 85362 91113 91210
AAXX 21121 11101 17/// /1801 10018 20016 39686 40226 58006 6///1 7//8/ 333 55300
AAXX 21121 11120 01250 89901 11002 21007 39480 40205 57008 69911 77072 333 69905 81705 83650 85657
AAXX 21121 11126 17/// /3208 11100 21100 37679 48461 58007 69921 7218/ 333 55300 91114
AAXX 21121 11130 17/// /0000 10000 21004 39602 40206 55001 60011 7404/ 333 55300
AAXX 21121 11146 11/00 90502 11140 21141 36845 47944 50000 60031 77374 333 55301 89/00 91126 91213 92613
AAXX 21121 11150 01257 82706 10023 21012 39645 40195 52003 69931 76872 333 69915 81704 84614 86627
AAXX 21121 11155 11/02 93210 11063 21073 38307 48441 58003 60061 77374 333 55300 89/02 91126
AAXX 21121 11157 11315 82406 10008 21013 39386 40168 57001 69941 77377 877// 333 87708
AAXX 21121 11172 NIL
AAXX 21121 11190 11660 72705 10047 21007 39903 40139 58005 69911 72272 875// 333 55300 87638
AAXX 21121 11204 32780 21801 10007 21056 39356 40161 57022 82500 333 55310 82650
AAXX 21121 11212 31/80 32505 11071 21122 37767 48449 50000 71530 82870 333 817// 444 16100
AAXX 21121 11231 32784 59901 11006 21057 39585 40171 58020 333 81856 83359
AAXX 21121 11240 32686 51802 10029 21047 39705 40149 58008 333 81840 83657
AAXX 21121 11244 16/// /0000 10013 21052 39819 40154 58008 60001 333 55305
AAXX 21121 11389 11670 82207 10030 20010 39821 40151 50001 69901 70252 885// 333 55300 91116
BBXX 44060 21121 99413 70721 46/// ///06 10092 40196 91145 22200 00099 333 91207 555 11062 22062
AAXX 21121 01271 17/83 61002 11047 21061 30076 40098 52014 6//// 700// 333 91105
AAXX 21121 01415 17/01 90901 11001 21007 30114 40125 51015 6//// 767// 333 91102
BBXX 51101 21121 99243 71621 46/// /0609 10229 20170 40199 58008 91150 22200 00239 11006 20704 307// 41005 70029 333 91211 555 11095 22100 31147 40611 61149 061087 055085 059081 061080 058077 062085
BBXX 46061 21121 99602 71468 46/// /2112 10050 49988 53004 91150 22200 00061 11207 20705 300// 41204 70034 333 91214 555 11125 22133 31117 42015 61149 206116 204122 212110 207120 208116 211106
BBXX 46083 21121 99582 71380 46/// /1812 10055 20019 40215 55010 91150 22200 00062 11107 20705 300// 41104 70033 333 91214 555 11124 22133 31054 41715 61149 181117 183118 182122 184126 184126 175122 81914 91112
BBXX 51000 21121 99235 71541 46/// /0709 10220 40178 56013 91150 22200 00231 11305 20804 332// 41303 70026 333 91212 555 11100 22106 31057 40715 61149 066095 070099 070099 071096 067088 065109
BBXX 41010 21121 99289 70785 46/// /1508 10227 40223 51009 91150 22200 00237 10604 20603 300// 41102 70018 333 91209 555 11083 22087
BBXX 41009 21121 99285 70802 46/// /1509 10236 20167 40215 53008 91150 22200 00246 11203 20502 300// 41202 70015 333 91211 555 11100 22106
BBXX 42057 21121 99168 70815 46/// /0911 10279 20208 40135 51009 91150 22200 00278 10805 20504 3//// 40803 70023 333 91213 555 11111 22118 31054 40913 61149 092110 088113 090116 086112 086110 089113 80913 91054
BBXX 42363 21121 99282 70892 46/// /2108 10228 20200 40156 53003 91200 333 91209
BBXX 42364 21121 99291 70881 46/// /2104 10222 20200 40156 53003 91200
BBXX 44011 21121 99411 70666 46/// /1506 10048 21003 40249 54000 91150 22200 00091 10803 20501 3//// 40803 70017 333 91207 555 11057 22059 31128 43307 61149 153055 147054 154053 150050 155050 154057
BBXX 41046 21121 99238 70683 46/// /0709 10226 20180 40232 53015 91150 22200 00255 11507 20604 300// 41506 70036 333 91211 555 11096 22101 31120 40612 61149 069090 076085 067088 058085 062080 063082 80710 91143
AAXX 21124 48566 32560 80507 10270 20226 30075 40083 52009 82847 333 10313 59001
BBXX 46232 21121 99325 71174 46/// ///// 1//// 91138 22200 00150 11403 21002 328// 41402 70013
BBXX 46247 21121 99378 71228 46/// ///// 1//// 91151 22200 00110 11405 21003 329// 41404 70024
BBXX 46243 21121 99462 71241 46/// ///// 1//// 91159 22200 00079 11406 21004 326// 41404 70029
BBXX 46236 21121 99368 71219 46/// ///// 1//// 91150 22200 00124 11404 20902 328// 41403 70019
BBXX 46229 21121 99438 71246 46/// ///// 1//// 91151 22200 00099 11408 21004 329// 41407 70040
BBXX 46225 21121 99329 71174 46/// ///// 1//// 91144 22200 00145 11402 20901 327// 41401 70010
BBXX 46213 21121 99403 71247 46/// ///// 1//// 91154 22200 00099 11309 20806 329// 41306 70043
BBXX 46215 21121 99352 71209 46/// ///// 1//// 91138 22200 00150 11303 21002 327// 41303 70017
AAXX 21124 48387 31957 00000 10175 20145 39160 40129 52011 71000 333 10233 59006
AAXX 21124 48440 31957 01102 10267 20203 30057 40106 52013 71021 333 10314 58000
BBXX 46218 21121 99345 71208 46/// ///// 1//// 91202 22200 00138 11705 21003 331// 41704 70027
BBXX UFTA 21121 99849 71236 41497 40504 11248 21276 40041 52004 70283 84500 333 11124
AAXX 2112/ 89872 46/// ///// 11029 39716 4//// 5////
AAXX 2112/ 89869 46/// ///// 11019 39690 4//// 5////
AAXX 2112/ 89866 46/// ///// 11045 39665 4//// 5////
AAXX 2112/ 89769 46/// ///// 11029 39726 4//// 5////
AAXX 2112/ 89828 46/// ///// 11220 36465 4//// 5////
AAXX 2112/ 89108 46/// ///// 11210 36985 4//// 5////
AAXX 2112/ 89879 46/// ///// 11020 39678 4//// 5////
AAXX 21124 89667 46/// /3314 11034 39772 4//// 5////
BBXX 51204 21121 99213 71581 46/// ///// 1//// 91152 22200 00246 11103 21002 331// 41102 70013
BBXX 51202 21121 99214 71577 46/// ///// 1//// 91139 22200 00243 10805 20805 334// 41301 70027
BBXX 41110 21121 99341 70777 46/// ///// 1//// 91151 22200 00137 10602 20602 310// 41301 70010
BBXX 41113 21121 99284 70805 46/// ///// 1//// 91151 22200 00210 10603 20603 308// 41301 70014
BBXX 41112 21121 99307 70813 46/// ///// 1//// 91151 22200 00163 10602 20602 309// 41201 70011
BBXX 46219 21121 99332 71199 46/// ///// 1//// 91158 22200 00139 11705 21003 331// 41704 70025
BBXX 46224 21121 99332 71175 46/// ///// 1//// 91136 22200 00147 11402 20501 323// 41401 70008
BBXX 46214 21121 99379 71235 46/// ///// 1//// 91155 22200 00117 11507 21004 330// 41505 70033
AAXX 21124 91930 36/// ///// 10255 20205 333 10323
AAXX 21124 91943 16/// /0912 10267 20208 30088 40090 57028 69941 333 59013
AAXX 21121 89061 179// 01202 10014 20010 39931 49938 57002 69952 73077 333 10022 20006 91002 91103
AAXX 21124 03008 16/// /1620 10062 20013 30006 40076 58022 60001 91150 333 90710 91128
AAXX 21124 03010 46/// /1629 10060 20059 40045 57035 333 90710 91137
AAXX 21124 03014 46/// /1823 10036 21006 40075 58024 91150 333 8//// 90710 91129
AAXX 21124 03031 15582 /0602 10024 20021 39754 40085 57009 60031 91150 333 553// 20190 87/25
AAXX 21124 03034 17350 /2214 10103 20098 30056 40069 58001 60041 751// 91150 333 86/08 86/13
AAXX 21124 03037 17659 /2313 10109 20103 30067 40089 52003 60021 710// 91150 333 87/33
AAXX 21124 03039 46/// /2637 10064 20032 91150 333 90710 91145
AAXX 21124 03041 46/// /2532 10049 20049 91150 333 90710 91146
AAXX 21124 03044 17561 /2309 10058 20045 39958 40057 57025 69901 723// 91150 333 553// 20129 82/21 87/50
AAXX 21124 03047 17359 /2602 10065 20060 39806 40108 54000 60011 722// 91150 333 553// 20105 87/08 83/33
AAXX 21124 03062 17157 /1704 10038 20033 30069 40074 57021 60051 710// 91150 333 553// 20134 86/02 84/46
AAXX 21124 03065 46/// /2747 10037 20037 91150 333 90710 91168 91064
AAXX 21124 03068 11575 81506 10055 20043 30069 40078 58020 60031 72165 885// 91150 333 82626 87644
AAXX 21124 03072 46/// ///// 11003 21003 91150 333 91000
AAXX 21124 03080 17063 /1301 10025 20023 39929 40103 58014 60051 722// 91150 333 81/01 83/25 87/37
AAXX 21124 03088 17/01 /2703 10035 20035 39943 40108 58011 60061 733// 91150 333 553// 20077
AAXX 21124 03094 17/56 /1615 10050 20040 30081 40086 58022 60021 723// 91150
AAXX 21124 03105 17344 /2517 10104 20104 30118 40135 51006 69901 710// 91150 333 88/06 90710 91125
AAXX 21124 03132 15663 /2313 10108 20108 30134 40147 50008 69921 91150 333 88/41
AAXX 21124 03144 17360 /0000 10037 20031 30074 40118 58004 60021 710// 91150 333 553// 20174 88/07
AAXX 21124 03148 46/// /2717 10057 20057 91150
AAXX 21124 03153 17258 /2711 10096 20096 30008 40146 51013 60021 710// 91150 333 553// 20047 88/03
AAXX 21124 03155 16260 /2315 10094 20089 39829 40124 51008 60001 91150 333 88/04
AAXX 21124 03158 17057 /1801 10050 20050 39978 40116 58008 60021 720// 91150 333 553// 20181 81/01 87/13
AAXX 21124 03210 16360 /2716 10095 20095 30007 40158 51015 60001 91150 333 88/06
AAXX 21124 03212 17363 /2910 10110 20100 30051 40149 50011 60011 751// 91150 333 88/07
AAXX 21124 03214 15461 /2712 10097 20091 30138 40156 50012 69921 91150 333 88/16
AAXX 21124 03220 16264 ///// 10101 20101 30106 40140 51008 69961 91150 333 84/03 87/17
AAXX 21124 03225 16481 /2610 10105 20087 39842 40145 51009 69921 91150 333 553// 20194 81/17 87/38
AAXX 21124 03226 15266 /3404 10085 20085 39867 40142 51008 60031 91150 333 88/05
AAXX 21124 03227 46/// /2832 10055 2//// 91150 333 90710 91137
AAXX 21124 03230 16283 /3105 10077 20076 39873 40129 58002 60021 91150 333 88/05
AAXX 21124 03238 17158 /2710 10085 20084 39953 40125 50001 60011 720// 91150 333 87/02 87/45
AAXX 21124 03261 16024 /1205 10057 20057 30108 40148 51005 69941 91150 333 86/01 86/17
AAXX 21124 03265 17142 /1205 10058 20057 30118 40149 51005 69961 710// 91150 333 81/02 87/19
AAXX 21124 03266 16456 /1603 10067 20067 30131 40148 51005 69961 91150 333 82/16 86/42
AAXX 21124 03275 17450 /2203 10067 20064 39945 40138 50000 69981 723// 91150 333 88/13
AAXX 21124 03281 16/// /2107 10043 20043 60011 91150
AAXX 21124 03903 16769 /2511 10117 20101 30109 40166 50003 60001 91150 333 553// 20218 88/50
AAXX 21124 03904 17358 /2413 10110 20097 30101 40160 50008 69901 751// 91150 333 87/08
AAXX 21124 03907 15761 /2216 10103 20092 30138 40145 50005 60001 91150 333 55300 20126 87/50
AAXX 21124 03911 16268 /2709 10096 20096 39887 40159 51005 69921 91150 333 88/03
AAXX 21124 03915 16476 /2410 10110 20110 30070 40148 50006 60001 91150 333 81/19 87/44
AAXX 21124 03916 16677 /2905 10103 20097 39952 40140 51007 69941 91150 333 553// 20094 87/41
AAXX 21124 03923 15365 /2607 10108 20093 39969 40164 51009 60001 91150 333 82/08 87/42
AAXX 21124 03301 16370 /2609 10110 20110 30119 40192 51017 60001 91150 333 87/06 86/45
AAXX 21124 03305 15580 /2419 10105 20085 39927 40188 51014 69941 91150 333 84/26 90710 91132
AAXX 21124 03313 16682 /2612 10123 20101 30081 40174 50008 69921 91150 333 88/46
AAXX 21124 03316 15663 /2614 10091 20086 30160 40171 51013 69901 91150 333 81/44 87/50
AAXX 21124 03318 16/// /2813 10094 20088 60001 91150
AAXX 21124 03321 16480 /3110 10134 20103 30160 40172 51013 60001 91150 333 553// 20371 81/15 88/50
AAXX 21124 03330 17/01 /3010 10092 20092 39810 40169 51018 60041 757// 91150
AAXX 21124 03344 17257 /2811 10099 20097 39835 40151 51010 69961 710// 91150 333 87/04 85/12
AAXX 21124 03346 16/// /2820 10099 20097 69941 91150 333 90710 91127
AAXX 21124 03348 17263 /2912 10105 20104 30061 40168 51014 60021 751// 91150 333 55300 20070 88/04
AAXX 21124 03355 17450 /1804 10073 20073 30139 40150 51006 60011 710// 91150 333 55300 20301 85/13 86/56
AAXX 21124 03373 16445 /2205 10073 20071 30084 40154 51011 69941 91150 333 88/10
AAXX 21124 03379 16456 /2407 10081 20081 30083 40160 5/012 60001 91150 333 87/17
AAXX 21124 03382 17046 /1904 10062 20062 30140 40148 50006 69921 722// 91150 333 55300 20199 81/01 86/21 86/33
AAXX 21124 03385 46027 /2105 10063 20063 30143 40153 50006 91150 333 87/01 83/23
AAXX 21124 03391 11228 82104 10065 20065 30151 40158 50009 69901 75152 887// 91150 333 83704 88709
AAXX 21124 03392 16140 /2206 10064 20064 30154 40158 51008 60001 91150 333 88/02
AAXX 21124 03405 16680 /2715 10108 20108 30086 40202 50015 60001 91150 333 553// 20272 88/38
AAXX 21124 03409 16/// /2213 10110 20092 60001 91150 333 55300 2////
AAXX 21124 03410 16379 /2710 10104 20095 39756 40188 51022 60001 91150 333 553// 20290 87/08
AAXX 21124 03469 17120 /2306 10070 20070 30157 40161 50011 69921 710// 91150 333 553// 20217 81/02 88/10
AAXX 21124 03488 17131 /2107 10063 20063 30133 40159 50008 69921 710// 91150 333 85/02 87/08
AAXX 21124 03503 17370 /2706 10107 20100 30128 40205 51019 60001 710// 91150 333 83/06 87/13
AAXX 21124 03507 15270 /2802 10099 20099 39836 40207 51021 69981 91150 333 88/03
AAXX 21124 03520 16480 /2914 10130 20101 30066 40185 51016 60001 91150 333 553// 20775 82/14
AAXX 21124 03522 15482 /2608 10122 20115 30102 40194 51022 60001 91150 333 84/14 87/50
AAXX 21124 03529 15481 /2307 10129 20116 30144 40187 51019 60001 91150 333 81/18 86/23 87/50
AAXX 21124 03544 17257 /2509 10100 20098 30043 40173 51017 60001 710// 91150 333 553// 20135 88/04
AAXX 21124 03560 17358 /2708 10103 20099 30066 40169 51015 69941 710// 91150 333 553// 20215 88/06
AAXX 21124 03604 16476 /2909 10114 20103 30170 40224 50020 60001 91150 333 87/11
AAXX 21124 03605 16462 /2915 10111 20098 30208 40216 51022 60001 91150 333 87/11 87/47
AAXX 21124 03609 16/// /2618 10115 20100 30163 40216 51015 60001 91150 333 90710 91126
AAXX 21124 03628 15263 /2512 10118 20109 30126 40198 51021 60001 91150 333 55301 20463 81/05 87/18 85/25
AAXX 21124 03647 16381 /2917 10115 20105 39923 40176 51015 60001 91150 333 553// 20529 81/08 85/16
AAXX 21124 03658 164// /2709 10120 20102 30114 40183 51017 60001 91150 333 87/18
AAXX 21124 03660 15382 /3107 10107 20102 39932 40179 51018 69901 91150 333 88/06
AAXX 21124 03672 11480 82906 10119 20106 30139 40180 51019 69921 70265 885// 91150 333 84712 88614
AAXX 21124 03684 17232 /2907 10092 20092 30060 40166 51014 60011 710// 91150 333 87/03 88/13
AAXX 21124 03693 16268 /3008 10101 20100 30167 40170 51016 69941 91150 333 83/05 87/57
AAXX 21124 03707 15362 /2708 10116 20116 30222 40229 51021 60001 91150 333 88/06
AAXX 21124 03710 16159 /2916 10098 20098 39797 40217 52018 60001 91150 333 553// 20212 88/02 90710 91126 91026
AAXX 21124 03743 12367 82708 10114 20105 30036 40197 51020 60001 885// 91150 333 86706 87618
AAXX 21124 03749 12375 82808 10117 20105 30086 40195 51021 60001 885// 91150 333 81707 85708 87616
AAXX 21124 03761 11475 72612 10117 20100 30042 40185 51018 69921 70252 875// 91150 333 55300 20403 81712 86620 87650
AAXX 21124 03768 16480 /2807 10119 20107 30105 40184 51018 69921 91150 333 88/17
AAXX 21124 03769 15480 /2804 10116 20107 30098 40180 51018 69981 91150 333 55300 20161 88/11
AAXX 21124 03770 16/// ///// 10111 20106 69921 91150
AAXX 21124 03781 15160 /2909 10102 20102 39973 40180 51019 69921 91150 333 553// 20148 88/02
AAXX 21124 03797 17041 /3106 10074 20074 30109 40169 51015 60031 710// 91150 333 55300 20201 88/01
AAXX 21124 03839 16/// ///// 10124 20117 60001 91150 333 553// 20207
AAXX 21124 03857 15462 /3015 10115 20113 30147 40210 51024 60001 91150 333 84/12 84/17
AAXX 21124 03862 15470 /3113 10127 20113 30189 40201 51020 60001 91150 333 55300 20289 88/10
AAXX 21124 03866 16/// /3013 10117 20101 30170 40194 51018 60001 91150
AAXX 21124 03872 15472 /2909 10123 20113 30184 40188 51018 60001 91150 333 553// 20300 84/11 87/19
AAXX 21124 03876 16/// /2708 10117 20113 30182 40184 51018 60001 91150
AAXX 21124 03895 41150 83017 10115 20109 40221 51013 75052 887// 333 84702 87703 90710 91128
AAXX 21124 70026 NIL
AAXX 21124 70133 NIL
AAXX 21124 70174 NIL
AAXX 21124 70200 NIL
AAXX 21124 70219 NIL
AAXX 21124 70231 NIL
AAXX 21124 70261 NIL
AAXX 21124 70267 NIL
AAXX 21124 70271 NIL
AAXX 21124 70273 NIL
AAXX 21124 70308 NIL
AAXX 21124 70316 NIL
AAXX 21124 70326 NIL
AAXX 21124 70340 NIL
AAXX 21124 70350 NIL
AAXX 21124 70361 NIL
AAXX 21124 70381 NIL
AAXX 21124 70398 NIL
AAXX 21124 70414 NIL
AAXX 21124 68299 36/// /1205 10234 20119 38909 48509 57011 333 10243 20112 91009 555 91016
AAXX 21124 68026 42660 60000 10300 20204 48497 57020 85973
AAXX 21124 68029 42560 53604 10314 20191 48502 57023 85303
AAXX 21124 68032 42660 50206 10330 20197 48502 57019 80002
AAXX 21124 68038 42560 30000 10336 20172 48505 57023 82101
AAXX 21124 68040 42960 41005 10361 20105 48501 57034 82202
AAXX 21124 68054 42660 21906 10310 20145 48515 58022 82100
AAXX 21124 68070 42960 01109 10320 20169 48511 57024
AAXX 21124 68226 42660 60110 10356 20120 48487 57022 85304
AAXX 21124 68234 42660 50414 10344 20159 48494 57023 83202
AAXX 21124 68240 42660 23303 10335 20118 48490 57030 81181
AAXX 21124 68320 42660 43210 10362 20152 48496 57012 82980
AAXX 21124 68328 42660 63509 10367 20141 48482 57021 84282
AAXX 21121 76040 32902 03300 10064 20039 30135 40149 57004 92045 333 10178 20058 30/// 59019 70000 98602
AAXX 21121 76056 06/// /2904 10106 20018 30116 40140 58002 60001 7//// 8//// 91150 333 0//// 10165 20100 30/// 4//// 50199 54/// 55006 56/// 57/// 59005 60007 70096 8//// 8//// 8//// 9/
AAXX 21121 76122 32956 00000 11032 21037 38490 40162 5//// 91150 333 10120 21032 30105 55079 59023 70000
AAXX 21121 76123 06/// 01502 11041 21049 3//// 4//// 5//// 60001 7//// 80000 91150 333 0//// 10137 21041 4//// 50179 55078 56000 57/// 5//// 60007 70000 8//// 8//// 8//// 8//// 9//// 9/
AAXX 21121 76220 32920 00000 11074 21074 38095 40184 5//// 91145 333 10142 21074 31100 59010 70000
AAXX 21121 76225 32920 00000 11020 21045 38581 40137 53001 91140 333 10118 21020 31043 59025 70000
AAXX 21121 76305 32970 03401 10125 20068 30136 40144 5//// 91145 333 10218 20118 30100 59001 70000
AAXX 21121 76323 32910 00000 10048 21060 38218 40170 57002 91155 333 10168 20027 30005 59018 70000
AAXX 21121 76342 31840 62001 10088 20056 39479 40202 57001 70310 86050 91147 333 10180 20085 30080 56050 58014 70000 86358
AAXX 21121 76373 32606 22001 10119 20033 38144 40075 5//// 82400 91150 333 10220 20093 30070 56900 59041 70000 82623
AAXX 21121 76382 32960 01804 10186 20078 38856 40077 57002 91158 333 10264 20125 30165 59015 70000
AAXX 21121 76390 31950 22405 10133 21001 38188 40104 54000 70544 80005 91130 333 10228 20116 30110 56004 59007 70000 82070
AAXX 21121 76402 32950 00000 10077 20065 30089 40147 57006 91145 333 10203 20070 30061 58003 70000
AAXX 21121 76423 32560 42401 10070 21001 38109 40109 57007 83260 91148 333 10230 20060 30/// 56990 59014 70000 83820 81357
AAXX 21121 76458 32460 13302 10140 20101 30129 40134 57003 81100 91143 333 10232 20110 30100 563// 58006 70000 81816
AAXX 21121 76471 32580 22105 10070 20043 37657 40099 5//// 82500 91150 333 10190 20049 30025 55099 56400 59003 70000 82635
AAXX 21121 76490 06/// /2901 10104 20065 39756 40156 55006 60001 7//// 8//// 91150 333 0//// 10279 20104 30/// 50339 54/// 55080 56/// 57/// 58028 60007 70000 8//// 8//// 8//// 8//// 9/
AAXX 21121 76499 31956 00000 10151 20114 30117 40139 5//// 70200 91150 333 10270 20150 30148 58039 70000
AAXX 21121 76538 06/// /0000 10050 20049 38139 40186 55001 60001 7//// 8//// 91150 333 0//// 10251 20049 30/// 4//// 50329 54/// 55085 56/// 57/// 58003 60007 70000 8//// 8//// 8//// 9/
AAXX 21121 76539 32958 03601 10061 20055 38137 40160 52004 91150 333 10250 20049 30023 58002 70000
AAXX 21121 76543 32675 82701 10192 20132 30126 40159 56/// 885// 91145 333 10312 20190 30/// 563// 58038 70000 88650
AAXX 21121 76547 06/// /0502 10186 20118 30128 40140 57004 60001 7//// 8//// 91150 333 0//// 10291 20186 4//// 50319 55065 56/// 57/// 58036 60007 70000 8//// 8//// 8//// 8//// 9//// 9/
AAXX 21121 76548 32760 70502 10188 20122 30140 40150 57003 8705/ 91150 333 10286 20184 30184 5604/ 58040 79999 87356
AAXX 21121 76556 32960 00000 10126 20091 39102 40125 57007 91130 333 10268 20107 30102 58007 70000
AAXX 21121 76577 32960 00000 10084 20071 38024 40136 57004 91140 333 10230 20077 30065 59005 70000
AAXX 21121 76578 06/// /0301 10075 20028 38022 40171 55003 60001 7//// 8//// 91150 333 0//// 10246 20074 30/// 4//// 50269 54/// 55056 56/// 57/// 59005 60007 70000 8//// 8//// 8//// 9/
AAXX 21121 76581 32965 40101 10158 20147 39023 40118 5//// 84060 91150 333 10315 20145 30138 56010 58005 70000 84359
AAXX 21121 76585 01665 70000 10171 20166 39985 40142 53019 69961 75054 874// 91140 333 10271 20170 30168 55080 562// 58040 69967 70006 87637
AAXX 21121 76586 06/// /2000 10185 20182 39988 40144 55000 69981 7//// 8//// 91150 333 0//// 10300 20184 30/// 4//// 50259 54/// 55075 56/// 57/// 58041 69987 70008 8//// 8//// 8//// 9/
AAXX 21121 76592 06/// /1006 10211 20075 30138 40138 53003 60001 7//// 8//// 91150 333 0//// 10324 20209 30/// 4//// 50609 54/// 55071 56/// 57/// 58001 60007 70000 8//// 8//// 8//// 9/
AAXX 21121 76593 32964 01203 10210 20209 30138 40140 52001 91150 333 10324 20208 30207 58003 70000
AAXX 21121 76612 32958 00000 10090 20081 38456 40148 57004 91150 333 10269 20085 30075 55093 58000 70000
AAXX 21121 76625 32960 01801 10104 20049 38125 40106 57001 91145 333 10246 20098 30090 58000 70000
AAXX 21121 76634 31970 01402 10092 20077 37835 40155 5//// 70500 91150 333 10239 20070 30045 59001 70000
AAXX 21121 76641 06/// /0902 10202 20194 30132 40144 53001 60001 7//// 8//// 91150 333 0//// 10295 20194 30/// 4//// 50189 54/// 55000 56/// 57/// 58044 60007 70000 8//// 8//// 8//// 8/
AAXX 21121 76644 32550 21201 10214 20205 30124 40137 58002 82100 91150 333 10329 20214 30208 563// 58000 70000 82820
AAXX 21121 76645 06/// /1002 10213 20208 30130 40143 53003 60001 7//// 8//// 91150 333 0//// 10330 20212 30/// 4//// 50409 54/// 55080 56/// 57/// 58002 60007 70000 8//// 8//// 8//// 9/
AAXX 21121 76648 06/// /0801 10212 20200 30110 40141 52004 60001 7//// 8//// 91150 333 0//// 10324 20209 30/// 4//// 50279 54/// 55000 56/// 57/// 58004 60007 70000 8//// 8//// 8//// 8/
AAXX 21121 76654 31956 00403 10219 20188 30124 40128 57002 70544 91152 333 10305 20219 30204 59002 70000
AAXX 21121 76659 02/// ///// 1//// 2//// 3//// 4//// 5//// 6//// 7//// 8//// 9//// 333 0//// 1//// 2//// 30/// 4//// 5//// 54/// 55/// 56/// 57/// 5//// 6//// 7//// 8//// 8//// 8//// 9/
AAXX 21121 76662 32960 00601 10070 20047 38449 40147 57002 91140 333 10270 20048 30038 59003 70000
AAXX 21121 76683 32962 00000 10050 20035 37820 40188 55005 91145 333 10233 20050 30025 50251 55098 21731 58002 70000
AAXX 21121 76684 06/// /0000 10040 20024 37823 40242 53005 60001 7//// 8//// 91150 333 0//// 10248 20040 30/// 4//// 50309 54/// 55094 56/// 57/// 58004 60007 70000 8//// 8//// 8//// 9/
AAXX 21121 76685 32950 00000 10078 20045 37856 40136 57012 91156 333 10238 20076 30042 58005 70000
AAXX 21121 76687 32962 02201 10122 20109 38665 40157 53001 91135 333 10270 20116 30104 58024 70000
AAXX 21121 76692 31520 62301 10201 20191 30116 40135 52003 74041 865// 91145 333 10277 20199 30/// 568// 58027 70000 86628
AAXX 21121 76693 06/// /2201 10202 20189 30116 40135 53003 60001 7//// 8//// 91150 333 0//// 10277 20199 30/// 4//// 50209 55000 56/// 57/// 58028 60007 70000 8//// 8//// 8//// 8//// 9/
AAXX 21121 76695 32156 21402 10207 20203 30114 40119 52003 82600 91148 333 10326 20205 30195 562// 59001 70000 82701
AAXX 21121 76698 32558 20000 10207 20203 30134 40146 5//// 82200 91150 333 10322 20207 30178 56300 58004 70000 82820
AAXX 21121 76727 06/// /3501 10129 20055 38382 40129 53005 60001 7//// 8//// 91150 333 0//// 10274 20128 30/// 4//// 50219 54/// 55000 56/// 57/// 58003 60007 70000 8//// 8//// 8//// 9/
AAXX 21121 76737 32980 03201 10110 20089 38760 40147 55001 91135 333 10293 20110 30093 58025 70000
AAXX 21121 76738 06/// /3301 10106 20090 38761 40169 55000 60001 7//// 8//// 333 10305 20105 30/// 50259 55000 56/// 57/// 58027 60007 70000 8//// 8//// 8//// 8//// 9//// 9//// 9//// 44
AAXX 21121 76743 31940 01101 10205 20169 30109 40117 53005 70000 91150 333 10300 20205 30185 56/// 58006 70000
AAXX 21121 76750 32560 13201 10215 20205 30122 40132 5//// 81100 91250 333 10308 20211 30190 56100 59003 70000 81820
AAXX 21121 76751 06/// /0000 10210 20209 30123 40134 53004 60001 7//// 8//// 91150 333 0//// 10305 20210 30/// 4//// 50219 54/// 55000 56/// 57/// 59002 60007 70000 8//// 8//// 8//// 9/
AAXX 21121 76772 06/// /1601 10074 20058 38417 40195 53002 60001 7//// 8//// 91150 333 0//// 10279 20070 30/// 4//// 5///9 55000 56/// 57/// 59002 60007 70000 8//// 8//// 8//// 9//// 9/
AAXX 21121 76773 32940 01701 10076 20060 38413 40137 52004 91148 333 10276 20061 30052 50441 55101 59007 70000
AAXX 21121 76775 31560 20301 10122 20083 38512 40148 52002 70300 82400 91145 333 10296 20118 30/// 56800 59008 70000 82627
AAXX 21121 76776 06/// /0302 10118 20082 38498 40160 53004 60001 7//// 8//// 91150 333 0//// 10313 20116 30/// 4//// 50369 55093 56/// 57/// 59001 60007 70000 8//// 8//// 8//// 9//// 9/
AAXX 21121 76805 32960 23201 10224 20221 30107 40111 55005 80008 91150 333 10312 20220 30214 56/// 59008 70000 82262
AAXX 21121 76806 06/// /3202 10225 20212 30109 40113 55003 60001 7//// 8//// 91150 333 10309 20223 30216 30/// 50219 55000 56/// 57/// 59006 60007 70000 8//// 8//// 8//// 8//// 9//// 9/
AAXX 21121 76833 31865 43001 10231 20222 30106 40108 57001 70111 84010 91155 333 10306 20220 30211 56090 59005 70000 84458 92021
AAXX 21121 76840 32920 00000 10204 20192 30052 40108 5//// 91140 333 10350 20170 30/// 55098 59009 70000
AAXX 21121 76843 32965 00000 10196 20172 39478 40117 52008 91140 333 10326 20192 30180 58000 70000
AAXX 21121 76845 32940 00000 10060 20056 37946 40225 5//// 91150 333 10228 20054 30044 58004 70000
AAXX 21121 76848 32950 03201 10116 20054 38371 40095 58002 91150 333 10272 20109 30063 58004 70000 96722
AAXX 21121 76902 06/// /0202 10230 20204 39972 40111 57001 60001 7//// 8//// 91150 333 0//// 10328 20230 30/// 4//// 50399 54/// 56/// 57/// 59015 60007 70000 8//// 8//// 8//// 8//// 9/
AAXX 21121 76243 32470 81801 10082 20051 39872 40173 54000 884// 91140 333 10140 20052 30046 563// 58014 70000 88616
AAXX 21121 76311 32920 00000 10054 20048 39858 40142 50001 91148 333 10251 20052 30042 58012 70000
AAXX 21121 76405 32940 00000 10136 20114 30126 40148 52002 91150 333 10242 20125 30119 58003 70000
AAXX 21121 76412 32960 02201 10128 20080 30109 40156 57002 91145 333 10265 20120 30/// 58015 70000
AAXX 21121 76525 32460 21809 10062 20035 37438 40112 57004 81600 91150 333 10161 20058 30024 55089 22713 565// 59001 70000 82711
AAXX 21121 76640 31010 63201 10200 20197 30137 40148 57010 70311 8427/ 91145 333 10276 20196 30192 5699/ 58038 70000 84801
AAXX 21121 76647 32965 00901 10214 20211 30120 40151 50005 91150 333 10320 20208 30198 58002 79999
AAXX 21121 76656 31/00 90000 10098 20092 38495 40149 54000 74544 889// 91150 333 10255 20085 30048 58000 70000
AAXX 21121 76741 31240 33203 10230 20216 30091 40109 52005 70340 83200 91135 333 10315 20200 30196 568// 58016 70000 83806
AAXX 21124 78526 NIL
AAXX 21124 78543 NIL
AAXX 21124 78255 12459 40703 10185 20167 30046 40195 54000 60004 83831 333 20174 83838
AAXX 21124 78317 NIL
AAXX 21124 78318 NIL
AAXX 21124 78325 NIL
AAXX 21124 78333 NIL
AAXX 21124 78338 NIL
AAXX 21124 78348 NIL
AAXX 21124 78349 NIL
AAXX 21124 78353 NIL
AAXX 21124 78360 NIL
AAXX 21124 78367 NIL
AAXX 21124 78369 NIL
BBXX DCQR2 21123 99387 31482 41498 61414 10170 20135 40200 51005 70122 84279 22253 04160 20401 317// 40603 5//// 80150
BBXX MGRH9 21124 99363 31692 41/98 40606 10180 20146 40268 52/// 7//00 84/// 22233 00175 2//// 3//// 4//// 5//// 80160
BBXX PHJV 21124 99058 31157 41598 41508 10300 20294 40071 53024 70200 8/460 22263 06298 20301 331// 40601 80295
BBXX MCCN6 21124 99243 31125 41998 02020 10240 20225 40096 56010 702// 80000 22283 00236 2//// 319// 40805 5//// 80230
BBXX PFBF 21123 99096 31586 41/98 20409 10280 20190 40079 51014 76000 8//// 22213 02292 2//// 3//// 4//// 5//// 80218
BBXX PCDE 21123 99391 31476 41/98 51011 10174 20136 40212 52010 7//22 8/9// 22223 299// 328// 40703 80151
BBXX PBEN 21123 99354 10196 41/98 52420 10170 20119 40110 57040 7//11 85242 22263 21003 399// 41304 80140
BBXX A8JR6 21123 99443 10358 41497 62323 10115 20085 40086 54000 70222 82445 22263 04112 20602 32200 40903 50000 80100
BBXX UCKD 21121 99577 10089 41598 23406 10045 40102 52017 70100 821// 22263 00070 20402
BBXX UBEF5 21121 99365 10165 41496 92416 10120 40051 57015 76466 889// 22263 00180 20504
BBXX C6IO9 21124 99337 70140 41498 43217 10180 20123 40315 54000 70200 82465 22243 06180 20502 332// 40502 5//// 80148
BBXX C6KD4 21123 99373 70295 41498 61421 10182 20153 40247 57010 70111 85145 22254 02183 20506 315// 40606 80165
BBXX LAXP4 21124 99403 70225 41497 83116 00/// 10170 2015/ 40338 56004 74122 8864/ 22253 00160 20402 327// 40603 5//// 6//// 80160
BBXX TBWUK35 21123 99621 70023 41298 82120 10064 20008 40053 58012 70222 8472/ 22214 00090 20404 326// 40805 80042
BBXX WZP 21124 99437 70867 41/97 80408 10027 2//// 40054 54000 70222 8//// 22283 0//// 20306 3//// 4//// 5//// 6//// 8//// ICE /////
BBXX C6XC2 21124 99024 31325 41897 82714 10260 20246 40060 54/// 78066 886// 2226/ 00300 2//// 3//// 4//// 5//// 6//// 80250 ICE /////
BBXX KAOU 21124 99002 10810 43/// /1814 10270 20245 40059 5//// 7//// 8//// 222// 04290 2//// 3//// 4//// 5//// 6//// 8//// ICE /////
BBXX PBIG 21124 99105 70778 41498 40639 10270 20224 40092 52010 70200 83140 22223 00275 20904 305// 40904
BBXX NWS0020 21124 99331 70264 43/// /1320 10199 20140 40259 5//// 7//// 8//// 222// 04201 2//// 3//// 4//// 5//// 6//// 8//// ICE /////
BBXX NWS0003 21124 99539 71665 43/// /3300 10002 21050 40017 5//// 7//// 8//// 222// 0//// 2//// 3//// 4//// 5//// 6//// 8//// ICE /////
BBXX NWS0029 21124 99365 70640 43/// /2601 10181 20112 40249 5//// 7//// 8//// 222// 04218 2//// 3//// 4//// 5//// 6//// 8//// ICE /////
BBXX C6FN2 21124 99214 70859 41696 53613 10230 20216 40140 54000 7//// 85555 22284 04280 20203 3//// 40203 50203 6//// 80220 ICE /////
BBXX C6FN4 21124 99216 70849 41797 11124 10250 20207 40150 54000 7//11 81200 22274 04280 20203 31099 40204 50101 6//// 80220 ICE /////
BBXX WCZ5238 21124 99217 11642 41798 40913 10250 20222 40166 54000 70300 848// 22273 00270 20302 329// 40602 5//// 6//// 80230 ICE /////
BBXX C6VG7 21124 99185 70770 415// 40826 10260 2//// 40150 5/000 7//11 84/6/ 22254 0//// 20205 3//// 40205 50205 6//// 8//// ICE /////
BBXX PFRO 21124 99202 70667 41498 40725 10245 20207 40188 52/// 7//22 8/26/ 22274 20608 80220
BBXX WNGW 21124 99588 71521 41798 12339 10039 2//// 40000 57030 7//// 80/6/ 22253 02044 2//// 323// 40507 5//// 6//// 8//// ICE /////
BBXX 3EMK6 21124 99266 70925 41297 52303 10240 20211 40150 54/// 78088 85942 22200 00232 20402 3//// 40402 50402 6//// 80220 ICE /////
AAXX 21124 91165 NIL
AAXX 21124 91182 NIL
AAXX 21124 91190 NIL
AAXX 21124 91212 NIL
AAXX 21124 91217 NIL
AAXX 21124 91285 NIL
AAXX 21124 91317 NIL
AAXX 21124 91334 11474 83410 10267 20233 30078 40081 51003 69931 70282 82171 333 10306 56899 58000 70003 555 92112
AAXX 21124 91348 11472 80903 10261 20246 30042 40095 50002 69981 78082 8527/ 333 10294 56299 58004 70015 555 92112
AAXX 21124 91356 11466 81007 10272 20241 30072 40079 51003 60131 70282 85272 333 10294 56299 58010 70973 85812 555 92112
AAXX 21124 91366 NIL
AAXX 21124 91369 NIL
AAXX 21124 91371 NIL
AAXX 21124 91376 32474 80516 10280 20235 30075 40078 50002 85878 333 10300 56119 58002 555 92112
AAXX 21124 91408 11474 81008 10271 20247 30037 40075 53005 60021 70282 82278 333 10328 56999 59010 70015 555 92112
AAXX 21124 91413 11469 80908 10257 20240 30064 40090 52010 60071 72582 83372 333 10301 56299 58007 70163 555 92112
AAXX 21124 91425 NIL
AAXX 21124 91434 NIL
AAXX 21124 91765 NIL
AAXX 21124 91222 NIL
AAXX 21124 91245 NIL
AAXX 21124 91323 NIL
AAXX 21124 91339 NIL
AAXX 21124 91343 NIL
AAXX 21124 91353 NIL
AAXX 21124 91442 NIL
AAXX 21121 26554 41962 63503 11016 21036 39939 40106 58002 70272 83031 555 1/101
AAXX 21121 26666 41460 73402 11017 21038 39867 40086 52007 72272 876// 333 87711 87617 555 1/101
AAXX 21121 26850 41360 83202 11014 21031 39822 40099 52004 70272 8657/ 333 86712 555 1/101
AAXX 21121 26863 41460 73304 11017 21031 39840 40081 51002 71022 875// 333 87617 555 1/102
AAXX 21121 26941 41558 63103 11004 21028 39867 40108 58001 71022 83551 555 14100
AAXX 21121 26951 42566 43503 11015 21027 39896 40099 54000 84500 555 1/102
AAXX 21121 33008 41246 82802 11020 21033 39937 40120 58002 71022 886// 333 88705 555 1/100
AAXX 21121 33019 41959 72702 11001 21018 39930 40108 58004 71022 8705/ 555 1/100
AAXX 21121 33036 42470 73502 11015 21038 39852 40087 52001 875// 333 86710 555 1/101
AAXX 21121 33041 42460 82902 11004 21025 39920 40078 52002 886// 333 88713 555 1/000
BBXX 3EPD8 21124 99213 50376 41598 40320 10273 20192 40147 7//00 82448 22213 04249 299// 80220
BBXX DPMT 21124 99305 50495 41498 41416 10240 20211 40100 52020 70111 84100 22255 20302 80220
BBXX ELZA8 21124 99034 50371 41598 61139 10280 20232 40125 51033 70322 84478 22274 04290 20701 309// 40804 80245
BBXX WCX7445 21124 99531 50709 43/// /3210 10072 2//// 49919 5//// 7//// 8//// 22200 00151 2//// 3//// 4//// 5//// 6//// ICE /////
BBXX WBP3210 21124 99531 50709 43/// /3210 10069 2//// 49977 5//// 7//// 8//// 22200 00114 2//// 3//// 4//// 5//// 6//// ICE /////
BBXX 32012 21121 99197 50856 46/// ///// 1//// 91150 22200 11706 70030
BBXX WDB3161 21124 99374 11432 41698 80605 10060 2000/ 40209 58009 75052 886// 22253 00182 20201 3//// 4//// 5//// 6//// 80035 ICE /////
BBXX DQXQ 21124 99356 11765 41/// 81544 10138 20117 40080 57025 70062 88/// 22224 00150 2//// 313// 41010 80126
BBXX WCZ5238 21124 99217 11642 41798 40913 10250 20222 40166 54000 70300 848// 22273 00270 20302 329// 40602 5//// 6//// 80230 ICE /////
BBXX C6SI6 21124 99317 11211 46/// /3411 10069 20030 40281 51011 7//// 8//// 22221 0//// 2////
BBXX 46070 21121 99551 11753 46/// /3203 11015 21087 40006 53008 91150 22200 00039 11004 20401 3//// 41004 70021 333 91204 555 11032 22033 31118 43406 61149 320030 336036 343025 336036 334035 331028 83405 91133
BBXX 4XFX 21124 99491 11518 41/96 /3433 00/// 11020 21/// 40170 52060 770// 8//// 22254 04/// 20210 3//// 4//// 5//// 64000 81/// ICE /////
BBXX OZBY2 21124 99306 11303 41/// /0608 10130 2009/ 40200 54000 7//66 8//// 22214 00220 20406 3//// 4//// 5//// 6//// 80110 ICE /////
BBXX BATFR56 21124 99198 30571 44698 70818 10259 20224 40124 56014 70222 8772/ 22213 00277 20502 324// 40502 5////
BBXX BATFR55 21124 99087 30433 44597 83510 10290 20249 40094 70322 86726 22262 00297 20602
BBXX BATFR45 21124 99099 10581 46/// ///// 10269 20220 40111 55012 22213 00287
BBXX TBWUK18 21124 99323 50000 41297 82910 10210 20210 40162 54000 70300 887// 22222 00200 20502 316// 41203 5//// 80210
BBXX OVZV2 21120 99094 50322 41598 40909 10271 20213 40135 51004 70100 84200 22254 00278 20303 31000 40404 5//// 80232
BBXX A8GU5 21124 99109 50330 41598 40918 10270 20198 40150 53/// 70322 83271 22214 21003 80220
BBXX TBWUK03 21123 99297 70153 41498 20714 10197 20148 40299 52010 70200 81140 22243 20401 306// 40803 5//// 80166
BBXX ELZU2 21124 99205 70197 41796 80510 00/// 10210 2017/ 40200 51020 70322 88/1/ 22253 0//// 20303 3//// 4//// 5//// 6//// 80180
AAXX 21121 76040 32902 03300 10064 20039 30135 40149 57004 92045 33310178 20058 30/// 59019 70000 98602
AAXX 21121 76056 06/// /2904 10106 20018 30116 40140 58002 60001 7////8//// 91150 333 0//// 10165 20100 30/// 4//// 50199 54///55006 56/// 57/// 59005 60007 70096 8//// 8//// 8//// 9/
AAXX 21121 76122 32956 00000 11032 21037 38490 40162 5//// 91150 33310120 21032 30105 55079 59023 70000
AAXX 21121 76123 06/// 01502 11041 21049 3//// 4//// 5//// 60001 7////80000 91150 333 0//// 10137 21041 4//// 50179 55078 5600057/// 5//// 60007 70000 8//// 8//// 8//// 8//// 9//// 9/
AAXX 21121 76220 32920 00000 11074 21074 38095 40184 5//// 91145 33310142 21074 31100 59010 70000
AAXX 21121 76225 32920 00000 11020 21045 38581 40137 53001 91140 33310118 21020 31043 59025 70000
AAXX 21121 76305 32970 03401 10125 20068 30136 40144 5//// 91145 33310218 20118 30100 59001 70000
AAXX 21121 76323 32910 00000 10048 21060 38218 40170 57002 91155 33310168 20027 30005 59018 70000
AAXX 21121 76342 31840 62001 10088 20056 39479 40202 57001 70310 8605091147 333 10180 20085 30080 56050 58014 70000 86358
AAXX 21121 76373 32606 22001 10119 20033 38144 40075 5//// 82400 91150333 10220 20093 30070 56900 59041 70000 82623
AAXX 21121 76382 32960 01804 10186 20078 38856 40077 57002 91158 33310264 20125 30165 59015 70000
AAXX 21121 76390 31950 22405 10133 21001 38188 40104 54000 70544 8000591130 333 10228 20116 30110 56004 59007 70000 82070
AAXX 21121 76402 32950 00000 10077 20065 30089 40147 57006 91145 33310203 20070 30061 58003 70000
AAXX 21121 76423 32560 42401 10070 21001 38109 40109 57007 83260 91148333 10230 20060 30/// 56990 59014 70000 83820 81357
AAXX 21121 76458 32460 13302 10140 20101 30129 40134 57003 81100 91143333 10232 20110 30100 563// 58006 70000 81816
AAXX 21121 76471 32580 22105 10070 20043 37657 40099 5//// 82500 91150333 10190 20049 30025 55099 56400 59003 70000 82635
AAXX 21121 76490 06/// /2901 10104 20065 39756 40156 55006 60001 7////8//// 91150 333 0//// 10279 20104 30/// 50339 54/// 5508056/// 57/// 58028 60007 70000 8//// 8//// 8//// 8//// 9/
AAXX 21121 76499 31956 00000 10151 20114 30117 40139 5//// 70200 91150333 10270 20150 30148 58039 70000
AAXX 21121 76538 06/// /0000 10050 20049 38139 40186 55001 60001 7////8//// 91150 333 0//// 10251 20049 30/// 4//// 50329 54///55085 56/// 57/// 58003 60007 70000 8//// 8//// 8//// 9/
AAXX 21121 76539 32958 03601 10061 20055 38137 40160 52004 91150 33310250 20049 30023 58002 70000
AAXX 21121 76543 32675 82701 10192 20132 30126 40159 56/// 885// 91145333 10312 20190 30/// 563// 58038 70000 88650
AAXX 21121 76547 06/// /0502 10186 20118 30128 40140 57004 60001 7////8//// 91150 333 0//// 10291 20186 4//// 50319 55065 56///57/// 58036 60007 70000 8//// 8//// 8//// 8//// 9//// 9/
AAXX 21121 76548 32760 70502 10188 20122 30140 40150 57003 8705/ 91150333 10286 20184 30184 5604/ 58040 79999 87356
AAXX 21121 76556 32960 00000 10126 20091 39102 40125 57007 91130 33310268 20107 30102 58007 70000
AAXX 21121 76577 32960 00000 10084 20071 38024 40136 57004 91140 33310230 20077 30065 59005 70000
AAXX 21121 76578 06/// /0301 10075 20028 38022 40171 55003 60001 7////8//// 91150 333 0//// 10246 20074 30/// 4//// 50269 54///55056 56/// 57/// 59005 60007 70000 8//// 8//// 8//// 9/
AAXX 21121 76581 32965 40101 10158 20147 39023 40118 5//// 84060 91150333 10315 20145 30138 56010 58005 70000 84359
AAXX 21121 76585 01665 70000 10171 20166 39985 40142 53019 69961 75054874// 91140 333 10271 20170 30168 55080 562// 58040 6996770006 87637
AAXX 21121 76586 06/// /2000 10185 20182 39988 40144 55000 69981 7////8//// 91150 333 0//// 10300 20184 30/// 4//// 50259 54///55075 56/// 57/// 58041 69987 70008 8//// 8//// 8//// 9/
AAXX 21121 76592 06/// /1006 10211 20075 30138 40138 53003 60001 7////8//// 91150 333 0//// 10324 20209 30/// 4//// 50609 54///55071 56/// 57/// 58001 60007 70000 8//// 8//// 8//// 9/
AAXX 21121 76593 32964 01203 10210 20209 30138 40140 52001 91150 33310324 20208 30207 58003 70000
AAXX 21121 76612 32958 00000 10090 20081 38456 40148 57004 91150 33310269 20085 30075 55093 58000 70000
AAXX 21121 76625 32960 01801 10104 20049 38125 40106 57001 91145 33310246 20098 30090 58000 70000
AAXX 21121 76634 31970 01402 10092 20077 37835 40155 5//// 70500 91150333 10239 20070 30045 59001 70000
AAXX 21121 76641 06/// /0902 10202 20194 30132 40144 53001 60001 7////8//// 91150 333 0//// 10295 20194 30/// 4//// 50189 54///55000 56/// 57/// 58044 60007 70000 8//// 8//// 8//// 8/
AAXX 21121 76644 32550 21201 10214 20205 30124 40137 58002 82100 91150333 10329 20214 30208 563// 58000 70000 82820
AAXX 21121 76645 06/// /1002 10213 20208 30130 40143 53003 60001 7////8//// 91150 333 0//// 10330 20212 30/// 4//// 50409 54///55080 56/// 57/// 58002 60007 70000 8//// 8//// 8//// 9/
AAXX 21121 76648 06/// /0801 10212 20200 30110 40141 52004 60001 7////8//// 91150 333 0//// 10324 20209 30/// 4//// 50279 54///55000 56/// 57/// 58004 60007 70000 8//// 8//// 8//// 8/
AAXX 21121 76654 31956 00403 10219 20188 30124 40128 57002 70544 91152333 10305 20219 30204 59002 70000
AAXX 21121 76659 02/// ///// 1//// 2//// 3//// 4//// 5//// 6//// 7////8//// 9//// 333 0//// 1//// 2//// 30/// 4//// 5//// 54///55/// 56/// 57/// 5//// 6//// 7//// 8//// 8//// 8//// 9/
AAXX 21121 76662 32960 00601 10070 20047 38449 40147 57002 91140 33310270 20048 30038 59003 70000
AAXX 21121 76683 32962 00000 10050 20035 37820 40188 55005 91145 33310233 20050 30025 50251 55098 21731 58002 70000
AAXX 21121 76684 06/// /0000 10040 20024 37823 40242 53005 60001 7////8//// 91150 333 0//// 10248 20040 30/// 4//// 50309 54///55094 56/// 57/// 58004 60007 70000 8//// 8//// 8//// 9/
AAXX 21121 76685 32950 00000 10078 20045 37856 40136 57012 91156 33310238 20076 30042 58005 70000
AAXX 21121 76687 32962 02201 10122 20109 38665 40157 53001 91135 33310270 20116 30104 58024 70000
AAXX 21121 76692 31520 62301 10201 20191 30116 40135 52003 74041 865//91145 333 10277 20199 30/// 568// 58027 70000 86628
AAXX 21121 76693 06/// /2201 10202 20189 30116 40135 53003 60001 7////8//// 91150 333 0//// 10277 20199 30/// 4//// 50209 5500056/// 57/// 58028 60007 70000 8//// 8//// 8//// 8//// 9/
AAXX 21121 76695 32156 21402 10207 20203 30114 40119 52003 82600 91148333 10326 20205 30195 562// 59001 70000 82701
AAXX 21121 76698 32558 20000 10207 20203 30134 40146 5//// 82200 91150333 10322 20207 30178 56300 58004 70000 82820
AAXX 21121 76727 06/// /3501 10129 20055 38382 40129 53005 60001 7////8//// 91150 333 0//// 10274 20128 30/// 4//// 50219 54///55000 56/// 57/// 58003 60007 70000 8//// 8//// 8//// 9/
AAXX 21121 76737 32980 03201 10110 20089 38760 40147 55001 91135 33310293 20110 30093 58025 70000
AAXX 21121 76738 06/// /3301 10106 20090 38761 40169 55000 60001 7////8//// 333 10305 20105 30/// 50259 55000 56/// 57/// 5802760007 70000 8//// 8//// 8//// 8//// 9//// 9//// 9//// 44
AAXX 21121 76743 31940 01101 10205 20169 30109 40117 53005 70000 91150333 10300 20205 30185 56/// 58006 70000
AAXX 21121 76750 32560 13201 10215 20205 30122 40132 5//// 81100 91250333 10308 20211 30190 56100 59003 70000 81820
AAXX 21121 76751 06/// /0000 10210 20209 30123 40134 53004 60001 7////8//// 91150 333 0//// 10305 20210 30/// 4//// 50219 54///55000 56/// 57/// 59002 60007 70000 8//// 8//// 8//// 9/
AAXX 21121 76772 06/// /1601 10074 20058 38417 40195 53002 60001 7////8//// 91150 333 0//// 10279 20070 30/// 4//// 5///9 5500056/// 57/// 59002 60007 70000 8//// 8//// 8//// 9//// 9/
AAXX 21121 76773 32940 01701 10076 20060 38413 40137 52004 91148 33310276 20061 30052 50441 55101 59007 70000
AAXX 21121 76775 31560 20301 10122 20083 38512 40148 52002 70300 8240091145 333 10296 20118 30/// 56800 59008 70000 82627
AAXX 21121 76776 06/// /0302 10118 20082 38498 40160 53004 60001 7////8//// 91150 333 0//// 10313 20116 30/// 4//// 50369 5509356/// 57/// 59001 60007 70000 8//// 8//// 8//// 9//// 9/
AAXX 21121 76805 32960 23201 10224 20221 30107 40111 55005 80008 91150333 10312 20220 30214 56/// 59008 70000 82262
AAXX 21121 76806 06/// /3202 10225 20212 30109 40113 55003 60001 7////8//// 91150 333 10309 20223 30216 30/// 50219 55000 56///57/// 59006 60007 70000 8//// 8//// 8//// 8//// 9//// 9/
AAXX 21121 76833 31865 43001 10231 20222 30106 40108 57001 70111 8401091155 333 10306 20220 30211 56090 59005 70000 84458 92021
AAXX 21121 76840 32920 00000 10204 20192 30052 40108 5//// 91140 33310350 20170 30/// 55098 59009 70000
AAXX 21121 76843 32965 00000 10196 20172 39478 40117 52008 91140 33310326 20192 30180 58000 70000
AAXX 21121 76845 32940 00000 10060 20056 37946 40225 5//// 91150 33310228 20054 30044 58004 70000
AAXX 21121 76848 32950 03201 10116 20054 38371 40095 58002 91150 33310272 20109 30063 58004 70000 96722
AAXX 21121 76902 06/// /0202 10230 20204 39972 40111 57001 60001 7////8//// 91150 333 0//// 10328 20230 30/// 4//// 50399 54///56/// 57/// 59015 60007 70000 8//// 8//// 8//// 8//// 9/
AAXX 21121 76243 32470 81801 10082 20051 39872 40173 54000 884// 91140333 10140 20052 30046 563// 58014 70000 88616
AAXX 21121 76311 32920 00000 10054 20048 39858 40142 50001 91148 33310251 20052 30042 58012 70000
AAXX 21121 76405 32940 00000 10136 20114 30126 40148 52002 91150 33310242 20125 30119 58003 70000
AAXX 21121 76412 32960 02201 10128 20080 30109 40156 57002 91145 33310265 20120 30/// 58015 70000
AAXX 21121 76525 32460 21809 10062 20035 37438 40112 57004 81600 91150333 10161 20058 30024 55089 22713 565// 59001 70000 82711
AAXX 21121 76640 31010 63201 10200 20197 30137 40148 57010 70311 8427/91145 333 10276 20196 30192 5699/ 58038 70000 84801
AAXX 21121 76647 32965 00901 10214 20211 30120 40151 50005 91150 33310320 20208 30198 58002 79999
AAXX 21121 76656 31/00 90000 10098 20092 38495 40149 54000 74544 889//91150 333 10255 20085 30048 58000 70000
AAXX 21121 76741 31240 33203 10230 20216 30091 40109 52005 70340 8320091135 333 10315 20200 30196 568// 58016 70000 83806
BBXX 46214 21121 99379 71235 46/// ///// 1//// 91155 22200 00117 11507 21004 330// 41505 70033
BBXX 46224 21121 99332 71175 46/// ///// 1//// 91136 22200 00147 11402 20501 323// 41401 70008
BBXX 46219 21121 99332 71199 46/// ///// 1//// 91158 22200 00139 11705 21003 331// 41704 70025
BBXX 41113 21121 99284 70805 46/// ///// 1//// 91151 22200 00210 10603 20603 308// 41301 70014
BBXX 41112 21121 99307 70813 46/// ///// 1//// 91151 22200 00163 10602 20602 309// 41201 70011
BBXX 41110 21121 99341 70777 46/// ///// 1//// 91151 22200 00137 10602 20602 310// 41301 70010
BBXX UFTA 21121 99849 71236 41497 40504 11248 21276 40041 52004 70283 84500 333 11124
BBXX 46218 21121 99345 71208 46/// ///// 1//// 91202 22200 00138 11705 21003 331// 41704 70027
BBXX 46236 21121 99368 71219 46/// ///// 1//// 91150 22200 00124 11404 20902 328// 41403 70019
BBXX 46225 21121 99329 71174 46/// ///// 1//// 91144 22200 00145 11402 20901 327// 41401 70010
BBXX 46243 21121 99462 71241 46/// ///// 1//// 91159 22200 00079 11406 21004 326// 41404 70029
BBXX 46213 21121 99403 71247 46/// ///// 1//// 91154 22200 00099 11309 20806 329// 41306 70043
BBXX 46232 21121 99325 71174 46/// ///// 1//// 91138 22200 00150 11403 21002 328// 41402 70013
BBXX 46215 21121 99352 71209 46/// ///// 1//// 91138 22200 00150 11303 21002 327// 41303 70017
BBXX 46229 21121 99438 71246 46/// ///// 1//// 91151 22200 00099 11408 21004 329// 41407 70040
BBXX 46247 21121 99378 71228 46/// ///// 1//// 91151 22200 00110 11405 21003 329// 41404 70024
BBXX 44011 21121 99411 70666 46/// /1506 10048 21003 40249 54000 91150 22200 00091 10803 20501 3//// 40803 70017 333 91207 555 11057 22059 31128 43307 61149 153055 147054 154053 150050 155050 154057
BBXX 42363 21121 99282 70892 46/// /2108 10228 20200 40156 53003 91200 333 91209
BBXX 42364 21121 99291 70881 46/// /2104 10222 20200 40156 53003 91200
BBXX 41009 21121 99285 70802 46/// /1509 10236 20167 40215 53008 91150 22200 00246 11203 20502 300// 41202 70015 333 91211 555 11100 22106
BBXX 41046 21121 99238 70683 46/// /0709 10226 20180 40232 53015 91150 22200 00255 11507 20604 300// 41506 70036 333 91211 555 11096 22101 31120 40612 61149 069090 076085 067088 058085 062080 063082 80710 91143
BBXX 42057 21121 99168 70815 46/// /0911 10279 20208 40135 51009 91150 22200 00278 10805 20504 3//// 40803 70023 333 91213 555 11111 22118 31054 40913 61149 092110 088113 090116 086112 086110 089113 80913 91054
BBXX 41010 21121 99289 70785 46/// /1508 10227 40223 51009 91150 22200 00237 10604 20603 300// 41102 70018 333 91209 555 11083 22087
BBXX 46061 21121 99602 71468 46/// /2112 10050 49988 53004 91150 22200 00061 11207 20705 300// 41204 70034 333 91214 555 11125 22133 31117 42015 61149 206116 204122 212110 207120 208116 211106
BBXX 46083 21121 99582 71380 46/// /1812 10055 20019 40215 55010 91150 22200 00062 11107 20705 300// 41104 70033 333 91214 555 11124 22133 31054 41715 61149 181117 183118 182122 184126 184126 175122 81914 91112
BBXX 51101 21121 99243 71621 46/// /0609 10229 20170 40199 58008 91150 22200 00239 11006 20704 307// 41005 70029 333 91211 555 11095 22100 31147 40611 61149 061087 055085 059081 061080 058077 062085
BBXX 46042 21121 99368 71224 46/// /0903 10108 40180 55000 91150 22200 00125 11606 20401 330// 41606 70030 333 91204 555 11030 22031 31127 40904 61149 090029 087027 073028 033014 038013 028009
BBXX 46089 21121 99459 71258 46/// /3406 10084 20040 40312 50000 91150 22200 00089 11407 20502 329// 41407 70034 333 91208 555 11062 22066 31053 43309 61149 339058 346061 350058 354061 348060 348064
BBXX 42002 21121 99258 70937 46/// /1804 10240 20225 40138 53003 91150 22200 00238 10703 20401 310// 40703 70017 333 91205 555 11039 22041 31054 41906 61149 179039 184043 187045 190045 191046 192048
BBXX C6FN4 21124 99216 70849 41797 11124 10250 20207 40150 54000 7//11 81200 22274 04280 20203 31099 40204 50101 6//// 80220 ICE /////
BBXX C6FN2 21124 99214 70859 41696 53613 10230 20216 40140 54000 7//// 85555 22284 04280 20203 3//// 40203 50203 6//// 80220 ICE /////
BBXX WDE4432 21124 99277 70848 41598 11718 10210 2021/ 40167 56013 70200 81160 22273 0//// 20302 317// 40404 5//// 6//// 80210 ICE /////
BBXX C6JS 21123 99332 70428 41598 62822 10190 2012/ 40210 53010 70322 872// 22254 20705 328// 40804 5//// 80150
BBXX PBIG 21124 99105 70778 41498 40639 10270 20224 40092 52010 70200 83140 22223 00275 20904 305// 40904
BBXX PGQI 21123 99361 70743 41397 82320 10202 20153 40200 56008 76262 8472/ 22284 20402 308// 41003 80171
BBXX 44020 21121 99414 70702 46/// /1607 1//// 40204 58012 91150 22200 00076 333 91208 555 11075 22080
BBXX 44040 21121 99410 70736 46/// /1101 10082 20069 40189 91145 22200 1//00 70000 333 91202 555 11015 22015
BBXX C6CU6 21123 99274 70650 41597 70813 10203 20165 40281 51002 70222 86561 22263 04240 21007 301// 41506 5//// 80180
BBXX BAREU05 21124 99461 70731 46/// ///// 40151 57011 22252
BBXX BAREU04 21124 99496 70469 46/// ///// 49962 52044 22253
BBXX BAREU54 21124 99113 70810 46/// ///// 40086 52004 22213
BBXX BAREU11 21124 99303 70551 46/// ///// 40263 52010 22214
BBXX 46054 21121 99342 71204 46/// /3109 10121 40166 50000 91150 22200 00135 11304 20602 300// 41304 70021 333 91210 555 11091 22096 31128 43010 61149 309085 307085 304088 301085 300079 297073
BBXX 46025 21121 99337 71191 46/// /3107 10142 20120 40151 54000 91150 22200 00152 11402 20501 327// 41401 70010 333 91208 555 11070 22073 31108 43108 61149 308066 308064 309064 312068 313069 316066
BBXX 46028 21121 99357 71219 46/// /3004 10121 40172 58003 91150 22200 00127 11606 20401 330// 41606 70028 333 91205 555 11039 22040 31121 43006 61149 301037 310041 307043 306040 304039 311035
BBXX 46029 21121 99461 71245 46/// /3507 10085 20030 40301 50000 91150 22200 00085 11407 20502 328// 41407 70036 333 91208 555 11070 22075 31058 43209 61149 348066 351068 342063 341067 338070 334071
BBXX 46012 21121 99374 71229 46/// /3402 10099 40184 52005 91150 22200 00122 11405 20401 329// 41405 70025 333 91203 555 11022 22022 31115 43104 61149 346020 330021 317019 314021 330018 327018
BBXX 46087 21121 99485 71247 46/// /1401 10065 20024 40296 53010 91150 22200 00076 11406 20401 327// 41406 70032 333 91202 555 11011 22012 31052 40905 61149 136010 118012 108017 133019 127019 101024
BBXX 46013 21121 99382 71233 46/// /2101 10074 40184 51004 91150 22200 00110 11506 20401 3//// 41506 70029 333 91202 555 11007 22007 31054 43004 61149 211007 198005 207007 201007 314012 314024
BBXX 46069 21121 99337 71202 46/// /3008 10127 40168 57003 91150 22200 00140 11405 20702 329// 41404 70024 333 91209 555 11083 22087 31124 43110 61149 303078 309078 307080 310076 311074 313072
BBXX 46088 21121 99483 71232 46/// /0202 10072 40294 91150 22200 00078 1//00 70002 333 91204 555 11024 22025 31117 43304 61149 016025 015032 347031 316021 208011 329004
BBXX 46027 21121 99419 71244 46/// /3410 10091 40234 54000 91150 22200 00090 11507 20704 328// 41506 70036 333 91212 555 11106 22113 31103 43613 61149 345100 346101 347098 348105 351107 349103
BBXX 46050 21121 99442 71246 46/// /0107 10089 40301 52004 91150 22200 00098 11508 20702 329// 41508 70041 333 91209 555 11079 22083 31122 40111 61149 012076 006076 001084 354083 006086 004087
BBXX VOLG 21124 99465 70571 46/// /3024 11014 21064 40174 51052 7//// 8//// 22263 0//// 2////
BBXX VCWL 21124 99456 70735 46/// /0102 11061 21086 40151 55005 7//// 8//// 22200 0//// 2////
BBXX VAAZ 21124 99537 70523 46/// /3122 11036 21084 40046 51029 7//// 8//// 22281 0//// 2////
BBXX CGUM 21124 99448 70622 46/// /2610 11046 21092 40241 53006 7//// 8//// 22212 0//// 2////
BBXX CZ9742 21124 99506 70969 46/// /3107 11032 21046 40061 51021 7//// 8//// 22200 0//// 2////
BBXX BATEU08 21124 99607 70486 46/// /3308 11041 21075 49932 50006 22273
BBXX 44007 21121 99435 70701 46/// /2604 10011 21032 40199 58005 91150 22200 00073 10502 20301 3//// 40501 70008 333 91205 555 11036 22037 31123 42705 61149 258034 269038 274033 273035 277033 277029
BBXX 46026 21121 99378 71228 46/// /0000 10092 40184 52005 91150 22200 00109 11505 20401 330// 41505 70023 333 91201 555 11004 22004 31106 42903 61149 351005 312004 314007 308013 310011 316016
BBXX 46041 21121 99474 71247 46/// /3506 10079 40295 52007 91150 22200 00087 11408 20502 3//// 41407 70038 333 91207 555 11062 22065 31149 43508 61149 353059 345065 347063 345064 349063 349064
BBXX 46077 21121 99579 71543 46/// /2307 10013 20005 40015 53024 91150 22200 00043 11404 20603 3//// 41403 70021 333 91208 555 11074 22077 31111 42114 61149 233071 234074 218094 212115 209111 213097 82212 91114
BBXX 46082 21121 99597 71434 46/// ///// 10053 40052 56030 91150 22200 00064 11010 70052
BBXX 46072 21121 99517 71722 46/// /2709 10015 21002 40032 54000 91150 22200 00047 11006 20703 3//// 41006 70032 333 91211 555 11093 22098 31130 42613 61149 265089 262102 244092 208045 205037 213037 82612 91130
BBXX 46035 21121 99571 71778 46/// /2906 1//// 49974 53011 91150 22200 11105 20402 300// 41104 70024 333 91208 555 11062 22066 31118 42809 61149 288062 287067 280071 284069 286073 284069 82808 91102
BBXX 41040 21121 99145 70530 46/// /0611 10261 20232 40154 53020 91150 22200 00279 10605 20604 3//// 40902 70024 333 91213 555 11112 22118 31103 40313 61149 060104 043096 039101 036099 032107 027102 80412 91108
BBXX 42039 21121 99288 70860 46/// /1611 10233 40153 53004 91150 22200 00228 10806 20806 70029 333 91213 555 11113 22121 31114 41614 61149 159106 159111 160115 158121 157112 158108 81613 91114
BBXX CGDS 21124 99450 70746 46/// /0601 11011 21034 4//// 5//// 7//// 8//// 22200 0//// 2////
BBXX 41101 21124 99146 70562 46/// /0522 10264 20216 40146 52016 22200 00271 10704 70022 555 1/026
BBXX BAREU06 21124 99460 70549 46/// ///// 40168 52027 22224
BBXX BATEU05 21124 99583 70369 46/// /3219 10012 21003 49905 53042 22222
BBXX BATFR14 21124 99342 70379 44597 40007 10199 20157 40199 51021 70200 84299 22214 00210 20502 312// 40906 5////
BBXX 41043 21121 99211 70650 46/// /0809 10247 20180 40211 53014 91150 22200 00262 11307 20705 300// 41306 70036 333 91212 555 11100 22105 31052 40813 61149 078095 076097 082103 076107 075109 076108 80812 91052
BBXX 41036 21121 99342 70770 46/// ///// 10206 20156 40214 55000 91150 22200 00188 10603 70014
BBXX 44066 21121 99396 70726 46/// /1906 10140 20109 40193 57013 91150 22200 00130 11202 20501 3//// 41202 70011 333 91208 555 11070 22077 31141 41908 61149 186064 187064 186059 189060 192060 193062
BBXX 41047 21121 99275 70715 46/// /1108 10227 40252 52005 91150 22200 00249 11406 20602 305// 41405 70028 333 91210 555 11079 22083 31149 41110 61149 109079 108077 112075 103071 101069 103068 81209 91150
BBXX 42003 21121 99260 70856 46/// /1409 1//// 91150 22200 10804 20603 313// 40802 70021 333 91210 555 11092 22098 31126 41311 61149 135088 137094 136094 129089 133085 136089 81410 91127
BBXX 44060 21121 99413 70721 46/// ///06 10093 40193 56016 91200 22200 00100 333 91207 555 11062 22067
BBXX 44008 21121 99405 70692 46/// /1407 10103 20071 40220 58008 91150 22200 00109 10703 20501 325// 40702 70014 333 91208 555 11069 22073 31050 41408 61149 138067 133065 131067 127068 127070 127065
BBXX WNGW 21124 99588 71521 41798 12339 10039 2//// 40000 57030 7//// 80/6/ 22253 02044 2//// 323// 40507 5//// 6//// 8//// ICE /////
BBXX 9VVN 21124 99543 71739 41897 42810 10020 2103/ 40050 51015 70211 844// 22224 04040 2//// 3//// 4//// 5//// 6//// 80000
BBXX PFRO 21124 99202 70667 41498 40725 10245 20207 40188 52/// 7//22 8/26/ 22274 20608 80220
BBXX A8JX8 21121 99476 71710 41598 52911 10035 21001 40080 51010 7//22 8358/ 22224 20506 322// 40506 5//// 80020
BBXX VOKF 21124 99490 70669 46/// /1908 11052 21161 40127 56017 7//// 8//// 22200 0//// 2////
BBXX CGSB 21124 99488 70676 46/// /1812 11091 21143 40139 56011 7//// 8//// 22200 0//// 2////
BBXX VCLM 21124 99484 70693 46/// /2230 11029 21057 40112 56016 7//// 8//// 22253 00015 2////
BBXX 44039 21121 99411 70727 46/// /1805 10094 20068 40199 91145 22200 00093 10201 70003 333 91206
BBXX CGDG 21124 99447 70636 46/// /2206 11055 21027 40240 51005 7//// 8//// 22200 0//// 2////
BBXX WGEB 21123 99213 71643 41298 30608 10233 2015/ 40180 5//// 70211 838// 22225 00244 2//// 3//// 4//// 5//// 6//// 80183 ICE /////
BBXX WDE9586 21123 99443 71367 43/98 /1712 10120 2010/ 40307 54000 7//// 8//// 22214 00110 2//// 3//// 4//// 5//// 6//// 80110 ICE /////
BBXX HZRX 21123 99248 70846 41897 51316 /// 10035 20210 40158 57015 70222 85000 22273 10190 20303 31616 40101 5//// 6//// 80190 ///// /////
BBXX 9HA2583 21124 99215 70648 41898 50733 1//// 2//// 40190 54/// 7//// 83865 22274 04271 2//// 3//// 4//// 5//// 6//// 8//// ICE /////
BBXX VCSZ 21124 99481 70695 46/// /2029 11029 21032 40137 58016 7//// 8//// 22214 0//// 2////
BBXX VOPP 21124 99456 70735 46/// /3503 11063 21071 4//// 5//// 7//// 8//// 22200 0//// 2////
BBXX VCRG 21124 99463 70623 46/// /2606 11077 21102 40226 51008 7//// 8//// 22200 0//// 2////
BBXX 3FZK3 21124 99493 71303 46/// /0504 10072 20030 40298 58001 7//// 8//// 22233 0//// 2////
BBXX CGTF 21124 99476 70527 46/// /1711 11023 21053 40121 53043 7//// 8//// 22200 0//// 2////
BBXX CGDX 21124 99490 70669 46/// /2008 11049 21156 40132 56014 7//// 8//// 22200 0//// 2////
BBXX VOKJ 21124 99501 70630 46/// /2211 11063 21096 40130 58014 7//// 8//// 22264 0//// 2////
BBXX CG2958 21124 99517 71281 46/// /0805 10023 20022 40333 51003 7//// 8//// 22200 0//// 2////
BBXX CGDR 21124 99492 71239 46/// /3313 10061 20031 40296 51013 7//// 8//// 22200 0//// 2////
BBXX CGBN 21124 99447 70636 46/// /2101 11051 21090 40227 51006 7//// 8//// 22200 0//// 2////
BBXX CG2965 21124 99487 71235 46/// /2604 10035 20016 40301 53017 7//// 8//// 22200 0//// 2////
BBXX VCBW 21124 99488 70643 46/// /2904 11094 21146 40152 55005 7//// 8//// 22241 00026 2////
BBXX CGBR 21124 99526 71285 46/// /2602 10014 20013 40331 51005 7//// 8//// 22200 0//// 2////
BBXX CGDT 21124 99468 70712 46/// /2504 11100 21114 40175 55001 7//// 8//// 22200 0//// 2////
BBXX CGJK 21124 99484 71234 46/// /0102 10011 20003 40299 53017 7//// 8//// 22200 0//// 2////
BBXX VXKF 21124 99475 70592 46/// /2722 11029 21084 40178 52010 7//// 8//// 22214 0//// 2////
BBXX CGBY 21124 99487 71235 46/// /2704 10036 20017 40300 53018 7//// 8//// 22200 0//// 2////
BBXX VAAP 21124 99447 70636 46/// /2405 11055 21082 40231 51004 7//// 8//// 22200 0//// 2////
BBXX VOFG 21124 99456 70614 46/// /2506 11077 21102 40233 53022 7//// 8//// 22200 0//// 2////
BBXX 41048 21121 99320 70696 46/// /2103 10192 20112 40278 53013 91150 22200 00227 11303 20401 3//// 41303 70017 333 91205 555 11032 22033 31130 42306 61149 213033 223039 215036 219034 225033 225042 82405 91130
BBXX 42012 21121 99301 70876 46/// /1103 10210 20204 40144 55000 91150 22200 00208 10703 20401 316// 40702 70013 333 91203 555 11028 22031 31050 41306 61149 112026 114028 114025 125025 126036 136046
BBXX 42001 21121 99259 70897 46/// /1708 10247 20224 40161 55000 91150 22200 00254 10803 20602 3//// 40802 70014 333 91210 555 11089 22095 31058 41710 61149 172084 171085 168084 169083 169083 166086
BBXX 42040 21121 99292 70882 46/// /2104 10221 40146 53005 91150 22200 00227 10904 20401 316// 40903 70018 333 91205 555 11043 22045 31142 42105 61149 210043 217041 212041 207040 211034 223032
BBXX 44005 21121 99432 70691 46/// /1911 10057 21002 40197 58010 91150 22200 00085 10503 20503 3//// 40901 70014 333 91214 555 11117 22123 31148 42014 61149 191109 190110 185104 187102 189099 189096
BBXX 42059 21121 99151 70675 46/// /0711 10274 20201 40149 53015 91150 22200 00277 10806 20806 70030 333 91213 555 11119 22127 31134 40714 61149 070109 067111 068108 065096 067105 063104 80712 91140
BBXX 42019 21121 99279 70954 46/// /0207 10163 20102 40150 55000 91150 22200 10703 20502 315// 40701 70013 333 91209 555 11079 22084 31140 42810 61149 009074 288074 287074 287074 287074 290076
BBXX 42056 21121 99198 70849 46/// /1210 10268 20237 40142 53003 91150 22200 00273 10804 20804 70022 333 91211 555 11107 22113 31103 41112 61149 115099 115097 111097 112100 112097 107103 81211 91103
BBXX 42036 21121 99285 70845 46/// /1611 10220 20186 40177 53008 91150 22200 00215 10705 20705 70024 333 91213 555 11115 22124 31110 41614 61149 161106 159109 160112 160103 158106 160102
BBXX 42058 21121 99149 70749 46/// /0813 10271 20213 40120 53013 91150 22200 00278 10907 20706 309// 40904 70035 333 91216 555 11144 22153 31055 40817 61149 083131 087121 081128 077124 078128 081132 80915 91132
BBXX 42060 21121 99163 70635 46/// /0509 10261 20214 40168 53017 91150 22200 00276 10605 20605 300// 41001 70024 333 91211 555 11096 22101 31057 40513 61149 047091 043100 047100 039103 041101 045104 80412 91100
BBXX 42035 21121 99292 70944 46/// /3609 10107 20053 40162 53010 91150 22200 00157 10402 20402 314// 40801 70009 333 91211 555 11095 22099 31147 43611 61149 356090 000084 002089 002090 002087 001091
BBXX 41044 21121 99217 70587 46/// /0711 10247 20158 40219 53018 91150 22200 00261 333 91213 555 11114 22121
BBXX 41001 21121 99347 70727 46/// ///// 10211 20147 40236 52004 91150 22200 00222 10603 70017
BBXX 41012 21121 99300 70805 46/// /1907 10219 40208 54000 91150 22200 00229 10503 20502 310// 41201 70013 333 91208 555 11073 22077 31102 42009 61149 193069 194067 194073 198070 197074 202073
BBXX 42020 21121 99270 70967 46/// /0407 10176 20108 40151 56004 91150 22200 00234 10703 20703 70014 333 91209 555 11075 22078 31137 40310 61149 040072 029075 031066 037064 037068 032067
BBXX 42055 21121 99222 70940 46/// /1004 10247 20215 40127 54000 91150 22200 00252 10602 20401 313// 40601 70008 333 91204 555 11039 22040 31140 41004 61149 105038 105033 111034 112034 109035 107035 81004 91140
BBXX NWS0022 21124 99416 70714 43/// /1909 10102 20071 40190 5//// 7//// 8//// 222// 04113 2//// 3//// 4//// 5//// 6//// 8//// ICE /////
BBXX C6OT4 21124 99181 71456 41295 41125 10221 20206 40138 57021 70211 84213 22223 04241 20206 30711 41107 50308 80211
BBXX DCLH2 21123 99234 71172 41/98 43011 10174 20120 40142 57013 70211 8//// 22263 06200 2//// 3//// 4//// 5//// 80142
BBXX CG2350 21124 99433 70798 46/// /0202 10025 20007 40095 56023 7//// 8//// 22200 0//// 2////
BBXX CG2960 21124 99423 70830 46/// /0605 10042 20041 4//// 5//// 7//// 8//// 22200 0//// 2////
BBXX WDE3569 21124 99419 70873 43/92 92806 10038 2//// 40034 5//// 7//// 8//// 22253 00056 20000 3//// 4//// 5//// 6//// 8//// ICE /////
BBXX 46086 21121 99325 71180 46/// /3205 10148 40156 50000 91150 22200 00150 11403 20401 328// 41403 70016 333 91206 555 11053 22056 31055 42908 61149 318050 318049 316054 311048 298056 295062
BBXX 46047 21121 99324 71195 46/// /3007 10133 40167 50000 91150 22200 00134 11304 20502 330// 41304 70019 333 91208 555 11070 22075 31050 43008 61149 300067 305063 308067 310063 312058 311063
BBXX 46011 21121 99350 71210 46/// /3402 10110 40178 50000 91150 22200 00137 11504 20401 330// 41504 70018 333 91203 555 11016 22017 31051 40104 61149 348015 017014 031018 043024 038024 021029
BBXX 46014 21121 99394 71240 46/// /0105 10106 40183 54000 91150 22200 00108 11407 20402 3//// 41407 70036 333 91206 555 11050 22052 31127 43507 61149 006048 001053 352057 347051 353053 358056
BBXX 46105 21121 99590 71522 46/// ///// 1//// 91150 22200 11306 70030
BBXX 46005 21121 99461 71310 46/// ///02 10080 40333 50000 91150 22200 00099 11306 20401 3//// 41306 70031 333 91203 555 11015 22016
BBXX 46075 21121 99539 71608 46/// /2007 10038 21017 40063 51011 91150 22200 00053 11309 20603 300// 41308 70044 333 91209 555 11075 22079 31137 42010 61149 205072 208080 214071 212074 216070 221059 82209 91132
BBXX 46059 21121 99380 71300 46/// /0211 10123 40272 58004 91150 22200 00145 11408 20906 3//// 41406 70042 333 91213 555 11113 22119 31119 40213 61149 017107 019104 012101 017107 017100 023104
BBXX 46080 21121 99580 71500 46/// /2411 10045 21020 40047 51035 91150 22200 00052 11109 20606 3//// 41107 70046 333 91214 555 11119 22126 31132 42315 61149 243112 242119 248115 244117 248100 249100 82413 91120
BBXX 46002 21121 99426 71305 46/// ///// 10100 40322 50000 91150 22200 00118 11307 70034
BBXX 46084 21121 99566 71361 46/// /0000 10060 20013 40254 57010 91150 22200 00070 333 91200 555 31051 41813 61149 000000 170098 172096 176097 171094 171106
BBXX 46006 21121 99408 71375 46/// /1405 10120 40316 56011 91150 22200 00125 11105 20401 3//// 41105 70025 333 91206 555 11053 22055 31104 41307 61149 136049 128050 139045 143047 133046 131041
BBXX 44065 21121 99404 70737 46/// /1606 10109 20095 40182 56015 91150 22200 00093 11202 20401 311// 41202 70010 333 91206 555 11063 22072 31138 41606 61149 161057 160055 156052 154055 150048 153047 81606 91142
BBXX 44022 21121 99409 70737 46/// ///02 10076 20055 40182 91145 22200 00078 333 91202 555 11015 22015
BBXX 44014 21121 99366 70748 46/// /2105 1//// 40211 53003 91150 22200 00145 11302 20301 307// 41302 70011 333 91206 555 11051 22051 31107 42107 61149 206051 207048 203049 205054 204058 206051
BBXX 44060 21121 99413 70721 46/// ///06 10092 40196 91145 22200 00099 333 91207 555 11062 22062
BBXX 41013 21121 99334 70777 46/// /1909 10217 20158 40211 55000 91150 22200 00208 10603 20603 312// 41101 70017 333 91211 555 11093 22101 31127 41911 61149 190088 190089 187091 187089 186089 187088
BBXX 44027 21121 99443 70673 46/// /2110 10037 21027 40204 56013 91150 22200 00082 10902 20502 3//// 40901 70012 333 91212 555 11107 22112 31105 42213 61149 209101 211102 213104 207100 215102 211097
BBXX 42065 21121 99149 70750 46/// /0811 10268 20218 91150 22200 10907 20906 3//// 41903 70033 333 91213 555 11117 22125 31149 40713 61149 076106 078105 079106 076098 077090 078100 80812 91149
BBXX 41060 21121 99148 70510 46/// ///// 1//// 91150 22200 10604 70022
BBXX 41049 21121 99275 70630 46/// /0706 10205 20117 40272 53012 91150 22200 00235 11306 20502 300// 41306 70031 333 91208 555 11064 22066 31121 40609 61149 069061 067062 058066 064062 073049 078051 80607 91123
BBXX A8ID9 21124 99075 71550 41397 80423 10250 20222 40095 56010 76166 8771/ 22214 04280 2//// 305// 41004 5//// 80230
BBXX 3FBC9 21124 99081 71115 41697 62018 10240 40050 56006 70222 86562 9//// 22233 00280 20303 314// 41204 5//// 6//// 80220
BBXX DDAC2 21120 99165 71010 41499 23003 10266 20228 40090 54000 7//00 8/100 22272 04293 20200 325// 40704 5//// 80239
BBXX FVNM 21124 99072 70797 46/// /3309 10257 20232 40090 51011 22211 00265
BBXX WDC6698 21124 99096 71439 43/// /0617 1//// 2//// 40080 5//// 7//// 8//// 222// 04257 2//// 3//// 4//// 5//// 6//// 8//// ICE /////
BBXX WDA7827 21124 99228 71580 41698 20624 10230 2019/ 40180 5//// 70200 828// 22200 00250 20502 308// 41007 5//// 6//// 80202 ICE /////
BBXX DGHJ 21123 99300 71625 41/98 32412 10220 20181 40225 56010 70200 83/// 22263 00220 2//// 3//// 4//// 5//// 80194
BBXX WABS 21124 99483 71252 41598 33614 10072 2002/ 40185 54000 7//11 83/3/ 22213 0//// 2//// 3//// 4//// 5//// 6//// 80050 ICE /////
BBXX KCGH 21123 99243 70731 43/// /0820 10228 2019/ 4//// 5//// 7//// 8//// 22211 0//// 2//// 3//// 4//// 5//// 6//// 80200 ICE /////
BBXX PHBO 21123 99161 70633 41/97 50718 10264 20213 40163 53018 70352 8427/ 22254 20502 304// 41003 80230
BBXX VRCI9 21124 99383 71701 41/98 /3020 10140 20064 40120 52030 70211 8//// 22234 00160 2//// 3//// 4//// 80100
BBXX WCZ5535 21124 99333 70360 41797 71830 10210 2018/ 40140 52015 70222 87/7/ 22223 0//// 20304 314// 40304 50304 6//// 80190 ICE /////
BBXX PBFM 21123 99126 70693 41394 80624 10279 20242 40132 52007 76422 887// 22254 20503 306// 41004 80252
BBXX WPGK 21124 99272 70690 41498 30713 10233 2019/ 40240 54000 70200 83800 22275 00256 20504 3//// 4//// 5//// 6//// 80206 ICE /////
BBXX PDAN 21124 99279 31593 41/98 61020 10230 40170 52015 70011 8//// 22254 00240 20704
BBXX BATEU07 21124 99260 31118 46/// /1822 10227 40128 51012 22284
BBXX BATFR35 21124 99167 51511 46/// /1310 10260 20209 40095 22262 00287
BBXX C6XC2 21124 99024 31325 41897 82714 10260 20246 40060 54/// 78066 886// 2226/ 00300 2//// 3//// 4//// 5//// 6//// 80250 ICE /////
BBXX A8YW2 21124 99103 30803 41598 60814 10295 20245 40060 57015 70322 84839 22213 00270 20202 316// 40801 80260
BBXX BATFR53 21124 99185 51767 46/// /0915 10279 20227 40112 58009 22222 00287
BBXX ONCE 21124 99239 30746 41298 61432 10240 2018/ 40175 57015 70222 85999 22214 00253 20106 311// 40908 5//// 6//// 80200 ICE /////
BBXX DBLK 21121 99705 50081 41499 32408 11029 21055 49764 57009 70210 82841 22200 05016 ICE 18780
BBXX SHIP 21124 99404 10270 41498 43208 10130 2007/ 40160 54000 70110 8428/ 22200 00120 20301 30909 40301 5//// 6//// 80100 ICE /////
BBXX DBBH 21121 99360 70083 41498 10105 10160 20119 40309 58002 70111 81101 22223 04178 20402 332// 40903
BBXX DEGI 21123 99363 70027 41698 32717 10170 20118 40250 50010 70100 83040 22263 04161 29903 80139
BBXX VRYO3 21124 99494 70158 46/// /0920 10136 20148 40281 50000 7//// 8//// 22264 00133 2////
BBXX DBND 21121 99536 10086 46/// //705 10053 20035 40132 52008 22260 00049
BBXX DBKR 21121 99541 10121 46/// /2903 10047 20047 40104 52012 22200 00041
BBXX DBBI 21121 99535 10100 46/// /2606 10044 20044 40123 52008 22230 00031
BBXX DBBA 21121 99541 10121 46/// /2805 10054 20040 40103 52009 22231 00034
BBXX DBBC 21121 99535 10100 46/// /2605 10044 2//// 40125 52008 22260 00035
BBXX A8QM9 21124 99375 70349 41397 71423 10190 20175 40190 54000 70382 8662/ 22263 04190 2//07 80180
BBXX DK7210 21121 99540 10066 46/// /3205 10078 20074 30122
BBXX WCDP 21124 99365 70279 43/// /1219 10190 2016/ 40270 57010 7//// 8//// 22264 00180 2//// 3//// 4//// 5//// 6//// 80170 ICE /////
AAXX 21124 78905 11478 60912 10253 20174 30149 40172 60002 703// 86201 333 10265 20253 58001 70012 86819
AAXX 21121 06414 16/// /1903 10063 20049 30132 40165 54000 60021 333 91105 91204
AAXX 21121 06459 16/// /1902 10049 20049 39986 40182 58005 60021 333 91106 91204
AAXX 21121 06494 16/// /2403 11001 21005 39370 40187 58001 69981 333 4/028 91106 91204
AAXX 21124 78016 31564 72708 10196 20147 30274 40278 52017 71611 87801 333 10191 20182 79999
BBXX TFBKF 21124 99635 70202 46/// ///// 22200 10505 70025
BBXX TFBLK 21124 99657 70248 46/// ///// 22200 10704 70021
BBXX TFDRN 21124 99658 70212 46/// ///// 22200 10400 70002
BBXX TFGRS 21124 99663 70182 46/// ///// 22200 10502 70010
BBXX TFGRV 21124 99638 70225 46/// ///// 22200 10605 70025
BBXX TFGSK 21124 99641 70229 46/// ///// 22200 10604 70021
BBXX TFHFN 21124 99642 70152 46/// ///// 22200 10603 70014
BBXX TFKGR 21124 99657 70136 46/// ///// 22200 10502 70008
BBXX TFSRT 21124 99633 70203 46/// ///// 22200 10905 70025
BBXX TFSTD 21124 99664 70234 46/// ///// 22200 10604 70019
AAXX 21124 91925 06/// /0204 10230 20196 30029 40090 56021 60001 333 10297 59008 60007 90710 91106 555 60005 10306
AAXX 21124 91929 04484 /1209 10258 20227 30098 40101 57026 69901 700// 333 60007 90710 91114 555 60005
AAXX 21124 91938 01465 80000 10255 20201 30107 40109 58017 60001 71591 8593/ 333 60007 82913 83820 85360 90710 91106 555 60005 10907
AAXX 21124 91943 16/// /0912 10267 20208 30088 40090 57028 69941 333 59013
AAXX 21124 91944 06/// /0915 10258 20197 30118 40121 56017 60001 333 60007 90710 91122 555 60005
AAXX 21124 91948 06/// /3603 10231 20197 30066 40169 57017 60021 333 10283 59005 60027 90710 91111 555 69925 11018
AAXX 21124 91954 06/// /1202 10237 20220 30137 40140 56019 60001 333 10296 59008 60007
AAXX 21124 91958 06/// /2102 10204 20191 30171 40173 56017 60001 333 10272 59004 60007 90710 91103 555 60005 12003
AAXX 21124 91945 NIL
BBXX 41041 21121 99142 70460 46/// /0806 10267 20208 40156 53016 91150 22200 00267 11003 20502 3//// 41003 70017 333 91207 555 11064 22068 31102 40909 61149 084060 086062 087064 088066 090067 088066 80907 91101
BBXX 41038 21121 99341 70777 46/// /1804 10164 40207 54000 91200 22200 00136 333 91205
BBXX 46001 21121 99563 71480 46/// /2608 10049 40097 51020 91150 22200 00050 11511 20604 300// 41510 70055 333 91210 555 11080 22085 31102 42511 61149 260076 260079 254076 261076 260081 260074
BBXX 51205 21121 99210 71564 46/// ///// 1//// 91148 22200 00241 10905 20904 332// 41302 70025
BBXX 46238 21121 99334 71195 46/// ///// 1//// 91150 22200 00144 11303 21003 329// 41302 70017
BBXX 46239 21121 99363 71221 46/// ///// 1//// 91151 22200 00135 11307 21004 330// 41305 70033
AAXX 21124 48698 01466 70103 10269 20244 30060 40078 60001 70522 81838 333 10301 50350 55009 60007 81818 84365 85278
AAXX 21124 68325 42660 6//// 10324 20142 48492 57021 86280
AAXX 21124 78866 01463 70914 10239 20200 30183 40188 52022 60021 78082 87430 333 10286 20228 58004 60017 70024 81814 85817 87635
BBXX 44172 21121 99445 70634 46/// ///// 1//// 91201 22200 00064 11002 21002 320// 41101 70009
BBXX 44097 21121 99410 70711 46/// ///// 1//// 91202 22200 00120 10803 20802 314// 41301 70013
BBXX 44022 21121 99409 70737 46/// ///01 10077 20057 40180 57021 91200 22200 00078 333 91202 555 11010 22010
AAXX 21124 48698 01466 70103 10269 20244 30060 40078 60001 70522 81838 333 10301 50350 55009 60007 81818 84365 85278
AAXX 21124 47101 11530 70001 11032 21038 30120 40220 54000 69912 71022 87500 333 10008 31104
AAXX 21124 47105 369// /2507 10037 21068 30158 40191 58005 333 10067 3/001
AAXX 21124 47108 12662 72705 10023 21065 30115 40223 52007 69922 87500 333 10052 31000
AAXX 21124 47115 11560 82510 10046 21014 39913 40187 55002 69922 76162 8652/ 333 10056 3/001 45/// 92033
AAXX 21124 47133 11658 62903 10046 21029 30145 40231 50004 69902 70522 86500 333 10069 31002
AAXX 21124 47138 31559 62002 10055 21025 30214 40217 50009 70522 86500 333 10093 30005 92021
AAXX 21124 47159 31959 52511 10061 21013 30132 40218 50001 70511 80001 333 10102 30003 92024
AAXX 21124 47165 11659 63406 10051 21027 30197 40244 51008 69902 70542 86500 333 10066 30002 92021
AAXX 21124 47168 32962 83211 10056 21011 30151 40231 51008 8801/ 333 10082 30002 92024
AAXX 21124 47184 11556 83409 10094 20035 30218 40243 52006 60022 76062 8572/ 333 10114 31008 92023
BBXX 46053 21121 99342 71198 46/// /2808 10130 40160 58005 91150 22200 00138 11402 20701 326// 41402 70012 333 91209 555 11083 22088 31050 42809 61149 278077 274076 273066 269061 268048 261040
BBXX 51003 21121 99193 71606 46/// /0509 10241 40141 56011 91150 22200 00257 10806 20604 3//// 40804 70031 333 91211 555 11094 22100 31115 40514 61149 047088 048102 045094 047103 045101 050103
BBXX PJFF 21124 99321 70349 41/98 /1909 10240 40220 54000 702// 8//6/ 22254 04180 2//// 30000 80020
BBXX OYGR2 21124 99322 10300 41598 20608 10180 20131 40189 53006 70200 81242 22224 04195 20303 80150
AAXX 21121 15502 12570 22704 10046 21028 30109 40149 58005 60001 82800 333 10050 21006 91117 555 559//
AAXX 21121 15525 12575 22905 10035 21028 39886 40156 58004 60001 82200 333 10049 20007 555 564//
AAXX 21121 15528 12970 12908 10036 21056 39938 40131 54000 60001 81030 333 10040 20000 555 551//
AAXX 21121 15535 11570 82506 10022 20000 30079 40126 51002 69981 70272 889// 333 10022 20000 45997 555 58600 69299
AAXX 21121 15549 12570 72704 11005 21026 39724 40152 52001 60001 87600 333 10001 21013 47005 555 584//
AAXX 21121 15552 11570 83212 10032 21019 30088 40138 52010 69901 76062 8652/ 222// 2//01 314// 4//01 333 10032 20022 555 56900 68099 71200 92026 92428
AAXX 21121 15614 12662 62702 10000 21031 39444 40167 58003 60001 86800 333 10010 21018 555 577//
AAXX 21121 15615 11988 22006 11108 21121 37003 47930 54000 60001 70341 80005 333 11108 21162 444 56286 555 590//
AAXX 21121 15626 12670 22705 10068 21018 39954 40143 52003 60001 82200 333 10068 20020 555 554//
AAXX 21121 15627 11989 13210 11099 21116 37511 47926 53006 60001 70100 81031 333 11098 21121 48006 444 66195 555 588//
AAXX 21121 15640 12676 12302 10068 21038 39827 40141 54000 60001 81200 333 10070 20026 555 547//
AAXX 21121 15655 12580 62302 10062 20011 30110 40143 52004 60001 86500 222// 00090 20000 333 10074 20034 555 570// 81284 92013 92418
AAXX 21121 15712 12580 51402 10082 21011 39900 40151 58013 60001 82201 333 10082 21002 555 552//
AAXX 21121 15730 12670 50000 10064 20026 39748 40141 58004 60001 83305 333 10067 20013 41/// 555 577//
BBXX PDAN 21124 99279 31593 41/98 61020 10230 40170 52015 70011 8//// 22254 00240 20704
AAXX 21124 47090 32665 42909 10041 21089 30165 40188 57008 84500 333 10061 3/000 42/// 92013
AAXX 21124 47095 01556 62303 11004 21032 30025 40219 52005 69952 71022 86500 333 10019 34101 70005
AAXX 21124 47097 129// /2303 10017 21022 30123 40221 58001 69932 333 10040 3/000
AAXX 21124 47098 129// /2003 10007 21051 30080 40217 52006 69942 333 10045 3/101
AAXX 21124 47099 129// /0001 11001 21045 30187 40224 52009 69902 333 10051 3/101
AAXX 21124 47100 12460 32714 11031 21067 39264 40204 57005 69952 83500 333 11016 3/103 49026
AAXX 21124 47102 12667 72912 10013 21090 30052 40234 52016 69902 87500 333 10045 30000
AAXX 21124 47104 32665 22504 10030 21083 30091 40189 57005 82500 333 10067 3/000 43003
AAXX 21124 47106 329// /0504 10035 21065 30144 40194 50001 333 10070 3/000
AAXX 21124 47112 12665 73209 10039 21033 30138 40223 51005 69902 87500 333 10065 31002 92023
AAXX 21124 47114 11640 71802 10011 21026 30031 40218 58003 69902 72272 87500 333 10016 30101
AAXX 21124 47119 11662 72903 10036 21017 30182 40225 53002 69932 72162 87500 333 10060 31101
AAXX 21124 47121 129// /0901 11015 21023 39920 40223 58001 69912 333 10022 3/102
AAXX 21124 47127 329// /2901 10012 21020 30081 40226 50001 333 10039 3/000
AAXX 21124 47129 11558 62306 10031 20006 30200 40236 50003 69942 72362 86500 333 10074 31002
AAXX 21124 47130 32662 22303 10039 21058 30138 40200 58001 82500 333 10078 30101 92022
AAXX 21124 47131 11658 72301 10032 21027 30156 40228 51006 69902 70522 87500 333 10069 30000
AAXX 21124 47135 329// /2707 10037 21031 39920 40222 50004 333 10064 3/000
AAXX 21124 47136 11650 62901 10015 21028 30046 40222 51007 69902 70522 83501 333 10068 30102
AAXX 21124 47137 329// /2503 10029 21034 30102 40222 50006 333 10067 3/101
AAXX 21124 47140 31658 62910 10053 21040 30208 40237 50006 70512 85500 333 10075 31001 92013
AAXX 21124 47143 31959 23204 10049 21046 30149 40229 52008 70511 80001 333 10082 30001
AAXX 21124 47145 12660 62704 10029 21005 30196 40223 50003 69902 86500 333 10073 34000
AAXX 21124 47146 11650 62003 10045 21023 30170 40237 50007 69912 70511 85500 333 10076 31003
AAXX 21124 47150 12660 62703 10060 21028 30213 40232 50005 69922 86500 333 10082 31002
AAXX 21124 47152 32963 32903 10035 21028 30173 40216 50004 80001 333 10102 30101
AAXX 21124 47154 329// /2905 10051 21024 30162 40223 50006 333 10083 3/001
AAXX 21124 47155 31956 60202 10050 21030 30177 40223 50004 70522 80001 333 10090 30000
AAXX 21124 47156 11630 60001 10035 20021 30156 40247 52009 69912 71022 85500 333 10064 31002
AAXX 21124 47157 31657 52705 10039 21036 39942 40214 50005 70542 83501 333 10063 30000
AAXX 21124 47162 31056 63608 10065 21011 30184 40225 50004 70501 80001 333 10086 30003 92022
AAXX 21124 47169 12662 73413 10070 21019 30151 40246 52009 69902 87500 333 10087 31004 92044
AAXX 21124 47170 11656 63205 10049 20006 30200 40244 52006 69902 70522 85500 333 10076 30003 92022
AAXX 21124 47171 129// /1101 10023 20001 30188 40244 52009 69922 333 10072 3/000
AAXX 21124 47172 129// /0000 10026 20009 30171 40239 52008 69952 333 10080 3/003
AAXX 21124 47173 329// /0000 11011 21023 30129 40244 50008 333 10047 3/000
AAXX 21124 47174 11615 61103 10007 21006 30030 40238 52005 69902 71022 85500 333 10077 31101
AAXX 21124 47175 11550 63411 10020 21014 39663 40246 52008 69942 71022 85500 333 10059 31000 92024
AAXX 21124 47185 12662 83218 10103 20039 30148 40239 51002 69952 8552/ 333 10113 31008 92025
AAXX 21124 47188 32662 83605 10085 20045 30212 40234 50005 8452/ 333 10125 31007 92022
AAXX 21124 47189 32665 83603 10104 20024 30169 40229 52003 8452/ 333 10130 30008 92022
AAXX 21124 47192 31656 40000 11011 21039 30195 40234 52011 71000 84500 333 10086 30000
BBXX UITJ 21121 99701 10162 41498 71006 10055 40039 54000 70222 878// 22253 00070 20402 30500 40803
AAXX 21121 14240 12962 21602 10016 21041 30004 40164 57012 60001 82030 333 70000
AAXX 21121 14258 12970 71502 10005 21062 39972 40165 58008 60001 87070 333 70000
AAXX 21121 14445 12984 11802 10077 21061 39983 40139 56013 60001 80001 222// 00145 333 70000 81099 92311
BBXX C6KD8 21123 99469 70097 41598 82917 10135 20118 40329 51025 70322 8477/ 22254 02130 20501 332// 41406 5//// 80126
AAXX 21124 78947 11580 70810 10263 20188 30159 40162 60032 70282 8110 333 00209 10280 20230 59001 70028 81826 87078
AAXX 21121 38353 42597 83201 11168 21202 39495 40497 53004 8553/
AAXX 21121 38613 NIL
AAXX 21121 38616 42597 71401 11076 21131 39330 40415 53002 87500
AAXX 21121 38345 42998 50000 11149 21200 38923 48581 53012 80002 555 1/113
AAXX 21121 36911 42998 80000 11149 21183 39415 40477 53003 8802/ 555 1/115
AAXX 21121 36974 426// 82702 11148 21175 38066 48646 53004 85530 555 17117
AAXX 21121 36982 425// 61401 11182 21223 36531 47189 53006 83540
AAXX 21124 78866 01463 70914 10239 20200 30183 40188 52022 60021 78082 87430 333 10286 20228 58004 60017 70024 81814 85817 87635
AAXX 21124 16622 12560 82804 10084 20004 30150 40160 57006 60001 81137 333 81825 83358 88268 90730 91114 555 30000 10090 2//// 30080 4//// 5//// 40000 47641 44200 50000 50052
AAXX 21124 16641 11460 80814 10090 20045 30096 40102 57030 69951 76162 8582/ 333 83818 85635 88458 90730 91123 555 40000 47599 44180 50000 50070 60000 60005 60130 70000 77R// 7R///
AAXX 21124 16682 12560 71414 10136 20051 30087 40106 57032 60001 83558 333 83625 84357 87268 90730 91122 555 30000 10125 20115 30110 40110 50134 60185 40000 47595 44190 50000 50096
AAXX 21124 16716 12570 40000 10150 20031 30127 40145 58016 60001 82152 333 82820 83070 555 40000 47624 44185 50000 50096
AAXX 21124 16734 12570 41104 10156 20081 30043 40106 57027 60001 82201 333 90730 91108 555 40000 47558 44155 50000 50118
AAXX 21124 16743 NIL
AAXX 21124 16749 11460 62407 10158 20097 30151 40166 57011 69951 70262 83845 333 82818 83625 86068 90730 91112 555 40000 47648 44235 50000 50126 70000 77/// 7R///
AAXX 21124 16754 12465 62015 10168 20091 30100 40147 56023 60001 84850 333 82818 83625 86358 90730 91117 555 40000 47607 44205 50000 50128
AAXX 21124 78866 01463 70914 10239 20200 30183 40188 52022 60021 78082 87430 333 10286 20228 58004 60017 70024 81814 85817 87635
BBXX LAHV 21121 99589 10057 43/// /0801 10002 21010 40127 222// 04078 1////
BBXX LF4H 21124 99596 10022 46/// /1406 10059 21010 40116 57002 8//// 22200 06083 10703 70017 333 91111
BBXX LMEL 21121 99603 10053 43/// /3002 11007 21011 40125 5//// 222/0 04086 1//// 3//// 4//// 5////
BBXX 3FZK3 21124 99493 71303 46/// /0504 10072 20030 40298 58001 7//// 8//// 22233 0//// 2////
BBXX 46013 21121 99382 71233 46/// /2101 10074 40184 51004 91150 22200 00110 11506 20401 3//// 41506 70029 333 91202 555 11007 22007 31054 43004 61149 211007 198005 207007 201007 314012 314024
BBXX 46026 21121 99378 71228 46/// /0000 10092 40184 52005 91150 22200 00109 11505 20401 330// 41505 70023 333 91201 555 11004 22004 31106 42903 61149 351005 312004 314007 308013 310011 316016
BBXX 46042 21121 99368 71224 46/// /0903 10108 40180 55000 91150 22200 00125 11606 20401 330// 41606 70030 333 91204 555 11030 22031 31127 40904 61149 090029 087027 073028 033014 038013 028009
BBXX CG2958 21124 99517 71281 46/// /0805 10023 20022 40333 51003 7//// 8//// 22200 0//// 2////
BBXX CG2965 21124 99487 71235 46/// /2604 10035 20016 40301 53017 7//// 8//// 22200 0//// 2////
BBXX CGBR 21124 99526 71285 46/// /2602 10014 20013 40331 51005 7//// 8//// 22200 0//// 2////
BBXX CGBY 21124 99487 71235 46/// /2704 10036 20017 40300 53018 7//// 8//// 22200 0//// 2////
BBXX CGDR 21124 99492 71239 46/// /3313 10061 20031 40296 51013 7//// 8//// 22200 0//// 2////
BBXX CGJK 21124 99484 71234 46/// /0102 10011 20003 40299 53017 7//// 8//// 22200 0//// 2////
BBXX DMRX 21124 99450 71253 41497 53416 10090 20038 40305 55012 70122 8546/ 22244 00110 20404 80065
BBXX WABS 21124 99483 71252 41598 33614 10072 20020 40185 54000 7//11 83/3/ 22213 0//// 2//// 3//// 4//// 5//// 6//// 80050 ICE /////
BBXX WDE9586 21123 99443 71367 43/98 /1712 10120 20100 40307 54000 7//// 8//// 22214 00110 2//// 3//// 4//// 5//// 6//// 80110 ICE /////
AAXX 21124 68024 42660 50514 10347 20134 48492 57021 85100
AAXX 21121 26645 42569 73501 11026 21049 39846 40112 52001 85530 333 85620 555 1/102
AAXX 21121 26659 41362 83303 11016 21030 39878 40095 52005 70272 886// 333 88708 555 1/101
AAXX 21121 26763 41358 83202 11015 21029 39847 40078 52004 71072 886// 333 88709 555 1/101
AAXX 21121 26825 41958 73302 11006 21027 39927 40113 54000 71022 8703/ 555 14100
AAXX 21121 26832 42960 73201 11012 21035 39915 40112 54000 8707/ 555 14100
AAXX 21121 26887 41296 83002 11002 21008 39855 40063 52016 71042 886// 333 88705 555 1/000
AAXX 21121 26961 42460 73303 11019 21038 39893 40089 52001 875// 333 87616 555 1////
AAXX 21121 33027 42597 73402 11008 21027 39937 40108 54000 875// 555 1/100
AAXX 21124 93004 16/// /0814 10152 20128 40264 52002 60001 333 10201
AAXX 21124 93023 16/// /0000 10161 20124 40278 57004 60001 333 10203
AAXX 21124 93069 16/// /1115 10163 20124 40278 57004 60001 333 10205
AAXX 21124 93110 17698 /1103 10161 20149 40285 57002 60011 333 10225
AAXX 21124 93186 17598 /0106 10171 20135 40287 57005 69921 333 10215
AAXX 21124 93196 16/// /1606 10141 20124 40296 54000 60001 333 10193
AAXX 21124 93245 16698 /0603 10130 20113 40293 52007 69921 333 10222
AAXX 21124 93292 17698 /3401 10132 20115 40298 57004 60001 333 10186
AAXX 21124 93309 17998 /1206 10134 20121 40280 52003 60001 333 10201
AAXX 21124 93334 16/// /0401 10088 20083 39324 57003 60001 333 10191
AAXX 21124 93339 16/// /3504 10068 20060 39330 57003 60001 333 10179
AAXX 21124 93373 17698 /2801 10147 20119 40295 57006 60001 333 10195
AAXX 21124 93404 17/98 /1208 10127 20097 40286 57002 60001 333 10211
AAXX 21124 93420 17/98 /1302 10105 20084 40287 52002 60001 333 10187
AAXX 21124 93439 17/97 /1201 10123 20090 40290 57002 60001 333 10167
AAXX 21124 93498 16/// /0201 10118 20087 40298 57007 60001 333 10166
AAXX 21124 93515 17598 /2103 10158 20153 40292 57003 60001 333 10199
AAXX 21124 93527 16/// /0000 10132 20126 40287 57003 60001 333 10190
AAXX 21124 93546 17/98 /2402 10144 20132 40286 57007 60001 333 10205
AAXX 21124 93597 16/// /1804 10124 20096 40292 57009 60001 333 10163
AAXX 21124 93615 17498 /2803 10166 20145 40294 52001 60001 333 10209
AAXX 21124 93678 16/98 /0510 10109 20093 40294 57003 60001 333 10161
AAXX 21124 93709 16/// /1104 10110 20101 40289 57002 60001 333 10203
AAXX 21124 93773 17998 /2502 10110 20106 40288 54000 60001 333 10190
AAXX 21124 93781 17/98 /0707 10116 20098 40293 57002 60001 333 10182
AAXX 21124 93800 NIL
AAXX 21124 93805 NIL
AAXX 21124 93831 17898 /1510 10134 20114 40290 52017 69921 333 10264
AAXX 21124 93845 17798 /2304 10123 20109 40297 52003 60001 333 10224
AAXX 21124 93891 17998 /2007 10135 20119 40293 52009 60001 333 10229
AAXX 21124 93909 16/// /3410 10126 20108 40291 52001 60001
AAXX 21124 93929 16/// /0000 10100 20098 40251 52004 60001
AAXX 21124 93947 16/// /2914 10090 20085 40221 57003 60001
AAXX 21124 93987 16/// /1901 10096 20054 40308 57003 60001 333 10141
AAXX 21124 93994 NIL
AAXX 21121 26038 21158 81402 11008 21011 30083 40125 52004 71022 886// 333 10002 21011 60007 88702 555 1/000 21011 3/101 50003 52102
AAXX 21121 26045 27457 72002 11006 21010 30126 40128 54000 71010 87/// 333 10005 21013 60007 87/11 555 1/100 21013 3/102 50005
AAXX 21121 26058 27250 81400 11009 21013 30117 40125 57003 71011 88/// 333 11009 21029 60007 88/05 555 1/100 21029 3/103 51004 52106
AAXX 21121 26115 27683 71101 10019 20006 30109 40117 50005 72380 87/// 333 10038 20004 69927 87/50 91112 555 1/001 20004 3/100 50034
AAXX 21121 26135 27264 80001 11004 21012 30053 40129 52005 70010 88/// 333 11002 21006 60007 88/06 555 1/001 21006 3/000 50003 52100
AAXX 21121 26141 21158 83401 11019 21023 39978 40130 51005 71042 886// 333 11002 21021 60007 88703 555 1/100 21021 3/100 51004 52102
AAXX 21121 26231 21004 90200 11011 21013 30114 40129 52006 74741 333 10005 21020 60007 8//02 555 1/000 21020 3/100 50007
AAXX 21121 26242 21157 83402 11017 21027 30038 40127 52002 71022 886// 333 11010 21018 60007 88703 555 1/100 21018 3/101 51007 52104
AAXX 21121 26247 27/73 /0203 11009 21020 30043 40124 55001 70000 333 11005 21013 60007 555 1/100 21013 3/100 51003
BBXX BATUK01 21124 99577 70031 46/// /1910 10052 20032 40078 58018 22200 00072
AAXX 21124 60106 32965 21807 10160 20062 40301 58003 80002 333 82070
AAXX 21124 60107 32965 30602 10194 21001 40276 50001 80002 333 80002 95300
AAXX 21124 60318 32965 32614 10195 20032 40276 50006 80002 333 83070
AAXX 21121 14241 11970 12102 10023 21041 30029 40162 58013 60001 70241 81030
AAXX 21121 14284 12960 62005 11001 21020 30053 40165 58012 60001 86070
AAXX 21121 14307 32980 12703 10092 21026 30078 40155 58009 80005 333 70000
AAXX 21121 14317 12982 22501 10091 21070 30049 40150 58009 60001 80005
AAXX 21121 14431 12980 03502 10088 21064 30056 40150 58011 60001
AAXX 21121 14444 33984 01001 10101 21068 30113 40142 57016 333
AAXX 21121 14474 12681 10205 10079 21027 39939 40131 58015 60001 81100
AAXX 21121 14008 12599 43208 11112 21164 37398 47937 58006 60001 84050 333 95160 444 36085
AAXX 21121 14015 11330 51001 11004 21028 39800 40170 58015 69901 71072 81650 333 81707
AAXX 21121 14023 12799 72901 10024 21058 39858 40159 58014 60001 83530 333 83650
AAXX 21121 14024 12599 42403 10004 21139 39037 48428 57005 60001 81178 333 81820 95140 95000 444 16056
AAXX 21121 14026 12998 71402 10043 21053 39824 40148 57013 60001 87070
AAXX 21121 14031 11596 63601 10018 21036 39921 40154 57012 60001 71011 82531 333 82623
AAXX 21121 14105 12998 63401 10077 21015 30154 40159 58008 60001 80006
AAXX 21121 14106 12999 72501 10048 21023 30086 40156 58013 60001 87070 333 95000
AAXX 21121 14112 12/97 40000 10002 29064 60001
AAXX 21121 14121 12999 12201 10014 21027 39886 40158 57015 60001 81038
AAXX 21121 14122 12970 22503 10021 21022 39962 40163 57015 60001 81031
AAXX 21124 16614 12560 80000 10024 20015 39362 40154 57012 60001 8322/ 333 83825 88458 90730 91105
AAXX 21124 16627 12460 21106 10096 20047 30147 40151 58003 60001 82200 333 90730 91110 555 30000 10098 20096 30092 40094 50112 6//// 40000 47643 44235 50000 50074
AAXX 21124 16667 12575 12307 10154 20037 30149 40154 56005 60001 81100 333 90730 91119 555 30000 20116 30120 40000 47640 44190 50000 50100
AAXX 21124 16675 NIL
AAXX 21124 16710 36/// /9902 10079 20017 39366 40137 57025 333 90730 91106
AAXX 21124 16723 12560 62108 10158 20054 30145 40160 58013 60001 83151 333 83820 83358 90730 91115 555 40000 47642 44230 50000 50108
AAXX 21124 16738 NIL
AAXX 21124 16746 12560 60806 10150 20069 39962 40142 58023 60001 83250 333 83820 86358 90730 91110 555 40000 47501 44190 50000 50110
AAXX 21124 08001 11356 8//// 10132 20129 30259 40341 51009 69911 70252 887// 333 92426
AAXX 21124 08015 11565 81803 10105 20091 39926 40336 58001 69911 70254 8257/
AAXX 21124 08023 11340 82916 10131 20125 30244 40316 51005 69901 75122 886//
AAXX 21124 08027 11/03 93116 10120 20120 39986 40298 51003 69951 75166 333 89/01
AAXX 21124 08045 02170 10502 10139 20133 30022 40332 58004 69901 81651 333 69907
AAXX 21124 08141 11/05 91604 10044 20044 39458 40343 51006 69901 74344 333 50130 89/03
AAXX 21124 08160 12580 73019 10147 20073 39972 40279 51011 60001 85506
AAXX 21124 08181 02672 63608 10133 20052 30220 40226 58002 60001 83872 333 60007
AAXX 21124 08221 01959 31604 10105 20034 39612 40303 58008 60001 71011 81046 333 60007
AAXX 21124 08231 12770 53305 10129 20048 39185 48592 58011 60001 82046
AAXX 21124 08261 12980 13301 10114 20067 39841 40327 50005 60001 80001
AAXX 21124 08284 02982 33312 10211 20052 30165 40239 58007 60001 81032 333 60007
AAXX 21124 08306 12580 70000 10156 20114 30230 40236 50001 60001 81172
AAXX 21124 08314 02559 80110 10129 20108 30124 40228 58002 69991 8581/ 333 69997
AAXX 21124 08430 12982 53010 10202 20047 30180 40253 58006 60001 80001
AAXX 21124 08482 12980 12717 10206 20046 30252 40260 58007 60001 80001
AAXX 21124 60101 32960 22308 10160 20105 40301 56002 82200 333 84070
AAXX 21124 60150 32960 23402 10155 20065 39632 40286 58004 82002 333 82070
AAXX 21124 60156 17960 10406 10163 20053 40300 56003 60001 70010 80001 333 81070
AAXX 21124 60230 15960 00303 10217 20047 40264 56003 60001
AAXX 21124 16643 11458 80315 10086 20065 30102 40107 57041 69931 71062 8572/ 333 82710 85620 88457 90730 91123 555 40000 47606 44200 50000 50076 70000 77Y// 7RY//
AAXX 21124 16648 12560 80000 10074 20021 30060 40151 58003 60001 82258 333 82830 83358 88268 90730 91104 555 30000 10080 2//// 30076 40074 5//// 6//// 40000 47576 44210 50000 50052
AAXX 21124 16650 12460 22505 10126 20008 30136 40140 57006 60001 82100 333 90730 91112 555 30000 10108 20102 30100 40100 50126 60142 40000 47631 44205 50000 50076
AAXX 21124 16684 12560 52807 10128 21003 30106 40134 56007 60001 81131 333 81825 83358 85068 90730 91112 555 40000 47610 44210 50000 50074
AAXX 21124 16732 12580 22014 10158 20037 30143 40155 58016 60001 81240 333 90730 91118 555 40000 47633 44160 50000 50102
AAXX 21124 61766 32960 50609 10298 20048 30080 40122 80001 333 0//00 59003 84075
AAXX 21124 61769 31958 60404 10280 20130 3//// 4//// 70522 80001 333 0//00 5//// 86075
AAXX 21121 63021 42480 11004 10216 20086 37726 40059 81100 333 58000 81715 81820
AAXX 21124 04005 42489 49901 11052 21099 49896 57030 82210 555 3/201
AAXX 21124 04018 41480 80724 11002 21020 49815 58071 72273 8372/ 555 3//27 81710 83726 87550
AAXX 21124 04030 42480 80816 10001 21029 49814 57079 70272 8557/ 555 3//16 81710 84626 88456
AAXX 21124 04048 41457 80956 10018 20007 49778 57078 76876 8572/ 555 3/556
AAXX 21124 04063 41682 82601 11023 21060 49914 57032 71522 8651/ 555 3//04
AAXX 21124 04077 NIL
AAXX 21124 04082 41980 83412 11010 21011 49900 52012 77277 880// 555 3//12 88256
AAXX 21124 04097 42620 81809 10006 21029 49939 57033 882// 555 3/312
AAXX 21121 01160 46/// /1903 10025 21005 30023 40040 52010 333 91106
AAXX 21123 04013 42582 70718 11006 21019 49861 57045 82510 555 3//18
AAXX 21123 04064 41220 80505 10001 21004 49879 57059 77377 8802/ 555 3//09
AAXX 21124 17022 12665 52606 10099 20056 39994 40159 53008 60001 85200 333 85834 91119 92438
AAXX 21124 17031 11565 71405 10113 20095 30155 40161 52018 69961 78082 85250 333 85830 87358
AAXX 21124 17038 12965 62804 10160 20059 30084 40134 55001 60001 86050 333 86360 92427
AAXX 21124 17050 12670 53203 10064 20013 30090 40153 58001 60001 83530 333 83635 85360 91109
AAXX 21124 17060 11560 52608 10112 20045 30113 40153 56001 60011 70282 83130 333 83830 84360
AAXX 21124 17096 12660 43602 10008 21038 38258 48530 56010 60001 84500 333 84635
AAXX 21124 17124 12660 42612 10096 21002 39234 40145 57007 60001 83130 333 83840 83360
AAXX 21124 17128 12670 62410 10093 20003 39059 40149 57009 60001 83150 333 83835 85359
AAXX 21124 17170 NIL
AAXX 21124 17195 12670 71406 10123 20008 38950 48483 55008 60001 84250 333 84840 87360
AAXX 21124 17199 11558 83302 10049 20026 39114 40231 57013 60001 71022 8562/ 333 82720 85635 88459
AAXX 21124 17219 11565 61604 10118 20075 30013 40159 58010 69961 70282 83250 333 83830 86360
AAXX 21124 17240 12570 61706 10097 21005 39016 40157 57010 60001 84250 333 84830 86360 91112
AAXX 21124 17244 12670 62207 10127 21034 38967 48472 57010 60001 83540 333 83647 86359
AAXX 21124 17280 11448 70902 10019 20017 39427 40247 57016 60001 71044 82630 333 82715 85360
AAXX 21124 17350 12660 73106 10169 20093 30094 40172 57013 60001 84150 333 84835 87360
AAXX 21124 17024 11570 62612 10120 20045 30070 40147 52012 69941 72582 83250 333 83832 86360 91129 92448
AAXX 21124 17056 12670 13304 10107 20058 30151 40155 50000 60001 81100 333 81834 91113 92418
AAXX 21124 17067 12670 22706 10126 20056 30127 40149 53002 60001 82100 333 82840 91125 92428
AAXX 21124 17092 NIL
AAXX 21124 17112 12670 52210 10120 20053 30146 40148 57007 60001 83270 333 83835 85360 91118 92418
AAXX 21124 17115 12660 43108 10124 20053 30094 40145 57003 60001 84100 333 84835
AAXX 21124 17116 12670 32611 10140 20023 30028 40148 55006 60001 83100 333 83835 91120
AAXX 21124 17188 11665 71105 10072 20020 39099 40165 57008 69901 78022 85270 333 85835 87360 91111
AAXX 21124 17202 11558 60000 10067 20001 39189 40235 57017 60001 71022 84550 333 82720 84635 86360
AAXX 21124 17248 12675 62005 10130 20015 38960 48481 57012 60001 82105 333 82840 86270
AAXX 21124 17292 11570 71401 10085 20078 39415 40176 56009 60021 72582 84270 333 84830 87359 91108
AAXX 21124 17300 12560 51404 10174 20090 30084 40155 57009 60001 83201 333 83830 85070
AAXX 21124 17310 11670 62202 10175 20123 30167 40174 57015 60041 70282 83270 333 83835 85359 91107 92438
AAXX 21124 17330 12670 70903 10179 20094 30157 40175 57007 60001 84270 333 84840 87360
AAXX 21124 17026 12670 63208 10110 20076 30113 40152 52009 60001 84250 333 84833 86358 91118 92428
AAXX 21124 17034 12970 62510 10126 20081 30124 40170 53035 60001 86030 333 86360 92438
AAXX 21124 17070 11565 72607 10076 20026 39290 40156 53004 69911 70262 84570 333 84630 87360 91118
AAXX 21124 17084 11670 62805 10108 20005 39256 40164 57009 69921 70362 83550 333 83635 86360 91115
AAXX 21124 17090 3//// /1402 10090 21020 38710 40155 5//// 60001
AAXX 21124 17098 12660 30607 11015 21072 38234 48549 55008 60001 83500 333 83635
AAXX 21124 17150 12660 42507 10135 20036 30029 40152 57007 60001 84100 333 84835
AAXX 21124 17160 12670 72505 10104 20031 38997 48478 56009 60001 85270 333 85840 87360 91123
AAXX 21124 17184 12670 71503 10121 20053 30050 40161 57008 60001 84270 333 84840 87360 91109
AAXX 21124 17189 12670 72005 10089 21016 39002 48473 55005 60001 85201 333 85835 87070
AAXX 21124 17210 12670 50302 10108 21049 39177 40218 57016 60001 82130 333 82840 85360
AAXX 21124 17234 11670 70201 10128 20089 30098 40166 56013 60021 72582 83270 333 83840 87360 91107
AAXX 21124 17260 12660 50509 10113 20015 39377 40196 57016 60001 83130 333 83840 85360
AAXX 21124 17290 12570 71908 10152 20083 30136 40168 57012 60001 84270 333 84830 87360 91117 92428
AAXX 21124 17370 12665 61207 10178 20041 30169 40173 56013 60001 83201 333 83835 86070 92437
AAXX 21121 48820 32998 00501 10196 20147 30164 40172 52012 333 00016 10227 58006 70000
AAXX 21121 48823 32697 71601 10199 20136 30170 40173 52009 875// 333 00018 10237 58002 70000 87696
AAXX 21124 78397 111474 53604 10249 20213 30138 40154 60001 70511 83841 333 01999 10314 20240 59003 81816 84358
AAXX 21121 26509 31/04 90000 11040 21045 30115 40124 52006 74744 333 91000 91103 93403 555 1/102
AAXX 21121 26518 31/03 90000 11056 21056 39916 40128 52006 74942 333 91000 91102 93506 555 1/104 4/014
AAXX 21121 26524 31296 80000 11023 21023 39989 40125 52004 71042 886// 333 88705 91003 91103 93402 555 1/100
AAXX 21121 26531 31259 80000 11015 21020 30042 40120 54000 71022 886// 333 88704 91002 91103 555 1/100
AAXX 21121 26629 31/02 93201 11032 21032 30024 40122 52003 74942 333 91003 91103 93503 555 1/101
AAXX 21121 26633 31257 83501 11029 21039 39983 40117 52002 71022 886// 333 88705 91002 91103 555 1/101
AAXX 21121 26730 31958 73101 11018 21026 39921 40117 52002 71022 87030 333 91002 91102 555 1/101
AAXX 21124 71864 NIL
AAXX 21124 71865 16/// /3206 11090 21105 39440 40127 51029 60001 333 10047 21094 70000
AAXX 21124 71866 46964 03308 11118 21138 39543 40168 51038 6///1 333 10068 21118 7////
AAXX 21124 71867 11566 83406 11092 21119 39772 40111 51020 69901 77172 885// 333 10002 21093 47021 79999 90917
AAXX 21124 71868 16/// /3307 11047 21084 39665 40109 51024 60001 333 10029 21050 70000
AAXX 21124 71869 12474 83010 11086 21105 39622 40153 52034 60001 885// 333 10037 21095 47003 70000
AAXX 21124 71871 15966 83110 11055 21069 39369 40186 51033 60001 333 10053 21058 70000
AAXX 21124 71877 11566 83321 11030 21057 38926 40212 52039 60011 71672 88500 333 10092 21031 42002 70012 90941 93102
AAXX 21124 71878 NIL
AAXX 21124 71879 17216 92906 11030 21045 39397 40210 51032 60001 745// 333 10058 21033 70000
AAXX 21124 71880 12982 30000 11064 21075 39097 40219 52029 60001 83070 333 10026 21078 70000
AAXX 21124 71882 160// /3402 11022 21029 39716 40266 51030 60001 333 10017 21026 70000
AAXX 21124 71883 46/// /0000 11118 21128 39448 40294 52033 6///1 333 10037 21119 7////
AAXX 21124 71887 12786 23112 10021 21074 39870 40301 52031 60001 82500 333 10047 21018 41997 70000
AAXX 21124 71889 12474 70000 11031 21039 39857 40285 52021 60001 81670 333 10016 21053 47002 70024
AAXX 21124 71891 16164 81703 10001 21006 30033 40312 51028 60001 333 10107 21006 70000
AAXX 21124 71892 12580 20000 11005 21018 30299 40304 52022 60001 81501 333 10076 21014 55034 79999
AAXX 21124 71726 16/// /1903 11078 21090 39558 40110 55010 60001 333 11095 21126 4/017 70003
AAXX 21124 71727 12974 61403 11120 21143 39930 40135 55005 60001 86070 333 11089 21165 48029 79999
AAXX 21124 71728 12780 72210 11071 21125 39891 40117 55004 60001 87500 333 11084 21112 46997 70000
AAXX 21124 71730 12574 82205 11031 21057 39653 40081 56014 60001 885// 333 11016 21065 41997 79999
AAXX 21124 71731 12274 82104 11019 21033 39630 40085 56012 60001 886// 333 11042 21062 41997 79999
AAXX 21124 71735 NIL
AAXX 21124 71738 13574 62408 10011 21043 39679 40030 56007 60002 86500 333 10000 21010 44026 70000 555 10000 20000 32137 40171
AAXX 21124 71739 41674 82006 11035 21054 39676 40040 57006 6//// 70277 885// 333 11037 21043 4//// 7//// 90951
AAXX 21124 71749 16864 32504 11026 21072 39780 40025 53002 60001 333 10004 21026 70000
AAXX 21124 71799 12483 12805 11011 21016 30278 40303 52017 60001 81500 333 10096 21017 55030 70000
AAXX 21124 71800 NIL
AAXX 21124 71801 12474 72818 11036 21055 39944 40119 52044 60001 87500 333 11019 21049 70070
AAXX 21124 71803 11380 82812 11051 21071 39939 40129 53046 60011 72611 885// 333 11049 21064 46007 70060 90952 93101
AAXX 21124 71807 NIL
AAXX 21124 71808 12574 20000 11141 21159 30060 40116 53017 60001 82500 333 11041 21154 44021 70036
AAXX 21124 71809 11469 62107 11061 21098 30128 40156 52032 60011 78588 86500 333 11030 21076 47009 70110 90983 93101
AAXX 21124 71810 16/// /2208 11069 21108 30062 40130 58005 60001 333 11046 21129 70000
AAXX 21124 71811 NIL
AAXX 21124 71813 16/// /0803 11161 21184 30129 40143 58004 60001 333 21197 7////
AAXX 21124 71814 16/// /2905 11167 21194 30137 40147 51018 60001 333 11019 21177 70012
AAXX 21124 71815 11469 82810 11050 21083 30140 40171 53022 69901 78588 885// 333 11014 21057 48011 70080 90983
AAXX 21124 71397 12974 20000 11102 21123 30202 40238 53003 60001 81071 333 10035 21108 70000
AAXX 21124 71400 16/64 /2706 11059 21075 60001 333 11038 21081 70021
AAXX 21124 71403 46/// /2706 11052 21089 30217 40237 51004 6///1 333 10059 21077 7////
AAXX 21124 71411 16/// /2505 11078 21091 30233 40246 53006 60001 333 10053 21094 70000
AAXX 21124 71412 16/// /2505 11095 21123 30200 40210 51009 60001 333 10014 21098 4/001 70003
AAXX 21124 71421 NIL
AAXX 21124 71430 16/// /1815 10063 20044 30010 40106 56019 60001 333 10046 20008 70000
AAXX 21124 71431 NIL
AAXX 21124 71432 16/// /1001 10039 20018 39995 40092 56020 60001 333 10028 20018 70000
AAXX 21124 71433 NIL
AAXX 21124 71435 NIL
AAXX 21124 71441 NIL
AAXX 21124 71443 16/// /0509 11055 21079 39689 40104 53030 60001 333 10034 21055 4/005 70000
AAXX 21124 71444 16/// /0206 11050 21056 39319 40078 53021 60001 333 10010 21109 4/011 70000
AAXX 21124 71447 NIL
AAXX 21124 71467 16/// /1403 11248 21271 30008 40127 58006 60001 333 11232 21263 4/002 70000 555 10010
AAXX 21124 71472 NIL
AAXX 21124 71474 16664 83306 11025 21107 39039 40298 52022 60001 333 10045 21032 7////
AAXX 21124 71510 NIL
AAXX 21124 71538 11/04 90000 10049 20047 39836 40065 56019 60011 76154 333 10039 20018 70010 90926
AAXX 21124 71600 16964 02811 11010 21073 30237 40243 51017 60001 333 10072 21021 70020
AAXX 21124 71601 NIL
AAXX 21124 71051 NIL
AAXX 21124 71055 NIL
AAXX 21124 71057 NIL
AAXX 21124 71059 460// /0000 11251 30050 40144 58006 6///1 333 11217 21260 7////
AAXX 21124 71061 17/// /3107 11018 21045 39409 40195 51024 69931 7//4/ 333 10054 21021 4/003 70007 555 10010
AAXX 21124 71062 46/// /3010 11040 21076 39122 40203 51034 6///1 333 10057 21040 4/014 7////
AAXX 21124 71064 460// /3312 11306 39931 40159 53007 6///1 333 11303 21320 7////
AAXX 21124 71065 NIL
AAXX 21124 71067 NIL
AAXX 21124 71070 NIL
AAXX 21124 71073 NIL
AAXX 21124 71074 NIL
AAXX 21124 71075 16/// /3306 11154 21176 39490 40113 53025 60001 333 11048 21171 4/053 70000 555 10030
AAXX 21124 71078 NIL
AAXX 21124 71084 460// ///// 11309 30037 40087 53011 6///1 333 11276 21313 7////
AAXX 21124 71085 15766 83407 11048 21078 38802 40201 53035 60001 333 10041 21048 70000
AAXX 21124 71087 NIL
AAXX 21124 71088 460// /0412 11296 53007 6///1 333 11204 21305 7////
AAXX 21124 71089 NIL
AAXX 21124 71096 460// ///// 11225 39208 49951 51002 6///1 333 11193 21228 7////
AAXX 21124 71097 47002 /1620 11149 39445 49920 57019 6///1 745// 333 11137 21158 7////
AAXX 21124 71098 43/// /0105 11140 21158 39705 40069 51036 6///1 333 11006 21140 7////
AAXX 21124 71099 43/// /3009 11221 21236 30034 40055 53023 6///1 333 11026 21222 7////
AAXX 21124 71043 12683 60906 11181 21226 30030 40127 58016 60001 85570 333 11187 21233 48024 79999
AAXX 21124 71045 16/// /1905 11058 21074 39340 40226 50000 60001 333 11119 21192 4/025 70000 555 10040
AAXX 21124 71050 46/// /1002 11150 21167 39222 40337 51019 6///1 333 10061 21150 7////
AAXX 21124 71051 NIL
AAXX 21124 71052 NIL
AAXX 21124 71066 NIL
AAXX 21124 71068 12974 02809 11055 21091 39513 40217 51012 60001 333 10049 21089 46002 70002
AAXX 21124 71069 16464 82715 11029 21049 39493 40206 51020 60001 333 10082 21029 70020
AAXX 21124 71076 16/// /2804 11203 21227 39764 40171 51028 60001 333 11050 21204 4/033 55/// 20000 70000 555 10040
AAXX 21124 71077 16/// /3107 11086 21107 39628 40183 53022 60001 333 10002 21132 4/013 55/// 20000 70000
AAXX 21124 71079 11574 80000 11175 21192 39830 40118 52015 69901 77177 885// 333 11026 21175 48009 79999 90983
AAXX 21124 71081 46564 30408 11251 21283 39958 49970 53009 6///1 333 11197 21276 7////
AAXX 21124 71082 NIL
AAXX 21124 71083 11948 03317 11332 21376 39976 40020 51008 69901 77677 333 11273 21339 48054 79999 90983
AAXX 21124 71090 46459 83117 11191 21228 39936 49971 55000 6///1 333 11198 21269 7////
AAXX 21124 71091 460// /0310 11290 39742 49957 58001 6///1 333 7////
AAXX 21124 71092 46964 01011 11244 39275 49953 53003 6///1 333 11227 21266 7////
AAXX 21124 71093 460// /3507 11213 39451 49953 53003 6///1 333 11195 21213 7////
AAXX 21124 71094 46045 /1803 11187 39010 49910 56001 6///1 333 11174 7////
AAXX 21124 71095 46964 01702 11252 21286 39921 40003 52005 6///1 333 11167 21266 7////
AAXX 21124 71101 160// /2304 30303 53003 60001 333 70000
AAXX 21124 71104 12774 20000 11062 21105 39173 40310 51022 60001 82500 333 10030 21070 44029 70000
AAXX 21124 71108 12966 00303 11007 21011 30227 40301 52022 60001 333 10071 21015 70010
AAXX 21124 71109 12474 12403 10016 21010 30291 40318 50003 60001 81570 333 10078 20013 70008
AAXX 21124 71201 16/// ///// 10020 21010 60001 333 10075 20019 70002
AAXX 21124 71202 17/// ///// 11038 21049 69941 7//4/ 333 10064 21038 70004
AAXX 21124 71203 15766 10103 11078 21085 39753 40288 52027 60001 333 10022 21089 70008
AAXX 21124 71209 46/// /0408 10044 6///1 333 10078 20044 7////
AAXX 21124 71211 46/// /0316 10035 20007 30289 40301 53023 6///1 333 10086 20033 7////
AAXX 21124 71212 NIL
AAXX 21124 71213 46/// /1807 11033 21056 39765 40067 58007 6///1 333 11028 21051 7////
AAXX 21124 71214 NIL
AAXX 21124 71215 46/// /2102 11039 21047 39923 40276 53023 6///1 333 10008 21042 7////
AAXX 21124 71216 16/// /0902 11007 21015 39625 40252 51029 60001 333 10026 21038 4/002 70000
AAXX 21124 71217 NIL
AAXX 21124 71218 16/// /1104 10017 21066 39838 40274 51033 60001 333 10026 21023 4/001 70000
AAXX 21124 71219 46/// /0805 10033 20017 30304 40310 50002 6///1 333 10083 20030 7////
AAXX 21124 71220 46/// /1316 10034 20022 6///1 333 10072 20032 7////
AAXX 21124 71221 NIL
AAXX 21124 71222 16/// /0000 11106 21113 39290 40284 53004 60001 333 11031 21153 4/037 70014
AAXX 21124 71223 NIL
AAXX 21124 71224 NIL
AAXX 21124 71225 NIL
AAXX 21124 71226 NIL
AAXX 21124 71227 NIL
AAXX 21124 71228 NIL
AAXX 21124 71229 NIL
AAXX 21124 71230 16/// /0601 11058 21067 39329 40240 51015 60001 333 10058 21082 70003
AAXX 21124 71231 16/// /3107 11030 21056 60001 333 10057 21030 70000
AAXX 21124 71232 16/// /1802 11035 21061 38687 40201 53037 60001 333 10061 21035 70000
AAXX 21124 71233 17/// /2909 11028 21064 60021 7//4/ 333 10060 21028 70024
AAXX 21124 71234 16/// /3416 11017 21040 39001 40200 53042 60001 333 10069 21061 70000
AAXX 21124 71235 17/// /3517 11039 21072 69961 7//4/ 333 10076 21041 70006
AAXX 21124 71236 46/// /0000 11067 21094 6///1 333 10023 21068 7////
AAXX 21124 71237 46/// /0213 11008 21021 39360 40185 53042 6///1 333 10049 21032 7////
AAXX 21124 71238 16/// /0000 11043 21051 60001 333 10052 21043 4/009 70028 555 10080
AAXX 21124 71239 16/// /3403 11029 21042 39615 40074 53022 60001 333 10019 21050 4/003 70000
AAXX 21124 71240 16/// ///// 11048 21063 39325 40184 53044 60001 333 10069 21048 70000
AAXX 21124 71241 NIL
AAXX 21124 71242 17/// /3312 11030 21034 60021 7//4/ 333 10058 21031 4/007 70020
AAXX 21124 71243 NIL
AAXX 21124 71244 NIL
AAXX 21124 71245 NIL
AAXX 21124 71246 NIL
AAXX 21124 71247 17566 83212 11007 21023 39299 40157 51025 69951 771// 333 10054 21036 70005
AAXX 21124 71248 16/// /3213 11034 21087 38900 40220 51042 60001 333 10081 21053 4/019 70000 555 10010
AAXX 21124 71249 NIL
AAXX 21124 71125 13974 12607 11124 21139 39582 40181 51027 60002 81070 333 40997 70002
AAXX 21124 71816 12774 72006 11213 21251 30033 40097 58013 60001 81570 333 11084 21223 47050 55000 70030
AAXX 21124 71817 NIL
AAXX 21124 71818 12974 01907 11155 21173 30072 40090 51007 60001 333 11064 21155 43019 55000 70004
AAXX 21124 71822 NIL
AAXX 21124 71825 11769 72211 11144 21184 39356 40048 56007 60011 77177 86570 333 11160 21235 47085 70014 90973 93102
AAXX 21124 71827 11324 82309 11039 21039 39720 49963 53014 60021 77177 885// 333 11043 21069 47019 70042 90983 93102
AAXX 21124 71828 17559 81611 11177 21212 39339 49995 58007 60001 745// 333 11190 21222 70005
AAXX 21124 71831 11574 81910 11007 21035 39734 40013 55003 69981 77177 885// 333 11018 21022 48039 70008 90973
AAXX 21124 71832 NIL
AAXX 21124 71834 11574 82304 11023 21043 39580 40006 53007 60011 70272 885// 333 11021 21032 48026 70038 90933 93101
AAXX 21124 71841 NIL
AAXX 21124 71842 11248 83004 11033 21038 39556 40025 53020 69901 77172 887// 333 11011 21033 47012 70018 90931
AAXX 21124 71844 16464 83508 11197 21210 39785 40068 52036 60001 333 11020 21197 70005
AAXX 21124 71845 11366 82904 11033 21037 39536 40009 53020 60032 771// 885// 333 11039 21042 44019 70036 90999 555 10024 20016 32125 40071
AAXX 21124 71850 12474 82908 11019 21042 39544 40043 53023 60001 886// 333 1011 21021 48007 70000
AAXX 21124 71852 16664 83208 11055 21063 39772 40067 52025 60001 333 10018 21074 70000
AAXX 21124 71854 11474 83209 11035 21056 39557 40030 52017 60042 771// 885// 333 11025 21036 48017 70074 90999 555 10074 20074
AAXX 21124 71858 16/// /0205 11094 21112 39819 40104 53030 60001 333 10016 21094 70000
AAXX 21124 71861 16/// /3306 11071 21083 39372 40101 53025 60001 333 10036 21071 4/001 7////
AAXX 21124 71862 12774 73305 11034 21047 39395 40096 53022 60001 86501 333 10050 21067 42002 70000
AAXX 21124 71863 46764 60113 11045 21082 39415 40117 53031 6///1 333 10032 21045 7////
AAXX 21124 71300 NIL
AAXX 21124 71301 16/// ///// 11041 21055 39654 40055 58006 60001 333 11040 21066 4/013 70000
AAXX 21124 71302 16/// /1803 11088 21102 39456 40295 51022 60001 333 10037 21088 4/024 70000
AAXX 21124 71303 46/// ///// 10079 20072 6///1 333 10048 20035 7////
AAXX 21124 71305 15966 02601 11200 21212 39895 40197 51022 60001 333 11044 21203 70000
AAXX 21124 71306 17408 82827 11120 21136 39835 49867 51034 60001 772// 333 11044 21134 70000
AAXX 21124 71307 NIL
AAXX 21124 71308 16/// /2009 11095 21136 30146 40233 51015 60001 333 10021 21098 4/001 7////
AAXX 21124 71309 NIL
AAXX 21124 71310 16/// /2405 11097 21126 30175 40213 50005 60001 333 10004 21106 4/002 70000
AAXX 21124 71311 NIL
AAXX 21124 71312 NIL
AAXX 21124 71314 NIL
AAXX 21124 71315 16/// /0000 11140 21164 30118 40174 56012 60001 333 11032 21145 4/013 70000
AAXX 21124 71316 16/// /2807 11037 21054 39498 40192 51024 60001 333 10057 21054 70004
AAXX 21124 71317 NIL
AAXX 21124 71318 17/// /3610 11044 21054 39230 40190 51048 69931 7//4/ 333 10059 21046 4/004 70003 555 10030
AAXX 21124 71319 16/// /2407 11102 21123 39247 40133 56005 60001 333 11097 21158 70000
AAXX 21124 71320 NIL
AAXX 21124 71321 NIL
AAXX 21124 71322 NIL
AAXX 21124 71323 16/// /1702 11143 21163 39874 40167 56006 60001 333 11037 21174 70000
AAXX 21124 71331 16/// /2402 11103 21125 60001 333 11025 21116 4/018 55/// 20000 70000
AAXX 21124 71332 NIL
AAXX 21124 71334 NIL
AAXX 21124 71335 46964 02115 11178 56023 6///1 333 11133 21184 7////
AAXX 21124 71336 NIL
AAXX 21124 71337 46/// /2503 11061 21070 39874 40115 51033 6///1 333 11043 21074 7////
AAXX 21124 71338 46864 30000 11260 21304 39957 49964 54000 6///1 333 11205 21288 7////
AAXX 21124 71339 16964 02305 11148 21177 30086 40101 52017 60001 333 11044 21149 70000
AAXX 21124 71340 NIL
AAXX 21124 71341 NIL
AAXX 21124 71342 NIL
AAXX 21124 71343 NIL
AAXX 21124 71344 NIL
AAXX 21124 71345 NIL
AAXX 21124 71346 NIL
AAXX 21124 71347 NIL
AAXX 21124 71348 NIL
AAXX 21124 71349 NIL
AAXX 21124 71500 NIL
AAXX 21124 71501 NIL
AAXX 21124 71502 NIL
AAXX 21124 71503 NIL
AAXX 21124 71504 NIL
AAXX 21124 71505 NIL
AAXX 21124 71506 NIL
AAXX 21124 71507 16/// /2707 11084 21104 60001 333 10006 21113 70009
AAXX 21124 71508 17/// ///// 10041 20030 39960 40098 56022 69961 7//4/ 333 10020 20001 70014
AAXX 21124 71509 NIL
AAXX 21124 71511 NIL
AAXX 21124 71512 NIL
AAXX 21124 71513 15566 80904 11161 21187 30133 40149 58004 60001 333 11034 21191 70000
AAXX 21124 71514 NIL
AAXX 21124 71515 16/// /3309 11095 21106 39406 40114 53030 60001 333 10037 21095 55/// 20000 70000
AAXX 21124 71516 NIL
AAXX 21124 71517 NIL
AAXX 21124 71518 NIL
AAXX 21124 71519 NIL
AAXX 21124 71520 NIL
AAXX 21124 71521 NIL
AAXX 21124 71522 NIL
AAXX 21124 71523 NIL
AAXX 21124 71524 16/// /0203 11083 21100 30136 40163 56007 60001 333 11044 21124 70000
AAXX 21124 71525 NIL
AAXX 21124 71526 NIL
AAXX 21124 71527 17248 83305 11031 21037 39526 40031 53021 60001 771// 333 11009 21032 70000
AAXX 21124 71528 NIL
AAXX 21124 71529 46/// /0702 11273 21302 39944 40185 51015 6///1 333 11161 21307 4/020 7//// 555 10010
AAXX 21124 71532 15366 81506 11008 21012 39751 40099 56016 60001 333 11023 21059 70000
AAXX 21124 71534 16137 81304 11005 21005 39822 40095 56020 60001 333 11007 21029 70000
AAXX 21124 71535 NIL
AAXX 21124 71536 NIL
AAXX 21124 71537 NIL
AAXX 21124 71539 NIL
AAXX 21124 71540 NIL
AAXX 21124 71541 NIL
AAXX 21124 71542 16/// /2304 11084 21094 60001 333 10008 21084 70000
AAXX 21124 71543 NIL
AAXX 21124 71544 NIL
AAXX 21124 71545 16/// ///// 11038 21046 60001 333 10057 21042 70008
AAXX 21124 71546 NIL
AAXX 21124 71547 NIL
AAXX 21124 71548 NIL
AAXX 21124 71549 NIL
AAXX 21124 71812 46808 33122 11313 21358 30048 40062 53008 6///1 333 21322 7////
AAXX 21124 71819 15966 02508 11135 21147 30068 40110 51020 60001 333 11041 21148 70000
AAXX 21124 71820 16/// /1710 10047 20027 30002 40117 56014 60001 333 11014 21067 4/001 70000 555 10010
AAXX 21124 71823 17450 82213 11049 21060 39582 49964 50009 69951 74544 333 11085 21139 70025
AAXX 21124 71824 46/// /2004 11070 21079 6///1 333 11095 21126 7////
AAXX 21124 71826 16/// /0903 11182 21235 39891 49934 56010 60001 333 11135 21197 4/016 70000
AAXX 21124 71829 16/// /2210 11080 21113 39956 40122 56008 60001 333 11072 21147 7////
AAXX 21124 71833 46/// /0802 10001 20001 6///1 333 11005 21038 7////
AAXX 21124 71835 17/// /2906 11034 21039 39526 40004 53020 69971 7//4/ 333 11038 21041 4/016 70015 555 10010
AAXX 21124 71837 NIL
AAXX 21124 71839 NIL
AAXX 21124 71840 46/// /3205 11022 21037 6///1 333 10033 21034 7////
AAXX 21124 71846 16/// /0108 11087 21097 39702 40018 53037 60001 333 11028 21087 4/002 70000
AAXX 21124 71847 NIL
AAXX 21124 71848 NIL
AAXX 21124 71849 NIL
AAXX 21124 71603 12574 61804 11063 21079 30180 40235 56003 60001 81501 333 10069 21083 70000
AAXX 21124 71607 16/// /0000 11145 21157 30178 40212 56009 60001 333 10012 21155 4/001 70000
AAXX 21124 71609 12474 20000 11132 21164 30080 40220 55009 60001 81501 333 10002 21144 70000
AAXX 21124 71610 15666 80502 11065 21089 39861 40166 56009 60001 333 11018 21144 70000
AAXX 21124 71621 12474 80403 11006 21027 30005 40112 56019 60001 885// 333 11004 21049 70000
AAXX 21124 71623 NIL
AAXX 21124 71624 12474 81003 10027 20010 39884 40097 57019 60001 886// 333 10005 21020 55061 70000
AAXX 21124 71625 163// 81204 11036 21054 39953 40116 56012 60001 333 21066 7////
AAXX 21124 71627 12574 80406 11056 21096 30103 40149 57006 60001 885// 333 11016 21085 70000
AAXX 21124 71628 13460 80605 11064 21096 39993 40137 57001 60001 82500 333 11026 21115 70000
AAXX 21124 71630 NIL
AAXX 21124 71631 NIL
AAXX 21124 71633 11432 81307 10010 20007 39811 40083 57016 69901 72022 887// 333 10003 21008 55038 79999 90921
AAXX 21124 71705 12574 32205 11120 21156 30122 40213 55004 60001 82501 333 10004 21124 42002 70000
AAXX 21124 71706 12574 62205 11080 21125 30154 40216 50003 60001 81510 333 10008 21109 43002 70002
AAXX 21124 71707 11574 42407 11065 21102 30136 40215 53018 69901 70181 82502 333 10008 21074 44004 70002 90952
AAXX 21124 71709 13580 62410 11044 21085 30179 40193 51011 69942 86500 333 10007 21054 46006 70042 90999 555 10054 20054
AAXX 21124 71711 NIL
AAXX 21124 71714 16/// /2803 11126 21149 30092 40188 56004 60001 333 11046 21207 4/007 70000
AAXX 21124 71715 16/// /2009 11055 21106 39955 40141 55006 60001 333 11051 21119 70000
AAXX 21124 71718 12683 82109 11061 21127 30069 40136 55007 60001 885// 333 11031 21107 42001 79999
AAXX 21124 71719 NIL
AAXX 21124 71900 46/// /20// 11177 21214 30025 40038 58019 6///1 333 11119 21191 7////
AAXX 21124 71903 NIL
AAXX 21124 71904 NIL
AAXX 21124 71914 16/// /0503 10040 20013 30069 40294 51016 60001 333 10067 20030 70000
AAXX 21124 71916 NIL
AAXX 21124 71918 460// ///// 11296 6///1 333 7////
AAXX 21124 71920 NIL
AAXX 21124 71921 NIL
AAXX 21124 71923 NIL
AAXX 21124 71927 16/// /0000 11027 21034 30245 40304 51021 60001 333 10107 21028 70000
AAXX 21124 71941 15466 81805 11054 21065 39662 40084 56001 60001 333 11068 21082 70000
AAXX 21124 71947 17528 82010 11042 21047 39695 40044 55003 69951 7714/ 333 11053 21076 70005
AAXX 21124 71401 16/// /1603 11036 21048 39552 40251 53025 60001 333 11012 21050 70008
AAXX 21124 71402 NIL
AAXX 21124 71404 NIL
AAXX 21124 71405 NIL
AAXX 21124 71406 NIL
AAXX 21124 71407 NIL
AAXX 21124 71408 NIL
AAXX 21124 71409 NIL
AAXX 21124 71410 15566 83605 11146 21172 39822 40107 51028 60001 333 11008 21146 70000
AAXX 21124 71413 NIL
AAXX 21124 71414 NIL
AAXX 21124 71415 NIL
AAXX 21124 71417 NIL
AAXX 21124 71418 NIL
AAXX 21124 71419 46/// /2508 11075 21093 30223 40233 51018 6///1 333 10048 21081 7////
AAXX 21124 71423 NIL
AAXX 21124 71424 46/// /2408 6///1 333 7////
AAXX 21124 71425 16/// /1406 11082 21138 30098 40135 58009 60001 333 11032 21114 70000
AAXX 21124 71426 NIL
AAXX 21124 71427 NIL
AAXX 21124 71428 16/// /1905 11081 21159 30122 40128 56014 60001 333 11031 21103 70000
AAXX 21124 71429 NIL
AAXX 21124 71434 NIL
AAXX 21124 71436 15466 80202 11015 21021 39872 40110 56017 60001 333 11015 21058 70000
AAXX 21124 71437 NIL
AAXX 21124 71438 NIL
AAXX 21124 71439 NIL
AAXX 21124 71440 NIL
AAXX 21124 71442 NIL
AAXX 21124 71445 NIL
AAXX 21124 71446 16/// /3610 11021 21028 39140 40120 53024 60001 333 10032 21021 70000
AAXX 21124 71448 16/// /3205 11042 21060 39723 40053 53022 60001 333 10013 21042 70000
AAXX 21124 71449 NIL
AAXX 21124 71102 NIL
AAXX 21124 71105 NIL
AAXX 21124 71107 NIL
AAXX 21124 71110 NIL
AAXX 21124 71111 15966 62305 10013 20005 30301 40309 54000 60001 333 10068 21001 70000
AAXX 21124 71112 16/// ///// 60001 333 70002
AAXX 21124 71113 16/// /1502 10034 20029 30272 40296 51017 60001 333 10075 20022 70036
AAXX 21124 71115 16/// /0701 11019 21057 39682 40276 53028 60001 333 10017 21037 70007
AAXX 21124 71116 16/// /2806 11050 21066 39055 40159 52023 60001 333 10044 21057 70000
AAXX 21124 71118 16/// /3306 11053 21069 39355 40192 51038 60001 333 10060 21054 70003
AAXX 21124 71121 16464 82806 11032 21082 39376 40209 51031 60001 333 10058 21038 70005
AAXX 21124 71127 17/// /3007 11027 21033 39288 40208 51031 69991 7//4/ 333 10066 21032 4/014 70013 555 10040
AAXX 21124 71130 17566 83012 11062 21096 39672 40135 51031 60001 771// 333 10031 21062 70000
AAXX 21124 71132 17866 83407 11143 21185 39824 40146 51038 60001 771// 333 11042 21146 70000
AAXX 21124 71133 NIL
AAXX 21124 71139 NIL
AAXX 21124 71141 NIL
AAXX 21124 71142 17140 80306 11020 21020 39152 40123 53025 69931 771// 333 10028 21020 70003
AAXX 21124 71143 NIL
AAXX 21124 71144 NIL
AAXX 21124 71147 16/// /3003 11029 21044 60001 333 10027 21036 70000
AAXX 21124 71149 NIL
AAXX 21124 71700 15966 03301 11155 21168 30188 40215 56008 60001 333 11003 21165 70000
AAXX 21124 71701 NIL
AAXX 21124 71702 16/// /2513 11071 21127 30184 40200 58003 60001 333 10005 21115 4/002 70000 555 10020
AAXX 21124 71703 12874 71507 11111 21142 39871 40180 56008 60003 87070 333 11044 21169 42007 55/// 70000 555 19999 29999 33136 40111
AAXX 21124 71704 17120 81205 10041 20040 39848 40068 58017 69931 7104/ 333 10033 20011 70006
AAXX 21124 71710 NIL
AAXX 21124 71712 16/// /0803 11039 21057 30081 40144 58005 60001 333 11013 21107 70000
AAXX 21124 71713 16/// /1507 11065 21111 60001 333 11024 21095 70000
AAXX 21124 71716 NIL
AAXX 21124 71717 NIL
AAXX 21124 71720 16/// /0000 10008 20005 30152 40308 53015 60001 333 10072 21011 70000
AAXX 21124 71721 16/// /1603 11050 21085 39872 40123 58009 60001 333 11061 21115 70000
AAXX 21124 71723 NIL
AAXX 21124 71724 NIL
AAXX 21124 71732 NIL
AAXX 21124 71733 16/// /2205 11036 21057 39645 40076 56014 60001 333 11017 21045 4/002 70000
AAXX 21124 71734 NIL
AAXX 21124 71736 NIL
AAXX 21124 71737 NIL
AAXX 21124 71741 16/// /3013 10027 21080 39867 40297 51032 60001 333 10042 21021 70000
AAXX 21124 71742 NIL
AAXX 21124 71743 NIL
AAXX 21124 71744 NIL
AAXX 21124 71745 NIL
AAXX 21124 71746 NIL
AAXX 21124 71747 NIL
AAXX 21124 71748 NIL
AAXX 21124 71930 NIL
AAXX 21124 71931 NIL
AAXX 21124 71934 12974 00000 11221 21245 39920 40189 50011 60001 333 11047 21221 47021 79999
AAXX 21124 71935 12574 30000 11188 21198 39968 40184 55001 60001 81570 333 11098 21194 44012 70000
AAXX 21124 71936 12974 20302 11290 21330 39912 40188 52011 60001 82030 333 11139 21290 48021 70004
AAXX 21124 71937 NIL
AAXX 21124 71938 11974 02004 11321 21353 30150 40182 50001 69901 72277 333 11248 21333 48025 79999 90913
AAXX 21124 71940 12982 22606 11074 21077 39425 40248 52012 60001 81071 333 10055 21083 43001 70008
AAXX 21124 71943 12974 02310 11048 21087 39382 40235 52011 60001 333 10039 21057 44003 79999
AAXX 21124 71944 160// ///// 11124 51015 60001 333 10044 21128 70065
AAXX 21124 71945 12874 22105 11146 21178 39726 40211 51012 60001 82030 333 11012 21150 43011 79999
AAXX 21124 71946 12974 20000 11166 21185 39947 40167 53014 60001 80001 333 11102 21176 44034 70000
AAXX 21124 71948 46064 /1706 11244 30009 40127 58012 6///1 333 11246 21272 7////
AAXX 21124 71949 46/// /1004 11189 21210 39280 40190 58012 6///1 333 11163 21231 7////
AAXX 21124 71951 11148 81604 10001 21003 30051 40324 50005 60001 71022 887// 333 10040 21009 43022 70015
AAXX 21124 71957 46964 00806 11236 21300 39989 40081 56021 6///1 333 11235 21271 7////
AAXX 21124 71964 12986 81915 11040 21092 39310 40183 56011 60001 80001 333 11022 21129 47015 70000
AAXX 21124 71966 16/// /0804 11125 21142 39617 40088 58018 60001 333 11164 21233 4/029 70000
AAXX 21124 71968 460// /3106 11307 39999 40067 58013 6///1 333 11237 21331 7////
AAXX 21124 71114 160// /0805 10027 20018 30255 40304 51019 60001 333 10079 20018 70035
AAXX 21124 71120 12874 83007 11051 21088 39520 40186 52022 60001 8807/ 333 10050 21066 42002 79999
AAXX 21124 71122 46/// /0402 11057 21088 38591 40219 51033 6///1 333 21073 4/019 7////
AAXX 21124 71123 11469 82904 11034 21041 39337 40214 51036 69971 78588 8657/ 333 10055 21037 44008 70023 90983 93101
AAXX 21124 71125 13974 12607 11124 21139 39562 40181 51027 60002 81070 333 40997 70002
AAXX 21124 71129 12674 40111 11055 21075 39325 40165 53043 60001 84500 333 10055 21056 41997 70000
AAXX 21124 71131 17/// /3217 11023 21026 38860 40119 53015 60011 7//4/ 333 10032 21034 70035
AAXX 21124 71135 16/// /3312 11006 21023 39021 40105 52014 60001 333 10036 21007 4/005 70000
AAXX 21124 71137 16/// /2909 11005 21015 39171 40116 53015 60001 333 10030 21008 70003
AAXX 21124 71140 12574 53304 11086 21090 39583 40089 5/023 60001 85500 333 10008 21088 43002 70000
AAXX 21124 71145 NIL
AAXX 21124 71148 NIL
AAXX 21124 71185 16464 82511 11056 30109 40133 51026 69951 333 11014 21057 70010
AAXX 21124 71188 12974 83602 11126 21162 30110 40154 57012 60001 8807/ 333 11054 21138 43012 55060 79999
AAXX 21124 71200 16/// /3504 10036 21013 60001 333 10092 20033 70000
AAXX 21124 71207 16/// /3602 11022 30243 40309 53024 60001 333 10051 21023 7////
AAXX 21124 71260 NIL
AAXX 21124 71604 16/// /2814 11078 21087 60001 333 11013 21086 4/045 70007 555 10230
AAXX 21124 71605 16/// /2001 10018 21007 30145 40297 53022 60001 333 10092 20010 70000
AAXX 21124 71611 NIL
AAXX 21124 71612 16/// /0202 11045 21078 30061 40153 57004 60001 333 11026 21069 70000
AAXX 21124 71614 16/// /1303 11017 21055 30068 40135 56005 60001 333 11019 21110 70000
AAXX 21124 71616 16/// /0404 11102 21116 30046 40171 50001 60001 333 11043 21142 70000
AAXX 21124 71617 16/// /1406 11112 21138 39962 40139 56009 60001 333 11098 21149 70000
AAXX 21124 71618 NIL
AAXX 21124 71619 16/// /3403 11105 21147 30111 40172 57008 60001 333 11027 21112 70000
AAXX 21124 71622 NIL
AAXX 21124 71632 46/// /2501 11166 21185 39651 40103 53009 6///1 333 11035 21171 4/016 7////
AAXX 21124 71634 16/// /1901 11107 21156 30021 40180 58013 60001 333 11041 21150 4/009 70000
AAXX 21124 71638 16/// /3503 10011 21007 30188 40295 53022 60001 333 10079 21012 70000
AAXX 21124 71639 11266 80903 10009 21012 39853 40096 58022 69901 72062 886// 333 11009 21023 79999 90925
AAXX 21124 71642 13574 82106 11035 21050 39495 40041 58012 60001 885// 333 11032 21050 47023 70000
AAXX 21124 71001 15966 01321 11030 21079 39099 40082 56025 60001 333 10011 21189 70000
AAXX 21124 71002 17556 30802 11209 21228 39497 40059 56009 60001 771// 333 11122 21296 70000
AAXX 21124 71003 17448 82214 11048 21061 39582 49964 51009 60001 771// 333 11080 21128 70000
AAXX 21124 71005 16/// ///// 11049 21066 60001 333 10064 21055 70000
AAXX 21124 71006 NIL
AAXX 21124 71007 NIL
AAXX 21124 71008 NIL
AAXX 21124 71009 NIL
AAXX 21124 71010 NIL
AAXX 21124 71011 NIL
AAXX 21124 71012 NIL
AAXX 21124 71013 NIL
AAXX 21124 71014 NIL
AAXX 21124 71015 NIL
AAXX 21124 71016 NIL
AAXX 21124 71017 NIL
AAXX 21124 71018 NIL
AAXX 21124 71019 NIL
AAXX 21124 71020 NIL
AAXX 21124 71021 NIL
AAXX 21124 71022 15966 30805 10010 20007 30269 40314 50003 60001 333 10075 20005 70018
AAXX 21124 71023 16964 33208 11073 21092 39393 40174 51021 60001 333 10031 21100 70025
AAXX 21124 71024 16/// /0000 11096 21098 60001 333 11050 21104 4/013 70000
AAXX 21124 71026 NIL
AAXX 21124 71027 16/// /2605 11040 21083 30187 40197 51014 60001 333 10010 21050 4/008 70038
AAXX 21124 71028 16/// /3602 11105 21113 39283 40355 52023 60001 333 10095 21105 70000
AAXX 21124 71029 16/// /0510 11298 21328 30100 40142 58006 60001 333 11247 21322 4/029 70000
AAXX 21124 71030 16/64 /2106 11010 21048 30113 40205 56011 60001 333 10043 21135 4/001 70000
AAXX 21124 71032 46/// /0701 11066 21072 39450 40301 51027 6///1 333 10058 21082 4/009 7////
AAXX 21124 71033 46/// /3012 11149 21171 39486 40131 53023 6///1 333 11053 21149 4/023 55/// 20000 7//// 555 10020
AAXX 21124 71035 NIL
AAXX 21124 71036 15566 80313 11031 21056 39714 40090 53025 60001 333 10051 21057 70000
AAXX 21124 71039 46/// /1011 11087 6///1 333 11163 21231 7////
AAXX 21124 71040 46/// /0000 11129 21156 39919 40126 58006 6///1 333 11094 21182 7////
AAXX 21124 71041 15966 02406 11090 21106 30079 40225 51017 60001 333 10016 21093 70000
AAXX 21124 71042 16/// /0701 11001 21004 30292 40296 51020 60001 333 10081 21019 70000
AAXX 21124 71044 16/// /2301 11194 21215 39725 40052 56023 60001 333 11177 21210 4/012 70000
AAXX 21124 71046 460// /0809 11295 30052 40070 58018 6///1 333 11246 21299 7////
AAXX 21124 71047 16/// ///// 11049 21060 60001 333 10063 21053 70005
AAXX 21124 71048 NIL
AAXX 21124 71049 NIL
AAXX 21124 71060 NIL
AAXX 21124 71063 NIL
AAXX 21124 71893 12980 03208 10042 21014 30278 40310 52019 60001 333 10079 20039 55050 70000
AAXX 21124 71894 NIL
AAXX 21124 71896 469// 01804 11089 21104 39446 40299 51022 6///1 333 10036 21095
AAXX 21124 71897 11904 00505 10024 20020 3//// 4//// 53003 69941 75141 333 10050 20025 70004 90999
AAXX 21124 71898 160// ///// 10014 50003 60001 333 10076 20007 70015
AAXX 21124 71899 12574 61807 10035 20017 3//// 4//// 58001 60001 82578 333 10071 20025 70014
AAXX 21124 71902 12974 22307 11183 21251 30002 40011 56023 60002 80001 333 11109 21212 43021 70000 555 10000 20000
AAXX 21124 71905 NIL
AAXX 21124 71906 11558 81811 11127 21156 39834 49884 57024 69921 77177 8257/ 333 11155 21169 48015 70002 90973
AAXX 21124 71907 17308 82724 11144 21162 39840 49872 51035 60001 745// 333 11054 21155 70030
AAXX 21124 71909 16956 00920 11125 21154 39835 49878 56019 60001 333 11111 21197 70000
AAXX 21124 71910 47540 80110 11162 21184 39783 49845 56005 6///1 745// 333 11146 21187 7////
AAXX 21124 71911 46964 01205 11365 39971 40031 52015 6///1 333 11323 21415 7////
AAXX 21124 71912 12974 03008 11257 21299 39923 40114 53020 60001 333 11021 21258 47016 70026
AAXX 21124 71915 NIL
AAXX 21124 71917 11761 80000 11289 21335 30012 40026 58011 69961 77177 885// 333 11302 21322 47014 55/// 00001 20000 70014 90993
AAXX 21124 71922 11474 83115 11089 21119 39666 40140 53025 69901 77172 885// 333 11003 21089 47031 79999 90943
AAXX 21124 71924 11469 83107 11282 21325 39955 40048 57002 69901 77172 885// 333 11231 21318 48038 55/// 79999 90942
AAXX 21124 71925 11474 13114 11323 21371 30098 40142 53015 69901 77677 81570 333 11278 21326 42021 79999 90983
AAXX 21124 71926 11932 03227 11315 21371 30035 40061 53006 69901 73870 333 11304 21333 48043 79999 90923
AAXX 21124 71928 16/// /3110 11038 21070 39045 40227 51038 60001 333 10077 21049 4/010 70000
AAXX 21124 71893 12980 03208 10042 21014 30278 40310 52019 60001 333 10079 20039 55050 70000
AAXX 21124 78397 111474 53604 10249 20213 30138 40154 60001 70511 83841 333 01999 10314 20240 59003 81816 84358
AAXX 21124 06011 07456 71517 10055 20035 39910 49978 57056 60011 78185 333 55300 20014 60017 83/12 85/16 87/22 91030 91130
AAXX 21124 86246 31957 00303 10258 20181 39824 40106 52023 70400 333 20190 5////
AAXX 21124 71665 16/// /2309 11183 21230 39995 40005 56024 60001 333 11126 21215 4/035 70000
AAXX 21124 71666 16/// /2307 11113 21149 30155 40201 58006 60001 333 11002 21130 4/002 70000
AAXX 21124 71667 NIL
AAXX 21124 71668 NIL
AAXX 21124 71669 NIL
AAXX 21124 71670 16/// ///// 11104 21145 60001 333 11019 21118 70000
AAXX 21124 71671 NIL
AAXX 21124 71672 16/// /0503 11013 21027 39839 40106 56017 60001 333 11014 21078 70000
AAXX 21124 71673 NIL
AAXX 21124 71674 NIL
AAXX 21124 71675 17466 83607 11198 21217 39784 40068 53036 60031 70044 333 11022 21198 70106
AAXX 21124 71679 16/// /0503 11046 21070 39259 40295 51012 60001 333 10039 21046 70000
AAXX 21124 71680 NIL
AAXX 21124 71681 46/// /1803 10015 21063 6///1 333 10027 21017 7////
AAXX 21124 71682 NIL
AAXX 21124 71683 NIL
AAXX 21124 71684 15566 81707 11035 21063 39768 40071 58007 60001 333 11030 21052 70000
AAXX 21124 71685 15966 83503 11021 21022 39715 40265 51030 60001 333 10018 21026 70000
AAXX 21124 71686 469// /3602 11104 21109 39290 40269 53004 6///1 333 11028 21139
AAXX 21124 71687 16/// /0000 11059 21065 39505 40306 53022 60001 333 10029 21061 4/021 70000
AAXX 21124 71688 16/// /0601 11063 21066 39234 40292 53021 60001 333 10019 21071 4/057 70000
AAXX 21124 71689 15866 12805 11132 21140 39727 40196 51026 60001 333 10021 21133 70000
AAXX 21124 71690 NIL
AAXX 21124 71691 15466 82705 11086 21116 30100 40128 56009 60001 333 11066 21153 70000
AAXX 21124 71692 NIL
AAXX 21124 71694 16/// /1101 11011 21020 39742 40109 57015 60001 333 11018 21065 4/002 70000 555 10010
AAXX 21124 71695 16/// /3306 11091 21124 39768 40106 51020 60001 333 10003 21091 4/021 70000
AAXX 21124 71696 16/// /2810 11278 21307 30044 40083 53011 60001 333 11083 21283 70000
AAXX 21124 71697 15462 80805 10017 20016 39928 40100 56020 60001 333 10000 21033 70000
AAXX 21124 71699 17/// /2013 10016 21042 30202 40210 56017 69971 7//4/ 333 10033 21126 4/001 70007
AAXX 21124 71851 16/// /3204 11029 21034 39741 40076 53026 60001 333 10032 21032 70000
AAXX 21124 71857 NIL
AAXX 21124 71860 NIL
AAXX 21124 71876 15866 63108 11066 21080 39510 40185 51043 60001 333 10063 21081 70000
AAXX 21124 71885 NIL
AAXX 21124 71886 NIL
AAXX 21124 71888 NIL
AAXX 21124 71890 16/// /0504 11087 21123 30096 40124 56009 60001 333 11066 21154 4/014 70000 555 10050
AAXX 21124 71895 NIL
AAXX 21124 71550 NIL
AAXX 21124 71551 NIL
AAXX 21124 71552 46/// /3311 11040 21054 6///1 333 10002 21050 7////
AAXX 21124 71553 NIL
AAXX 21124 71554 16/// /2010 11072 21124 30131 40137 55006 60001 333 11020 21109 70000
AAXX 21124 71555 17/// /3521 11045 21059 38619 40202 53035 69931 7//4/ 333 10056 21050 70003
AAXX 21124 71556 16/// /3309 11082 21092 39527 40138 52034 60001 333 10050 21082 4/001 70000
AAXX 21124 71557 46/// /1002 11068 21072 6///1 333 10071 21071 7////
AAXX 21124 71558 NIL
AAXX 21124 71559 46/// /3406 11035 21043 39393 40094 51024 6///1 333 10049 21062 55/// 20000 7////
AAXX 21124 71560 NIL
AAXX 21124 71563 NIL
AAXX 21124 71564 16/// /3405 11013 21039 39702 40066 53024 60001 333 10043 21016 70000
AAXX 21124 71565 NIL
AAXX 21124 71566 NIL
AAXX 21124 71567 NIL
AAXX 21124 71568 16/// /3312 10055 20020 30306 40319 51017 60001 333 10080 20051 70006
AAXX 21124 71569 16/// /3513 11027 21043 39398 40100 53029 60001 333 10044 21027 70000
AAXX 21124 71570 16/// /3106 11042 21061 39748 40060 53023 60001 333 10006 21044 70003
AAXX 21124 71571 NIL
AAXX 21124 71572 NIL
AAXX 21124 71573 16/// /0702 10021 20014 39793 40075 56021 60001 333 10012 21006 70000
AAXX 21124 71574 12974 70000 11128 21153 30099 40175 57012 60001 87070 333 11021 21142 43019 79999
AAXX 21124 71575 16/// /0310 11161 21175 39776 49841 55005 60001 333 11145 21186 4/021 70018 555 10050
AAXX 21124 71576 16/// /1402 11254 21282 39916 40003 51005 60001 333 11169 21266 4/002 55/// 20000 70007
AAXX 21124 71577 NIL
AAXX 21124 71578 16/// /0000 11118 21142 60001 333 11041 21131 70000
AAXX 21124 71579 16/// /3305 11029 21049 39777 40060 52026 60001 333 10018 21029 70000
AAXX 21124 71580 NIL
AAXX 21124 71581 NIL
AAXX 21124 71582 17/04 /1202 10005 20005 30285 40339 53006 60001 761// 333 10078 21011 70003
AAXX 21124 71583 NIL
AAXX 21124 71584 15566 80305 11145 21173 30087 40136 56010 60001 333 11041 21188 70000
AAXX 21124 71585 NIL
AAXX 21124 71586 16/// /3113 11090 21118 39662 40135 53024 60001 333 11005 21090 4/029 70000
AAXX 21124 71587 NIL
AAXX 21124 71588 16/// /2607 11063 21084 60001 333 11028 21065 70000
AAXX 21124 71589 16/// /2906 11048 21059 39983 40118 53051 60001 333 11040 21083 4/004 70036 555 10040
AAXX 21124 71590 16/// /1101 11115 21141 39973 40172 56005 60001 333 11042 21190 4/011 70000 555 10010
AAXX 21124 71592 NIL
AAXX 21124 71593 NIL
AAXX 21124 71596 NIL
AAXX 21124 71598 16/64 /2005 11106 21154 30174 40180 56007 60001 333 11016 21107 4/003 70000
AAXX 21124 71599 NIL
AAXX 21124 71250 NIL
AAXX 21124 71251 16/// /3317 11012 21035 39247 40180 51029 60001 333 10056 21046 70000
AAXX 21124 71252 NIL
AAXX 21124 71253 46/// /0000 11200 21216 6///1 333 11054 21208 4/017 7////
AAXX 21124 71254 16/// /3205 11039 21040 60001 333 10047 21041 4/006 70009 555 10030
AAXX 21124 71255 16/// /3201 11150 21168 60001 333 10013 21151 4/017 70003
AAXX 21124 71256 46/// /2911 11036 21054 39275 40225 51025 6///1 333 10048 21036 7////
AAXX 21124 71257 NIL
AAXX 21124 71258 NIL
AAXX 21124 71259 NIL
AAXX 21124 71261 16/// /1306 10029 20026 39810 40070 56018 60001 333 10016 21008 70000
AAXX 21124 71263 13448 /0607 10012 20009 39798 40089 58027 60001 88/// 333 10014 21020 70000
AAXX 21124 71264 16/// /2405 11053 21084 30208 40241 53003 60001 333 10051 21080 70000
AAXX 21124 71265 15564 80708 10038 20026 30001 40095 56022 60001 333 10020 21001 70000
AAXX 21124 71266 NIL
AAXX 21124 71267 15766 83107 11020 21074 39094 40199 53035 60001 333 10069 21059 70000
AAXX 21124 71268 NIL
AAXX 21124 71269 NIL
AAXX 21124 71270 NIL
AAXX 21124 71271 16/// ///// 11036 21049 60001 333 10064 21043 70013
AAXX 21124 71272 17758 83104 11256 21281 39745 40116 52014 69911 771// 333 11062 21289 70001
AAXX 21124 71273 16/// /2804 11073 21091 39502 40172 51024 60001 333 10053 21085 55/// 20000 70000
AAXX 21124 71274 NIL
AAXX 21124 71275 NIL
AAXX 21124 71276 NIL
AAXX 21124 71277 NIL
AAXX 21124 71278 NIL
AAXX 21124 71279 16/// /0503 11148 21173 30059 40127 56012 60001 333 11097 21203 70000
AAXX 21124 71281 NIL
AAXX 21124 71282 46/// /1103 11002 21002 39833 40105 56016 6///1 333 11009 21027 7////
AAXX 21124 71283 NIL
AAXX 21124 71284 17/// ///// 11032 21035 69941 7//4/ 333 10051 21040 70020
AAXX 21124 71285 NIL
AAXX 21124 71286 NIL
AAXX 21124 71287 NIL
AAXX 21124 71288 NIL
AAXX 21124 71289 NIL
AAXX 21124 71290 15966 01203 11120 21139 39424 40278 51014 60001 333 10047 21122 70045
AAXX 21124 71291 16/// /2303 11007 21057 39724 40011 53004 60001 333 11008 21017 4/010 55/// 20000 70000
AAXX 21124 71292 15566 83110 11077 21088 39496 40108 53026 60001 333 10037 21081 70000
AAXX 21124 71294 NIL
AAXX 21124 71295 NIL
AAXX 21124 71296 NIL
AAXX 21124 71297 16/// /0000 10013 20009 60001 333 10016 21018 70000
AAXX 21124 71298 17/// /1703 10060 20059 39827 40056 56022 60061 7//4/ 333 10040 20027 70062
AAXX 21124 71299 NIL
AAXX 21124 71350 16/// /2004 11092 21133 30141 40209 50003 60001 333 10004 21121 4/002 70000
AAXX 21124 71351 NIL
AAXX 21124 71352 16/// /1202 10000 21001 39636 40092 56016 60001 333 11010 21031 70000
AAXX 21124 71353 NIL
AAXX 21124 71354 NIL
AAXX 21124 71355 16/// /3003 11195 21243 39971 40058 51006 60001 333 11176 21216 4/011 70003
AAXX 21124 71356 16/// /3228 11315 21350 39987 40057 55003 60001 333 11309 21337 4/006 70000
AAXX 21124 71357 NIL
AAXX 21124 71358 16/// /3116 11190 21216 39934 49969 56001 60001 333 11197 21274 4/068 70015
AAXX 21124 71359 NIL
AAXX 21124 71360 NIL
AAXX 21124 71361 NIL
AAXX 21124 71362 NIL
AAXX 21124 71363 NIL
AAXX 21124 71364 NIL
AAXX 21124 71365 NIL
AAXX 21124 71368 17116 80901 10002 20001 39703 40094 56017 60001 761// 333 11006 21036 70000
AAXX 21124 71369 15566 82716 11029 21055 39492 40206 51019 60001 333 10081 21029 70038
AAXX 21124 71370 46/// /0603 11103 21114 30016 40157 58001 6///1 333 11058 21127 7////
AAXX 21124 71371 15566 80104 11054 21066 30117 40152 56003 60001 333 11027 21104 70000
AAXX 21124 71372 NIL
AAXX 21124 71373 16/// /1905 10004 21040 60001 333 11010 21086 70000
AAXX 21124 71374 NIL
AAXX 21124 71375 NIL
AAXX 21124 71376 16/// /1601 11097 21107 39847 40156 56007 60001 333 11057 21183 70000
AAXX 21124 71377 16/// /0303 11058 21081 30095 40145 58006 60001 333 11026 21110 70000
AAXX 21124 71378 16/// /1704 11080 21121 39934 40149 58001 60001 333 11085 21149 4/004 70000 555 10010
AAXX 21124 71379 16/// /1906 11076 21113 39919 40093 55005 60001 333 11093 21132 70000
AAXX 21124 71380 NIL
AAXX 21124 71381 NIL
AAXX 21124 71382 16/// /1906 11106 21121 39175 40150 56002 60001 333 11111 21178 70000
AAXX 21124 71383 NIL
AAXX 21124 71384 16/// /2702 11124 21135 30155 40163 58006 60001 333 11040 21127 70000
AAXX 21124 71385 NIL
AAXX 21124 71386 16/// /1605 11121 21160 39932 40144 56009 60001 333 11042 21150 70010
AAXX 21124 71387 NIL
AAXX 21124 71388 NIL
AAXX 21124 71389 NIL
AAXX 21124 71390 NIL
AAXX 21124 71391 16/// ///// 11068 21099 60001 333 11055 21112 70000
AAXX 21124 71392 16/// /2103 11104 21120 60001 333 11050 21140 70000
AAXX 21124 71393 NIL
AAXX 21124 71395 12974 12007 11097 21115 30051 40236 53004 60001 80001 333 10030 21117 70005
AAXX 21124 71398 17358 82207 11012 21015 39979 49990 53001 60001 771// 333 11012 21017 70000
AAXX 21124 71399 NIL
AAXX 21124 71744 NIL
AAXX 21124 71750 16/// /2607 10017 21019 39774 40006 56009 60001 333 10020 20012 4/006 70000
AAXX 21124 71751 NIL
AAXX 21124 71752 NIL
AAXX 21124 71753 16/// /0303 11120 21136 30197 40227 50002 60001 333 10024 21133 70000
AAXX 21124 71754 16/// /3108 11073 21097 39506 40180 51042 60001 333 10061 21085 55/// 20000 70000
AAXX 21124 71755 43/// /0308 11179 21201 39722 40073 53037 6///1 333 11015 21180 7////
AAXX 21124 71756 16/// /0701 11053 21062 39180 40297 53020 60001 333 10014 21054 4/042 70000
AAXX 21124 71758 NIL
AAXX 21124 71760 NIL
AAXX 21124 71761 NIL
AAXX 21124 71762 NIL
AAXX 21124 71763 NIL
AAXX 21124 71765 16/// /1703 10000 21009 30031 40310 51028 60001 333 10107 21007 70004
AAXX 21124 71766 16/// /2705 10037 21018 30232 40305 53014 60001 333 10084 20019 70000
AAXX 21124 71767 16/// /2402 10024 20005 39818 40079 56018 60001 333 10021 20002 4/001 70000
AAXX 21124 71768 46/// /2807 11002 21070 39724 40284 53024 6///1 333 10020 21022 7////
AAXX 21124 71769 16/// /2819 10059 20022 30273 40289 53014 60001 333 10075 20053 70000
AAXX 21124 71770 16/// /0703 11024 21031 39449 40236 53026 60001 333 10007 21028 70000
AAXX 21124 71771 NIL
AAXX 21124 71772 16/// /3117 10064 20025 30282 40288 53017 60001 333 10078 20063 70002
AAXX 21124 71773 16/// /1905 11038 21081 39306 40179 56010 60001 333 11015 21134 4/022 70000
AAXX 21124 71774 46/// ///// 10019 6///1 333 10071 20015 7////
AAXX 21124 71775 46/// /3301 11018 21018 30299 40305 51021 6///1 333 10083 21022 7////
AAXX 21124 71776 46/// /2407 11023 21039 39592 40245 53028 6///1 333 10008 21024 7////
AAXX 21124 71777 16/// ///// 11045 21049 30064 40323 53025 60001 333 10024 21045 4/011 70000 555 10020
AAXX 21124 71778 46/// /0206 6///1 333 7////
AAXX 21124 71779 16/// /0201 11112 21120 39632 40313 51026 60001 333 10051 21120 4/022 70000
AAXX 21124 71780 16/// /0704 10046 20000 30276 40304 51016 60001 333 10079 20030 70000
AAXX 21124 71781 46/// /3319 10058 20021 30270 40295 53014 6///1 333 10089 20058 7////
AAXX 21124 71782 46/// /3601 11082 21090 38869 40218 51031 6///1 333 10010 21087 7////
AAXX 21124 71783 16/// /0102 10040 21010 30221 40296 51016 60001 333 10095 21003 70002
AAXX 21124 71784 16/// /3402 10005 21007 30087 40295 53022 60001 333 10082 20004 70000
AAXX 21124 71785 16/// /3505 10022 20014 30291 40307 51022 60001 333 10089 21007 70000
AAXX 21124 71786 46/// /2204 11084 21093 38374 40240 51026 6///1 333 11046 21085 7////
AAXX 21124 71787 16/// /2110 11116 21154 39703 40209 55000 60001 333 11016 21144 4/006 70004
AAXX 21124 71788 NIL
AAXX 21124 71789 NIL
AAXX 21124 71791 NIL
AAXX 21124 71792 NIL
AAXX 21124 71793 NIL
AAXX 21124 71794 NIL
AAXX 21124 71795 NIL
AAXX 21124 71796 NIL
AAXX 21124 71797 NIL
AAXX 21124 71450 NIL
AAXX 21124 71451 16/// /3207 11106 21139 39681 40115 53023 60001 333 11027 21122 4/020 70000
AAXX 21124 71452 46/// /3407 11018 21032 39391 40102 53027 6///1 333 10051 21050 7////
AAXX 21124 71453 17/// /0000 11006 21012 39221 40139 51017 69931 7//4/ 333 10057 21006 55/// 20000 70030
AAXX 21124 71454 16/// /3209 11102 21125 39447 40149 52025 60001 333 10020 21102 55/// 20000 70000
AAXX 21124 71455 NIL
AAXX 21124 71456 16/// /2906 11083 21096 39533 40139 51028 60001 333 10023 21114 70000
AAXX 21124 71457 16/// /3213 11009 21017 39259 40152 51027 60001 333 10044 21025 4/010 70000
AAXX 21124 71458 16/// /3107 11037 21047 39420 40199 51033 60001 333 10067 21039 4/007 70000 555 10010
AAXX 21124 71459 17/// /0312 11036 21050 39343 40158 53045 60011 7//4/ 333 10050 21037 70011
AAXX 21124 71460 16/// /2704 11002 21037 39843 40085 56012 60001 333 10011 21002 70000
AAXX 21124 71461 NIL
AAXX 21124 71462 NIL
AAXX 21124 71463 46/// /1205 10055 20036 39872 40095 56019 6///1 333 10050 20012 7////
AAXX 21124 71464 NIL
AAXX 21124 71465 NIL
AAXX 21124 71466 NIL
AAXX 21124 71468 NIL
AAXX 21124 71470 NIL
AAXX 21124 71471 15966 01502 11121 21130 39434 40247 51012 60001 333 10062 21123 70000
AAXX 21124 71473 16/// /3410 10038 20014 30264 40295 51021 60001 333 10070 20038 70000
AAXX 21124 71475 16/// /0000 10018 20009 30224 40319 53012 60001 333 10050 20007 70000
AAXX 21124 71476 NIL
AAXX 21124 71477 16/// /1804 10011 20004 60001 333 10061 20006 70006
AAXX 21124 71478 NIL
AAXX 21124 71479 NIL
AAXX 21124 71480 NIL
AAXX 21124 71481 NIL
AAXX 21124 71482 NIL
AAXX 21124 71483 NIL
AAXX 21124 71484 NIL
AAXX 21124 71485 16/// /3208 10051 20021 30295 40316 50001 60001 333 10083 20049 70002
AAXX 21124 71486 17/// /0801 11031 21034 39021 40238 51022 69961 7//4/ 333 10048 21033 4/014 70006
AAXX 21124 71487 NIL
AAXX 21124 71489 16/// /3303 11081 21096 39367 40177 51042 60001 333 10060 21085 70000
AAXX 21124 71490 NIL
AAXX 21124 71491 16/// /0603 11219 21243 60001 333 11069 21265 70000
AAXX 21124 71492 NIL
AAXX 21124 71493 16/// /3102 11123 21133 30182 40222 51003 60001 333 10019 21133 70000 555 10010
AAXX 21124 71494 NIL
AAXX 21124 71495 NIL
AAXX 21124 71496 16/// /3408 11117 21130 39540 40164 52038 60001 333 10067 21117 55/// 20000 70000
AAXX 21124 71497 46/// /2705 11004 21104 39911 40181 52010 6///1 333 11034 21172 7////
AAXX 21124 71498 NIL
AAXX 21124 71499 17466 83012 11139 21162 39487 40129 53024 60001 771// 333 11051 21139 70000
AAXX 21124 71950 15966 02103 11090 21104 39665 40313 51014 60001 333 10051 21092 70000
AAXX 21124 71952 16/// /3102 11173 21191 39434 40320 53012 60001 333 10035 21181 4/036 70000
AAXX 21124 71954 46/// /0000 11102 21122 39731 40112 51015 6///1 333 11010 21109 7////
AAXX 21124 71956 NIL
AAXX 21124 71959 NIL
AAXX 21124 71960 460// /1306 11268 39966 40105 56017 6///1 333 11271 21302 7////
AAXX 21124 71962 16/// /2705 11015 21050 39613 40033 53016 60001 333 10020 21026 4/003 70033
AAXX 21124 71963 NIL
AAXX 21124 71967 16/// /2001 11049 21070 30061 40169 50000 60001 333 11041 21115 70000
AAXX 21124 71970 NIL
AAXX 21124 71971 NIL
AAXX 21124 71972 460// ///// 11143 39425 49888 57031 6///1 333 11131 21160 7////
AAXX 21124 71973 46/// /2508 11070 21085 39967 40159 51023 6///1 333 11021 21072 7////
AAXX 21124 71974 NIL
AAXX 21124 71975 460// /0610 11181 39200 49931 56006 6///1 333 11156 21192 7////
AAXX 21124 71976 NIL
AAXX 21124 71977 NIL
AAXX 21124 71978 NIL
AAXX 21124 71979 NIL
AAXX 21124 71980 NIL
AAXX 21124 71981 NIL
AAXX 21124 71982 NIL
AAXX 21124 71983 NIL
AAXX 21124 71984 16/// /1810 11231 21255 30115 40124 58017 60001 333 11220 21288 70000
AAXX 21124 71985 NIL
AAXX 21124 71986 NIL
AAXX 21124 71987 16/// /2423 11055 21093 30173 40183 58009 60001 333 10004 21092 70000
AAXX 21124 71988 NIL
AAXX 21124 71989 NIL
AAXX 21124 71990 NIL
AAXX 21124 71999 46/// ///// 10002 6///1 333 10099 20001 7////
AAXX 21124 71150 NIL
AAXX 21124 71151 NIL
AAXX 21124 71152 16/// /3013 11049 21085 30165 40178 53029 60001 333 10014 21059 70039
AAXX 21124 71153 16/// /3203 11026 21079 60001 333 10064 21027 70000
AAXX 21124 71154 16/// /0801 11048 21089 60001 333 10032 21051 70000
AAXX 21124 71155 NIL
AAXX 21124 71156 NIL
AAXX 21124 71157 NIL
AAXX 21124 71158 NIL
AAXX 21124 71159 NIL
AAXX 21124 71160 NIL
AAXX 21124 71161 16/// /1603 10007 21018 39972 40122 56012 60001 333 11022 21102 70000
AAXX 21124 71162 NIL
AAXX 21124 71163 46/// /1402 11241 21262 39822 40183 53011 6///1 333 11152 21323 7////
AAXX 21124 71164 NIL
AAXX 21124 71165 NIL
AAXX 21124 71166 NIL
AAXX 21124 71167 15966 62909 11054 21084 39125 40239 51022 60001 333 10055 21061 70006
AAXX 21124 71168 16/// /0000 11084 21097 39457 40056 55001 60001 333 10018 21099 70000
AAXX 21124 71170 16/// /3505 11071 21079 60001 333 10020 21079 70000
AAXX 21124 71171 16/// /0000 10029 20012 39987 40084 56022 60001 333 10023 20009 70000
AAXX 21124 71172 NIL
AAXX 21124 71175 16/// /2705 11056 21091 30187 40223 52018 60001 333 10027 21058 70006 555 10020
AAXX 21124 71176 460// /1606 11149 39200 49888 56022 6///1 333 11169 21212 7////
AAXX 21124 71177 460// /2113 11173 38930 49944 56014 6///1 333 11159 21200 7////
AAXX 21124 71178 17/// /3327 11013 21041 30070 40102 53052 69931 7//4/ 333 11003 21039 55/// 20000 70049
AAXX 21124 71179 460// /2702 11200 39192 40038 58005 6///1 333 11125 21200 7////
AAXX 21124 71180 16/// /2718 11029 21078 30152 40192 51025 60001 333 10011 21044 70007
AAXX 21124 71181 16564 63011 11038 21094 30101 40138 51038 60001 333 10007 21045 70020
AAXX 21124 71183 16/// /0305 30104 58007 60001 333 70000
AAXX 21124 71184 46/// /0504 11064 21083 6///1 333 11026 21116 7////
AAXX 21124 71186 NIL
AAXX 21124 71187 15566 80805 10027 20023 30255 40304 51019 60001 333 10074 20020 70000
AAXX 21124 71189 NIL
AAXX 21124 71190 NIL
AAXX 21124 71191 16/// ///// 11119 21142 60001 333 10019 21121 4/003 70000
AAXX 21124 71192 15966 00602 11105 21109 39635 40315 51025 60001 333 10051 21116 70000
AAXX 21124 71193 NIL
AAXX 21124 71196 16/// /1404 11040 21056 39914 40116 56011 60001 333 11040 21102 4/001 70000 555 10010
AAXX 21124 71197 16564 82822 11031 21084 30140 40190 51027 60001 333 10013 21047 70005
AAXX 21124 71198 46/// /0410 11070 21090 6///1 333 11034 21083 7////
AAXX 21124 71199 46/// /0000 11186 21207 39373 40245 55002 6///1 333 11108 21237 4/020 7////
AAXX 21124 71864 NIL
AAXX 21124 71865 16/// /3206 11090 21105 39440 40127 51029 60001 333 10047 21094 70000
AAXX 21124 71866 46964 03308 11118 21138 39543 40168 51038 6///1 333 10068 21118 7////
AAXX 21124 71867 11566 83406 11092 21119 39772 40111 51020 69901 77172 885// 333 10002 21093 47021 79999 90917
AAXX 21124 71868 16/// /3307 11047 21084 39665 40109 51024 60001 333 10029 21050 70000
AAXX 21124 71869 12474 83010 11086 21105 39622 40153 52034 60001 885// 333 10037 21095 47003 70000
AAXX 21124 71871 15966 83110 11055 21069 39369 40186 51033 60001 333 10053 21058 70000
AAXX 21124 71877 11566 83321 11030 21057 38926 40212 52039 60011 71672 88500 333 10092 21031 42002 70012 90941 93102
AAXX 21124 71878 NIL
AAXX 21124 71879 17216 92906 11030 21045 39397 40210 51032 60001 745// 333 10058 21033 70000
AAXX 21124 71880 12982 30000 11064 21075 39097 40219 52029 60001 83070 333 10026 21078 70000
AAXX 21124 71882 160// /3402 11022 21029 39716 40266 51030 60001 333 10017 21026 70000
AAXX 21124 71883 46/// /0000 11118 21128 39448 40294 52033 6///1 333 10037 21119 7////
AAXX 21124 71887 12786 23112 10021 21074 39870 40301 52031 60001 82500 333 10047 21018 41997 70000
AAXX 21124 71889 12474 70000 11031 21039 39857 40285 52021 60001 81670 333 10016 21053 47002 70024
AAXX 21124 71891 16164 81703 10001 21006 30033 40312 51028 60001 333 10107 21006 70000
AAXX 21124 71892 12580 20000 11005 21018 30299 40304 52022 60001 81501 333 10076 21014 55034 79999
AAXX 21124 71397 12974 20000 11102 21123 30202 40238 53003 60001 81071 333 10035 21108 70000
AAXX 21124 71400 16/64 /2706 11059 21075 60001 333 11038 21081 70021
AAXX 21124 71403 46/// /2706 11052 21089 30217 40237 51004 6///1 333 10059 21077 7////
AAXX 21124 71411 16/// /2505 11078 21091 30233 40246 53006 60001 333 10053 21094 70000
AAXX 21124 71412 16/// /2505 11095 21123 30200 40210 51009 60001 333 10014 21098 4/001 70003
AAXX 21124 71421 NIL
AAXX 21124 71430 16/// /1815 10063 20044 30010 40106 56019 60001 333 10046 20008 70000
AAXX 21124 71431 NIL
AAXX 21124 71432 16/// /1001 10039 20018 39995 40092 56020 60001 333 10028 20018 70000
AAXX 21124 71433 NIL
AAXX 21124 71435 NIL
AAXX 21124 71441 NIL
AAXX 21124 71443 16/// /0509 11055 21079 39689 40104 53030 60001 333 10034 21055 4/005 70000
AAXX 21124 71444 16/// /0206 11050 21056 39319 40078 53021 60001 333 10010 21109 4/011 70000
AAXX 21124 71447 NIL
AAXX 21124 71467 16/// /1403 11248 21271 30008 40127 58006 60001 333 11232 21263 4/002 70000 555 10010
AAXX 21124 71472 NIL
AAXX 21124 71474 16664 83306 11025 21107 39039 40298 52022 60001 333 10045 21032 7////
AAXX 21124 71510 NIL
AAXX 21124 71538 11/04 90000 10049 20047 39836 40065 56019 60011 76154 333 10039 20018 70010 90926
AAXX 21124 71600 16964 02811 11010 21073 30237 40243 51017 60001 333 10072 21021 70020
AAXX 21124 71601 NIL
AAXX 21124 71726 16/// /1903 11078 21090 39558 40110 55010 60001 333 11095 21126 4/017 70003
AAXX 21124 71727 12974 61403 11120 21143 39930 40135 55005 60001 86070 333 11089 21165 48029 79999
AAXX 21124 71728 12780 72210 11071 21125 39891 40117 55004 60001 87500 333 11084 21112 46997 70000
AAXX 21124 71730 12574 82205 11031 21057 39653 40081 56014 60001 885// 333 11016 21065 41997 79999
AAXX 21124 71731 12274 82104 11019 21033 39630 40085 56012 60001 886// 333 11042 21062 41997 79999
AAXX 21124 71735 NIL
AAXX 21124 71738 13574 62408 10011 21043 39679 40030 56007 60002 86500 333 10000 21010 44026 70000 555 10000 20000 32137 40171
AAXX 21124 71739 41674 82006 11035 21054 39676 40040 57006 6//// 70277 885// 333 11037 21043 4//// 7//// 90951
AAXX 21124 71749 16864 32504 11026 21072 39780 40025 53002 60001 333 10004 21026 70000
AAXX 21124 71799 12483 12805 11011 21016 30278 40303 52017 60001 81500 333 10096 21017 55030 70000
AAXX 21124 71800 NIL
AAXX 21124 71801 12474 72818 11036 21055 39944 40119 52044 60001 87500 333 11019 21049 70070
AAXX 21124 71803 11380 82812 11051 21071 39939 40129 53046 60011 72611 885// 333 11049 21064 46007 70060 90952 93101
AAXX 21124 71807 NIL
AAXX 21124 71808 12574 20000 11141 21159 30060 40116 53017 60001 82500 333 11041 21154 44021 70036
AAXX 21124 71809 11469 62107 11061 21098 30128 40156 52032 60011 78588 86500 333 11030 21076 47009 70110 90983 93101
AAXX 21124 71810 16/// /2208 11069 21108 30062 40130 58005 60001 333 11046 21129 70000
AAXX 21124 71811 NIL
AAXX 21124 71813 16/// /0803 11161 21184 30129 40143 58004 60001 333 21197 7////
AAXX 21124 71814 16/// /2905 11167 21194 30137 40147 51018 60001 333 11019 21177 70012
AAXX 21124 71815 11469 82810 11050 21083 30140 40171 53022 69901 78588 885// 333 11014 21057 48011 70080 90983
AAXX 21121 38613 42998 83601 11063 21123 39439 40396 56004 8802/ 555 14107
AAXX 21124 71816 12774 72006 11213 21251 30033 40097 58013 60001 81570 333 11084 21223 47050 55000 70030
AAXX 21124 71817 NIL
AAXX 21124 71818 12974 01907 11155 21173 30072 40090 51007 60001 333 11064 21155 43019 55000 70004
AAXX 21124 71822 NIL
AAXX 21124 71825 11769 72211 11144 21184 39356 40048 56007 60011 77177 86570 333 11160 21235 47085 70014 90973 93102
AAXX 21124 71827 11324 82309 11039 21039 39720 49963 53014 60021 77177 885// 333 11043 21069 47019 70042 90983 93102
AAXX 21124 71828 17559 81611 11177 21212 39339 49995 58007 60001 745// 333 11190 21222 70005
AAXX 21124 71831 11574 81910 11007 21035 39734 40013 55003 69981 77177 885// 333 11018 21022 48039 70008 90973
AAXX 21124 71832 NIL
AAXX 21124 71834 11574 82304 11023 21043 39580 40006 53007 60011 70272 885// 333 11021 21032 48026 70038 90933 93101
AAXX 21124 71841 NIL
AAXX 21124 71842 11248 83004 11033 21038 39556 40025 53020 69901 77172 887// 333 11011 21033 47012 70018 90931
AAXX 21124 71844 16464 83508 11197 21210 39785 40068 52036 60001 333 11020 21197 70005
AAXX 21124 71845 11366 82904 11033 21037 39536 40009 53020 60032 771// 885// 333 11039 21042 44019 70036 90999 555 10024 20016 32125 40071
AAXX 21124 71850 12474 82908 11019 21042 39544 40043 53023 60001 886// 333 1011 21021 48007 70000
AAXX 21124 71852 16664 83208 11055 21063 39772 40067 52025 60001 333 10018 21074 70000
AAXX 21124 71854 11474 83209 11035 21056 39557 40030 52017 60042 771// 885// 333 11025 21036 48017 70074 90999 555 10074 20074
AAXX 21124 71858 16/// /0205 11094 21112 39819 40104 53030 60001 333 10016 21094 70000
AAXX 21124 71861 16/// /3306 11071 21083 39372 40101 53025 60001 333 10036 21071 4/001 7////
AAXX 21124 71862 12774 73305 11034 21047 39395 40096 53022 60001 86501 333 10050 21067 42002 70000
AAXX 21124 71863 46764 60113 11045 21082 39415 40117 53031 6///1 333 10032 21045 7////
AAXX 21124 71043 12683 60906 11181 21226 30030 40127 58016 60001 85570 333 11187 21233 48024 79999
AAXX 21124 71045 16/// /1905 11058 21074 39340 40226 50000 60001 333 11119 21192 4/025 70000 555 10040
AAXX 21124 71050 46/// /1002 11150 21167 39222 40337 51019 6///1 333 10061 21150 7////
AAXX 21124 71051 NIL
AAXX 21124 71052 NIL
AAXX 21124 71066 NIL
AAXX 21124 71068 12974 02809 11055 21091 39513 40217 51012 60001 333 10049 21089 46002 70002
AAXX 21124 71069 16464 82715 11029 21049 39493 40206 51020 60001 333 10082 21029 70020
AAXX 21124 71076 16/// /2804 11203 21227 39764 40171 51028 60001 333 11050 21204 4/033 55/// 20000 70000 555 10040
AAXX 21124 71077 16/// /3107 11086 21107 39628 40183 53022 60001 333 10002 21132 4/013 55/// 20000 70000
AAXX 21124 71079 11574 80000 11175 21192 39830 40118 52015 69901 77177 885// 333 11026 21175 48009 79999 90983
AAXX 21124 71081 46564 30408 11251 21283 39958 49970 53009 6///1 333 11197 21276 7////
AAXX 21124 71082 NIL
AAXX 21124 71083 11948 03317 11332 21376 39976 40020 51008 69901 77677 333 11273 21339 48054 79999 90983
AAXX 21124 71090 46459 83117 11191 21228 39936 49971 55000 6///1 333 11198 21269 7////
AAXX 21124 71091 460// /0310 11290 39742 49957 58001 6///1 333 7////
AAXX 21124 71092 46964 01011 11244 39275 49953 53003 6///1 333 11227 21266 7////
AAXX 21124 71093 460// /3507 11213 39451 49953 53003 6///1 333 11195 21213 7////
AAXX 21124 71094 46045 /1803 11187 39010 49910 56001 6///1 333 11174 7////
AAXX 21124 71095 46964 01702 11252 21286 39921 40003 52005 6///1 333 11167 21266 7////
AAXX 21124 71101 160// /2304 30303 53003 60001 333 70000
AAXX 21124 71104 12774 20000 11062 21105 39173 40310 51022 60001 82500 333 10030 21070 44029 70000
AAXX 21124 71108 12966 00303 11007 21011 30227 40301 52022 60001 333 10071 21015 70010
AAXX 21124 71109 12474 12403 10016 21010 30291 40318 50003 60001 81570 333 10078 20013 70008
AAXX 21124 71603 12574 61804 11063 21079 30180 40235 56003 60001 81501 333 10069 21083 70000
AAXX 21124 71607 16/// /0000 11145 21157 30178 40212 56009 60001 333 10012 21155 4/001 70000
AAXX 21124 71609 12474 20000 11132 21164 30080 40220 55009 60001 81501 333 10002 21144 70000
AAXX 21124 71610 15666 80502 11065 21089 39861 40166 56009 60001 333 11018 21144 70000
AAXX 21124 71621 12474 80403 11006 21027 30005 40112 56019 60001 885// 333 11004 21049 70000
AAXX 21124 71623 NIL
AAXX 21124 71624 12474 81003 10027 20010 39884 40097 57019 60001 886// 333 10005 21020 55061 70000
AAXX 21124 71625 163// 81204 11036 21054 39953 40116 56012 60001 333 21066 7////
AAXX 21124 71627 12574 80406 11056 21096 30103 40149 57006 60001 885// 333 11016 21085 70000
AAXX 21124 71628 13460 80605 11064 21096 39993 40137 57001 60001 82500 333 11026 21115 70000
AAXX 21124 71630 NIL
AAXX 21124 71631 NIL
AAXX 21124 71633 11432 81307 10010 20007 39811 40083 57016 69901 72022 887// 333 10003 21008 55038 79999 90921
AAXX 21124 71705 12574 32205 11120 21156 30122 40213 55004 60001 82501 333 10004 21124 42002 70000
AAXX 21124 71706 12574 62205 11080 21125 30154 40216 50003 60001 81510 333 10008 21109 43002 70002
AAXX 21124 71707 11574 42407 11065 21102 30136 40215 53018 69901 70181 82502 333 10008 21074 44004 70002 90952
AAXX 21124 71709 13580 62410 11044 21085 30179 40193 51011 69942 86500 333 10007 21054 46006 70042 90999 555 10054 20054
AAXX 21124 71711 NIL
AAXX 21124 71714 16/// /2803 11126 21149 30092 40188 56004 60001 333 11046 21207 4/007 70000
AAXX 21124 71715 16/// /2009 11055 21106 39955 40141 55006 60001 333 11051 21119 70000
AAXX 21124 71718 12683 82109 11061 21127 30069 40136 55007 60001 885// 333 11031 21107 42001 79999
AAXX 21124 71719 NIL
AAXX 21124 71125 13974 12607 11124 21139 39582 40181 51027 60002 81070 333 40997 70002
AAXX 21124 71930 NIL
AAXX 21124 71931 NIL
AAXX 21124 71934 12974 00000 11221 21245 39920 40189 50011 60001 333 11047 21221 47021 79999
AAXX 21124 71935 12574 30000 11188 21198 39968 40184 55001 60001 81570 333 11098 21194 44012 70000
AAXX 21124 71936 12974 20302 11290 21330 39912 40188 52011 60001 82030 333 11139 21290 48021 70004
AAXX 21124 71937 NIL
AAXX 21124 71938 11974 02004 11321 21353 30150 40182 50001 69901 72277 333 11248 21333 48025 79999 90913
AAXX 21124 71940 12982 22606 11074 21077 39425 40248 52012 60001 81071 333 10055 21083 43001 70008
AAXX 21124 71943 12974 02310 11048 21087 39382 40235 52011 60001 333 10039 21057 44003 79999
AAXX 21124 71944 160// ///// 11124 51015 60001 333 10044 21128 70065
AAXX 21124 71945 12874 22105 11146 21178 39726 40211 51012 60001 82030 333 11012 21150 43011 79999
AAXX 21124 71946 12974 20000 11166 21185 39947 40167 53014 60001 80001 333 11102 21176 44034 70000
AAXX 21124 71948 46064 /1706 11244 30009 40127 58012 6///1 333 11246 21272 7////
AAXX 21124 71949 46/// /1004 11189 21210 39280 40190 58012 6///1 333 11163 21231 7////
AAXX 21124 71951 11148 81604 10001 21003 30051 40324 50005 60001 71022 887// 333 10040 21009 43022 70015
AAXX 21124 71957 46964 00806 11236 21300 39989 40081 56021 6///1 333 11235 21271 7////
AAXX 21124 71964 12986 81915 11040 21092 39310 40183 56011 60001 80001 333 11022 21129 47015 70000
AAXX 21124 71966 16/// /0804 11125 21142 39617 40088 58018 60001 333 11164 21233 4/029 70000
AAXX 21124 71968 460// /3106 11307 39999 40067 58013 6///1 333 11237 21331 7////
AAXX 21124 06030 02570 13604 10039 20010 30093 40109 52022 6///1 81501 333 6///7 81630
AAXX 21124 06060 02575 13207 10038 20014 30048 40114 52019 6///1 81501 333 6///7 81625
AAXX 21124 06070 05373 83309 10032 20013 30076 40107 52021 6///1 333 6///7 81/08 88/28
AAXX 21124 06120 NIL
AAXX 21124 06180 01258 81407 10027 20021 30087 40093 52011 69931 72076 886// 333 69907 82705 87707
AAXX 21124 06193 07562 71002 10024 20003 30087 40099 52010 69901 70086 333 55307 20522 69907 87/29
AAXX 21124 71893 12980 03208 10042 21014 30278 40310 52019 60001 333 10079 20039 55050 70000
AAXX 21124 71894 NIL
AAXX 21124 71896 469// 01804 11089 21104 39446 40299 51022 6///1 333 10036 21095
AAXX 21124 71897 11904 00505 10024 20020 3//// 4//// 53003 69941 75141 333 10050 20025 70004 90999
AAXX 21124 71898 160// ///// 10014 50003 60001 333 10076 20007 70015
AAXX 21124 71899 12574 61807 10035 20017 3//// 4//// 58001 60001 82578 333 10071 20025 70014
AAXX 21124 71902 12974 22307 11183 21251 30002 40011 56023 60002 80001 333 11109 21212 43021 70000 555 10000 20000
AAXX 21124 71905 NIL
AAXX 21124 71906 11558 81811 11127 21156 39834 49884 57024 69921 77177 8257/ 333 11155 21169 48015 70002 90973
AAXX 21124 71907 17308 82724 11144 21162 39840 49872 51035 60001 745// 333 11054 21155 70030
AAXX 21124 71909 16956 00920 11125 21154 39835 49878 56019 60001 333 11111 21197 70000
AAXX 21124 71910 47540 80110 11162 21184 39783 49845 56005 6///1 745// 333 11146 21187 7////
AAXX 21124 71911 46964 01205 11365 39971 40031 52015 6///1 333 11323 21415 7////
AAXX 21124 71912 12974 03008 11257 21299 39923 40114 53020 60001 333 11021 21258 47016 70026
AAXX 21124 71915 NIL
AAXX 21124 71917 11761 80000 11289 21335 30012 40026 58011 69961 77177 885// 333 11302 21322 47014 55/// 00001 20000 70014 90993
AAXX 21124 71922 11474 83115 11089 21119 39666 40140 53025 69901 77172 885// 333 11003 21089 47031 79999 90943
AAXX 21124 71924 11469 83107 11282 21325 39955 40048 57002 69901 77172 885// 333 11231 21318 48038 55/// 79999 90942
AAXX 21124 71925 11474 13114 11323 21371 30098 40142 53015 69901 77677 81570 333 11278 21326 42021 79999 90983
AAXX 21124 71926 11932 03227 11315 21371 30035 40061 53006 69901 73870 333 11304 21333 48043 79999 90923
AAXX 21124 71928 16/// /3110 11038 21070 39045 40227 51038 60001 333 10077 21049 4/010 70000
AAXX 21124 71114 160// /0805 10027 20018 30255 40304 51019 60001 333 10079 20018 70035
AAXX 21124 71120 12874 83007 11051 21088 39520 40186 52022 60001 8807/ 333 10050 21066 42002 79999
AAXX 21124 71122 46/// /0402 11057 21088 38591 40219 51033 6///1 333 21073 4/019 7////
AAXX 21124 71123 11469 82904 11034 21041 39337 40214 51036 69971 78588 8657/ 333 10055 21037 44008 70023 90983 93101
AAXX 21124 71125 13974 12607 11124 21139 39562 40181 51027 60002 81070 333 40997 70002
AAXX 21124 71129 12674 40111 11055 21075 39325 40165 53043 60001 84500 333 10055 21056 41997 70000
AAXX 21124 71131 17/// /3217 11023 21026 38860 40119 53015 60011 7//4/ 333 10032 21034 70035
AAXX 21124 71135 16/// /3312 11006 21023 39021 40105 52014 60001 333 10036 21007 4/005 70000
AAXX 21124 71137 16/// /2909 11005 21015 39171 40116 53015 60001 333 10030 21008 70003
AAXX 21124 71140 12574 53304 11086 21090 39583 40089 5/023 60001 85500 333 10008 21088 43002 70000
AAXX 21124 71145 NIL
AAXX 21124 71148 NIL
AAXX 21124 71185 16464 82511 11056 30109 40133 51026 69951 333 11014 21057 70010
AAXX 21124 71188 12974 83602 11126 21162 30110 40154 57012 60001 8807/ 333 11054 21138 43012 55060 79999
AAXX 21124 71200 16/// /3504 10036 21013 60001 333 10092 20033 70000
AAXX 21124 71207 16/// /3602 11022 30243 40309 53024 60001 333 10051 21023 7////
AAXX 21124 71260 NIL
AAXX 21124 17042 12670 51309 10217 21079 30104 40142 55004 60001 83250 333 83835 85360 92438
AAXX 21124 17074 12570 72208 10100 21010 39212 40137 53001 60001 84570 333 84630 87360 91122
AAXX 21124 17086 11670 72010 10136 20020 39429 40131 57005 69901 70262 85550 333 85635 87360
AAXX 21124 17088 12670 80807 10124 21044 38787 48492 55004 60001 8452/ 333 84640 88460
AAXX 21124 17140 11665 72404 10069 21005 38682 48472 57003 60011 70282 8552/ 333 85638 87459
AAXX 21124 17155 12670 61703 10068 20026 39041 40159 53006 60001 84550 333 84635 86359 91121
AAXX 21124 17203 12670 50000 10054 21051 38914 48559 57018 60001 83150 333 83840 85360
AAXX 21124 17237 11670 73502 10122 20043 39656 40157 55010 69901 70282 85270 333 85835 87358 91107
AAXX 21124 17250 12975 62010 10109 20021 38785 48484 56010 60001 84054 333 84360 86070
AAXX 21124 17270 12670 41205 10137 20004 39553 40203 57013 60001 82130 333 82840 84360
AAXX 21124 17295 11560 50204 10148 20094 30171 40178 57009 60021 70282 83250 333 83830 85360
AAXX 21124 17320 11670 62305 10178 20107 30166 40171 55012 69921 72522 83270 333 83840 86360 92438
AAXX 21124 17375 12670 52605 10182 20048 30158 40160 57015 60001 82201 333 82833 85070 91113 92438
AAXX 21121 37661 42998 22701 10051 20029 39441 40206 57007 82050 555 10009
AAXX 21121 37675 42999 60000 10094 20051 39465 40112 57019 86008 555 11008
AAXX 21121 37729 42598 31809 10094 20055 38523 57007 83100
AAXX 21121 37735 42996 62901 10065 20004 39783 40160 57006 86050 555 10008
AAXX 21121 37740 42697 62701 10045 21019 39398 40212 57015 86500 555 10006
AAXX 21121 37749 42998 62701 10085 20021 30112 40229 57024 86080 555 11009
AAXX 21121 37832 42998 53601 10090 20023 30115 40199 57028 85032 555 10010
AAXX 21121 37851 42596 82404 10089 20051 30108 40177 57025 882// 333 91114
AAXX 21121 37864 31495 81810 10086 20050 40174 57029 71022 885// 333 88620
AAXX 21121 37905 42996 73101 10081 20002 30120 40208 57016 87030 555 10009
AAXX 21121 37923 NIL
AAXX 21121 37925 42998 82701 10094 20046 30233 40204 57016 8807/ 555 11012
AAXX 21121 37985 42597 50701 10087 20045 30120 40205 57017 75600 555 10013
AAXX 21121 37989 42698 60402 10102 20061 30232 40210 57022 86030 555 10019
AAXX 21124 17500 12560 42808 10191 20095 30128 40189 57014 60001 82230 333 82825 83360
AAXX 21124 17501 12560 63106 10181 20090 30149 40168 57019 60001 85230 333 82825 83830 92427
AAXX 21124 17505 12560 60409 10174 20091 30071 40183 57016 60001 85230 333 82825 83830
AAXX 21124 17507 12560 43018 10177 20084 30074 40194 57016 60001 82230 333 82825 83360
AAXX 21124 17510 12560 52808 10182 20111 30148 40158 57012 60001 82131 333 82830 84360 92417
AAXX 21124 17515 12560 60409 10183 20077 30015 40188 57017 60001 85230 333 82825 83830
AAXX 21124 17521 12560 62806 10183 20072 30032 40171 57013 60001 84801 333 82825 83630
AAXX 21124 17530 12560 63409 10179 20101 30124 40180 57016 60001 85230 333 82825 83830
AAXX 21124 17535 12560 60804 10183 20102 30129 40165 57018 60001 85230 333 82825 83830
AAXX 21124 17540 12560 61209 10184 20116 30168 40192 56015 60001 82231 333 82825 83360 92427
AAXX 21124 17547 12560 62812 10160 20111 39932 40173 56014 60001 82231 333 82825 83360 92427
AAXX 21124 17550 12560 63108 10167 20111 30030 40174 57012 60001 85230 333 82825 83830 92437
AAXX 21124 17572 12560 5//// 10179 20103 30161 40185 50006 60001 82131 333 82830 84360 92417
AAXX 21124 71893 12980 03208 10042 21014 30278 40310 52019 60001 333 10079 20039 55050 70000
AAXX 21124 85032 12265 60204 10240 20226 39935 40095 52015 60084 86530 333 20210 30/// 55000 56110 59005 70078 86606
AAXX 21124 85043 12265 73606 10243 20232 39942 40103 52016 60104 86730 333 20220 30/// 55012 56880 59008 70095 86704 86358
AAXX 21124 85104 11256 83605 10230 20223 39935 40096 52017 60084 71562 8752/ 333 20216 31/// 55015 56889 58002 70080 82706 85620 88457
AAXX 21124 85109 11458 73206 10230 20223 39948 40108 52018 60054 71582 85530 333 20218 31/// 56770 59002 70054 85615 87358
AAXX 21124 85114 12465 60000 20240 20229 39945 40108 52014 60204 82530 333 20228 31/// 55000 56000 59003 70203 82615 86358
AAXX 21124 85116 12865 60305 10249 20231 39934 40115 52015 60024 86030 333 20230 30/// 55000 56010 59004 70022 86358
AAXX 21124 85123 11250 83606 10233 20230 39937 40103 52017 60304 76166 8692/ 333 20227 32/// 55052 56119 59014 70298 84706 85615 81923 88457
AAXX 21124 85139 11356 80000 10246 20238 39873 40064 52017 60054 71522 86907 333 20240 31/// 55065 56403 59003 70045 83608 85615 81923 88270
AAXX 21124 85153 11320 80000 10242 20239 39921 40104 52030 60104 76362 8792/ 333 20237 32/// 56779 58003 70103 86608 81923 88457
AAXX 21124 85154 32270 73606 10250 20229 39932 40107 52026 85908 333 20233 30024 55102 56706 59001 84705 81920 86270
AAXX 21121 26106 42/97 73301 10011 21019 30081 40124 52001 82638
AAXX 21121 26313 43/// /2101 11022 21025 30121 40128 52003
AAXX 21121 26346 42397 80302 11020 21025 39868 40118 57002 886// 333 88707
AAXX 21121 26406 41230 80801 11030 21035 30118 40124 52007 71022 886// 333 88705
AAXX 21121 26416 43/// /1401 11024 21029 39986 40130 52006
AAXX 21121 26424 41458 80201 11014 21017 30071 40126 52003 71042 8655/ 333 86614 93400
AAXX 21121 26544 41358 83602 11029 21034 39957 40114 54000 71022 886//
AAXX 21124 81225 11265 70805 10254 20237 40130 60204 70281 86832 333 2//// 56129 59006 84806 83630 85358
AAXX 21124 81200 12465 71103 10252 20232 40128 60394 86832 333 2//// 56299 59004 81810 85625
AAXX 21124 81202 11460 70903 10248 20239 40137 60224 78086 86963 333 20236 56299 59003 81812 81918 86625
AAXX 21124 81209 11460 70000 10256 20236 40/// 60234 71522 86872 333 2//// 56299 5//// 84810 84620 87360
AAXX 21124 81251 NIL
AAXX 21124 13601 12665 80000 10094 20032 30009 40109 57016 60001 8352/ 333 83636 86460
AAXX 21124 61017 32960 50000 10268 20005 39750 40155 80002 333 0//00 58005 85080
AAXX 21124 61024 32960 51216 10273 21052 39581 40146 85032 333 0//00 58001 85364
AAXX 21124 61036 32965 71202 10305 20000 39897 40133 80008 333 0//00 58010 87280
AAXX 21124 61043 32960 70810 10295 21080 39683 40120 80008 333 0//00 59005 87280
AAXX 21124 61045 32965 50402 10270 21040 39635 40131 80002 333 0//00 59005 85080
AAXX 21124 61049 32965 50000 10294 21038 39796 40114 80002 333 0//00 59011 85080
AAXX 21124 61052 32960 50606 10309 21038 39881 40137 80002 333 0//00 58000 85080
AAXX 21124 61075 32960 51002 10300 21017 39814 40120 80002 333 0//00 59005 85080
AAXX 21124 61080 32960 71006 10285 21029 39710 40129 80008 333 0//00 59006 87280
AAXX 21124 61090 32965 50606 10282 21080 39619 40127 80002 333 0//00 59006 85080
AAXX 21124 61091 32965 20804 10300 20080 39688 40141 80001 333 0//00 58003 82080
AAXX 21124 61096 32970 70404 10300 21061 39747 40127 80008 333 0//00 59008 87280
AAXX 21124 61099 32965 70806 10324 21025 39882 40108 80008 333 0//00 59001 87280
AAXX 21121 12120 12962 31601 10005 21036 30098 40105 52006 60001 81032 333 93000
AAXX 21121 12250 11958 71203 11006 21040 30010 40101 56004 60001 71022 8707/ 333 93000
AAXX 21121 12295 11332 80301 11004 21017 39923 40111 57001 69901 77122 8572/ 333 85709 93097
AAXX 21121 12330 11210 81201 11012 21016 39977 40088 52003 60011 77377 885// 333 93001
AAXX 21121 12375 11125 61301 11020 21021 39979 40114 58003 60001 72842 86500 333 83702 93000
AAXX 21121 12424 11230 82803 10005 20002 39938 40094 53001 60021 76877 8572/ 333 87705 93002
AAXX 21124 60715 11560 63110 10146 20090 30145 40152 50003 69951 72586 85282 333 59058 50231 85823 83358 91014 91134
AAXX 21124 60723 11565 52908 10113 20097 39987 40177 53008 60121 72162 84280 333 50121 84843
AAXX 21124 60725 11560 53112 10136 2//// 30009 40187 57003 60031 70282 85800 333 50501 83820 83630
AAXX 21124 60735 11565 53310 10153 20068 30072 40153 57009 60011 70262 85800 333 50281 82823 84630
AAXX 21124 60745 12560 52410 10091 20003 39819 40196 56015 60001 85200 333 50091 85826
AAXX 21124 60748 32560 62823 10148 20053 39749 40164 56011 60001 86800 333 50421 84823 83640
AAXX 21124 60750 11558 52914 10166 20043 30133 40158 58021 69901 70162 85800 333 5///1 83820 83626
AAXX 21124 60760 12560 42713 10119 21009 30100 40205 56012 60001 84200 333 50251 84830 91019 91119
AAXX 21124 60765 11558 62614 10124 20041 30187 40191 57024 60011 70262 85802 333 82820 84630 92446 925//
AAXX 21124 60767 11558 52319 10126 20007 30041 40185 58023 69921 70262 83502 333 50581 83630 83070
AAXX 21124 60769 12558 62825 10141 20052 30163 40167 56015 69991 81882 333 50471 81826 83330 85070
AAXX 21124 08055 12689 21004 10140 20078 39247 48619 58005 60001 81530 333 50390 95050
AAXX 21124 08075 11356 70000 10040 20037 39272 48595 58004 60001 71042 878// 333 5///1
AAXX 21124 08084 02660 72808 10122 20056 39867 40301 58001 60001 8657/ 333 60007
AAXX 21124 08171 NIL
AAXX 21124 08184 02775 50000 10111 20066 30058 40214 58009 60001 82531 333 60007
AAXX 21124 08202 01165 22101 10090 20062 39393 42921 50000 60001 72841 81601 333 5///0 60007
AAXX 21124 08235 NIL
AAXX 21124 08238 12680 73312 10182 20079 30165 40224 51009 60001 82848
AAXX 21124 08280 12975 33018 10122 20039 39456 40278 58003 60001 80001
AAXX 21124 08330 11960 00000 10079 20060 30088 40325 57001 60001 72840
AAXX 21124 08348 12970 42402 10134 20060 39568 40305 58005 60001 80001
AAXX 21124 08360 02984 42914 10187 20036 30202 40239 58006 60001 80008 333 60007
AAXX 21124 08373 02570 83006 10190 20105 30216 40237 58005 60001 81847 333 60007
AAXX 21124 08410 02980 00405 10121 20038 30192 40304 58010 60001 333 60007
AAXX 21124 08419 02975 53104 10118 20028 39612 40285 58015 60001 80005 333 60007
AAXX 21124 08451 02983 10117 10163 20067 30259 40292 58003 60001 80001 333 60007
AAXX 21124 08487 02980 31901 10169 20096 30228 40253 58008 60001 80002 333 60007
AAXX 21121 13160 31696 82503 11006 21028 30053 40165 57009 71021 885//
AAXX 21121 13262 32997 02902 10024 21029 30018 40170 57017
AAXX 21121 13272 32960 02002 10025 21043 30045 40168 57016
AAXX 21121 13285 32698 22602 10018 21033 30068 40173 58003 82100
AAXX 21121 13289 31298 23010 11050 21056 38911 48408 58006 70142 82100 333 91016 91120
AAXX 21121 13376 31493 30000 10004 21015 39910 40183 58013 74244 83300
AAXX 21121 13388 32697 61501 10022 21021 39922 40170 58007 86500
AAXX 21121 13462 32660 33401 10081 21009 30098 40138 57024 82201 333 82833
AAXX 21121 13473 NIL
AAXX 21121 13489 31596 50703 10021 21027 39636 40166 58009 71022 85600
AAXX 21121 13168 32998 12502 10024 21016 30059 40168 58009 81030
AAXX 21121 13174 32697 32504 10020 21033 30058 40161 58011 81530
AAXX 21121 13269 32999 00702 10030 21015 39949 40168 58011
AAXX 21121 13274 32997 02502 10026 21044 30005 40169 57014
AAXX 21121 13278 32998 00000 10011 21048 39950 40181 57009
AAXX 21121 13378 31398 21801 11062 21066 38190 48410 58005 70241 82600
AAXX 21121 13397 32598 62902 11004 21036 39624 40177 50000 86800
AAXX 21121 13457 42670 10502 10105 21002 30125 40132 57022 81200 333 81850
AAXX 21121 13481 NIL
AAXX 21121 12160 12970 41402 10002 21054 30060 40114 53001 60001 81038 333 93000
AAXX 21121 12205 11329 83003 10007 20004 30088 40096 52013 60031 77177 8772/ 333 93003
AAXX 21121 12465 11524 81003 11028 21038 39860 40101 57009 69901 77172 875// 333 93097
AAXX 21121 12566 11314 80000 11030 21033 39809 40113 56013 69901 77111 875// 333 93097
AAXX 21121 13173 32997 22502 10022 21031 30061 40164 58008 82030
AAXX 21121 13180 32997 02502 10018 21024 30064 40177 56003
AAXX 21121 13266 32998 02001 10015 21024 30071 40174 58004
AAXX 21121 13369 32598 21101 11006 21076 38930 48409 58008 82800
AAXX 21121 13383 32698 32001 10030 21040 39961 40169 57013 83200
AAXX 21121 13384 32698 10701 10028 21033 30018 40174 58010 81100
AAXX 21121 13389 32597 42301 10018 21057 39893 40181 54000 84800
AAXX 21121 13477 NIL
AAXX 21121 12105 11456 81203 11002 21016 30055 40099 52010 69921 72272 885// 333 93092
AAXX 21121 12195 11659 80000 11005 21021 39885 40118 53001 69901 71072 885// 333 93097
AAXX 21121 12235 11528 81002 11018 21031 39885 40101 52004 69901 78587 84907 333 93097
AAXX 21121 12270 11323 71501 11024 21027 39927 40115 56004 60001 71042 876// 333 93000
AAXX 21121 12280 11549 80000 11009 21015 39956 40117 56001 69901 77172 885// 333 93097
AAXX 21121 12300 11220 83403 10003 20000 30001 40093 52012 60021 77177 877// 333 93002
AAXX 21121 12400 11330 83003 10001 20000 39856 40096 52012 60021 77184 877// 333 91109 93002
AAXX 21121 12435 11425 81403 11016 21033 39914 40090 57007 69951 77177 8552/ 333 93095
AAXX 21121 12495 11458 82401 11015 21026 39819 40119 56004 69921 71072 885// 333 93092
AAXX 21121 12530 11516 81902 11007 21007 39892 40096 58008 60011 77172 885// 333 93001
AAXX 21121 12570 11550 71402 11028 21032 39786 40114 57010 60001 71042 875// 333 93000
AAXX 21121 12580 12960 11401 10008 21031 39853 40118 57011 60001 81030 333 93000
AAXX 21124 60020 12960 00603 10217 20151 30238 40283 50006 60001 333 92427
AAXX 21124 60030 02980 00704 10214 20125 30217 40273 50006 60001 333 60007 92428
AAXX 21124 60040 02570 10910 10203 20144 30261 40286 50002 60001 81100 333 60007 92428
AAXX 21124 60338 12980 32808 10188 20040 30207 40272 50000 60001 80004 333 92428
AAXX 21121 01488 16/// /2701 11085 21097 60001 333 4/012 91102
AAXX 21121 01025 17880 82402 10009 21009 30028 40039 52006 6//// 700// 333 91103
AAXX 21121 01210 41458 71704 10015 21007 30074 40101 50013 71582 8596/ 333 91111
AAXX 21121 01311 47/72 01502 11006 21019 30061 40125 51009 700// 333 91102
AAXX 21121 01452 11981 10702 11039 21055 30097 40119 51018 60001 70300 80001 333 91104
AAXX 21121 01293 11582 70000 11055 21065 39889 40104 52014 60001 70222 87200 333 91103
AAXX 21124 48373 31956 20000 10235 20183 30053 40116 52009 71000 80001 333 10296 59003
AAXX 21124 61974 12575 71605 10310 20239 40091 60001 85942 333 58005 819// 83820 84650 94329
AAXX 21124 61986 12575 70910 10300 20249 40115 60001 82202 333 58019 82820 86075 94322
AAXX 21124 61988 12480 41309 10269 20205 40142 60001 84800 333 0//00 58017 84818 91130
AAXX 21124 61989 12475 41014 10268 20211 40150 60001 84800 333 0//00 58020 84818
AAXX 21124 61990 11350 80803 10250 20236 40132 60031 72582 87846 333 0//11 58029 81708 819// 85814 85650
AAXX 21124 61995 11462 80909 10235 20217 39653 69901 76082 8897/ 333 0//11 58026 819// 84816 85650 87360 94322
AAXX 21121 37575 42698 63402 10068 20004 39627 40216 57015 86550 555 11007
AAXX 21121 37675 42999 60000 10094 20051 39465 40112 57019 86008 555 11008
AAXX 21121 37735 42996 62901 10065 20004 39783 40160 57006 86050 555 10008
AAXX 21121 37749 42998 62701 10085 20021 30112 40229 57024 86080 555 11009
AAXX 21121 37756 42999 62708 10040 20003 39330 40248 57021 80002 555 11006
AAXX 21121 37864 31495 81810 10086 20050 40174 57029 71022 885// 333 88620
AAXX 21121 37985 42597 50701 10087 20045 30220 40205 57017 75600 555 10013
AAXX 21124 62010 31550 52622 10137 21029 40178 57016 70722 83570 333 83630 85358
BBXX A8IQ2 21120 99176 10612 41598 21309 10270 20221 40140 54000 71565 81180 22253 20604 314// 41003 5//// 80235
AAXX 21124 64600 32565 80000 10296 20100 39450 40093 81132 333 58002 81820 84365 88080 94900 95870
AAXX 21124 64601 32960 70425 10305 20027 38989 48507 80002 333 59001 87080
AAXX 21124 64605 32980 80402 10303 20062 39347 40081 80007 333 58000 88280
AAXX 21124 64610 32970 72006 10320 20085 3//// 4//// 80002 333 5//// 87080
AAXX 21124 64650 32965 63606 10325 20092 39676 40082 80002 333 58004 86080
AAXX 21124 64654 32980 63606 10344 20059 39524 40080 80002 333 59004 86080
AAXX 21124 64655 32980 20408 10325 20100 39447 40084 80002 333 59001 82080
AAXX 21124 64656 31980 00606 10330 20088 39523 40068 70244 333 58003
AAXX 21124 64659 NIL
AAXX 21124 64660 32965 21406 10324 20102 39557 40076 80001 333 58007 82080
AAXX 21124 64662 32980 50202 10333 20135 39574 40067 80002 333 59002 85080
AAXX 21124 64665 32980 00000 10335 20176 3//// 4//// 333 5////
BBXX DGPT2 21124 99149 70268 41598 31815 10250 20183 40150 52015 70200 8214/ 22214 00250 20603 80205
BBXX VRVB5 21124 99417 70669 41498 81109 10040 21015 40210 5/090 70202 88080 22214 00110 20303 310// 40302 80020
BBXX DDLK 21123 99461 70422 41698 52734 10050 20003 40051 52011 70222 85600 22224 20408 327// 40608 80030
BBXX DILS 21124 99041 10029 41497 22407 10309 20266 40112 58008 70200 82100 22200 04290 20101 322// 40101 80278
BBXX A8FA5 21123 99048 70099 41398 40000 10310 20242 40125 53005 7//22 84778 22274 20000 326// 40501 5//// 80260
AAXX 21121 02019 07/37 /2002 11039 21040 39423 40052 52009 69901 77187 333 69905 90710 91103
AAXX 21121 02081 07/64 /1001 11061 21065 39660 40071 52009 69961 77177 333 69905 90710 91102
AAXX 21121 02095 05769 /3200 11102 21113 39873 40083 52003 60001 333 60005 87/50 90710 91102
AAXX 21121 02101 47567 /0000 11075 21085 39509 40081 52010 785// 8//// 333 88/22
AAXX 21121 02119 07574 /0201 11070 21076 39678 40073 52009 69911 77187 333 69905 81/20 87/56 90710 91102
AAXX 21121 02124 07860 /0000 11100 21108 39540 40080 52008 69901 77187 333 69905 88/57 90710 91101
AAXX 21121 02126 07999 /3601 11096 21107 39733 40081 52010 69911 70087 333 60005 87/58 90710 91101
AAXX 21121 02151 37575 80000 11093 21095 39733 40078 5//// 6///1 771// 333 60005 84/23 85/50 88/56 91000 90710 91100 90710 91200
AAXX 21121 02186 07367 83402 11050 21056 30046 40071 53008 69921 74187 333 69905 81/07 83/10 88/36 91003 90710 91104 90710 91202
AAXX 21121 02197 07/59 /1201 10001 20001 30054 40073 52005 69931 72487 333 69905 90710 91103
AAXX 21121 02207 07581 /2503 11027 21038 39381 40089 52013 69901 70070 333 60005 87/28 90710 91105
AAXX 21121 02219 07/82 /2702 11036 21039 39398 40074 52013 69901 72487 333 69905 90710 91105
AAXX 21121 02226 47359 /3002 11023 21023 39622 40083 51014 771// 8//// 333 81/09
AAXX 21121 02243 07/56 /2401 11069 21074 39805 40080 52012 60011 77177 333 69915 90710 91102
AAXX 21121 02269 07661 /3103 11032 21036 69941 78587 333 69905 85/47 90710 91105
AAXX 21121 02287 07244 /2403 10004 21004 30059 40069 52012 69931 77187 333 69915 85/06 87/27 90710 91104
AAXX 21121 02297 07056 /2503 11003 21003 30021 40066 52010 69931 77187 333 69905 81/01 85/48 88/56 90710 91104
AAXX 21121 02308 05899 /2901 11057 21066 39220 40097 51016 60001 333 60005 81/57 90710 91102
AAXX 21121 02327 07/78 /2803 11105 21117 39657 40106 52013 69911 77187 333 69905 90710 91104
AAXX 21121 02355 05/99 /2601 11050 21060 30078 40091 52012 60001 333 60005 90710 91102
AAXX 21121 02366 47132 /0000 11031 21035 30077 40083 52015 771// 8//// 333 81/03 83/09 85/41
AAXX 21121 02407 05399 /3502 11116 21132 39730 40113 52015 60001 333 60005 90710 91105
AAXX 21121 02418 47025 /0501 11010 21012 39967 40101 51011 780// 8//// 333 81/01 88/36
AAXX 21121 02435 45684 /0000 11043 21054 39911 40103 52007 8//// 333 88/35
AAXX 21121 02440 05/99 /2802 11035 21043 60001 333 60005 90710 91104
AAXX 21121 02452 07103 /1902 11018 21018 60001 73331 333 60005 89/02 90710 91103
AAXX 21121 02456 07446 /0000 11012 21019 30061 40104 51013 69911 71031 333 60005 83/10 90710 91102
AAXX 21121 02469 07/61 /0000 11008 21013 60001 70010 333 60005
AAXX 21121 02498 05481 /2605 10020 21005 30092 40108 51012 60001 333 60005 82/13 87/43 90710 91106
AAXX 21121 02518 463// /1103 10022 20012 333 87/09 90710 91104
AAXX 21121 02520 07359 81701 10004 21006 30038 40107 51015 69901 78571 333 69905 83/09 88/56 91002 90710 91103 90710 91202
AAXX 21121 02550 47156 /1901 11012 21012 39827 40107 52012 710// 8//// 333 88/02
AAXX 21121 02562 11570 40000 11024 21028 39991 40109 51011 69911 71187 84500 333 60005 81630 84658 91001 90710 91101 90710 91201
AAXX 21121 02563 05564 /2103 10015 20003 30085 40107 51010 60001 333 60005 81/22 84/37 88/49 90710 91105
AAXX 21121 02565 07557 /1500 10020 20008 39987 40108 51008 69901 71087 333 60005 90710 91101
AAXX 21121 02589 05583 /2104 10033 21014 30088 40109 51008 60001 333 60005 82/23 87/62 90710 91107
AAXX 21121 02590 45761 /1502 10005 21006 30052 40114 51010 8//// 333 82/56
AAXX 21121 02618 07/50 /1401 10002 20002 39937 40104 53016 69941 72087 333 60005 90710 91102
AAXX 21121 02664 32570 51103 10020 21026 30032 40105 51012 60001 83530 333 60005 81620 83643 91004 90710 91105 90710 91204
AAXX 21121 02679 05699 /3002 10022 21012 30070 40115 52009 60001 333 60005 87/40 90710 91104
AAXX 21124 60710 11560 62821 10130 20077 30094 40173 50000 60011 78082 86800 333 50501 84820 84630
AAXX 21124 60714 12465 63517 1//// 2//// 30161 40167 50009 60001 86800 333 50451 84816 83630
AAXX 21124 60720 11557 73112 10122 20073 30106 40140 50008 60061 78082 879// 333 50211 83823 82926 84630
AAXX 21124 60728 11562 63317 10128 20102 30051 40145 52004 60021 72582 86800 333 5//// 84823 83626
AAXX 21124 60729 11558 73012 10125 20104 39975 40164 58003 60021 72562 878// 333 50271 82820 86626
AAXX 21124 60731 06760 52917 10142 20070 30140 40147 56003 60001 333 59072 60007 85/56 91027 91130
AAXX 21124 60732 11560 63224 10106 20058 39567 40176 50005 60061 70282 84880 333 50161 83820
AAXX 21124 60734 11560 63216 10117 20086 39646 40167 53007 60051 70282 84880 333 50161 82823 83630
AAXX 21124 60738 11006 83514 10046 20046 38935 48497 50003 60031 72162 887// 333 50311 88700
AAXX 21124 60739 12658 43333 10117 20042 39336 40152 58005 60001 83242 333 50291 83833 94249
AAXX 21124 60740 11460 53018 10159 20066 30145 40147 54000 69921 70262 84880 333 50401 84816
AAXX 21124 60742 NIL
AAXX 21124 60764 12562 32410 10141 20014 30151 40203 57018 60001 82200 333 50401 82830
AAXX 21124 60770 12960 42619 10219 20110 39959 40093 57037 60001 82082 333 50261 82360 83070
AAXX 21124 60772 12565 52523 10130 21006 39935 40192 58014 60001 82582 333 5///1 82630
AAXX 21124 60775 12562 52719 10122 21036 39849 40207 56021 60001 82582 333 5///1 82630
AAXX 21124 60780 12960 32516 10130 21017 39925 40234 58019 82082 333 5///1 82360
AAXX 21121 15501 12670 12712 10034 21020 30096 40141 54000 60001 81100 333 10035 21001 555 568//
AAXX 21121 15505 12770 22701 10033 21048 39769 40147 58003 60001 82500 333 10035 21034 43006 555 556//
AAXX 21121 15511 12970 02709 10035 21036 30123 40163 52003 60001 333 10038 20006 555 560//
AAXX 21121 15514 12572 22909 10038 21051 30103 40139 57002 60001 82100 333 10040 20016 555 552//
AAXX 21121 15530 12670 63404 10041 21041 39913 40154 51001 60001 84550 333 10047 20012 555 555//
AAXX 21121 15533 11670 52505 10034 21016 30082 40114 51005 69951 70171 82260 333 10034 20007 555 57000 69099
AAXX 21121 15550 11562 82707 10016 20005 30111 40131 51003 69951 70262 885// 333 10016 20012 555 593//
AAXX 21121 15561 12468 82706 10036 20010 30125 40132 52016 60001 885// 222// 00090 2//01 333 10040 20025 555 583// 81280 92025 92427
AAXX 21121 15562 12474 82910 10036 21002 30070 40143 52008 60001 885// 222// 2//02 333 10036 20030 555 576// 92036 92438
AAXX 21121 15600 11/00 92510 11080 21094 38220 48432 50005 60001 74944 333 11078 21095 44011 555 593// 92712
AAXX 21121 15601 12782 60000 10044 21021 39511 40134 56005 60001 86300 333 10044 21020 555 563//
AAXX 21121 15605 12777 52904 11022 21044 39294 40162 58008 60001 85500 333 11019 21040 47002 555 583//
AAXX 21121 15613 11/01 92310 11088 21099 37610 47940 51002 60001 74144 333 11086 21129 48044 555 592//
AAXX 21121 15628 12682 12904 10066 21010 39887 40145 58007 60001 81200 333 10066 20006 555 558//
AAXX 21121 15642 12680 40000 10054 20022 39980 40150 52008 60001 82502 333 10058 20012 555 580//
AAXX 21121 15661 12570 60000 10070 20015 30098 40134 54000 60001 86500 222// 00090 20000 333 10070 20040 555 568// 92012 92418
AAXX 21121 15726 11481 42202 11006 21091 38184 48448 52001 60001 70200 82501 333 11004 21084 43018 555 552//
AAXX 21121 76040 32902 03300 10064 20039 30135 40149 57004 92045 333 10178 20058 30/// 59019 70000 98602
AAXX 21121 76056 06/// /2904 10106 20018 30116 40140 58002 60001 7//// 8//// 91150 333 0//// 10165 20100 30/// 4//// 50199 54/// 55006 56/// 57/// 59005 60007 70096 8//// 8//// 8//// 9/
AAXX 21121 76122 32956 00000 11032 21037 38490 40162 5//// 91150 333 10120 21032 30105 55079 59023 70000
AAXX 21121 76123 06/// 01502 11041 21049 3//// 4//// 5//// 60001 7//// 80000 91150 333 0//// 10137 21041 4//// 50179 55078 56000 57/// 5//// 60007 70000 8//// 8//// 8//// 8//// 9//// 9/
AAXX 21121 76220 32920 00000 11074 21074 38095 40184 5//// 91145 333 10142 21074 31100 59010 70000
AAXX 21121 76225 32920 00000 11020 21045 38581 40137 53001 91140 333 10118 21020 31043 59025 70000
AAXX 21121 76226 02/// ///// 1//// 2//// 3//// 4//// 5//// 6//// 7//// 8//// 9//// 333 0//// 1//// 2//// 30/// 4//// 5//// 54/// 55/// 56/// 57/// 5//// 6//// 7//// 8//// 8//// 8//// 9/
AAXX 21121 76305 32970 03401 10125 20068 30136 40144 5//// 91145 333 10218 20118 30100 59001 70000
AAXX 21121 76323 32910 00000 10048 21060 38218 40170 57002 91155 333 10168 20027 30005 59018 70000
AAXX 21121 76342 31840 62001 10088 20056 39479 40202 57001 70310 86050 91147 333 10180 20085 30080 56050 58014 70000 86358
AAXX 21121 76373 32606 22001 10119 20033 38144 40075 5//// 82400 91150 333 10220 20093 30070 56900 59041 70000 82623
AAXX 21121 76382 32960 01804 10186 20078 38856 40077 57002 91158 333 10264 20125 30165 59015 70000
AAXX 21121 76390 31950 22405 10133 21001 38188 40104 54000 70544 80005 91130 333 10228 20116 30110 56004 59007 70000 82070
AAXX 21121 76393 31920 02401 10096 20061 39567 40150 54000 70400 91155 333 10228 20080 30072 58023 70000
AAXX 21121 76402 32950 00000 10077 20065 30089 40147 57006 91145 333 10203 20070 30061 58003 70000
AAXX 21121 76423 32560 42401 10070 21001 38109 40109 57007 83260 91148 333 10230 20060 30/// 56990 59014 70000 83820 81357
AAXX 21121 76458 32460 13302 10140 20101 30129 40134 57003 81100 91143 333 10232 20110 30100 563// 58006 70000 81816
AAXX 21121 76471 32580 22105 10070 20043 37657 40099 5//// 82500 91150 333 10190 20049 30025 55099 56400 59003 70000 82635
AAXX 21121 76490 06/// /2901 10104 20065 39756 40156 55006 60001 7//// 8//// 91150 333 0//// 10279 20104 30/// 50339 54/// 55080 56/// 57/// 58028 60007 70000 8//// 8//// 8//// 8//// 9/
AAXX 21121 76499 31956 00000 10151 20114 30117 40139 5//// 70200 91150 333 10270 20150 30148 58039 70000
AAXX 21121 76538 06/// /0000 10050 20049 38139 40186 55001 60001 7//// 8//// 91150 333 0//// 10251 20049 30/// 4//// 50329 54/// 55085 56/// 57/// 58003 60007 70000 8//// 8//// 8//// 9/
AAXX 21121 76539 32958 03601 10061 20055 38137 40160 52004 91150 333 10250 20049 30023 58002 70000
AAXX 21121 76543 32675 82701 10192 20132 30126 40159 56/// 885// 91145 333 10312 20190 30/// 563// 58038 70000 88650
AAXX 21121 76547 06/// /0502 10186 20118 30128 40140 57004 60001 7//// 8//// 91150 333 0//// 10291 20186 4//// 50319 55065 56/// 57/// 58036 60007 70000 8//// 8//// 8//// 8//// 9//// 9/
AAXX 21121 76548 32760 70502 10188 20122 30140 40150 57003 8705/ 91150 333 10286 20184 30184 5604/ 58040 79999 87356
AAXX 21121 76556 32960 00000 10126 20091 39102 40125 57007 91130 333 10268 20107 30102 58007 70000
AAXX 21121 76577 32960 00000 10084 20071 38024 40136 57004 91140 333 10230 20077 30065 59005 70000
AAXX 21121 76578 06/// /0301 10075 20028 38022 40171 55003 60001 7//// 8//// 91150 333 0//// 10246 20074 30/// 4//// 50269 54/// 55056 56/// 57/// 59005 60007 70000 8//// 8//// 8//// 9/
AAXX 21121 76581 32965 40101 10158 20147 39023 40118 5//// 84060 91150 333 10315 20145 30138 56010 58005 70000 84359
AAXX 21121 76585 01665 70000 10171 20166 39985 40142 53019 69961 75054 874// 91140 333 10271 20170 30168 55080 562// 58040 69967 70006 87637
AAXX 21121 76586 06/// /2000 10185 20182 39988 40144 55000 69981 7//// 8//// 91150 333 0//// 10300 20184 30/// 4//// 50259 54/// 55075 56/// 57/// 58041 69987 70008 8//// 8//// 8//// 9/
AAXX 21121 76592 06/// /1006 10211 20075 30138 40138 53003 60001 7//// 8//// 91150 333 0//// 10324 20209 30/// 4//// 50609 54/// 55071 56/// 57/// 58001 60007 70000 8//// 8//// 8//// 9/
AAXX 21121 76593 32964 01203 10210 20209 30138 40140 52001 91150 333 10324 20208 30207 58003 70000
AAXX 21121 76612 32958 00000 10090 20081 38456 40148 57004 91150 333 10269 20085 30075 55093 58000 70000
AAXX 21121 76625 32960 01801 10104 20049 38125 40106 57001 91145 333 10246 20098 30090 58000 70000
AAXX 21121 76634 31970 01402 10092 20077 37835 40155 5//// 70500 91150 333 10239 20070 30045 59001 70000
AAXX 21121 76641 06/// /0902 10202 20194 30132 40144 53001 60001 7//// 8//// 91150 333 0//// 10295 20194 30/// 4//// 50189 54/// 55000 56/// 57/// 58044 60007 70000 8//// 8//// 8//// 8/
AAXX 21121 76644 32550 21201 10214 20205 30124 40137 58002 82100 91150 333 10329 20214 30208 563// 58000 70000 82820
AAXX 21121 76645 06/// /1002 10213 20208 30130 40143 53003 60001 7//// 8//// 91150 333 0//// 10330 20212 30/// 4//// 50409 54/// 55080 56/// 57/// 58002 60007 70000 8//// 8//// 8//// 9/
AAXX 21121 76648 06/// /0801 10212 20200 30110 40141 52004 60001 7//// 8//// 91150 333 0//// 10324 20209 30/// 4//// 50279 54/// 55000 56/// 57/// 58004 60007 70000 8//// 8//// 8//// 8/
AAXX 21121 76654 31956 00403 10219 20188 30124 40128 57002 70544 91152 333 10305 20219 30204 59002 70000
AAXX 21121 76659 02/// ///// 1//// 2//// 3//// 4//// 5//// 6//// 7//// 8//// 9//// 333 0//// 1//// 2//// 30/// 4//// 5//// 54/// 55/// 56/// 57/// 5//// 6//// 7//// 8//// 8//// 8//// 9/
AAXX 21121 76662 32960 00601 10070 20047 38449 40147 57002 91140 333 10270 20048 30038 59003 70000
AAXX 21121 76683 32962 00000 10050 20035 37820 40188 55005 91145 333 10233 20050 30025 50251 55098 21731 58002 70000
AAXX 21121 76684 06/// /0000 10040 20024 37823 40242 53005 60001 7//// 8//// 91150 333 0//// 10248 20040 30/// 4//// 50309 54/// 55094 56/// 57/// 58004 60007 70000 8//// 8//// 8//// 9/
AAXX 21121 76685 32950 00000 10078 20045 37856 40136 57012 91156 333 10238 20076 30042 58005 70000
AAXX 21121 76687 32962 02201 10122 20109 38665 40157 53001 91135 333 10270 20116 30104 58024 70000
AAXX 21121 76692 31520 62301 10201 20191 30116 40135 52003 74041 865// 91145 333 10277 20199 30/// 568// 58027 70000 86628
AAXX 21121 76693 06/// /2201 10202 20189 30116 40135 53003 60001 7//// 8//// 91150 333 0//// 10277 20199 30/// 4//// 50209 55000 56/// 57/// 58028 60007 70000 8//// 8//// 8//// 8//// 9/
AAXX 21121 76695 32156 21402 10207 20203 30114 40119 52003 82600 91148 333 10326 20205 30195 562// 59001 70000 82701
AAXX 21121 76698 32558 20000 10207 20203 30134 40146 5//// 82200 91150 333 10322 20207 30178 56300 58004 70000 82820
AAXX 21121 76727 06/// /3501 10129 20055 38382 40129 53005 60001 7//// 8//// 91150 333 0//// 10274 20128 30/// 4//// 50219 54/// 55000 56/// 57/// 58003 60007 70000 8//// 8//// 8//// 9/
AAXX 21121 76737 32980 03201 10110 20089 38760 40147 55001 91135 333 10293 20110 30093 58025 70000
AAXX 21121 76738 06/// /3301 10106 20090 38761 40169 55000 60001 7//// 8//// 333 10305 20105 30/// 50259 55000 56/// 57/// 58027 60007 70000 8//// 8//// 8//// 8//// 9//// 9//// 9//// 44
AAXX 21121 76743 31940 01101 10205 20169 30109 40117 53005 70000 91150 333 10300 20205 30185 56/// 58006 70000
AAXX 21121 76750 32560 13201 10215 20205 30122 40132 5//// 81100 91250 333 10308 20211 30190 56100 59003 70000 81820
AAXX 21121 76751 06/// /0000 10210 20209 30123 40134 53004 60001 7//// 8//// 91150 333 0//// 10305 20210 30/// 4//// 50219 54/// 55000 56/// 57/// 59002 60007 70000 8//// 8//// 8//// 9/
AAXX 21121 76772 06/// /1601 10074 20058 38417 40195 53002 60001 7//// 8//// 91150 333 0//// 10279 20070 30/// 4//// 5///9 55000 56/// 57/// 59002 60007 70000 8//// 8//// 8//// 9//// 9/
AAXX 21121 76773 32940 01701 10076 20060 38413 40137 52004 91148 333 10276 20061 30052 50441 55101 59007 70000
AAXX 21121 76775 31560 20301 10122 20083 38512 40148 52002 70300 82400 91145 333 10296 20118 30/// 56800 59008 70000 82627
AAXX 21121 76776 06/// /0302 10118 20082 38498 40160 53004 60001 7//// 8//// 91150 333 0//// 10313 20116 30/// 4//// 50369 55093 56/// 57/// 59001 60007 70000 8//// 8//// 8//// 9//// 9/
AAXX 21121 76805 32960 23201 10224 20221 30107 40111 55005 80008 91150 333 10312 20220 30214 56/// 59008 70000 82262
AAXX 21121 76806 06/// /3202 10225 20212 30109 40113 55003 60001 7//// 8//// 91150 333 10309 20223 30216 30/// 50219 55000 56/// 57/// 59006 60007 70000 8//// 8//// 8//// 8//// 9//// 9/
AAXX 21121 76833 31865 43001 10231 20222 30106 40108 57001 70111 84010 91155 333 10306 20220 30211 56090 59005 70000 84458 92021
AAXX 21121 76840 32920 00000 10204 20192 30052 40108 5//// 91140 333 10350 20170 30/// 55098 59009 70000
AAXX 21121 76843 32965 00000 10196 20172 39478 40117 52008 91140 333 10326 20192 30180 58000 70000
AAXX 21121 76845 32940 00000 10060 20056 37946 40225 5//// 91150 333 10228 20054 30044 58004 70000
AAXX 21121 76848 32950 03201 10116 20054 38371 40095 58002 91150 333 10272 20109 30063 58004 70000 96722
AAXX 21121 76902 06/// /0202 10230 20204 39972 40111 57001 60001 7//// 8//// 91150 333 0//// 10328 20230 30/// 4//// 50399 54/// 56/// 57/// 59015 60007 70000 8//// 8//// 8//// 8//// 9/
AAXX 21121 76243 32470 81801 10082 20051 39872 40173 54000 884// 91140 333 10140 20052 30046 563// 58014 70000 88616
AAXX 21121 76311 32920 00000 10054 20048 39858 40142 50001 91148 333 10251 20052 30042 58012 70000
AAXX 21121 76405 32940 00000 10136 20114 30126 40148 52002 91150 333 10242 20125 30119 58003 70000
AAXX 21121 76412 32960 02201 10128 20080 30109 40156 57002 91145 333 10265 20120 30/// 58015 70000
AAXX 21121 76525 32460 21809 10062 20035 37438 40112 57004 81600 91150 333 10161 20058 30024 55089 22713 565// 59001 70000 82711
AAXX 21121 76640 31010 63201 10200 20197 30137 40148 57010 70311 8427/ 91145 333 10276 20196 30192 5699/ 58038 70000 84801
AAXX 21121 76647 32965 00901 10214 20211 30120 40151 50005 91150 333 10320 20208 30198 58002 79999
AAXX 21121 76656 31/00 90000 10098 20092 38495 40149 54000 74544 889// 91150 333 10255 20085 30048 58000 70000
AAXX 21121 76741 31240 33203 10230 20216 30091 40109 52005 70340 83200 91135 333 10315 20200 30196 568// 58016 70000 83806
AAXX 21124 85041 32270 73606 10240 20237 39831 40091 52016 86631 333 20226 30/// 55070 56000 59001 82705 86615 86358
AAXX 21124 85140 32370 60000 10240 20233 39900 40108 52020 84550 333 20220 30/// 55060 56200 59004 82608 84620 86358
AAXX 21124 85141 32384 70000 10250 20237 39870 40097 52021 84534 333 20230 30/// 55060 56770 58001 84608 84357 87070
AAXX 21124 85151 NIL
AAXX 21124 85152 11458 80000 10236 20222 39870 40100 52022 60104 71522 8652/ 333 20226 32/// 55072 56339 58002 70098 83613 83617 88457
AAXX 21124 85201 12256 79902 10068 20041 36306 52013 69974 82532 333 20042 31003 55078 56000 58001 70007 82605 85356 87070
AAXX 21124 85230 NIL
AAXX 21124 85242 12484 70000 10088 20041 36565 52005 60064 82530 333 20054 31/// 56770 58004 70062 82617 87357
AAXX 21121 01400 41599 72001 10073 20015 40137 52006 70321 85535 22200 06083 10603 70016 333 91106
AAXX 21121 76040 32902 03300 10064 20039 30135 40149 57004 92045 33310178 20058 30/// 59019 70000 98602
AAXX 21121 76056 06/// /2904 10106 20018 30116 40140 58002 60001 7////8//// 91150 333 0//// 10165 20100 30/// 4//// 50199 54///55006 56/// 57/// 59005 60007 70096 8//// 8//// 8//// 9/
AAXX 21121 76122 32956 00000 11032 21037 38490 40162 5//// 91150 33310120 21032 30105 55079 59023 70000
AAXX 21121 76123 06/// 01502 11041 21049 3//// 4//// 5//// 60001 7////80000 91150 333 0//// 10137 21041 4//// 50179 55078 5600057/// 5//// 60007 70000 8//// 8//// 8//// 8//// 9//// 9/
AAXX 21121 76220 32920 00000 11074 21074 38095 40184 5//// 91145 33310142 21074 31100 59010 70000
AAXX 21121 76225 32920 00000 11020 21045 38581 40137 53001 91140 33310118 21020 31043 59025 70000
AAXX 21121 76226 02/// ///// 1//// 2//// 3//// 4//// 5//// 6//// 7////8//// 9//// 333 0//// 1//// 2//// 30/// 4//// 5//// 54///55/// 56/// 57/// 5//// 6//// 7//// 8//// 8//// 8//// 9/
AAXX 21121 76305 32970 03401 10125 20068 30136 40144 5//// 91145 33310218 20118 30100 59001 70000
AAXX 21121 76323 32910 00000 10048 21060 38218 40170 57002 91155 33310168 20027 30005 59018 70000
AAXX 21121 76342 31840 62001 10088 20056 39479 40202 57001 70310 8605091147 333 10180 20085 30080 56050 58014 70000 86358
AAXX 21121 76373 32606 22001 10119 20033 38144 40075 5//// 82400 91150333 10220 20093 30070 56900 59041 70000 82623
AAXX 21121 76382 32960 01804 10186 20078 38856 40077 57002 91158 33310264 20125 30165 59015 70000
AAXX 21121 76390 31950 22405 10133 21001 38188 40104 54000 70544 8000591130 333 10228 20116 30110 56004 59007 70000 82070
AAXX 21121 76393 31920 02401 10096 20061 39567 40150 54000 70400 91155333 10228 20080 30072 58023 70000
AAXX 21121 76402 32950 00000 10077 20065 30089 40147 57006 91145 33310203 20070 30061 58003 70000
AAXX 21121 76423 32560 42401 10070 21001 38109 40109 57007 83260 91148333 10230 20060 30/// 56990 59014 70000 83820 81357
AAXX 21121 76458 32460 13302 10140 20101 30129 40134 57003 81100 91143333 10232 20110 30100 563// 58006 70000 81816
AAXX 21121 76471 32580 22105 10070 20043 37657 40099 5//// 82500 91150333 10190 20049 30025 55099 56400 59003 70000 82635
AAXX 21121 76490 06/// /2901 10104 20065 39756 40156 55006 60001 7////8//// 91150 333 0//// 10279 20104 30/// 50339 54/// 5508056/// 57/// 58028 60007 70000 8//// 8//// 8//// 8//// 9/
AAXX 21121 76499 31956 00000 10151 20114 30117 40139 5//// 70200 91150333 10270 20150 30148 58039 70000
AAXX 21121 76538 06/// /0000 10050 20049 38139 40186 55001 60001 7////8//// 91150 333 0//// 10251 20049 30/// 4//// 50329 54///55085 56/// 57/// 58003 60007 70000 8//// 8//// 8//// 9/
AAXX 21121 76539 32958 03601 10061 20055 38137 40160 52004 91150 33310250 20049 30023 58002 70000
AAXX 21121 76543 32675 82701 10192 20132 30126 40159 56/// 885// 91145333 10312 20190 30/// 563// 58038 70000 88650
AAXX 21121 76547 06/// /0502 10186 20118 30128 40140 57004 60001 7////8//// 91150 333 0//// 10291 20186 4//// 50319 55065 56///57/// 58036 60007 70000 8//// 8//// 8//// 8//// 9//// 9/
AAXX 21121 76548 32760 70502 10188 20122 30140 40150 57003 8705/ 91150333 10286 20184 30184 5604/ 58040 79999 87356
AAXX 21121 76556 32960 00000 10126 20091 39102 40125 57007 91130 33310268 20107 30102 58007 70000
AAXX 21121 76577 32960 00000 10084 20071 38024 40136 57004 91140 33310230 20077 30065 59005 70000
AAXX 21121 76578 06/// /0301 10075 20028 38022 40171 55003 60001 7////8//// 91150 333 0//// 10246 20074 30/// 4//// 50269 54///55056 56/// 57/// 59005 60007 70000 8//// 8//// 8//// 9/
AAXX 21121 76581 32965 40101 10158 20147 39023 40118 5//// 84060 91150333 10315 20145 30138 56010 58005 70000 84359
AAXX 21121 76585 01665 70000 10171 20166 39985 40142 53019 69961 75054874// 91140 333 10271 20170 30168 55080 562// 58040 6996770006 87637
AAXX 21121 76586 06/// /2000 10185 20182 39988 40144 55000 69981 7////8//// 91150 333 0//// 10300 20184 30/// 4//// 50259 54///55075 56/// 57/// 58041 69987 70008 8//// 8//// 8//// 9/
AAXX 21121 76592 06/// /1006 10211 20075 30138 40138 53003 60001 7////8//// 91150 333 0//// 10324 20209 30/// 4//// 50609 54///55071 56/// 57/// 58001 60007 70000 8//// 8//// 8//// 9/
AAXX 21121 76593 32964 01203 10210 20209 30138 40140 52001 91150 33310324 20208 30207 58003 70000
AAXX 21121 76612 32958 00000 10090 20081 38456 40148 57004 91150 33310269 20085 30075 55093 58000 70000
AAXX 21121 76625 32960 01801 10104 20049 38125 40106 57001 91145 33310246 20098 30090 58000 70000
AAXX 21121 76634 31970 01402 10092 20077 37835 40155 5//// 70500 91150333 10239 20070 30045 59001 70000
AAXX 21121 76641 06/// /0902 10202 20194 30132 40144 53001 60001 7////8//// 91150 333 0//// 10295 20194 30/// 4//// 50189 54///55000 56/// 57/// 58044 60007 70000 8//// 8//// 8//// 8/
AAXX 21121 76644 32550 21201 10214 20205 30124 40137 58002 82100 91150333 10329 20214 30208 563// 58000 70000 82820
AAXX 21121 76645 06/// /1002 10213 20208 30130 40143 53003 60001 7////8//// 91150 333 0//// 10330 20212 30/// 4//// 50409 54///55080 56/// 57/// 58002 60007 70000 8//// 8//// 8//// 9/
AAXX 21121 76648 06/// /0801 10212 20200 30110 40141 52004 60001 7////8//// 91150 333 0//// 10324 20209 30/// 4//// 50279 54///55000 56/// 57/// 58004 60007 70000 8//// 8//// 8//// 8/
AAXX 21121 76654 31956 00403 10219 20188 30124 40128 57002 70544 91152333 10305 20219 30204 59002 70000
AAXX 21121 76659 02/// ///// 1//// 2//// 3//// 4//// 5//// 6//// 7////8//// 9//// 333 0//// 1//// 2//// 30/// 4//// 5//// 54///55/// 56/// 57/// 5//// 6//// 7//// 8//// 8//// 8//// 9/
AAXX 21121 76662 32960 00601 10070 20047 38449 40147 57002 91140 33310270 20048 30038 59003 70000
AAXX 21121 76683 32962 00000 10050 20035 37820 40188 55005 91145 33310233 20050 30025 50251 55098 21731 58002 70000
AAXX 21121 76684 06/// /0000 10040 20024 37823 40242 53005 60001 7////8//// 91150 333 0//// 10248 20040 30/// 4//// 50309 54///55094 56/// 57/// 58004 60007 70000 8//// 8//// 8//// 9/
AAXX 21121 76685 32950 00000 10078 20045 37856 40136 57012 91156 33310238 20076 30042 58005 70000
AAXX 21121 76687 32962 02201 10122 20109 38665 40157 53001 91135 33310270 20116 30104 58024 70000
AAXX 21121 76692 31520 62301 10201 20191 30116 40135 52003 74041 865//91145 333 10277 20199 30/// 568// 58027 70000 86628
AAXX 21121 76693 06/// /2201 10202 20189 30116 40135 53003 60001 7////8//// 91150 333 0//// 10277 20199 30/// 4//// 50209 5500056/// 57/// 58028 60007 70000 8//// 8//// 8//// 8//// 9/
AAXX 21121 76695 32156 21402 10207 20203 30114 40119 52003 82600 91148333 10326 20205 30195 562// 59001 70000 82701
AAXX 21121 76698 32558 20000 10207 20203 30134 40146 5//// 82200 91150333 10322 20207 30178 56300 58004 70000 82820
AAXX 21121 76727 06/// /3501 10129 20055 38382 40129 53005 60001 7////8//// 91150 333 0//// 10274 20128 30/// 4//// 50219 54///55000 56/// 57/// 58003 60007 70000 8//// 8//// 8//// 9/
AAXX 21121 76737 32980 03201 10110 20089 38760 40147 55001 91135 33310293 20110 30093 58025 70000
AAXX 21121 76738 06/// /3301 10106 20090 38761 40169 55000 60001 7////8//// 333 10305 20105 30/// 50259 55000 56/// 57/// 5802760007 70000 8//// 8//// 8//// 8//// 9//// 9//// 9//// 44
AAXX 21121 76743 31940 01101 10205 20169 30109 40117 53005 70000 91150333 10300 20205 30185 56/// 58006 70000
AAXX 21121 76750 32560 13201 10215 20205 30122 40132 5//// 81100 91250333 10308 20211 30190 56100 59003 70000 81820
AAXX 21121 76751 06/// /0000 10210 20209 30123 40134 53004 60001 7////8//// 91150 333 0//// 10305 20210 30/// 4//// 50219 54///55000 56/// 57/// 59002 60007 70000 8//// 8//// 8//// 9/
AAXX 21121 76772 06/// /1601 10074 20058 38417 40195 53002 60001 7////8//// 91150 333 0//// 10279 20070 30/// 4//// 5///9 5500056/// 57/// 59002 60007 70000 8//// 8//// 8//// 9//// 9/
AAXX 21121 76773 32940 01701 10076 20060 38413 40137 52004 91148 33310276 20061 30052 50441 55101 59007 70000
AAXX 21121 76775 31560 20301 10122 20083 38512 40148 52002 70300 8240091145 333 10296 20118 30/// 56800 59008 70000 82627
AAXX 21121 76776 06/// /0302 10118 20082 38498 40160 53004 60001 7////8//// 91150 333 0//// 10313 20116 30/// 4//// 50369 5509356/// 57/// 59001 60007 70000 8//// 8//// 8//// 9//// 9/
AAXX 21121 76805 32960 23201 10224 20221 30107 40111 55005 80008 91150333 10312 20220 30214 56/// 59008 70000 82262
AAXX 21121 76806 06/// /3202 10225 20212 30109 40113 55003 60001 7////8//// 91150 333 10309 20223 30216 30/// 50219 55000 56///57/// 59006 60007 70000 8//// 8//// 8//// 8//// 9//// 9/
AAXX 21121 76833 31865 43001 10231 20222 30106 40108 57001 70111 8401091155 333 10306 20220 30211 56090 59005 70000 84458 92021
AAXX 21121 76840 32920 00000 10204 20192 30052 40108 5//// 91140 33310350 20170 30/// 55098 59009 70000
AAXX 21121 76843 32965 00000 10196 20172 39478 40117 52008 91140 33310326 20192 30180 58000 70000
AAXX 21121 76845 32940 00000 10060 20056 37946 40225 5//// 91150 33310228 20054 30044 58004 70000
AAXX 21121 76848 32950 03201 10116 20054 38371 40095 58002 91150 33310272 20109 30063 58004 70000 96722
AAXX 21121 76902 06/// /0202 10230 20204 39972 40111 57001 60001 7////8//// 91150 333 0//// 10328 20230 30/// 4//// 50399 54///56/// 57/// 59015 60007 70000 8//// 8//// 8//// 8//// 9/
AAXX 21121 76243 32470 81801 10082 20051 39872 40173 54000 884// 91140333 10140 20052 30046 563// 58014 70000 88616
AAXX 21121 76311 32920 00000 10054 20048 39858 40142 50001 91148 33310251 20052 30042 58012 70000
AAXX 21121 76405 32940 00000 10136 20114 30126 40148 52002 91150 33310242 20125 30119 58003 70000
AAXX 21121 76412 32960 02201 10128 20080 30109 40156 57002 91145 33310265 20120 30/// 58015 70000
AAXX 21121 76525 32460 21809 10062 20035 37438 40112 57004 81600 91150333 10161 20058 30024 55089 22713 565// 59001 70000 82711
AAXX 21121 76640 31010 63201 10200 20197 30137 40148 57010 70311 8427/91145 333 10276 20196 30192 5699/ 58038 70000 84801
AAXX 21121 76647 32965 00901 10214 20211 30120 40151 50005 91150 33310320 20208 30198 58002 79999
AAXX 21121 76656 31/00 90000 10098 20092 38495 40149 54000 74544 889//91150 333 10255 20085 30048 58000 70000
AAXX 21121 76741 31240 33203 10230 20216 30091 40109 52005 70340 8320091135 333 10315 20200 30196 568// 58016 70000 83806
AAXX 21121 01300 41698 41905 10056 21021 40104 57005 70320 8151/ 22200 02063 10805 70026 333 91108
AAXX 21121 33135 31496 83303 11001 21010 39894 40076 58004 71022 886// 333 88711
AAXX 21121 33317 31396 82702 11005 21011 39763 40106 54000 71022 886// 333 88709
AAXX 21121 33345 NIL
AAXX 21121 33393 /1497 82803 11013 21042 39728 40129 58003 70282 886// 333 88710 555 69931
AAXX 21121 33506 /1992 91001 10059 20059 39854 40048 57014 76164 555 60041
AAXX 21121 33587 NIL
AAXX 21121 33631 32697 31602 10026 21033 39989 40134 58008 83500
AAXX 21121 33663 32498 83202 10024 21003 30006 40103 52001 8672/ 333 86719
AAXX 21121 33658 /1997 42904 10007 21028 39816 40120 55002 70281 84030 555 69901
AAXX 21121 33711 /1396 83506 10028 20026 39833 40043 57012 78082 883// 333 88706 555 60051
AAXX 21121 33791 NIL
AAXX 21121 33837 /1457 82903 10011 20008 30018 40071 52010 78088 883// 555 60131
AAXX 21121 33924 NIL
AAXX 21121 33946 /1497 72209 10066 20057 39879 40098 52007 78082 87300 333 87930 91119 555 60051
AAXX 21121 34300 /1211 81103 10050 20045 39881 40071 57010 71064 886// 333 88703 555 69961
AAXX 21121 34504 /1226 81905 10075 20071 39876 40052 57011 76162 8772/ 333 87706 555 60011
AAXX 21121 34519 /1640 71306 10056 20044 39811 40084 57009 72162 87500 333 87640 555 60021
AAXX 21121 34601 /1560 72005 10083 20074 39926 40060 57012 72522 87500 333 87620 555 69931
AAXX 21121 76040 32902 03300 10064 20039 30135 40149 57004 92045 333 10178 20058 30/// 59019 70000 98602
AAXX 21121 76056 06/// /2904 10106 20018 30116 40140 58002 60001 7//// 8//// 91150 333 0//// 10165 20100 30/// 4//// 50199 54/// 55006 56/// 57/// 59005 60007 70096 8//// 8//// 8//// 9/
AAXX 21121 76122 32956 00000 11032 21037 38490 40162 5//// 91150 333 10120 21032 30105 55079 59023 70000
AAXX 21121 76123 06/// 01502 11041 21049 3//// 4//// 5//// 60001 7//// 80000 91150 333 0//// 10137 21041 4//// 50179 55078 56000 57/// 5//// 60007 70000 8//// 8//// 8//// 8//// 9//// 9/
AAXX 21121 76220 32920 00000 11074 21074 38095 40184 5//// 91145 333 10142 21074 31100 59010 70000
AAXX 21121 76225 32920 00000 11020 21045 38581 40137 53001 91140 333 10118 21020 31043 59025 70000
AAXX 21121 76226 02/// ///// 1//// 2//// 3//// 4//// 5//// 6//// 7//// 8//// 9//// 333 0//// 1//// 2//// 30/// 4//// 5//// 54/// 55/// 56/// 57/// 5//// 6//// 7//// 8//// 8//// 8//// 9/
AAXX 21121 76305 32970 03401 10125 20068 30136 40144 5//// 91145 333 10218 20118 30100 59001 70000
AAXX 21121 76323 32910 00000 10048 21060 38218 40170 57002 91155 333 10168 20027 30005 59018 70000
AAXX 21121 76342 31840 62001 10088 20056 39479 40202 57001 70310 86050 91147 333 10180 20085 30080 56050 58014 70000 86358
AAXX 21121 76373 32606 22001 10119 20033 38144 40075 5//// 82400 91150 333 10220 20093 30070 56900 59041 70000 82623
AAXX 21121 76382 32960 01804 10186 20078 38856 40077 57002 91158 333 10264 20125 30165 59015 70000
AAXX 21121 76390 31950 22405 10133 21001 38188 40104 54000 70544 80005 91130 333 10228 20116 30110 56004 59007 70000 82070
AAXX 21121 76393 31920 02401 10096 20061 39567 40150 54000 70400 91155 333 10228 20080 30072 58023 70000
AAXX 21121 76402 32950 00000 10077 20065 30089 40147 57006 91145 333 10203 20070 30061 58003 70000
AAXX 21121 76423 32560 42401 10070 21001 38109 40109 57007 83260 91148 333 10230 20060 30/// 56990 59014 70000 83820 81357
AAXX 21121 76458 32460 13302 10140 20101 30129 40134 57003 81100 91143 333 10232 20110 30100 563// 58006 70000 81816
AAXX 21121 76471 32580 22105 10070 20043 37657 40099 5//// 82500 91150 333 10190 20049 30025 55099 56400 59003 70000 82635
AAXX 21121 76490 06/// /2901 10104 20065 39756 40156 55006 60001 7//// 8//// 91150 333 0//// 10279 20104 30/// 50339 54/// 55080 56/// 57/// 58028 60007 70000 8//// 8//// 8//// 8//// 9/
AAXX 21121 76499 31956 00000 10151 20114 30117 40139 5//// 70200 91150 333 10270 20150 30148 58039 70000
AAXX 21121 76538 06/// /0000 10050 20049 38139 40186 55001 60001 7//// 8//// 91150 333 0//// 10251 20049 30/// 4//// 50329 54/// 55085 56/// 57/// 58003 60007 70000 8//// 8//// 8//// 9/
AAXX 21121 76539 32958 03601 10061 20055 38137 40160 52004 91150 333 10250 20049 30023 58002 70000
AAXX 21121 76543 32675 82701 10192 20132 30126 40159 56/// 885// 91145 333 10312 20190 30/// 563// 58038 70000 88650
AAXX 21121 76547 06/// /0502 10186 20118 30128 40140 57004 60001 7//// 8//// 91150 333 0//// 10291 20186 4//// 50319 55065 56/// 57/// 58036 60007 70000 8//// 8//// 8//// 8//// 9//// 9/
AAXX 21121 76548 32760 70502 10188 20122 30140 40150 57003 8705/ 91150 333 10286 20184 30184 5604/ 58040 79999 87356
AAXX 21121 76556 32960 00000 10126 20091 39102 40125 57007 91130 333 10268 20107 30102 58007 70000
AAXX 21121 76577 32960 00000 10084 20071 38024 40136 57004 91140 333 10230 20077 30065 59005 70000
AAXX 21121 76578 06/// /0301 10075 20028 38022 40171 55003 60001 7//// 8//// 91150 333 0//// 10246 20074 30/// 4//// 50269 54/// 55056 56/// 57/// 59005 60007 70000 8//// 8//// 8//// 9/
AAXX 21121 76581 32965 40101 10158 20147 39023 40118 5//// 84060 91150 333 10315 20145 30138 56010 58005 70000 84359
AAXX 21121 76585 01665 70000 10171 20166 39985 40142 53019 69961 75054 874// 91140 333 10271 20170 30168 55080 562// 58040 69967 70006 87637
AAXX 21121 76586 06/// /2000 10185 20182 39988 40144 55000 69981 7//// 8//// 91150 333 0//// 10300 20184 30/// 4//// 50259 54/// 55075 56/// 57/// 58041 69987 70008 8//// 8//// 8//// 9/
AAXX 21121 76592 06/// /1006 10211 20075 30138 40138 53003 60001 7//// 8//// 91150 333 0//// 10324 20209 30/// 4//// 50609 54/// 55071 56/// 57/// 58001 60007 70000 8//// 8//// 8//// 9/
AAXX 21121 76593 32964 01203 10210 20209 30138 40140 52001 91150 333 10324 20208 30207 58003 70000
AAXX 21121 76612 32958 00000 10090 20081 38456 40148 57004 91150 333 10269 20085 30075 55093 58000 70000
AAXX 21121 76625 32960 01801 10104 20049 38125 40106 57001 91145 333 10246 20098 30090 58000 70000
AAXX 21121 76634 31970 01402 10092 20077 37835 40155 5//// 70500 91150 333 10239 20070 30045 59001 70000
AAXX 21121 76641 06/// /0902 10202 20194 30132 40144 53001 60001 7//// 8//// 91150 333 0//// 10295 20194 30/// 4//// 50189 54/// 55000 56/// 57/// 58044 60007 70000 8//// 8//// 8//// 8/
AAXX 21121 76644 32550 21201 10214 20205 30124 40137 58002 82100 91150 333 10329 20214 30208 563// 58000 70000 82820
AAXX 21121 76645 06/// /1002 10213 20208 30130 40143 53003 60001 7//// 8//// 91150 333 0//// 10330 20212 30/// 4//// 50409 54/// 55080 56/// 57/// 58002 60007 70000 8//// 8//// 8//// 9/
AAXX 21121 76648 06/// /0801 10212 20200 30110 40141 52004 60001 7//// 8//// 91150 333 0//// 10324 20209 30/// 4//// 50279 54/// 55000 56/// 57/// 58004 60007 70000 8//// 8//// 8//// 8/
AAXX 21121 76654 31956 00403 10219 20188 30124 40128 57002 70544 91152 333 10305 20219 30204 59002 70000
AAXX 21121 76659 02/// ///// 1//// 2//// 3//// 4//// 5//// 6//// 7//// 8//// 9//// 333 0//// 1//// 2//// 30/// 4//// 5//// 54/// 55/// 56/// 57/// 5//// 6//// 7//// 8//// 8//// 8//// 9/
AAXX 21121 76662 32960 00601 10070 20047 38449 40147 57002 91140 333 10270 20048 30038 59003 70000
AAXX 21121 76683 32962 00000 10050 20035 37820 40188 55005 91145 333 10233 20050 30025 50251 55098 21731 58002 70000
AAXX 21121 76684 06/// /0000 10040 20024 37823 40242 53005 60001 7//// 8//// 91150 333 0//// 10248 20040 30/// 4//// 50309 54/// 55094 56/// 57/// 58004 60007 70000 8//// 8//// 8//// 9/
AAXX 21121 76685 32950 00000 10078 20045 37856 40136 57012 91156 333 10238 20076 30042 58005 70000
AAXX 21121 76687 32962 02201 10122 20109 38665 40157 53001 91135 333 10270 20116 30104 58024 70000
AAXX 21121 76692 31520 62301 10201 20191 30116 40135 52003 74041 865// 91145 333 10277 20199 30/// 568// 58027 70000 86628
AAXX 21121 76693 06/// /2201 10202 20189 30116 40135 53003 60001 7//// 8//// 91150 333 0//// 10277 20199 30/// 4//// 50209 55000 56/// 57/// 58028 60007 70000 8//// 8//// 8//// 8//// 9/
AAXX 21121 76695 32156 21402 10207 20203 30114 40119 52003 82600 91148 333 10326 20205 30195 562// 59001 70000 82701
AAXX 21121 76698 32558 20000 10207 20203 30134 40146 5//// 82200 91150 333 10322 20207 30178 56300 58004 70000 82820
AAXX 21121 76727 06/// /3501 10129 20055 38382 40129 53005 60001 7//// 8//// 91150 333 0//// 10274 20128 30/// 4//// 50219 54/// 55000 56/// 57/// 58003 60007 70000 8//// 8//// 8//// 9/
AAXX 21121 76737 32980 03201 10110 20089 38760 40147 55001 91135 333 10293 20110 30093 58025 70000
AAXX 21121 76738 06/// /3301 10106 20090 38761 40169 55000 60001 7//// 8//// 333 10305 20105 30/// 50259 55000 56/// 57/// 58027 60007 70000 8//// 8//// 8//// 8//// 9//// 9//// 9//// 44
AAXX 21121 76743 31940 01101 10205 20169 30109 40117 53005 70000 91150 333 10300 20205 30185 56/// 58006 70000
AAXX 21121 76750 32560 13201 10215 20205 30122 40132 5//// 81100 91250 333 10308 20211 30190 56100 59003 70000 81820
AAXX 21121 76751 06/// /0000 10210 20209 30123 40134 53004 60001 7//// 8//// 91150 333 0//// 10305 20210 30/// 4//// 50219 54/// 55000 56/// 57/// 59002 60007 70000 8//// 8//// 8//// 9/
AAXX 21121 76772 06/// /1601 10074 20058 38417 40195 53002 60001 7//// 8//// 91150 333 0//// 10279 20070 30/// 4//// 5///9 55000 56/// 57/// 59002 60007 70000 8//// 8//// 8//// 9//// 9/
AAXX 21121 76773 32940 01701 10076 20060 38413 40137 52004 91148 333 10276 20061 30052 50441 55101 59007 70000
AAXX 21121 76775 31560 20301 10122 20083 38512 40148 52002 70300 82400 91145 333 10296 20118 30/// 56800 59008 70000 82627
AAXX 21121 76776 06/// /0302 10118 20082 38498 40160 53004 60001 7//// 8//// 91150 333 0//// 10313 20116 30/// 4//// 50369 55093 56/// 57/// 59001 60007 70000 8//// 8//// 8//// 9//// 9/
AAXX 21121 76805 32960 23201 10224 20221 30107 40111 55005 80008 91150 333 10312 20220 30214 56/// 59008 70000 82262
AAXX 21121 76806 06/// /3202 10225 20212 30109 40113 55003 60001 7//// 8//// 91150 333 10309 20223 30216 30/// 50219 55000 56/// 57/// 59006 60007 70000 8//// 8//// 8//// 8//// 9//// 9/
AAXX 21121 76833 31865 43001 10231 20222 30106 40108 57001 70111 84010 91155 333 10306 20220 30211 56090 59005 70000 84458 92021
AAXX 21121 76840 32920 00000 10204 20192 30052 40108 5//// 91140 333 10350 20170 30/// 55098 59009 70000
AAXX 21121 76843 32965 00000 10196 20172 39478 40117 52008 91140 333 10326 20192 30180 58000 70000
AAXX 21121 76845 32940 00000 10060 20056 37946 40225 5//// 91150 333 10228 20054 30044 58004 70000
AAXX 21121 76848 32950 03201 10116 20054 38371 40095 58002 91150 333 10272 20109 30063 58004 70000 96722
AAXX 21121 76902 06/// /0202 10230 20204 39972 40111 57001 60001 7//// 8//// 91150 333 0//// 10328 20230 30/// 4//// 50399 54/// 56/// 57/// 59015 60007 70000 8//// 8//// 8//// 8//// 9/
AAXX 21121 76243 32470 81801 10082 20051 39872 40173 54000 884// 91140 333 10140 20052 30046 563// 58014 70000 88616
AAXX 21121 76311 32920 00000 10054 20048 39858 40142 50001 91148 333 10251 20052 30042 58012 70000
AAXX 21121 76405 32940 00000 10136 20114 30126 40148 52002 91150 333 10242 20125 30119 58003 70000
AAXX 21121 76412 32960 02201 10128 20080 30109 40156 57002 91145 333 10265 20120 30/// 58015 70000
AAXX 21121 76525 32460 21809 10062 20035 37438 40112 57004 81600 91150 333 10161 20058 30024 55089 22713 565// 59001 70000 82711
AAXX 21121 76640 31010 63201 10200 20197 30137 40148 57010 70311 8427/ 91145 333 10276 20196 30192 5699/ 58038 70000 84801
AAXX 21121 76647 32965 00901 10214 20211 30120 40151 50005 91150 333 10320 20208 30198 58002 79999
AAXX 21121 76656 31/00 90000 10098 20092 38495 40149 54000 74544 889// 91150 333 10255 20085 30048 58000 70000
AAXX 21121 76741 31240 33203 10230 20216 30091 40109 52005 70340 83200 91135 333 10315 20200 30196 568// 58016 70000 83806
AAXX 21124 96315 11460 72401 10270 20263 40075 60032 70298 82848 333 10322 82814 85364
AAXX 21124 87692 01558 30510 10214 20199 30060 40085 50005 60094 72996 81923 333 10222 20165 56666 57925 69981 81945 555 10084 60602 64230 65034 72535 74227 89362
AAXX 21124 81225 11265 70805 10254 20237 40130 60204 70281 86832 333 2//// 56129 59006 84806 83630 85358
AAXX 21124 81200 12465 71103 10252 20232 40128 60394 86832 333 2//// 56299 59004 81810 85625
AAXX 21124 81202 11460 70903 10248 20239 40137 60224 78086 86963 333 20236 56299 59003 81812 81918 86625
AAXX 21124 81209 11460 70000 10256 20236 40/// 60234 71522 86872 333 2//// 56299 5//// 84810 84620 87360
AAXX 21124 81251 NIL
AAXX 21124 08171 12580 70304 10158 20073 39996 40233 58002 60001 82547
AAXX 21121 02464 45264 /2301 10004 21006 30090 40109 52011 8//// 333 88/06
AAXX 21121 02500 07368 /3603 11013 21021 30063 40107 52020 69921 70087 333 60005 85/07 88/29 90710 91107
AAXX 21121 02513 NIL
AAXX 21121 02615 07256 /1402 10026 20019 30091 40095 52011 60011 78186 333 69915 88/05 90710 91103
AAXX 21121 02635 07/57 /1502 10016 20007 69931 71071 333 60005 90710 91103
AAXX 21124 16459 11462 70404 10116 20100 39995 40030 57020 60031 72065 87800 333 83815 85620
AAXX 21121 06447 11294 82001 10055 20046 30049 40176 55001 60021 72165 877// 333 91106 91204
BBXX 61002 21124 99421 10047 46/// ///21 10128 2//// 40214 57012 22200 00138 10705 70025 555 1/028
BBXX A8QJ7 21124 99167 70216 41/98 /0407 10250 20235 40154 50012 70200 8/1// 22213 06250 2//// 3//// 4//// 5//// 80240
BBXX 62087 21121 99547 10068 46/// /9901 10070 20032 4//// 5//// 22240 00078
AAXX 21124 60663 36/// /1004 10162 21032
AAXX 21121 06428 11248 89902 10062 20056 30126 40175 52002 60021 71065 886// 333 83704 88706 91104 91203
AAXX 21121 10616 01038 82703 10009 20004 39576 40190 58004 69931 76872 887// 333 31/// 41998 55300 69927 81701 84702 87703 96010 96469
AAXX 21124 60621 36/// /0216 10158 21062
AAXX 21124 65201 41458 70000 10315 20246 30077 40130 70522 83208 333 56500 57832 59001 83813 87280 91108 94919
AAXX 21124 60645 36/// /0000 10167 21087
AAXX 21124 60612 36/// /0713 10171 21020
AAXX 21124 60619 36/// /3612 10123 21057
AAXX 21124 60664 36/// /0000 10166 21034
AAXX 21121 06431 16/// /2201 10063 20059 30157 40169 50001 60021 333 91105 91203
AAXX 21121 06432 11135 82002 10061 20058 30097 40174 58002 60021 75065 875// 333 81702 84704 85709 91106 91205
AAXX 21121 06458 11120 72102 10050 20050 30022 40178 58003 60011 75162 877// 333 81702 85705 87707 91106 91204
AAXX 21121 06465 11361 89902 10054 20045 30110 40177 50000 60011 70365 875// 333 85706 87708 91105 91203
AAXX 21121 06496 11039 82403 10005 20004 39494 40184 58002 69941 71072 876// 333 43023 87701 91106 91204
AAXX 21124 60252 12960 02403 10204 20017 40269 58007 60001 333 95800
AAXX 21121 89064 11380 73202 10033 29085 49926 57002 60034 70255 875// 333 20012
AAXX 21124 78922 46/// /0921 10272 20188 30118 40163 53019
AAXX 21121 33587 /1597 83305 10010 21016 39804 40070 58009 72682 883// 333 88924 555 69901
AAXX 21121 33791 /1597 81504 10088 20082 39874 40021 57018 70286 8535/ 333 85926 555 60041
AAXX 21121 33924 /1598 82409 10070 20034 30069 40071 52017 72582 889// 333 88926 555 69931
AAXX 21121 33088 32597 73201 11003 21018 39914 40109 58001 87500
AAXX 21121 33177 /1915 82302 11010 21016 39876 40119 51001 71072 8802/ 555 69901
AAXX 21121 33261 /1395 83501 10015 20012 39879 40063 58004 76165 8772/ 333 87707 555 69961
AAXX 21121 33275 /1295 81504 10047 20042 39838 40060 58008 76065 8772/ 333 87704 555 69941
AAXX 21121 33301 /1297 82903 11005 21011 39827 40114 51001 77172 8772/ 333 87706 555 69901
AAXX 21121 33325 32497 83101 11006 21021 39823 40095 52001 885// 333 86710
AAXX 21121 33377 /1341 83602 10024 20019 39860 40054 58010 76165 8772/ 333 87708 555 60021
AAXX 21121 33415 /1396 82905 11007 21029 39711 40118 58001 71072 8772/ 333 86709 555 69901
AAXX 21121 33429 /1396 83305 11006 21015 39679 40110 52004 71042 886// 333 88707 555 69901
AAXX 21121 33466 /1357 83103 10012 20001 39881 40070 58006 77172 8872/ 333 86710 555 69901
AAXX 21121 33526 /1660 53103 10029 21044 39774 40117 58006 70282 82530 555 69901
AAXX 21121 33562 /1397 83204 11009 21028 39727 40095 54000 70272 8665/ 333 86708 555 69901
AAXX 21121 33614 /1394 82902 10035 20033 39939 40043 57010 76164 8872/ 333 88707 555 60061
AAXX 21121 33761 /1340 83104 10004 21005 39843 40069 58003 77187 8872/ 555 60011
AAXX 21121 33902 NIL
AAXX 21121 33983 /1597 81911 10102 20077 30039 40099 58010 70282 8553/ 333 85628 555 60061
AAXX 21121 34415 NIL
AAXX 21121 34523 NIL
AAXX 21121 34712 /1430 81003 10032 20029 30016 40102 57002 76364 8772/ 555 60031
AAXX 21124 41170 32966 10110 10235 20122 30197 40210 81130 333 58010 81830
AAXX 21124 41170 32666 10110 10235 20122 30197 40210 81130 333 58010 81830
AAXX 21124 43533 11459 73406 10290 20235 30081 40084 60002 70522 8227/ 333 10302 58004 82818 87362
AAXX 21124 43555 11458 89902 10268 20249 30079 40082 69962 72186 8122/ 333 10288 58004 81817 88460
AAXX 21124 43577 11456 83405 10245 20242 30095 40097 60372 76166 8492/ 333 10289 58019 83817 82918 88460
AAXX 21124 43588 11459 82910 10261 20242 30084 40086 60332 76186 8392/ 333 10290 58009 82817 81918 88460
AAXX 21124 43599 12459 83207 10272 20248 30085 40087 69912 8227/ 333 10302 58006 82817 88461
AAXX 21121 91929 04484 /1209 10258 20227 30098 40101 57026 69901 700// 333 60007 90710 91114 555 60005
AAXX 21121 91938 01465 80000 10255 20201 30107 40109 58017 60001 71591 8593/ 333 60007 82913 83820 85360 90710 91106 555 60005 10907
AAXX 21121 91948 06/// /3603 10231 20197 30066 40169 57017 60021 333 10283 59005 60027 90710 91111 555 69925 11018
AAXX 21121 91925 06/// /0204 10230 20196 30029 40090 56021 60001 333 10297 59008 60007 90710 91106 555 60005 10306
AAXX 21121 91943 16/// /0912 10267 20208 30088 40090 57028 69941 333 59013= 91944 06/// /0915 10258 20197 30118 40121 56017 60001 333 60007 90710 91122 555 60005
AAXX 21121 91954 06/// /1202 10237 20220 30137 40140 56019 60001 333 10296 59008 60007
AAXX 21121 91958 06/// /2102 10204 20191 30171 40173 56017 60001 333 10272 59004 60007 90710 91103 555 60005 12003
AAXX 21121 91945 36/// /0614 10241 20210 30121 40126 58019 333 10301
AAXX 21124 89564 NIL
AAXX 21124 89570 46/// /0829 11024 21062 39115 51019 333 11009
AAXX 21124 89571 41675 20422 10055 21067 39749 49777 53024 70111 81531
AAXX 21124 89573 NIL
AAXX 21124 89610 NIL
AAXX 21124 89611 41580 61705 10014 21053 39782 49834 53013 71422 868//
AAXX 21124 89614 NIL
AAXX 21124 89615 469// 70928 11043 21086 38943 53008 333 11015
AAXX 21124 89807 NIL
AAXX 21124 89809 46/// /1026 11026 21040 39376 53012 333 10023
AAXX 21124 94310 46/// /2918 10285 20255 30010 40022 52018 333 10329
AAXX 21124 95283 46/// /1309 10272 20223 30072 40079
AAXX 21124 95288 46/// /1320 10281 30053 40068 52014
AAXX 21124 95675 46/// /1310
AAXX 21124 95872 46/// /0820
AAXX 21124 95961 35/// /1413 10138 30162 40204 52003
AAXX 21124 94102 46/// /2514 10308 20286 30041 40050
AAXX 21124 94103 NIL
AAXX 21124 94120 46/// /1205 10249 20234 30008 40048
AAXX 21124 94122 46/// /0306 10283 20239 30038 40046
AAXX 21124 94131 46/// /0707 10296 20229 39899 40049
AAXX 21124 94132 NIL
AAXX 21124 94147 NIL
AAXX 21124 94150 46/// /0507 10267 20245 39995 40054
AAXX 21124 94151 46/// /0609 10278 20240 30037 4////
AAXX 21124 94170 46/// /1004 10243 20236 30054 40076
AAXX 21124 94200 NIL
AAXX 21124 94203 46/// /3110 10302 20249 30028 40038
AAXX 21124 94206 46/// /3607 10345 2//// 39893 40020
AAXX 21124 94207 46/// /2913 10294 30031 40039 53017
AAXX 21124 94211 NIL
AAXX 21124 94212 46/// /0504 10334 20184 39573 40034
AAXX 21124 94216 46/// /0302 10323 20201 39991 40041
AAXX 21124 94236 NIL
AAXX 21124 94238 NIL
AAXX 21124 94248 NIL
AAXX 21124 94255 46/// /0204 10307 20218 39784 40039
AAXX 21124 94268 46/// /2503 10274 20253 30043 40055
AAXX 21124 94287 46/// /1707 10253 20215 30076 40085
AAXX 21124 94290 NIL
AAXX 21124 94294 46/// /1208 10263 20193 30085 40095
AAXX 21124 94296 35/// /1815 10263 30037 40047 52003
AAXX 21124 94298 46/// /1523 10254 30056 40062 52008
AAXX 21124 95641 NIL
AAXX 21124 41241 32960 03108 10244 20048 30155 40190 333 58001
AAXX 21124 41242 36/// /0406 10236 20018 30185 40209 333 0E016 58004
AAXX 21124 41244 36/// /0301 10247 20033 39829 48281 333 0E016 59001
AAXX 21124 41246 32560 21011 10230 20095 30190 40195 82500 333 58001 82630
AAXX 21124 41251 32567 51703 10100 20037 38036 48161 85400 333 59018 85620
AAXX 21124 41252 36/// /3306 10250 20031 39797 40086 333 0E018 58000
AAXX 21124 41253 36/// /0108 10222 20072 39815 40199 333 0E015 58002
AAXX 21124 41254 36/// /3106 10110 20033 38068 48073 333 0E004 58037
AAXX 21124 41255 36/// /1201 10231 20063 39639 40188 333 0E019 58005
AAXX 21124 41256 31558 30307 10227 20112 30189 40199 70500 83500 333 58009 83625
AAXX 21124 41257 36/// /3606 10220 20065 39705 40195 333 0E012 58003
AAXX 21124 41258 36/// /0306 10228 20113 30186 40191 333 0E/// 58006
AAXX 21124 41259 NIL
AAXX 21124 41262 NIL
AAXX 21124 41263 36/// /1004 10231 20042 39492 40184 333 0E015 58001
AAXX 21124 41264 NIL
AAXX 21124 41265 36/// /3410 10233 20057 39634 40187 333 0E019 58004
AAXX 21124 41267 35/// /0116 10224 20109 30178 40193 333 0E020 58009
AAXX 21124 41268 32958 10113 10230 20083 30173 40189 81030 333 58008 81362
AAXX 21124 41270 36/66 /0215 10218 20069 30132 40144 333 0E019 58007
AAXX 21124 41275 NIL
AAXX 21124 41287 NIL
AAXX 21124 41288 31958 00816 10249 20125 30154 40176 70500 333 58006
AAXX 21124 41290 NIL
AAXX 21124 41295 NIL
AAXX 21124 41304 NIL
AAXX 21124 41312 36/// /0008 10276 20093 30111 40150 333 0E/// 58007
AAXX 21124 41314 NIL
AAXX 21124 41315 36/// /3612 10190 20074 39174 42812 333 0E/// 58017
AAXX 21124 41316 32560 10112 10275 20079 30127 40154 81500 333 58006 81625
AAXX 21124 89564 NIL
AAXX 21124 89570 46/// /0829 11024 21062 39115 51019 333 11009
AAXX 21124 89571 41675 20422 10055 21067 39749 49777 53024 70111 81531
AAXX 21124 89573 NIL
AAXX 21124 89610 NIL
AAXX 21124 89611 41580 61705 10014 21053 39782 49834 53013 71422 868//
AAXX 21124 89614 NIL
AAXX 21124 89615 469// 70928 11043 21086 38943 53008 333 11015
AAXX 21124 89807 NIL
AAXX 21124 89809 46/// /1026 11026 21040 39376 53012 333 10023
AAXX 21124 94500 NIL
AAXX 21124 94510 46/// /0303 10212 20190 39755 40094
AAXX 21124 94515 46/// /0607 10224 20169 39755 40096
AAXX 21124 94552 46/// /0707 10185 20136 39681 40140
AAXX 21124 94578 46/// /0807 10234 20176 30143 40154
AAXX 21124 94584 46/// /1221 10228 20186 30027 40136
AAXX 21124 94601 46/// /2714 10206 20163 30125 40142
AAXX 21124 94610 46/// /2313 10222 20146 30108 40131
AAXX 21124 94637 46/// /1207 10311 20065 39682 40099
AAXX 21124 94638 46/// /0906 10235 20114 30087 40118
AAXX 21124 94642 NIL
AAXX 21124 94643 NIL
AAXX 21124 94647 46/// /1810 10189 20160 30024 40143
AAXX 21124 94651 46/// /2011 10184 20176 30045 40121
AAXX 21124 94653 46/// /1007 10234 20158 30077 40095
AAXX 21124 94659 46/// /3305 10292 20064 39918 40109
AAXX 21124 94672 46/// /1208 10209 20038 30135 40145
AAXX 21124 94691 46/// /1409 10236 20055 39810 40131
AAXX 21124 94693 46/// /1704 10195 20068 30077 40138
AAXX 21124 94700 NIL
AAXX 21124 94703 46/// /0806 10257 20168 39979 40102
AAXX 21124 94710 46/// /0808 10251 20136 39864 40111
AAXX 21124 94729 46/// /0805 10156 20129 39312 40148
AAXX 21124 94750 46/// /0000 10175 20160 30060 40183
AAXX 21124 94767 46/// /1408 10198 20156 30177 40183
AAXX 21124 94776 46/// /0603 10201 20169 30168 40178
AAXX 21124 94791 NIL
AAXX 21124 94802 46/// /1902 10186 20159 30057 40139
AAXX 21124 94804 46/// /1215 10183 20140 30110 40147
AAXX 21124 94807 NIL
AAXX 21124 94821 46/// /1406 10134 20125 30091 40173
AAXX 21124 94842 46/// /1015 10160 20137 30087 40186
AAXX 21124 94847 NIL
AAXX 21124 94850 46/// /1205 10131 20125 30158 40204
AAXX 21124 94865 46/// /1212 10169 20120 30147 40171
AAXX 21124 94866 46/// /2005 10155 20118 30029 40168
AAXX 21124 94875 46/// /1607 10208 20140 30007 40140
AAXX 21123 91502 31470 60000 10262 20244 40073 50010 71522 82936 333 10335 56999 59002 81814 81915 86280
AAXX 21123 91507 NIL
AAXX 21123 91520 32475 20000 10255 20252 40078 51009 82938 333 10316 56999 59009 82816 81917
AAXX 21123 91541 32480 50000 10250 20243 40094 52006 82206 333 10320 56000 59003 82816 85280
AAXX 21124 94299 46/// /1618 10272 20233 30060 40070
AAXX 21124 94300 46/// /2018 10255 20203 30085 40095
AAXX 21124 94302 46/// /2018 10314 20120 30054 40060
AAXX 21124 94312 46/// /2911 10310 20218 30018 40027
AAXX 21124 94313 NIL
AAXX 21124 94317 46/// /1905 10367 20015 39471 40040
AAXX 21124 94319 46/// /1608 10393 20098 39698 40019
AAXX 21124 94324 NIL
AAXX 21124 94326 46/// /0806 10257 20172 39472 40072
AAXX 21124 94327 46/// /1507 10281 20148 39704 40068
AAXX 21124 94332 46/// /0000 10263 20207 39660 40035
AAXX 21124 94333 NIL
AAXX 21124 94341 46/// /0805 10303 20131 39823 40052
AAXX 21124 94346 46/// /2603 10258 20210 39851 40065
AAXX 21124 94363 46/// /0612 10252 20171 39884 40097
AAXX 21124 94366 NIL
AAXX 21124 94367 46/// /1214 10256 20192 30058 40099
AAXX 21124 94374 46/// /1207 10237 20186 30100 40116
AAXX 21124 94388 46/// /1217 10240 20183 30119 40124
AAXX 21124 94393 46/// /1327 10250 30058 40070 51006
AAXX 21124 94394 46/// /1127 10247 30095 40103 51006
AAXX 21124 94403 46/// /1813 10215 20180 30082 40123
AAXX 21124 94429 46/// /2406 10339 20070 39627 40080
AAXX 21124 94430 46/// /2005 10356 20025 39503 40071
AAXX 21124 94449 46/// /1008 10325 20093 39581 40099
AAXX 21124 94451 NIL
AAXX 21124 94461 46/// /1612 10307 20069 39413 40065
AAXX 21124 94462 46/// /0000 10256 20229 39526 40066
AAXX 21124 94477 NIL
AAXX 21124 94488 NIL
AAXX 21124 43533 11459 73406 10290 20235 30081 40084 60002 70522 8227/ 333 10302 58004 82818 87362
AAXX 21124 43555 11458 89902 10268 20249 30079 40082 69962 72186 8122/ 333 10288 58004 81817 88460
AAXX 21124 43577 11456 83405 10245 20242 30095 40097 60372 76166 8492/ 333 10289 58019 83817 82918 88460
AAXX 21124 43588 11459 82910 10261 20242 30084 40086 60332 76186 8392/ 333 10290 58009 82817 81918 88460
AAXX 21124 43599 12459 83207 10272 20248 30085 40087 69912 8227/ 333 10302 58006 82817 88461
BBXX UCKZ 21121 99658 30462 41495 70912 11021 21028 49708 56006 78587 86370 22213 01012 20504 335// 41005 ICE 2/890
BBXX FHZI 21104 99654 31442 46/// /2829 11000 21022 39891 49902 54000 22200 05018 86008
BBXX FHZI 21114 99654 31441 46/// /2931 11000 21021 39888 49899 57008 22200 05018 86008
BBXX FHZI 21124 99655 31440 46/// /2932 11002 21022 39885 49896 57006 22200 05018 86010
AAXX 21124 94500 NIL
AAXX 21124 94510 46/// /0303 10212 20190 39755 40094
AAXX 21124 94515 46/// /0607 10224 20169 39755 40096
AAXX 21124 94552 46/// /0707 10185 20136 39681 40140
AAXX 21124 94578 46/// /0807 10234 20176 30143 40154
AAXX 21124 94584 46/// /1221 10228 20186 30027 40136
AAXX 21124 94601 46/// /2714 10206 20163 30125 40142
AAXX 21124 94610 46/// /2313 10222 20146 30108 40131
AAXX 21124 94637 46/// /1207 10311 20065 39682 40099
AAXX 21124 94638 46/// /0906 10235 20114 30087 40118
AAXX 21124 94642 NIL
AAXX 21124 94643 NIL
AAXX 21124 94647 46/// /1810 10189 20160 30024 40143
AAXX 21124 94651 46/// /2011 10184 20176 30045 40121
AAXX 21124 94653 46/// /1007 10234 20158 30077 40095
AAXX 21124 94659 46/// /3305 10292 20064 39918 40109
AAXX 21124 94672 46/// /1208 10209 20038 30135 40145
AAXX 21124 94691 46/// /1409 10236 20055 39810 40131
AAXX 21124 94693 46/// /1704 10195 20068 30077 40138
AAXX 21124 94700 NIL
AAXX 21124 94703 46/// /0806 10257 20168 39979 40102
AAXX 21124 94710 46/// /0808 10251 20136 39864 40111
AAXX 21124 94729 46/// /0805 10156 20129 39312 40148
AAXX 21124 94750 46/// /0000 10175 20160 30060 40183
AAXX 21124 94767 46/// /1408 10198 20156 30177 40183
AAXX 21124 94776 46/// /0603 10201 20169 30168 40178
AAXX 21124 94791 NIL
AAXX 21124 94802 46/// /1902 10186 20159 30057 40139
AAXX 21124 94804 46/// /1215 10183 20140 30110 40147
AAXX 21124 94807 NIL
AAXX 21124 94821 46/// /1406 10134 20125 30091 40173
AAXX 21124 94842 46/// /1015 10160 20137 30087 40186
AAXX 21124 94847 NIL
AAXX 21124 94850 46/// /1205 10131 20125 30158 40204
AAXX 21124 94865 46/// /1212 10169 20120 30147 40171
AAXX 21124 94866 46/// /2005 10155 20118 30029 40168
AAXX 21124 94875 46/// /1607 10208 20140 30007 40140
AAXX 21124 94299 46/// /1618 10272 20233 30060 40070
AAXX 21124 94300 46/// /2018 10255 20203 30085 40095
AAXX 21124 94302 46/// /2018 10314 20120 30054 40060
AAXX 21124 94312 46/// /2911 10310 20218 30018 40027
AAXX 21124 94313 NIL
AAXX 21124 94317 46/// /1905 10367 20015 39471 40040
AAXX 21124 94319 46/// /1608 10393 20098 39698 40019
AAXX 21124 94324 NIL
AAXX 21124 94326 46/// /0806 10257 20172 39472 40072
AAXX 21124 94327 46/// /1507 10281 20148 39704 40068
AAXX 21124 94332 46/// /0000 10263 20207 39660 40035
AAXX 21124 94333 NIL
AAXX 21124 94341 46/// /0805 10303 20131 39823 40052
AAXX 21124 94346 46/// /2603 10258 20210 39851 40065
AAXX 21124 94363 46/// /0612 10252 20171 39884 40097
AAXX 21124 94366 NIL
AAXX 21124 94367 46/// /1214 10256 20192 30058 40099
AAXX 21124 94374 46/// /1207 10237 20186 30100 40116
AAXX 21124 94388 46/// /1217 10240 20183 30119 40124
AAXX 21124 94393 46/// /1327 10250 30058 40070 51006
AAXX 21124 94394 46/// /1127 10247 30095 40103 51006
AAXX 21124 94403 46/// /1813 10215 20180 30082 40123
AAXX 21124 94429 46/// /2406 10339 20070 39627 40080
AAXX 21124 94430 46/// /2005 10356 20025 39503 40071
AAXX 21124 94449 46/// /1008 10325 20093 39581 40099
AAXX 21124 94451 NIL
AAXX 21124 94461 46/// /1612 10307 20069 39413 40065
AAXX 21124 94462 46/// /0000 10256 20229 39526 40066
AAXX 21124 94477 NIL
AAXX 21124 94488 NIL
AAXX 21124 94893 46/// /0624 10151 20149 3//// 4////
AAXX 21124 94907 46/// /1110 10154 20123 30188 40198
AAXX 21124 94910 46/// /1206 10195 20122 39894 40140
AAXX 21124 94926 46/// /1007 10145 20122 39510 40170
AAXX 21124 94935 46/// /2704 10147 20132 30167 40194
AAXX 21124 94954 46/// /1907 10151 20133 30102 40213
AAXX 21124 94956 46/// /0105 10128 20110 30179 40206
AAXX 21124 94975 46/// /1307 10129 20048 30208 40241
AAXX 21124 94983 46/// /1824 10147 20109 30192 40217
AAXX 21124 94995 46/// /0614 10212 20167 30180 40188
AAXX 21124 94996 46/// /0913 10205 20183 30058 40187
AAXX 21124 94997 NIL
AAXX 21124 94998 46/// /2413 10056 20036 30217 40228
AAXX 21124 95111 46/// /0000 10303 20275 30008 40044
AAXX 21124 95205 46/// /2706 10353 20150 30025 40032
AAXX 21124 95322 NIL
AAXX 21124 95448 46/// /1106 10347 20043 39523 40071
AAXX 21124 95458 46/// /0507 10222 20192 39846 40100
AAXX 21124 95480 46/// /0906 10294 20090 30048 40106
AAXX 21124 95481 46/// /1309 10307 20084 30051 40095
AAXX 21124 95482 46/// /1511 10346 20060 30024 40078
AAXX 21124 95485 46/// /1507 10260 2//// 39907 40107
AAXX 21124 95492 46/// /1707 10271 20120 39939 40090
AAXX 21124 95527 46/// /1712 10193 20179 39899 40148
AAXX 21124 95634 NIL
AAXX 21124 95637 46/// /1411 10257 20150 39785 40112
AAXX 21124 95646 46/// /1711 10202 20150 39950 40134
AAXX 21124 95666 NIL
AAXX 21124 95719 46/// /0912 10205 20148 39814 40138
AAXX 21124 95762 46/// /1308 10191 20156 39694 40143
AAXX 21124 95826 NIL
AAXX 21124 95839 46/// /1311 10187 20120 39996 40153
AAXX 21124 95864 NIL
AAXX 21124 95909 NIL
AAXX 21124 95954 NIL
AAXX 21124 95966 46/// /1806 10106 20064 30023 40223
AAXX 21124 96995 46/// /0805 10253 20236 39790 40084
AAXX 21124 96996 45/// /1213 10276 20232 30068 40072 53010
AAXX 21124 94102 46/// /2514 10308 20286 30041 40050
AAXX 21124 94103 NIL
AAXX 21124 94120 46/// /1205 10249 20234 30008 40048
AAXX 21124 94122 46/// /0306 10283 20239 30038 40046
AAXX 21124 94131 46/// /0707 10296 20229 39899 40049
AAXX 21124 94132 NIL
AAXX 21124 94147 NIL
AAXX 21124 94150 46/// /0507 10267 20245 39995 40054
AAXX 21124 94151 46/// /0609 10278 20240 30037 4////
AAXX 21124 94170 46/// /1004 10243 20236 30054 40076
AAXX 21124 94200 NIL
AAXX 21124 94203 46/// /3110 10302 20249 30028 40038
AAXX 21124 94206 46/// /3607 10345 2//// 39893 40020
AAXX 21124 94207 46/// /2913 10294 30031 40039 53017
AAXX 21124 94211 NIL
AAXX 21124 94212 46/// /0504 10334 20184 39573 40034
AAXX 21124 94216 46/// /0302 10323 20201 39991 40041
AAXX 21124 94236 NIL
AAXX 21124 94238 NIL
AAXX 21124 94248 NIL
AAXX 21124 94255 46/// /0204 10307 20218 39784 40039
AAXX 21124 94268 46/// /2503 10274 20253 30043 40055
AAXX 21124 94287 46/// /1707 10253 20215 30076 40085
AAXX 21124 94290 NIL
AAXX 21124 94294 46/// /1208 10263 20193 30085 40095
AAXX 21124 94296 35/// /1815 10263 30037 40047 52003
AAXX 21124 94298 46/// /1523 10254 30056 40062 52008
AAXX 21124 95641 NIL
BBXX VRRB 21124 99293 31535 41/// /1017 10235 20196 40168 52/// 7//// 8//// 22244 2//// 80210
BBXX VNVF 21124 99037 11256 41/98 /0000 10288 20250 40074 52030 71322 8//// 22244 00296 20000 30000 80261
BBXX 9V8207 21113 99412 31501 41/97 81420 10147 20135 40198 51001 75851 8//// 22233 00173 29904 80140
BBXX VRDG4 21123 99387 31451 41596 40920 10165 20115 40187 55002 702// 83443 22273 20505 80138
BBXX VRAE2 21124 99228 31772 41/// 81025 10250 20191 40129 50001 70080 8//// 22244 04270 2//// 80212
BBXX C6NR5 21104 99034 11294 41598 30312 10290 20249 40069 52010 70300 81245 22233 04308 20502 304// 5//// 80262
BBXX mpjh9 21114 99003 31509 41698 40808 10286 20255 40058 70111 843// 22234 00290 2//// 80264
BBXX 3ELR6 21123 99113 31240 41196 32312 10300 20274 40054 53/// 71399 83495 22223 06340 20102 80280
BBXX VRRD 21123 99202 31553 41297 80720 10250 20243 40064 52018 78186 887// 22243 04290 20504 309// 40504 80245
BBXX YCZC5 21123 99162 51775 41397 60925 10280 20252 40113 51/// 70322 85562 22223 02270 2//// 309// 40201 80260
BBXX C6FS9 21114 99274 31531 46/// /0812 10236 20176 30122 40158 52009 22200 04237 85196
BBXX VNSZ 21114 99404 31459 46/// /0620 10157 20110 30187 40214 57004 22276 04168 85130
BBXX VNSZ 21104 99408 31461 46/// /0215 10160 20100 30193 40220 52006 22276 04171 85126
BBXX 9HA2479 21104 99246 31638 46/// /1030 10244 20200 30107 40136 52008 22214 04244 85213
BBXX VHAF 21124 99395 31452 41/98 20914 10164 40244 51007 70100 8//// 22284 20503
BBXX C6FS9 21104 99274 31531 46/// /0712 10236 20173 30123 40159 52020 22200 04236 85194
BBXX VROB 21104 99378 31449 46/// /1315 10197 20116 30138 40163 5//// 22200 04203 85149
BBXX VNAH 21104 99322 31157 46/// /2122 10214 20161 30106 40129 52001 22200 04226 85180
BBXX VROB 21114 99378 31449 46/// /1308 10186 20110 30143 40169 5//// 22200 04203 85141
BBXX VNAH 21114 99322 31157 46/// /2122 10209 20159 30110 40133 52007 22200 04226 85177
BBXX VNSZ 21124 99400 31456 46/// /0715 10157 20120 30187 40214 57008 22276 04169 85135
BBXX 9HA2479 21124 99242 31642 46/// /1130 10243 20202 30106 40135 57003 22214 04250 85214
BBXX C6FS9 21124 99274 31531 46/// /0812 10234 20179 30126 40162 52008 22200 04238 85197
BBXX VROB 21124 99378 31449 46/// /1310 10178 20110 30146 40172 52012 22200 04203 85138
BBXX VNAH 21124 99322 31157 46/// /2122 10206 20162 30114 40137 52011 22200 04226 85178
BBXX ZM2619 21123 99442 31780 41/98 09903 10119 20076 40308 54000 70222 22262 29900 321// 40901 80098
BBXX VRUB2 21123 99079 31217 41/98 82813 10300 20273 40067 52023 70252 8//// 22263 04305 299// 80280
BBXX ZMKA 21124 99429 31738 41998 00411 10130 20091 40294 58005 70200 80000 22252 2//// 318// 40503 80110
BBXX VRRB 21124 99293 31535 41/// /1017 10235 20196 40168 52/// 7//// 8//// 22244 2//// 80210
BBXX VNVF 21124 99037 11256 41/98 /0000 10288 20250 40074 52030 71322 8//// 22244 00296 20000 30000 80261
BBXX 9V8207 21113 99412 31501 41/97 81420 10147 20135 40198 51001 75851 8//// 22233 00173 29904 80140
BBXX VRDG4 21123 99387 31451 41596 40920 10165 20115 40187 55002 702// 83443 22273 20505 80138
BBXX VRAE2 21124 99228 31772 41/// 81025 10250 20191 40129 50001 70080 8//// 22244 04270 2//// 80212
BBXX C6NR5 21104 99034 11294 41598 30312 10290 20249 40069 52010 70300 81245 22233 04308 20502 304// 5//// 80262
BBXX mpjh9 21114 99003 31509 41698 40808 10286 20255 40058 70111 843// 22234 00290 2//// 80264
BBXX 3ELR6 21123 99113 31240 41196 32312 10300 20274 40054 53/// 71399 83495 22223 06340 20102 80280
BBXX VRRD 21123 99202 31553 41297 80720 10250 20243 40064 52018 78186 887// 22243 04290 20504 309// 40504 80245
BBXX YCZC5 21123 99162 51775 41397 60925 10280 20252 40113 51/// 70322 85562 22223 02270 2//// 309// 40201 80260
BBXX C6FS9 21114 99274 31531 46/// /0812 10236 20176 30122 40158 52009 22200 04237 85196
BBXX VNSZ 21114 99404 31459 46/// /0620 10157 20110 30187 40214 57004 22276 04168 85130
BBXX VNSZ 21104 99408 31461 46/// /0215 10160 20100 30193 40220 52006 22276 04171 85126
BBXX 9HA2479 21104 99246 31638 46/// /1030 10244 20200 30107 40136 52008 22214 04244 85213
BBXX VHAF 21124 99395 31452 41/98 20914 10164 40244 51007 70100 8//// 22284 20503
BBXX C6FS9 21104 99274 31531 46/// /0712 10236 20173 30123 40159 52020 22200 04236 85194
BBXX VROB 21104 99378 31449 46/// /1315 10197 20116 30138 40163 5//// 22200 04203 85149
BBXX VNAH 21104 99322 31157 46/// /2122 10214 20161 30106 40129 52001 22200 04226 85180
BBXX VROB 21114 99378 31449 46/// /1308 10186 20110 30143 40169 5//// 22200 04203 85141
BBXX VNAH 21114 99322 31157 46/// /2122 10209 20159 30110 40133 52007 22200 04226 85177
BBXX VNSZ 21124 99400 31456 46/// /0715 10157 20120 30187 40214 57008 22276 04169 85135
BBXX 9HA2479 21124 99242 31642 46/// /1130 10243 20202 30106 40135 57003 22214 04250 85214
BBXX C6FS9 21124 99274 31531 46/// /0812 10234 20179 30126 40162 52008 22200 04238 85197
BBXX VROB 21124 99378 31449 46/// /1310 10178 20110 30146 40172 52012 22200 04203 85138
BBXX VNAH 21124 99322 31157 46/// /2122 10206 20162 30114 40137 52011 22200 04226 85178
BBXX ZM2619 21123 99442 31780 41/98 09903 10119 20076 40308 54000 70222 22262 29900 321// 40901 80098
BBXX VRUB2 21123 99079 31217 41/98 82813 10300 20273 40067 52023 70252 8//// 22263 04305 299// 80280
BBXX ZMKA 21124 99429 31738 41998 00411 10130 20091 40294 58005 70200 80000 22252 2//// 318// 40503 80110
AAXX 21124 94893 46/// /0624 10151 20149 3//// 4////
AAXX 21124 94907 46/// /1110 10154 20123 30188 40198
AAXX 21124 94910 46/// /1206 10195 20122 39894 40140
AAXX 21124 94926 46/// /1007 10145 20122 39510 40170
AAXX 21124 94935 46/// /2704 10147 20132 30167 40194
AAXX 21124 94954 46/// /1907 10151 20133 30102 40213
AAXX 21124 94956 46/// /0105 10128 20110 30179 40206
AAXX 21124 94975 46/// /1307 10129 20048 30208 40241
AAXX 21124 94983 46/// /1824 10147 20109 30192 40217
AAXX 21124 94995 46/// /0614 10212 20167 30180 40188
AAXX 21124 94996 46/// /0913 10205 20183 30058 40187
AAXX 21124 94997 NIL
AAXX 21124 94998 46/// /2413 10056 20036 30217 40228
AAXX 21124 95111 46/// /0000 10303 20275 30008 40044
AAXX 21124 95205 46/// /2706 10353 20150 30025 40032
AAXX 21124 95322 NIL
AAXX 21124 95448 46/// /1106 10347 20043 39523 40071
AAXX 21124 95458 46/// /0507 10222 20192 39846 40100
AAXX 21124 95480 46/// /0906 10294 20090 30048 40106
AAXX 21124 95481 46/// /1309 10307 20084 30051 40095
AAXX 21124 95482 46/// /1511 10346 20060 30024 40078
AAXX 21124 95485 46/// /1507 10260 2//// 39907 40107
AAXX 21124 95492 46/// /1707 10271 20120 39939 40090
AAXX 21124 95527 46/// /1712 10193 20179 39899 40148
AAXX 21124 95634 NIL
AAXX 21124 95637 46/// /1411 10257 20150 39785 40112
AAXX 21124 95646 46/// /1711 10202 20150 39950 40134
AAXX 21124 95666 NIL
AAXX 21124 95719 46/// /0912 10205 20148 39814 40138
AAXX 21124 95762 46/// /1308 10191 20156 39694 40143
AAXX 21124 95826 NIL
AAXX 21124 95839 46/// /1311 10187 20120 39996 40153
AAXX 21124 95864 NIL
AAXX 21124 95909 NIL
AAXX 21124 95954 NIL
AAXX 21124 95966 46/// /1806 10106 20064 30023 40223
AAXX 21124 96995 46/// /0805 10253 20236 39790 40084
AAXX 21124 96996 45/// /1213 10276 20232 30068 40072 53010
AAXX 21121 38141 NIL
AAXX 21121 38149 NIL
AAXX 21121 38178 42998 00603 11118 21242 30135 40448 57002 555 14112
AAXX 21121 38262 NIL
AAXX 21121 38264 42998 30606 11060 21179 30298 40398 57016 80001 555 14105
AAXX 21121 38396 42997 20804 11037 21159 30268 40400 57004 80001 555 14105
AAXX 21121 38403 42997 00903 11031 21147 30282 40410 57011 555 10000
AAXX 21121 38413 42998 01002 11089 21113 30102 40414 57011 555 14112
AAXX 21121 38457 42997 73201 11066 21107 39793 40422 57003 84031 555 14106
AAXX 21121 38462 42699 80000 11097 21161 38860 48574 53006 8472/ 555 1/111
AAXX 21121 38565 32998 00000 11099 21130 39793 40425 56003 555 14112
AAXX 21121 38579 32999 01001 11058 21136 39977 40425 52003 555 1/105
AAXX 21121 38583 32997 81101 11054 21068 30083 40427 53001 80001 555 14102
AAXX 21121 38611 41696 81401 11056 21070 39816 40425 52002 71022 889// 333 83389 555 14506
AAXX 21121 38618 41997 80000 11063 21099 39669 40404 52004 70272 8707/ 555 14104
AAXX 21121 38683 42997 03602 11046 21171 30111 40405 57005 555 14102
AAXX 21121 38696 32999 00000 11044 21062 39495 40401 53002 555 14106
AAXX 21121 38812 42997 00000 11023 21126 39906 40384 57015 555 10104
AAXX 21121 38927 41560 31002 11022 21067 30014 40413 54000 70180 83400 333 83624 555 14101
AAXX 21124 41024 32960 02408 10290 20130 30100 40119 333 58001
AAXX 21124 41030 32660 20000 10340 20160 39838 40106 82100 333 59003 82840
AAXX 21124 41036 32560 10911 10234 20000 38572 48521 81100 333 58000 81830 555 04410 50128
AAXX 21124 41055 32960 00807 10215 20030 38376 48524 333 59001 555 04410 50155
AAXX 21124 41061 32960 01010 10222 20050 39468 40183 333 59007
AAXX 21124 41084 32960 00000 10246 20030 38873 48525 333 59003 555 04410 50144
AAXX 21124 41112 32960 02905 10214 21020 37951 48521 333 59001 555 04410 50158
AAXX 21124 41114 32960 00000 10202 21040 37983 48518 333 59002 555 04410 50151
AAXX 21124 41128 32960 00906 10225 21010 38836 48538 333 59002 555 04410 50177
AAXX 21124 41136 32960 00306 10226 21010 39352 40175 333 59005
AAXX 21124 41140 32960 02110 10300 20220 30116 40122 333 59001
AAXX 21124 40356 42660 71608 10190 20000 39189 48495 82130 333 59028 82840 86360 555 04410 50157
AAXX 21124 40357 32760 61309 10190 20050 39537 40177 83540 333 59037 83650 86360
AAXX 21124 40360 32960 63604 10152 20010 39569 40153 80006 333 59025 86270
AAXX 21124 40361 32960 40703 10230 21010 39393 40157 80008 333 59035
AAXX 21124 40362 32960 51410 10204 21010 39674 40195 80002 333 59024 85070
AAXX 21124 40373 32660 41502 10186 21010 39783 40207 84500 333 59017 84635
AAXX 21124 40375 32660 60000 10230 20050 39268 40129 82200 333 59014 82840 86460
AAXX 21124 40377 32960 01804 10198 20050 39724 40209 333 59014
AAXX 21124 40394 32960 31912 10234 20010 39046 48525 80002 333 59020 83070 555 04410 50165
AAXX 21124 40400 32660 63012 10262 20150 30112 40140 82404 333 59003 82640 86070
AAXX 21124 40401 32960 42302 10264 21040 39452 40144 80004 3333 59011 84070
AAXX 21124 40405 32960 01705 10225 20010 39443 40184 333 59027
AAXX 21124 40416 32560 20407 10225 20170 30170 40190 82100 333 58003 82830
AAXX 21124 40417 32560 13502 10227 20100 30188 40203 81100 333 59001 81830
AAXX 21124 40420 32760 40703 10228 20100 39991 40200 82430 333 59001 82650
AAXX 21124 40430 32960 50805 10272 20000 39432 40146 82031 333 59010 82360 84070
AAXX 21124 40435 NIL
AAXX 21124 40437 32960 01405 10190 21070 39497 40214 333 59010
AAXX 21124 40439 32960 32306 10296 20140 30106 40116 82031 333 59006 82360
AAXX 21124 71621 12474 80403 11006 21027 30005 40112 56019 60001 885// 333 10002 21049 70000
BBXX V2BE4 21121 99097 11430 41498 30810 10285 20250 40082 51016 70200 82140 22243 04295 20301 80260
BBXX ZCAS2 21123 99318 11344 41698 62908 10142 20061 40194 54000 78086 8217/ 22283 00228 20101 307// 40202 80103
BBXX VRAE3 21124 99067 11226 41793 30000 10310 20260 40084 51018 70200 82534 22234 00310 2//// 3//// 4//// 5//// 80275
AAXX 21121 37395 42799 80902 10162 20004 30017 40153 58005 8252/ 555 10014
AAXX 21121 37409 16/// /2205 10095 21072 38762 48496 57006 60001
AAXX 21121 37432 42697 50000 10035 21039 38954 48488 57016 85500 555 11000
AAXX 21121 37514 42699 40000 10116 21036 39046 40176 57010 84500
AAXX 21121 37545 42596 42903 10052 20011 39682 40200 57013 71022 84010
AAXX 21121 37621 42698 40000 10049 21034 39551 40196 57019 80030 555 11009
AAXX 21121 37484 NIL
AAXX 21124 71621 12474 80403 11006 21027 30005 40112 56019 60001 885// 333 10002 21049 70000
AAXX 21121 13492 ///// 5//// 11040
AAXX 21121 13584 NIL
AAXX 21121 13585 12597 72702 10032 20012 39338 40140 57013 69911 82770
AAXX 21121 13597 42698 73603 10080 20001 30069 40142 57009 82506
AAXX 21121 13598 42698 30000 10024 21006 48420 58006 83500
AAXX 21124 65352 31940 70404 10335 21010 3//// 4//// 70522 80002 333 5//// 87076
AAXX 21124 65361 32958 70404 10315 20035 3//// 4//// 80002 333 5//// 87076
AAXX 21124 65376 31940 70804 10310 20159 39658 40114 70522 80002 333 59003 87073
AAXX 21124 65387 32458 72006 10320 20250 30081 40099 82202 333 59001 82816 87073
AAXX 21124 40550 35/70 /2803 10213 21004 40217 56010 333 0/025 55309 00349 10016 21070 30323 41119 51539 61393 55407 40747 90069 90400 91005 91109 91205 91303
AAXX 21124 40551 36/// /2404 10204 20005 333 0//// 90401 91007 91113 91211 91307
AAXX 21124 40552 35/70 /2406 10202 21007 40214 56010 333 0/024 55309 90069 90400 91009 91113 91209 91305
AAXX 21124 40553 35/70 /2405 10210 21002 40216 56009 333 0/026 55310 90069 90401 91007 91117 91207 91305
AAXX 21124 40568 36/// /1104 10154 20101 333 0//// 90400 91005 91111 91207 91305
AAXX 21124 40569 NIL
AAXX 21124 40570 35/70 /2305 10185 21006 40213 56015 333 0/025 55308 90069 90401 91007 91111 91205 91303
AAXX 21124 40571 NIL
AAXX 21124 40572 NIL
AAXX 21124 40573 36/// /2304 10192 21006 333 0//// 90400 91007 91115 91205 91305
AAXX 21124 40580 36/// /2102 10226 21011 333 0/029 553// 00502 10010 21219 30230 41101 51602 61450 55407 40989 90401 91005 91109 91203 91301
AAXX 21124 40581 36/// /0804 10175 20084 333 0//// 90400 91005 91109 91205 91301
AAXX 21124 40582 42960 02405 10212 21025 40218 56011 333 00026 55300 00418 10007 21294 30406 41123 51603 61700 55407 40888 83070 90400 91007 91111 91207 91303
AAXX 21124 40583 NIL
AAXX 21124 40585 36/// /0703 10159 20091 222// 1//// 3//// 4//// 70/// 333 0//// 90401 91003 91111 91209 91305
AAXX 21124 40586 36/// /2204 10217 21010 333 0//// 90400 91007 91111 91207 91303
AAXX 21124 40587 36/// /2103 10219 21011 333 0/029 553// 00607 10000 21447 30382 41105 51557 61829 55407 41064 90401 91005 91111 91207 91303
AAXX 21124 40588 37/69 /3102 10186 20014 40220 56012 700// 333 0/021 55300 90069 90400 91003 91109 91207 91303
AAXX 21124 40589 NIL
AAXX 21124 40590 36/// /2405 10199 21019 333 0//// 90401 91007 91111 91205 91303
AAXX 21124 40591 NIL
AAXX 21124 40592 35/70 /2504 10211 21007 40218 55010 333 0/022 55310 00423 10001 20997 30200 41146 51524 61197 55407 40797 90069 90401 91005 91107 91205 91303
AAXX 21124 40593 36/// /0807 10176 20091 333 0//// 90401 91007 91113 91207 91305
AAXX 21124 40594 36/// /0706 10196 20066 333 0//// 90400 91007 91109 91205 91303
AAXX 21124 40596 36/// /3505 10184 20087 333 0//// 90401 91005 91111 91209 91305
AAXX 21124 48464 31957 43102 10250 20189 30089 40102 52013 71011 83031 333 10296 58004
BBXX MSTM6 21123 99362 70079 41498 13610 10175 20131 40300 54000 70000 8/1// 22224 00177 20502 399// 40802 80150
BBXX AVMI 21123 99330 31517 41198 61010 10190 20/// 40266 51018 70312 84/// 22200 00260
BBXX PDNN 21123 99470 70247 41597 72030 10138 20116 40234 51015 70222 875// 22223 02128 20203 320// 40805 80125 90609
AAXX 21121 56187 NIL
AAXX 21121 56778 NIL
AAXX 21121 57265 NIL
AAXX 21121 57461 11456 82702 10066 20052 30155 40323 52022 69921 76066 8277/
AAXX 21121 57494 NIL
AAXX 21121 57516 11716 81601 10087 20063 39968 40287 52023 69901 72166 885// 333 00500
AAXX 21121 57687 11440 83403 10068 20027 30213 40299 52021 69901 76060 8772/
AAXX 21121 57816 11656 80203 10034 20028 38846 40278 52016 69901 71060 885// 333 00401
AAXX 21121 58040 31956 80203 10017 21024 30285 40299 52019 71000 80007
AAXX 21121 58102 NIL
AAXX 21121 58150 31920 20202 10050 21015 30290 40294 52016 70500 80002
AAXX 21121 58221 NIL
AAXX 21121 58238 NIL
AAXX 21121 58251 NIL
AAXX 21121 58362 NIL
AAXX 21121 58457 31730 83602 10085 20045 30228 40282 52019 71000 885//
AAXX 21121 58606 11756 80403 10081 20034 30215 40275 52017 69901 76060 885//
AAXX 21121 58752 NIL
AAXX 21121 58847 NIL
AAXX 21121 59117 32970 02501 10148 20106 30092 40199 52024
AAXX 21121 59134 NIL
AAXX 21121 59287 NIL
AAXX 21121 59316 32964 00702 10175 20128 30192 40197 52020
AAXX 21121 59431 32760 70000 10158 20108 30057 40204 52014 875//
AAXX 21121 59644 31558 73603 10182 20093 30174 40191 52017 70500 878//
AAXX 21121 59758 NIL
AAXX 21121 50468 11970 73601 11218 21243 39973 40203 52009 69931 77077 80002
AAXX 21121 50953 11960 62502 11116 21165 30003 40193 57001 69901 70070 80002
AAXX 21121 51076 NIL
AAXX 21121 51243 NIL
AAXX 21121 51288 32980 00901 11125 21228 38448 52001 333 05406
AAXX 21121 51463 NIL
AAXX 21121 51573 NIL
AAXX 21121 51709 NIL
AAXX 21121 52533 NIL
AAXX 21121 52652 NIL
AAXX 21121 52866 32970 71601 11082 21161 37758 52018 80002 333 00556
AAXX 21121 52983 NIL
AAXX 21121 53463 32980 03402 11089 21198 39085 40416 52014 333 00553
AAXX 21121 53513 32970 02201 11095 21180 39126 40446 52011 333 00551
AAXX 21121 53588 NIL
AAXX 21121 53772 NIL
AAXX 21121 53915 NIL
AAXX 21121 54218 32970 02904 11117 21251 39484 40342 52007
AAXX 21121 54337 32960 03604 11052 21222 30214 40302 52023
AAXX 21121 54342 NIL
AAXX 21121 54401 NIL
AAXX 21121 54471 32960 03605 11052 21190 30289 40295 52021
AAXX 21121 54497 32965 03408 11047 21172 30243 40260 52029
AAXX 21121 54511 NIL
AAXX 21121 54823 32962 00903 11005 21096 30110 40330 52021
AAXX 21121 56080 NIL
AAXX 21121 56096 NIL
AAXX 21121 57083 32960 62903 10060 21103 30180 40322 52024 80002
AAXX 21121 34504 /1226 81905 10075 20071 39876 40052 57011 76164 8772/ 333 87706 555 60011
AAXX 21124 89514 32798 70208 10042 49710 52010 84039 333 10042 21025 84350 86175
BBXX 44139 21121 99442 70571 46/// /3010 10011 40233 5//// 22200 00061 11008 70041 333 91213
AAXX 21121 33088 32597 73201 11003 21018 39914 40109 58001 87500
AAXX 21121 33177 /1915 82302 11010 21016 39876 40119 51001 71072 8802/ 555 69901
AAXX 21121 33261 /1395 83501 10015 20012 39879 40063 58004 76165 8772/ 333 87707 555 69961
AAXX 21121 33275 /1295 81504 10047 20042 39838 40060 58008 76065 8772/ 333 87704 555 69941
AAXX 21121 33301 /1297 82903 11005 21011 39827 40114 51001 77172 8772/ 333 87706 555 69901
AAXX 21121 33325 32497 83101 11006 21021 39823 40095 52001 885// 333 86710
AAXX 21121 33377 /1341 83602 10024 20019 39860 40054 58010 76165 8772/ 333 87708 555 60021
AAXX 21121 33415 /1396 82905 11007 21029 39711 40118 58001 71072 8772/ 333 86709 555 69901
AAXX 21121 33429 /1396 83305 11006 21015 39679 40110 52004 71042 886// 333 88707 555 69901
AAXX 21121 33466 /1357 83103 10012 20001 39881 40070 58006 77172 8872/ 333 86710 555 69901
AAXX 21121 33526 /1660 53103 10029 21044 39774 40117 58006 70282 82530 555 69901
AAXX 21121 33562 /1397 83204 11009 21028 39727 40095 54000 70272 8665/ 333 86708 555 69901
AAXX 21121 33614 /1394 82902 10035 20033 39939 40043 57010 76164 8872/ 333 88707 555 60061
AAXX 21121 33761 /1340 83104 10004 21005 39843 40069 58003 77187 8872/ 555 60011
AAXX 21121 33902 NIL
AAXX 21121 33983 /1597 81911 10102 20077 30039 40099 58010 70282 8553/ 333 85628 555 60061
AAXX 21121 34415 NIL
AAXX 21121 34523 NIL
AAXX 21121 34712 /1430 81003 10032 20029 30016 40102 57002 76364 8772/ 555 60031
BBXX 44139 21121 99442 70571 46/// /3010 10011 40233 5//// 22200 00061 11008 70041 333 91213
BBXX 4XFX 21124 99491 11518 41/96 /3433 00/// 11020 21/// 40170 52060 770// 8//// 22254 04/// 20210 3//// 4//// 5//// 64000 81/// ICE /////
BBXX A8NO6 21123 99359 11736 41/97 81828 10160 20135 40060 57020 75855 8//// 22225 04215 20809 329// 41009 5//// 80145
BBXX DQXQ 21124 99356 11765 41/// 81544 10138 20117 40080 57025 70062 88/// 22224 00150 2//// 313// 41010 80126
BBXX LAIG7 21124 99349 11696 41/// /3321 10150 20120 40110 51010 7//22 8//// 22233 00198 20503 334// 40704 5//// 6//// 80130 ICE /////
BBXX 46035 21121 99571 71778 46/// /2906 1//// 49974 53011 91150 22200 11105 20402 300// 41104 70024 333 91208 555 11062 22066 31118 42809 61149 288062 287067 280071 284069 286073 284069 82808 91102
BBXX 9VVN 21124 99543 71739 41897 42810 10020 21030 40050 51015 70211 844// 22224 04040 2//// 3//// 4//// 5//// 6//// 80000
BBXX A8JX8 21121 99476 71710 41598 52911 10035 21001 40080 51010 7//22 8358/ 22224 20506 322// 40506 5//// 80020
BBXX A8SI3 21123 99438 71514 43/98 2//// 10060 20020 40170 54000 22264 00030 80040
BBXX DGHJ 21123 99300 71625 41/98 32412 10220 20181 40225 56010 70200 83/// 22263 00220 2//// 3//// 4//// 5//// 80194
BBXX NWS0003 21124 99539 71665 43/// /3300 10002 21050 40017 5//// 7//// 8//// 222// 0//// 2//// 3//// 4//// 5//// 6//// 8//// ICE /////
BBXX VRCI9 21124 99383 71701 41/98 /3020 10140 20064 40120 52030 70211 8//// 22234 00160 2//// 3//// 4//// 80100
BBXX WNGW 21124 99588 71521 41798 12339 10039 2//// 40000 57030 7//// 80/6/ 22253 02044 2//// 323// 40507 5//// 6//// 8//// ICE /////
AAXX 21121 01199 16/// /1702 11066 21076 39599 40077 52009 6//// 333 91104
AAXX 21121 01441 16/// /0000 11163 21192 39116 40173 51014 60001 333 91102
BBXX VEP717 21124 99467 70487 41698 82840 11010 2108/ 40089 52036 71682 885// 22200 06025 20606 324// 40707 81032
AAXX 21124 65306 32960 53604 10330 20019 39786 40113 80002 333 0//00 59003 85076
AAXX 21124 65319 32958 53604 10340 20076 39604 40110 80002 333 0//00 58004 85076
AAXX 21124 65330 31920 50404 10326 20047 39672 40105 70522 80002 333 0//00 59002 85076
AAXX 21124 65335 31960 51404 10340 20165 39883 40103 70244 80002 333 0//00 59008 85076
AAXX 21124 65344 32458 72208 10310 20237 30098 40109 83832 333 0//00 59001 81612 83813 85076 94917 95837
AAXX 21124 06610 01463 82304 10019 20006 39628 40227 57/// 69961 76176 8272/ 333 55300 20396 60005 82714 86550 91113 91208
AAXX 21124 89002 42799 42514 11026 21052 39706 49760 57009 83501 333 11025 21120
AAXX 21124 06670 01357 81904 10015 21001 39693 40218 57/// 69951 76872 8752/ 333 55300 20299 69915 82709 84713 87626 91116 91208
AAXX 21124 06700 01259 82502 10025 20007 39726 40232 57/// 60011 71072 885// 333 55300 20522 60005 81705 83625 87650 91107 91204
AAXX 21124 06680 01/01 92525 11116 21126 37444 47963 58/// 60101 77174 333 55300 20403 69925 91142 91225
AAXX 21124 06990 31456 81201 10013 20013 39656 40219 58/// 71072 886// 333 55300 20414 88712 91106 91203
AAXX 21124 06760 32982 70804 10094 21071 39707 40153 57/// 8701/ 333 55303 20814 87465 91114 91207
AAXX 21124 06720 02060 8//// 10012 20004 39643 40236 58/// 69931 8802/ 333 55300 20328 69915 88501
AAXX 21124 65351 32958 70806 10313 20111 3//// 4//// 80002 333 5//// 87076
AAXX 21124 65355 32960 70404 10320 20044 39601 40111 80002 333 59002 87073
AAXX 21124 65357 32960 70802 10328 20000 39731 40119 80002 333 59002 87076
AAXX 21124 65380 32458 72202 10325 20230 3//// 4//// 84202 333 5//// 84816 87076
BBXX 41053 21121 99185 70661 46/// /0709 10262 40180 53019 91200 22200 00271 11306 70028 333 91212
BBXX 41053 21121 99185 70661 46/// /0709 10261 40179 91150 333 91211
BBXX 41053 21121 99185 70661 46/// /0709 10261 40177 91140 333 91211
BBXX MINUK05 2112/ 99603 70043 46/// ///// 10065 40024 57041
BBXX MINUK01 2112/ 99571 70021 46/// ///// 10060 40112 57015
AAXX 21124 78615 32982 00000 10174 20171 30004 40146 53006 333 10314 20174 30/// 58004
AAXX 21124 78627 32982 00000 10080 20072 38153 55000 333 10266 20080 30/// 59005
AAXX 21124 78637 32982 00000 10200 20200 30115 40131 53011 333 10276 20200 30/// 59008
AAXX 21124 78641 11450 73610 10154 20147 38534 40123 53004 69901 71054 87500 333 10258 20152 30/// 56800 59001 87612
AAXX 21124 78647 32582 70000 10218 20212 30114 40121 53009 82550 333 10320 20210 30/// 56290 59005 82624 85358
AAXX 21121 33301 /1296 82903 11005 21011 39827 40114 51001 77172 8772/ 333 87706 555 69901
AAXX 21124 41259 36/// /2612 10027 20005 37106 40271 333 0E/// 59005
AAXX 21121 34415 /1559 81802 10072 20056 39984 40079 58011 71065 889// 555 69911
BBXX VCXF 21124 99464 70484 41698 62838 11002 2105/ 40084 52044 70122 86500 22200 02024 20807 326// 40905 81020
AAXX 21121 48852 01497 80000 10188 20185 30158 40168 52017 60084 76166 888// 333 01019 10198 58006 60012 7007 7 86894 88697 96160
AAXX 21121 48855 01597 80000 10207 20200 30154 40162 53020 60034 76062 888// 333 01021 10230 58008 60022 7002 5 84895 88697 96160
AAXX 21121 48848 32597 83202 10193 20154 30164 40172 52017 888// 333 00019 10202 58003 70000 82895 88697
BBXX VCXF 21124 99464 70484 41698 62838 11002 2105/ 40084 52044 70122 86500 22200 02024 20807 326// 40905 81020
AAXX 21124 78615 32982 00000 10174 20171 30004 40146 53006 333 10314 20174 30/// 58004
AAXX 21124 78627 32982 00000 10080 20072 38153 55000 333 10266 20080 30/// 59005
AAXX 21124 78637 32982 00000 10200 20200 30115 40131 53011 333 10276 20200 30/// 59008
AAXX 21124 78641 11450 73610 10154 20147 38534 40123 53004 69901 71054 87500 333 10258 20152 30/// 56800 59001 87612
AAXX 21124 78647 32582 70000 10218 20212 30114 40121 53009 82550 333 10320 20210 30/// 56290 59005 82624 85358
AAXX 21124 71878 11566 83218 11028 21046 39132 40220 51049 60011 77122 885// 333 10040 21046 48013 70012 90963 93101
AAXX 21124 71015 16/// ///// 11042 60001 333 10045 21044 70000
AAXX 21124 71017 16/// /2711 11312 21344 30089 40104 52003 60001 333 11289 21333 70000
AAXX 21124 71018 16/// ///06 11283 21311 39956 40046 57002 60001 333 11231 21319 70000
AAXX 21124 71019 46/// /1505 11112 21148 39865 40179 56008 6///1 333 11040 21170 7////
AAXX 21124 71021 46/// /0000 11199 21221 39826 40195 50011 6///1 333 11154 4/004 7////
AAXX 21124 71148 16/// /3507 11035 21043 39497 40078 53020 60001 333 10017 21047 4/002 70000
AAXX 21124 71260 13/// ///// 11059 21059 39829 40067 56012 60001 333 11002 21073 70000
AAXX 21124 71212 16/// /1802 11115 21132 39317 40152 56005 60001 333 11092 21225 4/018 70000
AAXX 21124 71243 16/// /3209 11010 21087 39109 40198 53036 60001 333 10071 21046 70000
AAXX 21124 71246 16/// /2806 11047 21073 39525 40199 51012 60001 333 10028 21047 70000
AAXX 21124 71361 16/// /2101 11186 21207 39958 40173 55002 60001 333 11097 21193 70000
AAXX 21124 71362 16/// /2703 11216 21241 39915 40182 50012 60001 333 11041 21219 70000
AAXX 21124 71365 16/// /1503 11171 21185 39942 40161 53014 60001 333 11104 21179 4/018 70000
AAXX 21124 71389 46/// /2801 11107 21125 6///1 333 11045 21173 7////
AAXX 21124 71250 16/// /3011 11029 21056 39975 40113 53044 60001 333 11014 21045 70065
AAXX 21124 71268 12574 80000 11012 21019 39670 40075 56015 60001 885// 333 11020 21020 70000
AAXX 21124 71288 16/// /3211 11321 21354 30107 40133 51013 60001 333 11276 21325 70000
AAXX 21124 71294 16/// /1904 11016 21016 39703 40111 56010 60001 333 11029 70000
AAXX 21124 71668 16/// /0000 11146 21165 30166 40211 56007 60001 333 11005 21154 70000
AAXX 21124 71669 16/// /0504 11043 21063 38568 40207 53044 60001 333 10042 21071 70000
AAXX 21124 71671 16/// /2503 11091 21104 30167 40229 53004 60001 333 10025 21094 70000
AAXX 21124 71920 16/// /2213 10015 21027 30235 40241 58001 60001 333 10067 21057 70007
AAXX 21124 71150 46/// /3205 11094 21103 39397 40083 53020 6///1 333 10016 21111 7////
AAXX 21124 71156 16/// /2804 11050 21079 39122 40234 51021 60001 333 10045 21055 4/018 70000
AAXX 21124 71157 46/// ///// 11030 21030 6///1 333 10053 21034 7////
AAXX 21124 71158 16/// /3505 11075 21089 39798 40076 53037 60001 333 10004 21075 70013
AAXX 21124 71159 16/// /2806 11059 21083 30093 40167 53022 60001 333 11020 21060 70038
AAXX 21124 71160 16/// /1201 11294 21321 39963 40189 52021 60001 333 11173 21306 4/035 70006
AAXX 21124 71162 16/// /0103 11208 21231 39953 40171 51013 60001 333 11112 21208 70000
AAXX 21124 71164 46/// /1103 11201 21223 30030 40114 58018 6///1 333 11213 21243 7////
AAXX 21124 71165 46/// ///00 11276 21305 39888 40187 50008 6///1 333 11157 21320 7////
AAXX 21124 71166 46/// /2409 39537 53010 6///1 333 7////
AAXX 21124 71172 16/// ///// 10001 21010 39860 40078 56017 60001 333 11004 21043 4/001 70000
AAXX 21124 71771 46/// /0702 10033 20025 30290 40311 53001 6///1 333 10082 20028 7////
AAXX 21124 71817 12974 02305 11138 21173 30083 40097 52015 60001 333 42012 70000
AAXX 21124 71431 16/// /0703 10027 20014 39998 40094 57021 60001 333 10016 21016 70000
AAXX 21124 71441 46/// /3507 11033 21048 39754 40062 53026 6///1 333 10036 21034 7////
AAXX 21124 71447 16/// /3208 11029 21041 39541 40086 53022 60001 333 10030 21049 70000
AAXX 21124 71472 16/// /1813 10056 20024 30288 40306 56005 60001 333 10072 20040 70008
AAXX 21124 71510 16/// /3610 11060 21078 39443 40158 53045 60001 333 10054 21081 70000
AAXX 21124 71550 16/// /0212 11034 21058 39713 40090 53025 60001 333 10050 21049 4/001 70000
AAXX 21124 71551 16/// /0108 11067 21078 39492 40156 53044 60001 333 10057 21067 70000
AAXX 21124 71553 16/// /3208 11057 21080 60001 333 10025 21087 70000
AAXX 21124 71577 46/// /3307 11032 21052 6///1 333 10018 21034 7////
AAXX 21124 71585 46/// /2804 11131 21137 39719 40195 51025 6///1 333 21142 4/012 7////
AAXX 21124 71599 17/// /2203 11094 21099 30033 40243 53003 69961 7//4/ 333 10020 21106 4/003 70012 555 10020
AAXX 21124 71402 46/// /2913 11040 21072 30003 40119 51048 6///1 333 11026 21040 7////
AAXX 21124 71407 16/// /2609 11286 21320 39987 40009 51015 60001 333 11292 21323 70000
AAXX 21124 71415 16/// /2108 11094 21126 30216 40219 50006 60001 333 10024 21101 4/001 70000 555 10010
AAXX 21124 71429 16/// /2422 11074 21116 30133 40153 56012 60001 333 11049 21128 70000
AAXX 21124 71449 16/// /3408 11021 21039 39645 40046 53024 60001 333 10017 21058 70000
AAXX 21124 71837 16/// ///// 11032 60001 333 10046 21032 70000
AAXX 21124 71839 16/// ///// 11034 60001 333 10046 21034 70004
AAXX 21124 71849 16/// /3208 11056 21065 39772 40069 53026 60001 333 10016 21074 4/001 70000
AAXX 21124 71885 16/// ///// 11019 60001 333 10064 21025 7////
AAXX 21124 71886 16/// /3210 11078 21095 39494 40105 53025 60001 333 10037 21083 4/007 55/// 20000 70000
AAXX 21124 71450 16/// /3615 11065 21089 39415 40140 51032 60001 333 10054 21065 70000
AAXX 21124 71455 46/// /0209 11045 21055 39340 40143 53038 6///1 333 10048 21045 7////
AAXX 21124 71470 16/// /2601 11318 21351 39523 40186 51012 60001 333 11217 21338 70000
AAXX 21124 71476 16/// /1613 30299 51004 60001 333 70000
AAXX 21124 71480 16/// /1005 11181 21201 39995 40121 56016 60001 333 11187 21229 4/021 70000
AAXX 21124 71484 16/// /1503 10045 20028 30288 40307 50002 60001 333 10083 20045 70000
AAXX 21124 71487 16/// /3609 11014 21024 39241 40109 53021 60001 333 10031 21014 70000
AAXX 21124 71492 46/// ///08 11240 21261 39388 40109 58010 6///1 333 11186 21281 4/012 7////
AAXX 21124 71800 16/// /2917 11034 21056 30105 40138 53040 60001 333 10022 21044 70013
AAXX 21124 71807 16/// /3018 11025 21061 30129 40148 52042 60001 333 10017 21026 70044
AAXX 21124 71087 46/// /0803 11211 21241 39959 40171 53001 6///1 333 11126 21219 7////
AAXX 21124 71631 16/// /1605 10009 20006 39583 40084 56017 60001 333 11009 21027 70000
AAXX 21124 71719 16/// /2108 11092 21136 30171 40177 58004 60001 333 11025 21095 4/001 70000
AAXX 21124 71110 16/// /3009 11047 21073 30098 40159 51040 60001 333 10008 21055 4/007 70058 555 10050
AAXX 21124 71133 46/// /3309 11102 21124 39443 40161 52034 6///1 333 10043 21112 7////
AAXX 21124 71139 17/// /3113 11042 21048 38645 40109 53006 60041 7//4/ 333 10042 21042 70046
AAXX 21124 71141 16/// /3314 11308 21339 30057 40085 51012 60001 333 11278 21313 4/004 70000
AAXX 21124 71149 16/// /0107 11028 21053 60001 333 10044 21029 70000
AAXX 21124 71501 16/// /1005 11273 21305 30065 40067 58019 60001 333 11242 21299 4/053 70004
AAXX 21124 71505 46/// /3608 11011 21072 39395 40132 58032 6///1 333 11055 21177 7////
AAXX 21124 71511 16/// /3207 11085 21099 39494 40140 51033 60001 333 10052 21085 55/// 20000 70000
AAXX 21124 71516 16/// /3111 11003 21017 60001 333 10046 21009 70000
AAXX 21124 71311 16/// /1807 11112 21137 30193 40219 51001 60001 333 10014 21125 4/001 70000
AAXX 21124 71312 16/// /3212 11063 21099 39670 40132 51033 60001 333 10030 21064 70000
AAXX 21124 71314 16/// /1203 10002 21007 39737 40091 56020 60001 333 11019 21037 70000
AAXX 21124 71321 16/// /1016 11124 21147 39851 49894 56019 60001 333 11109 21197 4/010 70000 555 10020
AAXX 21124 71334 46/// /3105 11257 21288 39771 40117 51015 6///1 333 11063 21290 7////
AAXX 21124 71336 46/// ///20 11015 21029 30064 40086 53043 6///1 333 11003 21038 7////
AAXX 21124 71959 16/// ///// 11037 21079 60001 333 10020 21042 4/003 70014 555 10010
AAXX 21124 71970 16/// /2506 11124 21137 39578 40179 51027 60001 333 10052 21126 70000
AAXX 21124 71977 46/// /0000 11297 21297 39332 40077 58020 6///1 333 11192 21313 4/026 7////
AAXX 21124 71978 46/// /1906 11246 21273 39732 40057 58016 6///1 333 11224 4/002 7////
AAXX 21124 71989 16/// /0602 11384 21425 30126 40143 58009 60001 333 11312 21388 4/051 70000
AAXX 21124 71701 12874 20000 11153 21175 30149 40214 57008 60001 82050 333 10003 21153 45997 79999
AAXX 21124 71732 16/// /2004 11018 21035 60001 333 11030 21063 70000
AAXX 21124 71736 46/// ///// 11048 21085 6///1 333 10042 21049 7////
AAXX 21124 71742 46/// /2810 11051 21061 39941 40131 53047 6///1 333 11048 21065 7////
AAXX 21124 71744 16/// /2209 11101 21150 30150 40192 58005 60001 333 11034 21115 70000
AAXX 21124 71747 16/// /2302 11025 21071 39550 40023 53010 60001 333 10035 21025 4/007 70000
AAXX 21124 71148 16/// /3507 11035 21043 39497 40078 53020 60001 333 10017 21047 4/002 70000
AAXX 21124 71260 13/// ///// 11059 21059 39829 40067 56012 60001 333 11002 21073 70000
AAXX 21124 71817 12974 02305 11138 21173 30083 40097 52015 60001 333 42012 70000
AAXX 21124 91753 04486 /1009 10274 20236 30053 40085 58006 60001 700// 333 60007 90710 91115 555 60005
AAXX 21124 91754 06/// /0604 10273 20237 30046 40087 58006 69941 333 10310 55091 2//// 59011 60007 555 60005
AAXX 21124 71631 16/// /1605 10009 20006 39583 40084 56017 60001 333 11009 21027 70000
AAXX 21124 71719 16/// /2108 11092 21136 30171 40177 58004 60001 333 11025 21095 4/001 70000
AAXX 21124 71431 16/// /0703 10027 20014 39998 40094 57021 60001 333 10016 21016 70000
AAXX 21124 71441 46/// /3507 11033 21048 39754 40062 53026 6///1 333 10036 21034 7////
AAXX 21124 71447 16/// /3208 11029 21041 39541 40086 53022 60001 333 10030 21049 70000
AAXX 21124 71472 16/// /1813 10056 20024 30288 40306 56005 60001 333 10072 20040 70008
AAXX 21124 71510 16/// /3610 11060 21078 39443 40158 53045 60001 333 10054 21081 70000
AAXX 21124 71878 11566 83218 11028 21046 39132 40220 51049 60011 77122 885// 333 10040 21046 48013 70012 90963 93101
AAXX 21124 71800 16/// /2917 11034 21056 30105 40138 53040 60001 333 10022 21044 70013
AAXX 21124 71807 16/// /3018 11025 21061 30129 40148 52042 60001 333 10017 21026 70044
BBXX SLKU 21123 99186 11346 41/98 /0728 10260 40120 51020 70022 8//// 22274 00291 20907
BBXX SHJC 21121 99149 11131 43/98 60411 10254 40124 53017 22254 01256 2//// 4////
BBXX SMGW 21121 99349 11697 43/98 83314 10157 40111 50007 22224 00215 2//// 4////
BBXX SBHI 21123 99613 10172 43/99 52309 10123 40100 53007 22273 06034
AAXX 21121 37279 42598 70000 10176 20092 30004 40142 57020 87500
AAXX 21121 37308 42799 80000 10071 21007 39547 40197 57015 8451/
AAXX 21121 37531 42998 40000 10044 21007 39486 40218 58019 80051
AAXX 21121 37553 42998 30000 10068 20001 39538 40185 57018 80030 555 10009
AAXX 21121 37651 16/// ///00 10077 20005 3//// 4//// 5//// 60001
AAXX 21121 37492 NIL
BBXX SFIR 21124 99449 70423 43/96 72850 10071 40080 52033 22223 00160 20807 4//05
BBXX SJCD 21121 99503 71329 43/98 31810 10070 40312 58020 22273 00082
BBXX 44150 21121 99425 70640 46/// /2504 10018 40256 52010 22200 00102 10904 70018 333 91206
BBXX 44150 21121 99425 70640 46/// /2504 10018 40256 52010 22200 00102 10904 70018 333 91206
AAXX 21121 48840 32498 80701 10200 20162 30168 40174 52018 888// 333 00020 10231 58009 70000 83894 88696
AAXX 21121 48845 32498 80000 10195 20174 30172 40179 52014 888// 333 01019 10215 58000 70000 82894 88697
AAXX 21121 48918 02498 70505 10260 20231 30091 40102 53016 69924 83208 222// 00265 2//02 333 00026 10276 58008 69912 70002 82894 87299
AAXX 21121 48914 32698 70501 10276 20238 30093 40095 52014 875// 333 01027 10294 58000 70000 87696
AAXX 21121 48917 12598 60501 10285 20225 30091 40097 52009 69974 81208 222// 00285 2//00 333 00027 10314 58004 70007 82895 86299
AAXX 21121 48900 32497 72105 10262 20257 30084 40094 52023 878// 333 10324 58007 70000 84894 88696 555 20224
AAXX 21124 68398 36/// /3605 10313 20171 39332 48510 57016 333 10315 20176 91011 555 91010
AAXX 21121 38141 42998 21205 11120 21192 30227 40400 57022 80001 555 1/110
AAXX 21121 38262 42998 50903 11065 21131 30341 40430 53003 80002 555 14105
AAXX 21121 38149 42998 20903 11045 21111 30314 40395 57015 80002 555 14106
AAXX 21121 48919 12598 70509 10272 20245 30071 40093 53015 69914 83208 22200 02274 2//04 333 10281 58014 70001 83895 87299
AAXX 21121 48916 12998 70502 10272 20228 30045 40092 53010 69964 80008 333 00/// 10298 58002 70006 87299
AAXX 21124 04211 45/84 /0809 11099 21181 39816 49978 57008
AAXX 21124 04220 05984 10907 11144 21211 39903 49957 57010 6///1 333 55300 20004 6///7 81/74
AAXX 21124 04221 45/84 /0919 11139 21295 39924 49963 57004 333 91130
AAXX 21124 04231 45984 10504 11230 21297 39892 49971 57007 333 81/70
AAXX 21124 04234 45/84 /0904 11128 21208 39935 49945 57002
AAXX 21124 04241 45984 30809 11112 21179 39908 49949 52003 333 83/67
AAXX 21124 04250 05984 50610 11091 21161 39839 49947 52014 6///1 333 55300 20000 6///7 85/69
AAXX 21124 04254 45981 10709 11103 21195 39834 49951 52005 333 81/69
AAXX 21124 04260 456// 71404 11079 21193 39898 49942 52010 333 87/36
AAXX 21124 04270 45984 30703 11136 21215 39908 49948 52012 333 83/68
AAXX 21124 04272 05984 3//// 11090 21145 39869 49943 52011 6///1 333 6///7 83/70
AAXX 21124 04312 46/// ///// 11212 21240 30070 40113 54000
AAXX 21124 04320 NIL
AAXX 21124 04339 45/84 ///// 11100 21155 39811 49903 57006 333 55300 20000
AAXX 21124 04360 06/// /3307 11087 21159 39836 49908 57007 6///1 333 55300 20000 6///7
AAXX 21124 04361 466// 33407 11093 21173 39856 49910 57007 333 82/49 83/62 91116
AAXX 21124 04390 05984 72706 11063 21146 39828 49922 52008 60101 333 60057 83/60 87/62
AAXX 21121 50136 11970 02702 11249 21304 39672 40269 52009 69901 70070
AAXX 21121 50745 32965 83202 11131 21216 30019 40217 52019 8802/
AAXX 21121 50774 11658 83201 11136 21149 39854 40186 52004 69931 77070 885//
AAXX 21121 50788 32970 61103 11150 21175 30085 40177 57002 80002
AAXX 21121 51133 NIL
AAXX 21121 51431 NIL
AAXX 21121 51747 NIL
AAXX 21121 52203 NIL
AAXX 21121 52418 NIL
AAXX 21121 52681 NIL
AAXX 21121 53564 NIL
AAXX 21121 53614 31956 52001 11079 21119 39054 40442 52015 71000 80002 333 00453
AAXX 21121 53646 32970 02901 11083 21153 38983 40429 52011 333 00553
AAXX 21121 53798 NIL
AAXX 21121 53845 NIL
AAXX 21121 53959 NIL
AAXX 21121 54094 31958 71801 11106 21154 39881 40204 52011 70400 80002
AAXX 21121 54102 32980 02702 11198 21234 39095 40405 52007
AAXX 21121 54161 32960 02704 11116 21225 39923 40236 52008
AAXX 21121 54292 32962 72501 11094 21159 39868 40210 52008 86032
AAXX 21121 54374 32662 73204 11074 21168 39757 40252 52024 87900
AAXX 21121 54423 NIL
AAXX 21121 54618 NIL
AAXX 21121 54843 32960 02702 11013 21070 30290 40319 52022
AAXX 21121 54909 31957 72502 11003 21022 30255 40322 52020 71000 8703/
AAXX 21121 56029 32980 02503 10006 21256 36401 52017 333 05104
AAXX 21121 57127 32960 70901 10073 20026 39691 40312 52022 8703/
AAXX 21121 57131 32965 01602 10015 21016 39866 40380 52020
AAXX 21121 40706 11408 83602 11012 21025 38717 40318 56011 69911 74454 886XX 333 88715
AAXX 21121 40718 11557 70000 10104 20083 30222 40194 57019 60001 71022 84570 222// 00108 20102 333 84630 87360
AAXX 21121 40732 11540 11104 10112 20074 30211 40187 56017 60001 70521 81100 333 81830
AAXX 21121 40745 12965 01003 10030 21219 39124 40333 56013 60001 333
AAXX 21121 40754 11956 12304 10088 21083 38882 40254 57015 60001 70500 80001 333 81070
AAXX 21121 40766 12960 30000 10150 21048 38745 40247 57022 60001 80001 333 83070
AAXX 21121 40800 11950 00000 10098 21051 38499 40251 56019 60001 70500 333
AAXX 21121 40811 11956 02502 10232 20075 30183 40210 56014 60001 70500 333
AAXX 21121 40841 12965 00000 10098 21102 38297 40269 57016 60001 333
AAXX 21121 40848 12965 00000 10140 21114 38562 40227 57021 60001 333
AAXX 21121 40856 12962 03503 10091 21322 38689 40285 55011 60001 333
AAXX 21121 40875 12960 00704 10250 21221 30187 40199 57020 60001 333
AAXX 21121 40706 11408 83602 11012 21025 38717 40318 56011 69911 74454 886XX 333 88715
AAXX 21121 40718 11557 70000 10104 20083 30222 40194 57019 60001 71022 84570 222// 00108 20102 333 84630 87360
AAXX 21121 40732 11540 11104 10112 20074 30211 40187 56017 60001 70521 81100 333 81830
AAXX 21121 40745 12965 01003 10030 21219 39124 40333 56013 60001 333
AAXX 21121 40754 11956 12304 10088 21083 38882 40254 57015 60001 70500 80001 333 81070
AAXX 21121 40766 12960 30000 10150 21048 38745 40247 57022 60001 80001 333 83070
AAXX 21121 40800 11950 00000 10098 21051 38499 40251 56019 60001 70500 333
AAXX 21121 40811 11956 02502 10232 20075 30183 40210 56014 60001 70500 333
AAXX 21121 40841 12965 00000 10098 21102 38297 40269 57016 60001 333
AAXX 21121 40848 12965 00000 10140 21114 38562 40227 57021 60001 333
AAXX 21121 40856 12962 03503 10091 21322 38689 40285 55011 60001 333
AAXX 21121 40875 12960 00704 10250 21221 30187 40199 57020 60001 333
AAXX 21124 41529 NIL
AAXX 21124 41598 12997 00000 10180 20058 39890 40162 60002 333 10208 58014
AAXX 21124 41620 31996 02305 10100 21196 38595 48497 70500 333 10115 58016
AAXX 21124 41624 02997 03104 10180 21005 39975 40176 60002 333 10185 58025 60007
AAXX 21124 41640 01995 00000 10165 20099 39921 40172 60002 70400 333 10178 58023 60007
AAXX 21124 41660 11993 03112 10060 21062 38459 48550 60002 70600 333 10070 58003
AAXX 21124 41675 11996 00000 10175 20021 30035 40179 60002 70500 333 10192 58031
AAXX 21124 41712 11/92 90504 10070 21218 39264 48545 60002 70600 333 10075 58003
AAXX 21124 41715 01996 00902 10200 20061 30119 40185 60002 70500 333 10205 58037 60007
AAXX 21124 41756 01994 03610 10205 20146 30115 40179 60002 70600 333 10210 58010 60007
AAXX 21124 41764 31995 23610 10205 20068 30109 40159 70400 80001 333 10210 56009 58025 60007 82070
AAXX 21124 41768 01995 03606 10230 20079 30141 40148 60002 70400 333 10254 58016 60007
AAXX 21124 41780 02996 20508 10230 21045 30135 40162 60002 80001 333 10252 56009 58016 60007
BBXX 44255 21121 99473 70573 46/// /2810 11020 40173 52035 22200 00036 10805 70024 333 91212
AAXX 21124 84673 21220 80000 10114 20112 37360 76366 8563/ 333 20100 5699/ 58003 60184 81605 84840 88359
AAXX 21124 84658 31562 83402 10250 20236 39853 40080 702// 885// 333 20230 560// 59008 84630 84656
AAXX 21124 84401 31660 81503 10213 20154 30074 40119 70200 8853/ 333 20201 5600/ 59007 85640 83359
AAXX 21124 84691 31950 60303 10197 20181 30104 40111 71042 8602/ 333 20150 5600/ 59010 86460
AAXX 21124 84515 21460 80000 10234 20228 39936 40114 70222 8272/ 333 20220 5690/ 59012 69914 82712 88458
AAXX 21124 84782 31965 09902 10174 20147 39627 40137 70200 333 20131 58005
AAXX 21124 84720 31960 50000 10202 20132 39497 40164 701// 80001 333 20164 56009 58003 85070
AAXX 21124 84628 34960 71709 10188 20168 30085 40101 70244 8703/ 333 20187 5601/ 59024 87363
AAXX 21124 84452 31460 81906 10180 20166 30080 40112 70222 8351/ 333 20180 5649/ 59021 83620 85460
AAXX 21124 84735 31360 8//// 10056 20033 36459 702// 82150 333 21030 56990 58008 60094 82810 86656
AAXX 21124 84686 31660 70000 10113 20056 36883 70222 875// 333 20093 56900 59003 82640 85656
AAXX 21124 84752 32760 70000 10140 20003 37523 70320 8753/ 333 20103 5699/ 59001 82656 85363
AAXX 21124 84377 21320 81403 10233 20229 30003 40109 76122 85720 333 20230 56790 59002 60244 85708 88457
AAXX 21124 84425 21230 80000 10230 20224 39930 40149 710// 866// 333 20/// 568// 59003 60114 86705 88656
AAXX 21124 84370 31660 80000 10239 20226 30065 40098 702// 885// 333 20203 56000 59018 88640
AAXX 21124 84564 31556 10604 10164 20154 38164 703// 8652/ 333 5611/ 58/// 82705 84628 83462
AAXX 21124 84501 21150 81303 10175 20154 30083 40110 71022 886// 333 20160 56000 59021 60024 83703 87710
AAXX 21124 84472 21660 43501 10110 20098 37403 7012/ 84500 333 20100 56900 59004 69024 84643
AAXX 21124 85223 11456 72804 10148 20108 37530 47159 52017 69914 70421 84831 333 20133 30/// 55090 56000 58027 70001 81610 83825 87357
AAXX 21124 85283 12484 60000 10140 20112 37208 47133 52004 69984 81511 333 20110 30010 55070 56100 59006 70008 81612 85457
AAXX 21124 85293 12484 60000 10095 20054 36380 52007 60094 83509 333 20035 32/// 56000 58000 83620 83170
AAXX 21124 85312 31970 00000 10230 20189 38770 52020 70422 333 20175 30/// 55075 59012
AAXX 21124 85345 32984 00000 10290 20204 39600 40052 52008 333 20184 30/// 59015
AAXX 21124 85364 12970 30000 10164 20131 38151 48211 52007 60014 80001 333 20120 30/// 55082 56000 59011 70013 83070
AAXX 21124 85365 32984 03605 10271 20213 39336 40040 52010 333 20190 30/// 59012
AAXX 21124 85394 32984 03604 10241 20213 39642 40074 52005 333 20190 30/// 59020
BBXX 44255 21121 99473 70573 46/// /2810 11020 40173 52035 22200 00036 10805 70024 333 91212
AAXX 21124 41859 NIL
AAXX 21124 41883 NIL
AAXX 21124 41891 NIL
AAXX 21124 41907 NIL
AAXX 21124 41923 31/09 92702 10147 20130 30121 40131 74344 89/// 333 10182 56999 58005 70000
AAXX 21124 41936 31910 00000 10128 20110 40141 70500 333 10154 58010 70000
AAXX 21124 41943 31420 83602 10147 20140 30132 40139 70542 8662/ 333 10169 56990 58000 70000 83710 84615 88458
AAXX 21124 41950 31940 00000 10152 20130 30126 40129 70500 333 10214 58004 70000
AAXX 21124 41978 31931 03207 10192 20160 30112 40118 70500 333 10210 59001 70000
AAXX 21124 41992 31930 00000 10195 20170 30110 40112 70500 333 10235 59002 70000
AAXX 21121 56778 32968 02204 10120 21015 38111 52017 333 00102
AAXX 21121 57265 32960 80201 10066 20019 30203 40318 52022 8807/
AAXX 21121 58238 31930 01801 10046 20020 30248 40294 52014 71000
AAXX 21121 58251 31930 03602 10040 20009 30279 40284 52012 71000
AAXX 21121 59287 32662 63603 10153 20115 30109 40195 52019 82540
AAXX 21121 51076 32980 00000 11214 21246 39533 40533 54000 333 05603
AAXX 21121 51243 32965 03201 11187 21209 39899 40518 52001 333 05651
AAXX 21121 51463 11765 71102 11172 21197 39296 40516 52008 69901 77070 86502 333 05554
AAXX 21121 51573 32980 03401 11039 21138 30401 40448 52008 333 00151
AAXX 21121 51709 11865 71602 11047 21078 38859 40423 52003 69901 72270 84502 333 05100
AAXX 21121 54401 32970 03206 11064 21184 39449 40366 52008
AAXX 21121 52533 32980 12701 11104 21233 38650 40479 52009 80002 333 05100
AAXX 21121 52652 32965 73202 11078 21155 38659 40471 52009 80002 333 05104
AAXX 21121 52983 32965 02201 11086 21138 38196 52015 333 00556
AAXX 21121 53915 32980 13402 11042 21152 38787 40410 52022 80002 333 00754
AAXX 21121 56080 32975 73602 11097 21173 37168 52024 80002 333 00457
AAXX 21121 56096 32770 62901 10045 21104 39049 40320 52033 86500 333 00753
AAXX 21124 47407 12/70 23103 11157 21175 30044 40232 51002 60002 82200 333 11055
AAXX 21124 47409 12/70 12002 11056 21107 30160 40216 57003 60002 81500 333 11021
AAXX 21124 47418 12/70 20209 11074 21119 30172 40224 57002 60002 82100 333 11004
AAXX 21124 47421 17/70 /1904 11031 21067 30160 40205 58005 69952 72470 333 11005
AAXX 21124 47430 12/70 20403 11044 21076 30150 40207 58006 60002 82230 333 10002
AAXX 21124 47570 15/67 /1303 11004 21018 39929 40197 58011 60002 333 10019
AAXX 21124 47575 11/65 21803 11038 21049 30199 40204 58007 69902 70281 82200 333 10020
AAXX 21124 47584 12/65 71303 11012 21042 30017 40214 58002 60002 872// 333 10022
AAXX 21124 47604 11/60 81603 10023 20007 30175 40184 57008 60022 78382 882// 333 10035
AAXX 21124 47605 11/65 82013 10076 20019 30145 40187 58014 60042 70282 8227/ 333 10076
AAXX 21124 47610 12/60 22501 10000 21016 39675 40193 58005 60002 82500 333 10060
AAXX 21124 47624 12/65 73205 10018 21031 30060 40203 58007 60002 81501 333 10076
AAXX 21124 47629 12/80 73602 10029 21002 30150 40190 58015 60002 81532 333 10080
AAXX 21124 47636 12/60 70602 10073 20010 30134 40203 58010 60002 81532 333 10108
AAXX 21124 47651 12/70 72403 10077 20013 30184 40207 58005 60002 81102 333 10101
AAXX 21124 47655 15/70 /2909 10076 21001 30139 40197 58004 60002 333 10121
AAXX 21124 47675 15/70 /0702 10050 20034 30096 40190 58006 60002 333 10128
AAXX 21124 47741 11/65 72110 10083 20008 30171 40199 58007 69902 70282 86201 333 10108
AAXX 21124 47746 11/60 71305 10064 20015 30182 40202 58005 69902 70282 82201 333 10102
AAXX 21124 47750 12/65 72207 10060 20039 30177 40205 57006 60002 81102 333 10096
AAXX 21124 47765 12/62 70108 10062 20017 30150 40217 58001 60002 81102 333 10106
AAXX 21124 47772 12960 72704 10098 20007 30109 40210 55002 60002 81031 333 10119
AAXX 21124 47800 15/62 /1903 10091 20031 30215 40220 50001 60002 333 10120
AAXX 21124 47815 12/60 71703 10077 20016 30205 40222 56002 60002 81132 333 10124
AAXX 21124 47817 12/65 80901 10091 20018 30184 40228 51006 60002 8427/ 333 10124
AAXX 21124 47830 11/65 82805 10093 20069 30198 40217 50003 69902 72162 885// 333 10136
AAXX 21124 47887 12970 71304 10072 20009 30174 40216 56008 60002 81032 333 10128
AAXX 21124 47891 11/60 72203 10075 20016 30195 40212 58006 69902 70282 81132 333 10121
AAXX 21124 47895 12970 73004 10089 20013 30200 40208 58007 60002 85072 333 10133
AAXX 21124 47927 12/65 71302 10220 20182 30118 40166 51010 60002 878// 333 10246
AAXX 21121 54342 32965 03205 11061 21194 30215 40281 52017
AAXX 21124 47401 11/65 61904 11049 21066 30185 40200 58001 60022 78582 86200 333 11018
AAXX 21124 47412 12/70 71305 11032 21098 30175 40209 58004 60002 872// 333 11013
AAXX 21124 47420 17/70 /2302 11031 21067 30185 40220 58004 69902 72470 333 11006
AAXX 21124 47426 15/70 /0408 11041 21107 30166 40216 58003 60002 333 10014
AAXX 21124 47582 11/60 71206 10003 21034 30170 40198 58012 69902 70371 8657/ 333 10027
AAXX 21124 47590 11/15 83405 10004 21003 30153 40209 58012 60032 76872 885// 333 10036
AAXX 21124 47600 17/70 /1503 10040 20025 30177 40185 58002 60072 72360 333 10080
AAXX 21124 47648 12/80 72803 10075 20052 30152 40187 58010 69902 878// 333 10097
AAXX 21124 47662 12970 63106 10065 21037 30149 40194 58009 60002 80002 333 10085
AAXX 21124 47678 17/70 /1502 10101 20082 30006 40195 58007 60022 72360 333 10148
AAXX 21124 47740 17/64 /2713 10098 21019 30154 40188 56006 69902 70086 333 10100
AAXX 21124 47778 15/70 /0104 10094 21013 30120 40205 58004 60002 333 10129
AAXX 21124 47807 12/65 71602 10073 20016 30203 40222 50000 60002 82101 333 10122
AAXX 21124 47827 11/65 83302 10097 20064 30179 40218 50004 69902 76122 8807/ 333 10134
AAXX 21124 47843 17/61 /1801 10090 20042 30195 40228 50004 69902 74040 333 10120
AAXX 21124 47893 12/65 72503 10083 20021 30206 40212 58001 60002 81102 333 10137
AAXX 21124 47909 11/65 81704 10156 20140 30174 40184 50005 69952 76162 8227/ 333 10217
AAXX 21124 47918 11/60 82703 10204 20192 30151 40168 51013 60072 72182 8787/ 333 10259
AAXX 21124 47936 11/70 71704 10205 20165 30109 40168 51005 69902 70282 8707/ 333 10234
AAXX 21124 47945 11/65 31308 10212 20164 30144 40168 50002 69902 72511 82230 333 10238
AAXX 21124 47971 12/70 70406 10194 20122 30199 40209 53006 60002 82202 333 10204
AAXX 21124 47991 16/// /0418 10236 20176 30171 40181 50000 69902 333 10249
BBXX 41037 21121 99340 70775 46/// /1905 10201 40210 55000 91200 22200 00189 333 91206
AAXX 21124 41287 36/// /0106 10265 20039 30126 40193 333 0E018 58007
AAXX 21124 41515 02697 80000 10054 21059 38566 48527 60002 8552/ 333 10082 5699/ 58008 60007 85650 83458
AAXX 21124 41560 22696 61803 10040 21037 38251 48483 60002 83430 333 10062 59001 60007
AAXX 21124 41571 11695 22310 10140 20022 39589 40180 60002 70500 82500 333 10165 56900 58010
AAXX 21124 41594 31996 03104 10170 20043 39959 40177 70500 333 10200 58019
AAXX 21124 41685 32997 00000 10135 21037 38928 48509 333 10150 58026
AAXX 21124 41710 01995 03602 10105 21134 39434 40228 60002 70600 333 10111 58002 60007
AAXX 21124 41718 11995 00000 10185 20052 30066 40171 60002 70500 333 10202 58030
AAXX 21124 41739 01994 03606 10080 21176 39095 48534 60002 70540 333 10090 58011 60007
AAXX 21124 41744 32996 03102 10160 21073 38784 48509 333 10170 58010
AAXX 21124 41749 01995 03105 10210 20075 30131 40164 60001 70400 333 10230 58016 60007
AAXX 21124 41515 02697 80000 10054 21059 38566 48527 60002 8552/ 333 10082 5699/ 58008 60007 85650 83458
AAXX 21124 41560 22696 61803 10040 21037 38251 48483 60002 83430 333 10062 59001 60007
AAXX 21124 41571 11695 22310 10140 20022 39589 40180 60002 70500 82500 333 10165 56900 58010
AAXX 21124 41594 31996 03104 10170 20043 39959 40177 70500 333 10200 58019
AAXX 21124 41685 32997 00000 10135 21037 38928 48509 333 10150 58026
AAXX 21124 41710 01995 03602 10105 21134 39434 40228 60002 70600 333 10111 58002 60007
AAXX 21124 41718 11995 00000 10185 20052 30066 40171 60002 70500 333 10202 58030
AAXX 21124 41739 01994 03606 10080 21176 39095 48534 60002 70540 333 10090 58011 60007
AAXX 21124 41744 32996 03102 10160 21073 38784 48509 333 10170 58010
AAXX 21124 41749 01995 03105 10210 20075 30131 40164 60001 70400 333 10230 58016 60007
AAXX 21124 40100 12560 62605 10192 20133 30151 40182 55010 69981 86270 912// 333 86823 92427
AAXX 21124 40101 12858 52008 10168 20070 39102 48517 55012 60001 85050 912// 333 85358
AAXX 21124 40103 32560 70000 10165 20149 40180 57015 87800 333 84824 85640 555 10186
AAXX 21124 40102 NIL
AAXX 21121 56778 32968 02204 10120 21015 38111 52017 333 00102
AAXX 21120 67695 32680 22604 10317 20156 82200 333 82845 555 10231 29038
AAXX 21121 53588 32980 02911 11165 21223 37801 52008 333 91117 91529
AAXX 21121 53772 32970 02704 11019 21168 39406 40377 52018
AAXX 21121 54511 32980 03603 10001 21235 30291 40333 52027
AAXX 21121 53564 32980 00701 11083 21179 39327 40433 52019 333 00600
AAXX 21121 53845 32965 02901 11032 21168 39220 40403 52020 333 00753
AAXX 21121 53959 32965 61403 10017 21140 39909 40370 52020 80002
AAXX 21121 56187 32961 83201 10060 20028 39630 40296 52030 8807/ 333 00551
AAXX 21121 58102 31950 73601 10010 21026 30273 40324 52018 71000 80002
AAXX 21121 58221 31950 43403 10046 21029 30275 40304 52019 70500 84040
AAXX 21121 58847 32670 22901 10143 20097 30124 40227 52029 82540
AAXX 21121 59134 32770 20903 10155 20101 30039 40207 52023 82500
AAXX 21121 59758 32466 70703 10192 20145 30107 40183 52016 878//
AAXX 21124 88963 01325 80000 10008 21007 39912 49942 58008 60024 72272 887// 333 10008 21012 41004 56799 60011 88708 90105 90208 90281 90568 90987 92405 94072 95012 96010
AAXX 21124 88968 01102 81405 11002 21013 39938 49954 57012 69904 74654 886// 333 10012 21022 56599 69901 88702 90012 90091 90112 90941 92411 92732 92840 93000 94076 95096
AAXX 21124 89034 32970 01105 11018 21026 39462 49773 56011 333 11018 21056 92417 92831
AAXX 21124 89053 01220 82704 10024 20014 39921 49934 55003 69954 76062 887// 333 10060 20016 69951 88705 90005 90088 90266 90284 90901 92415 94070 94479 95090 96010 97506 98520
AAXX 21124 89055 01101 83402 11006 21015 39702 49947 57009 69954 77174 8372/ 333 11006 21023 56889 69951 83702 88530 90056 90096 90245 90076 92730 92800 95190 96044
AAXX 21124 89066 31/01 93206 11020 21029 39941 49950 58005 74742 333 10056 21022 90018 92401
AAXX 21121 52418 32970 12702 11079 21172 39033 40470 52008 80002 333 00200
AAXX 21121 52681 32980 22201 11107 21196 38770 40474 52011 80002 333 00253
AAXX 21121 54423 32980 02901 11073 21240 39796 40343 52020
AAXX 21121 57494 32965 80203 10074 21006 30267 40298 52017 8807/
AAXX 21121 58752 31759 73201 10139 20091 30192 40238 52021 70500 875//
AAXX 21123 NIL
AAXX 21121 58362 11560 80204 10081 20039 30269 40277 52014 69901 70060 8217/
AAXX 21121 51133 32980 02702 11160 21197 39766 40489 52014 333 05801
AAXX 21121 51431 11975 42502 11126 21158 39603 40477 52013 69901 70070 80002 333 05651
AAXX 21121 51747 32965 30000 11077 21105 39071 40453 52005 80002 333 00000
AAXX 21121 53798 32960 00000 10003 21130 30240 40342 52028
AAXX 21121 54618 32962 60702 11007 21174 30313 40332 52022 80002
AAXX 21124 61401 NIL
AAXX 21124 61404 31940 11021 10195 21008 39841 40242 70700 80002 333 0//00 58044 81073
AAXX 21124 61415 31940 50711 10216 20078 30198 40203 70622 85030 333 0//00 58021 85363
AAXX 21124 61421 NIL
AAXX 21124 61437 31940 20818 10242 20092 30014 40152 707// 80002 333 0//00 59006 82073
AAXX 21124 61442 31920 31018 10250 21053 30173 40176 70711 83082 333 58018 83363
AAXX 21124 61450 31940 30816 10210 21054 39735 40197 707// 83030 333 0//00 58023 83363
AAXX 21124 61461 31930 30806 10255 21045 30098 40185 7061/ 80002 333 0//00 58041 83073
AAXX 21124 61489 31925 10816 10275 21018 30161 40168 707// 81080 333 0//00 58017 81363
AAXX 21124 61492 31910 61014 10265 21019 30166 40185 70610 86070 333 0//00 58037 86363
AAXX 21124 61497 34940 60816 10220 21037 39922 4//// 707// 86030 333 0//00 58024 86363
AAXX 21124 61498 31930 60408 10240 20040 30023 40156 705// 80002 333 0//00 58013 86073
AAXX 21124 61499 31930 40214 10207 21067 39923 40182 707// 80001 333 0//00 58031 84073
AAXX 21124 61017 32960 50000 10268 20005 39750 40155 80002 333 0//00 58005 85080
AAXX 21124 61024 32960 51216 10273 21052 39581 40146 85032 333 0//00 58001 85364
AAXX 21124 61036 32965 71202 10305 20000 39897 40133 80008 333 0//00 58010 87280
AAXX 21124 61043 32960 70810 10295 21080 39683 40120 80008 333 0//00 59005 87280
AAXX 21124 61045 32965 50402 10270 21040 39635 40131 80002 333 0//00 59005 85080
AAXX 21124 61049 32965 50000 10294 21038 39796 40114 80002 333 0//00 59011 85080
AAXX 21124 61052 32960 50606 10309 21038 39881 40137 80002 333 0//00 58000 85080
AAXX 21124 61075 32960 51002 10300 21017 39814 40120 80002 333 0//00 59005 85080
AAXX 21124 61080 32960 71006 10285 21029 39710 40129 80008 333 0//00 59006 87280
AAXX 21124 61090 32965 50606 10282 21080 39619 40127 80002 333 0//00 59006 85080
AAXX 21124 61091 32965 20804 10300 20080 39688 40141 80001 333 0//00 58003 82080
AAXX 21124 61096 32970 70404 10300 21061 39747 40127 80008 333 0//00 59008 87280
AAXX 21124 61099 32965 70806 10324 21025 39882 40108 80008 333 0//00 59001 87280
AAXX 21124 67323 32580 11207 10295 20176 40093 57024 81100 333 94310
AAXX 21124 67327 32580 12406 10299 20167 40095 57029 81100 333 94310
AAXX 21124 41506 02696 80000 10060 21016 48517 60002 8442/ 333 10083 5699/ 58032 60007 84640 84460
AAXX 21124 41508 22696 52302 10072 21036 48551 60002 83220 333 10082 56990 58014 60007 83835 82460
AAXX 21124 41523 12697 60000 10110 20022 48545 60002 82530 333 10125 56990 58006 60007 82640 84360
AAXX 21124 41535 12697 20000 10090 20035 48492 60002 82500 333 10105 56900 58017 82635
AAXX 21124 41536 12697 53603 10115 20014 48513 60002 82560 333 10140 56990 58003 82640 83361
AAXX 21124 41573 12997 00000 10045 21030 48503 60002 333 10080 58012
AAXX 21124 41600 01995 00000 10185 20101 39866 40162 60002 70400 333 10197 58009 60007
AAXX 21124 41630 11996 03102 10170 20043 40179 60002 70500 333 10195 58023
AAXX 21124 41678 12997 03104 10195 20081 40174 60002 333 10210 58029
AAXX 21124 41696 02997 03102 10050 21098 38015 48530 60002 333 10070 59001 60007
AAXX 21124 41697 02997 00000 10200 20074 30020 40177 60002 333 10225 58034 60007
AAXX 21124 41700 11995 00502 10185 20052 30040 40169 60002 70400 333 10202 58035
AAXX 21124 41725 02996 00506 10200 20061 30091 40170 60002 333 58031 60007
AAXX 21124 41746 02996 03604 10200 20086 30129 40184 60002 333 10230 58041 60007
AAXX 21124 41759 11993 03618 10210 21047 30179 40185 60002 70700 333 10220 58007
AAXX 21124 41785 02997 00504 10220 20077 30137 40150 60002 333 10225 58013 60007
AAXX 21120 44203 329// 10000 11280 21298 38487 40547 57004 80002 333 11250
AAXX 21120 44207 329// 32706 11147 21207 38375 40408 56005 82081 333 11090
AAXX 21120 44212 32999 31602 11310 21340 39328 40636 57019 83040 333 11249
AAXX 21120 44213 32999 50000 11271 21299 38960 40632 57002 85050 333 11239
AAXX 21120 44215 32998 00000 11251 21275 38536 40583 57016 333 11195
AAXX 21120 44218 319// 02201 11245 21277 38759 40591 53007 77600 333 11182
AAXX 21120 44225 329// 70000 11202 21221 38387 40542 57003 87010 333 11193
AAXX 21120 44230 329// 70103 11133 21183 38866 40431 54000 85018 333 11123
AAXX 21120 44232 329// 73105 11079 21149 39179 40352 54003 87070 333 11071 555 99602
AAXX 21120 44237 32999 72302 11092 21160 38569 40379 51001 87010 333 11082
AAXX 21120 44239 329// 63403 11142 21203 38863 40371 58003 86070 333 11124 555 99601 99905
AAXX 21120 44241 329// 60000 11227 21245 39353 40429 56005 86040 333 11208
AAXX 21120 44256 32999 02703 11245 21277 39410 40357 53016 333 11152
AAXX 21120 44265 329// 00000 11240 21272 38981 40543 56003 333 11153
AAXX 21120 44272 329// 00000 11232 21271 38346 40561 52005 333 11176
AAXX 21120 44275 32998 00000 11257 21274 37817 40500 53012 333 11116
AAXX 21120 44282 31999 03204 11090 21210 38375 40396 53010 70230 333 11068 91114
AAXX 21120 44284 32999 00201 11237 21274 37932 40607 53004 333 11140
AAXX 21120 44285 32999 01603 11180 21223 38393 40466 51004 333 11070
AAXX 21120 44287 32999 00202 11180 21233 38203 40522 53005 333 11093
AAXX 21120 44294 329// 00103 11214 21249 38630 40477 52002 333 11171
AAXX 21120 44298 329// 03205 11200 21212 38782 40415 54000 333 11160
AAXX 21120 44302 329// 03202 11228 21279 39155 40388 58001 333 11140
AAXX 21120 44305 32999 03202 11212 21259 39104 40367 51002 333 11132
AAXX 21120 44313 31999 43205 11223 21279 39430 40349 52020 70131 84040 333 11169
AAXX 21120 44314 32998 33204 11216 21256 39188 40384 57001 82041 333 11150
AAXX 21120 44317 32998 03203 11216 21256 38984 40396 52020 333 11142
AAXX 21120 44336 329// 01304 11210 21244 38786 40506 54000 333 11105
AAXX 21120 44341 329// 03104 11178 21217 38685 40463 54000 333 11119
AAXX 21120 44347 32999 00000 11148 21208 38806 40435 55000 333 11096
AAXX 21120 44352 32999 00000 11177 21203 38973 40370 53007 333 11140
AAXX 21120 44358 319// 02707 11164 21190 39176 40414 53015 70230 333 11106
AAXX 21120 44214 32998 03605 11183 21245 38398 40555 57005 333 11132
AAXX 21120 44231 329// 83201 11112 21196 38819 40449 53003 8807/ 333 11082
AAXX 21120 44259 32997 01701 11226 21287 39378 40376 53009 333 11164
AAXX 21120 44277 NIL
AAXX 21120 44288 32999 02702 11123 21203 38236 40441 53003 333 11071
AAXX 21120 44292 32999 03002 11196 21229 38774 40435 55002 333 11160
AAXX 21120 44304 329// 02304 11227 21267 39054 40397 53005 333 11140
AAXX 21120 44354 329// 02910 11170 21212 39192 40398 53006 333 11124 91012
AAXX 21120 44373 31999 03601 11169 21224 38631 40460 54000 70400 333 11095
AAXX 21121 33301 /1296 82903 11005 21011 39827 40114 51001 77172 8772/ 333 87706 555 69901
AAXX 21121 34415 /1559 81802 10072 20056 39984 40079 58011 71065 889// 555 69911
AAXX 21121 08501 32370 4//// 10184 20157 30174 40211 5//// 84800 333 81707
AAXX 21121 08505 32468 61510 10179 20144 30211 40260 51001 82830 333 81813 85357
AAXX 21121 08509 32460 41508 10170 20149 30212 40277 58001 83840 333 81816 83648 91112
AAXX 21121 08512 32475 51407 10177 20134 30203 40288 52001 858// 222// 0//// 333 81818 85645 91111
AAXX 21121 08515 NIL
AAXX 21121 08533 32/// /3606 10158 20122 30286 40315 54000 333 91109
AAXX 21121 08541 32484 13604 10153 20115 30199 40319 52005 81101 333 81817 91107
AAXX 21121 08545 31360 10501 10134 20097 30243 40327 57004 70100 81600 222// 00146 333 81709 91105
AAXX 21121 08548 32/// /3101 10107 20103 30120 40329 54000
AAXX 21121 08554 31970 13003 10178 20103 30297 40307 58007 70200 80001 333 81075 91105
AAXX 21121 08558 31350 63502 10101 20101 30018 40318 50000 71042 86600 333 86708
AAXX 21121 08560 31980 09901 10141 20069 39561 40317 52002 70200
AAXX 21121 08567 31006 60000 10091 20087 39662 40337 52002 74244 84230 333 84700
AAXX 21121 08570 31880 10203 10162 20082 39850 40306 57003 70200 81041 333 81358 91106
AAXX 21121 08575 31/01 99901 10042 20040 39512 40349 52002 74544 333 89/01
AAXX 21121 08579 31570 10201 10170 20111 30193 40318 52002 70200 81801 333 81820 91106
BBXX MINUK03 2112/ 99525 10046 46/// ///// 10075 40207 52027
AAXX 21124 89577 46/// ///10 11291 4//// 5////
AAXX 21121 40703 11515 82103 11004 21027 38981 40295 57020 69901 71072 886// 333 88720
AAXX 21121 40712 11507 80000 11012 21019 38741 40301 57014 69901 74442 8262/ 333 82725 83630 88458
AAXX 21121 40729 12566 42803 10114 21077 38370 40229 56014 60001 81402 333 81630 84069
AAXX 21121 40736 11558 49901 10100 20066 30224 40199 57013 60001 70521 84600 333 84725
AAXX 21121 40739 12965 52203 10046 21089 38739 40282 56014 60001 80008 333 85270
AAXX 21121 40743 12975 21602 10108 21276 39131 40278 56017 60001 80002 333 82070
AAXX 21121 40762 12965 11803 10054 21252 38613 40311 56012 60001 80001 333 81070
AAXX 21121 40768 12960 00000 10111 21044 38297 40254 55014 60001 333
AAXX 21121 40769 11956 00000 10094 21048 38343 40250 56013 60001 70500 333
AAXX 21121 40785 12960 20000 10106 21054 39148 40268 56019 60001 80002 333 82070
AAXX 21121 40809 12962 12804 10116 21323 38545 40276 56015 60001 80001 333
AAXX 21121 40821 12960 21302 10134 21127 38838 40251 57019 60001 333
AAXX 21121 40831 12960 12403 10220 20017 30210 40218 57016 60001 80001 333 81070
AAXX 21121 40703 11515 82103 11004 21027 38981 40295 57020 69901 71072 886// 333 88720
AAXX 21121 40712 11507 80000 11012 21019 38741 40301 57014 69901 74442 8262/ 333 82725 83630 88458
AAXX 21121 40729 12566 42803 10114 21077 38370 40229 56014 60001 81402 333 81630 84069
AAXX 21121 40736 11558 49901 10100 20066 30224 40199 57013 60001 70521 84600 333 84725
AAXX 21121 40739 12965 52203 10046 21089 38739 40282 56014 60001 80008 333 85270
AAXX 21121 40743 12975 21602 10108 21276 39131 40278 56017 60001 80002 333 82070
AAXX 21121 40762 12965 11803 10054 21252 38613 40311 56012 60001 80001 333 81070
AAXX 21121 40768 12960 00000 10111 21044 38297 40254 55014 60001 333
AAXX 21121 40769 11956 00000 10094 21048 38343 40250 56013 60001 70500 333
AAXX 21121 40785 12960 20000 10106 21054 39148 40268 56019 60001 80002 333 82070
AAXX 21121 40809 12962 12804 10116 21323 38545 40276 56015 60001 80001 333
AAXX 21121 40821 12960 21302 10134 21127 38838 40251 57019 60001 333
AAXX 21121 40831 12960 12403 10220 20017 30210 40218 57016 60001 80001 333 81070
BBXX V7QN8 21123 99311 11226 41296 30010 10090 2007/ 40260 54/// 70322 83490 22200 04100 20601 300// 40601 5//// 6//// 80080 ICE /////
AAXX 21124 48459 32560 20000 10285 20205 30100 40103 52013 81131 333 10323 58001
AAXX 21124 83437 NIL
AAXX 21124 83550 21597 7//// 10268 20216 30098 40127 70215 82240 333 20231 59018 60014
AAXX 21124 83552 NIL
AAXX 21124 83565 NIL
AAXX 21124 83579 NIL
AAXX 21124 83592 NIL
AAXX 21124 83623 NIL
AAXX 21124 83630 NIL
AAXX 21124 83676 NIL
AAXX 21124 83698 32999 00000 10300 20224 30108 40122 51010 333 20224
AAXX 21124 83702 NIL
AAXX 21124 83704 NIL
AAXX 21124 83716 NIL
AAXX 21124 83726 NIL
AAXX 21124 83738 32698 10000 10254 20188 39630 40122 54000 81100 333 20180
AAXX 21124 NIL
AAXX 21124 NIL
AAXX 21124 NIL
AAXX 21124 82143 NIL
AAXX 21124 82599 21570 61012 10287 20231 30065 40125 70286 85130 333 20245 59016 60044
AAXX 21124 82824 41458 70000 10255 20240 30012 40113 71096 82530 333 20248 59014
AAXX 21124 82899 21570 61008 10280 20230 30119 40131 72161 84230 333 20259 59022 60014
AAXX 21124 83117 NIL
AAXX 21124 83248 32470 31204 10299 20201 30121 40143 83200 333 20254 59021
AAXX 21124 83746 32970 20905 10301 20206 30101 40111 51009 82020 333 20236
AAXX 21124 NIL
AAXX 21124 83384 NIL
AAXX 21124 83386 NIL
AAXX 21124 83388 NIL
AAXX 21124 83393 NIL
AAXX 21124 83442 NIL
AAXX 21124 83479 NIL
AAXX 21124 83483 NIL
AAXX 21124 83531 NIL
AAXX 21124 83538 NIL
AAXX 21124 83574 NIL
AAXX 21124 83582 NIL
AAXX 21124 83595 NIL
AAXX 21124 83687 NIL
AAXX 21124 83692 NIL
AAXX 21124 83695 32697 20000 10274 20212 39998 40133 54000 82200 333 20215
AAXX 21124 83718 31599 10000 10270 20199 39560 40115 52005 70311 81100 333 20185
AAXX 21124 NIL
AAXX 21124 NIL
AAXX 21124 82022 32470 60612 10274 20214 30026 40122 82550 333 20249 59001
AAXX 21124 82193 22470 50506 10285 20242 30102 40120 86800 333 20241 59004 60154
AAXX 21124 82281 32470 60613 10287 20204 30054 40116 882// 333 20270 59006
AAXX 21124 82332 32470 61802 10274 20247 30022 40115 81504 333 20240 59002
AAXX 21124 82398 21470 61014 10268 20233 30065 40122 70360 86200 333 20257 59012 60014
AAXX 21124 82400 32470 11106 10281 20235 30067 40136 81100 333 20250 59013
AAXX 21124 82579 32570 51403 10302 20236 30040 40116 85200 333 20260 59005
AAXX 21124 82917 21130 73605 1//// 2//// 39899 4//// 76062 86410 333 20000 59001 60024
AAXX 21124 82965 31260 80000 10260 20239 39802 40131 7101/ 83774 333 20228 59002
AAXX 21124 82993 22570 30810 10271 20216 39999 40135 83100 333 20218 59023 69924
AAXX 21124 83208 32370 80206 10226 20218 39440 48530 85530 333 20218 59004
AAXX 21124 83349 32570 60105 10277 20210 30143 40149 84231 333 20217 59019
AAXX 21124 83362 22970 53505 10261 20220 39900 40116 85030 333 20233 59006 69924
AAXX 21124 83378 22570 70000 10213 20180 38976 48530 81539 333 20185 59009 60214
AAXX 21124 83460 32570 20207 10272 20194 30087 40143 82100 333 20213 59019
AAXX 21124 83497 NIL
AAXX 21124 83566 32570 51802 10222 20172 39220 48540 83230 333 20156 59015
AAXX 21124 83599 NIL
AAXX 21124 83612 32970 43412 10285 20188 39488 48540 51018 81131 333 20234
AAXX 21124 83649 32970 50212 10291 20200 30127 40132 51010 80005 333 20241
AAXX 21124 83650 NIL
AAXX 21124 83780 32970 00504 10276 20118 39237 48540 51007 333 20205
AAXX 21124 83827 32970 00907 10270 20158 39837 40109 51021 333 20181
AAXX 21124 83840 32970 00107 10259 20107 39124 48530 51012 333 20140
AAXX 21124 83899 32570 13408 10299 20147 30093 4//// 51011 81100 333 20212
AAXX 21124 83925 NIL
AAXX 21124 83970 NIL
AAXX 21124 83971 32470 43206 10261 20218 30105 40109 52015 84500 333 20230
AAXX 21124 87022 32960 00000 10286 20202 39538 40024 52016 333 10300 20206
AAXX 21124 87046 32965 03206 10268 20159 39062 48467 52016 333 10292 20195
AAXX 21124 87047 32968 00000 10226 20162 08760 48483 51017 333 10261 20157 30///
AAXX 21124 87097 32970 00504 10280 20191 39808 40111 52017 333 10284 20192
AAXX 21124 87121 32965 02908 10308 20174 39518 40004 51012 333 10320 20267
AAXX 21124 87129 32965 00510 10292 20170 39806 40027 52016 333 10342 20242
AAXX 21124 87155 31950 00209 10318 20137 30017 40075 51011 70400 333 10318 20202
AAXX 21124 87162 31957 00210 10321 20132 30013 40079 51010 70400 333 10321 20211
AAXX 21124 87166 31956 00211 10307 20129 30006 40076 51011 70400 333 10307 20237
AAXX 21124 87178 32970 00504 10307 20151 39950 40091 52016 333 10307 20241
AAXX 21124 87217 32970 02306 10300 20167 39518 49978 5//// 333 10367 20267
AAXX 21124 87222 32970 00225 10349 20138 39480 49966 52009 333 10360 20289
AAXX 21124 87257 32965 03615 10332 20155 39942 40039 53016 333 10340 20240
AAXX 21124 87270 NIL
AAXX 21124 87289 31960 41418 10284 20175 30029 40108 52024 70510 84086 333 10325 20220 56023 84360 83270 90005
AAXX 21124 87311 32965 01419 10262 20077 39386 40031 52023 333 10338 20226
AAXX 21124 87320 32970 01406 10312 20153 39501 49996 53007 333 10378 20244 10077 6128/ 64210 65062
AAXX 21124 87328 31980 03208 10353 20092 39382 49990 52009 70400 333 10352 20280 95000
AAXX 21121 26997 41/07 91401 10021 21021 39849 40069 52002 74554
AAXX 21121 27595 42998 81504 11074 21117 30107 40259 57010 80089 333 88300
AAXX 21121 27612 41496 81301 11020 21032 39911 40107 57001 77172 887//
AAXX 21121 27707 41425 81602 10003 20000 39777 40072 58001 71082 886// 333 88716
AAXX 21121 27719 41496 81302 11005 21011 39854 40107 53001 78582 883//
AAXX 21121 27786 41497 81507 11077 21132 30093 40262 57015 73632 8652/ 333 86619
AAXX 21121 27857 42498 81506 11043 21052 30001 40170 57005 886// 333 88713 91112 93401
AAXX 21121 27906 41496 81103 10013 20008 39834 40076 58004 72085 886//
AAXX 21121 27928 41396 81604 10004 20001 39896 40104 58010 76165 886//
AAXX 21121 27947 41396 81405 11020 21032 39992 40155 56003 71022 886// 333 88707 934//
AAXX 21121 27962 41497 81305 11066 21090 39984 40216 57002 70276 885// 333 88613 92980 93400
AAXX 21121 27983 41598 71405 11078 21118 30141 40276 57014 73632 875// 333 87623 91112
AAXX 21121 27995 41998 81405 11073 21116 40296 57014 70232 8807/
AAXX 21121 28506 41997 81905 11043 21138 30190 40307 55005 73632 8807/ 333 91112
AAXX 21121 28704 41998 81809 11071 21109 30196 40296 56016 73632 8807/ 333 91011 91114
AAXX 21121 28711 41998 81807 11076 21154 39946 40341 56008 73632 8805/ 333 91118 91012 91118
AAXX 21121 28807 41697 81609 11064 21140 30264 40318 57015 73633 8257/ 333 91012 91113
AAXX 21121 34009 41/92 91402 10024 20024 39770 40074 58008 74585
AAXX 21121 34110 41/93 91502 10031 20028 39804 40080 57005 75154
AAXX 21121 34123 41306 81204 10006 21002 39928 40113 57004 78042 883// 333 88907 96080
AAXX 21121 34152 41499 71405 11028 21048 39975 40178 58003 70252 875// 333 87617
AAXX 21121 34163 42498 81003 11062 21085 40224 57006 885// 333 88619
AAXX 21121 34171 42470 81506 11062 21098 30029 40231 56009 885// 333 88617
AAXX 21121 34186 41598 81508 11081 21108 30127 40273 57012 885// 333 88625 91012 91117
AAXX 21121 34247 41224 81503 10013 20010 30024 40139 58007 71062 886// 333 88705
AAXX 21121 34336 41412 81202 10023 20023 30023 40127 58011 71062 8672/
AAXX 21121 34391 42997 81406 11064 21096 30242 40274 57009 8807/ 333 91012 91113
AAXX 21121 35011 42999 81207 11094 21170 30223 40386 57011 8807/ 333 91112
AAXX 21121 35121 42998 61203 11114 21168 30274 40432 57007 84031
AAXX 21121 22271 41498 72405 11001 21027 30076 40086 52013 70282 87300
AAXX 21121 22520 42998 82202 11005 21011 30102 40111 52007 8805/
AAXX 21121 22550 42497 82302 11002 21026 30133 40143 51002 886// 333 88710
AAXX 21121 22583 42484 71802 11047 21064 30088 40171 52003 875// 333 87610
AAXX 21121 22768 42397 81801 11043 21059 30108 40165 57010 886// 333 88708
AAXX 21121 22845 41395 80701 11061 21065 39991 40153 57006 71022 886// 333 88706
AAXX 21121 22887 41322 81603 11074 21095 30120 40193 57009 77377 8572/ 333 85707 91106
AAXX 21121 23205 41496 82204 11016 21036 30105 40120 53002 78583 883// 333 85918 91108
AAXX 21121 23219 NIL
AAXX 21121 23418 41460 81805 11074 21100 30135 40211 57003 77173 8672/ 333 86712
AAXX 21121 23606 41460 81904 11084 21103 30041 40221 57007 77172 885// 333 88615
AAXX 21121 23711 41598 81403 11082 21105 30074 40255 57008 30273 885//
AAXX 21121 23804 41497 81602 11078 21096 30062 40216 57009 77172 8572/ 333 85710
AAXX 21121 27037 41396 81203 11065 21081 39973 40140 57010 77372 8872/ 333 86708
AAXX 21121 27199 41598 81703 11074 21095 30029 40235 57010 77173 885//
AAXX 21121 27271 41596 81204 11070 21091 30028 40190 57010 78587 8292/
AAXX 21121 27459 41498 81603 11069 21085 39979 40183 53001 72683 8692/ 333 86916
AAXX 21121 27730 41395 81403 11031 21035 39927 40126 54000 77172 886// 333 88708
AAXX 21121 22028 41598 32412 11025 21038 30017 40055 52016 73631 82501 333 91014 91115
AAXX 21121 22106 42498 82601 11036 21047 39993 40073 52014 886// 333 88712 91001
AAXX 21121 22127 41496 80000 11039 21044 39869 40073 52014 78582 889// 333 86918 91001 93503
AAXX 21121 22324 42582 72404 11003 21009 30048 40098 52010 87900 333 91006
AAXX 21121 22621 41598 82002 11003 21024 39992 40134 52006 70282 885// 333 88629
AAXX 21121 22831 42498 80801 11045 21058 30080 40142 57009 8802/
AAXX 21121 22892 41/93 90000 10004 20004 30113 40129 52007 74542
AAXX 21121 26275 41396 80202 11023 21029 30076 40107 57003 77172 8872/ 333 88708
AAXX 21121 26389 41459 80902 11032 21049 39822 40091 57002 77072 8802/
AAXX 21121 26499 41497 80602 11032 21046 39862 40096 57005 77172 8872/ 333 87710
AAXX 21121 26695 41195 81102 11012 21016 39770 40082 54000 77172 8672/ 333 86703
AAXX 21121 26882 41322 82602 10006 20003 39786 40063 53004 71074 886// 333 88707
AAXX 21124 NIL
AAXX 21121 30372 32999 60000 11336 21366 39367 40357 58010 82041 333 11232
AAXX 21121 30433 32699 13101 11234 21282 39689 40342 57012 81500 333 11169
AAXX 21121 30554 329// 30000 11324 21369 39151 40387 56006 80001 333 11183
AAXX 21121 30635 118// 80000 11145 21151 39711 40317 57012 60012 77172 8802/ 333 11138
AAXX 21121 30673 32999 03003 11294 21311 39452 40311 51002 333 11186
AAXX 21121 30692 11999 42702 11232 21264 39696 40234 52/// 69942 70272 84040 333 11181
AAXX 21121 30758 32984 00000 11263 21327 39448 40363 58003 333 11168
AAXX 21121 30802 32999 32410 11070 21163 38748 48529 57005 82041 333 11051 91115
AAXX 21121 30823 11998 72301 11173 21199 39661 40343 57007 69902 77172 8702/ 333 11142
AAXX 21121 30879 32999 02702 11232 21272 39462 40292 52016 333 11188
AAXX 21121 30935 11999 82903 11134 21169 39353 40340 57011 69962 70372 8807/ 333 11124
AAXX 21121 30949 32999 00000 11236 21276 39179 40380 53004 333 11145
AAXX 21121 30965 329// 23103 11270 21302 39434 40352 51010 80002 333 11181
AAXX 21121 31168 32999 03202 11206 21246 30203 40215 52004 333 11158
AAXX 21121 31300 11978 80303 11189 21215 39870 40179 50000 69992 77173 8802/ 333 11180 91111
AAXX 21121 31329 32999 40000 11300 21323 39495 40241 58004 80001 333 11261
AAXX 21121 31369 32998 03602 11267 21285 30136 40229 52001 333 11219
AAXX 21121 31416 12999 83501 11287 21306 30126 40226 58002 69900 80007 333 11226
AAXX 21121 31484 32999 00000 11260 21278 39860 40232 52003 333 11190
AAXX 21121 31512 119// 83003 11195 21228 30012 40191 52007 60012 77172 8802/ 333 11179
AAXX 21121 31538 32998 70000 11234 21259 39732 40203 57003 8707/ 333 11218
AAXX 21121 31707 32998 80000 11152 21179 30082 40180 58003 8807/ 333 11137
AAXX 21121 31735 32997 70104 11213 21243 30108 40204 54000 80001 333 11126
AAXX 21121 31770 32965 02702 11192 21241 30187 40220 58002 333 11109
AAXX 21121 20107 42497 81302 11071 21084 30015 40112 52002 885// 333 91003
AAXX 21121 22113 41380 82004 11034 21045 30005 40070 52018 78582 889// 333 86708 91007 91110
AAXX 21121 22217 42598 81701 11021 21024 30058 40090 52009 885// 333 88621 91001 93730
AAXX 21121 22235 41377 82702 11016 21018 39886 40083 52010 72682 889// 333 87708 91004
AAXX 21121 22349 41498 72605 10004 21007 30098 40110 52011 70182 86930 333 91006
AAXX 21121 22408 41499 81901 11008 21008 39950 40101 52006 70282 885// 333 88615
AAXX 21121 22602 42575 72001 11005 21011 39892 40120 52007 85530 333 85620
AAXX 21121 22619 41583 82202 11003 21021 39966 40128 52002 70282 885// 333 88628
AAXX 21121 22721 41470 80000 10002 21004 30027 40129 57003 72687 889// 333 85918
AAXX 21121 22802 42599 82901 10007 20001 30110 40133 52001 889//
AAXX 21121 22820 42271 81502 11021 21024 39995 40136 58004 886// 333 88704
AAXX 21121 26059 41296 83502 11011 21015 30100 40125 58003 71022 886// 333 88706
AAXX 21121 26063 41496 80301 11010 21019 30117 40125 58003 71042 333 88611
AAXX 21121 26094 42480 80402 11036 21047 30041 40119 57006 886// 333 88711
AAXX 21121 26157 42367 83402 11005 21017 30074 40125 58001 885// 333 86708
AAXX 21121 26167 41357 83501 11021 21027 30000 40115 57007 71022 886// 333 88707
AAXX 21121 26258 42997 83602 11004 21025 30052 40108 57004 8802/
AAXX 21121 26298 41496 80902 11035 21049 39869 40104 57002 71072 886//
AAXX 21121 26359 41442 83402 11025 21028 39977 40113 57002 78587 889//
AAXX 21121 26702 41996 41301 11008 21030 30094 40121 52002 71011 80005 333 91001 91101
AAXX 21121 26781 41295 83302 11020 21029 39775 40072 52006 77372 8872/ 333 87704
AAXX 21121 27208 41496 81102 11041 21053 39925 40106 57005 77172 8672/
AAXX 21121 27402 41597 70903 11034 21048 39922 40106 55001 72272 87500 333 87620
AAXX 21124 48386 31956 00000 10233 20180 30068 40112 50015 71000 333 10278 59001
AAXX 21124 48433 31958 20000 10249 20188 39955 40121 52010 71000 80005 333 10290 58000
AAXX 21124 NIL
AAXX 21123 87007 32970 21402 10107 20048 36754 47162 52013 80004 333 10112 20059 56000 82070
AAXX 21123 87148 31958 03608 10319 20191 39957 40061 51011 70500 333 10319 20234
BBXX PDAN 21124 99279 31593 41/98 61020 10230 40170 52015 70011 8//// 22254 00240 20704
BBXX V7NV4 21124 99300 71565 41897 72010 10190 20175 40225 56015 7//21 85162 22263 00230 20102 31919 40102 50102 6//// 80180 ICE /////
BBXX V7HC6 21124 99273 70907 41698 31910 10230 20216 40144 51009 70200 8329/ 22200 00229 20401 314// 40602 5//// 6//// 80220 ICE /////
BBXX WE4805 21124 99448 70877 43/99 /3003 11005 2//// 40058 5//// 70002 8//// 22213 00033 20000 3//// 4//// 5//// 6//// 8//// ICE /////
BBXX C6VG8 21124 99262 70785 41/// 41420 10230 2//// 40200 52/// 7//// 841// 22235 00260 2//// 3//// 4//// 5//// 6//// 8//// ICE /////
BBXX VRXL7 21123 99332 70195 41297 73406 10200 2014/ 40315 50005 70311 87278 22253 00200 20102 31112 40102 50102 6//// 80160 ICE 0/0//
BBXX C6XC6 21124 99226 70783 41597 60720 10245 2//// 40190 52020 70311 8627/ 22224 04210 21004 3//// 4//// 5//// 6//// 8//// ICE /////
BBXX WKAB 21123 99358 10221 41398 42424 10160 20108 40156 54000 75000 8428/ 22224 00175 21002 330// 41004 5//// 6//// 80130 ICE /////
BBXX ONFW 21124 99352 11198 41196 23619 10060 20038 40300 70200 8249/ 22200 04100 20205 3//// 4//// 5//// 6//// 80050 ICE /////
BBXX WZJC 21123 99272 70909 41298 42009 10228 2022/ 40136 54000 70111 84898 22272 00239 2//// 3//// 4//// 5//// 6//// 80222 ICE /////
AAXX 21121 38598 42997 00204 11032 21042 40418 57002
AAXX 21121 38599 NIL
AAXX 21121 38725 NIL
AAXX 21121 38734 42699 50706 11123 21218 37458 47050 53002 82503
AAXX 21121 38744 42999 60000 11115 21159 38063 48590 53002 83012
AAXX 21121 38836 NIL
AAXX 21121 38838 NIL
AAXX 21121 38844 42999 40903 11063 21146 48520 54000 80002
AAXX 21121 38846 41996 42204 11120 21135 38579 48540 57003 71000 82033
AAXX 21121 38847 42799 70000 11043 21094 40428 53006 87550
AAXX 21121 38932 NIL
AAXX 21121 38933 41996 53602 11024 21112 39886 40431 53011 71011 82031
AAXX 21121 38944 42997 31802 11024 21043 39680 40239 57005 83030
AAXX 21121 38954 42999 52802 11067 21233 37942 48550 57001 80001
AAXX 21121 28676 429// 61703 11142 21199 30332 40470 57006 80001 555 1/116
AAXX 21121 28766 429// 32205 11134 21172 30276 40482 57002 82031 555 1/115
AAXX 21121 28867 42998 42005 11186 21227 30218 40517 53005 80002 555 1/120
AAXX 21121 28879 429// 32505 11134 21197 30194 40506 53001 83040 555 1/118
AAXX 21121 28952 42998 61802 11160 21194 30302 40511 57004 80001 555 1/117
AAXX 21121 28966 429// 51602 11200 21239 30223 40539 57001 83031 555 1/123
AAXX 21121 29802 429// 52202 11163 21187 30308 40464 53001 82031 555 1/119
AAXX 21121 29807 425// 82402 11122 21162 30346 40473 53003 885// 555 1/115
AAXX 21121 34691 41998 81110 11034 21122 30275 40262 57006 70732 80007 555 1/104
AAXX 21121 35067 429// 60000 11200 21230 30235 40543 53001 80005 555 1/121
AAXX 21121 35078 42997 22601 11223 21251 30123 40549 56002 80001 555 1/124
AAXX 21121 35085 429// 12701 11178 21216 30005 40529 53002 80001 555 1/123
AAXX 21121 35108 41997 81607 11083 21136 30297 40345 57010 73633 86024 333 91115
AAXX 21121 35188 429// 21801 11207 21234 30061 40545 57002 80001 555 1/124
AAXX 21121 35217 41998 51408 11098 21140 30325 40366 57009 73631 80003 555 1/111
AAXX 21121 35229 42998 71205 11120 21186 30165 40458 57008 86031 555 1/115
AAXX 21121 35302 41998 51810 11085 21123 30311 40331 57013 73633 80001 555 1/110
AAXX 21121 35357 42997 01401 11246 21270 30054 40548 57004 555 1/128
AAXX 21121 35394 42998 01401 11220 21262 39793 40551 53002 555 1/129
AAXX 21121 35406 41997 61514 11089 21145 30336 40339 57009 73633 86030 333 91118 555 1/109
AAXX 21121 35416 41997 61409 11101 21177 30279 40407 57013 73631 82075 333 91117 555 1/111
AAXX 21121 35426 42999 50503 11136 21199 30148 40463 57011 80005 555 1/117
AAXX 21121 35497 429// 00201 11181 21249 39657 40534 53005 555 1/122
AAXX 21121 35532 41993 71114 11175 21209 39919 40452 57010 73933 80003 333 91118 555 1/117
AAXX 21121 35671 42998 00301 11147 21195 30051 40518 57002 555 1/120
AAXX 21121 35700 41998 81312 11068 21120 30335 40310 58016 73633 8802/ 333 91018 91121 555 1/108
AAXX 21121 35746 42998 00404 11156 21198 30409 40482 57013 555 1/116
AAXX 21121 35796 42997 00000 11164 21196 30022 40497 57001 555 1/122
AAXX 21121 35849 42998 00703 11156 21207 30373 40467 57017 555 1/116
AAXX 21121 35925 42998 61108 11132 21160 30270 40390 57015 80002 555 1/112
AAXX 21121 35953 42999 00603 11148 21185 30340 40482 57005 555 1/116
AAXX 21121 35969 42999 00202 11174 21215 30313 40504 57004 555 1/118
AAXX 21121 36003 42998 62602 11153 21192 30322 40486 53001 86070 555 1/117
AAXX 21121 36152 429// 21602 11244 21288 30300 40512 54000 80001 555 1/127
AAXX 21121 36177 429// 21302 11226 21252 30248 40524 53004 80001 555 1/127
AAXX 21121 36208 429// 50601 11210 21241 39447 40529 57003 83031 555 1/125
AAXX 21121 36397 429// 31804 11193 21232 39907 40527 53003 82040 555 1/119
AAXX 21121 36428 429// 00702 11257 21284 39993 40559 53003 333 95090 555 1/129
AAXX 21121 36535 42999 00000 11268 21305 39847 40567 57003 555 1/128
AAXX 21121 36639 429// 00000 11250 21292 39819 40499 53011 555 1/129
AAXX 21121 36821 415// 60000 11185 21214 39957 40496 53002 70282 83932
AAXX 21121 36859 419// 80000 11114 21154 39629 40464 53009 77172 8802/ 555 1/111
AAXX 21121 36864 42898 50000 11156 21190 39503 40375 53002 82032
AAXX 21121 36870 426// 20401 11158 21185 39367 40468 53005 82500 555 1/117
AAXX 21121 38001 41994 60516 10031 21181 30225 40195 57015 73233 86030 333 91016 91121 555 10002
AAXX 21121 38062 42999 00705 11158 21218 30293 40472 57003 555 1/116
AAXX 21121 38069 42998 00202 11084 21154 30242 40447 53003
AAXX 21121 38196 42998 00502 11097 21182 39397 40442 52007
AAXX 21121 38198 42997 23103 11105 21168 30168 40446 53001 80002 555 1/114
AAXX 21121 38222 42997 80000 11186 21212 39882 40502 53006 8801/ 555 1/119
AAXX 21121 38232 42998 71108 11011 21160 30197 40299 57015 80006 555 1/101
AAXX 21121 38328 41596 80501 11089 21118 39652 40429 53004 71022 83570 555 1/112
AAXX 21121 38334 42998 60504 11126 21126 39394 40430 57002 80005 555 14114
AAXX 21121 38341 42997 82101 11178 21204 39624 40493 53006 8807/ 555 1/114
AAXX 21121 38343 42698 60000 11181 21207 39563 40495 53011 86500
AAXX 21121 38439 42998 20702 11072 21115 30067 40428 54000 80001 555 14103
AAXX 21121 28676 429// 61703 11142 21199 30332 40470 57006 80001 555 1/116
AAXX 21121 28766 429// 32205 11134 21172 30276 40482 57002 82031 555 1/115
AAXX 21121 28867 42998 42005 11186 21227 30218 40517 53005 80002 555 1/120
AAXX 21121 28879 429// 32505 11134 21197 30194 40506 53001 83040 555 1/118
AAXX 21121 28952 42998 61802 11160 21194 30302 40511 57004 80001 555 1/117
AAXX 21121 28966 429// 51602 11200 21239 30223 40539 57001 83031 555 1/123
AAXX 21121 29802 429// 52202 11163 21187 30308 40464 53001 82031 555 1/119
AAXX 21121 29807 425// 82402 11122 21162 30346 40473 53003 885// 555 1/115
AAXX 21121 34691 41998 81110 11034 21122 30275 40262 57006 70732 80007 555 1/104
AAXX 21121 35067 429// 60000 11200 21230 30235 40543 53001 80005 555 1/121
AAXX 21121 35078 42997 22601 11223 21251 30123 40549 56002 80001 555 1/124
AAXX 21121 35085 429// 12701 11178 21216 30005 40529 53002 80001 555 1/123
AAXX 21121 35108 41997 81607 11083 21136 30297 40345 57010 73633 86024 333 91115
AAXX 21121 35188 429// 21801 11207 21234 30061 40545 57002 80001 555 1/124
AAXX 21121 35217 41998 51408 11098 21140 30325 40366 57009 73631 80003 555 1/111
AAXX 21121 35229 42998 71205 11120 21186 30165 40458 57008 86031 555 1/115
AAXX 21121 35302 41998 51810 11085 21123 30311 40331 57013 73633 80001 555 1/110
AAXX 21121 35357 42997 01401 11246 21270 30054 40548 57004 555 1/128
AAXX 21121 35394 42998 01401 11220 21262 39793 40551 53002 555 1/129
AAXX 21121 35406 41997 61514 11089 21145 30336 40339 57009 73633 86030 333 91118 555 1/109
AAXX 21121 35416 41997 61409 11101 21177 30279 40407 57013 73631 82075 333 91117 555 1/111
AAXX 21121 35426 42999 50503 11136 21199 30148 40463 57011 80005 555 1/117
AAXX 21121 35497 429// 00201 11181 21249 39657 40534 53005 555 1/122
AAXX 21121 35532 41993 71114 11175 21209 39919 40452 57010 73933 80003 333 91118 555 1/117
AAXX 21121 35671 42998 00301 11147 21195 30051 40518 57002 555 1/120
AAXX 21121 35700 41998 81312 11068 21120 30335 40310 58016 73633 8802/ 333 91018 91121 555 1/108
AAXX 21121 35746 42998 00404 11156 21198 30409 40482 57013 555 1/116
AAXX 21121 35796 42997 00000 11164 21196 30022 40497 57001 555 1/122
AAXX 21121 35849 42998 00703 11156 21207 30373 40467 57017 555 1/116
AAXX 21121 35925 42998 61108 11132 21160 30270 40390 57015 80002 555 1/112
AAXX 21121 35953 42999 00603 11148 21185 30340 40482 57005 555 1/116
AAXX 21121 35969 42999 00202 11174 21215 30313 40504 57004 555 1/118
AAXX 21121 36003 42998 62602 11153 21192 30322 40486 53001 86070 555 1/117
AAXX 21121 36152 429// 21602 11244 21288 30300 40512 54000 80001 555 1/127
AAXX 21121 36177 429// 21302 11226 21252 30248 40524 53004 80001 555 1/127
AAXX 21121 36208 429// 50601 11210 21241 39447 40529 57003 83031 555 1/125
AAXX 21121 36397 429// 31804 11193 21232 39907 40527 53003 82040 555 1/119
AAXX 21121 36428 429// 00702 11257 21284 39993 40559 53003 333 95090 555 1/129
AAXX 21121 36535 42999 00000 11268 21305 39847 40567 57003 555 1/128
AAXX 21121 36639 429// 00000 11250 21292 39819 40499 53011 555 1/129
AAXX 21121 36821 415// 60000 11185 21214 39957 40496 53002 70282 83932
AAXX 21121 36859 419// 80000 11114 21154 39629 40464 53009 77172 8802/ 555 1/111
AAXX 21121 36864 42898 50000 11156 21190 39503 40375 53002 82032
AAXX 21121 36870 426// 20401 11158 21185 39367 40468 53005 82500 555 1/117
AAXX 21121 38001 41994 60516 10031 21181 30225 40195 57015 73233 86030 333 91016 91121 555 10002
AAXX 21121 38062 42999 00705 11158 21218 30293 40472 57003 555 1/116
AAXX 21121 38069 42998 00202 11084 21154 30242 40447 53003
AAXX 21121 38196 42998 00502 11097 21182 39397 40442 52007
AAXX 21121 38198 42997 23103 11105 21168 30168 40446 53001 80002 555 1/114
AAXX 21121 38222 42997 80000 11186 21212 39882 40502 53006 8801/ 555 1/119
AAXX 21121 38232 42998 71108 11011 21160 30197 40299 57015 80006 555 1/101
AAXX 21121 38328 41596 80501 11089 21118 39652 40429 53004 71022 83570 555 1/112
AAXX 21121 38334 42998 60504 11126 21126 39394 40430 57002 80005 555 14114
AAXX 21121 38341 42997 82101 11178 21204 39624 40493 53006 8807/ 555 1/114
AAXX 21121 38343 42698 60000 11181 21207 39563 40495 53011 86500
AAXX 21121 38439 42998 20702 11072 21115 30067 40428 54000 80001 555 14103
AAXX 21121 45032 36/// /0000 10149 20127 30174 40191 52001
AAXX 21121 45035 36/// /0502 10190 20125 30147 40190 52002
AAXX 21121 45039 36/// /0602 10169 20126 30174 40188 52002
AAXX 21121 45044 36/// /1701 10175 20155 30093 40186 52002
AAXX 2112/ 41858 NIL
AAXX 2112/ 41863 NIL
AAXX 2112/ 41886 NIL
AAXX 2112/ 41895 NIL
AAXX 2112/ 41909 NIL
AAXX 2112/ 41915 NIL
AAXX 2112/ 41926 NIL
AAXX 2112/ 41929 NIL
AAXX 2112/ 41933 NIL
AAXX 2112/ 41939 NIL
AAXX 2112/ 41941 NIL
AAXX 2112/ 41946 NIL
AAXX 2112/ 41947 NIL
AAXX 2112/ 41951 NIL
AAXX 2112/ 41953 NIL
AAXX 2112/ 41958 NIL
AAXX 2112/ 41960 NIL
AAXX 2112/ 41963 NIL
AAXX 2112/ 41964 NIL
AAXX 2112/ 41965 NIL
AAXX 2112/ 41966 NIL
AAXX 2112/ 41984 NIL
AAXX 2112/ 41989 NIL
AAXX 2112/ 41998 NIL
AAXX 21124 70133 12966 80108 11083 21100 39973 49979 56001 69901 91153 333 21089 555 92112
AAXX 21124 70174 32966 63610 11106 21133 39732 49981 56013 91153 333 21117 4/071 91015 555 92112
AAXX 21124 70200 32966 60115 11056 21106 39937 49942 51003 91153 333 21111 555 92112
AAXX 21124 70219 11524 82416 11061 21072 39874 49931 51031 60011 771// 91153 333 21061 4/003 70013 96010 555 92112
AAXX 21124 70231 12566 81504 11061 21094 39784 49913 51016 69901 91153 333 21078 4/107 555 92112
AAXX 21124 70261 32966 80205 11033 21072 39744 49919 58018 91153 333 21122 70003 555 92112
AAXX 21124 70267 35966 01718 10022 21078 39459 49938 56024 91153 333 21094 91024 555 92112
AAXX 21124 70271 17661 81621 11006 21033 39370 49953 58033 69901 771// 91153 333 21028 91030 555 92112
AAXX 21124 70273 12566 61810 10017 21028 39906 49963 53020 60061 91153 333 20006 4/041 70061 91024 555 92112
AAXX 21124 70316 12966 01903 11022 21078 39999 40034 50004 69931 91153 333 21039 70010 555 92112
AAXX 21124 70326 11364 62009 11006 21017 39991 40005 53024 69901 771// 91154 333 21011 4/008 70010 555 92112
AAXX 21124 70340 15566 62113 10011 21039 39941 40004 51042 69901 91153 333 20011 70003 91019 555 92112
AAXX 21124 70350 12966 02003 10011 21078 30003 40044 51018 69901 91153 333 21006 70102 555 92112
AAXX 21124 70361 11566 81514 10044 20011 30151 40163 55020 69981 761// 91153 333 21005 4/036 70023 91026 555 92112
AAXX 21124 70381 32766 80909 10022 20006 30251 40261 58005 91153 333 20011 70025 555 92112
AAXX 21124 70414 35966 03503 11067 21100 39974 40010 51004 91156 555 92112
AAXX 21121 45032 36/// /0000 10149 20127 30174 40191 52001
AAXX 21121 45035 36/// /0502 10190 20125 30147 40190 52002
AAXX 21121 45039 36/// /0602 10169 20126 30174 40188 52002
AAXX 21121 45044 36/// /1701 10175 20155 30093 40186 52002
AAXX 21124 64810 32457 42208 10305 20241 30073 40099 82960 333 59006 82813 81920 83364 94943 95833
BBXX PDZS 21123 99544 50361 41294 70702 10051 20027 40026 50005 74244 876// 22231 02042 20101 307// 40501 5//// 80040
BBXX DCHO 21124 99230 50429 41/98 /9902 10250 20207 40110 54000 702// 8//// 22262 00180 2//// 80220
BBXX ELWR5 21120 99007 50823 41497 72110 10230 20204 40094 53012 70300 8653/ 22234 04251 20404 80212
BBXX DFCX2 21123 99187 50742 41698 81508 10217 20146 40133 52012 70211 885// 22234 06234 20401 321// 41705 80172
BBXX A8TC4 21124 99180 50383 41298 40318 10290 20238 40135 52015 70211 8/478 22213 04260 20603 307// 40803 5//// 80254
BBXX KABP 21123 99202 10393 43/95 /1500 10290 2023/ 40140 56010 7//// 8//// 22211 0//// 2//// 3//// 4//// 5//// 6//// 80248 ICE /////
BBXX MGGK4 21121 99196 70176 41/96 /0507 10225 20217 40222 52020 70000 8//// 22284 00211 20405 30506 40604 50404 80220
BBXX A8UU3 21124 99248 70297 41/98 /1410 10238 20168 40245 5/010 7//// 8/0// 22233 29902 305// 41203 80192
BBXX TBWUK42 21124 99349 30275 41498 41206 10215 20191 40089 57010 70211 83260 22223 20501 302// 40802 5//// 80200
BBXX A8QJ7 21124 99167 70216 41/98 /0407 10250 20235 40154 50012 70200 8/1// 22213 06250 2//// 3//// 4//// 5//// 80240
BBXX DILS 21124 99041 10029 41497 22407 10309 20266 40112 58008 70200 82100 22200 04290 20101 322// 40101 80278
BBXX A8IQ2 21120 99176 10612 41598 21309 10270 20221 40140 54000 71565 81180 22253 20604 314// 41003 5//// 80235
BBXX A8FA5 21123 99048 70099 41398 40000 10310 20242 40125 53005 7//22 84778 22274 20000 326// 40501 5//// 80260
BBXX DGPT2 21124 99149 70268 41598 31815 10250 20183 40150 52015 70200 8214/ 22214 00250 20603 80205
BBXX A8KH9 21124 99291 30146 41/97 31718 10160 20127 40115 54000 70000 83070 22244 20604 32200 41204 5//// 80140
BBXX UBAU 21121 99130 70175 41498 40606 10260 40153 57002 70300 84501 22241 04240 20201
BBXX DPUW 21124 99167 10407 41597 21520 10295 20218 40135 50035 70011 81141 22234 00290 20403 30000 4//// 5//// 80240
BBXX DEIR 21123 99257 30606 41498 60522 10245 20178 40200 54000 70200 8546/ 22223 04250 20605 305// 40705 80200
BBXX PCIM 21124 99139 10605 41398 50320 10311 20225 40125 58012 70322 81135 22234 00264 20403 80249
BBXX PHQW 21123 99194 70177 41996 01035 10221 20100 40173 52011 73130 80000 22283 00213 20708 80150 90608
BBXX A8RL4 21124 99055 50052 41/98 81510 10255 20205 40140 50010 7//52 8311/ 22233 00240 299// 80220
BBXX DDSX2 21124 99222 10374 41997 03308 10256 20196 40140 58020 70200 80000 22235 00302 20301 80215
BBXX V7QN8 21123 99311 11226 41296 30010 10090 2007/ 40260 54/// 70322 83490 22200 04100 20601 300// 40601 5//// 6//// 80080 ICE /////
BBXX ONFW 21124 99352 11198 41196 23619 10060 20038 40300 5/// 70200 8249/ 22200 04100 20205 3//// 4//// 5//// 6//// 80050 ICE /////
BBXX SMGW 21121 99349 11697 43/98 83314 10157 40111 50007 22224 00215 2//// 4////
BBXX SLKU 21123 99186 11346 41/98 /0728 10260 40120 51020 70022 8//// 22274 00291 20907
BBXX SHJC 21121 99149 11131 43/98 60411 10254 40124 53017 22254 01256 2//// 4////
BBXX VRAE3 21124 99067 11226 41793 30000 10310 20260 40084 51018 70200 82534 22234 00310 2//// 3//// 4//// 5//// 80275
BBXX V2BE4 21121 99097 11430 41498 30810 10285 20250 40082 51016 70200 82140 22243 04295 20301 80260
BBXX ZCAS2 21123 99318 11344 41698 62908 10142 20061 40194 54000 78086 8217/ 22283 00228 20101 307// 40202 80103
BBXX ONFE 21124 99293 11325 438// 33605 10170 2012/ 40200 54000 7//// 8/878 22254 00220 2//// 3//// 4//// 5//// 6//// 80140 ICE 0/0//
BBXX SHIP 21124 99529 11713 41598 40518 10000 21000 40999 51002 70322 84/// 91200 22214 00040 2//// 3//// 4//// 80000
BBXX S6AJ8 21123 99296 11308 41696 80613 10150 2013/ 40210 5//// 75055 88/// 22253 0//// 20502 305// 40502 5//// 6//// 80140 ICE /////
BBXX MIBR 21124 99222 11231 41/97 81109 10205 20197 40164 51010 75022 8//// 22264 00243 2//// 3//// 4//// 5//// 80200
BBXX PBOF 21123 99386 11196 41997 03605 10060 21028 40320 52030 70000 80000 22223 04080 20403 399// 4//03 80025 90608
BBXX A8NO6 21123 99359 11736 41/97 81828 10160 20135 40060 57020 75855 8//// 22225 04215 20809 329// 41009 5//// 80145
BBXX DGDD 21121 99339 11378 41/98 63105 10120 20039 40205 54000 70122 86/// 22213 00180 2//// 3//// 4//// 5//// 80080
BBXX DQVG 21123 99313 11295 41/98 73514 10138 20053 40135 51005 75052 86/// 22274 20404 3//// 4//// 5//// 80098
BBXX 41037 21121 99340 70775 46/// /1905 10201 40210 55000 91200 22200 00189 333 91206
BBXX 44255 21121 99473 70573 46/// /2810 11020 40173 52035 22200 00036 10805 70024 333 91212
BBXX C6XC6 21124 99226 70783 41597 60720 10245 2//// 40190 52020 70311 8627/ 22224 04210 21004 3//// 4//// 5//// 6//// 8//// ICE /////
BBXX SHIP 21124 99131 70690 41798 60625 10275 2023/ 40120 53010 70122 8316/ 22263 00280 20204 305// 40410 5//// 6//// 80240 ICE /////
BBXX WGAX 21124 99343 70546 43398 83523 10185 2015/ 40195 52020 7//// 889// 22263 00206 20402 326// 40804 5//// 6//// 80160 ICE /////
BBXX 9HXC9 21124 99172 70627 41498 60633 10240 20163 40160 54000 7//22 86662 22200 00280 2//// 3//// 4//// 5//// 6//// 80190 ICE /////
BBXX WJBU 21124 99527 71384 41798 42030 10067 2004/ 40229 58007 70200 841// 22233 0//// 20403 320// 41209 5//// 6//// 80056 ICE /////
BBXX WSRL 21123 99272 71527 41998 00919 10220 2016/ 40200 58005 70210 80/// 22214 0//// 2//// 3//// 4//// 5//// 6//// 80180 ICE /////
BBXX 44150 21121 99425 70640 46/// /2504 10018 40256 52010 22200 00102 10904 70018 333 91206
BBXX SFIR 21124 99449 70423 43/96 72850 10071 40080 52033 22223 00160 20807 4//05
BBXX SJCD 21121 99503 71329 43/98 31810 10070 40312 58020 22273 00082
BBXX VCXF 21124 99464 70484 41698 62838 11002 2105/ 40084 52044 70122 86500 22200 02024 20807 326// 40905 81020
BBXX 41053 21121 99185 70661 46/// /0709 10261 40177 91140 333 91211
BBXX 41053 21121 99185 70661 46/// /0709 10261 40179 91150 333 91211
BBXX 41053 21121 99185 70661 46/// /0709 10262 40180 53019 91200 22200 00271 11306 70028 333 91212
BBXX 44139 21121 99442 70571 46/// /3010 10011 40233 5//// 22200 00061 11008 70041 333 91213
BBXX A8IP3 21123 99336 70586 41297 73211 10190 20162 40241 51010 72555 86778 22214 04230 20502 332// 41006 80172
BBXX DIHE 21124 99450 70516 41/98 82934 10010 21046 40160 50010 77022 8777/ 22224 00050 21010 327// 41208 81010
BBXX WDB9986 21124 99431 71630 41495 82852 10100 2008/ 49850 52060 76566 886// 22234 00100 20406 327// 40710 5//// 6//// 80090 ICE /////
BBXX WDB9918 21124 99584 71435 41498 62030 10050 2003/ 40087 57030 78082 8446/ 22283 00050 20807 323// 41409 5//// 6//// 80044 ICE /////
BBXX WDB9949 21124 99537 71602 41698 22116 10047 2000/ 40051 5//// 70200 82/8/ 22264 00030 20403 323// 40906 5//// 6//// 80028 ICE /////
BBXX VRVB5 21124 99417 70669 41498 81109 10040 21015 40210 5/090 70202 88080 22214 00110 20303 310// 40302 80020
BBXX DDLK 21123 99461 70422 41698 52734 10050 20003 40051 52011 70222 85600 22224 20408 327// 40608 80030
BBXX V7NV4 21124 99300 71565 41897 72010 10190 20175 40225 56015 7//21 85162 22263 00230 20102 31919 40102 50102 6//// 80180 ICE /////
BBXX PBKH 21124 99273 71394 41/98 80625 10175 20101 40248 50000 70222 8//// 22224 20402 399// 40405 5////
BBXX SHIP 21124 99396 71513 41396 82030 10160 2014/ 40160 55010 75855 8897/ 22224 00170 20306 321// 40408 5//// 6//// 85150 ICE /////
BBXX A8XD5 21124 99425 71741 41296 52604 10080 20038 40160 50000 70122 8/627 22223 2//// 327// 40806 80060
BBXX DHEE 21123 99240 70729 41598 70822 10232 20178 40215 53005 72581 86249 22234 00270 20304 306// 40406 80196
BBXX A8NQ5 21123 99461 70541 41298 83033 10050 20003 40130 52060 70222 885// 22263 04025 20607 330// 40908 80030
BBXX C6VR5 21123 99213 70552 41697 20428 10245 20164 40222 51022 70211 82141 22224 04265 20906 302// 41406 80195
BBXX A8IN8 21123 99366 70388 41598 32710 10190 20138 40165 51/// 70222 832// 22254 04200 20503 327// 41208 80160
BBXX PECF 21123 99192 70809 41498 50920 10262 20220 40160 53030 70211 84409 22263 20504 309// 40606 80232
BBXX 46053 21121 99342 71198 46/// /2808 10130 40160 58005 91150 22200 00138 11402 20701 326// 41402 70012 333 91209 555 11083 22088 31050 42809 61149 278077 274076 273066 269061 268048 261040
BBXX 44022 21121 99409 70737 46/// ///01 10077 20057 40180 57021 91200 22200 00078 333 91202 555 11010 22010
BBXX 44097 21121 99410 70711 46/// ///// 1//// 91202 22200 00120 10803 20802 314// 41301 70013
BBXX 44172 21121 99445 70634 46/// ///// 1//// 91201 22200 00064 11002 21002 320// 41101 70009
BBXX 46239 21121 99363 71221 46/// ///// 1//// 91151 22200 00135 11307 21004 330// 41305 70033
BBXX 51205 21121 99210 71564 46/// ///// 1//// 91148 22200 00241 10905 20904 332// 41302 70025
BBXX 46238 21121 99334 71195 46/// ///// 1//// 91150 22200 00144 11303 21003 329// 41302 70017
BBXX 41038 21121 99341 70777 46/// /1804 10164 40207 54000 91200 22200 00136 333 91205
BBXX 46001 21121 99563 71480 46/// /2608 10049 40097 51020 91150 22200 00050 11511 20604 300// 41510 70055 333 91210 555 11080 22085 31102 42511 61149 260076 260079 254076 261076 260081 260074
BBXX 41041 21121 99142 70460 46/// /0806 10267 20208 40156 53016 91150 22200 00267 11003 20502 3//// 41003 70017 333 91207 555 11064 22068 31102 40909 61149 084060 086062 087064 088066 090067 088066 80907 91101
BBXX 3EMK6 21124 99266 70925 41297 52303 10240 20211 40150 54/// 78088 85942 22200 00232 20402 3//// 40402 50402 6//// 80220 ICE /////
BBXX C6VG7 21124 99185 70770 415// 40826 10260 2//// 40150 5/000 7//11 84/6/ 22254 0//// 20205 3//// 40205 50205 6//// 8//// ICE /////
BBXX NWS0003 21124 99539 71665 43/// /3300 10002 21050 40017 5//// 7//// 8//// 222// 0//// 2//// 3//// 4//// 5//// 6//// 8//// ICE /////
BBXX NWS0029 21124 99365 70640 43/// /2601 10181 20112 40249 5//// 7//// 8//// 222// 04218 2//// 3//// 4//// 5//// 6//// 8//// ICE /////
BBXX PDHW 21123 99456 70418 414// 72745 10070 21066 40030 52040 70211 8672/ 22262 00140 21010 327// 41212 80020
BBXX OWFD2 21121 99279 70439 41798 50111 10220 20158 40195 53176 70111 84482 22254 04230 20803 80180
BBXX A8JS7 21123 99265 71456 41598 21017 10200 20134 40217 56005 70200 81180 22264 04220 20405 309// 40504 5//// 80162
BBXX DMRX 21124 99450 71253 41497 53416 10090 20038 40305 55012 70122 8546/ 22244 00110 20404 80065
BBXX WZP 21124 99437 70867 41/97 80408 10027 2//// 40054 54000 70222 8//// 22283 0//// 20306 3//// 4//// 5//// 6//// 8//// ICE /////
BBXX FHZI 21124 99655 31440 46/// /2932 11002 21022 39885 49896 57006 22200 05018 86010
BBXX UCKZ 21121 99658 30462 41495 70912 11021 21028 49708 56006 78587 86370 22213 01012 20504 335// 41005 ICE 2/890
BBXX SLKR 21123 99132 51367 43/97 50818 10253 40109 56018 22254 00272 20000 40000
BBXX AVMI 21123 99330 31517 41198 61010 10190 20/// 40266 51018 70312 84/// 22200 00260
BBXX ZMKA 21124 99429 31738 41998 00411 10130 20091 40294 58005 70200 80000 22252 2//// 318// 40503 80110
BBXX SHIP 21123 99079 31217 41/98 82813 10300 20273 40067 52023 70252 8//// 22263 04305 299// 80280
BBXX VROB 21124 99378 31449 46/// /1310 10178 20110 30146 40172 52012 22200 04203 85138
BBXX ZM2619 21123 99442 31780 41/98 09903 10119 20076 40308 54000 70222 22262 29900 321// 40901 80098
BBXX VNAH 21124 99322 31157 46/// /2122 10206 20162 30114 40137 52011 22200 04226 85178
BBXX VNSZ 21124 99400 31456 46/// /0715 10157 20120 30187 40214 57008 22276 04169 85135
BBXX 9HA2479 21124 99242 31642 46/// /1130 10243 20202 30106 40135 57003 22214 04250 85214
BBXX C6FS9 21124 99274 31531 46/// /0812 10234 20179 30126 40162 52008 22200 04238 85197
BBXX VHAF 21124 99395 31452 41/98 20914 10164 40244 51007 70100 8//// 22284 20503
BBXX YCZC5 21123 99162 51775 41397 60925 10280 20252 40113 51/// 70322 85562 22223 02270 2//// 309// 40201 80260
BBXX VRRD 21123 99202 31553 41297 80720 10250 20243 40064 52018 78186 887// 22243 04290 20504 309// 40504 80245
BBXX 3ELR6 21123 99113 31240 41196 32312 10300 20274 40054 53/// 71399 83495 22223 06340 20102 80280
BBXX VRAE2 21124 99228 31772 41/// 81025 10250 20191 40129 50001 70080 8//// 22244 04270 2//// 80212
BBXX VNVF 21124 99037 11256 41/98 /0000 10288 20250 40074 52030 71322 8//// 22244 00296 20000 30000 80261
BBXX VRDG4 21123 99387 31451 41596 40920 10165 20115 40187 55002 702// 83443 22273 20505 80138
BBXX VRRB 21124 99293 31535 41/// /1017 10235 20196 40168 52/// 7//// 8//// 22244 2//// 80210
BBXX KAOU 21124 99002 10810 43/// /1814 10270 20245 40059 5//// 7//// 8//// 222// 04290 2//// 3//// 4//// 5//// 6//// 8//// ICE /////
BBXX PCDE 21123 99391 31476 41/98 51011 10174 20136 40212 52010 7//22 8/9// 22223 299// 328// 40703 80151
BBXX PHJV 21124 99058 31157 41598 41508 10300 20294 40071 53024 70200 8/460 22263 06298 20301 331// 40601 80295
BBXX PFBF 21123 99096 31586 41/98 20409 10280 20190 40079 51014 76000 8//// 22213 02292 2//// 3//// 4//// 5//// 80218
BBXX DCQR2 21123 99387 31482 41498 61414 10170 20135 40200 51005 70122 84279 22253 04160 20401 317// 40603 5//// 80150
BBXX MGRH9 21124 99363 31692 41/98 40606 10180 20146 40268 52/// 7//00 84/// 22233 00175 2//// 3//// 4//// 5//// 80160
BBXX MCCN6 21124 99243 31125 41998 02020 10240 20225 40096 56010 702// 80000 22283 00236 2//// 319// 40805 5//// 80230
BBXX MINUK03 2112/ 99525 10046 46/// ///// 10075 40207 52027
BBXX WKAB 21123 99358 10221 41398 42424 10160 20108 40156 54000 75000 8428/ 22224 00175 21002 330// 41004 5//// 6//// 80130 ICE /////
BBXX VRXL7 21123 99332 70195 41297 73406 10200 2014/ 40315 50005 70311 87278 22253 00200 20102 31112 40102 50102 6//// 80160 ICE 0/0//
BBXX SBHI 21123 99613 10172 43/99 52309 10123 40100 53007 22273 06034
BBXX MINUK01 2112/ 99571 70021 46/// ///// 10060 40112 57015
BBXX MINUK05 2112/ 99603 70043 46/// ///// 10065 40024 57041
BBXX PDNN 21123 99470 70247 41597 72030 10138 20116 40234 51015 70222 875// 22223 02128 20203 320// 40805 80125 90609
BBXX MSTM6 21123 99362 70079 41498 13610 10175 20131 40300 54000 70000 8/1// 22224 00177 20502 399// 40802 80150
BBXX 62087 21121 99547 10068 46/// /9901 10070 20032 4//// 5//// 22240 00078
BBXX 62023 21123 99514 70079 46/96 /2624 10113 2//// 40249 5//// 22200 10504 70021 555 70032 80006
BBXX LF4H 21124 99596 10022 46/// /1406 10059 21010 40116 57002 8//// 22200 06083 10703 70017 333 91111
BBXX LMEL 21121 99603 10053 43/// /3002 11007 21011 40125 5//// 222/0 04086 1//// 3//// 4//// 5////
BBXX LAHV 21121 99589 10057 43/// /0801 10002 21010 40127 222// 04078 1////
BBXX UITJ 21121 99701 10162 41498 71006 10055 40039 54000 70222 878// 22253 00070 20402 30500 40803
BBXX C6KD8 21123 99469 70097 41598 82917 10135 20118 40329 51025 70322 8477/ 22254 02130 20501 332// 41406 5//// 80126
BBXX OYGR2 21124 99322 10300 41598 20608 10180 20131 40189 53006 70200 81242 22224 04195 20303 80150
BBXX PJFF 21124 99321 70349 41/98 /1909 10240 40220 54000 702// 8//6/ 22254 04180 2//// 30000 80020
BBXX TFSTD 21124 99664 70234 46/// ///// 22200 10604 70019
BBXX TFGRV 21124 99638 70225 46/// ///// 22200 10605 70025
BBXX TFGSK 21124 99641 70229 46/// ///// 22200 10604 70021
BBXX TFBLK 21124 99657 70248 46/// ///// 22200 10704 70021
BBXX TFGRS 21124 99663 70182 46/// ///// 22200 10502 70010
BBXX TFKGR 21124 99657 70136 46/// ///// 22200 10502 70008
BBXX TFSRT 21124 99633 70203 46/// ///// 22200 10905 70025
BBXX TFBKF 21124 99635 70202 46/// ///// 22200 10505 70025
BBXX TFHFN 21124 99642 70152 46/// ///// 22200 10603 70014
BBXX TFDRN 21124 99658 70212 46/// ///// 22200 10400 70002
BBXX NWS0020 21124 99331 70264 43/// /1320 10199 20140 40259 5//// 7//// 8//// 222// 04201 2//// 3//// 4//// 5//// 6//// 8//// ICE /////
BBXX C6KD4 21123 99373 70295 41498 61421 10182 20153 40247 57010 70111 85145 22254 02183 20506 315// 40606 80165
BBXX TBWUK35 21123 99621 70023 41298 82120 10064 20008 40053 58012 70222 8472/ 22214 00090 20404 326// 40805 80042
BBXX PBEN 21123 99354 10196 41/98 52420 10170 20119 40110 57040 7//11 85242 22263 21003 399// 41304 80140
BBXX A8JR6 21123 99443 10358 41497 62323 10115 20085 40086 54000 70222 82445 22263 04112 20602 32200 40903 50000 80100
BBXX UCKD 21121 99577 10089 41598 23406 10045 40102 52017 70100 821// 22263 00070 20402
BBXX C6IO9 21124 99337 70140 41498 43217 10180 20123 40315 54000 70200 82465 22243 06180 20502 332// 40502 5//// 80148
BBXX LAXP4 21124 99403 70225 41497 83116 00/// 10170 2015/ 40338 56004 74122 8864/ 22253 00160 20402 327// 40603 5//// 6//// 80160
BBXX UBEF5 21121 99365 10165 41496 92416 10120 40051 57015 76466 889// 22263 00180 20504
AAXX 21124 78526 32666 60616 10256 20183 30166 40189 53018 91156 333 10272 20239 70028 91021 555 92112
AAXX 21124 78543 32566 40310 10250 20194 30102 40183 53016 91153 333 10278 20233 70010 91023 555 92112
AAXX 21124 41859 31430 30000 10144 20120 30104 40143 70521 82530 333 10163 56190 58000 70000 82618 83362
AAXX 21124 41883 31930 00000 10140 20129 30116 40137 70520 333 10160 58000 70000
AAXX 21124 41891 31440 12702 10184 20150 30088 40128 70510 81500 333 10250 56900 58002 70000 81615
AAXX 21124 41907 31910 03601 10130 20110 30121 40136 70521 333 10165 58006 70000
BBXX C6KD7 21123 99385 70236 41598 81415 10180 20140 40311 52013 70322 8667/ 22214 02188 20701 312// 40803 5//// 80157
AAXX 21124 91945 36/// /0614 10241 20210 30121 40126 58019 333 10301
AAXX 21124 60360 11557 73118 10138 20086 40201 50001 69941 76066 879// 333 0//16 83820 81933 85633 95910
AAXX 21124 60390 12570 62409 10164 20107 40255 56008 60001 83830 333 83820 83640 95900
AAXX 21124 60402 11258 82204 10122 20113 40237 58009 60101 70362 889// 333 0//63 81703 83816 81926 85640 95910
AAXX 21124 60419 11456 83208 10082 20067 40229 58006 60031 72162 888// 333 0//11 83813 87620 95900
AAXX 21124 60475 11565 73225 10085 20067 39242 48499 53003 69911 70262 878// 333 0//15 83826 86833 95910
AAXX 21124 60490 12980 52212 10164 20062 40268 58009 60001 80002 333 85073 95900
AAXX 21124 60525 12665 63118 10165 20036 40211 50005 60001 85230 333 0//00 85840 95900
AAXX 21124 60531 12975 52409 10172 20053 40283 58001 60001 80002 333 0//00 85073 95900
AAXX 21124 60566 12960 23611 10166 20011 40248 50002 60001 80002 333 0//00 82073
AAXX 21124 60571 12970 23510 10169 21026 39328 48578 58008 60001 80002 333 0//00 82073 95900
AAXX 21124 60580 12960 32806 10162 20035 40228 58016 60001 80002 333 0//00 83073
AAXX 21124 60590 12960 12910 10133 21024 40269 56010 60001 81030 333 0//00 81360
AAXX 21124 60611 12960 09902 10145 21001 40223 56016 60001 333 0//00
AAXX 21124 60620 12960 00116 10150 21021 40268 58009 60001 333 0//00
AAXX 21124 60630 NIL
AAXX 21124 60656 12965 00000 10182 20034 40270 50004 60001 333 0//00
AAXX 21124 60670 12981 00000 10185 20002 39096 48536 58014 60001 333 0//00 95900
AAXX 21124 60680 12980 01704 10176 21070 38658 48535 56011 60001 333 95900
AAXX 21124 60351 11320 82604 10125 20119 40224 50001 60201 76366 889// 333 0//51 84706 83813 81923 85626 95930
AAXX 21124 60355 11556 83620 10141 20092 40209 50003 60041 78082 889// 333 0//22 81926 87830 95900
AAXX 21124 60445 11458 72812 10081 20069 39055 48528 58003 60021 70266 872// 333 0//13 82710 86826 95980
AAXX 21124 60468 11465 73308 10086 20065 39261 48524 58006 60011 70362 878// 333 0//12 82810 87820 95970
AAXX 21124 60507 12975 22206 10142 20017 40280 58009 60001 80002 333 82073 95900
AAXX 21124 60511 12560 72908 10072 20062 39130 48554 50003 60001 872// 333 87823 95900
AAXX 21124 60535 12570 83610 10050 20027 38889 48546 53007 60001 887// 333 0//00 88723 95900
AAXX 21124 60536 12975 30000 10132 20013 39397 48567 53011 60001 80002 333 83073 95900
AAXX 21124 60549 11960 02916 10130 21002 38991 48586 51004 60001 333 95900
AAXX 21124 60550 12970 26008 10072 21053 39734 48567 50006 60001 80002 333 82073 95900
AAXX 21124 60555 12970 42907 10160 20045 40225 58012 60001 82032 333 0//00 82360 83073
AAXX 21124 60559 12560 52910 10160 21009 40209 58019 60001 81234 333 0//00 81833
AAXX 21124 60581 12960 32416 10147 21036 40237 58017 60001 80002 333 83073
AAXX 21124 60602 12970 03404 10145 20018 40272 58005 60001 333 0//00 95990
AAXX 21124 60607 12960 00000 10133 21050 40267 58002 60001 333 0//00
AAXX 21124 60640 12960 12604 10160 20012 40224 58016 60001 81030 333 0//00 81360
AAXX 21124 60690 NIL
AAXX 21124 60351 11320 82604 10125 20119 40224 50001 60201 76366 889// 333 0//51 84706 83813 81923 85626 95930
AAXX 21124 60355 11556 83620 10141 20092 40209 50003 60041 78082 889// 333 0//22 81926 87830 95900
AAXX 21124 60445 11458 72812 10081 20069 39055 48528 58003 60021 70266 872// 333 0//13 82710 86826 95980
AAXX 21124 60468 11465 73308 10086 20065 39261 48524 58006 60011 70362 878// 333 0//12 82810 87820 95970
AAXX 21124 60507 12975 22206 10142 20017 40280 58009 60001 80002 333 82073 95900
AAXX 21124 60511 12560 72908 10072 20062 39130 48554 50003 60001 872// 333 87823 95900
AAXX 21124 60535 12570 83610 10050 20027 38889 48546 53007 60001 887// 333 0//00 88723 95900
AAXX 21124 60536 12975 30000 10132 20013 39397 48567 53011 60001 80002 333 83073 95900
AAXX 21124 60549 11960 02916 10130 21002 38991 48586 51004 60001 333 95900
AAXX 21124 60550 12970 26008 10072 21053 39734 48567 50006 60001 80002 333 82073 95900
AAXX 21124 60555 12970 42907 10160 20045 40225 58012 60001 82032 333 0//00 82360 83073
AAXX 21124 60559 12560 52910 10160 21009 40209 58019 60001 81234 333 0//00 81833
AAXX 21124 60581 12960 32416 10147 21036 40237 58017 60001 80002 333 83073
AAXX 21124 60602 12970 03404 10145 20018 40272 58005 60001 333 0//00 95990
AAXX 21124 60607 12960 00000 10133 21050 40267 58002 60001 333 0//00
AAXX 21124 60640 12960 12604 10160 20012 40224 58016 60001 81030 333 0//00 81360
AAXX 21124 60690 NIL
AAXX 21124 60360 11557 73118 10138 20086 40201 50001 69941 76066 879// 333 0//16 83820 81933 85633 95910
AAXX 21124 60390 12570 62409 10164 20107 40255 56008 60001 83830 333 83820 83640 95900
AAXX 21124 60402 11258 82204 10122 20113 40237 58009 60101 70362 889// 333 0//63 81703 83816 81926 85640 95910
AAXX 21124 60419 11456 83208 10082 20067 40229 58006 60031 72162 888// 333 0//11 83813 87620 95900
AAXX 21124 60475 11565 73225 10085 20067 39242 48499 53003 69911 70262 878// 333 0//15 83826 86833 95910
AAXX 21124 60490 12980 52212 10164 20062 40268 58009 60001 80002 333 85073 95900
AAXX 21124 60525 12665 63118 10165 20036 40211 50005 60001 85230 333 0//00 85840 95900
AAXX 21124 60531 12975 52409 10172 20053 40283 58001 60001 80002 333 0//00 85073 95900
AAXX 21124 60566 12960 23611 10166 20011 40248 50002 60001 80002 333 0//00 82073
AAXX 21124 60571 12970 23510 10169 21026 39328 48578 58008 60001 80002 333 0//00 82073 95900
AAXX 21124 60580 12960 32806 10162 20035 40228 58016 60001 80002 333 0//00 83073
AAXX 21124 60590 12960 12910 10133 21024 40269 56010 60001 81030 333 0//00 81360
AAXX 21124 60611 12960 09902 10145 21001 40223 56016 60001 333 0//00
AAXX 21124 60620 12960 00116 10150 21021 40268 58009 60001 333 0//00
AAXX 21124 60630 NIL
AAXX 21124 60656 12965 00000 10182 20034 40270 50004 60001 333 0//00
AAXX 21124 60670 12981 00000 10185 20002 39096 48536 58014 60001 333 0//00 95900
AAXX 21124 60680 12980 01704 10176 21070 38658 48535 56011 60001 333 95900
AAXX 21124 78062 11567 21403 10229 20173 40216 6003 70111 82800 333 10250 20180 59014 70000 82818 90908
BBXX 3ERR2 21124 99635 10053 43/// /2714 10057 21054 40078 52015 22200 11206 70030 333 91127
BBXX LF3F 21124 99643 10078 43/// /2612 10026 21008 40065 52012 22200 04089 10805 70027 333 91125
BBXX LF3N 21124 99653 10073 41497 52615 10035 21013 40045 52009 72682 85900 22200 00088 10805 70024
BBXX LF4B 21124 99606 10037 47/98 /1608 10054 40121 52005 700// 22200 00041 10804 70021 333 91115
BBXX LF4C 21124 99584 10019 41599 61406 10069 20001 40124 54000 70281 82151 22200 00073 10703 70014 333 91115
BBXX LF5T 21124 99660 10081 43697 62412 10027 21019 40041 52012 86/// 22200 10805 70027 333 91122
AAXX 21121 40701 11415 80802 11050 21056 38643 40317 56017 60001 71042 886// 333 88715
AAXX 21121 40704 12975 43008 10082 21066 38634 40207 56009 60001 80002 333 84070
AAXX 21121 40708 12965 31808 10098 21045 38670 40172 57013 60001 81032 333 81359 83068
AAXX 21121 40710 11620 42402 11070 21094 38369 40369 55015 60001 71041 82506 333 82635 84267
AAXX 21121 40713 11620 82602 10002 21025 38721 40292 56014 60001 71042 8661/ 333 84720 88460
AAXX 21121 40719 11935 53203 10112 20079 30199 40188 56017 60001 71020 80006 333 85266
AAXX 21121 40731 12962 01302 10086 21046 38787 40265 57015 60001 333
AAXX 21121 40738 11925 60403 10094 20081 30213 40215 56010 60001 71021 80006 333 86270
AAXX 21121 40740 12962 00608 11004 21098 38787 40303 56011 60001 333
AAXX 21121 40747 90069 90400 91005 91109 91205 91303
AAXX 21121 40757 12965 21601 10074 21086 38956 40269 57017 60001 80001 333 82070
AAXX 21121 40763 12965 11302 10066 21155 38988 40296 56014 60001 80001 333 81070
AAXX 21121 40782 12965 12404 10164 21081 38918 40235 57017 60001 80001 333 81070
AAXX 21121 40783 12968 22505 10122 21046 38024 40211 57015 60001 80001 333 82069
AAXX 21121 40789 12965 10000 10098 21128 39274 40278 56014 60001 80001 333 81070
AAXX 21121 40798 12960 00000 10122 21088 38001 40262 58017 60001 333
AAXX 21121 40818 12970 00000 10118 21134 38012 40232 57022 60001 333
AAXX 21121 40827 12970 11705 10090 21325 38900 40322 55010 60001 80001 333 81070
AAXX 21121 40836 12965 10000 10152 21093 38236 40224 57011 60001 80004 333 81067
AAXX 21121 40851 12960 00000 10116 21113 38304 40241 56021 60001 333
AAXX 21121 40853 12965 02705 10106 21222 37777 40219 56009 60001 333
AAXX 21121 40854 12960 00403 10126 21186 39013 40242 56012 60001 333
AAXX 21121 40857 12962 03303 10201 20133 30199 40209 57013 60001 222// 00196 20401 333
AAXX 21121 40859 12965 00000 10170 21149 38751 40206 57019 60001 333
AAXX 21121 40878 NIL
AAXX 21121 40879 12965 02302 10168 21287 39533 40232 56014 60001 333
AAXX 21121 40883 12960 01004 10224 20032 30174 40195 56014 60001 222// 00228 20302 333
AAXX 21121 40898 NIL
BBXX 46207 21121 99509 71299 46/// /1902 10075 40320 57005 22200 00081 11206 70030 333 91203
AAXX 21124 78062 11567 21403 10229 20173 40216 6003 70111 82800 333 10250 20180 59014 70000 82818 90908
AAXX 21124 91165 11456 80317 10211 20189 30142 40178 56005 69951 761// 91153 333 20211 70043 91027 96010 555 92112
AAXX 21124 91182 32566 60313 10220 20190 30150 91213 555 92112
AAXX 21124 91190 35666 60513 10211 20172 30134 40154 56020 91154 333 20206 555 92112
AAXX 21124 91212 32566 20708 10272 20228 31368 40103 50011 91154 333 20267 70010 555 92112
AAXX 21124 91285 12566 60000 10194 20189 30137 40149 56012 60051 91153 333 20194 70353 555 92112
BBXX 46207 21121 99509 71299 46/// /1902 10075 40320 57005 22200 00081 11206 70030 333 91203
AAXX 21121 78458 21466 60000 10208 20193 40204 52013 70361 83830 333 10272 20196 31/// 56000 58003 60046 70056 83618 83358
AAXX 21121 78460 21458 50603 10194 20191 40200 52017 76044 85500 333 10264 20180 31/// 56100 58007 69900 70020 85616
AAXX 21121 78467 21466 504405 10234 20190 40191 5//// 702// 84201 333 10260 20200 31/// 56200 58005 69932 70035 84815
AAXX 21121 78479 32466 50708 10250 20176 40166 52009 82204 333 10268 20230 30/// 56100 58005 70038 82818 85080
AAXX 21121 78482 32466 52702 10190 20165 40196 5//// 82256 333 10302 20162 30/// 56000 59001 82817 85280
AAXX 21121 78485 32466 40403 10192 20174 40184 52008 82235 333 10270 20185 31/// 56000 59004 70017 82818 83357
AAXX 21121 78486 32466 63402 10208 20184 40176 52015 83206 333 10271 20207 31/// 50233 56200 58008 70037 83818 85280
AAXX 21121 78488 32466 73603 10182 20179 40188 5//// 82876 333 10257 20158 30/// 56000 59001 70058 82616 85280
AAXX 21124 78951 11578 31114 10275 20186 30136 40151 60012 7018/ 83100 333 10298 20235 59007 70013 83820
AAXX 21121 02836 47171 81801 11062 21065 39860 40089 52006 70087 88/// 91139
AAXX 21120 44210 32999 00000 11229 21254 38653 58017 333 11153
AAXX 21120 44216 32999 03402 11312 21336 39195 40651 57008 333 11261
AAXX 21120 44217 32998 00000 11240 21265 37962 40614 56016 333 11168
AAXX 21120 44219 329// 00000 11244 21269 38769 40588 57006 333 11193
AAXX 21120 44221 129// 70000 11278 21296 38737 40620 57006 69902 87010 333 11250
AAXX 21120 44224 129// 60000 11286 21316 38168 40644 56006 69902 86010 333 11213
AAXX 21120 44229 32999 12703 11156 21198 38002 40457 56001 81040 333 11126
AAXX 21120 44242 329// 70000 11237 21260 39408 40425 57005 87050 333 11206
AAXX 21120 44243 329// 73601 11243 21270 39506 40432 58003 87070 333 11217
AAXX 21120 44254 329// 01801 11195 21274 39078 40353 54000 333 11125
AAXX 21120 44257 319// 02704 11192 21244 39014 40382 57001 70230 333 11132
AAXX 21120 44263 32998 00000 11236 21276 38171 40616 55005 333 11125
AAXX 21120 44266 NIL
AAXX 21120 44286 329// 02706 11152 21200 38718 40416 57004 333 11131
AAXX 21120 44291 329// 03201 11241 21269 38813 40492 54000 333 11177
AAXX 21120 44325 NIL
AAXX 21120 44329 32998 03205 11148 21191 37840 40495 55000 333 11091
AAXX 21120 44338 32999 02702 11154 21214 38567 40446 52003 333 11044
AAXX 21120 44348 329// 03205 11172 21184 38768 40413 57001 333 11152
AAXX 21120 44374 32999 01603 11126 21230 38353 40472 53009 333 11071
AAXX 21120 44385 32999 02705 11104 21188 39042 40427 53013 333 11064
AAXX 21120 44386 329// 03203 11170 21204 39152 40423 53001 333 11116
AAXX 21123 87532 32970 20502 10274 20158 39869 40030 51004 82070 333 10333 20220 56070 82360
AAXX 21121 48803 32698 20000 10175 20142 30057 40172 52014 82500 333 00016 10221 58003 70000 82696
AAXX 21124 43400 NIL
AAXX 21124 43404 22470 7//// 10258 20219 30085 40095 85206 333 00021 10294 59005 60007 85818 87280
AAXX 21124 43410 NIL
AAXX 21124 43413 22470 40510 10272 20228 30080 40084 81131 333 00023 10290 59011 60007 81818 83358
AAXX 21124 43415 21470 60502 10266 20225 39981 40089 72582 84970 333 00020 10293 59004 60007 84818 81919 84460
AAXX 21124 43418 22470 61403 10265 20214 3//// 4//// 83236 333 10290 5//// 60007 83818 84280
AAXX 21124 43421 22470 40505 10264 20216 39980 40082 82101 333 00022 10290 59008 60007 82818 83080
AAXX 21124 43422 22470 505// 10262 20214 39950 40080 84131 333 00022 10291 59007 60007 84818 83080
AAXX 21124 43424 22478 70406 10275 20205 30068 40071 8113/ 333 00022 10300 59005 60007 81818 86360
AAXX 21124 43436 22470 73609 10276 20226 30070 40073 82101 333 00024 10284 59011 60007 82818 86080
AAXX 21124 43441 22470 702// 10264 20219 39938 40067 85630 333 02021 10278 59003 60007 84716 86360
AAXX 21124 43444 21470 83602 10229 20202 39544 40077 70382 86172 333 10244 59004 69907 86818
AAXX 21124 43467 21465 80204 10274 20211 30057 40062 70382 8492/ 333 00022 10296 59003 69907 81816 83918 88460
AAXX 21124 43473 21370 80905 10144 20133 38101 48467 70262 8622/ 333 00012 10169 59009 69947 86808 87456
AAXX 21124 43475 22470 73603 10270 20238 30064 40073 85236 333 10288 59014 60007 84818 86280
AAXX 21124 43476 21440 83202 10175 20172 38745 48488 76266 8522/ 333 10197 59011 69987 85811 88459
AAXX 21124 43479 21430 80507 10200 20194 39236 71088 8676/ 333 10210 59011 69967 86712 87350
AAXX 21124 43486 21360 70000 10256 20244 39969 40063 70282 8597/ 333 00023 10/// 59007 69917 84808 81916 86456
AAXX 21124 43495 21460 8//// 10252 20237 30057 40073 78088 8497/ 333 10285 58011 60037 82817 82919 88458
AAXX 21124 43497 21474 80511 10272 20231 30044 40062 70382 8311/ 333 10298 59011 60007 83818 88460
AAXX 21124 91245 32566 40713 10270 20230 30147 91155 555 92112
AAXX 21121 22282 415// 82606 11005 21023 30074 40082 53002 70282 885//
AAXX 21121 22438 42570 62205 10007 21010 30090 40112 52009 86900
AAXX 21121 22471 41484 82106 11007 21019 30101 40125 52011 70282 8553/ 333 85518
AAXX 21121 22563 42462 82002 11023 21032 30110 40149 51003 885// 333 88613
AAXX 21121 22641 41699 81702 10002 21015 30119 40135 52003 70282 885// 333 88636 91105
AAXX 21121 22695 41298 81801 11077 21083 30039 40199 57004 70272 886// 333 88706
AAXX 21121 22867 41497 81202 11063 21078 30044 40162 57008 77187 8872/ 333 86713 91105
AAXX 21121 22939 41396 80802 11056 21067 39963 40130 57008 77172 8872/ 333 84709
AAXX 21121 22996 41998 71703 11078 21100 30023 40221 57012 70272 87070
AAXX 21121 23324 41480 82304 11068 21097 30118 40198 58004 70273 886// 333 88716
AAXX 21121 27008 41497 80901 11046 21049 39943 40118 57010 77172 8672/
AAXX 21121 27051 41395 81002 11076 21085 39989 40163 57015 77377 8652/ 333 84707
AAXX 21121 27225 41459 81402 11046 21066 39988 40122 57008 77172 8872/ 333 88717
AAXX 21121 27252 41475 81603 11063 21082 39972 40164 57009 70272 885// 333 88617
AAXX 21121 27333 41480 81604 11054 21072 39980 40143 57004 70272 887//
AAXX 21121 27369 41680 81604 11067 21095 30051 40194 57002 70273 885//
AAXX 21121 27393 41498 82006 11067 21118 30078 40253 57011 73632 8267/ 333 91113
AAXX 21121 27479 41581 81504 11072 21101 30074 40213 57008 77173 885// 333 88621
AAXX 21121 27532 41296 81603 11053 21060 39917 40136 57003 77172 8872/
AAXX 21121 27648 41296 81502 11052 21062 39984 40158 57008 77175 886// 333 88706
AAXX 21121 27675 41497 81508 11075 21097 30046 40224 57009 73732 885// 333 88616
AAXX 21121 27679 41498 81406 11083 21106 39997 40231 57002 73632 885// 333 88619
AAXX 21121 28214 41999 81505 11059 21107 30059 40280 57016 73632 8807/
AAXX 21121 34560 42597 81408 10007 21040 30017 40186 52016 885// 333 88620
AAXX 21121 34720 41598 81003 10066 20037 30060 40099 57010 70262 885//
AAXX 21121 34730 41597 80904 10070 20055 30014 40105 57006 72582 8235/
AAXX 21121 34740 41596 81203 10071 20056 30034 40129 52004 78022 889//
AAXX 21121 34824 41596 82201 10077 20066 30110 40115 53018 78082 883//
AAXX 21121 34858 41/93 91203 10049 20045 30039 40147 50009 74542
AAXX 21121 34866 42998 81307 10051 20016 30170 40161 55001 8007/ 333 88300
AAXX 21121 34880 41995 81005 10014 21091 30230 40203 58015 73132 8802/ 333 88400 91117
AAXX 21121 37018 41597 82409 10135 20074 30064 40129 53009 78082 8697/
AAXX 21121 37054 42698 83101 10045 20027 39761 40145 53007 82534
AAXX 21121 37472 41596 71405 10081 20053 30142 40120 55002 71022 86571 333 91016 91117
AAXX 21121 22165 42598 81404 11002 21010 30013 40075 52012 885//
AAXX 21121 22676 42582 81803 11050 21063 30095 40175 57006 885//
AAXX 21121 22837 42365 80902 11042 21061 30067 40139 57008 886// 333 88708
AAXX 21121 22954 41333 81002 11070 21083 39890 40149 57010 77374 8572/ 333 85709
AAXX 21121 23405 41473 81804 11065 21097 30076 40179 52005 73632 885// 333 88612
AAXX 21121 23412 41499 81704 11083 21111 30095 40197 53004 70272 883// 333 83918
AAXX 21121 23803 41597 81502 11086 21105 30063 40251 56010 78583 889// 333 88928
AAXX 21121 27066 41295 81602 11075 21084 39999 40184 57010 77373 8872/ 333 88705
AAXX 21121 27083 41599 71903 11074 21100 39979 40212 57014 70272 87500
AAXX 21121 27113 41443 81102 11053 21063 39979 40130 57009 77372 8372/
AAXX 21121 27242 41370 81502 11058 21073 30013 40146 57008 70282 889// 333 88709
AAXX 21121 27329 41432 81604 11044 21056 39999 40128 57004 77372 8472/
AAXX 21121 27355 42497 81603 11056 21074 30011 40182 58010 885//
AAXX 21121 27373 41499 81406 11079 21101 39980 40208 56006 73673 885// 333 88618
AAXX 21121 27665 42497 81404 11074 21099 39914 40196 57008 886// 333 88712
AAXX 21121 27835 41345 81304 11022 21028 39977 40139 54000 71022 886// 333 88707
AAXX 21121 28009 41998 81904 11066 21107 30034 40253 57013 73673 8802/
AAXX 21121 28411 41697 81409 11060 21128 30107 40310 57013 73632 8557/ 333 91112
AAXX 21121 28418 41599 81805 11055 21137 30144 40318 57022 73632 885// 333 88626
AAXX 21121 78458 21466 60000 10208 20193 40204 52013 70361 83830 333 10272 20196 31/// 56000 58003 60046 70056 83618 83358
AAXX 21121 78460 21458 50603 10194 20191 40200 52017 76044 85500 333 10264 20180 31/// 56100 58007 69900 70020 85616
AAXX 21121 78467 21466 504405 10234 20190 40191 5//// 702// 84201 333 10260 20200 31/// 56200 58005 69932 70035 84815
AAXX 21121 78479 32466 50708 10250 20176 40166 52009 82204 333 10268 20230 30/// 56100 58005 70038 82818 85080
AAXX 21121 78482 32466 52702 10190 20165 40196 5//// 82256 333 10302 20162 30/// 56000 59001 82817 85280
AAXX 21121 78485 32466 40403 10192 20174 40184 52008 82235 333 10270 20185 31/// 56000 59004 70017 82818 83357
AAXX 21121 78486 32466 63402 10208 20184 40176 52015 83206 333 10271 20207 31/// 50233 56200 58008 70037 83818 85280
AAXX 21121 78488 32466 73603 10182 20179 40188 5//// 82876 333 10257 20158 30/// 56000 59001 70058 82616 85280
AAXX 21121 02935 47479 71601 11004 21013 39936 40112 52009 70000 87/// 91139
AAXX 21124 78951 11578 31114 10275 20186 30136 40151 60012 7018/ 83100 333 10298 20235 59007 70013 83820
AAXX 21121 78458 21466 60000 10208 20193 40204 52013 70361 83830 333 10272 20196 31/// 56000 58003 60046 70056 83618 83358
AAXX 21121 78460 21458 50603 10194 20191 40200 52017 76044 85500 333 10264 20180 31/// 56100 58007 69900 70020 85616
AAXX 21121 78467 21466 504405 10234 20190 40191 5//// 702// 84201 333 10260 20200 31/// 56200 58005 69932 70035 84815
AAXX 21121 78479 32466 50708 10250 20176 40166 52009 82204 333 10268 20230 30/// 56100 58005 70038 82818 85080
AAXX 21121 78482 32466 52702 10190 20165 40196 5//// 82256 333 10302 20162 30/// 56000 59001 82817 85280
AAXX 21121 78485 32466 40403 10192 20174 40184 52008 82235 333 10270 20185 31/// 56000 59004 70017 82818 83357
AAXX 21121 78486 32466 63402 10208 20184 40176 52015 83206 333 10271 20207 31/// 50233 56200 58008 70037 83818 85280
AAXX 21121 78488 32466 73603 10182 20179 40188 5//// 82876 333 10257 20158 30/// 56000 59001 70058 82616 85280
AAXX 21121 08521 32470 50403 10204 20116 30245 40316 52010 85800 333 84818
AAXX 21121 08524 32470 41205 10190 20121 30219 40317 52012 84800 333 83815 91109
AAXX 21124 87344 31960 03606 10278 20134 39513 40032 58008 70500 333 10318 20219
AAXX 21124 87349 31960 00205 10264 20115 39669 40044 51003 70500 333 10320 20212 30018
AAXX 21124 87371 31562 60513 10282 20140 30054 40074 52004 70292 82570 333 10329 20263 56260 82625 84360
AAXX 21124 87374 01665 60210 10254 20145 39988 40072 50005 69904 70198 83520 333 10306 20243 56770 69901 83635 85550
AAXX 21124 87395 01965 61410 10254 20183 30048 55035 60024 70196 83076 333 10300 20219 56055 83360 83270
AAXX 21124 87418 32965 02007 10252 20058 39272 40032 52019 333 10305 20244
AAXX 21124 87436 32970 02304 10238 20076 39241 40011 52017 333 10336 20210
AAXX 21124 87448 32965 12310 10266 20153 39473 40006 51007 80002 333 10293 20182 56002 81070
AAXX 21124 87453 12965 03617 10272 20119 39542 40010 57008 60034 333 10272 20214
AAXX 21124 87467 32970 50515 10281 20159 39910 40039 50001 82076 333 10290 20205 30000 56055 82360 83270
AAXX 21124 87480 NIL
AAXX 21124 87497 01665 83610 10254 20160 30064 40090 53007 60114 71562 81576 333 10307 20198 56059 60112 81640 87360
AAXX 21124 87506 32970 02702 10188 20021 38534 48460 50004 333 10250 20067 95000
AAXX 21124 87509 31960 01410 10228 20081 39234 40052 51008 70600 333 10280 20178 30015 90010 90075 90085
AAXX 21124 87534 31560 73619 10251 20126 39869 40023 50003 71791 87900 333 10301 20217 30017 56800 57991 85630 83940
AAXX 21124 87548 01660 60511 10247 20150 39954 40047 52013 69954 70296 86873 333 10263 20202 56666 69951 85640 84360
AAXX 21124 87576 32960 71608 10277 20148 30066 40090 50024 86075 333 10282 20250 56055 86360
AAXX 21124 87582 32960 71605 10260 20164 30080 40087 52017 85076 333 10285 20243 56033 85360 87270
AAXX 21124 87585 32560 70506 10266 20160 30058 40086 53017 84836 333 10285 20241 30021 56100 82820
BBXX 44067 21121 99384 70770 46/// /2304 10119 40159 56011 91200
BBXX 44033 21121 99441 70690 46/30 /2010 10061 40190 57015 91204 22200 00068 10502 70010 333 91212 555 11125 22133
BBXX 44060 21121 99413 70721 46/// ///06 10093 40193 91200 22200 00100 333 91207 555 11062 22067
BBXX 46111 21121 99481 71227 46/// /3307 10075 40294 51016 91200 22200 00055
BBXX 46112 21121 99481 71227 46/// /2002 10052 40297 51016 91200
BBXX C6SI6 21124 99317 11211 46/// /3411 10069 20030 40281 51011 7//// 8//// 22221 0//// 2////
BBXX DGDD 21121 99339 11378 41/98 63105 10120 20039 40205 54000 70122 86/// 22213 00180 2//// 3//// 4//// 5//// 80080
BBXX DQVG 21123 99313 11295 41/98 73514 10138 20053 40135 51005 75052 86/// 22274 20404 3//// 4//// 5//// 80098
BBXX OZBY2 21124 99306 11303 41/// /0608 10130 20090 40200 54000 7//66 8//// 22214 00220 20406 3//// 4//// 5//// 6//// 80110 ICE /////
BBXX UHFW 21121 99476 11415 42998 03605 11010 40194 54000 22273 06040
BBXX V7QN8 21123 99311 11226 41296 30010 10090 20070 40260 54/// 70322 83490 22200 04100 20601 300// 40601 5//// 6//// 80080 ICE /////
BBXX WDB3161 21124 99374 11432 41698 80605 10060 20000 40209 58009 75052 886// 22253 00182 20201 3//// 4//// 5//// 6//// 80035 ICE /////
BBXX ZCAS2 21123 99318 11344 41698 62908 10142 20061 40194 54000 78086 8217/ 22283 00228 20101 307// 40202 80103
AAXX 21121 13463 32670 22902 10082 20001 30076 40136 57023 82200
AAXX 21121 13459 32670 22302 10016 21009 39375 40151 58014 81201 333 47011 81896
AAXX 21121 13461 32670 60203 10096 20008 30124 40132 57016 81210 333 81833 86460 92333 92438 92513
AAXX 21121 13363 32968 81102 11020 21051 39229 48436 57008 8802/ 333 43006
BBXX SBLI 21121 99300 11660 43/98 83410 10188 40178 53025 22264 00223 2//// 4//// 426621110
AAXX 21124 41529 12997 03103 10139 21032 39807 40195 60002 333 10168 59009 60007
AAXX 21124 60395 11458 80000 10125 20106 40240 58004 60021 70162 8527/ 333 0//12 82710 83840 86460 95900
AAXX 21124 60421 11558 72718 10081 20043 39157 48499 58010 60011 70362 872// 333 0//12 87830 95900
AAXX 21124 60423 11556 83024 10070 20068 39209 48477 58003 60121 76062 888// 333 0//11 82820 83833 87640 95900
AAXX 21124 60430 12560 52810 10100 20058 40277 50005 60001 85800 333 0//00 83820 84633 95990
AAXX 21124 60437 11315 82202 10050 20041 39037 48531 50007 60001 71022 888// 333 83706 83813 85626 95980
AAXX 21124 60444 11560 80000 10082 20061 39131 48538 51005 69931 72166 888// 333 0//11 83826 86830 95900
AAXX 21124 60452 12560 4//// 10171 20040 40261 58007 60001 81202 222// 20000 333 81820 83073 91826
AAXX 21124 60457 12565 32408 10168 20068 40269 58004 60001 81201 333 81820 83073 95900
AAXX 21124 60514 12560 53016 10090 20052 39341 48565 58006 60001 85500 333 0//00 85626 95900
AAXX 21124 60518 12965 62404 10179 20053 40259 58001 60001 80002 222// 20000 333 0//00 86073 91807 95900
AAXX 21124 60520 12965 32607 10155 20009 40271 50005 60001 80002 333 83073 95900
AAXX 21124 60540 12975 20000 10114 21011 39085 48542 58003 60001 80001 333 82073 95900
AAXX 21124 60560 12970 10000 10132 21055 39032 48572 53002 60001 80002 333 81073 95900
AAXX 21121 50844 32962 23406 11123 21260 40227 52024 80002
AAXX 21121 50854 32970 00000 11153 21184 40203 52004
AAXX 21121 50968 32662 72503 11102 21163 40211 52004 875//
AAXX 21121 51379 32970 02201 11209 21236 40536 52002 333 05600
AAXX 21121 51467 32980 01603 11075 21171 38356 52014 333 05154
AAXX 21121 51495 32980 00000 11075 21177 40459 52005 333 00152
AAXX 21121 53480 32980 02705 11132 21208 40412 52008
AAXX 21121 53673 32980 00201 11048 21166 40373 52013
AAXX 21121 53698 32963 00000 11002 21145 40339 52020
AAXX 21121 53898 31956 03603 10039 21102 40333 52027 70500
AAXX 21121 54308 32980 03404 11101 21223 40351 52010 333 91119 91532
AAXX 21121 54602 32963 02701 11024 21151 40332 52019
AAXX 21121 54725 31957 03601 11026 21121 40333 52025 71000
AAXX 21121 54751 32580 13207 10015 21106 40293 52026 81100 333 91117 91532
AAXX 21121 54916 32961 63202 10020 21066 40320 52020 80002
AAXX 21121 57014 32965 01401 11006 21085 40361 52024 333 00754
AAXX 21121 57025 32963 00203 10007 21104 40370 52024
AAXX 21121 57046 32964 02704 11100 21137 38008 52017 333 00557
AAXX 21121 58208 31958 73601 10024 20017 40313 52021 71000 8703/
AAXX 21124 41529 12997 03103 10139 21032 39807 40195 60002 333 10168 59009 60007
AAXX 21121 40700 11958 53303 10090 20017 30110 40201 56015 60001 70511 80006 333 85267
AAXX 21121 40723 12960 30603 10044 21068 38955 40279 56014 60001 80005 333 83269
AAXX 21121 40726 11658 60000 10032 21008 38701 40262 57022 60001 70522 82202 333 82840 86070
AAXX 21121 40727 12960 20000 10110 21004 38520 40252 52017 60001 80002 333 82070
AAXX 21121 40734 11958 60903 10102 20063 30224 40198 57016 60001 70521 83036 333 83630 85270
AAXX 21121 40737 12960 00403 10104 20065 30183 40201 56012 60001 333
AAXX 21121 40741 12962 00903 10046 21164 30003 40360 56016 60001 333
AAXX 21121 40780 12962 21504 10156 21098 38732 40222 56010 60001 80001 333 82070
AAXX 21121 40791 12965 00000 10124 21112 39428 40276 56020 60001 333
AAXX 21121 40792 12970 03003 10064 21169 38778 40289 50000 60001 333
AAXX 21121 40794 12960 20000 10220 20057 30116 40214 56019 60001 80001 91145 333 82070
AAXX 21121 40812 12960 00000 10224 21023 39822 40198 57016 60001 333
AAXX 21121 40829 11957 00602 10077 21327 39687 40286 57017 60001 70633 333
AAXX 21121 40833 12960 00000 10230 20043 30190 40222 56017 60001 91150 333
AAXX 21121 40835 12960 00000 10204 21085 39385 40224 55009 60001 333
AAXX 21121 40845 12960 03403 10194 20134 30201 40206 57017 60001 91145 333
AAXX 21121 40882 12965 00902 10238 20002 30163 40198 56017 60001 333
AAXX 21121 40889 12960 00611 10230 20102 30195 40200 56014 60001222// 00247 20304 333
AAXX 21121 40890 11950 00607 10234 20024 30179 40187 57021 60001 70700 222// 00230 20303 333
AAXX 21121 40893 12962 02304 10231 20044 30190 40196 57014 60001 222// 00225 20401 333
AAXX 21121 40897 15960 01503 10228 21134 30177 40191 56017 60001 333
BBXX TESTFR9 21124 99489 70023 46/// /3029 10114 29100 40248 22274
BBXX BAREU63 21124 99377 10166 46/// /0511 10115 29080 40041 57010 22263
BBXX BAREU00 21124 99504 70060 46/// ///// 40246 52033 22243
BBXX BAREU51 21124 99404 10118 46/// ///// 40136 57013 22235
BBXX BAREU12 21124 99535 10099 46/// ///// 40122 52010 22222
BBXX A8XY2 21124 99430 70296 41797 21834 10158 20137 40200 57025 70111 8//7/ 22263 04150 20507 323// 40906 80145
BBXX BAREU62 21124 99383 10248 46/// ///// 40151 57016 22214
BBXX BATFR04 21124 99584 70062 44/96 82229 10107 20095 40039 56016 76066 8/7// 22200 00102 2//02
BBXX BATFR09 21124 99382 70099 46/// /0114 10167 20127 40324 58001 22243 00177
BBXX BATFR16 21124 99389 70302 44598 11525 10182 20154 40235 55010 70100 81120 22254 00180 21402 318// 41402 5////
BBXX BATFR03 21124 99499 70005 46/// /3124 10130 20117 40204 51030 22244
BBXX BATFR11 21124 99401 10100 46/// /3024 10130 20059 40146 58001 22283 00179
BBXX BATFR12 21124 99481 70066 46/// /3418 10125 20112 40281 50001 22271 00144
BBXX BATFR46 21124 99390 10007 44/97 13116 10159 20092 40239 58002 701// 8//// 22213 00167 22002
BBXX BATFR52 21124 99489 70023 46/// /2929 10120 20114 40231 22274 00112
BBXX 61001 21124 99434 10078 46/// /2709 10123 20066 40160 57008 22200 00147 10702 70009
BBXX BATEU04 21124 99583 10055 46/// /3508 10054 20009 40121 51024 22273
BBXX BATFR01 21124 99348 10260 46/// /2311 10172 20075 40163 56016 22262 00192
BBXX BATFR27 21124 99507 70010 46/// /2917 10129 20102 40192 22225 00100
BBXX BATUK01 21124 99577 70031 46/// /1910 10052 20032 40078 58018 22200 00072
BBXX 61002 21124 99421 10047 46/// ///21 10128 2//// 40214 57012 22200 00138 10705 70025 555 1/028
AAXX 21121 40716 12960 31002 10096 20003 38956 40247 57019 60001 80002 333 83068
AAXX 21121 40719 11935 53203 10112 20079 30199 40188 56017 60001 71020 80006 333 85266
AAXX 21121 40721 12960 41509 10142 21134 39656 40200 56010 60001 80001 333 84070
AAXX 21121 40858 12960 03303 10208 20086 30198 40209 56016 60001 333
AAXX 21121 40872 12962 01802 10248 20036 30196 40201 56010 60001 222// 00232 20301 333
AAXX 21121 40877 12960 01204 10186 21148 39646 40200 56020 60001 333
AAXX 21121 40898 NIL
BBXX TBWUK03 21123 99297 70153 41498 20714 10197 20148 40299 52010 70200 81140 22243 20401 306// 40803 5//// 80166
BBXX A8GU5 21124 99109 50330 41598 40918 10270 20198 40150 53/// 70322 83271 22214 21003 80220
BBXX BATFR56 21124 99198 30571 44698 70818 10259 20224 40124 56014 70222 8772/ 22213 00277 20502 324// 40502 5////
BBXX BATFR45 21124 99099 10581 46/// ///// 10269 20220 40111 55012 22213 00287
BBXX BATFR55 21124 99087 30433 44597 83510 10290 20249 40094 70322 86726 22262 00297 20602
BBXX DILS 21124 99041 10029 41497 22407 10309 20266 40112 58008 70200 82100 22200 04290 20101 322// 40101 80278
BBXX DGPT2 21124 99149 70268 41598 31815 10250 20183 40150 52015 70200 8214/ 22214 00250 20603 80205
BBXX A8FA5 21123 99048 70099 41398 40000 10310 20242 40125 53005 7//22 84778 22274 20000 326// 40501 5//// 80260
BBXX A8IQ2 21120 99176 10612 41598 21309 10270 20221 40140 54000 71565 81180 22253 20604 314// 41003 5//// 80235
BBXX A8QJ7 21124 99167 70216 41/98 /0407 10250 20235 40154 50012 70200 8/1// 22213 06250 2//// 3//// 4//// 5//// 80240
BBXX IDDUK02 21124 99547 50385 46/// ///// 40016 222//
BBXX BAREU05 21124 99461 70731 46/// ///// 40151 57011 22252
BBXX BAREU54 21124 99113 70810 46/// ///// 40086 52004 22213
BBXX BAREU04 21124 99496 70469 46/// ///// 49962 52044 22253
BBXX BAREU11 21124 99303 70551 46/// ///// 40263 52010 22214
BBXX C6CU6 21123 99274 70650 41597 70813 10203 20165 40281 51002 70222 86561 22263 04240 21007 301// 41506 5//// 80180
BBXX BAREU06 21124 99460 70549 46/// ///// 40168 52027 22224
BBXX BATFR14 21124 99342 70379 44597 40007 10199 20157 40199 51021 70200 84299 22214 00210 20502 312// 40906 5////
BBXX BATEU05 21124 99583 70369 46/// /3219 10012 21003 49905 53042 22222
BBXX FVNM 21124 99072 70797 46/// /3309 10257 20232 40090 51011 22211 00265
BBXX 41101 21124 99146 70562 46/// /0522 10264 20216 40146 52016 22200 00271 10704 70022 555 1/026
BBXX BATEU08 21124 99607 70486 46/// /3308 11041 21075 49932 50006 22273
BBXX DDLK 21123 99461 70422 41698 52734 10050 20003 40051 52011 70222 85600 22224 20408 327// 40608 80030
BBXX VRVB5 21124 99417 70669 41498 81109 10040 21015 40210 5/090 70202 88080 22214 00110 20303 310// 40302 80020
AAXX 21121 60370 36/// /2704 10164 20109
AAXX 21121 60371 36/// /2004 10158 20118
AAXX 21121 60372 36/// /2906 10127 20127
AAXX 21121 60373 NIL
AAXX 21121 60374 NIL
AAXX 21121 60376 NIL
AAXX 21121 60379 NIL
AAXX 21121 60380 NIL
AAXX 21121 60381 NIL
AAXX 21121 60393 NIL
AAXX 21121 60394 NIL
AAXX 21121 60593 NIL
AAXX 21121 60595 NIL
AAXX 21121 60605 NIL
AAXX 21121 60613 NIL
AAXX 21121 60623 NIL
AAXX 21124 60624 36/// /0000 10171 21026
AAXX 21124 60639 NIL
AAXX 21124 60645 36/// /0000 10167 21087
AAXX 21124 60467 12665 62820 10130 20077 40237 58002 60001 85830 333 0//00 85833 95900
AAXX 21121 08501 32370 4//// 10184 20157 30174 40211 5//// 84800 333 81707 555 50004 60007
AAXX 21121 08505 32468 61510 10179 20144 30211 40260 51001 82830 333 81813 85357 555 50004 60007
AAXX 21121 08506 32/// /1609 10180 20145 30193 40265 52002 333 91018 91118 555 50004 60005
AAXX 21121 08509 32460 41508 10170 20149 30212 40277 58001 83840 333 81816 83648 91112 555 50004 60007
AAXX 21121 08511 32570 61504 10172 20139 30173 40281 52002 86800 333 85820 91007 91108 555 50004 60005
AAXX 21121 08512 32475 51407 10177 20134 30203 40288 52001 858// 222// 0//// 333 81818 85645 91111 555 59914 60005
AAXX 21121 08515 NIL
AAXX 21121 08521 32470 50403 10204 20116 30245 40316 52010 85800 333 84818 555 50004 60007
AAXX 21121 08522 32570 20904 10197 20100 30241 40310 52007 82500 222// 00203 313// 40302 333 82630 91007 91108 555 50004 60005
AAXX 21121 08524 32470 41205 10190 20121 30219 40317 52012 84800 333 83815 91109 555 50004 60005
AAXX 21121 08530 NIL
AAXX 21121 08531 32/// /0407 10150 20123 30287 40326 52002 555 50004 60005
AAXX 21121 08532 31565 43605 10156 20115 30160 40322 50004 7021/ 84200 333 84820 555 50004 60007
AAXX 21121 08533 32/// /3606 10158 20122 30286 40315 54000 333 91109 555 50004 60005
AAXX 21120 08534 32570 19901 10174 20124 30302 40320 50005 81201 333 81825 555 50004 60007
AAXX 21121 08535 32470 29902 10171 20113 30226 40319 54000 82100 333 82816 91107 555 50004 60005
AAXX 21121 08537 32560 13405 10176 20118 30310 40314 50002 81100 333 81820 555 50004 60007
AAXX 21121 08540 31357 80303 10128 20114 30260 40330 50009 71022 885// 333 85709 86620 91005 91106 555 59914 60007
AAXX 21121 08541 32484 13604 10153 20115 30199 40319 52005 81101 333 81817 91107 555 50004 60005
AAXX 21121 08544 32360 10402 10140 20104 30303 40324 58005 81600 333 81709 555 50004 60007
AAXX 21121 08545 31360 10501 10134 20097 30243 40327 57004 70100 81600 222// 00146 333 81709 91105 555 59914 60005
AAXX 21121 08548 32/// /3101 10107 20103 30120 40329 54000 555 50004 60005
AAXX 21121 08551 31962 19902 10136 20117 30268 40327 57006 70200 80001 333 81099 555 59964 60005
AAXX 21121 08554 31970 13003 10178 20103 30297 40307 58007 70200 80001 333 81075 91105 555 50004 60005
AAXX 21121 08558 31350 63502 10101 20101 30018 40318 50000 71042 86600 333 86708 555 50004 60005 96644 90313
AAXX 21121 08560 31980 09901 10141 20069 39561 40317 52002 70200 555 50004 60005
AAXX 21121 08561 31020 13303 10118 20100 30079 40314 50004 74040 81600 333 81701 555 50004 60007 96640
AAXX 21121 08562 12/// /1002 10105 20080 30017 40317 52004 69911 555 59914 60005
AAXX 21121 08567 31006 60000 10091 20087 39662 40337 52002 74244 84230 333 84700 555 50004 60005
AAXX 21121 08568 32/// /9903 10147 20026 38758 48631 52006 333 91105 555 50004 60005
AAXX 21121 08570 31880 10203 10162 20082 39850 40306 57003 70200 81041 333 81358 91106 555 50004 60005
AAXX 21121 08571 32/// /9901 10125 20083 39605 40311 52003 555 50004 60005
AAXX 21121 08575 31/01 99901 10042 20040 39512 40349 52002 74544 333 89/01 555 59914 60005
AAXX 21121 08579 31570 10201 10170 20111 30193 40318 52002 70200 81801 333 81820 91106 555 50004 60005
AAXX 21121 14235 12960 0//// 11017 21060 38976 48426 58006 60001 333 70000
AAXX 21121 14246 12670 31702 10016 21029 39946 40155 57011 60001 81531 333 70000
AAXX 21121 14314 12681 13102 10099 21051 30089 40154 58007 60001 81100 333 70000 92311 92418
AAXX 21121 14323 12682 11502 10090 21023 30119 40153 58008 60001 81102 333 70000 92322 92428
AAXX 21121 14324 12980 20904 11028 21076 38345 48451 58001 60001 80002 333 70000
AAXX 21121 14328 11658 11301 10013 21035 39754 40158 58014 60001 710// 81500 333 70000
AAXX 21121 14330 12970 03601 11063 21074 39485 40186 58009 60001 333 70000
AAXX 21121 14438 12684 10303 10079 21088 30047 40139 58015 60001 81102 333 70000 92312
AAXX 21121 14443 32699 232// 10096 20080 30034 40132 57013 82121 333 70000 92312
AAXX 21121 14447 12984 11202 10102 21035 30108 40139 58011 60001 80001 222// 00166 333 70000 92311
AAXX 21121 14472 NIL
AAXX 21124 60353 11456 82806 10134 20127 40231 50000 60221 76386 889// 333 0//61 84816 81926 86630 91855 95930
AAXX 21124 60367 NIL
AAXX 21124 60369 12559 62708 10176 20087 40242 58002 60001 85880 333 0//00 82826 83640 91836
AAXX 21124 60401 NIL
AAXX 21124 60403 11550 83408 10112 20092 40211 50001 60051 76162 888// 333 0//51 83820 87833 95960
AAXX 21124 60425 12560 42206 10140 20051 40274 58004 60001 82232 333 0//00 82830 83070 95900
AAXX 21124 60461 12570 51809 10170 20059 40266 58004 60004 81502 222// 20000 333 81626 85073 91828 95900
AAXX 21124 60467 NIL
AAXX 21124 60492 12968 30104 10156 20067 40267 50001 60001 80002 333 83073 95900
AAXX 21124 60515 12660 43212 10160 20069 40236 58008 60001 83830 333 0//00 83833 95900
AAXX 21124 60517 12970 72901 10182 20088 40276 58003 80002 333 0//00 87073 95900
AAXX 21124 60522 12975 52210 10160 20034 40289 58002 60001 80002 333 0//00 85073 95900
AAXX 21124 60557 12975 13010 10096 21040 38934 48571 50001 60001 80002 333 81073 95900
AAXX 21124 60563 12960 33308 10130 21012 39350 48549 50000 60001 80002 333 0//00 83073
AAXX 21124 60603 12960 22607 10136 21028 40267 58018 60001 80002 333 0//00 82073
AAXX 21124 60638 12960 0//// 10156 21007 40242 58013 60001 333 0//00
AAXX 21124 60686 12960 00108 10186 21026 40194 57009 60001 333 0//00
BBXX BATFR53 21124 99185 51767 46/// /0915 10279 20227 40112 58009 22222 00287
BBXX A8YW2 21124 99103 30803 41598 60814 10295 20245 40060 57015 70322 84839 22213 00270 20202 316// 40801 80260
BBXX BATEU07 21124 99260 31118 46/// /1822 10227 40128 51012 22284
BBXX BATFR35 21124 99167 51511 46/// /1310 10260 20209 40095 22262 00287
AAXX 21124 89022 42470 72404 11022 21063 39731 49768 57012 875// 333 11018 21049 87620
AAXX 21124 89062 41006 82103 11018 21023 39899 49940 57003 74540 886// 333 10039 21024 88700
AAXX 21121 48892 32598 60205 10269 20251 30096 40101 53020 82208 333 10307 58015 70000 82895 96299
AAXX 21121 23909 41396 81803 11079 21093 30007 40266 57011 77172 8872/
AAXX 21121 28044 41597 72303 11045 21137 30134 40303 57006 70172 87500
AAXX 21121 28116 42499 81503 11061 21125 30040 40282 57011 885//
AAXX 21121 28240 42598 82404 11019 21182 30004 40336 57007 8653/
AAXX 21121 28522 41998 82007 11059 21154 30105 40375 57010 8805/
AAXX 21121 28621 41998 81607 11072 21160 30125 40370 57011 73632 8803/
AAXX 21121 29023 11497 82603 11145 21172 30231 40335 52003 69922 78582 86351 333 11120 86917
AAXX 21121 29122 32999 52404 11144 21157 30277 40355 53001 82031 333 11128
AAXX 21121 29328 32998 62204 11159 21190 30247 40398 58001 83031 333 11149
AAXX 21121 29348 11596 82203 11140 21167 30234 40389 53002 69902 78582 8297/ 333 11139
AAXX 21121 29405 32597 82403 11126 21153 30258 40415 57006 8333/ 333 11126
AAXX 21121 29418 32598 82203 11146 21181 30247 40419 57004 82931 333 11146
AAXX 21121 29430 32998 82302 11155 21182 30227 40417 54000 80001 333 11145
AAXX 21121 29524 32998 82202 11158 21177 30252 40429 57003 80002 333 11157
AAXX 21121 29605 32998 82302 11133 21160 30283 40435 53001 80002 333 11121
AAXX 21121 29631 32997 82003 11183 21209 30241 40444 53001 8805/ 333 11171
AAXX 21121 29645 32598 81703 11136 21179 30246 40447 53003 885// 333 11133 88621
AAXX 21121 29706 32698 62404 11170 21196 30294 40455 53001 82501 333 11143
AAXX 21121 29736 32598 83603 11168 21194 30197 40470 53006 8255/ 333 11165
AAXX 21121 29937 32597 82104 11164 21206 30246 40489 54000 885// 333 11164
AAXX 21121 36034 NIL
AAXX 21121 36096 12997 72302 11232 21272 39676 40541 57004 69902 84032 333 11203 95090
AAXX 21123 87791 31565 32010 10207 20099 30058 40067 52008 70411 81509 333 10232 20170 56606 81620 99356
AAXX 21124 87078 01770 30902 10305 20216 39938 40084 52012 60054 72998 83100 333 10338 20230 56000 60052 83850
AAXX 21124 87244 31965 03413 10338 20186 39648 40019 5//// 70500 333 10338 20298
AAXX 21124 87393 31958 60505 10269 20160 30037 40099 52012 70410 86070 333 10300 20216 56040 86360
AAXX 21124 87416 32965 01618 10251 20053 39324 40033 51020 333 10311 20228 30020
AAXX 21124 87563 32565 62302 10245 20172 39998 40040 51007 84730 333 10307 20172 56210 84725
AAXX 21124 87640 01865 50510 10239 20168 39948 40055 50005 60034 702// 85070 333 10255 20188 31017 56070 60032 85358
AAXX 21124 87688 01962 73601 10233 20188 39918 40052 56005 60224 70382 87070 333 10233 20176 56080 60022 87360
AAXX 21124 87774 31960 02713 10117 20042 39076 48434 5//// 70711 333 10140 20038
AAXX 21124 87852 32584 22520 10078 20019 39521 40029 56008 82800 333 10080 20016 56600 81828
AAXX 21124 87593 32960 62305 10263 20150 30073 40099 52022 86070 333 10263 20215 56090 86360
AAXX 21124 87623 11930 51618 10228 20080 39834 40050 51009 60044 70710 83082 333 10296 20191 56066 83360
AAXX 21124 87641 32665 53610 10272 20129 39885 40051 55005 82280 333 10284 20187 30018 56650 57860 82834 83360
AAXX 21124 87645 32670 62905 10250 20127 39857 40055 56012 81280 333 10260 20180 56760 57872 81835 85360
AAXX 21124 87648 01660 73414 10257 20132 30044 40054 58019 69904 70196 82980 333 10261 20187 56770 57990 69901 82945 85360
AAXX 21124 87692 01558 30510 10214 20199 30060 40085 50005 60094 72996 81923 333 10222 20165 56666 57925 69981 81945
AAXX 21124 87715 32975 02005 10182 20037 39786 40098 52008 333 10238 20140
AAXX 21124 87750 NIL
AAXX 21124 87765 31558 53220 10094 20006 39137 48435 54000 70421 85500 333 10100 20066 56600 85620 96104 96120 99357
AAXX 21124 87784 31960 21809 10219 20010 30070 40093 51013 70422 81061 333 10290 20189 56000 81360 99355
AAXX 21124 87800 01675 80000 10089 20089 39705 40105 52013 60014 71652 88500 333 10127 20075 56600 60012 88634
AAXX 21124 87803 01480 82506 10053 20030 39162 40088 52015 60034 76066 8672/ 333 10086 20031 56669 60031 82715 84725
AAXX 21124 87828 32980 02510 10186 21032 30016 40066 50001 333 10245 20106 30010
AAXX 21124 87860 12580 53218 10138 20007 39977 40031 56010 69904 82136 333 10170 20095 56666 82825
AAXX 21124 87904 11680 52714 10092 21075 10092 21075 39761 40004 5//// 69904 702// 81475 333 10093 20024 56666 81640 83270
AAXX 21124 87909 32980 52315 10114 21010 39936 40009 50005 80008 333 10160 20058 56000 85270
AAXX 21124 87925 11680 62317 10096 20006 39960 49983 52011 69954 70252 81182 333 10096 20050 56559 81835 84360
AAXX 21124 87938 01460 83604 10055 20023 39890 49959 54000 60164 70265 887// 333 10080 20040 56799 60152 84718 88630
AAXX 21121 34357 42598 81404 10008 20002 30000 40157 53002 885//
AAXX 21121 34363 41597 81406 11032 21078 30062 40220 55001 73633 885// 333 92980
AAXX 21121 34545 41294 81606 10049 20049 30028 40139 53005 71065 886//
AAXX 21121 34579 42998 81205 11004 21106 30170 40214 57006 8005/ 333 91113
AAXX 21121 34838 41597 82002 10133 20079 30022 40115 53002 70282 83961
AAXX 21121 34927 42597 82405 10151 20065 30091 40127 53019 8695/
AAXX 21121 34949 42598 60102 10090 20035 39594 40129 53003 82530
AAXX 21121 37001 41497 82007 10102 20086 30084 40124 52006 72582 889// 333 91119
AAXX 21121 37031 41597 81601 10142 20066 39929 40117 56006 72582 889//
AAXX 21121 37061 41496 80102 10055 20037 39978 40144 53017 75152 886//
AAXX 21121 37085 41598 81307 10072 20042 30164 40190 53005 70232 8850/ 333 91118
AAXX 21121 37126 42699 62304 10066 21078 37918 48471 54000 83331
AAXX 21121 37171 41698 80605 10128 20097 30123 40141 58004 70182 83931
AAXX 21121 37228 42998 33102 10120 21031 39305 40113 53022 82052
AAXX 21121 37470 42598 70201 10087 20057 30135 40113 57013 85531
AAXX 21121 37663 42999 62804 10191 21131 38954 48458 56008 80009
AAXX 21121 48870 01498 83403 10229 20206 30125 40132 53010 60094 72162 888// 333 01023 10235 58014 60012 7009 4 83894 88696
AAXX 21121 48887 12998 70704 10267 20232 30084 40090 52012 69914 80008 333 00026 10293 58000 70001 87299
AAXX 21121 48877 12598 73604 10245 20215 30122 40127 53015 60064 878// 333 00025 10259 58013 70060 83895 8769 7
AAXX 21121 48920 32598 50209 10272 20256 30088 40091 53019 82208 222// 00283 2//03 333 10298 58015 70000 8289 5 85299
AAXX 21123 87016 32960 13204 10260 20186 39646 40041 51025 80005 333 10314 20217 56006
AAXX 21123 87896 32980 52513 10123 21006 39924 40018 5//// 83072 333 10180 2//// 56077 83360 84070
AAXX 21121 23914 41499 82304 11077 21103 30018 40287 57014 70272 8377/
AAXX 21121 23921 41597 81802 11062 21089 30158 40281 57007 70282 8697/ 333 86920
AAXX 21121 23955 32984 82402 11160 21177 30264 40330 53001 80001 333 11108
AAXX 21121 23966 12599 82601 11130 21157 30161 40294 52008 69922 885// 333 11110
AAXX 21121 28138 42999 72403 11070 21160 39738 40332 57010 83036
AAXX 21121 28224 42598 81904 11039 21157 30096 40317 57013 8555/
AAXX 21121 28255 42594 82502 11028 21132 30212 40345 57006 885// 333 88632
AAXX 21121 28440 42597 72102 11012 21183 30010 40369 57009 87500
AAXX 21121 28645 42997 82003 11086 21177 30115 40428 57004 8801/
AAXX 21121 28661 42997 82107 11110 21163 30344 40443 56004 86031
AAXX 21121 28722 41697 81806 11064 21148 30253 40391 57011 73632 82530 1/109
AAXX 21121 28748 42960 81803 11106 21159 30214 40471 54000 80006
AAXX 21121 28838 42997 62501 11186 21212 39968 40496 57006 80005
AAXX 21121 29231 32998 22101 11157 21170 30259 40363 57001 82030 333 11131
AAXX 21121 29313 32998 52102 11142 21163 30254 40385 57004 80002 333 11136
AAXX 21121 29612 32998 82102 11158 21177 30274 40439 57012 83032 333 11142
AAXX 21121 29638 32998 61903 11176 21202 30272 40453 58002 80001 333 11165
AAXX 21121 29838 32997 72202 11153 21187 30220 40474 53002 86031 333 11153
AAXX 21121 29846 12960 82005 11141 21176 30056 40472 53007 69902 84031 333 11135
AAXX 21121 36061 12698 80000 11134 21154 30049 40488 53003 69902 885// 333 11135
AAXX 21121 28049 41997 72104 11041 21136 30143 40313 57004 70273 87030
AAXX 21121 28144 42598 82202 11031 21155 30157 40319 57005 8357/
AAXX 21121 28319 42499 81902 11056 21145 30160 40331 57010 8357/
AAXX 21121 28321 42999 81605 11057 21140 30102 40315 57013 8802/
AAXX 21121 28334 42498 82204 11023 21167 30038 40351 57016 86570
AAXX 21121 28434 32998 81803 11015 21159 30104 40368 57010 8802/
AAXX 21121 28552 42598 62601 11102 21179 30302 40422 57004 83502
AAXX 21121 28666 42999 72005 11092 21158 30257 40443 57006 87010
AAXX 21121 28825 42997 82002 11067 21159 30236 40417 57008 8807/
AAXX 21121 29111 32998 62303 11139 21159 30263 40357 57003 82072 333 11116
AAXX 21121 29209 32998 82001 11129 21149 30247 40382 57011 8805/ 333 11119
AAXX 21121 29551 11497 82204 11119 21146 30213 40407 57002 69902 78583 883// 333 11117
AAXX 21121 29602 32998 82003 11150 21177 30285 40437 54000 8801/ 333 11127
AAXX 21121 29636 32598 52001 11179 21205 30210 40448 53004 85500 333 11150
AAXX 21121 29654 11598 81903 11144 21169 39792 40454 53010 69902 78583 8595/ 333 11141
AAXX 21121 29712 32998 02002 11176 21202 30297 40453 54000 333 11142
AAXX 21121 29724 32997 02102 11206 21231 30237 40463 57001 333 11182
AAXX 21121 29726 32998 82302 11174 21208 30281 40464 54000 80001 333 11171
AAXX 21121 29814 32999 22103 11194 21220 30311 40473 53002 80002 333 11160
AAXX 21121 29827 32697 22302 11200 21226 30309 40479 54000 82500 333 11184
AAXX 21121 29923 32999 82402 11180 21221 30177 40479 54000 8002/ 333 11166
AAXX 21121 29939 32997 82403 11129 21190 30176 40481 57003 8805/ 333 11121
AAXX 21121 35026 42998 61802 11126 21216 39789 40476 57008 80005
AAXX 21121 36021 32999 12303 11176 21210 30288 40486 54000 80001 333 11147
AAXX 21121 36022 32998 62001 11212 21224 30213 40505 53004 81031 333 11172
AAXX 21121 36038 32999 01301 11192 21218 30035 40523 53004 333 11144
AAXX 21121 36058 32699 80901 11083 21179 39934 40484 53008 885// 333 11070
AAXX 21121 36064 32999 80000 11069 21085 39846 40467 53003 8807/ 333 11032
AAXX 21121 36229 32999 10000 11256 21271 39276 40598 57004 80001 333 11239
AAXX 21121 36259 32999 20000 11269 21307 38382 48659 57005 80001 333 11220
AAXX 21124 71503 46/// /0905 11191 21217 39873 40154 58003 6///1 333 11172 21260 4/006 7////
AAXX 21124 71506 46/// /1505 11062 21121 39132 40014 56024 6///1 333 11099 21147 7////
AAXX 21124 71514 16/// /3611 11044 21074 39416 40118 52032 60001 333 10032 21045 55/// 20000 70000
AAXX 21124 71522 47/// /2002 11111 21130 39604 40105 58004 6///1 7//4/ 333 11117 21167 70003
AAXX 21124 71539 17/// /0113 11021 21042 39430 40128 53032 69931 7//4/ 333 10064 21021 55/// 20000 70003
AAXX 21124 71364 16/// /0907 11238 21264 39937 40075 56020 60001 333 11235 21257 4/026 70000
AAXX 21124 71374 46/// /2815 11111 21130 6///1 333 11004 21134 7////
AAXX 21124 71381 46/// /2010 11060 21112 6///1 333 11088 21127 70000
AAXX 21124 71387 16/// /1906 11092 21116 39725 40117 56008 60001 333 11105 21160 70000
AAXX 21124 71393 16/// ///// 11031 21053 38921 40209 53041 60001 333 10082 21031 4/007 70000
AAXX 21124 71915 11974 03416 11301 21347 39824 49909 51005 69901 77677 333 11305 21364 48043 55/// 79999 90983
AAXX 21124 71269 17/// /3317 11005 21011 69951 7//4/ 333 10032 21007 70018
AAXX 21124 71285 46/// /2805 11047 21059 6///1 333 10049 21050 7////
AAXX 21124 71622 16/// ///// 10021 20017 39740 40078 58023 60001 333 10009 21009 70000
AAXX 21124 71423 16/// /2801 11098 21129 30154 40164 50003 60001 333 11006 21135 70000
AAXX 21124 71434 16/// /3406 11188 21209 39962 40029 51029 60001 333 11026 4/009 70017
AAXX 21124 71437 46/// /3603 10022 21005 39994 40089 56023 6///1 333 10025 21001 7////
AAXX 21124 71421 16/// ///// 11167 21193 39370 40112 56008 60001 333 11105 21238 70000
AAXX 21124 71317 16/// /0401 11133 21151 30182 40231 51005 60001 333 10011 21147 70000
AAXX 21124 71320 16/// /0307 11244 21265 39961 49962 52008 60001 333 11196 21282 4/062 70000
AAXX 21124 71340 46/// /2607 11024 21036 6///1 333 10058 21028 7////
AAXX 21124 71341 16/// /0108 11003 21097 60001 333 10052 21032 70000
AAXX 21124 71342 16/// /0212 11036 21053 60001 333 10047 21036 70000
AAXX 21124 71344 16/// /3322 11022 21028 60001 333 10045 21031 70000
AAXX 21124 71347 16/// /3103 11117 21133 60001 333 21117 7////
AAXX 21124 71348 16/// /0802 11113 21125 60001 333 10059 21114 70005
AAXX 21124 71349 46/// ///// 11059 21070 6///1 333 10049 21075 7////
AAXX 21124 71465 46/// /0604 10060 20054 39850 40065 56017 6///1 333 10054 20038 7////
AAXX 21124 71478 16/// /3101 10057 20026 30188 40327 55000 60001 333 10080 20048 70000
AAXX 21124 71479 16/// /0107 10046 20023 30190 40313 58002 60001 333 10085 20046 70000
AAXX 21124 71482 46/// /0702 10020 30296 40335 51006 6///1 333 10089 20007 7////
AAXX 21124 71186 46/// /0604 11106 21139 6///1 333 11071 7////
AAXX 21124 71190 46/// /2915 11073 21104 6///1 333 11030 21085 7////
AAXX 21124 71667 16/// /2504 11025 21076 39775 40020 53002 60001 333 10004 21026 4/006 70000
AAXX 21124 71682 17/// /0000 11197 21210 39927 40166 53009 69931 7//4/ 333 11097 21205 70009
AAXX 21124 71752 16/// /0803 10047 20042 39871 40088 56021 60001 333 10027 20005 70000
AAXX 21124 71832 16/// /2004 11013 21017 39675 49999 53003 60001 333 11017 21024 4/047 70000 555 10100
AAXX 21124 71580 11974 00000 11344 21406 39995 40033 52015 69901 70277 333 11314 21368 46030 70004 90942
AAXX 21124 71581 16/// /2401 11021 21028 39613 40102 56012 60001 333 11027 4/001 70000
AAXX 21124 71737 16/// /0000 11115 21129 39597 40136 58005 60001 333 11090 21171 4/004 7////
AAXX 21124 71743 16/// /2517 11083 21106 39628 49843 53012 60001 333 11124 21160 70000
AAXX 21124 71748 16/// /3409 11034 21053 39777 40063 53019 60001 333 10021 21051 70000
AAXX 21124 71026 47/// /3211 11008 21032 39293 40151 6///1 7//4/ 333 21016 7////
AAXX 21124 71063 16/// /0706 11058 21088 30033 40134 57013 60001 333 11035 21090 70000
AAXX 21124 71066 12974 00000 11147 21178 39754 40185 50005 60001 333 11003 21147 44017 70000
AAXX 21124 43466 21470 60504 10278 20209 30055 40067 70382 84320 333 10286 58001 60007 84818 81920 84460
AAXX 21124 71421 16/// ///// 11167 21193 39370 40112 56008 60001 333 11105 21238 70000
AAXX 21124 71915 11974 03416 11301 21347 39824 49909 51005 69901 77677 333 11305 21364 48043 55/// 79999 90983
AAXX 21124 71107 16/// /1908 10051 20020 30202 40317 58004 60001 333 10083 20039 70000
AAXX 21124 71903 46/// /1906 10034 20009 30240 40290 6///1 333 7////
AAXX 21124 71228 17/// /3507 11042 21060 69951 7//4/ 333 10052 21042 70005
AAXX 21124 71956 16/// /1904 11012 21032 39839 40071 56014 60001 333 10002 21017 70000
AAXX 21124 71976 46/// /1010 11198 21219 39175 49803 55004 6///1 333 11192 21201 4/002 7////
AAXX 21124 71066 12974 00000 11147 21178 39754 40185 50005 60001 333 11003 21147 44017 70000
BBXX FLAO 2112/ 99764 70847 46/// ///// 11228 40010 57006
AAXX 21124 71832 16/// /2004 11013 21017 39675 49999 53003 60001 333 11017 21024 4/047 70000 555 10100
AAXX 21120 67586 32680 41001 10275 20112 38764 48486 84230 333 59002 84840 555 10285 29035
AAXX 21120 67597 32780 21005 10317 20122 39507 48493 82200 333 59001 82856 555 10325 29029
AAXX 21124 61970 16/// ///// 10307 20206 40104 60001 333 58008 555 60005
AAXX 21124 61972 16/// /2311 10297 20219 40091 60001 333 59001 90710 91120 555 60005
AAXX 21121 36034 32998 52103 11195 21221 30195 40499 57009 80002 333 11188
AAXX 21124 41314 36/// /0506 10228 20075 39658 40211 333 0E012 58003
AAXX 21121 28216 42899 82003 11062 21143 30004 40297 57011 8802/
AAXX 21121 28428 41598 82007 11052 21151 30173 40367 57009 73632 84501
AAXX 21121 28451 42996 81903 11063 21148 30221 40387 57005 8807/
AAXX 21121 28541 42984 72502 11031 21175 39879 40388 57008 84041
AAXX 21121 28655 42998 72307 11101 21170 30207 40445 57003 83032
AAXX 21121 28756 42997 82004 11122 21166 30316 40477 57002 8807/
AAXX 21121 29557 11497 82405 11104 21157 30126 40407 53004 69902 78583 883// 333 11076 85918
AAXX 21121 29625 32998 52303 11177 21203 30248 40444 57006 85030 333 11164
AAXX 21121 29813 32999 22002 11201 21227 30254 40452 53001 80002 333 11178
AAXX 21121 29822 32997 02002 11204 21237 30291 40472 54000 333 11180
AAXX 21121 29915 32998 32202 11211 21229 30305 40481 53001 80002 333 11177
AAXX 21121 36020 32998 32004 11186 21227 30263 40484 53009 82032 333 11177
AAXX 21121 08515 32575 61307 10185 20142 30171 40293 50001 86800 222// 00178 333 81823 86648 910// 911// 555 50004 60007 912//
AAXX 21124 60595 36/// /0000 11451
AAXX 21124 60381 36/// /2503 10166 20104
AAXX 21124 60639 36/// /0000 10151 21033
AAXX 21124 60605 36/// /3309 10161 21021
AAXX 21121 08515 32575 61307 10185 20142 30171 40293 50001 86800 222// 00178 333 81823 86648 910// 911//
BBXX 42362 21121 99278 70907 46/// /2109 10228 20211 40153 53007 91200
BBXX 42364 21121 99291 70881 46/// /2104 10222 20200 40156 91215
AAXX 21121 56146 32980 03601 10036 21206 36673 52016 333 05205
AAXX 21121 56444 32980 02704 11004 21120 36803 52018 333 00101
AAXX 21121 56492 11730 80401 10087 20062 39870 40287 52025 69901 76060 885// 333 00500
AAXX 21121 56571 32980 00204 10081 21017 38409 52023 333 00655
AAXX 21121 57799 32965 03402 10093 20026 30175 40266 52026
AAXX 21121 57866 32765 80205 10093 20002 30066 40279 52026 885//
AAXX 21121 57957 32760 70205 10126 20010 30045 40247 52027 875//
AAXX 21121 57993 32960 70201 10117 20027 30073 40244 52028 8704/
AAXX 21121 58027 31940 03201 10031 21046 30252 40306 52017 70500
AAXX 21121 58141 31915 23202 10049 21009 30276 40296 52015 70500 80002
AAXX 21121 58265 31915 03203 10062 20047 30271 40279 52010 71000
AAXX 21121 58472 11466 83610 10084 20055 30168 40264 52012 69901 70060 8317/
AAXX 21121 58477 11470 80202 10089 20058 30219 40264 52016 60011 70060 888//
AAXX 21121 58527 11660 80000 10088 20050 30192 40270 52014 69911 72160 885//
AAXX 21121 58633 11656 80705 10103 20070 30163 40265 52022 69901 76000 885//
AAXX 21121 58666 32562 73612 10104 20076 30142 40245 52020 8114/ 333 91118 91536
AAXX 21121 58725 32962 02501 10104 20043 39973 40242 52027
AAXX 21121 58921 32961 00701 10130 20094 39966 40217 52020
AAXX 21121 59082 31958 00901 10120 20063 30071 40221 52026 70500
AAXX 21121 59211 31856 80401 10155 20098 39996 40206 52018 70500 885//
AAXX 21121 59265 31958 70403 10174 20083 30062 40202 52019 70500 8703/
AAXX 21121 59293 32965 00204 10175 20054 30114 40200 52023
AAXX 21121 59501 32960 00701 10172 20148 30170 40191 52025
AAXX 21121 59663 32961 70704 10205 20082 30082 40190 52021 8704/
AAXX 21121 59838 32762 70205 10214 20168 30155 40165 52018 875//
AAXX 21121 59948 32470 70709 10181 20159 39685 40174 52016 878//
AAXX 21121 59981 32570 70704 10239 20218 30139 40146 52020 878//
BBXX 44100 21121 99363 70756 46/// ///// 1//// 91152 22200 00117 11202 21001 308// 41201 70008
BBXX 46249 21121 99338 71197 46/// ///// 1//// 91212 22200 00150 11303 21002 325// 41302 70013
BBXX 46248 21121 99461 71247 46/// ///// 1//// 91204 22200 00097 11407 21004 329// 41406 70036
BBXX 46244 21121 99409 71244 46/// ///// 1//// 91205 22200 00097 11308 20805 330// 41306 70040
BBXX 46241 21121 99330 71173 46/// ///// 1//// 91141 22200 00141 11402 20501 327// 41401 70009
BBXX 41115 21121 99184 70673 46/// ///// 1//// 91205 22200 11205 20903 335// 41203 70023
BBXX 42099 21121 99273 70842 46/// ///// 1//// 91157 22200 00230 10704 20704 70020
AAXX 21124 62309 32560 52903 10192 20098 40187 57014 85800
AAXX 21124 62325 32560 50303 10190 20131 40187 57018 85800
AAXX 21124 62332 31556 63204 10194 20133 40190 57014 70522 81106
AAXX 21124 62387 32960 73510 10176 20104 40192 57016 8702/
AAXX 21124 62452 32560 63507 10174 20110 40183 57018 86500
AAXX 21124 62459 31956 63215 10207 20143 40158 57018 70722 80008
AAXX 21124 62305 32960 02412 10168 20072 40197 57019
AAXX 21124 62306 32960 02614 10188 20028 40197 57017
AAXX 21124 62318 32560 63605 10193 20119 40187 57019 86800
AAXX 21124 62337 NIL
AAXX 21124 62366 32560 63209 10192 20089 40187 57017 82204
AAXX 21124 62393 32960 43412 10176 20051 40186 55020 80002
AAXX 21124 62405 32960 33003 10232 20066 40158 57023 80002
AAXX 21124 62414 32960 53610 10252 20045 40153 57024 80004
AAXX 21124 62417 32960 02805 10180 20055 40203 57020
AAXX 21124 62440 31956 52905 10192 20096 40182 57020 70522 85050
AAXX 21124 62463 31540 63614 10216 20141 40160 57023 70722 82270
AAXX 21124 62465 32960 63612 10220 20170 40148 57017 80008
AAXX 21124 62419 NIL
AAXX 21124 62420 32960 60000 10190 20070 40193 57026 80006
AAXX 21124 62432 32960 63304 10202 20043 40184 57022 80004
AAXX 21124 62435 32960 60411 10217 20045 40171 57020 80008
AAXX 21124 62455 32960 43108 10189 20120 40170 57015 80004
AAXX 21124 62458 31940 73207 10194 20135 40156 57016 70520 8701/
AAXX 21124 62476 32960 00310 10252 20181 40135 56018
AAXX 21124 62357 32560 62204 10204 20117 40184 57018 86800
AAXX 21124 62403 32560 52504 10212 20052 40165 57023 85500
AAXX 21124 62423 32960 63403 10194 20055 40200 57021 86010
AAXX 21124 62309 32560 52903 10192 20098 40187 57014 85800
AAXX 21124 62325 32560 50303 10190 20131 40187 57018 85800
AAXX 21124 62332 31556 63204 10194 20133 40190 57014 70522 81106
AAXX 21124 62387 32960 73510 10176 20104 40192 57016 8702/
AAXX 21124 62452 32560 63507 10174 20110 40183 57018 86500
AAXX 21124 62459 31956 63215 10207 20143 40158 57018 70722 80008
AAXX 21124 62420 32960 60000 10190 20070 40193 57026 80006
AAXX 21124 62432 32960 63304 10202 20043 40184 57022 80004
AAXX 21124 62435 32960 60411 10217 20045 40171 57020 80008
AAXX 21124 62455 32960 43108 10189 20120 40170 57015 80004
AAXX 21124 62458 31940 73207 10194 20135 40156 57016 70520 8701/
AAXX 21124 62476 32960 00310 10252 20181 40135 56018
AAXX 21124 62357 32560 62204 10204 20117 40184 57018 86800
AAXX 21124 62403 32560 52504 10212 20052 40165 57023 85500
AAXX 21124 62423 32960 63403 10194 20055 40200 57021 86010
AAXX 21124 62305 32960 02412 10168 20072 40197 57019
AAXX 21124 62306 32960 02614 10188 20028 40197 57017
AAXX 21124 62318 32560 63605 10193 20119 40187 57019 86800
AAXX 21124 62337 NIL
AAXX 21124 62366 32560 63209 10192 20089 40187 57017 82204
AAXX 21124 62393 32960 43412 10176 20051 40186 55020 80002
AAXX 21124 62405 32960 33003 10232 20066 40158 57023 80002
AAXX 21124 62414 32960 53610 10252 20045 40153 57024 80004
AAXX 21124 62417 32960 02805 10180 20055 40203 57020
AAXX 21124 62440 31956 52905 10192 20096 40182 57020 70522 85050
AAXX 21124 62463 31540 63614 10216 20141 40160 57023 70722 82270
AAXX 21124 62465 32960 63612 10220 20170 40148 57017 80008
AAXX 21124 62419 NIL
AAXX 21124 48384 31959 00000 10232 20184 39941 40133 51014 71000 333 10320 58004
BBXX 46240 21121 99366 71219 46/// ///// 1//// 91212 22200 00123 11202 21001 335// 41202 70011
BBXX 46237 21121 99378 71226 46/// ///// 1//// 91210 22200 00110 11404 21002 326// 41403 70020
BBXX 46212 21121 99408 71243 46/// ///// 1//// 91212 22200 00096 11408 21005 330// 41406 70039
BBXX 46217 21121 99342 71194 46/// ///// 1//// 91212 22200 00148 11302 20402 326// 41301 70010
AAXX 21124 78846 11574 70613 10250 20/// 30145 40184 69973 715// 83802 333 10271 20228 59003 83820 83640 86077
BBXX 46223 21121 99335 71178 46/// ///// 1//// 91200 22200 00150 11403 21001 327// 41402 70013
BBXX 46216 21121 99343 71198 46/// ///// 1//// 91157 22200 00143 11402 21002 327// 41402 70011
AAXX 21121 23226 41460 82108 11078 21105 39967 40190 54000 72287 885// 333 88614
AAXX 21121 23701 41459 82002 11083 21102 30079 40215 57009 77172 8671/ 333 86715
AAXX 21121 28909 42497 81506 11077 21143 30254 40361 57014 82532 333 91112
AAXX 21124 78846 11574 70613 10250 20/// 30145 40184 69973 715// 83802 333 10271 20228 59003 83820 83640 86077
BBXX 46211 21121 99469 71242 46/// ///// 1//// 91206 22200 00082 11407 21004 327// 41405 70033
AAXX 2112/ 89767 46/// ///// 10035 39700 4//// 5////
AAXX 21124 04203 46/// /1612 11156 21195 39993 40011 57006
AAXX 21124 04205 45/84 /3102 11179 21258 39996 40020 57003 333 91130 91223
AAXX 21124 04208 46/// /1010 11116 21177 39940 49986 57008
AAXX 21124 04213 46/// /1413 11129 21209 39862 49976 57008
AAXX 21124 04214 46/// /0404 11094 21160 39928 49961 57012
AAXX 21124 04224 45/84 /1009 11140 21232 39921 49954 57009
AAXX 21124 04228 NIL
AAXX 21124 04242 46/// /0612 11103 21159 39937 49953 52003
AAXX 21124 04253 46/// /0906 11076 21146 39917 49944 52008
AAXX 21124 04266 46/// /2907 11045 21072 39897 49935 52008
AAXX 21124 04285 46/// /3113 11041 21107 39918 49937 52013
AAXX 21124 04301 46/// ///// 11265 21304 30083 40088 57005
AAXX 21124 04313 46/// ///// 11142 21161 30101 40113 52002
AAXX 21124 04330 46/// /0140 11067 21079 39873 49890 57008 333 91052
AAXX 21124 04351 46/// /1801 11117 21182 39897 49913 57016
AAXX 21124 04373 46/// /3121 11097 21165 39810 49903 57006
AAXX 21124 04382 46/// /3405 11064 21148 39868 49917 52006
AAXX 21124 04416 46/// ///// 11503 21519 36473 57009
BBXX MINFR05 2112/ 99281 70154 46/// ///// 10200 40287 52003
BBXX 46231 21121 99327 71174 46/// ///// 1//// 91154 22200 00149 11302 21002 329// 41302 70012
BBXX 46222 21121 99336 71183 46/// ///// 1//// 91156 22200 00151 11402 21001 327// 41402 70010
BBXX 46242 21121 99332 71174 46/// ///// 1//// 91158 22200 00143 11401 20501 324// 41401 70007
AAXX 21124 89003 46/89 /2203 11063 29067 38958 4//// 5////
AAXX 21124 89507 46/89 /1412 11205 29059 36741 4//// 5////
AAXX 21124 89578 46/// /0507 11339 36840 4//// 5////
AAXX 21121 01059 41689 12003 11085 21098 30056 40066 52009 70200 81500 333 91104
AAXX 21121 50353 11968 82901 11205 21241 39954 40197 52001 69961 77077 8802/
AAXX 21121 50557 32962 32902 11235 21258 39880 40212 52013 80002
AAXX 21121 50756 11960 02902 11170 21185 39884 40207 52006 69901 70070
AAXX 21121 50949 32965 02904 11108 21221 30032 40214 52008
AAXX 21121 50963 32960 82702 11113 21162 30043 40191 52004 8802/
AAXX 21121 50978 32970 70701 11113 21155 39817 40188 54000 80002
AAXX 21121 51087 32980 01601 11218 21243 39442 40544 57002 333 05702
AAXX 21121 51156 32980 02901 11150 21207 38856 40502 52002 333 05502
AAXX 21121 51644 32960 71601 11044 21114 39094 40435 52005 80002 333 00051
AAXX 21121 51656 32970 52901 11043 21124 39276 40444 52009 80002 333 00152
AAXX 21121 51886 32980 60902 11071 21281 37113 52012 80002 333 05100
AAXX 21121 52602 32980 72705 11102 21269 37263 52012 80002 333 00057
AAXX 21121 52713 32980 20202 11080 21255 36898 52014 80002 333 00153
AAXX 21121 52754 32980 60703 11115 21177 36792 52015 80002 333 00153
AAXX 21121 52818 32980 01101 11061 21221 37235 52014 333 00051
AAXX 21121 52836 32980 01401 11142 21267 36888 52009 333 00157
AAXX 21121 52955 32980 02501 11116 21190 36967 52025 333 00154
AAXX 21121 53068 32980 02904 11166 21200 39173 40427 52010 333 00651
AAXX 21121 53276 32980 02705 11155 21202 38957 40425 52008
AAXX 21121 54135 32980 02905 11114 21242 30057 40297 52026
AAXX 21121 54236 32970 03204 11083 21228 30178 40290 52020
AAXX 21121 54539 32970 03403 11007 21227 30309 40324 52034
AAXX 21121 54662 32975 00202 11029 21159 30179 40298 52035
AAXX 21121 54753 32965 03405 10019 21131 30293 40300 52024
AAXX 21121 54857 32960 23406 10008 21059 30208 40305 52019 80002
AAXX 21121 57067 32962 00401 10007 21073 39657 40362 52025
AAXX 21121 57178 31920 70000 10045 20001 30158 40323 52021 71000 80002
AAXX 21121 57245 32761 81101 10089 20029 39959 40318 52029 8257/ 333 00601
AAXX 21121 57297 31950 80401 10049 21015 30171 40317 52019 71000 8807/
AAXX 21124 85394 32984 03604 10241 20213 39642 40074 52005 333 20190 30/// 59020
AAXX 21121 23219 41396 82008 11068 21088 30080 40189 58004 77173 8802/
BBXX 46221 21121 99339 71186 46/// ///// 1//// 91145 22200 00148 11402 21001 325// 41401 70009
AAXX 21121 91945 36/// /0614 10241 20210 30121 40126 58019 333 10301
AAXX 21121 89062 41006 82103 11018 21023 39899 49940 57003 74540 886// 333 10039 21024 88700
AAXX 21124 82143 31598 30308 10290 20250 40129 7010/ 83200 222// 80260 333 20256 58000
AAXX 21124 83117 31196 31801 10260 20233 40122 51009 7012/ 8664/ 222// 02210 20101 80240 333 20230
BBXX 62159 21124 99605 10017 41598 51704 10070 21027 40117 52010 70222 855// 22200 10903 70017
BBXX GHJV 21123 99350 70139 41397 60913 10185 20140 40330 52009 70222 861// 22261 02176 20302 30000 80159
BBXX 2AUO5 21123 99606 10016 41698 21709 10074 21017 40106 52011 7//11 8/15/ 22200 20903 80040
BBXX A8NW9 21124 99477 70147 41998 72213 10135 20125 40370 54000 70222 8703/ 22224 04120 20702 331// 41405 80129
BBXX 64045 21124 99591 70117 46/// /2327 10105 20098 49976 58005 22200 00101 10708 70039 333 90710 91137
BBXX 62442 21124 99490 70164 46/// /2317 1//// 2//// 40298 50003 22200 00125
BBXX 62029 21124 99487 70125 46/// /2616 10132 20112 40312 50010 22200 00129 10807 70036
BBXX 62105 21124 99554 70122 46/// /2424 10121 20104 40120 52002 22200 00105 10708 70040 333 90710 91132
BBXX 62081 21124 99510 70134 46/// ///// 10128 20104 40260 50006 22200 00120 10707 70036
BBXX 62163 21124 99475 70084 46/// /2915 10127 20107 40310 50008 22200 00127 10806 70028
BBXX 62001 21124 99452 70050 46/// /3014 10135 20110 40306 50009 22200 00141 10604 70021
BBXX 64046 21124 99605 70049 46/// /1527 10067 20045 40018 58042 22200 00079 10607 70033
BBXX 62301 21124 99524 70047 46/// /2615 10101 20090 40204 51017 22200 00085 10503 70014
BBXX 62303 21124 99516 70051 46/// /2914 10117 20100 40226 51018 22200 00111 10504 70021
BBXX AMOUK02 21124 99536 70050 46/// ///// 10112 20098 30154 4//// 50000 91150
BBXX AMOUK05 21124 99519 10041 46/// ///// 10059 20055 30123 40159 52007 91150
BBXX AMOUK08 21124 99501 70061 46/// ///// 10122 20109 30249 40255 52022 91150
BBXX AMOUK14 21124 99533 70062 46/// ///// 10118 20101 30160 40195 52045 91150
BBXX AMOUK06 21124 99512 10017 46/// ///// 10084 20076 30145 40159 52025 91150
BBXX AMOUK09 21124 99515 10019 46/// ///// 10087 20082 30149 40166 52015 91150
BBXX AMOUK19 21124 99602 70012 46/// ///// 10068 20015 30079 40083 57010 91150
BBXX AMOUK03 21124 99513 10032 46/// ///// 10070 20070 30131 40163 54001 91150
BBXX 63056 21124 99597 10016 47598 /1507 10058 21008 40103 50000 700// 22200 10804 70019
BBXX 63110 21124 99595 10015 47999 /1610 10059 21011 40112 58001 700// 22200 10704 70018
BBXX 63057 21124 99592 10015 47999 /1508 10061 21014 40113 58002 700// 22200 10805 70023
BBXX 62128 21124 99587 10014 47998 /1507 10076 21001 40117 58002 700// 22200 10704 70018
BBXX 62111 21124 99580 70003 46/// /1913 10068 20023 40112 58010 22200 10402 70010
BBXX PJAI 21124 99581 70014 47498 /1715 10074 20034 40095 58015 700// 22200
BBXX 62112 21124 99584 70002 47498 /1815 10068 20023 40109 58011 762// 22200
BBXX 63055 21124 99606 10016 47999 /1509 10060 21035 40101 58005 700// 22200 10703 70017
BBXX 63108 21124 99608 10017 47999 /1912 10052 21040 40095 58004 700// 22200 10904 70020
BBXX 63106 21124 99610 10017 46/// /2009 10059 40101 58004 22200
BBXX 63105 21124 99610 10017 47998 ///// 10066 21038 40100 58004 700// 22200
BBXX 63113 21124 99610 10017 46/// /1910 10062 21041 40101 58003 22200 10805 70023
BBXX 63112 21124 99611 10010 47698 /1812 10066 21048 40093 58006 700// 22200 10805 70023
BBXX 63107 21124 99611 10017 46/// /1911 10062 40099 58004 22200
BBXX 63101 21124 99612 10009 46/// /2013 10060 21026 40093 58004 22200
BBXX 63103 21124 99612 10011 46/// /2015 10064 21041 40094 58008 22200 10805 70027
BBXX 63104 21124 99612 10016 47699 /1912 10061 21031 40098 58003 700// 22200
BBXX 63117 21124 99613 10011 47699 /2014 10073 21040 40095 58004 700// 22200
BBXX 63115 21124 99616 10013 47698 /2014 10110 21028 40088 58007 700// 22200 10806 70029
BBXX MWYG6 21124 99603 70040 47497 /1616 10068 762// 22200
BBXX 64041 21124 99607 70026 47598 /1523 10067 20011 40052 57031 700// 22200 10806 70030
BBXX 62140 21124 99573 10013 46/// /19// 10070 20022 40128 50000 22200
BBXX 62146 21124 99572 10021 47/98 /1803 10068 20014 40127 50000 700// 22200 10703 70017
BBXX 62164 21124 99572 10008 47698 /1811 10083 20034 40126 58003 700// 22200 00093 10502 70011
BBXX PJGO 21124 99571 10022 47998 /2202 10077 20029 40132 50002 700// 22200
BBXX 62133 21124 99571 10009 46/// /1710 10094 20016 40130 58001 22200 10502 70011
BBXX 62119 21124 99570 10019 47998 /1905 10069 20014 40134 50002 700// 22200 10503 70013
BBXX 62152 21124 99570 10018 47/98 /1607 10073 20017 40134 50001 700// 22200 10403 70013
BBXX 62154 21124 99564 10022 46/// /1805 10074 20020 40136 50004 22200
BBXX 62120 21124 99564 10021 47998 /1905 10087 20024 40137 50004 700// 22200
BBXX 62132 21124 99564 10020 46/// /1705 10075 20020 40137 50003 22200
BBXX 62123 21124 99563 10022 47998 /1704 10078 20027 40139 50003 700// 22200
BBXX 62165 21124 99540 10009 47298 /2208 10069 20059 40160 50004 700// 22200 10502 70011
BBXX 62127 21124 99540 10007 47197 ///// 10069 20059 40156 50004 700// 22200 10602 70010
BBXX 62131 21124 99539 10012 46/// /21// 10069 20059 40158 50006 22200
BBXX 62149 21124 99537 10011 47298 /2107 10065 20058 40161 50006 751// 22200 10502 70010
BBXX 62148 21124 99536 10015 46/// /2007 10066 20059 40162 50006 22200
BBXX 62150 21124 99536 10007 47095 /2206 10059 20052 40166 50005 710// 22200 10502 70011
BBXX 62121 21124 99535 10027 46/// ///// 22200
BBXX 62144 21124 99534 10017 47297 /2007 10082 20060 40159 50004 700// 22200 10502 70009
BBXX 62145 21124 99531 10028 47398 /2506 10071 20047 40163 50007 700// 22200 10502 70010
BBXX 62142 21124 99530 10021 47298 /2205 10066 20055 40160 50005 700// 22200 10402 70008
BBXX 62129 21124 99584 10003 46/// ///// 10070 20010 40112 58005 22200
BBXX 62113 21124 99584 10002 47599 /1813 10066 20014 40112 58006 700// 22200
BBXX ZQSD5 21124 99583 10007 46/// /1807 10071 20017 40119 58005 22200
BBXX 62114 21124 99583 10000 46/// /1715 10069 20022 40109 58011 22200
BBXX 62134 21124 99580 10014 47598 /1707 10070 20015 40124 50000 700// 22200 10703 70016
BBXX 62102 21124 99579 10018 46/// /1505 10069 20004 40126 50002 22200 10603 70015
BBXX 62117 21124 99579 10000 47697 /1814 10069 20022 40115 58006 762// 22200 10502 70010
BBXX 62143 21124 99577 10018 47998 /1805 10072 20000 40126 50000 700// 22200 10603 70017
BBXX 62118 21124 99577 10009 47598 /1711 10090 20023 40115 58004 700// 22200 10603 70013
BBXX 62155 21124 99577 10007 47599 /1811 10073 20025 40122 58003 751// 22200 10603 70013
BBXX 62116 21124 99576 10011 47598 /1910 10070 20019 40126 50000 700// 22200 10603 70014
BBXX 62104 21124 99574 10013 47598 /1908 10070 20018 40125 58001 700// 22200
BBXX 62153 21124 99573 10020 47599 /2006 10073 20021 40129 58001 700// 22200 10703 70017
BBXX 62122 21124 99573 10016 47999 /1907 10081 20020 40128 58001 700// 22200 10603 70014
BBXX 62125 21124 99538 70035 46697 /2724 10102 20092 40170 52020 22200 10402 70013
BBXX 62126 21124 99539 70036 46997 /2624 10103 20088 40160 52010 22200 10402 70010
BBXX 62135 21124 99540 70038 46697 /2723 10105 2//// 40160 54000 22200 10502 70012
BBXX 62130 21124 99530 10017 46/// /2005 10061 20058 40163 52005 22200 10501 70007
BBXX 62027 21124 99491 70022 46/// /3220 1//// 2//// 40226 50010 22200 00109 10705 326// 70023 333 90710 91125
BBXX 62305 21124 99504 10000 46/98 /3021 10122 20111 40195 51023 22200 00120 10602 70010 333 90710 91126
BBXX 62304 21124 99511 10018 46/98 /3214 10086 20079 40169 51015 22200 00110 10601 70006
BBXX 62304 21124 99511 10018 46/98 /3214 10086 20079 40169 51215 22200 00110 10601 70006
BBXX 62170 21124 99514 10020 46/97 /2310 10084 20084 40168 51012 22200 00108 10701 70005
BBXX 62103 21124 99499 70029 46/98 /2818 10124 20110 40220 51024 22200 00123 10703 70016 333 90710 91125
BBXX 62094 21124 99517 70067 46/// /2413 10111 20098 40230 52015 22200 00106 10604 70020
BBXX PDXQ 21123 99449 70228 41397 81815 10170 20136 40310 52010 70222 8577/ 22223 04135 20602 399// 40802 80149
BBXX 62095 21124 99531 70159 46/// /2323 1//// 2//// 40204 53006 22200 10808 70042 333 90710 91133
BBXX 62107 21124 99501 70061 46/// /3125 10119 20101 40255 52011 22200 00117 10805 70024 333 90710 91135
BBXX 62094 21124 99517 70067 46/// /2513 1//// 2//// 4//// 5//// 22200 00105 10604 70020
BBXX 62103 21124 99499 70029 46/98 /2817 10122 20109 40216 50011 22200 00123 10703 70017 333 90710 91127
BBXX 63110 21123 99595 10015 41/98 /1515 10058 40106 70322 8//5/ 22200 10604 70018
BBXX ZCDU9 21123 99425 70101 41298 73510 10135 20122 40378 52021 70222 8747/ 22244 00145 20000 331// 40302 5//// 80128
AAXX 21121 29998 32999 73302 11107 21180 38688 48545 57012 80004 333 11100
AAXX 21121 30385 32999 00000 11292 21309 39714 40307 58004 333 11226
AAXX 21121 30469 329// 80000 11305 21336 39497 40347 52010 80005 333 11199
AAXX 21121 30636 329// 80000 11266 21284 39678 40352 57005 80007 333 11195
AAXX 21121 30650 32984 00000 11288 21342 39127 40369 58006 333 11186
AAXX 21121 30664 32999 22301 11326 21348 39257 40375 58002 82040 333 11203
AAXX 21121 30781 NIL
AAXX 21121 30777 32998 02202 11235 21301 39610 40322 52011 333 11185
AAXX 21121 30844 31999 30000 11238 21256 39309 40378 57005 70230 80001 333 11160
AAXX 21121 30925 328// 51702 11140 21183 39332 40356 57004 83031 333 11101
AAXX 21121 31371 11996 83203 11202 21235 39914 40197 52012 69952 72272 8801/ 333 11189
AAXX 21121 31388 11956 80901 11176 21188 39888 40166 52002 60022 77172 8801/ 333 11156
AAXX 21121 31478 NIL
AAXX 21121 31532 11999 80000 11248 21266 39849 40223 54000 69920 77172 80007 333 11256
AAXX 21121 31594 11996 82302 11142 21155 39986 40165 52009 69922 77172 84037 333 11134
AAXX 21121 31655 32998 00000 11212 21231 30157 40208 57003 333 11157
AAXX 21121 31754 32999 00000 11294 21318 39694 40253 54000 333 11150
BBXX 41114 21121 99276 70802 46/// ///// 1//// 91216 22200 00235 11303 20503 307// 41301 70017
BBXX 46114 21121 99364 71222 46/// ///// 1//// 91204 22200 00121 11306 21003 330// 41305 70030
AAXX 21121 23929 41556 82404 11060 21079 30232 40302 57003 78582 889//
AAXX 21121 28383 42997 81804 11066 21137 30295 40383 57011 8802/
AAXX 21124 67767 NIL
AAXX 21124 67843 42780 51205 10316 20134 38931 48497 83101 333 59007 83856 83080
AAXX 21124 67969 NIL
AAXX 21124 40582 42960 02405 10212 21025 40218 56011 333 00026 55300 00418 10007 21294 30406 41123 51603 61700 55407 40888 83070 90400 91007 91111 91207 91303
AAXX 21124 41150 NIL
AAXX 21124 41168 NIL
AAXX 21124 41170 32666 10110 10235 20122 30197 40210 81130 333 58010 81830
AAXX 21124 41176 NIL
AAXX 21124 41184 NIL
AAXX 21124 41194 NIL
AAXX 21124 41196 NIL
AAXX 21124 41198 NIL
AAXX 21124 41210 NIL
AAXX 21124 41216 NIL
AAXX 21124 41217 NIL
AAXX 21124 41218 NIL
AAXX 21124 41226 NIL
AAXX 21124 41244 36/// /0301 10247 20033 39829 48281 333 0E016 59001
AAXX 21124 41246 32560 21011 10230 20095 30190 40195 82500 333 58001 82630
AAXX 21124 41254 36/// /3106 10110 20033 38068 48073 333 0E004 58037
AAXX 21124 41256 31558 30307 10227 20112 30189 40199 70500 83500 333 58009 83625
AAXX 21124 41258 36/// /0306 10228 20113 30186 40191 333 0E/// 58006
AAXX 21124 41268 32958 10113 10230 20083 30173 40189 81030 333 58008 81362
AAXX 21124 41312 36/// /0008 10276 20093 30111 40150 333 0E/// 58007
AAXX 21124 41314 36/// /0506 10228 20075 39658 40211 333 0E012 58003
AAXX 21124 41316 32560 10112 10275 20079 30127 40154 81500 333 58006 81625
AAXX 21124 41404 12560 10308 10211 21054 37869 48507 60002 81100 333 59001 81830
AAXX 21124 41407 12970 00606 10224 21046 38945 48507 60002 333 58008
AAXX 21124 41431 11950 01826 10290 20220 30107 40120 60002 70744 333 59///
AAXX 21124 41466 NIL
AAXX 21124 41477 NIL
AAXX 21124 41480 12460 40914 10277 20176 30144 40147 60002 84801 333 58006 81818 83620
AAXX 21121 48806 32998 00000 10162 20112 39390 40172 52012 333 00015 10237 59009 70000
AAXX 21124 41295 36/// /0208 10256 20060 39984 40161 333 0E019 58005
AAXX 21121 38388 42998 70908 10006 21128 30275 40349 57023 80003 555 18000
AAXX 21121 38392 42998 30907 11019 21124 30285 40394 57013 80001 555 14102
AAXX 21121 38507 42998 71005 10084 21171 30116 40219 57015 80001 555 10008
AAXX 21121 38511 42998 70908 10009 21135 30142 40288 57019 80003 555 10001
AAXX 21121 38545 42998 00903 11023 21105 30215 40400 57012 555 14103
AAXX 21121 38647 42997 80916 10039 21127 30196 40239 57011 80007 555 10004 333 91020 91124
AAXX 21121 38656 NIL
AAXX 21121 38687 42997 00902 11016 21064 30159 40407 57009 555 11001
AAXX 21121 38750 42997 42702 10087 20011 30236 40208 57016 80001 555 10010
AAXX 21121 38763 42997 60911 10041 21112 30140 40247 57017 80006 333 91019 91121 555 10004
AAXX 21121 38774 42998 01404 10048 21135 30100 40299 57011 555 10004
AAXX 21121 38799 42997 00906 10004 21146 30146 40388 57019 555 10000
AAXX 21121 38806 42997 01402 11009 21092 30125 40400 57007 555 10000
AAXX 21121 38880 42997 31107 10053 21151 30029 40290 56015 80001 555 11030
AAXX 21121 38886 41996 01207 10037 21006 30112 40347 57021 70700 555 10010
AAXX 21121 38895 42996 00803 10015 21111 30071 40373 57019 555 10001
AAXX 21121 38911 42998 00902 11014 21078 30098 40409 57005 555 14101
AAXX 21121 38915 42997 01602 11008 21015 30070 40410 57006 555 14101
AAXX 21121 38974 42998 00903 10044 20008 39996 40340 57023 555 11004
AAXX 21121 38987 42996 00303 10001 21063 39571 40345 57014 555 14101
AAXX 21121 38836 ///// /2801 10073 21022 39320 40290
BBXX 46088 21121 99483 71232 46/// /0204 10071 40297 91220 22200 00078 1//00 70002 333 91205 555 11042 22044 31216 40205 61219 028039 042029 022025 016025 015032 347031
BBXX 51203 21121 99208 71570 46/// ///// 1//// 91213 22200 00247 11302 21001 329// 41301 70008
BBXX 52200 21121 99134 11448 46/// ///// 1//// 91215 22200 00287 11105 21004 311// 41102 70023
BBXX 51201 21121 99217 71581 46/// ///// 1//// 91212 22200 00241 11304 20704 331// 41302 70022
BBXX 41029 21121 99328 70796 46/// /2103 1//// 91200 555 11042 22048
BBXX 41052 21121 99183 70648 46/// /0509 10260 40174 91210 333 91212
BBXX 44098 21121 99428 70702 46/// ///// 1//// 91207 22200 00088 10503 20503 312// 41101 70015
AAXX 21121 28465 42998 52004 11118 21162 30334 40417 57002 82021
AAXX 21121 28696 42997 62103 11129 21156 30299 40449 57002 80009
AAXX 21121 28588 42998 72405 11105 21168 30267 40436 57003 80009
AAXX 21121 28688 42997 62504 11122 21184 30282 40454 57008 82032
AAXX 21121 28791 42998 52404 11128 21163 30301 40457 54000 85040
AAXX 21121 28586 42997 72404 11103 21147 30271 40429 57002 87050
AAXX 21124 65501 32960 70202 10300 21042 39817 40132 80002 333 0//00 58016 87076
AAXX 21124 65502 32965 60412 10290 21109 39755 40132 80002 333 0//00 58012 86076
AAXX 21124 65503 32960 70412 10308 21037 39788 40131 80002 333 0//00 58010 87076
AAXX 21124 CHECK TEXT NEW ENDING ADDED GOOOYFYX
AAXX 21124 60672 36/// /2604 10167 21085
AAXX 21124 60692 36/// /0707 10241 21042
AAXX 21124 60677 36/// /0000 10149 21033
AAXX 21124 60650 36/// /0000 10171 21019
AAXX 21124 60691 36/// /0607 10237 21076
AAXX 21124 60662 36/// /0000 10150 21042
AAXX 21124 60676 36/// /0608 10151 21009
AAXX 21124 60633 36/// /1008 10214 21052
AAXX 21124 60679 36/// /3407 10065 21136
AAXX 21124 60661 36/// /0805 10156 21027
AAXX 21124 60667 36/// /0000 10168 20009
AAXX 21121 60373 36/// /3105 10148 20122
AAXX 21121 60623 36/// /0000 10167 21095
AAXX 21121 60393 36/// /2203 10168 20102
AAXX 21121 11101 11565 81801 10018 20016 39686 40226 58006 60011 76872 887// 333 55300 88720
AAXX 21124 78062 11567 21403 10229 20173 40216 6003 70111 82800 333 10250 20180 59014 70000 82818 90908
AAXX 21121 38836 42999 30000 11074 21157 39404 40410 53001 80001
BBXX SHIP 21124 99256 11333 41/98 /1222 10210 20164 40175 57023 70222 8//// 22284 00240 80180
BBXX A8NO8 21123 99339 10236 41/98 62720 10175 20125 40160 57020 76266 8/34/ 22265 04220 20307 80145
AAXX 21121 14216 12980 22301 10093 21045 30000 40151 56010 60001 80005 333 70000 92311 92418
AAXX 21121 14219 12884 20901 10025 21044 39132 48441 58006 60001 81032 333 70000
AAXX 21121 14232 12984 01201 10020 21039 30025 40164 58012 60001 333 70000
AAXX 21121 14234 12960 61602 10004 21022 39913 40167 58012 60001 86030 333 70000
AAXX 21121 14236 12962 22402 10012 21036 39959 40162 58009 60001 82030 333 70000
AAXX 21121 14244 12960 20901 10010 21036 30042 40175 58010 60001 80002 333 70000
AAXX 21121 14248 11650 61802 11009 21025 39990 40169 56008 60001 7102/ 81450 333 70000
AAXX 21121 14253 12960 53201 10008 21041 39985 40164 58010 60001 85030 333 70000
AAXX 21121 14256 12570 72406 11015 21048 39831 40160 58006 60001 82570 333 70000
AAXX 21121 14280 12960 62303 10003 21018 30046 40159 58011 60001 86050 333 70000
AAXX 21121 14308 12982 20903 10070 21079 39791 40145 57009 60001 333 70000
AAXX 21121 14321 12682 12101 10106 21036 30132 40157 57012 60001 81100 333 70000 92301 92418
AAXX 21121 14370 12660 22402 10000 21027 30052 40164 58010 60001 81530 333 70000
AAXX 21121 14382 11550 62402 10004 21028 30043 40166 57011 60001 7101/ 84530 333 70000
AAXX 21121 14428 12970 02801 10091 21043 30141 40149 58012 60001 222// 00140 333 70000 92301
AAXX 21121 14441 12589 11104 10098 21045 30107 40132 58010 60001 81202 222// 00170 333 70000 92312
AAXX 21121 14452 12999 10202 10069 21001 39910 40137 56003 60001 80002 333 92301
AAXX 21121 14454 12682 12302 10101 21004 30076 40136 56009 60001 81100 333 70000 92312
AAXX 21121 14462 12980 10205 10076 21057 30137 40144 57017 60001 80001 333 70000
BBXX SHIP 21124 99310 31141 41498 12020 10208 20169 40128 58001 70200 81500 22232 00219 11004 20303 31613 40704 50503 85182
BBXX SHIP 21124 99310 31141 41498 12020 10208 20169 40128 58001 70200 81500 22232 00219 11004 20303 31613 40704 50503 85182
AAXX 21121 34523 /1698 71103 10070 20049 30028 40103 57007 70362 87500 333 87620 555 69931
AAXX 21121 33345 /1498 83402 10006 21011 39871 40079 58004 72687 889// 333 88914 555 69901
AAXX 21121 21432 32998 01401 11288 21318 30319 40340 52003 333 11270
AAXX 21121 21824 11997 81901 11349 21363 30299 40309 52005 69902 77872 82035 333 11328
AAXX 21121 21908 32999 20000 11331 21353 30216 40307 53004 80002 333 11280
AAXX 21121 21921 11996 82002 11404 21438 30268 40320 52014 69902 77071 80007 333 11388
AAXX 21121 21931 32998 02302 11375 21411 30264 40300 52005 333 11372
AAXX 21121 21946 11997 82301 11287 21312 30215 40302 52008 69940 77172 8807/ 333 11284
AAXX 21121 21982 41998 33404 11199 21225 30149 40178 52009 70273 80001 333 91114
AAXX 21121 25062 41596 82703 11248 21273 30216 40220 52005 77072 885// 333 91105
AAXX 21121 25123 32996 01303 11375 21405 30241 40278 52009 333 11335
AAXX 21121 25138 32999 20000 11419 21448 30144 40287 52005 80001 333 11391 91100
AAXX 21121 25173 41394 83211 11228 21246 30178 40183 58001 77173 885// 333 91117
AAXX 21121 25248 32998 00000 11430 21455 39764 40288 52006 333 11418 91101
AAXX 21121 25282 41938 83611 11203 21215 30137 40144 52010 73832 8803/ 333 91115
AAXX 21121 25325 NIL
AAXX 21121 25356 42999 33202 11206 21263 30060 40166 52011 80001 333 91006
AAXX 21121 25399 41433 83405 11154 21173 30055 40065 52020 77387 8872/ 333 91110
AAXX 21121 25428 31913 70000 11460 21492 39919 40314 52008 71022 82031 333 1//// 91100
AAXX 21121 25551 42998 02702 11258 21304 31131 40164 52011 333 91104
AAXX 21121 25563 42984 03306 11174 21200 30029 40110 52015 333 91109
AAXX 21121 25594 41498 53306 11108 21128 39976 40027 52018 73632 85500 333 91109
AAXX 21121 25677 41394 83411 11144 21150 30060 40066 52020 73832 889// 333 86708 91114
AAXX 21121 31054 32999 40000 11428 21455 30039 40361 52011 82026 333 11362
AAXX 21121 31123 32997 80601 11325 21345 39961 40328 53007 69962 77172 8602/ 333 11313
AAXX 21121 48808 32498 70000 10168 20114 39905 40194 52023 878// 333 00015 10218 58019 70000 82894 87696
AAXX 21121 48830 31796 80000 10160 20112 39880 40193 53014 71022 885// 333 00016 10186 58015 70000 88697
AAXX 21121 48839 32697 80508 10194 20144 30111 40177 53012 885// 222// 00198 2//03 333 00/// 10208 58006 7000 0 88696
AAXX 21121 48826 31756 71402 10191 20162 30045 40182 53019 71022 875// 333 00019 10236 58014 70000 87697
AAXX 21121 14472 12670 20103 10078 21034 30063 40128 58004 60001 82200 222// 00162 333 70000 92312
AAXX 21124 61600 32960 60808 10275 20019 30145 40150 86070 333 58010 86463
AAXX 21124 61612 31940 50812 10250 21001 30160 40168 707// 83082 333 0//00 58020 83363
AAXX 21124 61627 31948 71414 10288 20037 3//// 4//// 70722 86082 333 0//00 5//// 86363
AAXX 21124 61630 31940 70810 10263 20071 30136 40155 70722 8707/ 333 0//00 58014 87363
AAXX 21124 61641 32960 60610 10285 20081 30108 40141 86080 333 0//00 58004 86363
AAXX 21124 61666 32960 71004 10275 20019 30138 40146 8707/ 333 0//00 58010 87463
AAXX 21124 61679 32962 50808 10321 20066 30140 40148 82032 333 0//99 57996 72353 73963
AAXX 21124 61687 32963 30816 10310 21080 30082 40139 81031 333 0//00 58009 81363
AAXX 21124 61695 32960 10606 10290 20081 30119 40145 81030 333 0//00 58011 81363
AAXX 21124 61697 32960 00610 10300 20098 30118 40132 333 0//00 58004
AAXX 21124 61698 32960 40806 10304 20112 30121 40132 84030 333 0//00 58004 84073
AAXX 21124 61699 33960 41606 10310 20043 39927 40115 80002 333 0//00 58003 84073
AAXX 21124 65528 NIL
AAXX 21124 65536 NIL
AAXX 21124 65545 NIL
AAXX 21124 65548 NIL
AAXX 21124 65555 NIL
AAXX 21124 65557 32460 6//// 10292 20233 39880 40119 86200 333 59017 86813 94919
AAXX 21124 65560 NIL
AAXX 21124 65562 NIL
AAXX 21124 65563 31458 42608 10307 20244 39875 40113 70144 84200 333 59004 84815 94919
AAXX 21124 65578 11458 72208 10281 20244 30107 40124 69921 70266 87900 333 58000 81813 81916 87620 94907 94948 95878
AAXX 21124 65585 NIL
AAXX 21124 65592 32458 4//// 10300 20246 30093 40115 82230 333 58002 82813 94907
AAXX 21124 65594 32458 62206 10295 20242 30084 40118 84202 333 59004 84813 84080 94916
AAXX 21124 65599 31458 7//// 10290 20242 30032 40106 70399 8423/ 333 59004 84813 87360 94917
BBXX 46001 21121 99563 71480 46/// /2608 10049 40097 51020 91150 22200 00050 11511 20604 300// 41510 70055 333 91210 555 11080 22085 31102 42511 61149 260076 260079 254076 261076 260081 260074
BBXX 46207 21121 99509 71299 46/// /1902 10075 40320 57005 22200 00081 11206 70030 333 91203
BBXX SJCD 21121 99503 71329 43/98 31810 10070 40312 58020 22273 00082
BBXX WDB9918 21124 99584 71435 41498 62030 10050 20030 40087 57030 78082 8446/ 22283 00050 20807 323// 41409 5//// 6//// 80044 ICE /////
BBXX WJBU 21124 99527 71384 41798 42030 10067 20040 40229 58007 70200 841// 22233 0//// 20403 320// 41209 5//// 6//// 80056 ICE /////
BBXX 46147 21121 99518 71312 46/// /1705 10071 40315 57005 22200 00078 11207 70034 333 91207
BBXX 46147 21121 99518 71312 46/// /1705 10071 40315 57005 22200 00078 11207 70034 333 91207
AAXX 21124 41858 31925 32702 10148 20130 30094 40141 71022 83030 333 10174 56090 58004 70000 83362
AAXX 21124 41863 31950 ;2701 10130 20100 30099 40145 70500 333 10166 58005 70000
AAXX 21124 41886 31420 63001 10145 20230 30116 40137 71042 83570 333 10200 56990 58004 70000 82618 86460
AAXX 21124 41895 32956 03601 10148 20130 30119 40142 333 10185 58003 70000
AAXX 21124 41909 31440 83601 10134 20120 30124 40137 70542 8252/ 333 10142 56999 58010 70000 82615 88458
AAXX 21124 41915 31925 00000 10135 20130 30115 40141 71044 333 10172 58009 70000
AAXX 21124 41926 31940 00000 10134 20120 30131 40145 70500 333 10164 58012 70000
AAXX 21124 41929 31/30 93102 10138 20130 30126 40136 71000 89/// 333 10147 58005 70000
AAXX 21124 41933 31925 03102 10150 20130 30125 40134 71000 333 10153 59001 70000
AAXX 21124 41941 31440 63603 10166 20150 30117 40123 70522 83520 333 10188 56990 59005 70000 83614 85460
AAXX 21124 41946 31950 03601 10160 20140 30132 40137 70520 333 10174 58007 70000
AAXX 21124 41947 31920 00000 10138 20130 30137 40139 71044 333 10145 58011 70000
AAXX 21124 41951 32950 00000 10156 20150 30121 40126 70500 333 10207 59006 70000
AAXX 21124 41953 31320 73403 10158 20140 30119 40125 70542 85620 333 10166 56990 58006 70000 85708 83460
AAXX 21124 41960 31940 03202 10174 20140 30130 40132 70500 333 10226 58001 70000
AAXX 21124 41963 21920 03601 10174 20150 30119 40122 70500 333 10224 59003 70000
AAXX 21124 41964 31929 03603 10162 20140 30126 40128 71020 333 10208 59002 70000
AAXX 21124 41989 31940 03601 10196 20170 30112 40115 70500 333 10220 59005 70000
AAXX 21124 41998 32920 00000 10191 20170 30106 40112 333 10263 59002 70000
AAXX 21124 41264 36/70 /2305 10245 20071 39791 40156 333 0E018 58004
AAXX 21121 25703 31996 30000 11442 21475 30019 40337 52006 77670 80001 333 11412
AAXX 21121 25745 32698 20000 11321 21350 30119 40176 52007 82500 333 11264
AAXX 21121 25913 32999 00404 11215 21272 30041 40200 52005 333 11198
AAXX 21121 25954 32998 00208 11201 21259 39983 40104 52003 333 11190
AAXX 21121 25956 32598 60606 11143 21194 30061 40067 52009 86500 333 11157
AAXX 21121 31088 11597 83604 11178 21197 30187 40195 52008 69960 77187 885// 333 11179
AAXX 21121 31873 32997 00801 11168 21210 30051 40193 58007 333 11133
AAXX 21121 31909 32998 03203 11139 21200 30126 40209 52003 333 11038
AAXX 21121 31960 32998 81803 11036 21080 39946 40185 57004 80007 333 11021
AAXX 21121 31961 31996 02002 11068 21097 30131 40178 57007 70400 333 11024
AAXX 21121 32053 32997 02402 11227 21239 30173 40227 54000 333 11139 91003 91104
AAXX 21121 32061 12966 01103 11222 21240 30180 40222 54000 69900 333 11117 91004 91105
AAXX 21121 32098 32998 03503 11190 21202 30218 40229 50001 333 11097 91004 91104
AAXX 21121 32150 11696 73502 11105 21111 30177 40208 57002 69900 70282 82530 333 11070 91003 91105
AAXX 21121 32165 12599 20102 11044 21064 30160 40223 58002 69920 82900 333 10004 91002 91103
AAXX 21121 32215 11596 63406 11064 21100 30116 40146 51010 60010 78583 86900 333 11049 91012 91114
AAXX 21121 32252 NIL
AAXX 21121 32389 31993 30000 11315 21333 30115 40156 52005 74841 83030 333 11283
AAXX 21121 32477 32998 00701 11288 21312 30129 40165 51008 333 11171
AAXX 21121 32583 32999 03505 11122 21205 30090 40122 51004 333 11109
AAXX 21121 32618 11598 80107 11049 21085 30054 40076 52005 69900 70232 885// 333 11032
AAXX 21124 93800 16/// /1405 10132 20105 40291 54000 60001
AAXX 21124 93805 16/// /9901 10139 20111 40296 52001 60001
AAXX 21124 93994 16/// /1209 10205 20170 40182 57011 60001
AAXX 21121 31873 32997 00801 11168 21210 30051 40193 58007 333 11133
AAXX 21121 31909 32998 03203 11139 21200 30126 40209 52003 333 11038
AAXX 21121 31961 31996 02002 11068 21097 30131 40178 57007 70400 333 11024
AAXX 21121 31960 32998 81803 11036 21080 39946 40185 57004 80007 333 11021
AAXX 21124 71217 16/// /3219 11024 21033 60001 333 10061 21073 70000
AAXX 21124 71224 16/// /2908 11057 21076 60001 333 10045 21058 70000
AAXX 21124 71746 16/// /1205 10042 20037 39842 40062 58017 60001 333 10033 20011 70000
AAXX 21124 71435 16/// /2304 11026 21069 39422 40011 53008 60001 333 11006 21030 4/014 70000
AAXX 21124 71979 17/// ///// 11074 21081 38534 40217 51015 69991 7//4/ 333 10054 21082 4/048 70018 555 10020
AAXX 21124 71375 46/// /0208 11115 6///1 333 11035 21138 7////
AAXX 21124 71151 16/// /3106 11020 21040 39534 40036 53022 60001 333 11013 21028 4/002 55/// 20000 70000
AAXX 21124 71189 46/// /3102 11125 21150 6///1 333 11050 21126 7////
AAXX 21124 71193 16/// /1707 11039 21051 39675 40039 56006 60001 333 11040 21046 4/032 70000 555 10010
AAXX 21124 71270 16/// /1405 11002 21018 39865 40087 56019 60001 333 11002 21021 70000
AAXX 21124 71276 16/// ///07 11061 21069 60001 333 10048 21063 70000
AAXX 21124 71295 16/// /3103 11020 21042 39580 40024 52013 60001 333 11024 21040 4/017 55/// 20000 70015 555 10010
AAXX 21124 71296 16/// /0602 11006 21008 39786 40094 56017 60001 333 11012 70000
AAXX 21124 71299 16/// /2009 11011 21028 39735 40004 55004 60001 333 11018 21024 4/035 70000 555 10110
AAXX 21124 71300 16/// /0702 11049 21067 30006 40131 56009 60001 333 11024 21108 70000
AAXX 21124 71309 17/// /2102 11012 21014 39977 49988 53001 69991 7//4/ 333 11013 21018 4/023 70009 555 10010
AAXX 21124 71343 16/// /3009 11038 21067 60001 333 10058 21053 70000
AAXX 21124 71345 16/// /3107 11055 21069 60001 333 10065 21057 70000
AAXX 21124 89002 42799 42514 11026 21052 39706 49760 57009 83501 333 11025 21120
AAXX 21124 71435 16/// /2304 11026 21069 39422 40011 53008 60001 333 11006 21030 4/014 70000
AAXX 21121 34523 /1698 71103 10070 20049 30028 40103 57007 70362 87500 333 87620 555 69931
AAXX 21121 50434 32980 72903 11222 21268 39290 40276 52010 80002
AAXX 21121 50527 32970 23204 11257 21294 39434 40308 52017 80002
AAXX 21121 50603 32980 02702 11231 21295 39603 40350 52014
AAXX 21121 50632 32980 22905 11222 21272 39283 40254 52012 80002
AAXX 21121 50727 11570 73205 11233 21277 39013 40308 52002 69901 77070 875//
AAXX 21121 50915 32980 00000 11203 21255 39265 40367 52011
AAXX 21121 51716 32965 11801 11045 21124 39049 40423 52002 80002 333 00053
AAXX 21121 51765 32980 70000 11099 21168 39378 40469 52003 80002 333 00054
AAXX 21121 51777 32970 00401 11062 21182 39328 40453 52001 333 00151
AAXX 21121 51811 32962 52702 11054 21093 38927 40434 52005 80002 333 00051
AAXX 21121 51828 11865 73202 11066 21096 38762 40436 52004 69901 77070 83502 333 00152
AAXX 21121 52267 32980 02503 11084 21222 39255 40458 52008 333 00201
AAXX 21121 52323 32980 02703 11129 21196 38333 52007 333 05102
AAXX 21121 52495 32980 03204 11095 21221 38815 40477 52013 333 00452
AAXX 21121 53149 32980 02905 11138 21195 38888 40438 52005 333 00501
AAXX 21121 53192 32980 23201 11216 21240 38963 40432 52010 80002
AAXX 21121 53231 32980 01604 11165 21225 38602 52011 333 00451
AAXX 21121 53336 32980 02902 11129 21207 38836 40451 52010 333 00552
AAXX 21121 53391 32980 02906 11161 21201 38565 40414 52004 333 00451
AAXX 21121 53529 32980 00201 11110 21220 38745 40452 52016 333 00553
AAXX 21121 53543 32980 02903 11112 21203 38635 40426 52012
AAXX 21121 53723 32970 52501 11100 21153 38781 40452 52015 80002 333 00552
AAXX 21121 54012 11978 73202 11196 21235 39073 40369 52017 69901 77000 80002
AAXX 21121 54026 32980 02903 11123 21260 39935 40285 52007
AAXX 21121 54027 32980 03202 11122 21230 39681 40315 52010
AAXX 21121 54208 32980 02703 11168 21200 38811 40387 52001
AAXX 21121 54776 32570 73416 10020 21059 30205 40264 52018 874// 333 91122 91534
AAXX 21121 56004 32980 02904 11076 21351 35784 52016 333 00103 91124 91527
AAXX 21121 56033 32680 23404 11073 21319 35976 52011 81902 333 05104
AAXX 21121 56046 32980 00000 11051 21208 36216 52020 333 05100 91121 91525
AAXX 21121 56193 NIL
AAXX 21121 56196 32963 71802 10084 20042 40291 52030 8703/ 333 00401
AAXX 21121 56287 11465 82001 10068 20043 40306 52028 69901 76060 8177/ 333 00500
AAXX 21121 56684 32560 80702 10018 21016 37918 52018 885// 333 00556
AAXX 21121 56751 32980 01601 10111 21020 38002 52008 333 00102
AAXX 21121 56786 32560 83205 10050 20020 38120 52024 885// 333 00455
AAXX 21121 56977 32580 12701 10132 20124 40179 52017 81100 333 00101
AAXX 21121 57259 11463 81801 10055 20055 40331 52025 69971 76066 8277/
AAXX 21121 57279 31958 70202 10067 21001 40318 52018 71000 8703/
AAXX 21121 57348 11857 83602 10083 20056 40297 52025 69941 76066 885//
AAXX 21121 57399 32960 83604 10069 20001 40303 52021 8807/
AAXX 21121 57554 11540 80000 10048 20031 40320 52020 69971 71060 885//
AAXX 21121 57793 31950 83603 10098 20052 40277 52021 71000 8807/
AAXX 21121 58345 31940 83201 10064 20042 40297 52022 71000 8807/
AAXX 21121 58506 11/00 90204 11002 21003 40295 52016 69901 74760
AAXX 21121 58813 32968 03602 10099 20039 40254 52028
AAXX 21121 58834 32970 00000 10129 20078 40224 52023
AAXX 21121 58926 32672 71602 10165 20101 40208 52022 875//
AAXX 21121 58944 32566 70204 10149 20120 40220 52020 87500
AAXX 21121 59096 32963 03601 10149 20057 40219 52032
AAXX 21121 59102 32963 00000 10110 20069 40221 52020
AAXX 21121 59278 32862 73401 10194 20084 40196 52019 87500
AAXX 21121 59456 32870 70701 10208 20091 40185 52022 875//
AAXX 21121 59493 31956 73601 10195 20105 40188 52020 70500 8704/
AAXX 21121 59658 32764 81601 10192 20118 40189 52020 885//
AAXX 21121 59673 32764 72001 10187 20118 40187 52020 875//
AAXX 21121 59845 11562 80702 10194 20162 40186 52018 69901 70060 888//
BBXX 46183 21121 99536 71311 46/// /1503 10064 40313 54000 22200 00077 11401 70005 333 91204
BBXX 46183 21121 99536 71311 46/// /1503 10064 40313 54000 22200 00077 11401 70005 333 91204
AAXX 21124 16337 12598 71042 10032 20009 39470 40049 52014 60061 87200 333 81820 83821 91057 91160 555 0326/
BBXX 9V8797 21124 99057 10805 43/98 73313 10262 40071 53008 22224 00279 2//// 4////
AAXX 21121 01473 41985 10000 11087 21101 39910 40129 51019 70200 80001 333 91102
AAXX 21121 52203 32980 02901 11090 21185 39506 40466 52008 333 00052
AAXX 21121 38656 41995 20909 10028 21061 30213 40325 57018 73130 80002 555 10002
BBXX 46131 21121 99499 71250 46/// /3207 1//// 40308 52014 22200 00071 10301 70003 333 91209
AAXX 21121 40650 42960 70602 10180 20034 40213 57025 80008 =3D 40602 42960 30903 10160 20027 40243 57020 83032
AAXX 21121 40608 42960 00000 10176 20014 40206 57023 =3D 40621 42960 42102 10192 20037 40220 58019 80002 =3D 40629 42960 52404 10162 20078 40221 57024 83032
AAXX 21121 40633 41958 42902 10170 20043 40218 57025 70622 80008
AAXX 21121 40637 42960 02802 10215 20127 40214 50004 =3D 40642 42560 61903 10200 21023 40178 57010 86800 =3D 40656 42960 60000 10196 20058 40196 57026 80006
AAXX 21121 40665 42960 40000 10214 20072 40222 57020 80002
AAXX 21121 40670 42960 40000 10180 20057 40210 57015 80002
AAXX 21121 40676 42960 40000 10198 20012 40218 57018 81032
AAXX 21121 40680 42960 32702 10224 20084 40211 57018 80002
AAXX 21121 40689 42960 22702 10205 20036 40225 57012 80001
BBXX 46131 21121 99499 71250 46/// /3207 1//// 40308 52014 22200 00071 10301 70003 333 91209
AAXX 21124 41984 32950 03602 10180 20140 30122 40124 333 10224 58004 70000
AAXX 21124 45011 17556 /3606 10182 20104 40186 52017 60002 71011 333 10231 59004
AAXX 21124 60630 12981 00616 10167 21045 40244 58014 60001
AAXX 21121 60379 36/// /2603 10153 20140
AAXX 21121 60380 36/// /2804 10163 20089
AAXX 21121 60394 36/// /2503 10170 20103
AAXX 21121 60374 36/// /2708 10160 20144
AAXX 21121 60613 36/// /2906 10138 21028
BBXX 46204 21121 99514 71288 46/// /2802 10070 40322 54000 22200 00078 11106 70029 333 91203
BBXX 46204 21121 99514 71288 46/// /2802 10070 40322 54000 22200 00078 11106 70029 333 91203
AAXX 21124 89667 46/// /3314 11035 29083 39771 4//// 5////
AAXX 2112/ 89828 46/// ///// 11219 36465 4//// 5////
AAXX 2112/ 89108 46/// ///// 11206 36985 4//// 5////
AAXX 2112/ 89879 46/// ///// 11020 39678 4//// 5////
AAXX 2112/ 89872 46/// ///// 11029 39716 4//// 5////
AAXX 2112/ 89869 46/// ///// 11024 39691 4//// 5////
AAXX 2112/ 89866 46/// ///// 11040 39665 4//// 5////
AAXX 2112/ 89799 46/// ///// 11225 4//// 5////
AAXX 2112/ 89868 46/// ///// 11071 39696 4//// 5////
AAXX 2112/ 89332 46/// ///// 11054 39282 4//// 5////
AAXX 2112/ 89769 46/// ///// 11029 39726 4//// 5////
AAXX 2112/ 89314 46/// ///// 11058 38253 4//// 5////
AAXX 2112/ 89327 46/// ///// 11016 39628 4//// 5////
AAXX 2112/ 89799 46/// ///// 11226 4//// 5////
AAXX 2112/ 89332 46/// ///// 11054 39281 4//// 5////
AAXX 21121 40602 42960 30903 10160 20027 40243 57020 83032/3D/20
AAXX 21121 40608 42960 00000 10176 20014 /3D 40206 57023
AAXX 21121 40621 42960 42102 10192 20037 /3D 40220 58019 80002
AAXX 21121 40629 42960 52404 10162 20078 40221 57024 83032/3D
AAXX 21121 40633 41958 42902 10170 20043 40218 57025 70622 80008/3D
AAXX 21121 40637 42960 02802 10215 20127 /3D 40214 50004
AAXX 21121 40642 42560 61903 10200 21023 /3D 40178 57010 86800
AAXX 21121 40650 42960 70602 10180 20034 /3D 40213 57025 80008
AAXX 21121 40656 42960 60000 10196 20058 40196 57026 80006/3D
AAXX 21121 40665 42960 40000 10214 20072 40222 57020 80002/3D
AAXX 21121 40670 42960 40000 10180 20057 40210 57015 80002/3D
AAXX 21121 40676 42960 40000 10198 20012 40218 57018 81032/3D
AAXX 21121 40680 42960 32702 10224 20084 40211 57018 80002/3D
AAXX 21121 40689 42960 22702 10205 20036 40225 57012 80001/3D
AAXX 21124 40435 32660 21005 10242 20010 39141 40177 82500 333 59017 82640
AAXX 21124 91650 NIL
AAXX 21124 91652 NIL
AAXX 21124 91656 NIL
AAXX 21124 91659 11598 70803 10257 2023/ 40100 50000 60001 70222 83873 333 10301 56999 82827 83460
AAXX 21124 91660 NIL
AAXX 21124 91669 36/// /1205 10263 20256 40102 57005 91219 333 10326
AAXX 21124 91670 36/// /0800 10255 20237 40099
AAXX 21124 91676 NIL
AAXX 21124 91680 11598 81505 10245 20239 40104 50001 69911 76126 8387/ 333 10306 5699/ 82828 83648 88460
AAXX 21124 91682 NIL
AAXX 21124 91683 11598 70000 10240 20233 40103 58005 60181 70182 8787/ 333 10309 5699/ 84820 85645 86464
AAXX 21124 91691 NIL
AAXX 21124 91693 NIL
AAXX 21124 91697 NIL
AAXX 21124 91699 NIL
BBXX ZSAF 21124 99695 50065 41599 32904 11015 21059 49768 57009 70122 81504 22253 05013 20000 30000 40000 50000 ICE 68630
BBXX AMOUK01 21124 99632 30033 46/// ///// 11017 21051 39752 49762 57010 91150
BBXX 41036 21121 99342 70770 46/// ///// 10207 20155 40213 91220 22200 00188
AAXX 21121 40878 11958 00204 10093 21312 38888 40277 55011 60001 70500 333
AAXX 21121 40898 12960 01903 10226 20022 30180 40189 56020 60001 222// 00241 10500 333
BBXX 44034 21121 99441 70681 46/30 /1911 10048 40199 56009 91204 22200 00084 10503 70015 333 91214 555 11135 22143
BBXX 44024 21121 99423 70659 46/30 /2006 10031 40242 53003 91204 22200 00077 11103 70016 333 91208 555 11076 22080
BBXX 44039 21121 99411 70727 46/// /1805 10096 20070 40197 91200 22200 00093 10201 70003 333 91206
BBXX 44060 21121 99413 70721 46/// ///05 10094 40193 91215 22200 00101 333 91207 555 11057 22057
BBXX 44022 21121 99409 70737 46/// ///01 10078 20058 40177 91215 22200 00078 333 91202 555 11010 22010
BBXX 42085 21121 99179 70665 46/// /0507 10258 40173 91210 333 91208
BBXX 44029 21121 99425 70706 46/30 /1810 10072 40187 58009 91204 22200 00086 10503 70013 333 91211 555 11120 22127
BBXX 44030 21121 99432 70704 46/// /2605 1//// 40190 58005 91204 22200 00083 10502 70011 333 91206 555 11058 22061
BBXX 44032 21121 99437 70694 46/30 /2010 10062 40186 58009 91204 22200 00086 10503 70016 333 91212 555 11127 22134
BBXX 44040 21121 99410 70736 46/// /1301 10085 20077 40183 91215 22200 1//00 70000 333 91202 555 11010 22010
AAXX 21124 67765 42882 32501 10281 20123 38651 48497 83102 333 59009 83856
AAXX 21124 67775 42780 22705 10273 20103 38492 48495 82100 333 59011 82856
AAXX 21124 67779 NIL
AAXX 21124 67853 NIL
AAXX 21124 67861 42880 33601 10290 20122 38710 48494 83100 333 59014 83857
AAXX 21124 67867 42980 12102 10275 20063 38564 48493 80001 333 59021 81080
AAXX 21124 67881 42980 01802 10270 20099 38570 48500 333 59007
AAXX 21124 67965 42980 11304 10292 20102 38676 48506 81102 333 59014 81856
AAXX 21124 67975 42980 11806 10284 20111 38901 48497 80002 333 59027 81080
AAXX 21124 67977 42880 11507 10320 20151 39641 48533 81100 333 59028 81856
AAXX 21124 67983 42880 11801 10270 20111 38868 48500 81100 333 59027 81856
AAXX 21124 67991 42780 20000 10333 20156 39552 48486 81102 333 59032 81850
AAXX 21124 67755 NIL
AAXX 21124 67771 NIL
AAXX 21124 67773 42880 32803 10301 20128 38/// 48/// 83100 333 5//// 83857
AAXX 21124 67774 NIL
AAXX 21124 67785 NIL
AAXX 21124 67789 NIL
AAXX 21124 67855 NIL
AAXX 21124 67857 NIL
AAXX 21124 67863 42880 12201 10310 20129 38/// 48/// 81102 333 5//// 81857
AAXX 21124 67871 NIL
AAXX 21124 67875 NIL
AAXX 21124 67891 NIL
AAXX 21124 67895 NIL
AAXX 21124 67897 NIL
AAXX 21124 67899 NIL
AAXX 21124 67951 NIL
AAXX 21124 67963 42980 10806 10207 20127 38/// 48/// 81102 333 5//// 81858
AAXX 21124 67967 NIL
AAXX 21124 67971 42980 10905 10302 20107 38/// 48/// 80002 333 5//// 81080
AAXX 21124 67976 NIL
AAXX 21124 67979 NIL
AAXX 21121 21802 NIL
AAXX 21121 24125 32998 83501 11341 21353 30001 40319 53002 80001 333 11282
AAXX 21121 24136 32999 00000 11474 21501 30200 40319 52002 333 11455
AAXX 21121 24143 32999 00000 11433 21468 30254 40314 52009 333 11433
AAXX 21121 24266 11997 80000 11453 21476 30143 40353 51008 69922 77177 80006 333 11422
AAXX 21121 24329 32998 50000 11434 21461 39991 40346 54000 85010 333 11434
AAXX 21121 24343 11997 81502 11429 21455 30186 40327 52007 69942 77172 80007 333 11407
AAXX 21121 24382 11997 80000 11365 21365 30039 40328 52006 69900 77077 83036 333 11314
AAXX 21121 24639 31994 52401 11426 21455 30156 40337 52003 71022 80008 333 11417
AAXX 21121 24641 31998 02101 11414 21449 30161 40328 54000 71200 333 11403
AAXX 21121 24652 32997 00501 11470 21494 30203 40352 52002 333 11449
AAXX 21121 24656 11999 30000 11436 21468 30228 40350 52011 69922 70171 80001 333 11413
AAXX 21121 24671 32999 00000 11472 21494 39766 40375 52011 333 11455
AAXX 21121 24688 31999 52001 11441 21475 39316 40395 52010 70422 80001 333 11423
AAXX 21121 24724 11999 02802 11356 21383 39731 40337 51002 69902 70271 333 11333
AAXX 21121 24738 31994 00000 11447 21465 30132 40343 53003 71000 333 11399
AAXX 21121 24768 32998 02301 11433 21469 30075 40352 52010 333 11415
AAXX 21121 24923 11999 82503 11307 21336 39994 40340 52001 69942 70272 82036 333 11280
AAXX 21121 24944 12997 60000 11400 21421 30013 40355 54000 69902 80001 333 11332
AAXX 21121 24951 12999 00000 11401 21433 30162 40358 58002 69902 333 11333
AAXX 21121 24661 11997 80000 11450 21483 30028 40345 50009 69902 77071 80007 333 11450
AAXX 21121 24959 11993 80000 11414 21443 30196 40348 52009 69922 77174 80005 333 11378 96048
AAXX 21121 24962 11993 02701 11471 21494 30142 40368 52011 69902 74440 333 11434
AAXX 21121 24966 11999 30000 11449 21471 30090 40351 52012 69900 70271 80001 333 11417
AAXX 21121 24967 32999 80000 11443 21475 30122 40384 52010 80001 333 11408
AAXX 21121 25206 11998 82201 11347 21377 30268 40299 54000 69920 77177 82037 333 11351
AAXX 21121 25400 31995 01301 11423 21443 30251 40316 52006 71000 333 11411
AAXX 21121 30054 11998 82102 11269 21307 30073 40341 57015 69942 77172 83047 333 11263
AAXX 21121 30089 32999 30000 11402 21421 30109 40373 52003 80001 333 11320
AAXX 21121 30393 11998 83503 11319 21343 39159 40331 57001 69942 77172 8802/ 333 11274 47///
AAXX 21121 30493 11497 80205 11300 21337 39132 40292 52005 69932 77173 8872/ 333 11250 91112
AAXX 21121 31004 11996 80000 11344 21361 39402 40353 58003 69902 77171 80007 333 11258
AAXX 21121 31137 11998 80000 11305 21339 39135 40284 52008 69922 77172 8802/ 333 11305
AAXX 21121 30157 11997 80000 11241 21274 30030 40342 57016 69992 77172 82047 333 11241
AAXX 21124 42309 31996 00000 10174 20143 40121 70500 333 10260 58001
AAXX 21124 42314 31596 10000 10182 20133 40132 70500 81100 333 10250 58002 81825
AAXX 21124 42398 31995 19902 10151 20128 40144 71000 80001 333 10207 58001
AAXX 21124 42410 31596 10000 10181 20167 40131 70500 81500 333 10222 59001 81620
AAXX 21124 42415 31996 30000 10182 20140 40150 70500 81031 333 10262 58002 81360 83075
AAXX 21124 42623 31/95 00000 10160 20077 39248 40128 70500 333 10237 58004
AAXX 21124 42706 31995 00000 10192 20094 40130 70500 333 10250 58003
AAXX 21124 42724 21494 70000 10152 20141 40137 71042 85630 333 10154 58002 6990/ 83710 84618 86360
AAXX 21124 42809 31995 00000 10180 20130 40139 70500 333 10216 58009
AAXX 21124 42886 31996 00000 10244 20094 40126 70500 333 10291 59002
AAXX 21124 42895 32996 00000 10200 20100 40131 333 10271 58006
AAXX 21124 42971 31995 03602 10228 20109 40122 70500 333 10285 59003
AAXX 21124 42492 NIL
AAXX 21124 42587 NIL
AAXX 21124 42591 NIL
AAXX 21124 42701 NIL
AAXX 21124 42798 NIL
AAXX 21124 42977 NIL
AAXX 21124 43333 NIL
AAXX 21124 43368 NIL
AAXX 21121 40878 11958 00204 10093 21312 38888 40277 55011 60001 70500 333
AAXX 21121 40898 12960 01903 10226 20022 30180 40189 56020 60001 222// 00241 10500 333
BBXX WDJK 21124 99399 71253 41997 03635 10105 20096 40190 54000 70200 80/// 22273 00110 20605 333// 40807 5//// 6//// 80100 ICE /////
BBXX C6FM8 21124 99252 70773 41798 61313 10240 2//// 40220 54/// 7//// 8606/ 22273 0//// 21002 30505 41002 51002 6//// 8//// ICE /////
BBXX WKAE 21124 99475 70219 41498 82422 10140 20095 40255 54000 70222 886// 22264 00130 20503 326// 41006 5//// 6//// 80115 ICE /////
BBXX WCX9106 21123 99603 71465 41396 82224 10033 2//// 49990 57015 780// 88/// 22200 0//// 2//01 322// 4//01 5//// 6//// 8//// ICE /////
BBXX 46088 21121 99483 71232 46/// /0204 10071 40297 91220 22200 00078 1//00 70002 333 91205 555 11042 22044 31216 40205 61219 028039 042029 022025 016025 015032 347031
BBXX 46087 21121 99485 71247 46/// /0703 10062 20039 40297 91220 22200 00076 333 91204 555 11027 22028 31208 41105 61219 076027 109029 139009 136010 118012 108017
AAXX 21121 38725 42699 20000 11085 21264 37781 48550 53006 82401
BBXX 44060 21121 99413 70721 46/// ///06 10093 40193 91200 22200 00100 333 91207 555 11062 22067
BBXX 44067 21121 99384 70770 46/// /2304 10119 40159 56011 91200
BBXX 44033 21121 99441 70690 46/30 /2010 10061 40190 57015 91204 22200 00068 10502 70010 333 91212 555 11125 22133
BBXX A8IG2 21123 99428 70491 41398 63026 10060 20043 40190 52020 70211 85778 22223 2//// 328// 40705 80052
BBXX WDJK 21124 99399 71253 41997 03635 10105 20096 40190 54000 70200 80/// 22273 00110 20605 333// 40807 5//// 6//// 80100 ICE /////
BBXX 46207 21121 99509 71299 46/// /1902 10075 40320 57005 22200 00081 11206 70030 333 91203
BBXX V7HC6 21124 99273 70907 41698 31910 10230 20216 40144 51009 70200 8329/ 22200 00229 20401 314// 40602 5//// 6//// 80220 ICE /////
BBXX C6VG8 21124 99262 70785 41/// 41420 10230 2//// 40200 52/// 7//// 841// 22235 00260 2//// 3//// 4//// 5//// 6//// 8//// ICE /////
BBXX WZJC 21123 99272 70909 41298 42009 10228 2022/ 40136 54000 70111 84898 22272 00239 2//// 3//// 4//// 5//// 6//// 80222 ICE /////
BBXX MINFR05 2112/ 99281 70154 46/// ///// 10200 40287 52003
BBXX ONDY 21124 99352 30240 41698 42418 10300 2020/ 40120 54000 70200 841// 22222 00236 2//// 3//// 4//// 5//// 6//// 80230 ICE /////
AAXX 21121 40898 12960 01903 10226 20022 30180 40189 56020 60001 222// 00241 10500 333
BBXX MZFR9 21124 99249 50400 41598 70118 10250 20229 40123 52013 70122 874// 22213 02244 20202 303// 40604 5////
BBXX IDDUK02 21124 99547 50385 46/// ///// 40016 222//
BBXX 9V8797 21124 99057 10805 43/98 73313 10262 40071 53008 22224 00279 2//// 4////
BBXX SHIP 21124 99256 11333 41/98 /1222 10210 20164 40175 57023 70222 8//// 22284 00240 80180
BBXX C6YA7 21124 99062 11115 41996 60220 10250 2021/ 40060 54000 70322 869// 22253 00290 2//// 3//// 4//// 5//// 6//// 80220 ICE /////
BBXX SBLI 21121 99300 11660 43/98 83410 10188 40178 53025 22264 00223 2//// 4//// NNNN 426621110
BBXX PCBZ 21124 99204 11338 41/98 80519 10190 20150 40160 57018 70222 88/// 22223 00185 20603 399// 41003 80165 90609
BBXX UHFW 21121 99476 11415 42998 03605 11010 40194 54000 22273 06040
BBXX ONFW 21124 99352 11198 41196 23619 10060 20038 40300 70200 8249/ 22200 04100 20205 3//// 4//// 5//// 6//// 80050 ICE /////
BBXX 46204 21121 99514 71288 46/// /2802 10070 40322 54000 22200 00078 11106 70029 333 91203
BBXX 46131 21121 99499 71250 46/// /3207 1//// 40308 52014 22200 00071 10301 70003 333 91209
BBXX 46183 21121 99536 71311 46/// /1503 10064 40313 54000 22200 00077 11401 70005 333 91204
BBXX DDSB2 21123 99303 70551 41698 53514 10210 20109 40255 52005 70122 83160 22214 20402 334// 41208 80150
BBXX WDD6127 21124 99378 70681 41598 62206 10190 2012/ 40230 54006 7//22 85240 22224 00230 20101 307// 40402 5//// 6//// 80150 ICE /////
BBXX A8EH2 21124 99456 71401 41/98 81921 10115 20105 40260 58035 70222 8//// 22284 00085 2//// 329// 40606 80110
BBXX 46147 21121 99518 71312 46/// /1705 10071 40315 57005 22200 00078 11207 70034 333 91207
BBXX 41052 21121 99183 70648 46/// /0509 10260 40174 91210 333 91212
BBXX 44098 21121 99428 70702 46/// ///// 1//// 91207 22200 00088 10503 20503 312// 41101 70015
BBXX 41029 21121 99328 70796 46/// /2103 1//// 91200 555 11042 22048
BBXX 46088 21121 99483 71232 46/// /0204 10071 40297 91220 22200 00078 1//00 70002 333 91205 555 11042 22044 31216 40205 61219 028039 042029 022025 016025 015032 347031
BBXX 46114 21121 99364 71222 46/// ///// 1//// 91204 22200 00121 11306 21003 330// 41305 70030
BBXX 41114 21121 99276 70802 46/// ///// 1//// 91216 22200 00235 11303 20503 307// 41301 70017
BBXX 46221 21121 99339 71186 46/// ///// 1//// 91145 22200 00148 11402 21001 325// 41401 70009
BBXX 46211 21121 99469 71242 46/// ///// 1//// 91206 22200 00082 11407 21004 327// 41405 70033
BBXX 46242 21121 99332 71174 46/// ///// 1//// 91158 22200 00143 11401 20501 324// 41401 70007
BBXX 46231 21121 99327 71174 46/// ///// 1//// 91154 22200 00149 11302 21002 329// 41302 70012
BBXX 46222 21121 99336 71183 46/// ///// 1//// 91156 22200 00151 11402 21001 327// 41402 70010
BBXX 46216 21121 99343 71198 46/// ///// 1//// 91157 22200 00143 11402 21002 327// 41402 70011
BBXX 46223 21121 99335 71178 46/// ///// 1//// 91200 22200 00150 11403 21001 327// 41402 70013
BBXX C6FM8 21124 99252 70773 41798 61313 10240 2//// 40220 54/// 7//// 8606/ 22273 0//// 21002 30505 41002 51002 6//// 8//// ICE /////
BBXX H9UY 21124 99215 71622 41798 50529 00/// 10220 40176 51010 70200 84981 9//// 22263 04240 20305 325// 40205 5//// 6//// 80200
BBXX 46212 21121 99408 71243 46/// ///// 1//// 91212 22200 00096 11408 21005 330// 41406 70039
BBXX 46240 21121 99366 71219 46/// ///// 1//// 91212 22200 00123 11202 21001 335// 41202 70011
BBXX 46237 21121 99378 71226 46/// ///// 1//// 91210 22200 00110 11404 21002 326// 41403 70020
BBXX 46217 21121 99342 71194 46/// ///// 1//// 91212 22200 00148 11302 20402 326// 41301 70010
BBXX 42099 21121 99273 70842 46/// ///// 1//// 91157 22200 00230 10704 20704 70020
BBXX 41115 21121 99184 70673 46/// ///// 1//// 91205 22200 11205 20903 335// 41203 70023
BBXX 46241 21121 99330 71173 46/// ///// 1//// 91141 22200 00141 11402 20501 327// 41401 70009
BBXX 46244 21121 99409 71244 46/// ///// 1//// 91205 22200 00097 11308 20805 330// 41306 70040
BBXX 46248 21121 99461 71247 46/// ///// 1//// 91204 22200 00097 11407 21004 329// 41406 70036
BBXX 46249 21121 99338 71197 46/// ///// 1//// 91212 22200 00150 11303 21002 325// 41302 70013
BBXX 44100 21121 99363 70756 46/// ///// 1//// 91152 22200 00117 11202 21001 308// 41201 70008
BBXX 42364 21121 99291 70881 46/// /2104 10222 20200 40156 91215
BBXX 42362 21121 99278 70907 46/// /2109 10228 20211 40153 53007 91200
BBXX FLAO 2112/ 99764 70847 46/// ///// 11228 40010 57006
BBXX 46112 21121 99481 71227 46/// /2002 10052 40297 51016 91200
BBXX 46111 21121 99481 71227 46/// /3307 10075 40294 51016 91200 22200 00055
BBXX WKAE 21124 99475 70219 41498 82422 10140 20095 40255 54000 70222 886// 22264 00130 20503 326// 41006 5//// 6//// 80115 ICE /////
BBXX A8NO8 21123 99339 10236 41/98 62720 10175 20125 40160 57020 76266 8/34/ 22265 04220 20307 80145
BBXX 62304 21124 99511 10018 46/98 /3214 10086 20079 40169 51015 22200 00110 10601 70006
BBXX ZCDU9 21123 99425 70101 41298 73510 10135 20122 40378 52021 70222 8747/ 22244 00145 20000 331// 40302 5//// 80128
BBXX 62103 21124 99499 70029 46/98 /2817 10122 20109 40216 50011 22200 00123 10703 70017 333 90710 91127
BBXX 62094 21124 99517 70067 46/// /2513 1//// 2//// 4//// 5//// 22200 00105 10604 70020
BBXX 63110 21123 99595 10015 41/98 /1515 10058 40106 70322 8//5/ 22200 10604 70018
BBXX 62107 21124 99501 70061 46/// /3125 10119 20101 40255 52011 22200 00117 10805 70024 333 90710 91135
BBXX 62094 21124 99517 70067 46/// /2413 10111 20098 40230 52015 22200 00106 10604 70020
BBXX 62130 21124 99530 10017 46/// /2005 10061 20058 40163 52005 22200 10501 70007
BBXX PDXQ 21123 99449 70228 41397 81815 10170 20136 40310 52010 70222 8577/ 22223 04135 20602 399// 40802 80149
BBXX 62095 21124 99531 70159 46/// /2323 1//// 2//// 40204 53006 22200 10808 70042 333 90710 91133
BBXX 62027 21124 99491 70022 46/// /3220 1//// 2//// 40226 50010 22200 00109 10705 326// 70023 333 90710 91125
BBXX 62135 21124 99540 70038 46697 /2723 10105 2//// 40160 54000 22200 10502 70012
BBXX 62170 21124 99514 10020 46/97 /2310 10084 20084 40168 51012 22200 00108 10701 70005
BBXX 62103 21124 99499 70029 46/98 /2818 10124 20110 40220 51024 22200 00123 10703 70016 333 90710 91125
BBXX 62304 21124 99511 10018 46/98 /3214 10086 20079 40169 51215 22200 00110 10601 70006
BBXX 62305 21124 99504 10000 46/98 /3021 10122 20111 40195 51023 22200 00120 10602 70010 333 90710 91126
BBXX 62126 21124 99539 70036 46997 /2624 10103 20088 40160 52010 22200 10402 70010
BBXX 62153 21124 99573 10020 47599 /2006 10073 20021 40129 58001 700// 22200 10703 70017
BBXX 62122 21124 99573 10016 47999 /1907 10081 20020 40128 58001 700// 22200 10603 70014
BBXX 62125 21124 99538 70035 46697 /2724 10102 20092 40170 52020 22200 10402 70013
BBXX 62104 21124 99574 10013 47598 /1908 10070 20018 40125 58001 700// 22200
BBXX 62132 21124 99564 10020 46/// /1705 10075 20020 40137 50003 22200
BBXX 62116 21124 99576 10011 47598 /1910 10070 20019 40126 50000 700// 22200 10603 70014
BBXX 62118 21124 99577 10009 47598 /1711 10090 20023 40115 58004 700// 22200 10603 70013
BBXX 62114 21124 99583 10000 46/// /1715 10069 20022 40109 58011 22200
BBXX 62117 21124 99579 10000 47697 /1814 10069 20022 40115 58006 762// 22200 10502 70010
BBXX 62143 21124 99577 10018 47998 /1805 10072 20000 40126 50000 700// 22200 10603 70017
BBXX 62134 21124 99580 10014 47598 /1707 10070 20015 40124 50000 700// 22200 10703 70016
BBXX 62102 21124 99579 10018 46/// /1505 10069 20004 40126 50002 22200 10603 70015
BBXX 62155 21124 99577 10007 47599 /1811 10073 20025 40122 58003 751// 22200 10603 70013
BBXX ZQSD5 21124 99583 10007 46/// /1807 10071 20017 40119 58005 22200
BBXX 62113 21124 99584 10002 47599 /1813 10066 20014 40112 58006 700// 22200
BBXX 62142 21124 99530 10021 47298 /2205 10066 20055 40160 50005 700// 22200 10402 70008
BBXX 62129 21124 99584 10003 46/// ///// 10070 20010 40112 58005 22200
BBXX 62121 21124 99535 10027 46/// ///// 22200
BBXX 62144 21124 99534 10017 47297 /2007 10082 20060 40159 50004 700// 22200 10502 70009
BBXX 62145 21124 99531 10028 47398 /2506 10071 20047 40163 50007 700// 22200 10502 70010
BBXX 62148 21124 99536 10015 46/// /2007 10066 20059 40162 50006 22200
BBXX 62150 21124 99536 10007 47095 /2206 10059 20052 40166 50005 710// 22200 10502 70011
BBXX WE4805 21124 99448 70877 43/99 /3003 11005 2//// 40058 5//// 70002 8//// 22213 00033 20000 3//// 4//// 5//// 6//// 8//// ICE /////
BBXX SHIP 21124 99310 31141 41498 12020 10208 20169 40128 58001 70200 81500 22232 00219 11004 20303 31613 40704 50503 85182
BBXX AMOUK02 21124 99536 70050 46/// ///// 10112 20098 30154 4//// 50000 91150
BBXX 64046 21124 99605 70049 46/// /1527 10067 20045 40018 58042 22200 00079 10607 70033
BBXX 62301 21124 99524 70047 46/// /2615 10101 20090 40204 51017 22200 00085 10503 70014
BBXX 62163 21124 99475 70084 46/// /2915 10127 20107 40310 50008 22200 00127 10806 70028
BBXX 62029 21124 99487 70125 46/// /2616 10132 20112 40312 50010 22200 00129 10807 70036
BBXX 62105 21124 99554 70122 46/// /2424 10121 20104 40120 52002 22200 00105 10708 70040 333 90710 91132
BBXX 62442 21124 99490 70164 46/// /2317 1//// 2//// 40298 50003 22200 00125
BBXX 64045 21124 99591 70117 46/// /2327 10105 20098 49976 58005 22200 00101 10708 70039 333 90710 91137
BBXX A8NW9 21124 99477 70147 41998 72213 10135 20125 40370 54000 70222 8703/ 22224 04120 20702 331// 41405 80129
BBXX GHJV 21123 99350 70139 41397 60913 10185 20140 40330 52009 70222 861// 22261 02176 20302 30000 80159
BBXX 2AUO5 21123 99606 10016 41698 21709 10074 21017 40106 52011 7//11 8/15/ 22200 20903 80040
BBXX 62159 21124 99605 10017 41598 51704 10070 21027 40117 52010 70222 855// 22200 10903 70017
BBXX A8XY2 21124 99430 70296 41797 21834 10158 20137 40200 57025 70111 8//7/ 22263 04150 20507 323// 40906 80145
BBXX BATFR04 21124 99584 70062 44/96 82229 10107 20095 40039 56016 76066 8/7// 22200 00102 2//02
BBXX BAREU62 21124 99383 10248 46/// ///// 40151 57016 22214
BBXX 61002 21124 99421 10047 46/// ///21 10128 2//// 40214 57012 22200 00138 10705 70025 555 1/028
BBXX BATUK01 21124 99577 70031 46/// /1910 10052 20032 40078 58018 22200 00072
BBXX BATFR27 21124 99507 70010 46/// /2917 10129 20102 40192 22225 00100
BBXX BATEU04 21124 99583 10055 46/// /3508 10054 20009 40121 51024 22273
BBXX 61001 21124 99434 10078 46/// /2709 10123 20066 40160 57008 22200 00147 10702 70009
BBXX BATFR01 21124 99348 10260 46/// /2311 10172 20075 40163 56016 22262 00192
BBXX BATFR52 21124 99489 70023 46/// /2929 10120 20114 40231 22274 00112
BBXX BATFR46 21124 99390 10007 44/97 13116 10159 20092 40239 58002 701// 8//// 22213 00167 22002
BBXX BATFR03 21124 99499 70005 46/// /3124 10130 20117 40204 51030 22244
BBXX BATFR11 21124 99401 10100 46/// /3024 10130 20059 40146 58001 22283 00179
BBXX BATFR09 21124 99382 70099 46/// /0114 10167 20127 40324 58001 22243 00177
BBXX BATFR16 21124 99389 70302 44598 11525 10182 20154 40235 55010 70100 81120 22254 00180 21402 318// 41402 5////
BBXX BATFR12 21124 99481 70066 46/// /3418 10125 20112 40281 50001 22271 00144
BBXX TESTFR9 21124 99489 70023 46/// /3029 10114 29100 40248 22274
BBXX BAREU51 21124 99404 10118 46/// ///// 40136 57013 22235
BBXX BAREU63 21124 99377 10166 46/// /0511 10115 29080 40041 57010 22263
BBXX BAREU12 21124 99535 10099 46/// ///// 40122 52010 22222
BBXX BAREU00 21124 99504 70060 46/// ///// 40246 52033 22243
BBXX DANM 21123 99365 10141 41598 33042 10144 20073 40039 58040 72580 8314/ 22265 00150 20814 30000 80106
BBXX LF5T 21124 99660 10081 43697 62412 10027 21019 40041 52012 86/// 22200 10805 70027 333 91122
BBXX LF4C 21124 99584 10019 41599 61406 10069 20001 40124 54000 70281 82151 22200 00073 10703 70014 333 91115
BBXX LF3F 21124 99643 10078 43/// /2612 10026 21008 40065 52012 22200 04089 10805 70027 333 91125
BBXX 3ERR2 21124 99635 10053 43/// /2714 10057 21054 40078 52015 22200 11206 70030 333 91127
BBXX LF4B 21124 99606 10037 47/98 /1608 10054 40121 52005 700// 22200 00041 10804 70021 333 91115
BBXX LF3N 21124 99653 10073 41497 52615 10035 21013 40045 52009 72682 85900 22200 00088 10805 70024
BBXX C6KD7 21123 99385 70236 41598 81415 10180 20140 40311 52013 70322 8667/ 22214 02188 20701 312// 40803 5//// 80157
BBXX 62149 21124 99537 10011 47298 /2107 10065 20058 40161 50006 751// 22200 10502 70010
BBXX 62123 21124 99563 10022 47998 /1704 10078 20027 40139 50003 700// 22200
BBXX 62165 21124 99540 10009 47298 /2208 10069 20059 40160 50004 700// 22200 10502 70011
BBXX 62127 21124 99540 10007 47197 ///// 10069 20059 40156 50004 700// 22200 10602 70010
BBXX 62131 21124 99539 10012 46/// /21// 10069 20059 40158 50006 22200
BBXX 62120 21124 99564 10021 47998 /1905 10087 20024 40137 50004 700// 22200
BBXX 62154 21124 99564 10022 46/// /1805 10074 20020 40136 50004 22200
BBXX 62133 21124 99571 10009 46/// /1710 10094 20016 40130 58001 22200 10502 70011
BBXX 62152 21124 99570 10018 47/98 /1607 10073 20017 40134 50001 700// 22200 10403 70013
BBXX 62119 21124 99570 10019 47998 /1905 10069 20014 40134 50002 700// 22200 10503 70013
BBXX PJGO 21124 99571 10022 47998 /2202 10077 20029 40132 50002 700// 22200
BBXX 62164 21124 99572 10008 47698 /1811 10083 20034 40126 58003 700// 22200 00093 10502 70011
BBXX 62146 21124 99572 10021 47/98 /1803 10068 20014 40127 50000 700// 22200 10703 70017
BBXX 62140 21124 99573 10013 46/// /19// 10070 20022 40128 50000 22200
BBXX 64041 21124 99607 70026 47598 /1523 10067 20011 40052 57031 700// 22200 10806 70030
BBXX MWYG6 21124 99603 70040 47497 /1616 10068 762// 22200
BBXX 63103 21124 99612 10011 46/// /2015 10064 21041 40094 58008 22200 10805 70027
BBXX 63112 21124 99611 10010 47698 /1812 10066 21048 40093 58006 700// 22200 10805 70023
BBXX 63104 21124 99612 10016 47699 /1912 10061 21031 40098 58003 700// 22200
BBXX 63117 21124 99613 10011 47699 /2014 10073 21040 40095 58004 700// 22200
BBXX 63115 21124 99616 10013 47698 /2014 10110 21028 40088 58007 700// 22200 10806 70029
BBXX 63106 21124 99610 10017 46/// /2009 10059 40101 58004 22200
BBXX 63107 21124 99611 10017 46/// /1911 10062 40099 58004 22200
BBXX 63101 21124 99612 10009 46/// /2013 10060 21026 40093 58004 22200
BBXX 63108 21124 99608 10017 47999 /1912 10052 21040 40095 58004 700// 22200 10904 70020
BBXX 63113 21124 99610 10017 46/// /1910 10062 21041 40101 58003 22200 10805 70023
BBXX 63105 21124 99610 10017 47998 ///// 10066 21038 40100 58004 700// 22200
BBXX 63055 21124 99606 10016 47999 /1509 10060 21035 40101 58005 700// 22200 10703 70017
BBXX 62128 21124 99587 10014 47998 /1507 10076 21001 40117 58002 700// 22200 10704 70018
BBXX PJAI 21124 99581 70014 47498 /1715 10074 20034 40095 58015 700// 22200
BBXX 62111 21124 99580 70003 46/// /1913 10068 20023 40112 58010 22200 10402 70010
BBXX 63057 21124 99592 10015 47999 /1508 10061 21014 40113 58002 700// 22200 10805 70023
BBXX 62112 21124 99584 70002 47498 /1815 10068 20023 40109 58011 762// 22200
BBXX AMOUK19 21124 99602 70012 46/// ///// 10068 20015 30079 40083 57010 91150
BBXX AMOUK03 21124 99513 10032 46/// ///// 10070 20070 30131 40163 54001 91150
BBXX 63056 21124 99597 10016 47598 /1507 10058 21008 40103 50000 700// 22200 10804 70019
BBXX 63110 21124 99595 10015 47999 /1610 10059 21011 40112 58001 700// 22200 10704 70018
BBXX AMOUK06 21124 99512 10017 46/// ///// 10084 20076 30145 40159 52025 91150
BBXX AMOUK09 21124 99515 10019 46/// ///// 10087 20082 30149 40166 52015 91150
BBXX AMOUK14 21124 99533 70062 46/// ///// 10118 20101 30160 40195 52045 91150
BBXX AMOUK08 21124 99501 70061 46/// ///// 10122 20109 30249 40255 52022 91150
BBXX 62001 21124 99452 70050 46/// /3014 10135 20110 40306 50009 22200 00141 10604 70021
BBXX 62303 21124 99516 70051 46/// /2914 10117 20100 40226 51018 22200 00111 10504 70021
BBXX 62081 21124 99510 70134 46/// ///// 10128 20104 40260 50006 22200 00120 10707 70036
BBXX AMOUK05 21124 99519 10041 46/// ///// 10059 20055 30123 40159 52007 91150
AAXX 21124 40250 NIL
AAXX 21124 40265 NIL
AAXX 21124 40296 31956 40000 10222 20117 40184 57008 80002 333 84070
AAXX 21124 40310 NIL
AAXX 21124 89050 NIL
AAXX 21124 89512 42598 80306 10011 21069 39574 49719 52010 83531
AAXX 21124 89574 32598 60706 10031 21042 49800 52020 81530 333 10037
AAXX 21124 89592 12298 81012 11005 21016 49794 52021 60042 886//
AAXX 21124 89606 11996 81610 11253 21298 36269 47801 52005 69922 77673 80007
AAXX 21121 55299 32980 02201 11030 21285 35830 52008 333 00151 91118 91525
AAXX 21121 55591 32980 00000 10039 21250 36484 52006 333 00101
AAXX 21121 56739 32980 00000 10114 20044 38348 52008 333 00000
AAXX 21121 56951 32975 03201 10136 20042 38504 52016 333 00100
AAXX 21121 56964 32970 00000 10154 20116 38713 40158 52012 333 00100
AAXX 21121 57328 11812 80000 10081 20064 39868 40289 52022 69951 76066 885//
AAXX 21121 57411 11425 80401 10087 20065 39909 40290 52027 69901 76060 8577/
AAXX 21121 57447 11457 82701 10063 20059 39747 40306 52024 60021 76066 8272/
AAXX 21121 57662 11756 80000 10060 20025 30267 40312 52019 60011 76066 885//
AAXX 21121 57745 31756 80401 10053 20025 39967 40305 52020 71000 885//
AAXX 21121 57972 32962 83602 10097 20032 30043 40274 52029 8807/
AAXX 21121 58203 31950 03602 10020 21031 30274 40317 52018 70500
AAXX 21121 58314 31958 82001 10048 20035 30198 40309 52020 71000 8807/
AAXX 21121 58424 31956 80403 10070 20009 30271 40297 52020 70500 8807/
AAXX 21121 59023 31957 60202 10136 20050 39920 40234 52023 70500 86040
AAXX 21121 59417 32565 71101 10177 20098 30042 40197 52016 878//
AAXX 21121 59985 11572 70406 10234 20224 30140 40145 52020 69951 72580 87200
AAXX 21121 59995 NIL
BBXX MHNN5 21124 99459 70309 41397 82128 10160 20081 40147 57030 70222 8777/ 22262 00170 20805 321// 41209 5//// 80120
BBXX 46185 21121 99524 71298 46/// /1202 10063 40320 52001 22200 00068 11303 70013 333 91203
AAXX 21124 94996 454// 80913 10204 20181 30049 40186 58001 91230 333 10247
BBXX 46185 21121 99524 71298 46/// /1202 10063 40320 52001 22200 00068 11303 70013 333 91203
OOXX AAEMI 21124 99785 31731 57083 00521 46/// /2603 11051 21085 39738 49803 5//// 91200
AAXX 21124 94996 454// 80913 10204 20181 30049 40186 58001 91230 333 10247
AAXX 21121 24790 31999 30000 11446 21458 39417 40377 52006 77671 80001 333 11422
AAXX 21121 24988 12699 82802 11212 21230 39941 40211 52006 69920 82507 333 11197
AAXX 21121 25378 41697 73212 11150 21220 30075 40109 52014 73632 82531 333 91123
AAXX 21121 25503 31999 40000 11432 21456 30177 40327 52004 77670 80001 333 11442
AAXX 21121 25705 11993 22401 11428 21455 39938 40328 52006 69900 74841 80001 333 11389
AAXX 21121 25927 32998 02201 11270 21294 30197 40204 52006 333 11195
AAXX 21121 25932 32999 03402 11194 21235 30122 40163 52007 333 11178
AAXX 21121 31152 32997 21801 11382 21416 39858 40323 52009 80002 333 11379
AAXX 21121 31174 32999 80303 11243 21249 30213 40226 52005 80007 333 11162
AAXX 21121 31489 32997 02901 11248 21273 30109 40237 52009 333 11214
AAXX 21121 31866 32999 02705 11160 21194 30200 40206 58005 333 11064
AAXX 21121 31959 32998 02802 11130 21165 30149 40194 58005 333 11036
AAXX 21121 31989 32599 10204 11063 21099 30142 40198 50001 81100 333 11008
AAXX 21121 32027 32999 23201 11292 21322 30217 40227 52004 80002 333 11174 91002 91103
AAXX 21121 32076 11496 72803 11182 21194 30215 40226 58001 69920 77172 82620 333 11117 91004 91104
AAXX 21121 32099 11998 00202 11107 21120 30212 40220 54000 69980 70281 333 11071 91003 91104
AAXX 21121 32121 31497 80805 11074 21095 30178 40201 57009 78582 889// 333 11066 91007 91109
AAXX 21121 32213 31598 33219 11088 21108 30070 40136 51009 73631 83500 333 11071 91022 91123
AAXX 21121 32287 11697 81403 11221 21247 30169 40180 52008 69900 78582 8695/ 333 11232 86933
AAXX 21121 32408 12999 20501 11217 21257 30083 40124 52009 69900 82030 333 11157
AAXX 21121 32509 31998 03208 11118 21242 30074 40109 51002 73630 333 11115 91012 91113
AAXX 21121 32594 32598 20503 11150 21220 30104 40142 52008 82500 333 11110
AAXX 21121 47090 32665 42909 10041 21089 30165 40188 57008 84500 333 10061 3/000 42/// 92013
AAXX 21121 47095 01556 62303 11004 21032 30025 40219 52005 69952 71022 86500 333 10019 34101 70005
AAXX 21121 47097 129// /2303 10017 21022 30123 40221 58001 69932 333 10040 3/000
AAXX 21121 47098 129// /2003 10007 21051 30080 40217 52006 69942 333 10045 3/101
AAXX 21121 47099 129// /0001 11001 21045 30187 40224 52009 69902 333 10051 3/101
AAXX 21121 47100 12460 32714 11031 21067 39264 40204 57005 69952 83500 333 11016 3/103 49026
AAXX 21121 47102 12667 72912 10013 21090 30052 40234 52016 69902 87500 333 10045 30000
AAXX 21121 47104 32665 22504 10030 21083 30091 40189 57005 82500 333 10067 3/000 43003
AAXX 21121 47106 329// /0504 10035 21065 30144 40194 50001 333 10070 3/000
AAXX 21121 47112 12665 73209 10039 21033 30138 40223 51005 69902 87500 333 10065 31002 92023
AAXX 21121 47114 11640 71802 10011 21026 30031 40218 58003 69902 72272 87500 333 10016 30101
AAXX 21121 47119 11662 72903 10036 21017 30182 40225 53002 69932 72162 87500 333 10060 31101
AAXX 21121 47121 129// /0901 11015 21023 39920 40223 58001 69912 333 10022 3/102
AAXX 21121 47127 329// /2901 10012 21020 30081 40226 50001 333 10039 3/000
AAXX 21121 47129 11558 62306 10031 20006 30200 40236 50003 69942 72362 86500 333 10074 31002
AAXX 21121 47130 32662 22303 10039 21058 30138 40200 58001 82500 333 10078 30101 92022
AAXX 21121 47131 11658 72301 10032 21027 30156 40228 51006 69902 70522 87500 333 10069 30000
AAXX 21121 47135 329// /2707 10037 21031 39920 40222 50004 333 10064 3/000
AAXX 21121 47136 11650 62901 10015 21028 30046 40222 51007 69902 70522 83501 333 10068 30102
AAXX 21121 47137 329// /2503 10029 21034 30102 40222 50006 333 10067 3/101
AAXX 21121 47140 31658 62910 10053 21040 30208 40237 50006 70512 85500 333 10075 31001 92013
AAXX 21121 47143 31959 23204 10049 21046 30149 40229 52008 70511 80001 333 10082 30001
AAXX 21121 47145 12660 62704 10029 21005 30196 40223 50003 69902 86500 333 10073 34000
AAXX 21121 47146 11650 62003 10045 21023 30170 40237 50007 69912 70511 85500 333 10076 31003
AAXX 21121 47150 12660 62703 10060 21028 30213 40232 50005 69922 86500 333 10082 31002
AAXX 21121 47152 32963 32903 10035 21028 30173 40216 50004 80001 333 10102 30101
AAXX 21121 47154 329// /2905 10051 21024 30162 40223 50006 333 10083 3/001
AAXX 21121 47155 31956 60202 10050 21030 30177 40223 50004 70522 80001 333 10090 30000
AAXX 21121 47156 11630 60001 10035 20021 30156 40247 52009 69912 71022 85500 333 10064 31002
AAXX 21121 47157 31657 52705 10039 21036 39942 40214 50005 70542 83501 333 10063 30000
AAXX 21121 47162 31056 63608 10065 21011 30184 40225 50004 70501 80001 333 10086 30003 92022
AAXX 21121 47169 12662 73413 10070 21019 30151 40246 52009 69902 87500 333 10087 31004 92044
AAXX 21121 47170 11656 63205 10049 20006 30200 40244 52006 69902 70522 85500 333 10076 30003 92022
AAXX 21121 47171 129// /1101 10023 20001 30188 40244 52009 69922 333 10072 3/000
AAXX 21121 47172 129// /0000 10026 20009 30171 40239 52008 69952 333 10080 3/003
AAXX 21121 47173 329// /0000 11011 21023 30129 40244 50008 333 10047 3/000
AAXX 21121 47174 11615 61103 10007 21006 30030 40238 52005 69902 71022 85500 333 10077 31101
AAXX 21121 47175 11550 63411 10020 21014 39663 40246 52008 69942 71022 85500 333 10059 31000 92024
AAXX 21121 47185 12662 83218 10103 20039 30148 40239 51002 69952 8552/ 333 10113 31008 92025
AAXX 21121 47188 32662 83605 10085 20045 30212 40234 50005 8452/ 333 10125 31007 92022
AAXX 21121 47189 32665 83603 10104 20024 30169 40229 52003 8452/ 333 10130 30008 92022
AAXX 21121 47192 31656 40000 11011 21039 30195 40234 52011 71000 84500 333 10086 30000
AAXX 21121 47008 31960 40000 11021 21053 30147 40202 58001 71000 84050 333 10030
AAXX 21121 47014 32950 43203 11068 21166 39807 40224 53014 84040 333 11056
AAXX 21121 47016 32560 50000 11129 21164 39315 40225 52001 85500 333 11061
AAXX 21121 47020 11560 80000 11072 21097 39823 40218 57005 69902 77172 8802/ 333 11010
AAXX 21121 47025 32962 00000 11022 21073 30168 40198 53001 333 10048
AAXX 21121 47035 11962 00507 11045 21117 30248 40257 52027 69902 70072 333 10025
AAXX 21121 47041 32970 02701 11006 21080 30152 40180 53006 333 10062
AAXX 21121 47055 32565 62701 10012 21051 30154 40200 58003 86500 333 10047
AAXX 21121 47058 12960 81401 11015 21038 30189 40238 52005 69922 80002 333 10002
AAXX 21121 47069 12665 12702 10007 21062 30127 40229 52005 69902 81500 333 10043
AAXX 21121 47003 32980 80000 11067 21091 30188 40192 54000 8802/ 333 11001
AAXX 21121 47005 11580 31402 11138 21165 38548 57003 69902 77000 83500 333 11081
AAXX 21121 47022 32975 00000 11150 21192 38787 58003 333 11023
AAXX 21121 47028 32962 03202 11039 21132 30133 40231 52017 333 10022
AAXX 21121 47031 32570 40000 11110 21138 38885 57002 84500 333 11045
AAXX 21121 47037 12970 00000 11049 21062 30101 40229 52002 69912 333 10012
AAXX 21121 47039 32560 42301 11023 21048 30019 40215 52003 84500 333 10026
AAXX 21121 47046 32969 00000 11025 21054 30152 40175 57001 333 10057
AAXX 21121 47050 31556 20000 11029 21046 30184 40219 57005 71042 82500 333 10007
AAXX 21121 47052 12565 80000 11033 21054 39875 40223 52005 69902 885// 333 11003
AAXX 21121 47060 11550 83403 11001 21032 30165 40225 53010 69902 71072 885// 333 10026
AAXX 21121 47061 32980 83204 10033 21038 30147 40191 57006 8807/ 333 10064
AAXX 21121 47065 12570 83201 11005 21023 30165 40232 53019 60012 885// 333 10055
AAXX 21121 47067 11560 80000 11016 21028 30116 40240 52003 69932 71022 885// 333 10030
AAXX 21121 47068 32560 23205 10010 21075 30193 40229 52013 82500 333 10048
AAXX 21121 47070 12970 50000 11004 21042 30136 40226 58005 60102 85030 333 10045
AAXX 21121 47075 12980 02303 11039 21058 39715 40156 54000 69932 333 10011
AAXX 21121 47101 11530 70001 11032 21038 30120 40220 54000 69912 71022 87500 333 10008 31104
AAXX 21121 47105 369// /2507 10037 21068 30158 40191 58005 333 10067 3/001
AAXX 21121 47108 12662 72705 10023 21065 30115 40223 52007 69922 87500 333 10052 31000
AAXX 21121 47115 11560 82510 10046 21014 39913 40187 55002 69922 76162 8652/ 333 10056 3/001 45/// 92033
AAXX 21121 47133 11658 62903 10046 21029 30145 40231 50004 69902 70522 86500 333 10069 31002
AAXX 21121 47138 31559 62002 10055 21025 30214 40217 50009 70522 86500 333 10093 30005 92021
AAXX 21121 47159 31959 52511 10061 21013 30132 40218 50001 70511 80001 333 10102 30003 92024
AAXX 21121 47165 11659 63406 10051 21027 30197 40244 51008 69902 70542 86500 333 10066 30002 92021
AAXX 21121 47168 32962 83211 10056 21011 30151 40231 51008 8801/ 333 10082 30002 92024
AAXX 21121 47184 11556 83409 10094 20035 30218 40243 52006 60022 76062 8572/ 333 10114 31008 92023
BBXX ZMENA 21124 99377 31762 46/// ///// 10178 20137 40287 57006 22200
BBXX 3EAT6 21123 99238 31528 41598 51712 10205 20164 40178 54000 70311 8/44/ 22223 00230 322// 40101
BBXX 51171 21121 99064 71623 46/// ///// 1//// 91146 22200 00278
BBXX 51170 21121 99168 71695 46/// ///// 1//// 91148 22200 00258
BBXX 51169 21121 99004 51600 46/// ///// 1//// 91154 22200 00258
BBXX 52243 21121 99193 11666 46/// ///// 1//// 91155 22200 00265
BBXX 51174 21121 99142 51697 46/// ///// 1//// 91155 22200 00285
BBXX 51178 21121 99142 51695 46/// ///// 1//// 91158 22200 00285
BBXX ZMENA 21124 99377 31762 46/// ///// 10178 20137 40287 57006 22200
BBXX 3EAT6 21123 99238 31528 41598 51712 10205 20164 40178 54000 70311 8/44/ 22223 00230 322// 40101
AAXX 21124 89132 NIL
AAXX 21124 89542 46/// /0702 11012 20043 49751 53006
AAXX 21124 89575 NIL
AAXX 21124 89657 NIL
AAXX 21124 60593 36/// /0000 10151
AAXX 21124 60376 36/// /2503 10155 20125
BBXX MINUK04 2112/ 99555 10084 46/// ///// 10063 4//// 57021
AAXX 21124 40255 32660 60000 10154 20106 39472 40181 57007 83130 333 83830 84360
AAXX 21124 40260 NIL
AAXX 21124 40270 31940 73204 10146 20102 39280 40176 57008 70522 81032 333 81360 87070
AAXX 21124 40272 31950 63606 10160 20091 39341 40174 57016 70500 80001 333 86070
AAXX 21124 40290 NIL
AAXX 21124 40340 32960 33610 10200 20095 40164 57024 80001 333 83070
AAXX 21121 08561 31020 13303 10118 20100 30079 40314 50004 74040 81600 333 81701 555 50004 60007 96642 90319 90207 96640
AAXX 21124 06670 01357 81904 10015 21001 39693 40218 57013 69951 76872 8752/ 333 55300 20299 69915 82709 84713 87626 91116 91208
AAXX 21124 06700 01259 82502 10025 20007 39726 40232 57011 60011 71072 885// 333 55300 20522 60005 81705 83625 87650 91107 91204
AAXX 21124 06680 01/01 92525 11116 21126 37444 47963 58008 60101 77174 333 55300 20403 69925 91142 91225
AAXX 21124 06990 31456 81201 10013 20013 39656 40219 58012 71072 886// 333 55300 20414 88712 91106 91203
AAXX 21124 06760 32982 70804 10094 21071 39707 40153 57017 8701/ 333 55303 20814 87465 91114 91207
AAXX 21124 06720 02060 8//// 10012 20004 39643 40236 58010 69931 8802/ 333 55300 20328 69915 88501
BBXX NIL
BBXX NIL
AAXX 21121 10548 01466 82803 10018 21001 39617 40169 51004 69921 75175 877// 333 42002 55300 20146 30146 69907 87710
BBXX NIL
BBXX NIL
BBXX NIL
AAXX 21124 40250 NIL
AAXX 21124 40265 NIL
AAXX 21124 40296 31956 40000 10222 20117 40184 57008 80002 333 84070
AAXX 21124 40310 NIL
AAXX 21124 06610 01463 82304 10019 20006 39628 40227 57013 69961 76176 8272/ 333 55300 20396 60005 82714 86550 91113 91208
AAXX 21120 44275 32998 00000 11257 21274 37817 40500 53012 333 11116
AAXX 21120 44284 32999 00201 11237 21274 37932 40607 53004 333 11140
AAXX 21120 44287 32999 00202 11180 21233 38203 40522 53005 333 11093
OOXX AABRI 21124 99839 51342 60134 05251 46/// /0010 11059 2//// 39283 49906 5//// 91200
OOXX AAPEG 21124 99779 31666 57186 00051 46/// /3314 11035 21059 39771 49777 57001 91200
OOXX AAMIZ 21124 99707 30443 58304 22602 46/// /0713 11090 2//// 37351 49499 52006 91150
OOXX AALAU 21124 99775 31708 57070 00371 46/// /3008 11046 21076 39733 49779 52006 91150
OOXX AAERI 21124 99849 51288 60048 09901 46/// /3415 11060 2//// 38806 49921 52038 91150
AAXX 21121 23074 12997 71202 11175 21209 30196 40222 52009 69902 8703/ 333 11155
AAXX 21121 23274 11997 71403 11206 21231 30183 40222 52003 69962 77172 82035 333 11190
AAXX 21121 23383 12898 50000 11408 21444 39925 40339 54000 69932 82037 333 11394
AAXX 21121 23472 11597 70804 11199 21232 30167 40219 52004 60012 77172 86506 333 11186
AAXX 21121 23678 119// 81601 11104 21117 30181 40241 52012 60022 77177 8802/ 333 11102
AAXX 21121 23884 119// 82301 11098 21115 30191 40268 52008 60022 77172 8802/ 333 11098
AAXX 21121 23891 11996 20000 11306 21344 39959 52007 60022 72271 80001 333 11302
AAXX 21121 24507 319// 00000 11428 21456 30082 40372 53002 74440 333 11418
AAXX 21121 24817 329// 20000 11364 21388 39928 40352 57006 82040 333 11364
AAXX 21121 24908 32998 10401 11396 21429 39962 40348 55003 80001 333 11365
AAXX 21121 29263 11557 82403 11128 21155 30224 40330 53008 60012 78583 8595/ 333 11122
AAXX 21121 29282 11963 82502 11141 21168 30123 40302 52004 69982 77172 8807/ 333 11126
AAXX 21121 29379 11898 82805 11106 21142 30114 40332 53003 69932 70282 8802/ 333 11103
AAXX 21121 29570 11596 82704 11087 21125 39998 40361 53004 69922 78583 889// 333 11065 91114
AAXX 21121 29698 115// 83205 11048 21114 39787 40310 53008 69902 73632 889// 333 11040
AAXX 21121 30230 32998 30000 11393 21429 39989 40373 57015 80001 333 11362
AAXX 21121 30252 119// 80901 11224 21242 39999 40343 57009 69962 77172 8805/ 333 11224
AAXX 21121 30309 11599 82901 11145 21165 39759 40307 53005 60022 78587 8595/ 333 11142
AAXX 21121 30328 119// 80000 11254 21278 39879 40349 57020 69942 77172 8802/ 333 11254
AAXX 21121 30521 119// 81501 11248 21266 39777 40355 57025 60022 77172 8802/ 333 11248
AAXX 21121 30710 11997 81202 11116 21132 39723 40334 57013 69982 70282 86031 333 11104
AAXX 21123 42071 31995 00000 10144 20098 40168 70500 333 10188 58014
AAXX 21121 23973 11997 82002 11103 21116 30215 40280 52005 69982 77172 8802/ 333 11097
AAXX 21121 23975 115// 82702 11116 21136 30180 40295 53006 60012 78682 889// 333 11004
AAXX 21121 23986 11598 81903 11151 21164 39620 40290 52005 60072 78587 883// 333 11148
AAXX 21121 23987 11495 82002 11114 21134 30221 40298 53010 60022 78582 889// 333 11110
AAXX 21121 24606 329// 00000 11424 21450 30046 40363 58003 333 11391
AAXX 21121 29253 119// 82302 11136 21171 30164 40347 52010 69982 77172 8802/ 333 11134
AAXX 21121 29471 11496 82502 11104 21124 30109 40348 53001 69952 78582 889// 333 11102 88917
AAXX 21121 29481 11997 83002 11099 21120 30083 40332 52002 69952 77172 8802/ 333 11097
AAXX 21121 29553 11969 82704 11121 21141 30006 40393 53007 69902 70272 8802/ 333 11103
AAXX 21121 29562 11567 82404 11106 21142 39936 40372 54000 69942 78583 889// 333 11096
AAXX 21121 29581 115// 82705 11077 21095 30070 40335 58003 69902 70283 8392/ 333 11075
AAXX 21121 29594 11597 82904 11081 21105 39923 40322 52001 60022 78583 889// 333 11074
AAXX 21121 29653 32597 72302 11068 21130 39889 40391 53007 87300 333 11053
AAXX 21121 29675 31598 82001 11079 21141 39757 40370 53003 73642 885// 333 11058
AAXX 21121 29676 31698 83004 11048 21136 39909 40344 53001 73633 885// 333 11038
AAXX 21121 29752 114// 72507 11147 21174 38924 48555 53008 69902 78583 84909 333 11124 91117
AAXX 21121 29759 325// 72603 11123 21185 39353 40438 53012 83930 333 11111
AAXX 21121 29766 32899 80000 11116 21122 30037 40412 53003 8801/ 333 11116
AAXX 21121 29789 32599 82301 11066 21138 39121 40331 56001 889// 333 11044
AAXX 21121 29864 329// 21701 11099 21178 39730 40412 53006 81041 333 11053
AAXX 21121 29866 328// 82804 11051 21110 30067 40398 53004 8807/ 333 11042
AAXX 21121 29869 326// 83005 11030 21111 30017 40400 56001 8552/ 333 11019 95090
AAXX 21121 29956 32684 82505 11072 21125 39862 40445 53005 889// 333 11052 88940
AAXX 21121 30337 11597 70000 11346 21374 39864 40380 57016 69902 78582 86901 333 10301
AAXX 21121 30405 119// 83001 11106 21119 39765 40314 53010 60032 77187 80005 333 11091
AAXX 21121 30504 11597 83303 11067 21091 39647 40311 53007 69992 78582 883// 333 11065
AAXX 21121 30603 11997 82202 11104 21117 39721 40313 57008 60022 77172 8802/ 333 11103
AAXX 21121 30612 115// 81202 11139 21152 39763 40324 57008 60022 78582 8491/ 333 11138
AAXX 21121 30622 119// 80000 11272 21290 39663 40380 57017 69942 77177 8802/ 333 11269
AAXX 21121 30627 11998 82401 11201 21220 39352 40354 57013 69972 77172 80007 333 11195
AAXX 21121 30703 129// 80000 11166 21172 39626 40343 53002 60022 82077 333 11099
AAXX 21121 36307 11897 72901 11291 21316 39150 48626 53002 69972 70272 87030 333 11253
AAXX 21124 42027 32596 70000 10056 20001 38436 48539 85510 333 10059 58027
AAXX 21124 42101 31995 20000 10176 20110 40159 70500 80001 333 10229 58010 82072
AAXX 21124 42111 31996 32702 10160 20067 39375 40152 70500 81031 333 10232 58004 82070
AAXX 21124 42131 31995 20000 10172 20129 40165 70540 80001 333 10205 58021
AAXX 21124 42165 31994 03201 10196 20045 40151 70500 333 10220 58022
AAXX 21124 42182 31995 30000 10182 20090 40156 70411 82031 333 10230 58008 82360
AAXX 21124 42189 31994 32301 10154 20125 40151 71000 80001 333 10165 59007 83070
AAXX 21124 42260 31993 40000 10157 20108 40158 70410 81002 333 10198 58001
AAXX 21124 42328 31995 30506 10192 20003 40159 70500 80002 333 10202 58024 83070
AAXX 21124 42339 31995 40502 10232 20041 40136 70500 80001 333 10252 58009 84070
AAXX 21124 42348 31995 31106 10206 20079 40141 70500 80001 333 10238 58007 83070
AAXX 21124 42361 31994 10000 10180 20134 40155 71044 80001 333 10237 58006 81075
AAXX 21124 42369 31995 29902 10122 20099 40163 71021 80001 333 10158 59004 82070
AAXX 21124 42379 31595 83201 10126 20073 40155 71022 8652/ 333 10130 59008 86620 88458
AAXX 21124 42452 31995 20000 10270 20108 40136 70511 80001 333 10252 58007
AAXX 21124 42475 31994 00000 10140 20114 40160 71000 333 10157 59005
AAXX 21124 42071 NIL
AAXX 21124 71916 46/// /1502 11403 21443 30078 40137 58005 6///1 333 11323 21404 7////
AAXX 21124 71683 46/// /1602 11263 39951 40066 56016 6///1 333 11255 21288 7////
AAXX 21124 71257 17/// /0316 11027 21047 69951 7//4/ 333 10058 21028 70044
AAXX 21124 71258 16/// /3223 11037 21049 60001 333 10067 21040 70000
AAXX 21124 71259 16/// /3615 11007 21023 60001 333 10034 21042 70000
AAXX 21124 71274 16/// /3006 11048 21060 60001 333 10038 21052 70016
AAXX 21124 71275 46/// /3008 11057 21069 6///1 333 10042 21061 7////
AAXX 21124 71278 16/// /3105 11050 21063 60001 333 10067 21053 70000
AAXX 21124 71286 17/// /3110 11041 21050 69941 7//4/ 333 10053 21045 7////
AAXX 21124 71287 16/// /2507 11034 21045 60001 333 10064 21042 70007
AAXX 21124 71289 17/// /3408 11036 21050 69971 7//4/ 333 10050 21039 70007
AAXX 21124 71010 16/// /3408 11044 21060 60001 333 10053 21044 70000
AAXX 21124 71464 46/// ///06 10065 39857 40069 56022 6///1 333 10057 20031 7////
AAXX 21124 71525 16/// /3117 11014 21024 60001 333 10056 21028 70000
AAXX 21124 71526 17/// /3424 11027 21029 69941 7//4/ 333 10061 21030 70004
AAXX 21124 71535 46/// /2808 11032 21058 6///1 333 10072 21044 7////
AAXX 21124 71536 16/// /2907 11045 21069 60001 333 10067 21054 70000
AAXX 21124 71537 16/// /3111 11009 21019 60001 333 10037 21040 7////
AAXX 21124 71214 16/// /3506 11052 21067 60001 333 10063 21052 70000
AAXX 21124 71223 16/// /3508 11051 21067 60001 333 21051 7////
AAXX 21124 71225 16/// /3113 11028 21055 60001 333 10061 21029 70000
AAXX 21124 71227 46/// /3108 11045 21050 6///1 333 10055 21045 7////
AAXX 21124 71351 47/// /2903 11030 21040 6///1 7//4/ 333 10059 21033 7////
AAXX 21124 71353 17/// /3409 11035 21050 69961 7//4/ 333 10050 21035 70006
AAXX 21124 71385 46/// /2129 11039 6///1 333 11023 21090 7////
AAXX 21124 71445 16/// /3516 11096 21121 39809 40089 52035 60001 333 11002 21096 4/043 70000
AAXX 21121 40001 32570 61005 10162 21027 40193 58023 83550 333 83626 86360
AAXX 21121 40007 32960 50803 10130 20050 40191 58017 83052 333 83360 85070
AAXX 21121 40025 32560 62505 10186 20141 40175 56010 82430 333 82630 85360
AAXX 21121 40045 32570 61203 10144 20023 40204 57015 83550 333 83630 86360
AAXX 21121 40061 32570 20000 10141 40181 57020 82100 333 82830
AAXX 21121 40080 32965 40000 10184 20017 39459 40165 57018 80001
AAXX 21121 40087 NIL
AAXX 21121 40095 NIL
BBXX SBLI 21121 99300 11660 43/98 83410 10188 40178 53025 22264 00223 2//// 4////
BBXX SHIP 21124 99529 11713 41598 40518 10000 21000 40999 51002 70322 84/// 91200 22214 00040 2//// 3//// 4//// 80000
BBXX SMGW 21121 99349 11697 43/98 83314 10157 40111 50007 22224 00215 2//// 4////
AAXX 21121 51711 32780 70401 11097 21123 38094 52002 86502 333 05252
AAXX 21121 51730 32970 11401 11064 21140 40439 52005 80002 333 00053
AAXX 21121 52112 32980 00000 11109 21184 40475 52004 333 05153
AAXX 21121 52737 32980 23401 11081 21219 37070 52010 80002 333 00152
AAXX 21121 52787 11770 71605 11135 21155 37051 52009 69901 77070 875// 333 00202
AAXX 21121 53352 32980 02502 11145 21207 40452 52005
AAXX 21121 53593 32980 02001 11081 21209 40382 52017
AAXX 21121 53705 32965 00000 11053 21159 40438 52017 333 00553
AAXX 21121 53863 32962 02002 11028 21139 40384 52021
AAXX 21121 53975 32970 73201 10013 21157 40353 52020 86032
AAXX 21121 54273 32670 42503 11100 21173 40257 52019 84500
AAXX 21121 54324 32970 03604 11065 21252 40313 52022
AAXX 21121 54405 32980 02906 11054 21211 40354 52012 333 91117 91529
AAXX 21121 54436 32980 03203 11033 21249 40331 52028
AAXX 21121 54808 32961 00401 10015 21100 40330 52023
AAXX 21121 54826 32965 10212 11096 21186 38494 52013 80002 333 91122 91502
AAXX 21121 54836 32961 00000 11008 21065 40327 52024
AAXX 21121 54863 32970 03202 10004 21096 40295 52025
AAXX 21121 56018 32980 02204 10011 21310 36137 52014 333 00002 91121 91527
AAXX 21121 56021 32980 20000 11068 21315 36030 52015 80002 333 00002 91119 91527
AAXX 21121 57071 32962 73204 10037 21111 40338 52023 80002
AAXX 21124 63729 12480 70000 10223 20173 38860 48/// 60251 829/ 333 0//25 55300 59009 82618 81920 86358
AAXX 21124 63733 32580 42710 10237 20199 38845 48487 83931 333 55300 58002 83824 81926
AAXX 21124 63791 32680 52408 10330 20140 39085 48490 85900 333 55304 58003 81934 85835
AAXX 21124 63832 32581 70000 10264 20184 38804 48483 86931 333 55305 59007 86820 81922 84358
AAXX 21124 63862 32580 50000 10283 20159 38869 48484 83933 333 55310 59008 83826 81927 83359
AAXX 21124 63887 32580 73610 10249 20160 38559 48476 84232 333 55305 59014 84824 85359
AAXX 21124 63894 01460 80000 10250 20250 30036 40096 60181 76161 8692/ 333 0//11 55300 58011 60047 86514 81920 88457
AAXX 21124 63932 01580 70000 10190 20174 38292 48488 69961 79592 8397/ 333 55300 59001 69965 83822 81923 87358
AAXX 21124 63962 11580 52407 10280 20178 38926 48495 60011 71792 85900 333 0//12 55310 59007 85825 81927
AAXX 21124 63971 31580 70118 10271 20246 39968 40097 70292 8493/ 333 55304 58001 84823 81924 86158
AAXX 21124 63756 NIL
AAXX 21124 63801 NIL
AAXX 21124 63866 NIL
AAXX 21124 63870 NIL
AAXX 21124 63881 NIL
OOXX AAVIT 21124 99785 31778 57087 00501 46/// /3013 11058 21059 39714 49776 5//// 91200
AAXX 21124 89257 46/// /2313 11123 21141 39836 49908 5//// 91200
OOXX AAERC 21124 99815 31639 60713 00451 46/// /1210 11041 21053 39733 49789 52029 91150
AAXX 21124 89272 46/// /9902 11087 21129 38105 49734 5//// 91200
AAXX 21121 38838 42998 30000 11043 21098 39688 40400 53003 82032
AAXX 21120 44329 32998 03205 11148 21191 37840 40495 55000 333 11091
AAXX 21124 68513 36/// /1913 10222 20095 30017 40127 51001 333 10223 20162 91018 555 91013
AAXX 21124 68514 329// 02508 10331 20014 39620 48534 57012 333 10341 20177 91017 555 91009
AAXX 21124 68523 36/// /2611 10326 21092 39057 48497 58008 333 10336 20142 91022 555 91011
AAXX 21124 68527 36/// /2410 10385 20046 39000 48474 57017 333 10387 20220 91016 555 91008
AAXX 21124 68572 31780 61302 10280 20109 38377 48480 57003 71799 85901 333 10315 20119 91007 555 91017
AAXX 21124 68575 36/// /1302 10336 20118 39039 48494 58008 333 10338 20146 91006 555 91011
AAXX 21124 68581 36/// /3604 10354 20122 39304 48500 58016 333 10357 20180 91009 555 91008
AAXX 21124 68583 36/// /0809 10294 20210 39944 40050 57016 333 10323 20214 91017 555 91005
AAXX 21124 68589 36/// /3203 10268 20098 38233 48483 57010 333 10284 20141 91005 555 91018
AAXX 21124 68613 36/// /2606 10223 20121 30030 40144 56010 333 10227 20113 91014 555 91014
AAXX 21124 68647 36/// /3508 10331 20089 38858 48476 58011 333 10333 20163 91018 555 91011
AAXX 21124 68651 36/// /3307 10300 20087 38525 48489 58007 333 10302 20157 91017 555 91016
AAXX 21124 68715 36/// /2306 10267 20089 39990 40113 57007 333 10275 20133 91014 555 91011
AAXX 21124 68717 36/// /2605 10265 20077 39969 40108 57011 333 10267 20160 91012 555 91011
AAXX 21124 68723 36/// /2609 10328 21024 39324 48496 57013 333 10334 20153 91020 555 91008
AAXX 21124 68737 NIL
AAXX 21124 68744 NIL
AAXX 21124 68747 36/// /1312 10281 20186 39546 48495 58016 333 10307 20165 91018 555 91007
AAXX 21124 68754 36/// /1508 10262 20201 39074 48478 58002 333 10319 20194 91015 555 91010
AAXX 21124 68817 NIL
AAXX 21124 68821 36/// /2819 10285 20080 39848 40077 58009 333 10285 20171 91031 555 91008
AAXX 21124 68835 36/// /1707 10272 20151 39969 40079 58008 333 10283 20182 91014 555 91008
AAXX 21124 68843 36/// /2307 10203 20169 39986 40084 58001 333 10225 20175 91014 555 91008
AAXX 21124 68849 36/// /1811 10186 20167 39360 48476 58006 333 10234 20141 91015 555 91010
AAXX 21124 68912 36/// /2905 10186 20137 30120 40129 57005 333 10192 20137 91006 555 91012
AAXX 21124 68918 36/// /2612 10224 20125 30099 40117 58002 333 10227 20185 91020 555 91011
AAXX 21124 68921 36/// /2413 10237 20125 30108 40111 57004 333 10245 20187 91024 555 91011
AAXX 21124 68925 36/// /2809 10213 20109 39749 40106 58003 333 10221 20155 91017 555 91011
AAXX 21124 68926 32570 72107 10252 20139 39917 40090 57006 875// 333 10269 20163 91014 555 91009
AAXX 21124 68935 36/// /2306 10248 20158 30032 40094 57010 333 10251 20187 91012 555 91009
AAXX 21124 65338 32558 CHECK TEXT NEW ENDING ADDED GOOOYFYX
AAXX 21123 41150 31559 13508 10219 20151 40207 70500 81200 333 58004 81825
AAXX 21124 68737 NIL
AAXX 21124 68744 NIL
AAXX 21124 68817 NIL
AAXX 21121 50548 32975 23405 11168 21252 40218 52021 80002
AAXX 21121 50564 11970 83601 11198 21218 40202 52018 69961 77070 8801/
AAXX 21121 51334 11970 40000 11176 21205 40517 52005 69901 70070 80002 333 05554
AAXX 21121 51818 11865 72701 11086 21104 40448 52006 69941 77077 875// 333 00153
AAXX 21121 52378 32980 02003 11125 21222 40481 52010 333 00354
AAXX 21121 53487 32965 02703 11088 21186 40405 52014
AAXX 21121 53502 32980 02201 11089 21192 40460 52014 333 00400
AAXX 21121 53923 32980 50202 11046 21134 40405 52016 80002
AAXX 21121 54049 32970 02907 11121 21248 40247 52012
AAXX 21121 54115 32980 02506 11153 21232 40342 52010
AAXX 21121 54157 32962 02904 11100 21226 40265 52017
AAXX 21121 54186 32670 82502 11103 21151 40230 52010 885//
AAXX 21121 54311 32980 03203 11137 21239 40355 52011
AAXX 21121 54346 32965 03201 11075 21174 40286 52015
AAXX 21121 54377 32665 71401 11050 21165 40245 52021 87500
AAXX 21121 54386 32970 00000 11127 21167 40237 54000
AAXX 21121 54493 32972 03204 11073 21172 40270 52031
AAXX 21121 54587 NIL
AAXX 21121 54715 31950 00000 11028 21051 40331 52019 71000
AAXX 21121 54929 31957 73202 10020 21037 40311 52022 71000 80002
AAXX 21121 54945 32960 63202 10019 21082 40307 52020 80002
AAXX 21121 56065 32980 00903 11103 21166 36609 52018 333 00252
AAXX 21121 57193 31950 73601 10002 21025 40322 52020 71000 80002
AAXX 21121 57290 32960 70000 10026 21014 40322 52022 80002
BBXX 46206 21121 99488 71260 46/// /3407 10074 40302 52009 22200 00085 11307 70034 333 91209
AAXX 21124 91367 32474 30815 10272 20257 83120 333 10300 562// 83815 555 92112
AAXX 21124 87925 11680 62317 10096 20006 39960 49983 52011 60044 70252 81182 333 10096 20050 56559 81835 84360
AAXX 21124 68174 31770 32106 10307 20138 38767 48502 58013 70500 81162 333 10308 20156 91012 555 91015
AAXX 21124 68191 36/// /2602 10353 20121 39591 48541 5//// 333 10353 20189 91005 555 91009
AAXX 21124 68242 32680 52908 10324 20090 38700 48489 58012 83270 333 10328 20196 91018 555 91014
AAXX 21124 68262 36/// /2803 10320 20121 38678 48493 58014 333 10323 20204 91009 555 91015
AAXX 21124 68263 32680 32608 10292 20120 38467 48491 58011 83100 333 10293 20165 91014 555 91017
AAXX 21124 68267 32570 62413 10283 20083 38226 48486 58010 86100 333 10295 20251 91018 555 91019
AAXX 21124 68289 36/// /0807 10296 20140 39117 48510 58013 333 10303 20165 91012 555 91013
AAXX 21124 68350 36/// /3307 10328 20122 38641 48498 58011 333 10334 20173 91013 555 91016
AAXX 21124 68368 42782 32412 10281 20106 38310 48499 58015 81260 333 20223 555 21019
AAXX 21124 68403 36/// /2409 10214 20107 30114 40146 58001 333 10217 20166 91016 555 91014
AAXX 21124 68424 32782 22108 10383 21011 39136 48499 58007 81172 333 10386 20216 91018 555 91009
AAXX 21124 68438 32782 53607 10338 20095 38765 48473 58017 82270 333 10351 20177 91016 555 91012
AAXX 21124 68442 32782 23109 10311 20102 38634 48492 58013 82100 333 10323 20153 91016 555 91016
AAXX 21124 68461 32680 42006 10296 20094 38304 48480 58012 81200 333 10297 20123 91017 555 91018
AAXX 21124 68512 32882 12610 10228 20035 39002 48507 57001 81080 333 10230 20106 91018 555 91015
AAXX 21124 68538 31774 33310 10340 20097 38669 48463 58010 70500 82202 333 10343 20190 91017 555 91012
AAXX 21124 68587 NIL
AAXX 21124 68588 NIL
AAXX 21124 68591 36/// /0412 10292 20228 39881 40054 58006 333 10293 20214 91018 555 69985 91006
AAXX 21124 68592 NIL
AAXX 21124 68618 32780 12710 10281 20002 39019 48504 58006 81280 333 10283 20109 91017 555 91013
AAXX 21124 68633 36/// /3614 10307 20087 38467 48460 58015 333 10315 20152 91024 555 91013
AAXX 21124 68668 32670 41703 10342 20155 39226 48493 58006 81202 333 10342 20199 91007 555 91008
AAXX 21124 68714 36/// /2412 10221 20076 30089 40125 58002 333 10234 20128 91019 555 91012
AAXX 21124 68727 36/// /2214 10336 20056 39045 48462 57017 333 10349 20189 91022 555 91007
AAXX 21124 68752 36/// /1612 10255 20201 39409 48490 57008 333 10276 20172 91016 555 91009
AAXX 21124 68816 32675 13213 10238 20098 30066 40119 58007 81500 333 20194 91026 555 91012
AAXX 21124 68828 32470 61812 10215 20167 39870 40098 56005 86500 333 20193 555 91010
AAXX 21124 68842 32380 52219 10234 20150 30020 40088 57008 81680 333 20186 555 91008
AAXX 21124 68858 NIL
AAXX 21124 68906 32698 52514 10163 20093 30086 40150 53011 83506 222// 00123 333 10168 20098 91024 555 91015
AAXX 21124 68994 11497 83018 10097 20090 30002 40031 57012 69941 76022 885// 222// 00076 303// 41002 333 10111 20090 91025 555 20004 91003
AAXX 21124 89004 32880 12105 11056 21077 38748 49741 57009 80001 333 11040 21093 91013 555
AAXX 21124 42559 32996 01402 10236 20066 40121 333 10268 58001
AAXX 21124 42571 31996 30000 10214 20059 40139 70500 81031 333 10261 58000
AAXX 21124 42667 32996 41403 10236 20104 39542 40127 80002 333 10274 58003 84075
AAXX 21124 42675 31996 50502 10228 20041 40132 70520 80001 333 10262 59006 85070
AAXX 21124 42754 31996 20506 10240 20123 39487 40118 70511 80001 333 10282 58002 82075
AAXX 21124 42779 32996 40000 10216 20061 39436 40134 80001 333 10266 59002 84075
AAXX 21124 42867 31996 21102 10238 20090 40128 70500 80001 333 10280 58004 82075
AAXX 21124 42874 32996 20000 10240 20049 40129 80001 333 10284 58002 82075
AAXX 21124 42933 32997 50000 10264 20083 40117 82032 333 10306 58001 82360 84175
AAXX 21124 43041 32996 00501 10242 20065 39506 40118 333 10283 58000
BBXX 46206 21121 99488 71260 46/// /3407 10074 40302 52009 22200 00085 11307 70034 333 91209
AAXX 21121 50658 31930 82901 11212 21219 40208 52008 70400 80007
AAXX 21121 50888 32970 62003 11109 21162 40177 57004 80002
AAXX 21121 50983 32970 50401 11175 21203 40194 57007 80002
AAXX 21121 51053 32972 02902 11224 21253 40545 54000 333 05601
AAXX 21121 51542 32680 71601 11231 21256 37619 52005 81502 333 05259
AAXX 21121 52436 32980 21601 11129 21212 38590 40478 52009 80002 333 00053
AAXX 21121 52908 32980 12905 11099 21332 35723 52013 80002 333 00051 91124 91529
AAXX 21121 52996 32970 03604 11133 21163 37618 52012 333 00456
AAXX 21121 53083 32980 02002 11233 21265 40424 52011 333 00404
AAXX 21121 53764 32970 02902 11061 21139 40409 52011
AAXX 21121 53787 32980 20701 11061 21164 40377 52020 80002
AAXX 21121 54096 32970 02702 11096 21155 40195 57004
AAXX 21121 54226 32980 03207 11102 21238 40307 52010
AAXX 21121 54259 32965 02501 11120 21172 40281 52016
AAXX 21121 54527 32965 03404 11006 21197 40335 52024
AAXX 21121 54534 32965 03403 11055 21196 40326 52033
BBXX 46205 21121 99542 71343 46/// /1707 10062 40285 57008 22200 00077 11206 70030 333 91209
AAXX 21124 68587 NIL
AAXX 21124 68588 NIL
AAXX 21124 68592 NIL
AAXX 21124 68858 NIL
BBXX 46132 21121 99497 71279 46/// /3404 10073 40316 52001 22200 00088 11306 70032 333 91206
BBXX 46132 21121 99497 71279 46/// /3404 10073 40316 52001 22200 00088 11306 70032 333 91206
BBXX 46205 21121 99542 71343 46/// /1707 10062 40285 57008 22200 00077 11206 70030 333 91209
AAXX 21121 80210 01463 71202 10195 20164 38649 69944 70562 83436 333 20182 31/// 50360 55068 56330 59013 69948 83614 83358
AAXX 21121 80214 31457 81102 10213 20213 39118 7402/ 8287/ 333 20200 30/// 50450 55073 5655/ 59013 82815 87457
AAXX 21121 80222 11466 70504 10124 20099 37523 69904 71552 85835 333 20117 31/// 55055 56299 58005 85817
AAXX 21121 80234 02562 80000 10228 20203 39615 40110 69984 84572 333 20217 300// 50450 55021 56299 59006 69912 84628 85359
AAXX 21121 80241 NIL
AAXX 21121 80259 31560 70000 10202 20192 39042 70522 83870 333 20198 30/// 50440 55071 5646/ 59017 83825 85457
AAXX 21121 80315 32565 70000 10232 20216 39589 40094 333 20219 30/// 50470 55073 5682/ 59015 81620 87362
AAXX 21121 80342 11450 70000 10158 20155 38203 60014 7402/ 83830 333 20158 30/// 50330 55044 5637/ 59011 83615 85358
AAXX 21121 80370 01456 80000 10094 20091 60064 7402/ 8677/ 333 20090 31/// 50200 55027 5640/ 60052 86712
AAXX 21121 80398 12270 60000 10242 20238 30022 40118 60144 83630 333 20241 31/// 50010 55007 5633/ 59008 83606 86358
AAXX 21121 80001 01470 30809 10270 20229 30108 40109 60134 70152 81106 333 20238 31/// 50240 55052 562/0 59014 69957 70132 81818
AAXX 21121 80002 12470 20404 10270 20223 60024 81101 333 20238 30/// 5///0 55058 561/0 70021 81817
AAXX 21121 80009 31560 30000 10226 20200 30085 40090 70500 81801 333 20220 30/// 50310 55091 560/0 59006 81820
AAXX 21121 80022 31964 00000 10244 20232 30087 40089 333 20242 300/// 55081 59023
AAXX 21121 80028 31960 10102 10261 20232 30064 40099 70500 80001 333 20253 30/// 5///0 55/// 56//0 59014 81070
AAXX 21121 80063 31259 20000 10240 202234 7051/ 81610 333 20230 30/// 5600/ 81706
AAXX 21121 80084 01150 81802 10245 20241 60014 7102/ 876// 333 20238 31/// 55056 561// 60002 87704
AAXX 21121 80091 31462 30000 10243 20236 7050/ 81468 333 20238 30/// 50360 55064 56000 81617
AAXX 21121 80094 31460 10000 10186 20180 38803 7111/ 81131 333 20176 30/// 50370 55039 56039 59006 81812
AAXX 21121 80097 32570 40000 10210 20204 39758 40108 82532 333 20205 30/// 50390 55070 56099 58018 82620
AAXX 21121 80099 31466 70000 10234 20222 39933 40077 7052/ 86612 333 20220 30/// 50520 55063 56999 59004 86717
AAXX 21121 80110 31458 60000 10185 20169 38500 7052/ 83586 333 20180 31/// 55057 56009 58000 83615 85270
AAXX 21121 80112 11258 40000 10142 20132 37893 69964 74052 84801 333 20136 31/// 55088 569/9 59006 84606
AAXX 21121 80144 01230 80000 10240 20237 60274 7102/ 887// 333 20232 31/// 50310 55049 560// 60272 88706
AAXX 21121 80210 01463 71202 10195 20164 38649 69944 70562 83436 333 20182 31/// 50360 55068 56330 59013 69948 83614 83358
AAXX 21121 80214 31457 81102 10213 20213 39118 7402/ 8287/ 333 20200 30/// 50450 55073 5655/ 59013 82815 87457
AAXX 21121 80222 11466 70504 10124 20099 37523 69904 71552 85835 333 20117 31/// 55055 56299 58005 85817
AAXX 21121 80234 02562 80000 10228 20203 39615 40110 69984 84572 333 20217 300// 50450 55021 56299 59006 69912 84628 85359
AAXX 21121 80241 NIL
AAXX 21121 80259 31560 70000 10202 20192 39042 70522 83870 333 20198 30/// 50440 55071 5646/ 59017 83825 85457
AAXX 21121 80315 32565 70000 10232 20216 39589 40094 333 20219 30/// 50470 55073 5682/ 59015 81620 87362
AAXX 21121 80342 11450 70000 10158 20155 38203 60014 7402/ 83830 333 20158 30/// 50330 55044 5637/ 59011 83615 85358
AAXX 21121 80370 01456 80000 10094 20091 60064 7402/ 8677/ 333 20090 31/// 50200 55027 5640/ 60052 86712
AAXX 21121 80398 12270 60000 10242 20238 30022 40118 60144 83630 333 20241 31/// 50010 55007 5633/ 59008 83606 86358
AAXX 21121 80001 01470 30809 10270 20229 30108 40109 60134 70152 81106 333 20238 31/// 50240 55052 562/0 59014 69957 70132 81818
AAXX 21121 80002 12470 20404 10270 20223 60024 81101 333 20238 30/// 5///0 55058 561/0 70021 81817
AAXX 21121 80009 31560 30000 10226 20200 30085 40090 70500 81801 333 20220 30/// 50310 55091 560/0 59006 81820
AAXX 21121 80022 31964 00000 10244 20232 30087 40089 333 20242 300/// 55081 59023
AAXX 21121 80028 31960 10102 10261 20232 30064 40099 70500 80001 333 20253 30/// 5///0 55/// 56//0 59014 81070
AAXX 21121 80063 31259 20000 10240 202234 7051/ 81610 333 20230 30/// 5600/ 81706
AAXX 21121 80084 01150 81802 10245 20241 60014 7102/ 876// 333 20238 31/// 55056 561// 60002 87704
AAXX 21121 80091 31462 30000 10243 20236 7050/ 81468 333 20238 30/// 50360 55064 56000 81617
AAXX 21121 80094 31460 10000 10186 20180 38803 7111/ 81131 333 20176 30/// 50370 55039 56039 59006 81812
AAXX 21121 80097 32570 40000 10210 20204 39758 40108 82532 333 20205 30/// 50390 55070 56099 58018 82620
AAXX 21121 80099 31466 70000 10234 20222 39933 40077 7052/ 86612 333 20220 30/// 50520 55063 56999 59004 86717
AAXX 21121 80110 31458 60000 10185 20169 38500 7052/ 83586 333 20180 31/// 55057 56009 58000 83615 85270
AAXX 21121 80112 11258 40000 10142 20132 37893 69964 74052 84801 333 20136 31/// 55088 569/9 59006 84606
AAXX 21121 80144 01230 80000 10240 20237 60274 7102/ 887// 333 20232 31/// 50310 55049 560// 60272 88706
BBXX 46181 21121 99538 71288 46/// /2802 10024 40326 52004 22200 00047 10300 70000 333 91202
BBXX TBWUK19 21124 99526 71447 41/97 51616 10049 20039 40163 7//// 8//7/ 22262 20402 320// 41208 5//// 80045
BBXX A8OU4 21124 99284 71210 41598 23508 10150 20092 40191 50010 70211 82148 22234 00180 20503 335// 40904 5//// 80120
BBXX PBHZ 21123 99328 70656 41598 62808 10200 20197 40274 53011 70322 84565 22213 20401 30432 40801 50702 80198
BBXX ZCDG4 21124 99174 70740 41698 52534 10270 20190 40155 53004 70311 85400 22234 00290 20303 312// 40706 5//// 80215
AAXX 21124 89013 46/// /1014 11132 21175 37605 49572 57014 91200
AAXX 21124 89108 46/// /3308 11206 36982 4//// 5//// 91200
AAXX 21124 89257 46/// /2313 11124 21142 39838 49910 57014 91150
AAXX 21124 89266 46/// /9901 11036 21105 39792 49931 57012 91200
AAXX 21124 89272 46/// /9902 11088 21130 38105 49735 57009 91150
AAXX 21124 89314 46/// /3011 11058 38243 4//// 5//// 91150
AAXX 21124 89327 46/// /0000 11016 39598 49876 5//// 91150
AAXX 21124 89329 46/// /2504 11078 38804 49875 5//// 91150
AAXX 21124 89332 46/// /0209 11054 39282 49897 5//// 91200
AAXX 21124 89376 46/// /0415 11082 39698 49766 52019 91150
AAXX 21124 89667 46/// /3314 11035 39771 49781 57001 91200
AAXX 21124 89734 46/// /0615 11218 36046 4//// 52001 91200
AAXX 21124 89744 46/// /3520 11179 36406 4//// 52008 91200
AAXX 21124 89769 46/// /2611 11029 39705 49757 5//// 91200
AAXX 21124 89799 46/// /1411 11225 36779 4//// 54000 91200
AAXX 21124 89828 46/// ///01 11219 36436 4//// 52002 91150
AAXX 21124 89832 46/// /2417 11038 39523 49816 5//// 91200
AAXX 21124 89834 46/// /2717 11134 38095 4//// 52009 91200
AAXX 21124 89865 46/// ///// 1//// 3//// 4//// 5//// 91200
AAXX 21124 89866 46/// /3302 11040 39640 49772 52009 91150
AAXX 21124 89868 46/// /1907 11071 39686 49753 52009 91150
AAXX 21124 89869 46/// /1412 11024 39681 49758 52011 91200
AAXX 21124 89872 46/// /2608 11029 39711 49766 52004 91150
AAXX 21124 89873 46/// /0908 11057 39739 49816 52033 91150
AAXX 21124 89879 46/// /0000 11020 39664 49701 52005 91150
AAXX 21124 88900 46/// /0406 10059 20054 30021 40024 58002 333 10060 20038
BBXX AMOUK17 21124 99340 30256 46/// ///// 10237 20166 30078 40080 57005 91150
BBXX AMOUK15 21124 99134 50086 46/// ///// 10220 20170 30145 40175 52007 91150
BBXX C6W2032 21123 99011 10048 41398 41814 10280 2024/ 40120 54000 7//11 84260 22283 00270 20304 31818 40304 50304 6//// 80250 ICE /////
BBXX E5U2123 21123 99175 70177 41996 40820 10230 20212 40168 50005 70511 84/7/ 22284 00231 20504 399// 40803 5//// 80218
BBXX A8MV6 21123 99209 10648 41797 10618 10240 20117 40150 54000 70000 81101 22273 04280 20604 336// 40403 5//// 80170
BBXX ZDLP 21123 99547 50385 41/91 93217 10032 20030 40008 54000 74544 89/// 22283 04024 20201 333// 40301 5//// 80031 ICE //1/0
BBXX LAVN4 21124 99329 50479 41698 32208 10250 2018/ 40108 51008 70100 83430 22213 00200 20402 304// NNNN
BBXX 62141 21123 99493 50591 41797 43132 10121 49971 53003 72100 84141 22200 20605 33232 40403 50605
BBXX SHIP 21121 99063 50813 41/91 /1405 10200 20169 40110 53010 74144 8//// 22274 20000 324// 41002 80180
AAXX 21121 31825 32984 10000 11265 21284 30017 40247 51002 80001 333 11137
AAXX 21121 31845 32998 00000 11260 21278 30035 40216 56003 333 11130
AAXX 21121 31878 31960 50000 11160 21194 30061 40192 57005 70411 80001 333 11085
AAXX 21121 31915 32998 82802 11109 21162 39906 40181 58004 80005 333 11045
AAXX 21121 31921 32997 60000 11115 21128 30077 40179 55009 85071 333 11059
AAXX 21121 31969 NIL
AAXX 21121 31981 32599 62102 11171 21183 39950 40201 50000 86500 333 11063
AAXX 21121 31987 32999 23602 11087 21129 39935 40203 50000 82040 333 11048
AAXX 21121 32069 12998 01105 11200 21226 30221 40227 52001 69900 333 11117 91006 91108
AAXX 21124 83599 31999 099// 10270 20257 40119 51012 70500 80000 222// 02256 20501
AAXX 21124 83650 41698 70405 10260 20229 40180 52005 71555 86437 222// 02250 21003 80235 333 20220
AAXX 21124 83925 32897 42405 10252 20223 40094 57022 7030/ 84080 222// 20000 80232 333 20230
AAXX 21124 83970 41/98 21001 10240 20212 30102 40106 52016 7020/ 82100 222// 02225 20000 80220 333 20210
AAXX 21121 30499 11997 80101 11247 21271 39536 40250 52006 60012 77173 8802/ 333 11200
AAXX 21121 30683 329// 83202 11236 21293 39566 40270 52004 82044 333 11190
AAXX 21121 30695 11998 52904 11220 21269 39868 40231 51010 69942 70273 83034 333 11169
AAXX 21121 31253 11997 83601 11204 21230 39707 40194 52001 60022 77172 8802/ 333 11200
AAXX 21121 31295 11997 83404 11208 21227 39710 40199 52003 60022 77172 84037 333 11190
AAXX 21121 31348 32999 60000 11308 21315 30028 40248 54000 80002 333 11226
AAXX 21121 31418 32984 00000 11260 21278 39954 40234 57001 333 11219
AAXX 21121 31439 32999 00000 11262 21280 30183 40232 53001 333 11182
AAXX 21121 31442 11997 52902 11224 21249 39805 40185 52003 69942 70272 85020 333 11204
AAXX 21121 31445 11957 82902 11218 21243 39910 40182 52004 60012 77172 80007 333 11197
AAXX 21121 31474 31998 50501 11263 21294 39691 40218 57004 77172 80006 333 11210
AAXX 21121 31521 11950 82702 11208 21227 39872 40184 52011 60012 77172 8801/ 333 11148
AAXX 21121 31527 11997 82902 11195 21207 39853 40174 52006 69942 77172 8802/ 333 11140
AAXX 21121 31534 11997 80000 11197 21216 39820 40187 53002 69900 77172 8802/ 333 11170
AAXX 21121 31587 11995 83202 11195 21214 30039 40195 52022 69962 77372 8802/ 333 11139
AAXX 21121 31632 NIL
AAXX 21121 31702 31997 82202 11155 21182 39828 40180 53003 77172 8802/ 333 11133
AAXX 21121 31713 32997 63601 11210 21222 30098 40204 57002 86010 333 11176
AAXX 21121 31725 32998 50202 11208 21214 30129 40200 56002 80001 333 11135
AAXX 21121 31801 32998 00000 11241 21260 39971 40219 58004 333 11146
BBXX 44062 21121 99386 70764 46/// /1907 1//// 91220 22200 00083 333 91208
BBXX 44062 21121 99386 70764 46/// /1807 1//// 40150 91210 22200 00083 333 91208
BBXX 44062 21121 99386 70764 46/// /1807 10092 40151 57009 91200 22200 00083 10301 70006 333 91208
BBXX 44063 21121 99390 70764 46/// /2104 1//// 91220 333 91204
BBXX 44063 21121 99390 70764 46/// /2103 1//// 40168 91210 333 91204
BBXX 44063 21121 99390 70764 46/// /2104 10086 40169 58021 91200 22200 00077 10201 70003 333 91206
BBXX 44041 21121 99372 70768 46/// /1402 10120 91200 22200 00088 1//00 70001 333 91202
BBXX 44042 21121 99380 70763 46/// /1905 1//// 91220 333 91206
BBXX 44042 21121 99380 70763 46/// /1905 1//// 40177 91210 333 91206
BBXX 44042 21121 99380 70763 46/// /1905 10110 40175 56009 91200 22200 00087 1//00 70002 333 91206
BBXX 44043 21121 99392 70764 46/// /2002 1//// 91220 333 91203
BBXX 44043 21121 99392 70764 46/// /1902 1//// 40152 91210 333 91203
BBXX 44043 21121 99392 70764 46/// /1803 10083 40152 58012 91200 22200 00070 1//00 70002 333 91203
BBXX 51179 21121 99143 51708 46/// ///// 1//// 91202 22200 00286
BBXX 52248 21121 99135 11448 46/// ///// 1//// 91206 22200 00281
BBXX 52246 21121 99152 11457 46/// ///// 1//// 91207 22200 00282
BBXX 52244 21121 99200 11452 46/// ///// 1//// 91208 22200 00268
BBXX 51173 21121 99260 71739 46/// ///// 1//// 91211 22200 00244
BBXX 51176 21121 99278 71758 46/// ///// 1//// 91213 22200 00239
BBXX 51172 21121 99284 71783 46/// ///// 1//// 91215 22200 00231
AAXX 21124 68155 36/// /2003 10350 20112 39157 48517 57017 333 10354 20205 91007 555 91012
AAXX 21124 68171 NIL
AAXX 21124 68176 36/// /2105 10343 20118 39103 48516 58016 333 10347 20151 91010 555 91013
AAXX 21124 68181 NIL
AAXX 21124 68182 36/// /0503 10321 20150 39305 48525 58018 333 10329 20161 91008 555 91012
AAXX 21124 68185 36/// /3107 10268 20154 38503 48436 58004 333 10290 20160 91012 555 91010
AAXX 21124 68253 36/// /1703 10346 20127 39019 48515 58016 333 10348 20224 91010 555 91013
AAXX 21124 68255 36/// /3106 10328 20099 38827 48489 58015 333 10331 20200 91014 555 91013
AAXX 21124 68271 36/// /3503 10330 20119 38885 48506 58017 333 10338 20194 91007 555 91014
AAXX 21124 68273 NIL
AAXX 21124 68287 36/// /0905 10246 20164 38560 48497 58007 333 10267 20116 91009 555 91017
AAXX 21124 68291 36/// /0303 10359 20155 39492 48538 57017 333 10359 20164 91009 555 91010
AAXX 21124 68297 NIL
AAXX 21124 68329 36/// /3106 10390 20037 39034 48499 57016 333 10398 20200 91015 555 91010
AAXX 21124 68331 36/// /3015 10347 20037 38814 48514 58003 333 10367 20179 91026 555 91016
AAXX 21124 68335 36/// /3206 10354 20053 38883 48511 58018 333 10368 20188 91013 555 91015
AAXX 21124 68341 36/// /2908 10296 20110 38517 48502 58010 333 10313 20172 91013 555 91018
AAXX 21124 68342 NIL
AAXX 21124 68343 36/// ///// 10328 20111 38750 48485 58017 333 10334 20179 555 91013
AAXX 21124 68349 36/// /2711 10318 20114 38490 48483 58012 333 10318 20181 91016 555 91016
AAXX 21124 68353 36/// /2406 10298 20121 38495 48473 58012 333 10305 20166 91012 555 91015
AAXX 21124 68355 36/// /2707 10302 20115 38556 48492 57013 333 10302 20164 91013 555 91016
AAXX 21124 68370 32680 62306 10304 20174 38354 48496 57013 86200 333 1//// 20303 555 91019
AAXX 21124 68377 NIL
AAXX 21124 68380 NIL
AAXX 21124 68387 NIL
AAXX 21124 68411 36/// /1905 10312 20052 39900 40099 58012 333 10314 20199 91016 555 91011
AAXX 21124 68429 36/// /2303 10349 20028 38637 48465 58008 333 10368 20192 91008 555 91012
AAXX 21124 68449 36/// /2404 10287 20087 38372 48480 58010 333 10287 20139 91009 555 91017
AAXX 21124 68471 NIL
AAXX 21124 68474 36/// /1702 10298 20096 38594 48489 57008 333 10306 20112 91005 555 91016
AAXX 21124 68479 36/// /1805 10337 20101 38902 48486 58016 333 10346 20181 91010 555 91012
AAXX 21124 68481 36/// /0705 10342 20160 39714 40063 57017 333 10342 20188 91009 555 91009
AAXX 21124 68487 36/// /0105 10320 20104 38950 48493 58011 333 10323 20165 91009 555 91012
AAXX 21124 68491 36/// /0513 10298 20216 30069 40078 57013 333 10312 20216 91021 555 91007
AAXX 21124 68497 36/// /0509 10354 20188 30017 40059 58015 333 10355 20217 91018 555 91006
AAXX 21124 68183 31678 10403 10318 20138 39403 48528 58017 70500 81100 333 10318 20162 91006 555 91011
AAXX 21124 68188 36/// /1902 10304 20163 39165 48516 58017 333 10318 20157 91005 555 91013
AAXX 21124 68268 36/// /2004 10342 20123 38857 48515 57015 333 10354 20199 91010 555 91015
AAXX 21124 68272 36/// /2704 10333 20137 39040 48510 58013 333 10333 20184 91009 555 91013
AAXX 21124 68296 32975 00203 1//// 2//// 38909 4//// 57003 333 1//// 20570 91009 555
AAXX 21124 68322 32582 33007 10411 20054 39079 48494 57017 83300 333 10416 20198 91016 555 91009
AAXX 21124 68338 32575 62810 10344 20071 38730 48475 57015 86270 333 10350 20180 91017 555 91012
AAXX 21124 68345 16/// /3309 10296 20152 38650 48498 58011 69921 333 10305 20164 91015 555 20002 91016
AAXX 21124 68362 12680 22307 10310 20101 38479 48480 57013 69921 81250 333 10315 20150 91016 555 20002 91016
AAXX 21124 68400 32908 00104 10370 20141 39995 40064 57017 333 10370 20196 91012 555 91007
AAXX 21124 68408 32/// /1904 10191 20131 30134 40142 57008 333 10194 20139 91005 555 91014
AAXX 21124 68416 32984 02508 10326 21092 38996 48493 57011 333 10326 20169 91016 555 91012
AAXX 21124 68478 32589 10703 10327 20137 38835 48492 57011 81200 333 10327 20143 91005 555 91013
AAXX 21124 68488 36/// /1008 10325 20135 39218 48504 57012 333 10329 20164 91015 555 91010
AAXX 21124 68494 36/// /0210 10353 20179 39922 40045 58012 333 10353 20197 91019 555 91005
AAXX 21124 68524 32986 12813 10378 21033 38996 48482 57011 81080 333 10378 20207 91021 555 91009
AAXX 21124 68546 36/// /3608 10305 20108 38628 48480 58015 333 10307 20160 91017 555 91014
AAXX 21124 68558 16/// /3006 10264 20067 38174 48476 57015 69921 333 10267 20129 91014 555 20002 91018
AAXX 21124 68570 36/// /2706 10293 20075 38483 48475 57010 333 10297 20149 91014 555 91015
AAXX 21124 68580 36/// /0404 10328 20128 38906 48491 57008 333 10329 20147 91008 555 91012
AAXX 21124 68614 32980 02607 10254 20102 30080 40120 57002 333 10259 20134 91018 555 91012
AAXX 21124 68624 32780 62712 10338 2//// 38690 48473 53690 85280 333 10338 20318 91021 555 91012
AAXX 21124 68674 36/// /2006 10278 20228 30030 48518 57007 333 10296 20213 91010 555 91006
AAXX 21124 68712 32900 02410 10202 20120 30062 40126 57003 333 10210 20128 91015 555 91012
AAXX 21124 68718 36/// /2911 10304 20059 39845 40079 57007 333 10308 20161 91018 555 91009
AAXX 21124 68722 32480 22506 10267 21059 38516 48474 57003 82100 333 10278 20255 91017 555 91015
AAXX 21124 68814 36/// /2805 1//// 2//// 30127 4//// 58005 333 1//// 2//// 91009 555 91013
AAXX 21124 68832 32470 51808 10315 20069 39116 48470 57016 85300 333 10324 20146 91017 555 91008
AAXX 21124 68916 32370 32715 10195 20126 39861 40126 57007 83200 333 10201 20160 91021 555 91013
AAXX 21124 68920 32470 32314 10225 20128 30101 40113 57003 83800 333 10230 20185 91023 555 91011
AAXX 21124 68928 36/// /1809 10213 20161 39947 40105 57002 333 10232 20174 91017 555 91010
AAXX 21124 42921 32996 20703 10266 20096 40137 80001 333 10295 58001 82075
AAXX 21124 43003 31995 03605 10288 20223 40100 70400 333 10346 58002
AAXX 21124 43014 32996 00000 10262 20127 39466 40102 333 10290 58004
AAXX 21124 43063 32996 20902 10266 20124 39482 40097 80001 333 10290 58004 82070
AAXX 21124 43110 31996 03203 10286 20194 40094 70544 333 10337 59001
AAXX 21124 43117 32997 30000 10292 20082 40091 80001 333 10315 59001
AAXX 21124 43192 31996 32703 10296 20202 40090 70500 80002 333 10335 59007
AAXX 21124 42634 NIL
AAXX 21124 42647 NIL
AAXX 21124 42737 NIL
AAXX 21124 42840 NIL
AAXX 21124 42909 NIL
AAXX 21124 41466 12560 21810 10236 20112 38572 48482 60002 82200 333 58011 82830
AAXX 21124 41477 11956 01723 10276 20212 60002 70730 333
AAXX 21121 30455 329// 52901 11279 21325 38917 48444 57007 81032 333 11215
AAXX 21121 30731 115// 82004 11140 21153 39677 40320 57015 69922 78583 8495/ 333 11129
AAXX 21121 30739 326// 41802 11189 21230 39470 40350 57009 81442 333 11149
AAXX 21121 30741 329// 62602 11227 21239 38702 48486 57012 80001 333 11200
AAXX 21121 30745 329// 02404 11211 21244 39102 40340 58007 333 11176
AAXX 21121 30764 32998 02801 11304 21349 39471 40365 52002 333 11176
AAXX 21121 30829 32984 23002 11187 21213 39624 40365 57008 80001 333 11130
AAXX 21121 30838 11596 80000 11173 21185 39305 40352 57014 69932 77171 8271/ 333 11137
AAXX 21121 30846 32999 02103 11188 21246 39368 40342 58007 333 11148
AAXX 21121 30859 32999 20000 11270 21325 39439 40367 52008 80001 333 11172
AAXX 21121 30862 32984 02804 11222 21323 39522 40322 52006 333 11180
AAXX 21121 30957 329// 03601 11243 21290 39386 40369 50000 333 11151
AAXX 21121 30975 31898 43206 11223 21290 39597 40298 52016 73631 84030 333 11172
BBXX 46181 21121 99538 71288 46/// /2802 10024 40326 52004 22200 00047 10300 70000 333 91202
BBXX 44059 21121 99368 70763 46/// /1803 1//// 91220 333 91205
BBXX 44059 21121 99368 70763 46/// /1803 1//// 40186 91210 333 91204
BBXX 44059 21121 99368 70763 46/// /1803 10135 40185 58002 91200 22200 00102 333 91204
BBXX 44057 21121 99395 70761 46/// /0000 1//// 91220 333 91201
BBXX 44057 21121 99395 70761 46/// /0701 1//// 40159 91210 333 91201
BBXX 44057 21121 99395 70761 46/// /0701 10073 40160 56014 91200 22200 00055 333 91202
BBXX 44058 21121 99376 70763 46/// /1806 1//// 91220 333 91207
BBXX 44058 21121 99376 70763 46/// /1906 1//// 40182 91210 333 91208
BBXX 44058 21121 99376 70763 46/// /1806 10099 40183 58003 91200 22200 00088 1//00 70001 333 91207
BBXX 46092 21121 99368 71220 46/// /0907 10080 40174 54000 91157 22200 00124 555 11072 22077
AAXX 21121 40009 32565 61002 10150 20058 40177 57014 83550 333 83630 86360
AAXX 21121 40016 32570 5//// 10150 20025 40228 57021 85500 333 85630
AAXX 21121 40022 32565 50000 10178 39915 4//// 56005 85800 333 82826 84630
AAXX 21121 40030 32570 60000 10128 20072 40191 57015 83550 333 83630 86360
AAXX 21121 40039 32970 30000 10135 20024 40187 57012 83050 333 83360
AAXX 21121 40066 32570 50000 10157 20099 40168 58014 85400 333 85626
AAXX 21121 40072 32570 60000 10184 20048 40200 52020 83630 86360
AAXX 21121 40083 32570 23501 10126 20058 48489 58014 84200 333 82826
AAXX 21121 10980 11/01 92916 11080 21083 38096 48455 57002 60061 74974 333 48052 55300 20335 30335 91125 90203 91218 91218 96471 96449
AAXX 21124 40153 13/// /3004 10138 20090 39108 48514 57011 60001
AAXX 21124 40179 12570 63305 10201 20122 30140 40177 57014 60001 86251
AAXX 21124 40180 12560 72907 10199 20106 30131 40180 57016 60001 83106
AAXX 21124 40190 16/// ///// 10186 20125 39845 40173 57015 60001
AAXX 21124 40199 11958 80405 10209 20116 30140 40162 57018 60001 70500 85078
AAXX 21124 91367 32474 30815 10272 20257 83120 333 10300 562// 83815 555 92112
AAXX 21124 68171 NIL
AAXX 21124 68181 NIL
AAXX 21124 68273 NIL
AAXX 21124 68297 NIL
AAXX 21124 68342 NIL
AAXX 21124 68377 NIL
AAXX 21124 68380 NIL
AAXX 21124 68387 NIL
AAXX 21124 68471 NIL
BBXX 46184 21121 99539 71389 46/// /1613 10063 40210 57039 22200 00064 11107 70035 333 91215
BBXX 46184 21121 99539 71389 46/// /1613 10063 40210 57039 22200 00064 11107 70035 333 91215
AAXX 21124 91723 NIL
AAXX 21124 91759 11598 10000 10245 20229 40091 58012 60001 70211 81100 333 10317 81824
AAXX 21124 91762 11598 31404 10267 20235 40089 58011 69921 70250 83820 333 10306 83820
AAXX 21121 24856 12998 20000 11419 21448 30175 40358 52009 69902 80001 333 11365
AAXX 21121 30679 NIL
AAXX 21121 30686 11999 03201 11232 21288 39758 40261 52001 69932 70231 333 11175
AAXX 21121 30961 32999 03003 11236 21302 39481 40340 52006 333 11178
AAXX 21121 30971 32999 23001 11279 21333 39248 40337 52008 80002 333 11197
AAXX 21121 30978 32999 33405 11223 21281 39575 40314 52024 80006 333 11169
AAXX 21121 31513 11996 83402 11214 21220 39939 40181 53006 60012 77172 80007 333 11180
AAXX 21121 31624 NIL
AAXX 21121 31832 32968 21102 11163 21197 30104 40195 57003 81032 333 11111
AAXX 21124 43086 32996 20000 10260 20065 39937 40115 80001 333 10298 59001
AAXX 21124 43128 31997 01403 10252 20134 39508 40109 333 10296 59001
AAXX 21124 43150 32996 20505 10250 20138 30044 40119 80002 222// 20000 333 10290 59001 82070
AAXX 21124 43185 31596 20903 10260 20195 30108 40112 70500 81530 333 10299 58000 81620
AAXX 21124 43189 32997 20000 10258 20164 30108 40117 80001 333 10297 59004
AAXX 21124 43198 32996 20904 10262 20100 39270 40081 80001 333 10280 59002 82075
AAXX 21124 43201 32997 00903 10270 20098 39376 40092 333 10285 59001
AAXX 21124 43213 32997 00000 10280 20108 39787 40101 333 10307 58000
AAXX 21124 43226 32997 12301 10294 20198 30058 40087 80008 333 10341 58002
AAXX 21124 43233 32997 00503 10254 20111 39289 40087 333 10274 59001
AAXX 21124 43237 32597 40904 10264 20140 40099 81501 333 10284 59007 81620 83075
AAXX 21124 43245 32597 50502 10264 20196 30086 40112 82407 333 10294 59003
AAXX 21124 43279 32496 60206 10266 20188 30094 40111 85801 333 10301 59003 82618 83825
AAXX 21124 43284 32996 33210 10280 20190 39964 40078 80001 333 10328 58001 83075
AAXX 21124 43295 32997 10704 10240 20101 39085 48498 80001 333 10269 59008 81075
AAXX 21124 43311 32597 33602 10310 20222 40075 82501 333 10328 58003 82625
AAXX 21124 43314 32597 52503 10296 20209 40084 81432 333 10334 59002
AAXX 21124 43321 31996 20905 10264 20152 39655 40099 70500 80001 333 10285 58000
AAXX 21124 43329 32997 00503 10266 20199 30086 40099 333 10290 59005
AAXX 21124 43344 31496 50706 10270 20186 39998 40097 70511 83531 333 10300 59008 83615
AAXX 21124 43346 32597 40512 10266 20202 30085 40092 81502 333 10292 59007 81620 84075
AAXX 21124 43353 31496 62708 10298 20215 40082 70522 82571 333 10338 56699 59001 82614 83459 86072
AAXX 21124 43369 32597 53604 10290 20259 40081 83530 333 10316 58002 83620 84360
AAXX 21124 43371 33202 10302 20219 30006 40078 81531 333 10321 58000 81620 83360
AAXX 21121 31913 NIL
AAXX 21121 32128 11598 71304 11055 21073 30155 40209 56002 69940 78583 87300 333 11044 91006 91107
AAXX 2112/ 89329 46/// ///// 11078 38807 4//// 5////
AAXX 21120 67489 32680 61506 10254 20190 38744 48495 86230 333 59001 86835 555 10260 29069
AAXX 21120 67485 32680 71904 10285 20160 86332 333 81935 85838 555 10285 29045
AAXX 21120 67687 32680 32301 10284 20132 83200 333 83845 555 10287 29040
AAXX 21120 67699 32680 41802 10307 20157 84100 333 84845 555 10310 29041
BBXX BATFR55 21124 99087 30433 44597 83510 10290 20249 40094 70322 86726 22262 00297 20602
BBXX A8YW2 21124 99103 30803 41598 60814 10295 20245 40060 57015 70322 84839 22213 00270 20202 316// 40801 80260
BBXX BATFR56 21124 99198 30571 44698 70818 10259 20224 40124 56014 70222 8772/ 22213 00277 20502 324// 40502 5////
BBXX ONCE 21124 99239 30746 41298 61432 10240 2018/ 40175 57015 70222 85999 22214 00253 20106 311// 40908 5//// 6//// 80200 /////
BBXX DEIR 21123 99257 30606 41498 60522 10245 20178 40200 54000 70200 8546/ 22223 04250 20605 305// 40705 80200
BBXX A8KH9 21124 99291 30146 41/97 31718 10160 20127 40115 54000 70000 83070 22244 20604 32200 41204 5//// 80140
BBXX TBWUK18 21124 99323 50000 41297 82910 10210 20210 40162 54000 70300 887// 22222 00200 20502 316// 41203 5//// 80210
BBXX TBWUK42 21124 99349 30275 41498 41206 10215 20191 40089 57010 70211 83260 22223 20501 302// 40802 5//// 80200
BBXX DBBT 21121 99350 30162 46/// /2810 10198 20141 40118 57003 22212 00200
BBXX DCAX2 21123 99042 11630 41696 80922 10260 20246 40070 54000 72588 83379 22233 21006 309// 41006 5//// 80250
BBXX C6NI8 21123 99002 70303 41498 71115 10270 20234 40127 56010 70222 87161 22283 04270 20703 311// 40804 5//// 80245
AAXX 21124 61202 32965 00404 10211 21050 39610 40174 333 58000
AAXX 21124 61214 NIL
AAXX 21124 61223 31958 50410 10225 21055 39878 40181 70611 80002 333 0//00 58025 85075
AAXX 21124 61226 32965 20410 10263 20049 39864 40162 80002 333 0//00 58019 82075
AAXX 21124 61230 31958 50610 10222 21060 39882 40155 70611 83042 333 0//00 58033 83365
AAXX 21124 61233 32960 70610 10232 21050 3//// 4//// 80006 333 0//00 5//// 86275
AAXX 21124 61235 31956 51614 10248 21010 3//// 4//// 70622 82042 333 0//00 5//// 82365 84075
AAXX 21124 61240 32960 40206 10290 20045 39825 40149 83042 333 0//00 58017 83365 83075
AAXX 21124 61250 32960 00000 10295 20094 3//// 4//// 333 0//00 5////
AAXX 21124 61257 31956 5//// 10/// 21035 30096 40190 70622 80002 333 0//00 58019 85075
AAXX 21124 61265 32960 43610 10265 21039 39840 40148 82042 333 0//00 58020 82365 83075
AAXX 21124 61270 32560 40404 10284 20048 3//// 4//// 81542 333 0//00 5//// 81630
AAXX 21124 61272 32960 70604 10254 20049 39826 40156 80002 333 0//00 58026 87075
AAXX 21124 61277 32960 50810 10210 20/// 39828 40148 80002 333 0//00 58006 85075
AAXX 21124 61285 32960 60804 10303 21011 39987 40138 83052 333 0//00 59017 83365 83075
AAXX 21124 61291 32960 50610 10264 21017 39721 40134 80002 333 0//00 58010 85075
AAXX 21124 61293 32960 40608 10285 20013 3//// 4//// 80002 333 0//00 5//// 84075
AAXX 21124 61296 32970 60806 10315 20121 3//// 4//// 80002 333 0//00 5//// 86075
AAXX 21124 61297 32960 70210 10287 20011 3//// 4//// 80002 333 0//00 5//// 87075
AAXX 21124 84142 11110 80000 10162 20159 60044 75056 887// 333 10210 20156 555 10037 30098
AAXX 21124 84173 11360 80902 10102 20095 60024 75055 887// 333 10185 20100 555 10016 30096
AAXX 21124 84036 11564 83602 10106 20100 60024 71522 8655/ 333 10158 20072 555 10016 30096
AAXX 21124 84050 31560 80000 10222 20217 74042 886// 333 10295 20220 555 30097
AAXX 21124 84135 31570 81402 10232 20203 30051 70544 886// 333 10322 20227 59015 555 30084
AAXX 21124 84202 31570 80000 10230 20213 30133 70542 885// 333 10292 20226 59020 555 30090
AAXX 21124 84105 11230 80000 10218 20215 39999 60034 75155 887// 333 10295 20218 59001 555 10026 30098
AAXX 21124 84056 11/00 92302 10096 20096 69934 74344 89/// 333 10200 20092 555 10003 30100
AAXX 21124 84076 11202 80000 10120 20112 69954 74445 886// 333 10222 20120 30113 555 10005 30095
AAXX 21124 84270 11540 80000 10140 20123 60074 75155 887// 333 10197 20128 555 10071 30089
AAXX 21124 84143 11258 71504 10112 20103 37397 69944 72052 87600 333 10236 20110 30100 59006 555 10004 30094
AAXX 21124 84179 11310 80000 10190 20183 39070 60124 76162 887// 333 10242 20186 59002 555 10124 30096
AAXX 21124 84140 11350 80000 10226 20218 30014 40099 60234 71066 886// 333 10323 20223 59014 555 10095 30095
AAXX 21124 84160 11340 80904 10099 20088 37261 69954 75055 888// 333 10171 20095 59004 555 10003 30093
AAXX 21124 84204 31670 82304 10238 20208 70544 8113/ 333 10316 20232 555 30083
AAXX 21124 84132 12375 70000 10240 20235 39885 60074 84160 333 10292 20236 59006 555 10067 30097
AAXX 21124 84088 32570 80000 10088 20085 37058 888// 333 10182 20066 30060 59011 555 30098
AAXX 21124 84072 12570 70000 10115 20098 37286 69914 87500 333 10217 20104 59014 555 10001 30089
AAXX 21124 84045 31320 80000 10079 20077 74542 886// 333 10142 20064 555 30099
AAXX 21124 84226 12680 81804 10090 20090 69924 885// 333 10142 20074 555 10002 30100
BBXX A8XD5 21124 99425 71741 41296 52604 10080 20038 40160 50000 70122 8/627 22223 2//// 327// 40806 80060
BBXX SHIP 21124 99396 71513 41396 82030 10160 20140 40160 55010 75855 8897/ 22224 00170 20306 321// 40408 5//// 6//// 85150 ICE /////
BBXX V7NV4 21124 99300 71565 41897 72010 10190 20175 40225 56015 7//21 85162 22263 00230 20102 31919 40102 50102 6//// 80180 ICE /////
BBXX WDB9949 21124 99537 71602 41698 22116 10047 20000 40051 5//// 70200 82/8/ 22264 00030 20403 323// 40906 5//// 6//// 80028 ICE /////
BBXX WDB9986 21124 99431 71630 41495 82852 10100 20080 49850 52060 76566 886// 22234 00100 20406 327// 40710 5//// 6//// 80090 ICE /////
AAXX 21120 44277 329// 22502 11226 21251 37900 40631 57003 80004 333 11104
AAXX 21121 56671 32980 03201 10097 20011 38189 52012 333 00101
AAXX 21121 57378 31956 83401 10077 20015 40312 52022 71000 8807/
AAXX 21121 57426 11550 80401 10074 20070 40288 52022 69961 76066 887// 333 00401
AAXX 21121 57476 32960 80000 10074 20052 40306 52018 8807/
AAXX 21121 57584 11860 80000 10064 21008 40307 52018 69901 72160 885//
AAXX 21121 57598 11757 80000 10073 20061 40291 52022 69931 76060 885//
AAXX 21121 57655 11930 80701 10054 20029 40311 52021 69901 76066 8802/
AAXX 21121 57713 NIL
AAXX 21121 57776 31/00 92907 11027 21031 40298 52016 74940
AAXX 21121 58321 31920 82901 10053 20036 40312 52027 71000 8807/
AAXX 21121 58437 11561 83605 11015 21037 38190 52013 69901 77074 885//
AAXX 21121 58445 NIL
AAXX 21121 58556 11620 83603 10078 20061 40278 52021 69901 76000 885//
AAXX 21121 58569 32463 80202 10094 20072 40260 52017 888//
AAXX 21121 58646 31656 80402 10113 20062 40262 52019 70500 885//
AAXX 21121 58653 NIL
AAXX 21121 58660 NIL
AAXX 21121 58715 31956 03203 10077 20011 40266 52022 70500
AAXX 21121 58730 32765 70401 10116 20059 40242 52023 875//
AAXX 21121 58731 32964 70204 10117 20056 40245 52024 8704/
AAXX 21121 58754 32665 83401 10134 20076 40239 52029 885//
AAXX 21121 58911 32961 00701 10117 20060 40229 52020
AAXX 21121 58931 32970 70407 10055 20054 38380 52009 87030
AAXX 21121 59254 31758 62901 10178 20102 40198 52016 70500 86500
AAXX 21121 59632 31757 70201 10183 20077 40194 52013 70500 875//
AAXX 21121 59855 32468 80201 10209 20161 40182 52017 888//
BBXX 46004 21121 99509 71361 46/// /1710 10066 40277 57017 22200 00074 11306 70032 333 91213
BBXX 46004 21121 99509 71361 46/// /1710 10066 40277 57017 22200 00074 11306 70032 333 91213
BBXX 44039 21121 99411 70727 46/// /1704 10096 20071 40196 91153 22200 00094 10201 70003 333 91205
AAXX 21124 86330 11598 81206 10242 20175 40116 58026 69904 70296 8357/ 333 10302 20218 30017
AAXX 21124 86360 11898 71213 10277 20186 40090 56023 69924 70396 81076 333 10367 20219 30020
AAXX 21124 86460 32998 60910 10272 20177 40096 57007 83076 333 1//// 20189 30016
AAXX 21124 86490 12697 73605 10279 20139 40079 53010 69904 81176 333 10291 20204 30018
AAXX 21124 86530 32897 40511 10296 20136 40089 57004 83086 333 10296 20198 30///
AAXX 21124 86545 32997 30205 10276 20193 40095 51007 80006 333 10276 20172 31015
AAXX 21124 86565 32998 12702 10260 20199 40104 52022 81030 333 10260 20164 31012
AAXX 21124 86580 32897 30107 10274 20197 40095 52016 82075 333 10274 20180 30///
AAXX 21124 71673 17/// ///// 11036 21045 69991 7//4/ 333 10057 21036 70009
AAXX 21124 71690 16/// ///// 11076 21086 60001 333 10047 21076 70017
AAXX 21124 71971 16/// /1101 11241 21261 39960 40006 56007 60001 333 11167 21246 70000
AAXX 21124 71988 16/// /2008 10013 21041 30209 40229 56006 60001 333 10072 21040 70000
AAXX 21124 71067 17/// ///// 11041 21057 69941 7//4/ 333 10056 21041 70009
AAXX 21124 71558 46/// ///// 11142 21151 30065 40103 51020 6///1 333 11041 21144 7////
AAXX 21124 71560 16/// /3604 11039 21048 39760 40059 52026 60001 333 10029 21042 70000
AAXX 21124 71359 16/// /3007 11049 21069 60001 333 10068 21051 70000
AAXX 21124 71761 17/// ///// 11044 21062 69941 7//4/ 333 10040 21047 70004
AAXX 21124 71788 16/// /2908 11033 21055 60001 333 10077 21039 70000
AAXX 21124 71792 17/// ///// 11049 21057 69951 7//4/ 333 10038 21049 70005
AAXX 21124 71461 16/// /2204 11067 21085 60001 333 10064 21069 70000
AAXX 21124 71468 16/// /2713 10006 21030 39687 40007 53009 60001 333 21011 70004
AAXX 21124 71483 16/// ///// 11022 21053 60001 333 10064 21025 70011
AAXX 21124 71405 17/// ///// 11044 21049 69951 7//4/ 333 10064 21047 70023
AAXX 21124 71417 16/// /2709 11071 21076 30080 40115 51025 60001 333 11036 21082 70026
AAXX 21124 71426 46/// /2127 11031 6///1 333 11034 21088 7////
AAXX 21124 71221 16/// /2810 11037 21067 60001 333 10049 21065 70000
AAXX 21124 71226 16/// /2506 11059 21080 60001 333 10075 21062 70008
AAXX 21124 71229 46/// /2609 11064 21088 6///1 333 10021 21102 4/001 7//// 555 10010
AAXX 21124 71244 16/// /3407 11049 21071 38933 40171 53028 60001 333 10059 21067 4/002 70000
AAXX 21124 71500 17/// /3014 11022 21055 60011 7//4/ 333 10065 21026 70014
AAXX 21124 71504 17/// ///// 11033 21044 69991 7//4/ 333 10055 21034 70009
AAXX 21124 71541 16/// /2812 11048 21088 60001 333 10046 21058 70000
AAXX 21124 71543 16/// /2601 11113 21115 60001 333 10047 21152 70012
AAXX 21124 71546 16/// /2508 11039 21069 60001 333 10059 21071 70000
AAXX 21124 71547 16/// /2609 11046 21075 60001 333 10044 21068 70000
AAXX 21124 71283 16/// /3104 11077 21096 60001 333 10044 21092 70004
AAXX 21124 71011 17/// ///// 11036 21056 69981 7//4/ 333 10059 21036 70008
AAXX 21124 71049 16/// /3513 11269 39962 49987 51005 60001 333 11298 21319 7////
AAXX 21124 71888 16/// ///// 11051 21057 60001 333 10063 21051 70005
AAXX 21124 71895 17/// ///// 11039 21047 69951 7//4/ 333 10057 21039 7////
AAXX 21124 71332 16/// /2203 11320 21355 30139 40170 56001 60001 333 11254 21336 4/012 70000
AAXX 21124 16560 12566 33014 10138 20038 30153 40159 51002 60001 82504 333 55310 82630
BBXX V7OX3 21124 99250 50472 41998 03408 10240 20194 40090 54000 7//00 80000 22253 04260 21002 308// 40701 5//// 80210
BBXX C6NI8 21123 99002 70303 41498 71115 10270 20234 40127 56010 70222 87161 22283 04270 20703 311// 40804 5//// 80245
BBXX DCAX2 21123 99042 11630 41696 80922 10260 20246 40070 54000 72588 83379 22233 21006 309// 41006 5//// 80250
AAXX 21121 10015 01582 43007 10064 20032 30125 40135 51013 60021 72581 83931 333 31/// 55302 20403 30355 69977 81822 81924 83367 91113 96488 96481
AAXX 21121 45032 36/// /0000 10150 20125 30175 40192 52001
AAXX 21121 45035 36/// /0603 10192 20119 30147 40190 54000
AAXX 21121 45039 36/// /0601 10171 20134 30175 40190 52001
AAXX 21121 45044 36/// /1401 10175 20155 30097 40191 52004
BBXX 46146 21121 99493 71237 46/// /0004 10050 40305 52029 22200 00071 10401 70005 333 91205
AAXX 21121 45032 36/// /0000 10150 20125 30175 40192 52001
AAXX 21121 45035 36/// /0603 10192 20119 30147 40190 54000
AAXX 21121 45039 36/// /0601 10171 20134 30175 40190 52001
AAXX 21121 45044 36/// /1401 10175 20155 30097 40191 52004
BBXX 46146 21121 99493 71237 46/// /0004 10050 40305 52029 22200 00071 10401 70005 333 91205
BBXX 44060 21121 99413 70721 46/// ///05 10096 40191 91230 22200 00101 333 91206 555 11057 22057
AAXX 21120 44277 329// 22502 11226 21251 37900 40631 57003 80004 333 11104
AAXX 21121 56144 32980 02901 10023 21162 36802 52021 333 05203
AAXX 21121 56152 32980 02903 11044 21176 36262 52012 333 05201
AAXX 21121 56167 32980 00000 10013 21136 37023 52027 333 05202
AAXX 21121 56182 32980 02003 11029 21119 37203 52027 333 00553
AAXX 21121 56357 32980 00000 10008 21229 36429 52017 333 00001
AAXX 21121 56586 11460 83602 10004 21025 38088 52018 69901 70070 885// 333 00551
AAXX 21121 56748 32980 02902 10119 20018 38350 52012 333 00001
AAXX 21121 56763 32980 01405 10196 20011 40111 52022 333 00100
AAXX 21121 56768 32980 01404 10119 20053 38178 52014 333 00100
AAXX 21121 56838 32970 02901 10162 20129 40151 52009 333 00001
AAXX 21121 56886 32980 03402 10093 20062 38303 52020 333 00252
AAXX 21121 56946 32680 10000 10146 20083 40173 52012 81100 333 00000
AAXX 21121 56959 32970 02201 10179 20148 40147 52013 333 00000
AAXX 21121 56969 32960 03201 10159 20132 40166 52018 333 00051
AAXX 21121 57731 11460 82701 10065 20031 40297 52025 69911 76060 887// 333 00500
AAXX 21121 57766 32760 80203 10074 20017 40293 52020 885//
AAXX 21121 57845 32960 83602 10071 20016 40281 52022 8807/
AAXX 21121 57853 31957 83602 10072 20006 40291 52024 70500 8807/
AAXX 21121 57916 32663 81401 10097 20075 40252 52013 885// 333 00300
AAXX 21121 57922 31658 80201 10051 20026 40271 52014 71000 885// 333 00301
AAXX 21121 57932 32664 80203 10104 20023 40269 52026 885// 333 00301
AAXX 21121 58338 31958 83602 10066 20044 40294 52017 71000 8807/
AAXX 21121 59007 32668 80203 10104 20062 40218 52022 885//
AAXX 21121 59046 31956 03601 10141 20047 40227 52022 70500
AAXX 21121 59058 31958 73202 10140 20035 40220 52027 70500 8704/
AAXX 21121 59072 31958 03604 10122 20024 40237 52032 70500
AAXX 21121 59087 32960 12901 10158 20071 40205 52022 80002
AAXX 21121 59209 32562 82901 10146 20098 40199 52021 888//
BBXX 46232 21121 99325 71174 46/// ///// 1//// 91208 22200 00150 11403 21002 328// 41402 70014
BBXX 46247 21121 99378 71228 46/// ///// 1//// 91221 22200 00110 11504 20903 330// 41503 70022
BBXX 46243 21121 99462 71241 46/// ///// 1//// 91229 22200 00077 11406 21004 326// 41405 70030
BBXX 46236 21121 99368 71219 46/// ///// 1//// 91220 22200 00124 11104 20903 329// 41103 70022
BBXX 46229 21121 99438 71246 46/// ///// 1//// 91221 22200 00099 11407 21003 329// 41406 70036
BBXX 46225 21121 99329 71174 46/// ///// 1//// 91214 22200 00145 11402 21001 327// 41402 70011
BBXX 46213 21121 99403 71247 46/// ///// 1//// 91224 22200 00100 11509 21006 330// 41506 70044
BBXX 46215 21121 99352 71209 46/// ///// 1//// 91208 22200 00146 11303 20902 327// 41303 70016
BBXX 41010 21121 99289 70785 46/// /1710 10219 40226 91220 22200 00237 11103 20603 300// 41102 70017 333 91212 555 11103 22109
BBXX 41009 21121 99285 70802 46/// /1509 10235 20164 40217 91220 22200 00246 11103 20503 300// 41102 70016 333 91211 555 11097 22102
BBXX 42362 21121 99278 70907 46/// /2008 10228 20211 40153 91215
BBXX 42362 21121 99278 70907 46/// /2108 10228 20211 40156 91230
BBXX 42364 21121 99291 70881 46/// /2206 10222 20200 40159 91230
BBXX 42361 21121 99276 70925 46/// ///08 10211 20178 40139 53014 91230 555 11063 22067
BBXX 44100 21121 99363 70756 46/// ///// 1//// 91222 22200 00118 11301 21001 308// 41301 70007
BBXX 41110 21121 99341 70777 46/// ///// 1//// 91221 22200 00137 10602 20602 311// 41301 70010
BBXX 42099 21121 99273 70842 46/// ///// 1//// 91227 22200 00230 10804 20804 70022
BBXX 41113 21121 99284 70805 46/// ///// 1//// 91221 22200 00210 10603 20603 309// 41201 70013
BBXX 41112 21121 99307 70813 46/// ///// 1//// 91221 22200 00162 10602 20602 309// 41301 70011
BBXX 42013 21121 99272 70829 46/// ///// 1//// 40193 91140 22200 00197
AAXX 21120 44266 329// 00000 11170 21239 37864 40494 57001 333 11118
AAXX 21120 44325 329// 00902 11153 21187 38968 40460 53005 333 11083
BBXX 44258 21121 99445 70634 46/// /2406 11018 40238 52003 22200 00060 11002 70008 333 91208
BBXX 44258 21121 99445 70634 46/// /2406 11018 40238 52003 22200 00060 11002 70008 333 91208
AAXX 21124 96009 32456 80909 10272 20236 30035 40070 52006 81272 333 10302 56200 57823 59009 81817 85362 80858
AAXX 21124 96011 32559 70905 10276 20232 30038 40065 52011 84531 333 10317 56000 59016 84620
AAXX 21124 96035 NIL
AAXX 21124 96073 01456 70000 10272 20248 30053 40065 51008 69981 72162 83976 333 10320 56000 57901 59024 69987 83915 80959
AAXX 21124 96091 NIL
AAXX 21124 96109 01457 83607 10246 20242 30032 40071 52026 60221 76162 83521 333 10325 56000 58004 60227 83617 85460
AAXX 21124 96145 32440 83505 10270 20247 30070 40073 53013 8552/ 333 10291 56809 58013 85615 88460
AAXX 21124 96147 NIL
AAXX 21124 96163 32560 61903 10280 20259 30070 40072 52017 82531 333 10306 56000 59009 82620
AAXX 21124 96179 32460 70000 10272 20240 30036 40072 52006 83238 333 10306 56000 57802 59001 83817 86360 80850
AAXX 21124 96195 31457 70000 10284 20244 30042 40078 52003 70522 82531 333 10310 56000 58003 82615
AAXX 21124 96221 32460 70000 10284 20248 30052 40067 52013 81176 333 10315 56999 59002 81817 84362
AAXX 21124 96237 NIL
AAXX 21124 96249 32560 62703 10270 20247 30017 40077 52016 82232 333 10310 56000 57802 58006 82820 80863
AAXX 21124 96253 31456 70304 10267 20245 30042 40062 52010 70292 83972 333 56000 57900 57800 59004 81915 82820 86460
AAXX 21124 96295 01450 80000 10250 20241 39997 40077 51024 60241 79196 8592/ 333 10324 56000 57900 59003 82910 88462
AAXX 21124 96509 31457 20000 10278 20255 30068 40079 52018 71311 82901 333 10318 56000 57903 57803 58006 81915 81815 80960 80857
AAXX 21124 96581 01456 80000 10250 20244 30072 40079 52014 60051 70262 8437/ 333 10297 56209 57922 58010 69937 81912 84810 84360 88461 80975 80858
AAXX 21124 96633 32558 82803 10284 20255 30065 40073 52024 82572 333 10319 56000 58016 89620 86462
AAXX 21124 96645 11456 80000 10262 20255 30045 40078 52018 60111 71562 85372 333 10314 56000 57901 58006 81912 85612 80981
AAXX 21124 96655 NIL
AAXX 21124 96685 02460 70000 10256 20246 30062 40086 52022 60081 84511 333 10320 56000 58010 69987 84616
AAXX 21124 96749 31562 72412 10296 20230 30067 40081 53023 71322 84921 333 10336 56000 57922 58005 81922 83624 84462 80980
AAXX 21124 96781 NIL
AAXX 21124 96805 31558 50000 10275 20248 30085 40094 51012 60011 70262 83211 333 10310 56000 57801 58003 83820 80860
AAXX 21124 96839 11557 70000 10274 20254 30065 40072 52019 60271 70296 83536 333 10320 56000 59002 83622
AAXX 21124 96935 01560 80000 10266 20251 30071 40077 52021 60081 70262 82931 333 10326 56000 57902 58001 60087 81920 81820 84360 80980
AAXX 21124 97008 11458 80000 10268 20256 30059 40069 52014 60071 71562 8357/ 333 10308 56009 58005 83619 87460
AAXX 21124 97016 01458 80000 10276 20247 30072 40074 52018 60011 76062 8492/ 333 10337 56009 57902 57801 58007 69907 81918 83819 88459 80980 80860
AAXX 21124 97126 31457 80101 10280 20254 30031 40092 52032 71322 8392/ 333 10312 56009 57900 58021 82915 88460 80980
AAXX 21124 97142 32460 70000 10276 20248 30048 40062 51023 81271 333 10322 56000 57806 58011 81819 86460 80857
AAXX 21124 97182 32568 53504 10290 20256 30074 40078 52023 83831 333 10316 56000 57802 83820 80859
AAXX 21124 97240 31457 62304 10270 20247 39969 40083 52025 70521 85931 333 10324 56000 57901 58016 81915 84816 80982 80860
AAXX 21124 97284 31458 40000 10212 20203 38854 40092 52013 71592 83201 333 10256 56000 57802 58009 83812 80837
AAXX 21124 97310 32558 50000 10284 20255 30060 40072 52021 83121 333 10316 56000 58014 83820
AAXX 21124 97320 01460 80000 10292 20241 30050 40063 52016 69901 70262 84226 333 10331 56000 57801 59002 69907 84820 84460 80850
AAXX 21124 97378 32560 60000 10280 20260 39917 40080 5//// 84101 333 10320 56000 58018 84820
AAXX 21124 97380 32560 30000 10293 20259 30039 40059 52008 81131 333 10332 56000 59005 81820 82080
AAXX 21124 97406 11460 70000 10252 20249 30035 40060 52017 60131 70262 84231 333 10324 56000 57801 58003 84818 80860
AAXX 21124 97570 32460 63603 10258 20240 30045 40052 52010 81132 333 10320 56000 59007 81815 85362
AAXX 21124 97630 01450 70105 10250 20238 39911 40072 52021 69931 72162 86972 333 10322 56000 57901 59001 69917 81912 85813 80978
AAXX 21124 97682 32456 61703 10268 20257 30053 40060 52017 85971 333 10340 56000 57901 81917 83815 85362 80960
AAXX 21124 97698 31450 60000 10276 20244 30078 40085 52022 70542 83242 333 10308 56000 57802 59003 83816 86078 80863
AAXX 21124 97700 32460 40000 10280 20254 30047 40061 52022 82232 333 10314 56000 57804 58012 82817 80850
AAXX 21124 97722 32461 70000 10273 20232 30056 40071 52027 85872 333 10328 56600 57861 58002 83818 80857
AAXX 21124 97780 NIL
AAXX 21124 97790 31458 82606 10294 20253 30020 40041 52012 70522 8587/ 333 10315 56009 57801 59007 83819 86458 80858
AAXX 21124 97014 01459 70402 10259 20243 39996 40089 52025 69901 72196 84871 333 10313 56000 57802 58004 69907 83819 80860
AAXX 21124 97028 12560 70703 10266 20248 30068 40074 51024 69901 84521 333 10320 56000 58015 84620 86460
AAXX 21124 97048 32458 70000 10282 20244 30038 40062 51023 84971 333 10350 56000 57901 57801 81917 83817 80980 80860
AAXX 21124 97072 32458 73003 10278 20218 30987 40088 53022 82521 333 10356 56000 58011 82619 85460
AAXX 21124 97086 32560 72804 10283 20259 30055 40080 51028 83571 333 10316 56000 58018 83620 85460
AAXX 21124 97096 31456 83004 10278 20246 30074 40095 52029 71722 8432/ 333 10326 56009 57901 57801 58014 81916 82816 88460 80970 80860
AAXX 21124 97120 32459 72701 10274 20239 30039 40072 52015 83271 333 10304 56000 57802 58013 83818 80860
AAXX 21124 97146 NIL
AAXX 21124 97180 32458 60701 10284 20270 30067 40085 51023 82232 333 10314 56000 58006 82819 84080
AAXX 21124 97192 32430 71903 10280 20263 30039 40096 52018 84520 333 10320 56600 58013 84615 87460
AAXX 21124 97230 32460 72508 10285 20256 30069 40076 52019 82132 333 10306 56000 58014 82814 83360 86080
AAXX 21124 97260 NIL
AAXX 21124 97270 31450 70000 10290 20261 30069 40073 52024 70521 85871 333 10350 56000 58016 83815
AAXX 21124 97300 11560 60000 10286 20261 30036 40076 52017 69951 71522 83271 333 10316 56000 57801 58004 83820 80858
AAXX 21124 97340 32560 82206 10278 20256 30057 40071 52019 85232 333 10324 56000 58007 85820
AAXX 21124 97372 31458 50000 10264 20253 39950 40071 52016 71399 83931 333 10306 56000 59002 81916 83817
AAXX 21124 97430 01458 80000 10268 20253 30049 40078 52018 69911 72196 84932 333 10312 56700 57971 57872 58000 69917 81915 83818 80980 80860
AAXX 21124 97460 01460 50000 10270 20259 30041 40055 52022 69901 70262 82836 333 10322 56000 57802 58000 69907 82818 80858
AAXX 21124 97502 12450 70000 10258 20247 30064 40068 52017 69901 85521 333 56000 59001 85614
AAXX 21124 97530 31450 60000 10262 20250 30058 40062 52022 70522 82254 333 10306 56000 57803 59004 82814 83360 80833
AAXX 21124 97560 32460 73002 10272 20246 30043 40058 52014 83848 333 10310 56000 57804 58012 82818 85361 86279 80860
AAXX 21124 97580 32458 70000 10268 20261 30057 40064 51004 8217/ 333 10330 56000 57801 59030 82815 80860
AAXX 21124 97600 32460 72703 10288 20254 30064 40070 52018 83271 333 10330 56600 57862 58010 83817 86459 80858
AAXX 21124 97686 11457 71504 10187 20173 38330 40061 52012 69901 71622 85846 333 10268 56000 57802 58003 84812 86361 80860
AAXX 21124 97690 32450 50000 10254 20231 39952 40054 52024 82831 333 10296 56000 57803 59009 81816 85080
AAXX 21124 97724 31458 73003 10286 20242 30049 40065 52016 70522 84832 333 10316 56700 57872 58003 83815 80850
AAXX 21124 97748 31459 50102 10282 20259 30056 40058 51001 70522 82232 333 10325 56800 57883 59001 82815 84075 80850
AAXX 21124 97760 31456 73005 10286 20243 30059 40068 52019 71322 83932 333 10340 56000 57901 59003 81915 82816 80960
AAXX 21124 97796 NIL
AAXX 21124 97810 11958 20000 10256 20247 30043 40052 51016 60041 70262 82002 333 10288 59003 82076
AAXX 21124 97876 NIL
AAXX 21124 97900 11459 83205 10252 20249 30022 40050 52022 60181 71596 8582/ 333 10274 56609 57801 59014 84615 88458 80858
AAXX 21124 97980 32460 50000 10278 20252 30051 40058 52020 84831 333 10320 56000 59011 82817 82618
AAXX 21124 96001 31556 81120 10266 20245 39929 40077 52012 70522 84572 333 10290 56200 59006 84620
AAXX 21124 96015 32458 71905 10285 20262 30039 40046 53004 85572 333 10313 56000 59021 85616
AAXX 21124 96033 31450 80000 10280 20239 30072 40077 57010 70522 83928 333 10290 56000 57903 59013 81920 83617 80980
AAXX 21124 96075 31457 80000 10276 20265 30057 40062 52016 70522 84571 333 10327 56000 59011 84618
AAXX 21124 96087 32460 80000 10270 20235 30042 40075 51013 82578 333 10298 56000 58006 82615 85360 86280
AAXX 21124 96171 32457 73616 10280 20251 30059 40083 51011 85522 333 10300 56000 58013 85616
AAXX 21124 96207 31456 73308 10230 20204 39208 40129 52011 71622 84931 333 10289 56000 57901 81915 83618 80958
AAXX 21124 96525 21457 72503 10257 20245 30073 40080 52018 60031 70196 84975 333 10331 56000 57901 58007 60027 81915 83615 80980
AAXX 21124 96529 32558 30000 10274 20254 30073 40097 52027 82101 333 10336 56000 58008 82820
AAXX 21124 96535 01420 81203 10242 20238 30067 40088 52016 60831 79596 8592/ 333 10316 56009 57901 57802 58017 60097 81916 84815 88415 80980 80867
AAXX 21124 96557 01440 80000 10250 20244 30025 40075 52026 60201 76196 8692/ 333 10329 56609 57960 57860 58011 60177 83912 83813 88460 80980 80857
AAXX 21124 96559 11430 72508 10246 20234 30035 40073 52025 60021 71362 86930 333 10322 56600 57961 57863 58005 81913 85810 84362 80975 80859
AAXX 21124 96565 01440 80506 10248 20242 30035 40088 52029 60121 79596 85971 333 10327 56000 57901 57802 58018 60127 82912 83810 87457 80967 80856
AAXX 21124 96595 01450 80000 10247 20238 30043 40095 52025 60021 70596 8562/ 333 10327 56009 58016 60027 86610
AAXX 21124 96607 11458 80000 10266 20245 30068 40083 52029 60021 72162 8592/ 333 10328 56009 57980 58009 60027 82914 84813 88459 809//
AAXX 21124 96615 NIL
AAXX 21124 96695 11458 70000 10270 20252 30073 40079 51026 60011 70262 85221 333 10291 56000 57803 59009 85817 80858
AAXX 21124 96737 32458 60000 10288 20230 30033 40064 53014 84571 333 10330 56000 59001 84616
AAXX 21124 96739 32458 62208 10282 20223 30028 40077 52014 83222 333 20340 56000 57905 58000 81917 82820 80980
AAXX 21124 96741 32556 82707 10299 20228 30078 40082 52021 83571 333 10327 56000 58010 83620 85460
AAXX 21124 96745 32556 60000 10306 20223 30066 40070 52018 82511 333 10350 56000 58001 82620 84460
AAXX 21124 96751 31556 80000 10220 20171 39016 48920 52007 71392 8592/ 333 10276 56409 57941 58001 81920 84620 80980
AAXX 21124 96791 01456 80000 10252 20242 30022 40092 51009 60381 79196 8692/ 333 10336 56009 57900 58002 60297 82916 84616 88460 809//
AAXX 21124 96797 31458 72508 10286 20230 30067 40073 52022 71322 83971 333 10328 56000 57902 81920 82620 85660 80980
AAXX 21124 96837 11558 72702 10280 20251 30069 40073 52014 60021 70522 85221 333 10320 56000 57800 59005 85823
AAXX 21124 96925 32465 72803 10283 20247 30070 40075 52025 83272 333 56600 57860 58003 83817 80860
AAXX 21124 96933 32460 62803 10282 20246 30074 40078 52023 83571 333 10333 56600 58007 83617 84460
AAXX 21124 96937 32558 62105 10287 20246 30076 40081 52030 83512 333 10330 56000 58004 83620
AAXX 21124 96973 32558 60902 10294 20265 30068 40073 52017 83231 333 10334 56000 57802 58006 83820 80850
AAXX 21124 96987 32460 52203 10290 20247 30018 40077 52020 82831 333 10330 56000 57802 58007 81819 80860
AAXX 21121 98134 11458 80000 10207 20198 39957 80150 5//// 60021 71564 8427/ 333 10220 56999 59008 84818 88357
AAXX 21121 98223 31562 10000 10270 20252 40088 52018 70240 81100 333 10314 56999 59005 81820
AAXX 21121 98232 11565 80403 10250 20230 40123 53020 60011 70246 8357/ 333 10274 56199 58010 83820 88358
AAXX 21121 98325 31458 71802 10283 20253 40106 53025 71342 82270 333 10326 56999 59002 82916 84358
AAXX 21121 98328 11457 81101 10196 20187 38524 40096 53026 60041 78084 885// 333 10250 56999 58010 88612
AAXX 21121 98330 31470 50000 10271 20251 30077 40109 52025 70144 83230 333 10340 56999 58006 83818 85358
AAXX 21121 98336 12468 50401 10224 20219 30124 40129 52009 69981 82270 333 10285 56199 58002 82815 84357
AAXX 21121 98429 11560 50903 10270 20245 40107 57018 6002/ 70544 82830 333 10322 56999 58009 82825 84360
AAXX 21121 98430 11558 30000 10251 20249 40106 52021 60011 70598 82101 333 10315 56999 58013 82820
AAXX 21121 98431 31458 70901 10262 20239 30053 40100 51018 70242 83250 333 10310 56999 58004 83818 85359
AAXX 21121 98440 31460 83202 10258 20245 30102 40107 52014 70544 8327/ 333 10280 56299 58002 83815 88358
AAXX 21121 98444 32465 50402 10265 20245 30078 40097 53023 82202 333 10285 56999 58002 82818 85070
AAXX 21121 98526 32570 83601 10272 20256 40094 52022 81107 333 10/// 56299 58009 81820 88274
AAXX 21121 98531 11568 60000 10282 20265 30078 40082 53018 69901 70584 82460 333 10320 56999 58002 82620 85358
AAXX 21121 98536 31465 80402 10256 20232 39901 40100 52004 70242 8327/ 333 10276 56199 58011 83818 88357
AAXX 21121 98543 32468 60901 10273 20248 30078 40089 53022 83208 333 10320 56999 59004 83818 85272
AAXX 21121 98550 32460 30201 10272 20243 40096 52019 81261 333 10318 56999 58005 81818
AAXX 21121 98618 32470 63203 10286 20256 40086 53013 83261 333 10320 56299 58008 83819 85075
AAXX 21121 98630 32575 30203 10286 20260 40131 53006 82201 222// 2//02 333 10320 56199 59006 82820
AAXX 21121 98637 NIL
AAXX 21121 98646 32560 23601 10272 20245 30083 40111 53002 81201 333 10296 56999 58005 81820
AAXX 21121 98653 31468 40000 10270 20246 30038 40083 52028 70544 82201 333 10320 56999 58008 82818
AAXX 21121 98741 31470 60000 10283 20254 40090 52016 70344 82208 333 10314 56999 58004 82817 86275
AAXX 21121 98747 31460 51501 10261 20238 39875 40079 52021 70544 82401 333 10324 56999 58007 82618 85075
AAXX 21121 98753 31468 53602 10283 20239 40083 52031 70544 82208 333 10329 56999 58006 83816 85279
AAXX 21121 98755 32575 32701 10267 20247 40087 52019 81205 333 10310 56999 58002 81820 83080
AAXX 21121 98836 31460 42702 10285 20255 40090 53020 70542 81201 333 10337 56999 58008 81818 83081
BBXX 44140 21121 99429 70515 46/// /2911 10105 40191 52039 22200 00063 11010 70048 333 91215
BBXX 44140 21121 99429 70515 46/// /2911 10105 40191 52039 22200 00063 11010 70048 333 91215
BBXX KS007 21124 99267 70801 43/// ///// 10235 40164 22200
BBXX KS098 21124 99440 71243 43/// /0412 10077 40299 22241 06000
BBXX KS094 21124 99123 70616 43/// /0718 10273 40146 22200 06265
BBXX KS088 21124 99267 70801 43/// /0707 10237 40204 22200 06220
BBXX 46036 21121 99484 71339 46/// /1808 10072 40314 57012 22200 00084 11306 70029 333 91209
BBXX 46036 21121 99484 71339 46/// /1808 10072 40314 57012 22200 00084 11306 70029 333 91209
AAXX 21121 40656 42960 60000 10196 20058 40196 57026 80006
AAXX 21121 40665 42960 40000 10214 20072 40222 57020 80002
AAXX 21121 40670 42960 40000 10180 20057 40210 57015 80002
AAXX 21121 40676 42960 40000 10198 20012 40218 57018 81032
AAXX 21121 40680 42960 32702 10224 20084 40211 57018 80002
AAXX 21121 40689 42960 22702 10205 20036 40225 57012 80001
AAXX 21121 40602 42960 30903 10160 20027 40243 57020 83032
AAXX 21121 40608 42960 00000 10176 20014 40206 57023
AAXX 21121 40621 42960 42102 10192 20037 40220 58019 80002
AAXX 21121 40629 42960 52404 10162 20078 40221 57024 83032
AAXX 21121 40633 41958 42902 10170 20043 40218 57025 70622 80008
AAXX 21121 40637 42960 02802 10215 20127 40214 50004
AAXX 21121 40642 42560 61903 10200 21023 40178 57010 86800
AAXX 21121 40650 42960 70602 10180 20034 40213 57025 80008
AAXX 21121 88900 46/// /0406 10059 20054 30021 40024 58002 333 10060 20038
AAXX 21124 41184 32960 00105 10246 20246 20086 40181 333 58004
AAXX 21124 41194 12960 00112 10245 20065 30183 40187 60001 333 58003
AAXX 21124 41196 42960 00209 10244 20044 30149 40188 333 58000
AAXX 21124 41198 32560 21107 10240 20073 40195 82500 333 58001 82625
AAXX 21124 41217 32960 03607 10260 20001 30145 40174 333 58004
AAXX 21124 41218 32960 12603 10249 20038 39871 40174 81030 333 58002 81362
BBXX 2AUO5 21123 99606 10016 41698 21709 10074 21017 40106 52011 7//11 8/15/ 22200 20903 80040
BBXX AMOUK08 21124 99501 70061 46/// ///// 10122 20109 30249 40255 52022 91150
BBXX 63110 21124 99595 10015 47999 /1610 10059 21011 40112 58001 700// 22200 10704 70018
BBXX 63106 21124 99610 10017 46/// /2009 10059 40101 58004 22200
BBXX 63105 21124 99610 10017 47998 ///// 10066 21038 40100 58004 700// 22200
BBXX 62304 21124 99511 10018 46/98 /3214 10086 20079 40169 51015 22200 00110 10601 70006
BBXX 62094 21124 99517 70067 46/// /2413 10111 20098 40230 52015 22200 00106 10604 70020
BBXX 62103 21124 99499 70029 46/98 /2818 10124 20110 40220 51024 22200 00123 10703 70016 333 90710 91125
BBXX V2NA1 21124 99461 70189 41397 81915 10150 20116 40320 54000 70211 8/6// 22223 04120 20402 80130
BBXX DANV 21124 99368 10020 41998 12824 10183 20130 40252 54000 7//00 81065 22221 04160 20104 327// 40303 80151
AAXX 21124 03894 11257 83018 10116 20112 40226 50017 69911 72052 886// 333 83703 87704 90710 91127
AAXX 21121 23426 42984 62301 11136 21149 30184 40210 57007 84071
AAXX 21121 23625 42998 80000 11093 21114 30200 40235 57007 8807/
AAXX 21121 28076 41996 82302 11072 21077 30252 40327 57008 77122 8802/
AAXX 21121 28367 42984 22003 11070 21170 30254 40389 57004 80001
AAXX 21121 28382 42998 82002 11071 21119 30304 40378 57012 8802/
AAXX 21121 28481 42998 82203 11088 21142 30299 40404 56008 8802/
AAXX 21121 28491 42997 62102 11085 21144 30285 40401 57016 86030
AAXX 21121 28573 42997 82003 11108 21152 30318 40429 57008 8801/
AAXX 21121 28593 42997 62102 11120 21155 30316 40421 57003 80005
AAXX 21121 28786 42997 82504 11117 21152 30302 40472 57001 83032
AAXX 21121 28797 42997 82703 11122 21157 30294 40463 53002 82031
AAXX 21121 28799 42997 52502 11128 21155 30305 40461 54000 83079
AAXX 21121 20046 42998 10905 11105 21118 30097 40130 52009 80001
AAXX 21121 20069 NIL
AAXX 21121 20087 31998 31507 11228 21260 30203 40214 52004 73631 82031 333 11180 91113
AAXX 21121 20292 NIL
AAXX 21121 20353 NIL
AAXX 21121 20667 42998 82304 11016 21024 30104 40111 52007 8805/
AAXX 21121 20674 11995 81911 11193 21212 30107 40170 58003 69922 77173 8802/ 333 11183 91115 92983
AAXX 21121 20744 42598 31207 11037 21059 30057 40075 54000 82501
AAXX 21121 20891 31998 20604 11351 21387 30230 40278 57001 80030 333 11341 91105
AAXX 21121 23022 42497 82109 11021 21030 30062 40123 54000 885// 333 91112
AAXX 21121 23032 41497 82105 11040 21052 30114 40145 52001 73632 885// 333 88615
AAXX 21121 23058 41998 81402 11141 21161 30167 40172 51002 70272 8805/
AAXX 21121 23242 41597 82606 11114 21134 30174 40190 52002 73632 885// 333 88627
AAXX 21121 23256 41428 82301 11107 21120 30148 40184 52007 77187 885// 333 88610
AAXX 21121 23330 42997 42003 11150 21163 30184 40206 57005 82031
AAXX 21121 23445 42997 22004 11156 21162 30200 40227 57003 82030
AAXX 21121 23552 42497 62303 11124 21144 30201 40237 52004 86500 333 86615
AAXX 21121 23631 42998 81902 11153 21166 30196 40240 57008 80001
AAXX 21121 23662 41496 82403 11099 21116 30197 40243 52012 77172 8552/ 333 85616
AAXX 21121 23724 42999 32102 11103 21123 30186 40254 57009 82031
AAXX 21121 23734 42998 81101 11149 21162 30174 40271 57006 83031
AAXX 21121 23849 42996 52202 11148 21166 40306 57007 80001
AAXX 21121 23867 41997 82102 11129 21149 30234 40310 52001 77173 8807/
AAXX 21121 23933 42997 81601 11120 21131 30242 40302 57008 8807/
AAXX 21121 28064 41996 81901 11051 21076 30226 40320 57007 77172 8802/
AAXX 21121 28275 42997 92003 11049 21132 30294 40356 57007 8805/
AAXX 21121 28493 42997 71702 11107 21143 30306 40404 57002 87070
AAXX 21121 28698 42997 82401 11109 21145 30283 40448 54000 82032
AAXX 21124 82106 32298 80504 10253 20245 3//// 4//// 887// 333 20237 5////
AAXX 21124 82113 32596 62302 10270 20248 3//// 4//// 85202 333 20239 5////
AAXX 21124 82212 31697 40902 10239 20224 30040 40122 71022 84100 333 20222 58004
AAXX 21124 82336 32598 40000 10268 20239 3//// 4//// 82104 333 20243 5////
AAXX 21124 82425 22296 81402 10254 20244 3//// 4//// 887// 333 20243 5//// 60204
AAXX 21124 82533 21297 61802 10254 20244 3//// 4//// 70366 86650 333 20238 5//// 60104
AAXX 21124 82704 21696 80000 10235 20226 39868 40062 70362 885// 333 20225 59016 60044
AAXX 21124 82723 22897 60000 10258 20244 30032 40114 86050 333 20240 59019 60024
AAXX 21124 82586 32598 63610 10284 20226 39878 40114 86400 333 20240 59003
AAXX 21124 82678 32596 53606 10294 20229 39982 40120 86200 333 20257 59007
AAXX 21124 82784 21598 70905 10256 20223 39675 40127 70262 87500 333 20198 59010 60164
AAXX 21124 82791 32599 60910 10277 20204 39846 40122 86200 333 2//// 59007
AAXX 21124 82983 32597 61408 10268 20204 39708 40115 86100 333 20248 59012
AAXX 21124 83096 32695 20905 10284 20235 30147 40154 82100 333 20241 59002
AAXX 21124 83186 32598 51408 10250 20187 39593 40119 84508 333 20205 59013
AAXX 21124 83236 32898 12301 10264 20216 39615 40101 81060 333 20219 59014
AAXX 21124 83242 32496 83603 10224 20189 39659 40152 887// 333 20202 59012
AAXX 21124 83288 32998 20000 10276 20204 39621 40106 82006 333 20212 59015
AAXX 21124 83344 32598 70506 10221 20188 39175 40136 83104 333 20163 59019
AAXX 21124 82042 32698 60000 10257 20231 3//// 4//// 84422 333 20232 5////
AAXX 21124 82240 32896 30000 10292 20227 3//// 4//// 82031 333 20251 5////
AAXX 21124 82317 22593 20000 10252 20234 3//// 4//// 81106 333 20209 5//// 60164
AAXX 21124 82610 21595 80000 10243 20241 3//// 4//// 70266 887// 333 20226 5//// 60204
AAXX 21124 82807 32295 80000 10242 20239 3//// 4//// 887// 333 20232 5////
AAXX 21124 83064 22998 20502 10270 20240 39834 40102 80002 333 2//// 58017 60074
AAXX 21124 83235 32698 30902 10285 20210 39439 40099 83030 333 20229 59015
AAXX 21124 83264 21795 82302 10222 20215 39701 40170 76166 8452/ 333 20214 58004 60134
AAXX 21124 83332 32698 60000 10267 20205 39197 40087 82230 333 20202 59027
AAXX 21124 83358 22798 63602 10270 20220 39702 40098 83169 333 20224 59005 60044
AAXX 21124 83423 32898 63602 10259 20202 39304 40106 84089 333 20210 59002
AAXX 21124 83470 32998 22702 10259 20212 39262 40104 80001 333 20198 59003
AAXX 21123 63661 32580 53604 10257 20114 48495 84261 333 59003 84826
AAXX 21123 63671 32680 30607 10330 20188 83200 333 83831
AAXX 21123 63723 32682 40508 10349 20197 40065 84200 333 59008 84830
AAXX 21123 63793 32580 43612 10320 20177 40043 84200 333 58000 84826
AAXX 21124 68342 16/// /3005 10322 20100 38494 48491 57013 69921 333 10329 2//// 91013 555 20002 91017
AAXX 21121 02947 47383 72101 10002 21006 40126 52007 70000 87/// 91151
AAXX 21121 38836 42999 30000 11074 21157 39404 40410 53001 80001
BBXX WZZF 21124 99334 11402 41498 32717 10140 20140 40185 57005 70100 832// 22244 00220 20303 327// 40505 5//// 6//// 80140 ICE /////
BBXX WDD2074 21124 99510 71325 41598 21813 10072 2//// 40245 50005 70200 821// 22273 00083 2//// 3//// 4//// 5//// 6//// 8//// ICE /////
BBXX WC5932 21124 99458 70871 43/// /2408 00/// 11059 21128 40056 55011 7//// 8//// 22200 0//// 2//// 3//// 4//// 5//// 6//// 81078 ICE /////
BBXX WRAH 21124 99329 70282 41598 61419 10210 2//// 40249 52004 7//22 8386/ 22264 00211 20303 31405 40304 50304 6//// 8//// ICE /////
BBXX WBN7618 21124 99196 70688 41/// /0822 10233 2//// 40240 5//// 725// 8//// 222// 0//// 20805 30836 41106 5//// 6//// 8//// ICE /////
BBXX A8VL8 21124 99063 10957 41996 31022 10280 20239 40070 56/// 7//// 80001 22223 0//// 20202 324// 40202 5//// 6//// 80250 ICE /////
BBXX ZCDG7 21124 99229 71467 41298 80915 10205 20189 40201 58003 70222 887// 22264 00230 20303 311// 40402 5//// 80195
BBXX 44099 21121 99369 70757 46/// ///// 1//// 91222 22200 00115 11201 21001 308// 41201 70006
BBXX 44022 21121 99409 70737 46/// ///01 10078 20060 40175 91230 22200 00078 333 91202 555 11010 22015
BBXX 51205 21121 99210 71564 46/// ///// 1//// 91218 22200 00241 11305 20705 332// 41302 70026
BBXX 46239 21121 99363 71221 46/// ///// 1//// 91221 22200 00136 11306 21004 330// 41305 70030
BBXX 46219 21121 99332 71199 46/// ///// 1//// 91228 22200 00139 11305 20903 330// 41304 70024
BBXX 46224 21121 99332 71175 46/// ///// 1//// 91206 22200 00146 11402 20501 324// 41401 70008
BBXX 46214 21121 99379 71235 46/// ///// 1//// 91225 22200 00117 11406 20905 330// 41404 70030
BBXX 51204 21121 99213 71581 46/// ///// 1//// 91222 22200 00246 11103 21002 331// 41102 70015
BBXX 51202 21121 99214 71577 46/// ///// 1//// 91209 22200 00243 10805 20805 302// 41101 70026
BBXX ZCBO2 21124 99229 50346 41297 60612 10254 20233 40194 53020 70300 8583/ 22232 20503 302// 40503 5//// 80239
BBXX C6NI8 21123 99002 70303 41498 71115 10270 20234 40127 56010 70222 87161 22283 04270 20703 311// 40804 5//// 80245
BBXX A8MV6 21123 99209 10648 41797 10618 10240 20117 40150 54000 70000 81101 22273 04280 20604 336// 40403 5//// 80170
BBXX AMOUK15 21124 99134 50086 46/// ///// 10220 20170 30145 40175 52007 91150
BBXX AMOUK17 21124 99340 30256 46/// ///// 10237 20166 30078 40080 57005 91150
BBXX C6W2032 21123 99011 10048 41398 41814 10280 2024/ 40120 54000 7//11 84260 22283 00270 20304 31818 40304 50304 6//// 80250 ICE /////
BBXX E5U2123 21123 99175 70177 41996 40820 10230 20212 40168 50005 70511 84/7/ 22284 00231 20504 399// 40803 5//// 80218
BBXX OZDM2 21124 99173 10406 41998 21415 10280 20209 40122 57021 70222 80001 22234 04290 20101 30000 80230
BBXX UFLT 21121 99518 11464 42/97 /3202 11080 40210 52001 22213 00000 302// 40602
BBXX 46036 21121 99484 71339 46/// /1808 10072 40314 57012 22200 00084 11306 70029 333 91209
BBXX KS088 21124 99267 70801 43/// /0707 10237 40204 22200 06220
BBXX KS098 21124 99440 71243 43/// /0412 10077 40299 22241 06000
BBXX KS094 21124 99123 70616 43/// /0718 10273 40146 22200 06265
BBXX KS007 21124 99267 70801 43/// ///// 10235 40164 22200
BBXX 44140 21121 99429 70515 46/// /2911 10105 40191 52039 22200 00063 11010 70048 333 91215
BBXX ZCDG7 21124 99229 71467 41298 80915 10205 20189 40201 58003 70222 887// 22264 00230 20303 311// 40402 5//// 80195
BBXX 44258 21121 99445 70634 46/// /2406 11018 40238 52003 22200 00060 11002 70008 333 91208
BBXX 42013 21121 99272 70829 46/// ///// 1//// 40193 91140 22200 00197
BBXX 42099 21121 99273 70842 46/// ///// 1//// 91227 22200 00230 10804 20804 70022
BBXX 41110 21121 99341 70777 46/// ///// 1//// 91221 22200 00137 10602 20602 311// 41301 70010
BBXX 41113 21121 99284 70805 46/// ///// 1//// 91221 22200 00210 10603 20603 309// 41201 70013
BBXX 44100 21121 99363 70756 46/// ///// 1//// 91222 22200 00118 11301 21001 308// 41301 70007
BBXX 42361 21121 99276 70925 46/// ///08 10211 20178 40139 53014 91230 555 11063 22067
BBXX 42362 21121 99278 70907 46/// /2108 10228 20211 40156 91230
BBXX 42364 21121 99291 70881 46/// /2206 10222 20200 40159 91230
BBXX 42362 21121 99278 70907 46/// /2008 10228 20211 40153 91215
BBXX 41112 21121 99307 70813 46/// ///// 1//// 91221 22200 00162 10602 20602 309// 41301 70011
BBXX 41009 21121 99285 70802 46/// /1509 10235 20164 40217 91220 22200 00246 11103 20503 300// 41102 70016 333 91211 555 11097 22102
BBXX 41010 21121 99289 70785 46/// /1710 10219 40226 91220 22200 00237 11103 20603 300// 41102 70017 333 91212 555 11103 22109
BBXX 46213 21121 99403 71247 46/// ///// 1//// 91224 22200 00100 11509 21006 330// 41506 70044
BBXX 46243 21121 99462 71241 46/// ///// 1//// 91229 22200 00077 11406 21004 326// 41405 70030
BBXX 46236 21121 99368 71219 46/// ///// 1//// 91220 22200 00124 11104 20903 329// 41103 70022
BBXX 46229 21121 99438 71246 46/// ///// 1//// 91221 22200 00099 11407 21003 329// 41406 70036
BBXX 46215 21121 99352 71209 46/// ///// 1//// 91208 22200 00146 11303 20902 327// 41303 70016
BBXX 46232 21121 99325 71174 46/// ///// 1//// 91208 22200 00150 11403 21002 328// 41402 70014
BBXX 46247 21121 99378 71228 46/// ///// 1//// 91221 22200 00110 11504 20903 330// 41503 70022
BBXX 46225 21121 99329 71174 46/// ///// 1//// 91214 22200 00145 11402 21001 327// 41402 70011
BBXX 44060 21121 99413 70721 46/// ///05 10096 40191 91230 22200 00101 333 91206 555 11057 22057
BBXX 46146 21121 99493 71237 46/// /0004 10050 40305 52029 22200 00071 10401 70005 333 91205
BBXX 44039 21121 99411 70727 46/// /1704 10096 20071 40196 91153 22200 00094 10201 70003 333 91205
BBXX 46004 21121 99509 71361 46/// /1710 10066 40277 57017 22200 00074 11306 70032 333 91213
BBXX P3GY9 21124 99099 70587 41698 60920 10280 2025/ 40140 51015 78022 86263 22233 00290 20705 311// 40903 5//// 6//// 80260 ICE /////
BBXX 46184 21121 99539 71389 46/// /1613 10063 40210 57039 22200 00064 11107 70035 333 91215
BBXX 44058 21121 99376 70763 46/// /1906 1//// 40182 91210 333 91208
BBXX 44058 21121 99376 70763 46/// /1806 10099 40183 58003 91200 22200 00088 1//00 70001 333 91207
BBXX 44057 21121 99395 70761 46/// /0701 10073 40160 56014 91200 22200 00055 333 91202
BBXX 44057 21121 99395 70761 46/// /0701 1//// 40159 91210 333 91201
BBXX 44059 21121 99368 70763 46/// /1803 10135 40185 58002 91200 22200 00102 333 91204
BBXX 44057 21121 99395 70761 46/// /0000 1//// 91220 333 91201
BBXX 44059 21121 99368 70763 46/// /1803 1//// 40186 91210 333 91204
BBXX 44059 21121 99368 70763 46/// /1803 1//// 91220 333 91205
BBXX A8VL8 21124 99063 10957 41996 31022 10280 20239 40070 56/// 7//// 80001 22223 0//// 20202 324// 40202 5//// 6//// 80250 ICE /////
BBXX DIHC 21123 99363 11560 41598 43311 10080 20038 40220 53020 702// 82444 22264 00150 20602 80060
BBXX UEYO 21121 99567 11491 42/98 /3007 11050 40160 54000 22213 00002 20402
BBXX UGOD 21121 99473 11481 42/98 93507 11003 40215 54000 89/// 22213 00033 20402 30200 40604
BBXX UGSN 21121 99514 11409 42/98 /3604 11112 40223 57003 22283 00009 2//// ICE 41091
BBXX 52244 21121 99200 11452 46/// ///// 1//// 91208 22200 00268
BBXX 52248 21121 99135 11448 46/// ///// 1//// 91206 22200 00281
BBXX 52246 21121 99152 11457 46/// ///// 1//// 91207 22200 00282
BBXX 52243 21121 99193 11666 46/// ///// 1//// 91155 22200 00265
BBXX WZZF 21124 99334 11402 41498 32717 10140 20140 40185 57005 70100 832// 22244 00220 20303 327// 40505 5//// 6//// 80140 ICE /////
BBXX V7OX3 21124 99250 50472 41998 03408 10240 20194 40090 54000 7//00 80000 22253 04260 21002 308// 40701 5//// 80210
BBXX SHIP 21121 99063 50813 41/91 /1405 10200 20169 40110 53010 74144 8//// 22274 20000 324// 41002 80180
BBXX ZDLP 21123 99547 50385 41/91 93217 10032 20030 40008 54000 74544 89/// 22283 04024 20201 333// 40301 5//// 80031 ICE //1/0
BBXX LAVN4 21124 99329 50479 41698 32208 10250 2018/ 40108 51008 70100 83430 22213 00200 20402 304// NNNN
BBXX 62141 21123 99493 50591 41797 43132 10121 49971 53003 72100 84141 22200 20605 33232 40403 50605
BBXX SHIP 21123 99176 50719 41498 81804 10210 20172 40140 53020 70322 8/27/ 22274 04170 20704 318// 40704 80107
BBXX 44058 21121 99376 70763 46/// /1806 1//// 91220 333 91207
BBXX 46092 21121 99368 71220 46/// /0907 10080 40174 54000 91157 22200 00124 555 11072 22077
BBXX 44043 21121 99392 70764 46/// /1803 10083 40152 58012 91200 22200 00070 1//00 70002 333 91203
BBXX 44043 21121 99392 70764 46/// /1902 1//// 40152 91210 333 91203
BBXX 44041 21121 99372 70768 46/// /1402 10120 91200 22200 00088 1//00 70001 333 91202
BBXX 44063 21121 99390 70764 46/// /2104 1//// 91220 333 91204
BBXX 44043 21121 99392 70764 46/// /2002 1//// 91220 333 91203
BBXX 44042 21121 99380 70763 46/// /1905 1//// 91220 333 91206
BBXX 51173 21121 99260 71739 46/// ///// 1//// 91211 22200 00244
BBXX 44042 21121 99380 70763 46/// /1905 1//// 40177 91210 333 91206
BBXX 44062 21121 99386 70764 46/// /1907 1//// 91220 22200 00083 333 91208
BBXX 44063 21121 99390 70764 46/// /2104 10086 40169 58021 91200 22200 00077 10201 70003 333 91206
BBXX 44062 21121 99386 70764 46/// /1807 1//// 40150 91210 22200 00083 333 91208
BBXX 44042 21121 99380 70763 46/// /1905 10110 40175 56009 91200 22200 00087 1//00 70002 333 91206
BBXX 44062 21121 99386 70764 46/// /1807 10092 40151 57009 91200 22200 00083 10301 70006 333 91208
BBXX 44063 21121 99390 70764 46/// /2103 1//// 40168 91210 333 91204
BBXX 51176 21121 99278 71758 46/// ///// 1//// 91213 22200 00239
BBXX 51172 21121 99284 71783 46/// ///// 1//// 91215 22200 00231
BBXX PBHZ 21123 99328 70656 41598 62808 10200 20197 40274 53011 70322 84565 22213 20401 30432 40801 50702 80198
BBXX A8OU4 21124 99284 71210 41598 23508 10150 20092 40191 50010 70211 82148 22234 00180 20503 335// 40904 5//// 80120
BBXX ZCDG4 21124 99174 70740 41698 52534 10270 20190 40155 53004 70311 85400 22234 00290 20303 312// 40706 5//// 80215
BBXX TBWUK19 21124 99526 71447 41/97 51616 10049 20039 40163 7//// 8//7/ 22262 20402 320// 41208 5//// 80045
BBXX 46181 21121 99538 71288 46/// /2802 10024 40326 52004 22200 00047 10300 70000 333 91202
BBXX 46132 21121 99497 71279 46/// /3404 10073 40316 52001 22200 00088 11306 70032 333 91206
BBXX 46205 21121 99542 71343 46/// /1707 10062 40285 57008 22200 00077 11206 70030 333 91209
BBXX 46206 21121 99488 71260 46/// /3407 10074 40302 52009 22200 00085 11307 70034 333 91209
BBXX WBN7618 21124 99196 70688 41/// /0822 10233 2//// 40240 5//// 725// 8//// 222// 0//// 20805 30836 41106 5//// 6//// 8//// ICE /////
BBXX 46185 21121 99524 71298 46/// /1202 10063 40320 52001 22200 00068 11303 70013 333 91203
BBXX PCBT 21123 99178 70598 41498 60524 10242 20212 40179 52030 70222 862// 22214 20605 301// 41206 80221
BBXX 46087 21121 99485 71247 46/// /0703 10062 20039 40297 91220 22200 00076 333 91204 555 11027 22028 31208 41105 61219 076027 109029 139009 136010 118012 108017
BBXX 44029 21121 99425 70706 46/30 /1810 10072 40187 58009 91204 22200 00086 10503 70013 333 91211 555 11120 22127
BBXX 44039 21121 99411 70727 46/// /1805 10096 20070 40197 91200 22200 00093 10201 70003 333 91206
BBXX 42085 21121 99179 70665 46/// /0507 10258 40173 91210 333 91208
BBXX 44022 21121 99409 70737 46/// ///01 10078 20058 40177 91215 22200 00078 333 91202 555 11010 22010
BBXX 44030 21121 99432 70704 46/// /2605 1//// 40190 58005 91204 22200 00083 10502 70011 333 91206 555 11058 22061
BBXX 44034 21121 99441 70681 46/30 /1911 10048 40199 56009 91204 22200 00084 10503 70015 333 91214 555 11135 22143
BBXX 44040 21121 99410 70736 46/// /1301 10085 20077 40183 91215 22200 1//00 70000 333 91202 555 11010 22010
BBXX 44032 21121 99437 70694 46/30 /2010 10062 40186 58009 91204 22200 00086 10503 70016 333 91212 555 11127 22134
BBXX 44060 21121 99413 70721 46/// ///05 10094 40193 91215 22200 00101 333 91207 555 11057 22057
BBXX 44024 21121 99423 70659 46/30 /2006 10031 40242 53003 91204 22200 00077 11103 70016 333 91208 555 11076 22080
BBXX 41036 21121 99342 70770 46/// ///// 10207 20155 40213 91220 22200 00188
BBXX WDD2074 21124 99510 71325 41598 21813 10072 2//// 40245 50005 70200 821// 22273 00083 2//// 3//// 4//// 5//// 6//// 8//// ICE /////
BBXX WCX9106 21123 99603 71465 41396 82224 10033 2//// 49990 57015 780// 88/// 22200 0//// 2//01 322// 4//01 5//// 6//// 8//// ICE /////
BBXX WC5932 21124 99458 70871 43/// /2408 00/// 11059 21128 40056 55011 7//// 8//// 22200 0//// 2//// 3//// 4//// 5//// 6//// 81078 ICE /////
BBXX 51171 21121 99064 71623 46/// ///// 1//// 91146 22200 00278
BBXX 51170 21121 99168 71695 46/// ///// 1//// 91148 22200 00258
BBXX DCAX2 21123 99042 11630 41696 80922 10260 20246 40070 54000 72588 83379 22233 21006 309// 41006 5//// 80250
BBXX 51179 21121 99143 51708 46/// ///// 1//// 91202 22200 00286
BBXX 51169 21121 99004 51600 46/// ///// 1//// 91154 22200 00258
BBXX 51178 21121 99142 51695 46/// ///// 1//// 91158 22200 00285
BBXX 51174 21121 99142 51697 46/// ///// 1//// 91155 22200 00285
BBXX 3EAT6 21123 99238 31528 41598 51712 10205 20164 40178 54000 70311 8/44/ 22223 00230 322// 40101
BBXX ZMENA 21124 99377 31762 46/// ///// 10178 20137 40287 57006 22200
BBXX AMOUK01 21124 99632 30033 46/// ///// 11017 21051 39752 49762 57010 91150
BBXX ZSAF 21124 99695 50065 41599 32904 11015 21059 49768 57009 70122 81504 22253 05013 20000 30000 40000 50000 ICE 68630
BBXX WRAH 21124 99329 70282 41598 61419 10210 2//// 40249 52004 7//22 8386/ 22264 00211 20303 31405 40304 50304 6//// 8//// ICE /////
BBXX MINUK04 2112/ 99555 10084 46/// ///// 10063 4//// 57021
BBXX MHNN5 21124 99459 70309 41397 82128 10160 20081 40147 57030 70222 8777/ 22262 00170 20805 321// 41209 5//// 80120
AAXX 21124 91723 NIL
AAXX 21124 91964 NIL
AAXX 21124 63801 32580 42706 10283 20191 39182 48517 81913 333 55310 58002 81827 81923 83079
AAXX 21124 42492 31994 33204 10122 20099 40156 71011 80001 333 10145 59003 83075
AAXX 21124 42587 31995 20000 10198 20097 40145 70500 80001 333 10258 58000 82075
AAXX 21124 42591 31994 20000 10144 20106 40158 71000 80001 333 10172 58001 82075
AAXX 21124 42701 31995 23203 10190 20037 39402 40136 70500 80001 333 10237 58006 82075
AAXX 21124 42798 31994 00000 10200 20071 40126 70500 333 10256 58002
BBXX 44137 21121 99423 70620 46/// /2702 10030 40257 52016 22200 00093 11005 70026 333 91204
BBXX 44137 21121 99423 70620 46/// /2702 10030 40257 52016 22200 00093 11005 70026 333 91204
AAXX 2112/ 89869 46/// ///// 11034 39695 4//// 5//// 91220
AAXX 2112/ 89828 46/// ///// 11233 36465 4//// 5//// 91220
AAXX 21124 61600 32960 60808 10275 20019 30145 40150 86070 333 58010 86463
AAXX 21124 61612 31940 50812 10250 21001 30160 40168 707// 83082 333 0//00 58020 83363
AAXX 21124 61627 31948 71414 10288 20037 3//// 4//// 70722 86082 333 0//00 5//// 86363
AAXX 21124 61630 31940 70810 10263 20071 30136 40155 70722 8707/ 333 0//00 58014 87363
AAXX 21124 61641 32960 60610 10285 20081 30108 40141 86080 333 0//00 58004 86363
AAXX 21124 61666 32960 71004 10275 20019 30138 40146 8707/ 333 0//00 58010 87463
AAXX 21124 61679 32962 50808 10321 20066 30140 40148 82032 333 0//99 57996 72353
AAXX 21124 61687 32963 30816 10310 21080 30082 40139 81031 333 0//00 58009 81363
AAXX 21124 61695 32960 10606 10290 20081 30119 40145 81030 333 0//00 58011 81363
AAXX 21124 61697 32960 00610 10300 20098 30118 40132 333 0//00 58004
AAXX 21124 61698 32960 40806 10304 20112 30121 40132 84030 333 0//00 58004 84073
AAXX 21124 61699 33960 41606 10310 20043 39927 40115 80002 333 0//00 58003 84073
AAXX 21124 63688 32580 5090710230 20078 48/// 81231 333 59003 81824 85359
AAXX 21124 63708 32680 42312 10290 20148 48474 83940 333 59001 81930 83831
AAXX 21124 63740 32580 40610 10255 20124 48480 83102 333 58000 83828
AAXX 21124 63772 12580 70804 10282 20253 72582 60091 878// 333 87826
AAXX 21124 63820 32580 71015 10316 20236 40079 8195/ 333 58002 81928 87361
AAXX 21124 63612 NIL
AAXX 21124 63661 NIL
AAXX 21124 63671 NIL
AAXX 21124 63695 NIL
AAXX 21124 63714 NIL
AAXX 21124 63723 NIL
AAXX 21124 63793 NIL
AAXX 21121 31152 32997 21801 11382 21416 39858 40323 52009 80002 333 11379
AAXX 21121 31163 NIL
AAXX 21121 31285 32999 50000 11276 21307 30133 40221 53009 82075 333 11233
AAXX 21121 31561 32998 60000 11254 21266 30190 40221 57002 80001 333 11184
AAXX 21121 31683 32999 00000 11270 21282 30160 40242 52004 333 11143
AAXX 21121 32010 32998 02801 11258 21270 30170 40224 53002 333 11181 91002 91103
AAXX 21124 63729 12480 70000 10223 20173 38860 48/// 60251 829// 333 0//25 55300 59009 82618 81920 86358
AAXX 21124 63733 32580 42710 10237 20199 38845 48487 83931 333 55300 58002 83824 81926
AAXX 21124 63791 32680 52408 10330 20140 39085 48490 85900 333 55304 58003 81934 85835
AAXX 21124 63832 32581 70000 10264 20184 38804 48483 86931 333 55305 59007 86820 81922 84358
AAXX 21124 63862 32580 50000 10283 20159 38869 48484 83933 333 55310 59008 83826 81927 83359
AAXX 21124 63887 32580 73610 10249 20160 38559 48476 84232 333 55305 59014 84824 85359
AAXX 21124 63894 01460 80000 10250 20250 30036 40096 60181 76161 8692/ 333 0//11 55300 58011 60047 86514 81920 88457
AAXX 21124 63932 01580 70000 10190 20174 38292 48488 69961 79592 8397/ 333 55300 59001 69965 83822 81923 87358
AAXX 21124 63962 11580 52407 10280 20178 38926 48495 60011 71792 85900 333 0//12 55310 59007 85825 81927
AAXX 21124 63971 31580 70118 10271 20246 39968 40097 70292 8493/ 333 55304 58001 84823 81924 86158
AAXX 21124 63756 NIL
AAXX 21124 63801 NIL
AAXX 21124 63866 NIL
AAXX 21124 63870 NIL
AAXX 21124 63881 NIL
AAXX 21121 31969 32/// /0000 11052 21102 30143 40193 55002 333 11014
AAXX 21124 71592 16/// /0502 11238 21269 39986 49999 53005 60001 333 11192 21252 4/011 70000
AAXX 21124 71963 16/// /3310 11323 21355 39733 40163 51015 60001 333 11226 21333 4/005 70000
AAXX 21124 71490 16/// /3315 11319 21348 39815 40160 51015 60001 333 11308 21337 4/008 70000
AAXX 21124 71923 16/// ///14 11298 21325 39654 40124 52013 60001 333 11155 21298 70000
AAXX 21124 71277 46/// /2508 11063 21071 6///1 333 10051 21071 7////
AAXX 21124 71592 16/// /0502 11238 21269 39986 49999 53005 60001 333 11192 21252 4/011 70000
AAXX 21124 71277 46/// /2508 11063 21071 6///1 333 10051 21071 7////
AAXX 21124 71923 16/// ///14 11298 21325 39654 40124 52013 60001 333 11155 21298 70000
AAXX 21124 71490 16/// /3315 11319 21348 39815 40160 51015 60001 333 11308 21337 4/008 70000
AAXX 21124 71963 16/// /3310 11323 21355 39733 40163 51015 60001 333 11226 21333 4/005 70000
BBXX 44138 21121 99443 70536 46/// /3012 10029 40191 52034 22200 00094 11111 70056 333 91216
BBXX 44138 21121 99443 70536 46/// /3012 10029 40191 52034 22200 00094 11111 70056 333 91216
AAXX 21124 63688 32580 50907 10230 20078 48/// 81231 333 59003 81824 85359
AAXX 21124 63708 32680 42312 10290 20148 48474 83940 333 59001 81930 83831
AAXX 21124 63740 32580 40610 10255 20124 48480 83102 333 58000 83828
AAXX 21124 63772 12580 70804 10282 20253 60091 878// 333 87826
AAXX 21124 63820 32580 71015 10316 20236 40079 8195/ 333 58002 81928 87361
AAXX 21124 63612 NIL
AAXX 21124 63661 NIL
AAXX 21124 63671 NIL
AAXX 21124 63695 NIL
AAXX 21124 63714 NIL
AAXX 21124 63723 NIL
AAXX 21124 63793 NIL
AAXX 21121 21802 32999 03402 11356 21373 30294 40321 53003 333 11335
BBXX 46004 21121 99509 71361 46/// /1710 10066 40277 57017 22200 00074 11306 70032 333 91213
BBXX 46036 21121 99484 71339 46/// /1808 10072 40314 57012 22200 00084 11306 70029 333 91209
BBXX 46181 21121 99538 71288 46/// /2802 10024 40326 52004 22200 00047 10300 70000 333 91202
BBXX 46183 21121 99536 71311 46/// /1503 10064 40313 54000 22200 00077 11401 70005 333 91204
BBXX 46185 21121 99524 71298 46/// /1202 10063 40320 52001 22200 00068 11303 70013 333 91203
BBXX 46204 21121 99514 71288 46/// /2802 10070 40322 54000 22200 00078 11106 70029 333 91203
BBXX 46205 21121 99542 71343 46/// /1707 10062 40285 57008 22200 00077 11206 70030 333 91209
BBXX 46206 21121 99488 71260 46/// /3407 10074 40302 52009 22200 00085 11307 70034 333 91209
BBXX A8EH2 21124 99456 71401 41/98 81921 10115 20105 40260 58035 70222 8//// 22284 00085 2//// 329// 40606 80110
BBXX KS098 21124 99440 71243 43/// /0412 10077 40299 22241 06000
BBXX TBWUK19 21124 99526 71447 41/97 51616 10049 20039 40163 7//// 8//7/ 22262 20402 320// 41208 5//// 80045
BBXX WDD2074 21124 99510 71325 41598 21813 10072 2//// 40245 50005 70200 821// 22273 00083 2//// 3//// 4//// 5//// 6//// 8//// ICE /////
BBXX WDJK 21124 99399 71253 41997 03635 10105 20096 40190 54000 70200 80/// 22273 00110 20605 333 // 40807 5//// 6//// 80100 ICE /////
AAXX 21121 01199 11575 81702 11066 21076 39599 40077 52009 6//// 70272 885// 333 91104
AAXX 21124 94997 46/// ///// 10054 39962 49977 5////
AAXX 21124 89564 41881 10705 10034 21025 39755 49775 53015 70200 81280
AAXX 21124 89573 35980 70409 10029 21070 39776 49798 52021 8703/ 333 80000 00295
AAXX 21124 89807 46/// /1616 4//// 5//// 333 90700 91120
AAXX 21124 89564 41881 10705 10034 21025 39755 49775 53015 70200 81280
AAXX 21124 89573 35980 70409 10029 21070 39776 49798 52021 8703/ 333 80000 00295
AAXX 21124 89807 46/// /1616 4//// 5//// 333 90700 91120
AAXX 21124 91532 47/// /0000 10265 20253 30071 40079 52001 7//44 333 10315
AAXX 21124 94290 46/// /1420 10276 30067 40076 52008 91224
AAXX 21124 82098 32497 20000 10298 20240 30097 40114 82200 333 20239 59006
AAXX 21124 82246 31597 40903 10265 20241 39924 40121 71011 83300 333 20228 58011
AAXX 21124 82445 31998 20000 10280 20252 30083 40135 71041 81051 333 20250 59001
AAXX 21124 82562 32598 60503 10265 20235 30020 40128 86050 333 20246 59010
AAXX 21124 82571 32497 80503 10275 20234 39944 40117 885// 333 20248 59002
AAXX 21124 82765 32598 50000 10278 20246 39904 40142 85400 333 20241 59020
AAXX 21124 94290 46/// /1420 10276 30067 40076 52008 91224
AAXX 21124 82141 32598 50708 10291 20252 30100 40112 85200 333 20264 59005
AAXX 21124 82145 32598 50902 10292 20236 30083 40124 83230 333 20201 59002
AAXX 21124 82181 32496 20509 10276 20223 30001 40140 81130 333 20240 59007
AAXX 21124 82198 32495 60507 10301 20232 30062 40113 86200 333 20250 59006
AAXX 21124 82353 32596 83606 10271 20235 30005 40089 84130 333 20236 58002
AAXX 21124 82361 32497 83604 10274 20252 30091 40128 885// 333 20248 59007
AAXX 21124 82476 32595 61403 10285 20233 39996 40114 86500 333 20256 58003
AAXX 21124 82861 22597 31804 10279 20248 39913 40081 83200 333 20241 59019 69924
AAXX 21124 94997 46/// ///// 10054 39962 49977 5////
AAXX 21124 94210 35/// /2513 10298 30037 40042 52014
AAXX 21124 94289 46/// /1321 10279 30061 40068 51008 91215
AAXX 21124 94379 46/// /1426 10258 30086 40095 50004 91226
AAXX 21124 83552 32698 2//// 10305 20227 39959 40130 80006 333 2//// 59004
AAXX 21124 83565 32897 60000 10294 20197 39648 40103 86030 333 20231 59008
AAXX 21124 83623 32996 7//// 1//// 2//// 39543 4//// 53026 85550 333 2////
AAXX 21124 83630 32997 43204 10252 20184 3//// 4//// 52021 80044 333 20200
AAXX 21124 83676 32997 30504 10262 20223 39478 40097 53015 80006 333 20208
AAXX 21124 83702 32899 30512 10303 20100 39367 40103 53018 81085 333 20219
AAXX 21124 83704 32898 30502 10296 20205 39678 40073 51010 80001 333 2////
AAXX 21124 83716 32997 20906 10270 20186 39624 40109 52033 80004 333 20232
AAXX 21124 83726 31997 40904 10264 20183 39187 40138 51015 70544 80001 333 20192
BBXX 41033 21121 99323 70804 46/// /2004 10164 40200 55000 91200 555 11056 22066
BBXX 44040 21121 99410 70736 46/// /1401 10085 20078 40181 91219 22200 1//00 70000 333 91202 555 11010 22010
BBXX 44056 21121 99362 70757 46/// ///// 1//// 91150 22200 00120 11201 21001 308// 41201 70007
BBXX SHIP 21124 99303 11316 41999 61705 10160 20123 41019 56001 70312 8//// 91200 22214 00230 1//// 2//// 3//// 4//// 5//// 6//// 80140 //////
BBXX SHIP 21124 99127 11373 41998 00310 10280 20253 40091 54000 7000/ 80000 22273 00320 20201 309// 40604 80260
BBXX SHIP 21124 99303 11316 41999 70515 10160 20123 41019 56001 70312 8//// 91200 22214 00230 1//// 2//// 3//// 4//// 5//// 6//// 80140 //////
BBXX 7JJA 21124 99358 11412 41697 80607 00 10090 20070 40185 54 70222 875// 9//// 22270 0 20101 303 40102 5 6//// 80080 ICE /////
AAXX 21121 55279 32880 52507 11007 21339 35686 52007 82402 333 00251 91118 91522
AAXX 21121 55472 32980 02506 11017 21347 35720 52005 333 00151 91122 91525
AAXX 21121 55696 32980 01103 10027 21102 36319 52011 333 00152
AAXX 21121 56079 32980 00405 11082 21144 36665 52014 333 00257
AAXX 21121 56106 32980 02705 10020 21289 36176 52008 333 00100 91120 91527
AAXX 21121 56257 32980 00701 10017 21201 36251 52017 333 00051
AAXX 21121 56374 11580 80000 11031 21078 37447 52027 69901 78580 884// 333 00452
AAXX 21121 56385 11/00 93204 11086 21089 37027 52019 69901 74974 333 00452
AAXX 21121 56954 32970 01101 10158 20122 40170 52018 333 00100
AAXX 21121 56966 32968 01103 10212 20101 40126 52019 333 00001
AAXX 21121 57237 11965 83205 10067 21012 40295 52019 69901 70060 8807/
AAXX 21121 57306 11963 70901 10085 20045 40292 52029 69901 70060 8704/
AAXX 21121 57604 31715 81101 10077 20073 40286 52022 71000 885//
AAXX 21121 57707 32465 80202 10024 20008 38549 52022 886// 333 00551
AAXX 21121 57832 11662 80202 10034 20011 39538 40302 52021 69901 76060 885// 333 00551
AAXX 21121 55228 32980 02506 11041 21432 35999 52004 333 00301
AAXX 21121 55578 32980 23601 11005 21240 36352 52001 80002 333 00252
AAXX 21121 55664 32880 52502 10006 21300 36002 52010 85400 333 00101
AAXX 21121 55773 32970 01106 11025 21198 36009 52012 333 00102
AAXX 21121 56116 32980 03401 11011 21161 36302 52009 333 00000
AAXX 21121 56137 32980 00000 10049 21242 36747 52016 333 00002
AAXX 21121 56172 32980 00901 10000 21073 37301 52032 333 00000
AAXX 21121 56247 32980 01601 10092 21161 37375 52020 333 05101
AAXX 21121 56312 32980 01603 10055 21070 37069 52019 333 00001
AAXX 21121 56462 32980 02701 10020 21059 37113 52032 333 00000
AAXX 21121 56651 32980 03603 10101 21067 37615 52014 333 00002
AAXX 21121 56691 11462 80203 11016 21024 37800 52017 69901 76660 887// 333 00453 93428
AAXX 21121 56985 32965 01601 10144 20070 38714 40171 52018 333 00103
AAXX 21121 57633 11460 80401 10037 20006 39508 40316 52021 69901 76060 887// 333 00551
AAXX 21121 57902 11456 80702 10037 20037 38677 40263 52016 69951 76066 887// 333 00451
AAXX 21124 89050 11497 80312 10013 20010 49927 57008 60042 71062 8742/
AAXX 21124 42634 32996 10505 10230 20093 40138 80001 333 10246 58014 81070
AAXX 21124 42647 32996 03602 10272 20111 40124 333 10296 58002
AAXX 21124 42737 32996 03608 10270 20077 40125 333 10289 58004
AAXX 21124 42840 32997 03402 10270 20152 40120 333 10308 58005
AAXX 21124 42909 32997 03606 10280 20103 40111 222// 20000 333 10311 59004
AAXX 21124 89610 46/// /0424 11017 39646 4//// 5//// 333 90700 91130
AAXX 21124 89610 46/// /0424 11017 39646 4//// 5//// 333 90700 91130
AAXX 21124 89610 46/// /0424 11017 39646 4//// 5//// 333 90700 91130
AAXX 21124 67017 NIL
AAXX 21124 67020 32582 42804 10330 20211 30051 40078 57025 84900 333 0//00 83820 81920 94971 95831 555 82640
AAXX 21124 67023 32582 70610 10310 20248 30072 40078 57018 8397/ 333 0//00 83820 81920 87460 94974/6/7 95834/6/7 555 81640
AAXX 21124 67037 32582 1//// 20/// 30044 40085 5/020 81200 333 0//00 81820
AAXX 21124 67067 31575 5//// 10314 20131 39221 48/// 57016 70511 85800 333 0//00 83823 555 82630
AAXX 21124 67107 NIL
AAXX 21124 67131 32582 43008 10/// 20/// 30070 40075 57015 84800 333 0//00 84820 555 81640
AAXX 21124 67002 32580 83202 10286 20222 30080 40113 8492/ 333 0//00 59005 82920 83630 87460 92407
AAXX 21124 67009 32582 72816 10285 20222 39961 40078 57026 85902 333 83820 81920 83640 85075 94973/4/6/8 95833/4/6/8 555 10320 67012 32582 52616 10310 20257 30075 40086 57021 83232 333 0//00 83820 83075 555 81360
AAXX 21124 67025 31570 60000 10312 20234 39978 40076 57019 71522 85930 333 0//00 83820 81920 83640 94977/8 95877/8 555 82360
AAXX 21124 67027 32582 22816 10310 20231 30072 40093 57017 81933 333 0//00 81820 81920 94961 95811 555 81360 81073
AAXX 21124 67045 NIL
AAXX 21124 67072 32581 50810 10314 20251 30082 40085 57014 83832 333 0//00 82820 92428 555 82640 82360 82075
AAXX 21124 67073 31580 3//// 10306 20208 30072 40098 57014 71500 82830 333 0//00 82820 555 81633 81360
AAXX 21124 67083 32582 63210 10270 20150 38712 48488 57015 86200 333 0//00 86820
AAXX 21124 67095 31480 10608 10312 20247 30065 40071 56013 70400 81800 333 0//00 81817 555 81640 67113 NIL
AAXX 21124 67117 NIL
AAXX 21124 67137 32580 5//04 10271 20160 38854 48461 57017 85200 333 0//00 85820 555 10283
AAXX 21124 67143 32582 1//// 10/// 20/// 30079 40086 57014 81200 333 0//00 81820 92438
AAXX 21124 67152 32581 4//// 10282 20172 39152 48466 57018 84930 333 0//00 83820 82920 94994/6 95834/6
AAXX 21124 67157 32582 3//// 10/// 20/// 30075 40082 57012 83902 333 0//00 82823 82923 94994/5 95835 83640
AAXX 21124 67161 NIL
AAXX 21124 67197 11458 70808 10284 20238 30056 40066 57014 60021 71596 879// 333 0//12 83817 81917 85633 94967/8 95837/8
AAXX 21124 71048 16/// /0112 11038 21054 60001 333 10053 21038 70000
AAXX 21124 71981 16/// /3412 11028 21052 60001 333 10061 21066 70000
AAXX 21124 71982 16/// /3314 11025 21063 60001 333 10082 21069 70000
AAXX 21124 71986 16/// /3610 11012 21019 60001 333 10051 21018 70006
AAXX 21124 71990 47/// /2517 11109 21133 38517 40145 58010 6///1 7//4/ 333 11094 21158 4/075 7////
AAXX 21124 71354 46/// /3108 11043 21048 6///1 333 10059 21044 7////
AAXX 21124 71406 16/// /2509 11061 21088 30100 40110 52018 60001 333 11030 21067 70007
AAXX 21124 71418 46/// /2721 11025 21063 30149 40182 51019 6///1 333 10021 21037 7////
BBXX 42360 21121 99267 70905 46/// /1904 10238 91200 22200 00248 10803 70016 333 91206
AAXX 21124 71354 46/// /3108 11043 21048 6///1 333 10059 21044 7////
AAXX 21124 71406 16/// /2509 11061 21088 30100 40110 52018 60001 333 11030 21067 70007
AAXX 21124 71418 46/// /2721 11025 21063 30149 40182 51019 6///1 333 10021 21037 7////
AAXX 21124 71981 16/// /3412 11028 21052 60001 333 10061 21066 70000
AAXX 21124 71982 16/// /3314 11025 21063 60001 333 10082 21069 70000
AAXX 21124 71986 16/// /3610 11012 21019 60001 333 10051 21018 70006
AAXX 21124 71990 47/// /2517 11109 21133 38517 40145 58010 6///1 7//4/ 333 11094 21158 4/075 7////
AAXX 21124 71048 16/// /0112 11038 21054 60001 333 10053 21038 70000
AAXX 2112/ 48969 NIL
AAXX 2112/ 48962 NIL
AAXX 2112/ 48990 NIL
AAXX 2112/ 48986 NIL
AAXX 2112/ 48995 NIL
AAXX 2112/ 48967 NIL
AAXX 2112/ 48992 NIL
AAXX 2112/ 48965 NIL
AAXX 2112/ 48985 NIL
AAXX 2112/ 48970 NIL
AAXX 2112/ 48991 NIL
AAXX 2112/ 48964 NIL
AAXX 2112/ 48997 NIL
AAXX 2112/ 48968 NIL
AAXX 2112/ 48973 NIL
AAXX 2112/ 48966 NIL
AAXX 2112/ 48983 NIL
AAXX 2112/ 48972 NIL
AAXX 2112/ 48998 NIL
AAXX 2112/ 48993 NIL
AAXX 2112/ 48971 NIL
AAXX 2112/ 48963 NIL
AAXX 2112/ 48987 NIL
AAXX 21124 89657 46/// /3202 11035 20002 49718 56002
BBXX MINFR00 2112/ 99206 70741 46/// ///// 10245 40189 52006
BBXX VRZT9 21123 99118 70703 41597 70905 10230 2022/ 40130 54/// 7//22 86483 22200 0//// 20401 309// 4//// 5//// 6//// 80220 ICE /////
AAXX 21124 88889 11456 71205 10095 20072 39829 49912 58035 60051 79698 8693/ 91150 333 82710 86917 87358
BBXX KNJK 21123 99268 70889 41698 61625 10239 20223 40140 51020 7//11 862// 22223 00233 2//// 3//// 4//// 5//// 6//// 80228 ICE /////
BBXX V7HP4 21124 99194 70836 41596 61313 10260 20217 40250 52010 7//// 86263 22233 00230 20604 3//// 4//// 5//// 6//// 80230 ICE /////
AAXX 21124 83766 32997 00000 10260 20184 39475 40103 5//// 333 20184
AAXX 21124 83836 32997 03203 10246 20147 39152 40110 53020 333 20156
AAXX 21124 83881 32997 03603 10254 20181 39823 40097 51012 333 20182
AAXX 21124 83980 32997 30502 10275 20149 39830 40101 52022 80005 333 20193
AAXX 21124 83997 32997 21402 10251 20191 30088 40131 51016 80001 333 20162
AAXX 21124 83437 21798 72701 10244 20205 39406 40118 70542 8703/ 333 20208 59017 60014
AAXX 21124 83579 32599 23203 10242 20191 39023 40123 82100 333 20190 59005
AAXX 21124 83592 32597 60903 10250 20209 39454 40128 84242 333 20177 59017
AAXX 21124 83384 21597 60000 10240 20224 39552 40128 70352 84264 333 20218 59016 69914
AAXX 21124 83386 32598 70506 10270 20211 39581 40102 8119/ 333 20215 59023
AAXX 21124 83388 32497 60503 10277 20191 39440 40097 82136 333 20202 59017
AAXX 21124 83393 32599 60902 10252 20186 39415 40129 84430 333 20200 59017
AAXX 21124 83442 32597 80000 10262 20214 39768 40112 888// 333 20215 59027
AAXX 21124 83479 32598 20504 10248 20201 39342 40134 82200 333 20186 59014
AAXX 21124 83483 22598 50502 10246 20219 39562 40126 83430 333 20207 59019 60034
AAXX 21124 83531 22597 32702 10226 20199 39100 40125 83200 333 20179 59007 60054
AAXX 21124 83538 21497 63605 10216 20172 38720 40100 70352 86700 333 20162 59014 60024
AAXX 21124 83574 32594 53602 10298 20212 39571 40166 5//// 85060 333 20240
AAXX 21124 83582 22596 81801 10214 20199 39363 40127 52008 88600 333 20172 60034
AAXX 21124 83595 22597 60502 10280 20252 30060 40144 83254 333 20230 59030 60074
AAXX 21124 83687 32698 53203 10252 20202 39120 40114 53004 85700 333 20188
AAXX 21124 83692 22696 23602 10246 20192 39094 40108 53005 82200 333 20177 60084
BBXX A8AX3 21123 99173 70184 41/// /0204 40170 51/// 7//// 8//// 22244 2//// 30000
AAXX 21124 82392 32499 60505 10306 20222 30003 40104 83530 333 20246 59005
AAXX 21124 82583 32599 40910 10308 20198 39772 40104 84100 333 20249 59018
AAXX 21124 82594 32697 41407 10292 20212 30110 40118 83200 333 20230 59011
AAXX 21124 82683 32595 70504 10276 20197 39675 40123 87600 333 20238 59011
AAXX 21124 82780 32497 50904 10302 20204 39888 40134 83240 333 20265 59011
AAXX 21124 82789 32599 71410 10206 20162 38939 40032 84520 333 20179 59016
AAXX 21124 82795 32597 50910 10253 20193 39522 40137 85100 333 20211 59015
AAXX 21124 82879 32598 21407 10310 20197 39850 40111 82100 333 20268 59008
AAXX 21124 82893 32798 60511 10242 20195 39221 40118 86200 333 20190 59008
AAXX 21124 82979 32698 20000 10283 20190 39654 40094 82040 333 20242 59023
AAXX 21124 82986 32597 60910 10284 20201 39840 40122 86200 333 20228 59012
AAXX 21124 83179 32598 21402 10287 20200 39654 40092 81102 333 20228 59013
AAXX 21124 83192 32597 40507 10292 20150 39972 40135 83240 333 20220 59018
AAXX 21124 83339 31497 60902 10201 20180 39153 40112 71000 85230 333 20183 59018
AAXX 21124 83498 32595 53607 10283 20220 30148 40153 82431 333 20237 59021
AAXX 21124 82863 32999 12304 10290 20248 39892 40101 80001 333 20243 59026
AAXX 21124 83228 21799 51402 10288 20230 39831 40103 70395 82101 333 20233 59017 69964
AAXX 21124 83270 21598 80000 10230 20222 39662 40145 70265 886// 333 20214 58000 60054
AAXX 21124 83309 31695 80000 10256 20229 39795 40115 71000 885// 333 20228 58000
AAXX 21124 83319 32697 80000 10246 20232 39790 40162 8352/ 333 20232 58003
AAXX 21124 83368 32798 70000 10286 20235 39752 40113 85204 333 20227 59011
AAXX 21124 83374 32898 62706 10258 20215 39552 40119 86050 333 20215 59012
AAXX 21124 83405 32896 6//// 10274 20236 39952 40083 88050 333 20244 59003
AAXX 21124 83526 32998 20000 10257 20195 39187 40118 80001 333 20191 59011
BBXX A8IZ2 21124 99289 70535 41498 83315 10210 20110 40270 51010 70221 884// 22214 20101 33528 40908 50506 80150
BBXX ZCDS4 21123 99148 51481 41697 40919 10280 20244 40135 54000 72562 84300 22222 04275 21402 303// 41605 5//// 80255
AAXX 21124 83811 32997 03202 10252 20152 39235 40114 53017 333 20176
AAXX 21124 83844 32597 127// 10289 20190 30090 40097 53012 81100 333 20214
AAXX 21124 83887 32997 00000 10258 20123 39086 40112 51014 333 20181
AAXX 21124 83907 32997 10504 10293 20153 39836 40108 51015 81080 333 20210
AAXX 21124 83914 21896 20000 10262 20146 39362 40110 52018 70581 82030 333 20185 60014
AAXX 21124 83919 32997 03207 10226 20139 38963 40125 52008 333 20162
AAXX 21124 83927 32597 61802 10262 20173 30023 40093 52015 86200 333 20226
AAXX 21124 83936 32997 41402 10280 20208 39998 40115 52010 80002 333 20200
AAXX 21124 83948 31496 11808 10264 20239 30088 40094 51015 71041 81200 333 20203
AAXX 21124 83964 32997 00000 10262 20162 39627 40102 52016 333 20184
AAXX 21124 83995 32497 30000 10246 20197 30114 40117 53010 82101 333 20172
BBXX UGWJ 21121 99027 30850 41498 82711 10270 40086 54000 76066 88894/ 22252 00282 20504 32500 40703
BBXX UGWJ 21121 99027 30850 41498 82711 10270 40086 54000 76066 88894/ 22252 00282 20504 32500 40703
BBXX 41053 21121 99185 70661 46/// /0709 10263 40183 91230 333 91211
BBXX 41053 21121 99185 70661 46/// /0609 10262 40182 91220 333 91212
BBXX 41053 21121 99185 70661 46/// /0709 10261 40182 91210 333 91212
BBXX 41052 21121 99183 70648 46/// /0509 10260 40176 91230 333 91211
BBXX 41052 21121 99183 70648 46/// /0509 10259 40175 91220 333 91212
BBXX 41052 21121 99183 70648 46/// /0509 10260 40172 53017 91200 22200 00272 10603 70014 333 91212
BBXX 42085 21121 99179 70665 46/// /0508 10258 40176 91230 333 91209
BBXX 42085 21121 99179 70665 46/// /0508 10259 40174 91220 333 91209
BBXX 42085 21121 99179 70665 46/// /0507 10258 40172 53020 91200 22200 00273 10603 70013 333 91209
BBXX 7JJA 21124 99358 11412 41697 80607 00 10090 20070 40185 54 70222 875// 9//// 22270 0 20101 303 40102 5 6//// 80080 ICE /////
BBXX SHIP 21124 99303 11316 41999 70515 10160 20123 41019 56001 70312 8//// 91200 22214 00230 1//// 2//// 3//// 4//// 5//// 6//// 80140 //////
BBXX SHIP 21124 99303 11316 41999 61705 10160 20123 41019 56001 70312 8//// 91200 22214 00230 1//// 2//// 3//// 4//// 5//// 6//// 80140 //////
BBXX SHIP 21124 99127 11373 41998 00310 10280 20253 40091 54000 7000/ 80000 22273 00320 20201 309// 40604 80260
BBXX A8UX3 21124 99063 10033 41397 79904 10300 20287 40120 51/// 70544 86618 22200 04290 22003 80290
BBXX VRZT9 21123 99118 70703 41597 70905 10230 2022/ 40130 54/// 7//22 86483 22200 0//// 20401 309// 4//// 5//// 6//// 80220 ICE /////
BBXX MINFR00 2112/ 99206 70741 46/// ///// 10245 40189 52006
BBXX V7HP4 21124 99194 70836 41596 61313 10260 20217 40250 52010 7//// 86263 22233 00230 20604 3//// 4//// 5//// 6//// 80230 ICE /////
BBXX 42360 21121 99267 70905 46/// /1904 10238 91200 22200 00248 10803 70016 333 91206
BBXX C6KD6 21124 99165 70769 41498 60725 10266 20226 40135 51015 70322 82265 22214 02283 20808 80239
BBXX 44056 21121 99362 70757 46/// ///// 1//// 91150 22200 00120 11201 21001 308// 41201 70007
BBXX 41033 21121 99323 70804 46/// /2004 10164 40200 55000 91200 555 11056 22066
BBXX 44040 21121 99410 70736 46/// /1401 10085 20078 40181 91219 22200 1//00 70000 333 91202 555 11010 22010
BBXX 44138 21121 99443 70536 46/// /3012 10029 40191 52034 22200 00094 11111 70056 333 91216
BBXX KNJK 21123 99268 70889 41698 61625 10239 20223 40140 51020 7//11 862// 22223 00233 2//// 3//// 4//// 5//// 6//// 80228 ICE /////
BBXX 44137 21121 99423 70620 46/// /2702 10030 40257 52016 22200 00093 11005 70026 333 91204
BBXX A8OF6 21123 99290 70469 41298 63205 10208 20137 40230 52/// 70311 8/79/ 22264 04230 20607 331// 40908 80164
BBXX 51205 21121 99210 71564 46/// ///// 1//// 91218 22200 00241 11305 20705 332// 41302 70026
BBXX 46239 21121 99363 71221 46/// ///// 1//// 91221 22200 00136 11306 21004 330// 41305 70030
BBXX 46219 21121 99332 71199 46/// ///// 1//// 91228 22200 00139 11305 20903 330// 41304 70024
BBXX 46214 21121 99379 71235 46/// ///// 1//// 91225 22200 00117 11406 20905 330// 41404 70030
BBXX 46224 21121 99332 71175 46/// ///// 1//// 91206 22200 00146 11402 20501 324// 41401 70008
BBXX 44099 21121 99369 70757 46/// ///// 1//// 91222 22200 00115 11201 21001 308// 41201 70006
BBXX 44022 21121 99409 70737 46/// ///01 10078 20060 40175 91230 22200 00078 333 91202 555 11010 22015
BBXX DANV 21124 99368 10020 41998 12824 10183 20130 40252 54000 7//00 81065 22221 04160 20104 327// 40303 80151
BBXX V2NA1 21124 99461 70189 41397 81915 10150 20116 40320 54000 70211 8/6// 22223 04120 20402 80130
AAXX 21124 61202 32965 00404 10211 21050 39610 40174 333 58000
AAXX 21124 61214 NIL
AAXX 21124 61223 31958 50410 10225 21055 39878 40181 70611 80002 333 0//00 58025 85075
AAXX 21124 61226 32965 20410 10263 20049 39864 40162 80002 333 0//00 58019 82075
AAXX 21124 61230 31958 50610 10222 21060 39882 40155 70611 83042 333 0//00 58033 83365
AAXX 21124 61233 32960 70610 10232 21050 3//// 4//// 80006 333 0//00 5//// 86275
AAXX 21124 61235 31956 51614 10248 21010 3//// 4//// 70622 82042 333 0//00 5//// 82365 84075
AAXX 21124 61240 32960 40206 10290 20045 39825 40149 83042 333 0//00 58017 83365 83075
AAXX 21124 61250 32960 00000 10295 20094 3//// 4//// 333 0//00 5////
AAXX 21124 61257 21035 50616 10275 21035 30096 40190 70622 80002 333 0//00 58019 85075
AAXX 21124 61265 32960 43610 10265 21039 39840 40148 82042 333 0//00 58020 82365 83075
AAXX 21124 61270 32560 40404 10284 20048 3//// 4//// 81542 333 0//00 5//// 81630
AAXX 21124 61272 32960 70604 10254 20049 39826 40156 80002 333 0//00 58026 87075
AAXX 21124 61277 32960 50810 10210 39828 40148 80002 333 0//00 58006 85075
AAXX 21124 61285 32960 60804 10303 21011 39987 40138 83052 333 0//00 59017 83365 83075
AAXX 21124 61291 32960 50610 10264 21017 39721 40134 80002 333 0//00 58010 85075
AAXX 21124 61293 32960 40608 10285 20013 3//// 4//// 80002 333 0//00 5//// 84075
AAXX 21124 61296 32970 60806 10315 20121 3//// 4//// 80002 333 0//00 5//// 86075
AAXX 21124 61297 32960 70210 10287 20011 3//// 4//// 80002 333 0//00 5//// 87075
AAXX 21124 40153 11540 73004 10138 20090 39108 48514 57011 60001 71022 8248/
AAXX 21121 08568 32980 29903 10147 20026 38758 48631 52006 80001 333 82099 91105 555 50004 60005
AAXX 21121 40001 32570 61005 10162 21027 40193 58023 83550 333 83626 86360
AAXX 21121 40007 32960 50803 10130 20050 40191 58017 83052 333 83360 85070
AAXX 21121 40025 32560 62505 10186 20141 40175 56010 82430 333 82630 85360
AAXX 21121 40045 32570 61203 10144 20023 40204 57015 83550 333 83630 86360
AAXX 21121 40061 32570 20000 10141 40181 57020 82100 333 82830
AAXX 21121 40080 32965 40000 10184 20017 39459 40165 57018 80001
AAXX 21121 40087 NIL
AAXX 21121 40095 NIL
AAXX 21121 40009 32565 61002 10150 20058 40177 57014 83550 333 83630 86360
AAXX 21121 40016 32570 5//// 10150 20025 40228 57021 85500 333 85630
AAXX 21121 40022 32565 50000 10178 39915 4//// 56005 85800 333 82826 84630
AAXX 21121 40030 32570 60000 10128 20072 40191 57015 83550 333 83630 86360
AAXX 21121 40039 32970 30000 10135 20024 40187 57012 83050 333 83360
AAXX 21121 40066 32570 50000 10157 20099 40168 58014 85400 333 85626
AAXX 21121 40072 32570 60000 10184 20048 40200 52020 83630 86360
AAXX 21121 40083 32570 23501 10126 20058 48489 58014 84200 333 82826
AAXX 21124 78767 11465 82004 10206 20190 30120 40122 51014 69912 715// 84550 333 10267 20199 31/// 56000 59010 70001 84615 84357
AAXX 21124 78767 11465 82004 10206 20190 30120 40122 51014 69912 715// 84550 333 10267 20199 31/// 56000 59010 70001 84615 84357
AAXX 21121 45032 36/// /0000 10149 20126 30175 40192 54000
AAXX 21121 45035 36/// /0803 10191 20122 30147 40190 54000
AAXX 21121 45039 36/// /0000 10171 20141 30177 40192 52002
AAXX 21121 45044 36/// /1101 10173 20153 30097 40192 54000
AAXX 21121 47008 31960 40000 11021 21053 30147 40202 58001 71000 84050 333 10030
AAXX 21121 47014 32950 43203 11068 21166 39807 40224 53014 84040 333 11056
AAXX 21121 47016 32560 50000 11129 21164 39315 40225 52001 85500 333 11061
AAXX 21121 47020 11560 80000 11072 21097 39823 40218 57005 69902 77172 8802/ 333 11010
AAXX 21121 47025 32962 00000 11022 21073 30168 40198 53001 333 10048
AAXX 21121 47035 11962 00507 11045 21117 30248 40257 52027 69902 70072 333 10025
AAXX 21121 47041 32970 02701 11006 21080 30152 40180 53006 333 10062
AAXX 21121 47055 32565 62701 10012 21051 30154 40200 58003 86500 333 10047
AAXX 21121 47058 12960 81401 11015 21038 30189 40238 52005 69922 80002 333 10002
AAXX 21121 47069 12665 12702 10007 21062 30127 40229 52005 69902 81500 333 10043
AAXX 21124 78767 11465 82004 10206 20190 30120 40122 51014 69912 715// 84550 333 10267 20199 31/// 56000 59010 70001 84615 84357
AAXX 21121 45032 36/// /0000 10149 20126 30175 40192 54000
AAXX 21121 45035 36/// /0803 10191 20122 30147 40190 54000
AAXX 21121 45039 36/// /0000 10171 20141 30177 40192 52002
AAXX 21121 45044 36/// /1101 10173 20153 30097 40192 54000
AAXX 21121 47003 32980 80000 11067 21091 30188 40192 54000 8802/ 333 11001
AAXX 21121 47005 11580 31402 11138 21165 38548 57003 69902 77000 83500 333 11081
AAXX 21121 47022 32975 00000 11150 21192 38787 58003 333 11023
AAXX 21121 47028 32962 03202 11039 21132 30133 40231 52017 333 10022
AAXX 21121 47031 32570 40000 11110 21138 38885 57002 84500 333 11045
AAXX 21121 47037 12970 00000 11049 21062 30101 40229 52002 69912 333 10012
AAXX 21121 47039 32560 42301 11023 21048 30019 40215 52003 84500 333 10026
AAXX 21121 47046 32969 00000 11025 21054 30152 40175 57001 333 10057
AAXX 21121 47050 31556 20000 11029 21046 30184 40219 57005 71042 82500 333 10007
AAXX 21121 47052 12565 80000 11033 21054 39875 40223 52005 69902 885// 333 11003
AAXX 21121 47060 11550 83403 11001 21032 30165 40225 53010 69902 71072 885// 333 10026
AAXX 21121 47061 32980 83204 10033 21038 30147 40191 57006 8807/ 333 10064
AAXX 21121 47065 12570 83201 11005 21023 30165 40232 53019 60012 885// 333 10055
AAXX 21121 47067 11560 80000 11016 21028 30116 40240 52003 69932 71022 885// 333 10030
AAXX 21121 47068 32560 23205 10010 21075 30193 40229 52013 82500 333 10048
AAXX 21121 47070 12970 50000 11004 21042 30136 40226 58005 60102 85030 333 10045
AAXX 21121 47075 12980 02303 11039 21058 39715 40156 54000 69932 333 10011
BBXX 46145 21121 99544 71324 46/// /1804 10050 40304 52001 22200 00069 11304 70018 333 91204
BBXX 46208 21121 99525 71327 46/// /1806 10070 40310 57003 22200 00075 11306 70031 333 91208
BBXX 46145 21121 99544 71324 46/// /1804 10050 40304 52001 22200 00069 11304 70018 333 91204
BBXX 46208 21121 99525 71327 46/// /1806 10070 40310 57003 22200 00075 11306 70031 333 91208
BBXX DIHC 21123 99363 11560 41598 43311 10080 20038 40220 53020 702// 82444 22264 00150 20602 80060
BBXX 7JJA 21124 99358 11412 41697 80607 00 10090 20070 40185 54 70222 875// 9//// 22270 0 20101 303 40102 5 6//// 80080 ICE /////
BBXX SHIP 21124 99303 11316 41999 61705 10160 20123 41019 56001 70312 8//// 91200 22214 00230 1//// 2//// 3//// 4//// 5//// 6//// 80140 //////
BBXX UEYO 21121 99567 11491 42/98 /3007 11050 40160 54000 22213 00002 20402
BBXX UFLT 21121 99518 11464 42/97 /3202 11080 40210 52001 22213 00000 302// 40602
BBXX UGOD 21121 99473 11481 42/98 93507 11003 40215 54000 89/// 22213 00033 20402 30200 40604
BBXX UGSN 21121 99514 11409 42/98 /3604 11112 40223 57003 22283 00009 2//// ICE 41091
BBXX WZZF 21124 99334 11402 41498 32717 10140 20140 40185 57005 70100 832// 22244 00220 20303 327// 40505 5//// 6//// 80140 ICE /////
AAXX 21121 38599 41996 20801 11045 21092 39866 40413 52004 71000 80002
AAXX 21124 71793 17/// ///// 11041 21051 69991 7//4/ 333 10047 21041 70009
AAXX 21124 71012 17/// /3405 11055 21069 69951 7//4/ 333 10060 21055 70005
AAXX 21124 71013 47/// ///// 11033 21044 6///1 7//4/ 333 10058 21033 7////
AAXX 21124 71060 16/// /2603 11050 21100 38672 40268 51027 60001 333 10080 21051 4/019 70000 555 10010
AAXX 21124 71565 17/// /2914 11035 21062 69961 7//4/ 333 10061 21035 4/001 70006
AAXX 21124 71566 17/// /2809 11030 21063 60021 7//4/ 333 10040 21030 70015
AAXX 21124 71567 16/// /3108 11049 21076 60001 333 10059 21058 70006
AAXX 21124 71974 46/// /1410 11293 21318 30095 40140 58012 6///1 333 11324 21371 7////
AAXX 21124 71495 16/// /3424 11043 21051 60001 333 10059 21072 70000
AAXX 21124 71399 16/// ///// 11038 21058 60001 333 10056 21051 70000
AAXX 21124 89646 46/// /0118 11168 29090 37474 4//// 5////
AAXX 21124 89648 46/// /2206 11255 29074 37097 4//// 5////
AAXX 21124 89659 46/// /1705 29080 37550 4//// 5////
AAXX 21124 89661 46/// /2105 11073 29081 39142 4//// 5////
AAXX 21124 89662 42580 12202 11017 21066 39685 49789 52004 81500 222 ICE 98015 333 81626
AAXX 21124 89666 46/// /3111 11036 29059 39593 4//// 5////
AAXX 21124 71848 16/// ///// 11017 21036 60001 333 10051 21049 70000
AAXX 21124 71073 16/// /3320 11025 21032 60001 333 10047 21067 70000
AAXX 21124 71495 16/// /3424 11043 21051 60001 333 10059 21072 70000
AAXX 21124 71012 17/// /3405 11055 21069 69951 7//4/ 333 10060 21055 70005
AAXX 21124 71013 47/// ///// 11033 21044 6///1 7//4/ 333 10058 21033 7////
AAXX 21124 71060 16/// /2603 11050 21100 38672 40268 51027 60001 333 10080 21051 4/019 70000 555 10010
AAXX 21124 71399 16/// ///// 11038 21058 60001 333 10056 21051 70000
AAXX 21124 71848 16/// ///// 11017 21036 60001 333 10051 21049 70000
AAXX 21124 71565 17/// /2914 11035 21062 69961 7//4/ 333 10061 21035 4/001 70006
AAXX 21124 71566 17/// /2809 11030 21063 60021 7//4/ 333 10040 21030 70015
AAXX 21124 71567 16/// /3108 11049 21076 60001 333 10059 21058 70006
AAXX 21124 71073 16/// /3320 11025 21032 60001 333 10047 21067 70000
AAXX 21124 71793 17/// ///// 11041 21051 69991 7//4/ 333 10047 21041 70009
AAXX 21124 71974 46/// /1410 11293 21318 30095 40140 58012 6///1 333 11324 21371 7////
BBXX A8CG7 21120 99079 31197 41397 13005 10284 20212 40070 51010 70100 81600 22225 04300 20401 80233
BBXX A8CI9 21124 99046 10582 41698 43111 10295 20240 40105 57025 7//// 84500 22244 04295 20202 301// 40704 80255
BBXX AUYK 21124 99203 11203 41197 80424 10215 20198 4//// 54000 72025 88200 22212 00274 2////
BBXX DQVN 21124 99059 10848 41597 80412 10280 20240 40060 54000 70222 888// 22264 00290 2//// 80251
BBXX MGRX9 21124 99009 10833 41/98 /3228 10290 20248 40061 56014 70322 8//// 22233 00/// 20503 332// 40503 80260
BBXX PCSV 21123 99177 30596 41/97 /0502 10270 20270 40090 54000 702// 8//// 22253 04280 20503 306// 40503 80270
BBXX VQOG5 21124 99060 10897 41498 70515 10280 20240 40063 53006 70322 8113/ 22263 00280 20504 30199 40905 50301 80252
BBXX VRFX2 21124 99126 11115 41398 80315 10260 20246 40120 52020 78021 88/// 22285 00270 2//// 80250
BBXX 9MBW7 21124 99380 11371 41498 /2704 10070 20040 40150 54001 70302 8//// 22213 00162 2//// 80045
BBXX 9VDD2 21124 99223 11174 41498 90319 10180 20160 40190 53020 70122 8924/ 22265 06155 2//// 80170
AAXX 21124 08495 12982 52115 10168 20082 30263 40271 58003 60001 80001 91150 333 85075 90710 91126
AAXX 21121 89063 41494 83401 10005 20005 39933 49944 58003 77172 886// 333 10008 21002
AAXX 21124 96655 11457 71803 10254 20239 30070 40104 52018 69981 71162 86572 333 10329 56000 28014 86612
AAXX 21124 97796 01440 80000 10244 20235 30033 40084 52024 60131 76096 8697/ 333 10342 56009 57900 59006 60127 81911 86612 80980
AAXX 21124 65010 32960 71110 10318 21004 39779 40113 80008 333 59008 87280
AAXX 21124 65019 32960 20305 10295 21025 39421 40112 80008 333 59001 82280
AAXX 21124 65028 12968 70905 10280 21033 30957 40167 80008 333 58000 87280
AAXX 21124 65030 32970 70810 10278 20034 39383 40106 80008 333 58006 87280
AAXX 21124 65123 12960 71803 10345 20133 30070 40094 80008 333 58001 87280
AAXX 21124 65125 32957 62205 10337 20082 3//// 40134 80008 333 58001 86280
AAXX 21124 65134 42967 61210 10275 20034 38723 4//// 80008 333 58003 86280
AAXX 21124 65229 12458 70000 10324 20236 30026 40115 84208 333 58002 84812 85280
AAXX 21124 65250 34258 70000 10325 20242 33075 40105 86208 333 58007 86816
AAXX 21124 65252 11456 73005 10324 20221 39971 40104 70522 86208 333 58001 86816
AAXX 21124 65257 31458 70912 10330 20184 30000 40099 70522 82508 333 58006 82813 87280
AAXX 21124 65271 11957 40804 10330 20016 30016 40113 60001 70522 80008 333 58003 84280
BBXX 46246 21121 99500 71451 46/// ///// 1//// 91229 22200 00073 11108 20806 326// 41104 70038
BBXX 46246 21121 99500 71451 46/// ///// 1//// 91159 22200 00073 11207 20806 327// 41204 70036
AAXX 21124 17092 12660 51210 10115 21058 38866 48499 55009 60001 83550 333 83640 85360
BBXX 46241 21121 99330 71173 46/// ///// 1//// 91211 22200 00141 11402 20601 326// 41401 70009
BBXX 63055 21124 99606 10016 47999 /1509 10060 21035 40101 58005 700// 22200 10703 70017
BBXX 63106 21124 99610 10017 46/// /2009 10059 40101 58004 22200
BBXX 63113 21124 99610 10017 46/// /1910 10062 21041 40101 58003 22200 10805 70023
BBXX 62304 21124 99511 10018 46/98 /3214 10086 20079 40169 51215 22200 00110 10601 70006
BBXX 62107 21124 99501 70061 46/// /3125 10119 20101 40255 52011 22200 00117 10805 70024 333 90710 91135
BBXX 62094 21124 99517 70067 46/// /2513 1//// 2//// 4//// 5//// 22200 00105 10604 70020
BBXX 62103 21124 99499 70029 46/98 /2817 10122 20109 40216 50011 22200 00123 10703 70017 333 90710 91127
BBXX 63110 21123 99595 10015 41/98 /1515 10058 40106 70322 8//5/ 22200 10604 70018
AAXX 21121 02947 47/83 72101 10002 21006 40126 52007 70000 87/// 91151
BBXX 46216 21121 99343 71198 46/// ///// 1//// 91227 22200 00143 11402 21002 327// 41401 70011
BBXX 46223 21121 99335 71178 46/// ///// 1//// 91230 22200 00150 11402 20901 328// 41402 70012
BBXX 46231 21121 99327 71174 46/// ///// 1//// 91224 22200 00149 11402 21001 327// 41402 70012
BBXX 46222 21121 99336 71183 46/// ///// 1//// 91226 22200 00151 11402 21001 326// 41402 70010
BBXX 46242 21121 99332 71174 46/// ///// 1//// 91228 22200 00143 11401 20501 324// 41401 70007
BBXX 46221 21121 99339 71186 46/// ///// 1//// 91215 22200 00148 11302 20901 326// 41301 70008
AAXX 21124 91723 NIL
AAXX 21124 91961 NIL
AAXX 21124 71789 16/// ///// 11015 21079 60001 333 10055 21063 70000
AAXX 21124 71791 16/// /2805 11060 21067 60001 333 10064 21061 70009
AAXX 21124 71794 17/// ///// 11060 21072 69941 7//4/ 333 10060 21060 70004
AAXX 21124 71795 17/// ///// 11017 21021 69941 7//4/ 333 10051 21019 70010
AAXX 21124 71796 16/// ///// 11049 21066 60001 333 10059 21049 70000
AAXX 21124 71409 16/// ///// 11028 21047 60001 333 10047 21034 70000
AAXX 21124 71502 16/// /1106 11244 21262 30039 40055 56016 60001 333 11239 21252 70000
AAXX 21124 71509 16/// /3210 11011 21072 60001 333 10072 21057 70000
AAXX 21124 71517 16/// /3208 11031 21081 60001 333 10063 21051 70000
AAXX 21124 71518 16/// /3109 11022 21030 60001 333 10066 21056 70000
AAXX 21124 71519 16/// /3311 11013 21029 60001 333 10066 21026 70000
AAXX 21124 71528 16/// /3116 11022 21068 60001 333 10058 21055 7////
AAXX 21124 71841 16/// /2803 11027 21039 39612 40008 53015 60001 333 11029 21036 4/020 70013
AAXX 21124 71894 16/// /3313 10026 20021 30296 40305 50004 60001 333 10087 20023 70000
AAXX 21124 71102 16/// ///// 11047 21075 60001 333 10056 21063 70000
AAXX 21124 71105 16/// ///// 11008 21023 60001 333 10053 21052 70000
AAXX 21124 71006 17/// /3609 11042 21046 60021 7//4/ 333 10057 21042 70016
AAXX 21124 71007 47/// ///// 11019 21042 6///1 7//4/ 333 10067 21078 7////
AAXX 21124 71008 16/// /3217 11011 21022 60001 333 10042 21043 70000
AAXX 21124 71009 16/// /3523 11022 21031 60001 333 10064 21068 70000
AAXX 21124 71035 17/// ///// 11025 21035 60011 7//4/ 333 10062 21057 70011
AAXX 21124 71051 16/// ///// 11045 21062 60001 333 10041 21068 70000
AAXX 21124 71057 17/// ///// 11023 21035 69951 7//4/ 333 10065 21063 70005
AAXX 21124 71070 16/// ///// 11031 21053 60001 333 10062 21036 70000
AAXX 21124 71089 16/// ///// 11061 21074 60001 333 10063 21061 70004
AAXX 21124 71433 46/// /2316 10013 21003 39802 40031 55008 6///1 333 10019 20013 7////
AAXX 21124 71841 16/// /2803 11027 21039 39612 40008 53015 60001 333 11029 21036 4/020 70013
AAXX 21124 71894 16/// /3313 10026 20021 30296 40305 50004 60001 333 10087 20023 70000
AAXX 21124 71433 46/// /2316 10013 21003 39802 40031 55008 6///1 333 10019 20013 7////
AAXX 21121 89063 41494 83401 10005 20005 39933 49944 58003 77172 886// 333 10008 21002
AAXX 21124 82460 32597 70502 10288 20237 30104 40133 87200 333 20250 58008
BBXX PCSV 21123 99177 30596 41/97 /0502 10270 20270 40090 54000 702// 8//// 22253 04280 20503 306// 40503 80270
BBXX A8CI9 21124 99046 10582 41698 43111 10295 20240 40105 57025 7//// 84500 22244 04295 20202 301// 40704 80255
BBXX A8AX3 21123 99173 70184 41/// /0204 40170 51/// 7//// 8//// 22244 2//// 30000
BBXX VQOG5 21124 99060 10897 41498 70515 10280 20240 40063 53006 70322 8113/ 22263 00280 20504 30199 40905 50301 80252
BBXX SHIP 21124 99380 11371 41498 /2704 10070 20040 40150 54001 70302 8//// 22213 00162 2//// 80045
BBXX 9VDD2 21124 99223 11174 41498 90319 10180 20160 40190 53020 70122 8924/ 22265 06155 2//// 80170
BBXX DQVN 21124 99059 10848 41597 80412 10280 20240 40060 54000 70222 888// 22264 00290 2//// 80251
BBXX VRFX2 21124 99126 11115 41398 80315 10260 20246 40120 52020 78021 88/// 22285 00270 2//// 80250
BBXX AUYK 21124 99203 11203 41197 80424 10215 20198 4//// 54000 72025 88200 22212 00274 2////
BBXX OYCY2 21124 99541 71620 41798 61930 10030 2001/ 40050 54000 70100 8418/ 22273 00080 20502 3//// 4//// 5//// 6//// 80020 ICE /////
BBXX 46221 21121 99339 71186 46/// ///// 1//// 91215 22200 00148 11302 20901 326// 41301 70008
BBXX 46242 21121 99332 71174 46/// ///// 1//// 91228 22200 00143 11401 20501 324// 41401 70007
BBXX 46231 21121 99327 71174 46/// ///// 1//// 91224 22200 00149 11402 21001 327// 41402 70012
BBXX 46216 21121 99343 71198 46/// ///// 1//// 91227 22200 00143 11402 21002 327// 41401 70011
BBXX 46222 21121 99336 71183 46/// ///// 1//// 91226 22200 00151 11402 21001 326// 41402 70010
BBXX 46223 21121 99335 71178 46/// ///// 1//// 91230 22200 00150 11402 20901 328// 41402 70012
BBXX 46241 21121 99330 71173 46/// ///// 1//// 91211 22200 00141 11402 20601 326// 41401 70009
BBXX 46246 21121 99500 71451 46/// ///// 1//// 91159 22200 00073 11207 20806 327// 41204 70036
BBXX 46246 21121 99500 71451 46/// ///// 1//// 91229 22200 00073 11108 20806 326// 41104 70038
BBXX 46208 21121 99525 71327 46/// /1806 10070 40310 57003 22200 00075 11306 70031 333 91208
BBXX 46145 21121 99544 71324 46/// /1804 10050 40304 52001 22200 00069 11304 70018 333 91204
BBXX 41052 21121 99183 70648 46/// /0509 10260 40172 53017 91200 22200 00272 10603 70014 333 91212
BBXX 42085 21121 99179 70665 46/// /0508 10258 40176 91230 333 91209
BBXX 41053 21121 99185 70661 46/// /0709 10261 40182 91210 333 91212
BBXX 41052 21121 99183 70648 46/// /0509 10260 40176 91230 333 91211
BBXX 41052 21121 99183 70648 46/// /0509 10259 40175 91220 333 91212
BBXX 42085 21121 99179 70665 46/// /0507 10258 40172 53020 91200 22200 00273 10603 70013 333 91209
BBXX 42085 21121 99179 70665 46/// /0508 10259 40174 91220 333 91209
BBXX 41053 21121 99185 70661 46/// /0609 10262 40182 91220 333 91212
BBXX 41053 21121 99185 70661 46/// /0709 10263 40183 91230 333 91211
BBXX A8IZ2 21124 99289 70535 41498 83315 10210 20110 40270 51010 70221 884// 22214 20101 33528 40908 50506 80150
BBXX A8CG7 21120 99079 31197 41397 13005 10284 20212 40070 51010 70100 81600 22225 04300 20401 80233
BBXX MGRX9 21124 99009 10833 41/98 /3228 10290 20248 40061 56014 70322 8//// 22233 00/// 20503 332// 40503 80260
BBXX WDF9323 21123 99033 11707 41/98 /0819 10280 2025/ 40060 5//// 700// 8//// 22213 0//// 29905 304// 4//05 5//// 6//// 80260 ICE /////
BBXX UGWJ 21121 99027 30850 41498 82711 10270 40086 54000 76066 88894/ 22252 00282 20504 32500 40703
BBXX ZCDS4 21123 99148 51481 41697 40919 10280 20244 40135 54000 72562 84300 22222 04275 21402 303// 41605 5//// 80255
BBXX 66022 21121 99541 10142 46/// /3005 10017 30090 22200 00036
AAXX 21124 67002 32580 83202 10286 20222 30080 40113 8492/ 333 0//00 59005 82920 83630 87460 92407
AAXX 21124 67009 32582 72816 10285 20222 39961 40078 57026 85902 333 83820 81920 83640 85075 555 10320
AAXX 21124 67012 32582 52616 10310 20257 30075 40086 57021 83232 333 0//00 83820 83075 555 81360
AAXX 21124 67025 31570 60000 10312 20234 39978 40076 57019 71522 85930 333 0//00 83820 81920 83640 555 82360
AAXX 21124 67027 32582 22816 10310 20231 30072 40093 57017 81933 333 0//00 81820 81920 94961 95811 555 81360 81073
AAXX 21124 67045 NIL
AAXX 21124 67072 32581 50810 10314 20251 30082 40085 57014 83832 333 0//00 82820 92428 555 82640 82360 82075
AAXX 21124 67073 31580 3//// 10306 20208 30072 40098 57014 71500 82830 333 0//00 82820 555 81633 81360
AAXX 21124 67083 32582 63210 10270 20150 38712 48488 57015 86200 333 0//00 86820
AAXX 21124 67095 31480 10608 10312 20247 30065 40071 56013 70400 81800 333 0//00 81817 555 81640
AAXX 21124 67113 NIL
AAXX 21124 67117 NIL
AAXX 21124 67137 32580 5//04 10271 20160 38854 48461 57017 85200 333 0//00 85820 555 10283
AAXX 21124 67143 32582 1//// 10/// 20/// 30079 40086 57014 81200 333 0//00 81820 92438
AAXX 21124 67152 32581 4//// 10282 20172 39152 48466 57018 84930 333 0//00 83820 82920
AAXX 21124 67157 32582 3//// 10/// 20/// 30075 40082 57012 83902 333 0//00 82823 82923
AAXX 21124 67161 NIL
AAXX 21124 67197 11458 70808 10284 20238 30056 40066 57014 60021 71596 879// 333 0//12 83817 81917 85633
AAXX 21124 67017 NIL
AAXX 21124 67020 32582 42804 10330 20211 30051 40078 57025 84900 333 0//00 83820 81920 94971 95831 555 82640
AAXX 21124 67023 32582 70610 10310 20248 30072 40078 57018 8397/ 333 0//00 83820 81920 87460 555 81640
AAXX 21124 67037 32582 1//// 20/// 30044 40085 5/020 81200 333 0//00 81820
AAXX 21124 67067 31575 5//// 10314 20131 39221 48/// 57016 70511 85800 333 0//00 83823 555 82630
AAXX 21124 67107 NIL
AAXX 21124 67131 32582 43008 10/// 20/// 30070 40075 57015 84800 333 0//00 84820 555 81640
AAXX 21134 METAR MRLB 211300Z 09007KT 9999 FEW040 25/20 A2979
AAXX 21134 METAR MRLB 211300Z 09007KT 9999 FEW040 25/20 A2979
AAXX 21134 METAR MRLB 211300Z 09007KT 9999 FEW040 25/20 A2979
AAXX 21124 67017 NIL
AAXX 21124 67020 32582 42804 10330 20211 30051 40078 57025 84900 333 0//00 83820 81920 94971 95831 555 82640
AAXX 21124 67023 32582 70610 10310 20248 30072 40078 57018 8397/ 333 0//00 83820 81920 87460 555 81640
AAXX 21124 67037 32582 1//// 20/// 30044 40085 5/020 81200 333 0//00 81820
AAXX 21124 67067 31575 5//// 10314 20131 39221 48/// 57016 70511 85800 333 0//00 83823 555 82630
AAXX 21124 67107 NIL
AAXX 21124 67131 32582 43008 10/// 20/// 30070 40075 57015 84800 333 0//00 84820 555 81640
AAXX 21124 43333 31496 60708 10270 20219 40085 70522 84401 333 10314 56209 59004 83618 83820 85070
AAXX 21124 71360 16/// ///// 11058 21073 60001 333 10063 21067 70000
AAXX 21124 71380 17/// /3316 11030 21034 60021 7//4/ 333 10062 21031 70017
AAXX 21124 71383 16/// ///// 11106 21142 39451 40072 51003 60001 333 11131 21167 70000
AAXX 21124 71857 16/// ///// 11059 21081 60001 333 10057 21059 70000
AAXX 21124 71014 17/// /3509 11032 21047 69961 7//4/ 333 10055 21032 70006
AAXX 21124 71413 16/// ///// 11041 21051 60001 333 10054 21041 70000
AAXX 21124 71414 16/// ///// 11045 21073 60001 333 10056 21055 70000
AAXX 21124 71440 17/// ///// 11018 21023 69961 7//4/ 333 10071 21040 70006
AAXX 21124 71520 16/// /1411 11126 21137 39364 40049 56002 60001 333 11159 21176 70000
AAXX 21124 71521 16/// ///// 11124 21152 60001 333 11125 21175 70000
AAXX 21124 71523 17/// ///// 11079 21087 39695 40077 55001 60021 7//4/ 333 11117 21158 70000
AAXX 21124 71540 16/// /3213 11031 21060 60001 333 10066 21062 70000
AAXX 21124 71544 16/// ///// 11040 21040 60001 333 10049 21044 70031
AAXX 21124 71548 16/// ///// 11045 21068 60001 333 10046 21053 70000
AAXX 21124 71346 16/// /2809 11037 21065 60001 333 10072 21056 70000
AAXX 21124 71674 17/// ///// 11042 21055 69941 7//4/ 333 10060 21042 70004
AAXX 21124 71904 17/// ///// 11028 21033 69971 7//4/ 333 10067 21030 70007
AAXX 21124 71797 16/// ///// 11059 21067 60001 333 10055 21060 70006
AAXX 21124 71055 46/// /0000 11212 21232 39768 40113 58013 6///1 333 11221 21341 7////
AAXX 21124 71065 16/// ///// 11045 21072 60001 333 10078 21045 70006
AAXX 21124 71078 17548 82602 11164 21182 39650 40106 53009 60001 771// 333 11034 21170 70000
AAXX 21124 71481 17/// /2906 11041 21079 69981 7//4/ 333 10052 21041 70008
AAXX 21124 71498 16/// /3323 11015 21019 60001 333 10050 21035 70000
AAXX 21124 71249 16/// /3619 11027 21040 60001 333 10055 21036 70000
BBXX DHSI 21124 99279 70149 415// 61417 10230 20152 40280 56005 70211 82160 22294 00190 21205 80180
BBXX AMOUK17 21124 99340 30256 46/// ///// 10237 20166 30078 40080 57005 91150
BBXX ONDY 21124 99352 30240 41698 42418 10300 2020/ 40120 54000 70200 841// 22222 00236 2//// 3//// 4//// 5//// 6//// 80230 /////
BBXX 61001 21124 99434 10078 46/// /2709 10123 20066 40160 57008 22200 00147 10702 70009
BBXX 61002 21124 99421 10047 46/// ///21 10128 2//// 40214 57012 22200 00138 10705 70025 555 1/028
BBXX BAREU51 21124 99404 10118 46/// ///// 40136 57013 22235
BBXX SHIP 21124 99404 10270 41498 43208 10130 2007/ 40160 54000 70110 8428/ 22200 00120 20301 30909 40301 5//// 6//// 80100 /////
BBXX BATFR11 21124 99401 10100 46/// /3024 10130 20059 40146 58001 22283 00179
BBXX BATFR46 21124 99390 10007 44/97 13116 10159 20092 40239 58002 701// 8//// 22213 00167 22002
BBXX BAREU62 21124 99383 10248 46/// ///// 40151 57016 22214
BBXX BAREU63 21124 99377 10166 46/// /0511 10115 29080 40041 57010 22263
BBXX DANV 21124 99368 10020 41998 12824 10183 20130 40252 54000 7//00 81065 22221 04160 20104 327// 40303 80151
BBXX DANM 21123 99365 10141 41598 33042 10144 20073 40039 58040 72580 8314/ 22265 00150 20814 30000 80106
BBXX UBEF5 21121 99365 10165 41496 92416 10120 40051 57015 76466 889// 22263 00180 20504
BBXX WRYD 21124 99358 10159 41597 82634 10140 2011/ 40061 57034 76222 8874/ 22224 00179 20407 330// 40806 5//// 6//// 80120 /////
BBXX WKAB 21123 99358 10221 41398 42424 10160 20108 40156 54000 75000 8428/ 22224 00175 21002 330// 41004 5//// 6//// 80130 /////
BBXX PBEN 21123 99354 10196 41/98 52420 10170 20119 40110 57040 7//11 85242 22263 21003 399// 41304 80140
BBXX BATFR01 21124 99348 10260 46/// /2311 10172 20075 40163 56016 22262 00192
BBXX A8NO8 21123 99339 10236 41/98 62720 10175 20125 40160 57020 76266 8/34/ 22265 04220 20307 80145
BBXX OYGR2 21124 99322 10300 41598 20608 10180 20131 40189 53006 70200 81242 22224 04195 20303 80150
BBXX 64045 21124 99591 70117 46/// /2327 10105 20098 49976 58005 22200 00101 10708 70039 333 90710 91137
BBXX BATFR04 21124 99584 70062 44/96 82229 10107 20095 40039 56016 76066 8/7// 22200 00102 2//02
BBXX 62112 21124 99584 70002 47498 /1815 10068 20023 40109 58011 762// 22200
BBXX 62113 21124 99584 10002 47599 /1813 10066 20014 40112 58006 700// 22200
BBXX 62129 21124 99584 10003 46/// ///// 10070 20010 40112 58005 22200
BBXX 62114 21124 99583 10000 46/// /1715 10069 20022 40109 58011 22200
BBXX PJAI 21124 99581 70014 47498 /1715 10074 20034 40095 58015 700// 22200
BBXX 62111 21124 99580 70003 46/// /1913 10068 20023 40112 58010 22200 10402 70010
BBXX 62117 21124 99579 10000 47697 /1814 10069 20022 40115 58006 762// 22200 10502 70010
BBXX BATUK01 21124 99577 70031 46/// /1910 10052 20032 40078 58018 22200 00072
BBXX MINUK01 2112/ 99571 70021 46/// ///// 10060 40112 57015
BBXX 62105 21124 99554 70122 46/// /2424 10121 20104 40120 52002 22200 00105 10708 70040 333 90710 91132
BBXX 62135 21124 99540 70038 46697 /2723 10105 2//// 40160 54000 22200 10502 70012
BBXX 62126 21124 99539 70036 46997 /2624 10103 20088 40160 52010 22200 10402 70010
BBXX 62125 21124 99538 70035 46697 /2724 10102 20092 40170 52020 22200 10402 70013
BBXX AMOUK02 21124 99536 70050 46/// ///// 10112 20098 30154 4//// 50000 91150
BBXX AMOUK14 21124 99533 70062 46/// ///// 10118 20101 30160 40195 52045 91150
BBXX 62095 21124 99531 70159 46/// /2323 1//// 2//// 40204 53006 22200 10808 70042 333 90710 91133
BBXX 62301 21124 99524 70047 46/// /2615 10101 20090 40204 51017 22200 00085 10503 70014
BBXX 62094 21124 99517 70067 46/// /2413 10111 20098 40230 52015 22200 00106 10604 70020
BBXX 62303 21124 99516 70051 46/// /2914 10117 20100 40226 51018 22200 00111 10504 70021
BBXX 62023 21123 99514 70079 46/96 /2624 10113 2//// 40249 5//// 22200 10504 70021 555 70032 80006
BBXX 62081 21124 99510 70134 46/// ///// 10128 20104 40260 50006 22200 00120 10707 70036
BBXX BATFR27 21124 99507 70010 46/// /2917 10129 20102 40192 22225 00100
BBXX BAREU00 21124 99504 70060 46/// ///// 40246 52033 22243
BBXX 62305 21124 99504 10000 46/98 /3021 10122 20111 40195 51023 22200 00120 10602 70010 333 90710 91126
BBXX AMOUK08 21124 99501 70061 46/// ///// 10122 20109 30249 40255 52022 91150
BBXX 62103 21124 99499 70029 46/98 /2818 10124 20110 40220 51024 22200 00123 10703 70016 333 90710 91125
BBXX BATFR03 21124 99499 70005 46/// /3124 10130 20117 40204 51030 22244
BBXX VRYO3 21124 99494 70158 46/// /0920 10136 20148 40281 50000 7//// 8//// 22264 00133 2////
BBXX 62027 21124 99491 70022 46/// /3220 1//// 2//// 40226 50010 22200 00109 10705 326// 70023 333 90710 91125
BBXX 62442 21124 99490 70164 46/// /2317 1//// 2//// 40298 50003 22200 00125
BBXX TESTFR9 21124 99489 70023 46/// /3029 10114 29100 40248 22274
BBXX 62029 21124 99487 70125 46/// /2616 10132 20112 40312 50010 22200 00129 10807 70036
BBXX BATFR12 21124 99481 70066 46/// /3418 10125 20112 40281 50001 22271 00144
BBXX A8NW9 21124 99477 70147 41998 72213 10135 20125 40370 54000 70222 8703/ 22224 04120 20702 331// 41405 80129
BBXX WKAE 21124 99475 70219 41498 82422 10140 20095 40255 54000 70222 886// 22264 00130 20503 326// 41006 5//// 6//// 80115 /////
BBXX 62163 21124 99475 70084 46/// /2915 10127 20107 40310 50008 22200 00127 10806 70028
BBXX PDNN 21123 99470 70247 41597 72030 10138 20116 40234 51015 70222 875// 22223 02128 20203 320// 40805 80125
BBXX WDD6126 21124 99470 70133 41598 72417 10150 2012/ 40335 52030 70122 871// 22254 00120 20504 327// 40604 5//// 6//// 80130 /////
BBXX C6KD8 21123 99469 70097 41598 82917 10135 20118 40329 51025 70322 8477/ 22254 02130 20501 332// 41406 5//// 80126
BBXX V2NA1 21124 99461 70189 41397 81915 10150 20116 40320 54000 70211 8/6// 22223 04120 20402 80130
BBXX 62001 21124 99452 70050 46/// /3014 10135 20110 40306 50009 22200 00141 10604 70021
BBXX PDXQ 21123 99449 70228 41397 81815 10170 20136 40310 52010 70222 8577/ 22223 04135 20602 399// 40802 80149
BBXX A8XY2 21124 99430 70296 41797 21834 10158 20137 40200 57025 70111 8//7/ 22263 04150 20507 323// 40906 80145
BBXX ZCDU9 21123 99425 70101 41298 73510 10135 20122 40378 52021 70222 8747/ 22244 00145 20000 331// 40302 5//// 80128
BBXX LAXP4 21124 99403 70225 41497 83116 00/// 10170 2015/ 40338 56004 74122 8864/ 22253 00160 20402 327// 40603 5//// 6//// 80160
BBXX C6KD7 21123 99385 70236 41598 81415 10180 20140 40311 52013 70322 8667/ 22214 02188 20701 312// 40803 5//// 80157
BBXX BATFR09 21124 99382 70099 46/// /0114 10167 20127 40324 58001 22243 00177
BBXX C6KD4 21123 99373 70295 41498 61421 10182 20153 40247 57010 70111 85145 22254 02183 20506 315// 40606 80165
BBXX WCDP 21124 99365 70279 43/// /1219 10190 2016/ 40270 57010 7//// 8//// 22264 00180 2//// 3//// 4//// 5//// 6//// 80170 /////
BBXX DEGI 21123 99363 70027 41698 32717 10170 20118 40250 50010 70100 83040 22263 04161 29903 80139
BBXX MSTM6 21123 99362 70079 41498 13610 10175 20131 40300 54000 70000 8/1// 22224 00177 20502 399// 40802 80150
BBXX DBBH 21121 99360 70083 41498 10105 10160 20119 40309 58002 70111 81101 22223 04178 20402 332// 40903
BBXX GHJV 21123 99350 70139 41397 60913 10185 20140 40330 52009 70222 861// 22261 02176 20302 30000 80159
AAXX 21124 67002 32580 83202 10286 20222 30080 40113 8492/ 333 0//00 59005 82920 83630 87460 92407
AAXX 21124 67009 32582 72816 10285 20222 39961 40078 57026 85902 333 83820 81920 83640 85075 555 10320
AAXX 21124 67012 32582 52616 10310 20257 30075 40086 57021 83232 333 0//00 83820 83075 555 81360
AAXX 21124 67025 31570 60000 10312 20234 39978 40076 57019 71522 85930 333 0//00 83820 81920 83640 555 82360
AAXX 21124 67027 32582 22816 10310 20231 30072 40093 57017 81933 333 0//00 81820 81920 94961 95811 555 81360 81073
AAXX 21124 67045 NIL
AAXX 21124 67072 32581 50810 10314 20251 30082 40085 57014 83832 333 0//00 82820 92428 555 82640 82360 82075
AAXX 21124 67073 31580 3//// 10306 20208 30072 40098 57014 71500 82830 333 0//00 82820 555 81633 81360
AAXX 21124 67083 32582 63210 10270 20150 38712 48488 57015 86200 333 0//00 86820
AAXX 21124 67095 31480 10608 10312 20247 30065 40071 56013 70400 81800 333 0//00 81817 555 81640
AAXX 21124 67113 NIL
AAXX 21124 67117 NIL
AAXX 21124 67137 32580 5//04 10271 20160 38854 48461 57017 85200 333 0//00 85820 555 10283
AAXX 21124 67143 32582 1//// 10/// 20/// 30079 40086 57014 81200 333 0//00 81820 92438
AAXX 21124 67152 32581 4//// 10282 20172 39152 48466 57018 84930 333 0//00 83820 82920
AAXX 21124 67157 32582 3//// 10/// 20/// 30075 40082 57012 83902 333 0//00 82823 82923
AAXX 21124 67161 NIL
AAXX 21124 67197 11458 70808 10284 20238 30056 40066 57014 60021 71596 879// 333 0//12 83817 81917 85633
AAXX 21121 01380 41988 00101 11092 21113 70200 333 4/025 91106
AAXX 21124 88903 45/// /1102 10088 20053 30012 40012 58013 333 10090 20011
BBXX DGUG2 21124 99241 70219 41797 51122 10230 20152 40210 54000 70522 85020 22254 04230 20705 302// 41004 80180
OOXX PTP53 21101 99377 70257 ///// 00121 26/// /1008 10172 29001 30225 91010 333 60000
OOXX PTP53 21101 99377 70257 ///// 00121 26/// /1007 10172 29001 30225 91020 333 60000
OOXX PTP53 21101 99377 70257 ///// 00121 26/// /1008 10172 29001 30225 91030 333 60000
OOXX PTP53 21101 99377 70257 ///// 00121 26/// /1108 10173 29001 30225 91040 333 60000
OOXX PTP53 21101 99377 70257 ///// 00121 26/// /1108 10174 29001 30226 91050 333 60000
OOXX PTP53 21111 99377 70257 ///// 00121 26/// /1108 10175 29001 30226 91100 333 60000
OOXX PTP53 21111 99377 70257 ///// 00121 26/// /1108 10176 29001 30227 91110 333 60000
OOXX PTP53 21111 99377 70257 ///// 00121 26/// /1108 10176 29001 30226 91120 333 60000
OOXX PTP53 21111 99377 70257 ///// 00121 26/// /1109 10176 29001 30226 91130 333 60000
OOXX PTP53 21111 99377 70257 ///// 00121 26/// /1009 10177 29001 30226 91140 333 60000
OOXX PTP53 21111 99377 70257 ///// 00121 26/// /1108 10178 29001 30226 91150 333 60000
OOXX PTP53 21121 99377 70257 ///// 00121 26/// /1108 10179 29001 30226 91200 333 60000
OOXX MYP42 21101 99045 11014 ///// 15551 26/// /0403 10191 29092 38407 91005 333 60000
OOXX MYP42 21101 99045 11014 ///// 15551 26/// /0105 10189 29093 38409 91015 333 69920
OOXX MYP42 21101 99045 11014 ///// 15551 26/// /0403 10189 29094 38409 91025 333 60000
OOXX MYP42 21101 99045 11014 ///// 15551 26/// /1001 10187 29094 38410 91035 333 60000
OOXX MYP42 21101 99045 11014 ///// 15551 26/// /1604 10186 29095 38401 91045 333 60000
OOXX MYP42 21101 99045 11014 ///// 15551 26/// /0701 10186 29094 38414 91055 333 60000
OOXX MYP42 21111 99045 11014 ///// 15551 26/// /0403 10188 29093 38407 91105 333 60000
OOXX MYP42 21111 99045 11014 ///// 15551 26/// /1506 10186 29094 38407 91115 333 60000
OOXX MYP42 21111 99045 11014 ///// 15551 26/// /0501 10185 29093 38407 91125 333 60000
OOXX MYP42 21111 99045 11014 ///// 15551 26/// /0705 10183 29093 38425 91135 333 60000
OOXX MYP42 21111 99045 11014 ///// 15551 26/// /1108 10182 29094 38409 91145 333 60000
OOXX MYP42 21111 99045 11014 ///// 15551 26/// /0104 10182 29094 38418 91155 333 60000
AAXX 21124 89628 46/// /3008 4//// 5////
AAXX 21124 91844 46/// /0903 10261 40124 22200 00280
AAXX 21124 62600 32970 33610 10250 20030 39949 40161 80005 333 56009 58002 83075
AAXX 21124 62641 11558 40212 10275 20220 30085 40133 69901 70711 84500 333 56900 59007 84640
AAXX 21124 62650 32970 70310 10300 20075 39850 40115 80007 333 56009 59005 87275
AAXX 21124 62680 31968 70204 10335 20155 39688 40070 70622 80007 333 56009 59009 87275
AAXX 21124 62721 32970 73308 10330 20080 39651 40078 80007 333 56009 59006 87275
AAXX 21124 62730 32970 00902 10340 20130 39565 40111 333 58004
AAXX 21124 62751 32970 73604 10348 20061 39636 40080 80007 333 56009 59001 87275
AAXX 21124 62770 32970 70705 10300 21140 39220 40089 80007 333 56009 58004 87275
AAXX 21124 62771 32970 70408 10310 20050 39462 40089 80007 333 56009 59001 87275
AAXX 21124 62795 32970 70202 10360 20110 39566 40045 80007 333 56009 59007 87275
AAXX 21124 62805 32970 70902 10355 20095 39526 40035 80007 333 56009 59007 87275
BBXX 46145 21121 99544 71324 46/// /1804 10050 40304 52001 22200 00069 11304 70018 333 91204
BBXX 46208 21121 99525 71327 46/// /1806 10070 40310 57003 22200 00075 11306 70031 333 91208
AAXX 21121 59158 32662 80103 10194 20148 30070 40171 51012 885//
AAXX 21121 59562 11640 80503 10208 20185 30159 40170 52014 69952 76162 8802/
AAXX 21121 59567 11460 80205 10192 20177 39794 40173 51016 60022 72162 885//
AAXX 21121 58968 11550 80902 10179 20162 30188 40196 51016 60152 76166 887//
AAXX 21121 58974 11465 80309 10176 20148 30075 40200 51014 69952 70262 885//
AAXX 21121 59358 31630 70105 10193 20159 30144 40176 51014 71022 875//
AAXX 21121 59559 11565 63302 10219 20198 30133 40161 51010 69952 70162 86400
AAXX 21121 59792 12460 60408 10216 20186 30164 40169 52018 69902 85410
AAXX 21121 59997 32460 30605 10280 20257 30095 40103 52022 82200
AAXX 2112/ 89828 46/// ///// 11245 36466 4//// 5//// 91240
AAXX 2112/ 89108 46/// ///// 11208 4//// 5//// 91240
AAXX 2112/ 89879 46/// ///// 11020 39677 4//// 5//// 91240
AAXX 2112/ 89667 46/// ///// 4//// 5//// 91210
AAXX 2112/ 89869 46/// ///// 11040 39698 4//// 5//// 91240
AAXX 21124 89667 46/// /3314 11034 29080 39771 4//// 5//// 91240
AAXX 21124 89667 46/// /3313 11034 39772 4//// 5//// 91230
AAXX 21124 89667 46/// /3314 11034 39772 4//// 5//// 91220
BBXX 9MBW7 21124 99380 11371 41498 /2704 10070 20040 40150 54001 70302 8//// 22213 00162 2//// 80045
BBXX SHIP 21124 99380 11371 41498 /2704 10070 20040 40150 54001 70302 8//// 22213 00162 2//// 80045
BBXX 2AUO5 21123 99606 10016 41698 21709 10074 21017 40106 52011 7//11 8/15/ 22200 20903 80040
BBXX AMOUK08 21124 99501 70061 46/// ///// 10122 20109 30249 40255 52022 91150
BBXX 63110 21124 99595 10015 47999 /1610 10059 21011 40112 58001 700// 22200 10704 70018
BBXX 63106 21124 99610 10017 46/// /2009 10059 40101 58004 22200
BBXX 63105 21124 99610 10017 47998 ///// 10066 21038 40100 58004 700// 22200
BBXX 62304 21124 99511 10018 46/98 /3214 10086 20079 40169 51015 22200 00110 10601 70006
BBXX 62094 21124 99517 70067 46/// /2413 10111 20098 40230 52015 22200 00106 10604 70020
BBXX 62103 21124 99499 70029 46/98 /2818 10124 20110 40220 51024 22200 00123 10703 70016 333 90710 91125
BBXX WDA2768 21124 99421 70875 43/// /2625 00/// 10053 20039 40041 55010 7//// 8//// 22243 0//// 2//// 3//// 4//// 5//// 6//// 80047 ICE /////
BBXX V7MO2 21124 99262 70914 41397 62006 10228 20115 40145 52005 7//// 8674/ 22200 00232 20301 313// 40503 5//// 6//// 80160 ICE /////
BBXX ONFP 21124 99213 30652 41697 51124 10260 2022/ 40170 54000 7//22 85444 22213 04252 20506 311// 4//// 5//// 6//// 80230 ICE /////
BBXX ONFP 21124 99213 30652 41697 51124 10260 2022/ 40170 54000 7//22 85444 22213 04252 20506 311// 4//// 5//// 6//// 80230 ICE /////
BBXX DGUG2 21124 99241 70219 41797 51122 10230 20152 40210 54000 70522 85020 22254 04230 20705 302// 41004 80180
BBXX DHSI 21124 99279 70149 415// 61417 10230 20152 40280 56005 70211 82160 22294 00190 21205 80180
BBXX MZDL7 21123 99150 51030 41398 61214 10205 20188 40140 56003 70311 867// 22243 00240 20502 318// 40704 5//// 80194
BBXX V7MO2 21124 99262 70914 41397 62006 10228 20115 40145 52005 7//// 8674/ 22200 00232 20301 313// 40503 5//// 6//// 80160 ICE /////
BBXX WDA2768 21124 99421 70875 43/// /2625 00/// 10053 20039 40041 55010 7//// 8//// 22243 0//// 2//// 3//// 4//// 5//// 6//// 80047 ICE /////
OOXX ISP34 21101 99641 70219 ///// 01301 26/// /1405 10003 29001 39797 91010 333 6///0
OOXX ISP34 21101 99641 70219 ///// 01301 26/// /1507 10002 29001 39792 91020 333 6///0
OOXX ISP34 21101 99641 70219 ///// 01301 26/// /1406 10001 29001 39789 91030 333 6///0
OOXX ISP34 21101 99641 70219 ///// 01301 26/// /1206 10000 29001 39783 91040 333 6///0
OOXX ISP34 21101 99641 70219 ///// 01301 26/// /1407 10000 29001 39780 91050 333 6///0
OOXX ISP34 21111 99641 70219 ///// 01301 26/// /1506 10000 29001 39774 91100 333 6///0
OOXX ISP34 21111 99641 70219 ///// 01301 26/// /1406 10001 29001 39767 91110 333 6///0
OOXX ISP34 21111 99641 70219 ///// 01301 26/// /1507 10003 29001 39760 91120 333 6///0
OOXX ISP34 21111 99641 70219 ///// 01301 26/// /1305 10005 29001 39757 91130 333 6///0
OOXX ISP34 21111 99641 70219 ///// 01301 26/// /1406 10007 29001 39752 91140 333 6///0
OOXX ISP34 21111 99641 70219 ///// 01301 26/// /1406 10008 29001 39746 91150 333 6///0
OOXX ISP34 21121 99641 70219 ///// 01301 26/// /1507 10011 29001 39742 91200 333 6///0
OOXX FRP31 21091 99052 70527 ///// 00091 26/// /1402 10235 29095 30176 90957 333 60000
OOXX FRP31 21101 99052 70527 ///// 00091 26/// /1402 10236 29095 30176 91007 333 69920
OOXX FRP31 21101 99052 70527 ///// 00091 26/// /1402 10238 29095 30181 91017 333 69920
OOXX FRP31 21101 99052 70527 ///// 00091 26/// /1701 10241 29095 30185 91027 333 60000
OOXX FRP31 21101 99052 70527 ///// 00091 26/// /1902 10243 29095 30185 91037 333 60000
OOXX FRP31 21101 99052 70527 ///// 00091 26/// /1902 10244 29095 30188 91047 333 60000
OOXX FRP31 21101 99052 70527 ///// 00091 26/// /1801 10246 29094 30186 91057 333 60000
OOXX FRP31 21111 99052 70527 ///// 00091 26/// /1602 10248 29094 30186 91107 333 60000
OOXX FRP31 21111 99052 70527 ///// 00091 26/// /1602 10249 29093 30188 91117 333 60000
OOXX FRP31 21111 99052 70527 ///// 00091 26/// /1301 10250 29093 30190 91127 333 60020
OOXX FRP31 21111 99052 70527 ///// 00091 26/// /1202 10251 29093 30188 91137 333 69920
OOXX FRP31 21111 99052 70527 ///// 00091 26/// /1102 10252 29093 30189 91147 333 60000
OOXX USP77 21091 99193 11666 ///// 00061 26/// /0606 10447 29066 30114 90903 333 60000
OOXX USP77 21091 99193 11666 ///// 00061 26/// /0606 10447 29066 30115 90913 333 60000
OOXX USP77 21091 99193 11666 ///// 00061 26/// /0606 10447 29066 30115 90923 333 60000
OOXX USP77 21091 99193 11666 ///// 00061 26/// /0606 10447 29067 30115 90933 333 60000
OOXX USP77 21091 99193 11666 ///// 00061 26/// /0606 10447 29068 30115 90943 333 60000
OOXX USP77 21091 99193 11666 ///// 00061 26/// /0606 10447 29067 30116 90953 333 60000
OOXX USP77 21101 99193 11666 ///// 00061 26/// /0606 10447 29067 30116 91003 333 60000
OOXX USP77 21101 99193 11666 ///// 00061 26/// /0606 10447 29067 30116 91013 333 60000
OOXX USP77 21101 99193 11666 ///// 00061 26/// /0505 10447 29068 30116 91023 333 60000
OOXX USP77 21101 99193 11666 ///// 00061 26/// /0505 10447 29067 30117 91033 333 60000
OOXX USP77 21101 99193 11666 ///// 00061 26/// /0606 10447 29068 30117 91043 333 60000
OOXX USP77 21101 99193 11666 ///// 00061 26/// /0504 10448 29069 30118 91053 333 60000
OOXX USP74 21091 99372 70998 ///// 06031 26/// /2202 11056 29096 39379 90902 333 60000
OOXX USP74 21091 99372 70998 ///// 06031 26/// /2302 11057 29097 39378 90912 333 60000
OOXX USP74 21091 99372 70998 ///// 06031 26/// /2202 11059 29097 39376 90922 333 60000
OOXX USP74 21091 99372 70998 ///// 06031 26/// /2501 11061 29097 39376 90932 333 60000
OOXX USP74 21091 99372 70998 ///// 06031 26/// /2701 11064 29098 39375 90942 333 60000
OOXX USP74 21091 99372 70998 ///// 06031 26/// /2701 11065 29099 39373 90952 333 60000
OOXX USP74 21101 99372 70998 ///// 06031 26/// /2701 11064 29098 39372 91002 333 60000
OOXX USP74 21101 99372 70998 ///// 06031 26/// /2502 11060 29097 39371 91012 333 60000
OOXX USP74 21101 99372 70998 ///// 06031 26/// /2702 11059 29097 39369 91022 333 60000
OOXX USP74 21101 99372 70998 ///// 06031 26/// /2802 11056 29095 39368 91032 333 60000
OOXX USP74 21101 99372 70998 ///// 06031 26/// /2201 11057 29096 39369 91042 333 60000
OOXX USP74 21101 99372 70998 ///// 06031 26/// /2001 11061 29097 39368 91052 333 60000
OOXX FRP30 21101 99493 30703 ///// 00361 26/// /2108 10107 29079 39951 91057 333 60000
OOXX FRP30 21111 99493 30703 ///// 00361 26/// /2108 10106 29080 39952 91107 333 60000
OOXX FRP30 21111 99493 30703 ///// 00361 26/// /2107 10106 29081 39955 91117 333 60000
OOXX FRP30 21111 99493 30703 ///// 00361 26/// /2106 10108 29080 39959 91127 333 60000
OOXX FRP30 21111 99493 30703 ///// 00361 26/// /2105 10114 29078 39961 91137 333 60000
OOXX FRP30 21111 99493 30703 ///// 00361 26/// /2104 10123 29074 39963 91147 333 60000
OOXX FRP30 21111 99493 30703 ///// 00361 26/// /2207 10123 29073 39961 91157 333 60000
OOXX FRP30 21121 99493 30703 ///// 00361 26/// /2210 10112 29077 39961 91207 333 60000
OOXX FRP30 21121 99493 30703 ///// 00361 26/// /2108 10108 29079 39966 91217 333 60000
OOXX FRP30 21121 99493 30703 ///// 00361 26/// /2208 10108 29079 39969 91227 333 60000
OOXX FRP30 21121 99493 30703 ///// 00361 26/// /2306 10108 29078 39973 91237 333 60000
OOXX FRP30 21121 99493 30703 ///// 00361 26/// /2205 10108 29079 39977 91247 333 60000
OOXX FJP26 21101 99178 31775 ///// 00311 26/// /1201 10251 29090 30076 91020 333 60000
OOXX FJP26 21101 99178 31775 ///// 00311 26/// /1202 10251 29090 30077 91030 333 60000
OOXX FJP26 21101 99178 31775 ///// 00311 26/// /1101 10251 29090 30076 91040 333 60000
OOXX FJP26 21101 99178 31775 ///// 00311 26/// /1101 10251 29090 30074 91050 333 60000
OOXX FJP26 21111 99178 31775 ///// 00311 26/// /1202 10251 29090 30073 91100 333 60000
OOXX FJP26 21111 99178 31775 ///// 00311 26/// /1302 10250 29090 30072 91110 333 60000
OOXX FJP26 21111 99178 31775 ///// 00311 26/// /1202 10250 29091 30071 91120 333 60000
OOXX FJP26 21111 99178 31775 ///// 00311 26/// /1302 10249 29091 30070 91130 333 60000
OOXX FJP26 21111 99178 31775 ///// 00311 26/// /1402 10248 29092 30070 91140 333 60000
OOXX FJP26 21111 99178 31775 ///// 00311 26/// /1502 10248 29092 30069 91150 333 60000
OOXX FJP26 21121 99178 31775 ///// 00311 26/// /1302 10247 29091 30067 91200 333 60000
OOXX FJP26 21121 99178 31775 ///// 00311 26/// /1302 10247 29091 30066 91210 333 60000
OOXX USP75 21091 99380 70784 ///// 01041 26/// /0000 10083 29088 30036 90904 333 60000
OOXX USP75 21091 99380 70784 ///// 01041 26/// /0000 10083 29089 30037 90914 333 60000
OOXX USP75 21091 99380 70784 ///// 01041 26/// /0000 10083 29089 30036 90924 333 60000
OOXX USP75 21091 99380 70784 ///// 01041 26/// /3401 10082 29089 30033 90934 333 60000
OOXX USP75 21091 99380 70784 ///// 01041 26/// /0000 10083 29089 30031 90944 333 60000
OOXX USP75 21091 99380 70784 ///// 01041 26/// /0000 10083 29089 30030 90954 333 60000
OOXX USP75 21101 99380 70784 ///// 01041 26/// /0000 10083 29089 30027 91004 333 60000
OOXX USP75 21101 99380 70784 ///// 01041 26/// /0000 10082 29090 30027 91014 333 60000
OOXX USP75 21101 99380 70784 ///// 01041 26/// /3201 10082 29090 30027 91024 333 60000
OOXX USP75 21101 99380 70784 ///// 01041 26/// /3001 10083 29091 30028 91034 333 60000
OOXX USP75 21101 99380 70784 ///// 01041 26/// /0000 10083 29091 30027 91044 333 60000
OOXX USP75 21101 99380 70784 ///// 01041 26/// /0000 10083 29090 30027 91054 333 60000
OOXX USP71 21091 99553 71605 ///// 00601 26/// /2502 11533 29068 39930 90902 333 60000
OOXX USP71 21091 99553 71605 ///// 00601 26/// /2502 11533 29067 39931 90912 333 60000
OOXX USP71 21091 99553 71605 ///// 00601 26/// /2502 11533 29067 39932 90922 333 60000
OOXX USP71 21091 99553 71605 ///// 00601 26/// /2502 11533 29065 39933 90932 333 60000
OOXX USP71 21091 99553 71605 ///// 00601 26/// /2502 11533 29068 39933 90942 333 60000
OOXX USP71 21091 99553 71605 ///// 00601 26/// /2502 11533 29065 39933 90952 333 60000
OOXX USP71 21101 99553 71605 ///// 00601 26/// /2402 11533 29066 39934 91002 333 60000
OOXX USP71 21101 99553 71605 ///// 00601 26/// /2402 11533 29066 39934 91012 333 60000
OOXX USP71 21101 99553 71605 ///// 00601 26/// /2402 11533 29063 39935 91022 333 60000
OOXX USP71 21101 99553 71605 ///// 00601 26/// /2402 11533 29071 39936 91032 333 60000
OOXX USP71 21101 99553 71605 ///// 00601 26/// /2402 11533 29066 39938 91042 333 60000
OOXX USP71 21101 99553 71605 ///// 00601 26/// /2402 11533 29067 39938 91052 333 60000
OOXX AUP09 21101 99124 31309 ///// 00321 26/// ///// 1//// 29/// 3//// 91014 333 6///0
OOXX AUP09 21101 99124 31309 ///// 00321 26/// ///// 1//// 29/// 3//// 91024 333 6///0
OOXX AUP09 21101 99124 31309 ///// 00321 26/// ///// 1//// 29/// 3//// 91034 333 6///0
OOXX AUP09 21101 99124 31309 ///// 00321 26/// ///// 1//// 29/// 3//// 91044 333 6///0
OOXX AUP09 21101 99124 31309 ///// 00321 26/// ///// 1//// 29/// 3//// 91054 333 6///0
OOXX AUP09 21111 99124 31309 ///// 00321 26/// ///// 1//// 29/// 3//// 91104 333 6///0
OOXX AUP09 21111 99124 31309 ///// 00321 26/// ///// 1//// 29/// 3//// 91114 333 6///0
OOXX AUP09 21111 99124 31309 ///// 00321 26/// ///// 1//// 29/// 3//// 91124 333 6///0
OOXX AUP09 21111 99124 31309 ///// 00321 26/// ///// 1//// 29/// 3//// 91134 333 6///0
OOXX AUP09 21111 99124 31309 ///// 00321 26/// ///// 1//// 29/// 3//// 91144 333 6///0
OOXX AUP09 21111 99124 31309 ///// 00321 26/// ///// 1//// 29/// 3//// 91154 333 6///0
OOXX AUP09 21121 99124 31309 ///// 00321 26/// ///// 1//// 29/// 3//// 91204 333 6///0
OOXX RUP60 21101 99531 11588 ///// 00651 26/// /3102 11148 29043 30025 91052 333 60000
OOXX RUP60 21111 99531 11588 ///// 00651 26/// /3002 11143 29042 30026 91102 333 60000
OOXX RUP60 21111 99531 11588 ///// 00651 26/// /2705 11140 29040 30026 91112 333 60000
OOXX RUP60 21111 99531 11588 ///// 00651 26/// /2902 11136 29039 30026 91122 333 60000
OOXX RUP60 21111 99531 11588 ///// 00651 26/// /3101 11140 29040 30026 91132 333 60000
OOXX RUP60 21111 99531 11588 ///// 00651 26/// /2901 11142 29040 30026 91142 333 60000
OOXX RUP60 21111 99531 11588 ///// 00651 26/// /2905 11147 29041 30025 91152 333 60000
OOXX RUP60 21121 99531 11588 ///// 00651 26/// /3202 11150 29042 30026 91202 333 60000
OOXX RUP60 21121 99531 11588 ///// 00651 26/// /3103 11145 29041 30025 91212 333 60000
OOXX RUP60 21121 99531 11588 ///// 00651 26/// /3403 11148 29041 30025 91222 333 60000
OOXX RUP60 21121 99531 11588 ///// 00651 26/// /2901 11154 29042 30024 91232 333 60000
OOXX RUP60 21121 99531 11588 ///// 00651 26/// /2806 11157 29044 30024 91242 333 60000
OOXX GBP67 21101 99159 50057 ///// 04381 26/// /0903 10182 29081 39693 91010 333 60000
OOXX GBP67 21101 99159 50057 ///// 04381 26/// /0903 10184 29083 39691 91020 333 60000
OOXX GBP67 21101 99159 50057 ///// 04381 26/// /0904 10186 29084 39690 91030 333 60000
OOXX GBP67 21101 99159 50057 ///// 04381 26/// /0904 10184 29088 39690 91040 333 60000
OOXX GBP67 21101 99159 50057 ///// 04381 26/// /0904 10180 29088 39690 91050 333 60000
OOXX GBP67 21111 99159 50057 ///// 04381 26/// /0904 10177 29087 39691 91100 333 60000
OOXX GBP67 21111 99159 50057 ///// 04381 26/// /0804 10181 29083 39688 91110 333 60000
OOXX GBP67 21111 99159 50057 ///// 04381 26/// /0804 10186 29080 39688 91120 333 60000
OOXX GBP67 21111 99159 50057 ///// 04381 26/// /0704 10188 29079 39689 91130 333 60000
OOXX GBP67 21111 99159 50057 ///// 04381 26/// /0904 10188 29078 39687 91140 333 60000
OOXX GBP67 21111 99159 50057 ///// 04381 26/// /0804 10188 29078 39685 91150 333 60000
OOXX GBP67 21121 99159 50057 ///// 04381 26/// /0904 10188 29081 39685 91200 333 60000
OOXX USP70 21091 99387 71214 ///// 00751 26/// /2801 10108 29044 30069 90906 333 60000
OOXX USP70 21091 99387 71214 ///// 00751 26/// /2801 10107 29044 30070 90916 333 60000
OOXX USP70 21091 99387 71214 ///// 00751 26/// /0000 10106 29044 30070 90926 333 60000
OOXX USP70 21091 99387 71214 ///// 00751 26/// /0000 10105 29044 30071 90936 333 60000
OOXX USP70 21091 99387 71214 ///// 00751 26/// /0000 10099 29045 30071 90946 333 60000
OOXX USP70 21091 99387 71214 ///// 00751 26/// /0000 10085 29049 30071 90956 333 60000
OOXX USP70 21101 99387 71214 ///// 00751 26/// /0000 10090 29050 30072 91006 333 60000
OOXX USP70 21101 99387 71214 ///// 00751 26/// /0000 10099 29046 30072 91016 333 60000
OOXX USP70 21101 99387 71214 ///// 00751 26/// /0000 10094 29045 30073 91026 333 60000
OOXX USP70 21101 99387 71214 ///// 00751 26/// /0000 10096 29045 30073 91036 333 60000
OOXX USP70 21101 99387 71214 ///// 00751 26/// /1301 10085 29048 30074 91046 333 60000
OOXX USP70 21101 99387 71214 ///// 00751 26/// /2601 10091 29046 30076 91056 333 60000
OOXX USP76 21091 99647 71471 ///// 01501 26/// /1303 11006 29032 39629 90904 333 60000
OOXX USP76 21091 99647 71471 ///// 01501 26/// /1403 11005 29032 39629 90914 333 60000
OOXX USP76 21091 99647 71471 ///// 01501 26/// /1403 11005 29032 39628 90924 333 60000
OOXX USP76 21091 99647 71471 ///// 01501 26/// /1303 11005 29032 39629 90934 333 60000
OOXX USP76 21091 99647 71471 ///// 01501 26/// /1403 11004 29031 39629 90944 333 60000
OOXX USP76 21091 99647 71471 ///// 01501 26/// /1403 11003 29031 39628 90954 333 60000
OOXX USP76 21101 99647 71471 ///// 01501 26/// /1403 11003 29031 39628 91004 333 60000
OOXX USP76 21101 99647 71471 ///// 01501 26/// /1402 11003 29032 39627 91014 333 60000
OOXX USP76 21101 99647 71471 ///// 01501 26/// /1302 11005 29032 39626 91024 333 60000
OOXX USP76 21101 99647 71471 ///// 01501 26/// /1301 11005 29033 39625 91034 333 60000
OOXX USP76 21101 99647 71471 ///// 01501 26/// /1301 11005 29034 39626 91044 333 60000
OOXX USP76 21101 99647 71471 ///// 01501 26/// /0000 11006 29034 39626 91054 333 60000
OOXX MXP44 21101 99280 71140 ///// 00041 26/// /1422 10112 29054 30127 91010 333 60000
OOXX MXP44 21101 99280 71140 ///// 00041 26/// /1422 10110 29054 30128 91020 333 60000
OOXX MXP44 21101 99280 71140 ///// 00041 26/// /1422 10107 29054 30129 91030 333 60000
OOXX MXP44 21101 99280 71140 ///// 00041 26/// /1422 10101 29054 30130 91040 333 60000
OOXX MXP44 21101 99280 71140 ///// 00041 26/// /1422 10103 29054 30131 91050 333 60000
OOXX MXP44 21111 99280 71140 ///// 00041 26/// /1422 10104 29054 30130 91100 333 60000
OOXX MXP44 21111 99280 71140 ///// 00041 26/// /1422 10107 29054 30130 91110 333 60000
OOXX MXP44 21111 99280 71140 ///// 00041 26/// /1422 10111 29054 30129 91120 333 60000
OOXX MXP44 21111 99280 71140 ///// 00041 26/// /1422 10110 29054 30128 91130 333 60000
OOXX MXP44 21111 99280 71140 ///// 00041 26/// /1422 10110 29054 30127 91140 333 60000
OOXX MXP44 21111 99280 71140 ///// 00041 26/// /1422 10111 29054 30126 91150 333 60000
OOXX MXP44 21121 99280 71140 ///// 00041 26/// /1422 10106 29054 30127 91200 333 60000
OOXX NZP46 21101 99438 51765 ///// 00221 26/// /2302 10105 29071 30293 91030 333 60000
OOXX NZP46 21101 99438 51765 ///// 00221 26/// /2101 10105 29073 30293 91040 333 60000
OOXX NZP46 21101 99438 51765 ///// 00221 26/// /2202 10104 29073 30292 91050 333 60000
OOXX NZP46 21111 99438 51765 ///// 00221 26/// /2103 10104 29072 30291 91100 333 60000
OOXX NZP46 21111 99438 51765 ///// 00221 26/// /2101 10105 29073 30291 91110 333 60000
OOXX NZP46 21111 99438 51765 ///// 00221 26/// /2202 10104 29073 30291 91120 333 60000
OOXX NZP46 21111 99438 51765 ///// 00221 26/// /2202 10104 29073 30291 91130 333 60000
OOXX NZP46 21111 99438 51765 ///// 00221 26/// /2102 10103 29074 30291 91140 333 60000
OOXX NZP46 21111 99438 51765 ///// 00221 26/// /1902 10104 29072 30291 91150 333 60000
OOXX NZP46 21121 99438 51765 ///// 00221 26/// /1902 10105 29073 30291 91200 333 60000
OOXX NZP46 21121 99438 51765 ///// 00221 26/// /2102 10104 29072 30291 91210 333 60000
OOXX NZP46 21121 99438 51765 ///// 00221 26/// /2502 10103 29073 30291 91220 333 60000
OOXX AUP07 21101 99/// ///// ///// ///// 26/// /2406 10059 29086 30220 91049 333 60000
OOXX AUP07 21101 99/// ///// ///// ///// 26/// /2406 10059 29086 30217 91059 333 60000
OOXX AUP07 21111 99/// ///// ///// ///// 26/// /2306 10058 29086 30218 91109 333 60000
OOXX AUP07 21111 99/// ///// ///// ///// 26/// /2406 10057 29086 30218 91119 333 60000
OOXX AUP07 21111 99/// ///// ///// ///// 26/// /2406 10057 29087 30218 91129 333 60000
OOXX AUP07 21111 99/// ///// ///// ///// 26/// /2306 10057 29087 30219 91139 333 60000
OOXX AUP07 21111 99/// ///// ///// ///// 26/// /2407 10057 29088 30220 91149 333 60000
OOXX AUP07 21111 99/// ///// ///// ///// 26/// /2406 10056 29087 30220 91159 333 60000
OOXX AUP07 21121 99/// ///// ///// ///// 26/// /2307 10055 29087 30220 91209 333 60000
OOXX AUP07 21121 99/// ///// ///// ///// 26/// /2407 10054 29085 30220 91219 333 60000
OOXX AUP07 21121 99/// ///// ///// ///// 26/// /2406 10054 29085 30221 91229 333 60000
OOXX AUP07 21121 99/// ///// ///// ///// 26/// /2407 10054 29085 30221 91239 333 60000
OOXX KIP39 21101 99020 51574 ///// 00181 26/// /0904 10254 29077 30098 91030 333 60000
OOXX KIP39 21101 99020 51574 ///// 00181 26/// /1004 10253 29077 30096 91040 333 60000
OOXX KIP39 21101 99020 51574 ///// 00181 26/// /1004 10252 29077 30096 91050 333 60000
OOXX KIP39 21111 99020 51574 ///// 00181 26/// /1004 10252 29078 30094 91100 333 60000
OOXX KIP39 21111 99020 51574 ///// 00181 26/// /1004 10252 29079 30093 91110 333 60000
OOXX KIP39 21111 99020 51574 ///// 00181 26/// /1004 10251 29078 30092 91120 333 60000
OOXX KIP39 21111 99020 51574 ///// 00181 26/// /1004 10252 29078 30091 91130 333 60000
OOXX KIP39 21111 99020 51574 ///// 00181 26/// /1004 10252 29078 30090 91140 333 60000
OOXX KIP39 21111 99020 51574 ///// 00181 26/// /0904 10252 29078 30088 91150 333 60000
OOXX KIP39 21121 99020 51574 ///// 00181 26/// /0905 10251 29079 30088 91200 333 60000
OOXX KIP39 21121 99020 51574 ///// 00181 26/// /1004 10252 29079 30088 91210 333 60000
OOXX KIP39 21121 99020 51574 ///// 00181 26/// /1004 10251 29080 30087 91220 333 60000
OOXX GBP68 21101 99371 50123 ///// 00641 26/// /3502 10000 29094 30121 91010 333 60000
OOXX GBP68 21101 99371 50123 ///// 00641 26/// /3502 10000 29094 30122 91020 333 60000
OOXX GBP68 21101 99371 50123 ///// 00641 26/// /3502 10000 29094 30122 91030 333 60000
OOXX GBP68 21101 99371 50123 ///// 00641 26/// /3504 10000 29093 30122 91040 333 60000
OOXX GBP68 21101 99371 50123 ///// 00641 26/// /3502 10000 29094 30121 91050 333 60000
OOXX GBP68 21111 99371 50123 ///// 00641 26/// /3503 10000 29093 30120 91100 333 60000
OOXX GBP68 21111 99371 50123 ///// 00641 26/// /3503 10000 29092 30119 91110 333 60000
OOXX GBP68 21111 99371 50123 ///// 00641 26/// /3503 10000 29091 30119 91120 333 60000
OOXX GBP68 21111 99371 50123 ///// 00641 26/// /3504 10000 29091 30120 91130 333 60000
OOXX GBP68 21111 99371 50123 ///// 00641 26/// /3504 10000 29092 30120 91140 333 60000
OOXX GBP68 21111 99371 50123 ///// 00641 26/// /3505 10000 29091 30119 91150 333 60000
OOXX GBP68 21121 99371 50123 ///// 00641 26/// /3505 10000 29093 30119 91200 333 60000
OOXX AUP06 21101 99192 31468 ///// 00071 26/// /1006 10269 29062 30076 91053 333 60000
OOXX AUP06 21111 99192 31468 ///// 00071 26/// /1006 10268 29063 30076 91103 333 60000
OOXX AUP06 21111 99192 31468 ///// 00071 26/// /1106 10269 29063 30077 91113 333 60000
OOXX AUP06 21111 99192 31468 ///// 00071 26/// /1105 10267 29064 30079 91123 333 60000
OOXX AUP06 21111 99192 31468 ///// 00071 26/// /1204 10266 29065 30080 91133 333 60000
OOXX AUP06 21111 99192 31468 ///// 00071 26/// /1204 10264 29066 30080 91143 333 60000
OOXX AUP06 21111 99192 31468 ///// 00071 26/// /1204 10264 29065 30081 91153 333 60000
OOXX AUP06 21121 99192 31468 ///// 00071 26/// /1205 10263 29066 30081 91203 333 60000
OOXX AUP06 21121 99192 31468 ///// 00071 26/// /1204 10261 29067 30081 91213 333 60000
OOXX AUP06 21121 99192 31468 ///// 00071 26/// /1204 10263 29065 30082 91223 333 60000
OOXX AUP06 21121 99192 31468 ///// 00071 26/// /1205 10261 29067 30081 91233 333 60000
OOXX AUP06 21121 99192 31468 ///// 00071 26/// /1204 10262 29065 30082 91243 333 60000
OOXX CAP14 21101 99487 71234 ///// 00431 26/// /1101 11005 29089 30222 91030 333 60000
OOXX CAP14 21101 99487 71234 ///// 00431 26/// /0000 11008 29088 30225 91040 333 60000
OOXX CAP14 21101 99487 71234 ///// 00431 26/// /1201 11005 29089 30227 91050 333 60000
OOXX CAP14 21111 99487 71234 ///// 00431 26/// /2901 10002 29089 30225 91100 333 60000
OOXX CAP14 21111 99487 71234 ///// 00431 26/// /2701 10011 29089 30226 91110 333 60000
OOXX CAP14 21111 99487 71234 ///// 00431 26/// /3001 11001 29087 30225 91120 333 60000
OOXX CAP14 21111 99487 71234 ///// 00431 26/// /2601 11011 29086 30225 91130 333 60000
OOXX CAP14 21111 99487 71234 ///// 00431 26/// /0701 10002 29090 30227 91140 333 60000
OOXX CAP14 21111 99487 71234 ///// 00431 26/// /3201 10011 29089 30229 91150 333 60000
OOXX CAP14 21121 99487 71234 ///// 00431 26/// /2801 10020 29087 30229 91200 333 60000
OOXX CAP14 21121 99487 71234 ///// 00431 26/// /2901 10020 29086 30231 91210 333 60000
OOXX CAP14 21121 99487 71234 ///// 00431 26/// /2802 10020 29086 30230 91220 333 60000
OOXX RUP54 21101 99586 10494 ///// 01271 26/// /0604 11077 29089 30074 91027 333 60120
OOXX RUP54 21101 99586 10494 ///// 01271 26/// /0604 11077 29089 30073 91037 333 60120
OOXX RUP54 21101 99586 10494 ///// 01271 26/// /0504 11077 29089 30073 91047 333 60120
OOXX RUP54 21101 99586 10494 ///// 01271 26/// /0604 11077 29089 30073 91057 333 60120
OOXX RUP54 21111 99586 10494 ///// 01271 26/// /0503 11077 29089 30073 91107 333 60120
OOXX RUP54 21111 99586 10494 ///// 01271 26/// /0504 11078 29089 30073 91117 333 60120
OOXX RUP54 21111 99586 10494 ///// 01271 26/// /0804 11078 29089 30072 91127 333 60120
OOXX RUP54 21111 99586 10494 ///// 01271 26/// /0604 11079 29089 30072 91137 333 60120
OOXX RUP54 21111 99586 10494 ///// 01271 26/// /0504 11079 29089 30073 91147 333 60120
OOXX RUP54 21111 99586 10494 ///// 01271 26/// /0604 11079 29089 30073 91157 333 60120
OOXX RUP54 21121 99586 10494 ///// 01271 26/// /0603 11078 29089 30071 91207 333 60120
OOXX RUP54 21121 99586 10494 ///// 01271 26/// /0604 11077 29089 30071 91217 333 60120
AAXX 21124 08314 02559 80110 10129 20108 30124 40228 58002 69991 76162 8581/ 333 69997
AAXX 21124 89016 46/89 /3305 11031 29063 39338 4//// 5////
AAXX 21124 91559 46/// /0000 10239 40089 22200 00279
AAXX 21124 71388 46/// /1303 11148 21169 39938 40134 56004 6///1 333 11091 21172 7////
AAXX 21124 71390 46/// /0902 11103 6///1 333 11069 21134 7////
AAXX 21124 71307 17/// /1204 10060 20054 39824 40073 56012 69931 7//4/ 333 10046 20031 4/001 7//// 555 10010
AAXX 21124 71710 16/// /2410 11046 21087 30179 40189 51012 60001 333 10001 21056 70000
AAXX 21124 71724 16/// /0305 11088 21101 30153 40161 58003 60001 333 11043 21119 70000
AAXX 21124 71734 16/// /2108 11043 21069 39672 40066 50000 60001 333 11043 21069 70000
AAXX 21124 71388 46/// /1303 11148 21169 39938 40134 56004 6///1 333 11091 21172 7////
AAXX 21124 71390 46/// /0902 11103 6///1 333 11069 21134 7////
AAXX 21124 91531 46/// /1302 1//// 40061 22200 00264
AAXX 21124 87270 31950 10509 10312 20164 30010 40070 52013 70500 81080 333 10312 20237 30019 56050 81360
AAXX 21124 96615 11456 40000 10264 20249 30081 40095 52027 60051 70162 333 10306 56000 57803 58018 84812 80856
AAXX 21124 17031 11565 71405 10113 20095 30155 40161 52018 69961 78081 85250 333 85830 87358
AAXX 21124 61679 32962 50808 10321 20066 30140 40148 82032 333 0//00 58007 82353 83073
AAXX 21124 61698 32960 40806 10304 20112 30121 40132 84030 333 0//00 58004 84363
AAXX 2112/ 89327 46/// ///// 11016 39622 4//// 5//// 91230
AAXX 2112/ 89327 46/// ///// 11016 39622 4//// 5//// 91240
AAXX 2112/ 89108 46/// ///// 11210 36983 4//// 5//// 91230
AAXX 2112/ 89866 46/// ///// 11046 39665 4//// 5//// 91240
AAXX 2112/ 89329 46/// ///// 11076 38815 4//// 5//// 91240
AAXX 2112/ 89799 46/// ///// 11225 4//// 5//// 91230
AAXX 2112/ 89799 46/// ///// 11225 4//// 5//// 91240
AAXX 2112/ 89332 46/// ///// 11056 39287 4//// 5//// 91240
AAXX 2112/ 89769 46/// ///// 11031 39725 4//// 5//// 91230
AAXX 2112/ 89314 46/// ///// 11066 38262 4//// 5//// 91240
BBXX OYCY2 21124 99541 71620 41798 61930 10030 20010 40050 54000 70100 8418/ 22273 00080 20502 3//// 4//// 5//// 6//// 80020 ICE /////
AAXX 21124 89614 46/// /0925 11040 29079 38965 4//// 5//// 91230 333 90700 91131
AAXX 21124 71016 16/// ///// 11029 60001 333 10057 21035 70000
AAXX 21124 89614 46/// /0925 11040 29079 38965 4//// 5//// 91230 333 90700 91131
AAXX 21124 91642 46/// /0000 1//// 40063 22200 0////
AAXX 2112/ 89769 46/// ///// 11031 39725 4//// 5//// 91240
AAXX 21124 08314 01559 80110 10129 20108 30124 40228 58002 69991 76162 8581/ 333 69997
BBXX 42043 21121 99290 70949 46/// /0108 1//// 40164 52008 91200 22200 00167 333 91210
BBXX 42044 21121 99262 70971 46/// /0606 10177 20131 40136 56011 91200 22200 00173 333 91208
BBXX 42045 21121 99262 70965 46/// /0608 10176 40139 91230 22200 00219 333 91209
BBXX 42045 21121 99262 70965 46/// /0507 10175 40137 57007 91200 22200 00219 333 91209
BBXX 46109 21121 99481 71234 46/// /1304 10035 40295 91157 22200 00079
BBXX 46110 21121 99481 71230 46/// /1704 10042 40297 91158
AAXX 21124 68377 36/// /1506 10338 20108 38707 48457 57015 333 10340 20205 91011 555 91010
BBXX 46094 21121 99446 71243 46/// /0605 10080 91230
BBXX 46094 21121 99446 71243 46/// /0803 10080 91220
BBXX 46094 21121 99446 71243 46/// /0305 10081 91210
BBXX 46094 21121 99446 71243 46/// /0704 10081 91200
BBXX 46094 21121 99446 71243 46/// /0604 10084 91150
BBXX 46094 21121 99446 71243 46/// /0404 10088 91140
BBXX S6SR 21124 99132 50035 41797 81209 10240 20180 40170 54000 7//22 88/4/ 22213 00220 2//// 3//// 4//// 5//// 6//// 80200 ICE /////
BBXX S6SR 21124 99132 50035 41797 81209 10240 20180 40170 54000 7//22 88/4/ 22213 00220 2//// 3//// 4//// 5//// 6//// 80200 ICE /////
BBXX 46094 21121 99446 71243 46/// /0404 10088 91140
BBXX 46094 21121 99446 71243 46/// /0604 10084 91150
BBXX 46094 21121 99446 71243 46/// /0704 10081 91200
BBXX 46094 21121 99446 71243 46/// /0305 10081 91210
BBXX 46094 21121 99446 71243 46/// /0803 10080 91220
BBXX 46094 21121 99446 71243 46/// /0605 10080 91230
BBXX 46109 21121 99481 71234 46/// /1304 10035 40295 91157 22200 00079
BBXX 46110 21121 99481 71230 46/// /1704 10042 40297 91158
BBXX 42045 21121 99262 70965 46/// /0507 10175 40137 57007 91200 22200 00219 333 91209
BBXX 42045 21121 99262 70965 46/// /0608 10176 40139 91230 22200 00219 333 91209
BBXX 42044 21121 99262 70971 46/// /0606 10177 20131 40136 56011 91200 22200 00173 333 91208
BBXX 42043 21121 99290 70949 46/// /0108 1//// 40164 52008 91200 22200 00167 333 91210
BBXX A8ER9 21121 99506 71480 41/96 10403 10065 20055 40092 56023 70550 80007 22274 04105 20602 323// 41005 5//// 80060
BBXX 44055 21121 99391 70753 46/// ///// 1//// 91230 22200 00090 10301 70004
BBXX 44056 21121 99362 70757 46/// ///// 1//// 91220 22200 00120 11301 21001 307// 41301 70006
BBXX DHSI 21124 99279 70149 415// 61417 10230 20152 40280 56005 70211 82160 22294 00190 21205 80180
AAXX 21124 71155 16/// ///// 11035 21035 60001 333 10053 21038 4/002 70006
AAXX 21124 71363 16/// /3517 11286 21317 39974 40031 51017 60001 333 11305 21356 70000
AAXX 21124 71363 16/// /3517 11286 21317 39974 40031 51017 60001 333 11305 21356 70000
AAXX 21124 92036 46/// /9901 10263 40058 22200 00312
AAXX 2112/ 89872 46/// ///// 11033 39718 4//// 5//// 91240
AAXX 2112/ 89868 46/// ///// 11065 39698 4//// 5//// 91240
AAXX 21123 63726 32570 41402 10205 20155 38124 48465 83130 333 59002 83820 555 10182
BBXX 63055 21124 99606 10016 47999 /1509 10060 21035 40101 58005 700// 22200 10703 70017
BBXX 63106 21124 99610 10017 46/// /2009 10059 40101 58004 22200
BBXX 63113 21124 99610 10017 46/// /1910 10062 21041 40101 58003 22200 10805 70023
BBXX 62304 21124 99511 10018 46/98 /3214 10086 20079 40169 51215 22200 00110 10601 70006
BBXX 62107 21124 99501 70061 46/// /3125 10119 20101 40255 52011 22200 00117 10805 70024 333 90710 91135
BBXX 62094 21124 99517 70067 46/// /2513 1//// 2//// 4//// 5//// 22200 00105 10604 70020
BBXX 62103 21124 99499 70029 46/98 /2817 10122 20109 40216 50011 22200 00123 10703 70017 333 90710 91127
BBXX 63110 21123 99595 10015 41/98 /1515 10058 40106 70322 8//5/ 22200 10604 70018
BBXX 62169 21123 99614 10014 41598 82118 10066 20033 40100 57015 70322 8253/ 22200 20402 3//// 4//// 5//// 80052
AAXX 21123 63705 32570 31703 10247 20172 38836 48492 82935 333 58002 81824 81926 555 10194
AAXX 21123 63702 32580 71413 10245 20174 82931 333 82823 81925 87363 555 10198
AAXX 21123 63630 32580 61206 10310 20125 3//// 48/// 82208 333 5//// 82825 86820 555 1095
AAXX 21123 63658 32580 61805 10305 20142 38848 48484 83906 59002 83830 81923 86280 555 10202
AAXX 21123 63705 32570 31703 10247 20172 38836 48492 82935 333 58002 81824 81926 555 10194
AAXX 21124 93713 46/// /0000 10139 40275 22200 00161
AAXX 21123 63702 32580 71413 10245 20174 82931 333 82823 81925 87363 555 10198
AAXX 21123 63630 32580 61206 10310 20125 3//// 48/// 82208 333 5//// 82825 86820 555
AAXX 21123 63658 32580 61805 10305 20142 38848 48484 83906 333 59002 83830 81923 86280 555 10202
AAXX 21124 91689 46/// /0932 10247 40096 22200 00284
BBXX WJRX 21124 99512 70097 42798 82917 10130 40250 22213 20403
BBXX V2QD4 21123 99371 31777 41498 30914 10171 20130 40282 58007 70100 83141 22234 00180 20502
BBXX VRDX2 21123 99089 31305 41/97 /2718 10270 20243 40064 7//// 8/776 22264 00310 20404
BBXX V2QD4 21123 99371 31777 41498 30914 10171 20130 40282 58007 70100 83141 22234 00180 20502
BBXX VRDX2 21123 99089 31305 41/97 /2718 10270 20243 40064 7//// 8/776 22264 00310 20404
BBXX WJRX 21124 99512 70097 42798 82917 10130 40250 22213 20403
BBXX 44055 21121 99391 70753 46/// ///// 1//// 91230 22200 00090 10301 70004
BBXX 44056 21121 99362 70757 46/// ///// 1//// 91220 22200 00120 11301 21001 307// 41301 70006
BBXX WJRX 21124 99512 70097 42798 82917 10130 40250 22213 20403
BBXX 62169 21123 99614 10014 41598 82118 10066 20033 40100 57015 70322 8253/ 22200 20402 3//// 4//// 5//// 80052
AAXX 21121 10962 01060 82406 11020 21021 39025 48460 58003 69951 77174 887// 333 48017 55300 20298 30294 69917 87701 91113 96036 96447
AAXX 21124 04418 NIL
AAXX 21124 04425 NIL
AAXX 21124 04432 NIL
AAXX 21124 04436 NIL
AAXX 21124 04464 46/// /1510 11435 21478 333 553// 20004
AAXX 21124 04485 46/// /0000 11467 21503 37128 57006 333 553// 20000
AAXX 21124 04488 NIL
BBXX SKEC 21121 99576 10180 46/// ///// 10027 40078 52011 22241 00088
BBXX 46092 21121 99368 71220 46/// /0906 10089 40174 91209 22200 00124 555 11062 22067
AAXX 2112/ 68902 46/// ///// 40116 57001
BBXX A8ER9 21121 99506 71480 41/96 10403 10065 20055 40092 56023 70550 80007 22274 04105 20602 323// 41005 5//// 80060
AAXX 21121 98132 11462 80904 10220 20203 40186 52015 60031 70564 8527/ 333 10240 56299 59009 85816 88357
AAXX 21121 98133 11460 80705 10/// 20/// 40126 5//// 60031 71566 8457/ 333 10/// 56299 59007 84618 88359
AAXX 21121 98222 31575 10000 10265 20234 40105 52015 70544 81200 333 10310 56999 58007 81820
AAXX 21121 98233 31570 40000 10222 40118 52017 60011 70564 84500 333 10300 56999 59002 84625
AAXX 21121 98324 11462 50000 10270 20249 40100 52016 60041 70598 81201 333 10320 56999 58006 81816 85080
AAXX 21121 98327 31668 72401 10254 20219 39938 40113 52012 70544 82208 333 10322 56999 56002 82842 87277
AAXX 21121 98334 31465 83402 10229 20209 39920 40126 52011 60021 70282 8327/ 333 10285 56999 58007 83817 88357
AAXX 21121 98425 11558 61401 10274 20250 40102 52013 60161 72584 84870 333 10296 56999 58003 84620 86358
AAXX 21121 98426 31562 10403 10268 20234 40110 52017 70544 84460 333 10330 56999 58008 81820
AAXX 21121 98427 11472 50000 10242 20232 39915 40093 53015 60211 70162 83270 333 10280 56999 58005 83818 85357
AAXX 21121 98428 32458 51103 10280 20254 40099 52016 82468 333 10311 56999 58001 82618 84275
AAXX 21121 98432 11568 50000 10255 20239 40112 52026 60151 70564 82272 333 10310 56999 58012 82820
AAXX 21121 98433 11460 50404 10216 20193 39390 40113 55010 69941 70584 82230 333 10250 56999 58006 82812 83357
AAXX 21121 98434 11468 50000 10246 20235 30108 40116 53018 60081 70186 83231 333 10294 56199 58016 83817
AAXX 21121 98435 11468 80000 10243 20227 40117 5//// 69981 70262 8427/ 333 10270 56999 58008 84817 88357
AAXX 21121 98442 NIL
AAXX 21121 98446 32470 63202 10246 20241 30072 40118 52016 82202 333 20288 56999 59012 82818 86070
AAXX 21121 98447 32470 60403 10242 20228 39845 40110 5//// 83202 333 10/// 56199 58011 83818 86070
AAXX 21121 98538 31464 50403 10283 20253 30075 40080 52020 70541 82206 333 10310 56199 58010 82811 83072
AAXX 21121 98546 32575 50901 10270 20246 30091 40099 52019 81208 333 10325 56999 58007 81820 85272
AAXX 21121 98548 32465 10301 10280 20251 30072 40078 53019 81100 333 10335 56999 59008 81816
AAXX 21121 98553 31470 22701 10261 20252 30100 40104 52022 70544 82200 333 10310 56999 58008 82818
AAXX 21121 98558 31464 40507 10276 20254 40096 53029 70144 82970 333 10305 56999 58018 81915
AAXX 21121 98642 32462 20000 10264 20237 30078 40087 52024 81202 333 10320 56199 58007 81815
AAXX 21121 98644 31465 40501 10270 20243 30079 40088 53018 70144 81268 333 10322 56999 58005 81817 84272
AAXX 21121 98648 31470 20302 10248 20220 30012 40094 52021 70544 81201 333 10315 56299 58002 81817
AAXX 21121 98746 31462 70902 10283 20233 40093 52029 71344 82977 333 10337 56999 59001 82918 84358 86275
AAXX 21121 98751 31470 20401 10218 20198 39415 40089 52025 70544 82200 333 10305 56999 58001 82815
AAXX 21121 98752 31460 53601 10273 20264 40098 52020 71542 82578 333 10328 56999 58005 81616 83358 85275
AAXX 21121 98851 31470 40000 10276 20241 39926 40074 53024 70544 81106 333 10344 56999 59002 81818 84075
BBXX 2AUO5 21123 99606 10016 41698 21709 10074 21017 40106 52011 7//11 8/15/ 22200 20903 80040
BBXX AMOUK08 21124 99501 70061 46/// ///// 10122 20109 30249 40255 52022 91150
BBXX 63110 21124 99595 10015 47999 /1610 10059 21011 40112 58001 700// 22200 10704 70018
BBXX 63106 21124 99610 10017 46/// /2009 10059 40101 58004 22200
BBXX 63105 21124 99610 10017 47998 ///// 10066 21038 40100 58004 700// 22200
BBXX 62304 21124 99511 10018 46/98 /3214 10086 20079 40169 51015 22200 00110 10601 70006
BBXX 62094 21124 99517 70067 46/// /2413 10111 20098 40230 52015 22200 00106 10604 70020
BBXX 62103 21124 99499 70029 46/98 /2818 10124 20110 40220 51024 22200 00123 10703 70016 333 90710 91125
BBXX 42013 21121 99272 70829 46/// ///// 1//// 40196 91220 22200 00197
BBXX 42013 21121 99272 70829 46/// ///// 1//// 40195 55000 91200 22200 00197
BBXX 46092 21121 99368 71220 46/// /0906 10089 40174 91209 22200 00124 555 11062 22067
BBXX VRDX2 21123 99089 31305 41/97 /2718 10270 20243 40064 7//// 8/776 22264 00310 20404
BBXX V2QD4 21123 99371 31777 41498 30914 10171 20130 40282 58007 70100 83141 22234 00180 20502
BBXX SKEC 21121 99576 10180 46/// ///// 10027 40078 52011 22241 00088
AAXX 21121 33902 /1597 82204 10063 20047 39977 40043 53004 70282 883// 555 60021
AAXX 21124 71408 46/// /3027 11040 21087 30062 40142 5/032 6///1 333 10017 7////
AAXX 21121 33902 /1597 82204 10063 20047 39977 40043 53004 70282 883// 555 60021
BBXX ONFP 21124 99213 30652 41697 51124 10260 2022/ 40170 54000 7//22 85444 22213 04252 20506 311// 4//// 5//// 6//// 80230 /////
AAXX 21121 20292 32998 22002 11256 21281 30251 40272 52001 82030 333 11238 91106
AAXX 21121 20069 11463 81508 11095 21125 30129 40142 52002 69922 77173 8452/ 333 11067 84613
BBXX C6TH9 21123 99175 51495 41296 81005 10240 2020/ 40140 54/// 79599 876// 22200 00250 2//// 3//// 4//// 5//// 6//// 80210 ICE /////
BBXX 42013 21121 99272 70829 46/// ///// 1//// 40195 55000 91200 22200 00197
BBXX 42013 21121 99272 70829 46/// ///// 1//// 40196 91220 22200 00197
BBXX 63055 21124 99606 10016 47999 /1509 10060 21035 40101 58005 700// 22200 10703 70017
BBXX 63106 21124 99610 10017 46/// /2009 10059 40101 58004 22200
BBXX 63113 21124 99610 10017 46/// /1910 10062 21041 40101 58003 22200 10805 70023
BBXX 62304 21124 99511 10018 46/98 /3214 10086 20079 40169 51215 22200 00110 10601 70006
BBXX 62107 21124 99501 70061 46/// /3125 10119 20101 40255 52011 22200 00117 10805 70024 333 90710 91135
BBXX 62094 21124 99517 70067 46/// /2513 1//// 2//// 4//// 5//// 22200 00105 10604 70020
BBXX 62103 21124 99499 70029 46/98 /2817 10122 20109 40216 50011 22200 00123 10703 70017 333 90710 91127
BBXX 63110 21123 99595 10015 41/98 /1515 10058 40106 70322 8//5/ 22200 10604 70018
BBXX 42369 21121 99272 70903 46/// /2107 1//// 91140 22200 10704 70022
BBXX 42370 21121 99273 70905 46/// ///// 10197 91140 22200 10402 70009
BBXX 42376 21121 99291 70879 46/// /1804 10223 40138 91140 22200 10604 70018
BBXX 42887 21121 99282 70885 46/// /2503 1//// 91140 22200 10604 70022
BBXX 4XFB 21124 99397 10009 41498 33111 10170 20105 40230 54000 70000 846// 22283 00190 22012 336// 4//// 5//// 80135
BBXX 4XFB 21124 99397 10009 41498 33111 10170 20105 40230 54000 70000 846// 22283 00190 22012 336// 4//// 5//// 80135
BBXX C6TH9 21123 99175 51495 41296 81005 10240 2020/ 40140 54/// 79599 876// 22200 00250 2//// 3//// 4//// 5//// 6//// 80210 ICE /////
BBXX 42376 21121 99291 70879 46/// /1804 10223 40138 91140 22200 10604 70018
BBXX 42370 21121 99273 70905 46/// ///// 10197 91140 22200 10402 70009
BBXX 42887 21121 99282 70885 46/// /2503 1//// 91140 22200 10604 70022
BBXX 42369 21121 99272 70903 46/// /2107 1//// 91140 22200 10704 70022
BBXX 4XFB 21124 99397 10009 41498 33111 10170 20105 40230 54000 70000 846// 22283 00190 22012 336// 4//// 5//// 80135
AAXX 21124 16434 11360 70317 10020 20017 38861 48369 52039 60021 72162 87800 333 85809 85614 95070 95100
AAXX 21124 65338 32558 71804 10326 20210 39920 40105 84202 333 0//00 59015 84826 84076 94919 95839
AAXX 21124 DUPE
AAXX 21124 60367 11565 7//// 10134 20108 40200 51001 60031 70292 878// 333 0//13 83820 87840
AAXX 21124 91375 46/// /0313 10246 40074 22200 00281
BBXX 42369 21121 99272 70903 46/// /2106 1//// 91200 22200 10704 70021
BBXX 42370 21121 99273 70905 46/// ///// 10199 91200 22200 10402 70009
AAXX 21124 91165 11456 80317 10211 20189 30142 40178 56005 69951 761// 91153
AAXX 21124 91212 32566 20708 10272 20228 31368 40103 50011 91154
AAXX 21124 91245 32566 40713 10270 20230 30147 91155
AAXX 21124 91285 12566 60000 10194 20189 30137 40149 56012 60051 91153
AAXX 21124 91334 11474 83410 10267 20233 30078 40081 51003 69931 70282 82171
AAXX 21124 91348 11472 80903 10261 20246 30042 40095 50002 69981 78082 8527/
AAXX 21124 91356 11466 81007 10272 20241 30072 40079 51003 60131 70282 85272
AAXX 21124 91367 32474 30815 10272 20257 83120
AAXX 21124 91376 32474 80516 10280 20235 30075 40078 50002 85878
AAXX 21124 91408 11474 81008 10271 20247 30037 40075 53005 60021 70282 82278
AAXX 21124 91413 11469 80908 10257 20240 30064 40090 52010 60071 72582 83372
AAXX 21124 91610 11498 70812 10259 20239 40068 50003 69941 72518 85220
AAXX 21124 91155 NIL
AAXX 21124 91203 NIL
AAXX 21124 91217 NIL
AAXX 21124 91232 NIL
AAXX 21124 91250 NIL
AAXX 21124 91275 NIL
AAXX 21124 91317 NIL
AAXX 21124 91324 NIL
AAXX 21124 91339 NIL
AAXX 21124 91353 NIL
AAXX 21124 91366 NIL
AAXX 21124 91369 NIL
AAXX 21124 91371 NIL
AAXX 21124 91378 NIL
AAXX 21124 91425 NIL
AAXX 21124 91434 NIL
AAXX 21124 91601 NIL
BBXX 2AUO5 21123 99606 10016 41698 21709 10074 21017 40106 52011 7//11 8/15/ 22200 20903 80040
BBXX AMOUK08 21124 99501 70061 46/// ///// 10122 20109 30249 40255 52022 91150
BBXX 63110 21124 99595 10015 47999 /1610 10059 21011 40112 58001 700// 22200 10704 70018
BBXX 63106 21124 99610 10017 46/// /2009 10059 40101 58004 22200
BBXX 63105 21124 99610 10017 47998 ///// 10066 21038 40100 58004 700// 22200
BBXX 62304 21124 99511 10018 46/98 /3214 10086 20079 40169 51015 22200 00110 10601 70006
BBXX 62094 21124 99517 70067 46/// /2413 10111 20098 40230 52015 22200 00106 10604 70020
BBXX 62103 21124 99499 70029 46/98 /2818 10124 20110 40220 51024 22200 00123 10703 70016 333 90710 91125
AAXX 21124 91165 11456 80317 10211 20189 30142 40178 56005 69951 761// 91153
AAXX 21124 91212 32566 20708 10272 20228 31368 40103 50011 91154
AAXX 21124 91285 12566 60000 10194 20189 30137 40149 56012 60051 91153
AAXX 21124 91334 11474 83410 10267 20233 30078 40081 51003 69931 70282 82171
AAXX 21124 91348 11472 80903 10261 20246 30042 40095 50002 69981 78082 8527/
AAXX 21124 91356 11466 81007 10272 20241 30072 40079 51003 60131 70282 85272
AAXX 21124 91376 32474 80516 10280 20235 30075 40078 50002 85878
AAXX 21124 91408 11474 81008 10271 20247 30037 40075 53005 60021 70282 82278
AAXX 21124 91413 11469 80908 10257 20240 30064 40090 52010 60071 72582 83372
AAXX 21124 91245 32566 40713 10270 20230 30147 91155
BBXX 42369 21121 99272 70903 46/// /2106 1//// 91200 22200 10704 70021
BBXX 42370 21121 99273 70905 46/// ///// 10199 91200 22200 10402 70009
AAXX 21124 71494 16/// /2104 11085 21114 39625 40162 56005 60001 333 11054 21157 70000
AAXX 21124 71512 16/// /0201 11143 21158 30121 40136 58007 60001 333 11051 21197 70000
AAXX 21124 97260 32558 30000 10285 20259 30059 40066 52022 82501 333 10321 56000 58016 82620
BBXX 42376 21121 99291 70879 46/// /1804 10223 40141 53010 91200 22200 10604 70018
BBXX 42887 21121 99282 70885 46/// /2502 1//// 91200 22200 10604 70021
BBXX 42376 21121 99291 70879 46/// /1804 10223 40141 53010 91200 22200 10604 70018
BBXX 42887 21121 99282 70885 46/// /2502 1//// 91200 22200 10604 70021
BBXX 42047 21121 99279 70936 46/// /0107 10162 20124 40152 91230 22200 00225 333 91209
BBXX 42047 21121 99279 70936 46/// /0107 10162 20118 40146 91200 22200 00226 333 91209
BBXX 42044 21121 99262 70971 46/// /0604 10177 20131 40140 91230 22200 00172 333 91207
BBXX 63055 21124 99606 10016 47999 /1509 10060 21035 40101 58005 700// 22200 10703 70017
BBXX 63106 21124 99610 10017 46/// /2009 10059 40101 58004 22200
BBXX 63113 21124 99610 10017 46/// /1910 10062 21041 40101 58003 22200 10805 70023
BBXX 62304 21124 99511 10018 46/98 /3214 10086 20079 40169 51215 22200 00110 10601 70006
BBXX 62107 21124 99501 70061 46/// /3125 10119 20101 40255 52011 22200 00117 10805 70024 333 90710 91135
BBXX 62094 21124 99517 70067 46/// /2513 1//// 2//// 4//// 5//// 22200 00105 10604 70020
BBXX 62103 21124 99499 70029 46/98 /2817 10122 20109 40216 50011 22200 00123 10703 70017 333 90710 91127
BBXX 63110 21123 99595 10015 41/98 /1515 10058 40106 70322 8//5/ 22200 10604 70018
BBXX 42369 21121 99272 70903 46/// /2106 1//// 91220 22200 10704 70021
BBXX 42370 21121 99273 70905 46/// ///// 10204 91220 22200 10402 70009
BBXX 42376 21121 99291 70879 46/// /1804 10223 40141 91220 22200 10604 70018
BBXX 42887 21121 99282 70885 46/// /2501 1//// 91220 22200 10604 70020
BBXX 42369 21121 99272 70903 46/// /2106 1//// 91220 22200 10704 70021
BBXX 42376 21121 99291 70879 46/// /1804 10223 40141 91220 22200 10604 70018
BBXX 42887 21121 99282 70885 46/// /2501 1//// 91220 22200 10604 70020
BBXX 42370 21121 99273 70905 46/// ///// 10204 91220 22200 10402 70009
BBXX 42047 21121 99279 70936 46/// /0107 10162 20124 40152 91230 22200 00225 333 91209
BBXX 42047 21121 99279 70936 46/// /0107 10162 20118 40146 91200 22200 00226 333 91209
BBXX 42044 21121 99262 70971 46/// /0604 10177 20131 40140 91230 22200 00172 333 91207
BBXX OXES2 21124 99395 70288 41998 21723 10180 2//// 40270 54/// 702// 8///2 22224 00170 20704 321// 41002 5//// 6//// 8//// ICE /////
BBXX OXES2 21124 99395 70288 41998 21723 10180 2//// 40270 54/// 702// 8///2 22224 00170 20704 321// 41002 5//// 6//// 8//// ICE /////
BBXX A8UA9 21124 99176 70181 41696 61613 10220 20206 40220 50/// 710// 86446 22243 00200 20402 316// 40402 80210
BBXX ELWO6 21123 99455 70080 41297 73214 10148 20126 40322 57008 70322 87678 22214 00137 80135
BBXX A8YJ9 21124 99189 50385 414// 60207 10260 20225 40135 57005 70322 86174 22254 04250 2//01 80235
BBXX A8ZS7 21124 99361 30017 41798 72416 10170 20094 40140 51025 70322 8/6// 22264 04140 20402 325// 40905
BBXX DGOQ 21124 99544 10109 43298 13120 10040 40120 53010 816// 22283 04050
BBXX DAJT 21124 99217 30554 41298 40828 10260 20232 40068 56020 70211 8/6// 22254 04260 2//05 80240
BBXX DAJT 21124 99217 30554 41298 40828 10260 20232 40068 56020 70211 8/6// 22254 04260 2//05 80240
AAXX 21124 71442 16/// /3105 11038 21051 39759 40074 51024 60001 333 10014 21056 70000
BBXX DAJT 21124 99217 30554 41298 40828 10260 20232 40068 56020 70211 8/6// 22254 04260 2//05 80240
BBXX A8ZS7 21124 99361 30017 41798 72416 10170 20094 40140 51025 70322 8/6// 22264 04140 20402 325// 40905
AAXX 21124 71442 16/// /3105 11038 21051 39759 40074 51024 60001 333 10014 21056 70000
AAXX 21121 38932 42999 21401 11059 21085 40425 52010 80003
BBXX MINFR09 2112/ 99273 31532 46/// ///// 40160 52012
BBXX 2AUO5 21123 99606 10016 41698 21709 10074 21017 40106 52011 7//11 8/15/ 22200 20903 80040
BBXX AMOUK08 21124 99501 70061 46/// ///// 10122 20109 30249 40255 52022 91150
BBXX 63110 21124 99595 10015 47999 /1610 10059 21011 40112 58001 700// 22200 10704 70018
BBXX 63106 21124 99610 10017 46/// /2009 10059 40101 58004 22200
BBXX 63105 21124 99610 10017 47998 ///// 10066 21038 40100 58004 700// 22200
BBXX 62304 21124 99511 10018 46/98 /3214 10086 20079 40169 51015 22200 00110 10601 70006
BBXX 62094 21124 99517 70067 46/// /2413 10111 20098 40230 52015 22200 00106 10604 70020
BBXX 62103 21124 99499 70029 46/98 /2818 10124 20110 40220 51024 22200 00123 10703 70016 333 90710 91125
BBXX MINFR09 2112/ 99273 31532 46/// ///// 40160 52012
BBXX DAJT 21124 99217 30554 41298 40828 10260 20232 40068 56020 70211 8/6// 22254 04260 2//05 80240
BBXX A8ZS7 21124 99361 30017 41798 72416 10170 20094 40140 51025 70322 8/6// 22264 04140 20402 325// 40905
BBXX A8UA9 21124 99176 70181 41696 61613 10220 20206 40220 50/// 710// 86446 22243 00200 20402 316// 40402 80210
BBXX A8YJ9 21124 99189 50385 414// 60207 10260 20225 40135 57005 70322 86174 22254 04250 2//01 80235
BBXX DGOQ 21124 99544 10109 43298 13120 10040 40120 53010 816// 22283 04050
BBXX ELWO6 21123 99455 70080 41297 73214 10148 20126 40322 57008 70322 87678 22214 00137 80135
BBXX ELWO6 21123 99455 70080 41297 73214 10148 20126 40322 57008 70322 87678 22214 00137 80135
BBXX OXES2 21124 99395 70288 41998 21723 10180 2//// 40270 54/// 702// 8///2 22224 00170 20704 321// 41002 5//// 6//// 8//// /////
AAXX 21121 15480 01496 82904 10028 20025 30120 40137 53015 69931 71076 886// 222// 06065 2//// 333 60007 91009 91109 92446
AAXX 21121 15480 01496 82904 10028 20025 30120 40137 53015 69931 71076 886// 222// 06065 2//// 333 60007 91009 91109 92446
BBXX 9V7645 21123 99281 70776 41797 71415 10230 20185 40193 52003 70311 8388/ 22234 04250 20201 31505 40402 51004 6//// 80200 ICE /////
BBXX 9V7645 21123 99281 70776 41797 71415 10230 20185 40193 52003 70311 8388/ 22234 04250 20201 31505 40402 51004 6//// 80200 ICE /////
BBXX A8PB2 21124 99135 10741 41/96 /2604 10255 20197 40095 52015 70500 8//// 22274 04290 2//// 80215
AAXX 21124 41268 31958 10113 10230 20083 30173 40189 70600 81030 91456 333 58008 81362
AAXX 21124 41268 31958 10113 10230 20083 30173 40189 70600 81030 91456 333 58008 81362
BBXX 63055 21124 99606 10016 47999 /1509 10060 21035 40101 58005 700// 22200 10703 70017
BBXX 63106 21124 99610 10017 46/// /2009 10059 40101 58004 22200
BBXX 63113 21124 99610 10017 46/// /1910 10062 21041 40101 58003 22200 10805 70023
BBXX 62304 21124 99511 10018 46/98 /3214 10086 20079 40169 51215 22200 00110 10601 70006
BBXX 62107 21124 99501 70061 46/// /3125 10119 20101 40255 52011 22200 00117 10805 70024 333 90710 91135
BBXX 62094 21124 99517 70067 46/// /2513 1//// 2//// 4//// 5//// 22200 00105 10604 70020
BBXX 62103 21124 99499 70029 46/98 /2817 10122 20109 40216 50011 22200 00123 10703 70017 333 90710 91127
BBXX 63110 21123 99595 10015 41/98 /1515 10058 40106 70322 8//5/ 22200 10604 70018
BBXX A8TX8 21123 99225 31109 41/98 11619 10260 20215 40092 56/// 70200 8//// 22285 04250 21003 318// 41604 80230
BBXX A8TX8 21123 99225 31109 41/98 11619 10260 20215 40092 56/// 70200 8//// 22285 04250 21003 318// 41604 80230
BBXX A8PB2 21124 99135 10741 41/96 /2604 10255 20197 40095 52015 70500 8//// 22274 04290 2//// 80215
AAXX 21121 26781 41295 83302 11020 21023 39773 40072 52006 77372 8872/ 333 88704
AAXX 21121 27271 /1594 81104 11073 21094 30029 40191 53001 78682 8292/
AAXX 21121 26702 41996 00000 11036 21047 30108 40135 52014 71011 333 91000 91101
AAXX 21121 02805 42999 01502 11191 21217 39939 40082 52011 70200
AAXX 21124 89065 46/// /1404 11015 21037 39836 49914 57008 91240
AAXX 21124 89262 46/// /2103 10017 21034 39894 49937 5//// 91240
AAXX 21123 63612 32680 21205 10348 20116 40072 82100 333 59006 82834
AAXX 2112/ 89868 46/// ///// 11071 39696 4//// 5////
AAXX 21123 91554 31598 80000 10250 20243 40086 58001 70222 888// 333 10305 569// 59012 84818 88640
AAXX 21123 91554 31598 80000 10250 20243 40086 58001 70222 888// 333 10305 569// 59012 84818 88640
AAXX 21123 89065 46/// /1404 11015 21037 39836 49914 57008 91240
BBXX 2AUO5 21123 99606 10016 41698 21709 10074 21017 40106 52011 7//11 8/15/ 22200 20903 80040
BBXX AMOUK08 21124 99501 70061 46/// ///// 10122 20109 30249 40255 52022 91150
BBXX 63110 21124 99595 10015 47999 /1610 10059 21011 40112 58001 700// 22200 10704 70018
BBXX 63106 21124 99610 10017 46/// /2009 10059 40101 58004 22200
BBXX 63105 21124 99610 10017 47998 ///// 10066 21038 40100 58004 700// 22200
BBXX 62304 21124 99511 10018 46/98 /3214 10086 20079 40169 51015 22200 00110 10601 70006
BBXX 62094 21124 99517 70067 46/// /2413 10111 20098 40230 52015 22200 00106 10604 70020
BBXX 62103 21124 99499 70029 46/98 /2818 10124 20110 40220 51024 22200 00123 10703 70016 333 90710 91125
AAXX 21124 03008 11480 81620 10062 20013 40076 69901 76061 8572/ 91150 333 84715 88458 90710 91128
BBXX A8TX8 21123 99225 31109 41/98 11619 10260 20215 40092 56/// 70200 8//// 22285 04250 21003 318// 41604 80230
BBXX ZCDF4 21123 99305 71168 41398 13216 10150 20132 40166 54000 70200 81100 22245 00150 20101 332// 40603 5//// 80140
AAXX 21124 71723 16/// /0607 11086 21104 30151 40161 58002 60001 333 11043 21118 70000
AAXX 21124 71427 16/// /2324 11042 21081 30113 40121 56011 60001 333 11055 21130 70000
AAXX 21124 96839 32557 70000 10270 20241 30077 40084 52012 83532 333 56000 83622
AAXX 21121 30686 11999 03201 11232 21288 39858 40261 52001 69932 70231 333 11175
BBXX MINFR03 2112/ 99118 10705 46/// ///// 10285 40088 57005
AAXX 21124 71758 16/// /2308 11070 21091 30138 40217 53022 60001 333 10002 21075 70000
AAXX 21124 89614 46/// /0926 11037 29079 38965 4//// 5//// 333 90700 91134
AAXX 21124 89614 46/// /0926 11037 29079 38965 4//// 5//// 333 90700 91134
AAXX 2112/ 89872 46/// ///// 11030 39716 4//// 5//// 91210
AAXX 2112/ 89872 46/// ///// 11030 39717 4//// 5//// 91220
AAXX 2112/ 89869 46/// ///// 11035 39693 4//// 5//// 91210
AAXX 2112/ 89866 46/// ///// 11043 39665 4//// 5//// 91220
AAXX 2112/ 89329 46/// ///// 11078 38809 4//// 5////
AAXX 2112/ 89329 46/// ///// 11078 38812 4//// 5//// 91210
AAXX 2112/ 89329 46/// ///// 11078 38812 4//// 5//// 91220
AAXX 2112/ 89799 46/// ///// 11223 4//// 5//// 91210
AAXX 2112/ 89868 46/// ///// 11069 39697 4//// 5//// 91210
AAXX 2112/ 89868 46/// ///// 11066 39697 4//// 5//// 91220
AAXX 2112/ 89332 46/// ///// 11054 39283 4//// 5//// 91210
AAXX 2112/ 89332 46/// ///// 11054 39283 4//// 5//// 91220
AAXX 2112/ 89769 46/// ///// 11029 39726 4//// 5//// 91210
AAXX 2112/ 89314 46/// ///// 11061 38255 4//// 5//// 91210
AAXX 2112/ 89314 46/// ///// 11061 38257 4//// 5//// 91220
AAXX 2112/ 89327 46/// ///// 11016 39626 4//// 5////
AAXX 2112/ 89327 46/// ///// 11016 39626 4//// 5//// 91210
AAXX 2112/ 89828 46/// ///// 11226 36463 4//// 5//// 91210
AAXX 2112/ 89108 46/// ///// 11209 36985 4//// 5//// 91210
AAXX 2112/ 89108 46/// ///// 11210 36985 4//// 5//// 91220
AAXX 2112/ 89879 46/// ///// 11020 39677 4//// 5//// 91210
AAXX 2112/ 89879 46/// ///// 11020 39678 4//// 5//// 91220
BBXX 42043 21121 99290 70949 46/// /0108 1//// 40167 91230 22200 00166 333 91210
BBXX 42046 21121 99279 70940 46/// /0207 1//// 40153 91230 22200 00226 333 91209
BBXX 42046 21121 99279 70940 46/// /0207 1//// 40151 91200 22200 00226 333 91209
BBXX MINFR03 2112/ 99118 10705 46/// ///// 10285 40088 57005
BBXX 42046 21121 99279 70940 46/// /0207 1//// 40153 91230 22200 00226 333 91209
BBXX 42046 21121 99279 70940 46/// /0207 1//// 40151 91200 22200 00226 333 91209
BBXX 42043 21121 99290 70949 46/// /0108 1//// 40167 91230 22200 00166 333 91210
AAXX 21124 17237 11670 70000 10122 20044 39656 40157 55010 69901 70282 85270 333 85835 87358 91107
AAXX 21124 96237 32457 80000 10268 20246 30029 40070 51012 85272 333 10319 56000 57801 58002 85816 85359 80859
BBXX 63055 21124 99606 10016 47999 /1509 10060 21035 40101 58005 700// 22200 10703 70017
BBXX 63106 21124 99610 10017 46/// /2009 10059 40101 58004 22200
BBXX 63113 21124 99610 10017 46/// /1910 10062 21041 40101 58003 22200 10805 70023
BBXX 62304 21124 99511 10018 46/98 /3214 10086 20079 40169 51215 22200 00110 10601 70006
BBXX 62107 21124 99501 70061 46/// /3125 10119 20101 40255 52011 22200 00117 10805 70024 333 90710 91135
BBXX 62094 21124 99517 70067 46/// /2513 1//// 2//// 4//// 5//// 22200 00105 10604 70020
BBXX 62103 21124 99499 70029 46/98 /2817 10122 20109 40216 50011 22200 00123 10703 70017 333 90710 91127
BBXX 63110 21123 99595 10015 41/98 /1515 10058 40106 70322 8//5/ 22200 10604 70018
AAXX 21123 63695 32580 40603 10248 20146 84200 333 84825
BBXX C6FY5 21124 99095 70653 41597 60724 10250 2022/ 40170 51100 72155 8527/ 22273 04270 20204 305// 40508 5//// 6//// 80230 ICE /////
BBXX C6FY5 21124 99095 70653 41597 60724 10250 2022/ 40170 51100 72155 8527/ 22273 04270 20204 305// 40508 5//// 6//// 80230 ICE /////
AAXX 21124 84142 11110 80000 10162 20159 60044 75056 887// 333 10210 20156 555 10037 30098
AAXX 21124 84173 11360 80902 10102 20095 60024 75055 887// 333 10185 20100 555 10016 30096
AAXX 21124 84036 11564 83602 10106 20100 60024 71522 8655/ 333 10158 20072 555 10016 30096
AAXX 21124 84050 31560 80000 10222 20217 74042 886// 333 10295 20220 555 30097
AAXX 21124 84135 31570 81402 10232 20203 30051 70544 886// 333 10322 20227 59015 555 30084
AAXX 21124 84202 31570 80000 10230 20213 30133 70542 885// 333 10292 20226 59020 555 30090
AAXX 21124 84105 11230 80000 10218 20215 39999 60034 75155 887// 333 10295 20218 59001 555 10026 30098
AAXX 21124 84056 11/00 92302 10096 20096 69934 74344 89/// 333 10200 20092 555 10003 30100
AAXX 21124 84076 11202 80000 10120 20112 69954 74445 886// 333 10222 20120 30113 555 10005 30095
AAXX 21124 84270 11540 80000 10140 20123 60074 75155 887// 333 10197 20128 555 10071 30089
AAXX 21124 84143 11258 71504 10112 20103 37397 69944 72052 87600 333 10236 20110 30100 59006 555 10004 30094
AAXX 21124 84179 11310 80000 10190 20183 39070 60124 76162 887// 333 10242 20186 59002 555 10124 30096
AAXX 21124 84140 11350 80000 10226 20218 30014 40099 60234 71066 886// 333 10323 20223 59014 555 10232 30095
AAXX 21124 84160 11340 80904 10099 20088 37261 69954 75055 888// 333 10171 20095 59004 555 10005 30093
AAXX 21124 84204 31670 82304 10238 20208 70544 8113/ 333 10316 20232 555 30083
AAXX 21124 84132 12375 70000 10240 20235 39885 60074 84160 333 10292 20236 59006 555 10067 30097
AAXX 21124 84088 32570 80000 10088 20085 37058 888// 333 10182 20066 30060 59011 555 30098
AAXX 21124 84072 12570 70000 10115 20098 37286 69914 87500 333 10217 20104 59014 555 10001 30089
AAXX 21124 84045 31320 80000 10079 20077 74542 886// 333 10142 20064 555 30099
AAXX 21124 84226 12680 81804 10090 20090 69924 885// 333 10142 20074 555 10002 30100
AAXX 21124 84008 32570 81406 10226 20197 30100 40110 888// 00207 333 10287 20221 59013 555 30084 40206
AAXX 21124 84001 31560 81310 10225 20202 30079 40099 70544 885// 333 20220 59018
AAXX 21124 84010 31665 81310 10224 20212 70542 8653/ 333 20220
AAXX 21124 84018 11665 71903 10244 20221 30090 40097 69904 70544 83570 333 20241 59015 555 1 T
AAXX 21124 84027 11340 80000 10099 20099 37165 47134 60034 74042 885// 333 20096 59010 555 10030
AAXX 21124 84063 12360 80000 10223 20220 39754 40091 60194 8552/ 333 20219 59012 555 10190
AAXX 21124 84069 11220 80000 10208 20202 60034 75154 8651/ 333 20193 555 10027
AAXX 21124 84071 11670 53202 10126 20089 37270 47120 69904 70242 85500 333 20097 59014 555 1 T
AAXX 21124 84099 11570 80000 10225 20210 3//// 40120 60104 70262 8251/ 333 20220 58/// 555 10100
AAXX 21124 84117 31560 82304 10243 20202 30079 40102 70544 885// 333 20238 59017
AAXX 21124 84123 31158 71912 10099 20096 37290 47122 74042 85570 333 20093 59009
AAXX 21124 84147 11430 80000 10120 20114 69954 74042 8752/ 333 20120 555 10005
AAXX 21124 84151 11556 80000 10217 20213 60074 74044 8652/ 333 20215 555 10070
AAXX 21124 84163 11460 81901 10186 20176 38953 48499 60174 76165 8652/ 333 20181 58001 555 10170
AAXX 21124 84176 11458 80000 10106 20100 60024 72055 885// 333 20102 555 10020
AAXX 21124 84200 31460 62804 10232 20203 70544 81530 333 20224
AAXX 21124 84203 11660 71902 10239 20190 30084 40089 69964 70564 81530 333 20230 59019 555 10006
AAXX 21124 84217 11540 80204 10184 20178 60114 76162 8651/ 333 20180 555 10110
AAXX 21124 84239 11560 80901 10131 20131 37532 47131 69934 70244 8551/ 333 20127 59009 555 10003
AAXX 21124 84252 31562 80901 10237 20222 30092 40100 70544 885// 333 20228 59018
AAXX 21124 84265 12580 60000 10186 20174 38754 4//// 69934 84130 333 20184 59015 555 10003
BBXX ZCDF4 21123 99305 71168 41398 13216 10150 20132 40166 54000 70200 81100 22245 00150 20101 332// 40603 5//// 80140
AAXX 21124 89528 46/// /0225 11104 36765 4//// 5////
BBXX 2AUO5 21123 99606 10016 41698 21709 10074 21017 40106 52011 7//11 8/15/ 22200 20903 80040
BBXX AMOUK08 21124 99501 70061 46/// ///// 10122 20109 30249 40255 52022 91150
BBXX 63110 21124 99595 10015 47999 /1610 10059 21011 40112 58001 700// 22200 10704 70018
BBXX 63106 21124 99610 10017 46/// /2009 10059 40101 58004 22200
BBXX 63105 21124 99610 10017 47998 ///// 10066 21038 40100 58004 700// 22200
BBXX 62304 21124 99511 10018 46/98 /3214 10086 20079 40169 51015 22200 00110 10601 70006
BBXX 62094 21124 99517 70067 46/// /2413 10111 20098 40230 52015 22200 00106 10604 70020
BBXX 62103 21124 99499 70029 46/98 /2818 10124 20110 40220 51024 22200 00123 10703 70016 333 90710 91125
BBXX A8CB7 21123 99216 30560 41497 30517 10290 20263 40120 54000 70122 83248 22254 06270 21005 31112 40804 50905 80270
BBXX A8CB7 21123 99216 30560 41497 30517 10290 20263 40120 54000 70122 83248 22254 06270 21005 31112 40804 50905 80270
BBXX A8CB7 21123 99216 30560 41497 30517 10290 20263 40120 54000 70122 83248 22254 06270 21005 31112 40804 50905 80270
AAXX 21121 10852 01565 82606 10018 20002 39613 40195 58002 60011 72176 8282/ 333 31/// 41998 55300 20356 30356 69907 81822 88460
BBXX 63055 21124 99606 10016 47999 /1509 10060 21035 40101 58005 700// 22200 10703 70017
BBXX 63106 21124 99610 10017 46/// /2009 10059 40101 58004 22200
BBXX 63113 21124 99610 10017 46/// /1910 10062 21041 40101 58003 22200 10805 70023
BBXX 62304 21124 99511 10018 46/98 /3214 10086 20079 40169 51215 22200 00110 10601 70006
BBXX 62107 21124 99501 70061 46/// /3125 10119 20101 40255 52011 22200 00117 10805 70024 333 90710 91135
BBXX 62094 21124 99517 70067 46/// /2513 1//// 2//// 4//// 5//// 22200 00105 10604 70020
BBXX 62103 21124 99499 70029 46/98 /2817 10122 20109 40216 50011 22200 00123 10703 70017 333 90710 91127
BBXX 63110 21123 99595 10015 41/98 /1515 10058 40106 70322 8//5/ 22200 10604 70018
BBXX 2AUO5 21123 99606 10016 41698 21709 10074 21017 40106 52011 7//11 8/15/ 22200 20903 80040
BBXX AMOUK08 21124 99501 70061 46/// ///// 10122 20109 30249 40255 52022 91150
BBXX 63110 21124 99595 10015 47999 /1610 10059 21011 40112 58001 700// 22200 10704 70018
BBXX 63106 21124 99610 10017 46/// /2009 10059 40101 58004 22200
BBXX 63105 21124 99610 10017 47998 ///// 10066 21038 40100 58004 700// 22200
BBXX 62304 21124 99511 10018 46/98 /3214 10086 20079 40169 51015 22200 00110 10601 70006
BBXX 62094 21124 99517 70067 46/// /2413 10111 20098 40230 52015 22200 00106 10604 70020
BBXX 62103 21124 99499 70029 46/98 /2818 10124 20110 40220 51024 22200 00123 10703 70016 333 90710 91125
AAXX 21124 71611 16/// /0406 11078 21098 60001 333 21131 7////
BBXX 63055 21124 99606 10016 47999 /1509 10060 21035 40101 58005 700// 22200 10703 70017
BBXX 63106 21124 99610 10017 46/// /2009 10059 40101 58004 22200
BBXX 63113 21124 99610 10017 46/// /1910 10062 21041 40101 58003 22200 10805 70023
BBXX 62304 21124 99511 10018 46/98 /3214 10086 20079 40169 51215 22200 00110 10601 70006
BBXX 62107 21124 99501 70061 46/// /3125 10119 20101 40255 52011 22200 00117 10805 70024 333 90710 91135
BBXX 62094 21124 99517 70067 46/// /2513 1//// 2//// 4//// 5//// 22200 00105 10604 70020
BBXX 62103 21124 99499 70029 46/98 /2817 10122 20109 40216 50011 22200 00123 10703 70017 333 90710 91127
BBXX 63110 21123 99595 10015 41/98 /1515 10058 40106 70322 8//5/ 22200 10604 70018
AAXX 21124 82824 41458 70000 10255 20240 30012 40113 72196 82530 333 20248 59014
BBXX 52243 21121 99193 11666 46/// ///// 1//// 91200 22200 00264
BBXX 51178 21121 99142 51695 46/// ///// 1//// 91200 22200 00285
BBXX 51174 21121 99142 51697 46/// ///// 1//// 91200 22200 00285
BBXX 51171 21121 99064 71623 46/// ///// 1//// 91200 22200 00277
BBXX 51170 21121 99168 71695 46/// ///// 1//// 91200 22200 00258
BBXX 51169 21121 99004 51600 46/// ///// 1//// 91200 22200 00258
BBXX 2AUO5 21123 99606 10016 41698 21709 10074 21017 40106 52011 7//11 8/15/ 22200 20903 80040
BBXX AMOUK08 21124 99501 70061 46/// ///// 10122 20109 30249 40255 52022 91150
BBXX 63110 21124 99595 10015 47999 /1610 10059 21011 40112 58001 700// 22200 10704 70018
BBXX 63106 21124 99610 10017 46/// /2009 10059 40101 58004 22200
BBXX 63105 21124 99610 10017 47998 ///// 10066 21038 40100 58004 700// 22200
BBXX 62304 21124 99511 10018 46/98 /3214 10086 20079 40169 51015 22200 00110 10601 70006
BBXX 62094 21124 99517 70067 46/// /2413 10111 20098 40230 52015 22200 00106 10604 70020
BBXX 62103 21124 99499 70029 46/98 /2818 10124 20110 40220 51024 22200 00123 10703 70016 333 90710 91125
BBXX 51169 21121 99004 51600 46/// ///// 1//// 91200 22200 00258
BBXX 51174 21121 99142 51697 46/// ///// 1//// 91200 22200 00285
BBXX 51178 21121 99142 51695 46/// ///// 1//// 91200 22200 00285
BBXX 52243 21121 99193 11666 46/// ///// 1//// 91200 22200 00264
BBXX 51170 21121 99168 71695 46/// ///// 1//// 91200 22200 00258
BBXX 51171 21121 99064 71623 46/// ///// 1//// 91200 22200 00277
BBXX MYNJ6 21123 99119 70913 41298 30211 10270 20228 40115 52015 70111 81081 22273 0//// 21202 303// 4//// 5//// 6//// 80240 ICE /////
BBXX MYNJ6 21123 99119 70913 41298 30211 10270 20228 40115 52015 70111 81081 22273 0//// 21202 303// 4//// 5//// 6//// 80240 ICE /////
AAXX 21124 60210 32970 22606 10150 21003 39081 48601 50002 80002 333 82070
BBXX 63055 21124 99606 10016 47999 /1509 10060 21035 40101 58005 700// 22200 10703 70017
BBXX 63106 21124 99610 10017 46/// /2009 10059 40101 58004 22200
BBXX 63113 21124 99610 10017 46/// /1910 10062 21041 40101 58003 22200 10805 70023
BBXX 62304 21124 99511 10018 46/98 /3214 10086 20079 40169 51215 22200 00110 10601 70006
BBXX 62107 21124 99501 70061 46/// /3125 10119 20101 40255 52011 22200 00117 10805 70024 333 90710 91135
BBXX 62094 21124 99517 70067 46/// /2513 1//// 2//// 4//// 5//// 22200 00105 10604 70020
BBXX 62103 21124 99499 70029 46/98 /2817 10122 20109 40216 50011 22200 00123 10703 70017 333 90710 91127
BBXX 63110 21123 99595 10015 41/98 /1515 10058 40106 70322 8//5/ 22200 10604 70018
AAXX 21121 78090 15/// /0000 10228 30241 40245 69901 91200 222// 00160
BBXX 2AUO5 21123 99606 10016 41698 21709 10074 21017 40106 52011 7//11 8/15/ 22200 20903 80040
BBXX AMOUK08 21124 99501 70061 46/// ///// 10122 20109 30249 40255 52022 91150
BBXX 63110 21124 99595 10015 47999 /1610 10059 21011 40112 58001 700// 22200 10704 70018
BBXX 63106 21124 99610 10017 46/// /2009 10059 40101 58004 22200
BBXX 63105 21124 99610 10017 47998 ///// 10066 21038 40100 58004 700// 22200
BBXX 62304 21124 99511 10018 46/98 /3214 10086 20079 40169 51015 22200 00110 10601 70006
BBXX 62094 21124 99517 70067 46/// /2413 10111 20098 40230 52015 22200 00106 10604 70020
BBXX 62103 21124 99499 70029 46/98 /2818 10124 20110 40220 51024 22200 00123 10703 70016 333 90710 91125
AAXX 21124 71372 16/// /1809 11003 21027 60001 333 11008 21722 70000
AAXX 21124 71357 16/// /0000 11254 21274 39961 49968 54000 60001 333 11204 21288 4/053 70000
BBXX 63055 21124 99606 10016 47999 /1509 10060 21035 40101 58005 700// 22200 10703 70017
BBXX 63106 21124 99610 10017 46/// /2009 10059 40101 58004 22200
BBXX 63113 21124 99610 10017 46/// /1910 10062 21041 40101 58003 22200 10805 70023
BBXX 62304 21124 99511 10018 46/98 /3214 10086 20079 40169 51215 22200 00110 10601 70006
BBXX 62107 21124 99501 70061 46/// /3125 10119 20101 40255 52011 22200 00117 10805 70024 333 90710 91135
BBXX 62094 21124 99517 70067 46/// /2513 1//// 2//// 4//// 5//// 22200 00105 10604 70020
BBXX 62103 21124 99499 70029 46/98 /2817 10122 20109 40216 50011 22200 00123 10703 70017 333 90710 91127
BBXX 63110 21123 99595 10015 41/98 /1515 10058 40106 70322 8//5/ 22200 10604 70018
BBXX 63119 21124 99583 10009 41698 81709 10067 20008 40112 54000 70222 885// 22200 20300 332// 40402 5////
AAXX 21123 87480 12965 40515 10277 20158 30032 40060 53003 69904 82089 333 10306 20247 56066 82360 83170 90984
BBXX 63119 21124 99583 10009 41698 81709 10067 20008 40112 54000 70222 885// 22200 20300 332// 40402 5////
BBXX 2AUO5 21123 99606 10016 41698 21709 10074 21017 40106 52011 7//11 8/15/ 22200 20903 80040
BBXX AMOUK08 21124 99501 70061 46/// ///// 10122 20109 30249 40255 52022 91150
BBXX 63110 21124 99595 10015 47999 /1610 10059 21011 40112 58001 700// 22200 10704 70018
BBXX 63106 21124 99610 10017 46/// /2009 10059 40101 58004 22200
BBXX 63105 21124 99610 10017 47998 ///// 10066 21038 40100 58004 700// 22200
BBXX 62304 21124 99511 10018 46/98 /3214 10086 20079 40169 51015 22200 00110 10601 70006
BBXX 62094 21124 99517 70067 46/// /2413 10111 20098 40230 52015 22200 00106 10604 70020
BBXX 62103 21124 99499 70029 46/98 /2818 10124 20110 40220 51024 22200 00123 10703 70016 333 90710 91125
AAXX 21121 01160 41789 81903 10025 21005 30023 40040 52010 70222 8657/ 333 91106
AAXX 21124 91723 NIL
AAXX 21124 91964 NIL
BBXX 63055 21124 99606 10016 47999 /1509 10060 21035 40101 58005 700// 22200 10703 70017
BBXX 63106 21124 99610 10017 46/// /2009 10059 40101 58004 22200
BBXX 63113 21124 99610 10017 46/// /1910 10062 21041 40101 58003 22200 10805 70023
BBXX 62304 21124 99511 10018 46/98 /3214 10086 20079 40169 51215 22200 00110 10601 70006
BBXX 62107 21124 99501 70061 46/// /3125 10119 20101 40255 52011 22200 00117 10805 70024 333 90710 91135
BBXX 62094 21124 99517 70067 46/// /2513 1//// 2//// 4//// 5//// 22200 00105 10604 70020
BBXX 62103 21124 99499 70029 46/98 /2817 10122 20109 40216 50011 22200 00123 10703 70017 333 90710 91127
BBXX 63110 21123 99595 10015 41/98 /1515 10058 40106 70322 8//5/ 22200 10604 70018
AAXX 21124 60195 32965 32612 10140 21051 38596 48609 50003 80002 333 83073 95500
AAXX 21124 71618 15964 03117 11270 21307 30073 40113 51013 60001 333 11110 21282 70000
AAXX 21124 71618 15964 03117 11270 21307 30073 40113 51013 60001 333 11110 21282 70000
AAXX 21121 31371 11996 83203 11202 21235 39914 40197 52012 69952 77172 8801/ 333 11189
BBXX 2AUO5 21123 99606 10016 41698 21709 10074 21017 40106 52011 7//11 8/15/ 22200 20903 80040
BBXX AMOUK08 21124 99501 70061 46/// ///// 10122 20109 30249 40255 52022 91150
BBXX 63110 21124 99595 10015 47999 /1610 10059 21011 40112 58001 700// 22200 10704 70018
BBXX 63106 21124 99610 10017 46/// /2009 10059 40101 58004 22200
BBXX 63105 21124 99610 10017 47998 ///// 10066 21038 40100 58004 700// 22200
BBXX 62304 21124 99511 10018 46/98 /3214 10086 20079 40169 51015 22200 00110 10601 70006
BBXX 62094 21124 99517 70067 46/// /2413 10111 20098 40230 52015 22200 00106 10604 70020
BBXX 62103 21124 99499 70029 46/98 /2818 10124 20110 40220 51024 22200 00123 10703 70016 333 90710 91125
BBXX WDE8293 21124 99368 70288 41598 41409 10180 20164 40260 56015 72561 82242 22265 00190 20202 305// 40304 5//// 6//// 80170 ICE /////
BBXX WDE8293 21124 99368 70288 41598 41409 10180 20164 40260 56015 72561 82242 22265 00190 20202 305// 40304 5//// 6//// 80170 ICE /////
BBXX WDE8293 21124 99368 70288 41598 41409 10180 20164 40260 56015 72561 82242 22265 00190 20202 305// 40304 5//// 6//// 80170 /////
BBXX WDE8265 21124 99404 70536 41/// /3219 10100 2001/ 40200 52200 752// 8//// 22214 0//// 2//// 332// 40604 5//// 6//// 80060 ICE /////
BBXX 63055 21124 99606 10016 47999 /1509 10060 21035 40101 58005 700// 22200 10703 70017
BBXX 63106 21124 99610 10017 46/// /2009 10059 40101 58004 22200
BBXX 63113 21124 99610 10017 46/// /1910 10062 21041 40101 58003 22200 10805 70023
BBXX 62304 21124 99511 10018 46/98 /3214 10086 20079 40169 51215 22200 00110 10601 70006
BBXX 62107 21124 99501 70061 46/// /3125 10119 20101 40255 52011 22200 00117 10805 70024 333 90710 91135
BBXX 62094 21124 99517 70067 46/// /2513 1//// 2//// 4//// 5//// 22200 00105 10604 70020
BBXX 62103 21124 99499 70029 46/98 /2817 10122 20109 40216 50011 22200 00123 10703 70017 333 90710 91127
BBXX 63110 21123 99595 10015 41/98 /1515 10058 40106 70322 8//5/ 22200 10604 70018
BBXX 2AUO5 21123 99606 10016 41698 21709 10074 21017 40106 52011 7//11 8/15/ 22200 20903 80040
BBXX AMOUK08 21124 99501 70061 46/// ///// 10122 20109 30249 40255 52022 91150
BBXX 63110 21124 99595 10015 47999 /1610 10059 21011 40112 58001 700// 22200 10704 70018
BBXX 63106 21124 99610 10017 46/// /2009 10059 40101 58004 22200
BBXX 63105 21124 99610 10017 47998 ///// 10066 21038 40100 58004 700// 22200
BBXX 62304 21124 99511 10018 46/98 /3214 10086 20079 40169 51015 22200 00110 10601 70006
BBXX 62094 21124 99517 70067 46/// /2413 10111 20098 40230 52015 22200 00106 10604 70020
BBXX 62103 21124 99499 70029 46/98 /2818 10124 20110 40220 51024 22200 00123 10703 70016 333 90710 91125
AAXX 21121 10609 01160 82103 10027 20020 39855 40192 58006 69971 76876 887// 333 31/// 55300 20141 30140 69957 81702 87705
AAXX 21114 91697 14/// /1302 10251 20227 30111 40116 50008
AAXX 21124 91691 14/// /0801 10266 20239 30103 40106 55007 60001 333 10314
AAXX 21114 91691 14/// /0701 10266 20246 30111 40114 55007
AAXX 21124 91697 14/// /1202 10254 20231 30102 40107 55003 60021 333 10297
AAXX 21114 91699 14/// /1204 10249 20240 30092 40124 55006
AAXX 21124 91699 14/// /1103 10252 20241 30085 40117 50005 69951 333 10283
AAXX 21114 91676 14/// /0804 10268 20228 30038 40098 55004
AAXX 21124 91676 14/// /0905 10268 20230 30032 40092 55002 60001 333 10310
AAXX 21124 89266 46/// /9901 11036 21105 39792 49931 57012 91200
AAXX 21124 89065 46/// /1404 11015 21037 39836 49914 57008 91240
AAXX 21134 89262 46/// /2305 10013 21036 39893 49936 57008 91250
AAXX 21124 89272 46/// /9902 11087 21129 38105 49734 57009 91200
AAXX 21134 89065 46/// /1404 11015 21036 39835 49913 57009 91250
AAXX 21124 89262 46/// /2103 10017 21034 39894 49937 5//// 91240
AAXX 21124 89266 46/// /9901 11026 21089 39791 49929 57011 91240
AAXX 21124 89257 46/// /2313 11123 21141 39836 49908 57015 91200
AAXX 21134 89257 46/// /2313 11115 21133 39833 49905 57012 91250
AAXX 21134 89266 46/// /9902 11029 21085 39790 49929 57009 91250
AAXX 21134 89272 46/// /2905 11091 21121 38100 49730 57011 91250
AAXX 21121 30781 32999 00000 11317 21335 39787 40318 52014 69942 333 11167
AAXX 21124 71245 46/// /0111 11120 21138 6///1 333 11025 21120 7////
AAXX 21124 89272 46/// /9902 11087 21129 38105 49734 57008 91200
AAXX 21124 67113 32582 4//// 10316 20203 30/// 40/// 5//// 84800 333 0//00 83820
AAXX 21121 10729 07464 81703 10027 20018 30078 40203 58003 69901 75165 333 4/001 55300 20070 30070 69907 87/17 88/21
AAXX 21124 60723 11565 52908 10113 20097 39987 40177 53008 60121 72162 84280 333 50121 84823
AAXX 21124 60725 11560 53112 10136 2//// 30009 40187 57003 60031 70282 85800 333 50501 83820 83630
AAXX 21124 60710 11560 62821 10130 20077 30094 40173 50000 60011 78082 86800 333 50501 84820 84630
AAXX 21124 60732 11560 63224 10106 20058 39567 40176 50005 60061 70282 84880 333 50161 83820
AAXX 21124 60734 11560 63216 10117 20086 39646 40167 53007 60051 70282 84880 333 50161 82823 83630
AAXX 21121 10124 46/// ///// 10056 2//// 30094 40132 51013 222// 00048 333 553// 911//
AAXX 21124 89266 46/// /9901 11036 21105 39792 49931 5//// 91200
BBXX WSLH 21123 99414 71357 41498 62224 10130 2007/ 40250 57010 7//22 86/// 22215 00120 20302 329// 40605 5//// 6//// 80100 ICE /////
AAXX 21121 10929 01457 82704 10019 20002 39671 40215 58006 69901 76876 8452/ 333 41998 55300 20178 30178 69907 82713 84619 88457
AAXX 21121 02947 47383 72101 10002 21006 40126 52007 70000 87/// 91151
AAXX 21124 91772 NIL
AAXX 21124 91776 NIL
AAXX 21124 91779 31498 51007 10266 20234 40116 58007 60001 70222 83201 333 10300 562/9 83817 85079
AAXX 21124 91784 11498 70712 10271 20244 40111 58009 69921 78022 8471/ 333 10303 5619/ 81710 84817 87460
AAXX 21124 91792 31498 61304 10247 20240 40124 58100 60001 70200 84231 333 10272 56399 84815 86077
