BBXX WL3108 21184 99468 70855 41/98 62512 10000 40033 70321 22223 00056 20601
BBXX ZMENA 21174 99367 31759 46/// ///// 10164 20130 40270 57002 22283
BBXX 44172 21181 99445 70634 46/// ///// 1//// 91731 22200 00063 11002 21002 319// 41101 70012
BBXX 44097 21181 99410 70711 46/// ///// 1//// 91732 22200 00121 10703 20703 316// 41201 70015
BBXX 46218 21181 99345 71208 46/// ///// 1//// 91732 22200 00142 11306 21003 330// 41305 70029
AAXX 21184 40270 31940 60000 10120 20093 39286 40187 52006 71022 86070 333 10150 84358 84460
AAXX 21184 78764 32560 30710 10253 20159 39012 40140 58012 83500 333 10256 20189 30/// 562// 59006 83620
AAXX 21184 78764 32560 30710 10253 20159 39012 40140 58012 83500 333 10256 20189 30/// 562// 59006 83620
AAXX 21184 78764 32560 30710 10253 20159 39012 40140 58012 83500 333 10256 20189 30/// 562// 59006 83620
AAXX 21184 40255 32660 30000 10124 20105 39477 40193 52005 83100 333 10163 83830
BBXX A8SF7 21181 99098 70790 41598 50609 10300 20258 40100 58010 7//11 8544/ 22264 04270 20904 305// 41204 5//// 80270
AAXX 21184 40296 31958 60000 10170 20110 40186 52012 70522 83042 333 10230 83360 83070
BBXX WZP8164 21184 99449 70860 43/// /2507 10027 2//// 40041 5//// 7//// 8//// 222// 0//// 2//02 3//// 4//// 5//// 6//// 8//// ICE /////
BBXX 42362 21181 99278 70907 46/// /2307 10233 20211 40166 91745
BBXX 42363 21181 99282 70892 46/// /2608 10244 20200 40169 91745 333 91208
BBXX 42364 21181 99291 70881 46/// /2305 10228 20211 40166 91745
AAXX 21184 40340 32960 03610 10180 20112 40169 52005 333 10205
AAXX 21184 08495 12975 42114 10166 20072 30249 40257 53004 60002 80001 91750 333 10184 84075
AAXX 21184 91643 11498 40307 10280 20259 40063 53007 60001 70300 84201 333 561/9 84818
AAXX 21184 91643 11498 40307 10280 20259 40063 53007 60001 70300 84201 333 561/9 84818
AAXX 21184 89664 11456 83004 11015 21064 39748 49748 53016 69903 77122 887// 333 56399 88712 90921 93197
AAXX 21184 89664 11456 83004 11015 21064 39748 49748 53016 69903 77122 887// 333 56399 88712 90921 93197
AAXX 21184 89664 11456 83004 11015 21064 39748 49748 53016 69903 77122 887// 333 56399 88712 90921 93197
AAXX 21184 67665 42980 11402 10232 20197 48500 81030 333 59010 81360
AAXX 21184 91334 11474 80410 10272 20241 30042 40045 55017 60031 70282 82171 333 56199 70033 555 92118
AAXX 21184 91334 11474 80410 10272 20241 30042 40045 55017 60031 70282 82171 333 56199 70033 555 92118
AAXX 21184 61902 11482 71414 10244 20193 40120 69904 71522 877// 333 10276 59014 81715 83822 86640
BBXX 51205 21181 99210 71564 46/// ///// 1//// 91748 22200 00240 10906 20905 334// 41302 70029
BBXX 46114 21181 99364 71222 46/// ///// 1//// 91734 22200 00121 11406 21003 330// 41405 70031
BBXX 46249 21181 99338 71197 46/// ///// 1//// 91742 22200 00149 11303 21002 325// 41302 70014
BBXX 46248 21181 99461 71247 46/// ///// 1//// 91734 22200 00097 11407 21004 328// 41405 70033
BBXX 46244 21181 99409 71244 46/// ///// 1//// 91735 22200 00096 11307 20805 330// 41305 70037
BBXX 46240 21181 99366 71219 46/// ///// 1//// 91742 22200 00123 11303 21001 335// 41302 70014
BBXX 46237 21181 99378 71226 46/// ///// 1//// 91740 22200 00112 11404 20902 327// 41403 70021
BBXX 46212 21181 99408 71243 46/// ///// 1//// 91742 22200 00096 11407 20805 330// 41405 70036
AAXX 21184 08594 32470 30613 10238 20181 40135 83200 333 10252 59005 83614
AAXX 21184 08589 32470 20314 10250 20183 40131 82500 333 10268 59007 82615
AAXX 21184 08583 32568 10515 10245 20151 40147 81500 333 10266 59003 81620
BBXX 46211 21181 99469 71242 46/// ///// 1//// 91736 22200 00081 11406 20904 327// 41405 70030
BBXX 46060 21181 99606 71468 46/// /2210 10048 40035 53030 91750 22200 00058 333 91213 555 11104 22111 31659 42215 61749 223100 222106 219110 215114 214110 210118 82113 91654
BBXX 32012 21181 99197 50856 46/// ///// 1//// 91750 22200 11606 70032
BBXX 41115 21181 99184 70673 46/// ///// 1//// 91735 22200 11305 20903 300// 41304 70026
BBXX 41114 21181 99276 70802 46/// ///// 1//// 91746 22200 00237 11503 20602 306// 41502 70015
BBXX 41012 21181 99300 70805 46/// /2006 10220 40200 58019 91750 22200 00228 10603 20502 314// 40602 70013 333 91207 555 11060 22063 31724 42008 61749 203057 204060 204062 204060 204060 208063
BBXX 51203 21181 99208 71570 46/// ///// 1//// 91743 22200 00248 10302 20302 325// 41101 70009
BBXX 52200 21181 99134 11448 46/// ///// 1//// 91745 22200 00287 10905 20904 310// 41102 70024
BBXX 51201 21181 99217 71581 46/// ///// 1//// 91742 22200 00240 11304 20704 332// 41302 70022
BBXX 44098 21181 99428 70702 46/// ///// 1//// 91737 22200 00087 10603 20603 310// 41201 70016
BBXX 44039 21181 99411 70727 46/// /2006 10117 20108 40144 91745 22200 00093 10201 70003 333 91208
BBXX 44060 21181 99413 70721 46/// ///06 10112 40140 91745 22200 00103 333 91208 555 11072 22077
BBXX 44022 21181 99409 70737 46/// ///03 10103 20096 40125 91745 22200 00081 333 91204 555 11036 22041
BBXX 44025 21181 99402 70732 46/// /2009 10127 20112 40127 58041 91750 22200 00106 10503 20503 309// 41201 70014 333 91211 555 11096 22106 31728 42012 61749 201088 200094 199100 196093 196088 197085
BBXX 46088 21181 99483 71232 46/// /3507 10061 40330 53021 91750 22200 00078 11101 70003 333 91208 555 11070 22073 31733 43508 61749 355065 354067 353067 353064 354061 356066
BBXX 46105 21181 99590 71522 46/// ///// 1//// 91750 22200 11003 70016
AAXX 21181 13579 11660 83504 10012 21016 39293 40144 55001 69902 77172 8652/ 333 10043 86635 88458
AAXX 21184 68906 32898 72403 10140 20096 30091 40156 53001 8701/ 222// 00123 318// 40702 333 10168 20140 91006 555 91015
AAXX 21184 68994 12498 63210 10086 20067 30008 40037 52010 60042 83510 222// 00076 333 10114 20086 91015 555 20040 91003
AAXX 21184 78846 12580 50617 10273 20/// 30133 40172 82802 333 10272 20228 58001 82821 84077
AAXX 21184 68392 36/// /0604 10235 20140 39906 4//// 53016 333 10301 20230 91007 555
AAXX 21184 68382 36/// /0306 10257 20152 39319 48516 53007 333 10319 20256 91010 555 91013
AAXX 21184 78846 12580 50617 10273 20/// 30133 40172 82802 333 10272 20228 58001 82821 84077
BBXX BAREU63 21184 99382 10156 46/// /2110 10115 29065 40076 52045 22283
AAXX 21184 40272 31958 33104 10098 20067 39363 40211 52013 70500 80001 333 10167 83070
BBXX TESTFR9 21184 99507 70011 46/// /3017 10110 29097 40238 52009 22214
AAXX 21184 91376 32474 80610 10278 20230 30061 40064 53007 85878 333 56119 555 92118
AAXX 21184 16597 12665 33218 10109 20041 30012 40099 53022 60152 83100 333 10130 83837 91136 91529
AAXX 21184 61901 169// /1314 10171 20145 39659 40167 55005 60002 91750 333 10197 8//99 555 7/090
AAXX 21184 91376 32474 80610 10278 20230 30061 40064 53007 85878 333 56119 555 92118
AAXX 21184 41170 42962 13607 10198 20146 30215 40228 81030 333 10241 58020 81362
AAXX 21184 91408 11466 80504 10272 20250 30014 40052 57019 69901 78022 889// 333 56999 70015 555 92118
BBXX KEY796 21183 99571 71703 41/97 42615 11022 21044 49900 51/// 770// 8//// 222// 00011 2//// 3//// 4//// 5//// 6//// 8//// ICE /////
BBXX C6DM2 21183 99055 11001 418// 50319 10270 20228 40100 50010 7//22 857// 22231 0//// 2//// 3//// 4//// 5//// 6//// 80240 ICE /////
BBXX NWS0022 21184 99416 70714 43/// /1908 10117 20104 40130 5//// 7//// 8//// 222// 04107 2//// 3//// 4//// 5//// 6//// 8//// ICE /////
BBXX WDC6698 21184 99095 71443 43/// /1515 1//// 2//// 40100 5//// 7//// 8//// 222// 04257 2//// 3//// 4//// 5//// 6//// 8//// ICE /////
BBXX V7NV4 21184 99299 71582 41598 63309 10200 20185 40225 54000 703// 83266 22263 00180 20200 314// 40403 5//// 6//// 80190 ICE /////
BBXX WKAE 21183 99472 70246 41597 82024 10138 20121 40178 57037 70222 885// 22224 00120 20405 325// 40710 5//// 6//// 80128 ICE /////
AAXX 21184 78858 11479 60720 10248 20219 30109 40165 69991 72582 83802 333 10269 20225 58003 82816 85074
AAXX 21184 89009 41532 83508 11216 36889 58001 77772 8801/ 333 88423
BBXX DDLK 21183 99463 70398 41397 62739 10076 21015 40070 52010 70322 862/0 22223 20810 326// 41210 80038
BBXX ONFE 21184 99281 11311 41/97 80113 10185 2016/ 40170 57025 76162 88/// 22254 00230 2//// 3//// 4//// 5//// 6//// 80170 ICE /////
BBXX WCX8882 21184 99340 11228 41597 83624 10075 2007/ 40294 52020 70222 88/2/ 22274 00120 20306 3//// 4//// 5//// 6//// 80070 ICE /////
BBXX SHIP 21184 99196 11398 41798 70740 10250 2022/ 40150 57010 70222 83108 22213 00380 21209 307// 41209 5//// 6//// 80230 ICE /////
BBXX S6JU 21184 99467 11661 41797 63226 10060 21040 40008 51002 70301 863// 22224 04060 2//// 3//// 4//// 5//// 6//// 80040
BBXX C6DM2 21183 99055 11001 418// 50319 10270 20228 40100 50010 7//22 857// 22231 0//// 2//// 3//// 4//// 5//// 6//// 80240 ICE /////
BBXX DCCP2 21180 99077 11093 41/98 /0309 10260 20244 40090 57005 70000 8//// 22254 00270 2//// 3//// 4//// 5//// 80248
BBXX V7DI8 21183 99226 11200 43/95 /0125 10190 2018/ 40180 56015 7//// 8//// 22233 00240 2//// 3//// 4//// 5//// 6//// 80180 ICE /////
BBXX LAIG7 21184 99343 11710 41797 73418 10160 2014/ 40150 52010 70222 8787/ 22223 00202 20204 329// 41208 5//// 6//// 80150 ICE /////
BBXX TBWUK18 21184 99325 30011 41297 81211 10180 20180 40169 54000 70222 887// 22222 20601 321// 41404 5//// 80180
BBXX ONDY 21184 99350 30251 41799 42412 10220 2017/ 40130 52010 70300 8418/ 22212 00250 2//// 3//// 4//// 5//// 6//// 80190 ICE /////
BBXX 32012 21181 99197 50856 46/// ///// 1//// 91750 22200 11606 70032
BBXX A8CK2 21184 99054 30842 41/98 /2219 10271 40069 54000 700// 8//// 22253 29902 323// 41006 5////
BBXX PDBP 21183 99357 70484 41498 63310 10198 20114 40219 57008 71682 85260 22224 04218 2//02 32933 41206 50804 80148
BBXX V7NV4 21184 99299 71582 41598 63309 10200 20185 40225 54000 703// 83266 22263 00180 20200 314// 40403 5//// 6//// 80190 ICE /////
BBXX WSLH 21184 99367 71421 41498 81412 10150 2010/ 40285 52011 71522 884// 22215 00155 21201 329// 41606 5//// 6//// 80120 ICE /////
BBXX 3FSB4 21184 99211 71085 435// 73613 10230 2017/ 40160 52010 7//// 872// 22234 0//// 20502 3//// 40403 5//// 6//// 80190 ICE /////
BBXX WDD6127 21184 99381 70655 41598 83324 10190 2014/ 40210 56020 71522 887// 22264 00240 20202 333// 40504 5//// 6//// 80160 ICE /////
BBXX WKAW 21184 99447 70547 41598 72917 10010 2102/ 40225 56010 70222 87170 22224 00060 20504 332// 40906 5//// 6//// 80000 ICE /////
BBXX LAOX5 21181 99430 71402 41298 81918 00/// 10120 2010/ 40270 54000 70202 88627 22213 00140 20403 318// 40504 5//// 6//// 80110
BBXX 44060 21181 99413 70721 46/// ///06 10112 40140 91745 22200 00103 333 91208 555 11072 22077
BBXX 44025 21181 99402 70732 46/// /2009 10127 20112 40127 58041 91750 22200 00106 10503 20503 309// 41201 70014 333 91211 555 11096 22106 31728 42012 61749 201088 200094 199100 196093 196088 197085
BBXX 44022 21181 99409 70737 46/// ///03 10103 20096 40125 91745 22200 00081 333 91204 555 11036 22041
BBXX 44098 21181 99428 70702 46/// ///// 1//// 91737 22200 00087 10603 20603 310// 41201 70016
BBXX 44039 21181 99411 70727 46/// /2006 10117 20108 40144 91745 22200 00093 10201 70003 333 91208
BBXX 46088 21181 99483 71232 46/// /3507 10061 40330 53021 91750 22200 00078 11101 70003 333 91208 555 11070 22073 31733 43508 61749 355065 354067 353067 353064 354061 356066
BBXX 46105 21181 99590 71522 46/// ///// 1//// 91750 22200 11003 70016
BBXX 46060 21181 99606 71468 46/// /2210 10048 40035 53030 91750 22200 00058 333 91213 555 11104 22111 31659 42215 61749 223100 222106 219110 215114 214110 210118 82113 91654
BBXX 41012 21181 99300 70805 46/// /2006 10220 40200 58019 91750 22200 00228 10603 20502 314// 40602 70013 333 91207 555 11060 22063 31724 42008 61749 203057 204060 204062 204060 204060 208063
BBXX 41115 21181 99184 70673 46/// ///// 1//// 91735 22200 11305 20903 300// 41304 70026
BBXX 41114 21181 99276 70802 46/// ///// 1//// 91746 22200 00237 11503 20602 306// 41502 70015
BBXX 46211 21181 99469 71242 46/// ///// 1//// 91736 22200 00081 11406 20904 327// 41405 70030
BBXX 46240 21181 99366 71219 46/// ///// 1//// 91742 22200 00123 11303 21001 335// 41302 70014
BBXX 46237 21181 99378 71226 46/// ///// 1//// 91740 22200 00112 11404 20902 327// 41403 70021
BBXX 46212 21181 99408 71243 46/// ///// 1//// 91742 22200 00096 11407 20805 330// 41405 70036
BBXX 46249 21181 99338 71197 46/// ///// 1//// 91742 22200 00149 11303 21002 325// 41302 70014
BBXX 46248 21181 99461 71247 46/// ///// 1//// 91734 22200 00097 11407 21004 328// 41405 70033
BBXX 46244 21181 99409 71244 46/// ///// 1//// 91735 22200 00096 11307 20805 330// 41305 70037
BBXX 51205 21181 99210 71564 46/// ///// 1//// 91748 22200 00240 10906 20905 334// 41302 70029
BBXX 46114 21181 99364 71222 46/// ///// 1//// 91734 22200 00121 11406 21003 330// 41405 70031
BBXX WDE9586 21183 99451 71347 43498 81713 10120 2008/ 40300 54000 7//// 88/2/ 22214 00110 20702 329// 41204 5//// 6//// 80100 ICE /////
BBXX A8SI3 21183 99540 71542 43498 21811 10023 2102/ 40129 58008 22264 00030 324// 40808 80002
BBXX WSRH 21184 99363 71273 41/98 00126 10161 2011/ 40225 52025 7//00 80/// 22254 00117 20404 301// 40606 5//// 6//// 80133 ICE /////
BBXX WKAE 21183 99472 70246 41597 82024 10138 20121 40178 57037 70222 885// 22224 00120 20405 325// 40710 5//// 6//// 80128 ICE /////
BBXX WZP8164 21184 99449 70860 43/// /2507 10027 2//// 40041 5//// 7//// 8//// 222// 0//// 2//02 3//// 4//// 5//// 6//// 8//// ICE /////
BBXX WDC6736 21184 99326 70721 41798 62213 10190 2014/ 40240 57031 70322 8626/ 22264 00240 20402 308// 40603 5//// 6//// 80160 ICE /////
BBXX LEQZ3 21183 99547 71775 41298 42719 10010 2101/ 40020 51010 70300 22253 00110 80000
BBXX VRCI9 21184 99377 71678 41/98 /2915 10125 20057 40160 52020 70022 8//// 22234 00161 2//// 3//// 4//// 80090
BBXX KHRC 21184 99229 71540 41498 40921 1//// 2//// 40170 52005 70200 842// 22254 00183 2//// 3//// 4//// 5//// 6//// ICE /////
BBXX DMDZ 21183 99221 70584 41198 40721 10245 20181 40225 57015 70122 81140 22263 00260 20504 336// 40707 5//// 80202
BBXX 4XIS 21183 99379 71760 43/96 81726 10120 2010/ 40130 57025 22225 80110
BBXX ICGU 21184 99184 70646 41797 40515 10280 20209 40180 54/// 70322 84/6/ 22200 04270 2//// 3//// 4//// 5//// 6//// 85230 ICE /////
BBXX ZCDF4 21183 99284 71160 41498 23115 10170 20135 40193 52020 70200 81140 22245 00150 20101 332// 40703 5//// 80150
BBXX WGEB 21184 99212 71668 41598 40918 10228 2017/ 40180 52010 70200 844// 22265 00254 20505 307// 40805 5//// 6//// 80189 ICE /////
BBXX 42362 21181 99278 70907 46/// /2307 10233 20211 40166 91745
BBXX 42364 21181 99291 70881 46/// /2305 10228 20211 40166 91745
BBXX 42363 21181 99282 70892 46/// /2608 10244 20200 40169 91745 333 91208
BBXX DGPT2 21184 99164 70258 41598 11917 10250 20183 40130 54000 70300 811// 22214 00240 29901 303// 41202 80205
AAXX 21181 76040 32960 02701 10135 20057 30164 40178 52015 91740 333 10138 20058 30/// 58000 98660
AAXX 21181 76055 32980 01603 10155 20035 30139 40158 52010 91740 333 10158 20072 32/// 59001
AAXX 21181 76122 32670 30000 10090 20007 38498 40178 57004 82550 91750 333 10094 21036 30/// 56550 59019 82635
AAXX 21181 76220 32958 02303 10072 21024 38098 40210 57002 91740 333 10072 21096 30/// 59017
AAXX 21181 76256 12980 50602 10142 20128 30168 40188 52012 60111 85030 91745 333 10215 20080 32/// 56/7/ 58018 85357
AAXX 21181 76305 32670 33302 10195 20088 30159 40168 52011 83400 91740 333 10199 20102 30/// 56400 58009 83650
AAXX 21181 76342 31860 61302 10132 20021 39469 40192 57017 70222 86050 91750 333 10138 20082 30/// 56030 59026 86358
AAXX 21181 76390 31668 22506 10192 20048 38199 40092 57005 70544 81150 91730 333 10201 20100 30/// 56650 59006 81833 81356
AAXX 21181 76393 32950 11202 10166 20068 39657 40152 57015 81010 91749 333 10178 20080 30/// 56300 59003
AAXX 21181 76458 32870 63102 10220 20080 30149 40153 57001 86050 91743 333 10238 20109 30/// 56050 58005 86358
AAXX 21181 76491 32960 23601 10205 20092 39774 40170 57014 80005 91750 333 10208 20124 30/// 56009 58014 82277
AAXX 21181 76499 31860 20000 10233 20139 30121 40143 57018 70311 82030 91750 333 10234 20142 30/// 56090 58018 82357
AAXX 21181 76548 32875 40502 10232 20129 30148 40158 55007 84030 91740 333 10235 20182 30/// 56040 58024 84357
AAXX 21181 76556 32970 33303 10221 20145 39113 40145 51006 80008 91735 333 10230 20107 30/// 56001 58007 82270
AAXX 21181 76577 32970 02303 10182 20137 38035 40161 58007 91740 333 10188 20070 30/// 59006
AAXX 21181 76581 32970 22101 10236 20150 39017 40113 57018 82030 91750 333 10245 20141 30/// 56030 58001 82360
AAXX 21181 76585 32980 60000 10200 20176 39990 40149 58012 86070 91735 333 10210 20167 31/// 56/3/ 58025 86358
AAXX 21181 76612 32962 00901 10211 20088 38463 40166 58003 91750 333 10234 20073 30/// 59004
AAXX 21181 76644 32460 51404 10300 20203 30144 40156 57002 85200 91750 333 10314 20214 30/// 563// 58024 85810
AAXX 21181 76662 32970 22502 10206 20079 38455 40162 57009 80002 91730 333 10220 20048 30/// 5600/ 59017 82070
AAXX 21181 76680 31960 10901 10206 20050 37740 40050 57011 70500 80001 91755 333 10212 20089 30/// 56007 59001
AAXX 21181 76681 31970 00503 10222 20112 37766 40135 57010 70500 91745 333 10222 20032 30/// 59008
AAXX 21181 76683 32968 01801 10198 20080 37820 40189 56012 91745 333 10205 20044 30/// 58000
AAXX 21181 76685 32970 02101 10210 20054 37859 40141 57011 91750 333 10212 20068 30/// 59001
AAXX 21181 76775 31970 10701 10257 20105 38520 40161 57010 70200 81100 91740 333 10290 20110 30/// 56800 58007 81824
AAXX 21181 76805 32970 02301 10302 20223 30109 40111 53018 91735 333 10312 20220 30/// 59004
AAXX 21181 76833 32970 03606 10318 20229 30103 40105 57017 91745 333 10318 20220 30/// 59001 92001
AAXX 21181 76840 32940 03604 10324 20195 30047 40102 57017 91740 333 10330 20170 30/// 59013
AAXX 21181 76845 32960 00901 10216 20145 37940 40168 56018 91745 333 10224 20054 30/// 58004
AAXX 21181 76160 11562 70501 10132 20100 39923 40177 52012 69951 70352 87500 91730 333 10132 20070 31/// 56500 58023 70005 87630
AAXX 21181 76243 32473 81601 10100 20054 39875 40176 57006 884// 91735 333 10106 20052 30/// 563// 59018 88616
AAXX 21181 76311 32980 00000 10177 20078 39871 40158 57001 91745 333 10178 20041 30/// 58007
AAXX 21181 76405 32980 01801 10215 20147 30152 40173 50013 91750 333 10215 20112 30/// 58010
AAXX 21181 76412 31966 71801 10140 20105 30135 40181 52013 70544 87050 91735 333 10148 20120 30/// 56050 58008 87356
AAXX 21181 76843 32565 23601 10272 20156 39477 40117 55001 81203 91736 333 10278 20185 30/// 569/9 58001 81820
AAXX 21181 76855 32980 01403 10304 20204 30063 40113 58001 91745 333 10316 20214 30/// 58000 92000
BBXX DBKV 21181 99169 70250 46/// /0505 10229 20159 40144 57006 22200 00236
BBXX DBFR 21181 99535 10086 46/// /2402 10041 20037 40165 52020 22240 00044
BBXX DBJM 21181 99538 10088 46/// /2704 10031 20022 40165 52022 22231 00040
BBXX DBBU 21181 99545 1013/ 46/// +0802 10031 20013 40135 52022/ 22201 00051
BBXX DBBT 21181 99347 30169 46/// /2710 10193 20143 40111 52003 22212 00203
BBXX DBFH 21181 99535 10086 46/// /2802 10045 20030 40163 520/9 22230 00045
BBXX DBKR 21181 99541 10121 46/// /3303 10043 21001 40138 52020 22200 00040
BBXX DBBA 21181 99541 10121 46/// /3104 10039 21004 40138 52021 22220 00041
BBXX DBEB 21181 /9539 10079 41/// /3004 10061 20061/40156 52013 ///// 22271 00060
AAXX 21183 91802 NIL
AAXX 21183 91809 NIL
AAXX 21183 91831 36/// /0706 10267 20221 40134 52003 555 2////
AAXX 21183 91841 16/// /0807 10274 20218 40122 52007 69941 555 20012
AAXX 21183 91843 31499 30807 10266 20219 40121 53006 60001 70300 82101 333 562/9 82818 83079
AAXX 21183 91848 36/// /1107 10258 20230 40088 52009 555 20050
BBXX DBEA 21185 99540 10083 46/// /3004 10057 20042 40161 52017 22220 00052
BBXX DBBC 21181 99535 10100 46/// /2602 10030 2//// 40160 52021 22250 00036
BBXX 61001 21184 99434 10078 46/// /2008 10123 20036 40138 57006 22200 00146 10702 70008
BBXX BAREU54 21184 99120 70798 46/// ///// 40082 57019 22213
BBXX DCPX2 21183 99114 10634 41/98 60422 10265 20219 40130 70222 8//// 22224 00270 2//// 80232
BBXX DBBI 21181 99535 10100 46/// /2602 10030 20030 40157 52020 22260 00030
AAXX 21184 89009 41532 83508 11216 36889 58001 77772 8801/ 333 88423
BBXX DBND 21181 99536 10086 46/// /2802 10040 20031 40164 52021 22240 00047
BBXX 41101 21184 99146 70562 46/// /0720 10266 20214 40128 57018 22200 00271 10805 70025 555 1/025
AAXX 21184 91408 11466 80504 10272 20250 30014 40052 57019 69901 78022 889// 333 56999 70015 555 92118
AAXX 21181 76040 32960 02701 10135 20057 30164 40178 52015 91740 33310138 20058 30/// 58000 98660
AAXX 21181 76055 32980 01603 10155 20035 30139 40158 52010 91740 33310158 20072 32/// 59001
AAXX 21181 76122 32670 30000 10090 20007 38498 40178 57004 82550 91750333 10094 21036 30/// 56550 59019 82635
AAXX 21181 76220 32958 02303 10072 21024 38098 40210 57002 91740 33310072 21096 30/// 59017
AAXX 21181 76256 12980 50602 10142 20128 30168 40188 52012 60111 8503091745 333 10215 20080 32/// 56/7/ 58018 85357
AAXX 21181 76305 32670 33302 10195 20088 30159 40168 52011 83400 91740333 10199 20102 30/// 56400 58009 83650
AAXX 21181 76342 31860 61302 10132 20021 39469 40192 57017 70222 8605091750 333 10138 20082 30/// 56030 59026 86358
AAXX 21181 76390 31668 22506 10192 20048 38199 40092 57005 70544 8115091730 333 10201 20100 30/// 56650 59006 81833 81356
AAXX 21181 76393 32950 11202 10166 20068 39657 40152 57015 81010 91749333 10178 20080 30/// 56300 59003
AAXX 21181 76458 32870 63102 10220 20080 30149 40153 57001 86050 91743333 10238 20109 30/// 56050 58005 86358
AAXX 21181 76491 32960 23601 10205 20092 39774 40170 57014 80005 91750333 10208 20124 30/// 56009 58014 82277
AAXX 21181 76499 31860 20000 10233 20139 30121 40143 57018 70311 8203091750 333 10234 20142 30/// 56090 58018 82357
AAXX 21181 76548 32875 40502 10232 20129 30148 40158 55007 84030 91740333 10235 20182 30/// 56040 58024 84357
AAXX 21181 76556 32970 33303 10221 20145 39113 40145 51006 80008 91735333 10230 20107 30/// 56001 58007 82270
AAXX 21181 76577 32970 02303 10182 20137 38035 40161 58007 91740 33310188 20070 30/// 59006
AAXX 21181 76581 32970 22101 10236 20150 39017 40113 57018 82030 91750333 10245 20141 30/// 56030 58001 82360
AAXX 21181 76585 32980 60000 10200 20176 39990 40149 58012 86070 91735333 10210 20167 31/// 56/3/ 58025 86358
AAXX 21181 76612 32962 00901 10211 20088 38463 40166 58003 91750 33310234 20073 30/// 59004
AAXX 21181 76644 32460 51404 10300 20203 30144 40156 57002 85200 91750333 10314 20214 30/// 563// 58024 85810
AAXX 21181 76662 32970 22502 10206 20079 38455 40162 57009 80002 91730333 10220 20048 30/// 5600/ 59017 82070
AAXX 21181 76680 31960 10901 10206 20050 37740 40050 57011 70500 8000191755 333 10212 20089 30/// 56007 59001
AAXX 21181 76681 31970 00503 10222 20112 37766 40135 57010 70500 91745333 10222 20032 30/// 59008
AAXX 21181 76683 32968 01801 10198 20080 37820 40189 56012 91745 33310205 20044 30/// 58000
AAXX 21181 76685 32970 02101 10210 20054 37859 40141 57011 91750 33310212 20068 30/// 59001
AAXX 21181 76775 31970 10701 10257 20105 38520 40161 57010 70200 8110091740 333 10290 20110 30/// 56800 58007 81824
AAXX 21181 76805 32970 02301 10302 20223 30109 40111 53018 91735 33310312 20220 30/// 59004
AAXX 21181 76833 32970 03606 10318 20229 30103 40105 57017 91745 33310318 20220 30/// 59001 92001
AAXX 21181 76840 32940 03604 10324 20195 30047 40102 57017 91740 33310330 20170 30/// 59013
AAXX 21181 76845 32960 00901 10216 20145 37940 40168 56018 91745 33310224 20054 30/// 58004
AAXX 21181 76160 11562 70501 10132 20100 39923 40177 52012 69951 7035287500 91730 333 10132 20070 31/// 56500 58023 70005 87630
AAXX 21181 76243 32473 81601 10100 20054 39875 40176 57006 884// 91735333 10106 20052 30/// 563// 59018 88616
AAXX 21181 76311 32980 00000 10177 20078 39871 40158 57001 91745 33310178 20041 30/// 58007
AAXX 21181 76405 32980 01801 10215 20147 30152 40173 50013 91750 33310215 20112 30/// 58010
AAXX 21181 76412 31966 71801 10140 20105 30135 40181 52013 70544 8705091735 333 10148 20120 30/// 56050 58008 87356
AAXX 21181 76843 32565 23601 10272 20156 39477 40117 55001 81203 91736333 10278 20185 30/// 569/9 58001 81820
AAXX 21181 76855 32980 01403 10304 20204 30063 40113 58001 91745 33310316 20214 30/// 58000 92000
AAXX 21184 78583 32570 41208 10294 20233 40137 60001 84202 333 02305 58005 84825
AAXX 21184 91487 NIL
AAXX 21184 91490 NIL
AAXX 21184 91533 NIL
AAXX 21184 91601 NIL
AAXX 21184 91610 11599 40910 10267 20235 40057 53010 60001 70210 81131 333 56299
AAXX 21184 91623 NIL
AAXX 21184 91629 NIL
AAXX 21184 91701 NIL
AAXX 21184 91487 NIL
AAXX 21184 91490 NIL
AAXX 21184 91533 NIL
AAXX 21184 91601 NIL
AAXX 21184 91610 11599 40910 10267 20235 40057 53010 60001 70210 81131 333 56299
AAXX 21184 91623 NIL
AAXX 21184 91629 NIL
AAXX 21184 91701 NIL
BBXX VEP717 21184 99467 70487 41598 72926 10005 2000/ 40135 52019 78582 87500 22200 06025 20605 324// 40706 80004
AAXX 21184 91772 31498 40707 10265 20237 4//// 60001 70221 82801 333 561/9 82817 82640 84080
AAXX 21184 91776 NIL
AAXX 21184 91779 31498 60809 10268 20236 40106 53010 60001 70321 82201 333 562/9 82817 85079
AAXX 21184 91784 11498 70706 10265 20242 40100 53008 60011 70182 81238 333 56199 81817 87277
AAXX 21184 91792 31498 60403 10245 20244 40117 53008 60001 78022 83201 333 561/9 82710 83816 86077
AAXX 21184 85574 12960 02012 10275 20101 39589 40118 56005 60001
AAXX 21184 85585 11598 71705 10195 20101 40219 51003 60001 87800 333 56400 83830 84633
AAXX 21184 85629 12984 01807 10250 20114 40146 58008 60001
AAXX 21184 85672 13580 12707 10226 20060 40170 58003 6001 81100 333 56600 81830
AAXX 21184 85682 12565 12513 10207 20091 40191 52005 60001 81200 333 56500 81830
AAXX 21184 85743 12560 72612 10168 20083 40187 53003 60011 87100 333 56600 87825
AAXX 21184 85782 12560 62710 10152 20056 40172 52009 69931 86200 333 56800 86820
AAXX 21184 85799 11660 52608 10134 20058 40172 52011 60041 70188 85200 333 56600 85840
AAXX 21184 85406 12970 02211 10233 20142 40116 56018 60001
AAXX 21184 85418 42970 42414 10225 20118 40121 57021 60001 80001 333 56000 84080
AAXX 21184 85432 12970 12619 10238 20017 37745 48401 57010 60001 80001 333 56000 81074
AAXX 21184 85467 12980 02614 10234 20128 40134 57022 60001
AAXX 21184 85469 42565 30811 10232 20148 40190 54001 83101 333 56200 83820
AAXX 21184 85488 12968 02910 10204 20135 40146 58011 60001
BBXX 41060 21181 99148 70510 46/// ///// 1//// 91750 22200 11205 70026
BBXX 41001 21181 99347 70727 46/// ///// 10212 20140 40222 58022 91750 22200 00222 10604 70021
BBXX 41049 21181 99275 70630 46/// /0805 10212 20111 40265 56020 91750 22200 00236 11305 20401 300// 41305 70025 333 91207 555 11050 22052 31658 40508 61749 081050 070054 063062 069065 064063 060062 80607 91659
BBXX 42020 21181 99270 70967 46/// /0407 10182 20132 40155 58015 91750 22200 00234 10603 20602 313// 40801 70014 333 91209 555 11077 22080 31721 40410 61749 044073 043076 035081 038077 036075 041074
BBXX 41044 21181 99217 70587 46/// /0712 10246 20158 40204 56023 91750 22200 00261 11508 20805 300// 41506 70040 333 91215 555 11125 22132 31743 40715 61749 070117 067111 066111 068108 068114 070112 80613 91709
BBXX 41048 21181 99320 70696 46/// /2106 10199 20119 40264 56021 91750 22200 00228 11103 20501 3//// 41103 70015 333 91208 555 11057 22059 31737 42008 61749 206058 198064 199064 199062 199061 201060 82007 91737
BBXX 42065 21181 99149 70750 46/// /0911 10275 20222 91750 22200 11007 20706 3//// 41003 70033 333 91214 555 11117 22125 31720 40814 61749 086110 085111 089111 083106 082106 083103 80912 91729
BBXX 42012 21181 99301 70876 46/// /1804 10214 20208 40150 58010 91750 22200 00209 10803 20401 316// 40803 70015 333 91205 555 11041 22046 31657 41805 61749 179037 177036 181036 179036 181041 178041
BBXX 42001 21181 99259 70897 46/// /1907 10248 20222 40175 58006 91750 22200 00254 10802 20502 3//// 40801 70012 333 91209 555 11079 22083 31718 41809 61749 185073 188070 187071 184074 182075 181074
BBXX 42035 21181 99292 70944 46/// /0506 10107 20070 40166 58013 91750 22200 00159 10702 20401 316// 40701 70008 333 91207 555 11058 22060 31715 40608 61749 052055 050056 049058 047064 049065 047061
BBXX 42058 21181 99149 70749 46/// /0912 10274 20215 40116 58022 91750 22200 00277 10907 20704 309// 40906 70036 333 91215 555 11130 22138 31651 40816 61749 085122 084127 083128 083126 081127 083122 80814 91727
BBXX 42060 21181 99163 70635 46/// /0610 10267 20209 40155 56021 91750 22200 00277 10605 20605 300// 41301 70024 333 91212 555 11110 22116 31656 40613 61749 060103 058108 059095 064101 062104 064109 80612 91733
BBXX 42036 21181 99285 70845 46/// /1608 10222 20204 40176 58015 91750 22200 00217 10804 20804 70018 333 91210 555 11090 22097 31704 41611 61749 155084 155085 153086 154088 155092 155090
BBXX 42056 21181 99198 70849 46/// /1308 10274 20231 40155 58011 91750 22200 00274 10804 20603 310// 40803 70020 333 91209 555 11082 22088 31731 41209 61749 127077 127076 125071 123067 127061 122067 81208 91730
BBXX 42059 21181 99151 70675 46/// /0611 10275 20216 40137 58023 91750 22200 00278 10706 20705 3//// 41103 70030 333 91213 555 11116 22123 31746 40613 61749 064109 065106 066108 067107 067104 066109 80712 91748
BBXX 42019 21181 99279 70954 46/// /0507 10160 20119 40156 58007 91750 333 91209 555 11075 22080
BBXX 44005 21181 99432 70691 46/// /1811 10087 20073 40146 58030 91750 22200 00085 10705 20704 3//// 41201 70023 333 91213 555 11115 22123 31702 41913 61749 175106 176106 177101 182106 182107 182103
BBXX 42040 21181 99292 70882 46/// /2505 10229 40156 58004 91750 22200 00229 10803 20301 316// 40803 70017 333 91206 555 11049 22053 31738 42606 61749 252048 247044 243037 249039 243040 231043
BBXX 41047 21181 99275 70715 46/// /1208 10234 40248 58020 91750 22200 00250 11305 20503 304// 41304 70025 333 91210 555 11080 22084 31706 41111 61749 119080 126081 130082 120080 115090 113078 81110 91706
BBXX 46014 21181 99394 71240 46/// /0402 10102 40214 52018 91750 22200 00108 11408 20401 3//// 41408 70040 333 91203 555 11015 22016 31707 41104 61749 037016 044019 056011 102008 098012 011009
BBXX 46011 21181 99350 71210 46/// /3303 10124 40187 53006 91750 22200 00138 11505 20401 330// 41505 70027 333 91204 555 11026 22026 31731 43404 61749 334026 338031 339029 338027 344023 343022
BBXX 46047 21181 99324 71195 46/// /3006 10134 40194 51016 91750 22200 00135 11305 20502 329// 41305 70027 333 91208 555 11062 22065 31703 43109 61749 303059 310068 309069 311066 307068 308072
BBXX 46086 21181 99325 71180 46/// /3005 10148 40186 53018 91750 22200 00150 11403 20301 329// 41403 70016 333 91206 555 11049 22051 31749 43006 61749 300046 297040 291046 283047 287040 294041
BBXX 46027 21181 99419 71244 46/// /3512 10084 40250 53007 91750 22200 00089 11407 20704 329// 41406 70034 333 91214 555 11123 22131 31743 43514 61749 350113 348106 350109 351105 349110 346111
BBXX 46088 21181 99483 71232 46/// /3507 10061 40330 91750 22200 00078 11101 70003 333 91208 555 11070 22073 31733 43508 61749 355065 354067 353067 353064 354061 356066
BBXX 46050 21181 99442 71246 46/// /1003 10074 40318 53010 91750 22200 00094 11406 20401 328// 41406 70030 333 91205 555 11032 22033 31749 41005 61749 099031 098031 108031 098030 096029 090030
BBXX 46069 21181 99337 71202 46/// /3007 10131 40185 52016 91750 22200 00140 11505 20502 330// 41504 70023 333 91209 555 11079 22083 31712 43110 61749 301075 300080 299081 302082 306080 303082
BBXX 46012 21181 99374 71229 46/// /3204 10104 40196 51010 91750 22200 00120 11407 20401 330// 41407 70033 333 91206 555 11044 22045 31728 43106 61749 322043 321045 317045 321041 318039 309036
BBXX 46013 21181 99382 71233 46/// /1201 10086 40204 51017 91750 22200 00109 11405 20401 3//// 41405 70025 333 91203 555 11011 22011 31650 41004 61749 127011 120013 118016 111013 096017 111018
BBXX 46087 21181 99485 71247 46/// /0806 10060 20029 40327 52022 91750 22200 00076 11406 20501 328// 41405 70028 333 91208 555 11064 22067 31711 40809 61749 080061 080061 080064 075067 074065 076061
BBXX 46029 21181 99461 71245 46/// /0103 10081 20028 40321 53016 91750 22200 00086 11406 20401 326// 41406 70031 333 91204 555 11027 22028 31724 40105 61749 009027 026026 010032 004032 007033 003031
BBXX 46054 21181 99342 71204 46/// /3108 10124 40178 51013 91750 22200 00135 11504 20402 300// 41504 70022 333 91210 555 11089 22094 31656 43111 61749 307083 307089 306087 309092 312088 312086
BBXX 46028 21181 99357 71219 46/// /3003 10122 40184 53008 91750 22200 00127 11506 20401 331// 41506 70029 333 91204 555 11028 22029 31711 43104 61749 304026 313027 309025 316028 312030 313029
BBXX 46025 21181 99337 71191 46/// /3601 10137 20102 40178 53017 91750 22200 00151 11302 20301 328// 41302 70012 333 91202 555 11012 22013 31659 43004 61749 003012 345017 347018 322021 315027 319025
BBXX 46070 21181 99551 11753 46/// /0000 11026 21048 40013 53004 91750 22200 00039 11004 20401 3//// 41004 70019 333 91201 555 11004 22004 31703 43305 61749 214004 262003 309023 304041 311046 313043 83105 91706
BBXX 46078 21181 99561 71526 46/// /2604 10040 21021 40062 57003 91750 555 11041 22044
BBXX 41008 21181 99314 70809 46/// /1903 10175 20168 40203 58021 91750 22200 00166 10603 20401 300// 40602 70013 333 91203 555 11035 22041 31657 42105 61749 192031 185033 189038 192040 199043 203042
BBXX 41004 21181 99325 70791 46/// /2306 10205 20179 40205 58013 91750 22200 00211 10704 20503 3//// 40703 70020 333 91208 555 11064 22067 31658 42313 61749 227059 221057 222061 232069 235099 234089
BBXX 44009 21181 99385 70747 46/// /2009 10128 40161 56029 91750 22200 00111 10502 20502 300// 41201 70012 333 91210 555 11094 22103 31715 42011 61749 199086 201082 200081 197091 193091 187088
BBXX 44014 21181 99366 70748 46/// /2107 1//// 40182 57022 91750 22200 00145 11202 20402 304// 41201 70011 333 91208 555 11068 22068 31652 41910 61749 207068 211069 209073 200078 196080 197082
BBXX 44027 21181 99443 70673 46/// /2011 10068 20050 40158 58034 91750 22200 00082 10705 20705 70024 333 91214 555 11122 22129 31712 41914 61749 195112 194111 196116 194118 194115 194111
BBXX 41013 21181 99334 70777 46/// /1911 10221 20162 40192 58026 91750 22200 00206 10704 20704 313// 41101 70020 333 91214 555 11119 22129 31744 41914 61749 192108 192104 192105 191111 191105 194106
BBXX 44065 21181 99404 70737 46/// /1907 10111 20106 40122 58044 91750 22200 00094 11102 20401 310// 41101 70009 333 91209 555 11081 22090 31650 41909 61749 188075 187067 189063 191066 189065 188069 81908 91750
BBXX 42003 21181 99260 70856 46/// /1708 1//// 91750 22200 10804 20703 312// 40802 70019 333 91210 555 11082 22088 31653 41710 61749 171077 169079 169080 164081 170077 167082 81609 91717
BBXX 42055 21181 99222 70940 46/// /1306 10257 20224 40134 58013 91750 22200 00254 10902 20501 308// 40901 70009 333 91207 555 11063 22068 31742 41307 61749 131060 132057 132056 127053 120044 123046 81306 91717
BBXX 42002 21181 99258 70937 46/// /1604 10248 20219 40146 58010 91750 22200 00239 10903 20401 308// 40903 70014 333 91205 555 11043 22046 31706 41606 61749 158042 158043 160046 159042 159047 162046
BBXX 46002 21181 99426 71305 46/// ///// 10095 40323 53007 91750 22200 00119 11205 70027
BBXX 46006 21181 99408 71375 46/// /1706 10122 40301 57008 91750 22200 00127 11204 20501 3//// 41204 70022 333 91207 555 11061 22065 31732 41607 61749 171059 169055 157059 154059 150053 139052
BBXX 46084 21181 99566 71361 46/// /1613 10062 20020 40188 56040 91750 22200 00071 11107 20705 300// 41104 70034 333 91215 555 11140 22149 31741 41716 61749 156133 156126 155131 154128 155124 159128
BBXX 46078 21181 99561 71526 46/// /2604 10040 21021 40062 57003 91750 555 11041 22044
BBXX 46075 21181 99539 71608 46/// /1806 10036 21020 40044 54000 91750 22200 00052 11107 20602 300// 41107 70037 333 91208 555 11063 22066 31734 41908 61749 183060 177063 179063 175066 175064 183062 81707 91711
BBXX 46005 21181 99461 71310 46/// ///01 10083 40329 51005 91750 22200 00099 11105 20301 3//// 41105 70026 333 91202 555 11010 22010
BBXX 46059 21181 99380 71300 46/// /0309 10124 40282 53008 91750 22200 00144 11407 20505 3//// 41405 70034 333 91211 555 11095 22100 31714 40312 61749 028091 029091 028098 027092 028095 021094
BBXX 46080 21181 99580 71500 46/// /2009 10036 20009 40058 55000 91750 22200 00051 11108 20705 3//// 41107 70041 333 91212 555 11093 22098 31656 42212 61749 200089 203090 209091 212090 216090 215097 82110 91652
AAXX 21184 85864 11670 42612 10117 20010 40087 54000 60011 70281 84200 333 56600 84833
AAXX 21184 85874 12582 52919 10094 20001 39446 40064 54001 60001 85200 333 56600 85830
AAXX 21184 85886 12670 32726 10144 20079 40039 56002 60001 83200 333 56600 83840
AAXX 21184 85892 12570 62012 10122 21017 40026 57002 69911 86200 333 56600 86830
AAXX 21184 85968 11660 81508 10068 20034 49951 52012 60021 78082 8722/ 333 56309 87833 88457
AAXX 21184 89056 11104 83006 10015 20011 49920 58001 60033 74442 886// 333 56799 88703
AAXX 21184 89057 11330 83304 10028 20007 49920 54001 60023 71042 886// 333 26799 88707
AAXX 21184 89058 31/08 93207 10023 20010 39899 49920 57002 74700
AAXX 21184 89059 12970 53504 11010 21045 49917 57006 60023 85020 333 78000 85460
AAXX 21184 89251 31158 83209 10017 20005 49915 57004 71022 8672/
AAXX 21181 33815 11497 83104 10008 21013 39918 40130 52021 60022 70272 885// 333 10010 555 80014
AAXX 21184 78951 12578 20911 10292 20215 30120 40135 60001 82200 333 10300 20235 59005 70013 82824
AAXX 21184 91413 11466 70712 10268 20244 30037 40062 57020 69951 78081 83272 333 56299 70142 555 92118
AAXX 21184 97180 32458 70602 10263 20251 30048 40066 56014 84232 333 56000 84819
AAXX 21184 68352 36/// /1213 10274 20059 39036 48498 52011 333 10351 20271 91027 555 91013
AAXX 21184 96315 11260 71705 10258 20254 40074 69963 71398 83968 333 81703 81916 85364
AAXX 21184 96323 NIL
AAXX 21184 86011 NIL
AAXX 21184 86033 32670 30209 10384 20161 39969 40060 57046 82202 333 82834 81840 81070
AAXX 21184 86065 NIL
AAXX 21184 86068 32670 20215 10394 20197 39861 40043 57028 82200 333 82840
AAXX 21184 86086 32570 30903 10400 20170 39973 40058 57019 83100 333 83833
AAXX 21184 86097 31570 61110 10286 20143 39458 40085 57016 71792 83973 333 83827 81940 84357 85070
AAXX 21184 86128 32670 53605 10390 20194 39942 40049 57022 85200 333 85840
AAXX 21184 86134 32670 33308 10390 20194 39978 40060 57028 83800 333 83840
AAXX 21184 86170 32670 40106 10402 20171 39934 40031 57022 84100 333 84840
AAXX 21184 86185 32570 33508 10386 20198 39972 40061 57024 83200 333 83833
AAXX 21184 86192 32570 20502 10372 20092 39873 40083 56017 82100 333 82820
AAXX 21184 86210 32570 21404 10358 20152 39725 40050 57024 82200 333 82833
AAXX 21184 86218 32670 20208 10388 20198 39967 40059 57029 82100 333 82840
AAXX 21184 86221 32970 03604 10398 20151 39965 40092 57015
AAXX 21184 86233 32970 03604 10382 20136 39902 40082 56010
AAXX 21184 86234 32970 00505 10376 20138 39845 40018 58015
AAXX 21184 86246 NIL
AAXX 21184 86251 32970 00504 10380 20138 39885 40043 57034
AAXX 21184 86255 32670 33608 10408 20140 39983 40046 57032 83200 333 83840
AAXX 21184 86260 32970 00208 10382 20183 39910 40054 56021
AAXX 21184 86268 32970 00602 10376 20144 39920 40076 56010
AAXX 21184 86285 NIL
AAXX 21184 86297 32670 33305 10392 20175 39950 40049 57030 83100 333 83836
BBXX BAREU00 21184 99499 70043 46/// ///// 40258 52008 22223
BBXX BAREU51 21184 99383 10134 46/// ///// 40125 52003 22245
BBXX BAREU04 21184 99485 70487 46/// ///// 40108 52060 22253
AAXX 21181 13586 32660 60401 10012 21025 39872 40171 54000 82520 333 10044 82640 86460
BBXX BAREU11 21184 99316 70535 46/// ///// 40244 57017 22214
AAXX 21184 78951 12578 20911 10292 20215 30120 40135 60001 82200 333 10300 20235 59005 70013 82824
BBXX BATFR53 21184 99185 51756 44598 50613 10277 20224 40102 51010 70222 84278 22222 00284 201// 30421 403// 505// 60/// ICE 0////
BBXX BATFR08 21184 99388 30777 46/// /2723 10154 20117 40213 53001 22282 00159
BBXX 46002 21181 99426 71305 46/// ///// 10095 40323 53007 91750 22200 00119 11205 70027
BBXX 46005 21181 99461 71310 46/// ///01 10083 40329 51005 91750 22200 00099 11105 20301 3//// 41105 70026 333 91202 555 11010 22010
BBXX 46013 21181 99382 71233 46/// /1201 10086 40204 51017 91750 22200 00109 11405 20401 3//// 41405 70025 333 91203 555 11011 22011 31650 41004 61749 127011 120013 118016 111013 096017 111018
BBXX 46028 21181 99357 71219 46/// /3003 10122 40184 53008 91750 22200 00127 11506 20401 331// 41506 70029 333 91204 555 11028 22029 31711 43104 61749 304026 313027 309025 316028 312030 313029
BBXX 46029 21181 99461 71245 46/// /0103 10081 20028 40321 53016 91750 22200 00086 11406 20401 326// 41406 70031 333 91204 555 11027 22028 31724 40105 61749 009027 026026 010032 004032 007033 003031
BBXX 46050 21181 99442 71246 46/// /1003 10074 40318 53010 91750 22200 00094 11406 20401 328// 41406 70030 333 91205 555 11032 22033 31749 41005 61749 099031 098031 108031 098030 096029 090030
BBXX 46054 21181 99342 71204 46/// /3108 10124 40178 51013 91750 22200 00135 11504 20402 300// 41504 70022 333 91210 555 11089 22094 31656 43111 61749 307083 307089 306087 309092 312088 312086
BBXX LAOX5 21181 99430 71402 41298 81918 00/// 10120 20100 40270 54000 70202 88627 22213 00140 20403 318// 40504 5//// 6//// 80110
BBXX WDE9586 21183 99451 71347 43498 81713 10120 20080 40300 54000 7//// 88/2/ 22214 00110 20702 329// 41204 5//// 6//// 80100 ICE /////
BBXX WSLH 21184 99367 71421 41498 81412 10150 20100 40285 52011 71522 884// 22215 00155 21201 329// 41606 5//// 6//// 80120 ICE /////
BBXX WSRH 21184 99363 71273 41/98 00126 10161 20110 40225 52025 7//00 80/// 22254 00117 20404 301// 40606 5//// 6//// 80133 ICE /////
BBXX BATFR14 21184 99353 70360 44498 73018 10120 20112 40222 70222 89/// 22214 20202
BBXX BAREU62 21184 99398 10259 46/// ///// 40150 52007 22284
BBXX BATFR27 21184 99494 70037 46/// /3021 10120 20094 40259 53044 22255 00129
BBXX FVNM 21184 99074 70793 46/// /3404 10270 20230 40085 58017 22200 00277
BBXX BATFR20 21184 99432 10053 46/// ///// 10117 20054 40170 22234
BBXX BATFR02 21184 99500 70006 46/// /2820 10122 20104 40231 51021 22244 00127
AAXX 21184 91413 11466 70712 10268 20244 30037 40062 57020 69951 78081 83272 333 56299 70142 555 92118
AAXX 21184 85836 11660 72110 10084 20031 40182 51010 60011 78088 87200 333 56600 87833
BBXX 44020 21181 99414 70702 46/// /1808 10101 20089 40147 58042 91750 22200 00072 10301 20301 70005 333 91209 555 11080 22085 31709 42511 61749 193073 260069 259076 257087 257089 252084
BBXX 41043 21181 99211 70650 46/// /0911 10249 20183 40201 58023 91750 22200 00262 11507 20504 300// 41506 70034 333 91213 555 11116 22123 31651 40814 61749 084108 086107 078106 079114 081111 076109 80812 91715
BBXX 41036 21181 99342 70770 46/// ///// 10211 20156 40191 58027 91750 22200 00186 10603 70016
BBXX 44066 21181 99396 70726 46/// /2009 10145 20136 40149 56037 91750 22200 00130 10603 20603 3//// 41201 70017 333 91211 555 11092 22101 31705 42113 61749 198085 198089 201090 205101 206109 202101
AAXX 21184 85406 12970 02211 10233 20142 40116 56018 60001
AAXX 21184 85418 42970 42414 10225 20118 40121 57021 60001 80001 333 56000 84080
AAXX 21184 85432 12970 12619 10238 20017 37745 48401 57010 60001 80001 333 56000 81074
AAXX 21184 85467 12980 02614 10234 20128 40134 57022 60001
AAXX 21184 85469 42565 30811 10232 20148 40190 54001 83101 333 56200 83820
AAXX 21184 85488 12968 02910 10204 20135 40146 58011 60001
AAXX 21184 85574 12960 02012 10275 20101 39589 40118 56005 60001
AAXX 21184 85585 11598 71705 10195 20101 40219 51003 60001 87800 333 56400 83830 84633
AAXX 21184 85629 12984 01807 10250 20114 40146 58008 60001
AAXX 21184 85672 13580 12707 10226 20060 40170 58003 6001 81100 333 56600 81830
AAXX 21184 85682 12565 12513 10207 20091 40191 52005 60001 81200 333 56500 81830
AAXX 21184 85743 12560 72612 10168 20083 40187 53003 60011 87100 333 56600 87825
AAXX 21184 85782 12560 62710 10152 20056 40172 52009 69931 86200 333 56800 86820
AAXX 21184 85799 11660 52608 10134 20058 40172 52011 60041 70188 85200 333 56600 85840
AAXX 21184 85836 11660 72110 10084 20031 40182 51010 60011 78088 87200 333 56600 87833
AAXX 21184 85864 11670 42612 10117 20010 40087 54000 60011 70281 84200 333 56600 84833
AAXX 21184 85874 12582 52919 10094 20001 39446 40064 54001 60001 85200 333 56600 85830
AAXX 21184 85886 12670 32726 10144 20079 40039 56002 60001 83200 333 56600 83840
AAXX 21184 85892 12570 62012 10122 21017 40026 57002 69911 86200 333 56600 86830
AAXX 21184 85968 11660 81508 10068 20034 49951 52012 60021 78082 8722/ 333 56309 87833 88457
AAXX 21184 89056 11104 83006 10015 20011 49920 58001 60033 74442 886// 333 56799 88703
AAXX 21184 89057 11330 83304 10028 20007 49920 54001 60023 71042 886// 333 26799 88707
AAXX 21184 89058 31/08 93207 10023 20010 39899 49920 57002 74700
AAXX 21184 89059 12970 53504 11010 21045 49917 57006 60023 85020 333 78000 85460
AAXX 21184 89251 31158 83209 10017 20005 49915 57004 71022 8672/
AAXX 21184 78925 12680 50518 10291 20211 40145 58022 60001 82201 333 10298 20243 58000 82836 85080
BBXX 44007 21181 99435 70701 46/// /0000 10055 20043 40143 58036 91750 22200 00067 10703 20401 3//// 40703 70016 333 91201 555 11004 22004 31650 42504 61749 265004 285008 259010 268018 259020 239026
AAXX 21181 12772 31540 71803 11017 21031 39857 40151 52009 72272 875// 333 10005 43997 87630
AAXX 21181 12822 16/// /2702 10030 20001 30008 40154 52010 69982 333 10030
AAXX 21181 12843 11740 31702 11021 21028 39977 40154 52008 69932 71072 83500 333 11002 43001 83650
AAXX 21181 12882 31450 82005 11009 21019 30024 40161 52009 77171 8472/ 333 10015 41000 84713 88530
AAXX 21181 12925 36/// /1901 11012 21036 39996 40174 52008 333 10037
AAXX 21181 12942 31970 32804 11018 21050 39925 40180 52013 70122 83030 333 11004 43007
AAXX 21181 12982 11358 82105 11015 21029 30066 40171 53005 69912 72272 875// 333 11008 43997 81708 87633
AAXX 21184 78700 32578 10404 10340 20209 30139 40144 58005 81100 333 10340 20228 30//7 56000 59011 81830
AAXX 21184 78703 31566 10912 10292 20217 30136 40138 58013 70544 81100 333 10292 20261 30/// 56000 58003 81820
AAXX 21184 78704 31570 20908 10296 20224 30137 40142 56023 70544 82100 333 10300 20242 30/// 56200 59004 82826
AAXX 21184 78705 31570 23605 10280 20215 30117 40135 58018 70544 82101 333 10284 20197 30/// 56400 58005 82824
AAXX 21184 78706 31570 23608 10286 20231 30150 40155 57010 70544 82100 333 10286 2020192 30/// 56100 58010 82826
AAXX 21184 78707 NIL
AAXX 21184 78708 31560 30304 10296 20218 30101 40131 58021 70544 83100 333 10296 20203 30/// 56800 58007 83828
AAXX 21184 78711 31570 30610 10282 20233 30119 40134 58011 70544 83200 333 10300 20240 30/// 56200 59001 83828
AAXX 21184 78714 32576 70912 10275 20224 84270 333 10280 20202 30/// 56110 84824 87458
AAXX 21184 78717 31560 50203 10226 20168 38954 40127 58012 70544 85100 333 10232 20170 30/// 56100 58008 85825
AAXX 21184 78718 31660 10000 10276 70544 81100 333 10282 20164 30/// 56000 818140
AAXX 21184 78719 32570 10406 10212 20133 38352 40124 58007 82100 333 10212 20070 30/// 56200 58005 82824
AAXX 21184 78720 31562 50711 10258 20155 39034 40107 58016 70544 85130 333 10263 20168 30/// 56100 58001 85828
AAXX 21184 78724 32578 50214 10322 20199 30048 40105 51012 84130 333 10322 20258 30/// 56100 58003 84832
AAXX 21184 78925 12680 50518 10291 20211 40145 58022 60001 82201 333 10298 20243 58000 82836 85080
AAXX 21184 81405 01560 72903 10263 20238 30094 40103 60031 71586 85832 333 69987 58006 82820 83833 85076 555 60005
AAXX 21181 01001 11560 52010 11009 21047 39919 49931 57005 69912 78587 84860 333 11003 91113
AAXX 21181 01008 11585 21102 11104 21133 30064 40099 58007 60002 70210 82500 333 11091 91107
AAXX 21181 01010 11588 72004 10018 21021 30020 40037 52001 60002 70222 8657/ 333 10019 91106
AAXX 21181 01026 11789 82105 10015 21025 39898 40040 54000 60002 70222 8257/ 333 10016 4/020 91107
AAXX 21181 01055 46/// /1404 10008 21023 30033 40051 58002 333 10035 91107
AAXX 21181 01062 NIL
AAXX 21181 01098 11380 62306 10012 21025 30037 40055 51008 69932 70172 86600 333 10023 91111
AAXX 21181 01115 16/// /1910 10036 20015 30024 40045 57001 6//// 333 10039 91114
AAXX 21181 01152 NIL
AAXX 21181 01205 NIL
AAXX 21181 01212 16/// /1709 10035 21003 30070 40086 58011 6//// 333 10044 91114
AAXX 21181 01271 16/// /1102 11058 21071 30090 40112 52007 6//// 333 11041 91105
AAXX 21181 01288 11680 13401 11229 21253 39369 40195 53010 60002 70100 81100 333 11126 91103
AAXX 21181 01300 NIL
AAXX 21181 01317 11877 81101 11010 21020 30092 40107 58013 60002 70342 86078 333 11004 91103
AAXX 21181 01367 11489 13204 11147 21168 39701 40176 53012 60002 70210 81700 333 11135 91107
AAXX 21181 01384 11106 80201 11086 21091 39887 40142 51012 60002 74542 886// 333 11074 91105
AAXX 21181 01403 16/// /1408 10017 20010 30045 40115 58008 60002 333 10039 91110
AAXX 21181 01415 16/// /1502 11008 21014 30117 40128 53003 6//// 333 10003 91105
AAXX 21181 01482 46/// /0207 11012 21042 30131 40138 53016 333 11009 91112
AAXX 21181 01492 NIL
AAXX 21181 01003 NIL
AAXX 21181 01007 11670 81505 11070 21119 30082 40092 57011 60002 70210 8801/ 333 11067 91107
AAXX 21181 01028 11110 80805 11028 21036 30046 40066 58014 69902 71072 886// 333 11024 91109
AAXX 21181 01047 11688 81403 11082 21094 39692 40071 52004 69942 70272 8802/ 333 11028
AAXX 21181 01049 16/// /1303 11048 21068 30061 40064 52002 60002 333 11036 91106
AAXX 21181 01078 11370 82305 10010 21011 30035 40048 50004 6//// 70322 8736/ 333 10030 91109
AAXX 21181 01102 46/// /2205 10023 21004 30047 40067 52006 333 10056 91115
AAXX 21181 01160 41785 81005 10027 20008 30025 40042 58003 70282 888// 333 10030 91107
AAXX 21181 01218 NIL
AAXX 21181 01238 41684 41504 11089 21127 38960 40105 52008 70300 81105 333 11063 91106
AAXX 21181 01241 11484 32206 10008 21019 30080 40092 50003 69902 71581 82862 333 10026 91111
AAXX 21181 01281 NIL
AAXX 21181 01338 16/// /0804 11008 21039 30069 40137 50001 60002 333 11006 91109
AAXX 21181 01359 NIL
AAXX 21181 01397 16/// /0000 11201 21218 39694 40173 51009 60002 333 11151 91102
AAXX 21181 01400 NIL
AAXX 21181 01427 11584 81004 11007 21026 30121 40137 50008 60002 70321 8345/ 333 10031 91105
AAXX 21181 01447 NIL
AAXX 21181 01448 46/// /3604 11020 21037 30134 40144 53009 333 10003 91105
BBXX CGDS 21184 99450 70747 46/// /0403 10017 21001 4//// 5//// 7//// 8//// 22200 00063 2////
AAXX 21181 10004 NIL
AAXX 21181 10015 12984 73202 10059 20027 30154 40164 51020 60022 8703/ 222// 02062 333 10074 20054 31003 55300 20000 30000 87365
AAXX 21181 10020 17982 03203 10038 20028 30121 40154 51018 69972 70065 333 10061 20029 3/100 55300 20000 30000
AAXX 21181 10035 12975 02903 10010 20003 30096 40156 51021 69912 333 10054 20010 31102 55300 20000 30000 40855
AAXX 21181 10055 12575 23406 10038 20012 30135 40146 51023 60002 82100 333 10047 20034 30003 55300 20000 30000 82824
AAXX 21181 10147 NIL
AAXX 21181 10162 15559 32804 10019 20016 30064 40149 51019 60002 333 10044 20015 3/100 55300 20000 30000 83/26
AAXX 21181 10184 01458 82001 10021 20016 30129 40137 51021 60012 76076 877// 333 10028 21003 3/101 42001 55300 20000 30000 69927 87710
AAXX 21181 10200 01970 72502 10043 20038 30171 40169 51016 69972 70282 8707/ 333 10067 20036 32100 55300 20000 30000 69937 87363
AAXX 21181 10224 11680 72602 10025 20019 30161 40168 51017 69982 70282 8653/ 333 10066 20025 32000 55300 20000 30000 86634
AAXX 21181 10270 16460 12802 10022 20013 30096 40152 51020 69912 222// 06042 333 10041 20014 3/000 55300 81/14
AAXX 21181 10338 01465 72803 10041 20033 30096 40170 51020 69932 70282 875// 333 10052 20029 31001 55300 20000 30000 69907 82617 84625 87636
AAXX 21181 10361 01470 73002 10033 20024 30057 40163 53018 60022 70262 878// 333 10053 20027 31001 55300 20000 30000 69917 83816 87636
AAXX 21181 10393 01362 33003 10016 20016 30013 40143 52019 69972 70181 83100 333 10031 20003 31000 55300 20000 30000 69907 83809
AAXX 21181 10400 11362 72301 10045 20036 30140 40191 53017 69952 70362 875// 333 10055 20035 31003 55300 20000 30000 81708 87615 96463
AAXX 21181 10438 07559 81301 10028 20019 39899 40185 53017 69952 72365 333 10040 20022 3/001 55300 69907 81/23 84/28 88/57
AAXX 21181 10469 01581 72804 10031 20020 39996 40164 53014 60032 70386 875// 333 10046 20030 32002 55300 60017 87623
AAXX 21181 10488 01164 82805 10023 20015 39868 40155 53013 60022 76186 877// 333 10037 20016 32001 55300 20000 30000 41155 69917 81703 87706
AAXX 21181 10506 11/06 92202 10015 20010 39606 40202 53016 69902 74722 333 10018 20011 31001 4/998 55300 20000 30000
AAXX 21181 10548 01463 72603 10017 20001 39632 40185 53010 69922 72152 876// 333 10019 20010 3/001 42001 55300 20000 30000 69907 87710
AAXX 21181 10637 01475 82004 10034 20020 30058 40199 53013 69902 70262 885// 333 10040 20025 31001 4/998 55300 69907 88616 96461
AAXX 21181 10685 01356 72603 11001 21009 39487 40178 52011 69932 77077 878// 333 10007 21001 3/101 43008 55300 20000 30000 69917 83809 86640
AAXX 21181 10738 01466 82101 10017 20002 39726 40208 51009 69912 72176 875// 333 10022 20015 3/000 44003 55300 69907 81710 87618 96468 96460
AAXX 21181 10763 01362 82704 10020 20006 39802 40194 52010 69922 72162 886// 333 10026 20018 31001 55300 20000 30000 69907 87708
AAXX 21181 10788 07459 62504 10016 20009 39749 40191 51009 69962 75176 333 10024 20012 3/001 55300 20000 30000 69927 81/18 85/23 86/41
AAXX 21181 10852 01359 82603 10010 20006 39623 40207 51008 60022 77872 885// 333 10019 20006 31000 41998 55300 20000 30000 69917 86707 87623
AAXX 21181 10946 07460 81901 11001 21006 39359 40212 51005 60022 77170 333 10005 21003 3/100 4/016 55300 20000 30000 69947 87/12 87/28 88/34
AAXX 21184 78897 14686 /0616 10284 20196 40154 57021 60001 700// 333 10294 20198 58001 79999
AAXX 21181 37575 42998 00502 10035 21012 39613 40208 54000 333 10074
AAXX 21181 37675 42995 02302 10042 20011 39484 40145 52022 333 10102 555 53003
AAXX 21181 37735 42996 02901 10046 21005 39781 40161 53002 333 10067
AAXX 21181 37749 42998 03602 10044 20013 30114 40333 53003 333 10100 555 53002
AAXX 21181 37756 41/93 92808 10010 20010 39316 40234 53011 74542 333 10046
AAXX 21181 37864 32997 01909 10077 20049 40162 57006 333 10097
AAXX 21181 37985 42996 02001 10041 20034 30213 40198 57005 333 10092
AAXX 21184 78897 14686 /0616 10284 20196 40154 57021 60001 700// 333 10294 20198 58001 79999
AAXX 21181 10609 01/02 92102 10032 20028 39864 40201 53012 60012 75065 333 10033 20019 31001 55300 20000 30000 69947 96047
AAXX 21181 10616 01/04 92802 10014 20010 39589 40203 53013 69932 74576 333 10014 20005 31000 41998 55300 69907 96468 96445
AAXX 21181 10641 07461 82203 10036 20021 30048 40198 53012 69902 70065 333 10037 20024 3/001 55300 69907 88/18 88/25
AAXX 21181 10655 01365 82101 10021 20014 39859 40195 53009 69922 76076 877// 333 10037 20020 31001 55300 20000 30000 69917 87707
AAXX 21181 10675 07371 82502 10028 20008 39894 40192 53011 69902 70065 333 10035 20024 3/002 55300 20000 30000 69907 88/09
AAXX 21181 10688 07350 82502 10008 20004 39654 40190 53013 60022 72476 333 10014 20005 3/000 55300 20000 30000 69937 86/08 87/16 88/47
AAXX 21181 10708 01015 82103 10017 20015 39812 40208 53013 60032 75176 887// 333 10019 20010 32001 4/998 55300 20000 30000 69917 88701
AAXX 21181 10729 07465 81902 10029 20021 30090 40215 53015 69912 70065 333 10030 20010 3/101 55300 20000 30000 69907 88/16
AAXX 21181 10731 11468 82604 10039 20023 30059 40205 52011 69962 70262 887// 333 10039 20032 31003 55300 20000 30000 88712
AAXX 21181 10742 07244 82604 10025 20019 39863 40202 51008 69932 72376 333 10029 20020 3/001 55300 20000 30000 69937 88/04
AAXX 21181 10776 01662 82803 10015 20004 39736 40191 51008 69952 72065 885// 333 10022 20013 31001 55300 20000 30000 69907 88635
AAXX 21181 10791 01/90 93011 11054 21058 38496 48442 51013 60052 77374 333 11050 21054 49099 55300 69977 96049 96038
AAXX 21181 10805 01450 82004 10035 20027 30019 40214 53011 60022 75165 885// 333 10040 20028 31002 55300 20000 30000 69907 82717 88622
AAXX 21181 10815 01068 82605 11006 21006 39244 48466 53007 60032 72077 885// 333 11005 21012 3/101 43037 55300 20000 30000 69927 81701 84703 87606 96277 96477 96471
AAXX 21181 10836 01/02 92705 11006 21006 39313 40206 51008 60042 77874 333 11006 21011 3/101 44022 55300 20000 30000 60017 89/03 96045
AAXX 21181 10870 01356 82603 10009 20005 39657 40205 51009 69962 77175 8472/ 333 10024 20007 3/000 42002 55300 69907 84707 88513 96268 96471 96468 96450
AAXX 21181 10895 01730 82605 10002 21001 39606 40191 53010 69952 77177 8672/ 333 10011 20000 3/000 44005 55300 20000 30000 69917 88550 96473
AAXX 21181 10908 01/01 92806 11037 21038 38478 48475 51016 69972 77174 333 11037 21059 3/106 49069 55300 20000 30000 69927 89/01 91117 91213 96049
AAXX 21181 10929 01469 82504 10022 20007 39672 40216 51006 69912 72176 875// 333 10022 20017 31001 4/998 55300 20000 30000 69917 82713 87640
AAXX 21181 10948 07/39 /1603 11011 21011 39247 48474 51005 60032 77170 333 10006 21012 3/102 4/057 55300 20000 30000 60017
AAXX 21181 10961 11/00 93509 11142 21142 37003 47963 53011 60202 77374 333 11142 21159 49200 55300 20000 40985 91119 91213 96049
AAXX 21181 10962 01/02 92405 11022 21023 39031 48464 53008 60022 77374 333 11019 21024 3/102 48021 55300 20000 30000 60017 96049 96036
AAXX 21181 10980 11/01 93110 11074 21074 38108 48465 53011 60102 77174 333 11073 21083 3/108 48056 55300 20000 30000 91120 91216 96049 96471 96449
AAXX 21181 10007 NIL
AAXX 21181 10044 46/// /3007 10040 20009 30118 40150 51022 222// 00051 333 10054 20020 55300
AAXX 21181 10046 12975 12703 10012 20000 30115 40155 52022 60002 80001 333 10049 21004 34103 81069
AAXX 21181 10091 07475 81002 10027 20012 30082 40134 51024 69992 70065 333 10027 21008 3/101 55300 20000 30000 69907 87/16 87/23 88/46
AAXX 21181 10113 11565 83402 10054 20042 30148 40167 51016 60012 70381 8457/ 333 10064 20047 31003 55300 20000 30000 84623 87362
AAXX 21181 10124 46/// ///// 10062 2//// 30121 40159 51018 222// 00055 333 10067 20054 553// 91113
AAXX 21181 10131 12980 32603 10035 20024 30148 40163 51019 69982 82032 333 10061 20034 31001 55300 20000 30000 82366
AAXX 21181 10170 12584 63208 10042 20005 30124 40140 51020 69902 86200 333 10051 20029 31002 55300 20000 30000 86828
AAXX 21181 10264 16250 72804 10023 20018 30038 40147 51020 69902 333 10038 20013 3/001 55300 20000 30000 87/03 87/35
AAXX 21181 10291 01575 52804 10015 20008 30072 40141 52020 69972 72161 85500 333 10034 20003 31101 4/998 55300 20000 30000 69907 85628
AAXX 21181 10315 01340 82403 10050 20046 30115 40180 52013 69912 72162 886// 333 10055 20035 31003 55300 20000 30000 69917 87707
AAXX 21181 10379 01375 72905 10028 20022 30023 40147 53018 69942 72582 878// 333 10042 20021 31001 55300 20000 30000 41065 69907 84807 86620
AAXX 21181 10382 01375 62803 10029 20018 30101 40147 52019 69962 70186 86800 333 10042 20015 31001 55300 20000 30000 69917 84807 85640
AAXX 21181 10384 06/// /2904 10037 20026 30084 40145 53019 69982 333 10046 20020 3/001 55300 20000 30000 69917
AAXX 21181 10427 01/01 92804 11008 21008 39159 48451 53014 60042 77174 333 11008 21014 3/101 48061 55300 20000 30000 60017 96049 96473 96470
AAXX 21181 10430 01220 82602 10041 20036 39986 40181 53015 69972 72065 886// 333 10041 20028 31002 55300 20000 30000 69907 88704 96010
AAXX 21181 10439 12562 82101 10030 20014 39963 40188 52015 69912 875// 333 10045 20017 31001 83623 87632
AAXX 21181 10453 11/90 93109 11026 21026 38808 48434 53012 60072 78584 333 11026 21034 3/103 49127 55300 91118 91213 96049 96036 96488 96486 96449 96436
AAXX 21181 10496 01470 22802 10022 20014 30058 40145 51017 60042 72686 82800 333 10038 20018 32000 55300 20000 30000 69967 81810 96284 96487
AAXX 21181 10499 01359 82902 10013 20003 39850 40147 51020 60032 70276 875// 333 10023 20003 3/100 42997 55300 20000 30000 69907 82707 87616
AAXX 21181 10505 01150 82104 10038 20035 39908 40195 53015 69932 72052 886// 333 10040 20028 31003 55300 20000 30000 69907 88703
AAXX 21181 10513 11482 82801 10044 20034 30075 40199 53016 69912 70262 885// 333 10052 20035 31003 55300 20000 30000 88611
AAXX 21181 10532 07458 82403 10029 20021 39937 40190 53012 69932 72365 333 10034 20021 3/002 55300 20000 30000 69907 88/10 88/26 88/50
AAXX 21181 10544 01/00 92704 11022 21022 39081 48448 53009 60032 77174 333 11016 21022 3/102 48028 55300 60017 96049 96147 96273
AAXX 21181 10554 01468 82906 10021 20011 39781 40177 53013 69912 72586 878// 333 10030 20012 31001 55300 20000 30000 69907 82813 87631 96280 96460 96458
AAXX 21181 10567 01360 82804 10021 20013 39786 40169 51012 69962 76876 877// 333 10034 20019 31001 55300 20000 30000 69947 87707
AAXX 21181 10578 11/01 92815 11037 21041 38730 48425 51009 60092 77574 333 11035 21040 3/104 48070 55300 20000 30000 96049
BBXX BATFR04 21184 99584 70062 46/// /2429 10114 20097 40032 53001 22200 00102
BBXX BATFR09 21184 99366 70093 44498 53617 10157 20117 40292 58009 70222 85100 22223 00175 20304 60//0 ICE 0/0//
BBXX BATFR01 21184 99349 10249 46/// /2218 10164 20095 40150 58002 22262 00182
BBXX BATFR11 21184 99418 10099 46/// ///// 10127 20032 40149 53004 22284 00154
BBXX BATEU05 21184 99581 70344 46/// /3011 10019 21013 49938 53015 22223
BBXX BATFR55 21184 99082 30424 44598 73413 10269 20247 40118 70322 86232 22262 00294 20802 32121 410// 510//
BBXX BAREU06 21184 99459 70527 46/// ///// 40196 52006 22224
BBXX BATFR35 21184 99165 51518 46/// /0923 10229 20194 40113 22221 00294
BBXX BATFR19 21184 99066 30057 46/// /1914 10234 20189 40128 52008 22200 00252
BBXX BATEU04 21184 99593 10032 46/// /1724 10065 20020 40090 58031 22273
BBXX BATFR46 21184 99402 10018 44/97 22215 10162 20119 40224 56003 70131 8//2/ 22213 00159 22002 323// 42502 5////
BBXX BATFR33 21184 99422 10074 46/// /3120 10134 20062 40139 58006 22274 00147
BBXX BATFR14 21184 99353 70360 44498 73010 10199 20157 40188 53001 70222 8726/ 22214 00207 202// 312// 407// 5//// 60000 ICE 0/0//
BBXX BATFR56 21184 99192 30584 46/// /1024 10257 20207 40150 51019 22213 00284
BBXX BATFR52 21184 99507 70011 46/// /2917 10112 20094 40222 55004 22213 00094
BBXX BATFR42 21184 99502 70017 46/// /2622 10119 20104 40231 22243 00125
BBXX BATEU01 21184 99497 70047 46/// /2817 10122 20100 40264 52004 22224 00124
BBXX BATFR12 21184 99480 70068 46/// /3013 10132 20110 40309 51021 22251 00144
AAXX 21184 78862 11478 60616 10263 20203 30138 40161 69951 70582 85202 333 10270 20218 58001 70041 85817 85076
AAXX 21184 TAF TQPF 202200Z 2100/2124 05016KT 9999 SCT022 PROB30 TEMPO 2100/2114 SHRA BKN018 BKN036
AAXX 21184 TAF TUPJ 202200Z 2100/2124 05016KT 9999 SCT022 PROB30 TEMPO 2100/2114 SHRA BKN018 BKN036
AAXX 21184 PROB40 TEMPO 1818/1918 5000 SHRA BKN015 BKN035
AAXX 21184 EMPO 0600/0624 SHRA BKN015=+TSRA SCT012CB
AAXX 21184 TAF TUPJ 041000Z 04012/0512 07008KT 9999 SCT016 BKN038 SCT270 TEMPO 0412/0512 SHRA BKN015 PROB40 TEMPO 0418/0512 5000 SHRA BKN014 BKN036 PROB30 0420/0512 4000 TSRA FEW012CB
AAXX 21184 918 4000 TSRA FEW012CB
AAXX 21184 N015 BKN036 PROB40 TEMPO 0704/0724 3000 +TSRA SCT011CB BKN012 BECMG 0712/0714 14008KT
AAXX 21184 21/2712 07017G28KT 5000 SHRA BKN015 BKN036 PROB TEMPO 2700/2712 4000 TSRA FEW013CB
AAXX 21184 PROB30 TEMPO 0800/0806 4000 TSRA FEW012CB PROB40 TEMPO 0800/0824 2000 +SHRA/TSRA SCT010CB BKN012 BKN250
AAXX 21181 01037 NIL
AAXX 21181 01046 11989 21506 11016 21045 30043 40050 50000 60002 70120 80002 333 10017 91108
AAXX 21181 01058 16/// /1502 11080 21091 39598 40078 52004 69942 333 11075 4/018 91103
AAXX 21181 01065 NIL
AAXX 21181 01092 NIL
AAXX 21181 01107 16/// /2204 10031 2//// 30038 40042 50004 60082 333 10048 91111
AAXX 21181 01114 NIL
AAXX 21181 01144 46/// /2009 10029 20014 333 10033 91115
AAXX 21181 01199 NIL
AAXX 21181 01245 NIL
AAXX 21181 01259 16/// /2110 10028 21001 30053 40076 56001 60062 333 10055 91115
AAXX 21181 01262 NIL
AAXX 21181 01278 NIL
AAXX 21181 01293 16/// /2801 11075 21081 39903 40120 52008 60002 333 11052 91104
AAXX 21181 01329 NIL
AAXX 21181 01337 NIL
AAXX 21181 01344 16/// ///// 11093 21109 60002 333 11050 4/078
AAXX 21181 01364 NIL
AAXX 21181 01373 16/// /0000 11150 21165 39954 40165 53012 60002 333 11122 91100
AAXX 21181 01374 NIL
AAXX 21181 01380 16/// /3402 11155 21175 6//// 333 11085 4/028 91103
AAXX 21181 01389 NIL
AAXX 21181 01393 NIL
AAXX 21181 01424 16/// ///// 11048 21060 30138 40142 53003 69932 333 11043
AAXX 21181 01431 16/// /0101 11129 21141 39470 40179 51011 60002 333 11107 91104
AAXX 21181 01436 NIL
AAXX 21181 01465 11975 23603 11021 21032 30127 40146 53010 60002 70200 80001 333 11004 91106
AAXX 21181 01471 11989 82803 11073 21097 60002 70321 80007 333 11052 91104
AAXX 21181 01483 NIL
AAXX 21181 01025 16/// /2205 10020 21016 30030 40041 54001 60002 333 10022 91108
AAXX 21181 01052 16/// /0401 11039 21071 39948 40048 57002 60002 333 11004 91104
AAXX 21181 01122 16/// /2201 11026 21032 39985 40076 52004 69992
AAXX 21181 01132 16/// /2002 11014 21026 39693 40087 52006 69992 333 11014 4/041 91105
AAXX 21181 01156 NIL
AAXX 21181 01203 46/// /1611 10041 21048 30026 40075 58017 333 10055 91117
AAXX 21181 01233 16/// /0701 11117 21127 60002 333 11105 91104
AAXX 21181 01265 NIL
AAXX 21181 01273 NIL
AAXX 21181 01307 46/// /1409 10016 21018 30071 40099 58013 333 10023 91111
AAXX 21181 01321 16/// /1302 11027 21029 39851 40111 58009 69952 333 11020 91106
AAXX 21181 01327 16/// /0702 11053 21064 60002 333 11029 91104
AAXX 21181 01350 16/// /2901 11159 21165 38702 40120 50006 69922 333 11066 91105
AAXX 21181 01361 16/// /0000 11140 21156 39078 40167 50005 60002 333 11104 91103
AAXX 21181 01375 NIL
AAXX 21181 01378 16/// /0202 11123 21142 39843 40154 53010 60002 333 11112 91106
AAXX 21181 01385 16/// /0701 11126 21137 39871 40161 53010 60002 333 11114 91102
AAXX 21181 01412 16/// /1405 10018 21018 30099 40129 53004 60002 333 10021 91107
AAXX 21181 01422 16/// /1203 11007 21029 60002 333 11002 91105
AAXX 21181 01440 NIL
AAXX 21181 01441 NIL
AAXX 21181 01467 NIL
AAXX 21181 01469 NIL
AAXX 21181 01477 16/// /3001 11111 21119 60002 333 11056 4/019 91104
AAXX 21181 01480 16/// /3301 11095 21112 60002 333 11068 91105
AAXX 21181 01484 16/// /0102 11125 21142 39984 40151 53013 69922 333 11045 91104
AAXX 21181 01490 16/// /0301 11052 21067 60002 333 11033 91105
AAXX 21181 01495 16/// /0404 11049 21065 30126 40139 53014 60002 333 11017 91108
AAXX 21181 01121 46/// /1705 10021 20002 30049 40062 50003 333 10032 91111
AAXX 21181 01135 NIL
AAXX 21181 01143 16/// /2202 11002 21022 60002 333 10000 91104
AAXX 21181 01150 16/// /1901 11040 21056 6//// 333 11038 91104
AAXX 21181 01192 NIL
AAXX 21181 01225 46/// /2311 10025 20004 30085 40090 50005 333 10056 91116
AAXX 21181 01230 16/// /1002 11149 21162 60002 333 11129 4/036 91104
AAXX 21181 01232 16/// /1804 11044 21085 30044 40126 50005 60002 333 4/026
AAXX 21181 01234 16/// /2006 11047 21069 60002 333 11032 91108
AAXX 21181 01253 16/// /1901 11113 21125 60002 333 11090 4/033 91102
AAXX 21181 01254 16/// /1501 11140 21156 60002 333 11098 4/018 91104
AAXX 21181 01257 NIL
AAXX 21181 01277 NIL
AAXX 21181 01291 16/// /3601 11028 21033 69922 333 11020 4/022 91102
AAXX 21181 01332 16/// /0000 11027 21038 69932 333 11025 91102
AAXX 21181 01366 46/// /0801 11128 21147 38472 40161 53006 333 11096 91103
AAXX 21181 01370 NIL
AAXX 21181 01376 16/// /3102 11111 21123 60002 333 11060 91104
AAXX 21181 01383 46/// /2801 11199 21213 39838 40182 52011 333 11179 91102
AAXX 21181 01386 16/// ///// 11140 21157 60002 333 11100
AAXX 21181 01416 16/// ///// 11006 2//// 60002 333 10006
AAXX 21181 01419 NIL
AAXX 21181 01430 16/// ///// 11038 21047 60002 333 11014
AAXX 21181 01434 16/// /0101 11152 21171 39154 40147 53008 69942 333 11052 91103
AAXX 21181 01455 NIL
AAXX 21181 01468 16/// /0601 11119 21133 60002 333 11066 91104
AAXX 21181 01470 16/// /0602 11069 21076 30030 40150 53016 60002 333 11046 4/006 91104
AAXX 21181 01476 NIL
AAXX 21181 01481 16/// /0201 11070 21083 30113 40147 53015 60002 333 11040 91106
AAXX 21181 01488 NIL
AAXX 21184 78862 11478 60616 10263 20203 30138 40161 69951 70582 85202 333 10270 20218 58001 70041 85817 85076
AAXX 21184 TAF TQPF 202200Z 2100/2124 05016KT 9999 SCT022 PROB30 TEMPO 2100/2114 SHRA BKN018 BKN036
AAXX 21184 TAF TUPJ 202200Z 2100/2124 05016KT 9999 SCT022 PROB30 TEMPO 2100/2114 SHRA BKN018 BKN036
AAXX 21184 PROB40 TEMPO 1818/1918 5000 SHRA BKN015 BKN035
AAXX 21184 EMPO 0600/0624 SHRA BKN015=+TSRA SCT012CB
AAXX 21184 TAF TUPJ 041000Z 04012/0512 07008KT 9999 SCT016 BKN038 SCT270 TEMPO 0412/0512 SHRA BKN015 PROB40 TEMPO 0418/0512 5000 SHRA BKN014 BKN036 PROB30 0420/0512 4000 TSRA FEW012CB
AAXX 21184 918 4000 TSRA FEW012CB
AAXX 21184 N015 BKN036 PROB40 TEMPO 0704/0724 3000 +TSRA SCT011CB BKN012 BECMG 0712/0714 14008KT
AAXX 21184 21/2712 07017G28KT 5000 SHRA BKN015 BKN036 PROB TEMPO 2700/2712 4000 TSRA FEW013CB
AAXX 21184 PROB30 TEMPO 0800/0806 4000 TSRA FEW012CB PROB40 TEMPO 0800/0824 2000 +SHRA/TSRA SCT010CB BKN012 BKN250
AAXX 21181 01015 NIL
AAXX 21181 01023 NIL
AAXX 21181 01033 46/// /1505 10035 21005 30003 40034 54000 333 10038 91107
AAXX 21181 01059 11789 31709 11072 21087 30055 40065 58002 60002 70300 83500 333 11048 91110
AAXX 21181 01089 11270 31502 11091 21096 39970 40081 51008 69914 71100 83600 333 11034 91106
AAXX 21181 01167 11586 82104 10025 21015 30035 40039 52002 69902 78082 8437/ 333 10025 91106
AAXX 21181 01180 NIL
AAXX 21181 01210 41685 71408 10029 21014 30056 40083 58014 70282 83268 333 10041 91111
AAXX 21181 01228 NIL
AAXX 21181 01240 16/// /2409 10046 21032 30057 40077 50002 6//// 333 10052 91114
AAXX 21181 01304 46/// /1411 10033 21014 30054 40085 58019 333 10039 91112
AAXX 21181 01311 46/// /1404 11004 21022 30048 40112 58009 333 11001 91106
AAXX 21181 01340 NIL
AAXX 21181 01355 16/// ///// 11044 21058 30146 40151 50009 60002 333 11024
AAXX 21181 01360 NIL
AAXX 21181 01392 11980 03301 11130 21142 39917 40159 52009 60002 70200 333 11084 91103
AAXX 21181 01406 46/// /1406 10012 21004 30094 40113 55006 333 10025 91109
AAXX 21181 01411 16/// /1303 10012 20005 30100 40126 53001 6//// 333 10025 91105
AAXX 21181 01425 NIL
AAXX 21181 01433 46/// /0000 11073 21122 38847 40143 50005 333 11049 91103
AAXX 21181 01442 11889 83504 11041 21059 39888 40155 53014 60002 70310 8805/ 333 11022 91107
AAXX 21181 01450 NIL
AAXX 21181 01452 11980 30503 11074 21081 30126 40149 53011 60002 70300 80001 333 11037 91104
AAXX 21181 01473 11980 13601 11113 21122 39934 40155 53012 60002 70200 80001 333 11078 91103
AAXX 21181 01494 11985 00202 11070 21083 30074 40143 51014 60002 70200 333 11036 91105
AAXX 21184 78862 11478 60616 10263 20203 30138 40161 69951 70582 85202 333 10270 20218 58001 70041 85817 85076
AAXX 21184 TAF TQPF 202200Z 2100/2124 05016KT 9999 SCT022 PROB30 TEMPO 2100/2114 SHRA BKN018 BKN036
AAXX 21184 TAF TUPJ 202200Z 2100/2124 05016KT 9999 SCT022 PROB30 TEMPO 2100/2114 SHRA BKN018 BKN036
AAXX 21184 PROB40 TEMPO 1818/1918 5000 SHRA BKN015 BKN035
AAXX 21184 EMPO 0600/0624 SHRA BKN015=+TSRA SCT012CB
AAXX 21184 TAF TUPJ 041000Z 04012/0512 07008KT 9999 SCT016 BKN038 SCT270 TEMPO 0412/0512 SHRA BKN015 PROB40 TEMPO 0418/0512 5000 SHRA BKN014 BKN036 PROB30 0420/0512 4000 TSRA FEW012CB
AAXX 21184 918 4000 TSRA FEW012CB
AAXX 21184 N015 BKN036 PROB40 TEMPO 0704/0724 3000 +TSRA SCT011CB BKN012 BECMG 0712/0714 14008KT
AAXX 21184 21/2712 07017G28KT 5000 SHRA BKN015 BKN036 PROB TEMPO 2700/2712 4000 TSRA FEW013CB
AAXX 21184 PROB30 TEMPO 0800/0806 4000 TSRA FEW012CB PROB40 TEMPO 0800/0824 2000 +SHRA/TSRA SCT010CB BKN012 BKN250
AAXX 21181 11816 11460 82402 10031 20005 39983 40149 52010 60042 76176 885// 333 10038 43002 85612 87618
AAXX 21181 11826 11310 80000 11017 21025 39939 40145 52007 60032 77172 885// 333 11012 43006 85608 88611
AAXX 21181 11903 11556 80000 11051 21054 39753 40150 53004 69942 71077 885// 333 11032 47997 88630
AAXX 21181 11934 11560 70000 11062 21083 39291 42730 52012 69902 77077 8657/ 333 11019 42001 83623 83650 85360
AAXX 21181 11968 11256 82301 11016 21039 39859 40149 52014 69902 77122 885// 333 10002 43997 86706 88656
AAXX 21184 07005 04/60 /2910 10108 20102 30115 40205 52020 69962 700// 333 10109 20057 60007 90710 91118 555 60005
AAXX 21184 07015 01118 82803 10076 20073 30139 40197 52020 60022 71054 886// 333 10076 20047 69907 88703 90710 91105 93100 555 60005
AAXX 21184 07020 06/// /2708 10120 20111 30220 40247 52016 60002 333 10129 20119 60007 90710 91115 555 60005
AAXX 21184 07027 02475 82813 10116 20103 30153 40234 52017 69902 885// 333 10128 20104 60007 88616 90710 91121 93100 555 60005
AAXX 21184 07037 04362 82910 10108 20102 30033 40217 51020 60022 700// 333 10113 20065 60007 90710 91116 555 60005
AAXX 21184 07070 04250 83207 10075 20069 30089 40201 52020 69982 700// 333 10075 20045 69907 90710 91111 555 60005
AAXX 21184 07110 01365 83108 10113 20104 30165 40281 52017 69902 70252 885// 333 10117 20110 60007 86609 87640 90710 91113 93100 555 60005
AAXX 21184 07117 01540 82912 10118 20105 30197 40268 53016 69902 75365 887// 333 10118 20109 69907 90710 91123 92436 555 69905
AAXX 21184 07130 04370 83110 10113 20107 30206 40259 53015 69922 700// 333 10122 20113 60007 90710 91120 555 60005
AAXX 21184 07139 06/// /3008 10113 20100 30060 40234 53016 69982 333 10119 20075 69927 90710 91112 555 60005
AAXX 21184 07149 01470 73208 10115 20101 30103 40212 51025 60032 72052 878// 333 10115 20062 69907 85713 86620 90710 91114 93100 555 69905
AAXX 21184 07168 04/57 /3108 10081 20073 30062 40206 53019 60032 700// 333 10084 20047 69907 90710 91114 555 69905
AAXX 21184 07181 04261 82004 10029 20026 39789 40210 53014 60022 700// 333 10030 20020 69927 90710 91109 555 69905
AAXX 21184 07190 04238 81904 10034 20025 30026 40214 53012 60022 750// 333 10036 20029 69927 90710 91108 555 69925
AAXX 21184 07207 02568 83317 10121 20105 60002 885// 222// 327// 333 10131 20119 60007 90710 91127 92437 555 60005
AAXX 21184 07222 02460 83105 10129 20108 30230 40262 53018 60002 875// 333 10132 20119 60007 87614 90710 91112 555 60005
AAXX 21184 07240 02470 82909 10122 20103 30103 40238 52023 60022 885// 333 10126 20074 60007 88616 90710 91115 93100 555 60005
AAXX 21184 07255 04250 82907 10111 20106 30027 40228 52023 60052 700// 333 10112 20068 69947 90710 91114 555 69925
AAXX 21184 07280 04249 81906 10040 20036 39937 40217 51012 60052 710// 333 10040 20025 69987 90710 91110 555 60005
AAXX 21184 07299 01457 81102 10027 20020 39882 40220 51011 60032 76162 878// 333 10037 20026 69987 85611 87620 90710 91105 93100 555 69925
AAXX 21184 07314 06/// /3212 10119 20113 30249 40277 53021 69902 333 10134 20119 60007 90710 91122 555 60005
AAXX 21184 07335 04281 83310 10114 20109 30108 40254 53018 60012 700// 333 10121 20075 69927 90710 91116 555 69905
AAXX 21184 07434 04115 82908 10100 20097 39767 40249 51018 60062 751// 333 10100 20053 69907 90710 91114 555 69905
AAXX 21184 07460 02570 71002 10087 20084 39831 40224 53017 60022 875// 333 10087 20047 60007 87623 90710 91105 93100 555 60005
AAXX 21184 07471 04457 72906 10057 20051 39237 48821 51012 69962 700// 333 10061 20008 69907 90710 91114 555 69905
AAXX 21184 07481 01220 81304 10035 20026 39933 40230 53010 60072 76166 885// 333 10046 20026 60037 81705 86630 88643 90710 91108 93100 555 69965
AAXX 21184 07510 01570 72909 10127 20099 30215 40281 53015 69942 70352 875// 333 10140 20109 60007 87623 90710 91117 93100 555 60005
AAXX 21184 07535 06/// /2907 10105 20103 39943 40258 53018 60072 333 10109 20065 69967 90710 91118 555 60005
AAXX 21184 07558 06/// /3020 10088 20079 39377 40215 52014 69962 333 10088 20036 69907 91034 90710 91134 555 60005
AAXX 21184 07577 04/70 /0409 10058 20043 30110 40202 51001 69942 700// 333 10078 20057 69927 90710 91114 555 69905
AAXX 21184 07591 04/// /3301 11006 21028 39143 4//// 54000 60002 700// 333 10066 21059 60007 90710 91104 555 60005
AAXX 21184 07607 04566 82810 10119 20110 30222 40294 51017 60012 700// 333 10139 20106 60017 90710 91118 555 69925
AAXX 21184 07621 01345 82711 10109 20101 39863 40300 53019 60022 75052 885// 333 10120 20088 69987 86708 88613 90710 91123 93100 555 69945
AAXX 21184 07627 06/// /2913 10114 20090 39790 40280 53018 60022 333 10134 20082 60007 90710 91130 555 60005
AAXX 21184 07630 01465 82913 10122 20111 30087 40268 51020 60052 72065 888// 333 10129 20087 69927 86812 87620 90710 91123 93100 555 69925
AAXX 21184 07643 02784 70303 10097 20055 30182 40192 51007 60002 875// 333 10148 20060 60007 87650 90710 91105 555 60005
AAXX 21184 07650 02886 72916 10099 20038 30139 40178 53003 60002 8703/ 333 10125 20073 60007 87358 90710 91121 93100 555 60005
AAXX 21184 07661 02968 62734 10109 20032 39975 40136 58012 60002 86040 333 10120 20080 60007 86358 90710 91143 555 60005
AAXX 21184 07690 02980 13308 10075 21025 30110 40144 56002 60002 80002 333 10143 20037 60007 81073 90710 91110 93100 555 60005
AAXX 21184 07747 02570 73019 10161 20093 30151 40204 53013 60002 8383/ 333 10170 20125 60007 81820 83643 85366 91034 90710 91139 93100 555 60005
AAXX 21184 07761 02570 20508 10068 20034 30145 40156 51007 60002 81102 333 10142 20023 60007 81830 90710 91111 93100 555 60005
AAXX 21184 07790 02865 32308 10081 20019 30136 40151 53004 60002 81032 333 10132 20053 60007 81358 83069 90710 91112 93100 555 60005
AAXX 21181 78221 11462 50907 10270 20194 30154 40181 57020 60004 70300 85200 333 85818
AAXX 21181 78224 33960 01205 10275 20148 30108 40181 58019
AAXX 21181 78229 32559 11001 10194 20169 30126 40201 52010 81400 333 81630
AAXX 21181 78239 31559 30907 10265 20192 30179 40182 57020 70500 83800 333 82820
AAXX 21181 78244 NIL
AAXX 21181 78243 42559 20705 10270 20161 30063 40186 57024 82100 333 82820
AAXX 21181 78255 42559 40907 10268 20183 30036 40185 57020 83231 333 10268 20174 82820
AAXX 21181 78264 31560 41309 10285 20208 30093 40168 57020 70300 84200 333 10292 20204 82820 84830
AAXX 21181 78265 31559 60907 10263 20180 30074 40174 57020 70544 83201 333 10263 20174 83825 85080
AAXX 21181 78256 11559 40606 10299 20152 30110 40174 57026 60004 70000 84100 333 10301 20214 84825
AAXX 21181 78259 31559 51705 10293 20166 30090 40178 57027 70544 85200 333 85820
AAXX 21181 78268 11460 31208 10265 20215 30167 40186 57015 60001 70122 83200 333 83815 87830
AAXX 21184 03005 11228 82122 10072 20068 39894 49994 56044 60082 76362 887// 91750 333 10072 55300 20000 88703 90710 91138
AAXX 21184 03017 17462 /2520 10098 20093 39990 40021 56015 60052 723// 91750 333 10098 55300 20000 88/10 90710 91129
AAXX 21184 03023 17250 /2323 10103 20102 30068 40073 50001 60012 723// 91750 333 10107 88/05 90710 91132
AAXX 21184 03026 17321 /2323 10110 20103 30025 40043 55001 60052 751// 91750 333 10112 55300 20000 88/07 90710 91134 91034
AAXX 21184 03063 15466 /2207 10085 20074 39807 40082 55004 60032 91750 333 10089 55300 20000 87/12
AAXX 21184 03066 15580 /2212 10106 20081 30054 40060 56004 60042 91750 333 10106 55300 20000 83/29 85/56
AAXX 21184 03075 17667 /2320 10100 20089 39990 40033 55012 60022 723// 91750 333 10100 81/35 87/50 90710 91132
AAXX 21184 03091 15976 /2410 10100 20073 39994 40073 57008 60052 91750 333 10100 55300 20000 87/72
AAXX 21184 03100 17218 /2520 10109 20107 30098 40114 53008 69922 710// 91750 333 10113 55300 20000 88/05 90710 91127
AAXX 21184 03111 16457 /2617 10106 20094 30131 40143 52006 69922 91750 333 10116 88/14
AAXX 21184 03134 17358 /2309 10105 20096 30054 40125 57001 60022 752// 91750 333 10111 55300 20000 85/08 84/24
AAXX 21184 03136 NIL
AAXX 21184 03162 17456 /1506 10088 20081 39861 40147 52006 60022 710// 91750 333 10101 55300 20000 84/11 86/56
AAXX 21184 03166 17560 /2415 10114 20091 30049 40118 53004 60012 704// 91750 333 10114 55300 20000 83/25 85/56
AAXX 21184 03171 11670 72516 10094 20081 30090 40102 50000 60022 70142 82501 91750 333 10096 55300 20000 82642 87072
AAXX 21184 03204 12368 72511 10110 20095 30158 40178 50007 60002 8163/ 91750 333 10119 55300 20000 81708 87357
AAXX 21184 03240 15770 /2215 10110 20091 30101 40129 51012 60012 91750 333 10113 55300 20000 87/56
AAXX 21184 03257 15770 /2510 10110 20088 30115 40155 50008 69922 91750 333 10116 55300 20000 83/56 87/71
AAXX 21184 03292 167// /2608 10096 20096 30132 40150 53006 69982 91750 333 10096 88/50
AAXX 21184 03302 17756 /2315 10108 20105 30189 40201 52009 60002 710// 91750 333 10115 55300 20000 88/56
AAXX 21184 03354 17459 /2704 10111 20092 30048 40190 53020 60002 704// 91750 333 10115 55300 20000 88/14
AAXX 21184 03377 12475 72811 10107 20092 30095 40179 52018 69922 875// 91750 333 10110 55300 20000 82616 87650
AAXX 21184 03414 15778 /2613 10109 20094 30106 40194 52007 60002 91750 333 10137 55300 20000 88/50
AAXX 21184 03462 17459 /2609 10106 20102 30098 40187 51020 69922 710// 91750 333 10118 55300 20000 82/13 87/46
AAXX 21184 03482 17457 /2811 10106 20094 30151 40176 52013 69922 704// 91750 333 10111 81/17 88/50
AAXX 21184 03502 17761 /2622 10111 20095 30061 40223 51007 60002 704// 91750 333 10111 55300 20000 88/50 90710 91130
AAXX 21184 03535 15780 /2608 10111 20090 30077 40194 52018 69902 91750 333 10124 55300 20000 87/50
AAXX 21184 03590 15466 /2910 10108 20100 30075 40184 52016 69942 91750 333 10109 55300 20000 85/10 86/48
AAXX 21184 03649 12680 72505 10115 20094 30106 40206 51016 69902 875// 91750 333 10138 55300 2//// 82630 87650
AAXX 21184 03716 15268 /2911 10106 20098 30162 40222 53008 60002 91750 333 10115 55300 20000 82/04 88/50
AAXX 21184 03740 16665 /2606 10100 20097 30041 40218 53016 60002 91750 333 10121 55300 2//// 88/41
AAXX 21184 03746 11358 72911 10098 20088 30063 40218 52017 69922 70522 875// 91750 333 10125 82706 87647
AAXX 21184 03772 15770 /2806 10121 20100 30171 40201 51018 69902 91750 333 10131 55300 20000 88/50
AAXX 21184 03796 46/// /3012 10109 20104 30051 40193 53017 91750 333 10110
AAXX 21184 03803 NIL
AAXX 21184 03808 11664 83014 10114 20095 30153 40260 53013 69902 70352 885// 91750 333 10115 55300 20000 88645
AAXX 21184 03809 11562 63014 10116 20091 30168 40261 52005 69922 70252 85530 91750 333 10119 85625 90710 91125 91025
AAXX 21184 03827 17958 /3109 10107 20095 30184 40246 51013 60002 704// 91750 333 10119 8//99
AAXX 21184 03840 15272 /3009 10094 20092 39925 40231 51012 69922 91750 333 10103 81/05 88/42
AAXX 21184 03853 15365 /3013 10110 20098 30204 40228 53012 60002 91750 333 10127 55300 20000 81/09 88/49
AAXX 21184 03874 46/// /2904 10102 20089 30207 40218 52019 91750 333 10135
AAXX 21184 03882 15468 /3106 10111 20100 30138 40201 51015 69962 91750 333 10116 55300 20000 82/17
AAXX 21184 03894 11270 82914 10109 20103 40248 52017 69912 70252 886// 333 10118 81704 84706 87707
AAXX 21184 03917 15564 /2212 10108 20091 30094 40171 53007 69902 91750 333 10113 55300 20000 87/20 87/57
AAXX 21184 48601 11560 70305 10265 20232 30078 40082 60001 70522 82532 333 82625 84364 87077
AAXX 21184 48615 11559 70710 10265 20246 30079 40085 60121 76162 82547 333 82620 87272
AAXX 21184 48620 11559 70501 10249 20238 30075 40084 60001 70522 82558 333 82632 85364 85276
AAXX 21184 48647 11459 73101 10275 20257 30057 40082 60001 71322 81951 333 81917 85364
AAXX 21184 48657 11240 80302 10242 20241 30068 40086 60041 76166 85557 333 81705 84624 85464
AAXX 21184 48665 12564 70604 10247 20236 30081 40091 60001 82542 333 82627 84364 86077
AAXX 21184 96413 11558 72601 10241 20237 30059 40086 60131 76166 8447/ 333 84620 87365
AAXX 21184 96421 11262 82104 10237 20233 30043 40079 60111 76362 8452/ 333 81705 84618 88465
AAXX 21184 96441 12468 71203 10253 20247 30047 40074 60001 8357/ 333 83616 87365
AAXX 21184 96449 12465 70504 10246 20242 30053 40072 69901 8357/ 333 83614 87365
AAXX 21184 96465 11470 71902 10265 20254 30033 40066 69941 72996 84838 333 83810 83364 87279
AAXX 21184 96471 11468 71203 10261 20243 30063 40066 69901 70262 82848 333 81814 83364 87277
AAXX 21184 96481 12462 63601 10250 20237 30050 40069 60001 82841 333 81817 83364 85080
AAXX 21184 96491 12465 72402 10264 20252 30059 40071 60001 82832 333 82815 87078
AAXX 21184 61901 169// /1314 10171 20145 39659 40167 55005 60002 91750 333 10197 8//99 555 7/090
AAXX 21184 61902 11482 71414 10244 20193 40120 69904 71522 877// 333 10276 59014 81715 83822 86640
BBXX VCRG 21184 99474 70619 46/// /2006 11005 21053 40172 56040 7//// 8//// 22282 00021 2////
BBXX 46072 21181 99517 71722 46/// /2704 10015 21022 40039 51008 91750 22200 00047 11006 20401 3//// 41006 70029 333 91206 555 11044 22045 31727 42809 61749 271043 279066 271071 271056 275062 280066 82809 91728
BBXX 46082 21181 99597 71434 46/// ///// 10047 40087 51012 91750 22200 00065 11311 70055
BBXX 46072 21181 99517 71722 46/// /2704 10015 21022 40039 51008 91750 22200 00047 11006 20401 3//// 41006 70029 333 91206 555 11044 22045 31727 42809 61749 271043 279066 271071 271056 275062 280066 82809 91728
BBXX 46077 21181 99579 71543 46/// /2808 10019 21027 40035 53007 91750 22200 00043 11303 20602 3//// 41302 70015 333 91209 555 11082 22086 31738 42710 61749 279078 278076 273070 271057 265060 263056 82809 91741
BBXX 46035 21181 99571 71778 46/// /2407 1//// 49986 52003 91750 22200 11005 20502 300// 41004 70023 333 91208 555 11066 22070 31650 42510 61749 243065 232074 227076 224070 238070 262075 82309 91708
BBXX 42039 21181 99288 70860 46/// /1711 10235 40154 58013 91750 22200 00228 10805 20704 300// 40803 70025 333 91213 555 11116 22125 31651 41714 61749 167107 165104 165103 170106 165107 165115 81713 91651
BBXX 41040 21181 99145 70530 46/// /0610 10268 20212 40137 56019 91750 22200 00279 10706 20706 3//// 41303 70031 333 91212 555 11111 22117 31702 40413 61749 055105 051103 052100 054101 054103 050100 80511 91742
BBXX 44040 21181 99410 70736 46/// /2004 10109 20109 40133 91745 22200 1//00 70001 333 91205 555 11051 22062
BBXX 46026 21181 99378 71228 46/// /3603 10087 40200 51013 91750 22200 00108 11405 20401 329// 41405 70023 333 91204 555 11031 22032 31747 43504 61749 349028 344012 328015 337014 332016 326014
BBXX 46041 21181 99474 71247 46/// /1305 10056 40322 53023 91750 22200 00082 11207 20501 3//// 41207 70034 333 91207 555 11056 22059 31728 41308 61749 127054 133054 133055 134055 137056 133055
AAXX 21184 78016 11564 72609 10209 20149 30266 40270 56015 69901 70282 85808 333 10213 20178 79999 90940
BBXX 51004 21181 99175 71524 46/// /1207 10238 20211 91750 555 11069 22074
BBXX 51002 21181 99171 71578 46/// /0511 10243 40120 51013 91750 22200 00251 333 91215 555 11121 22128 31729 40415 61749 044111 041115 039121 035116 033117 032113
BBXX 51100 21181 99236 71539 46/// /0609 10217 40194 52015 91750 22200 00233 10805 20804 332// 41203 70025 333 91211 555 11099 22104 31728 40714 61749 060095 066104 068103 058091 062092 058090
AAXX 21181 14648 12970 03403 10048 21089 30020 40143 50002 60002 333 10058
AAXX 21181 14652 12989 03619 11134 21201 37834 48424 57005 60002 333 11117 49067
AAXX 21181 14542 11620 71101 11002 21022 39992 40188 52010 60002 71022 87500 333 10023 43006 87647 95990
AAXX 21181 14528 NIL
AAXX 21181 14537 NIL
AAXX 21181 14544 NIL
AAXX 21181 14557 12960 80301 11014 21024 39813 40194 52015 60002 8807/ 333 47003 86360 88461
AAXX 21181 14640 NIL
BBXX VCRG 21184 99474 70619 46/// /2006 11005 21053 40172 56040 7//// 8//// 22282 00021 2////
AAXX 21184 78016 11564 72609 10209 20149 30266 40270 56015 69901 70282 85808 333 10213 20178 79999 90940
AAXX 21181 76040 32960 02701 10135 20057 30164 40178 52015 91740 333 10138 20058 30/// 58000 98660
AAXX 21181 76055 32980 01603 10155 20035 30139 40158 52010 91740 333 10158 20072 32/// 59001
AAXX 21181 76122 32670 30000 10090 20007 38498 40178 57004 82550 91750 333 10094 21036 30/// 56550 59019 82635
AAXX 21181 76220 32958 02303 10072 21024 38098 40210 57002 91740 333 10072 21096 30/// 59017
AAXX 21181 76225 32960 01601 10119 21032 38580 40141 57012 91745 333 10119 21022 30/// 59038
AAXX 21181 76256 12980 50602 10142 20128 30168 40188 52012 60111 85030 91745 333 10215 20080 32/// 56/7/ 58018 85357
AAXX 21181 76258 32870 33606 10178 20107 30125 40171 52012 82032 91750 333 10180 20066 30/// 56055 58019 82358
AAXX 21181 76305 32670 33302 10195 20088 30159 40168 52011 83400 91740 333 10199 20102 30/// 56400 58009 83650
AAXX 21181 76323 32970 00602 10133 21002 38216 40178 57018 91755 333 10140 20010 30/// 59032
AAXX 21181 76342 31860 61302 10132 20021 39469 40192 57017 70222 86050 91750 333 10138 20082 30/// 56030 59026 86358
AAXX 21181 76373 32565 82102 10123 20064 38162 40096 50004 88700 91750 333 10176 20093 30/// 56900 59034 88722
AAXX 21181 76390 31668 22506 10192 20048 38199 40092 57005 70544 81150 91730 333 10201 20100 30/// 56650 59006 81833 81356
AAXX 21181 76393 32950 11202 10166 20068 39657 40152 57015 81010 91749 333 10178 20080 30/// 56300 59003
AAXX 21181 76402 31560 33601 10190 20118 30114 40173 52015 70544 83300 91745 333 10192 20070 30/// 56700 58008 83633
AAXX 21181 76458 32870 63102 10220 20080 30149 40153 57001 86050 91743 333 10238 20109 30/// 56050 58005 86358
AAXX 21181 76471 32580 42207 10154 20018 37660 40099 57001 84500 91750 333 10158 20049 30/// 56400 59014 84635
AAXX 21181 76491 32960 23601 10205 20092 39774 40170 57014 80005 91750 333 10208 20124 30/// 56009 58014 82277
AAXX 21181 76499 31860 20000 10233 20139 30121 40143 57018 70311 82030 91750 333 10234 20142 30/// 56090 58018 82357
AAXX 21181 76539 32970 02702 10181 20085 38141 40170 57011 91750 333 10250 20027 30/// 59007
AAXX 21181 76543 32875 22302 10247 20155 30131 40164 57015 80030 91745 333 10249 20190 30/// 56030 58021
AAXX 21181 76548 32875 40502 10232 20129 30148 40158 55007 84030 91740 333 10235 20182 30/// 56040 58024 84357
AAXX 21181 76556 32970 33303 10221 20145 39113 40145 51006 80008 91735 333 10230 20107 30/// 56001 58007 82270
AAXX 21181 76571 31965 01802 10200 20038 38151 40171 57011 705// 91750 333 10202 20048 30/// 59008
AAXX 21181 76577 32970 02303 10182 20137 38035 40161 58007 91740 333 10188 20070 30/// 59006
AAXX 21181 76581 32970 22101 10236 20150 39017 40113 57018 82030 91750 333 10245 20141 30/// 56030 58001 82360
AAXX 21181 76585 32980 60000 10200 20176 39990 40149 58012 86070 91735 333 10210 20167 31/// 56/3/ 58025 86358
AAXX 21181 76593 32470 61405 10294 20262 30142 40144 57017 84280 91750 333 10304 20208 30/// 5633/ 58009 84824 82330 91006 91514
AAXX 21181 76612 32962 00901 10211 20088 38463 40157 58003 91750 333 10234 20073 30/// 59004
AAXX 21181 76634 31970 01403 10226 20048 37835 40142 57014 70500 91750 333 10227 20070 30/// 59006
AAXX 21181 76644 32460 51404 10300 20203 30144 40156 57002 85200 91750 333 10314 20214 30/// 563// 58024 85810
AAXX 21181 76654 31956 02301 10289 20203 30139 40143 57001 70544 91800 333 10289 20203 30/// 59001
AAXX 21181 76658 31956 41402 10276 20178 39628 40135 56009 70541 80002 91747 333 10280 20166 30/// 56001 58001 84070 98924
AAXX 21181 76662 32970 22502 10206 20079 38455 40162 57009 80002 91730 333 10220 20048 30/// 5600/ 59017 82070
AAXX 21181 76665 32964 02202 10230 20067 38114 40153 57002 91750 333 10264 20056 30/// 59004
AAXX 21181 76680 31960 10901 10206 20050 37740 40050 57011 70500 80001 91755 333 10212 20089 30/// 56007 59001
AAXX 21181 76681 31970 00503 10222 20112 37766 40135 57010 70500 91745 333 10222 20032 30/// 59008
AAXX 21181 76683 32968 01801 10198 20080 37820 40189 56012 91745 333 10205 20044 30/// 58000
AAXX 21181 76685 32970 02101 10210 20054 37859 40141 57011 91750 333 10212 20068 30/// 59001
AAXX 21181 76687 31570 10701 10218 20134 38670 40160 58006 70100 81200 91738 333 10225 20116 30/// 563// 58015 81830
AAXX 21181 76692 31456 10702 10262 20206 30123 40143 58011 71044 81200 91745 333 10270 20196 30/// 563// 58029 81817
AAXX 21181 76695 32560 30903 10306 20238 30118 40124 57015 83200 91750 333 10306 20202 30/// 563// 58005 83823
AAXX 21181 76698 32560 51202 10302 20239 30135 40146 57013 85200 91750 333 10324 20205 30/// 56300 58005 85820
AAXX 21181 76737 31980 21802 10232 20143 38764 40150 58007 70300 80007 91735 333 10235 20109 30/// 56009 58020 82080 91105 91514
AAXX 21181 76743 31457 42302 10264 20237 30121 40129 57012 70211 848// 91745 333 10300 20192 30/// 56500 58019 848//
AAXX 21181 76750 32560 30904 10298 20238 30133 40143 57009 82100 91750 333 10308 20209 30/// 56220 58005 82820
AAXX 21181 76762 31504 42301 10284 20231 38745 40116 58017 70400 82204 91750 333 10285 20142 30/// 56306 59011 82830 82060 91203
AAXX 21181 76773 31568 12701 10236 20078 38417 40141 57014 70500 81100 91746 333 10242 20055 30/// 56200 58001 81820
AAXX 21181 76775 31970 10701 10257 20105 38520 40161 57010 70200 81100 91740 333 10290 20110 30/// 56800 58007 81824
AAXX 21181 76805 32970 02301 10302 20223 30109 40111 53018 91735 333 10312 20220 30/// 59004
AAXX 21181 76833 32970 03606 10318 20229 30103 40105 57017 91745 333 10318 20220 30/// 59001 92001
AAXX 21181 76840 32940 03604 10324 20195 30047 40102 57017 91740 333 10330 20170 30/// 59013
AAXX 21181 76845 32960 00901 10216 20145 37940 40168 56018 91745 333 10224 20054 30/// 58004
AAXX 21181 76848 32970 40501 10260 20062 38371 40081 57012 80002 91750 333 10260 20109 30/// 56009 58001 84081
AAXX 21181 76160 11562 70501 10132 20100 39923 40177 52012 69951 70352 87500 91730 333 10132 20070 31/// 56500 58023 70005 87630
AAXX 21181 76243 32473 81601 10100 20054 39875 40176 57006 884// 91735 333 10106 20052 30/// 563// 59018 88616
AAXX 21181 76311 32980 00000 10177 20078 39871 40158 57001 91745 333 10178 20041 30/// 58007
AAXX 21181 76405 32980 01801 10215 20147 30152 40173 50013 91750 333 10215 20112 30/// 58010
AAXX 21181 76412 31966 71801 10140 20105 30135 40181 52013 70544 87050 91735 333 10148 20120 30/// 56050 58008 87356
AAXX 21181 76640 31358 62201 10218 20197 30156 40169 57002 70222 864// 91740 333 10230 20194 30/// 561// 58035 86609
AAXX 21181 76647 32570 81402 10274 20216 30127 40158 57014 8653/ 91750 333 10277 20208 30/// 563// 58012 86623
AAXX 21181 76741 31460 43103 10262 20233 30098 40117 52003 70542 84200 91735 333 10270 20200 30/// 567// 58031 84812
AAXX 21181 76843 32565 23601 10272 20156 39477 40117 55001 81203 91736 333 10278 20185 30/// 569/9 58001 81820
AAXX 21181 76855 32980 01403 10304 20204 30063 40113 58001 91745 333 10316 20214 30/// 58000 92000
AAXX 21184 78958 11568 70507 10288 20233 30115 40125 60001 70611 86842 333 10308 20249 59007 85821 83640 84080
AAXX 21184 78958 11568 70507 10288 20233 30115 40125 60001 70611 86842 333 10308 20249 59007 85821 83640 84080
AAXX 21181 76040 32960 02701 10135 20057 30164 40178 52015 91740 333 10138 20058 30/// 58000 98660
AAXX 21181 76055 32980 01603 10155 20035 30139 40158 52010 91740 333 10158 20072 32/// 59001
AAXX 21181 76122 32670 30000 10090 20007 38498 40178 57004 82550 91750 333 10094 21036 30/// 56550 59019 82635
AAXX 21181 76220 32958 02303 10072 21024 38098 40210 57002 91740 333 10072 21096 30/// 59017
AAXX 21181 76225 32960 01601 10119 21032 38580 40141 57012 91745 333 10119 21022 30/// 59038
AAXX 21181 76256 12980 50602 10142 20128 30168 40188 52012 60111 85030 91745 333 10215 20080 32/// 56/7/ 58018 85357
AAXX 21181 76258 32870 33606 10178 20107 30125 40171 52012 82032 91750 333 10180 20066 30/// 56055 58019 82358
AAXX 21181 76305 32670 33302 10195 20088 30159 40168 52011 83400 91740 333 10199 20102 30/// 56400 58009 83650
AAXX 21181 76323 32970 00602 10133 21002 38216 40178 57018 91755 333 10140 20010 30/// 59032
AAXX 21181 76342 31860 61302 10132 20021 39469 40192 57017 70222 86050 91750 333 10138 20082 30/// 56030 59026 86358
AAXX 21181 76373 32565 82102 10123 20064 38162 40096 50004 88700 91750 333 10176 20093 30/// 56900 59034 88722
AAXX 21181 76390 31668 22506 10192 20048 38199 40092 57005 70544 81150 91730 333 10201 20100 30/// 56650 59006 81833 81356
AAXX 21181 76393 32950 11202 10166 20068 39657 40152 57015 81010 91749 333 10178 20080 30/// 56300 59003
AAXX 21181 76402 31560 33601 10190 20118 30114 40173 52015 70544 83300 91745 333 10192 20070 30/// 56700 58008 83633
AAXX 21181 76458 32870 63102 10220 20080 30149 40153 57001 86050 91743 333 10238 20109 30/// 56050 58005 86358
AAXX 21181 76471 32580 42207 10154 20018 37660 40099 57001 84500 91750 333 10158 20049 30/// 56400 59014 84635
AAXX 21181 76491 32960 23601 10205 20092 39774 40170 57014 80005 91750 333 10208 20124 30/// 56009 58014 82277
AAXX 21181 76499 31860 20000 10233 20139 30121 40143 57018 70311 82030 91750 333 10234 20142 30/// 56090 58018 82357
AAXX 21181 76539 32970 02702 10181 20085 38141 40170 57011 91750 333 10250 20027 30/// 59007
AAXX 21181 76543 32875 22302 10247 20155 30131 40164 57015 80030 91745 333 10249 20190 30/// 56030 58021
AAXX 21181 76548 32875 40502 10232 20129 30148 40158 55007 84030 91740 333 10235 20182 30/// 56040 58024 84357
AAXX 21181 76556 32970 33303 10221 20145 39113 40145 51006 80008 91735 333 10230 20107 30/// 56001 58007 82270
AAXX 21181 76571 31965 01802 10200 20038 38151 40171 57011 705// 91750 333 10202 20048 30/// 59008
AAXX 21181 76577 32970 02303 10182 20137 38035 40161 58007 91740 333 10188 20070 30/// 59006
AAXX 21181 76581 32970 22101 10236 20150 39017 40113 57018 82030 91750 333 10245 20141 30/// 56030 58001 82360
AAXX 21181 76585 32980 60000 10200 20176 39990 40149 58012 86070 91735 333 10210 20167 31/// 56/3/ 58025 86358
AAXX 21181 76593 32470 61405 10294 20262 30142 40144 57017 84280 91750 333 10304 20208 30/// 5633/ 58009 84824 82330 91006 91514
AAXX 21181 76612 32962 00901 10211 20088 38463 40157 58003 91750 333 10234 20073 30/// 59004
AAXX 21181 76634 31970 01403 10226 20048 37835 40142 57014 70500 91750 333 10227 20070 30/// 59006
AAXX 21181 76644 32460 51404 10300 20203 30144 40156 57002 85200 91750 333 10314 20214 30/// 563// 58024 85810
AAXX 21181 76654 31956 02301 10289 20203 30139 40143 57001 70544 91800 333 10289 20203 30/// 59001
AAXX 21181 76658 31956 41402 10276 20178 39628 40135 56009 70541 80002 91747 333 10280 20166 30/// 56001 58001 84070 98924
AAXX 21181 76662 32970 22502 10206 20079 38455 40162 57009 80002 91730 333 10220 20048 30/// 5600/ 59017 82070
AAXX 21181 76665 32964 02202 10230 20067 38114 40153 57002 91750 333 10264 20056 30/// 59004
AAXX 21181 76680 31960 10901 10206 20050 37740 40050 57011 70500 80001 91755 333 10212 20089 30/// 56007 59001
AAXX 21181 76681 31970 00503 10222 20112 37766 40135 57010 70500 91745 333 10222 20032 30/// 59008
AAXX 21181 76683 32968 01801 10198 20080 37820 40189 56012 91745 333 10205 20044 30/// 58000
AAXX 21181 76685 32970 02101 10210 20054 37859 40141 57011 91750 333 10212 20068 30/// 59001
AAXX 21181 76687 31570 10701 10218 20134 38670 40160 58006 70100 81200 91738 333 10225 20116 30/// 563// 58015 81830
AAXX 21181 76692 31456 10702 10262 20206 30123 40143 58011 71044 81200 91745 333 10270 20196 30/// 563// 58029 81817
AAXX 21181 76695 32560 30903 10306 20238 30118 40124 57015 83200 91750 333 10306 20202 30/// 563// 58005 83823
AAXX 21181 76698 32560 51202 10302 20239 30135 40146 57013 85200 91750 333 10324 20205 30/// 56300 58005 85820
AAXX 21181 76737 31980 21802 10232 20143 38764 40150 58007 70300 80007 91735 333 10235 20109 30/// 56009 58020 82080 91105 91514
AAXX 21181 76743 31457 42302 10264 20237 30121 40129 57012 70211 848// 91745 333 10300 20192 30/// 56500 58019 848//
AAXX 21181 76750 32560 30904 10298 20238 30133 40143 57009 82100 91750 333 10308 20209 30/// 56220 58005 82820
AAXX 21181 76762 31504 42301 10284 20231 38745 40116 58017 70400 82204 91750 333 10285 20142 30/// 56306 59011 82830 82060 91203
AAXX 21181 76773 31568 12701 10236 20078 38417 40141 57014 70500 81100 91746 333 10242 20055 30/// 56200 58001 81820
AAXX 21181 76775 31970 10701 10257 20105 38520 40161 57010 70200 81100 91740 333 10290 20110 30/// 56800 58007 81824
AAXX 21181 76805 32970 02301 10302 20223 30109 40111 53018 91735 333 10312 20220 30/// 59004
AAXX 21181 76833 32970 03606 10318 20229 30103 40105 57017 91745 333 10318 20220 30/// 59001 92001
AAXX 21181 76840 32940 03604 10324 20195 30047 40102 57017 91740 333 10330 20170 30/// 59013
AAXX 21181 76845 32960 00901 10216 20145 37940 40168 56018 91745 333 10224 20054 30/// 58004
AAXX 21181 76848 32970 40501 10260 20062 38371 40081 57012 80002 91750 333 10260 20109 30/// 56009 58001 84081
AAXX 21181 76160 11562 70501 10132 20100 39923 40177 52012 69951 70352 87500 91730 333 10132 20070 31/// 56500 58023 70005 87630
AAXX 21181 76243 32473 81601 10100 20054 39875 40176 57006 884// 91735 333 10106 20052 30/// 563// 59018 88616
AAXX 21181 76311 32980 00000 10177 20078 39871 40158 57001 91745 333 10178 20041 30/// 58007
AAXX 21181 76405 32980 01801 10215 20147 30152 40173 50013 91750 333 10215 20112 30/// 58010
AAXX 21181 76412 31966 71801 10140 20105 30135 40181 52013 70544 87050 91735 333 10148 20120 30/// 56050 58008 87356
AAXX 21181 76640 31358 62201 10218 20197 30156 40169 57002 70222 864// 91740 333 10230 20194 30/// 561// 58035 86609
AAXX 21181 76647 32570 81402 10274 20216 30127 40158 57014 8653/ 91750 333 10277 20208 30/// 563// 58012 86623
AAXX 21181 76741 31460 43103 10262 20233 30098 40117 52003 70542 84200 91735 333 10270 20200 30/// 567// 58031 84812
AAXX 21181 76843 32565 23601 10272 20156 39477 40117 55001 81203 91736 333 10278 20185 30/// 569/9 58001 81820
AAXX 21181 76855 32980 01403 10304 20204 30063 40113 58001 91745 333 10316 20214 30/// 58000 92000
BBXX VAAZ 21184 99534 70521 46/// /2620 11035 21086 40072 53006 7//// 8//// 22231 0//// 2////
BBXX CG2960 21184 99423 70830 46/// /2707 10075 20075 4//// 5//// 7//// 8//// 22200 0//// 2////
BBXX CGUM 21184 99451 70613 46/// /2421 10012 21039 40217 56031 7//// 8//// 22213 0//// 2////
BBXX CG2350 21184 99433 70798 46/// /0103 10038 20037 40030 56043 7//// 8//// 22200 0//// 2////
BBXX CGDR 21184 99489 71233 46/// /0406 10046 20038 40342 51025 7//// 8//// 22232 00105 2////
AAXX 21181 76040 32960 02701 10135 20057 30164 40178 52015 91740 33310138 20058 30/// 58000 98660
AAXX 21181 76055 32980 01603 10155 20035 30139 40158 52010 91740 33310158 20072 32/// 59001
AAXX 21181 76122 32670 30000 10090 20007 38498 40178 57004 82550 91750333 10094 21036 30/// 56550 59019 82635
AAXX 21181 76220 32958 02303 10072 21024 38098 40210 57002 91740 33310072 21096 30/// 59017
AAXX 21181 76225 32960 01601 10119 21032 38580 40141 57012 91745 33310119 21022 30/// 59038
AAXX 21181 76256 12980 50602 10142 20128 30168 40188 52012 60111 8503091745 333 10215 20080 32/// 56/7/ 58018 85357
AAXX 21181 76258 32870 33606 10178 20107 30125 40171 52012 82032 91750333 10180 20066 30/// 56055 58019 82358
AAXX 21181 76305 32670 33302 10195 20088 30159 40168 52011 83400 91740333 10199 20102 30/// 56400 58009 83650
AAXX 21181 76323 32970 00602 10133 21002 38216 40178 57018 91755 33310140 20010 30/// 59032
AAXX 21181 76342 31860 61302 10132 20021 39469 40192 57017 70222 8605091750 333 10138 20082 30/// 56030 59026 86358
AAXX 21181 76373 32565 82102 10123 20064 38162 40096 50004 88700 91750333 10176 20093 30/// 56900 59034 88722
AAXX 21181 76390 31668 22506 10192 20048 38199 40092 57005 70544 8115091730 333 10201 20100 30/// 56650 59006 81833 81356
AAXX 21181 76393 32950 11202 10166 20068 39657 40152 57015 81010 91749333 10178 20080 30/// 56300 59003
AAXX 21181 76402 31560 33601 10190 20118 30114 40173 52015 70544 8330091745 333 10192 20070 30/// 56700 58008 83633
AAXX 21181 76458 32870 63102 10220 20080 30149 40153 57001 86050 91743333 10238 20109 30/// 56050 58005 86358
AAXX 21181 76471 32580 42207 10154 20018 37660 40099 57001 84500 91750333 10158 20049 30/// 56400 59014 84635
AAXX 21181 76491 32960 23601 10205 20092 39774 40170 57014 80005 91750333 10208 20124 30/// 56009 58014 82277
AAXX 21181 76499 31860 20000 10233 20139 30121 40143 57018 70311 8203091750 333 10234 20142 30/// 56090 58018 82357
AAXX 21181 76539 32970 02702 10181 20085 38141 40170 57011 91750 33310250 20027 30/// 59007
AAXX 21181 76543 32875 22302 10247 20155 30131 40164 57015 80030 91745333 10249 20190 30/// 56030 58021
AAXX 21181 76548 32875 40502 10232 20129 30148 40158 55007 84030 91740333 10235 20182 30/// 56040 58024 84357
AAXX 21181 76556 32970 33303 10221 20145 39113 40145 51006 80008 91735333 10230 20107 30/// 56001 58007 82270
AAXX 21181 76571 31965 01802 10200 20038 38151 40171 57011 705// 91750333 10202 20048 30/// 59008
AAXX 21181 76577 32970 02303 10182 20137 38035 40161 58007 91740 33310188 20070 30/// 59006
AAXX 21181 76581 32970 22101 10236 20150 39017 40113 57018 82030 91750333 10245 20141 30/// 56030 58001 82360
AAXX 21181 76585 32980 60000 10200 20176 39990 40149 58012 86070 91735333 10210 20167 31/// 56/3/ 58025 86358
AAXX 21181 76593 32470 61405 10294 20262 30142 40144 57017 84280 91750333 10304 20208 30/// 5633/ 58009 84824 82330 91006 91514
AAXX 21181 76612 32962 00901 10211 20088 38463 40157 58003 91750 33310234 20073 30/// 59004
AAXX 21181 76634 31970 01403 10226 20048 37835 40142 57014 70500 91750333 10227 20070 30/// 59006
AAXX 21181 76644 32460 51404 10300 20203 30144 40156 57002 85200 91750333 10314 20214 30/// 563// 58024 85810
AAXX 21181 76654 31956 02301 10289 20203 30139 40143 57001 70544 91800333 10289 20203 30/// 59001
AAXX 21181 76658 31956 41402 10276 20178 39628 40135 56009 70541 8000291747 333 10280 20166 30/// 56001 58001 84070 98924
AAXX 21181 76662 32970 22502 10206 20079 38455 40162 57009 80002 91730333 10220 20048 30/// 5600/ 59017 82070
AAXX 21181 76665 32964 02202 10230 20067 38114 40153 57002 91750 33310264 20056 30/// 59004
AAXX 21181 76680 31960 10901 10206 20050 37740 40050 57011 70500 8000191755 333 10212 20089 30/// 56007 59001
AAXX 21181 76681 31970 00503 10222 20112 37766 40135 57010 70500 91745333 10222 20032 30/// 59008
AAXX 21181 76683 32968 01801 10198 20080 37820 40189 56012 91745 33310205 20044 30/// 58000
AAXX 21181 76685 32970 02101 10210 20054 37859 40141 57011 91750 33310212 20068 30/// 59001
AAXX 21181 76687 31570 10701 10218 20134 38670 40160 58006 70100 8120091738 333 10225 20116 30/// 563// 58015 81830
AAXX 21181 76692 31456 10702 10262 20206 30123 40143 58011 71044 8120091745 333 10270 20196 30/// 563// 58029 81817
AAXX 21181 76695 32560 30903 10306 20238 30118 40124 57015 83200 91750333 10306 20202 30/// 563// 58005 83823
AAXX 21181 76698 32560 51202 10302 20239 30135 40146 57013 85200 91750333 10324 20205 30/// 56300 58005 85820
AAXX 21181 76737 31980 21802 10232 20143 38764 40150 58007 70300 8000791735 333 10235 20109 30/// 56009 58020 82080 91105 91514
AAXX 21181 76743 31457 42302 10264 20237 30121 40129 57012 70211 848//91745 333 10300 20192 30/// 56500 58019 848//
AAXX 21181 76750 32560 30904 10298 20238 30133 40143 57009 82100 91750333 10308 20209 30/// 56220 58005 82820
AAXX 21181 76762 31504 42301 10284 20231 38745 40116 58017 70400 8220491750 333 10285 20142 30/// 56306 59011 82830 82060 91203
AAXX 21181 76773 31568 12701 10236 20078 38417 40141 57014 70500 8110091746 333 10242 20055 30/// 56200 58001 81820
AAXX 21181 76775 31970 10701 10257 20105 38520 40161 57010 70200 8110091740 333 10290 20110 30/// 56800 58007 81824
AAXX 21181 76805 32970 02301 10302 20223 30109 40111 53018 91735 33310312 20220 30/// 59004
AAXX 21181 76833 32970 03606 10318 20229 30103 40105 57017 91745 33310318 20220 30/// 59001 92001
AAXX 21181 76840 32940 03604 10324 20195 30047 40102 57017 91740 33310330 20170 30/// 59013
AAXX 21181 76845 32960 00901 10216 20145 37940 40168 56018 91745 33310224 20054 30/// 58004
AAXX 21181 76848 32970 40501 10260 20062 38371 40081 57012 80002 91750333 10260 20109 30/// 56009 58001 84081
AAXX 21181 76160 11562 70501 10132 20100 39923 40177 52012 69951 7035287500 91730 333 10132 20070 31/// 56500 58023 70005 87630
AAXX 21181 76243 32473 81601 10100 20054 39875 40176 57006 884// 91735333 10106 20052 30/// 563// 59018 88616
AAXX 21181 76311 32980 00000 10177 20078 39871 40158 57001 91745 33310178 20041 30/// 58007
AAXX 21181 76405 32980 01801 10215 20147 30152 40173 50013 91750 33310215 20112 30/// 58010
AAXX 21181 76412 31966 71801 10140 20105 30135 40181 52013 70544 8705091735 333 10148 20120 30/// 56050 58008 87356
AAXX 21181 76640 31358 62201 10218 20197 30156 40169 57002 70222 864//91740 333 10230 20194 30/// 561// 58035 86609
AAXX 21181 76647 32570 81402 10274 20216 30127 40158 57014 8653/ 91750333 10277 20208 30/// 563// 58012 86623
AAXX 21181 76741 31460 43103 10262 20233 30098 40117 52003 70542 8420091735 333 10270 20200 30/// 567// 58031 84812
AAXX 21181 76843 32565 23601 10272 20156 39477 40117 55001 81203 91736333 10278 20185 30/// 569/9 58001 81820
AAXX 21181 76855 32980 01403 10304 20204 30063 40113 58001 91745 33310316 20214 30/// 58000 92000
AAXX 21184 91503 31475 40000 10240 20234 40041 5//// 70510 81938 333 56000 81814 81915 84280
AAXX 21184 91517 31475 71802 10252 20235 40056 57006 71522 878// 333 56299 81815 87625
AAXX 21184 91503 31475 40000 10240 20234 40041 5//// 70510 81938 333 56000 81814 81915 84280
AAXX 21184 91517 31475 71802 10252 20235 40056 57006 71522 878// 333 56299 81815 87625
AAXX 21184 81401 06/// /0000 10254 20235 30093 40099 60021 333 60027 59002 555 60005
AAXX 21184 81408 06/// /0705 10276 20236 30083 40091 60061 333 69947 59002 555 69925
AAXX 21184 78905 11470 70506 10245 20219 30135 40158 69951 72522 87201 333 10291 20253 59001 70015 87814 90910
AAXX 21184 78906 11474 72906 10300 20206 30131 40136 71522 85202 333 10303 20209 59006 70004 85816 86076
AAXX 21181 01152 16/// /0806 10002 21006 30041 40057 53006 6//// 333 10019 91111
AAXX 21181 01492 11987 00302 11068 21085 30018 40142 52012 60002 70100 333 11038 91104
AAXX 21184 81401 06/// /0000 10254 20235 30093 40099 60021 333 60027 59002 555 60005
AAXX 21184 81408 06/// /0705 10276 20236 30083 40091 60061 333 69947 59002 555 69925
BBXX VOLG 21184 99461 70591 46/// /2520 11009 21073 40194 58014 7//// 8//// 22263 0//// 2////
BBXX VAAP 21184 99446 70635 46/// /3601 10026 21015 40201 56036 7//// 8//// 22200 0//// 2////
BBXX CGDX 21184 99490 70669 46/// /2110 11024 21100 40105 56024 7//// 8//// 22200 0//// 2////
BBXX VOKF 21184 99490 70669 46/// /2012 11026 21107 40100 56021 7//// 8//// 22200 0//// 2////
BBXX VRYO3 21184 99494 70187 46/// /0918 10129 20141 40236 56020 7//// 8//// 22264 00131 2////
BBXX VCBW 21184 99488 70644 46/// /2511 11043 21124 40158 58027 7//// 8//// 22200 0//// 2////
BBXX VCLM 21184 99473 70705 46/// /2117 11014 21061 40093 58009 7//// 8//// 22253 00016 2////
BBXX CGSB 21184 99488 70676 46/// /2210 11025 21086 40108 56022 7//// 8//// 22200 0//// 2////
BBXX CGBN 21184 99447 70636 46/// /1601 10029 21016 40196 56036 7//// 8//// 22200 0//// 2////
BBXX CGTF 21184 99476 70527 46/// /1507 11020 21062 40179 52020 7//// 8//// 22200 0//// 2////
BBXX CGJK 21184 99484 71234 46/// /3604 10053 20015 40338 51021 7//// 8//// 22200 0//// 2////
BBXX C6SI6 21184 99311 11223 46/// /3311 10082 20029 40282 58009 7//// 8//// 22233 0//// 2////
BBXX 3FZK3 21184 99485 71286 46/// /3410 10075 20027 40302 51013 7//// 8//// 22233 0//// 2////
BBXX CGDG 21184 99447 70636 46/// /1907 10017 20062 40209 56037 7//// 8//// 22200 0//// 2////
BBXX CG2958 21184 99517 71281 46/// /1204 10029 20015 40331 58006 7//// 8//// 22200 0//// 2////
BBXX VOKJ 21184 99497 70659 46/// /2526 11033 21079 40089 56025 7//// 8//// 22254 0//// 2////
BBXX CG2965 21184 99487 71235 46/// /3006 10038 20009 40342 51023 7//// 8//// 22200 0//// 2////
BBXX CZ9742 21184 99506 70969 46/// /3106 11044 21083 40127 53034 7//// 8//// 22200 0//// 2////
BBXX VCWL 21184 99456 70735 46/// /0408 11041 21049 40091 58043 7//// 8//// 22200 0//// 2////
BBXX CGDT 21184 99468 70712 46/// /1901 11039 21092 40121 58037 7//// 8//// 22200 0//// 2////
BBXX VOFG 21184 99456 70614 46/// /2005 10008 21099 40210 56027 7//// 8//// 22200 0//// 2////
BBXX CGBY 21184 99487 71235 46/// /3005 10033 20003 40340 51023 7//// 8//// 22200 0//// 2////
BBXX VOPP 21184 99456 70735 46/// /0105 11042 21043 4//// 5//// 7//// 8//// 22200 0//// 2////
BBXX VCSZ 21184 99489 70673 46/// /1815 11030 21066 40097 58024 7//// 8//// 22214 0//// 2////
BBXX VXKF 21184 99472 70594 46/// /2220 11019 21085 40163 56026 7//// 8//// 22252 0//// 2////
AAXX 21184 78905 11470 70506 10245 20219 30135 40158 69951 72522 87201 333 10291 20253 59001 70015 87814 90910
AAXX 21184 78906 11474 72906 10300 20206 30131 40136 71522 85202 333 10303 20209 59006 70004 85816 86076
BBXX 41010 21181 99289 70785 46/// /1606 10234 40217 58021 91750 22200 00239 11303 20402 300// 41302 70016 333 91207 555 11062 22066
BBXX 42057 21181 99168 70815 46/// /0911 10285 20219 40136 58019 91750 22200 00277 10705 20704 3//// 41002 70023 333 91212 555 11106 22114 31711 40914 61749 089104 093111 089113 090117 084113 083113 80913 91711
BBXX 41009 21181 99285 70802 46/// /1906 10233 20189 40209 58017 91750 22200 00245 11103 20502 300// 41102 70017 333 91208 555 11066 22070
AAXX 21181 02741 37577 72802 10003 21004 30113 40129 52013 70000 87/// 91739 333 10011 21014
AAXX 21181 02755 17263 71803 11012 21016 30012 40109 52012 69922 70074 87/// 91739 333 10003 21018
AAXX 21181 02805 37082 71602 11210 21228 39952 40096 52006 72487 87/// 91739 333 11163 21215
AAXX 21181 02807 47799 32102 11079 21088 39904 40093 700// 81/// 91800 333 11062 21079
AAXX 21181 02836 37570 81301 11045 21048 39866 40094 52003 70087 88/// 91739 333 11045 21076
AAXX 21181 02845 47159 91102 11016 21016 39839 40091 52003 77176 91739 333 11012 21017
AAXX 21181 02849 47582 71401 11025 21029 39822 40101 54002 78587 87/// 91739 333 11012 21025
AAXX 21181 02866 37274 81802 11004 21005 39953 40105 52009 78087 88/// 91739 333 11001 21005
AAXX 21181 02897 47281 71702 11010 21016 39937 40122 700// 87/// 91800 333 10000 21012
AAXX 21181 02913 47465 81703 10000 21007 30049 40102 700// 88/// 333 10015 21003
AAXX 21181 02917 47999 01602 11015 21028 30007 40132 700// 91800 333 10004 21015
AAXX 21181 02924 47271 72001 11015 21015 39920 40121 52009 70087 87/// 91739 333 10003 21025
AAXX 21181 02926 37557 81602 10001 20000 30106 40119 52008 710// 88/// 91800 333 10008 21002
AAXX 21181 02935 37378 71802 11008 21015 39953 40129 52008 700// 87/// 91739 333 10000 21012
AAXX 21181 02939 37473 70000 11013 21015 39943 40140 52008 70087 87/// 91739 333 11002 21013
AAXX 21181 02944 47265 71603 11007 21008 39978 40128 700// 87/// 91800 333 11006 21012
AAXX 21181 02947 47483 80000 11003 21016 40143 52006 70000 88/// 91751 333 10003 21005
AAXX 21181 02963 46/// /0000 11007 21007 40130 333 1//// 2////
AAXX 21181 02974 12470 12103 11010 21014 30072 40140 52008 69902 70111 81500 333 10013 21012 41///
AAXX 21181 02976 46/// /0403 10003 20003 30124 40141 52010 91739 333 10025 21001
AAXX 21181 02981 17499 32604 10029 21005 30121 40131 52012 69922 70000 83/// 91739 333 10037 20023
AAXX 21181 02982 46/// /2104 10018 20007 30125 40133 52008 91739 333 10040 20007
AAXX 21181 11423 01/05 92806 11011 21013 39277 42771 51010 60022 77074 333 11006 48020 69905 89/01 91111 93502
AAXX 21181 11487 NIL
AAXX 21181 11518 01582 62404 10010 21006 39715 40164 52014 69932 70262 86430 333 10028 60005 83620 85640
AAXX 21181 11603 01110 82903 10000 21009 39657 40151 52016 60072 77372 887// 333 10018 43008 60025 88702 93710
AAXX 21181 11659 NIL
AAXX 21181 11723 01575 73002 10018 21016 39845 40149 52018 69952 70287 82570 333 10027 41998 60005 82623 87462
AAXX 21181 11782 01520 82204 10000 21005 39827 40140 51020 60022 77377 885// 333 10001 43008 69945 88620 90710 93102
AAXX 21181 02741 37577 72802 10003 21004 30113 40129 52013 70000 87/// 91739 333 10011 21014
AAXX 21181 02755 17263 71803 11012 21016 30012 40109 52012 69922 70074 87/// 91739 333 10003 21018
AAXX 21181 02805 37082 71602 11210 21228 39952 40096 52006 72487 87/// 91739 333 11163 21215
AAXX 21181 02807 47799 32102 11079 21088 39904 40093 700// 81/// 91800 333 11062 21079
AAXX 21181 02836 37570 81301 11045 21048 39866 40094 52003 70087 88/// 91739 333 11045 21076
AAXX 21181 02845 47159 91102 11016 21016 39839 40091 52003 77176 91739 333 11012 21017
AAXX 21181 02849 47582 71401 11025 21029 39822 40101 54002 78587 87/// 91739 333 11012 21025
AAXX 21181 02866 37274 81802 11004 21005 39953 40105 52009 78087 88/// 91739 333 11001 21005
AAXX 21181 02897 47281 71702 11010 21016 39937 40122 700// 87/// 91800 333 10000 21012
AAXX 21181 02913 47465 81703 10000 21007 30049 40102 700// 88/// 333 10015 21003
AAXX 21181 02917 47999 01602 11015 21028 30007 40132 700// 91800 333 10004 21015
AAXX 21181 02924 47271 72001 11015 21015 39920 40121 52009 70087 87/// 91739 333 10003 21025
AAXX 21181 02926 37557 81602 10001 20000 30106 40119 52008 710// 88/// 91800 333 10008 21002
AAXX 21181 02935 37378 71802 11008 21015 39953 40129 52008 700// 87/// 91739 333 10000 21012
AAXX 21181 02939 37473 70000 11013 21015 39943 40140 52008 70087 87/// 91739 333 11002 21013
AAXX 21181 02944 47265 71603 11007 21008 39978 40128 700// 87/// 91800 333 11006 21012
AAXX 21181 02947 47483 80000 11003 21016 40143 52006 70000 88/// 91751 333 10003 21005
AAXX 21181 02963 46/// /0000 11007 21007 40130 333 1//// 2////
AAXX 21181 02974 12470 12103 11010 21014 30072 40140 52008 69902 70111 81500 333 10013 21012 41///
AAXX 21181 02976 46/// /0403 10003 20003 30124 40141 52010 91739 333 10025 21001
AAXX 21181 02981 17499 32604 10029 21005 30121 40131 52012 69922 70000 83/// 91739 333 10037 20023
AAXX 21181 02982 46/// /2104 10018 20007 30125 40133 52008 91739 333 10040 20007
BBXX VCXF 21184 99464 70484 41697 72833 10000 2000/ 40134 52022 78622 87500 22200 02024 20706 326// 40807 80000
AAXX 21181 89061 179// 02801 10016 20007 39928 49934 57001 69953 74174 333 91002 91102
BBXX V2AJ8 21183 99259 11206 41597 80335 10161 20127 40180 54000 70222 83838 22214 20610 399// 4//// 5//// 80142
BBXX CGBR 21184 99526 71285 46/// /3002 10016 20015 40324 56011 7//// 8//// 22200 0//// 2////
BBXX VCXF 21184 99464 70484 41697 72833 10000 2000/ 40134 52022 78622 87500 22200 02024 20706 326// 40807 80000
AAXX 21181 89061 179// 02801 10016 20007 39928 49934 57001 69953 74174 333 91002 91102
AAXX 21184 16045 NIL
AAXX 21184 16090 12960 01001 10000 21003 30080 40166 51009 60002 333 10070
AAXX 21184 16149 12970 02105 10005 21026 30147 40163 53008 60002 333 10080
AAXX 21184 16261 12965 22505 10034 20021 30057 40131 53003 60002 80001 333 10086 55300
AAXX 21184 16453 12597 60108 10108 20047 30018 40097 52028 60022 83470 333 10140 55300 83621 85359 91018 555 0200/
AAXX 21184 16560 12566 22906 10104 20038 30152 40159 53006 60002 82500 333 10144 82630
AAXX 21184 16008 12260 80105 11038 21064 38492 48453 51007 60002 887// 333 11022 43014 88705 92810
AAXX 21184 16084 12970 71202 10000 21014 39993 40166 53010 60002 83031 333 10044 81360
AAXX 21184 16088 11945 20301 11022 21022 30047 40170 53011 60002 71021 82030 333 10034 82359
AAXX 21184 16110 12898 70805 10060 21063 30154 40159 52003 60002 85031 333 10100 85358 555 0////
AAXX 21184 16134 12680 53022 11048 21112 37760 48452 56001 60002 85030 333 10030 44004 85340 92845
AAXX 21184 16153 12999 02607 10100 21047 39881 40146 55000 60002 333 10140 555 0////
AAXX 21184 16158 12760 61603 10048 20013 30147 40155 54000 60002 87015 333 10085 55300 83456
AAXX 21184 16206 12980 30305 10026 21012 30140 40149 54000 60002 80009 333 10104
AAXX 21184 16219 42965 00442 11058 21082 38041 48438 51003 6///2 333 11046 43008 92843
AAXX 21184 16252 11458 83202 10014 21018 39185 42751 53005 69922 71072 888// 333 10014 85815 87625 95090
AAXX 21184 16280 12998 03410 10092 20014 39900 40123 52010 60002 333 10110 555 0////
AAXX 21184 16310 12897 20708 10068 21065 39861 40085 51010 60002 82030 333 10092 82358 555 0////
AAXX 21184 16320 12460 60212 10094 20052 30090 40102 58004 60002 86800 333 10096 82815 85635 555 0////
AAXX 21184 16325 12898 23011 10080 20018 30090 40104 53006 60002 82030 333 10098 82358 98075 555 0////
AAXX 21184 16360 11497 80117 10064 20052 39937 40073 55001 60192 76166 888// 333 10090 85815 86640 91031 91140 555 0////
AAXX 21184 16400 NIL
AAXX 21184 16420 11496 83308 10098 20063 30014 40079 52030 60022 76162 8552/ 333 10132 85618 88458 90008 90975 96461 555 0////
AAXX 21184 16429 12562 53510 10108 20008 30120 40131 52015 69982 86800 333 10126 83822
AAXX 21184 16470 12560 43317 10120 20067 39898 40135 52020 69922 84500 333 10130 55300 22/// 84625 95000
AAXX 21184 16480 11497 83408 10072 20069 30003 40065 52045 60242 72162 8557/ 333 10130 85615 88358 555 0////
AAXX 21184 16522 12598 33407 10120 20092 39918 40162 55002 60002 82101 333 10126 55300 82820 555 0////
AAXX 21184 16539 12598 23409 10118 20088 30050 40165 53005 60002 82201 333 10136 82820 555 0////
AAXX 21184 16550 12698 23204 10114 20042 39949 40129 53006 60002 82130 333 10134 82835 555 0////
AAXX 21184 60101 32460 22301 10102 20069 40288 53003 82500 333 10165 82816
AAXX 21184 60115 32975 52006 10108 20038 40266 50003 80002 91748 333 10197 85073
AAXX 21184 60135 32958 30503 10123 20097 40286 53006 80002 333 10181 83070
AAXX 21184 60150 32960 22702 10117 20060 39625 40288 53005 80002
AAXX 21184 60155 32960 304// 10150 20102 40277 54000 80002 333 10176 83070
AAXX 21184 60156 15960 00206 10139 20087 40290 52007 60002 333 10184
AAXX 21184 60230 15958 20305 10180 20023 40260 53004 60002 80002 333 10242 82070
AAXX 21184 60252 32960 02504 10159 20098 40254 58002 333 10233 95800
AAXX 21184 60096 NIL
AAXX 21184 60105 32958 22606 10136 20111 40286 53001 80001 333 10162 82070
AAXX 21184 60107 32960 01604 10136 20088 40258 56002 333 10207
AAXX 21184 60141 32960 20000 10112 20040 39612 40287 53005 80002 333 10176 82073
AAXX 21184 60185 32965 00407 10167 20101 40275 53001 333 10207
AAXX 21184 60190 32972 12204 10163 20047 40252 56001 80002 333 10217 81071
AAXX 21184 60191 32970 20000 10160 20078 40266 53002 80002 333 10216 82073
AAXX 21184 60265 32970 11002 10154 21050 38963 48588 53002 80002 333 10185 81070
AAXX 21184 60060 NIL
AAXX 21184 60106 NIL
AAXX 21184 60127 NIL
AAXX 21184 60195 NIL
AAXX 21184 60210 NIL
AAXX 21184 60220 NIL
AAXX 21184 60318 NIL
AAXX 21184 16021 NIL
AAXX 21184 16022 12986 03615 11068 21133 37790 48444 53002 60002 333 11050 48016 92835
AAXX 21184 16033 12862 72103 11028 21028 38752 48457 52009 60002 87030 333 10008 43020 87357 92822
AAXX 21184 16040 12965 30000 11016 21023 39232 42762 51014 60002 83030 333 10004 42998 83359 92832
AAXX 21184 16052 11/01 90630 11126 21146 36567 47998 52006 6///2 77174 333 11126 49999 89/01 93199 96045
AAXX 21184 16061 12984 01207 10050 21051 39305 42758 54000 60002 333 10086
AAXX 21184 16098 12970 43402 10004 21033 30118 40171 53012 60002 84030 333 10112 84360
AAXX 21184 16138 11956 00000 11008 21041 30153 40165 53007 60002 71011 333 10062
AAXX 21184 16148 12970 03001 10008 21011 30152 40165 53008 60002 333 10077
AAXX 21184 16168 12780 30215 10038 21079 39384 42747 54000 60002 82031 333 10048 82356
AAXX 21184 16172 12962 00000 10002 21037 39860 40169 51005 60002 333 10084
AAXX 21184 16179 12875 22105 10014 21120 39463 42757 53003 60002 82030 333 10024 43006 82357 92842
AAXX 21184 16224 12868 13607 10072 21029 39810 40131 53006 60002 81030 333 10094 81358
AAXX 21184 16232 12598 63318 10104 20028 30080 40134 52009 69922 85830 333 10104 82826 83628 555 0////
AAXX 21184 16245 12970 00108 10068 21009 30108 40134 53008 60002 333 10124
AAXX 21184 16253 12860 20207 10062 20021 30121 40134 51010 60002 82030 333 10114 82357
AAXX 21184 16258 12865 23521 11010 21058 39106 42722 58005 60002 82030 333 10004 82358
AAXX 21184 16263 11164 43514 11002 21016 38855 48419 53006 60002 72841 84170 333 10004 41003 83803 92842 93100
AAXX 21184 16294 NIL
AAXX 21184 16337 NIL
AAXX 21184 16344 11/00 90528 11040 21040 38187 48381 53007 60002 74544 333 11028 47042 89/00 95090 95190
AAXX 21184 16434 11568 40314 10018 21004 38898 48402 52018 60032 70261 84200 333 10034 84820 95000 95100
AAXX 21184 16450 11/02 92705 10030 20030 38974 48440 52020 60042 76064 333 10048 89/00
AAXX 21184 16459 11464 62808 10080 20055 30050 40086 52033 60092 70165 86800 333 10130 83815 85625
AAXX 21184 16546 12466 43305 10090 20061 30132 40161 50009 60002 82621 333 10138 81710
AAXX 21184 16564 12598 32718 10128 20064 30007 40149 51005 60002 83200 333 10178 83822 555 0////
AAXX 21184 64550 32458 8//// 10252 20230 30/// 40/// 885// 333 10385 5//// 84610 88625
AAXX 21184 64551 32460 52206 10265 20238 30081 40110 85900 333 10295 58005 82811 81916 85626 94941 95831
AAXX 21181 11812 36/// /3112 11007 21007 39427 42736 52006 333 11002
AAXX 21181 11813 11262 62807 10014 20004 39786 40142 52001 60032 76862 86500 333 10026 43002 83705 86620 91014
AAXX 21181 11816 11460 82402 10031 20005 39983 40149 52010 60042 76176 885// 333 10038 43002 85612 87618
AAXX 21181 11819 16/// /2804 10013 20007 39925 40146 52007 69922 333 10013
AAXX 21181 11826 11310 80000 11017 21025 39939 40145 52007 60032 77172 885// 333 11012 43006 85608 88611
AAXX 21181 11841 11330 80000 11029 21040 39758 40147 53008 69992 77172 887// 333 11025 47003 83707 88713
AAXX 21181 11855 11230 80000 11017 21024 39977 40148 52004 60022 77172 887// 333 11012 47004 88706
AAXX 21181 11856 16/// /0000 11027 21036 39819 40149 52004 60022 333 11027
AAXX 21181 11858 11564 52502 11002 21006 39993 40149 52008 69932 70272 85500 333 10008 43001 85630
AAXX 21181 11867 11414 80000 11024 21041 39820 40147 53005 60022 77172 885// 333 11015 47003 84714 88623
AAXX 21181 11880 11520 80000 11018 21025 39975 40152 53008 69942 77072 885// 333 11018 47001 88623
AAXX 21181 11900 16/// /0000 11033 21044 39804 40151 52004 69932 333 11030
AAXX 21181 11903 11556 80000 11051 21054 39753 40150 53004 69942 71077 885// 333 11032 47997 88630
AAXX 21181 11916 11/00 93412 11099 21116 37847 48370 53011 60012 77174 333 11088 48047 89/00 91017 93598 96049
AAXX 21181 11918 11370 72706 11040 21051 39288 42726 52007 69942 77177 87500 333 11037 47007 82708 86625
AAXX 21181 11927 11650 50000 11040 21045 39877 40150 53008 69942 71077 82530 333 11023 43997 82636 84359
AAXX 21181 11930 11/00 93310 11139 21152 37222 47878 53005 60022 77174 333 11119 48036 89/00 91015 91121 93561 96049
AAXX 21181 11933 11/30 70000 11067 21076 38573 48392 52009 69932 77172 875// 333 11040 48040 817// 87623 444 17//1
AAXX 21181 11934 11560 70000 11062 21083 39291 42730 52012 69902 77077 8657/ 333 11019 42001 83623 83650 85360
AAXX 21181 11938 11356 70000 11065 21076 39043 42727 52010 69902 77022 87500 333 11055 44016 83708 87630
AAXX 21181 11952 16/// /1401 11055 21063 39283 42731 52011 60002 333 11031
AAXX 21181 11958 36/// /3203 11068 21079 38665 48398 52013 333 11065
AAXX 21181 11968 11256 82301 11016 21039 39859 40149 52014 69902 77122 885// 333 10002 43997 86706 88656
AAXX 21181 11976 12662 81601 11009 21028 39876 40147 52016 60002 8557/ 333 10023 85633 88460
AAXX 21181 11978 11668 81302 11008 21022 30016 40150 52016 69902 72222 885// 333 10031 42997 88648
AAXX 21181 11993 11664 89902 11008 21033 39931 40154 52016 60002 77072 885// 333 10031 42001 84636 88646
AAXX 21184 13600 12660 81406 10044 20008 30077 40130 54001 60002 8425/ 333 10070 83840 85360
AAXX 21184 13610 11656 80000 10028 21021 39723 40156 57006 60002 71022 885// 333 10034 88633
AAXX 21184 13611 NIL
AAXX 21184 13619 11557 80000 11004 21007 39360 42752 57007 60002 71042 885// 333 10006 88630
AAXX 21184 13622 11658 80412 10060 20032 30081 40088 57011 60022 76062 885// 333 10072 88633
AAXX 21184 13624 12960 81408 10056 20005 30065 40104 57016 60002 8802/ 333 10068 88460
AAXX 21184 13625 11450 80000 10032 20014 39908 40144 54004 60022 77166 8802/ 333 10046 88516
AAXX 21184 13629 11630 83202 11010 21010 39055 42719 57010 60012 77177 885// 333 10030 88633
AAXX 21184 13601 12660 82702 10066 20040 39981 40082 57010 60002 8352/ 333 10094 83636 85460
AAXX 21184 13602 NIL
AAXX 21184 13623 12970 80000 10054 20027 30121 40127 52008 60002 8801/ 333 10075 88460
AAXX 21184 64500 32465 62208 10276 20245 30090 40103 83902 333 10288 58002 83610 81920 85633 94941 95831
AAXX 21184 60285 32960 03212 10180 20083 40254 53002 333 10225
AAXX 21184 60340 32965 10000 10139 20048 40265 53003 80001 333 10206 81070
BBXX DBLK 21181 99705 50081 41498 72706 11028 21052 49767 52004 70221 8383/ 22200 05016 ICE 18780
AAXX 21181 11487 01470 72903 10007 21004 39537 40173 52014 69992 78582 873// 333 10014 42997 69905 81610 81920 86620 91113
BBXX 44060 21181 99413 70721 46/// ///05 10111 40138 56041 91800 22200 00103 333 91206 555 11057 22062
BBXX 44008 21181 99405 70692 46/// /1808 10129 20108 40175 57031 91750 22200 00114 10703 20702 312// 41102 70015 333 91209 555 11084 22093 31715 41810 61749 177078 179081 174081 176081 182077 184075
BBXX 42363 21181 99282 70892 46/// /2707 10250 20200 40166 58003 91800 333 91207
BBXX 42364 21181 99291 70881 46/// /2502 10228 20211 40163 58010 91800
BBXX 44011 21181 99411 70666 46/// /1509 10094 20067 40203 56035 91750 22200 00093 10903 20803 3//// 40902 70017 333 91212 555 11099 22105 31701 43312 61749 149093 150097 152091 152093 154097 150099
BBXX 41046 21181 99238 70683 46/// /0909 10243 20181 40216 58024 91750 22200 00256 11307 20704 300// 41305 70033 333 91211 555 11097 22102 31704 41114 61749 096091 101079 099071 087077 099110 101078 81013 91705
AAXX 21181 45007 12657 60405 10192 20098 30182 40191 58001 60001 8153/ 333 58013 81640 86360
AAXX 21181 45032 36/// /2301 10146 20132 30177 40194 57001
AAXX 21181 45035 36/// /0604 10171 20103 30149 40191 57001
AAXX 21181 45039 36/// /0203 10175 20111 30176 40191 57001
AAXX 21181 45044 36/// /0603 10172 20148 30093 40187 57002
AAXX 21181 45007 12657 60405 10192 20098 30182 40191 58001 60001 8153/ 333 58013 81640 86360
BBXX 44060 21181 99413 70721 46/// ///06 10112 40140 91745 22200 00103 333 91208 555 11072 22077
BBXX 46089 21181 99459 71258 46/// /0104 10083 20021 40329 53012 91750 22200 00088 11406 20401 329// 41406 70029 333 91205 555 11038 22039 31732 40305 61749 014038 022041 019038 009037 008043 010037
AAXX 21181 37682 32997 33401 11094 21101 38154 48553 54000 83040 333 11045
AAXX 21181 37717 329// 00000 11025 21085 38102 48529 52005 333 10030
AAXX 21181 37788 41496 80000 11027 21050 39292 40337 52006 71022 866// 333 11020 86713
AAXX 21181 45032 36/// /2301 10146 20132 30177 40194 57001
AAXX 21181 45035 36/// /0604 10171 20103 30149 40191 57001
AAXX 21181 45039 36/// /0203 10175 20111 30176 40191 57001
AAXX 21181 45044 36/// /0603 10172 20148 30093 40187 57002
AAXX 21181 12882 31450 82005 11009 21019 30024 40161 52009 77171 8472/ 333 10015 41998 84713 88530
AAXX 21184 71805 02584 72818 11003 21057 30188 40197 53002 60002 875// 333 10001 21025 42998 60007 87630 90710 91127 93100 555 60005
AAXX 21184 89642 40/// /2413 11060 21121 39799 49853 58004 333 02942
BBXX 51101 21181 99243 71621 46/// /0609 10230 20179 40195 53006 91750 22200 00238 10905 20503 309// 40904 70026 333 91213 555 11094 22099 31652 40915 61749 055089 052085 063069 067066 082066 085113
BBXX 46061 21181 99602 71468 46/// /2210 10047 40043 53030 91750 22200 00059 11106 20703 300// 41105 70032 333 91213 555 11111 22117 31709 42214 61749 218105 222101 223111 219112 221105 220117
BBXX 46083 21181 99582 71380 46/// /1915 10058 20020 40146 56024 91750 22200 00064 11110 20807 300// 41107 70052 333 91219 555 11165 22177 31723 41920 61749 186154 186151 186153 186152 184153 183153 81916 91740
BBXX 51000 21181 99235 71541 46/// /0711 10219 40188 52013 91750 22200 00231 10805 20504 309// 40804 70027 333 91214 555 11113 22120 31744 40714 61749 069104 064093 064091 064091 057088 055098
AAXX 21184 65046 32960 60607 10240 20065 40128 80008 333// 10302 58002 86280
AAXX 21181 01062 11458 80506 11027 21035 30088 40101 57005 69902 78582 883// 333 11025 91109
AAXX 21181 01403 11560 71408 10017 20010 30045 40115 58008 60002 70144 876// 333 10039 91110
AAXX 21181 01218 11787 51504 10027 21071 30091 40113 58001 60002 70221 82288 333 10027 91109
AAXX 21181 01359 11889 12502 11093 21124 39206 40161 50007 60002 70200 81030 333 11035 91106
AAXX 21184 17600 12665 10305 10124 20081 30185 40195 51013 60002 81100 333 10198 20122 81834
AAXX 21184 17601 12682 12905 10142 20089 30158 40190 52015 60002 81800 91750 333 10194 81830
AAXX 21184 17607 NIL
AAXX 21184 17609 12570 43204 10134 20085 30188 40192 51018 60002 81280 333 10203 20117 81830 84358
AAXX 21184 91701 11499 50910 10270 2025/ 4//// 60071 70228 83228 333 56299 82817
AAXX 21184 82360 85280
AAXX 21184 85041 32470 63404 10301 20247 39811 40076 57028 85902 333 56706 59004 83817 82920 85070
AAXX 21184 85140 32470 80000 10240 20226 39902 40112 57018 8790/ 333 56339 58016 83610 86615 81925 88457
AAXX 21184 85141 11484 80000 10262 20245 39870 40099 57018 60081 72196 8652/ 333 56339 58020 84710 86616 88457
AAXX 21184 85151 NIL
AAXX 21184 85152 31458 80000 10268 20235 39865 40096 57015 71522 8352/ 333 56339 58019 83615 88457
AAXX 21184 85201 31458 70910 10098 20040 36294 36294 57011 79522 86963 333 56777 58003 83817 83920 85357
AAXX 21184 85230 NIL
AAXX 21184 85242 31484 61807 10123 20056 36549 57020 71622 85920 333 56800 58005 84817 81920 86457
AAXX 21184 91701 11499 50910 10270 2025/ 4//// 60071 70228 83228 333 56299 82817
AAXX 21184 82360 85280
BBXX 44172 21181 99445 70634 46/// ///// 1//// 91801 22200 00063 10902 20902 319// 41101 70012
BBXX 44097 21181 99410 70711 46/// ///// 1//// 91802 22200 00121 10703 20703 315// 41101 70016
AAXX 21184 78073 11465 41310 10267 20206 40208 69901 72581 84200 333 59011 84816 90910
AAXX 21181 33815 11497 83104 10008 21013 39918 40130 52021 60022 70222 885// 333 10010 555 80014
AAXX 21184 61968 16/// /2205 10280 20236 40120 60022 333 10304 58000 90710 91109 555 60005
AAXX 21184 61980 11560 70720 10257 20228 40156 60142 71511 878// 333 10289 58020 83821 85650 90710 91125 924/7 555 60005
AAXX 21184 67005 14/// /3302 10269 20236 40123 60032 700// 333 10309 58002 90710 91103 555 60005
BBXX 46232 21181 99325 71174 46/// ///// 1//// 91738 22200 00151 11302 20802 327// 41302 70012
BBXX 46247 21181 99378 71228 46/// ///// 1//// 91751 22200 00109 11405 21003 329// 41404 70025
BBXX 46243 21181 99462 71241 46/// ///// 1//// 91759 22200 00078 11406 21003 327// 41405 70029
BBXX 46236 21181 99368 71219 46/// ///// 1//// 91750 22200 00123 11304 21002 328// 41303 70019
BBXX 46229 21181 99438 71246 46/// ///// 1//// 91751 22200 00098 11307 21003 330// 41307 70037
BBXX 46217 21181 99342 71194 46/// ///// 1//// 91742 22200 00151 11202 21002 327// 41202 70012
BBXX 46225 21181 99329 71174 46/// ///// 1//// 91744 22200 00146 11402 21001 328// 41401 70009
BBXX 46213 21181 99403 71247 46/// ///// 1//// 91754 22200 00101 11409 20807 330// 41406 70043
BBXX 46215 21181 99352 71209 46/// ///// 1//// 91738 22200 00140 11403 21002 326// 41403 70016
BBXX 46218 21181 99345 71208 46/// ///// 1//// 91802 22200 00142 11505 21003 331// 41504 70027
AAXX 21184 78073 11465 41310 10267 20206 40208 69901 72581 84200 333 59011 84816 90910
BBXX 44100 21181 99363 70756 46/// ///// 1//// 91752 22200 00119 11102 21001 309// 41101 70008
BBXX 41110 21181 99341 70777 46/// ///// 1//// 91751 22200 00139 10602 20602 311// 41301 70011
BBXX 42099 21181 99273 70842 46/// ///// 1//// 91757 22200 00231 10703 20703 70017
BBXX 41113 21181 99284 70805 46/// ///// 1//// 91751 22200 00217 11402 20602 308// 41401 70011
BBXX 46219 21181 99332 71199 46/// ///// 1//// 91758 22200 00140 11305 21003 329// 41304 70024
BBXX 46224 21181 99332 71175 46/// ///// 1//// 91736 22200 00146 11402 21001 323// 41401 70008
BBXX 46214 21181 99379 71235 46/// ///// 1//// 91753 22200 00117 11407 20904 330// 41405 70034
BBXX 44099 21181 99369 70757 46/// ///// 1//// 91752 22200 00114 11202 20401 309// 41201 70008
BBXX 51204 21181 99213 71581 46/// ///// 1//// 91752 22200 00247 11303 20802 331// 41301 70013
AAXX 21184 48601 11560 70305 10265 20232 30078 40082 60001 70522 82532 333 82625 84364 87077
AAXX 21184 48615 11559 70710 10265 20246 30079 40085 60121 76162 82547 333 82620 87272
AAXX 21184 48620 11559 70501 10249 20238 30075 40084 60001 70522 82558 333 82632 85364 85276
AAXX 21184 48647 11459 73101 10275 20257 30057 40082 60001 71322 81951 333 81917 85364
AAXX 21184 48650 11460 70000 10256 20247 30063 40082 60001 71322 82942 333 81917 84364 86078
AAXX 21184 48657 11240 80302 10242 20241 30068 40086 60041 76166 85557 333 81705 84624 85464
AAXX 21184 48665 12564 70604 10247 20236 30081 40091 60001 82542 333 82627 84364 86077
AAXX 21184 96413 11558 72601 10241 20237 30059 40086 60131 76166 8447/ 333 84620 87365
AAXX 21184 96421 11262 82104 10237 20233 30043 40079 60111 76362 8452/ 333 81705 84618 88465
AAXX 21184 96441 12468 71203 10253 20247 30047 40074 60001 8357/ 333 83616 87365
AAXX 21184 96449 12465 70504 10246 20242 30053 40072 69901 8357/ 333 83614 87365
AAXX 21184 96465 11470 71902 10265 20254 30033 40066 69941 72996 84838 333 83810 83364 87279
AAXX 21184 96471 11468 71203 10261 20243 30063 40066 69901 70262 82848 333 81814 83364 87277
AAXX 21184 96481 12462 63601 10250 20237 30050 40069 60001 82841 333 81817 83364 85080
AAXX 21184 96491 12465 72402 10264 20252 30059 40071 60001 82832 333 82815 87078
AAXX 21181 06206 46280 82204 10075 20048 30118 40171 51013 8//// 333 10082 81/04 86/10 87/13 91005 91105 91204
AAXX 21181 06207 NIL
AAXX 21181 06239 45783 8//04 10076 20036 3//// 4//// 5//// 8//// 333 10076 81/56 88/60 91005 91106 91205
AAXX 21181 06252 46/// /2404 10079 20071 30127 40173 5//// 222// 00097 10602 333 10083 91005 91105 91204
AAXX 21181 06260 17358 72302 10062 20054 30184 40186 51017 69922 71085 8//// 333 10064 81/07 85/40 87/50 91002 91104 91203
AAXX 21181 06270 15664 82101 10047 20044 30177 40177 51017 60002 8//// 333 10070 87/37 87/45 88/59 91002 91104 91203
AAXX 21181 06290 17230 82402 10049 20047 30140 40181 51016 60002 71011 8//// 333 10059 83/04 83/07 86/37 91003 91105 91203
AAXX 21184 91574 46/// ///// 29090 39990 49996 56021
AAXX 21184 91570 NIL
AAXX 21184 91598 NIL
AAXX 21184 91573 06/// /0316 10249 20212 39989 40086 56007 60021 333 59001 69987
AAXX 21184 91577 06/// /0302 10238 20193 30064 40085 55002 60001 333 59004 60007
AAXX 21184 91579 06/// /0908 10247 20212 30090 40098 56001 60001 333 59004 60007
AAXX 21184 91582 04970 80907 10247 20212 30064 40098 55002 60002 700// 333 10253 20244 60007 90710 91112 555 60005
AAXX 21184 91583 06/// /1502 10234 20215 30085 40100 55002 60421 333 59008 69927
AAXX 21184 91587 06/// /1002 10231 20214 30058 40103 55002 60001 333 59007 60007
AAXX 21184 91590 04986 /1603 10218 20184 30059 40102 55001 60002 700// 333 10273 20216 60007 90710 91105 555 60005
AAXX 21184 91592 06/// /0516 10237 20200 30020 40105 55003 60001 333 59013 60007
AAXX 21184 91596 06/// /0914 10234 20195 30005 40114 55000 60001 333 59008 60007
AAXX 21184 85223 32584 52303 10228 20094 37498 47141 57033 83931 333 56000 58006 82827 81930 85070
AAXX 21184 85283 32584 40510 10218 20115 37191 47117 57022 83304 333 56100 59005 82823 81930
AAXX 21184 85293 32584 70306 10090 20040 36364 57020 84909 333 56600 59002 83620 81923 85170
AAXX 21184 85312 32984 20908 10326 20183 38740 57020 80001 333 56000 59016 82070
AAXX 21184 85345 32584 20608 10380 20197 39571 40021 57024 82100 333 56000 59013 82823
AAXX 21184 85364 32570 21506 10294 20174 38130 48249 57017 82200 333 56000 59014 81833 81836
AAXX 21184 85365 32584 13608 10354 20218 39314 40052 57022 81100 333 56000 59013 81823
AAXX 21184 85394 32984 03604 10365 20254 39608 40021 57029 333 59017
AAXX 21181 06201 47241 82207 10070 20057 30107 40160 51007 72385 8//// 333 10076 83/05 85/07 86/09 91009 91109 91207
AAXX 21181 06203 47160 8//02 10081 20073 30126 40177 51012 70261 8//// 333 10081 81/02 84/06 86/08 91002 91104 91203
AAXX 21181 06204 47256 8//03 10075 20060 30124 40175 51014 75100 8//// 333 10107 81/04 83/07 86/10 91004 91107 91204
AAXX 21181 06205 47681 82005 10072 20051 30090 40150 50002 75100 8//// 333 10073 83/38 86/44 88/50 91006 91106 91205
AAXX 21181 06208 45467 82402 10061 20038 30128 40178 51019 8//// 333 10074 81/18 83/21 86/24 91003 91106 91205
AAXX 21181 06211 471// 82004 10071 20056 30111 40167 51010 7//00 8//// 333 10077 82/02 84/04 85/06 91004 91106 91205
AAXX 21181 06212 47583 82202 1//// 2//// 30111 40175 51012 70280 8//// 333 1//// 83/24 88/28 91003 91107 91206
AAXX 21181 06235 17357 81902 10063 20054 30178 40178 51015 69912 72386 8//// 333 10075 82/07 83/09 87/22 91003 91104 91203
AAXX 21181 06240 17222 82203 10063 20062 30188 40183 51015 69902 71010 8//// 333 10074 86/04 86/09 88/13 91004 91106 91204
AAXX 21181 06251 17659 82402 10058 20056 30174 40175 53015 60002 71051 8//// 333 10075 84/34 88/39 91003 91105 91204
AAXX 21181 06258 46/// /2305 333 91005 91105 91205
AAXX 21181 06269 17229 80000 10055 20054 30187 40181 51014 60022 75186 8//// 333 10063 81/04 86/07 88/14 91001 91104 91203
AAXX 21181 06280 17958 82502 10034 20031 30171 40175 51017 60002 71000 8//// 333 10072 88/60 91002 91107 91204
AAXX 21181 06310 17002 82103 10064 20063 30179 40189 53015 60022 73231 8//// 333 10065 88/00 91003 91103 91203
AAXX 21181 06344 17116 81902 10062 20061 30190 40183 51012 69922 71010 8//// 333 10068 87/03 88/04 91003 91106 91204
AAXX 21181 06370 17237 82001 10056 20050 30167 40193 53019 69922 71011 8//// 333 10062 88/06 91002 91106 91204
AAXX 21181 06380 17115 82003 10045 20041 30056 40198 51017 69932 71000 8//// 333 10051 87/02 88/04 91003 91106 91204
AAXX 21184 16084 12970 51202 10000 21014 39993 40166 53010 60002 81031 333 10046 81360
AAXX 21181 06407 11257 82902 10076 20063 30187 40193 52016 60022 75022 877// 333 10076 82704 86706 91104 91203
AAXX 21181 06447 NIL
BBXX BATEU08 21184 99622 70502 46/// /0715 11062 21128 49950 53004 22283
BBXX BATEU07 21184 99242 31110 46/// /1720 10229 40110 58017 22284
AAXX 21181 06431 NIL
AAXX 21181 06432 NIL
AAXX 21181 06449 11106 82202 10054 20051 39965 40196 52016 60032 75154 876// 333 10054 85702 87703 91105 91204
AAXX 21181 06450 11123 72301 10065 20051 30176 40193 52016 60022 71022 876// 333 10066 87703 91104 91203
AAXX 21181 06458 NIL
AAXX 21181 06465 NIL
AAXX 21181 06478 11115 81702 10044 20037 39973 40197 53017 60032 72854 876// 333 10046 86703 91107 91204
AAXX 21181 06496 NIL
AAXX 21181 06400 11130 89902 10086 20086 30185 40196 53016 60032 75852 877// 333 10088 85702 87704 91107 91205
AAXX 21181 06428 NIL
AAXX 21181 06451 11135 82301 10059 20053 30124 40192 51017 60022 71065 876// 333 10061 81703 85704 85705 91103 91202
AAXX 21181 06456 11004 89902 10046 20046 39826 40198 53015 60032 75165 887// 333 10047 84701 86702 88704 91105 91204
AAXX 21181 06476 17/01 92401 10014 20014 39527 40204 52018 60052 73076 333 10016 91104 91202
AAXX 21181 06479 11013 89901 10051 20048 30119 40200 53016 69942 71022 886// 333 10057 85701 87703 91106 91204
AAXX 21181 06490 17225 81603 10016 20008 39620 40203 53016 60022 75261 333 10022 88/03 91106 91204
AAXX 21181 06590 11002 82001 10028 20028 39738 40199 52012 60022 75154 887// 333 10028 88701 91104 91203
AAXX 21184 64501 32358 81812 10262 20236 3//// 4//// 885// 333 10284 5//// 83608 88630
AAXX 21184 64550 32458 8//// 10252 20230 30/// 40/// 885// 333 10385 5//// 84610 88625
AAXX 21184 64551 32460 52206 10265 20238 30081 40110 85900 333 10295 58005 82811 81916 85626 94941 95831
AAXX 21181 03951 17456 /2606 10105 20095 30230 40256 52010 60002 7101/ 81/// 333 10122 81/12
AAXX 21181 03953 12460 72104 10108 20096 30216 40253 52008 69932 85602 333 10131 85712 85070 92426
AAXX 21181 03955 12681 52705 10102 20080 30048 40246 53014 69902 81502 333 10131 81648 85075
AAXX 21181 03956 17758 /2303 10094 20080 30156 40234 52016 60002 7101/ 87/// 333 10124 87/50
AAXX 21181 03962 11361 12409 10101 20092 30207 40231 52011 69912 71011 81601 333 10116 81709
AAXX 21181 03963 17950 /2409 10105 20092 30182 40210 52011 60002 7101/ 333 10114
AAXX 21181 03966 15761 /2404 10103 20084 30130 40223 53010 60002 85/// 333 10118 85/50
AAXX 21181 03967 12470 72308 10113 20094 30092 40205 52014 69912 875// 333 10117 81718 87656
AAXX 21181 03969 32480 72408 10114 20095 30098 40202 51012 868/2 333 10118 81818 86656
AAXX 21181 03973 12765 52513 10105 20087 39933 40186 55002 69912 84502 333 10114 84650 83072 90710 91122
AAXX 21181 03976 12670 72208 10112 20102 30171 40183 53008 69902 82532 333 10121 82635 85360 86070
AAXX 21181 03980 17457 /2512 10112 20098 30124 40149 52011 60002 7101/ 88/// 333 10116 88/12
AAXX 21184 89532 42/70 70314 11017 21044 39728 49755 52018 81572
AAXX 21181 01037 16/// /1401 11050 21056 30047 40053 52002 60002 333 11005 91105
AAXX 21181 01065 11689 70000 11133 21146 39924 40095 52003 69982 70221 875// 333 11111 91101
AAXX 21181 01114 16/// /1605 10030 21009 30042 40053 50003 69962 333 10032 91109
AAXX 21181 01245 11983 03601 11058 21123 39400 40129 51007 60002 70100 333 11039 91104
AAXX 21181 01278 31985 01401 11028 21040 30000 40105 50005 70211 333 11005
AAXX 21181 01329 11575 80803 11003 21018 30065 40128 58004 60002 70222 888// 333 10002 91106
AAXX 21181 01337 16/// /0601 11058 21070 30072 40141 50001 60002 333 11039 91103
AAXX 21181 01364 16/// /2101 11180 21199 38991 40198 50007 60002 333 11119 4/039 91103
AAXX 21181 01374 31889 10000 11136 21143 70200 81040 333 11080
AAXX 21181 01389 11985 21301 11215 21232 39841 40185 52012 60002 70210 80008 333 11144 91106
AAXX 21181 01373 11685 80000 11150 21165 39954 40165 53012 60002 70320 885// 333 11122 91100
AAXX 21181 01424 11680 8//// 11048 21060 30138 40142 53003 69932 70220 885// 333 11043
AAXX 21181 01228 46/// /2510 10036 20012 30076 40083 50003 333 10048 91116
AAXX 21181 01340 16/// /1103 11085 21112 39249 40157 50005 60002 333 11050 91106
AAXX 21181 01023 11689 71201 11023 21034 39955 40051 52004 60002 70222 8257/ 333 11023 91102
AAXX 21181 01156 16/// /1306 10031 20012 30024 40034 54000 69942 333 10037 91109
AAXX 21181 01265 16/// /0000 11243 21268 39554 40202 52009 60002 333 11198 91101
AAXX 21181 01273 16/// /1501 11090 21102 39919 40125 52007 60002 333 11062 91102
AAXX 21181 01375 16/// /3102 11079 21108 6//// 333 11066 91110
AAXX 21181 01469 16/// /3601 11103 21120 39975 40157 53011 60002 333 11076 91102
AAXX 21181 01135 16/// /0801 11026 21030 39921 40076 52004 69972 333 11019 91102
AAXX 21181 01192 16/// /0000 11005 21040 60002 333 10014 4/006 91104
AAXX 21181 01370 16/// /3001 11104 21130 39014 40243 52009 60002 333 11061 4/026 91104
AAXX 21181 01419 16/// /0301 11049 21056 60002 333 11042 91104
AAXX 21181 01455 16/// /0301 11069 21081 39829 40154 53013 60002 333 11027 91102
AAXX 21183 91551 31598 70000 10259 20253 40069 53002 70311 879// 333 562// 86820 81925
AAXX 21183 91553 NIL
AAXX 21183 91554 11498 80000 10251 20241 40070 56001 60111 78082 888// 333 569// 60111 83818 88640
AAXX 21183 91555 31598 60813 10273 20247 40071 56006 70222 83831 333 56299 82822 83645 86362
AAXX 21183 91557 11598 70704 10251 20235 40057 56003 69901 70122 8597/ 333 5699/ 69901 84820 81925 87460
AAXX 21183 91565 NIL
AAXX 21183 91568 31598 81008 10255 20212 40100 53001 70222 8682/ 333 5629/ 83820 85640 88460
AAXX 21183 91551 31598 70000 10259 20253 40069 53002 70311 879// 333 562// 86820 81925
AAXX 21183 91553 NIL
AAXX 21183 91554 11498 80000 10251 20241 40070 56001 60111 78082 888// 333 569// 60111 83818 88640
AAXX 21183 91555 31598 60813 10273 20247 40071 56006 70222 83831 333 56299 82822 83645 86362
AAXX 21183 91557 11598 70704 10251 20235 40057 56003 69901 70122 8597/ 333 5699/ 69901 84820 81925 87460
AAXX 21183 91565 NIL
AAXX 21183 91568 31598 81008 10255 20212 40100 53001 70222 8682/ 333 5629/ 83820 85640 88460
OOXX AAUNI 21184 99798 50833 56093 07671 46/// /2225 11055 21119 38958 49835 57009 91800
AAXX 21184 48698 01464 73201 10256 20245 30063 40081 60001 70522 81842 333 60007 81818 83365 85080
AAXX 21184 48698 01464 73201 10256 20245 30063 40081 60001 70522 81842 333 60007 81818 83365 85080
AAXX 21184 78862 11478 60616 10263 20203 30138 40161 69951 70582 85202 333 10270 20218 58001 70041 85817 85076
AAXX 21184 TAF TQPF 202200Z 2100/2124 05016KT 9999 SCT022 PROB30 TEMPO 2100/2114 SHRA BKN018 BKN036
AAXX 21184 TAF TUPJ 202200Z 2100/2124 05016KT 9999 SCT022 PROB30 TEMPO 2100/2114 SHRA BKN018 BKN036
AAXX 21184 PROB40 TEMPO 1818/1918 5000 SHRA BKN015 BKN035
AAXX 21184 EMPO 0600/0624 SHRA BKN015=+TSRA SCT012CB
AAXX 21184 TAF TUPJ 041000Z 04012/0512 07008KT 9999 SCT016 BKN038 SCT270 TEMPO 0412/0512 SHRA BKN015 PROB40 TEMPO 0418/0512 5000 SHRA BKN014 BKN036 PROB30 0420/0512 4000 TSRA FEW012CB
AAXX 21184 918 4000 TSRA FEW012CB
AAXX 21184 N015 BKN036 PROB40 TEMPO 0704/0724 3000 +TSRA SCT011CB BKN012 BECMG 0712/0714 14008KT
AAXX 21184 21/2712 07017G28KT 5000 SHRA BKN015 BKN036 PROB TEMPO 2700/2712 4000 TSRA FEW013CB
AAXX 21184 PROB30 TEMPO 0800/0806 4000 TSRA FEW012CB PROB40 TEMPO 0800/0824 2000 +SHRA/TSRA SCT010CB BKN012 BKN250
AAXX 21181 48820 32598 73601 10182 20157 30181 40189 58001 878// 333 58020 83895 87697
AAXX 21184 78947 11580 50715 10282 20217 30136 40139 60001 70211 84202 333 02209 10292 20230 59001 70076 84825
AAXX 21184 78982 01480 70712 10252 20240 30116 40121 57017 60101 72588 83278 333 58001 60067 83817 87458 87280
AAXX 21181 48823 32697 83401 10184 20148 30182 40185 56004 885// 333 58014 88696
AAXX 21181 11659 01562 53306 10001 20001 39502 40155 52015 60042 70172 85500 333 10014 44007 60005 85624 91112
AAXX 21181 15015 01596 62601 11029 21038 39543 42750 52013 69962 71072 86500 333 11004 21029 3/000 43997 60007 91002 91102
AAXX 21181 15020 02597 82701 11006 21019 39941 40146 52017 60002 8557/ 333 10017 21012 3/003 43002 60007 91001 91102 92841
AAXX 21181 15090 01496 82702 10013 21012 30052 40147 52019 60002 71022 885// 333 10028 20001 31002 55300 10053 20003 3//// 60007 91003 91104
AAXX 21181 15108 01/91 92714 11121 21121 37983 48422 52014 60002 74543 333 11083 21121 3//// 48016 60007 91020 92727 92833 92922
AAXX 21181 15120 02997 43101 11020 21038 39655 40169 52012 69932 82032 333 10025 21023 34009 55300 10226 2//// 3//// 60007 91002 91103 92600
AAXX 21181 15150 01996 62200 11009 21012 39932 40151 52015 69922 71011 86070 333 10029 21015 3/002 42998 60007 91001 91101 92851
AAXX 21181 15170 02597 80602 11031 21050 39353 42750 52015 60002 883// 333 10000 21035 3/000 47005 60007 91002 91103 92800
AAXX 21181 15200 01497 82002 11006 21017 30027 40176 52008 69922 77171 8802/ 333 10020 21024 3/006 43997 69927 91004 91106 92801
AAXX 21181 15230 02597 62301 11021 21043 39883 40188 52014 60002 86500 333 10022 21025 34007 55300 10114 20004 3//// 60007 91002 91103
AAXX 21181 15260 02998 02203 11056 21070 39622 40184 52014 60002 333 10014 21056 3/002 43001 60007 91004 91107 92822
AAXX 21181 15280 01/93 82704 11124 21129 37366 47895 53005 60022 77174 885// 333 11104 21138 3//// 48043 69977 96041
AAXX 21181 15292 01997 01502 11018 21025 39882 40188 52010 69932 70181 333 10004 21020 34003 60007 91003 91103
AAXX 21181 15310 01996 82003 10015 20015 30070 40158 52017 60032 71022 8807/ 333 10021 20000 3/002 41998 55300 10009 20000 30000 60007 91005 91107
AAXX 21181 15335 01496 22203 10012 20011 30153 40160 53020 60072 71071 82600 333 10018 20002 3/002 42998 60007 91005 91107
AAXX 21181 15346 02597 81500 10017 20014 39862 40158 52015 60002 885// 333 10028 20015 31005 60007 91001 91102
AAXX 21181 15350 02597 72403 10021 20021 30037 40160 52017 60012 87500 333 10049 20007 31008 60007 91004 91104
AAXX 21181 15360 02497 82608 10017 20011 30139 40153 53024 69972 886// 222// 06062 20402 333 10021 20009 3//// 60007 91010 91111 92427
AAXX 21181 15410 02997 02904 10006 21039 30066 40165 51019 60002 333 10049 20006 31006 60007 91005 91106
AAXX 21181 15420 02497 82502 10021 20013 30045 40159 52013 69962 886// 333 10028 20004 31004 55300 0//// 20000 3//// 60007 91003 91103
AAXX 21181 15450 02997 02803 11009 21036 39917 40160 52010 60002 333 10046 21010 31006 55300 10240 20004 3//// 60007 91006 91106
AAXX 21181 15460 02997 82502 10022 20005 30139 40164 52014 69942 8807/ 333 10022 20005 31004 60007 91004 91104
AAXX 21181 15470 02997 52503 10001 21013 30033 40163 52015 69942 85070 333 10030 21001 31003 60007 91005 91105
AAXX 21181 15480 02497 82903 10021 20013 30150 40167 52014 69932 886// 222// 06062 2//// 333 10028 20009 31006 60007 91005 91106 92437
AAXX 21181 11010 11465 72706 10021 20012 39802 40189 52010 60022 70262 333 10036 85711 87623
AAXX 21181 11012 11230 82505 10011 20004 39712 40192 53009 60042 76172 887// 333 10022 20007 55300 91114
AAXX 21181 11022 11558 82704 10011 21005 39759 40153 53015 69902 72162 885// 333 10040 21021 55300 88625 91114
AAXX 21181 11035 11463 82805 10028 20018 39899 40156 52014 60012 76186 885// 333 10050 20024 82713 87621 91114
AAXX 21181 11036 01480 62909 10029 21003 39927 40154 52011 69912 72586 333 10052 69905 81817 84647 86080 91013 91114 91210
AAXX 21181 11101 11450 81803 10006 20005 39688 40231 51007 60062 76877 887// 333 10019 20006 88717
AAXX 21181 11120 01220 89901 10001 20000 39485 40209 52005 69942 77377 333 10005 69935 83705 86610
AAXX 21181 11126 17/// /3209 11101 21101 37681 48463 52002 69982 7808/ 333 11097 21106 55300 91114
AAXX 21181 11130 17/// /0000 10002 21002 39605 40209 53005 60042 7404/ 333 10004 21015 55300
AAXX 21181 11146 11/00 90701 11157 21158 36846 47946 50000 60092 77074 333 11124 21164 89/00 92613 91118
AAXX 21181 11150 01250 82202 10006 20001 39652 40206 51006 69972 77187 333 10033 69925 81706 83714 85635
AAXX 21181 11155 11/00 93212 11068 21076 38315 48449 53003 60152 77374 333 11059 21071 55300 89/01 91126
AAXX 21181 11157 11225 82204 11008 21014 39402 40191 52004 60022 77177 887// 333 10019 88706 91114 91208
AAXX 21181 11172 NIL
AAXX 21181 11190 12665 72706 10035 21014 39920 40157 52013 69912 875// 333 10052 21014 55300 91116
AAXX 21181 11204 16/// /2702 10022 21052 39377 40179 51019 60002 333 10036 21061 55300
AAXX 21181 11212 31/81 73405 11089 21137 37773 48460 52007 71531 87800 333 11066 827// 86530
AAXX 21181 11231 32975 69901 11030 21045 39600 40192 52012 333 10000 81359 85366
AAXX 21181 11240 32882 49901 11008 21033 39723 40174 52012 333 10031 82657 83369
AAXX 21181 11244 16/// /3201 11014 21032 39833 40172 51009 60002 333 10028 21059 55300
AAXX 21181 11389 11550 82207 10017 20008 39841 40174 53011 69922 76162 885// 333 10033 20010 55300 91116
AAXX 21181 01205 46/// /1607 10037 21018 30025 40071 58025 333 10059 91112
AAXX 21181 01281 16/// /0000 11012 21022 39915 40093 51005 69982 333 11009 91102
AAXX 21181 76040 32960 02701 10135 20057 30164 40178 52015 91740 333 10138 20058 30/// 58000 98660
AAXX 21181 76055 32980 01603 10155 20035 30139 40158 52010 91740 333 10158 20072 32/// 59001
AAXX 21181 76056 02/// ///// 1//// 2//// 3//// 4//// 5//// 6//// 7//// 8//// 9//// 333 0//// 1//// 2//// 30/// 4//// 54/// 56/// 57/// 5//// 6//// 8//// 8//// 8//// 9//// 9//// 9//// 44
AAXX 21181 76122 32670 30000 10090 20007 38498 40178 57004 82550 91750 333 10094 21036 30/// 56550 59019 82635
AAXX 21181 76123 06/// 32802 10129 21019 3//// 4//// 5//// 60002 7//// 82550 91750 333 0//// 10129 21050 56550 57/// 5//// 60007 82635 8//// 8//// 8//// 9//// 9//// 9//// 444 ///// 555
AAXX 21181 76220 32958 02303 10072 21024 38098 40210 57002 91740 333 10072 21096 30/// 59017
AAXX 21181 76225 32960 01601 10119 21032 38580 40141 57012 91745 333 10119 21022 30/// 59038
AAXX 21181 76256 12980 50602 10142 20128 30168 40188 52012 60111 85030 91745 333 10215 20080 32/// 56/7/ 58018 85357
AAXX 21181 76258 32870 33606 10178 20107 30125 40171 52012 82032 91750 333 10180 20066 30/// 56055 58019 82358
AAXX 21181 76305 32670 33302 10195 20088 30159 40168 52011 83400 91740 333 10199 20102 30/// 56400 58009 83650
AAXX 21181 76323 32970 00602 10133 21002 38216 40178 57018 91755 333 10140 20010 30/// 59032
AAXX 21181 76342 31860 61302 10132 20021 39469 40192 57017 70222 86050 91750 333 10138 20082 30/// 56030 59026 86358
AAXX 21181 76373 32565 82102 10123 20064 38162 40096 50004 88700 91750 333 10176 20093 30/// 56900 59034 88722
AAXX 21181 76390 31668 22506 10192 20048 38199 40092 57005 70544 81150 91730 333 10201 20100 30/// 56650 59006 81833 81356
AAXX 21181 76393 32950 11202 10166 20068 39657 40152 57015 81010 91749 333 10178 20080 30/// 56300 59003
AAXX 21181 76402 31560 33601 10190 20118 30114 40173 52015 70544 83300 91745 333 10192 20070 30/// 56700 58008 83633
AAXX 21181 76458 32870 63102 10220 20080 30149 40153 57001 86050 91743 333 10238 20109 30/// 56050 58005 86358
AAXX 21181 76471 32580 42207 10154 20018 37660 40099 57001 84500 91750 333 10158 20049 30/// 56400 59014 84635
AAXX 21181 76490 06/// /0502 10206 20047 39758 40144 58014 60002 7//// 8//// 91750 333 0//// 10208 20101 30/// 54/// 56/// 57/// 58011 60007 8//// 8//// 8//// 8//// 9//// 9//// 9//// 44
AAXX 21181 76491 32960 23601 10205 20092 39774 40170 57014 80005 91750 333 10208 20124 30/// 56009 58014 82277
AAXX 21181 76499 31860 20000 10233 20139 30121 40143 57018 70311 82030 91750 333 10234 20142 30/// 56090 58018 82357
AAXX 21181 76538 06/// /1003 10206 20054 38141 40069 58014 60002 7//// 8//// 91750 333 0//// 10209 20040 30/// 4//// 54/// 56/// 57/// 59006 60007 8//// 8//// 8//// 9//// 9//// 9//// 44
AAXX 21181 76539 32970 02702 10181 20085 38141 40170 57011 91750 333 10250 20027 30/// 59007
AAXX 21181 76547 06/// /0602 10242 20156 30133 40145 58012 60002 7//// 8//// 91750 333 0//// 10242 20185 56/// 57/// 58023 60007 8//// 8//// 8//// 8//// 9//// 9//// 9//// 444 ///// 555
AAXX 21181 76548 32875 40502 10232 20129 30148 40158 55007 84030 91740 333 10235 20182 30/// 56040 58024 84357
AAXX 21181 76556 32970 33303 10221 20145 39113 40145 51006 80008 91735 333 10230 20107 30/// 56001 58007 82270
AAXX 21181 76571 31965 01802 10200 20038 38151 40171 57011 705// 91750 333 10202 20048 30/// 59008
AAXX 21181 76577 32970 02303 10182 20137 38035 40161 58007 91740 333 10188 20070 30/// 59006
AAXX 21181 76578 06/// /2206 10184 20023 38030 40093 58010 60002 7//// 8//// 91750 333 0//// 10184 20068 30/// 4//// 54/// 56/// 57/// 59006 60007 8//// 8//// 8//// 9//// 9//// 9//// 44
AAXX 21181 76581 32970 22101 10236 20150 39017 40113 57018 82030 91750 333 10245 20141 30/// 56030 58001 82360
AAXX 21181 76585 32980 60000 10200 20176 39990 40149 58012 86070 91735 333 10210 20167 31/// 56/3/ 58025 86358
AAXX 21181 76586 06/// /2601 10228 20176 39992 40146 58013 60002 7//// 8//// 91750 333 0//// 10228 20180 30/// 4//// 54/// 56/// 57/// 58025 60007 8//// 8//// 8//// 9//// 9//// 9//// 44
AAXX 21181 76592 06/// /1409 10296 21030 30141 40141 58016 60002 7//// 8//// 91750 333 0//// 10304 20207 30/// 4//// 54/// 56/// 57/// 58011 60007 8//// 8//// 8//// 9//// 9//// 9//// 44
AAXX 21181 76593 32470 61405 10294 20262 30142 40144 57017 84280 91750 333 10304 20208 30/// 5633/ 58009 84824 82330 91006 91514
AAXX 21181 76612 32962 00901 10211 20088 38463 40157 58003 91750 333 10234 20073 30/// 59004
AAXX 21181 76634 31970 01403 10226 20048 37835 40142 57014 70500 91750 333 10227 20070 30/// 59006
AAXX 21181 76641 06/// /1002 10244 20191 30137 40149 58009 60002 7//// 8//// 91750 333 0//// 10245 20194 30/// 4//// 54/// 56/// 57/// 58032 60007 8//// 8//// 8//// 8//// 9//// 9//// 9/
AAXX 21181 76644 32460 51404 10300 20203 30144 40156 57002 85200 91750 333 10314 20214 30/// 563// 58024 85810
AAXX 21181 76645 02/// ///// 1//// 2//// 3//// 4//// 5//// 6//// 7//// 8//// 9//// 333 0//// 1//// 2//// 30/// 4//// 54/// 56/// 57/// 5//// 6//// 8//// 8//// 8//// 9//// 9//// 9//// 44
AAXX 21181 76648 06/// /1302 10281 20204 30117 40147 58014 60002 7//// 8//// 91750 333 0//// 10282 20209 30/// 4//// 54/// 56/// 57/// 58011 60007 8//// 8//// 8//// 8//// 9//// 9//// 9/
AAXX 21181 76654 31956 02301 10289 20203 30139 40143 57001 70544 91800 333 10289 20203 30/// 59001
AAXX 21181 76658 31956 41402 10276 20178 39628 40135 56009 70541 80002 91747 333 10280 20166 30/// 56001 58001 84070 98924
AAXX 21181 76662 32970 22502 10206 20079 38455 40162 57009 80002 91730 333 10220 20048 30/// 5600/ 59017 82070
AAXX 21181 76665 32964 02202 10230 20067 38114 40153 57002 91750 333 10264 20056 30/// 59004
AAXX 21181 76680 31960 10901 10206 20050 37740 40050 57011 70500 80001 91755 333 10212 20089 30/// 56007 59001
AAXX 21181 76681 31970 00503 10222 20112 37766 40135 57010 70500 91745 333 10222 20032 30/// 59008
AAXX 21181 76683 32968 01801 10198 20080 37820 40189 56012 91745 333 10205 20044 30/// 58000
AAXX 21181 76684 06/// /1805 10212 20034 37821 40083 58015 60002 7//// 8//// 91750 333 0//// 10218 20035 30/// 4//// 54/// 56/// 57/// 58001 60007 8//// 8//// 8//// 9//// 9//// 9//// 44
AAXX 21181 76685 32970 02101 10210 20054 37859 40141 57011 91750 333 10212 20068 30/// 59001
AAXX 21181 76687 31570 10701 10218 20134 38670 40160 58006 70100 81200 91738 333 10225 20116 30/// 563// 58015 81830
AAXX 21181 76692 31456 10702 10262 20206 30123 40143 58011 71044 81200 91745 333 10270 20196 30/// 563// 58029 81817
AAXX 21181 76693 06/// /0802 10267 20208 30122 40141 58015 60002 7//// 8//// 91750 333 0//// 10270 20193 30/// 4//// 56/// 57/// 58030 60007 8//// 8//// 8//// 8//// 9//// 9//// 9//// 44
AAXX 21181 76695 32560 30903 10306 20238 30118 40124 57015 83200 91750 333 10306 20202 30/// 563// 58005 83823
AAXX 21181 76698 32560 51202 10302 20239 30135 40146 57013 85200 91750 333 10324 20205 30/// 56300 58005 85820
AAXX 21181 76727 06/// /1801 10243 20055 38390 40066 58009 60002 7//// 8//// 91750 333 0//// 10263 20123 30/// 4//// 54/// 56/// 57/// 59001 60007 8//// 8//// 8//// 9//// 9//// 9//// 44
AAXX 21181 76737 31980 21802 10232 20143 38764 40150 58007 70300 80007 91735 333 10235 20109 30/// 56009 58020 82080 91105 91514
AAXX 21181 76738 06/// /1402 10232 20131 38762 40107 58012 60002 7//// 8//// 333 10241 20104 30/// 56/// 57/// 58019 60007 8//// 8//// 8//// 8//// 9//// 9//// 9//// 444 ///// 555 30189
AAXX 21181 76743 31457 42302 10264 20237 30121 40129 57012 70211 848// 91745 333 10300 20192 30/// 56500 58019 848//
AAXX 21181 76750 32560 30904 10298 20238 30133 40143 57009 82100 91750 333 10308 20209 30/// 56220 58005 82820
AAXX 21181 76751 06/// /1104 10304 20244 30133 40143 58009 60002 7//// 8//// 91750 333 0//// 10305 20206 30/// 4//// 54/// 56/// 57/// 58005 60007 8//// 8//// 8//// 9//// 9//// 9//// 44
AAXX 21181 76762 31504 42301 10284 20231 38745 40116 58017 70400 82204 91750 333 10285 20142 30/// 56306 59011 82830 82060 91203
AAXX 21181 76772 06/// /3501 10252 20087 38419 40083 58019 60002 7//// 8//// 91750 333 0//// 10252 20062 30/// 4//// 56/// 57/// 58001 60007 8//// 8//// 8//// 9//// 9//// 9//// 444 ////
AAXX 21181 76773 31568 12701 10236 20078 38417 40141 57014 70500 81100 91746 333 10242 20055 30/// 56200 58001 81820
AAXX 21181 76775 31970 10701 10257 20105 38520 40161 57010 70200 81100 91740 333 10290 20110 30/// 56800 58007 81824
AAXX 21181 76776 06/// /0802 10250 20092 38497 40079 58018 60002 7//// 8//// 91750 333 0//// 10255 20110 30/// 4//// 56/// 57/// 58006 60007 8//// 8//// 8//// 9//// 9//// 9//// 444 ////
AAXX 21181 76805 32970 02301 10302 20223 30109 40111 53018 91735 333 10312 20220 30/// 59004
AAXX 21181 76806 06/// /2302 10304 20208 30114 40118 58013 60002 7//// 8//// 91750 333 10315 20218 30/// 56/// 57/// 59004 60007 8//// 8//// 8//// 8//// 9//// 9//// 9//// 555 30275
AAXX 21181 76833 32970 03606 10318 20229 30103 40105 57017 91745 333 10318 20220 30/// 59001 92001
AAXX 21181 76840 32940 03604 10324 20195 30047 40102 57017 91740 333 10330 20170 30/// 59013
AAXX 21181 76845 32960 00901 10216 20145 37940 40168 56018 91745 333 10224 20054 30/// 58004
AAXX 21181 76848 32970 40501 10260 20062 38371 40081 57012 80002 91750 333 10260 20109 30/// 56009 58001 84081
AAXX 21181 76902 06/// /2903 10317 20191 39978 40113 58014 60002 7//// 8//// 91750 333 0//// 10321 20228 30/// 4//// 54/// 56/// 57/// 59007 60007 8//// 8//// 8//// 8//// 9//// 9//// 9/
AAXX 21181 76903 31981 13202 10324 20186 39977 40107 58016 70111 81080 91755 333 10338 20222 30/// 59011 81358
AAXX 21181 76160 11562 70501 10132 20100 39923 40177 52012 69951 70352 87500 91730 333 10132 20070 31/// 56500 58023 70005 87630
AAXX 21181 76243 32473 81601 10100 20054 39875 40176 57006 884// 91735 333 10106 20052 30/// 563// 59018 88616
AAXX 21181 76311 32980 00000 10177 20078 39871 40158 57001 91745 333 10178 20041 30/// 58007
AAXX 21181 76405 32980 01801 10215 20147 30152 40173 50013 91750 333 10215 20112 30/// 58010
AAXX 21181 76412 31966 71801 10140 20105 30135 40181 52013 70544 87050 91735 333 10148 20120 30/// 56050 58008 87356
AAXX 21181 76543 32875 22302 10247 20155 30131 40164 57015 82030 91745 333 10249 20190 30/// 56030 58021
AAXX 21181 76640 31358 62201 10218 20197 30156 40169 57002 70222 864// 91740 333 10230 20194 30/// 561// 58035 86609
AAXX 21181 76647 32570 81402 10274 20216 30127 40158 57014 8653/ 91750 333 10277 20208 30/// 563// 58012 86623
AAXX 21181 76741 31460 43103 10262 20233 30098 40117 52003 70542 84200 91735 333 10270 20200 30/// 567// 58031 84812
AAXX 21181 76843 32565 23601 10272 20156 39477 40117 55001 81203 91736 333 10278 20185 30/// 569/9 58001 81820
AAXX 21181 76855 32980 01403 10304 20204 30063 40113 58001 91745 333 10316 20214 30/// 58000 92000
AAXX 21181 76040 32960 02701 10135 20057 30164 40178 52015 91740 33310138 20058 30/// 58000 98660
AAXX 21181 76055 32980 01603 10155 20035 30139 40158 52010 91740 33310158 20072 32/// 59001
AAXX 21181 76056 02/// ///// 1//// 2//// 3//// 4//// 5//// 6//// 7////8//// 9//// 333 0//// 1//// 2//// 30/// 4//// 54/// 56///57/// 5//// 6//// 8//// 8//// 8//// 9//// 9//// 9//// 44
AAXX 21181 76122 32670 30000 10090 20007 38498 40178 57004 82550 91750333 10094 21036 30/// 56550 59019 82635
AAXX 21181 76123 06/// 32802 10129 21019 3//// 4//// 5//// 60002 7////82550 91750 333 0//// 10129 21050 56550 57/// 5//// 6000782635 8//// 8//// 8//// 9//// 9//// 9//// 444 ///// 555
AAXX 21181 76220 32958 02303 10072 21024 38098 40210 57002 91740 33310072 21096 30/// 59017
AAXX 21181 76225 32960 01601 10119 21032 38580 40141 57012 91745 33310119 21022 30/// 59038
AAXX 21181 76256 12980 50602 10142 20128 30168 40188 52012 60111 8503091745 333 10215 20080 32/// 56/7/ 58018 85357
AAXX 21181 76258 32870 33606 10178 20107 30125 40171 52012 82032 91750333 10180 20066 30/// 56055 58019 82358
AAXX 21181 76305 32670 33302 10195 20088 30159 40168 52011 83400 91740333 10199 20102 30/// 56400 58009 83650
AAXX 21181 76323 32970 00602 10133 21002 38216 40178 57018 91755 33310140 20010 30/// 59032
AAXX 21181 76342 31860 61302 10132 20021 39469 40192 57017 70222 8605091750 333 10138 20082 30/// 56030 59026 86358
AAXX 21181 76373 32565 82102 10123 20064 38162 40096 50004 88700 91750333 10176 20093 30/// 56900 59034 88722
AAXX 21181 76390 31668 22506 10192 20048 38199 40092 57005 70544 8115091730 333 10201 20100 30/// 56650 59006 81833 81356
AAXX 21181 76393 32950 11202 10166 20068 39657 40152 57015 81010 91749333 10178 20080 30/// 56300 59003
AAXX 21181 76402 31560 33601 10190 20118 30114 40173 52015 70544 8330091745 333 10192 20070 30/// 56700 58008 83633
AAXX 21181 76458 32870 63102 10220 20080 30149 40153 57001 86050 91743333 10238 20109 30/// 56050 58005 86358
AAXX 21181 76471 32580 42207 10154 20018 37660 40099 57001 84500 91750333 10158 20049 30/// 56400 59014 84635
AAXX 21181 76490 06/// /0502 10206 20047 39758 40144 58014 60002 7////8//// 91750 333 0//// 10208 20101 30/// 54/// 56/// 57///58011 60007 8//// 8//// 8//// 8//// 9//// 9//// 9//// 44
AAXX 21181 76491 32960 23601 10205 20092 39774 40170 57014 80005 91750333 10208 20124 30/// 56009 58014 82277
AAXX 21181 76499 31860 20000 10233 20139 30121 40143 57018 70311 8203091750 333 10234 20142 30/// 56090 58018 82357
AAXX 21181 76538 06/// /1003 10206 20054 38141 40069 58014 60002 7////8//// 91750 333 0//// 10209 20040 30/// 4//// 54/// 56///57/// 59006 60007 8//// 8//// 8//// 9//// 9//// 9//// 44
AAXX 21181 76539 32970 02702 10181 20085 38141 40170 57011 91750 33310250 20027 30/// 59007
AAXX 21181 76547 06/// /0602 10242 20156 30133 40145 58012 60002 7////8//// 91750 333 0//// 10242 20185 56/// 57/// 58023 600078//// 8//// 8//// 8//// 9//// 9//// 9//// 444 ///// 555
AAXX 21181 76548 32875 40502 10232 20129 30148 40158 55007 84030 91740333 10235 20182 30/// 56040 58024 84357
AAXX 21181 76556 32970 33303 10221 20145 39113 40145 51006 80008 91735333 10230 20107 30/// 56001 58007 82270
AAXX 21181 76571 31965 01802 10200 20038 38151 40171 57011 705// 91750333 10202 20048 30/// 59008
AAXX 21181 76577 32970 02303 10182 20137 38035 40161 58007 91740 33310188 20070 30/// 59006
AAXX 21181 76578 06/// /2206 10184 20023 38030 40093 58010 60002 7////8//// 91750 333 0//// 10184 20068 30/// 4//// 54/// 56///57/// 59006 60007 8//// 8//// 8//// 9//// 9//// 9//// 44
AAXX 21181 76581 32970 22101 10236 20150 39017 40113 57018 82030 91750333 10245 20141 30/// 56030 58001 82360
AAXX 21181 76585 32980 60000 10200 20176 39990 40149 58012 86070 91735333 10210 20167 31/// 56/3/ 58025 86358
AAXX 21181 76586 06/// /2601 10228 20176 39992 40146 58013 60002 7////8//// 91750 333 0//// 10228 20180 30/// 4//// 54/// 56///57/// 58025 60007 8//// 8//// 8//// 9//// 9//// 9//// 44
AAXX 21181 76592 06/// /1409 10296 21030 30141 40141 58016 60002 7////8//// 91750 333 0//// 10304 20207 30/// 4//// 54/// 56///57/// 58011 60007 8//// 8//// 8//// 9//// 9//// 9//// 44
AAXX 21181 76593 32470 61405 10294 20262 30142 40144 57017 84280 91750333 10304 20208 30/// 5633/ 58009 84824 82330 91006 91514
AAXX 21181 76612 32962 00901 10211 20088 38463 40157 58003 91750 33310234 20073 30/// 59004
AAXX 21181 76634 31970 01403 10226 20048 37835 40142 57014 70500 91750333 10227 20070 30/// 59006
AAXX 21181 76641 06/// /1002 10244 20191 30137 40149 58009 60002 7////8//// 91750 333 0//// 10245 20194 30/// 4//// 54/// 56///57/// 58032 60007 8//// 8//// 8//// 8//// 9//// 9//// 9/
AAXX 21181 76644 32460 51404 10300 20203 30144 40156 57002 85200 91750333 10314 20214 30/// 563// 58024 85810
AAXX 21181 76645 02/// ///// 1//// 2//// 3//// 4//// 5//// 6//// 7////8//// 9//// 333 0//// 1//// 2//// 30/// 4//// 54/// 56///57/// 5//// 6//// 8//// 8//// 8//// 9//// 9//// 9//// 44
AAXX 21181 76648 06/// /1302 10281 20204 30117 40147 58014 60002 7////8//// 91750 333 0//// 10282 20209 30/// 4//// 54/// 56///57/// 58011 60007 8//// 8//// 8//// 8//// 9//// 9//// 9/
AAXX 21181 76654 31956 02301 10289 20203 30139 40143 57001 70544 91800333 10289 20203 30/// 59001
AAXX 21181 76658 31956 41402 10276 20178 39628 40135 56009 70541 8000291747 333 10280 20166 30/// 56001 58001 84070 98924
AAXX 21181 76662 32970 22502 10206 20079 38455 40162 57009 80002 91730333 10220 20048 30/// 5600/ 59017 82070
AAXX 21181 76665 32964 02202 10230 20067 38114 40153 57002 91750 33310264 20056 30/// 59004
AAXX 21181 76680 31960 10901 10206 20050 37740 40050 57011 70500 8000191755 333 10212 20089 30/// 56007 59001
AAXX 21181 76681 31970 00503 10222 20112 37766 40135 57010 70500 91745333 10222 20032 30/// 59008
AAXX 21181 76683 32968 01801 10198 20080 37820 40189 56012 91745 33310205 20044 30/// 58000
AAXX 21181 76684 06/// /1805 10212 20034 37821 40083 58015 60002 7////8//// 91750 333 0//// 10218 20035 30/// 4//// 54/// 56///57/// 58001 60007 8//// 8//// 8//// 9//// 9//// 9//// 44
AAXX 21181 76685 32970 02101 10210 20054 37859 40141 57011 91750 33310212 20068 30/// 59001
AAXX 21181 76687 31570 10701 10218 20134 38670 40160 58006 70100 8120091738 333 10225 20116 30/// 563// 58015 81830
AAXX 21181 76692 31456 10702 10262 20206 30123 40143 58011 71044 8120091745 333 10270 20196 30/// 563// 58029 81817
AAXX 21181 76693 06/// /0802 10267 20208 30122 40141 58015 60002 7////8//// 91750 333 0//// 10270 20193 30/// 4//// 56/// 57///58030 60007 8//// 8//// 8//// 8//// 9//// 9//// 9//// 44
AAXX 21181 76695 32560 30903 10306 20238 30118 40124 57015 83200 91750333 10306 20202 30/// 563// 58005 83823
AAXX 21181 76698 32560 51202 10302 20239 30135 40146 57013 85200 91750333 10324 20205 30/// 56300 58005 85820
AAXX 21181 76727 06/// /1801 10243 20055 38390 40066 58009 60002 7////8//// 91750 333 0//// 10263 20123 30/// 4//// 54/// 56///57/// 59001 60007 8//// 8//// 8//// 9//// 9//// 9//// 44
AAXX 21181 76737 31980 21802 10232 20143 38764 40150 58007 70300 8000791735 333 10235 20109 30/// 56009 58020 82080 91105 91514
AAXX 21181 76738 06/// /1402 10232 20131 38762 40107 58012 60002 7////8//// 333 10241 20104 30/// 56/// 57/// 58019 60007 8////8//// 8//// 8//// 9//// 9//// 9//// 444 ///// 555 30189
AAXX 21181 76743 31457 42302 10264 20237 30121 40129 57012 70211 848//91745 333 10300 20192 30/// 56500 58019 848//
AAXX 21181 76750 32560 30904 10298 20238 30133 40143 57009 82100 91750333 10308 20209 30/// 56220 58005 82820
AAXX 21181 76751 06/// /1104 10304 20244 30133 40143 58009 60002 7////8//// 91750 333 0//// 10305 20206 30/// 4//// 54/// 56///57/// 58005 60007 8//// 8//// 8//// 9//// 9//// 9//// 44
AAXX 21181 76762 31504 42301 10284 20231 38745 40116 58017 70400 8220491750 333 10285 20142 30/// 56306 59011 82830 82060 91203
AAXX 21181 76772 06/// /3501 10252 20087 38419 40083 58019 60002 7////8//// 91750 333 0//// 10252 20062 30/// 4//// 56/// 57///58001 60007 8//// 8//// 8//// 9//// 9//// 9//// 444 ////
AAXX 21181 76773 31568 12701 10236 20078 38417 40141 57014 70500 8110091746 333 10242 20055 30/// 56200 58001 81820
AAXX 21181 76775 31970 10701 10257 20105 38520 40161 57010 70200 8110091740 333 10290 20110 30/// 56800 58007 81824
AAXX 21181 76776 06/// /0802 10250 20092 38497 40079 58018 60002 7////8//// 91750 333 0//// 10255 20110 30/// 4//// 56/// 57///58006 60007 8//// 8//// 8//// 9//// 9//// 9//// 444 ////
AAXX 21181 76805 32970 02301 10302 20223 30109 40111 53018 91735 33310312 20220 30/// 59004
AAXX 21181 76806 06/// /2302 10304 20208 30114 40118 58013 60002 7////8//// 91750 333 10315 20218 30/// 56/// 57/// 59004 600078//// 8//// 8//// 8//// 9//// 9//// 9//// 555 30275
AAXX 21181 76833 32970 03606 10318 20229 30103 40105 57017 91745 33310318 20220 30/// 59001 92001
AAXX 21181 76840 32940 03604 10324 20195 30047 40102 57017 91740 33310330 20170 30/// 59013
AAXX 21181 76845 32960 00901 10216 20145 37940 40168 56018 91745 33310224 20054 30/// 58004
AAXX 21181 76848 32970 40501 10260 20062 38371 40081 57012 80002 91750333 10260 20109 30/// 56009 58001 84081
AAXX 21181 76902 06/// /2903 10317 20191 39978 40113 58014 60002 7////8//// 91750 333 0//// 10321 20228 30/// 4//// 54/// 56///57/// 59007 60007 8//// 8//// 8//// 8//// 9//// 9//// 9/
AAXX 21181 76903 31981 13202 10324 20186 39977 40107 58016 70111 8108091755 333 10338 20222 30/// 59011 81358
AAXX 21181 76160 11562 70501 10132 20100 39923 40177 52012 69951 7035287500 91730 333 10132 20070 31/// 56500 58023 70005 87630
AAXX 21181 76243 32473 81601 10100 20054 39875 40176 57006 884// 91735333 10106 20052 30/// 563// 59018 88616
AAXX 21181 76311 32980 00000 10177 20078 39871 40158 57001 91745 33310178 20041 30/// 58007
AAXX 21181 76405 32980 01801 10215 20147 30152 40173 50013 91750 33310215 20112 30/// 58010
AAXX 21181 76412 31966 71801 10140 20105 30135 40181 52013 70544 8705091735 333 10148 20120 30/// 56050 58008 87356
AAXX 21181 76543 32875 22302 10247 20155 30131 40164 57015 82030 91745333 10249 20190 30/// 56030 58021
AAXX 21181 76640 31358 62201 10218 20197 30156 40169 57002 70222 864//91740 333 10230 20194 30/// 561// 58035 86609
AAXX 21181 76647 32570 81402 10274 20216 30127 40158 57014 8653/ 91750333 10277 20208 30/// 563// 58012 86623
AAXX 21181 76741 31460 43103 10262 20233 30098 40117 52003 70542 8420091735 333 10270 20200 30/// 567// 58031 84812
AAXX 21181 76843 32565 23601 10272 20156 39477 40117 55001 81203 91736333 10278 20185 30/// 569/9 58001 81820
AAXX 21181 76855 32980 01403 10304 20204 30063 40113 58001 91745 33310316 20214 30/// 58000 92000
BBXX 46238 21181 99334 71195 46/// ///// 1//// 91750 22200 00144 11304 21002 328// 41303 70018
BBXX 46239 21181 99363 71221 46/// ///// 1//// 91751 22200 00135 11406 21003 331// 41405 70031
BBXX UFTA 21181 99849 71237 11997 03605 11335 21367 40049 53013 69992 73630
BBXX UFTA DECADA 122 99849 71235 20069 31301 5005 6000502
AAXX 21181 80402 NIL
AAXX 21181 80412 NIL
AAXX 21181 80416 NIL
AAXX 21181 80420 11462 70906 10260 20247 30111 40117 60011 76066 878// 333 31/// 569// 58000 87813 555 10130
AAXX 21181 80425 32570 32003 10326 20248 30067 40098 84100 333 30/// 56900 59012 84820 555 10098
AAXX 21181 80426 NIL
AAXX 21181 80427 32570 50201 10302 20226 39864 40116 855// 333 30/// 569// 59005 85617 555 10133
AAXX 21181 80431 32570 4//// 10310 20194 39623 40097 84200 333 30/// 56900 58000 84820 555 10125
AAXX 21181 80434 NIL
AAXX 21181 80437 32470 42702 10322 20157 39998 40083 84500 333 30/// 56900 59013 84613 555 10089
AAXX 21181 80440 NIL
AAXX 21181 80442 32470 5//// 10329 2//// 39998 4//// 852// 333 30/// 569// 59006 85816 555 10109
AAXX 21181 80472 32468 60703 10318 20207 39626 40101 8422/ 333 30/// 5699/ 59009 84816 555 10128
AAXX 21181 80475 32560 50903 10303 20163 39767 40133 854// 333 30/// 569// 58014 85623 555 10140
AAXX 21181 80476 32370 2//// 10344 20251 30085 40115 82200 333 30/// 56900 59013 82810
AAXX 21181 80478 NIL
AAXX 21181 80479 NIL
AAXX 21181 80400 NIL
AAXX 21181 80403 32470 60906 10313 20226 30104 40123 8351/ 333 30/// 5699/ 59014 83613 83456 555 10126
AAXX 21181 80405 NIL
AAXX 21181 80407 32470 4//// 10309 20234 30034 4//// 84400 333 30/// 56900 5//// 84616 555 10109
AAXX 21181 80410 NIL
AAXX 21181 80413 32470 50905 10311 20163 39630 40116 855// 333 30/// 569// 59008 85613 555 10148
AAXX 21181 80415 32470 20202 10300 20246 30066 40120 878// 333 30/// 56900 590// 82616 555 10122
AAXX 21181 80419 NIL
AAXX 21181 80421 NIL
AAXX 21181 80423 NIL
AAXX 21181 80428 32570 40502 10325 20220 39929 40112 845// 333 30/// 56900 59003 84620 555 10125
AAXX 21181 80432 NIL
AAXX 21181 80435 11368 70507 10290 20221 30022 40097 60041 70255 872// 333 31/// 569// 59005 87810 555 10095
AAXX 21181 80438 32575 32505 10146 20200 38506 48503 83500 333 30/// 56900 59019 83630 555 10186
AAXX 21181 80444 NIL
AAXX 21181 80447 32565 21805 10339 20125 39646 40064 82500 333 30/// 56900 59014 82620 555 10118
AAXX 21181 80448 NIL
AAXX 21181 80450 32475 81104 10318 20220 30066 40121 84508 333 30/// 56909 59011 84616 85280 555 10118
AAXX 21181 80453 NIL
AAXX 21181 80457 32470 3//// 10331 20120 30018 40103 83500 333 30/// 56990 59008 83613 555 10103
AAXX 21181 80462 NIL
AAXX 21184 91930 06/// ///// 10231 20208 60081 333 60087
AAXX 21184 91943 16/// /0816 10288 20205 30113 40115 51015 69962 333 10288 59012
AAXX 21181 89061 179// 02801 10016 20007 39928 49934 57001 69953 74174 333 91002 91102
AAXX 21184 68032 42960 50204 10296 20174 48491 53008 82084 333 10339
AAXX 21184 68038 42560 40000 10272 20190 48488 52007 82402 333 10341
AAXX 21184 68040 42660 40000 10280 20157 48487 53006 81402 333 10349
AAXX 21184 68054 42960 20805 10258 20162 48515 53004 80002 333 10317
AAXX 21184 68070 42960 00000 10284 20189 48498 53002 333 10326
AAXX 21184 68226 42660 20000 10307 20130 48478 52010 81241 333 10362
AAXX 21184 68234 41660 60905 10290 20165 48481 52009 71722 84960
AAXX 21184 68240 42660 40703 10288 20128 48482 52009 84980 333 10355
AAXX 21184 68320 41660 71803 10277 20163 48505 53015 71792 82983 333 10373
AAXX 21184 68325 41660 70310 10281 20116 48486 53010 79572 81970 333 10338
BBXX 41041 21181 99142 70460 46/// /0706 10267 20213 40135 56015 91750 22200 00267 11003 20502 3//// 41003 70016 333 91206 555 11059 22062 31737 40807 61749 073055 073057 080053 078055 075054 076055 80706 91739
AAXX 21184 70026 NIL
AAXX 21184 70133 NIL
AAXX 21184 70174 NIL
AAXX 21184 70200 NIL
AAXX 21184 70219 NIL
AAXX 21184 70231 NIL
AAXX 21184 70261 NIL
AAXX 21184 70267 NIL
AAXX 21184 70271 NIL
AAXX 21184 70273 NIL
AAXX 21184 70308 NIL
AAXX 21184 70316 NIL
AAXX 21184 70326 NIL
AAXX 21184 70340 NIL
AAXX 21184 70350 NIL
AAXX 21184 70361 NIL
AAXX 21184 70381 NIL
AAXX 21184 70398 NIL
AAXX 21184 70414 NIL
AAXX 21184 03301 16764 /2312 10105 20105 30134 40207 51013 60002 91750 333 10112 88/50
AAXX 21184 03305 15780 /2420 10114 20075 39945 40206 51013 69942 91750 333 10129 87/50 90710 91130
AAXX 21184 03313 16782 /2614 10132 20083 30099 40192 51010 69922 91750 333 10132 88/50 91024
AAXX 21184 03316 15763 /2623 10097 20082 30174 40185 51009 69902 91750 333 10097 88/56 90710 91129
AAXX 21184 03318 16/// /2518 10089 20081 60002 91750 333 10096
AAXX 21184 03321 16780 /2813 10130 20084 30175 40187 51010 60002 91750 333 10142 553// 20000 87/50
AAXX 21184 03330 15364 /2709 10091 20088 39825 40185 53009 60042 91750 333 10094 81/09 87/45
AAXX 21184 03344 15262 /2913 10092 20083 39856 40173 52012 69962 91750 333 10100 81/04 86/50 86/74 90710 91125
AAXX 21184 03346 16/// /2923 10095 20085 69942 91750 333 10102 90710 91129
AAXX 21184 03348 15774 /2811 10113 20092 30077 40184 51008 60022 91750 333 10113 55300 20000 88/50
AAXX 21184 03355 15475 /2910 10114 20095 30158 40169 52016 60012 91750 333 10118 55300 20000 81/16 88/50
AAXX 21184 03373 16663 /2712 10104 20090 30104 40173 52016 69942 91750 333 10108 87/49
AAXX 21184 03379 16674 /2711 10103 20093 30105 40182 52020 60002 91750 333 10112 88/47
AAXX 21184 03382 15774 /2614 10105 20095 30146 40155 51009 69922 91750 333 10105 55300 20000 87/56
AAXX 21184 03385 46764 /2610 10103 20103 30153 40163 53012 91750 333 10104 88/50
AAXX 21184 03391 11475 72815 10108 20091 30168 40175 52017 69902 70252 875// 91750 333 10111 82616 87656
AAXX 21184 03392 16760 /2713 10099 20099 30169 40172 53015 60002 91750 333 10101 88/50
AAXX 21184 03405 16763 /2518 10106 20106 30104 40220 52012 60002 91750 333 10112 553// 20000 88/50 90710 91125
AAXX 21184 03409 16/// /2511 10104 20088 60002 91750 333 10121 55300 2////
AAXX 21184 03410 16673 /2617 10093 20084 39770 40204 51011 60002 91750 333 10104 553// 20000 87/45
AAXX 21184 03469 15764 /2711 10104 20101 30173 40176 51016 69922 91750 333 10108 553// 20000 88/50
AAXX 21184 03488 15463 /2510 10101 20098 30145 40170 53012 69922 91750 333 10102 86/11 85/15 85/49
AAXX 21184 03503 15766 /3007 10108 20094 30139 40216 51010 60002 91750 333 10110 88/50
AAXX 21184 03507 15669 /2407 10093 20091 39849 40221 51009 69982 91750 333 10101 87/43
AAXX 21184 03520 16477 /2910 10114 20086 30089 40210 51011 60002 91750 333 10131 553// 20000 82/18 87/50
AAXX 21184 03522 15581 /2707 10113 20097 30123 40216 52013 60002 91750 333 10130 81/20 87/49
AAXX 21184 03529 15771 /2711 10120 20091 30164 40206 53013 60002 91750 333 10137 88/50
AAXX 21184 03544 15681 /2510 10108 20091 30065 40196 52017 60002 91750 333 10117 553// 20000 88/48
AAXX 21184 03560 15580 /2507 10109 20099 30089 40192 52017 69942 91750 333 10114 553// 20000 81/22 87/43
AAXX 21184 03604 16766 /2812 10115 20097 30179 40233 51010 60002 91750 333 10119 88/50
AAXX 21184 03605 16758 /2909 10104 20092 30221 40229 51009 60002 91750 333 10113 88/50
AAXX 21184 03609 16/// /2613 10115 20097 30179 40231 51009 60002 91750 333 10118
AAXX 21184 03628 15678 /2710 10107 20091 30145 40218 52012 60002 91750 333 10124 55300 20000 88/47
AAXX 21184 03647 16680 /2912 10105 20091 39949 40204 52016 60002 91750 333 10122 553// 20000 88/45
AAXX 21184 03658 166// /2808 10118 20095 30135 40205 51016 60002 91750 333 10127 88/48
AAXX 21184 03660 15678 /3008 10105 20097 39954 40202 51016 69902 91750 333 10119 87/43
AAXX 21184 03672 11575 72804 10117 20097 30161 40201 51018 69922 70252 875// 91750 333 10130 82620 87650
AAXX 21184 03684 15580 /2909 10111 20100 30081 40187 51015 60012 91750 333 10112 82/22 87/50
AAXX 21184 03693 16579 /2708 10118 20109 30189 40192 52017 69942 91750 333 10118 87/23
AAXX 21184 03707 17758 /2914 10114 20109 30229 40237 53008 60002 710// 91750 333 10118 88/50
AAXX 21184 03710 16665 /3014 10088 20088 39809 40231 53008 69922 91750 333 10100 553// 20000 87/41
AAXX 21184 03743 16658 /2607 10097 20093 30056 40218 52016 60002 91750 333 10123 88/44
AAXX 21184 03749 16658 /2708 10102 20094 30106 40217 52016 60002 91750 333 10126 88/44
AAXX 21184 03761 12672 72606 10102 20085 30063 40207 51012 69922 83501 91750 333 10119 55300 20000 83646 87075
AAXX 21184 03768 16677 /2908 10111 20092 30124 40204 51013 69922 91750 333 10129 83/48
AAXX 21184 03769 15675 /2904 10111 20096 30121 40203 51018 60012 91750 333 10122 55300 20000 85/45
AAXX 21184 03770 16/// ///// 10122 20105 69922 91750 333 10126
AAXX 21184 03781 15572 /2810 10109 20101 39997 40203 51018 69942 91750 333 10112 553// 20000 83/29 87/42
AAXX 21184 03797 17464 /2912 10113 20109 30132 40192 53018 60032 710// 91750 333 10114 55300 20000 82/19 87/26
AAXX 21184 03839 16/// ///// 10105 20099 60002 91750 333 10125 553// 20000
AAXX 21184 03857 15669 /3018 10114 20106 30165 40228 53012 60002 91750 333 10119 84/45
AAXX 21184 03862 15467 /2908 10113 20097 30213 40225 53020 60002 91750 333 10129 55300 20000 86/11 87/49
AAXX 21184 03866 16/// /3007 10106 20092 30195 40219 51020 60002 91750 333 10125
AAXX 21184 03872 15466 /2705 10101 20094 30210 40215 52019 60002 91750 333 10133 553// 20000 85/11 84/45
AAXX 21184 03876 16/// /2708 10110 20099 30206 40208 53016 60002 91750 333 10129
AAXX 21184 03895 41360 83010 10109 20100 40248 53018 70252 886// 333 10116 86706
AAXX 21184 03008 16/// /2222 10083 20083 39935 40004 56027 60052 91750 333 10083 90710 91132
AAXX 21184 03010 46/// /2427 10103 20102 40017 53003 333 90710 91136
AAXX 21184 03014 46/// /2423 10057 20053 49990 56041 91750 333 8//// 90710 91135
AAXX 21184 03031 17558 /2815 10096 20073 39745 40067 55000 60032 781// 91750 333 10101 553// 20000 86/24 83/37 90710 91126 91026
AAXX 21184 03034 17360 /2219 10108 20098 30054 40068 55005 60052 723// 91750 333 10113 88/08 90710 91132
AAXX 21184 03037 17442 /2112 10106 20101 30066 40088 56008 60032 757// 91750 333 10110 82/11 85/18 91023
AAXX 21184 03039 46/// /2421 10066 20033 91750 333 10069 90710 91140 91031
AAXX 21184 03041 46/// /2433 10044 20044 91750 333 10053 90710 91155 91046
AAXX 21184 03044 17465 /2611 10104 20086 39938 40035 56021 69902 757// 91750 333 10107 553// 20000 87/17 86/22 90710 91125 91022
AAXX 21184 03047 17461 /2606 10105 20082 39805 40103 55002 60022 781// 91750 333 10112 553// 20000 81/15 86/23 85/29 91020
AAXX 21184 03062 15662 /2212 10103 20078 30048 40052 58009 60052 91750 333 10108 553// 20000 87/39 85/50
AAXX 21184 03065 46/// /2651 10043 20043 91750 333 10046 90710 91169 91069
AAXX 21184 03068 12680 72418 10106 20079 30049 40057 56006 60032 86532 91750 333 10107 83630 85656 87359 90710 91125
AAXX 21184 03080 15769 /2413 10100 20074 39911 40080 58002 6///2 91750 333 10103 82/56 83/73
AAXX 21184 03088 15968 /2106 10055 20052 39927 40091 58001 60062 91750 333 10066 553// 20000 81/66 88/71
AAXX 21184 03094 15979 /2215 10093 20073 30048 40053 58012 60032 91750 333 10093 81/74
AAXX 21184 03105 17342 /2517 10106 20101 30127 40144 52005 69922 710// 91750 333 10108 88/08
AAXX 21184 03132 15862 /2411 10111 20102 30143 40157 53005 69922 91750 333 10114 88/57
AAXX 21184 03144 17560 /2214 10111 20087 30064 40106 50000 60022 704// 91750 333 10114 553// 20000 86/21 85/56
AAXX 21184 03148 46/// /2522 10075 20075 91750 333 10076 90710 91137
AAXX 21184 03153 15359 /2110 10099 20096 30020 40158 50005 60022 91750 333 10102 553// 20000 88/08
AAXX 21184 03155 16469 /2317 10099 20080 39838 40133 50002 60002 91750 333 10100 84/11 87/50 90710 91128
AAXX 21184 03158 15572 /2508 10105 20085 39988 40124 53009 60022 91750 333 10107 553// 20000 82/26 86/69 86/73
AAXX 21184 03210 16765 /2517 10102 20088 30020 40171 52012 60002 91750 333 10103 88/56 90710 91130
AAXX 21184 03212 15468 /2810 10117 20089 30069 40167 53011 60012 91750 333 10117 81/18 87/50 91022
AAXX 21184 03214 17759 /2615 10098 20088 30156 40174 53013 69922 704// 91750 333 10102 88/50 90710 91129
AAXX 21184 03220 16771 ///// 10106 20095 30121 40155 51011 69962 91750 333 10106 88/56
AAXX 21184 03225 16770 /2514 10110 20071 39861 40164 53012 69922 91750 333 10118 553// 20000 88/50
AAXX 21184 03226 15677 /3209 10102 20084 39885 40159 53015 60032 91750 333 10106 84/44 87/50
AAXX 21184 03227 46/// /2841 10054 2//// 91750 333 10058 90710 91150
AAXX 21184 03230 16470 /2806 10096 20084 39885 40140 53008 60022 91750 333 10099 81/18 87/68 91016
AAXX 21184 03238 15361 /2711 10098 20087 39969 40141 51017 60012 91750 333 10103 87/08 86/56
AAXX 21184 03261 16770 /2406 10105 20090 30121 40161 50009 69942 91750 333 10115 87/56 83/71
AAXX 21184 03265 15771 /2308 10103 20083 30128 40159 50010 69962 91750 333 10119 87/56
AAXX 21184 03266 16771 /2704 10107 20088 30148 40165 51017 69962 91750 333 10116 87/56
AAXX 21184 03275 15770 /2716 10100 20081 39957 40148 52015 69982 91750 333 10102 86/50 90710 91125
AAXX 21184 03281 16/// /2611 10090 20090 60012 91750 333 10093
AAXX 21184 03903 16763 /2505 10106 20087 30123 40180 53010 60002 91750 333 10129 553// 20000 87/50
AAXX 21184 03904 17458 /2517 10114 20091 30108 40168 52008 69902 723// 91750 333 10116 87/14 86/56 90710 91127 91027
AAXX 21184 03907 17459 /2426 10114 20091 30147 40154 52007 6///2 704// 91750 333 10116 55300 20000 82/15 87/56 90710 91133
AAXX 21184 03911 16469 /2615 10103 20090 39898 40169 53006 69922 91750 333 10105 88/10
AAXX 21184 03915 16463 /2413 10116 20115 30079 40156 52001 60002 91750 333 10121 82/18 83/56 86/74 90710 91126 91024
AAXX 21184 03916 16464 /3006 10109 20095 39960 40148 52002 69942 91750 333 10112 553// 20000 87/11
AAXX 21184 03923 15762 /2511 10110 20087 39979 40174 52007 60002 91750 333 10111 88/50
AAXX 21184 78526 NIL
AAXX 21184 78543 NIL
AAXX 21184 78255 42559 40907 10268 20183 30036 40185 57020 83231 333 10268 20174 82820
AAXX 21184 78317 NIL
AAXX 21184 78318 NIL
AAXX 21184 78325 NIL
AAXX 21184 78333 NIL
AAXX 21184 78338 NIL
AAXX 21184 78348 NIL
AAXX 21184 78349 NIL
AAXX 21184 78353 NIL
AAXX 21184 78360 NIL
AAXX 21184 78367 NIL
AAXX 21184 78369 NIL
AAXX 21184 91165 NIL
AAXX 21184 91182 NIL
AAXX 21184 91190 NIL
AAXX 21184 91212 NIL
AAXX 21184 91217 NIL
AAXX 21184 91285 NIL
AAXX 21184 91317 NIL
AAXX 21184 91334 11474 80410 10272 20241 30042 40045 55017 60031 70282 82171 333 56199 70033 555 92118
AAXX 21184 91348 NIL
AAXX 21184 91356 NIL
AAXX 21184 91366 NIL
AAXX 21184 91369 NIL
AAXX 21184 91371 NIL
AAXX 21184 91376 32474 80610 10278 20230 30061 40064 53007 85878 333 56119 555 92118
AAXX 21184 91408 11466 80504 10272 20250 30014 40052 57019 69901 78022 889// 333 56999 70015 555 92118
AAXX 21184 91413 11466 70712 10268 20244 30037 40062 57020 69951 78081 83272 333 56299 70142 555 92118
AAXX 21184 91425 NIL
AAXX 21184 91434 NIL
AAXX 21184 91765 NIL
AAXX 21184 91222 NIL
AAXX 21184 91245 NIL
AAXX 21184 91323 NIL
AAXX 21184 91339 NIL
AAXX 21184 91343 NIL
AAXX 21184 91353 NIL
AAXX 21184 91442 NIL
BBXX UITJ 21181 99695 10139 41497 82310 10035 40023 57005 76062 8872/ 22253 00070 20704
BBXX UGGA 21181 99693 10436 41/98 91807 10070 40062 54000 70222 89/// 22221 20302
BBXX DILE 21183 99489 70128 41298 82322 10130 20121 40295 54000 7//22 8/700 22224 2//// 80125
BBXX LAXP4 21184 99395 70239 41898 41514 00/// 10180 2018/ 40292 54000 70001 82611 22253 00160 20402 315// 40303 80180
BBXX PDNN 21183 99471 70231 41/97 81833 10138 20128 40214 57002 70062 888// 22223 02130 20406 324// 40808 80132 90619
BBXX C6KD4 21183 99362 70316 41598 51820 10195 20181 40211 57016 70322 84470 22254 04185 20505 310// 40804 80186
BBXX TBWUK35 21183 99636 10004 41/98 81518 10046 20029 40002 57035 76162 8//// 22214 00090 2//// 80039
BBXX PHJV 21184 99053 31145 41298 31419 10270 20251 40059 57016 70211 83161 22263 06294 20201 80256
BBXX PCDE 21183 99383 31489 41297 81003 10150 20097 40190 57020 75852 887// 22213 20503 80120
BBXX MGRH9 21183 99371 31706 41598 21008 10171 20150 40269 53001 70000 81268 22233 00171 20101 31405 40703 50602 80159
AAXX 21181 26554 12460 83302 11019 21040 39964 40131 51007 69922 886// 333 11016 88715
AAXX 21181 26666 12460 73503 11026 21063 39892 40112 52012 69982 875// 333 11027 87617
AAXX 21181 26850 12460 83202 11019 21043 39843 40122 52009 69902 885// 333 11010 88711
AAXX 21181 26863 31559 73402 11026 21045 39859 40101 51001 71022 875// 333 21015 87620
AAXX 21181 26941 31950 03102 11030 21043 39888 40133 52011 71011 333 11003
AAXX 21181 26951 32465 83603 11012 21030 39919 40121 52010 886// 333 11006 88716
AAXX 21181 33008 31240 80101 11016 21028 39959 40142 52015 71022 886// 333 11014 88704
AAXX 21181 33019 31335 82602 11020 21023 39953 40133 52011 71022 886// 333 11001 88707
AAXX 21181 33036 32470 73403 11019 21047 39873 40108 52010 875// 333 11009 86712
AAXX 21181 33041 32560 73302 11012 21032 39935 40094 52008 875// 333 11004 87620
BBXX 3ECJ7 21184 99057 10823 412// 80319 10240 20226 40100 54010 78062 88/// 22225 0//// 20202 3//// 4//// 5//// 6//// 80230 ICE /////
BBXX WFLG 21183 99243 71507 41398 50820 10194 20177 40205 51005 71522 85260 22254 00194 20604 399// 4//// 5//// 6//// 80183 ICE /////
BBXX KAOU 21184 99002 10811 43/// /2518 10271 20246 40072 5//// 7//// 8//// 222// 04289 2//// 3//// 4//// 5//// 6//// 8//// ICE /////
BBXX NWS0003 21184 99539 71665 43/// /3600 11006 21051 40035 5//// 7//// 8//// 222// 0//// 2//// 3//// 4//// 5//// 6//// 8//// ICE /////
BBXX NWS0020 21184 99330 70276 43/// /1321 10199 20157 40232 5//// 7//// 8//// 222// 04206 2//// 3//// 4//// 5//// 6//// 8//// ICE /////
BBXX NWS0029 21184 99371 70653 43/// /2209 10198 20103 40225 5//// 7//// 8//// 222// 04224 2//// 3//// 4//// 5//// 6//// 8//// ICE /////
BBXX C6TQ6 21184 99174 70881 41797 31119 10280 20253 40150 54000 70211 8313/ 22200 00260 20302 31110 40302 50302 6//// 80260 ICE /////
BBXX WBO3345 21184 99203 70722 41697 70825 10267 20228 40160 54/// 70322 87473 22232 0//// 20404 309// 40404 5//// 6//// 80239 ICE /////
BBXX WZJC 21184 99276 70920 41398 20209 10222 2019/ 40146 50000 70210 824// 22273 00222 20101 310// 40903 5//// 6//// 80200 ICE /////
BBXX C6XC2 21184 99024 31327 41498 63512 10250 20236 40040 57020 70222 8527/ 22200 00300 2//// 3//// 4//// 5//// 6//// 80240 ICE /////
BBXX 46042 21181 99368 71224 46/// /0703 10111 40194 53011 91750 22200 00125 11506 20301 331// 41506 70029 333 91205 555 11034 22035 31658 40906 61749 072033 078034 078037 077039 077042 076048
BBXX 46053 21181 99342 71198 46/// /0501 10140 40174 51011 91750 22200 00138 11402 20401 326// 41402 70010 333 91202 555 11012 22014 31729 42204 61749 048009 251014 198026 176020 161018 194016
BBXX 44022 21181 99409 70737 46/// ///03 10109 20100 40121 58042 91800 22200 00081 333 91204 555 11031 22041
BBXX 51003 21181 99193 71606 46/// /0511 10245 40141 52004 91750 22200 00256 10806 20805 3//// 41103 70030 333 91213 555 11114 22121 31712 40514 61749 047107 048106 053113 048114 046114 045111
BBXX 46001 21181 99563 71480 46/// /1002 10041 40082 57017 91750 22200 00051 11410 20401 300// 41410 70050 333 91204 555 11016 22017 31720 40904 61749 096016 123013 117018 104017 107011 136012
AAXX 21184 78062 11669 41410 10263 20195 40210 69901 70181 84800 333 59013 84830 90940
BBXX WDE8264 21183 99127 10479 41798 01213 10270 20243 40180 52010 7//00 80000 22214 00270 20502 312// 41004 5//// 6//// 80250 ICE /////
BBXX BATFR56 21184 99192 30584 46/// /1024 10257 20207 40150 51019 22213 00284
BBXX BATFR19 21184 99066 30057 46/// /1914 10234 20189 40128 52008 22200 00252
BBXX BATFR55 21184 99082 30424 44598 73413 10269 20247 40118 70322 86232 22262 00294 20802 32121 410// 510//
BBXX DCPX2 21183 99114 10634 41/98 60422 10265 20219 40130 70222 8//// 22224 00270 2//// 80232
BBXX DBBT 21181 99347 30169 46/// /2710 10193 20143 40111 52003 22212 00203
BBXX DBKV 21181 99169 70250 46/// /0505 10229 20159 40144 57006 22200 00236
BBXX DGPT2 21184 99164 70258 41598 11917 10250 20183 40130 54000 70300 811// 22214 00240 29901 303// 41202 80205
BBXX V2AJ8 21183 99259 11206 41597 80335 10161 20127 40180 54000 70222 83838 22214 20610 399// 4//// 5//// 80142
BBXX ZCAO7 21184 99369 11338 41/98 42920 10085 20039 40132 57027 70388 8//// 22254 00163 2//// 80065
BBXX C6SI6 21184 99311 11223 46/// /3311 10082 20029 40282 58009 7//// 8//// 22233 0//// 2////
BBXX DDZC2 21184 99336 11675 41598 33324 10155 20071 40175 52015 7//// 8256/ 22264 00200 2//06 3//// 4//// 5//// 80110
BBXX V7SY6 21184 99071 10778 41898 80122 10280 20224 40240 56010 70322 8872/ 22233 00220 20704 3//// 40604 5//// 6//// 80240 ICE /////
BBXX 9V8739 21184 99345 11717 41197 63429 10140 20123 40130 52060 75022 862// 22264 00210 2//// 329// 40906 5//// 6//// 80130 ICE /////
BBXX A8AJ4 21184 99524 11619 41697 03424 10000 2//// 40100 52030 7//// 80000 22264 0//// 20604 3//// 4//// 5//// 6//// 8//// ICE /////
BBXX 46070 21181 99551 11753 46/// /0000 11026 21048 40013 53004 91750 22200 00039 11004 20401 3//// 41004 70019 333 91201 555 11004 22004 31703 43305 61749 214004 262003 309023 304041 311046 313043 83105 91706
BBXX C6SI4 21184 99526 11630 43/// /0918 11010 2104/ 40050 55020 7//// 8//// 22254 00030 20203 3//// 40304 5//// 6//// 81020 ICE /////
BBXX 3ECJ7 21184 99057 10823 412// 80319 10240 20226 40100 54010 78062 88/// 22225 0//// 20202 3//// 4//// 5//// 6//// 80230 ICE /////
BBXX UFTA 21181 99849 71237 11997 03605 11335 21367 40049 53013 69992 73630
BBXX 46239 21181 99363 71221 46/// ///// 1//// 91751 22200 00135 11406 21003 331// 41405 70031
BBXX 46238 21181 99334 71195 46/// ///// 1//// 91750 22200 00144 11304 21002 328// 41303 70018
BBXX J8PB 21184 99179 70684 41798 60819 10270 20243 40155 57010 7//11 86488 22262 0//// 20503 30809 40503 50503 6////
BBXX ZCDG7 21184 99223 71484 41398 40926 10269 20195 40192 52005 70111 83460 22264 00240 20303 310// 40402 5////
BBXX WZJC 21184 99276 70920 41398 20209 10222 2019/ 40146 50000 70210 824// 22273 00222 20101 310// 40903 5//// 6//// 80200 ICE /////
BBXX SHIP 21184 99391 71488 41797 72024 10160 2014/ 40171 52009 70322 8796/ 22234 00180 20308 317// 40206 5//// 6//// 80150 ICE /////
BBXX BATEU08 21184 99622 70502 46/// /0715 11062 21128 49950 53004 22283
BBXX 44099 21181 99369 70757 46/// ///// 1//// 91752 22200 00114 11202 20401 309// 41201 70008
BBXX 46219 21181 99332 71199 46/// ///// 1//// 91758 22200 00140 11305 21003 329// 41304 70024
BBXX 46214 21181 99379 71235 46/// ///// 1//// 91753 22200 00117 11407 20904 330// 41405 70034
BBXX 46224 21181 99332 71175 46/// ///// 1//// 91736 22200 00146 11402 21001 323// 41401 70008
BBXX 42099 21181 99273 70842 46/// ///// 1//// 91757 22200 00231 10703 20703 70017
BBXX 41110 21181 99341 70777 46/// ///// 1//// 91751 22200 00139 10602 20602 311// 41301 70011
BBXX 41113 21181 99284 70805 46/// ///// 1//// 91751 22200 00217 11402 20602 308// 41401 70011
BBXX 44100 21181 99363 70756 46/// ///// 1//// 91752 22200 00119 11102 21001 309// 41101 70008
BBXX 46236 21181 99368 71219 46/// ///// 1//// 91750 22200 00123 11304 21002 328// 41303 70019
BBXX 46229 21181 99438 71246 46/// ///// 1//// 91751 22200 00098 11307 21003 330// 41307 70037
BBXX 46215 21181 99352 71209 46/// ///// 1//// 91738 22200 00140 11403 21002 326// 41403 70016
BBXX 46213 21181 99403 71247 46/// ///// 1//// 91754 22200 00101 11409 20807 330// 41406 70043
BBXX 46225 21181 99329 71174 46/// ///// 1//// 91744 22200 00146 11402 21001 328// 41401 70009
BBXX 46217 21181 99342 71194 46/// ///// 1//// 91742 22200 00151 11202 21002 327// 41202 70012
BBXX 46232 21181 99325 71174 46/// ///// 1//// 91738 22200 00151 11302 20802 327// 41302 70012
BBXX 46243 21181 99462 71241 46/// ///// 1//// 91759 22200 00078 11406 21003 327// 41405 70029
BBXX 46247 21181 99378 71228 46/// ///// 1//// 91751 22200 00109 11405 21003 329// 41404 70025
BBXX 46218 21181 99345 71208 46/// ///// 1//// 91802 22200 00142 11505 21003 331// 41504 70027
BBXX 44172 21181 99445 70634 46/// ///// 1//// 91801 22200 00063 10902 20902 319// 41101 70012
BBXX 44097 21181 99410 70711 46/// ///// 1//// 91802 22200 00121 10703 20703 315// 41101 70016
BBXX 51101 21181 99243 71621 46/// /0609 10230 20179 40195 53006 91750 22200 00238 10905 20503 309// 40904 70026 333 91213 555 11094 22099 31652 40915 61749 055089 052085 063069 067066 082066 085113
BBXX 46083 21181 99582 71380 46/// /1915 10058 20020 40146 56024 91750 22200 00064 11110 20807 300// 41107 70052 333 91219 555 11165 22177 31723 41920 61749 186154 186151 186153 186152 184153 183153 81916 91740
BBXX 46061 21181 99602 71468 46/// /2210 10047 40043 53030 91750 22200 00059 11106 20703 300// 41105 70032 333 91213 555 11111 22117 31709 42214 61749 218105 222101 223111 219112 221105 220117
BBXX 46089 21181 99459 71258 46/// /0104 10083 20021 40329 53012 91750 22200 00088 11406 20401 329// 41406 70029 333 91205 555 11038 22039 31732 40305 61749 014038 022041 019038 009037 008043 010037
BBXX A8SE8 21184 99180 50757 41598 61515 10210 20180 40120 57020 7//22 8147/ 22243 00235 29901 322// 40904 80190
BBXX A8OK7 21184 99276 50464 41598 50107 10283 20260 40092 55011 70311 8/456 22253 20602 305// 40701 5//// 80266
BBXX WCX7445 21184 99531 50709 43/// /2808 10101 2//// 49918 5//// 7//// 8//// 22200 00151 2//// 3//// 4//// 5//// 6//// ICE /////
BBXX WBP3210 21184 99531 50709 43/// /1210 10078 2//// 49974 5//// 7//// 8//// 22200 00120 2//// 3//// 4//// 5//// 6//// ICE /////
BBXX 3EPD8 21184 99200 50368 41398 60416 10262 20203 40133 847/8 22283 04263 2//02 80223
BBXX VOPP 21184 99456 70735 46/// /0105 11042 21043 4//// 5//// 7//// 8//// 22200 0//// 2////
BBXX VAAP 21184 99446 70635 46/// /3601 10026 21015 40201 56036 7//// 8//// 22200 0//// 2////
BBXX CG2958 21184 99517 71281 46/// /1204 10029 20015 40331 58006 7//// 8//// 22200 0//// 2////
BBXX VCWL 21184 99456 70735 46/// /0408 11041 21049 40091 58043 7//// 8//// 22200 0//// 2////
BBXX CG2965 21184 99487 71235 46/// /3006 10038 20009 40342 51023 7//// 8//// 22200 0//// 2////
BBXX VOLG 21184 99461 70591 46/// /2520 11009 21073 40194 58014 7//// 8//// 22263 0//// 2////
BBXX CGJK 21184 99484 71234 46/// /3604 10053 20015 40338 51021 7//// 8//// 22200 0//// 2////
BBXX CGSB 21184 99488 70676 46/// /2210 11025 21086 40108 56022 7//// 8//// 22200 0//// 2////
BBXX CGDX 21184 99490 70669 46/// /2110 11024 21100 40105 56024 7//// 8//// 22200 0//// 2////
BBXX VOKF 21184 99490 70669 46/// /2012 11026 21107 40100 56021 7//// 8//// 22200 0//// 2////
BBXX CGUM 21184 99451 70613 46/// /2421 10012 21039 40217 56031 7//// 8//// 22213 0//// 2////
BBXX CGDR 21184 99489 71233 46/// /0406 10046 20038 40342 51025 7//// 8//// 22232 00105 2////
BBXX VAAZ 21184 99534 70521 46/// /2620 11035 21086 40072 53006 7//// 8//// 22231 0//// 2////
BBXX 46041 21181 99474 71247 46/// /1305 10056 40322 53023 91750 22200 00082 11207 20501 3//// 41207 70034 333 91207 555 11056 22059 31728 41308 61749 127054 133054 133055 134055 137056 133055
BBXX 46026 21181 99378 71228 46/// /3603 10087 40200 51013 91750 22200 00108 11405 20401 329// 41405 70023 333 91204 555 11031 22032 31747 43504 61749 349028 344012 328015 337014 332016 326014
BBXX 46077 21181 99579 71543 46/// /2808 10019 21027 40035 53007 91750 22200 00043 11303 20602 3//// 41302 70015 333 91209 555 11082 22086 31738 42710 61749 279078 278076 273070 271057 265060 263056 82809 91741
BBXX 44040 21181 99410 70736 46/// /2004 10109 20109 40133 91745 22200 1//00 70001 333 91205 555 11051 22062
BBXX 41040 21181 99145 70530 46/// /0610 10268 20212 40137 56019 91750 22200 00279 10706 20706 3//// 41303 70031 333 91212 555 11111 22117 31702 40413 61749 055105 051103 052100 054101 054103 050100 80511 91742
BBXX 46082 21181 99597 71434 46/// ///// 10047 40087 51012 91750 22200 00065 11311 70055
BBXX 46035 21181 99571 71778 46/// /2407 1//// 49986 52003 91750 22200 11005 20502 300// 41004 70023 333 91208 555 11066 22070 31650 42510 61749 243065 232074 227076 224070 238070 262075 82309 91708
BBXX 42039 21181 99288 70860 46/// /1711 10235 40154 58013 91750 22200 00228 10805 20704 300// 40803 70025 333 91213 555 11116 22125 31651 41714 61749 167107 165104 165103 170106 165107 165115 81713 91651
BBXX 46072 21181 99517 71722 46/// /2704 10015 21022 40039 51008 91750 22200 00047 11006 20401 3//// 41006 70029 333 91206 555 11044 22045 31727 42809 61749 271043 279066 271071 271056 275062 280066 82809 91728
BBXX VCRG 21184 99474 70619 46/// /2006 11005 21053 40172 56040 7//// 8//// 22282 00021 2////
BBXX BATFR14 21184 99353 70360 44498 73010 10199 20157 40188 53001 70222 8726/ 22214 00207 202// 312// 407// 5//// 60000 ICE 0/0//
BBXX BAREU06 21184 99459 70527 46/// ///// 40196 52006 22224
BBXX CGDS 21184 99450 70747 46/// /0403 10017 21001 4//// 5//// 7//// 8//// 22200 00063 2////
BBXX 44007 21181 99435 70701 46/// /0000 10055 20043 40143 58036 91750 22200 00067 10703 20401 3//// 40703 70016 333 91201 555 11004 22004 31650 42504 61749 265004 285008 259010 268018 259020 239026
BBXX VQAJ8 21183 99317 71205 41998 03015 10142 20110 40199 52016 70200 80000 22262 00161 20303 334// 40604 5//// 80125
AAXX 21184 48300 31957 20000 10153 20139 39824 40147 57002 71000 80001 333 59003
AAXX 21184 48327 31958 00000 10162 20141 39789 40156 57006 71000 333 59011
AAXX 21184 48331 NIL
AAXX 21184 48353 NIL
AAXX 21184 48356 31956 60000 10208 20163 39944 40144 58005 71022 86050 333 59002
AAXX 21184 48375 NIL
AAXX 21184 48378 31556 20000 10200 20179 30070 40124 57013 71000 81505 333 59008
AAXX 21184 48381 32960 10505 10216 20161 39915 40135 57005 80005 333 59005
AAXX 21184 48407 31958 60202 10210 20160 39973 40117 57011 71022 80006 333 59002
AAXX 21184 48431 32960 40000 10230 20187 39910 40126 57011 83035 333 59005
AAXX 21184 48456 NIL
AAXX 21184 48480 31957 10608 10246 20190 30091 40095 57014 71000 80001 333 59004
AAXX 21184 48500 NIL
AAXX 21184 48551 31540 60000 10238 20226 30091 40099 57006 71022 82267 333 59001 70015
AAXX 21184 48565 31558 60606 10264 20229 30070 40080 57009 71022 82246 333 59010
AAXX 21184 48569 01458 70000 10249 20231 30050 40090 57013 60113 76162 84876 333 59004 69946 70160
AAXX 21184 48583 NIL
BBXX 41046 21181 99238 70683 46/// /0909 10243 20181 40216 58024 91750 22200 00256 11307 20704 300// 41305 70033 333 91211 555 11097 22102 31704 41114 61749 096091 101079 099071 087077 099110 101078 81013 91705
BBXX 42364 21181 99291 70881 46/// /2502 10228 20211 40163 58010 91800
BBXX 44011 21181 99411 70666 46/// /1509 10094 20067 40203 56035 91750 22200 00093 10903 20803 3//// 40902 70017 333 91212 555 11099 22105 31701 43312 61749 149093 150097 152091 152093 154097 150099
BBXX 42363 21181 99282 70892 46/// /2707 10250 20200 40166 58003 91800 333 91207
BBXX 44008 21181 99405 70692 46/// /1808 10129 20108 40175 57031 91750 22200 00114 10703 20702 312// 41102 70015 333 91209 555 11084 22093 31715 41810 61749 177078 179081 174081 176081 182077 184075
BBXX 44060 21181 99413 70721 46/// ///05 10111 40138 56041 91800 22200 00103 333 91206 555 11057 22062
BBXX CGBR 21184 99526 71285 46/// /3002 10016 20015 40324 56011 7//// 8//// 22200 0//// 2////
BBXX VCXF 21184 99464 70484 41697 72833 10000 2000/ 40134 52022 78622 87500 22200 02024 20706 326// 40807 80000
BBXX WBO3345 21184 99203 70722 41697 70825 10267 20228 40160 54/// 70322 87473 22232 0//// 20404 309// 40404 5//// 6//// 80239 ICE /////
BBXX WGJT 21184 99273 70768 43698 41413 10272 2021/ 40211 57016 7//// 84408 22234 00222 20102 314// 40303 5//// 6//// 80228 ICE /////
BBXX WCX8884 21184 99540 71620 41097 41825 10030 2001/ 40030 54000 70211 84/// 22214 00050 20504 3//// 40504 5//// 6//// 80020 ICE /////
BBXX PHBO 21183 99169 70653 41497 60425 10275 20214 40156 58018 70322 84738 22275 20506 306// 41004 80234
BBXX A8XD5 21184 99426 71724 41/97 /2213 10086 20066 40160 54000 70222 8/79/ 22223 04100 20302 302// 41204 80076
BBXX A8EH2 21184 99474 71401 41097 81822 10095 20085 40200 57035 87739 22284 00070 20503 328// 41206 80090
BBXX HZRX 21183 99254 70861 41897 51316 /// 10250 20210 40181 54004 70222 85210 22273 10190 20202 31616 40101 5//// 6//// 80190 ///// /////
BBXX 41009 21181 99285 70802 46/// /1906 10233 20189 40209 58017 91750 22200 00245 11103 20502 300// 41102 70017 333 91208 555 11066 22070
BBXX 42057 21181 99168 70815 46/// /0911 10285 20219 40136 58019 91750 22200 00277 10705 20704 3//// 41002 70023 333 91212 555 11106 22114 31711 40914 61749 089104 093111 089113 090117 084113 083113 80913 91711
BBXX 41010 21181 99289 70785 46/// /1606 10234 40217 58021 91750 22200 00239 11303 20402 300// 41302 70016 333 91207 555 11062 22066
BBXX VOFG 21184 99456 70614 46/// /2005 10008 21099 40210 56027 7//// 8//// 22200 0//// 2////
BBXX CGBY 21184 99487 71235 46/// /3005 10033 20003 40340 51023 7//// 8//// 22200 0//// 2////
BBXX VCLM 21184 99473 70705 46/// /2117 11014 21061 40093 58009 7//// 8//// 22253 00016 2////
BBXX CGTF 21184 99476 70527 46/// /1507 11020 21062 40179 52020 7//// 8//// 22200 0//// 2////
BBXX VCBW 21184 99488 70644 46/// /2511 11043 21124 40158 58027 7//// 8//// 22200 0//// 2////
BBXX VXKF 21184 99472 70594 46/// /2220 11019 21085 40163 56026 7//// 8//// 22252 0//// 2////
BBXX VCSZ 21184 99489 70673 46/// /1815 11030 21066 40097 58024 7//// 8//// 22214 0//// 2////
BBXX VOKJ 21184 99497 70659 46/// /2526 11033 21079 40089 56025 7//// 8//// 22254 0//// 2////
BBXX CGDT 21184 99468 70712 46/// /1901 11039 21092 40121 58037 7//// 8//// 22200 0//// 2////
BBXX CZ9742 21184 99506 70969 46/// /3106 11044 21083 40127 53034 7//// 8//// 22200 0//// 2////
BBXX 3FZK3 21184 99485 71286 46/// /3410 10075 20027 40302 51013 7//// 8//// 22233 0//// 2////
BBXX CGDG 21184 99447 70636 46/// /1907 10017 20062 40209 56037 7//// 8//// 22200 0//// 2////
BBXX CGBN 21184 99447 70636 46/// /1601 10029 21016 40196 56036 7//// 8//// 22200 0//// 2////
BBXX C6OT4 21184 99181 71444 41598 60921 10230 20199 40156 51005 70122 83558 22223 04229 20905 311// 40905 5//// 80210
BBXX C6JS 21183 99322 70449 41598 32820 10200 2012/ 40210 54000 70100 831// 22254 20604 331// 40905 5//// 80150
BBXX 3FCA9 21184 99495 71294 41599 60902 00/// 10070 21020 40320 54000 70200 86842 22225 00050 20802 32929 40802 50802 6//// 80070 ///// /////
BBXX WSRL 21184 99286 71514 41498 20916 10210 2015/ 40225 52020 70100 821// 22274 00222 2//// 32710 41006 50505 6//// 80170 ICE /////
BBXX P3GY9 21184 99094 70577 41897 51219 10290 2025/ 40130 57010 70322 85283 22211 00290 20705 305// 40904 5//// 6//// 80260 ICE /////
BBXX 44066 21181 99396 70726 46/// /2009 10145 20136 40149 56037 91750 22200 00130 10603 20603 3//// 41201 70017 333 91211 555 11092 22101 31705 42113 61749 198085 198089 201090 205101 206109 202101
BBXX 41043 21181 99211 70650 46/// /0911 10249 20183 40201 58023 91750 22200 00262 11507 20504 300// 41506 70034 333 91213 555 11116 22123 31651 40814 61749 084108 086107 078106 079114 081111 076109 80812 91715
BBXX 41036 21181 99342 70770 46/// ///// 10211 20156 40191 58027 91750 22200 00186 10603 70016
BBXX 44020 21181 99414 70702 46/// /1808 10101 20089 40147 58042 91750 22200 00072 10301 20301 70005 333 91209 555 11080 22085 31709 42511 61749 193073 260069 259076 257087 257089 252084
BBXX BATFR14 21184 99353 70360 44498 73018 10120 20112 40222 70222 89/// 22214 20202
BBXX BAREU11 21184 99316 70535 46/// ///// 40244 57017 22214
BBXX BAREU04 21184 99485 70487 46/// ///// 40108 52060 22253
BBXX 46069 21181 99337 71202 46/// /3007 10131 40185 52016 91750 22200 00140 11505 20502 330// 41504 70023 333 91209 555 11079 22083 31712 43110 61749 301075 300080 299081 302082 306080 303082
BBXX 46088 21181 99483 71232 46/// /3507 10061 40330 91750 22200 00078 11101 70003 333 91208 555 11070 22073 31733 43508 61749 355065 354067 353067 353064 354061 356066
BBXX 46047 21181 99324 71195 46/// /3006 10134 40194 51016 91750 22200 00135 11305 20502 329// 41305 70027 333 91208 555 11062 22065 31703 43109 61749 303059 310068 309069 311066 307068 308072
BBXX 46086 21181 99325 71180 46/// /3005 10148 40186 53018 91750 22200 00150 11403 20301 329// 41403 70016 333 91206 555 11049 22051 31749 43006 61749 300046 297040 291046 283047 287040 294041
BBXX 46027 21181 99419 71244 46/// /3512 10084 40250 53007 91750 22200 00089 11407 20704 329// 41406 70034 333 91214 555 11123 22131 31743 43514 61749 350113 348106 350109 351105 349110 346111
BBXX 42002 21181 99258 70937 46/// /1604 10248 20219 40146 58010 91750 22200 00239 10903 20401 308// 40903 70014 333 91205 555 11043 22046 31706 41606 61749 158042 158043 160046 159042 159047 162046
BBXX 42003 21181 99260 70856 46/// /1708 1//// 91750 22200 10804 20703 312// 40802 70019 333 91210 555 11082 22088 31653 41710 61749 171077 169079 169080 164081 170077 167082 81609 91717
BBXX 42055 21181 99222 70940 46/// /1306 10257 20224 40134 58013 91750 22200 00254 10902 20501 308// 40901 70009 333 91207 555 11063 22068 31742 41307 61749 131060 132057 132056 127053 120044 123046 81306 91717
BBXX 46025 21181 99337 71191 46/// /3601 10137 20102 40178 53017 91750 22200 00151 11302 20301 328// 41302 70012 333 91202 555 11012 22013 31659 43004 61749 003012 345017 347018 322021 315027 319025
BBXX 46014 21181 99394 71240 46/// /0402 10102 40214 52018 91750 22200 00108 11408 20401 3//// 41408 70040 333 91203 555 11015 22016 31707 41104 61749 037016 044019 056011 102008 098012 011009
BBXX 46084 21181 99566 71361 46/// /1613 10062 20020 40188 56040 91750 22200 00071 11107 20705 300// 41104 70034 333 91215 555 11140 22149 31741 41716 61749 156133 156126 155131 154128 155124 159128
BBXX 46075 21181 99539 71608 46/// /1806 10036 21020 40044 54000 91750 22200 00052 11107 20602 300// 41107 70037 333 91208 555 11063 22066 31734 41908 61749 183060 177063 179063 175066 175064 183062 81707 91711
BBXX 46002 21181 99426 71305 46/// ///// 10095 40323 53007 91750 22200 00119 11205 70027
BBXX 46059 21181 99380 71300 46/// /0309 10124 40282 53008 91750 22200 00144 11407 20505 3//// 41405 70034 333 91211 555 11095 22100 31714 40312 61749 028091 029091 028098 027092 028095 021094
BBXX 42001 21181 99259 70897 46/// /1907 10248 20222 40175 58006 91750 22200 00254 10802 20502 3//// 40801 70012 333 91209 555 11079 22083 31718 41809 61749 185073 188070 187071 184074 182075 181074
BBXX 41060 21181 99148 70510 46/// ///// 1//// 91750 22200 11205 70026
BBXX 41047 21181 99275 70715 46/// /1208 10234 40248 58020 91750 22200 00250 11305 20503 304// 41304 70025 333 91210 555 11080 22084 31706 41111 61749 119080 126081 130082 120080 115090 113078 81110 91706
BBXX 42040 21181 99292 70882 46/// /2505 10229 40156 58004 91750 22200 00229 10803 20301 316// 40803 70017 333 91206 555 11049 22053 31738 42606 61749 252048 247044 243037 249039 243040 231043
BBXX 42036 21181 99285 70845 46/// /1608 10222 20204 40176 58015 91750 22200 00217 10804 20804 70018 333 91210 555 11090 22097 31704 41611 61749 155084 155085 153086 154088 155092 155090
BBXX 42059 21181 99151 70675 46/// /0611 10275 20216 40137 58023 91750 22200 00278 10706 20705 3//// 41103 70030 333 91213 555 11116 22123 31746 40613 61749 064109 065106 066108 067107 067104 066109 80712 91748
BBXX 42019 21181 99279 70954 46/// /0507 10160 20119 40156 58007 91750 333 91209 555 11075 22080
BBXX 42060 21181 99163 70635 46/// /0610 10267 20209 40155 56021 91750 22200 00277 10605 20605 300// 41301 70024 333 91212 555 11110 22116 31656 40613 61749 060103 058108 059095 064101 062104 064109 80612 91733
BBXX 42056 21181 99198 70849 46/// /1308 10274 20231 40155 58011 91750 22200 00274 10804 20603 310// 40803 70020 333 91209 555 11082 22088 31731 41209 61749 127077 127076 125071 123067 127061 122067 81208 91730
BBXX 44005 21181 99432 70691 46/// /1811 10087 20073 40146 58030 91750 22200 00085 10705 20704 3//// 41201 70023 333 91213 555 11115 22123 31702 41913 61749 175106 176106 177101 182106 182107 182103
BBXX 42058 21181 99149 70749 46/// /0912 10274 20215 40116 58022 91750 22200 00277 10907 20704 309// 40906 70036 333 91215 555 11130 22138 31651 40816 61749 085122 084127 083128 083126 081127 083122 80814 91727
BBXX 42035 21181 99292 70944 46/// /0506 10107 20070 40166 58013 91750 22200 00159 10702 20401 316// 40701 70008 333 91207 555 11058 22060 31715 40608 61749 052055 050056 049058 047064 049065 047061
BBXX 41049 21181 99275 70630 46/// /0805 10212 20111 40265 56020 91750 22200 00236 11305 20401 300// 41305 70025 333 91207 555 11050 22052 31658 40508 61749 081050 070054 063062 069065 064063 060062 80607 91659
BBXX 41044 21181 99217 70587 46/// /0712 10246 20158 40204 56023 91750 22200 00261 11508 20805 300// 41506 70040 333 91215 555 11125 22132 31743 40715 61749 070117 067111 066111 068108 068114 070112 80613 91709
BBXX 42012 21181 99301 70876 46/// /1804 10214 20208 40150 58010 91750 22200 00209 10803 20401 316// 40803 70015 333 91205 555 11041 22046 31657 41805 61749 179037 177036 181036 179036 181041 178041
BBXX CG2960 21184 99423 70830 46/// /2707 10075 20075 4//// 5//// 7//// 8//// 22200 0//// 2////
BBXX CG2350 21184 99433 70798 46/// /0103 10038 20037 40030 56043 7//// 8//// 22200 0//// 2////
BBXX 42020 21181 99270 70967 46/// /0407 10182 20132 40155 58015 91750 22200 00234 10603 20602 313// 40801 70014 333 91209 555 11077 22080 31721 40410 61749 044073 043076 035081 038077 036075 041074
BBXX 42065 21181 99149 70750 46/// /0911 10275 20222 91750 22200 11007 20706 3//// 41003 70033 333 91214 555 11117 22125 31720 40814 61749 086110 085111 089111 083106 082106 083103 80912 91729
BBXX 41001 21181 99347 70727 46/// ///// 10212 20140 40222 58022 91750 22200 00222 10604 70021
BBXX 41048 21181 99320 70696 46/// /2106 10199 20119 40264 56021 91750 22200 00228 11103 20501 3//// 41103 70015 333 91208 555 11057 22059 31737 42008 61749 206058 198064 199064 199062 199061 201060 82007 91737
BBXX BAREU54 21184 99120 70798 46/// ///// 40082 57019 22213
BBXX 41101 21184 99146 70562 46/// /0720 10266 20214 40128 57018 22200 00271 10805 70025 555 1/025
BBXX DDLK 21183 99463 70398 41397 62739 10076 21015 40070 52010 70322 862/0 22223 20810 326// 41210 80038
BBXX NWS0022 21184 99416 70714 43/// /1908 10117 20104 40130 5//// 7//// 8//// 222// 04107 2//// 3//// 4//// 5//// 6//// 8//// ICE /////
BBXX KEY796 21183 99571 71703 41/97 42615 11022 21044 49900 51/// 770// 8//// 222// 00011 2//// 3//// 4//// 5//// 6//// 8//// ICE /////
BBXX WFLG 21183 99243 71507 41398 50820 10194 20177 40205 51005 71522 85260 22254 00194 20604 399// 4//// 5//// 6//// 80183 ICE /////
BBXX DDSB2 21183 99315 70534 41598 63111 10205 20167 40240 57010 70280 83445 22214 20202 334// 40706 80180
BBXX C6LU3 21183 99398 70474 41497 73428 10100 2006/ 40250 52020 72022 877// 22214 20706 80080
BBXX 9HXC9 21184 99172 70627 41298 70725 10228 20200 40142 55003 76066 87240 22200 04275 20402 3//// 40801 5//// 6//// 80209 ICE /////
BBXX 46054 21181 99342 71204 46/// /3108 10124 40178 51013 91750 22200 00135 11504 20402 300// 41504 70022 333 91210 555 11089 22094 31656 43111 61749 307083 307089 306087 309092 312088 312086
BBXX 46028 21181 99357 71219 46/// /3003 10122 40184 53008 91750 22200 00127 11506 20401 331// 41506 70029 333 91204 555 11028 22029 31711 43104 61749 304026 313027 309025 316028 312030 313029
BBXX 46029 21181 99461 71245 46/// /0103 10081 20028 40321 53016 91750 22200 00086 11406 20401 326// 41406 70031 333 91204 555 11027 22028 31724 40105 61749 009027 026026 010032 004032 007033 003031
BBXX 46087 21181 99485 71247 46/// /0806 10060 20029 40327 52022 91750 22200 00076 11406 20501 328// 41405 70028 333 91208 555 11064 22067 31711 40809 61749 080061 080061 080064 075067 074065 076061
BBXX 46013 21181 99382 71233 46/// /1201 10086 40204 51017 91750 22200 00109 11405 20401 3//// 41405 70025 333 91203 555 11011 22011 31650 41004 61749 127011 120013 118016 111013 096017 111018
BBXX 46050 21181 99442 71246 46/// /1003 10074 40318 53010 91750 22200 00094 11406 20401 328// 41406 70030 333 91205 555 11032 22033 31749 41005 61749 099031 098031 108031 098030 096029 090030
BBXX 46012 21181 99374 71229 46/// /3204 10104 40196 51010 91750 22200 00120 11407 20401 330// 41407 70033 333 91206 555 11044 22045 31728 43106 61749 322043 321045 317045 321041 318039 309036
BBXX 46011 21181 99350 71210 46/// /3303 10124 40187 53006 91750 22200 00138 11505 20401 330// 41505 70027 333 91204 555 11026 22026 31731 43404 61749 334026 338031 339029 338027 344023 343022
BBXX 41013 21181 99334 70777 46/// /1911 10221 20162 40192 58026 91750 22200 00206 10704 20704 313// 41101 70020 333 91214 555 11119 22129 31744 41914 61749 192108 192104 192105 191111 191105 194106
BBXX 44027 21181 99443 70673 46/// /2011 10068 20050 40158 58034 91750 22200 00082 10705 20705 70024 333 91214 555 11122 22129 31712 41914 61749 195112 194111 196116 194118 194115 194111
BBXX 44065 21181 99404 70737 46/// /1907 10111 20106 40122 58044 91750 22200 00094 11102 20401 310// 41101 70009 333 91209 555 11081 22090 31650 41909 61749 188075 187067 189063 191066 189065 188069 81908 91750
BBXX 44009 21181 99385 70747 46/// /2009 10128 40161 56029 91750 22200 00111 10502 20502 300// 41201 70012 333 91210 555 11094 22103 31715 42011 61749 199086 201082 200081 197091 193091 187088
BBXX 41008 21181 99314 70809 46/// /1903 10175 20168 40203 58021 91750 22200 00166 10603 20401 300// 40602 70013 333 91203 555 11035 22041 31657 42105 61749 192031 185033 189038 192040 199043 203042
BBXX 41004 21181 99325 70791 46/// /2306 10205 20179 40205 58013 91750 22200 00211 10704 20503 3//// 40703 70020 333 91208 555 11064 22067 31658 42313 61749 227059 221057 222061 232069 235099 234089
BBXX 44014 21181 99366 70748 46/// /2107 1//// 40182 57022 91750 22200 00145 11202 20402 304// 41201 70011 333 91208 555 11068 22068 31652 41910 61749 207068 211069 209073 200078 196080 197082
BBXX 46080 21181 99580 71500 46/// /2009 10036 20009 40058 55000 91750 22200 00051 11108 20705 3//// 41107 70041 333 91212 555 11093 22098 31656 42212 61749 200089 203090 209091 212090 216090 215097 82110 91652
BBXX 46078 21181 99561 71526 46/// /2604 10040 21021 40062 57003 91750 555 11041 22044
BBXX 46005 21181 99461 71310 46/// ///01 10083 40329 51005 91750 22200 00099 11105 20301 3//// 41105 70026 333 91202 555 11010 22010
BBXX 46006 21181 99408 71375 46/// /1706 10122 40301 57008 91750 22200 00127 11204 20501 3//// 41204 70022 333 91207 555 11061 22065 31732 41607 61749 171059 169055 157059 154059 150053 139052
BBXX WDD6126 21184 99464 70157 41298 71913 10150 2013/ 40319 51000 70222 8719/ 22254 00120 20202 330// 40402 5//// 6//// 80140 ICE /////
BBXX VRYO3 21184 99494 70187 46/// /0918 10129 20141 40236 56020 7//// 8//// 22264 00131 2////
BBXX DK7210 21181 99540 10066 46/// /2903 10080 20077 30146
BBXX DBBI 21181 99535 10100 46/// /2602 10030 20030 40157 52020 22260 00030
BBXX DBND 21181 99536 10086 46/// /2802 10040 20031 40164 52021 22240 00047
BBXX DBBC 21181 99535 10100 46/// /2602 10030 2//// 40160 52021 22250 00036
BBXX DBFH 21181 99535 10086 46/// /2802 10045 20030 40163 520/9 22230 00045
BBXX DBKR 21181 99541 10121 46/// /3303 10043 21001 40138 52020 22200 00040
BBXX DBBA 21181 99541 10121 46/// /3104 10039 21004 40138 52021 22220 00041
BBXX DBBU 21181 99545 1013/ 46/// +0802 10031 20013 40135 52022/ 22201 00051
BBXX DBFR 21181 99535 10086 46/// /2402 10041 20037 40165 52020 22240 00044
BBXX DBJM 21181 99538 10088 46/// /2704 10031 20022 40165 52022 22231 00040
BBXX DBLK 21181 99705 50081 41498 72706 11028 21052 49767 52004 70221 8383/ 22200 05016 ICE 18780
BBXX C6XC2 21184 99024 31327 41498 63512 10250 20236 40040 57020 70222 8527/ 22200 00300 2//// 3//// 4//// 5//// 6//// 80240 ICE /////
BBXX C6UA2 21184 99200 31694 41496 70824 10260 20217 40100 54000 7//22 83/7/ 22233 00290 21004 301// 41502 5//// 6//// 80230 ICE /////
BBXX BATEU07 21184 99242 31110 46/// /1720 10229 40110 58017 22284
BBXX BATFR35 21184 99165 51518 46/// /0923 10229 20194 40113 22221 00294
BBXX BATFR53 21184 99185 51756 44598 50613 10277 20224 40102 51010 70222 84278 22222 00284 201// 30421 403// 505// 60/// ICE 0////
BBXX BATFR08 21184 99388 30777 46/// /2723 10154 20117 40213 53001 22282 00159
BBXX 3FBC9 21184 99074 71102 41798 71912 10250 40087 55027 70322 86554 9//// 22233 00280 20303 314// 40404 5//// 6//// 80220
BBXX A8ID9 21184 99088 71537 41498 80723 10265 20223 40105 52015 75155 86439 22214 00270 20304 30700 40606 5//// 80235
BBXX FVNM 21184 99074 70793 46/// /3404 10270 20230 40085 58017 22200 00277
BBXX WDC6698 21184 99095 71443 43/// /1515 1//// 2//// 40100 5//// 7//// 8//// 222// 04257 2//// 3//// 4//// 5//// 6//// 8//// ICE /////
BBXX DDAC2 21180 99174 71017 41/98 20101 10270 20243 40110 54000 7//00 82400 22273 04290 2//// 330// 40303 5//// 80250
AAXX 21184 78062 11669 41410 10263 20195 40210 69901 70181 84800 333 59013 84830 90940
AAXX 21184 48310 31950 00000 10158 20149 39687 40156 57005 71000 333 59005
AAXX 21184 48325 31956 00000 10145 20136 39889 40141 57007 71000 333 59008
AAXX 21184 48329 31950 00000 10150 20141 39805 40157 52007 71000 333 58007
AAXX 21184 48352 31950 00803 10197 20172 39938 40143 57004 71000 333 59005
AAXX 21184 48357 31957 60000 10205 20176 39971 40143 57008 71022 85031 333 59002
AAXX 21184 48380 32960 01901 10204 20183 30033 40129 57011 333 59006
AAXX 21184 48383 NIL
AAXX 21184 48403 31957 00000 10213 20176 39916 40129 57007 71000 333 59004
AAXX 21184 48405 31958 30304 10212 20171 39963 40129 57011 71011 80005 333 59007
AAXX 21184 48420 31957 40604 10252 20186 30100 40104 57014 71011 80006 333 59006
AAXX 21184 48421 31956 00000 10203 20182 30004 40120 57014 71000 333 59007
AAXX 21184 48425 31940 50402 10246 20195 30108 40118 57009 71011 80006 333 59008
AAXX 21184 48426 31957 50000 10247 20180 30102 40115 57009 71021 80006 333 59006
AAXX 21184 48429 32960 30503 10239 20171 30102 40109 57010 82045 333 59005
AAXX 21184 48430 31958 20605 10260 20172 30101 40108 57012 70500 80005 333 59004
AAXX 21184 48450 31956 00000 10245 20185 30080 40114 57008 71000 333 59010
AAXX 21184 48459 32960 20603 10255 20184 30103 40106 57012 81031 333 59002
AAXX 21184 48465 31958 53506 10243 20190 30101 40106 57011 71011 80005 333 59002
AAXX 21184 48550 31558 60703 10267 20232 30087 40094 57012 71022 81146 333 59007 70136
AAXX 21184 48552 31457 60000 10245 20238 30085 40092 57018 71022 83846 333 59002 70102
AAXX 21184 48566 32560 40309 10267 20227 30073 40081 57009 82145 333 59010
AAXX 21184 48568 01459 60405 10265 20240 30084 40092 57011 60273 71062 83866 333 58002 60027 70277
AAXX 21184 48302 NIL
AAXX 21184 48304 32960 00000 10130 20124 39683 40162 57005 333 58001
AAXX 21184 48334 31958 00000 10156 20145 39784 40159 52006 71000 333 58002
AAXX 21184 48360 31958 00000 10186 20159 39877 40144 57006 71000 333 58000
AAXX 21184 48372 NIL
AAXX 21184 48373 NIL
AAXX 21184 48386 31940 00000 10193 20182 30075 40120 57007 71000 333 58004
AAXX 21184 48387 31958 00000 10148 20124 39170 40149 57005 71000 333 59015
AAXX 21184 48408 32960 20502 10203 20175 39965 40117 57012 80001 333 59004
AAXX 21184 48415 31957 20202 10245 20173 30107 40119 57012 70510 81045 333 59016
AAXX 21184 48433 31956 10402 10205 20181 39957 40126 57011 71000 80001 333 59008
AAXX 21184 48437 32960 00304 10207 20174 39914 40127 57009 333 59005
AAXX 21184 48440 31957 00000 10223 20188 30062 40113 57009 71000 333 58002
AAXX 21184 48451 32560 70000 10231 20202 30103 40115 57011 83570 333 59009
AAXX 21184 48454 NIL
AAXX 21184 48457 NIL
AAXX 21184 48463 NIL
AAXX 21184 48464 NIL
AAXX 21184 48479 NIL
AAXX 21184 48520 31956 40000 10228 20216 30082 40097 55010 71011 80005 333 59007
AAXX 21184 48554 31458 80000 10249 20247 30088 40092 57013 71022 84877 333 59003 70082
AAXX 21184 48563 31559 60510 10247 20228 30045 40081 57011 71022 81246 333 59009
AAXX 21184 48571 01559 80204 10253 20222 30084 40096 57015 60233 76022 83267 333 58010 69987 70318
AAXX 21184 48307 31950 00000 10140 20134 39768 40163 57005 71000 333 59004
AAXX 21184 48324 31950 00602 10161 20154 39916 40143 57004 71000 333 59005
AAXX 21184 48333 31956 00000 10162 20148 39845 40157 52001 71000 333 59001
AAXX 21184 48350 NIL
AAXX 21184 48355 31956 20000 10200 20167 39920 40144 57005 71000 80006 333 58001
AAXX 21184 48358 31559 60000 10190 20165 39967 40147 56005 71022 82536 333 58002
AAXX 21184 48384 31959 00000 10200 20184 39941 40135 57008 71000 333 59005
AAXX 21184 48401 31956 20502 10235 20186 30020 40128 57009 71000 80005 333 59008
AAXX 21184 48404 31957 20000 10211 20177 39944 40126 56014 71020 80005 333 59006
AAXX 21184 48409 32960 20205 10210 20178 39970 40120 57011 82041 333 59005
AAXX 21184 48419 31958 30104 10260 20198 30107 40115 52007 71011 80005 333 58000
AAXX 21184 48427 NIL
AAXX 21184 48435 31959 21114 10230 20164 39679 40120 58011 71010 80005 333 59012
AAXX 21184 48453 32960 30000 10265 20199 30104 40107 57011 80005 333 59004
AAXX 21184 48458 32960 00000 10219 20195 30044 40125 57010 333 59002
AAXX 21184 48474 31958 80000 10230 20194 39982 40106 57013 71022 80007 333 59011
AAXX 21184 48481 31958 00000 10232 20193 30072 40100 57014 71000 333 59004
AAXX 21184 48555 NIL
AAXX 21184 48556 32560 60000 10234 20225 30072 40088 57012 81106 333 59009
AAXX 21184 48557 NIL
AAXX 21184 48560 31457 80000 10245 20233 30090 40095 56010 71022 82876 333 58000 70054
AAXX 21184 48574 NIL
AAXX 21184 48581 NIL
BBXX C6IO9 21184 99323 70144 41898 43013 10175 20121 40302 53020 70100 8/085 22243 06185 20301 305// 40503 5//// 80145
BBXX UFJN 21181 99712 10480 41/98 81803 11025 40065 52015 70022 88/// 22200 0//// 20301
AAXX 21184 93004 16/// /1011 10153 20123 40253 52004 60001
AAXX 21184 93023 16/// /1803 10139 20131 40267 52002 60001
AAXX 21184 93069 16/// /1111 10170 20126 40266 54000 60001
AAXX 21184 93110 17898 /0000 10148 20141 40270 54000 60001
AAXX 21184 93186 17597 /1303 10154 20142 40277 52004 69981
AAXX 21184 93196 16/// /1607 10141 20118 40280 52002 60001
AAXX 21184 93245 16498 /0902 10126 20114 40280 52003 60001
AAXX 21184 93292 17698 /3103 10132 20122 40284 52002 60001
AAXX 21184 93309 17197 /1507 10124 20119 40272 52005 60001
AAXX 21184 93334 16/// /3001 10090 20085 39316 52002 60001
AAXX 21184 93339 16/// /2702 10085 20083 39323 52003 60001
AAXX 21184 93373 17698 /2403 10145 20120 40281 52003 60001
AAXX 21184 93404 17/98 /3501 10094 20085 40280 52002 60001
AAXX 21184 93420 17/98 /1301 10104 20088 40280 52004 60001
AAXX 21184 93439 17/98 /3605 10111 20090 40282 52001 60001
AAXX 21184 93498 16/// /2002 10121 20096 40289 52003 60001
AAXX 21184 93515 17/98 /1504 10151 20141 40276 57001 60001
AAXX 21184 93527 16/// /0704 10142 20142 40276 52002 60001
AAXX 21184 93546 17/98 /1702 10132 20124 40277 52001 60001
AAXX 21184 93597 16/// /1206 10135 20113 40286 52009 60001
AAXX 21184 93615 17597 /1502 10160 20151 40277 57005 60001
AAXX 21184 93678 16/98 /2802 10112 20090 40290 52004 60001
AAXX 21184 93709 16/// /1506 10120 20111 40283 54000 60001
AAXX 21184 93773 17397 /2204 10133 20128 40290 52006 60001
AAXX 21184 93781 17498 /0506 10129 20110 40290 52005 60001
AAXX 21184 93800 NIL
AAXX 21184 93805 NIL
AAXX 21184 93831 17092 /1501 10091 20091 40301 52009 60001
AAXX 21184 93845 17095 /0204 10097 20094 40291 52003 60001
AAXX 21184 93891 17497 /0000 10124 20116 40289 52002 60001
AAXX 21184 93909 16/// /3412 10134 20119 40284 52002 60001
AAXX 21184 93929 16/// /0000 10100 20098 40251 52002 69941
AAXX 21184 93947 16/// /2711 10094 20092 40228 52008 69941
AAXX 21184 93987 16/// /2205 10105 20060 40302 52002 60001
AAXX 21184 93994 NIL
AAXX 21184 91925 01465 60710 10265 20203 30054 40114 51011 69941 78086 85202 333 56109 69947 84818 90710 91119 555 69945 10919 59004
AAXX 21184 91929 04467 80920 10234 20207 30123 40126 53026 60112 760// 333 10270 20225 60107 90710 91141 555 60105
AAXX 21184 91938 01470 72205 10278 20218 30113 40115 51016 60002 715// 82208 333 10278 20246 60007 82816 87273 90710 91107 555 60005 10907 59021
AAXX 21184 91943 16/// /0816 10288 20205 30113 40115 51015 69962 333 10288 59012
AAXX 21184 91944 06/// /0917 10278 20209 30136 40139 51011 60002 333 10278 20257 60007 90710 91122 555 60005
AAXX 21184 91948 02581 20304 10265 20186 30082 40184 51007 60001 82200 333 56200 60007 82821 90710 91112 555 60005 10613 59007
AAXX 21184 91954 06/// /0708 10276 20232 30146 40149 51008 60021 333 60007 555 59011
AAXX 21184 91958 02482 20705 10253 20197 30178 40180 51005 60001 82200 333 56200 60007 82818 90710 91108 555 60005 10508 59014
AAXX 21184 91945 NIL
AAXX 21181 33135 11397 83304 11012 21025 39904 40086 52005 69902 70272 886// 333 10011 88709
AAXX 21181 33317 11496 82702 11012 21022 39788 40133 52014 69922 78588 889// 333 11005 88912
AAXX 21181 33345 NIL
AAXX 21181 33393 NIL
AAXX 21181 33506 NIL
AAXX 21181 33587 NIL
AAXX 21181 33631 32697 81503 11001 21049 30012 40160 52013 885// 333 10036 88640
AAXX 21181 33663 NIL
AAXX 21181 33658 12797 73102 11009 21031 39844 40151 52015 69902 87500 333 10008 87655
AAXX 21181 33711 11295 83107 10001 21002 39847 40059 53018 60112 78582 883// 333 10037 88705
AAXX 21181 33791 11423 72906 10021 20013 39898 40050 52028 60052 78082 85350 333 10091 85914
AAXX 21181 33837 11443 82803 10008 20003 30076 40129 52030 60152 78588 883// 333 10034
AAXX 21181 33924 11598 82708 10051 20004 30121 40133 52027 69972 70282 889// 333 10105 88925
AAXX 21181 33946 11597 82309 10044 20016 39922 40144 52023 60072 70186 885// 333 10096 88621
AAXX 21181 34300 NIL
AAXX 21181 34504 11497 72208 10042 20017 39881 40059 51006 60012 70286 87300 333 10078 85918
AAXX 21181 34519 11460 31905 10055 20034 39823 40096 52007 60082 70286 83600 333 10060
AAXX 21181 34601 11560 72310 10042 20024 39942 40078 52008 69952 70282 87500 333 10087 87624
AAXX 21181 38353 429// 80000 11176 21202 39502 40509 52001 8807/ 333 11150
AAXX 21181 38613 429// 80901 11076 21131 40412 53009 8802/ 333 11050
AAXX 21181 38616 NIL
AAXX 21181 38345 NIL
AAXX 21181 36911 NIL
AAXX 21181 36974 329// 70901 11165 21191 38036 48614 56002 80001 333 11118
AAXX 21181 36982 425// 50000 11191 21224 36634 47212 58002 82550 333 11151
AAXX 21184 47090 32668 22904 10019 21112 30161 40184 53003 81500 333 92012
AAXX 21184 47095 32565 42504 11022 21109 30032 40227 52012 84500
AAXX 21184 47097 329// /3206 11002 21091 30125 40224 53005
AAXX 21184 47098 329// /3209 11021 21104 30088 40227 52011
AAXX 21184 47099 329// /2911 11024 21127 30200 40238 52014
AAXX 21184 47100 41462 52716 11045 21097 39242 40186 55002 72277 85500
AAXX 21184 47102 32667 32913 11030 21117 30085 40271 52017 83500
AAXX 21184 47104 32665 12006 10019 21093 30080 40179 55002 81500
AAXX 21184 47106 329// /3203 10035 21073 30127 40177 55002
AAXX 21184 47112 32665 33414 11008 21087 30154 40241 52017 83500 333 92024
AAXX 21184 47114 31662 52907 10000 21092 30030 40217 52006 72272 85500
AAXX 21184 47119 32665 63409 10004 21058 30189 40232 52012 85500
AAXX 21184 47121 429// /2706 10005 21045 39908 40208 55003
AAXX 21184 47127 429// /2304 10005 21020 30076 40221 53001
AAXX 21184 47129 31562 63214 10019 21039 30211 40248 53013 72682 86500
AAXX 21184 47130 32965 02004 10031 21043 30119 40181 55004 333 92022
AAXX 21184 47131 41662 52702 10006 21017 30154 40226 52005 72272 85500
AAXX 21184 47135 329// /2714 10019 21033 39902 40206 55008
AAXX 21184 47136 32661 72909 10021 21020 30023 40198 55011 87500
AAXX 21184 47137 329// /2708 10026 21039 30082 40202 57009
AAXX 21184 47140 41665 63603 10019 20001 30209 40238 53004 72372 86500 333 92012
AAXX 21184 47143 31959 22906 10045 21076 30129 40209 57008 70511 80002
AAXX 21184 47145 32662 63206 10013 21032 30195 40222 53004 86500
AAXX 21184 47146 41568 82507 10019 21002 30167 40234 53002 76162 8572/
AAXX 21184 47150 41565 73206 10034 21058 30217 40236 53002 77072 87800
AAXX 21184 47152 31959 43602 10021 21042 30153 40196 57009 70500 80002
AAXX 21184 47154 329// /2907 10041 21056 30143 40204 57009
AAXX 21184 47155 31958 63603 10052 21070 30160 40206 57008 70522 80002
AAXX 21184 47156 41659 62904 10043 21021 30148 40238 55003 72162 85500
AAXX 21184 47157 32663 52908 10029 21052 39927 40200 57005 85500
AAXX 21184 47162 31957 60203 10044 21036 30169 40210 57007 70522 80002 333 92022
AAXX 21184 47169 32665 73421 10057 21014 30147 40242 55001 87500 333 92056
AAXX 21184 47170 31659 83209 10052 21057 30191 40235 56003 70522 8452/ 333 92023
AAXX 21184 47171 429// /3206 10032 21015 30186 40242 53005
AAXX 21184 47172 329// /2912 10044 21018 30168 40235 53002
AAXX 21184 47173 329// /3206 10029 21047 30117 40230 57008
AAXX 21184 47174 31615 83205 10032 21038 30016 40221 56007 70522 8352/
AAXX 21184 47175 32562 83216 10015 21047 39652 40236 55004 8252/ 333 92025
AAXX 21184 47185 32662 63226 10088 21008 30143 40234 50001 86500 333 92046
AAXX 21184 47188 32662 80203 10068 21016 30210 40232 53008 8452/ 333 92021
AAXX 21184 47189 32665 63604 10085 20000 30157 40217 53002 86500 333 92022
AAXX 21184 47192 31940 60702 11015 21033 30177 40216 55007 71022 80001
AAXX 21184 47101 32563 62506 11003 21092 30121 40219 52008 86500
AAXX 21184 47105 369// /2708 10024 21077 30148 40181 55001
AAXX 21184 47108 32662 62911 11015 21093 30124 40233 52014 86500
AAXX 21184 47115 32668 62504 10037 21060 39890 40164 56007 86500 333 92042
AAXX 21184 47133 41665 63204 10019 21005 30143 40230 53004 72272 85500
AAXX 21184 47138 32662 22509 10051 21039 30190 40193 57011 82500 333 92023
AAXX 21184 47159 31958 32906 10049 21069 30115 40201 56006 70510 80001 333 92022
AAXX 21184 47165 41665 63414 10047 21033 30194 40241 54000 72162 86500 333 92024
AAXX 21184 47168 32661 83207 10046 21057 30136 40216 57006 8252/ 333 92023
AAXX 21184 47184 32665 63211 10080 21029 30220 40245 51005 86500 333 92044
AAXX 21184 43533 11459 73407 10280 20229 30108 40111 60001 70522 82238 333 58007 82818 87276
AAXX 21184 43555 11459 82516 10264 20244 30112 40115 60061 72186 8322/ 333 58014 83817 88460
AAXX 21184 43577 11460 73603 10255 20243 30112 40114 60071 76166 8222/ 333 58006 82818 87462
AAXX 21184 43588 11462 73409 10272 20240 30104 40106 69911 70362 8327/ 333 59002 83818 87362
AAXX 21184 43599 12460 73205 10275 20240 30111 40113 60001 8327/ 333 58001 83817 87461
BBXX LAHV 21181 99589 10057 43/// /1202 10008 21005 40128 222// 04081 1////
BBXX LF4H 21184 99596 10022 46/98 11621 10058 20034 40061 57035 8//// 22200 06083 10603 70015 333 91126
BBXX LMEL 21181 99603 10053 43/// /1201 11004 21006 40105 5//// 222/0 04083 1//// 3//// 4//// 5////
AAXX 21184 43533 11459 73407 10280 20229 30108 40111 60001 70522 82238 333 58007 82818 87276
AAXX 21184 43555 11459 82516 10264 20244 30112 40115 60061 72186 8322/ 333 58014 83817 88460
AAXX 21184 43577 11460 73603 10255 20243 30112 40114 60071 76166 8222/ 333 58006 82818 87462
AAXX 21184 43588 11462 73409 10272 20240 30104 40106 69911 70362 8327/ 333 59002 83818 87362
AAXX 21184 43599 12460 73205 10275 20240 30111 40113 60001 8327/ 333 58001 83817 87461
AAXX 21184 16622 12560 83210 10072 20018 30147 40158 54000 60002 82457 333 10086 82625 85358 88268 90730 91117 555 10000 41006 30000 10064 2//// 30084 4//// 5//// 40000 47638 44195 50000 50050
AAXX 21184 16641 11460 80609 10080 20058 30051 40056 57014 60072 76166 8682/ 333 10092 83818 85630 88458 90730 91127 555 10000 40080 40000 47570 44215 50000 50070 60000 60068 60730 70000 77R// 7R///
AAXX 21184 16682 11457 81213 10106 20094 30058 40076 53002 60192 76196 85877 333 10136 82818 84625 86357 90730 91122 555 10000 40060 30000 10105 20110 30110 40112 50132 60180 40000 47575 44210 50000 50100 60000 60192 60330 70000 77R// 7TRV/
AAXX 21184 16716 11460 81212 10130 20078 30100 40119 56009 69902 76162 8582/ 333 10150 83818 84630 88458 555 10000 40098 40000 47602 44170 50000 50104 60000 65555 60035 70000 77R// 7R///
AAXX 21184 16734 NIL
AAXX 21184 16743 NIL
AAXX 21184 16749 12460 69902 10144 20098 30153 40167 52004 69952 84870 333 10162 82818 83625 86358 90730 91106 555 10000 40124 40000 47646 44210 50000 50120 60000 60005 60130
AAXX 21184 16754 11460 61615 10120 20105 30099 40147 53005 60022 76162 84850 333 10186 82818 83625 86358 90730 91118 555 10000 40106 40000 47606 44205 50000 50112 60000 60016 60050 70000 77R// 7R///
AAXX 21184 64570 12459 83104 10205 20200 39620 40134 60292 8352/ 333 10228 58012 83610 88461
AAXX 21183 64810 NIL
AAXX 21183 64820 32460 62408 10280 20252 30101 40110 82502 333 10300 58001 82613 86070
AAXX 21181 06414 16/// /2101 10071 20058 30157 40190 52017 60022 333 10071 91104 91203
AAXX 21181 06459 16/// /2302 10054 20054 30004 40199 52016 60022 333 10056 91104 91203
AAXX 21181 06494 16/// /1601 10003 20000 39385 40202 53014 69982 333 10003 4/026 91105 91204
AAXX 21184 16400 12497 43512 10096 20015 39832 40123 51014 60072 84100 333 10114 55300 84817 555 0658/
AAXX 21184 78016 11564 72609 10209 20149 30266 40270 56015 69901 70282 85808 333 10213 20178 79999 90940
AAXX 21184 87692 11556 81107 10214 20199 30038 40064 50005 69921 76062 8352/ 333 56669 83630 85545 96010 555 10062
BBXX 3FZK3 21184 99485 71286 46/// /3410 10075 20027 40302 51013 7//// 8//// 22233 0//// 2////
BBXX 46006 21181 99408 71375 46/// /1706 10122 40301 57008 91750 22200 00127 11204 20501 3//// 41204 70022 333 91207 555 11061 22065 31732 41607 61749 171059 169055 157059 154059 150053 139052
BBXX 46012 21181 99374 71229 46/// /3204 10104 40196 51010 91750 22200 00120 11407 20401 330// 41407 70033 333 91206 555 11044 22045 31728 43106 61749 322043 321045 317045 321041 318039 309036
BBXX 46014 21181 99394 71240 46/// /0402 10102 40214 52018 91750 22200 00108 11408 20401 3//// 41408 70040 333 91203 555 11015 22016 31707 41104 61749 037016 044019 056011 102008 098012 011009
BBXX 46026 21181 99378 71228 46/// /3603 10087 40200 51013 91750 22200 00108 11405 20401 329// 41405 70023 333 91204 555 11031 22032 31747 43504 61749 349028 344012 328015 337014 332016 326014
BBXX CG2958 21184 99517 71281 46/// /1204 10029 20015 40331 58006 7//// 8//// 22200 0//// 2////
BBXX CG2965 21184 99487 71235 46/// /3006 10038 20009 40342 51023 7//// 8//// 22200 0//// 2////
BBXX CGBR 21184 99526 71285 46/// /3002 10016 20015 40324 56011 7//// 8//// 22200 0//// 2////
BBXX CGBY 21184 99487 71235 46/// /3005 10033 20003 40340 51023 7//// 8//// 22200 0//// 2////
BBXX CGDR 21184 99489 71233 46/// /0406 10046 20038 40342 51025 7//// 8//// 22232 00105 2////
BBXX CGJK 21184 99484 71234 46/// /3604 10053 20015 40338 51021 7//// 8//// 22200 0//// 2////
BBXX DMRX 21184 99429 71253 41998 00323 10095 20039 40299 54000 70100 80000 22244 00110 20704 328// 41206 80068
AAXX 21181 26509 31/06 90000 11046 21052 30142 40151 52013 74944 333 11033 91000 91102 93603 555 53003
AAXX 21181 26518 31/08 90000 11040 21040 40151 52012 74942 333 11040 91001 91102 93506 555 4/014 53002
AAXX 21181 26524 32397 80000 11017 21019 30013 40149 52012 886// 333 11017 88708 91002 91103 93402 555 53003
AAXX 21181 26531 32461 80000 11009 21016 40144 52011 886// 333 11009 88710 91001 91103 555 53003
AAXX 21181 26629 31213 83501 11028 21028 30049 40148 52013 72842 886// 333 11028 88703 91003 91104 93503 555 53004
AAXX 21181 26633 32459 80102 11024 21034 30008 40142 52013 71022 886// 333 11021 88710 91003 91104 555 53004
AAXX 21181 26730 31124 70202 11041 21041 39944 40143 52014 71022 87600 333 11017 87702 91004 91105 555 53005
AAXX 21184 48331 31958 00000 10158 20147 39914 40153 57002 71000 333 59001
AAXX 21184 48375 32960 00000 10195 20167 39887 40117 57005 333 59010
AAXX 21181 14241 12965 81302 10003 21033 30039 40173 51011 60002 8807/ 333 10040
AAXX 21181 14284 12965 72102 11006 21017 30067 40180 52010 60002 87070 333 10011 42001
AAXX 21181 14307 32980 70701 10032 21016 30083 40161 52008 87010 333 10097
AAXX 21181 14317 NIL
AAXX 21181 14431 12970 21403 11009 21032 30056 40153 50005 60002 81030 333 10093
AAXX 21181 14444 33980 03402 10033 21075 30119 40149 52006 333 10114
AAXX 21181 14474 12980 00212 10043 21056 39923 40117 56006 60002 333 10085
AAXX 21184 08001 11462 8//// 10132 20124 30254 40336 53001 69932 70252 888// 333 10140 92427
AAXX 21184 08015 NIL
AAXX 21184 08023 11460 63015 10130 20117 30249 40321 53008 69982 70252 868// 333 10145
AAXX 21184 08027 11330 83218 10113 20113 39996 40309 53012 60032 75854 887// 333 10124
AAXX 21184 08045 02975 13506 10130 20105 30016 40327 53007 69902 80001 333 10154 60007
AAXX 21184 08141 11330 81002 10058 20054 39452 40331 53005 69902 71042 886// 333 10068
AAXX 21184 08160 12570 33119 10146 20081 39968 40275 53007 60002 82501 333 10164
AAXX 21184 08181 02565 63301 10112 20073 30204 40210 53005 60002 82872 333 10165 60007
AAXX 21184 08221 02980 13407 10110 20049 39603 40291 53010 60002 80001 333 10167 60007
AAXX 21184 08231 NIL
AAXX 21184 08261 12980 02205 10116 20085 39826 40311 52003 60002 333 10158
AAXX 21184 08284 02982 43011 10190 20047 30161 40235 53010 60002 82038 333 10216 60007
AAXX 21184 08306 12675 52810 10156 20095 30219 40225 53005 60002 81578 333 10178
AAXX 21184 08314 01461 72409 10127 20113 30111 40214 50000 60012 72162 8387/ 333 10136 69937
AAXX 21184 08430 12970 32704 10182 20064 30175 40249 53006 60002 80001 333 10219
AAXX 21184 08482 12982 12916 10190 20047 30243 40251 52010 60002 80001 333 10225
AAXX 21181 14240 11650 80901 10006 21020 30014 40174 52012 60002 71022 885// 333 10033
AAXX 21181 14258 12970 01501 11019 21033 39982 40178 52010 60002 333 10015 43006
AAXX 21181 14445 12970 00605 10070 21096 39985 40142 51003 60002 333 10083 92312
AAXX 21184 04005 21488 80512 11003 21044 49796 57152 78583 8422/ 333 11003 21054 69908 555 3/213
AAXX 21184 04018 21230 81619 10050 20043 49693 57044 75865 886// 333 10051 21028 60058 555 3//30 84704 88709
AAXX 21184 04030 21462 81417 10052 20028 49709 57035 76176 8552/ 333 10052 21009 69988 555 3//21 82710 85624 88530
AAXX 21184 04048 NIL
AAXX 21184 04063 21570 82001 11008 21030 49813 57043 78582 8572/ 333 11004 21023 69918 555 3//05
AAXX 21184 04077 NIL
AAXX 21184 04082 22980 73405 10030 20017 49805 57054 8150/ 333 10035 21005 60048 555 3//12 87250 81250
AAXX 21184 04097 21530 81514 10024 20011 49858 57034 76176 8572/ 333 10024 21005 60058 555 3/319
AAXX 21184 16643 11460 80616 10096 20052 30062 40067 57023 60152 70296 8672/ 333 10096 82710 84818 86630 90730 91129 555 10000 40070 40000 47577 44210 50000 50076 60000 60154 60520 70000 77/// 7TRY/
AAXX 21184 16648 11360 80000 10062 20033 30040 40131 58002 69952 76162 8572/ 333 10080 82708 85630 88457 90730 91108 555 10000 41010 30000 10070 2//// 30080 40076 5//// 6//// 40000 47561 44210 50000 50050 60000 60005 60130 70000 77R// 7R///
AAXX 21184 16650 12460 50000 10068 20040 30135 40139 50002 60002 82141 333 10126 82812 84358 90730 91104 555 10000 40064 30000 10078 20090 30096 40090 50124 60142 40000 47632 44220 50000 50056
AAXX 21184 16684 NIL
AAXX 21184 16732 11458 71508 10134 20095 30129 40140 57005 69952 76062 85870 333 10166 82818 85625 87358 90730 91116 555 10000 40112 40000 47622 44160 50000 50114 60000 60005 60035 70000 77R// 7R///
AAXX 21184 16614 11205 80000 10000 21007 39350 40149 58009 60032 77577 8762/ 333 10026 43002 84704 87618 88556 90730 91102 93102 555 10000 41042 60000 60026 60520 70000 77*F/ 7*F//
AAXX 21184 16627 12460 70305 10064 20036 30158 40162 52011 60002 82146 333 10100 82818 84358 86068 90730 91113 555 10000 40040 30000 10082 20080 30098 40102 50110 6//// 40000 47652 44245 50000 50052
AAXX 21184 16667 12565 32404 10094 20039 30153 40158 53002 60002 82140 333 10158 90730 91108 555 10000 40088 30000 20100 30114 40000 47643 44190 50000 50070
AAXX 21184 16675 NIL
AAXX 21184 16710 36/// /2203 10055 20045 39346 40122 57006 333 10081 90730 91110 555 10000 40012
AAXX 21184 16723 12560 39902 10120 20029 30145 40160 51002 60002 82101 333 10164 90730 91106 555 10000 40106 40000 47642 44230 50000 50080
AAXX 21184 16738 NIL
AAXX 21184 16746 12560 31405 10102 20086 39950 40134 57008 60012 81250 333 10156 81825 83358 90730 91106 555 10000 40102 40000 47493 44200 50000 50094 60000 60010 60115
AAXX 21183 04013 21/10 90718 10003 20000 49730 57069 78687 333 10007 21012 60088 555 3//18
AAXX 21183 04064 22384 80505 10025 49796 57031 70266 8802/ 333 10038 21015 60068 555 3//09
AAXX 21181 15502 12970 02701 11020 21035 30128 40169 53014 60002 333 10052 21020 555 589//
AAXX 21181 15525 12968 02303 11013 21035 39906 40181 53014 60002 333 10049 21013 555 585//
AAXX 21181 15528 12968 12302 11004 21022 39955 40151 52011 60002 81030 333 10045 21006 555 588//
AAXX 21181 15535 12970 02304 10015 21020 30112 40160 52015 69982 333 10030 20000 41997 555 578//
AAXX 21181 15549 12970 02704 11012 21034 39746 40176 52011 60002 333 10012 21013 47003 555 583//
AAXX 21181 15552 12970 02903 10018 21016 30113 40163 52012 69902 222// 314// 4//01 333 10045 20018 555 578// 92023 92428
AAXX 21181 15614 12660 60000 11015 21052 39447 40174 57002 60002 86800 333 10010 21018 555 573//
AAXX 21181 15615 11984 62306 11152 21176 37014 47941 52011 60002 70311 85026 333 11108 21162 555 582//
AAXX 21181 15626 12670 60000 10034 21036 39964 40156 52008 60002 83530 333 10075 20020 555 560//
AAXX 21181 15627 11989 32708 11117 21131 37525 47938 53008 60002 70300 82021 333 11098 21121 48006 555 589//
AAXX 21181 15640 12970 12902 10012 21029 39850 40171 52017 60002 81030 333 10080 20012 555 574//
AAXX 21181 15655 12970 00000 10042 20016 30123 40157 52006 60002 222// 00088 20000 333 10074 20034 555 583// 92012 92418
AAXX 21181 15712 12675 81402 10038 20004 39901 40156 53005 60002 86507 333 10083 21002 555 579//
AAXX 21181 15730 12670 80000 10031 21004 39758 40157 52010 60002 85517 333 10075 20013 555 578//
AAXX 21181 26645 32297 80501 11039 21051 39873 40141 52015 886// 333 11020 88705
AAXX 21181 26659 12460 83303 11018 21039 39901 40121 52010 69922 886// 333 11014 88712
AAXX 21181 26763 12460 83403 11026 21049 39868 40100 52008 69902 886// 333 11013 88719
AAXX 21181 26825 11950 63202 11022 21028 39948 40136 52014 69902 71072 86030 333 11002
AAXX 21181 26832 31259 80401 11022 21037 39938 40136 52012 71011 886// 333 11010 88705
AAXX 21181 26887 31396 83503 11015 21026 39872 40081 52008 71022 886// 333 10003 88709
AAXX 21181 26961 32460 73403 11015 21033 39913 40109 52008 875// 333 11015 87618
AAXX 21181 33027 32597 73201 11010 21026 39948 40119 52003 875// 333 11002
AAXX 21184 16337 12598 40823 10036 21004 39505 40085 52020 60002 84800 333 10048 82820 555 0////
BBXX BATUK01 21184 99577 70031 46/// /2317 10099 20062 40056 56010 22200 00074
AAXX 21184 60060 32458 12602 10170 20124 40262 55000 81500 333 10197 81616 95300
AAXX 21184 60106 32965 22403 10125 20076 40280 53003 80002 333 10184 82070
AAXX 21184 60210 32970 22002 10167 21040 39071 48595 53008 80002 333 10199 82070
AAXX 21184 60318 32965 32514 10172 20075 40260 58003 80002 333 10205 83070
AAXX 21184 78906 11474 72906 10300 20206 30131 40136 71522 85202 333 10303 20209 59006 70004 85816 86076
AAXX 21184 78905 11470 70506 10245 20219 30135 40158 69951 72522 87201 333 10291 20253 59001 70015 87814 90910
BBXX DCAX2 21183 99035 11641 41697 51006 10280 20237 40060 54000 7//11 85546 22233 20705 3//// 4//// 5//// 80250
BBXX SHIP 21184 99427 70314 41092 82039 10160 20154 40115 56015 76565 887// 22253 04150 20610 318// 40812 80156
AAXX 21181 14008 12499 43204 11123 21141 37411 47949 51007 60002 84070 333 11103 49110 92838 95100
AAXX 21181 14015 11450 70000 11007 21023 39813 40184 52012 60002 71022 86570 333 10000 81710 86635
AAXX 21181 14024 12499 73101 10012 21132 39050 48441 52010 60002 86570 333 10016 44021 86615 92825 95000
AAXX 21181 14026 12998 70000 11008 21033 39841 40172 51010 60002 87070 333 10043
AAXX 21181 14031 11596 72601 11001 21020 39936 40171 52010 60002 710// 84530 333 10022 84623
AAXX 21181 14105 12999 71102 10032 21033 30159 40164 52006 60002 87070 333 10083
AAXX 21181 14106 12999 70901 10011 21015 30091 40162 52004 60002 87070 333 10051 95000
AAXX 21181 14121 12998 81701 10005 21006 39897 40171 52011 60002 8807/ 333 10022 42003 92841
AAXX 21181 14122 12970 61701 10004 21015 39975 40178 52013 60002 86070 333 10037
AAXX 21181 12105 11458 81201 11003 21028 30101 40145 52027 69922 71072 885// 333 10000 21014 88694 93097
AAXX 21181 12195 11732 80403 11040 21041 39911 40147 52017 69902 71071 885// 333 11004 21051 91110 93097
AAXX 21181 12235 11630 50602 11033 21041 39926 40144 52025 69902 71081 85500 333 11016 21039 93097
AAXX 21181 12270 11327 80701 11022 21023 39952 40140 52018 60002 71022 886// 333 11018 21079 93000
AAXX 21181 12280 11522 80302 11016 21017 39983 40145 52017 69902 71072 885// 333 11008 21032 93097
AAXX 21181 12300 11340 83602 10005 20002 30045 40137 51024 60022 72377 876// 333 10005 21012 93093
AAXX 21181 12400 11230 83304 10002 20001 39898 40139 52022 60042 77176 877// 333 10009 21009 91109 93001
AAXX 21181 12435 11415 80502 11020 21030 39951 40128 52023 60012 77177 885// 333 11012 21034 93096
AAXX 21181 12495 11904 41302 11073 21077 39839 40147 51014 69922 74811 84030 333 11013 21083 93000
AAXX 21181 12530 11325 82902 10002 20002 39926 40130 52022 60022 77177 886// 333 10008 21038 88707 93001
AAXX 21181 12570 11220 81302 11024 21027 39801 40129 51011 69912 77182 885// 333 11022 21091 87705 88614 93091
AAXX 21181 12580 11840 50000 11028 21041 39870 40139 52013 60002 71011 82530 333 10012 21073 93000
BBXX TFBKF 21184 99635 70202 46/// ///// 22200 10607 70034
BBXX TFBLK 21184 99657 70248 46/// ///// 22200 10503 70015
BBXX TFDRN 21184 99658 70212 46/// ///// 22200 10402 70008
BBXX TFGRS 21184 99663 70182 46/// ///// 22200 10402 70012
BBXX TFGRV 21184 99638 70225 46/// ///// 22200 10809 70043
BBXX TFGSK 21184 99641 70229 46/// ///// 22200 10604 70019
BBXX TFHFN 21184 99642 70152 46/// ///// 22200 10604 70021
BBXX TFKGR 21184 99657 70136 46/// ///// 22200 10403 70016
BBXX TFSRT 21184 99633 70203 46/// ///// 22200 10707 70035
BBXX TFSTD 21184 99664 70234 46/// ///// 22200 10503 70015
AAXX 21181 01447 16/// /3102 11106 21120 39465 40173 53014 60002 333 11077 91104
AAXX 21181 26038 01270 81901 11011 21019 30105 40147 53006 60002 70222 886// 333 11003 21012 60007 88705 555 1/100 21012 3/100 51004 52101
AAXX 21181 26045 NIL
AAXX 21181 26058 NIL
AAXX 21181 26115 NIL
AAXX 21181 26135 NIL
AAXX 21181 26141 01137 83103 11021 21025 39994 40146 52006 60002 71042 886// 333 11013 21025 60007 88702 555 1/101 21025 3/101 51011 52102
AAXX 21181 26231 01056 83100 11009 21011 30134 40149 51008 60002 71042 886// 333 11007 21020 60007 88701 555 1/000 21020 3/100 51003
AAXX 21181 26242 01256 83402 11020 21030 30055 40144 52008 60002 71022 886// 333 11013 21022 60007 88704 555 1/101 21022 3/101 51014 52102
AAXX 21181 26247 NIL
AAXX 21184 06030 02570 12202 11016 21026 30129 40145 52014 6///2 81501 333 10040 21025 6///7 81620
AAXX 21184 06060 02575 12502 11011 21020 30084 40151 52020 6///2 81500 333 10039 21017 6///7 81625
AAXX 21184 06070 07/59 02604 10003 21010 30117 40148 52019 6///2 71000 333 10035 20003 6///7
AAXX 21184 06120 36964 12502 10000 21001 30124 40151 52023 333 10039 21006 81/68
AAXX 21184 06180 02562 81004 10027 20011 30133 40139 52025 69932 885// 333 10031 20015 6///7 85620 87642
AAXX 21184 06193 05465 51003 10021 20000 30127 40138 52022 69902 333 10029 20006 55300 20000 6///7 81/17 83/21 85/28
AAXX 21181 36911 429// 70000 11159 21186 39417 40483 54000 87010 333 11137
AAXX 21181 38345 32998 00901 11163 21205 38911 48571 57010 333 11112
AAXX 21184 17500 NIL
AAXX 21184 17501 12560 21606 10141 20052 30172 40191 52019 60002 82100 333 10189 82825 92427
AAXX 21184 17505 12560 21705 10129 20082 30088 40202 52015 60002 82100 333 10183 82825
AAXX 21184 17507 NIL
AAXX 21184 17510 12560 30000 10148 20088 30155 40165 51005 60002 82130 333 10198 82830 92417
AAXX 21184 17515 12560 20000 10136 20070 30034 40210 52012 60002 82100 333 10196 82825
AAXX 21184 17521 NIL
AAXX 21184 17530 11560 60000 10128 20105 30142 40199 52009 69972 72582 84850 333 10212 82625 83830 85360
AAXX 21184 17535 11560 61003 10143 20097 30144 40180 52011 69922 70282 84850 333 10202 82625 83830 85360
AAXX 21184 17540 NIL
AAXX 21184 17547 NIL
AAXX 21184 17550 11560 60000 10132 20105 30045 40191 52010 60022 72582 85850 333 10189 82625 83830 85360 92437
AAXX 21184 17572 12560 3//// 10149 20079 30179 40204 52012 60002 82130 333 10185 82830 92417
AAXX 21184 17024 12570 41907 10071 20043 30105 40183 52019 69942 84200 333 10129 84832 91122 92448
AAXX 21184 17056 12970 02903 10051 20050 30166 40170 52009 60002 333 10110 91110 92418
AAXX 21184 17067 12670 50701 10096 20060 30151 40173 53012 60002 85200 333 10142 85840 91113 92408
AAXX 21184 17092 12660 51316 10083 21056 38880 48514 52008 60002 83550 333 10126 83640 85360
AAXX 21184 17112 12970 50802 10075 20045 30154 40156 52006 60002 82072 333 10123 82360 85070 91112 92418
AAXX 21184 17115 12660 33605 10074 20047 30111 40163 52007 60002 83100 333 10137 83835
AAXX 21184 17116 12662 41701 10080 20049 30049 40171 52011 60002 84200 333 10145 84835 91115
AAXX 21184 17188 11660 61703 10060 20024 39110 40182 52012 69902 70282 84240 333 10075 84835 86360 91110
AAXX 21184 17202 12670 62903 10018 20004 39199 40253 50007 60002 84550 333 10069 84635 86360
AAXX 21184 17248 12675 23602 10050 20013 38978 48487 52014 60002 82100 333 10139 82840
AAXX 21184 17292 11670 50601 10066 20065 39421 40186 52008 60032 70182 83230 333 10110 83835 85360 91105
AAXX 21184 17300 12560 43605 10106 20078 30101 40173 52016 60002 84200 333 10178 84830
AAXX 21184 17310 12670 50602 10151 20096 30185 40192 52017 60042 82270 333 10188 82836 85360 91105 92438
AAXX 21184 17330 12670 50000 10125 20094 30175 40193 52013 60002 83250 333 10205 83840 85360
AAXX 21181 12120 11956 00000 11039 21047 30139 40147 51024 60002 71000 333 10007 21040 93000
AAXX 21181 12250 11229 80802 11038 21041 30049 40141 52025 60002 71022 886// 333 11004 21045 88705 93000
AAXX 21181 12295 11621 70000 11030 21030 39947 40138 51015 69902 71072 875// 333 11003 21033 93097
AAXX 21181 12330 11116 83402 11013 21014 30023 40135 52026 60032 77177 887// 333 11009 21018 88703 93001
AAXX 21181 12375 12560 71101 11025 21029 30001 40136 52016 60002 8653/ 333 11006 21032 93000
AAXX 21181 12424 11257 83004 10008 20004 39978 40134 52021 60032 76876 875// 333 10011 21012 84706 93001
AAXX 21184 17026 12570 73601 10102 20071 30156 40195 52024 60002 84570 333 10118 84628 87358 91111 92428
AAXX 21184 17034 12970 61401 10113 20066 30150 40195 51002 60002 86030 333 10220 86360 92428
AAXX 21184 17070 11565 70401 10053 20024 39305 40178 52011 69922 70262 84570 333 10091 84630 87360 91112
AAXX 21184 17084 12670 63601 10042 20013 39270 40189 52010 69922 83550 333 10114 83635 86360 91108
AAXX 21184 17090 12665 82502 10065 21019 38727 48500 52011 60002 8552/ 333 10101 85638 88460
AAXX 21184 17098 12960 00000 11121 21121 38241 48558 51005 60002 333 11013
AAXX 21184 17150 12660 33502 10057 20038 30043 40169 52008 60002 83100 333 10139 83835
AAXX 21184 17160 12670 52701 10047 20016 39012 48486 52010 60002 85500 333 10120 85640 91110
AAXX 21184 17184 12970 33502 10076 20056 30055 40168 53006 60002 83030 333 10139 83360 91105
AAXX 21184 17189 12670 53103 10047 20005 39012 48478 51008 60002 85200 333 10089 85835
AAXX 21184 17210 11920 03101 10072 21001 39187 40237 51006 60002 70511 333 10117
AAXX 21184 17234 11970 30702 10102 20077 30105 40174 51007 60022 70381 83030 333 10152 83360 91106
AAXX 21184 17260 12660 50205 10064 20016 39388 40218 50005 60002 83130 333 10122 83840 85360
AAXX 21184 17290 12570 61506 10146 20080 30138 40170 53005 60002 84250 333 10168 84830 86360 91112 92428
AAXX 21184 17370 12965 21306 10159 20037 30185 40189 52006 60002 80001 333 10185 82070 92437
AAXX 21184 17022 12560 79901 10084 20060 30019 40185 52011 60002 85270 333 10131 85830 87358 91109 92417
AAXX 21184 17031 11670 61603 10094 20083 30184 40190 52013 60012 70282 84230 333 10196 84836 86360
AAXX 21184 17038 12670 63012 10121 20074 30137 40187 52025 60002 81130 333 10218 81835 86360 92428
AAXX 21184 17050 12670 60102 10042 20019 30105 40169 53011 60002 84570 333 10073 84635 86360 91107
AAXX 21184 17060 12660 40303 10095 20024 30130 40170 52010 60012 82130 333 10114 82835 84360
AAXX 21184 17096 12570 51205 11017 21069 38267 48539 51005 60002 83550 333 10022 83630 85358
AAXX 21184 17124 12660 61701 10045 20021 39257 40184 52014 60002 83240 333 10102 83840 85360
AAXX 21184 17128 12670 43602 10028 20005 39078 40189 52009 60002 83130 333 10098 83840 83360
AAXX 21184 17170 NIL
AAXX 21184 17195 12670 63502 10078 20020 38970 48494 52013 60002 83150 333 10147 83842 86360
AAXX 21184 17199 11558 80000 10033 20008 39122 40243 52008 60002 71022 8562/ 333 10054 82720 84635 88459
AAXX 21184 17219 12565 62104 10084 20070 30016 40162 51007 69962 83250 333 10132 83830 86360
AAXX 21184 17240 12570 31504 10072 20016 39028 40178 52012 60002 83200 333 10103 83830 91111
AAXX 21184 17244 12670 41804 10040 21011 38991 48488 52016 60002 82530 333 10132 82635 84360
AAXX 21184 17280 11657 41801 10024 20013 39434 40255 52007 60002 71022 82550 333 10038 82640 84360
AAXX 21184 17350 12660 50505 10122 20095 30108 40187 52006 60002 83150 333 10190 83835 85360
AAXX 21184 17042 12670 51208 10132 20084 30148 40187 52044 60002 83250 333 10224 83835 85360 92438
AAXX 21184 17074 12662 31902 10016 20001 39244 40191 52018 60002 83500 333 10100 83633 91114
AAXX 21184 17086 11670 71001 10086 20053 39456 40167 52013 69962 72162 85570 333 10159 85635 87360
AAXX 21184 17088 12670 81306 10086 21061 38802 48505 52012 60002 8452/ 333 10133 84640 88460
AAXX 21184 17140 12665 63601 10033 20011 38694 48482 52009 60012 86200 333 10082 86838
AAXX 21184 17155 12670 11901 10052 20013 39049 40176 52010 60002 81500 333 10086 81640 91114
AAXX 21184 17203 12670 50000 10014 21045 38927 48569 52010 60002 83150 333 10059 83840 85360
AAXX 21184 17237 11670 73101 10092 20058 39670 40176 51012 69922 70282 85270 333 10125 85835 87358 91106
AAXX 21184 17250 12675 62201 10070 20001 38806 48502 52016 60002 83550 333 10121 83640 86360
AAXX 21184 17270 12670 52201 10097 20014 39565 40218 51008 60002 83250 333 10142 83840 85360
AAXX 21184 17295 12560 60705 10107 20088 30173 40180 52007 60022 83250 333 10158 83830 85360
AAXX 21184 17320 12670 63302 10136 20102 30185 40190 52015 69922 83270 333 10196 83840 86360 92438
AAXX 21184 17375 12670 23601 10115 20076 30177 40179 52020 60002 82200 333 10189 82833 91118 92448
AAXX 21181 12160 12460 80702 11007 21031 30092 40146 52019 60002 885// 333 10005 21036 93000
AAXX 21181 12205 11224 80000 10009 20009 30130 40138 52023 60032 71076 886// 333 10011 21006 93093
AAXX 21181 12465 11522 81002 11024 21030 39887 40128 52018 69922 77172 885// 333 11024 21082 93092
AAXX 21181 12566 11314 82201 11017 21018 39824 40127 51010 60012 77177 877// 333 11017 21107 87709 93001
AAXX 21184 06011 07256 72534 10094 20085 39822 49889 57008 60172 78186 333 10100 20018 55300 20000 60067 81/05 83/07 85/09 87/14 91045 91145
AAXX 21181 26115 01570 10100 11004 21019 30130 40139 52012 69932 70200 81500 333 10037 21004 60007 81627 555 1/100 21004 3/101 50029
AAXX 21181 26106 32997 60000 10002 21019 40149 52009 86030 333 10012
AAXX 21181 26313 319// 00000 11036 21039 40153 52011 71000 333 11008
AAXX 21181 26346 32497 83602 11019 21027 40138 52010 886// 333 11019 88711
AAXX 21181 26406 31294 80901 11041 21046 40153 52014 71042 886// 333 10036 88706 93501
AAXX 21181 26416 33/// /0000 11021 21027 40155 52012 333 11021
AAXX 21181 26424 31497 80000 11009 21014 40149 52011 71022 8655/ 333 11009 86616 93400
AAXX 21181 26544 31496 83501 11024 21033 40138 52010 71022 886// 333 11024
AAXX 21181 13160 11696 82302 11006 21017 30062 40175 53004 69922 71072 885// 333 11005 4/006 93197
AAXX 21181 13262 32697 80000 10008 21024 30032 40185 52012 8357/ 333 10036
AAXX 21181 13272 32760 71801 10014 21041 30058 40181 52009 87500 333 10033 87650
AAXX 21181 13285 32997 00402 11019 21029 30076 40183 52011 333 10029
AAXX 21181 13289 32998 03107 11083 21096 38927 48417 51010 333 11049 4/007 91115
AAXX 21181 13376 31994 02401 11034 21048 39921 40195 52012 71040 333 10022 4/005
AAXX 21181 13388 32997 00000 11020 21032 39927 40185 53008 333 10035
AAXX 21181 13462 32960 33505 10052 21043 30085 40125 53001 82031 333 10086 82360
AAXX 21181 13473 NIL
AAXX 21181 13489 31996 00102 11012 21022 39644 40181 53007 71000 333 10035
AAXX 21184 71925 11474 63115 11304 21347 30104 40147 55001 69901 77677 81670 333 11301 21326 42021 79999 90983
AAXX 21184 71950 15964 01302 11100 21107 39672 40325 55002 60001 333 11032 21113 70000
AAXX 21184 71952 16/// /0000 11170 21186 39443 40341 51004 60001 333 11110 21198 70000
AAXX 21184 71954 46/// /3407 11093 21121 39772 40157 51028 6///1 333 11085 21109 7////
AAXX 21184 71956 NIL
AAXX 21184 71959 NIL
AAXX 21184 71960 460// /1011 11250 39909 40047 56028 6///1 333 11243 21302 7////
AAXX 21184 71962 16/// /3310 11017 21076 39655 40078 51027 60001 333 10000 21026 70033
AAXX 21184 71963 NIL
AAXX 21184 71967 16/// /0303 11005 21022 30004 40111 56037 60001 333 11003 21115 70000
AAXX 21184 71970 NIL
AAXX 21184 71971 NIL
AAXX 21184 71972 460// ///// 11136 39394 49855 56014 6///1 333 11121 21160 7////
AAXX 21184 71973 46/// /2205 11033 21068 39963 40154 56015 6///1 333 11032 21072 7////
AAXX 21184 71974 NIL
AAXX 21184 71975 460// /0718 11177 39179 49910 57013 6///1 333 11177 21192 7////
AAXX 21184 71976 NIL
AAXX 21184 71977 NIL
AAXX 21184 71978 NIL
AAXX 21184 71979 NIL
AAXX 21184 71980 NIL
AAXX 21184 71981 NIL
AAXX 21184 71982 NIL
AAXX 21184 71983 NIL
AAXX 21184 71984 16/// /1107 11172 21204 30068 40076 56025 60001 333 11163 21288 70000
AAXX 21184 71985 NIL
AAXX 21184 71986 NIL
AAXX 21184 71987 16/// /2214 10008 21035 30135 40145 56029 60001 333 10014 21092 70000
AAXX 21184 71988 NIL
AAXX 21184 71989 NIL
AAXX 21184 71990 NIL
AAXX 21184 71999 46/// ///// 11020 6///1 333 10071 21030 7////
AAXX 21184 71120 11574 82905 11036 21063 39550 40220 52016 69901 78582 8757/ 333 11036 21066 79999 90916
AAXX 21184 71816 11674 31902 11124 21177 39995 40058 56018 69901 70381 81570 333 11121 21223 47050 70012 90940
AAXX 21184 71817 12974 52212 11079 21147 30070 40083 57017 60001 85040 333 70000
AAXX 21184 71818 12974 72118 11119 21142 30032 40050 56028 60001 81048 333 11096 21159 70000
AAXX 21184 71822 11440 82108 11041 21051 39562 40039 58019 60031 77177 887// 333 11040 21148 47041 70026 90993 93103
AAXX 21184 71825 11566 52310 11104 21135 39350 40036 56008 69981 78572 85500 333 11101 21235 47086 70022 90957 93101
AAXX 21184 71827 11432 83308 11115 21124 39751 49996 53010 60021 77177 885// 333 11038 21115 47020 70060 90983 93102
AAXX 21184 71828 17420 92316 11094 21117 39326 49973 52002 60011 74544 333 11093 21247 70010
AAXX 21184 71831 11574 82206 10000 21014 39739 40018 50003 69901 70272 885// 333 10002 21031 48039 70008 90933
AAXX 21184 71832 NIL
AAXX 21184 71834 12374 82305 11017 21037 39601 40028 51010 60001 886// 333 11014 21041 70034
AAXX 21184 71841 NIL
AAXX 21184 71842 11366 83108 11027 21038 39590 40060 52015 69921 77177 887// 333 11012 21033 47010 70020 90973
AAXX 21184 71844 16964 03107 11197 21235 39826 40113 51011 60001 333 11097 21256 70005
AAXX 21184 71845 11358 83606 11117 21133 39598 40079 51028 69901 77175 885// 333 11033 21117 44018 70030 90973
AAXX 21184 71850 11474 63509 11040 21082 39589 40091 51028 69901 77122 86501 333 11010 21041 48007 79999 90931
AAXX 21184 71852 17464 83415 11037 21079 39837 40135 51031 60001 745// 333 11029 21074 70000
AAXX 21184 71854 11461 83305 11064 21100 39617 40094 51027 69921 77177 885// 333 11021 21065 48016 70044 90993
AAXX 21184 71858 NIL
AAXX 21184 71861 NIL
AAXX 21184 71862 11574 63411 11034 21072 39471 40181 51039 69901 70372 82501 333 11002 21067 41002 79999 90941
AAXX 21184 71863 46364 63413 11092 21125 39492 40206 51036 6///1 333 11012 21098 7////
AAXX 21184 71397 12574 81906 10014 21022 30157 40192 56036 60001 885// 333 10018 21108 70000
AAXX 21184 71400 16/64 /2405 11040 21083 60001 333 11036 21099 70006
AAXX 21184 71403 46/// /2220 10020 21026 30189 40209 56030 6///1 333 10024 21077 7////
AAXX 21184 71411 NIL
AAXX 21184 71412 16/// /2215 11007 21055 30170 40180 56029 60001 333 11005 21098 70000
AAXX 21184 71421 NIL
AAXX 21184 71430 16/// /1717 10067 20061 39944 40040 58045 60001 333 10067 21020 70000
AAXX 21184 71431 16/// /0404 10054 20048 39936 40031 56043 60001 333 10054 21029 70000
AAXX 21184 71432 NIL
AAXX 21184 71433 NIL
AAXX 21184 71435 NIL
AAXX 21184 71441 46/// /3618 11021 21063 39813 40124 51027 6///1 333 11008 21034 7////
AAXX 21184 71443 16/// /3108 11053 21086 39735 40152 51018 60001 333 11015 21074 70000
AAXX 21184 71444 NIL
AAXX 21184 71447 16/// /3313 11027 21063 39603 40153 51027 60001 333 11011 21081 70000
AAXX 21184 71467 16/// /1305 11231 21252 39970 40088 57020 60001 333 11230 21263 70000 555 10010
AAXX 21184 71472 NIL
AAXX 21184 71474 16964 03002 11038 21110 39066 40335 51015 60001 333 11015 21091 7////
AAXX 21184 71510 NIL
AAXX 21184 71538 11256 82517 10098 20095 39783 40010 56027 60011 78064 887// 333 10105 20011 70020 90917
AAXX 21184 71600 16564 32414 10027 21034 30230 40236 56019 60001 333 10031 21021 70010
AAXX 21184 71601 NIL
AAXX 21184 71700 17420 83502 11062 21076 30137 40163 56031 60001 771// 333 11062 21165 70000
AAXX 21184 71701 11424 80000 11058 21081 30099 40163 57029 69901 77181 885// 333 11058 21164 45997 79999 90931
AAXX 21184 71702 16/// /2216 10013 21029 30140 40155 56034 60001 333 10014 21115 70000 555 10020
AAXX 21184 71703 12574 81906 11051 21084 39829 40134 57029 60001 885// 333 11049 21169 70000
AAXX 21184 71704 17112 83106 10069 20069 39786 40004 56038 60041 7104/ 333 10071 21002 70038
AAXX 21184 71710 17/// /2314 11009 21064 30153 40163 56024 60011 7//4/ 333 11009 21057 70010
AAXX 21184 71712 16/// /0506 11005 21015 30018 40080 56042 60001 333 11002 21107 70000
AAXX 21184 71713 NIL
AAXX 21184 71716 NIL
AAXX 21184 71717 NIL
AAXX 21184 71720 16/// /0000 10020 20000 30193 40350 53026 60001 333 10040 21024 70000
AAXX 21184 71721 16/// /1701 11028 21042 39824 40073 58031 60001 333 11028 21115 70000
AAXX 21184 71723 16/// /0506 11044 21075 30098 40108 56036 60001 333 11044 21118 70000
AAXX 21184 71724 NIL
AAXX 21184 71732 NIL
AAXX 21184 71733 16/// /1908 10008 21034 39612 40037 58026 60001 333 10009 21069 70000
AAXX 21184 71734 NIL
AAXX 21184 71736 NIL
AAXX 21184 71737 NIL
AAXX 21184 71741 16/// /2207 10021 21075 39913 40344 53026 60001 333 10044 21025 70000
AAXX 21184 71742 NIL
AAXX 21184 71743 NIL
AAXX 21184 71744 NIL
AAXX 21184 71745 NIL
AAXX 21184 71746 NIL
AAXX 21184 71747 NIL
AAXX 21184 71748 NIL
AAXX 21184 71043 12683 31006 11177 21219 39963 40059 58036 60001 81531 333 11174 21240 70000
AAXX 21184 71045 16/// /1609 11031 21083 39300 40182 57020 60001 333 11030 21192 70000 555 10040
AAXX 21184 71050 46/// /0000 11148 21165 39239 40368 51011 6///1 333 11066 21172 7////
AAXX 21184 71051 NIL
AAXX 21184 71052 NIL
AAXX 21184 71066 12974 72910 11039 21111 39756 40182 53004 60001 80001 333 11036 21189 70000
AAXX 21184 71068 12974 73713 11044 21082 39521 40226 53001 60001 80002 333 11023 21089 70002
AAXX 21184 71069 16964 02610 11028 21054 39509 40225 50001 60001 333 11019 21051 70020
AAXX 21184 71076 16/// /0000 11247 21272 39797 40209 52016 60001 333 11146 21281 70000 555 10040
AAXX 21184 71077 16/// /3108 11115 21141 39666 40223 51019 60001 333 11084 21132 70000
AAXX 21184 71079 NIL
AAXX 21184 71081 46959 03313 11326 21370 39972 49984 51006 6///1 333 11233 21327 7////
AAXX 21184 71082 NIL
AAXX 21184 71083 11912 53220 11318 21358 39991 40035 51017 69901 77673 80002 333 11317 21339 48054 79999 90983
AAXX 21184 71090 46464 83216 11185 21220 39941 49976 53003 6///1 333 11183 7////
AAXX 21184 71091 460// /0511 11269 39743 49958 53002 6///1 333 7////
AAXX 21184 71092 46964 00714 11244 39273 49952 57003 6///1 333 11244 21266 7////
AAXX 21184 71093 460// /0308 11207 39452 49954 55000 6///1 333 11202 21213 7////
AAXX 21184 71094 46002 /0302 11200 39008 49910 58004 6///1 333 11180 21200 7////
AAXX 21184 71095 46864 60703 11226 21261 39921 40003 58003 6///1 333 11220 21266 7////
AAXX 21184 71101 160// /1704 30271 56015 60001 333 70000
AAXX 21184 71104 12974 20000 11103 21126 39198 40349 52014 60001 80001 333 11028 21151 70000
AAXX 21184 71108 12583 20307 10018 20006 30272 40347 53026 60001 81601 333 10018 21024 79999
AAXX 21184 71109 12480 81203 10008 21006 30305 40332 50004 60001 82504 333 10038 21007 70000
AAXX 21184 71603 11469 81814 10046 20021 30139 40193 57027 69901 78022 885// 333 10046 21083 79999 90921
AAXX 21184 71607 16/// /0000 11005 21010 30120 40153 57039 60001 333 11005 21155 70000
AAXX 21184 71609 11459 81914 10020 21002 30031 40168 58032 69981 76111 885// 333 10034 21144 70008 90921
AAXX 21184 71610 15666 80502 10005 21024 39805 40106 58039 60001 333 10005 21144 70000
AAXX 21184 71621 11232 81003 10044 20042 39930 40036 58054 69961 76162 887// 333 10045 21049 70006 90916
AAXX 21184 71623 NIL
AAXX 21184 71624 11008 80604 10039 20039 39819 40030 57046 69941 74465 887// 333 10040 21033 70004 90931
AAXX 21184 71625 161// 8//// 11027 21032 39906 40068 56031 60001 333 11026 21066 70000
AAXX 21184 71627 11361 80310 11035 21067 30044 40089 58044 69901 70272 885// 333 11031 21085 79999 90921
AAXX 21184 71628 11260 80707 11033 21043 39931 40074 57041 69941 72472 88500 333 11032 21115 70004 909/6
AAXX 21184 71630 NIL
AAXX 21184 71631 17/// /1303 10032 20028 39522 40018 58040 60021 7//4/ 333 10032 21027 70015
AAXX 21184 71633 11358 80000 10037 20027 39764 40034 58027 60001 71022 886// 333 10039 21022 79999
AAXX 21184 71705 12474 81914 10021 21019 30070 40159 56036 60001 885// 333 10023 21124 70000
AAXX 21184 71706 12574 52215 10003 21046 30118 40180 56030 60001 81151 333 10003 21109 79999
AAXX 21184 71707 12574 72510 11029 21113 30126 40204 56009 60001 81152 333 11029 21074 44004 70002
AAXX 21184 71709 12580 72215 11008 21066 30152 40166 57023 60001 87170 333 11008 21057 70022
AAXX 21184 71711 NIL
AAXX 21184 71714 16/// /1601 11043 21099 30039 40133 56036 60001 333 11042 21207 70000
AAXX 21184 71715 16/// /2504 11025 21082 39928 40112 58009 60001 333 11019 21121 70000
AAXX 21184 71718 12574 72010 11026 21095 30039 40105 58022 69991 81571 333 11024 21062 79999
AAXX 21184 71719 16/// /2210 11036 21106 30133 40139 56026 60001 333 11036 21099 70000 555 10010
AAXX 21184 71300 NIL
AAXX 21184 71301 NIL
AAXX 21184 71302 16/// /1707 11080 21096 39485 40329 53014 60001 333 11006 21102 70000
AAXX 21184 71303 46/// ///// 10089 20070 6///1 333 10122 20030 7////
AAXX 21184 71305 15466 80902 11165 21186 39905 40207 51007 60001 333 11141 21230 70000
AAXX 21184 71306 17210 82923 11170 21192 39910 49942 51034 60001 771// 333 11078 21173 70000
AAXX 21184 71307 NIL
AAXX 21184 71308 16/// /2109 10000 21094 30118 40204 56027 60001 333 10002 7////
AAXX 21184 71309 NIL
AAXX 21184 71310 16/// /2011 11004 21057 30139 40177 56028 60001 333 11004 21106 70000
AAXX 21184 71311 NIL
AAXX 21184 71312 NIL
AAXX 21184 71314 16/// /1003 10021 20014 39682 40032 58038 60001 333 10022 21042 70000 555 10010
AAXX 21184 71315 17/// /0903 11077 21115 30084 40139 56025 69931 7//4/ 333 11071 21145 70003
AAXX 21184 71316 16/// /2809 11032 21070 39520 40217 51011 60001 333 11027 21054 70004
AAXX 21184 71317 NIL
AAXX 21184 71318 16/// /2910 11033 21046 39286 40249 51023 60001 333 10000 21060 70003 555 10010
AAXX 21184 71319 16/// /2405 11053 21069 39218 40093 56019 60001 333 11052 21163 70000
AAXX 21184 71320 16/// /3212 11327 21358 39976 49976 51006 60001 333 11230 21327 70000
AAXX 21184 71321 NIL
AAXX 21184 71322 NIL
AAXX 21184 71323 NIL
AAXX 21184 71331 16/// /3405 11103 21143 60001 333 11093 21116 70000
AAXX 21184 71332 NIL
AAXX 21184 71334 NIL
AAXX 21184 71335 46964 02215 11129 56018 6///1 333 11112 21184 7////
AAXX 21184 71336 46/// ///14 11021 21060 30122 40145 53021 6///1 333 11010 21038 7////
AAXX 21184 71337 46/// /2407 11052 21084 39887 40128 58001 6///1 333 11038 21074 7////
AAXX 21184 71338 46564 81805 11248 21293 39958 49965 56004 6///1 333 21301 7////
AAXX 21184 71339 16964 02313 11080 21144 30070 40085 56016 60001 333 11075 70000
AAXX 21184 71340 NIL
AAXX 21184 71341 NIL
AAXX 21184 71342 NIL
AAXX 21184 71343 NIL
AAXX 21184 71344 NIL
AAXX 21184 71345 NIL
AAXX 21184 71346 NIL
AAXX 21184 71347 NIL
AAXX 21184 71348 NIL
AAXX 21184 71349 NIL
AAXX 21184 71114 160// /1109 10020 20002 30309 40358 53027 60001 333 10038 20017 70025
AAXX 21184 71120 11674 82905 11036 21063 39550 40220 52016 69901 78582 8757/ 333 11036 21066 79999 90916
AAXX 21184 71122 16/// /2203 11068 21102 38637 40282 51020 60001 333 21114 7////
AAXX 21184 71123 11674 12709 11050 21085 39376 40260 50021 69901 70287 81570 333 11002 21058 44007 70023 90937
AAXX 21184 71125 11274 82807 11050 21066 39616 40217 51018 69901 77111 888// 333 45997 79999 90910
AAXX 21184 71129 12774 83006 11044 21072 39394 40242 51029 60001 8257/ 333 11010 21072 70000
AAXX 21184 71131 16/// /3614 11079 21091 38943 40222 51046 60001 333 11008 21079 70035
AAXX 21184 71135 17/// /3612 11080 21114 39105 40209 51044 69981 7//4/ 333 10001 21082 70008 555 10030
AAXX 21184 71137 NIL
AAXX 21184 71140 11474 82707 11037 21046 39644 40153 5/029 69901 77122 85// 333 11035 21093 43002 79999 90910
AAXX 21184 71145 11474 42904 11184 21213 39834 40138 51017 69901 72277 83501 333 11112 21188 48041 79999 90976
AAXX 21184 71148 NIL
AAXX 21184 71185 16564 62417 11029 30104 40128 57012 60001 333 11028 21058 70005
AAXX 21184 71188 12574 83104 11040 21130 30075 40119 57024 60001 82571 333 11039 21138 79999
AAXX 21184 71200 16/// /3607 10045 20009 60001 333 10054 20016 70000
AAXX 21184 71207 16/// /3202 11005 21005 30287 40353 53030 60001 333 10009 21028 7////
AAXX 21184 71260 13/// ///// 10031 21025 39802 40037 58018 60001 333 10034 21073 70000
AAXX 21184 71401 16/// /0101 11047 21059 39616 40321 53032 60001 333 11025 21052 70008
AAXX 21184 71402 NIL
AAXX 21184 71404 NIL
AAXX 21184 71405 NIL
AAXX 21184 71406 NIL
AAXX 21184 71407 NIL
AAXX 21184 71408 NIL
AAXX 21184 71409 NIL
AAXX 21184 71410 17564 82304 11138 21167 39859 40146 52015 60001 771// 333 11091 21151 70000
AAXX 21184 71413 NIL
AAXX 21184 71414 NIL
AAXX 21184 71415 16/// /2213 10007 21057 30183 40186 56029 60001 333 10011 21101 70000
AAXX 21184 71417 NIL
AAXX 21184 71418 NIL
AAXX 21184 71419 46/// /2217 10009 21043 30199 40209 56023 6///1 333 10009 21081 7////
AAXX 21184 71423 NIL
AAXX 21184 71424 46/// /2603 6///1 333 7////
AAXX 21184 71425 NIL
AAXX 21184 71426 NIL
AAXX 21184 71427 16/// /2324 11019 21048 30088 40096 56020 60001 333 11018 21130 70000
AAXX 21184 71428 16/// /2207 11022 21114 30094 40100 56024 60001 333 11022 21103 70000
AAXX 21184 71429 16/// /2415 11040 21090 30100 40120 56026 60001 333 11037 21128 70000
AAXX 21184 71434 NIL
AAXX 21184 71436 17116 82901 10015 20014 39812 40047 58041 69931 7104/ 333 10015 21060 70003
AAXX 21184 71437 46/// /3304 10036 20025 39928 40023 56048 6///1 333 10040 21013 7////
AAXX 21184 71438 NIL
AAXX 21184 71439 NIL
AAXX 21184 71440 NIL
AAXX 21184 71442 16/// /3409 11071 21091 39821 40140 51025 60001 333 11014 21071 70000
AAXX 21184 71445 NIL
AAXX 21184 71446 NIL
AAXX 21184 71448 16/// /3311 11046 21077 39782 40114 51030 60001 333 10006 21046 70000
AAXX 21184 71449 NIL
AAXX 21184 71812 46208 83221 11317 21361 30076 40090 5/017 6///1 333 11311 7////
AAXX 21184 71819 17566 62617 11064 21093 30067 40109 56006 60001 771// 333 11063 21148 70000
AAXX 21184 71820 17/// /1507 10054 20047 39941 40054 58040 60011 7//4/ 333 10056 21067 70010 555 10010
AAXX 21184 71823 17550 82312 11034 21047 39594 49973 52002 69951 74544 333 11031 21166 70030
AAXX 21184 71824 NIL
AAXX 21184 71826 16/// /0807 11158 21230 39880 49923 56009 60001 333 11151 21197 70000
AAXX 21184 71829 16/// /2205 11042 21107 39929 40093 56022 60001 333 11042 21147 70000
AAXX 21184 71833 46/// /0904 10026 20026 6///1 333 10026 21038 7////
AAXX 21184 71835 16/// /0307 11114 21132 39589 40074 51029 60001 333 11033 21115 70010 555 10020
AAXX 21184 71837 NIL
AAXX 21184 71839 NIL
AAXX 21184 71840 NIL
AAXX 21184 71846 NIL
AAXX 21184 71847 NIL
AAXX 21184 71848 NIL
AAXX 21184 71849 16/// /3415 11039 21078 39836 40138 51031 60001 333 11031 21074 70000
AAXX 21184 71051 NIL
AAXX 21184 71055 NIL
AAXX 21184 71057 NIL
AAXX 21184 71059 460// ///// 11241 30012 40106 58017 6///1 333 11213 21284 7////
AAXX 21184 71061 16/// /2408 11043 21072 39443 40240 51012 60001 333 11008 21059 70007 555 10010
AAXX 21184 71062 46/// /2608 11045 21082 39154 40245 51012 6///1 333 11012 21068 7////
AAXX 21184 71064 460// /2808 11298 39929 40157 56005 6///1 333 11297 21332 7////
AAXX 21184 71065 NIL
AAXX 21184 71067 NIL
AAXX 21184 71070 NIL
AAXX 21184 71073 NIL
AAXX 21184 71074 NIL
AAXX 21184 71075 NIL
AAXX 21184 71078 17466 83511 11174 21208 39702 40162 51034 60001 771// 333 11160 21174 70000
AAXX 21184 71084 460// ///// 11314 30057 40107 53010 6///1 333 11306 21315 7////
AAXX 21184 71085 15966 11505 11028 21079 38877 40288 51035 60001 333 11003 21055 70000
AAXX 21184 71087 NIL
AAXX 21184 71088 460// /3205 11238 55001 6///1 333 11238 21305 7////
AAXX 21184 71089 NIL
AAXX 21184 71096 460// ///// 11238 39206 49950 56003 6///1 333 11213 21242 7////
AAXX 21184 71097 47002 01222 11130 39394 49866 56030 6///1 745// 333 11130 21158 7////
AAXX 21184 71098 43/// /3404 11151 21168 39749 40115 51016 6///1 333 11033 21153 7////
AAXX 21184 71099 43/// /2809 11225 21273 30069 40090 51013 6///1 333 11180 21261 7////
AAXX 21184 71150 NIL
AAXX 21184 71151 NIL
AAXX 21184 71152 16/// /3007 11013 21059 30167 40180 58009 60001 333 11012 21059 70000
AAXX 21184 71153 17/// /3511 11038 21063 69931 7//4/ 333 11004 21043 70003
AAXX 21184 71154 17/// /0205 11040 21091 69981 7//4/ 333 10002 21051 70008
AAXX 21184 71155 NIL
AAXX 21184 71156 NIL
AAXX 21184 71157 NIL
AAXX 21184 71158 NIL
AAXX 21184 71159 NIL
AAXX 21184 71160 NIL
AAXX 21184 71161 17/// /0603 10011 20004 39906 40055 58044 69931 7//4/ 333 10013 21102 70003
AAXX 21184 71162 NIL
AAXX 21184 71163 46/// /1103 11231 21252 39810 40173 58004 6///1 333 11230 21323 7////
AAXX 21184 71164 NIL
AAXX 21184 71165 NIL
AAXX 21184 71166 NIL
AAXX 21184 71167 15966 01501 11052 21074 39146 40268 50006 60001 333 11016 21097 70003
AAXX 21184 71168 16/// /3507 10003 21055 39489 40084 50021 60001 333 10006 21101 70000
AAXX 21184 71170 NIL
AAXX 21184 71171 17/// /3005 10048 20044 39922 40018 56040 60031 7//4/ 333 10059 20007 70030
AAXX 21184 71172 16/// ///// 10018 20008 39814 40030 58030 60001 333 10018 21043 70000
AAXX 21184 71175 NIL
AAXX 21184 71176 460// /2112 11145 39170 49852 56015 6///1 333 11144 21212 7////
AAXX 21184 71177 460// /2317 11173 38895 49910 56014 6///1 333 11144 21200 7////
AAXX 21184 71178 16/// /2617 11024 21068 30120 40152 53011 60001 333 11010 21039 70049
AAXX 21184 71179 460// ///// 11195 39146 49989 56019 6///1 333 11163 21216 7////
AAXX 21184 71180 16/// /2216 11015 21059 30148 40188 55010 60001 333 11010 21046 70007
AAXX 21184 71181 17564 62818 11019 21075 30131 40168 53008 60001 745// 333 11015 21045 70005
AAXX 21184 71183 16/// /0210 30047 56044 60001 333 70000
AAXX 21184 71184 46/// /0308 11036 21057 6///1 333 11035 21116 7////
AAXX 21184 71186 NIL
AAXX 21184 71187 15666 11109 10019 20009 30308 40357 53027 60001 333 10037 20017 70000
AAXX 21184 71189 NIL
AAXX 21184 71190 NIL
AAXX 21184 71191 16/// ///// 10026 21008 60001 333 10026 21121 70000 555 10010
AAXX 21184 71192 15966 00202 11115 21121 39668 40355 53012 60001 333 11006 21133 70000
AAXX 21184 71193 16/// /2006 11019 21036 39665 40027 56010 60001 333 11019 21057 70000 555 10010
AAXX 21184 71196 16/// /1004 11032 21036 39865 40065 57032 60001 333 11031 21102 70000 555 10010
AAXX 21184 71197 16564 62420 11014 21062 30139 40189 55007 60001 333 11010 70005
AAXX 21184 71198 46/// /0309 11038 21065 6///1 333 11037 21083 7////
AAXX 21184 71199 46/// /1803 11054 21097 39340 40201 58027 6///1 333 11054 21237 7//// 555 10010
AAXX 21184 71726 16/// /2003 11034 21059 39523 40069 58023 60001 333 11034 21145 70003
AAXX 21184 71727 11680 81305 11064 21093 39897 40099 56022 69901 78522 885// 333 11061 21180 48029 79999 90911
AAXX 21184 71728 12782 82204 11021 21069 39858 40082 57026 60001 885// 333 11021 21127 70000
AAXX 21184 71730 12974 51912 10009 21034 39620 40043 58025 60001 85070 333 10009 21065 79999
AAXX 21184 71731 11/08 90000 11003 21005 39599 40051 58023 69901 75652 333 11003 21072 41997 79999 90931
AAXX 21184 71735 NIL
AAXX 21184 71738 12574 82306 10011 21019 39677 40027 58003 60001 885// 333 10014 21026 70000
AAXX 21184 71739 41574 2207 11016 21040 39664 40026 57012 6//// 77122 885// 333 11015 21054 4//// 7//// 90931
AAXX 21184 71749 16964 02804 10000 21052 39799 40044 51007 60001 333 10002 21033 70000
AAXX 21184 71799 12483 62805 10022 20004 30320 40345 53025 60001 82801 333 10031 21027 70000
AAXX 21184 71800 16/// /2818 11019 21049 30153 40186 53016 60001 333 11015 21044 70013
AAXX 21184 71801 12574 72711 11036 21074 30000 40177 52022 60001 87500 333 11027 21049 70070
AAXX 21184 71803 11480 32517 11054 21097 39965 40156 52005 69901 73681 83500 333 11041 21064 46007 70044 90960
AAXX 21184 71807 NIL
AAXX 21184 71808 NIL
AAXX 21184 71809 11474 62211 11038 21089 30128 40156 56007 60011 78588 86500 333 11031 21076 47009 70098 90983 93101
AAXX 21184 71810 16/// /2310 11043 21097 30032 40100 56021 60001 333 11043 21129 70000
AAXX 21184 71811 NIL
AAXX 21184 71813 16/// /2509 11043 21084 30088 40102 58020 60001 333 11043 21197 70000
AAXX 21184 71814 16/// /3403 11087 21107 30105 40115 56025 60001 333 11082 21177 70000
AAXX 21184 71815 11574 82317 11013 21050 30133 40164 57013 69901 70282 885// 333 11012 21057 48011 70042 90933
AAXX 21184 71001 17864 81322 11035 21051 39048 40008 56015 60001 771// 333 10022 21189 70000
AAXX 21184 71002 15866 62004 11121 21150 39478 40033 56009 60001 333 11121 21296 70000
AAXX 21184 71003 17556 82314 11031 21048 39593 49972 51001 60001 771// 333 11029 21151 70000
AAXX 21184 71005 16/// ///// 11028 21045 60001 333 11027 21055 70000
AAXX 21184 71006 NIL
AAXX 21184 71007 NIL
AAXX 21184 71008 NIL
AAXX 21184 71009 NIL
AAXX 21184 71010 NIL
AAXX 21184 71011 NIL
AAXX 21184 71012 NIL
AAXX 21184 71013 NIL
AAXX 21184 71014 NIL
AAXX 21184 71015 NIL
AAXX 21184 71016 NIL
AAXX 21184 71017 NIL
AAXX 21184 71018 NIL
AAXX 21184 71019 NIL
AAXX 21184 71020 NIL
AAXX 21184 71021 NIL
AAXX 21184 71022 15666 80907 10020 20002 30250 40295 56013 60001 333 10024 20005 70008
AAXX 21184 71023 17464 82604 11054 21066 39425 40212 51016 60001 745// 333 11052 21100 70005
AAXX 21184 71024 16/// /2501 11146 21152 60001 333 11056 21153 70000
AAXX 21184 71026 NIL
AAXX 21184 71027 16/// /2509 11007 21091 30175 40185 56014 60001 333 11003 21050 70030 555 10010
AAXX 21184 71028 16/// /3601 11102 21112 39292 40373 50008 60001 333 11053 21119 70000
AAXX 21184 71029 16/// /0510 11260 21287 30072 40113 58018 60001 333 11252 21322 70000
AAXX 21184 71030 16/60 /2013 10046 20034 30066 40157 56032 60001 333 10047 21135 70000
AAXX 21184 71032 46/// /0000 11065 21072 39499 40361 53021 6///1 333 11033 21087 7////
AAXX 21184 71033 46/// /3006 11181 21205 39541 40193 51027 6///1 333 11112 21181 7//// 555 10010
AAXX 21184 71035 NIL
AAXX 21184 71036 17466 82103 11053 21071 39773 40155 51023 60001 771// 333 11021 21057 70000
AAXX 21184 71039 46/// /1508 11001 6///1 333 10002 21236 7////
AAXX 21184 71040 46/// /2204 11016 21067 39887 40090 56018 6///1 333 11014 21188 7////
AAXX 21184 71041 15966 02106 11005 21110 30060 40205 56022 60001 333 11005 21093 70000
AAXX 21184 71042 16/// /0601 10011 20008 30334 40338 53025 60001 333 10014 21029 70000
AAXX 21184 71044 16/// /2101 11193 21215 39669 49993 57019 60001 333 11168 21210 70000
AAXX 21184 71046 460// /2610 11277 30038 40056 55003 6///1 333 11251 21299 7////
AAXX 21184 71047 NIL
AAXX 21184 71048 NIL
AAXX 21184 71049 NIL
AAXX 21184 71060 NIL
AAXX 21184 71063 NIL
AAXX 21184 71102 NIL
AAXX 21184 71105 NIL
AAXX 21184 71107 NIL
AAXX 21184 71110 NIL
AAXX 21184 71111 15666 81805 10026 20005 30274 40282 56014 60001 333 10028 21011 70000
AAXX 21184 71112 16/// ///// 60001 333 70002
AAXX 21184 71113 17/// /3605 10045 20010 30320 40344 53025 69961 7//4/ 333 10048 20020 70014
AAXX 21184 71115 16/// /2903 10003 21060 39732 40329 51022 60001 333 10003 21052 70007
AAXX 21184 71116 16/// /3513 11032 21066 39134 40252 53048 60001 333 11010 21057 70000
AAXX 21184 71118 16/// /2607 11047 21060 39398 40242 51018 60001 333 11024 21061 70003
AAXX 21184 71121 17964 02710 11046 21110 39410 40250 51018 69951 7//44 333 11010 21053 70010
AAXX 21184 71127 16/// /2708 11049 21087 39323 40255 51016 60001 333 11005 21055 70013 555 10050
AAXX 21184 71130 17566 82713 11073 21110 39716 40182 51023 60001 771// 333 11035 21082 70000
AAXX 21184 71132 17912 02802 11184 21220 39874 40200 51024 60001 704// 333 11125 21217 70000
AAXX 21184 71133 NIL
AAXX 21184 71139 17/// /3604 11080 21090 38737 40224 51046 60041 7//4/ 333 11020 21085 70084
AAXX 21184 71141 NIL
AAXX 21184 71142 16866 8//// 11077 21086 39242 40230 51041 60001 333 10000 21094 70003
AAXX 21184 71143 NIL
AAXX 21184 71144 NIL
AAXX 21184 71147 NIL
AAXX 21184 71149 16/// /3503 11063 21087 60001 333 10007 21063 70000
AAXX 21184 71450 NIL
AAXX 21184 71451 NIL
AAXX 21184 71452 46/// /3313 11069 21095 39469 40193 5/042 6///1 333 7////
AAXX 21184 71453 NIL
AAXX 21184 71454 NIL
AAXX 21184 71455 NIL
AAXX 21184 71456 NIL
AAXX 21184 71457 16/// /3405 11033 21059 39351 40260 51040 60001 333 11005 21043 70000
AAXX 21184 71458 16/// /2810 11035 21065 39454 40239 51018 60001 333 11011 21055 70000
AAXX 21184 71459 NIL
AAXX 21184 71460 16/// /3403 10018 21028 39808 40048 58022 60001 333 10022 21032 70000
AAXX 21184 71461 NIL
AAXX 21184 71462 NIL
AAXX 21184 71463 46/// /1813 10083 20065 39809 40029 58045 6///1 333 10085 20003 7////
AAXX 21184 71464 NIL
AAXX 21184 71465 NIL
AAXX 21184 71466 NIL
AAXX 21184 71468 NIL
AAXX 21184 71470 NIL
AAXX 21184 71471 15966 02403 11043 21091 39444 40252 53004 60001 333 11022 21123 70000
AAXX 21184 71473 16/// /0507 10041 20014 30308 40339 52024 60001 333 10047 20028 70000
AAXX 21184 71475 16/// /0000 11007 21008 30258 40354 53024 60001 333 10027 21010 70000
AAXX 21184 71476 NIL
AAXX 21184 71477 16/// /1908 10042 20027 60001 333 10052 20006 70004
AAXX 21184 71478 NIL
AAXX 21184 71479 NIL
AAXX 21184 71480 NIL
AAXX 21184 71481 NIL
AAXX 21184 71482 NIL
AAXX 21184 71483 NIL
AAXX 21184 71484 NIL
AAXX 21184 71485 16/// /1311 10037 20023 30307 40328 51002 60001 333 10067 20030 70002
AAXX 21184 71486 16/// /1604 11039 21089 39057 40284 51015 60001 333 11013 21056 70006
AAXX 21184 71487 NIL
AAXX 21184 71489 16/// /2808 11048 21065 39415 40227 51021 60001 333 11019 21085 70000
AAXX 21184 71490 NIL
AAXX 21184 71491 16/// /0503 11197 21219 60001 333 11087 21306 70000
AAXX 21184 71492 NIL
AAXX 21184 71493 16/// /1905 10020 21034 30144 40183 56028 60001 333 10025 21133 70000 555 10010
AAXX 21184 71494 16/// /1301 11037 21046 39583 40113 56030 60001 333 11037 21158 70000
AAXX 21184 71495 NIL
AAXX 21184 71496 16/// /3010 11058 21085 39590 40214 51017 60001 333 11015 21117 70000
AAXX 21184 71497 46/// /1904 11002 21102 39896 40166 56006 6///1 333 10010 21172 7////
AAXX 21184 71498 NIL
AAXX 21184 71499 17466 82908 11166 21191 39541 40190 51027 60001 771// 333 11106 21167 70000
AAXX 21184 71665 NIL
AAXX 21184 71666 16/// /2108 10014 21019 30104 40149 56034 60001 333 10014 21130 70000
AAXX 21184 71667 NIL
AAXX 21184 71668 16/// /3403 11062 21076 30116 40161 56030 60001 333 11061 21154 70000
AAXX 21184 71669 NIL
AAXX 21184 71670 16/// ///// 10002 21035 60001 333 10002 21118 70000
AAXX 21184 71671 16/// /2007 10011 21035 30123 40184 56034 60001 333 10011 21094 70000
AAXX 21184 71672 16/// /0502 10017 20009 39779 40043 58042 60001 333 10017 21078 70000
AAXX 21184 71673 NIL
AAXX 21184 71674 NIL
AAXX 21184 71675 15966 13107 11196 21219 39825 40112 51011 60011 333 11097 21238 70093
AAXX 21184 71679 16/// /0504 11078 21086 39269 40312 53003 60001 333 11010 21086 70000
AAXX 21184 71680 NIL
AAXX 21184 71681 46/// /2001 11031 21044 6///1 333 10055 21037 7////
AAXX 21184 71682 NIL
AAXX 21184 71683 NIL
AAXX 21184 71684 15966 02004 11002 21054 39742 40042 58019 60001 333 11001 21071 70000
AAXX 21184 71685 15766 63601 11012 21018 39771 40325 53030 60001 333 11002 21028 70000
AAXX 21184 71686 469// /2504 11119 21131 39257 40242 56020 6///1 333 11077 21139
AAXX 21184 71687 16/// /0401 11058 21065 39543 40352 51027 60001 333 11031 21073 70000
AAXX 21184 71688 16/// /0801 11067 21074 39268 40336 52023 60001 333 11044 21079 70000
AAXX 21184 71689 15566 81303 11109 21121 39731 40201 58002 60001 333 11097 21155 70000
AAXX 21184 71690 NIL
AAXX 21184 71691 15866 82414 11029 21077 30068 40096 56025 60001 333 11026 21178 70000
AAXX 21184 71692 NIL
AAXX 21184 71694 16/// /0601 10012 20009 39691 40053 58034 60001 333 10012 21074 70000
AAXX 21184 71695 16/// /3012 11074 21099 39803 40143 51018 60001 333 11069 21093 70000
AAXX 21184 71696 16/// /3016 11273 21310 30068 40107 53012 60001 333 11265 21285 70000
AAXX 21184 71697 17116 80704 10043 20043 39864 40034 56048 60001 710// 333 10043 21037 70000
AAXX 21184 71699 16/// /2015 10053 20027 30155 40163 56033 60001 333 10053 21126 70007
AAXX 21184 71925 11474 53115 11304 21347 30104 40147 55001 69901 77677 81670 333 11301 21326 42021 79999 90983
AAXX 21184 71250 NIL
AAXX 21184 71251 16/// /3506 11033 21049 39336 40283 51047 60001 333 10002 21052 70000
AAXX 21184 71252 NIL
AAXX 21184 71253 46/// /0501 11160 21171 6///1 333 11149 21211 7////
AAXX 21184 71254 16/// /2910 11043 21066 60001 333 11015 21043 70009 555 10030
AAXX 21184 71255 17/// /1906 11107 21124 69931 7//4/ 333 11107 21158 70006
AAXX 21184 71256 46/// /2804 11036 21062 39297 40251 50004 6///1 333 11008 21063 7////
AAXX 21184 71257 NIL
AAXX 21184 71258 NIL
AAXX 21184 71259 NIL
AAXX 21184 71261 17/// /0805 10040 20036 39746 40004 58039 60011 7//4/ 333 10041 21008 70010
AAXX 21184 71263 11102 80607 10038 20038 39737 40025 56048 60021 76186 827// 333 10043 21025 70018 909/7
AAXX 21184 71264 16/// /2110 10029 21021 30173 40205 56035 60001 333 10032 21080 70000
AAXX 21184 71265 17120 80610 10048 20042 39936 40029 56049 60001 710// 333 10055 21018 70000
AAXX 21184 71266 NIL
AAXX 21184 71267 17566 83413 11023 21058 39173 40295 51046 69951 7004/ 333 11010 21059 70005
AAXX 21184 71268 12574 62305 10011 21018 39641 40044 58019 60001 81570 333 10011 21040 70000
AAXX 21184 71269 NIL
AAXX 21184 71270 NIL
AAXX 21184 71271 16/// ///// 11045 21077 60001 333 11027 21054 70013
AAXX 21184 71272 17966 03310 11259 21290 39782 40157 51018 69911 7004/ 333 11250 21289 70002
AAXX 21184 71273 16/// /2906 11035 21062 39538 40212 51017 60001 333 11034 21085 70000
AAXX 21184 71274 NIL
AAXX 21184 71275 NIL
AAXX 21184 71276 NIL
AAXX 21184 71277 NIL
AAXX 21184 71278 NIL
AAXX 21184 71279 NIL
AAXX 21184 71281 NIL
AAXX 21184 71282 46/// /1003 10024 20024 39772 40041 58039 6///1 333 10024 21038 7////
AAXX 21184 71283 NIL
AAXX 21184 71284 17/// ///// 11042 21069 69941 7//4/ 333 11019 21063 70024
AAXX 21184 71285 NIL
AAXX 21184 71286 NIL
AAXX 21184 71287 NIL
AAXX 21184 71288 NIL
AAXX 21184 71289 NIL
AAXX 21184 71290 15966 61502 11120 21131 39457 40319 51017 60001 333 11043 21143 70005
AAXX 21184 71291 16/// /3306 10004 21033 39747 40034 51011 60001 333 10006 21038 70000
AAXX 21184 71292 15466 83016 11066 21093 39555 40172 51029 60001 333 11019 21081 70000
AAXX 21184 71294 16/// /0000 10016 39646 40048 58036 60001 333 10017 21109 70000 555 10010
AAXX 21184 71295 NIL
AAXX 21184 71296 NIL
AAXX 21184 71297 17/// /0801 10044 20044 69941 7//4/ 333 10044 21018 70004
AAXX 21184 71298 17/// /2613 10091 20091 39782 40008 55022 60021 7//4/ 333 10112 20018 70081
AAXX 21184 71299 NIL
AAXX 21184 71350 17/// /2013 10001 21042 30102 40169 56029 69971 7//4/ 333 10001 21121 70007
AAXX 21184 71351 NIL
AAXX 21184 71352 17/// /0806 10020 20019 39568 40020 58043 69981 7//4/ 333 10020 21031 70008
AAXX 21184 71353 NIL
AAXX 21184 71354 NIL
AAXX 21184 71355 16/// /2804 11226 21272 39950 40037 58013 60001 333 11150 21245 70003
AAXX 21184 71356 16/// /3328 11293 21324 30001 40071 53004 60001 333 11292 21337 70000
AAXX 21184 71357 NIL
AAXX 21184 71358 16/// /3215 11184 21208 39939 49974 52003 60001 333 11182 21274 70006
AAXX 21184 71359 NIL
AAXX 21184 71360 NIL
AAXX 21184 71361 NIL
AAXX 21184 71362 NIL
AAXX 21184 71363 NIL
AAXX 21184 71364 NIL
AAXX 21184 71365 NIL
AAXX 21184 71368 17/08 /0905 10032 20029 39634 40021 58034 69931 730// 333 10032 21036 70003
AAXX 21184 71369 15966 02511 11023 21061 39507 40224 50001 60001 333 11018 21048 70038
AAXX 21184 71370 46/// /0303 11057 21083 39967 40106 56031 6///1 333 11057 21127 7////
AAXX 21184 71371 15366 80208 11031 21044 30058 40093 56040 60001 333 11031 21104 70000
AAXX 21184 71372 16/// /1707 10029 20012 60001 333 10029 21722 70000
AAXX 21184 71373 NIL
AAXX 21184 71374 NIL
AAXX 21184 71375 NIL
AAXX 21184 71376 16/// /0801 11027 21047 39792 40096 56036 60001 333 11027 21183 70000
AAXX 21184 71377 16/// /0307 11035 21053 30037 40086 56043 60001 333 11034 21110 70000
AAXX 21184 71378 16/// /1806 11043 21094 39893 40105 56025 60001 333 11043 21184 70000
AAXX 21184 71379 16/// /1408 11038 21073 39887 40059 58022 60001 333 11035 21159 70000
AAXX 21184 71380 NIL
AAXX 21184 71381 NIL
AAXX 21184 71382 NIL
AAXX 21184 71383 NIL
AAXX 21184 71384 NIL
AAXX 21184 71385 NIL
AAXX 21184 71386 16/// /1505 11052 21109 39898 40108 56029 60001 333 11050 21150 70000
AAXX 21184 71387 NIL
AAXX 21184 71388 NIL
AAXX 21184 71389 46/// /1302 11049 21097 6///1 333 11048 21173 7////
AAXX 21184 71390 NIL
AAXX 21184 71391 16/// ///// 11036 21056 60001 333 11036 21112 70000
AAXX 21184 71392 16/// /0000 11048 21098 60001 333 11048 21140 70000
AAXX 21184 71393 NIL
AAXX 21184 71395 12574 62017 10017 21035 30020 40203 56033 60001 81570 333 10020 21117 70000
AAXX 21184 71398 17456 83207 11012 21021 39991 40002 53007 60001 771// 333 11006 21041 70000
AAXX 21184 71399 NIL
AAXX 21184 71900 46/// /21// 11138 21180 39980 49993 56023 6///1 333 11138 21191 7////
AAXX 21184 71903 NIL
AAXX 21184 71904 NIL
AAXX 21184 71914 16/// /0401 10038 20017 30117 40343 53024 60001 333 10045 20027 70000
AAXX 21184 71916 NIL
AAXX 21184 71918 460// ///// 11284 6///1 333 7////
AAXX 21184 71920 NIL
AAXX 21184 71921 NIL
AAXX 21184 71923 NIL
AAXX 21184 71927 16/// /1601 11002 21019 30287 40346 53025 60001 333 10017 21035 70000
AAXX 21184 71941 15466 82308 11016 21041 39633 40051 58021 60001 333 11016 21093 70000
AAXX 21184 71947 17466 82108 11033 21044 39678 40025 58009 69931 7714/ 333 11033 21101 70008
AAXX 21184 71744 NIL
AAXX 21184 71750 16/// /2802 10022 21046 39785 40017 50004 60001 333 10024 21005 70000
AAXX 21184 71751 NIL
AAXX 21184 71752 NIL
AAXX 21184 71753 16/// /2208 10015 21057 30168 40198 56031 60001 333 10020 21133 70000
AAXX 21184 71754 16/// /3010 11038 21074 39548 40226 51016 60001 333 11038 21085 70000
AAXX 21184 71755 43/// /3105 11171 21191 39762 40115 51012 6///1 333 11079 21193 7////
AAXX 21184 71756 16/// /1501 11059 21069 39216 40343 53026 60001 333 11038 21066 70000
AAXX 21184 71758 NIL
AAXX 21184 71760 NIL
AAXX 21184 71761 NIL
AAXX 21184 71762 NIL
AAXX 21184 71763 NIL
AAXX 21184 71765 16/// /2101 11016 21027 30082 40365 53030 60001 333 10005 21018 70004
AAXX 21184 71766 16/// /2903 10034 20006 30271 40344 53025 60001 333 10052 20005 70000
AAXX 21184 71767 16/// /0202 10027 20024 39778 40037 58025 60001 333 10029 21027 70000
AAXX 21184 71768 46/// /2908 11006 21083 39777 40341 51025 6///1 333 10002 21028 7////
AAXX 21184 71769 16/// /2705 10048 20019 30319 40335 53028 60001 333 10067 20043 70000
AAXX 21184 71770 16/// /0706 11011 21062 39510 40300 51032 60001 333 10001 21039 70000
AAXX 21184 71771 NIL
AAXX 21184 71772 16/// /0204 10051 20026 30328 40334 53028 60001 333 10070 20050 70000
AAXX 21184 71773 16/// /1610 11021 21078 39247 40104 58028 60001 333 11010 21137 70000
AAXX 21184 71774 46/// ///// 10016 6///1 333 10043 20006 7////
AAXX 21184 71775 46/// /2903 10000 21001 30342 40348 53026 6///1 333 10004 21034 7////
AAXX 21184 71776 46/// /2508 11024 21042 39654 40312 53031 6///1 333 11005 21040 7////
AAXX 21184 71777 16/// ///// 11059 21064 30111 40372 53031 60001 333 11020 21061 70000 555 10020
AAXX 21184 71778 46/// /0313 6///1 333 7////
AAXX 21184 71779 16/// /0101 11113 21122 39664 40352 53011 60001 333 11005 21134 70000
AAXX 21184 71780 16/// /1006 10042 20002 30313 40341 53022 60001 333 10066 20030 70000
AAXX 21184 71781 46/// /3008 10049 20012 30314 40339 53028 6///1 333 10067 20047 7////
AAXX 21184 71782 46/// /0103 11059 21081 38929 40291 51028 6///1 333 11042 21097 7////
AAXX 21184 71783 16/// /3403 10050 20016 30260 40335 53024 60001 333 10050 21003 70002
AAXX 21184 71784 16/// /0000 10023 20010 30126 40336 53025 60001 333 10029 20002 70000
AAXX 21184 71785 16/// /0103 10033 20007 30335 40351 53026 60001 333 10036 21007 70000
AAXX 21184 71786 46/// /2407 11081 21094 38420 40299 53022 6///1 333 11069 21106 7////
AAXX 21184 71787 16/// /2015 11010 21013 39665 40163 56030 60001 333 11009 21144 70000
AAXX 21184 71788 NIL
AAXX 21184 71789 NIL
AAXX 21184 71791 NIL
AAXX 21184 71792 NIL
AAXX 21184 71793 NIL
AAXX 21184 71794 NIL
AAXX 21184 71795 NIL
AAXX 21184 71796 NIL
AAXX 21184 71797 NIL
AAXX 21184 71864 NIL
AAXX 21184 71865 16/// /2909 11087 21112 39500 40196 51028 60001 333 11044 21094 70000
AAXX 21184 71866 46964 02911 11059 21089 39594 40220 51017 6///1 333 11015 21118 7////
AAXX 21184 71867 11456 83114 11075 21093 39806 40147 52018 69921 77177 88500 333 11070 21095 47022 70002 90973 93101
AAXX 21184 71868 NIL
AAXX 21184 71869 12574 63010 11073 21096 39663 40199 51017 60001 86500 333 11058 21107 70000
AAXX 21184 71871 15666 82913 11040 21054 39407 40231 51017 60001 333 11040 21058 70000
AAXX 21184 71877 12986 13211 11030 21094 38986 40285 52023 60001 81070 333 10001 21068 70012
AAXX 21184 71878 11574 12810 11070 21097 39182 40281 52023 69901 70277 81501 333 10003 21090 48013 70012 90953
AAXX 21184 71879 16964 02508 11034 21080 39433 40253 51019 60001 333 11007 21044 70000
AAXX 21184 71880 12682 22204 11032 21082 39159 40292 52030 60001 81570 333 11029 21094 70000
AAXX 21184 71882 160// /3502 11013 21025 39772 40325 53030 60001 333 11005 21033 70000
AAXX 21184 71883 46/// /0000 11117 21125 39498 40353 53023 6///1 333 11041 21138 7////
AAXX 21184 71887 12986 10227 10022 21073 39916 40346 53026 60001 81500 333 10031 21013 70000
AAXX 21184 71889 12874 23508 10010 21056 39910 40340 51024 60001 82070 333 10014 21053 70024
AAXX 21184 71891 16264 80000 11013 21025 30084 40367 53029 60001 333 10006 21015 70000
AAXX 21184 71892 12580 21402 10037 20001 30340 40345 53026 60001 81501 333 10040 21017 70000
AAXX 21184 71550 NIL
AAXX 21184 71551 NIL
AAXX 21184 71552 NIL
AAXX 21184 71553 NIL
AAXX 21184 71554 NIL
AAXX 21184 71555 NIL
AAXX 21184 71556 NIL
AAXX 21184 71557 46/// /1102 11043 21057 6///1 333 11028 21097 7////
AAXX 21184 71558 46/// ///// 11065 21094 30064 40102 58005 6///1 333 11062 21144 7////
AAXX 21184 71559 46/// /3511 11035 21071 39468 40178 51040 6///1 333 11001 21062 7////
AAXX 21184 71560 16/// /3518 11019 21056 39818 40121 51026 60001 333 11013 21045 70000
AAXX 21184 71563 NIL
AAXX 21184 71564 NIL
AAXX 21184 71565 NIL
AAXX 21184 71566 NIL
AAXX 21184 71567 NIL
AAXX 21184 71568 16/// /1303 10039 20013 30333 40346 51022 60001 333 10067 20032 70004
AAXX 21184 71569 16/// /3214 11078 21108 39475 40189 51038 60001 333 11015 21089 70000
AAXX 21184 71570 16/// /3108 11045 21084 39806 40120 51030 60001 333 10003 21046 70000
AAXX 21184 71571 NIL
AAXX 21184 71572 NIL
AAXX 21184 71573 17/// /1001 10063 20056 39727 40006 58045 60041 7//4/ 333 10063 21008 70044
AAXX 21184 71574 12674 70000 11025 21122 30060 40135 56027 60001 86571 333 11015 21142 70000
AAXX 21184 71575 16/// /0512 11165 21180 39780 49845 53003 60001 333 11143 21206 70018 555 10050
AAXX 21184 71576 16/// /0703 11230 21256 39917 40004 58002 60001 333 11218 21266 70000
AAXX 21184 71577 NIL
AAXX 21184 71578 16/// /2103 11045 21099 60001 333 11045 21131 70000
AAXX 21184 71579 16/// /3307 11035 21075 39840 40126 51031 60001 333 10000 21037 70000
AAXX 21184 71580 11574 12104 11347 21410 30013 40051 52009 69901 70171 81530 333 11335 21368 46030 70004 90951
AAXX 21184 71581 NIL
AAXX 21184 71582 15966 01504 10010 20010 30281 40336 58010 60001 333 10010 21011 70003
AAXX 21184 71583 NIL
AAXX 21184 71584 17420 80604 11087 21102 30053 40102 57021 60001 771// 333 11086 21188 70000
AAXX 21184 71585 NIL
AAXX 21184 71586 16/// /3113 11101 21146 39705 40181 51027 60001 333 11075 21101 70000
AAXX 21184 71587 NIL
AAXX 21184 71588 16/// /1604 11038 21071 60001 333 11038 21065 70000
AAXX 21184 71589 NIL
AAXX 21184 71590 16/// /1403 11037 21122 39930 40126 56026 60001 333 11037 21190 70000
AAXX 21184 71592 NIL
AAXX 21184 71593 NIL
AAXX 21184 71596 NIL
AAXX 21184 71598 16/64 /2304 11017 21129 30132 40138 56030 60001 333 11017 21107 70000
AAXX 21184 71599 NIL
AAXX 21184 71604 16/// /2614 11049 21081 60001 333 11048 21089 70000 555 10020
AAXX 21184 71605 16/// /0401 10022 21019 30184 40337 52023 60001 333 10041 20003 70000
AAXX 21184 71611 16/// /0303 11008 21043 60001 333 11006 21131 70000
AAXX 21184 71612 NIL
AAXX 21184 71614 16/// /1403 10025 21005 30005 40071 56044 60001 333 10028 21110 70000
AAXX 21184 71616 16/// /0204 11026 21036 39992 40114 57035 60001 333 11026 21142 70000
AAXX 21184 71617 16/// /1003 11052 21090 39929 40103 56024 60001 333 11050 21161 70000
AAXX 21184 71618 NIL
AAXX 21184 71619 NIL
AAXX 21184 71622 NIL
AAXX 21184 71632 46/// /3510 11176 21209 39703 40160 52033 6///1 333 11162 21176 7////
AAXX 21184 71634 16/// /2106 10003 21099 39985 40142 56027 60001 333 10003 21150 70000
AAXX 21184 71638 16/// /3402 10016 21009 30229 40337 53026 60001 333 10034 21020 70000
AAXX 21184 71639 11/02 90000 10032 20019 39793 40034 57048 69921 74655 333 10033 21027 70002 90922
AAXX 21184 71642 12574 82106 11019 21044 39492 40037 51004 60001 885// 333 11018 21058 70000
AAXX 21184 71930 13674 32704 11045 21086 39302 40254 50005 60023 81574 333 11008 21065 47018 70019 90999
AAXX 21184 71931 46/// /2912 11042 21079 30123 51013 6///1 333 7////
AAXX 21184 71934 12974 80000 11199 21229 39931 40200 51002 60001 8807/ 333 11176 21246 79999
AAXX 21184 71935 12874 10903 11189 21203 39968 40185 53001 60001 81070 333 11152 21194 70000
AAXX 21184 71936 12574 70000 11263 21300 39918 40194 50001 60001 87501 333 11243 21291 79999
AAXX 21184 71937 NIL
AAXX 21184 71938 12974 00000 11331 21364 30127 40159 57015 60001 333 11296 21333 79999
AAXX 21184 71940 12982 72415 11048 21076 39435 40259 50002 60001 80001 333 11025 21091 70008
AAXX 21184 71943 12974 72412 11056 21111 39391 40246 50004 60001 82071 333 11028 21062 79999
AAXX 21184 71944 160// ///// 11123 51019 60001 333 11047 21144 70020
AAXX 21184 71945 12983 82105 11094 21148 39715 40200 56010 60001 86071 333 11093 21150 70000
AAXX 21184 71946 12974 71104 11190 21211 39932 40154 58015 60001 85018 333 11140 21190 70000
AAXX 21184 71948 47064 /1115 11262 39967 40084 56027 6///1 745// 333 11242 21273 7////
AAXX 21184 71949 46/// /0203 11189 21211 39219 40122 56026 6///1 333 11166 21233 7////
AAXX 21184 71951 11361 81802 11004 21013 30049 40323 58012 69901 70276 88500 333 10006 21009 43022 70004 90931
AAXX 21184 71957 46464 61303 11180 21243 39920 40011 58032 6///1 333 11156 21287 7////
AAXX 21184 71964 12686 41615 11021 21090 39251 40109 58028 60001 81530 333 11021 21149 70000
AAXX 21184 71966 16/// /0805 11106 21133 39551 40017 56022 60001 333 11086 21233 70000
AAXX 21184 71968 460// /3108 11274 39957 40024 56017 6///1 333 11274 21331 7////
AAXX 21184 71500 NIL
AAXX 21184 71501 NIL
AAXX 21184 71502 NIL
AAXX 21184 71503 NIL
AAXX 21184 71504 NIL
AAXX 21184 71505 16/// /0811 11017 21029 39334 40058 56035 60001 333 10015 21209 7////
AAXX 21184 71506 NIL
AAXX 21184 71507 NIL
AAXX 21184 71508 16/// ///// 10050 20049 39896 40033 56050 60001 333 10051 21019 70006
AAXX 21184 71509 NIL
AAXX 21184 71511 NIL
AAXX 21184 71512 16/// /3001 11059 21081 30087 40101 56024 60001 333 11059 21197 70000
AAXX 21184 71513 15566 82509 11044 21087 30091 40107 58019 60001 333 11044 21191 70000
AAXX 21184 71514 NIL
AAXX 21184 71515 16/// /3213 11078 21092 39472 40185 51031 60001 333 11003 21115 70000
AAXX 21184 71516 16/// /3510 11054 21078 60001 333 10009 21058 70000
AAXX 21184 71517 NIL
AAXX 21184 71518 NIL
AAXX 21184 71519 NIL
AAXX 21184 71520 NIL
AAXX 21184 71521 NIL
AAXX 21184 71522 NIL
AAXX 21184 71523 NIL
AAXX 21184 71524 16/// /0205 11057 21072 30082 40109 56039 60001 333 11055 21124 70000
AAXX 21184 71525 NIL
AAXX 21184 71526 NIL
AAXX 21184 71527 17466 83309 11034 21045 39562 40069 51021 60001 771// 333 11010 21034 70000
AAXX 21184 71528 NIL
AAXX 21184 71529 46/// /0906 11289 21328 39966 40208 51010 6///1 333 11203 21312 7////
AAXX 21184 71532 17356 81203 10013 20013 39696 40040 58036 60001 761// 333 10013 21066 70000
AAXX 21184 71534 17008 80000 10012 20012 39763 40034 57042 60001 743// 333 10012 21034 70000
AAXX 21184 71535 NIL
AAXX 21184 71536 NIL
AAXX 21184 71537 NIL
AAXX 21184 71539 NIL
AAXX 21184 71540 NIL
AAXX 21184 71541 NIL
AAXX 21184 71542 16/// /2511 11058 21100 60001 333 11048 21088 70000
AAXX 21184 71543 NIL
AAXX 21184 71544 NIL
AAXX 21184 71545 17/// ///// 11043 21068 69941 7//4/ 333 11020 21047 70012
AAXX 21184 71546 NIL
AAXX 21184 71547 NIL
AAXX 21184 71548 NIL
AAXX 21184 71549 NIL
AAXX 21184 71851 NIL
AAXX 21184 71857 NIL
AAXX 21184 71860 12783 33172 11047 21111 38854 40288 52022 60001 81530 333 11030 21098 70002
AAXX 21184 71876 15666 82909 11033 21058 39552 40231 51017 60001 333 11033 21081 70000
AAXX 21184 71885 NIL
AAXX 21184 71886 NIL
AAXX 21184 71888 NIL
AAXX 21184 71890 16/// /0513 11029 21082 30065 40093 56024 60001 333 11028 21177 70000
AAXX 21184 71895 NIL
AAXX 21184 71201 16/// ///// 10042 21011 60001 333 10042 20012 70002
AAXX 21184 71202 16/// ///// 11031 21061 60001 333 11003 21044 70004
AAXX 21184 71203 15766 60603 11039 21053 39806 40344 52025 60001 333 11016 21089 70008
AAXX 21184 71209 46/// /0804 10037 6///1 333 10070 20031 7////
AAXX 21184 71211 46/// /0322 10030 21014 30329 40341 53026 6///1 333 10047 20025 7////
AAXX 21184 71212 16/// /2404 11055 21074 39279 40101 58023 60001 333 11053 21226 70000
AAXX 21184 71213 46/// /2103 10001 21048 39739 40039 58020 6///1 333 10001 21072 7////
AAXX 21184 71214 NIL
AAXX 21184 71215 46/// /1802 11029 21037 39975 40331 51024 6///1 333 11012 21069 7////
AAXX 21184 71216 16/// /1303 10005 21039 39681 40314 51029 60001 333 10005 21038 70000
AAXX 21184 71217 NIL
AAXX 21184 71218 16/// /1001 10007 21052 39893 40329 53026 60001 333 10052 21039 70000
AAXX 21184 71219 46/// /1513 10044 20000 30287 40293 57013 6///1 333 10047 20027 7////
AAXX 21184 71220 46/// /1219 10036 20005 6///1 333 10045 20030 7////
AAXX 21184 71221 NIL
AAXX 21184 71222 16/// /2502 11137 21150 39257 40262 56020 60001 333 11090 21153 70008
AAXX 21184 71223 NIL
AAXX 21184 71224 NIL
AAXX 21184 71225 NIL
AAXX 21184 71226 NIL
AAXX 21184 71227 NIL
AAXX 21184 71228 NIL
AAXX 21184 71229 NIL
AAXX 21184 71230 16/// /1802 11069 21111 39342 40257 51006 60001 333 11029 21112 70003 555 10010
AAXX 21184 71231 17/// /0109 11034 21053 69991 7//4/ 333 11007 21036 70009
AAXX 21184 71232 16/// /2604 11050 21093 38734 40262 51019 60001 333 11007 21095 70000
AAXX 21184 71233 16/// /2704 11035 21088 60001 333 11005 21067 70024
AAXX 21184 71234 16/// /3405 11022 21085 39073 40289 51037 60001 333 11015 21063 70000
AAXX 21184 71235 16/// /3410 11041 21098 60001 333 11012 21075 70006
AAXX 21184 71236 46/// /1401 11027 21090 6///1 333 11012 21108 7////
AAXX 21184 71237 46/// /3204 11021 21067 39432 40265 51031 6///1 333 10006 21033 7////
AAXX 21184 71238 NIL
AAXX 21184 71239 16/// /0209 11034 21070 39676 40143 51028 60001 333 11022 21050 70000
AAXX 21184 71240 16/// ///// 11039 21063 39389 40252 51027 60001 333 10005 21085 70000
AAXX 21184 71241 NIL
AAXX 21184 71242 16/// /2704 11061 21102 60001 333 11001 21095 70020
AAXX 21184 71243 NIL
AAXX 21184 71244 17/// /3617 11035 21044 39009 40260 52053 69951 7//4/ 333 10003 21067 70005
AAXX 21184 71245 NIL
AAXX 21184 71246 NIL
AAXX 21184 71247 17966 03409 11031 21058 39391 40262 51048 69981 7004/ 333 10011 21036 70013
AAXX 21184 71248 16/// /2904 11040 21109 38945 40273 51022 60001 333 10006 21077 70000 555 10030
AAXX 21184 71249 NIL
AAXX 21184 71893 12580 62804 10026 21028 30316 40348 53027 60001 81501 333 10066 21009 70000
AAXX 21184 71894 16/// /0708 10012 20011 30320 40329 53022 60001 333 10037 20006 70000
AAXX 21184 71896 15966 01708 11081 21100 39474 40332 53013 60001 333 11009 21103
AAXX 21184 71897 12266 60905 10024 20020 3//// 4//// 50003 69941 84770 333 10030 20018 70008
AAXX 21184 71898 160// ///// 10021 57013 60001 333 10026 20007 70005
AAXX 21184 71899 11574 81507 10034 20026 3//// 4//// 57021 69901 7602X 8652X 333 10044 20025 70006 90910
AAXX 21184 71902 12974 42407 11142 21206 39955 49964 56028 60001 84041 333 11137 21212 70000
AAXX 21184 71905 NIL
AAXX 21184 71906 11674 52415 11087 21144 39838 49888 53014 69961 73677 84570 333 11069 21195 48015 70008 90913 93101
AAXX 21184 71907 16211 82819 11202 21217 39913 49946 52032 60001 333 11092 21202 70015
AAXX 21184 71909 16964 00918 11121 21166 39806 49849 56014 60001 333 11118 21237 70000
AAXX 21184 71910 46959 00313 11166 21192 39787 49849 53001 6///1 333 11144 21208 7////
AAXX 21184 71911 46464 80906 11362 39991 40051 51008 6///1 333 11355 21415 7////
AAXX 21184 71912 11440 83108 11233 21280 39945 40138 53012 69921 77111 886// 333 11215 21259 47016 70006 90910
AAXX 21184 71915 11574 43215 11289 21332 39832 49916 53003 69901 77677 82501 333 11280 21370 48043 79999 90983
AAXX 21184 71917 11769 20903 11289 21340 30006 40020 57002 69921 77177 82500 333 11279 21358 47015 70016 90983
AAXX 21184 71922 11574 62910 11101 21146 39707 40185 52025 69901 77122 86500 333 11074 21101 47031 79999 90962
AAXX 21184 71924 11562 83210 11265 21302 39947 40040 57004 69941 77177 8853/ 333 11261 21318 48038 70004 90977
AAXX 21184 71925 11474 63115 11301 21347 30104 40147 55001 69901 77677 81670 333 11301 21326 42021 79999 90983
AAXX 21184 71926 11706 53225 11287 21343 30048 40074 55000 69901 77673 85500 333 11287 21333 48043 79999 90942
AAXX 21184 71928 NIL
AAXX 21184 61401 NIL
AAXX 21184 61404 31950 30819 10204 21043 39809 40210 70700 80002 333 10220 58024 83073
AAXX 21184 61415 31940 50607 10226 20120 30173 40178 70622 85030 333 10251 58017 85363
AAXX 21184 61421 31920 00618 10228 20020 39904 40163 7070/ 333 10252 58035
AAXX 21184 61437 31956 70406 10250 20118 30024 40163 705// 80002 333 10262 58006 87073
AAXX 21184 61442 31915 30912 10271 21071 30149 40152 70611 83082 333 10289 58016 83363
AAXX 21184 61450 31940 40812 10214 21053 39716 40181 70700 80002 333 10250 58021 84073
AAXX 21184 61461 NIL
AAXX 21184 61489 31925 20804 10280 21007 30136 40143 70600 82070 333 10300 58018 82363
AAXX 21184 61492 31914 60810 10275 20005 30148 40168 7062/ 86070 333 10285 58046 86363
AAXX 21184 61497 34940 70816 10227 21038 39810 4//// 707// 87070 333 10252 58019 87363
AAXX 21184 61498 31930 60406 10250 20024 30007 40141 705// 80002 333 10270 58021 86073
AAXX 21184 61499 31940 60408 10227 21066 39907 40166 70611 80002 333 10245 58037 86073
AAXX 21184 61510 NIL
AAXX 21184 08055 12985 11606 10076 20054 39248 48604 53006 60002 80001 333 10160 95090
AAXX 21184 08075 11150 72002 10048 20041 39272 48597 53006 60002 71022 878// 333 10067
AAXX 21184 08084 02665 72610 10134 20069 39869 40302 53008 60002 8657/ 333 10145 60007
AAXX 21184 08171 12784 82709 10152 20072 39984 40221 53005 60002 83047 333 10190
AAXX 21184 08184 02970 50000 10094 20070 30045 40202 53006 60002 8504/ 333 10146 60007
AAXX 21184 08202 02765 10402 10083 20052 39387 42916 53006 60002 81500 333 10151 60007
AAXX 21184 08235 NIL
AAXX 21184 08238 12670 73413 10172 20081 30164 40224 52013 60002 82854 333 10192
AAXX 21184 08280 12980 12915 10116 20053 39450 40273 52011 60002 80001 333 10148
AAXX 21184 08330 12970 01602 10098 20058 30067 40302 52001 60002 333 10149
AAXX 21184 08348 12965 22903 10122 20073 39556 40295 53006 60002 80001 333 10160
AAXX 21184 08360 02975 20000 10136 20074 30205 40242 51009 60002 80001 333 10217 60007
AAXX 21184 08373 02560 40000 10134 20100 30215 40237 53006 60002 81805 333 10200 60007
AAXX 21184 08410 02980 00000 10122 20060 30172 40284 53001 60002 333 10175 60007
AAXX 21184 08419 02980 20405 10155 20051 39604 40267 53013 60002 80005 333 10195 60007
AAXX 21184 08451 02984 03606 10146 20074 30242 40275 53001 60002 333 10200 60007
AAXX 21184 08487 02975 10000 10136 20104 30223 40249 53009 60002 80001 333 10182 60007
AAXX 21184 08231 12970 03404 10106 20049 39185 48587 53010 60002 333 10154
BBXX DHSI 21184 99295 70141 41298 50513 10220 20158 40265 50000 70322 85700 22214 00180 21002 305// 41203 80180
AAXX 21181 13168 11698 82301 10010 21016 30070 40180 53011 69902 77072 885// 333 10034 93197
AAXX 21181 13174 11697 82003 10004 21025 30070 40174 51005 69902 77071 885// 333 10026 93197
AAXX 21181 13269 32698 51801 11006 21022 39964 40186 52016 85500 333 10040
AAXX 21181 13274 32697 82301 10017 21040 30018 40182 52009 885// 333 10037
AAXX 21181 13278 32997 02302 11024 21040 39958 40191 51009 333 10030 4/002
AAXX 21181 13378 32998 00804 11115 21129 38195 48409 51003 333 11045 4/015
AAXX 21181 13397 32998 00000 11047 21057 39624 40187 51008 333 10006 4/001
AAXX 21181 13457 42970 03301 10066 21059 30108 40115 58004 333 10106
AAXX 21181 13481 NIL
AAXX 21181 13173 32697 82002 10009 21014 30073 40176 53008 885// 333 10030
AAXX 21181 13180 32697 81802 11001 21004 30072 40186 53011 885// 333 10025
AAXX 21181 13266 32697 80501 10006 21007 30058 40162 53003 885// 333 10035
AAXX 21181 13369 31996 00000 11099 21109 38942 48405 52013 71000 333 10007 4/010
AAXX 21181 13383 32997 01701 11026 21036 39972 40184 52011 333 10042
AAXX 21181 13384 32998 00000 11035 21044 30026 40186 51005 333 10028 4/001
AAXX 21181 13389 31996 00000 11032 21040 39893 40186 54000 71000 333 10020 4/003
AAXX 21181 13477 NIL
AAXX 21181 15501 12970 02701 11006 21044 30117 40163 51014 60002 333 10035 21007 555 575//
AAXX 21181 15505 12965 00000 11030 21047 39782 40170 52006 60002 333 10040 21034 43006 555 588// 92771
AAXX 21181 15511 12970 02303 10001 21040 30139 40180 53016 60002 333 10044 20001 555 574//
AAXX 21181 15514 12970 02702 10014 21042 30121 40158 52012 60002 333 10041 20013 555 567//
AAXX 21181 15530 12965 63201 11003 21037 39931 40177 53016 60002 86050 333 10049 21004 555 578//
AAXX 21181 15533 12970 00000 10004 21026 30100 40133 52013 69952 333 10034 20004 555 580//
AAXX 21181 15550 12562 82501 10022 20000 30132 40152 52012 69952 885// 333 10022 20012 555 585//
AAXX 21181 15561 12470 82502 10030 20009 30150 40158 52009 60002 885// 222// 00090 2//00 333 10040 20025 555 586// 92014 92418
AAXX 21181 15562 12983 02906 10036 21014 30104 40178 52014 60002 222// 2//02 333 10040 20030 555 570// 92035 92438
AAXX 21181 15600 11380 52308 11085 21092 38229 48442 52007 60002 70342 84431 333 11081 21085 44011 555 595//
AAXX 21181 15601 12770 60000 11004 21024 39520 40155 53009 60002 85330 333 10046 21020 555 584//
AAXX 21181 15605 12970 02502 11047 21066 39303 40181 52003 60002 333 11019 21049 43002 555 585//
AAXX 21181 15613 11982 22702 11104 21116 37624 47951 52007 60002 70240 82011 333 11084 21129 48044 444 26161 555 590//
AAXX 21181 15628 12980 20000 10001 21032 39904 40169 52014 60002 80001 333 10068 20000 555 578//
AAXX 21181 15642 12980 20000 10018 21004 39992 40164 52009 60002 80002 333 10070 20012 555 585//
AAXX 21181 15661 12570 20000 10038 20006 30125 40161 52007 60002 82500 222// 20000 333 10070 20038 555 580// 92012 92418
AAXX 21181 15726 11256 81402 11060 21068 38189 48459 53005 60002 70311 886// 333 10002 21084 43018 555 594//
BBXX VOXS 21184 99467 70480 41598 72733 10015 2101/ 40137 51027 70222 87500 22200 04020 20706 326// 40807 80005
AAXX 21184 71726 16/// /2003 11034 21059 39523 40069 58023 60001 333 11034 21145 70003
AAXX 21184 71727 11680 81305 11064 21093 39897 40099 56022 69901 78522 885// 333 11061 21180 48029 79999 90911
AAXX 21184 71728 12782 82204 11021 21069 39858 40082 57026 60001 885// 333 11021 21127 70000
AAXX 21184 71730 12974 51912 10009 21034 39620 40043 58025 60001 85070 333 10009 21065 79999
AAXX 21184 71731 11/08 90000 11003 21005 39599 40051 58023 69901 75652 333 11003 21072 41997 79999 90931
AAXX 21184 71735 NIL
AAXX 21184 71738 12574 82306 10011 21019 39677 40027 58003 60001 885// 333 10014 21026 70000
AAXX 21184 71739 41574 2207 11016 21040 39664 40026 57012 6//// 77122 885// 333 11015 21054 4//// 7//// 90931
AAXX 21184 71749 16964 02804 10000 21052 39799 40044 51007 60001 333 10002 21033 70000
AAXX 21184 71799 12483 62805 10022 20004 30320 40345 53025 60001 82801 333 10031 21027 70000
AAXX 21184 71800 16/// /2818 11019 21049 30153 40186 53016 60001 333 11015 21044 70013
AAXX 21184 71801 12574 72711 11036 21074 30000 40177 52022 60001 87500 333 11027 21049 70070
AAXX 21184 71803 11480 32517 11054 21097 39965 40156 52005 69901 73681 83500 333 11041 21064 46007 70044 90960
AAXX 21184 71807 NIL
AAXX 21184 71808 NIL
AAXX 21184 71809 11474 62211 11038 21089 30128 40156 56007 60011 78588 86500 333 11031 21076 47009 70098 90983 93101
AAXX 21184 71810 16/// /2310 11043 21097 30032 40100 56021 60001 333 11043 21129 70000
AAXX 21184 71811 NIL
AAXX 21184 71813 16/// /2509 11043 21084 30088 40102 58020 60001 333 11043 21197 70000
AAXX 21184 71814 16/// /3403 11087 21107 30105 40115 56025 60001 333 11082 21177 70000
AAXX 21184 71815 11574 82317 11013 21050 30133 40164 57013 69901 70282 885// 333 11012 21057 48011 70042 90933
AAXX 21184 71603 11469 81814 10046 20021 30139 40193 57027 69901 78022 885// 333 10046 21083 79999 90921
AAXX 21184 71607 16/// /0000 11005 21010 30120 40153 57039 60001 333 11005 21155 70000
AAXX 21184 71609 11459 81914 10020 21002 30031 40168 58032 69981 76111 885// 333 10034 21144 70008 90921
AAXX 21184 71610 15666 80502 10005 21024 39805 40106 58039 60001 333 10005 21144 70000
AAXX 21184 71621 11232 81003 10044 20042 39930 40036 58054 69961 76162 887// 333 10045 21049 70006 90916
AAXX 21184 71623 NIL
AAXX 21184 71624 11008 80604 10039 20039 39819 40030 57046 69941 74465 887// 333 10040 21033 70004 90931
AAXX 21184 71625 161// 8//// 11027 21032 39906 40068 56031 60001 333 11026 21066 70000
AAXX 21184 71627 11361 80310 11035 21067 30044 40089 58044 69901 70272 885// 333 11031 21085 79999 90921
AAXX 21184 71628 11260 80707 11033 21043 39931 40074 57041 69941 72472 88500 333 11032 21115 70004 909/6
AAXX 21184 71630 NIL
AAXX 21184 71631 17/// /1303 10032 20028 39522 40018 58040 60021 7//4/ 333 10032 21027 70015
AAXX 21184 71633 11358 80000 10037 20027 39764 40034 58027 60001 71022 886// 333 10039 21022 79999
AAXX 21184 71705 12474 81914 10021 21019 30070 40159 56036 60001 885// 333 10023 21124 70000
AAXX 21184 71706 12574 52215 10003 21046 30118 40180 56030 60001 81151 333 10003 21109 79999
AAXX 21184 71707 12574 72510 11029 21113 30126 40204 56009 60001 81152 333 11029 21074 44004 70002
AAXX 21184 71709 12580 72215 11008 21066 30152 40166 57023 60001 87170 333 11008 21057 70022
AAXX 21184 71711 NIL
AAXX 21184 71714 16/// /1601 11043 21099 30039 40133 56036 60001 333 11042 21207 70000
AAXX 21184 71715 16/// /2504 11025 21082 39928 40112 58009 60001 333 11019 21121 70000
AAXX 21184 71718 12574 72010 11026 21095 30039 40105 58022 69991 81571 333 11024 21062 79999
AAXX 21184 71719 16/// /2210 11036 21106 30133 40139 56026 60001 333 11036 21099 70000 555 10010
AAXX 21184 71925 11474 63115 11304 21347 30104 40147 55001 69901 77677 81670 333 11301 21326 42021 79999 90983
AAXX 21184 71816 11674 31902 11124 21177 39995 40058 56018 69901 70381 81570 333 11121 21223 47050 70012 90940
AAXX 21184 71817 12974 52212 11079 21147 30070 40083 57017 60001 85040 333 70000
AAXX 21184 71818 12974 72118 11119 21142 30032 40050 56028 60001 81048 333 11096 21159 70000
AAXX 21184 71822 11440 82108 11041 21051 39562 40039 58019 60031 77177 887// 333 11040 21148 47041 70026 90993 93103
AAXX 21184 71825 11566 52310 11104 21135 39350 40036 56008 69981 78572 85500 333 11101 21235 47086 70022 90957 93101
AAXX 21184 71827 11432 83308 11115 21124 39751 49996 53010 60021 77177 885// 333 11038 21115 47020 70060 90983 93102
AAXX 21184 71828 17420 92316 11094 21117 39326 49973 52002 60011 74544 333 11093 21247 70010
AAXX 21184 71831 11574 82206 10000 21014 39739 40018 50003 69901 70272 885// 333 10002 21031 48039 70008 90933
AAXX 21184 71832 NIL
AAXX 21184 71834 12374 82305 11017 21037 39601 40028 51010 60001 886// 333 11014 21041 70034
AAXX 21184 71841 NIL
AAXX 21184 71842 11366 83108 11027 21038 39590 40060 52015 69921 77177 887// 333 11012 21033 47010 70020 90973
AAXX 21184 71844 16964 03107 11197 21235 39826 40113 51011 60001 333 11097 21256 70005
AAXX 21184 71845 11358 83606 11117 21133 39598 40079 51028 69901 77175 885// 333 11033 21117 44018 70030 90973
AAXX 21184 71850 11474 63509 11040 21082 39589 40091 51028 69901 77122 86501 333 11010 21041 48007 79999 90931
AAXX 21184 71852 17464 83415 11037 21079 39837 40135 51031 60001 745// 333 11029 21074 70000
AAXX 21184 71854 11461 83305 11064 21100 39617 40094 51027 69921 77177 885// 333 11021 21065 48016 70044 90993
AAXX 21184 71858 NIL
AAXX 21184 71861 NIL
AAXX 21184 71862 11574 63411 11034 21072 39471 40181 51039 69901 70372 82501 333 11002 21067 41002 79999 90941
AAXX 21184 71863 46364 63413 11092 21125 39492 40206 51036 6///1 333 11012 21098 7////
AAXX 21184 71120 11574 82905 11036 21063 39550 40220 52016 69901 78582 8757/ 333 11036 21066 79999 90916
AAXX 21184 71043 12683 31006 11177 21219 39963 40059 58036 60001 81531 333 11174 21240 70000
AAXX 21184 71045 16/// /1609 11031 21083 39300 40182 57020 60001 333 11030 21192 70000 555 10040
AAXX 21184 71050 46/// /0000 11148 21165 39239 40368 51011 6///1 333 11066 21172 7////
AAXX 21184 71051 NIL
AAXX 21184 71052 NIL
AAXX 21184 71066 12974 72910 11039 21111 39756 40182 53004 60001 80001 333 11036 21189 70000
AAXX 21184 71068 12974 73713 11044 21082 39521 40226 53001 60001 80002 333 11023 21089 70002
AAXX 21184 71069 16964 02610 11028 21054 39509 40225 50001 60001 333 11019 21051 70020
AAXX 21184 71076 16/// /0000 11247 21272 39797 40209 52016 60001 333 11146 21281 70000 555 10040
AAXX 21184 71077 16/// /3108 11115 21141 39666 40223 51019 60001 333 11084 21132 70000
AAXX 21184 71079 NIL
AAXX 21184 71081 46959 03313 11326 21370 39972 49984 51006 6///1 333 11233 21327 7////
AAXX 21184 71082 NIL
AAXX 21184 71083 11912 53220 11318 21358 39991 40035 51017 69901 77673 80002 333 11317 21339 48054 79999 90983
AAXX 21184 71090 46464 83216 11185 21220 39941 49976 53003 6///1 333 11183 7////
AAXX 21184 71091 460// /0511 11269 39743 49958 53002 6///1 333 7////
AAXX 21184 71092 46964 00714 11244 39273 49952 57003 6///1 333 11244 21266 7////
AAXX 21184 71093 460// /0308 11207 39452 49954 55000 6///1 333 11202 21213 7////
AAXX 21184 71094 46002 /0302 11200 39008 49910 58004 6///1 333 11180 21200 7////
AAXX 21184 71095 46864 60703 11226 21261 39921 40003 58003 6///1 333 11220 21266 7////
AAXX 21184 71101 160// /1704 30271 56015 60001 333 70000
AAXX 21184 71104 12974 20000 11103 21126 39198 40349 52014 60001 80001 333 11028 21151 70000
AAXX 21184 71108 12583 20307 10018 20006 30272 40347 53026 60001 81601 333 10018 21024 79999
AAXX 21184 71109 12480 81203 10008 21006 30305 40332 50004 60001 82504 333 10038 21007 70000
AAXX 21184 71114 160// /1109 10020 20002 30309 40358 53027 60001 333 10038 20017 70025
AAXX 21184 71120 11674 82905 11036 21063 39550 40220 52016 69901 78582 8757/ 333 11036 21066 79999 90916
AAXX 21184 71122 16/// /2203 11068 21102 38637 40282 51020 60001 333 21114 7////
AAXX 21184 71123 11674 12709 11050 21085 39376 40260 50021 69901 70287 81570 333 11002 21058 44007 70023 90937
AAXX 21184 71125 11274 82807 11050 21066 39616 40217 51018 69901 77111 888// 333 45997 79999 90910
AAXX 21184 71129 12774 83006 11044 21072 39394 40242 51029 60001 8257/ 333 11010 21072 70000
AAXX 21184 71131 16/// /3614 11079 21091 38943 40222 51046 60001 333 11008 21079 70035
AAXX 21184 71135 17/// /3612 11080 21114 39105 40209 51044 69981 7//4/ 333 10001 21082 70008 555 10030
AAXX 21184 71137 NIL
AAXX 21184 71140 11474 82707 11037 21046 39644 40153 5/029 69901 77122 85// 333 11035 21093 43002 79999 90910
AAXX 21184 71145 11474 42904 11184 21213 39834 40138 51017 69901 72277 83501 333 11112 21188 48041 79999 90976
AAXX 21184 71148 NIL
AAXX 21184 71185 16564 62417 11029 30104 40128 57012 60001 333 11028 21058 70005
AAXX 21184 71188 12574 83104 11040 21130 30075 40119 57024 60001 82571 333 11039 21138 79999
AAXX 21184 71200 16/// /3607 10045 20009 60001 333 10054 20016 70000
AAXX 21184 71207 16/// /3202 11005 21005 30287 40353 53030 60001 333 10009 21028 7////
AAXX 21184 71260 13/// ///// 10031 21025 39802 40037 58018 60001 333 10034 21073 70000
AAXX 21184 71397 12574 81906 10014 21022 30157 40192 56036 60001 885// 333 10018 21108 70000
AAXX 21184 71400 16/64 /2405 11040 21083 60001 333 11036 21099 70006
AAXX 21184 71403 46/// /2220 10020 21026 30189 40209 56030 6///1 333 10024 21077 7////
AAXX 21184 71411 NIL
AAXX 21184 71412 16/// /2215 11007 21055 30170 40180 56029 60001 333 11005 21098 70000
AAXX 21184 71421 NIL
AAXX 21184 71430 16/// /1717 10067 20061 39944 40040 58045 60001 333 10067 21020 70000
AAXX 21184 71431 16/// /0404 10054 20048 39936 40031 56043 60001 333 10054 21029 70000
AAXX 21184 71432 NIL
AAXX 21184 71433 NIL
AAXX 21184 71435 NIL
AAXX 21184 71441 46/// /3618 11021 21063 39813 40124 51027 6///1 333 11008 21034 7////
AAXX 21184 71443 16/// /3108 11053 21086 39735 40152 51018 60001 333 11015 21074 70000
AAXX 21184 71444 NIL
AAXX 21184 71447 16/// /3313 11027 21063 39603 40153 51027 60001 333 11011 21081 70000
AAXX 21184 71467 16/// /1305 11231 21252 39970 40088 57020 60001 333 11230 21263 70000 555 10010
AAXX 21184 71472 NIL
AAXX 21184 71474 16964 03002 11038 21110 39066 40335 51015 60001 333 11015 21091 7////
AAXX 21184 71510 NIL
AAXX 21184 71538 11256 82517 10098 20095 39783 40010 56027 60011 78064 887// 333 10105 20011 70020 90917
AAXX 21184 71600 16564 32414 10027 21034 30230 40236 56019 60001 333 10031 21021 70010
AAXX 21184 71601 NIL
AAXX 21184 71051 NIL
AAXX 21184 71055 NIL
AAXX 21184 71057 NIL
AAXX 21184 71059 460// ///// 11241 30012 40106 58017 6///1 333 11213 21284 7////
AAXX 21184 71061 16/// /2408 11043 21072 39443 40240 51012 60001 333 11008 21059 70007 555 10010
AAXX 21184 71062 46/// /2608 11045 21082 39154 40245 51012 6///1 333 11012 21068 7////
AAXX 21184 71064 460// /2808 11298 39929 40157 56005 6///1 333 11297 21332 7////
AAXX 21184 71065 NIL
AAXX 21184 71067 NIL
AAXX 21184 71070 NIL
AAXX 21184 71073 NIL
AAXX 21184 71074 NIL
AAXX 21184 71075 NIL
AAXX 21184 71078 17466 83511 11174 21208 39702 40162 51034 60001 771// 333 11160 21174 70000
AAXX 21184 71084 460// ///// 11314 30057 40107 53010 6///1 333 11306 21315 7////
AAXX 21184 71085 15966 11505 11028 21079 38877 40288 51035 60001 333 11003 21055 70000
AAXX 21184 71087 NIL
AAXX 21184 71088 460// /3205 11238 55001 6///1 333 11238 21305 7////
AAXX 21184 71089 NIL
AAXX 21184 71096 460// ///// 11238 39206 49950 56003 6///1 333 11213 21242 7////
AAXX 21184 71097 47002 01222 11130 39394 49866 56030 6///1 745// 333 11130 21158 7////
AAXX 21184 71098 43/// /3404 11151 21168 39749 40115 51016 6///1 333 11033 21153 7////
AAXX 21184 71099 43/// /2809 11225 21273 30069 40090 51013 6///1 333 11180 21261 7////
AAXX 21184 71603 11469 81814 10046 20021 30139 40193 57027 69901 78022 885// 333 10046 21083 79999 90921
AAXX 21184 71607 16/// /0000 11005 21010 30120 40153 57039 60001 333 11005 21155 70000
AAXX 21184 71609 11459 81914 10020 21002 30031 40168 58032 69981 76111 885// 333 10034 21144 70008 90921
AAXX 21184 71610 15666 80502 10005 21024 39805 40106 58039 60001 333 10005 21144 70000
AAXX 21184 71621 11232 81003 10044 20042 39930 40036 58054 69961 76162 887// 333 10045 21049 70006 90916
AAXX 21184 71623 NIL
AAXX 21184 71624 11008 80604 10039 20039 39819 40030 57046 69941 74465 887// 333 10040 21033 70004 90931
AAXX 21184 71625 161// 8//// 11027 21032 39906 40068 56031 60001 333 11026 21066 70000
AAXX 21184 71627 11361 80310 11035 21067 30044 40089 58044 69901 70272 885// 333 11031 21085 79999 90921
AAXX 21184 71628 11260 80707 11033 21043 39931 40074 57041 69941 72472 88500 333 11032 21115 70004 909/6
AAXX 21184 71630 NIL
AAXX 21184 71631 17/// /1303 10032 20028 39522 40018 58040 60021 7//4/ 333 10032 21027 70015
AAXX 21184 71633 11358 80000 10037 20027 39764 40034 58027 60001 71022 886// 333 10039 21022 79999
AAXX 21184 71705 12474 81914 10021 21019 30070 40159 56036 60001 885// 333 10023 21124 70000
AAXX 21184 71706 12574 52215 10003 21046 30118 40180 56030 60001 81151 333 10003 21109 79999
AAXX 21184 71707 12574 72510 11029 21113 30126 40204 56009 60001 81152 333 11029 21074 44004 70002
AAXX 21184 71709 12580 72215 11008 21066 30152 40166 57023 60001 87170 333 11008 21057 70022
AAXX 21184 71711 NIL
AAXX 21184 71714 16/// /1601 11043 21099 30039 40133 56036 60001 333 11042 21207 70000
AAXX 21184 71715 16/// /2504 11025 21082 39928 40112 58009 60001 333 11019 21121 70000
AAXX 21184 71718 12574 72010 11026 21095 30039 40105 58022 69991 81571 333 11024 21062 79999
AAXX 21184 71719 16/// /2210 11036 21106 30133 40139 56026 60001 333 11036 21099 70000 555 10010
AAXX 21184 71950 15964 01302 11100 21107 39672 40325 55002 60001 333 11032 21113 70000
AAXX 21184 71952 16/// /0000 11170 21186 39443 40341 51004 60001 333 11110 21198 70000
AAXX 21184 71954 46/// /3407 11093 21121 39772 40157 51028 6///1 333 11085 21109 7////
AAXX 21184 71956 NIL
AAXX 21184 71959 NIL
AAXX 21184 71960 460// /1011 11250 39909 40047 56028 6///1 333 11243 21302 7////
AAXX 21184 71962 16/// /3310 11017 21076 39655 40078 51027 60001 333 10000 21026 70033
AAXX 21184 71963 NIL
AAXX 21184 71967 16/// /0303 11005 21022 30004 40111 56037 60001 333 11003 21115 70000
AAXX 21184 71970 NIL
AAXX 21184 71971 NIL
AAXX 21184 71972 460// ///// 11136 39394 49855 56014 6///1 333 11121 21160 7////
AAXX 21184 71973 46/// /2205 11033 21068 39963 40154 56015 6///1 333 11032 21072 7////
AAXX 21184 71974 NIL
AAXX 21184 71975 460// /0718 11177 39179 49910 57013 6///1 333 11177 21192 7////
AAXX 21184 71976 NIL
AAXX 21184 71977 NIL
AAXX 21184 71978 NIL
AAXX 21184 71979 NIL
AAXX 21184 71980 NIL
AAXX 21184 71981 NIL
AAXX 21184 71982 NIL
AAXX 21184 71983 NIL
AAXX 21184 71984 16/// /1107 11172 21204 30068 40076 56025 60001 333 11163 21288 70000
AAXX 21184 71985 NIL
AAXX 21184 71986 NIL
AAXX 21184 71987 16/// /2214 10008 21035 30135 40145 56029 60001 333 10014 21092 70000
AAXX 21184 71988 NIL
AAXX 21184 71989 NIL
AAXX 21184 71990 NIL
AAXX 21184 71999 46/// ///// 11020 6///1 333 10071 21030 7////
AAXX 21184 71150 NIL
AAXX 21184 71151 NIL
AAXX 21184 71152 16/// /3007 11013 21059 30167 40180 58009 60001 333 11012 21059 70000
AAXX 21184 71153 17/// /3511 11038 21063 69931 7//4/ 333 11004 21043 70003
AAXX 21184 71154 17/// /0205 11040 21091 69981 7//4/ 333 10002 21051 70008
AAXX 21184 71155 NIL
AAXX 21184 71156 NIL
AAXX 21184 71157 NIL
AAXX 21184 71158 NIL
AAXX 21184 71159 NIL
AAXX 21184 71160 NIL
AAXX 21184 71161 17/// /0603 10011 20004 39906 40055 58044 69931 7//4/ 333 10013 21102 70003
AAXX 21184 71162 NIL
AAXX 21184 71163 46/// /1103 11231 21252 39810 40173 58004 6///1 333 11230 21323 7////
AAXX 21184 71164 NIL
AAXX 21184 71165 NIL
AAXX 21184 71166 NIL
AAXX 21184 71167 15966 01501 11052 21074 39146 40268 50006 60001 333 11016 21097 70003
AAXX 21184 71168 16/// /3507 10003 21055 39489 40084 50021 60001 333 10006 21101 70000
AAXX 21184 71170 NIL
AAXX 21184 71171 17/// /3005 10048 20044 39922 40018 56040 60031 7//4/ 333 10059 20007 70030
AAXX 21184 71172 16/// ///// 10018 20008 39814 40030 58030 60001 333 10018 21043 70000
AAXX 21184 71175 NIL
AAXX 21184 71176 460// /2112 11145 39170 49852 56015 6///1 333 11144 21212 7////
AAXX 21184 71177 460// /2317 11173 38895 49910 56014 6///1 333 11144 21200 7////
AAXX 21184 71178 16/// /2617 11024 21068 30120 40152 53011 60001 333 11010 21039 70049
AAXX 21184 71179 460// ///// 11195 39146 49989 56019 6///1 333 11163 21216 7////
AAXX 21184 71180 16/// /2216 11015 21059 30148 40188 55010 60001 333 11010 21046 70007
AAXX 21184 71181 17564 62818 11019 21075 30131 40168 53008 60001 745// 333 11015 21045 70005
AAXX 21184 71183 16/// /0210 30047 56044 60001 333 70000
AAXX 21184 71184 46/// /0308 11036 21057 6///1 333 11035 21116 7////
AAXX 21184 71186 NIL
AAXX 21184 71187 15666 11109 10019 20009 30308 40357 53027 60001 333 10037 20017 70000
AAXX 21184 71189 NIL
AAXX 21184 71190 NIL
AAXX 21184 71191 16/// ///// 10026 21008 60001 333 10026 21121 70000 555 10010
AAXX 21184 71192 15966 00202 11115 21121 39668 40355 53012 60001 333 11006 21133 70000
AAXX 21184 71193 16/// /2006 11019 21036 39665 40027 56010 60001 333 11019 21057 70000 555 10010
AAXX 21184 71196 16/// /1004 11032 21036 39865 40065 57032 60001 333 11031 21102 70000 555 10010
AAXX 21184 71197 16564 62420 11014 21062 30139 40189 55007 60001 333 11010 70005
AAXX 21184 71198 46/// /0309 11038 21065 6///1 333 11037 21083 7////
AAXX 21184 71199 46/// /1803 11054 21097 39340 40201 58027 6///1 333 11054 21237 7//// 555 10010
AAXX 21184 71401 16/// /0101 11047 21059 39616 40321 53032 60001 333 11025 21052 70008
AAXX 21184 71402 NIL
AAXX 21184 71404 NIL
AAXX 21184 71405 NIL
AAXX 21184 71406 NIL
AAXX 21184 71407 NIL
AAXX 21184 71408 NIL
AAXX 21184 71409 NIL
AAXX 21184 71410 17564 82304 11138 21167 39859 40146 52015 60001 771// 333 11091 21151 70000
AAXX 21184 71413 NIL
AAXX 21184 71414 NIL
AAXX 21184 71415 16/// /2213 10007 21057 30183 40186 56029 60001 333 10011 21101 70000
AAXX 21184 71417 NIL
AAXX 21184 71418 NIL
AAXX 21184 71419 46/// /2217 10009 21043 30199 40209 56023 6///1 333 10009 21081 7////
AAXX 21184 71423 NIL
AAXX 21184 71424 46/// /2603 6///1 333 7////
AAXX 21184 71425 NIL
AAXX 21184 71426 NIL
AAXX 21184 71427 16/// /2324 11019 21048 30088 40096 56020 60001 333 11018 21130 70000
AAXX 21184 71428 16/// /2207 11022 21114 30094 40100 56024 60001 333 11022 21103 70000
AAXX 21184 71429 16/// /2415 11040 21090 30100 40120 56026 60001 333 11037 21128 70000
AAXX 21184 71434 NIL
AAXX 21184 71436 17116 82901 10015 20014 39812 40047 58041 69931 7104/ 333 10015 21060 70003
AAXX 21184 71437 46/// /3304 10036 20025 39928 40023 56048 6///1 333 10040 21013 7////
AAXX 21184 71438 NIL
AAXX 21184 71439 NIL
AAXX 21184 71440 NIL
AAXX 21184 71442 16/// /3409 11071 21091 39821 40140 51025 60001 333 11014 21071 70000
AAXX 21184 71445 NIL
AAXX 21184 71446 NIL
AAXX 21184 71448 16/// /3311 11046 21077 39782 40114 51030 60001 333 10006 21046 70000
AAXX 21184 71449 NIL
AAXX 21184 71700 17420 83502 11062 21076 30137 40163 56031 60001 771// 333 11062 21165 70000
AAXX 21184 71701 11424 80000 11058 21081 30099 40163 57029 69901 77181 885// 333 11058 21164 45997 79999 90931
AAXX 21184 71702 16/// /2216 10013 21029 30140 40155 56034 60001 333 10014 21115 70000 555 10020
AAXX 21184 71703 12574 81906 11051 21084 39829 40134 57029 60001 885// 333 11049 21169 70000
AAXX 21184 71704 17112 83106 10069 20069 39786 40004 56038 60041 7104/ 333 10071 21002 70038
AAXX 21184 71710 17/// /2314 11009 21064 30153 40163 56024 60011 7//4/ 333 11009 21057 70010
AAXX 21184 71712 16/// /0506 11005 21015 30018 40080 56042 60001 333 11002 21107 70000
AAXX 21184 71713 NIL
AAXX 21184 71716 NIL
AAXX 21184 71717 NIL
AAXX 21184 71720 16/// /0000 10020 20000 30193 40350 53026 60001 333 10040 21024 70000
AAXX 21184 71721 16/// /1701 11028 21042 39824 40073 58031 60001 333 11028 21115 70000
AAXX 21184 71723 16/// /0506 11044 21075 30098 40108 56036 60001 333 11044 21118 70000
AAXX 21184 71724 NIL
AAXX 21184 71732 NIL
AAXX 21184 71733 16/// /1908 10008 21034 39612 40037 58026 60001 333 10009 21069 70000
AAXX 21184 71734 NIL
AAXX 21184 71736 NIL
AAXX 21184 71737 NIL
AAXX 21184 71741 16/// /2207 10021 21075 39913 40344 53026 60001 333 10044 21025 70000
AAXX 21184 71742 NIL
AAXX 21184 71743 NIL
AAXX 21184 71744 NIL
AAXX 21184 71745 NIL
AAXX 21184 71746 NIL
AAXX 21184 71747 NIL
AAXX 21184 71748 NIL
AAXX 21184 71726 16/// /2003 11034 21059 39523 40069 58023 60001 333 11034 21145 70003
AAXX 21184 71727 11680 81305 11064 21093 39897 40099 56022 69901 78522 885// 333 11061 21180 48029 79999 90911
AAXX 21184 71728 12782 82204 11021 21069 39858 40082 57026 60001 885// 333 11021 21127 70000
AAXX 21184 71730 12974 51912 10009 21034 39620 40043 58025 60001 85070 333 10009 21065 79999
AAXX 21184 71731 11/08 90000 11003 21005 39599 40051 58023 69901 75652 333 11003 21072 41997 79999 90931
AAXX 21184 71735 NIL
AAXX 21184 71738 12574 82306 10011 21019 39677 40027 58003 60001 885// 333 10014 21026 70000
AAXX 21184 71739 41574 2207 11016 21040 39664 40026 57012 6//// 77122 885// 333 11015 21054 4//// 7//// 90931
AAXX 21184 71749 16964 02804 10000 21052 39799 40044 51007 60001 333 10002 21033 70000
AAXX 21184 71799 12483 62805 10022 20004 30320 40345 53025 60001 82801 333 10031 21027 70000
AAXX 21184 71800 16/// /2818 11019 21049 30153 40186 53016 60001 333 11015 21044 70013
AAXX 21184 71801 12574 72711 11036 21074 30000 40177 52022 60001 87500 333 11027 21049 70070
AAXX 21184 71803 11480 32517 11054 21097 39965 40156 52005 69901 73681 83500 333 11041 21064 46007 70044 90960
AAXX 21184 71807 NIL
AAXX 21184 71808 NIL
AAXX 21184 71809 11474 62211 11038 21089 30128 40156 56007 60011 78588 86500 333 11031 21076 47009 70098 90983 93101
AAXX 21184 71810 16/// /2310 11043 21097 30032 40100 56021 60001 333 11043 21129 70000
AAXX 21184 71811 NIL
AAXX 21184 71813 16/// /2509 11043 21084 30088 40102 58020 60001 333 11043 21197 70000
AAXX 21184 71814 16/// /3403 11087 21107 30105 40115 56025 60001 333 11082 21177 70000
AAXX 21184 71815 11574 82317 11013 21050 30133 40164 57013 69901 70282 885// 333 11012 21057 48011 70042 90933
AAXX 21184 71043 12683 31006 11177 21219 39963 40059 58036 60001 81531 333 11174 21240 70000
AAXX 21184 71045 16/// /1609 11031 21083 39300 40182 57020 60001 333 11030 21192 70000 555 10040
AAXX 21184 71050 46/// /0000 11148 21165 39239 40368 51011 6///1 333 11066 21172 7////
AAXX 21184 71051 NIL
AAXX 21184 71052 NIL
AAXX 21184 71066 12974 72910 11039 21111 39756 40182 53004 60001 80001 333 11036 21189 70000
AAXX 21184 71068 12974 73713 11044 21082 39521 40226 53001 60001 80002 333 11023 21089 70002
AAXX 21184 71069 16964 02610 11028 21054 39509 40225 50001 60001 333 11019 21051 70020
AAXX 21184 71076 16/// /0000 11247 21272 39797 40209 52016 60001 333 11146 21281 70000 555 10040
AAXX 21184 71077 16/// /3108 11115 21141 39666 40223 51019 60001 333 11084 21132 70000
AAXX 21184 71079 NIL
AAXX 21184 71081 46959 03313 11326 21370 39972 49984 51006 6///1 333 11233 21327 7////
AAXX 21184 71082 NIL
AAXX 21184 71083 11912 53220 11318 21358 39991 40035 51017 69901 77673 80002 333 11317 21339 48054 79999 90983
AAXX 21184 71090 46464 83216 11185 21220 39941 49976 53003 6///1 333 11183 7////
AAXX 21184 71091 460// /0511 11269 39743 49958 53002 6///1 333 7////
AAXX 21184 71092 46964 00714 11244 39273 49952 57003 6///1 333 11244 21266 7////
AAXX 21184 71093 460// /0308 11207 39452 49954 55000 6///1 333 11202 21213 7////
AAXX 21184 71094 46002 /0302 11200 39008 49910 58004 6///1 333 11180 21200 7////
AAXX 21184 71095 46864 60703 11226 21261 39921 40003 58003 6///1 333 11220 21266 7////
AAXX 21184 71101 160// /1704 30271 56015 60001 333 70000
AAXX 21184 71104 12974 20000 11103 21126 39198 40349 52014 60001 80001 333 11028 21151 70000
AAXX 21184 71108 12583 20307 10018 20006 30272 40347 53026 60001 81601 333 10018 21024 79999
AAXX 21184 71109 12480 81203 10008 21006 30305 40332 50004 60001 82504 333 10038 21007 70000
AAXX 21184 71812 46208 83221 11317 21361 30076 40090 5/017 6///1 333 11311 7////
AAXX 21184 71819 17566 62617 11064 21093 30067 40109 56006 60001 771// 333 11063 21148 70000
AAXX 21184 71820 17/// /1507 10054 20047 39941 40054 58040 60011 7//4/ 333 10056 21067 70010 555 10010
AAXX 21184 71823 17550 82312 11034 21047 39594 49973 52002 69951 74544 333 11031 21166 70030
AAXX 21184 71824 NIL
AAXX 21184 71826 16/// /0807 11158 21230 39880 49923 56009 60001 333 11151 21197 70000
AAXX 21184 71829 16/// /2205 11042 21107 39929 40093 56022 60001 333 11042 21147 70000
AAXX 21184 71833 46/// /0904 10026 20026 6///1 333 10026 21038 7////
AAXX 21184 71835 16/// /0307 11114 21132 39589 40074 51029 60001 333 11033 21115 70010 555 10020
AAXX 21184 71837 NIL
AAXX 21184 71839 NIL
AAXX 21184 71840 NIL
AAXX 21184 71846 NIL
AAXX 21184 71847 NIL
AAXX 21184 71848 NIL
AAXX 21184 71849 16/// /3415 11039 21078 39836 40138 51031 60001 333 11031 21074 70000
AAXX 21184 71450 NIL
AAXX 21184 71451 NIL
AAXX 21184 71452 46/// /3313 11069 21095 39469 40193 5/042 6///1 333 7////
AAXX 21184 71453 NIL
AAXX 21184 71454 NIL
AAXX 21184 71455 NIL
AAXX 21184 71456 NIL
AAXX 21184 71457 16/// /3405 11033 21059 39351 40260 51040 60001 333 11005 21043 70000
AAXX 21184 71458 16/// /2810 11035 21065 39454 40239 51018 60001 333 11011 21055 70000
AAXX 21184 71459 NIL
AAXX 21184 71460 16/// /3403 10018 21028 39808 40048 58022 60001 333 10022 21032 70000
AAXX 21184 71461 NIL
AAXX 21184 71462 NIL
AAXX 21184 71463 46/// /1813 10083 20065 39809 40029 58045 6///1 333 10085 20003 7////
AAXX 21184 71464 NIL
AAXX 21184 71465 NIL
AAXX 21184 71466 NIL
AAXX 21184 71468 NIL
AAXX 21184 71470 NIL
AAXX 21184 71471 15966 02403 11043 21091 39444 40252 53004 60001 333 11022 21123 70000
AAXX 21184 71473 16/// /0507 10041 20014 30308 40339 52024 60001 333 10047 20028 70000
AAXX 21184 71475 16/// /0000 11007 21008 30258 40354 53024 60001 333 10027 21010 70000
AAXX 21184 71476 NIL
AAXX 21184 71477 16/// /1908 10042 20027 60001 333 10052 20006 70004
AAXX 21184 71478 NIL
AAXX 21184 71479 NIL
AAXX 21184 71480 NIL
AAXX 21184 71481 NIL
AAXX 21184 71482 NIL
AAXX 21184 71483 NIL
AAXX 21184 71484 NIL
AAXX 21184 71485 16/// /1311 10037 20023 30307 40328 51002 60001 333 10067 20030 70002
AAXX 21184 71486 16/// /1604 11039 21089 39057 40284 51015 60001 333 11013 21056 70006
AAXX 21184 71487 NIL
AAXX 21184 71489 16/// /2808 11048 21065 39415 40227 51021 60001 333 11019 21085 70000
AAXX 21184 71490 NIL
AAXX 21184 71491 16/// /0503 11197 21219 60001 333 11087 21306 70000
AAXX 21184 71492 NIL
AAXX 21184 71493 16/// /1905 10020 21034 30144 40183 56028 60001 333 10025 21133 70000 555 10010
AAXX 21184 71494 16/// /1301 11037 21046 39583 40113 56030 60001 333 11037 21158 70000
AAXX 21184 71495 NIL
AAXX 21184 71496 16/// /3010 11058 21085 39590 40214 51017 60001 333 11015 21117 70000
AAXX 21184 71497 46/// /1904 11002 21102 39896 40166 56006 6///1 333 10010 21172 7////
AAXX 21184 71498 NIL
AAXX 21184 71499 17466 82908 11166 21191 39541 40190 51027 60001 771// 333 11106 21167 70000
AAXX 21184 71300 NIL
AAXX 21184 71301 NIL
AAXX 21184 71302 16/// /1707 11080 21096 39485 40329 53014 60001 333 11006 21102 70000
AAXX 21184 71303 46/// ///// 10089 20070 6///1 333 10122 20030 7////
AAXX 21184 71305 15466 80902 11165 21186 39905 40207 51007 60001 333 11141 21230 70000
AAXX 21184 71306 17210 82923 11170 21192 39910 49942 51034 60001 771// 333 11078 21173 70000
AAXX 21184 71307 NIL
AAXX 21184 71308 16/// /2109 10000 21094 30118 40204 56027 60001 333 10002 7////
AAXX 21184 71309 NIL
AAXX 21184 71310 16/// /2011 11004 21057 30139 40177 56028 60001 333 11004 21106 70000
AAXX 21184 71311 NIL
AAXX 21184 71312 NIL
AAXX 21184 71314 16/// /1003 10021 20014 39682 40032 58038 60001 333 10022 21042 70000 555 10010
AAXX 21184 71315 17/// /0903 11077 21115 30084 40139 56025 69931 7//4/ 333 11071 21145 70003
AAXX 21184 71316 16/// /2809 11032 21070 39520 40217 51011 60001 333 11027 21054 70004
AAXX 21184 71317 NIL
AAXX 21184 71318 16/// /2910 11033 21046 39286 40249 51023 60001 333 10000 21060 70003 555 10010
AAXX 21184 71319 16/// /2405 11053 21069 39218 40093 56019 60001 333 11052 21163 70000
AAXX 21184 71320 16/// /3212 11327 21358 39976 49976 51006 60001 333 11230 21327 70000
AAXX 21184 71321 NIL
AAXX 21184 71322 NIL
AAXX 21184 71323 NIL
AAXX 21184 71331 16/// /3405 11103 21143 60001 333 11093 21116 70000
AAXX 21184 71332 NIL
AAXX 21184 71334 NIL
AAXX 21184 71335 46964 02215 11129 56018 6///1 333 11112 21184 7////
AAXX 21184 71336 46/// ///14 11021 21060 30122 40145 53021 6///1 333 11010 21038 7////
AAXX 21184 71337 46/// /2407 11052 21084 39887 40128 58001 6///1 333 11038 21074 7////
AAXX 21184 71338 46564 81805 11248 21293 39958 49965 56004 6///1 333 21301 7////
AAXX 21184 71339 16964 02313 11080 21144 30070 40085 56016 60001 333 11075 70000
AAXX 21184 71340 NIL
AAXX 21184 71341 NIL
AAXX 21184 71342 NIL
AAXX 21184 71343 NIL
AAXX 21184 71344 NIL
AAXX 21184 71345 NIL
AAXX 21184 71346 NIL
AAXX 21184 71347 NIL
AAXX 21184 71348 NIL
AAXX 21184 71349 NIL
AAXX 21184 71102 NIL
AAXX 21184 71105 NIL
AAXX 21184 71107 NIL
AAXX 21184 71110 NIL
AAXX 21184 71111 15666 81805 10026 20005 30274 40282 56014 60001 333 10028 21011 70000
AAXX 21184 71112 16/// ///// 60001 333 70002
AAXX 21184 71113 17/// /3605 10045 20010 30320 40344 53025 69961 7//4/ 333 10048 20020 70014
AAXX 21184 71115 16/// /2903 10003 21060 39732 40329 51022 60001 333 10003 21052 70007
AAXX 21184 71116 16/// /3513 11032 21066 39134 40252 53048 60001 333 11010 21057 70000
AAXX 21184 71118 16/// /2607 11047 21060 39398 40242 51018 60001 333 11024 21061 70003
AAXX 21184 71121 17964 02710 11046 21110 39410 40250 51018 69951 7//44 333 11010 21053 70010
AAXX 21184 71127 16/// /2708 11049 21087 39323 40255 51016 60001 333 11005 21055 70013 555 10050
AAXX 21184 71130 17566 82713 11073 21110 39716 40182 51023 60001 771// 333 11035 21082 70000
AAXX 21184 71132 17912 02802 11184 21220 39874 40200 51024 60001 704// 333 11125 21217 70000
AAXX 21184 71133 NIL
AAXX 21184 71139 17/// /3604 11080 21090 38737 40224 51046 60041 7//4/ 333 11020 21085 70084
AAXX 21184 71141 NIL
AAXX 21184 71142 16866 8//// 11077 21086 39242 40230 51041 60001 333 10000 21094 70003
AAXX 21184 71143 NIL
AAXX 21184 71144 NIL
AAXX 21184 71147 NIL
AAXX 21184 71149 16/// /3503 11063 21087 60001 333 10007 21063 70000
AAXX 21184 71925 11474 53115 11304 21347 30104 40147 55001 69901 77677 81670 333 11301 21326 42021 79999 90983
AAXX 21181 01015 46/// /1607 10024 21022 333 10032 91110
AAXX 21181 01180 11675 81901 10016 21020 39984 40042 50000 60002 70222 885// 333 10023 91105
AAXX 21181 01425 16/// /3501 11065 21071 30069 40152 53014 60002 333 11040 91101
AAXX 21181 01450 16/// /1601 11108 21125 38970 40168 53007 60002 333 11040 91105
AAXX 21181 01092 46/// /2307 11012 21049 333 10032 91110
AAXX 21181 01262 46/// /2712 10029 21004 333 10052 91117
AAXX 21181 01393 16/// /3101 11222 21245 39310 40191 52010 6//// 333 11159 91102
AAXX 21181 01436 16/// /0504 10006 21021 6//// 333 10024 91106
AAXX 21181 01277 16/// /0000 11036 21045 60002 333 10011 91106
AAXX 21181 01476 16/// /3102 11024 21039 30139 40145 53014 6//// 333 10001 91103
AAXX 21181 01440 46/// /1303 11107 21118 38823 40163 51006 333 11051 91103
AAXX 21181 01441 16/// /0401 11158 21177 39131 40187 53008 60002 333 11136 91102
AAXX 21181 01293 11765 42801 11075 21081 39903 40120 52008 60002 70220 84100 333 11052 91104
AAXX 21181 01380 11484 43402 11155 21175 60002 70310 84500 333 11085 4/028 91103
AAXX 21184 71550 NIL
AAXX 21184 71551 NIL
AAXX 21184 71552 NIL
AAXX 21184 71553 NIL
AAXX 21184 71554 NIL
AAXX 21184 71555 NIL
AAXX 21184 71556 NIL
AAXX 21184 71557 46/// /1102 11043 21057 6///1 333 11028 21097 7////
AAXX 21184 71558 46/// ///// 11065 21094 30064 40102 58005 6///1 333 11062 21144 7////
AAXX 21184 71559 46/// /3511 11035 21071 39468 40178 51040 6///1 333 11001 21062 7////
AAXX 21184 71560 16/// /3518 11019 21056 39818 40121 51026 60001 333 11013 21045 70000
AAXX 21184 71563 NIL
AAXX 21184 71564 NIL
AAXX 21184 71565 NIL
AAXX 21184 71566 NIL
AAXX 21184 71567 NIL
AAXX 21184 71568 16/// /1303 10039 20013 30333 40346 51022 60001 333 10067 20032 70004
AAXX 21184 71569 16/// /3214 11078 21108 39475 40189 51038 60001 333 11015 21089 70000
AAXX 21184 71570 16/// /3108 11045 21084 39806 40120 51030 60001 333 10003 21046 70000
AAXX 21184 71571 NIL
AAXX 21184 71572 NIL
AAXX 21184 71573 17/// /1001 10063 20056 39727 40006 58045 60041 7//4/ 333 10063 21008 70044
AAXX 21184 71574 12674 70000 11025 21122 30060 40135 56027 60001 86571 333 11015 21142 70000
AAXX 21184 71575 16/// /0512 11165 21180 39780 49845 53003 60001 333 11143 21206 70018 555 10050
AAXX 21184 71576 16/// /0703 11230 21256 39917 40004 58002 60001 333 11218 21266 70000
AAXX 21184 71577 NIL
AAXX 21184 71578 16/// /2103 11045 21099 60001 333 11045 21131 70000
AAXX 21184 71579 16/// /3307 11035 21075 39840 40126 51031 60001 333 10000 21037 70000
AAXX 21184 71580 11574 12104 11347 21410 30013 40051 52009 69901 70171 81530 333 11335 21368 46030 70004 90951
AAXX 21184 71581 NIL
AAXX 21184 71582 15966 01504 10010 20010 30281 40336 58010 60001 333 10010 21011 70003
AAXX 21184 71583 NIL
AAXX 21184 71584 17420 80604 11087 21102 30053 40102 57021 60001 771// 333 11086 21188 70000
AAXX 21184 71585 NIL
AAXX 21184 71586 16/// /3113 11101 21146 39705 40181 51027 60001 333 11075 21101 70000
AAXX 21184 71587 NIL
AAXX 21184 71588 16/// /1604 11038 21071 60001 333 11038 21065 70000
AAXX 21184 71589 NIL
AAXX 21184 71590 16/// /1403 11037 21122 39930 40126 56026 60001 333 11037 21190 70000
AAXX 21184 71592 NIL
AAXX 21184 71593 NIL
AAXX 21184 71596 NIL
AAXX 21184 71598 16/64 /2304 11017 21129 30132 40138 56030 60001 333 11017 21107 70000
AAXX 21184 71599 NIL
AAXX 21184 71900 46/// /21// 11138 21180 39980 49993 56023 6///1 333 11138 21191 7////
AAXX 21184 71903 NIL
AAXX 21184 71904 NIL
AAXX 21184 71914 16/// /0401 10038 20017 30117 40343 53024 60001 333 10045 20027 70000
AAXX 21184 71916 NIL
AAXX 21184 71918 460// ///// 11284 6///1 333 7////
AAXX 21184 71920 NIL
AAXX 21184 71921 NIL
AAXX 21184 71923 NIL
AAXX 21184 71927 16/// /1601 11002 21019 30287 40346 53025 60001 333 10017 21035 70000
AAXX 21184 71941 15466 82308 11016 21041 39633 40051 58021 60001 333 11016 21093 70000
AAXX 21184 71947 17466 82108 11033 21044 39678 40025 58009 69931 7714/ 333 11033 21101 70008
AAXX 21184 71665 NIL
AAXX 21184 71666 16/// /2108 10014 21019 30104 40149 56034 60001 333 10014 21130 70000
AAXX 21184 71667 NIL
AAXX 21184 71668 16/// /3403 11062 21076 30116 40161 56030 60001 333 11061 21154 70000
AAXX 21184 71669 NIL
AAXX 21184 71670 16/// ///// 10002 21035 60001 333 10002 21118 70000
AAXX 21184 71671 16/// /2007 10011 21035 30123 40184 56034 60001 333 10011 21094 70000
AAXX 21184 71672 16/// /0502 10017 20009 39779 40043 58042 60001 333 10017 21078 70000
AAXX 21184 71673 NIL
AAXX 21184 71674 NIL
AAXX 21184 71675 15966 13107 11196 21219 39825 40112 51011 60011 333 11097 21238 70093
AAXX 21184 71679 16/// /0504 11078 21086 39269 40312 53003 60001 333 11010 21086 70000
AAXX 21184 71680 NIL
AAXX 21184 71681 46/// /2001 11031 21044 6///1 333 10055 21037 7////
AAXX 21184 71682 NIL
AAXX 21184 71683 NIL
AAXX 21184 71684 15966 02004 11002 21054 39742 40042 58019 60001 333 11001 21071 70000
AAXX 21184 71685 15766 63601 11012 21018 39771 40325 53030 60001 333 11002 21028 70000
AAXX 21184 71686 469// /2504 11119 21131 39257 40242 56020 6///1 333 11077 21139
AAXX 21184 71687 16/// /0401 11058 21065 39543 40352 51027 60001 333 11031 21073 70000
AAXX 21184 71688 16/// /0801 11067 21074 39268 40336 52023 60001 333 11044 21079 70000
AAXX 21184 71689 15566 81303 11109 21121 39731 40201 58002 60001 333 11097 21155 70000
AAXX 21184 71690 NIL
AAXX 21184 71691 15866 82414 11029 21077 30068 40096 56025 60001 333 11026 21178 70000
AAXX 21184 71692 NIL
AAXX 21184 71694 16/// /0601 10012 20009 39691 40053 58034 60001 333 10012 21074 70000
AAXX 21184 71695 16/// /3012 11074 21099 39803 40143 51018 60001 333 11069 21093 70000
AAXX 21184 71696 16/// /3016 11273 21310 30068 40107 53012 60001 333 11265 21285 70000
AAXX 21184 71697 17116 80704 10043 20043 39864 40034 56048 60001 710// 333 10043 21037 70000
AAXX 21184 71699 16/// /2015 10053 20027 30155 40163 56033 60001 333 10053 21126 70007
AAXX 21184 71851 NIL
AAXX 21184 71857 NIL
AAXX 21184 71860 12783 33172 11047 21111 38854 40288 52022 60001 81530 333 11030 21098 70002
AAXX 21184 71876 15666 82909 11033 21058 39552 40231 51017 60001 333 11033 21081 70000
AAXX 21184 71885 NIL
AAXX 21184 71886 NIL
AAXX 21184 71888 NIL
AAXX 21184 71890 16/// /0513 11029 21082 30065 40093 56024 60001 333 11028 21177 70000
AAXX 21184 71895 NIL
AAXX 21184 71744 NIL
AAXX 21184 71750 16/// /2802 10022 21046 39785 40017 50004 60001 333 10024 21005 70000
AAXX 21184 71751 NIL
AAXX 21184 71752 NIL
AAXX 21184 71753 16/// /2208 10015 21057 30168 40198 56031 60001 333 10020 21133 70000
AAXX 21184 71754 16/// /3010 11038 21074 39548 40226 51016 60001 333 11038 21085 70000
AAXX 21184 71755 43/// /3105 11171 21191 39762 40115 51012 6///1 333 11079 21193 7////
AAXX 21184 71756 16/// /1501 11059 21069 39216 40343 53026 60001 333 11038 21066 70000
AAXX 21184 71758 NIL
AAXX 21184 71760 NIL
AAXX 21184 71761 NIL
AAXX 21184 71762 NIL
AAXX 21184 71763 NIL
AAXX 21184 71765 16/// /2101 11016 21027 30082 40365 53030 60001 333 10005 21018 70004
AAXX 21184 71766 16/// /2903 10034 20006 30271 40344 53025 60001 333 10052 20005 70000
AAXX 21184 71767 16/// /0202 10027 20024 39778 40037 58025 60001 333 10029 21027 70000
AAXX 21184 71768 46/// /2908 11006 21083 39777 40341 51025 6///1 333 10002 21028 7////
AAXX 21184 71769 16/// /2705 10048 20019 30319 40335 53028 60001 333 10067 20043 70000
AAXX 21184 71770 16/// /0706 11011 21062 39510 40300 51032 60001 333 10001 21039 70000
AAXX 21184 71771 NIL
AAXX 21184 71772 16/// /0204 10051 20026 30328 40334 53028 60001 333 10070 20050 70000
AAXX 21184 71773 16/// /1610 11021 21078 39247 40104 58028 60001 333 11010 21137 70000
AAXX 21184 71774 46/// ///// 10016 6///1 333 10043 20006 7////
AAXX 21184 71775 46/// /2903 10000 21001 30342 40348 53026 6///1 333 10004 21034 7////
AAXX 21184 71776 46/// /2508 11024 21042 39654 40312 53031 6///1 333 11005 21040 7////
AAXX 21184 71777 16/// ///// 11059 21064 30111 40372 53031 60001 333 11020 21061 70000 555 10020
AAXX 21184 71778 46/// /0313 6///1 333 7////
AAXX 21184 71779 16/// /0101 11113 21122 39664 40352 53011 60001 333 11005 21134 70000
AAXX 21184 71780 16/// /1006 10042 20002 30313 40341 53022 60001 333 10066 20030 70000
AAXX 21184 71781 46/// /3008 10049 20012 30314 40339 53028 6///1 333 10067 20047 7////
AAXX 21184 71782 46/// /0103 11059 21081 38929 40291 51028 6///1 333 11042 21097 7////
AAXX 21184 71783 16/// /3403 10050 20016 30260 40335 53024 60001 333 10050 21003 70002
AAXX 21184 71784 16/// /0000 10023 20010 30126 40336 53025 60001 333 10029 20002 70000
AAXX 21184 71785 16/// /0103 10033 20007 30335 40351 53026 60001 333 10036 21007 70000
AAXX 21184 71786 46/// /2407 11081 21094 38420 40299 53022 6///1 333 11069 21106 7////
AAXX 21184 71787 16/// /2015 11010 21013 39665 40163 56030 60001 333 11009 21144 70000
AAXX 21184 71788 NIL
AAXX 21184 71789 NIL
AAXX 21184 71791 NIL
AAXX 21184 71792 NIL
AAXX 21184 71793 NIL
AAXX 21184 71794 NIL
AAXX 21184 71795 NIL
AAXX 21184 71796 NIL
AAXX 21184 71797 NIL
AAXX 21184 71930 13674 32704 11045 21086 39302 40254 50005 60023 81574 333 11008 21065 47018 70019 90999
AAXX 21184 71931 46/// /2912 11042 21079 30123 51013 6///1 333 7////
AAXX 21184 71934 12974 80000 11199 21229 39931 40200 51002 60001 8807/ 333 11176 21246 79999
AAXX 21184 71935 12874 10903 11189 21203 39968 40185 53001 60001 81070 333 11152 21194 70000
AAXX 21184 71936 12574 70000 11263 21300 39918 40194 50001 60001 87501 333 11243 21291 79999
AAXX 21184 71937 NIL
AAXX 21184 71938 12974 00000 11331 21364 30127 40159 57015 60001 333 11296 21333 79999
AAXX 21184 71940 12982 72415 11048 21076 39435 40259 50002 60001 80001 333 11025 21091 70008
AAXX 21184 71943 12974 72412 11056 21111 39391 40246 50004 60001 82071 333 11028 21062 79999
AAXX 21184 71944 160// ///// 11123 51019 60001 333 11047 21144 70020
AAXX 21184 71945 12983 82105 11094 21148 39715 40200 56010 60001 86071 333 11093 21150 70000
AAXX 21184 71946 12974 71104 11190 21211 39932 40154 58015 60001 85018 333 11140 21190 70000
AAXX 21184 71948 47064 /1115 11262 39967 40084 56027 6///1 745// 333 11242 21273 7////
AAXX 21184 71949 46/// /0203 11189 21211 39219 40122 56026 6///1 333 11166 21233 7////
AAXX 21184 71951 11361 81802 11004 21013 30049 40323 58012 69901 70276 88500 333 10006 21009 43022 70004 90931
AAXX 21184 71957 46464 61303 11180 21243 39920 40011 58032 6///1 333 11156 21287 7////
AAXX 21184 71964 12686 41615 11021 21090 39251 40109 58028 60001 81530 333 11021 21149 70000
AAXX 21184 71966 16/// /0805 11106 21133 39551 40017 56022 60001 333 11086 21233 70000
AAXX 21184 71968 460// /3108 11274 39957 40024 56017 6///1 333 11274 21331 7////
AAXX 21184 71350 17/// /2013 10001 21042 30102 40169 56029 69971 7//4/ 333 10001 21121 70007
AAXX 21184 71351 NIL
AAXX 21184 71352 17/// /0806 10020 20019 39568 40020 58043 69981 7//4/ 333 10020 21031 70008
AAXX 21184 71353 NIL
AAXX 21184 71354 NIL
AAXX 21184 71355 16/// /2804 11226 21272 39950 40037 58013 60001 333 11150 21245 70003
AAXX 21184 71356 16/// /3328 11293 21324 30001 40071 53004 60001 333 11292 21337 70000
AAXX 21184 71357 NIL
AAXX 21184 71358 16/// /3215 11184 21208 39939 49974 52003 60001 333 11182 21274 70006
AAXX 21184 71359 NIL
AAXX 21184 71360 NIL
AAXX 21184 71361 NIL
AAXX 21184 71362 NIL
AAXX 21184 71363 NIL
AAXX 21184 71364 NIL
AAXX 21184 71365 NIL
AAXX 21184 71368 17/08 /0905 10032 20029 39634 40021 58034 69931 730// 333 10032 21036 70003
AAXX 21184 71369 15966 02511 11023 21061 39507 40224 50001 60001 333 11018 21048 70038
AAXX 21184 71370 46/// /0303 11057 21083 39967 40106 56031 6///1 333 11057 21127 7////
AAXX 21184 71371 15366 80208 11031 21044 30058 40093 56040 60001 333 11031 21104 70000
AAXX 21184 71372 16/// /1707 10029 20012 60001 333 10029 21722 70000
AAXX 21184 71373 NIL
AAXX 21184 71374 NIL
AAXX 21184 71375 NIL
AAXX 21184 71376 16/// /0801 11027 21047 39792 40096 56036 60001 333 11027 21183 70000
AAXX 21184 71377 16/// /0307 11035 21053 30037 40086 56043 60001 333 11034 21110 70000
AAXX 21184 71378 16/// /1806 11043 21094 39893 40105 56025 60001 333 11043 21184 70000
AAXX 21184 71379 16/// /1408 11038 21073 39887 40059 58022 60001 333 11035 21159 70000
AAXX 21184 71380 NIL
AAXX 21184 71381 NIL
AAXX 21184 71382 NIL
AAXX 21184 71383 NIL
AAXX 21184 71384 NIL
AAXX 21184 71385 NIL
AAXX 21184 71386 16/// /1505 11052 21109 39898 40108 56029 60001 333 11050 21150 70000
AAXX 21184 71387 NIL
AAXX 21184 71388 NIL
AAXX 21184 71389 46/// /1302 11049 21097 6///1 333 11048 21173 7////
AAXX 21184 71390 NIL
AAXX 21184 71391 16/// ///// 11036 21056 60001 333 11036 21112 70000
AAXX 21184 71392 16/// /0000 11048 21098 60001 333 11048 21140 70000
AAXX 21184 71393 NIL
AAXX 21184 71395 12574 62017 10017 21035 30020 40203 56033 60001 81570 333 10020 21117 70000
AAXX 21184 71398 17456 83207 11012 21021 39991 40002 53007 60001 771// 333 11006 21041 70000
AAXX 21184 71399 NIL
AAXX 21184 71201 16/// ///// 10042 21011 60001 333 10042 20012 70002
AAXX 21184 71202 16/// ///// 11031 21061 60001 333 11003 21044 70004
AAXX 21184 71203 15766 60603 11039 21053 39806 40344 52025 60001 333 11016 21089 70008
AAXX 21184 71209 46/// /0804 10037 6///1 333 10070 20031 7////
AAXX 21184 71211 46/// /0322 10030 21014 30329 40341 53026 6///1 333 10047 20025 7////
AAXX 21184 71212 16/// /2404 11055 21074 39279 40101 58023 60001 333 11053 21226 70000
AAXX 21184 71213 46/// /2103 10001 21048 39739 40039 58020 6///1 333 10001 21072 7////
AAXX 21184 71214 NIL
AAXX 21184 71215 46/// /1802 11029 21037 39975 40331 51024 6///1 333 11012 21069 7////
AAXX 21184 71216 16/// /1303 10005 21039 39681 40314 51029 60001 333 10005 21038 70000
AAXX 21184 71217 NIL
AAXX 21184 71218 16/// /1001 10007 21052 39893 40329 53026 60001 333 10052 21039 70000
AAXX 21184 71219 46/// /1513 10044 20000 30287 40293 57013 6///1 333 10047 20027 7////
AAXX 21184 71220 46/// /1219 10036 20005 6///1 333 10045 20030 7////
AAXX 21184 71221 NIL
AAXX 21184 71222 16/// /2502 11137 21150 39257 40262 56020 60001 333 11090 21153 70008
AAXX 21184 71223 NIL
AAXX 21184 71224 NIL
AAXX 21184 71225 NIL
AAXX 21184 71226 NIL
AAXX 21184 71227 NIL
AAXX 21184 71228 NIL
AAXX 21184 71229 NIL
AAXX 21184 71230 16/// /1802 11069 21111 39342 40257 51006 60001 333 11029 21112 70003 555 10010
AAXX 21184 71231 17/// /0109 11034 21053 69991 7//4/ 333 11007 21036 70009
AAXX 21184 71232 16/// /2604 11050 21093 38734 40262 51019 60001 333 11007 21095 70000
AAXX 21184 71233 16/// /2704 11035 21088 60001 333 11005 21067 70024
AAXX 21184 71234 16/// /3405 11022 21085 39073 40289 51037 60001 333 11015 21063 70000
AAXX 21184 71235 16/// /3410 11041 21098 60001 333 11012 21075 70006
AAXX 21184 71236 46/// /1401 11027 21090 6///1 333 11012 21108 7////
AAXX 21184 71237 46/// /3204 11021 21067 39432 40265 51031 6///1 333 10006 21033 7////
AAXX 21184 71238 NIL
AAXX 21184 71239 16/// /0209 11034 21070 39676 40143 51028 60001 333 11022 21050 70000
AAXX 21184 71240 16/// ///// 11039 21063 39389 40252 51027 60001 333 10005 21085 70000
AAXX 21184 71241 NIL
AAXX 21184 71242 16/// /2704 11061 21102 60001 333 11001 21095 70020
AAXX 21184 71243 NIL
AAXX 21184 71244 17/// /3617 11035 21044 39009 40260 52053 69951 7//4/ 333 10003 21067 70005
AAXX 21184 71245 NIL
AAXX 21184 71246 NIL
AAXX 21184 71247 17966 03409 11031 21058 39391 40262 51048 69981 7004/ 333 10011 21036 70013
AAXX 21184 71248 16/// /2904 11040 21109 38945 40273 51022 60001 333 10006 21077 70000 555 10030
AAXX 21184 71249 NIL
AAXX 21184 71864 NIL
AAXX 21184 71865 16/// /2909 11087 21112 39500 40196 51028 60001 333 11044 21094 70000
AAXX 21184 71866 46964 02911 11059 21089 39594 40220 51017 6///1 333 11015 21118 7////
AAXX 21184 71867 11456 83114 11075 21093 39806 40147 52018 69921 77177 88500 333 11070 21095 47022 70002 90973 93101
AAXX 21184 71868 NIL
AAXX 21184 71869 12574 63010 11073 21096 39663 40199 51017 60001 86500 333 11058 21107 70000
AAXX 21184 71871 15666 82913 11040 21054 39407 40231 51017 60001 333 11040 21058 70000
AAXX 21184 71877 12986 13211 11030 21094 38986 40285 52023 60001 81070 333 10001 21068 70012
AAXX 21184 71878 11574 12810 11070 21097 39182 40281 52023 69901 70277 81501 333 10003 21090 48013 70012 90953
AAXX 21184 71879 16964 02508 11034 21080 39433 40253 51019 60001 333 11007 21044 70000
AAXX 21184 71880 12682 22204 11032 21082 39159 40292 52030 60001 81570 333 11029 21094 70000
AAXX 21184 71882 160// /3502 11013 21025 39772 40325 53030 60001 333 11005 21033 70000
AAXX 21184 71883 46/// /0000 11117 21125 39498 40353 53023 6///1 333 11041 21138 7////
AAXX 21184 71887 12986 10227 10022 21073 39916 40346 53026 60001 81500 333 10031 21013 70000
AAXX 21184 71889 12874 23508 10010 21056 39910 40340 51024 60001 82070 333 10014 21053 70024
AAXX 21184 71891 16264 80000 11013 21025 30084 40367 53029 60001 333 10006 21015 70000
AAXX 21184 71892 12580 21402 10037 20001 30340 40345 53026 60001 81501 333 10040 21017 70000
AAXX 21184 71001 17864 81322 11035 21051 39048 40008 56015 60001 771// 333 10022 21189 70000
AAXX 21184 71002 15866 62004 11121 21150 39478 40033 56009 60001 333 11121 21296 70000
AAXX 21184 71003 17556 82314 11031 21048 39593 49972 51001 60001 771// 333 11029 21151 70000
AAXX 21184 71005 16/// ///// 11028 21045 60001 333 11027 21055 70000
AAXX 21184 71006 NIL
AAXX 21184 71007 NIL
AAXX 21184 71008 NIL
AAXX 21184 71009 NIL
AAXX 21184 71010 NIL
AAXX 21184 71011 NIL
AAXX 21184 71012 NIL
AAXX 21184 71013 NIL
AAXX 21184 71014 NIL
AAXX 21184 71015 NIL
AAXX 21184 71016 NIL
AAXX 21184 71017 NIL
AAXX 21184 71018 NIL
AAXX 21184 71019 NIL
AAXX 21184 71020 NIL
AAXX 21184 71021 NIL
AAXX 21184 71022 15666 80907 10020 20002 30250 40295 56013 60001 333 10024 20005 70008
AAXX 21184 71023 17464 82604 11054 21066 39425 40212 51016 60001 745// 333 11052 21100 70005
AAXX 21184 71024 16/// /2501 11146 21152 60001 333 11056 21153 70000
AAXX 21184 71026 NIL
AAXX 21184 71027 16/// /2509 11007 21091 30175 40185 56014 60001 333 11003 21050 70030 555 10010
AAXX 21184 71028 16/// /3601 11102 21112 39292 40373 50008 60001 333 11053 21119 70000
AAXX 21184 71029 16/// /0510 11260 21287 30072 40113 58018 60001 333 11252 21322 70000
AAXX 21184 71030 16/60 /2013 10046 20034 30066 40157 56032 60001 333 10047 21135 70000
AAXX 21184 71032 46/// /0000 11065 21072 39499 40361 53021 6///1 333 11033 21087 7////
AAXX 21184 71033 46/// /3006 11181 21205 39541 40193 51027 6///1 333 11112 21181 7//// 555 10010
AAXX 21184 71035 NIL
AAXX 21184 71036 17466 82103 11053 21071 39773 40155 51023 60001 771// 333 11021 21057 70000
AAXX 21184 71039 46/// /1508 11001 6///1 333 10002 21236 7////
AAXX 21184 71040 46/// /2204 11016 21067 39887 40090 56018 6///1 333 11014 21188 7////
AAXX 21184 71041 15966 02106 11005 21110 30060 40205 56022 60001 333 11005 21093 70000
AAXX 21184 71042 16/// /0601 10011 20008 30334 40338 53025 60001 333 10014 21029 70000
AAXX 21184 71044 16/// /2101 11193 21215 39669 49993 57019 60001 333 11168 21210 70000
AAXX 21184 71046 460// /2610 11277 30038 40056 55003 6///1 333 11251 21299 7////
AAXX 21184 71047 NIL
AAXX 21184 71048 NIL
AAXX 21184 71049 NIL
AAXX 21184 71060 NIL
AAXX 21184 71063 NIL
AAXX 21184 71893 12580 62804 10026 21028 30316 40348 53027 60001 81501 333 10066 21009 70000
AAXX 21184 71894 16/// /0708 10012 20011 30320 40329 53022 60001 333 10037 20006 70000
AAXX 21184 71896 15966 01708 11081 21100 39474 40332 53013 60001 333 11009 21103
AAXX 21184 71897 12266 60905 10024 20020 3//// 4//// 50003 69941 84770 333 10030 20018 70008
AAXX 21184 71898 160// ///// 10021 57013 60001 333 10026 20007 70005
AAXX 21184 71899 11574 81507 10034 20026 3//// 4//// 57021 69901 7602X 8652X 333 10044 20025 70006 90910
AAXX 21184 71902 12974 42407 11142 21206 39955 49964 56028 60001 84041 333 11137 21212 70000
AAXX 21184 71905 NIL
AAXX 21184 71906 11674 52415 11087 21144 39838 49888 53014 69961 73677 84570 333 11069 21195 48015 70008 90913 93101
AAXX 21184 71907 16211 82819 11202 21217 39913 49946 52032 60001 333 11092 21202 70015
AAXX 21184 71909 16964 00918 11121 21166 39806 49849 56014 60001 333 11118 21237 70000
AAXX 21184 71910 46959 00313 11166 21192 39787 49849 53001 6///1 333 11144 21208 7////
AAXX 21184 71911 46464 80906 11362 39991 40051 51008 6///1 333 11355 21415 7////
AAXX 21184 71912 11440 83108 11233 21280 39945 40138 53012 69921 77111 886// 333 11215 21259 47016 70006 90910
AAXX 21184 71915 11574 43215 11289 21332 39832 49916 53003 69901 77677 82501 333 11280 21370 48043 79999 90983
AAXX 21184 71917 11769 20903 11289 21340 30006 40020 57002 69921 77177 82500 333 11279 21358 47015 70016 90983
AAXX 21184 71922 11574 62910 11101 21146 39707 40185 52025 69901 77122 86500 333 11074 21101 47031 79999 90962
AAXX 21184 71924 11562 83210 11265 21302 39947 40040 57004 69941 77177 8853/ 333 11261 21318 48038 70004 90977
AAXX 21184 71925 11474 63115 11301 21347 30104 40147 55001 69901 77677 81670 333 11301 21326 42021 79999 90983
AAXX 21184 71926 11706 53225 11287 21343 30048 40074 55000 69901 77673 85500 333 11287 21333 48043 79999 90942
AAXX 21184 71928 NIL
AAXX 21184 71250 NIL
AAXX 21184 71251 16/// /3506 11033 21049 39336 40283 51047 60001 333 10002 21052 70000
AAXX 21184 71252 NIL
AAXX 21184 71253 46/// /0501 11160 21171 6///1 333 11149 21211 7////
AAXX 21184 71254 16/// /2910 11043 21066 60001 333 11015 21043 70009 555 10030
AAXX 21184 71255 17/// /1906 11107 21124 69931 7//4/ 333 11107 21158 70006
AAXX 21184 71256 46/// /2804 11036 21062 39297 40251 50004 6///1 333 11008 21063 7////
AAXX 21184 71257 NIL
AAXX 21184 71258 NIL
AAXX 21184 71259 NIL
AAXX 21184 71261 17/// /0805 10040 20036 39746 40004 58039 60011 7//4/ 333 10041 21008 70010
AAXX 21184 71263 11102 80607 10038 20038 39737 40025 56048 60021 76186 827// 333 10043 21025 70018 909/7
AAXX 21184 71264 16/// /2110 10029 21021 30173 40205 56035 60001 333 10032 21080 70000
AAXX 21184 71265 17120 80610 10048 20042 39936 40029 56049 60001 710// 333 10055 21018 70000
AAXX 21184 71266 NIL
AAXX 21184 71267 17566 83413 11023 21058 39173 40295 51046 69951 7004/ 333 11010 21059 70005
AAXX 21184 71268 12574 62305 10011 21018 39641 40044 58019 60001 81570 333 10011 21040 70000
AAXX 21184 71269 NIL
AAXX 21184 71270 NIL
AAXX 21184 71271 16/// ///// 11045 21077 60001 333 11027 21054 70013
AAXX 21184 71272 17966 03310 11259 21290 39782 40157 51018 69911 7004/ 333 11250 21289 70002
AAXX 21184 71273 16/// /2906 11035 21062 39538 40212 51017 60001 333 11034 21085 70000
AAXX 21184 71274 NIL
AAXX 21184 71275 NIL
AAXX 21184 71276 NIL
AAXX 21184 71277 NIL
AAXX 21184 71278 NIL
AAXX 21184 71279 NIL
AAXX 21184 71281 NIL
AAXX 21184 71282 46/// /1003 10024 20024 39772 40041 58039 6///1 333 10024 21038 7////
AAXX 21184 71283 NIL
AAXX 21184 71284 17/// ///// 11042 21069 69941 7//4/ 333 11019 21063 70024
AAXX 21184 71285 NIL
AAXX 21184 71286 NIL
AAXX 21184 71287 NIL
AAXX 21184 71288 NIL
AAXX 21184 71289 NIL
AAXX 21184 71290 15966 61502 11120 21131 39457 40319 51017 60001 333 11043 21143 70005
AAXX 21184 71291 16/// /3306 10004 21033 39747 40034 51011 60001 333 10006 21038 70000
AAXX 21184 71292 15466 83016 11066 21093 39555 40172 51029 60001 333 11019 21081 70000
AAXX 21184 71294 16/// /0000 10016 39646 40048 58036 60001 333 10017 21109 70000 555 10010
AAXX 21184 71295 NIL
AAXX 21184 71296 NIL
AAXX 21184 71297 17/// /0801 10044 20044 69941 7//4/ 333 10044 21018 70004
AAXX 21184 71298 17/// /2613 10091 20091 39782 40008 55022 60021 7//4/ 333 10112 20018 70081
AAXX 21184 71299 NIL
BBXX VOXS 21184 99467 70480 41598 72733 10015 2101/ 40137 51027 70222 87500 22200 04020 20706 326// 40807 80005
AAXX 21184 71500 NIL
AAXX 21184 71501 NIL
AAXX 21184 71502 NIL
AAXX 21184 71503 NIL
AAXX 21184 71504 NIL
AAXX 21184 71505 16/// /0811 11017 21029 39334 40058 56035 60001 333 10015 21209 7////
AAXX 21184 71506 NIL
AAXX 21184 71507 NIL
AAXX 21184 71508 16/// ///// 10050 20049 39896 40033 56050 60001 333 10051 21019 70006
AAXX 21184 71509 NIL
AAXX 21184 71511 NIL
AAXX 21184 71512 16/// /3001 11059 21081 30087 40101 56024 60001 333 11059 21197 70000
AAXX 21184 71513 15566 82509 11044 21087 30091 40107 58019 60001 333 11044 21191 70000
AAXX 21184 71514 NIL
AAXX 21184 71515 16/// /3213 11078 21092 39472 40185 51031 60001 333 11003 21115 70000
AAXX 21184 71516 16/// /3510 11054 21078 60001 333 10009 21058 70000
AAXX 21184 71517 NIL
AAXX 21184 71518 NIL
AAXX 21184 71519 NIL
AAXX 21184 71520 NIL
AAXX 21184 71521 NIL
AAXX 21184 71522 NIL
AAXX 21184 71523 NIL
AAXX 21184 71524 16/// /0205 11057 21072 30082 40109 56039 60001 333 11055 21124 70000
AAXX 21184 71525 NIL
AAXX 21184 71526 NIL
AAXX 21184 71527 17466 83309 11034 21045 39562 40069 51021 60001 771// 333 11010 21034 70000
AAXX 21184 71528 NIL
AAXX 21184 71529 46/// /0906 11289 21328 39966 40208 51010 6///1 333 11203 21312 7////
AAXX 21184 71532 17356 81203 10013 20013 39696 40040 58036 60001 761// 333 10013 21066 70000
AAXX 21184 71534 17008 80000 10012 20012 39763 40034 57042 60001 743// 333 10012 21034 70000
AAXX 21184 71535 NIL
AAXX 21184 71536 NIL
AAXX 21184 71537 NIL
AAXX 21184 71539 NIL
AAXX 21184 71540 NIL
AAXX 21184 71541 NIL
AAXX 21184 71542 16/// /2511 11058 21100 60001 333 11048 21088 70000
AAXX 21184 71543 NIL
AAXX 21184 71544 NIL
AAXX 21184 71545 17/// ///// 11043 21068 69941 7//4/ 333 11020 21047 70012
AAXX 21184 71546 NIL
AAXX 21184 71547 NIL
AAXX 21184 71548 NIL
AAXX 21184 71549 NIL
AAXX 21184 71604 16/// /2614 11049 21081 60001 333 11048 21089 70000 555 10020
AAXX 21184 71605 16/// /0401 10022 21019 30184 40337 52023 60001 333 10041 20003 70000
AAXX 21184 71611 16/// /0303 11008 21043 60001 333 11006 21131 70000
AAXX 21184 71612 NIL
AAXX 21184 71614 16/// /1403 10025 21005 30005 40071 56044 60001 333 10028 21110 70000
AAXX 21184 71616 16/// /0204 11026 21036 39992 40114 57035 60001 333 11026 21142 70000
AAXX 21184 71617 16/// /1003 11052 21090 39929 40103 56024 60001 333 11050 21161 70000
AAXX 21184 71618 NIL
AAXX 21184 71619 NIL
AAXX 21184 71622 NIL
AAXX 21184 71632 46/// /3510 11176 21209 39703 40160 52033 6///1 333 11162 21176 7////
AAXX 21184 71634 16/// /2106 10003 21099 39985 40142 56027 60001 333 10003 21150 70000
AAXX 21184 71638 16/// /3402 10016 21009 30229 40337 53026 60001 333 10034 21020 70000
AAXX 21184 71639 11/02 90000 10032 20019 39793 40034 57048 69921 74655 333 10033 21027 70002 90922
AAXX 21184 71642 12574 82106 11019 21044 39492 40037 51004 60001 885// 333 11018 21058 70000
AAXX 21184 60715 12560 62708 10127 20074 30158 40165 51014 69942 85282 333 10156 59037 85826 83358 91012 91123
AAXX 21184 60723 11560 52906 10110 20080 39992 40182 53007 60132 70262 84280 333 10134 84823
AAXX 21184 60725 11558 73002 10108 2//// 30020 40200 51009 60042 70282 878// 333 10138 84820 84630
AAXX 21184 60735 12562 33404 10122 20063 30086 40168 52014 60012 82202 333 10159 82823
AAXX 21184 60745 12562 73209 10137 20046 39820 40190 51015 60002 872// 333 10156 59044 87826 91015 91123
AAXX 21184 60748 12558 52814 10120 20054 39759 40178 53006 60002 85800 333 10152 83823 83640
AAXX 21184 60750 12558 63206 10131 20032 30149 40174 53018 69902 86800 333 10172 83820 85626
AAXX 21184 60760 12558 52609 10126 20035 30099 40204 53012 60002 85200 333 10167 20032 85830 91011 91114
AAXX 21184 60765 12558 62810 10122 20046 30170 40173 58006 60012 86800 333 10161 83820 84630 92436 925//
AAXX 21184 60767 12558 72512 10135 20021 30043 40187 52018 69922 86802 333 10152 81820 86630
AAXX 21184 60769 12558 53423 10163 20050 30163 40167 53015 69902 85880 333 10165 82820 83626
AAXX 21184 60020 NIL
AAXX 21184 60030 02980 00407 10195 20115 30198 40254 53003 60002 333 10215 60007 92418
AAXX 21184 60040 02570 13609 10193 20132 30243 40268 53001 60002 81100 333 10210 60007 92428
AAXX 21184 60338 12980 32407 10178 20036 30184 40250 57002 60002 80004 333 10202 92428
AAXX 21181 02019 07/59 /0201 11049 21053 39429 40059 50003 69922 78587 333 11027 21049 69905 90710 91103
AAXX 21181 02081 07/80 /0902 11091 21099 39664 40079 52001 69972 70070 333 11058 21096 60005 90710 91103
AAXX 21181 02095 071// /1201 11074 21082 39881 40090 50003 60002 70031 333 11074 21103 60005 89/02 90710 91102
AAXX 21181 02101 45483 /0000 11072 21082 39522 40095 50005 8//// 333 11067 21086 82/15 88/21
AAXX 21181 02119 07666 /1600 11102 21110 39690 40088 52005 69922 78587 333 11051 21106 69905 81/39 88/50 90710 91101
AAXX 21181 02124 07368 /0000 11092 21100 39550 40089 50004 69912 78587 333 11089 21102 69905 81/07 86/50 90710 91101
AAXX 21181 02126 07634 /1801 11085 21094 39746 40094 52007 69922 77187 333 11083 21098 69915 88/37 90710 91101
AAXX 21181 02151 17483 80000 11088 21090 39742 40087 53005 69912 78587 333 11084 21099 60005 88/18 91000 90710 91100 90710 91200
AAXX 21181 02186 07368 83203 11045 21050 30056 40081 51004 60012 74174 333 11041 21053 69915 81/08 88/50 91003 90710 91103 90710 91203
AAXX 21181 02197 07/22 /1001 10002 20002 30060 40079 54000 69962 72187 333 10007 20000 69905 90710 91102
AAXX 21181 02207 05599 /2102 11048 21082 39394 40105 51005 69902 333 11026 21056 60005 90710 91106
AAXX 21181 02219 07/67 /2903 11031 21034 39415 40091 52007 69912 72487 333 11029 21053 69905 90710 91107
AAXX 21181 02226 45984 /2601 11031 21032 39644 40106 51007 8//// 333 11021 21045
AAXX 21181 02243 07/60 /0900 11078 21084 39823 40099 51008 60012 70071 333 11062 21083 60005 90710 91101
AAXX 21181 02269 07647 /3103 11023 21026 69952 77171 333 11021 21034 69915 88/35 90710 91105
AAXX 21181 02287 07780 /2703 11017 21027 30079 40089 52009 69952 70087 333 10006 21018 60005 90710 91104
AAXX 21181 02297 07157 /2401 11008 21008 30039 40085 52008 69942 71087 333 10007 21009 60005 87/02 90710 91102
AAXX 21181 02308 05/99 /3301 11092 21100 39239 40125 52007 60002 333 11054 21105 60005 90710 91103
AAXX 21181 02327 07/99 /2801 11092 21103 39681 40130 52009 69912 70087 333 11086 21217 60005 90710 91102
AAXX 21181 02355 05499 /2803 11048 21060 30100 40113 52009 60002 333 11032 21062 60005 83/12 87/56 90710 91105
AAXX 21181 02366 47781 /0000 11060 21063 30103 40109 51011 720// 8//// 333 11030 21067 87/50
AAXX 21181 02407 05581 /0201 11135 21150 39758 40143 52010 60002 333 11062 21147 60005 88/26 90710 91102
AAXX 21181 02418 47265 /0000 11011 21013 39997 40131 52011 721// 8//// 333 11004 21030 81/04 83/11 88/21
AAXX 21181 02435 45383 /2701 11046 21057 39940 40133 52011 8//// 333 11032 21087 88/08
AAXX 21181 02440 05/99 /2801 11094 21104 60002 333 11024 21094 60005 90710 91102
AAXX 21181 02452 07103 /1802 11021 21021 60002 73431 333 11007 21022 60005 89/02 90710 91103
AAXX 21181 02456 07124 /2202 11021 21025 30088 40131 51013 69912 71010 333 10002 21022 60005 88/01 90710 91105
AAXX 21181 02469 27/67 /2702 11008 21018 70031 333 60005 90710 91104
AAXX 21181 02498 05480 /2303 10014 21004 30118 40136 52014 60002 333 10025 20006 60005 86/11 90710 91106
AAXX 21181 02518 465// /1405 10020 20010 333 10028 20018 90710 91106
AAXX 21181 02520 17350 82103 10003 21006 30070 40139 53013 69902 71087 333 10005 20002 60005 88/07 91003 90710 91104 90710 91203
AAXX 21181 02550 47/01 /1501 11041 21041 39859 40142 51014 734// 8//// 333 11012 21045 89/01
AAXX 21181 02562 17550 80000 11021 21022 30025 40143 51015 69912 71033 333 11009 21057 60005 88/28 91001 90710 91101 90710 91201
AAXX 21181 02563 07760 /1601 11003 21008 30118 40140 52015 60002 70010 333 10017 21008 60005 88/50 90710 91101
AAXX 21181 02565 07050 /1600 11050 21052 30025 40148 52018 69912 71043 333 10021 21051 60005 89/01 90710 91101
AAXX 21181 02589 07566 /0101 10004 21009 30118 40139 52014 69932 70087 333 10041 20004 60005 81/22 85/50 86/57 90710 91104
AAXX 21181 02590 47920 /1501 11035 21036 30083 40146 51014 710// 8//// 333 10014 21041
AAXX 21181 02618 07/22 /1100 11003 21003 39976 40144 53018 69942 72473 333 10003 21010 69905 90710 91101
AAXX 21181 02664 35980 00103 11052 21063 30074 40148 51021 60002 333 10028 21055 60005 91003 90710 91103 90710 91203
AAXX 21181 02679 05775 /0602 11001 21009 30103 40148 51015 60002 333 10029 21008 60005 88/56 90710 91103
AAXX 21184 68024 42660 20505 10301 20135 48482 53010 82400 333 10352
AAXX 2118/ 89327 46/// ///// 11031 39585 4//// 5////
AAXX 2118/ 89332 46/// ///// 11044 39312 4//// 5////
AAXX 2118/ 89108 46/// ///// 11183 36982 4//// 5////
AAXX 2118/ 89879 46/// ///// 11011 39682 4//// 5////
AAXX 2118/ 89872 46/// ///// 11021 39727 4//// 5////
AAXX 2118/ 89869 46/// ///// 11058 39738 4//// 5////
AAXX 2118/ 89866 46/// ///// 11008 39674 4//// 5////
AAXX 2118/ 89329 46/// ///// 11068 38845 4//// 5////
AAXX 2118/ 89769 46/// ///// 11053 39756 4//// 5////
AAXX 2118/ 89314 46/// ///// 11079 38294 4//// 5////
AAXX 2118/ 89872 46/// ///// 11019 39728 4//// 5////
AAXX 21184 89667 46/// /3105 11034 29085 39790 4//// 5////
AAXX 21184 60710 11558 72921 10121 20085 30101 40183 52007 60022 78082 878// 333 10145 84820 84630
AAXX 21184 60714 12465 63216 1//// 2//// 30171 40176 53010 60002 86800 333 1//// 84816 83630
AAXX 21184 60720 NIL
AAXX 21184 60728 NIL
AAXX 21184 60729 NIL
AAXX 21184 60731 05559 12708 10108 20062 30158 40165 51013 60002 333 10159 20106 59049 60007 81/31 91011 91130
AAXX 21184 60732 11558 73114 10088 20057 39577 40191 53014 60062 70382 878// 333 10109 84820 84626
AAXX 21184 60734 12558 63014 10090 20076 39656 40182 51010 60052 85800 333 10121 83823 83630
AAXX 21184 60738 11006 80422 10044 20044 38924 48486 53005 60024 70262 887// 333 10062 88700
AAXX 21184 60739 12556 53223 10094 20050 39350 40174 51007 60002 85202 333 10122 85830 94259
AAXX 21184 60740 11460 33119 10142 20073 30160 40162 53011 69942 72162 83280 333 10162 83816
AAXX 21184 60742 NIL
AAXX 21184 60764 12562 42608 10104 20036 30140 40193 52008 60002 84200 333 10154 84830
AAXX 21184 60770 12957 52712 10139 20037 30046 40185 52020 60002 83082 333 10162 83360 83070
AAXX 21184 60772 NIL
AAXX 21184 60775 12565 32714 10105 21049 39838 40196 53001 60002 81582 333 10142 81630
AAXX 21184 60780 12960 12714 10094 21008 39915 40225 53004 60002 81082 333 10145 81360
AAXX 21184 08015 12562 73504 10112 20096 39931 40340 53005 69912 83570 333 10117
AAXX 21183 61701 32960 20000 10310 20148 40102 82030 333 10345 59008 82362
AAXX 21183 61705 32960 40903 10323 20138 4//// 80006 333 10360 5//// 82270 83071
AAXX 21183 61707 NIL
AAXX 21183 61711 32960 40903 10290 20180 4//// 80002 333 10321 5//// 84074
AAXX 21183 61712 32960 23203 10315 20135 4//// 82030 333 10350 5//// 82363
AAXX 21183 61717 32960 22702 10321 20091 4//// 82030 333 10354 5//// 82362
AAXX 21183 61720 NIL
AAXX 21183 61721 32960 53205 10325 20040 4//// 83032 333 10355 5//// 83363 84072
AAXX 21183 61722 32960 50505 10320 20121 4//// 80002 333 10350 5//// 85074
AAXX 21183 61731 32960 50906 10312 20085 4//// 84032 333 10359 5//// 84362
AAXX 21183 61733 NIL
AAXX 21184 64600 32960 80000 10229 20176 39448 40099 85072 333 10319 55000 58001 85365 88080
AAXX 21184 64601 31940 60612 10225 20058 38991 48502 70422 80002 333 10310 59003 86080
AAXX 21184 64605 32960 30000 10214 20125 39349 40094 80002 333 10307 59001 83080
AAXX 21184 64610 32960 80000 10220 20136 3//// 4//// 80002 333 10330 5//// 88080
AAXX 21184 64650 31940 60000 10246 20170 39672 40084 70422 80002 333 10340 55098 58000 86080
AAXX 21184 64654 32960 70806 10223 20103 39527 40102 80002 333 10357 58000 87080
AAXX 21184 64655 32960 00000 10230 20148 39438 40087 333 10340 58001
AAXX 21184 64656 32960 00000 10250 20172 39528 40082 333 10340 58005
AAXX 21184 64659 NIL
AAXX 21184 64660 32960 00000 10250 20161 39553 40081 333 10334 58004
AAXX 21184 64662 32960 00000 10250 20173 39576 40077 333 10351 58004
AAXX 21184 64665 32960 00000 10240 20185 3//// 4//// 333 10350 5////
AAXX 21181 33393 11900 01101 11092 21099 39748 40162 52012 69932 74841 333 11008
AAXX 21181 33506 11496 81404 10063 20052 39838 40031 57006 60052 71064 886// 333 10085
AAXX 21181 33587 11460 83305 11004 21025 39834 40102 52017 69952 72682 883// 333 10010 88914
AAXX 21181 33663 32597 73202 10018 21007 30030 40127 52013 87500 333 10025 87623
AAXX 21181 33088 32597 83202 11010 21017 39937 40133 52010 885// 333 11001
AAXX 21181 33177 NIL
AAXX 21181 33261 11395 83403 10003 20000 39869 40053 58011 60052 77176 8772/ 333 10037 87707
AAXX 21181 33275 11295 81002 10051 20046 39816 40037 57012 60042 76165 8772/ 333 10051 87703
AAXX 21181 33301 11396 82803 11012 21016 39849 40138 52011 69902 77372 8772/ 333 11002 87707
AAXX 21181 33325 11396 83202 11011 21024 39842 40116 52013 69902 77172 885// 333 11004 87707
AAXX 21181 33377 11395 83604 10006 21002 39842 40037 57012 60082 76365 8772/ 333 10040 87707
AAXX 21181 33415 NIL
AAXX 21181 33429 11397 83003 11010 21023 39702 40135 52013 69902 70272 886// 333 11006 88709
AAXX 21181 33466 NIL
AAXX 21181 33526 11950 11053 21067 39800 40154 52014 69902 71011 83030 333 10029
AAXX 21181 33562 11396 83005 11010 21026 39746 40115 52011 69902 71022 886// 333 11006 88709
AAXX 21181 33614 11317 82905 10020 20015 39925 40030 57005 60102 76162 8872/ 333 10040 88708
AAXX 21181 33761 11396 82903 11004 21013 39881 40109 52026 60042 77177 8872/ 333 10015 93702
AAXX 21181 33902 11596 82404 10015 20004 30026 40093 52029 60022 78582 889// 333 10099
AAXX 21181 33983 12997 32007 10076 20041 30071 40132 52011 60062 83030 333 10120
AAXX 21181 34415 11497 51806 10068 20057 39980 40075 57002 60082 70162 85600 333 10072
AAXX 21181 34523 NIL
AAXX 21181 34712 11598 72206 10054 20052 30030 40116 52010 60082 70264 87500 333 10060 87623
AAXX 21181 33345 11398 83504 11010 21026 39883 40092 52008 69902 72272 885// 333 10008 88709
AAXX 21181 01400 41499 71908 10069 20048 40126 57008 72162 8472/ 22200 06080 10502 70012 333 91109
AAXX 21181 01300 41596 81713 10034 20010 40062 57014 76062 88/// 91810 22200 02068 10605 70027 333 91117
AAXX 21183 91553 11598 61210 10270 20249 40074 56003 60101 72522 86900 333 563// 60101 85820 81925
AAXX 21183 91553 11598 61210 10270 20249 40074 56003 60101 72522 86900 333 563// 60101 85820 81925
AAXX 21181 26406 31294 80901 11041 21046 40153 52014 71042 886// 333 11028 88706 93501
AAXX 21181 26633 32459 80102 11024 21033 30008 40142 52013 71022 886// 333 11021 88710 91003 91104 555 53004
AAXX 21181 48855 11597 80000 10201 20196 30147 40155 58014 69971 76066 888// 333 58003 83895 88697 96160
AAXX 21181 48848 32597 83203 10185 20170 30160 40168 58012 888// 333 58009 82895 88697
AAXX 21181 48852 11497 83401 10185 20185 30148 40158 58015 60041 76166 888// 333 58002 86894 88697 96160
AAXX 21181 02464 45272 /2902 11004 21013 30119 40137 51013 8//// 333 10007 21004 88/05
AAXX 21181 02500 05262 /0702 11009 21015 30096 40139 53016 69922 333 10006 21022 60005 88/03 90710 91106
AAXX 21181 02513 NIL
AAXX 21181 02615 07559 /0904 10025 20018 30133 40137 51025 60012 71061 333 10030 20009 60005 87/22 88/47 90710 91106
AAXX 21181 02635 07/50 /1001 10008 21001 69932 71011 333 10021 21004 60005 90710 91102
AAXX 21184 16294 12998 00510 10088 20028 39920 40114 53008 60002 333 10104 555 0////
AAXX 21181 14023 12698 80502 11011 21018 39872 40177 51011 60002 8757/ 333 10031 42002 87648 92831
AAXX 21181 06431 16/// /2101 10066 20063 30179 40191 52018 60022 333 10067 91103 91202
AAXX 21181 06432 17/12 /0000 10064 20063 30119 40196 51018 60032 72053 333 10064 85/01 88/03 91104 91203
AAXX 21181 06458 17120 /2402 10058 20058 30040 40196 53014 60012 71053 333 10058 83/02 87/04 91104 91203
AAXX 21181 06465 17237 /9901 10052 20050 30127 40194 53014 60012 71085 333 10056 87/03 91104 91202
AAXX 21181 06496 17305 /0000 10005 20005 39509 40200 53014 69962 733// 333 10009 88/06 91104 91203
AAXX 21181 06428 17/02 90000 10065 20064 30146 40195 53019 60022 73384 333 10066 89/02 91103 91202
AAXX 21181 06447 16/// /2601 10060 20052 30066 40193 51018 60022 333 10063 91104 91202
AAXX 21184 68029 42960 20904 10252 20182 48488 52010 82080 333 10319
AAXX 21184 85032 31457 60408 10290 20242 39920 40080 57035 71522 86904 333 56106 59007 85817 81920 86070
AAXX 21184 85043 11457 63606 10272 20245 39920 40080 57032 60031 71582 86904 333 56800 59020 85615 81920 86070
AAXX 21184 85104 12465 73606 10270 20249 39930 40091 57020 60101 85530 333 56880 58010 85615 87358
AAXX 21184 85109 12465 73606 10269 20250 39940 40101 57020 60021 86530 333 56880 58005 86615 87358
AAXX 21184 85114 32465 73010 10294 20249 39941 40104 57021 85230 333 56770 58001 85817 86358
AAXX 21184 85116 32465 53608 10316 20227 39910 40087 57028 84904 333 56806 59007 83817 81923 85070
AAXX 21184 85123 11256 83208 10236 20236 39923 40089 57032 60251 76166 8792/ 333 56779 59004 83706 86615 81923 88457
AAXX 21184 85139 11356 80000 10228 20224 39858 40051 57033 60491 79599 8792/ 333 56339 58007 86610 81920 88457
AAXX 21184 85153 11230 80000 10242 20242 39918 40103 57013 60621 75156 8772/ 333 56779 58020 87705 88457
AAXX 21184 85154 11320 73116 10270 20246 39919 40095 57019 60021 76382 86340 333 56770 58017 83607 83815 81920 86358
AAXX 21181 33088 32597 83202 11010 21017 39937 40133 52010 885// 333 11001
AAXX 21181 33177 NIL
AAXX 21181 33261 11395 83403 10003 20000 39869 40053 58011 60052 77176 8772/ 333 10037 87707
AAXX 21181 33275 11295 81002 10051 20046 39816 40037 57012 60042 76165 8772/ 333 10051 87703
AAXX 21181 33301 11396 82803 11012 21016 39849 40138 52011 69902 77372 8772/ 333 11002 87707
AAXX 21181 33325 11396 83202 11011 21024 39842 40116 52013 69902 77172 885// 333 11004 87707
AAXX 21181 33377 11395 83604 10006 21002 39842 40037 57012 60082 76365 8772/ 333 10040 87707
AAXX 21181 33415 NIL
AAXX 21181 33429 11397 83003 11010 21023 39702 40135 52013 69902 70272 886// 333 11006 88709
AAXX 21181 33466 NIL
AAXX 21181 33526 11950 11053 21067 39800 40154 52014 69902 71011 83030 333 10029
AAXX 21181 33562 11396 83005 11010 21026 39746 40115 52011 69902 71022 886// 333 11006 88709
AAXX 21181 33614 11317 82905 10020 20015 39925 40030 57005 60102 76162 8872/ 333 10040 88708
AAXX 21181 33761 11396 82903 11004 21013 39881 40109 52026 60042 77177 8872/ 333 10015 93702
AAXX 21181 33902 11596 82404 10015 20004 30026 40093 52029 60022 78582 889// 333 10099
AAXX 21181 33983 12997 32007 10076 20041 30071 40132 52011 60062 83030 333 10120
AAXX 21181 34415 11497 51806 10068 20057 39980 40075 57002 60082 70162 85600 333 10072
AAXX 21181 34523 NIL
AAXX 21181 34712 11598 72206 10054 20052 30030 40116 52010 60082 70264 87500 333 10060 87623
AAXX 21184 94102 46/// /2516 10303 20265 30018 40027
AAXX 21184 94103 NIL
AAXX 21184 94120 46/// /1308 10247 20235 39973 40013
AAXX 21184 94122 46/// /1503 10251 20233 39997 40005
AAXX 21184 94131 46/// /1206 10264 20238 39882 40032
AAXX 21184 94132 NIL
AAXX 21184 94147 NIL
AAXX 21184 94150 46/// /0307 10263 20241 39965 40024
AAXX 21184 94151 46/// /0608 10281 20232 30011 4////
AAXX 21184 94170 46/// /0000 10236 20227 30017 40039
AAXX 21184 94200 NIL
AAXX 21184 94203 46/// /1113 10297 20253 30053 40063
AAXX 21184 94206 NIL
AAXX 21184 94207 46/// /2817 10291 30015 40023 58015
AAXX 21184 94211 NIL
AAXX 21184 94212 46/// /2101 10231 20216 39560 40020
AAXX 21184 94216 46/// /1508 10292 20213 39979 40029
AAXX 21184 94236 NIL
AAXX 21184 94238 NIL
AAXX 21184 94248 NIL
AAXX 21184 94255 46/// /3304 10262 20216 39782 40037
AAXX 21184 94268 46/// /0000 10253 20237 30033 40045
AAXX 21184 94287 46/// /1407 10232 20212 30048 40057
AAXX 21184 94290 NIL
AAXX 21184 94294 46/// /2205 10231 20178 30064 40074
AAXX 21184 94296 NIL
AAXX 21184 94298 46/// /1523 10262 30024 40030 56010
AAXX 21184 95641 NIL
AAXX 21184 91925 01465 60710 10265 20203 30054 40114 51011 69941 78086 85202 333 56109 69947 84818 90710 91119 555 69945 10919 59004
AAXX 21184 91929 04467 80920 10234 20207 30123 40126 53026 60112 760// 333 10270 20225 60107 90710 91141 555 60105
AAXX 21184 91938 01470 72205 10278 20218 30113 40115 51016 60002 715// 82208 333 10278 20246 60007 82816 87273 90710 91107 555 60005 10907 59021
AAXX 21184 91943 16/// /0816 10288 20205 30113 40115 51015 69962 333 10288 59012
AAXX 21184 91944 06/// /0917 10278 20209 30136 40139 51011 60002 333 10278 20257 60007 90710 91122 555 60005
AAXX 21184 91948 02581 20304 10265 20186 30082 40184 51007 60001 82200 333 56200 60007 82821 90710 91112 555 60005 10613 59007
AAXX 21184 91954 06/// /0708 10276 20232 30146 40149 51008 60021 333 60007 555 59011
AAXX 21184 91958 02482 20705 10253 20197 30178 40180 51005 60001 82200 333 56200 60007 82818 90710 91108 555 60005 10508 59014
AAXX 21184 91945 06/// /0112 10246 20223 30145 40150 50015 60041 333 69987
AAXX 21184 94299 46/// /1719 10268 20245 30024 40034
AAXX 21184 94300 46/// /1813 10237 20178 30074 40084
AAXX 21184 94302 46/// /2013 10246 20197 30044 40050
AAXX 21184 94312 46/// /2808 10307 20227 39986 49995
AAXX 21184 94313 NIL
AAXX 21184 94317 46/// /1006 10323 20057 39465 40033
AAXX 21184 94319 46/// /1112 10345 20097 39702 40023
AAXX 21184 94324 NIL
AAXX 21184 94326 46/// /0000 10199 20163 39460 40059
AAXX 21184 94327 46/// /1306 10261 20138 39692 40055
AAXX 21184 94332 46/// /1804 10269 20189 39654 40029
AAXX 21184 94333 NIL
AAXX 21184 94341 46/// /0704 10257 20151 39815 40044
AAXX 21184 94346 46/// /0711 10245 20166 39851 40065
AAXX 21184 94363 46/// /1306 10194 20175 39881 40094
AAXX 21184 94366 NIL
AAXX 21184 94367 46/// /1311 10252 20198 30031 40072
AAXX 21184 94374 46/// /1504 10213 20172 30078 40094
AAXX 21184 94388 46/// /1218 10242 20197 30089 40094
AAXX 21184 94393 46/// /1321 10253 30027 40039 55005
AAXX 21184 94394 46/// /1221 10242 30065 40073 56010
AAXX 21184 94403 46/// /1509 10183 20165 30067 40108
AAXX 21184 94429 46/// /2206 10267 20131 39624 40076
AAXX 21184 94430 46/// /2004 10261 20041 39496 40064
AAXX 21184 94449 46/// /0714 10258 20083 39577 40095
AAXX 21184 94451 NIL
AAXX 21184 94461 46/// /1004 10237 20074 39408 40060
AAXX 21184 94462 46/// /0000 10232 20213 39518 40058
AAXX 21184 94477 NIL
AAXX 21184 94488 NIL
AAXX 21184 94893 46/// /0921 10147 20147 3//// 4////
AAXX 21184 94907 46/// /0603 10139 20128 30168 40178
AAXX 21184 94910 46/// /1009 10176 20120 39897 40143
AAXX 21184 94926 46/// /0605 10147 20122 39502 40160
AAXX 21184 94935 46/// /2705 10140 20129 30147 40173
AAXX 21184 94954 46/// /0410 10135 20112 30085 40196
AAXX 21184 94956 46/// /0403 10106 20095 30171 40198
AAXX 21184 94975 46/// /2705 10122 20072 30179 40212
AAXX 21184 94983 46/// /1825 10138 20115 30167 40192
AAXX 21184 94995 46/// /0713 10209 20176 30163 40171
AAXX 21184 94996 46/// /0911 10200 20174 30047 40175
AAXX 21184 94997 NIL
AAXX 21184 94998 46/// /2709 10052 20037 30222 40233
AAXX 21184 95111 46/// /1105 10273 20249 39988 40023
AAXX 21184 95205 46/// /1319 10256 20226 30087 40094
AAXX 21184 95322 NIL
AAXX 21184 95448 46/// /0807 10276 20085 39523 40071
AAXX 21184 95458 46/// /1108 10210 20178 39832 40086
AAXX 21184 95480 46/// /1509 10239 20091 30046 40104
AAXX 21184 95481 46/// /1206 10256 20094 30047 40091
AAXX 21184 95482 46/// /1115 10307 20072 30014 40068
AAXX 21184 95485 46/// /1705 10209 2//// 39899 40098
AAXX 21184 95492 46/// /0000 10225 20156 39935 40086
AAXX 21184 95527 46/// /0805 10188 20176 39876 40124
AAXX 21184 95634 46/// /1703 10229 20113 39693 40085
AAXX 21184 95637 46/// /1609 10173 20133 39787 40114
AAXX 21184 95646 NIL
AAXX 21184 95666 NIL
AAXX 21184 95719 46/// /1008 10168 20137 39811 40135
AAXX 21184 95762 46/// /1408 10167 20134 39680 40128
AAXX 21184 95826 NIL
AAXX 21184 95839 46/// /2205 10123 20109 39984 40141
AAXX 21184 95864 NIL
AAXX 21184 95909 NIL
AAXX 21184 95954 NIL
AAXX 21184 95966 46/// /1709 10108 20064 30008 40208
AAXX 21184 96995 46/// /1006 10253 20237 39788 40082
AAXX 21184 96996 45/// /1413 10268 20233 30071 40075 58011
AAXX 21184 94500 NIL
AAXX 21184 94510 46/// /0705 10199 20188 39742 40081
AAXX 21184 94515 46/// /0509 10193 20146 39759 40101
AAXX 21184 94552 46/// /1107 10162 20149 39665 40124
AAXX 21184 94578 46/// /1504 10211 20189 30123 40134
AAXX 21184 94584 46/// /1021 10224 20167 30006 40114
AAXX 21184 94601 46/// /2710 10206 20172 30112 40129
AAXX 21184 94610 46/// /1909 10175 20162 30095 40118
AAXX 21184 94637 46/// /0711 10273 20056 39676 40092
AAXX 21184 94638 46/// /0306 10208 20114 30074 40105
AAXX 21184 94642 NIL
AAXX 21184 94643 NIL
AAXX 21184 94647 46/// /1908 10185 20171 30001 40120
AAXX 21184 94651 46/// /2806 10165 20163 30032 40108
AAXX 21184 94653 46/// /0306 10199 20144 30078 40096
AAXX 21184 94659 46/// /0909 10243 20067 39913 40104
AAXX 21184 94672 46/// /1803 10157 20057 30123 40133
AAXX 21184 94691 46/// /1401 10170 20065 39799 40119
AAXX 21184 94693 46/// /2103 10150 20096 30066 40127
AAXX 21184 94700 NIL
AAXX 21184 94703 46/// /0609 10212 20180 39980 40103
AAXX 21184 94710 46/// /1105 10199 20160 39862 40109
AAXX 21184 94729 46/// /0809 10152 20123 39303 40138
AAXX 21184 94750 46/// /1806 10164 20154 30046 40169
AAXX 21184 94767 46/// /1705 10195 20158 30164 40170
AAXX 21184 94776 46/// /0000 10170 20161 30153 40163
AAXX 21184 94791 NIL
AAXX 21184 94802 46/// /0000 10139 20135 30050 40132
AAXX 21184 94804 46/// /0918 10163 20128 30095 40132
AAXX 21184 94807 NIL
AAXX 21184 94821 46/// /1408 10127 20123 30073 40155
AAXX 21184 94842 46/// /0919 10153 20114 30056 40154
AAXX 21184 94847 NIL
AAXX 21184 94850 46/// /1306 10122 20116 30135 40181
AAXX 21184 94865 46/// /0904 10137 20117 30132 40156
AAXX 21184 94866 46/// /2905 10119 20111 30017 40156
AAXX 21184 94875 46/// /1204 10157 20125 30007 40140
AAXX 21184 89564 45/// /1423 10004 21071 39773 49793 52008
AAXX 21184 89570 46/// /0824 11046 21075 39148 51025
AAXX 21184 89571 45/// /0619 10018 21065 39785 49813 53018
AAXX 21184 89573 NIL
AAXX 21184 89610 NIL
AAXX 21184 89611 45/// /0622 11008 21056 39793 49845 53014
AAXX 21184 89614 NIL
AAXX 21184 89615 46/// /1029 11064 21111 38953 51003
AAXX 21184 89807 NIL
AAXX 21184 89809 46/// /0919 11050 21064 39391 53007
BBXX VRAE3 21184 99059 31241 41797 30000 10290 20248 40075 52009 70202 87285 22234 00310 2//// 3//// 4//// 5//// 80260
BBXX VRRD 21183 99216 31548 41297 61430 10250 20235 40043 54000 75865 867// 22243 2//// 80240
BBXX PCAM 21183 99412 31732 41598 31604 10150 20126 40283 57003 70211 8244/ 22200 20100 30000 80136
BBXX A8TX8 21183 99204 31101 41998 01417 10250 20228 40079 57025 700// 80000 22285 04270 20803 320// 41004 80235
BBXX 3ECI3 21184 99435 31728 41597 60912 10142 20110 40293 54000 70311 86443 22200 00150 20302 309// 40802 80125
BBXX VNSZ 21174 99383 31447 46/// /1216 10153 20121 30140 40166 57021 22223 04174 85134
BBXX VNSZ 21164 99385 31447 46/// /1028 10159 20121 30152 40178 57032 22275 04175 85136
BBXX C6FS9 21164 99274 31531 46/// /1406 10228 20183 30107 40143 57013 22200 04246 85198
BBXX 9HA2479 21164 99235 31651 46/// /1029 10245 20210 30077 40106 57019 22214 04250 85220
BBXX VNAH 21164 99322 31157 46/// /1920 10204 20162 30111 40134 57005 22200 04225 85177
BBXX VROB 21164 99378 31449 46/// /1206 10156 20114 30138 40164 57006 22200 04202 85132
BBXX C6FS9 21174 99274 31531 46/// /1511 10215 20188 30106 40142 57007 22200 04246 85197
BBXX 9HA2479 21174 99234 31653 46/// /1031 10246 20206 30074 40103 57017 22214 04252 85218
BBXX VROB 21174 99378 31449 46/// /1205 10154 20114 30137 40163 57008 22200 04202 85131
BBXX VNAH 21174 99322 31157 46/// /1714 10200 20161 30107 40130 57012 22200 85175
BBXX VNSZ 21184 99383 31449 46/// /1029 10152 20119 30132 40158 57029 22285 04190 85133
BBXX C6FS9 21184 99274 31531 46/// /1807 10208 20187 30105 40141 57004 22200 04246 85194
BBXX 9HA2479 21184 99232 31656 46/// /1031 10246 20210 30078 40107 57006 22214 04253 85220
BBXX 2AGH7 21183 99167 31679 41598 71015 10270 20256 40101 56010 70222 84860 22284 20201 316// 40503 80260
BBXX mpjh9 21184 99018 31520 41/98 /2720 10285 20250 40121 56010 70311 8//// 22234 00300 2//// 80260
BBXX VRAE2 21184 99244 31769 41298 81119 10245 20182 40125 53008 70022 8271/ 22244 04250 20302 314// 40503 80205
AAXX 21184 89564 45/// /1423 10004 21071 39773 49793 52008
AAXX 21184 89570 46/// /0824 11046 21075 39148 51025
AAXX 21184 89571 45/// /0619 10018 21065 39785 49813 53018
AAXX 21184 89573 NIL
AAXX 21184 89610 NIL
AAXX 21184 89611 45/// /0622 11008 21056 39793 49845 53014
AAXX 21184 89614 NIL
AAXX 21184 89615 46/// /1029 11064 21111 38953 51003
AAXX 21184 89807 NIL
AAXX 21184 89809 46/// /0919 11050 21064 39391 53007
AAXX 21184 92001 NIL
AAXX 21184 92014 NIL
AAXX 21184 92044 31470 40000 10250 20247 30033 40039 5//// 701// 82201
AAXX 21184 92047 NIL
AAXX 21184 92100 NIL
AAXX 21184 41241 36/// /0000 10200 20058 30178 40216 333 0E/// 10257 58007
AAXX 21184 41242 36/// /2302 10132 20050 30205 40230 333 0E019 10249 58007
AAXX 21184 41244 NIL
AAXX 21184 41246 32960 02204 10186 20055 30211 40216 333 10250 58008
AAXX 21184 41251 32960 09902 10075 20032 38055 48206 333 10121 59006
AAXX 21184 41252 36/// /0510 10195 20045 39823 40113 333 0E021 10255 58006
AAXX 21184 41253 36/// /0000 10167 20088 39840 40224 333 0E018 10234 58004
AAXX 21184 41254 36/// /2904 10072 20027 38004 48009 333 0E007 10117 59011
AAXX 21184 41255 36/// /0202 10186 20064 39664 40223 333 0E021 10239 58007
AAXX 21184 41256 31959 01103 10189 20094 30208 40218 70500 333 10246 58008
AAXX 21184 41257 36/// /3502 10168 20104 39733 40224 333 0E016 10226 58007
AAXX 21184 41258 NIL
AAXX 21184 41259 36/// /0304 10028 21284 37122 40293 333 0E/// 10070 58001
AAXX 21184 41262 NIL
AAXX 21184 41263 NIL
AAXX 21184 41264 NIL
AAXX 21184 41265 36/// /3506 10170 20069 39663 40217 333 0E021 10241 58008
AAXX 21184 41267 35/// /3316 10212 20086 30195 40211 333 0E021 10243 58011
AAXX 21184 41268 NIL
AAXX 21184 41270 NIL
AAXX 21184 41275 NIL
AAXX 21184 41287 NIL
AAXX 21184 41288 NIL
AAXX 21184 41290 NIL
AAXX 21184 41295 NIL
AAXX 21184 41304 NIL
AAXX 21184 41312 36/// /0005 10246 20112 30148 40187 333 0E/// 10279 58003
AAXX 21184 41314 32960 23605 10182 20082 39700 40211 82030 333 10231 58003 82359
AAXX 21184 41315 36/// /3610 10161 20082 39201 42837 333 0E/// 10193 58011
AAXX 21184 41316 32960 03409 10236 20089 30162 40188 333 10279 58000
AAXX 21184 92001 NIL
AAXX 21184 92014 NIL
AAXX 21184 92044 31470 40000 10250 20247 30033 40039 5//// 701// 82201
AAXX 21184 92047 NIL
AAXX 21184 92100 NIL
AAXX 21184 94299 46/// /1719 10268 20245 30024 40034
AAXX 21184 94300 46/// /1813 10237 20178 30074 40084
AAXX 21184 94302 46/// /2013 10246 20197 30044 40050
AAXX 21184 94312 46/// /2808 10307 20227 39986 49995
AAXX 21184 94313 NIL
AAXX 21184 94317 46/// /1006 10323 20057 39465 40033
AAXX 21184 94319 46/// /1112 10345 20097 39702 40023
AAXX 21184 94324 NIL
AAXX 21184 94326 46/// /0000 10199 20163 39460 40059
AAXX 21184 94327 46/// /1306 10261 20138 39692 40055
AAXX 21184 94332 46/// /1804 10269 20189 39654 40029
AAXX 21184 94333 NIL
AAXX 21184 94341 46/// /0704 10257 20151 39815 40044
AAXX 21184 94346 46/// /0711 10245 20166 39851 40065
AAXX 21184 94363 46/// /1306 10194 20175 39881 40094
AAXX 21184 94366 NIL
AAXX 21184 94367 46/// /1311 10252 20198 30031 40072
AAXX 21184 94374 46/// /1504 10213 20172 30078 40094
AAXX 21184 94388 46/// /1218 10242 20197 30089 40094
AAXX 21184 94393 46/// /1321 10253 30027 40039 55005
AAXX 21184 94394 46/// /1221 10242 30065 40073 56010
AAXX 21184 94403 46/// /1509 10183 20165 30067 40108
AAXX 21184 94429 46/// /2206 10267 20131 39624 40076
AAXX 21184 94430 46/// /2004 10261 20041 39496 40064
AAXX 21184 94449 46/// /0714 10258 20083 39577 40095
AAXX 21184 94451 NIL
AAXX 21184 94461 46/// /1004 10237 20074 39408 40060
AAXX 21184 94462 46/// /0000 10232 20213 39518 40058
AAXX 21184 94477 NIL
AAXX 21184 94488 NIL
AAXX 21184 94500 NIL
AAXX 21184 94510 46/// /0705 10199 20188 39742 40081
AAXX 21184 94515 46/// /0509 10193 20146 39759 40101
AAXX 21184 94552 46/// /1107 10162 20149 39665 40124
AAXX 21184 94578 46/// /1504 10211 20189 30123 40134
AAXX 21184 94584 46/// /1021 10224 20167 30006 40114
AAXX 21184 94601 46/// /2710 10206 20172 30112 40129
AAXX 21184 94610 46/// /1909 10175 20162 30095 40118
AAXX 21184 94637 46/// /0711 10273 20056 39676 40092
AAXX 21184 94638 46/// /0306 10208 20114 30074 40105
AAXX 21184 94642 NIL
AAXX 21184 94643 NIL
AAXX 21184 94647 46/// /1908 10185 20171 30001 40120
AAXX 21184 94651 46/// /2806 10165 20163 30032 40108
AAXX 21184 94653 46/// /0306 10199 20144 30078 40096
AAXX 21184 94659 46/// /0909 10243 20067 39913 40104
AAXX 21184 94672 46/// /1803 10157 20057 30123 40133
AAXX 21184 94691 46/// /1401 10170 20065 39799 40119
AAXX 21184 94693 46/// /2103 10150 20096 30066 40127
AAXX 21184 94700 NIL
AAXX 21184 94703 46/// /0609 10212 20180 39980 40103
AAXX 21184 94710 46/// /1105 10199 20160 39862 40109
AAXX 21184 94729 46/// /0809 10152 20123 39303 40138
AAXX 21184 94750 46/// /1806 10164 20154 30046 40169
AAXX 21184 94767 46/// /1705 10195 20158 30164 40170
AAXX 21184 94776 46/// /0000 10170 20161 30153 40163
AAXX 21184 94791 NIL
AAXX 21184 94802 46/// /0000 10139 20135 30050 40132
AAXX 21184 94804 46/// /0918 10163 20128 30095 40132
AAXX 21184 94807 NIL
AAXX 21184 94821 46/// /1408 10127 20123 30073 40155
AAXX 21184 94842 46/// /0919 10153 20114 30056 40154
AAXX 21184 94847 NIL
AAXX 21184 94850 46/// /1306 10122 20116 30135 40181
AAXX 21184 94865 46/// /0904 10137 20117 30132 40156
AAXX 21184 94866 46/// /2905 10119 20111 30017 40156
AAXX 21184 94875 46/// /1204 10157 20125 30007 40140
AAXX 21183 NIL
AAXX 21184 88963 11257 80000 10018 21001 39886 49917 57012 69901 71072 887// 333 56799 88706 90061 90080 92406 94072 95080
AAXX 21184 88968 31350 81420 10002 21006 39900 49915 57020 71042 886// 333 56499 88708 90016 90091 92426 92731 92851 94075 95065
AAXX 21184 89034 32970 10503 11029 21036 39434 49746 57015 80001 333 56001 81070 92407 92831
AAXX 21184 89053 11230 82710 10036 20021 39910 49924 55004 69901 71062 887// 333 88705 90068 90084 90923 92415 94070 94479 95090 97516 98530
AAXX 21184 89055 31205 80205 11005 21008 39677 49920 57013 74244 88600 333 56800 88705 90064 90076 92730 92800 95140
AAXX 21184 89066 31450 82704 11002 21013 39930 49940 56004 71042 886// 333 88710 90107 90207 92406 94070 95090 97513
AAXX 21184 94102 46/// /2516 10303 20265 30018 40027
AAXX 21184 94103 NIL
AAXX 21184 94120 46/// /1308 10247 20235 39973 40013
AAXX 21184 94122 46/// /1503 10251 20233 39997 40005
AAXX 21184 94131 46/// /1206 10264 20238 39882 40032
AAXX 21184 94132 NIL
AAXX 21184 94147 NIL
AAXX 21184 94150 46/// /0307 10263 20241 39965 40024
AAXX 21184 94151 46/// /0608 10281 20232 30011 4////
AAXX 21184 94170 46/// /0000 10236 20227 30017 40039
AAXX 21184 94200 NIL
AAXX 21184 94203 46/// /1113 10297 20253 30053 40063
AAXX 21184 94206 NIL
AAXX 21184 94207 46/// /2817 10291 30015 40023 58015
AAXX 21184 94211 NIL
AAXX 21184 94212 46/// /2101 10231 20216 39560 40020
AAXX 21184 94216 46/// /1508 10292 20213 39979 40029
AAXX 21184 94236 NIL
AAXX 21184 94238 NIL
AAXX 21184 94248 NIL
AAXX 21184 94255 46/// /3304 10262 20216 39782 40037
AAXX 21184 94268 46/// /0000 10253 20237 30033 40045
AAXX 21184 94287 46/// /1407 10232 20212 30048 40057
AAXX 21184 94290 NIL
AAXX 21184 94294 46/// /2205 10231 20178 30064 40074
AAXX 21184 94296 NIL
AAXX 21184 94298 46/// /1523 10262 30024 40030 56010
AAXX 21184 95641 NIL
AAXX 21184 94893 46/// /0921 10147 20147 3//// 4////
AAXX 21184 94907 46/// /0603 10139 20128 30168 40178
AAXX 21184 94910 46/// /1009 10176 20120 39897 40143
AAXX 21184 94926 46/// /0605 10147 20122 39502 40160
AAXX 21184 94935 46/// /2705 10140 20129 30147 40173
AAXX 21184 94954 46/// /0410 10135 20112 30085 40196
AAXX 21184 94956 46/// /0403 10106 20095 30171 40198
AAXX 21184 94975 46/// /2705 10122 20072 30179 40212
AAXX 21184 94983 46/// /1825 10138 20115 30167 40192
AAXX 21184 94995 46/// /0713 10209 20176 30163 40171
AAXX 21184 94996 46/// /0911 10200 20174 30047 40175
AAXX 21184 94997 NIL
AAXX 21184 94998 46/// /2709 10052 20037 30222 40233
AAXX 21184 95111 46/// /1105 10273 20249 39988 40023
AAXX 21184 95205 46/// /1319 10256 20226 30087 40094
AAXX 21184 95322 NIL
AAXX 21184 95448 46/// /0807 10276 20085 39523 40071
AAXX 21184 95458 46/// /1108 10210 20178 39832 40086
AAXX 21184 95480 46/// /1509 10239 20091 30046 40104
AAXX 21184 95481 46/// /1206 10256 20094 30047 40091
AAXX 21184 95482 46/// /1115 10307 20072 30014 40068
AAXX 21184 95485 46/// /1705 10209 2//// 39899 40098
AAXX 21184 95492 46/// /0000 10225 20156 39935 40086
AAXX 21184 95527 46/// /0805 10188 20176 39876 40124
AAXX 21184 95634 46/// /1703 10229 20113 39693 40085
AAXX 21184 95637 46/// /1609 10173 20133 39787 40114
AAXX 21184 95646 NIL
AAXX 21184 95666 NIL
AAXX 21184 95719 46/// /1008 10168 20137 39811 40135
AAXX 21184 95762 46/// /1408 10167 20134 39680 40128
AAXX 21184 95826 NIL
AAXX 21184 95839 46/// /2205 10123 20109 39984 40141
AAXX 21184 95864 NIL
AAXX 21184 95909 NIL
AAXX 21184 95954 NIL
AAXX 21184 95966 46/// /1709 10108 20064 30008 40208
AAXX 21184 96995 46/// /1006 10253 20237 39788 40082
AAXX 21184 96996 45/// /1413 10268 20233 30071 40075 58011
BBXX UCKZ 21181 99651 30494 41294 80105 11011 21018 49745 52030 71084 886// 22213 01012 20201 334// 41005 ICE 0/9/0
BBXX FHZI 21174 99658 31435 46/// /2925 11010 21027 39859 49870 57017 22200 05019 86016
AAXX 21181 12345 42559 10801 10280 20191 30130 40170 57025 81100 333 81830
AAXX 21181 38141 32998 01205 11150 21201 30218 40393 53002 333 11120
AAXX 21181 38149 42998 00404 11122 21174 30309 40392 57003 333 11040
AAXX 21181 38178 429// 01002 11150 21256 30117 40432 57015 333 11116
AAXX 21181 38262 329// 00503 11144 21194 30308 40398 57003 333 11060
AAXX 21181 38264 42998 00803 11118 21190 30290 40392 57005 333 11040
AAXX 21181 38396 42997 20903 11096 21181 30261 40397 57003 80001 333 11022
AAXX 21181 38403 429// 00902 11105 21189 30281 40413 53001 333 11028
AAXX 21181 38413 429// 00902 11121 21141 30088 40405 57012 333 11082
AAXX 21181 38457 32997 00101 11094 21129 39788 40423 57010 333 11061
AAXX 21181 38462 429// 00000 11131 21183 38861 48574 58003 333 11073
AAXX 21181 38565 329// 00000 11129 21149 39786 40426 56006 333 11092
AAXX 21181 38579 329// 01301 11089 21118 39964 40416 58009 333 11043
AAXX 21181 38583 32997 03601 11086 21093 30070 40417 57012 333 11045
AAXX 21181 38611 11997 33502 11070 21087 39815 40427 57004 69902 71011 83006 333 11010
AAXX 21181 38618 129// 00000 11073 21103 39669 40407 58006 69900 333 11050
AAXX 21181 38683 42997 00000 11098 21157 30098 40399 57009 333 11037
AAXX 21181 38696 329// 00000 11098 21119 39492 40418 58007 333 21023
AAXX 21181 38812 42997 00808 11066 21103 39904 40389 58012 333 11017
AAXX 21181 38927 /1557 30302 11063 21082 30005 40410 58009 69902 71000 83400 333 11002
AAXX 21183 91502 31470 10000 10261 20249 40038 56011 70500 81208 333 56909 81814
AAXX 21183 91507 NIL
AAXX 21183 91520 NIL
AAXX 21183 91541 NIL
AAXX 21184 78615 32482 30000 10300 20225 30002 40139 58020 83200 333 10304 20174 30/// 56200 57824 58008 83818
AAXX 21184 78627 32582 11306 10238 20086 38152 58016 81200 333 10246 20072 30/// 56100 57884 59000 83820
AAXX 21184 78637 32582 33606 10276 20229 30120 40136 58014 82200 333 10280 20200 30/// 56200 57854 58004 83820
AAXX 21184 78641 31982 03614 10244 20101 38544 40123 58009 70240 333 10250 20112 30/// 59000
AAXX 21184 78647 31458 21710 10320 20208 30115 40122 58020 70441 82100 333 10320 20210 30/// 56200 57888 59015 82818
AAXX 21184 41024 42960 20208 10256 20220 30127 40147 82030 333 10310 58004 55085 82360
AAXX 21184 41030 42960 00000 10270 20180 39871 40141 333 10352 58003 55///
AAXX 21184 41036 42960 09903 10170 20010 38594 48544 333 10240 58004 55095 555 04410 50149
AAXX 21184 41055 42960 00907 10157 20010 38401 48550 333 10217 58004 55095 555 04410 50197
AAXX 21184 41061 42960 01106 10136 20020 39495 40215 333 10230 58000 55100
AAXX 21184 41084 42960 00205 10168 20010 38897 48545 333 10260 58002 55099 555 04410 50184
AAXX 21184 41112 42960 00000 10133 21020 37974 48547 333 10224 58001 55095 555 04410 50193
AAXX 21184 41114 42960 00708 10150 21010 38006 48543 333 10240 59001 55/// 555 04410 50186
AAXX 21184 41128 42960 00402 10140 21030 38861 48561 333 10240 59003 55085 555 04410 50209
AAXX 21184 41136 42960 00605 10165 21030 39377 40202 333 10250 58000 55093
AAXX 21184 41140 42560 21203 10270 20210 30139 40143 82100 333 10310 58000 55/// 82825
AAXX 21184 40356 42960 63606 10120 21020 39197 48499 86020 333 10190 59027 55031 86360 555 04410 50173
AAXX 21184 40357 42660 50806 10117 20020 39548 40196 85500 333 10190 59033 55/// 85640
AAXX 21184 40360 42960 42602 10116 20000 39582 40168 80006 333 10170 59020 55015 84270
AAXX 21184 40361 42960 31209 10151 21060 39402 40170 80008 333 10232 59034 55/// 83270
AAXX 21184 40362 42960 01311 10132 21050 39685 40209 333 10214 59023 55///
AAXX 21184 40373 42960 01505 10120 21030 39801 40230 333 10190 58000 55///
AAXX 21184 40375 42960 32005 10190 20050 39288 40157 83020 333 10242 59007 55080 83460
AAXX 21184 40377 42660 21707 10089 20020 39743 40239 82400 333 10198 59006 55/// 82640
AAXX 21184 40394 42960 01905 10124 21010 39070 48544 333 10236 59009 55083 555 04410 50200
AAXX 21184 40400 42960 63504 10234 20200 30131 40159 80004 333 10270 59003 55060 86070
AAXX 21184 40401 42960 03602 10200 21030 39466 40165 333 10272 59002 55///
AAXX 21184 40405 42960 00000 10150 20020 39466 40215 333 10230 59014 55///
AAXX 21184 40416 42960 03406 10180 20150 30193 40213 333 10240 58008 55///
AAXX 21184 40417 41958 00000 10153 20120 30215 40230 71000 333 10230 58008 55///
AAXX 21184 40420 42960 03404 10157 20110 30016 40226 333 10236 58006 55///
AAXX 21184 40430 42960 20203 10226 20010 39446 40162 80001 333 10280 59002 55077 82070
AAXX 21184 40435 NIL
AAXX 21184 40437 42960 01705 10135 20030 39519 40235 333 10193 59006 55092
AAXX 21184 40439 42960 02705 10240 20160 30129 40139 333 10310 58005 55077
BBXX VRAE3 21184 99059 31241 41797 30000 10290 20248 40075 52009 70202 87285 22234 00310 2//// 3//// 4//// 5//// 80260
BBXX VRRD 21183 99216 31548 41297 61430 10250 20235 40043 54000 75865 867// 22243 2//// 80240
BBXX PCAM 21183 99412 31732 41598 31604 10150 20126 40283 57003 70211 8244/ 22200 20100 30000 80136
BBXX A8TX8 21183 99204 31101 41998 01417 10250 20228 40079 57025 700// 80000 22285 04270 20803 320// 41004 80235
BBXX 3ECI3 21184 99435 31728 41597 60912 10142 20110 40293 54000 70311 86443 22200 00150 20302 309// 40802 80125
BBXX VNSZ 21174 99383 31447 46/// /1216 10153 20121 30140 40166 57021 22223 04174 85134
BBXX VNSZ 21164 99385 31447 46/// /1028 10159 20121 30152 40178 57032 22275 04175 85136
BBXX C6FS9 21164 99274 31531 46/// /1406 10228 20183 30107 40143 57013 22200 04246 85198
BBXX 9HA2479 21164 99235 31651 46/// /1029 10245 20210 30077 40106 57019 22214 04250 85220
BBXX VNAH 21164 99322 31157 46/// /1920 10204 20162 30111 40134 57005 22200 04225 85177
BBXX VROB 21164 99378 31449 46/// /1206 10156 20114 30138 40164 57006 22200 04202 85132
BBXX C6FS9 21174 99274 31531 46/// /1511 10215 20188 30106 40142 57007 22200 04246 85197
BBXX 9HA2479 21174 99234 31653 46/// /1031 10246 20206 30074 40103 57017 22214 04252 85218
BBXX VROB 21174 99378 31449 46/// /1205 10154 20114 30137 40163 57008 22200 04202 85131
BBXX VNAH 21174 99322 31157 46/// /1714 10200 20161 30107 40130 57012 22200 85175
BBXX VNSZ 21184 99383 31449 46/// /1029 10152 20119 30132 40158 57029 22285 04190 85133
BBXX C6FS9 21184 99274 31531 46/// /1807 10208 20187 30105 40141 57004 22200 04246 85194
BBXX 9HA2479 21184 99232 31656 46/// /1031 10246 20210 30078 40107 57006 22214 04253 85220
BBXX 2AGH7 21183 99167 31679 41598 71015 10270 20256 40101 56010 70222 84860 22284 20201 316// 40503 80260
BBXX mpjh9 21184 99018 31520 41/98 /2720 10285 20250 40121 56010 70311 8//// 22234 00300 2//// 80260
BBXX VRAE2 21184 99244 31769 41298 81119 10245 20182 40125 53008 70022 8271/ 22244 04250 20302 314// 40503 80205
AAXX 21184 91375 NIL
AAXX 21184 91519 NIL
AAXX 21184 91531 NIL
AAXX 21184 91532 45/// /0501 10264 20239 30055 40063 52003
AAXX 21184 91559 NIL
AAXX 21184 91611 NIL
AAXX 21184 91642 NIL
AAXX 21184 91679 NIL
AAXX 21184 91689 NIL
AAXX 21184 91756 NIL
AAXX 21184 91844 NIL
AAXX 21184 92036 NIL
AAXX 21184 93713 NIL
AAXX 21184 94310 46/// /3415 10279 20260 39992 40002 57023
AAXX 21184 95283 46/// /1406 10263 20217 30040 40047
AAXX 21184 95288 46/// /1218 10275 30026 40041 56013
AAXX 21184 95675 46/// /3602
AAXX 21184 95872 46/// /0714
AAXX 21184 95961 35/// /0409 10094 30149 40191 57007
AAXX 21184 42584 20723 10290 20208 30128 40136 60001 70211 82801 333 02205 10295 20242 59002 70072 82828
AAXX 21184 RTD 78792 32460 80305 10302 20224 30072 40085 57020 83230 333 021// 10302 20228 30/// 59005 83818 86359
AAXX 21181 37395 32797 70903 10124 21007 30019 40157 53002 82530 333 10180
AAXX 21181 37409 32598 52702 10034 21040 38766 48494 52003 83431 333 10098 95080
AAXX 21181 37432 32997 00000 11008 21057 38975 48509 52014 333 10045
AAXX 21181 37514 32696 60000 10025 21042 39044 40212 53007 86500 333 10124
AAXX 21181 37545 329// 02701 11002 21005 39686 40216 52006 333 10052
AAXX 21181 37621 329// 00000 11003 21052 39561 40220 52006 333 10055
AAXX 21181 37484 NIL
AAXX 21184 16021 12970 03308 11062 21123 37922 48452 53002 60002 333 11042 43026 92842
BBXX ZCAS2 21184 99330 11348 41498 82007 10141 20041 40161 57/// 70222 89/// 22284 00224 2//// 301// 40201 80095
BBXX V2BE4 21181 99083 11432 41998 00911 10285 20242 40056 57012 70000 80000 22243 04300 20506 310// 40606 80255
AAXX 21184 40550 35/61 /2502 10095 20013 40232 51011 333 55300 00000 10216 20000 30000 41035 51251 60000 55407 40000 90069 90400 91003 91107 91203 91301
AAXX 21184 40551 36/// /1906 10118 21011 333 90400 91007 91109 91205 91303
AAXX 21184 40552 35/69 /1902 10129 20001 40234 52012 333 55300 90069 90401 91003 91109 91205 91303
AAXX 21184 40553 35/61 /1703 10111 20058 40231 51009 333 55300 90069 90400 91007 91109 91207 91303
AAXX 21184 40568 36/// /2005 10114 20076 333 90400 91005 91107 91207 91305
AAXX 21184 40569 NIL
AAXX 21184 40570 35/70 /1803 10099 21036 40239 51017 333 55300 90069 90401 91007 91109 91205 91301
AAXX 21184 40571 NIL
AAXX 21184 40572 NIL
AAXX 21184 40573 36/// /1906 10090 21019 333 90401 91009 91109 91205 91301
AAXX 21184 40580 36/// /1701 10117 20053 333 553// 00000 10237 20000 30000 41040 51277 60000 55407 40000 90401 91001 91105 91201 91301
AAXX 21184 40581 36/// /2103 10160 20057 333 90400 91003 91107 91203 91301
AAXX 21184 40582 42960 51803 10108 20063 40234 52009 80001 333 55300 00000 10261 20000 30000 41059 51319 60000 55407 40000 85070 90400 91003 91109 91207 91303
AAXX 21184 40583 NIL
AAXX 21184 40585 36/// /2010 10158 20122 222// 1//// 3//// 4//// 70/// 333 90400 91011 91115 91213 91307
AAXX 21184 40586 36/// /2004 10122 20048 333 90401 91005 91107 91205 91303
AAXX 21184 40587 36/// /1804 10115 20048 333 553// 00000 10221 20000 30000 41033 51254 60000 55407 40000 90401 91005 91109 91205 91303
AAXX 21184 40588 35/63 /1605 10135 20096 40231 51008 333 55300 90069 90400 91007 91109 91207 91305
AAXX 21184 40589 NIL
AAXX 21184 40590 36/// /1906 10119 21030 333 90400 91007 91107 91207 91303
AAXX 21184 40591 NIL
AAXX 21184 40592 37/58 /2003 10102 20067 40237 51010 71011 333 55300 00000 10198 20000 30000 41082 51279 60000 55407 40000 90069 90400 91003 91105 91201 91301
AAXX 21184 40593 36/// /2603 10143 20107 333 90400 91003 91109 91207 91303
AAXX 21184 40594 36/// /1904 10134 20096 333 90400 91005 91109 91205 91303
AAXX 21184 40596 36/// /1305 10180 20117 333 90400 91005 91107 91205 91305
AAXX 21184 78062 11669 41410 10263 20195 40210 69901 70181 84800 333 59013 84830 90940
AAXX 21184 63125 32565 31604 10255 20185 40186 81201 333 10299 58002 81820 83077
AAXX 21184 65352 31940 70000 10310 20090 3//// 4//// 70522 80002 333 10360 5//// 87076
AAXX 21184 65361 NIL
AAXX 21184 65376 31925 70000 10295 20184 39642 40100 70522 80002 333 10330 59001 87076
AAXX 21184 65387 32458 72206 10290 20255 30063 40081 81202 333 10335 58000 81813 86073
AAXX 21184 65351 32960 73602 10305 20090 3//// 4//// 80002 333 5//// 87076
AAXX 21184 65355 32960 73404 10280 20109 39588 40103 80002 333 10340 59002 87073
AAXX 21184 65357 32960 70000 10310 20046 39712 40100 80002 333 10365 59002 87076
AAXX 21184 65380 NIL
AAXX 21184 RTD 78792 32460 80305 10302 20224 30072 40085 57020 83230 333 021// 10302 20228 30/// 59005 83818 86359
AAXX 21184 78615 32482 30000 10300 20225 30002 40139 58020 83200 333 10304 20174 30/// 56200 57824 58008 83818
AAXX 21184 78627 32582 11306 10238 20086 38152 58016 81200 333 10246 20072 30/// 56100 57884 59000 83820
AAXX 21184 78637 32582 33606 10276 20229 30120 40136 58014 82200 333 10280 20200 30/// 56200 57854 58004 83820
AAXX 21184 78641 31982 03614 10244 20101 38544 40123 58009 70240 333 10250 20112 30/// 59000
AAXX 21184 78647 31458 21710 10320 20208 30115 40122 58020 70441 82100 333 10320 20210 30/// 56200 57888 59015 82818
AAXX 21184 16684 12560 61206 10108 20046 30095 40123 56003 60002 81131 333 10134 81825 83358 85068 90730 91109 555 10000 40084 40000 47602 44210 50000 50080
AAXX 21184 41883 31/08 90000 10110 20110 30139 40161 74244 89/// 333 56999 58008 70000
AAXX 21184 41891 31412 82702 10150 20150 30103 40143 71020 8532/ 333 56999 58001 70000 85614 81930 88460
BBXX 44060 21181 99413 70721 46/// ///05 10111 40138 91800 22200 00103 333 91206 555 11057 22062
BBXX 41038 21181 99341 70777 46/// /2107 10172 40184 58024 91800 22200 00139 333 91208
BBXX PHPP 21184 99043 10991 41697 43609 10270 20243 40079 58008 70200 84100 22274 00300 20801 80250
BBXX UCKD 21181 99571 10068 41/98 93407 10040 40133 52015 70100 89/// 22263 00080 20402
AAXX 21181 50468 32970 02903 11224 21252 39982 40210 52007 333 11186
AAXX 21181 50953 32960 73203 11130 21165 30023 40212 52013 80002 333 11088
AAXX 21181 51076 NIL
AAXX 21181 51243 NIL
AAXX 21181 51288 32980 01102 11133 21222 38438 57008 333 05504 11078
AAXX 21181 51463 NIL
AAXX 21181 51573 NIL
AAXX 21181 51709 NIL
AAXX 21181 52533 NIL
AAXX 21181 52652 NIL
AAXX 21181 52866 NIL
AAXX 21181 52983 NIL
AAXX 21181 53463 32975 03202 11103 21210 39088 40410 57002 333 00351 11050
AAXX 21181 53513 32970 02201 11161 21201 39112 40420 57014 333 00154 11031
AAXX 21181 53588 NIL
AAXX 21181 53772 NIL
AAXX 21181 53915 NIL
AAXX 21181 54218 32970 02903 11143 21250 39498 40356 52010 333 11064
AAXX 21181 54337 32960 03202 11082 21235 30237 40325 52011 333 10001
AAXX 21181 54342 NIL
AAXX 21181 54401 NIL
AAXX 21181 54471 32960 03601 11099 21191 30317 40323 52009 333 10000
AAXX 21181 54497 32970 03407 11074 21220 30276 40293 52015 333 10014
AAXX 21181 54511 NIL
AAXX 21181 54823 32970 00903 11018 21183 30131 40349 52005 333 10047
AAXX 21181 56080 NIL
AAXX 21181 56096 NIL
AAXX 21181 57083 NIL
AAXX 21181 56187 NIL
AAXX 21181 56778 NIL
AAXX 21181 57265 NIL
AAXX 21181 57461 11457 82701 10064 20050 30166 40334 57002 69921 71060 8277/ 333 10079
AAXX 21181 57494 NIL
AAXX 21181 57516 11412 80000 10081 20067 39976 40295 57006 60011 76060 8672/ 333 00400 10090
AAXX 21181 57687 11420 83402 10052 20024 30226 40313 57002 69921 76066 8772/ 333 10084
AAXX 21181 57816 11450 80405 10027 20024 38859 40292 57001 69981 76060 885// 333 00400 10037
AAXX 21181 58040 32962 03602 11012 21116 30321 40335 52012 333 10070
AAXX 21181 58102 31950 02901 11015 21038 30294 40344 52005 71000 333 10056
AAXX 21181 58150 31930 33604 10021 21051 30320 40324 52015 70500 83040 333 10092
AAXX 21181 58221 NIL
AAXX 21181 58238 NIL
AAXX 21181 58251 NIL
AAXX 21181 58362 NIL
AAXX 21181 58457 11730 83403 10076 20033 30242 40296 52004 69901 71060 885// 333 10104
AAXX 21181 58606 NIL
AAXX 21181 58752 NIL
AAXX 21181 58847 NIL
AAXX 21181 59117 32963 02201 10110 20088 30109 40215 52004 333 10232
AAXX 21181 59134 NIL
AAXX 21181 59287 NIL
AAXX 21181 59316 NIL
AAXX 21181 59431 NIL
AAXX 21181 59644 NIL
AAXX 21181 59758 32464 70202 10190 20159 30103 40179 57010 878// 333 10226
AAXX 21181 48803 32497 80000 10164 20139 30073 40189 58003 888// 333 58007 85894 88696
AAXX 21184 06670 01460 82201 10019 20000 39695 40220 52/// 69962 71072 876// 333 10023 43004 55300 20000 60005 81711 87714 90766 93100 91107 91204
AAXX 21184 06700 01257 83301 10016 20008 39730 40238 52/// 60022 76162 885// 333 10029 42001 55300 20000 69945 81706 85633 87650 90766 93100 91105 91203
AAXX 21184 06680 01/01 92504 11092 21114 37460 47984 52/// 60182 74974 333 11090 47211 55300 20000 60025 90766 93105 91144 91230
AAXX 21184 06990 01440 80000 10002 20002 39662 40227 52/// 60012 76822 887// 333 10014 41/// 55300 20000 69925 88712 91103 91202
AAXX 21184 06760 32984 30201 10063 21050 39706 40157 52/// 83010 333 10099 30/// 55300 20000 83465 90766 93100 91109 91205
AAXX 21184 06720 01160 8//// 10007 21002 39643 40237 52/// 60022 77072 8802/ 333 10020 43025 55300 20000 69925 88502 90766 93101
AAXX 21184 06610 03/// /2203 10011 20006 39635 40237 52/// 60032 333 10026 55300 20000 60015 91109 91205
AAXX 21184 61974 12470 31602 10273 20240 40122 60002 82832 333 10333 55095 58000 82818
AAXX 21184 61986 12570 21006 10272 20241 40138 60002 82202 333 10329 58010 82820
AAXX 21184 61988 12470 41112 10244 20214 40162 60002 84800 333 10280 55114 58002 84818 91126
AAXX 21184 61989 NIL
AAXX 21184 61990 11358 80708 10250 20223 40160 60052 71582 87846 333 10267 55000 58024 81708 85815 86650
AAXX 21184 61995 11350 80910 10219 20205 39678 60022 78082 8787/ 333 10239 55000 58019 81710 85816 85650
AAXX 21181 33177 11496 80000 11006 21018 39897 40140 52014 69902 77172 8872/ 333 11006
AAXX 21181 33415 11596 62904 11016 21036 39735 40144 52022 69902 71072 82530 333 11006
AAXX 21181 33466 11459 83104 11001 21021 39891 40081 52009 69902 71072 8672/ 333 10018 86716
AAXX 21181 34300 11496 81504 10063 20059 39863 40052 57009 60052 72582 883// 333 10063
BBXX 44139 21181 99442 70571 46/// /2807 10019 40248 57001 22200 00061 11106 70031 333 91209
BBXX C6SI6 21184 99311 11223 46/// /3311 10082 20029 40282 58009 7//// 8//// 22233 0//// 2////
BBXX WCX8882 21184 99340 11228 41597 83624 10075 20070 40294 52020 70222 88/2/ 22274 00120 20306 3//// 4//// 5//// 6//// 80070 ICE /////
BBXX ZCAO7 21184 99369 11338 41/98 42920 10085 20039 40132 57027 70388 8//// 22254 00163 2//// 80065
BBXX ZCAS2 21184 99330 11348 41498 82007 10141 20041 40161 57/// 70222 89/// 22284 00224 2//// 301// 40201 80095
BBXX 46035 21181 99571 71778 46/// /2407 1//// 49986 52003 91750 22200 11005 20502 300// 41004 70023 333 91208 555 11066 22070 31650 42510 61749 243065 232074 227076 224070 238070 262075 82309 91708
BBXX 4XIS 21183 99379 71760 43/96 81726 10120 20100 40130 57025 22225 80110
BBXX A8SI3 21183 99540 71542 43498 21811 10023 21020 40129 58008 22264 00030 324// 40808 80002
BBXX A8XD5 21184 99426 71724 41/97 /2213 10086 20066 40160 54000 70222 8/79/ 22223 04100 20302 302// 41204 80076
BBXX DHBN 21181 99344 71623 41497 73608 10155 20102 40210 52010 70311 87500 22224 00200 29903 329// 41005 5//// 80125
BBXX KEY796 21183 99571 71703 41/97 42615 11022 21044 49900 51/// 770// 8//// 222// 00011 2//// 3//// 4//// 5//// 6//// 8//// ICE /////
BBXX LEQZ3 21183 99547 71775 41298 42719 10010 21010 40020 51010 70300 22253 00110 80000
BBXX NWS0003 21184 99539 71665 43/// /3600 11006 21051 40035 5//// 7//// 8//// 222// 0//// 2//// 3//// 4//// 5//// 6//// 8//// ICE /////
BBXX VRCI9 21184 99377 71678 41/98 /2915 10125 20057 40160 52020 70022 8//// 22234 00161 2//// 3//// 4//// 80090
BBXX WCX8884 21184 99540 71620 41097 41825 10030 20010 40030 54000 70211 84/// 22214 00050 20504 3//// 40504 5//// 6//// 80020 ICE /////
BBXX 9V8739 21184 99345 11717 41197 63429 10140 20123 40130 52060 75022 862// 22264 00210 2//// 329// 40906 5//// 6//// 80130 ICE /////
BBXX A8AJ4 21184 99524 11619 41697 03424 10000 2//// 40100 52030 7//// 80000 22264 0//// 20604 3//// 4//// 5//// 6//// 8//// ICE /////
BBXX C6SI4 21184 99526 11630 43/// /0918 11010 21040 40050 55020 7//// 8//// 22254 00030 20203 3//// 40304 5//// 6//// 81020 ICE /////
BBXX DIHC 21183 99361 11538 41398 73605 10105 20019 40224 53004 70322 877// 22264 00150 2//// 80065
BBXX LAIG7 21184 99343 11710 41797 73418 10160 20140 40150 52010 70222 8787/ 22223 00202 20204 329// 41208 5//// 6//// 80150 ICE /////
BBXX S6JU 21184 99467 11661 41797 63226 10060 21040 40008 51002 70301 863// 22224 04060 2//// 3//// 4//// 5//// 6//// 80040
AAXX 21181 01488 16/// /2801 11127 21138 60002 333 11082 4/012 91102
AAXX 21181 01199 16/// /1602 11080 21087 39603 40084 55001 6//// 333 11060 91104
BBXX 44139 21181 99442 70571 46/// /2807 10019 40248 57001 22200 00061 11106 70031 333 91209
AAXX 21181 26135 27382 83301 11012 21027 30071 40147 52007 70000 88/// 333 11003 21012 60007 88/10 555 1/000 21012 3/100 51003 52101
AAXX 21181 26058 27221 70800 11012 21014 30130 40138 53007 71011 83/// 333 11007 21016 60007 83/05 555 1/101 21016 3/102 51011 52103
AAXX 21181 26045 27765 32101 11020 21020 30139 40142 52006 70011 81/// 333 11005 21025 60007 81/55 555 1/103 21025 3/103 51005
AAXX 21181 26247 27/78 /3402 11011 21019 30062 40143 52008 70000 333 11006 21012 60007 555 1/100 21012 3/100 51007
AAXX 2118/ 89767 46/// ///// 11026 39732 4//// 5////
AAXX 21184 61017 32960 50000 10182 20045 39744 40158 80002 333 10275 58001 85080
AAXX 21184 61024 32960 51210 10230 21036 39572 40145 83032 333 10286 59001 83364 83080
AAXX 21184 61036 32965 70000 10285 20021 39878 40116 81038 333 10330 58012 81365 87280
AAXX 21184 61043 32960 70606 10270 21052 39675 40046 81038 333 10310 58003 81364 87280
AAXX 21184 61045 32965 50000 10232 21050 39630 40133 80002 333 10300 59005 85080
AAXX 21184 61049 32960 50000 10232 21009 39792 40115 80002 333 10306 59005 85080
AAXX 21184 61052 31958 30206 10285 20009 39862 40120 70611 80002 333 10327 59001 83080
AAXX 21184 61075 32960 50000 10275 20043 39799 40103 80002 333 10340 59002 85080
AAXX 21184 61080 32960 70000 10264 20008 39700 40122 80008 333 10310 58000 87280
AAXX 21184 61090 32965 50000 10250 21025 39602 40114 80002 333 10300 59008 85080
AAXX 21184 61091 32965 50000 10240 20086 39677 40138 80002 333 10318 58004 85080
AAXX 21184 61096 32965 73602 10246 21002 39744 40131 80008 333 10316 59002 87280
AAXX 21184 61099 32965 73606 10300 20039 39867 40094 80008 333 10340 59003 87280
AAXX 21184 89577 46/// /1603 11329 35808 4//// 5////
AAXX 21184 89578 46/// /0704 11338 36850 4//// 5////
AAXX 21184 04048 21/01 91724 10065 20063 49744 53015 75862 333 10067 20009 60078 555 3/555
AAXX 21184 89002 42999 72810 11032 21046 39708 49762 52005 80006
AAXX 21184 41244 36/// /0808 10190 20038 39856 48407 333 0E020 10249 58007
AAXX 21184 41263 36/// /2604 10179 20034 39520 40214 333 0E018 10240 58008
AAXX 21184 41268 36/// /0008 10207 20070 30194 48445 333 0E021 10253 58011
AAXX 21184 41287 36/// /0612 10193 20052 30156 40225 333 0E021 10271 58006
BBXX SBHI 21183 99613 10175 43/98 02709 10139 40122 51010 22261 06034
AAXX 21184 91753 04586 /1008 10275 20237 30055 40087 53013 60012 700// 333 10281 20248 69967 90710 91112 555 60005
AAXX 21184 91754 01480 50606 10271 20238 30045 40086 53013 69981 702// 84902 333 69987 81916 83819 555 60005
AAXX 21184 71758 16/// /2313 11033 21103 30127 40206 55009 60001 333 11027 21075 70000
AAXX 21184 71771 46/// /1812 10063 20037 30261 40282 56015 6///1 333 10063 20028 7////
AAXX 21184 71148 16/// /0110 11034 21060 39556 40142 51027 60001 333 11016 21047 70000
AAXX 21184 71402 46/// /2518 11041 21097 30022 40138 50003 6///1 333 11021 21053 7////
AAXX 21184 71407 16/// /2308 11276 21309 30008 40030 53011 60001 333 11263 21338 70000
AAXX 21184 71425 16/// /2404 11033 21121 30070 40107 56024 60001 333 11032 21114 70000
AAXX 21184 71446 16/// /3110 11075 21094 39229 40226 51042 60001 333 10001 21096 70000
AAXX 21184 71449 46/// /3313 11025 21071 39699 40104 52026 6///1 333 11015 21058 7////
AAXX 21184 71861 16/// /3312 11069 21094 39435 40171 51029 60001 333 11009 21112 70000
AAXX 21184 71361 16/// /1103 11180 21203 39958 40173 50003 60001 333 11150 21193 70000
AAXX 21184 71362 16/// /1602 11191 21212 39925 40192 50001 60001 333 11174 21238 70000
AAXX 21184 71364 16/// /2303 11182 21204 39868 40004 58032 60001 333 11153 21269 70000
AAXX 21184 71365 16/// /1304 11190 21207 39925 40145 58017 60001 333 11142 21193 70000
AAXX 21184 71381 47/// /2109 11018 21070 6///1 7//4/ 333 21129 70000
AAXX 21184 71382 17/// /1906 11058 21075 39138 40099 58024 60021 7//4/ 333 11058 21182 70018
AAXX 21184 71384 16/// /2604 11030 21083 30103 40111 58035 60001 333 11025 21129 70000
AAXX 21184 71388 46/// /0603 11064 21087 39904 40097 56022 6///1 333 11061 21213 7////
AAXX 21184 71552 46/// /3610 11043 21085 6///1 333 11004 21050 7////
AAXX 21184 71553 16/// /3112 11056 21091 60001 333 11015 21087 70000
AAXX 21184 71556 16/// /3312 11075 21099 39593 40209 51027 60001 333 11001 21103 70000
AAXX 21184 71564 16/// /3609 11025 21067 39764 40134 51029 60001 333 10009 21026 70000
AAXX 21184 71577 46/// /3306 11045 21084 6///1 333 11006 21045 7////
AAXX 21184 71581 16/// /3201 10000 21006 39562 40043 58032 60001 333 10003 70000
AAXX 21184 71585 16/// /1302 11109 21118 39723 40199 58002 60001 333 21156 7////
AAXX 21184 71599 16/// /2304 10000 21019 39995 40203 56030 60001 333 10000 21106 70006
AAXX 21184 71472 17/// /1923 10066 20024 30116 40134 58107 69921 7//4/ 333 10067 20040 70006
AAXX 21184 71510 16/// /3109 11049 21079 39504 40224 51029 60001 333 11010 21081 70000
AAXX 21184 71920 16/// /2022 10050 20021 30199 40205 56027 60001 333 10050 21057 70000
AAXX 21184 71501 17/// /3505 11235 21259 30033 40035 56012 69961 7//4/ 333 11235 21314 70010
AAXX 21184 71522 47/// /1904 11068 21088 39580 40075 57020 6///1 7//4/ 333 11068 21167 70005
AAXX 21184 71087 46/// /0803 11231 21257 39954 40169 58005 6///1 333 11191 21234 7////
AAXX 21184 71150 46/// /3110 11060 21073 39454 40147 51025 6///1 333 11054 21111 7////
AAXX 21184 71155 16/// ///// 11050 21073 60001 333 11004 21057 70006
AAXX 21184 71157 46/// ///// 11034 21059 6///1 333 11008 21045 7////
AAXX 21184 71159 16/// /2410 11015 21061 30085 40158 56013 60001 333 11015 21060 70005
AAXX 21184 71160 16/// /1402 11332 21373 39989 40218 51011 60001 333 11233 21353 70003
AAXX 21184 71162 16/// /0905 11186 21208 39961 40179 55001 60001 333 11185 21208 70000
AAXX 21184 71164 46/// /1202 11197 21219 39956 40039 56042 6///1 333 11187 21243 7////
AAXX 21184 71165 46/// ///02 11215 21238 39875 40174 56010 6///1 333 11207 21320 7////
AAXX 21184 71166 46/// /2304 39534 58010 6///1 333 7////
AAXX 21184 71170 16/// /0208 11038 21067 60001 333 11036 21079 70000
AAXX 21184 71175 16/// /2011 11014 21074 30175 40210 58014 60001 333 11012 21058 70006
AAXX 21184 71713 16/// /2103 11007 21065 60001 333 11007 21096 70000
AAXX 21184 71734 16/// /2208 11015 21057 39648 40039 58017 60001 333 11013 21089 70000
AAXX 21184 71736 46/// ///// 11024 21085 6///1 333 11005 21058 7////
AAXX 21184 71742 46/// /2517 11055 21087 39966 40156 51005 6///1 333 11043 21065 7////
AAXX 21184 71744 16/// /2407 11011 21076 30104 40146 56031 60001 333 11011 21115 70000
AAXX 21184 71747 16/// /3403 11018 21039 39584 40059 51018 60001 333 10021 21031 70000
AAXX 21184 71243 16/// /3513 11018 21065 39187 40299 51043 60001 333 11006 21046 70000
AAXX 21184 71246 16/// /2605 11049 21084 39533 40208 58001 60001 333 11034 21079 70000
AAXX 21184 71450 16/// /3108 11060 21097 39488 40221 51026 60001 333 11008 21095 70000
AAXX 21184 71451 16/// /3306 11128 21164 39731 40170 51032 60001 333 11096 21137 70000 555 10010
AAXX 21184 71453 16/// /0000 11055 21071 39321 40254 51048 60001 333 10004 21058 70030
AAXX 21184 71454 16/// /3207 11083 21120 39487 40195 51024 60001 333 11074 21105 70000
AAXX 21184 71455 46/// /3208 11060 21078 39415 40226 51033 6///1 333 10002 21100 7////
AAXX 21184 71456 16/// /2809 11091 21110 39581 40194 51020 60001 333 11071 21118 70000
AAXX 21184 71459 16/// /2904 11058 21078 39425 40250 51039 60001 333 10009 21073 70011
AAXX 21184 71465 46/// /1815 10090 20085 39785 49998 58042 6///1 333 10090 20030 7////
AAXX 21184 71470 16/// /2303 11341 21377 39526 40193 53003 60001 333 11300 21345 70000
AAXX 21184 71476 16/// /1312 30282 58007 60001 333 70000
AAXX 21184 71478 16/// /1303 10060 20029 30185 40324 58004 60001 333 10060 20048 70000
AAXX 21184 71479 16/// /0307 10041 20019 30201 40324 50005 60001 333 10061 20039 70000
AAXX 21184 71480 16/// /1107 11169 21190 39928 40052 56036 60001 333 11162 21262 70000
AAXX 21184 71482 46/// /0605 10022 30295 40334 58007 6///1 333 10029 20007 7////
AAXX 21184 71484 16/// /1512 10041 20027 30264 40283 58017 60001 333 10061 20041 70000
AAXX 21184 71492 46/// ///13 11183 21196 39360 40073 58014 6///1 333 11183 21281 7////
AAXX 21184 71956 16/// /2401 10024 21016 39807 40038 58019 60001 333 10025 21020 70000
AAXX 21184 71959 16/// ///// 11009 21068 60001 333 11009 21042 70008
AAXX 21184 71977 46/// /0000 11227 21227 39281 40017 56025 6///1 333 11194 21313 7////
AAXX 21184 71978 46/// /0201 11227 21254 39693 40014 56014 6///1 333 11224 21290 7////
AAXX 21184 71989 16/// /0403 11371 21410 30096 40113 58014 60001 333 11357 21388 70000
AAXX 21184 71669 16/// /0000 11092 21113 38621 40287 51024 60001 333 11034 21131 70000
AAXX 21184 71250 16/// /2712 11031 21072 30031 40170 53020 60001 333 11025 21045 70062
AAXX 21184 71270 16/// /1204 10021 20006 39811 40030 58035 60001 333 10022 21021 70000
AAXX 21184 71279 16/// /0303 11077 21102 30029 40097 56024 60001 333 11077 21203 70000
AAXX 21184 71295 16/// /3507 11051 21090 39638 40086 53029 60001 333 11019 21052 70003
AAXX 21184 71296 17/// /1301 10016 20016 39723 40028 56046 69961 7//4/ 333 10016 21040 70006
AAXX 21184 71299 16/// /2407 11001 21018 39740 40009 50000 60001 333 11001 21034 70000 555 10060
AAXX 21184 71301 16/// ///// 11010 21048 39635 40032 58015 60001 333 11004 21082 70000
AAXX 21184 71309 17/// /3105 11013 21028 39989 40000 51007 69981 7//4/ 333 11004 21040 70017 555 10020
AAXX 21184 71311 16/// /1814 10014 21029 30153 40178 56027 60001 333 10017 21125 70000
AAXX 21184 71317 16/// /2110 10008 21049 30147 40195 56033 60001 333 10013 21147 70000
AAXX 21184 71332 16/// /0000 11331 21367 30117 40148 56014 60001 333 11305 21346 70000
AAXX 21184 71334 46/// /3308 11262 21299 39808 40158 51018 6///1 333 11250 21290 7////
AAXX 21184 71851 16/// /3614 11032 21069 39804 40142 51029 60001 333 10011 21032 70000
AAXX 21184 71885 16/// ///// 11022 60001 333 10000 21037 7////
AAXX 21184 71886 16/// /3115 11068 21100 39553 40171 51028 60001 333 11021 21083 70000
AAXX 21184 71110 16/// /2710 11017 21050 30128 40189 53010 60001 333 11017 21055 70006
AAXX 21184 71133 46/// /2707 11069 21098 39479 40203 52018 6///1 333 11069 21114 7////
AAXX 21184 71141 16/// /3109 11316 21348 30065 40093 55000 60001 333 11302 21319 70000
AAXX 21184 71147 16/// /3511 11029 21080 60001 333 10003 21036 70000
AAXX 21184 71612 16/// /0105 11034 21049 30004 40096 56040 60001 333 11027 21069 70000
AAXX 21184 71837 17/// ///// 11041 69931 7//4/ 333 11002 21043 70003
AAXX 21184 71839 16/// ///// 11031 60001 333 11004 21040 70000
AAXX 21184 71840 46/// /3515 11033 21070 6///1 333 10007 21035 7////
AAXX 21184 71015 17/// ///// 11058 60021 7//4/ 333 11014 21058 70019
AAXX 21184 71017 16/// /2810 11308 21340 30079 40094 55003 60001 333 11296 21333 70000
AAXX 21184 71018 16/// ///09 11267 21294 39949 40039 58004 60001 333 11261 21319 70000
AAXX 21184 71019 46/// /1709 11048 21111 39824 40133 56028 6///1 333 11048 21170 7////
AAXX 21184 71020 46/// /0702 11012 21119 39866 40125 58021 6///1 333 10002 7////
AAXX 21184 71021 46/// /0000 11180 21200 39792 40159 58028 6///1 333 11176 21240 7////
AAXX 21184 71807 16/// /2714 11020 21070 30171 40190 53011 60001 333 11016 21027 70020
AAXX 21184 71808 12674 62715 11087 21139 30072 40120 57002 60001 86500 333 11083 21154 44021 70036
BBXX 44150 21181 99425 70640 46/// /2108 10055 40229 57026 22200 00102 11003 70014 333 91210
AAXX 2118/ 89828 46/// ///// 11323 36470 4//// 5////
AAXX 2118/ 89799 46/// ///// 11226 4//// 5////
AAXX 21184 89667 46/// /2902 11031 29075 39792 4//// 5////
AAXX 2118/ 89108 46/// ///// 11183 36983 4//// 5////
AAXX 2118/ 89869 46/// ///// 11060 39740 4//// 5////
AAXX 2118/ 89329 46/// ///// 11076 38845 4//// 5////
AAXX 2118/ 89799 46/// ///// 11225 4//// 5////
AAXX 2118/ 89332 46/// ///// 11035 39312 4//// 5////
AAXX 21184 41859 31930 02302 10111 20110 30128 40167 70500 333 58007 70000
AAXX 21183 61701 32960 20000 10310 20148 40102 82030 333 10345 59008 82362
AAXX 21183 61705 32960 40903 10323 20138 4//// 80006 333 10360 5//// 82270 83071
AAXX 21183 61707 32960 13603 10310 20254 4//// 81030 333 10362 5//// 81363
AAXX 21183 61711 32960 40903 10290 20180 4//// 80002 333 10321 5//// 84074
AAXX 21183 61712 32960 23203 10315 20135 4//// 82030 333 10350 5//// 82363
AAXX 21183 61717 32960 22702 10321 20091 4//// 82030 333 10354 5//// 82362
AAXX 21183 61720 NIL
AAXX 21183 61721 32960 53205 10325 20040 4//// 83032 333 10355 5//// 83363 84072
AAXX 21183 61722 32960 50505 10320 20121 4//// 80002 333 10350 5//// 85074
AAXX 21183 61731 32960 50906 10312 20085 4//// 84032 333 10359 5//// 84362
AAXX 21183 61733 NIL
AAXX 21184 71472 17/// /1923 10066 20024 30116 40134 58107 69921 7//4/ 333 10067 20040 70006
AAXX 21184 71510 16/// /3109 11049 21079 39504 40224 51029 60001 333 11010 21081 70000
AAXX 21184 71148 16/// /0110 11034 21060 39556 40142 51027 60001 333 11016 21047 70000
AAXX 21184 71552 46/// /3610 11043 21085 6///1 333 11004 21050 7////
AAXX 21184 71553 16/// /3112 11056 21091 60001 333 11015 21087 70000
AAXX 21184 71556 16/// /3312 11075 21099 39593 40209 51027 60001 333 11001 21103 70000
AAXX 21184 71564 16/// /3609 11025 21067 39764 40134 51029 60001 333 10009 21026 70000
AAXX 21184 71577 46/// /3306 11045 21084 6///1 333 11006 21045 7////
AAXX 21184 71581 16/// /3201 10000 21006 39562 40043 58032 60001 333 10003 70000
AAXX 21184 71585 16/// /1302 11109 21118 39723 40199 58002 60001 333 21156 7////
AAXX 21184 71599 16/// /2304 10000 21019 39995 40203 56030 60001 333 10000 21106 70006
AAXX 21184 71861 16/// /3312 11069 21094 39435 40171 51029 60001 333 11009 21112 70000
AAXX 21184 71758 16/// /2313 11033 21103 30127 40206 55009 60001 333 11027 21075 70000
AAXX 21184 71771 46/// /1812 10063 20037 30261 40282 56015 6///1 333 10063 20028 7////
AAXX 21184 71361 16/// /1103 11180 21203 39958 40173 50003 60001 333 11150 21193 70000
AAXX 21184 71362 16/// /1602 11191 21212 39925 40192 50001 60001 333 11174 21238 70000
AAXX 21184 71364 16/// /2303 11182 21204 39868 40004 58032 60001 333 11153 21269 70000
AAXX 21184 71365 16/// /1304 11190 21207 39925 40145 58017 60001 333 11142 21193 70000
AAXX 21184 71381 47/// /2109 11018 21070 6///1 7//4/ 333 21129 70000
AAXX 21184 71382 17/// /1906 11058 21075 39138 40099 58024 60021 7//4/ 333 11058 21182 70018
AAXX 21184 71384 16/// /2604 11030 21083 30103 40111 58035 60001 333 11025 21129 70000
AAXX 21184 71388 46/// /0603 11064 21087 39904 40097 56022 6///1 333 11061 21213 7////
AAXX 21181 26863 31559 73402 11026 21045 39859 40101 51001 71022 875// 333 11015 87620
AAXX 21184 71402 46/// /2518 11041 21097 30022 40138 50003 6///1 333 11021 21053 7////
AAXX 21184 71407 16/// /2308 11276 21309 30008 40030 53011 60001 333 11263 21338 70000
AAXX 21184 71425 16/// /2404 11033 21121 30070 40107 56024 60001 333 11032 21114 70000
AAXX 21184 71446 16/// /3110 11075 21094 39229 40226 51042 60001 333 10001 21096 70000
AAXX 21184 71449 46/// /3313 11025 21071 39699 40104 52026 6///1 333 11015 21058 7////
AAXX 21184 71087 46/// /0803 11231 21257 39954 40169 58005 6///1 333 11191 21234 7////
AAXX 21184 71150 46/// /3110 11060 21073 39454 40147 51025 6///1 333 11054 21111 7////
AAXX 21184 71155 16/// ///// 11050 21073 60001 333 11004 21057 70006
AAXX 21184 71157 46/// ///// 11034 21059 6///1 333 11008 21045 7////
AAXX 21184 71159 16/// /2410 11015 21061 30085 40158 56013 60001 333 11015 21060 70005
AAXX 21184 71160 16/// /1402 11332 21373 39989 40218 51011 60001 333 11233 21353 70003
AAXX 21184 71162 16/// /0905 11186 21208 39961 40179 55001 60001 333 11185 21208 70000
AAXX 21184 71164 46/// /1202 11197 21219 39956 40039 56042 6///1 333 11187 21243 7////
AAXX 21184 71165 46/// ///02 11215 21238 39875 40174 56010 6///1 333 11207 21320 7////
AAXX 21184 71166 46/// /2304 39534 58010 6///1 333 7////
AAXX 21184 71170 16/// /0208 11038 21067 60001 333 11036 21079 70000
AAXX 21184 71175 16/// /2011 11014 21074 30175 40210 58014 60001 333 11012 21058 70006
AAXX 21184 71501 17/// /3505 11235 21259 30033 40035 56012 69961 7//4/ 333 11235 21314 70010
AAXX 21184 71522 47/// /1904 11068 21088 39580 40075 57020 6///1 7//4/ 333 11068 21167 70005
AAXX 21184 71920 16/// /2022 10050 20021 30199 40205 56027 60001 333 10050 21057 70000
AAXX 21184 71956 16/// /2401 10024 21016 39807 40038 58019 60001 333 10025 21020 70000
AAXX 21184 71959 16/// ///// 11009 21068 60001 333 11009 21042 70008
AAXX 21184 71977 46/// /0000 11227 21227 39281 40017 56025 6///1 333 11194 21313 7////
AAXX 21184 71978 46/// /0201 11227 21254 39693 40014 56014 6///1 333 11224 21290 7////
AAXX 21184 71989 16/// /0403 11371 21410 30096 40113 58014 60001 333 11357 21388 70000
AAXX 21184 71851 16/// /3614 11032 21069 39804 40142 51029 60001 333 10011 21032 70000
AAXX 21184 71885 16/// ///// 11022 60001 333 10000 21037 7////
AAXX 21184 71886 16/// /3115 11068 21100 39553 40171 51028 60001 333 11021 21083 70000
AAXX 21184 71669 16/// /0000 11092 21113 38621 40287 51024 60001 333 11034 21131 70000
AAXX 21184 71837 17/// ///// 11041 69931 7//4/ 333 11002 21043 70003
AAXX 21184 71839 16/// ///// 11031 60001 333 11004 21040 70000
AAXX 21184 71840 46/// /3515 11033 21070 6///1 333 10007 21035 7////
AAXX 21184 71250 16/// /2712 11031 21072 30031 40170 53020 60001 333 11025 21045 70062
AAXX 21184 71270 16/// /1204 10021 20006 39811 40030 58035 60001 333 10022 21021 70000
AAXX 21184 71279 16/// /0303 11077 21102 30029 40097 56024 60001 333 11077 21203 70000
AAXX 21184 71295 16/// /3507 11051 21090 39638 40086 53029 60001 333 11019 21052 70003
AAXX 21184 71296 17/// /1301 10016 20016 39723 40028 56046 69961 7//4/ 333 10016 21040 70006
AAXX 21184 71299 16/// /2407 11001 21018 39740 40009 50000 60001 333 11001 21034 70000 555 10060
AAXX 21184 71243 16/// /3513 11018 21065 39187 40299 51043 60001 333 11006 21046 70000
AAXX 21184 71246 16/// /2605 11049 21084 39533 40208 58001 60001 333 11034 21079 70000
AAXX 21184 71110 16/// /2710 11017 21050 30128 40189 53010 60001 333 11017 21055 70006
AAXX 21184 71133 46/// /2707 11069 21098 39479 40203 52018 6///1 333 11069 21114 7////
AAXX 21184 71141 16/// /3109 11316 21348 30065 40093 55000 60001 333 11302 21319 70000
AAXX 21184 71147 16/// /3511 11029 21080 60001 333 10003 21036 70000
AAXX 21184 71450 16/// /3108 11060 21097 39488 40221 51026 60001 333 11008 21095 70000
AAXX 21184 71451 16/// /3306 11128 21164 39731 40170 51032 60001 333 11096 21137 70000 555 10010
AAXX 21184 71453 16/// /0000 11055 21071 39321 40254 51048 60001 333 10004 21058 70030
AAXX 21184 71454 16/// /3207 11083 21120 39487 40195 51024 60001 333 11074 21105 70000
AAXX 21184 71455 46/// /3208 11060 21078 39415 40226 51033 6///1 333 10002 21100 7////
AAXX 21184 71456 16/// /2809 11091 21110 39581 40194 51020 60001 333 11071 21118 70000
AAXX 21184 71459 16/// /2904 11058 21078 39425 40250 51039 60001 333 10009 21073 70011
AAXX 21184 71465 46/// /1815 10090 20085 39785 49998 58042 6///1 333 10090 20030 7////
AAXX 21184 71470 16/// /2303 11341 21377 39526 40193 53003 60001 333 11300 21345 70000
AAXX 21184 71476 16/// /1312 30282 58007 60001 333 70000
AAXX 21184 71478 16/// /1303 10060 20029 30185 40324 58004 60001 333 10060 20048 70000
AAXX 21184 71479 16/// /0307 10041 20019 30201 40324 50005 60001 333 10061 20039 70000
AAXX 21184 71480 16/// /1107 11169 21190 39928 40052 56036 60001 333 11162 21262 70000
AAXX 21184 71482 46/// /0605 10022 30295 40334 58007 6///1 333 10029 20007 7////
AAXX 21184 71484 16/// /1512 10041 20027 30264 40283 58017 60001 333 10061 20041 70000
AAXX 21184 71492 46/// ///13 11183 21196 39360 40073 58014 6///1 333 11183 21281 7////
AAXX 21184 71612 16/// /0105 11034 21049 30004 40096 56040 60001 333 11027 21069 70000
AAXX 21184 71015 17/// ///// 11058 60021 7//4/ 333 11014 21058 70019
AAXX 21184 71017 16/// /2810 11308 21340 30079 40094 55003 60001 333 11296 21333 70000
AAXX 21184 71018 16/// ///09 11267 21294 39949 40039 58004 60001 333 11261 21319 70000
AAXX 21184 71019 46/// /1709 11048 21111 39824 40133 56028 6///1 333 11048 21170 7////
AAXX 21184 71020 46/// /0702 11012 21119 39866 40125 58021 6///1 333 10002 7////
AAXX 21184 71021 46/// /0000 11180 21200 39792 40159 58028 6///1 333 11176 21240 7////
AAXX 21184 71301 16/// ///// 11010 21048 39635 40032 58015 60001 333 11004 21082 70000
AAXX 21184 71309 17/// /3105 11013 21028 39989 40000 51007 69981 7//4/ 333 11004 21040 70017 555 10020
AAXX 21184 71311 16/// /1814 10014 21029 30153 40178 56027 60001 333 10017 21125 70000
AAXX 21184 71317 16/// /2110 10008 21049 30147 40195 56033 60001 333 10013 21147 70000
AAXX 21184 71332 16/// /0000 11331 21367 30117 40148 56014 60001 333 11305 21346 70000
AAXX 21184 71334 46/// /3308 11262 21299 39808 40158 51018 6///1 333 11250 21290 7////
AAXX 21184 71807 16/// /2714 11020 21070 30171 40190 53011 60001 333 11016 21027 70020
AAXX 21184 71808 12674 62715 11087 21139 30072 40120 57002 60001 86500 333 11083 21154 44021 70036
BBXX 44150 21181 99425 70640 46/// /2108 10055 40229 57026 22200 00102 11003 70014 333 91210
AAXX 21184 71713 16/// /2103 11007 21065 60001 333 11007 21096 70000
AAXX 21184 71734 16/// /2208 11015 21057 39648 40039 58017 60001 333 11013 21089 70000
AAXX 21184 71736 46/// ///// 11024 21085 6///1 333 11005 21058 7////
AAXX 21184 71742 46/// /2517 11055 21087 39966 40156 51005 6///1 333 11043 21065 7////
AAXX 21184 71744 16/// /2407 11011 21076 30104 40146 56031 60001 333 11011 21115 70000
AAXX 21184 71747 16/// /3403 11018 21039 39584 40059 51018 60001 333 10021 21031 70000
AAXX 21181 40009 32570 30000 10090 20045 40188 52004 83500 333 10152 83630
AAXX 21181 40016 NIL
AAXX 21181 40022 32965 00000 10130 20082 40183 52009 222// 20000 333 10196
AAXX 21181 40030 32970 20000 10090 20072 40203 52011 83500 333 10130 83630
AAXX 21181 40039 32970 20000 10090 20032 40201 52010 82050 333 10142 82360
AAXX 21181 40066 32570 50901 10131 20096 40184 53009 85400 333 10178 85626
AAXX 21181 40072 32970 00000 10130 20043 40210 52012 333 10184
AAXX 21181 40083 32970 02001 10076 20061 48496 51006 333 10152
AAXX 21184 60645 36/// /0000 10157 21075 333 10193
BBXX DBCK 21181 99/// ///// 46/// ///// 10042 20041 40163 52020 22220 00042
BBXX SJCD 21181 99509 71350 43/97 81813 10068 40248 58045 22263 00076
BBXX SFIR 21184 99447 70405 43/97 72737 10073 40071 52037 22223 00140 20804 4//05
AAXX 21184 41529 12995 00000 10050 21037 39822 40223 60003 333 59013 60007
AAXX 21184 41598 11996 00000 10080 20020 39916 40200 60003 70500 333 58017
AAXX 21184 41620 32995 01805 10015 21133 38617 48516 333 58007
AAXX 21184 41624 02995 03102 10090 20003 39993 40202 60003 333 58010 60007
AAXX 21184 41640 01995 00000 10115 20085 39934 40192 60003 70400 333 58009 60007
AAXX 21184 41660 119// 02706 11030 21080 38471 48563 60003 70600 333 59003
AAXX 21184 41675 11995 00000 10080 20033 30059 40202 60003 70400 333 58028
AAXX 21184 41712 12994 00502 10000 21133 39284 48544 60003 333 59002
AAXX 21184 41715 01995 03102 10130 20080 30135 40205 60003 70400 333 58020 60007
AAXX 21184 41756 01994 03606 10140 20017 30136 40203 60003 70600 333 58002 60007
AAXX 21184 41764 31994 03610 10160 20081 30132 40183 60003 70400 333 58027 60007
AAXX 21184 41768 02996 00000 10120 20079 30177 40184 60003 333 58027 60007
AAXX 21184 41780 02996 00504 10145 21014 30164 40192 60003 333 58019 60007
BBXX SBLI 21181 99300 11641 43/98 80110 10172 40187 53004 22264 00222 2//// 4//// 426621110
BBXX SHJC 21181 99136 11123 43/98 80210 10247 40120 58019 22254 01252 2//// 4////
BBXX SMGW 21181 99348 11718 43/97 83413 10142 40139 53018 22224 00198 2//// 4////
BBXX 9V8797 21184 99058 10821 43/97 30128 10239 40096 56002 22224 00279 2//// 4////
BBXX 62087 21181 99547 10068 46/// /9900 10076 20023 4//// 5//// 22230 00080
BBXX SERW 21183 99249 70178 43997 10913 10212 2//// 40221 57004 70200 81012 22252 06203 20404 3//// 4////
AAXX 21184 65306 32960 50606 10222 20066 39779 40112 80002 333 10349 59001 85076
AAXX 21184 65319 32958 50000 10302 20090 39596 40108 80002 333 10366 58000 85076
AAXX 21184 65330 31920 50000 10300 20108 39656 40093 70522 80002 333 10360 59004 85076
AAXX 21184 65335 32960 50000 10320 20180 39871 40093 80002 333 10365 58000 85076
AAXX 21184 65344 32458 62206 10290 20255 300897 40098 82502 333 10315 59001 82612 85076
BBXX 61002 21184 99421 10047 46/// ///33 10151 2//// 40190 52006 22200 00139 10707 70034 555 1/044
AAXX 21184 61202 32965 10000 10210 21080 39604 40171 81042 333 10238 58001 81365
AAXX 21184 61214 NIL
AAXX 21184 61223 32960 60404 10225 21005 39858 40161 80002 333 10255 58012 86075
AAXX 21184 61226 32960 63606 10260 20076 39839 40138 80002 333 10295 58002 86075
AAXX 21184 61230 32960 70408 10244 21035 39859 40133 84042 333 10263 58024 84365 84075
AAXX 21184 61233 32960 50608 10235 21042 3//// 4//// 80002 333 10270 5//// 85075
AAXX 21184 61235 31958 70412 10265 21024 3//// 4//// 70622 86042 333 10290 5//// 86365
AAXX 21184 61240 32960 60000 10270 20031 39802 40128 86070 333 10326 58005 86365
AAXX 21184 61250 32960 10000 10290 20099 3//// 4//// 80002 333 10325 5//// 81075
AAXX 21184 61257 31930 70412 10278 21053 30070 40164 70622 84042 333 10304 58012 84365
AAXX 21184 61265 32975 60412 10245 21008 39823 40133 83042 333 10308 58013 83365 83075
AAXX 21184 61270 32960 10404 10299 20045 3//// 4//// 80002 333 10325 5//// 81075
AAXX 21184 61272 32960 40000 10262 20063 39809 40138 84042 333 10296 58013 84365
AAXX 21184 61277 32960 50410 10276 20025 39806 40128 82042 333 10312 58014 82365 84075
AAXX 21184 61285 32960 50812 10313 21026 39962 40111 82042 333 10343 58008 82365 83075
AAXX 21184 61291 32960 00608 10275 20013 39700 40111 333 10305 58010
AAXX 21184 61293 32960 53606 10293 20027 3//// 4//// 80002 333 10307 5//// 85075
AAXX 21184 61296 NIL
AAXX 21184 61297 32960 53606 10293 20038 3//// 4//// 80002 333 10325 5//// 85075
AAXX 21184 41529 12995 00000 10050 21037 39822 40223 60003 333 59013 60007
AAXX 21184 41598 11996 00000 10080 20020 39916 40200 60003 70500 333 58017
AAXX 21184 41620 32995 01805 10015 21133 38617 48516 333 58007
AAXX 21184 41624 02995 03102 10090 20003 39993 40202 60003 333 58010 60007
AAXX 21184 41640 01995 00000 10115 20085 39934 40192 60003 70400 333 58009 60007
AAXX 21184 41660 119// 02706 11030 21080 38471 48563 60003 70600 333 59003
AAXX 21184 41675 11995 00000 10080 20033 30059 40202 60003 70400 333 58028
AAXX 21184 41712 12994 00502 10000 21133 39284 48544 60003 333 59002
AAXX 21184 41715 01995 03102 10130 20080 30135 40205 60003 70400 333 58020 60007
AAXX 21184 41756 01994 03606 10140 20017 30136 40203 60003 70600 333 58002 60007
AAXX 21184 41764 31994 03610 10160 20081 30132 40183 60003 70400 333 58027 60007
AAXX 21184 41768 02996 00000 10120 20079 30177 40184 60003 333 58027 60007
AAXX 21184 41780 02996 00504 10145 21014 30164 40192 60003 333 58019 60007
AAXX 21181 34523 11597 51503 10066 20055 30034 40109 52007 60022 72162 85500 333 10073
AAXX 21184 78384 12460 40912 10292 20219 40157 60001 81292 333 10298 20235 59004 70020 81818 90908
AAXX 21184 78383 12460 71013 10278 20213 40167 60001 81150 333 10282 20245 59003 79999 81818 87357
AAXX 21184 41515 02695 60000 10034 21051 38581 48541 60003 84520 333 56990 58053 60007 84650 82458
AAXX 21184 41560 NIL
AAXX 21184 41571 119// 00000 10065 20019 39604 40210 60003 70500 333 58002
AAXX 21184 41594 319// 00000 10075 20009 39977 40205 70500 333 58012
AAXX 21184 41685 32993 00000 10065 21112 38948 48519 333 58024
AAXX 21184 41710 01995 00000 10035 21120 39455 40272 60003 70600 333 58005 60007
AAXX 21184 41718 11996 00000 10085 20052 30091 40200 60003 70400 333 58022
AAXX 21184 41739 01993 03106 10030 21040 39110 48537 60003 70540 333 58012 60007
AAXX 21184 41744 32996 00000 10080 21058 38800 48517 333 58002
AAXX 21184 41749 01994 03104 10140 20102 30177 40210 60003 70400 333 58023 60007
AAXX 21181 48920 32598 60210 10267 20251 30076 40079 58016 83108 333 58005 83895 86299
AAXX 21181 48887 32998 63601 10246 20213 30084 40090 57015 80008 333 59006 86299
AAXX 21181 48870 11498 83203 10228 20208 30122 40129 58018 60011 70262 888// 333 58012 84894 88696
AAXX 21181 48877 11497 83604 10232 20217 30116 40121 57012 60021 78082 888// 333 58013 82894 83895 85696 9616 0
AAXX 21181 48917 32998 70501 10270 20216 30080 40086 57017 81208 222// 00280 333 58000 81895 87299
AAXX 21181 48918 32498 70506 10254 20228 30090 40101 58010 85208 222// 00259 2//// 333 58007 82894 83895 8629 9
AAXX 21181 48900 32496 43103 10243 20242 30079 40089 57014 84800 333 59001 81894 83696
AAXX 21181 48914 32498 70502 10256 20237 30092 40094 58008 878// 333 58003 82894 87696
AAXX 21184 78073 11465 41310 10267 20206 40208 69901 72581 84200 333 59011 84816 90910
AAXX 21181 48919 32498 70510 10269 20242 30070 40092 58006 82908 22200 02274 333 58008 81894 82995 87299
AAXX 21181 48916 32698 70502 10274 20241 30043 40090 57009 875// 333 59003 87696
AAXX 21181 48892 32598 20205 10265 20246 30087 40092 58004 82200 333 58012 82895
AAXX 21181 52533 32980 03202 11129 21209 38641 40433 57009 333 05202 11042
AAXX 21181 52866 32970 70000 11126 21164 37756 57011 80002 333 00056 11031
AAXX 21181 53588 32980 00403 11175 21236 37809 54000 333 11130
AAXX 21181 53772 32970 02503 11041 21157 39412 40372 57005 333 10028
AAXX 21181 54342 32965 03401 11113 21225 30242 40308 52010 333 11037
AAXX 21181 54511 32980 02904 11003 21194 30299 40341 52006 333 10036
AAXX 21181 56080 32980 02701 11145 21183 37168 57008 333 00157 11010
AAXX 21181 57083 31956 03601 10021 21086 30214 40355 52006 70500 333 10084
AAXX 21184 04211 45/84 /0809 11124 21178 39800 49964 57009 333 11098 21127
AAXX 21184 04220 05/84 01408 11135 21192 39894 49948 57005 6///2 333 11123 21158 55300 20004 6///7
AAXX 21184 04221 45984 31018 11178 21289 39910 49950 57006 333 11117 21178 83/68
AAXX 21184 04231 12989 10607 11261 21312 39898 49978 52003 6///2 80001 333 11179 21261 81065
AAXX 21184 04234 45684 71004 11126 21186 39937 49948 57001 333 11092 21143 87/49 87/56
AAXX 21184 04241 47/27 90911 11113 21159 39914 49955 54000 77787 333 11103 21114 89/11
AAXX 21184 04250 05984 50609 11096 21159 39837 49944 57008 6///2 333 11086 21098 55300 20018 6///7 85/69
AAXX 21184 04254 45982 10907 11103 21195 39841 49958 54000 333 11091 21108 81/69
AAXX 21184 04260 45984 12401 11074 21204 39910 49954 52006 333 11067 21110 81/70
AAXX 21184 04270 45/84 /0706 11123 21227 39916 49956 57001 333 11097 21153
AAXX 21184 04272 05/84 0//// 11099 21146 39877 49951 52001 6///2 333 11078 21102 6///7
AAXX 21184 04312 46/// ///// 11237 21269 30056 40099 57011
AAXX 21184 04320 47573 70309 11033 21067 39942 49957 52011 70077 333 11030 21087 81/21 87/27 91150 91239
AAXX 21184 04339 45/84 ///// 11097 21151 39801 49892 57002 333 11056 21118 55300 20000
AAXX 21184 04360 06/// /1604 11087 21140 39813 49884 57012 6///2 333 11083 21110 55300 20000 6///7
AAXX 21184 04361 469// 82404 11087 21177 39835 49888 57011 333 11067 21111 88/59
AAXX 21184 04390 05/84 02411 11057 21148 39824 49918 57003 60212 333 11043 21078 60067
AAXX 21181 56187 11458 83601 10063 20036 39642 40303 54000 60031 76060 8277/ 333 00400 10112
AAXX 21181 56778 32965 00402 10022 20015 38132 52004 333 00255 10188
AAXX 21181 58221 31940 80202 10013 21041 30302 40331 52007 71000 8807/ 333 10092
AAXX 21181 58238 31930 03403 10034 20003 30273 40319 52008 71000 333 10084
AAXX 21181 58606 11740 80403 10069 20040 30236 40296 52011 69901 76060 885// 333 10100
AAXX 21181 58752 32762 73402 10123 20061 30207 40253 52006 875// 333 10189
AAXX 21181 58847 32762 13602 10124 20092 30128 40230 57005 81540 333 10196
AAXX 21181 59134 32962 00702 10139 20081 30043 40210 57002 333 10213
AAXX 21181 59287 32664 70205 10159 20074 30119 40204 57001 875// 333 10237
AAXX 21181 59316 32960 00701 10145 20125 30195 40200 57004 333 10220
AAXX 21181 59431 32762 70201 10147 20084 30070 40216 57002 875// 333 10198
AAXX 21181 59644 31558 83603 10171 20083 30180 40197 57004 70500 888// 333 10207
AAXX 21181 57265 32960 81101 10037 20022 30221 40335 52003 8807/ 333 10103
AAXX 21181 57494 32965 80404 10058 21001 30285 40316 57002 8807/ 333 10089
AAXX 21181 58251 31920 73603 10016 21011 30308 40313 52009 71000 80002 333 10092
AAXX 21181 58362 32960 00204 10071 20020 30283 40291 52003 333 10094
AAXX 21184 65338 32958 51804 10305 20215 39908 40094 80002 333 10346 59003 85076
AAXX 21181 51076 32980 00701 11232 21261 39527 40512 57002 333 05603 11121
AAXX 21181 51243 31970 03401 11210 21234 39893 40512 57006 77600 333 05552 11124
AAXX 21181 51463 11765 60701 11186 21209 39289 40509 57004 69901 70070 85502 333 05554 11128
AAXX 21181 51573 32980 00000 11088 21148 30393 40440 57010 333 05252 11016
AAXX 21181 51709 32965 72201 11067 21084 38853 40417 57009 80002 333 05151 11025
AAXX 21181 52652 32965 21401 11141 21191 38651 40431 57006 80002 333 05202 11035
AAXX 21181 52983 32965 02501 11108 21139 38188 57011 333 05154 11033
AAXX 21181 53915 32980 22901 11071 21133 38785 40405 57003 80002 333 00254 11008
AAXX 21181 54401 32980 03203 11096 21201 39469 40386 52005 333 11038
AAXX 21181 56096 32970 30702 10005 21095 39053 40329 57007 80002 333 00456 10082
AAXX 21181 56778 32965 00402 10022 20015 38132 52004 333 00255 10188
AAXX 21184 78384 12460 40912 10292 20219 40157 60001 81292 333 10298 20235 59004 70020 81818 90908
AAXX 21184 78383 12460 71013 10278 20213 40167 60001 81150 333 10282 20245 59003 79999 81818 87357
AAXX 21183 41150 41959 03306 10191 20152 40228 70500 333 10223 58009
AAXX 21181 37279 32894 52701 10141 20082 30014 40154 53008 85080 333 10187
AAXX 21181 37308 329// 30000 10022 20000 39549 40211 53007 83032 333 10086
AAXX 21181 37531 429// 00000 11021 21024 39489 40239 52005 333 10051
AAXX 21181 37553 329// 20000 10011 21053 39538 40199 54000 80030 333 10075
AAXX 21181 37651 16/// ///00 10010 21045 3//// 4//// 5//// 60002 333 10094
AAXX 21181 37492 NIL
AAXX 21184 41506 02694 80000 10040 21011 48528 60003 8462/ 333 5699/ 58019 60007 86640 82460
AAXX 21184 41508 22696 50000 10033 21018 48550 60003 83420 333 56990 58008 60007 83635 82460
AAXX 21184 41523 12996 00000 10045 20009 48533 60003 333 58004 60007
AAXX 21184 41535 12997 00000 10035 21003 48496 60003 333 58001
AAXX 21184 41536 NIL
AAXX 21184 41573 12996 00000 10020 21030 48511 60003 333 59002
AAXX 21184 41600 01995 00000 10100 20068 39887 40192 60003 70400 333 58024 60007
AAXX 21184 41630 11996 03104 10095 20063 40211 60003 70400 333 58025
AAXX 21184 41678 12996 00000 10115 20074 40192 60003 333 58009 60007
AAXX 21184 41696 02996 00000 11065 21117 38034 48569 60003 333 59007 60007
AAXX 21184 41697 02996 00000 10094 20038 40204 60003 333 58018 60007
AAXX 21184 41700 11995 00000 10090 20045 40191 60003 70400 333 58021
AAXX 21184 41725 02996 00000 10140 20080 40197 60003 333 58036 60007
AAXX 21184 41746 02996 00000 10125 20096 40211 60003 333 58033 60007
AAXX 21184 41759 11994 03616 10165 21121 30192 40198 60002 70700 333 59003
AAXX 21184 41785 02996 03602 10160 20104 40180 60003 333 58017 60007
AAXX 21181 33177 11496 80000 11006 21018 39897 40140 52014 69902 77172 8872/ 333 11006
AAXX 21181 33415 11596 62904 11016 21036 39735 40144 52022 69902 71072 82530 333 11006
AAXX 21181 33466 11459 83104 11001 21021 39891 40081 52009 69902 71072 8672/ 333 10018 86716
AAXX 21181 50136 32970 02901 11308 21349 39674 40267 52001 333 11184
AAXX 21181 50745 32965 23202 11181 21247 30053 40251 52019 80002 333 11082
AAXX 21181 50774 11658 83201 11164 21186 39869 40195 52007 69941 77077 885// 333 11130
AAXX 21181 50788 32970 52902 11146 21159 30082 40173 52001 80002 333 11105
AAXX 21181 51133 32980 02501 11203 21236 39774 40492 52003 333 05400 11091
AAXX 21181 51431 11970 80701 11149 21174 39616 40489 52005 69901 77070 8802/ 333 05251 11111
AAXX 21181 51747 32970 20000 11160 21185 39071 40458 57005 80002 333 05156 11040
AAXX 21181 52203 32980 00401 11148 21201 39491 40437 57012 333 05351 11024
AAXX 21181 52418 32970 01801 11149 21202 39024 40449 57011 333 05152 11039
AAXX 21181 52681 32980 00000 11137 21189 38758 40434 57007 333 05251 11032
AAXX 21181 53564 32980 00000 11149 21187 39331 40420 57007 333 00353 11014
AAXX 21181 53614 31930 02001 11107 21126 39049 40423 57003 71000 333 00252 11030
AAXX 21181 53646 32970 02902 11140 21190 38981 40415 57008 333 00254 11035
AAXX 21181 53798 32962 02701 11032 21105 30256 40356 54000 333 10084
AAXX 21181 53845 32965 02501 11076 21136 39223 40405 57004 333 00455 10015
AAXX 21181 53959 32961 70902 11011 21124 39921 40381 54000 80002 333 10062
AAXX 21181 54094 32960 82201 11113 21171 39884 40200 52001 8801/ 333 11088
AAXX 21181 54102 32980 01601 11249 21278 39102 40407 57004 333 11140
AAXX 21181 54161 32960 02904 11155 21260 39952 40266 52018 333 11080
AAXX 21181 54292 32965 22704 11105 21192 39882 40217 52012 80002 333 11067
AAXX 21181 54374 32962 22704 11111 21166 39773 40262 52006 80002 333 11060
AAXX 21181 54423 32980 00401 11125 21210 39811 40359 52010 333 11026
AAXX 21181 54618 32962 52901 11061 21148 30330 40349 52006 80002 333 10036
AAXX 21181 54843 32972 02702 11038 21104 30311 40340 52010 333 10034
AAXX 21181 54909 31956 73401 11020 21047 30279 40345 52001 71000 8703/ 333 10052
AAXX 21181 56029 32980 02901 11116 21197 36421 52002 333 00002 10094
AAXX 21181 57127 32960 81101 10063 20000 39704 40324 57003 8807/ 333 10099
AAXX 21181 57131 32960 20202 11009 21023 39873 40386 54000 82030 333 10072
AAXX 21181 40706 11410 89901 11024 21041 38722 40331 52007 60001 74642 886XX 333 55000 20212 88714
AAXX 21181 40718 11530 30000 10086 20078 30218 40188 58005 60001 71022 83500 333 55018 83625
AAXX 21181 40732 11930 00000 10066 20052 30204 40179 58007 60001 71010 333 55055
AAXX 21181 40745 12960 01702 11040 21145 39124 40337 54000 60001 333 55087 21118
AAXX 21181 40754 12960 00000 10034 21080 38887 40263 50000 60001 333 55088
AAXX 21181 40766 12960 00000 10020 21066 38752 40275 53007 60001 333 55085 21136
AAXX 21181 40800 12960 00000 10008 21054 38520 40291 51017 60001 333 55089 2////
AAXX 21181 40811 11957 00000 10124 20083 30196 40224 52009 60001 70500 333 55078 21070
AAXX 21181 40841 12960 01002 11006 21125 38309 40294 52004 60001 333 55057 21499
AAXX 21181 40848 12965 00000 10020 21065 38580 40258 51014 60001 333 55095 21468
AAXX 21181 40856 12962 01602 11063 21397 38696 40294 50002 60001 333 55094
AAXX 21181 40875 12960 00203 10123 21150 30206 40218 52011 60001 333 55096 21524
AAXX 21181 40706 11410 89901 11024 21041 38722 40331 52007 60001 74642 886XX 333 55000 20212 88714
AAXX 21181 40718 11530 30000 10086 20078 30218 40188 58005 60001 71022 83500 333 55018 83625
AAXX 21181 40732 11930 00000 10066 20052 30204 40179 58007 60001 71010 333 55055
AAXX 21181 40745 12960 01702 11040 21145 39124 40337 54000 60001 333 55087 21118
AAXX 21181 40754 12960 00000 10034 21080 38887 40263 50000 60001 333 55088
AAXX 21181 40766 12960 00000 10020 21066 38752 40275 53007 60001 333 55085 21136
AAXX 21181 40800 12960 00000 10008 21054 38520 40291 51017 60001 333 55089 2////
AAXX 21181 40811 11957 00000 10124 20083 30196 40224 52009 60001 70500 333 55078 21070
AAXX 21181 40841 12960 01002 11006 21125 38309 40294 52004 60001 333 55057 21499
AAXX 21181 40848 12965 00000 10020 21065 38580 40258 51014 60001 333 55095 21468
AAXX 21181 40856 12962 01602 11063 21397 38696 40294 50002 60001 333 55094
AAXX 21181 40875 12960 00203 10123 21150 30206 40218 52011 60001 333 55096 21524
AAXX 21184 91348 11474 80603 10268 20249 30008 40061 57012 60041 72582 8527/ 333 56199 70058 555 92118
AAXX 21181 10004 46/60 /2903 10077 20033 30167 40167 52017 222// 00078 333 10080 20057 55300
AAXX 21184 47407 12/65 21402 11174 21196 30032 40221 58007 69901 82200
AAXX 21184 47409 12/70 12303 11073 21126 30147 40204 58007 60001 81500
AAXX 21184 47418 12/70 70214 11098 21127 30155 40207 58011 60001 872//
AAXX 21184 47421 15/70 /1708 11043 21088 30137 40182 58011 60001
AAXX 21184 47430 12/70 33605 11055 21084 30124 40181 58015 60001 83200
AAXX 21184 47570 17/38 /2003 11008 21015 39910 40178 58014 69901 77176
AAXX 21184 47575 12/65 12202 11069 21078 30169 40174 58020 60001 81200
AAXX 21184 47584 11/60 70701 11025 21033 39984 40181 58020 69901 70282 872//
AAXX 21184 47604 11/60 71609 10029 20014 30149 40158 58016 69951 78382 872//
AAXX 21184 47605 11/60 82210 10061 20038 30125 40167 55012 60111 79298 883//
AAXX 21184 47610 12960 72701 11009 21020 39654 40173 58013 60001 80002
AAXX 21184 47624 12965 03106 10014 21040 30022 40165 58014 60001
AAXX 21184 47629 12/80 13602 10002 21009 30124 40164 58008 60001 81802
AAXX 21184 47636 12/60 70301 10045 20019 30111 40181 58009 60001 81532
AAXX 21184 47651 13/// /2301 10063 20016 30156 40179 58011 60001
AAXX 21184 47655 15/68 /2710 10073 21004 30109 40167 58016 60001
AAXX 21184 47675 15/70 /2309 10091 20041 30066 40158 57016 60001
AAXX 21184 47741 11/62 82705 10061 20039 30145 40173 56013 60011 72598 882//
AAXX 21184 47746 11/60 71203 10068 20003 30152 40172 56012 69901 72522 86201
AAXX 21184 47750 12960 33301 10026 20014 30150 40178 56014 60001 80001
AAXX 21184 47765 12960 70103 10040 20009 30122 40189 56016 60001 8707/
AAXX 21184 47772 12962 72603 10091 20001 30080 40181 56015 60001 80001
AAXX 21184 47800 17/59 /3217 10077 21015 30197 40202 56007 60001 70400
AAXX 21184 47815 12/60 71905 10059 20014 30178 40195 57010 60001 81132
AAXX 21184 47817 11/60 80000 10075 20058 30160 40204 56008 69901 78022 882//
AAXX 21184 47830 11/70 82906 10082 20046 30171 40190 56015 69901 70262 8557/
AAXX 21184 47887 12/70 71603 10066 20009 30145 40187 58016 69901 8227/
AAXX 21184 47891 12/60 72305 10077 20011 30165 40182 56018 60001 81172
AAXX 21184 47895 12970 83007 10069 20016 30175 40183 57016 60001 8807/
AAXX 21184 47927 11/65 73604 10204 20194 30103 40152 56012 69951 76062 878//
AAXX 21184 41295 36/// /0704 10183 20098 30012 40194 333 0E021 10261 58008
AAXX 21184 47401 11/70 71906 11048 21066 30165 40180 58010 69951 72681 872//
AAXX 21184 47412 12/70 21407 11053 21097 30159 40193 58006 60001 82030
AAXX 21184 47420 17/70 /0805 11028 21061 30171 40206 58009 69901 77170
AAXX 21184 47426 15/70 /0609 11030 21103 30146 40195 56011 60001
AAXX 21184 47582 12/60 31208 11010 21040 30133 40161 58019 60001 81531
AAXX 21184 47590 11/60 83308 10004 21006 30124 40179 58010 60041 72377 885//
AAXX 21184 47600 17/70 /2008 10034 20021 30143 40151 58015 60041 72360
AAXX 21184 47648 12/80 62706 10040 20020 30125 40160 58008 60001 81532
AAXX 21184 47662 12970 73203 10049 21044 30121 40166 56011 60001 82032
AAXX 21184 47678 17/58 /2808 10106 20087 39981 40169 58005 60021 76160
AAXX 21184 47740 17/59 /2909 10081 20015 30122 40157 56019 60031 70486
AAXX 21184 47778 15/70 /0404 10089 20011 30093 40178 56017 60001
AAXX 21184 47807 11/65 81603 10085 20034 30182 40200 56010 69901 70282 8627/
AAXX 21184 47827 11/65 83307 10094 20027 30159 40198 55011 69951 70262 8807/
AAXX 21184 47843 17/46 /3408 10094 20058 30179 40212 55002 69951 75286
AAXX 21184 47893 12/65 72803 10059 20020 30178 40184 56018 60001 8117/
AAXX 21184 47909 11/60 80110 10171 20155 30151 40161 58011 60091 78062 882//
AAXX 21184 47918 11/59 80112 10206 20184 30135 40152 56009 69951 76062 888//
AAXX 21184 47936 11230 80109 10189 20181 30086 40145 56014 60121 76382 8712/
AAXX 21184 47945 11/65 21908 10205 20173 30112 40136 57022 69901 70281 82200
AAXX 21184 47971 12/65 60707 10194 20124 30174 40184 56015 60001 82202
AAXX 21184 47991 16/// /1015 10242 20179 30141 40151 58013 60001
AAXX 21184 84202 31575 81402 10284 20207 30124 70544 8621/ 333 59009 555 30063
AAXX 21184 84270 11550 83612 10162 20128 60011 75155 887// 555 10014 30080
AAXX 21184 84036 31568 81408 10149 20100 70544 888// 555 30071
AAXX 21184 84056 31280 41416 10198 20028 70544 84200 555 30032
AAXX 21184 84135 32675 80000 10302 20217 30038 8621/ 333 59008 555 30060
AAXX 21184 84008 32675 71416 10277 20196 30097 40107 84830 00225 333 59008 555 30061
AAXX 21184 84076 31575 63202 10218 20162 70544 86400 555 30070
AAXX 21184 84160 11450 81410 10124 20091 37263 69901 74044 888// 333 58001 555 1T 30080
AAXX 21184 84132 11680 70404 10284 20246 39884 69911 72164 85270 333 59003 555 10001 30080
AAXX 21184 84179 11565 80000 10212 20194 39071 60041 72166 8781/ 333 58016 555 10042 30089
AAXX 21184 84140 31570 73602 10272 20222 30003 40088 70544 87800 333 58000 555 30074
AAXX 21184 84204 31675 71408 10312 20217 70544 83410 555 30057
AAXX 21184 84050 31570 81808 10252 20219 70544 882// 555 30082
AAXX 21184 84088 32675 60905 10162 20098 37050 86200 333 59005 555 30066
AAXX 21184 84072 32670 60404 10203 20104 37280 86200 333 59004 555 30053
AAXX 21184 84105 11558 81404 10246 20221 39999 69981 71542 8562/ 333 58000 555 10008 30086
AAXX 21184 84001 31565 51315 10277 20188 30084 40104 70544 85500 333 59008
AAXX 21184 84010 31670 51414 10272 20208 70544 82230
AAXX 21184 84018 31665 72812 10269 20237 30078 40085 71544 84270 333 59009
AAXX 21184 84027 31560 81008 10135 20100 37168 47139 71642 882// 333 58004
AAXX 21184 84063 32570 70000 10281 20234 39758 40088 83230 333 58005
AAXX 21184 84069 11250 82703 10220 20207 60011 74054 8611/ 555 10011
AAXX 21184 84071 31670 50404 10189 20086 37262 47113 70341 85200 333 59004
AAXX 21184 84099 32570 70000 10278 20216 3//// 40110 83270 333 5////
AAXX 21184 84101 31562 72807 10262 20220 30082 40096 70544 85530 333 59005
AAXX 21184 84117 31560 62809 10281 20216 30069 40092 70544 82530 333 59005
AAXX 21184 84123 31570 71620 10164 20109 37279 47115 70342 86230 333 59006
AAXX 21184 84163 11460 83301 10202 20189 38959 48507 60051 71665 8652/ 333 58007 555 10053
AAXX 21184 84176 32680 70320 10172 20118 86230
AAXX 21184 84200 31960 32607 10256 20210 70544 83030
AAXX 21184 84203 31560 61404 10304 20182 30070 40075 70544 81130 333 59011
AAXX 21184 84217 11570 80112 10210 20188 60061 71566 8451/ 555 10057
AAXX 21184 84239 11570 80507 10180 20100 37531 47141 69911 71544 8651/ 333 58002 555 10001
AAXX 21184 84252 31570 80304 10267 20218 30083 40091 70544 882// 333 59004
AAXX 21184 84265 32680 40610 10284 20151 38733 84100 333 59014
BBXX 41053 21181 99185 70661 46/// /0709 10264 40164 58025 91800 22200 00270 11506 70031 333 91211
BBXX 41052 21181 99183 70648 46/// /0709 10267 40156 58023 91800 22200 00271 333 91211
BBXX 41052 21181 99183 70648 46/// /0610 10267 40158 91750 333 91211
BBXX 41052 21181 99183 70648 46/// /0610 10266 40159 91740 333 91212
AAXX 21184 61296 32965 60404 10290 20116 3//// 4//// 80002 333 10336 5//// 86075
AAXX 21181 08501 NIL
AAXX 21181 08505 32365 71606 10184 20162 30184 40234 56008 86832 333 10197 82708 83811 85630
AAXX 21181 08509 31560 81407 10174 20160 30182 40247 57006 71011 8783/ 333 10184 82812 84825 87650 91113
AAXX 21181 08512 32480 61607 10174 20140 30176 40261 57002 81830 333 10183 81815 85357
AAXX 21181 08515 32475 71408 10177 20156 30144 40267 56007 81130 333 10193 81814 87356 910// 911//
AAXX 21181 08533 32/// /0103 10139 20121 30265 40295 52003 333 10167 91006 91108
AAXX 21181 08541 32/// /3203 10123 20108 30178 40298 54000 333 10162
AAXX 21181 08545 31958 01101 10123 20096 30226 40311 57003 71000 333 10157
AAXX 21181 08548 32/// /2601 10111 20096 30102 40311 52001 333 10145
AAXX 21181 08554 32965 03202 10164 20106 30278 40288 52002 333 10189
AAXX 21181 08558 32/// /3503 10105 20085 39999 40298 54000 333 10160
AAXX 21181 08560 31965 09901 10132 20091 39550 40307 53003 70200 333 10177
AAXX 21181 08567 12/// /1701 10080 20074 39649 40326 52002 69912 333 10139
AAXX 21181 08570 31970 02902 10132 20092 39837 40297 52003 70200 333 10187
AAXX 21181 08575 32/// /0000 10052 20048 39505 40338 52003 333 10067
AAXX 21181 08579 NIL
AAXX 21184 91348 11474 80603 10268 20249 30008 40061 57012 60041 72582 8527/ 333 56199 70058 555 92118
BBXX SBLI 21181 99300 11641 43/98 80110 10172 40187 53004 22264 00222 2//// 4//// 426621110
BBXX SHJC 21181 99136 11123 43/98 80210 10247 40120 58019 22254 01252 2//// 4////
BBXX SMGW 21181 99348 11718 43/97 83413 10142 40139 53018 22224 00198 2//// 4////
BBXX 9V8797 21184 99058 10821 43/97 30128 10239 40096 56002 22224 00279 2//// 4////
BBXX 41053 21181 99185 70661 46/// /0709 10263 40165 91750 333 91211
BBXX 41053 21181 99185 70661 46/// /0709 10263 40167 91740 333 91211
AAXX 21181 48845 32498 82001 10185 20170 30174 40181 56010 888// 333 58009 85894 88697
AAXX 21181 48840 32498 83401 10192 20165 30172 40178 57008 888// 333 58012 83894 88696
AAXX 21181 34523 11597 51503 10066 20055 30034 40109 52007 60022 72162 85500 333 10073
AAXX 21181 01271 17/82 81102 11058 21071 30090 40112 52007 60002 700// 333 11041 91105
AAXX 21181 01415 17983 71502 11008 21014 30117 40128 53003 6//// 700// 333 10003 91105
AAXX 21184 40100 12560 30000 10147 20124 30161 40193 53007 60001 83200 918// 333 10210 83826 92427
AAXX 21184 40101 12956 00503 10089 20062 39119 48517 51011 60001 918// 333 10176
AAXX 21184 40103 32560 60000 10153 20124 40195 52006 86800 333 10171 83824 84640 555 10189
AAXX 21184 40102 NIL
AAXX 21181 40703 11550 80000 11012 21031 38992 40310 52007 60001 71022 886// 333 55000 88725
AAXX 21181 40712 11510 81102 11022 21036 38750 40315 52010 60001 71042 8462/ 333 55000 29205 82720 83630 88458
AAXX 21181 40729 12960 01004 10002 21062 38383 40267 51002 60001 333 55071 21039
AAXX 21181 40736 12960 00902 10068 20054 30220 40194 54000 60001 333 55061
AAXX 21181 40739 12965 03402 11024 21123 38748 40299 51004 60001 333 55077
AAXX 21181 40743 12970 00802 11012 21150 39140 40304 52007 60001 333 55085
AAXX 21181 40762 12962 00000 11070 21227 38616 40323 53005 60001 333 55085
AAXX 21181 40768 12960 01504 11011 21060 38313 40294 52005 60001 333 55069 21241
AAXX 21181 40769 11958 00000 10014 21058 38352 40284 53006 60001 70500 333 55077 21163
AAXX 21181 40785 12960 00000 10026 21043 39153 40281 51005 60001 333 55086
AAXX 21181 40809 12962 01303 11060 21212 38562 40312 51008 60001 333 55095 2////
AAXX 21181 40821 12960 12702 10042 21103 38860 40294 52015 60001 80001 333 55095 21328 81070
AAXX 21181 40831 12960 00000 10116 20028 30225 40233 52012 60001 333 55086
AAXX 21184 78954 12480 30921 10288 20212 30063 40127 60001 83808 333 10297 20251 59003 83818
AAXX 21184 78954 12480 30921 10288 20212 30063 40127 60001 83808 333 10297 20251 59003 83818
AAXX 21184 03896 16/// ///// 10112 69902 333 10122
AAXX 21183 87007 32570 23202 10202 21049 36738 47137 57015 81104 333 56700 81820
AAXX 21183 87148 31557 13613 10420 20174 39917 40020 57029 70500 81100 333 56000 81825
AAXX 21181 30372 42999 30000 11354 21384 39351 40347 57007 80001
AAXX 21181 30433 42999 03001 11240 21280 39658 40311 57013
AAXX 21181 30554 429// 01301 11372 21401 39136 40397 57008
AAXX 21181 30635 418// 81402 11191 21203 39677 40292 57013 77177 8802/
AAXX 21181 30673 42999 00000 11363 21372 39452 40337 58004
AAXX 21181 30692 42999 03204 11261 21300 39697 40242 52///
AAXX 21181 30758 42984 00000 11327 21358 39432 40368 57010
AAXX 21181 30802 12703 11134 21205 38746 48524 58008 80001 333 91113
AAXX 21181 30823 41996 72901 11164 21183 39631 40310 57018 77177 8702/
AAXX 21181 30879 42999 02702 11253 21293 39471 40307 52004
AAXX 21181 30935 41997 83102 11125 21145 39343 40325 57008 77172 8807/
AAXX 21181 30949 42999 00000 11292 21309 39162 40389 57011
AAXX 21181 30965 429// 02401 11309 21339 39436 40371 58002
AAXX 21181 31168 42999 00202 11205 21246 30210 40222 52006
AAXX 21181 31300 41983 80603 11187 21213 39871 40180 53002 77173 8802/ 333 91110
AAXX 21181 31329 41997 80000 11283 21306 39491 40232 57002 77171 80007
AAXX 21181 31369 42998 00000 11281 21298 30134 40229 53001
AAXX 21181 31416 42999 83201 11285 21304 30124 40224 53002 80007
AAXX 21181 31484 NIL
AAXX 21181 31512 419// 03001 11224 21256 30021 40202 52005 70271
AAXX 21181 31538 41997 80000 11218 21230 39729 40197 53001 77172 80005
AAXX 21181 31707 41997 80000 11168 21181 30083 40181 53002 77072 8807/
AAXX 21181 31735 42997 70303 11225 21254 30095 40191 55005 80001
AAXX 21181 31770 42571 52702 11204 21237 30181 40214 58006 85500
AAXX 21184 87022 32660 10508 10382 20189 39505 49987 57025 81100 333 56100 81835
AAXX 21184 87046 32565 10512 10356 20139 39028 48435 57024 81100 333 56000 81830
AAXX 21184 87047 32570 20708 10327 20160 38729 48453 57021 81101 333 56000 81830
AAXX 21184 87097 32970 00506 10380 20135 39774 40076 57029
AAXX 21184 87121 32965 00216 10420 20173 39478 49956 57028
AAXX 21184 87129 NIL
AAXX 21184 87155 31456 20509 10407 20136 39981 40039 57029 70400 82100 333 56100 82818
AAXX 21184 87162 31550 53605 10404 20171 39976 40042 57027 70410 85800 333 56700 57862 85625 83830
AAXX 21184 87166 31557 10511 10401 20131 39973 40042 57025 70400 81100 333 56100 81820
AAXX 21184 87178 32670 13206 10395 20098 39921 40060 57025 81100 333 56000 81835
AAXX 21184 87217 32970 01410 10444 20160 39492 49946 57016
AAXX 21184 87222 32970 00228 10417 20115 39444 49925 57024
AAXX 21184 87257 NIL
AAXX 21184 87270 31550 13210 10406 20156 39968 40027 57035 70500 81100 333 56700 81820
AAXX 21184 87289 31960 00708 10390 20167 39982 40060 57025 70500
AAXX 21184 87311 32965 01417 10346 20085 39341 49986 57031
AAXX 21184 87320 32670 20000 10431 20197 39453 49944 57035 81101 333 56305 81840 81270
AAXX 21184 87328 32780 13226 10422 20054 39345 49946 57027 81100 333 56000 81850 95000
AAXX 21184 88878 46/// /2528 10129 20083 49881 57008 555 1//36
AAXX 21184 88883 46/// /2217 10128 20073 49902 54000
AAXX 21184 88889 11580 72822 10112 20075 39809 49891 57016 60081 72598 879// 91750 333 81925 85835 90710 91129 91029 96015
AAXX 21181 40716 12960 00000 10002 21038 38964 40287 51004 60001 333 55074
AAXX 21181 40719 11912 00000 10068 20064 30202 40192 50003 60001 71021 333 55027
AAXX 21181 40721 12960 01410 10110 21133 39661 40204 53002 60001 333 55029
AAXX 21181 40858 12960 00000 10170 20131 30218 40229 52011 333 55090
AAXX 21181 40872 12962 03303 10180 20067 30211 40216 51013 60001 222// 00/// 20301 333 55095
AAXX 21181 40877 12960 00000 10070 21042 39656 40217 51012 60001 333 55098
AAXX 21181 40898 11958 03403 10180 21114 30201 40211 51013 60001 70500 222// 00241 10500 333 55090 2////
AAXX 21184 NIL
AAXX 21184 NIL
AAXX 21184 82143 NIL
AAXX 21184 82599 32570 51112 10290 20228 30035 40095 85100 333 59010
AAXX 21184 82824 41470 60000 10302 20234 39982 40082 70261 86230 333 59017
AAXX 21184 82899 NIL
AAXX 21184 83117 NIL
AAXX 21184 83248 32470 51212 10295 20214 30096 40118 82201 333 59014
AAXX 21184 83746 32570 21220 10296 20198 40090 57009 82200
AAXX 21184 NIL
AAXX 21184 NIL
AAXX 21184 NIL
AAXX 21184 NIL
AAXX 21184 82022 32570 61108 10312 20209 39990 40086 86200 333 59002
AAXX 21184 82193 21415 70918 10262 20220 30074 40094 79596 86930 333 58005 60021
AAXX 21184 82281 32570 30518 10310 20193 30024 40086 83200 333 58004
AAXX 21184 82332 NIL
AAXX 21184 82398 32570 51113 10285 20225 30064 40093 85200 333 58000
AAXX 21184 82400 NIL
AAXX 21184 82579 32570 43204 10363 20216 39989 40064 84100 333 59005
AAXX 21184 82917 21415 73607 1//// 2//// 39870 4//// 76262 87430 333 59002 60071
AAXX 21184 82965 21470 63008 10264 20216 39773 40101 70262 81531 333 59008 69911
AAXX 21184 82993 32570 31013 10286 20217 39972 40108 83100 333 59018
AAXX 21184 83208 21460 80904 10218 20218 39423 48540 76166 8552/ 333 59012 60601
AAXX 21184 83349 32570 40708 10291 20220 30114 40120 81101 333 59013
AAXX 21184 83362 32570 40110 10294 20208 39874 40088 85200 333 59003
AAXX 21184 83378 32670 71704 10264 20153 38943 48500 84231 333 59018
AAXX 21184 83460 32570 30715 10271 20206 30056 40112 83100 333 59013
AAXX 21184 83497 NIL
AAXX 21184 83566 32970 31003 10280 20142 39189 48510 83100 333 59019
AAXX 21184 83599 NIL
AAXX 21184 83612 32970 63010 10276 20190 39459 48510 56027 87300
AAXX 21184 83649 32570 50514 10300 20220 30100 40105 58016 82201
AAXX 21184 83650 NIL
AAXX 21184 83780 32570 31802 10321 20088 39208 48510 50024 83100
AAXX 21184 83827 32970 02608 10376 20043 39803 40072 58026
AAXX 21184 83840 32970 62106 10309 20057 39096 48510 57020 86100
AAXX 21184 83899 32570 41213 10300 20187 30073 40079 55006 82250
AAXX 21184 83925 NIL
AAXX 21184 83970 NIL
AAXX 21184 83971 32970 31908 10329 20191 30089 40092 58012 81101
AAXX 21184 81225 11558 70304 10264 20244 40102 60021 72582 85932 333 56299 59007 81920 84825 85356
AAXX 21184 81200 11460 71008 10284 20226 40103 60011 78082 85933 333 56299 59004 81810 82915 83825 85080
AAXX 21184 81202 11460 71008 10284 20244 40107 60031 71586 85943 333 56299 59004 81918 84820
AAXX 21184 81209 11460 70000 10288 20227 40/// 60001 71522 85832 333 56299 5//// 84818 84360
AAXX 21184 81251 NIL
AAXX 21184 NIL
AAXX 21184 NIL
AAXX 21184 NIL
AAXX 21183 64800 NIL
AAXX 21183 64820 NIL
AAXX 21183 64860 32960 60000 10294 20086 39822 40092 80002 333 10360 59009 86080
AAXX 21183 64861 NIL
AAXX 21183 64870 32960 70000 10201 20074 38908 48498 80002 333 10307 59007 87080
AAXX 21183 64871 NIL
AAXX 21183 64892 NIL
AAXX 21183 64893 NIL
AAXX 21183 64894 NIL
AAXX 21183 64910 NIL
AAXX 21183 64911 NIL
AAXX 21183 64950 NIL
AAXX 21184 NIL
BBXX WQZ9670 21184 99466 70905 43/98 /2420 11011 2//// 40044 5//// 7//// 8//// 222// 0//// 2//01 3//// 4//// 5//// 6//// 8//// ICE /////
BBXX ZCDG7 21184 99223 71484 41398 40926 10269 20195 40192 52005 70111 83460 22264 00240 20303 310// 40402 5////
BBXX PCHM 21184 99402 31602 41597 80623 10165 20157 40219 51003 70222 8767/ 22234 00160 20202 308// 40204 80160
BBXX C6YA5 21183 99354 50550 41997 60519 10250 2//// 40040 56040 7//// 8///1 22244 00240 20601 3//// 4//// 5//// 6//// 8//// ICE /////
BBXX WFLH 21183 99324 71235 43598 32916 10183 20139 40212 54/// 7//// 831// 22223 00144 20601 335// 41207 5//// 6//// 80156 ICE /////
BBXX C6XC6 21184 99216 70768 41597 60925 10259 2//// 40170 57020 70222 81268 22224 00278 21004 309// 41004 5//// 6//// 8//// ICE /////
BBXX WXJ63 21183 99611 71464 41/97 80608 10013 21001 40029 5//// 779// 8//// 222// 00050 2//// 3//// 4//// 5//// 6//// 8//// ICE /////
BBXX S6SR 21184 99122 50029 41598 71410 10230 20216 40150 56020 7//22 872// 22213 00230 2//03 32020 41504 51504 6//// 80220 ICE /////
BBXX 44067 21181 99384 70770 46/// /2404 10127 40123 58025 91800
BBXX 41029 21181 99328 70796 46/// /2407 1//// 91800 555 11091 22110
BBXX 44032 21181 99437 70694 46/30 /1911 10087 40130 58039 91804 22200 00086 10605 70025 333 91213 555 11133 22142
BBXX 46111 21181 99481 71227 46/// /3507 10064 40330 53021 91800 22200 00055
BBXX 46112 21181 99481 71227 46/// /2904 10065 40331 53021 91800
BBXX 41037 21181 99340 70775 46/// /2108 10206 40189 58027 91800 22200 00186 333 91209
AAXX 21181 22271 11598 82404 11005 21032 30087 40097 52003 69930 70281 885// 333 10002
AAXX 21181 22520 32498 71801 11010 21016 30115 40125 52008 83550 333 10010
AAXX 21181 22550 31459 81802 11016 21040 30142 40152 52003 77172 8802/ 333 10007 88514
AAXX 21181 22583 32383 81802 11061 21069 30094 40177 52002 886// 333 11015 88708
AAXX 21181 22768 11295 81102 11063 21071 30099 40157 57006 69920 77372 8872/ 333 11039 85705
AAXX 21181 22845 31395 80302 11056 21063 39984 40146 57002 77372 8672/ 333 11051 86706
AAXX 21181 22887 11449 81603 11070 21087 30106 40179 57007 60030 77177 8372/ 333 11059 91105
AAXX 21181 23205 NIL
AAXX 21181 23219 NIL
AAXX 21181 23418 11440 81803 11074 21100 30128 40204 57006 69920 77372 8672/ 333 11049 86713
AAXX 21181 23606 12460 81903 11084 21103 30032 40212 57003 69900 885// 333 11082 88610
AAXX 21181 23711 11597 61402 11090 21106 30053 40234 57008 69920 82920 333 11077
AAXX 21181 23804 11395 81802 11075 21084 30054 40208 57006 69950 77372 8872/ 333 11075 86707
AAXX 21181 27037 11497 81502 11062 21074 39979 40146 52003 60080 77172 8872/ 333 11045 88712
AAXX 21181 27199 11598 81803 10072 21093 30024 40229 58003 69940 73673 8352/ 333 11070
AAXX 21181 27271 11497 81403 11073 21086 30029 40191 54000 60030 70382 886// 333 11067
AAXX 21181 27459 12298 81603 11062 21070 39979 40182 58002 69900 886// 333 11064 88706
AAXX 21181 27730 12396 81403 11018 21024 39929 40125 54000 69990 886// 333 11024 88709
AAXX 21181 20107 11396 80502 11065 21081 30004 40101 57008 69912 75652 886// 333 11063 91003 93402
AAXX 21181 22113 11384 81904 11036 21044 30023 40088 52010 69902 70282 889// 333 11029 86708 91006
AAXX 21181 22217 32984 70301 11028 21032 30074 40106 53008 87030 333 11011 91002 93730
AAXX 21181 22235 12479 82502 11022 21031 39906 40103 52008 69972 886// 333 11012 88710 91004
AAXX 21181 22349 12598 82504 11001 21013 30107 40119 52007 69902 885// 333 10010 91005 91111
AAXX 21181 22408 12484 82402 11004 21004 39970 40121 52017 69922 885// 333 11004 88611
AAXX 21181 22602 11574 82001 11009 21013 39906 40134 52008 69922 70272 885// 333 11002 88621
AAXX 21181 22619 12583 82501 11005 21029 39975 40139 52006 69902 885// 333 10003 88630
AAXX 21181 22721 12497 80000 11003 21006 30038 40140 52004 69902 887// 333 10007 85710
AAXX 21181 22802 31550 80000 10002 21001 30121 40144 52003 71022 885// 333 10010
AAXX 21181 22820 11356 83501 11016 21016 39998 40139 58001 69902 77172 8872/ 333 11016 88707
AAXX 21181 26059 31296 83502 11010 21017 30111 40136 51004 71022 886// 333 11007 88706
AAXX 21181 26063 11396 80101 10000 21009 30127 40135 52003 69932 77372 8872/ 333 10000
AAXX 21181 26094 11959 80402 11036 21047 30045 40123 58001 69932 77172 8802/ 333 11032
AAXX 21181 26157 31396 83601 11008 21017 30087 40138 52006 71022 885// 333 11003 86706
AAXX 21181 26167 11324 80102 11016 21024 30012 40127 52006 69902 77372 886// 333 11014 88706
AAXX 21181 26258 11496 83402 11007 21017 30077 40133 52016 69922 77172 8872/ 333 11003
AAXX 21181 26298 11496 80701 11044 21056 39882 40119 52008 69972 71082 886// 333 11032
AAXX 21181 26359 11482 73402 11020 21035 39995 40133 52012 60022 70282 87900 333 11016
AAXX 21181 26702 31/93 91101 11058 21062 30125 40152 52017 74541 333 11008 91001 91102
AAXX 21181 26781 11297 73403 11024 21036 39792 40090 52010 69962 70272 87500 333 11019 86703
AAXX 21181 27208 11496 80901 11040 21052 39937 40118 52004 60022 77172 8872/ 333 11035
AAXX 21181 27402 11396 80902 11028 21035 39928 40112 53005 69972 77172 8872/ 333 11028 88706
AAXX 21181 28676 329// 51903 11151 21209 30325 40464 57006 80009 333 11130
AAXX 21181 28766 329// 82205 11131 21181 30267 40472 57008 80001 333 11125
AAXX 21181 28867 32998 22506 11196 21237 30205 40506 57011 80002 333 11163
AAXX 21181 28879 329// 02403 11154 21212 30192 40506 58004 333 11087
AAXX 21181 28952 329// 02001 11174 21208 30291 40502 57010 333 11147
AAXX 21181 28966 329// 31702 11210 21237 30229 40547 58001 83030 333 11174
AAXX 21181 29802 329// 82403 11130 21165 30297 40452 57009 86031 333 11139
AAXX 21181 29807 329// 02603 11146 21173 30335 40463 58012 333 11121
AAXX 21181 34691 31998 81107 11065 21111 30269 40256 57002 70232 8802/ 333 11058
AAXX 21181 35067 329// 00000 11252 21281 30226 40540 57004 333 11150
AAXX 21181 35078 329// 02402 11242 21271 30117 40546 57008 333 11195
AAXX 21181 35085 329// 02001 11227 21251 30004 40538 58003 333 11146
AAXX 21181 35108 319// 71507 11088 21143 30285 40333 57010 73633 80006 333 11081 91115
AAXX 21181 35188 329// 81602 11239 21268 30059 40550 58006 80004 333 11178
AAXX 21181 35217 329// 01308 11110 21146 30316 40358 53004 333 11095 91115
AAXX 21181 35229 NIL
AAXX 21181 35302 319// 81710 11098 21134 30302 40324 57008 73633 8807/ 333 11083
AAXX 21181 35357 329// 01403 11282 21313 30550 40550 58005 333 11213
AAXX 21181 35394 32998 20000 11229 21255 39792 40552 58003 80001 333 11155
AAXX 21181 35406 51408 11096 21149 30325 40327 57002 70232 85050 333 11085
AAXX 21181 35416 NIL
AAXX 21181 35426 NIL
AAXX 21181 35497 329// 00000 11222 21270 39653 40544 58004 333 11113
AAXX 21181 35532 NIL
AAXX 21181 35671 32998 03502 11188 21229 30047 40522 58007 333 11121
AAXX 21181 35700 31998 81309 11082 21134 30327 40302 53004 73633 8801/ 333 11065 91017 91119
AAXX 21181 35746 329// 00504 11183 21215 30396 40471 57010 333 11156
AAXX 21181 35796 32997 00404 11184 21230 30026 40505 52001 333 11130
AAXX 21181 35849 32998 00203 11190 21223 30363 40459 58011 333 11144
AAXX 21181 35925 NIL
AAXX 21181 35953 329// 00905 11180 21214 30323 40465 57008 333 11138
AAXX 21181 35969 329// 00504 11202 21240 30303 40497 57007 333 11153
AAXX 21181 36003 32998 22601 11154 21185 30312 40476 57008 80001 333 11126
AAXX 21181 36152 329// 01602 11250 21295 30292 40505 58009 333 11178
AAXX 21181 36177 329// 21301 11255 21277 30245 40524 58005 80001 333 11180
AAXX 21181 36208 329// 00201 11230 21259 39446 40537 53001 333 11142
AAXX 21181 36397 329// 01802 11221 21258 39905 40531 58003 333 11184
AAXX 21181 36428 329// 03602 11278 21303 39978 40548 58016 333 11195 95090
AAXX 21181 36535 329// 00000 11316 21345 39842 40577 58005 333 11268
AAXX 21181 36639 329// 00000 11290 21320 39827 40519 52001 333 11166
AAXX 21181 36821 129// 00000 11220 21245 39963 40511 52002 69900 333 11161
AAXX 21181 36859 119// 80701 11124 21164 39642 40482 52005 69920 70272 8802/ 333 11106
AAXX 21181 36864 329// 00000 11174 21210 39505 40488 58002 333 11139
AAXX 21181 36870 116// 20000 11170 21182 39369 40476 58006 69900 70171 82500 333 11140
AAXX 21181 38001 NIL
AAXX 21181 38062 329// 00703 11177 21227 30280 40460 57007 333 11148
AAXX 21181 38069 329// 00202 11119 21163 30230 40436 57002 333 11050
AAXX 21181 38196 32998 00902 11076 21166 39385 40420 57012 333 11059
AAXX 21181 38198 329// 00000 11169 21188 30159 40445 57008 333 11073
AAXX 21181 38222 32997 00000 11222 21247 39880 40508 58003 333 11153
AAXX 21181 38232 NIL
AAXX 21181 38328 319// 30000 11133 21146 39646 40436 57005 71011 83030 333 11046
AAXX 21181 38334 32998 00903 11148 21199 39397 40443 57004 333 11070
AAXX 21181 38341 31996 62101 11211 21229 39615 40495 58010 71022 80002 333 11161
AAXX 21181 38343 32997 00000 11204 21223 39550 40490 58013 333 11167
AAXX 21181 38439 32998 03602 11102 21138 39957 40421 57009 333 11060
AAXX 21184 70133 32966 83608 11083 21106 39973 49979 53004 91753 333 11067 21106 555 92118
AAXX 21184 70174 11866 83605 11111 21144 39719 49968 53005 69901 771// 91753 333 11100 21139 4/071 555 92118
AAXX 21184 70200 32866 43611 11067 21111 39968 49974 51018 91753 333 11044 21094 555 92118
AAXX 21184 70219 12566 82411 11083 21094 39931 49987 53028 69901 91753 333 11044 21089 4/003 555 92118
AAXX 21184 70231 12466 82210 11028 21056 39837 49966 51020 69951 91753 333 11028 21161 4/107 555 92118
AAXX 21184 70261 32966 81913 11083 21100 39767 49942 53032 91753 333 11017 21117 555 92118
AAXX 21184 70267 12766 81308 11033 21050 39472 49952 53012 69951 91753 333 10022 21156 555 92118
AAXX 21184 70271 11458 81613 11022 21033 39422 40005 51037 69951 771// 91753 333 10006 21100 4/003 96010 555 92118
AAXX 21184 70273 32866 41814 10011 21061 39953 40013 51023 91753 333 10028 21016 4/041 91030 555 92118
AAXX 21184 70316 11116 ///04 10000 21006 39992 40027 58004 60051 771// 91753 333 10011 21028 96010 555 92118
AAXX 21184 70326 11348 61912 11017 21028 30018 40033 53023 69931 771// 91754 333 10006 21033 4/008 96010 555 92118
AAXX 21184 70340 32666 80000 10000 21033 39978 40039 51015 91753 333 10017 20000 4/005 555 92118
AAXX 21184 70350 32966 02805 11028 21056 30013 40053 91753 333 10039 21028 555 92118
AAXX 21184 70361 11459 82505 10022 20011 30107 40118 55002 60131 761// 91753 333 10050 21021 555 92118
AAXX 21184 70381 11466 81218 10028 20006 30200 40210 58020 69951 761// 91753 333 10028 20011 91024 555 92118
AAXX 21184 70414 35966 03203 11067 21100 39974 40013 53002 91756 333 11044 555 92118
AAXX 21181 26997 11321 83401 10003 20000 39851 40072 58003 60032 77174 886// 333 10023 87707 93703
AAXX 21181 27595 31997 81704 11068 21110 30101 40252 58005 73632 8802/ 333 11065 88400 91110
AAXX 21181 27612 114// 81601 11017 21028 39917 40113 52002 60032 77072 887// 333 11016
AAXX 21181 27707 11/06 91102 10002 20002 39783 40078 58002 69932 74584 333 10003
AAXX 21181 27719 11294 81103 11002 21005 39855 40108 58002 60062 75685 886// 333 11001 93401
AAXX 21181 27786 31597 71505 11067 21109 30092 40260 58001 70232 87500 333 11071 87624
AAXX 21181 27857 32497 81506 11035 21049 39997 40164 57003 886// 333 11040 88713 91113 93401
AAXX 21181 27906 11294 80703 10009 20006 39830 40072 58006 60012 71052 886// 333 10015
AAXX 21181 27928 11496 81404 10005 21003 39890 40098 58006 60010 76162 885// 333 10006
AAXX 21181 27947 11397 81404 11015 21026 39985 40148 57003 60010 72462 8872/ 333 11011 88709 93407
AAXX 21181 27962 11497 81207 11072 21089 40216 58001 69960 76676 885// 333 11059 88613 92980 93401
AAXX 21181 27983 31571 71705 11084 21121 30149 40285 52005 70232 875// 333 11072 87628
AAXX 21181 27995 32571 81502 11078 21123 40301 54000 885// 333 11068
AAXX 21181 28506 31997 81803 11055 21135 30185 40303 55003 70232 8807/ 333 11038 91111
AAXX 21181 28704 31998 81810 11070 21108 30197 40297 55001 73632 8807/ 333 11063 88400 91111 91114
AAXX 21181 28711 31997 81706 11083 21148 39938 40334 54001 73632 8805/ 333 11074 91012 91116
AAXX 21181 28807 31997 81706 11071 21140 30267 40321 54000 70232 8807/ 333 11059 91112
AAXX 21181 34009 11/93 90903 10027 20027 39753 40057 57015 60032 74585 333 10029
AAXX 21181 34110 11/93 91503 10037 20035 39791 40066 57009 69982 74564 333 10037
AAXX 21181 34123 11296 81103 10011 20006 39918 40102 57007 60040 71082 886// 333 10008 88706
AAXX 21181 34152 11461 81603 11020 21035 39967 40167 57005 69910 76662 8872/ 333 11025 88715 93402
AAXX 21181 34163 32498 81103 11063 21094 40223 57008 885// 333 11062 88620
AAXX 21181 34171 32560 81407 11062 21098 30031 40233 58009 885// 333 11059 88622
AAXX 21181 34186 31577 81609 11095 21125 30132 40279 58004 73632 885// 333 11080 88627 91013 91114
AAXX 21181 34247 11357 81704 10023 20015 30017 40132 57004 69900 71052 885// 333 10019 85707
AAXX 21181 34336 11497 81102 10038 20033 30016 40120 57005 69930 72522 8532/ 333 10027
AAXX 21181 34391 32997 81407 11089 21128 30243 40276 58001 8802/ 333 11062 91112
AAXX 21181 35011 32984 81305 11097 21174 40374 57006 8807/ 333 11090
AAXX 21181 35121 32998 31302 11117 21168 30258 40416 57004 83030 333 11105
AAXX 21181 38598 NIL
AAXX 21181 38599 NIL
AAXX 21181 38725 NIL
AAXX 21181 38734 NIL
AAXX 21181 38744 NIL
AAXX 21181 38836 NIL
AAXX 21181 38838 NIL
AAXX 21181 38844 NIL
AAXX 21181 38846 NIL
AAXX 21181 38847 429// 60000 11061 21101 40418 57013 80003
AAXX 21181 38932 NIL
AAXX 21181 38933 NIL
AAXX 21181 38944 NIL
AAXX 21181 38954 NIL
AAXX 21181 22028 31581 22508 11032 21046 30034 40073 52013 70230 82500 333 11018 91010 91117
AAXX 21181 22106 32498 80000 11043 21055 30015 40095 52012 886// 333 11033 88717
AAXX 21181 22127 11596 80000 11042 21047 39890 40095 52009 69922 71082 8597/ 333 11036 91001 93503
AAXX 21181 22324 32582 82403 11005 21011 30061 40111 52005 889// 333 11001 91005
AAXX 21181 22621 12582 80000 11011 21030 30001 40143 52006 69902 885// 333 11002 88624
AAXX 21181 22831 32997 80000 11045 21058 30080 40142 54000 8802/ 333 11031
AAXX 21181 22892 32397 80000 11001 21007 30127 40143 52005 886// 333 10004 88709
AAXX 21181 26275 11396 80202 11027 21030 30082 40113 52005 60042 77172 8872/ 333 11020 88710
AAXX 21181 26389 11496 80602 11032 21049 39834 40104 52008 60022 71072 886// 333 11027
AAXX 21181 26499 11295 80402 11028 21035 39870 40103 52004 60022 77372 8872/ 333 11028 87704
AAXX 21181 26695 11295 81101 11002 21008 39781 40092 52004 69982 77174 8672/ 333 11001 86703
AAXX 21181 26882 11457 73203 11013 21021 39801 40081 52003 69922 71022 87500 333 10008 87612
AAXX 21181 28676 329// 51903 11151 21209 30325 40464 57006 80009 333 11130
AAXX 21181 28766 329// 82205 11131 21181 30267 40472 57008 80001 333 11125
AAXX 21181 28867 32998 22506 11196 21237 30205 40506 57011 80002 333 11163
AAXX 21181 28879 329// 02403 11154 21212 30192 40506 58004 333 11087
AAXX 21181 28952 329// 02001 11174 21208 30291 40502 57010 333 11147
AAXX 21181 28966 329// 31702 11210 21237 30229 40547 58001 83030 333 11174
AAXX 21181 29802 329// 82403 11130 21165 30297 40452 57009 86031 333 11139
AAXX 21181 29807 329// 02603 11146 21173 30335 40463 58012 333 11121
AAXX 21181 34691 31998 81107 11065 21111 30269 40256 57002 70232 8802/ 333 11058
AAXX 21181 35067 329// 00000 11252 21281 30226 40540 57004 333 11150
AAXX 21181 35078 329// 02402 11242 21271 30117 40546 57008 333 11195
AAXX 21181 35085 329// 02001 11227 21251 30004 40538 58003 333 11146
AAXX 21181 35108 319// 71507 11088 21143 30285 40333 57010 73633 80006 333 11081 91115
AAXX 21181 35188 329// 81602 11239 21268 30059 40550 58006 80004 333 11178
AAXX 21181 35217 329// 01308 11110 21146 30316 40358 53004 333 11095 91115
AAXX 21181 35229 NIL
AAXX 21181 35302 319// 81710 11098 21134 30302 40324 57008 73633 8807/ 333 11083
AAXX 21181 35357 329// 01403 11282 21313 30550 40550 58005 333 11213
AAXX 21181 35394 32998 20000 11229 21255 39792 40552 58003 80001 333 11155
AAXX 21181 35406 51408 11096 21149 30325 40327 57002 70232 85050 333 11085
AAXX 21181 35416 NIL
AAXX 21181 35426 NIL
AAXX 21181 35497 329// 00000 11222 21270 39653 40544 58004 333 11113
AAXX 21181 35532 NIL
AAXX 21181 35671 32998 03502 11188 21229 30047 40522 58007 333 11121
AAXX 21181 35700 31998 81309 11082 21134 30327 40302 53004 73633 8801/ 333 11065 91017 91119
AAXX 21181 35746 329// 00504 11183 21215 30396 40471 57010 333 11156
AAXX 21181 35796 32997 00404 11184 21230 30026 40505 52001 333 11130
AAXX 21181 35849 32998 00203 11190 21223 30363 40459 58011 333 11144
AAXX 21181 35925 NIL
AAXX 21181 35953 329// 00905 11180 21214 30323 40465 57008 333 11138
AAXX 21181 35969 329// 00504 11202 21240 30303 40497 57007 333 11153
AAXX 21181 36003 32998 22601 11154 21185 30312 40476 57008 80001 333 11126
AAXX 21181 36152 329// 01602 11250 21295 30292 40505 58009 333 11178
AAXX 21181 36177 329// 21301 11255 21277 30245 40524 58005 80001 333 11180
AAXX 21181 36208 329// 00201 11230 21259 39446 40537 53001 333 11142
AAXX 21181 36397 329// 01802 11221 21258 39905 40531 58003 333 11184
AAXX 21181 36428 329// 03602 11278 21303 39978 40548 58016 333 11195 95090
AAXX 21181 36535 329// 00000 11316 21345 39842 40577 58005 333 11268
AAXX 21181 36639 329// 00000 11290 21320 39827 40519 52001 333 11166
AAXX 21181 36821 129// 00000 11220 21245 39963 40511 52002 69900 333 11161
AAXX 21181 36859 119// 80701 11124 21164 39642 40482 52005 69920 70272 8802/ 333 11106
AAXX 21181 36864 329// 00000 11174 21210 39505 40488 58002 333 11139
AAXX 21181 36870 116// 20000 11170 21182 39369 40476 58006 69900 70171 82500 333 11140
AAXX 21181 38001 NIL
AAXX 21181 38062 329// 00703 11177 21227 30280 40460 57007 333 11148
AAXX 21181 38069 329// 00202 11119 21163 30230 40436 57002 333 11050
AAXX 21181 38196 32998 00902 11076 21166 39385 40420 57012 333 11059
AAXX 21181 38198 329// 00000 11169 21188 30159 40445 57008 333 11073
AAXX 21181 38222 32997 00000 11222 21247 39880 40508 58003 333 11153
AAXX 21181 38232 NIL
AAXX 21181 38328 319// 30000 11133 21146 39646 40436 57005 71011 83030 333 11046
AAXX 21181 38334 32998 00903 11148 21199 39397 40443 57004 333 11070
AAXX 21181 38341 31996 62101 11211 21229 39615 40495 58010 71022 80002 333 11161
AAXX 21181 38343 32997 00000 11204 21223 39550 40490 58013 333 11167
AAXX 21181 38439 32998 03602 11102 21138 39957 40421 57009 333 11060
BBXX HZGH 21183 99219 10680 41497 53620 10230 20136 40176 51/// 70222 83610 22274 02240 20205 33600 40204 5//// 80175
BBXX 3FMV6 21183 99136 30098 41498 82016 10210 20178 40108 52010 70222 86778 22244 06216 20601 80190
BBXX S6SR 21184 99122 50029 41598 71410 10230 20216 40150 56020 7//22 872// 22213 00230 2//03 32020 41504 51504 6//// 80220 ICE /////
BBXX SERW 21183 99249 70178 43997 10913 10212 2//// 40221 57004 70200 81012 22252 06203 20404 3//// 4////
BBXX DHSI 21184 99295 70141 41298 50513 10220 20158 40265 50000 70322 85700 22214 00180 21002 305// 41203 80180
BBXX A8SU4 21184 99160 10412 41998 01310 10280 20196 40110 55/// 70500 80000 22243 00260 20000 30000 40000 50000 80225
BBXX UBAU 21181 99125 70174 41498 40706 10260 40153 54000 70310 84501 22281 04239 20301
BBXX PHQW 21183 99207 70177 41/95 /0915 10208 20133 40168 52003 70500 8//// 22283 00194 2//// 399// 40403 80162 90619
BBXX A8KH9 21184 99276 30152 41898 21722 10165 20123 40120 54000 7//// 81180 22243 20405 31899 40608 5//// 80140
BBXX PCSV 21183 99185 30585 41498 11817 10255 20220 40145 52008 70022 8111/ 22253 04271 21003 318// 41003 80230 90619
BBXX DFNB2 21183 99167 10673 41398 20315 10255 20181 40150 51015 70311 82100 22234 00260 20402 80205
BBXX SBLI 21181 99300 11641 43/98 80110 10172 40187 53004 22264 00222 2//// 4//// 426621110
BBXX SMGW 21181 99348 11718 43/97 83413 10142 40139 53018 22224 00198 2//// 4////
BBXX SBLI 21181 99300 11641 43/98 80110 10172 40187 53004 22264 00222 2//// 4//// NNNN 426621110
BBXX 9V8797 21184 99058 10821 43/97 30128 10239 40096 56002 22224 00279 2//// 4////
BBXX SHJC 21181 99136 11123 43/98 80210 10247 40120 58019 22254 01252 2//// 4////
BBXX 9VAY4 21183 99060 10868 41597 62019 10290 2025/ 4//// 51/// 7//22 8429/ 22264 00286 2//// 3//// 4//// 5//// 6//// 80260 ICE /////
BBXX V2BE4 21181 99083 11432 41998 00911 10285 20242 40056 57012 70000 80000 22243 04300 20506 310// 40606 80255
BBXX ZCAS2 21184 99330 11348 41498 82007 10141 20041 40161 57/// 70222 89/// 22284 00224 2//// 301// 40201 80095
BBXX SHIP 21184 99534 11740 41598 40605 10000 21000 40007 56002 70322 84/// 91800 22214 00040 2//// 3//// 4//// 80000
BBXX V7FS3 21183 99110 10752 41297 40705 10290 20276 40110 54000 70200 83110 22233 00290 20200 3//// 4//// 5//// 80280
BBXX DIHC 21183 99361 11538 41398 73605 10105 20019 40224 53004 70322 877// 22264 00150 2//// 80065
BBXX MIBR 21184 99212 11215 41297 80317 10225 20210 40149 54000 75852 892// 22254 00256 20201 3//// 4//// 5//// 80215
BBXX OYYK2 21180 99298 50727 41998 02013 10188 20132 40161 57005 70200 80000 22244 04170 20404 319// 40904 80156
BBXX C6YA5 21183 99354 50550 41997 60519 10250 2//// 40040 56040 7//// 8///1 22244 00240 20601 3//// 4//// 5//// 6//// 8//// ICE /////
BBXX DFCX2 21183 99204 50733 41897 61710 10240 20175 40130 57010 70222 8602/ 22234 06227 20201
BBXX 62087 21181 99547 10068 46/// /9900 10076 20023 4//// 5//// 22230 00080
BBXX SBHI 21183 99613 10175 43/98 02709 10139 40122 51010 22261 06034
BBXX UCKD 21181 99571 10068 41/98 93407 10040 40133 52015 70100 89/// 22263 00080 20402
BBXX 62023 21183 99514 70079 46/96 /2626 10111 2//// 40261 5//// 22200 10504 70020 555 70029 81005
BBXX DANM 21184 99372 10117 41598 43536 10140 20059 40126 51024 70181 844// 22265 00150 20408 80098
BBXX MDTE9 21183 99370 70126 41398 70908 10163 20147 40319 56007 702// 8/5// 22223 00160 2//// 3//// 4//// 5//// 80154
BBXX TFKGR 21184 99657 70136 46/// ///// 22200 10403 70016
BBXX TFSRT 21184 99633 70203 46/// ///// 22200 10707 70035
BBXX TFSTD 21184 99664 70234 46/// ///// 22200 10503 70015
BBXX TFHFN 21184 99642 70152 46/// ///// 22200 10604 70021
BBXX TFGSK 21184 99641 70229 46/// ///// 22200 10604 70019
BBXX TFBKF 21184 99635 70202 46/// ///// 22200 10607 70034
BBXX TFGRV 21184 99638 70225 46/// ///// 22200 10809 70043
BBXX TFBLK 21184 99657 70248 46/// ///// 22200 10503 70015
BBXX TFGRS 21184 99663 70182 46/// ///// 22200 10402 70012
BBXX TFDRN 21184 99658 70212 46/// ///// 22200 10402 70008
BBXX LF4H 21184 99596 10022 46/98 11621 10058 20034 40061 57035 8//// 22200 06083 10603 70015 333 91126
BBXX LMEL 21181 99603 10053 43/// /1201 11004 21006 40105 5//// 222/0 04083 1//// 3//// 4//// 5////
BBXX LAHV 21181 99589 10057 43/// /1202 10008 21005 40128 222// 04081 1////
BBXX UFJN 21181 99712 10480 41/98 81803 11025 40065 52015 70022 88/// 22200 0//// 20301
BBXX C6IO9 21184 99323 70144 41898 43013 10175 20121 40302 53020 70100 8/085 22243 06185 20301 305// 40503 5//// 80145
BBXX NWS0020 21184 99330 70276 43/// /1321 10199 20157 40232 5//// 7//// 8//// 222// 04206 2//// 3//// 4//// 5//// 6//// 8//// ICE /////
BBXX UITJ 21181 99695 10139 41497 82310 10035 40023 57005 76062 8872/ 22253 00070 20704
BBXX DILE 21183 99489 70128 41298 82322 10130 20121 40295 54000 7//22 8/700 22224 2//// 80125
BBXX UGGA 21181 99693 10436 41/98 91807 10070 40062 54000 70222 89/// 22221 20302
BBXX TBWUK35 21183 99636 10004 41/98 81518 10046 20029 40002 57035 76162 8//// 22214 00090 2//// 80039
BBXX PDNN 21183 99471 70231 41/97 81833 10138 20128 40214 57002 70062 888// 22223 02130 20406 324// 40808 80132 90619
BBXX LAXP4 21184 99395 70239 41898 41514 00/// 10180 2018/ 40292 54000 70001 82611 22253 00160 20402 315// 40303 80180
BBXX C6KD4 21183 99362 70316 41598 51820 10195 20181 40211 57016 70322 84470 22254 04185 20505 310// 40804 80186
BBXX 41053 21181 99185 70661 46/// /0709 10263 40165 91750 333 91211
BBXX 41053 21181 99185 70661 46/// /0709 10263 40167 91740 333 91211
BBXX 41053 21181 99185 70661 46/// /0709 10264 40164 58025 91800 22200 00270 11506 70031 333 91211
BBXX 41052 21181 99183 70648 46/// /0610 10266 40159 91740 333 91212
BBXX 41052 21181 99183 70648 46/// /0610 10267 40158 91750 333 91211
BBXX 41052 21181 99183 70648 46/// /0709 10267 40156 58023 91800 22200 00271 333 91211
BBXX 9HA2064 21183 99470 71442 41695 81125 10110 20092 40110 57040 71222 889// 22274 0//// 2//// 3//// 4//// 5//// 6//// 80100 ICE /////
BBXX KGTZ 21184 99533 71363 41296 81731 10044 2003/ 40178 57013 76362 886// 22234 00078 20605 320// 41004 5//// 6//// 80039 ICE /////
BBXX C6LU4 21184 99121 70796 41596 50529 10275 2023/ 49995 54000 70200 85464 22284 20608 305// 40708 5//// 80248
BBXX SHIP 21184 99317 71253 41497 73608 10140 2011/ 40280 52020 70122 87489 22223 00160 20404 333// 41006 5//// 6//// 80120 ICE /////
BBXX SJCD 21181 99509 71350 43/97 81813 10068 40248 58045 22263 00076
BBXX SFIR 21184 99447 70405 43/97 72737 10073 40071 52037 22223 00140 20804 4//05
BBXX 44150 21181 99425 70640 46/// /2108 10055 40229 57026 22200 00102 11003 70014 333 91210
BBXX 44139 21181 99442 70571 46/// /2807 10019 40248 57001 22200 00061 11106 70031 333 91209
BBXX 44060 21181 99413 70721 46/// ///05 10111 40138 91800 22200 00103 333 91206 555 11057 22062
BBXX 41038 21181 99341 70777 46/// /2107 10172 40184 58024 91800 22200 00139 333 91208
BBXX WJBJ 21183 99276 70770 41498 51514 10230 2020/ 40214 57006 70222 85833 22234 00243 20403 315// 40604 5//// 6//// 80210 ICE /////
BBXX WDE4432 21184 99285 70863 41498 61719 10250 2023/ 40150 56010 70222 8656/ 22273 0//// 20201 31720 40402 50402 6//// 80237 ICE /////
BBXX WKPF 21183 99407 70473 41597 73206 10080 2000/ 40225 52010 70222 872// 22264 00196 20405 333// 41108 5//// 6//// 80045 ICE /////
BBXX ICGU 21184 99184 70646 41797 40515 10280 20193 40180 54/// 70322 84/6/ 22200 04270 2//// 3//// 4//// 5//// 6//// 85220 ICE /////
BBXX PBKH 21184 99279 71373 41/98 70720 10175 21032 40258 51015 70222 8//// 22224 29904 3//// 4//// 5//// 80091
BBXX VOXS 21184 99467 70480 41598 72733 10015 2101/ 40137 51027 70222 87500 22200 04020 20706 326// 40807 80005
BBXX C6XC6 21184 99216 70768 41597 60925 10259 2//// 40170 57020 70222 81268 22224 00278 21004 309// 41004 5//// 6//// 8//// ICE /////
BBXX WFLH 21183 99324 71235 43598 32916 10183 20139 40212 54/// 7//// 831// 22223 00144 20601 335// 41207 5//// 6//// 80156 ICE /////
BBXX WGAX 21184 99344 70563 43398 33507 10180 2013/ 40213 5//// 7//// 83100 22263 00205 20702 334// 41604 5//// 6//// 80150 ICE /////
BBXX V7DI7 21183 99404 70614 41797 62909 10100 2006/ 40210 57010 70221 832/8 22200 00110 20102 329// 40203 5//// 6//// 80080 ICE /////
BBXX C6SI3 21183 99472 71750 41798 81713 10050 2003/ 40060 56010 70322 88398 22213 0//// 20203 325// 4//// 5//// 6//// 80040 ICE /////
BBXX OWFD2 21181 99270 70459 41398 53609 10260 20241 40220 55010 70311 84244 22254 04230 20607 332// 40607 80246
BBXX PCEX 21183 99127 70792 41698 60930 10280 20239 40090 50010 70311 85485 22222 02290 20808 307// 40707 80250
BBXX 46053 21181 99342 71198 46/// /0501 10140 40174 51011 91750 22200 00138 11402 20401 326// 41402 70010 333 91202 555 11012 22014 31729 42204 61749 048009 251014 198026 176020 161018 194016
BBXX 46042 21181 99368 71224 46/// /0703 10111 40194 53011 91750 22200 00125 11506 20301 331// 41506 70029 333 91205 555 11034 22035 31658 40906 61749 072033 078034 078037 077039 077042 076048
BBXX 46001 21181 99563 71480 46/// /1002 10041 40082 57017 91750 22200 00051 11410 20401 300// 41410 70050 333 91204 555 11016 22017 31720 40904 61749 096016 123013 117018 104017 107011 136012
BBXX 44022 21181 99409 70737 46/// ///03 10109 20100 40121 58042 91800 22200 00081 333 91204 555 11031 22041
BBXX NWS0029 21184 99371 70653 43/// /2209 10198 20103 40225 5//// 7//// 8//// 222// 04224 2//// 3//// 4//// 5//// 6//// 8//// ICE /////
BBXX C6TQ6 21184 99174 70881 41797 31119 10280 20253 40150 54000 70211 8313/ 22200 00260 20302 31110 40302 50302 6//// 80260 ICE /////
BBXX NWS0003 21184 99539 71665 43/// /3600 11006 21051 40035 5//// 7//// 8//// 222// 0//// 2//// 3//// 4//// 5//// 6//// 8//// ICE /////
BBXX PCBT 21183 99187 70585 41698 50727 10251 20205 40168 56015 70222 84368 22213 20605 336// 41206 80219
BBXX C6KD6 21184 99179 70759 41598 60921 10286 20205 40147 58/// 70322 85171 22214 02285 20806 308// 41006 80232
BBXX DHEE 21183 99225 70717 41598 50822 10265 20158 40195 58015 70111 84485 22234 00270 20804 311// 41104 80195
BBXX PJFF 21184 99313 70367 41498 82412 10208 20181 40182 58008 70262 8774/ 22254 04180 20401 313// 41204 80190
BBXX PDHW 21183 99457 70432 41296 82839 10040 40105 52060 73877 887// 22263 00150 20910 328// 41210
BBXX DHBN 21181 99344 71623 41497 73608 10155 20102 40210 52010 70311 87500 22224 00200 29903 329// 41005 5//// 80125
BBXX A8OF6 21183 99281 70485 41698 63522 10215 20115 40205 58033 70300 865// 22254 04230 20504 332// 40708 80155
BBXX C6VR5 21183 99219 70535 41598 40425 10240 20176 40201 58016 70200 83438 22224 02260 20505 301// 41007 80200
BBXX A8NQ5 21183 99456 70565 41698 30920 10000 21027 40190 51050 71300 8346/ 22264 04030 21004 81010
BBXX DMRX 21184 99429 71253 41998 00323 10095 20039 40299 54000 70100 80000 22244 00110 20704 328// 41206 80068
BBXX DEDI 21183 99252 70849 41598 61325 10265 20192 40175 58005 70322 8414/ 22233 00285 20604 313// 41006 80215
BBXX 41041 21181 99142 70460 46/// /0706 10267 20213 40135 56015 91750 22200 00267 11003 20502 3//// 41003 70016 333 91206 555 11059 22062 31737 40807 61749 073055 073057 080053 078055 075054 076055 80706 91739
BBXX SLKR 21183 99137 51382 43/98 30919 10274 40136 51014 22253 00318 2//// 4////
BBXX PHPP 21184 99043 10991 41697 43609 10270 20243 40079 58008 70200 84100 22274 00300 20801 80250
BBXX mpjh9 21184 99018 31520 41/98 /2720 10285 20250 40121 56010 70311 8//// 22234 00300 2//// 80260
BBXX VNSZ 21184 99383 31449 46/// /1029 10152 20119 30132 40158 57029 22285 04190 85133
BBXX 2AGH7 21183 99167 31679 41598 71015 10270 20256 40101 56010 70222 84860 22284 20201 316// 40503 80260
BBXX VRAE2 21184 99244 31769 41298 81119 10245 20182 40125 53008 70022 8271/ 22244 04250 20302 314// 40503 80205
BBXX C6FS9 21184 99274 31531 46/// /1807 10208 20187 30105 40141 57004 22200 04246 85194
BBXX 9HA2479 21184 99232 31656 46/// /1031 10246 20210 30078 40107 57006 22214 04253 85220
BBXX A8TX8 21183 99204 31101 41998 01417 10250 20228 40079 57025 700// 80000 22285 04270 20803 320// 41004 80235
BBXX VRRD 21183 99216 31548 41297 61430 10250 20235 40043 54000 75865 867// 22243 2//// 80240
BBXX 3ECI3 21184 99435 31728 41597 60912 10142 20110 40293 54000 70311 86443 22200 00150 20302 309// 40802 80125
BBXX VRAE3 21184 99059 31241 41797 30000 10290 20248 40075 52009 70202 87285 22234 00310 2//// 3//// 4//// 5//// 80260
BBXX PCAM 21183 99412 31732 41598 31604 10150 20126 40283 57003 70211 8244/ 22200 20100 30000 80136
BBXX PCHM 21184 99402 31602 41597 80623 10165 20157 40219 51003 70222 8767/ 22234 00160 20202 308// 40204 80160
BBXX VRET5 21183 99009 31429 41191 30813 10290 2025/ 40050 5//// 70000 83100 22234 00320 2//// 3//// 4//// 5//// 6//// 80260 ICE /////
BBXX DCAX2 21183 99035 11641 41697 51006 10280 20237 40060 54000 7//11 85546 22233 20705 3//// 4//// 5//// 80250
BBXX KAOU 21184 99002 10811 43/// /2518 10271 20246 40072 5//// 7//// 8//// 222// 04289 2//// 3//// 4//// 5//// 6//// 8//// ICE /////
BBXX MGRH9 21183 99371 31706 41598 21008 10171 20150 40269 53001 70000 81268 22233 00171 20101 31405 40703 50602 80159
BBXX PHJV 21184 99053 31145 41298 31419 10270 20251 40059 57016 70211 83161 22263 06294 20201 80256
BBXX PCDE 21183 99383 31489 41297 81003 10150 20097 40190 57020 75852 887// 22213 20503 80120
BBXX UCKZ 21181 99651 30494 41294 80105 11011 21018 49745 52030 71084 886// 22213 01012 20201 334// 41005 ICE 0/9/0
AAXX 21181 08521 NIL
AAXX 21181 08524 32470 30704 10168 20110 30200 40298 54000 83800 333 10194 82815 91007 91107
AAXX 21181 08579 32/// /2403 10137 20106 30177 40303 52002 333 10187 91006 91106
AAXX 21184 41858 31904 02708 10108 20100 30121 40169 74440 333 58008 70000
AAXX 21184 41863 31920 02702 10111 20110 30118 40164 71040 333 58000 70000
AAXX 21184 41886 NIL
AAXX 21184 41895 32950 00000 10104 20100 30140 40164 333 59001 70000
AAXX 21184 41909 31430 83402 10130 20120 30136 40149 71042 8352/ 333 56999 58005 70000 83616 88459
AAXX 21184 41915 31/06 90000 10136 20134 30129 40156 74344 89/// 333 58006 70000
AAXX 21184 41926 31906 00000 10092 20090 30145 40159 74440 333 58005 70000
AAXX 21184 41929 31935 00000 10123 20110 30141 40151 71000 333 59001 70000
AAXX 21184 41933 31940 03102 10150 20130 30139 40148 70500 333 58001 70000
AAXX 21184 41939 31940 00000 10135 20130 40163 333 58002 70000
AAXX 21184 41941 31420 63602 10148 20140 30140 40146 71042 83520 333 56990 59003 70000 83614 86460
AAXX 21184 41946 31940 00000 10128 20120 30150 40155 70500 333 58004 70000
AAXX 21184 41947 31440 53601 10132 20120 30148 40150 71044 85500 333 56800 58001 70000 85618
AAXX 21184 41951 NIL
AAXX 21184 41953 31320 73606 10144 20140 30140 40146 70522 85620 333 56990 59003 70000 85708 83460
AAXX 21184 41958 31930 00000 10138 20130 30151 40153 70500 333 58007 70000
AAXX 21184 41960 31440 83602 10136 20135 30151 40153 70520 8452/ 333 56999 59002 70000 84616 88458
AAXX 21184 41963 NIL
AAXX 21184 41964 NIL
AAXX 21184 41965 NIL
AAXX 21184 41966 NIL
AAXX 21184 41984 31940 03603 10138 20130 30139 40141 70500 333 58001 70000
AAXX 21184 41989 NIL
AAXX 21184 41998 NIL
AAXX 21184 81225 11558 70304 10264 20244 40102 60021 72582 85932 333 56299 59007 81920 84825 85356
AAXX 21184 81200 11460 71008 10284 20226 40103 60011 78082 85933 333 56299 59004 81810 82915 83825 85080
AAXX 21184 81202 11460 71008 10284 20244 40107 60031 71586 85943 333 56299 59004 81918 84820
AAXX 21184 81209 11460 70000 10288 20227 40/// 60001 71522 85832 333 56299 5//// 84818 84360
AAXX 21184 81251 NIL
AAXX 21184 81225 11558 70304 10264 20244 40102 60021 72582 85932 333 56299 59007 81920 84825 85356
AAXX 21184 81200 11460 71008 10284 20226 40103 60011 78082 85933 333 56299 59004 81810 82915 83825 85080
AAXX 21184 81202 11460 71008 10284 20244 40107 60031 71586 85943 333 56299 59004 81918 84820
AAXX 21184 81209 11460 70000 10288 20227 40/// 60001 71522 85832 333 56299 5//// 84818 84360
AAXX 21184 81251 NIL
AAXX 21184 60360 11550 82309 10115 20113 40207 53010 60032 70266 889// 333 10146 83817 81930 86633 95990
AAXX 21184 60390 12570 52303 10137 20118 40260 53010 60002 83830 333 10166 82820 84358 95990
AAXX 21184 60402 11130 80000 10126 20122 40237 53006 60112 76166 888// 333 10134 82703 83816 86640 95990
AAXX 21184 60419 11456 83406 10086 20075 40226 53008 60062 72162 838// 333 10085 83813 87620 95990
AAXX 21184 60475 11560 83221 10080 20063 39239 48499 53006 69912 888// 333 10099 83820 87833 95990
AAXX 21184 60490 12970 32605 10117 20062 40257 53004 60002 80002 333 10184 83073 95990
AAXX 21184 60525 12660 43114 10170 20057 40199 53006 60002 83230 333 10180 83840 95990
AAXX 21184 60531 12970 20000 10134 20020 40271 53005 60002 80002 333 10194 82073 95990
AAXX 21184 60566 12960 00000 10142 20038 40247 53007 60002 333 10176
AAXX 21184 60571 12965 10104 10151 21022 39321 48564 53005 60002 80001 333 10195 81073 95990
AAXX 21184 60580 12960 00000 10149 20045 40218 50003 60002 333 10202
AAXX 21184 60590 NIL
AAXX 21184 60611 12960 03007 10109 21021 40224 53009 60002 333 10158
AAXX 21184 60620 12960 03408 10123 21062 40261 53009 60002 333 10177
AAXX 21184 60630 12983 00312 10152 21033 40239 53008 60002 333 10190
AAXX 21184 60656 NIL
AAXX 21184 60670 12970 00000 10142 21048 39093 48524 53010 60001 333 10192 95990
AAXX 21184 60680 12970 03108 10141 21091 38663 48538 53006 60002 333 10188 95990
AAXX 21184 78526 12666 80714 10267 20194 30153 40174 58025 69901 91756 333 10278 20233 91021 555 92118
AAXX 21184 78543 12766 20417 10278 20194 30085 40167 58025 69901 91753 333 10283 20222 91025 555 92118
AAXX 21184 60351 11456 83210 10139 20128 40219 51006 60322 70166 889// 333 0//52 10144 83710 83816 81923 85626 95990
AAXX 21184 60355 NIL
AAXX 21184 60445 11450 73010 10074 20067 39059 48533 53011 60032 76162 832// 333 10087 83710 85826 95990
AAXX 21184 60468 11460 73310 10088 20072 39253 48520 58003 60012 70362 878// 333 10250 82810 87820 95990
AAXX 21184 60507 12965 40000 10104 20045 40275 53005 60002 80002 333 10169 84073 95990
AAXX 21184 60511 12560 32404 10053 20035 39121 48547 50000 60002 81502 333 10100 81626 83071 95990
AAXX 21184 60535 12565 73408 10069 20050 38887 48545 53006 60002 877// 333 10075 87723 95990
AAXX 21184 60536 12960 60000 10101 20040 39385 48553 53008 60002 80002 333 10145 86073 95990
AAXX 21184 60549 11960 00000 10099 20021 38992 48581 53010 60002 70200 333 10142 95990
AAXX 21184 60550 12960 20304 10066 20019 38729 48563 53003 60002 80002 333 10089 82073 95990
AAXX 21184 60555 12965 20000 10133 20058 40217 53005 60002 82030 333 10192 82360
AAXX 21184 60559 12960 20000 10139 20059 40214 53012 60002 81032 333 10169 81360
AAXX 21184 60581 12960 02404 10120 21001 40229 53005 60002 333 10170
AAXX 21184 60602 12960 00000 10156 21006 40255 55001 60002 333 10195 95990
AAXX 21184 60607 12960 02905 10150 21126 40257 53006 60002 333 10174
AAXX 21184 60640 12960 03406 10140 20011 40230 51010 60002 333 10185
AAXX 21184 60690 NIL
AAXX 21184 60360 11550 82309 10115 20113 40207 53010 60032 70266 889// 333 10146 83817 81930 86633 95990
AAXX 21184 60390 12570 52303 10137 20118 40260 53010 60002 83830 333 10166 82820 84358 95990
AAXX 21184 60402 11130 80000 10126 20122 40237 53006 60112 76166 888// 333 10134 82703 83816 86640 95990
AAXX 21184 60419 11456 83406 10086 20075 40226 53008 60062 72162 838// 333 10085 83813 87620 95990
AAXX 21184 60475 11560 83221 10080 20063 39239 48499 53006 69912 888// 333 10099 83820 87833 95990
AAXX 21184 60490 12970 32605 10117 20062 40257 53004 60002 80002 333 10184 83073 95990
AAXX 21184 60525 12660 43114 10170 20057 40199 53006 60002 83230 333 10180 83840 95990
AAXX 21184 60531 12970 20000 10134 20020 40271 53005 60002 80002 333 10194 82073 95990
AAXX 21184 60566 12960 00000 10142 20038 40247 53007 60002 333 10176
AAXX 21184 60571 12965 10104 10151 21022 39321 48564 53005 60002 80001 333 10195 81073 95990
AAXX 21184 60580 12960 00000 10149 20045 40218 50003 60002 333 10202
AAXX 21184 60590 NIL
AAXX 21184 60611 12960 03007 10109 21021 40224 53009 60002 333 10158
AAXX 21184 60620 12960 03408 10123 21062 40261 53009 60002 333 10177
AAXX 21184 60630 12983 00312 10152 21033 40239 53008 60002 333 10190
AAXX 21184 60656 NIL
AAXX 21184 60670 12970 00000 10142 21048 39093 48524 53010 60001 333 10192 95990
AAXX 21184 60680 12970 03108 10141 21091 38663 48538 53006 60002 333 10188 95990
AAXX 21184 60351 11456 83210 10139 20128 40219 51006 60322 70166 889// 333 0//52 10144 83710 83816 81923 85626 95990
AAXX 21184 60355 NIL
AAXX 21184 60445 11450 73010 10074 20067 39059 48533 53011 60032 76162 832// 333 10087 83710 85826 95990
AAXX 21184 60468 11460 73310 10088 20072 39253 48520 58003 60012 70362 878// 333 10250 82810 87820 95990
AAXX 21184 60507 12965 40000 10104 20045 40275 53005 60002 80002 333 10169 84073 95990
AAXX 21184 60511 12560 32404 10053 20035 39121 48547 50000 60002 81502 333 10100 81626 83071 95990
AAXX 21184 60535 12565 73408 10069 20050 38887 48545 53006 60002 877// 333 10075 87723 95990
AAXX 21184 60536 12960 60000 10101 20040 39385 48553 53008 60002 80002 333 10145 86073 95990
AAXX 21184 60549 11960 00000 10099 20021 38992 48581 53010 60002 70200 333 10142 95990
AAXX 21184 60550 12960 20304 10066 20019 38729 48563 53003 60002 80002 333 10089 82073 95990
AAXX 21184 60555 12965 20000 10133 20058 40217 53005 60002 82030 333 10192 82360
AAXX 21184 60559 12960 20000 10139 20059 40214 53012 60002 81032 333 10169 81360
AAXX 21184 60581 12960 02404 10120 21001 40229 53005 60002 333 10170
AAXX 21184 60602 12960 00000 10156 21006 40255 55001 60002 333 10195 95990
AAXX 21184 60607 12960 02905 10150 21126 40257 53006 60002 333 10174
AAXX 21184 60640 12960 03406 10140 20011 40230 51010 60002 333 10185
AAXX 21184 60690 NIL
AAXX 21181 28676 329// 51903 11151 21209 30325 40464 57006 80009 333 11130
AAXX 21181 28766 329// 82205 11131 21181 30267 40472 57008 80001 333 11125
AAXX 21181 28867 32998 22506 11196 21237 30205 40506 57011 80002 333 11163
AAXX 21181 28879 329// 02403 11154 21212 30192 40506 58004 333 11087
AAXX 21181 28952 329// 02001 11174 21208 30291 40502 57010 333 11147
AAXX 21181 28966 329// 31702 11210 21237 30229 40547 58001 83030 333 11174
AAXX 21181 29802 329// 82403 11130 21165 30297 40452 57009 86031 333 11139
AAXX 21181 29807 329// 02603 11146 21173 30335 40463 58012 333 11121
AAXX 21181 34691 31998 81107 11065 21111 30269 40256 57002 70232 8802/ 333 11058
AAXX 21181 35067 329// 00000 11252 21281 30226 40540 57004 333 11150
AAXX 21181 35078 329// 02402 11242 21271 30117 40546 57008 333 11195
AAXX 21181 35085 329// 02001 11227 21251 30004 40538 58003 333 11146
AAXX 21181 35108 319// 71507 11088 21143 30285 40333 57010 73633 80006 333 11081 91115
AAXX 21181 35188 329// 81602 11239 21268 30059 40550 58006 80004 333 11178
AAXX 21181 35217 329// 01308 11110 21146 30316 40358 53004 333 11095 91115
AAXX 21181 35229 329// 21401 11156 21203 30160 40460 58002 80001 333 11091
AAXX 21181 35229 NIL
AAXX 21181 35302 319// 81710 11098 21134 30302 40324 57008 73633 8807/ 333 11083
AAXX 21181 35357 329// 01403 11282 21313 30550 40550 58005 333 11213
AAXX 21181 35394 32998 20000 11229 21255 39792 40552 58003 80001 333 11155
AAXX 21181 35406 51408 11096 21149 30325 40327 57002 70232 85050 333 11085
AAXX 21181 35416 319// 61308 11128 21196 30264 40393 57004 73632 83075 333 11098 91115
AAXX 21181 35426 329// 21103 11155 21210 30130 40447 58012 80001 333 11125
AAXX 21181 35426 NIL
AAXX 21181 35497 329// 00000 11222 21270 39653 40544 58004 333 11113
AAXX 21181 35532 31993 01116 11202 21235 39918 40462 58014 73933 333 11163 91020
AAXX 21181 35532 NIL
AAXX 21181 35671 32998 03502 11188 21229 30047 40522 58007 333 11121
AAXX 21181 35700 31998 81309 11082 21134 30327 40302 53004 73633 8801/ 333 11065 91017 91119
AAXX 21181 35746 329// 00504 11183 21215 30396 40471 57010 333 11156
AAXX 21181 35796 32997 00404 11184 21230 30026 40505 52001 333 11130
AAXX 21181 35849 32998 00203 11190 21223 30363 40459 58011 333 11144
AAXX 21181 35925 NIL
AAXX 21181 35953 329// 00905 11180 21214 30323 40465 57008 333 11138
AAXX 21181 35969 329// 00504 11202 21240 30303 40497 57007 333 11153
AAXX 21181 36003 32998 22601 11154 21185 30312 40476 57008 80001 333 11126
AAXX 21181 36152 329// 01602 11250 21295 30292 40505 58009 333 11178
AAXX 21181 36177 329// 21301 11255 21277 30245 40524 58005 80001 333 11180
AAXX 21181 36208 329// 00201 11230 21259 39446 40537 53001 333 11142
AAXX 21181 36397 329// 01802 11221 21258 39905 40531 58003 333 11184
AAXX 21181 36428 329// 03602 11278 21303 39978 40548 58016 333 11195 95090
AAXX 21181 36535 329// 00000 11316 21345 39842 40577 58005 333 11268
AAXX 21181 36639 329// 00000 11290 21320 39827 40519 52001 333 11166
AAXX 21181 36821 129// 00000 11220 21245 39963 40511 52002 69900 333 11161
AAXX 21181 36859 119// 80701 11124 21164 39642 40482 52005 69920 70272 8802/ 333 11106
AAXX 21181 36864 329// 00000 11174 21210 39505 40488 58002 333 11139
AAXX 21181 36870 116// 20000 11170 21182 39369 40476 58006 69900 70171 82500 333 11140
AAXX 21181 38001 NIL
AAXX 21181 38062 329// 00703 11177 21227 30280 40460 57007 333 11148
AAXX 21181 38069 329// 00202 11119 21163 30230 40436 57002 333 11050
AAXX 21181 38196 32998 00902 11076 21166 39385 40420 57012 333 11059
AAXX 21181 38198 329// 00000 11169 21188 30159 40445 57008 333 11073
AAXX 21181 38222 32997 00000 11222 21247 39880 40508 58003 333 11153
AAXX 21181 38232 NIL
AAXX 21181 38328 319// 30000 11133 21146 39646 40436 57005 71011 83030 333 11046
AAXX 21181 38334 32998 00903 11148 21199 39397 40443 57004 333 11070
AAXX 21181 38341 31996 62101 11211 21229 39615 40495 58010 71022 80002 333 11161
AAXX 21181 38343 32997 00000 11204 21223 39550 40490 58013 333 11167
AAXX 21181 38439 32998 03602 11102 21138 39957 40421 57009 333 11060
AAXX 21184 91945 06/// /0112 10246 20223 30145 40150 50015 60041 333 69987
BBXX UANA 21181 99705 10518 41/95 92006 10023 40062 54000 75052 80000 22222 00035 20302
AAXX 21181 28676 329// 51903 11151 21209 30325 40464 57006 80009 333 11130
AAXX 21181 28766 329// 82205 11131 21181 30267 40472 57008 80001 333 11125
AAXX 21181 28867 32998 22506 11196 21237 30205 40506 57011 80002 333 11163
AAXX 21181 28879 329// 02403 11154 21212 30192 40506 58004 333 11087
AAXX 21181 28952 329// 02001 11174 21208 30291 40502 57010 333 11147
AAXX 21181 28966 329// 31702 11210 21237 30229 40547 58001 83030 333 11174
AAXX 21181 29802 329// 82403 11130 21165 30297 40452 57009 86031 333 11139
AAXX 21181 29807 329// 02603 11146 21173 30335 40463 58012 333 11121
AAXX 21181 34691 31998 81107 11065 21111 30269 40256 57002 70232 8802/ 333 11058
AAXX 21181 35067 329// 00000 11252 21281 30226 40540 57004 333 11150
AAXX 21181 35078 329// 02402 11242 21271 30117 40546 57008 333 11195
AAXX 21181 35085 329// 02001 11227 21251 30004 40538 58003 333 11146
AAXX 21181 35108 319// 71507 11088 21143 30285 40333 57010 73633 80006 333 11081 91115
AAXX 21181 35188 329// 81602 11239 21268 30059 40550 58006 80004 333 11178
AAXX 21181 35217 329// 01308 11110 21146 30316 40358 53004 333 11095 91115
AAXX 21181 35229 329// 21401 11156 21203 30160 40460 58002 80001 333 11091
AAXX 21181 35229 NIL
AAXX 21181 35302 319// 81710 11098 21134 30302 40324 57008 73633 8807/ 333 11083
AAXX 21181 35357 329// 01403 11282 21313 30550 40550 58005 333 11213
AAXX 21181 35394 32998 20000 11229 21255 39792 40552 58003 80001 333 11155
AAXX 21181 35406 51408 11096 21149 30325 40327 57002 70232 85050 333 11085
AAXX 21181 35416 319// 61308 11128 21196 30264 40393 57004 73632 83075 333 11098 91115
AAXX 21181 35426 329// 21103 11155 21210 30130 40447 58012 80001 333 11125
AAXX 21181 35426 NIL
AAXX 21181 35497 329// 00000 11222 21270 39653 40544 58004 333 11113
AAXX 21181 35532 31993 01116 11202 21235 39918 40462 58014 73933 333 11163 91020
AAXX 21181 35532 NIL
AAXX 21181 35671 32998 03502 11188 21229 30047 40522 58007 333 11121
AAXX 21181 35700 31998 81309 11082 21134 30327 40302 53004 73633 8801/ 333 11065 91017 91119
AAXX 21181 35746 329// 00504 11183 21215 30396 40471 57010 333 11156
AAXX 21181 35796 32997 00404 11184 21230 30026 40505 52001 333 11130
AAXX 21181 35849 32998 00203 11190 21223 30363 40459 58011 333 11144
AAXX 21181 35925 NIL
AAXX 21181 35953 329// 00905 11180 21214 30323 40465 57008 333 11138
AAXX 21181 35969 329// 00504 11202 21240 30303 40497 57007 333 11153
AAXX 21181 36003 32998 22601 11154 21185 30312 40476 57008 80001 333 11126
AAXX 21181 36152 329// 01602 11250 21295 30292 40505 58009 333 11178
AAXX 21181 36177 329// 21301 11255 21277 30245 40524 58005 80001 333 11180
AAXX 21181 36208 329// 00201 11230 21259 39446 40537 53001 333 11142
AAXX 21181 36397 329// 01802 11221 21258 39905 40531 58003 333 11184
AAXX 21181 36428 329// 03602 11278 21303 39978 40548 58016 333 11195 95090
AAXX 21181 36535 329// 00000 11316 21345 39842 40577 58005 333 11268
AAXX 21181 36639 329// 00000 11290 21320 39827 40519 52001 333 11166
AAXX 21181 36821 129// 00000 11220 21245 39963 40511 52002 69900 333 11161
AAXX 21181 36859 119// 80701 11124 21164 39642 40482 52005 69920 70272 8802/ 333 11106
AAXX 21181 36864 329// 00000 11174 21210 39505 40488 58002 333 11139
AAXX 21181 36870 116// 20000 11170 21182 39369 40476 58006 69900 70171 82500 333 11140
AAXX 21181 38001 NIL
AAXX 21181 38062 329// 00703 11177 21227 30280 40460 57007 333 11148
AAXX 21181 38069 329// 00202 11119 21163 30230 40436 57002 333 11050
AAXX 21181 38196 32998 00902 11076 21166 39385 40420 57012 333 11059
AAXX 21181 38198 329// 00000 11169 21188 30159 40445 57008 333 11073
AAXX 21181 38222 32997 00000 11222 21247 39880 40508 58003 333 11153
AAXX 21181 38232 NIL
AAXX 21181 38328 319// 30000 11133 21146 39646 40436 57005 71011 83030 333 11046
AAXX 21181 38334 32998 00903 11148 21199 39397 40443 57004 333 11070
AAXX 21181 38341 31996 62101 11211 21229 39615 40495 58010 71022 80002 333 11161
AAXX 21181 38343 32997 00000 11204 21223 39550 40490 58013 333 11167
AAXX 21181 38439 32998 03602 11102 21138 39957 40421 57009 333 11060
AAXX 21181 45032 36/// /2601 10146 20132 30176 40193 57001
AAXX 21181 45035 36/// /0703 10171 20098 30148 40190 57001
AAXX 21181 45039 36/// /0203 10176 20097 30175 40190 57001
AAXX 21181 45044 36/// /0404 10172 20147 30092 40187 57001
AAXX 21181 40701 11430 80000 11056 21063 38653 40332 51003 60001 71022 886// 333 55000 88715
AAXX 21181 40704 12970 02708 10032 21068 38648 40231 52009 60001 333 55084 20988
AAXX 21181 40708 12960 01608 10056 21054 38685 40201 53005 60001 333 55082 21027
AAXX 21181 40710 11620 12602 11134 21145 38368 40385 50005 60001 74241 81500 333 55007 81635
AAXX 21181 40713 11525 80000 11014 21027 38732 40312 53014 60001 71021 84607 333 55000 84720 88269
AAXX 21181 40719 11912 00000 10068 20064 30202 40192 50003 60001 71021 333 55027
AAXX 21181 40731 12960 00000 10004 21046 38791 40276 51002 60001 333 55086 21016
AAXX 21181 40738 11209 60000 10060 20055 30213 40215 58003 60001 74442 86600 333 55070 2//// 86706
AAXX 21181 40740 12960 00410 11058 21125 38788 40305 54000 60001 333 55088
AAXX 21181 40747 12960 00000 10008 21041 38683 40278 52009 60001 333 55077 20963
AAXX 21181 40757 12965 23301 10008 21097 38964 40284 51003 60001 80001 333 55087 21125 82070
AAXX 21181 40763 12965 10000 11006 21146 38992 40307 53002 60001 80001 333 55090 81070
AAXX 21181 40782 12960 00000 10034 21060 38938 40271 53012 60001 333 55085
AAXX 21181 40783 12965 01306 10006 21091 38041 40279 51006 60001 333 55090
AAXX 21181 40789 12965 00000 10018 21100 39278 40289 51005 60001 333 55090 21222
AAXX 21181 40798 12960 00000 11034 21127 38019 40320 51012 60001 333 55092 21377
AAXX 21181 40818 12970 00000 11016 21103 38032 40300 52019 60001 333 55093
AAXX 21181 40827 12960 00000 11022 21143 38912 40342 51005 60001 333 55094
AAXX 21181 40836 12965 09901 10050 21093 38253 40268 52016 60001 333 55094 21447
AAXX 21181 40851 12960 00000 11030 21152 38316 40290 51009 60001 333 55085
AAXX 21181 40853 12960 00603 10020 21174 37790 40243 52007 60001 333 55097
AAXX 21181 40854 12960 00000 10036 21146 39019 40258 50000 60001 333 55084
AAXX 21181 40857 12960 00103 10172 20133 30220 40230 51009 60001 222// 00/// 20000 333 55085
AAXX 21181 40859 12965 03202 10030 21081 38769 40233 52012 60001 333 55096
AAXX 21181 40878 12960 00406 10036 21388 38903 40287 51007 60001 333 55096
AAXX 21181 40879 12960 03602 10060 21273 39556 40259 51009 60001 333 55098
AAXX 21181 40883 12960 03403 10152 21049 30188 40210 51008 60001 333 55096
AAXX 21181 40898 11958 03403 10180 21114 30201 40211 51013 60001 70500 222// 00241 10500 333 55090 2////
BBXX 3ERR2 21184 99635 10053 41599 81612 10039 20020 40058 57021 70222 885// 22200 06098 11205 70025 333 91123
BBXX LF3F 21184 99643 10078 43/// /2513 10042 21056 40067 57003 22200 04085 10805 70026 333 91128
BBXX LF3N 21184 99653 10073 41597 62612 10035 21049 40049 54000 71582 86300 22200 00089 10805 70023
BBXX LF4B 21184 99606 10037 47/98 /1521 10045 40088 57021 700// 22200 00054 10703 70017 333 91123
BBXX LF4C 21184 99584 10019 41496 81724 10070 20061 40066 57043 76062 89/// 22200 00078 10603 70014 333 91126
BBXX LF5T 21184 99660 10081 414// /2613 10027 21014 40039 57002 70282 22200 06082 10806 70029 333 91121
BBXX 46207 21181 99509 71299 46/// /1804 10075 40311 57011 22200 00081 11305 70026 333 91205
AAXX 21180 44214 NIL
AAXX 21180 44231 NIL
AAXX 21180 44259 NIL
AAXX 21180 44277 NIL
AAXX 21180 44288 NIL
AAXX 21180 44292 NIL
AAXX 21180 44304 NIL
AAXX 21180 44354 329// 02909 11160 21202 39184 40381 58008
AAXX 21180 44373 32999 02702 11180 21229 38617 40451 56012
AAXX 21181 45032 36/// /2601 10146 20132 30176 40193 57001
AAXX 21181 45035 36/// /0703 10171 20098 30148 40190 57001
AAXX 21181 45039 36/// /0203 10176 20097 30175 40190 57001
AAXX 21181 45044 36/// /0404 10172 20147 30092 40187 57001
AAXX 21181 01025 17884 82205 10020 21016 30030 40041 54001 60002 700// 333 10022 91108
AAXX 21181 01311 47/84 81404 11004 21022 30048 40112 58009 700// 333 11001 91106
AAXX 21184 91165 12566 60519 10228 20183 30142 40176 53012 60011 91753 333 10239 20206 91026 555 92118
AAXX 21184 91182 32566 60708 10220 20190 30161 91802 555 92118
AAXX 21184 91190 32566 20508 10220 20172 30151 40170 51014 91754 333 10222 20206 555 92118
AAXX 21184 91212 12566 40807 10267 20222 31342 40078 56013 69901 91754 333 10294 20256 555 92118
AAXX 21184 91285 31461 83003 10210 20200 30151 761// 91802 555 92118
AAXX 21184 91348 11474 80603 10268 20249 30008 40061 57012 60041 72582 8527/ 333 56199 70058 555 92118
AAXX 21184 87344 32562 13614 10414 20106 39457 49968 57029 81400 333 56700 81630
AAXX 21184 87349 31456 13417 10414 20151 39612 49979 57035 70500 81200 333 56300 57833 81810
AAXX 21184 87371 32962 00516 10376 20192 39996 40016 57035
AAXX 21184 87374 32965 03625 10350 20164 39934 40018 57027
AAXX 21184 87395 32965 10525 10376 20110 30006 40049 57028 80006 333 56005 81270
AAXX 21184 87418 32965 01109 10318 20068 39241 49995 57019
AAXX 21184 87436 32670 12706 10350 20103 39220 49980 57020 81200 333 56100 57823 81840
AAXX 21184 87448 32565 21810 10358 20154 39464 49993 57008 82300 333 56500 57911 81830 81940
AAXX 21184 87453 31565 61814 10376 20127 39504 49962 57020 71790 84920 333 56550 57951 84830 82940
AAXX 21184 87467 31960 13618 10387 20211 39856 49982 57035 70710 80006 333 56005 81270
AAXX 21184 87497 NIL
AAXX 21184 87506 32670 12712 10282 21088 38526 48452 53011 81100 333 56600 81835 95000
AAXX 21184 87509 31560 10505 10301 20063 39205 40018 57017 70600 81100 333 56700 81830 90061 90079 90085
AAXX 21184 87534 31558 23612 10391 20158 39825 49977 57024 70790 82200 333 56700 57873 82830
AAXX 21184 87548 31657 53624 10323 20227 39909 40001 57033 70722 84983 333 56766 57937 83645 81950 83360
AAXX 21184 87576 32760 70214 10342 20173 30014 40038 57025 81276 333 56555 57840 81856 86360
AAXX 21184 87582 32960 60502 10275 20204 30036 40043 57028 84076 333 56011 84360 86270
AAXX 21184 87585 32560 70506 10316 20207 30009 40037 58044 86506 333 56100 86620
AAXX 21184 41258 36/// /1502 10217 20104 30207 40211 333 0E/// 10246 58009
AAXX 21184 41270 36/68 /0111 10204 20060 30156 40168 333 0E020 10240 58012
AAXX 21184 91245 32566 40716 10260 20240 30134 91755 555 92118
BBXX 46207 21181 99509 71299 46/// /1804 10075 40311 57011 22200 00081 11305 70026 333 91205
AAXX 21181 22165 22165 11598 81705 10000 21015 30022 40084 58011 69950 70282 885// 333 10006
AAXX 21181 22676 32484 81502 11062 21074 30093 40173 57005 885// 333 11023
AAXX 21181 22837 32584 70601 11049 21066 30066 40138 57003 87500 333 11039 87620
AAXX 21181 22954 11396 81301 11075 21088 39894 40153 52003 60020 77172 8872/ 333 11053 86707
AAXX 21181 23405 11470 81903 11075 21105 30078 40181 58002 69900 70232 885// 333 11010 88611
AAXX 21181 23412 11498 81804 11086 21105 30093 40195 58002 69960 77172 8872/ 333 11035 86710
AAXX 21181 23803 11599 81803 11073 21090 30042 40230 57009 69940 70282 889// 333 11077 88920
AAXX 21181 27066 11498 81701 11072 21081 39998 40183 53004 60040 70277 8655/ 333 11071 86618
AAXX 21181 27083 NIL
AAXX 21181 27113 11360 80901 11054 21068 39983 40134 53004 60050 70272 885// 333 11040 86709
AAXX 21181 27242 11497 81802 11053 21060 30021 40153 52004 60030 78582 889// 333 11055 88714
AAXX 21181 27329 11572 81603 11041 21060 30010 40139 52006 60080 70272 885// 333 11041
AAXX 21181 27355 32497 81603 11060 21064 30013 40184 53006 60010 885// 333 11055
AAXX 21181 27373 11496 81605 11077 21095 39982 40210 52001 69950 77073 8872/ 333 11075 88710
AAXX 21181 27665 31397 81304 11071 21088 39914 40196 58005 77742 886// 333 11072 88709
AAXX 21181 27835 11396 80000 11005 21017 39973 40133 56001 60020 76676 8872/ 333 11017 87707 93402
AAXX 21181 28009 11998 81904 11061 21101 30029 40248 57002 60010 73632 8802/ 333 11060
AAXX 21181 28411 31797 81607 11067 21128 30103 40307 58004 73632 8357/ 333 11053
AAXX 21181 28418 31598 81803 11057 21134 30144 40318 58004 70232 885// 333 11050 88626
AAXX 21181 22282 129// 63606 11007 21014 30086 40094 54000 69950 86050 333 11003
AAXX 21181 22438 NIL
AAXX 21181 22471 11368 82004 11014 21025 30114 40138 52005 78582 69990 889// 333 11003 86706
AAXX 21181 22563 12397 82003 11037 21042 30123 40163 58005 60020 886// 333 11015 88708
AAXX 21181 22641 11499 81202 11012 21025 30129 40145 52004 69900 70272 886// 333 10012 86628 91105
AAXX 21181 22695 11498 81802 11086 21110 30031 40191 57005 69900 70272 885// 333 11067 88618
AAXX 21181 22867 11397 81201 11071 21084 30039 40157 57002 60040 77172 8872/ 333 11042 86708 91104
AAXX 21181 22939 11496 81301 11063 21075 39970 40137 52004 60030 77177 8872/ 333 11044 84710
AAXX 21181 22996 11595 81704 11078 21088 30015 40213 57005 69970 78587 8392/ 333 11069
AAXX 21181 23324 11357 82303 11072 21089 30113 40193 58005 69930 77172 8872/ 333 11052 86709
AAXX 21181 27008 11598 80901 11054 21061 39955 40130 52008 60030 70272 885// 333 11043
AAXX 21181 27051 11396 81502 11068 21080 39991 40164 53002 60070 77172 8652/ 333 11054 84709
AAXX 21181 27225 11465 81502 11042 21065 39998 40132 52004 60060 70272 885// 333 11044 88618
AAXX 21181 27252 11496 81603 11068 21073 39979 40172 52003 60020 71072 886// 333 11063 88715
AAXX 21181 27333 11984 81806 11052 21066 39983 40145 54000 69990 70272 8805/ 333 11052
AAXX 21181 27369 11697 81603 11067 21086 30056 40199 52003 69960 70272 885// 333 11066
AAXX 21181 27393 31498 82006 11071 21114 30076 40251 57001 73632 8567/ 333 11065 91113
AAXX 21181 27479 11598 81605 11075 21088 30072 40212 58002 69930 73673 885// 333 11069 88621
AAXX 21181 27532 11296 81502 11049 21055 39924 40143 52003 69930 71072 885// 333 11051
AAXX 21181 27648 11296 81402 11039 21047 39985 40159 58002 69930 77175 886// 333 21064 88705
AAXX 21181 27675 31497 81507 11076 21094 30041 40219 58006 73632 885// 333 11074 88616
AAXX 21181 27679 31498 81407 11080 21098 39996 40230 58006 73632 885// 333 11079 88618
AAXX 21181 28214 31796 82008 11058 21110 30050 40271 57001 73832 885// 333 11056
AAXX 21181 34560 32597 81309 11007 21061 30021 40191 57004 8457/ 333 10009
AAXX 21181 34720 11599 61906 10052 20046 30080 40120 52004 60020 70262 86500 333 10066
AAXX 21181 34730 11496 61904 10067 20056 30038 40129 52011 69900 71011 83530 333 10091
AAXX 21181 34740 11494 81203 10048 20047 30059 40155 51014 60010 71082 886// 333 10081
AAXX 21181 34824 11996 02202 10072 20061 30129 40134 52011 60010 71081 333 10080
AAXX 21181 34858 31495 81802 10041 20037 30065 40173 53015 71022 886// 333 10050
AAXX 21181 34866 11998 81105 10023 20020 30188 40179 50001 69930 70255 8007/ 333 10057
AAXX 21181 34880 31996 80803 11011 21071 30241 40214 50005 70532 8802/ 333 10027 88400
AAXX 21181 37018 11598 80000 10095 20076 30102 40177 53009 60080 70282 8697/ 333 10155
AAXX 21181 37054 31996 00000 10018 20016 39793 40183 53014 71010 333 10050
AAXX 21181 37472 31996 82801 10054 20027 30198 40175 51021 71022 8807/ 333 10086
AAXX 21183 87480 32962 20521 10383 20167 39980 40008 57027 80002 333 56003 82070
AAXX 21183 87532 11660 71818 10278 20163 39850 40014 57008 69961 72992 81862 333 56777 83360 96107
BBXX BATFR08 21184 99388 30777 46/// /2723 10154 20117 40213 53001 22282 00159
BBXX BATFR53 21184 99185 51756 44598 50613 10277 20224 40102 51010 70222 84278 22222 00284 201// 30421 403// 505// 60/// ICE 0////
BBXX BATFR35 21184 99165 51518 46/// /0923 10229 20194 40113 22221 00294
BBXX BATEU07 21184 99242 31110 46/// /1720 10229 40110 58017 22284
BBXX DCAX2 21183 99035 11641 41697 51006 10280 20237 40060 54000 7//11 85546 22233 20705 3//// 4//// 5//// 80250
BBXX IDDUK02 21184 99540 50381 46/// ///// 40010 222//
AAXX 2118/ 89769 46/// ///// 11046 39754 4//// 5////
AAXX 2118/ 89314 46/// ///// 11078 38293 4//// 5////
AAXX 21181 08501 NIL
AAXX 21181 08505 32365 71606 10184 20162 30184 40234 56008 86832 333 10197 82708 83811 85630 555 60007
AAXX 21181 08506 32/// /2007 10178 20160 30165 40236 57004 333 10185 91012 91113 555 60005
AAXX 21181 08509 31560 81407 10174 20160 30182 40247 57006 71011 8783/ 333 10184 82812 84825 87650 91113 555 60007
AAXX 21181 08511 32/// /1804 10168 20167 30141 40249 57005 333 10181 91006 91108 555 60005
AAXX 21181 08512 32480 61607 10174 20140 30176 40261 57002 81830 333 10183 81815 85357 555 60005
AAXX 21181 08515 32475 71408 10177 20156 30144 40267 56007 81130 333 10193 81814 87356 910// 911// 555 60007 912//
AAXX 21181 08521 NIL
AAXX 21181 08522 32570 19902 10180 20074 30218 40287 57002 81500 222// 313// 40302 333 10203 81630 91005 91109 555 60005
AAXX 21181 08524 32470 30704 10168 20110 30200 40298 54000 83800 333 10194 82815 91007 91107 555 60005
AAXX 21181 08530 NIL
AAXX 21181 08531 32/// /0206 10150 20121 30273 40311 52002 333 10160 555 60005
AAXX 21181 08532 NIL
AAXX 21181 08533 32/// /0103 10139 20121 30265 40295 52003 333 10167 91006 91108 555 60005
AAXX 21180 08534 32965 09902 10140 20123 30283 40301 53001 333 10190 555 60007
AAXX 21181 08535 32/// /3504 10144 20106 30209 40302 52001 333 10193 91007 91107 555 60005
AAXX 21181 08537 NIL
AAXX 21181 08540 32460 23202 10122 20100 30240 40310 53003 82800 333 10154 81815 555 60007
AAXX 21181 08541 32/// /3203 10123 20108 30178 40298 54000 333 10162 555 60005
AAXX 21181 08544 32960 10102 10116 20105 30282 40303 50002 80001 333 10160 81070 555 60007
AAXX 21181 08545 31958 01101 10123 20096 30226 40311 57003 71000 333 10157 555 60005
AAXX 21181 08548 32/// /2601 10111 20096 30102 40311 52001 333 10145 555 60005
AAXX 21181 08551 31964 09901 10121 20108 30253 40312 54000 70200 333 10156 555 60005
AAXX 21181 08554 32965 03202 10164 20106 30278 40288 52002 333 10189 555 60005
AAXX 21181 08558 32/// /3503 10105 20085 39999 40298 54000 333 10160 555 60005
AAXX 21181 08560 31965 09901 10132 20091 39550 40307 53003 70200 333 10177 555 60005
AAXX 21181 08561 NIL
AAXX 21181 08562 12/// /3203 10120 20102 39996 40293 57001 69912 333 10148 555 60005
AAXX 21181 08567 12/// /1701 10080 20074 39649 40326 52002 69912 333 10139 555 60005
AAXX 21181 08568 32/// /3005 10111 20043 38750 48620 54000 333 10157 91108 555 60005
AAXX 21181 08570 31970 02902 10132 20092 39837 40297 52003 70200 333 10187 555 60005
AAXX 21181 08571 32/// /3504 10113 20090 39596 40303 52002 333 10154 555 60005
AAXX 21181 08575 32/// /0000 10052 20048 39505 40338 52003 333 10067 555 60005
AAXX 21181 08579 32/// /2403 10137 20106 30177 40303 52002 333 10187 91006 91106 555 60005
AAXX 21183 78970 11450 70711 10296 20225 30089 40114 60011 71582 8787/ 333 02299 10317 20243 59004 83816 87636 90945
AAXX 21183 78962 11461 70213 10276 20220 30114 40122 69931 71582 86832 333 02199 10286 20231 59012 84812 85635 90960
AAXX 21184 60353 NIL
AAXX 21184 60367 11560 7//// 10109 20097 40173 58007 60062 76162 878// 333 10137 83820 87840
AAXX 21184 60369 12560 52709 10159 20084 40246 53008 60002 83880 333 10180 82826 91837
AAXX 21184 60401 NIL
AAXX 21184 60403 11550 83209 10108 20092 40215 53003 60152 76166 888// 333 10130 83820 87833 95990
AAXX 21184 60425 12565 60000 10124 20080 40264 53006 60002 81104 333 10160 81830 86073 95990
AAXX 21184 60461 12970 50000 10148 20072 40258 52006 60002 80002 222// 20000 333 10187 85073 91818 95990
AAXX 21184 60467 12670 63020 10126 20083 40239 53010 60002 86831 333 10150 86833 95990
AAXX 21184 60492 12962 22602 10122 20064 40265 53009 60002 80001 333 10176 82073 95990
AAXX 21184 60515 12660 33214 10124 20076 40254 53024 60002 82230 333 10166 82833 95990
AAXX 21184 60517 12970 71605 10147 20080 40258 53003 60002 80002 333 10187 87073 95990
AAXX 21184 60522 12970 30000 10120 20050 40279 53002 60002 80001 333 10188 83073 95990
AAXX 21184 60557 11970 20000 10092 21002 38927 48563 53009 60002 70100 80002 333 10130 82073 95990
AAXX 21184 60563 12960 33614 10114 20036 39345 48542 53006 60002 80002 333 10156 83073
AAXX 21184 60603 12960 02706 10111 21046 40258 53008 60002 333 10155
AAXX 21184 60638 12960 0//// 10108 21027 40240 53005 60002 333 10159
AAXX 21184 60686 12960 23410 10191 21046 40187 57005 60002 80002 333 10230 82073
AAXX 21181 14235 12760 6//// 11021 21063 38991 48438 52011 60002 86070 333 11016 47024
AAXX 21181 14246 11465 62202 10003 21018 39958 40168 52/// 60002 700// 86600 333 10035
AAXX 21181 14314 12680 33402 10071 21049 30090 40156 51/// 60002 81102 333 10099 92311 92418
AAXX 21181 14323 11682 70606 10071 21032 30124 40159 53/// 60002 702// 87500 333 10095 92323 92438
AAXX 21181 14324 12980 30905 11061 21103 38349 48458 51/// 60002 80002 333 11021 44042
AAXX 21181 14328 11640 82101 11020 21028 39767 40177 51/// 60002 710// 885// 333 10043 43021
AAXX 21181 14330 11530 30000 11083 21093 39486 40194 53/// 60002 710// 83600 333 11016 47017 92802
AAXX 21181 14438 11684 10304 10043 21059 30051 40144 53/// 60002 702// 81400 333 10090 923//
AAXX 21181 14443 32699 236// 10085 20020 30033 40132 52001 82800 333 10097 92312
AAXX 21181 14447 NIL
AAXX 21181 14472 12980 00302 10060 21075 30052 40117 57004 60002 333 10099 92312
AAXX 21181 60370 36/// /2705 10152 20121 333 10169
AAXX 21181 60371 36/// /2002 10151 20120 333 10161
AAXX 21181 60372 36/// /3005 10122 20122 333 10133
AAXX 21181 60373 NIL
AAXX 21181 60374 NIL
AAXX 21181 60376 NIL
AAXX 21181 60379 NIL
AAXX 21181 60380 NIL
AAXX 21181 60381 NIL
AAXX 21181 60393 NIL
AAXX 21181 60394 NIL
AAXX 21181 60593 NIL
AAXX 21181 60595 NIL
AAXX 21181 60605 NIL
AAXX 21181 60613 NIL
AAXX 21181 60623 NIL
AAXX 21184 60624 36/// /0000 10171 21036 333 10197
AAXX 21184 60639 NIL
AAXX 21184 60645 36/// /0000 10157 21075 333 10193
AAXX 21184 62002 32960 32718 10098 21047 39463 48501 53005 83040 333 10112 83360
AAXX 21184 62010 31615 62716 10138 21027 40164 52003 70722 82570 333 10150 82640 85358
AAXX 21184 62053 12560 21910 10104 20041 40173 50003 60022 82500 333 0//19 10174 82620
AAXX 21184 62124 32960 02105 10142 20016 39694 40210 52008 333 10188
AAXX 21184 62271 32960 00000 10158 20019 40228 51007 333 10199
BBXX A8SF7 21181 99098 70790 41598 50609 10300 20258 40100 58010 7//11 8544/ 22264 04270 20904 305// 41204 5//// 80270
BBXX DDLK 21183 99463 70398 41397 62739 10076 21015 40070 52010 70322 862/0 22223 20810 326// 41210 80038
BBXX 41101 21184 99146 70562 46/// /0720 10266 20214 40128 57018 22200 00271 10805 70025 555 1/025
BBXX BAREU54 21184 99120 70798 46/// ///// 40082 57019 22213
BBXX BAREU11 21184 99316 70535 46/// ///// 40244 57017 22214
BBXX BAREU04 21184 99485 70487 46/// ///// 40108 52060 22253
BBXX BATFR14 21184 99353 70360 44498 73018 10120 20112 40222 70222 89/// 22214 20202
BBXX FVNM 21184 99074 70793 46/// /3404 10270 20230 40085 58017 22200 00277
BBXX BATFR14 21184 99353 70360 44498 73010 10199 20157 40188 53001 70222 8726/ 22214 00207 202// 312// 407// 5//// 60000 ICE 0/0//
BBXX BAREU06 21184 99459 70527 46/// ///// 40196 52006 22224
BBXX BATEU08 21184 99622 70502 46/// /0715 11062 21128 49950 53004 22283
BBXX DGPT2 21184 99164 70258 41598 11917 10250 20183 40130 54000 70300 811// 22214 00240 29901 303// 41202 80205
BBXX DCPX2 21183 99114 10634 41/98 60422 10265 20219 40130 70222 8//// 22224 00270 2//// 80232
BBXX BATFR56 21184 99192 30584 46/// /1024 10257 20207 40150 51019 22213 00284
BBXX BATFR55 21184 99082 30424 44598 73413 10269 20247 40118 70322 86232 22262 00294 20802 32121 410// 510//
BBXX BATFR19 21184 99066 30057 46/// /1914 10234 20189 40128 52008 22200 00252
BBXX DHSI 21184 99295 70141 41298 50513 10220 20158 40265 50000 70322 85700 22214 00180 21002 305// 41203 80180
AAXX 21181 38933 116// 21802 11051 21115 39864 40414 57014 69920 70171 82500 333 11006
AAXX 21181 38744 429// 40903 11116 21159 38050 47590 58003 80002
AAXX 21181 38844 429// 00503 11064 21146 48540 54010
AAXX 21181 38836 326// 50000 11101 21137 39403 40420 58007 83903 333 11030
AAXX 21184 91648 11599 70914 10281 20248 40067 60001 70222 83208 333 562/9
AAXX 21181 38846 419// 00404 11148 21166 38586 48550 52003 71000
BBXX BAREU63 21184 99382 10156 46/// /2110 10115 29065 40076 52045 22283
BBXX TESTFR9 21184 99507 70011 46/// /3017 10110 29097 40238 52009 22214
BBXX 61001 21184 99434 10078 46/// /2008 10123 20036 40138 57006 22200 00146 10702 70008
BBXX BAREU00 21184 99499 70043 46/// ///// 40258 52008 22223
BBXX BAREU51 21184 99383 10134 46/// ///// 40125 52003 22245
BBXX BAREU62 21184 99398 10259 46/// ///// 40150 52007 22284
BBXX BATFR27 21184 99494 70037 46/// /3021 10120 20094 40259 53044 22255 00129
BBXX BATFR20 21184 99432 10053 46/// ///// 10117 20054 40170 22234
BBXX BATFR02 21184 99500 70006 46/// /2820 10122 20104 40231 51021 22244 00127
BBXX BATFR09 21184 99366 70093 44498 53617 10157 20117 40292 58009 70222 85100 22223 00175 20304 60//0 ICE 0/0//
BBXX BATFR11 21184 99418 10099 46/// ///// 10127 20032 40149 53004 22284 00154
BBXX BATFR33 21184 99422 10074 46/// /3120 10134 20062 40139 58006 22274 00147
BBXX BATFR52 21184 99507 70011 46/// /2917 10112 20094 40222 55004 22213 00094
BBXX BATEU04 21184 99593 10032 46/// /1724 10065 20020 40090 58031 22273
BBXX BATFR04 21184 99584 70062 46/// /2429 10114 20097 40032 53001 22200 00102
BBXX BATFR46 21184 99402 10018 44/97 22215 10162 20119 40224 56003 70131 8//2/ 22213 00159 22002 323// 42502 5////
BBXX BATEU05 21184 99581 70344 46/// /3011 10019 21013 49938 53015 22223
BBXX BATFR01 21184 99349 10249 46/// /2218 10164 20095 40150 58002 22262 00182
BBXX BATFR42 21184 99502 70017 46/// /2622 10119 20104 40231 22243 00125
BBXX BATFR12 21184 99480 70068 46/// /3013 10132 20110 40309 51021 22251 00144
BBXX BATEU01 21184 99497 70047 46/// /2817 10122 20100 40264 52004 22224 00124
BBXX BATUK01 21184 99577 70031 46/// /2317 10099 20062 40056 56010 22200 00074
BBXX SHIP 21184 99427 70314 41092 82039 10160 20154 40115 56015 76565 887// 22253 04150 20610 318// 40812 80156
BBXX 61002 21184 99421 10047 46/// ///33 10151 2//// 40190 52006 22200 00139 10707 70034 555 1/044
AAXX 21184 60395 11460 60000 10134 20117 40238 53006 60032 70162 86200 333 10139 82710 86840 95990
AAXX 21184 60421 NIL
AAXX 21184 60423 11658 83328 10065 20063 39199 48468 50003 60222 76062 888// 333 10073 83833 87640 95990
AAXX 21184 60430 12560 43008 10090 20070 40272 53003 60002 82202 333 10122 82823 83073 95990
AAXX 21184 60437 11212 82202 10060 20048 39035 48530 53008 60002 71022 888// 333 10080 83703 83810 85626 95990
AAXX 21184 60444 12560 83608 10086 20064 39131 48541 53010 69932 888// 333 10105 82826 87830 95900
AAXX 21184 60452 12965 4//// 10150 20091 40251 53005 60002 80002 222// 20000 333 10188 84073 91826
AAXX 21184 60457 12565 30000 10112 20090 40263 53004 60002 81101 333 10175 81820 83073 95990
AAXX 21184 60514 12560 52606 10075 20053 39349 48569 53010 60002 83502 333 10115 83626 83073 95990
AAXX 21184 60518 12965 50000 10156 20015 40243 50001 60002 80002 222// 20000 333 10198 85073 91807 95990
AAXX 21184 60520 12960 50000 10086 20044 40275 53007 60002 80001 333 10168 85073 95990
AAXX 21184 60540 11960 33607 10084 20001 39071 48526 51003 60002 70200 80002 333 10142 83073 95990
AAXX 21184 60560 11960 10000 10128 21037 39023 48563 54001 60002 70200 80001 333 10143 81073 95990
AAXX 21181 50844 32962 03404 11178 21276 40262 52020 333 11064
AAXX 21181 50854 32970 02903 11166 21253 40230 52018 333 11076
AAXX 21181 50968 32662 82504 11125 21154 40209 52008 885// 333 11070
AAXX 21181 51379 11770 82201 11173 21198 40507 57004 69921 77070 885// 333 05505 11123
AAXX 21181 51467 32980 03603 11126 21198 38355 57008 333 05254 11036
AAXX 21181 51495 32980 03605 11124 21202 40440 57014 333 05356 11036
AAXX 21181 53480 32980 02903 11142 21213 40405 57005 333 11086
AAXX 21181 53673 32980 03605 11064 21184 40379 57002 333 11010
AAXX 21181 53698 32962 00000 11041 21109 40353 57001 333 10079
AAXX 21181 53898 32966 03201 11027 21094 40353 54000 333 10092
AAXX 21181 54308 32980 03405 11111 21210 40355 52007 333 11060
AAXX 21181 54602 32961 01402 11047 21154 40345 52002 333 10058
AAXX 21181 54725 32965 02901 11058 21134 40347 52001 333 10025
AAXX 21181 54751 32562 30403 11006 21060 40315 52011 83500 333 10043
AAXX 21181 54916 32960 20000 11040 21065 40349 52008 80002 333 10055
AAXX 21181 57014 32965 02702 11049 21083 40373 57003 333 00457 10042
AAXX 21181 57025 32960 03602 11038 21092 40381 57007 333 10058
AAXX 21181 57046 32962 02906 11107 21108 38003 57008 333 00254 11061
AAXX 21181 58208 31957 00201 10002 21012 40330 57003 71000 333 10078
AAXX 21181 38954 328// 80000 11071 21206 37947 48560 52001 8651/ 333 11049
AAXX 21181 38838 429// 00503 11084 21112 39692 40415 58005
AAXX 21181 38598 429// 00000 11056 21074 40424 57007
AAXX 21184 91648 11599 70914 10281 20248 40067 60001 70222 83208 333 562/9
AAXX 21181 40700 12960 00000 11002 21014 30106 40198 51003 60001 333 55075
AAXX 21181 40723 12960 00000 11046 21104 38966 40300 53002 60001 333 55080 21064
AAXX 21181 40726 11956 00000 11012 21030 38712 40292 51004 60001 71022 333 55025
AAXX 21181 40727 12960 21503 11012 21048 38536 40302 52010 60001 80002 333 55065 20873 82070
AAXX 21181 40734 12960 00000 10056 20051 30218 40192 57009 60001 333 55037
AAXX 21181 40737 12960 10000 10042 20042 30177 40195 58002 60001 80001 333 55073 2//// 81070
AAXX 21181 40741 12960 00000 11030 21097 39987 40344 57016 60001 333 5580
AAXX 21181 40780 12960 00902 10040 21090 38745 40255 53008 60001 333 55086 21230
AAXX 21181 40791 12960 00000 10030 21159 39429 40284 51007 60001 333 55093 2////
AAXX 21181 40792 12970 00302 11030 21112 38784 40300 51005 60001 333 55095
AAXX 21181 40794 12960 00000 10106 20086 30130 40230 51014 60001 333 55085 2////
AAXX 21181 40812 12960 00000 10130 20038 39840 40221 53007 60001 333 55090
AAXX 21181 40829 11956 01302 11015 21232 39700 40306 51005 60001 70600 333 55075
AAXX 21181 40833 12960 00000 10132 20070 30200 40232 53003 60001 91750 333 55089
AAXX 21181 40835 12960 00000 10114 20001 39395 40240 52007 60001 333 55090
AAXX 21181 40845 NIL
AAXX 21181 40882 12962 00000 10192 20058 30176 40211 51008 60001 333 55092
AAXX 21181 40889 NIL
AAXX 21181 40890 NIL
AAXX 21181 40893 12960 03303 10210 20016 30205 40211 51010 60001 222// 00/// 20501 333 55095
AAXX 21181 40897 15960 00403 10122 21101 30202 40217 50010 60001 333 55096
AAXX 21184 87078 32670 63604 10404 20200 39896 40037 57031 86100 333 56800 86840
AAXX 21184 87244 NIL
AAXX 21184 87393 31958 10515 10384 20144 39992 40053 57035 70410 80005 333 56005 81270
AAXX 21184 87416 32965 01408 10323 20086 39289 49995 57023
AAXX 21184 87563 NIL
AAXX 21184 87640 32865 83610 10267 20159 39917 4//// 58013 81976 333 56776 57970 81957 84360
AAXX 21184 87688 11440 80000 10205 20188 39918 40053 57007 60091 76196 885// 333 56899 88614
AAXX 21184 87774 31/03 92524 10178 20043 39062 48420 5//// 70700 333 89/04
AAXX 21184 87852 31582 32527 10124 21053 39518 40026 56004 71500 83200 333 56600 57847 83828
AAXX 21184 87593 32960 50512 10316 20170 30021 40047 57027 80008 333 56001 85270
AAXX 21184 87623 31740 11614 10312 20113 39816 40031 57011 70710 81280 333 56760 57815 81850
AAXX 21184 87641 11665 81402 10284 20205 39865 40032 57016 69911 70292 8227/ 333 56009 57800 82836 88360
AAXX 21184 87645 11570 80708 10242 20181 39844 40044 55007 69981 78098 8542/ 333 56669 85625 88540
AAXX 21184 87648 11660 70706 10291 20164 30032 40042 58003 69901 72996 81980 333 56660 57910 81945 86360 90104
AAXX 21184 87692 11556 81107 10214 20199 30038 40064 50005 69921 76062 8352/ 333 56669 83630 85545 96010
AAXX 21184 87715 32975 22312 10268 21006 39748 40056 57023 80001 333 56005 82070
AAXX 21184 87750 31940 72305 10290 20043 39950 40045 57012 70422 87070 333 56070 87360
AAXX 21184 87765 31550 42932 10126 21008 39142 48440 54000 73232 83570 333 56660 83625 96104 96120
AAXX 21184 87784 31960 02717 10278 21069 30029 30053 57017 70400 333 99355
AAXX 21184 87800 32680 63610 10151 20042 39716 40115 53005 86500 333 56600 86640
AAXX 21184 87803 11575 52917 10081 21021 39180 40107 52009 69901 71561 85500 333 56600 82625 83630
AAXX 21184 87828 32680 62710 10192 21007 30000 40050 58003 86800 333 56000 83835 83640
AAXX 21184 87860 31575 52725 10191 21099 39956 40010 57015 71411 85260 333 56760 57896 82830 83835 96007
AAXX 21184 87904 32680 62720 10126 21062 39756 40000 57004 82475 333 56666 82640 83270
AAXX 21184 87909 31580 60717 10125 20007 39922 49997 55007 71422 84206 333 56500 57854 84830 83070
AAXX 21184 87925 11670 72720 10130 21089 39950 49973 58007 69901 71482 82310 333 56660 57951 82940 85457
AAXX 21184 87938 32565 70906 10080 20034 39896 49965 51001 87800 333 56400 83820 86630
AAXX 21183 87016 32560 20508 10384 20225 39607 49994 57024 81205 333 56066 81820
AAXX 21183 87896 31570 61418 10124 20024 39908 40003 57004 71511 85202 333 56505 57898 85830
AAXX 21184 89022 41570 71701 11013 21064 39716 49753 57006 77072 875// 333 87625
AAXX 21184 89062 42380 81506 11010 21023 39887 49928 57004 886// 333 87706
AAXX 21183 87791 32980 01803 10260 20009 30042 40051 57011
AAXX 21181 48806 32998 00000 10120 20114 39406 40200 50001 333 58000 96122
AAXX 21184 87257 32665 33616 10429 20142 39900 49997 57023 83200 333 56800 83840
AAXX 21181 40700 12960 00000 11002 21014 30106 40198 51003 60001 333 55075
AAXX 21181 40723 12960 00000 11046 21104 38966 40300 53002 60001 333 55080 21064
AAXX 21181 40726 11956 00000 11012 21030 38712 40292 51004 60001 71022 333 55025
AAXX 21181 40727 12960 21503 11012 21048 38536 40302 52010 60001 80002 333 55065 20873 82070
AAXX 21181 40734 12960 00000 10056 20051 30218 40192 57009 60001 333 55037
AAXX 21181 40737 12960 10000 10042 20042 30177 40195 58002 60001 80001 333 55073 2//// 81070
AAXX 21181 40741 12960 00000 11030 21097 39987 40344 57016 60001 333 5580
AAXX 21181 40780 12960 00902 10040 21090 38745 40255 53008 60001 333 55086 21230
AAXX 21181 40791 12960 00000 10030 21159 39429 40284 51007 60001 333 55093 2////
AAXX 21181 40792 12970 00302 11030 21112 38784 40300 51005 60001 333 55095
AAXX 21181 40794 12960 00000 10106 20086 30130 40230 51014 60001 333 55085 2////
AAXX 21181 40812 12960 00000 10130 20038 39840 40221 53007 60001 333 55090
AAXX 21181 40829 11956 01302 11015 21232 39700 40306 51005 60001 70600 333 55075
AAXX 21181 40833 12960 00000 10132 20070 30200 40232 53003 60001 91750 333 55089
AAXX 21181 40835 12960 00000 10114 20001 39395 40240 52007 60001 333 55090
AAXX 21181 40845 NIL
AAXX 21181 40882 12962 00000 10192 20058 30176 40211 51008 60001 333 55092
AAXX 21181 40889 NIL
AAXX 21181 40890 NIL
AAXX 21181 40893 12960 03303 10210 20016 30205 40211 51010 60001 222// 00/// 20501 333 55095
AAXX 21181 40897 15960 00403 10122 21101 30202 40217 50010 60001 333 55096
AAXX 21181 28049 11997 72207 11026 21152 30121 40289 57011 69920 73673 87030 333 11030
AAXX 21181 28144 32998 82203 11021 21161 30136 40298 56009 8807/ 333 11028
AAXX 21181 28319 32499 82104 11061 21147 30145 40316 57006 885// 333 11054
AAXX 21181 28321 32999 81705 11060 21145 30093 40305 57003 8802/ 333 11056
AAXX 21181 28334 32497 82103 11032 21153 30023 40336 57006 8457/ 333 11021
AAXX 21181 28434 32998 81404 11029 21184 30085 40351 58014 8802/ 333 11013
AAXX 21181 28552 32598 82601 11091 21178 30289 40409 57009 86502 333 11085
AAXX 21181 28666 32999 51904 11117 21169 30248 40435 57009 80002 333 11091
AAXX 21181 28825 32997 81702 11071 21159 30222 40403 57003 8803/ 333 11060
AAXX 21181 29111 42998 82202 11115 21137 30240 40333 58015 8802/
AAXX 21181 29209 41598 82002 11102 21122 30224 40358 57015 70272 885//
AAXX 21181 29551 41497 82305 11109 21137 30199 40392 57008 73687 8332/
AAXX 21181 29602 42998 81904 11115 21143 30261 40411 57018 8801/
AAXX 21181 29636 42598 82201 11153 21180 30192 40428 57013 883//
AAXX 21181 29654 41498 81804 11143 21163 39772 40432 57012 78583 889// 333 86917
AAXX 21181 29712 42998 02003 11154 21173 30290 40445 57003
AAXX 21181 29724 42697 52304 11181 21200 30230 40453 58010 82531
AAXX 21181 29726 42698 82002 11187 21220 30271 40456 57007 8355/
AAXX 21181 29814 42999 82202 11163 21182 30295 40455 57011 80002
AAXX 21181 29827 42997 02304 11190 21216 30298 40468 57008
AAXX 21181 29923 42999 82305 11170 21196 30171 40472 58006 8002/
AAXX 21181 29939 42597 82702 11135 21178 30168 40472 57007 8553/
AAXX 21181 35026 32997 21801 11159 21224 39773 40468 57009 80001 333 11097
AAXX 21181 36021 42999 22302 11177 21211 30284 40482 58004 82030
AAXX 21181 36022 42598 82104 11193 21212 30203 40492 58005 885// 333 88624
AAXX 21181 36038 42999 01602 11175 21194 30029 40513 57004
AAXX 21181 36058 42699 80902 11104 21157 39928 40482 58009 885//
AAXX 21181 36064 42999 83401 11081 21087 39842 40467 57001 8802/
AAXX 21181 36229 42999 00000 11280 21294 39269 40604 58008
AAXX 21181 36259 42999 40000 11247 21286 38373 48649 57006 80002
AAXX 21181 23909 11997 82002 11072 21097 39991 40249 57007 60030 72272 8802/ 333 11074
AAXX 21181 28044 12597 82302 11042 21157 30109 40277 57011 885// 69970 333 11045
AAXX 21181 28116 12499 81704 11057 21124 30026 40268 57004 69950 885// 333 11058
AAXX 21181 28240 32598 82405 11016 21174 39986 40317 57011 885// 333 11015
AAXX 21181 28522 31997 82309 11062 21159 30093 40363 57005 73632 8805/ 333 11059
AAXX 21181 28621 31997 81808 11073 21156 30114 40359 57009 73236 8805/ 333 11068
AAXX 21181 29023 NIL
AAXX 21181 29122 42999 62201 11161 21174 30261 40339 57010 80001
AAXX 21181 29328 42498 82104 11139 21168 30231 40380 57011 889// 333 86914
AAXX 21181 29348 41596 82302 11143 21167 30224 40379 57005 78582 8297/
AAXX 21181 29405 42597 82203 11107 21143 30232 40387 57022 84331
AAXX 21181 29418 42998 82303 11120 21147 30229 40399 57013 83531
AAXX 21181 29430 42598 82302 11148 21175 30211 40401 58016 885// 333 88620
AAXX 21181 29524 42998 82303 11140 21160 30235 40410 57011 80002
AAXX 21181 29605 42998 82304 11121 21148 30259 40410 57011 80007
AAXX 21181 29631 42997 82104 11164 21190 30223 40424 57011 8808/
AAXX 21181 29645 42598 81503 11134 21169 30233 40433 57011 885// 333 88621
AAXX 21181 29706 42698 82406 11136 21156 30277 40435 57015 85501
AAXX 21181 29736 42598 82002 11153 21180 30183 40453 57011 885//
AAXX 21181 29937 42597 82104 11152 21186 30237 40477 57003 885//
AAXX 21181 36034 42998 82204 11228 21247 30196 40505 58007 80002
AAXX 21181 36096 42997 61801 11255 21287 39665 40538 57007 83031 333 95090
AAXX 21181 23914 11999 81403 11071 21105 39999 40268 57009 60040 70272 8807/ 333 11071
AAXX 21181 23921 12597 81601 11068 21097 30136 40259 57013 889// 333 11052
AAXX 21181 23955 42984 82303 11157 21171 30245 40311 57012 80001
AAXX 21181 23966 41496 82202 11133 21153 30166 40299 58002 78582 889//
AAXX 21181 28138 32999 62304 11059 21162 39721 40310 57006 80001 333 11065
AAXX 21181 28224 31598 82206 11037 21146 30083 40304 57007 73632 8555/ 333 11033 91010 91111
AAXX 21181 28255 32594 82302 11040 21125 30200 40334 57011 885// 333 11013 88630
AAXX 21181 28440 32597 72203 11016 21196 39997 40357 57007 87500 333 11003
AAXX 21181 28645 32997 82002 11096 21196 31103 40418 58012 80001 333 11082
AAXX 21181 28661 32997 82105 11114 21169 30332 40431 55009 85031 333 11105
AAXX 21181 28722 31697 81804 11066 21151 30246 40384 57003 70232 885// 333 11059
AAXX 21181 28748 32968 81803 11154 21196 30201 40463 57009 80006 333 11085
AAXX 21181 28838 32996 02101 11212 21231 39954 40487 57008 333 11161
AAXX 21181 29231 41496 72001 11163 21176 30252 40355 57006 78581 87900
AAXX 21181 29313 42998 61902 11127 21148 30234 40364 57013 80002
AAXX 21181 29612 42998 71903 11147 21167 30251 40414 57015 87050
AAXX 21181 29638 42598 81804 11165 21191 30258 40438 57012 889//
AAXX 21181 29838 42997 82202 11174 21200 30212 40466 57006 8801/
AAXX 21181 29846 42560 81906 11138 21165 30043 40458 57006 8555/ 333 85624
AAXX 21181 36061 42999 80000 11152 21165 30044 40486 57004 8805/
AAXX 21184 68383 36/// /0000 10286 20164 39854 48540 52013 333 10365 20285 91000 555 91009
AAXX 21184 68398 36/// /3607 10227 20181 39337 48490 52009 333 10320 20227 91011 555 91011
AAXX 21184 68299 36/// /0509 10194 20110 38914 48508 52008 333 10249 20193 91011 555 91017
AAXX 21181 34357 11497 81507 10003 21013 39992 40149 54001 69930 70282 885// 333 10009
AAXX 21181 34363 31598 81407 11042 21081 30061 40219 58010 70232 885// 333 11031
AAXX 21181 34545 11295 81406 10038 20038 30034 40145 53006 69930 71052 886// 333 10052
AAXX 21181 34579 32998 81105 11038 21097 30180 40225 58001 8005/ 333 11003
AAXX 21181 34838 11597 82502 10083 20065 30056 40151 53013 69940 78082 889// 333 10138
AAXX 21181 34927 11597 81902 10089 20056 30124 40161 52012 69970 70282 8595/ 333 10163
AAXX 21181 34949 32598 83004 10081 20055 39629 40167 53022 8455/ 333 10127 88628
AAXX 21181 37001 12597 52312 10101 20063 30113 40153 52013 60030 85900 333 10129
AAXX 21181 37031 11597 82802 10090 20068 39975 40168 51034 69900 78082 8395/ 333 10151
AAXX 21181 37061 11/05 90000 10043 20040 30005 40172 51016 69930 75154 333 10060 96047
AAXX 21181 37085 32596 82203 10061 20042 30191 40218 51016 885// 333 10074
AAXX 21181 37107 11596 83201 10073 20064 39521 40194 52019 60040 78182 889// 333 10160
AAXX 21181 37126 42999 70603 10016 21054 37925 48486 52004 83031 333 10085
AAXX 21181 37171 11696 80701 10107 20099 30169 40187 52022 69900 78082 889// 333 10198
AAXX 21181 37228 32997 01801 10043 21035 39342 40178 52005 333 10136
AAXX 21181 37470 32596 83404 10081 20061 30179 40157 51028 885// 333 10103
AAXX 21181 37663 32996 03204 10109 21123 38992 48480 51016 333 10205
AAXX 21181 29023 41396 82303 11154 21173 30225 40319 58009 78582 889// 333 86708
AAXX 21184 71228 16/// /3012 11028 21057 60001 333 11012 21047 70005
AAXX 21184 71238 16/// /0000 11034 21069 60001 333 11013 21048 70028 555 10050
AAXX 21184 71047 16/// ///// 11031 21044 60001 333 11031 21053 70005
AAXX 21184 71063 16/// /0606 11028 21035 39972 40072 58040 60001 333 11028 21090 70000
AAXX 21184 71107 16/// /2114 10062 20028 30187 40302 57014 60001 333 10062 20039 70000
AAXX 21184 71079 11556 82904 11162 21180 39854 40144 50014 69941 77177 8657/ 333 11161 21177 48008 70004 90983
AAXX 21184 71421 16/// ///// 11106 21141 39352 40088 58012 60001 333 11106 21238 70000
AAXX 21184 71432 17/// /3207 10055 20049 39928 40024 56046 60021 7//4/ 333 10062 20005 70023
AAXX 21184 71435 16/// /2703 11025 21046 39454 40046 51015 60001 333 11018 21043 70000
AAXX 21184 71444 16/// /0203 11077 21087 39375 40148 51024 60001 333 11048 21109 70000
AAXX 21184 71075 16/// /3305 11202 21225 39548 40179 51028 60001 333 11142 21204 70000
AAXX 21184 71487 16/// /3414 11072 21098 39328 40211 51039 60001 333 10003 21076 70000
AAXX 21184 71423 16/// /2425 11021 21067 30107 40117 56025 60001 333 11020 21135 70000
AAXX 21184 71434 16/// /2806 11204 21233 30004 40072 51014 60001 333 11131 70008
AAXX 21184 71737 16/// /1602 11026 21062 39550 40081 57031 60001 333 11026 21171 7////
AAXX 21184 71743 16/// /2619 11137 21166 39686 49903 51026 60001 333 11074 21172 70000
AAXX 21184 71746 17/// /3106 10069 20064 39780 49997 56039 60041 7//4/ 333 10072 21001 70037
AAXX 21184 71748 16/// /3308 11045 21081 39838 40128 51028 60001 333 11012 21051 70000
AAXX 21184 71752 17/// /1804 10099 20094 39808 40022 58044 60051 7//4/ 333 10099 20005 70045
AAXX 21184 71269 16/// /3110 11059 21081 60001 333 10007 21082 70018
AAXX 21184 71285 46/// /2809 11050 21079 6///1 333 11028 21054 7////
AAXX 21184 71288 16/// /2608 11303 21333 30115 40141 55000 60001 333 11300 21325 70000
AAXX 21184 71357 16/// /1804 11242 21278 39962 49969 55003 60001 333 11224 21301 70000
AAXX 21184 71374 46/// /2328 11019 21047 6///1 333 11018 21134 7////
AAXX 21184 71387 17/// /1905 11058 21076 39698 40083 56021 69951 7//4/ 333 11058 21180 70000
AAXX 21184 71393 16/// ///// 11034 21095 38979 40280 51024 60001 333 11004 21066 70000
AAXX 21184 71667 16/// /2804 10002 21056 39794 40039 51008 60001 333 10003 21033 70000
AAXX 21184 71682 17/// /2102 11154 21160 39905 40142 58019 69931 7//4/ 333 11123 21205 70006
AAXX 21184 71151 16/// /3408 11040 21078 39579 40084 51028 60001 333 11011 21042 70000
AAXX 21184 71156 16/// /1701 11031 21065 39143 40261 50005 60001 333 11016 21101 70000
AAXX 21184 71158 16/// /3108 11110 21131 39850 40131 51023 60001 333 11043 21110 70013
AAXX 21184 71186 46/// /0910 11063 21095 6///1 333 7////
AAXX 21184 71190 46/// /2911 11032 21075 6///1 333 11031 21085 7////
AAXX 21184 71970 16/// /2807 11049 21068 39612 40214 51018 60001 333 11049 21132 70000
AAXX 21184 71976 46/// /0301 11214 21237 39191 49821 53011 6///1 333 11186 21219 7////
AAXX 21184 71832 16/// /2405 11004 21015 39689 40013 51008 60001 333 11003 21026 70000 555 10070
AAXX 21184 71858 16/// /3103 11092 21124 39859 40145 51019 60001 333 11033 21105 70000
AAXX 21184 71550 16/// /2003 11058 21077 39773 40154 51023 60001 333 11022 21062 70000
AAXX 21184 71551 16/// /3006 11046 21079 39556 40226 51027 60001 333 11010 21072 70000
AAXX 21184 71503 46/// /0611 11139 21160 39821 40099 56037 6///1 333 11134 21260 7////
AAXX 21184 71506 46/// /1304 11058 21133 39075 49950 56022 6///1 333 11049 21147 7////
AAXX 21184 71507 16/// /2207 11066 21099 60001 333 11021 21113 70009
AAXX 21184 71514 16/// /3412 11092 21118 39493 40207 51036 60001 333 11012 21096 70000
AAXX 21184 71539 16/// /3211 11074 21106 39515 40226 51038 60001 333 10007 21092 70003
AAXX 21184 71300 17/// /0702 11008 21012 39943 40067 57040 69971 7//4/ 333 11007 21108 70007 555 10010
AAXX 21184 71312 16/// /3012 11075 21114 39713 40179 51022 60001 333 11036 21085 70000
AAXX 21184 71340 16/// /2610 11037 21070 60001 333 21070 7////
AAXX 21184 71341 16/// /3608 11019 21089 60001 333 10003 21034 70000
AAXX 21184 71342 17/// /3110 11042 21064 60021 7//4/ 333 10000 21083 70022
AAXX 21184 71344 16/// /3012 11052 21079 60001 333 11003 21052 70000
AAXX 21184 71347 16/// /2805 11070 21090 60001 333 11064 21139 7////
AAXX 21184 71348 16/// /2709 11025 21080 60001 333 11024 21123 70005
AAXX 21184 71349 16/// ///// 11035 21069 60001 333 21075 7////
AAXX 21184 40153 12660 43203 10085 20041 39117 48511 52007 60002 81480 333 10139
AAXX 21184 40179 12660 60403 10163 20124 30154 40191 52011 60002 865// 333 10204
AAXX 21184 40180 12660 60603 10165 20116 30146 40195 52012 60002 85100 333 10204
AAXX 21184 40190 16/// ///// 10157 20116 39860 40191 52013 60002 333 10189
AAXX 21184 40199 13/// /0202 10182 20101 30154 40177 52009 60002 333 10212
AAXX 21184 62002 32960 32718 10098 21047 39463 48501 53005 83040 333 10112 83360
AAXX 21184 62010 31615 62716 10138 21027 40164 52003 70722 82570 333 10150 82640 85358
AAXX 21184 62053 12560 21910 10104 20041 40173 50003 60022 82500 333 0//19 10174 82620
AAXX 21184 62124 32960 02105 10142 20016 39694 40210 52008 333 10188
AAXX 21184 62271 32960 00000 10158 20019 40228 51007 333 10199
AAXX 21184 61970 16/// ///// 10269 20207 40116 60002 333 10316 58000 555 60005
AAXX 21184 61972 16/// /1905 10253 20222 40103 60002 333 10309 58002 90710 91112 555 60005
AAXX 21181 27083 11456 81703 11077 21095 39967 40199 57008 60010 77172 8802/ 333 11074
AAXX 21181 23226 11356 82106 11083 21106 39964 40187 58005 69920 77372 8672/ 333 11059 86709
AAXX 21181 23701 11467 82002 11089 21104 30073 40208 57006 69920 77172 8802/ 333 11076 88510
AAXX 21181 28909 32999 81506 11088 21148 30244 40350 53004 80002 333 11076 91012 91115
AAXX 21184 71622 16/// ///// 10068 20064 39674 40007 58045 60001 333 10068 21013 70000
AAXX 21181 13463 32670 53402 10057 21038 30064 40125 53001 83230 333 10087
AAXX 21181 13459 32970 03601 11003 21076 39362 40142 56005 333 10024 47011
AAXX 21181 13461 32970 60506 10076 21032 30106 40114 55006 80006 333 10101 91113 92333 92438
AAXX 21181 13363 32965 72501 11051 21061 39241 48438 52012 87030 333 11006 43006
AAXX 21184 71079 11556 82904 11162 21180 39854 40144 50014 69941 77177 8657/ 333 11161 21177 48008 70004 90983
AAXX 21184 71832 16/// /2405 11004 21015 39689 40013 51008 60001 333 11003 21026 70000 555 10070
AAXX 21184 71858 16/// /3103 11092 21124 39859 40145 51019 60001 333 11033 21105 70000
AAXX 21184 71503 46/// /0611 11139 21160 39821 40099 56037 6///1 333 11134 21260 7////
AAXX 21184 71506 46/// /1304 11058 21133 39075 49950 56022 6///1 333 11049 21147 7////
AAXX 21184 71507 16/// /2207 11066 21099 60001 333 11021 21113 70009
AAXX 21184 71514 16/// /3412 11092 21118 39493 40207 51036 60001 333 11012 21096 70000
AAXX 21184 71539 16/// /3211 11074 21106 39515 40226 51038 60001 333 10007 21092 70003
AAXX 21184 71970 16/// /2807 11049 21068 39612 40214 51018 60001 333 11049 21132 70000
AAXX 21184 71976 46/// /0301 11214 21237 39191 49821 53011 6///1 333 11186 21219 7////
AAXX 21184 71667 16/// /2804 10002 21056 39794 40039 51008 60001 333 10003 21033 70000
AAXX 21184 71682 17/// /2102 11154 21160 39905 40142 58019 69931 7//4/ 333 11123 21205 70006
AAXX 21184 71752 17/// /1804 10099 20094 39808 40022 58044 60051 7//4/ 333 10099 20005 70045
AAXX 21184 71300 17/// /0702 11008 21012 39943 40067 57040 69971 7//4/ 333 11007 21108 70007 555 10010
AAXX 21184 71312 16/// /3012 11075 21114 39713 40179 51022 60001 333 11036 21085 70000
AAXX 21184 71340 16/// /2610 11037 21070 60001 333 21070 7////
AAXX 21184 71341 16/// /3608 11019 21089 60001 333 10003 21034 70000
AAXX 21184 71342 17/// /3110 11042 21064 60021 7//4/ 333 10000 21083 70022
AAXX 21184 71344 16/// /3012 11052 21079 60001 333 11003 21052 70000
AAXX 21184 71347 16/// /2805 11070 21090 60001 333 11064 21139 7////
AAXX 21184 71348 16/// /2709 11025 21080 60001 333 11024 21123 70005
AAXX 21184 71349 16/// ///// 11035 21069 60001 333 21075 7////
AAXX 21184 71151 16/// /3408 11040 21078 39579 40084 51028 60001 333 11011 21042 70000
AAXX 21184 71156 16/// /1701 11031 21065 39143 40261 50005 60001 333 11016 21101 70000
AAXX 21184 71158 16/// /3108 11110 21131 39850 40131 51023 60001 333 11043 21110 70013
AAXX 21184 71186 46/// /0910 11063 21095 6///1 333 7////
AAXX 21184 71190 46/// /2911 11032 21075 6///1 333 11031 21085 7////
AAXX 21184 71107 16/// /2114 10062 20028 30187 40302 57014 60001 333 10062 20039 70000
AAXX 21184 71550 16/// /2003 11058 21077 39773 40154 51023 60001 333 11022 21062 70000
AAXX 21184 71551 16/// /3006 11046 21079 39556 40226 51027 60001 333 11010 21072 70000
AAXX 21184 71421 16/// ///// 11106 21141 39352 40088 58012 60001 333 11106 21238 70000
AAXX 21184 71432 17/// /3207 10055 20049 39928 40024 56046 60021 7//4/ 333 10062 20005 70023
AAXX 21184 71435 16/// /2703 11025 21046 39454 40046 51015 60001 333 11018 21043 70000
AAXX 21184 71444 16/// /0203 11077 21087 39375 40148 51024 60001 333 11048 21109 70000
AAXX 21184 71047 16/// ///// 11031 21044 60001 333 11031 21053 70005
AAXX 21184 71063 16/// /0606 11028 21035 39972 40072 58040 60001 333 11028 21090 70000
AAXX 21184 71228 16/// /3012 11028 21057 60001 333 11012 21047 70005
AAXX 21184 71238 16/// /0000 11034 21069 60001 333 11013 21048 70028 555 10050
AAXX 21184 71423 16/// /2425 11021 21067 30107 40117 56025 60001 333 11020 21135 70000
AAXX 21184 71434 16/// /2806 11204 21233 30004 40072 51014 60001 333 11131 70008
AAXX 21184 71269 16/// /3110 11059 21081 60001 333 10007 21082 70018
AAXX 21184 71285 46/// /2809 11050 21079 6///1 333 11028 21054 7////
AAXX 21184 71288 16/// /2608 11303 21333 30115 40141 55000 60001 333 11300 21325 70000
AAXX 21184 71075 16/// /3305 11202 21225 39548 40179 51028 60001 333 11142 21204 70000
AAXX 21184 71487 16/// /3414 11072 21098 39328 40211 51039 60001 333 10003 21076 70000
AAXX 21184 71357 16/// /1804 11242 21278 39962 49969 55003 60001 333 11224 21301 70000
AAXX 21184 71374 46/// /2328 11019 21047 6///1 333 11018 21134 7////
AAXX 21184 71387 17/// /1905 11058 21076 39698 40083 56021 69951 7//4/ 333 11058 21180 70000
AAXX 21184 71393 16/// ///// 11034 21095 38979 40280 51024 60001 333 11004 21066 70000
AAXX 21184 71737 16/// /1602 11026 21062 39550 40081 57031 60001 333 11026 21171 7////
AAXX 21184 71743 16/// /2619 11137 21166 39686 49903 51026 60001 333 11074 21172 70000
AAXX 21184 71746 17/// /3106 10069 20064 39780 49997 56039 60041 7//4/ 333 10072 21001 70037
AAXX 21184 71748 16/// /3308 11045 21081 39838 40128 51028 60001 333 11012 21051 70000
AAXX 21184 48353 31950 00000 10180 20163 39847 40144 57005 71000 333 59002
AAXX 21184 48500 31956 20000 10263 20174 30089 40096 57015 70500 80005 333 59009
AAXX 21184 48373 31940 20000 10200 20181 30068 40132 57002 71000 80001 333 59001
AAXX 21184 48464 31556 83203 10240 20188 30087 40100 57011 71022 85776 333 59006
AAXX 21181 38616 429// 38401 11107 21127 39339 40438 49005 80001 333 11059
AAXX 21184 48350 31956 00000 10168 20156 39837 40146 57006 71000 333 59004
AAXX 21184 48427 31957 30103 10244 20187 30095 40103 57019 71021 80001 333 59012
AAXX 21184 48555 31550 60000 10240 20230 30071 40114 55019 71022 83546 333 59020 70080
AAXX 21184 48557 32560 40000 10235 20228 30057 40092 57010 82101 333 59006 70009
AAXX 21184 48574 12560 60000 10235 20228 30061 40090 57007 60063 83136 333 58001 70057
AAXX 21184 78388 111570 60914 10281 20216 30132 40141 6002 70562 82848 333 01299 10279 20220 59010 82820 86270 90945
AAXX 21184 81225 11558 70304 10264 20244 40102 60021 72582 85932 333 56299 59007 81920 84825 85356
AAXX 21184 81200 11460 71008 10284 20226 40103 60011 78082 85933 333 56299 59004 81810 82915 83825 85080
AAXX 21184 81202 11460 71008 10284 20244 40107 60031 71586 85943 333 56299 59004 81918 84820
AAXX 21184 81209 11460 70000 10288 20227 40/// 60001 71522 85832 333 56299 5//// 84818 84360
AAXX 21184 81251 NIL
AAXX 21181 28216 32899 72005 11062 21149 39989 40282 57008 87010 333 11060
AAXX 21181 28428 31598 82107 11059 21151 30160 40354 57005 73632 885// 333 11047
AAXX 21181 28451 32996 02103 11079 21166 30207 40375 57013 333 11036
AAXX 21181 28541 32984 72502 11037 21181 39871 40382 57007 87030 333 11017
AAXX 21181 28655 32998 62307 11119 21187 30196 40435 57005 80002 333 11095
AAXX 21181 28756 32997 62106 11143 21186 30307 40469 57009 86070 333 11116
AAXX 21181 29557 41698 82904 11093 21133 30110 40390 57008 70283 8257/
AAXX 21181 29625 42998 02303 11181 21207 30235 40431 57011
AAXX 21181 29813 42999 82102 11175 21194 30239 40436 57011 8807/
AAXX 21181 29822 42997 82002 11202 21228 30280 40461 57010 8805/
AAXX 21181 29915 42998 02402 11175 21187 30291 40465 57005
AAXX 21181 36020 42998 42203 11178 21212 30263 40483 58007 80001
AAXX 21183 78970 11450 70711 10296 20225 30089 40114 60011 71582 8787/ 333 02299 10317 20243 59004 83816 87636 90945
AAXX 21183 78962 11461 70213 10276 20220 30114 40122 69931 71582 86832 333 02199 10286 20231 59012 84812 85635 90960
AAXX 21184 60595 36/// /0000 11451 333 11451
AAXX 21184 60381 36/// /2802 10153 20119 333 10171
AAXX 21184 60639 36/// /3007 10112 21045 333 10160
AAXX 21184 60605 36/// /2404 10169 21038 333 10196
AAXX 21184 78388 111570 60914 10281 20216 30132 40141 6002 70562 82848 333 01299 10279 20220 59010 82820 86270 90945
AAXX 21181 56146 32980 00701 11065 21154 36694 52001 333 05101 10137
AAXX 21181 56444 32980 02902 11031 21142 36811 57003 333 00101 10096
AAXX 21181 56492 11720 82901 10079 20065 39878 40295 57007 69931 76060 885// 333 00300 10101
AAXX 21181 56571 32680 80000 10051 21020 38435 52003 888// 333 00651 10144
AAXX 21181 57799 32965 83403 10087 20023 30196 40287 52006 8807/ 333 10146
AAXX 21181 57866 32762 80406 10070 20000 30090 40302 52004 885// 333 10128
AAXX 21181 57957 32760 20206 10094 20006 30067 40268 52002 82500 333 10171
AAXX 21181 57993 32960 00401 10080 20023 30098 40267 52006 333 10175
AAXX 21181 58027 31950 00000 10002 21069 30281 40335 52012 70500 333 10059
AAXX 21181 58141 31912 00201 10009 21030 30313 40333 52017 70540 333 10093
AAXX 21181 58265 31930 03605 10062 21005 30292 40300 52005 72840 333 10095
AAXX 21181 58472 31950 83411 10072 20040 30176 40273 54000 71000 8807/ 333 10104
AAXX 21181 58477 31457 73605 10081 20036 30226 40272 52006 71000 878// 333 10111
AAXX 21181 58527 11560 80203 10080 20027 30212 40290 52009 69931 76060 885// 333 10121
AAXX 21181 58633 11640 80703 10081 20052 30181 40283 52007 69921 76066 885// 333 10135
AAXX 21181 58666 32562 73612 10090 20068 30149 40253 52003 878// 333 10131
AAXX 21181 58725 32760 82701 10080 20049 39990 40254 52002 885// 333 10188
AAXX 21181 58921 31950 01101 10087 20079 39987 40236 52008 71000 333 10209
AAXX 21181 59082 31956 60901 10087 20049 30099 40247 52008 70500 86040 333 10194
AAXX 21181 59211 31856 83401 10141 20085 30024 40233 52005 70500 885// 333 10187
AAXX 21181 59265 31957 70704 10145 20030 30082 40220 52003 70500 8703/ 333 10216
AAXX 21181 59293 32963 10407 10138 20030 30131 40217 52002 81040 333 10218
AAXX 21181 59501 31959 00702 10155 20140 30170 40191 57006 71000 333 10236
AAXX 21181 59663 32761 60406 10181 20075 30081 40188 57006 86500 333 10234
AAXX 21181 59838 32762 70403 10204 20160 30153 40163 57009 875// 333 10245
AAXX 21181 59948 32370 70407 10179 20153 39679 40165 57013 878// 333 10208
AAXX 21181 59981 11570 60405 10232 20215 30130 40137 57015 69911 70080 86800 333 10253
AAXX 21184 84542 31670 43406 10230 20098 37326 70212 84500 333 56900 59017 84647
AAXX 21184 84531 31960 02017 10225 20157 30057 40074 70100 333 59014
AAXX 21184 84691 31958 32118 10278 20186 30071 40078 70544 80001 333 56000 59038 83073
AAXX 21184 84688 31459 80110 10121 20061 36661 70222 886// 333 568// 59008 83614 85650
AAXX 21184 84686 31663 80409 10158 20048 36872 71522 81538 333 56999 58006 81640 83457 85260
AAXX 21184 84752 32860 42410 10192 21006 37519 70202 84030 333 56090 59003 84357
AAXX 21184 84773 31962 31709 10234 20167 30101 40126 70211 80001 333 56009 59004 83070
AAXX 21184 84782 31965 02216 10257 20147 39602 40096 70200 333 59005
AAXX 21184 84735 31560 4//// 10150 20046 36437 70222 84100 333 56900 58006 84830
AAXX 21184 84377 21560 82006 10287 20239 39992 40096 70225 85720 333 5600/ 58002 60021 85817 86460
AAXX 21184 84474 31560 70000 10270 20246 39780 7022/ 87711 333 569// 59012 87730
AAXX 21184 84673 21660 81004 10184 20105 37352 70226 8312/ 333 5699/ 58010 60041 83840 86460
AAXX 21184 84658 31462 83503 10294 20280 39839 40075 71522 862// 333 5680/ 59014 86810
AAXX 21184 84534 21560 6//// 10280 20210 39370 40074 7012/ 8423/ 333 5699/ 59020 60031 84830 86362
AAXX 21184 84564 31560 10710 10247 20157 38140 70122 83800 333 56100 59014 83830
AAXX 21184 84472 21560 89905 10186 20124 37395 70320 887// 333 56900 59005 69914 82720 88640
AAXX 21184 84452 31560 81912 10260 20182 30069 40099 70222 8353/ 333 5649/ 59017 83630 85362
AAXX 21184 84501 31660 61611 10203 20164 30068 40095 70301 8353/ 333 56000 59017 83650 83364
AAXX 21184 84720 31860 89905 10310 20196 39470 40135 70222 88011 333 56099 59011 84460 87070
AAXX 21181 23205 11497 82304 11024 21046 30109 40124 52002 60010 77187 8672/ 333 11006 86712 91109
AAXX 21184 84202 31575 81402 10284 20207 30124 70544 8621/ 333 59009 555 30063
AAXX 21184 84270 11550 83612 10162 20128 60011 75155 887// 555 10014 30080
AAXX 21184 84036 31568 81408 10149 20100 70544 888// 555 30071
AAXX 21184 84056 31280 41416 10198 20028 70544 84200 555 30032
AAXX 21184 84135 32675 80000 10302 20217 30038 8621/ 333 59008 555 30060
AAXX 21184 84008 32675 71416 10277 20196 30097 40107 84830 00225 333 59008 555 30061
AAXX 21184 84076 31575 63202 10218 20162 70544 86400 555 30070
AAXX 21184 84160 11450 81410 10124 20091 37263 69901 74044 888// 333 58001 555 1T 30080
AAXX 21184 84132 11680 70404 10284 20246 39884 69911 72164 85270 333 59003 555 10001 30080
AAXX 21184 84179 11565 80000 10212 20194 39071 60041 72166 8781/ 333 58016 555 10042 30089
AAXX 21184 84140 31570 73602 10272 20222 30003 40088 70544 87800 333 58000 555 30074
AAXX 21184 84204 31675 71408 10312 20217 70544 83410 555 30057
AAXX 21184 84050 31570 81808 10252 20219 70544 882// 555 30082
AAXX 21184 84088 32675 60905 10162 20098 37050 86200 333 59005 555 30066
AAXX 21184 84072 32670 60404 10203 20104 37280 86200 333 59004 555 30053
AAXX 21184 84105 11558 81404 10246 20221 39999 69981 71542 8562/ 333 58000 555 10008 30086
AAXX 21184 84045 31557 50913 10130 20089 74442 85800 555 30076
AAXX 21184 84143 32465 81810 10154 20116 37393 888// 333 59005 555 30078
AAXX 21184 84226 32680 71410 10146 20108 87800 555 30078
AAXX 21184 84001 31565 51315 10277 20188 30084 40104 70544 85500 333 59008
AAXX 21184 84010 31670 51414 10272 20208 70544 82230
AAXX 21184 84018 31665 72812 10269 20237 30078 40085 71544 84270 333 59009
AAXX 21184 84027 31560 81008 10135 20100 37168 47139 71642 882// 333 58004
AAXX 21184 84063 32570 70000 10281 20234 39758 40088 83230 333 58005
AAXX 21184 84069 11250 82703 10220 20207 60011 74054 8611/ 555 10011
AAXX 21184 84071 31670 50404 10189 20086 37262 47113 70341 85200 333 59004
AAXX 21184 84099 32570 70000 10278 20216 3//// 40110 83270 333 5////
AAXX 21184 84101 31562 72807 10262 20220 30082 40096 70544 85530 333 59005
AAXX 21184 84117 31560 62809 10281 20216 30069 40092 70544 82530 333 59005
AAXX 21184 84123 31570 71620 10164 20109 37279 47115 70342 86230 333 59006
AAXX 21184 84163 11460 83301 10202 20189 38959 48507 60051 71665 8652/ 333 58007 555 10053
AAXX 21184 84176 32680 70320 10172 20118 86230
AAXX 21184 84200 31960 32607 10256 20210 70544 83030
AAXX 21184 84203 31560 61404 10304 20182 30070 40075 70544 81130 333 59011
AAXX 21184 84217 11570 80112 10210 20188 60061 71566 8451/ 555 10057
AAXX 21184 84239 11570 80507 10180 20100 37531 47141 69911 71544 8651/ 333 58002 555 10001
AAXX 21184 84252 31570 80304 10267 20218 30083 40091 70544 882// 333 59004
AAXX 21184 84265 32680 40610 10284 20151 38733 84100 333 59014
AAXX 21181 13492 NIL
AAXX 21181 13584 NIL
AAXX 21181 13585 12697 80502 10006 21025 39334 40141 57003 69912 8802/ 333 10040 94011
AAXX 21181 13597 42798 83602 10048 20009 30066 40140 54000 8802/ 333 10087 94043
AAXX 21181 13598 42698 80000 11010 21012 48416 53000 885// 333 10025 94036
BBXX A8QJ7 21184 99179 70211 41/98 /0410 10260 20246 40141 53003 70200 8/1// 22213 06250 2//// 3//// 4//// 5//// 80250
AAXX 21181 40650 12960 11002 10100 20030 40228 53002 60002 80002
AAXX 21181 40602 12960 70602 10106 20021 40263 52009 60002 87020
AAXX 21181 40604 12560 30000 10120 20066 40223 52010 60002 83200
AAXX 21181 40608 12960 40302 10104 20006 40230 52013 60002 84030
AAXX 21181 40621 12960 30802 10123 20014 40252 52006 60002 80001
AAXX 21181 40629 12560 50000 10100 20056 40226 54000 60002 83232
AAXX 21181 40634 12960 70000 10102 20054 40221 53002 60002 80007
AAXX 21181 40645 12960 03301 10095 20057 40229 52003 60002
AAXX 21181 40656 12960 00000 10122 20057 40204 52005 60002
AAXX 21181 40665 12960 01702 10118 20058 40237 52010 60002
AAXX 21181 40670 12960 20000 10126 20060 40216 51004 60002 80002
AAXX 21181 40674 12960 00000 10103 20026 40228 52010 60002
AAXX 21181 40676 12960 20000 10110 20043 40230 50012 60002 80002
AAXX 21181 40680 12960 02602 10118 20045 40212 52010 60002
AAXX 21181 40689 12960 00000 10118 20058 40237 52008 60002
AAXX 21181 40691 12960 00000 10134 20091 40252 52010 60002
AAXX 21184 43400 NIL
AAXX 21184 43404 NIL
AAXX 21184 43410 NIL
AAXX 21184 43413 NIL
AAXX 21184 43415 NIL
AAXX 21184 43418 22470 50506 10259 20220 3//// 4//// 84232 333 5//// 60007 84818 83360
AAXX 21184 43421 22460 30201 10231 20216 30007 40109 81101 333 58008 60007 81818
AAXX 21184 43422 NIL
AAXX 21184 43424 22968 70204 10239 20211 30098 40100 83036 333 58010 60007 83360 85278
AAXX 21184 43436 22470 63612 10274 20227 30095 40098 83101 333 59001 60007 83818 85080
AAXX 21184 43441 NIL
AAXX 21184 43444 NIL
AAXX 21184 43467 22460 80204 10254 20212 30086 40091 8212/ 333 58006 60007 82816 88460
AAXX 21184 43473 22470 61304 10130 20121 38119 48488 86200 333 58002 60007 86810
AAXX 21184 43475 NIL
AAXX 21184 43476 NIL
AAXX 21184 43479 NIL
AAXX 21184 43486 21/09 90000 10240 20234 39992 40086 74742 333 58001 60007
AAXX 21184 43495 21460 8//// 10250 22035 30082 40098 78082 8497/ 333 58008 60027 82818 82920 88458
AAXX 21184 43497 21460 80208 10258 20228 30071 40089 78022 84210 333 58006 69907 84818 88460
AAXX 21184 43400 NIL
AAXX 21184 43404 NIL
AAXX 21184 43410 NIL
AAXX 21184 43413 NIL
AAXX 21184 43415 NIL
AAXX 21184 43418 22470 50506 10259 20220 3//// 4//// 84232 333 5//// 60007 84818 83360
AAXX 21184 43421 22460 30201 10231 20216 30007 40109 81101 333 58008 60007 81818
AAXX 21184 43422 NIL
AAXX 21184 43424 22968 70204 10239 20211 30098 40100 83036 333 58010 60007 83360 85278
AAXX 21184 43436 22470 63612 10274 20227 30095 40098 83101 333 59001 60007 83818 85080
AAXX 21184 43441 NIL
AAXX 21184 43444 NIL
AAXX 21184 43467 22460 80204 10254 20212 30086 40091 8212/ 333 58006 60007 82816 88460
AAXX 21184 43473 22470 61304 10130 20121 38119 48488 86200 333 58002 60007 86810
AAXX 21184 43475 NIL
AAXX 21184 43476 NIL
AAXX 21184 43479 NIL
AAXX 21184 43486 21/09 90000 10240 20234 39992 40086 74742 333 58001 60007
AAXX 21184 43495 21460 8//// 10250 22035 30082 40098 78082 8497/ 333 58008 60027 82818 82920 88458
AAXX 21184 43497 21460 80208 10258 20228 30071 40089 78022 84210 333 58006 69907 84818 88460
AAXX 21181 50353 11970 02902 11224 21272 39964 40207 52011 69921 70070 333 11199
AAXX 21181 50557 11970 02201 11268 21299 39905 40235 52006 69901 70070 333 11141
AAXX 21181 50756 32960 03402 11222 21238 39901 40225 52014 333 11143
AAXX 21181 50949 32965 02904 11156 21270 30070 40252 52023 333 11065
AAXX 21181 50963 32760 42502 11141 21161 30045 40190 52006 84500 333 11082
AAXX 21181 50978 32980 72903 11119 21170 39820 40184 52003 80002 333 11066
AAXX 21181 51087 32980 00000 11256 21284 39437 40526 57006 333 05601 11149
AAXX 21181 51156 32980 03201 11166 21231 38851 40470 57005 333 05502 11082
AAXX 21181 51644 32960 03601 11096 21127 39091 40434 57009 333 05152 11023
AAXX 21181 51656 32970 01603 11078 21132 39267 40427 57010 333 05100 11009
AAXX 21181 51886 32980 40000 11151 21271 37119 57002 80002 333 00054 11023
AAXX 21181 52602 32980 00000 11180 21289 37272 52002 333 00163 11005
AAXX 21181 52713 32980 00000 11159 21237 36904 57006 333 00153 11019
AAXX 21181 52754 32980 23602 11155 21209 36792 57008 80002 333 00057 11052
AAXX 21181 52818 32980 02001 11104 21254 37243 57005 333 00051 11002
AAXX 21181 52836 32980 01603 11151 21254 36899 57003 333 00052 11044
AAXX 21181 52955 32980 01601 11177 21214 36973 57004 333 00155 11008
AAXX 21181 53068 32980 02906 11189 21227 39171 40408 57007 333 00353 11103
AAXX 21181 53276 32980 02506 11191 21230 38962 40423 57002 333 11111
AAXX 21181 54135 32980 02906 11145 21266 30072 40310 52010 333 11058
AAXX 21181 54236 32980 03205 11118 21242 30202 40314 52011 333 11033
AAXX 21181 54539 32970 02901 11055 21207 30325 40340 52009 333 10029
AAXX 21181 54662 32970 00403 11049 21167 30203 40322 52011 333 10025
AAXX 21181 54753 32965 03605 10007 21134 30315 40322 52012 333 10045
AAXX 21181 54857 32966 03405 11008 21062 30228 40324 52012 333 10033
AAXX 21181 57067 32960 00000 11039 21070 39663 40371 57004 333 10068
AAXX 21181 57178 32970 03601 10019 21050 30179 40343 52002 333 10094
AAXX 21181 57245 32961 00701 10040 20003 39972 40333 54000 333 00553 10105
AAXX 21181 57297 31930 82902 10015 21016 30193 40339 54000 71000 8807/ 333 10072
AAXX 21184 40582 42960 51803 10108 20063 40234 52009 80001 333 55300 00000 10261 20000 30000 41059 51319 60000 55407 40000 85070 90400 91003 91109 91207 91303
AAXX 21184 41150 NIL
AAXX 21184 41168 NIL
AAXX 21184 41170 42962 13607 10198 20146 30215 40228 81030 333 10241 58020 81362
AAXX 21184 41176 NIL
AAXX 21184 41184 NIL
AAXX 21184 41194 NIL
AAXX 21184 41196 NIL
AAXX 21184 41198 NIL
AAXX 21184 41210 NIL
AAXX 21184 41216 NIL
AAXX 21184 41217 NIL
AAXX 21184 41218 NIL
AAXX 21184 41226 NIL
AAXX 21184 41244 36/// /0808 10190 20038 39856 48407 333 0E020 10249 58007
AAXX 21184 41246 32960 02204 10186 20055 30211 40216 333 10250 58008
AAXX 21184 41254 36/// /2904 10072 20027 38004 48009 333 0E007 10117 59011
AAXX 21184 41256 31959 01103 10189 20094 30208 40218 70500 333 10246 58008
AAXX 21184 41258 36/// /1502 10217 20104 30207 40211 333 0E/// 10246 58009
AAXX 21184 41268 36/// /0008 10207 20070 30194 48445 333 0E021 10253 58011
AAXX 21184 41312 36/// /0005 10246 20112 30148 40187 333 0E/// 10279 58003
AAXX 21184 41314 32960 23605 10182 20082 39700 40211 82030 333 10231 58003 82359
AAXX 21184 41316 32960 03409 10236 20089 30162 40188 333 10279 58000
AAXX 21184 41404 42960 09902 10106 21062 37899 48563 333 10228 58001
AAXX 21184 41407 NIL
AAXX 21184 41431 41958 01512 10258 20234 30133 40146 70644 333 10296 58000
AAXX 21184 41466 42960 01704 10150 20140 58594 48492 333 10250 59004
AAXX 21184 41477 NIL
AAXX 21184 41480 42560 41009 10257 20178 30173 40176 84500 333 10288 59002 85625
BBXX SHIP 21184 99127 11398 41/98 20814 10280 20227 40077 56011 70200 8//// 22213 06287 10605 20202 307// 40804
AAXX 21184 82899 32570 41111 10288 20202 30096 40108 83130 333 59014
BBXX 64045 21184 99591 70117 46/// /2430 10112 20096 49974 53006 22200 00100 10811 70053 333 90710 91139
BBXX 62105 21184 99554 70122 46/// /2425 10116 20105 40126 53010 22200 00107 10809 70043 333 90710 91133
BBXX 62081 21184 99510 70134 46/// ///// 10128 20099 40258 52005 22200 00120 10707 70034
BBXX 62442 21184 99490 70164 46/// /2116 1//// 2//// 40278 57004 22200 00125
BBXX 62029 21184 99487 70125 46/// /2314 10131 20111 40306 53003 22200 00129 10806 70032
BBXX 62163 21184 99475 70084 46/// /3011 10125 20105 40322 52014 22200 00127 10806 70030
BBXX 62001 21184 99452 70050 46/// /3112 10133 20120 40312 52012 22200 00141 10605 70023
BBXX 64046 21184 99606 70049 46/// /2524 10096 20090 49956 55003 22200 00079 10606 70031
BBXX 62301 21184 99524 70047 46/// /2516 10104 20092 40214 51008 22200 00087 10503 70016
BBXX 62303 21184 99516 70051 46/// /2613 10122 20099 40234 52012 22200 00110 10604 70021
BBXX 62027 21184 99491 70022 46/// /3213 1//// 2//// 40248 52020 22200 00111 10804 328// 70020
BBXX 63110 21183 99595 10015 41/96 /1736 10061 40052 762// 8//// 22200 10604 70020
BBXX 62305 21184 99504 10000 46/98 /2823 10120 20109 40217 52012 22200 00121 10602 70009 333 90710 91126
BBXX 62304 21184 99511 10018 46/98 /2911 10115 20104 40195 52014 22200 00110 10601 70005
BBXX 62170 21184 99514 10020 46/97 /2811 10110 20110 40190 52016 22200 00109 10601 70004
BBXX 63110 21184 99595 10015 47497 /1828 10060 20027 40055 57035 751// 22200 10504 70018
BBXX 63056 21184 99597 10016 47396 /1728 10058 20020 40051 58035 740// 22200 10504 70020
BBXX 62131 21184 99539 10012 46/// /23// 10085 20079 40158 52005 22200
BBXX 62149 21184 99537 10011 47697 /2413 10091 20085 40161 52004 751// 22200 10401 70007
BBXX 62111 21184 99580 70003 46/// /2223 10084 20072 40067 57021 22200 10503 70016
BBXX PJAI 21184 99581 70014 47998 /2214 10093 20064 40050 57020 700// 22200
BBXX 62112 21184 99584 70002 47297 /2022 10079 20078 40053 56029 700// 22200
BBXX 63055 21184 99606 10016 47294 /1425 10039 20038 40042 57024 704// 22200 10605 70023
BBXX 63108 21184 99608 10017 47294 /1729 10030 20003 40041 57023 762// 22200 10604 70022
BBXX 63106 21184 99610 10017 46/// /1628 10039 40053 57017 22200
BBXX 63105 21184 99610 10017 47495 ///// 10035 20017 40056 57013 761// 22200
BBXX 63113 21184 99610 10017 46/// /1627 10041 20019 40053 57018 22200 10605 70027
BBXX 63112 21184 99611 10010 47495 /1628 10042 20013 40033 57026 761// 22200 10606 70030
BBXX 63107 21184 99611 10017 46/// /1629 10041 40052 57016 22200
BBXX 63101 21184 99612 10009 46/// /1730 10036 20022 40044 57023 22200
BBXX 63103 21184 99612 10011 46/// /1730 10041 20029 40035 58026 22200 10605 70027
BBXX 63104 21184 99612 10016 47394 /1628 10040 20011 40049 57020 763// 22200
BBXX 63117 21184 99613 10011 47495 /1630 10036 21012 40050 58025 763// 22200
BBXX 63115 21184 99616 10013 47396 /1529 10068 20019 40036 57024 762// 22200 10707 70035
BBXX MWYG6 21184 99603 70040 47496 /2527 10104 700// 22200
BBXX 62148 21184 99536 10015 46/// /2210 10075 20071 40166 52006 22200
BBXX 64041 21184 99607 70026 47296 /2327 10097 20097 49963 57018 761// 22200 10707 70034
BBXX 62150 21184 99536 10007 47697 /2715 10093 20086 40171 52008 700// 22200 10501 70006
BBXX 62121 21184 99535 10027 46/// ///// 22200
BBXX 62144 21184 99534 10017 47396 /2209 10074 20068 40167 52006 700// 22200 10402 70008
BBXX 62145 21184 99531 10028 47296 /2208 10078 20057 40173 52010 710// 22200 10502 70011
BBXX 62142 21184 99530 10021 47194 /2208 10069 20064 40169 52007 752// 22200 10502 70009
BBXX 62165 21184 99540 10009 47696 /2513 10086 20081 40162 52007 700// 22200 10402 70008
BBXX 62123 21184 99563 10022 47297 /1917 10084 20040 40126 58006 751// 22200
BBXX 62132 21184 99564 10020 46/// /2218 10072 20053 40121 58007 22200
BBXX 62120 21184 99564 10021 47196 /2118 10077 20055 40122 58007 761// 22200
BBXX 62154 21184 99564 10022 46/// /1917 10070 20056 40124 58005 22200
BBXX 62152 21184 99570 10018 47/97 /1717 10075 20043 40111 57013 740// 22200 10303 70013
BBXX 62119 21184 99570 10019 47296 /1818 10072 20048 40109 57013 740// 22200 10402 70011
BBXX 62133 21184 99571 10009 46/// /1822 10090 20065 40098 58019 22200
BBXX PJGO 21184 99571 10022 47396 /1820 10074 20043 40115 57012 761// 22200
BBXX 62164 21184 99572 10008 47296 /1817 10092 20076 40088 57024 700// 22200 00093 10403 70016
BBXX 62146 21184 99572 10021 47/97 /1811 10068 20053 40102 58019 761// 22200 10502 70012
BBXX 62140 21184 99573 10013 46/// /20// 10077 20062 40098 57020 22200
BBXX 62122 21184 99573 10016 47296 /1820 10076 20061 40099 57020 762// 22200 10403 70013
BBXX 62153 21184 99573 10020 47296 /1921 10069 20061 40103 57019 762// 22200 10403 70013
BBXX 62104 21184 99574 10013 47197 /2021 10075 20064 40089 57023 762// 22200
BBXX 62116 21184 99576 10011 47295 /1925 10075 20067 40090 57024 771// 22200 10403 70014
BBXX 62127 21184 99540 10007 47697 ///// 10092 20083 40158 52006 762// 22200 10401 70007
BBXX 63057 21184 99592 10015 47396 /1831 10061 20024 40051 57037 761// 22200 10504 70019
BBXX 62128 21184 99587 10014 47296 /1828 10069 20037 40062 57037 761// 22200 10504 70018
BBXX 62129 21184 99584 10003 46/// ///// 10080 20072 40063 57027 22200
BBXX 62113 21184 99584 10002 47295 /2025 10078 20070 40067 57024 762// 22200
BBXX ZQSD5 21184 99583 10007 46/// /1927 10077 20065 40065 57036 22200 10703 70016
BBXX 62114 21184 99583 10000 46/// /2024 10081 20076 40053 57033 22200
BBXX 62134 21184 99580 10014 47297 /1926 10075 20044 40076 57034 762// 22200 10403 70015
BBXX 62102 21184 99579 10018 46/// /1825 10073 20030 40091 57025 22200 10503 70015
BBXX 62117 21184 99579 10000 47297 /2020 10086 20075 40071 57026 700// 22200 10403 70017
BBXX 62143 21184 99577 10018 47296 /1917 10067 20056 40089 57028 704// 22200 10403 70013
BBXX 62118 21184 99577 10009 47396 /1827 10091 20071 40067 57032 762// 22200 10503 70015
BBXX 62155 21184 99577 10007 47297 /1820 10080 20072 40076 57030 700// 22200 10403 70014
BBXX V2NA1 21184 99466 70169 41497 81814 10145 20135 40302 55004 70222 887// 22224 04120 20302 331// 40805 80139
BBXX 63118 21183 99591 10016 41496 81733 10066 40056 76166 8/7// 22200 10604 70021
BBXX 62094 21184 99517 70067 46/// /26// 10116 20100 40244 52016 22200 00106 10503 70017
BBXX 62103 21184 99499 70029 46/98 /3118 10119 20104 40232 52013 22200 00123 10703 70015 333 90710 91128
BBXX 62103 21184 99499 70029 46/99 /3125 10123 20104 40240 52017 22200 00123 10703 70014 333 90710 91131
BBXX 62107 21184 99501 70061 46/// /3020 10122 20096 40271 53019 22200 00117 10804 70022 333 90710 91127
BBXX 62095 21184 99531 70159 46/// /2221 10124 20107 40182 53001 22200 00112 10809 70045 333 90710 91133
BBXX DDZD2 21184 99458 70082 41298 83018 10131 20122 40331 52020 70222 887// 22255 00120 20603 80126
BBXX 62169 21183 99614 10014 41/97 81535 10044 20044 40032 57030 78186 88/// 22200 20606 3//// 4//// 5//// 80044
AAXX 21181 29998 42999 23002 11111 21164 38676 48535 57009 80001
AAXX 21181 30385 42999 30000 11314 21330 39709 40306 57003 80001
AAXX 21181 30469 429// 00000 11321 21337 39481 40336 58015
AAXX 21181 30636 419// 80000 11233 21251 39651 40314 57015 77172 80007
AAXX 21181 30650 42984 00000 11361 21390 39108 40388 57011
AAXX 21181 30664 42999 00000 11386 21402 39241 40387 57010
AAXX 21181 30781 NIL
AAXX 21181 30777 42998 02402 11318 21355 39608 40346 58002
AAXX 21181 30844 41999 80000 11205 21225 39289 40341 57009 70371 8802/
AAXX 21181 30925 429// 21901 11143 21186 39316 40340 57007 80001
AAXX 21181 31371 41999 63204 11224 21256 39922 40207 52007 70272 86010
AAXX 21181 31388 41984 80000 11207 21219 39889 40171 53003 70272 8801/
AAXX 21181 31478 NIL
AAXX 21181 31532 41998 80000 11251 21263 39839 40213 57001 77172 83027
AAXX 21181 31594 41996 82902 11221 21234 30011 40195 52016 77172 83037
AAXX 21181 31655 42998 00000 11228 21240 30151 40203 54000
AAXX 21181 31754 42999 00000 11324 21342 39684 40249 58005
AAXX 21181 28688 32997 02404 11145 21206 30270 40442 57010 333 11102
AAXX 21181 28383 32997 62003 11078 21157 30275 40364 57008 80002 333 11057
AAXX 21181 28465 32998 02004 11134 21177 30320 40403 57011 333 11080
AAXX 21181 28696 32997 72105 11124 21167 30277 40427 57012 87050 333 11121
AAXX 21181 28586 32997 22405 11103 21166 30249 40407 57012 80001 333 11085
AAXX 21181 28791 32998 02305 11141 21184 30291 40448 57007 333 11092
AAXX 21181 91945 06/// /0112 10246 20223 30145 40150 50015 60041 333 69987
AAXX 21181 38388 32998 00908 11035 21143 30262 40337 57009 333 10010
AAXX 21181 38392 32997 21006 11088 21181 30280 40391 58002 82030 333 11015
AAXX 21181 38507 31996 20000 10021 21136 30113 40218 58004 70511 80001 333 10097
AAXX 21181 38511 32998 30908 11015 21139 30135 40283 57006 80003 333 10012
AAXX 21181 38545 32998 01102 11092 21148 30204 40394 57007 333 11017
AAXX 21181 38647 32997 00912 11002 21143 30194 40238 57006 333 10043 91120
AAXX 21181 38656 39298 00906 11016 21057 30209 40324 58005 333 10034
AAXX 21181 38687 32996 00502 11078 21114 30139 40393 57012 333 11012
AAXX 21181 38750 32997 00701 10040 20017 30236 40207 54000 333 10088
AAXX 21181 38763 31994 30909 10002 21137 30131 40240 58011 73131 80006 333 10046
AAXX 21181 38774 32995 00904 11009 21062 30086 40290 57005 333 10050
AAXX 21181 38799 32997 01105 11048 21101 30131 40379 58016 333 10014
AAXX 21181 38806 32997 01101 11071 21109 30109 40390 58011 333 11002
AAXX 21181 38880 32997 01007 11001 21101 30025 40292 57006 333 10061
AAXX 21181 38886 32997 01140 11038 21079 30093 40335 57016 333 10037
AAXX 21181 38895 32996 01004 11046 21112 30062 40370 58009 333 10023
AAXX 21181 38911 32997 00903 11042 21072 30072 40386 57019 333 11010
AAXX 21181 38915 32997 01205 11035 21043 30048 40392 58014 333 10007
AAXX 21181 38974 32998 01401 11050 21104 39985 40341 58011 333 10055
AAXX 21181 38987 32996 02402 11055 21066 39567 40357 58007 333 10020
AAXX 21181 23929 11574 82302 11045 21116 30208 40276 57014 69950 70282 889// 333 11055
AAXX 21181 89062 42380 81506 11010 21023 39887 49928 57004 886// 333 87706
AAXX 21184 83550 31597 6//// 10302 20236 30075 40104 70211 82272 333 59012
AAXX 21184 83698 32999 03603 10332 20233 30070 40084 56012
AAXX 21184 83738 31698 80506 10320 20142 39600 40087 57010 71520 889//
AAXX 21181 28588 32998 02405 11092 21196 30248 40417 57008 333 11097
BBXX A8QJ7 21184 99179 70211 41/98 /0410 10260 20246 40141 53003 70200 8/1// 22213 06250 2//// 3//// 4//// 5//// 80250
AAXX 21181 60373 36/// /3306 10139 20135 333 10152
AAXX 21181 60623 36/// /0000 10130 21097 333 10172
AAXX 21181 60393 36/// /2302 10157 20118 333 10172
AAXX 21184 04203 46/// /1803 29073 39987 40005 57005
AAXX 21184 04205 45/84 /0801 11182 21271 39980 40004 57010 333 11124 21195
AAXX 21184 04208 46/// /0905 11124 21173 39925 49971 57009
AAXX 21184 04213 46/// /1610 11134 21234 39846 49959 57008 333 11133 21136
AAXX 21184 04214 46/// /3603 11091 21156 39911 49944 57008
AAXX 21184 04224 45/84 /1407 11140 21215 39912 49946 57005 333 11122 21145
AAXX 21184 04228 NIL
AAXX 21184 04242 46/// /0610 11103 21157 39944 49960 52002
AAXX 21184 04253 46/// /0909 11086 21149 39931 49958 52006
AAXX 21184 04266 46/// /2916 11046 21085 39914 49952 52008
AAXX 21184 04285 46/// /3409 11046 21096 39923 49942 54000
AAXX 21184 04301 46/// ///// 11270 21309 30059 40064 57016
AAXX 21184 04313 46/// /0413 11139 21161 30082 40094 57011
AAXX 21184 04330 46/// /0117 11048 21059 39871 49888 52014
AAXX 21184 04351 46/// /0603 11103 21155 39849 49865 57023
AAXX 21184 04373 46/// /3216 11082 21169 39792 49885 57005
AAXX 21184 04382 46/// /3004 11075 21131 39858 49907 57004
AAXX 21184 04416 NIL
BBXX 3FMH7 21184 99273 11402 41798 80816 00/// 10190 20142 40238 5//// 70322 87727 9//// 22273 0//// 1//// 20202 308// 40303 5//// 6//// 80160
BBXX SHIP 21184 99273 11337 41398 51319 10210 20180 40179 58022 70311 8434/ 22284 00240 80190
BBXX SHIP 21184 99408 11420 41297 62108 00/// 10000 ///// 40181 53000 70222 83363 9//// 22233 00169 2//// 3//// 4//// 5//// 6//// 8//// THNKS/B.REGARDS MASTER PACIFIC GLORY INM C - 443272110
BBXX A8CN8 21180 99532 11790 41497 41903 10000 40020 54000 70211 847// 22264 00040 2//03 327// 4//04 5////
BBXX SHIP 21184 99051 11278 41698 43410 10250 20222 40058 5/021 70211 8333/ 22284 00292 80230
BBXX H9UY 21184 99218 71635 41798 50524 00/// 10210 40158 51020 70211 85142 9//// 22273 04250 20403 305// 40504 5//// 6//// 80200
AAXX 21184 43466 22570 70508 10257 20211 30083 40095 82531 333 58010 60007 82630 86360
BBXX SHIP 21184 99125 31254 41697 82416 10275 20256 40032 57023 71722 86/// 22222 04305 10801 80261
BBXX SHIP 21184 99125 31254 41697 82416 10275 20256 40032 57023 71722 86/// 22222 04305 10801 80261
AAXX 21181 14428 12970 11002 10052 21023 30141 40148 50/// 60002 81030 333 10100 92311
AAXX 21181 14216 12975 60101 10054 21026 30008 40162 53/// 60002 86070 333 10106 923// 924/8
AAXX 21181 14219 12680 82701 11001 21029 39143 48446 53/// 60002 885// 333 10049 43018
AAXX 21181 14232 12782 61401 11002 21018 30033 40173 51/// 60002 86500 333 10048
AAXX 21181 14234 11975 80702 11006 21016 39922 40177 52/// 60002 700// 8807/ 333 10007
AAXX 21181 14236 11565 82901 10020 21024 39968 40170 52/// 60002 703// 8657/ 333 10034
AAXX 21181 14244 11960 00701 11008 21048 30044 40178 53/// 60002 700// 333 10019 42002
AAXX 21181 14248 11658 81601 11008 21024 39998 40178 54/// 60002 7102/ 8142/ 333 10005 41998
AAXX 21181 14253 11630 61101 11022 21033 39994 40175 51/// 60002 71022 86500 333 10009 43002
AAXX 21181 14256 12570 62303 11017 21044 39842 40171 52012 60002 82570 333 11010 43019
AAXX 21181 14280 12960 62001 11016 21023 30058 40171 51008 60002 86050 333 10003 44004
AAXX 21181 14308 12570 42502 10015 21045 39799 40161 53/// 60002 84600 333 10091
AAXX 21181 14321 12682 20000 10058 21001 30138 40163 54/// 60002 82100 333 10112 92300 92408
AAXX 21181 14370 12660 60000 11012 21028 30062 40175 52010 60002 86500 333 10008
AAXX 21181 14382 11550 82901 11001 21028 30055 40179 52013 60002 7102/ 885// 333 10010 42003
AAXX 21181 14428 NIL
AAXX 21181 14441 11989 00202 10048 21042 30107 40132 53/// 60002 700// 333 10103 92311
AAXX 21181 14452 NIL
AAXX 21181 14454 12980 11104 10095 21070 30061 40121 58/// 60002 80001 333 10105 92312
AAXX 21181 14462 12980 00203 10047 21065 30131 40137 51/// 60002 333 10084
AAXX 21184 67002 11570 81004 10245 20238 30105 40139 60142 70296 8682/ 333 10316 58010 82820 85628 88459 92417
AAXX 21184 67009 NIL
AAXX 21184 67025 NIL
AAXX 21184 67027 32580 32610 10274 20227 30083 40104 52014 83802 333 10318 81820 83640 555 81073
AAXX 21184 67083 32470 10000 10193 20128 38730 48504 52020 81800 333 10283 81817
AAXX 21184 67095 32475 10606 10275 20245 30102 40108 52029 81800 333 10320 81817 555 81633
AAXX 21184 67113 NIL
AAXX 21184 67117 NIL
AAXX 21184 67137 NIL
AAXX 21184 67143 NIL
AAXX 21184 67161 NIL
AAXX 21184 67197 11450 80000 10226 20207 30086 40096 51017 60042 79596 889// 333 10293 82817 83917 85633 94969 95879
AAXX 21181 21432 NIL
AAXX 21181 21824 41997 82102 11345 21359 30302 40312 54000 77872 83036
AAXX 21181 21908 42999 00000 11397 21416 30212 40304 54000
AAXX 21181 21921 41999 00000 11413 21444 30281 40333 52008 70271
AAXX 21181 21931 42998 02302 11388 21417 30274 40311 53010
AAXX 21181 21946 41999 32202 11327 21351 30223 40311 52004 70271 83030
AAXX 21181 21982 31596 82906 11170 21196 30140 40169 57004 69902 77173 8457/ 333 21203 48013 91109
AAXX 21181 25062 11596 82804 11245 21270 30226 40230 53013 69972 77072 885// 333 21262 48040 91106
AAXX 21181 25123 42996 01503 11380 21409 30256 40293 52009
AAXX 21181 25138 42999 20000 11429 21455 30164 40307 53013 80001 333 91101
AAXX 21181 25173 11595 33311 11225 21243 30192 40197 52003 69942 73873 83500 333 21242 48069 91115
AAXX 21181 25248 42998 00000 11413 21438 39782 40303 53012 333 91100
AAXX 21181 25282 11938 83611 11220 21232 30148 40155 52003 69940 73832 8803/ 333 21220 48009 91115
AAXX 21181 25325 NIL
AAXX 21181 25356 NIL
AAXX 21181 25399 11466 83306 11194 21220 30086 40096 52014 60020 73673 85531 333 21194 48071 55000 91109
AAXX 21181 25428 41919 70000 11468 21501 39931 40329 52008 71022 80001 333 91100
AAXX 21181 25551 32998 22902 11252 21299 30147 40180 52013 82030 333 21262 47035 55006 91104
AAXX 21181 25563 32984 40101 11180 21206 30057 40140 52017 84030 333 21183 48030 55000 91109
AAXX 21181 25594 31498 63306 11116 21136 30012 40063 52021 73632 86500 333 21118 49040 91110
AAXX 21181 25677 31394 83410 11142 21148 30095 40101 52018 73832 889// 333 11146 83707 91113
AAXX 21181 31054 42999 50501 11430 21455 30054 40376 52009 83026
AAXX 21181 31123 42997 82801 11293 21324 39972 40334 58003 77172 87017
AAXX 21184 68399 36/// /0404 10271 20193 39983 40090 52015 333 10371 20271 91025 555 91009
AAXX 21184 68379 36/// /0806 10276 20190 39777 48534 52012 333 10385 20273 91010 555 91010
AAXX 21181 14447 12984 03402 10072 21071 30110 40141 54/// 60002 333 10110 92311
AAXX 21181 08501 42/// /1608 10178 20163 30152 40187 57013 333 1//// 91013 91113
AAXX 21184 61600 32960 70806 10300 20037 30124 40129 80002 333 10330 58009 87073
AAXX 21184 61612 31935 00804 10280 21014 30127 40135 70611 333 10300 58012
AAXX 21184 61627 31956 60808 10294 20046 3//// 4//// 7071/ 86080 333 10304 5//// 86363
AAXX 21184 61630 32958 71004 10275 20096 30114 40133 8707/ 333 10313 58015 87363
AAXX 21184 61641 32960 23407 10270 20190 30088 40121 82030 333 10330 59001 82363
AAXX 21184 61666 32962 60804 10312 20049 30106 40114 86080 333 10340 58009 86073
AAXX 21184 61679 32960 40408 10334 20120 30108 40116 84030 333 10350 59002 84363
AAXX 21184 61687 32960 60612 10320 21031 30058 40115 85082 333 10345 58008 85363 83073
AAXX 21184 61695 32960 00804 10307 20117 30081 40107 333 10346 59008
AAXX 21184 61697 32960 02402 10285 20202 30093 40108 333 10335 59008
AAXX 21184 61698 32960 30802 10325 20098 30092 40103 83030 333 10356 59008 83363
AAXX 21184 61699 32960 21006 10308 20010 39910 40099 80002 333 10342 58005 82073
AAXX 21184 65528 NIL
AAXX 21184 65536 NIL
AAXX 21184 65545 NIL
AAXX 21184 65548 NIL
AAXX 21184 65555 NIL
AAXX 21184 65557 NIL
AAXX 21184 65560 NIL
AAXX 21184 65562 NIL
AAXX 21184 65563 NIL
AAXX 21184 65578 11458 72804 10235 20220 30093 40110 60202 79196 86900 333 10300 59004 81916 87620 94942 95872
AAXX 21184 65585 NIL
AAXX 21184 65592 NIL
AAXX 21184 65594 NIL
AAXX 21184 65599 NIL
BBXX 3FCA9 21184 99495 71294 41599 60902 00/// 10070 21020 40320 54000 70200 86842 22225 00050 20802 32929 40802 50802 6//// 80070 ///// /////
BBXX 46001 21181 99563 71480 46/// /1002 10041 40082 57017 91750 22200 00051 11410 20401 300// 41410 70050 333 91204 555 11016 22017 31720 40904 61749 096016 123013 117018 104017 107011 136012
BBXX 46042 21181 99368 71224 46/// /0703 10111 40194 53011 91750 22200 00125 11506 20301 331// 41506 70029 333 91205 555 11034 22035 31658 40906 61749 072033 078034 078037 077039 077042 076048
BBXX 46207 21181 99509 71299 46/// /1804 10075 40311 57011 22200 00081 11305 70026 333 91205
BBXX 9HA2064 21183 99470 71442 41695 81125 10110 20092 40110 57040 71222 889// 22274 0//// 2//// 3//// 4//// 5//// 6//// 80100 ICE /////
BBXX A8EH2 21184 99474 71401 41097 81822 10095 20085 40200 57035 87739 22284 00070 20503 328// 41206 80090
BBXX KGTZ 21184 99533 71363 41296 81731 10044 20030 40178 57013 76362 886// 22234 00078 20605 320// 41004 5//// 6//// 80039 ICE /////
BBXX SHIP 21184 99391 71488 41797 72024 10160 20140 40171 52009 70322 8796/ 22234 00180 20308 317// 40206 5//// 6//// 80150 ICE /////
BBXX SHIP 21184 99317 71253 41497 73608 10140 20110 40280 52020 70122 87489 22223 00160 20404 333 // 41006 5//// 6//// 80120 ICE /////
BBXX SJCD 21181 99509 71350 43/97 81813 10068 40248 58045 22263 00076
BBXX VQAJ8 21183 99317 71205 41998 03015 10142 20110 40199 52016 70200 80000 22262 00161 20303 334// 40604 5//// 80125
BBXX WFLH 21183 99324 71235 43598 32916 10183 20139 40212 54/// 7//// 831// 22223 00144 20601 335// 41207 5//// 6//// 80156 ICE /////
BBXX 46147 21181 99518 71312 46/// /1807 10074 40295 57017 22200 00078 11305 70026 333 91209
AAXX 21181 21432 42998 00000 11283 21313 30319 40340 53002
BBXX 46241 21181 99330 71173 46/// ///// 1//// 91741 22200 00142 11301 20501 326// 41301 70007
BBXX 46088 21181 99483 71232 46/// /3605 10062 40336 91820 22200 00078 10601 70003 333 91206 555 11051 22053 31733 43508 61819 002049 001050 359058 355065 354067 353067
BBXX 46249 21181 99338 71197 46/// ///// 1//// 91812 22200 00147 11403 20902 325// 41402 70014
BBXX 46248 21181 99461 71247 46/// ///// 1//// 91804 22200 00097 11406 20904 328// 41405 70030
BBXX 46244 21181 99409 71244 46/// ///// 1//// 91805 22200 00096 11408 20906 330// 41406 70041
BBXX 46147 21181 99518 71312 46/// /1807 10074 40295 57017 22200 00078 11305 70026 333 91209
BBXX 41115 21181 99184 70673 46/// ///// 1//// 91805 22200 11305 21003 336// 41304 70026
BBXX 41114 21181 99276 70802 46/// ///// 1//// 91816 22200 00237 11303 20502 306// 41302 70015
BBXX 46216 21181 99343 71198 46/// ///// 1//// 91757 22200 00144 11303 21002 326// 41302 70014
BBXX 46240 21181 99366 71219 46/// ///// 1//// 91812 22200 00123 11403 21002 300// 41402 70014
BBXX 46237 21181 99378 71226 46/// ///// 1//// 91810 22200 00110 11404 20802 326// 41404 70022
BBXX 46212 21181 99408 71243 46/// ///// 1//// 91812 22200 00097 11307 20805 330// 41305 70036
BBXX 46217 21181 99342 71194 46/// ///// 1//// 91812 22200 00151 11402 20902 326// 41401 70011
AAXX 21184 78397 111578 51218 10303 20196 30121 40137 60001 70522 81842 333 01299 10318 20240 59006 81820 83359
AAXX 21181 25703 41996 20000 11448 21483 30029 40349 52006 77671 80001
AAXX 21181 25745 NIL
AAXX 21181 25913 42699 60404 11219 21276 30047 40207 53011 82530
AAXX 21181 25954 42998 30106 11201 21250 30000 40121 52012 80001
AAXX 21181 25956 42598 70705 11163 21213 30082 40088 52010 87500
AAXX 21181 31088 41597 83503 11178 21204 30198 40206 52008 77172 885//
AAXX 21181 31873 42997 00301 11166 21193 30040 40182 58007
AAXX 21181 31909 42998 03303 11174 21208 30113 40196 57007
AAXX 21181 31960 41998 83504 11050 21104 39933 40174 57005 72272 8802/
AAXX 21181 31961 41996 83201 11088 21126 30133 40180 53006 70411 8802/
AAXX 21181 32053 NIL
AAXX 21181 32061 42981 01304 11199 21218 30176 40218 53002 333 91005 91106
AAXX 21181 32098 41598 33403 11179 21191 30215 40226 53001 78580 83900 333 91005 91105
AAXX 21181 32150 42996 23602 11144 21150 30166 40198 57004 80001 333 91003 91105
AAXX 21181 32165 41598 60203 11032 21046 30149 40212 57007 70281 86900 333 91004 91105
AAXX 21181 32215 41596 73405 11067 21087 30126 40156 52008 78583 87900 333 91010 91113
AAXX 21181 32252 NIL
AAXX 21181 32389 41993 00000 11344 21362 30133 40175 52008 74840
AAXX 21181 32477 42998 00601 11292 21316 30141 40177 53009
AAXX 21181 32583 42999 03504 11130 21173 30092 40124 53002
AAXX 21181 32618 42598 83609 11058 21101 30061 40083 54000 885// 333 91012 91113
BBXX A8SI8 21184 99343 10226 43498 52435 10150 2014/ 40210 58040 22275 00180 80160
BBXX 46223 21181 99335 71178 46/// ///// 1//// 91800 22200 00150 11302 20901 327// 41302 70011
AAXX 21181 78310 12570 71408 10267 20227 30164 40174 58008 60001 86202 333 10284 20211 30/// 56909 57811 58006 86820 92026
AAXX 21181 78315 12575 51504 10260 20200 30108 40173 58017 60001 85800 333 10274 20190 30/// 56300 58000 84820 555 11302
AAXX 21181 78318 11562 41205 10265 20187 30169 40173 57015 60001 70500 84200 333 10267 20207 30/// 56400 58003 84820 555 11802
AAXX 21181 78322 11559 11006 10270 20177 30166 40183 58020 60001 70500 81100 333 10274 20190 30/// 56900 59002 81820
AAXX 21181 78324 11/10 11203 10278 20200 30160 40171 58016 60001 70500 81202 333 10278 20242 30/// 56909 58001 79999 818//
AAXX 21181 78325 11/64 11406 10287 20171 30118 40176 58023 60001 70400 81200 333 10289 20195 30/// 56900 59003 818//
AAXX 21181 78328 11/61 10904 10255 20196 30185 40/// 58017 60001 70500 81100 333 10257 20209 30/// 56900 59004 818// 92427
AAXX 21181 78333 11910 11402 10280 20162 30169 40176 58023 60001 70500 80002 333 10281 20175 30/// 56000 59003 81070
AAXX 21181 78344 11564 10901 10290 20143 30119 40167 58025 60001 70500 81240 333 10290 20197 30/// 56990 59005 81820
AAXX 21181 78345 12565 41104 10283 20185 30177 40180 57019 60001 81508 333 10290 20169 30/// 56900 59004 81820 83273
AAXX 21181 78348 11557 20603 10258 20178 30134 40186 58014 60001 70500 82200 333 10260 20186 30/// 56200 57834 59002 82820 555 10901
AAXX 21181 78349 11565 40904 10276 20170 30076 40185 58024 60001 70500 83230 333 10276 20175 30/// 56390 59002 83822 555 11202
AAXX 21181 78351 12550 70606 10270 20185 30162 40164 58007 60001 81802 333 10270 20176 30/// 56909 59002 81826 87081
AAXX 21181 78353 NIL
AAXX 21181 78355 12570 60806 10270 20181 30040 40181 58016 60001 84802 333 10270 20180 30/// 56109 59008 83823 84082 555 10603
AAXX 21181 78358 11540 60908 10274 20219 30157 40172 58020 60001 70522 83232 333 10275 20202 31/// 56299 59014 83823 84070 555 10903
AAXX 21181 78360 12570 30411 10295 20191 30153 40165 58020 60001 81802 333 10295 20197 30/// 56909 59004 70008 81820 92045
AAXX 21181 78363 11562 40902 10281 20172 30034 40149 58028 60001 70511 83202 333 10281 20149 30/// 56209 59006 83820 555 10903
AAXX 21181 78365 11562 60915 10261 20210 30180 40185 58020 60001 70522 85862 333 10265 20243 30/// 56299 57843 59009 85820 92047 555 10903
AAXX 21181 78369 11568 50808 10269 20208 30169 40178 57018 60001 70522 83202 333 10272 20237 30/// 56209 57863 59003 70002 83820 92045 555 10903
BBXX 46231 21181 99327 71174 46/// ///// 1//// 91754 22200 00150 11402 21001 326// 41402 70011
BBXX 46222 21181 99336 71183 46/// ///// 1//// 91756 22200 00151 11402 21001 327// 41401 70010
BBXX 46242 21181 99332 71174 46/// ///// 1//// 91758 22200 00143 11401 20501 323// 41401 70006
BBXX 46211 21181 99469 71242 46/// ///// 1//// 91806 22200 00081 11306 21004 327// 41305 70031
AAXX 21184 78397 111578 51218 10303 20196 30121 40137 60001 70522 81842 333 01299 10318 20240 59006 81820 83359
AAXX 21181 63021 42380 10705 10122 20109 37746 40172 81600 333 58001 81710 555 10226
AAXX 21184 89002 42999 72810 11032 21046 39708 49762 52005 80006
AAXX 21181 08501 42/// /1608 10178 20163 30152 40187 57013 333 1//// 91013 91113 555 60005
AAXX 21184 60663 36/// /0802 10154 21053 333 10194
AAXX 21181 23219 11396 82508 11082 21101 30075 40185 57007 69992 77173 8802/ 333 11046
AAXX 21181 89064 31/03 91802 10023 29092 49923 52001 74544 8////
AAXX 21184 60612 36/// /0000 10143 21049 333 10195
AAXX 21184 60664 36/// /0000 10130 21045 333 10183
AAXX 21184 60676 16/// /0304 10144 21017 60052 333 10172
AAXX 21184 60633 36/// /0305 10192 21080 333 10238
AAXX 21184 60619 36/// /3604 10106 21075 333 10156
AAXX 21184 60667 36/// /0000 10145 21016 333 10192
AAXX 21184 60691 36/// /0209 10213 21103 333 10267
AAXX 21184 60692 36/// /3607 10211 21074 333 10264
AAXX 21184 60662 36/// /0000 10105 21028 333 10157
AAXX 21184 71979 16/// ///// 11078 21096 38548 40241 51000 60001 333 11058 21143 70018 555 10030
AAXX 21184 71665 16/// /2505 11140 21199 39951 49961 56026 60001 333 11140 21215 70000
AAXX 21184 60621 36/// /3610 10135 21065 333 10182
AAXX 21184 71276 16/// ///17 11042 21063 60001 333 11039 21075 70000
AAXX 21184 71589 16/// /2709 11036 21075 30022 40157 51012 60001 333 11025 21083 70036 555 10030
AAXX 21184 71026 17/// /3306 11035 21071 39385 40257 51049 69971 7//4/ 333 21038 7////
AAXX 21184 71375 46/// /3103 11063 6///1 333 11063 21138 7////
AAXX 21184 71343 17/// /3414 11029 21045 69981 7//4/ 333 11008 21053 70008
AAXX 21184 71217 17/// /3307 11030 21085 69951 7//4/ 333 11021 21073 70005
AAXX 21184 71224 17/// /3322 11053 21059 60011 7//4/ 333 11021 21065 70010
AAXX 21184 71189 46/// /1005 11069 21113 6///1 333 11069 21126 7////
BBXX 46145 21181 99544 71324 46/// /1607 10052 40263 57023 22200 00071 11104 70019 333 91209
BBXX 46221 21181 99339 71186 46/// ///// 1//// 91745 22200 00148 11402 21001 326// 41401 70009
AAXX 21184 93800 16/// /1406 10124 20105 40287 52004 60001
AAXX 21184 93805 16/// /0308 10127 20107 40291 52002 60001
AAXX 21184 93994 16/// /1209 10203 20172 40174 52007 60001
AAXX 21184 71276 16/// ///17 11042 21063 60001 333 11039 21075 70000
AAXX 21184 71979 16/// ///// 11078 21096 38548 40241 51000 60001 333 11058 21143 70018 555 10030
AAXX 21184 71665 16/// /2505 11140 21199 39951 49961 56026 60001 333 11140 21215 70000
AAXX 21184 71189 46/// /1005 11069 21113 6///1 333 11069 21126 7////
AAXX 21184 71375 46/// /3103 11063 6///1 333 11063 21138 7////
AAXX 21181 56193 NIL
AAXX 21181 56196 31950 83201 10067 20047 40299 57005 71000 8807/ 333 00300 10125
AAXX 21181 56287 11462 82502 10062 20047 40311 57009 69931 76060 885// 333 00300 10078
AAXX 21181 56684 32560 80702 10004 21017 37932 57002 885// 333 00453 10033
AAXX 21181 56751 32980 03402 10068 21006 38018 52002 333 00100 10186
AAXX 21181 56786 11560 83204 10033 20010 38139 54000 69901 76000 885// 333 00454 10163
AAXX 21181 56977 32465 72901 10124 20121 40164 57007 874// 333 00000 10216
AAXX 21181 57259 11965 80201 10038 20038 40339 57002 69901 70060 8807/ 333 10077
AAXX 21181 57279 32961 70401 10041 21083 40337 52002 8703/ 333 10097
AAXX 21181 57348 11856 83602 10084 20040 40308 57003 69971 76066 885// 333 10090
AAXX 21181 57399 32960 53603 10050 21012 40321 57002 85030 333 10101
AAXX 21181 57554 11820 80000 10046 20036 40332 57003 69921 71060 885// 333 10063
AAXX 21181 57793 11730 82903 10076 20057 40295 52001 69901 76060 885// 333 10135
AAXX 21181 58345 31940 83602 10056 20019 40314 52007 71000 8807/ 333 10088
AAXX 21181 58506 11/00 90210 11015 21016 40306 57002 60021 77074 333 10033
AAXX 21181 58813 32965 80201 10070 20032 40273 52004 8807/ 333 10162
AAXX 21181 58834 32763 21401 10099 20085 40240 52008 82500 333 10205
AAXX 21181 58926 32963 03601 10108 20087 40221 52005 333 10226
AAXX 21181 58944 32462 80206 10139 20101 40224 57001 885// 333 10159
AAXX 21181 59096 32963 00202 10115 20033 40234 52005 333 10222
AAXX 21181 59102 32961 00204 10101 20036 40237 52008 333 10193
AAXX 21181 59278 32761 70203 10179 20061 40207 54000 875// 333 10226
AAXX 21181 59456 32868 70201 10187 20069 40192 57002 875// 333 10254
AAXX 21181 59493 32960 70402 10174 20088 40192 57001 8704/ 333 10229
AAXX 21181 59658 32764 33401 10168 20115 40185 57010 83500 333 10225
AAXX 21181 59673 32962 00406 10179 20103 40185 57004 333 10223
AAXX 21181 59845 32560 80000 10185 20156 40182 57010 888// 333 10212
AAXX 21184 71589 16/// /2709 11036 21075 30022 40157 51012 60001 333 11025 21083 70036 555 10030
BBXX 46145 21181 99544 71324 46/// /1607 10052 40263 57023 22200 00071 11104 70019 333 91209
AAXX 21184 71217 17/// /3307 11030 21085 69951 7//4/ 333 11021 21073 70005
AAXX 21184 71224 17/// /3322 11053 21059 60011 7//4/ 333 11021 21065 70010
AAXX 21184 71343 17/// /3414 11029 21045 69981 7//4/ 333 11008 21053 70008
AAXX 21184 71026 17/// /3306 11035 21071 39385 40257 51049 69971 7//4/ 333 21038 7////
AAXX 21181 50434 32980 52902 11255 21300 39303 40274 52003 80002 333 11189
AAXX 21181 50527 32970 02904 11296 21332 39445 40323 52006 333 11186
AAXX 21181 50603 32979 02905 11240 21294 39600 40344 57003 333 11147
AAXX 21181 50632 32980 02906 11240 21289 39296 40269 52001 333 11156
AAXX 21181 50727 11980 00000 11302 21339 39036 40353 52009 69901 72277 333 11190
AAXX 21181 50915 32980 02202 11249 21299 39278 40381 52001 333 11139
AAXX 21181 51716 32965 01602 11100 21137 39050 40426 57004 333 05155 11017
AAXX 21181 51765 32980 03401 11137 21183 39371 40450 57004 333 05252 11028
AAXX 21181 51777 32970 02001 11128 21182 39322 40442 57007 333 05153 11010
AAXX 21181 51811 32962 51801 11093 21114 38923 40432 57008 80002 333 05153 11028
AAXX 21181 51828 11965 82902 11078 21096 38766 40435 54000 69911 77070 8807/ 333 00051 11046
AAXX 21181 52267 32980 02901 11145 21238 39241 40434 57011 333 05152 11041
AAXX 21181 52323 32980 02704 11206 21242 38318 57012 333 05353 11058
AAXX 21181 52495 32980 02702 11171 21246 38803 40445 57011 333 00051 11051
AAXX 21181 53149 32980 02904 11159 21208 38883 40419 57003 333 00351 11097
AAXX 21181 53192 11980 23201 11268 21295 38968 40436 57002 69901 70070 80002 333 11167
AAXX 21181 53231 32980 01605 11175 21232 38584 57016 333 00000 11092
AAXX 21181 53336 32980 02902 11151 21217 38823 40419 57011 333 00152 11075
AAXX 21181 53391 32980 02704 11197 21226 38572 40415 52006 333 00453 11124
AAXX 21181 53529 32980 00000 11149 21215 38734 40424 57013 333 00255 11034
AAXX 21181 53543 32980 03401 11125 21203 38628 40405 57012 333 11065
AAXX 21181 53723 32970 02701 11144 21185 38777 40434 57004 333 00154 11039
AAXX 21181 54012 11980 02506 11220 21261 39082 40380 52004 69911 70070 333 11153
AAXX 21181 54026 32980 03203 11154 21298 39959 40310 52009 333 11070
AAXX 21181 54027 32980 02904 11148 21269 39699 40334 52014 333 11086
AAXX 21181 54208 11980 02706 11196 21226 38822 40396 52001 69901 70070 333 11136
AAXX 21181 54776 32580 53414 11002 21081 30238 40297 52014 85400 333 10048 91122 91534
AAXX 21181 56004 32980 02902 11181 21356 35805 52002 333 00200 10006
AAXX 21181 56033 32680 20702 11174 21295 35992 52001 81502 333 00052 11011
AAXX 21181 56046 32980 00000 11145 21211 36231 52002 333 00001 10040
BBXX 46183 21181 99536 71311 46/// /1710 10071 40279 57016 22200 00078 10402 70011 333 91211
BBXX 46183 21181 99536 71311 46/// /1710 10071 40279 57016 22200 00078 10402 70011 333 91211
BBXX 41112 21181 99307 70813 46/// ///// 1//// 91751 22200 00159 10602 20602 308// 41301 70011
AAXX 21184 87244 31965 00508 10424 20216 39613 4//// 5//// 70500
AAXX 21184 45011 47950 /0111 10169 20112 40189 57003 71011 333 58010
AAXX 21184 84370 31560 43510 10282 20225 30057 40090 70122 84500 333 56900 58005 84630
AAXX 21184 84444 21440 81010 10146 20136 37530 71064 8313/ 333 5699/ 58000 83810 85650 88362
AAXX 21184 84455 21459 80000 10267 20227 39820 40172 70364 8353/ 333 5600/ 58000 60111 83620 88458
AAXX 21184 84425 21230 83404 10248 20231 39936 40155 76166 886// 333 568// 59024 60041 88706
AAXX 21184 84390 31965 621013 10292 20186 39985 40084 70210 86030 333 56/5/ 59008 86357
AAXX 21184 84515 21460 83306 10258 20241 39940 40117 70226 8542/
AAXX 21184 333 5699/ 59006 60011 85614 83458
AAXX 21184 84628 34960 61909 10253 20178 30073 40089 70242 86031 333 56011 59032 83363 83076
AAXX 21181 60379 36/// /2903 10151 20151 333 10164
AAXX 21181 60380 36/// /3102 10132 20109 333 10169
AAXX 21181 60394 36/// /2703 10153 20123 333 10177
AAXX 21181 60374 36/// /2807 10158 20154 333 10165
AAXX 21181 60613 36/// /3105 10092 21060 333 10148
AAXX 21181 08561 32970 03203 10122 20108 30059 40294 56002 333 10140 555 60007
AAXX 21184 78922 46/// /0817 10273 20209 30101 40145 58020
BBXX 46131 21181 99499 71250 46/// /2905 1//// 40349 52027 22200 00070 10200 70001 333 91205
BBXX 46131 21181 99499 71250 46/// /2905 1//// 40349 52027 22200 00070 10200 70001 333 91205
AAXX 21184 65557 32460 7//// 10300 20238 39875 40095 872// 333 10/// 59009 87813 94919
AAXX 21184 65592 31458 5//// 10282 20248 30067 40090 71799 82930 333 10306 59006 82813 81923 94916 94948 95838
AAXX 21184 65594 31459 81804 10279 20246 30066 40100 72999 8357/ 333 10305 59006 83613 88360
AAXX 21184 65599 31460 6//// 10270 20250 30012 40086 70399 84903 333 10300 58000 84915 86076 94901 94968 95838
BBXX MINFR09 2118/ 99274 31532 46/// ///// 40139 57004
BBXX 46204 21181 99514 71288 46/// /0806 10059 40317 57008 22200 00080 11405 70025 333 91208
BBXX 46204 21181 99514 71288 46/// /0806 10059 40317 57008 22200 00080 11405 70025 333 91208
AAXX 21181 40602 12960 70602 10106 20021 40263 52009 60002 87020
AAXX 21181 40604 12560 30000 10120 20066 40223 52010 60002 83200
AAXX 21181 40608 12960 40302 10104 20006 40230 52013 60002 84030
AAXX 21181 40621 12960 30802 10123 20014 40252 52006 60002 80001
AAXX 21181 40629 12560 50000 10100 20056 40226 54000 60002 83232
AAXX 21181 40634 12960 70000 10102 20054 40221 53002 60002 80007
AAXX 21181 40645 12960 03301 10095 20057 40229 52003 60002
AAXX 21181 40650 12960 11002 10100 20030 40228 53002 60002 80002
AAXX 21181 40656 12960 00000 10122 20057 40204 52005 60002
AAXX 21181 40665 12960 01702 10118 20058 40237 52010 60002
AAXX 21181 40670 12960 20000 10126 20060 40216 51004 60002 80002
AAXX 21181 40674 12960 00000 10103 20026 40228 52010 60002
AAXX 21181 40676 12960 20000 10110 20043 40230 50012 60002 80002
AAXX 21181 40680 12960 02602 10118 20045 40212 52010 60002
AAXX 21181 40689 12960 00000 10118 20058 40237 52008 60002
AAXX 21181 40691 12960 00000 10134 20091 40252 52010 60002
BBXX ZDLS1 21183 99640 30020 41397 82126 11022 21044 49758 51006 70222 888// 22253 05019 20101 30000 82028 ICE 66113
BBXX ZSAF 21184 99696 50066 41599 63507 11017 21056 49773 51013 70320 82531 22262 05013 20000 30000 40000 50000 ICE 36730
AAXX 21184 91650 NIL
AAXX 21184 91652 NIL
AAXX 21184 91656 NIL
AAXX 21184 91659 NIL
AAXX 21184 91660 NIL
AAXX 21184 91669 36/// /1307 10261 20255 40097 52008 91815
AAXX 21184 91670 36/// /1100 10242 20228 40096
AAXX 21184 91676 NIL
AAXX 21184 91680 11598 70000 10239 20238 40097 53008 69951 72166 8587/ 333 5699/ 81828 84648 86460
AAXX 21184 91682 NIL
AAXX 21184 91683 11598 70000 10233 20229 40100 53005 60001 70222 878// 333 569// 84820 85645 86464
AAXX 21184 91691 NIL
AAXX 21184 91693 NIL
AAXX 21184 91697 NIL
AAXX 21184 91699 NIL
AAXX 21184 67765 42882 11901 10225 20127 38650 48494 81402 333 10298 59010 81656
AAXX 21184 67775 42880 13603 10210 20115 38491 48495 81400 333 10282 59012 81656
AAXX 21184 67779 NIL
AAXX 21184 67853 NIL
AAXX 21184 67861 NIL
AAXX 21184 67867 42980 10000 10220 20103 38567 48495 80001 333 10287 59013 81080
AAXX 21184 67881 42980 00000 10204 20113 38567 48595 333 10277 59018
AAXX 21184 67965 42980 11505 10225 20107 38674 48500 80002 333 10303 58015 81080
AAXX 21184 67975 NIL
AAXX 21184 67977 NIL
AAXX 21184 67983 42980 20000 10199 20141 38871 48497 80001 333 10278 59024 82080
AAXX 21184 67991 42980 00000 10304 20179 39537 48469 333 10354 59036
AAXX 21181 47008 41960 23203 11031 21113 30122 40178 53004 71000 82050
AAXX 21181 47014 42950 20000 11109 21171 39822 40246 54000 80001
AAXX 21181 47016 11570 20000 11122 21167 39332 40225 58005 69901 77077 82500
AAXX 21181 47020 42965 03202 11095 21165 39870 40269 52018
AAXX 21181 47025 NIL
AAXX 21181 47035 42970 03606 11072 21164 30276 40285 52010
AAXX 21181 47041 NIL
AAXX 21181 47055 42970 02706 11006 21078 30155 40202 53005
AAXX 21181 47058 42960 03206 11059 21149 30218 40268 52015
AAXX 21181 47069 NIL
AAXX 21184 83264 21797 52302 10295 20233 39667 40129 70066 82114 333 59001 60021
AAXX 21184 83358 32698 83606 10276 20219 39681 40078 885// 333 58013
BBXX VROB 21184 99378 31449 46/// /1004 10152 20114 30134 40160 57006 22200 04201 85130
BBXX VNAH 21184 99322 31157 46/// /1714 10196 20161 30101 40124 57015 22200 85174
BBXX VREN5 21183 99349 31742 41297 51116 10185 20142 40252 56/// 70322 8/762 22272 20503 80160
AAXX 21181 48826 31796 70502 10178 20156 30047 40185 58010 71022 875// 333 58014 87697
AAXX 21181 48839 32697 80209 10194 20146 30114 40180 57008 885// 222// 00196 2//// 333 58011 88696
AAXX 21181 48808 32498 80000 10142 20127 39919 40210 58004 888// 333 58021 83894 88696
AAXX 21181 48830 31796 73602 10148 20111 39888 40203 58002 71022 875// 333 58014 87697
BBXX VROB 21184 99378 31449 46/// /1004 10152 20114 30134 40160 57006 22200 04201 85130
BBXX VNAH 21184 99322 31157 46/// /1714 10196 20161 30101 40124 57015 22200 85174
BBXX VREN5 21183 99349 31742 41297 51116 10185 20142 40252 56/// 70322 8/762 22272 20503 80160
BBXX 44098 21181 99428 70702 46/// ///// 1//// 91807 22200 00087 10603 20603 310// 41201 70016
BBXX 44029 21181 99425 70706 46/30 /1507 10090 40124 58048 91804 22200 00088 10502 70011 333 91209 555 11090 22097
BBXX 44030 21181 99432 70704 46/// /1807 1//// 40128 58048 91804 22200 00084 10603 70017 333 91209 555 11091 22097
BBXX 44039 21181 99411 70727 46/// /2007 10119 20108 40137 91815 22200 00092 10201 70003 333 91208
BBXX 44060 21181 99413 70721 46/// ///05 10110 40135 91815 22200 00104 333 91206 555 11057 22062
BBXX 44022 21181 99409 70737 46/// ///03 10108 20098 40120 91815 22200 00081 333 91203 555 11031 22036
BBXX 44033 21181 99441 70690 46/30 /2403 10045 40142 58034 91804 22200 00068 10603 70014 333 91204 555 11036 22037
BBXX 44034 21181 99441 70681 46/30 /2011 10081 40147 58035 91804 22200 00084 10606 70028 333 91213 555 11135 22144
BBXX 44040 21181 99410 70736 46/// /1904 10111 20111 40126 91815 22200 1//00 70001 333 91205 555 11046 22057
BBXX 46088 21181 99483 71232 46/// /3605 10062 40336 91820 22200 00078 10601 70003 333 91206 555 11051 22053 31733 43508 61819 002049 001050 359058 355065 354067 353067
BBXX 46087 21181 99485 71247 46/// /0806 10061 20030 40334 91820 22200 00076 333 91208 555 11064 22067 31724 40809 61819 080061 077061 077062 080061 080061 080064
BBXX 51205 21181 99210 71564 46/// ///// 1//// 91818 22200 00240 10905 20905 332// 41302 70026
BBXX 46114 21181 99364 71222 46/// ///// 1//// 91804 22200 00121 11406 21003 330// 41405 70030
BBXX 42362 21181 99278 70907 46/// /2307 10233 20211 40166 58003 91800
BBXX 42362 21181 99278 70907 46/// /2306 10233 20211 40159 91815
BBXX 42364 21181 99291 70881 46/// /2502 10233 20211 40159 91815
BBXX 41036 21181 99342 70770 46/// ///// 10213 20156 40188 91820 22200 00186
BBXX C6YZ5 21184 99253 70761 41698 51013 10250 2//// 40190 55/// 7//22 852// 22273 00250 20304 310// 4//// 5//// 6//// 8//// ICE /////
BBXX WDJK 21184 99410 71260 41997 10233 10118 20084 40256 52005 70500 80001 22273 00100 20505 301// 40809 5//// 6//// 80100 ICE /////
BBXX WHKM 21184 99122 70463 41197 11224 10260 20232 40140 51010 7//00 814// 22213 0//// 2//// 3//// 4//// 5//// 6//// 80240 ICE /////
AAXX 21181 30157 41997 82901 11269 21293 30014 40329 58009 77172 80007
AAXX 21181 35229 329// 21401 11156 21203 30160 40460 58002 80001 333 11091
AAXX 21181 35416 319// 61308 11128 21196 30264 40393 57004 73632 83075 333 11098 91115
AAXX 21181 35426 329// 21103 11155 21210 30130 40447 58012 80001 333 11125
AAXX 21181 35532 31993 01116 11202 21235 39918 40462 58014 73933 333 11163 91020
AAXX 21181 35229 329// 21401 11156 21203 30160 40460 58002 80001 333 11091
AAXX 21181 35416 319// 61308 11128 21196 30264 40393 57004 73632 83075 333 11098 91115
AAXX 21181 35426 329// 21103 11155 21210 30130 40447 58012 80001 333 11125
AAXX 21181 35532 31993 01116 11202 21235 39918 40462 58014 73933 333 11163 91020
AAXX 21181 21802 NIL
AAXX 21181 24125 41998 80000 11370 21385 39993 40315 57001 77172 80007
AAXX 21181 24136 42999 00000 11479 21511 30202 40324 54000
AAXX 21181 24143 42999 00000 11442 21475 30265 40325 52005
AAXX 21181 24266 41998 62501 11449 21476 30155 40365 52006 70272 80001
AAXX 21181 24329 42998 60000 11413 21438 39983 40335 57003 86010
AAXX 21181 24343 41597 81303 11419 21448 30198 40338 52009 77172 84507 333 84620
AAXX 21181 24382 41997 80000 11372 21401 30052 40341 53010 77077 82036
AAXX 21181 24639 41995 80000 11432 21461 30157 40338 53003 77172 80007
AAXX 21181 24641 41998 01901 11431 21461 30169 40338 52002 71200
AAXX 21181 24652 41996 00601 11455 21476 30212 40359 52008 71000
AAXX 21181 24656 42999 00000 11472 21501 30242 40364 52009
AAXX 21181 24671 42999 00000 11482 21505 39782 40395 52009
AAXX 21181 24688 41999 30000 11472 21501 39329 40424 52010 70411 80001
AAXX 21181 24724 42999 02902 11360 21390 39728 40335 50000
AAXX 21181 24738 41994 21601 11456 21474 30132 40344 53001 71000 80001
AAXX 21181 24768 42998 00000 11466 21502 30090 40372 52009
AAXX 21181 24923 42999 32502 11366 21394 39993 40348 54000 80001
AAXX 21181 24944 42997 60802 11434 21456 30015 40361 54000 80001
AAXX 21181 24951 42999 00000 11432 21468 30167 40366 51003
AAXX 21181 24661 41998 20000 11465 21501 30044 40365 51007 74071 80001
AAXX 21181 24959 41993 83001 11425 21448 30206 40360 57004 74874 80005
AAXX 21181 24962 41993 00000 11486 21516 30154 40383 52006 74440
AAXX 21181 24966 41998 80000 11447 21471 30105 40366 52007 77172 80007
AAXX 21181 24967 42999 80000 11438 21468 30128 40389 52002 80006
AAXX 21181 25206 41998 82201 11352 21380 30282 40313 52008 77177 80007
AAXX 21181 25400 41995 02001 11414 21437 30263 40328 52007 71000
AAXX 21181 30054 41998 80000 11304 21334 30063 40334 57006 77172 83047
AAXX 21181 30089 42999 00000 11421 21443 30111 40377 52001
AAXX 21181 30393 41998 83203 11338 21361 39152 40333 57002 77172 8802/
AAXX 21181 30493 42998 80204 11307 21343 39132 40296 53002 77173 80007
AAXX 21181 31004 41996 80000 11344 21361 39398 40349 57002 77172 80007
AAXX 21181 31137 41998 80000 11327 21351 39142 40302 52005 77172 85075
BBXX 51203 21181 99208 71570 46/// ///// 1//// 91813 22200 00248 11302 20302 328// 41301 70009
BBXX 52200 21181 99134 11448 46/// ///// 1//// 91815 22200 00287 11105 20904 310// 41102 70024
BBXX 51201 21181 99217 71581 46/// ///// 1//// 91812 22200 00240 11204 20704 333// 41202 70021
AAXX 21184 78866 01580 60917 10272 20188 30163 40168 57024 69931 71581 85801 333 58000 60007 82823 85638
AAXX 21181 60376 36/// /2704 10153 20147 333 10167
AAXX 21181 60593 36/// /0000 10120 333 10179
AAXX 21184 67765 42882 11901 10225 20127 38650 48494 81402 333 10298 59010 81656
AAXX 21184 67775 42880 13603 10210 20115 38491 48495 81400 333 10282 59012 81656
AAXX 21184 67779 NIL
AAXX 21184 67853 NIL
AAXX 21184 67861 NIL
AAXX 21184 67867 42980 10000 10220 20103 38567 48495 80001 333 10287 59013 81080
AAXX 21184 67881 42980 00000 10204 20113 38567 48595 333 10277 59018
AAXX 21184 67965 42980 11505 10225 20107 38674 48500 80002 333 10303 58015 81080
AAXX 21184 67975 NIL
AAXX 21184 67977 NIL
AAXX 21184 67983 42980 20000 10199 20141 38871 48497 80001 333 10278 59024 82080
AAXX 21184 67991 42980 00000 10304 20179 39537 48469 333 10354 59036
BBXX IDDUK02 21184 99540 50381 46/// ///// 40010 222//
BBXX PDZS 21183 99544 50361 41296 60502 10065 20030 49998 57035 70122 846/2 22200 02055 20101 306// 40502 5//// 80049
BBXX SHIP 21184 99408 11420 41297 62108 00/// 10000 ///// 40181 53000 70222 83363 9//// 22233 00169 2//// 3//// 4//// 5//// 6//// 8//// THNKS/B.REGARDS MASTER PACIFIC GLORY INM C - 443272110
BBXX SHIP 21184 99273 11337 41398 51319 10210 20180 40179 58022 70311 8434/ 22284 00240 80190
BBXX 3FMH7 21184 99273 11402 41798 80816 00/// 10190 20142 40238 5//// 70322 87727 9//// 22273 0//// 1//// 20202 308// 40303 5//// 6//// 80160
BBXX SHIP 21184 99051 11278 41698 43410 10250 20222 40058 5/021 70211 8333/ 22284 00292 80230
BBXX A8CN8 21180 99532 11790 41497 41903 10000 40020 54000 70211 847// 22264 00040 2//03 327// 4//04 5////
BBXX SHIP 21184 99127 11398 41/98 20814 10280 20227 40077 56011 70200 8//// 22213 06287 10605 20202 307// 40804
BBXX UHFW 21180 99487 11408 42999 03606 11070 40199 56010 22272 06030
BBXX WQZ9670 21184 99466 70905 43/98 /2420 11011 2//// 40044 5//// 7//// 8//// 222// 0//// 2//01 3//// 4//// 5//// 6//// 8//// ICE /////
BBXX MINFR09 2118/ 99274 31532 46/// ///// 40139 57004
BBXX SHIP 21184 99125 31254 41697 82416 10275 20256 40032 57023 71722 86/// 22222 04305 10801 80261
BBXX A8QJ7 21184 99179 70211 41/98 /0410 10260 20246 40141 53003 70200 8/1// 22213 06250 2//// 3//// 4//// 5//// 80250
BBXX WRYW 21184 99195 10686 43/98 /0120 10190 2010/ 40142 54001 7//// 8//// 22235 00268 20303 301// 40703 5//// 6//// 80140 ICE /////
BBXX TBWUK40 21183 99255 10566 41998 00000 10212 20085 40218 54000 702// 80000 22200 20000 307// 40501 5//// 80145
BBXX 46204 21181 99514 71288 46/// /0806 10059 40317 57008 22200 00080 11405 70025 333 91208
BBXX 46131 21181 99499 71250 46/// /2905 1//// 40349 52027 22200 00070 10200 70001 333 91205
BBXX 41112 21181 99307 70813 46/// ///// 1//// 91751 22200 00159 10602 20602 308// 41301 70011
BBXX 46183 21181 99536 71311 46/// /1710 10071 40279 57016 22200 00078 10402 70011 333 91211
BBXX 46221 21181 99339 71186 46/// ///// 1//// 91745 22200 00148 11402 21001 326// 41401 70009
BBXX 46145 21181 99544 71324 46/// /1607 10052 40263 57023 22200 00071 11104 70019 333 91209
BBXX 46242 21181 99332 71174 46/// ///// 1//// 91758 22200 00143 11401 20501 323// 41401 70006
BBXX 46222 21181 99336 71183 46/// ///// 1//// 91756 22200 00151 11402 21001 327// 41401 70010
BBXX 46231 21181 99327 71174 46/// ///// 1//// 91754 22200 00150 11402 21001 326// 41402 70011
BBXX 46211 21181 99469 71242 46/// ///// 1//// 91806 22200 00081 11306 21004 327// 41305 70031
BBXX 46223 21181 99335 71178 46/// ///// 1//// 91800 22200 00150 11302 20901 327// 41302 70011
BBXX WHKM 21184 99122 70463 41197 11224 10260 20232 40140 51010 7//00 814// 22213 0//// 2//// 3//// 4//// 5//// 6//// 80240 ICE /////
BBXX 46216 21181 99343 71198 46/// ///// 1//// 91757 22200 00144 11303 21002 326// 41302 70014
BBXX 46212 21181 99408 71243 46/// ///// 1//// 91812 22200 00097 11307 20805 330// 41305 70036
BBXX 46237 21181 99378 71226 46/// ///// 1//// 91810 22200 00110 11404 20802 326// 41404 70022
BBXX 46217 21181 99342 71194 46/// ///// 1//// 91812 22200 00151 11402 20902 326// 41401 70011
BBXX 46240 21181 99366 71219 46/// ///// 1//// 91812 22200 00123 11403 21002 300// 41402 70014
BBXX 41114 21181 99276 70802 46/// ///// 1//// 91816 22200 00237 11303 20502 306// 41302 70015
BBXX 41115 21181 99184 70673 46/// ///// 1//// 91805 22200 11305 21003 336// 41304 70026
BBXX 46241 21181 99330 71173 46/// ///// 1//// 91741 22200 00142 11301 20501 326// 41301 70007
BBXX 46248 21181 99461 71247 46/// ///// 1//// 91804 22200 00097 11406 20904 328// 41405 70030
BBXX 46244 21181 99409 71244 46/// ///// 1//// 91805 22200 00096 11408 20906 330// 41406 70041
BBXX 46088 21181 99483 71232 46/// /3605 10062 40336 91820 22200 00078 10601 70003 333 91206 555 11051 22053 31733 43508 61819 002049 001050 359058 355065 354067 353067
BBXX 46249 21181 99338 71197 46/// ///// 1//// 91812 22200 00147 11403 20902 325// 41402 70014
BBXX 46147 21181 99518 71312 46/// /1807 10074 40295 57017 22200 00078 11305 70026 333 91209
BBXX H9UY 21184 99218 71635 41798 50524 00/// 10210 40158 51020 70211 85142 9//// 22273 04250 20403 305// 40504 5//// 6//// 80200
BBXX WDJK 21184 99410 71260 41997 10233 10118 20084 40256 52005 70500 80001 22273 00100 20505 301// 40809 5//// 6//// 80100 ICE /////
BBXX C6YZ5 21184 99253 70761 41698 51013 10250 2//// 40190 55/// 7//22 852// 22273 00250 20304 310// 4//// 5//// 6//// 8//// ICE /////
BBXX 46207 21181 99509 71299 46/// /1804 10075 40311 57011 22200 00081 11305 70026 333 91205
BBXX 41029 21181 99328 70796 46/// /2407 1//// 91800 555 11091 22110
BBXX 44067 21181 99384 70770 46/// /2404 10127 40123 58025 91800
BBXX 44032 21181 99437 70694 46/30 /1911 10087 40130 58039 91804 22200 00086 10605 70025 333 91213 555 11133 22142
BBXX 41037 21181 99340 70775 46/// /2108 10206 40189 58027 91800 22200 00186 333 91209
BBXX 46112 21181 99481 71227 46/// /2904 10065 40331 53021 91800
BBXX 46111 21181 99481 71227 46/// /3507 10064 40330 53021 91800 22200 00055
BBXX WXJ63 21183 99611 71464 41/97 80608 10013 21001 40029 5//// 779// 8//// 222// 00050 2//// 3//// 4//// 5//// 6//// 8//// ICE /////
BBXX A8SI8 21184 99343 10226 43498 52435 10150 2014/ 40210 58040 22275 00180 80160
BBXX 62169 21183 99614 10014 41/97 81535 10044 20044 40032 57030 78186 88/// 22200 20606 3//// 4//// 5//// 80044
BBXX DDZD2 21184 99458 70082 41298 83018 10131 20122 40331 52020 70222 887// 22255 00120 20603 80126
BBXX 62095 21184 99531 70159 46/// /2221 10124 20107 40182 53001 22200 00112 10809 70045 333 90710 91133
BBXX 62107 21184 99501 70061 46/// /3020 10122 20096 40271 53019 22200 00117 10804 70022 333 90710 91127
BBXX 62103 21184 99499 70029 46/99 /3125 10123 20104 40240 52017 22200 00123 10703 70014 333 90710 91131
BBXX 63118 21183 99591 10016 41496 81733 10066 40056 76166 8/7// 22200 10604 70021
BBXX 62103 21184 99499 70029 46/98 /3118 10119 20104 40232 52013 22200 00123 10703 70015 333 90710 91128
BBXX 62094 21184 99517 70067 46/// /26// 10116 20100 40244 52016 22200 00106 10503 70017
BBXX V2NA1 21184 99466 70169 41497 81814 10145 20135 40302 55004 70222 887// 22224 04120 20302 331// 40805 80139
BBXX 62155 21184 99577 10007 47297 /1820 10080 20072 40076 57030 700// 22200 10403 70014
BBXX 62118 21184 99577 10009 47396 /1827 10091 20071 40067 57032 762// 22200 10503 70015
BBXX 62117 21184 99579 10000 47297 /2020 10086 20075 40071 57026 700// 22200 10403 70017
BBXX 62102 21184 99579 10018 46/// /1825 10073 20030 40091 57025 22200 10503 70015
BBXX 62143 21184 99577 10018 47296 /1917 10067 20056 40089 57028 704// 22200 10403 70013
BBXX ZQSD5 21184 99583 10007 46/// /1927 10077 20065 40065 57036 22200 10703 70016
BBXX 62134 21184 99580 10014 47297 /1926 10075 20044 40076 57034 762// 22200 10403 70015
BBXX 62113 21184 99584 10002 47295 /2025 10078 20070 40067 57024 762// 22200
BBXX 62114 21184 99583 10000 46/// /2024 10081 20076 40053 57033 22200
BBXX 62129 21184 99584 10003 46/// ///// 10080 20072 40063 57027 22200
BBXX 63057 21184 99592 10015 47396 /1831 10061 20024 40051 57037 761// 22200 10504 70019
BBXX 62127 21184 99540 10007 47697 ///// 10092 20083 40158 52006 762// 22200 10401 70007
BBXX 62128 21184 99587 10014 47296 /1828 10069 20037 40062 57037 761// 22200 10504 70018
BBXX 62153 21184 99573 10020 47296 /1921 10069 20061 40103 57019 762// 22200 10403 70013
BBXX 62104 21184 99574 10013 47197 /2021 10075 20064 40089 57023 762// 22200
BBXX 62122 21184 99573 10016 47296 /1820 10076 20061 40099 57020 762// 22200 10403 70013
BBXX 62116 21184 99576 10011 47295 /1925 10075 20067 40090 57024 771// 22200 10403 70014
BBXX 62140 21184 99573 10013 46/// /20// 10077 20062 40098 57020 22200
BBXX 62146 21184 99572 10021 47/97 /1811 10068 20053 40102 58019 761// 22200 10502 70012
BBXX 62164 21184 99572 10008 47296 /1817 10092 20076 40088 57024 700// 22200 00093 10403 70016
BBXX PJGO 21184 99571 10022 47396 /1820 10074 20043 40115 57012 761// 22200
BBXX 62133 21184 99571 10009 46/// /1822 10090 20065 40098 58019 22200
BBXX 62152 21184 99570 10018 47/97 /1717 10075 20043 40111 57013 740// 22200 10303 70013
BBXX 62120 21184 99564 10021 47196 /2118 10077 20055 40122 58007 761// 22200
BBXX 62119 21184 99570 10019 47296 /1818 10072 20048 40109 57013 740// 22200 10402 70011
BBXX 62132 21184 99564 10020 46/// /2218 10072 20053 40121 58007 22200
BBXX 62154 21184 99564 10022 46/// /1917 10070 20056 40124 58005 22200
BBXX 62145 21184 99531 10028 47296 /2208 10078 20057 40173 52010 710// 22200 10502 70011
BBXX 62123 21184 99563 10022 47297 /1917 10084 20040 40126 58006 751// 22200
BBXX 62165 21184 99540 10009 47696 /2513 10086 20081 40162 52007 700// 22200 10402 70008
BBXX 62142 21184 99530 10021 47194 /2208 10069 20064 40169 52007 752// 22200 10502 70009
BBXX 62144 21184 99534 10017 47396 /2209 10074 20068 40167 52006 700// 22200 10402 70008
BBXX BATEU01 21184 99497 70047 46/// /2817 10122 20100 40264 52004 22224 00124
BBXX BATFR12 21184 99480 70068 46/// /3013 10132 20110 40309 51021 22251 00144
BBXX BATFR42 21184 99502 70017 46/// /2622 10119 20104 40231 22243 00125
BBXX BATFR46 21184 99402 10018 44/97 22215 10162 20119 40224 56003 70131 8//2/ 22213 00159 22002 323// 42502 5////
BBXX BATEU05 21184 99581 70344 46/// /3011 10019 21013 49938 53015 22223
BBXX BATFR01 21184 99349 10249 46/// /2218 10164 20095 40150 58002 22262 00182
BBXX BATEU04 21184 99593 10032 46/// /1724 10065 20020 40090 58031 22273
BBXX BATFR04 21184 99584 70062 46/// /2429 10114 20097 40032 53001 22200 00102
BBXX BATFR52 21184 99507 70011 46/// /2917 10112 20094 40222 55004 22213 00094
BBXX BATFR33 21184 99422 10074 46/// /3120 10134 20062 40139 58006 22274 00147
BBXX BATFR20 21184 99432 10053 46/// ///// 10117 20054 40170 22234
BBXX BATFR09 21184 99366 70093 44498 53617 10157 20117 40292 58009 70222 85100 22223 00175 20304 60//0 ICE 0/0//
BBXX BATFR27 21184 99494 70037 46/// /3021 10120 20094 40259 53044 22255 00129
BBXX BAREU62 21184 99398 10259 46/// ///// 40150 52007 22284
BBXX BAREU00 21184 99499 70043 46/// ///// 40258 52008 22223
BBXX BAREU51 21184 99383 10134 46/// ///// 40125 52003 22245
BBXX BATFR11 21184 99418 10099 46/// ///// 10127 20032 40149 53004 22284 00154
BBXX BAREU63 21184 99382 10156 46/// /2110 10115 29065 40076 52045 22283
BBXX TESTFR9 21184 99507 70011 46/// /3017 10110 29097 40238 52009 22214
BBXX 61001 21184 99434 10078 46/// /2008 10123 20036 40138 57006 22200 00146 10702 70008
BBXX LF3F 21184 99643 10078 43/// /2513 10042 21056 40067 57003 22200 04085 10805 70026 333 91128
BBXX LF4C 21184 99584 10019 41496 81724 10070 20061 40066 57043 76062 89/// 22200 00078 10603 70014 333 91126
BBXX LF3N 21184 99653 10073 41597 62612 10035 21049 40049 54000 71582 86300 22200 00089 10805 70023
BBXX 3ERR2 21184 99635 10053 41599 81612 10039 20020 40058 57021 70222 885// 22200 06098 11205 70025 333 91123
BBXX LF5T 21184 99660 10081 414// /2613 10027 21014 40039 57002 70282 22200 06082 10806 70029 333 91121
BBXX LF4B 21184 99606 10037 47/98 /1521 10045 40088 57021 700// 22200 00054 10703 70017 333 91123
BBXX UANA 21181 99705 10518 41/95 92006 10023 40062 54000 75052 80000 22222 00035 20302
BBXX 62121 21184 99535 10027 46/// ///// 22200
BBXX 64041 21184 99607 70026 47296 /2327 10097 20097 49963 57018 761// 22200 10707 70034
BBXX 62150 21184 99536 10007 47697 /2715 10093 20086 40171 52008 700// 22200 10501 70006
BBXX 62148 21184 99536 10015 46/// /2210 10075 20071 40166 52006 22200
BBXX MWYG6 21184 99603 70040 47496 /2527 10104 700// 22200
BBXX 63115 21184 99616 10013 47396 /1529 10068 20019 40036 57024 762// 22200 10707 70035
BBXX 63104 21184 99612 10016 47394 /1628 10040 20011 40049 57020 763// 22200
BBXX 63117 21184 99613 10011 47495 /1630 10036 21012 40050 58025 763// 22200
BBXX 63105 21184 99610 10017 47495 ///// 10035 20017 40056 57013 761// 22200
BBXX 63103 21184 99612 10011 46/// /1730 10041 20029 40035 58026 22200 10605 70027
BBXX 63101 21184 99612 10009 46/// /1730 10036 20022 40044 57023 22200
BBXX 63112 21184 99611 10010 47495 /1628 10042 20013 40033 57026 761// 22200 10606 70030
BBXX 63107 21184 99611 10017 46/// /1629 10041 40052 57016 22200
BBXX 63113 21184 99610 10017 46/// /1627 10041 20019 40053 57018 22200 10605 70027
BBXX 62112 21184 99584 70002 47297 /2022 10079 20078 40053 56029 700// 22200
BBXX 63106 21184 99610 10017 46/// /1628 10039 40053 57017 22200
BBXX 63108 21184 99608 10017 47294 /1729 10030 20003 40041 57023 762// 22200 10604 70022
BBXX 63055 21184 99606 10016 47294 /1425 10039 20038 40042 57024 704// 22200 10605 70023
BBXX PJAI 21184 99581 70014 47998 /2214 10093 20064 40050 57020 700// 22200
BBXX 62111 21184 99580 70003 46/// /2223 10084 20072 40067 57021 22200 10503 70016
BBXX 63056 21184 99597 10016 47396 /1728 10058 20020 40051 58035 740// 22200 10504 70020
BBXX 62131 21184 99539 10012 46/// /23// 10085 20079 40158 52005 22200
BBXX 62149 21184 99537 10011 47697 /2413 10091 20085 40161 52004 751// 22200 10401 70007
BBXX 63110 21184 99595 10015 47497 /1828 10060 20027 40055 57035 751// 22200 10504 70018
BBXX 62170 21184 99514 10020 46/97 /2811 10110 20110 40190 52016 22200 00109 10601 70004
BBXX 62304 21184 99511 10018 46/98 /2911 10115 20104 40195 52014 22200 00110 10601 70005
BBXX 63110 21183 99595 10015 41/96 /1736 10061 40052 762// 8//// 22200 10604 70020
BBXX 62305 21184 99504 10000 46/98 /2823 10120 20109 40217 52012 22200 00121 10602 70009 333 90710 91126
BBXX 62027 21184 99491 70022 46/// /3213 1//// 2//// 40248 52020 22200 00111 10804 328// 70020
BBXX 64046 21184 99606 70049 46/// /2524 10096 20090 49956 55003 22200 00079 10606 70031
BBXX 62303 21184 99516 70051 46/// /2613 10122 20099 40234 52012 22200 00110 10604 70021
BBXX 62301 21184 99524 70047 46/// /2516 10104 20092 40214 51008 22200 00087 10503 70016
BBXX 62001 21184 99452 70050 46/// /3112 10133 20120 40312 52012 22200 00141 10605 70023
BBXX 62163 21184 99475 70084 46/// /3011 10125 20105 40322 52014 22200 00127 10806 70030
BBXX 62029 21184 99487 70125 46/// /2314 10131 20111 40306 53003 22200 00129 10806 70032
BBXX 62081 21184 99510 70134 46/// ///// 10128 20099 40258 52005 22200 00120 10707 70034
BBXX 62442 21184 99490 70164 46/// /2116 1//// 2//// 40278 57004 22200 00125
BBXX 62105 21184 99554 70122 46/// /2425 10116 20105 40126 53010 22200 00107 10809 70043 333 90710 91133
BBXX 64045 21184 99591 70117 46/// /2430 10112 20096 49974 53006 22200 00100 10811 70053 333 90710 91139
BBXX BATFR02 21184 99500 70006 46/// /2820 10122 20104 40231 51021 22244 00127
BBXX 61002 21184 99421 10047 46/// ///33 10151 2//// 40190 52006 22200 00139 10707 70034 555 1/044
BBXX BATUK01 21184 99577 70031 46/// /2317 10099 20062 40056 56010 22200 00074
BBXX SHIP 21184 99427 70314 41092 82039 10160 20154 40115 56015 76565 887// 22253 04150 20610 318// 40812 80156
AAXX 21184 78866 01580 60917 10272 20188 30163 40168 57024 69931 71581 85801 333 58000 60007 82823 85638
AAXX 21184 42886 31996 00000 10138 20091 40161 70500 333 58000
AAXX 21184 42895 31995 03602 10124 20075 40148 70500 333 59002
AAXX 21184 42971 31995 03202 10174 20111 40147 70500 333 59002
AAXX 21184 43333 31495 60706 10266 20234 40100 70522 85401 333 56209 59006 83618 83820
AAXX 21184 42309 NIL
AAXX 21184 42314 NIL
AAXX 21184 42398 NIL
AAXX 21184 42410 NIL
AAXX 21184 42415 NIL
AAXX 21184 42492 NIL
AAXX 21184 42587 NIL
AAXX 21184 42591 NIL
AAXX 21184 42623 NIL
AAXX 21184 42701 NIL
AAXX 21184 42706 NIL
AAXX 21184 42724 NIL
AAXX 21184 42798 NIL
AAXX 21184 42809 NIL
AAXX 21184 42977 NIL
AAXX 21184 43368 NIL
AAXX 21181 35229 329// 21401 11156 21203 30160 40460 58002 80001 333 11091
AAXX 21181 35532 31993 01116 11202 21235 39918 40462 58014 73933 333 11163 91020
AAXX 21184 89050 41195 83306 10015 20011 49922 54000 74022 886//
AAXX 21184 89512 32598 81414 10007 21056 39579 49724 57001 85531 333 10024
AAXX 21184 89574 NIL
AAXX 21184 89592 42298 80910 11008 21015 49812 52013 886//
AAXX 21184 89606 41998 62206 11334 21376 36281 47761 52005 70272 80001 333 11242
AAXX 21184 94996 455// 70910 10206 20173 30041 40178 53005 91830
AAXX 21184 94996 455// 70910 10206 20173 30041 40178 53005 91830
AAXX 21181 55299 32880 10401 11133 21272 35850 52003 81400 333 00200 10042
AAXX 21181 55591 32980 00000 11037 21204 36505 52003 333 00101 10144
AAXX 21181 56739 32980 00201 10043 20020 38361 57003 333 00100 10182
AAXX 21181 56951 32970 00000 10068 20034 38520 52001 333 00100 10232
AAXX 21181 56964 32565 40000 10108 20099 38721 40159 57004 84100 333 00100 10220
AAXX 21181 57328 11815 80000 10073 20048 39876 40297 57004 69911 76060 885// 333 10083
AAXX 21181 57411 11420 83401 10079 20065 39917 40297 57006 69991 76066 8677/ 333 10098
AAXX 21181 57447 11460 82001 10057 20048 39761 40321 57001 69941 76066 8172/ 333 10071
AAXX 21181 57662 11850 82501 10062 20034 30274 40319 57008 69901 71060 885// 333 10087
AAXX 21181 57745 11756 80402 10052 20015 39981 40320 57004 69901 71060 885// 333 10068
AAXX 21181 57972 32960 83202 10071 20018 30067 40297 52006 8807/ 333 10134
AAXX 21181 58203 31940 23602 11023 21043 30295 40338 54000 71000 82040 333 10086
AAXX 21181 58314 31957 81801 10035 20000 30217 40327 52004 71000 8807/ 333 10085
AAXX 21181 58424 31940 80404 10065 21002 30292 40318 52007 70500 8807/ 333 10097
AAXX 21181 59023 31857 80201 10118 20045 39939 40252 52001 70500 885// 333 10162
AAXX 21181 59417 32562 70000 10147 20118 30054 40209 52001 878// 333 10201
AAXX 21181 59985 11570 70407 10233 20221 30133 40138 57014 60021 70080 872// 333 10253
AAXX 21181 59995 NIL
AAXX 21184 40250 NIL
AAXX 21184 40265 NIL
AAXX 21184 40296 31958 60000 10170 20110 40186 52012 70522 83042 333 10230 83360 83070
AAXX 21184 40310 NIL
BBXX 46185 21181 99524 71298 46/// /1508 10057 40304 57014 22200 00074 11302 70011 333 91209
OOXX AABRI 21184 99839 51342 60134 05251 46/// /0409 11042 2//// 3//// 4//// 5//// 91800
AAXX 21181 38725 425// 70000 11138 21199 48550 54000 86902
BBXX 46185 21181 99524 71298 46/// /1508 10057 40304 57014 22200 00074 11302 70011 333 91209
AAXX 21181 47101 32563 62506 11003 21092 30121 40219 52008 86500
AAXX 21181 47105 369// /2708 10024 21077 30148 40181 55001
AAXX 21181 47108 32662 62911 11015 21093 30124 40233 52014 86500
AAXX 21181 47115 32668 62504 10037 21060 39890 40164 56007 86500 333 92042
AAXX 21181 47133 41665 63204 10019 21005 30143 40230 53004 72272 85500
AAXX 21181 47138 32662 22509 10051 21039 30190 40193 57011 82500 333 92023
AAXX 21181 47159 31958 32906 10049 21069 30115 40201 56006 70510 80001 333 92022
AAXX 21181 47165 41665 63414 10047 21033 30194 40241 54000 72162 86500 333 92024
AAXX 21181 47168 32661 83207 10046 21057 30136 40216 57006 8252/ 333 92023
AAXX 21181 47184 32665 63211 10080 21029 30220 40245 51005 86500 333 92044
AAXX 21181 47003 42980 83204 11045 21116 30175 40179 57008 8802/
AAXX 21181 47005 12580 20000 11207 21226 38547 53005 69901 82500
AAXX 21181 47022 42975 33603 11176 21210 38778 57002 80002
AAXX 21181 47028 42962 03203 11073 21137 30179 40279 52019
AAXX 21181 47031 NIL
AAXX 21181 47037 42970 03201 11068 21166 30129 40257 52012
AAXX 21181 47039 42960 03201 11072 21147 30050 40250 52021
AAXX 21181 47046 NIL
AAXX 21181 47050 42965 03205 11062 21168 30222 40257 52024
AAXX 21181 47052 11965 03205 11063 21086 39888 40242 52016 69901 70172
AAXX 21181 47060 42960 03207 11052 21149 30200 40261 52021
AAXX 21181 47061 42980 82308 10011 21065 30144 40188 57003 80003
AAXX 21181 47065 42970 03206 11055 21121 30191 40259 52011
AAXX 21181 47067 42965 83202 11042 21101 30138 40353 52013 80001
AAXX 21181 47068 42560 53208 11029 21115 30226 40262 52021 85500
AAXX 21181 47070 42970 03211 11033 21106 30155 40245 52019
AAXX 21181 47075 42580 82706 11049 21116 39715 40157 54000 885//
AAXX 21184 06670 01460 82201 10019 20000 39695 40220 52008 69962 71072 876// 333 10023 43004 55300 20000 60005 81711 87714 90766 93100 91107 91204
AAXX 21184 06700 01257 83301 10016 20008 39730 40238 52011 60022 76162 885// 333 10029 42001 55300 20000 69945 81706 85633 87650 90766 93100 91105 91203
AAXX 21184 06680 01/01 92504 11092 21114 37460 47984 52015 60182 74974 333 11090 47211 55300 20000 60025 90766 93105 91144 91230
AAXX 21184 06990 01440 80000 10002 20002 39662 40227 52006 60012 76822 887// 333 10014 41/// 55300 20000 69925 88712 91103 91202
AAXX 21184 06760 32984 30201 10063 21050 39706 40157 52011 83010 333 10099 30/// 55300 20000 83465 90766 93100 91109 91205
AAXX 21184 06720 01160 8//// 10007 21002 39643 40237 52008 60022 77072 8802/ 333 10020 43025 55300 20000 69925 88502 90766 93101
AAXX 21181 47090 32668 22904 10019 21112 30161 40184 53003 81500 333 92012
AAXX 21181 47095 32565 42504 11022 21109 30032 40227 52012 84500
AAXX 21181 47097 329// /3206 11002 21091 30125 40224 53005
AAXX 21181 47098 329// /3209 11021 21104 30088 40227 52011
AAXX 21181 47099 329// /2911 11024 21127 30200 40238 52014
AAXX 21181 47100 41462 52716 11045 21097 39242 40186 55002 72277 85500
AAXX 21181 47102 32667 32913 11030 21117 30085 40271 52017 83500
AAXX 21181 47104 32665 12006 10019 21093 30080 40179 55002 81500
AAXX 21181 47106 329// /3203 10035 21073 30127 40177 55002
AAXX 21181 47112 32665 33414 11008 21087 30154 40241 52017 83500 333 92024
AAXX 21181 47114 31662 52907 10000 21092 30030 40217 52006 72272 85500
AAXX 21181 47119 32665 63409 10004 21058 30189 40232 52012 85500
AAXX 21181 47121 429// /2706 10005 21045 39908 40208 55003
AAXX 21181 47127 429// /2304 10005 21020 30076 40221 53001
AAXX 21181 47129 31562 63214 10019 21039 30211 40248 53013 72682 86500
AAXX 21181 47130 32965 02004 10031 21043 30119 40181 55004 333 92022
AAXX 21181 47131 41662 52702 10006 21017 30154 40226 52005 72272 85500
AAXX 21181 47135 329// /2714 10019 21033 39902 40206 55008
AAXX 21181 47136 32661 72909 10021 21020 30023 40198 55011 87500
AAXX 21181 47137 329// /2708 10026 21039 30082 40202 57009
AAXX 21181 47140 41665 63603 10019 20001 30209 40238 53004 72372 86500 333 92012
AAXX 21181 47143 31959 22906 10045 21076 30129 40209 57008 70511 80002
AAXX 21181 47145 32662 63206 10013 21032 30195 40222 53004 86500
AAXX 21181 47146 41568 82507 10019 21002 30167 40234 53002 76162 8572/
AAXX 21181 47150 41565 73206 10034 21058 30217 40236 53002 77072 87800
AAXX 21181 47152 31959 43602 10021 21042 30153 40196 57009 70500 80002
AAXX 21181 47154 329// /2907 10041 21056 30143 40204 57009
AAXX 21181 47155 31958 63603 10052 21070 30160 40206 57008 70522 80002
AAXX 21181 47156 41659 62904 10043 21021 30148 40238 55003 72162 85500
AAXX 21181 47157 32663 52908 10029 21052 39927 40200 57005 85500
AAXX 21181 47162 31957 60203 10044 21036 30169 40210 57007 70522 80002 333 92022
AAXX 21181 47169 32665 73421 10057 21014 30147 40242 55001 87500 333 92056
AAXX 21181 47170 31659 83209 10052 21057 30191 40235 56003 70522 8452/ 333 92023
AAXX 21181 47171 429// /3206 10032 21015 30186 40242 53005
AAXX 21181 47172 329// /2912 10044 21018 30168 40235 53002
AAXX 21181 47173 329// /3206 10029 21047 30117 40230 57008
AAXX 21181 47174 31615 83205 10032 21038 30016 40221 56007 70522 8352/
AAXX 21181 47175 32562 83216 10015 21047 39652 40236 55004 8252/ 333 92025
AAXX 21181 47185 32662 63226 10088 21008 30143 40234 50001 86500 333 92046
AAXX 21181 47188 32662 80203 10068 21016 30210 40232 53008 8452/ 333 92021
AAXX 21181 47189 32665 63604 10085 20000 30157 40217 53002 86500 333 92022
AAXX 21181 47192 31940 60702 11015 21033 30177 40216 55007 71022 80001
AAXX 21181 24790 41999 20000 11454 21465 39428 40393 52004 77670 80001
AAXX 21181 24988 42999 53002 11226 21258 39958 40231 52012 80001
AAXX 21181 25378 31697 63111 11156 21237 30096 40130 52009 73632 82541 333 21162 48004 91122
AAXX 21181 25503 41698 80000 11415 21437 30187 40336 52007 77071 82507
AAXX 21181 25705 41993 02201 11426 21455 39948 40338 52008 74840
AAXX 21181 25927 42998 02902 11276 21305 30209 40216 52006
AAXX 21181 25932 42999 03102 11179 21205 30140 40180 52011
AAXX 21181 31152 42997 01801 11396 21429 39863 40332 52001
AAXX 21181 31174 42999 80402 11238 21244 30213 40226 54000 80007
AAXX 21181 31489 42997 00000 11294 21318 30107 40238 53001
AAXX 21181 31866 42999 02508 11181 21214 30188 40194 57008
AAXX 21181 31959 42998 32504 11161 21180 30131 40177 57009 83040
AAXX 21181 31989 42999 00205 11069 21100 30114 40170 56012
AAXX 21181 32027 42999 30202 11297 21328 30215 40225 53001 80002 333 91003 91104
AAXX 21181 32076 41998 02803 11216 21228 30214 40225 53008 70271 333 91004 91105
AAXX 21181 32099 41598 60201 11097 21101 30209 40217 54000 72681 86900 333 91002 91103
AAXX 21181 32121 41597 60706 11076 21090 30167 40190 57002 70282 86900 333 91008 91109
AAXX 21181 32213 41598 13219 11081 21099 30077 40143 53008 73630 81500 333 91023 91123
AAXX 21181 32287 41597 81501 11204 21230 30177 40188 52007 78582 8697/ 333 86926
AAXX 21181 32408 42999 00202 11223 21264 30100 40141 52009
AAXX 21181 32509 41998 03306 11120 21244 30078 40113 51001 70230
AAXX 21181 32594 42598 40806 11112 21174 30120 40157 52009 84500
AAXX 21184 06610 01458 82203 10011 20006 39635 40237 52012 60032 76972 887// 333 10026 32/// 55300 20000 60015 88714 90766 93100 91109 91205
BBXX A8HD5 21181 99061 10939 41/98 /0312 10288 20233 40100 54000 70022 8/877 22223 04300 20602 304// 40803 5//// 80250
BBXX TBWUK17 21183 99211 30745 41297 81215 10240 20225 40207 52022 70022 87778 22263 04269 20504 31011 40403 50405 80230
AAXX 21184 89132 NIL
AAXX 21184 89542 46/// /0705 11008 20045 49767 52010
AAXX 21184 89575 NIL
AAXX 21184 89657 NIL
AAXX 21181 38001 31995 60513 10014 21152 30250 40220 52016 73233 86030 333 10035 91123
AAXX 21181 38232 31998 21111 11018 21139 30183 40285 57006 70711 80002 333 11009 91116
AAXX 21184 61017 32960 50000 10182 20045 39744 40158 80002 333 10275 58001 85080
AAXX 21184 61024 32960 51210 10230 21036 39572 40145 83032 333 10286 59001 83364 83080 P077
AAXX 21184 61036 32965 70000 10285 20021 39878 40116 81038 333 10330 58012 81365 87280
AAXX 21184 61043 32960 70606 10270 21052 39675 40046 81038 333 10310 58003 81364 87280
AAXX 21184 61045 32965 50000 10232 21050 39630 40133 80002 333 10300 59005 85080
AAXX 21184 61049 32960 50000 10232 21009 39792 40115 80002 333 10306 59005 85080
AAXX 21184 61052 31958 30206 10285 20009 39862 40120 70611 80002 333 10327 59001 83080
AAXX 21184 61075 32960 50000 10275 20043 39799 40103 80002 333 10340 59002 85080
AAXX 21184 61080 32960 70000 10264 20008 39700 40122 80008 333 10310 58000 87280
AAXX 21184 61090 32965 50000 10250 21025 39602 40114 80002 333 10300 59008 85080
AAXX 21184 61091 32965 50000 10240 20086 39677 40138 80002 333 10318 58004 85080
AAXX 21184 61096 32965 73602 10246 21002 39744 40131 80008 333 10316 59002 87280
AAXX 21184 61099 32965 73606 10300 20039 39867 40094 80008 333 10340 59003 87280
AAXX 21181 35925 329// 01108 11141 21168 40379 57005 333 11122
BBXX NIL
BBXX NIL
BBXX NIL
BBXX NIL
BBXX NIL
AAXX 21184 60679 36/// /3411 10022 21124 333 10079
AAXX 21184 60672 36/// /3406 10127 21097 333 10181
AAXX 21184 60661 36/// /0305 10126 21044 333 10179
AAXX 21184 60677 36/// /0000 10128 21023 333 10176
AAXX 21184 60650 36/// /3611 10156 21023 333 10188
AAXX 21181 38232 31998 21111 11018 21139 30183 40285 57006 70711 80002 333 11009 91116
AAXX 21181 38001 31995 60513 10014 21152 30250 40220 52016 73233 86030 333 10035 91123
AAXX 21184 40255 32660 30000 10124 20105 39477 40193 52005 83100 333 10163 83830
AAXX 21184 40260 NIL
AAXX 21184 40270 31940 60000 10120 20093 39286 40187 52006 71022 86070 333 10150 84358 84460
AAXX 21184 40272 31958 33104 10098 20067 39363 40211 52013 70500 80001 333 10167 83070
AAXX 21184 40290 NIL
AAXX 21184 40340 32960 03610 10180 20112 40169 52005 333 10205
AAXX 21184 40250 NIL
AAXX 21184 40265 NIL
AAXX 21184 40296 31958 60000 10170 20110 40186 52012 70522 83042 333 10230 83360 83070
AAXX 21184 40310 NIL
AAXX 21180 44218 329// 00000 11267 21291 38732 40579 58010
AAXX 21180 44265 329// 00000 11264 21288 38977 40556 55002
AAXX 21180 44203 329// 00000 11295 21319 38471 40540 56006
AAXX 21180 44207 329// 22704 11199 21248 38368 40438 57004 82040
AAXX 21180 44212 32999 50000 11258 21282 39316 40598 57009 85070
AAXX 21180 44213 32999 40000 11262 21290 38947 40610 57008 84050
AAXX 21180 44215 32998 40000 11249 21274 38524 40558 57003 84040
AAXX 21180 44225 419// 80000 11174 21193 38361 40478 57015 77172 8802/
AAXX 21180 44230 329// 80103 11132 21176 38854 40416 57007 8802/
AAXX 21180 44232 329// 73303 11083 21150 39169 40344 57007 87010
AAXX 21180 44237 329// 82704 11100 21163 38550 40362 57011 8802/
AAXX 21180 44239 329// 73402 11162 21184 38853 40353 56002 87010 555 99602
AAXX 21180 44256 32999 03205 11247 21286 39400 40350 56010
AAXX 21180 44272 329// 00000 11247 21256 38320 40543 57014
AAXX 21180 44275 32998 00000 11272 21283 37797 40572 57017
AAXX 21180 44282 32999 03206 11096 21196 38356 40379 57009
AAXX 21180 44284 32999 00202 11272 21301 37913 40625 57014
AAXX 21180 44285 32999 03504 11137 21206 38378 40409 57012
AAXX 21180 44287 32999 00506 11188 21240 38181 40496 57016
AAXX 21180 44294 329// 00201 11266 21313 38616 40503 57009
AAXX 21180 44298 329// 03605 11208 21214 38779 40422 58006
AAXX 21180 44302 329// 02706 11232 21267 39150 40377 58009
AAXX 21180 44305 32999 02904 11227 21264 39104 40376 58006
AAXX 21180 44313 32999 02707 11254 21309 39437 40372 54000
AAXX 21180 44314 32998 00000 11246 21285 39194 40400 57002
AAXX 21180 44317 32998 02702 11219 21244 38992 40398 54000
AAXX 21180 44336 329// 00000 11244 21276 38770 40512 56012
AAXX 21180 44341 329// 00000 11195 21226 38669 40457 58014
AAXX 21180 44347 32999 00000 11187 21228 38802 40450 58004
AAXX 21180 44352 32999 02703 11214 21239 38974 40387 58003
AAXX 21180 44214 32998 02706 11159 21228 38385 40515 57008
AAXX 21180 44231 329// 70000 11119 21202 38801 40432 57008 8707
AAXX 21180 44259 32997 02103 11259 21303 39371 40378 56008
AAXX 21180 44288 32999 02704 11132 21212 38217 40425 57011
AAXX 21180 44292 319// 50000 11230 21255 38763 40445 58004 70421 80006
AAXX 21180 44304 329// 22305 11237 21268 39048 40403 58004 82040
OOXX AAPEG 21184 99779 31666 57186 00051 46/// /2903 11031 21069 39792 49798 52018 91800
OOXX AAVIT 21184 99785 31778 57087 00501 46/// /0211 11040 21055 39743 49805 52013 91800
OOXX AAERC 21184 99815 31639 60713 00451 46/// /1718 11059 21071 39801 49857 52036 91800
AAXX 21181 38001 31995 60513 10014 21152 30250 40220 52016 73233 86030 333 10035 91123
AAXX 21181 38232 31998 21111 11018 21139 30183 40285 57006 70711 80002 333 11009 91116
AAXX 21181 35925 329// 01108 11141 21168 40379 57005 333 11122
AAXX 21181 38001 31995 60513 10014 21152 30250 40220 52016 73233 86030 333 10035 91123
AAXX 21181 38232 31998 21111 11018 21139 30183 40285 57006 70711 80002 333 11009 91116
AAXX 21184 87563 32565 80514 10332 20118 39969 40009 56010 885// 333 56400 88625
AAXX 21181 23973 41997 81903 11131 21137 30226 40292 52004 77172 80008
AAXX 21181 23975 415// 72404 11130 21157 30188 40303 52003 78582 87900
AAXX 21181 23986 NIL
AAXX 21181 23987 41496 71402 11145 21165 30229 40307 53006 78582 87900
AAXX 21181 24606 429// 00000 11433 21463 30050 40369 52001
AAXX 21181 29253 419// 82304 11142 21177 30157 40341 57002 77172 8802/
AAXX 21181 29471 41596 82902 11105 21125 30102 40341 57004 78582 889// 333 88923
AAXX 21181 29481 41997 83203 11109 21122 30084 40334 58002 77172 8802/
AAXX 21181 29553 42972 82704 11112 21132 39995 40381 57006 70272 8802/
AAXX 21181 29562 41567 82804 11103 21123 39932 40368 57002 78583 889//
AAXX 21181 29581 415// 82802 11086 21110 30070 40336 53003 70232 8392/
AAXX 21181 29594 41596 83004 11096 21112 39921 40322 53003 78683 889//
AAXX 21181 29653 42997 21702 11114 21149 39877 40386 57004 80001
AAXX 21181 29675 41898 82602 11082 21124 39754 40368 58006 77173 8802/
AAXX 21181 29676 41698 83004 11058 21110 39903 40339 54000 73673 885//
AAXX 21181 29752 414// 82506 11139 21152 38918 48555 58006 78583 889// 333 91116
AAXX 21181 29759 425// 82103 11119 21181 39339 40422 58011 8257/
AAXX 21181 29766 42899 81301 11121 21127 30030 40406 57006 8802/
AAXX 21181 29789 42599 82302 11071 21140 39113 40324 57004 889//
AAXX 21181 29864 429// 03603 11128 21190 39729 40419 58006
AAXX 21181 29866 428// 82203 11074 21144 30071 40405 54000 86071
AAXX 21181 29869 426// 82905 11047 21129 30023 40409 58001 875// 333 95090
AAXX 21181 29956 42684 82002 11097 21138 39858 40448 58005 889// 333 88942
AAXX 21181 30337 41597 70000 11305 21330 39838 40344 57005 78582 86901
AAXX 21181 30405 414// 70000 11130 21143 39761 40316 57003 78587 87900
AAXX 21181 30504 41597 82201 11083 21089 39641 40308 58007 78582 883//
AAXX 21181 30603 41596 82902 11074 21083 39712 40297 57007 78587 8692/
AAXX 21181 30612 415// 81902 11125 21131 39756 40315 57007 78582 8591/
AAXX 21181 30622 419// 80000 11246 21265 39642 40350 56010 77177 8802/
AAXX 21181 30627 41998 82401 11165 21184 39336 40322 57005 77172 8802/
AAXX 21181 30703 429// 82702 11166 21172 39620 40337 57004 85077
AAXX 21181 36307 41897 80000 11270 21295 39135 48618 58012 77172 8802/ 333 95090
AAXX 21181 23074 41997 81503 11173 21199 30190 40216 57004 77172 8807/
AAXX 21181 23274 41497 71302 11228 21253 30187 40226 58001 77172 82505
AAXX 21181 23383 41897 80000 11365 21394 39921 40328 58004 77172 8801/
AAXX 21181 23472 41597 70802 11196 21229 30170 40222 54000 77172 85506
AAXX 21181 23678 419// 81301 11108 21121 30187 40247 52002 77177 8802/
AAXX 21181 23884 419// 82001 11113 21119 30201 40278 52004 77172 8802/
AAXX 21181 23891 41996 80000 11333 21370 39970 52007 77111 80006
AAXX 21181 24507 419// 00000 11433 21463 30078 40368 57002 74440
AAXX 21181 24817 429// 20000 11396 21423 39924 40354 54000 82040
AAXX 21181 24908 41998 50000 11417 21450 39965 40356 52002 70271 80001
AAXX 21181 29263 41559 52603 11132 21159 30227 40333 52001 78582 82930
AAXX 21181 29282 41962 82402 11130 21150 30125 40303 53002 77172 8807/
AAXX 21181 29379 41796 82903 11115 21143 30117 40336 54000 77173 8802/
AAXX 21181 29570 41596 82603 11081 21113 39992 40353 58006 78583 889// 333 91112
AAXX 21181 29698 415// 82902 11063 21082 39801 40328 53013 70283 889//
AAXX 21181 30230 41996 20000 11411 21438 39976 40362 57003 71000 80001
AAXX 21181 30252 419// 80000 11230 21249 39980 40325 57008 77372 8805/
AAXX 21181 30309 41596 82601 11149 21169 39758 40309 58004 78582 889//
AAXX 21181 30328 419// 80000 11246 21272 39875 40345 54000 77177 84027
AAXX 21181 30521 419// 80901 11238 21256 39770 40345 58004 77172 8802/
AAXX 21181 30710 42597 81501 11121 21135 39717 40328 57005 86931
AAXX 21124 91648 11499 70816 10284 20247 40071 69901 70228 83208 333 10321 562/9
AAXX 21124 ---1504104896-680573195-1324491772=:17607 html code found in mail The rest of this message has been deleted
AAXX 21184 71462 46/// /2302 10026 21017 39812 6///1 333 7////
AAXX 21184 71464 46/// ///18 10100 39792 40001 58049 6///1 333 10102 20003 7////
AAXX 21184 71445 16/// /3310 11125 21157 39858 40141 51022 60001 333 11035 21125 70000
AAXX 21184 71345 17/// /3612 11032 21043 69961 7//4/ 333 10000 21057 70006
AAXX 21184 71351 16/// /2706 11028 21068 60001 333 21043 7////
AAXX 21184 71353 17/// /3109 11061 21101 69951 7//4/ 333 11007 21074 70011
AAXX 21184 71257 16/// /3108 11049 21083 60001 333 10005 21057 70027
AAXX 21184 71258 16/// /3112 11049 21098 60001 333 11005 21074 70000
AAXX 21184 71259 16/// /3008 11039 21064 60001 333 10013 21070 70000
AAXX 21184 71274 16/// /3009 11044 21076 60001 333 11035 21052 70016
AAXX 21184 71275 46/// /2409 11040 21052 6///1 333 11040 21063 7////
AAXX 21184 71278 16/// /2808 11033 21046 60001 333 11027 21064 70000
AAXX 21184 71286 16/// /2911 11033 21064 60001 333 11023 21051 7////
AAXX 21184 71287 16/// /2709 11033 21070 60001 333 11025 21042 70007
AAXX 21184 71289 16/// /2809 11040 21080 60001 333 11003 21049 70007
AAXX 21184 71916 46/// /0000 11365 21400 30049 40108 58016 6///1 333 11365 21404 7////
AAXX 21184 71525 17/// /3410 11037 21054 69991 7//4/ 333 10006 21048 70009
AAXX 21184 71535 17/// /3208 11029 21038 60011 7//4/ 333 10004 21044 7////
AAXX 21184 71536 17/// /3314 11028 21059 60011 7//4/ 333 11012 21054 70011
AAXX 21184 71537 16/// /3006 11024 21048 60001 333 11001 21047 7////
AAXX 21184 71214 16/// /2710 11037 21054 60001 333 10002 21062 70000
AAXX 21184 71223 16/// /2810 11039 21063 60001 333 10001 21063 7////
AAXX 21184 71225 17/// /3315 11034 21054 69981 7//4/ 333 11003 21034 70008
AAXX 21184 71227 46/// /2916 11030 21053 6///1 333 11018 21046 7////
AAXX 21184 71683 46/// /3601 11267 39889 40003 57029 6///1 333 11245 21288 7////
AAXX 21184 42027 32596 62301 10018 21001 38448 48517 83520 333 58001
AAXX 21184 42071 31993 00000 10074 20051 40197 71140 333 58014
AAXX 21184 42101 31994 00000 10108 20096 40187 71000 333 58007
AAXX 21184 42111 31996 00502 10086 20038 39398 40197 70500 333 58010
AAXX 21184 42131 32996 03601 10082 20078 40191 333 58014
AAXX 21184 42165 31995 03602 10122 20077 40183 70500 333 58017
AAXX 21184 42182 31994 00000 10094 20086 40183 71000 333 58002
AAXX 21184 42328 31995 00203 10128 20029 40187 70500 333 58017
AAXX 21184 42339 31995 40506 10174 20032 40168 70500 80001 333 58011 84070
AAXX 21184 42348 31995 00904 10148 20040 40171 70400 333 58005
AAXX 21184 42361 31994 00000 10094 20082 40177 71044 333 58002
AAXX 21184 42369 31991 09902 10068 20055 40187 74440 333 58000
AAXX 21184 42379 31595 63201 10116 20075 40172 71022 83530 333 58000 83625 86360
AAXX 21184 42452 32996 00000 10156 20103 40167 333 58013
AAXX 21184 42475 31/90 90000 10078 20069 40189 74544 89/// 333 58003
AAXX 21184 42189 NIL
AAXX 21184 42260 NIL
BBXX MINUK05 2118/ 99599 70033 46/// ///// 10100 49981 52023
AAXX 21184 71345 17/// /3612 11032 21043 69961 7//4/ 333 10000 21057 70006
AAXX 21184 71257 16/// /3108 11049 21083 60001 333 10005 21057 70027
AAXX 21184 71258 16/// /3112 11049 21098 60001 333 11005 21074 70000
AAXX 21184 71259 16/// /3008 11039 21064 60001 333 10013 21070 70000
AAXX 21184 71274 16/// /3009 11044 21076 60001 333 11035 21052 70016
AAXX 21184 71275 46/// /2409 11040 21052 6///1 333 11040 21063 7////
AAXX 21184 71278 16/// /2808 11033 21046 60001 333 11027 21064 70000
AAXX 21184 71286 16/// /2911 11033 21064 60001 333 11023 21051 7////
AAXX 21184 71287 16/// /2709 11033 21070 60001 333 11025 21042 70007
AAXX 21184 71289 16/// /2809 11040 21080 60001 333 11003 21049 70007
AAXX 21184 71445 16/// /3310 11125 21157 39858 40141 51022 60001 333 11035 21125 70000
AAXX 21184 71683 46/// /3601 11267 39889 40003 57029 6///1 333 11245 21288 7////
AAXX 21184 71525 17/// /3410 11037 21054 69991 7//4/ 333 10006 21048 70009
AAXX 21184 71535 17/// /3208 11029 21038 60011 7//4/ 333 10004 21044 7////
AAXX 21184 71536 17/// /3314 11028 21059 60011 7//4/ 333 11012 21054 70011
AAXX 21184 71537 16/// /3006 11024 21048 60001 333 11001 21047 7////
AAXX 21184 71916 46/// /0000 11365 21400 30049 40108 58016 6///1 333 11365 21404 7////
AAXX 21184 71214 16/// /2710 11037 21054 60001 333 10002 21062 70000
AAXX 21184 71223 16/// /2810 11039 21063 60001 333 10001 21063 7////
AAXX 21184 71225 17/// /3315 11034 21054 69981 7//4/ 333 11003 21034 70008
AAXX 21184 71227 46/// /2916 11030 21053 6///1 333 11018 21046 7////
AAXX 21184 71462 46/// /2302 10026 21017 39812 6///1 333 7////
AAXX 21184 71464 46/// ///18 10100 39792 40001 58049 6///1 333 10102 20003 7////
AAXX 21184 71351 16/// /2706 11028 21068 60001 333 21043 7////
AAXX 21184 71353 17/// /3109 11061 21101 69951 7//4/ 333 11007 21074 70011
AAXX 21181 51711 32980 02502 11154 21179 38098 57006 333 05158 11056
AAXX 21181 51730 32970 00000 11141 21162 40436 57008 333 05258 11012
AAXX 21181 52112 32980 02001 11159 21213 40455 57013 333 05554 11065
AAXX 21181 52737 32980 30000 11128 21220 37084 57001 80002 333 00253 11013
AAXX 21181 52787 11970 31603 11165 21175 37035 57015 69901 70070 80002 333 05153 11114
AAXX 21181 53352 32980 01601 11187 21228 40444 57005 333 11092
AAXX 21181 53593 32980 02703 11090 21199 40383 52005 333 11032
AAXX 21181 53705 32965 02501 11094 21159 40416 57009 333 05154 11022
AAXX 21181 53863 32965 02202 11040 21147 40378 57006 333 10021
AAXX 21181 53975 32972 02902 11020 21165 40367 52002 333 10052
AAXX 21181 54273 32970 02702 11145 21233 40266 52017 333 11055
AAXX 21181 54324 32970 03202 11088 21253 40333 52014 333 11018
AAXX 21181 54405 32980 02909 11078 21200 40368 52008 333 11026 91118 91529
AAXX 21181 54436 32980 03202 11089 21210 40348 52015 333 10009
AAXX 21181 54808 32961 03601 11036 21076 40353 52004 333 10070
AAXX 21181 54826 32980 00210 11116 21225 38508 52004 333 11034 91124 91502
AAXX 21181 54836 32961 03201 11029 21181 40344 52007 333 10069
AAXX 21181 54863 32970 02501 11026 21093 40314 52009 333 10048
AAXX 21181 56018 32980 00701 11094 21254 36153 52004 333 00103 10065
AAXX 21181 56021 32980 00000 11150 21320 36055 52003 333 00251 10037
AAXX 21181 57071 32960 73602 10002 21115 40357 52003 80002 333 10075
AAXX 21184 68513 36/// /1808 10179 20110 30021 40133 53008 333 10224 20179 91011 555 91013
AAXX 21184 68514 32/// /2508 10241 20061 39637 48517 52015 333 10341 20241 91016 555 91011
AAXX 21184 68523 36/// /2214 10238 21009 39070 48493 53012 333 10337 20238 91021 555 91013
AAXX 21184 68527 36/// /2212 10340 21028 39000 48467 53010 333 10399 20340 91019 555 91008
AAXX 21184 68572 31880 31502 10169 20127 38380 48488 52005 70399 83100 333 10315 20163 91003 555 91017
AAXX 21184 68575 NIL
AAXX 21184 68581 36/// /1402 10264 20212 39310 48481 53001 333 10360 20264 91004 555 91009
AAXX 21184 68583 36/// /0709 10244 20211 39944 40051 53003 333 10323 20244 91017 555 91005
AAXX 21184 68589 36/// /2006 10198 20116 38242 48498 53009 333 10284 20198 91008 555 91019
AAXX 21184 68613 36/// /2604 10165 20132 30027 40143 53005 333 10227 20162 91009 555 91014
AAXX 21184 68647 NIL
AAXX 21184 68651 NIL
AAXX 21184 68715 NIL
AAXX 21184 68717 36/// /2008 10194 20105 39981 40124 52013 333 10283 20194 91012 555 91012
AAXX 21184 68723 36/// /2006 10229 20101 39334 48478 52016 333 10338 20229 91013 555 91009
AAXX 21184 68737 12370 31908 10188 20147 39198 48473 52035 60022 83500 333 10354 20188 91014 555 20022 91011
AAXX 21184 68744 16/// /1415 10175 20162 39043 48457 52012 60052 333 10367 20175 91022 555 20056 69965 91010
AAXX 21184 68747 16/// /1711 10194 20177 39575 48491 56005 60022 333 10307 20193 91017 555 20020 91010
AAXX 21184 68754 NIL
AAXX 21184 68817 36/// /2808 10196 20131 30114 40126 52008 333 10239 20195 91014 555 91012
AAXX 21184 68821 36/// /2609 10204 20082 39858 40094 52016 333 10291 20204 91015 555 91010
AAXX 21184 68835 NIL
AAXX 21184 68843 16/// /2704 10193 20167 30001 40099 56011 69922 333 10225 20193 91008 555 20002 91010
AAXX 21184 68849 36/// /2206 10160 20148 39382 48489 52026 333 10234 20159 91012 555 91012
AAXX 21184 68912 36/// /3105 10162 20129 30114 40123 52005 333 10192 20161 91007 555 91012
AAXX 21184 68918 36/// /2811 10194 20132 30098 40116 53002 333 10229 20194 91019 555 91011
AAXX 21184 68921 NIL
AAXX 21184 68925 36/// /2504 10168 20113 39755 40118 52007 333 10221 20168 91009 555 91012
AAXX 21184 68926 36/// /2003 10199 20112 39937 40114 52008 333 10269 20198 91007 555 91011
AAXX 21184 68935 NIL
AAXX 21180 44210 32999 60000 11208 21233 38639 56011 86010
AAXX 21180 44216 32999 43203 11296 21319 39181 40621 56005 80006
AAXX 21180 44217 32998 00000 11271 21288 37956 40651 58006
AAXX 21180 44219 329// 00000 11226 21310 38746 40602 57015
AAXX 21180 44221 419// 80000 11248 21266 38713 40559 57014 70272 8802/
AAXX 21180 44224 419// 80000 11224 21249 38143 40530 57012 77072 8802/
AAXX 21180 44229 32999 32301 11151 21185 37984 40420 57014 80004
AAXX 21180 44242 329// 70000 11221 21245 39388 40396 57008 87010
AAXX 21180 44243 329// 00501 11299 21332 39488 40436 58009
AAXX 21180 44254 329// 02704 11211 21252 39060 40335 58013
AAXX 21180 44257 329// 00000 11244 21275 38995 40391 58011
AAXX 21180 44263 32998 00000 11252 21291 38168 40624 54000
AAXX 21180 44286 329// 02704 11133 21191 38712 40402 57004
AAXX 21180 44291 329// 00000 11287 21318 38800 40512 56006
AAXX 21180 44329 32999 02703 11168 21210 37825 40455 58016
AAXX 21180 44338 32999 01402 11202 21235 38556 40473 57010
AAXX 21180 44348 329// 03207 11166 21185 38759 40401 57010
AAXX 21180 44374 32999 02303 11147 21224 38335 40468 58017
AAXX 21180 44385 32999 02703 11112 21196 39012 40398 57016
AAXX 21180 44386 329// 03201 11196 21229 39148 40439 58006
AAXX 21184 63756 11480 40000 10210 20196 38865 48500 60592 71322 333 0//98 10285 59004 81819 81920
AAXX 21184 63791 32580 31118 10274 20146 39115 48506 83901 333 10334 55300 81927 83628
AAXX 21184 63832 32480 30000 10222 20198 38818 48488 82901 333 10273 55300 59016 82819 81921
AAXX 21184 63862 31580 72710 10236 20189 38895 48508 71322 84973 333 10290 59007 84624 81925 85358
AAXX 21184 63866 12580 50000 10237 20218 39511 48/// 60102 82530 333 10286 58000 82622 83358
AAXX 21184 63870 11459 80000 10236 20229 30091 40109 60122 79599 8593/ 333 0//13 10293 55300 58001 85814 81916 87358
AAXX 21184 63881 02480 70000 10176 20162 38195 48/// 69952 83920 333 10246 5901369907 83614 81919 83457
AAXX 21184 63887 01580 81205 10188 20170 38587 48504 60032 76065 8637/ 333 10266 55300 59007 60036 84820 81923 87358
AAXX 21184 63894 11480 80000 10236 20234 30054 40114 60182 71392 8492/ 333 0//11 10263 55300 58002 84818 81920 88457
AAXX 21184 63932 02580 80000 10168 20167 38305 48502 60052 8292/ 333 59009 60036 83820 81921 88458
AAXX 21184 63971 32580 50000 10241 20235 39988 40118 8493/ 333 10304 55300 58008 81921 84358
AAXX 21184 63729 NIL
AAXX 21184 63733 NIL
AAXX 21184 63801 NIL
AAXX 21184 63962 NIL
AAXX 2118/ 89872 46/// ///// 11018 39729 4//// 5//// 91810
AAXX 2118/ 89866 46/// ///// 11023 39676 4//// 5//// 91810
AAXX 2118/ 89828 46/// ///// 11321 36470 4//// 5//// 91810
AAXX 2118/ 89879 46/// ///// 11016 39683 4//// 5//// 91810
AAXX 21181 38599 31995 80000 11075 21110 39860 40413 57011 71011 84031 333 11039
AAXX 21181 38599 31995 80000 11075 21110 39860 40413 57011 71011 84031 333 11039
AAXX 21181 80001 01470 70805 10268 20248 30112 40113 60081 72061 85236 333 56200 57811 59007 60087 85814
AAXX 21181 80002 NIL
AAXX 21181 80009 NIL
AAXX 21181 80022 31468 40107 10304 20248 30079 40081 70510 81101 333 561/9 59010 81815 83070
AAXX 21181 80028 NIL
AAXX 21181 80035 NIL
AAXX 21181 80036 31568 10706 10317 20198 70500 81800 333 560// 81820
AAXX 21181 80063 31566 50000 10324 20237 70511 333 560// 85620
AAXX 21181 80084 31470 72102 10291 20226 70522 8487/ 333 5619/ 84817 85358
AAXX 21181 80091 31465 30000 10306 20237 70500 83100 333 569// 83815
AAXX 21181 80094 31468 63004 10240 20198 38789 70522 84870 333 5679/ 59006 84810 83357
AAXX 21181 80097 NIL
AAXX 21181 80099 31466 40803 10314 20234 39920 40064 70522 84201 333 56299 57892 59007 84810
AAXX 21181 80110 31670 32103 10278 20130 38480 70500 83100 333 560// 58007 83835
AAXX 21181 80112 NIL
AAXX 21181 80139 NIL
AAXX 21181 80144 31458 70000 10282 20238 70522 87200 333 560// 87818
AAXX 21181 80210 31463 52302 10259 20185 38642 70522 84831 333 56550 59007 84815
AAXX 21181 80211 31570 60000 10262 20176 70522 84230 333 5631/ 84827 83360
AAXX 21181 80214 31460 61401 10268 20217 39103 70522 84870 333 5650/ 59002 84817 84359
AAXX 21181 80222 31568 61207 10174 20083 37508 70522 86805 333 569/9 58002 86823
AAXX 21181 80234 32562 71202 10294 20200 39611 40100 81571 333 56239 58004 81623 87359
AAXX 21181 80252 NIL
AAXX 21181 80259 NIL
AAXX 21181 80315 32565 30000 10316 20214 39574 40064 81150 333 5655/ 59005 81830
AAXX 21181 80342 32568 61405 10234 20147 38198 86800 333 563// 59003 86823
AAXX 21181 80370 01458 81206 10120 20098 69931 72052 888// 333 563// 69917 88816
AAXX 21181 80372 NIL
AAXX 21181 80398 32470 72302 10292 20260 30003 40098 85870 333 5613/ 59019 85817 86458
AAXX 21184 64810 32458 50000 10280 20251 30070 40096 83530 333 10315 58005 83615 85365
AAXX 21184 86330 32998 10000 10372 20103 40067 57018 80005
AAXX 21184 86360 32998 13620 10386 20091 40045 57029 80005
AAXX 21184 86460 32998 40606 10376 20063 40058 57022 82036
AAXX 21184 86490 32997 73610 10354 20122 40043 57028 84076
AAXX 21184 86530 32597 40710 10370 20124 40046 57024 81186
AAXX 21184 86545 32897 53615 10364 20107 40047 57035 81076
AAXX 21184 86565 32998 53604 10336 20194 40060 57034 80004
AAXX 21184 86580 32897 23513 10360 20136 40042 57044 81075
AAXX 21181 80001 01470 70805 10268 20248 30112 40113 60081 72061 85236 333 56200 57811 59007 60087 85814
AAXX 21181 80002 NIL
AAXX 21181 80009 NIL
AAXX 21181 80022 31468 40107 10304 20248 30079 40081 70510 81101 333 561/9 59010 81815 83070
AAXX 21181 80028 NIL
AAXX 21181 80035 NIL
AAXX 21181 80036 31568 10706 10317 20198 70500 81800 333 560// 81820
AAXX 21181 80063 31566 50000 10324 20237 70511 333 560// 85620
AAXX 21181 80084 31470 72102 10291 20226 70522 8487/ 333 5619/ 84817 85358
AAXX 21181 80091 31465 30000 10306 20237 70500 83100 333 569// 83815
AAXX 21181 80094 31468 63004 10240 20198 38789 70522 84870 333 5679/ 59006 84810 83357
AAXX 21181 80097 NIL
AAXX 21181 80099 31466 40803 10314 20234 39920 40064 70522 84201 333 56299 57892 59007 84810
AAXX 21181 80110 31670 32103 10278 20130 38480 70500 83100 333 560// 58007 83835
AAXX 21181 80112 NIL
AAXX 21181 80139 NIL
AAXX 21181 80144 31458 70000 10282 20238 70522 87200 333 560// 87818
AAXX 21181 80210 31463 52302 10259 20185 38642 70522 84831 333 56550 59007 84815
AAXX 21181 80211 31570 60000 10262 20176 70522 84230 333 5631/ 84827 83360
AAXX 21181 80214 31460 61401 10268 20217 39103 70522 84870 333 5650/ 59002 84817 84359
AAXX 21181 80222 31568 61207 10174 20083 37508 70522 86805 333 569/9 58002 86823
AAXX 21181 80234 32562 71202 10294 20200 39611 40100 81571 333 56239 58004 81623 87359
AAXX 21181 80252 NIL
AAXX 21181 80259 NIL
AAXX 21181 80315 32565 30000 10316 20214 39574 40064 81150 333 5655/ 59005 81830
AAXX 21181 80342 32568 61405 10234 20147 38198 86800 333 563// 59003 86823
AAXX 21181 80370 01458 81206 10120 20098 69931 72052 888// 333 563// 69917 88816
AAXX 21181 80372 NIL
AAXX 21181 80398 32470 72302 10292 20260 30003 40098 85870 333 5613/ 59019 85817 86458
BBXX A8CN8 21180 99532 11790 41497 41903 10000 40020 54000 70211 847// 22264 00040 2//03 327// 4//04 5////
BBXX SBLI 21181 99300 11641 43/98 80110 10172 40187 53004 22264 00222 2//// 4////
BBXX SHIP 21184 99534 11740 41598 40605 10000 21000 40007 56002 70322 84/// 91800 22214 00040 2//// 3//// 4//// 80000
BBXX SMGW 21181 99348 11718 43/97 83413 10142 40139 53018 22224 00198 2//// 4////
AAXX 21184 68575 NIL
AAXX 21184 68647 NIL
AAXX 21184 68651 NIL
AAXX 21184 68715 NIL
AAXX 21184 68754 NIL
AAXX 21184 68835 NIL
AAXX 21184 68921 NIL
AAXX 21184 68935 NIL
AAXX 21181 50548 32980 03202 11203 21287 40240 52008 333 11121
AAXX 21181 50564 11970 02501 11283 21304 40224 52010 69911 70070 333 11128
AAXX 21181 51334 32970 02001 11195 21222 40505 57010 333 05456 11121
AAXX 21181 51818 11865 72901 11115 21137 40450 57004 69951 70070 875// 333 00053 11052
AAXX 21181 52378 32980 02702 11129 21221 40441 57013 333 05151 11046
AAXX 21181 53487 32962 00202 11130 21197 40403 52003 333 11047
AAXX 21181 53502 32980 02002 11152 21214 40441 57009 333 00056 11028
AAXX 21181 53923 32980 50202 11067 21145 40403 57006 81042 333 11021
AAXX 21181 54049 32970 02903 11169 21271 40274 52014 333 11066
AAXX 21181 54115 32980 02704 11151 21246 40342 57001 333 11104
AAXX 21181 54157 32962 02701 11151 21249 40292 52012 333 11067
AAXX 21181 54186 32970 02505 11144 21213 40223 52004 333 11047
AAXX 21181 54311 32980 00202 11166 21244 40355 52001 333 11091
AAXX 21181 54346 32965 00701 11110 21235 40311 52009 333 11026
AAXX 21181 54377 32965 52903 11093 21165 40274 52009 80002 333 11012
AAXX 21181 54386 11570 61101 11133 21204 40230 52014 69921 70070 86500 333 11068
AAXX 21181 54493 32972 03207 11103 21235 40289 52014 333 11007
AAXX 21181 54587 NIL
AAXX 21181 54715 32966 00000 11076 21116 40353 52006 333 10058
AAXX 21181 54929 31956 70000 11012 21067 40339 52010 71000 80002 333 10081
AAXX 21181 54945 32967 03204 11004 21123 40335 52009 333 10069
AAXX 21181 56065 32980 00000 11169 21197 36615 57004 333 00154 11042
AAXX 21181 57193 31930 03601 11008 21028 40347 52004 71000 333 10057
AAXX 21181 57290 32960 73602 10026 21087 40344 52003 80002 333 10075
AAXX 21184 68174 31865 20607 10260 20149 38767 48497 53008 70500 81081 333 10313 20260 91011 555 91015
AAXX 21184 68191 36/// /1106 10289 20138 39590 48517 52012 333 10360 20289 91009 555 91009
AAXX 21184 68242 31680 63606 10286 20057 38689 48475 53003 71300 82970 333 10330 20274 91010 555 91013
AAXX 21184 68262 36/// /2802 10263 20098 38680 48492 52010 333 10326 20263 91005 555 91015
AAXX 21184 68263 12680 73005 10207 20149 38470 48495 52016 60032 8451/ 333 10301 20193 91008 555 20030 91018
AAXX 21184 68267 32570 50515 10200 20144 38236 48504 52013 85100 333 10298 20199 91021 555 91020
AAXX 21184 68289 36/// /2202 10257 20164 39124 48508 53007 333 10305 20257 91003 555 91014
AAXX 21184 68350 36/// /3405 10266 20088 38641 48495 53011 333 10354 20266 91009 555 91016
AAXX 21184 68368 12970 43506 10214 20135 38311 48505 50012 60011 84070 333 10286 555 91020
AAXX 21184 68403 36/// /2308 10182 20133 30126 40159 53006 333 10218 20182 91012 555 91015
AAXX 21184 68424 32882 12410 10328 21038 39128 48480 53000 81070 333 10403 20328 91013 555 91008
AAXX 21184 68438 32782 50712 10263 20090 38760 48461 52011 82980 333 10352 20249 91020 555 91011
AAXX 21184 68442 32682 60609 10226 20115 38630 48484 52017 8127/ 333 10330 20226 91012 555 91015
AAXX 21184 68461 11780 43205 10212 20102 38310 48492 53012 69942 71322 81963 333 10297 20210 91006 555 20004 91018
AAXX 21184 68512 32882 32312 10157 20065 38998 48491 52008 83080 333 10237 20157 91016 555 91015
AAXX 21184 68538 12782 22713 10296 20023 38656 48447 56001 69942 81280 333 10345 20237 91016 555 20004 91010
AAXX 21184 68587 NIL
AAXX 21184 68588 36/// /0110 10248 20207 30052 40068 53001 333 10317 20247 91018 555 91006
AAXX 21184 68591 NIL
AAXX 21184 68592 NIL
AAXX 21184 68618 32780 12611 10204 20024 39023 48494 53006 81230 333 10285 20204 91016 555 91014
AAXX 21184 68633 36/// /0409 10245 20069 38452 48445 56005 333 10322 20232 91017 555 91012
AAXX 21184 68668 11420 81723 10186 20162 39269 48495 52060 60102 79522 889// 333 10346 20180 91033 555 20104 60525 91013
AAXX 21184 68714 36/// /2307 10186 20117 30089 40125 52006 333 10234 20186 91012 555 91012
AAXX 21184 68727 36/// /2014 10291 21028 39059 48467 52025 333 10349 20291 91020 555 91008
AAXX 21184 68752 16/// /1106 10199 20190 39420 48484 57026 60022 333 10276 20196 91008 555 20024 91010
AAXX 21184 68816 32680 43111 10192 20132 30068 40122 53008 84500 333 10246 20173 91012 555 91012
AAXX 21184 68828 32580 71803 10180 20136 39887 40118 53016 875// 333 10235 555 91012
AAXX 21184 68842 32580 82311 10202 20164 30040 40109 53021 8457/ 333 10244 555 91010
AAXX 21184 68858 NIL
AAXX 21184 68906 32898 72403 10140 20096 30091 40156 53001 8701/ 222// 00123 318// 40702 333 10168 20140 91006 555 91015
AAXX 21184 68994 12498 63210 10086 20067 30008 40037 52010 60042 83510 222// 00076 333 10114 20086 91015 555 20040 91003
AAXX 21184 89004 32180 61804 11060 21065 38756 49751 53003 81609 333 11040 21072 91006 555
AAXX 21184 43444 22470 60000 10212 20191 39571 40105 82106 333 58011 60007 82818 86280
BBXX 46206 21181 99488 71260 46/// /1404 10073 40334 52026 22200 00085 11205 70027 333 91206
AAXX 21184 42571 31996 00000 10114 20077 40174 70500 333 58002
AAXX 21184 42667 32996 00000 10150 20078 39563 40168 333 58003
AAXX 21184 42675 31996 00000 10106 20063 40178 70500 333 58000
AAXX 21184 42754 31996 01103 10186 20096 39509 40153 70500 333 58003
AAXX 21184 42779 32996 00000 10130 20016 39458 40180 333 58003
AAXX 21184 42867 31995 23403 10136 20084 40165 70500 80001 333 58005 82075
AAXX 21184 42933 32996 00000 10170 20070 40159 333 58008
AAXX 21184 42559 NIL
AAXX 21184 42874 NIL
AAXX 21184 43041 NIL
AAXX 21181 31484 42999 00000 11278 21297 39866 40238 53004
AAXX 21181 50658 31950 83403 11207 21230 40227 52017 70400 80007 333 11139
AAXX 21181 50888 32970 82502 11103 21147 40172 57002 8802/ 333 11066
AAXX 21181 50983 32970 83401 11143 21184 40183 57001 80002 333 11114
AAXX 21181 51053 32973 02901 11276 21307 40545 52001 333 05553 11177
AAXX 21181 51542 32680 33401 11263 21291 37619 57003 81502 333 05354 11152
AAXX 21181 52436 32980 02201 11163 21213 38581 40437 57009 333 05151 11041
AAXX 21181 52908 32980 32906 11179 21328 35740 52001 80002 333 00201 11027
AAXX 21181 52996 32970 72502 11124 21164 37611 57010 80002 333 00051 11105
AAXX 21181 53083 32980 00000 11240 21267 40407 57005 333 00454 11162
AAXX 21181 53764 32968 01601 11091 21129 40403 57006 333 11019
AAXX 21181 53787 32980 00703 11101 21158 40374 57003 333 10004
AAXX 21181 54096 11670 52906 11124 21159 40183 52003 69901 70070 85500 333 11064
AAXX 21181 54226 32980 02905 11122 21242 40328 52015 333 11055
AAXX 21181 54259 32965 02503 11140 21244 40301 52012 333 11061
AAXX 21181 54527 32970 03404 11036 21187 40339 52007 333 10041
AAXX 21181 54534 32965 03603 11046 21192 40342 52008 333 10026
BBXX 46132 21181 99497 71279 46/// /3306 10069 40325 5//// 22200 00088 11406 70031 333 91207
BBXX 46205 21181 99542 71343 46/// /1713 10073 40220 57042 22200 00077 11206 70030 333 91217
BBXX 46181 21181 99538 71288 46/// /0702 10016 40323 57011 22200 00046 10300 70000 333 91202
BBXX 46205 21181 99542 71343 46/// /1713 10073 40220 57042 22200 00077 11206 70030 333 91217
BBXX 46181 21181 99538 71288 46/// /0702 10016 40323 57011 22200 00046 10300 70000 333 91202
BBXX 46132 21181 99497 71279 46/// /3306 10069 40325 5//// 22200 00088 11406 70031 333 91207
AAXX 21184 82098 32597 20707 10336 20230 30066 40083 81340 333 59001
AAXX 21184 82246 32597 50203 10324 20250 39899 40094 86600 333 59002
AAXX 21184 82445 31698 30906 10336 20227 30048 40100 70544 82401 333 59003
AAXX 21184 82460 32597 60501 10364 20225 30046 40075 86200 333 59001
AAXX 21184 82571 21497 63202 10280 20244 39908 40081 70296 85230 333 58011 60421
AAXX 21184 68155 36/// /0203 10301 20132 39146 48496 53005 333 10367 20301 91006 555 91011
AAXX 21184 68171 NIL
AAXX 21184 68176 36/// /0903 10277 20131 39102 48502 53006 333 10356 20277 91007 555 91013
AAXX 21184 68181 NIL
AAXX 21184 68182 36/// /0202 10265 20151 39301 48506 53003 333 10336 20261 91003 555 91012
AAXX 21184 68185 16/// /2302 10201 20171 38470 48402 58007 60012 333 10290 20198 91004 555 20014 91006
AAXX 21184 68253 36/// /0000 10289 20149 39008 48494 52007 333 10355 20289 91004 555 91012
AAXX 21184 68255 36/// /2203 10250 20121 38824 48478 52013 333 10338 20250 91004 555 91013
AAXX 21184 68271 36/// /3403 10282 20139 38879 48494 53006 333 10340 20282 91006 555 91014
AAXX 21184 68273 16/// /2707 10206 20136 38442 48496 53011 69962 333 10292 20205 91010 555 20006 91018
AAXX 21184 68287 36/// /0503 10184 20145 38566 48502 53008 333 10267 20178 91004 555 91018
AAXX 21184 68291 36/// /1302 10274 20165 39495 48513 53012 333 10359 20274 91004 555 91010
AAXX 21184 68297 NIL
AAXX 21184 68329 NIL
AAXX 21184 68331 36/// /3506 10309 20042 38811 48507 53002 333 10371 20309 91008 555 91015
AAXX 21184 68335 36/// /3204 10305 20060 38877 48499 53011 333 10368 20305 91006 555 91014
AAXX 21184 68341 36/// /0604 10248 20081 38509 48494 53002 333 10324 20248 91006 555 91017
AAXX 21184 68342 NIL
AAXX 21184 68343 36/// ///// 10272 20134 38739 48469 53006 333 10344 20272 555 91012
AAXX 21184 68349 36/// /3203 10261 20088 38483 48476 52007 333 10327 20257 91012 555 91015
AAXX 21184 68353 36/// /1810 10251 20088 38503 48482 53006 333 10312 20219 91021 555 91016
AAXX 21184 68355 36/// /1502 10270 20125 38549 48484 53011 333 10312 20270 91004 555 91016
AAXX 21184 68370 32670 30510 10234 20172 38355 48501 52016 83200 333 10324 2//// 555 91019
AAXX 21184 68377 36/// /0808 10278 20124 38721 48467 53017 333 10359 20277 91011 555 91012
AAXX 21184 68380 36/// /2906 10188 20149 3//// 4//// 5//// 333 10328 20188 91011 555
AAXX 21184 68387 36/// /0406 10273 20145 38825 48494 53008 333 10332 20271 91015 555 91014
AAXX 21184 68411 36/// /2107 10241 20070 39917 40121 53014 333 10320 20240 91013 555 91012
AAXX 21184 68429 36/// /0000 10302 20001 38632 48458 53005 333 10368 20302 91002 555 91011
AAXX 21184 68449 36/// /3107 10246 20130 38364 48473 53010 333 10306 20238 91010 555 91016
AAXX 21184 68471 36/// /0000 10229 20129 38305 48479 53003 333 10280 20228 91003 555 91017
AAXX 21184 68474 36/// /2502 10187 20131 38600 48492 52012 333 10311 20187 91003 555 91016
AAXX 21184 68479 36/// /0807 10294 20130 38907 48485 52015 333 10350 20294 91011 555 91012
AAXX 21184 68481 36/// /1102 10274 20185 39720 40078 52018 333 10356 20274 91003 555 91009
AAXX 21184 68487 36/// /3504 10259 20154 38952 48485 53004 333 10331 20256 91007 555 91012
AAXX 21184 68491 36/// /0308 10245 20214 30071 40080 52010 333 10312 20245 91013 555 91008
AAXX 21184 68497 36/// /0504 10266 20201 30023 40066 52010 333 10361 20266 91008 555 91006
AAXX 21184 68183 31778 23504 10278 20160 39399 48512 53005 70500 82070 333 10329 20278 91005 555 91011
AAXX 21184 68188 36/// /0702 10231 20193 39167 48501 53007 333 10306 20231 91003 555 91013
AAXX 21184 68268 36/// /0208 10237 20156 38858 48503 52015 333 10371 20225 91011 555 91016
AAXX 21184 68272 NIL
AAXX 21184 68296 32975 52103 1//// 2//// 38910 4//// 53001 84070 333 1//// 2//// 91003 555
AAXX 21184 68322 32282 52902 10323 20061 39072 48469 52007 85300 333 10416 20323 91003 555 91008
AAXX 21184 68338 36/// /2910 10263 20080 38732 48470 52019 333 10357 20263 91016 555 91012
AAXX 21184 68345 16/// /1505 10243 20124 38644 48489 53013 69922 333 10328 20237 91007 555 20002 91016
AAXX 21184 68362 11680 30402 10199 20139 38484 48486 52011 60082 71399 81375 333 10320 20191 91003 555 20080 91016
AAXX 21184 68400 32965 00504 10264 20168 30008 40080 52017 333 10377 20264 91009 555 91008
AAXX 21184 68408 32580 31803 10161 20136 30137 40145 52007 83100 333 10196 20157 91004 555 91014
AAXX 21184 68416 32684 52114 10275 20013 38997 48486 52016 85200 333 10341 20275 91021 555 91012
AAXX 21184 68478 32589 32403 10244 20157 38839 48486 52012 83500 333 10339 20244 91005 555 91014
AAXX 21184 68488 36/// /3603 10222 20149 39222 48482 52012 333 10332 20222 91005 555 91011
AAXX 21184 68494 36/// /1103 10264 20196 39927 40054 53004 333 10355 20258 91008 555 91006
AAXX 21184 68524 32986 22614 10295 21096 39001 48473 52018 82080 333 10378 20295 91021 555 91010
AAXX 21184 68546 16/// /0108 10190 20134 38615 48462 53003 60032 333 10314 20166 91014 555 20032 91013
AAXX 21184 68558 16/// /0913 10139 20112 38196 48513 52038 60062 333 10278 20133 91044 555 20060 60585 91021
AAXX 21184 68570 32360 61606 10241 20083 38480 48472 52015 86800 333 10317 20227 91011 555 91015
AAXX 21184 68580 36/// /0000 10216 20186 38908 48477 53005 333 10330 20216 91002 555 91012
AAXX 21184 68614 32580 12408 10190 20125 30087 40128 52013 81100 333 10259 20190 91015 555 91012
AAXX 21184 68624 31882 42304 10251 21113 38695 48472 52012 70288 84200 333 10340 20251 91013 555 91013
AAXX 21184 68674 36/// /2511 10259 20222 30075 48550 53035 333 10296 20236 91025 555 91010
AAXX 21184 68712 32470 12208 10167 20128 30060 40125 53007 81100 333 10212 20167 91010 555 91012
AAXX 21184 68718 NIL
AAXX 21184 68722 32/// /2605 10184 20011 38517 48475 52010 333 10278 20184 91013 555 91015
AAXX 21184 68814 36/// /0000 1//// 2//// 30124 4//// 52006 333 1//// 2//// 91004 555 91013
AAXX 21184 68832 32470 61306 10188 20119 39147 48473 52021 86300 333 10324 20187 91012 555 91011
AAXX 21184 68916 36/// /2816 10171 20130 39858 40125 52007 333 10201 20171 91020 555 91012
AAXX 21184 68920 NIL
AAXX 21184 68928 NIL
AAXX 21184 83096 32695 20903 10291 20236 30105 40112 82100 333 59009
AAXX 21184 83186 32598 21408 10310 20137 39550 40071 81102 333 59014
AAXX 21184 83242 32497 32305 10325 20184 39605 40089 81103 333 59013
AAXX 21184 83288 32598 60000 10329 20208 39584 40067 83284 333 59014
AAXX 21184 83344 32598 71405 10257 20197 39144 40103 82048 333 59013
AAXX 21184 82141 32698 50209 10300 20249 30072 40084 83202 333 59008
AAXX 21184 82145 32598 50905 10326 20233 30043 40084 83240 333 59005
AAXX 21184 82181 32497 20708 10330 20202 39967 40106 81140 333 59013
AAXX 21184 82198 32495 50207 10311 20231 30033 40084 85200 333 59004
AAXX 21184 82353 32598 61802 10343 20236 39951 40034 84230 333 59004
AAXX 21184 82361 32497 33603 10321 20243 30052 40089 83300 333 59007
AAXX 21184 82476 32595 31403 10363 20222 39956 40073 83200 333 58004
AAXX 21184 82861 21695 80906 10317 20234 39884 40051 79296 8802/ 333 59010 60011
AAXX 21184 83064 32598 21804 10348 20228 39790 40053 81306 333 59024
AAXX 21184 83332 21596 81802 10207 20199 39195 40101 72062 888// 333 59002 60241
AAXX 21184 83423 32698 72303 10264 20188 39274 40079 879// 333 59016
AAXX 21184 83470 32698 61806 10298 20215 39231 40068 86109 333 59017
AAXX 21184 83552 32498 4//// 10364 20214 39942 4//// 84200 333 58008
AAXX 21184 83623 32996 6//// 1//// 2//// 39496 4//// 58034 85240
AAXX 21184 83630 32497 70510 10224 20167 3//// 4//// 57025 83970
AAXX 21184 83702 21499 81402 10275 20141 39340 40077 58025 70365 88900 333 60051
AAXX 21184 83704 32698 53602 10351 20207 39636 40030 58020 84130
AAXX 21184 83726 31597 61402 10309 20173 39156 40095 58035 70544 84302
AAXX 21184 68587 NIL
AAXX 21184 68591 NIL
AAXX 21184 68592 NIL
AAXX 21184 68858 NIL
AAXX 21184 82400 32570 31010 10274 20233 40111 83100 333 58005
AAXX 21184 82979 32498 41407 10329 20170 39636 40076 83140 333 59003
AAXX 21184 82986 32598 51402 10350 20148 39791 40070 83206 333 59012
AAXX 21184 83179 32598 51404 10363 20155 39603 40034 85200 333 59022
AAXX 21184 83192 32597 61407 10338 20127 39936 40098 84270 333 59002
AAXX 21184 83339 32497 51407 10271 20180 39127 40075 84220 333 59013
AAXX 21184 83498 32595 70906 10279 20216 30121 40126 83530 333 59013
AAXX 21184 83695 32698 40000 10322 20205 39967 40101 57012 82230
BBXX A8AX3 21183 99156 70182 41896 30517 10190 40145 57010 73222 8302/ 22244 20702
BBXX C6W2032 21184 99025 10049 41398 61911 10290 2023/ 40100 54000 70222 86212 22283 00270 20702 318// 40702 50501 6//// 80250 ICE ///// .....
AAXX 21181 31825 42684 20000 11286 21304 30015 40248 58002 81501
AAXX 21181 31845 42998 00000 11288 21312 30023 40205 57007
AAXX 21181 31878 42975 82102 11127 21173 30048 40178 55000 8807/
AAXX 21181 31915 42998 82902 11091 21153 39910 40183 53006 8802/
AAXX 21181 31921 41997 83602 11101 21114 30082 40184 53007 70272 8802/
AAXX 21181 31969 42/// /2908 11059 21135 30134 40185 57002
AAXX 21181 31981 42599 82002 11135 21155 39937 40185 56003 86500
AAXX 21181 31987 42999 23402 11111 21133 39912 40182 57012 80001
AAXX 21181 32069 42998 01206 11230 21255 30217 40223 53001 333 91007 91109
AAXX 21184 82863 21598 70000 10286 20250 39856 40065 70265 8694/ 333 59019 60091
AAXX 21184 83228 21799 70000 10302 20224 39784 40054 70399 83201 333 59023 69921
AAXX 21184 83270 32798 60000 10300 20219 39635 40114 84630 333 58005
AAXX 21184 83309 21695 80000 10262 20231 39792 40113 71000 886// 333 58004 60041
AAXX 21184 83319 21797 62305 10300 20234 39749 40118 70262 82204 333 59013 60011
AAXX 21184 83368 32798 70000 10310 20239 39732 40091 85204 333 59004
AAXX 21184 83374 32598 52306 10306 20227 39526 40090 85200 333 59013
AAXX 21184 83405 32696 6//// 10344 20344 30243 49936 80069 333 58004
AAXX 21184 83526 21497 83206 10263 20203 39156 40085 76121 885// 333 59014 69971
BBXX ZCDF4 21183 99284 71160 41498 23115 10170 20135 40193 52020 70200 81140 22245 00150 20101 332// 40703 5//// 80150
BBXX A8CJ2 21184 99080 70795 41698 60213 10250 20236 40090 54000 70322 84444 22284 04260 20401 323// 41003 5//// 80240
BBXX DIHE 21184 99453 70494 41597 32833 10060 21012 40175 55005 70322 83241 22224 00030 20610 80030
BBXX A8IY4 21181 99313 70464 41598 43407 10200 20149 40215 58010 7//00 8/100 22274 04230 29902 327// 40805 80170
BBXX ZCDG4 21184 99161 70730 41598 52243 10262 20218 40127 58031 70211 83878 22233 00290 20504 307// 41010 5////
BBXX PBHZ 21183 99334 70642 41597 82706 10208 20176 40262 56018 75800 884// 22213 04260 299// 322// 40803 80187
BBXX MYSU5 21183 99472 70358 41298 82637 10085 20020 40048 53017 70222 887// 22223 00120 20812 32923 41008 50804 80058
AAXX 21184 41184 42960 01305 10195 20067 40204 333 10268 58003
AAXX 21184 41194 12960 00707 10203 20060 30209 40214 60001 333 10264 58006
AAXX 21184 41196 42960 01005 10145 20046 30177 40218 333 10262 58007
AAXX 21184 41198 42960 02302 10191 20063 40217 333 10250 58008
AAXX 21184 41217 42960 00308 10180 20100 30171 40201 333 10263 58011
AAXX 21184 41218 42960 00908 10189 20055 39897 40207 333 10252 58010
AAXX 21181 30499 41999 32701 11277 21301 39539 40262 52002 70271 83030
AAXX 21181 30683 429// 83402 11256 21296 39559 40268 57003 81044
AAXX 21181 30695 41999 02905 11256 21303 39875 40244 51006 73631
AAXX 21181 31253 41996 80901 11188 21214 39706 40191 53001 77172 8802/
AAXX 21181 31295 41997 83604 11194 21213 39718 40202 58002 77172 82037
AAXX 21181 31348 42999 80000 11300 21312 30029 40248 53001 80002
AAXX 21181 31418 42984 00000 11258 21276 39955 40235 53002
AAXX 21181 31439 42999 00000 11272 21290 30180 40229 54000
AAXX 21181 31442 42997 00000 11257 21281 39803 40190 53001
AAXX 21181 31445 41984 02803 11254 21278 39913 40189 52006 70271
AAXX 21181 31474 41997 80000 11218 21250 39685 40203 57003 77172 8802/
AAXX 21181 31521 31957 82502 11231 21250 39878 40193 53006 77172 80007
AAXX 21181 31527 41998 02501 11249 21262 39869 40199 52010 70171
AAXX 21181 31534 41997 80000 11202 21221 39822 40189 53004 77172 86027
AAXX 21181 31587 41996 02901 11264 21276 30049 40209 52006 70172
AAXX 21181 31632 NIL
AAXX 21181 31702 41997 81801 11177 21196 39833 40189 53007 77172 8802/
AAXX 21181 31713 41995 83601 11178 21184 30084 40190 57005 77172 8802/
AAXX 21181 31725 42498 80502 11194 21200 30114 40185 57004 889//
AAXX 21181 31801 42998 00000 11273 21292 39962 40213 57005
BBXX ZDLP 21183 99540 50381 41/94 90411 10037 20037 40000 57010 74144 8/7// 22283 04023 20000 300// 40000 5//// 80037
BBXX 62141 21183 99493 50591 41697 63137 10115 20089 49971 58002 70311 86266 22200 20605 331// 40702 5//// 80102
BBXX LAVN4 21184 99317 50469 41898 81714 10280 2019/ 40108 54000 70200 8001/ 22213 00210 20402 304// 400// 80220 NNNN
AAXX 21184 89020 46/// /1006 11033 21051 39708 49742 57005 91750
AAXX 21184 89108 46/// /3305 11182 36980 4//// 57001 91800
AAXX 21184 89314 46/// /2711 11080 38282 4//// 52013 91800
AAXX 21184 89327 46/// /0000 11031 39563 49841 52011 91800
AAXX 21184 89329 46/// /0404 11076 38838 49912 52006 91750
AAXX 21184 89376 46/// /0618 11053 39745 49812 52026 91750
AAXX 21184 89667 46/// /2903 11031 39792 49802 52018 91800
AAXX 21184 89734 46/// /0707 11258 36050 4//// 52003 91800
AAXX 21184 89744 46/// /0017 11229 36413 4//// 52004 91800
AAXX 21184 89769 46/// /1810 11054 39738 49790 52027 91800
AAXX 21184 89799 46/// /1611 11225 36784 4//// 54000 91800
AAXX 21184 89832 46/// /2017 11082 39512 49810 57007 91800
AAXX 21184 89834 46/// /2014 11178 38091 4//// 57003 91800
AAXX 21184 89865 46/// ///// 1//// 3//// 4//// 5//// 91800
AAXX 21184 89866 46/// ///02 11022 39652 49783 52008 91800
AAXX 21184 89868 46/// /17// 11065 39714 49781 52017 91750
AAXX 21184 89869 46/// /2016 11060 39733 49811 52022 91750
AAXX 21184 89872 46/// /2412 11018 39724 49779 52009 91800
AAXX 21184 89873 46/// /1311 11059 39812 49890 52041 91750
AAXX 21184 89879 46/// /0000 11014 39670 49706 52004 91750
AAXX 21181 30455 429// 20000 11315 21347 38900 48422 57006 80002
AAXX 21181 30731 415// 83004 11090 21129 39644 40273 57021 73683 8495/
AAXX 21181 30739 416// 62302 11170 21196 39438 40308 57013 77171 82410
AAXX 21181 30741 429// 82802 11220 21233 38681 48468 57009 80001
AAXX 21181 30745 429// 82103 11198 21224 39075 40302 57015 8801/
AAXX 21181 30764 42998 00000 11367 21401 39456 40374 58011
AAXX 21181 30829 42984 82502 11145 21180 39607 40335 57007 86022
AAXX 21181 30838 41596 82001 11161 21174 39287 40327 57014 77177 8271/
AAXX 21181 30846 42999 33401 11208 21257 39342 40321 57015 80003
AAXX 21181 30859 42999 00000 11335 21366 39420 40373 57013
AAXX 21181 30862 42984 02404 11297 21351 39514 40338 58013
AAXX 21181 30957 429// 02501 11282 21307 39371 40368 57012
AAXX 21181 30967 NIL
AAXX 21181 30975 42898 20902 11309 21361 39607 40336 52005 82030
BBXX 44059 21181 99368 70763 46/// /2106 1//// 91820 333 91208
BBXX 44059 21181 99368 70763 46/// /2106 1//// 40153 91810 333 91208
BBXX 44059 21181 99368 70763 46/// /2106 10167 40156 56025 91800 22200 00108 333 91208
BBXX 44057 21181 99395 70761 46/// /2202 1//// 91820 333 91203
BBXX 44057 21181 99395 70761 46/// /2001 1//// 40115 91810 333 91202
BBXX 44057 21181 99395 70761 46/// /1401 10097 40116 56031 91800 22200 00057 333 91202
BBXX 44058 21181 99376 70763 46/// /2106 1//// 91810 333 91208
BBXX 44058 21181 99376 70763 46/// /2106 10135 40145 56027 91800 22200 00091 10301 70004 333 91207
BBXX 44062 21181 99386 70764 46/// /1904 1//// 91820 22200 00084 333 91205
BBXX 44062 21181 99386 70764 46/// /2005 1//// 40121 91810 22200 00084 333 91206
BBXX 44062 21181 99386 70764 46/// /2004 10109 40125 57022 91800 22200 00084 10301 70003 333 91205
BBXX 44063 21181 99390 70764 46/// /2208 1//// 91820 333 91210
BBXX 44063 21181 99390 70764 46/// /2207 1//// 40141 91810 333 91210
BBXX 44063 21181 99390 70764 46/// /2207 10106 40140 58023 91800 22200 00080 10201 70003 333 91209
BBXX 44041 21181 99372 70768 46/// /2305 1//// 91820 333 91206
BBXX 44041 21181 99372 70768 46/// /2305 1//// 40170 91810 333 91206
BBXX 44041 21181 99372 70768 46/// /2304 10150 40173 58025 91800 22200 00089 1//00 70001 333 91207
BBXX 44042 21181 99380 70763 46/// /2405 1//// 91820 333 91207
BBXX 44042 21181 99380 70763 46/// /2405 1//// 40142 91810 333 91206
BBXX 44042 21181 99380 70763 46/// /2405 10133 40142 56026 91800 22200 00088 10301 70005 333 91206
BBXX 44043 21181 99392 70764 46/// /2007 1//// 91820 333 91209
BBXX 44043 21181 99392 70764 46/// /2007 1//// 40113 91810 333 91208
BBXX 44043 21181 99392 70764 46/// /2007 10098 40114 58025 91800 22200 00073 10301 70005 333 91208
BBXX 46092 21181 99368 71220 46/// /1106 10085 40187 52009 91757 22200 00123 555 11067 22072
AAXX 21184 42921 32996 00000 10146 20106 40195 333 58007
AAXX 21184 43003 31995 00000 10220 20175 40136 70500 333 58010
AAXX 21184 43014 32996 00000 10160 20106 39492 40156 333 58008
AAXX 21184 43063 32996 00000 10150 20129 39512 40156 333 58006
AAXX 21184 43110 31996 00904 10220 20188 40135 70544 333 58010
AAXX 21184 43117 32996 00000 10190 20079 40146 333 58005
AAXX 21184 43192 32996 00904 10232 20214 40126 333 58009
AAXX 21184 42634 NIL
AAXX 21184 42647 NIL
AAXX 21184 42737 NIL
AAXX 21184 42840 NIL
AAXX 21184 42909 NIL
AAXX 21184 71624 11108 80604 10039 20039 39819 40030 57046 69941 74465 887// 333 10040 21033 70004 90931
AAXX 21184 62305 32960 02401 10128 20072 40198 52008 333 10172
AAXX 21184 62306 32960 02107 10117 20046 40201 52003 333 10193
AAXX 21184 62318 32560 50000 10146 20115 40195 52001 85800 333 10203
AAXX 21184 62337 NIL
AAXX 21184 62366 32960 00705 10162 20087 40197 52011 333 10192
AAXX 21184 62393 32960 63306 10138 20083 40200 53009 80002 333 10180
AAXX 21184 62405 32960 30000 10160 20084 40174 52017 80002 333 10242
AAXX 21184 62414 32960 03607 10191 20017 40175 52017 333 10266
AAXX 21184 62417 32960 00000 10091 20063 40202 52010 333 10188
AAXX 21184 62440 32960 00104 10164 20108 40193 52011 333 10200
AAXX 21184 62463 32960 33308 10174 20131 40180 52017 80002 333 10220
AAXX 21184 62465 32960 43305 10200 20156 40163 52005 80004 333 10230
AAXX 21184 62419 NIL
BBXX 46184 21181 99539 71389 46/// /1713 10070 40112 57052 22200 00065 10808 70042 333 91215
BBXX SHIP 21184 99408 11420 41297 62108 00/// 10000 ///// 40181 53000 70222 83363 9//// 22233 00169 2//// 3//// 4//// 5//// 6//// 8//// THNKS/B/REGARDS MASTER PACIFIC GLORY INM C - 443272110
BBXX UHFW 21180 99487 11408 42999 03606 11070 40199 56010 22272 06030
AAXX 21184 68171 NIL
AAXX 21184 68181 NIL
AAXX 21184 68297 NIL
AAXX 21184 68329 NIL
AAXX 21184 68342 NIL
AAXX 21184 71624 11108 80604 10039 20039 39819 40030 57046 69941 74465 887// 333 10040 21033 70004 90931
AAXX 21184 87129 32965 20510 10426 20132 39761 49978 57032 80001
AAXX 21181 24856 42998 02302 11463 21485 30183 40370 52005
AAXX 21181 30679 NIL
AAXX 21181 30686 42999 00000 11320 21344 39862 40281 52001
AAXX 21181 30961 42999 01601 11280 21327 39473 40348 57007
AAXX 21181 30971 42999 02601 11302 21355 39248 40347 58004
AAXX 21181 30978 42999 03505 11253 21328 39581 40331 54000
AAXX 21181 31513 41999 83401 11250 21255 39949 40195 53008 70272 80001
AAXX 21181 31624 NIL
AAXX 21181 31832 42967 83401 11156 21190 30090 40181 57007 8802/
AAXX 21181 47025 42560 83201 11022 21061 30148 40178 57011 885//
AAXX 21181 47041 42970 00203 11025 21124 30159 40187 52005
AAXX 21181 47069 11965 03406 11040 21098 30146 40250 52013 69901 70172
AAXX 21181 47031 42970 03204 11134 21154 38886 53002
AAXX 21181 47046 42969 02303 11019 21108 30152 40175 54000
AAXX 21181 31913 NIL
AAXX 21181 32128 41599 20903 11064 21087 30141 40194 58007 70181 82300 333 91005 91108
AAXX 21184 91723 NIL
AAXX 21184 91759 11598 30000 10248 20232 40089 53013 60001 70500 81101 333 81822 83078
AAXX 21184 91762 11598 21305 10274 20241 40087 53014 60001 70500 82101 333 82820
AAXX 21184 43086 32996 00000 10156 20123 39962 40146 333 58002
AAXX 21184 43128 31996 00000 10178 20111 39536 40156 70500 333 58004
AAXX 21184 43150 31996 00000 10228 20151 30071 40147 70500 333 59001
AAXX 21184 43185 31996 01404 10240 20200 30138 40142 70510 333 58009
AAXX 21184 43189 32996 00702 10240 20172 30137 40146 333 58001
AAXX 21184 43198 32996 20903 10164 20107 39305 40146 80001 333 58008 82075
AAXX 21184 43201 32996 00903 10182 20127 39409 40139 333 58006
AAXX 21184 43213 32996 29902 10216 20137 39822 40144 80002 333 58005
AAXX 21184 43226 32996 00902 10220 20171 30098 40128 333 58011
AAXX 21184 43233 32996 00903 10198 20134 39326 40144 333 58011
AAXX 21184 43237 32996 30902 10213 20170 39742 40140 80001 333 58003 83075
AAXX 21184 43245 32596 20502 10228 20197 30118 40145 82800 333 58012
AAXX 21184 43279 32596 30000 10238 20204 30124 40142 82530 333 58006 82620 83360
AAXX 21184 43284 32996 20203 10236 20199 30000 40116 80001 333 58011 82075
AAXX 21184 43295 32996 10902 10180 20143 39121 48520 80001 333 58008 81075
AAXX 21184 43311 32996 00000 10260 20215 40116 333 58010
AAXX 21184 43314 32596 60702 10260 20208 40118 81431 333 58011
AAXX 21184 43321 31895 30000 10224 20176 39687 40138 70510 82031 333 58005
AAXX 21184 43329 32596 53602 10230 20196 30118 40132 83531 333 58006
AAXX 21184 43344 31996 30208 10234 20203 30031 40132 70511 80001 333 58007 83075
AAXX 21184 43346 32596 33612 10260 20218 30110 40118 82501 333 58004 82620
AAXX 21184 43353 31496 50000 10272 20224 40112 70522 82571 333 56699 58007 82614 83459 85072
AAXX 21184 43369 32596 63604 10272 20212 40112 83430 333 58005 83620 84360
AAXX 21184 43371 32596 30000 10248 20189 30039 40112 81501 333 58015 81620 83075
AAXX 21184 89610 46/// /0422 11018 39662 4//// 5//// 333 90700 91127
BBXX C6SI3 21183 99472 71750 41798 81713 10050 20030 40060 56010 70322 88398 22213 0//// 20203 325// 4//// 5//// 6//// 80040 ICE /////
BBXX 46004 21181 99509 71361 46/// /1712 10074 40218 57030 22200 00074 11307 70033 333 91215
AAXX 21181 56671 32980 00000 10027 21001 38219 52007 333 00200 10179
AAXX 21181 57378 31940 83602 10055 20012 40328 54000 71000 8807/ 333 10093
AAXX 21181 57426 11750 80000 10068 20067 40296 57005 69941 72166 885// 333 00401 10079
AAXX 21181 57476 32960 80202 10067 20026 40322 57001 8807/ 333 10089
AAXX 21181 57584 31920 82501 10054 20031 40319 57006 71000 8807/ 333 10086
AAXX 21181 57598 11456 82001 10053 20044 40310 57001 69941 76066 8272/ 333 10083
AAXX 21181 57655 11950 83201 10054 20029 40322 57005 69931 76066 8802/ 333 10065
AAXX 21181 57713 NIL
AAXX 21181 57776 31/00 93205 11036 21040 40314 57004 74944 333 10024
AAXX 21181 58321 31930 03401 10022 21016 40335 52005 71000 333 10080
AAXX 21181 58437 11/00 93606 11053 21054 38189 57003 69941 77074 333 10025
AAXX 21181 58445 NIL
AAXX 21181 58556 11650 83605 10072 20036 40286 52005 69901 76066 885// 333 10100
AAXX 21181 58569 11465 83408 10083 20038 40268 52006 69901 70060 888// 333 10143
AAXX 21181 58646 31656 83604 10095 20043 40275 52007 70500 885// 333 10160
AAXX 21181 58653 NIL
AAXX 21181 58660 NIL
AAXX 21181 58715 31956 83204 10075 20030 40281 52004 71000 8807/ 333 10129
AAXX 21181 58730 32662 83601 10111 20056 40248 52002 885// 333 10189
AAXX 21181 58731 32962 80205 10101 20057 40250 52004 8807/ 333 10173
AAXX 21181 58754 32962 80203 10128 20068 40243 54000 8807/ 333 10188
AAXX 21181 58911 31958 03402 10079 20034 40247 52007 71000 333 10187
AAXX 21181 58931 31/00 90708 10038 20038 38375 57007 74700 333 10105
AAXX 21181 59254 31758 73601 10160 20064 40218 52003 70500 875// 333 10224
AAXX 21181 59632 31558 60202 10170 20059 40202 57002 70500 86800 333 10200
AAXX 21181 59855 32568 83401 10194 20159 40175 57013 888// 333 10218
BBXX 46004 21181 99509 71361 46/// /1712 10074 40218 57030 22200 00074 11307 70033 333 91215
AAXX 21180 44203 329// 00000 11295 21319 38471 40540 56006
AAXX 21180 44207 329// 22704 11199 21248 38368 40438 57004 82040
AAXX 21180 44212 32999 50000 11258 21282 39316 40598 57009 85070
AAXX 21180 44213 32999 40000 11262 21290 38947 40610 57008 84050
AAXX 21180 44215 32998 40000 11249 21274 38524 40558 57003 84040
AAXX 21180 44218 329// 00000 11267 21291 38732 40579 58010
AAXX 21180 44225 419// 80000 11174 21193 38361 40478 57015 77172 8802/
AAXX 21180 44230 329// 80103 11132 21176 38854 40416 57007 8802/
AAXX 21180 44232 329// 73303 11083 21150 39169 40344 57007 87010
AAXX 21180 44237 329// 82704 11100 21163 38550 40362 57011 8802/
AAXX 21180 44239 329// 73402 11162 21184 38853 40353 56002 87010 555 99602
AAXX 21180 44241 329// 50000 11168 21194 39330 40380 57011 85040
AAXX 21180 44256 32999 03205 11247 21286 39400 40350 56010
AAXX 21180 44265 329// 00000 11264 21288 38977 40556 55002
AAXX 21180 44272 329// 00000 11247 21256 38320 40543 57014
AAXX 21180 44275 32998 00000 11272 21283 37797 40572 57017
AAXX 21180 44282 32999 03206 11096 21196 38356 40379 57009
AAXX 21180 44284 32999 00202 11272 21301 37913 40625 57014
AAXX 21180 44285 32999 03504 11137 21206 38378 40409 57012
AAXX 21180 44287 32999 00506 11188 21240 38181 40496 57016
AAXX 21180 44294 329// 00201 11266 21313 38616 40503 57009
AAXX 21180 44298 329// 03605 11208 21214 38779 40422 58006
AAXX 21180 44302 329// 02706 11232 21267 39150 40377 58009
AAXX 21180 44305 32999 02904 11227 21264 39104 40376 58006
AAXX 21180 44313 32999 02707 11254 21309 39437 40372 54000
AAXX 21180 44314 32998 00000 11246 21285 39194 40400 57002
AAXX 21180 44317 32998 02702 11219 21244 38992 40398 54000
AAXX 21180 44336 329// 00000 11244 21276 38770 40512 56012
AAXX 21180 44341 329// 00000 11195 21226 38669 40457 58014
AAXX 21180 44347 32999 00000 11187 21228 38802 40450 58004
AAXX 21180 44352 32999 02703 11214 21239 38974 40387 58003
AAXX 21180 44358 329// 02705 11204 21223 39179 40437 58006
AAXX 21180 44214 32998 02706 11159 21228 38385 40515 57008
AAXX 21180 44231 329// 70000 11119 21202 38801 40432 57008 8707
AAXX 21180 44259 32997 02103 11259 21303 39371 40378 56008
AAXX 21180 44277 329// 02502 11230 21258 37875 40602 57014
AAXX 21180 44288 32999 02704 11132 21212 38217 40425 57011
AAXX 21180 44292 319// 50000 11230 21255 38763 40445 58004 70421 80006
AAXX 21180 44304 329// 22305 11237 21268 39048 40403 58004 82040
AAXX 21180 44354 329// 02909 11160 21202 39184 40381 58008
AAXX 21180 44373 32999 02702 11180 21229 38617 40451 56012
AAXX 21184 71010 17/// /2810 11032 21044 69941 7//4/ 333 11010 21055 70004
AAXX 21184 71011 16/// ///// 11046 21089 60001 333 10000 21052 70008
AAXX 21184 71673 16/// ///// 11045 21078 60001 333 11002 21045 70009
AAXX 21184 71690 16/// ///// 11082 21097 60001 333 11038 21097 70017
AAXX 21184 71761 16/// ///// 11032 21069 60001 333 11027 21055 70004
AAXX 21184 71788 17/// /3609 11031 21046 60011 7//4/ 333 10001 21039 70010
AAXX 21184 71792 16/// ///// 11037 21065 60001 333 11005 21063 70005
AAXX 21184 71137 16/// /0216 11062 21082 39251 40211 51049 60001 333 10003 21064 70003
AAXX 21184 71067 16/// ///// 11052 21086 60001 333 11003 21052 70009
AAXX 21184 71461 16/// /2808 11051 21082 60001 333 11041 21083 70000
AAXX 21184 71468 16/// /3510 10000 21014 39715 40036 51014 60001 333 21045 70004
AAXX 21184 71483 16/// ///// 11035 21070 60001 333 11008 21064 70011
AAXX 21184 71928 16/// /3106 11055 21115 39084 40275 51019 60001 333 11001 21082 70000
AAXX 21184 71500 16/// /2708 11035 21080 60001 333 11008 21056 70014
AAXX 21184 71504 17/// ///// 11054 21095 69941 7//4/ 333 11003 21065 70013
AAXX 21184 71511 16/// /3112 11077 21102 39556 40207 51024 60001 333 11007 21106 70000
AAXX 21184 71526 16/// /3208 11058 21098 60001 333 11003 21064 70004
AAXX 21184 71541 16/// /2309 11064 21085 60001 333 11025 21093 70000
AAXX 21184 71543 16/// /2805 11091 21100 60001 333 11043 21152 70012
AAXX 21184 71546 16/// /2712 11019 21085 60001 333 11018 21071 70000
AAXX 21184 71547 16/// /2511 11044 21098 60001 333 11031 21068 70000
AAXX 21184 71888 16/// ///// 11032 21042 60001 333 11029 21060 70005
AAXX 21184 71895 46/// ///// 11043 21083 6///1 333 11001 21053 7////
AAXX 21184 71321 16/// /0913 11121 21155 39822 49865 56014 60001 333 11117 21229 70000 555 10040
AAXX 21184 71221 16/// /0000 11105 21116 60001 333 11035 21111 70000
AAXX 21184 71226 16/// /2410 11025 21062 60001 333 11022 21062 70008
AAXX 21184 71229 46/// /2410 11049 21086 6///1 333 11029 21117 7//// 555 10010
AAXX 21184 71359 16/// /2908 11031 21046 60001 333 11031 21054 70000
AAXX 21184 71405 16/// ///// 11046 21068 60001 333 11016 21048 70023
AAXX 21184 71417 17/// /2611 11048 21078 30089 40124 56002 69961 7//4/ 333 11037 21082 70019
AAXX 21184 71426 46/// /2123 11008 6///1 333 11006 21096 7////
AAXX 21184 71283 16/// /2809 11064 21088 60001 333 11052 21109 70004
AAXX 21184 71868 16/// /3009 11063 21099 39713 40160 51025 60001 333 11022 21066 70000
AAXX 21184 71555 16/// /3411 11047 21115 38681 40280 51030 60001 333 11011 21075 70003
AAXX 21184 71928 16/// /3106 11055 21115 39084 40275 51019 60001 333 11001 21082 70000
AAXX 21184 71137 16/// /0216 11062 21082 39251 40211 51049 60001 333 10003 21064 70003
AAXX 21184 71868 16/// /3009 11063 21099 39713 40160 51025 60001 333 11022 21066 70000
AAXX 21184 71673 16/// ///// 11045 21078 60001 333 11002 21045 70009
AAXX 21184 71690 16/// ///// 11082 21097 60001 333 11038 21097 70017
AAXX 21184 71761 16/// ///// 11032 21069 60001 333 11027 21055 70004
AAXX 21184 71788 17/// /3609 11031 21046 60011 7//4/ 333 10001 21039 70010
AAXX 21184 71792 16/// ///// 11037 21065 60001 333 11005 21063 70005
AAXX 21184 71500 16/// /2708 11035 21080 60001 333 11008 21056 70014
AAXX 21184 71504 17/// ///// 11054 21095 69941 7//4/ 333 11003 21065 70013
AAXX 21184 71511 16/// /3112 11077 21102 39556 40207 51024 60001 333 11007 21106 70000
AAXX 21184 71526 16/// /3208 11058 21098 60001 333 11003 21064 70004
AAXX 21184 71541 16/// /2309 11064 21085 60001 333 11025 21093 70000
AAXX 21184 71543 16/// /2805 11091 21100 60001 333 11043 21152 70012
AAXX 21184 71546 16/// /2712 11019 21085 60001 333 11018 21071 70000
AAXX 21184 71547 16/// /2511 11044 21098 60001 333 11031 21068 70000
AAXX 21184 71461 16/// /2808 11051 21082 60001 333 11041 21083 70000
AAXX 21184 71468 16/// /3510 10000 21014 39715 40036 51014 60001 333 21045 70004
AAXX 21184 71483 16/// ///// 11035 21070 60001 333 11008 21064 70011
AAXX 21184 71283 16/// /2809 11064 21088 60001 333 11052 21109 70004
AAXX 21184 71010 17/// /2810 11032 21044 69941 7//4/ 333 11010 21055 70004
AAXX 21184 71011 16/// ///// 11046 21089 60001 333 10000 21052 70008
AAXX 21184 71555 16/// /3411 11047 21115 38681 40280 51030 60001 333 11011 21075 70003
AAXX 21184 71067 16/// ///// 11052 21086 60001 333 11003 21052 70009
AAXX 21184 71405 16/// ///// 11046 21068 60001 333 11016 21048 70023
AAXX 21184 71417 17/// /2611 11048 21078 30089 40124 56002 69961 7//4/ 333 11037 21082 70019
AAXX 21184 71426 46/// /2123 11008 6///1 333 11006 21096 7////
AAXX 21184 71321 16/// /0913 11121 21155 39822 49865 56014 60001 333 11117 21229 70000 555 10040
AAXX 21184 71221 16/// /0000 11105 21116 60001 333 11035 21111 70000
AAXX 21184 71226 16/// /2410 11025 21062 60001 333 11022 21062 70008
AAXX 21184 71229 46/// /2410 11049 21086 6///1 333 11029 21117 7//// 555 10010
AAXX 21184 71359 16/// /2908 11031 21046 60001 333 11031 21054 70000
AAXX 21184 71888 16/// ///// 11032 21042 60001 333 11029 21060 70005
AAXX 21184 71895 46/// ///// 11043 21083 6///1 333 11001 21053 7////
AAXX 21181 56144 32980 00000 11037 21184 36830 52007 333 05102 10123
AAXX 21181 56152 32980 03202 11133 21187 36277 54000 333 00001 10081
AAXX 21181 56167 32980 00000 11066 21119 37055 52007 333 05101 10161
AAXX 21181 56182 32780 82002 11040 21115 37210 57005 885// 333 00202 10029
AAXX 21181 56357 32980 00000 11087 21208 36446 52001 333 00000 10123
AAXX 21181 56586 32460 80201 10000 21014 38098 57004 885// 333 00400 10013
AAXX 21181 56748 32980 01401 10042 20019 38364 54000 333 00100 10193
AAXX 21181 56763 32980 01601 10110 20045 40123 52003 333 00102 10255
AAXX 21181 56768 32980 00000 10067 20044 38191 57001 333 00200 10175
AAXX 21181 56838 32968 00000 10109 20097 40165 54000 333 00000 10229
AAXX 21181 56886 32765 71802 10070 20059 38323 54000 874// 333 00302 10171
AAXX 21181 56946 32670 12001 10079 20071 40173 52002 81100 333 00001 10237
AAXX 21181 56959 32965 02501 10128 20128 40159 57001 333 00000 10254
AAXX 21181 56969 31456 70000 10119 20116 40175 57002 71000 876// 333 00000 10253
AAXX 21181 57731 11665 82202 10060 20019 40312 57001 69901 70060 885// 333 00551 10068
AAXX 21181 57766 32760 80402 10061 20014 40313 52001 885// 333 10110
AAXX 21181 57845 32960 83604 10059 20016 40292 57001 8807/ 333 10124
AAXX 21181 57853 31957 83602 10061 20002 40308 57001 70500 8807/ 333 10112
AAXX 21181 57916 32661 80000 10093 20076 40269 57002 885// 333 00451 10110
AAXX 21181 57922 32661 83404 10036 20012 40289 52002 885// 333 00451 10052
AAXX 21181 57932 32661 83601 10083 20019 40290 52004 885// 333 00500 10130
AAXX 21181 58338 31957 83403 10061 20043 40313 52008 71000 8807/ 333 10091
AAXX 21181 59007 11463 80402 10065 20045 40222 52002 69911 76060 885// 333 10173
AAXX 21181 59046 31956 73403 10118 20036 40247 52003 70500 8703/ 333 10182
AAXX 21181 59058 31957 03203 10124 20017 40240 52004 70500 333 10192
AAXX 21181 59072 31957 73403 10091 20024 40267 52008 70500 8704/ 333 10176
AAXX 21181 59087 32760 70906 10141 20041 40220 52002 875// 333 10216
AAXX 21181 59209 32561 82902 10120 20079 40216 52004 888// 333 10186
BBXX 46146 21181 99493 71237 46/// /0001 10049 40350 52028 22200 00069 10400 70002 333 91201
AAXX 21181 45032 36/// /1601 10146 20132 30175 40192 57001
AAXX 21181 45035 36/// /0504 10169 20101 30148 40190 54000
AAXX 21181 45039 36/// /0304 10176 20091 30174 40188 57001
AAXX 21181 45044 36/// /0405 10173 20138 30092 40187 54000
AAXX 21181 45032 36/// /1601 10146 20132 30175 40192 57001
AAXX 21181 45035 36/// /0504 10169 20101 30148 40190 54000
AAXX 21181 45039 36/// /0304 10176 20091 30174 40188 57001
AAXX 21181 45044 36/// /0405 10173 20138 30092 40187 54000
AAXX 21181 38656 32998 00906 11016 21057 30209 40324 58005 333 10034
BBXX 46146 21181 99493 71237 46/// /0001 10049 40350 52028 22200 00069 10400 70002 333 91201
AAXX 21180 44210 32999 60000 11208 21233 38639 56011 86010
AAXX 21180 44216 32999 43203 11296 21319 39181 40621 56005 80006
AAXX 21180 44217 32998 00000 11271 21288 37956 40651 58006
AAXX 21180 44219 329// 00000 11226 21310 38746 40602 57015
AAXX 21180 44221 419// 80000 11248 21266 38713 40559 57014 70272 8802/
AAXX 21180 44224 419// 80000 11224 21249 38143 40530 57012 77072 8802/
AAXX 21180 44229 32999 32301 11151 21185 37984 40420 57014 80004
AAXX 21180 44242 329// 70000 11221 21245 39388 40396 57008 87010
AAXX 21180 44243 329// 00501 11299 21332 39488 40436 58009
AAXX 21180 44254 329// 02704 11211 21252 39060 40335 58013
AAXX 21180 44257 329// 00000 11244 21275 38995 40391 58011
AAXX 21180 44263 32998 00000 11252 21291 38168 40624 54000
AAXX 21180 44266 329// 00000 11205 21245 37845 40502 57006
AAXX 21180 44286 329// 02704 11133 21191 38712 40402 57004
AAXX 21180 44291 329// 00000 11287 21318 38800 40512 56006
AAXX 21180 44325 329// 00504 11210 21243 38970 40498 53003
AAXX 21180 44329 32999 02703 11168 21210 37825 40455 58016
AAXX 21180 44338 32999 01402 11202 21235 38556 40473 57010
AAXX 21180 44348 329// 03207 11166 21185 38759 40401 57010
AAXX 21180 44374 32999 02303 11147 21224 38335 40468 58017
AAXX 21180 44385 32999 02703 11112 21196 39012 40398 57016
AAXX 21180 44386 329// 03201 11196 21229 39148 40439 58006
BBXX DDID2 21183 99200 50392 41498 60215 10260 20219 40112 58008 702// 832/8 22215 04250 20602 80231
BBXX A8UA9 21184 99163 70181 41/95 30413 10235 20175 40145 54000 71000 8///1 22243 20502 306// 40703 80195
BBXX A8ZS7 21184 99360 30002 41497 42220 10170 20119 40155 52020 70222 83670 22264 04140 20604 80140
BBXX DAJT 21184 99225 30539 41/98 /0910 10260 20239 40100 51010 75822 8/7// 22254 04260 80245
AAXX 21181 38944 329// 31302 11053 21071 39697 40263 52011 83030 333 11015
AAXX 21184 68715 36/// /2302 10192 20113 30001 40127 52012 333 10275 20192 91007 555 91013
BBXX 44258 21181 99445 70634 46/// /2110 10034 40204 57037 22200 00062 11002 70011 333 91212
AAXX 21184 60590 12975 00000 10130 20045 40250 55000 60002 333 10171
BBXX 44258 21181 99445 70634 46/// /2110 10034 40204 57037 22200 00062 11002 70011 333 91212
AAXX 21184 96001 NIL
AAXX 21184 96015 32456 60000 10266 20261 30071 40078 58003 85572 333 56000 85616
AAXX 21184 96033 31450 80000 10260 20241 30086 40091 52004 70522 83927 333 56000 57902 81917 83618 80980
AAXX 21184 96075 32450 80000 10259 20254 30076 40081 57001 8352/ 333 56009 83617 86460
AAXX 21184 96087 32460 70000 10257 20235 30046 40079 56015 83252 333 56000 57803 83815 86360 80860
AAXX 21184 96171 01420 80000 10244 20235 30054 40078 57018 60041 76162 86522 333 56000 69937 86610
AAXX 21184 96207 11410 80000 10211 20197 39234 40156 52015 60011 71462 84931 333 56000 57901 81914 83616 80930
AAXX 21184 96525 32457 72203 10255 20238 30065 40073 57016 83475 333 56000 83615 85460
AAXX 21184 96529 32450 40000 10243 20240 30066 40090 58013 82131 333 56000 82818
AAXX 21184 96559 01330 82704 10238 20233 30067 40105 52011 69921 71362 8692/ 333 56609 57962 57864 81913 84809 88462 80973 80849
AAXX 21184 96607 01458 60000 10254 20242 30061 40076 57017 60021 70162 84521 333 56000 60027 84614
AAXX 21184 96615 01440 82704 10260 20251 30070 40084 56015 60141 76161 85131 333 56300 57833 60137 85812 80856
AAXX 21184 96737 31450 70000 10256 20232 30044 40074 58009 70522 84521 333 56000 84616 83460
AAXX 21184 96739 01456 80000 10238 20223 30039 40088 57016 69901 76162 8552/ 333 56009 69907 85618
AAXX 21184 96741 NIL
AAXX 21184 96745 NIL
AAXX 21184 96751 01540 80000 10196 20185 39028 48920 57010 60021 76062 8552/ 333 56009 60017 85620
AAXX 21184 96791 11456 80000 10252 20242 30022 40097 69911 71562 8592/ 333 56009 57900 81917 84617 88460 809//
AAXX 21184 96797 32458 72207 10270 20238 30070 40075 58017 84971 333 56000 57902 81918 83620 80980
AAXX 21184 96837 NIL
AAXX 21184 96925 31464 72804 10276 20250 30062 40067 56015 71322 83272 333 56600 57860 83817 85080 80860
AAXX 21184 96933 32460 30000 10272 20245 30063 40067 57012 81571 333 56600 81617
AAXX 21184 96937 32558 43009 10275 20247 30062 40067 57009 81516 333 56000 81620
AAXX 21184 96973 32558 40000 10284 20236 30056 40062 57013 82231 333 56000 57803 82820 80850
AAXX 21184 96987 32560 32204 10264 20228 30004 40064 57019 82531 333 56000 82620
AAXX 21184 97008 NIL
AAXX 21184 97016 01457 80000 10260 20242 30053 40055 57018 60011 76062 8497/ 333 56009 57902 57801 60017 81918 83819 86459 80980 80860
AAXX 21184 97126 32458 80101 10254 20236 30010 40070 56018 8292/ 333 56009 57900 81916 88460 80980
AAXX 21184 97182 21466 73002 10274 20252 30054 40058 57015 69901 72162 8387/ 333 56009 57800 69907 83819 84459 808//
AAXX 21184 97240 NIL
AAXX 21184 97310 32556 60000 10267 20249 30025 40037 57026 83121 333 56000 57802 83820 85459 80850
AAXX 21184 97320 31458 81903 10278 20246 30027 40040 57025 71792 84928 333 56009 57901 57801 81918 83819 84460 80965 80858
AAXX 21184 97378 32560 70000 10274 20262 39878 40041 57022 84131 333 56000 84820 83360
AAXX 21184 97406 32460 60000 10240 20237 30031 40056 57013 84231 333 56000 57801 84818 80860
AAXX 21184 97570 NIL
AAXX 21184 97630 NIL
AAXX 21184 97700 32460 42203 10254 20239 30031 40046 57016 82232 333 56000 57804 82817 80850
AAXX 21184 97722 NIL
AAXX 21184 96009 32456 71203 10254 20236 30054 40089 52001 83922 333 56000 57903 81917 82617 84460 80965
AAXX 21184 96011 32560 70304 10256 20235 30061 40087 57001 83521 333 56000 83620
AAXX 21184 96035 32459 80000 10254 20234 30051 40089 57008 85976 333 56000 57901 81917 84618 80956
AAXX 21184 96073 01450 70000 10252 20244 30084 40095 51009 60031 70562 83972 333 56000 57901 69907 83915 80957
AAXX 21184 96091 32460 60000 10254 20245 30063 40086 57013 82441 333 56000 82613 84360
AAXX 21184 96109 NIL
AAXX 21184 96145 01440 83404 10258 20243 30078 40080 56005 60031 72162 8652/ 333 56809 60037 86616 88460
AAXX 21184 96147 NIL
AAXX 21184 96163 32558 60000 10243 20238 30076 40078 57015 83531 333 56000 83620
AAXX 21184 96179 32460 70000 10258 20236 30049 40086 57009 83238 333 56000 57802 83817 80850
AAXX 21184 96195 31450 70000 10260 20240 30055 40092 57006 70522 82531 333 56000 82615
AAXX 21184 96221 01430 82212 10236 20232 30078 40093 52001 60091 76262 8692/ 333 57993 60097 81920 80980 85813 88460
AAXX 21184 96237 01457 80000 10257 20246 30041 40083 56010 69901 70262 84278 333 56000 57803 69907 84816 85360 86280 80860
AAXX 21184 96249 11559 70303 10248 20239 30018 40079 57017 69931 70262 85232 333 56000 57801 85820 80863
AAXX 21184 96253 11458 60000 10250 20240 30051 40072 57003 60021 70262 83972 333 56000 57900 57800 81915 82820 85360
AAXX 21184 96295 32460 80000 10246 20240 39993 40096 56004 60011 70262 8552/ 333 56000 60017 85612 88462
AAXX 21184 96509 32457 20000 10262 20253 30058 40070 57020 82101 333 56000 82815
AAXX 21184 96581 01350 80000 10241 20240 30076 40083 57003 60301 76166 8617/ 333 56209 60307 86809 84360 88461 80858
AAXX 21184 96633 32458 72107 10257 20247 30051 40050 57017 83571 333 56000 83618 85461
AAXX 21184 96645 31440 70000 10253 20249 30037 40069 57017 71022 85572 333 56000 85612
AAXX 21184 96655 11450 70000 10248 20245 30056 40090 57022 69901 71562 85571 333 56000 85610
AAXX 21184 96685 31458 60000 10250 20247 30046 40070 57020 70522 83511 333 56000 83616
AAXX 21184 96749 01540 82004 10262 20232 30074 40088 58001 69911 76166 8252/ 333 56009 69917 82622 88459
AAXX 21184 96781 NIL
AAXX 21184 96805 32558 50000 10258 20248 30084 40094 56013 83211 333 56000 57801 83820 80860
AAXX 21184 96839 NIL
AAXX 21184 96935 NIL
AAXX 21184 97014 01456 70603 10246 20236 39972 40065 57022 60031 76162 84871 333 56000 57802 60037 83819 80860
AAXX 21184 97028 NIL
AAXX 21184 97048 32460 30000 10260 20233 30023 40047 57020 82231 333 56000 57803 82817 80860
AAXX 21184 97072 32558 60000 10250 20219 30983 40083 56010 82521 333 56000 82620 84460
AAXX 21184 97086 NIL
AAXX 21184 97096 31458 80000 10254 20239 30058 40079 57013 70292 8322/ 333 56009 57802 82816 88460 80860
AAXX 21184 97120 32459 70000 10258 20237 30029 40062 57016 82271 333 56000 57803 82818 85360 80860
AAXX 21184 97146 NIL
AAXX 21184 97180 32458 70602 10263 20251 30048 40066 56014 84232 333 56000 84819
AAXX 21184 97192 32430 60602 10272 20266 30026 40083 57018 83520 333 56600 83615
AAXX 21184 97230 32460 62002 10281 20256 30056 40063 52015 84832 333 56600 57861 82818 83615 80859
AAXX 21184 97260 NIL
AAXX 21184 97270 31450 50000 10270 20262 30051 40055 57017 70522 82171 333 56000 82815
AAXX 21184 97300 32560 70000 10268 20254 30011 40051 57028 83271 333 56000 57801 83820 80858
AAXX 21184 97340 32560 82105 10268 20265 30034 40049 57029 82232 333 56000 82820 87080
AAXX 21184 97372 01458 32405 10266 20253 39918 40038 57030 60021 72166 83101 333 56000 60027 83819
AAXX 21184 97430 32460 60000 10254 20242 30027 40056 57022 84232 333 56700 57872 84818 80860
AAXX 21184 97460 NIL
AAXX 21184 97502 31450 50000 10250 20244 30033 40037 56024 71311 84931 333 56000 57902 82912 84612 80956
AAXX 21184 97530 NIL
AAXX 21184 97560 NIL
AAXX 21184 97686 NIL
AAXX 21184 97690 32450 83007 10250 20235 39940 40042 57010 83862 333 56000 57800 83815 88080
AAXX 21184 97724 01457 73405 10266 20248 30026 40042 57019 60041 70562 84872 333 56700 57871 60047 83816 80850
AAXX 21184 97748 31459 63004 10278 20255 30056 40058 54000 71322 83932 333 56700 57972 81914 82815 84075 80940 80850
AAXX 21184 97760 NIL
AAXX 21184 97796 NIL
AAXX 21184 97810 NIL
AAXX 21184 97900 32460 82902 10254 20250 30996 40024 57021 8482/ 333 57861 83817 88460 80857
AAXX 21184 97980 NIL
BBXX 46232 21181 99325 71174 46/// ///// 1//// 91808 22200 00151 11402 21002 327// 41402 70012
BBXX 46247 21181 99378 71228 46/// ///// 1//// 91821 22200 00108 11305 20903 329// 41304 70023
BBXX 46246 21181 99500 71451 46/// ///// 1//// 91829 22200 00073 11310 20807 327// 41307 70049
BBXX 46246 21181 99500 71451 46/// ///// 1//// 91759 22200 00073 11509 20807 328// 41506 70046
AAXX 21181 98134 11458 70000 10210 20201 39947 80139 5//// 69921 71584 84270 333 56999 84818 87357
AAXX 21181 98223 32562 10000 10240 20235 40090 58005 81100 333 56999 81820
AAXX 21181 98232 31565 20000 10240 20220 40115 58008 70142 82200 333 56999 82820
AAXX 21181 98325 32458 20901 10254 20241 40093 58008 81201 333 56999 81816
AAXX 21181 98328 11460 60000 10180 20168 38505 40064 58020 69901 74084 86500 333 56999 84612 82813
AAXX 21181 98330 32470 40000 10258 20247 30066 40098 58012 84200 333 56999 84818
AAXX 21181 98336 32469 23601 10222 20220 30105 40110 58019 81201 333 56999 81815
AAXX 21181 98429 31560 80702 10243 20241 40090 57017 70544 83830 333 56999 83823 88360
AAXX 21181 98430 31558 30901 10231 20230 40088 57016 70544 82101 333 56999 82820
AAXX 21181 98431 31458 81101 10256 20237 30043 40090 58012 70322 8385/ 333 56999 83818 88359
AAXX 21181 98440 31465 20000 10246 20234 30085 40090 58021 70544 82200 333 56999 82815
AAXX 21181 98444 32465 40000 10248 20234 30069 40088 58012 82202 333 56999 82818 83070
AAXX 21181 98526 32570 83601 10256 20245 40085 58014 82207 333 56299 82820 88274
AAXX 21181 98531 31568 71001 10273 20246 30071 40075 58009 70544 82450 333 56399 82620 86358
AAXX 21181 98536 32465 40402 10247 20225 39885 40083 57015 82261 333 56199 82818
AAXX 21181 98543 32468 50000 10261 20246 30070 40081 58013 82201 333 56999 82818 84075
AAXX 21181 98550 32460 33201 10254 20241 40078 58017 82262 333 56999 82818
AAXX 21181 98618 32570 42701 10255 20238 40081 58008 82201 333 56999 82820 83075
AAXX 21181 98630 32575 30203 10270 20254 40124 58006 82201 222// 2//02 333 56199 82820
AAXX 21181 98637 NIL
AAXX 21181 98646 32560 43001 10255 20239 30070 40098 57013 82201 333 56999 82820 83080
AAXX 21181 98653 11465 71801 10255 20243 30025 40070 58005 60021 71584 82270 333 56999 82818 87358
AAXX 21181 98741 32470 60000 10256 20240 40076 57010 82208 333 56999 82817 86275
AAXX 21181 98747 31460 21201 10230 20213 39868 40071 58013 70544 82400 333 56999 82618
AAXX 21181 98753 31468 43601 10251 20233 40069 58021 70544 81202 333 56999 81816 84079
AAXX 21181 98755 32575 22701 10251 20236 40069 58024 81201 333 56999 81820
AAXX 21181 98836 31460 30000 10256 20234 40075 58002 70544 81201 333 56999 81818
BBXX 46036 21181 99484 71339 46/// /1710 10080 40287 57013 22200 00084 11205 70024 333 91212
BBXX 46036 21181 99484 71339 46/// /1710 10080 40287 57013 22200 00084 11205 70024 333 91212
BBXX KS098 21184 99438 71243 43/// /2121 10067 40300 22281 06000
BBXX KS007 21184 99267 70801 43/// ///// 10246 40163 22200
BBXX KS094 21184 99125 70614 43/// /0721 10273 40127 22200 06270
BBXX KS088 21184 99267 70801 43/// /0707 10246 40202 22200 06227
BBXX 46243 21181 99462 71241 46/// ///// 1//// 91829 22200 00079 11305 21003 326// 41304 70026
BBXX 46236 21181 99368 71219 46/// ///// 1//// 91820 22200 00124 11404 21002 328// 41403 70020
BBXX 46229 21181 99438 71246 46/// ///// 1//// 91821 22200 00098 11306 20903 330// 41305 70031
BBXX 46225 21181 99329 71174 46/// ///// 1//// 91814 22200 00146 11302 21001 327// 41301 70008
BBXX 46213 21181 99403 71247 46/// ///// 1//// 91824 22200 00101 11508 20906 329// 41505 70041
BBXX 46215 21181 99352 71209 46/// ///// 1//// 91808 22200 00141 11303 21002 327// 41303 70017
AAXX 21184 82106 32698 70904 10331 20245 3//// 4//// 84204 333 5////
AAXX 21184 82113 32596 60506 10334 20231 3//// 4//// 84268 333 5////
AAXX 21184 82212 31897 52706 10352 20251 30015 40096 70511 83298 333 59003
AAXX 21184 82336 32598 50902 10328 20245 3//// 4//// 83230 333 5////
AAXX 21184 82425 32597 40902 10318 20283 3//// 4//// 82350 333 5////
AAXX 21184 82533 32497 51402 10320 20235 3//// 4//// 85200 333 5////
AAXX 21184 82704 21695 80000 10259 20237 39868 40062 70362 885// 333 59012 60021
AAXX 21184 82723 31497 61410 10300 20249 30016 40098 71722 86900 333 59023
BBXX 63110 21183 99595 10015 41/96 /1736 10061 40052 762// 8//// 22200 10604 70020
BBXX 63106 21184 99610 10017 46/// /1628 10039 40053 57017 22200
BBXX 63105 21184 99610 10017 47495 ///// 10035 20017 40056 57013 761// 22200
BBXX 62103 21184 99499 70029 46/98 /3118 10119 20104 40232 52013 22200 00123 10703 70015 333 90710 91128
BBXX 62094 21184 99517 70067 46/// /2617 10116 20100 40244 52016 22200 00106 10503 70017
BBXX 63119 21184 99583 10009 41/97 81925 10078 20064 40054 58/// 751// 8//// 22200 2//// 319// 40504 5////
AAXX 21183 63671 32980 00000 10266 20209 333 10332
AAXX 21183 63723 32980 00000 10299 20205 40098 333 10354 58013
AAXX 21183 63793 32580 30908 10257 20216 40093 83500 333 10322 58010 83621
AAXX 21184 83117 31596 51901 10290 20250 40112 57008 7030/ 88232 222// 02220 20101 80260
AAXX 21184 82042 32197 60000 10331 20257 3//// 4//// 84632 333 5////
AAXX 21184 82240 32596 30000 10343 20234 3//// 4//// 82200 333 5////
AAXX 21184 82317 21594 60000 10280 20248 3//// 4//// 70298 81110 333 5//// 60191
AAXX 21184 82610 32695 60000 10314 20257 3//// 4//// 83340 333 5////
AAXX 21184 82807 21295 81802 10267 20245 3//// 4//// 70262 887// 333 5//// 60041
AAXX 21184 78318 11562 41205 10265 20187 30169 40173 57015 60001 70500 84200 333 10267 20207 30/// 56400 58003 84820 555 11802
AAXX 21184 78325 11/64 11406 10287 20171 30118 40176 58023 60001 70400 81200 333 10289 20195 30/// 56900 59003 818//
AAXX 21184 78333 11910 11402 10280 20162 30169 40176 58023 60001 70500 80002 333 10281 20175 30/// 56000 59003 81070
AAXX 21184 78348 11557 20603 10258 20178 30134 40186 58014 60001 70500 82200 333 10260 20186 30/// 56200 57834 59002 82820 555 10901
AAXX 21184 78349 11565 40904 10276 20170 30076 40185 58024 60001 70500 83230 333 10276 20175 30/// 56390 59002 83822 555 11202
AAXX 21184 78360 12570 30411 10295 20191 30153 40165 58020 60001 81802 333 10295 20197 30/// 56909 59004 70008 81820 92045
AAXX 21184 78369 11568 50808 10269 20208 30169 40178 57018 60001 70522 83202 333 10272 20237 30/// 56209 57863 59003 70002 83820 92045 555 10903
BBXX 42013 21181 99272 70829 46/// ///// 1//// 40194 91740 22200 00199
BBXX C6VG7 21184 99192 70813 41596 41509 10270 2//// 40140 54/// 7//// 83478 2225/ 00240 20301 3//// 4//// 5//// 6//// 8//// ICE /////
BBXX WRAH 21183 99326 70303 41698 61413 10220 2//// 40186 56020 70211 8543/ 22264 00211 20304 31115 40605 50704 6//// 8//// ICE /////
BBXX WDA2768 21184 99417 70874 43/// /2509 00/// 10060 20039 40077 50002 7//// 8//// 22200 0//// 2//// 3//// 4//// 5//// 6//// 80051 ICE /////
BBXX WC5932 21184 99455 70870 43/// /2912 00/// 10015 21039 40049 58013 7//// 8//// 22243 0//// 2//// 3//// 4//// 5//// 6//// 81005 ICE /////
BBXX V7MO2 21184 99262 70914 41397 41803 10250 20229 40148 57018 7//// 8474/ 22200 00236 20101 312// 40503 5//// 6//// 80235 ICE /////
BBXX WKAU 21184 99319 70805 41395 72314 10180 2018/ 40200 54000 70222 8767/ 22272 00170 20201 317// 40201 5//// 6//// 80180 ICE /////
BBXX WKPN 21184 99138 10515 41998 00718 10230 20133 40170 54000 70200 80000 22215 00277 20604 3//// 4//// 5//// 6//// 80170 ICE /////
BBXX WKAB 21184 99341 10247 41998 02520 10157 20110 40167 51012 70200 80000 22225 00186 20404 332// 40805 5//// 6//// 80130 ICE /////
BBXX 41010 21181 99289 70785 46/// /1706 10232 40212 91820 22200 00239 11303 20602 300// 41302 70016 333 91208 555 11067 22070
BBXX 41009 21181 99285 70802 46/// /1905 10235 20179 40205 91820 22200 00245 11103 20402 300// 41102 70016 333 91207 555 11057 22059
BBXX 42361 21181 99276 70925 46/// ///07 10217 20167 40142 58017 91830 555 11054 22057
BBXX 42362 21181 99278 70907 46/// /2306 10233 20211 40159 91830
BBXX 42363 21181 99282 70892 46/// /2507 10250 20200 40163 91830 333 91207
BBXX 42364 21181 99291 70881 46/// /2502 10228 20211 40159 91830
BBXX 44100 21181 99363 70756 46/// ///// 1//// 91822 22200 00120 11202 21001 306// 41201 70008
BBXX 41110 21181 99341 70777 46/// ///// 1//// 91821 22200 00139 10602 20602 310// 41201 70012
BBXX 42099 21181 99273 70842 46/// ///// 1//// 91827 22200 00231 10703 20703 70016
BBXX 41113 21181 99284 70805 46/// ///// 1//// 91821 22200 00216 10602 20602 308// 41301 70012
BBXX 41112 21181 99307 70813 46/// ///// 1//// 91821 22200 00159 10602 20602 308// 41301 70011
AAXX 21181 23426 32984 12002 11143 21156 30170 40195 57011 81070 333 11117
AAXX 21181 23625 32998 30000 11127 21140 30176 40212 57016 83030 333 11065
AAXX 21181 28076 11997 82302 11060 21079 30226 40300 57013 69980 70272 8807/ 333 11063
AAXX 21181 28367 32984 02002 11097 21182 30244 40380 57008 333 11045
AAXX 21181 28382 32998 42601 11110 21154 30284 40359 57007 80001 333 11070
AAXX 21181 28481 32998 82203 11078 21119 30279 40384 58013 8802/ 333 11069
AAXX 21181 28491 32997 82303 11078 21139 30264 40380 57008 8807/ 333 11072
AAXX 21181 28573 32997 22404 11084 21160 30302 40412 57008 82030 333 11086
AAXX 21181 28593 32997 62103 11111 21155 30295 40400 57010 86030 333 11102
AAXX 21181 28786 31997 02805 11140 21191 30291 40462 57007 73631 333 11098
AAXX 21181 28797 32997 82604 11138 21181 30289 40460 57004 80007 333 11102
AAXX 21181 28799 32997 62502 11138 21173 30295 40452 57008 86070 333 11105
AAXX 21181 20046 NIL
AAXX 21181 20069 NIL
AAXX 21181 20087 41898 71408 11228 21260 30199 40210 57002 73631 8707/
AAXX 21181 20292 NIL
AAXX 21181 20353 46/// /0103 11072 21096 30077 40081 57002
AAXX 21181 20667 32998 82104 11024 21033 30107 40114 52001 8805/
AAXX 21181 20674 41996 51911 11189 21208 30098 40161 57003 73873 85030 333 91116
AAXX 21181 20744 32998 21205 11046 21070 30062 40080 52001 82031 333 11008
AAXX 21181 20891 42998 20504 11352 21387 30223 40271 57004 82030 333 91105
AAXX 21181 23022 31397 72107 11043 21055 30061 40123 58002 70283 88500 333 11019 91113
AAXX 21181 23032 11495 82208 11050 21060 30113 40144 54000 69900 78683 889// 333 11037 88912
AAXX 21181 23058 12498 80000 11091 21106 30173 40178 54000 69930 885// 333 11139 88616
AAXX 21181 23242 31996 72305 11163 21182 30174 40191 53001 70232 87030 333 11054 96110
AAXX 21181 23256 11498 82505 11091 21102 30154 40191 52005 60020 77172 885// 333 11086 88611
AAXX 21181 23330 12797 82002 11131 21144 30176 40198 57002 69900 8553/ 333 11114
AAXX 21181 23445 32997 02002 11188 21207 30198 40225 57002 333 11126
AAXX 21181 23552 12997 01801 11193 21212 30204 40242 57003 69920 333 11084
AAXX 21181 23631 32998 82002 11125 21138 30184 40227 57009 80001 333 11109
AAXX 21181 23662 11498 82404 11125 21145 30207 40253 52003 69950 70272 885// 333 11091 88619
AAXX 21181 23724 32998 82201 11097 21118 30166 40233 57014 8802/ 333 11090
AAXX 21181 23734 32998 80000 11155 21168 30154 40251 57015 80008 333 11125
AAXX 21181 23849 42996 62302 11134 21150 40285 57013 80001
AAXX 21181 23867 11496 82202 11142 21162 30230 40302 58007 69930 77172 8372/ 333 11098
AAXX 21181 23933 31396 82202 11071 21080 30216 40274 57017 77172 8672/ 333 11098 86707
AAXX 21181 28064 11598 81701 11040 21117 30198 40291 57016 69900 70272 885// 333 11038
AAXX 21181 28275 32997 31902 11080 21174 30285 40348 57007 83030 333 11038
AAXX 21181 28493 32697 82102 11088 21132 30277 40375 57017 885// 333 11094
AAXX 21181 28698 32997 82303 11123 21175 30266 40432 57009 85031 333 11098
BBXX WKPN 21184 99138 10515 41998 00718 10230 20133 40170 54000 70200 80000 22215 00277 20604 3//// 4//// 5//// 6//// 80170 ICE /////
BBXX DAJT 21184 99225 30539 41/98 /0910 10260 20239 40100 51010 75822 8/7// 22254 04260 80245
BBXX A8UA9 21184 99163 70181 41/95 30413 10235 20175 40145 54000 71000 8///1 22243 20502 306// 40703 80195
BBXX A8ZS7 21184 99360 30002 41497 42220 10170 20119 40155 52020 70222 83670 22264 04140 20604 80140
BBXX DPUW 21184 99148 10418 41598 31320 10270 20213 40150 54000 70100 8314/ 22235 00280 20604 314// 40603 5//// 80230
BBXX 9LD2206 21183 99168 70254 41597 13104 10235 20173 40152 56020 70200 81100 22261 04248 20101 80194
BBXX A8AX3 21183 99156 70182 41896 30517 10190 40145 57010 73222 8302/ 22244 20702
BBXX C6W2032 21184 99025 10049 41398 61911 10290 2023/ 40100 54000 70222 86212 22283 00270 20702 318// 40702 50501 6//// 80250 ICE ///// .....
BBXX SHIP 21183 99307 11275 41/95 83222 10140 2009/ 40205 57005 70222 88/// 22244 00210 2//// 3//// 4//// 5//// 6//// 80110 ICE /////
BBXX A8HD5 21181 99061 10939 41/98 /0312 10288 20233 40100 54000 70022 8/877 22223 04300 20602 304// 40803 5//// 80250
BBXX 46229 21181 99438 71246 46/// ///// 1//// 91821 22200 00098 11306 20903 330// 41305 70031
BBXX 46225 21181 99329 71174 46/// ///// 1//// 91814 22200 00146 11302 21001 327// 41301 70008
BBXX 46213 21181 99403 71247 46/// ///// 1//// 91824 22200 00101 11508 20906 329// 41505 70041
BBXX 46215 21181 99352 71209 46/// ///// 1//// 91808 22200 00141 11303 21002 327// 41303 70017
BBXX 46243 21181 99462 71241 46/// ///// 1//// 91829 22200 00079 11305 21003 326// 41304 70026
BBXX 46236 21181 99368 71219 46/// ///// 1//// 91820 22200 00124 11404 21002 328// 41403 70020
BBXX KS094 21184 99125 70614 43/// /0721 10273 40127 22200 06270
BBXX KS098 21184 99438 71243 43/// /2121 10067 40300 22281 06000
BBXX KS088 21184 99267 70801 43/// /0707 10246 40202 22200 06227
BBXX KS007 21184 99267 70801 43/// ///// 10246 40163 22200
BBXX 46036 21181 99484 71339 46/// /1710 10080 40287 57013 22200 00084 11205 70024 333 91212
BBXX 46246 21181 99500 71451 46/// ///// 1//// 91759 22200 00073 11509 20807 328// 41506 70046
BBXX 46246 21181 99500 71451 46/// ///// 1//// 91829 22200 00073 11310 20807 327// 41307 70049
BBXX 46232 21181 99325 71174 46/// ///// 1//// 91808 22200 00151 11402 21002 327// 41402 70012
BBXX 46247 21181 99378 71228 46/// ///// 1//// 91821 22200 00108 11305 20903 329// 41304 70023
BBXX V7MO2 21184 99262 70914 41397 41803 10250 20229 40148 57018 7//// 8474/ 22200 00236 20101 312// 40503 5//// 6//// 80235 ICE /////
BBXX WKAU 21184 99319 70805 41395 72314 10180 2018/ 40200 54000 70222 8767/ 22272 00170 20201 317// 40201 5//// 6//// 80180 ICE /////
BBXX 44258 21181 99445 70634 46/// /2110 10034 40204 57037 22200 00062 11002 70011 333 91212
BBXX 46146 21181 99493 71237 46/// /0001 10049 40350 52028 22200 00069 10400 70002 333 91201
BBXX 46004 21181 99509 71361 46/// /1712 10074 40218 57030 22200 00074 11307 70033 333 91215
BBXX 46184 21181 99539 71389 46/// /1713 10070 40112 57052 22200 00065 10808 70042 333 91215
BBXX 44058 21181 99376 70763 46/// /2106 10135 40145 56027 91800 22200 00091 10301 70004 333 91207
BBXX 44057 21181 99395 70761 46/// /1401 10097 40116 56031 91800 22200 00057 333 91202
BBXX 44058 21181 99376 70763 46/// /2106 1//// 91810 333 91208
BBXX 44057 21181 99395 70761 46/// /2001 1//// 40115 91810 333 91202
BBXX 44043 21181 99392 70764 46/// /2007 10098 40114 58025 91800 22200 00073 10301 70005 333 91208
BBXX 44057 21181 99395 70761 46/// /2202 1//// 91820 333 91203
BBXX 44059 21181 99368 70763 46/// /2106 10167 40156 56025 91800 22200 00108 333 91208
BBXX 44042 21181 99380 70763 46/// /2405 1//// 91820 333 91207
BBXX 44059 21181 99368 70763 46/// /2106 1//// 40153 91810 333 91208
BBXX 44059 21181 99368 70763 46/// /2106 1//// 91820 333 91208
BBXX 44042 21181 99380 70763 46/// /2405 10133 40142 56026 91800 22200 00088 10301 70005 333 91206
BBXX 44062 21181 99386 70764 46/// /1904 1//// 91820 22200 00084 333 91205
BBXX 44043 21181 99392 70764 46/// /2007 1//// 40113 91810 333 91208
BBXX 44063 21181 99390 70764 46/// /2207 1//// 40141 91810 333 91210
BBXX 44062 21181 99386 70764 46/// /2004 10109 40125 57022 91800 22200 00084 10301 70003 333 91205
BBXX 44043 21181 99392 70764 46/// /2007 1//// 91820 333 91209
BBXX 44063 21181 99390 70764 46/// /2207 10106 40140 58023 91800 22200 00080 10201 70003 333 91209
BBXX 44062 21181 99386 70764 46/// /2005 1//// 40121 91810 22200 00084 333 91206
BBXX 44042 21181 99380 70763 46/// /2405 1//// 40142 91810 333 91206
BBXX 46092 21181 99368 71220 46/// /1106 10085 40187 52009 91757 22200 00123 555 11067 22072
BBXX 44041 21181 99372 70768 46/// /2305 1//// 40170 91810 333 91206
BBXX 44063 21181 99390 70764 46/// /2208 1//// 91820 333 91210
BBXX 44041 21181 99372 70768 46/// /2305 1//// 91820 333 91206
BBXX MINFR00 2118/ 99192 70749 46/// ///// 10258 40169 57030
BBXX DDID2 21183 99200 50392 41498 60215 10260 20219 40112 58008 702// 832/8 22215 04250 20602 80231
BBXX 62141 21183 99493 50591 41697 63137 10115 20089 49971 58002 70311 86266 22200 20605 331// 40702 5//// 80102
BBXX ZDLP 21183 99540 50381 41/94 90411 10037 20037 40000 57010 74144 8/7// 22283 04023 20000 300// 40000 5//// 80037
BBXX LAVN4 21184 99317 50469 41898 81714 10280 2019/ 40108 54000 70200 8001/ 22213 00210 20402 304// 400// 80220 NNNN
BBXX TBWUK17 21183 99211 30745 41297 81215 10240 20225 40207 52022 70022 87778 22263 04269 20504 31011 40403 50405 80230
BBXX VROB 21184 99378 31449 46/// /1004 10152 20114 30134 40160 57006 22200 04201 85130
BBXX VREN5 21183 99349 31742 41297 51116 10185 20142 40252 56/// 70322 8/762 22272 20503 80160
BBXX VNAH 21184 99322 31157 46/// /1714 10196 20161 30101 40124 57015 22200 85174
BBXX 44041 21181 99372 70768 46/// /2304 10150 40173 58025 91800 22200 00089 1//00 70001 333 91207
BBXX MYSU5 21183 99472 70358 41298 82637 10085 20020 40048 53017 70222 887// 22223 00120 20812 32923 41008 50804 80058
BBXX PBHZ 21183 99334 70642 41597 82706 10208 20176 40262 56018 75800 884// 22213 04260 299// 322// 40803 80187
BBXX ZCDG4 21184 99161 70730 41598 52243 10262 20218 40127 58031 70211 83878 22233 00290 20504 307// 41010 5////
BBXX DIHE 21184 99453 70494 41597 32833 10060 21012 40175 55005 70322 83241 22224 00030 20610 80030
BBXX A8IY4 21181 99313 70464 41598 43407 10200 20149 40215 58010 7//00 8/100 22274 04230 29902 327// 40805 80170
BBXX 46132 21181 99497 71279 46/// /3306 10069 40325 5//// 22200 00088 11406 70031 333 91207
BBXX 46181 21181 99538 71288 46/// /0702 10016 40323 57011 22200 00046 10300 70000 333 91202
BBXX 46205 21181 99542 71343 46/// /1713 10073 40220 57042 22200 00077 11206 70030 333 91217
BBXX 46206 21181 99488 71260 46/// /1404 10073 40334 52026 22200 00085 11205 70027 333 91206
BBXX 46185 21181 99524 71298 46/// /1508 10057 40304 57014 22200 00074 11302 70011 333 91209
BBXX 46087 21181 99485 71247 46/// /0806 10061 20030 40334 91820 22200 00076 333 91208 555 11064 22067 31724 40809 61819 080061 077061 077062 080061 080061 080064
BBXX 46114 21181 99364 71222 46/// ///// 1//// 91804 22200 00121 11406 21003 330// 41405 70030
BBXX 51205 21181 99210 71564 46/// ///// 1//// 91818 22200 00240 10905 20905 332// 41302 70026
BBXX 41036 21181 99342 70770 46/// ///// 10213 20156 40188 91820 22200 00186
BBXX 42362 21181 99278 70907 46/// /2307 10233 20211 40166 58003 91800
BBXX 44034 21181 99441 70681 46/30 /2011 10081 40147 58035 91804 22200 00084 10606 70028 333 91213 555 11135 22144
BBXX 44060 21181 99413 70721 46/// ///05 10110 40135 91815 22200 00104 333 91206 555 11057 22062
BBXX 44030 21181 99432 70704 46/// /1807 1//// 40128 58048 91804 22200 00084 10603 70017 333 91209 555 11091 22097
BBXX 44039 21181 99411 70727 46/// /2007 10119 20108 40137 91815 22200 00092 10201 70003 333 91208
BBXX 42362 21181 99278 70907 46/// /2306 10233 20211 40159 91815
BBXX 42364 21181 99291 70881 46/// /2502 10233 20211 40159 91815
BBXX 44040 21181 99410 70736 46/// /1904 10111 20111 40126 91815 22200 1//00 70001 333 91205 555 11046 22057
BBXX 44029 21181 99425 70706 46/30 /1507 10090 40124 58048 91804 22200 00088 10502 70011 333 91209 555 11090 22097
BBXX 44098 21181 99428 70702 46/// ///// 1//// 91807 22200 00087 10603 20603 310// 41201 70016
BBXX 44022 21181 99409 70737 46/// ///03 10108 20098 40120 91815 22200 00081 333 91203 555 11031 22036
BBXX 44033 21181 99441 70690 46/30 /2403 10045 40142 58034 91804 22200 00068 10603 70014 333 91204 555 11036 22037
BBXX WC5932 21184 99455 70870 43/// /2912 00/// 10015 21039 40049 58013 7//// 8//// 22243 0//// 2//// 3//// 4//// 5//// 6//// 81005 ICE /////
BBXX WDA2768 21184 99417 70874 43/// /2509 00/// 10060 20039 40077 50002 7//// 8//// 22200 0//// 2//// 3//// 4//// 5//// 6//// 80051 ICE /////
BBXX ZSAF 21184 99696 50066 41599 63507 11017 21056 49773 51013 70320 82531 22262 05013 20000 30000 40000 50000 ICE 36730
BBXX ZDLS1 21183 99640 30020 41397 82126 11022 21044 49758 51006 70222 888// 22253 05019 20101 30000 82028 ICE 66113
BBXX DDJS2 21183 99107 70888 41597 20412 10275 20239 40153 58033 70300 8/104 222// 00251 20201 308// 40302 5//// 80250
BBXX A8CJ2 21184 99080 70795 41698 60213 10250 20236 40090 54000 70322 84444 22284 04260 20401 323// 41003 5//// 80240
BBXX WKAB 21184 99341 10247 41998 02520 10157 20110 40167 51012 70200 80000 22225 00186 20404 332// 40805 5//// 6//// 80130 ICE /////
BBXX WCZ5535 21184 99334 70344 41598 41808 10220 2019/ 40150 54000 7//00 842// 22223 0//// 2//// 3//// 4//// 5//// 6//// 80200 ICE /////
BBXX WRAH 21183 99326 70303 41698 61413 10220 2//// 40186 56020 70211 8543/ 22264 00211 20304 31115 40605 50704 6//// 8//// ICE /////
BBXX KABL 21184 99369 10124 41598 33328 10140 2006/ 40135 56020 70299 8339/ 22234 00184 20202 333// 40504 5//// 6//// 80100 ICE /////
BBXX MINUK05 2118/ 99599 70033 46/// ///// 10100 49981 52023
AAXX 21184 48372 31958 20000 10198 20192 30070 40129 57008 71000 80001 333 59003
BBXX 46238 21181 99334 71195 46/// ///// 1//// 91820 22200 00144 11304 21002 328// 41303 70018
BBXX 46239 21181 99363 71221 46/// ///// 1//// 91821 22200 00136 11507 21003 330// 41506 70034
BBXX 44039 21181 99411 70727 46/// /2007 10119 20108 40137 91753 22200 00092 10201 70003 333 91208
BBXX 44099 21181 99369 70757 46/// ///// 1//// 91822 22200 00114 11102 21001 308// 41101 70008
AAXX 21184 62309 32560 42902 10128 20079 40191 52007 84500 333 10202
AAXX 21184 62325 32560 30000 10164 20140 40192 57005 83500 333 10207
AAXX 21184 62332 32960 00108 10170 20140 40196 52013 333 10178
AAXX 21184 62387 32960 70000 10132 20104 40195 52005 8702/ 333 10184
AAXX 21184 62459 32960 00000 10179 20122 40174 52018 86010 333 10212
AAXX 21184 62452 32560 50107 10136 20104 40204 52011 85500 333 10176
AAXX 21184 62357 32560 20104 10160 20120 52009 82500 333 10210
AAXX 21184 62403 32960 02605 10158 20090 40184 52014 333 10220
AAXX 21184 62423 32960 01202 10136 20038 40210 52009 333 10201
AAXX 21184 62458 32960 03503 10173 20103 40168 52008 333 10198
AAXX 21184 62455 32960 03306 10161 20099 40182 52015 333 10194
AAXX 21184 62420 32960 00000 10138 20075 40194 52011 333 10222
AAXX 21184 62432 32960 32502 10142 20055 40196 52010 80002 333 10206
AAXX 21184 62435 32960 03303 10150 20059 40192 52014 333 10222
AAXX 21184 62476 32960 00206 10230 20189 40149 53016 333 10258
AAXX 21184 62458 32960 03503 10173 20103 40168 52008 333 10198
AAXX 21184 62455 32960 03306 10161 20099 40182 52015 333 10194
AAXX 21184 62420 32960 00000 10138 20075 40194 52011 333 10222
AAXX 21184 62432 32960 32502 10142 20055 40196 52010 80002 333 10206
AAXX 21184 62435 32960 03303 10150 20059 40192 52014 333 10222
AAXX 21184 62476 32960 00206 10230 20189 40149 53016 333 10258
AAXX 21184 62309 32560 42902 10128 20079 40191 52007 84500 333 10202
AAXX 21184 62325 32560 30000 10164 20140 40192 57005 83500 333 10207
AAXX 21184 62332 32960 00108 10170 20140 40196 52013 333 10178
AAXX 21184 62387 32960 70000 10132 20104 40195 52005 8702/ 333 10184
AAXX 21184 62459 32960 00000 10179 20122 40174 52018 86010 333 10212
AAXX 21184 62452 32560 50107 10136 20104 40204 52011 85500 333 10176
BBXX 44060 21181 99413 70721 46/// ///07 10114 40130 91830 22200 00103 333 91208 555 11072 22082
BBXX 44022 21181 99409 70737 46/// ///03 10108 20098 40118 91830 22200 00081 333 91204 555 11036 22046
BBXX 44040 21181 99410 70736 46/// /1904 10111 20111 40125 91819 22200 1//00 70001 333 91206 555 11051 22062
BBXX 46219 21181 99332 71199 46/// ///// 1//// 91828 22200 00140 11305 21003 329// 41304 70024
BBXX 46224 21181 99332 71175 46/// ///// 1//// 91806 22200 00147 11301 21001 324// 41301 70007
BBXX 46214 21181 99379 71235 46/// ///// 1//// 91823 22200 00117 11307 20904 330// 41305 70034
BBXX 51204 21181 99213 71581 46/// ///// 1//// 91822 22200 00247 11203 21002 330// 41201 70013
BBXX PHOB 21184 99047 10880 41/97 80620 10255 20220 40080 58005 70211 8//// 22223 00275 20504 307// 40403 5//// 80230
BBXX A8CG7 21180 99079 31218 41497 52705 10290 20270 40040 56020 70322 83770 22225 04275 20402 30000 40000 50000 80275
AAXX 21184 63729 12480 10000 10194 20173 38865 48/// 60252 81900 333 0//29 10255 55300 59003 81615 81917
AAXX 21184 63733 32580 10000 10206 20193 38857 48496 81900 333 10270 59004 81921
AAXX 21184 91723 NIL
AAXX 21184 91964 NIL
AAXX 21181 80001 01470 70805 10268 20248 30112 40113 60081 72061 85236 333 56200 57811 59007 60087 85814
AAXX 21181 80002 32470 50605 10284 20241 82270 333 5629/ 57861 82817 83358
AAXX 21181 80009 31560 20000 10308 20227 30076 40081 70500 81801 333 56090 59012 81820
AAXX 21181 80022 31468 40107 10304 20248 30079 40081 70510 81101 333 561/9 59010 81815 83070
AAXX 21181 80028 31560 33305 10300 20234 30063 40098 70500 83100 333 561// 59002 83820
AAXX 21181 80035 11565 51006 10308 20228 30108 40113 69901 70552 82106 333 5629/ 59004 82820 83070
AAXX 21181 80036 31568 10706 10317 20198 70500 81800 333 560// 81820
AAXX 21181 80063 31566 50000 10324 20237 70511 333 560// 85620
AAXX 21181 80084 31470 72102 10291 20226 70522 8487/ 333 5619/ 84817 85358
AAXX 21181 80091 31465 30000 10306 20237 70500 83100 333 569// 83815
AAXX 21181 80094 31468 63004 10240 20198 38789 70522 84870 333 5679/ 59006 84810 83357
AAXX 21181 80097 32570 41805 10331 20184 39734 40078 83841 333 56999 59014 83823
AAXX 21181 80099 31466 40803 10314 20234 39920 40064 70522 84201 333 56299 57892 59007 84810
AAXX 21181 80110 31670 32103 10278 20130 38480 70500 83100 333 560// 58007 83835
AAXX 21181 80112 31570 31405 10212 20122 37890 70521 83100 333 569// 58004 83823
AAXX 21181 80139 32570 10105 10332 20216 81100 333 561// 81823
AAXX 21181 80144 31458 70000 10282 20238 70522 87200 333 560// 87818
AAXX 21181 80210 31463 52302 10259 20185 38642 70522 84831 333 56550 59007 84815
AAXX 21181 80211 31570 60000 10262 20176 70522 84230 333 5631/ 84827 83360
AAXX 21181 80214 31460 61401 10268 20217 39103 70522 84870 333 5650/ 59002 84817 84359
AAXX 21181 80222 31568 61207 10174 20083 37508 70522 86805 333 569/9 58002 86823
AAXX 21181 80234 32562 71202 10294 20200 39611 40100 81571 333 56239 58004 81623 87359
AAXX 21181 80252 NIL
AAXX 21181 80259 31560 51902 10282 20192 39025 70520 83830 333 5629/ 59007 83823
AAXX 21181 80315 32565 30000 10316 20214 39574 40064 81150 333 5655/ 59005 81830
AAXX 21181 80342 32568 61405 10234 20147 38198 86800 333 563// 59003 86823
AAXX 21181 80370 01458 81206 10120 20098 69931 72052 888// 333 563// 69917 88816
AAXX 21181 80372 NIL
AAXX 21181 80398 32470 72302 10292 20260 30003 40098 85870 333 5613/ 59019 85817 86458
OOXX AAEMI 21184 99785 31731 57083 00521 46/// /1608 11067 21101 39762 49827 52019 91800
BBXX 44137 21181 99423 70620 46/// /2006 10060 40240 57026 22200 00097 11004 70021 333 91208
BBXX 44137 21181 99423 70620 46/// /2006 10060 40240 57026 22200 00097 11004 70021 333 91208
OOXX AAMIZ 21184 99707 30443 58304 22602 46/// /0913 11140 2//// 37370 49566 52015 91800
OOXX AAERI 21184 99849 51288 60048 09901 46/// /0108 11060 21079 38864 49986 52017 91800
OOXX AALAU 21184 99775 31708 57070 00371 46/// /3008 11042 21067 39741 49787 52008 91800
AAXX 21181 31152 42997 01801 11396 21429 39863 40332 52001
AAXX 21181 31163 NIL
AAXX 21181 31285 42999 80000 11254 21285 30123 40209 58010 85016
AAXX 21181 31561 42998 70202 11230 21243 30190 40221 52004 80005
AAXX 21181 31683 42999 00000 11309 21319 30159 40243 58003
AAXX 21181 32010 42998 01301 11290 21313 30174 40229 53005 333 91002 91103
AAXX 21184 71490 16/// /3216 11314 21343 39835 40180 51008 60001 333 11308 21348 70000
AAXX 21184 71923 16/// ///13 11316 21345 39692 40165 51017 60001 333 11281 21320 70000
AAXX 21184 71592 16/// /3503 11267 21294 39988 40002 56003 60001 333 11182 21270 70000
AAXX 21184 71963 16/// /2606 11320 21351 39762 40193 53012 60001 333 11295 21333 70000
AAXX 21184 71277 46/// /2510 11041 21061 6///1 333 11030 21071 7////
AAXX 21184 71049 16/// /0120 11273 39989 40014 53014 60001 333 11263 21337 7////
AAXX 21184 89016 46/89 /3003 11035 29066 39338 4//// 5////
AAXX 21184 89003 46/89 /2203 11049 29068 38958 4//// 5////
AAXX 21184 89507 46/89 /1211 11195 29072 36736 4//// 5////
AAXX 21184 63688 32480 1090710121 20084 48/// 81900 333 10237 59006 81918
AAXX 21184 63695 32980 20000 10158 20143 82030 333 10250 82358
AAXX 21184 63708 32580 33304 10224 20194 48486 81930 333 10298 59008 81923 83359
AAXX 21184 63772 12580 1//03 10274 20252 60092 81933 333 10325 81923
AAXX 21184 63820 32580 10510 10278 20238 40113 81906 333 10340 58005 81822 81923
AAXX 21184 63612 NIL
AAXX 21184 63661 NIL
AAXX 21184 63671 NIL
AAXX 21184 63714 NIL
AAXX 21184 63723 NIL
AAXX 21184 63740 NIL
AAXX 21184 63793 NIL
BBXX 44138 21181 99443 70536 46/// /2910 10032 40228 52011 22200 00094 11109 70046 333 91213
AAXX 21184 71923 16/// ///13 11316 21345 39692 40165 51017 60001 333 11281 21320 70000
AAXX 21184 71490 16/// /3216 11314 21343 39835 40180 51008 60001 333 11308 21348 70000
AAXX 21184 71049 16/// /0120 11273 39989 40014 53014 60001 333 11263 21337 7////
AAXX 21184 71963 16/// /2606 11320 21351 39762 40193 53012 60001 333 11295 21333 70000
AAXX 21184 71592 16/// /3503 11267 21294 39988 40002 56003 60001 333 11182 21270 70000
AAXX 21184 71277 46/// /2510 11041 21061 6///1 333 11030 21071 7////
BBXX 44138 21181 99443 70536 46/// /2910 10032 40228 52011 22200 00094 11109 70046 333 91213
AAXX 2118/ 89866 46/// ///// 11023 39676 4//// 5////
AAXX 2118/ 89332 46/// ///// 11034 39312 4//// 5//// 91810
AAXX 2118/ 89828 46/// ///// 11326 36470 4//// 5////
AAXX 2118/ 89314 46/// ///// 11080 38294 4//// 5//// 91810
BBXX 46004 21181 99509 71361 46/// /1712 10074 40218 57030 22200 00074 11307 70033 333 91215
BBXX 46036 21181 99484 71339 46/// /1710 10080 40287 57013 22200 00084 11205 70024 333 91212
BBXX 46145 21181 99544 71324 46/// /1607 10052 40263 57023 22200 00071 11104 70019 333 91209
BBXX 46181 21181 99538 71288 46/// /0702 10016 40323 57011 22200 00046 10300 70000 333 91202
BBXX 46183 21181 99536 71311 46/// /1710 10071 40279 57016 22200 00078 10402 70011 333 91211
BBXX 46185 21181 99524 71298 46/// /1508 10057 40304 57014 22200 00074 11302 70011 333 91209
BBXX 46204 21181 99514 71288 46/// /0806 10059 40317 57008 22200 00080 11405 70025 333 91208
BBXX 46205 21181 99542 71343 46/// /1713 10073 40220 57042 22200 00077 11206 70030 333 91217
BBXX 46206 21181 99488 71260 46/// /1404 10073 40334 52026 22200 00085 11205 70027 333 91206
BBXX KS098 21184 99438 71243 43/// /2121 10067 40300 22281 06000
BBXX WDJK 21184 99410 71260 41997 10233 10118 20084 40256 52005 70500 80001 22273 00100 20505 301// 40809 5//// 6//// 80100 ICE /////
AAXX 21184 85201 31458 70910 10098 20040 36294 57011 79522 86963 333 56777 58003 83817 83920 85357
AAXX 21181 27199 11598 81803 11072 21093 30024 40229 58003 69940 73673 8352/ 333 11070
AAXX 21181 24652 42996 00601 11455 21476 30212 40359 52008 71000
AAXX 21181 01144 41386 82009 10029 20014 70362 8572/ 333 10033 91115
AAXX 21184 89610 46/// /0422 11018 39662 4//// 5//// 333 90700 91127
AAXX 21184 89807 46/// /1516 11011 29088 39777 4//// 5//// 333 90700 91121
AAXX 21184 94997 46/// ///// 10032 39976 49991 5////
AAXX 21184 94290 46/// /1521 10268 30040 40049 55008 91824
AAXX 21184 89574 42598 60812 10008 21071 49829 52021 82530
AAXX 21184 94210 35/// /2407 10288 30027 40032 57001
AAXX 21184 94289 46/// /1417 10275 30036 40043 56007 91815
AAXX 21184 94379 46/// /1326 10258 30056 40065 55009 91826
AAXX 21184 83437 21598 72702 10247 20217 39377 40088 72922 8236/ 333 59008 60031
AAXX 21184 83579 32599 70913 10260 20165 38995 40091 87700 333 59007
AAXX 21184 83592 32597 60903 10298 20212 39424 40093 84242 333 59031
AAXX 21184 83766 32597 52302 10342 20216 39454 40089 5//// 83230
AAXX 21184 83836 32497 62705 10322 20119 39122 40070 56019 83970
AAXX 21184 83881 32597 43204 10380 20111 39790 40061 58020 82304
AAXX 21184 83980 31996 11406 10342 20151 39803 40073 57018 70510 80001
AAXX 21184 83997 32997 23204 10320 20142 30060 40102 58021 80002
AAXX 21184 89610 46/// /0422 11018 39662 4//// 5//// 333 90700 91127
AAXX 21184 89807 46/// /1516 11011 29088 39777 4//// 5//// 333 90700 91121
AAXX 21184 94997 46/// ///// 10032 39976 49991 5////
AAXX 21184 94290 46/// /1521 10268 30040 40049 55008 91824
AAXX 21184 60656 12965 00000 10181 20038 40251 55002 60002 333 10202
BBXX 7JJA 21184 99359 11413 41798 43315 00 10100 20060 40140 57045 70211 83/// 9//// 22200 0 2//01 3 4 5 6//// 80080 ICE /////
AAXX 21181 55279 32980 02508 11027 21339 35699 52001 333 00202 10026
AAXX 21181 55472 32980 00202 11089 21341 35741 52003 333 00252 10036
AAXX 21181 55696 32980 03401 11076 21095 36355 52005 333 00051 10123
AAXX 21181 56079 32980 00702 11121 21153 36674 54000 333 00256 11013
AAXX 21181 56106 32980 00000 11101 21278 36201 52007 333 00200 10084
AAXX 21181 56257 32980 01101 11017 21201 36261 57002 333 00001 10109
AAXX 21181 56374 11580 80403 11046 21077 37456 57003 69901 78588 884// 333 00352 11012
AAXX 21181 56385 11/00 93202 11084 21088 37034 57005 60021 77074 333 00351 11073
AAXX 21181 56954 31959 00000 10094 20094 40173 52001 71000 333 00100 10245
AAXX 21181 56966 32965 01106 10177 20101 40157 52008 333 00101 10272
AAXX 21181 57237 11965 83202 10057 21021 40311 54000 69901 76060 8807/ 333 10078
AAXX 21181 57306 11959 80000 10070 20058 40297 57007 69901 71060 8807/ 333 10129
AAXX 21181 57604 11715 81401 10076 20070 40294 57006 69901 76060 885// 333 10086
AAXX 21181 57707 11460 80000 10017 20008 38560 57004 69901 76060 887// 333 00451 10042
AAXX 21181 57832 11658 80402 10029 20011 39550 40315 57001 69901 76060 885// 333 00551 10047
AAXX 21181 55228 32980 02504 11088 21385 36008 57003 333 00300 11010
AAXX 21181 55578 32980 00000 11100 21189 36377 52005 333 00158 10101
AAXX 21181 55664 32980 00000 11105 21277 36017 54000 333 00000 10076
AAXX 21181 55773 32970 00000 11122 21200 36023 57001 333 00052 10058
AAXX 21181 56116 32980 00000 11067 21161 36326 52004 333 00100 10075
AAXX 21181 56137 32980 00000 11050 21211 36774 52005 333 00101 10157
AAXX 21181 56172 32980 00000 11043 21082 37334 52010 333 00200 10108
AAXX 21181 56247 32980 00000 10013 21140 37410 52008 333 05101 10151
AAXX 21181 56312 32680 70000 10020 21063 37098 57001 874// 333 00001 10123
AAXX 21181 56462 32980 02902 11032 21065 37141 52003 333 00100 10126
AAXX 21181 56651 32980 00902 10020 21073 37636 52003 333 00152 10183
AAXX 21181 56691 11361 83601 11023 21031 37811 57004 69921 76666 887// 333 00452 11006 93428
AAXX 21181 56985 32565 11101 10105 20070 38732 40174 52001 81100 333 00201 10204
AAXX 21181 57633 11460 80000 10039 20009 39520 40329 57002 69901 70060 885// 333 00551 10045
AAXX 21181 57902 11450 80401 10035 20035 38690 40280 57004 69931 76066 887// 333 00451 10050
AAXX 21181 35426 329// 21103 11155 21210 30130 40447 58012 80001 333 11125
AAXX 21184 65001 31940 70000 10260 20144 3//// 4//// 70522 80008 333 10355 5//// 87280
AAXX 21184 65010 32960 70000 10265 20052 39769 40109 80008 333 10335 58003 87280
AAXX 21184 65046 32960 60607 10240 20065 39586 40128 80008 333 10302 58002 86280
AAXX 21184 65101 32956 73604 10292 20130 3//// 40084 70522 80008 333 10340 58001 87280
AAXX 21184 65112 31956 71104 10290 20147 3//// 4//// 70522 80008 333 10350 5//// 87280
AAXX 21184 65125 31960 61906 10294 20099 30715 40118 70522 80008 333 10351 59005 86280
AAXX 21184 65134 11962 51012 10208 20029 38716 60002 70522 80008 333 10292 59002 85280
AAXX 21184 65145 32970 70502 10297 20194 3//// 4//// 80008 333 10350 87280
AAXX 21184 65167 12956 70000 10290 20124 30897 40104 60001 80008 333 10360 59016 87280
AAXX 21184 65201 31958 61904 10286 20252 30065 40118 70522 80008 333 10334 59001 86280 91106
AAXX 21184 65205 31550 70000 10285 20260 3//// 40099 70522 80008 333 10315 58002 87280
AAXX 21184 65213 12460 71809 10300 20211 3//// 4//// 60001 84528 333 10344 5//// 84615 85460 87280
AAXX 21184 65215 12466 70000 10283 20203 3//// 4//// 69991 82538 333 10336 5//// 82612 83360 86280
AAXX 21184 65229 12957 72204 10295 20234 30013 40102 60002 80008 333 10332 59001 87280
AAXX 21184 65257 31950 31950 71505 10305 20208 30000 40075 70522 333 10344 59004 87280
AAXX 21184 65271 11959 70000 10299 20152 30994 40092 60001 70522 80008 333 10347 59006 87280
AAXX 2118/ 48969 NIL
AAXX 2118/ 48962 NIL
AAXX 2118/ 48990 NIL
AAXX 2118/ 48986 NIL
AAXX 2118/ 48995 NIL
AAXX 2118/ 48967 NIL
AAXX 2118/ 48992 NIL
AAXX 2118/ 48965 NIL
AAXX 2118/ 48985 NIL
AAXX 2118/ 48970 NIL
AAXX 2118/ 48991 NIL
AAXX 2118/ 48964 NIL
AAXX 2118/ 48997 NIL
AAXX 2118/ 48968 NIL
AAXX 2118/ 48973 NIL
AAXX 2118/ 48966 NIL
AAXX 2118/ 48983 NIL
AAXX 2118/ 48972 NIL
AAXX 2118/ 48998 NIL
AAXX 2118/ 48993 NIL
AAXX 2118/ 48971 NIL
AAXX 2118/ 48963 NIL
AAXX 2118/ 48987 NIL
AAXX 21184 68718 36/// /1004 10212 20099 39863 40105 52020 333 10313 20212 91010 555 91011
AAXX 21181 78458-32566 61203 10250 20222 40181 57017 83220 333 10266 20200 30/// 56200 58007 83820 84457
AAXX 21181 78460-31460 60205 10252 20224 40169 57021 70544 85530 333 10265 20180 31/// 59120 58006 85618 83357
AAXX 21181 78467-32466 40904 10272 20218 40161 57017 84200 333 10278 20190 31/// 56100 59004 84818
AAXX 21181 78479- 32566 40506 10276 20179 40143 57016 82201 333 10286 20225 30/// 56200 58003 82825
AAXX 21181 78482-32566 71304 10298 20200 40170 8026 83270 333 10300 20176 30/// 56400 59001 83825 86280
AAXX 21181 78485- 32566 40606 10281 20154 40168 57029 83201 333 10310 20185 30/// 56100 59007 83825
AAXX 21181 78486-32566 53603 10280 20195 40142 57024 85500 333 31/// 56200 58001 85622 94065 94322 94428 555 29061 78488-32566 60205 10282 20203 40160 57020 83230 333 10290 20175 30/// 56100 58002 83825 84358
AAXX 21184 89528 46/// /0227 4//// 5////
AAXX 21184 89628 46/// /3108 4//// 5////
AAXX 21184 63801 32580 40000 10228 20210 39200 48525 81931 333 10287 59002 81820 81921
AAXX 21181 78458-32566 61203 10250 20222 40181 57017 83220 333 10266 20200 30/// 56200 58007 83820 84457
AAXX 21181 78460-31460 60205 10252 20224 40169 57021 70544 85530 333 10265 20180 31/// 59120 58006 85618 83357
AAXX 21181 78467-32466 40904 10272 20218 40161 57017 84200 333 10278 20190 31/// 56100 59004 84818
AAXX 21181 78479- 32566 40506 10276 20179 40143 57016 82201 333 10286 20225 30/// 56200 58003 82825
AAXX 21181 78482-32566 71304 10298 20200 40170 8026 83270 333 10300 20176 30/// 56400 59001 83825 86280
AAXX 21181 78485- 32566 40606 10281 20154 40168 57029 83201 333 10310 20185 30/// 56100 59007 83825
AAXX 21181 78486-32566 53603 10280 20195 40142 57024 85500 333 31/// 56200 58001 85622 94065 94322 94428 555 29061 78488-32566 60205 10282 20203 40160 57020 83230 333 10290 20175 30/// 56100 58002 83825 84358
AAXX 21181 78458-32566 61203 10250 20222 40181 57017 83220 333 10266 20200 30/// 56200 58007 83820 84457
AAXX 21181 78460-31460 60205 10252 20224 40169 57021 70544 85530 333 10265 20180 31/// 59120 58006 85618 83357
AAXX 21181 78467-32466 40904 10272 20218 40161 57017 84200 333 10278 20190 31/// 56100 59004 84818
AAXX 21181 78479- 32566 40506 10276 20179 40143 57016 82201 333 10286 20225 30/// 56200 58003 82825
AAXX 21181 78482-32566 71304 10298 20200 40170 8026 83270 333 10300 20176 30/// 56400 59001 83825 86280
AAXX 21181 78485- 32566 40606 10281 20154 40168 57029 83201 333 10310 20185 30/// 56100 59007 83825
AAXX 21181 78486-32566 53603 10280 20195 40142 57024 85500 333 31/// 56200 58001 85622 94065 94322 94428 555 29061 78488-32566 60205 10282 20203 40160 57020 83230 333 10290 20175 30/// 56100 58002 83825 84358
AAXX 21184 60101 32460 22301 10102 20069 40288 53003 82500 333 10165 82616
AAXX 21184 71406 16/// /2516 11053 21095 30105 40115 53001 60001 333 11046 21067 70007
AAXX 21184 71418 46/// /2427 11002 21053 30135 40168 56016 6///1 333 11002 21037 7////
AAXX 21184 71354 16/// /2809 11044 21065 60001 333 21051 7////
AAXX 21184 71981 17/// /0108 11029 21100 69941 7//4/ 333 11018 21087 70004
AAXX 21184 71982 16/// /2905 11034 21103 60001 333 11010 21088 70000
AAXX 21184 71986 17/// /3009 11054 21069 69951 7//4/ 333 11001 21062 70011
AAXX 21184 71990 16/// /2416 11087 21131 38477 40094 58014 60001 333 21158 7////
AAXX 21184 71048 16/// /3112 11040 21066 60001 333 10005 21065 70000
AAXX 21184 71048 16/// /3112 11040 21066 60001 333 10005 21065 70000
AAXX 21184 71354 16/// /2809 11044 21065 60001 333 21051 7////
AAXX 21184 71981 17/// /0108 11029 21100 69941 7//4/ 333 11018 21087 70004
AAXX 21184 71982 16/// /2905 11034 21103 60001 333 11010 21088 70000
AAXX 21184 71986 17/// /3009 11054 21069 69951 7//4/ 333 11001 21062 70011
AAXX 21184 71990 16/// /2416 11087 21131 38477 40094 58014 60001 333 21158 7////
AAXX 21184 71406 16/// /2516 11053 21095 30105 40115 53001 60001 333 11046 21067 70007
AAXX 21184 71418 46/// /2427 11002 21053 30135 40168 56016 6///1 333 11002 21037 7////
AAXX 21184 42874 32996 00000 10144 20051 40160 333 58002
AAXX 21184 43041 32996 00000 10128 20082 39530 40171 333 58002
AAXX 21184 42309 31995 10000 10120 20105 40142 70500 81030 333 58000
AAXX 21184 42314 31595 30000 10130 20107 40168 70500 82530 333 58015 82620 83360
AAXX 21184 42410 31994 00000 10130 20130 40157 71000 333 58003
AAXX 21184 42415 31995 10000 10130 20115 40177 70100 81030 333 58005 81360
AAXX 21184 42623 31495 30000 10078 20061 39272 40180 70500 83600 333 58009 83710
AAXX 21184 87497 32965 83608 10354 20152 30012 40038 57040 85076 333 56055 85360 83270
BBXX A8CS2 21183 99289 10329 41396 53119 10190 20174 40175 52005 70211 8/142 22273 2//// 3//// 4//// 5//// 80180
AAXX 21181 98134 11458 70000 10210 20201 39947 40139 5//// 69921 71584 84270 333 56999 84818 87357
AAXX 21184 89657 46/// /1508 11043 20002 49733 52013
AAXX 21184 89332 46/// /0808 11035 39312 49924 52006 91750
AAXX 21184 89828 46/// /1704 11326 36441 4//// 52002 91800
AAXX 21184 83599 31697 399// 10320 20297 30943 40039 56012 75100 834// 222// 20501 80310
AAXX 21184 83925 32195 72509 10243 20270 40094 54000 7442/ 876// 222// 20401 80250
AAXX 21184 83970 41898 11302 10260 20203 30108 40112 57004 7000/ 81080 222// 02235 20000 80220
AAXX 21184 83811 32497 32702 10340 20106 39202 40072 58022 83100
AAXX 21184 83844 32597 309// 10303 20206 30068 40075 56010 81260
AAXX 21184 83887 21597 72306 10250 20129 39071 40103 56012 72921 87900 333 69951
AAXX 21184 83907 32497 12704 10394 20144 39805 4//// 57023 81200
AAXX 21184 83914 31596 52308 10342 20107 39338 40078 57012 70510 83303
AAXX 21184 83919 31496 32308 10294 20073 38969 40134 57008 70510 82140
AAXX 21184 83927 32997 03602 10384 20177 39960 40029 57017
AAXX 21184 83936 32997 21807 10362 20118 39966 40083 57015 80001
AAXX 21184 83948 31496 81808 10246 20227 30095 40101 51001 71011 888//
AAXX 21184 83964 31996 21402 10320 20155 39619 40093 54000 70500 82020
AAXX 21184 83995 32497 10908 10267 20212 30111 40114 58010 81100
AAXX 21184 83384 32597 70000 10272 20218 39535 40108 85580 333 59005
AAXX 21184 83386 32398 81803 10281 20217 39558 40081 8499/ 333 59004
AAXX 21184 83388 32497 82303 10310 20194 39406 40059 8521/ 333 59016
AAXX 21184 83393 32599 61406 10278 20167 39383 40092 82336 333 59015
AAXX 21184 83442 32597 80502 10306 20214 39730 40069 888// 333 59012
AAXX 21184 83479 32598 63606 10279 20203 39304 40093 86300 333 59019
AAXX 21184 83483 32598 42703 10307 20220 39518 40072 83302 333 59032
AAXX 21184 83531 32597 52302 10292 20192 39064 40075 85200 333 59020
AAXX 21184 83574 21794 73602 10308 20224 39552 40146 5//// 76266 88700 333 60141
AAXX 21184 83582 32597 80502 10264 20216 39346 40109 57004 88600
AAXX 21184 83595 32597 63602 10340 20200 30023 40106 83254 333 59037
AAXX 21184 83692 32699 51806 10262 20176 39078 40096 58010 85200
BBXX 41052 21181 99183 70648 46/// /0609 10266 40154 91830 333 91211
BBXX 41052 21181 99183 70648 46/// /0709 10266 40156 91820 333 91211
BBXX 41052 21181 99183 70648 46/// /0609 10266 40155 91810 333 91211
BBXX 44024 21181 99423 70659 46/30 /1709 10069 40200 58030 91804 22200 00081 11104 70019 333 91210 555 11109 22116
BBXX 42360 21181 99267 70905 46/// /1905 10242 91800 22200 00250 10903 70015 333 91207
BBXX V7HP4 21184 99184 70826 41897 21419 10270 20213 40130 56020 7//// 82181 22233 04290 2//// 3//// 4//// 5//// 6//// 80230 ICE /////
BBXX 9V7645 21183 99265 70765 419// 31413 10260 20202 40190 50010 70350 832// 22234 04260 20502 311// 4//// 5//// 6//// 80220 ICE /////
BBXX A8CS2 21183 99289 10329 41396 53119 10190 20174 40175 52005 70211 8/142 22273 2//// 3//// 4//// 5//// 80180
BBXX DCCN2 21184 99185 10397 41897 11616 10280 20239 40180 5/010 7//22 80005 22235 00280 20203 301// 40103 5//// 80250
BBXX 7JJA 21184 99359 11413 41798 43315 00 10100 20060 40140 57045 70211 83/// 9//// 22200 0 2//01 3 4 5 6//// 80080 ICE /////
BBXX 63119 21184 99583 10009 41/97 81925 10078 20064 40054 58/// 751// 8//// 22200 2//// 319// 40504 5////
BBXX 62094 21184 99517 70067 46/// /2617 10116 20100 40244 52016 22200 00106 10503 70017
BBXX V7HP4 21184 99184 70826 41897 21419 10270 20213 40130 56020 7//// 82181 22233 04290 2//// 3//// 4//// 5//// 6//// 80230 ICE /////
BBXX 9V7645 21183 99265 70765 419// 31413 10260 20202 40190 50010 70350 832// 22234 04260 20502 311// 4//// 5//// 6//// 80220 ICE /////
BBXX 44138 21181 99443 70536 46/// /2910 10032 40228 52011 22200 00094 11109 70046 333 91213
BBXX KGTX 21184 99587 71518 41598 51909 10090 2005/ 40040 52010 70122 858// 22244 00056 2//// 3//// 4//// 5//// 6//// 80070 ICE /////
BBXX 44137 21181 99423 70620 46/// /2006 10060 40240 57026 22200 00097 11004 70021 333 91208
BBXX A8OH4 21183 99098 70784 41598 40225 10275 20211 40070 58030 70211 83145 22223 04300 20706 304// 40808 80230
BBXX 46224 21181 99332 71175 46/// ///// 1//// 91806 22200 00147 11301 21001 324// 41301 70007
BBXX 46214 21181 99379 71235 46/// ///// 1//// 91823 22200 00117 11307 20904 330// 41305 70034
BBXX 46219 21181 99332 71199 46/// ///// 1//// 91828 22200 00140 11305 21003 329// 41304 70024
BBXX 44022 21181 99409 70737 46/// ///03 10108 20098 40118 91830 22200 00081 333 91204 555 11036 22046
BBXX 44040 21181 99410 70736 46/// /1904 10111 20111 40125 91819 22200 1//00 70001 333 91206 555 11051 22062
BBXX 44060 21181 99413 70721 46/// ///07 10114 40130 91830 22200 00103 333 91208 555 11072 22082
BBXX 44039 21181 99411 70727 46/// /2007 10119 20108 40137 91753 22200 00092 10201 70003 333 91208
BBXX 46239 21181 99363 71221 46/// ///// 1//// 91821 22200 00136 11507 21003 330// 41506 70034
BBXX 44099 21181 99369 70757 46/// ///// 1//// 91822 22200 00114 11102 21001 308// 41101 70008
BBXX 46238 21181 99334 71195 46/// ///// 1//// 91820 22200 00144 11304 21002 328// 41303 70018
BBXX MINFR00 2118/ 99192 70749 46/// ///// 10258 40169 57030
BBXX C6VG7 21184 99192 70813 41596 41509 10270 2//// 40140 54/// 7//// 83478 2225/ 00240 20301 3//// 4//// 5//// 6//// 8//// ICE /////
BBXX 41112 21181 99307 70813 46/// ///// 1//// 91821 22200 00159 10602 20602 308// 41301 70011
BBXX 41110 21181 99341 70777 46/// ///// 1//// 91821 22200 00139 10602 20602 310// 41201 70012
BBXX 42362 21181 99278 70907 46/// /2306 10233 20211 40159 91830
BBXX 44100 21181 99363 70756 46/// ///// 1//// 91822 22200 00120 11202 21001 306// 41201 70008
BBXX 42363 21181 99282 70892 46/// /2507 10250 20200 40163 91830 333 91207
BBXX 41009 21181 99285 70802 46/// /1905 10235 20179 40205 91820 22200 00245 11103 20402 300// 41102 70016 333 91207 555 11057 22059
BBXX 41113 21181 99284 70805 46/// ///// 1//// 91821 22200 00216 10602 20602 308// 41301 70012
BBXX 42361 21181 99276 70925 46/// ///07 10217 20167 40142 58017 91830 555 11054 22057
BBXX 41010 21181 99289 70785 46/// /1706 10232 40212 91820 22200 00239 11303 20602 300// 41302 70016 333 91208 555 11067 22070
BBXX 42364 21181 99291 70881 46/// /2502 10228 20211 40159 91830
BBXX 42099 21181 99273 70842 46/// ///// 1//// 91827 22200 00231 10703 20703 70016
BBXX 42013 21181 99272 70829 46/// ///// 1//// 40194 91740 22200 00199
BBXX A8CG7 21180 99079 31218 41497 52705 10290 20270 40040 56020 70322 83770 22225 04275 20402 30000 40000 50000 80275
BBXX PHOB 21184 99047 10880 41/97 80620 10255 20220 40080 58005 70211 8//// 22223 00275 20504 307// 40403 5//// 80230
BBXX A8CS2 21183 99289 10329 41396 53119 10190 20174 40175 52005 70211 8/142 22273 2//// 3//// 4//// 5//// 80180
BBXX A8CK2 21184 99054 30842 41/98 /2219 10271 40069 54000 700// 8//// 22253 29902 323// 41006 5////
BBXX BATFR19 21184 99066 30057 46/// /1914 10234 20189 40128 52008 22200 00252
BBXX BATFR55 21184 99082 30424 44598 73413 10269 20247 40118 70322 86232 22262 00294 20802 32121 410// 510//
BBXX 3FMV6 21183 99136 30098 41498 82016 10210 20178 40108 52010 70222 86778 22244 06216 20601 80190
BBXX PCSV 21183 99185 30585 41498 11817 10255 20220 40145 52008 70022 8111/ 22253 04271 21003 318// 41003 80230 90619
BBXX BATFR56 21184 99192 30584 46/// /1024 10257 20207 40150 51019 22213 00284
BBXX A8KH9 21184 99276 30152 41898 21722 10165 20123 40120 54000 7//// 81180 22243 20405 31899 40608 5//// 80140
BBXX TBWUK18 21184 99325 30011 41297 81211 10180 20180 40169 54000 70222 887// 22222 20601 321// 41404 5//// 80180
BBXX DBBT 21181 99347 30169 46/// /2710 10193 20143 40111 52003 22212 00203
BBXX ONDY 21184 99350 30251 41799 42412 10220 2017/ 40130 52010 70300 8418/ 22212 00250 2//// 3//// 4//// 5//// 6//// 80190 ICE /////
BBXX BATFR08 21184 99388 30777 46/// /2723 10154 20117 40213 53001 22282 00159
BBXX MINUK05 2118/ 99599 70033 46/// ///// 10100 49981 52023
BBXX 64045 21184 99591 70117 46/// /2430 10112 20096 49974 53006 22200 00100 10811 70053 333 90710 91139
BBXX BATFR04 21184 99584 70062 46/// /2429 10114 20097 40032 53001 22200 00102
BBXX 62112 21184 99584 70002 47297 /2022 10079 20078 40053 56029 700// 22200
BBXX 62113 21184 99584 10002 47295 /2025 10078 20070 40067 57024 762// 22200
BBXX 62129 21184 99584 10003 46/// ///// 10080 20072 40063 57027 22200
BBXX 62114 21184 99583 10000 46/// /2024 10081 20076 40053 57033 22200
BBXX PJAI 21184 99581 70014 47998 /2214 10093 20064 40050 57020 700// 22200
BBXX 62111 21184 99580 70003 46/// /2223 10084 20072 40067 57021 22200 10503 70016
BBXX 62117 21184 99579 10000 47297 /2020 10086 20075 40071 57026 700// 22200 10403 70017
BBXX BATUK01 21184 99577 70031 46/// /2317 10099 20062 40056 56010 22200 00074
BBXX 62105 21184 99554 70122 46/// /2425 10116 20105 40126 53010 22200 00107 10809 70043 333 90710 91133
BBXX 62095 21184 99531 70159 46/// /2221 10124 20107 40182 53001 22200 00112 10809 70045 333 90710 91133
BBXX 62301 21184 99524 70047 46/// /2516 10104 20092 40214 51008 22200 00087 10503 70016
BBXX 62094 21184 99517 70067 46/// /26// 10116 20100 40244 52016 22200 00106 10503 70017
BBXX 62303 21184 99516 70051 46/// /2613 10122 20099 40234 52012 22200 00110 10604 70021
BBXX 62023 21183 99514 70079 46/96 /2626 10111 2//// 40261 5//// 22200 10504 70020 555 70029 81005
BBXX 62081 21184 99510 70134 46/// ///// 10128 20099 40258 52005 22200 00120 10707 70034
BBXX TESTFR9 21184 99507 70011 46/// /3017 10110 29097 40238 52009 22214
BBXX 62305 21184 99504 10000 46/98 /2823 10120 20109 40217 52012 22200 00121 10602 70009 333 90710 91126
BBXX BATFR42 21184 99502 70017 46/// /2622 10119 20104 40231 22243 00125
BBXX 62107 21184 99501 70061 46/// /3020 10122 20096 40271 53019 22200 00117 10804 70022 333 90710 91127
BBXX BATFR02 21184 99500 70006 46/// /2820 10122 20104 40231 51021 22244 00127
BBXX BAREU00 21184 99499 70043 46/// ///// 40258 52008 22223
BBXX 62103 21184 99499 70029 46/98 /3118 10119 20104 40232 52013 22200 00123 10703 70015 333 90710 91128
BBXX BATEU01 21184 99497 70047 46/// /2817 10122 20100 40264 52004 22224 00124
BBXX VRYO3 21184 99494 70187 46/// /0918 10129 20141 40236 56020 7//// 8//// 22264 00131 2////
BBXX BATFR27 21184 99494 70037 46/// /3021 10120 20094 40259 53044 22255 00129
BBXX 62027 21184 99491 70022 46/// /3213 1//// 2//// 40248 52020 22200 00111 10804 328// 70020
BBXX 62442 21184 99490 70164 46/// /2116 1//// 2//// 40278 57004 22200 00125
BBXX DILE 21183 99489 70128 41298 82322 10130 20121 40295 54000 7//22 8/700 22224 2//// 80125
BBXX 62029 21184 99487 70125 46/// /2314 10131 20111 40306 53003 22200 00129 10806 70032
BBXX BATFR12 21184 99480 70068 46/// /3013 10132 20110 40309 51021 22251 00144
BBXX 62163 21184 99475 70084 46/// /3011 10125 20105 40322 52014 22200 00127 10806 70030
BBXX WKAE 21183 99472 70246 41597 82024 10138 20121 40178 57037 70222 885// 22224 00120 20405 325// 40710 5//// 6//// 80128 ICE /////
BBXX PDNN 21183 99471 70231 41/97 81833 10138 20128 40214 57002 70062 888// 22223 02130 20406 324// 40808 80132 90619
BBXX V2NA1 21184 99466 70169 41497 81814 10145 20135 40302 55004 70222 887// 22224 04120 20302 331// 40805 80139
BBXX WDD6126 21184 99464 70157 41298 71913 10150 2013/ 40319 51000 70222 8719/ 22254 00120 20202 330// 40402 5//// 6//// 80140 ICE /////
BBXX DDZD2 21184 99458 70082 41298 83018 10131 20122 40331 52020 70222 887// 22255 00120 20603 80126
BBXX 62001 21184 99452 70050 46/// /3112 10133 20120 40312 52012 22200 00141 10605 70023
BBXX LAXP4 21184 99395 70239 41898 41514 00/// 10180 2018/ 40292 54000 70001 82611 22253 00160 20402 315// 40303 80180
BBXX MDTE9 21183 99370 70126 41398 70908 10163 20147 40319 56007 702// 8/5// 22223 00160 2//// 3//// 4//// 5//// 80154
BBXX BATFR09 21184 99366 70093 44498 53617 10157 20117 40292 58009 70222 85100 22223 00175 20304 60//0 ICE 0/0//
AAXX 21181 03969 12475 72408 10114 20095 30098 40202 51012 69902 868/2 333 10118 81818 86656
AAXX 21181 47008 41960 23203 11031 21113 30122 40178 53004 71000 82050
AAXX 21181 47014 42950 20000 11109 21171 39822 40246 54000 80001
AAXX 21181 47016 11570 20000 11122 21167 39332 40225 58005 69901 77077 82500
AAXX 21181 47020 42965 03202 11095 21165 39870 40269 52018
AAXX 21181 47025 42560 83201 11022 21061 30148 40178 57011 885//
AAXX 21181 47035 42970 03606 11072 21164 30276 40285 52010
AAXX 21181 47041 42970 00203 11025 21124 30159 40187 52005
AAXX 21181 47055 42970 02706 11006 21078 30155 40202 53005
AAXX 21181 47058 42960 03206 11059 21149 30218 40268 52015
AAXX 21181 47069 11965 03406 11040 21098 30146 40250 52013 69901 70172
AAXX 21181 47003 42980 83204 11045 21116 30175 40179 57008 8802/
AAXX 21181 47005 12580 20000 11207 21226 38547 53005 69901 82500
AAXX 21181 47022 42975 33603 11176 21210 38778 57002 80002
AAXX 21181 47028 42962 03203 11073 21137 30179 40279 52019
AAXX 21181 47031 42970 03204 11134 21154 38886 53002
AAXX 21181 47037 42970 03201 11068 21166 30129 40257 52012
AAXX 21181 47039 42960 03201 11072 21147 30050 40250 52021
AAXX 21181 47046 42969 02303 11019 21108 30152 40175 54000
AAXX 21181 47050 42965 03205 11062 21168 30222 40257 52024
AAXX 21181 47052 11965 03205 11063 21086 39888 40242 52016 69901 70172
AAXX 21181 47060 42960 03207 11052 21149 30200 40261 52021
AAXX 21181 47061 42980 82308 10011 21065 30144 40188 57003 80003
AAXX 21181 47065 42970 03206 11055 21121 30191 40259 52011
AAXX 21181 47067 42965 83202 11042 21101 30138 40353 52013 80001
AAXX 21181 47068 42560 53208 11029 21115 30226 40262 52021 85500
AAXX 21181 47070 42970 03211 11033 21106 30155 40245 52019
AAXX 21181 47075 42580 82706 11049 21116 39715 40157 54000 885//
AAXX 21184 47407 12/65 21402 11174 21196 30032 40221 58007 60001 82200
AAXX 21184 47887 11/70 71603 10066 20009 30145 40187 58016 69901 72522 8327/
BBXX AUYK 21184 99214 11216 41197 80621 10225 20213 4//// 54000 72025 88200 22212 00274 2////
BBXX A8UX5 21184 99101 10658 41997 00411 10270 20218 40122 50040 70200 80000 22264 04284 2//// 80235
BBXX A8RV7 21184 99092 31522 41/97 /0314 10280 20253 40040 56020 70222 8//// 22283 00300 20502 80260
BBXX A8CI9 21184 99027 10581 41497 33111 10285 20225 40145 52005 70100 83240 22244 04288 20202 80242
BBXX DDZF2 21184 99163 11136 41697 40428 10250 20222 40130 54000 70122 81464 22214 00250 20806 305// 41004 80230
BBXX PCSV 21183 99185 30585 41498 11817 10255 20220 40145 52008 70022 8111/ 22253 04271 21003 318// 41003 80230
BBXX VVPG 21183 99186 10711 41798 63508 10280 20262 40105 51001 70201 86021 222// 00/// 2////
BBXX VQOG5 21184 99059 10883 41397 90408 10279 20245 40082 51002 71392 897// 22263 00272 2//// 80255
BBXX VQIB9 21184 99015 30843 41/97 /1038 10280 20252 40070 54000 70222 8//// 22253 00/// 2//// 80260
BBXX VRDN3 21184 99145 10733 41/98 /0208 10270 20260 40140 51010 70200 8//// 22273 00/// 2//// 80225
BBXX ZQDI9 21183 99108 11113 41597 60220 10284 20241 40096 58005 70222 8261/ 22212 00262 20402 80254
BBXX A8AF6 21183 99270 70166 41/98 20912 10190 20124 40250 56010 70100 81/45 22243 02200 20202 80150
BBXX 61001 21184 99434 10078 46/// /2008 10123 20036 40138 57006 22200 00146 10702 70008
BBXX BATFR20 21184 99432 10053 46/// ///// 10117 20054 40170 22234
BBXX BATFR33 21184 99422 10074 46/// /3120 10134 20062 40139 58006 22274 00147
BBXX 61002 21184 99421 10047 46/// ///33 10151 2//// 40190 52006 22200 00139 10707 70034 555 1/044
BBXX BATFR11 21184 99418 10099 46/// ///// 10127 20032 40149 53004 22284 00154
BBXX BATFR46 21184 99402 10018 44/97 22215 10162 20119 40224 56003 70131 8//2/ 22213 00159 22002 323// 42502 5////
BBXX BAREU62 21184 99398 10259 46/// ///// 40150 52007 22284
BBXX BAREU51 21184 99383 10134 46/// ///// 40125 52003 22245
BBXX BAREU63 21184 99382 10156 46/// /2110 10115 29065 40076 52045 22283
BBXX DANM 21184 99372 10117 41598 43536 10140 20059 40126 51024 70181 844// 22265 00150 20408 80098
BBXX KABL 21184 99369 10124 41598 33328 10140 2006/ 40135 56020 70299 8339/ 22234 00184 20202 333// 40504 5//// 6//// 80100 ICE /////
BBXX BATFR01 21184 99349 10249 46/// /2218 10164 20095 40150 58002 22262 00182
BBXX A8SI8 21184 99343 10226 43498 52435 10150 2014/ 40210 58040 22275 00180 80160
BBXX WKAB 21184 99341 10247 41998 02520 10157 20110 40167 51012 70200 80000 22225 00186 20404 332// 40805 5//// 6//// 80130 ICE /////
BBXX A8AF6 21183 99270 70166 41/98 20912 10190 20124 40250 56010 70100 81/45 22243 02200 20202 80150
AAXX 21181 45032 36/// /9901 10147 20124 30176 40193 52001
AAXX 21181 45035 36/// /0503 10169 20097 30148 40190 54000
AAXX 21181 45039 36/// /0303 10175 20087 30174 40188 54000
AAXX 21181 45044 36/// /0306 10172 20127 30091 40186 57001
AAXX 21181 45032 36/// /9901 10147 20124 30176 40193 52001
AAXX 21181 45035 36/// /0503 10169 20097 30148 40190 54000
AAXX 21181 45039 36/// /0303 10175 20087 30174 40188 54000
AAXX 21181 45044 36/// /0306 10172 20127 30091 40186 57001
BBXX WDC8583 21194 99552 71321 41/97 81430 1//// 2//// 40250 5//// 761// 8//// 222// 0//// 2//03 3//// 4//01 6////
AAXX 21184 16245 12970 00108 10064 21013 30108 40134 53008 60002 333 10124
AAXX 21184 89646 46/// /0216 11241 29082 37509 4//// 5////
AAXX 21184 89648 46/// /2004 11302 29073 37115 4//// 5////
AAXX 21184 89659 46/// /2505 11234 29076 37586 4//// 5////
AAXX 21184 89661 46/// /2217 11079 29084 39149 4//// 5////
AAXX 21184 89662 42980 12505 11017 21112 39693 49796 52002 222 ICE 98015 333 21034
AAXX 21184 89666 46/// /3105 11032 29049 39598 4//// 5////
AAXX 21184 71012 16/// /2812 11037 21049 60001 333 11008 21061 70005
AAXX 21184 71013 16/// ///// 11037 21063 60001 333 11001 21073 7////
AAXX 21184 71060 16/// /2503 11066 21095 38704 40308 51013 60001 333 11014 21085 70000 555 10010
AAXX 21184 71399 16/// ///// 11035 21058 60001 333 10000 21067 70000
AAXX 21184 71848 17/// ///// 11029 21076 69941 7//4/ 333 11015 21049 70004
AAXX 21184 71565 16/// /3011 11044 21082 60001 333 11002 21066 70006
AAXX 21184 71566 16/// /2705 11037 21079 60001 333 11004 21059 70015
AAXX 21184 71567 16/// /2707 11035 21054 60001 333 11035 21058 70006
AAXX 21184 71073 16/// /3412 11046 21083 60001 333 11019 21067 70000
AAXX 21184 71793 16/// ///// 11039 21051 60001 333 10004 21065 70009
AAXX 21184 71495 16/// /3110 11062 21108 60001 333 11004 21104 70000
AAXX 21184 71974 46/// /1508 11274 21298 30068 40113 56015 6///1 333 11267 21371 7////
AAXX 21184 71974 46/// /1508 11274 21298 30068 40113 56015 6///1 333 11267 21371 7////
AAXX 21184 71012 16/// /2812 11037 21049 60001 333 11008 21061 70005
AAXX 21184 71013 16/// ///// 11037 21063 60001 333 11001 21073 7////
AAXX 21184 71060 16/// /2503 11066 21095 38704 40308 51013 60001 333 11014 21085 70000 555 10010
AAXX 21184 71793 16/// ///// 11039 21051 60001 333 10004 21065 70009
AAXX 21184 71848 17/// ///// 11029 21076 69941 7//4/ 333 11015 21049 70004
AAXX 21184 71565 16/// /3011 11044 21082 60001 333 11002 21066 70006
AAXX 21184 71566 16/// /2705 11037 21079 60001 333 11004 21059 70015
AAXX 21184 71567 16/// /2707 11035 21054 60001 333 11035 21058 70006
AAXX 21184 71073 16/// /3412 11046 21083 60001 333 11019 21067 70000
AAXX 21184 71399 16/// ///// 11035 21058 60001 333 10000 21067 70000
AAXX 21184 71495 16/// /3110 11062 21108 60001 333 11004 21104 70000
BBXX 46241 21181 99330 71173 46/// ///// 1//// 91811 22200 00142 11301 20501 326// 41301 70007
BBXX 46216 21181 99343 71198 46/// ///// 1//// 91827 22200 00144 11202 20502 327// 41202 70012
BBXX 46223 21181 99335 71178 46/// ///// 1//// 91830 22200 00151 11402 21001 327// 41402 70011
BBXX 46231 21181 99327 71174 46/// ///// 1//// 91824 22200 00150 11302 20901 327// 41302 70011
BBXX 46222 21181 99336 71183 46/// ///// 1//// 91826 22200 00152 11302 20501 327// 41301 70010
BBXX 46242 21181 99332 71174 46/// ///// 1//// 91828 22200 00144 11401 20501 323// 41401 70006
BBXX 41053 21181 99185 70661 46/// /0709 10263 40162 91830 333 91211
BBXX 41053 21181 99185 70661 46/// /0609 10261 40163 91820 333 91213
BBXX 41053 21181 99185 70661 46/// /0609 10260 40164 91810 333 91213
BBXX 42085 21181 99179 70665 46/// /0709 10274 40148 91830 333 91210
BBXX 42085 21181 99179 70665 46/// /0808 10275 40149 91820 333 91212
BBXX 42085 21181 99179 70665 46/// /0809 10274 40150 91810 333 91212
BBXX 44039 21181 99411 70727 46/// /2006 10116 20107 40135 91830 22200 00092 10201 70003 333 91207
AAXX 21181 89063 41/94 93401 10004 20004 39931 49942 53004 77072 333 44114
AAXX 21184 96935 32560 72803 10264 20240 30060 40067 57013 81131 333 56000 81820 86080
BBXX 63110 21184 99595 10015 47497 /1828 10060 20027 40055 57035 751// 22200 10504 70018
BBXX 63106 21184 99610 10017 46/// /1628 10039 40053 57017 22200
BBXX 63113 21184 99610 10017 46/// /1627 10041 20019 40053 57018 22200 10605 70027
BBXX 62094 21184 99517 70067 46/// /26// 10116 20100 40244 52016 22200 00106 10503 70017
BBXX 62103 21184 99499 70029 46/99 /3125 10123 20104 40240 52017 22200 00123 10703 70014 333 90710 91131
AAXX 21184 63740 32570 60615 10201 20138 48517 83530 333 10265 58002 83622 83359
BBXX PEBT 21183 99542 10054 41497 42212 10092 20035 40170 54000 7//22 847// 22213 02080 20301 330// 40602 5//// 80065
AAXX 21181 01152 11240 80806 10002 21006 30041 40057 53006 60022 78487 888// 333 10019 91111
BBXX 46208 21181 99525 71327 46/// /1510 10078 40266 57023 22200 00075 11205 70026 333 91212
BBXX 46208 21181 99525 71327 46/// /1510 10078 40266 57023 22200 00075 11205 70026 333 91212
BBXX FLAO 2118/ 99764 70847 46/// ///// 11198 40013 52001
BBXX 7JJA 21184 99359 11413 41798 43315 00 10100 20060 40140 57045 70211 83/// 9//// 22200 0 2//01 3 4 5 6//// 80080 ICE /////
BBXX SHIP 21183 99307 11275 41/95 83222 10140 20090 40205 57005 70222 88/// 22244 00210 2//// 3//// 4//// 5//// 6//// 80110 ICE /////
BBXX 46221 21181 99339 71186 46/// ///// 1//// 91815 22200 00148 11302 21001 326// 41301 70009
AAXX 21184 63705 32565 32003 10220 20177 38847 48502 81101 3333 10250 59006 81823 5555 10190
AAXX 21184 71841 16/// /3103 11015 21034 39643 40040 51013 60001 333 11015 21040 70013
AAXX 21184 71433 46/// /2711 10023 21009 39797 40026 58003 6///1 333 10026 21005 7////
AAXX 21184 71102 16/// ///// 11040 21056 60001 333 11028 21063 70000
AAXX 21184 71105 16/// ///// 11023 21050 60001 333 11004 21052 70000
AAXX 21184 71051 17/// ///// 11048 21071 69951 7//4/ 333 11026 21068 70005
AAXX 21184 71057 16/// ///// 11041 21094 60001 333 11013 21063 70005
AAXX 21184 71070 16/// ///// 11040 21053 60001 333 11012 21040 70000
AAXX 21184 71089 16/// ///// 11034 21048 60001 333 11009 21062 70004
AAXX 21184 71502 16/// /0807 11253 21273 39985 40001 58027 60001 333 11231 21269 70000
AAXX 21184 71509 17/// /3512 11020 21051 69991 7//4/ 333 11007 21057 70009
AAXX 21184 71517 17/// /3510 11038 21074 69951 7//4/ 333 11005 21051 70005
AAXX 21184 71518 17/// /3415 11022 21039 69951 7//4/ 333 11008 21056 70005
AAXX 21184 71519 17/// /3308 11042 21050 69991 7//4/ 333 10006 21042 70009
AAXX 21184 71528 16/// /3511 11022 21053 60001 333 11013 21055 7////
AAXX 21184 71006 16/// /3013 11028 21044 60001 333 10000 21056 70016
AAXX 21184 71007 46/// ///// 11033 21083 6///1 333 11018 21078 7////
AAXX 21184 71008 16/// /3115 11036 21067 60001 333 11008 21043 70000
AAXX 21184 71009 17/// /3206 11084 21113 69941 7//4/ 333 11002 21096 70004
AAXX 21184 71035 16/// ///// 11077 21117 60001 333 10000 21091 70011
AAXX 21184 71789 16/// ///// 11044 21084 60001 333 11011 21063 70000
AAXX 21184 71794 16/// ///// 11044 21053 60001 333 11009 21060 70004
AAXX 21184 71795 17/// ///// 11043 21070 69941 7//4/ 333 10001 21050 70014
AAXX 21184 71796 16/// ///// 11032 21046 60001 333 10000 21055 70000
AAXX 21184 71433 46/// /2711 10023 21009 39797 40026 58003 6///1 333 10026 21005 7////
AAXX 21184 71102 16/// ///// 11040 21056 60001 333 11028 21063 70000
AAXX 21184 71105 16/// ///// 11023 21050 60001 333 11004 21052 70000
AAXX 21184 71789 16/// ///// 11044 21084 60001 333 11011 21063 70000
AAXX 21184 71794 16/// ///// 11044 21053 60001 333 11009 21060 70004
AAXX 21184 71795 17/// ///// 11043 21070 69941 7//4/ 333 10001 21050 70014
AAXX 21184 71796 16/// ///// 11032 21046 60001 333 10000 21055 70000
AAXX 21184 71841 16/// /3103 11015 21034 39643 40040 51013 60001 333 11015 21040 70013
AAXX 21184 71051 17/// ///// 11048 21071 69951 7//4/ 333 11026 21068 70005
AAXX 21184 71057 16/// ///// 11041 21094 60001 333 11013 21063 70005
AAXX 21184 71070 16/// ///// 11040 21053 60001 333 11012 21040 70000
AAXX 21184 71089 16/// ///// 11034 21048 60001 333 11009 21062 70004
AAXX 21184 71006 16/// /3013 11028 21044 60001 333 10000 21056 70016
AAXX 21184 71007 46/// ///// 11033 21083 6///1 333 11018 21078 7////
AAXX 21184 71008 16/// /3115 11036 21067 60001 333 11008 21043 70000
AAXX 21184 71009 17/// /3206 11084 21113 69941 7//4/ 333 11002 21096 70004
AAXX 21184 71035 16/// ///// 11077 21117 60001 333 10000 21091 70011
AAXX 21184 71502 16/// /0807 11253 21273 39985 40001 58027 60001 333 11231 21269 70000
AAXX 21184 71509 17/// /3512 11020 21051 69991 7//4/ 333 11007 21057 70009
AAXX 21184 71517 17/// /3510 11038 21074 69951 7//4/ 333 11005 21051 70005
AAXX 21184 71518 17/// /3415 11022 21039 69951 7//4/ 333 11008 21056 70005
AAXX 21184 71519 17/// /3308 11042 21050 69991 7//4/ 333 10006 21042 70009
AAXX 21184 71528 16/// /3511 11022 21053 60001 333 11013 21055 7////
BBXX MINUK03 2118/ 99526 10042 46/// ///// 10070 40171 57010
BBXX MINUK01 2118/ 99571 70021 46/// ///// 10075 40087 57009
BBXX MINFR05 2118/ 99281 70154 46/// ///// 10188 40271 52003
AAXX 21181 59158 32562 63602 10184 20138 30065 40166 58005 86500
AAXX 21181 59562 11658 83301 10200 20181 30145 40156 58015 69901 71062 885//
AAXX 21181 59567 46/// /0111 10186 20186 39771 40150 56019
AAXX 21181 58968 11557 80903 10166 20152 30188 40196 58002 60021 76062 887//
AAXX 21181 58974 46/// /0210 10170 20138 30073 40198 57007
AAXX 21181 59358 31640 60106 10186 20155 30138 40170 57009 71022 86500
AAXX 21181 59559 32565 40103 10215 20185 30120 40148 58014 84400
AAXX 21181 59792 32460 80309 10214 20181 30153 40158 57011 8542/
AAXX 21181 59997 32460 20606 10274 20256 30084 40092 57020 82200
AAXX 2118/ 89868 46/// ///// 11065 39719 4//// 5////
AAXX 21181 10609 01/02 92102 10032 20028 39864 40201 53012 60012 75076 333 10033 20019 31001 55300 20000 30000 69947 96047
AAXX 21184 97560 32460 82704 10262 20250 30030 40045 57012 69941 84846 333 56000 57803 82818 84361 86279 80860
AAXX 21184 97760 32456 73304 10260 20245 30041 40051 57010 83932 333 56000 57901 81915 82816 80960
AAXX 21181 89063 41/94 93401 10004 20004 39931 49942 53004 77072 333 44114
AAXX 21184 91659 11599 70000 10253 2023/ 40100 55000 60001 70222 83871 333 56999 83830 83648 85461
BBXX MINFR05 2118/ 99281 70154 46/// ///// 10188 40271 52003
BBXX A8AF6 21183 99270 70166 41/98 20912 10190 20124 40250 56010 70100 81/45 22243 02200 20202 80150
BBXX A8UX5 21184 99101 10658 41997 00411 10270 20218 40122 50040 70200 80000 22264 04284 2//// 80235
BBXX PCSV 21183 99185 30585 41498 11817 10255 20220 40145 52008 70022 8111/ 22253 04271 21003 318// 41003 80230
BBXX A8CI9 21184 99027 10581 41497 33111 10285 20225 40145 52005 70100 83240 22244 04288 20202 80242
BBXX 46221 21181 99339 71186 46/// ///// 1//// 91815 22200 00148 11302 21001 326// 41301 70009
BBXX FLAO 2118/ 99764 70847 46/// ///// 11198 40013 52001
BBXX 46208 21181 99525 71327 46/// /1510 10078 40266 57023 22200 00075 11205 70026 333 91212
BBXX 42085 21181 99179 70665 46/// /0709 10274 40148 91830 333 91210
BBXX 42085 21181 99179 70665 46/// /0809 10274 40150 91810 333 91212
BBXX 44039 21181 99411 70727 46/// /2006 10116 20107 40135 91830 22200 00092 10201 70003 333 91207
BBXX 41053 21181 99185 70661 46/// /0709 10263 40162 91830 333 91211
BBXX 41053 21181 99185 70661 46/// /0609 10261 40163 91820 333 91213
BBXX 42085 21181 99179 70665 46/// /0808 10275 40149 91820 333 91212
BBXX 41053 21181 99185 70661 46/// /0609 10260 40164 91810 333 91213
BBXX 46216 21181 99343 71198 46/// ///// 1//// 91827 22200 00144 11202 20502 327// 41202 70012
BBXX 46223 21181 99335 71178 46/// ///// 1//// 91830 22200 00151 11402 21001 327// 41402 70011
BBXX 46231 21181 99327 71174 46/// ///// 1//// 91824 22200 00150 11302 20901 327// 41302 70011
BBXX 46242 21181 99332 71174 46/// ///// 1//// 91828 22200 00144 11401 20501 323// 41401 70006
BBXX 46222 21181 99336 71183 46/// ///// 1//// 91826 22200 00152 11302 20501 327// 41301 70010
BBXX 46241 21181 99330 71173 46/// ///// 1//// 91811 22200 00142 11301 20501 326// 41301 70007
BBXX 42360 21181 99267 70905 46/// /1905 10242 91800 22200 00250 10903 70015 333 91207
BBXX 41052 21181 99183 70648 46/// /0609 10266 40154 91830 333 91211
BBXX 41052 21181 99183 70648 46/// /0609 10266 40155 91810 333 91211
BBXX 41052 21181 99183 70648 46/// /0709 10266 40156 91820 333 91211
BBXX 44024 21181 99423 70659 46/30 /1709 10069 40200 58030 91804 22200 00081 11104 70019 333 91210 555 11109 22116
BBXX VQOG5 21184 99059 10883 41397 90408 10279 20245 40082 51002 71392 897// 22263 00272 2//// 80255
BBXX VRDN3 21184 99145 10733 41/98 /0208 10270 20260 40140 51010 70200 8//// 22273 00/// 2//// 80225
BBXX ZQDI9 21183 99108 11113 41597 60220 10284 20241 40096 58005 70222 8261/ 22212 00262 20402 80254
BBXX AUYK 21184 99214 11216 41197 80621 10225 20213 4//// 54000 72025 88200 22212 00274 2////
BBXX DDZF2 21184 99163 11136 41697 40428 10250 20222 40130 54000 70122 81464 22214 00250 20806 305// 41004 80230
BBXX VVPG 21183 99186 10711 41798 63508 10280 20262 40105 51001 70201 86021 222// 00/// 2////
BBXX MINUK03 2118/ 99526 10042 46/// ///// 10070 40171 57010
BBXX MINUK01 2118/ 99571 70021 46/// ///// 10075 40087 57009
BBXX PEBT 21183 99542 10054 41497 42212 10092 20035 40170 54000 7//22 847// 22213 02080 20301 330// 40602 5//// 80065
BBXX 66022 21181 99541 10142 46/// /1001 10029 30130 22200 00036
BBXX VQIB9 21184 99015 30843 41/97 /1038 10280 20252 40070 54000 70222 8//// 22253 00/// 2//// 80260
BBXX A8RV7 21184 99092 31522 41/97 /0314 10280 20253 40040 56020 70222 8//// 22283 00300 20502 80260
AAXX 21184 89614 46/// /1026 29080 4//// 5////
AAXX 21184 89614 46/// /1026 29080 4//// 5////
BBXX TBWUK17 21183 99211 30745 41297 81215 10240 20225 40207 52022 70022 87778 22263 04269 20504 31011 40403 50405 80230
BBXX DAJT 21184 99225 30539 41/98 /0910 10260 20239 40100 51010 75822 8/7// 22254 04260 80245
BBXX A8ZS7 21184 99360 30002 41497 42220 10170 20119 40155 52020 70222 83670 22264 04140 20604 80140
AAXX 21184 71249 17/// /3018 11067 21097 69951 7//4/ 333 11001 21084 70005
AAXX 21184 71791 16/// /2710 11040 21050 60001 333 11036 21061 70009
AAXX 21184 71797 16/// ///// 11042 21051 60001 333 11032 21060 70006
AAXX 21184 71520 16/// /1610 11089 21100 39353 40032 58010 60001 333 11089 21188 70000
AAXX 21184 71521 16/// ///// 11088 21115 60001 333 11088 21187 70000
AAXX 21184 71523 17/// ///// 11034 21050 39664 40041 56023 69981 7//4/ 333 11033 21159 70000
AAXX 21184 71540 16/// /3010 11041 21085 60001 333 11001 21062 70000
AAXX 21184 71544 16/// ///// 11054 21070 60001 333 11022 21063 70031
AAXX 21184 71548 17/// ///// 11029 21051 69941 7//4/ 333 11028 21053 70004
AAXX 21184 71346 17/// /3513 11022 21043 60011 7//4/ 333 10006 21056 70012
AAXX 21184 71014 16/// /2907 11050 21090 60001 333 11001 21064 70006
AAXX 21184 71413 16/// ///// 11033 21047 60001 333 10000 21057 70000
AAXX 21184 71414 16/// ///// 11028 21049 60001 333 11028 21055 70000
AAXX 21184 71440 17/// ///// 11058 21089 69961 7//4/ 333 11003 21064 70012
AAXX 21184 71055 46/// /3103 11225 21246 39720 40062 56029 6///1 333 11206 21341 7////
AAXX 21184 71065 16/// ///// 11028 21051 60001 333 11023 21046 70006
AAXX 21184 71481 16/// /2506 11038 21077 60001 333 11002 21066 70008
AAXX 21184 71498 17/// /3009 11054 21084 69951 7//4/ 333 11006 21054 70005
AAXX 21184 71674 16/// ///// 11029 21056 60001 333 10001 21050 70004
AAXX 21184 71857 16/// ///// 11038 21056 60001 333 11038 21059 70000
AAXX 21184 71904 16/// ///// 11055 21091 60001 333 10005 21071 70007
AAXX 21184 71360 16/// ///// 11041 21055 60001 333 11017 21067 70000
AAXX 21184 71380 16/// /3109 11046 21092 60001 333 11004 21056 70017
AAXX 21184 71383 16/// ///// 11080 21112 39435 40050 57013 60001 333 11080 21169 70000
AAXX 21184 71346 17/// /3513 11022 21043 60011 7//4/ 333 10006 21056 70012
AAXX 21184 71791 16/// /2710 11040 21050 60001 333 11036 21061 70009
AAXX 21184 71797 16/// ///// 11042 21051 60001 333 11032 21060 70006
AAXX 21184 71014 16/// /2907 11050 21090 60001 333 11001 21064 70006
AAXX 21184 71904 16/// ///// 11055 21091 60001 333 10005 21071 70007
AAXX 21184 71481 16/// /2506 11038 21077 60001 333 11002 21066 70008
AAXX 21184 71498 17/// /3009 11054 21084 69951 7//4/ 333 11006 21054 70005
AAXX 21184 71360 16/// ///// 11041 21055 60001 333 11017 21067 70000
AAXX 21184 71380 16/// /3109 11046 21092 60001 333 11004 21056 70017
AAXX 21184 71383 16/// ///// 11080 21112 39435 40050 57013 60001 333 11080 21169 70000
AAXX 21184 71055 46/// /3103 11225 21246 39720 40062 56029 6///1 333 11206 21341 7////
AAXX 21184 71065 16/// ///// 11028 21051 60001 333 11023 21046 70006
AAXX 21184 71857 16/// ///// 11038 21056 60001 333 11038 21059 70000
AAXX 21184 71249 17/// /3018 11067 21097 69951 7//4/ 333 11001 21084 70005
AAXX 21184 71413 16/// ///// 11033 21047 60001 333 10000 21057 70000
AAXX 21184 71414 16/// ///// 11028 21049 60001 333 11028 21055 70000
AAXX 21184 71440 17/// ///// 11058 21089 69961 7//4/ 333 11003 21064 70012
AAXX 21184 71674 16/// ///// 11029 21056 60001 333 10001 21050 70004
AAXX 21184 71520 16/// /1610 11089 21100 39353 40032 58010 60001 333 11089 21188 70000
AAXX 21184 71521 16/// ///// 11088 21115 60001 333 11088 21187 70000
AAXX 21184 71523 17/// ///// 11034 21050 39664 40041 56023 69981 7//4/ 333 11033 21159 70000
AAXX 21184 71540 16/// /3010 11041 21085 60001 333 11001 21062 70000
AAXX 21184 71544 16/// ///// 11054 21070 60001 333 11022 21063 70031
AAXX 21184 71548 17/// ///// 11029 21051 69941 7//4/ 333 11028 21053 70004
AAXX 21181 10147 11970 02801 10009 20006 30140 40159 51020 60012 71181 333 10054 20009 31103 55300 20000 30000 40880
BBXX VQIB9 21184 99015 30843 41/97 /1038 10280 20252 40070 54000 70222 8//// 22253 00/// 2//// 80260
AAXX 21184 82332 32570 50906 10315 20219 39986 40078 85200 333 59001
AAXX 21184 88903 45/// /1303 10137 20075 39981 49981 58015
BBXX ELUC5 21183 99222 51333 41998 00725 10260 20260 40170 54000 70211 80000 22224 06210 20904 30000 80260
AAXX 21184 89667 46/// /2117 11029 29081 39799 4//// 5//// 91840
AAXX 21184 89667 46/// /2313 11029 39794 4//// 5//// 91830
AAXX 21184 89667 46/// /2406 11028 39795 4//// 5//// 91820
AAXX 2118/ 89329 46/// ///// 11080 38845 4//// 5//// 91810
AAXX 2118/ 89329 46/// ///// 11071 38846 4//// 5//// 91840
AAXX 2118/ 89828 46/// ///// 11305 36472 4//// 5//// 91840
AAXX 2118/ 89108 46/// ///// 11171 36982 4//// 5//// 91840
AAXX 2118/ 89879 46/// ///// 11014 39684 4//// 5//// 91840
AAXX 2118/ 89667 46/// ///// 4//// 5//// 91810
AAXX 2118/ 89872 46/// ///// 11015 39732 4//// 5//// 91840
AAXX 2118/ 89869 46/// ///// 11065 39747 4//// 5//// 91840
AAXX 2118/ 89866 46/// ///// 11018 39679 4//// 5//// 91830
AAXX 2118/ 89866 46/// ///// 11019 39680 4//// 5//// 91840
AAXX 2118/ 89799 46/// ///// 11223 4//// 5//// 91830
AAXX 2118/ 89799 46/// ///// 11225 4//// 5//// 91840
AAXX 2118/ 89332 46/// ///// 11041 39309 4//// 5//// 91840
AAXX 2118/ 89769 46/// ///// 11054 39766 4//// 5//// 91840
OOXX SEP63 21161 99594 10180 ///// 00401 26/// /1402 10007 29086 30080 91610 333 60000
OOXX SEP63 21161 99594 10180 ///// 00401 26/// /1102 10007 29086 30080 91620 333 60000
OOXX SEP63 21161 99594 10180 ///// 00401 26/// /1302 10006 29087 30080 91630 333 60000
OOXX SEP63 21161 99594 10180 ///// 00401 26/// /1302 10007 29087 30080 91640 333 60000
OOXX SEP63 21161 99594 10180 ///// 00401 26/// /1001 10007 29087 30080 91650 333 60000
OOXX SEP63 21171 99594 10180 ///// 00401 26/// /1502 10007 29087 30080 91700 333 60000
OOXX SEP63 21171 99594 10180 ///// 00401 26/// /1402 10006 29087 30080 91710 333 60000
OOXX SEP63 21171 99594 10180 ///// 00401 26/// /1303 10005 29087 30080 91720 333 60000
OOXX SEP63 21171 99594 10180 ///// 00401 26/// /1402 10004 29088 30080 91730 333 60000
OOXX SEP63 21171 99594 10180 ///// 00401 26/// /1502 10004 29088 30080 91740 333 60000
OOXX SEP63 21171 99594 10180 ///// 00401 26/// /1102 10000 29089 30090 91750 333 60000
OOXX SEP63 21181 99594 10180 ///// 00401 26/// /0902 11001 29090 30090 91800 333 60000
AAXX 21183 63661 32980 03604 10273 20113 48531 333 10266 59005
AAXX 21184 89807 46/// /1416 11011 29090 39777 4//// 5//// 91830 333 90700 91122
AAXX 21184 89614 46/// /1025 11070 29080 38988 4//// 5//// 91830 333 90700 91131
AAXX 21184 89807 46/// /1416 11011 29090 39777 4//// 5//// 91830 333 90700 91122
AAXX 21184 89614 46/// /1025 11070 29080 38988 4//// 5//// 91830 333 90700 91131
BBXX KGTX 21184 99587 71518 41598 51909 10090 20050 40040 52010 70122 858// 22244 00056 2//// 3//// 4//// 5//// 6//// 80070 ICE /////
AAXX 21184 91844 46/// /0807 10274 40119 22200 00278
AAXX 21184 63980 11465 72510 10276 20243 40117 60042 70298 85932 333 20275 58001 81915 85816 85075 943// 911//
BBXX MINUK04 2118/ 99555 10083 46/// ///// 10040 4//// 57061
AAXX 21184 03008 11240 82222 10083 20083 40004 60052 76165 887// 91750 333 10083 88703 90710 91132
BBXX 63110 21183 99595 10015 41/96 /1736 10061 40052 762// 8//// 22200 10604 70020
BBXX 63106 21184 99610 10017 46/// /1628 10039 40053 57017 22200
BBXX 63105 21184 99610 10017 47495 ///// 10035 20017 40056 57013 761// 22200
BBXX 62103 21184 99499 70029 46/98 /3118 10119 20104 40232 52013 22200 00123 10703 70015 333 90710 91128
BBXX 62094 21184 99517 70067 46/// /2617 10116 20100 40244 52016 22200 00106 10503 70017
BBXX ONFP 21184 99207 30661 43797 61230 10250 2021/ 40170 54000 7//// 86131 22213 04250 20306 30909 40306 50306 6//// 80220 ICE /////
BBXX ONFP 21184 99207 30661 43797 61230 10250 2021/ 40170 54000 7//// 86131 22213 04250 20306 30909 40306 50306 6//// 80220 ICE /////
BBXX ELUC5 21183 99222 51333 41998 00725 10260 20260 40170 54000 70211 80000 22224 06210 20904 30000 80260
BBXX MINUK04 2118/ 99555 10083 46/// ///// 10040 4//// 57061
BBXX BSH03 21181 99540 10081 46/// ///// 22200 00059 20802 70012
BBXX BSH05 21181 99549 10082 46/// ///// 22200 20602 70010
OOXX ARP01 21161 99345 50585 ///// 00311 26/// /1101 10128 29032 30033 91610 333 60000
OOXX ARP01 21161 99345 50585 ///// 00311 26/// /1101 10129 29033 30031 91620 333 60000
OOXX ARP01 21161 99345 50585 ///// 00311 26/// /1101 10129 29034 30029 91630 333 60000
OOXX ARP01 21161 99345 50585 ///// 00311 26/// /1101 10128 29034 30029 91640 333 60000
OOXX ARP01 21161 99345 50585 ///// 00311 26/// /1101 10129 29034 30028 91650 333 60000
OOXX ARP01 21171 99345 50585 ///// 00311 26/// /1101 10128 29034 30026 91700 333 60000
OOXX ARP01 21171 99345 50585 ///// 00311 26/// /1101 10129 29034 30024 91710 333 60000
OOXX ARP01 21171 99345 50585 ///// 00311 26/// /0901 10131 29034 30023 91720 333 60000
OOXX ARP01 21171 99345 50585 ///// 00311 26/// /0000 10132 29034 30022 91730 333 60000
OOXX ARP01 21171 99345 50585 ///// 00311 26/// /0000 10134 29034 30022 91740 333 60000
OOXX ARP01 21171 99345 50585 ///// 00311 26/// /0000 10135 29033 30020 91750 333 60000
OOXX ARP01 21181 99345 50585 ///// 00311 26/// /0000 10134 29034 30016 91800 333 60000
OOXX GBP67 21161 99159 50057 ///// 04381 26/// /0904 10178 29084 39664 91610 333 60000
OOXX GBP67 21161 99159 50057 ///// 04381 26/// /0904 10180 29085 39665 91620 333 60000
OOXX GBP67 21161 99159 50057 ///// 04381 26/// /0803 10180 29086 39664 91630 333 60000
OOXX GBP67 21161 99159 50057 ///// 04381 26/// /0904 10177 29088 39663 91640 333 60000
OOXX GBP67 21161 99159 50057 ///// 04381 26/// /0904 10177 29084 39664 91650 333 60000
OOXX GBP67 21171 99159 50057 ///// 04381 26/// /0904 10177 29082 39664 91700 333 60000
OOXX GBP67 21171 99159 50057 ///// 04381 26/// /1004 10179 29083 39665 91710 333 60000
OOXX GBP67 21171 99159 50057 ///// 04381 26/// /0904 10179 29084 39665 91720 333 60000
OOXX GBP67 21171 99159 50057 ///// 04381 26/// /1004 10175 29086 39665 91730 333 60000
OOXX GBP67 21171 99159 50057 ///// 04381 26/// /1004 10173 29084 39666 91740 333 60000
OOXX GBP67 21171 99159 50057 ///// 04381 26/// /1004 10172 29086 39666 91750 333 60000
OOXX GBP67 21181 99159 50057 ///// 04381 26/// /0804 10171 29088 39667 91800 333 60000
OOXX PTP53 21161 99377 70257 ///// 00121 26/// /1209 10181 29001 30197 91610 333 60000
OOXX PTP53 21161 99377 70257 ///// 00121 26/// /1209 10180 29001 30197 91620 333 60000
OOXX PTP53 21161 99377 70257 ///// 00121 26/// /1210 10179 29001 30196 91630 333 60000
OOXX PTP53 21161 99377 70257 ///// 00121 26/// /1209 10179 29001 30196 91640 333 60000
OOXX PTP53 21161 99377 70257 ///// 00121 26/// /1209 10179 29001 30197 91650 333 60000
OOXX PTP53 21171 99377 70257 ///// 00121 26/// /1307 10178 29001 30197 91700 333 60000
OOXX PTP53 21171 99377 70257 ///// 00121 26/// /1208 10177 29001 30197 91710 333 60000
OOXX PTP53 21171 99377 70257 ///// 00121 26/// /1210 10178 29001 30197 91720 333 60000
OOXX PTP53 21171 99377 70257 ///// 00121 26/// /1209 10178 29001 30197 91730 333 60000
OOXX PTP53 21171 99377 70257 ///// 00121 26/// /1209 10177 29001 30196 91740 333 60000
OOXX PTP53 21171 99377 70257 ///// 00121 26/// /1210 10177 29001 30197 91750 333 60000
OOXX PTP53 21181 99377 70257 ///// 00121 26/// /1308 10176 29001 30198 91800 333 60000
OOXX GBP68 21161 99371 50123 ///// 00641 26/// /3506 10000 29094 30116 91610 333 60000
OOXX GBP68 21161 99371 50123 ///// 00641 26/// /3506 10000 29094 30116 91620 333 60000
OOXX GBP68 21161 99371 50123 ///// 00641 26/// /3506 10000 29094 30116 91630 333 60000
OOXX GBP68 21161 99371 50123 ///// 00641 26/// /3506 10000 29095 30116 91640 333 60000
OOXX GBP68 21161 99371 50123 ///// 00641 26/// /3505 10000 29095 30116 91650 333 60000
OOXX GBP68 21171 99371 50123 ///// 00641 26/// /3505 10000 29095 30117 91700 333 60000
OOXX GBP68 21171 99371 50123 ///// 00641 26/// /3506 10000 29095 30119 91710 333 60000
OOXX GBP68 21171 99371 50123 ///// 00641 26/// /3505 10000 29095 30118 91720 333 60000
OOXX GBP68 21171 99371 50123 ///// 00641 26/// /3506 10000 29095 30117 91730 333 60000
OOXX GBP68 21171 99371 50123 ///// 00641 26/// /3505 10000 29095 30118 91740 333 60000
OOXX GBP68 21171 99371 50123 ///// 00641 26/// /3506 10000 29095 30120 91750 333 60000
OOXX GBP68 21181 99371 50123 ///// 00641 26/// /3506 10000 29095 30120 91800 333 60000
OOXX FRP31 21151 99052 70527 ///// 00091 26/// /0604 10280 29078 30178 91557 333 60000
OOXX FRP31 21161 99052 70527 ///// 00091 26/// /0605 10278 29078 30178 91607 333 60000
OOXX FRP31 21161 99052 70527 ///// 00091 26/// /0604 10278 29078 30175 91617 333 60000
OOXX FRP31 21161 99052 70527 ///// 00091 26/// /0605 10281 29077 30174 91627 333 60000
OOXX FRP31 21161 99052 70527 ///// 00091 26/// /0605 10279 29077 30170 91637 333 60000
OOXX FRP31 21161 99052 70527 ///// 00091 26/// /0605 10280 29076 30168 91647 333 60000
OOXX FRP31 21161 99052 70527 ///// 00091 26/// /0505 10281 29077 30168 91657 333 60000
OOXX FRP31 21171 99052 70527 ///// 00091 26/// /0505 10282 29077 30169 91707 333 60000
OOXX FRP31 21171 99052 70527 ///// 00091 26/// /0605 10283 29076 30168 91717 333 60000
OOXX FRP31 21171 99052 70527 ///// 00091 26/// /0803 10286 29075 30166 91727 333 60000
OOXX FRP31 21171 99052 70527 ///// 00091 26/// /0605 10284 29077 30168 91737 333 60000
OOXX FRP31 21171 99052 70527 ///// 00091 26/// /0405 10274 29084 30166 91747 333 60000
OOXX AUP09 21161 99124 31309 ///// 00321 26/// ///// 1//// 29/// 3//// 91614 333 6///0
OOXX AUP09 21161 99124 31309 ///// 00321 26/// ///// 1//// 29/// 3//// 91624 333 6///0
OOXX AUP09 21161 99124 31309 ///// 00321 26/// ///// 1//// 29/// 3//// 91634 333 6///0
OOXX AUP09 21161 99124 31309 ///// 00321 26/// ///// 1//// 29/// 3//// 91644 333 6///0
OOXX AUP09 21161 99124 31309 ///// 00321 26/// ///// 1//// 29/// 3//// 91654 333 6///0
OOXX AUP09 21171 99124 31309 ///// 00321 26/// ///// 1//// 29/// 3//// 91704 333 6///0
OOXX AUP09 21171 99124 31309 ///// 00321 26/// ///// 1//// 29/// 3//// 91714 333 6///0
OOXX AUP09 21171 99124 31309 ///// 00321 26/// ///// 1//// 29/// 3//// 91724 333 6///0
OOXX AUP09 21171 99124 31309 ///// 00321 26/// ///// 1//// 29/// 3//// 91734 333 6///0
OOXX AUP09 21171 99124 31309 ///// 00321 26/// ///// 1//// 29/// 3//// 91744 333 6///0
OOXX AUP09 21171 99124 31309 ///// 00321 26/// ///// 1//// 29/// 3//// 91754 333 6///0
OOXX AUP09 21181 99124 31309 ///// 00321 26/// ///// 1//// 29/// 3//// 91804 333 6///0
OOXX AUP04 21171 99377 31451 ///// 00311 26/// /0101 10126 29090 30098 91706 333 60000
OOXX AUP04 21171 99377 31451 ///// 00311 26/// /0000 10125 29090 30097 91716 333 60000
OOXX AUP04 21171 99377 31451 ///// 00311 26/// /3001 10125 29090 30098 91726 333 60000
OOXX AUP04 21171 99377 31451 ///// 00311 26/// /3601 10122 29090 30097 91736 333 60000
OOXX AUP04 21171 99377 31451 ///// 00311 26/// /0000 10123 29091 30095 91746 333 60000
OOXX AUP04 21171 99377 31451 ///// 00311 26/// /3501 10122 29091 30097 91756 333 60000
OOXX AUP04 21181 99377 31451 ///// 00311 26/// /0000 10124 29091 30097 91806 333 60000
OOXX AUP04 21181 99377 31451 ///// 00311 26/// /0000 10124 29090 30098 91816 333 60000
OOXX AUP04 21181 99377 31451 ///// 00311 26/// /3401 10124 29091 30098 91826 333 60000
OOXX AUP04 21181 99377 31451 ///// 00311 26/// /0101 10125 29091 30098 91836 333 60000
OOXX AUP04 21181 99377 31451 ///// 00311 26/// /3601 10124 29090 30099 91846 333 60000
OOXX AUP04 21181 99377 31451 ///// 00311 26/// /3201 10124 29090 30102 91856 333 60000
OOXX RUP60 21161 99531 11588 ///// 00651 26/// /2901 11157 29042 30026 91652 333 60000
OOXX RUP60 21171 99531 11588 ///// 00651 26/// /3303 11156 29042 30026 91702 333 60000
OOXX RUP60 21171 99531 11588 ///// 00651 26/// /3504 11152 29041 30027 91712 333 60000
OOXX RUP60 21171 99531 11588 ///// 00651 26/// /2905 11161 29043 30027 91722 333 60000
OOXX RUP60 21171 99531 11588 ///// 00651 26/// /3203 11163 29043 30028 91732 333 60000
OOXX RUP60 21171 99531 11588 ///// 00651 26/// /3505 11160 29043 30028 91742 333 60000
OOXX RUP60 21171 99531 11588 ///// 00651 26/// /2904 11163 29043 30028 91752 333 60000
OOXX RUP60 21181 99531 11588 ///// 00651 26/// /3406 11171 29045 30028 91802 333 60000
OOXX RUP60 21181 99531 11588 ///// 00651 26/// /2606 11177 29048 30028 91812 333 60000
OOXX RUP60 21181 99531 11588 ///// 00651 26/// /3105 11180 29048 30028 91822 333 60000
OOXX RUP60 21181 99531 11588 ///// 00651 26/// /3202 11191 29050 30027 91832 333 60000
OOXX RUP60 21181 99531 11588 ///// 00651 26/// /3102 11174 29049 30028 91842 333 60000
OOXX CAP14 21161 99487 71234 ///// 00431 26/// /3201 10010 29086 30257 91630 333 60000
OOXX CAP14 21161 99487 71234 ///// 00431 26/// /2401 10003 29083 30258 91640 333 60000
OOXX CAP14 21161 99487 71234 ///// 00431 26/// /1401 11013 29085 30257 91650 333 60000
OOXX CAP14 21171 99487 71234 ///// 00431 26/// /0000 11007 29087 30259 91700 333 60000
OOXX CAP14 21171 99487 71234 ///// 00431 26/// /2101 10003 29088 30263 91710 333 60000
OOXX CAP14 21171 99487 71234 ///// 00431 26/// /2901 10019 29085 30265 91720 333 60000
OOXX CAP14 21171 99487 71234 ///// 00431 26/// /3102 10026 29081 30265 91730 333 60000
OOXX CAP14 21171 99487 71234 ///// 00431 26/// /3002 10030 29079 30267 91740 333 60000
OOXX CAP14 21171 99487 71234 ///// 00431 26/// /2902 10031 29078 30269 91750 333 60000
OOXX CAP14 21181 99487 71234 ///// 00431 26/// /2902 10028 29078 30272 91800 333 60000
OOXX CAP14 21181 99487 71234 ///// 00431 26/// /2702 10030 29078 30275 91810 333 60000
OOXX CAP14 21181 99487 71234 ///// 00431 26/// /2701 10033 29078 30276 91820 333 60000
OOXX FJP26 21161 99178 31775 ///// 00311 26/// /1301 10242 29095 30050 91620 333 60000
OOXX FJP26 21161 99178 31775 ///// 00311 26/// /1301 10241 29095 30051 91630 333 60000
OOXX FJP26 21161 99178 31775 ///// 00311 26/// /1402 10242 29095 30052 91640 333 60000
OOXX FJP26 21161 99178 31775 ///// 00311 26/// /1402 10242 29095 30053 91650 333 60000
OOXX FJP26 21171 99178 31775 ///// 00311 26/// /1402 10242 29095 30054 91700 333 60000
OOXX FJP26 21171 99178 31775 ///// 00311 26/// /1301 10241 29095 30057 91710 333 60000
OOXX FJP26 21171 99178 31775 ///// 00311 26/// /1401 10241 29095 30058 91720 333 60000
OOXX FJP26 21171 99178 31775 ///// 00311 26/// /1701 10241 29095 30060 91730 333 60000
OOXX FJP26 21171 99178 31775 ///// 00311 26/// /0000 10241 29095 30060 91740 333 60000
OOXX FJP26 21171 99178 31775 ///// 00311 26/// /1701 10241 29095 30061 91750 333 60000
OOXX FJP26 21181 99178 31775 ///// 00311 26/// /1501 10241 29095 30063 91800 333 60000
OOXX FJP26 21181 99178 31775 ///// 00311 26/// /1301 10243 29094 30064 91810 333 60000
OOXX RUP59 21161 99539 10848 ///// 02121 26/// /0902 11155 29070 30142 91640 333 60000
OOXX RUP59 21161 99539 10848 ///// 02121 26/// /0802 11156 29069 30141 91650 333 60000
OOXX RUP59 21171 99539 10848 ///// 02121 26/// /0902 11156 29070 30141 91700 333 60000
OOXX RUP59 21171 99539 10848 ///// 02121 26/// /0902 11156 29070 30139 91710 333 60000
OOXX RUP59 21171 99539 10848 ///// 02121 26/// /0902 11156 29070 30139 91720 333 60000
OOXX RUP59 21171 99539 10848 ///// 02121 26/// /0902 11155 29071 30140 91730 333 60000
OOXX RUP59 21171 99539 10848 ///// 02121 26/// /0902 11155 29070 30141 91740 333 60000
OOXX RUP59 21171 99539 10848 ///// 02121 26/// /1102 11156 29070 30140 91750 333 60000
OOXX RUP59 21181 99539 10848 ///// 02121 26/// /0902 11155 29070 30142 91800 333 60000
OOXX RUP59 21181 99539 10848 ///// 02121 26/// /0902 11155 29070 30140 91810 333 60000
OOXX RUP59 21181 99539 10848 ///// 02121 26/// /0802 11156 29070 30141 91820 333 60000
OOXX RUP59 21181 99539 10848 ///// 02121 26/// /0802 11156 29070 30139 91830 333 60000
OOXX NZP46 21161 99438 51765 ///// 00221 26/// /2601 10092 29084 30285 91630 333 60000
OOXX NZP46 21161 99438 51765 ///// 00221 26/// /2802 10092 29083 30285 91640 333 60000
OOXX NZP46 21161 99438 51765 ///// 00221 26/// /2702 10093 29083 30284 91650 333 60000
OOXX NZP46 21171 99438 51765 ///// 00221 26/// /2902 10094 29084 30285 91700 333 60000
OOXX NZP46 21171 99438 51765 ///// 00221 26/// /2602 10095 29082 30285 91710 333 60000
OOXX NZP46 21171 99438 51765 ///// 00221 26/// /2503 10099 29079 30284 91720 333 60000
OOXX NZP46 21171 99438 51765 ///// 00221 26/// /2602 10102 29076 30285 91730 333 60000
OOXX NZP46 21171 99438 51765 ///// 00221 26/// /2602 10104 29074 30285 91740 333 60000
OOXX NZP46 21171 99438 51765 ///// 00221 26/// /2502 10106 29075 30285 91750 333 60000
OOXX NZP46 21181 99438 51765 ///// 00221 26/// /2701 10107 29074 30285 91800 333 60000
OOXX NZP46 21181 99438 51765 ///// 00221 26/// /2601 10108 29072 30285 91810 333 60000
OOXX NZP46 21181 99438 51765 ///// 00221 26/// /2701 10109 29073 30284 91820 333 60000
OOXX AUP07 21161 99/// ///// ///// ///// 26/// /2705 10051 29088 30225 91649 333 60000
OOXX AUP07 21161 99/// ///// ///// ///// 26/// /2605 10051 29087 30225 91659 333 60000
OOXX AUP07 21171 99/// ///// ///// ///// 26/// /2605 10052 29087 30225 91709 333 60000
OOXX AUP07 21171 99/// ///// ///// ///// 26/// /2705 10051 29088 30225 91719 333 60000
OOXX AUP07 21171 99/// ///// ///// ///// 26/// /2705 10049 29089 30226 91729 333 60000
OOXX AUP07 21171 99/// ///// ///// ///// 26/// /2704 10049 29090 30225 91739 333 60000
OOXX AUP07 21171 99/// ///// ///// ///// 26/// /2704 10049 29090 30226 91749 333 60000
OOXX AUP07 21171 99/// ///// ///// ///// 26/// /2704 10051 29090 30225 91759 333 60000
OOXX AUP07 21181 99/// ///// ///// ///// 26/// /2705 10052 29090 30226 91809 333 60000
OOXX AUP07 21181 99/// ///// ///// ///// 26/// /2805 10054 29090 30226 91819 333 60000
OOXX AUP07 21181 99/// ///// ///// ///// 26/// /2805 10055 29090 30227 91829 333 60000
OOXX AUP07 21181 99/// ///// ///// ///// 26/// /2805 10056 29089 30227 91839 333 60000
OOXX RUP58 21161 99442 11320 ///// 01121 26/// /3401 11085 29072 30002 91652 333 60000
OOXX RUP58 21171 99442 11320 ///// 01121 26/// /1301 11082 29072 30002 91702 333 60000
OOXX RUP58 21171 99442 11320 ///// 01121 26/// /1101 11083 29071 30002 91712 333 60000
OOXX RUP58 21171 99442 11320 ///// 01121 26/// /0000 11081 29070 30003 91722 333 60000
OOXX RUP58 21171 99442 11320 ///// 01121 26/// /1301 11082 29070 30004 91732 333 60000
OOXX RUP58 21171 99442 11320 ///// 01121 26/// /0301 11079 29068 30004 91742 333 60000
OOXX RUP58 21171 99442 11320 ///// 01121 26/// /1001 11078 29067 30006 91752 333 60000
OOXX RUP58 21181 99442 11320 ///// 01121 26/// /1201 11079 29067 30006 91802 333 60000
OOXX RUP58 21181 99442 11320 ///// 01121 26/// /1301 11083 29070 30005 91812 333 60000
OOXX RUP58 21181 99442 11320 ///// 01121 26/// /1401 11083 29073 30005 91822 333 60000
OOXX RUP58 21181 99442 11320 ///// 01121 26/// /1301 11079 29076 30005 91832 333 60000
OOXX RUP58 21181 99442 11320 ///// 01121 26/// /0601 11077 29074 30005 91842 333 60000
OOXX NOP49 21161 99782 10154 ///// 04691 26/// /0000 11093 29097 39515 91610 333 6///0
OOXX NOP49 21161 99782 10154 ///// 04691 26/// /0000 11102 29094 39514 91620 333 6///0
OOXX NOP49 21161 99782 10154 ///// 04691 26/// /0000 11104 29095 39514 91630 333 6///0
OOXX NOP49 21161 99782 10154 ///// 04691 26/// /0000 11082 29097 39515 91640 333 6///0
OOXX NOP49 21161 99782 10154 ///// 04691 26/// /0000 11090 29094 39514 91650 333 6///0
OOXX NOP49 21171 99782 10154 ///// 04691 26/// /0000 11106 29094 39514 91700 333 6///0
OOXX NOP49 21171 99782 10154 ///// 04691 26/// /0000 11108 29094 39513 91710 333 6///0
OOXX NOP49 21171 99782 10154 ///// 04691 26/// /0000 11108 29094 39513 91720 333 6///0
OOXX NOP49 21171 99782 10154 ///// 04691 26/// /0000 11092 29095 39512 91730 333 6///0
OOXX NOP49 21171 99782 10154 ///// 04691 26/// /0000 11112 29094 39510 91740 333 6///0
OOXX NOP49 21171 99782 10154 ///// 04691 26/// /0000 11093 29094 39510 91750 333 6///0
OOXX NOP49 21181 99782 10154 ///// 04691 26/// /0000 11090 29095 39510 91800 333 6///0
OOXX RUP54 21161 99586 10494 ///// 01271 26/// /0604 11079 29089 30070 91627 333 60120
OOXX RUP54 21161 99586 10494 ///// 01271 26/// /0604 11078 29089 30069 91637 333 60120
OOXX RUP54 21161 99586 10494 ///// 01271 26/// /0704 11078 29089 30069 91647 333 60120
OOXX RUP54 21161 99586 10494 ///// 01271 26/// /0504 11078 29089 30069 91657 333 60120
OOXX RUP54 21171 99586 10494 ///// 01271 26/// /0604 11077 29089 30068 91707 333 60120
OOXX RUP54 21171 99586 10494 ///// 01271 26/// /0604 11077 29089 30068 91717 333 60120
OOXX RUP54 21171 99586 10494 ///// 01271 26/// /0605 11076 29089 30068 91727 333 60120
OOXX RUP54 21171 99586 10494 ///// 01271 26/// /0604 11077 29089 30067 91737 333 60120
OOXX RUP54 21171 99586 10494 ///// 01271 26/// /0505 11077 29089 30068 91747 333 60120
OOXX RUP54 21171 99586 10494 ///// 01271 26/// /0604 11077 29089 30068 91757 333 60120
OOXX RUP54 21181 99586 10494 ///// 01271 26/// /0705 11077 29089 30069 91807 333 60120
OOXX RUP54 21181 99586 10494 ///// 01271 26/// /0603 11077 29089 30071 91817 333 60120
OOXX MRP43 21161 99181 70159 ///// 00101 26/// /0606 10272 29012 30135 91640 333 60000
OOXX MRP43 21161 99181 70159 ///// 00101 26/// /0707 10271 29011 30136 91650 333 60000
OOXX MRP43 21171 99181 70159 ///// 00101 26/// /0807 10270 29012 30138 91700 333 60000
OOXX MRP43 21171 99181 70159 ///// 00101 26/// /0807 10269 29012 30136 91710 333 60000
OOXX MRP43 21171 99181 70159 ///// 00101 26/// /0807 10268 29012 30139 91720 333 60000
OOXX MRP43 21171 99181 70159 ///// 00101 26/// /0707 10266 29012 30139 91730 333 60000
OOXX MRP43 21171 99181 70159 ///// 00101 26/// /0806 10265 29012 30140 91740 333 60000
OOXX MRP43 21171 99181 70159 ///// 00101 26/// /0706 10263 29012 30141 91750 333 60000
OOXX MRP43 21181 99181 70159 ///// 00101 26/// /0706 10261 29012 30142 91800 333 60000
OOXX MRP43 21181 99181 70159 ///// 00101 26/// /0805 10259 29012 30144 91810 333 60000
OOXX MRP43 21181 99181 70159 ///// 00101 26/// /0705 10257 29012 30144 91820 333 60000
OOXX MRP43 21181 99181 70159 ///// 00101 26/// /0705 10255 29012 30147 91830 333 60000
OOXX KIP39 21161 99020 51574 ///// 00181 26/// /1004 10251 29078 30095 91630 333 60000
OOXX KIP39 21161 99020 51574 ///// 00181 26/// /1005 10251 29078 30095 91640 333 60000
OOXX KIP39 21161 99020 51574 ///// 00181 26/// /1005 10251 29077 30096 91650 333 60000
OOXX KIP39 21171 99020 51574 ///// 00181 26/// /1004 10253 29078 30097 91700 333 60000
OOXX KIP39 21171 99020 51574 ///// 00181 26/// /1004 10254 29078 30099 91710 333 60000
OOXX KIP39 21171 99020 51574 ///// 00181 26/// /1004 10255 29077 30100 91720 333 60000
OOXX KIP39 21171 99020 51574 ///// 00181 26/// /1104 10257 29077 30099 91730 333 60000
OOXX KIP39 21171 99020 51574 ///// 00181 26/// /1004 10258 29076 30101 91740 333 60000
OOXX KIP39 21171 99020 51574 ///// 00181 26/// /1005 10259 29076 30102 91750 333 60000
OOXX KIP39 21181 99020 51574 ///// 00181 26/// /1004 10262 29075 30105 91800 333 60000
OOXX KIP39 21181 99020 51574 ///// 00181 26/// /1004 10260 29076 30104 91810 333 60000
OOXX KIP39 21181 99020 51574 ///// 00181 26/// /1104 10265 29075 30105 91820 333 60000
AAXX 21184 61017 32960 50000 10182 20045 39744 40158 80002 333 10275 58001 85080
AAXX 21184 61024 32960 51210 10230 21036 39572 40145 83032 333 10286 59001 83364 83080
AAXX 21184 61036 32965 70000 10285 20021 39878 40116 81038 333 10330 58012 81365 87280
AAXX 21184 61043 32960 70606 10270 21052 39675 40046 81038 333 10310 58003 81364 87280
AAXX 21184 61045 32965 50000 10232 21050 39630 40133 80002 333 10300 59005 85080
AAXX 21184 61049 32960 50000 10232 21009 39792 40115 80002 333 10306 59005 85080
AAXX 21184 61052 31958 30206 10285 20009 39862 40120 70611 80002 333 10327 59001 83080
AAXX 21184 61075 32960 50000 10275 20043 39799 40103 80002 333 10340 59002 85080
AAXX 21184 61080 32960 70000 10264 20008 39700 40122 80008 333 10310 58000 87280
AAXX 21184 61090 32965 50000 10250 21025 39602 40114 80002 333 10300 59008 85080
AAXX 21184 61091 32965 50000 10240 20086 39677 40138 80002 333 10318 58004 85080
AAXX 21184 61096 32965 73602 10246 21002 39744 40131 80008 333 10316 59002 87280
AAXX 21184 61099 32965 73606 10300 20039 39867 40094 80008 333 10340 59003 87280
AAXX 21184
AAXX 21184 63756 11480 40000 10210 20196 38865 48500 60592 71322 333 0//98 10285 59004 81819 81920
AAXX 21184 63791 32580 31118 10274 20146 39115 48506 83901 333 10334 55300 81927 83628
AAXX 21184 63832 32480 30000 10222 20198 38818 48488 82901 333 10273 55300 59016 82819 81921
AAXX 21184 63862 31580 72710 10236 20189 38895 48508 71322 84973 333 10290 59007 84624 81925 85358
AAXX 21184 63866 12580 50000 10237 20218 39511 48/// 60102 82530 333 10286 58000 82622 83358
AAXX 21184 63870 11459 80000 10236 20229 30091 40109 60122 79599 8593/ 333 0//13 10293 55300 58001 85814 81916 87358
AAXX 21184 63881 02480 70000 10176 20162 38195 48/// 69952 83920 333 10246 59013 69907 83614 81919 83457
AAXX 21184 63887 01580 81205 10188 20170 38587 48504 60032 76065 8637/ 333 10266 55300 59007 60036 84820 81923 87358
AAXX 21184 63894 11480 80000 10236 20234 30054 40114 60182 71392 8492/ 333 0//11 10263 55300 58002 84818 81920 88457
AAXX 21184 63932 02580 80000 10168 20167 38305 48502 60052 8292/ 333 59009 60036 83820 81921 88458
AAXX 21184 63971 32580 50000 10241 20235 39988 40118 8493/ 333 10304 55300 58008 81921 84358
AAXX 21184 63729 NIL
AAXX 21184 63733 NIL
AAXX 21184 63801 NIL
AAXX 21184 63962 NIL
AAXX 21184 61017 32960 50000 10182 20045 39744 40158 80002 333 10275 58001 85080
AAXX 21184 61024 32960 51210 10230 21036 39572 40145 83032 333 10286 59001 83364 83080
AAXX 21184 61036 32965 70000 10285 20021 39878 40116 81038 333 10330 58012 81365 87280
AAXX 21184 61043 32960 70606 10270 21052 39675 40046 81038 333 10310 58003 81364 87280
AAXX 21184 61045 32965 50000 10232 21050 39630 40133 80002 333 10300 59005 85080
AAXX 21184 61049 32960 50000 10232 21009 39792 40115 80002 333 10306 59005 85080
AAXX 21184 61052 31958 30206 10285 20009 39862 40120 70611 80002 333 10327 59001 83080
AAXX 21184 61075 32960 50000 10275 20043 39799 40103 80002 333 10340 59002 85080
AAXX 21184 61080 32960 70000 10264 20008 39700 40122 80008 333 10310 58000 87280
AAXX 21184 61090 32965 50000 10250 21025 39602 40114 80002 333 10300 59008 85080
AAXX 21184 61091 32965 50000 10240 20086 39677 40138 80002 333 10318 58004 85080
AAXX 21184 61096 32965 73602 10246 21002 39744 40131 80008 333 10316 59002 87280
AAXX 21184 61099 32965 73606 10300 20039 39867 40094 80008 333 10340 59003 87280
AAXX 21184 61017 32960 50000 10182 20045 39744 40158 80002 333 10275 58001 85080
AAXX 21184 61024 32960 51210 10230 21036 39572 40145 83032 333 10286 59001 83364 83080
AAXX 21184 61036 32965 70000 10285 20021 39878 40116 81038 333 10330 58012 81365 87280
AAXX 21184 61043 32960 70606 10270 21052 39675 40046 81038 333 10310 58003 81364 87280
AAXX 21184 61045 32965 50000 10232 21050 39630 40133 80002 333 10300 59005 85080
AAXX 21184 61049 32960 50000 10232 21009 39792 40115 80002 333 10306 59005 85080
AAXX 21184 61052 31958 30206 10285 20009 39862 40120 70611 80002 333 10327 59001 83080
AAXX 21184 61075 32960 50000 10275 20043 39799 40103 80002 333 10340 59002 85080
AAXX 21184 61080 32960 70000 10264 20008 39700 40122 80008 333 10310 58000 87280
AAXX 21184 61090 32965 50000 10250 21025 39602 40114 80002 333 10300 59008 85080
AAXX 21184 61091 32965 50000 10240 20086 39677 40138 80002 333 10318 58004 85080
AAXX 21184 61096 32965 73602 10246 21002 39744 40131 80008 333 10316 59002 87280
AAXX 21184 61099 32965 73606 10300 20039 39867 40094 80008 333 10340 59003 87280
AAXX 21184 61017 32960 50000 10182 20045 39744 40158 80002 333 10275 58001 85080
AAXX 21184 61024 32960 51210 10230 21036 39572 40145 83032 333 10286 59001 83364 83080
AAXX 21184 61036 32965 70000 10285 20021 39878 40116 81038 333 10330 58012 81365 87280
AAXX 21184 61043 32960 70606 10270 21052 39675 40046 81038 333 10310 58003 81364 87280
AAXX 21184 61045 32965 50000 10232 21050 39630 40133 80002 333 10300 59005 85080
AAXX 21184 61049 32960 50000 10232 21009 39792 40115 80002 333 10306 59005 85080
AAXX 21184 61052 31958 30206 10285 20009 39862 40120 70611 80002 333 10327 59001 83080
AAXX 21184 61075 32960 50000 10275 20043 39799 40103 80002 333 10340 59002 85080
AAXX 21184 61080 32960 70000 10264 20008 39700 40122 80008 333 10310 58000 87280
AAXX 21184 61090 32965 50000 10250 21025 39602 40114 80002 333 10300 59008 85080
AAXX 21184 61091 32965 50000 10240 20086 39677 40138 80002 333 10318 58004 85080
AAXX 21184 61096 32965 73602 10246 21002 39744 40131 80008 333 10316 59002 87280
AAXX 21184 61099 32965 73606 10300 20039 39867 40094 80008 333 10340 59003 87280
AAXX 21184 96745 01456 82603 10269 20242 30080 40085 52012 60021 76162 8552/ 333 56009 60027 85618 88459
AAXX 21184 91559 46/// /0000 10245 40066 22200 00280
AAXX 21184 71988 16/// /1815 10051 20035 30163 40183 56031 60001 333 10051 21040 70000
AAXX 21184 71373 17/// /1603 10034 20004 60011 7//4/ 333 10034 21086 70010
AAXX 21184 71390 46/// /0103 11070 6///1 333 11070 21134 7////
AAXX 21184 71724 16/// /0406 11046 21074 30101 40109 58035 60001 333 11044 21119 70000
AAXX 21184 71732 16/// /1405 10015 21010 60001 333 10015 21063 70000
AAXX 21184 71411 16/// /1919 10040 20002 30188 40201 56036 60001 333 10040 21094 70000
AAXX 21184 71846 16/// /3607 11159 21184 39769 40090 51029 60001 333 11030 21160 70000
AAXX 21184 71323 16/// /1801 11061 21094 39826 40115 57034 60001 333 11061 21174 70000
AAXX 21184 63688 32480 10907 10121 20084 48/// 81900 333 10237 59006 81918
AAXX 21184 63695 32980 20000 10158 20143 82030 333 10250 82358
AAXX 21184 63708 32580 33304 10224 20194 48486 81930 333 10298 59008 81923 83359
AAXX 21184 63772 12580 1//03 10274 20252 60092 81933 333 10325 81923
AAXX 21184 63820 32580 10510 10278 20238 40113 81906 333 10340 58005 81822 81923
AAXX 21184 63612 NIL
AAXX 21184 63661 NIL
AAXX 21184 63671 NIL
AAXX 21184 63714 NIL
AAXX 21184 63723 NIL
AAXX 21184 63740 NIL
AAXX 21184 63793 NIL
AAXX 21184 71411 16/// /1919 10040 20002 30188 40201 56036 60001 333 10040 21094 70000
AAXX 21184 71373 17/// /1603 10034 20004 60011 7//4/ 333 10034 21086 70010
AAXX 21184 71390 46/// /0103 11070 6///1 333 11070 21134 7////
AAXX 21184 71724 16/// /0406 11046 21074 30101 40109 58035 60001 333 11044 21119 70000
AAXX 21184 71732 16/// /1405 10015 21010 60001 333 10015 21063 70000
AAXX 21184 71846 16/// /3607 11159 21184 39769 40090 51029 60001 333 11030 21160 70000
AAXX 21184 71988 16/// /1815 10051 20035 30163 40183 56031 60001 333 10051 21040 70000
AAXX 21184 71323 16/// /1801 11061 21094 39826 40115 57034 60001 333 11061 21174 70000
AAXX 21184 65001 31940 70000 10260 20144 3//// 4//// 70522 80008 333 10355 5//// 87280
AAXX 21184 65010 32960 70000 10265 20052 39769 40109 80008 333 10335 58003 87280
AAXX 21184 65046 32960 60607 10240 20065 39586 40128 80008 333 10302 58002 86280
AAXX 21184 65101 32956 73604 10292 20130 3//// 40084 70522 80008 333 10340 58001 87280
AAXX 21184 65112 31956 71104 10290 20147 3//// 4//// 70522 80008 333 10350 5//// 87280
AAXX 21184 65125 31960 61906 10294 20099 30715 40118 70522 80008 333 10351 59005 86280
AAXX 21184 65134 11962 51012 10208 20029 38716 60002 70522 80008 333 10292 59002 85280
AAXX 21184 65145 32970 70502 10297 20194 3//// 4//// 80008 333 10350 87280
AAXX 21184 65167 12956 70000 10290 20124 30897 40104 60001 80008 333 10360 59016 87280
AAXX 21184 65201 31958 61904 10286 20252 30065 40118 70522 80008 333 10334 59001 86280 91106
AAXX 21184 65205 31550 70000 10285 20260 3//// 40099 70522 80008 333 10315 58002 87280
AAXX 21184 65213 12460 71809 10300 20211 3//// 4//// 60001 84528 333 10344 5//// 84615 85460 87280
AAXX 21184 65215 12466 70000 10283 20203 3//// 4//// 69991 82538 333 10336 5//// 82612 83360 86280
AAXX 21184 65229 12957 72204 10295 20234 30013 40102 60002 80008 333 10332 59001 87280
AAXX 21184 65257 31950 31950 20208 30000 40075 70522 333 10344 59004 87280
AAXX 21184 65271 11959 70000 10299 20152 30994 40092 60001 70522 80008 333 10347 59006 87280
AAXX 21184 63705 32565 32003 10220 20177 38847 48502 81101 333 10250 59006 81823 555 10190
BBXX 46208 21181 99525 71327 46/// /1510 10078 40266 57023 22200 00075 11205 70026 333 91212
AAXX 21184 63705 32565 32003 10220 20177 38847 48502 81101 333 10250 59006 81823 555 10190
AAXX 21184 91531 46/// /1204 1//// 40046 22200 00271
AAXX 21184 65501 32960 73602 10277 21028 39808 40125 80002 333 10317 58007 87076
AAXX 21184 65502 32965 73602 10280 21047 39735 40115 80002 333 10320 58002 87076
AAXX 21184 65503 31956 70406 10290 20113 39768 40113 70622 80002 333 10330 58003 87076
AAXX 21184 65505 32960 63606 10300 21025 39774 40112 80002 333 10340 58009 86076
AAXX 21184 65507 32960 73604 10288 20053 39761 40109 80002 333 10345 58004 87076
AAXX 21184 65510 31958 60208 10296 21001 39591 40097 70622 80002 333 10330 58002 85076
AAXX 21184 65516 32965 50404 10300 20008 39795 40102 80002 333 10335 58000 85076
AAXX 21184 65518 32965 73604 10293 20007 39733 40095 80002 333 10340 58000 87076
AAXX 21184 65522 32960 70000 10316 20026 39772 40100 80002 333 10355 58001 87076
AAXX 21184 DUPE
AAXX 21184 82586 32598 40906 10350 20230 39832 40066 84200 333 58000
AAXX 21184 82678 32596 62705 10311 20205 39931 40068 85200 333 59015
AAXX 21184 82784 32598 42702 10320 20253 39628 40074 84100 333 58000
AAXX 21184 82791 32599 50904 10355 20195 39791 40065 85200 333 58002
AAXX 21184 82983 32598 30505 10340 20207 39664 40068 82105 333 59006
AAXX 21184 65338 32958 51804 10305 20215 39908 40094 80002 333 10346 59003 85076
AAXX 21184 DUPE
AAXX 21184 71016 16/// ///// 11044 60001 333 11006 21048 70000
AAXX 21184 41264 36/70 /1009 10193 20056 39818 40190 333 0E021 10245 58006
BBXX 44056 21181 99362 70757 46/// ///// 1//// 91820 22200 00124 11301 21001 309// 41301 70007
AAXX 21184 71016 16/// ///// 11044 60001 333 11006 21048 70000
BBXX 42085 21181 99179 70665 46/// /0708 10277 40151 91800 22200 00275 10502 70012 333 91210
BBXX 46109 21181 99481 71234 46/// /1402 10055 40338 91757 22200 00078
BBXX 46110 21181 99481 71230 46/// /2404 10057 40335 91758
BBXX 44055 21181 99391 70753 46/// ///// 1//// 91830 22200 00090 10402 70008
AAXX 21184 91642 46/// /0000 1//// 40057 22200 0////
AAXX 21184 42706 31995 00000 10126 20095 40159 70500 333 58004
AAXX 21184 42809 31995 00000 10136 20121 40150 70500 333 59002
AAXX 21181 22165 11598 81705 10000 21015 30022 40084 58011 69950 70282 885// 333 10006
AAXX 21184 82594 32697 20910 10310 20229 30072 40080 82110 333 59008
AAXX 21184 82780 32598 31408 10362 20174 39838 40082 83200 333 58002
AAXX 21184 82795 32597 31407 10290 20197 39490 40098 83200 333 59010
AAXX 21184 82879 32598 40503 10360 20177 39804 40063 84400 333 59003
AAXX 21184 82893 32798 61804 10286 20192 39196 40083 86200 333 58000
BBXX OXES2 21184 99399 70311 41096 71532 10170 20154 40190 56020 7//21 8774/ 22274 00170 21006 30499 40000 50000 6//// 80160 ICE /////
AAXX 21184 71971 17/// /0511 11184 21222 39962 40008 58001 69931 7//4/ 333 11182 21253 70003
AAXX 21184 71363 16/// /3418 11301 21334 30000 40057 53015 60001 333 11279 21367 70000
AAXX 21184 71971 17/// /0511 11184 21222 39962 40008 58001 69931 7//4/ 333 11182 21253 70003
AAXX 2118/ 89868 46/// ///// 11065 39720 4//// 5////
AAXX 2118/ 89769 46/// ///// 11054 39759 4//// 5//// 91810
AAXX 2118/ 89327 46/// ///// 11031 39591 4//// 5////
AAXX 2118/ 89879 46/// ///// 11014 39683 4//// 5////
AAXX 21184 92036 46/// /2502 10260 40030 22200 00317
AAXX 21181 89329 46/// ///// 11080 38845 4//// 5//// 91810
AAXX 21181 89329 46/// ///// 11071 38846 4//// 5//// 91840
AAXX 21181 89828 46/// ///// 11305 36472 4//// 5//// 91840
AAXX 21181 89108 46/// ///// 11171 36982 4//// 5//// 91840
AAXX 21181 89879 46/// ///// 11014 39684 4//// 5//// 91840
AAXX 21181 89667 46/// ///// 4//// 5//// 91810
AAXX 21181 89872 46/// ///// 11015 39732 4//// 5//// 91840
AAXX 21181 89869 46/// ///// 11065 39747 4//// 5//// 91840
AAXX 21181 89866 46/// ///// 11018 39679 4//// 5//// 91830
AAXX 21181 89866 46/// ///// 11019 39680 4//// 5//// 91840
AAXX 21181 89799 46/// ///// 11223 4//// 5//// 91830
AAXX 21181 89799 46/// ///// 11225 4//// 5//// 91840
AAXX 21181 89332 46/// ///// 11041 39309 4//// 5//// 91840
AAXX 21181 89769 46/// ///// 11054 39766 4//// 5//// 91840
AAXX 21184 97810 01458 63012 10265 20252 30021 40030 56019 60011 70262 83232 333 56700 57871 60047 83819 80845
BBXX 42045 21181 99262 70965 46/// /0607 10190 40137 57017 91800 22200 00219 333 91208
BBXX 42044 21181 99262 70971 46/// /0304 10176 20149 40131 91830 22200 00171 333 91206
BBXX 42044 21181 99262 70971 46/// /3603 10175 20148 40140 57020 91800 22200 00171 333 91205
BBXX 42046 21181 99279 70940 46/// /0507 1//// 40145 91830 22200 00226 333 91209
BBXX 42046 21181 99279 70940 46/// /0507 1//// 40153 57016 91800 22200 00226 333 91208
BBXX 42047 21181 99279 70936 46/// /0607 10161 20118 40143 91830 22200 00225 333 91208
BBXX 42047 21181 99279 70936 46/// /0507 10162 20117 40151 58017 91800 22200 00225 333 91208
BBXX 63110 21184 99595 10015 47497 /1828 10060 20027 40055 57035 751// 22200 10504 70018
BBXX 63106 21184 99610 10017 46/// /1628 10039 40053 57017 22200
BBXX 63113 21184 99610 10017 46/// /1627 10041 20019 40053 57018 22200 10605 70027
BBXX 62094 21184 99517 70067 46/// /26// 10116 20100 40244 52016 22200 00106 10503 70017
BBXX 62103 21184 99499 70029 46/99 /3125 10123 20104 40240 52017 22200 00123 10703 70014 333 90710 91131
BBXX 46094 21181 99446 71243 46/// /3304 10075 91830
BBXX 46094 21181 99446 71243 46/// /3203 10075 91820
BBXX 46094 21181 99446 71243 46/// /3202 10076 91810
BBXX 46094 21181 99446 71243 46/// /0103 10074 91800
BBXX 46094 21181 99446 71243 46/// /0703 10076 91750
BBXX 46094 21181 99446 71243 46/// /0901 10076 91740
AAXX 21184 93713 46/// /0000 10148 40271 22200 00157
BBXX 44055 21181 99391 70753 46/// ///// 1//// 91830 22200 00090 10402 70008
BBXX 46110 21181 99481 71230 46/// /2404 10057 40335 91758
BBXX 46109 21181 99481 71234 46/// /1402 10055 40338 91757 22200 00078
BBXX 42085 21181 99179 70665 46/// /0708 10277 40151 91800 22200 00275 10502 70012 333 91210
BBXX 44056 21181 99362 70757 46/// ///// 1//// 91820 22200 00124 11301 21001 309// 41301 70007
BBXX OXES2 21184 99399 70311 41096 71532 10170 20154 40190 56020 7//21 8774/ 22274 00170 21006 30499 40000 50000 6//// 80160 ICE /////
OOXX AAPIG 21184 99758 51003 56251 08502 46/// /1609 11047 21188 38926 49891 57007 91750
AAXX 21184 91689 46/// /3533 10246 40096 22200 00230
BBXX FHZI 21184 99658 31434 46/// /2823 11012 21027 39853 49864 57019 22242 05019 86018
BBXX 3EEE2 21184 99156 70772 43697 42718 10280 20260 40116 51005 70303 87717 91800 22233 04270 2//10 303// 41103 80240
AAXX 21184 78762 32670 11008 10275 20152 39073 40080 58010 81500 333 10277 20183 30/// 562// 59011 81635
AAXX 21184 78762 32670 11008 10275 20152 39073 40080 58010 81500 333 10277 20183 30/// 562// 59011 81635
BBXX V2QD4 21183 99381 31786 41698 61015 10180 20164 40295 51010 70311 85864 22243 00200 20301 313// 41002
BBXX ZMENA 21184 99366 31757 46/// ///// 10167 20142 40268 57002 22273
BBXX VRDX2 21183 99085 31285 41497 82821 10285 20244 40005 7//// 87727 22264 00320 20503
BBXX V2QD4 21183 99381 31786 41698 61015 10180 20164 40295 51010 70311 85864 22243 00200 20301 313// 41002
BBXX ZMENA 21184 99366 31757 46/// ///// 10167 20142 40268 57002 22273
BBXX VRDX2 21183 99085 31285 41497 82821 10285 20244 40005 7//// 87727 22264 00320 20503
BBXX MINUK01 2118/ 99571 70021 46/// ///// 10075 40087 57009
AAXX 21184 78762 32670 11008 10275 20152 39073 40080 58010 81500 333 10277 20183 30/// 562// 59011 81635
BBXX 46094 21181 99446 71243 46/// /0703 10076 91750
BBXX 46094 21181 99446 71243 46/// /0901 10076 91740
BBXX 46094 21181 99446 71243 46/// /0103 10074 91800
BBXX 46094 21181 99446 71243 46/// /3202 10076 91810
BBXX 46094 21181 99446 71243 46/// /3304 10075 91830
BBXX 46094 21181 99446 71243 46/// /3203 10075 91820
BBXX 42047 21181 99279 70936 46/// /0607 10161 20118 40143 91830 22200 00225 333 91208
BBXX 42047 21181 99279 70936 46/// /0507 10162 20117 40151 58017 91800 22200 00225 333 91208
BBXX 42046 21181 99279 70940 46/// /0507 1//// 40153 57016 91800 22200 00226 333 91208
BBXX 42046 21181 99279 70940 46/// /0507 1//// 40145 91830 22200 00226 333 91209
BBXX 42045 21181 99262 70965 46/// /0607 10190 40137 57017 91800 22200 00219 333 91208
BBXX 42044 21181 99262 70971 46/// /3603 10175 20148 40140 57020 91800 22200 00171 333 91205
BBXX 42044 21181 99262 70971 46/// /0304 10176 20149 40131 91830 22200 00171 333 91206
BBXX SHIP 21184 99156 70772 43697 42718 10280 20260 40116 51005 70303 87717 91800 22233 04270 2//10 303// 41103 80240
AAXX 21184 04418 NIL
AAXX 21184 04425 NIL
AAXX 21184 04432 NIL
AAXX 21184 04436 NIL
AAXX 21184 04464 46/// /1908 11392 21431 333 553// 20004
AAXX 21184 04485 46/// /0000 11428 21459 37131 57003 333 553// 20000
AAXX 21184 04488 NIL
BBXX SKEC 21181 99592 10199 46/// ///// 10025 40099 52015 22241 00109
AAXX 21184 89013 46/// /0918 11128 21162 37578 49535 57009 91800
AAXX 21184 89257 46/// /2512 11070 21094 39800 49870 57018 91800
AAXX 21184 89266 46/// /3206 11036 21065 39764 49903 5//// 91800
AAXX 21184 89272 46/// /3108 11070 21121 38079 49692 57014 91800
AAXX 21184 64005 NIL
AAXX 21184 64040 NIL
AAXX 21184 64210 12460 82904 10246 20225 39757 40108 60082 8597/ 333 10265 58019 84616 81928 87360 95383
AAXX 21184 64360 NIL
AAXX 21181 98132 11460 80902 10221 20205 40168 58019 60041 76166 8657/ 333 56299 86616 88357
AAXX 21181 98133 NIL
AAXX 21181 98222 31575 10000 10243 20225 40098 58008 70544 81200 333 56999 81820
AAXX 21181 98233 31570 80000 10235 20214 40107 58014 70544 885// 333 56999 88620
AAXX 21181 98324 31462 40401 10260 20241 40086 58018 70544 81101 333 56999 81816 84080
AAXX 21181 98327 31665 33102 10229 20201 39926 40100 57014 70544 81108 333 56999 81842 83280
AAXX 21181 98334 32465 83402 10237 20213 39904 40109 57013 8227/ 333 56999 82818 88358
AAXX 21181 98425 32557 60201 10267 20238 40098 58017 82878 333 56999 82820 86280
AAXX 21181 98426 31562 10803 10251 20221 40098 58013 70544 81100 333 56999 81820
AAXX 21181 98427 32475 40000 10244 20225 39902 40080 58018 82260 333 56999 82818 83356
AAXX 21181 98428 32458 40901 10261 20237 40092 58011 81431 333 56999 81618
AAXX 21181 98432 31568 40402 10252 20236 40095 58016 70544 82202 333 56999 82820
AAXX 21181 98433 32460 30706 10215 20182 39378 40097 57014 81230 333 56999 81812
AAXX 21181 98434 32470 40000 10236 20229 30092 40100 58016 83201 333 56199 83818 98746 31462 61802 10247 20221 40069 58028 70544 82206 333 56999 82818 85075
AAXX 21181 98435 32468 70402 10257 20237 40091 5//// 84270 333 56999 84818 87358
AAXX 21181 98442 NIL
AAXX 21181 98446 11462 82701 10240 20235 30062 40108 58012 60051 72562 84207 333 56299 84818 88270
AAXX 21181 98447 32465 60403 10240 20228 39830 40094 5//// 83202 333 56199 83818 85070
AAXX 21181 98538 32464 53605 10264 20245 30080 40085 58015 82206 333 56199 82811 83072
AAXX 21181 98546 32575 60000 10258 20243 30075 40083 57107 82208 333 56999 82820 86275
AAXX 21181 98548 32465 10000 10255 20238 30074 40080 56006 81100 333 56999 81816
AAXX 21181 98553 11466 53201 10247 20238 30080 40084 57016 60011 70584 83201 333 56999 83818 85075
AAXX 21181 98558 32464 50507 10270 20253 40085 58011 83970 333 56999 81915 83357
AAXX 21181 98642 31462 40000 10238 20221 30066 40075 58004 70544 82202 333 56199 82815 84072
AAXX 21181 98644 32465 60603 10250 20236 30066 40075 56018 81278 333 56999 81817 83358 85272
AAXX 21181 98648 31470 43602 10235 20214 30000 40082 57014 70544 81201 333 56299 81817 83075
AAXX 21181 98746 NIL
AAXX 21181 98751 32470 10000 10170 20165 39400 40071 57018 81200 333 56999 81815
AAXX 21181 98752 32460 70000 10253 20245 40088 58016 82270 333 56999 82818 87358
AAXX 21181 98851 31470 42702 10242 20220 39917 40064 58018 70544 81270 333 56999 81818 84358
BBXX 63110 21183 99595 10015 41/96 /1736 10061 40052 762// 8//// 22200 10604 70020
BBXX 63106 21184 99610 10017 46/// /1628 10039 40053 57017 22200
BBXX 63105 21184 99610 10017 47495 ///// 10035 20017 40056 57013 761// 22200
BBXX 62103 21184 99499 70029 46/98 /3118 10119 20104 40232 52013 22200 00123 10703 70015 333 90710 91128
BBXX 62094 21184 99517 70067 46/// /2617 10116 20100 40244 52016 22200 00106 10503 70017
BBXX 42013 21181 99272 70829 46/// ///// 1//// 40189 91820 22200 00199
BBXX 42013 21181 99272 70829 46/// ///// 1//// 40190 58019 91800 22200 00199
BBXX VRDX2 21183 99085 31285 41497 82821 10285 20244 40005 7//// 87727 22264 00320 20503
BBXX V2QD4 21183 99381 31786 41698 61015 10180 20164 40295 51010 70311 85864 22243 00200 20301 313// 41002
BBXX ZMENA 21184 99366 31757 46/// ///// 10167 20142 40268 57002 22273
BBXX FHZI 21184 99658 31434 46/// /2823 11012 21027 39853 49864 57019 22242 05019 86018
BBXX SKEC 21181 99592 10199 46/// ///// 10025 40099 52015 22241 00109
AAXX 21184 71408 46/// /2724 11017 21065 30097 40178 53006 6///1 333 11016 21042 7////
AAXX 21184 71408 46/// /2724 11017 21065 30097 40178 53006 6///1 333 11016 21042 7////
BBXX 42369 21181 99272 70903 46/// /2301 1//// 91740 22200 10604 70018
BBXX 42370 21181 99273 70905 46/// ///// 10222 91740 22200 10402 70011
BBXX 42376 21181 99291 70879 46/// /1804 10232 40138 91740 22200 10704 70019
BBXX 42887 21181 99282 70885 46/// /2608 1//// 91740 22200 10604 70020
BBXX 42887 21181 99282 70885 46/// /2608 1//// 91740 22200 10604 70020
BBXX 42376 21181 99291 70879 46/// /1804 10232 40138 91740 22200 10704 70019
BBXX 42369 21181 99272 70903 46/// /2301 1//// 91740 22200 10604 70018
BBXX 42370 21181 99273 70905 46/// ///// 10222 91740 22200 10402 70011
BBXX 42013 21181 99272 70829 46/// ///// 1//// 40190 58019 91800 22200 00199
BBXX 42013 21181 99272 70829 46/// ///// 1//// 40189 91820 22200 00199
BBXX MGSH7 21183 99551 10110 41598 62712 10030 20017 40152 52030 70322 8/9// 22243 20201 332// 40504 5//// 80025
BBXX A8HJ8 21183 99012 11034 41/96 /3511 10261 20246 40089 51009 70222 8//// 222// 00/// 20402 80250
BBXX A8CG7 21180 99079 31218 41497 52705 10290 20270 40040 56020 70322 83770 22225 04275 20402 80275
BBXX DGZS2 21183 99351 11216 41497 50124 10030 20/// 40295 5//// 70200 83648 22234 00120 20605 303// 40604
BBXX MGRX9 21184 99001 30841 41597 42416 10280 20244 40082 52005 72166 848// 22233 00266 20602 80255
BBXX VRZK8 21184 99144 11138 41897 63223 10260 20238 40110 50010 70322 86070 22214 04255 20506 80245
BBXX 9MBW7 21184 99385 11383 41498 /2103 10070 20040 40110 54001 70003 8//// 22213 00150 2//// 80045
BBXX 63110 21184 99595 10015 47497 /1828 10060 20027 40055 57035 751// 22200 10504 70018
BBXX 63106 21184 99610 10017 46/// /1628 10039 40053 57017 22200
BBXX 63113 21184 99610 10017 46/// /1627 10041 20019 40053 57018 22200 10605 70027
BBXX 62094 21184 99517 70067 46/// /26// 10116 20100 40244 52016 22200 00106 10503 70017
BBXX 62103 21184 99499 70029 46/99 /3125 10123 20104 40240 52017 22200 00123 10703 70014 333 90710 91131
AAXX 21184 62600 32970 53608 10220 20055 39956 40170 80005 333 10265 56009 59003 85080
AAXX 21184 62641 11558 43605 10255 20225 30103 40151 69902 70611 84500 333 10190 56900 59006 84630
AAXX 21184 62650 32970 70112 10245 20055 39866 40136 80007 333 10302 56009 59008 87275
AAXX 21184 62680 31968 03604 10280 20150 39704 40095 70610 333 10350 58002
AAXX 21184 62721 32970 73402 10275 20085 39671 40105 80007 333 10335 56009 59003 87275
AAXX 21184 62730 32970 00203 10290 20120 39580 40136 333 10350 58000
AAXX 21184 62751 32970 73204 10270 20054 39647 40102 80007 333 10367 56009 58009 87275
AAXX 21184 62771 32970 73604 10250 20060 39474 40116 80007 333 10315 56009 58004 87275
AAXX 21184 62781 32970 70302 10220 20080 39483 40119 80007 333 10330 56009 59003 87275
AAXX 21184 62805 32970 73202 10280 20120 39545 40065 80007 333 10375 56009 59005 87275
AAXX 21184 62600 32970 53608 10220 20055 39956 40170 80005 333 10265 56009 59003 85080
AAXX 21184 62641 11558 43605 10255 20225 30103 40151 69902 70611 84500 333 10190 56900 59006 84630
AAXX 21184 62650 32970 70112 10245 20055 39866 40136 80007 333 10302 56009 59008 87275
AAXX 21184 62680 31968 03604 10280 20150 39704 40095 70610 333 10350 58002
AAXX 21184 62721 32970 73402 10275 20085 39671 40105 80007 333 10335 56009 59003 87275
AAXX 21184 62730 32970 00203 10290 20120 39580 40136 333 10350 58000
AAXX 21184 62751 32970 73204 10270 20054 39647 40102 80007 333 10367 56009 58009 87275
AAXX 21184 62771 32970 73604 10250 20060 39474 40116 80007 333 10315 56009 58004 87275
AAXX 21184 62781 32970 70302 10220 20080 39483 40119 80007 333 10330 56009 59003 87275
AAXX 21184 62805 32970 73202 10280 20120 39545 40065 80007 333 10375 56009 59005 87275
BBXX WCZ5238 21183 99225 11621 41798 40914 10250 20207 40160 54/// 7//11 841// 22264 02270 20803 309// 41005 5//// 6//// 80220 ICE /////
BBXX SHIP 21184 99385 11383 41498 /2103 10070 20040 40110 54001 70003 8//// 22213 00150 2//// 80045
BBXX SHIP 21184 99144 11138 41897 63223 10260 20238 40110 50010 70322 86070 22214 04255 20506 80245
BBXX DGZS2 21183 99351 11216 41497 50124 10030 20/// 40295 5//// 70200 83648 22234 00120 20605 303// 40604
BBXX WCZ5238 21183 99225 11621 41798 40914 10250 20207 40160 54/// 7//11 841// 22264 02270 20803 309// 41005 5//// 6//// 80220 ICE /////
BBXX A8CG7 21180 99079 31218 41497 52705 10290 20270 40040 56020 70322 83770 22225 04275 20402 80275
BBXX MGRX9 21184 99001 30841 41597 42416 10280 20244 40082 52005 72166 848// 22233 00266 20602 80255
BBXX A8HJ8 21183 99012 11034 41/96 /3511 10261 20246 40089 51009 70222 8//// 222// 00/// 20402 80250
BBXX MGSH7 21183 99551 10110 41598 62712 10030 20017 40152 52030 70322 8/9// 22243 20201 332// 40504 5//// 80025
BBXX MGRX9 21184 99001 30841 41597 42416 10280 20244 40082 52005 72166 848// 22233 00266 20602 80255
BBXX SLKU 21183 99202 11337 41/// /0920 10250 40110 50004 76011 8//// 22274 00280 2////
AAXX 21174 91697 14/// /1401 10232 20225 30094 40099 50001
AAXX 21184 91697 14/// /1101 10229 20221 30100 40105 55013 60231
AAXX 21184 91691 14/// /0500 10256 20244 30096 40099 50007 60001
AAXX 21174 91691 14/// /0701 10256 20240 30089 40092 50001
AAXX 21174 91676 14/// /0804 10267 20229 30019 40079 50002
AAXX 21174 91699 14/// /0703 10254 20246 30069 40101 50003
AAXX 21184 91699 14/// /0502 10253 20244 30077 40109 50010 60011
AAXX 21184 91676 14/// /0805 10268 20234 30021 40081 52006 60001
AAXX 21184 91375 46/// /0308 10238 40065 22200 00282
BBXX 42369 21181 99272 70903 46/// /2401 1//// 91800 22200 10704 70020
BBXX 42370 21181 99273 70905 46/// ///// 10223 91800 22200 10402 70011
BBXX 42376 21181 99291 70879 46/// /2605 10233 40135 58019 91800 22200 10604 70018
BBXX 42887 21181 99282 70885 46/// /2606 1//// 91800 22200 10604 70019
AAXX 21183 91565 31598 80612 10245 20215 4//// 5//// 70222 8587/ 333 5699/ 82822 84820 88461
AAXX 21183 91565 31598 80612 10245 20215 4//// 5//// 70222 8587/ 333 5699/ 82822 84820 88461
AAXX 21184 91165 12566 60519 10228 20183 30142 40176 53012 60011 91753
AAXX 21184 91212 12566 40807 10267 20222 31342 40078 56013 69901 91754
AAXX 21184 91245 32566 40716 10260 20240 30134 91755
AAXX 21184 91285 31461 83003 10210 20200 30151 761// 91802
AAXX 21184 91334 11474 80410 10272 20241 30042 40045 55017 60031 70282 82171
AAXX 21184 91348 11474 80603 10268 20249 30008 40061 57012 60041 72582 8527/
AAXX 21184 91376 32474 80610 10278 20230 30061 40064 53007 85878
AAXX 21184 91408 11466 80504 10272 20250 30014 40052 57019 69901 78022 889//
AAXX 21184 91413 11466 70712 10268 20244 30037 40062 57020 69951 78081 83272
AAXX 21184 91155 NIL
AAXX 21184 91203 NIL
AAXX 21184 91217 NIL
AAXX 21184 91232 NIL
AAXX 21184 91250 NIL
AAXX 21184 91275 NIL
AAXX 21184 91317 NIL
AAXX 21184 91324 NIL
AAXX 21184 91339 NIL
AAXX 21184 91353 NIL
AAXX 21184 91356 NIL
AAXX 21184 91366 NIL
AAXX 21184 91367 NIL
AAXX 21184 91369 NIL
AAXX 21184 91371 NIL
AAXX 21184 91378 NIL
AAXX 21184 91425 NIL
AAXX 21184 91434 NIL
AAXX 21184 91601 NIL
AAXX 21184 91610 NIL
BBXX 9MBW7 21184 99385 11383 41498 /2103 10070 20040 40110 54001 70003 8//// 22213 00150 2//// 80045
BBXX DGZS2 21183 99351 11216 41497 50124 10030 20/// 40295 5//// 70200 83648 22234 00120 20605 303// 40604
BBXX SHIP 21184 99385 11383 41498 /2103 10070 20040 40110 54001 70003 8//// 22213 00150 2//// 80045
BBXX 63110 21183 99595 10015 41/96 /1736 10061 40052 762// 8//// 22200 10604 70020
BBXX 63106 21184 99610 10017 46/// /1628 10039 40053 57017 22200
BBXX 63105 21184 99610 10017 47495 ///// 10035 20017 40056 57013 761// 22200
BBXX 62103 21184 99499 70029 46/98 /3118 10119 20104 40232 52013 22200 00123 10703 70015 333 90710 91128
BBXX 62094 21184 99517 70067 46/// /2617 10116 20100 40244 52016 22200 00106 10503 70017
AAXX 21184 91165 12566 60519 10228 20183 30142 40176 53012 60011 91753
AAXX 21184 91212 12566 40807 10267 20222 31342 40078 56013 69901 91754
AAXX 21184 91285 31461 83003 10210 20200 30151 761// 91802
AAXX 21184 91334 11474 80410 10272 20241 30042 40045 55017 60031 70282 82171
AAXX 21184 91348 11474 80603 10268 20249 30008 40061 57012 60041 72582 8527/
AAXX 21184 91376 32474 80610 10278 20230 30061 40064 53007 85878
AAXX 21184 91408 11466 80504 10272 20250 30014 40052 57019 69901 78022 889//
AAXX 21184 91413 11466 70712 10268 20244 30037 40062 57020 69951 78081 83272
AAXX 21184 91245 32566 40716 10260 20240 30134 91755
BBXX SLKU 21183 99202 11337 41/// /0920 10250 40110 50004 76011 8//// 22274 00280 2////
BBXX 42887 21181 99282 70885 46/// /2606 1//// 91800 22200 10604 70019
BBXX 42369 21181 99272 70903 46/// /2401 1//// 91800 22200 10704 70020
BBXX 42370 21181 99273 70905 46/// ///// 10223 91800 22200 10402 70011
BBXX 42376 21181 99291 70879 46/// /2605 10233 40135 58019 91800 22200 10604 70018
AAXX 21184 71307 17/// /2016 10115 20108 39755 40000 58044 60041 7//4/ 333 10115 20014 70045
AAXX 21184 71554 16/// /2009 11022 21089 30101 40107 56022 60001 333 11022 21109 70000
AAXX 21184 97980 01450 80000 10246 20243 30034 40041 56005 60211 76296 87837 333 56000 60137 82816 85617 88280
AAXX 21184 91367 32474 80813 10272 20242 83235 333 56229 83815 83180 555 92118
AAXX 21184 91367 32474 80813 10272 20242 83235 333 56229 83815 83180 555 92118
BBXX ONFP 21184 99207 30661 43797 61230 10250 2021/ 40170 54000 7//// 86131 22213 04250 20306 30909 40306 50306 6//// 80220 ICE /////
BBXX 42043 21181 99290 70949 46/// /0405 1//// 40155 91830 22200 00169 333 91207
BBXX 42043 21181 99290 70949 46/// /0406 1//// 40162 57016 91800 22200 00169 333 91207
BBXX 42045 21181 99262 70965 46/// /0707 10192 40126 91830 22200 00219 333 91208
BBXX 63110 21184 99595 10015 47497 /1828 10060 20027 40055 57035 751// 22200 10504 70018
BBXX 63106 21184 99610 10017 46/// /1628 10039 40053 57017 22200
BBXX 63113 21184 99610 10017 46/// /1627 10041 20019 40053 57018 22200 10605 70027
BBXX 62094 21184 99517 70067 46/// /26// 10116 20100 40244 52016 22200 00106 10503 70017
BBXX 62103 21184 99499 70029 46/99 /3125 10123 20104 40240 52017 22200 00123 10703 70014 333 90710 91131
AAXX 2118/ 68902 46/// ///// 40119 52004
AAXX 21184 97796 01457 70000 10236 20230 30035 40085 57013 60081 70562 85932 333 56000 57900 69907 82911 84612 80980
BBXX 42369 21181 99272 70903 46/// /2401 1//// 91820 22200 10704 70020
BBXX 42370 21181 99273 70905 46/// ///// 10222 91820 22200 10402 70011
BBXX 42376 21181 99291 70879 46/// /2605 10233 40135 91820 22200 10604 70018
BBXX 42887 21181 99282 70885 46/// /2606 1//// 91820 22200 10604 70019
BBXX 42887 21181 99282 70885 46/// /2606 1//// 91820 22200 10604 70019
BBXX 42369 21181 99272 70903 46/// /2401 1//// 91820 22200 10704 70020
BBXX 42376 21181 99291 70879 46/// /2605 10233 40135 91820 22200 10604 70018
BBXX 42370 21181 99273 70905 46/// ///// 10222 91820 22200 10402 70011
BBXX 42045 21181 99262 70965 46/// /0707 10192 40126 91830 22200 00219 333 91208
BBXX 42043 21181 99290 70949 46/// /0405 1//// 40155 91830 22200 00169 333 91207
BBXX 42043 21181 99290 70949 46/// /0406 1//// 40162 57016 91800 22200 00169 333 91207
BBXX 52243 21181 99193 11666 46/// ///// 1//// 91800 22200 00260
BBXX 51179 21181 99143 51708 46/// ///// 1//// 91800 22200 00285
BBXX 51178 21181 99142 51695 46/// ///// 1//// 91800 22200 00282
BBXX 52246 21181 99152 11457 46/// ///// 1//// 91800 22200 00281
BBXX 51176 21181 99278 71758 46/// ///// 1//// 91800 22200 00238
BBXX 52245 21181 99181 11458 46/// ///// 1//// 91800 22200 00280
BBXX 51174 21181 99142 51697 46/// ///// 1//// 91800 22200 00284
BBXX 52244 21181 99200 11452 46/// ///// 1//// 91800 22200 00268
BBXX 51173 21181 99260 71739 46/// ///// 1//// 91800 22200 00244
BBXX 51172 21181 99284 71783 46/// ///// 1//// 91800 22200 00229
BBXX 51171 21181 99064 71623 46/// ///// 1//// 91800 22200 00278
BBXX 51170 21181 99168 71695 46/// ///// 1//// 91800 22200 00257
BBXX 51169 21181 99004 51600 46/// ///// 1//// 91800 22200 00258
BBXX 52248 21181 99135 11448 46/// ///// 1//// 91800 22200 00284
BBXX 63110 21183 99595 10015 41/96 /1736 10061 40052 762// 8//// 22200 10604 70020
BBXX 63106 21184 99610 10017 46/// /1628 10039 40053 57017 22200
BBXX 63105 21184 99610 10017 47495 ///// 10035 20017 40056 57013 761// 22200
BBXX 62103 21184 99499 70029 46/98 /3118 10119 20104 40232 52013 22200 00123 10703 70015 333 90710 91128
BBXX 62094 21184 99517 70067 46/// /2617 10116 20100 40244 52016 22200 00106 10503 70017
BBXX 51170 21181 99168 71695 46/// ///// 1//// 91800 22200 00257
BBXX 51171 21181 99064 71623 46/// ///// 1//// 91800 22200 00278
BBXX 52248 21181 99135 11448 46/// ///// 1//// 91800 22200 00284
BBXX 52245 21181 99181 11458 46/// ///// 1//// 91800 22200 00280
BBXX 52244 21181 99200 11452 46/// ///// 1//// 91800 22200 00268
BBXX 52246 21181 99152 11457 46/// ///// 1//// 91800 22200 00281
BBXX 52243 21181 99193 11666 46/// ///// 1//// 91800 22200 00260
BBXX 51172 21181 99284 71783 46/// ///// 1//// 91800 22200 00229
BBXX 51176 21181 99278 71758 46/// ///// 1//// 91800 22200 00238
BBXX 51173 21181 99260 71739 46/// ///// 1//// 91800 22200 00244
BBXX 51169 21181 99004 51600 46/// ///// 1//// 91800 22200 00258
BBXX 51178 21181 99142 51695 46/// ///// 1//// 91800 22200 00282
BBXX 51179 21181 99143 51708 46/// ///// 1//// 91800 22200 00285
BBXX 51174 21181 99142 51697 46/// ///// 1//// 91800 22200 00284
AAXX 21181 20046 32998 62601 11123 21136 30096 40129 58003 83031 333 11062
AAXX 21181 20292 42998 02005 11263 21287 30246 40267 57001 333 91106
AAXX 21181 20069 41464 81505 11112 21149 30126 40139 58004 77173 8452/ 333 84617
BBXX WDE4430 21183 99389 71249 41698 33630 10133 20093 40198 52008 70200 82168 22282 0//// 20302 30101 40406 50607 6//// 80111 ICE /////
BBXX WDE4430 21183 99389 71249 41698 33630 10133 20093 40198 52008 70200 82168 22282 0//// 20302 30101 40406 50607 6//// 80111 ICE /////
BBXX 63110 21184 99595 10015 47497 /1828 10060 20027 40055 57035 751// 22200 10504 70018
BBXX 63106 21184 99610 10017 46/// /1628 10039 40053 57017 22200
BBXX 63113 21184 99610 10017 46/// /1627 10041 20019 40053 57018 22200 10605 70027
BBXX 62094 21184 99517 70067 46/// /26// 10116 20100 40244 52016 22200 00106 10503 70017
BBXX 62103 21184 99499 70029 46/99 /3125 10123 20104 40240 52017 22200 00123 10703 70014 333 90710 91131
AAXX 21184 97630 31450 60107 10248 20233 39880 40040 56021 71311 85972 333 56000 57901 82911 83812 85361 80980
AAXX 21184 48383 31957 00702 10205 20158 39971 40134 57013 71010 333 59001
AAXX 21184 96109 11557 70000 10243 20235 30043 40083 58005 69971 70162 81572 333 56000 81620 84460
AAXX 21181 30975 41898 20902 11309 21361 39607 40336 52005 70230 82030
AAXX 21184 65344 32458 62206 10290 20255 30087 40098 82502 333 10315 59001 82612 85076
AAXX 21181 30781 42999 00000 11380 21397 39793 40339 54000
AAXX 21181 24959 41993 83001 11425 21448 30206 40360 52004 74874 80005
AAXX 21181 28825 42997 81804 11074 21172 30213 40394 57009 8803/
BBXX WDE4430 21183 99389 71249 41698 33630 10133 20093 40198 52008 70200 82168 22282 0//// 20302 30101 40406 50607 6//// 80111 ICE /////
AAXX 21181 26424 31496 80000 11009 21014 40149 52011 71022 8655/ 333 11009 86616 93400
AAXX 21181 32053 42997 02402 11290 21301 30170 40225 56001 333 91003 91103
BBXX 63110 21183 99595 10015 41/96 /1736 10061 40052 762// 8//// 22200 10604 70020
BBXX 63106 21184 99610 10017 46/// /1628 10039 40053 57017 22200
BBXX 63105 21184 99610 10017 47495 ///// 10035 20017 40056 57013 761// 22200
BBXX 62103 21184 99499 70029 46/98 /3118 10119 20104 40232 52013 22200 00123 10703 70015 333 90710 91128
BBXX 62094 21184 99517 70067 46/// /2617 10116 20100 40244 52016 22200 00106 10503 70017
AAXX 21184 97530 31458 70000 10248 20245 30038 40043 57007 71342 84932 333 56000 57903 57802 81913 82814 84080 80980 80833
AAXX 2118/ 89872 46/// ///// 11016 39730 4//// 5//// 91820
AAXX 2118/ 89872 46/// ///// 11015 39731 4//// 5//// 91830
AAXX 2118/ 89869 46/// ///// 11061 39742 4//// 5//// 91810
AAXX 2118/ 89869 46/// ///// 11064 39743 4//// 5//// 91820
AAXX 2118/ 89329 46/// ///// 11079 38845 4//// 5//// 91820
AAXX 2118/ 89799 46/// ///// 11221 4//// 5//// 91810
AAXX 2118/ 89799 46/// ///// 11221 4//// 5//// 91820
AAXX 2118/ 89868 46/// ///// 11061 39724 4//// 5//// 91820
AAXX 2118/ 89828 46/// ///// 11321 36470 4//// 5//// 91820
AAXX 2118/ 89108 46/// ///// 11183 36981 4//// 5//// 91810
AAXX 2118/ 89108 46/// ///// 11179 36983 4//// 5//// 91820
AAXX 2118/ 89332 46/// ///// 11036 39310 4//// 5//// 91820
AAXX 2118/ 89769 46/// ///// 11053 39761 4//// 5//// 91820
AAXX 2118/ 89314 46/// ///// 11079 38297 4//// 5//// 91820
AAXX 2118/ 89314 46/// ///// 11079 38514 4//// 5//// 91830
AAXX 21181 25745 42698 22801 11336 21365 30133 40191 52008 82500
AAXX 21181 29023 41396 82303 11154 21173 30225 40329 58009 78582 889// 333 86708
AAXX 21184 71322 46/// /3320 11316 21346 30076 40090 6///1 333 7////
BBXX MINFR03 2118/ 99134 10709 46/// ///// 10270 40120 52010
AAXX 21184 97460 01458 70000 10258 20246 30054 40068 53003 60041 76266 83876 333 56000 57901 60041 81917 82818 80959
AAXX 21184 97260 32558 51504 10264 20249 30044 40051 57017 83501 333 56000 83620
BBXX 63110 21184 99595 10015 47497 /1828 10060 20027 40055 57035 751// 22200 10504 70018
BBXX 63106 21184 99610 10017 46/// /1628 10039 40053 57017 22200
BBXX 63113 21184 99610 10017 46/// /1627 10041 20019 40053 57018 22200 10605 70027
BBXX 62094 21184 99517 70067 46/// /26// 10116 20100 40244 52016 22200 00106 10503 70017
BBXX 62103 21184 99499 70029 46/99 /3125 10123 20104 40240 52017 22200 00123 10703 70014 333 90710 91131
AAXX 21184 97086 32560 72704 10263 20239 30055 40079 56006 83571 333 56000 83620 85460
AAXX 21184 97028 12560 80902 10254 20239 30064 40070 56010 69901 84521 333 56000 84620 87460
AAXX 21184 61902 11482 71414 10244 20193 40120 69904 71522 878// 333 10276 59014 81715 83822 86640
AAXX 21181 98746 31462 61802 10247 20221 40069 58028 70544 82206 333 56999 82818 85075
BBXX UGOD 21181 99480 11497 41/96 93306 11035 40215 54000 22213 00024 20402 30200 40604
BBXX MINFR03 2118/ 99134 10709 46/// ///// 10270 40120 52010
BBXX ZCBD4 21183 99136 70709 41397 61212 10280 20237 40164 56020 7//// 86720 22264 20505 3//// 4//// 5//// 80250
BBXX UGOD 21181 99480 11497 41/96 93306 11035 40215 54000 22213 00024 20402 30200 40604
BBXX 63110 21183 99595 10015 41/96 /1736 10061 40052 762// 8//// 22200 10604 70020
BBXX 63106 21184 99610 10017 46/// /1628 10039 40053 57017 22200
BBXX 63105 21184 99610 10017 47495 ///// 10035 20017 40056 57013 761// 22200
BBXX 62103 21184 99499 70029 46/98 /3118 10119 20104 40232 52013 22200 00123 10703 70015 333 90710 91128
BBXX 62094 21184 99517 70067 46/// /2617 10116 20100 40244 52016 22200 00106 10503 70017
BBXX ZCBD4 21183 99136 70709 41397 61212 10280 20237 40164 56020 7//// 86720 22264 20505 3//// 4//// 5//// 80250
AAXX 21184 97008 32459 30000 10256 20241 30054 40064 57005 82532 333 56000 82619
BBXX WL3108 21184 99468 70853 41/98 72512 10022 40030 70322 22223 00044 20602
BBXX WL3108 21184 99468 70853 41/98 72512 10022 40030 70322 22223 00044 20602
AAXX 21184 65344 32458 62206 10290 20255 30087 40098 82502 333 10315 59001 82612 85076
AAXX 21184 DUPE
BBXX 63110 21184 99595 10015 47497 /1828 10060 20027 40055 57035 751// 22200 10504 70018
BBXX 63106 21184 99610 10017 46/// /1628 10039 40053 57017 22200
BBXX 63113 21184 99610 10017 46/// /1627 10041 20019 40053 57018 22200 10605 70027
BBXX 62094 21184 99517 70067 46/// /26// 10116 20100 40244 52016 22200 00106 10503 70017
BBXX 62103 21184 99499 70029 46/99 /3125 10123 20104 40240 52017 22200 00123 10703 70014 333 90710 91131
AAXX 21184 71245 46/// /2303 11120 21152 6///1 333 11104 21126 7////
AAXX 21184 96741 01440 82604 10268 20251 30071 40075 57016 69981 76162 8557/ 333 56009 69987 85619 87459
AAXX 21184 61902 11482 71414 10244 20193 40120 69904 71522 878// 333 10276 59014 81715 83822 86640
BBXX 63110 21183 99595 10015 41/96 /1736 10061 40052 762// 8//// 22200 10604 70020
BBXX 63106 21184 99610 10017 46/// /1628 10039 40053 57017 22200
BBXX 63105 21184 99610 10017 47495 ///// 10035 20017 40056 57013 761// 22200
BBXX 62103 21184 99499 70029 46/98 /3118 10119 20104 40232 52013 22200 00123 10703 70015 333 90710 91128
BBXX 62094 21184 99517 70067 46/// /2617 10116 20100 40244 52016 22200 00106 10503 70017
AAXX 21184 71619 16/// /3103 11058 21117 30076 40136 56026 60001 333 11057 21112 70000
AAXX 21184 71619 16/// /3103 11058 21117 30076 40136 56026 60001 333 11057 21112 70000
BBXX 63110 21184 99595 10015 47497 /1828 10060 20027 40055 57035 751// 22200 10504 70018
BBXX 63106 21184 99610 10017 46/// /1628 10039 40053 57017 22200
BBXX 63113 21184 99610 10017 46/// /1627 10041 20019 40053 57018 22200 10605 70027
BBXX 62094 21184 99517 70067 46/// /26// 10116 20100 40244 52016 22200 00106 10503 70017
BBXX 62103 21184 99499 70029 46/99 /3125 10123 20104 40240 52017 22200 00123 10703 70014 333 90710 91131
BBXX A8VL8 21184 99061 10969 41598 80817 10270 20228 40090 54/// 70222 886// 22223 0//// 2//// 3//// 4//// 5//// 6//// 80240 ICE /////
BBXX A8VL8 21184 99061 10969 41598 80817 10270 20228 40090 54/// 70222 886// 22223 0//// 2//// 3//// 4//// 5//// 6//// 80240 ICE /////
BBXX 52249 21181 99052 31503 46/// ///// 1//// 91800 22200 00299
AAXX 21184 89272 46/// /3009 11067 21131 38076 49687 57017 91840
AAXX 21184 89272 46/// /3108 11066 21129 38079 49690 57014 91820
AAXX 21184 89272 46/// /3108 11065 21134 38077 49687 57016 91830
AAXX 21194 89272 46/// /3009 11067 21128 38076 49687 57016 91850
AAXX 21184 89065 46/// /1608 11008 21029 39827 49905 5//// 91820
AAXX 21184 89262 46/// /9901 10030 21043 39869 49912 5//// 91830
AAXX 21184 89065 46/// /1608 11008 21029 39827 49905 5//// 91820
BBXX 63110 21183 99595 10015 41/96 /1736 10061 40052 762// 8//// 22200 10604 70020
BBXX 63106 21184 99610 10017 46/// /1628 10039 40053 57017 22200
BBXX 63105 21184 99610 10017 47495 ///// 10035 20017 40056 57013 761// 22200
BBXX 62103 21184 99499 70029 46/98 /3118 10119 20104 40232 52013 22200 00123 10703 70015 333 90710 91128
BBXX 62094 21184 99517 70067 46/// /2617 10116 20100 40244 52016 22200 00106 10503 70017
BBXX 52249 21181 99052 31503 46/// ///// 1//// 91800 22200 00299
BBXX 63110 21184 99595 10015 47497 /1828 10060 20027 40055 57035 751// 22200 10504 70018
BBXX 63106 21184 99610 10017 46/// /1628 10039 40053 57017 22200
BBXX 63113 21184 99610 10017 46/// /1627 10041 20019 40053 57018 22200 10605 70027
BBXX 62094 21184 99517 70067 46/// /26// 10116 20100 40244 52016 22200 00106 10503 70017
BBXX 62103 21184 99499 70029 46/99 /3125 10123 20104 40240 52017 22200 00123 10703 70014 333 90710 91131
AAXX 21181 78090 15/// /0000 10230 30209 40212 69901 91800 222// 00176
BBXX 63110 21183 99595 10015 41/96 /1736 10061 40052 762// 8//// 22200 10604 70020
BBXX 63106 21184 99610 10017 46/// /1628 10039 40053 57017 22200
BBXX 63105 21184 99610 10017 47495 ///// 10035 20017 40056 57013 761// 22200
BBXX 62103 21184 99499 70029 46/98 /3118 10119 20104 40232 52013 22200 00123 10703 70015 333 90710 91128
BBXX 62094 21184 99517 70067 46/// /2617 10116 20100 40244 52016 22200 00106 10503 70017
BBXX ONAN 21184 99168 11690 41/98 80913 10260 2025/ 40120 54/// 758// 887// 22213 04270 20604 305// 40604 5//// 6//// 80250 ICE /////
AAXX 21184 71824 46/// /2104 11038 21050 6///1 333 11038 21146 7////
AAXX 21184 71824 46/// /2104 11038 21050 6///1 333 11038 21146 7////
AAXX 21184 48479 31958 60203 10245 20182 30054 40106 57008 71022 80006 333 58003
BBXX ONAN 21184 99168 11690 41/98 80913 10260 2025/ 40120 54/// 758// 887// 22213 04270 20604 305// 40604 5//// 6//// 80250 ICE /////
AAXX 21184 89573 35980 70717 10005 21087 39806 49828 52023 87030
AAXX 21184 89573 35980 70717 10005 21087 39806 49828 52023 87030
BBXX 63110 21184 99595 10015 47497 /1828 10060 20027 40055 57035 751// 22200 10504 70018
BBXX 63106 21184 99610 10017 46/// /1628 10039 40053 57017 22200
BBXX 63113 21184 99610 10017 46/// /1627 10041 20019 40053 57018 22200 10605 70027
BBXX 62094 21184 99517 70067 46/// /26// 10116 20100 40244 52016 22200 00106 10503 70017
BBXX 62103 21184 99499 70029 46/99 /3125 10123 20104 40240 52017 22200 00123 10703 70014 333 90710 91131
AAXX 21181 30731 21121 115// 82004 11140 21153 39677 40320 57015 60012 78583 8495/ 333 11129
BBXX 63110 21183 99595 10015 41/96 /1736 10061 40052 762// 8//// 22200 10604 70020
BBXX 63106 21184 99610 10017 46/// /1628 10039 40053 57017 22200
BBXX 63105 21184 99610 10017 47495 ///// 10035 20017 40056 57013 761// 22200
BBXX 62103 21184 99499 70029 46/98 /3118 10119 20104 40232 52013 22200 00123 10703 70015 333 90710 91128
BBXX 62094 21184 99517 70067 46/// /2617 10116 20100 40244 52016 22200 00106 10503 70017
AAXX 21181 01436 11585 50504 10006 21021 60002 70300 82135 333 10024 91106
AAXX 21184 91723 NIL
AAXX 21184 91964 NIL
BBXX 22001 99512 11554 43/98 70512 11013 40170 53030 22233 00011 2//20 3//07
BBXX 63110 21184 99595 10015 47497 /1828 10060 20027 40055 57035 751// 22200 10504 70018
BBXX 63106 21184 99610 10017 46/// /1628 10039 40053 57017 22200
BBXX 63113 21184 99610 10017 46/// /1627 10041 20019 40053 57018 22200 10605 70027
BBXX 62094 21184 99517 70067 46/// /26// 10116 20100 40244 52016 22200 00106 10503 70017
BBXX 62103 21184 99499 70029 46/99 /3125 10123 20104 40240 52017 22200 00123 10703 70014 333 90710 91131
AAXX 21184 71618 15966 03115 11280 21318 30107 40147 53019 60001 333 11268 21282 70000
AAXX 21184 71618 15966 03115 11280 21318 30107 40147 53019 60001 333 11268 21282 70000
BBXX 63110 21183 99595 10015 41/96 /1736 10061 40052 762// 8//// 22200 10604 70020
BBXX 63106 21184 99610 10017 46/// /1628 10039 40053 57017 22200
BBXX 63105 21184 99610 10017 47495 ///// 10035 20017 40056 57013 761// 22200
BBXX 62103 21184 99499 70029 46/98 /3118 10119 20104 40232 52013 22200 00123 10703 70015 333 90710 91128
BBXX 62094 21184 99517 70067 46/// /2617 10116 20100 40244 52016 22200 00106 10503 70017
AAXX 21184 48583 31458 70505 10264 20238 30087 40093 57005 71022 82246 333 58000 70384
AAXX 21184 48581 01540 83502 10246 20240 30054 40096 57008 60113 71062 84576 333 59005 69946 70149
AAXX 21181 38232 41998 01110 11038 21140 30176 40279 57003 70700 555 14106
AAXX 21181 35925 429// 01409 11149 21169 30244 40265 57008 555 1/115
AAXX 21181 38001 41997 60514 10002 21143 30250 40220 53006 86030 333 91121 555 10000
BBXX 63110 21184 99595 10015 47497 /1828 10060 20027 40055 57035 751// 22200 10504 70018
BBXX 63106 21184 99610 10017 46/// /1628 10039 40053 57017 22200
BBXX 63113 21184 99610 10017 46/// /1627 10041 20019 40053 57018 22200 10605 70027
BBXX 62094 21184 99517 70067 46/// /26// 10116 20100 40244 52016 22200 00106 10503 70017
BBXX 62103 21184 99499 70029 46/99 /3125 10123 20104 40240 52017 22200 00123 10703 70014 333 90710 91131
AAXX 21181 25356 32999 23202 11204 21261 30077 40183 52011 80001 333 21211 48017 55000 91004
AAXX 21184 82562 32598 63604 10319 20238 39960 40076 83208 333 59004
AAXX 21184 82765 21598 70502 10242 20225 39873 40134 70262 83370 333 59007 60041
BBXX UGSN 21181 99514 11410 42/98 /1108 11120 40223 54000 22200 00014 2//// ICE 51092
AAXX 21184 89514 32797 81411 10021 49717 54000 85074 333 85350 83270
AAXX 21184 89514 32797 81411 10021 49717 54000 85074 333 85350 83270
BBXX UGSN 21181 99514 11410 42/98 /1108 11120 40223 54000 22200 00014 2//// ICE 51092
BBXX 63110 21183 99595 10015 41/96 /1736 10061 40052 762// 8//// 22200 10604 70020
BBXX 63106 21184 99610 10017 46/// /1628 10039 40053 57017 22200
BBXX 63105 21184 99610 10017 47495 ///// 10035 20017 40056 57013 761// 22200
BBXX 62103 21184 99499 70029 46/98 /3118 10119 20104 40232 52013 22200 00123 10703 70015 333 90710 91128
BBXX 62094 21184 99517 70067 46/// /2617 10116 20100 40244 52016 22200 00106 10503 70017
AAXX 21184 89262 46/// /9901 10030 21043 39869 49912 5//// 91830
AAXX 21184 89257 46/// /2511 11065 21090 39797 49867 57021 91820
AAXX 21184 89257 46/// /2512 11065 21090 39796 49866 57022 91830
AAXX 21194 89257 46/// /2512 11064 21090 39795 49865 5//// 91850
AAXX 21184 89257 46/// /2512 11064 21088 39795 49865 57023 91840
AAXX 21181 01257 16/// /1804 11005 21059 39942 40107 50003 60002 333 11005 91106
AAXX 21184 42591 31/93 01804 10080 20080 40180 74444 333 58002
AAXX 21184 42701 31995 02902 10108 20059 39417 40174 70500 333 58001
AAXX 21184 42587 31994 00000 10094 20073 40176 71000 333 58000
AAXX 21184 42798 31995 00000 10122 20086 40166 70500 333 58006
AAXX 21184 42492 31993 00000 10070 20070 40178 74400 333 59005
BBXX WDC 21184 99436 70868 41/97 93218 10020 40060 70222 22243
BBXX SHIP 21184 99436 70868 41/97 93218 10020 40060 70222 22246 0 702
BBXX WDC 21184 99436 70868 41/97 93218 10020 40060 70222 22243
AAXX 21184 67009 32580 42808 10270 20241 39976 40093 52018 81902 333 10320 81820 81920 84075 94973/5 95813/5 555 81640
AAXX 21184 67009 32580 42808 10270 20241 39976 40093 52018 81902 333 10320 81820 81920 84075 94973
AAXX 21183 63612 32980 00000 10263 20152 40092 333 10354 59013
AAXX 21184 41560 22696 31803 10005 21087 38248 48483 60003 83230 333 59009 60007
AAXX 21184 67009 32580 42808 10270 20241 39976 40093 52018 81902 333 10320 81820 81920 84075 94973
AAXX 21181 10685 01356 72603 11001 21009 39487 40178 52011 69932 77077 878// 333 10007 21001 3/101 43003 55300 20000 30000 69917 83809 86640
AAXX 21181 10895 01230 82605 10002 21001 39606 40191 53010 69952 77177 8672/ 333 10011 20000 3/000 44005 55300 20000 30000 69917 86705 88550 96473
AAXX 21184 67280 32980 0//// 10280 20193 40090 333 10345 59025 94300
AAXX 21184 67291 32560 2//// 10253 20192 3//// 48/// 82200 333 10314 5//// 94320
AAXX 21184 67331 32570 22306 10324 20206 40091 52027 82200 333 10365 94320
AAXX 21184 67346 32965 00000 10322 20/// 40105 52028 333 10360
AAXX 21184 62357 32560 20104 10160 20120 40193 52009 82500 333 10210
BBXX A8CB7 21183 99224 30545 41497 60820 10260 20246 40140 51020 70322 86476 22253 06270 21005 80250
BBXX A8CB7 21183 99224 30545 41497 60820 10260 20246 40140 51020 70322 86476 22253 06270 21005 80250
BBXX A8CB7 21183 99224 30545 41497 60820 10260 20246 40140 51020 70322 86476 22253 06270 21005 80250
AAXX 21184 89065 46/// /1608 11008 21029 39827 49905 5//// 91820
AAXX 21181 10685 01356 72603 11001 21009 39487 40178 52011 69932 77077 878// 333 10007 21001 3/101 43008 55300 20000 30000 69917 83809 86640
AAXX 21181 10742 07244 82604 10025 20019 39863 40202 51008 69932 72365 333 10029 20020 3/001 55300 20000 30000 69937 88/04
AAXX 21181 10124 46/// ///// 10062 2//// 30121 40159 51018 222// 00055 333 10067 20054 553// 911//
AAXX 21181 10338 01465 72803 10041 20033 30096 40170 51020 69932 72582 875// 333 10052 20029 31001 55300 20000 30000 69907 82617 84625 87636
BBXX A8IZ2 21184 99296 70516 41598 53413 10230 20150 40240 57030 7011/ 8589/ 22214 20101 334// 41006 80180
BBXX A8IZ2 21184 99296 70516 41598 53413 10230 20150 40240 57030 7011/ 8589/ 22214 20101 334// 41006 80180
BBXX 63110 21184 99595 10015 47497 /1828 10060 20027 40055 57035 751// 22200 10504 70018
BBXX 63106 21184 99610 10017 46/// /1628 10039 40053 57017 22200
BBXX 63113 21184 99610 10017 46/// /1627 10041 20019 40053 57018 22200 10605 70027
BBXX 62094 21184 99517 70067 46/// /26// 10116 20100 40244 52016 22200 00106 10503 70017
BBXX 62103 21184 99499 70029 46/99 /3125 10123 20104 40240 52017 22200 00123 10703 70014 333 90710 91131
BBXX SHIP 21183 99438 70093 41297 80306 10132 40342 53008 70211 8/7// 22213 20201
BBXX SHIP 21183 99438 70093 41297 80306 10132 40342 53008 70211 8/7// 22213 20201
BBXX SHIP 21183 99438 70093 41297 80306 10132 40342 53008 70211 8/7// 22213 20201
AAXX 21181 10338 01465 72803 10041 20033 30096 40170 51020 69932 70282 875// 333 10052 20029 31001 55300 20000 30000 69907 82617 84625 87636
AAXX 21184 03823 17256 /3013 10099 20099 30003 40247 53013 69962 710// 91750 333 10103 553// 20000 81/03 88/44
BBXX WL3108 21184 99435 70824 41/97 82512 10027 2//// 40186 57/// 70222 8//// 22243 00056 20601 3//// 4//// 5//// 6//// 8//// ICE /////
AAXX 21184 91772 31498 40707 10265 20237 4//// 60001 70221 82801 333 561/9 82817 82640 84080
AAXX 21184 91776 NIL
AAXX 21184 91779 31498 60809 10268 20236 40106 53010 60001 70321 82201 333 562/9 82817 85079
AAXX 21184 91784 11498 70706 10265 20242 40100 53008 60011 70182 81238 333 56199 81817 87277
AAXX 21184 91792 31498 60403 10245 20244 40117 53008 60001 78022 83201 333 561/9 82710 83816 86077
