AAXX 09004 40340 32960 70103 10160 20079 40193 57080
BBXX ZMFR 08234 99507 31674 43/// /29// 10096 20083 40218 52029 22282 00092
BBXX ZMFR1 08233 99506 31673 41698 43015 10097 40217 52028 70111 84570 22283 00091 20201 32999 40402 5//02
BBXX 44172 09001 99445 70634 46/// ///// 1//// 92331 22200 00077 11108 21005 320// 41106 70040
BBXX 44097 09001 99410 70711 46/// ///// 1//// 92332 22200 00131 11106 21004 322// 41104 70030
BBXX 46218 09001 99345 71208 46/// ///// 1//// 92332 22200 00141 11303 20602 329// 41302 70014
AAXX 09004 40255 32560 40000 10110 20082 39460 40174 54001 84100 333 84830
AAXX 09004 40272 32560 12514 10088 20044 39344 40179 54000 81100 333 81830
BBXX VRBL4 09003 99047 11064 41497 40409 10242 20215 40113 52003 70310 8313/ 22254 0//// 2//02 3//// 4//// 5//// 6//// 80223 ICE /////
BBXX 42363 09001 99282 70892 46/// /0605 10150 20067 40237 92345 333 91205
BBXX 42364 09001 99291 70881 46/// /0104 10122 20067 40244 92345
BBXX NWS0021 09004 99317 70643 43/// /2005 10234 20165 40206 5//// 7//// 8//// 222// 04228 2//// 3//// 4//// 5//// 6//// 8//// ICE /////
AAXX 09004 78764 31460 71010 10210 20160 39017 40143 53007 71522 87200 333 10249 20181 30/// 562// 59002 82610 85630
AAXX 09004 78764 31460 71010 10210 20160 39017 40143 53007 71522 87200 333 10249 20181 30/// 562// 59002 82610 85630
AAXX 09004 68906 32698 53302 10115 20076 30206 40272 50000 81572 333 10170 20102 91004 555 91027
AAXX 09004 61902 32584 51310 10230 20177 40142 85800 333 59006 82821 84636
BBXX 46249 09001 99338 71197 46/// ///// 1//// 92345 22200 00144 11302 20402 320// 41301 70009
BBXX 46248 09001 99461 71247 46/// ///// 1//// 92334 22200 00094 11003 21003 329// 41101 70017
BBXX 46244 09001 99409 71244 46/// ///// 1//// 92335 22200 00095 10804 20803 330// 41102 70019
BBXX 51205 09001 99210 71564 46/// ///// 1//// 92348 22200 00244 11805 20904 332// 41803 70024
BBXX 46114 09001 99364 71222 46/// ///// 1//// 92334 22200 00109 11402 21001 327// 41402 70010
BBXX 41114 09001 99276 70802 46/// ///// 1//// 92346 22200 00234 10802 20802 307// 41101 70011
BBXX 46240 09001 99366 71219 46/// ///// 1//// 92342 22200 00116 11101 21001 335// 41101 70006
BBXX 46237 09001 99378 71226 46/// ///// 1//// 92340 22200 00115 11302 21001 326// 41301 70008
BBXX 46212 09001 99408 71243 46/// ///// 1//// 92342 22200 00100 10904 20904 332// 41102 70021
BBXX 46211 09001 99469 71242 46/// ///// 1//// 92336 22200 00087 12203 21002 328// 42202 70013
AAXX 09004 08495 12362 70000 10133 20120 30255 40263 58004 60001 84602 92350 333 81708 83714 87075
AAXX 09004 91334 12474 80710 10286 20239 30086 40089 50007 60144 82101 333 20239 562/9 59009 70137 555 90900
AAXX 09004 91334 12474 80710 10286 20239 30086 40089 50007 60144 82101 333 20239 562/9 59009 70137 555 90900
BBXX BAREU61 09004 99394 10003 46/// /3204 10160 29074 40256 22243
AAXX 09004 68392 36/// /2107 10153 20130 30088 4//// 53001 333 10229 20151 91014 555
AAXX 09004 68382 36/// /1504 10166 20129 39376 48544 57005 333 10246 20163 91009 555 91019
BBXX 46060 09001 99606 71468 46/// /0104 10035 40094 56009 92350 22200 00060 10801 320// 40801 70004 333 91205 555 11040 22042 32256 40205 62349 011039 012038 015039 018037 021039 023042 80204 92257
BBXX 46088 09001 99483 71232 46/// /3405 10050 40301 56005 92350 22200 00082 1//00 70001 333 91207 555 11052 22054 32342 43407 62349 344051 347040 357035 011029 019023 031027
BBXX 51203 09001 99208 71570 46/// ///// 1//// 92343 22200 00252 11802 20901 330// 41801 70009
BBXX 52200 09001 99134 11448 46/// ///// 1//// 92345 22200 00288 10904 20903 308// 41101 70018
BBXX 51201 09001 99217 71581 46/// ///// 1//// 92342 22200 00246 11704 20903 330// 41703 70022
BBXX 44098 09001 99428 70702 46/// ///// 1//// 92337 22200 00097 10503 20503 314// 41201 70016
BBXX 44022 09001 99409 70737 46/// ///04 10059 21026 92345 22200 00104 333 91205 555 11041 22041
AAXX 09004 78774 32670 70705 10269 20182 30001 70085 53005 83530 333 10320 20192 30/// 56220 58004 83640 84362
AAXX 09004 78762 32670 62404 10206 20192 39085 40104 55006 82650 333 10267 20184 30/// 5666/ 59014 82640 84362
AAXX 09004 78774 32670 70705 10269 20182 30001 70085 53005 83530 333 10320 20192 30/// 56220 58004 83640 84362
AAXX 09004 78762 32670 62404 10206 20192 39085 40104 55006 82650 333 10267 20184 30/// 5666/ 59014 82640 84362
AAXX 09004 91376 12474 80510 10303 20249 30080 40083 58007 60074 83878 333 20261 56119 58007 70074 555 90900
AAXX 09004 91408 11474 73611 10289 20251 30051 40089 52014 60184 70282 82271 333 20239 56899 58010 70178 555 90900
AAXX 09004 40270 11550 32508 10086 20063 39279 40179 54002 69921 71065 83200 333 83825
AAXX 09004 16597 32560 13105 10135 20105 30172 40260 50001 81500 333 81625
AAXX 09004 91408 11474 73611 10289 20251 30051 40089 52014 60184 70282 82271 333 20239 56899 58010 70178 555 90900
AAXX 09004 89577 46/// /0604 11412 35688 4//// 5////
AAXX 09004 89578 46/// /0606 11360 36738 4//// 5////
AAXX 09001 13586 32960 01702 11049 21063 39992 40301 50003
AAXX 09004 91376 12474 80510 10303 20249 30080 40083 58007 60074 83878 333 20261 56119 58007 70074 555 90900
AAXX 09004 68994 32598 12206 10006 21029 30184 40214 53008 81500 333 10091 20000 91009 555 91021
AAXX 09004 78384 12460 20511 10260 20226 40143 60001 81800 333 10286 20233 58002 70000 81818
AAXX 09004 78383 12460 10408 10265 20224 40141 60001 81200 333 10286 20261 58002 70000 81818
AAXX 09004 78954 12484 70306 10249 20228 30055 40119 60001 70322 83842 333 10298 20231 58007 82818 85078
AAXX 09004 78384 12460 20511 10260 20226 40143 60001 81800 333 10286 20233 58002 70000 81818
AAXX 09004 78383 12460 10408 10265 20224 40141 60001 81200 333 10286 20261 58002 70000 81818
AAXX 09004 78954 12484 70306 10249 20228 30055 40119 60001 70322 83842 333 10298 20231 58007 82818 85078
BBXX TESTFR9 09004 99501 70012 46/// /3131 10108 29066 40108 22244
AAXX 09004 08594 31958 30606 10220 20196 40147 70600 80002 333 58007 83070
AAXX 09004 08589 32959 00410 10227 20220 40140 70600 333 58003
AAXX 09004 08583 31558 10808 10218 20190 40157 70610 81501 333 58006 81620
BBXX BAREU63 09004 99401 10123 46/// /3111 10159 29073 40254 52002 22233
AAXX 09004 68352 36/// /1109 10196 21008 39086 48532 53003 333 10281 20192 91014 555 91018
AAXX 09001 13579 32970 03602 11032 21056 39439 40318 51004
AAXX 09004 61901 169// /1318 10156 20154 39663 40173 50002 60011 92350 333 8//99 90710 91125 555 7/090
BBXX NWS0022 09004 99416 70714 43/// /2607 10053 21015 40243 5//// 7//// 8//// 222// 04125 2//// 3//// 4//// 5//// 6//// 8//// ICE /////
BBXX WDC6698 09004 99099 71426 43/// /3323 10265 20265 40070 5//// 7//// 8//// 222// 04252 2//// 3//// 4//// 5//// 6//// 8//// ICE /////
BBXX 42003 09001 99260 70856 46/// /0108 1//// 92350 22200 10703 20602 334// 40702 70013 333 91209 555 11080 22085 32325 40210 62349 011073 021076 031075 024072 024065 018069 80309 92325
BBXX 42059 09001 99151 70675 46/// /0707 10276 20238 40121 53008 92350 22200 00282 11102 20601 3//// 41101 70009 333 91208 555 11069 22073 32333 40808 62349 072065 072071 078054 077050 078054 077053 80807 92334
BBXX 42002 09001 99258 70937 46/// /1003 10184 20089 40210 55010 92350 22200 00249 10502 20401 303// 40501 70008 333 91204 555 11030 22032 32325 40905 62349 099030 106026 099032 111029 105039 099028
BBXX 41047 09001 99275 70715 46/// /1308 10249 40195 53011 92350 22200 00254 10904 20502 310// 40903 70018 333 91209 555 11075 22079 32327 41309 62349 129075 126075 127075 131070 128068 129070 81308 92328
BBXX 41043 09001 99211 70650 46/// /0609 10257 20239 40153 51016 92350 22200 00269 10905 20704 300// 40903 70024 333 91211 555 11091 22096 32338 40612 62349 059088 062091 062084 062088 060085 058084 80610 92338
BBXX 41036 09001 99342 70770 46/// ///// 10112 20034 40267 53024 92350 22200 00171 10902 70011
BBXX 44066 09001 99396 70726 46/// /2808 10086 20008 40262 51041 92350 22200 00142 11004 20603 3//// 41003 70021 333 91210 555 11079 22082 32349 42910 62349 281077 286075 282071 286074 290073 287076
BBXX 41012 09001 99300 70805 46/// /0109 10179 40220 53010 92350 22200 00240 333 91211 555 11094 22098 32302 40212 62349 011090 012089 010089 013093 013089 013089
BBXX 41001 09001 99347 70727 46/// ///// 10151 20078 40245 53023 92350 22200 00223 11007 70034
BBXX 41049 09001 99275 70630 46/// /0808 10236 20181 40206 53011 92350 22200 00249 10904 20602 300// 40903 70020 333 91209 555 11085 22089 32258 40711 62349 077081 077079 070078 070082 071089 069092 80710 92259
BBXX 42020 09001 99270 70967 46/// /1407 10194 20107 40197 56007 92350 22200 00243 10301 20301 70006 333 91208 555 11069 22072 32339 41309 62349 136065 132063 134062 134061 141059 127062
BBXX 41044 09001 99217 70587 46/// /0611 10265 20219 40145 51015 92350 22200 00269 10806 20605 300// 40804 70031 333 91214 555 11116 22123 32345 40614 62349 059108 061111 057109 058106 059102 060107 80612 92301
BBXX 41048 09001 99320 70696 46/// /0507 10211 20178 40209 51020 92350 22200 00230 11004 20502 3//// 41003 70018 333 91208 555 11066 22069 32349 40508 62349 047065 046054 042051 034050 017052 027043 80507 92349
BBXX 42065 09001 99149 70750 46/// /0807 10273 20231 92350 22200 10602 20602 3//// 40901 70010 333 91209 555 11074 22078 32314 40709 62349 074069 080060 087065 073072 071068 066067 80708 92314
BBXX 42012 09001 99301 70876 46/// /3202 10096 20039 40246 52003 92350 22200 00200 10701 70003 333 91203 555 11017 22018 32257 43104 62349 316016 327015 337016 304019 306017 297022
BBXX 42001 09001 99259 70897 46/// /0205 10198 20107 40215 55000 92350 22200 00235 10703 20401 3//// 40702 70013 333 91206 555 11051 22053 32328 40409 62349 023049 036049 018051 014051 019047 021050
BBXX 42035 09001 99292 70944 46/// /1007 10122 20092 40229 56007 92350 22200 00164 10501 20501 70007 333 91208 555 11068 22071 32256 40909 62349 095065 096064 095067 091072 090068 094070
BBXX 42058 09001 99149 70749 46/// /0706 10274 20228 40106 53008 92350 22200 00279 10502 20502 305// 40801 70010 333 91207 555 11065 22068 32331 40709 62349 074061 075074 076074 081067 082069 080073 80808 92332
BBXX 42060 09001 99163 70635 46/// /0303 10273 20221 40131 53012 92350 22200 00283 11102 20301 300// 41102 70012 333 91204 555 11030 22031 32306 40304 62349 027030 028031 023030 029034 024033 027033 80304 92306
BBXX 42036 09001 99285 70845 46/// /0307 10137 20082 40225 53004 92350 22200 00223 10502 20502 326// 40801 70011 333 91209 555 11069 22071 32254 40210 62349 034067 030069 031066 026066 021070 019069
BBXX 42056 09001 99198 70849 46/// /0608 10258 20204 40155 52007 92350 22200 00274 10604 20603 334// 41002 70019 333 91210 555 11086 22090 32328 40510 62349 062080 061082 056081 059077 062078 061081 80609 92328
BBXX 42019 09001 99279 70954 46/// /1704 10179 20089 40209 92350 22200 10401 20401 306// 40401 70005 333 91205 555 11037 22039 32252 42806 62349 180034 286033 284036 283038 284044 283045
BBXX 44005 09001 99432 70691 46/// /2908 10058 21058 40201 53057 92350 22200 00092 10706 20705 3//// 41103 70028 333 91211 555 11083 22087 32303 43015 62349 295081 297093 305112 306116 302124 300123
BBXX 42040 09001 99292 70882 46/// /3504 10110 40242 52004 92350 22200 00224 10601 20401 310// 40601 70005 333 91205 555 11036 22037 32312 40106 62349 350036 020031 019032 002035 001039 007033
BBXX 42055 09001 99222 70940 46/// /0706 10215 20135 40186 56005 92350 22200 00250 10703 20502 301// 40702 70014 333 91207 555 11060 22062 32257 40609 62349 068059 060061 058062 054061 058062 057062 80607 92339
BBXX 32012 09001 99197 50856 46/// ///// 1//// 92350 22200 11405 70024
BBXX 46002 09001 99426 71305 46/// ///// 10106 40281 56017 92350 22200 00124 12105 70027
BBXX 46006 09001 99408 71375 46/// /1006 10115 40298 56011 92350 22200 00127 11906 20502 3//// 41905 70028 333 91208 555 11064 22067 32346 40908 62349 098061 099047 096048 098040 100041 092048
BBXX 46084 09001 99566 71361 46/// /1910 10067 20059 40231 56009 92350 22200 00078 10805 20805 70026 333 91212 555 11108 22114 32301 41813 62349 190102 189102 190097 190099 190105 188103
BBXX 46078 09001 99561 71526 46/// /2307 10057 20033 40112 54000 92350 333 91208 555 11075 22080 32325 42411 62349 232070 231078 237083 235073 244070 240079 82409 92325
BBXX 46075 09001 99539 71608 46/// /2608 10056 20038 40122 51016 92350 22200 00050 11409 20503 300// 41408 70045 333 91210 555 11086 22093 32328 42611 62349 257080 258084 252086 248075 251077 250071 82610 92328
BBXX 46059 09001 99380 71300 46/// /0308 10122 40243 56011 92350 22200 00149 10905 20603 3//// 40904 70027 333 91210 555 11085 22089 32333 40311 62349 030078 027075 033080 035082 030081 028078
BBXX 46005 09001 99461 71310 46/// ///06 10078 40317 56007 92350 22200 00102 12104 20502 3//// 42104 70020 333 91207 555 11060 22062
BBXX 46080 09001 99580 71500 46/// /2409 10053 20049 40093 54000 92350 22200 00054 10905 20704 3//// 40904 70027 333 91211 555 11093 22099 32252 42212 62349 234087 228089 223081 225077 222085 224092 82210 92252
BBXX PHEO 09000 99336 50721 41/97 ///// 10160 20160 40130 54000 703// 8//// 22254 00170 20501 320// 41205 5//// 80160
BBXX DCLH2 09000 99301 50770 41597 41609 10190 20142 40170 54000 70211 8117/ 22273 06170 20402 321// 40503 5//// 80160
BBXX ONFE 09004 99062 10941 433// 50510 10260 2023/ 40100 5//// 7//// 8/87/ 22223 00290 2//// 3//// 4//// 5//// 6//// 80240 ICE /////
BBXX LAJS6 09004 99500 11730 41597 72523 10030 2003/ 49955 51005 70322 86245 22223 00060 21007 323// 40705 80030
BBXX C6XC2 09004 99282 11286 41897 83432 10130 20073 40220 54/// 7//22 8867/ 22244 00240 20412 303// 40208 5//// 6//// 80100 ICE /////
BBXX WCX8812 09004 99375 11345 41697 70142 10050 2000/ 40210 51022 70222 8723/ 22214 00190 20408 301// 40910 5//// 6//// 80030 ICE /////
BBXX A8SI3 09003 99541 11795 43698 81213 10030 2110/ 40150 54000 8852/ 22224 00020 20602 334// 40804 81010
BBXX SHIP 09004 99425 11697 41798 72116 10110 20050 40055 56018 70312 8641/ 22223 00120 20302 314// 40403 80080
BBXX LAOX5 09001 99316 11387 41/97 72919 00/// 10170 2015/ 40125 54000 70110 87389 22224 00160 20403 330// 40503 5//// 6//// 80160
BBXX HZZB 09003 99369 10123 41797 33215 10170 2015/ 40271 56002 7//00 82489 22223 0//// 20202 333// 40303 5//// 6//// 80155 ICE /////
BBXX DCCN2 09004 99412 70308 41597 62213 10180 20112 40250 50000 7//11 86161 22223 00160 20404 318// 40410 5//// 80140
BBXX MYSU5 09004 99462 70542 41297 71658 10075 20075 40005 53010 78182 8679/ 22262 00060 21014 323// 41008 5//// 80075
BBXX WGJT 09004 99210 70690 43398 30919 10294 2024/ 40141 52004 7//// 832// 22234 00256 20605 309// 40806 5//// 6//// 80256 ICE /////
BBXX 9HA2583 09004 99190 70654 41798 30518 1//// 2//// 40130 54/// 7//// 82165 22274 04290 2//// 3//// 4//// 5//// 6//// 8//// ICE /////
BBXX LADR4 09004 99216 71626 41998 10719 10250 2020/ 40175 56010 70100 81001 22273 00270 20604 3//// 4//// 5//// 6//// 80210
BBXX SHIP 09004 99355 70696 41697 53120 10160 20089 40262 51038 70302 8513/ 92345 22214 0//// 1//// 20706 325// 40706 5//// 6//// 80120 /////
BBXX SHIP 09003 99351 70578 41/98 22109 10210 20148 40231 52013 70200 8//4/ 22224 00240 29901 80122 4 002
BBXX 46088 09001 99483 71232 46/// /3405 10050 40301 56005 92350 22200 00082 1//00 70001 333 91207 555 11052 22054 32342 43407 62349 344051 347040 357035 011029 019023 031027
BBXX 44022 09001 99409 70737 46/// ///04 10059 21026 92345 22200 00104 333 91205 555 11041 22041
BBXX 44098 09001 99428 70702 46/// ///// 1//// 92337 22200 00097 10503 20503 314// 41201 70016
BBXX 46060 09001 99606 71468 46/// /0104 10035 40094 56009 92350 22200 00060 10801 320// 40801 70004 333 91205 555 11040 22042 32256 40205 62349 011039 012038 015039 018037 021039 023042 80204 92257
BBXX 2AKI3 09004 99106 70616 41598 61509 10270 20210 40110 53017 70311 81259 22200 04279 29901 300// 4//// 5//// 80230
BBXX ZCDF4 09003 99148 70719 41498 50823 10275 20247 40118 53004 70211 8327/ 22234 00290 20301 310// 40602 5//// 80255
BBXX 4XFV 09003 99527 71556 43/98 92424 10070 00/// 20050 40160 54000 702// 89/// 22274 0//// 20605 ///// 321// 40608 5//// 6//// 80060
BBXX 46211 09001 99469 71242 46/// ///// 1//// 92336 22200 00087 12203 21002 328// 42202 70013
BBXX 46237 09001 99378 71226 46/// ///// 1//// 92340 22200 00115 11302 21001 326// 41301 70008
BBXX 46212 09001 99408 71243 46/// ///// 1//// 92342 22200 00100 10904 20904 332// 41102 70021
BBXX 46240 09001 99366 71219 46/// ///// 1//// 92342 22200 00116 11101 21001 335// 41101 70006
BBXX 41114 09001 99276 70802 46/// ///// 1//// 92346 22200 00234 10802 20802 307// 41101 70011
BBXX 51205 09001 99210 71564 46/// ///// 1//// 92348 22200 00244 11805 20904 332// 41803 70024
BBXX 46114 09001 99364 71222 46/// ///// 1//// 92334 22200 00109 11402 21001 327// 41402 70010
BBXX 46249 09001 99338 71197 46/// ///// 1//// 92345 22200 00144 11302 20402 320// 41301 70009
BBXX 46244 09001 99409 71244 46/// ///// 1//// 92335 22200 00095 10804 20803 330// 41102 70019
BBXX 46248 09001 99461 71247 46/// ///// 1//// 92334 22200 00094 11003 21003 329// 41101 70017
BBXX LAXS2 09004 99253 71727 41698 71413 10270 2027/ 40195 51005 70222 87160 22262 00290 20501 332// 40806 80270
BBXX PINX 09004 99188 70642 41/97 50627 10260 2//// 40120 51013 70381 85/// 22274 00280 2//// 3//// 4//// 5//// 6//// 8//// ICE /////
BBXX NWS0021 09004 99317 70643 43/// /2005 10234 20165 40206 5//// 7//// 8//// 222// 04228 2//// 3//// 4//// 5//// 6//// 8//// ICE /////
BBXX 42363 09001 99282 70892 46/// /0605 10150 20067 40237 92345 333 91205
BBXX 42364 09001 99291 70881 46/// /0104 10122 20067 40244 92345
BBXX ELUC5 09004 99212 51694 41598 20909 10310 20284 40150 54000 70200 82141 22264 20201 302// 40403 80290
BBXX SHIP 09004 99157 31195 41498 52312 10280 2022/ 40090 53010 70222 851// 22214 00295 20302 324// 41002 5//// 6//// 80240 ICE /////
BBXX 44025 09001 99402 70732 46/// /2708 10078 21004 40259 51045 92350 22200 00121 11103 20402 316// 41102 70013 333 91210 555 11079 22082 32305 42610 62349 266075 272078 260079 268077 268075 265075
BBXX 41008 09001 99314 70809 46/// /0308 10129 20091 40245 52007 92350 22200 00173 10902 20602 300// 40901 70011 333 91210 555 11083 22087 32347 40310 62349 025079 023074 024070 017071 015074 011076
BBXX 44014 09001 99366 70748 46/// /3608 1//// 40263 51024 92350 22200 00155 10804 20603 304// 40802 70018 333 91210 555 11078 22078 32310 43510 62349 000077 359080 352083 356081 355077 355073
BBXX 41004 09001 99325 70791 46/// /0106 10137 20076 40255 51015 92350 22200 00214 10902 20501 3//// 40902 70011 333 91208 555 11057 22059 32340 43508 62349 012057 004057 005055 003055 005051 006050
BBXX 44009 09001 99385 70747 46/// /3206 10070 40278 51016 92350 22200 00127 10802 20401 300// 40801 70010 333 91208 555 11065 22067 32252 43109 62349 321061 323063 321068 319064 318061 313067
BBXX 44027 09001 99443 70673 46/// /2810 10040 21039 40172 51054 92350 22200 00092 11106 20705 3//// 41104 70031 333 91213 555 11105 22110 32321 42919 62349 280099 292107 289111 281117 277118 279121
BBXX 41013 09001 99334 70777 46/// /0506 10137 20065 40256 53020 92350 22200 00226 11002 20501 311// 41002 70012 333 91208 555 11058 22060 32252 40309 62349 044055 042058 042055 061058 058060 046060
BBXX 44065 09001 99404 70737 46/// /2708 10072 21007 40262 51045 92350 22200 00117 11102 20301 315// 41101 70010 333 91210 555 11089 22092 32316 42611 62349 268085 274082 269082 272085 273089 274084 82809 92304
BBXX 44040 09001 99410 70736 46/// /3205 10061 21019 92345 22200 1//00 70002 333 91207 555 11067 22082
BBXX 44020 09001 99414 70702 46/// /2910 10062 21010 40232 53049 92350 22200 00102 333 91213 555 11110 22118 32329 42613 62349 281103 260100 262090 261096 262098 262099
BBXX 44018 09001 99421 70696 46/// /2910 10066 20033 40221 53043 92350 22200 00097 11105 20704 3//// 41103 70025 333 91212 555 11104 22109 32306 43014 62349 296096 303096 302101 295109 293116 284091
BBXX 46105 09001 99590 71522 46/// ///// 1//// 92350 22200 10902 70012
BBXX 46070 09001 99551 11753 46/// /1409 10024 21005 49994 58034 92350 22200 00046 11206 20504 3//// 41205 70030 333 91210 555 11093 22098 32308 41614 62349 141089 137090 143094 145100 146112 147097 81513 92308
BBXX 46078 09001 99561 71526 46/// /2307 10057 20033 40112 54000 92350 333 91208 555 11075 22080 32325 42411 62349 232070 231078 237083 235073 244070 240079 82409 92325
BBXX 46053 09001 99342 71198 46/// /2605 10143 40174 56007 92350 22200 00148 333 91205 555 11050 22052 32250 42605 62349 262047 263044 269044 277041 278042 284039
BBXX 46014 09001 99394 71240 46/// /3401 10104 40209 56008 92350 22200 00112 10903 20401 3//// 40903 70016 333 91201 555 11007 22007 32256 43403 62349 339007 348014 347019 349018 353021 344024
BBXX 46011 09001 99350 71210 46/// /3207 10119 40193 54000 92350 22200 00137 11302 20602 330// 41301 70011 333 91208 555 11068 22072 32344 43208 62349 321065 319065 319064 316062 319063 313066
BBXX 46047 09001 99324 71195 46/// /3207 10132 40185 55004 92350 22200 00137 11503 20502 329// 41502 70016 333 91209 555 11074 22079 32309 43309 62349 322071 327077 329073 329076 330078 326074
BBXX 46086 09001 99325 71180 46/// /3303 10147 40173 56008 92350 22200 00160 10602 20401 329// 40602 70009 333 91204 555 11035 22036 32250 43404 62349 327035 327035 324034 324032 332035 331037
BBXX 46027 09001 99419 71244 46/// /3402 10087 40208 56010 92350 22200 00097 10804 20301 332// 40804 70021 333 91203 555 11021 22021 32306 43303 62349 338020 337021 330021 333023 327022 330022
BBXX 46088 09001 99483 71232 46/// /3405 10050 40301 92350 22200 00082 1//00 70001 333 91207 555 11052 22054 32342 43407 62349 344051 347040 357035 011029 019023 031027
BBXX 46050 09001 99442 71246 46/// /0108 10080 40250 58014 92350 22200 00103 10704 20703 332// 40902 70019 333 91209 555 11087 22091 32328 40110 62349 007082 008081 008083 007082 007078 011077
BBXX 46069 09001 99337 71202 46/// /3209 10125 40181 56009 92350 22200 00133 10703 20703 331// 41501 70015 333 91210 555 11097 22103 32341 43211 62349 320092 322092 319092 322089 322090 324091
BBXX 46013 09001 99382 71233 46/// /3103 10103 40203 56005 92350 22200 00111 11103 3//// 41103 70014 333 91204 555 11035 22037 32257 43205 62349 314034 313034 314036 314037 314037 317037
BBXX 46012 09001 99374 71229 46/// /3206 10110 40199 56005 92350 22200 00124 11102 20501 329// 41102 70011 333 91207 555 11058 22060 32344 43207 62349 321054 325053 323051 322046 324042 327042
BBXX 46087 09001 99485 71247 46/// /1107 10066 20025 40296 56010 92350 22200 00082 11102 20501 325// 41102 70010 333 91208 555 11069 22072 32348 41108 62349 111066 112063 114059 115056 115053 120049
BBXX 46029 09001 99461 71245 46/// /0109 10065 20035 40268 56011 92350 22200 00084 11103 20502 328// 41102 70015 333 91210 555 11097 22102 32250 40111 62349 012091 012091 015094 017090 013094 014090
BBXX 46054 09001 99342 71204 46/// /3109 10126 40180 56007 92350 22200 00140 10703 20703 300// 41201 70014 333 91211 555 11100 22106 32334 43111 62349 312093 310094 308094 310095 313090 311091
BBXX 46028 09001 99357 71219 46/// /3106 10115 40188 56005 92350 22200 00132 11402 20502 331// 41401 70011 333 91207 555 11062 22065 32258 43108 62349 307059 313063 311062 310060 312066 310066
BBXX 46025 09001 99337 71191 46/// /3003 10146 40179 56007 92350 22200 00160 10501 20401 328// 40501 70007 333 91203 555 11029 22030 32253 43004 62349 301028 298027 293025 292029 292028 301029
BBXX BAREU60 09004 99438 10141 46/// ///// 40234 22222
BBXX DBBU 09001 99545 10113 46/// /2015 10071 20071 49921 57052 22200 00075
BBXX BAREU05 09004 99429 10064 46/// ///// 40232 57001 22254
BBXX DBKV 09001 99270 70161 46/// /0509 10212 20141 40201 57009 22253 00206
BBXX BAREU04 09004 99492 70462 46/// ///// 40048 57032 22214
BBXX DBBT 09001 99420 30092 46/// /2913 10106 20080 40214 57024 /2272 00128
BBXX DBEA 09001 99539 10086 46/// /2416 10061 20037 49927 57004 22221 00055
BBXX DBJM 09001 99542 10080 46/// /2319 10084 20060 49930 52006 22230 00085
BBXX DBFR 09001 99552 10150 46/// /1919 10044 20043 49950 57083 22250 00069
BBXX DBKR 09001 99541 10121 46/// /1908 10073 20073 49946 57060 22200 00063
BBXX DBND 09001 99/// ///// 46/// ///// 10068 20054 49937 57017 22220 00098
BBXX DBEB 09005 99538 10082 41/// /2315 10062 20061 49930 550/6 /////// 22200 00058
BBXX DBFH 09005 99555 10084 46/// /2210 10083 20033 49856 53028 /2240 00044
BBXX DBBA 09001 99536 10086 46/// +//// 10063 20052 49945 57015 22230 00060
BBXX D/BI 09005 99536 10086 42/// /2/08 10067 20063 49
BBXX DBBC 09001 99535 10086 46/// /2508 10065 2//// 49948 57018 22220 00063
AAXX 09004 78858 12580 13504 10245 20227 30075 40131 60001 81802 333 10290 20237 58004 70000 81823
BBXX VEP717 09004 99467 70487 41797 62060 10081 2008/ 40060 57033 70322 86500 22200 06038 20605 300// 40000 80079
BBXX A8LH7 09003 99327 70100 41298 60415 10185 40260 52005 70222 83778 22214 20303 301// 40404 5////
BBXX A8EH3 09003 99409 11394 41/97 70815 10070 20026 40130 56010 77211 8672/ 22214 04150 20803 80050
BBXX 61001 09004 99434 10078 46/// /2106 10153 20123 40222 57002 22200 00158 10702 70011
BBXX DAJC 09003 99302 11746 41598 30911 10240 20211 40190 54000 70200 82141 22224 04210 20704 333// 41002 5//// 80220
BBXX A8RW3 09003 99343 30163 41697 51322 10170 20079 40205 58005 70300 84549 22264 04180 21005 322// 41407 80120
BBXX A8VL5 09004 99159 11127 41397 80325 10230 20215 40250 55000 70322 887// 22244 00220 20506 30000 80220
BBXX DCSL2 09004 99323 71598 41598 30315 10190 20142 40235 57010 70111 8310/ 22265 00210 20202 333// 40508 80160
BBXX DFWV2 09004 99261 71245 41/98 80215 10170 20100 40190 54000 70322 8/7// 22263 04180 2//02 3//// 4//// 5//// 80130
AAXX 09004 81405 04686 /0904 10272 20230 30098 40107 60001 700// 333 10319 60007 58008 555 60005
BBXX C6JD7 09003 99300 71167 41998 73411 10160 20114 40172 56010 70222 80004 22243 20601 30000 80135
AAXX 0900/ 89329 46/// ///// 11103 38647 4//// 5////
AAXX 0900/ 89799 46/// ///// 11286 4//// 5////
AAXX 0900/ 89108 46/// ///// 11283 36846 4//// 5////
AAXX 09004 96315 31270 71906 10246 20241 40091 60044 70282 82878 333 20237 55061 81703 85364
AAXX 09004 96323 NIL
AAXX 09004 96315 31270 71906 10246 20241 40091 60044 70282 82878 333 20237 55061 81703 85364
AAXX 09004 96323 NIL
AAXX 09004 85864 12980 32206 10204 20022 40114 57003 60001 83030 333 10240 56060 83360
AAXX 09004 85874 32982 /3017 10171 20008 39502 40107 56007 333 10227
AAXX 09004 85934 12580 12514 10119 20032 40104 54001 60001 81100 333 10149 56600 81820
AAXX 09004 89056 11225 82821 10006 21003 49881 52109 69904 71022 886// 333 10015 20003 56699 88705
AAXX 09004 89057 12460 72413 10014 20007 49878 52013 60004 87500 333 10030 20013 56600 87617
AAXX 09004 89058 32560 82918 10008 21003 39859 49880 52006 885//
AAXX 09004 89059 11440 82317 10001 21012 49848 51115 60004 71022 886// 333 10007 21002 75599 88710
AAXX 09004 89251 32460 82917 10007 21002 49873 52005 8651/ 333 10015
AAXX 09004 85574 12960 01609 10223 20119 39578 40116 52016 60001 333 10312
AAXX 09004 85629 12770 12611 10270 20123 40101 53010 60001 81200 333 10309 56200 81850
AAXX 09004 85682 12960 02411 10161 20117 40131 55000 60001 333 10216
AAXX 09004 85743 12960 53009 10140 20099 40156 53012 60001 80004 333 10248 56006 85075
AAXX 09004 85799 12960 32205 10145 20103 40167 54001 60001 80001 333 10200 56004 83070
AAXX 09004 85406 12970 02003 10192 20128 40142 53020 60001 333 10233
AAXX 09004 85418 12970 02113 10189 20135 40137 53021 60001 70200 333 10223
AAXX 09004 85432 12970 02512 10182 21033 37755 48440 52011 60001 333 10238
AAXX 09004 85442 12470 31911 10169 20132 40127 52008 60001 83500 333 10203 56400 82617
AAXX 09004 85469 42565 30811 10234 20165 40246 57007 83100 333 56200 83820
AAXX 09004 85488 12465 52906 10147 20133 40136 54000 60001 85500 333 10200 56600 82610 83611
BBXX BAREU11 09004 99120 50772 46/// ///// 40133 22200
BBXX BAREU00 09004 99369 70757 46/// ///// 40271 52025 22253
BBXX BATFR03 09004 99495 70004 44497 82530 10109 20100 40106 70222 877// 22273 20204
BBXX 9V8072 09003 99367 10134 41/// /2804 10170 20135 40261 50/// 22 8//// 22263 06190 2//// 80150
BBXX BATFR09 09004 99365 70015 44897 61005 10155 20107 40262 58009 71522 857// 22222 00184
BBXX BATFR11 09004 99409 10100 46/// /3101 10152 20087 40236 53006 22244 00177
BBXX BATFR01 09004 99431 10059 46/// /2705 10085 20010 40237 50/// 22200 00187
BBXX BATFR60 09004 99528 10042 46/// /2649 10085 20017 49977 58019 22213 00095
BBXX BATFR20 09004 99421 10075 44/98 32927 10152 20084 40225 56014 70000 8//// 22274 20204 329// 40204 5////
AAXX 09004 68386 16/// /1405 10201 20162 39718 48626 57004 60073 333 10293 20198 91010 555 20072 91025
AAXX 09004 67341 32580 32113 10219 20168 40140 55000 83500 333 94350
AAXX 09004 78925 11675 71101 10235 20227 40126 53011 60011 72162 8287/ 333 10267 20231 58013 70024 82640 86362
AAXX 09004 97180 12458 70000 10265 20253 30073 40091 51019 60124 82271 333 20245 50300 55014 55508 51245 56000 59004 82819 86360
AAXX 09004 85406 12970 02003 10192 20128 40142 53020 60001 333 10233
AAXX 09004 85418 12970 02113 10189 20135 40137 53021 60001 70200 333 10223
AAXX 09004 85432 12970 02512 10182 21033 37755 48440 52011 60001 333 10238
AAXX 09004 85442 12470 31911 10169 20132 40127 52008 60001 83500 333 10203 56400 82617
AAXX 09004 85469 42565 30811 10234 20165 40246 57007 83100 333 56200 83820
AAXX 09004 85488 12465 52906 10147 20133 40136 54000 60001 85500 333 10200 56600 82610 83611
AAXX 09004 85574 12960 01609 10223 20119 39578 40116 52016 60001 333 10312
AAXX 09004 85629 12770 12611 10270 20123 40101 53010 60001 81200 333 10309 56200 81850
AAXX 09004 85682 12960 02411 10161 20117 40131 55000 60001 333 10216
AAXX 09004 85743 12960 53009 10140 20099 40156 53012 60001 80004 333 10248 56006 85075
AAXX 09004 85799 12960 32205 10145 20103 40167 54001 60001 80001 333 10200 56004 83070
AAXX 09004 85864 12980 32206 10204 20022 40114 57003 60001 83030 333 10240 56060 83360
AAXX 09004 85874 32982 /3017 10171 20008 39502 40107 56007 333 10227
AAXX 09004 85934 12580 12514 10119 20032 40104 54001 60001 81100 333 10149 56600 81820
AAXX 09004 89056 11225 82821 10006 21003 49881 52109 69904 71022 886// 333 10015 20003 56699 88705
AAXX 09004 89057 12460 72413 10014 20007 49878 52013 60004 87500 333 10030 20013 56600 87617
AAXX 09004 89058 32560 82918 10008 21003 39859 49880 52006 885//
AAXX 09004 89059 11440 82317 10001 21012 49848 51115 60004 71022 886// 333 10007 21002 75599 88710
AAXX 09004 89251 32460 82917 10007 21002 49873 52005 8651/ 333 10015
AAXX 09004 78925 11675 71101 10235 20227 40126 53011 60011 72162 8287/ 333 10267 20231 58013 70024 82640 86362
AAXX 09001 78221 NIL
AAXX 09001 78224 31559 /0304 10198 20156 30111 40186 53012 70544 333 10252
AAXX 09001 78229 42458 70105 10208 20178 30111 40186 52010 8447/ 333 84618 87356
AAXX 09001 78239 41559 50507 10247 20215 30156 40159 52010 70522 858// 333 10273 84820
AAXX 09001 78244 NIL
AAXX 09001 78243 12559 50202 10222 20204 30048 40171 52013 60014 85200 333 85820
AAXX 09001 78255 12559 40000 10232 20213 30012 40161 52020 60202 83200 333 10269 83820
AAXX 09001 78264 31559 31303 10264 20213 30066 40141 52020 70200 83200 333 83825
AAXX 09001 78265 41560 30603 10242 20208 30045 40145 52020 70244 83200 333 10292 83820
AAXX 09001 78256 NIL
AAXX 09001 78259 NIL
AAXX 09001 78268 NIL
AAXX 09001 01001 11630 83417 11085 21095 39982 49994 58006 69901 73673 888// 333 91124
AAXX 09001 01008 41482 60404 11020 21067 39931 49964 53021 70121 865// 333 91112
AAXX 09001 01010 41989 01306 11006 21063 39996 40012 57004 70100 333 91110
AAXX 09001 01026 41989 00602 11066 21103 39891 40036 57002 70200 333 91103
AAXX 09001 01055 46/// /1806 10002 21078 30036 40054 52001 333 91110
AAXX 09001 01062 NIL
AAXX 09001 01098 41485 22005 11022 21051 30060 40078 52004 70200 82800 333 91107
AAXX 09001 01115 41689 11215 10024 21048 39917 49938 58014 70200 81211 333 91118
AAXX 09001 01152 11689 11010 10005 21053 39955 49971 57011 60001 70200 81100 333 91117
AAXX 09001 01205 NIL
AAXX 09001 01212 16/// /1215 10055 21021 39695 49710 58046 6//// 333 91119
AAXX 09001 01271 NIL
AAXX 09001 01288 NIL
AAXX 09001 01300 NIL
AAXX 09001 01317 NIL
AAXX 09001 01367 41230 82903 11090 21104 39353 49801 56066 77372 8572/ 333 91105
AAXX 09001 01384 41235 81306 10001 21003 39553 49797 56071 76977 887// 333 91111
AAXX 09001 01403 NIL
AAXX 09001 01415 NIL
AAXX 09001 01482 46/// /1815 1//// 2//// 39763 49770 57054 333 91132
AAXX 09001 01492 41X20 91404 10014 21001 39669 49785 56067 76997 333 91114
AAXX 09001 01003 NIL
AAXX 09001 01007 NIL
AAXX 09001 01028 11420 72507 10001 21008 39953 49973 53024 69951 78582 873// 333 91116
AAXX 09001 01047 41588 80000 11146 21165 39687 40069 58003 70220 885//
AAXX 09001 01049 16/// /1603 11081 21103 30067 40071 57003 69931 333 91105
AAXX 09001 01078 NIL
AAXX 09001 01102 46/// /1221 10017 21046 39863 49882 58032 333 91126
AAXX 09001 01160 NIL
AAXX 09001 01218 NIL
AAXX 09001 01238 NIL
AAXX 09001 01241 11886 81114 10014 21038 39797 49808 56045 60001 70222 86072 333 91120
AAXX 09001 01281 NIL
AAXX 09001 01338 16/// /0808 10038 21041 39644 49709 58046 60021 333 91117
AAXX 09001 01359 NIL
AAXX 09001 01397 16/// /1004 11022 21029 39416 49850 58068 60031 333 91110
AAXX 09001 01400 NIL
AAXX 09001 01427 NIL
AAXX 09001 01447 NIL
AAXX 09001 01448 46/// ///// 10066 20031 39732 49741 58049 333 91127
AAXX 09001 12772 31980 22901 10016 21051 39944 40237 52011 70300 80002
AAXX 09001 12822 36/// /1301 11014 21037 30089 40238 57015
AAXX 09001 12843 31984 30000 10007 21036 30067 40243 58003 70311 81042
AAXX 09001 12882 31980 11701 11025 21033 30110 40249 52016 70100 81042
AAXX 09001 12925 36/// /1401 11043 21053 30081 40262 57006
AAXX 09001 12942 31988 72402 10020 21035 30012 40265 58004 70311 80008
AAXX 09001 12982 31982 02602 10009 21030 30151 40256 58002 70100
AAXX 09001 45032 16/// /0207 10122 20031 30231 40247 52003 60000 333 70000
AAXX 09001 45035 16/// /0207 10132 20061 30200 40244 52002 60000 333 70000
AAXX 09001 45039 16/// /0005 10129 20058 30224 40240 52002 60000 333 70000
AAXX 09001 45044 16/// /0111 10132 20059 30132 40228 52002 60000 333 70000
AAXX 09001 10004 NIL
AAXX 09001 10015 01559 72315 10078 20054 39904 49914 58004 60071 72162 875// 333 32/// 55/// 20099 30097 55300 20000 30000 60057 87632 91125 91218 90326 91220 96465 96463
AAXX 09001 10020 07531 62414 10064 20037 39840 49872 57031 60071 74265 333 55/// 20109 30104 55300 20000 30000 60037 81/30 85/47 86/58 91127 91218 90333 91220
AAXX 09001 10035 01480 82208 10055 20045 39859 49917 56015 60131 76162 875// 333 33/// 55/// 20176 30132 42617 55300 20000 30000 41207 60087 87615 91122 91213
AAXX 09001 10055 01462 82009 10082 20069 39899 49909 56050 60031 76162 885// 333 32/// 55/// 20171 30135 55300 20000 30000 69977 88615 91120 91213
AAXX 09001 10147 01360 82112 10091 20080 39921 49939 56049 60041 76366 8702/ 333 32/// 55/// 20211 30143 42686 55300 20000 30000 41272 60037 87509 91120 91214
AAXX 09001 10162 07461 82109 10065 20054 39875 49957 57055 60041 75165 333 55/// 20232 30137 55300 20000 30000 60027 87/13 88/18 91119
AAXX 09001 10184 01456 81808 10057 20044 39965 49973 57062 60041 76362 875// 333 32/// 55/// 20267 30129 55300 20000 30000 60027 85711 87619 91117
AAXX 09001 10200 07583 52307 10071 20049 39952 49950 50000 60111 72386 333 55/// 20070 30070 55300 20000 30000 60087 82/23 85/48 85/57 91119 91213
AAXX 09001 10224 01260 82613 10064 20052 39967 49973 55024 60051 76162 875// 333 32/// 55/// 20146 30143 55300 20000 30000 60047 83706 84619 87630 91122 91215 96263
AAXX 09001 10270 06560 72007 10065 20039 39968 40023 58049 60031 222// 06055 333 55300 60017 87/31 91115
AAXX 09001 10338 01570 82211 10102 20063 39916 49987 56051 69931 76066 875// 333 31/// 55/// 20202 30190 55300 20000 30000 69907 87625 91121 91212
AAXX 09001 10361 17686 82007 10085 20044 39929 40031 58046 69901 70065 333 55/// 20264 30207 55300 20000 30000 88/40
AAXX 09001 10393 01662 82006 10048 20030 39941 40068 56042 60021 76162 875// 333 32/// 55/// 20265 30167 55300 20000 30000 60027 87641 91113
AAXX 09001 10400 01580 72211 10108 20080 39983 40032 56035 60021 72162 875// 333 32/// 55/// 20135 30133 55300 20000 30000 60017 87620 91119 91213
AAXX 09001 10438 07461 81705 10062 20052 39776 40055 58036 60031 75165 333 55300 60027 87/13 88/19 91114
AAXX 09001 10469 01270 82111 10062 20042 39906 40071 56043 69941 76362 8652/ 333 31/// 55300 69947 81705 86640 88557 91117 91213
AAXX 09001 10488 01270 81906 10053 20018 39818 40100 56038 69911 76362 875// 333 31/// 55/// 20236 30165 42669 55300 20000 30000 41188 69917 82706 85631 87650
AAXX 09001 10506 01370 82409 10073 20059 39497 40073 56030 69951 76165 885// 333 31/// 55/// 20187 30183 55300 20000 30000 69937 88609 91118 91211 96460 96459 96450
AAXX 09001 10548 07477 81905 10042 20024 39561 40104 58030 69921 75165 333 55/// 20227 30220 55300 20000 30000 69927 87/14 88/19
AAXX 09001 10637 01575 82212 10099 20055 39969 40105 58030 69901 76022 885// 333 31/// 55300 69907 81620 86624 87630 91117 91213
AAXX 09001 10685 07383 82007 10032 20006 39440 40119 56030 69901 76165 333 55/// 20175 30174 55300 20000 30000 69907 87/09 88/15 88/69 91115
AAXX 09001 10738 12686 72307 10089 20030 39691 40158 57023 60001 8657/ 333 31/// 55300 86637 87362 91113
AAXX 09001 10763 12582 81704 10056 20011 39763 40148 56029 60001 875// 333 31/// 55/// 20298 30258 55300 20000 30000 87630
AAXX 09001 10788 15665 40905 10001 21003 39746 40191 57025 60001 333 55/// 20318 30258 55300 20000 30000 84/44
AAXX 09001 10852 15988 82104 10057 20019 39603 40175 56028 60001 333 55/// 20525 30240 55300 20000 30000 88/59
AAXX 09001 10946 15988 82204 10050 21006 39356 40193 56016 60001 333 55/// 20456 30216 55300 20000 30000 88/62
AAXX 09001 45032 16/// /0207 10122 20031 30231 40247 52003 60000 333 70000
AAXX 09001 45035 16/// /0207 10132 20061 30200 40244 52002 60000 333 70000
AAXX 09001 45039 16/// /0005 10129 20058 30224 40240 52002 60000 333 70000
AAXX 09001 45044 16/// /0111 10132 20059 30132 40228 52002 60000 333 70000
AAXX 09004 89009 41961 60907 11309 36759 56006 77672 80008 333 11251 21313 86260
AAXX 09004 89009 41961 60907 11309 36759 56006 77672 80008 333 11251 21313 86260
AAXX 09004 89664 11458 80808 11043 21071 39739 49781 56002 60024 77177 888// 333 11035 21054 56499 58022 81615 85620 88640 90987 93197
AAXX 09004 87692 32360 51108 10176 20163 30169 40194 52007 84601 333 10213 20176 56300 84708 83070 555 10193 64143 65210
AAXX 09001 01015 NIL
AAXX 09001 01023 41989 00000 11145 21158 39940 40041 57003 70200 333 91102
AAXX 09001 01033 46/// /1403 10002 21085 39999 40030 58003 333 91109
AAXX 09001 01059 16/// /2002 11094 21115 30062 40072 58001 6//// 333 91108
AAXX 09001 01089 16/// /1302 11086 21091 39977 40088 52002 6//// 333 91105
AAXX 09001 01167 41989 13402 10000 21091 39992 49996 57010 70300 80001 333 91107
AAXX 09001 01180 NIL
AAXX 09001 01210 16/// /1110 10049 21026 39673 49699 56035 6//// 333 91117
AAXX 09001 01228 46/// /1418 10027 21038 39775 49782 58038 333 91124
AAXX 09001 01240 16/// /1220 10025 21022 39796 49815 58041 6//// 333 91127
AAXX 09001 01304 46/// /1218 10055 21021 39623 49653 58035 333 91126
AAXX 09001 01311 46/// /1208 10018 20008 39592 49651 56031 333 91121
AAXX 09001 01340 16/// /0910 11020 21051 38861 49709 58043 69971 333 91119
AAXX 09001 01355 16/// ///// 10046 21071 39728 49733 58054 60001
AAXX 09001 01360 NIL
AAXX 09001 01392 16/// /1303 10001 21012 39600 49823 58076 60021 333 91115
AAXX 09001 01406 46/// /1510 10040 20034 39617 49635 56039 333 91124
AAXX 09001 01411 16/// /1616 10059 20041 39604 49629 56056 6//// 333 91127
AAXX 09001 01425 16/// /1709 10040 20017 39602 49679 58068 60071 333 91121
AAXX 09001 01433 46/// /1013 11033 21053 38473 49695 58046 333 91123
AAXX 09001 01442 NIL
AAXX 09001 01450 NIL
AAXX 09001 01452 16/// /2011 10051 20019 39721 49741 58047 60041 333 91120
AAXX 09001 01473 16/// /3602 11020 21024 39560 49766 56055 6//// 333 91108
AAXX 09001 01494 16/// /1308 10008 20005 39717 49782 58059 60121 333 91116
AAXX 09004 78897 12580 50303 10253 20230 40126 52010 69921 82232 333 0285/ 10298 20229 58003 70002 82821 84365
AAXX 09004 89664 11458 80808 11043 21071 39739 49781 56002 60024 77177 888// 333 11035 21054 56499 58022 81615 85620 88640 90987 93197
AAXX 09001 01037 16/// /1802 11070 21075 30051 40057 57005 69961 333 91104
AAXX 09001 01046 NIL
AAXX 09001 01058 16/// /1301 11139 21154 39597 40089 58004 69961 333 4/013 91103
AAXX 09001 01065 16/// /2302 11191 21209 39924 40099 50001 60011 333 91103
AAXX 09001 01092 46/// /2205 11037 21083 333 91108
AAXX 09001 01107 16/// /1111 10031 20031 39944 49948 58014 60001 333 91116
AAXX 09001 01114 16/// /0905 10017 21073 39937 49947 58010 60001 333 91111
AAXX 09001 01144 46/// /1115 10011 21049 333 91120
AAXX 09001 01199 NIL
AAXX 09001 01245 NIL
AAXX 09001 01259 16/// /1010 11001 21054 39830 49852 56024 60001 333 91128
AAXX 09001 01262 NIL
AAXX 09001 01278 NIL
AAXX 09001 01293 16/// /1307 11015 21051 39663 49870 58049 60001 333 91110
AAXX 09001 01329 16/// /0708 10055 21018 39611 49669 57053 69931 333 91121
AAXX 09001 01337 16/// /0603 10035 21029 39626 49690 58047 60051 333 91110
AAXX 09001 01344 16/// ///// 11011 21063 60051 333 4/033
AAXX 09001 01364 16/// /0908 11075 21096 38664 49779 50043 60021 333 4/021 91118
AAXX 09001 01373 16/// /0000 11060 21068 39575 49776 56061 60081 333 91102
AAXX 09001 01374 NIL
AAXX 09001 01380 16/// /1208 11055 21069 6//// 333 4/013 91114
AAXX 09001 01389 11705 83203 11097 21108 39524 49842 56077 60041 77372 8372/ 333 91106
AAXX 09001 01393 NIL
AAXX 09001 01424 16/// ///// 10043 20003 39676 49680 58049 60061
AAXX 09001 01431 16/// /1806 10012 21006 39050 49691 58058 60361 333 91114
AAXX 09001 01436 NIL
AAXX 09001 01465 16/// /2015 10078 20023 39732 49750 58044 60071 333 91130
AAXX 09001 01471 16/// /0000 11071 21082 60121 333 91103
AAXX 09001 01483 NIL
BBXX BATFR47 09004 99255 51313 46/// /0118 10245 20204 40144 56021 222//
BBXX BATEU09 09004 99439 10100 46/// /0306 10145 20112 40233 22261 00180
BBXX BATFR04 09004 99561 70088 44/97 63131 10059 20014 49989 701// 8//// 22233 00112
BBXX BATFR14 09004 99313 70388 44297 21018 10219 20189 40227 70200 82102 22254 00217 20502
BBXX BATEU08 09004 99595 70242 46/// /3336 10015 21078 40104 58012 22223
BBXX A8QJ7 09004 99057 50315 41/98 /3511 10270 20226 40121 50007 70200 8/2// 22242 06260 2//// 3//// 4//// 5//// 80240
BBXX BATFR06 09004 99454 70015 46/// /2515 10147 20114 40220 22241 00159
BBXX FVNM 09004 99093 71066 46/// /0615 10267 20229 40100 55006 22231 00269
BBXX BATFR08 09004 99464 30519 46/// /1522 10044 20034 40142 52140 22261 00060
BBXX BATFR12 09004 99484 70071 46/// /3213 10119 20099 40167 53010 22211 00145
BBXX BATFR21 09004 99429 10069 46/// ///// 20162 40228 57006 22263
BBXX BATFR42 09004 99499 70022 46/// /3036 10112 20039 40103 222// 00142
BBXX BATEU01 09004 99474 70357 46/// /2008 10137 20105 40194 58006 22264 00129
BBXX BATFR56 09004 99054 10940 44497 50408 10269 20230 40096 52009 70222 8/54/ 22252 00299 303// 41004 5////
BBXX BATFR52 09004 99501 70013 46/// /3029 10110 20042 40101 53026 22243 00134
AAXX 09001 10007 NIL
AAXX 09001 10044 46/// /2517 10056 20042 39883 49915 55019 222// 00063 333 55300 91129 91222
AAXX 09001 10046 41330 82510 10063 20047 39888 49926 55026 76366 877// 333 87708 91016 91119 91212
AAXX 09001 10091 07450 82016 10054 20045 39891 49942 56067 60041 76276 333 55/// 20240 30125 55300 20000 30000 60037 83/10 87/24 88/47 91123 91217
AAXX 09001 10113 07570 52310 10070 20051 39917 49936 50003 60081 72265 333 55/// 20095 30089 55300 20000 30000 60067 83/32 84/39 85/47 91120 91212
AAXX 09001 10124 46/// /2217 10061 2//// 39885 49922 56005 222// 00065 333 553// 91127 91222
AAXX 09001 10131 07481 72409 10060 20036 39921 49936 56012 60071 72386 333 55/// 20122 30109 55300 20000 30000 60067 81/19 87/58 87/61 91121 91213
AAXX 09001 10170 01480 81908 10069 20055 39927 49943 56058 60031 76162 885// 333 32/// 55/// 20261 30136 55300 20000 30000 60017 88613 91120
AAXX 09001 10264 06563 71807 10062 20045 39873 49978 58054 60011 333 55/// 20235 30148 55300 20000 30000 69927 86/22 87/26 87/33 91114
AAXX 09001 10291 01580 81808 10049 20034 39966 40034 58049 60021 72162 875// 333 31/// 55/// 20267 30161 55300 20000 30000 60027 87632 91113
AAXX 09001 10315 01465 82211 10104 20081 39929 49992 56041 69971 76362 875// 333 31/// 55/// 20123 30122 55300 20000 30000 69977 81611 87618 91120 91212
AAXX 09001 10379 01681 81908 10060 20029 39918 40039 58047 69961 70362 8552/ 333 31/// 55/// 20217 30128 42710 55300 20000 30000 41186 69927 85641 87460 91116
AAXX 09001 10382 01675 72008 10064 20028 39995 40040 58050 60011 76162 875// 333 32/// 55/// 20185 30133 55300 20000 30000 69987 87639 91114
AAXX 09001 10384 06/// /1907 10064 20031 39985 40045 57050 60011 333 55/// 20200 30137 55300 20000 30000 69997 91113
AAXX 09001 10427 01/01 92313 10035 20035 39047 48362 58036 60051 76164 333 44030 55/// 20103 30103 55300 20000 30000 60047 91123 91215 96041 96463
AAXX 09001 10430 NIL
AAXX 09001 10439 41460 81806 10068 20051 39842 40061 57036 76186 875// 333 87613 91113
AAXX 09001 10453 11/90 92332 11001 21001 38666 48307 56053 60031 74984 333 49050 55300 91146 91235 96486 96449 96439
AAXX 09001 10496 07382 81905 10051 20022 39998 40083 56043 69921 72365 333 55/// 20219 30121 55300 20000 30000 69927 85/07 88/33 88/46
AAXX 09001 10499 01681 81911 10039 21008 39817 40110 56046 69901 70262 8357/ 333 31/// 55/// 20284 30143 55300 20000 30000 69907 83640 88360 91119 91213
AAXX 09001 10505 01482 82315 10097 20074 39774 40050 58026 69981 76162 885// 333 31/// 55/// 20195 30194 55300 20000 30000 69917 87612 91123 91216
AAXX 09001 10513 01572 82208 10114 20064 39945 40064 56030 69941 70262 875// 333 31/// 55/// 20156 30154 55300 20000 30000 69907 82620 87626 91113
AAXX 09001 10532 07478 72210 10093 20061 39829 40074 56037 69981 72265 333 55/// 20247 30230 55300 20000 30000 69987 82/15 87/22 87/38 91117 91212
AAXX 09001 10544 01/03 92217 10023 20023 39009 48393 58028 69961 76164 333 44011 55300 69967 91125 91219 96041 96263 96468
AAXX 09001 10554 01568 82310 10062 20036 39688 40074 56027 69911 76162 875// 333 31/// 55/// 20228 30204 55300 20000 30000 69917 87626 91119 91214 96463
AAXX 09001 10567 01585 82210 10061 20028 39717 40092 56036 69921 76122 875// 333 31/// 55/// 20128 30123 55300 20000 30000 69927 87625 91117 91213
AAXX 09001 10578 11/01 92223 11017 21019 38708 48407 56029 60001 74944 333 48/// 55/// 20110 30103 55300 20000 30000
AAXX 09001 10609 01360 82212 10081 20070 39784 40112 58021 60011 72162 877// 333 31/// 55/// 20235 30216 55300 20000 30000 60017 87707 91120 91214
AAXX 09001 10616 01366 82408 10068 20054 39499 40095 58031 69961 72165 878// 333 31/// 55300 69967 84807 85613 87623 91118 96463
AAXX 09001 10641 15588 82109 10101 20053 39956 40101 56035 60001 333 55300 87/29 88/36 91117 91211
AAXX 09001 10655 01683 82511 10084 20040 39793 40119 58033 69901 70262 8557/ 333 31/// 55/// 20355 30279 55300 20000 30000 69907 85643 87363 91117 91212
AAXX 09001 10675 07586 81504 10056 20012 39844 40137 56029 69901 70060 333 55/// 20251 30232 55300 20000 30000 69907 87/29 88/42
AAXX 09001 10688 15581 81705 10039 20007 39626 40154 58032 60001 333 55/// 20235 30215 55300 20000 30000 88/30 88/56
AAXX 09001 10708 01468 82209 10079 20060 39757 40141 56023 69901 72162 875// 333 31/// 55/// 20303 30241 55300 20000 30000 69907 87612 91116 91211
AAXX 09001 10729 15685 81708 10091 20051 30022 40143 58024 60001 333 55/// 20411 30269 55300 20000 30000 87/34 87/42 88/50 91113
AAXX 09001 10731 15588 82210 10101 20042 30001 40143 58024 60001 333 55/// 20451 30251 55300 20000 30000 82/30 88/50 88/67 91115 91212
AAXX 09001 10742 15688 82405 10086 20030 39817 40147 56021 60001 333 55/// 20446 30279 55300 20000 30000 88/34
AAXX 09001 10776 15681 71504 10019 21002 39723 40177 57027 60001 333 55/// 20394 30245 55300 20000 30000 85/41 87/61 87/65
AAXX 09001 10791 06/// ///// 11029 21031 38494 48440 56031 69901 333 55300 69907
AAXX 09001 10805 15688 82008 10095 20043 39984 40174 56020 60001 333 55/// 20409 30241 55300 20000 30000 87/48 88/73
AAXX 09001 10815 17488 82408 10047 20025 39217 48456 57028 69901 70060 333 4/001 55/// 20426 30287 55300 20000 30000 86/15 87/22 88/28 91120
AAXX 09001 10836 15585 82207 10033 20012 39293 40171 58022 60001 333 55/// 20416 30233 55300 20000 30000 88/25 91115
AAXX 09001 10870 12984 71905 10027 21010 39645 40189 58024 60001 8703/ 333 31/// 55300 87363
AAXX 09001 10895 15978 52003 10002 21020 39614 40200 58024 60001 333 55/// 20233 30179 55300 20000 30000 83/61 85/63
AAXX 09001 10908 06006 82320 11001 21001 38466 48464 56020 69941 333 55/// 20236 30236 55300 20000 30000 69937 87/00 88/04 91133 91226
AAXX 09001 10929 12582 72404 10062 20021 39663 40198 56018 60001 82532 333 31/// 55/// 20461 30238 55300 20000 30000 82630 83361 87080
AAXX 09001 10948 15988 71702 11009 21020 39249 48476 56012 60001 333 4/007 55/// 20529 30256 55300 20000 30000 81/61 87/64 87/68
AAXX 09001 10961 46/// /2418 11050 21103 37073 47042 58005 333 55/// 20692 42076 55300 20000 41002 91127 90225 91218 91220
AAXX 09001 10962 12989 72307 10012 21019 39029 48469 56022 60001 8703/ 333 48004 55/// 20603 30175 55300 20000 30000 87359
AAXX 09001 10980 46/// /2109 10000 21074 38135 48482 58012 333 55/// 20291 30271 55300 20000 30000 91114 91212
AAXX 09001 01025 16/// /1001 11091 21112 30025 40036 57000 6//// 333 91105
AAXX 09001 01052 16/// /0903 11024 21073 39950 40050 57003 60001 333 91109
AAXX 09001 01122 16/// /1406 10003 21065 39848 49937 58018 60001 333 91115
AAXX 09001 01132 16/// /1603 11033 21061 39549 49940 58018 60001 333 4/058 91110
AAXX 09001 01156 16/// /0906 10007 21051 39976 49986 55009 60001 333 91112
AAXX 09001 01203 46/// /1014 10043 21042 39626 49673 58037 333 91122
AAXX 09001 01233 16/// /1504 11034 21044 60041 333 91112
AAXX 09001 01265 16/// /2801 11104 21115 39254 49847 58064 60021 333 91103
AAXX 09001 01273 16/// /1208 11005 21062 39645 49839 58045 60001 333 91115
AAXX 09001 01307 46/// /1115 10035 20011 39610 49637 56025 333 91123
AAXX 09001 01321 16/// /1203 10008 21037 39458 49704 56045 69951 333 91116
AAXX 09001 01327 16/// /0908 10003 21021 60061 333 91116
AAXX 09001 01350 16/// /1114 11067 21069 38361 49708 56044 60011 333 91120
AAXX 09001 01361 16/// /1007 11056 21074 38748 49763 58029 60011 333 4/075 91116
AAXX 09001 01375 NIL
AAXX 09001 01378 16/// /1604 10000 21015 39504 49791 57077 60051 333 91110
AAXX 09001 01385 16/// /0805 11008 21014 39539 49807 56073 60041 333 91114
AAXX 09001 01412 16/// /1813 10065 20043 39609 49637 56073 60021 333 91128
AAXX 09001 01422 16/// /0402 10053 20011 60031 333 91115
AAXX 09001 01440 NIL
AAXX 09001 01441 NIL
AAXX 09001 01467 NIL
AAXX 09001 01469 16/// /1303 10006 21013 39607 49776 56056 60061 333 91115
AAXX 09001 01477 16/// /0901 10001 21002 60191 333 4/027 91111
AAXX 09001 01480 16/// /0104 10013 21005 60111 333 91111
AAXX 09001 01484 16/// /1310 10010 21011 39644 49797 60091
AAXX 09001 01490 16/// /1305 11017 21018 60051 333 91115
AAXX 09001 01495 16/// /1513 10037 20022 39763 49775 56060 60121 333 91121
AAXX 09004 78897 12580 50303 10253 20230 40126 52010 69921 82232 333 0285/ 10298 20229 58003 70002 82821 84365
AAXX 09001 01121 46/// /1112 10020 21051 39922 49934 56010 333 91121
AAXX 09001 01135 16/// /1602 11021 21052 39799 49952 57015 60001 333 4/003 91105
AAXX 09001 01143 16/// /0704 10000 21057 60001 333 91113
AAXX 09001 01150 16/// /2802 11030 21074 60001 333 91108
AAXX 09001 01192 16/// /1102 11043 21101 60001 333 4/005 91112
AAXX 09001 01225 46/// /0915 10038 21034 39747 49751 58042 333 91120
AAXX 09001 01230 16/// /0907 11029 21049 69941 333 4/033 91122
AAXX 09001 01232 16/// /1405 10035 21062 39664 49741 56057 60001 333 4/026
AAXX 09001 01234 16/// /0507 10009 21039 69941 333 91109
AAXX 09001 01253 16/// /1804 11014 21054 60001 333 4/033 91111
AAXX 09001 01254 16/// /1606 11004 21046 60001 333 4/022 91111
AAXX 09001 01257 NIL
AAXX 09001 01277 NIL
AAXX 09001 01291 16/// /1211 11026 21060 60001 333 4/019 91118
AAXX 09001 01332 NIL
AAXX 09001 01366 46/// /1313 11081 21096 38164 49760 58046 333 91124
AAXX 09001 01370 16/// /0502 11061 21071 38710 49878 56061 60051 333 4/017 91107
AAXX 09001 01376 16/// /0802 10003 21003 60161 333 91103
AAXX 09001 01383 46/// /2701 11118 21126 39530 49854 58073 333 91103
AAXX 09001 01386 16/// ///// 11001 21010 60021
AAXX 09001 01416 16/// ///// 10044 20039 60061
AAXX 09001 01419 16/// /1904 10027 20003 60071 333 91115
AAXX 09001 01430 NIL
AAXX 09001 01434 16/// /0604 11030 21040 38773 49710 57043 60071 333 91109
AAXX 09001 01455 16/// /1602 10014 21002 39440 49742 58042 60051 333 91110
AAXX 09001 01468 16/// /1306 10006 21005 60031 333 91112
AAXX 09001 01470 16/// /1702 10027 20019 39645 49756 56040 60051 333 4/007 91114
AAXX 09001 01476 NIL
AAXX 09001 01481 16/// /1804 10057 20042 39735 49766 56062 60191 333 91118
AAXX 09001 01488 NIL
AAXX 09004 89664 11458 80808 11043 21071 39739 49781 56002 60024 77177 888// 333 11035 21054 56499 58022 81615 85620 88640 90987 93197
AAXX 09004 07005 04/48 /2618 10097 20086 30000 40089 55002 60031 763// 333 60037 91029 90710 91137 555 60035
AAXX 09004 07015 01456 82720 10108 20094 30013 40069 55004 60011 76062 875// 333 60017 87617 90710 91140 93100 555 60015
AAXX 09004 07020 01562 8//// 1//// 2//// 30098 4//// 51020 6///1 76062 885// 333 6///7 88626 555 6///5
AAXX 09004 07027 04585 82323 10123 20093 30031 40111 56011 60001 700// 333 60007 91037 90710 91137 555 60005
AAXX 09004 07037 04486 82219 10110 20087 39926 40108 56019 69901 700// 333 69907 91030 90710 91132 555 69905
AAXX 09004 07070 04570 82319 10110 20077 30008 40117 58022 60001 700// 333 60007 90710 91132 555 60005
AAXX 09004 07110 01230 83210 10103 20098 30036 40151 55002 60021 75865 887// 333 60027 87705 90710 91127 93100 555 69965
AAXX 09004 07117 02156 82914 10098 20092 30070 40140 53008 60041 887// 333 60037 90710 91127 92446 555 69945
AAXX 09004 07130 04485 82310 10122 20103 30107 40159 55009 69921 700// 333 60007 90710 91118 555 60005
AAXX 09004 07139 06/// /2414 10113 20085 39973 40146 56011 60001 333 60007 90710 91126 555 60005
AAXX 09004 07149 04486 82213 10107 20088 30031 40140 58014 69901 700// 333 69907 90710 91126 555 60005
AAXX 09004 07168 04/70 /2217 10109 20081 30017 40159 57019 69901 700// 333 69907 90710 91126 555 60005
AAXX 09004 07181 04485 82118 10080 20066 39747 40158 56021 69901 700// 333 69907 90710 91128 555 69905
AAXX 09004 07190 04686 72117 10108 20043 39979 40161 56023 60001 700// 333 60007 90710 91129 555 60005
AAXX 09004 07207 02665 62723 10137 20107 60001 86500 222// 327// 333 60007 90710 91133 92457 555 60005
AAXX 09004 07222 01470 72408 10120 20112 30149 40180 58012 69921 721// 875// 333 69927 83610 83615 87656 90710 91117 555 69925
AAXX 09004 07240 01465 82110 10108 20094 30044 40179 58011 69901 76065 885// 333 69907 85613 88636 90710 91117 93100 555 69905
AAXX 09004 07255 04370 82410 10105 20091 30000 40201 55010 69921 700// 333 69907 90710 91123 555 69905
AAXX 09004 07280 04684 82015 10090 20054 39930 40205 57012 60001 700// 333 60007 90710 91120 555 60005
AAXX 09004 07299 04786 72207 10093 20037 39866 40195 58017 60001 700// 333 60007 90710 91113 555 60005
AAXX 09004 07314 02668 82920 10139 20107 30181 40209 58012 69981 88500 333 60007 88633 90710 91129 555 60005
AAXX 09004 07335 04486 82210 10107 20098 30059 40204 58009 69961 700// 333 69967 90710 91125 555 69925
AAXX 09004 07434 04269 82111 10087 20081 39744 40227 57012 69901 700// 333 69907 90710 91117 555 60005
AAXX 09004 07460 02680 71807 10079 20035 39834 40229 56008 60001 85501 333 60007 84636 87073 90710 91118 93100 555 60005
AAXX 09004 07471 04970 /2603 10041 20016 39263 48844 56010 60001 700// 333 60007 90710 91110 555 60005
AAXX 09004 07481 02965 31510 10045 20027 39947 40243 58006 60001 80002 333 60007 83071 90710 91114 93100 555 60005
AAXX 09004 07510 01470 72108 10122 20109 30167 40233 58011 69921 70162 878// 333 69927 82819 86656 90710 91114 93100 555 69925
AAXX 09004 07535 06/// /2007 10100 20072 39933 40248 56005 60001 333 60007 90710 91114 555 60005
AAXX 09004 07558 06/// /3402 10055 20028 39405 40257 58009 60001 333 60007 90710 91105 555 60005
AAXX 09004 07577 04/68 /3002 10033 20023 30156 40249 56002 60001 700// 333 60007 90710 91103 555 60005
AAXX 09004 07591 04/// /0407 10020 21033 39227 4//// 57002 60001 700// 333 60007 90710 91111 555 60005
AAXX 09004 07607 04950 /0000 10049 20043 30182 40256 58005 60001 700// 333 60007 90710 91103 555 60005
AAXX 09004 07621 02970 71705 10059 20032 39818 40262 58008 60001 80002 333 60007 87073 90710 91109 93100 555 60005
AAXX 09004 07627 06/// /1401 10028 20016 39767 40273 57004 60001 333 60007 90710 91103 555 60005
AAXX 09004 07630 04956 /1904 10055 20045 30075 40261 56007 60001 700// 333 60007 90710 91106 555 60005
AAXX 09004 07643 02982 43504 10059 20041 30235 40245 58001 60001 80001 333 60007 84076 90710 91106 555 60005
AAXX 09004 07650 04982 /1006 10057 20029 30204 40244 58001 60001 700// 333 60007 90710 91109 555 60005
AAXX 09004 07661 06/// /2711 10103 20016 30072 40235 58002 60001 333 60007 90710 91114 555 60005
AAXX 09004 07690 02582 23311 10099 20027 30197 40231 58003 60001 82500 333 60007 82622 90710 91114 93100 555 60005
AAXX 09004 07747 04986 /2402 10074 20054 30198 40253 57008 60001 700// 333 60007 90710 91106 555 60005
AAXX 09004 07761 02670 60507 10119 20068 30237 40248 56002 60001 86500 333 60007 86633 90710 91110 93100 555 60005
AAXX 09004 07790 04986 /2304 10098 20076 30217 40232 56003 60001 700// 333 60007 90710 91106 555 60005
AAXX 09004 48698 01456 63503 10263 20248 30080 40098 60404 70522 81132 333 20232 58007 60007 70404 81818 86080
AAXX 09004 48698 01456 63503 10263 20248 30080 40098 60404 70522 81132 333 20232 58007 60007 70404 81818 86080
AAXX 09001 45032 36/// /0206 10123 20027 30231 40247 52003 333 91114
AAXX 09001 45035 36/// /0207 10132 20060 30200 40244 52002
AAXX 09001 45039 36/// /0004 10129 20057 30224 40240 52002
AAXX 09001 45044 36/// /0111 10132 20060 30133 40228 52003
AAXX 09004 91348 11474 80609 10289 20251 30047 40100 50002 60024 72522 87201 333 20245 561/9 58003 70015 555 90900
AAXX 09004 03005 11456 83448 10029 20013 39594 49692 52089 60041 76386 887// 92350 333 41998 55/// 20010 88710 90710 91167 91066
AAXX 09004 03017 17557 /3340 10042 21008 39764 49795 51103 60021 704// 92350 333 55/// 20071 81/22 87/31 90710 91155 91053
AAXX 09004 03023 15761 /3317 10051 21022 39943 49947 51046 69901 92350 333 83/50 83/64 90710 91127
AAXX 09004 03026 15961 /3220 10035 21014 39900 49918 51056 69981 92350 333 55/// 20084 8//99 90710 91133
AAXX 09004 03063 17670 /2504 10018 21008 39622 49898 53074 60081 781// 92350 333 55/// 20056 87/38
AAXX 09004 03066 15666 /2924 10045 21009 39871 49877 51085 60041 92350 333 55/// 20094 87/46 90710 91144
AAXX 09004 03075 17659 /3140 10034 21017 39765 49809 51096 60041 704// 92350 333 86/33 86/46 90710 91158 91056
AAXX 09004 03091 17662 /3027 10040 20000 39751 49830 51102 60051 723// 92350 333 55/// 20109 81/30 86/50 90710 91147 91039
AAXX 09004 03100 17661 /3317 10058 20003 39937 49953 5//// 60071 720// 92350 333 55/// 20103 86/42 86/61 90710 91130
AAXX 09004 03111 16571 /2927 10062 20022 39951 49963 51036 60021 92350 333 81/28 86/41 90710 91144
AAXX 09004 03134 17575 /2711 10039 20018 39856 49928 51048 60061 723// 92350 333 55/// 20112 81/24 83/28 85/63 90710 91141
AAXX 09004 03136 17444 /3213 10041 20025 39918 49951 51046 60061 762// 92350 333 55/// 20110 81/11 86/20 90710 91132
AAXX 09004 03162 17379 /2713 10025 20006 39653 49939 53041 60051 781// 92350 333 55/// 20085 81/08 86/17 90710 91127
AAXX 09004 03166 15967 /2416 10038 20008 39838 49907 52059 60021 92350 333 55/// 20106 8//99 90710 91130 91026
AAXX 09004 03171 11683 12818 10048 21026 39870 49882 51079 69901 70161 81532 92350 333 55/// 20132 81630 90710 91130
AAXX 09004 03204 12680 32824 10058 21003 39990 40010 53030 60001 83800 92350 333 55/// 20127 81830 83635 90710 91139
AAXX 09004 03240 15981 /2622 10053 20004 39872 49900 53056 69901 92350 333 55/// 20111 8//99 90710 91143 91032
AAXX 09004 03257 17562 /2630 10049 21002 39908 49949 53022 69901 781// 92350 333 55/// 20093 85/25 90710 91145 91045
AAXX 09004 03292 169// /2622 10053 21007 39919 49937 53014 60001 92350 333 8//99 90710 91140 91039
AAXX 09004 03302 15664 /2626 10059 21007 30036 40048 52027 60001 92350 333 55/// 20099 82/32 90710 91137
AAXX 09004 03354 15972 /2411 10038 21022 39879 40022 53023 69901 92350 333 55/// 20073 8//99
AAXX 09004 03377 11586 12618 10048 21029 39920 40004 53018 69901 70181 81500 92350 333 55/// 20069 81626 90710 91145 91029
AAXX 09004 03414 15980 /2717 10048 21036 39954 40042 53023 69981 92350 333 55/// 20147 8//99 90710 91132
AAXX 09004 03462 15983 /2517 10046 21019 39935 40025 52020 69921 92350 333 55/// 20126 8//99 90710 91125
AAXX 09004 03482 15774 /2520 10044 20000 39993 40019 53021 69961 92350 333 81/50 90710 91128
AAXX 09004 03502 15669 /2825 10061 20007 39922 40085 53024 69941 92350 333 55/// 20066 81/35 90710 91138
AAXX 09004 03535 15978 /2511 10043 21016 39924 40042 52021 69901 92350 333 55/// 20103 8//99
AAXX 09004 03590 11983 02619 10049 20006 39924 40034 53019 60031 70161 92350 333 55/// 20103 90710 91129
AAXX 09004 03649 11984 72612 10050 20001 39962 40063 51017 69981 70386 80008 92350 333 87278
AAXX 09004 03716 15780 /2917 10068 20011 30027 40087 53025 69941 92350 333 55/// 20110 82/56 90710 91133
AAXX 09004 03740 16976 /2514 10048 20003 39902 40080 51025 60011 92350 333 55/// 2//// 8//99
AAXX 09004 03746 15780 /2915 10053 20006 39933 40087 53024 60031 92350 333 81/50 90710 91126
AAXX 09004 03772 15672 /2608 10058 20022 30040 40070 53032 69981 92350 333 55/// 20095 81/45 85/74
AAXX 09004 03796 46/// /2819 10075 20034 39914 40056 51028 92350 333 90710 91131 91029
AAXX 09004 03803 17570 /2816 10086 20049 30105 40143 52016 69921 723// 92350 333 81/28 85/47 90710 91129 91026
AAXX 09004 03808 11680 83012 10080 20012 30026 40132 51015 60011 72165 885// 92350 333 55/// 20055 88640 90710 91126
AAXX 09004 03809 11560 73015 10066 20047 30039 40133 53017 60021 72165 875// 92350 333 84620 87635 90710 91129
AAXX 09004 03827 17775 /2912 10070 20035 30057 40119 53014 60021 723// 92350 333 81/50 87/68
AAXX 09004 03840 15777 /2910 10049 20017 39800 40107 53020 60021 92350 333 82/50
AAXX 09004 03853 11665 62612 10062 20029 40095 60021 72586 81571 92350 333 55/// 20119 81630 84362 90710 91125
AAXX 09004 03874 46/// /3023 10084 20043 30078 40089 53028 92350 333 90710 91131
AAXX 09004 03882 15964 /2711 10072 20033 30013 40076 53026 60061 92350 333 55/// 20075 87/70 91022
AAXX 09004 03894 NIL
AAXX 09004 03917 15977 /2515 10034 21007 39930 40007 51028 69921 92350 333 55/// 20152 8//99 90710 91131
AAXX 09004 61901 169// /1318 10156 20154 39663 40173 50002 60011 92350 333 8//99 90710 91125 555 7/090
AAXX 09004 61902 32584 51310 10230 20177 40142 85800 333 59006 82821 84636
AAXX 09004 88889 12989 72614 10116 20021 30052 40136 51003 60001 80002 92350 333 10188 87072
BBXX 42039 09001 99288 70860 46/// /0304 10127 40233 54000 92350 22200 00233 333 91206 555 11042 22043
AAXX 09001 45032 36/// /0206 10123 20027 30231 40247 52003 333 91114
AAXX 09001 45035 36/// /0207 10132 20060 30200 40244 52002
AAXX 09001 45039 36/// /0004 10129 20057 30224 40240 52002
AAXX 09001 45044 36/// /0111 10132 20060 30133 40228 52003
BBXX 46001 09001 99563 71480 46/// /2609 10050 40130 53008 92350 22200 00052 11107 20603 300// 41106 70036 333 91211 555 11091 22097 32336 42511 62349 259085 259092 260088 260086 259082 257079
BBXX 46082 09001 99597 71434 46/// ///// 10055 20055 40099 57011 92350 22200 00062 10806 70028
BBXX 46072 09001 99517 71722 46/// /2308 10045 21002 40164 51004 92350 22200 00055 11209 20604 3//// 41208 70046 333 91209 555 11082 22086 32333 42310 62349 234076 234074 246069 248066 248066 250064 82408 92346
BBXX 46035 09001 99571 71778 46/// /2409 1//// 40068 51015 92350 22200 11108 20604 300// 41107 70042 333 91210 555 11085 22091 32300 42713 62349 238084 240091 241091 242092 245103 260104 82712 92253
BBXX 46077 09001 99579 71543 46/// /2006 10048 20037 40068 58008 92350 22200 00043 10702 20502 3//// 40702 70012 333 91208 555 11063 22068 32312 42009 62349 195057 197064 197066 200073 194071 186069 82009 92312
BBXX 46072 09001 99517 71722 46/// /2308 10045 21002 40164 51004 92350 22200 00055 11209 20604 3//// 41208 70046 333 91209 555 11082 22086 32333 42310 62349 234076 234074 246069 248066 248066 250064 82408 92346
BBXX 44007 09001 99435 70701 46/// /2609 10047 21045 40202 51050 92350 22200 00088 11202 20401 3//// 41201 70009 333 91211 555 11093 22097 32325 42712 62349 263087 267093 273094 274086 274085 277079
BBXX 44013 09001 99423 70707 46/// /2810 10058 21024 40222 52046 92350 22200 00099 10402 20402 70009 333 91211 555 11104 22109 32250 42712 62349 277098 275096 276092 277089 278090 271088
BBXX 46026 09001 99378 71228 46/// /3104 10108 40199 56007 92350 22200 00121 11402 327// 41402 70009 333 91205 555 11045 22047 32319 42705 62349 302043 273046 271045 272041 274038 280045
BBXX 46041 09001 99474 71247 46/// /0201 10058 40285 57007 92350 22200 00095 12403 20401 3//// 42403 70015 333 91203 555 11014 22015 32317 43303 62349 015013 351017 341018 346014 326014 002011
BBXX 45008 09001 99443 70824 46/// /2514 10028 39959 40177 53014 92350 22200 00066 10605 20605 70023 333 91218 555 11153 22162 62349 252141 248141 245141 246137 247144 247145
BBXX 45002 09001 99453 70864 46/// /2711 11013 21108 39962 40182 53018 92350 22200 10603 20603 70016 333 91214 555 11114 22121 32314 42715 62349 271109 268105 273105 272118 269112 267108
BBXX 51004 09001 99175 71524 46/// /0510 10233 20194 92350 555 11109 22117
BBXX 51002 09001 99171 71578 46/// /0608 10246 40133 56024 92350 22200 00252 333 91209 555 11085 22090 32329 40611 62349 063081 064088 065089 062091 061088 063089
BBXX 51100 09001 99236 71539 46/// /0606 10224 40186 56026 92350 22200 00237 11706 20502 332// 41706 70029 333 91207 555 11063 22066 32313 40708 62349 064061 063061 062058 070060 061055 070057
AAXX 09004 91348 11474 80609 10289 20251 30047 40100 50002 60024 72522 87201 333 20245 561/9 58003 70015 555 90900
AAXX 09001 33815 42597 63005 10024 20000 39961 40172 52014 84530 555 11100
AAXX 09001 11816 12970 62602 10013 21028 30064 40233 55011 60001 80001 333 55034 86070
AAXX 09001 11826 15/69 /1102 11005 21027 30022 40229 57011 60001 333 55000
AAXX 09001 11903 12665 40000 11017 21022 39842 40238 50002 60001 84501 333 55001 84636
AAXX 09001 11934 12982 52104 11028 21059 39377 42804 53001 60001 80005 333 55004 85070 91121 92980
AAXX 09001 11968 12982 09901 11011 21059 39943 40235 52011 60001 333 55040
AAXX 09001 01062 11485 42307 11014 21035 39921 49934 51021 69901 70321 84500 333 91112
AAXX 09001 01205 46/// ///// 10062 21031 39638 49681 56039
AAXX 09001 01271 16/// /1207 10016 21053 39823 49844 58047 6//// 333 91117
AAXX 09001 01288 16/// /1105 11054 21065 39109 49858 58044 6//// 333 91114
AAXX 09001 01317 16/// ///// 10030 21001 39636 49650 56037 6//// 333 91123
AAXX 09001 01403 16/// ///// 10048 20028 39552 49618 56050 60041
AAXX 09001 01415 16/// /1711 10051 20028 39631 49641 58060 6//// 333 91124
AAXX 09001 01007 16/// /3404 11019 2//// 39964 49974 53017 60001 333 91113
AAXX 09001 01078 16/// /2107 11036 21076 30051 40064 50004 6//// 333 91110
AAXX 09001 01238 46/// /1210 11058 21070 38659 49765 58046 333 91122
AAXX 09001 01281 16/// /0505 11029 21058 39747 49923 58029 60001 333 91109
AAXX 09001 01359 16/// /0000 11074 21089 38862 49774 56046 60031 333 91111
AAXX 09001 01427 16/// /1918 10070 20034 39676 49691 58070 69931 333 91128
AAXX 09001 76040 32960 03402 10187 20007 30169 40183 57011 92340 333 10194 20010 30/// 50380 59023 70000 98660
AAXX 09001 76055 32980 73105 10164 21044 30148 40167 57006 80005 92340 333 0/006 10188 20041 30/// 50251 59018 70000 87270
AAXX 09001 76113 32880 32201 10180 20002 39694 40170 57004 83030 92340 333 10185 21018 30/// 50121 56040 59017 70000 83358
AAXX 09001 76122 32765 60000 10130 20043 38528 40168 52003 82034 92350 333 10161 21072 30/// 50181 56055 58/// 70000
AAXX 09001 76256 32980 50000 10186 20090 30157 40171 57006 85008 92340 333 10218 20087 30/// 50150 56//5 58004 70000 85070
AAXX 09001 76305 32670 70402 10195 20114 30154 40162 58007 82434 92330 333 10210 20105 30/// 5//// 56555 58/// 70000 82650 83060
AAXX 09001 76323 32970 82501 10200 21125 38261 40170 57013 80008 92345 333 10248 21032 30/// 50231 56007 59032 70000 88268
AAXX 09001 76342 32962 03601 10178 20031 39486 40200 57001 92350 333 10204 20034 30/// 50301 59050 70000
AAXX 09001 76373 32580 61601 10180 21047 38202 40147 51001 84222 92350 333 10244 21050 30/// 50431 56999 58001 70000 82825 82337 82067
AAXX 09001 76382 32980 40000 10212 20136 38886 40136 57014 80001 92340 333 10270 20045 30/// 50331 56003 59043 70000 84076
AAXX 09001 76390 31964 21803 10180 21004 38231 40117 52006 70544 80001 92330 333 10230 20019 30/// 50281 56006 59020 70000 82070
AAXX 09001 76393 31940 23401 10166 20044 39595 40180 57006 70500 81008 92345 333 10194 20040 30/// 50391 56035 59057 70000
AAXX 09001 76402 31857 40000 10226 20142 30102 40159 57001 70544 84020 92345 333 10250 20054 30/// 50211 56050 58015 70000
AAXX 09001 76458 32970 33006 10217 20168 30142 40147 57002 80002 92338 333 10263 20118 30/// 50261 56//9 58020 70000 83070
AAXX 09001 76471 32980 22703 10182 20073 37691 40054 52002 80001 92350 333 10230 20041 30/// 50540 56001 59003 70000 82075
AAXX 09001 76491 32960 31101 10200 20101 39800 40193 54000 80004 92350 333 10232 20024 30/// 50241 56009 59077 70000 83077
AAXX 09001 76499 32857 31102 10208 20115 30156 40178 52001 83030 92355 333 10260 20082 30/// 50281 56040 59080 70000 83357
AAXX 09001 76519 32560 42803 10232 20034 38363 40138 52003 80002 92340 333 10254 20028 30/// 50361 56006 58027 70000 84070
AAXX 09001 76525 32970 82208 10160 21014 37468 40102 55003 80001 92340 333 10218 20092 30/// 50581 56//5 59004 70000 88080
AAXX 09001 76543 32675 61103 10210 20126 30177 40210 55006 86500 92335 333 10243 20120 30/// 50251 56500 59070 70000 86650
AAXX 09001 76548 32875 50901 10198 20126 30189 40199 55010 85030 92345 333 10227 20134 30/// 50341 56040 59072 70000 85358
AAXX 09001 76556 32970 13003 10230 20161 39123 40134 57002 80005 92335 333 10275 20122 30/// 50281 56006 58014 70000 81070
AAXX 09001 76571 32965 42301 10222 21016 38155 40117 55003 80004 92350 333 10246 20048 30/// 50271 56005 59002 70000
AAXX 09001 76577 32970 12302 10211 20170 38034 40109 56008 80005 92340 333 10245 20073 30/// 50261 56005 58002 70000
AAXX 09001 76581 32970 01304 10180 20117 39049 40156 57005 92350 333 10230 20077 30/// 50330 59066 70000
AAXX 09001 76593 32460 30504 10214 20194 30184 40186 52002 83400 92350 333 10243 20186 30/// 50360 56100 59001 70000 83624 91006 91505
AAXX 09001 76612 32662 42902 10227 20075 38464 40108 55007 82231 92350 333 10273 20086 30/// 50161 56555 58011 70000 82840
AAXX 09001 76625 32960 02701 10210 20043 38139 40105 54000 92350 333 10242 20053 30/// 50370 59004 70000
AAXX 09001 76632 32967 30206 10165 20095 37613 40068 57026 83009 92345 333 10200 20064 30/// 5//// 56001 59011 70000 83272
AAXX 09001 76634 31670 40502 10176 20020 37847 40105 57002 70500 81101 92350 333 10234 20042 30/// 50331 563/3 59015 70000 81834 83075
AAXX 09001 76644 32460 10203 10216 20150 30169 40182 52002 81100 92350 333 10262 20184 30/// 50200 567// 59004 70000 81820
AAXX 09001 76654 31956 23201 10270 20211 30130 40133 57017 70544 82030 90000 333 10296 20210 30/// 50301 560/0 58003 70000 82359
AAXX 09001 76656 32975 51601 10210 20091 38503 40107 54000 80008 92350 333 10260 20100 30/// 50430 56005 58010 70000 85280
AAXX 09001 76658 31960 42304 10277 20156 39620 40116 56014 70541 80002 92347 333 0/001 10325 20166 30/// 50410 58003 70000 84070 98904
AAXX 09001 76662 31670 42603 10240 20111 38443 40084 57009 84400 92330 333 10292 20080 30/// 50320 56//0 58008 70000 84633
AAXX 09001 76665 31560 21601 10200 20119 38129 40129 52005 70100 82100 92355 333 10258 20099 30/// 50361 56100 57812 58026 70000 82814
AAXX 09001 76675 31575 12002 10155 20059 37373 40090 57004 70544 81100 92352 333 10200 20038 30/// 50291 569// 58003 70000 81626 98475
AAXX 09001 76681 31940 03601 10192 20088 37768 40145 57010 70500 92340 333 10220 20040 30/// 5//// 58003 70000
AAXX 09001 76683 32968 11501 10176 20075 37821 40135 56003 80001 92345 333 10218 20034 30/// 50331 56004 59004 70000 81080
AAXX 09001 76685 32970 21501 10182 20011 37859 40092 57005 80001 92350 333 10220 20054 30/// 50211 56009 59007 70000 82077
AAXX 09001 76687 31358 70000 10138 20125 38694 40198 55005 70222 875// 92340 333 10156 20094 30/// 50080 563// 59027 70022 82714 85618
AAXX 09001 76692 31556 40303 10211 20172 30170 40190 37007 71044 83170 92345 333 10240 20180 30/// 50361 5611/ 59037 70000 81818 82630
AAXX 09001 76695 32456 63504 10224 20164 30167 40173 57001 86200 92348 333 10248 20164 30/// 50470 561// 58005 70000 86820 91006 91534
AAXX 09001 76698 32558 13601 10225 20199 30166 40178 52005 82500 92350 333 10280 20195 30/// 50291 56800 58008 70000 82620
AAXX 09001 76726 32970 02201 10218 20047 38388 40089 57014 92330 333 10257 20105 30/// 50090 59010 70000
AAXX 09001 76737 31478 81101 10152 20136 38790 40177 55004 70322 8662/ 92335 333 10200 20105 30/// 50121 5629/ 59027 70011 86710 91106 91514
AAXX 09001 76743 31340 80502 10232 20208 30167 40175 55000 70200 884// 92355 333 10260 20215 30/// 50080 561// 58001 70025 88810
AAXX 09001 76750 32558 73402 10243 20193 30158 40168 52010 87500 92350 333 10290 20199 30/// 50261 56880 58006 70013 87720
AAXX 09001 76762 32504 11201 10272 20221 38749 40097 56007 81100 92338 333 10306 20120 30/// 50331 56300 58012 70000 81830
AAXX 09001 76773 32570 12701 10236 20073 38409 40086 57007 81400 92346 333 10276 20051 30/// 50391 56200 59013 70000 81620
AAXX 09001 76775 31565 10602 10215 20070 38513 40120 57004 70544 81500 92350 333 10284 20088 30/// 50321 56800 59010 70000 81624
AAXX 09001 76805 32970 32602 10282 20230 30109 40113 56003 80001 82350 333 10338 20209 30/// 50451 58013 70000 83059
AAXX 09001 76833 32970 03609 10272 20222 30120 40122 52004 92340 333 10305 20217 30/// 5//// 58005 70000 92023
AAXX 09001 76843 32465 23604 10200 20155 39504 40147 53003 82100 92335 333 10247 20166 30/// 50231 567// 59001 70000 82819
AAXX 09001 76845 32360 23601 10130 20107 37951 40162 53002 82600 92345 333 10166 20108 30/// 50181 56200 59007 70014 82710
AAXX 09001 76848 32970 40501 10148 20120 38385 40094 53002 84050 92350 333 10208 20134 30/// 50171 56090 59009 70008 84359
AAXX 09001 76855 32580 12601 10278 20225 30054 40103 56001 81200 92340 333 10328 20210 30/// 50470 56900 58013 70000 81820 92000
AAXX 09001 76160 32562 62301 10198 20008 39911 40157 52001 84601 92332 333 10225 20040 30/// 50330 56509 58008 70000 84730
AAXX 09001 76243 32773 41402 10164 20043 39892 40191 57011 84050 92340 333 10196 20018 30/// 50261 56050 59060 70000 84350
AAXX 09001 76253 32682 73605 10164 20104 30088 40178 57004 87020 92340 333 10185 20110 30/// 50421 56070 58003 70000 87457 92003
AAXX 09001 76311 32980 50000 10250 20081 39868 40141 52001 80006 92355 333 10296 20055 30/// 50490 56006 58019 70000 85270
AAXX 09001 76405 32980 63203 10206 20141 30145 40167 57002 80008 92350 333 10241 20152 30/// 50320 56005 58012 70000 86276
AAXX 09001 76412 32966 02202 10240 20115 30122 40172 57006 92345 333 10287 20066 30/// 50291 58008 70000
AAXX 09001 76640 31258 80401 10188 20172 30199 40211 57025 70222 8212/ 92340 333 10208 20122 30/// 50111 5689/ 59074 79999 82807 86440
AAXX 09001 76647 32965 00302 10215 20159 30157 40187 53006 92350 333 10279 20178 30/// 50201 58004 79999
AAXX 09001 76741 01240 80000 10194 20187 30145 40163 56004 60191 76366 8622/ 92335 333 10218 20169 32/// 50181 5629/ 59013 60147 70574 86807 82460
AAXX 09001 76840 32540 10405 10256 20179 30069 40124 52003 81200 92340 333 0/800 10298 20170 30/// 50691 58000 70000 81827
AAXX 09001 14648 12970 00501 10064 21046 30151 40274 51009 60001
AAXX 09001 14652 12980 23611 11072 21153 37959 48537 51002 60001 82030 333 82360
AAXX 09001 14542 NIL
AAXX 09003 61701 32960 00000 10210 20186 40111 80000 333 58002
AAXX 09003 61705 NIL
AAXX 09003 61707 NIL
AAXX 09003 61711 NIL
AAXX 09003 61712 NIL
AAXX 09003 61717 NIL
AAXX 09003 61720 NIL
AAXX 09003 61721 NIL
AAXX 09003 61722 NIL
AAXX 09003 61731 NIL
AAXX 09003 61733 NIL
AAXX 09001 02807 47412 80401 11053 21056 39887 40074 772// 88/// 90000
AAXX 09001 02897 47459 81504 11003 21016 39889 40073 771// 88/// 90000
AAXX 09001 02913 47999 01605 11012 21022 39982 40035 700//
AAXX 09001 02917 47370 81606 10002 21005 39956 40080 700// 88/// 90000
AAXX 09001 02926 47981 01303 11035 21036 30026 40038 57011 700// 90000
AAXX 09001 02944 47999 01303 11025 21028 39910 40060 700// 90000
AAXX 09001 02947 47/56 71403 10002 20002 40091 54000 77177 87/// 92351
AAXX 09001 02963 46/// /1403 11031 21032 40062
AAXX 09001 02974 41370 71903 10013 20009 30015 40082 57002 72682 875//
AAXX 09001 02741 47581 81606 10025 21009 30002 40017 57029 74040 88/// 92339
AAXX 09001 02755 47499 71504 11006 21014 39947 40043 52003 70087 87/// 92339
AAXX 09001 02805 47199 53502 11209 21233 39954 40099 54000 70087 81/// 92339
AAXX 09001 02836 47465 81302 11013 21016 39838 40063 54000 70087 88/// 92339
AAXX 09001 02845 47257 81204 11012 21012 39802 40052 57004 77487 88/// 92339
AAXX 09001 02849 47371 81503 11017 21025 39805 40082 54000 72274 88/// 92339
AAXX 09001 02866 47357 71403 11005 21007 39910 40061 57003 77187 87/// 92339
AAXX 09001 02924 47499 51701 11022 21025 39857 40058 52006 70087 85/// 92339
AAXX 09001 02935 47240 71803 11007 21008 39893 40068 52006 78587 87/// 92339
AAXX 09001 02939 47457 71505 11012 21015 39928 40125 54001 78587 87/// 92339
AAXX 09001 02976 46/// /2108 10027 20012 30084 40101 54001 92339
AAXX 09001 02981 47480 51713 10033 20006 30030 40040 57020 78084 85/// 92339
AAXX 09001 02982 46/// /1912 10037 21008 30054 40062 57010 92339
AAXX 09001 10379 01681 81908 10060 20029 39918 40039 58047 69961 72162 8552/ 333 31/// 55/// 20217 30128 42710 55300 20000 30000 41186 69927 85641 87460 91116
AAXX 09001 76040 32960 03402 10187 20007 30169 40183 57011 92340 33310194 20010 30/// 50380 59023 70000 98660
AAXX 09001 76055 32980 73105 10164 21044 30148 40167 57006 80005 92340333 0/006 10188 20041 30/// 50251 59018 70000 87270
AAXX 09001 76113 32880 32201 10180 20002 39694 40170 57004 83030 92340333 10185 21018 30/// 50121 56040 59017 70000 83358
AAXX 09001 76122 32765 60000 10130 20043 38528 40168 52003 82034 92350333 10161 21072 30/// 50181 56055 58/// 70000
AAXX 09001 76256 32980 50000 10186 20090 30157 40171 57006 85008 92340333 10218 20087 30/// 50150 56//5 58004 70000 85070
AAXX 09001 76305 32670 70402 10195 20114 30154 40162 58007 82434 92330333 10210 20105 30/// 5//// 56555 58/// 70000 82650 83060
AAXX 09001 76323 32970 82501 10200 21125 38261 40170 57013 80008 92345333 10248 21032 30/// 50231 56007 59032 70000 88268
AAXX 09001 76342 32962 03601 10178 20031 39486 40200 57001 92350 33310204 20034 30/// 50301 59050 70000
AAXX 09001 76373 32580 61601 10180 21047 38202 40147 51001 84222 92350333 10244 21050 30/// 50431 56999 58001 70000 82825 8233782067
AAXX 09001 76382 32980 40000 10212 20136 38886 40136 57014 80001 92340333 10270 20045 30/// 50331 56003 59043 70000 84076
AAXX 09001 76390 31964 21803 10180 21004 38231 40117 52006 70544 8000192330 333 10230 20019 30/// 50281 56006 59020 70000 82070
AAXX 09001 76393 31940 23401 10166 20044 39595 40180 57006 70500 8100892345 333 10194 20040 30/// 50391 56035 59057 70000
AAXX 09001 76402 31857 40000 10226 20142 30102 40159 57001 70544 8402092345 333 10250 20054 30/// 50211 56050 58015 70000
AAXX 09001 76458 32970 33006 10217 20168 30142 40147 57002 80002 92338333 10263 20118 30/// 50261 56//9 58020 70000 83070
AAXX 09001 76471 32980 22703 10182 20073 37691 40054 52002 80001 92350333 10230 20041 30/// 50540 56001 59003 70000 82075
AAXX 09001 76491 32960 31101 10200 20101 39800 40193 54000 80004 92350333 10232 20024 30/// 50241 56009 59077 70000 83077
AAXX 09001 76499 32857 31102 10208 20115 30156 40178 52001 83030 92355333 10260 20082 30/// 50281 56040 59080 70000 83357
AAXX 09001 76519 32560 42803 10232 20034 38363 40138 52003 80002 92340333 10254 20028 30/// 50361 56006 58027 70000 84070
AAXX 09001 76525 32970 82208 10160 21014 37468 40102 55003 80001 92340333 10218 20092 30/// 50581 56//5 59004 70000 88080
AAXX 09001 76543 32675 61103 10210 20126 30177 40210 55006 86500 92335333 10243 20120 30/// 50251 56500 59070 70000 86650
AAXX 09001 76548 32875 50901 10198 20126 30189 40199 55010 85030 92345333 10227 20134 30/// 50341 56040 59072 70000 85358
AAXX 09001 76556 32970 13003 10230 20161 39123 40134 57002 80005 92335333 10275 20122 30/// 50281 56006 58014 70000 81070
AAXX 09001 76571 32965 42301 10222 21016 38155 40117 55003 80004 92350333 10246 20048 30/// 50271 56005 59002 70000
AAXX 09001 76577 32970 12302 10211 20170 38034 40109 56008 80005 92340333 10245 20073 30/// 50261 56005 58002 70000
AAXX 09001 76581 32970 01304 10180 20117 39049 40156 57005 92350 33310230 20077 30/// 50330 59066 70000
AAXX 09001 76593 32460 30504 10214 20194 30184 40186 52002 83400 92350333 10243 20186 30/// 50360 56100 59001 70000 83624 9100691505
AAXX 09001 76612 32662 42902 10227 20075 38464 40108 55007 82231 92350333 10273 20086 30/// 50161 56555 58011 70000 82840
AAXX 09001 76625 32960 02701 10210 20043 38139 40105 54000 92350 33310242 20053 30/// 50370 59004 70000
AAXX 09001 76632 32967 30206 10165 20095 37613 40068 57026 83009 92345333 10200 20064 30/// 5//// 56001 59011 70000 83272
AAXX 09001 76634 31670 40502 10176 20020 37847 40105 57002 70500 8110192350 333 10234 20042 30/// 50331 563/3 59015 70000 8183483075
AAXX 09001 76644 32460 10203 10216 20150 30169 40182 52002 81100 92350333 10262 20184 30/// 50200 567// 59004 70000 81820
AAXX 09001 76654 31956 23201 10270 20211 30130 40133 57017 70544 8203090000 333 10296 20210 30/// 50301 560/0 58003 70000 82359
AAXX 09001 76656 32975 51601 10210 20091 38503 40107 54000 80008 92350333 10260 20100 30/// 50430 56005 58010 70000 85280
AAXX 09001 76658 31960 42304 10277 20156 39620 40116 56014 70541 8000292347 333 0/001 10325 20166 30/// 50410 58003 70000 8407098904
AAXX 09001 76662 31670 42603 10240 20111 38443 40084 57009 84400 92330333 10292 20080 30/// 50320 56//0 58008 70000 84633
AAXX 09001 76665 31560 21601 10200 20119 38129 40129 52005 70100 8210092355 333 10258 20099 30/// 50361 56100 57812 58026 7000082814
AAXX 09001 76675 31575 12002 10155 20059 37373 40090 57004 70544 8110092352 333 10200 20038 30/// 50291 569// 58003 70000 8162698475
AAXX 09001 76681 31940 03601 10192 20088 37768 40145 57010 70500 92340333 10220 20040 30/// 5//// 58003 70000
AAXX 09001 76683 32968 11501 10176 20075 37821 40135 56003 80001 92345333 10218 20034 30/// 50331 56004 59004 70000 81080
AAXX 09001 76685 32970 21501 10182 20011 37859 40092 57005 80001 92350333 10220 20054 30/// 50211 56009 59007 70000 82077
AAXX 09001 76687 31358 70000 10138 20125 38694 40198 55005 70222 875//92340 333 10156 20094 30/// 50080 563// 59027 70022 8271485618
AAXX 09001 76692 31556 40303 10211 20172 30170 40190 37007 71044 8317092345 333 10240 20180 30/// 50361 5611/ 59037 70000 8181882630
AAXX 09001 76695 32456 63504 10224 20164 30167 40173 57001 86200 92348333 10248 20164 30/// 50470 561// 58005 70000 86820 9100691534
AAXX 09001 76698 32558 13601 10225 20199 30166 40178 52005 82500 92350333 10280 20195 30/// 50291 56800 58008 70000 82620
AAXX 09001 76726 32970 02201 10218 20047 38388 40089 57014 92330 33310257 20105 30/// 50090 59010 70000
AAXX 09001 76737 31478 81101 10152 20136 38790 40177 55004 70322 8662/92335 333 10200 20105 30/// 50121 5629/ 59027 70011 8671091106 91514
AAXX 09001 76743 31340 80502 10232 20208 30167 40175 55000 70200 884//92355 333 10260 20215 30/// 50080 561// 58001 70025 88810
AAXX 09001 76750 32558 73402 10243 20193 30158 40168 52010 87500 92350333 10290 20199 30/// 50261 56880 58006 70013 87720
AAXX 09001 76762 32504 11201 10272 20221 38749 40097 56007 81100 92338333 10306 20120 30/// 50331 56300 58012 70000 81830
AAXX 09001 76773 32570 12701 10236 20073 38409 40086 57007 81400 92346333 10276 20051 30/// 50391 56200 59013 70000 81620
AAXX 09001 76775 31565 10602 10215 20070 38513 40120 57004 70544 8150092350 333 10284 20088 30/// 50321 56800 59010 70000 81624
AAXX 09001 76805 32970 32602 10282 20230 30109 40113 56003 80001 82350333 10338 20209 30/// 50451 58013 70000 83059
AAXX 09001 76833 32970 03609 10272 20222 30120 40122 52004 92340 33310305 20217 30/// 5//// 58005 70000 92023
AAXX 09001 76843 32465 23604 10200 20155 39504 40147 53003 82100 92335333 10247 20166 30/// 50231 567// 59001 70000 82819
AAXX 09001 76845 32360 23601 10130 20107 37951 40162 53002 82600 92345333 10166 20108 30/// 50181 56200 59007 70014 82710
AAXX 09001 76848 32970 40501 10148 20120 38385 40094 53002 84050 92350333 10208 20134 30/// 50171 56090 59009 70008 84359
AAXX 09001 76855 32580 12601 10278 20225 30054 40103 56001 81200 92340333 10328 20210 30/// 50470 56900 58013 70000 81820 92000
AAXX 09001 76160 32562 62301 10198 20008 39911 40157 52001 84601 92332333 10225 20040 30/// 50330 56509 58008 70000 84730
AAXX 09001 76243 32773 41402 10164 20043 39892 40191 57011 84050 92340333 10196 20018 30/// 50261 56050 59060 70000 84350
AAXX 09001 76253 32682 73605 10164 20104 30088 40178 57004 87020 92340333 10185 20110 30/// 50421 56070 58003 70000 87457 92003
AAXX 09001 76311 32980 50000 10250 20081 39868 40141 52001 80006 92355333 10296 20055 30/// 50490 56006 58019 70000 85270
AAXX 09001 76405 32980 63203 10206 20141 30145 40167 57002 80008 92350333 10241 20152 30/// 50320 56005 58012 70000 86276
AAXX 09001 76412 32966 02202 10240 20115 30122 40172 57006 92345 33310287 20066 30/// 50291 58008 70000
AAXX 09001 76640 31258 80401 10188 20172 30199 40211 57025 70222 8212/92340 333 10208 20122 30/// 50111 5689/ 59074 79999 8280786440
AAXX 09001 76647 32965 00302 10215 20159 30157 40187 53006 92350 33310279 20178 30/// 50201 58004 79999
AAXX 09001 76741 01240 80000 10194 20187 30145 40163 56004 60191 763668622/ 92335 333 10218 20169 32/// 50181 5629/ 59013 6014770574 86807 82460
AAXX 09001 76840 32540 10405 10256 20179 30069 40124 52003 81200 92340333 0/800 10298 20170 30/// 50691 58000 70000 81827
AAXX 09004 85201 31470 71011 10107 20014 36273 53005 70292 81432 333 10168 56000 58003 81615 83357 87070
AAXX 09004 85223 31570 61505 10197 20100 37478 47114 53017 70411 82436 333 10252 56000 58012 82627 83357 86070
AAXX 09004 85244 32470 61509 10244 20220 39659 40087 53022 84536 333 10286 56499 58023 84613 85357 86070
BBXX 46002 09001 99426 71305 46/// ///// 10106 40281 56017 92350 22200 00124 12105 70027
BBXX 46005 09001 99461 71310 46/// ///06 10078 40317 56007 92350 22200 00102 12104 20502 3//// 42104 70020 333 91207 555 11060 22062
BBXX 46006 09001 99408 71375 46/// /1006 10115 40298 56011 92350 22200 00127 11906 20502 3//// 41905 70028 333 91208 555 11064 22067 32346 40908 62349 098061 099047 096048 098040 100041 092048
BBXX 46012 09001 99374 71229 46/// /3206 10110 40199 56005 92350 22200 00124 11102 20501 329// 41102 70011 333 91207 555 11058 22060 32344 43207 62349 321054 325053 323051 322046 324042 327042
BBXX 46013 09001 99382 71233 46/// /3103 10103 40203 56005 92350 22200 00111 11103 3//// 41103 70014 333 91204 555 11035 22037 32257 43205 62349 314034 313034 314036 314037 314037 317037
BBXX 46014 09001 99394 71240 46/// /3401 10104 40209 56008 92350 22200 00112 10903 20401 3//// 40903 70016 333 91201 555 11007 22007 32256 43403 62349 339007 348014 347019 349018 353021 344024
BBXX 46028 09001 99357 71219 46/// /3106 10115 40188 56005 92350 22200 00132 11402 20502 331// 41401 70011 333 91207 555 11062 22065 32258 43108 62349 307059 313063 311062 310060 312066 310066
BBXX 46029 09001 99461 71245 46/// /0109 10065 20035 40268 56011 92350 22200 00084 11103 20502 328// 41102 70015 333 91210 555 11097 22102 32250 40111 62349 012091 012091 015094 017090 013094 014090
BBXX 46050 09001 99442 71246 46/// /0108 10080 40250 58014 92350 22200 00103 10704 20703 332// 40902 70019 333 91209 555 11087 22091 32328 40110 62349 007082 008081 008083 007082 007078 011077
BBXX 46054 09001 99342 71204 46/// /3109 10126 40180 56007 92350 22200 00140 10703 20703 300// 41201 70014 333 91211 555 11100 22106 32334 43111 62349 312093 310094 308094 310095 313090 311091
AAXX 09004 78016 32764 42306 10212 20162 30217 40221 53018 83501 333 10244 20211 70000
AAXX 09004 81401 06/// /0000 10253 20239 30097 40103 60001 333 10325 60007 555 60005
AAXX 09004 81408 06/// /0801 10255 20234 30096 40104 60001 333 10333 60007 58008 555 60005
BBXX 41010 09001 99289 70785 46/// /0305 10204 40211 52015 92350 22200 00241 10803 20401 300// 40803 70016 333 91206 555 11054 22056
BBXX 41009 09001 99285 70802 46/// /0406 10210 20143 40212 53012 92350 22200 00248 10803 20402 300// 40803 70017 333 91207 555 11061 22063
BBXX 42057 09001 99168 70815 46/// /0307 10265 20217 40130 53012 92350 22200 00280 10602 20502 3//// 40602 70012 333 91208 555 11065 22068 32252 40308 62349 031064 033063 033063 029063 027065 026065 80307 92345
BBXX CZ9742 09004 99506 70969 46/// /2406 11144 21210 40174 53011 7//// 8//// 22200 0//// 2////
BBXX CGDX 09004 99468 70712 46/// /2402 11022 21074 40159 53037 7//// 8//// 22200 0//// 2////
BBXX CGBN 09004 99447 70636 46/// /2718 10029 21037 40126 51082 7//// 8//// 22200 0//// 2////
BBXX CGSB 09004 99468 70712 46/// /2103 11023 21079 40160 53037 7//// 8//// 22200 0//// 2////
BBXX CGBY 09004 99487 71235 46/// /0203 10045 20004 40306 56009 7//// 8//// 22200 0//// 2////
BBXX VOPP 09004 99456 70735 46/// /1814 10014 21047 4//// 5//// 7//// 8//// 22200 0//// 2////
BBXX 3FZK3 09004 99426 11451 46/// /3418 11014 21111 40113 50000 7//// 8//// 22213 0//// 2////
BBXX VCWL 09004 99468 70712 46/// /2301 11016 21080 40159 53039 7//// 8//// 22200 0//// 2////
BBXX CGDS 09004 99447 70755 46/// /2416 10028 21048 4//// 5//// 7//// 8//// 22200 0//// 2////
BBXX VAAZ 09004 99511 70498 46/// /1533 10054 20051 49873 58111 7//// 8//// 22231 0//// 2////
AAXX 09004 81401 06/// /0000 10253 20239 30097 40103 60001 333 10325 60007 555 60005
AAXX 09004 81408 06/// /0801 10255 20234 30096 40104 60001 333 10333 60007 58008 555 60005
BBXX CG2960 09004 99453 70800 46/// /2719 10014 21069 40164 53021 7//// 8//// 22200 0//// 2////
BBXX CGDR 09004 99498 71270 46/// /1602 10066 20031 40297 56010 7//// 8//// 22222 00121 2////
BBXX CG2350 09004 99433 70798 46/// /2216 10027 21024 40204 53012 7//// 8//// 22200 0//// 2////
AAXX 09004 78016 32764 42306 10212 20162 30217 40221 53018 83501 333 10244 20211 70000
BBXX 51101 09001 99243 71621 46/// /0605 10236 20168 40193 58019 92350 22200 00246 11606 20401 333// 41606 70028 333 91206 555 11053 22055 32326 40607 62349 059050 061053 065053 077054 077049 069053
BBXX 46061 09001 99602 71468 46/// /0206 10042 40088 57009 92350 22200 00062 10803 20401 300// 40803 70017 333 91207 555 11058 22060 32254 40307 62349 018055 016054 018051 012048 015051 020055
AAXX 09004 78905 12478 73003 10242 20224 30105 40128 60001 70233 87800 333 10289 20220 58002 70002 87816
BBXX 44172 09001 99445 70634 46/// ///// 1//// 90001 22200 00076 11208 21005 321// 41206 70040
BBXX 44097 09001 99410 70711 46/// ///// 1//// 90002 22200 00131 11105 21004 322// 41103 70025
BBXX 3FZK3 09004 99426 11451 46/// /3418 11014 21111 40113 50000 7//// 8//// 22213 0//// 2////
BBXX CG2960 09004 99453 70800 46/// /2719 10014 21069 40164 53021 7//// 8//// 22200 0//// 2////
BBXX CGDS 09004 99447 70755 46/// /2416 10028 21048 4//// 5//// 7//// 8//// 22200 0//// 2////
BBXX VAAZ 09004 99511 70498 46/// /1533 10054 20051 49873 58111 7//// 8//// 22231 0//// 2////
BBXX VCWL 09004 99468 70712 46/// /2301 11016 21080 40159 53039 7//// 8//// 22200 0//// 2////
BBXX CGBY 09004 99487 71235 46/// /0203 10045 20004 40306 56009 7//// 8//// 22200 0//// 2////
BBXX CGSB 09004 99468 70712 46/// /2103 11023 21079 40160 53037 7//// 8//// 22200 0//// 2////
BBXX 46232 09001 99325 71174 46/// ///// 1//// 92338 22200 00146 11302 20601 323// 41301 70008
BBXX 46247 09001 99378 71228 46/// ///// 1//// 92351 22200 00120 11102 21001 328// 41101 70010
BBXX 46243 09001 99462 71241 46/// ///// 1//// 92359 22200 00097 12203 21002 326// 42201 70013
BBXX 46236 09001 99368 71219 46/// ///// 1//// 92350 22200 00118 11202 21001 329// 41201 70008
BBXX 46229 09001 99438 71246 46/// ///// 1//// 92351 22200 00106 10704 20704 329// 42202 70022
BBXX 46225 09001 99329 71174 46/// ///// 1//// 92344 22200 00160 11301 20601 322// 41301 70005
BBXX 46213 09001 99403 71247 46/// ///// 1//// 92354 22200 00105 10804 20804 329// 42502 70022
BBXX 46215 09001 99352 71209 46/// ///// 1//// 92338 22200 00151 11302 20602 327// 41301 70010
BBXX VOPP 09004 99456 70735 46/// /1814 10014 21047 4//// 5//// 7//// 8//// 22200 0//// 2////
AAXX 09004 64500 11460 62208 10270 20247 30078 40091 69901 70166 86900 333 0//11 59014 83610 81920 86633 94948 95838
BBXX CGDG 09004 99468 70528 46/// /2339 10069 20105 49990 53027 7//// 8//// 22212 00048 2////
BBXX CGJV 09004 99447 70636 46/// /2818 10028 21034 40141 51077 7//// 8//// 22200 0//// 2////
BBXX VAAP 09004 99447 70636 46/// /2719 10026 21036 40130 51083 7//// 8//// 22200 0//// 2////
BBXX CG2965 09004 99487 71235 46/// /0304 10054 20013 40307 56010 7//// 8//// 22200 0//// 2////
BBXX CGCC 09004 99468 70712 46/// /2006 11024 21086 40159 53037 7//// 8//// 22200 0//// 2////
BBXX C6SI6 09004 99508 11625 46/// /3209 10014 21007 49776 56016 7//// 8//// 22253 0//// 2////
BBXX CGJK 09004 99484 71234 46/// /0105 10056 20011 40307 55006 7//// 8//// 22200 0//// 2////
AAXX 09004 78905 12478 73003 10242 20224 30105 40128 60001 70233 87800 333 10289 20220 58002 70002 87816
BBXX CG2958 09004 99487 71235 46/// /0404 10053 20016 40315 56010 7//// 8//// 22200 0//// 2////
BBXX CG2350 09004 99433 70798 46/// /2216 10027 21024 40204 53012 7//// 8//// 22200 0//// 2////
BBXX CGBR 09004 99538 71299 46/// /3333 10029 20027 40319 58002 7//// 8//// 22232 00074 2////
BBXX CGTF 09004 99476 70527 46/// /1424 10094 20060 49942 55019 7//// 8//// 22200 0//// 2////
BBXX VCLM 09004 99621 70747 46/// /1915 11128 21172 49946 53003 7//// 8//// 22200 0//// 2////
BBXX CGDT 09004 99490 70669 46/// /2817 11028 21086 40075 53084 7//// 8//// 22200 0//// 2////
BBXX VCSZ 09004 99467 70577 46/// /2635 10057 20056 40000 51119 7//// 8//// 22233 0//// 2////
BBXX VXKF 09004 99476 70591 46/// /2725 10036 21006 49967 53101 7//// 8//// 22200 0//// 2////
BBXX VOKJ 09004 99455 70735 46/// /1907 10010 21056 40159 52014 7//// 8//// 22200 0//// 2////
BBXX VRYO3 09004 99477 70699 46/// /2224 11022 21014 40138 51023 7//// 8//// 22215 00033 2////
BBXX VOFG 09004 99456 70614 46/// /2722 10037 21003 40077 53094 7//// 8//// 22200 0//// 2////
BBXX VCRG 09004 99474 70619 46/// /2528 10020 21023 40029 53078 7//// 8//// 22200 0//// 2////
BBXX CGDR 09004 99498 71270 46/// /1602 10066 20031 40297 56010 7//// 8//// 22222 00121 2////
BBXX 46218 09001 99345 71208 46/// ///// 1//// 90002 22200 00141 11303 20602 329// 41302 70014
AAXX 09004 60155 31920 720// 10129 20121 40245 58006 71022 83032 333 83360 87070
AAXX 09004 60252 32960 50505 10118 20067 40245 51006 83032 333 83360 83070
AAXX 09004 60096 NIL
AAXX 09004 60101 NIL
AAXX 09004 60115 NIL
AAXX 09004 60135 NIL
AAXX 09004 60150 NIL
AAXX 09004 60156 NIL
AAXX 09004 60230 NIL
AAXX 09004 60141 32960 51805 10079 20041 39587 40269 56012 80002 333 85073
AAXX 09004 60265 32970 53101 10093 21014 38982 48596 50005 80002 333 85070
AAXX 09004 60060 NIL
AAXX 09004 60105 NIL
AAXX 09004 60106 NIL
AAXX 09004 60107 NIL
AAXX 09004 60127 NIL
AAXX 09004 60185 NIL
AAXX 09004 60190 NIL
AAXX 09004 60191 NIL
AAXX 09004 60195 NIL
AAXX 09004 60210 NIL
AAXX 09004 60220 NIL
AAXX 09004 60318 NIL
AAXX 09001 11812 36/// /1905 10003 21042 39513 42810 57015 333 55002
AAXX 09001 11813 16/// /2103 10012 21031 39875 40234 57013 60001 333 55007
AAXX 09001 11816 12970 62602 10013 21028 30064 40233 55011 60001 80001 333 55034 86070
AAXX 09001 11819 36/// /9902 11008 21031 30008 40233 57009 333 55005
AAXX 09001 11826 15/69 /1102 11005 21027 30022 40229 57011 60001 333 55000
AAXX 09001 11841 16/// /0000 11007 21015 39835 40224 57010 60001 333 55000
AAXX 09001 11855 16/// /1102 11001 21026 30065 40237 57009 60001 333 55000
AAXX 09001 11856 36/// /1701 11002 21028 39908 40237 57004 333 55000
AAXX 09001 11858 16/// /1403 11006 21033 30081 40238 57011 60001 333 55017
AAXX 09001 11867 17/56 /3401 10000 21019 39905 40232 57001 60001 71000 333 55000
AAXX 09001 11880 16/// /0000 11008 21021 30060 40238 57002 60001 333 55018
AAXX 09001 11900 16/// /0401 10004 21013 39890 40236 57001 60001 333 55000
AAXX 09001 11903 12665 40000 11017 21022 39842 40238 50002 60001 84501 333 55001 84636
AAXX 09001 11916 46/// /2706 11101 21117 37938 48463 52008 6///1 333 91122
AAXX 09001 11918 16/// /2603 11052 21057 39374 42799 57013 60001 333 55000
AAXX 09001 11927 16/// /9901 11006 21026 39966 40238 52007 60001 333 55021
AAXX 09001 11930 46/// ///// 1//// 2//// 3//// 47/// 5//// 6///1
AAXX 09001 11933 16/// /9901 11075 21087 38664 48475 52002 60001 333 55000
AAXX 09001 11934 12982 52104 11028 21059 39377 42804 53001 60001 80005 333 55004 85070 91121 92980
AAXX 09001 11938 16/// /1804 11064 21079 39134 42806 52001 60001 333 91128
AAXX 09001 11952 16/// /9901 11028 21070 39370 42806 54000 60001 333 55037 91120
AAXX 09001 11958 36/// /1810 11062 21075 38749 48474 52003 333 55///
AAXX 09001 11968 12982 09901 11011 21059 39943 40235 52011 60001 333 55040
AAXX 09001 11976 16/// /0000 11016 21038 39955 40229 52009 60001 333 55012
AAXX 09001 11978 16/// /2401 10003 21041 30094 40229 52012 60001 333 55024
AAXX 09001 11993 16/// /1802 11006 21022 30012 40237 52016 60001 333 55003
AAXX 09004 63980 42482 53007 10276 20231 40079 85200 333 59005 85817 943// 91119
AAXX 09001 11423 07570 /2507 10009 20000 39258 42755 57026 69901 70085 333 55004 69905 85/21 88/25 91012 91114
AAXX 09001 11487 05970 /2302 10021 21017 39534 40167 57032 60001 333 55007 60005 81/60 87/69
AAXX 09001 11518 02982 71804 10030 21016 39703 40148 57035 60001 8707/ 333 55008 60005 87362
AAXX 09001 11603 07670 /1305 10018 21022 39655 40146 58037 69901 72476 333 55003 69905 81/39 85/57 87/59
AAXX 09001 11659 07870 /1403 10007 21014 39531 40185 58026 60001 70011 333 55000 60005 83/57 85/59 87/61
AAXX 09001 11723 02880 60603 11005 21034 39900 40208 58021 60001 86071 333 55024 60005 86358
AAXX 09001 11782 02875 72006 10026 21021 39883 40195 57023 60001 8701/ 333 55002 60005 87458
BBXX DBLK 09001 99449 30000 41497 /2509 10053 20026 40235 57004 7//// 22242 04069
AAXX 09004 60340 32350 62206 10108 20094 40276 51003 86200 333 86809
AAXX 09004 60285 NIL
BBXX BATEU06 09004 99499 70026 46/// /2922 10114 20050 40115 58002 22223 00140
BBXX 44100 09001 99363 70756 46/// ///// 1//// 92352 22200 00145 11003 21003 308// 41101 70013
BBXX 41110 09001 99341 70777 46/// ///// 1//// 92351 22200 00156 11101 21001 70007
BBXX 42099 09001 99273 70842 46/// ///// 1//// 92357 22200 00242 10703 20703 70016
BBXX 41113 09001 99284 70805 46/// ///// 1//// 92351 22200 00216 10901 20901 70007
BBXX 41112 09001 99307 70813 46/// ///// 1//// 92351 22200 00169 10902 20902 312// 41101 70012
BBXX 46219 09001 99332 71199 46/// ///// 1//// 92358 22200 00136 11303 20703 324// 41301 70017
BBXX 46224 09001 99332 71175 46/// ///// 1//// 92336 22200 00154 11301 20601 320// 41301 70006
BBXX 46214 09001 99379 71235 46/// ///// 1//// 92357 22200 00114 11003 21003 331// 41102 70016
AAXX 09004 41170 32960 02905 10166 20098 30184 40197 333 58001
BBXX CG2965 09004 99487 71235 46/// /0304 10054 20013 40307 56010 7//// 8//// 22200 0//// 2////
BBXX CGBR 09004 99538 71299 46/// /3333 10029 20027 40319 58002 7//// 8//// 22232 00074 2////
BBXX CGCC 09004 99468 70712 46/// /2006 11024 21086 40159 53037 7//// 8//// 22200 0//// 2////
BBXX VOLG 09004 99/// ///// 46/// /2546 10087 20058 49953 55008 7//// 8//// 22200 0//// 2////
BBXX VAAP 09004 99447 70636 46/// /2719 10026 21036 40130 51083 7//// 8//// 22200 0//// 2////
BBXX CG2958 09004 99487 71235 46/// /0404 10053 20016 40315 56010 7//// 8//// 22200 0//// 2////
BBXX CGJK 09004 99484 71234 46/// /0105 10056 20011 40307 55006 7//// 8//// 22200 0//// 2////
BBXX CGJV 09004 99447 70636 46/// /2818 10028 21034 40141 51077 7//// 8//// 22200 0//// 2////
BBXX VRYO3 09004 99477 70699 46/// /2224 11022 21014 40138 51023 7//// 8//// 22215 00033 2////
BBXX VCLM 09004 99621 70747 46/// /1915 11128 21172 49946 53003 7//// 8//// 22200 0//// 2////
BBXX CGTF 09004 99476 70527 46/// /1424 10094 20060 49942 55019 7//// 8//// 22200 0//// 2////
BBXX VOKJ 09004 99455 70735 46/// /1907 10010 21056 40159 52014 7//// 8//// 22200 0//// 2////
BBXX VOFG 09004 99456 70614 46/// /2722 10037 21003 40077 53094 7//// 8//// 22200 0//// 2////
BBXX CGDT 09004 99490 70669 46/// /2817 11028 21086 40075 53084 7//// 8//// 22200 0//// 2////
BBXX VCSZ 09004 99467 70577 46/// /2635 10057 20056 40000 51119 7//// 8//// 22233 0//// 2////
BBXX VXKF 09004 99476 70591 46/// /2725 10036 21006 49967 53101 7//// 8//// 22200 0//// 2////
BBXX C6SI6 09004 99508 11625 46/// /3209 10014 21007 49776 56016 7//// 8//// 22253 0//// 2////
BBXX 44099 09001 99369 70757 46/// ///// 1//// 92352 22200 00135 10902 20902 310// 41101 70009
BBXX CGDG 09004 99468 70528 46/// /2339 10069 20105 49990 53027 7//// 8//// 22212 00048 2////
BBXX VCRG 09004 99474 70619 46/// /2528 10020 21023 40029 53078 7//// 8//// 22200 0//// 2////
BBXX 51204 09001 99213 71581 46/// ///// 1//// 92352 22200 00249 11803 20902 331// 41803 70017
BBXX 51202 09001 99214 71577 46/// ///// 1//// 92339 22200 00243 10904 20904 302// 41101 70020
BBXX ONAR 09003 99233 31081 41597 81413 10210 2020/ 40090 54000 78166 8694/ 22263 00240 21105 323// 4//// 5//// 6//// 80200 ICE /////
AAXX 09001 89061 179// 03409 10006 20001 39819 49826 52001 60034 77177 333 10014 20004 91012 91114
AAXX 09004 78948 12582 70506 10258 20221 30121 40129 60001 70222 8187/ 333 02259 10302 20234 58011 79999 81823 87358
AAXX 09004 68399 36/// /2214 10209 20165 30057 40167 56000 333 10301 20208 91114 555 91016
AAXX 09004 68383 36/// /0000 10196 20155 39924 48563 57005 333 10291 20196 91000 555 91017
AAXX 09004 68379 36/// /1905 10207 20163 39840 48563 57002 333 10310 20206 91009 555 91017
AAXX 09004 68398 36/// /3612 10170 20158 39380 48515 57007 333 10263 20169 91019 555 91015
AAXX 09004 68299 16/// /1805 10109 20102 38949 48529 57002 60063 333 10176 20108 91010 555 20068 91020
AAXX 09004 78982 02480 70807 10268 20233 30098 40103 52012 60001 81291 333 10294 20240 58007 60007 70106 81818 86358
BBXX 46238 09001 99334 71195 46/// ///// 1//// 92350 22200 00150 10602 20602 326// 41301 70012
BBXX 46239 09001 99363 71221 46/// ///// 1//// 92351 22200 00127 11202 21001 330// 41201 70010
BBXX VOLG 09004 99/// ///// 46/// /2546 10087 20058 49953 55008 7//// 8//// 22200 0//// 2////
AAXX 09001 89061 179// 03409 10006 20001 39819 49826 52001 60034 77177 333 10014 20004 91012 91114
AAXX 09004 91503 11478 73604 10282 20249 40084 50008 60074 71521 8323/ 333 20245 56899 58013 83818 87360
AAXX 09004 91517 11475 73604 10310 20260 40090 60284 71522 83938 333 20230 56299 58014 81818 83920 85280
AAXX 09004 91503 11478 73604 10282 20249 40084 50008 60074 71521 8323/ 333 20245 56899 58013 83818 87360
AAXX 09004 91517 11475 73604 10310 20260 40090 60284 71522 83938 333 20230 56299 58014 81818 83920 85280
AAXX 09001 01003 11884 10501 11056 21090 39946 49958 52024 60001 70200 81030 333 91104
AAXX 09001 01447 16/// /1203 11004 21010 39076 49729 58044 60081 333 91108
AAXX 09001 37682 32997 23402 11115 21143 38112 48515 54000 82040
AAXX 09001 37717 325// 62303 11027 21097 38046 48479 57011 84530 555 1/112
AAXX 09001 37788 41995 40000 11082 21109 39196 40254 57002 71011 80006
AAXX 09004 16021 12970 01314 11034 21118 38011 48536 58004 60001
AAXX 09004 16022 12888 52020 11022 21120 37875 48519 58007 60001 83031 333 83358
AAXX 09004 16033 NIL
AAXX 09004 16040 NIL
AAXX 09004 16052 12965 22214 11066 21160 36650 47086 58012 60001 80001
AAXX 09004 16061 12984 00805 10084 20024 39396 42839 51003 60001
AAXX 09004 16098 12970 30000 10050 21002 30189 40242 51000 60001 80002
AAXX 09004 16138 NIL
AAXX 09004 16148 11525 12501 10017 21001 30221 40234 58003 60001 71000 81600 333 81720
AAXX 09004 16168 11/00 91711 10102 20102 39484 42838 54000 60001 74541 333 89/00
AAXX 09004 16172 12960 00000 10030 20024 39950 40259 58001 60001
AAXX 09004 16179 12970 00404 10106 20041 39555 42843 51001 60001
AAXX 09004 16224 12960 00801 10098 20077 39925 40247 53004 60001
AAXX 09004 16232 12998 01502 10110 20069 30190 40244 55020 60001 555 0////
AAXX 09004 16245 12960 00906 10118 20099 30218 40245 51004 60001
AAXX 09004 16253 12960 00206 10070 20043 30240 40252 51010 60001
AAXX 09004 16258 11/00 91709 10068 20048 39249 42847 51005 60001 74544 333 89/00
AAXX 09004 16263 12970 00705 10060 21050 38982 48542 51004 60001
AAXX 09004 16294 NIL
AAXX 09004 16337 NIL
AAXX 09004 16344 12765 32606 10044 20021 38373 48555 51006 60001 83040 333 83350 95000
AAXX 09004 16434 NIL
AAXX 09004 16450 12360 10902 10104 20104 39149 48610 54003 60001 81100 333 81808
AAXX 09004 16459 12964 02705 10072 20072 30225 40262 51012 60001
AAXX 09004 16546 12462 43504 10098 20089 30232 40261 50000 60001 84800 333 81818 83640
AAXX 09004 16564 12998 02606 10150 20052 30103 40245 50002 60001 555 0////
AAXX 09004 65201 31958 60000 10255 20245 30064 40119 70522 80008 333 56000 59006 86280
AAXX 09004 71805 04518 82534 10063 20035 39988 49997 51083 69921 710// 333 60007 91048 90710 91150 555 60005
AAXX 09004 13600 NIL
AAXX 09004 13610 NIL
AAXX 09004 13611 NIL
AAXX 09004 13619 NIL
AAXX 09004 13622 NIL
AAXX 09004 13624 NIL
AAXX 09004 13625 NIL
AAXX 09004 13629 NIL
AAXX 09004 13601 NIL
AAXX 09004 13602 NIL
AAXX 09004 13623 NIL
AAXX 09004 78970 12472 30000 10256 20235 30088 40113 60001 81142 333 01299 10328 20232 58004 81818 83078
AAXX 09004 78962 12478 40000 10255 20206 30113 40121 60001 81832 333 01299 10310 20238 58002 81816 83078
AAXX 09004 89642 42582 71011 11037 21099 39769 49822 50006 878// 333 11037 21066 81821 87650
AAXX 09004 16008 NIL
AAXX 09004 16084 12965 21501 10010 21006 30066 40240 51003 60001 80001
AAXX 09004 16088 11930 30501 10007 20007 30124 40247 51003 60001 71000 80001
AAXX 09004 16110 12997 20502 10060 20011 30233 40237 51000 60001 80002 555 0////
AAXX 09004 16134 12984 02219 10026 21096 37866 48543 58005 60001
AAXX 09004 16153 12598 30104 10110 20102 39967 40234 58007 60001 83200 333 83820 555 0////
AAXX 09004 16158 12560 31003 10078 20074 30229 40236 56003 60001 83200 333 83630
AAXX 09004 16206 12965 00801 10068 20043 30229 40238 53005 60001
AAXX 09004 16219 NIL
AAXX 09004 16252 12970 00000 10082 20027 39302 42853 58008 60001
AAXX 09004 16280 12997 03502 10150 20134 30028 40249 52007 60001 555 0////
AAXX 09004 16310 12997 00508 10132 20116 30020 40242 51008 60001 555 0////
AAXX 09004 16320 12960 00609 10114 20014 30250 40263 51010 60001 555 0////
AAXX 09004 16325 12998 03107 10098 20074 30230 40244 51006 60001 333 98070 555 0////
AAXX 09004 16360 12998 00219 10112 20000 30102 40238 51006 60001 555 0////
AAXX 09004 16400 NIL
AAXX 09004 16420 11497 33302 10152 20127 30188 40253 52008 69921 70261 83500 333 83618 90962 96460 555 0////
AAXX 09004 16429 11562 31202 10118 20110 30250 40261 51001 60001 70261 83500 333 83625
AAXX 09004 16470 NIL
AAXX 09004 16480 12997 03604 10132 20107 30180 40242 51002 60001 555 0////
AAXX 09004 16522 12498 62505 10152 20136 30014 40258 54000 60001 86200 333 86815 555 0////
AAXX 09004 16539 NIL
AAXX 09004 16550 12998 03013 10126 20043 30062 40243 52004 60001 555 0////
AAXX 09004 16045 NIL
AAXX 09004 16090 11957 03406 10024 20021 30159 40245 58001 60001 71000
AAXX 09004 16149 12960 02801 10010 21005 30220 40236 51001 60001
AAXX 09004 16261 NIL
AAXX 09004 16453 NIL
AAXX 09004 16560 NIL
AAXX 09003 91802 NIL
AAXX 09003 91809 NIL
AAXX 09003 91831 36/// /1007 10277 20233 40144 57006
AAXX 09003 91841 36/// /1405 10289 20200 3//// 5//// 333 20289
AAXX 09003 91848 36/// /2407 10287 20225 40120 52041 333 20216
AAXX 09003 91843 31599 40207 10274 20227 40131 57019 60001 70200 84200 333 20221 568// 333 70000 84825
AAXX 09004 61970 16/// ///// 10267 20244 40086 60001 333 59001 555 60005
AAXX 09004 61972 16/// /1603 10216 20192 40096 60001 333 58024 90710 91104 555 60005
AAXX 09004 61980 14983 /1210 10236 20207 40103 69941 700// 333 58008 90710 91112 555 60005
AAXX 09004 67005 14/// /2604 10259 20238 40083 60001 700// 333 58003 90710 91106 555 60005
AAXX 09004 48601 11458 70201 10258 20240 30093 40097 60004 70582 82941 333 20250 50420 58013 70000 81917 83364 87077
AAXX 09004 48615 11450 70000 10248 20239 30096 40102 60004 70522 82272 333 20237 50500 58011 70000 82818 86364
AAXX 09004 48620 11457 70000 10241 20234 30092 40101 60004 71022 83948 333 20238 50340 58015 70000 81917 83630 87276
AAXX 09004 48647 11457 73201 10237 20229 30076 40101 60134 71022 83942 333 20231 50130 58011 70126 81710 81917 87078
AAXX 09004 48650 11359 73601 10240 20228 30081 40100 60024 70522 81942 333 20228 50300 58012 70024 81707 81917 83364 86078
AAXX 09004 48657 11056 70202 10240 20233 30083 40101 60004 71022 82842 333 20232 50380 58011 70000 81700 84366 85078
AAXX 09004 48665 11462 70203 10248 20235 30094 40104 60004 70522 81932 333 20237 50290 58007 70000 81917 87078
AAXX 09004 96413 12170 73001 10246 20235 30073 40100 60064 82531 333 20227 50310 58005 70064 81702 86365
AAXX 09004 96421 12275 71404 10254 20230 30066 40102 60134 82531 333 20231 50430 55059 58007 70134 81705 87365
AAXX 09004 96441 11480 71203 10239 20228 30071 40098 60064 70162 8257/ 333 20231 50380 55067 58009 70060 82616 87365
AAXX 09004 96449 11478 71804 10250 20235 30075 40094 60574 70166 82131 333 20227 50460 58010 70572 82814 86365
AAXX 09004 96465 11475 82105 10255 20238 30060 40093 60124 76062 81877 333 20241 50670 55089 58010 70118 81812 85364 88279
AAXX 09004 96471 11472 71905 10275 20237 30089 40092 60244 70562 82848 333 20239 50790 58009 70242 81814 84364 87277
AAXX 09004 96481 11462 73201 10253 20240 30069 40088 69964 72162 8487/ 333 20245 50340 55083 58005 70006 82710 83630 86364
AAXX 09004 96491 11465 72404 10273 20230 30073 40085 60004 70522 82832 333 20245 50220 55091 58007 70000 81816 87079
AAXX 09001 06206 47661 42519 10082 20007 39867 49919 56007 70180 8//// 333 84/34 91024 91125 91221
AAXX 09001 06207 47563 52520 10074 20004 39873 49926 55004 72386 8//// 333 81/28 84/40 85/50 91025 91129 91224
AAXX 09001 06239 47558 80425 10081 20015 3//// 4//// 5//// 70460 8//// 333 81/30 83/34 86/39 91030 91134 91227
AAXX 09001 06252 46/// /2721 10078 20013 39902 49947 53004 222// 00098 10809 333 91024 91125 91221
AAXX 09001 06260 17564 72506 10084 20066 30007 40009 53007 60071 72385 8//// 333 81/23 83/36 87/50 91010 91121 91213
AAXX 09001 06270 17665 22611 10075 20032 39958 49958 50000 60081 70186 8//// 333 82/34 91016 91123 91216
AAXX 09001 06290 17456 82809 10070 20053 39962 40002 55008 60061 76285 8//// 333 82/16 83/20 85/33 91017 91119 91213
AAXX 09001 06201 47559 62621 10074 20016 39843 49894 53004 70400 8//// 333 82/32 85/38 86/44 91026 91131 91221
AAXX 09001 06203 47567 12818 10089 20017 39943 49994 53017 70281 8//// 333 81/30 91024 91127 91221
AAXX 09001 06204 47566 62723 10081 20012 39909 49959 53008 70386 8//// 333 83/30 85/38 86/44 91027 91129 91224
AAXX 09001 06205 47556 82526 10078 20018 39754 49811 55015 70410 8//// 333 81/25 85/32 86/38 91031 91135 91227
AAXX 09001 06208 47562 32613 10084 20030 39899 49948 55001 70186 8//// 333 81/31 83/58 91017 91121 91216
AAXX 09001 06211 47560 52524 10078 20010 39871 49926 53002 70186 8//// 333 82/27 84/32 85/39 91029 91131 91225
AAXX 09001 06212 47577 12719 1//// 2//// 39906 49969 53004 70186 8//// 333 81/30 91025 91127 91222
AAXX 09001 06235 17565 32616 10079 20023 39977 49977 53006 60091 70185 8//// 333 81/31 83/81 91023 91125 91217
AAXX 09001 06240 17567 82713 10080 20039 30009 40004 51016 60071 70286 8//// 333 81/31 88/56 91016 91123 91217
AAXX 09001 06251 17568 42614 10074 20028 39951 49952 51010 60071 70286 8//// 333 83/32 84/40 91019 91125 91219
AAXX 09001 06258 46/// /2613 333 91016 91125 91220
AAXX 09001 06269 17564 82608 10082 20055 30002 49996 53015 60081 72385 8//// 333 82/29 83/33 87/56 91012 91125 91217
AAXX 09001 06280 17465 12409 10069 20056 39959 49963 51010 60131 72386 8//// 333 81/13 91012 91122 91215
AAXX 09001 06310 17665 82814 10097 20036 30026 40036 53014 60051 72386 8//// 333 88/39 91021 91124 91219
AAXX 09001 06344 17869 72709 10087 20038 30027 40020 53019 60111 72386 8//// 333 87/57 91013 91122 91214
AAXX 09001 06370 17457 82310 10106 20087 39997 40022 55018 60011 78185 8//// 333 81/15 85/20 87/24 91014 91121 91215
AAXX 09001 06380 17582 82315 10108 20074 39912 40050 56030 60031 72385 8//// 333 86/21 88/25 91020 91122 91215
AAXX 09004 91574 46/// ///// 29074 30308 40314 51243 333 59013
AAXX 09004 91570 NIL
AAXX 09004 91598 NIL
AAXX 09001 01046 16/// /1902 11034 21081 30045 40053 57003 6//// 333 91110
AAXX 09001 01245 16/// /1115 11027 21066 39082 49777 58055 69931 333 91130
AAXX 09001 01262 46/// /1221 10008 21040 333 91129
AAXX 09001 01436 16/// /2018 10071 20035 6//// 333 91129
AAXX 09001 01015 46/// /1607 11018 21062 333 91113
AAXX 09001 01442 16/// /1508 10034 20014 39471 49720 58054 60031 333 91114
AAXX 09001 01450 16/// /1408 11027 21037 38612 49726 56040 60021 333 91117
AAXX 09001 01257 16/// /0804 10001 21056 39674 49834 56049 60001 333 91111
AAXX 09001 01277 16/// /0805 11013 21050 60001 333 91110
AAXX 09001 01476 16/// /2110 10076 20031 39746 49752 58037 6//// 333 91128
AAXX 09001 01375 16/// /1513 11061 21066 6//// 333 91124
AAXX 09001 01440 46/// /1510 11029 21033 38441 49684 58051 333 91118
AAXX 09004 91573 06/// /0108 10278 20232 30007 40103 55000 60001 333 10286 58010 60007
AAXX 09004 91579 06/// /0608 10294 20254 30090 40098 58007 60001 333 10297 58020 60007
AAXX 09004 91582 045// 73307 10295 20230 30067 40101 58007 60071 700// 333 60077 90710 91115 555 60005
AAXX 09004 91583 06/// /0502 10295 20244 30092 40107 55002 60001 333 10297 58019 60007
AAXX 09004 91587 06/// /0206 10273 20237 30060 40104 56012 60171 333 10275 58012 60027
AAXX 09004 91590 04/66 /0205 10324 20186 30050 40091 57007 60001 700// 333 60007 90710 91110 555 60005
AAXX 09004 91592 06/// /2110 10313 20209 30015 40098 57003 60001 333 10313 58019 60007
AAXX 09004 91596 06/// /3416 10294 20229 39998 40105 55005 60001 333 10296 58012 60007
AAXX 09004 91577 NIL
BBXX DBBH 09001 99531 10042 41/97 /2625 10085 20007 49967 52013 7//// 22251 04106
AAXX 09001 10578 11/01 92223 11017 21019 38708 48407 56029 60001 74944 333 48029 55/// 20110 30103 55300 20000 30000
AAXX 09001 10430 07579 82109 10093 20060 39833 40022 58039 69941 76165 333 55/// 20157 30155 55300 20000 30000 69917 87/24 88/29 91116
AAXX 09004 78583 11465 70704 10240 20229 40168 69991 78022 87800 333 01700 10249 20/// 58007 70005 83815 87645
AAXX 09004 48601 11458 70201 10258 20240 30093 40097 60004 70582 82941 333 20250 50420 58013 70000 81917 83364 87077
AAXX 09004 48615 11450 70000 10248 20239 30096 40102 60004 70522 82272 333 20237 50500 58011 70000 82818 86364
AAXX 09004 48620 11457 70000 10241 20234 30092 40101 60004 71022 83948 333 20238 50340 58015 70000 81917 83630 87276
AAXX 09004 48647 11457 73201 10237 20229 30076 40101 60134 71022 83942 333 20231 50130 58011 70126 81710 81917 87078
AAXX 09004 48657 11056 70202 10240 20233 30083 40101 60004 71022 82842 333 20232 50380 58011 70000 81700 84366 85078
AAXX 09004 48665 11462 70203 10248 20235 30094 40104 60004 70522 81932 333 20237 50290 58007 70000 81917 87078
AAXX 09004 96413 12170 73001 10246 20235 30073 40100 60064 82531 333 20227 50310 58005 70064 81702 86365
AAXX 09004 96421 12275 71404 10254 20230 30066 40102 60134 82531 333 20231 50430 55059 58007 70134 81705 87365
AAXX 09004 96441 11480 71203 10239 20228 30071 40098 60064 70162 8257/ 333 20231 50380 55067 58009 70060 82616 87365
AAXX 09004 96449 11478 71804 10250 20235 30075 40094 60574 70166 82131 333 20227 50460 58010 70572 82814 86365
AAXX 09004 96465 11475 82105 10255 20238 30060 40093 60124 76062 81877 333 20241 50670 55089 58010 70118 81812 85364 88279
AAXX 09004 96471 11472 71905 10275 20237 30089 40092 60244 70562 82848 333 20239 50790 58009 70242 81814 84364 87277
AAXX 09004 96481 11462 73201 10253 20240 30069 40088 69964 72162 8487/ 333 20245 50340 55083 58005 70006 82710 83630 86364
AAXX 09004 96491 11465 72404 10273 20230 30073 40085 60004 70522 82832 333 20245 50220 55091 58007 70000 81816 87079
AAXX 09001 45007 12661 70207 10140 20059 30234 40244 53016 60002 8353/ 333 20137 58051 70000 81635 85360
AAXX 09001 45007 12661 70207 10140 20059 30234 40244 53016 60002 8353/ 333 20137 58051 70000 81635 85360
AAXX 09001 03951 17760 /3206 10069 20025 30101 40127 51019 60011 70385 87/// 333 87/50
AAXX 09001 03953 11575 32909 10072 21019 30092 40129 52013 69961 70182 83800 333 81823 92448 96487
AAXX 09001 03955 11480 32605 10025 20006 39917 40118 51015 69911 72581 83830 333 81816 83640
AAXX 09001 03956 17773 /2403 10027 21007 30019 40097 50021 69911 7038/ 81/// 333 81/50 84/69
AAXX 09001 03962 11570 12705 10047 21002 30070 40094 52010 60011 72581 81300 333 81921
AAXX 09001 03963 17657 /2916 10054 20019 30051 40080 52016 60011 7828/ 82/// 333 81/30 82/43 83/60 90710 91123
AAXX 09001 03966 15974 /2505 10019 21004 39990 40084 52018 60001
AAXX 09001 03967 12482 12410 10016 21004 39947 40062 53018 69901 81600 333 81716
AAXX 09001 03969 11575 12409 10016 21003 39951 40057 52023 69901 70181 81800 333 81820
AAXX 09001 03973 16/// /2707 10018 21005 39806 40064 52018 60011
AAXX 09001 03976 11570 62808 10061 20016 30048 40060 53013 69911 78981 869// 333 84920 82820 96489
AAXX 09001 03980 17547 /3116 10049 20019 39966 49991 52027 60031 76286 87/// 333 87/24 90710 91124 91219
BBXX TFBLK 09004 99657 70248 46/// ///// 22200 10809 70043
BBXX TFDRN 09004 99658 70212 46/// ///// 22200 10706 70028
BBXX TFGRS 09004 99663 70182 46/// ///// 22200 10808 70038
BBXX TFGRV 09004 99638 70225 46/// ///// 22200 10603 70017
BBXX TFGSK 09004 99641 70229 46/// ///// 22200 10504 70018
BBXX TFHFN 09004 99642 70152 46/// ///// 22200 10602 70011
BBXX TFKGR 09004 99657 70136 46/// ///// 22200 11015 70074
BBXX TFSRT 09004 99633 70203 46/// ///// 22200 10704 70022
BBXX TFSTD 09004 99664 70234 46/// ///// 22200 10708 70039
AAXX 09004 89532 42/70 73404 11105 21128 39774 49802 58008 81502 333 11026 21105
AAXX 09001 15015 01597 72503 10017 21012 39605 42807 53023 69911 70282 84570 333 41998 55000 60007 91005 91107
AAXX 09001 15020 02597 83005 10035 20007 39991 40194 51021 60001 8457/ 333 55068 60007 91008 91110
AAXX 09001 15090 01597 82602 10030 20013 30101 40196 51026 69941 76162 8457/ 333 55300 0//// 20003 3//// 55025 10166 20378 30194 69947 91004 91104
AAXX 09001 15108 01/91 92720 11084 21084 38021 48456 52010 60001 74944 333 43005 55000 60007 91028 92723
AAXX 09001 15120 02997 02902 10010 21014 39726 40237 51017 60001 333 55300 10250 2//// 3//// 55023 10110 20350 30175 60007 91005 91107
AAXX 09001 15150 02997 03101 10016 21011 39989 40207 53035 60001 333 55035 60007 91002 91105 92600
AAXX 09001 15170 02598 62604 10011 21017 39403 42794 51012 60001 86300 333 47002 55002 60007 91009 91109
AAXX 09001 15200 02998 02301 10009 21011 30109 40259 52013 60001 333 55030 60007 91002 91102 92600
AAXX 09001 15230 02597 72404 10030 21008 39954 40256 51019 60001 84370 333 55300 10262 20004 3//// 55026 10074 20453 30435 60007 91005 91109
AAXX 09001 15260 02597 82804 10034 21011 39692 40239 52017 60001 885// 333 55000 60007 91006 91108
AAXX 09001 15280 01/90 93218 11122 21127 37441 47966 51016 60031 77374 333 48036 55000 60027 91024 92966 96038 96041
AAXX 09001 15292 01597 83101 10035 21002 39966 40269 52015 69921 70282 883// 333 55009 69927 91002 91105
AAXX 09001 15310 01996 32303 11001 21012 30105 40194 51020 60001 71000 83030 333 55300 10198 20004 3//// 55000 10226 20135 30123 60007 91004 91104 92600
AAXX 09001 15335 03/// /2904 10035 21012 30176 40183 52016 6///1 333 4//// 55/// 6///7 91006 91106
AAXX 09001 15346 02997 03400 11023 21039 39922 40225 52015 60001 333 55027 60007 91001 91104 92600
AAXX 09001 15350 02997 02702 10060 21015 30079 40201 52018 60001 333 55005 60007 91004 91108
AAXX 09001 15360 02497 83006 10025 20007 30156 40171 52013 60001 886// 222// 0//// 2//// /000 60007 91008 91109 92427
AAXX 09001 15410 02997 03301 10056 21014 30140 40238 54001 60001 333 55042 60007 91003 91106
AAXX 09001 15420 02997 02502 11009 21021 30095 40211 51013 60001 333 55300 0//// 20000 3//// 55000 0//// 20171 3//// 60007 91003 91103 92600
AAXX 09001 15450 02997 02502 10017 21007 39992 40235 52014 60001 333 55300 10227 20004 3//// 55014 10204 20223 30226 60007 91004 91105
AAXX 09001 15460 02997 02504 10014 21003 30182 40207 52021 60001 333 55002 60007 91007 91107 92600
AAXX 09001 15470 02997 02504 10007 20000 30093 40223 51013 60001 333 55010 60007 91006 91107
AAXX 09001 15480 02997 02904 10022 20003 30175 40192 52014 60001 222// 0//// 2//// 333 55034 60007 91006 91107 92437
AAXX 09001 33135 31396 81902 10009 20001 39961 40142 52014 71022 886// 333 88707
AAXX 09001 33317 /1496 83103 10005 21000 39830 40174 52027 71082 885// 333 88612 555 69961
AAXX 09001 33345 31596 82603 10020 20004 39942 40150 52013 71022 885// 333 88620
AAXX 09001 33393 NIL
AAXX 09001 33506 31596 81701 11015 21017 39964 40166 52007 71022 885//
AAXX 09001 33587 32561 80000 10012 21005 39895 40163 52009 885// 333 88624
AAXX 09001 33631 /1997 00000 11011 21023 30090 40239 52024 70261 555 69901
AAXX 09001 33663 /1597 82902 10029 20019 30073 40170 52020 70281 8632/ 333 86927 555 60011
AAXX 09001 33658 /1597 82905 10027 21003 39897 40202 52022 70282 8637/ 333 86926 555 69961
AAXX 09001 33711 31/93 90000 10001 20001 39951 40165 52009 74742 333 93600
AAXX 09001 33791 31/01 93201 11001 21001 30013 40168 52015 74342 333 93603
AAXX 09001 33837 31456 82702 10026 20010 30117 40170 52013 71022 886// 333 88711
AAXX 09001 33924 32997 83603 10064 20033 30143 40155 52009 86031
AAXX 09001 33946 32997 81403 10022 20006 39936 40161 53002 80001
AAXX 09001 34300 /1397 82802 10002 21009 39974 40170 52009 70252 886// 333 88709 555 69901
AAXX 09001 34504 NIL
AAXX 09001 34519 /1112 83104 10010 20007 39873 40152 52009 75154 886// 333 88702 555 69901
AAXX 09001 34601 31233 80000 11013 21019 30027 40167 52009 71042 886// 333 88703 93400
AAXX 09004 86011 32870 42103 10238 20227 39937 40097 51007 83035 333 10262 55000 83358 83270
AAXX 09004 86033 32870 60000 10260 20214 30001 40096 53017 86090 333 10312 55011 86457
AAXX 09004 86065 01870 50000 10230 20228 39865 40093 53003 60301 70292 81085 333 10274 55013 69967 81358 85270
AAXX 09004 86068 32570 60000 10250 20222 39920 40112 53028 82570 333 10284 55003 82615 86458
AAXX 09004 86086 32870 61802 10248 20188 39989 40079 52013 84076 333 10282 55015 84457 82270
AAXX 09004 86097 01870 80510 10204 20196 39463 40111 53007 60061 70296 8807/ 333 10306 55044 60017 88357
AAXX 09004 86128 32970 20000 10258 20200 39969 40081 52009 80001 333 10300 55043 82070
AAXX 09004 86134 01570 80000 10238 20227 30006 40093 52010 60061 70226 885// 333 10300 55040 60037 88630
AAXX 09004 86170 31570 50000 10250 20222 39976 40078 53008 71392 83970 333 10296 55046 82830 81940 84457
AAXX 09004 86185 31460 60000 10230 20216 30001 40095 52004 71022 84670 333 10316 55052 84720 85457
AAXX 09004 86192 01270 80000 10266 20256 39891 40108 51013 60091 70266 885// 333 10306 55/// 60097 88606
AAXX 09004 86210 31570 82304 10224 20203 39747 40088 53029 70292 8687/ 333 10302 55015 86827 88356
AAXX 09004 86218 01450 81913 10238 20227 30004 40100 52028 60061 76282 8351/ 333 10312 55074 60067 83620 88457
AAXX 09004 86221 32770 62306 10266 20226 39971 40104 52009 86070 333 10314 55085 86350
AAXX 09004 86233 01570 71805 10248 20220 39918 40106 51012 69941 70255 87800 333 10304 55060 69947 87620
AAXX 09004 86234 31570 71802 10274 20224 39864 40044 53024 71392 84931 333 10315 55102 83622 81940 84357 82070
AAXX 09004 86246 NIL
AAXX 09004 86251 01470 82304 10240 20224 39915 40082 53011 60021 70299 889// 333 10300 55/// 60027 88617 82940
AAXX 09004 86255 32870 51408 10234 20213 30043 40111 51003 85070 333 10302 55070 85360
AAXX 09004 86260 32470 61008 10240 20209 39942 40093 52008 86400 333 10320 55062 86613
AAXX 09004 86268 01665 81606 10230 20216 39945 40109 52027 60181 79592 8197/ 333 10315 55092 60187 81940 88357
AAXX 09004 86285 32570 72310 10232 20198 39818 40102 52018 87500 333 10324 55079 87620
AAXX 09004 86297 01470 81803 10232 20214 39963 40067 52019 69901 70252 885// 333 10330 55/// 69907 88620
OOXX AAUNI 09004 99798 50833 56093 07671 46/// /2322 11090 21172 38859 49738 57010 90000
AAXX 09001 01218 16/// /1806 10037 21052 39721 49742 56041 60001 333 91116
AAXX 09001 76040 32960 03402 10187 20007 30169 40183 57011 92340 333 10194 20010 30/// 50380 59023 70000 98660
AAXX 09001 76055 32980 73105 10164 21044 30148 40167 57006 80005 92340 333 0/006 10188 20041 30/// 50251 59018 70000 87270
AAXX 09001 76113 32880 32201 10180 20002 39694 40170 57004 83030 92340 333 10185 21018 30/// 50121 56040 59017 70000 83358
AAXX 09001 76122 32765 60000 10130 20043 38528 40168 52003 82034 92350 333 10161 21072 30/// 50181 56055 58/// 70000
AAXX 09001 76256 32980 50000 10186 20090 30157 40171 57006 85008 92340 333 10218 20087 30/// 50150 56//5 58004 70000 85070
AAXX 09001 76305 32670 70402 10195 20114 30154 40162 58007 82434 92330 333 10210 20105 30/// 5//// 56555 58/// 70000 82650 83060
AAXX 09001 76323 32970 82501 10200 21125 38261 40170 57013 80008 92345 333 10248 21032 30/// 50231 56007 59032 70000 88268
AAXX 09001 76342 32962 03601 10178 20031 39486 40200 57001 92350 333 10204 20034 30/// 50301 59050 70000
AAXX 09001 76373 32580 61601 10180 21047 38202 40147 51001 84222 92350 333 10244 21050 30/// 50431 56999 58001 70000 82825 82337 82067
AAXX 09001 76382 32980 40000 10212 20136 38886 40136 57014 80001 92340 333 10270 20045 30/// 50331 56003 59043 70000 84076
AAXX 09001 76390 31964 21803 10180 21004 38231 40117 52006 70544 80001 92330 333 10230 20019 30/// 50281 56006 59020 70000 82070
AAXX 09001 76393 31940 23401 10166 20044 39595 40180 57006 70500 81008 92345 333 10194 20040 30/// 50391 56035 59057 70000
AAXX 09001 76402 31857 40000 10226 20142 30102 40159 57001 70544 84020 92345 333 10250 20054 30/// 50211 56050 58015 70000
AAXX 09001 76423 32780 62601 10205 20012 38146 40111 52003 83039 92358 333 10264 21005 30/// 50330 56099 59004 70000 83358 83170
AAXX 09001 76458 32970 33006 10217 20168 30142 40147 57002 80002 92338 333 10263 20118 30/// 50261 56//9 58020 70000 83070
AAXX 09001 76471 32980 22703 10182 20073 37691 40054 52002 80001 92350 333 10230 20041 30/// 50540 56001 59003 70000 82075
AAXX 09001 76490 06/// /0801 10193 20077 39785 40174 55000 60001 7//// 8//// 92350 333 0//// 10237 20027 30/// 50259 54/// 56/// 57/// 59072 60007 70000 8//// 8//// 8//// 8//// 9//// 9/
AAXX 09001 76491 32960 31101 10200 20101 39800 40193 54000 80004 92350 333 10232 20024 30/// 50241 56009 59077 70000 83077
AAXX 09001 76499 32857 31102 10208 20115 30156 40178 52001 83030 92355 333 10260 20082 30/// 50281 56040 59080 70000 83357
AAXX 09001 76519 32560 42803 10232 20034 38363 40138 52003 80002 92340 333 10254 20028 30/// 50361 56006 58027 70000 84070
AAXX 09001 76525 32970 82208 10160 21014 37468 40102 55003 80001 92340 333 10218 20092 30/// 50581 56//5 59004 70000 88080
AAXX 09001 76543 32675 61103 10210 20126 30177 40210 55006 86500 92335 333 10243 20120 30/// 50251 56500 59070 70000 86650
AAXX 09001 76547 06/// /1001 10190 20138 30178 40190 55008 60001 7//// 8//// 92350 333 0//// 10230 20137 50259 56/// 57/// 59075 60007 70000 8//// 8//// 8//// 8//// 9//// 9//// 9//// 44
AAXX 09001 76548 32875 50901 10198 20126 30189 40199 55010 85030 92345 333 10227 20134 30/// 50341 56040 59072 70000 85358
AAXX 09001 76556 32970 13003 10230 20161 39123 40134 57002 80005 92335 333 10275 20122 30/// 50281 56006 58014 70000 81070
AAXX 09001 76571 32965 42301 10222 21016 38155 40117 55003 80004 92350 333 10246 20048 30/// 50271 56005 59002 70000
AAXX 09001 76577 32970 12302 10211 20170 38034 40109 56008 80005 92340 333 10245 20073 30/// 50261 56005 58002 70000
AAXX 09001 76578 06/// /1802 10201 20032 38032 40083 55006 60001 7//// 8//// 92350 333 0//// 10255 20071 30/// 4//// 50269 54/// 56/// 57/// 58000 60007 70000 8//// 8//// 8//// 9//// 9/
AAXX 09001 76581 32970 01304 10180 20117 39049 40156 57005 92350 333 10230 20077 30/// 50330 59066 70000
AAXX 09001 76586 06/// /1501 10192 20144 30028 40185 55005 60001 7//// 8//// 92350 333 0//// 10240 20116 30/// 4//// 50209 54/// 56/// 57/// 59079 60007 70000 8//// 8//// 8//// 9//// 9/
AAXX 09001 76592 06/// /0407 10218 21067 30186 40186 53003 60001 7//// 8//// 92350 333 0//// 10243 20206 30/// 4//// 50719 54/// 56/// 57/// 59002 60007 70000 8//// 8//// 8//// 9//// 9/
AAXX 09001 76593 32460 30504 10214 20194 30184 40186 52002 83400 92350 333 10243 20186 30/// 50360 56100 59001 70000 83624 91006 91505
AAXX 09001 76612 32662 42902 10227 20075 38464 40108 55007 82231 92350 333 10273 20086 30/// 50161 56555 58011 70000 82840
AAXX 09001 76625 32960 02701 10210 20043 38139 40105 54000 92350 333 10242 20053 30/// 50370 59004 70000
AAXX 09001 76632 32967 30206 10165 20095 37613 40068 57026 83009 92345 333 10200 20064 30/// 5//// 56001 59011 70000 83272
AAXX 09001 76634 31670 40502 10176 20020 37847 40105 57002 70500 81101 92350 333 10234 20042 30/// 50331 563/3 59015 70000 81834 83075
AAXX 09001 76641 06/// /0000 10188 20150 30185 40197 55007 60001 7//// 8//// 92350 333 0//// 10213 20130 30/// 4//// 50159 54/// 56/// 57/// 59076 60007 70000 8//// 8//// 8//// 8//// 9/
AAXX 09001 76644 32460 10203 10216 20150 30169 40182 52002 81100 92350 333 10262 20184 30/// 50200 567// 59004 70000 81820
AAXX 09001 76645 06/// /0303 10213 20142 30178 40191 53008 60001 7//// 8//// 92350 333 0//// 10262 20182 30/// 4//// 50349 54/// 56/// 57/// 59002 60007 70000 8//// 8//// 8//// 9//// 9/
AAXX 09001 76648 32965 00202 10210 20146 30148 40179 53011 60001 7//// 8//// 92350 333 0//// 10286 20176 30/// 4//// 50309 54/// 56/// 57/// 58006 60007 70000 8//// 8//// 8//// 8//// 9/
AAXX 09001 76654 31956 23201 10270 20211 30130 40133 57017 70544 82030 90000 333 10296 20210 30/// 50301 560/0 58003 70000 82359
AAXX 09001 76656 32975 51601 10210 20091 38503 40107 54000 80008 92350 333 10260 20100 30/// 50430 56005 58010 70000 85280
AAXX 09001 76658 31960 42304 10277 20156 39620 40116 56014 70541 80002 92347 333 0/001 10325 20166 30/// 50410 58003 70000 84070 98904
AAXX 09001 76659 06/// /2004 10276 20118 3//// 4//// 5//// 60001 7//// 8//// 92350 333 0//// 10343 20150 30/// 4//// 50349 54/// 56/// 57/// 5//// 60007 70000 8//// 8//// 8//// 9//// 9/
AAXX 09001 76662 31670 42603 10240 20111 38443 40084 57009 84400 92330 333 10292 20080 30/// 50320 56//0 58008 70000 84633
AAXX 09001 76665 31560 21601 10200 20119 38129 40129 52005 70100 82100 92355 333 10258 20099 30/// 50361 56100 57812 58026 70000 82814
AAXX 09001 76675 31575 12002 10155 20059 37373 40090 57004 70544 81100 92352 333 10200 20038 30/// 50291 569// 58003 70000 81626 98475
AAXX 09001 76681 31940 03601 10192 20088 37768 40145 57010 70500 92340 333 10220 20040 30/// 5//// 58003 70000
AAXX 09001 76683 32968 11501 10176 20075 37821 40135 56003 80001 92345 333 10218 20034 30/// 50331 56004 59004 70000 81080
AAXX 09001 76684 06/// /2103 10168 20038 37824 40125 55001 60001 7//// 8//// 92350 333 0//// 10238 20029 30/// 4//// 50309 54/// 56/// 57/// 59003 60007 70000 8//// 8//// 8//// 9//// 9/
AAXX 09001 76685 32970 21501 10182 20011 37859 40092 57005 80001 92350 333 10220 20054 30/// 50211 56009 59007 70000 82077
AAXX 09001 76687 31358 70000 10138 20125 38694 40198 55005 70222 875// 92340 333 10156 20094 30/// 50080 563// 59027 70022 82714 85618
AAXX 09001 76692 31556 40303 10211 20172 30170 40190 37007 71044 83170 92345 333 10240 20180 30/// 50361 5611/ 59037 70000 81818 82630
AAXX 09001 76693 06/// /0202 10204 20172 30173 40192 55005 60001 7//// 8//// 92350 333 0//// 10240 20180 30/// 4//// 50249 56/// 57/// 59038 60007 70000 8//// 8//// 8//// 8//// 9//// 9/
AAXX 09001 76695 32456 63504 10224 20164 30167 40173 57001 86200 92348 333 10248 20164 30/// 50470 561// 58005 70000 86820 91006 91534
AAXX 09001 76698 32558 13601 10225 20199 30166 40178 52005 82500 92350 333 10280 20195 30/// 50291 56800 58008 70000 82620
AAXX 09001 76726 32970 02201 10218 20047 38388 40089 57014 92330 333 10257 20105 30/// 50090 59010 70000
AAXX 09001 76727 06/// /0000 10207 20041 38391 40090 55005 60001 7//// 8//// 92350 333 0//// 10268 20104 30/// 4//// 50219 54/// 56/// 57/// 58005 60007 70000 8//// 8//// 8//// 9//// 9/
AAXX 09001 76737 31478 81101 10152 20136 38790 40177 55004 70322 8662/ 92335 333 10200 20105 30/// 50121 5629/ 59027 70011 86710 91106 91514
AAXX 09001 76738 06/// /1201 10148 20134 38792 40183 55002 60001 7//// 8//// 333 10207 20110 30/// 50159 56/// 57/// 59028 60007 70018 8//// 8//// 8//// 8//// 9//// 9//// 9//// 444 ////
AAXX 09001 76743 31340 80502 10232 20208 30167 40175 55000 70200 884// 92355 333 10260 20215 30/// 50080 561// 58001 70025 88810
AAXX 09001 76750 32558 73402 10243 20193 30158 40168 52010 87500 92350 333 10290 20199 30/// 50261 56880 58006 70013 87720
AAXX 09001 76751 06/// /3502 10239 20193 30158 40168 53010 60001 7//// 8//// 92350 333 0//// 10288 20204 30/// 4//// 50229 54/// 56/// 57/// 58006 60007 70020 8//// 8//// 8//// 9//// 9/
AAXX 09001 76762 32504 11201 10272 20221 38749 40097 56007 81100 92338 333 10306 20120 30/// 50331 56300 58012 70000 81830
AAXX 09001 76772 06/// /3002 10231 20065 38414 40090 55004 60001 7//// 8//// 92350 333 0//// 10284 20057 30/// 4//// 5///9 56/// 57/// 59016 60007 70000 8//// 8//// 8//// 9//// 9//// 9/
AAXX 09001 76773 32570 12701 10236 20073 38409 40086 57007 81400 92346 333 10276 20051 30/// 50391 56200 59013 70000 81620
AAXX 09001 76775 31565 10602 10215 20070 38513 40120 57004 70544 81500 92350 333 10284 20088 30/// 50321 56800 59010 70000 81624
AAXX 09001 76776 06/// /1002 10207 20077 38495 40102 55006 60001 7//// 8//// 92350 333 0//// 10287 20091 30/// 4//// 50369 56/// 57/// 59011 60007 70000 8//// 8//// 8//// 9//// 9//// 9/
AAXX 09001 76805 32970 32602 10282 20230 30109 40113 56003 80001 82350 333 10338 20209 30/// 50451 58013 70000 83059
AAXX 09001 76806 06/// /2602 10273 20230 30109 40113 55001 60001 7//// 8//// 92350 333 10314 20196 30/// 50259 56/// 57/// 58012 60007 70000 8//// 8//// 8//// 8//// 9//// 9//// 9//// 55
AAXX 09001 76833 32970 03609 10272 20222 30120 40122 52004 92340 333 10305 20217 30/// 5//// 58005 70000 92023
AAXX 09001 76843 32465 23604 10200 20155 39504 40147 53003 82100 92335 333 10247 20166 30/// 50231 567// 59001 70000 82819
AAXX 09001 76845 32360 23601 10130 20107 37951 40162 53002 82600 92345 333 10166 20108 30/// 50181 56200 59007 70014 82710
AAXX 09001 76848 32970 40501 10148 20120 38385 40094 53002 84050 92350 333 10208 20134 30/// 50171 56090 59009 70008 84359
AAXX 09001 76855 32580 12601 10278 20225 30054 40103 56001 81200 92340 333 10328 20210 30/// 50470 56900 58013 70000 81820 92000
AAXX 09001 76902 06/// /2302 10272 20218 39982 40119 53007 60001 7//// 8//// 92350 333 0//// 10334 20221 30/// 4//// 50389 54/// 56/// 57/// 58010 60007 70000 8//// 8//// 8//// 8//// 9/
AAXX 09001 76160 32562 62301 10198 20008 39911 40157 52001 84601 92332 333 10225 20040 30/// 50330 56509 58008 70000 84730
AAXX 09001 76243 32773 41402 10164 20043 39892 40191 57011 84050 92340 333 10196 20018 30/// 50261 56050 59060 70000 84350
AAXX 09001 76253 32682 73605 10164 20104 30088 40178 57004 87020 92340 333 10185 20110 30/// 50421 56070 58003 70000 87457 92003
AAXX 09001 76311 32980 50000 10250 20081 39868 40141 52001 80006 92355 333 10296 20055 30/// 50490 56006 58019 70000 85270
AAXX 09001 76405 32980 63203 10206 20141 30145 40167 57002 80008 92350 333 10241 20152 30/// 50320 56005 58012 70000 86276
AAXX 09001 76412 32966 02202 10240 20115 30122 40172 57006 92345 333 10287 20066 30/// 50291 58008 70000
AAXX 09001 76640 31258 80401 10188 20172 30199 40211 57025 70222 8212/ 92340 333 10208 20122 30/// 50111 5689/ 59074 79999 82807 86440
AAXX 09001 76647 32965 00302 10215 20159 30157 40187 53006 92350 333 10279 20178 30/// 50201 58004 79999
AAXX 09001 76741 01240 80000 10194 20187 30145 40163 56004 60191 76366 8622/ 92335 333 10218 20169 32/// 50181 5629/ 59013 60147 70574 86807 82460
AAXX 09001 76840 32540 10405 10256 20179 30069 40124 52003 81200 92340 333 0/800 10298 20170 30/// 50691 58000 70000 81827
AAXX 09001 11010 36066 /1201 11009 21015 39820 44088 57022 333 55///
AAXX 09001 11012 16/// /2203 10006 21022 39725 40207 58022 60001
AAXX 09001 11022 16/// /2503 10005 21029 39808 40206 58021 60001
AAXX 09001 11035 32980 32503 10010 21020 39954 40214 57023 82031 333 82360
AAXX 09001 11036 32981 72002 10002 21036 39991 40222 57020 333 55028 83359 85361
AAXX 09001 11101 16/// /1504 10061 21013 39680 40211 58019 60001
AAXX 09001 11120 16075 /2302 11007 21016 39508 40236 5//// 333 55///
AAXX 09001 11126 16/// /1711 11027 21112 37735 48498 58008 69901 333 91119
AAXX 09001 11130 16/// /2402 10001 21016 39613 40218 58024 60001
AAXX 09001 11146 NIL
AAXX 09001 11150 36073 /1604 10021 21045 39655 40206 57020 333 55///
AAXX 09001 11155 16/// /2009 10013 21104 38357 48484 58017 60001 333 91119
AAXX 09001 11157 32980 79901 11050 21058 39453 40260 57014 82034 333 82359 87075
AAXX 09001 11172 NIL
AAXX 09001 11190 16/// /0502 10013 21039 39986 40227 58018 60001
AAXX 09001 11204 16/// /2601 11032 21047 39463 40289 57012 60001
AAXX 09001 11212 NIL
AAXX 09001 11231 36079 /3202 11027 21043 39677 40273 57008 333 55076
AAXX 09001 11240 36062 /9901 11039 21044 39792 40251 57015 333 55///
AAXX 09001 11244 16/// /0000 11030 21046 39907 40251 57012 60001
AAXX 09001 11389 16/// /2001 11007 21020 39876 40213 58025 60001
AAXX 09004 84370 31660 82705 10240 20212 30050 40091 70222 885// 333 10310 569// 59013 88630
AAXX 09004 84691 31958 42311 10199 20167 30111 40118 71044 80001 333 10247 59001 84073
AAXX 09004 84377 31460 82704 10260 20238 39959 40063 70255 83540 333 10324 5600/ 59006 83612 86358
AAXX 09004 84735 31460 60000 10101 20050 36419 70222 86100 333 10219 56900 58004 86820
AAXX 09004 84782 31562 72007 10172 20134 39628 40138 70310 875// 333 10260 569// 59008 87625
AAXX 09004 84515 31460 60000 10274 20236 39883 40058 70302 8123/ 333 10324 5690/ 59012 81815 85360
AAXX 09004 84455 31560 30000 10280 20224 39770 40120 70122 83100 333 10320 56000 58000 83830
AAXX 09004 84628 34460 81605 10193 20168 30114 40130 70222 886// 333 10224 564// 58006 88712
AAXX 09004 84452 31960 21815 10198 20167 30080 40111 70302 82030 333 10280 56000 59019 82365
AAXX 09004 84501 31456 61611 10186 20157 30091 40118 71021 8363/ 333 10215 56000 59009 83715 83360
AAXX 09004 84752 32960 52807 10128 20079 37527 70222 80001 333 10201 56009 59007 85073
AAXX 09004 84686 21760 43303 10147 20042 36852 70122 84500 333 10211 56900 58006 60021 84650
AAXX 09004 84401 31960 01814 10253 20171 30067 40111 70200 333 10324 58000
AAXX 09001 06407 11565 72712 10095 20059 30048 40054 53010 60051 72165 878// 333 70058 82827 86646 91122 91216
AAXX 09001 06447 NIL
AAXX 09001 06400 11564 82610 10102 20062 30049 40060 53014 60061 72122 875// 333 81631 83647 87656 91122 91216
AAXX 09001 06428 17457 /2608 10105 20084 30011 40059 55002 60031 76286 333 81/12 83/20 85/24 91117 91211
AAXX 09001 06451 11459 72314 10108 20073 39978 40044 56021 60001 76062 875// 333 79999 83711 87620 91122 91214
AAXX 09001 06456 11460 82312 10094 20071 39718 40079 58021 69961 76065 875// 333 83714 87617 91120 91212
AAXX 09001 06476 161// 82308 10067 20060 39439 40097 56020 60021 333 70029 84/02 88/03 91118 91209
AAXX 09001 06479 11579 82212 10115 20076 39958 40036 56032 69941 76062 885// 333 83624 87631 91119 91212
AAXX 09001 06490 17360 82410 10076 20062 39514 40077 58021 60031 75164 333 70030 84/07 88/08 91120 91211
AAXX 09001 06590 16/26 /2208 10077 20070 39669 40119 57021 60011 333 91115 91209
AAXX 09001 06431 NIL
AAXX 09001 06432 37/60 /2212 10107 20080 39984 40059 58020 76100 333 81/18 85/23 87/29 91119 91214
AAXX 09001 06449 11480 72313 10104 20072 39844 40068 57024 69901 76062 875// 333 79999 84615 86620 91120 91215
AAXX 09001 06450 17140 82608 10103 20081 30028 40044 55009 60021 762// 333 70021 86/03 87/16 88/21 91119 91212
AAXX 09001 06458 37583 /2315 10115 20075 39899 40049 56027 70086 333 83/22 87/26 91124 91217
AAXX 09001 06465 35583 /2210 10122 20069 39971 40036 56028 333 83/24 87/28 88/33 91120 91211
AAXX 09001 06478 11581 72213 10101 20072 39842 40058 58026 69931 70262 875// 333 70003 87620 91120 91215
AAXX 09001 06496 17350 /2310 10069 20061 39404 40070 58023 60041 78186 333 83/06 85/08 87/11 91117 91211
AAXX 09001 76040 32960 03402 10187 20007 30169 40183 57011 92340 33310194 20010 30/// 50380 59023 70000 98660
AAXX 09001 76055 32980 73105 10164 21044 30148 40167 57006 80005 92340333 0/006 10188 20041 30/// 50251 59018 70000 87270
AAXX 09001 76113 32880 32201 10180 20002 39694 40170 57004 83030 92340333 10185 21018 30/// 50121 56040 59017 70000 83358
AAXX 09001 76122 32765 60000 10130 20043 38528 40168 52003 82034 92350333 10161 21072 30/// 50181 56055 58/// 70000
AAXX 09001 76256 32980 50000 10186 20090 30157 40171 57006 85008 92340333 10218 20087 30/// 50150 56//5 58004 70000 85070
AAXX 09001 76305 32670 70402 10195 20114 30154 40162 58007 82434 92330333 10210 20105 30/// 5//// 56555 58/// 70000 82650 83060
AAXX 09001 76323 32970 82501 10200 21125 38261 40170 57013 80008 92345333 10248 21032 30/// 50231 56007 59032 70000 88268
AAXX 09001 76342 32962 03601 10178 20031 39486 40200 57001 92350 33310204 20034 30/// 50301 59050 70000
AAXX 09001 76373 32580 61601 10180 21047 38202 40147 51001 84222 92350333 10244 21050 30/// 50431 56999 58001 70000 82825 8233782067
AAXX 09001 76382 32980 40000 10212 20136 38886 40136 57014 80001 92340333 10270 20045 30/// 50331 56003 59043 70000 84076
AAXX 09001 76390 31964 21803 10180 21004 38231 40117 52006 70544 8000192330 333 10230 20019 30/// 50281 56006 59020 70000 82070
AAXX 09001 76393 31940 23401 10166 20044 39595 40180 57006 70500 8100892345 333 10194 20040 30/// 50391 56035 59057 70000
AAXX 09001 76402 31857 40000 10226 20142 30102 40159 57001 70544 8402092345 333 10250 20054 30/// 50211 56050 58015 70000
AAXX 09001 76423 32780 62601 10205 20012 38146 40111 52003 83039 92358333 10264 21005 30/// 50330 56099 59004 70000 83358 83170
AAXX 09001 76458 32970 33006 10217 20168 30142 40147 57002 80002 92338333 10263 20118 30/// 50261 56//9 58020 70000 83070
AAXX 09001 76471 32980 22703 10182 20073 37691 40054 52002 80001 92350333 10230 20041 30/// 50540 56001 59003 70000 82075
AAXX 09001 76490 06/// /0801 10193 20077 39785 40174 55000 60001 7////8//// 92350 333 0//// 10237 20027 30/// 50259 54/// 56///57/// 59072 60007 70000 8//// 8//// 8//// 8//// 9//// 9/
AAXX 09001 76491 32960 31101 10200 20101 39800 40193 54000 80004 92350333 10232 20024 30/// 50241 56009 59077 70000 83077
AAXX 09001 76499 32857 31102 10208 20115 30156 40178 52001 83030 92355333 10260 20082 30/// 50281 56040 59080 70000 83357
AAXX 09001 76519 32560 42803 10232 20034 38363 40138 52003 80002 92340333 10254 20028 30/// 50361 56006 58027 70000 84070
AAXX 09001 76525 32970 82208 10160 21014 37468 40102 55003 80001 92340333 10218 20092 30/// 50581 56//5 59004 70000 88080
AAXX 09001 76543 32675 61103 10210 20126 30177 40210 55006 86500 92335333 10243 20120 30/// 50251 56500 59070 70000 86650
AAXX 09001 76547 06/// /1001 10190 20138 30178 40190 55008 60001 7////8//// 92350 333 0//// 10230 20137 50259 56/// 57/// 5907560007 70000 8//// 8//// 8//// 8//// 9//// 9//// 9//// 44
AAXX 09001 76548 32875 50901 10198 20126 30189 40199 55010 85030 92345333 10227 20134 30/// 50341 56040 59072 70000 85358
AAXX 09001 76556 32970 13003 10230 20161 39123 40134 57002 80005 92335333 10275 20122 30/// 50281 56006 58014 70000 81070
AAXX 09001 76571 32965 42301 10222 21016 38155 40117 55003 80004 92350333 10246 20048 30/// 50271 56005 59002 70000
AAXX 09001 76577 32970 12302 10211 20170 38034 40109 56008 80005 92340333 10245 20073 30/// 50261 56005 58002 70000
AAXX 09001 76578 06/// /1802 10201 20032 38032 40083 55006 60001 7////8//// 92350 333 0//// 10255 20071 30/// 4//// 50269 54///56/// 57/// 58000 60007 70000 8//// 8//// 8//// 9//// 9/
AAXX 09001 76581 32970 01304 10180 20117 39049 40156 57005 92350 33310230 20077 30/// 50330 59066 70000
AAXX 09001 76586 06/// /1501 10192 20144 30028 40185 55005 60001 7////8//// 92350 333 0//// 10240 20116 30/// 4//// 50209 54///56/// 57/// 59079 60007 70000 8//// 8//// 8//// 9//// 9/
AAXX 09001 76592 06/// /0407 10218 21067 30186 40186 53003 60001 7////8//// 92350 333 0//// 10243 20206 30/// 4//// 50719 54///56/// 57/// 59002 60007 70000 8//// 8//// 8//// 9//// 9/
AAXX 09001 76593 32460 30504 10214 20194 30184 40186 52002 83400 92350333 10243 20186 30/// 50360 56100 59001 70000 83624 9100691505
AAXX 09001 76612 32662 42902 10227 20075 38464 40108 55007 82231 92350333 10273 20086 30/// 50161 56555 58011 70000 82840
AAXX 09001 76625 32960 02701 10210 20043 38139 40105 54000 92350 33310242 20053 30/// 50370 59004 70000
AAXX 09001 76632 32967 30206 10165 20095 37613 40068 57026 83009 92345333 10200 20064 30/// 5//// 56001 59011 70000 83272
AAXX 09001 76634 31670 40502 10176 20020 37847 40105 57002 70500 8110192350 333 10234 20042 30/// 50331 563/3 59015 70000 8183483075
AAXX 09001 76641 06/// /0000 10188 20150 30185 40197 55007 60001 7////8//// 92350 333 0//// 10213 20130 30/// 4//// 50159 54///56/// 57/// 59076 60007 70000 8//// 8//// 8//// 8//// 9/
AAXX 09001 76644 32460 10203 10216 20150 30169 40182 52002 81100 92350333 10262 20184 30/// 50200 567// 59004 70000 81820
AAXX 09001 76645 06/// /0303 10213 20142 30178 40191 53008 60001 7////8//// 92350 333 0//// 10262 20182 30/// 4//// 50349 54///56/// 57/// 59002 60007 70000 8//// 8//// 8//// 9//// 9/
AAXX 09001 76648 32965 00202 10210 20146 30148 40179 53011 60001 7////8//// 92350 333 0//// 10286 20176 30/// 4//// 50309 54///56/// 57/// 58006 60007 70000 8//// 8//// 8//// 8//// 9/
AAXX 09001 76654 31956 23201 10270 20211 30130 40133 57017 70544 8203090000 333 10296 20210 30/// 50301 560/0 58003 70000 82359
AAXX 09001 76656 32975 51601 10210 20091 38503 40107 54000 80008 92350333 10260 20100 30/// 50430 56005 58010 70000 85280
AAXX 09001 76658 31960 42304 10277 20156 39620 40116 56014 70541 8000292347 333 0/001 10325 20166 30/// 50410 58003 70000 8407098904
AAXX 09001 76659 06/// /2004 10276 20118 3//// 4//// 5//// 60001 7////8//// 92350 333 0//// 10343 20150 30/// 4//// 50349 54///56/// 57/// 5//// 60007 70000 8//// 8//// 8//// 9//// 9/
AAXX 09001 76662 31670 42603 10240 20111 38443 40084 57009 84400 92330333 10292 20080 30/// 50320 56//0 58008 70000 84633
AAXX 09001 76665 31560 21601 10200 20119 38129 40129 52005 70100 8210092355 333 10258 20099 30/// 50361 56100 57812 58026 7000082814
AAXX 09001 76675 31575 12002 10155 20059 37373 40090 57004 70544 8110092352 333 10200 20038 30/// 50291 569// 58003 70000 8162698475
AAXX 09001 76681 31940 03601 10192 20088 37768 40145 57010 70500 92340333 10220 20040 30/// 5//// 58003 70000
AAXX 09001 76683 32968 11501 10176 20075 37821 40135 56003 80001 92345333 10218 20034 30/// 50331 56004 59004 70000 81080
AAXX 09001 76684 06/// /2103 10168 20038 37824 40125 55001 60001 7////8//// 92350 333 0//// 10238 20029 30/// 4//// 50309 54///56/// 57/// 59003 60007 70000 8//// 8//// 8//// 9//// 9/
AAXX 09001 76685 32970 21501 10182 20011 37859 40092 57005 80001 92350333 10220 20054 30/// 50211 56009 59007 70000 82077
AAXX 09001 76687 31358 70000 10138 20125 38694 40198 55005 70222 875//92340 333 10156 20094 30/// 50080 563// 59027 70022 8271485618
AAXX 09001 76692 31556 40303 10211 20172 30170 40190 37007 71044 8317092345 333 10240 20180 30/// 50361 5611/ 59037 70000 8181882630
AAXX 09001 76693 06/// /0202 10204 20172 30173 40192 55005 60001 7////8//// 92350 333 0//// 10240 20180 30/// 4//// 50249 56///57/// 59038 60007 70000 8//// 8//// 8//// 8//// 9//// 9/
AAXX 09001 76695 32456 63504 10224 20164 30167 40173 57001 86200 92348333 10248 20164 30/// 50470 561// 58005 70000 86820 9100691534
AAXX 09001 76698 32558 13601 10225 20199 30166 40178 52005 82500 92350333 10280 20195 30/// 50291 56800 58008 70000 82620
AAXX 09001 76726 32970 02201 10218 20047 38388 40089 57014 92330 33310257 20105 30/// 50090 59010 70000
AAXX 09001 76727 06/// /0000 10207 20041 38391 40090 55005 60001 7////8//// 92350 333 0//// 10268 20104 30/// 4//// 50219 54///56/// 57/// 58005 60007 70000 8//// 8//// 8//// 9//// 9/
AAXX 09001 76737 31478 81101 10152 20136 38790 40177 55004 70322 8662/92335 333 10200 20105 30/// 50121 5629/ 59027 70011 8671091106 91514
AAXX 09001 76738 06/// /1201 10148 20134 38792 40183 55002 60001 7////8//// 333 10207 20110 30/// 50159 56/// 57/// 59028 6000770018 8//// 8//// 8//// 8//// 9//// 9//// 9//// 444 ////
AAXX 09001 76743 31340 80502 10232 20208 30167 40175 55000 70200 884//92355 333 10260 20215 30/// 50080 561// 58001 70025 88810
AAXX 09001 76750 32558 73402 10243 20193 30158 40168 52010 87500 92350333 10290 20199 30/// 50261 56880 58006 70013 87720
AAXX 09001 76751 06/// /3502 10239 20193 30158 40168 53010 60001 7////8//// 92350 333 0//// 10288 20204 30/// 4//// 50229 54///56/// 57/// 58006 60007 70020 8//// 8//// 8//// 9//// 9/
AAXX 09001 76762 32504 11201 10272 20221 38749 40097 56007 81100 92338333 10306 20120 30/// 50331 56300 58012 70000 81830
AAXX 09001 76772 06/// /3002 10231 20065 38414 40090 55004 60001 7////8//// 92350 333 0//// 10284 20057 30/// 4//// 5///9 56///57/// 59016 60007 70000 8//// 8//// 8//// 9//// 9//// 9/
AAXX 09001 76773 32570 12701 10236 20073 38409 40086 57007 81400 92346333 10276 20051 30/// 50391 56200 59013 70000 81620
AAXX 09001 76775 31565 10602 10215 20070 38513 40120 57004 70544 8150092350 333 10284 20088 30/// 50321 56800 59010 70000 81624
AAXX 09001 76776 06/// /1002 10207 20077 38495 40102 55006 60001 7////8//// 92350 333 0//// 10287 20091 30/// 4//// 50369 56///57/// 59011 60007 70000 8//// 8//// 8//// 9//// 9//// 9/
AAXX 09001 76805 32970 32602 10282 20230 30109 40113 56003 80001 82350333 10338 20209 30/// 50451 58013 70000 83059
AAXX 09001 76806 06/// /2602 10273 20230 30109 40113 55001 60001 7////8//// 92350 333 10314 20196 30/// 50259 56/// 57/// 5801260007 70000 8//// 8//// 8//// 8//// 9//// 9//// 9//// 55
AAXX 09001 76833 32970 03609 10272 20222 30120 40122 52004 92340 33310305 20217 30/// 5//// 58005 70000 92023
AAXX 09001 76843 32465 23604 10200 20155 39504 40147 53003 82100 92335333 10247 20166 30/// 50231 567// 59001 70000 82819
AAXX 09001 76845 32360 23601 10130 20107 37951 40162 53002 82600 92345333 10166 20108 30/// 50181 56200 59007 70014 82710
AAXX 09001 76848 32970 40501 10148 20120 38385 40094 53002 84050 92350333 10208 20134 30/// 50171 56090 59009 70008 84359
AAXX 09001 76855 32580 12601 10278 20225 30054 40103 56001 81200 92340333 10328 20210 30/// 50470 56900 58013 70000 81820 92000
AAXX 09001 76902 06/// /2302 10272 20218 39982 40119 53007 60001 7////8//// 92350 333 0//// 10334 20221 30/// 4//// 50389 54///56/// 57/// 58010 60007 70000 8//// 8//// 8//// 8//// 9/
AAXX 09001 76160 32562 62301 10198 20008 39911 40157 52001 84601 92332333 10225 20040 30/// 50330 56509 58008 70000 84730
AAXX 09001 76243 32773 41402 10164 20043 39892 40191 57011 84050 92340333 10196 20018 30/// 50261 56050 59060 70000 84350
AAXX 09001 76253 32682 73605 10164 20104 30088 40178 57004 87020 92340333 10185 20110 30/// 50421 56070 58003 70000 87457 92003
AAXX 09001 76311 32980 50000 10250 20081 39868 40141 52001 80006 92355333 10296 20055 30/// 50490 56006 58019 70000 85270
AAXX 09001 76405 32980 63203 10206 20141 30145 40167 57002 80008 92350333 10241 20152 30/// 50320 56005 58012 70000 86276
AAXX 09001 76412 32966 02202 10240 20115 30122 40172 57006 92345 33310287 20066 30/// 50291 58008 70000
AAXX 09001 76640 31258 80401 10188 20172 30199 40211 57025 70222 8212/92340 333 10208 20122 30/// 50111 5689/ 59074 79999 8280786440
AAXX 09001 76647 32965 00302 10215 20159 30157 40187 53006 92350 33310279 20178 30/// 50201 58004 79999
AAXX 09001 76741 01240 80000 10194 20187 30145 40163 56004 60191 763668622/ 92335 333 10218 20169 32/// 50181 5629/ 59013 6014770574 86807 82460
AAXX 09001 76840 32540 10405 10256 20179 30069 40124 52003 81200 92340333 0/800 10298 20170 30/// 50691 58000 70000 81827
AAXX 09001 76040 32960 03402 10187 20007 30169 40183 57011 92340 333 10194 20010 30/// 50380 59023 70000 98660
AAXX 09001 76055 32980 73105 10164 21044 30148 40167 57006 80005 92340 333 0/006 10188 20041 30/// 50251 59018 70000 87270
AAXX 09001 76113 32880 32201 10180 20002 39694 40170 57004 83030 92340 333 10185 21018 30/// 50121 56040 59017 70000 83358
AAXX 09001 76122 32765 60000 10130 20043 38528 40168 52003 82034 92350 333 10161 21072 30/// 50181 56055 58/// 70000
AAXX 09001 76256 32980 50000 10186 20090 30157 40171 57006 85008 92340 333 10218 20087 30/// 50150 56//5 58004 70000 85070
AAXX 09001 76305 32670 70402 10195 20114 30154 40162 58007 82434 92330 333 10210 20105 30/// 5//// 56555 58/// 70000 82650 83060
AAXX 09001 76323 32970 82501 10200 21125 38261 40170 57013 80008 92345 333 10248 21032 30/// 50231 56007 59032 70000 88268
AAXX 09001 76342 32962 03601 10178 20031 39486 40200 57001 92350 333 10204 20034 30/// 50301 59050 70000
AAXX 09001 76373 32580 61601 10180 21047 38202 40147 51001 84222 92350 333 10244 21050 30/// 50431 56999 58001 70000 82825 82337 82067
AAXX 09001 76382 32980 40000 10212 20136 38886 40136 57014 80001 92340 333 10270 20045 30/// 50331 56003 59043 70000 84076
AAXX 09001 76390 31964 21803 10180 21004 38231 40117 52006 70544 80001 92330 333 10230 20019 30/// 50281 56006 59020 70000 82070
AAXX 09001 76393 31940 23401 10166 20044 39595 40180 57006 70500 81008 92345 333 10194 20040 30/// 50391 56035 59057 70000
AAXX 09001 76402 31857 40000 10226 20142 30102 40159 57001 70544 84020 92345 333 10250 20054 30/// 50211 56050 58015 70000
AAXX 09001 76423 32780 62601 10205 20012 38146 40111 52003 83039 92358 333 10264 21005 30/// 50330 56099 59004 70000 83358 83170
AAXX 09001 76458 32970 33006 10217 20168 30142 40147 57002 80002 92338 333 10263 20118 30/// 50261 56//9 58020 70000 83070
AAXX 09001 76471 32980 22703 10182 20073 37691 40054 52002 80001 92350 333 10230 20041 30/// 50540 56001 59003 70000 82075
AAXX 09001 76490 06/// /0801 10193 20077 39785 40174 55000 60001 7//// 8//// 92350 333 0//// 10237 20027 30/// 50259 54/// 56/// 57/// 59072 60007 70000 8//// 8//// 8//// 8//// 9//// 9/
AAXX 09001 76491 32960 31101 10200 20101 39800 40193 54000 80004 92350 333 10232 20024 30/// 50241 56009 59077 70000 83077
AAXX 09001 76499 32857 31102 10208 20115 30156 40178 52001 83030 92355 333 10260 20082 30/// 50281 56040 59080 70000 83357
AAXX 09001 76519 32560 42803 10232 20034 38363 40138 52003 80002 92340 333 10254 20028 30/// 50361 56006 58027 70000 84070
AAXX 09001 76525 32970 82208 10160 21014 37468 40102 55003 80001 92340 333 10218 20092 30/// 50581 56//5 59004 70000 88080
AAXX 09001 76543 32675 61103 10210 20126 30177 40210 55006 86500 92335 333 10243 20120 30/// 50251 56500 59070 70000 86650
AAXX 09001 76547 06/// /1001 10190 20138 30178 40190 55008 60001 7//// 8//// 92350 333 0//// 10230 20137 50259 56/// 57/// 59075 60007 70000 8//// 8//// 8//// 8//// 9//// 9//// 9//// 44
AAXX 09001 76548 32875 50901 10198 20126 30189 40199 55010 85030 92345 333 10227 20134 30/// 50341 56040 59072 70000 85358
AAXX 09001 76556 32970 13003 10230 20161 39123 40134 57002 80005 92335 333 10275 20122 30/// 50281 56006 58014 70000 81070
AAXX 09001 76571 32965 42301 10222 21016 38155 40117 55003 80004 92350 333 10246 20048 30/// 50271 56005 59002 70000
AAXX 09001 76577 32970 12302 10211 20170 38034 40109 56008 80005 92340 333 10245 20073 30/// 50261 56005 58002 70000
AAXX 09001 76578 06/// /1802 10201 20032 38032 40083 55006 60001 7//// 8//// 92350 333 0//// 10255 20071 30/// 4//// 50269 54/// 56/// 57/// 58000 60007 70000 8//// 8//// 8//// 9//// 9/
AAXX 09001 76581 32970 01304 10180 20117 39049 40156 57005 92350 333 10230 20077 30/// 50330 59066 70000
AAXX 09001 76586 06/// /1501 10192 20144 30028 40185 55005 60001 7//// 8//// 92350 333 0//// 10240 20116 30/// 4//// 50209 54/// 56/// 57/// 59079 60007 70000 8//// 8//// 8//// 9//// 9/
AAXX 09001 76592 06/// /0407 10218 21067 30186 40186 53003 60001 7//// 8//// 92350 333 0//// 10243 20206 30/// 4//// 50719 54/// 56/// 57/// 59002 60007 70000 8//// 8//// 8//// 9//// 9/
AAXX 09001 76593 32460 30504 10214 20194 30184 40186 52002 83400 92350 333 10243 20186 30/// 50360 56100 59001 70000 83624 91006 91505
AAXX 09001 76612 32662 42902 10227 20075 38464 40108 55007 82231 92350 333 10273 20086 30/// 50161 56555 58011 70000 82840
AAXX 09001 76625 32960 02701 10210 20043 38139 40105 54000 92350 333 10242 20053 30/// 50370 59004 70000
AAXX 09001 76632 32967 30206 10165 20095 37613 40068 57026 83009 92345 333 10200 20064 30/// 5//// 56001 59011 70000 83272
AAXX 09001 76634 31670 40502 10176 20020 37847 40105 57002 70500 81101 92350 333 10234 20042 30/// 50331 563/3 59015 70000 81834 83075
AAXX 09001 76641 06/// /0000 10188 20150 30185 40197 55007 60001 7//// 8//// 92350 333 0//// 10213 20130 30/// 4//// 50159 54/// 56/// 57/// 59076 60007 70000 8//// 8//// 8//// 8//// 9/
AAXX 09001 76644 32460 10203 10216 20150 30169 40182 52002 81100 92350 333 10262 20184 30/// 50200 567// 59004 70000 81820
AAXX 09001 76645 06/// /0303 10213 20142 30178 40191 53008 60001 7//// 8//// 92350 333 0//// 10262 20182 30/// 4//// 50349 54/// 56/// 57/// 59002 60007 70000 8//// 8//// 8//// 9//// 9/
AAXX 09001 76648 32965 00202 10210 20146 30148 40179 53011 60001 7//// 8//// 92350 333 0//// 10286 20176 30/// 4//// 50309 54/// 56/// 57/// 58006 60007 70000 8//// 8//// 8//// 8//// 9/
AAXX 09001 76654 31956 23201 10270 20211 30130 40133 57017 70544 82030 90000 333 10296 20210 30/// 50301 560/0 58003 70000 82359
AAXX 09001 76656 32975 51601 10210 20091 38503 40107 54000 80008 92350 333 10260 20100 30/// 50430 56005 58010 70000 85280
AAXX 09001 76658 31960 42304 10277 20156 39620 40116 56014 70541 80002 92347 333 0/001 10325 20166 30/// 50410 58003 70000 84070 98904
AAXX 09001 76659 06/// /2004 10276 20118 3//// 4//// 5//// 60001 7//// 8//// 92350 333 0//// 10343 20150 30/// 4//// 50349 54/// 56/// 57/// 5//// 60007 70000 8//// 8//// 8//// 9//// 9/
AAXX 09001 76662 31670 42603 10240 20111 38443 40084 57009 84400 92330 333 10292 20080 30/// 50320 56//0 58008 70000 84633
AAXX 09001 76665 31560 21601 10200 20119 38129 40129 52005 70100 82100 92355 333 10258 20099 30/// 50361 56100 57812 58026 70000 82814
AAXX 09001 76675 31575 12002 10155 20059 37373 40090 57004 70544 81100 92352 333 10200 20038 30/// 50291 569// 58003 70000 81626 98475
AAXX 09001 76681 31940 03601 10192 20088 37768 40145 57010 70500 92340 333 10220 20040 30/// 5//// 58003 70000
AAXX 09001 76683 32968 11501 10176 20075 37821 40135 56003 80001 92345 333 10218 20034 30/// 50331 56004 59004 70000 81080
AAXX 09001 76684 06/// /2103 10168 20038 37824 40125 55001 60001 7//// 8//// 92350 333 0//// 10238 20029 30/// 4//// 50309 54/// 56/// 57/// 59003 60007 70000 8//// 8//// 8//// 9//// 9/
AAXX 09001 76685 32970 21501 10182 20011 37859 40092 57005 80001 92350 333 10220 20054 30/// 50211 56009 59007 70000 82077
AAXX 09001 76687 31358 70000 10138 20125 38694 40198 55005 70222 875// 92340 333 10156 20094 30/// 50080 563// 59027 70022 82714 85618
AAXX 09001 76692 31556 40303 10211 20172 30170 40190 37007 71044 83170 92345 333 10240 20180 30/// 50361 5611/ 59037 70000 81818 82630
AAXX 09001 76693 06/// /0202 10204 20172 30173 40192 55005 60001 7//// 8//// 92350 333 0//// 10240 20180 30/// 4//// 50249 56/// 57/// 59038 60007 70000 8//// 8//// 8//// 8//// 9//// 9/
AAXX 09001 76695 32456 63504 10224 20164 30167 40173 57001 86200 92348 333 10248 20164 30/// 50470 561// 58005 70000 86820 91006 91534
AAXX 09001 76698 32558 13601 10225 20199 30166 40178 52005 82500 92350 333 10280 20195 30/// 50291 56800 58008 70000 82620
AAXX 09001 76726 32970 02201 10218 20047 38388 40089 57014 92330 333 10257 20105 30/// 50090 59010 70000
AAXX 09001 76727 06/// /0000 10207 20041 38391 40090 55005 60001 7//// 8//// 92350 333 0//// 10268 20104 30/// 4//// 50219 54/// 56/// 57/// 58005 60007 70000 8//// 8//// 8//// 9//// 9/
AAXX 09001 76737 31478 81101 10152 20136 38790 40177 55004 70322 8662/ 92335 333 10200 20105 30/// 50121 5629/ 59027 70011 86710 91106 91514
AAXX 09001 76738 06/// /1201 10148 20134 38792 40183 55002 60001 7//// 8//// 333 10207 20110 30/// 50159 56/// 57/// 59028 60007 70018 8//// 8//// 8//// 8//// 9//// 9//// 9//// 444 ////
AAXX 09001 76743 31340 80502 10232 20208 30167 40175 55000 70200 884// 92355 333 10260 20215 30/// 50080 561// 58001 70025 88810
AAXX 09001 76750 32558 73402 10243 20193 30158 40168 52010 87500 92350 333 10290 20199 30/// 50261 56880 58006 70013 87720
AAXX 09001 76751 06/// /3502 10239 20193 30158 40168 53010 60001 7//// 8//// 92350 333 0//// 10288 20204 30/// 4//// 50229 54/// 56/// 57/// 58006 60007 70020 8//// 8//// 8//// 9//// 9/
AAXX 09001 76762 32504 11201 10272 20221 38749 40097 56007 81100 92338 333 10306 20120 30/// 50331 56300 58012 70000 81830
AAXX 09001 76772 06/// /3002 10231 20065 38414 40090 55004 60001 7//// 8//// 92350 333 0//// 10284 20057 30/// 4//// 5///9 56/// 57/// 59016 60007 70000 8//// 8//// 8//// 9//// 9//// 9/
AAXX 09001 76773 32570 12701 10236 20073 38409 40086 57007 81400 92346 333 10276 20051 30/// 50391 56200 59013 70000 81620
AAXX 09001 76775 31565 10602 10215 20070 38513 40120 57004 70544 81500 92350 333 10284 20088 30/// 50321 56800 59010 70000 81624
AAXX 09001 76776 06/// /1002 10207 20077 38495 40102 55006 60001 7//// 8//// 92350 333 0//// 10287 20091 30/// 4//// 50369 56/// 57/// 59011 60007 70000 8//// 8//// 8//// 9//// 9//// 9/
AAXX 09001 76805 32970 32602 10282 20230 30109 40113 56003 80001 82350 333 10338 20209 30/// 50451 58013 70000 83059
AAXX 09001 76806 06/// /2602 10273 20230 30109 40113 55001 60001 7//// 8//// 92350 333 10314 20196 30/// 50259 56/// 57/// 58012 60007 70000 8//// 8//// 8//// 8//// 9//// 9//// 9//// 55
AAXX 09001 76833 32970 03609 10272 20222 30120 40122 52004 92340 333 10305 20217 30/// 5//// 58005 70000 92023
AAXX 09001 76843 32465 23604 10200 20155 39504 40147 53003 82100 92335 333 10247 20166 30/// 50231 567// 59001 70000 82819
AAXX 09001 76845 32360 23601 10130 20107 37951 40162 53002 82600 92345 333 10166 20108 30/// 50181 56200 59007 70014 82710
AAXX 09001 76848 32970 40501 10148 20120 38385 40094 53002 84050 92350 333 10208 20134 30/// 50171 56090 59009 70008 84359
AAXX 09001 76855 32580 12601 10278 20225 30054 40103 56001 81200 92340 333 10328 20210 30/// 50470 56900 58013 70000 81820 92000
AAXX 09001 76902 06/// /2302 10272 20218 39982 40119 53007 60001 7//// 8//// 92350 333 0//// 10334 20221 30/// 4//// 50389 54/// 56/// 57/// 58010 60007 70000 8//// 8//// 8//// 8//// 9/
AAXX 09001 76160 32562 62301 10198 20008 39911 40157 52001 84601 92332 333 10225 20040 30/// 50330 56509 58008 70000 84730
AAXX 09001 76243 32773 41402 10164 20043 39892 40191 57011 84050 92340 333 10196 20018 30/// 50261 56050 59060 70000 84350
AAXX 09001 76253 32682 73605 10164 20104 30088 40178 57004 87020 92340 333 10185 20110 30/// 50421 56070 58003 70000 87457 92003
AAXX 09001 76311 32980 50000 10250 20081 39868 40141 52001 80006 92355 333 10296 20055 30/// 50490 56006 58019 70000 85270
AAXX 09001 76405 32980 63203 10206 20141 30145 40167 57002 80008 92350 333 10241 20152 30/// 50320 56005 58012 70000 86276
AAXX 09001 76412 32966 02202 10240 20115 30122 40172 57006 92345 333 10287 20066 30/// 50291 58008 70000
AAXX 09001 76640 31258 80401 10188 20172 30199 40211 57025 70222 8212/ 92340 333 10208 20122 30/// 50111 5689/ 59074 79999 82807 86440
AAXX 09001 76647 32965 00302 10215 20159 30157 40187 53006 92350 333 10279 20178 30/// 50201 58004 79999
AAXX 09001 76741 01240 80000 10194 20187 30145 40163 56004 60191 76366 8622/ 92335 333 10218 20169 32/// 50181 5629/ 59013 60147 70574 86807 82460
AAXX 09001 76840 32540 10405 10256 20179 30069 40124 52003 81200 92340 333 0/800 10298 20170 30/// 50691 58000 70000 81827
BBXX A8PQ5 09003 99247 71089 41298 62409 10200 2017/ 40160 5/000 7//22 86978 222// 00190 20401 32424 40401 50401 6//// 80180 ICE /////
BBXX A8TG2 09003 99314 71386 41/// /0613 10180 20106 40220 53/// 7//// 8//// 22224 20802 307// 41003 5//// 80140
AAXX 09001 26038 21360 81604 10006 21004 30049 40090 57007 70272 886// 333 10009 20002 60007 88707 91109 555 1/100 20002 3/101 50006 52100
AAXX 09001 26045 27465 31604 11014 21025 30110 40113 53002 70000 83/// 333 10007 21017 60007 83/11 91108 555 1/102 21017 3/103 51000
AAXX 09001 26058 27575 71602 10000 21025 30122 40129 54001 70000 87/// 333 10014 21007 60007 87/28 555 1/101 21007 3/102 50009 52102
AAXX 09001 26115 27579 61805 10035 20007 30048 40056 58022 78088 86/// 333 10042 20021 60007 86/22 91010 91111 555 1/002 20021 3/100 50030
AAXX 09001 26135 27473 81704 11009 21026 30036 40112 58003 70000 88/// 333 11002 21013 60007 88/14 555 1/101 21013 3/102 51005 52102
AAXX 09001 26141 21364 81706 11017 21029 39964 40116 58002 70282 875// 333 11004 21019 60007 87608 555 1/101 21019 3/102 51010 52102
AAXX 09001 26231 21363 81705 10001 21017 30089 40104 57010 70222 875// 333 10013 20001 60007 87609 91009 91109 555 1/000 20001 3/000 50010
AAXX 09001 26242 21559 71402 11012 21025 30038 40126 58004 70222 87500 333 10008 21030 60007 87624 555 1/102 21030 3/104 51007 52105
AAXX 09001 26247 27/61 /1602 11012 21020 30048 40129 58004 70011 333 11002 21034 60007 555 1/101 21034 3/108 51013
AAXX 09001 10004 46/60 /2522 10088 20035 39909 49909 56017 222// 00102 333 55300 91128 91222
AAXX 09004 17600 11565 50404 10126 20092 30146 40156 58003 69931 70181 85800 333 82825 83650
AAXX 09004 17601 12575 53401 10104 20089 30123 40155 55001 60001 85800 92350 333 81828 85638
AAXX 09004 17607 NIL
AAXX 09004 17609 12775 13004 10102 20086 30153 40157 52001 60001 81500 333 81650
BBXX UFTA 09001 99851 71231 41696 61602 11292 21322 40057 52017 77172 83530 333 21292
AAXX 09003 91502 01470 80208 10275 20254 40092 51014 60174 71685 889// 333 20253 56199 58022 69917 83816 81917 87630
AAXX 09003 91507 12481 33205 10310 20246 40088 50006 60014 83952 333 20240 56999 58016 82818 81919
AAXX 09003 91520 01475 73608 10302 20250 40088 50007 60334 70522 83938 333 20230 56999 58015 69917 83819 81920 87280
AAXX 09003 91541 01470 80000 10240 20237 40108 52014 60574 79598 8592/ 333 56099 58040 60447 83816 82917 88458
AAXX 09003 91502 01470 80208 10275 20254 40092 51014 60174 71685 889// 333 20253 56199 58022 69917 83816 81917 87630
AAXX 09003 91507 12481 33205 10310 20246 40088 50006 60014 83952 333 20240 56999 58016 82818 81919
AAXX 09003 91520 01475 73608 10302 20250 40088 50007 60334 70522 83938 333 20230 56999 58015 69917 83819 81920 87280
AAXX 09003 91541 01470 80000 10240 20237 40108 52014 60574 79598 8592/ 333 56099 58040 60447 83816 82917 88458
AAXX 09004 91930 16/// ///// 10293 20215 60024 333 20221
AAXX 09004 91943 36/// /0410 10292 20209 30095 40097 56022 333 59006
AAXX 09001 89061 179// 03409 10006 20001 39819 49826 52001 60034 77177 333 10014 20004 91012 91114
AAXX 09004 03894 11358 82819 10087 20074 40126 52015 76365 885// 333 82706 84615 86630 90710 91128
AAXX 09004 70026 NIL
AAXX 09004 70133 NIL
AAXX 09004 70174 NIL
AAXX 09004 70200 NIL
AAXX 09004 70219 NIL
AAXX 09004 70231 NIL
AAXX 09004 70261 NIL
AAXX 09004 70267 NIL
AAXX 09004 70271 NIL
AAXX 09004 70273 NIL
AAXX 09004 70308 NIL
AAXX 09004 70316 NIL
AAXX 09004 70326 NIL
AAXX 09004 70340 NIL
AAXX 09004 70350 NIL
AAXX 09004 70361 NIL
AAXX 09004 70381 NIL
AAXX 09004 70398 NIL
AAXX 09004 70414 NIL
AAXX 09004 78526 NIL
AAXX 09004 78543 NIL
AAXX 09004 43533 11458 60907 10275 20220 30070 40073 60002 70522 82208 333 59006 70000 82818 85277
AAXX 09004 43555 11459 70913 10280 20249 30072 40075 60002 70522 82202 333 59003 79999 82818 87076
AAXX 09004 43577 11460 72005 10263 20240 30080 40082 60282 70282 8227/ 333 58003 70028 82818 87362
AAXX 09004 43588 11456 82508 10246 20245 30070 40072 60132 78086 8492/ 333 59005 70049 83816 81917 88460
AAXX 09004 43599 11462 62712 10258 20239 30075 40077 69962 70182 82262 333 59006 70016 82818 84362
AAXX 09004 03301 16680 /2720 10052 21007 39976 40049 51026 60001 92350 333 81/35 90710 91133 91030
AAXX 09004 03305 17680 /2528 10042 21023 39788 40052 53029 69921 723// 92350 333 82/31 86/45 90710 91145 91042
AAXX 09004 03313 16974 /2618 10047 21007 39942 40036 51026 60001 92350 333 8//99 90710 91131 91031
AAXX 09004 03316 17661 /2736 10069 20018 30005 40016 52022 69941 723// 92350 333 81/35 86/46 90710 91150 91050
AAXX 09004 03318 16/// /2732 10066 20007 60001 92350 333 90710 91148 91042
AAXX 09004 03321 16976 /2818 10055 21016 30015 40027 51018 69921 92350 333 55/// 20104 8//99 90710 91136 91031
AAXX 09004 03330 15668 /2817 10026 21023 39661 40024 51020 69941 92350 333 81/35 90710 91133 91030
AAXX 09004 03344 17557 /2716 10030 21006 39669 49987 53027 60021 781// 92350 333 81/25 86/41 90710 91143 91030
AAXX 09004 03346 16/// /2731 10037 21008 69921 92350 333 90710 91145 91043
AAXX 09004 03348 17678 /2619 10046 21003 39908 40015 51020 69921 723// 92350 333 55/// 20046 85/46 90710 91130
AAXX 09004 03355 17977 /2725 10058 21014 39958 49968 51018 69961 723// 92350 333 55/// 20073 8//99 90710 91146 91035
AAXX 09004 03373 16668 /2525 10042 21006 39924 49994 53019 60001 92350 333 81/33 90710 91139
AAXX 09004 03379 16980 /2622 10041 21014 39932 40009 53019 60001 92350 333 8//99 90710 91133
AAXX 09004 03382 15980 /2523 10051 20004 39950 49959 51018 69901 92350 333 55/// 20087 8//99 90710 91139 91036
AAXX 09004 03385 46976 /2421 10045 20001 39968 49977 51021 92350 333 8//99 90710 91135 91031
AAXX 09004 03391 12681 12620 10049 21023 39992 49999 52019 60001 81500 92350 333 81640 90710 91130
AAXX 09004 03392 16975 /2523 10044 21001 39994 49998 53023 60001 92350 333 8//99 90710 91134
AAXX 09004 03405 16680 /2733 10054 21007 39950 40067 53019 60001 92350 333 55/// 20093 83/33 90710 91145
AAXX 09004 03409 16/// /2619 10043 21018 60001 92350 333 55/// 2//// 90710 91135 91030
AAXX 09004 03410 16675 /2624 10026 21025 39611 40048 53019 69961 92350 333 55/// 20028 86/32 90710 91138 91035
AAXX 09004 03469 15982 /2620 10048 20000 30008 40011 53020 69901 92350 333 55/// 20117 8//99 90710 91131
AAXX 09004 03488 15984 /2529 10051 20000 39969 49995 53016 60011 92350 333 8//99 90710 91138
AAXX 09004 03503 15670 /2815 10058 21003 30001 40078 52022 69961 92350 333 81/35 83/40 90710 91125 91025
AAXX 09004 03507 15673 /2704 10022 20000 39707 40083 52017 60021 92350 333 81/33
AAXX 09004 03520 16672 /2715 10049 21004 39938 40059 51020 69941 92350 333 55/// 20174 81/36
AAXX 09004 03522 15977 /2611 10048 20000 39974 40068 51024 69961 92350 333 8//99
AAXX 09004 03529 15975 /2609 10051 21003 30022 40065 51023 69901 92350 333 81/74
AAXX 09004 03544 15978 /2512 10043 21003 39909 40040 51018 69901 92350 333 55/// 20070 8//99
AAXX 09004 03560 15983 /2517 10046 20005 39935 40040 51020 69941 92350 333 55/// 20127 8//99 90710 91127 91027
AAXX 09004 03604 16681 /2914 10066 20012 30044 40098 52022 60001 92350 333 81/37 85/50 90710 91126
AAXX 09004 03605 16776 /2818 10063 20010 30089 40098 51021 69921 92350 333 83/50 90710 91127
AAXX 09004 03609 16/// /2611 10064 20004 30049 40102 51021 60001 92350
AAXX 09004 03628 15978 /2714 10059 20011 30008 40081 51018 69921 92350 333 55/// 20109 8//99
AAXX 09004 03647 16964 /2714 10034 20003 39803 40060 51018 69961 92350 333 55/// 20078 86/72
AAXX 09004 03658 11680 42207 10049 20014 30000 40070 51023 60021 70361 83501 92350 333 83635 83075
AAXX 09004 03660 15980 /2911 10042 20012 39811 40061 51021 60031 92350 333 8//99 91021
AAXX 09004 03672 16983 /2813 10064 21004 30027 40067 53030 60011 92350 333 81/74
AAXX 09004 03684 15980 /2619 10055 20005 39937 40043 51021 60051 92350 333 8//99 90710 91128
AAXX 09004 03693 16781 /2717 10077 20021 30048 40050 52022 60021 92350 333 81/50 90710 91132 91029
AAXX 09004 03707 17672 /2921 10071 20022 30100 40107 51022 69901 781// 92350 333 83/36 87/46 90710 91129
AAXX 09004 03710 16777 /2920 10037 20009 39672 40096 51021 60011 92350 333 55/// 20066 86/50 90710 91132
AAXX 09004 03743 16981 /2712 10054 20001 39923 40085 53023 60041 92350 333 83/71
AAXX 09004 03749 16980 /2815 10060 20011 39973 40084 53020 60031 92350 333 87/70
AAXX 09004 03761 11775 82618 10062 20008 39932 40077 51024 60031 70262 81507 92350 333 55/// 20091 81650 88269
AAXX 09004 03768 16964 /2813 10067 20014 39992 40072 52023 60031 92350 333 87/70
AAXX 09004 03769 15773 /2507 10065 20033 39994 40076 53029 60031 92350 333 55/// 20073 81/50 88/71
AAXX 09004 03770 16/// ///// 10075 20017 60011 92350
AAXX 09004 03781 15980 /2614 10057 20020 39862 40069 51025 60041 92350 333 55/// 20088 86/70 90710 91127
AAXX 09004 03797 15677 /2917 10078 20039 39996 40056 52035 60041 92350 333 55/// 20118 85/46 85/74 90710 91130
AAXX 09004 03823 17572 /3113 10051 20034 39874 40119 51018 60021 723// 92350 333 55/// 20030 83/27 90710 91126 91026
AAXX 09004 03839 16/// ///// 10067 20023 60011 92350 333 55/// 20114
AAXX 09004 03857 15569 /3028 10091 20035 30035 40099 53021 60021 92350 333 82/29 83/71 90710 91140
AAXX 09004 03862 15974 /2913 10071 20024 30084 40096 53026 60041 92350 333 55/// 20103 87/70 90710 91127
AAXX 09004 03866 16/// /2825 10093 20033 30065 40089 53023 60001 92350 333 90710 91134
AAXX 09004 03872 15672 /2815 10082 20033 30082 40086 53025 60021 92350 333 55/// 20079 83/44 85/69
AAXX 09004 03876 16/// /2910 10076 20043 30082 40084 53026 60021 92350
AAXX 09004 03895 41425 83115 10093 20086 40134 53008 75865 885// 333 88610
AAXX 09004 03002 17456 /3533 10039 20022 39672 49690 53077 60061 762// 92350 333 86/14 84/27 90710 91155 91048
AAXX 09004 03008 16/// /3352 10044 20020 39640 49708 50114 60041 92350 333 90710 91180 91071
AAXX 09004 03010 46/// /3443 10051 20013 49841 51086 333 90710 91161
AAXX 09004 03014 46/// /3438 10051 20010 49744 51107 92350 333 8//// 90710 91169
AAXX 09004 03031 17561 /3026 10021 21024 39582 49907 52065 60091 723// 92350 333 55/// 20076 81/29 87/45 90710 91141 91037
AAXX 09004 03034 17659 /3214 10056 21004 39903 49916 51058 60041 704// 92350 333 82/35 88/45 90710 91133 91024
AAXX 09004 03037 16/// /3421 10057 20001 3//// 4//// 5//// 60011 92350 333 90710 91131
AAXX 09004 03039 46/// /3440 11028 21028 92350 333 90710 91154
AAXX 09004 03041 46/// ///// 11048 21049 92350 333 91000
AAXX 09004 03044 17663 /3227 10032 21022 39775 49874 51074 60071 723// 92350 333 55/// 20052 82/32 87/41 90710 91140 91038
AAXX 09004 03047 16/// /2814 10027 21015 3//// 4//// 5//// 60051 92350 333 55/// 20060
AAXX 09004 03062 15661 /2922 10042 21014 39877 49881 51093 60031 92350 333 55/// 20074 88/46 90710 91133
AAXX 09004 03065 46/// ///// 11053 21058 92350
AAXX 09004 03068 11465 73130 10050 21010 39859 49867 51093 60031 70162 878// 92350 333 81818 87650 90710 91147 91040
AAXX 09004 03072 46/// ///// 11045 21047 92350 333 91000
AAXX 09004 03080 17662 /2820 10031 21011 39685 49854 51086 60051 721// 92350 333 86/31 83/41 85/50 90710 91148 91031
AAXX 09004 03088 17666 /2933 10037 21009 39674 49835 51103 69921 723// 92350 333 55/// 20121 83/30 83/35 90710 91146 91045
AAXX 09004 03094 17620 /3047 10061 20014 39798 49803 51124 60061 782// 92350 333 84/31 85/40 90710 91165 91057
AAXX 09004 03105 15562 /2925 10060 20017 39949 49966 51031 60021 92350 333 84/28 84/67 90710 91140
AAXX 09004 03132 17459 /2828 10037 20021 39969 49982 51040 60021 762// 92350 333 83/16 84/25 85/56 90710 91145 91041
AAXX 09004 03144 15770 /2711 10050 21021 39857 49900 51061 69901 92350 333 55/// 20085 81/50 91021
AAXX 09004 03148 46/// /3128 10015 21041 92350 333 90710 91146
AAXX 09004 03153 17377 /2725 10033 20019 39825 49963 51046 60031 761// 92350 333 55/// 20192 87/08 90710 91149 91035
AAXX 09004 03155 16479 /2717 10028 20018 39638 49935 52048 60021 92350 333 83/15 85/19 90710 91130
AAXX 09004 03158 15982 /2617 10039 20001 39763 49899 53066 60011 92350 333 55/// 20098 8//99 90710 91134
AAXX 09004 03210 16463 /2842 10044 20009 39814 49965 51036 69941 92350 333 85/19 86/29 90710 91159 91056
AAXX 09004 03212 17462 /2816 10033 20019 39876 49975 53035 60021 761// 92350 333 87/12 90710 91137 91031
AAXX 09004 03214 15664 /2729 10065 20006 39973 49991 53032 60001 92350 333 85/34 87/58 90710 91145 91043
AAXX 09004 03220 16480 ///// 10041 20025 39915 49949 52036 60011 92350 333 85/17 86/23
AAXX 09004 03224 17282 /2519 10016 20012 39597 49943 53040 60011 723// 92350 333 87/03 86/11 90710 91133
AAXX 09004 03225 16557 /2717 10032 20000 39657 49963 53024 60011 92350 333 55/// 20073 86/20 83/48 90710 91135 91030
AAXX 09004 03226 17458 /2917 10026 20009 39684 49960 53032 69941 741// 92350 333 85/13 85/20 90710 91139
AAXX 09004 03227 46/// /2846 11015 2//// 92350 333 90710 91166 91060
AAXX 09004 03230 16982 /2809 10025 20003 39669 49925 53049 60031 92350 333 81/65 91019
AAXX 09004 03238 17480 /2622 10030 20010 39747 49920 53041 69921 723// 92350 333 85/13 90710 91140 91034
AAXX 09004 03261 11772 22629 10053 21019 39916 49957 53017 69961 70281 82500 92350 333 82650 90710 91142 91041
AAXX 09004 03265 15669 /2626 10057 21006 39925 49956 53020 69981 92350 333 81/38 90710 91144 91037
AAXX 09004 03266 16975 /2628 10056 21021 39941 49958 52018 60001 92350 333 8//99 90710 91140 91040
AAXX 09004 03275 15971 /2526 10031 21007 39740 49932 53038 60001 92350 333 8//99 90710 91145 91037
AAXX 09004 03281 16/// /2626 10031 21009 69941 92350 333 90710 91140 91040
AAXX 09004 03903 16772 /2612 10037 21007 39973 40031 51021 60011 92350 333 55/// 20124 82/56
AAXX 09004 03904 17775 /2413 10029 21001 39960 40021 52024 60011 723// 92350 333 85/50 90710 91125
AAXX 09004 03907 15/81 /2722 10047 21018 39993 40000 50029 69981 92350 333 55/// 20143 90710 91139
AAXX 09004 03911 16681 /2815 10019 21008 39735 40011 53025 69961 92350 333 83/37 90710 91130
AAXX 09004 03915 16675 /2612 10041 21001 39925 40003 51033 69941 92350 333 83/43 84/62
AAXX 09004 03916 16481 /3208 10026 20013 39796 49987 51034 60051 92350 333 55/// 20143 82/10 85/39 90710 91138
AAXX 09004 03923 15969 /2714 10015 21012 39821 40020 52022 69921 92350 333 8//99 90710 91129
BBXX 42363 09001 99282 70892 46/// /0604 10150 20067 40237 54000 90000 333 91205
BBXX 42364 09001 99291 70881 46/// /0103 10122 20067 40247 53003 90000
BBXX 41046 09001 99238 70683 46/// /0707 10253 20201 40176 51011 92350 22200 00261 10804 20603 300// 40803 70021 333 91208 555 11075 22079 32319 40709 62349 066071 067073 069072 066074 070070 066073 80708 92252
BBXX 44011 09001 99411 70666 46/// /3010 10080 20016 40216 51055 92350 22200 00102 11111 20506 3//// 41109 70055 333 91212 555 11102 22107 32251 41216 62349 297096 306094 301106 304106 309109 303113
BBXX 41041 09001 99142 70460 46/// /1006 1//// 40143 53021 92350 22200 00267 333 91207 555 11065 22069
AAXX 09004 43533 11458 60907 10275 20220 30070 40073 60002 70522 82208 333 59006 70000 82818 85277
AAXX 09004 43555 11459 70913 10280 20249 30072 40075 60002 70522 82202 333 59003 79999 82818 87076
AAXX 09004 43577 11460 72005 10263 20240 30080 40082 60282 70282 8227/ 333 58003 70028 82818 87362
AAXX 09004 43588 11456 82508 10246 20245 30070 40072 60132 78086 8492/ 333 59005 70049 83816 81917 88460
AAXX 09004 43599 11462 62712 10258 20239 30075 40077 69962 70182 82262 333 59006 70016 82818 84362
BBXX C6XC2 09004 99282 11286 41897 83432 10130 20073 40220 54/// 7//22 8867/ 22244 00240 20412 303// 40208 5//// 6//// 80100 ICE /////
BBXX PHEO 09000 99336 50721 41/97 ///// 10160 20160 40130 54000 703// 8//// 22254 00170 20501 320// 41205 5//// 80160
BBXX WJBJ 09004 99210 70690 41398 61215 10260 2024/ 40145 52011 7//22 862// 22234 00272 20302 312// 40404 5//// 6//// 80245 ICE /////
BBXX 9HXC9 09004 99202 70719 41598 10915 10271 20192 40120 54000 7//00 81700 22264 00280 2//// 3//// 4//// 5//// 6//// 80217 ICE /////
BBXX KAOU 09004 99061 10938 43/// /1007 10279 20239 40084 5//// 7//// 8//// 222// 04306 2//// 3//// 4//// 5//// 6//// 8//// ICE /////
BBXX SCKB 09003 99512 70104 41595 73228 10080 20038 40120 54000 7//11 8792/ 22224 00100 21209 331// 40908 5//// 6//// 80060 ICE /////
BBXX C6FV8 09003 99134 70600 41598 40512 10270 2//// 40040 51010 7//22 84163 22273 04290 20304 3//// 40304 50202 6//// 8//// ICE /////
BBXX 3ECJ7 09004 99152 10698 41298 62913 10280 20224 40100 54/// 70222 8319/ 22274 00260 20502 332// 4//// 5//// 6//// 80240 ICE /////
BBXX WDB9951 09004 99468 70499 41096 71938 10080 20080 40020 57060 75552 8//// 22264 00040 20605 321// 40806 5//// 6//// 80080 ICE /////
BBXX NWS0029 09004 99187 70275 43/// /0509 10233 20187 40160 5//// 7//// 8//// 222// 04252 2//// 3//// 4//// 5//// 6//// 8//// ICE /////
BBXX C6VV8 09003 99172 70624 41/// /0316 10220 2019/ 4//// 5//// 7//// 8//// 222// 0//// 2//// 3//// 4//// 5//// 6//// 80200 ICE /////
BBXX PDGS 09004 99040 50814 41998 01922 10185 40120 52020 70200 80000 22284 00220 2//// 301// 40501
BBXX PCHM 09004 99469 31680 41598 31511 10130 20074 40254 52021 70322 82444 22200 00130 20000 30000 80100
BBXX ONGI 09004 99260 30019 41698 71424 10170 20119 40230 54000 7//21 862// 22273 00200 20607 314// 40403 5//// 6//// 80140 ICE /////
BBXX WDE3569 09004 99450 70831 43/// 12523 11022 2//// 40149 5//// 7//// 8//// 22243 00056 20402 3//// 4//// 5//// 6//// 8//// ICE /////
BBXX WE4805 09004 99455 70866 41/98 33022 11033 2//// 40183 5//// 70200 8//// 22213 00039 2//02 3//// 4//// 5//// 6//// 8//// ICE /////
BBXX A8TG2 09003 99314 71386 41/// /0613 10180 20106 40220 53/// 7//// 8//// 22224 20802 307// 41003 5//// 80140
BBXX C6YA5 09004 99454 50737 41998 12316 10147 2//// 40130 57030 70200 80//1 22264 00130 2//// 399// 4//// 5//// 6//// 8//// ICE /////
BBXX ZCDD6 09003 99438 10138 41298 31723 10130 20130 40233 51015 70222 8/7// 22235 00160 20201 3//// 4//// 5//// 80130
BBXX WXJ63 09003 99611 71464 41/96 801// 11018 21024 40097 57/// 771// 8//// 222// 00056 2//// 3//// 4//// 5//// 6//// 8//// ICE /////
AAXX 09004 78255 12559 40000 10232 20213 30012 40161 52020 60202 83200 333 10269 83820
AAXX 09004 78317 NIL
AAXX 09004 78318 NIL
AAXX 09004 78325 NIL
AAXX 09004 78333 NIL
AAXX 09004 78338 NIL
AAXX 09004 78348 NIL
AAXX 09004 78349 NIL
AAXX 09004 78353 NIL
AAXX 09004 78360 NIL
AAXX 09004 78367 NIL
AAXX 09004 78369 NIL
AAXX 09004 68032 42560 81707 10205 20199 48482 58018 8597/
AAXX 09004 68054 41360 81003 10193 20185 48527 58003 76092 8357/
AAXX 09004 68240 41460 80511 10197 20186 48483 50001 79596 82980
AAXX 09004 68328 42960 12402 10198 20074 48497 57011 80003
BBXX PHKL 09001 99021 11020 41698 40305 10285 20230 40089 53012 70211 8233/ 22274 00295 20101 3//// 4//// 5//// 80245
BBXX VQNW6 09004 99052 31013 41598 33410 10290 20240 40086 52020 70211 822/2 22273 00296 2//// 327// 40905 5//// 80255
BBXX A8RV7 09004 99293 31536 41598 51917 10225 20164 40125 50025 70311 84166 22244 21005 31009 41204 50402 80185
AAXX 09001 26554 42460 81201 10001 21023 39987 40154 51001 886// 333 88715 555 1/000
AAXX 09001 26666 41960 80301 11010 21036 39934 40154 52003 70272 83036 555 14102
AAXX 09001 26850 41357 80000 11005 21020 39869 40147 52011 77172 885// 333 88709 555 1/100
AAXX 09001 26863 41359 81001 11009 21031 39905 40146 52009 71072 886// 333 88709 555 1/102
AAXX 09001 26941 41458 83102 11002 21014 39919 40161 52013 71022 887// 555 1/100
AAXX 09001 26951 41356 83403 11005 21011 39947 40151 52016 71022 886// 333 88709 555 1/101
AAXX 09001 33008 41326 82401 10012 20002 39992 40174 52005 71022 886// 333 88707 555 11001
AAXX 09001 33019 41457 82402 10002 21009 39987 40166 52017 71022 886// 333 86710 555 1/000
AAXX 09001 33036 41256 73101 11006 21018 39909 40145 52026 71084 875// 333 87703 93706 555 1/101
AAXX 09001 33041 41227 81001 11004 21010 39980 40139 52014 77372 8872/ 333 88705 555 1/101
BBXX UCAD 09001 99702 10163 41/97 90810 10020 40010 52005 70222 88/// 22213 00080 20404
BBXX DHDE 09003 99455 70302 41297 72519 10145 20145 40200 54000 75511 8671/ 22264 00140 20605 80145
BBXX DHEE 09003 99484 70206 41397 80110 10095 20021 40220 51020 70222 87776 22264 00130 21406 327// 41407
BBXX PDHW 09003 99499 70177 41498 73120 10080 20013 40200 52020 70311 8547/ 22223 00120 20804 80050
BBXX PHAM 09004 99503 70011 41597 43034 10110 20097 40100 52030 7//// 8/200 22262 21010 80103 90127
BBXX PBEN 09003 99376 10077 41/98 19904 10160 20127 40270 54000 7//22 81100 22223 20501 399// 41002 80140
BBXX A8NQ5 09003 99506 70244 41298 63411 10080 21015 40205 52005 70222 8/7// 22224 29901 332// 41004 80040
BBXX 51000 09001 99235 71541 46/// /0606 10225 40182 57022 92350 22200 00236 11705 20501 333// 41705 70027 333 91207 555 11059 22062 32308 40708 62349 064056 060060 063058 064057 066060 064054
BBXX 51003 09001 99193 71606 46/// /0508 10246 40147 58022 92350 22200 00257 11705 20503 3//// 41704 70026 333 91210 555 11080 22084 32311 40510 62349 050075 053079 048083 047084 054079 060074
BBXX 44008 09001 99405 70692 46/// /3110 10082 20011 40235 51044 92350 22200 00126 11008 20805 319// 41006 70039 333 91212 555 11101 22106 32330 42913 62349 307095 301096 303090 300090 302086 314088
BBXX 44022 09001 99409 70737 46/// ///04 10059 21025 90000 22200 00104 333 91205 555 11036 22041
BBXX 46083 09001 99582 71380 46/// /2011 10062 20060 40166 58015 92350 22200 00066 10807 20605 300// 40804 70033 333 91214 555 11117 22125 32330 42114 62349 200108 202107 201112 203110 205102 207099 82012 92330
BBXX 46089 09001 99459 71258 46/// /0209 10078 20042 40278 56011 92350 22200 00098 12104 20503 302// 42102 70018 333 91211 555 11093 22098 32325 43612 62349 021087 018087 015088 013088 021090 016083
BBXX 46042 09001 99368 71224 46/// /3105 10114 40191 56009 92350 22200 00123 11402 20401 331// 41402 70009 333 91206 555 11048 22050 32348 43106 62349 315047 315045 316042 313041 319041 326045
AAXX 09004 43533 11458 60907 10275 20220 30070 40073 60002 70522 82208 333 59006 70000 82818 85277
AAXX 09004 43555 11459 70913 10280 20249 30072 40075 60002 70522 82202 333 59003 79999 82818 87076
AAXX 09004 43577 11460 72005 10263 20240 30080 40082 60282 70282 8227/ 333 58003 70028 82818 87362
AAXX 09004 43588 11456 82508 10246 20245 30070 40072 60132 78086 8492/ 333 59005 70049 83816 81917 88460
AAXX 09004 43599 11462 62712 10258 20239 30075 40077 69962 70182 82262 333 59006 70016 82818 84362
AAXX 09004 91165 NIL
AAXX 09004 91182 NIL
AAXX 09004 91190 NIL
AAXX 09004 91212 NIL
AAXX 09004 91217 NIL
AAXX 09004 91285 NIL
AAXX 09004 91317 NIL
AAXX 09004 91334 12474 80710 10286 20239 30086 40089 50007 60144 82101 333 20239 562/9 59009 70137 555 90900
AAXX 09004 91348 11474 80609 10289 20251 30047 40100 50002 60024 72522 87201 333 20245 561/9 58003 70015 555 90900
AAXX 09004 91356 NIL
AAXX 09004 91366 NIL
AAXX 09004 91369 NIL
AAXX 09004 91371 NIL
AAXX 09004 91376 12474 80510 10303 20249 30080 40083 58007 60074 83878 333 20261 56119 58007 70074 555 90900
AAXX 09004 91408 11474 73611 10289 20251 30051 40089 52014 60184 70282 82271 333 20239 56899 58010 70178 555 90900
AAXX 09004 91413 NIL
AAXX 09004 91425 NIL
AAXX 09004 91434 NIL
AAXX 09004 91765 NIL
AAXX 09004 91222 NIL
AAXX 09004 91245 NIL
AAXX 09004 91323 NIL
AAXX 09004 91339 NIL
AAXX 09004 91343 NIL
AAXX 09004 91353 NIL
AAXX 09004 91442 NIL
AAXX 09004 43533 11458 60907 10275 20220 30070 40073 60002 70522 82208 333 59006 70000 82818 85277
AAXX 09004 43555 11459 70913 10280 20249 30072 40075 60002 70522 82202 333 59003 79999 82818 87076
AAXX 09004 43577 11460 72005 10263 20240 30080 40082 60282 70282 8227/ 333 58003 70028 82818 87362
AAXX 09004 43588 11456 82508 10246 20245 30070 40072 60132 78086 8492/ 333 59005 70049 83816 81917 88460
AAXX 09004 43599 11462 62712 10258 20239 30075 40077 69962 70182 82262 333 59006 70016 82818 84362
BBXX DBCK 09001 99/// ///// 46/// ///// 10068 20067 49938 57018 22220 00081
AAXX 09001 06414 16/// /2707 10099 20074 30026 40058 53001 60031 333 91120 91213
AAXX 09001 06459 16/// /2213 10106 20089 39877 40066 57023 69951 333 91122 91214
AAXX 09001 06494 16/// /2412 10060 20057 39286 40076 58019 60021 333 91121 91213
BBXX DBLK 09001 99449 30000 41497 /2509 10053 20026 40235 57004 7//// 22242 04069
BBXX ONGI 09004 99260 30019 41698 71424 10170 20119 40230 54000 7//21 862// 22273 00200 20607 314// 40403 5//// 6//// 80140 ICE /////
BBXX BATFR08 09004 99464 30519 46/// /1522 10044 20034 40142 52140 22261 00060
BBXX A8QJ7 09004 99057 50315 41/98 /3511 10270 20226 40121 50007 70200 8/2// 22242 06260 2//// 3//// 4//// 5//// 80240
BBXX C6VF5 09004 99138 10513 439// 00919 10240 2016/ 40130 5//// 7//// 80000 22224 00260 20305 3//// 4//// 5//// 6//// 80190 ICE /////
BBXX 3ECJ7 09004 99152 10698 41298 62913 10280 20224 40100 54/// 70222 8319/ 22274 00260 20502 332// 4//// 5//// 6//// 80240 ICE /////
BBXX A8RW3 09003 99343 30163 41697 51322 10170 20079 40205 58005 70300 84549 22264 04180 21005 322// 41407 80120
BBXX DBKV 09001 99270 70161 46/// /0509 10212 20141 40201 57009 22253 00206
BBXX DBBT 09001 99420 30092 46/// /2913 10106 20080 40214 57024 /2272 00128
BBXX WCX8883 09004 99345 11390 41498 73414 10120 2008/ 40104 52014 7//22 8779/ 22264 00200 20603 32934 40601 5//// 6//// 80100 ICE /////
BBXX C6SI6 09004 99508 11625 46/// /3209 10014 21007 49776 56016 7//// 8//// 22253 0//// 2////
BBXX SHIP 09004 99230 11601 41597 10906 10250 2024/ 40210 52030 70100 8148/ 22213 00270 20403 300// 41003 5//// 6//// 80240 ICE /////
BBXX 3FZK3 09004 99426 11451 46/// /3418 11014 21111 40113 50000 7//// 8//// 22213 0//// 2////
BBXX BATFR56 09004 99054 10940 44497 50408 10269 20230 40096 52009 70222 8/54/ 22252 00299 303// 41004 5////
BBXX A8EH3 09003 99409 11394 41/97 70815 10070 20026 40130 56010 77211 8672/ 22214 04150 20803 80050
BBXX DAJC 09003 99302 11746 41598 30911 10240 20211 40190 54000 70200 82141 22224 04210 20704 333// 41002 5//// 80220
BBXX A8VL5 09004 99159 11127 41397 80325 10230 20215 40250 55000 70322 887// 22244 00220 20506 30000 80220
BBXX 46070 09001 99551 11753 46/// /1409 10024 21005 49994 58034 92350 22200 00046 11206 20504 3//// 41205 70030 333 91210 555 11093 22098 32308 41614 62349 141089 137090 143094 145100 146112 147097 81513 92308
BBXX 61002 09004 99421 10047 46/// ///08 10148 2//// 40252 57008 22200 00156 10502 70008
BBXX UFTA 09001 99851 71231 41696 61602 11292 21322 40057 52017 77172 83530 333 21292
BBXX A8PQ5 09003 99247 71089 41298 62409 10200 2017/ 40160 5/000 7//22 86978 222// 00190 20401 32424 40401 50401 6//// 80180 ICE /////
BBXX PDXQ 09003 99248 70871 41397 80515 10206 20140 54000 70222 8577/ 22223 04253 20602 80165
BBXX WNBE 09004 99219 71593 41/// /0516 10225 2//// 40170 54/// 7//22 8//// 222// 0//// 2//// 3//// 4//// 5//// 6//// 8//// ICE /////
BBXX C6YA7 09004 99285 71740 41198 61114 10220 2021/ 40210 54000 70121 8614/ 22273 0//// 20201 330// 41006 5//// 6//// 80210 ICE /////
BBXX A8TG2 09003 99314 71386 41/// /0613 10180 20106 40220 53/// 7//// 8//// 22224 20802 307// 41003 5//// 80140
BBXX 46238 09001 99334 71195 46/// ///// 1//// 92350 22200 00150 10602 20602 326// 41301 70012
BBXX 46239 09001 99363 71221 46/// ///// 1//// 92351 22200 00127 11202 21001 330// 41201 70010
BBXX 44099 09001 99369 70757 46/// ///// 1//// 92352 22200 00135 10902 20902 310// 41101 70009
BBXX 41110 09001 99341 70777 46/// ///// 1//// 92351 22200 00156 11101 21001 70007
BBXX 41112 09001 99307 70813 46/// ///// 1//// 92351 22200 00169 10902 20902 312// 41101 70012
BBXX 42099 09001 99273 70842 46/// ///// 1//// 92357 22200 00242 10703 20703 70016
BBXX 44100 09001 99363 70756 46/// ///// 1//// 92352 22200 00145 11003 21003 308// 41101 70013
BBXX 41113 09001 99284 70805 46/// ///// 1//// 92351 22200 00216 10901 20901 70007
BBXX 46224 09001 99332 71175 46/// ///// 1//// 92336 22200 00154 11301 20601 320// 41301 70006
BBXX 46214 09001 99379 71235 46/// ///// 1//// 92357 22200 00114 11003 21003 331// 41102 70016
BBXX 46219 09001 99332 71199 46/// ///// 1//// 92358 22200 00136 11303 20703 324// 41301 70017
BBXX 46218 09001 99345 71208 46/// ///// 1//// 90002 22200 00141 11303 20602 329// 41302 70014
BBXX VCSZ 09004 99467 70577 46/// /2635 10057 20056 40000 51119 7//// 8//// 22233 0//// 2////
BBXX VOKJ 09004 99455 70735 46/// /1907 10010 21056 40159 52014 7//// 8//// 22200 0//// 2////
BBXX CGDT 09004 99490 70669 46/// /2817 11028 21086 40075 53084 7//// 8//// 22200 0//// 2////
BBXX CG2965 09004 99487 71235 46/// /0304 10054 20013 40307 56010 7//// 8//// 22200 0//// 2////
BBXX VCRG 09004 99474 70619 46/// /2528 10020 21023 40029 53078 7//// 8//// 22200 0//// 2////
BBXX VOFG 09004 99456 70614 46/// /2722 10037 21003 40077 53094 7//// 8//// 22200 0//// 2////
BBXX CGJK 09004 99484 71234 46/// /0105 10056 20011 40307 55006 7//// 8//// 22200 0//// 2////
BBXX VCLM 09004 99621 70747 46/// /1915 11128 21172 49946 53003 7//// 8//// 22200 0//// 2////
BBXX CGCC 09004 99468 70712 46/// /2006 11024 21086 40159 53037 7//// 8//// 22200 0//// 2////
BBXX CGDG 09004 99468 70528 46/// /2339 10069 20105 49990 53027 7//// 8//// 22212 00048 2////
BBXX VRYO3 09004 99477 70699 46/// /2224 11022 21014 40138 51023 7//// 8//// 22215 00033 2////
BBXX CG2958 09004 99487 71235 46/// /0404 10053 20016 40315 56010 7//// 8//// 22200 0//// 2////
BBXX VXKF 09004 99476 70591 46/// /2725 10036 21006 49967 53101 7//// 8//// 22200 0//// 2////
BBXX CGTF 09004 99476 70527 46/// /1424 10094 20060 49942 55019 7//// 8//// 22200 0//// 2////
BBXX CGBR 09004 99538 71299 46/// /3333 10029 20027 40319 58002 7//// 8//// 22232 00074 2////
BBXX VAAP 09004 99447 70636 46/// /2719 10026 21036 40130 51083 7//// 8//// 22200 0//// 2////
BBXX CGJV 09004 99447 70636 46/// /2818 10028 21034 40141 51077 7//// 8//// 22200 0//// 2////
BBXX 46215 09001 99352 71209 46/// ///// 1//// 92338 22200 00151 11302 20602 327// 41301 70010
BBXX 46236 09001 99368 71219 46/// ///// 1//// 92350 22200 00118 11202 21001 329// 41201 70008
BBXX C6YA5 09004 99454 50737 41998 12316 10147 2//// 40130 57030 70200 80//1 22264 00130 2//// 399// 4//// 5//// 6//// 8//// ICE /////
BBXX PDGS 09004 99040 50814 41998 01922 10185 40120 52020 70200 80000 22284 00220 2//// 301// 40501
BBXX WBP3210 09004 99551 50649 43/// /0711 10080 2//// 40078 5//// 7//// 8//// 22222 00068 2//// 3//// 4//// 5//// 6//// ICE /////
BBXX A8VL7 09003 99003 50389 41/98 31120 10265 20230 40090 51009 70211 8///5 22234 04270 20501 399// 40602 80240
BBXX 32012 09001 99197 50856 46/// ///// 1//// 92350 22200 11405 70024
BBXX 46225 09001 99329 71174 46/// ///// 1//// 92344 22200 00160 11301 20601 322// 41301 70005
BBXX 46229 09001 99438 71246 46/// ///// 1//// 92351 22200 00106 10704 20704 329// 42202 70022
BBXX 46243 09001 99462 71241 46/// ///// 1//// 92359 22200 00097 12203 21002 326// 42201 70013
BBXX 46213 09001 99403 71247 46/// ///// 1//// 92354 22200 00105 10804 20804 329// 42502 70022
BBXX 46232 09001 99325 71174 46/// ///// 1//// 92338 22200 00146 11302 20601 323// 41301 70008
BBXX 46247 09001 99378 71228 46/// ///// 1//// 92351 22200 00120 11102 21001 328// 41101 70010
BBXX SHIP 09003 99339 71623 41498 40718 10180 20148 40240 56010 70222 844// 22264 00194 20404 329// 41308 80160
BBXX 3FBC9 09004 99302 71724 41798 60916 10250 40205 53010 70322 85364 9//// 22223 00240 20302 331// 40404 5//// 6//// 80210
BBXX 44097 09001 99410 70711 46/// ///// 1//// 90002 22200 00131 11105 21004 322// 41103 70025
BBXX 44172 09001 99445 70634 46/// ///// 1//// 90001 22200 00076 11208 21005 321// 41206 70040
BBXX 51101 09001 99243 71621 46/// /0605 10236 20168 40193 58019 92350 22200 00246 11606 20401 333// 41606 70028 333 91206 555 11053 22055 32326 40607 62349 059050 061053 065053 077054 077049 069053
BBXX 46061 09001 99602 71468 46/// /0206 10042 40088 57009 92350 22200 00062 10803 20401 300// 40803 70017 333 91207 555 11058 22060 32254 40307 62349 018055 016054 018051 012048 015051 020055
BBXX VAAZ 09004 99511 70498 46/// /1533 10054 20051 49873 58111 7//// 8//// 22231 0//// 2////
BBXX CZ9742 09004 99506 70969 46/// /2406 11144 21210 40174 53011 7//// 8//// 22200 0//// 2////
BBXX VOPP 09004 99456 70735 46/// /1814 10014 21047 4//// 5//// 7//// 8//// 22200 0//// 2////
BBXX CGDX 09004 99468 70712 46/// /2402 11022 21074 40159 53037 7//// 8//// 22200 0//// 2////
BBXX CGBY 09004 99487 71235 46/// /0203 10045 20004 40306 56009 7//// 8//// 22200 0//// 2////
BBXX CGBN 09004 99447 70636 46/// /2718 10029 21037 40126 51082 7//// 8//// 22200 0//// 2////
BBXX CGSB 09004 99468 70712 46/// /2103 11023 21079 40160 53037 7//// 8//// 22200 0//// 2////
BBXX CGDR 09004 99498 71270 46/// /1602 10066 20031 40297 56010 7//// 8//// 22222 00121 2////
BBXX VCWL 09004 99468 70712 46/// /2301 11016 21080 40159 53039 7//// 8//// 22200 0//// 2////
BBXX 41009 09001 99285 70802 46/// /0406 10210 20143 40212 53012 92350 22200 00248 10803 20402 300// 40803 70017 333 91207 555 11061 22063
BBXX 41010 09001 99289 70785 46/// /0305 10204 40211 52015 92350 22200 00241 10803 20401 300// 40803 70016 333 91206 555 11054 22056
BBXX 42057 09001 99168 70815 46/// /0307 10265 20217 40130 53012 92350 22200 00280 10602 20502 3//// 40602 70012 333 91208 555 11065 22068 32252 40308 62349 031064 033063 033063 029063 027065 026065 80307 92345
BBXX 44013 09001 99423 70707 46/// /2810 10058 21024 40222 52046 92350 22200 00099 10402 20402 70009 333 91211 555 11104 22109 32250 42712 62349 277098 275096 276092 277089 278090 271088
BBXX 44007 09001 99435 70701 46/// /2609 10047 21045 40202 51050 92350 22200 00088 11202 20401 3//// 41201 70009 333 91211 555 11093 22097 32325 42712 62349 263087 267093 273094 274086 274085 277079
BBXX 46026 09001 99378 71228 46/// /3104 10108 40199 56007 92350 22200 00121 11402 327// 41402 70009 333 91205 555 11045 22047 32319 42705 62349 302043 273046 271045 272041 274038 280045
BBXX 46041 09001 99474 71247 46/// /0201 10058 40285 57007 92350 22200 00095 12403 20401 3//// 42403 70015 333 91203 555 11014 22015 32317 43303 62349 015013 351017 341018 346014 326014 002011
BBXX 46035 09001 99571 71778 46/// /2409 1//// 40068 51015 92350 22200 11108 20604 300// 41107 70042 333 91210 555 11085 22091 32300 42713 62349 238084 240091 241091 242092 245103 260104 82712 92253
BBXX 46077 09001 99579 71543 46/// /2006 10048 20037 40068 58008 92350 22200 00043 10702 20502 3//// 40702 70012 333 91208 555 11063 22068 32312 42009 62349 195057 197064 197066 200073 194071 186069 82009 92312
BBXX 46082 09001 99597 71434 46/// ///// 10055 20055 40099 57011 92350 22200 00062 10806 70028
BBXX 46072 09001 99517 71722 46/// /2308 10045 21002 40164 51004 92350 22200 00055 11209 20604 3//// 41208 70046 333 91209 555 11082 22086 32333 42310 62349 234076 234074 246069 248066 248066 250064 82408 92346
BBXX 46001 09001 99563 71480 46/// /2609 10050 40130 53008 92350 22200 00052 11107 20603 300// 41106 70036 333 91211 555 11091 22097 32336 42511 62349 259085 259092 260088 260086 259082 257079
BBXX 42039 09001 99288 70860 46/// /0304 10127 40233 54000 92350 22200 00233 333 91206 555 11042 22043
BBXX BATEU01 09004 99474 70357 46/// /2008 10137 20105 40194 58006 22264 00129
BBXX BATFR14 09004 99313 70388 44297 21018 10219 20189 40227 70200 82102 22254 00217 20502
BBXX C6VV8 09003 99172 70624 41/// /0316 10220 2019/ 4//// 5//// 7//// 8//// 222// 0//// 2//// 3//// 4//// 5//// 6//// 80200 ICE /////
BBXX MCUV3 09003 99433 70483 41297 82125 10115 20093 40175 57008 70222 8/7// 22223 00106 20403 321// 40203 5//// 80104
BBXX C6FV8 09003 99134 70600 41598 40512 10270 2//// 40040 51010 7//22 84163 22273 04290 20304 3//// 40304 50202 6//// 8//// ICE /////
BBXX WDB9951 09004 99468 70499 41096 71938 10080 20080 40020 57060 75552 8//// 22264 00040 20605 321// 40806 5//// 6//// 80080 ICE /////
BBXX OUJI2 09004 99390 71254 41/// 70214 10100 2008/ 40330 5//// 7//22 8747/ 22211 00120 20201 336// 40502 5//// 6//// 80090 ICE /////
BBXX BAREU00 09004 99369 70757 46/// ///// 40271 52025 22253
BBXX DFWV2 09004 99261 71245 41/98 80215 10170 20100 40190 54000 70322 8/7// 22263 04180 2//02 3//// 4//// 5//// 80130
BBXX DCSL2 09004 99323 71598 41598 30315 10190 20142 40235 57010 70111 8310/ 22265 00210 20202 333// 40508 80160
BBXX C6JD7 09003 99300 71167 41998 73411 10160 20114 40172 56010 70222 80004 22243 20601 30000 80135
BBXX BAREU04 09004 99492 70462 46/// ///// 40048 57032 22214
BBXX 41013 09001 99334 70777 46/// /0506 10137 20065 40256 53020 92350 22200 00226 11002 20501 311// 41002 70012 333 91208 555 11058 22060 32252 40309 62349 044055 042058 042055 061058 058060 046060
BBXX 44020 09001 99414 70702 46/// /2910 10062 21010 40232 53049 92350 22200 00102 333 91213 555 11110 22118 32329 42613 62349 281103 260100 262090 261096 262098 262099
BBXX 44040 09001 99410 70736 46/// /3205 10061 21019 92345 22200 1//00 70002 333 91207 555 11067 22082
BBXX 44027 09001 99443 70673 46/// /2810 10040 21039 40172 51054 92350 22200 00092 11106 20705 3//// 41104 70031 333 91213 555 11105 22110 32321 42919 62349 280099 292107 289111 281117 277118 279121
BBXX 44065 09001 99404 70737 46/// /2708 10072 21007 40262 51045 92350 22200 00117 11102 20301 315// 41101 70010 333 91210 555 11089 22092 32316 42611 62349 268085 274082 269082 272085 273089 274084 82809 92304
BBXX 44009 09001 99385 70747 46/// /3206 10070 40278 51016 92350 22200 00127 10802 20401 300// 40801 70010 333 91208 555 11065 22067 32252 43109 62349 321061 323063 321068 319064 318061 313067
BBXX 46105 09001 99590 71522 46/// ///// 1//// 92350 22200 10902 70012
BBXX 46028 09001 99357 71219 46/// /3106 10115 40188 56005 92350 22200 00132 11402 20502 331// 41401 70011 333 91207 555 11062 22065 32258 43108 62349 307059 313063 311062 310060 312066 310066
BBXX 44018 09001 99421 70696 46/// /2910 10066 20033 40221 53043 92350 22200 00097 11105 20704 3//// 41103 70025 333 91212 555 11104 22109 32306 43014 62349 296096 303096 302101 295109 293116 284091
BBXX 46054 09001 99342 71204 46/// /3109 10126 40180 56007 92350 22200 00140 10703 20703 300// 41201 70014 333 91211 555 11100 22106 32334 43111 62349 312093 310094 308094 310095 313090 311091
BBXX 46029 09001 99461 71245 46/// /0109 10065 20035 40268 56011 92350 22200 00084 11103 20502 328// 41102 70015 333 91210 555 11097 22102 32250 40111 62349 012091 012091 015094 017090 013094 014090
BBXX 46087 09001 99485 71247 46/// /1107 10066 20025 40296 56010 92350 22200 00082 11102 20501 325// 41102 70010 333 91208 555 11069 22072 32348 41108 62349 111066 112063 114059 115056 115053 120049
BBXX 46025 09001 99337 71191 46/// /3003 10146 40179 56007 92350 22200 00160 10501 20401 328// 40501 70007 333 91203 555 11029 22030 32253 43004 62349 301028 298027 293025 292029 292028 301029
BBXX 41004 09001 99325 70791 46/// /0106 10137 20076 40255 51015 92350 22200 00214 10902 20501 3//// 40902 70011 333 91208 555 11057 22059 32340 43508 62349 012057 004057 005055 003055 005051 006050
BBXX 44025 09001 99402 70732 46/// /2708 10078 21004 40259 51045 92350 22200 00121 11103 20402 316// 41102 70013 333 91210 555 11079 22082 32305 42610 62349 266075 272078 260079 268077 268075 265075
BBXX 44014 09001 99366 70748 46/// /3608 1//// 40263 51024 92350 22200 00155 10804 20603 304// 40802 70018 333 91210 555 11078 22078 32310 43510 62349 000077 359080 352083 356081 355077 355073
BBXX 41008 09001 99314 70809 46/// /0308 10129 20091 40245 52007 92350 22200 00173 10902 20602 300// 40901 70011 333 91210 555 11083 22087 32347 40310 62349 025079 023074 024070 017071 015074 011076
BBXX 46012 09001 99374 71229 46/// /3206 10110 40199 56005 92350 22200 00124 11102 20501 329// 41102 70011 333 91207 555 11058 22060 32344 43207 62349 321054 325053 323051 322046 324042 327042
BBXX 46013 09001 99382 71233 46/// /3103 10103 40203 56005 92350 22200 00111 11103 3//// 41103 70014 333 91204 555 11035 22037 32257 43205 62349 314034 313034 314036 314037 314037 317037
BBXX 46069 09001 99337 71202 46/// /3209 10125 40181 56009 92350 22200 00133 10703 20703 331// 41501 70015 333 91210 555 11097 22103 32341 43211 62349 320092 322092 319092 322089 322090 324091
BBXX 46027 09001 99419 71244 46/// /3402 10087 40208 56010 92350 22200 00097 10804 20301 332// 40804 70021 333 91203 555 11021 22021 32306 43303 62349 338020 337021 330021 333023 327022 330022
BBXX 46088 09001 99483 71232 46/// /3405 10050 40301 92350 22200 00082 1//00 70001 333 91207 555 11052 22054 32342 43407 62349 344051 347040 357035 011029 019023 031027
BBXX 46050 09001 99442 71246 46/// /0108 10080 40250 58014 92350 22200 00103 10704 20703 332// 40902 70019 333 91209 555 11087 22091 32328 40110 62349 007082 008081 008083 007082 007078 011077
BBXX 46053 09001 99342 71198 46/// /2605 10143 40174 56007 92350 22200 00148 333 91205 555 11050 22052 32250 42605 62349 262047 263044 269044 277041 278042 284039
BBXX 46014 09001 99394 71240 46/// /3401 10104 40209 56008 92350 22200 00112 10903 20401 3//// 40903 70016 333 91201 555 11007 22007 32256 43403 62349 339007 348014 347019 349018 353021 344024
BBXX 46011 09001 99350 71210 46/// /3207 10119 40193 54000 92350 22200 00137 11302 20602 330// 41301 70011 333 91208 555 11068 22072 32344 43208 62349 321065 319065 319064 316062 319063 313066
AAXX 09004 60645 36/// /0000 10180 21015
BBXX 46086 09001 99325 71180 46/// /3303 10147 40173 56008 92350 22200 00160 10602 20401 329// 40602 70009 333 91204 555 11035 22036 32250 43404 62349 327035 327035 324034 324032 332035 331037
BBXX 46047 09001 99324 71195 46/// /3207 10132 40185 55004 92350 22200 00137 11503 20502 329// 41502 70016 333 91209 555 11074 22079 32309 43309 62349 322071 327077 329073 329076 330078 326074
BBXX 46005 09001 99461 71310 46/// ///06 10078 40317 56007 92350 22200 00102 12104 20502 3//// 42104 70020 333 91207 555 11060 22062
BBXX 42056 09001 99198 70849 46/// /0608 10258 20204 40155 52007 92350 22200 00274 10604 20603 334// 41002 70019 333 91210 555 11086 22090 32328 40510 62349 062080 061082 056081 059077 062078 061081 80609 92328
BBXX 46059 09001 99380 71300 46/// /0308 10122 40243 56011 92350 22200 00149 10905 20603 3//// 40904 70027 333 91210 555 11085 22089 32333 40311 62349 030078 027075 033080 035082 030081 028078
BBXX 42019 09001 99279 70954 46/// /1704 10179 20089 40209 92350 22200 10401 20401 306// 40401 70005 333 91205 555 11037 22039 32252 42806 62349 180034 286033 284036 283038 284044 283045
BBXX 42055 09001 99222 70940 46/// /0706 10215 20135 40186 56005 92350 22200 00250 10703 20502 301// 40702 70014 333 91207 555 11060 22062 32257 40609 62349 068059 060061 058062 054061 058062 057062 80607 92339
BBXX 44005 09001 99432 70691 46/// /2908 10058 21058 40201 53057 92350 22200 00092 10706 20705 3//// 41103 70028 333 91211 555 11083 22087 32303 43015 62349 295081 297093 305112 306116 302124 300123
BBXX 42040 09001 99292 70882 46/// /3504 10110 40242 52004 92350 22200 00224 10601 20401 310// 40601 70005 333 91205 555 11036 22037 32312 40106 62349 350036 020031 019032 002035 001039 007033
BBXX 42003 09001 99260 70856 46/// /0108 1//// 92350 22200 10703 20602 334// 40702 70013 333 91209 555 11080 22085 32325 40210 62349 011073 021076 031075 024072 024065 018069 80309 92325
BBXX 41012 09001 99300 70805 46/// /0109 10179 40220 53010 92350 22200 00240 333 91211 555 11094 22098 32302 40212 62349 011090 012089 010089 013093 013089 013089
BBXX 46080 09001 99580 71500 46/// /2409 10053 20049 40093 54000 92350 22200 00054 10905 20704 3//// 40904 70027 333 91211 555 11093 22099 32252 42212 62349 234087 228089 223081 225077 222085 224092 82210 92252
BBXX 42035 09001 99292 70944 46/// /1007 10122 20092 40229 56007 92350 22200 00164 10501 20501 70007 333 91208 555 11068 22071 32256 40909 62349 095065 096064 095067 091072 090068 094070
BBXX 42058 09001 99149 70749 46/// /0706 10274 20228 40106 53008 92350 22200 00279 10502 20502 305// 40801 70010 333 91207 555 11065 22068 32331 40709 62349 074061 075074 076074 081067 082069 080073 80808 92332
BBXX 42036 09001 99285 70845 46/// /0307 10137 20082 40225 53004 92350 22200 00223 10502 20502 326// 40801 70011 333 91209 555 11069 22071 32254 40210 62349 034067 030069 031066 026066 021070 019069
BBXX 46075 09001 99539 71608 46/// /2608 10056 20038 40122 51016 92350 22200 00050 11409 20503 300// 41408 70045 333 91210 555 11086 22093 32328 42611 62349 257080 258084 252086 248075 251077 250071 82610 92328
BBXX 42001 09001 99259 70897 46/// /0205 10198 20107 40215 55000 92350 22200 00235 10703 20401 3//// 40702 70013 333 91206 555 11051 22053 32328 40409 62349 023049 036049 018051 014051 019047 021050
BBXX 42060 09001 99163 70635 46/// /0303 10273 20221 40131 53012 92350 22200 00283 11102 20301 300// 41102 70012 333 91204 555 11030 22031 32306 40304 62349 027030 028031 023030 029034 024033 027033 80304 92306
BBXX 62087 09001 99547 10068 46/// /0808 10090 20027 4//// 5//// 22270 00095
BBXX WDE8264 09003 99412 70363 41798 62011 10170 20154 40260 54/// 7//22 86276 22224 00190 20502 315// 41002 5//// 6//// 80160 ICE /////
BBXX WABS 09004 99427 71258 41598 60229 10094 2007/ 40235 53005 7//22 864// 22283 00100 20309 336// 40511 5//// 6//// 80083 ICE /////
BBXX 42002 09001 99258 70937 46/// /1003 10184 20089 40210 55010 92350 22200 00249 10502 20401 303// 40501 70008 333 91204 555 11030 22032 32325 40905 62349 099030 106026 099032 111029 105039 099028
BBXX 42012 09001 99301 70876 46/// /3202 10096 20039 40246 52003 92350 22200 00200 10701 70003 333 91203 555 11017 22018 32257 43104 62349 316016 327015 337016 304019 306017 297022
BBXX 41048 09001 99320 70696 46/// /0507 10211 20178 40209 51020 92350 22200 00230 11004 20502 3//// 41003 70018 333 91208 555 11066 22069 32349 40508 62349 047065 046054 042051 034050 017052 027043 80507 92349
BBXX 41043 09001 99211 70650 46/// /0609 10257 20239 40153 51016 92350 22200 00269 10905 20704 300// 40903 70024 333 91211 555 11091 22096 32338 40612 62349 059088 062091 062084 062088 060085 058084 80610 92338
BBXX 41036 09001 99342 70770 46/// ///// 10112 20034 40267 53024 92350 22200 00171 10902 70011
BBXX 42065 09001 99149 70750 46/// /0807 10273 20231 92350 22200 10602 20602 3//// 40901 70010 333 91209 555 11074 22078 32314 40709 62349 074069 080060 087065 073072 071068 066067 80708 92314
BBXX 41047 09001 99275 70715 46/// /1308 10249 40195 53011 92350 22200 00254 10904 20502 310// 40903 70018 333 91209 555 11075 22079 32327 41309 62349 129075 126075 127075 131070 128068 129070 81308 92328
BBXX 42059 09001 99151 70675 46/// /0707 10276 20238 40121 53008 92350 22200 00282 11102 20601 3//// 41101 70009 333 91208 555 11069 22073 32333 40808 62349 072065 072071 078054 077050 078054 077053 80807 92334
BBXX 44066 09001 99396 70726 46/// /2808 10086 20008 40262 51041 92350 22200 00142 11004 20603 3//// 41003 70021 333 91210 555 11079 22082 32349 42910 62349 281077 286075 282071 286074 290073 287076
BBXX 41044 09001 99217 70587 46/// /0611 10265 20219 40145 51015 92350 22200 00269 10806 20605 300// 40804 70031 333 91214 555 11116 22123 32345 40614 62349 059108 061111 057109 058106 059102 060107 80612 92301
BBXX 42020 09001 99270 70967 46/// /1407 10194 20107 40197 56007 92350 22200 00243 10301 20301 70006 333 91208 555 11069 22072 32339 41309 62349 136065 132063 134062 134061 141059 127062
BBXX 41049 09001 99275 70630 46/// /0808 10236 20181 40206 53011 92350 22200 00249 10904 20602 300// 40903 70020 333 91209 555 11085 22089 32258 40711 62349 077081 077079 070078 070082 071089 069092 80710 92259
BBXX 41001 09001 99347 70727 46/// ///// 10151 20078 40245 53023 92350 22200 00223 11007 70034
BBXX 46078 09001 99561 71526 46/// /2307 10057 20033 40112 54000 92350 333 91208 555 11075 22080 32325 42411 62349 232070 231078 237083 235073 244070 240079 82409 92325
BBXX 46002 09001 99426 71305 46/// ///// 10106 40281 56017 92350 22200 00124 12105 70027
BBXX 46084 09001 99566 71361 46/// /1910 10067 20059 40231 56009 92350 22200 00078 10805 20805 70026 333 91212 555 11108 22114 32301 41813 62349 190102 189102 190097 190099 190105 188103
BBXX 46006 09001 99408 71375 46/// /1006 10115 40298 56011 92350 22200 00127 11906 20502 3//// 41905 70028 333 91208 555 11064 22067 32346 40908 62349 098061 099047 096048 098040 100041 092048
BBXX NWS0022 09004 99416 70714 43/// /2607 10053 21015 40243 5//// 7//// 8//// 222// 04125 2//// 3//// 4//// 5//// 6//// 8//// ICE /////
BBXX LADQ4 09004 99447 70453 41498 62118 10140 2010/ 40180 54000 70321 86527 22224 00100 20802 322// 41003 5//// 6//// 80120
BBXX WJBJ 09004 99210 70690 41398 61215 10260 2024/ 40145 52011 7//22 862// 22234 00272 20302 312// 40404 5//// 6//// 80245 ICE /////
BBXX 9HXC9 09004 99202 70719 41598 10915 10271 20192 40120 54000 7//00 81700 22264 00280 2//// 3//// 4//// 5//// 6//// 80217 ICE /////
BBXX FVNM 09004 99093 71066 46/// /0615 10267 20229 40100 55006 22231 00269
BBXX WDC6698 09004 99099 71426 43/// /3323 10265 20265 40070 5//// 7//// 8//// 222// 04252 2//// 3//// 4//// 5//// 6//// 8//// ICE /////
BBXX ZCBW2 09003 99359 10172 43998 10209 10170 20100 40240 51005 7//// 81000 22263 00190 20403 3//// 4//// 5//// 80130
BBXX WDD3825 09004 99425 70273 43698 32315 10175 2015/ 40258 54000 7//// 8316/ 22254 00170 2//// 3//// 4//// 5//// 6//// 80160 ICE /////
BBXX KABP 09003 99347 10220 43/95 /3013 10160 2013/ 40225 56016 7//// 8//// 22211 0//// 2//// 3//// 4//// 5//// 6//// 80140 ICE /////
BBXX ZCDD6 09003 99438 10138 41298 31723 10130 20130 40233 51015 70222 8/7// 22235 00160 20201 3//// 4//// 5//// 80130
BBXX TFSTD 09004 99664 70234 46/// ///// 22200 10708 70039
BBXX TFGRS 09004 99663 70182 46/// ///// 22200 10808 70038
BBXX TFHFN 09004 99642 70152 46/// ///// 22200 10602 70011
BBXX TFGRV 09004 99638 70225 46/// ///// 22200 10603 70017
BBXX TFSRT 09004 99633 70203 46/// ///// 22200 10704 70022
BBXX TFKGR 09004 99657 70136 46/// ///// 22200 11015 70074
BBXX TFDRN 09004 99658 70212 46/// ///// 22200 10706 70028
BBXX TFBLK 09004 99657 70248 46/// ///// 22200 10809 70043
BBXX TFGSK 09004 99641 70229 46/// ///// 22200 10504 70018
BBXX DBBH 09001 99531 10042 41/97 /2625 10085 20007 49967 52013 7//// 22251 04106
BBXX WDF6832 09003 99330 10285 41498 33325 10180 2011/ 40200 54000 70200 838// 22264 0//// 20505 3//// 4//// 5//// 6//// 80140 ICE /////
BBXX TFNA 09001 99659 70257 41/93 90418 11021 40112 77472 22262 00067
BBXX SCKB 09003 99512 70104 41595 73228 10080 20038 40120 54000 7//11 8792/ 22224 00100 21209 331// 40908 5//// 6//// 80060 ICE /////
BBXX C6JS 09003 99433 70329 41398 62314 10150 2013/ 40240 54000 70311 89/// 22224 20603 3//// 4//// 5//// 80140
BBXX DBBC 09001 99535 10086 46/// /2508 10065 2//// 49948 57018 22220 00063
BBXX DBKR 09001 99541 10121 46/// /1908 10073 20073 49946 57060 22200 00063
BBXX DBBA 09001 99536 10086 46/// +//// 10063 20052 49945 57015 22230 00060
BBXX DBFR 09001 99552 10150 46/// /1919 10044 20043 49950 57083 22250 00069
BBXX DBJM 09001 99542 10080 46/// /2319 10084 20060 49930 52006 22230 00085
BBXX DBEA 09001 99539 10086 46/// /2416 10061 20037 49927 57004 22221 00055
BBXX DBBU 09001 99545 10113 46/// /2015 10071 20071 49921 57052 22200 00075
BBXX CG2350 09004 99433 70798 46/// /2216 10027 21024 40204 53012 7//// 8//// 22200 0//// 2////
BBXX CG2960 09004 99453 70800 46/// /2719 10014 21069 40164 53021 7//// 8//// 22200 0//// 2////
BBXX CGDS 09004 99447 70755 46/// /2416 10028 21048 4//// 5//// 7//// 8//// 22200 0//// 2////
BBXX 45002 09001 99453 70864 46/// /2711 11013 21108 39962 40182 53018 92350 22200 10603 20603 70016 333 91214 555 11114 22121 32314 42715 62349 271109 268105 273105 272118 269112 267108
BBXX 45008 09001 99443 70824 46/// /2514 10028 39959 40177 53014 92350 22200 00066 10605 20605 70023 333 91218 555 11153 22162 62349 252141 248141 245141 246137 247144 247145
BBXX WCX7445 09004 99627 50621 43/// /2820 10008 2//// 49820 5//// 7//// 8//// 22233 01002 2//// 3//// 4//// 5//// 6//// ICE /////
BBXX ONAR 09003 99233 31081 41597 81413 10210 2020/ 40090 54000 78166 8694/ 22263 00240 21105 323// 4//// 5//// 6//// 80200 ICE /////
BBXX PCHM 09004 99469 31680 41598 31511 10130 20074 40254 52021 70322 82444 22200 00130 20000 30000 80100
BBXX SHIP 09003 99274 31540 41498 51814 10230 2019/ 40100 55010 70300 8543/ 22283 00250 20201 31415 40701 50601 6//// 80200 ICE /////
BBXX BATFR47 09004 99255 51313 46/// /0118 10245 20204 40144 56021 222//
BBXX TFBLK 09004 99657 70248 46/// ///// 22200 10809 70043
BBXX TFDRN 09004 99658 70212 46/// ///// 22200 10706 70028
BBXX TFGRS 09004 99663 70182 46/// ///// 22200 10808 70038
BBXX TFGRV 09004 99638 70225 46/// ///// 22200 10603 70017
BBXX TFGSK 09004 99641 70229 46/// ///// 22200 10504 70018
BBXX TFHFN 09004 99642 70152 46/// ///// 22200 10602 70011
BBXX TFKGR 09004 99657 70136 46/// ///// 22200 11015 70074
BBXX TFSRT 09004 99633 70203 46/// ///// 22200 10704 70022
BBXX TFSTD 09004 99664 70234 46/// ///// 22200 10708 70039
BBXX TFBKF 09004 99635 70202 46/// ///// 22200 10602 70012
AAXX 09004 78792 32460 83003 10245 20210 30084 40097 52007 83230 333 027// 10296 20221 30/// 59005 83818 85359
AAXX 09004 78793 11360 72304 10254 20242 30063 40094 52007 69931 72166 8422/ 333 10302 20214 30/// 563// 57862 59002 70003 84810 83460
AAXX 09004 78795 32470 13608 10260 20193 39992 40092 57002 81400 333 10326 20210 30/// 560// 59003 81615
AAXX 09004 68298 16/// /2407 1//// 2//// 39505 4//// 57003 69943 333 1//// 2//// 91010 555 20004 91017
AAXX 09004 78906 11478 71503 10243 20209 30119 40124 60001 87840 333 10287 20228 58006 70004 81818 86642
AAXX 09001 38353 419// 60000 11095 21102 39354 40312 53004 71042 80001
AAXX 09001 38613 429// 00101 11058 21107 39346 40292 56003 555 1/106
AAXX 09001 38616 425// 50000 11053 21090 39232 40295 56001 85500
AAXX 09001 38345 42998 00000 11107 21143 38825 48509 58005 555 1/113
AAXX 09001 36911 429// 80000 11073 21116 39287 40302 54000 8803/ 555 1/110
AAXX 09001 36974 NIL
AAXX 09001 36982 429// 52202 11163 21214 36535 47195 57011 80001
BBXX LDGJ 09001 99646 10106 43/// /1114 10015 21111 49864 5//// 222/1 04086 1//// 3//// 4//// 5////
BBXX LF4H 09004 99596 10022 46/// /3204 10064 20038 49590 52010 8//// 22200 06088 10911 70053 333 91139
BBXX LGWS 09001 99292 70104 43/// /0506 10186 20119 40218 5//// 222/0 04168 1//// 3//// 4//// 5////
BBXX LMEL 09001 99603 10053 43/// /1208 10026 20026 49650 5//// 222/2 04099 1//// 3//// 4//// 5////
BBXX TBWUK35 09003 99590 10039 41297 82020 10075 20062 49581 57045 70262 887// 22242 00100 20609 320// 40810 80069
BBXX C6KD9 09000 99425 70193 41397 73508 10150 20123 40261 51002 70322 83772 22254 02154 21003 332// 41405 5//// 80135
BBXX ELYJ7 09003 99198 31777 41/98 41411 10300 20279 40090 51003 70100 8//// 22244 20601 320// 41003 80284
BBXX MCLJ8 09003 99022 31430 41498 82614 10280 20252 40090 50020 70365 8/2// 22233 20402 327// 40402 5//// 80260
BBXX C6KD8 09003 99471 70137 41296 82917 10121 20113 40196 56015 75055 84628 22214 02138 21108 332// 41508 5//// 80117
BBXX PCCL 09003 99342 31511 41499 51605 10236 20161 40147 51003 70311 83364 22212 04194 20301 312// 40702 80187
BBXX UBEF5 09001 99335 10146 41/98 93307 10180 40287 54000 70000 89/// 22213 00200 20501
AAXX 09001 14240 12970 03601 11003 21036 30095 40257 58009 60001
AAXX 09001 14258 12970 03202 11010 21015 30068 40264 52002 60001
AAXX 09001 14445 12970 00604 10090 21072 30104 40261 52006 60001 333 92311
AAXX 09001 15502 12970 02701 10032 21007 30209 40249 51008 60001 333 10050 20026 555 576//
AAXX 09001 15525 12970 02505 10042 21013 39974 40245 52020 60001 333 10042 20034 555 568//
AAXX 09001 15528 12970 02505 10036 21014 30027 40221 52009 60001 333 10046 20034 555 570//
AAXX 09001 15535 12970 02007 10016 20005 30160 40208 52011 60001 333 10032 20016 555 592// 92600
AAXX 09001 15549 12970 02905 10010 21012 39807 40236 52013 60001 333 10023 20009 555 585//
AAXX 09001 15552 12970 02905 10036 20004 30152 40202 52025 60001 333 10052 20036 555 580// 92025 92428
AAXX 09001 15614 12665 42904 10028 21042 39543 40266 52011 60001 83201 333 10030 21008 43003 555 560//
AAXX 09001 15615 11/00 93206 11151 21175 37080 47011 52011 60001 74144 333 11150 21162 555 582//
AAXX 09001 15626 12970 22710 10050 21044 30050 40242 52010 60001 82032 333 10052 20042 555 551//
AAXX 09001 15627 11/00 93234 11100 21104 37566 47982 53009 69921 74944 333 11100 21116 41/// 91140 93502 555 597// 92712
AAXX 09001 15640 12968 23212 10060 21028 39878 40194 54000 60001 82050 333 10062 20054 555 553//
AAXX 09001 15655 12970 02708 10054 21011 30171 40205 52012 60001 222// 20000 333 10068 20046 555 563// 92015 92418
AAXX 09001 15712 12980 20000 10017 21037 30016 40276 51015 60001 82030 333 10048 20010 555 567//
AAXX 09001 15730 12670 23418 10061 21030 39834 40232 52017 60001 82500 333 10066 20045 91134 555 552//
AAXX 09001 15015 01597 72503 10017 21012 39605 42807 53023 69911 70282 84570 333 41998 55000 60007 91005 91107
AAXX 09001 15020 02597 83005 10035 20007 39991 40194 51021 60001 8457/ 333 55068 60007 91008 91110
AAXX 09001 15090 01597 82602 10030 20013 30101 40196 51026 69941 76162 8457/ 333 55300 0//// 20003 3//// 55025 10166 20378 30194 69947 91004 91104
AAXX 09001 15108 01/91 92720 11084 21084 38021 48456 52010 60001 74944 333 43005 55000 60007 91028 92723
AAXX 09001 15120 02997 02902 10010 21014 39726 40237 51017 60001 333 55300 10250 2//// 3//// 55023 10110 20350 30175 60007 91005 91107
AAXX 09001 15150 02997 03101 10016 21011 39989 40207 53035 60001 333 55035 60007 91002 91105 92600
AAXX 09001 15170 02598 62604 10011 21017 39403 42794 51012 60001 86300 333 47002 55002 60007 91009 91109
AAXX 09001 15200 02998 02301 10009 21011 30109 40259 52013 60001 333 55030 60007 91002 91102 92600
AAXX 09001 15230 02597 72404 10030 21008 39954 40256 51019 60001 84370 333 55300 10262 20004 3//// 55026 10074 20453 30435 60007 91005 91109
AAXX 09001 15260 02597 82804 10034 21011 39692 40239 52017 60001 885// 333 55000 60007 91006 91108
AAXX 09001 15280 01/90 93218 11122 21127 37441 47966 51016 60031 77374 333 48036 55000 60027 91024 92966 96038 96041
AAXX 09001 15292 01597 83101 10035 21002 39966 40269 52015 69921 70282 883// 333 55009 69927 91002 91105
AAXX 09001 15310 01996 32303 11001 21012 30105 40194 51020 60001 71000 83030 333 55300 10198 20004 3//// 55000 10226 20135 30123 60007 91004 91104 92600
AAXX 09001 15335 03/// /2904 10035 21012 30176 40183 52016 6///1 333 4//// 55/// 6///7 91006 91106
AAXX 09001 15346 02997 03400 11023 21039 39922 40225 52015 60001 333 55027 60007 91001 91104 92600
AAXX 09001 15350 02997 02702 10060 21015 30079 40201 52018 60001 333 55005 60007 91004 91108
AAXX 09001 15360 02497 83006 10025 20007 30156 40171 52013 60001 886// 222// 0//// 2////
AAXX 09001 15410 02997 03301 10056 21014 30140 40238 54001 60001 333 55042 60007 91003 91106
AAXX 09001 15420 02997 02502 11009 21021 30095 40211 51013 60001 333 55300 0//// 20000 3//// 55000 0//// 20171 3//// 60007 91003 91103 92600
AAXX 09001 15450 02997 02502 10017 21007 39992 40235 52014 60001 333 55300 10227 20004 3//// 55014 10204 20223 30226 60007 91004 91105
AAXX 09001 15460 02997 02504 10014 21003 30182 40207 52021 60001 333 55002 60007 91007 91107 92600
AAXX 09001 15470 02997 02504 10007 20000 30093 40223 51013 60001 333 55010 60007 91006 91107
AAXX 09001 15480 02997 02904 10022 20003 30175 40192 52014 60001 222// 0//// 2//// 333 55034 60007 91006 91107 92437
AAXX 09004 47101 11520 81802 11029 21049 30183 40283 52021 60012 77177 8672/ 333 21030 3/000 43006
AAXX 09004 47105 169// /3401 11005 21007 30230 40263 52017 60362 333 21008 3/004
AAXX 09004 47108 11660 63204 11041 21103 30174 40285 52017 69902 77177 85500 333 21044 30101
AAXX 09004 47115 11565 70715 10002 21040 39954 40234 52016 60012 77072 87800 333 21010 3/000 44001 92044
AAXX 09004 47133 11656 63602 11015 21066 30197 40285 52011 69902 77177 86500 333 21019 34000
AAXX 09004 47138 32668 62707 10011 21074 30253 40256 52019 86500 333 20006 30003 92043
AAXX 09004 47159 32672 43415 10002 21103 30161 40249 52013 84500 333 21002 30002 92024
AAXX 09004 47165 11570 63412 10013 21049 30232 40280 50003 69902 72682 86800 333 20003 31002 92034
AAXX 09004 47168 12970 43418 10013 21074 30180 40262 52009 69902 80001 333 20004 31000 92025
AAXX 09004 47184 11568 73417 10048 21014 30251 40277 50005 60012 76872 87800 333 20040 31004 92055
AAXX 09004 78906 11478 71503 10243 20209 30119 40124 60001 87840 333 10287 20228 58006 70004 81818 86642
AAXX 09004 78792 32460 83003 10245 20210 30084 40097 52007 83230 333 027// 10296 20221 30/// 59005 83818 85359
AAXX 09004 78793 11360 72304 10254 20242 30063 40094 52007 69931 72166 8422/ 333 10302 20214 30/// 563// 57862 59002 70003 84810 83460
AAXX 09004 78795 32470 13608 10260 20193 39992 40092 57002 81400 333 10326 20210 30/// 560// 59003 81615
AAXX 09004 16622 12970 03321 10080 21028 30260 40271 52014 60001 333 90730 91130 555 40000 47727 44220 50000 50040
AAXX 09004 16641 12960 00000 10066 20066 30233 40238 52013 60001 333 90730 91105 555 40000 47705 44210 50000 50066
AAXX 09004 16682 NIL
AAXX 09004 16716 NIL
AAXX 09004 16734 17/// /3412 10140 20082 30163 40224 52005 69901 7//4/ 333 90730 91120
AAXX 09004 16743 NIL
AAXX 09004 16749 12460 12814 10144 20045 30163 40178 52001 60001 81200 333 90730 91120 555 40000 47655 44215 50000 50098
AAXX 09004 16754 12560 23614 10160 20112 30159 40206 52006 60001 82200 333 90730 91116 555 40000 47651 44200 50000 50134
AAXX 09004 78906 11478 71503 10243 20209 30119 40124 60001 87840 333 10287 20228 58006 70004 81818 86642
AAXX 09004 47090 11568 72907 11012 21042 30244 40267 52014 60292 72272 87500 333 21019 3/001 49035 92063
AAXX 09004 47095 11520 83202 11049 21064 30087 40286 52017 69972 77177 8672/ 333 21051 3/000 43001
AAXX 09004 47097 329// /2003 11028 21094 30184 40284 52015 333 21040 3/000
AAXX 09004 47098 129// /0001 11045 21066 30142 40283 52019 69982 8072/ 333 21050 3/000
AAXX 09004 47099 11540 80203 11040 21061 30250 40288 52019 69902 77177 8472/ 333 21049 3/101
AAXX 09004 47100 11320 62501 11057 21072 39313 40269 52012 60042 77077 86500 333 21070 3/000 49058
AAXX 09004 47102 11520 70510 11037 21048 30109 40296 52014 69902 77177 87800 333 21058 3/101 46///
AAXX 09004 47104 11530 83403 11012 21019 30162 40263 52017 60272 77177 8572/ 333 21014 3/000 49043
AAXX 09004 47106 11560 83203 11004 21008 30205 40256 52013 60352 77177 8672/ 333 21008 3/001
AAXX 09004 47112 11658 63603 11031 21095 30198 40286 52017 69902 77172 86500 333 21038 30101 92022
AAXX 09004 47114 11658 82502 11028 21075 30091 40281 52017 69902 77177 8672/ 333 21032 34000
AAXX 09004 47119 31664 62902 11025 21081 30240 40284 52013 77077 85500 333 21036 30102
AAXX 09004 47121 129// /2703 11026 21069 39972 40278 52019 69912 333 21027 3/000
AAXX 09004 47127 329// /2704 11021 21086 30139 40287 52015 333 21026 3/000
AAXX 09004 47129 11512 73604 11020 21037 30252 40289 52013 69942 78588 87800 333 21021 3/001 43001
AAXX 09004 47130 11656 62302 10006 20003 30189 40253 52015 60222 72272 86500 333 21006 3/001 43019 92041
AAXX 09004 47131 11663 63402 11021 21080 30212 40286 52013 69902 77022 85500 333 21032 30000
AAXX 09004 47135 329// /2707 11024 21091 39969 40280 51014 333 21031 3/101
AAXX 09004 47136 32668 42906 11017 21082 30095 40274 52017 84500 333 21028 30000
AAXX 09004 47137 329// /2705 11022 21100 30156 40279 50015 333 21034 3/101
AAXX 09004 47140 11530 71104 11024 21033 30257 40287 52009 69952 78588 87800 333 21026 3/001 47003 92012
AAXX 09004 47143 32668 43203 11008 21099 30201 40283 52018 81530 333 21012 30101
AAXX 09004 47145 11550 71403 11026 21059 30251 40279 52012 69912 78588 87800 333 21037 3/000 47///
AAXX 09004 47146 11557 71402 11018 21061 30218 40287 52011 69902 78588 87800 333 21019 3/002 42///
AAXX 09004 47150 11507 70203 11020 21035 30263 40283 52012 60012 78688 87800 333 21021 3/000 43002
AAXX 09004 47152 32670 43205 10012 21078 30208 40252 52017 83501 333 21001 30101
AAXX 09004 47154 329// /2905 11007 21091 30217 40280 52016 333 21024 3/101
AAXX 09004 47155 32672 21104 10011 21089 30216 40263 52014 81501 333 20000 30000
AAXX 09004 47156 11530 73401 11009 21020 30194 40287 52011 69972 78688 87800 333 21009 3/002 47001
AAXX 09004 47157 32973 01101 11023 21086 39986 40267 52013 333 21057 34101
AAXX 09004 47162 12975 50207 10014 21081 30221 40262 52011 69902 80001 333 21002 34000 92022
AAXX 09004 47169 11562 63420 10018 21023 30192 40289 52010 69982 78588 86800 333 20002 31003 92065
AAXX 09004 47170 11570 73210 10016 21040 30235 40280 51008 69902 78588 87800 333 20007 30003 92023
AAXX 09004 47171 11558 63601 11016 21030 30229 40286 52008 60032 78588 86800 333 21021 3/001 41006
AAXX 09004 47172 129// /1802 11007 21025 30211 40280 52009 69942 333 21009 3/003
AAXX 09004 47173 129// /3603 11016 21061 30171 40287 52011 69902 333 21019 3/001
AAXX 09004 47174 11565 62906 11009 21042 30062 40271 50003 69912 78582 85800 333 21014 30001
AAXX 09004 47175 11561 73413 11028 21034 39684 40280 52006 69932 72272 83800 333 21031 3/000 46/// 92034
AAXX 09004 47185 11670 83232 10054 21024 30175 40268 53002 69922 72376 8552/ 333 20044 31004 92057
AAXX 09004 47188 11570 73605 10037 21010 30245 40267 55001 60022 76872 87800 333 20023 31003 92042
AAXX 09004 47189 12570 62904 10060 21016 30198 40259 57005 69922 83501 333 20028 31005 92033
AAXX 09004 47192 32970 21102 10004 21078 30229 40268 52010 80001 333 21028 31101
AAXX 09004 91925 02581 21015 10278 20206 30027 40087 56020 60014 82201 333 20222 56206 58008 60007 82820 90710 91128 555 60005 11028
AAXX 09004 91929 04/86 /0505 10296 20213 30102 40105 56020 60001 700// 333 60007 90710 91109 555 60005
AAXX 09004 91938 01565 70802 10293 20223 30100 40102 57019 60001 71511 878// 333 60007 82820 86650 90710 91106 555 60005 10207
AAXX 09004 91943 36/// /0410 10292 20209 30095 40097 56022 333 59006
AAXX 09004 91944 06/// /3611 10281 20206 30096 40099 56018 60001 333 60007 90710 91116 555 60005
AAXX 09004 91948 01470 82903 10220 20203 30017 40120 56020 60204 72186 888// 333 20209 56899 59022 60037 83816 85820 90710 91118 555 60015 13518
AAXX 09004 91954 06/// /1310 1//// 2//// 30098 4//// 56016 60054 333 2//// 59030 69927
AAXX 09004 91958 02581 50323 10229 20160 30126 40128 56015 60094 84202 333 20184 56309 59031 60007 84823 90710 91145 555 60005 10345
AAXX 09004 91945 NIL
AAXX 09004 78792 32460 83003 10245 20210 30084 40097 52007 83230 333 027// 10296 20221 30/// 59005 83818 85359
AAXX 09004 78793 11360 72304 10254 20242 30063 40094 52007 69931 72166 8422/ 333 10302 20214 30/// 563// 57862 59002 70003 84810 83460
AAXX 09004 78795 32470 13608 10260 20193 39992 40092 57002 81400 333 10326 20210 30/// 560// 59003 81615
AAXX 09001 26509 32567 81404 10022 20006 30084 40093 57023 885// 333 91008 91110 555 1/001
AAXX 09001 26518 /1244 81605 11001 21004 39901 40109 58019 71072 886// 333 88704 91008 91108 555 1/101 4/008 69901
AAXX 09001 26524 32597 71702 10001 21008 39984 40119 58013 87500 333 87621 91004 91105 555 1/101 4/003
AAXX 09001 26531 32469 81502 10004 21013 30053 40130 58007 885// 333 88616 91005 91105 555 1/000
AAXX 09001 26629 31596 81803 10007 20001 30040 40137 58007 71022 885// 333 88623 91004 91104 555 1/000
AAXX 09001 26633 32470 82102 10007 21019 30011 40144 51003 886// 333 88714 91003 91104 555 1/000
AAXX 09001 26730 32465 81402 11003 21018 39956 40152 52002 886// 333 91003 91103 555 1/100
AAXX 09004 08001 NIL
AAXX 09004 08015 NIL
AAXX 09004 08023 12660 72008 10127 20082 30181 40252 58007 60001 82878
AAXX 09004 08027 12481 31804 10102 20090 39947 40260 57005 60001 81571
AAXX 09004 08045 01008 62502 10103 20098 39960 40273 58006 69901 74142 85511 333 69907
AAXX 09004 08141 NIL
AAXX 09004 08160 12960 80000 10053 20041 39964 40282 58001 60001 80007
AAXX 09004 08181 02565 13507 10079 20042 30251 40257 56011 60001 81100 333 60007
AAXX 09004 08221 02959 60102 10016 20001 39582 40294 58005 60001 80002 333 60007
AAXX 09004 08231 NIL
AAXX 09004 08261 NIL
AAXX 09004 08284 02960 02805 10103 20084 30188 40265 58013 60001 333 60007
AAXX 09004 08306 NIL
AAXX 09004 08314 02570 63103 10112 20101 30158 40263 58006 60001 83570 333 60007
AAXX 09004 08430 11950 30000 10088 20077 30197 40274 58004 60001 71042 80001
AAXX 09004 08482 NIL
AAXX 09004 16614 36/// /9903 11011 21046 39488 40301 52011 333 90730 91107
AAXX 09004 16627 NIL
AAXX 09004 16667 11560 30115 10088 20048 30209 40214 52019 69981 70160 83400 333 90730 91125 555 40000 47686 44200 50000 50070 60000 60008 60100 70000 77/// 7R///
AAXX 09004 16675 17/// /2408 10073 20006 30250 40264 52023 69901 741// 333 90730 91115 555 60000 65555 6////
AAXX 09004 16710 36/// /9901 10012 20005 39471 40270 52014 333 90730 91104
AAXX 09004 16723 NIL
AAXX 09004 16738 17/// /0220 10123 20013 30025 40226 52018 69901 741// 333 90730 91132 555 60000 65555 6////
AAXX 09004 16746 12560 20000 10124 20105 30036 40220 51011 60001 82200 333 90730 91108 555 40000 47558 44195 50000 50114
AAXX 09004 16643 12960 00507 10100 20092 30239 40245 52009 60001 333 90730 91112 555 40000 47715 44245 50000 50096
AAXX 09004 16648 12960 00000 10014 21050 30173 40266 52019 60001 333 90730 91106 555 40000 47660 44210 50000 51008
AAXX 09004 16650 12560 39903 10054 20035 30227 40231 52007 60001 83400 333 90730 91110 555 40000 47702 44220 50000 50046
AAXX 09004 16684 12570 33610 10102 20017 30207 40235 52028 60001 83100 333 90730 91128 555 40000 47686 44210 50000 50066
AAXX 09004 16732 NIL
AAXX 09001 14241 12980 01202 11019 21046 30119 40256 58010 60001
AAXX 09001 14284 12980 01903 11006 21017 30151 40265 57010 60001
AAXX 09001 14307 32970 20703 10079 20022 30164 40242 57005 82030 333
AAXX 09001 14317 NIL
AAXX 09001 14431 12980 01103 10045 21026 30161 40257 50001 60001
AAXX 09001 14444 33970 03402 10046 21031 30238 40268 52004 333
AAXX 09001 14474 12980 00307 10078 21073 30073 40268 53001 60001
AAXX 09001 01271 17884 11207 10016 21053 39823 49844 58047 6//// 700// 333 91117
AAXX 09001 01415 17557 81711 10051 20028 39631 49641 58060 6//// 781// 333 91124
AAXX 09001 26645 42497 82001 11012 21029 39885 40151 52003 886// 333 88712 555 1/102
AAXX 09001 26659 42562 70000 11008 21018 39933 40152 52007 875// 333 87620 555 1/101
AAXX 09001 26763 41660 80702 11013 21027 39916 40149 52005 70372 8657/ 333 86635 555 14102
AAXX 09001 26825 41330 82003 10004 20001 39966 40152 52003 71022 886// 333 88709 555 11000
AAXX 09001 26832 41459 82801 10005 21011 39960 40156 51005 71022 8667/ 333 86711 555 1/000
AAXX 09001 26887 41396 80902 11014 21022 39939 40150 52010 77172 8872/ 333 88709 555 1/102
AAXX 09001 26961 41356 80000 11008 21015 39951 40147 52020 70272 885// 333 88707 555 1////
AAXX 09001 33027 41996 83002 11004 21010 39985 40157 52025 71072 8802/ 333 93702 555 1/101
AAXX 09001 14015 42965 00000 11006 21029 39890 40265 58012 60001
AAXX 09001 14121 36/// /2601 11015 21029 39978 40257 57005
AAXX 09004 78905 12478 73003 10242 20224 30105 40128 60001 70233 87800 333 10289 20220 58002 70002 87816
AAXX 09004 60318 16933 /2403 10134 20118 40264 56005 60001
AAXX 09004 78016 32764 42306 10212 20162 30217 40221 53018 83501 333 10244 20211 70000
BBXX BATUK01 09004 99560 70032 46/// /2507 10044 21013 49902 53060 22200 00054
AAXX 09004 17024 NIL
AAXX 09004 17056 11970 02001 10028 20027 30222 40226 53011 60011 70161 333 91113 92418
AAXX 09004 17067 11560 72807 10052 20033 30192 40215 52022 69941 78011 87200 333 87830 91119 92427
AAXX 09004 17092 12660 71313 10042 21048 38828 48464 53003 60001 85530 333 85638 87359
AAXX 09004 17112 11970 00302 10037 20017 30236 40238 52014 60011 70261 333 91114 92408
AAXX 09004 17115 11960 02804 10039 20003 30172 40224 52010 60071 70181
AAXX 09004 17116 NIL
AAXX 09004 17188 12660 62402 10021 20009 39108 40185 56005 60001 84550 333 84640 86360 91106
AAXX 09004 17202 11670 70808 10038 21008 39144 40175 58001 69921 70262 85550 333 85635 87360
AAXX 09004 17248 NIL
AAXX 09004 17292 12970 03404 10054 20012 39422 40181 50000 60001 333 91108
AAXX 09004 17300 12960 03306 10076 20005 30076 40147 58003 60001
AAXX 09004 17310 NIL
AAXX 09004 17330 NIL
AAXX 09004 93004 16/// /0726 10203 20158 40210 57007 60004 333 20143 70000
AAXX 09004 93023 16/// /0813 10201 20153 40241 52005 60004 333 20138 70000
AAXX 09004 93069 16/// /0813 10202 20134 40247 52010 60004 333 20165 70000
AAXX 09004 93110 17698 /0210 10231 20145 40241 52003 60004 333 20124 70000
AAXX 09004 93186 17/98 /0110 10208 20139 40254 52009 60004 333 20171 70000
AAXX 09004 93196 16/// /1012 10177 20143 40258 52007 60004 333 20133 70000
AAXX 09004 93245 16/98 /2603 10205 20129 40237 57005 60004 333 20141 70000
AAXX 09004 93292 17598 /1605 10183 20128 40264 52010 60004 333 20150 70000
AAXX 09004 93309 17498 /3206 10184 20152 40252 52010 60004 333 20102 70000
AAXX 09004 93334 16/// /2807 10182 20087 39296 52009 60004 333 20075 70000
AAXX 09004 93339 16/// /2314 10175 20103 39301 52008 60004 333 20074 70000
AAXX 09004 93373 17598 /0908 10189 20143 40265 52008 69984 333 20135 70008
AAXX 09004 93404 17698 /1008 10219 20133 40247 57002 60004 333 20123 70000
AAXX 09004 93420 17698 /2310 10172 20124 40254 52004 60004 333 20108 70000
AAXX 09004 93439 17798 /2209 10166 20113 40257 52004 60004 333 20125 70000
AAXX 09004 93498 16/// /1105 10152 20118 40270 52008 60004 333 20115 70000
AAXX 09004 93515 17/97 /3203 10179 20105 40260 52008 60004 333 20112 70000
AAXX 09004 93527 16/// /0709 10176 20120 40257 52005 60004 333 20139 70000
AAXX 09004 93546 17/98 /0109 10208 20141 40251 52002 60004 333 20141 70000
AAXX 09004 93597 16/// /0908 10154 20115 40265 52003 60004 333 20113 70000
AAXX 09004 93615 17597 /3207 10177 20115 40261 52010 60004 333 20095 70000
AAXX 09004 93678 16698 /0609 10161 20115 40259 52002 60004 333 20094 70000
AAXX 09004 93709 16/// /0105 10163 20119 40260 52016 60004 333 20080 70000
AAXX 09004 93773 17698 /1007 10180 20114 40254 52005 60004 333 20083 70000
AAXX 09004 93781 17/98 /0814 10182 20098 40253 52001 60004 333 20068 70000
AAXX 09004 93800 NIL
AAXX 09004 93805 NIL
AAXX 09004 93831 17/97 /2608 10167 20089 40226 57014 60004 333 20067 70000
AAXX 09004 93845 17698 /2305 10166 20091 40257 52008 60004 333 20075 70000
AAXX 09004 93891 17598 /1407 10144 20087 40261 52009 60004 333 20099 70000
AAXX 09004 93909 16/// /3413 10154 20082 40255 52011 60004 333 70000
AAXX 09004 93929 16/// /2812 10125 20096 40223 52011 60004 333 70000
AAXX 09004 93947 16/// /2818 10097 20089 40186 52024 69924 333 70002
AAXX 09004 93987 16/// /2314 10126 20065 40233 52015 60004 333 20094 70000
AAXX 09004 93994 16/// /1104 10224 20212 40170 52001 60284 333 70278
AAXX 09003 04013 42689 21105 11050 21105 40100 52022 81210 555 3//18
AAXX 09003 04064 42780 82905 11060 21120 40046 52025 8451/ 555 3//09
AAXX 09001 33088 /1597 83202 10002 21004 39976 40172 52022 70252 885// 555 69901
AAXX 09001 33177 NIL
AAXX 09001 33261 /1396 81302 11014 21022 39973 40160 52007 71072 886// 333 88707 555 69981
AAXX 09001 33275 32997 81701 11014 21031 39938 40168 52006 8805/
AAXX 09001 33301 /1397 83105 10004 20001 39890 40178 51022 70282 885// 333 86708 555 69941
AAXX 09001 33325 /1296 83201 10017 20006 39884 40157 52021 75152 886// 333 88705 555 69901
AAXX 09001 33377 31/93 91801 11011 21011 39962 40161 52007 74942
AAXX 09001 33415 /1397 83205 10007 21004 39781 40189 52022 70282 8633/ 333 84708 555 69971
AAXX 09001 33429 /1397 83105 10006 20001 39747 40179 52021 70282 886// 333 88709 555 69951
AAXX 09001 33466 31658 81901 10012 21002 39965 40156 52010 71022 885// 333 88640
AAXX 09001 33526 /1360 82906 10020 20007 39858 40204 52018 78582 883// 333 85709 555 69931
AAXX 09001 33562 /1397 82703 10010 21001 39795 40163 52016 70282 8565/ 333 85709 555 69931
AAXX 09001 33614 31312 82402 10003 21005 30052 40159 52011 71042 886// 333 88707
AAXX 09001 33761 31696 72902 11001 21010 39935 40164 52011 71011 87500 333 87644
AAXX 09001 33902 /1/93 91902 10018 20018 30087 40154 53021 74484 555 60011
AAXX 09001 33983 32387 83403 10003 21014 30093 40156 52001 86701 333 85709
AAXX 09001 34415 /1397 80000 10010 20005 30062 40160 53012 75152 886// 555 69901
AAXX 09001 34523 31395 80901 10041 20036 30066 40143 52006 71022 886// 333 88709
AAXX 09001 34712 NIL
AAXX 09001 33393 /1460 82706 10013 20005 39806 40206 52012 72682 886// 333 88710 555 60011
AAXX 09001 34504 31227 80000 11015 21017 39982 40166 52011 71042 886// 333 88703
AAXX 09004 78958 12475 41005 10254 20247 30114 40124 60001 82242 333 10306 20235 58007 82819 84078
AAXX 09004 04005 41/05 90519 11043 21063 40127 52026 78688 555 3/421
AAXX 09004 04018 42586 41505 11060 21092 40070 52030 81130 555 3//07 81825 84365
AAXX 09004 04030 42786 61007 11053 21119 40079 52038 82510 555 3//08 82650 86159
AAXX 09004 04048 NIL
AAXX 09004 04063 41458 80405 11057 21092 40100 52018 77077 8692/ 555 3//07
AAXX 09004 04077 NIL
AAXX 09004 04082 NIL
AAXX 09004 04097 41558 83424 11041 21101 40040 52007 78683 883// 555 3/431
AAXX 09001 13160 32997 02302 11002 21023 30153 40266 58008
AAXX 09001 13262 32998 02501 10008 21005 30121 40276 50006
AAXX 09001 13272 32970 02402 10022 21031 30143 40267 57008
AAXX 09001 13285 32998 02702 10028 21019 30161 40267 50004
AAXX 09001 13289 32998 03009 11032 21041 39017 48504 51008 333 91016 91116
AAXX 09001 13376 32998 00801 10005 21015 30018 40292 56003
AAXX 09001 13388 32997 00000 10002 21011 30022 40280 51008
AAXX 09001 13462 32970 03304 10057 21042 30232 40273 58001
AAXX 09001 13473 NIL
AAXX 09001 13489 31992 01001 11030 21030 39756 40304 50004 74444
AAXX 09001 12120 11360 81909 10026 20014 30033 40040 57053 69931 76122 8572/ 333 91114 93093
AAXX 09001 12250 12960 81704 10013 20003 30023 40113 57043 60001 80007 333 93000
AAXX 09001 12295 11426 82101 10006 20006 39967 40155 58001 60001 71022 885// 333 88614 93000
AAXX 09001 12330 12567 81906 10038 21002 39993 40102 56048 60001 8351/ 333 93000
AAXX 09001 12375 12960 01701 11011 21014 30028 40163 58019 60001 333 93000
AAXX 09001 12424 12799 81705 10030 21001 39981 40136 58046 60001 8251/ 333 93000
AAXX 09004 17022 11557 83006 10066 20050 30020 40188 53009 60101 76066 8652/ 333 86625 88458 91116 92436
AAXX 09004 17031 11458 82609 10069 20046 30156 40162 55001 60051 76188 8552/ 333 83715 85630 88458
AAXX 09004 17038 11358 72712 10107 20083 30094 40145 53003 69981 78122 87200 333 84709 86830 92437
AAXX 09004 17050 NIL
AAXX 09004 17060 11660 53006 10059 20011 30175 40216 52011 60021 70182 82130 333 82835 84360
AAXX 09004 17096 12560 61802 11054 21090 38205 48478 56008 60001 86550 333 84630 86358
AAXX 09004 17124 12660 69901 10008 21011 39255 40188 55002 60001 84550 333 84635 86360
AAXX 09004 17128 12660 62903 10015 21042 39059 40170 52008 60001 83550 333 83640 86360
AAXX 09004 17170 NIL
AAXX 09004 17195 11460 82509 10025 20016 38933 48458 52004 60041 76866 8652/ 333 82711 85630 88458 93100
AAXX 09004 17199 12565 80901 10023 21015 39062 40175 55000 60001 8562/ 333 81720 84635 88460
AAXX 09004 17219 11565 70315 10067 20037 30060 40208 53015 60011 72982 84250 333 84830 87360
AAXX 09004 17240 12670 20902 11013 21096 39017 40180 57005 60001 82400 333 82635
AAXX 09004 17244 12670 40404 11007 21014 38972 48467 53002 60001 84500 333 84640
AAXX 09004 17280 11670 83405 10055 21010 39382 40177 52003 69901 70262 84220 333 84840 88460
AAXX 09004 17350 12660 60208 10098 20058 30073 40152 52014 60001 84250 333 84835 86360
AAXX 09004 17026 12570 73310 10094 20044 30125 40164 55002 60001 84570 333 84630 87358 91121 92438
AAXX 09004 17034 11458 72806 10083 20057 30117 40163 52013 60071 78122 85270 333 82715 84830 87359 92436
AAXX 09004 17070 NIL
AAXX 09004 17084 11565 81402 10012 20010 39245 40160 52002 60071 76166 8552/ 333 85630 88459 91105
AAXX 09004 17090 11660 80000 10006 21008 38673 48447 58005 69961 77122 8552/ 333 85633 88458 93102
AAXX 09004 17098 12560 70000 11118 21129 38179 48494 57003 60001 84530 333 84630 87357
AAXX 09004 17150 11660 41701 10030 20018 30110 40236 52022 60031 70281 82130 333 82835 83360
AAXX 09004 17160 NIL
AAXX 09004 17184 11670 60102 10044 20028 30109 40222 52021 60021 70282 84250 333 84840 86360
AAXX 09004 17189 11650 72003 11031 21036 39008 48468 57004 60001 71022 84570 333 84635 87360
AAXX 09004 17210 NIL
AAXX 09004 17234 11660 72301 10063 20045 30118 40186 58007 69901 78022 84270 333 84838 87359 91103
AAXX 09004 17260 11557 70103 10049 20019 39340 40161 53001 69911 70262 85250 333 85830 87359
AAXX 09004 17290 NIL
AAXX 09004 17370 11665 71305 10121 20049 30144 40148 50003 69921 70282 84270 333 84835 87460 92427
AAXX 09001 12105 11464 81707 10033 20018 39985 40028 58053 60021 76122 8772/ 333 87712 91013 91113 93002
AAXX 09001 12195 11104 81902 10001 20001 39910 40143 57007 69901 74672 886// 333 93097
AAXX 09001 12235 11450 81808 10015 20008 39862 40075 57047 69911 76122 8672/ 333 86714 88517 93091
AAXX 09001 12270 11558 71804 11006 21010 39952 40139 57026 60001 71011 82508 333 93000
AAXX 09001 12280 12965 11904 11001 21007 39976 40137 58017 60001 80001 333 93000
AAXX 09001 12300 11560 82104 10038 20025 39976 40066 57047 69981 76122 8802/ 333 91110 93001
AAXX 09001 12400 11665 81805 10028 20015 39859 40097 56047 69931 76122 8252/ 333 91110 93093
AAXX 09001 12435 11958 81705 10010 21014 39962 40138 58043 60001 71011 80007 333 93000
AAXX 09001 12495 11964 32403 10000 21009 39886 40187 58001 69901 70181 80004 333 93097
AAXX 09001 12530 11659 71604 10008 21005 39964 40169 58035 60001 71011 83506 333 93000
AAXX 09001 12570 11940 72101 11012 21015 39865 40194 57015 60001 71011 80006 333 93000
AAXX 09001 12580 11970 02202 11012 21019 39938 40207 58001 69901 70281 333 91113 93097
AAXX 09001 12160 12960 81504 10011 21004 30043 40097 57042 60001 80007 333 93000
AAXX 09001 12205 11367 82009 10048 20036 30018 40026 57051 60021 76122 8672/ 333 91014 91117 93002
AAXX 09001 12465 12960 81904 10005 21005 39918 40157 57031 60001 80007 333 93000
AAXX 09001 12566 11957 02102 11016 21020 39896 40201 57018 60001 71011 333 93000
AAXX 09004 61415 32956 53507 10184 20100 30156 40161 80002 333 59007 85080
AAXX 09004 61442 32958 33605 10209 20126 30143 40147 80002 92359 333 59005 83073
AAXX 09004 78958 12475 41005 10254 20247 30114 40124 60001 82242 333 10306 20235 58007 82819 84078
AAXX 09001 26106 42997 81404 10008 21022 30077 40120 57010 8807/
AAXX 09001 26346 42497 81902 11014 21023 39890 40140 52001 8264/
AAXX 09001 26406 41596 81404 10011 20003 30069 40075 57030 71082 885// 333 88624
AAXX 09001 26544 42497 81903 11006 21024 39991 40147 52003 883// 333 84915
AAXX 09001 26313 NIL
AAXX 09001 26416 NIL
AAXX 09001 26424 NIL
AAXX 09004 06030 01460 52016 10061 20041 39791 49806 57039 60041 70261 83511 333 69907 81612 83632 91025 91140 91228
AAXX 09004 06060 01335 82214 10047 20028 39770 49833 57024 60081 78182 889// 333 69947 83709 82922 85630 91038 91139
AAXX 09004 06070 05467 52108 10066 20043 39818 49848 57032 60071 333 60027 81/19 83/23 85/27 91137 91218
AAXX 09004 06120 36581 52018 10065 20046 39852 49877 57024 333 81/32 83/64 85/67 91031 91140
AAXX 09004 06180 01457 82123 10068 20059 39890 49896 57055 60061 76322 887// 333 60037 81710 87712 91034 91143
AAXX 09004 06193 07446 72019 10049 20040 39933 49945 57076 60121 76265 333 55300 20000 60097 81/10 85/20 87/31 91031 91137
AAXX 09001 01180 16/// /1702 11030 21075 39954 40012 57007 60001 333 91109
AAXX 09001 01311 47/56 /1208 10018 20008 39592 49651 56031 762// 333 91121
AAXX 09001 01494 17361 81308 10008 20005 39717 49782 58059 60121 785// 333 91116
AAXX 09001 01199 16/// /0000 11138 21151 39593 40084 57005 6//// 333 91102
AAXX 09001 01393 16/// /1005 11065 21075 39057 49862 58054 6//// 333 91110
AAXX 09004 71893 12680 23603 10029 21014 30279 40311 56008 60001 81501 333 10048 21013 70000
AAXX 09004 71894 16/// /1402 10042 20036 30287 40296 56012 60001 333 10060 20003 70002
AAXX 09004 71896 15966 01004 11098 21111 39460 40332 51001 60001 333 11068 21177 70013
AAXX 09004 71897 NIL
AAXX 09004 71898 160// ///// 10024 58010 69951 333 10026 21020 70005
AAXX 09004 71899 NIL
AAXX 09004 71902 11240 83215 11068 21090 39909 49917 58052 60061 7717/ 887// 333 11063 21125 70066 90929 93123
AAXX 09004 71905 NIL
AAXX 09004 71906 12974 82604 11127 21156 39945 49996 55002 60001 88010 333 11088 21127 79999
AAXX 09004 71907 17411 92219 11101 21137 39895 49927 51009 60001 745// 333 11071 21106 70005
AAXX 09004 71909 16464 33102 11139 21147 39937 49980 53005 60001 333 11079 21158 70015
AAXX 09004 71910 46564 32009 11080 21139 39873 49935 51016 6///1 333 11075 21125 7////
AAXX 09004 71911 47011 83617 11159 39941 49997 51021 6///1 745// 333 11140 21164 7////
AAXX 09004 71912 11340 83021 11184 21239 39853 40042 53029 69941 77177 84510 333 11170 21185 48012 70010 90983
AAXX 09004 71915 11574 10318 11187 21220 39849 49931 52015 69901 77677 81500 333 11187 21246 48045 79999 90983
AAXX 09004 71917 11974 01002 11369 21414 30167 40182 57006 69901 77677 333 11334 21375 47013 79999 90983
AAXX 09004 71922 12974 02915 11194 21257 39745 40236 53013 60001 333 11181 21208 70000
AAXX 09004 71924 11674 60423 11200 21246 30000 40091 57007 60001 73622 84530 333 11184 21239 48037 70000
AAXX 09004 71925 11259 23215 11282 21311 30107 40150 56005 69901 73870 82600 333 11235 21283 42019 79999 90961
AAXX 09004 71926 11608 13527 11177 21220 39966 49991 51039 69941 77173 81500 333 11159 21248 48042 70034 90913
AAXX 09004 71928 16/// /2705 11072 21095 39061 40282 51008 60001 333 11068 21278 70000
AAXX 09004 71401 16/// /2602 11050 21076 39606 40316 55003 60001 333 11032 21108 70012
AAXX 09004 71402 NIL
AAXX 09004 71404 NIL
AAXX 09004 71405 NIL
AAXX 09004 71406 NIL
AAXX 09004 71407 NIL
AAXX 09004 71408 NIL
AAXX 09004 71409 NIL
AAXX 09004 71410 15666 82911 11159 21212 39832 40122 53023 60001 333 11147 21182 70000
AAXX 09004 71413 NIL
AAXX 09004 71414 NIL
AAXX 09004 71415 16/// /2829 10022 21030 30090 40093 51089 60001 333 10151 20022 70266
AAXX 09004 71417 NIL
AAXX 09004 71418 NIL
AAXX 09004 71419 46/// /2621 10040 21001 30074 40084 51082 6///1 333 10132 20040 7////
AAXX 09004 71423 NIL
AAXX 09004 71424 46/// /2309 6///1 333 7////
AAXX 09004 71425 17/// /2726 11042 21056 39980 40016 51082 60011 7//4/ 333 10001 21043 70110
AAXX 09004 71426 NIL
AAXX 09004 71427 NIL
AAXX 09004 71428 NIL
AAXX 09004 71429 NIL
AAXX 09004 71434 NIL
AAXX 09004 71436 15966 02308 10003 21054 39949 40187 51014 60001 333 10028 21023 70005
AAXX 09004 71437 46/// /2111 10031 21034 30104 40200 50009 6///1 333 10044 20010 7////
AAXX 09004 71438 NIL
AAXX 09004 71439 NIL
AAXX 09004 71440 NIL
AAXX 09004 71442 16/// /2605 11161 21206 39845 40173 52012 60001 333 11135 21161 70000
AAXX 09004 71445 NIL
AAXX 09004 71446 16/// /2207 11189 21221 39234 40277 53002 60001 333 11137 21210 70000
AAXX 09004 71448 NIL
AAXX 09004 71449 16/// /2606 11149 21204 39760 40179 51008 60001 333 11110 21157 70000
AAXX 09004 71744 NIL
AAXX 09004 71750 NIL
AAXX 09004 71751 NIL
AAXX 09004 71752 NIL
AAXX 09004 71753 16/// /2814 10015 21043 30088 40117 53083 60001 333 10160 20014 70248 555 10010
AAXX 09004 71754 16/// /3105 11159 21218 39573 40271 53010 60001 333 11122 21201 70000
AAXX 09004 71755 43/// /2614 11177 21226 39710 40067 51019 6///1 333 11170 21201 7////
AAXX 09004 71756 16/// /1302 11035 21056 39176 40299 55000 60001 333 11013 21077 70000
AAXX 09004 71758 NIL
AAXX 09004 71760 NIL
AAXX 09004 71761 NIL
AAXX 09004 71762 NIL
AAXX 09004 71763 NIL
AAXX 09004 71765 16/// /0000 11024 21074 30052 40336 55005 60001 333 10000 21063 70000
AAXX 09004 71766 46/// /3405 10029 21007 30230 40303 5/007 6///1 333 10045 21026 7////
AAXX 09004 71767 16/// /2514 11010 21104 39909 40173 51016 60001 333 10005 21026 70046 555 10010
AAXX 09004 71768 46/// /3102 11027 21065 39771 40339 53002 6///1 333 11010 21071 7////
AAXX 09004 71769 16/// /3010 10041 20001 30280 40296 56009 60001 333 10043 20024 70000
AAXX 09004 71770 16/// /3401 11028 21071 39511 40305 53001 60001 333 11002 21039 7////
AAXX 09004 71771 NIL
AAXX 09004 71772 16/// /3313 10044 20009 30289 40295 56009 60001 333 10048 20034 70000
AAXX 09004 71773 16/// /1805 11007 21019 39268 40130 56007 60001 333 11007 21116 70000
AAXX 09004 71774 46/// ///// 10002 6///1 333 10022 21011 7////
AAXX 09004 71775 46/// /1101 10030 20002 30302 40308 55006 6///1 333 10050 20006 7////
AAXX 09004 71776 46/// /2505 11024 21061 39645 40306 53001 6///1 333 11018 21067 7////
AAXX 09004 71777 16/// ///// 11066 21072 30067 40329 55002 60001 333 11053 21072 70000
AAXX 09004 71778 46/// /0508 6///1 333 7////
AAXX 09004 71779 17/// /3601 11093 21100 39644 40336 56008 69931 7//4/ 333 11067 21133 70003 555 10020
AAXX 09004 71780 16/// /0908 10045 21007 30278 40306 56006 60001 333 10060 20014 70000
AAXX 09004 71781 46/// /3207 10040 20000 30277 40302 56007 6///1 333 10053 20028 7////
AAXX 09004 71782 46/// /0000 11065 21099 38915 40282 53007 6///1 333 11038 21092 7////
AAXX 09004 71783 NIL
AAXX 09004 71784 16/// /0000 10023 21016 30086 40295 56007 60001 333 10045 21007 70000
AAXX 09004 71785 16/// /3502 10041 20000 30295 40311 58005 60001 333 10063 20003 70000
AAXX 09004 71786 46/// /2411 11127 21141 38402 40322 53006 6///1 333 11120 21224 7////
AAXX 09004 71787 17/// /2719 11035 21060 39635 40120 51073 69931 7//4/ 333 10122 21035 70428
AAXX 09004 71788 NIL
AAXX 09004 71789 NIL
AAXX 09004 71791 NIL
AAXX 09004 71792 NIL
AAXX 09004 71793 NIL
AAXX 09004 71794 NIL
AAXX 09004 71795 NIL
AAXX 09004 71796 NIL
AAXX 09004 71797 NIL
AAXX 09004 71950 15962 02502 11090 21099 39666 40325 56005 60001 333 11079 21149 70000
AAXX 09004 71952 16/// /3102 11096 21115 39424 40313 56006 60001 333 11078 21202 70000
AAXX 09004 71954 46/// /3109 11177 21227 39785 40179 51019 6///1 333 11163 21184 7////
AAXX 09004 71956 NIL
AAXX 09004 71959 NIL
AAXX 09004 71960 460// /1714 11180 39916 40052 56029 6///1 333 11178 21282 7////
AAXX 09004 71962 16/// /2608 11129 21200 39734 40171 51009 60001 333 11106 21137 70000
AAXX 09004 71963 NIL
AAXX 09004 71967 16/// /1708 11027 21058 30072 40179 51019 60001 333 10005 21048 70018
AAXX 09004 71970 NIL
AAXX 09004 71971 16/// /1403 11146 21189 30089 40135 57007 60001 333 11116 21218 70000
AAXX 09004 71972 460// ///// 11086 39536 49999 51002 6///1 333 11084 21100 7////
AAXX 09004 71973 46/// /2423 10014 21010 39698 49881 51112 6///1 333 10128 21015 7////
AAXX 09004 71974 NIL
AAXX 09004 71975 460// /1412 11088 39269 49991 53004 6///1 333 11081 21096 7////
AAXX 09004 71976 NIL
AAXX 09004 71977 NIL
AAXX 09004 71978 NIL
AAXX 09004 71979 NIL
AAXX 09004 71980 NIL
AAXX 09004 71981 NIL
AAXX 09004 71982 NIL
AAXX 09004 71983 NIL
AAXX 09004 71984 16/// /1315 11170 21186 30094 40103 58047 60001 333 11161 21270 70000
AAXX 09004 71985 NIL
AAXX 09004 71986 NIL
AAXX 09004 71987 16/// /2735 10006 21045 30056 40065 51097 60001 333 10101 20006 70357
AAXX 09004 71988 16/// /2926 10038 21024 30162 40182 51061 60001 333 10129 20036 70299
AAXX 09004 71989 NIL
AAXX 09004 71990 NIL
AAXX 09004 71999 46/// ///// 11041 6///1 333 11027 21061 7////
AAXX 09004 71808 11358 82035 10019 20018 39571 49615 58105 60501 76176 885// 333 10030 21039 44016 70600 90976
AAXX 09004 71051 NIL
AAXX 09004 71055 NIL
AAXX 09004 71057 NIL
AAXX 09004 71059 460// ///// 11187 30068 40162 58031 6///1 333 11187 21246 7////
AAXX 09004 71061 16/// /1103 11136 21167 39442 40277 54000 60001 333 11085 21206 70000
AAXX 09004 71062 46/// /2603 11069 21121 39133 40250 53003 6///1 333 11067 21192 7////
AAXX 09004 71064 460// /3421 11283 39945 40171 58007 6///1 333 11265 21291 7////
AAXX 09004 71065 NIL
AAXX 09004 71067 NIL
AAXX 09004 71070 NIL
AAXX 09004 71073 NIL
AAXX 09004 71074 NIL
AAXX 09004 71075 NIL
AAXX 09004 71078 NIL
AAXX 09004 71084 460// ///// 11251 30031 40080 51014 6///1 333 11200 21252 7////
AAXX 09004 71085 15966 61405 11090 21146 38848 40293 53019 60001 333 11026 21194 70000
AAXX 09004 71087 NIL
AAXX 09004 71088 460// /1109 11139 53017 6///1 333 11123 21177 7////
AAXX 09004 71089 NIL
AAXX 09004 71096 460// ///// 11096 39277 40005 58003 6///1 333 11093 21136 7////
AAXX 09004 71097 47040 62113 11083 39524 49995 51005 6///1 745// 333 11077 21086 7////
AAXX 09004 71098 43/// /2710 11169 21217 39715 40088 51016 6///1 333 11169 21194 7////
AAXX 09004 71099 43/// /2416 11176 21226 39934 49955 51013 6///1 333 11166 21213 7////
AAXX 09004 71397 11574 62825 10020 21067 30122 40156 52069 69901 70288 86500 333 10162 20018 70372 90942
AAXX 09004 71400 17/64 /2414 10027 20006 60061 7//4/ 333 10111 21016 70144
AAXX 09004 71403 46/// /2724 10037 21016 30097 40117 53077 6///1 333 10124 20037 7////
AAXX 09004 71411 16/// /2810 10018 21043 30155 40167 51076 60001 333 10127 20016 70142
AAXX 09004 71412 16/// /2720 10014 21035 30056 40065 53096 60001 333 10124 20014 70216
AAXX 09004 71421 NIL
AAXX 09004 71430 16/// /2532 10051 21020 30092 40189 51012 60001 333 10052 20010 70003
AAXX 09004 71431 16/// /2622 10038 21028 30085 40182 51011 60001 333 10041 20000 70000
AAXX 09004 71432 16/// /2409 10034 21011 30107 40205 51013 60001 333 10055 20019 70000
AAXX 09004 71433 NIL
AAXX 09004 71435 NIL
AAXX 09004 71441 46/// /2809 11140 21207 39875 40197 53010 6///1 333 11097 21144 7////
AAXX 09004 71443 16/// /2610 11159 21228 39770 40201 53012 60001 333 11145 21175 70000
AAXX 09004 71444 16/// /2807 11176 21222 39400 40192 51011 60001 333 11152 21191 70000
AAXX 09004 71447 16/// /2807 11136 21187 39658 40227 53007 60001 333 11109 21153 70000
AAXX 09004 71467 NIL
AAXX 09004 71472 NIL
AAXX 09004 71474 16664 61902 11089 21109 39046 40343 56004 60001 333 11078 21164 70000
AAXX 09004 71510 16/// /2603 11159 21199 39516 40257 56001 60001 333 11108 21179 70000
AAXX 09004 71538 12962 32308 11001 21039 39992 40227 51008 60001 80001 333 10028 21027 70000
AAXX 09004 71600 16561 62725 10075 20023 30109 40115 51061 60001 333 10149 20075 70090
AAXX 09004 71601 NIL
AAXX 09004 71816 11/08 93420 11032 21041 39646 49706 57090 60301 77373 333 11016 21170 48043 70326 90973 93130
AAXX 09004 71817 NIL
AAXX 09004 71818 11616 91023 10006 21001 39623 49640 57201 60161 77177 837// 333 10008 21151 43160 70160 90973
AAXX 09004 71822 11316 81907 11089 21104 39591 40073 58001 69941 77171 885// 333 11081 21118 47022 70012 90936
AAXX 09004 71825 11459 83210 11123 21148 39303 49981 52027 60010 77177 85500 333 11090 21131 47082 70082 90983
AAXX 09004 71827 11532 81906 11133 21145 39776 40024 50004 69961 77181 88500 333 11107 21168 47017 70012 90927 93101
AAXX 09004 71828 17428 83213 11119 21139 39323 49966 51008 60021 74544 333 11103 21146 70025
AAXX 09004 71831 11974 32305 11126 21158 39819 40108 53018 69901 70171 83030 333 11091 21145 47016 70004 90931
AAXX 09004 71832 NIL
AAXX 09004 71834 11574 22708 11141 21167 39673 40114 51016 69961 77177 82500 333 11120 21166 48011 70022 90973 93101
AAXX 09004 71841 NIL
AAXX 09004 71842 11674 12615 11143 21222 39652 40139 53015 69901 70288 81500 333 11130 21154 48003 79999 90952
AAXX 09004 71844 16664 32712 11179 21230 39757 40044 51019 60001 333 11170 21195 70000
AAXX 09004 71845 11566 62514 11157 21223 39603 40094 52019 69901 77177 86500 333 11152 21184 43008 79999 90973
AAXX 09004 71850 12974 22710 11159 21224 39645 40165 52013 60001 80001 333 11124 21160 70002
AAXX 09004 71852 16964 02812 11150 21189 39878 40185 51008 60001 333 11125 21164 70000
AAXX 09004 71854 11569 72711 11165 21216 39646 40138 52017 69901 77177 86570 333 11149 21167 70006 90983
AAXX 09004 71858 NIL
AAXX 09004 71861 16/// /3008 11162 21219 39468 40226 53007 60001 333 11135 21164 7////
AAXX 09004 71862 12974 13010 11145 21218 39514 40246 53003 60001 80001 333 11109 21154 70000
AAXX 09004 71863 46964 33108 11163 21225 39521 40252 53007 6///1 333 11121 21164 7////
AAXX 09004 71250 17/// /2420 10078 20054 39811 49944 55003 60041 7//4/ 333 10134 20028 70061
AAXX 09004 71251 16/// /2907 11070 21113 39316 40285 53010 60001 333 11070 21225 70000
AAXX 09004 71252 NIL
AAXX 09004 71253 46/// /0000 11263 21292 6///1 333 11217 21315 7////
AAXX 09004 71254 16/// /3004 11157 21183 60001 333 11100 21209 70000
AAXX 09004 71255 16/// /1805 11183 21240 60001 333 11154 21205 70000
AAXX 09004 71256 46/// /2601 11080 21144 39286 40260 58003 6///1 333 11076 21186 7////
AAXX 09004 71257 NIL
AAXX 09004 71258 NIL
AAXX 09004 71259 NIL
AAXX 09004 71261 16/// /2419 10024 21049 39929 40193 53008 60001 333 10026 21006 70000
AAXX 09004 71263 12874 62415 10008 21028 39916 40210 51010 60001 86070 333 10031 21015 79999
AAXX 09004 71264 16/// /2814 10027 21036 30111 40142 53077 60001 333 10135 20027 70211
AAXX 09004 71265 15966 02320 10027 21029 30104 40199 50011 60001 333 10043 20008 70000
AAXX 09004 71266 NIL
AAXX 09004 71267 15966 82304 11070 21097 39150 40293 52013 60001 333 11064 21175 70000
AAXX 09004 71268 NIL
AAXX 09004 71269 NIL
AAXX 09004 71270 NIL
AAXX 09004 71271 16/// ///// 11157 21191 60001 333 11134 21197 70000
AAXX 09004 71272 17556 83213 11209 21242 39709 40074 51029 60001 704// 333 11178 21209 70000
AAXX 09004 71273 16/// /3103 11166 21219 39569 40265 53010 60001 333 11132 21191 70000
AAXX 09004 71274 NIL
AAXX 09004 71275 NIL
AAXX 09004 71276 NIL
AAXX 09004 71277 NIL
AAXX 09004 71278 NIL
AAXX 09004 71279 16/// /2811 11058 21096 39944 40010 53076 60001 333 11020 21068 70087
AAXX 09004 71281 NIL
AAXX 09004 71282 46/// /2424 10023 21002 39903 40176 51010 6///1 333 10026 21023 7////
AAXX 09004 71283 NIL
AAXX 09004 71284 16/// ///// 11145 21178 60001 333 11100 21203 70000
AAXX 09004 71285 NIL
AAXX 09004 71286 NIL
AAXX 09004 71287 NIL
AAXX 09004 71288 NIL
AAXX 09004 71289 NIL
AAXX 09004 71290 17412 81707 11070 21093 39455 40319 58001 60001 771// 333 11072 21150 70000
AAXX 09004 71291 16/// /2102 11124 21184 39838 40141 51013 60001 333 11094 21132 70000
AAXX 09004 71292 15966 02913 11167 21210 39586 40222 51010 60001 333 11147 21172 70000
AAXX 09004 71294 17/// /2604 11014 21023 39754 40162 51016 69941 7//4/ 333 10007 70004
AAXX 09004 71295 NIL
AAXX 09004 71296 NIL
AAXX 09004 71297 16/// /2505 10016 21034 60001 333 10043 21003 70000
AAXX 09004 71298 16/// /2510 10006 21029 39990 40227 51007 60001 333 10018 21021 70000
AAXX 09004 71299 NIL
AAXX 09004 71822 11316 81907 11089 21104 39591 40073 56001 69941 77171 885// 333 11081 21118 47022 70012 90936
AAXX 09004 71726 17/// /2106 11058 21071 39560 40108 53012 69931 7//4/ 333 11051 21124 70020 555 10020
AAXX 09004 71727 11574 12405 11072 21110 39927 40128 51023 69981 70281 81500 333 11032 21083 47004 70016 90947
AAXX 09004 71728 11582 22109 11071 21120 39889 40114 50009 69901 70288 82500 333 11035 21088 44001 70002 90951
AAXX 09004 71730 11274 22408 11062 21119 39712 40146 53024 69961 70181 82500 333 11020 21093 47009 70032 90932 93101
AAXX 09004 71731 11374 42718 11034 21123 39684 40143 51022 69901 72688 84500 333 11018 21088 47001 70010 90973
AAXX 09004 71735 NIL
AAXX 09004 71738 11574 22406 11093 21129 39774 40135 53030 69961 72288 82500 333 11071 21121 47016 70068 90972
AAXX 09004 71739 41874 42104 11107 21130 39738 40111 52013 6//// 70277 84070 333 11077 21146 4//// 7//// 90962
AAXX 09004 71749 16964 02608 11118 21189 39906 40160 51017 60001 333 11090 21122 70000
AAXX 09004 71799 12583 33605 10036 21001 30283 40308 56008 60001 82501 333 10051 21017 70000
AAXX 09004 71800 17/// /2432 10072 20064 39967 49999 53035 69981 7//4/ 333 10102 20036 70099
AAXX 09004 71801 11569 82429 10074 20058 39775 49944 55007 60041 76122 885// 333 10131 20022 70078 90952
AAXX 09004 71803 11374 72330 10051 20018 39673 49855 53030 60041 70265 87500 333 10117 21015 41997 70064 90923
AAXX 09004 71807 17/// /2437 10068 20035 39959 49977 51064 60031 7//4/ 333 10142 20034 70071
AAXX 09004 71808 11258 82035 10019 20018 39571 49615 58105 60501 76176 885// 333 10030 21039 44016 70600 90976
AAXX 09004 71809 11566 82730 10028 21008 39825 49852 52123 60041 76166 885// 333 10046 21020 42002 70134 90983
AAXX 09004 71810 17/// /2823 11032 21046 39888 49954 53081 60061 7//4/ 333 11008 21032 70196
AAXX 09004 71811 NIL
AAXX 09004 71813 NIL
AAXX 09004 71814 17/// /2629 11025 21042 39742 49751 53127 60211 7//4/ 333 10059 21025 70429
AAXX 09004 71815 11462 82738 10029 21011 39893 49923 52122 60011 78065 885// 333 10134 20008 70142 90917
AAXX 09004 71300 NIL
AAXX 09004 71301 16/// ///// 11078 21086 39707 40114 51021 60001 333 11042 21133 70009
AAXX 09004 71302 16/// /1004 11098 21110 39471 40326 53001 60001 333 11066 21170 70016 555 10030
AAXX 09004 71303 46/// ///// 10017 21025 6///1 333 10032 21005 7////
AAXX 09004 71305 15966 02604 11244 21267 39962 40282 50006 60001 333 11199 21264 70000
AAXX 09004 71306 17616 82218 11090 21132 39895 49927 51009 60001 771// 333 11061 21088 70000
AAXX 09004 71307 NIL
AAXX 09004 71308 16/// /2515 10027 21020 30008 40091 51090 60001 333 10157 20025 70115
AAXX 09004 71309 NIL
AAXX 09004 71310 16/// /2622 10005 21054 30040 40076 53093 60001 333 10143 20005 70288
AAXX 09004 71311 NIL
AAXX 09004 71312 16/// /2910 11172 21238 39746 40226 53015 60001 333 11155 21187 70000
AAXX 09004 71314 NIL
AAXX 09004 71315 16/// /2715 11037 21070 30033 40087 53082 60001 333 10007 21037 70119 555 10030
AAXX 09004 71316 16/// /2803 11168 21207 39555 40275 53004 60001 333 11129 21211 70000
AAXX 09004 71317 NIL
AAXX 09004 71318 16/// /3008 11179 21207 39276 40274 53009 60001 333 11099 21228 70000
AAXX 09004 71319 16/// /2604 11105 21119 39252 40126 51034 60001 333 11035 21106 70031
AAXX 09004 71320 17/// /1005 11147 21159 39971 49972 53014 69931 7//4/ 333 11116 21236 70006
AAXX 09004 71321 NIL
AAXX 09004 71322 NIL
AAXX 09004 71323 16/// /2601 11053 21079 39869 40154 51032 60001 333 11020 21053 70109
AAXX 09004 71331 16/// /2908 11171 21227 60001 333 11158 21182 70000
AAXX 09004 71332 NIL
AAXX 09004 71334 NIL
AAXX 09004 71335 46002 01205 11083 56028 6///1 333 11083 21144 7////
AAXX 09004 71336 46/// ///42 10083 20060 39868 49890 55004 6///1 333 10138 20020 7////
AAXX 09004 71337 46/// /2426 10017 20008 39527 49756 53004 6///1 333 10079 21023 7////
AAXX 09004 71338 46964 00407 11160 21184 30009 40016 58002 6///1 333 11150 21188 7////
AAXX 09004 71339 17148 81621 10044 20043 39604 49618 56191 60291 74344 333 10045 21128 70325
AAXX 09004 71340 NIL
AAXX 09004 71341 NIL
AAXX 09004 71342 NIL
AAXX 09004 71343 NIL
AAXX 09004 71344 NIL
AAXX 09004 71345 NIL
AAXX 09004 71346 NIL
AAXX 09004 71347 NIL
AAXX 09004 71348 NIL
AAXX 09004 71349 NIL
AAXX 09004 71930 12874 72603 11081 21164 39291 40262 57003 60001 87070 333 11078 21191 70000
AAXX 09004 71931 16/// /2438 10083 20035 39795 49807 55021 60001 333 10123 20008 70000
AAXX 09004 71934 11974 10000 11272 21288 39991 40266 50002 69901 70171 80001 333 11204 21272 44019 79999 90952
AAXX 09004 71935 12974 61203 11232 21280 30020 40241 57028 60001 80001 333 11231 21287 70000
AAXX 09004 71936 12674 10703 11290 21331 39967 40247 58018 60001 81501 333 11274 21304 70000
AAXX 09004 71937 NIL
AAXX 09004 71938 12966 42106 11241 21278 30174 40205 56025 60001 80001 333 11238 21269 79999
AAXX 09004 71940 12882 80000 11063 21086 39410 40243 57011 60001 86071 333 11059 21194 70000
AAXX 09004 71943 12874 81703 11086 21125 39358 40224 57017 60001 85501 333 11083 21161 70000
AAXX 09004 71944 160// ///// 11080 58002 60001 333 11078 21167 70000
AAXX 09004 71945 11780 70000 11109 21152 39695 40182 58032 69901 70277 83570 333 11109 21228 47012 70020 90952
AAXX 09004 71946 12774 81205 11204 21227 39953 40181 58040 60001 8852/ 333 11202 21339 70000
AAXX 09004 71948 47956 01223 11198 39998 40115 56043 6///1 745// 333 11197 21274 7////
AAXX 09004 71949 46/// /1204 11119 21139 39264 40159 58011 6///1 333 11118 21177 7////
AAXX 09004 71951 12274 70000 11027 21043 30057 40333 56006 60001 71622 87800 333 11024 21081 70000
AAXX 09004 71957 46664 31806 11163 21228 39959 40049 56012 6///1 333 11158 21239 7////
AAXX 09004 71958 43/// /0000 11105 21116 39278 40250 58005 6///1 333 11093 21153 7////
AAXX 09004 71964 12686 81613 11001 21034 39271 40133 57007 60001 885// 333 10003 21118 70000
AAXX 09004 71966 16/// /0903 11117 21138 39687 40160 58006 60001 333 11117 21180 70000 555 10030
AAXX 09004 71968 47002 /2040 11115 39943 40007 57004 6///1 745// 333 11111 21291 7////
AAXX 09004 71114 16964 00909 10014 21031 30264 40313 55008 60001 333 10028 21019 70000
AAXX 09004 71120 12974 13203 11149 21241 39581 40271 52009 60001 80001 333 11129 21204 70000
AAXX 09004 71122 16/// /1904 11069 21132 38607 40265 53014 60001 333 11053 21170 70000
AAXX 09004 71123 12974 20104 11119 21176 39368 40278 51008 60001 81071 333 11087 21236 70000
AAXX 09004 71125 12974 13006 11202 21238 39654 40274 53011 60001 81070 333 70000
AAXX 09004 71129 12774 20000 11127 21187 39394 40264 53006 60001 82501 333 11105 21181 70000
AAXX 09004 71131 16/// /2706 11140 21179 38944 40260 52006 60001 333 11119 21221 70000
AAXX 09004 71135 16/// /2504 11191 21234 39126 40270 51003 60001 333 11141 21197 70000
AAXX 09004 71137 16/// /0000 11171 21196 39277 40277 53003 60001 333 11124 21241 70000
AAXX 09004 71140 12974 03011 11154 21194 39691 40216 53005 60001 333 11133 21163 79999
AAXX 09004 71145 11462 72915 11159 21192 39782 40086 51021 69941 77172 87500 333 11147 21181 48029 70016 90927
AAXX 09004 71148 16/// /3008 11147 21200 39605 40210 51007 60001 333 11123 21159 70000
AAXX 09004 71182 17311 83016 11109 21129 39353 49893 55007 60051 745// 333 11091 21147 70075
AAXX 09004 71185 17430 9//// 10016 39734 49757 53081 60051 74544 333 10102 21010 70185
AAXX 09004 71188 NIL
AAXX 09004 71200 16/// /0105 10038 21001 60001 333 10054 20017 70000
AAXX 09004 71207 17/// /0101 11010 21023 30237 40303 55003 69931 7//4/ 333 10033 21045 70003
AAXX 09004 71260 NIL
AAXX 09004 71864 NIL
AAXX 09004 71865 16/// /2909 11163 21231 39522 40234 52006 60001 333 11145 21169 70000
AAXX 09004 71866 46964 03007 11159 21229 39616 40259 51009 6///1 333 11124 21167 7////
AAXX 09004 71867 12874 13019 11170 21230 39824 40174 51020 60001 81070 333 11157 21180 70000
AAXX 09004 71868 16/// /2406 11173 21236 39746 40208 52014 60001 333 11151 21184 70000
AAXX 09004 71869 12974 02910 11171 21264 39698 40248 53012 60001 333 11154 21184 79999
AAXX 09004 71871 15966 01901 11161 21193 39425 40273 53011 60001 333 11116 21188 70000
AAXX 09004 71877 12886 73210 11057 21106 38962 40282 53008 60001 87070 333 11045 21086 70000
AAXX 09004 71878 12974 82805 11076 21107 39160 40285 53008 60001 85071 333 11074 21246 70000
AAXX 09004 71879 16764 30304 11125 21179 39433 40275 52009 60001 333 11090 21168 70000
AAXX 09004 71880 11582 20000 11065 21099 39160 40301 53007 69901 70186 81571 333 11045 21082 46997 79999 90942
AAXX 09004 71882 16759 33103 11047 21080 39775 40333 53001 60001 333 11020 21068 70000
AAXX 09004 71883 NIL
AAXX 09004 71887 12586 80802 11038 21087 39915 40355 55009 60001 81570 333 11038 21114 70000
AAXX 09004 71889 11574 73606 11014 21058 39905 40336 53004 69901 70282 82571 333 11003 21036 79999 90961
AAXX 09004 71891 16964 00000 11022 21075 30054 40338 55005 60001 333 10001 21061 70000
AAXX 09004 71892 12580 13106 10019 21003 30301 40306 57006 60001 81100 333 10051 20003 70000
AAXX 09004 71350 16/// /2719 10001 21065 30018 40083 51093 60001 333 10149 20001 70205
AAXX 09004 71351 NIL
AAXX 09004 71352 16/// /2315 11009 21038 39729 40190 51003 60001 333 10003 21025 70000
AAXX 09004 71353 NIL
AAXX 09004 71354 NIL
AAXX 09004 71355 16/// /2611 11197 21260 30086 40174 58007 60001 333 11173 21254 70000
AAXX 09004 71356 NIL
AAXX 09004 71357 NIL
AAXX 09004 71358 16/// /3108 11209 21230 30010 40046 50001 60001 333 11194 21236 70000
AAXX 09004 71359 NIL
AAXX 09004 71360 NIL
AAXX 09004 71361 NIL
AAXX 09004 71362 NIL
AAXX 09004 71363 NIL
AAXX 09004 71364 NIL
AAXX 09004 71365 NIL
AAXX 09004 71368 15966 02214 11008 21040 39803 40199 50005 60001 333 10017 21022 70000
AAXX 09004 71369 15966 01004 11128 21157 39530 40268 58004 60001 333 11112 21185 70000
AAXX 09004 71370 46/// /2104 11020 21069 30006 40144 51014 6///1 333 11002 21054 7////
AAXX 09004 71371 15866 61911 10002 21056 30133 40168 52013 60001 333 10018 21025 70000
AAXX 09004 71372 16/// /1908 10005 21040 60001 333 10019 21028 70022
AAXX 09004 71373 17/// /1904 11005 21074 60011 7//4/ 333 10009 21031 70070
AAXX 09004 71374 NIL
AAXX 09004 71375 NIL
AAXX 09004 71376 16/// /2104 11014 21051 39857 40155 53012 60001 333 11003 21069 70000
AAXX 09004 71377 16/// /2211 10025 21046 30113 40162 52013 60001 333 10025 21023 70003
AAXX 09004 71378 16/// /1202 11077 21113 39925 40138 51011 60001 333 11021 21097 70000
AAXX 09004 71379 16/// /1802 11105 21133 39920 40094 51010 60001 333 11044 21110 70000
AAXX 09004 71380 NIL
AAXX 09004 71381 NIL
AAXX 09004 71382 NIL
AAXX 09004 71383 NIL
AAXX 09004 71384 NIL
AAXX 09004 71385 NIL
AAXX 09004 71386 16/// /3017 11053 21117 39882 40089 51067 60001 333 11011 21053 70090
AAXX 09004 71387 NIL
AAXX 09004 71388 46/// /2206 11086 21112 39933 40125 51023 6///1 333 11036 7////
AAXX 09004 71389 46/// /0000 11054 21071 6///1 333 10010 21060 7////
AAXX 09004 71390 NIL
AAXX 09004 71391 16/// ///// 11004 21044 60001 333 11003 21050 70011
AAXX 09004 71392 NIL
AAXX 09004 71393 NIL
AAXX 09004 71395 11574 22816 10013 21048 39955 40132 52077 69901 70285 82500 333 10141 20009 70397 90931
AAXX 09004 71398 15666 62505 11140 21169 30071 40083 51029 60001 333 11084 21154 70000
AAXX 09004 71399 NIL
AAXX 09004 71603 12669 23218 10038 21051 30124 40177 51051 60001 82500 333 10139 20033 70386
AAXX 09004 71607 16/// /2704 11008 21047 30133 40166 51060 60001 333 10035 21008 70295
AAXX 09004 71609 12674 32912 11004 21078 30026 40160 53072 60001 83500 333 10135 21006 70277
AAXX 09004 71610 15966 01804 11043 21065 39881 40183 51032 60001 333 11010 21049 70055
AAXX 09004 71621 12574 12511 10023 21053 30086 40193 51016 60001 81500 333 10041 21010 70000
AAXX 09004 71623 NIL
AAXX 09004 71624 12974 02211 10013 21051 39983 40198 51007 60001 333 10033 21009 79999
AAXX 09004 71625 16564 62902 11010 21067 39994 40157 51029 60001 333 10023 21036 70000
AAXX 09004 71627 12874 62216 10026 21060 30121 40166 52011 60001 86050 333 10027 21028 70008
AAXX 09004 71628 12974 52313 10013 21058 30026 40168 53021 60001 85070 333 10019 21028 79999
AAXX 09004 71630 NIL
AAXX 09004 71631 16/// /2311 11011 21038 39678 40185 53007 60001 333 10007 21029 70000
AAXX 09004 71633 12574 62615 10011 21070 39897 40171 51012 60001 86500 333 10015 21022 70050
AAXX 09004 71705 11674 42721 11005 21060 30030 40188 53082 69901 78511 84500 333 10136 21005 70300 90910
AAXX 09004 71706 11574 22919 10005 21060 30032 40092 52092 69901 70181 82500 333 10145 20004 70020 90930
AAXX 09004 71707 11574 62617 10026 21011 39972 40047 52097 69941 78082 86500 333 10138 20023 70166 90917
AAXX 09004 71709 11562 72835 10020 21039 30004 40017 57103 69941 70285 87500 333 10124 20020 70248 90941
AAXX 09004 71711 NIL
AAXX 09004 71714 46/// /0000 11073 30081 6///1 333 7////
AAXX 09004 71715 16/// /2504 11047 21111 39948 40132 51040 60001 333 11017 21049 70043 555 10040
AAXX 09004 71718 11683 22617 11041 21104 30047 40113 52063 69901 73677 82500 333 11004 21043 47008 70040 90953
AAXX 09004 71719 NIL
AAXX 09004 71150 46/// /3012 11172 21220 39495 40208 53009 6///1 333 11156 21180 7////
AAXX 09004 71151 NIL
AAXX 09004 71152 17/// /2731 10043 20010 39950 49963 51095 60011 7//4/ 333 10106 20021 70251
AAXX 09004 71153 NIL
AAXX 09004 71154 16/// /0504 11086 21136 60001 333 11002 21257 70007
AAXX 09004 71155 NIL
AAXX 09004 71156 NIL
AAXX 09004 71157 46/// ///// 11126 21157 6///1 333 11092 21170 7////
AAXX 09004 71158 NIL
AAXX 09004 71159 NIL
AAXX 09004 71160 NIL
AAXX 09004 71161 16/// /2315 10016 21055 30025 40175 51020 60001 333 10033 21018 70000
AAXX 09004 71162 NIL
AAXX 09004 71163 46/// /1406 11250 21272 39850 40215 58034 6///1 333 11249 21378 7////
AAXX 09004 71164 NIL
AAXX 09004 71165 NIL
AAXX 09004 71166 NIL
AAXX 09004 71167 15966 82201 11058 21083 39122 40261 57005 60001 333 11056 21235 70000
AAXX 09004 71168 NIL
AAXX 09004 71170 NIL
AAXX 09004 71171 16/// /2410 10024 21028 30102 40200 51012 60001 333 10046 20004 7////
AAXX 09004 71172 16/// ///// 10010 21076 39936 40155 51018 60001 333 10023 21030 70003
AAXX 09004 71175 NIL
AAXX 09004 71176 460// /3513 11112 39281 49964 58020 6///1 333 11104 21119 7////
AAXX 09004 71177 460// ///// 11110 38913 49911 56042 6///1 333 11096 21145 7////
AAXX 09004 71178 17/// /2248 10085 20052 39825 49856 55027 60041 7//4/ 333 10125 20015 7////
AAXX 09004 71179 460// ///// 11043 38934 49740 58122 6///1 333 11043 21179 7////
AAXX 09004 71180 16/// /2538 10035 21005 39948 49986 51098 60001 333 10128 20026 70150
AAXX 09004 71181 17462 82627 10058 20023 39923 49959 53075 60051 743// 333 10128 20027 70135
AAXX 09004 71183 16/// /2114 30122 53011 60001 333 70000
AAXX 09004 71184 46/// /1910 11003 21044 6///1 333 10023 21024 7////
AAXX 09004 71186 NIL
AAXX 09004 71187 15966 00909 10014 21023 30264 40313 55008 60001 333 10024 21019 70000
AAXX 09004 71189 NIL
AAXX 09004 71190 NIL
AAXX 09004 71191 16/// ///// 10000 21055 60001 333 10135 20000 70459
AAXX 09004 71192 15966 03501 11090 21091 39647 40340 56009 69931 333 11066 21133 70006
AAXX 09004 71193 16/// /1905 11115 21130 39738 40111 51015 60001 333 11081 21156 70018 555 10060
AAXX 09004 71196 16/// /2606 11012 21048 39954 40155 51025 60001 333 10015 21032 70000
AAXX 09004 71197 17561 62741 10034 21004 39927 49976 51099 60011 743// 333 10101 20025 70250
AAXX 09004 71198 46/// /2016 10016 21043 6///1 333 10021 21024 7////
AAXX 09004 71199 46/// /2703 11140 21157 39331 40195 58019 6///1 333 11132 21192 7////
AAXX 09004 71102 NIL
AAXX 09004 71105 NIL
AAXX 09004 71107 NIL
AAXX 09004 71110 NIL
AAXX 09004 71111 16966 02308 10060 20035 30296 40304 56011 60001 333 10070 20019 70000
AAXX 09004 71112 16/// ///// 60001 333 70000
AAXX 09004 71113 16/// /3203 10034 21014 30278 40302 55004 60001 333 10052 21025 70000
AAXX 09004 71115 16/// /0000 11032 21065 39737 40339 55002 60001 333 11031 21064 70000
AAXX 09004 71116 16/// /3010 11080 21125 39130 40272 53011 60001 333 11038 21187 70000
AAXX 09004 71118 16/// /3205 11155 21189 39402 40272 53011 60001 333 11104 21209 70000
AAXX 09004 71121 16964 00503 11151 21207 39412 40276 51010 60001 333 11090 21191 70000
AAXX 09004 71127 16/// /0203 11113 21163 39317 40290 53006 60001 333 11080 21180 70000
AAXX 09004 71130 15966 02610 11161 21230 39750 40229 53015 60001 333 11146 21172 70000
AAXX 09004 71132 15966 02808 11195 21230 39886 40215 51022 60001 333 11182 21206 70000
AAXX 09004 71133 NIL
AAXX 09004 71139 16/// /2906 11126 21167 38724 40243 50008 60001 333 11107 21183 70000
AAXX 09004 71141 NIL
AAXX 09004 71142 15666 32013 11188 21204 39247 40268 51002 60001 333 11136 21204 70000
AAXX 09004 71143 NIL
AAXX 09004 71144 NIL
AAXX 09004 71147 16/// /3012 11134 21205 60001 333 11109 21141 70000
AAXX 09004 71149 16/// /2716 11144 21221 60001 333 11116 21159 70000
AAXX 09004 71043 11766 81303 11185 21238 30027 40124 57010 69901 77111 8457/ 333 11183 21288 48019 79999 90921
AAXX 09004 71045 16/// /0403 11056 21068 39300 40184 56010 60001 333 11047 21184 70000 555 10040
AAXX 09004 71050 46/// /2201 11032 21087 39201 40321 56008 6///1 333 11018 21182 7////
AAXX 09004 71051 NIL
AAXX 09004 71052 NIL
AAXX 09004 71066 12974 80000 11232 21280 39814 40264 56019 60001 82048 333 11217 21325 70000
AAXX 09004 71068 12974 80000 11118 21158 39529 40250 56018 69901 70282 8807/ 333 11117 21187 41997 79999 90951
AAXX 09004 71069 16964 01003 11137 21157 39531 40270 58004 60001 333 11118 21198 70000
AAXX 09004 71076 16/// /2603 11234 21261 39834 40250 53011 60001 333 11217 21247 70000
AAXX 09004 71077 16/// /3108 11185 21235 39706 40276 51009 60001 333 11181 21200 70000
AAXX 09004 71079 11574 23115 11192 21260 39813 40104 52024 69901 73671 81530 333 11172 21193 48003 79999 90933
AAXX 09004 71081 46964 01206 11144 21153 39967 49979 53014 6///1 333 11117 21234 7////
AAXX 09004 71082 NIL
AAXX 09004 71083 11920 13520 11271 21312 39911 49954 52035 69901 77677 80001 333 11223 21281 48053 79999 90983
AAXX 09004 71090 46564 33109 11211 21246 30011 40047 50000 6///1 333 11195 21237 7////
AAXX 09004 71091 460// /0907 11149 39790 49999 51015 6///1 333 7////
AAXX 09004 71092 46564 31011 11164 39331 49999 58005 6///1 333 11156 21173 7////
AAXX 09004 71093 460// /3107 11191 39514 40018 51004 6///1 333 11186 21202 7////
AAXX 09004 71094 46004 /1621 11085 39091 49980 56009 6///1 333 11083 21107 7////
AAXX 09004 71095 46564 82204 11157 21180 39951 40031 51013 6///1 333 11100 21192 7////
AAXX 09004 71101 160// /2509 30296 56011 60001 333 70000
AAXX 09004 71104 11774 50000 11085 21104 39176 40341 55003 69901 70272 82501 333 11065 21177 44012 79999 90951
AAXX 09004 71108 12983 21103 10025 21005 30232 40306 56005 60001 80004 333 10040 21030 70000
AAXX 09004 71109 12680 10000 10027 20003 30287 40314 57010 60001 81500 333 10045 21018 70000
AAXX 09004 71604 17/// /2829 11012 21012 60011 7//4/ 333 10128 21013 70183 555 10150
AAXX 09004 71605 16/// /3503 10021 20007 30145 40298 56008 60001 333 10063 20000 70000
AAXX 09004 71611 NIL
AAXX 09004 71612 16/// /2105 10010 21058 30076 40168 53011 60001 333 10025 21027 70020
AAXX 09004 71614 NIL
AAXX 09004 71616 16/// /1906 11024 21060 30045 40167 51022 60001 333 10009 21049 70040
AAXX 09004 71617 16/// /2210 11063 21096 39959 40131 51021 60001 333 11031 21071 70010
AAXX 09004 71618 17/12 /3228 11171 21192 39941 49979 53041 60001 771// 333 11145 21173 70000
AAXX 09004 71619 17/// /2920 11031 21081 39995 40053 51086 60011 7//4/ 333 10013 21031 70270
AAXX 09004 71622 NIL
AAXX 09004 71632 46/// /3117 11207 21250 39681 40140 51025 6///1 333 11191 21207 7////
AAXX 09004 71634 16/// /2809 11047 21071 39939 40094 53074 60001 333 10002 21047 70417 555 10150
AAXX 09004 71638 16/// /3004 10029 21007 30191 40299 56008 60001 333 10039 21015 70000
AAXX 09004 71639 12974 02208 10011 21069 39950 40195 51008 60001 333 10031 21007 79999
AAXX 09004 71642 11416 62707 11093 21109 39566 40122 53023 60021 77172 86500 333 11063 21121 47015 70042 90962
AAXX 09004 71500 NIL
AAXX 09004 71501 NIL
AAXX 09004 71502 NIL
AAXX 09004 71503 NIL
AAXX 09004 71504 NIL
AAXX 09004 71505 46/// /0404 10032 21014 39367 40097 58002 6///1 333 10035 21196 7////
AAXX 09004 71506 NIL
AAXX 09004 71507 16/// /1904 11151 21174 60001 333 11151 21231 70000
AAXX 09004 71508 16/// ///// 10026 21033 30062 40202 50011 60001 333 10043 20006 70000
AAXX 09004 71509 NIL
AAXX 09004 71511 NIL
AAXX 09004 71512 NIL
AAXX 09004 71513 17566 62834 11014 21049 39843 49858 51125 60101 7714/ 333 10008 21033 70298
AAXX 09004 71514 NIL
AAXX 09004 71515 16/// /2911 11163 21211 39502 40235 53004 60001 333 11133 21166 70000
AAXX 09004 71516 16/// /2709 11168 21212 60001 333 11124 21174 70000
AAXX 09004 71517 NIL
AAXX 09004 71518 NIL
AAXX 09004 71519 NIL
AAXX 09004 71520 NIL
AAXX 09004 71521 NIL
AAXX 09004 71522 NIL
AAXX 09004 71523 NIL
AAXX 09004 71524 16/// /1908 10004 21060 30140 40167 51009 60001 333 10017 21046 70020
AAXX 09004 71525 NIL
AAXX 09004 71526 NIL
AAXX 09004 71527 15566 12614 11136 21189 39621 40144 52012 60001 333 11118 21145 70000
AAXX 09004 71528 NIL
AAXX 09004 71529 46/// /2202 11259 21297 39995 40236 58002 6///1 333 11202 21285 7////
AAXX 09004 71532 17556 82311 11006 21023 39818 40167 51016 60001 771// 333 10011 21043 70003
AAXX 09004 71534 16664 62008 10006 21039 39911 40186 53012 60001 333 10028 21056 70015
AAXX 09004 71535 NIL
AAXX 09004 71536 NIL
AAXX 09004 71537 NIL
AAXX 09004 71539 NIL
AAXX 09004 71540 NIL
AAXX 09004 71541 NIL
AAXX 09004 71542 16/// /0806 11225 21249 60001 333 11201 21280 70004
AAXX 09004 71543 NIL
AAXX 09004 71544 NIL
AAXX 09004 71545 16/// ///// 11165 21189 60001 333 11120 21208 70005
AAXX 09004 71546 NIL
AAXX 09004 71547 NIL
AAXX 09004 71548 NIL
AAXX 09004 71549 NIL
AAXX 09004 71201 16/// ///// 10038 21014 60001 333 10062 20020 70000
AAXX 09004 71202 16/// ///// 11139 21177 60001 333 11097 21215 70017
AAXX 09004 71203 15866 83605 11025 21065 39805 40342 53002 60001 333 11021 21038 70000
AAXX 09004 71209 46/// /3310 10043 6///1 333 10043 20032 7////
AAXX 09004 71211 46/// /3203 10030 21002 30290 40302 56007 6///1 333 10036 20014 7////
AAXX 09004 71212 17/// /2402 11121 21138 39317 40137 51032 69931 7//4/ 333 11052 21121 70012 555 10060
AAXX 09004 71213 46/// /2309 11054 21062 39814 40121 53017 6///1 333 11025 21134 7////
AAXX 09004 71214 NIL
AAXX 09004 71215 46/// /3306 10003 21054 39967 40322 53002 6///1 333 10013 21070 7////
AAXX 09004 71216 16/// /0702 11031 21060 39684 40321 53005 60001 333 11007 21066 70000
AAXX 09004 71217 NIL
AAXX 09004 71218 16/// /2401 11028 21052 39901 40345 55003 60001 333 11026 21092 70000
AAXX 09004 71219 46/// /0606 10030 20017 30301 40307 58010 6///1 333 10033 20015 7////
AAXX 09004 71220 46/// /1412 10030 20026 6///1 333 10030 20012 7////
AAXX 09004 71221 NIL
AAXX 09004 71222 16/// /2801 11105 21116 39268 40268 58004 60001 333 11093 21153 70020 555 10020
AAXX 09004 71223 NIL
AAXX 09004 71224 NIL
AAXX 09004 71225 NIL
AAXX 09004 71226 NIL
AAXX 09004 71227 NIL
AAXX 09004 71228 NIL
AAXX 09004 71229 NIL
AAXX 09004 71230 16/// /1401 11065 21093 39309 40229 56010 60001 333 11056 21176 70000
AAXX 09004 71231 16/// /3004 11087 21121 60001 333 11059 21209 70000
AAXX 09004 71232 16/// /0000 11072 21117 38710 40260 53009 60001 333 11057 21175 70000
AAXX 09004 71233 16/// /3601 11082 21156 60001 333 11066 21205 70000
AAXX 09004 71234 16/// /3301 11082 21114 39045 40290 52010 60001 333 11056 21209 70000
AAXX 09004 71235 16/// /3205 11071 21108 60001 333 11059 21174 70000
AAXX 09004 71236 46/// /3006 11049 21124 6///1 333 11034 21193 7////
AAXX 09004 71237 46/// /1301 11165 21183 39419 40284 53008 6///1 333 11129 21255 7////
AAXX 09004 71238 16/// /0000 11166 21195 60001 333 11098 21204 70000
AAXX 09004 71239 16/// /3111 11146 21203 39726 40216 51011 60001 333 11121 21153 70000
AAXX 09004 71240 16/// /0000 11166 21196 39381 40273 53005 60001 333 11088 21197 70000
AAXX 09004 71241 NIL
AAXX 09004 71242 16/// /3003 11082 21138 60001 333 11076 21226 70000 555 10010
AAXX 09004 71243 NIL
AAXX 09004 71244 16/// /3307 11060 21124 38995 40272 53015 60001 333 11050 21199 70000
AAXX 09004 71245 46/// /2416 11091 21150 6///1 333 11088 21139 7////
AAXX 09004 71246 NIL
AAXX 09004 71247 15866 82404 11093 21123 39382 40277 51015 60001 333 11092 21206 70000
AAXX 09004 71248 17/// /3001 11064 21094 38920 40286 52009 69961 7//4/ 333 11063 21272 70006
AAXX 09004 71249 NIL
AAXX 09004 71550 NIL
AAXX 09004 71551 NIL
AAXX 09004 71552 46/// /2916 11132 21183 6///1 333 11124 21139 7////
AAXX 09004 71553 16/// /2909 11183 21227 60001 333 11162 21184 70000
AAXX 09004 71554 17/// /2716 11029 21097 30114 40120 51063 60011 7//4/ 333 11001 21031 70039
AAXX 09004 71555 17/// /3305 11076 21148 38656 40282 53008 69951 7//4/ 333 11020 21157 70008
AAXX 09004 71556 NIL
AAXX 09004 71557 46/// /1502 11042 21071 6///1 333 11038 21088 7////
AAXX 09004 71558 46/// ///// 10030 20018 39610 49645 56100 6///1 333 10058 21057 7////
AAXX 09004 71559 47/// /3010 11143 21209 39512 40244 53004 6///1 7//4/ 333 11109 21153 7////
AAXX 09004 71560 16/// /2908 11144 21203 39884 40209 53011 60001 333 11098 21151 70000
AAXX 09004 71563 NIL
AAXX 09004 71564 16/// /3012 11129 21204 39815 40204 51008 60001 333 11107 21138 70000
AAXX 09004 71565 NIL
AAXX 09004 71566 NIL
AAXX 09004 71567 NIL
AAXX 09004 71568 16/// /3408 10045 20006 30298 40311 56011 60001 333 10051 20027 70000
AAXX 09004 71569 16/// /2811 11144 21199 39504 40235 53004 60001 333 11117 21157 70000
AAXX 09004 71570 16/// /2805 11153 21214 39847 40172 53007 60001 333 11131 21158 70005
AAXX 09004 71571 NIL
AAXX 09004 71572 NIL
AAXX 09004 71573 16/// /2504 10009 21031 39920 40207 52008 60001 333 10033 21023 70000
AAXX 09004 71574 11574 12715 11035 21070 30006 40079 52077 69901 70181 81500 333 10016 21040 70278 90941
AAXX 09004 71575 17/// /2208 11081 21139 39868 49932 53019 69931 7//4/ 333 11075 21124 70012
AAXX 09004 71576 NIL
AAXX 09004 71577 NIL
AAXX 09004 71578 16/// /2504 11040 21092 60001 333 11005 21040 70030
AAXX 09004 71579 NIL
AAXX 09004 71580 11574 23616 11163 21188 39975 40011 52014 69901 77170 82530 333 11131 21182 44029 79999 90987
AAXX 09004 71581 NIL
AAXX 09004 71582 15666 63202 10020 20013 30275 40329 56012 60001 333 10032 21020 70000
AAXX 09004 71583 NIL
AAXX 09004 71584 17648 62726 11026 21056 39868 49914 53081 60001 771// 333 11019 21035 70000
AAXX 09004 71585 NIL
AAXX 09004 71586 16/// /3008 11196 21242 39742 40232 53013 60001 333 11182 21208 70000
AAXX 09004 71587 NIL
AAXX 09004 71588 16/// /2524 10008 21016 60001 333 10078 21008 70000
AAXX 09004 71589 17/// /2319 10053 20029 39744 49873 53021 60051 7//4/ 333 10117 21004 70078
AAXX 09004 71590 16/// /3105 11051 21088 39938 40131 52057 60001 333 11007 21051 70056 555 10090
AAXX 09004 71592 NIL
AAXX 09004 71593 NIL
AAXX 09004 71596 NIL
AAXX 09004 71598 17/58 /2827 11018 21073 30055 40061 53098 60011 7//4/ 333 10031 21028 70348 555 10010
AAXX 09004 71599 16/// /3003 11003 21031 39963 40165 51068 60001 333 10136 21006 70568
AAXX 09004 71812 46956 33316 11223 21261 39953 49967 6///1 333 11209 21242 7////
AAXX 09004 71819 17566 82334 10034 20016 39612 49651 56101 60051 7004/ 333 10057 21061 70110
AAXX 09004 71820 16/// /2514 10033 21041 30072 40188 51017 60001 333 10043 21008 70000
AAXX 09004 71823 16564 82012 11148 21160 39649 40036 53003 60001 333 11107 21149 70005
AAXX 09004 71824 46/// /2104 11082 21090 6///1 333 11080 21106 7////
AAXX 09004 71826 17/// /1002 11061 21077 39931 49972 58003 60031 7//4/ 333 11040 21067 70058
AAXX 09004 71829 17/// /2515 11066 21117 39918 40081 51072 69991 7//4/ 333 11017 21067 70074
AAXX 09004 71833 NIL
AAXX 09004 71835 16/// /2716 11157 21208 39595 40090 51019 60001 333 11152 21181 70000
AAXX 09004 71837 NIL
AAXX 09004 71839 NIL
AAXX 09004 71840 46/// /3012 11138 21199 6///1 333 11114 21147 7////
AAXX 09004 71846 16/// /2307 11171 21191 39744 40069 51011 60001 333 11147 21188 70000
AAXX 09004 71847 NIL
AAXX 09004 71848 NIL
AAXX 09004 71849 16/// /2712 11150 21195 39877 40193 51008 60001 333 11124 21162 70000
AAXX 09004 71900 46/// /04// 11012 21017 39822 49834 58097 6///1 333 11012 21111 7////
AAXX 09004 71903 NIL
AAXX 09004 71904 NIL
AAXX 09004 71914 16/// /2701 10015 21004 30077 40303 56010 60001 333 10025 20014 70000
AAXX 09004 71916 NIL
AAXX 09004 71918 460// ///// 11237 6///1 333 7////
AAXX 09004 71920 NIL
AAXX 09004 71921 NIL
AAXX 09004 71923 NIL
AAXX 09004 71927 NIL
AAXX 09004 71941 15866 62204 11073 21121 39701 40125 51030 60001 333 11034 21082 70000
AAXX 09004 71947 17766 62505 11117 21129 39753 40108 53045 69981 7004/ 333 11071 21161 70008
AAXX 09004 71851 16/// /2809 11138 21196 39846 40195 53011 60001 333 11119 21148 70000
AAXX 09004 71857 NIL
AAXX 09004 71860 12983 82903 11070 21109 38828 40292 53007 60001 8807/ 333 11069 21216 70000
AAXX 09004 71876 15966 03104 11148 21193 39577 40274 53011 60001 333 11110 21176 70000
AAXX 09004 71885 NIL
AAXX 09004 71888 NIL
AAXX 09004 71895 NIL
AAXX 09004 71700 15966 02410 11014 21059 30126 40152 51072 60001 333 10032 21014 70308
AAXX 09004 71701 11574 12709 11015 21070 30092 40155 52075 69901 70177 81500 333 10024 21015 70286 90960
AAXX 09004 71702 16/// /2924 10001 21064 30079 40094 51092 60001 333 10142 21001 70209
AAXX 09004 71703 NIL
AAXX 09004 71704 15966 62208 10003 21034 39987 40212 51008 60001 333 10038 21030 70003
AAXX 09004 71710 16/// /2735 10016 21033 30005 40014 51104 60001 333 10120 20016 70227
AAXX 09004 71712 16/// /2312 10016 21046 30109 40171 53015 60001 333 10026 21015 70000
AAXX 09004 71713 16/// /2516 11027 21095 60001 333 10003 21027 70058
AAXX 09004 71716 NIL
AAXX 09004 71717 NIL
AAXX 09004 71720 16/// /0301 10024 20001 30156 40312 57007 60001 333 10028 20000 70000
AAXX 09004 71721 NIL
AAXX 09004 71723 16/// /1906 11011 21062 30146 40156 51015 60001 333 10012 21025 70017
AAXX 09004 71724 NIL
AAXX 09004 71732 NIL
AAXX 09004 71733 17/// /2309 11069 21121 39704 40145 51023 69981 7//4/ 333 11017 21117 70019 555 10020
AAXX 09004 71734 NIL
AAXX 09004 71736 NIL
AAXX 09004 71737 NIL
AAXX 09004 71741 16/// /0902 11039 21088 39912 40352 55008 60001 333 11039 21115 70000
AAXX 09004 71742 NIL
AAXX 09004 71743 NIL
AAXX 09004 71744 NIL
AAXX 09004 71745 NIL
AAXX 09004 71746 NIL
AAXX 09004 71747 NIL
AAXX 09004 71748 NIL
AAXX 09004 71001 NIL
AAXX 09004 71002 NIL
AAXX 09004 71003 NIL
AAXX 09004 71005 16/// ///// 11157 21192 60001 333 11091 21208 7////
AAXX 09004 71006 NIL
AAXX 09004 71007 NIL
AAXX 09004 71008 NIL
AAXX 09004 71009 NIL
AAXX 09004 71010 NIL
AAXX 09004 71011 NIL
AAXX 09004 71012 NIL
AAXX 09004 71013 NIL
AAXX 09004 71014 NIL
AAXX 09004 71015 NIL
AAXX 09004 71016 NIL
AAXX 09004 71017 NIL
AAXX 09004 71018 NIL
AAXX 09004 71019 NIL
AAXX 09004 71020 NIL
AAXX 09004 71021 NIL
AAXX 09004 71022 17148 80802 10020 20019 30269 40314 58010 69931 7104/ 333 10024 21020 70003
AAXX 09004 71023 16964 03205 11191 21278 39457 40269 51007 60001 333 11160 21231 70000
AAXX 09004 71024 16/// /1001 11254 21279 60001 333 11213 21286 70000
AAXX 09004 71026 NIL
AAXX 09004 71027 17/// /2811 10026 21003 30009 40019 51099 60021 7//4/ 333 10149 20024 70234
AAXX 09004 71028 16/// /0000 11046 21067 39261 40336 56002 60001 333 10009 21134 70000
AAXX 09004 71029 16/// /0707 11225 21248 30120 40161 57028 60001 333 11212 21261 70000
AAXX 09004 71030 16/64 /2710 10006 21055 30078 40167 51061 60001 333 10187 20004 70298
AAXX 09004 71032 46/// /0000 11050 21079 39471 40336 55001 6///1 333 11035 21121 7////
AAXX 09004 71033 46/// /3010 11222 21251 39557 40220 53018 6///1 333 11197 21224 7////
AAXX 09004 71035 NIL
AAXX 09004 71036 15966 02819 11137 21198 39806 40197 51010 60001 333 11123 21147 70000
AAXX 09004 71039 46/// /3302 11126 6///1 333 11126 21212 7////
AAXX 09004 71040 46/// /2504 11070 21111 39917 40119 51019 6///1 333 11038 21075 7////
AAXX 09004 71041 17566 82617 10030 21006 39939 40079 51084 60001 761// 333 10146 20025 70183
AAXX 09004 71042 16/// /2902 10024 21001 30295 40299 58008 60001 333 10054 21003 70000
AAXX 09004 71044 16/// /2304 11135 21151 39757 40085 57011 60001 333 11135 21296 70008
AAXX 09004 71046 460// /2507 11119 39997 40014 53010 6///1 333 11024 21208 7////
AAXX 09004 71047 16/// ///// 11143 21175 60001 333 11107 21210 70006
AAXX 09004 71048 NIL
AAXX 09004 71049 NIL
AAXX 09004 71060 NIL
AAXX 09004 71063 NIL
AAXX 09004 71665 17/// /3218 11071 21082 39904 49914 58051 60041 7//4/ 333 11068 21125 70036 555 10050
AAXX 09004 71666 16/// /2715 11005 21053 30065 40110 51087 60001 333 10068 21006 70234
AAXX 09004 71667 NIL
AAXX 09004 71668 16/// /2714 11011 21061 30104 40148 51073 60001 333 10028 21013 70332
AAXX 09004 71669 NIL
AAXX 09004 71670 16/// ///// 11013 21072 60001 333 10047 21013 70272
AAXX 09004 71671 NIL
AAXX 09004 71672 16/// /2306 10001 21058 39916 40184 51015 60001 333 10026 21019 70007
AAXX 09004 71673 NIL
AAXX 09004 71674 NIL
AAXX 09004 71675 17666 32813 11179 21216 39755 40043 51018 60061 70044 333 11170 21195 70242
AAXX 09004 71679 16/// /0603 11020 21046 39245 40287 56005 60001 333 10005 21105 70000
AAXX 09004 71680 NIL
AAXX 09004 71681 46/// /2701 11040 21084 6///1 333 11036 21081 7////
AAXX 09004 71682 NIL
AAXX 09004 71683 NIL
AAXX 09004 71684 17420 82210 11055 21069 39817 40125 53017 60001 771// 333 11026 21132 70000
AAXX 09004 71685 15966 03303 11039 21074 39774 40332 53001 60001 333 11019 21068 70000
AAXX 09004 71686 NIL
AAXX 09004 71687 16/// /3402 11028 21054 39499 40305 55001 60001 333 11010 21081 70000
AAXX 09004 71688 16/// /0801 11030 21041 39227 40289 55001 60001 333 10007 21081 70000 555 10010
AAXX 09004 71689 15966 02102 11219 21264 39806 40291 53003 60001 333 11173 21260 70000
AAXX 09004 71690 NIL
AAXX 09004 71691 15966 02712 11064 21106 30067 40095 51066 60001 333 11007 21065 70000
AAXX 09004 71692 NIL
AAXX 09004 71694 17/// /2608 10000 21080 39807 40174 52013 69971 7//4/ 333 10007 21043 70011
AAXX 09004 71695 NIL
AAXX 09004 71696 16/// /3127 11172 21192 39935 49972 53040 60001 333 11145 21174 70003
AAXX 09004 71697 15966 02309 10016 21060 30021 40194 51010 60001 333 10038 21007 70000
AAXX 09004 71699 16/// /2809 10009 21050 30158 40165 51071 60001 333 10117 20009 70217
AAXX 09004 71914 46/// /2701 10015 21004 30077 6///1 333 20018 7////
AAXX 09004 71450 NIL
AAXX 09004 71451 16/// /2909 11181 21226 39743 40188 53025 60001 333 11155 21190 70000
AAXX 09004 71452 46/// /2910 11139 21208 39506 40248 51007 6///1 333 11110 21150 7////
AAXX 09004 71453 NIL
AAXX 09004 71454 16/// /2907 11185 21267 39517 40243 53012 60001 333 11171 21201 70000
AAXX 09004 71455 46/// /2910 11141 21179 39425 40259 51004 6///1 333 11110 21171 7////
AAXX 09004 71456 NIL
AAXX 09004 71457 16/// /3207 11085 21127 39335 40268 53013 60001 333 11085 21247 70000
AAXX 09004 71458 16/// /2902 11167 21191 39468 40287 52013 60001 333 11105 21216 70000
AAXX 09004 71459 16/// /3003 11159 21196 39419 40273 53004 60001 333 11119 21213 70000
AAXX 09004 71460 16/// /2619 11016 21070 39917 40161 51022 60001 333 10006 21032 70000
AAXX 09004 71461 NIL
AAXX 09004 71462 NIL
AAXX 09004 71463 NIL
AAXX 09004 71464 NIL
AAXX 09004 71465 46/// /2214 10026 21017 39999 40219 50007 6///1 333 10033 21013 7////
AAXX 09004 71466 NIL
AAXX 09004 71468 NIL
AAXX 09004 71470 NIL
AAXX 09004 71471 15866 32303 11093 21111 39412 40231 57015 60001 333 11078 21214 70000
AAXX 09004 71473 16/// /3305 10013 21014 30274 40305 56009 60001 333 10024 20013 70000
AAXX 09004 71475 16/// /2802 11003 21007 30219 40315 56010 60001 333 11001 21014 70000
AAXX 09004 71476 NIL
AAXX 09004 71477 16/// /1706 10050 20042 60001 333 10057 20026 70014
AAXX 09004 71478 NIL
AAXX 09004 71479 NIL
AAXX 09004 71480 NIL
AAXX 09004 71481 NIL
AAXX 09004 71482 NIL
AAXX 09004 71483 NIL
AAXX 09004 71484 NIL
AAXX 09004 71485 16/// /3106 10048 20008 30293 40314 56008 60001 333 10057 20026 70000
AAXX 09004 71486 16/// /1803 11065 21105 39045 40296 53002 60001 333 11057 21196 70000
AAXX 09004 71487 16/// /2708 11161 21196 39352 40262 50000 60001 333 11140 21188 70000
AAXX 09004 71489 16/// /3505 11164 21216 39427 40286 53008 60001 333 11113 21196 70000
AAXX 09004 71490 NIL
AAXX 09004 71491 16/// /1302 11167 21189 60001 333 11056 21357 70000
AAXX 09004 71492 NIL
AAXX 09004 71493 16/// /2711 10007 21060 30094 40132 51083 60001 333 10158 20006 70299
AAXX 09004 71494 NIL
AAXX 09004 71495 NIL
AAXX 09004 71496 16/// /3107 11160 21204 39614 40256 52010 60001 333 11123 21166 70000
AAXX 09004 71497 46/// /2309 11117 21143 39879 40153 56043 6///1 333 11117 21213 7////
AAXX 09004 71498 NIL
AAXX 09004 71499 15966 02911 11202 21233 39557 40215 53018 60001 333 11179 21202 70000
AAXX 09001 01441 16/// /1704 11013 21031 38737 49692 58042 60041 333 91113
AAXX 09001 01488 16/// /1204 10007 21001 60061 333 4/020 91109
AAXX 09001 01025 17/84 01001 11091 21112 30025 40036 57000 6//// 700// 333 91105
AAXX 09001 13173 32998 02702 10006 21020 30160 40264 58002
AAXX 09001 13180 NIL
AAXX 09001 13266 32998 02302 10009 21006 30171 40275 52003
AAXX 09001 13369 31992 00701 11125 21129 39054 48496 56003 74644
AAXX 09001 13383 32997 03601 11011 21025 30070 40283 50010
AAXX 09001 13384 32998 00000 11016 21022 30124 40283 51006
AAXX 09001 13389 32998 00000 11022 21029 39989 40289 51006
AAXX 09001 13477 NIL
AAXX 09001 13492 NIL
AAXX 09001 13584 NIL
AAXX 09001 13585 NIL
AAXX 09001 13597 NIL
AAXX 09001 13598 NIL
AAXX 09001 13168 32998 02002 10021 21012 30155 40265 58006
AAXX 09001 13174 32997 02703 10019 21023 30153 40257 50001
AAXX 09001 13269 32998 02502 10014 21017 30058 40280 58008
AAXX 09001 13274 32998 02701 10039 21022 30103 40268 58006
AAXX 09001 13278 32998 02001 10012 21012 30051 40284 51002
AAXX 09001 13378 12398 80502 11070 21081 38304 48522 54000 69941 885//
AAXX 09001 13397 32698 41201 11020 21029 39720 40283 51007 84500
AAXX 09001 13457 NIL
AAXX 09001 13481 NIL
AAXX 09004 16560 12570 13405 10110 20076 30254 40260 58002 60001 81200 333 81820
AAXX 09004 17500 NIL
AAXX 09004 17501 NIL
AAXX 09004 17505 NIL
AAXX 09004 17507 NIL
AAXX 09004 17510 12560 20000 10126 20087 30121 40131 56001 60001 82100 333 82830 92417
AAXX 09004 17515 NIL
AAXX 09004 17521 12560 40000 10092 20081 30013 40152 51000 60001 84800 333 82830 83640
AAXX 09004 17530 NIL
AAXX 09004 17535 NIL
AAXX 09004 17540 NIL
AAXX 09004 17547 NIL
AAXX 09004 17550 NIL
AAXX 09004 17572 12560 2//// 10130 20085 30139 40164 51001 60001 82100 333 82830 92417
AAXX 09004 65352 31930 70404 10220 20055 3//// 4//// 70522 80002 333 5//// 87076
AAXX 09004 65361 32958 70000 10215 20051 3//// 4//// 80002 333 5//// 87076
AAXX 09004 65376 32960 72804 10241 20197 39644 40099 80002 333 59011 87076
AAXX 09004 65387 32960 73002 10265 20251 30065 40083 80002 333 59015 87073
AAXX 09001 33088 /1597 83202 10002 21004 39976 40172 52022 70252 885// 555 69901
AAXX 09001 33177 NIL
AAXX 09001 33261 /1396 81302 11014 21022 39973 40160 52007 71072 886// 333 88707 555 69981
AAXX 09001 33275 32997 81701 11014 21031 39938 40168 52006 8805/
AAXX 09001 33301 /1397 83105 10004 20001 39890 40178 51022 70282 885// 333 86708 555 69941
AAXX 09001 33325 /1296 83201 10017 20006 39884 40157 52021 75152 886// 333 88705 555 69901
AAXX 09001 33377 31/93 91801 11011 21011 39962 40161 52007 74942
AAXX 09001 33415 /1397 83205 10007 21004 39781 40189 52022 70282 8633/ 333 84708 555 69971
AAXX 09001 33429 /1397 83105 10006 20001 39747 40179 52021 70282 886// 333 88709 555 69951
AAXX 09001 33466 31658 81901 10012 21002 39965 40156 52010 71022 885// 333 88640
AAXX 09001 33526 /1360 82906 10020 20007 39858 40204 52018 78582 883// 333 85709 555 69931
AAXX 09001 33562 /1397 82703 10010 21001 39795 40163 52016 70282 8565/ 333 85709 555 69931
AAXX 09001 33614 31312 82402 10003 21005 30052 40159 52011 71042 886// 333 88707
AAXX 09001 33761 31696 72902 11001 21010 39935 40164 52011 71011 87500 333 87644
AAXX 09001 33902 /1/93 91902 10018 20018 30087 40154 53021 74484 555 60011
AAXX 09001 33983 32387 83403 10003 21014 30093 40156 52001 86701 333 85709
AAXX 09001 34415 /1397 80000 10010 20005 30062 40160 53012 75152 886// 555 69901
AAXX 09001 34523 31395 80901 10041 20036 30066 40143 52006 71022 886// 333 88709
AAXX 09001 34712 NIL
AAXX 09004 17042 12670 51003 10086 20030 30112 40151 52013 60001 83250 333 83835 85360 92438
AAXX 09004 17074 11662 51902 10002 21004 39224 40173 58003 69921 70162 83530 333 83633 85360 91105
AAXX 09004 17086 11662 81005 10041 20035 39416 40132 53004 60031 76022 8552/ 333 85633 88459
AAXX 09004 17088 12670 81303 10028 21036 38753 48458 58005 60001 8552/ 333 85640 88460
AAXX 09004 17140 NIL
AAXX 09004 17155 NIL
AAXX 09004 17203 11670 70000 11004 21075 38867 48517 56004 69901 70272 84250 333 84840 87360
AAXX 09004 17237 12665 71701 10049 20032 39680 40190 55003 60001 87420 333 84835 87460 91104
AAXX 09004 17250 NIL
AAXX 09004 17270 11665 80901 10069 20007 39518 40164 57044 69961 72162 85510 333 85637 88460
AAXX 09004 17295 12960 03505 10075 20037 30175 40182 53002 60001
AAXX 09004 17320 NIL
AAXX 09004 17375 12970 03502 10099 20021 30147 40149 57007 60001 333 91105 92418
AAXX 09004 08055 NIL
AAXX 09004 08075 NIL
AAXX 09004 08084 02975 7//// 10033 20020 39831 40279 58005 60001 80006 333 60007
AAXX 09004 08184 06/// /0000 10068 20057 30090 40249 58008 60001 333 60007
AAXX 09004 08202 01/08 90000 11007 21011 39335 42867 58009 60001 74522 333 60007
AAXX 09004 08235 NIL
AAXX 09004 08238 NIL
AAXX 09004 08280 12965 31904 10028 20013 39441 40291 58005 60001 80005
AAXX 09004 08330 NIL
AAXX 09004 08348 NIL
AAXX 09004 08360 06970 03004 10094 20073 30228 40266 58010 60001 333 60007
AAXX 09004 08373 02562 53302 10109 20103 30240 40262 58010 60001 84101 333 60007
AAXX 09004 08410 06/// /0000 10058 20044 30154 40268 57004 60001 333 60007
AAXX 09004 08419 07/59 /1701 10030 20017 39595 40289 58007 60001 71011 333 60007
AAXX 09004 08451 06/// /0000 10082 20079 30226 40260 58006 60001 333 60007
AAXX 09004 08487 06/// /3406 10100 20083 30238 40264 58007 60001 333 60007
AAXX 09004 08482 12465 62907 10102 20073 30261 40270 58003 60001 85601
AAXX 09004 71808 11358 82035 10019 20018 39571 49615 58105 60501 76176 885// 333 10030 21039 44016 70600 90976
AAXX 09004 71397 11574 62825 10020 21067 30122 40156 52069 69901 70288 86500 333 10162 20018 70372 90942
AAXX 09004 71400 17/64 /2414 10027 20006 60061 7//4/ 333 10111 21016 70144
AAXX 09004 71403 46/// /2724 10037 21016 30097 40117 53077 6///1 333 10124 20037 7////
AAXX 09004 71411 16/// /2810 10018 21043 30155 40167 51076 60001 333 10127 20016 70142
AAXX 09004 71412 16/// /2720 10014 21035 30056 40065 53096 60001 333 10124 20014 70216
AAXX 09004 71421 NIL
AAXX 09004 71430 16/// /2532 10051 21020 30092 40189 51012 60001 333 10052 20010 70003
AAXX 09004 71431 16/// /2622 10038 21028 30085 40182 51011 60001 333 10041 20000 70000
AAXX 09004 71432 16/// /2409 10034 21011 30107 40205 51013 60001 333 10055 20019 70000
AAXX 09004 71433 NIL
AAXX 09004 71435 NIL
AAXX 09004 71441 46/// /2809 11140 21207 39875 40197 53010 6///1 333 11097 21144 7////
AAXX 09004 71443 16/// /2610 11159 21228 39770 40201 53012 60001 333 11145 21175 70000
AAXX 09004 71444 16/// /2807 11176 21222 39400 40192 51011 60001 333 11152 21191 70000
AAXX 09004 71447 16/// /2807 11136 21187 39658 40227 53007 60001 333 11109 21153 70000
AAXX 09004 71467 NIL
AAXX 09004 71472 NIL
AAXX 09004 71474 16664 61902 11089 21109 39046 40343 56004 60001 333 11078 21164 70000
AAXX 09004 71510 16/// /2603 11159 21199 39516 40257 56001 60001 333 11108 21179 70000
AAXX 09004 71538 12962 32308 11001 21039 39992 40227 51008 60001 80001 333 10028 21027 70000
AAXX 09004 71600 16561 62725 10075 20023 30109 40115 51061 60001 333 10149 20075 70090
AAXX 09004 71601 NIL
AAXX 09004 71816 11/08 93420 11032 21041 39646 49706 57090 60301 77373 333 11016 21170 48043 70326 90973 93130
AAXX 09004 71817 NIL
AAXX 09004 71818 11616 91023 10006 21001 39623 49640 57201 60161 77177 837// 333 10008 21151 43160 70160 90973
AAXX 09004 71822 11316 81907 11089 21104 39591 40073 58001 69941 77171 885// 333 11081 21118 47022 70012 90936
AAXX 09004 71825 11459 83210 11123 21148 39303 49981 52027 60010 77177 85500 333 11090 21131 47082 70082 90983
AAXX 09004 71827 11532 81906 11133 21145 39776 40024 50004 69961 77181 88500 333 11107 21168 47017 70012 90927 93101
AAXX 09004 71828 17428 83213 11119 21139 39323 49966 51008 60021 74544 333 11103 21146 70025
AAXX 09004 71831 11974 32305 11126 21158 39819 40108 53018 69901 70171 83030 333 11091 21145 47016 70004 90931
AAXX 09004 71832 NIL
AAXX 09004 71834 11574 22708 11141 21167 39673 40114 51016 69961 77177 82500 333 11120 21166 48011 70022 90973 93101
AAXX 09004 71841 NIL
AAXX 09004 71842 11674 12615 11143 21222 39652 40139 53015 69901 70288 81500 333 11130 21154 48003 79999 90952
AAXX 09004 71844 16664 32712 11179 21230 39757 40044 51019 60001 333 11170 21195 70000
AAXX 09004 71845 11566 62514 11157 21223 39603 40094 52019 69901 77177 86500 333 11152 21184 43008 79999 90973
AAXX 09004 71850 12974 22710 11159 21224 39645 40165 52013 60001 80001 333 11124 21160 70002
AAXX 09004 71852 16964 02812 11150 21189 39878 40185 51008 60001 333 11125 21164 70000
AAXX 09004 71854 11569 72711 11165 21216 39646 40138 52017 69901 77177 86570 333 11149 21167 70006 90983
AAXX 09004 71858 NIL
AAXX 09004 71861 16/// /3008 11162 21219 39468 40226 53007 60001 333 11135 21164 7////
AAXX 09004 71862 12974 13010 11145 21218 39514 40246 53003 60001 80001 333 11109 21154 70000
AAXX 09004 71863 46964 33108 11163 21225 39521 40252 53007 6///1 333 11121 21164 7////
AAXX 09004 71930 12874 72603 11081 21164 39291 40262 57003 60001 87070 333 11078 21191 70000
AAXX 09004 71931 16/// /2438 10083 20035 39795 49807 55021 60001 333 10123 20008 70000
AAXX 09004 71934 11974 10000 11272 21288 39991 40266 50002 69901 70171 80001 333 11204 21272 44019 79999 90952
AAXX 09004 71935 12974 61203 11232 21280 30020 40241 57028 60001 80001 333 11231 21287 70000
AAXX 09004 71936 12674 10703 11290 21331 39967 40247 58018 60001 81501 333 11274 21304 70000
AAXX 09004 71937 NIL
AAXX 09004 71938 12966 42106 11241 21278 30174 40205 56025 60001 80001 333 11238 21269 79999
AAXX 09004 71940 12882 80000 11063 21086 39410 40243 57011 60001 86071 333 11059 21194 70000
AAXX 09004 71943 12874 81703 11086 21125 39358 40224 57017 60001 85501 333 11083 21161 70000
AAXX 09004 71944 160// ///// 11080 58002 60001 333 11078 21167 70000
AAXX 09004 71945 11780 70000 11109 21152 39695 40182 58032 69901 70277 83570 333 11109 21228 47012 70020 90952
AAXX 09004 71946 12774 81205 11204 21227 39953 40181 58040 60001 8852/ 333 11202 21339 70000
AAXX 09004 71948 47956 01223 11198 39998 40115 56043 6///1 745// 333 11197 21274 7////
AAXX 09004 71949 46/// /1204 11119 21139 39264 40159 58011 6///1 333 11118 21177 7////
AAXX 09004 71951 12274 70000 11027 21043 30057 40333 56006 60001 71622 87800 333 11024 21081 70000
AAXX 09004 71957 46664 31806 11163 21228 39959 40049 56012 6///1 333 11158 21239 7////
AAXX 09004 71958 43/// /0000 11105 21116 39278 40250 58005 6///1 333 11093 21153 7////
AAXX 09004 71964 12686 81613 11001 21034 39271 40133 57007 60001 885// 333 10003 21118 70000
AAXX 09004 71966 16/// /0903 11117 21138 39687 40160 58006 60001 333 11117 21180 70000 555 10030
AAXX 09004 71968 47002 /2040 11115 39943 40007 57004 6///1 745// 333 11111 21291 7////
AAXX 09004 71893 12680 23603 10029 21014 30279 40311 56008 60001 81501 333 10048 21013 70000
AAXX 09004 71894 16/// /1402 10042 20036 30287 40296 56012 60001 333 10060 20003 70002
AAXX 09004 71896 15966 01004 11098 21111 39460 40332 51001 60001 333 11068 21177 70013
AAXX 09004 71897 NIL
AAXX 09004 71898 160// ///// 10024 58010 69951 333 10026 21020 70005
AAXX 09004 71899 NIL
AAXX 09004 71902 11240 83215 11068 21090 39909 49917 58052 60061 7717/ 887// 333 11063 21125 70066 90929 93123
AAXX 09004 71905 NIL
AAXX 09004 71906 12974 82604 11127 21156 39945 49996 55002 60001 88010 333 11088 21127 79999
AAXX 09004 71907 17411 92219 11101 21137 39895 49927 51009 60001 745// 333 11071 21106 70005
AAXX 09004 71909 16464 33102 11139 21147 39937 49980 53005 60001 333 11079 21158 70015
AAXX 09004 71910 46564 32009 11080 21139 39873 49935 51016 6///1 333 11075 21125 7////
AAXX 09004 71911 47011 83617 11159 39941 49997 51021 6///1 745// 333 11140 21164 7////
AAXX 09004 71912 11340 83021 11184 21239 39853 40042 53029 69941 77177 84510 333 11170 21185 48012 70010 90983
AAXX 09004 71915 11574 10318 11187 21220 39849 49931 52015 69901 77677 81500 333 11187 21246 48045 79999 90983
AAXX 09004 71917 11974 01002 11369 21414 30167 40182 57006 69901 77677 333 11334 21375 47013 79999 90983
AAXX 09004 71922 12974 02915 11194 21257 39745 40236 53013 60001 333 11181 21208 70000
AAXX 09004 71924 11674 60423 11200 21246 30000 40091 57007 60001 73622 84530 333 11184 21239 48037 70000
AAXX 09004 71925 11259 23215 11282 21311 30107 40150 56005 69901 73870 82600 333 11235 21283 42019 79999 90961
AAXX 09004 71926 11608 13527 11177 21220 39966 49991 51039 69941 77173 81500 333 11159 21248 48042 70034 90913
AAXX 09004 71928 16/// /2705 11072 21095 39061 40282 51008 60001 333 11068 21278 70000
AAXX 09004 71043 11766 81303 11185 21238 30027 40124 57010 69901 77111 8457/ 333 11183 21288 48019 79999 90921
AAXX 09004 71045 16/// /0403 11056 21068 39300 40184 56010 60001 333 11047 21184 70000 555 10040
AAXX 09004 71050 46/// /2201 11032 21087 39201 40321 56008 6///1 333 11018 21182 7////
AAXX 09004 71051 NIL
AAXX 09004 71052 NIL
AAXX 09004 71066 12974 80000 11232 21280 39814 40264 56019 60001 82048 333 11217 21325 70000
AAXX 09004 71068 12974 80000 11118 21158 39529 40250 56018 69901 70282 8807/ 333 11117 21187 41997 79999 90951
AAXX 09004 71069 16964 01003 11137 21157 39531 40270 58004 60001 333 11118 21198 70000
AAXX 09004 71076 16/// /2603 11234 21261 39834 40250 53011 60001 333 11217 21247 70000
AAXX 09004 71077 16/// /3108 11185 21235 39706 40276 51009 60001 333 11181 21200 70000
AAXX 09004 71079 11574 23115 11192 21260 39813 40104 52024 69901 73671 81530 333 11172 21193 48003 79999 90933
AAXX 09004 71081 46964 01206 11144 21153 39967 49979 53014 6///1 333 11117 21234 7////
AAXX 09004 71082 NIL
AAXX 09004 71083 11920 13520 11271 21312 39911 49954 52035 69901 77677 80001 333 11223 21281 48053 79999 90983
AAXX 09004 71090 46564 33109 11211 21246 30011 40047 50000 6///1 333 11195 21237 7////
AAXX 09004 71091 460// /0907 11149 39790 49999 51015 6///1 333 7////
AAXX 09004 71092 46564 31011 11164 39331 49999 58005 6///1 333 11156 21173 7////
AAXX 09004 71093 460// /3107 11191 39514 40018 51004 6///1 333 11186 21202 7////
AAXX 09004 71094 46004 /1621 11085 39091 49980 56009 6///1 333 11083 21107 7////
AAXX 09004 71095 46564 82204 11157 21180 39951 40031 51013 6///1 333 11100 21192 7////
AAXX 09004 71101 160// /2509 30296 56011 60001 333 70000
AAXX 09004 71104 11774 50000 11085 21104 39176 40341 55003 69901 70272 82501 333 11065 21177 44012 79999 90951
AAXX 09004 71108 12983 21103 10025 21005 30232 40306 56005 60001 80004 333 10040 21030 70000
AAXX 09004 71109 12680 10000 10027 20003 30287 40314 57010 60001 81500 333 10045 21018 70000
AAXX 09004 71603 12669 23218 10038 21051 30124 40177 51051 60001 82500 333 10139 20033 70386
AAXX 09004 71607 16/// /2704 11008 21047 30133 40166 51060 60001 333 10035 21008 70295
AAXX 09004 71609 12674 32912 11004 21078 30026 40160 53072 60001 83500 333 10135 21006 70277
AAXX 09004 71610 15966 01804 11043 21065 39881 40183 51032 60001 333 11010 21049 70055
AAXX 09004 71621 12574 12511 10023 21053 30086 40193 51016 60001 81500 333 10041 21010 70000
AAXX 09004 71623 NIL
AAXX 09004 71624 12974 02211 10013 21051 39983 40198 51007 60001 333 10033 21009 79999
AAXX 09004 71625 16564 62902 11010 21067 39994 40157 51029 60001 333 10023 21036 70000
AAXX 09004 71627 12874 62216 10026 21060 30121 40166 52011 60001 86050 333 10027 21028 70008
AAXX 09004 71628 12974 52313 10013 21058 30026 40168 53021 60001 85070 333 10019 21028 79999
AAXX 09004 71630 NIL
AAXX 09004 71631 16/// /2311 11011 21038 39678 40185 53007 60001 333 10007 21029 70000
AAXX 09004 71633 12574 62615 10011 21070 39897 40171 51012 60001 86500 333 10015 21022 70050
AAXX 09004 71705 11674 42721 11005 21060 30030 40188 53082 69901 78511 84500 333 10136 21005 70300 90910
AAXX 09004 71706 11574 22919 10005 21060 30032 40092 52092 69901 70181 82500 333 10145 20004 70020 90930
AAXX 09004 71707 11574 62617 10026 21011 39972 40047 52097 69941 78082 86500 333 10138 20023 70166 90917
AAXX 09004 71709 11562 72835 10020 21039 30004 40017 57103 69941 70285 87500 333 10124 20020 70248 90941
AAXX 09004 71711 NIL
AAXX 09004 71714 46/// /0000 11073 30081 6///1 333 7////
AAXX 09004 71715 16/// /2504 11047 21111 39948 40132 51040 60001 333 11017 21049 70043 555 10040
AAXX 09004 71718 11683 22617 11041 21104 30047 40113 52063 69901 73677 82500 333 11004 21043 47008 70040 90953
AAXX 09004 71719 NIL
AAXX 09004 71893 12680 23603 10029 21014 30279 40311 56008 60001 81501 333 10048 21013 70000
AAXX 09004 71894 16/// /1402 10042 20036 30287 40296 56012 60001 333 10060 20003 70002
AAXX 09004 71896 15966 01004 11098 21111 39460 40332 51001 60001 333 11068 21177 70013
AAXX 09004 71897 NIL
AAXX 09004 71898 160// ///// 10024 58010 69951 333 10026 21020 70005
AAXX 09004 71899 NIL
AAXX 09004 71902 11240 83215 11068 21090 39909 49917 58052 60061 7717/ 887// 333 11063 21125 70066 90929 93123
AAXX 09004 71905 NIL
AAXX 09004 71906 12974 82604 11127 21156 39945 49996 55002 60001 88010 333 11088 21127 79999
AAXX 09004 71907 17411 92219 11101 21137 39895 49927 51009 60001 745// 333 11071 21106 70005
AAXX 09004 71909 16464 33102 11139 21147 39937 49980 53005 60001 333 11079 21158 70015
AAXX 09004 71910 46564 32009 11080 21139 39873 49935 51016 6///1 333 11075 21125 7////
AAXX 09004 71911 47011 83617 11159 39941 49997 51021 6///1 745// 333 11140 21164 7////
AAXX 09004 71912 11340 83021 11184 21239 39853 40042 53029 69941 77177 84510 333 11170 21185 48012 70010 90983
AAXX 09004 71915 11574 10318 11187 21220 39849 49931 52015 69901 77677 81500 333 11187 21246 48045 79999 90983
AAXX 09004 71917 11974 01002 11369 21414 30167 40182 57006 69901 77677 333 11334 21375 47013 79999 90983
AAXX 09004 71922 12974 02915 11194 21257 39745 40236 53013 60001 333 11181 21208 70000
AAXX 09004 71924 11674 60423 11200 21246 30000 40091 57007 60001 73622 84530 333 11184 21239 48037 70000
AAXX 09004 71925 11259 23215 11282 21311 30107 40150 56005 69901 73870 82600 333 11235 21283 42019 79999 90961
AAXX 09004 71926 11608 13527 11177 21220 39966 49991 51039 69941 77173 81500 333 11159 21248 48042 70034 90913
AAXX 09004 71928 16/// /2705 11072 21095 39061 40282 51008 60001 333 11068 21278 70000
AAXX 09004 71864 NIL
AAXX 09004 71865 16/// /2909 11163 21231 39522 40234 52006 60001 333 11145 21169 70000
AAXX 09004 71866 46964 03007 11159 21229 39616 40259 51009 6///1 333 11124 21167 7////
AAXX 09004 71867 12874 13019 11170 21230 39824 40174 51020 60001 81070 333 11157 21180 70000
AAXX 09004 71868 16/// /2406 11173 21236 39746 40208 52014 60001 333 11151 21184 70000
AAXX 09004 71869 12974 02910 11171 21264 39698 40248 53012 60001 333 11154 21184 79999
AAXX 09004 71871 15966 01901 11161 21193 39425 40273 53011 60001 333 11116 21188 70000
AAXX 09004 71877 12886 73210 11057 21106 38962 40282 53008 60001 87070 333 11045 21086 70000
AAXX 09004 71878 12974 82805 11076 21107 39160 40285 53008 60001 85071 333 11074 21246 70000
AAXX 09004 71879 16764 30304 11125 21179 39433 40275 52009 60001 333 11090 21168 70000
AAXX 09004 71880 11582 20000 11065 21099 39160 40301 53007 69901 70186 81571 333 11045 21082 46997 79999 90942
AAXX 09004 71882 16759 33103 11047 21080 39775 40333 53001 60001 333 11020 21068 70000
AAXX 09004 71883 NIL
AAXX 09004 71887 12586 80802 11038 21087 39915 40355 55009 60001 81570 333 11038 21114 70000
AAXX 09004 71889 11574 73606 11014 21058 39905 40336 53004 69901 70282 82571 333 11003 21036 79999 90961
AAXX 09004 71891 16964 00000 11022 21075 30054 40338 55005 60001 333 10001 21061 70000
AAXX 09004 71892 12580 13106 10019 21003 30301 40306 57006 60001 81100 333 10051 20003 70000
AAXX 09004 71822 11316 81907 11089 21104 39591 40073 56001 69941 77171 885// 333 11081 21118 47022 70012 90936
AAXX 09004 71726 17/// /2106 11058 21071 39560 40108 53012 69931 7//4/ 333 11051 21124 70020 555 10020
AAXX 09004 71727 11574 12405 11072 21110 39927 40128 51023 69981 70281 81500 333 11032 21083 47004 70016 90947
AAXX 09004 71728 11582 22109 11071 21120 39889 40114 50009 69901 70288 82500 333 11035 21088 44001 70002 90951
AAXX 09004 71730 11274 22408 11062 21119 39712 40146 53024 69961 70181 82500 333 11020 21093 47009 70032 90932 93101
AAXX 09004 71731 11374 42718 11034 21123 39684 40143 51022 69901 72688 84500 333 11018 21088 47001 70010 90973
AAXX 09004 71735 NIL
AAXX 09004 71738 11574 22406 11093 21129 39774 40135 53030 69961 72288 82500 333 11071 21121 47016 70068 90972
AAXX 09004 71739 41874 42104 11107 21130 39738 40111 52013 6//// 70277 84070 333 11077 21146 4//// 7//// 90962
AAXX 09004 71749 16964 02608 11118 21189 39906 40160 51017 60001 333 11090 21122 70000
AAXX 09004 71799 12583 33605 10036 21001 30283 40308 56008 60001 82501 333 10051 21017 70000
AAXX 09004 71800 17/// /2432 10072 20064 39967 49999 53035 69981 7//4/ 333 10102 20036 70099
AAXX 09004 71801 11569 82429 10074 20058 39775 49944 55007 60041 76122 885// 333 10131 20022 70078 90952
AAXX 09004 71803 11374 72330 10051 20018 39673 49855 53030 60041 70265 87500 333 10117 21015 41997 70064 90923
AAXX 09004 71807 17/// /2437 10068 20035 39959 49977 51064 60031 7//4/ 333 10142 20034 70071
AAXX 09004 71808 11258 82035 10019 20018 39571 49615 58105 60501 76176 885// 333 10030 21039 44016 70600 90976
AAXX 09004 71809 11566 82730 10028 21008 39825 49852 52123 60041 76166 885// 333 10046 21020 42002 70134 90983
AAXX 09004 71810 17/// /2823 11032 21046 39888 49954 53081 60061 7//4/ 333 11008 21032 70196
AAXX 09004 71811 NIL
AAXX 09004 71813 NIL
AAXX 09004 71814 17/// /2629 11025 21042 39742 49751 53127 60211 7//4/ 333 10059 21025 70429
AAXX 09004 71815 11462 82738 10029 21011 39893 49923 52122 60011 78065 885// 333 10134 20008 70142 90917
AAXX 09004 71114 16964 00909 10014 21031 30264 40313 55008 60001 333 10028 21019 70000
AAXX 09004 71120 12974 13203 11149 21241 39581 40271 52009 60001 80001 333 11129 21204 70000
AAXX 09004 71122 16/// /1904 11069 21132 38607 40265 53014 60001 333 11053 21170 70000
AAXX 09004 71123 12974 20104 11119 21176 39368 40278 51008 60001 81071 333 11087 21236 70000
AAXX 09004 71125 12974 13006 11202 21238 39654 40274 53011 60001 81070 333 70000
AAXX 09004 71129 12774 20000 11127 21187 39394 40264 53006 60001 82501 333 11105 21181 70000
AAXX 09004 71131 16/// /2706 11140 21179 38944 40260 52006 60001 333 11119 21221 70000
AAXX 09004 71135 16/// /2504 11191 21234 39126 40270 51003 60001 333 11141 21197 70000
AAXX 09004 71137 16/// /0000 11171 21196 39277 40277 53003 60001 333 11124 21241 70000
AAXX 09004 71140 12974 03011 11154 21194 39691 40216 53005 60001 333 11133 21163 79999
AAXX 09004 71145 11462 72915 11159 21192 39782 40086 51021 69941 77172 87500 333 11147 21181 48029 70016 90927
AAXX 09004 71148 16/// /3008 11147 21200 39605 40210 51007 60001 333 11123 21159 70000
AAXX 09004 71182 17311 83016 11109 21129 39353 49893 55007 60051 745// 333 11091 21147 70075
AAXX 09004 71185 17430 9//// 10016 39734 49757 53081 60051 74544 333 10102 21010 70185
AAXX 09004 71188 NIL
AAXX 09004 71200 16/// /0105 10038 21001 60001 333 10054 20017 70000
AAXX 09004 71207 17/// /0101 11010 21023 30237 40303 55003 69931 7//4/ 333 10033 21045 70003
AAXX 09004 71260 NIL
AAXX 09004 71816 11/08 93420 11032 21041 39646 49706 57090 60301 77373 333 11016 21170 48043 70326 90973 93130
AAXX 09004 71817 NIL
AAXX 09004 71818 11616 91023 10006 21001 39623 49640 57201 60161 77177 837// 333 10008 21151 43160 70160 90973
AAXX 09004 71822 11316 81907 11089 21104 39591 40073 58001 69941 77171 885// 333 11081 21118 47022 70012 90936
AAXX 09004 71825 11459 83210 11123 21148 39303 49981 52027 60010 77177 85500 333 11090 21131 47082 70082 90983
AAXX 09004 71827 11532 81906 11133 21145 39776 40024 50004 69961 77181 88500 333 11107 21168 47017 70012 90927 93101
AAXX 09004 71828 17428 83213 11119 21139 39323 49966 51008 60021 74544 333 11103 21146 70025
AAXX 09004 71831 11974 32305 11126 21158 39819 40108 53018 69901 70171 83030 333 11091 21145 47016 70004 90931
AAXX 09004 71832 NIL
AAXX 09004 71834 11574 22708 11141 21167 39673 40114 51016 69961 77177 82500 333 11120 21166 48011 70022 90973 93101
AAXX 09004 71841 NIL
AAXX 09004 71842 11674 12615 11143 21222 39652 40139 53015 69901 70288 81500 333 11130 21154 48003 79999 90952
AAXX 09004 71844 16664 32712 11179 21230 39757 40044 51019 60001 333 11170 21195 70000
AAXX 09004 71845 11566 62514 11157 21223 39603 40094 52019 69901 77177 86500 333 11152 21184 43008 79999 90973
AAXX 09004 71850 12974 22710 11159 21224 39645 40165 52013 60001 80001 333 11124 21160 70002
AAXX 09004 71852 16964 02812 11150 21189 39878 40185 51008 60001 333 11125 21164 70000
AAXX 09004 71854 11569 72711 11165 21216 39646 40138 52017 69901 77177 86570 333 11149 21167 70006 90983
AAXX 09004 71858 NIL
AAXX 09004 71861 16/// /3008 11162 21219 39468 40226 53007 60001 333 11135 21164 7////
AAXX 09004 71862 12974 13010 11145 21218 39514 40246 53003 60001 80001 333 11109 21154 70000
AAXX 09004 71863 46964 33108 11163 21225 39521 40252 53007 6///1 333 11121 21164 7////
AAXX 09004 71930 12874 72603 11081 21164 39291 40262 57003 60001 87070 333 11078 21191 70000
AAXX 09004 71931 16/// /2438 10083 20035 39795 49807 55021 60001 333 10123 20008 70000
AAXX 09004 71934 11974 10000 11272 21288 39991 40266 50002 69901 70171 80001 333 11204 21272 44019 79999 90952
AAXX 09004 71935 12974 61203 11232 21280 30020 40241 57028 60001 80001 333 11231 21287 70000
AAXX 09004 71936 12674 10703 11290 21331 39967 40247 58018 60001 81501 333 11274 21304 70000
AAXX 09004 71937 NIL
AAXX 09004 71938 12966 42106 11241 21278 30174 40205 56025 60001 80001 333 11238 21269 79999
AAXX 09004 71940 12882 80000 11063 21086 39410 40243 57011 60001 86071 333 11059 21194 70000
AAXX 09004 71943 12874 81703 11086 21125 39358 40224 57017 60001 85501 333 11083 21161 70000
AAXX 09004 71944 160// ///// 11080 58002 60001 333 11078 21167 70000
AAXX 09004 71945 11780 70000 11109 21152 39695 40182 58032 69901 70277 83570 333 11109 21228 47012 70020 90952
AAXX 09004 71946 12774 81205 11204 21227 39953 40181 58040 60001 8852/ 333 11202 21339 70000
AAXX 09004 71948 47956 01223 11198 39998 40115 56043 6///1 745// 333 11197 21274 7////
AAXX 09004 71949 46/// /1204 11119 21139 39264 40159 58011 6///1 333 11118 21177 7////
AAXX 09004 71951 12274 70000 11027 21043 30057 40333 56006 60001 71622 87800 333 11024 21081 70000
AAXX 09004 71957 46664 31806 11163 21228 39959 40049 56012 6///1 333 11158 21239 7////
AAXX 09004 71958 43/// /0000 11105 21116 39278 40250 58005 6///1 333 11093 21153 7////
AAXX 09004 71964 12686 81613 11001 21034 39271 40133 57007 60001 885// 333 10003 21118 70000
AAXX 09004 71966 16/// /0903 11117 21138 39687 40160 58006 60001 333 11117 21180 70000 555 10030
AAXX 09004 71968 47002 /2040 11115 39943 40007 57004 6///1 745// 333 11111 21291 7////
AAXX 09004 71603 12669 23218 10038 21051 30124 40177 51051 60001 82500 333 10139 20033 70386
AAXX 09004 71607 16/// /2704 11008 21047 30133 40166 51060 60001 333 10035 21008 70295
AAXX 09004 71609 12674 32912 11004 21078 30026 40160 53072 60001 83500 333 10135 21006 70277
AAXX 09004 71610 15966 01804 11043 21065 39881 40183 51032 60001 333 11010 21049 70055
AAXX 09004 71621 12574 12511 10023 21053 30086 40193 51016 60001 81500 333 10041 21010 70000
AAXX 09004 71623 NIL
AAXX 09004 71624 12974 02211 10013 21051 39983 40198 51007 60001 333 10033 21009 79999
AAXX 09004 71625 16564 62902 11010 21067 39994 40157 51029 60001 333 10023 21036 70000
AAXX 09004 71627 12874 62216 10026 21060 30121 40166 52011 60001 86050 333 10027 21028 70008
AAXX 09004 71628 12974 52313 10013 21058 30026 40168 53021 60001 85070 333 10019 21028 79999
AAXX 09004 71630 NIL
AAXX 09004 71631 16/// /2311 11011 21038 39678 40185 53007 60001 333 10007 21029 70000
AAXX 09004 71633 12574 62615 10011 21070 39897 40171 51012 60001 86500 333 10015 21022 70050
AAXX 09004 71705 11674 42721 11005 21060 30030 40188 53082 69901 78511 84500 333 10136 21005 70300 90910
AAXX 09004 71706 11574 22919 10005 21060 30032 40092 52092 69901 70181 82500 333 10145 20004 70020 90930
AAXX 09004 71707 11574 62617 10026 21011 39972 40047 52097 69941 78082 86500 333 10138 20023 70166 90917
AAXX 09004 71709 11562 72835 10020 21039 30004 40017 57103 69941 70285 87500 333 10124 20020 70248 90941
AAXX 09004 71711 NIL
AAXX 09004 71714 46/// /0000 11073 30081 6///1 333 7////
AAXX 09004 71715 16/// /2504 11047 21111 39948 40132 51040 60001 333 11017 21049 70043 555 10040
AAXX 09004 71718 11683 22617 11041 21104 30047 40113 52063 69901 73677 82500 333 11004 21043 47008 70040 90953
AAXX 09004 71719 NIL
AAXX 09004 71864 NIL
AAXX 09004 71865 16/// /2909 11163 21231 39522 40234 52006 60001 333 11145 21169 70000
AAXX 09004 71866 46964 03007 11159 21229 39616 40259 51009 6///1 333 11124 21167 7////
AAXX 09004 71867 12874 13019 11170 21230 39824 40174 51020 60001 81070 333 11157 21180 70000
AAXX 09004 71868 16/// /2406 11173 21236 39746 40208 52014 60001 333 11151 21184 70000
AAXX 09004 71869 12974 02910 11171 21264 39698 40248 53012 60001 333 11154 21184 79999
AAXX 09004 71871 15966 01901 11161 21193 39425 40273 53011 60001 333 11116 21188 70000
AAXX 09004 71877 12886 73210 11057 21106 38962 40282 53008 60001 87070 333 11045 21086 70000
AAXX 09004 71878 12974 82805 11076 21107 39160 40285 53008 60001 85071 333 11074 21246 70000
AAXX 09004 71879 16764 30304 11125 21179 39433 40275 52009 60001 333 11090 21168 70000
AAXX 09004 71880 11582 20000 11065 21099 39160 40301 53007 69901 70186 81571 333 11045 21082 46997 79999 90942
AAXX 09004 71882 16759 33103 11047 21080 39775 40333 53001 60001 333 11020 21068 70000
AAXX 09004 71883 NIL
AAXX 09004 71887 12586 80802 11038 21087 39915 40355 55009 60001 81570 333 11038 21114 70000
AAXX 09004 71889 11574 73606 11014 21058 39905 40336 53004 69901 70282 82571 333 11003 21036 79999 90961
AAXX 09004 71891 16964 00000 11022 21075 30054 40338 55005 60001 333 10001 21061 70000
AAXX 09004 71892 12580 13106 10019 21003 30301 40306 57006 60001 81100 333 10051 20003 70000
AAXX 09004 71043 11766 81303 11185 21238 30027 40124 57010 69901 77111 8457/ 333 11183 21288 48019 79999 90921
AAXX 09004 71045 16/// /0403 11056 21068 39300 40184 56010 60001 333 11047 21184 70000 555 10040
AAXX 09004 71050 46/// /2201 11032 21087 39201 40321 56008 6///1 333 11018 21182 7////
AAXX 09004 71051 NIL
AAXX 09004 71052 NIL
AAXX 09004 71066 12974 80000 11232 21280 39814 40264 56019 60001 82048 333 11217 21325 70000
AAXX 09004 71068 12974 80000 11118 21158 39529 40250 56018 69901 70282 8807/ 333 11117 21187 41997 79999 90951
AAXX 09004 71069 16964 01003 11137 21157 39531 40270 58004 60001 333 11118 21198 70000
AAXX 09004 71076 16/// /2603 11234 21261 39834 40250 53011 60001 333 11217 21247 70000
AAXX 09004 71077 16/// /3108 11185 21235 39706 40276 51009 60001 333 11181 21200 70000
AAXX 09004 71079 11574 23115 11192 21260 39813 40104 52024 69901 73671 81530 333 11172 21193 48003 79999 90933
AAXX 09004 71081 46964 01206 11144 21153 39967 49979 53014 6///1 333 11117 21234 7////
AAXX 09004 71082 NIL
AAXX 09004 71083 11920 13520 11271 21312 39911 49954 52035 69901 77677 80001 333 11223 21281 48053 79999 90983
AAXX 09004 71090 46564 33109 11211 21246 30011 40047 50000 6///1 333 11195 21237 7////
AAXX 09004 71091 460// /0907 11149 39790 49999 51015 6///1 333 7////
AAXX 09004 71092 46564 31011 11164 39331 49999 58005 6///1 333 11156 21173 7////
AAXX 09004 71093 460// /3107 11191 39514 40018 51004 6///1 333 11186 21202 7////
AAXX 09004 71094 46004 /1621 11085 39091 49980 56009 6///1 333 11083 21107 7////
AAXX 09004 71095 46564 82204 11157 21180 39951 40031 51013 6///1 333 11100 21192 7////
AAXX 09004 71101 160// /2509 30296 56011 60001 333 70000
AAXX 09004 71104 11774 50000 11085 21104 39176 40341 55003 69901 70272 82501 333 11065 21177 44012 79999 90951
AAXX 09004 71108 12983 21103 10025 21005 30232 40306 56005 60001 80004 333 10040 21030 70000
AAXX 09004 71109 12680 10000 10027 20003 30287 40314 57010 60001 81500 333 10045 21018 70000
AAXX 09004 78947 12584 71305 10262 20209 30128 40131 60001 70222 8547/ 333 05399 10293 20230 58011 79999 84822 87358
AAXX 09004 47090 11568 72907 11012 21042 30244 40267 52014 60292 72272 87500 333 21019 3/001 49035 92063
AAXX 09004 47095 11520 83202 11049 21064 30087 40286 52017 69972 77177 8672/ 333 21051 3/000 43001
AAXX 09004 47097 329// /2003 11028 21094 30184 40284 52015 333 21040 3/000
AAXX 09004 47098 11550 80001 11045 21066 30142 40283 52019 69982 77177 8672/ 333 21050 3/000
AAXX 09004 47099 11540 80203 11040 21061 30250 40288 52019 69902 77177 8472/ 333 21049 3/101
AAXX 09004 47100 11320 62501 11057 21072 39313 40269 52012 60042 77077 86500 333 21070 3/000 49058
AAXX 09004 47102 11520 70510 11037 21048 30109 40296 52014 69902 77177 87800 333 21058 3/101 46///
AAXX 09004 47104 11530 83403 11012 21019 30162 40263 52017 60272 77177 8572/ 333 21014 3/000 49043
AAXX 09004 47106 11560 83203 11004 21008 30205 40256 52013 60352 77177 8672/ 333 21008 3/001
AAXX 09004 47112 11658 63603 11031 21095 30198 40286 52017 69902 77172 86500 333 21038 30101 92022
AAXX 09004 47114 11658 82502 11028 21075 30091 40281 52017 69902 77177 8672/ 333 21032 34000
AAXX 09004 47119 31664 62902 11025 21081 30240 40284 52013 77077 85500 333 21036 30102
AAXX 09004 47121 129// /2703 11026 21069 39972 40278 52019 69912 333 21027 3/000
AAXX 09004 47127 329// /2704 11021 21086 30139 40287 52015 333 21026 3/000
AAXX 09004 47129 11512 73604 11020 21037 30252 40289 52013 69942 78588 87800 333 21021 3/001 43001
AAXX 09004 47130 11656 62302 10006 20003 30189 40253 52015 60222 72272 86500 333 21006 3/001 43019 92041
AAXX 09004 47131 11663 63402 11021 21080 30212 40286 52013 69902 77022 85500 333 21032 30000
AAXX 09004 47135 329// /2707 11024 21091 39969 40280 51014 333 21031 3/101
AAXX 09004 47136 32668 42906 11017 21082 30095 40274 52017 84500 333 21028 30000
AAXX 09004 47137 329// /2705 11022 21100 30156 40279 50015 333 21034 3/101
AAXX 09004 47140 11530 71104 11024 21033 30257 40287 52009 69952 78588 87800 333 21026 3/001 47003 92012
AAXX 09004 47143 32668 43203 11008 21099 30201 40283 52018 81530 333 21012 30101
AAXX 09004 47145 11550 71403 11026 21059 30251 40279 52012 69912 78588 87800 333 21037 3/000 47///
AAXX 09004 47146 11557 71402 11018 21061 30218 40287 52011 69902 78588 87800 333 21019 3/002 42///
AAXX 09004 47150 11507 70203 11020 21035 30263 40283 52012 60012 78688 87800 333 21021 3/000 43002
AAXX 09004 47152 32670 43205 10012 21078 30208 40252 52017 83501 333 21001 30101
AAXX 09004 47154 329// /2905 11007 21091 30217 40280 52016 333 21024 3/101
AAXX 09004 47155 32672 21104 10011 21089 30216 40263 52014 81501 333 20000 30000
AAXX 09004 47156 11530 73401 11009 21020 30194 40287 52011 69972 78688 87800 333 21009 3/002 46001
AAXX 09004 47157 32973 01101 11023 21086 39986 40267 52013 333 21057 34101
AAXX 09004 47162 12975 50207 10014 21081 30221 40262 52011 69902 80001 333 21002 34000 92022
AAXX 09004 47169 11562 63420 10018 21023 30192 40289 52010 69982 78588 86800 333 20002 31003 92065
AAXX 09004 47170 11570 73210 10016 21040 30235 40280 51008 69902 78588 87800 333 20007 30003 92023
AAXX 09004 47171 11558 63601 11016 21030 30229 40286 52008 60032 78588 86800 333 21021 3/001 41006
AAXX 09004 47172 129// /1802 11007 21025 30211 40280 52009 69942 333 21009 3/003
AAXX 09004 47173 129// /3603 11016 21061 30171 40287 52011 69902 333 21019 3/001
AAXX 09004 47174 11565 62906 11009 21042 30062 40271 50003 69912 78582 85800 333 21014 30001
AAXX 09004 47175 11561 73413 11028 21034 39684 40280 52006 69932 72272 83800 333 21031 3/000 46/// 92034
AAXX 09004 47185 11670 83232 10054 21024 30175 40268 53002 69922 72376 8552/ 333 20044 31004 92057
AAXX 09004 47188 11570 73605 10037 21010 30245 40267 55001 60022 76872 87800 333 20023 31003 92042
AAXX 09004 47189 12570 62904 10060 21016 30198 40259 57005 69922 83501 333 20028 31005 92033
AAXX 09004 47192 32970 21102 10004 21078 30229 40268 52010 80001 333 21028 31101
AAXX 09001 02019 05/99 /0904 11078 21093 39398 40031 57005 60001 333 60005 90710 91107
AAXX 09001 02081 05/83 /2601 11100 21109 39648 40063 58007 60001 333 60005 90710 91102
AAXX 09001 02095 07240 /0302 11035 21039 39834 40040 57008 60021 77174 333 69915 88/05 90710 91103
AAXX 09001 02101 47450 /1507 11041 21064 39415 49977 56012 771// 8//// 333 81/13 84/23 86/26 88/42
AAXX 09001 02119 07481 /3201 11061 21064 39633 40024 58014 69901 70087 333 60005 88/10 90710 91102
AAXX 09001 02124 07261 /0703 11058 21067 39477 40009 58010 69911 70087 333 60005 88/06 90710 91106
AAXX 09001 02126 07399 /1201 11050 21055 39662 40004 57006 69911 70071 333 60005 88/07 90710 91101
AAXX 09001 02151 07360 80000 11059 21059 39684 40025 56009 69951 77177 333 69915 87/09 88/13 91000 90710 91101 90710 91200
AAXX 09001 02186 07122 62002 11002 21003 39990 40015 56004 60021 76784 333 69985 81/03 85/08 91005 90710 91105 90710 91204
AAXX 09001 02197 07/61 /1403 10008 20006 30013 40032 57002 69971 72186 333 69925 90710 91107
AAXX 09001 02207 07463 /1202 11057 21071 39178 49875 58035 69901 77187 333 69905 87/15 90710 91109
AAXX 09001 02219 07/// /1108 11060 21062 39276 49947 58021 69901 70071 333 60005 90710 91115
AAXX 09001 02226 45482 /1108 11069 21075 39477 49935 58035 8//// 333 87/12 88/24
AAXX 09001 02243 07/69 /1202 11048 21051 39713 49984 58010 69911 70070 333 60005 90710 91106
AAXX 09001 02269 07499 /1705 10008 20000 69921 70070 333 60005 87/15 90710 91107
AAXX 09001 02287 07364 /2207 10007 21001 39996 40006 55002 60011 77187 333 69905 81/09 87/44 90710 91111
AAXX 09001 02297 07468 /3402 11020 21020 39965 40011 57001 60021 70087 333 60005 81/17 83/43 87/49 90710 91103
AAXX 09001 02308 07207 /1003 11078 21087 39024 49887 58044 60021 77287 333 60015 89/06 90710 91108
AAXX 09001 02327 07/99 /1003 11048 21052 39487 49924 58040 69931 70070 333 60005 90710 91106
AAXX 09001 02355 05499 /1612 10000 21011 39964 49977 58031 60001 333 60005 85/10 90710 91115
AAXX 09001 02366 45174 /3202 11070 21075 39983 49989 58024 8//// 333 81/02 88/04
AAXX 09001 02407 07310 /1306 11017 21020 39499 49866 58072 60011 77187 333 69945 88/09 90710 91112
AAXX 09001 02418 47105 /1306 10000 21001 39713 49843 56084 772// 8//// 333 81/03 85/04 88/06
AAXX 09001 02435 47/13 /1306 11015 21028 39739 49926 58051 771// 8//// 333 89/02
AAXX 09001 02440 07145 /1202 11037 21044 60001 71010 333 60005 88/01 90710 91104
AAXX 09001 02452 07105 /1105 11011 21011 60021 77287 333 60015 89/02 90710 91110
AAXX 09001 02456 07375 /1404 11008 21013 39935 49978 58043 69901 72471 333 69905 85/07 88/22 90710 91107
AAXX 09001 02469 05/99 /1507 10018 21004 60001 333 60005 90710 91111
AAXX 09001 02498 07599 /1714 10035 20002 39986 40003 58041 69901 70086 333 60005 87/21 90710 91118
AAXX 09001 02518 466// /2013 10075 20066 333 83/40 90710 91119
AAXX 09001 02520 07462 81709 10018 20000 39763 49830 58065 60021 75186 333 69905 83/11 86/15 87/18 91013 90710 91115 90710 91211
AAXX 09001 02550 47209 /1509 10001 20001 39597 49870 56074 772// 8//// 333 88/05
AAXX 09001 02562 07350 81508 10015 20009 39788 49903 58078 60011 76174 333 69955 83/09 85/11 88/13 91014 90710 91114 90710 91208
AAXX 09001 02563 07459 /1613 10034 20028 39923 49945 58070 69911 76160 333 69915 84/12 86/16 87/21 88/// 90710 91119
AAXX 09001 02565 07350 /1506 10013 20008 39810 49930 58070 60031 76786 333 60025 87/06 88/13 90710 91112
AAXX 09001 02589 05499 /1707 10031 21004 39985 40007 58046 60001 333 60005 81/17 87/62 90710 91115
AAXX 09001 02590 45484 /1608 10032 20013 39933 49994 56056 8//// 333 88/16
AAXX 09001 02618 07/32 /1805 10023 20023 39703 49866 56069 60121 76276 333 60035 90710 91116
AAXX 09001 02664 07332 81711 10030 20020 39869 49940 58074 69971 77165 333 69925 87/08 88/15 91019 90710 91120 90710 91212
AAXX 09001 02679 05473 /1714 10043 20029 39957 40001 58054 60001 333 60005 87/12 90710 91120
AAXX 09004 91413 11469 89904 10266 20249 30075 40100 52010 60074 72582 85372 333 20255 56999 58010 70071 555 90900
AAXX 09004 60020 NIL
AAXX 09004 60030 02960 63305 10196 20041 30154 40210 58002 60001 8602/ 333 60007 924/6
AAXX 09004 60040 06/// /0309 10215 20070 30205 40230 58004 60001 333 60007
AAXX 09004 60338 NIL
AAXX 09004 91413 11469 89904 10266 20249 30075 40100 52010 60074 72582 85372 333 20255 56999 58010 70071 555 90900
AAXX 09004 61974 11465 30000 10240 20228 40076 69941 71581 83800 333 0//13 59004 83817
AAXX 09004 61986 12570 21608 10265 20235 40073 60001 82800 333 58001 82820
AAXX 09004 61988 11462 61014 10241 20222 40080 60031 86832 333 0//12 59007 85817 83650 91130
AAXX 09004 61989 NIL
AAXX 09004 61990 12470 20804 10245 20209 40102 82800 333 58009 82817
AAXX 09004 61995 12470 20804 10205 20189 39622 60001 82802 333 58009 82818
AAXX 09001 15501 12970 02304 10045 20006 30195 40240 52012 60001 333 10059 20038 555 576//
AAXX 09001 15505 12970 23203 10045 21025 39872 40252 52017 60001 80004 333 10065 20038 555 561//
AAXX 09001 15511 12970 02305 10046 21002 30216 40256 52020 60001 333 10060 20042 555 571//
AAXX 09001 15514 12968 02716 10060 20015 30187 40223 52007 60001 333 10062 20051 91120 555 573//
AAXX 09001 15530 12965 22501 10036 20002 39999 40243 52019 60001 82040 333 10052 20036 555 578//
AAXX 09001 15533 12970 02510 10041 21011 30164 40197 51008 60001 333 10049 20041 555 569//
AAXX 09001 15550 12970 02302 10021 21004 30178 40198 52021 60001 333 10042 20021 555 584//
AAXX 09001 15561 12970 53208 10024 21010 30177 40185 52013 60001 85030 222// 2//01 333 10056 20020 555 578// 92025 92428
AAXX 09001 15562 12983 03218 10040 21006 30119 40193 52014 60001 222// 2//03 333 10060 20040 91120 555 572// 92048 92448
AAXX 09001 15600 11/00 92710 11072 21081 38320 48525 52012 60001 74941 333 11068 21075 47004 555 593// 92711
AAXX 09001 15601 12770 70000 11042 21054 39635 40287 52011 60001 87300 333 11024 21042 555 590//
AAXX 09001 15605 12772 52702 11010 21025 39399 40273 52008 60001 85500 333 10002 21029 48003 555 588//
AAXX 09001 15628 12680 22502 10038 21018 30001 40265 52016 60001 81230 333 10042 20028 555 567//
AAXX 09001 15642 12980 03203 10024 21009 30042 40215 52007 60001 333 10044 20010 555 579//
AAXX 09001 15661 12570 62907 10070 21023 30189 40225 52036 60001 86500 222// 20301 333 10078 20068 555 552// 700// 92022 92428
AAXX 09001 15726 11471 73305 11064 21087 38266 48531 54000 60001 70311 87500 333 11062 21076 47006 555 583//
AAXX 09001 06447 16/// /2313 10110 20075 39925 40048 55024 69911 333 91123 91213
BBXX PBEO 09003 99371 10038 41998 11205 10170 20128 40270 58008 70200 80001 22262 02170 20101 301// 40801 80145
AAXX 09001 06431 16/// /2608 10098 20079 30035 40046 54000 60031 333 91119 91212
AAXX 09003 91802 NIL
AAXX 09003 91809 NIL
AAXX 09003 91831 36/// /1007 10277 20233 40144 57006
AAXX 09003 91841 36/// /1405 10289 20200 3//// 5//// 333 20289
AAXX 09003 91848 36/// /2407 10287 20225 40120 52041 333 20216
AAXX 09003 91843 31599 40207 10274 20227 40131 57019 60001 70200 84200 333 20221 568// 70000 84825
AAXX 09001 01300 41496 71114 10049 20042 49629 52002 78082 87/// 22200 10911 70056 333 91123
AAXX 09001 01160 46/// /0810 10018 21053 39967 49984 58013 333 91113
AAXX 09001 01400 41/// /2627 10057 20040 49688 57036 7//// 22200 06089 333 91133
BBXX A8YW2 09004 99335 50013 41498 71112 10170 20070 40310 58010 70322 8614/ 22224 00160 21201 80120
BBXX 2BLY5 09003 99118 70228 41/97 20810 10255 20233 40124 50004 70500 8//// 22253 00280 20302 80240
AAXX 09004 64600 33960 03604 10175 20164 39441 40082 333 59009
AAXX 09004 64601 33960 00216 10186 20032 38982 48499 333 59010
AAXX 09004 64605 33960 00000 10153 20131 39344 40078 333 58000
AAXX 09004 64610 33960 00000 10153 20139 3//// 4//// 333 5////
AAXX 09004 64650 32956 03602 10200 20174 39674 40078 80000 333 0//00 59011
AAXX 09004 64654 NIL
AAXX 09004 64655 33960 00000 10155 20141 39443 40082 333 59008
AAXX 09004 64656 33960 00000 10185 20162 39524 40071 333 59018
AAXX 09004 64659 NIL
AAXX 09004 64660 NIL
AAXX 09004 64662 33960 00000 10164 20152 39587 40080 333 58001
AAXX 09004 64665 33960 00000 10180 20170 3//// 4//// 333 5////
AAXX 09001 76040 32960 03402 10187 20007 30169 40183 57011 92340 333 10194 20010 30/// 50380 59023 70000 98660
AAXX 09001 76055 32980 73105 10164 21044 30148 40167 57006 80005 92340 333 0/006 10188 20041 30/// 50251 59018 70000 87270
AAXX 09001 76113 32880 32201 10180 20002 39694 40170 57004 83030 92340 333 10185 21018 30/// 50121 56040 59017 70000 83358
AAXX 09001 76122 32765 60000 10130 20043 38528 40168 52003 82034 92350 333 10161 21072 30/// 50181 56055 58/// 70000
AAXX 09001 76225 32760 83602 10148 21050 38618 40138 5//// 88030 92345 333 10170 21018 30/// 50144 56050 59025 70000 88360
AAXX 09001 76256 32980 50000 10186 20090 30157 40171 57006 85008 92340 333 10218 20087 30/// 50150 56//5 58004 70000 85070
AAXX 09001 76305 32670 70402 10195 20114 30154 40162 58007 82434 92330 333 10210 20105 30/// 5//// 56555 58/// 70000 82650 83060
AAXX 09001 76323 32970 82501 10200 21125 38261 40170 57013 80008 92345 333 10248 21032 30/// 50231 56007 59032 70000 88268
AAXX 09001 76342 32962 03601 10178 20031 39486 40200 57001 92350 333 10204 20034 30/// 50301 59050 70000
AAXX 09001 76373 32580 61601 10180 21047 38202 40147 51001 84222 92350 333 10244 21050 30/// 50431 56999 58001 70000 82825 82337 82067
AAXX 09001 76382 32980 40000 10212 20136 38886 40136 57014 80001 92340 333 10270 20045 30/// 50331 56003 59043 70000 84076
AAXX 09001 76390 31964 21803 10180 21004 38231 40117 52006 70544 80001 92330 333 10230 20019 30/// 50281 56006 59020 70000 82070
AAXX 09001 76393 31940 23401 10166 20044 39595 40180 57006 70500 81008 92345 333 10194 20040 30/// 50391 56035 59057 70000
AAXX 09001 76402 31857 40000 10226 20142 30102 40159 57001 70544 84020 92345 333 10250 20054 30/// 50211 56050 58015 70000
AAXX 09001 76423 32780 62601 10205 20012 38146 40111 52003 83039 92358 333 10264 21005 30/// 50330 56099 59004 70000 83358 83170
AAXX 09001 76458 32970 33006 10217 20168 30142 40147 57002 80002 92338 333 10263 20118 30/// 50261 56//9 58020 70000 83070
AAXX 09001 76471 32980 22703 10182 20073 37691 40054 52002 80001 92350 333 10230 20041 30/// 50540 56001 59003 70000 82075
AAXX 09001 76490 06/// /0801 10193 20077 39785 40174 55000 60001 7//// 8//// 92350 333 0//// 10237 20027 30/// 50259 54/// 56/// 57/// 59072 60007 70000 8//// 8//// 8//// 8//// 9//// 9/
AAXX 09001 76491 32960 31101 10200 20101 39800 40193 54000 80004 92350 333 10232 20024 30/// 50241 56009 59077 70000 83077
AAXX 09001 76499 32857 31102 10208 20115 30156 40178 52001 83030 92355 333 10260 20082 30/// 50281 56040 59080 70000 83357
AAXX 09001 76519 32560 42803 10232 20034 38363 40138 52003 80002 92340 333 10254 20028 30/// 50361 56006 58027 70000 84070
AAXX 09001 76525 32970 82208 10160 21014 37468 40102 55003 80001 92340 333 10218 20092 30/// 50581 56//5 59004 70000 88080
AAXX 09001 76543 32675 61103 10210 20126 30177 40210 55006 86500 92335 333 10243 20120 30/// 50251 56500 59070 70000 86650
AAXX 09001 76547 06/// /1001 10190 20138 30178 40190 55008 60001 7//// 8//// 92350 333 0//// 10230 20137 50259 56/// 57/// 59075 60007 70000 8//// 8//// 8//// 8//// 9//// 9//// 9//// 44
AAXX 09001 76548 32875 50901 10198 20126 30189 40199 55010 85030 92345 333 10227 20134 30/// 50341 56040 59072 70000 85358
AAXX 09001 76556 32970 13003 10230 20161 39123 40134 57002 80005 92335 333 10275 20122 30/// 50281 56006 58014 70000 81070
AAXX 09001 76571 32965 42301 10222 21016 38155 40117 55003 80004 92350 333 10246 20048 30/// 50271 56005 59002 70000
AAXX 09001 76577 32970 12302 10211 20170 38034 40109 56008 80005 92340 333 10245 20073 30/// 50261 56005 58002 70000
AAXX 09001 76578 06/// /1802 10201 20032 38032 40083 55006 60001 7//// 8//// 92350 333 0//// 10255 20071 30/// 4//// 50269 54/// 56/// 57/// 58000 60007 70000 8//// 8//// 8//// 9//// 9/
AAXX 09001 76581 32970 01304 10180 20117 39049 40156 57005 92350 333 10230 20077 30/// 50330 59066 70000
AAXX 09001 76586 06/// /1501 10192 20144 30028 40185 55005 60001 7//// 8//// 92350 333 0//// 10240 20116 30/// 4//// 50209 54/// 56/// 57/// 59079 60007 70000 8//// 8//// 8//// 9//// 9/
AAXX 09001 76592 06/// /0407 10218 21067 30186 40186 53003 60001 7//// 8//// 92350 333 0//// 10243 20206 30/// 4//// 50719 54/// 56/// 57/// 59002 60007 70000 8//// 8//// 8//// 9//// 9/
AAXX 09001 76593 32460 30504 10214 20194 30184 40186 52002 83400 92350 333 10243 20186 30/// 50360 56100 59001 70000 83624 91006 91505
AAXX 09001 76612 32662 42902 10227 20075 38464 40108 55007 82231 92350 333 10273 20086 30/// 50161 56555 58011 70000 82840
AAXX 09001 76625 32960 02701 10210 20043 38139 40105 54000 92350 333 10242 20053 30/// 50370 59004 70000
AAXX 09001 76632 32967 30206 10165 20095 37613 40068 57026 83009 92345 333 10200 20064 30/// 5//// 56001 59011 70000 83272
AAXX 09001 76634 31670 40502 10176 20020 37847 40105 57002 70500 81101 92350 333 10234 20042 30/// 50331 563/3 59015 70000 81834 83075
AAXX 09001 76641 06/// /0000 10188 20150 30185 40197 55007 60001 7//// 8//// 92350 333 0//// 10213 20130 30/// 4//// 50159 54/// 56/// 57/// 59076 60007 70000 8//// 8//// 8//// 8//// 9/
AAXX 09001 76644 32460 10203 10216 20150 30169 40182 52002 81100 92350 333 10262 20184 30/// 50200 567// 59004 70000 81820
AAXX 09001 76645 06/// /0303 10213 20142 30178 40191 53008 60001 7//// 8//// 92350 333 0//// 10262 20182 30/// 4//// 50349 54/// 56/// 57/// 59002 60007 70000 8//// 8//// 8//// 9//// 9/
AAXX 09001 76648 32965 00202 10210 20146 30148 40179 53011 60001 7//// 8//// 92350 333 0//// 10286 20176 30/// 4//// 50309 54/// 56/// 57/// 58006 60007 70000 8//// 8//// 8//// 8//// 9/
AAXX 09001 76654 31956 23201 10270 20211 30130 40133 57017 70544 82030 90000 333 10296 20210 30/// 50301 560/0 58003 70000 82359
AAXX 09001 76656 32975 51601 10210 20091 38503 40107 54000 80008 92350 333 10260 20100 30/// 50430 56005 58010 70000 85280
AAXX 09001 76658 31960 42304 10277 20156 39620 40116 56014 70541 80002 92347 333 0/001 10325 20166 30/// 50410 58003 70000 84070 98904
AAXX 09001 76659 06/// /2004 10276 20118 3//// 4//// 5//// 60001 7//// 8//// 92350 333 0//// 10343 20150 30/// 4//// 50349 54/// 56/// 57/// 5//// 60007 70000 8//// 8//// 8//// 9//// 9/
AAXX 09001 76662 31670 42603 10240 20111 38443 40084 57009 84400 92330 333 10292 20080 30/// 50320 56//0 58008 70000 84633
AAXX 09001 76665 31560 21601 10200 20119 38129 40129 52005 70100 82100 92355 333 10258 20099 30/// 50361 56100 57812 58026 70000 82814
AAXX 09001 76675 31575 12002 10155 20059 37373 40090 57004 70544 81100 92352 333 10200 20038 30/// 50291 569// 58003 70000 81626 98475
AAXX 09001 76681 31940 03601 10192 20088 37768 40145 57010 70500 92340 333 10220 20040 30/// 5//// 58003 70000
AAXX 09001 76683 32968 11501 10176 20075 37821 40135 56003 80001 92345 333 10218 20034 30/// 50331 56004 59004 70000 81080
AAXX 09001 76684 06/// /2103 10168 20038 37824 40125 55001 60001 7//// 8//// 92350 333 0//// 10238 20029 30/// 4//// 50309 54/// 56/// 57/// 59003 60007 70000 8//// 8//// 8//// 9//// 9/
AAXX 09001 76685 32970 21501 10182 20011 37859 40092 57005 80001 92350 333 10220 20054 30/// 50211 56009 59007 70000 82077
AAXX 09001 76687 31358 70000 10138 20125 38694 40198 55005 70222 875// 92340 333 10156 20094 30/// 50080 563// 59027 70022 82714 85618
AAXX 09001 76692 31556 40303 10211 20172 30170 40190 37007 71044 83170 92345 333 10240 20180 30/// 50361 5611/ 59037 70000 81818 82630
AAXX 09001 76693 06/// /0202 10204 20172 30173 40192 55005 60001 7//// 8//// 92350 333 0//// 10240 20180 30/// 4//// 50249 56/// 57/// 59038 60007 70000 8//// 8//// 8//// 8//// 9//// 9/
AAXX 09001 76695 32456 63504 10224 20164 30167 40173 57001 86200 92348 333 10248 20164 30/// 50470 561// 58005 70000 86820 91006 91534
AAXX 09001 76698 32558 13601 10225 20199 30166 40178 52005 82500 92350 333 10280 20195 30/// 50291 56800 58008 70000 82620
AAXX 09001 76726 32970 02201 10218 20047 38388 40089 57014 92330 333 10257 20105 30/// 50090 59010 70000
AAXX 09001 76727 06/// /0000 10207 20041 38391 40090 55005 60001 7//// 8//// 92350 333 0//// 10268 20104 30/// 4//// 50219 54/// 56/// 57/// 58005 60007 70000 8//// 8//// 8//// 9//// 9/
AAXX 09001 76737 31478 81101 10152 20136 38790 40177 55004 70322 8662/ 92335 333 10200 20105 30/// 50121 5629/ 59027 70011 86710 91106 91514
AAXX 09001 76738 06/// /1201 10148 20134 38792 40183 55002 60001 7//// 8//// 333 10207 20110 30/// 50159 56/// 57/// 59028 60007 70018 8//// 8//// 8//// 8//// 9//// 9//// 9//// 444 ////
AAXX 09001 76743 31340 80502 10232 20208 30167 40175 55000 70200 884// 92355 333 10260 20215 30/// 50080 561// 58001 70025 88810
AAXX 09001 76750 32558 73402 10243 20193 30158 40168 52010 87500 92350 333 10290 20199 30/// 50261 56880 58006 70013 87720
AAXX 09001 76751 06/// /3502 10239 20193 30158 40168 53010 60001 7//// 8//// 92350 333 0//// 10288 20204 30/// 4//// 50229 54/// 56/// 57/// 58006 60007 70020 8//// 8//// 8//// 9//// 9/
AAXX 09001 76762 32504 11201 10272 20221 38749 40097 56007 81100 92338 333 10306 20120 30/// 50331 56300 58012 70000 81830
AAXX 09001 76772 06/// /3002 10231 20065 38414 40090 55004 60001 7//// 8//// 92350 333 0//// 10284 20057 30/// 4//// 5///9 56/// 57/// 59016 60007 70000 8//// 8//// 8//// 9//// 9//// 9/
AAXX 09001 76773 32570 12701 10236 20073 38409 40086 57007 81400 92346 333 10276 20051 30/// 50391 56200 59013 70000 81620
AAXX 09001 76775 31565 10602 10215 20070 38513 40120 57004 70544 81500 92350 333 10284 20088 30/// 50321 56800 59010 70000 81624
AAXX 09001 76776 06/// /1002 10207 20077 38495 40102 55006 60001 7//// 8//// 92350 333 0//// 10287 20091 30/// 4//// 50369 56/// 57/// 59011 60007 70000 8//// 8//// 8//// 9//// 9//// 9/
AAXX 09001 76805 32970 32602 10282 20230 30109 40113 56003 80001 82350 333 10338 20209 30/// 50451 58013 70000 83059
AAXX 09001 76806 06/// /2602 10273 20230 30109 40113 55001 60001 7//// 8//// 92350 333 10314 20196 30/// 50259 56/// 57/// 58012 60007 70000 8//// 8//// 8//// 8//// 9//// 9//// 9//// 55
AAXX 09001 76833 32970 03609 10272 20222 30120 40122 52004 92340 333 10305 20217 30/// 5//// 58005 70000 92023
AAXX 09001 76843 32465 23604 10200 20155 39504 40147 53003 82100 92335 333 10247 20166 30/// 50231 567// 59001 70000 82819
AAXX 09001 76845 32360 23601 10130 20107 37951 40162 53002 82600 92345 333 10166 20108 30/// 50181 56200 59007 70014 82710
AAXX 09001 76848 32970 40501 10148 20120 38385 40094 53002 84050 92350 333 10208 20134 30/// 50171 56090 59009 70008 84359
AAXX 09001 76855 32580 12601 10278 20225 30054 40103 56001 81200 92340 333 10328 20210 30/// 50470 56900 58013 70000 81820 92000
AAXX 09001 76902 06/// /2302 10272 20218 39982 40119 53007 60001 7//// 8//// 92350 333 0//// 10334 20221 30/// 4//// 50389 54/// 56/// 57/// 58010 60007 70000 8//// 8//// 8//// 8//// 9/
AAXX 09001 76160 32562 62301 10198 20008 39911 40157 52001 84601 92332 333 10225 20040 30/// 50330 56509 58008 70000 84730
AAXX 09001 76243 32773 41402 10164 20043 39892 40191 57011 84050 92340 333 10196 20018 30/// 50261 56050 59060 70000 84350
AAXX 09001 76253 32682 73605 10164 20104 30088 40178 57004 87020 92340 333 10185 20110 30/// 50421 56070 58003 70000 87457 92003
AAXX 09001 76311 32980 50000 10250 20081 39868 40141 52001 80006 92355 333 10296 20055 30/// 50490 56006 58019 70000 85270
AAXX 09001 76405 32980 63203 10206 20141 30145 40167 57002 80008 92350 333 10241 20152 30/// 50320 56005 58012 70000 86276
AAXX 09001 76412 32966 02202 10240 20115 30122 40172 57006 92345 333 10287 20066 30/// 50291 58008 70000
AAXX 09001 76640 31258 80401 10188 20172 30199 40211 57025 70222 8212/ 92340 333 10208 20122 30/// 50111 5689/ 59074 79999 82807 86440
AAXX 09001 76647 32965 00302 10215 20159 30157 40187 53006 92350 333 10279 20178 30/// 50201 58004 79999
AAXX 09001 76741 01240 80000 10194 20187 30145 40163 56004 60191 76366 8622/ 92335 333 10218 20169 32/// 50181 5629/ 59013 60147 70574 86807 82460
AAXX 09001 76840 32540 10405 10256 20179 30069 40124 52003 81200 92340 333 0/800 10298 20170 30/// 50691 58000 70000 81827
BBXX KSDF 09004 99348 10202 41798 23312 10178 20142 40238 54000 70200 82189 22223 0//// 20601 330// 40802 5//// 6//// 80156
AAXX 09004 65351 31950 70810 10260 20056 3//// 4//// 70522 80002 333 5//// 87076
AAXX 09004 65355 31958 70406 10190 20050 39595 40107 70522 80002 333 59006 87073
AAXX 09004 65357 32960 70000 10235 20048 39725 40110 80002 333 58005 87076
AAXX 09004 65380 32960 70000 10238 20229 3//// 4//// 80002 333 5//// 87076
AAXX 09001 76040 32960 03402 10187 20007 30169 40183 57011 92340 33310194 20010 30/// 50380 59023 70000 98660
AAXX 09001 76055 32980 73105 10164 21044 30148 40167 57006 80005 92340333 0/006 10188 20041 30/// 50251 59018 70000 87270
AAXX 09001 76113 32880 32201 10180 20002 39694 40170 57004 83030 92340333 10185 21018 30/// 50121 56040 59017 70000 83358
AAXX 09001 76122 32765 60000 10130 20043 38528 40168 52003 82034 92350333 10161 21072 30/// 50181 56055 58/// 70000
AAXX 09001 76225 32760 83602 10148 21050 38618 40138 5//// 88030 92345333 10170 21018 30/// 50144 56050 59025 70000 88360
AAXX 09001 76256 32980 50000 10186 20090 30157 40171 57006 85008 92340333 10218 20087 30/// 50150 56//5 58004 70000 85070
AAXX 09001 76305 32670 70402 10195 20114 30154 40162 58007 82434 92330333 10210 20105 30/// 5//// 56555 58/// 70000 82650 83060
AAXX 09001 76323 32970 82501 10200 21125 38261 40170 57013 80008 92345333 10248 21032 30/// 50231 56007 59032 70000 88268
AAXX 09001 76342 32962 03601 10178 20031 39486 40200 57001 92350 33310204 20034 30/// 50301 59050 70000
AAXX 09001 76373 32580 61601 10180 21047 38202 40147 51001 84222 92350333 10244 21050 30/// 50431 56999 58001 70000 82825 8233782067
AAXX 09001 76382 32980 40000 10212 20136 38886 40136 57014 80001 92340333 10270 20045 30/// 50331 56003 59043 70000 84076
AAXX 09001 76390 31964 21803 10180 21004 38231 40117 52006 70544 8000192330 333 10230 20019 30/// 50281 56006 59020 70000 82070
AAXX 09001 76393 31940 23401 10166 20044 39595 40180 57006 70500 8100892345 333 10194 20040 30/// 50391 56035 59057 70000
AAXX 09001 76402 31857 40000 10226 20142 30102 40159 57001 70544 8402092345 333 10250 20054 30/// 50211 56050 58015 70000
AAXX 09001 76423 32780 62601 10205 20012 38146 40111 52003 83039 92358333 10264 21005 30/// 50330 56099 59004 70000 83358 83170
AAXX 09001 76458 32970 33006 10217 20168 30142 40147 57002 80002 92338333 10263 20118 30/// 50261 56//9 58020 70000 83070
AAXX 09001 76471 32980 22703 10182 20073 37691 40054 52002 80001 92350333 10230 20041 30/// 50540 56001 59003 70000 82075
AAXX 09001 76490 06/// /0801 10193 20077 39785 40174 55000 60001 7////8//// 92350 333 0//// 10237 20027 30/// 50259 54/// 56///57/// 59072 60007 70000 8//// 8//// 8//// 8//// 9//// 9/
AAXX 09001 76491 32960 31101 10200 20101 39800 40193 54000 80004 92350333 10232 20024 30/// 50241 56009 59077 70000 83077
AAXX 09001 76499 32857 31102 10208 20115 30156 40178 52001 83030 92355333 10260 20082 30/// 50281 56040 59080 70000 83357
AAXX 09001 76519 32560 42803 10232 20034 38363 40138 52003 80002 92340333 10254 20028 30/// 50361 56006 58027 70000 84070
AAXX 09001 76525 32970 82208 10160 21014 37468 40102 55003 80001 92340333 10218 20092 30/// 50581 56//5 59004 70000 88080
AAXX 09001 76543 32675 61103 10210 20126 30177 40210 55006 86500 92335333 10243 20120 30/// 50251 56500 59070 70000 86650
AAXX 09001 76547 06/// /1001 10190 20138 30178 40190 55008 60001 7////8//// 92350 333 0//// 10230 20137 50259 56/// 57/// 5907560007 70000 8//// 8//// 8//// 8//// 9//// 9//// 9//// 44
AAXX 09001 76548 32875 50901 10198 20126 30189 40199 55010 85030 92345333 10227 20134 30/// 50341 56040 59072 70000 85358
AAXX 09001 76556 32970 13003 10230 20161 39123 40134 57002 80005 92335333 10275 20122 30/// 50281 56006 58014 70000 81070
AAXX 09001 76571 32965 42301 10222 21016 38155 40117 55003 80004 92350333 10246 20048 30/// 50271 56005 59002 70000
AAXX 09001 76577 32970 12302 10211 20170 38034 40109 56008 80005 92340333 10245 20073 30/// 50261 56005 58002 70000
AAXX 09001 76578 06/// /1802 10201 20032 38032 40083 55006 60001 7////8//// 92350 333 0//// 10255 20071 30/// 4//// 50269 54///56/// 57/// 58000 60007 70000 8//// 8//// 8//// 9//// 9/
AAXX 09001 76581 32970 01304 10180 20117 39049 40156 57005 92350 33310230 20077 30/// 50330 59066 70000
AAXX 09001 76586 06/// /1501 10192 20144 30028 40185 55005 60001 7////8//// 92350 333 0//// 10240 20116 30/// 4//// 50209 54///56/// 57/// 59079 60007 70000 8//// 8//// 8//// 9//// 9/
AAXX 09001 76592 06/// /0407 10218 21067 30186 40186 53003 60001 7////8//// 92350 333 0//// 10243 20206 30/// 4//// 50719 54///56/// 57/// 59002 60007 70000 8//// 8//// 8//// 9//// 9/
AAXX 09001 76593 32460 30504 10214 20194 30184 40186 52002 83400 92350333 10243 20186 30/// 50360 56100 59001 70000 83624 9100691505
AAXX 09001 76612 32662 42902 10227 20075 38464 40108 55007 82231 92350333 10273 20086 30/// 50161 56555 58011 70000 82840
AAXX 09001 76625 32960 02701 10210 20043 38139 40105 54000 92350 33310242 20053 30/// 50370 59004 70000
AAXX 09001 76632 32967 30206 10165 20095 37613 40068 57026 83009 92345333 10200 20064 30/// 5//// 56001 59011 70000 83272
AAXX 09001 76634 31670 40502 10176 20020 37847 40105 57002 70500 8110192350 333 10234 20042 30/// 50331 563/3 59015 70000 8183483075
AAXX 09001 76641 06/// /0000 10188 20150 30185 40197 55007 60001 7////8//// 92350 333 0//// 10213 20130 30/// 4//// 50159 54///56/// 57/// 59076 60007 70000 8//// 8//// 8//// 8//// 9/
AAXX 09001 76644 32460 10203 10216 20150 30169 40182 52002 81100 92350333 10262 20184 30/// 50200 567// 59004 70000 81820
AAXX 09001 76645 06/// /0303 10213 20142 30178 40191 53008 60001 7////8//// 92350 333 0//// 10262 20182 30/// 4//// 50349 54///56/// 57/// 59002 60007 70000 8//// 8//// 8//// 9//// 9/
AAXX 09001 76648 32965 00202 10210 20146 30148 40179 53011 60001 7////8//// 92350 333 0//// 10286 20176 30/// 4//// 50309 54///56/// 57/// 58006 60007 70000 8//// 8//// 8//// 8//// 9/
AAXX 09001 76654 31956 23201 10270 20211 30130 40133 57017 70544 8203090000 333 10296 20210 30/// 50301 560/0 58003 70000 82359
AAXX 09001 76656 32975 51601 10210 20091 38503 40107 54000 80008 92350333 10260 20100 30/// 50430 56005 58010 70000 85280
AAXX 09001 76658 31960 42304 10277 20156 39620 40116 56014 70541 8000292347 333 0/001 10325 20166 30/// 50410 58003 70000 8407098904
AAXX 09001 76659 06/// /2004 10276 20118 3//// 4//// 5//// 60001 7////8//// 92350 333 0//// 10343 20150 30/// 4//// 50349 54///56/// 57/// 5//// 60007 70000 8//// 8//// 8//// 9//// 9/
AAXX 09001 76662 31670 42603 10240 20111 38443 40084 57009 84400 92330333 10292 20080 30/// 50320 56//0 58008 70000 84633
AAXX 09001 76665 31560 21601 10200 20119 38129 40129 52005 70100 8210092355 333 10258 20099 30/// 50361 56100 57812 58026 7000082814
AAXX 09001 76675 31575 12002 10155 20059 37373 40090 57004 70544 8110092352 333 10200 20038 30/// 50291 569// 58003 70000 8162698475
AAXX 09001 76681 31940 03601 10192 20088 37768 40145 57010 70500 92340333 10220 20040 30/// 5//// 58003 70000
AAXX 09001 76683 32968 11501 10176 20075 37821 40135 56003 80001 92345333 10218 20034 30/// 50331 56004 59004 70000 81080
AAXX 09001 76684 06/// /2103 10168 20038 37824 40125 55001 60001 7////8//// 92350 333 0//// 10238 20029 30/// 4//// 50309 54///56/// 57/// 59003 60007 70000 8//// 8//// 8//// 9//// 9/
AAXX 09001 76685 32970 21501 10182 20011 37859 40092 57005 80001 92350333 10220 20054 30/// 50211 56009 59007 70000 82077
AAXX 09001 76687 31358 70000 10138 20125 38694 40198 55005 70222 875//92340 333 10156 20094 30/// 50080 563// 59027 70022 8271485618
AAXX 09001 76692 31556 40303 10211 20172 30170 40190 37007 71044 8317092345 333 10240 20180 30/// 50361 5611/ 59037 70000 8181882630
AAXX 09001 76693 06/// /0202 10204 20172 30173 40192 55005 60001 7////8//// 92350 333 0//// 10240 20180 30/// 4//// 50249 56///57/// 59038 60007 70000 8//// 8//// 8//// 8//// 9//// 9/
AAXX 09001 76695 32456 63504 10224 20164 30167 40173 57001 86200 92348333 10248 20164 30/// 50470 561// 58005 70000 86820 9100691534
AAXX 09001 76698 32558 13601 10225 20199 30166 40178 52005 82500 92350333 10280 20195 30/// 50291 56800 58008 70000 82620
AAXX 09001 76726 32970 02201 10218 20047 38388 40089 57014 92330 33310257 20105 30/// 50090 59010 70000
AAXX 09001 76727 06/// /0000 10207 20041 38391 40090 55005 60001 7////8//// 92350 333 0//// 10268 20104 30/// 4//// 50219 54///56/// 57/// 58005 60007 70000 8//// 8//// 8//// 9//// 9/
AAXX 09001 76737 31478 81101 10152 20136 38790 40177 55004 70322 8662/92335 333 10200 20105 30/// 50121 5629/ 59027 70011 8671091106 91514
AAXX 09001 76738 06/// /1201 10148 20134 38792 40183 55002 60001 7////8//// 333 10207 20110 30/// 50159 56/// 57/// 59028 6000770018 8//// 8//// 8//// 8//// 9//// 9//// 9//// 444 ////
AAXX 09001 76743 31340 80502 10232 20208 30167 40175 55000 70200 884//92355 333 10260 20215 30/// 50080 561// 58001 70025 88810
AAXX 09001 76750 32558 73402 10243 20193 30158 40168 52010 87500 92350333 10290 20199 30/// 50261 56880 58006 70013 87720
AAXX 09001 76751 06/// /3502 10239 20193 30158 40168 53010 60001 7////8//// 92350 333 0//// 10288 20204 30/// 4//// 50229 54///56/// 57/// 58006 60007 70020 8//// 8//// 8//// 9//// 9/
AAXX 09001 76762 32504 11201 10272 20221 38749 40097 56007 81100 92338333 10306 20120 30/// 50331 56300 58012 70000 81830
AAXX 09001 76772 06/// /3002 10231 20065 38414 40090 55004 60001 7////8//// 92350 333 0//// 10284 20057 30/// 4//// 5///9 56///57/// 59016 60007 70000 8//// 8//// 8//// 9//// 9//// 9/
AAXX 09001 76773 32570 12701 10236 20073 38409 40086 57007 81400 92346333 10276 20051 30/// 50391 56200 59013 70000 81620
AAXX 09001 76775 31565 10602 10215 20070 38513 40120 57004 70544 8150092350 333 10284 20088 30/// 50321 56800 59010 70000 81624
AAXX 09001 76776 06/// /1002 10207 20077 38495 40102 55006 60001 7////8//// 92350 333 0//// 10287 20091 30/// 4//// 50369 56///57/// 59011 60007 70000 8//// 8//// 8//// 9//// 9//// 9/
AAXX 09001 76805 32970 32602 10282 20230 30109 40113 56003 80001 82350333 10338 20209 30/// 50451 58013 70000 83059
AAXX 09001 76806 06/// /2602 10273 20230 30109 40113 55001 60001 7////8//// 92350 333 10314 20196 30/// 50259 56/// 57/// 5801260007 70000 8//// 8//// 8//// 8//// 9//// 9//// 9//// 55
AAXX 09001 76833 32970 03609 10272 20222 30120 40122 52004 92340 33310305 20217 30/// 5//// 58005 70000 92023
AAXX 09001 76843 32465 23604 10200 20155 39504 40147 53003 82100 92335333 10247 20166 30/// 50231 567// 59001 70000 82819
AAXX 09001 76845 32360 23601 10130 20107 37951 40162 53002 82600 92345333 10166 20108 30/// 50181 56200 59007 70014 82710
AAXX 09001 76848 32970 40501 10148 20120 38385 40094 53002 84050 92350333 10208 20134 30/// 50171 56090 59009 70008 84359
AAXX 09001 76855 32580 12601 10278 20225 30054 40103 56001 81200 92340333 10328 20210 30/// 50470 56900 58013 70000 81820 92000
AAXX 09001 76902 06/// /2302 10272 20218 39982 40119 53007 60001 7////8//// 92350 333 0//// 10334 20221 30/// 4//// 50389 54///56/// 57/// 58010 60007 70000 8//// 8//// 8//// 8//// 9/
AAXX 09001 76160 32562 62301 10198 20008 39911 40157 52001 84601 92332333 10225 20040 30/// 50330 56509 58008 70000 84730
AAXX 09001 76243 32773 41402 10164 20043 39892 40191 57011 84050 92340333 10196 20018 30/// 50261 56050 59060 70000 84350
AAXX 09001 76253 32682 73605 10164 20104 30088 40178 57004 87020 92340333 10185 20110 30/// 50421 56070 58003 70000 87457 92003
AAXX 09001 76311 32980 50000 10250 20081 39868 40141 52001 80006 92355333 10296 20055 30/// 50490 56006 58019 70000 85270
AAXX 09001 76405 32980 63203 10206 20141 30145 40167 57002 80008 92350333 10241 20152 30/// 50320 56005 58012 70000 86276
AAXX 09001 76412 32966 02202 10240 20115 30122 40172 57006 92345 33310287 20066 30/// 50291 58008 70000
AAXX 09001 76640 31258 80401 10188 20172 30199 40211 57025 70222 8212/92340 333 10208 20122 30/// 50111 5689/ 59074 79999 8280786440
AAXX 09001 76647 32965 00302 10215 20159 30157 40187 53006 92350 33310279 20178 30/// 50201 58004 79999
AAXX 09001 76741 01240 80000 10194 20187 30145 40163 56004 60191 763668622/ 92335 333 10218 20169 32/// 50181 5629/ 59013 6014770574 86807 82460
AAXX 09001 76840 32540 10405 10256 20179 30069 40124 52003 81200 92340333 0/800 10298 20170 30/// 50691 58000 70000 81827
AAXX 09004 17070 1//// /1903 10023 20006 39303 40182 52001 69921
AAXX 09004 17160 1//// /2702 10021 20013 38987 40155 53004 60011
AAXX 09004 17290 3//// /0105 10103 20062 30159 40190 58001 60001
AAXX 09004 17050 3//// /3305 10042 21015 30157 40220 55000 60001
AAXX 09004 17024 3//// /1912 10053 20029 30085 40165 55003 60001
AAXX 09004 17116 1//// /1202 10031 20026 30105 40229 50020 60111
AAXX 09004 17310 3//// /0602 10126 20066 30144 40150 50001 60001
AAXX 09001 02464 45484 /1308 10021 21007 39958 49976 58049 8//// 333 81/15 83/18 85/22
AAXX 09001 02500 07366 /1412 10032 20027 39740 49781 56059 60101 72376 333 69925 84/07 86/09 87/16 88/// 90710 91120
AAXX 09001 02513 07/74 /1505 10037 20030 39819 49823 58064 60171 78187 333 69925 90710 91112
AAXX 09001 02615 07359 /2116 10065 20058 39901 49906 56060 60061 76186 333 69975 88/09 90710 91124
AAXX 09001 02635 07/56 /2106 10061 20053 60111 76266 333 60025 90710 91115
AAXX 09004 60715 12560 21605 10125 20102 30268 40275 57003 60003 82240 333 59003 82823 91005 91110
AAXX 09004 60723 NIL
AAXX 09004 60725 12960 32102 10076 2//// 30111 40295 56005 60003 83080 333 55054 20954 83360
AAXX 09004 60735 12958 02302 10116 20088 30201 40285 52004 60003 333 55090 20974
AAXX 09004 60745 12960 00505 10057 20039 39911 40296 50000 60003 333 55077 21148
AAXX 09004 60748 NIL
AAXX 09004 60750 12960 03402 10113 20078 30254 40280 56002 60003 333 55082 21066
AAXX 09004 60760 12960 02608 10114 20048 30176 40282 56003 60003 333 55090 21247
AAXX 09004 60765 NIL
AAXX 09004 60767 12960 02208 10128 20048 30135 40284 56004 60003 333 55088 21740
AAXX 09004 60769 12458 21908 10120 20077 30269 40273 50000 60003 81202 333 21235 55087 81816
AAXX 09004 60715 12560 21605 10125 20102 30268 40275 57003 60003 82240 333 59003 82823 91005 91110
AAXX 09004 60723 NIL
AAXX 09004 60725 12960 32102 10076 2//// 30111 40295 56005 60003 83080 333 55054 20954 83360
AAXX 09004 60735 12958 02302 10116 20088 30201 40285 52004 60003 333 55090 20974
AAXX 09004 60745 12960 00505 10057 20039 39911 40296 50000 60003 333 55077 21148
AAXX 09004 60748 NIL
AAXX 09004 60750 12960 03402 10113 20078 30254 40280 56002 60003 333 55082 21066
AAXX 09004 60760 12960 02608 10114 20048 30176 40282 56003 60003 333 55090 21247
AAXX 09004 60765 NIL
AAXX 09004 60767 12960 02208 10128 20048 30135 40284 56004 60003 333 55088 21740
AAXX 09004 60769 12458 21908 10120 20077 30269 40273 50000 60003 81202 333 21235 55087 81816
AAXX 09004 91487 NIL
AAXX 09004 91490 NIL
AAXX 09004 91533 NIL
AAXX 09004 91601 NIL
AAXX 09004 91610 11599 21110 10300 20229 40075 58008 60001 70110 81131 3333 20285 56399 70054 81820 81360 81080
AAXX 09004 91623 NIL
AAXX 09004 91629 NIL
AAXX 09004 91701 NIL
AAXX 09003 91551 11498 51204 10275 20252 4//// 5//// 60614 72168 8592/ 333 20/// 5639/ 5//// 60614 84818 81925 88461
AAXX 09003 91553 11598 80905 10300 20261 40100 51006 60444 70222 8397/ 333 20230 5619/ 58020 60444 83820 81925 88461
AAXX 09003 91554 11598 73410 10287 20258 40093 54000 60374 70222 8723/ 333 20225 5679/ 58015 60374 87820
AAXX 09003 91555 11598 80305 10294 20252 40092 58005 60524 70222 81237 333 20228 56999 58011 60524 81825 83363 88278
AAXX 09003 91557 11598 80404 10286 20245 40078 51003 60234 70222 8487/ 333 20235 5619/ 58017 60234 81820 83640 88461
AAXX 09003 91565 11598 83608 10282 20236 40093 58006 60014 71522 8397/ 333 20220 5619/ 58018 60014 82820 81922 88461
AAXX 09003 91568 11598 80808 10290 20253 40110 58002 60094 70282 8317/ 333 20234 5639/ 58019 60094 83825 88461
AAXX 09003 91551 11498 51204 10275 20252 4//// 5//// 60614 72168 8592/ 333 20/// 5639/ 5//// 60614 84818 81925 88461
AAXX 09003 91553 11598 80905 10300 20261 40100 51006 60444 70222 8397/ 333 20230 5619/ 58020 60444 83820 81925 88461
AAXX 09003 91554 11598 73410 10287 20258 40093 54000 60374 70222 8723/ 333 20225 5679/ 58015 60374 87820
AAXX 09003 91555 11598 80305 10294 20252 40092 58005 60524 70222 81237 333 20228 56999 58011 60524 81825 83363 88278
AAXX 09003 91557 11598 80404 10286 20245 40078 51003 60234 70222 8487/ 333 20235 5619/ 58017 60234 81820 83640 88461
AAXX 09003 91565 11598 83608 10282 20236 40093 58006 60014 71522 8397/ 333 20220 5619/ 58018 60014 82820 81922 88461
AAXX 09003 91568 11598 80808 10290 20253 40110 58002 60094 70282 8317/ 333 20234 5639/ 58019 60094 83825 88461
AAXX 09004 91487 NIL
AAXX 09004 91490 NIL
AAXX 09004 91533 NIL
AAXX 09004 91601 NIL
AAXX 09004 91610 11599 21110 10300 20229 40075 58008 60001 70110 81131 3333 20285 56399 70054 81820 81360 81080
AAXX 09004 91623 NIL
AAXX 09004 91629 NIL
AAXX 09004 91701 NIL
AAXX 09001 02947 47/56 71403 10002 20002 40091 54000 77177 87/// 92351
AAXX 09004 17210 3//// /0700 10037 21087 39144 40190 5//// 60001
BBXX DCAX2 09003 99330 11275 41297 83330 10060 20009 40260 54000 7//52 8/700 22253 20605 333// 40706 5//// 80040
AAXX 09004 17248 1//// /2100 10025 20016 38960 40170 5//// 69981
AAXX 09004 17330 3//// /0000 10075 20062 30139 40159 5//// 60001
AAXX 09004 17155 3//// /0002 10009 21010 39051 40185 55003 60001
AAXX 09004 60710 12560 22104 10133 20110 30194 40274 56007 60003 82200 333 55009 20291 82820
AAXX 09004 60714 NIL
AAXX 09004 60720 NIL
AAXX 09004 60728 NIL
AAXX 09004 60729 NIL
AAXX 09004 60731 05960 /2206 10096 20084 30269 40276 56002 60003 333 59007 55088 60007 91007 91110
AAXX 09004 60732 NIL
AAXX 09004 60734 NIL
AAXX 09004 60738 NIL
AAXX 09004 60739 NIL
AAXX 09004 60740 12958 02302 10118 20090 30277 40279 57002 60003 333 55091 21085
AAXX 09004 60742 NIL
AAXX 09004 60764 NIL
AAXX 09004 60770 NIL
AAXX 09004 60772 NIL
AAXX 09004 60775 NIL
AAXX 09004 60780 NIL
BBXX DCPY2 09003 99339 10240 41497 23119 10180 20146 40210 57005 70200 8/100 22200 00190 2//// 80160
BBXX UGPK 09001 99560 11473 43/99 80506 11010 40001 56090 22211 00013 2//00 3//00
AAXX 09004 48300 31/02 90000 10193 20183 39819 40137 52011 74740 333 20188 59005
AAXX 09004 48327 NIL
AAXX 09004 48331 NIL
AAXX 09004 48353 NIL
AAXX 09004 48356 32968 70000 10198 20163 39957 40158 53013 82550 333 20195 58025
AAXX 09004 48375 NIL
AAXX 09004 48378 NIL
AAXX 09004 48381 NIL
AAXX 09004 48407 NIL
AAXX 09004 48431 NIL
AAXX 09004 48456 NIL
AAXX 09004 48480 NIL
AAXX 09004 48500 NIL
AAXX 09004 48551 NIL
AAXX 09004 48565 NIL
AAXX 09004 48569 NIL
AAXX 09004 48583 NIL
AAXX 09004 48310 NIL
AAXX 09004 48325 NIL
AAXX 09004 48329 NIL
AAXX 09004 48352 NIL
AAXX 09004 48357 NIL
AAXX 09004 48380 NIL
AAXX 09004 48383 NIL
AAXX 09004 48403 NIL
AAXX 09004 48405 NIL
AAXX 09004 48420 NIL
AAXX 09004 48421 NIL
AAXX 09004 48425 NIL
AAXX 09004 48426 NIL
AAXX 09004 48429 NIL
AAXX 09004 48430 31959 21212 10250 20169 30110 40117 52022 70521 80005 333 20242 58020
AAXX 09004 48450 NIL
AAXX 09004 48459 NIL
AAXX 09004 48465 NIL
AAXX 09004 48550 NIL
AAXX 09004 48552 11458 70000 10240 20233 30096 40103 52015 60174 71062 86907 333 20230 58013 70169
AAXX 09004 48566 NIL
AAXX 09004 48568 NIL
AAXX 09004 48302 NIL
AAXX 09004 48304 NIL
AAXX 09004 48334 NIL
AAXX 09004 48360 NIL
AAXX 09004 48372 NIL
AAXX 09004 48373 NIL
AAXX 09004 48386 NIL
AAXX 09004 48387 NIL
AAXX 09004 48408 NIL
AAXX 09004 48415 NIL
AAXX 09004 48433 NIL
AAXX 09004 48437 32962 20405 10192 20158 39933 40149 52018 80001 333 20181 58029
AAXX 09004 48440 NIL
AAXX 09004 48451 NIL
AAXX 09004 48454 NIL
AAXX 09004 48457 NIL
AAXX 09004 48463 NIL
AAXX 09004 48464 NIL
AAXX 09004 48479 NIL
AAXX 09004 48520 NIL
AAXX 09004 48554 NIL
AAXX 09004 48563 NIL
AAXX 09004 48571 NIL
AAXX 09004 48307 NIL
AAXX 09004 48324 NIL
AAXX 09004 48333 NIL
AAXX 09004 48350 NIL
AAXX 09004 48355 NIL
AAXX 09004 48358 NIL
AAXX 09004 48384 NIL
AAXX 09004 48401 NIL
AAXX 09004 48404 NIL
AAXX 09004 48409 NIL
AAXX 09004 48419 NIL
AAXX 09004 48427 NIL
AAXX 09004 48435 NIL
AAXX 09004 48453 NIL
AAXX 09004 48458 NIL
AAXX 09004 48474 NIL
AAXX 09004 48481 NIL
AAXX 09004 48555 NIL
AAXX 09004 48556 NIL
AAXX 09004 48557 NIL
AAXX 09004 48560 NIL
AAXX 09004 48574 NIL
AAXX 09004 48581 NIL
AAXX 09001 91948 01470 82903 10220 20203 30017 40120 56020 60204 72186 888// 333 20209 56899 59022 60037 83816 85820 90710 91118 555 60015 13518
AAXX 09001 91954 06/// /1310 1//// 2//// 30098 4//// 56016 60054 333 2//// 59030 69927
AAXX 09001 91925 02581 21015 10278 20206 30027 40087 56020 60014 82201 333 20222 56206 58008 60007 82820 90710 91128 555 60005 11028
AAXX 09001 91929 04/86 /0505 10296 20213 30102 40105 56020 60001 700// 333 60007 90710 91109 555 60005
AAXX 09001 91938 01565 70802 10293 20223 30100 40102 57019 60001 71511 878// 333 60007 82820 86650 90710 91106 555 60005 10207
AAXX 09001 91943 36/// /0410 10292 20209 30095 40097 56022 333 59006= 91944 06/// /3611 10281 20206 30096 40099 56018 60001 333 60007 90710 91116 555 60005
AAXX 09001 91958 02581 50323 10229 20160 30126 40128 56015 60094 84202 333 20184 56309 59031 60007 84823 90710 91145 555 60005 10345
AAXX 09001 91945 36/// /3112 10294 20219 30088 40093 56024 333 20219 59031
AAXX 09001 78458 32466 30000 10254 20235 40153 52014 83200 333 10302 20206 30/// 56200 58019 83818
AAXX 09001 78460 32466 31102 10242 20207 40142 52020 83900 333 10305 20193 30/// 56200 58014 81918 82620
AAXX 09001 78467 32466 20903 10264 20231 40149 52024 82200 333 10300 20184 30/// 56200 58023 82815
AAXX 09001 78479 32566 30803 10260 20233 40119 52010 82230 333 10300 20220 30/// 56200 58013 82820
AAXX 09001 78482 31466 31302 10258 20224 40147 52014 82931 333 10314 20185 30/// 56000 58011 81918 81820
AAXX 09001 78485 31466 30203 10226 20209 40141 52018 70296 82830 333 10320 20203 31/// 56100 58017 82818 83358
AAXX 09001 78486 31460 20000 10239 20215 40125 52015 70196 82400 333 10319 20222 32/// 56000 58012 69907 82616
AAXX 09001 78488 32466 10000 10234 20228 40140 52014 81200 333 10306 20178 30/// 56000 58011 81816
AAXX 09004 94299 46/// /0505 10306 20254 30079 40089
AAXX 09004 94300 46/// /1911 10249 20183 30062 40072
AAXX 09004 94302 46/// /2006 10265 20173 30068 40074
AAXX 09004 94312 46/// /2512 10297 20171 30048 40057
AAXX 09004 94313 NIL
AAXX 09004 94317 46/// /1807 10281 20079 39472 40041
AAXX 09004 94319 46/// /2709 10285 20171 39713 40034
AAXX 09004 94324 NIL
AAXX 09004 94326 46/// /3019 10330 20170 39426 40023
AAXX 09004 94327 46/// /3018 10346 20175 39670 40033
AAXX 09004 94332 46/// /3509 10327 20101 39680 40056
AAXX 09004 94333 NIL
AAXX 09004 94341 46/// /0310 10338 20098 39830 40059
AAXX 09004 94346 46/// /0113 10315 20122 39848 40062
AAXX 09004 94363 46/// /0512 10278 20211 39880 40093
AAXX 09004 94366 NIL
AAXX 09004 94367 46/// /0907 10283 20221 30058 40099
AAXX 09004 94374 46/// /0909 10274 20202 30092 40108
AAXX 09004 94388 46/// /1109 10256 20190 30112 40117
AAXX 09004 94393 46/// /1401 10254 30088 40100 53004
AAXX 09004 94394 46/// /1809 10253 30098 40106 53005
AAXX 09004 94403 46/// /1108 10239 20139 30030 40071
AAXX 09004 94429 46/// /0609 10239 20132 39603 40055
AAXX 09004 94430 46/// /1009 10249 20097 39476 40043
AAXX 09004 94449 46/// /1008 10206 20128 39554 40071
AAXX 09004 94451 NIL
AAXX 09004 94461 46/// /1208 10301 20076 39376 40026
AAXX 09004 94462 46/// /1506 10309 20118 39487 40026
AAXX 09004 94477 NIL
AAXX 09004 94488 NIL
AAXX 09004 94102 46/// /2414 10310 20256 30063 40072
AAXX 09004 94103 NIL
AAXX 09004 94120 46/// /2001 10308 20251 30033 40073
AAXX 09004 94122 NIL
AAXX 09004 94131 46/// /3107 10321 20233 39919 40069
AAXX 09004 94132 NIL
AAXX 09004 94147 NIL
AAXX 09004 94150 46/// /3507 10320 20235 30008 40067
AAXX 09004 94151 46/// /3108 10325 20245 30051 4////
AAXX 09004 94170 46/// /3403 10318 20249 30048 40070
AAXX 09004 94200 NIL
AAXX 09004 94203 46/// /2514 10307 20210 30060 40070
AAXX 09004 94206 46/// /2809 10300 20211 39940 40068
AAXX 09004 94207 46/// /2416 10276 30059 40067 51015
AAXX 09004 94211 NIL
AAXX 09004 94212 46/// /2606 10304 20180 39592 40054
AAXX 09004 94216 46/// /2602 10322 20237 30012 40062
AAXX 09004 94236 NIL
AAXX 09004 94238 46/// /3414 10330 20187 39642 40055
AAXX 09004 94248 NIL
AAXX 09004 94255 46/// /3109 10341 20146 39804 40060
AAXX 09004 94268 46/// /2902 10311 20225 30055 40067
AAXX 09004 94287 46/// /0506 10312 20235 30069 40078
AAXX 09004 94290 NIL
AAXX 09004 94294 46/// /0610 10299 20248 30078 40088
AAXX 09004 94296 35/// /0000 10296 30076 40086 52005
AAXX 09004 94298 46/// /0806 10289 30085 40091 52006
AAXX 09004 95641 NIL
AAXX 0900/ 41859 NIL
AAXX 0900/ 41883 NIL
AAXX 0900/ 41891 NIL
AAXX 0900/ 41907 NIL
AAXX 0900/ 41923 NIL
AAXX 0900/ 41936 NIL
AAXX 0900/ 41943 NIL
AAXX 0900/ 41950 NIL
AAXX 0900/ 41978 NIL
AAXX 0900/ 41992 NIL
AAXX 09004 88963 32460 52720 10030 21028 39794 49824 51009 83670 333 10066 20027 56770 83710 85360 92417 94070 95000
AAXX 09004 88968 11458 83220 10015 21013 39866 49882 51009 69901 77072 8872/ 333 10038 20014 56799 88712 90013 90095 90207 90290 90921 92416 92731 92801 94070 95060
AAXX 09004 89034 32570 80000 11088 21147 39360 49673 57012 884// 333 11056 21088 56299 88630 92407 92830
AAXX 09004 89053 31230 72727 10012 20000 39874 49889 52008 71022 86780 333 10025 20007 56670 86705 84358 90068 90084 92425 92851 94070 94479 95080 97530 98530
AAXX 09004 89055 32970 32904 10017 21010 39574 49815 56003 80006 333 10017 21020 56007 83270 92734 92851 95100
AAXX 09004 89066 32570 80000 10021 21029 39738 49746 55012 886// 333 10032 20003 56299 85725 88730 92407 92734 92851 94075 95015
AAXX 09003 NIL
AAXX 09004 89564 45/// /1430 11098 21163 39654 49673 55004
AAXX 09004 89570 46/// /0820 11117 21160 39036 58028 333 21152
AAXX 09004 89571 41565 70115 11055 21118 39671 49699 58028 78588 875//
AAXX 09004 89573 NIL
AAXX 09004 89610 NIL
AAXX 09004 89611 41780 70818 11010 21082 39666 49717 53017 71422 8457/
AAXX 09004 89614 NIL
AAXX 09004 89615 466// 81024 11084 21124 38832 53019 333 21104
AAXX 09004 89807 NIL
AAXX 09004 89809 46/// /0920 11050 21100 39271 52020 333 21112
AAXX 09004 94500 NIL
AAXX 09004 94510 46/// /0211 10262 20169 39734 40073
AAXX 09004 94515 46/// /0314 10254 20171 39752 40093
AAXX 09004 94552 46/// /0508 10236 20138 39656 40113
AAXX 09004 94578 46/// /1007 10241 20157 30114 40125
AAXX 09004 94584 46/// /1717 10232 20170 30010 40119
AAXX 09004 94601 46/// /0710 10180 20136 30105 40122
AAXX 09004 94610 46/// /1209 10207 20126 30079 40102
AAXX 09004 94637 46/// /1007 10177 20119 39670 40086
AAXX 09004 94638 46/// /0104 10186 20145 30080 40111
AAXX 09004 94642 NIL
AAXX 09004 94643 NIL
AAXX 09004 94647 46/// /1707 10180 20162 39953 40071
AAXX 09004 94651 46/// /1909 10190 20188 39980 40055
AAXX 09004 94653 46/// /2805 10239 20169 30027 40045
AAXX 09004 94659 46/// /0215 10200 20164 39873 40063
AAXX 09004 94672 46/// /0205 10199 20168 30064 40074
AAXX 09004 94691 NIL
AAXX 09004 94693 46/// /0114 10296 20078 30015 40075
AAXX 09004 94700 NIL
AAXX 09004 94703 46/// /0608 10250 20175 39976 40099
AAXX 09004 94710 46/// /0408 10237 20147 39857 40104
AAXX 09004 94729 46/// /0407 10182 20106 39291 40125
AAXX 09004 94750 46/// /0409 10215 20142 30025 40148
AAXX 09004 94767 46/// /1310 10215 20156 30146 40152
AAXX 09004 94776 46/// /0105 10190 20163 30137 40147
AAXX 09004 94791 NIL
AAXX 09004 94802 46/// /1510 10171 20099 30045 40127
AAXX 09004 94804 46/// /0716 10175 20165 30009 40046
AAXX 09004 94807 NIL
AAXX 09004 94821 46/// /1607 10193 20145 30016 40097
AAXX 09004 94842 46/// /0205 10236 20120 30004 40102
AAXX 09004 94847 NIL
AAXX 09004 94850 46/// /2506 10208 20145 30058 40103
AAXX 09004 94865 46/// /0113 10267 20138 30079 40103
AAXX 09004 94866 46/// /3624 10264 20120 39966 40105
AAXX 09004 94875 46/// /0310 10251 20120 39986 40119
AAXX 09004 94893 NIL
AAXX 09004 94907 46/// /1005 10243 20120 30100 40110
AAXX 09004 94910 46/// /0609 10238 20108 39876 40121
AAXX 09004 94926 46/// /0307 10205 20105 39475 40132
AAXX 09004 94935 46/// /0312 10237 20141 30106 40132
AAXX 09004 94954 46/// /0923 10169 20154 30009 40119
AAXX 09004 94956 46/// /2808 10201 20123 30083 40109
AAXX 09004 94975 46/// /0511 10227 20117 30087 40119
AAXX 09004 94983 46/// /0509 10217 20171 30122 40147
AAXX 09004 94995 46/// /1024 10187 20172 30067 40075
AAXX 09004 94996 46/// /0718 10208 20172 30012 40140
AAXX 09004 94997 NIL
AAXX 09004 94998 46/// /0211 10066 20059 30126 40137
AAXX 09004 95111 46/// /3306 10316 20257 30029 40065
AAXX 09004 95205 46/// /2610 10293 20211 30065 40072
AAXX 09004 95322 NIL
AAXX 09004 95448 46/// /1007 10243 20123 39501 40048
AAXX 09004 95458 46/// /0222 10237 20157 39782 40035
AAXX 09004 95480 46/// /0613 10221 20193 30012 40070
AAXX 09004 95481 46/// /0114 10217 20193 30040 40084
AAXX 09004 95482 46/// /0411 10237 20172 30020 40074
AAXX 09004 95485 46/// /3612 10251 20136 39883 40081
AAXX 09004 95492 46/// /0306 10238 20166 39936 40087
AAXX 09004 95527 46/// /0409 10224 20139 39873 40121
AAXX 09004 95634 46/// /1107 10186 20145 39695 40087
AAXX 09004 95637 46/// /1306 10162 20150 39779 40106
AAXX 09004 95646 46/// /1910 10186 20183 39888 40071
AAXX 09004 95666 NIL
AAXX 09004 95719 46/// /0911 10215 20137 39800 40124
AAXX 09004 95762 46/// /1305 10228 20103 39671 40119
AAXX 09004 95826 NIL
AAXX 09004 95839 46/// /0113 10271 20070 39928 40084
AAXX 09004 95864 NIL
AAXX 09004 95909 NIL
AAXX 09004 95954 NIL
AAXX 09004 95966 46/// /3211 10231 20133 39932 40131
AAXX 09004 96995 46/// /3406 10266 20236 39788 40082
AAXX 09004 96996 41470 63010 10268 20245 30049 40053 53015 71511 84803
BBXX VRWS3 08233 99056 31087 41598 83310 10300 20273 40084 51/// 70322 86870 22224 04300 2//01 399// 40502 80280
BBXX 3ECI3 09004 99339 31731 41597 40918 10184 20132 40216 51002 70300 84168 22253 00190 20503 310// 41003 80156
BBXX 9VVN8 09003 99111 51799 41698 70915 10278 20242 40111 54000 70222 83370 22273 02282 20402 30609 40402 50704 80253
BBXX VROC 09004 99227 31540 41598 51310 10281 20206 40104 55022 70211 84464 22283 04261 20301 312// 40704 80231
BBXX VNSZ 08224 99412 31464 46/// /1105 10187 20142 30095 40121 52024 22200 04174 85159
BBXX V7EM3 09003 99357 31762 41697 31317 10205 20116 40242 52025 70322 83145 22244 00200 20902 80152
BBXX VRDB3 09004 99340 31515 41298 31520 10210 20164 40155 54000 70222 82431 22215 0//// 20405 317// 40503 80180
BBXX VNSZ 08234 99412 31464 46/// /0510 10196 20147 30097 40123 52021 22200 04174 85165
BBXX S6CW 09003 99182 31610 41498 63508 10285 20250 40094 50006 76000 82268 22273 00278 20501 80260
BBXX 9HA2479 08234 99255 31624 46/// /3029 10237 20203 30049 40078 57003 22254 04242 85213
BBXX C6FS9 08224 99193 31468 46/// /1007 10272 20241 30056 40091 52022 22200 04291 85249
BBXX 9HA2479 08224 99253 31626 46/// /3123 10239 20208 30054 40083 52001 22254 04240 85217
BBXX VROB 08224 99068 31470 46/// /3213 10257 20233 30064 40089 52016 22200 04307 85240
BBXX FHZI 08224 99524 31439 46/// /3422 10074 2//// 30031 40042 52008 22283 04057
BBXX C6FS9 08234 99193 31468 46/// /0806 10279 20241 30057 40092 52018 22200 04290 85251
BBXX VROB 08234 99068 31470 46/// /3210 10272 20231 30066 40091 52009 22200 04304 85242
BBXX 9KWP 09003 99195 31059 41697 63316 10270 20241 40054 54000 70152 843/6 22284 00270 2//// 80250
BBXX VNSZ 09004 99412 31464 46/// /0612 10195 20149 30093 40119 52002 22200 04173 85166
BBXX C6FS9 09004 99193 31468 46/// /0708 10287 20251 30056 40091 52005 22200 85260
BBXX 9HA2479 09004 99257 31621 46/// /2929 10234 20194 30048 40077 57005 22254 04235 85207
BBXX FHZI 09004 99520 31441 46/// /3321 10082 20080 30044 40055 52013 22283 04058 85081
BBXX VNW6069 08223 99122 31230 41498 22406 10290 20253 40066 70100 81180 22200 02295 2//01 80264
BBXX 2AGH7 09003 99242 31574 41598 32420 10240 20183 40086 53008 70300 81260 22254 00250 20503 318// 41007 80204
AAXX 09004 94102 46/// /2414 10310 20256 30063 40072
AAXX 09004 94103 NIL
AAXX 09004 94120 46/// /2001 10308 20251 30033 40073
AAXX 09004 94122 NIL
AAXX 09004 94131 46/// /3107 10321 20233 39919 40069
AAXX 09004 94132 NIL
AAXX 09004 94147 NIL
AAXX 09004 94150 46/// /3507 10320 20235 30008 40067
AAXX 09004 94151 46/// /3108 10325 20245 30051 4////
AAXX 09004 94170 46/// /3403 10318 20249 30048 40070
AAXX 09004 94200 NIL
AAXX 09004 94203 46/// /2514 10307 20210 30060 40070
AAXX 09004 94206 46/// /2809 10300 20211 39940 40068
AAXX 09004 94207 46/// /2416 10276 30059 40067 51015
AAXX 09004 94211 NIL
AAXX 09004 94212 46/// /2606 10304 20180 39592 40054
AAXX 09004 94216 46/// /2602 10322 20237 30012 40062
AAXX 09004 94236 NIL
AAXX 09004 94238 46/// /3414 10330 20187 39642 40055
AAXX 09004 94248 NIL
AAXX 09004 94255 46/// /3109 10341 20146 39804 40060
AAXX 09004 94268 46/// /2902 10311 20225 30055 40067
AAXX 09004 94287 46/// /0506 10312 20235 30069 40078
AAXX 09004 94290 NIL
AAXX 09004 94294 46/// /0610 10299 20248 30078 40088
AAXX 09004 94296 35/// /0000 10296 30076 40086 52005
AAXX 09004 94298 46/// /0806 10289 30085 40091 52006
AAXX 09004 95641 NIL
AAXX 09004 41241 NIL
AAXX 09004 41242 36/// /2102 10136 20045 30166 40190 333 0E017 58014
AAXX 09004 41244 NIL
AAXX 09004 41246 32960 02403 10176 20092 30174 40179 333 58018
AAXX 09004 41251 NIL
AAXX 09004 41252 36/// /0708 10181 20074 39794 40084 333 0E020 58009
AAXX 09004 41253 36/// /1904 10153 20106 39809 40192 333 0E016 58018
AAXX 09004 41254 36/// /3008 10060 21051 38002 48007 333 0E004 59009
AAXX 09004 41255 36/// /0000 10165 20085 39639 40201 333 0E022 58013
AAXX 09004 41256 32560 21902 10176 20087 30170 40180 824// 333 58019 82625
AAXX 09004 41257 36/// /0000 10150 20088 39701 40191 333 0E014 58019
AAXX 09004 41258 36/// /2505 10217 20070 30168 40172 333 0E/// 58020
AAXX 09004 41259 36/// /3110 10093 21331 37119 40289 333 0E/// 58021
AAXX 09004 41262 NIL
AAXX 09004 41263 NIL
AAXX 09004 41264 NIL
AAXX 09004 41265 36/// /3004 10167 20092 39630 40183 333 0E023 58009
AAXX 09004 41267 35/80 /3219 10232 20086 30150 40166 333 0E022 58011
AAXX 09004 41268 NIL
AAXX 09004 41270 36/70 /3515 10223 20047 30111 40122 333 0E021 58009
AAXX 09004 41275 NIL
AAXX 09004 41287 36/// /0305 10190 20101 30122 40191 333 0E020 58006
AAXX 09004 41288 NIL
AAXX 09004 41290 NIL
AAXX 09004 41295 NIL
AAXX 09004 41304 NIL
AAXX 09004 41312 NIL
AAXX 09004 41314 32960 02305 10114 21055 39676 40200 333 59002
AAXX 09004 41315 36/// /3321 10119 21071 39162 42802 333 0E/// 59003
AAXX 09004 41316 NIL
BBXX VRWS3 08233 99056 31087 41598 83310 10300 20273 40084 51/// 70322 86870 22224 04300 2//01 399// 40502 80280
BBXX 3ECI3 09004 99339 31731 41597 40918 10184 20132 40216 51002 70300 84168 22253 00190 20503 310// 41003 80156
BBXX 9VVN8 09003 99111 51799 41698 70915 10278 20242 40111 54000 70222 83370 22273 02282 20402 30609 40402 50704 80253
BBXX VROC 09004 99227 31540 41598 51310 10281 20206 40104 55022 70211 84464 22283 04261 20301 312// 40704 80231
BBXX VNSZ 08224 99412 31464 46/// /1105 10187 20142 30095 40121 52024 22200 04174 85159
BBXX V7EM3 09003 99357 31762 41697 31317 10205 20116 40242 52025 70322 83145 22244 00200 20902 80152
BBXX VRDB3 09004 99340 31515 41298 31520 10210 20164 40155 54000 70222 82431 22215 0//// 20405 317// 40503 80180
BBXX VNSZ 08234 99412 31464 46/// /0510 10196 20147 30097 40123 52021 22200 04174 85165
BBXX S6CW 09003 99182 31610 41498 63508 10285 20250 40094 50006 76000 82268 22273 00278 20501 80260
BBXX 9HA2479 08234 99255 31624 46/// /3029 10237 20203 30049 40078 57003 22254 04242 85213
BBXX C6FS9 08224 99193 31468 46/// /1007 10272 20241 30056 40091 52022 22200 04291 85249
BBXX 9HA2479 08224 99253 31626 46/// /3123 10239 20208 30054 40083 52001 22254 04240 85217
BBXX VROB 08224 99068 31470 46/// /3213 10257 20233 30064 40089 52016 22200 04307 85240
BBXX FHZI 08224 99524 31439 46/// /3422 10074 2//// 30031 40042 52008 22283 04057
BBXX C6FS9 08234 99193 31468 46/// /0806 10279 20241 30057 40092 52018 22200 04290 85251
BBXX VROB 08234 99068 31470 46/// /3210 10272 20231 30066 40091 52009 22200 04304 85242
BBXX 9KWP 09003 99195 31059 41697 63316 10270 20241 40054 54000 70152 843/6 22284 00270 2//// 80250
BBXX VNSZ 09004 99412 31464 46/// /0612 10195 20149 30093 40119 52002 22200 04173 85166
BBXX C6FS9 09004 99193 31468 46/// /0708 10287 20251 30056 40091 52005 22200 85260
BBXX 9HA2479 09004 99257 31621 46/// /2929 10234 20194 30048 40077 57005 22254 04235 85207
BBXX FHZI 09004 99520 31441 46/// /3321 10082 20080 30044 40055 52013 22283 04058 85081
BBXX VNW6069 08223 99122 31230 41498 22406 10290 20253 40066 70100 81180 22200 02295 2//01 80264
BBXX 2AGH7 09003 99242 31574 41598 32420 10240 20183 40086 53008 70300 81260 22254 00250 20503 318// 41007 80204
AAXX 09004 94299 46/// /0505 10306 20254 30079 40089
AAXX 09004 94300 46/// /1911 10249 20183 30062 40072
AAXX 09004 94302 46/// /2006 10265 20173 30068 40074
AAXX 09004 94312 46/// /2512 10297 20171 30048 40057
AAXX 09004 94313 NIL
AAXX 09004 94317 46/// /1807 10281 20079 39472 40041
AAXX 09004 94319 46/// /2709 10285 20171 39713 40034
AAXX 09004 94324 NIL
AAXX 09004 94326 46/// /3019 10330 20170 39426 40023
AAXX 09004 94327 46/// /3018 10346 20175 39670 40033
AAXX 09004 94332 46/// /3509 10327 20101 39680 40056
AAXX 09004 94333 NIL
AAXX 09004 94341 46/// /0310 10338 20098 39830 40059
AAXX 09004 94346 46/// /0113 10315 20122 39848 40062
AAXX 09004 94363 46/// /0512 10278 20211 39880 40093
AAXX 09004 94366 NIL
AAXX 09004 94367 46/// /0907 10283 20221 30058 40099
AAXX 09004 94374 46/// /0909 10274 20202 30092 40108
AAXX 09004 94388 46/// /1109 10256 20190 30112 40117
AAXX 09004 94393 46/// /1401 10254 30088 40100 53004
AAXX 09004 94394 46/// /1809 10253 30098 40106 53005
AAXX 09004 94403 46/// /1108 10239 20139 30030 40071
AAXX 09004 94429 46/// /0609 10239 20132 39603 40055
AAXX 09004 94430 46/// /1009 10249 20097 39476 40043
AAXX 09004 94449 46/// /1008 10206 20128 39554 40071
AAXX 09004 94451 NIL
AAXX 09004 94461 46/// /1208 10301 20076 39376 40026
AAXX 09004 94462 46/// /1506 10309 20118 39487 40026
AAXX 09004 94477 NIL
AAXX 09004 94488 NIL
AAXX 09004 89564 45/// /1430 11098 21163 39654 49673 55004
AAXX 09004 89570 46/// /0820 11117 21160 39036 58028 333 21152
AAXX 09004 89571 41565 70115 11055 21118 39671 49699 58028 78588 875//
AAXX 09004 89573 NIL
AAXX 09004 89610 NIL
AAXX 09004 89611 41780 70818 11010 21082 39666 49717 53017 71422 8457/
AAXX 09004 89614 NIL
AAXX 09004 89615 466// 81024 11084 21124 38832 53019 333 21104
AAXX 09004 89807 NIL
AAXX 09004 89809 46/// /0920 11050 21100 39271 52020 333 21112
AAXX 09004 94893 NIL
AAXX 09004 94907 46/// /1005 10243 20120 30100 40110
AAXX 09004 94910 46/// /0609 10238 20108 39876 40121
AAXX 09004 94926 46/// /0307 10205 20105 39475 40132
AAXX 09004 94935 46/// /0312 10237 20141 30106 40132
AAXX 09004 94954 46/// /0923 10169 20154 30009 40119
AAXX 09004 94956 46/// /2808 10201 20123 30083 40109
AAXX 09004 94975 46/// /0511 10227 20117 30087 40119
AAXX 09004 94983 46/// /0509 10217 20171 30122 40147
AAXX 09004 94995 46/// /1024 10187 20172 30067 40075
AAXX 09004 94996 46/// /0718 10208 20172 30012 40140
AAXX 09004 94997 NIL
AAXX 09004 94998 46/// /0211 10066 20059 30126 40137
AAXX 09004 95111 46/// /3306 10316 20257 30029 40065
AAXX 09004 95205 46/// /2610 10293 20211 30065 40072
AAXX 09004 95322 NIL
AAXX 09004 95448 46/// /1007 10243 20123 39501 40048
AAXX 09004 95458 46/// /0222 10237 20157 39782 40035
AAXX 09004 95480 46/// /0613 10221 20193 30012 40070
AAXX 09004 95481 46/// /0114 10217 20193 30040 40084
AAXX 09004 95482 46/// /0411 10237 20172 30020 40074
AAXX 09004 95485 46/// /3612 10251 20136 39883 40081
AAXX 09004 95492 46/// /0306 10238 20166 39936 40087
AAXX 09004 95527 46/// /0409 10224 20139 39873 40121
AAXX 09004 95634 46/// /1107 10186 20145 39695 40087
AAXX 09004 95637 46/// /1306 10162 20150 39779 40106
AAXX 09004 95646 46/// /1910 10186 20183 39888 40071
AAXX 09004 95666 NIL
AAXX 09004 95719 46/// /0911 10215 20137 39800 40124
AAXX 09004 95762 46/// /1305 10228 20103 39671 40119
AAXX 09004 95826 NIL
AAXX 09004 95839 46/// /0113 10271 20070 39928 40084
AAXX 09004 95864 NIL
AAXX 09004 95909 NIL
AAXX 09004 95954 NIL
AAXX 09004 95966 46/// /3211 10231 20133 39932 40131
AAXX 09004 96995 46/// /3406 10266 20236 39788 40082
AAXX 09004 96996 41470 63010 10268 20245 30049 40053 53015 71511 84803
AAXX 09004 94500 NIL
AAXX 09004 94510 46/// /0211 10262 20169 39734 40073
AAXX 09004 94515 46/// /0314 10254 20171 39752 40093
AAXX 09004 94552 46/// /0508 10236 20138 39656 40113
AAXX 09004 94578 46/// /1007 10241 20157 30114 40125
AAXX 09004 94584 46/// /1717 10232 20170 30010 40119
AAXX 09004 94601 46/// /0710 10180 20136 30105 40122
AAXX 09004 94610 46/// /1209 10207 20126 30079 40102
AAXX 09004 94637 46/// /1007 10177 20119 39670 40086
AAXX 09004 94638 46/// /0104 10186 20145 30080 40111
AAXX 09004 94642 NIL
AAXX 09004 94643 NIL
AAXX 09004 94647 46/// /1707 10180 20162 39953 40071
AAXX 09004 94651 46/// /1909 10190 20188 39980 40055
AAXX 09004 94653 46/// /2805 10239 20169 30027 40045
AAXX 09004 94659 46/// /0215 10200 20164 39873 40063
AAXX 09004 94672 46/// /0205 10199 20168 30064 40074
AAXX 09004 94691 NIL
AAXX 09004 94693 46/// /0114 10296 20078 30015 40075
AAXX 09004 94700 NIL
AAXX 09004 94703 46/// /0608 10250 20175 39976 40099
AAXX 09004 94710 46/// /0408 10237 20147 39857 40104
AAXX 09004 94729 46/// /0407 10182 20106 39291 40125
AAXX 09004 94750 46/// /0409 10215 20142 30025 40148
AAXX 09004 94767 46/// /1310 10215 20156 30146 40152
AAXX 09004 94776 46/// /0105 10190 20163 30137 40147
AAXX 09004 94791 NIL
AAXX 09004 94802 46/// /1510 10171 20099 30045 40127
AAXX 09004 94804 46/// /0716 10175 20165 30009 40046
AAXX 09004 94807 NIL
AAXX 09004 94821 46/// /1607 10193 20145 30016 40097
AAXX 09004 94842 46/// /0205 10236 20120 30004 40102
AAXX 09004 94847 NIL
AAXX 09004 94850 46/// /2506 10208 20145 30058 40103
AAXX 09004 94865 46/// /0113 10267 20138 30079 40103
AAXX 09004 94866 46/// /3624 10264 20120 39966 40105
AAXX 09004 94875 46/// /0310 10251 20120 39986 40119
BBXX VNAA 08224 99648 31088 41699 32410 11014 21046 49715 52017 70100 81531 22243 05013 20000 30000 ICE 78602
BBXX VNAA 08224 99648 31088 41699 32410 11014 21046 49715 52017 70100 81531 22243 05013 20000 30000 ICE 78602
AAXX 09004 41024 32960 00104 10224 20190 30098 40117 333 59009
AAXX 09004 41030 32960 00000 10236 20160 39836 40103 333 59010
AAXX 09004 41036 32960 01903 10130 20050 38565 48515 333 59005 555 04410 50117
AAXX 09004 41055 32960 00803 10125 21020 38368 48515 333 59010 555 04410 50131
AAXX 09004 41061 NIL
AAXX 09004 41084 32960 00000 10112 21020 38869 48523 333 59010 555 04410 50134
AAXX 09004 41112 32960 00000 10120 20000 37950 48517 333 59008 555 04410 50144
AAXX 09004 41114 32960 00000 10120 20090 37982 48512 333 59009 555 04410 50137
AAXX 09004 41128 32960 00000 10100 21040 38840 48542 333 59008 555 04410 50178
AAXX 09004 41136 NIL
AAXX 09004 41140 32960 00000 10260 20220 30108 40112 333 59008
AAXX 09001 38141 42998 01001 11166 21200 30108 40281 57013 555 1/119
AAXX 09001 38149 41994 00000 11130 21150 30186 40270 57008 74444 555 14114
AAXX 09001 38178 425// 80901 11049 21140 39982 40282 57002 885// 555 10105
AAXX 09001 38262 426// 80502 11098 21129 30193 40281 57010 885// 555 14109
AAXX 09001 38264 41/04 90902 11104 21104 30170 40269 57010 74944 89/// 333 04107 89/// 555 14108
AAXX 09001 38396 41195 89901 11070 21083 30138 40270 57008 71022 886// 333 04107 88702 555 14106
AAXX 09001 38403 414// 80000 11061 21088 30176 40304 52006 71022 886// 555 10110
AAXX 09001 38413 429// 01102 11066 21078 39969 40276 57003 555 15110
AAXX 09001 38457 41/93 93601 11033 21040 39665 40278 57001 74542 555 14101
AAXX 09001 38462 429// 00000 11070 21144 38790 48514 58012 555 1/114
AAXX 09001 38565 329// 00000 11053 21067 39658 40271 57007 555 14107
AAXX 09001 38579 325// 71602 11032 21046 39839 40276 58006 87500 333 04103 555 14103
AAXX 09001 38583 31696 81401 11019 21028 39947 40281 57004 71022 885// 333 04102 555 14102
AAXX 09001 38611 42997 03502 11022 21047 39697 40291 57003 71000 333 04102 555 14102
AAXX 09001 38618 429// 60000 11034 21042 39556 40275 57002 80002 333 04105 555 14103
AAXX 09001 38683 41/91 90000 11054 21054 39977 40269 57004 74544 333 04103 89/01 555 14102
AAXX 09001 38696 329// 00000 11053 21080 39378 40277 57004 333 04107 555 14107
AAXX 09001 38812 41/92 92002 11039 21039 39788 40262 57002 74944 555 11104
AAXX 09001 38927 31302 91002 11005 21005 39878 40268 56003 74544 89/// 333 89/01 555 11001
AAXX 09004 40356 32560 52305 10080 20010 39198 48502 85500 333 59024 85630 555 04410 50170
AAXX 09004 40357 32960 02808 10049 21070 39540 40181 333 59021
AAXX 09004 40360 32960 02402 10090 20040 39582 40163 333 59019
AAXX 09004 40361 32960 02203 10046 21110 39415 40191 333 59010
AAXX 09004 40362 32960 02002 10060 21110 39651 40168 333 59034
AAXX 09004 40373 32960 01510 10060 20000 39766 40191 333 59021
AAXX 09004 40375 32960 00000 10060 21090 39305 40186 333 58003
AAXX 09004 40377 NIL
AAXX 09004 40394 32960 02104 10076 21010 39045 48519 333 59015 555 04410 50176
AAXX 09004 40400 32960 00306 10166 20090 30125 40153 333 59009
AAXX 09004 40401 NIL
AAXX 09004 40405 32960 00000 10110 20060 39428 40166 333 59028
AAXX 09004 40416 32960 03108 10090 20040 30163 40183 333 58001
AAXX 09004 40417 32960 22707 10085 20000 30183 40198 80001 333 59002 82070
AAXX 09004 40420 32960 00000 10082 21030 39981 40192 333 59010
AAXX 09004 40430 32960 20000 10166 20040 39426 40137 80001 333 59020 82070
AAXX 09004 40435 NIL
AAXX 09004 40437 32960 00000 10078 21030 39491 40203 333 59012
AAXX 09004 40439 32960 20000 10194 20130 30109 40119 82030 333 59007 82360
AAXX 09004 91375 NIL
AAXX 09004 91519 NIL
AAXX 09004 91531 NIL
AAXX 09004 91532 45/// /0710 10304 20238 30076 40084 57004 333 20258
AAXX 09004 91559 NIL
AAXX 09004 91611 NIL
AAXX 09004 91642 NIL
AAXX 09004 91679 NIL
AAXX 09004 91689 NIL
AAXX 09004 91756 NIL
AAXX 09004 91844 NIL
AAXX 09004 92036 NIL
AAXX 09004 93713 NIL
AAXX 09004 91577 06/// /0309 10307 20206 30074 40094 55002 60001 333 10308 58020 60007
AAXX 09001 78458 32466 30000 10254 20235 40153 52014 83200 333 10302 20206 30/// 56200 58019 83818
AAXX 09001 78460 32466 31102 10242 20207 40142 52020 83900 333 10305 20193 30/// 56200 58014 81918 82620
AAXX 09001 78467 32466 20903 10264 20231 40149 52024 82200 333 10300 20184 30/// 56200 58023 82815
AAXX 09001 78479 32566 30803 10260 20233 40119 52010 82230 333 10300 20220 30/// 56200 58013 82820
AAXX 09001 78482 31466 31302 10258 20224 40147 52014 82931 333 10314 20185 30/// 56000 58011 81918 81820
AAXX 09001 78485 31466 30203 10226 20209 40141 52018 70296 82830 333 10320 20203 31/// 56100 58017 82818 83358
AAXX 09001 78486 31460 20000 10239 20215 40125 52015 70196 82400 333 10319 20222 32/// 56000 58012 69907 82616
AAXX 09001 78488 32466 10000 10234 20228 40140 52014 81200 333 10306 20178 30/// 56000 58011 81816
AAXX 09004 68014 36/// /2804 10177 20157 38581 48496 58007 333 10265 20173 91006 555 91017
AAXX 09004 68110 36/// /1102 10169 20149 38265 48487 58010 333 10297 20168 91004 555 91017
AAXX 09004 68300 36/// /1619 10119 20060 39956 40108 57012 333 10250 20119 91024 555 91010
BBXX 41038 09001 99341 70777 46/// /0404 10129 40264 53023 90000 22200 00156 333 91205
BBXX 2ALD3 09003 99336 11403 41598 62722 10165 20094 40085 52022 70322 8439/ 22284 20403 331// 40804 80125
BBXX VNVF 09004 99125 11303 41498 80513 10278 20245 40118 52032 71522 85778 22283 00291 20301 308// 40804 80255
AAXX 09004 94310 46/// /2821 10277 20221 30045 40057 52016 333 20256
AAXX 09004 95283 46/// /0508 10322 20253 30066 40073
AAXX 09004 95288 46/// /0605 10309 30064 40079 51008
AAXX 09004 95675 46/// /0309
AAXX 09004 95872 46/// /3514
AAXX 09004 95961 35/// /3001 10210 30065 40106 52009
BBXX ZCDS3 08231 99342 70287 41498 30804 10200 20167 40263 52008 70100 83200 22264 00240 20302 309// 40703 5//// 80180
AAXX 09004 68004 16/// /0000 10180 20163 38516 48471 57016 60033 333 10299 20179 91002 555 20034 91014
AAXX 09004 68006 36/// /3603 10205 20186 38897 48474 57010 333 10276 20205 91003 555 91012
AAXX 09004 68010 36/// /2003 10193 20183 38895 48493 57015 333 10293 20179 91005 555 91015
AAXX 09004 68018 16/// /2802 10200 20188 38884 48487 57010 60153 333 10223 20199 91004 555 20150 91014
AAXX 09004 68098 36/// /0210 10123 20091 30010 40119 58007 333 10260 20123 91013 555 91011
AAXX 09004 68102 36/// /2402 10188 20174 38717 48466 57015 333 10307 20186 91003 555 91013
AAXX 09004 68112 36/// /2308 10194 20140 38316 48499 58010 333 10291 20185 91011 555 91019
AAXX 09004 68116 16/// /0703 10190 20168 38545 48493 57006 60063 333 10311 20185 91004 555 20064 91017
AAXX 09004 68212 36/// /0000 10248 20093 38884 48504 53001 333 10342 20247 91003 555 91015
AAXX 09004 68312 36/// /1204 10221 20043 38925 48490 58002 333 10331 20221 91004 555 91014
AAXX 09004 40550 35/61 /2303 10044 21058 40201 50005 333 0/003 55300 00000 10196 20000 30000 40963 51159 60000 55407 40000 90069 90467 91003 91107 91203 91303
AAXX 09004 40551 36/// /1807 10061 21104 333 0//// 90467 91009 91111 91209 91305
AAXX 09004 40552 35/66 /2310 10064 21042 40203 53003 333 0/005 55300 90069 90467 91011 91111 91209 91307
AAXX 09004 40553 35/63 /2702 10049 21070 40203 53006 333 0/002 55300 90069 90467 91003 91113 91211 91303
AAXX 09004 40568 36/// /3605 10069 20041 333 0//// 90467 91005 91107 91205 91303
AAXX 09004 40569 NIL
AAXX 09004 40570 35/70 /1808 10071 21081 40202 58006 333 0/006 55300 90069 90467 91013 91113 91209 91305
AAXX 09004 40571 NIL
AAXX 09004 40572 NIL
AAXX 09004 40573 36/// /2010 10048 21112 333 0//// 90467 91011 91113 91211 91307
AAXX 09004 40580 36/// /0000 10052 20023 333 0/001 553// 00000 10210 20000 30000 40959 51169 60000 55407 40000 90467 91001 91107 91203 91301
AAXX 09004 40581 36/// /2002 10105 20038 333 0//// 90467 91003 91105 91203 91301
AAXX 09004 40582 31958 02103 10038 21005 40201 55002 70500 333 00002 55300 00000 10175 20000 30000 40997 51172 60000 55407 40000 90467 91001 91111 91209 91303
AAXX 09004 40583 NIL
AAXX 09004 40585 36/// /2808 10124 20033 222// 1//// 3//// 4//// 70/// 333 0//// 90467 91011 91113 91209 91305
AAXX 09004 40586 36/// /2105 10081 21033 333 0//// 90467 91007 91109 91205 91303
AAXX 09004 40587 36/// /2308 10069 21009 333 0/006 553// 00000 10188 20000 30000 40986 51174 60000 55407 40000 90467 91011 91111 91209 91305
AAXX 09004 40588 35/64 /2403 10059 21015 40197 55003 333 0/004 55300 90069 90467 91003 91109 91207 91303
AAXX 09004 40589 NIL
AAXX 09004 40590 36/// /2107 10057 21093 333 0//// 90467 91007 91111 91209 91307
AAXX 09004 40591 NIL
AAXX 09004 40592 37/50 /1804 10045 20018 40200 58008 71011 333 0/003 55300 00000 10206 20000 30000 40972 51178 60000 55407 40000 90069 90467 91005 91105 91203 91301
AAXX 09004 40593 36/// /2407 10093 20047 333 0//// 90467 91011 91111 91207 91305
AAXX 09004 40594 36/// /2305 10078 20033 333 0//// 90467 91007 91109 91207 91305
AAXX 09004 40596 36/// /1804 10162 20097 333 0//// 90467 91007 91107 91203 91301
BBXX 42067 09001 99300 70886 46/// ///// 10069 20021 40252 92340 22200 00188 1//00 70002
AAXX 09001 78458 32466 30000 10254 20235 40153 52014 83200 333 10302 20206 30/// 56200 58019 83818
AAXX 09001 78460 32466 31102 10242 20207 40142 52020 83900 333 10305 20193 30/// 56200 58014 81918 82620
AAXX 09001 78467 32466 20903 10264 20231 40149 52024 82200 333 10300 20184 30/// 56200 58023 82815
AAXX 09001 78479 32566 30803 10260 20233 40119 52010 82230 333 10300 20220 30/// 56200 58013 82820
AAXX 09001 78482 31466 31302 10258 20224 40147 52014 82931 333 10314 20185 30/// 56000 58011 81918 81820
AAXX 09001 78485 31466 30203 10226 20209 40141 52018 70296 82830 333 10320 20203 31/// 56100 58017 82818 83358
AAXX 09001 78486 31460 20000 10239 20215 40125 52015 70196 82400 333 10319 20222 32/// 56000 58012 69907 82616
AAXX 09001 78488 32466 10000 10234 20228 40140 52014 81200 333 10306 20178 30/// 56000 58011 81816
AAXX 09001 37395 42997 50902 10070 20019 39990 40131 52005 85030 555 11003
AAXX 09001 37409 42597 60908 11010 21077 38730 48455 57005 86540 333 95060 555 1/102
AAXX 09001 37432 42697 30000 11040 21081 38946 48476 52011 83500 555 14108
AAXX 09001 37514 42696 60000 11043 21085 39026 40210 53003 86500
AAXX 09001 37545 16/// /3002 11022 21048 39649 40182 57008 60001 333 55///
AAXX 09001 37621 426// 70000 10004 21066 39537 40183 58007 86530 555 14103
AAXX 09001 37484 NIL
AAXX 09004 17140 1//// /0801 11002 21011 38655 40140 5//// 60031
AAXX 09004 17250 1//// /2104 10010 20005 38777 40177 5//// 69941
AAXX 09004 17320 3//// /3402 10116 20075 30149 40155 5//// 60001
AAXX 09004 78906 11478 71503 10243 20209 30119 40124 60001 87840 333 10287 20228 58006 70004 81818 86642
AAXX 09004 65338 33958 52802 10245 20224 39903 40088 80002 333 0//00 59014 85076
AAXX 09004 17116 11556 71401 10029 20024 30105 40229 50024 60111 78022 84250 333 84829 86358 91117
AAXX 09001 40001 32570 61605 10077 21051 40182 58002 84550 333 84626 86360
AAXX 09001 40007 31557 83503 10072 20050 40158 52001 71000 8657/ 333 86630 88360
AAXX 09001 40025 11560 50502 10101 20085 40149 52008 60011 70260 85900 333 82926 85630
AAXX 09001 40045 11570 60000 10040 21009 40169 53001 60011 70262 84550 333 84630
AAXX 09001 40061 32570 60000 10058 20034 40154 52005 82550 333 82630 85360
AAXX 09001 40080 32562 22404 10080 20066 39444 40154 50004 81100 333 82826
AAXX 09001 40087 NIL
AAXX 09001 40095 NIL
AAXX 09004 60714 12560 32702 10125 2//// 30276 40283 58002 60003 83800 333 55050 20847 83820
AAXX 09004 04048 41456 80404 11019 21041 40054 52027 77177 8472/ 555 3/412
AAXX 09004 06610 32980 82110 10049 20017 39636 40229 57/// 80007 333 55300 20000 88272 91116 91210
AAXX 09004 06670 33/// /2211 10059 20016 39692 40209 57/// 333 55300 20000 91118 91212
AAXX 09004 06700 32670 70101 10014 20005 39742 40251 57/// 81508 333 55300 20000 81637 87273 91107 91205
AAXX 09004 06680 33/// /2419 11005 21092 37504 47047 57/// 333 55300 20000 91143 91228
AAXX 09004 06990 31960 51406 10048 21023 39656 40211 57/// 71022 85500 333 55300 20000 85659 91121 91209
AAXX 09004 06760 33/// /3201 10059 21036 39794 40250 52/// 333 55300 20000 91106 91203
AAXX 09004 06720 33/// /0803 10013 21007 39666 40260 58/// 333 55300 20000 91107 91205
BBXX PJFF 09004 99478 70095 41/96 /2117 10150 20133 40180 54000 702// 8/7// 22214 04150 20604 309// 40805 80140
AAXX 09001 56187 31958 80000 10050 20029 39661 40330 52003 71000 8807/ 333 05153
AAXX 09001 56778 NIL
AAXX 09001 57265 NIL
AAXX 09001 57461 32960 51101 10035 21031 30229 40399 52011 85040 333 00353 30007
AAXX 09001 57494 NIL
AAXX 09001 57516 11415 81402 10082 20068 30009 40329 52006 60041 76066 8672/ 333 00051 70091
AAXX 09001 57687 NIL
AAXX 09001 57816 32563 70704 10002 21028 38891 40337 52002 878// 333 00052 30011 70002
AAXX 09001 58040 32962 03404 11040 21104 30368 40382 52002 333 00456 31033
AAXX 09001 58102 NIL
AAXX 09001 58150 NIL
AAXX 09001 58221 NIL
AAXX 09001 58238 NIL
AAXX 09001 58251 NIL
AAXX 09001 58362 NIL
AAXX 09001 58457 32960 63403 10026 21044 30311 40366 52015 82042 333 00856 31007 70001
AAXX 09001 58606 NIL
AAXX 09001 58752 NIL
AAXX 09001 58847 NIL
AAXX 09001 59117 NIL
AAXX 09001 59134 NIL
AAXX 09001 59287 NIL
AAXX 09001 59316 32770 71802 10135 20057 30239 40244 52018 875// 333 00656
AAXX 09001 59431 NIL
AAXX 09001 59644 32760 83608 10113 20054 30232 40249 52015 885// 333 00452
AAXX 09001 59758 NIL
AAXX 09001 50468 32970 73402 11195 21224 39994 40219 57017 80002 333 06451 92507
AAXX 09001 50953 32960 02001 11179 21209 30122 40316 57005 333 05601
AAXX 09001 51076 NIL
AAXX 09001 51243 NIL
AAXX 09001 51288 NIL
AAXX 09001 51463 NIL
AAXX 09001 51573 NIL
AAXX 09001 51709 NIL
AAXX 09001 52533 NIL
AAXX 09001 52652 NIL
AAXX 09001 52866 NIL
AAXX 09001 52983 NIL
AAXX 09001 53463 32980 03602 11125 21185 39122 40469 52003 333 05201
AAXX 09001 53513 32970 70901 11114 21149 39153 40465 52005 83032 333 05206
AAXX 09001 53588 NIL
AAXX 09001 53772 NIL
AAXX 09001 53915 NIL
AAXX 09001 54218 32980 02902 11151 21225 39541 40416 52001 333 05200
AAXX 09001 54337 NIL
AAXX 09001 54342 NIL
AAXX 09001 54401 NIL
AAXX 09001 54471 32960 00000 11122 21171 30373 40379 52002 333 00051
AAXX 09001 54497 32975 03604 11097 21223 30325 40343 52014 333 00451
AAXX 09001 54511 NIL
AAXX 09001 54823 32970 00902 11060 21140 30182 40406 57001 333 00152
AAXX 09001 56080 NIL
AAXX 09001 56096 NIL
AAXX 09001 57083 32960 01102 11042 21060 30271 40416 52011 333 00255 31022
AAXX 09001 80001 32570 10302 10274 20224 30108 40109 81200 333 10297 562// 59004 81820
AAXX 09001 80002 80002 32470 10401 10270 20235 81100 333 10300 561// 81818
AAXX 09001 80009 31560 60000 10270 20237 30084 40089 70522 82821 333 10308 56000 58008 82820 85460
AAXX 09001 80022 NIL
AAXX 09001 80028 31460 60203 10269 20236 30068 40103 70522 83570 333 10304 5619/ 58000 83612
AAXX 09001 80035 31565 80000 10269 20254 30102 40107 70522 8228/ 333 10310 5600/ 57850 58005 82820 88360
AAXX 09001 80036 31468 71103 10256 20231 70522 82278 333 10298 56000 57892 82815 86359
AAXX 09001 80063 31568 40000 10262 20234 70511 81430 333 10310 5600/ 81620 84359
AAXX 09001 80084 31462 63603 10258 20225 70522 8287/ 333 10299 5649/ 82815 85358
AAXX 09001 80091 NIL
AAXX 09001 80094 31264 60000 10188 20182 38794 74022 82670 333 10237 5679/ 58002 82705 84358
AAXX 09001 80097 NIL
AAXX 09001 80099 11566 20000 10246 20237 39898 40044 69991 70552 82601 333 10298 562/9 59009 82730
AAXX 09001 80110 NIL
AAXX 09001 80112 31457 70000 10157 20139 37886 70522 83270 333 10198 5600/ 57895 59001 83810 85358
AAXX 09001 80139 NIL
AAXX 09001 80144 NIL
AAXX 09001 80210 11462 50000 10208 20170 38647 69961 70551 81835 333 10240 56090 57894 59008 81817 84358
AAXX 09001 80211 11570 60000 10216 20190 69971 70522 84280 333 10240 5682/ 84825 83360
AAXX 09001 80214 NIL
AAXX 09001 80222 31465 43603 10140 20115 37503 70521 81170 333 10168 5689/ 59003 81815 84357
AAXX 09001 80234 NIL
AAXX 09001 80252 NIL
AAXX 09001 80259 11559 80102 10224 20193 39038 69901 75052 8592/ 333 10274 5689/ 57992 58010 82920 83820 83825 88257
AAXX 09001 80315 11565 40000 10249 20224 39572 40073 69951 70152 81250 333 10280 5609/ 59004 81827 84362
AAXX 09001 80342 NIL
AAXX 09001 80370 NIL
AAXX 09001 80398 31468 20000 10256 20245 39981 40076 71395 81971 333 10322 56999 57951 58003 81913
BBXX VOXS 09004 99467 70480 41396 81830 10056 2005/ 40075 56034 76162 88/// 22200 04028 20605 323// 40705 80054
BBXX VCXF 09004 99464 70484 41797 61838 10070 2006/ 40071 57030 70310 86050 22200 02042 20505 321// 40802 80067
AAXX 0900/ 89872 46/// ///// 11030 39735 4//// 5////
AAXX 0900/ 89769 46/// ///// 11005 39763 4//// 5////
AAXX 0900/ 89879 46/// ///// 10016 39683 4//// 5////
BBXX VCXF 09004 99464 70484 41797 61838 10070 2006/ 40071 57030 70310 86050 22200 02042 20505 321// 40802 80067
BBXX VOXS 09004 99467 70480 41396 81830 10056 2005/ 40075 56034 76162 88/// 22200 04028 20605 323// 40705 80054
AAXX 09004 41923 31940 00000 10186 20180 30110 40120 70500 333 58006 70000
AAXX 09004 41943 32940 00000 10170 20170 30122 40130 333 59001 70000
AAXX 09004 41950 31940 00000 10160 20160 30117 40120 70500 333 59002 70000
AAXX 09004 41978 31932 00000 10192 20180 30110 40117 70500 333 59001 70000
AAXX 09001 80001 32570 10302 10274 20224 30108 40109 81200 333 10297 562// 59004 81820
AAXX 09001 80002 80002 32470 10401 10270 20235 81100 333 10300 561// 81818
AAXX 09001 80009 31560 60000 10270 20237 30084 40089 70522 82821 333 10308 56000 58008 82820 85460
AAXX 09001 80022 NIL
AAXX 09001 80028 31460 60203 10269 20236 30068 40103 70522 83570 333 10304 5619/ 58000 83612
AAXX 09001 80035 31565 80000 10269 20254 30102 40107 70522 8228/ 333 10310 5600/ 57850 58005 82820 88360
AAXX 09001 80036 31468 71103 10256 20231 70522 82278 333 10298 56000 57892 82815 86359
AAXX 09001 80063 31568 40000 10262 20234 70511 81430 333 10310 5600/ 81620 84359
AAXX 09001 80084 31462 63603 10258 20225 70522 8287/ 333 10299 5649/ 82815 85358
AAXX 09001 80091 NIL
AAXX 09001 80094 31264 60000 10188 20182 38794 74022 82670 333 10237 5679/ 58002 82705 84358
AAXX 09001 80097 NIL
AAXX 09001 80099 11566 20000 10246 20237 39898 40044 69991 70552 82601 333 10298 562/9 59009 82730
AAXX 09001 80110 NIL
AAXX 09001 80112 31457 70000 10157 20139 37886 70522 83270 333 10198 5600/ 57895 59001 83810 85358
AAXX 09001 80139 NIL
AAXX 09001 80144 NIL
AAXX 09001 80210 11462 50000 10208 20170 38647 69961 70551 81835 333 10240 56090 57894 59008 81817 84358
AAXX 09001 80211 11570 60000 10216 20190 69971 70522 84280 333 10240 5682/ 84825 83360
AAXX 09001 80214 NIL
AAXX 09001 80222 31465 43603 10140 20115 37503 70521 81170 333 10168 5689/ 59003 81815 84357
AAXX 09001 80234 NIL
AAXX 09001 80252 NIL
AAXX 09001 80259 11559 80102 10224 20193 39038 69901 75052 8592/ 333 10274 5689/ 57992 58010 82920 83820 83825 88257
AAXX 09001 80315 11565 40000 10249 20224 39572 40073 69951 70152 81250 333 10280 5609/ 59004 81827 84362
AAXX 09001 80342 NIL
AAXX 09001 80370 NIL
AAXX 09001 80398 31468 20000 10256 20245 39981 40076 71395 81971 333 10322 56999 57951 58003 81913
AAXX 09004 78866 01470 30506 10248 20232 30130 40135 52014 69951 78000 83800 333 10297 20241 58006 69957 70005 83816
AAXX 09004 78767 31565 82905 10241 20209 30120 40130 51010 70522 87550 333 10283 20220 30/// 56000 58000 70001 87620
AAXX 09004 91772 31498 30906 10304 20243 4//// 60001 70210 83200 333 20252 562// 70047 83819
AAXX 09004 91776 31498 31010 1//// 2//// 4//// 60001 70200 83100 333 2//// 562// 70000 83818
AAXX 09004 91779 31498 20810 10294 20229 40137 58008 60001 70200 82200 333 20215 562// 70000 82818
AAXX 09004 91784 31498 30810 10288 20242 40138 58004 60001 70200 83201 333 20235 562/9 70030 83818
AAXX 09004 91792 31599 20708 10303 20269 40149 58006 60001 70200 82200 333 20237 562// 70000 82820
BBXX 44139 09001 99442 70571 46/// /2616 10091 40103 52058 22200 00090 11010 70050 333 91220
AAXX 09004 96465 11475 82105 10255 20238 30060 40093 60124 76062 81877 333 20241 50380 55089 58010 70118 81812 85364 88279
AAXX 09004 78866 01470 30506 10248 20232 30130 40135 52014 69951 78000 83800 333 10297 20241 58006 69957 70005 83816
AAXX 09004 78866 01470 30506 10248 20232 30130 40135 52014 69951 78000 83800 333 10297 20241 58006 69957 70005 83816
AAXX 09004 78767 31565 82905 10241 20209 30120 40130 51010 70522 87550 333 10283 20220 30/// 56000 58000 70001 87620
AAXX 09004 78767 31565 82905 10241 20209 30120 40130 51010 70522 87550 333 10283 20220 30/// 56000 58000 70001 87620
AAXX 09004 60115 32965 22405 10073 20066 40277 56006 80002 333 82073
AAXX 09004 60135 32350 51202 10083 20072 40254 58008 83602 333 83708 83070
AAXX 09004 60150 32960 01707 10124 20032 39599 40259 57008
AAXX 09004 60156 11409 41903 10100 20089 40268 58002 60001 74610 84600 92348 333 84710
AAXX 09004 60230 15960 50503 10122 20044 40261 50000 60001 80002 333 85070
BBXX DDLK 09003 99437 70513 41597 81828 10130 20113 40102 57/// 70222 887// 22263 20307 80120
AAXX 09004 89002 41592 80932 11069 21077 39502 49555 57015 73833 885// 333 00946 11060 21070 92943 96111
AAXX 09004 08141 11/01 92401 10010 20010 39399 40290 58009 60001 74544 333 89/03
BBXX A8SI3 09003 99541 11795 43698 81213 10030 21100 40150 54000 8852/ 22224 00020 20602 334// 40804 81010
BBXX C6SI6 09004 99508 11625 46/// /3209 10014 21007 49776 56016 7//// 8//// 22253 0//// 2////
BBXX DAJC 09003 99302 11746 41598 30911 10240 20211 40190 54000 70200 82141 22224 04210 20704 333 // 41002 5//// 80220
BBXX DGDD 09001 99306 11785 41/98 72107 10230 20201 40202 55008 70222 875// 22264 00220 20901 331// 40806 5//// 80210
BBXX ELWZ5 09004 99522 11632 41596 40516 10015 21005 49795 57032 7//77 8248/ 22254 04078 2//02 305// 4//03 5//// 80007
BBXX LAJS6 09004 99500 11730 41597 72523 10030 20030 49955 51005 70322 86245 22223 00060 21007 323// 40705 80030
BBXX SHIP 09004 99425 11697 41798 72116 10110 20050 40055 56018 70312 8641/ 22223 00120 20302 314// 40403 80080
BBXX 3FBC9 09004 99302 71724 41798 60916 10250 40205 53010 70322 85364 9//// 22223 00240 20302 331// 40404 5//// 6//// 80210
BBXX 46035 09001 99571 71778 46/// /2409 1//// 40068 51015 92350 22200 11108 20604 300// 41107 70042 333 91210 555 11085 22091 32300 42713 62349 238084 240091 241091 242092 245103 260104 82712 92253
BBXX 4XFV 09003 99527 71556 43/98 92424 10070 00/// 20050 40160 54000 702// 89/// 22274 0//// 20605 ///// 321// 40608 5//// 6//// 80060
BBXX A8HG2 09004 99542 71772 41598 31811 10050 20003 40100 57010 70200 83048 22225 04050 20303 335// 40507 5//// 80030
BBXX DCSL2 09004 99323 71598 41598 30315 10190 20142 40235 57010 70111 8310/ 22265 00210 20202 333 // 40508 80160
BBXX SHIP 09003 99339 71623 41498 40718 10180 20148 40240 56010 70222 844// 22264 00194 20404 329// 41308 80160
BBXX 2ALD3 09003 99336 11403 41598 62722 10165 20094 40085 52022 70322 8439/ 22284 20403 331// 40804 80125
BBXX 3FZK3 09004 99426 11451 46/// /3418 11014 21111 40113 50000 7//// 8//// 22213 0//// 2////
BBXX A8EH3 09003 99409 11394 41/97 70815 10070 20026 40130 56010 77211 8672/ 22214 04150 20803 80050
BBXX DCAX2 09003 99330 11275 41297 83330 10060 20009 40260 54000 7//52 8/700 22253 20605 333 // 40706 5//// 80040
BBXX DMRX 09004 99349 11439 41596 80320 10128 20090 40072 52032 70262 857// 22224 00210 20705 306// 41008 80107
BBXX LAOX5 09001 99316 11387 41/97 72919 00/// 10170 20150 40125 54000 70110 87389 22224 00160 20403 330// 40503 5//// 6//// 80160
BBXX OZDQ2 09003 99333 11463 41498 72821 10175 20134 40011 56009 7//22 87271 22264 00210 20404 309// 41404 80150
BBXX UGPK 09001 99560 11473 43/99 80506 11010 40001 56090 22211 00013 2//00 3//00
BBXX WCX8812 09004 99375 11345 41697 70142 10050 20000 40210 51022 70222 8723/ 22214 00190 20408 301// 40910 5//// 6//// 80030 ICE /////
BBXX WCX8883 09004 99345 11390 41498 73414 10120 20080 40104 52014 7//22 8779/ 22264 00200 20603 32934 40601 5//// 6//// 80100 ICE /////
AAXX 09001 33177 31496 82001 10014 20009 39947 40189 52015 71022 886//
AAXX 09001 48892 11497 80203 10240 20237 30080 40085 53011 60882 78082 889// 333 20232 58005 81894 82995 8669 7 96160
AAXX 09001 48877 11465 83607 10238 20223 30106 40111 51020 60132 78082 889// 333 01025 20235 3/023 58007 8289 4 81995 87696 96160
AAXX 09001 48870 11474 83606 10248 20221 30124 40131 53023 60092 72162 888// 333 01025 20240 3/022 58012 8289 4 88696
AAXX 09001 48887 11460 82902 10238 20228 30102 40108 53020 60062 76162 8172/ 333 01024 20238 3/023 58009 8189 4 88499 96162
AAXX 09001 48920 11598 73606 10259 20242 30082 40085 52013 69932 70382 878// 222// 00281 2//02 333 20249 5900 1 82895 86697
AAXX 09004 78388 111575 30000 10256 20214 30124 40133 69931 70181 83362 333 06239 10302 20231 58009 81922 90930
AAXX 09004 78397 111470 43407 10233 20216 30119 40135 69901 71598 82963 333 06299 10309 20232 58017 81818 81922 90914
AAXX 09004 91753 01582 31011 10306 20235 30082 40113 56011 69921 70286 83200 333 60007 83823 90710 91117 555 60005
AAXX 09004 91754 06/// /0206 10287 20247 30076 40117 58006 60234 333 20242 58028 60087
AAXX 09004 78388 111575 30000 10256 20214 30124 40133 69931 70181 83362 333 06239 10302 20231 58009 81922 90930
AAXX 09004 78397 111470 43407 10233 20216 30119 40135 69901 71598 82963 333 06299 10309 20232 58017 81818 81922 90914
AAXX 09004 71501 16/// /2906 11094 21113 39996 49998 51002 60001 333 11084 21218 70000 555 10010
AAXX 09004 71511 16/// /3005 11162 21215 39581 40249 51008 60001 333 11131 21163 70000
AAXX 09004 71522 46/// /0901 11132 21152 39610 40107 51028 6///1 333 21133 7////
AAXX 09004 71885 16/// ///// 11103 60001 333 11059 21202 70003
AAXX 09004 71721 17/// /2204 11021 21036 39895 40144 53020 60011 7//4/ 333 10003 21063 70010
AAXX 09004 71734 16/// /2604 11074 21125 39718 40117 51021 60001 333 11039 21103 70000
AAXX 09004 71736 46/// ///// 11088 21157 6///1 333 11023 21208 7//// 555 10010
AAXX 09004 71742 46/// /2324 10050 20027 39674 49855 53031 6///1 333 10119 21012 7////
AAXX 09004 71744 16/// /2713 11020 21090 30064 40105 53086 60001 333 10024 21020 70307
AAXX 09004 71747 16/// /2504 11143 21202 39667 40160 51010 60001 333 21149 7////
AAXX 09004 71015 46/// ///// 11085 6///1 333 11049 21169 7////
AAXX 09004 71017 16/// /2707 11316 21348 30140 40155 58007 60001 333 11278 21319 70000
AAXX 09004 71018 16/// ///22 11199 21228 30001 40090 58008 60001 333 11183 21239 70000
AAXX 09004 71019 46/// /3012 11055 21074 39826 40132 53060 6///1 333 11011 21055 7////
AAXX 09004 71020 46/// /0601 11173 21192 39862 40127 56038 6///1 333 11167 21248 7//// 555 10010
AAXX 09004 71021 46/// /3310 11090 21137 39770 40130 57036 6///1 333 11088 21253 7////
AAXX 09004 71614 16/// /2205 10011 21053 30099 40165 53017 60001 333 10024 21019 70005
AAXX 09004 71832 16/// /2206 11145 21171 39772 40108 53031 60001 333 11096 21148 70000 555 10010
AAXX 09004 71858 16/// /3012 11159 21212 39862 40155 53017 60001 333 11150 21173 70000
AAXX 09004 71074 16/// ///03 11319 21350 30069 40151 58008 60001 333 11319 21344 7//// 555 10010
AAXX 09004 71075 16/// /3013 11224 21253 39541 40176 51025 60001 333 11213 21225 70000
AAXX 09004 71087 46/// /1203 11225 21253 39996 40215 58036 6///1 333 11225 21341 7////
AAXX 09004 71897 12374 63205 10040 20003 3//// 4//// 57012 60001 86850 333 10052 20023 70000
AAXX 09004 71899 11269 62408 10051 20051 3//// 4//// 57012 69921 71582 85270 333 10067 20025 70022 90930
AAXX 09004 71472 16/// /2407 10058 20043 30291 40309 56012 60001 333 10072 20043 70012
AAXX 09004 71270 16/// /2408 10020 21042 39952 40174 53014 60001 333 10030 21017 70000
AAXX 09004 71295 16/// /2809 11155 21204 39677 40140 51018 60001 333 11132 21164 70005
AAXX 09004 71296 16/// /2209 10004 21038 39873 40183 52012 60001 333 10025 21029 70000
AAXX 09004 71299 16/// /2409 11133 21157 39820 40105 53017 60001 333 11087 21149 70000
AAXX 09004 71551 16/// /3104 11137 21193 39572 40275 51008 60001 333 11108 21168 70000
AAXX 09004 71556 16/// /3106 11162 21213 39616 40249 51005 60001 333 11125 21162 70000
AAXX 09004 71577 46/// /2605 11143 21205 6///1 333 11126 21154 7////
AAXX 09004 71579 16/// /2805 11133 21202 39885 40180 51009 60001 333 11123 21139 70000
AAXX 09004 71581 17/// /2604 11032 21054 39663 40153 51022 60011 7//4/ 333 11012 70014 555 10030
AAXX 09004 71585 16/// /2002 11222 21254 39798 40300 53003 60001 333 11170 21247 70000
AAXX 09004 71309 16/// /2402 11143 21174 30068 40080 51028 60001 333 11082 21152 70013 555 10010
AAXX 09004 71311 16/// /2617 10009 21046 30102 40126 53085 60001 333 10152 20008 70286
AAXX 09004 71317 16/// /2711 10006 21048 30078 40124 53089 60001 333 10153 20003 70268
AAXX 09004 71321 16/// /3203 11138 21149 39954 49997 53006 60001 333 11079 21158 70000
AAXX 09004 71334 46/// /3212 11210 21249 39735 40075 51029 6///1 333 11180 21210 7////
AAXX 09004 71669 16/// /1701 11098 21115 38596 40297 53010 60001 333 11076 21229 70000
AAXX 09004 71671 16/// /2817 10016 21051 30078 40138 53077 60001 333 10160 20016 70327
AAXX 09004 71750 17/// /3105 11091 21133 39892 40132 51032 69991 7//4/ 333 11064 21092 70009 555 10020
AAXX 09004 71752 16/// /2708 10025 21025 39992 40212 51011 60001 333 10040 21006 70000
AAXX 09004 71771 46/// /3003 10057 20045 30286 40307 56009 6///1 333 10084 20041 7////
AAXX 09004 71783 16/// /0204 10039 20004 30229 40304 55007 60001 333 10054 21002 70000
AAXX 09004 71833 46/// /2309 11008 21046 6///1 333 10018 21020 7////
AAXX 09004 71837 16/// ///// 11079 60001 333 11062 21188 7////
AAXX 09004 71839 17/// ///// 11109 69941 7//4/ 333 11068 21222 70016
AAXX 09004 71357 16/// /0506 11158 21175 30013 40020 58001 60001 333 11151 21183 70000
AAXX 09004 71361 17/// /1403 11230 21264 30010 40230 58029 69991 7//4/ 333 11230 21286 70009
AAXX 09004 71362 16/// /0000 11259 21287 39987 40259 50001 60001 333 11202 21269 70000
AAXX 09004 71363 16/// /3617 11195 21216 39957 40012 51012 60001 333 11158 21195 70072
AAXX 09004 71364 16/// /1703 11175 21197 39907 40043 56012 60001 333 11166 21237 70000
AAXX 09004 71381 47/// /1907 11062 21106 6///1 7//4/ 333 11035 21064 70000
AAXX 09004 71384 17/// /3101 11050 21076 30148 40156 51040 60011 7//4/ 333 10012 21050 70043
AAXX 09004 71393 16/// ///// 11058 21100 38957 40277 53009 60001 333 11052 21170 70000
AAXX 09004 71450 16/// /3006 11146 21213 39504 40255 50000 60001 333 11110 21162 70000
AAXX 09004 71453 16/// /2204 11133 21171 39312 40277 50003 60001 333 11100 21248 70000
AAXX 09004 71456 16/// /2708 11192 21245 39612 40241 51011 60001 333 11170 21198 70000
AAXX 09004 71470 46/// /2408 11292 21322 39561 40223 6///1 333 11265 21297 7////
AAXX 09004 71476 16/// /0904 30302 58010 60001 333 70000
AAXX 09004 71478 46/// /3505 10053 20050 6///1 333 7////
AAXX 09004 71479 46/// /3127 10060 20045 30175 6///1 333 7////
AAXX 09004 71480 16/// /1404 11187 21218 39993 40119 58009 60001 333 11186 21277 70000 555 10010
AAXX 09004 71484 16/// /1506 10038 20027 30287 40306 56007 60001 333 10041 20029 70000
AAXX 09004 71492 46/// ///30 11198 21216 39388 40102 58037 6///1 333 11196 21312 7////
AAXX 09004 71920 16/// /3023 10049 21009 30170 40176 51052 60001 333 10128 20043 70181
AAXX 09004 71246 16/// /1001 11200 21222 39567 40270 58013 60001 333 11145 21256 70000
AAXX 09004 71151 16/// /2709 11160 21205 39635 40159 53012 60001 333 11126 21161 70000
AAXX 09004 71156 16/// /2401 11068 21086 39120 40260 56004 60001 333 11061 21251 70000
AAXX 09004 71158 16/// /3014 11138 21184 39856 40141 51012 60001 333 11138 21154 70000
AAXX 09004 71159 17/// /2622 10021 21014 39850 49921 51123 69931 7//4/ 333 10129 20001 70155
AAXX 09004 71160 16/// /3208 11226 21257 30012 40237 53007 60001 333 11209 21227 70000 555 10010
AAXX 09004 71164 46/// /1205 11187 21211 30019 40103 56019 6///1 333 11185 21345 7////
AAXX 09004 71166 46/// /1404 39525 58040 6///1 333 7////
AAXX 09004 71168 16/// /0000 11080 21163 39647 40258 51005 60001 333 11038 21090 70000
AAXX 09004 71170 16/// /2916 11151 21207 60001 333 11131 21159 70000
AAXX 09004 71719 16/// /2725 11012 21057 30029 40035 53083 60001 333 10036 21012 70320
AAXX 09004 71402 46/// /2339 10046 20012 39675 49786 55004 6///1 333 10101 21006 7////
AAXX 09004 71428 16/// /2732 11025 21074 30061 40067 51080 60001 333 10002 21027 70090
AAXX 09004 71434 16/// /2414 11171 21215 39915 49983 51012 60001 333 11170 70000
AAXX 09004 71959 17/// ///// 10037 21012 69971 7//4/ 333 10173 20030 70193
AAXX 09004 71970 16/// /3005 11205 21255 39649 40271 53010 60001 333 11141 21227 70000
AAXX 09004 71977 46/// /3401 11245 21245 39349 40084 50000 6///1 333 11193 21293 7////
AAXX 09004 71978 46/// /2517 11163 21207 39713 40029 58001 6///1 333 11152 21208 7////
AAXX 09004 71989 16/// /0504 11264 21290 30148 40165 55004 60001 333 11195 21267 70000
AAXX 09004 71110 17/// /2531 10061 20031 39921 49980 53066 60031 7//4/ 333 10118 20034 70133
AAXX 09004 71133 46/// /3007 11184 21256 39504 40247 53009 6///1 333 11140 21200 7////
AAXX 09004 71141 16/// /3415 11242 21264 30058 40085 52004 60001 333 11215 21242 70000
BBXX 41052 09001 99183 70648 46/// /0803 10257 40125 92350 333 91205
BBXX 41052 09001 99183 70648 46/// /0504 10263 40125 92340 333 91206
AAXX 09001 37279 42494 70901 10082 20002 39989 40132 52012 87900
AAXX 09001 37308 427// 60000 11004 21013 39522 40189 52005 86031
AAXX 09001 37531 425// 60000 11080 21082 39455 40221 57011 84550
AAXX 09001 37553 429// 41001 11028 21063 39494 40162 57007 80031 333 55/// 555 14106
AAXX 09001 37651 16/// ///00 11020 21065 3//// 4//// 5//// 60001 333 55///
AAXX 09001 37492 NIL
BBXX 41052 09001 99183 70648 46/// /0604 10263 40127 53017 90000 22200 00280 333 91206
BBXX SLKQ 09001 99138 11154 43/96 70310 10274 40087 53012 22253 00283 2////4////
AAXX 09001 37575 42998 20202 10004 21050 39568 40167 58014 82002 555 14103
AAXX 09001 37675 42995 22501 10027 21080 39458 40122 54000 82040 555 14102
AAXX 09001 37735 NIL
AAXX 09001 37749 42998 03201 10013 20005 30096 40215 53008 555 11001
AAXX 09001 37756 42597 82803 11022 21038 39320 40238 51006 887// 555 11101
AAXX 09001 37864 32597 21708 10063 20040 40134 57011 82500
AAXX 09001 37985 42596 73201 10038 20031 30183 40168 58003 87500 555 11003
BBXX 41053 09001 99185 70661 46/// /0705 10274 40132 53014 90000 22200 00281 11004 70018 333 91207
BBXX 41053 09001 99185 70661 46/// /0605 10274 40131 92350 333 91207
BBXX 41053 09001 99185 70661 46/// /0605 10275 40131 92340 333 91207
BBXX 41037 09001 99340 70775 46/// /0606 10122 40233 53014 90000 22200 00192 333 91207
BBXX 44150 09001 99425 70640 46/// /3112 10066 40181 52055 22200 00102 11413 70066 333 91216
BBXX 44150 09001 99425 70640 46/// /3112 10066 40181 52055 22200 00102 11413 70066 333 91216
AAXX 09001 36974 429// 72801 11118 21138 38021 48627 54000 80002 555 15114
AAXX 09004 71832 16/// /2206 11145 21171 39772 40108 53031 60001 333 11096 21148 70000 555 10010
AAXX 09004 71858 16/// /3012 11159 21212 39862 40155 53017 60001 333 11150 21173 70000
AAXX 09004 71897 12374 63205 10040 20003 3//// 4//// 57012 60001 86850 333 10052 20023 70000
AAXX 09004 71899 11269 62408 10051 20051 3//// 4//// 57012 69921 71582 85270 333 10067 20025 70022 90930
AAXX 09004 71472 16/// /2407 10058 20043 30291 40309 56012 60001 333 10072 20043 70012
AAXX 09004 71719 16/// /2725 11012 21057 30029 40035 53083 60001 333 10036 21012 70320
AAXX 09004 43400 NIL
AAXX 09004 43404 22970 4//// 10236 20230 30091 40101 80001 333 58006 60148 84080
AAXX 09004 43410 NIL
AAXX 09004 43413 22970 00504 10250 20235 30092 40096 333 58002 60007
AAXX 09004 43415 NIL
AAXX 09004 43418 21460 83203 10245 20236 3//// 4//// 72051 8492/ 333 5//// 69907 82818 82920 88458
AAXX 09004 43421 22960 03601 10234 20222 39988 40090 333 58002 60002
AAXX 09004 43422 22969 007// 10226 20220 39959 40089 333 58002 60008
AAXX 09004 43424 22968 00502 10227 20218 30074 40077 333 59002 60007
AAXX 09004 43436 21470 60000 10246 20227 30081 40084 70262 86100 333 58001 69937 86818
AAXX 09004 43441 NIL
AAXX 09004 43444 22970 00000 10204 20198 39555 40086 333 58000 60007
AAXX 09004 43467 22960 00503 10238 20220 30079 40084 333 58005 60007
AAXX 09004 43473 22470 40000 10109 20106 38118 48489 84100 333 58007 60007 84812
AAXX 09004 43475 21470 53202 10250 20241 30078 40087 703// 85200 333 58000 69937 85818
AAXX 09004 43476 21450 10000 10158 20155 38757 48498 7100/ 81100 333 58002 69908 81816
AAXX 09004 43479 NIL
AAXX 09004 43486 21405 40000 10226 20223 39992 40086 74744 84100 333 58006 60007 84814
AAXX 09004 43495 22464 80000 10248 20230 30067 40083 8211/ 333 58004 60007 82818 88460
AAXX 09004 43497 22472 53604 10252 20237 30063 40080 83101 333 58006 60007 83818 84080
AAXX 09004 43466 22970 00901 10235 20217 30067 40079 333 58002 60007
AAXX 09004 43400 NIL
AAXX 09004 43404 22970 4//// 10236 20230 30091 40101 80001 333 58006 60148 84080
AAXX 09004 43410 NIL
AAXX 09004 43413 22970 00504 10250 20235 30092 40096 333 58002 60007
AAXX 09004 43415 NIL
AAXX 09004 43418 21460 83203 10245 20236 3//// 4//// 72051 8492/ 333 5//// 69907 82818 82920 88458
AAXX 09004 43421 22960 03601 10234 20222 39988 40090 333 58002 60002
AAXX 09004 43422 22969 007// 10226 20220 39959 40089 333 58002 60008
AAXX 09004 43424 22968 00502 10227 20218 30074 40077 333 59002 60007
AAXX 09004 43436 21470 60000 10246 20227 30081 40084 70262 86100 333 58001 69937 86818
AAXX 09004 43441 NIL
AAXX 09004 43444 22970 00000 10204 20198 39555 40086 333 58000 60007
AAXX 09004 43467 22960 00503 10238 20220 30079 40084 333 58005 60007
AAXX 09004 43473 22470 40000 10109 20106 38118 48489 84100 333 58007 60007 84812
AAXX 09004 43475 21470 53202 10250 20241 30078 40087 703// 85200 333 58000 69937 85818
AAXX 09004 43476 21450 10000 10158 20155 38757 48498 7100/ 81100 333 58002 69908 81816
AAXX 09004 43479 NIL
AAXX 09004 43486 21405 40000 10226 20223 39992 40086 74744 84100 333 58006 60007 84814
AAXX 09004 43495 22464 80000 10248 20230 30067 40083 8211/ 333 58004 60007 82818 88460
AAXX 09004 43497 22472 53604 10252 20237 30063 40080 83101 333 58006 60007 83818 84080
AAXX 0900/ 89828 46/// ///// 11296 36431 4//// 5////
AAXX 0900/ 89869 46/// ///// 11030 39706 4//// 5////
AAXX 0900/ 89866 46/// ///// 11036 39677 4//// 5////
AAXX 0900/ 89314 46/// ///// 11088 38115 4//// 5////
AAXX 0900/ 89108 46/// ///// 11276 36846 4//// 5////
AAXX 0900/ 89879 46/// ///// 10019 39684 4//// 5////
AAXX 0900/ 89872 46/// ///// 11026 39734 4//// 5////
AAXX 0900/ 89329 46/// ///// 11100 38646 4//// 5////
AAXX 0900/ 89329 46/// ///// 11100 38646 4//// 5//// 90010
AAXX 0900/ 89799 46/// ///// 11286 4//// 5////
AAXX 0900/ 89332 46/// ///// 11041 39155 4//// 5////
AAXX 0900/ 89769 46/// ///// 11008 39763 4//// 5////
AAXX 0900/ 89828 46/// ///// 11299 36431 4//// 5////
AAXX 0900/ 89869 46/// ///// 11029 39706 4//// 5////
AAXX 0900/ 89866 46/// ///// 11035 39678 4//// 5////
AAXX 0900/ 89314 46/// ///// 11088 38116 4//// 5////
AAXX 09004 89667 46/// /0609 11045 29077 39783 4//// 5////
AAXX 09004 08306 11357 33501 10076 20075 30259 40265 57008 60001 71140 81640
AAXX 09001 48900 11496 60202 10230 20230 30094 40104 52021 69922 71022 868// 333 20230 58011 82894 85696
AAXX 09001 48918 32470 80203 10262 20225 30093 40104 52016 888// 222// 00262 2//01 333 00026 20257 3/025 5800 7 81894 88696
AAXX 09001 48917 11597 80000 10258 20235 30092 40098 52018 60032 76162 8222/ 222// 00283 2//00 333 02024 2025 0 3/024 58011 82895 88499 96161
AAXX 09001 48914 11498 70201 10250 20235 30102 40104 52018 69952 72582 878// 333 01025 20248 3/025 58009 8289 4 87696
AAXX 09004 84008 32565 31408 10230 20195 30103 40113 83400 00191 333 10274 58003 555 30081
AAXX 09004 84202 32550 82308 10274 20206 30125 888// 333 10326 58002 555 30066
AAXX 09004 84270 11450 80000 10152 20134 60021 75365 8672/ 333 10235 555 10017 30089
AAXX 09004 84173 31562 71808 10144 20100 70544 85635 333 10210 555 30075
AAXX 09004 84135 32975 10000 10242 20196 30052 80005 333 10327 59012 555 30075
AAXX 09004 84132 11560 82202 10231 20224 39866 60131 72164 883// 333 10302 59003 555 10127 30096
AAXX 09004 84204 31665 62312 10282 20186 70544 83410 333 10336 555 30056
AAXX 09004 84056 11250 82302 10120 20117 60031 72055 886// 333 10230 555 10029 30098
AAXX 09004 84105 32557 70402 10260 20225 39999 85410 333 10293 58000 555 30081
AAXX 09004 84142 11110 80000 10160 20151 60011 75054 887// 333 10196 555 10010 30094
AAXX 09004 84088 11110 80000 10096 20088 37051 60011 74045 886// 333 10182 59004 555 10013 30095
AAXX 09004 84076 31460 83608 10138 20121 71544 886// 333 10206 555 30090
AAXX 09004 84143 31558 71808 10154 20101 37377 70544 87800 333 10209 59009 555 30070
AAXX 09004 84179 11560 70000 10214 20196 39032 69901 70229 83302 333 10264 59004 555 1 T 30089
AAXX 09004 84140 31550 60404 10270 20207 30002 40087 70544 84550 333 10315 58000 555 30069
AAXX 09004 84036 12560 70402 10122 20113 60051 84450 333 10174 555 10050 30094
AAXX 09004 84160 31565 61804 10119 20088 37250 74144 83405 333 10199 59005 555 30081
AAXX 09004 84226 11/00 90000 10080 20080 69951 74745 887// 333 10156 555 10005 30100
AAXX 09004 84050 32560 82702 10248 20207 882// 333 10300 555 30078
AAXX 09004 84072 31460 63206 10134 20108 37282 74044 86600 333 10216 59005 555 30084
AAXX 09004 84045 11/00 90000 10091 20090 60041 75164 89/// 333 10155 555 10038 30099
AAXX 09004 61017 NIL
AAXX 09004 61024 NIL
AAXX 09004 61036 31958 70406 10242 20011 39883 40118 7052/ 80008 333 0//00 59007 87280
AAXX 09004 61043 32960 70610 10190 21054 39697 40135 80008 333 0//00 59002 87280
AAXX 09004 61045 NIL
AAXX 09004 61049 31956 70804 10210 20008 39818 40134 7062/ 80008 333 0//00 59002 87280
AAXX 09004 61052 32960 30606 10233 21022 39872 40125 80002 333 0//00 59011 83080
AAXX 09004 61075 32960 50402 10225 21010 39819 40125 80002 333 0//00 59009 85080
AAXX 09004 61080 NIL
AAXX 09004 61090 32960 70408 10197 21053 39625 40132 80008 333 0//00 59019 87280
AAXX 09004 61091 NIL
AAXX 09004 61096 31930 70206 10197 21010 39757 40135 7052/ 80008 333 0//00 59007 87280
AAXX 09004 61099 32960 70416 10245 20018 39867 40092 80008 333 0//00 59017 87280
AAXX 09001 40009 32565 70000 10075 20027 40132 55002 85530 333 85630
AAXX 09001 40016 NIL
AAXX 09001 40022 32565 50000 10084 20076 40141 52011 85800 222// 20000 333 82830 84632
AAXX 09001 40030 11/02 90000 10069 20065 40158 53008 69942 74041 89/// 333 89/05
AAXX 09001 40039 NIL
AAXX 09001 40066 11570 42801 10116 20097 40143 51008 60051 70161 84400 333 84626
AAXX 09001 40072 NIL
AAXX 09001 40083 32570 32001 10048 20020 48456 53005 83200 333 83826
AAXX 09001 56778 11658 80903 10045 20030 38162 52010 69901 76060 885// 333 00154 79999
AAXX 09001 57265 32962 03601 11001 21018 30287 40404 52013 333 00253 31018
AAXX 09001 57687 32962 03604 10041 21027 30280 40367 52013 333 00454 30021
AAXX 09001 58102 32970 03601 11044 21087 30367 40418 52017 333 00355 31022
AAXX 09001 58150 32562 73205 11015 21068 30366 40370 52004 875// 333 00557 31003 70005
AAXX 09001 58221 31958 03602 11022 21069 30371 40401 52011 71000 333 00556 31040
AAXX 09001 58251 32960 23206 11013 21062 30364 40369 52006 80002 333 00657 31007
AAXX 09001 58606 32962 00903 10035 21052 30299 40360 52011 333 00454 30005
AAXX 09001 58847 11480 80902 10089 20049 30190 40294 52023 60021 76060 885// 333 00857 70068
AAXX 09001 59117 11680 83604 10099 20049 30167 40276 52016 69911 76060 885// 333 00556 70001
AAXX 09001 59134 32575 70206 10123 20064 30095 40265 52026 878// 333 00657 79999
AAXX 09001 59758 32468 80205 10151 20101 30143 40220 52015 888// 333 00454
AAXX 09001 52533 32980 02202 11132 21168 38692 40507 52011 333 00300
AAXX 09001 53588 32980 52904 11178 21276 37826 57001 80002 333 00001 31024
AAXX 09001 53772 32960 63401 11069 21153 39450 40433 57002 80002 333 05151
AAXX 09001 53915 32980 72901 11062 21097 38804 40430 52009 80002 333 05101
AAXX 09001 54337 32970 02501 11111 21181 30291 40381 52002 333 05151
AAXX 09001 54342 31956 00000 11183 21201 30307 40375 52004 71000 333 00054 92503
AAXX 09001 54511 32780 73602 11043 21189 30353 40396 57003 81542 333 05100
AAXX 09001 56080 11665 83601 11099 21135 37182 52006 69931 77070 8652/ 333 05100 70004 92500
AAXX 09000 44214 32998 03501 11218 21246 38439 40639 56005 333 21237 47002 555 31260
AAXX 09000 44231 319// 70000 11211 21259 38877 40588 57004 70422 80008 333 21261 47012 55055 555 31239
AAXX 09000 44259 31997 52808 11223 21259 39404 40394 57025 73632 80002 333 21242 47014 91113 555 31280
AAXX 09000 44277 329// 11603 11167 21181 37943 40615 53004 80004 333 21229 47001 555 31260
AAXX 09000 44288 32899 22802 11142 21256 38276 40509 57002 82040 333 21183 46997 555 31251
AAXX 09000 44292 118// 80000 11289 21313 38836 40586 56010 69902 77072 8802/ 333 21294 47006 55053 555 31307
AAXX 09000 44304 32999 22308 11297 21328 39107 40516 57018 82040 333 20316 47011 555 31323
AAXX 09000 44354 31997 00000 11278 21303 39252 40524 57007 71000 333 21282 46002 555 31311
AAXX 09000 44373 11999 22905 11170 21204 38677 40516 56001 69922 70132 82080 333 21196 47007 55017 555 31218 93100
AAXX 09001 56778 11658 80903 10045 20030 38162 52010 69901 76060 885// 333 00154 79999
AAXX 09001 57494 32968 03602 10000 21041 30359 40390 52016 333 00455 31015
AAXX 09001 58238 31958 13405 11008 21052 30337 40384 52012 71000 80002 333 00655 31032 79999
AAXX 09001 58362 32575 22905 10029 21026 30344 40353 52014 81130 333 00958 30006 70001
AAXX 09001 58752 11662 73205 10062 21014 30281 40329 52018 69921 70060 875// 333 00857 70070
AAXX 09001 59287 32670 80207 10102 20030 30177 40265 52016 885// 333 00554
AAXX 09001 59431 31558 83603 10116 20043 30133 40283 52018 70500 888// 333 00300 70001
AAXX 09001 51076 32980 02201 11097 21149 39484 40432 57008 333 05306 31002 92525
AAXX 09001 51243 32970 00702 11125 21148 39823 40422 57006 333 05401 31049
AAXX 09001 51288 32980 01402 11046 21165 38438 57010 333 05209 92510
AAXX 09001 51463 11765 70402 11111 21126 39233 40417 57009 69961 77077 86502 333 05452 31008 70010 92506
AAXX 09001 51573 32975 00000 11063 21116 30408 40455 52008 333 00251
AAXX 09001 51709 32865 72201 11065 21091 38859 40423 57002 82502 333 05103 30000 92509
AAXX 09001 52652 32970 72002 11163 21180 38700 40509 52013 80002 333 00351
AAXX 09001 52866 11962 82001 11077 21104 37772 52008 69921 77070 8802/ 333 05104 70002 92500
AAXX 09001 52983 11961 80203 11070 21110 38217 52007 69901 72270 8802/ 333 00051 79999 92500
AAXX 09001 54401 32980 22903 11138 21203 39519 40461 52001 80002 333 05251
AAXX 09001 56096 32670 83605 10025 21066 39076 40355 52021 885// 333 05151 30008
AAXX 09001 50136 32970 22501 11191 21234 39655 40242 57014 80002 333 06815 92509
AAXX 09001 50745 32965 12002 11176 21219 30096 40298 57015 81030 333 06004
AAXX 09001 50774 32962 00000 11229 21254 39945 40280 57009 333 05905 92509
AAXX 09001 50788 32970 52505 11161 21205 30138 40231 57005 80002 333 05703 92501
AAXX 09001 51133 32980 00703 11056 21156 39662 40343 57008 333 05400 31011 92507
AAXX 09001 51431 11970 80401 11082 21093 39473 40311 57011 69901 77077 8802/ 333 05551 31012 79999 92512
AAXX 09001 51747 31950 00000 11151 21187 39072 40452 52003 70600 333 05100
AAXX 09001 52203 32980 00202 11089 21172 39510 40451 52002 333 00104
AAXX 09001 52418 32980 00000 11152 21189 39038 40463 52003 333 05152
AAXX 09001 52681 32980 82503 11112 21178 38795 40475 52009 8807/ 333 00103
AAXX 09001 53564 32965 00000 11137 21154 39364 40469 52005 333 05252
AAXX 09001 53614 32965 50000 11095 21108 39072 40453 52005 82032 333 05200
AAXX 09001 53646 32970 23401 11148 21172 39007 40463 52004 80002 333 05251
AAXX 09001 53798 32962 62701 11049 21105 30305 40408 57001 80002 333 00054
AAXX 09001 53845 32965 73202 11081 21111 39247 40442 52005 80002 333 05152
AAXX 09001 53959 32980 02202 11061 21090 39960 40430 52011 333 00055 31027
AAXX 09001 54094 32960 01802 11202 21249 39989 40318 52006 333 05402 92505
AAXX 09001 54102 32980 02004 11253 21282 39171 40504 57001 333 05156 70001
AAXX 09001 54161 31959 02203 11176 21226 30031 40353 52003 70400 333 05302
AAXX 09001 54292 32975 02703 11149 21237 39975 40320 52007 333 05201 92500
AAXX 09001 54374 32970 03601 11223 21255 39879 40392 52010 333 00459 31048
AAXX 09001 54423 32980 03202 11121 21200 39856 40413 54000 333 05100
AAXX 09001 54618 32961 50000 11070 21145 30385 40404 54000 80002 333 00152
AAXX 09001 54843 32970 02703 11064 21103 30356 40386 52005 333 00356 30002 70041 92504
AAXX 09001 54909 32964 00201 11050 21094 30340 40408 52006 333 00254 31021
AAXX 09001 56029 32980 41101 11111 21151 36477 52001 80002 333 00151
AAXX 09001 57127 32960 52001 10019 20018 39744 40376 52013 85030 333 00052 31003
AAXX 09001 57131 32973 70202 11026 21075 39911 40433 52012 8703/ 333 05153 31043
AAXX 09001 33177 31496 82001 10014 20009 39947 40189 52015 71022 886//
BBXX SKOZ 09004 99471 70273 43/93 90719 10100 40199 55009 22263 00125 2//// 4////
AAXX 09004 04211 47/11 /0820 11076 21105 39981 40144 57001 77777 333 91128
AAXX 09004 04220 07984 70814 11075 21136 30086 40140 57011 69931 70010 333 55300 20004 69917 87/70
AAXX 09004 04221 45/71 /0931 11111 21208 30110 40150 57008
AAXX 09004 04231 12/84 00611 11124 21204 30081 40158 57014 6///1
AAXX 09004 04234 45984 70916 11049 21162 30100 40110 57015 333 82/63 87/72 91132
AAXX 09004 04241 47664 80818 11052 21135 30076 40117 57015 72288 333 81/40 85/46 88/56 91131
AAXX 09004 04250 07559 71522 11028 21109 30001 40107 57020 69921 78580 333 55300 20000 69927 81/32 87/63 91131
AAXX 09004 04254 47517 71610 11022 21123 30008 40124 57017 78588 333 81/32 87/59 91127
AAXX 09004 04260 45/84 /1214 11047 21167 30083 40128 57028
AAXX 09004 04270 45/84 /2406 11144 21252 30134 40176 57029
AAXX 09004 04272 05/84 0//// 11084 21178 30093 40168 57025 6///1 333 6///7
AAXX 09004 04312 46/// /2110 11282 21329 30187 40230 52003
AAXX 09004 04320 47875 72105 11163 21245 30207 40223 52020 70088 333 55300 85/58 87/70 91123
AAXX 09004 04339 45/84 ///// 11160 21295 30088 40184 52006 333 55300 20000
AAXX 09004 04360 06/// /2605 11156 21242 30137 40212 52005 6///1 333 55300 20000 6///7
AAXX 09004 04361 46/// /2601 11171 21279 30160 40217 52005
AAXX 09004 04390 05584 82904 11064 21144 30090 40187 57007 6///1 333 6///7 88/28
AAXX 09001 40706 11958 20703 11038 21102 38648 40211 56004 60001 70500 81042 333 82069
AAXX 09001 40718 12960 60000 10066 20052 30172 40143 57008 60001 80006 333 86269
AAXX 09001 40732 12960 00000 10050 20032 30164 40137 54000 60001 333
AAXX 09001 40745 11940 00000 11016 21041 39046 40213 56007 60001 71000 333
AAXX 09001 40754 11950 00000 10006 21026 38844 40217 58009 60001 70500 333
AAXX 09001 40766 12960 00000 11008 21114 38720 40213 58002 60001 333
AAXX 09001 40800 12960 00000 11022 21045 38483 40233 54000 60001 333
AAXX 09001 40811 12960 00000 10048 20018 30168 40195 58003 60001 92345 333
AAXX 09001 40841 12965 00000 11070 21168 38291 40245 54000 60001 333
AAXX 09001 40848 12960 00000 11014 21039 38556 40219 56003 60001 333
AAXX 09001 40856 12965 02002 11068 21223 38665 40235 50003 60001 333
AAXX 09001 40875 12960 12902 10100 21054 30179 40191 53005 60001 80001 333 81070
AAXX 09001 48919 11598 70506 10261 20230 30082 40104 53017 69912 70382 878// 22200 02275 2//03 333 20252 5800 6 83895 85696
AAXX 09001 48916 11495 83604 10246 20234 30055 40102 53021 60052 76562 8872/ 333 01/// 20243 3//// 58010 8389 4 84895 88299 96165
AAXX 09001 48840 32498 83605 10152 20085 30219 40225 52020 888// 333 01014 20150 3/014 58046 83894 88696
AAXX 09000 44203 325// 80000 11240 21265 38583 40623 56002 8252/ 333 21297 47005 555 31330
AAXX 09000 44207 329// 72302 11171 21213 38441 40500 54000 87070 333 21224 47009 55/// 555 31249
AAXX 09000 44212 115// 81802 11174 21193 39367 40609 57003 69922 77772 886// 3333 21190 47015 55006 555 31222 93100
AAXX 09000 44213 12699 60000 11162 21175 38994 40595 52001 69932 86500 333 21194 47010 555 31190 93101
AAXX 09000 44215 32998 00000 11247 21271 38582 40635 57003 333 21252 47003 555 31253
AAXX 09000 44218 329// 01801 11206 21239 38788 40603 58004 333 21220 55001 555 3////
AAXX 09000 44225 119// 80000 11213 21225 38432 40600 56002 69902 77172 8802/ 333 21273 47013 555 31/// 93100
AAXX 09000 44230 329// 70000 11163 21193 38941 40539 57004 87010 333 21235 47009 555 31250
AAXX 09000 44232 116// 70000 11215 21237 39270 40524 57006 69932 72222 87500 333 21316 47008 555 31327 99604 93100
AAXX 09000 44237 32999 01805 11175 21209 38611 40497 57009 333 21255 47014 555 31280
AAXX 09000 44239 116// 71601 11180 21206 38926 40478 56004 69922 77172 885// 333 21292 47010 555 31309 93101 99603
AAXX 09000 44241 119// 81605 11172 21198 39409 40469 57013 69902 77172 8802/ 333 21287 47005 555 31298
AAXX 09000 44256 32699 72004 11169 21203 39427 40351 56019 83540 333 21215 47005 555 31251
AAXX 09000 44265 329// 00000 11217 21242 39000 40552 58006 333 21226 43004 555 31253
AAXX 09000 44272 329// 00000 11266 21297 38380 40640 57007 333 21275 47005 55065 555 31372
AAXX 09000 44275 32998 00000 11271 21285 37841 40649 54000 333 21294 47002 555 31320
AAXX 09000 44282 31999 72504 11111 21186 38420 40463 57005 70331 87070 333 21189 47001 55008 555 31236
AAXX 09000 44284 32999 01801 11308 21340 37973 40754 54000 333 21332 47009 555 31360
AAXX 09000 44285 32999 11502 11273 21300 38447 40622 57002 81040 333 21296 47005 555 31309
AAXX 09000 44287 32999 10505 11225 21284 38248 40625 58003 80004 333 21253 47003 55029 555 31275
AAXX 09000 44294 32998 63403 11242 21268 38669 40548 56013 80006 333 21339 43004 555 31334
AAXX 09000 44298 32899 23605 11271 38830 40525 57010 82040 333 21280 47007 555 31298
AAXX 09000 44302 31999 22705 11270 21302 39221 40481 57015 73633 80004 333 21278 48012 555 31278
AAXX 09000 44305 32999 03204 11294 21329 39163 40480 57017 333 21295 47006 555 31298
AAXX 09000 44313 32999 00000 11249 2274 39485 40416 57013 333 21309 47007 555 3////
AAXX 09000 44314 NIL
AAXX 09000 44317 32998 02505 11218 21250 39049 40472 57011 333 21225 47004 555 31266
AAXX 09000 44336 329// 00000 11251 21275 38835 4//// 58005 333 21258 43002 555 31294
AAXX 09000 44341 31999 03209 11217 21246 38424 40542 56006 73630 333 21223 46003 555 31248
AAXX 09000 44347 32999 03204 11219 21237 38859 40543 57004 333 21237 46997 555 31261
AAXX 09000 44352 32999 02906 11255 21280 39033 40482 56010 333 21290 43003 555 31314
AAXX 09000 44358 32998 03203 11294 21311 39239 40556 56001 333 21295 47002 555 31334
AAXX 09001 48845 11498 83404 10148 20130 30217 40224 52019 69962 70262 888// 333 01016 20147 3/016 58052 8589 4 88697
AAXX 09000 44210 32999 00000 11223 21234 38703 54000 333 21226 555 31251
AAXX 09000 44216 32599 63605 11249 21274 39230 40650 54000 83800 333 21259 47004 555 31265
AAXX 09000 44217 32998 00000 11222 21240 37996 40643 58006 333 21223 41998 555 31278
AAXX 09000 44219 116// 80902 11153 21172 38807 40568 57003 69922 77173 885// 333 21210 47004 555 31223 93101
AAXX 09000 44221 329// 80000 11220 21245 38783 40620 57003 8802/ 333 21301 47010 555 31309
AAXX 09000 44224 119// 80000 11155 21168 38209 40558 57005 69952 77177 8802/ 333 21237 48011 555 31252 93101
AAXX 09000 44229 31999 72705 11167 21193 38044 40520 57005 70232 87010 333 21227 48007 555 31276
AAXX 09000 44242 119// 80000 11225 21247 39471 40490 57008 69902 77172 8802/ 333 21271 47013 555 31327
AAXX 09000 44243 119// 80000 11244 21271 39571 40504 56009 69982 77172 8802/ 333 21356 47005 555 31371
AAXX 09000 44254 32998 72903 11227 21255 39122 40415 56016 87070 333 21261 47011 555 31288
AAXX 09000 44257 329// 30000 11311 21355 39076 40510 58016 82061 333 21335 48011 555 31354
AAXX 09000 44263 32998 03203 11161 21212 38198 40570 56009 333 21163 43011 91110 555 31207
AAXX 09000 44266 126// 60000 11140 21160 37907 40527 53002 69962 86800 333 21144 47002 555 31153 93102
AAXX 09000 44286 329// 62708 11175 21220 38772 40510 57010 86070 333 21208 47008 555 31234
AAXX 09000 44291 318// 60000 11309 21342 38875 40618 57011 70421 83034 333 21361 47010 555 31339
AAXX 09000 44325 329// 00000 11216 21248 39030 40574 52002 333 21239 47003 555 31249
AAXX 09000 44329 32998 13203 11188 21214 37780 40558 57002 80001 333 21204 46004 555 31273
AAXX 09000 44338 12999 00000 11246 21263 38627 40602 57007 69902 333 21249 47001 555 31273 93101
AAXX 09000 44348 32997 03205 11216 21216 38806 40496 57007 333 21230 46002 555 31254
AAXX 09000 44374 32999 02705 11181 21219 38397 40578 53002 333 21192 555 31228
AAXX 09000 44385 3299 02703 11189 21222 39082 40521 54000 333 21194 46002 555 31221
AAXX 09000 44386 32999 20000 11245 21270 39206 40530 53002 82040 333 21247 47002 55/// 555 31239
AAXX 09004 40100 11558 40803 10147 20126 30133 40165 51002 60121 72582 84200 900// 333 84826 92436
AAXX 09004 40101 41557 82109 10081 20068 39085 48485 51004 76066 882// 900// 333 88826
AAXX 09004 40103 32585 52208 10138 20091 40160 58001 85100 333 85824
AAXX 09004 40102 NIL
AAXX 09004 41244 36/// /0504 10164 20062 39827 48118 333 0E016 58002
AAXX 09004 41268 36/// /3307 10222 20092 30150 48124 333 0E022 58012
AAXX 09004 47401 11/07 92005 11055 21070 30121 40136 53004 60092 78688 333 21063 4/038 70090
AAXX 09004 47412 11/20 81505 11053 21070 30115 40149 51010 69952 78581 883// 333 21090 4/015 70005
AAXX 09004 47420 15/70 /3117 11027 21096 30089 40124 51012 69902 333 21034
AAXX 09004 47426 15/70 /3504 11017 21145 30092 40141 51014 60002 333 21067
AAXX 09004 47582 11/60 71008 10010 21027 30092 40119 51012 69902 72682 873// 333 21005 79999
AAXX 09004 47590 12/80 73403 10017 21046 30080 40135 51025 60002 81532 333 20004 79999
AAXX 09004 47600 17/70 /3103 10042 20000 30172 40180 53027 60052 70060 333 20023
AAXX 09004 47648 11/56 83623 10052 20035 30097 40132 51034 60082 76162 888// 333 20051 70130
AAXX 09004 47662 11340 83405 10031 20002 30101 40147 51042 60042 76166 885// 333 20027 70070
AAXX 09004 47678 17/70 /2716 10145 20059 39917 40101 53022 60022 70060 333 20125
AAXX 09004 47740 17/66 /3507 10034 21006 30174 40209 51026 60172 78186 333 20022
AAXX 09004 47778 15/70 /3106 10104 20020 30045 40129 53025 60002 333 20099
AAXX 09004 47807 11/70 72910 10072 21015 30211 40230 53009 69902 72582 872// 333 20069 70025
AAXX 09004 47827 11/70 63409 10087 20011 30177 40216 51018 69902 70282 86200 333 20083 70115
AAXX 09004 47843 15/81 /3309 10071 21011 30211 40244 53010 69902 333 20067
AAXX 09004 47893 11/75 53605 10085 20014 30160 40166 53023 69902 78082 82830 333 20069 70085
AAXX 09004 47909 11/65 83415 10158 20078 30213 40223 53020 69902 78082 8787/ 333 20156 70045
AAXX 09004 47918 11465 80217 10176 20145 30203 40221 51023 60012 72162 8587/ 333 20170 70010
AAXX 09004 47936 11/65 80119 10174 20123 30160 40220 52027 69952 76086 888// 333 20168 70035
AAXX 09004 47945 11/60 80112 10206 20138 30166 40190 53022 69902 72522 8787/ 333 20203 79999
AAXX 09004 47971 11/70 80805 10230 20194 30126 40136 51024 60022 72582 882// 333 20225 70020
AAXX 09004 47991 16/// /2211 10274 20212 30151 40161 50009 60002 333 20238 79999
AAXX 09004 47407 11/58 62202 11142 21164 39979 40165 52006 69902 77882 86500 333 21181 4/029 79999
AAXX 09004 47409 11/60 22606 11068 21128 30079 40135 51009 69902 70181 82230 333 21089 4/007 70045
AAXX 09004 47418 12/86 13107 11050 21133 30089 40140 53009 60002 81100 333 21100 4/002 70000
AAXX 09004 47421 17/34 /1904 11030 21048 30109 40154 53010 60022 77170 333 21087
AAXX 09004 47430 12/82 12902 11014 21097 30094 40150 53015 60002 81230 333 21065 79999
AAXX 09004 47570 15/70 /2806 10030 21019 39885 40148 51024 69902 333 20012
AAXX 09004 47575 12/70 72002 11011 21044 30138 40143 53013 60002 81270 333 21040 4/001 79999
AAXX 09004 47584 12/80 83306 11015 21080 39943 40138 52017 60002 885// 333 21040 70000
AAXX 09004 47604 11/65 71906 10031 20013 30148 40157 52021 60022 72582 872// 333 20014 70210
AAXX 09004 47605 11/65 80504 10040 21012 30145 40187 51029 60032 78382 8627/ 333 20024 70035
AAXX 09004 47610 11/70 70807 10008 21008 39654 40169 53029 69902 70282 82272 333 21002 4/997 79999
AAXX 09004 47624 11/75 72908 10053 21030 30002 40143 53031 60042 70265 878// 333 20032 7////
AAXX 09004 47629 11/60 80107 10029 20010 30105 40144 53033 60022 76162 885// 333 20024 70015
AAXX 09004 47636 11/70 23309 10077 21008 30073 40142 51045 69952 70182 82200 333 20048 70010
AAXX 09004 47651 11/82 33314 10073 21016 30117 40140 53029 69902 70281 82130 333 20061 79999
AAXX 09004 47655 17/70 /2813 10095 20039 30048 40105 53027 69902 70060 333 20070
AAXX 09004 47675 15/70 /0413 10082 20060 30026 40118 53034 69902 333 20080
AAXX 09004 47741 11/65 70309 10058 20006 30178 40206 51018 60222 78088 872// 333 20029 70285
AAXX 09004 47746 11/60 80408 10054 21004 30178 40198 51021 60372 78088 883// 333 20032 7////
AAXX 09004 47750 11/65 83515 10058 20015 30161 40189 51029 60362 78088 883// 333 20039 70410
AAXX 09004 47765 11/84 20210 10071 21003 30128 40195 51038 69902 70181 82800 333 20056 70005
AAXX 09004 47772 11/80 70505 10065 21005 30069 40171 51036 69902 70282 878// 333 20062 70085
AAXX 09004 47800 15/81 /3115 10050 21023 30236 40241 51010 60002 333 20037
AAXX 09004 47815 11/75 72908 10077 21021 30188 40205 53023 69902 70281 83801 333 20059 70085
AAXX 09004 47817 11/80 53209 10073 21027 30187 40231 53008 69902 70182 83202 333 20068 70015
AAXX 09004 47830 12/82 22609 10075 21020 30187 40206 51026 60002 81139 333 20061 70110
AAXX 09004 47887 11/70 70109 10075 21007 30139 40181 51029 69902 70282 8327/ 333 20074 70080
AAXX 09004 47891 11/81 70106 10068 21002 30170 40187 51034 60022 70282 87800 333 20064 70085
AAXX 09004 47895 11/60 83010 10059 20024 30170 40178 51042 60052 78382 882// 333 20051 70125
AAXX 09004 47927 11/60 80220 10169 20151 30170 40220 51025 60032 76062 888// 333 20168 70025
AAXX 09004 60663 36/// /1107 10144 21080
AAXX 09004 60619 36/// /0406 10076 21003
AAXX 09004 60612 36/// /0510 10111 21073
AAXX 09004 60621 36/// /0508 10142 21003
AAXX 09001 08501 32/// /2502 10132 20114 30245 40281 52003
AAXX 09001 08505 32470 70604 10155 20135 30219 40269 51005 878// 333 82812 85630
AAXX 09001 08509 31360 62604 10153 20150 30209 40273 50005 70352 86800 333 82709 83816 85635
AAXX 09001 08512 32575 40000 10141 20132 30184 40270 52007 82830 333 81822 83358
AAXX 09001 08515 NIL
AAXX 09001 08533 32/// /0601 10096 20091 30232 40261 57007
AAXX 09001 08541 32/// /0103 10082 20076 30143 40265 57006
AAXX 09001 08545 31350 71002 10100 20083 30187 40272 57005 71022 84532 333 82709 83613 85075
AAXX 09001 08548 32/// /0801 10083 20075 30064 40274 54000
AAXX 09001 08554 32960 30402 10114 20089 30250 40260 57011 80002 333 83075
AAXX 09001 08558 NIL
AAXX 09001 08560 32/// /3502 10071 20062 39504 40274 57005
AAXX 09001 08567 32/// /0000 10058 20054 39606 40285 57006
AAXX 09001 08570 12/// /0000 10052 20052 39809 40281 57002 69911
AAXX 09001 08575 32/// /1501 10031 20030 39454 40289 57003
AAXX 09001 08579 NIL
AAXX 09001 89064 32256 70902 10013 29087 49880 52007 8764/ 333 10034
AAXX 09004 60676 36/// /0412 10127 21003
AAXX 09004 60691 36/// /0615 10180 21106
AAXX 09004 60664 36/// /0000 10120 21053
AAXX 09004 60667 36/// /0000 10120 21045
AAXX 09004 60633 36/// /3505 10171 21126
AAXX 09004 60692 36/// /0522 10202 21070
AAXX 09004 60662 36/// /0000 10112 21063
AAXX 09001 40703 12960 00000 11046 21068 38920 40210 54000 60001 333
AAXX 09001 40712 11620 12702 11078 21095 38676 40224 57003 60001 71010 81500 333 81640
AAXX 09001 40729 12960 00000 11036 21087 38345 40199 57004 60001 333
AAXX 09001 40736 12960 00000 10040 20030 30166 40140 58006 60001 333
AAXX 09001 40739 12965 00000 11032 21068 38706 40241 58001 60001 333
AAXX 09001 40743 12965 00702 11008 21026 39100 40242 58001 60001 333
AAXX 09001 40762 12962 03402 11057 21105 38572 40237 58005 60001 333
AAXX 09001 40768 12960 00000 11059 21109 38275 40221 55001 60001 333
AAXX 09001 40769 12960 00000 11038 21106 38310 40211 58008 60001 333
AAXX 09001 40785 NIL
AAXX 09001 40809 12965 01304 11072 21181 38533 40252 58005 60001 333
AAXX 09001 40821 12960 01202 10020 21093 38811 40213 56006 60001 333
AAXX 09001 40831 12960 00000 10052 21001 30199 40207 55003 60001 333
AAXX 09001 40703 12960 00000 11046 21068 38920 40210 54000 60001 333
AAXX 09001 40712 11620 12702 11078 21095 38676 40224 57003 60001 71010 81500 333 81640
AAXX 09001 40729 12960 00000 11036 21087 38345 40199 57004 60001 333
AAXX 09001 40736 12960 00000 10040 20030 30166 40140 58006 60001 333
AAXX 09001 40739 12965 00000 11032 21068 38706 40241 58001 60001 333
AAXX 09001 40743 12965 00702 11008 21026 39100 40242 58001 60001 333
AAXX 09001 40762 12962 03402 11057 21105 38572 40237 58005 60001 333
AAXX 09001 40768 12960 00000 11059 21109 38275 40221 55001 60001 333
AAXX 09001 40769 12960 00000 11038 21106 38310 40211 58008 60001 333
AAXX 09001 40785 NIL
AAXX 09001 40809 12965 01304 11072 21181 38533 40252 58005 60001 333
AAXX 09001 40821 12960 01202 10020 21093 38811 40213 56006 60001 333
AAXX 09001 40831 12960 00000 10052 21001 30199 40207 55003 60001 333
AAXX 09001 40716 12960 00000 11050 21077 38929 40232 54000 60001 333
AAXX 09001 40719 11820 50000 10012 20006 30153 40142 57012 60001 71041 85070 333 85358
AAXX 09001 40721 12960 01510 10096 21054 39626 40169 58001 60001 333
AAXX 09001 40858 12960 00802 10134 20047 30184 40194 50001 60001 92345 333
AAXX 09001 40872 12960 03302 10150 20030 30173 40178 54000 60001 222// 00/// 20301 333
AAXX 09001 40877 12960 20000 10040 21049 39621 40174 56005 60001 80001 333 82070
AAXX 09001 40898 12960 00203 10176 20067 30158 40167 54000 60001 222// 00250 10900 333
AAXX 09001 34712 32497 83404 10024 20022 30063 40151 52008 886// 333 88713
AAXX 09001 28676 429// 00502 11194 21216 30278 40418 57006 555 1/119
AAXX 09001 28766 419// 00701 11188 21212 30195 40403 57007 71000 555 1/120
AAXX 09001 28867 NIL
AAXX 09001 28879 429// 00000 11190 21204 30092 40408 57008 555 1/121
AAXX 09001 28952 NIL
AAXX 09001 28966 429// 30203 11121 21150 30073 40375 57013 83030 555 1/116
AAXX 09001 29802 419// 60000 11189 21200 30269 40426 57007 71011 80001 555 1/121
AAXX 09001 29807 429// 00000 11159 21183 30293 40421 53002 555 1/119
AAXX 09001 34691 42998 31407 11060 21113 30240 40227 52019 83030 555 1/107
AAXX 09001 35067 429// 00602 11198 21215 30076 40379 57010 555 1/122
AAXX 09001 35078 429// 00504 11148 21176 39969 40376 57009 555 1/117
AAXX 09001 35085 429// 03602 11172 21187 39874 40390 57011 555 1/118
AAXX 09001 35108 429// 61203 11105 21146 30254 40303 58001 80006
AAXX 09001 35188 429// 00302 11161 21179 39908 40376 57009 555 1/120
AAXX 09001 35217 429// 01004 11140 21153 30264 40306 57002 555 1/115
AAXX 09001 35229 429// 20401 11161 21172 30056 40351 57010 80001 555 1/124
AAXX 09001 35302 429// 61605 11126 21153 30264 40284 54000 80003 555 1/115
AAXX 09001 35357 429// 00000 11252 21277 39885 40370 54000 555 1/123
AAXX 09001 35394 42998 00703 11150 21201 39642 40366 57007 555 1/120
AAXX 09001 35406 429// 31303 11146 21181 30278 40281 57006 83050 555 1/117
AAXX 09001 35416 429// 21303 11137 21161 30184 40313 57008 80001 555 1/116
AAXX 09001 35426 429// 00701 11158 21176 30026 40340 57008 555 1/120
AAXX 09001 35497 429// 00000 11201 21222 39505 40375 57007 555 1/125
AAXX 09001 35532 41998 01212 11120 21147 39790 40310 57018 73733 333 91016 555 1/114
AAXX 09001 35671 42998 03601 11219 21239 39885 40358 57004 555 1/124
AAXX 09001 35700 42998 01109 11098 21134 30273 40248 57004 555 1/110
AAXX 09001 35746 429// 03504 11210 21228 30241 40314 57003 555 1/118
AAXX 09001 35796 42597 80403 11096 21131 39862 40317 57010 886// 555 1/110
AAXX 09001 35849 42998 00000 11191 21217 30210 40304 57005 555 1/118
AAXX 09001 35925 429// 01103 11164 21183 30164 40284 57010 555 1/117
AAXX 09001 35953 419// 80603 11110 21123 30161 40298 57002 77371 8802/ 555 1/112
AAXX 09001 35969 414// 80000 11064 21076 30132 40313 57003 77172 8802/ 555 1/106
AAXX 09001 36003 42998 00000 11203 21215 30241 40407 57008 555 1/122
AAXX 09001 36152 429// 00000 11232 21272 30197 40406 57011 555 1/124
AAXX 09001 36177 429// 00000 11220 21237 30138 40410 57011 555 1/123
AAXX 09001 36208 429// 00701 11094 21114 39371 40394 57002 555 1/116
AAXX 09001 36397 429// 00000 11204 21238 39797 40412 56004 555 1/122
AAXX 09001 36428 429// 00902 11205 21224 39866 40413 57010 333 95090 555 1/125
AAXX 09001 36535 429// 00000 11284 21308 39733 40449 57009 555 1/130
AAXX 09001 36639 429// 00000 11176 21202 39703 40354 58011 555 1/120
AAXX 09001 36821 415// 80601 11053 21074 39802 40306 57003 71022 889// 333 91104
AAXX 09001 36859 41/// 91401 11080 21090 39505 40318 57007 74942 333 91104 555 1/105
AAXX 09001 36864 425// 70000 11085 21117 39270 40309 57013 87500
AAXX 09001 36870 429// 80000 11055 21062 39245 40288 57004 8807/ 333 91103 555 1/105
AAXX 09001 38001 42997 50514 10016 21066 30218 40188 52006 85030 333 91018 555 10000
AAXX 09001 38062 415// 81001 11060 21079 30120 40289 57005 77177 8872/ 555 1/105
AAXX 09001 38069 429// 80000 11050 21074 30094 40293 57002 8801/
AAXX 09001 38196 NIL
AAXX 09001 38198 NIL
AAXX 09001 38222 42997 80501 11052 21077 39716 40294 57006 8807/ 555 14104
AAXX 09001 38232 42998 00806 11049 21077 30134 40238 57005 555 14108
AAXX 09001 38328 NIL
AAXX 09001 38334 NIL
AAXX 09001 38341 42997 00000 11095 21136 39472 40299 57005 555 1/111 91103
AAXX 09001 38343 41/93 90000 11161 21174 39417 40327 54000 74544
AAXX 09001 38439 NIL
AAXX 09001 28676 429// 00502 11194 21216 30278 40418 57006 555 1/119
AAXX 09001 28766 419// 00701 11188 21212 30195 40403 57007 71000 555 1/120
AAXX 09001 28867 NIL
AAXX 09001 28879 429// 00000 11190 21204 30092 40408 57008 555 1/121
AAXX 09001 28952 NIL
AAXX 09001 28966 429// 30203 11121 21150 30073 40375 57013 83030 555 1/116
AAXX 09001 29802 419// 60000 11189 21200 30269 40426 57007 71011 80001 555 1/121
AAXX 09001 29807 429// 00000 11159 21183 30293 40421 53002 555 1/119
AAXX 09001 34691 42998 31407 11060 21113 30240 40227 52019 83030 555 1/107
AAXX 09001 35067 429// 00602 11198 21215 30076 40379 57010 555 1/122
AAXX 09001 35078 429// 00504 11148 21176 39969 40376 57009 555 1/117
AAXX 09001 35085 429// 03602 11172 21187 39874 40390 57011 555 1/118
AAXX 09001 35108 429// 61203 11105 21146 30254 40303 58001 80006
AAXX 09001 35188 429// 00302 11161 21179 39908 40376 57009 555 1/120
AAXX 09001 35217 429// 01004 11140 21153 30264 40306 57002 555 1/115
AAXX 09001 35229 429// 20401 11161 21172 30056 40351 57010 80001 555 1/124
AAXX 09001 35302 429// 61605 11126 21153 30264 40284 54000 80003 555 1/115
AAXX 09001 35357 429// 00000 11252 21277 39885 40370 54000 555 1/123
AAXX 09001 35394 42998 00703 11150 21201 39642 40366 57007 555 1/120
AAXX 09001 35406 429// 31303 11146 21181 30278 40281 57006 83050 555 1/117
AAXX 09001 35416 429// 21303 11137 21161 30184 40313 57008 80001 555 1/116
AAXX 09001 35426 429// 00701 11158 21176 30026 40340 57008 555 1/120
AAXX 09001 35497 429// 00000 11201 21222 39505 40375 57007 555 1/125
AAXX 09001 35532 41998 01212 11120 21147 39790 40310 57018 73733 333 91016 555 1/114
AAXX 09001 35671 42998 03601 11219 21239 39885 40358 57004 555 1/124
AAXX 09001 35700 42998 01109 11098 21134 30273 40248 57004 555 1/110
AAXX 09001 35746 429// 03504 11210 21228 30241 40314 57003 555 1/118
AAXX 09001 35796 42597 80403 11096 21131 39862 40317 57010 886// 555 1/110
AAXX 09001 35849 42998 00000 11191 21217 30210 40304 57005 555 1/118
AAXX 09001 35925 429// 01103 11164 21183 30164 40284 57010 555 1/117
AAXX 09001 35953 419// 80603 11110 21123 30161 40298 57002 77371 8802/ 555 1/112
AAXX 09001 35969 414// 80000 11064 21076 30132 40313 57003 77172 8802/ 555 1/106
AAXX 09001 36003 42998 00000 11203 21215 30241 40407 57008 555 1/122
AAXX 09001 36152 429// 00000 11232 21272 30197 40406 57011 555 1/124
AAXX 09001 36177 429// 00000 11220 21237 30138 40410 57011 555 1/123
AAXX 09001 36208 429// 00701 11094 21114 39371 40394 57002 555 1/116
AAXX 09001 36397 429// 00000 11204 21238 39797 40412 56004 555 1/122
AAXX 09001 36428 429// 00902 11205 21224 39866 40413 57010 333 95090 555 1/125
AAXX 09001 36535 429// 00000 11284 21308 39733 40449 57009 555 1/130
AAXX 09001 36639 429// 00000 11176 21202 39703 40354 58011 555 1/120
AAXX 09001 36821 415// 80601 11053 21074 39802 40306 57003 71022 889// 333 91104
AAXX 09001 36859 41/// 91401 11080 21090 39505 40318 57007 74942 333 91104 555 1/105
AAXX 09001 36864 425// 70000 11085 21117 39270 40309 57013 87500
AAXX 09001 36870 429// 80000 11055 21062 39245 40288 57004 8807/ 333 91103 555 1/105
AAXX 09001 38001 42997 50514 10016 21066 30218 40188 52006 85030 333 91018 555 10000
AAXX 09001 38062 415// 81001 11060 21079 30120 40289 57005 77177 8872/ 555 1/105
AAXX 09001 38069 429// 80000 11050 21074 30094 40293 57002 8801/
AAXX 09001 38196 NIL
AAXX 09001 38198 NIL
AAXX 09001 38222 42997 80501 11052 21077 39716 40294 57006 8807/ 555 14104
AAXX 09001 38232 42998 00806 11049 21077 30134 40238 57005 555 14108
AAXX 09001 38328 NIL
AAXX 09001 38334 NIL
AAXX 09001 38341 42997 00000 11095 21136 39472 40299 57005 555 1/111 91103
AAXX 09001 38343 41/93 90000 11161 21174 39417 40327 54000 74544
AAXX 09001 38439 NIL
AAXX 09004 08001 11340 72406 10122 20114 30175 40257 52006 69931 75052 8577/ 333 924/5
AAXX 09004 87022 11560 82706 10226 20195 39595 40103 53016 60051 70282 885// 333 10256 20182 56499 88630
AAXX 09004 87046 11456 81806 10186 20177 39128 48511 52028 60011 76362 8462/ 333 10270 20180 56499 84715 88540 90008 94072 94479 98356
AAXX 09004 87047 11565 70904 10183 20152 38814 48529 52020 69921 70282 85570 333 10232 20170 56100 83620 85630
AAXX 09004 87097 11459 82305 10226 20222 39800 40107 52025 60071 76086 8457/ 333 10303 20226 56669 81615 83630 88360
AAXX 09004 87121 32665 33206 10219 20178 39624 40130 56021 81530 333 10289 20219 56660 81640
AAXX 09004 87129 12965 22302 10218 20193 39902 40132 53005 60011 82070 333 10310 20218 82360
AAXX 09004 87155 11965 31407 10235 20206 30056 40116 52023 69901 70192 83070 333 10298 20235 56040 83360
AAXX 09004 87162 11570 61809 10247 20219 30031 40099 52021 60011 70196 82578 333 10315 20247 56666 82630 83460 86270
AAXX 09004 87166 NIL
AAXX 09004 87178 11570 81406 10232 20208 39954 40097 52009 60121 70296 885// 333 10328 20223 56699 88625
AAXX 09004 87217 32770 20000 10230 20180 39643 40129 52012 82500 333 10287 20202
AAXX 09004 87222 32770 11404 10227 20168 39602 40113 53012 81400 333 10270 20249 56900 81656
AAXX 09004 87257 32965 10901 10232 20145 30032 40134 52015 80009 333 10295 20225 56006 81170
AAXX 09004 87270 32765 71805 10218 20177 30057 40119 51012 86075 333 10285 20218 56076 86556
AAXX 09004 87289 3296261414 10264 20115 30037 40118 52015 86070 333 10322 20242 56070 86360
AAXX 09004 87311 32765 22005 10258 20106 39445 40109 52011 81270 333 10310 20217 56000 57863 81850
AAXX 09004 87320 NIL
AAXX 09004 87328 31780 10902 10231 20142 39496 40135 51011 70191 81400 333 10301 20221 56000 81650 95090
AAXX 09003 87007 31467 70718 10120 20040 36721 47120 53027 71310 83938 333 10207 20087 56119 57950 82618 81938 86360 85270
AAXX 09003 87148 32970 40000 10257 20187 30000 40106 53013 84030 333 10295 20234 56050 84360
AAXX 09001 30372 32999 81801 11233 21258 39306 40247 56008 8807/ 333 21275 47009 55054
AAXX 09001 30433 32699 62703 11068 21135 39685 40296 57010 83530 333 21083 47005 55000
AAXX 09001 30554 329// 80000 11282 21300 39166 40382 54000 82041 333 21306 47009 55061
AAXX 09001 30635 118// 71302 11123 21150 39733 40334 56001 60012 70173 85031 333 21158 47016
AAXX 09001 30673 32999 31701 11291 21298 39429 40284 56009 80001 333 21299 47009 55064
AAXX 09001 30692 31996 30000 11266 21284 39690 40237 57/// 71011 83030 333 21297 55063
AAXX 09001 30758 11999 82401 11136 21171 39461 40327 57006 69902 70272 84031 333 21296 47003 55054
AAXX 09001 30802 31698 83105 11016 21093 38809 48588 53002 71522 82901 333 21148 47006 55026 91115
AAXX 09001 30823 11595 82803 11154 21173 39713 40393 57012 69942 78687 889// 333 21225 47006 55069
AAXX 09001 30879 32999 80000 11268 21293 39484 40327 57021 8807/ 333 21320 47005 55059
AAXX 09001 30935 11996 82101 11190 21209 39419 40436 57021 60012 77172 8802/ 333 21275 47002 55059
AAXX 09001 30949 32699 60000 11241 21248 39217 40425 57016 83530 333 21275 47003 55074
AAXX 09001 30965 11997 72603 11202 21212 39449 40344 56020 69902 77172 84042 333 21325 47003 55071
AAXX 09001 31168 32999 82302 11124 21207 30091 40103 57011 82041 333 21127 47025 55041
AAXX 09001 31300 31996 80000 11228 21234 39885 40200 57010 71041 80007 333 21257 47011
AAXX 09001 31329 32999 20000 11345 21367 39498 40259 57013 80001 333 21350 55067
AAXX 09001 31369 12598 82704 11149 21176 30028 40117 57006 69900 83502 333 21162 47052
AAXX 09001 31416 32999 21201 11265 21277 30064 40162 55001 81011 333 21271 47009 55062
AAXX 09001 31484 32999 12702 11202 21228 39802 40163 57019 81040 333 21234 47011
AAXX 09001 31512 329// 61601 11201 21242 30037 40217 57017 82034 333 21204 47///
AAXX 09001 31538 32999 00000 11300 21317 39761 40247 57010 333 21318 47018
AAXX 09001 31707 NIL
AAXX 09001 31735 32997 61702 11215 21248 30104 40199 56008 83031 333 21245 47013
AAXX 09001 31770 31999 82702 11134 21205 30115 40147 57003 74111 81039 333 21153 48013 55065
AAXX 09004 88897 46/// /3208 10086 20061 40106 54000
AAXX 0900/ 41858 NIL
AAXX 0900/ 41863 NIL
AAXX 0900/ 41886 NIL
AAXX 0900/ 41895 NIL
AAXX 0900/ 41909 NIL
AAXX 0900/ 41915 NIL
AAXX 0900/ 41926 NIL
AAXX 0900/ 41929 NIL
AAXX 0900/ 41933 NIL
AAXX 0900/ 41939 NIL
AAXX 0900/ 41941 NIL
AAXX 0900/ 41946 NIL
AAXX 0900/ 41947 NIL
AAXX 0900/ 41951 NIL
AAXX 0900/ 41953 NIL
AAXX 0900/ 41958 NIL
AAXX 0900/ 41960 NIL
AAXX 0900/ 41963 NIL
AAXX 0900/ 41964 NIL
AAXX 0900/ 41965 NIL
AAXX 0900/ 41966 NIL
AAXX 0900/ 41984 NIL
AAXX 0900/ 41989 NIL
AAXX 0900/ 41998 NIL
AAXX 09001 40701 12960 50000 11040 21106 38580 40205 55004 60001 80006 333 85268
AAXX 09001 40704 12970 02806 10030 21107 38584 40144 56011 60001 333
AAXX 09001 40708 12960 31808 11006 21109 38638 40155 55006 60001 80003 333 83070
AAXX 09001 40710 12980 13303 11082 21136 38312 40215 56004 60001 80001 333 81069
AAXX 09001 40713 12960 31003 10006 21151 38665 40193 53001 60001 80002 333 83070
AAXX 09001 40731 12960 00000 11026 21039 38754 40228 58006 60001 333
AAXX 09001 40740 12962 01402 11124 21134 38734 40229 56004 60001 333
AAXX 09001 40747 12960 00000 11058 21106 38647 40217 55001 60001 333
AAXX 09001 40757 12960 00000 11010 21028 38922 40233 58006 60001 333
AAXX 09001 40763 12965 00000 10004 21062 38931 40218 57009 60001 333
AAXX 09001 40782 12960 01502 11042 21074 38908 40234 56002 60001 333
AAXX 09001 40783 12970 01506 11014 21148 38000 40195 58011 60001 333
AAXX 09001 40789 12965 00000 10018 21027 39232 40222 56003 60001 333
AAXX 09001 40798 12960 00000 11082 21167 37982 40231 58003 60001 333
AAXX 09001 40818 12970 03302 11012 21123 38004 40197 54000 60001 333
AAXX 09001 40827 12965 00000 11030 21125 38871 40269 56002 60001 333
AAXX 09001 40836 NIL
AAXX 09001 40851 12960 00000 11042 21130 38294 40233 58006 60001 333
AAXX 09001 40853 12960 00000 11006 21190 37770 40204 57005 60001 333
AAXX 09001 40854 12960 02703 10044 21137 38983 40203 56004 60001 333
AAXX 09001 40857 12960 00202 10134 20057 30187 40197 53002 60001 222// 00/// 329// 40401 333
AAXX 09001 40859 12965 00000 10008 21050 38738 40186 57009 60001 333
AAXX 09001 40878 12965 03103 11010 21175 38876 40251 56002 60001 333
AAXX 09001 40879 12960 00102 10058 21161 39528 40220 53004 60001 333
AAXX 09001 40883 NIL
AAXX 09004 NIL
AAXX 09004 82022 32970 00705 10290 20226 39981 40077 333 10337 59008
AAXX 09004 82193 21570 20403 10259 20236 30081 40099 70196 82200 333 10310 59011 60121
AAXX 09004 82281 32970 00512 10272 20197 30038 40100 333 10315 58010
AAXX 09004 82332 32370 50902 10241 20233 39998 40091 82531 333 10301 58024
AAXX 09004 82398 32970 00905 10254 20223 30081 40110 333 10295 58001
AAXX 09004 82400 NIL
AAXX 09004 82579 32970 33001 10286 20226 30003 40079 80001 333 10359 58010
AAXX 09004 82917 21550 71002 10268 20257 39862 40081 79596 86930 333 10353 59012 60071
AAXX 09004 82965 31565 70903 10254 20236 39758 40085 71792 81934 333 10310 59005
AAXX 09004 82993 32570 20703 10228 20209 39998 40134 82100 333 10297 58006
AAXX 09004 83208 21370 53405 10226 20223 39402 48490 70196 82530 333 10288 58004 69941
AAXX 09004 83349 32570 60706 10269 20218 30126 40132 82201 333 10293 59004
AAXX 09004 83362 32570 62005 10250 20205 39870 40084 81134 333 10334 58005
AAXX 09004 83378 32970 50000 10243 20131 38948 48510 82039 333 10281 58008
AAXX 09004 83460 32570 30710 10250 20212 30071 40128 83100 333 10274 58014
AAXX 09004 83497 NIL
AAXX 09004 83566 32570 61304 10199 20163 39200 48520 84230 333 10241 59009
AAXX 09004 83599 NIL
AAXX 09004 83612 21262 82407 10218 20205 39477 48520 52027 79596 8692/ 333 10290 60041
AAXX 09004 83649 32470 60206 10256 20230 30125 40130 51021 86506 333 10305
AAXX 09004 83650 NIL
AAXX 09004 83780 21557 71804 10203 20184 39227 48520 51020 71062 86530 333 10283 60241
AAXX 09004 83827 41470 73404 10237 20235 39818 40091 50020 72996 882// 333 10309 60011
AAXX 09004 83840 21258 71109 10181 20175 39107 48510 51011 76162 87500 333 10260 60241
AAXX 09004 83899 21570 51608 10217 20159 30127 40133 51017 72162 85500 333 10263 60071
AAXX 09004 83925 NIL
AAXX 09004 83970 NIL
AAXX 09004 83971 32970 41606 10218 20173 30136 40140 52018 84500 333 10263
AAXX 09004 NIL
AAXX 09004 NIL
AAXX 09004 82143 NIL
AAXX 09004 82599 32570 21308 10257 20217 30064 40124 82100 333 10303 59014
AAXX 09004 82824 32570 40000 10254 20232 39986 40086 82230 333 10343 59018
AAXX 09004 82899 32570 21007 10262 20198 30118 40130 82200 333 10295 58003
AAXX 09004 83117 NIL
AAXX 09004 83248 32470 20709 10268 20219 30106 40128 82200 333 10293 59003
AAXX 09004 83746 21458 82703 10240 20225 40111 51009 72162 885// 333 10326 60021
AAXX 09001 40701 12960 50000 11040 21106 38580 40205 55004 60001 80006 333 85268
AAXX 09001 40704 12970 02806 10030 21107 38584 40144 56011 60001 333
AAXX 09001 40708 12960 31808 11006 21109 38638 40155 55006 60001 80003 333 83070
AAXX 09001 40710 12980 13303 11082 21136 38312 40215 56004 60001 80001 333 81069
AAXX 09001 40713 12960 31003 10006 21151 38665 40193 53001 60001 80002 333 83070
AAXX 09001 40731 12960 00000 11026 21039 38754 40228 58006 60001 333
AAXX 09001 40740 12962 01402 11124 21134 38734 40229 56004 60001 333
AAXX 09001 40747 12960 00000 11058 21106 38647 40217 55001 60001 333
AAXX 09001 40757 12960 00000 11010 21028 38922 40233 58006 60001 333
AAXX 09001 40763 12965 00000 10004 21062 38931 40218 57009 60001 333
AAXX 09001 40782 12960 01502 11042 21074 38908 40234 56002 60001 333
AAXX 09001 40783 12970 01506 11014 21148 38000 40195 58011 60001 333
AAXX 09001 40789 12965 00000 10018 21027 39232 40222 56003 60001 333
AAXX 09001 40798 12960 00000 11082 21167 37982 40231 58003 60001 333
AAXX 09001 40818 12970 03302 11012 21123 38004 40197 54000 60001 333
AAXX 09001 40827 12965 00000 11030 21125 38871 40269 56002 60001 333
AAXX 09001 40836 NIL
AAXX 09001 40851 12960 00000 11042 21130 38294 40233 58006 60001 333
AAXX 09001 40853 12960 00000 11006 21190 37770 40204 57005 60001 333
AAXX 09001 40854 12960 02703 10044 21137 38983 40203 56004 60001 333
AAXX 09001 40857 12960 00202 10134 20057 30187 40197 53002 60001 222// 00/// 329// 40401 333
AAXX 09001 40859 12965 00000 10008 21050 38738 40186 57009 60001 333
AAXX 09001 40878 12965 03103 11010 21175 38876 40251 56002 60001 333
AAXX 09001 40879 12960 00102 10058 21161 39528 40220 53004 60001 333
AAXX 09001 40883 NIL
AAXX 09004 NIL
AAXX 09004 NIL
AAXX 09004 NIL
AAXX 09004 NIL
AAXX 09004 NIL
AAXX 09004 NIL
AAXX 09004 NIL
BBXX WNBE 09004 99219 71593 41/// /0516 10225 2//// 40170 54/// 7//22 8//// 222// 0//// 2//// 3//// 4//// 5//// 6//// 8//// ICE /////
BBXX C6DM2 09004 99054 11003 41797 70405 10260 20246 40100 54000 70111 8713/ 22200 0//// 2//// 3//// 4//// 5//// 6//// 80250 ICE /////
BBXX C6SE3 09004 99120 70683 41697 60816 10270 20243 40150 54/// 701// 8/83/ 22241 00300 20202 3//// 4//// 5//// 6//// 80250 ICE /////
BBXX C6XC6 09004 99364 70029 41/97 79902 10150 2//// 40250 5//// 7//22 8//// 22273 0//// 2//// 3//// 4//// 5//// 6//// 8//// ICE /////
BBXX 3EMK6 09004 99266 70925 416// 60707 10189 20172 40250 56/// 7//22 86240 22200 00235 20201 30404 40302 5//// 6//// 80178 ICE /////
BBXX C6RN3 09004 99240 70739 415// 50620 10260 20217 40190 54/// 7//// 85188 22254 00290 201// 3//// 4//// 5//// 6//// 80230 ICE /////
BBXX KNJK 09003 99256 70851 41498 80213 10206 20171 40195 54000 70222 887// 22273 00200 2//// 3//// 4//// 5//// 6//// 80183 ICE /////
BBXX WDJK 09004 99591 71467 41396 82510 10050 20050 40100 54000 71122 886// 22253 00060 2//// 30919 41105 51005 6//// 80050 ICE /////
BBXX C6TQ6 09004 99163 70866 41698 80310 10260 20232 40160 54000 7//21 8/86/ 22213 00280 20102 302// 40102 5//// 6//// 80240 ICE /////
BBXX C6FM8 09004 99279 70801 41/// /0620 10200 20153 40220 54/// 7//// 8//// 22253 0//// 21000 3//// 41000 51000 6//// 80170 ICE /////
BBXX NWS0020 09004 99379 10236 43/// /3505 10113 20018 40238 5//// 7//// 8//// 222// 04189 2//// 3//// 4//// 5//// 6//// 8//// ICE /////
BBXX V7HC6 09004 99273 70907 41/// /0710 10160 20126 40221 52001 700// 8//// 222// 00230 2//// 3//// 4//// 5//// 6//// 80140 ICE /////
BBXX ONFP 09003 99344 30077 43696 51619 10140 2006/ 40300 55/// 7//11 84243 22233 00144 20305 31615 40204 50204 6//// 80100 ICE /////
BBXX ONFW 09004 99352 11198 41197 53619 10000 21028 40360 54/// 70211 8325/ 22200 04100 20204 308// 40404 5//// 6//// 81010 ICE /////
BBXX WKAE 09004 99475 70395 41598 72218 10125 20116 40175 54000 70322 87/3/ 22224 00130 20503 323// 40805 5//// 6//// 80120 ICE /////
BBXX 9HRJ9 09003 99308 70621 41897 31310 10210 20210 40250 54000 70111 821// 22254 00180 2//// 319// 41503 5//// 6//// 80210 ICE /////
BBXX 9HJC9 09004 99167 70638 41697 50412 10260 2//// 40130 54/// 7//22 852// 22272 04280 20202 39999 40202 5//// 6//// 8//// ICE /////
BBXX WCX9106 09003 99603 71465 41296 82219 10011 2//// 40080 57010 7//// 88/// 22200 0//// 2//01 322// 4//02 5//// 6//// 8//// ICE /////
BBXX 44067 09001 99384 70770 46/// /2101 10050 40267 53012 90000
BBXX 41029 09001 99328 70796 46/// /0605 1//// 90000 555 11068 22082
BBXX 44033 09001 99441 70690 46/30 /2507 10038 40194 51053 90004 22200 00081 11102 70009 333 91208 555 11078 22081
BBXX 44034 09001 99441 70681 46/30 /2811 10034 40184 51059 90004 22200 00092 11105 70026 333 91214 555 11133 22140
AAXX 09001 26997 41956 81401 11017 21028 39940 40164 52009 71081 8807/
AAXX 09001 27595 41597 81803 11072 21085 30110 40265 52009 70272 885// 333 93402
AAXX 09001 27612 419// 80000 11019 21034 30003 40201 52008 71022 8807/
AAXX 09001 27707 41850 81102 11044 21050 39879 40182 52009 71022 8802/
AAXX 09001 27719 42597 80502 11014 21034 39938 40195 52011 8533/
AAXX 09001 27786 42497 81402 11080 21098 30093 40262 52006 885// 333 88614
AAXX 09001 27857 41496 81204 10001 21002 30021 40186 52007 77172 8802/ 333 88510
AAXX 09001 27906 41394 80202 11017 21019 39926 40173 52002 75652 886// 333 93401
AAXX 09001 27928 41394 80302 11004 21013 39958 40168 53003 71052 886// 333 93602
AAXX 09001 27947 41497 80000 10003 21005 30011 40173 52003 76887 8872/ 333 88710
AAXX 09001 27962 41395 81204 11048 21058 39989 40217 52002 77172 885// 333 88607 93400
AAXX 09001 27983 42970 51303 11104 21124 30136 40273 53007 82031 333 93402
AAXX 09001 27995 42974 80902 11106 21134 40285 52004 85011
AAXX 09001 28506 42997 71503 11065 21120 30166 40285 52003 80007
AAXX 09001 28704 42998 81704 11094 21119 30189 40292 52006 86031
AAXX 09001 28711 42997 81804 11084 21154 39923 40318 52004 85031
AAXX 09001 28807 42997 81202 11107 21143 30246 40300 52004 82077
AAXX 09001 34009 41/95 90000 11015 21015 39858 40169 52007 74542
AAXX 09001 34110 41495 80401 11008 21012 39879 40162 52007 71022 886// 333 88714
AAXX 09001 34123 41/93 93601 10002 21001 39972 40159 52001 74542
AAXX 09001 34152 41350 81503 11008 21008 39980 40181 52003 78582 889// 333 88708 93704
AAXX 09001 34163 41496 80704 11049 21055 40222 52002 71022 885// 333 88619 93402
AAXX 09001 34171 42360 81205 11060 21075 30027 40229 52004 886// 333 88707 93401
AAXX 09001 34186 42980 71406 11102 21130 30110 40257 58003 80001 333 93406
AAXX 09001 34247 41356 80902 10005 20002 30043 40158 52004 71072 885// 333 85709 93708
AAXX 09001 34336 41498 80601 10022 20017 30047 40152 52004 70262 8672/ 333 86711
AAXX 09001 34391 42997 71104 11091 21121 30211 40244 57003 80001
AAXX 09001 35011 42984 01404 11125 21160 30170 40335 52003
AAXX 09001 35121 42998 20903 11148 21168 30192 40351 57003 80002
AAXX 09001 38598 415// 20908 10011 21012 40274 57002 70241 82600
AAXX 09001 38599 NIL
AAXX 09001 38725 NIL
AAXX 09001 38734 429// 01404 11084 21154 37461 48050 54000
AAXX 09001 38744 429// 09002 11112 21174 38050 48580 53000
AAXX 09001 38836 429// 00000 11045 21061 39301 40284 57002
AAXX 09001 38838 NIL
AAXX 09001 38844 NIL
AAXX 09001 38846 NIL
AAXX 09001 38847 NIL
AAXX 09001 38932 NIL
AAXX 09001 38933 419// 01801 11028 21048 39743 40280 57003 74440
AAXX 09001 38944 429// 00000 11018 21030 39635 40189 57003
AAXX 09001 38954 NIL
AAXX 09001 22271 42498 82407 11007 21052 30143 40153 52019 883//
AAXX 09001 22520 42998 71702 11015 21023 30129 40139 52001 87030
AAXX 09001 22550 41472 81602 11011 21037 30181 40191 52007 70282 885// 333 88614
AAXX 09001 22583 42584 71801 11030 21047 30141 40224 51009 875// 333 87620
AAXX 09001 22768 42497 81202 11032 21046 30151 40209 54000 8357/
AAXX 09001 22845 41496 81402 11033 21040 30029 40190 54000 77172 8872/ 333 86710
AAXX 09001 22887 42997 31701 11098 21106 30170 40244 52003 82031 333 91104
AAXX 09001 23205 41296 82305 11013 21033 30167 40182 52013 78583 889// 333 87706 91109
AAXX 09001 23219 42498 82306 11034 21048 30133 40242 52018 886//
AAXX 09001 23418 42965 01903 11048 21068 30185 40261 51010
AAXX 09001 23606 42660 81702 11048 21051 30090 40268 52006 72272 8652/ 333 86636
AAXX 09001 23711 41497 81403 11016 21021 30110 40288 52009 78582 8393/
AAXX 09001 23804 42597 80000 11026 21052 30108 40261 58005 885// 333 88631
AAXX 09001 27037 41498 81603 11034 21045 30045 40211 52008 70272 8672/ 333 86710
AAXX 09001 27199 41395 81302 11058 21065 30044 40249 56002 77373 8802/ 333 93404
AAXX 09001 27271 42697 70703 11025 21038 30071 40231 53009 85570
AAXX 09001 27459 41398 80902 11046 21055 30013 40215 52006 70272 8861/ 333 88707
AAXX 09001 27730 41496 80301 11017 21025 39988 40188 52003 71072 885// 333 88610
AAXX 09001 20107 41597 70306 11019 21064 39873 49967 52024 78583 85930 333 91008 91111
AAXX 09001 22113 41556 71903 11034 21045 30036 40101 52005 78582 87900 333 91005
AAXX 09001 22217 41357 81603 11024 21033 30082 40114 50003 77187 8872/ 333 86708 91007
AAXX 09001 22235 42380 81902 11024 21030 39942 40140 51003 886// 333 91004
AAXX 09001 22349 42598 71701 11025 21047 30155 40167 51006 86530 333 91002
AAXX 09001 22408 41484 81702 11010 21020 39965 40116 54000 70272 886// 333 88710
AAXX 09001 22602 41475 51803 11016 21027 39887 40115 54000 70272 82530
AAXX 09001 22619 41981 21802 11013 21027 39984 40148 52007 70281 82030
AAXX 09001 22721 41597 70000 11006 21006 30054 40156 52005 70282 87900 333 85625 93716
AAXX 09001 22802 41580 81704 10018 21033 30115 40138 51004 72782 889//
AAXX 09001 22820 42584 72002 11013 21023 30021 40161 52003 83530
AAXX 09001 26059 42697 71502 11005 21026 30113 40138 52003 87500 333 87638
AAXX 09001 26063 42697 81602 10007 21016 30140 40148 50001 885// 333 88640
AAXX 09001 26094 42670 81702 11010 21017 30093 40170 52006 885// 333 88636 93704
AAXX 09001 26157 42697 71704 11005 21020 30085 40136 58001 875// 333 87633
AAXX 09001 26167 42965 81602 11013 21028 30036 40150 54000 8805/
AAXX 09001 26258 42598 81702 11002 21020 30091 40147 58001 889//
AAXX 09001 26298 41496 81502 11013 21027 39949 40185 52006 71022 886//
AAXX 09001 26359 42481 81702 10001 21033 30021 40158 52003 886//
AAXX 09001 26702 41996 81802 10003 21020 30082 40109 58028 71022 80007 333 91003 91105
AAXX 09001 26781 42997 81002 11020 21038 39857 40157 52003 8801/
AAXX 09001 27208 41395 80000 11029 21033 30014 40195 51007 71011 886//
AAXX 09001 27402 42297 81001 11034 21038 30008 40193 52006 886// 333 88703
AAXX 09001 28676 429// 00502 11194 21216 30278 40418 57006 555 1/119
AAXX 09001 28766 419// 00701 11188 21212 30195 40403 57007 71000 555 1/120
AAXX 09001 28867 NIL
AAXX 09001 28879 429// 00000 11190 21204 30092 40408 57008 555 1/121
AAXX 09001 28952 NIL
AAXX 09001 28966 429// 30203 11121 21150 30073 40375 57013 83030 555 1/116
AAXX 09001 29802 419// 60000 11189 21200 30269 40426 57007 71011 80001 555 1/121
AAXX 09001 29807 429// 00000 11159 21183 30293 40421 53002 555 1/119
AAXX 09001 34691 42998 31407 11060 21113 30240 40227 52019 83030 555 1/107
AAXX 09001 35067 429// 00602 11198 21215 30076 40379 57010 555 1/122
AAXX 09001 35078 429// 00504 11148 21176 39969 40376 57009 555 1/117
AAXX 09001 35085 429// 03602 11172 21187 39874 40390 57011 555 1/118
AAXX 09001 35108 429// 61203 11105 21146 30254 40303 58001 80006
AAXX 09001 35188 429// 00302 11161 21179 39908 40376 57009 555 1/120
AAXX 09001 35217 429// 01004 11140 21153 30264 40306 57002 555 1/115
AAXX 09001 35229 429// 20401 11161 21172 30056 40351 57010 80001 555 1/124
AAXX 09001 35302 429// 61605 11126 21153 30264 40284 54000 80003 555 1/115
AAXX 09001 35357 429// 00000 11252 21277 39885 40370 54000 555 1/123
AAXX 09001 35394 42998 00703 11150 21201 39642 40366 57007 555 1/120
AAXX 09001 35406 429// 31303 11146 21181 30278 40281 57006 83050 555 1/117
AAXX 09001 35416 429// 21303 11137 21161 30184 40313 57008 80001 555 1/116
AAXX 09001 35426 429// 00701 11158 21176 30026 40340 57008 555 1/120
AAXX 09001 35497 429// 00000 11201 21222 39505 40375 57007 555 1/125
AAXX 09001 35532 41998 01212 11120 21147 39790 40310 57018 73733 333 91016 555 1/114
AAXX 09001 35671 42998 03601 11219 21239 39885 40358 57004 555 1/124
AAXX 09001 35700 42998 01109 11098 21134 30273 40248 57004 555 1/110
AAXX 09001 35746 NIL
AAXX 09001 35796 42597 80403 11096 21131 39862 40317 57010 886// 555 1/110
AAXX 09001 35849 NIL
AAXX 09001 35925 429// 01103 11164 21183 30164 40284 57010 555 1/117
AAXX 09001 35953 NIL
AAXX 09001 35969 NIL
AAXX 09001 36003 42998 00000 11203 21215 30241 40407 57008 555 1/122
AAXX 09001 36152 429// 00000 11232 21272 30197 40406 57011 555 1/124
AAXX 09001 36177 429// 00000 11220 21237 30138 40410 57011 555 1/123
AAXX 09001 36208 429// 00701 11094 21114 39371 40394 57002 555 1/116
AAXX 09001 36397 429// 00000 11204 21238 39797 40412 56004 555 1/122
AAXX 09001 36428 429// 00902 11205 21224 39866 40413 57010 333 95090 555 1/125
AAXX 09001 36535 429// 00000 11284 21308 39733 40449 57009 555 1/130
AAXX 09001 36639 429// 00000 11176 21202 39703 40354 58011 555 1/120
AAXX 09001 36821 415// 80601 11053 21074 39802 40306 57003 71022 889// 333 91104
AAXX 09001 36859 41/// 91401 11080 21090 39505 40318 57007 74942 333 91104 555 1/105
AAXX 09001 36864 425// 70000 11085 21117 39270 40309 57013 87500
AAXX 09001 36870 429// 80000 11055 21062 39245 40288 57004 8807/ 333 91103 555 1/105
AAXX 09001 38001 42997 50514 10016 21066 30218 40188 52006 85030 333 91018 555 10000
AAXX 09001 38062 NIL
AAXX 09001 38069 NIL
AAXX 09001 38196 NIL
AAXX 09001 38198 NIL
AAXX 09001 38222 42997 80501 11052 21077 39716 40294 57006 8807/ 555 14104
AAXX 09001 38232 42998 00806 11049 21077 30134 40238 57005 555 14108
AAXX 09001 38328 NIL
AAXX 09001 38334 NIL
AAXX 09001 38341 42997 00000 11095 21136 39472 40299 57005 555 1/111 91103
AAXX 09001 38343 41/93 90000 11161 21174 39417 40327 54000 74544
AAXX 09001 38439 NIL
BBXX 46111 09001 99481 71227 46/// /3105 10055 40299 55003 90000 22200 00063
BBXX 46112 09001 99481 71227 46/// /2903 10054 40299 55003 90000
AAXX 09001 22028 42581 72107 11035 21056 30066 40105 51005 83536 333 91009 91111
AAXX 09001 22106 41997 81601 11032 21039 30015 40095 51004 77172 8802/ 333 91002
AAXX 09001 22127 42698 61403 11028 21055 39910 40114 52008 82530 333 91006 91112
AAXX 09001 22324 41580 81402 11026 21032 30084 40134 52006 78582 889// 333 91004
AAXX 09001 22621 41498 71802 11008 21018 30009 40151 52006 70282 87900 333 84917
AAXX 09001 22831 42997 70000 11025 21034 30115 40176 52002 87030
AAXX 09001 22892 41597 71706 10010 21019 30104 40120 52005 70282 86930
AAXX 09001 26275 42598 81302 10001 21022 30131 40162 52003 885// 333 88624
AAXX 09001 26389 41496 61201 11034 21038 39905 40177 51002 71022 86600
AAXX 09001 26499 42997 81001 11036 21047 39958 40194 52009 80007
AAXX 09001 26695 41996 81002 11028 21035 39869 40185 52002 71022 8801/
AAXX 09001 26882 42476 71203 11019 21034 39880 40161 52011 87500 333 87613
AAXX 09001 28676 429// 00502 11194 21216 30278 40418 57006 555 1/119
AAXX 09001 28766 419// 00701 11188 21212 30195 40403 57007 71000 555 1/120
AAXX 09001 28867 NIL
AAXX 09001 28879 429// 00000 11190 21204 30092 40408 57008 555 1/121
AAXX 09001 28952 NIL
AAXX 09001 28966 429// 30203 11121 21150 30073 40375 57013 83030 555 1/116
AAXX 09001 29802 419// 60000 11189 21200 30269 40426 57007 71011 80001 555 1/121
AAXX 09001 29807 429// 00000 11159 21183 30293 40421 53002 555 1/119
AAXX 09001 34691 42998 31407 11060 21113 30240 40227 52019 83030 555 1/107
AAXX 09001 35067 429// 00602 11198 21215 30076 40379 57010 555 1/122
AAXX 09001 35078 429// 00504 11148 21176 39969 40376 57009 555 1/117
AAXX 09001 35085 429// 03602 11172 21187 39874 40390 57011 555 1/118
AAXX 09001 35108 429// 61203 11105 21146 30254 40303 58001 80006
AAXX 09001 35188 429// 00302 11161 21179 39908 40376 57009 555 1/120
AAXX 09001 35217 429// 01004 11140 21153 30264 40306 57002 555 1/115
AAXX 09001 35229 429// 20401 11161 21172 30056 40351 57010 80001 555 1/124
AAXX 09001 35302 429// 61605 11126 21153 30264 40284 54000 80003 555 1/115
AAXX 09001 35357 429// 00000 11252 21277 39885 40370 54000 555 1/123
AAXX 09001 35394 42998 00703 11150 21201 39642 40366 57007 555 1/120
AAXX 09001 35406 429// 31303 11146 21181 30278 40281 57006 83050 555 1/117
AAXX 09001 35416 429// 21303 11137 21161 30184 40313 57008 80001 555 1/116
AAXX 09001 35426 429// 00701 11158 21176 30026 40340 57008 555 1/120
AAXX 09001 35497 429// 00000 11201 21222 39505 40375 57007 555 1/125
AAXX 09001 35532 41998 01212 11120 21147 39790 40310 57018 73733 333 91016 555 1/114
AAXX 09001 35671 42998 03601 11219 21239 39885 40358 57004 555 1/124
AAXX 09001 35700 42998 01109 11098 21134 30273 40248 57004 555 1/110
AAXX 09001 35746 NIL
AAXX 09001 35796 42597 80403 11096 21131 39862 40317 57010 886// 555 1/110
AAXX 09001 35849 NIL
AAXX 09001 35925 429// 01103 11164 21183 30164 40284 57010 555 1/117
AAXX 09001 35953 NIL
AAXX 09001 35969 NIL
AAXX 09001 36003 42998 00000 11203 21215 30241 40407 57008 555 1/122
AAXX 09001 36152 429// 00000 11232 21272 30197 40406 57011 555 1/124
AAXX 09001 36177 429// 00000 11220 21237 30138 40410 57011 555 1/123
AAXX 09001 36208 429// 00701 11094 21114 39371 40394 57002 555 1/116
AAXX 09001 36397 429// 00000 11204 21238 39797 40412 56004 555 1/122
AAXX 09001 36428 429// 00902 11205 21224 39866 40413 57010 333 95090 555 1/125
AAXX 09001 36535 429// 00000 11284 21308 39733 40449 57009 555 1/130
AAXX 09001 36639 429// 00000 11176 21202 39703 40354 58011 555 1/120
AAXX 09001 36821 415// 80601 11053 21074 39802 40306 57003 71022 889// 333 91104
AAXX 09001 36859 41/// 91401 11080 21090 39505 40318 57007 74942 333 91104 555 1/105
AAXX 09001 36864 425// 70000 11085 21117 39270 40309 57013 87500
AAXX 09001 36870 429// 80000 11055 21062 39245 40288 57004 8807/ 333 91103 555 1/105
AAXX 09001 38001 42997 50514 10016 21066 30218 40188 52006 85030 333 91018 555 10000
AAXX 09001 38062 NIL
AAXX 09001 38069 NIL
AAXX 09001 38196 NIL
AAXX 09001 38198 NIL
AAXX 09001 38222 42997 80501 11052 21077 39716 40294 57006 8807/ 555 14104
AAXX 09001 38232 42998 00806 11049 21077 30134 40238 57005 555 14108
AAXX 09001 38328 NIL
AAXX 09001 38334 NIL
AAXX 09001 38341 42997 00000 11095 21136 39472 40299 57005 555 1/111 91103
AAXX 09001 38343 41/93 90000 11161 21174 39417 40327 54000 74544
AAXX 09001 38439 NIL
BBXX ONFP 09003 99344 30077 43696 51619 10140 2006/ 40300 55/// 7//11 84243 22233 00144 20305 31615 40204 50204 6//// 80100 ICE /////
BBXX WDE8288 09004 99173 10571 41498 50311 10250 2021/ 40140 54000 70310 852// 22214 0//// 20402 304// 40602 5//// 6//// 80220 ICE /////
BBXX A8YW2 09004 99335 50013 41498 71112 10170 20070 40310 58010 70322 8614/ 22224 00160 21201 80120
BBXX 2BLY5 09003 99118 70228 41/97 20810 10255 20233 40124 50004 70500 8//// 22253 00280 20302 80240
BBXX ONDY 09004 99018 30083 41597 82009 10255 2025/ 40120 52020 71522 888// 22283 00268 2//// 3//// 4//// 5//// 6//// 80250 ICE /////
BBXX PHQW 09003 99035 70080 41/98 /1316 10260 20232 40102 51002 7//// 8//// 22223 00275 2//// 80240 90127
BBXX LGWS 09001 99292 70104 43/// /0506 10186 20119 40218 5//// 222/0 04168 1//// 3//// 4//// 5////
BBXX PCDE 09003 99400 30592 41398 50303 10171 20149 40241 54000 70111 85100 22223 2//// 30326 40802 51202 80157
BBXX DGZR2 09003 99206 10596 41698 20420 10240 20136 40145 55005 7//00 82100 22214 00260 20403 80175
BBXX DBRE 09004 99092 50275 41698 61014 10250 20207 40135 54000 70222 85614 22273 04274 20702 320// 41003 80220
BBXX A8MW6 09004 99299 70341 41/97 60817 10220 20175 40210 51010 70211 86/3/ 22214 00280 20401 309// 40602 5//// 80190
BBXX A8TC4 09004 99351 50308 41298 53512 10200 20184 40160 54000 70200 8/618 22264 04200 20802 309// 40802 5//// 80190
BBXX A8RL3 09001 99218 30618 41/97 40911 10245 20223 40100 57010 70211 8/8// 22213 29903 312// 4//05 5//// 80230
BBXX 9LD2206 09003 99185 70223 41796 50810 10230 20198 40162 54000 70511 85030 22241 04243 20501 309// 40501 80208
BBXX PHPP 09004 99135 10552 41597 30328 10240 20164 40120 56017 70200 83100 22224 00275 20806 80190
BBXX NWS0029 09004 99187 70275 43/// /0509 10233 20187 40160 5//// 7//// 8//// 222// 04252 2//// 3//// 4//// 5//// 6//// 8//// ICE /////
BBXX C6RN3 09004 99240 70739 415// 50620 10260 20217 40190 54/// 7//// 85188 22254 00290 201// 3//// 4//// 5//// 6//// 80230 ICE /////
BBXX A8HG2 09004 99542 71772 41598 31811 10050 20003 40100 57010 70200 83048 22225 04050 20303 335// 40507 5//// 80030
BBXX 44008 09001 99405 70692 46/// /3110 10082 20011 40235 51044 92350 22200 00126 11008 20805 319// 41006 70039 333 91212 555 11101 22106 32330 42913 62349 307095 301096 303090 300090 302086 314088
BBXX 44022 09001 99409 70737 46/// ///04 10059 21025 90000 22200 00104 333 91205 555 11036 22041
BBXX 46083 09001 99582 71380 46/// /2011 10062 20060 40166 58015 92350 22200 00066 10807 20605 300// 40804 70033 333 91214 555 11117 22125 32330 42114 62349 200108 202107 201112 203110 205102 207099 82012 92330
BBXX 46042 09001 99368 71224 46/// /3105 10114 40191 56009 92350 22200 00123 11402 20401 331// 41402 70009 333 91206 555 11048 22050 32348 43106 62349 315047 315045 316042 313041 319041 326045
BBXX 46089 09001 99459 71258 46/// /0209 10078 20042 40278 56011 92350 22200 00098 12104 20503 302// 42102 70018 333 91211 555 11093 22098 32325 43612 62349 021087 018087 015088 013088 021090 016083
BBXX C6KD6 09004 99133 70716 41498 50914 10272 20245 40109 53005 70311 83168 22254 02281 20502 80253
BBXX A8CH2 09004 99279 70513 41498 41407 10240 20196 40180 50005 70222 84145 22214 04240 20404 311// 40605 80210
BBXX DQVG 09003 99343 71270 41597 53115 10145 20074 40140 51010 70211 85544 22274 00161 21201 3//// 4//// 5//// 80110
BBXX DPLE 09003 99447 70636 41598 22830 10030 21036 40140 52070 70211 82100 22200 00090 20201 30000 80005
BBXX A8IP3 09003 99258 70625 41598 30718 10235 20183 40200 54000 70100 82462 22254 04265 20504 309// 41004 80200
BBXX DGOS 09003 99330 70628 41598 22210 10220 20175 40215 52025 70100 81148 22224 20801 80190
BBXX WXJ63 09003 99611 71464 41/96 801// 11018 21024 40097 57/// 771// 8//// 222// 00056 2//// 3//// 4//// 5//// 6//// 8//// ICE /////
BBXX 42364 09001 99291 70881 46/// /0103 10122 20067 40247 53003 90000
BBXX 44011 09001 99411 70666 46/// /3010 10080 20016 40216 51055 92350 22200 00102 11111 20506 3//// 41109 70055 333 91212 555 11102 22107 32251 41216 62349 297096 306094 301106 304106 309109 303113
BBXX 41041 09001 99142 70460 46/// /1006 1//// 40143 53021 92350 22200 00267 333 91207 555 11065 22069
BBXX 42363 09001 99282 70892 46/// /0604 10150 20067 40237 54000 90000 333 91205
BBXX 41046 09001 99238 70683 46/// /0707 10253 20201 40176 51011 92350 22200 00261 10804 20603 300// 40803 70021 333 91208 555 11075 22079 32319 40709 62349 066071 067073 069072 066074 070070 066073 80708 92252
BBXX WCX9106 09003 99603 71465 41296 82219 10011 2//// 40080 57010 7//// 88/// 22200 0//// 2//01 322// 4//02 5//// 6//// 8//// ICE /////
BBXX WKAE 09004 99475 70395 41598 72218 10125 20116 40175 54000 70322 87/3/ 22224 00130 20503 323// 40805 5//// 6//// 80120 ICE /////
BBXX 9HRJ9 09003 99308 70621 41897 31310 10210 20210 40250 54000 70111 821// 22254 00180 2//// 319// 41503 5//// 6//// 80210 ICE /////
BBXX 9HJC9 09004 99167 70638 41697 50412 10260 2//// 40130 54/// 7//22 852// 22272 04280 20202 39999 40202 5//// 6//// 8//// ICE /////
BBXX 44150 09001 99425 70640 46/// /3112 10066 40181 52055 22200 00102 11413 70066 333 91216
BBXX 41037 09001 99340 70775 46/// /0606 10122 40233 53014 90000 22200 00192 333 91207
BBXX 41053 09001 99185 70661 46/// /0605 10275 40131 92340 333 91207
BBXX 41053 09001 99185 70661 46/// /0705 10274 40132 53014 90000 22200 00281 11004 70018 333 91207
BBXX 41053 09001 99185 70661 46/// /0605 10274 40131 92350 333 91207
BBXX 41052 09001 99183 70648 46/// /0504 10263 40125 92340 333 91206
BBXX 41052 09001 99183 70648 46/// /0803 10257 40125 92350 333 91205
BBXX 41052 09001 99183 70648 46/// /0604 10263 40127 53017 90000 22200 00280 333 91206
BBXX DDLK 09003 99437 70513 41597 81828 10130 20113 40102 57/// 70222 887// 22263 20307 80120
BBXX 44139 09001 99442 70571 46/// /2616 10091 40103 52058 22200 00090 11010 70050 333 91220
BBXX VCXF 09004 99464 70484 41797 61838 10070 2006/ 40071 57030 70310 86050 22200 02042 20505 321// 40802 80067
BBXX VOXS 09004 99467 70480 41396 81830 10056 2005/ 40075 56034 76162 88/// 22200 04028 20605 323// 40705 80054
BBXX DILE 09003 99240 70749 41/98 /0620 10257 20228 40152 52022 7//00 8//// 22274 04270 2//// 80236
BBXX 42067 09001 99300 70886 46/// ///// 10069 20021 40252 92340 22200 00188 1//00 70002
BBXX 41038 09001 99341 70777 46/// /0404 10129 40264 53023 90000 22200 00156 333 91205
BBXX ZCDV9 09003 99364 70393 41596 60912 10200 20167 40167 54000 7//// 86514 22264 311// 40802 80180
BBXX C6KJ5 09004 99241 70885 41497 70305 10200 40200 52006 70322 87210 22273 00256 80170
BBXX WAHK 09004 99411 70414 41597 52112 10180 2016/ 40245 50000 70222 855// 22264 00200 20302 3//// 4//// 5//// 6//// 80170 ICE /////
BBXX ELWR5 09000 99187 71055 41697 33512 10252 20237 40124 56004 70011 82061 22274 04260 20303 316// 40504 80241
BBXX C6FT7 09003 99178 70629 41499 40218 10264 2025/ 40120 5//// 7//00 848// 22232 00240 2//// 3//// 4//// 5//// 6//// 80251 ICE /////
BBXX C6FM8 09004 99279 70801 41/// /0620 10200 20153 40220 54/// 7//// 8//// 22253 0//// 21000 3//// 41000 51000 6//// 80170 ICE /////
BBXX WSRL 09003 99370 71429 41598 41209 10170 2012/ 40250 56015 70211 832/9 22214 0//// 20201 330// 41505 5//// 6//// 80140 ICE /////
BBXX C6SE3 09004 99120 70683 41697 60816 10270 20243 40150 54/// 701// 8/83/ 22241 00300 20202 3//// 4//// 5//// 6//// 80250 ICE /////
BBXX WDC6925 09004 99368 70587 41798 62325 10220 20174 40200 52022 70222 8464/ 22213 00220 20201 32920 40606 50505 6//// 80190 ICE /////
BBXX ELXU2 09000 99229 71275 41598 60506 10196 20109 40213 56020 70211 82446 22223 04190 20302 307// 40404 5//// 80145
BBXX 3EMK6 09004 99266 70925 416// 60707 10189 20172 40250 56/// 7//22 86240 22200 00235 20201 30404 40302 5//// 6//// 80178 ICE /////
BBXX WDJK 09004 99591 71467 41396 82510 10050 20050 40100 54000 71122 886// 22253 00060 2//// 30919 41105 51005 6//// 80050 ICE /////
BBXX WDD6126 09004 99397 70523 41498 82219 10190 2014/ 40190 52010 70222 885// 22224 00200 20404 321// 40605 5//// 6//// 80160 ICE /////
BBXX KNJK 09003 99256 70851 41498 80213 10206 20171 40195 54000 70222 887// 22273 00200 2//// 3//// 4//// 5//// 6//// 80183 ICE /////
BBXX WE4805 09004 99455 70866 41/98 33022 11033 2//// 40183 5//// 70200 8//// 22213 00039 2//02 3//// 4//// 5//// 6//// 8//// ICE /////
BBXX WDE3569 09004 99450 70831 43/// 12523 11022 2//// 40149 5//// 7//// 8//// 22243 00056 20402 3//// 4//// 5//// 6//// 8//// ICE /////
BBXX DDAC2 09000 99127 70932 41598 63203 10270 20238 40100 54000 7//22 84360 22233 04284 20101 334// 40504 5//// 80247
BBXX WDC6698 09004 99099 71426 41598 83319 10250 2024/ 40078 57022 70282 889// 22261 00257 20201 332// 40402 5//// 6//// 80244 ICE /////
BBXX DFCX2 09003 99073 70979 41698 50814 10265 20220 40098 55014 70386 84340 22274 06275 20702 304// 41205 80233
BBXX 3EPD8 09004 99205 50764 41598 31413 10180 20127 40148 54000 7//00 8/5// 22243 04186 29902 399// 4//05 80150
BBXX 2AGH7 09003 99242 31574 41598 32420 10240 20183 40086 53008 70300 81260 22254 00250 20503 318// 41007 80204
BBXX 9HA2479 09004 99257 31621 46/// /2929 10234 20194 30048 40077 57005 22254 04235 85207
BBXX FHZI 09004 99520 31441 46/// /3321 10082 20080 30044 40055 52013 22283 04058 85081
BBXX VNSZ 09004 99412 31464 46/// /0612 10195 20149 30093 40119 52002 22200 04173 85166
BBXX C6FS9 09004 99193 31468 46/// /0708 10287 20251 30056 40091 52005 22200 85260
BBXX 9KWP 09003 99195 31059 41697 63316 10270 20241 40054 54000 70152 843/6 22284 00270 2//// 80250
BBXX 9VVN8 09003 99111 51799 41698 70915 10278 20242 40111 54000 70222 83370 22273 02282 20402 30609 40402 50704 80253
BBXX VROC 09004 99227 31540 41598 51310 10281 20206 40104 55022 70211 84464 22283 04261 20301 312// 40704 80231
BBXX V7EM3 09003 99357 31762 41697 31317 10205 20116 40242 52025 70322 83145 22244 00200 20902 80152
BBXX 3ECI3 09004 99339 31731 41597 40918 10184 20132 40216 51002 70300 84168 22253 00190 20503 310// 41003 80156
BBXX SHIP 09004 99340 31515 41298 31520 10210 20164 40155 54000 70222 82431 22215 0//// 20405 317// 40503 80180
BBXX SHIP 09003 99182 31610 41498 63508 10285 20250 40094 50006 76000 82268 22273 00278 20501 80260
BBXX MCLJ8 09003 99022 31430 41498 82614 10280 20252 40090 50020 70365 8/2// 22233 20402 327// 40402 5//// 80260
BBXX PCCL 09003 99342 31511 41499 51605 10236 20161 40147 51003 70311 83364 22212 04194 20301 312// 40702 80187
BBXX ELYJ7 09003 99198 31777 41/98 41411 10300 20279 40090 51003 70100 8//// 22244 20601 320// 41003 80284
BBXX PHKL 09001 99021 11020 41698 40305 10285 20230 40089 53012 70211 8233/ 22274 00295 20101 3//// 4//// 5//// 80245
BBXX VQNW6 09004 99052 31013 41598 33410 10290 20240 40086 52020 70211 822/2 22273 00296 2//// 327// 40905 5//// 80255
BBXX A8RV7 09004 99293 31536 41598 51917 10225 20164 40125 50025 70311 84166 22244 21005 31009 41204 50402 80185
BBXX SKOZ 09004 99471 70273 43/93 90719 10100 40199 55009 22263 00125 2//// 4////
BBXX PJFF 09004 99478 70095 41/96 /2117 10150 20133 40180 54000 702// 8/7// 22214 04150 20604 309// 40805 80140
BBXX 62023 09003 99514 70079 46/97 /2817 10076 2//// 40129 5//// 22200 10706 70031 555 70046 81008 91129
BBXX C6XC6 09004 99364 70029 41/97 79902 10150 2//// 40250 5//// 7//22 8//// 22273 0//// 2//// 3//// 4//// 5//// 6//// 8//// ICE /////
BBXX UBEF5 09001 99335 10146 41/98 93307 10180 40287 54000 70000 89/// 22213 00200 20501
BBXX C6KD8 09003 99471 70137 41296 82917 10121 20113 40196 56015 75055 84628 22214 02138 21108 332// 41508 5//// 80117
BBXX TBWUK35 09003 99590 10039 41297 82020 10075 20062 49581 57045 70262 887// 22242 00100 20609 320// 40810 80069
BBXX C6KD9 09000 99425 70193 41397 73508 10150 20123 40261 51002 70322 83772 22254 02154 21003 332// 41405 5//// 80135
BBXX LMEL 09001 99603 10053 43/// /1208 10026 20026 49650 5//// 222/2 04099 1//// 3//// 4//// 5////
BBXX LDGJ 09001 99646 10106 43/// /1114 10015 21111 49864 5//// 222/1 04086 1//// 3//// 4//// 5////
BBXX LF4H 09004 99596 10022 46/// /3204 10064 20038 49590 52010 8//// 22200 06088 10911 70053 333 91139
BBXX TFEA 09001 99639 70157 42/99 33614 11010 41002 22251 00075
BBXX TFBKF 09004 99635 70202 46/// ///// 22200 10602 70012
BBXX 62087 09001 99547 10068 46/// /0808 10090 20027 4//// 5//// 22270 00095
BBXX PBEN 09003 99376 10077 41/98 19904 10160 20127 40270 54000 7//22 81100 22223 20501 399// 41002 80140
BBXX PDHW 09003 99499 70177 41498 73120 10080 20013 40200 52020 70311 8547/ 22223 00120 20804 80050
BBXX PHAM 09004 99503 70011 41597 43034 10110 20097 40100 52030 7//// 8/200 22262 21010 80103 90127
BBXX DHDE 09003 99455 70302 41297 72519 10145 20145 40200 54000 75511 8671/ 22264 00140 20605 80145
BBXX DHEE 09003 99484 70206 41397 80110 10095 20021 40220 51020 70222 87776 22264 00130 21406 327// 41407
BBXX A8NQ5 09003 99506 70244 41298 63411 10080 21015 40205 52005 70222 8/7// 22224 29901 332// 41004 80040
BBXX UCAD 09001 99702 10163 41/97 90810 10020 40010 52005 70222 88/// 22213 00080 20404
BBXX ONFW 09004 99352 11198 41197 53619 10000 21028 40360 54/// 70211 8325/ 22200 04100 20204 308// 40404 5//// 6//// 81010 ICE /////
BBXX SLKQ 09001 99138 11154 43/96 70310 10274 40087 53012 22253 00283 2////4////
BBXX OZDQ2 09003 99333 11463 41498 72821 10175 20134 40011 56009 7//22 87271 22264 00210 20404 309// 41404 80150
BBXX ELWZ5 09004 99522 11632 41596 40516 10015 21005 49795 57032 7//77 8248/ 22254 04078 2//02 305// 4//03 5//// 80007
BBXX VNVF 09004 99125 11303 41498 80513 10278 20245 40118 52032 71522 85778 22283 00291 20301 308// 40804 80255
BBXX 2ALD3 09003 99336 11403 41598 62722 10165 20094 40085 52022 70322 8439/ 22284 20403 331// 40804 80125
BBXX UGPK 09001 99560 11473 43/99 80506 11010 40001 56090 22211 00013 2//00 3//00
BBXX DCAX2 09003 99330 11275 41297 83330 10060 20009 40260 54000 7//52 8/700 22253 20605 333// 40706 5//// 80040
BBXX SHIP 09001 99376 11343 41498 60220 10050 20003 40196 52030 70222 8727/ 22255 00150 20404 302// 40303 80030
BBXX C6DM2 09004 99054 11003 41797 70405 10260 20246 40100 54000 70111 8713/ 22200 0//// 2//// 3//// 4//// 5//// 6//// 80250 ICE /////
BBXX A8QR9 09001 99114 10752 41/97 30000 10280 40090 53015 701// 8/5// 22274 04280 2////
BBXX DMRX 09004 99349 11439 41596 80320 10128 20090 40072 52032 70262 857// 22224 00210 20705 306// 41008 80107
BBXX A8EH7 09004 99219 11293 41598 80223 10239 20210 40175 52010 70222 8773/ 22283 00271 20404 302// 40707 5//// 80220
BBXX MIBR 09004 99220 11142 41597 80315 10145 20086 40230 53010 70222 888// 22200 00207 20301 303// 40804 5//// 80115
BBXX VNVZ 09004 99292 11354 41397 82820 10175 26140 40155 55010 70222 8872/ 22244 00236 20606 32730 40803 50803
BBXX UCJU 09001 99735 10754 41/97 93009 11027 40092 52008 77172 22273 ICE52092
BBXX UBNY 09001 99731 10798 41/96 92811 11035 40097 52012 77277 22233 ICE 52092
BBXX DGDD 09001 99306 11785 41/98 72107 10230 20201 40202 55008 70222 875// 22264 00220 20901 331// 40806 5//// 80210
BBXX KAOU 09004 99061 10938 43/// /1007 10279 20239 40084 5//// 7//// 8//// 222// 04306 2//// 3//// 4//// 5//// 6//// 8//// ICE /////
AAXX 09001 45032 36/// /0106 10119 20039 30231 40247 54000 333 91113
AAXX 09001 45035 36/// /0208 10133 20055 30204 40247 52004
AAXX 09001 45039 36/// /0104 10128 20060 30226 40242 52002 333 91109
AAXX 09001 45044 36/// /0111 10132 20059 30134 40230 52001 333 91117
AAXX 09001 45032 36/// /0106 10119 20039 30231 40247 54000 333 91113
AAXX 09001 45035 36/// /0208 10133 20055 30204 40247 52004
AAXX 09001 45039 36/// /0104 10128 20060 30226 40242 52002 333 91109
AAXX 09001 45044 36/// /0111 10132 20059 30134 40230 52001 333 91117
AAXX 09004 70133 11432 81123 11056 21067 39939 49944 50000 69951 771// 92353 333 11056 21089 91030 96038 555 90900
AAXX 09004 70174 11462 83504 11111 21133 39819 40070 58005 69901 771// 92353 333 11111 21172 4/061 555 90900
AAXX 09004 70200 12361 81315 11006 21006 39903 49909 58002 69951 92353 333 10000 21006 555 90900
AAXX 09004 70219 11366 81919 10006 21006 39945 40000 51005 69901 771// 92353 333 10017 20006 555 90900
AAXX 09004 70231 11356 81206 11022 21039 39905 40035 56004 60021 771// 92353 333 11022 21056 4/091 96010 555 90900
AAXX 09004 70261 32766 40000 11167 21183 39908 40087 50000 92353 333 11061 21172 555 90900
AAXX 09004 70267 32966 41111 11100 21122 39612 40108 56002 92353 333 11078 21100 555 90900
AAXX 09004 70271 11208 90000 11067 21072 39515 40118 56005 69901 741// 92353 333 11067 21083 555 90900
AAXX 09004 70273 32266 80603 11017 21033 30030 40090 58001 92353 333 11017 21039 4/025 555 90900
AAXX 09004 70316 11461 82615 10028 20011 30073 40108 53021 69901 761// 92353 333 10056 20028 91022 555 90900
AAXX 09004 70326 12466 81806 10039 20022 30038 69901 92354 555 90900
AAXX 09004 70340 11666 81504 10033 20006 30012 40072 56003 69901 761// 92353 333 10056 20033 4/005 555 90900
AAXX 09004 70350 32566 41805 10039 20011 30047 40087 92353 333 10050 21011 555 90900
AAXX 09004 70361 11240 81407 10056 20050 30114 40126 58017 60251 763// 92353 333 10056 20000 4/046 91015 96010 555 90900
AAXX 09004 70381 11464 81123 10028 20011 30217 40227 58016 69981 761// 92353 333 10028 21010 91028 555 90900
AAXX 09004 70414 37240 80727 10006 20000 39879 49918 56057 771// 92356 333 10028 21016 91034 96010 555 90900
AAXX 09004 60360 12960 01905 10083 20080 40277 58007 60001 333 95990
AAXX 09004 60390 12950 21503 10069 20063 40274 56009 60001 80001 333 82070 95990
AAXX 09004 60402 12960 02804 10087 20079 40273 58005 60001 333 95990
AAXX 09004 60419 12965 00000 10044 20010 40286 58008 60001 333 95990
AAXX 09004 60475 12960 00000 10060 20049 39330 48589 54000 60001 333 95990
AAXX 09004 60490 11902 60000 10075 20075 40264 58008 60001 74442 80006 333 86273 95990
AAXX 09004 60525 NIL
AAXX 09004 60531 11401 60000 10074 20074 40275 58005 60001 74442 83602 333 0//00 83710 85073 95990
AAXX 09004 60566 12960 00000 10090 20030 40289 50001 60001 333 0//00
AAXX 09004 60571 12962 40000 10067 20056 39351 48595 58001 60001 80002 333 0//00 84073 95990
AAXX 09004 60580 12960 00000 10098 20069 40283 54000 60001
AAXX 09004 60590 12960 10000 10045 20006 40292 58001 60001 80002 333 0//00 81070
AAXX 09004 60611 12960 00505 10083 21007 40284 56003 60001 333 0//00
AAXX 09004 60620 12960 30410 10132 21062 40248 50000 60001 80002 333 0//00 83075
AAXX 09004 60630 12960 00516 10174 20018 40238 58006 60001
AAXX 09004 60656 NIL
AAXX 09004 60670 12970 03611 10114 21015 39138 48583 58011 60001 333 0//00 95990
AAXX 09004 60680 12970 30704 10130 21088 38693 48566 56014 60001 80002 333 0//00 83073 95990
AAXX 09004 60351 NIL
AAXX 09004 60355 12960 01704 10112 20096 40265 58008 60001 333 0//00 95990
AAXX 09004 60445 12960 03404 10032 20016 39114 48586 58001 60001 333 95990
AAXX 09004 60468 12960 00000 10029 20012 39327 48586 53001 60001 333 0//00 95990
AAXX 09004 60507 12960 60000 10066 20053 40271 58003 60001 80002 333 86073 95990
AAXX 09004 60511 12960 50000 10037 20013 39144 48576 54000 60001 80004 333 0//00 85071 95990
AAXX 09004 60536 12960 61806 10086 20040 39394 48582 58004 60001 80002 333 86073 95990
AAXX 09004 60550 12960 30000 10035 21002 38755 48591 57002 60001 80002 333 0//00 83073 95990
AAXX 09004 60555 12970 01704 10086 20051 40283 58003 60001 333 0//00
AAXX 09004 60559 12960 00000 10078 20036 40288 58002 60001 333 0//00
AAXX 09004 60581 12960 00000 10092 20037 40284 54001 60001 333 0//00
AAXX 09004 60607 12960 23610 10106 21026 40258 51002 60001 80001 333 0//00 82075
AAXX 09004 60640 12960 00806 10115 20011 40265 54000 60001 333 0//00
AAXX 09004 89514 21/93 91444 11085 49648 57012 73833 89/// 333 11076 21083 6994/
AAXX 09004 89514 21/93 91444 11085 49648 57012 73833 89/// 333 11076 21083 6994/
AAXX 09004 60360 12960 01905 10083 20080 40277 58007 60001 333 95990
AAXX 09004 60390 12950 21503 10069 20063 40274 56009 60001 80001 333 82070 95990
AAXX 09004 60402 12960 02804 10087 20079 40273 58005 60001 333 95990
AAXX 09004 60419 12965 00000 10044 20010 40286 58008 60001 333 95990
AAXX 09004 60475 12960 00000 10060 20049 39330 48589 54000 60001 333 95990
AAXX 09004 60490 11902 60000 10075 20075 40264 58008 60001 74442 80006 333 86273 95990
AAXX 09004 60525 NIL
AAXX 09004 60531 11401 60000 10074 20074 40275 58005 60001 74442 83602 333 0//00 83710 85073 95990
AAXX 09004 60566 12960 00000 10090 20030 40289 50001 60001 333 0//00
AAXX 09004 60571 12962 40000 10067 20056 39351 48595 58001 60001 80002 333 0//00 84073 95990
AAXX 09004 60580 12960 00000 10098 20069 40283 54000 60001
AAXX 09004 60590 12960 10000 10045 20006 40292 58001 60001 80002 333 0//00 81070
AAXX 09004 60611 12960 00505 10083 21007 40284 56003 60001 333 0//00
AAXX 09004 60620 12960 30410 10132 21062 40248 50000 60001 80002 333 0//00 83075
AAXX 09004 60630 12960 00516 10174 20018 40238 58006 60001
AAXX 09004 60656 NIL
AAXX 09004 60670 12970 03611 10114 21015 39138 48583 58011 60001 333 0//00 95990
AAXX 09004 60680 12970 30704 10130 21088 38693 48566 56014 60001 80002 333 0//00 83073 95990
BBXX 3ERR2 09004 99635 10053 43/// /1027 10059 49719 57036 22200 10707 70034 333 91136
BBXX LF3F 09004 99643 10078 43/// /1137 10030 21027 49771 57044 22200 04094 10707 70035 333 91144
BBXX LF3N 09004 99653 10073 41597 71232 10039 21013 49802 57042 70222 8//// 22200 00091 10709 70045
BBXX LF4B 09004 99606 10037 47/94 /1234 10043 49612 57018 767// 22200 00068 10913 70067 333 91149
BBXX LF4C 09004 99584 10019 43/// /2926 10075 20039 49616 52023 22200 10912 70060 333 91155
BBXX LF5T 09004 99660 10081 43/// /1330 10034 21024 49854 57031 22200 10807 70033 333 91135
AAXX 09004 60351 NIL
AAXX 09004 60355 12960 01704 10112 20096 40265 58008 60001 333 0//00 95990
AAXX 09004 60445 12960 03404 10032 20016 39114 48586 58001 60001 333 95990
AAXX 09004 60468 12960 00000 10029 20012 39327 48586 53001 60001 333 0//00 95990
AAXX 09004 60507 12960 60000 10066 20053 40271 58003 60001 80002 333 86073 95990
AAXX 09004 60511 12960 50000 10037 20013 39144 48576 54000 60001 80004 333 0//00 85071 95990
AAXX 09004 60536 12960 61806 10086 20040 39394 48582 58004 60001 80002 333 86073 95990
AAXX 09004 60550 12960 30000 10035 21002 38755 48591 57002 60001 80002 333 0//00 83073 95990
AAXX 09004 60555 12970 01704 10086 20051 40283 58003 60001 333 0//00
AAXX 09004 60559 12960 00000 10078 20036 40288 58002 60001 333 0//00
AAXX 09004 60581 12960 00000 10092 20037 40284 54001 60001 333 0//00
AAXX 09004 60607 12960 23610 10106 21026 40258 51002 60001 80001 333 0//00 82075
AAXX 09004 60640 12960 00806 10115 20011 40265 54000 60001 333 0//00
BBXX 46207 09001 99509 71299 46/// /3306 10076 40316 57007 22200 00085 12003 70016 333 91207
AAXX 09004 78526 12566 40609 10267 20228 30119 40142 53014 69901 92356 333 10289 20239 555 90900
AAXX 09004 78543 15866 60407 10267 20228 30055 40137 53016 69901 92353 333 10306 20250 555 90900
BBXX 46001 09001 99563 71480 46/// /2609 10050 40130 53008 92350 22200 00052 11107 20603 300// 41106 70036 333 91211 555 11091 22097 32336 42511 62349 259085 259092 260088 260086 259082 257079
BBXX 46026 09001 99378 71228 46/// /3104 10108 40199 56007 92350 22200 00121 11402 327// 41402 70009 333 91205 555 11045 22047 32319 42705 62349 302043 273046 271045 272041 274038 280045
BBXX 46042 09001 99368 71224 46/// /3105 10114 40191 56009 92350 22200 00123 11402 20401 331// 41402 70009 333 91206 555 11048 22050 32348 43106 62349 315047 315045 316042 313041 319041 326045
BBXX A8TG2 09003 99314 71386 41/// /0613 10180 20106 40220 53/// 7//// 8//// 22224 20802 307// 41003 5//// 80140
BBXX CG2958 09004 99487 71235 46/// /0404 10053 20016 40315 56010 7//// 8//// 22200 0//// 2////
BBXX CG2965 09004 99487 71235 46/// /0304 10054 20013 40307 56010 7//// 8//// 22200 0//// 2////
BBXX CGBR 09004 99538 71299 46/// /3333 10029 20027 40319 58002 7//// 8//// 22232 00074 2////
BBXX CGBY 09004 99487 71235 46/// /0203 10045 20004 40306 56009 7//// 8//// 22200 0//// 2////
BBXX CGDR 09004 99498 71270 46/// /1602 10066 20031 40297 56010 7//// 8//// 22222 00121 2////
BBXX CGJK 09004 99484 71234 46/// /0105 10056 20011 40307 55006 7//// 8//// 22200 0//// 2////
BBXX DQVG 09003 99343 71270 41597 53115 10145 20074 40140 51010 70211 85544 22274 00161 21201 3//// 4//// 5//// 80110
BBXX OUJI2 09004 99390 71254 41/// 70214 10100 20080 40330 5//// 7//22 8747/ 22211 00120 20201 336// 40502 5//// 6//// 80090 ICE /////
BBXX WABS 09004 99427 71258 41598 60229 10094 20070 40235 53005 7//22 864// 22283 00100 20309 336// 40511 5//// 6//// 80083 ICE /////
AAXX 09004 61202 NIL
AAXX 09004 61214 NIL
AAXX 09004 61223 32960 00606 10205 20010 39849 40153 333 0//00 59009
AAXX 09004 61226 31956 70614 10239 20005 39855 40147 70622 80002 333 0//00 58001 87075
AAXX 09004 61230 32960 20804 10213 21041 39834 40101 80002 333 0//00 59012 82075
AAXX 09004 61233 32960 60404 10211 20005 3//// 4//// 80002 333 0//00 5//// 86075
AAXX 09004 61235 32960 03612 10263 21010 3//// 4//// 333 0//00 5////
AAXX 09004 61240 31956 30000 10242 21024 39810 40131 70611 80002 333 0//00 59008 83075
AAXX 09004 61250 32960 20804 10230 20055 3//// 4//// 80002 333 0//00 5//// 82075
AAXX 09004 61257 31958 00804 10242 20066 30058 40151 70600 333 0//00 59007
AAXX 09004 61265 32960 00000 10204 20059 39814 40117 333 0//00 59012
AAXX 09004 61270 32960 00406 10250 20060 3//// 4//// 333 0//00 5////
AAXX 09004 61272 32960 00000 10224 20088 39796 40117 333 0//00 59020
AAXX 09004 61277 31958 20404 10235 20063 39798 40113 70611 80002 333 0//00 59011 82075
AAXX 09004 61285 32960 30000 10197 20105 39965 40115 80002 333 0//00 59006 83075
AAXX 09004 61291 32960 00406 10254 20024 39698 40102 333 0//00 59009
AAXX 09004 61293 31958 30604 10230 20106 3//// 4//// 70611 80002 333 0//00 5//// 83075
AAXX 09004 61296 32960 50000 10230 20102 3//// 4//// 80002 333 0//00 5//// 85075
AAXX 09004 61297 NIL
AAXX 09004 60656 12960 60711 10174 20004 40221 50001 60001 82032 333 0//00 82360 85073
AAXX 09004 78988 02484 61010 10275 20232 30099 40109 52013 60001 81270 333 10294 20239 58009 60007 70007 81816 86360
AAXX 09004 78990 02475 40807 10267 20210 40114 52014 60001 82230 333 10302 20246 58007 60007 82818 84360
AAXX 09004 78873 NIL
AAXX 0900/ 89767 46/// ///// 11152 39606 4//// 5////
AAXX 09004 89003 46/75 /3233 11119 29062 38783 4//// 5////
AAXX 09001 08558 12/// /0000 10057 20057 39969 40272 57004 69911
AAXX 09200 78922 46/// /0000 10250 20221 //082 40127 53011
AAXX 09001 08521 NIL
AAXX 09001 08524 32470 39903 10171 20147 30157 40255 57007 83800 333 82815 91007 91107
AAXX 09001 14015 12965 00000 11006 21029 39890 40265 58012 60001
AAXX 09001 08579 32/// /36// 10083 20077 30141 40269 57006
AAXX 09004 91945 36/// /3112 10294 20219 30088 40093 56024 333 20219 59031
AAXX 09003 87480 31662 43402 10260 20160 30097 40126 52011 71300 82985 333 10330 20259 56556 57955 81940 90010
AAXX 09004 87344 32560 30204 10238 20118 39602 40138 53005 83200 333 10298 20220 56000 57853 82630 81835
AAXX 09004 87349 32570 30503 10246 20122 39748 40134 56001 81370 333 10305 20208 56330 57944 81920
AAXX 09004 87371 32962 41803 10266 20193 30112 40133 53004 80004 333 10304 20244 56006 84070
AAXX 09004 87374 32965 60901 10272 20139 30041 40126 52008 80006 333 10310 20240 56006 86270
AAXX 09004 87395 NIL
AAXX 09004 87418 31660 73606 10250 20134 39332 40105 53015 71622 85270 333 10311 20229 56660 57800 82840 84645
AAXX 09004 87436 32670 30504 10223 20100 39334 40130 53003 81373 333 10280 20221 56666 57966 81840 81945
AAXX 09004 87448 32965 10510 10242 20111 39582 40129 53007 80001 333 10336 20236 56006 81070
AAXX 09004 87453 32565 23603 10257 20120 39654 40128 52008 82500 333 10308 20241 56300 82630
AAXX 09004 87467 32570 22902 10269 20171 30000 40130 52007 82900 333 10328 20248 56900 57935 82630 81940
AAXX 09004 87497 32965 60000 10270 20169 30101 40127 53001 80006 333 10318 20222 56007 86270
AAXX 09004 87506 31562 73203 10189 20095 38582 48507 51008 71592 85970 333 10272 20190 56770 57900 82833 83945 84359 95010
AAXX 09004 87509 32670 63616 10278 20089 39276 40098 52012 86800 333 10330 20225 56500 82840 84642
AAXX 09004 87532 32668 11405 10272 20156 39964 40130 53001 81100 333 10325 20196 56700 81840
AAXX 09004 87534 32960 10000 10249 20152 39973 40131 55008 81070 333 10336 20239 56040 81360
AAXX 09004 87548 32960 11406 10276 20132 30030 40123 52005 81060 333 10340 20264 56020 81360
AAXX 09004 87576 32960 00909 10236 20154 30124 40147 52017 333 10337 20236
AAXX 09004 87582 32960 11116 10235 20175 30138 40145 52012 80005 333 10281 20235 56002 81270
AAXX 09004 87585 32960 01407 10233 20178 30106 40136 53007 333 10304 20233
AAXX 09001 31707 32999 60000 11204 21237 30133 40232 57014 83071 333 21215 46001
AAXX 09001 34560 41497 81108 11004 21013 30005 40174 56004 70252 885// 333 88613
AAXX 09001 34720 41495 82801 10034 20027 30101 40141 53009 71022 886//
AAXX 09001 34730 41320 80602 10029 20022 30043 40136 52004 71022 8655/ 333 85706
AAXX 09001 34740 41596 81601 10016 20010 30041 40138 53007 72582 889//
AAXX 09001 34824 41495 83402 10039 20030 30140 40145 52009 71022 885//
AAXX 09001 34858 41/92 90000 10037 20033 30032 40140 55001 74544
AAXX 09001 34866 42998 81105 10026 20010 30159 40150 54000 8007/
AAXX 09001 34880 41597 80802 10005 21037 30207 40180 58002 70282 889// 333 88920
AAXX 09001 37018 41596 82702 10085 20077 30055 40130 52002 78188 889//
AAXX 09001 37054 42997 63001 11021 21021 39754 40148 54001 80030
AAXX 09001 37472 41596 73101 10023 20010 30144 40121 57006 71022 86531
AAXX 09001 22282 NIL
AAXX 09001 22438 NIL
AAXX 09001 22471 41484 82104 11009 21022 30162 40186 51007 70282 889// 333 86612
AAXX 09001 22563 41497 82002 11018 21023 30163 40202 51007 70282 885// 333 88614
AAXX 09001 22641 41999 81202 11014 21022 30155 40171 51003 70272 8804/ 333 91106
AAXX 09001 22695 42398 82102 11050 21060 30089 40247 52005 886// 333 88707
AAXX 09001 22867 41497 81302 11031 21045 30091 40208 52002 78582 8592/ 333 85915 91105
AAXX 09001 22939 41496 81803 11013 21021 30022 40187 52009 77172 8872/ 333 84713
AAXX 09001 22996 41496 81302 11023 21032 30052 40246 58012 71022 8652/
AAXX 09001 23324 42480 72504 11029 21056 30168 40248 52016 87600 333 87714
AAXX 09001 27051 42497 81603 11052 21059 30052 40224 52007 8652/ 333 86617
AAXX 09001 27225 42864 81701 11042 21058 30073 40208 52010 8802/
AAXX 09001 27252 41496 80501 11033 21037 30033 40224 53003 71022 885// 333 88617
AAXX 09001 27333 41809 81502 11043 21045 30052 40215 52004 74842 8807/
AAXX 09001 27369 41997 81502 11040 21052 30087 40229 52010 70272 8801/
AAXX 09001 27393 41497 82004 11073 21086 30084 40260 53002 77172 8872/
AAXX 09001 27479 41496 81302 11057 21068 30091 40231 53013 77172 8872/ 333 88710
AAXX 09001 27532 41194 80402 11035 21036 39985 40205 52006 71022 886// 333 88703
AAXX 09001 27648 41/93 90501 11010 21011 30022 40193 58001 74942
AAXX 09001 27675 41495 81307 11062 21070 30049 40225 52009 77172 8872/ 333 88713
AAXX 09001 27679 41496 81402 11077 21083 30001 40234 52007 71022 886// 333 88719
AAXX 09001 28214 41996 81303 11076 21086 30063 40284 57002 70272 8801/
AAXX 09004 78988 02484 61010 10275 20232 30099 40109 52013 60001 81270 333 10294 20239 58009 60007 70007 81816 86360
AAXX 09004 78990 02475 40807 10267 20210 40114 52014 60001 82230 333 10302 20246 58007 60007 82818 84360
AAXX 09004 78873 NIL
AAXX 09001 22165 NIL
AAXX 09001 22676 42484 81603 11028 21048 30149 40229 53008 885//
AAXX 09001 22954 41398 81503 11032 21039 39953 40209 52008 72682 889// 333 85708
AAXX 09001 23405 42476 81502 11049 21073 30134 40237 52009 885// 333 88613
AAXX 09001 23412 NIL
AAXX 09001 23803 42699 81502 11016 21024 30095 40279 58002 885// 333 88636
AAXX 09001 27066 41396 80000 11045 21048 30047 40231 54000 77172 8872/ 333 88707
AAXX 09001 27083 27083 42584 11101 11019 21030 30010 40239 58002
AAXX 09001 27113 41458 62003 11015 21026 30042 40191 51007 71082 86500 333 86616
AAXX 09001 27242 42398 81401 11048 21051 30092 40225 52001 887// 333 88707
AAXX 09001 27329 41930 81101 11050 21056 30086 40216 52004 71011 8805/
AAXX 09001 27355 42497 80502 11022 21025 30044 40213 54000 72272 885//
AAXX 09001 27373 41496 81202 11057 21075 30013 40239 52009 70272 886// 333 88715
AAXX 09001 27665 41496 81202 11028 21041 39934 40211 52008 77172 8872/ 333 86712
AAXX 09001 27835 41396 80302 11003 21009 30012 40173 54000 71022 886// 333 88708
AAXX 09001 28009 41498 81502 11055 21066 30057 40276 57002 70282 889//
AAXX 09001 28411 42997 51503 11102 11119 30098 40305 54000 80001
AAXX 09001 28418 41998 81202 11093 21128 30132 40309 52001 80007
AAXX 09004 78988 02484 61010 10275 20232 30099 40109 52013 60001 81270 333 10294 20239 58009 60007 70007 81816 86360
AAXX 09004 78990 02475 40807 10267 20210 40114 52014 60001 82230 333 10302 20246 58007 60007 82818 84360
AAXX 09004 78873 NIL
BBXX A8RW3 09003 99343 30163 41697 51322 10170 20079 40205 58005 70300 84549 22264 04180 21005 322// 41407 80120
BBXX A8QJ7 09004 99057 50315 41/98 /3511 10270 20226 40121 50007 70200 8/2// 22242 06260 2//// 3//// 4//// 5//// 80240
BBXX BATFR08 09004 99464 30519 46/// /1522 10044 20034 40142 52140 22261 00060
BBXX A8YW2 09004 99335 50013 41498 71112 10170 20070 40310 58010 70322 8614/ 22224 00160 21201 80120
BBXX 2BLY5 09003 99118 70228 41/97 20810 10255 20233 40124 50004 70500 8//// 22253 00280 20302 80240
BBXX BATFR47 09004 99255 51313 46/// /0118 10245 20204 40144 56021 222//
AAXX 09004 64500 11460 62208 10270 20247 30078 40091 69901 70166 86900 333 0//11 59014 83610 81920 86633 94948 95838
AAXX 09003 64501 32358 82206 10264 20247 3//// 4//// 885// 333 0//00 5//// 84608 88623
AAXX 09004 64570 11156 80000 10205 20201 39605 40117 60091 76164 8452/ 333 0//94 59005 82703 84633 88460
AAXX 09004 60395 12960 00000 10095 20085 40270 58001 60001 333 0//00 95990
AAXX 09004 60444 NIL
AAXX 09004 60452 12960 4//// 10125 20106 40262 55008 60001 80002 222// 20000 333 84073 91816
AAXX 09004 60457 12960 50000 10053 20046 40266 58005 60001 80001 333 0//00 85073 95990
AAXX 09004 91487 NIL
AAXX 09004 91490 NIL
AAXX 09004 91533 NIL
AAXX 09004 91601 NIL
AAXX 09004 91610 11599 21110 10300 20229 40075 58008 60001 70110 81131 3333 20285 56399 70054 81820 81360 81080
AAXX 09004 91623 NIL
AAXX 09004 91629 NIL
AAXX 09004 91701 NIL
AAXX 09004 91165 12666 20312 10244 20183 30138 40172 58027 69901 92353 333 10256 20222 555 90900
AAXX 09004 91182 12566 40514 10272 20172 30157 40161 58023 69901 92353 333 10283 20228 91025 555 90900
AAXX 09004 91190 32666 40613 10278 20150 30144 40163 58024 92354 333 10278 20206 91023 555 90900
AAXX 09004 91212 12466 60814 10289 20244 31383 40115 50011 60041 92354 555 90900
AAXX 09004 91285 31648 8//05 10210 20180 30151 761// 90000 333 96010 555 90900
AAXX 09004 91413 11469 89904 10266 20249 30075 40100 52010 60074 72582 85372 333 20255 56999 58010 70071 555 90900
AAXX 09001 14235 12960 0//// 10016 21070 39076 48520 58007 60001
AAXX 09001 14246 NIL
AAXX 09001 14314 NIL
AAXX 09001 14323 NIL
AAXX 09001 14324 NIL
AAXX 09001 14328 NIL
AAXX 09001 14330 NIL
AAXX 09001 14438 NIL
AAXX 09001 14443 NIL
AAXX 09001 14447 NIL
AAXX 09001 14472 NIL
AAXX 09001 08501 32/// /2502 10132 20114 30245 40281 52003 555 60005
AAXX 09001 08505 32470 70604 10155 20135 30219 40269 51005 878// 333 82812 85630 555 60007
AAXX 09001 08506 32/// /0202 10151 20142 30206 40279 52004 555 60005
AAXX 09001 08509 31360 62604 10153 20150 30209 40273 50005 70352 86800 333 82709 83816 85635 555 60007
AAXX 09001 08511 32/// /0602 10160 20152 30165 40273 52004 555 60005
AAXX 09001 08512 32575 40000 10141 20132 30184 40270 52007 82830 333 81822 83358 555 60005
AAXX 09001 08515 NIL
AAXX 09001 08521 NIL
AAXX 09001 08522 32/// /9902 10165 20094 30182 40251 57002 555 60005
AAXX 09001 08524 32470 39903 10171 20147 30157 40255 57007 83800 333 82815 91007 91107 555 60005
AAXX 09001 08530 NIL
AAXX 09001 08531 32/// /1302 10110 20096 30231 40270 57005 555 60005
AAXX 09001 08532 NIL
AAXX 09001 08533 32/// /0601 10096 20091 30232 40261 57007 555 60005
AAXX 09001 08534 31/02 99901 10074 20074 30254 40272 58007 74544 333 89/// 555 60007 96645
AAXX 09001 08535 32/// /9903 10091 20077 30175 40269 57005 333 91105 555 60005
AAXX 09001 08537 NIL
AAXX 09001 08540 31215 51702 10080 20072 30201 40272 54000 72842 82634 333 82704 83360 96010 555 60007 90222 96647 90300
AAXX 09001 08541 32/// /0103 10082 20076 30143 40265 57006 555 60005
AAXX 09001 08544 31220 70000 10078 20070 30247 40268 58002 71022 825// 333 82706 87630 555 60007
AAXX 09001 08545 31350 71002 10100 20083 30187 40272 57005 71022 84532 333 82709 83613 85075 555 60005
AAXX 09001 08548 32/// /0801 10083 20075 30064 40274 54000 555 60005
AAXX 09001 08551 32/// /1101 10088 20080 30210 40269 57007 555 60005
AAXX 09001 08554 32960 30402 10114 20089 30250 40260 57011 80002 333 83075 555 60005
AAXX 09001 08558 12/// /0000 10057 20057 39969 40272 57004 69911 555 60005
AAXX 09001 08560 32/// /3502 10071 20062 39504 40274 57005 555 60005
AAXX 09001 08561 31/01 99901 10070 20070 30030 40269 57002 74441 89/// 555 60007 96644
AAXX 09001 08562 32/// /0501 10061 20057 39965 40267 57005 555 60005
AAXX 09001 08567 32/// /0000 10058 20054 39606 40285 57006 555 60005
AAXX 09001 08568 32/// /0701 10082 21105 38694 48565 57007 555 60005
AAXX 09001 08570 12/// /0000 10052 20052 39809 40281 57002 69911 555 60005
AAXX 09001 08571 32/// /3402 10085 20042 39557 40270 57002 555 60005
AAXX 09001 08575 32/// /1501 10031 20030 39454 40289 57003 555 60005
AAXX 09001 08579 32/// /36// 10083 20077 30141 40269 57006 555 60005
AAXX 09004 60369 12960 00000 10160 20123 40258 57013 60001 333 0//00 91827
AAXX 09004 60403 NIL
AAXX 09004 60425 12970 20000 10095 20085 40271 58002 60001 80002 333 0//00 82073 95990
AAXX 09001 34712 32497 83404 10024 20022 30063 40151 52008 886// 333 88713
AAXX 09004 64400 32458 82004 10252 20240 30080 40099 888// 333 0//00 59007 82806 88626
AAXX 09003 64401 32460 70000 10230 20217 39731 40103 81570 333 0//00 59012 81616 87363
AAXX 09004 64450 31560 70000 10250 20236 39734 40084 70192 8193/ 333 0//00 59012 81930 87363 94946 95877
AAXX 09004 64458 NIL
AAXX 09003 64459 32960 52802 10245 20230 39724 40080 85032 333 0//00 59012 85360
AAXX 09004 86330 32998 71213 10250 20120 40117 52017 84076 333 10312 20230
AAXX 09004 86360 NIL
AAXX 09004 86460 32997 80912 10242 20123 40133 55008 86075 333 1//// 20205
AAXX 09004 86490 32997 50805 10278 20117 40127 53012 80006 333 10334 20227
AAXX 09004 86530 32997 61105 10236 20121 40135 52016 80006 333 10314 20210
AAXX 09004 86545 32997 41507 10206 20145 40138 54001 80005 333 10290 20206
AAXX 09004 86565 32498 30000 10182 20162 40155 52004 83400 333 10238 20182
AAXX 09004 86580 32497 21116 10196 20170 40157 52006 81505 333 10224 20190
AAXX 09001 60370 36/// /0000 10118 20114
AAXX 09001 60371 36/// /1803 10114 20104
AAXX 09001 60372 16/// /0000 10128 20111 69921
AAXX 09001 60373 NIL
AAXX 09001 60374 NIL
AAXX 09001 60376 NIL
AAXX 09001 60379 NIL
AAXX 09001 60380 NIL
AAXX 09001 60381 NIL
AAXX 09001 60393 NIL
AAXX 09001 60394 NIL
AAXX 09001 60593 NIL
AAXX 09001 60595 NIL
AAXX 09001 60605 NIL
AAXX 09001 60613 NIL
AAXX 09001 60623 NIL
AAXX 09004 60624 36/// /0000 10164 21034
AAXX 09004 60639 NIL
AAXX 09004 60645 36/// /0000 10180 21015
BBXX C6XQ2 09003 99182 50365 41597 50715 10253 20214 40152 54000 70211 85160 22243 04260 20704 311// 40903 5//// 80227
BBXX DDIJ 09004 99171 50760 41698 31918 10200 20146 40125 51015 7//11 81452 22244 04190 29902 317// 41007 80166
BBXX V7OX3 09004 99267 50410 41597 80707 10210 20210 40120 54000 7//22 8/71/ 22273 04230 20603 310// 40602 5//// 80210
BBXX C6JD7 09003 99300 71167 41998 73411 10160 20114 40172 56010 70222 80004 22243 20601 30000 80135
BBXX DFWV2 09004 99261 71245 41/98 80215 10170 20100 40190 54000 70322 8/7// 22263 04180 2//02 3//// 4//// 5//// 80130
BBXX DCSL2 09004 99323 71598 41598 30315 10190 20142 40235 57010 70111 8310/ 22265 00210 20202 333// 40508 80160
BBXX BATFR14 09004 99313 70388 44297 21018 10219 20189 40227 70200 82102 22254 00217 20502
BBXX FVNM 09004 99093 71066 46/// /0615 10267 20229 40100 55006 22231 00269
BBXX BATEU01 09004 99474 70357 46/// /2008 10137 20105 40194 58006 22264 00129
BBXX DDLK 09003 99437 70513 41597 81828 10130 20113 40102 57/// 70222 887// 22263 20307 80120
AAXX 09004 91245 32466 20815 10290 20240 30154 92354 555 90900
AAXX 09001 50844 32962 02901 11170 21208 40317 57009 333 05804
AAXX 09001 50854 32965 02701 11192 21224 40316 57003 333 05701
AAXX 09001 50968 32962 02202 11190 21220 40338 57002 333 05403
AAXX 09001 51379 11780 81801 11113 21132 40419 57010 69901 77077 885// 333 05406 31049 79999 92507
AAXX 09001 51467 32980 03601 11131 21172 38378 52003 333 00152
AAXX 09001 51495 32980 03604 11090 21168 40459 52005 333 00251
AAXX 09001 53480 32970 00000 11192 21228 40491 52003 333 05201
AAXX 09001 53673 32961 13201 11109 21158 40441 57002 80002 333 05152 31022 92507
AAXX 09001 53698 32962 50000 11047 21101 40405 57003 85030 333 05152
AAXX 09001 53898 32964 62001 11060 21067 40409 54000 80002 333 00155
AAXX 09001 54308 32980 03403 11148 21218 40437 52001 333 00051
AAXX 09001 54602 32960 50000 11067 21114 40400 57004 82032 333 05151 31047
AAXX 09001 54725 32965 02902 11072 21130 40404 52004 333 00153
AAXX 09001 54751 11570 73407 11022 21100 40364 52005 69911 70080 87400 333 00200 31019 70002
AAXX 09001 54916 32963 03202 11049 21105 40406 52005 333 00354 31041
AAXX 09001 57014 32968 71101 11038 21059 40410 52013 8703/ 333 00052 31049
AAXX 09001 57025 32966 71102 11032 21068 40422 52014 87030 333 05151 31032
AAXX 09001 57046 32971 02907 11110 21152 38021 52007 333 05101 92506
AAXX 09001 58208 32970 00401 11022 21067 40407 52013 333 00457 31028
AAXX 09001 40700 12960 02405 11016 21030 30071 40162 56005 60001 333
AAXX 09001 40723 12960 00000 11042 21086 38923 40228 56000 60001 333
AAXX 09001 40726 12960 01502 10016 21097 38656 40184 56002 60001 333
AAXX 09001 40727 NIL
AAXX 09001 40734 12960 09901 10036 20015 30173 40148 56004 60001 333
AAXX 09001 40737 12960 09901 10002 21004 30127 40145 57005 60001 333
AAXX 09001 40741 11540 83103 10016 20012 39874 40221 57022 60001 71022 886// 333 88720
AAXX 09001 40780 12960 41303 10046 21088 38704 40191 58007 60001 84030 333 84360
AAXX 09001 40791 12965 00000 10024 21100 39394 40233 54000 60001 333
AAXX 09001 40792 12970 00403 10000 21130 38742 40220 58007 60001 333
AAXX 09001 40794 12960 00202 10060 20036 30103 40202 58003 60001 92350 333
AAXX 09001 40812 12960 00000 10082 20014 39809 40187 58005 60001 92345 333
AAXX 09001 40829 12960 01002 11020 21095 39651 40240 54000 60001 333
AAXX 09001 40833 12960 03302 10056 20016 30173 40206 55006 60001 92345 333
AAXX 09001 40835 12970 00000 10046 20017 39368 40209 54000 60001 333
AAXX 09001 40845 NIL
AAXX 09001 40882 12960 00000 10196 20090 30144 40180 54000 60001 333
AAXX 09001 40889 NIL
AAXX 09001 40890 NIL
AAXX 09001 40893 12960 03604 10178 20042 30065 40171 56003 60001 222// 00/// 20401 333
AAXX 09001 40897 NIL
AAXX 09001 38844 429// 00204 11038 21168 47490 54000
AAXX 09001 38725 429// 00902 11053 21179 37779 48520 52011
AAXX 09001 38954 429// 00000 11039 21136 37963 48550 52001
AAXX 09003 NIL
AAXX 09003 87016 31558 72704 10238 20206 39701 40106 52017 71522 84570 333 10271 20198 84620
AAXX 09001 28049 42997 51703 11053 21088 30160 40331 52005 80051
AAXX 09001 28144 41598 81901 11029 21090 30167 40329 52003 70282 8552/
AAXX 09001 28319 41898 32002 11083 21130 30143 40315 52004 70371 83050
AAXX 09001 28321 41999 51304 11085 21118 30097 40310 58001 70282 80002
AAXX 09001 28334 42997 20000 11114 21167 30025 40348 52003 82040
AAXX 09001 28434 42998 00000 11193 21207 30081 40365 52003
AAXX 09001 28552 42998 20000 11179 21193 30268 40391 53003 80002
AAXX 09001 28666 42999 20101 11205 21225 30217 40411 57003 80002
AAXX 09001 28825 42997 00000 11167 21175 30168 40355 54000
AAXX 09001 29111 32998 62403 11126 21159 30279 40372 53004 80001 333 21132 47029 55017
AAXX 09001 29209 32998 02001 11239 21257 30266 40408 53003 333 21239 47025
AAXX 09001 29551 31995 20000 11153 21166 30223 40420 57005 71000 80001 333 21155 47009
AAXX 09001 29602 32998 00000 11200 21219 30274 40429 57005 333 21207 47014
AAXX 09001 29636 31993 00000 11170 21176 30197 40434 57002 74840 333 21170 47015
AAXX 09001 29654 32999 10000 11123 21129 39775 40430 57007 80001 333 21129 48085
AAXX 09001 29712 32998 00000 11222 21241 30274 40434 57008 333 21226 47012
AAXX 09001 29724 31992 00601 11213 21232 30209 40434 57005 74840 333 21214 47002
AAXX 09001 29726 31994 80000 11223 21242 30255 40443 57004 71011 80007 333 21227 47014
AAXX 09001 29814 31/93 90201 11163 21176 30268 40428 57006 74740 333 21183 48009 88/02
AAXX 09001 29827 32997 00000 11205 21217 30250 40421 57006 333 21210 47010
AAXX 09001 29923 32999 00701 11198 21210 30120 40423 57010 333 21208 43025 55068
AAXX 09001 29939 32997 00401 11181 21200 30102 40411 57010 333 21186 47029
AAXX 09001 35026 42997 00000 11168 21197 39696 40388 57008
AAXX 09001 36021 32999 03401 11194 21213 30219 40417 57009 333 21195 47008
AAXX 09001 36022 32998 00302 11181 21187 30127 40413 56008 333 21190 47018
AAXX 09001 36038 32999 00000 11228 21240 39932 40423 57009 333 21228 48042 55056
AAXX 09001 36058 32999 01003 11110 21123 39880 40433 57006 333 21114 47008 55034
AAXX 09001 36064 32999 00902 11012 21075 39707 40410 57004 333 21013 47015 55066
AAXX 09001 36229 32999 00000 11247 21260 39240 40552 57008 333 21247 47013 55073
AAXX 09001 36259 32999 00000 11276 21307 38403 48676 57006 333 21276 47002 55075
AAXX 09004 89022 42665 81602 11096 21117 39621 49658 57008 8856/ 333 11080 21096 82645 87359
AAXX 09004 89062 46/// /0217 10005 21015 39692 49732 57010 333 10029 21002
AAXX 09004 87078 32570 61802 10258 20204 39960 40109 52020 86100 333 10305 20226 56400 86835
AAXX 09004 87244 32970 01405 10230 20141 39754 40144 5//// 333 10300 2////
AAXX 09004 87393 32970 61405 10250 20144 30060 40122 53011 84072 333 10325 20250 56070 84360 86070
AAXX 09004 87416 32665 70205 10259 20131 39385 40109 52009 84410 333 10308 20229 56550 84640 83460
AAXX 09004 87563 32965 00512 10230 20168 30086 40129 51003 333 10310 20216
AAXX 09004 87640 32965 01802 10239 20136 30044 40152 53015 333 10311 20217
AAXX 09004 87688 NIL
AAXX 09004 87774 32682 40000 10230 20002 39133 48498 5//// 84400 333 10270 20088 84736
AAXX 09004 87852 32684 32522 10202 21025 39586 40080 56007 82280 333 10255 20143 56660 57848 82840
AAXX 09004 87896 31580 73424 10150 20069 30006 40101 57020 70720 82570 333 10280 2//// 56670 82630 86360
AAXX 09001 23909 41395 81403 11054 21061 30031 40288 58005 77372 8872/
AAXX 09001 28044 42997 82201 11046 21063 30153 40322 50004 8801/
AAXX 09001 28116 41898 81502 11067 21083 30051 40293 58008 70272 8807/
AAXX 09001 28240 42998 81102 11114 21139 30005 40349 50004 82031
AAXX 09001 28522 42997 71804 11083 21129 30073 40345 52001 80003
AAXX 09001 28621 42997 61404 11088 21154 30086 40331 53003 83032
AAXX 09001 29023 32998 82001 11140 21153 30248 40352 58003 82032 333 21140 47029 55000
AAXX 09001 29122 32999 32203 11136 21163 30292 40370 54000 80001 333 21136 47022
AAXX 09001 29328 32998 02002 11234 21255 30259 40414 57008 333 21235 47009 55000
AAXX 09001 29348 12997 01902 11162 21175 30248 40405 57007 69902 333 21163 47019
AAXX 09001 29405 32997 02201 11173 21185 30266 40427 53001 333 21182 47021 55035
AAXX 09001 29418 32998 00000 11226 21258 30254 40432 57005 333 21226 47013 55068
AAXX 09001 29430 32998 02301 11187 21199 30228 40421 57006 333 21187 47025 55022
AAXX 09001 29524 32998 00000 11240 21258 30254 40436 54000 333 21240 47025
AAXX 09001 29605 32998 00000 11191 21197 30273 40429 57005 333 21192 47014 55040
AAXX 09001 29631 31996 81901 11209 21228 30229 40434 57002 71011 8803/ 333 21209 47019
AAXX 09001 29645 31993 80000 11148 21154 30229 40431 57001 71011 8805/ 333 21181 47020 55038
AAXX 09001 29706 32998 00000 11211 21230 30266 40428 57005 333 21211 48012 55069
AAXX 09001 29736 11/93 90000 11194 21213 30163 40438 57004 69902 77874 333 21222 47019 96045
AAXX 09001 29937 32997 03201 11175 21194 30171 40412 57010 333 21181 47016
AAXX 09001 36034 31996 00000 11208 21227 30110 40415 57008 71000 333 21215 48014
AAXX 09001 36096 NIL
AAXX 09004 91350 11474 70715 10308 20276 30128 40135 5//// 60104 70282 82301 333 20250 561/9 58003 70102 82918 87080 555 90900 91353 32474 80506 10317 20256 30108 40115 5//// 83208 333 20256 561/9 58009 83819 85080 555 90900 91425 32574 10404 10283 20267 30092 40093 5//// 81200 333 20244 561// 58005 81820 555 90900 91434 32474 51005 10311 20252 30113 40114 5//// 83208 333 20261 562/9 58007 83818 555 90900
AAXX 09004 71300 16/// /2209 10010 21054 30045 40169 51018 60001 333 10028 21026 70000
AAXX 09004 71341 16/// /2601 11108 21154 60001 333 11036 21194 70013
AAXX 09004 71342 16/// /2407 11145 21179 60001 333 11090 21205 70081
AAXX 09004 71344 16/// /3012 11095 21143 60001 333 11093 21195 70000
AAXX 09004 71347 16/// /1007 11105 21136 60001 333 11095 21208 70000
AAXX 09004 71348 16/// /1105 11089 21117 60001 333 11088 21201 70000
AAXX 09004 71349 16/// ///// 11176 21216 60001 333 11139 21217 7////
AAXX 09004 71365 16/// /1407 11204 21229 39947 40173 56038 60001 333 11201 21340 70000
AAXX 09004 71374 46/// /2747 11019 21039 6///1 333 10064 21022 7////
AAXX 09004 71387 16/// /2003 11105 21126 39726 40110 51023 60001 333 11042 21111 70000
AAXX 09004 71667 16/// /2509 11116 21197 39900 40154 51018 60001 333 11089 21121 70000
AAXX 09004 71682 16/// /0301 11224 21240 39920 40162 58042 60001 333 11222 21299 70003
AAXX 09004 71695 16/// /2916 11168 21221 39821 40170 52020 60001 333 11155 21178 70000
AAXX 09004 71269 16/// /2414 11140 21174 60001 333 11073 21205 70000
AAXX 09004 71285 46/// /0402 11190 21217 6///1 333 11132 21243 7////
AAXX 09004 71107 16/// /3512 10055 20043 30202 40317 58009 60001 333 10070 20044 70000
AAXX 09004 71503 46/// /0609 11203 21233 39859 40144 56024 6///1 333 11203 21342 7////
AAXX 09004 71506 46/// /2515 11136 21146 39161 40054 56009 6///1 333 11113 21165 7////
AAXX 09004 71514 16/// /3007 11161 21224 39521 40253 53006 60001 333 11120 21161 70000
AAXX 09004 71539 16/// /2306 11156 21197 39536 40266 51006 60001 333 11113 21166 70000
AAXX 09004 71407 16/// /0904 11282 21315 39985 40006 51034 60001 333 11148 21286 70000
AAXX 09004 71423 16/// /2835 11002 21032 39903 49912 51119 60001 333 10077 21004 70178
AAXX 09004 71448 16/// /2806 11154 21206 39825 40169 53006 60001 333 11129 21169 70003
AAXX 09004 71550 16/// /2718 11152 21213 39807 40199 51009 60001 333 11140 21162 70000
AAXX 09004 71482 46/// /0613 10020 30287 40326 56011 6///1 333 10025 20008 7////
AAXX 09001 23914 41396 81803 11065 21077 30040 40309 58002 77372 8872/
AAXX 09001 23921 42997 80000 11089 21100 30190 40315 52006 8807/
AAXX 09001 23955 32584 82504 11087 21121 30277 40342 53006 885// 333 21104 47035 55017 88621
AAXX 09001 23966 32999 62101 11105 21128 30181 40316 54000 80005 333 21105 47040 55000
AAXX 09001 28138 42599 82001 11072 21109 39742 40336 52002 83507
AAXX 09001 28224 41898 81803 11070 21113 30093 40317 58002 70272 84055
AAXX 09001 28255 42994 01701 11159 21175 30223 40363 52004
AAXX 09001 28440 42997 51201 11095 21145 39996 40366 52006 80006
AAXX 09001 28645 42997 00000 11160 21166 30067 40388 54000 333 93500
AAXX 09001 28661 42997 31801 11188 21204 30302 40403 54000 80001
AAXX 09001 28722 42997 22301 11165 21183 30209 40352 53005 80001
AAXX 09001 28748 42963 01801 11181 21200 30134 40398 57002
AAXX 09001 28838 42996 00501 11220 21239 39884 40415 57003
AAXX 09001 29231 32998 52002 11161 21174 30276 40380 57006 80001 333 21161 47022 55000
AAXX 09001 29313 32998 02101 11207 21223 30270 40405 57003 333 21207 47023 55065
AAXX 09001 29612 32998 00000 11201 21207 30267 40435 57003 333 21203 48015 55052
AAXX 09001 29638 31992 01701 11177 21183 30254 40435 57004 74840 333 21185 47017 55037
AAXX 09001 29838 32997 00000 11193 21212 30167 40423 57006 333 21195 47018 55056
AAXX 09001 29846 31/02 90000 11145 21145 30011 40424 56004 74941 333 21145 47008 89/02
AAXX 09001 36061 31999 00000 11187 21199 39980 40427 57007 333 21190 47036 55063
AAXX 09001 34357 41496 81504 10005 20005 30003 40160 53004 71082 883//
AAXX 09001 34363 41396 81104 11031 21038 30053 40210 54001 71022 886//
AAXX 09001 34545 41294 81305 10024 20024 30033 40145 53004 75162 886//
AAXX 09001 34579 42598 81004 11031 21054 30151 40197 57003 8850/
AAXX 09001 34838 41597 80601 10041 20037 30042 40139 53008 78082 889//
AAXX 09001 34927 41496 83001 10051 20042 30110 40147 52006 78082 889//
AAXX 09001 34949 42598 83002 10061 20018 39589 40130 52005 8455/ 333 88624
AAXX 09001 37001 41496 80102 10037 20026 30110 40151 52004 71022 886//
AAXX 09001 37031 42597 81501 10035 20002 39942 40139 53005 885//
AAXX 09001 37061 41/09 93001 10019 20017 39970 40138 52003 74542
AAXX 09001 37085 41596 81003 10059 20044 30159 40186 52004 70262 8850/
AAXX 09001 37126 42999 83003 11028 21044 37879 48451 57003 84031
AAXX 09001 37171 41696 83502 10080 20076 30114 40132 58001 78082 889// 333 88946
AAXX 09001 37228 42997 61901 11010 21042 39291 40137 52004 80002
AAXX 09001 37470 42996 62903 10072 20034 30128 40106 54000 83031
AAXX 09001 37663 42996 83004 10071 21104 38949 48436 54001 8807/
AAXX 09004 87593 32960 00908 10200 20160 30124 40151 52009 333 10277 20200
AAXX 09004 87623 32980 10907 10250 20146 39917 40138 53001 81060 333 10315 20194 56070 81360
AAXX 09004 87641 32965 11807 10202 20168 39986 40158 52008 80005 333 10286 20200 56004 81270
AAXX 09004 87645 32565 51112 10202 20154 39962 40166 53009 85500 333 10254 20181 56300 85623
AAXX 09004 87648 32960 60504 10193 20155 30161 40171 52015 86080 333 10279 20193 56050 86360
AAXX 09004 87692 32360 51108 10176 20163 30169 40194 52007 84601 333 10213 20176 56300 84708 83070
AAXX 09004 87715 32965 70910 10250 20140 39797 40109 52005 82076 333 10294 20149 56011 82360 86270
AAXX 09004 87750 32562 40908 10182 20148 30072 40170 53003 84500 333 10232 20178 56200 84622
AAXX 09004 87765 32956 63213 10215 20061 39174 48487 53003 82076 333 10270 20144 56066 82360 84270 96104 96120
AAXX 09004 87784 11660 62006 10161 20149 30136 40160 56013 69971 71096 81962 333 10204 20158 56110 57915 81940 83070
AAXX 09004 87791 32980 70521 10174 20116 30165 40173 58011 83078 333 10245 20166 56000 83360 86270
AAXX 09004 87800 31970 20000 10237 20083 39732 40120 53007 70400 80004 333 10303 20162 56005 82080 96104
AAXX 09004 87803 32980 62717 10212 21005 39204 40094 53001 82036 333 10280 20171 56000 82360 85270
AAXX 09004 87828 31965 50218 10166 20089 30084 40135 57011 70411 82042 333 10242 20164 56000 57300 82360 83070
AAXX 09004 87860 31670 70517 10194 20098 30014 40069 57020 70422 82506 333 10260 20170 56706 82640 87270
AAXX 09004 87904 32980 12713 10148 20029 39848 40090 57011 80001 333 10218 20120 56006 81070
AAXX 09004 87909 32580 50512 10120 20071 30033 40107 57021 83506 333 10180 20120 56505 83630
AAXX 09004 87925 32980 23613 10143 20028 30078 40102 54000 80009 333 10220 20110 56007 82170
AAXX 09004 87938 32680 62521 10103 20038 39998 40068 54000 83506 333 10128 20102 56405 83635 84270
AAXX 09004 71622 16/// ///// 11001 21029 39866 40210 50004 60001 333 10026 21030 70000
AAXX 09004 71737 17/// /2205 11046 21054 39597 40125 53010 69971 7//4/ 333 11037 21076 70007 555 10010
AAXX 09004 71743 16/// /1706 11155 21177 39760 49979 51002 60001 333 11120 21167 70000
AAXX 09004 71746 46/// /2208 10007 21038 39981 40206 51007 6///1 333 10041 21029 7////
AAXX 09004 71748 16/// /2710 11148 21206 39874 40178 51010 60001 333 11130 21161 70004
AAXX 09004 71155 16/// ///// 11124 21159 60001 333 11084 21231 70000
AAXX 09004 71165 46/// ///03 11268 21295 39919 40221 58031 6///1 333 11254 21351 7////
AAXX 09004 71186 46/// /3105 11044 21093 6///1 333 11028 21046 7////
AAXX 09004 71190 46/// /2911 11020 21074 6///1 333 11004 21021 7////
AAXX 09004 71903 46/// /2408 10054 20048 30235 40285 58010 6///1 333 7////
AAXX 09004 04203 46/// /0605 11121 21165 30137 40155 57006
AAXX 09004 04205 45/84 /3201 11208 21308 30148 40172 57009
AAXX 09004 04208 46/// /1027 11089 21150 30093 40140 57004
AAXX 09004 04213 46/// /1329 11094 21169 30057 40171 57002
AAXX 09004 04214 46/// /1428 11055 21116 30096 40129 52007
AAXX 09004 04224 45982 70912 11069 21158 30102 40136 57012 333 87/68 91128
AAXX 09004 04228 NIL
AAXX 09004 04242 46/// /1024 11045 21104 30098 40115 57018
AAXX 09004 04253 46/// /1118 11046 21120 30100 40127 57023
AAXX 09004 04266 46/// /0918 11048 21122 30100 40139 57033
AAXX 09004 04285 46/// /1220 11036 21117 30142 40161 57028
AAXX 09004 04301 46/// /2407 11258 21314 30208 40213 52002
AAXX 09004 04313 46/// /3524 11175 21225 30184 40196 52008
AAXX 09004 04330 NIL
AAXX 09004 04351 46/// /3107 11217 21290 30182 40199 52008
AAXX 09004 04373 46/// /3122 11101 21207 30096 40192 57004
AAXX 09004 04382 46/// /2904 11072 21149 30160 40210 57004
AAXX 09004 04416 NIL
AAXX 09004 71421 17/// ///// 11101 21113 39173 49882 53028 60111 7//4/ 333 11074 21104 70196
AAXX 09004 71435 16/// /2207 11147 21208 39530 40144 51018 60001 333 11120 21155 70006 555 10010
AAXX 09004 71976 46/// /1717 11176 21195 39321 49953 54000 6///1 333 11134 21180 7////
AAXX 09004 71188 11674 22821 11033 21064 39959 40001 52084 69941 73671 82500 333 10002 21033 47024 70305 90963
AAXX 09004 71228 16/// /3306 11177 21206 60001 333 11102 21210 70008
AAXX 09004 71243 16/// /3006 11052 21125 39165 40313 52014 60001 333 11052 21169 70000
AAXX 09004 71063 16/// /2211 10015 21051 30061 40160 51020 60001 333 10021 21027 70000
AAXX 09004 17219 11565 70315 10067 20037 30060 40208 53015 60011 72981 84250 333 84830 87360
AAXX 09001 13463 32970 02901 10050 21025 30212 40273 55003
AAXX 09001 13459 32970 02901 10008 21044 39502 40291 54000
AAXX 09001 13461 32970 00503 10098 21064 30261 40269 50012 333 92333 92438
AAXX 09001 13363 31/02 91401 11048 21048 39351 48534 52009 74544
AAXX 09001 48820 32598 70202 10156 20081 30233 40241 52017 888// 333 01015 20156 3/015 58042 85895 86697
AAXX 09001 48823 32497 83603 10140 20089 30235 40238 52024 888// 333 01014 20140 3/014 58051 86894 88696
AAXX 09004 91350 11474 70715 10308 20276 30128 40135 5//// 60104 70282 82301 333 20250 561/9 58003 70102 82918 87080 555 90900 91353 32474 80506 10317 20256 30108 40115 5//// 83208 333 20256 561/9 58009 83819 85080 555 90900 91425 32574 10404 10283 20267 30092 40093 5//// 81200 333 20244 561// 58005 81820 555 90900 91434 32474 51005 10311 20252 30113 40114 5//// 83208 333 20261 562/9 58007 83818 555 90900
AAXX 09004 71188 11674 22821 11033 21064 39959 40001 52084 69941 73671 82500 333 10002 21033 47024 70305 90963
AAXX 09004 71421 17/// ///// 11101 21113 39173 49882 53028 60111 7//4/ 333 11074 21104 70196
AAXX 09004 71435 16/// /2207 11147 21208 39530 40144 51018 60001 333 11120 21155 70006 555 10010
AAXX 09004 41529 12995 00000 10064 20042 39767 40162 60002 333 59015
AAXX 09004 41598 11695 20000 10105 20074 39862 40141 60002 70400 82500 333 59028
AAXX 09004 41620 32995 01805 11010 21040 38604 48503 333 59003
AAXX 09004 41624 02995 00000 10075 20013 39930 40139 60002 333 58009 60007
AAXX 09004 41640 01995 00000 10154 20137 39875 40126 60002 70400 333 59014 60007
AAXX 09004 41660 119// 00000 11050 21066 38461 48553 60002 70500 333 58024
AAXX 09004 41675 11995 00000 10090 20045 39991 40135 60002 70400 333 59016
AAXX 09004 41712 12996 00502 10005 21056 39261 48528 60002 333 58013
AAXX 09004 41715 01995 00000 10110 20090 30075 40142 60002 70400 333 59014 60007
AAXX 09004 41756 01995 03610 10110 21018 30085 40150 60002 70600 333 58003 60007
AAXX 09004 41764 32996 00000 10140 20080 30080 40131 60002 333 59003 60007
AAXX 09004 41768 02996 00000 10120 20108 30118 40125 60002 333 58002 60007
AAXX 09004 41780 02996 90000 10155 20063 30116 40143 60002 333 58003 60007
AAXX 09004 41529 12995 00000 10064 20042 39767 40162 60002 333 59015
AAXX 09004 41598 11695 20000 10105 20074 39862 40141 60002 70400 82500 333 59028
AAXX 09004 41620 32995 01805 11010 21040 38604 48503 333 59003
AAXX 09004 41624 02995 00000 10075 20013 39930 40139 60002 333 58009 60007
AAXX 09004 41640 01995 00000 10154 20137 39875 40126 60002 70400 333 59014 60007
AAXX 09004 41660 119// 00000 11050 21066 38461 48553 60002 70500 333 58024
AAXX 09004 41675 11995 00000 10090 20045 39991 40135 60002 70400 333 59016
AAXX 09004 41712 12996 00502 10005 21056 39261 48528 60002 333 58013
AAXX 09004 41715 01995 00000 10110 20090 30075 40142 60002 70400 333 59014 60007
AAXX 09004 41756 01995 03610 10110 21018 30085 40150 60002 70600 333 58003 60007
AAXX 09004 41764 32996 00000 10140 20080 30080 40131 60002 333 59003 60007
AAXX 09004 41768 02996 00000 10120 20108 30118 40125 60002 333 58002 60007
AAXX 09004 41780 02996 90000 10155 20063 30116 40143 60002 333 58003 60007
AAXX 09001 27612 419// 80000 11019 21034 30003 40201 52008 71022 8807/
BBXX 46249 09001 99338 71197 46/// ///// 1//// 90015 22200 00144 10402 20402 320// 41401 70010
BBXX 46248 09001 99461 71247 46/// ///// 1//// 90004 22200 00094 11103 20503 329// 41102 70017
BBXX 46244 09001 99409 71244 46/// ///// 1//// 90005 22200 00095 10804 20803 330// 41102 70019
AAXX 09001 28216 41997 01802 11085 21113 30003 40298 54000 70171
AAXX 09001 28428 42998 71703 11083 21125 30144 40339 52003 87050
AAXX 09001 28451 42996 02301 11166 21192 30197 40371 52002
AAXX 09001 28537 42997 11602 11131 21155 39919 40368 52002 81040
AAXX 09001 28541 42981 00000 11161 21174 39854 40389 52007
AAXX 09001 28615 NIL
AAXX 09001 28655 42998 02002 11159 21174 30153 40394 58001
AAXX 09001 28756 42997 00801 11203 21223 30241 40406 57006
AAXX 09001 29557 32998 00000 11160 21179 30133 40421 57001 333 21162 47008
AAXX 09001 29625 32998 00000 11234 21253 30235 40436 57009 333 21245 47020
AAXX 09001 29813 32999 00401 11206 21225 30213 40410 57010 333 21207 47010
AAXX 09001 29822 31995 82901 11186 21205 30252 40431 57008 71022 8805/ 333 21217 47015 55045
AAXX 09001 29915 32998 20301 11180 21192 30243 40416 57008 80002 333 21199 47007
AAXX 09001 36020 32998 00602 11161 21161 30196 40413 57010 333 21175 48017 55057
BBXX 46241 09001 99330 71173 46/// ///// 1//// 92341 22200 00146 11501 20601 326// 41501 70005
BBXX 46240 09001 99366 71219 46/// ///// 1//// 90012 22200 00116 11201 21001 335// 41201 70005
BBXX 46237 09001 99378 71226 46/// ///// 1//// 90010 22200 00115 11202 20901 326// 41201 70008
BBXX 46212 09001 99408 71243 46/// ///// 1//// 90012 22200 00099 11004 21004 331// 41102 70020
BBXX 46217 09001 99342 71194 46/// ///// 1//// 90012 22200 00147 10702 20702 70008
AAXX 09001 26424 41/96 81804 10005 21012 30059 40113 57011 71022 8355/
BBXX 46216 09001 99343 71198 46/// ///// 1//// 92357 22200 00148 11301 20701 325// 41301 70007
BBXX 46223 09001 99335 71178 46/// ///// 1//// 90000 22200 00157 11301 20601 319// 41301 70006
BBXX 46211 09001 99469 71242 46/// ///// 1//// 90006 22200 00087 12203 21002 328// 42202 70013
BBXX 46231 09001 99327 71174 46/// ///// 1//// 92354 22200 00158 11301 20601 324// 41301 70006
BBXX 46222 09001 99336 71183 46/// ///// 1//// 92356 22200 00161 10601 20601 318// 41301 70006
BBXX 46242 09001 99332 71174 46/// ///// 1//// 92358 22200 00156 11301 20601 321// 41301 70005
AAXX 09004 48353 32660 71303 10218 20154 39862 40155 52022 84536 333 20215 58025
AAXX 09004 48429 32560 60809 10260 20174 30114 40121 52023 81156 333 20259 58019
AAXX 09001 56146 32980 00901 11079 21135 36758 52006 333 00152
AAXX 09001 56444 32678 80000 10004 21042 36821 52003 884// 333 05100 31025
AAXX 09001 56492 31740 80000 10077 20055 39908 40327 54000 71000 885// 333 00052 70040
AAXX 09001 56571 32680 82701 10072 21005 38455 52003 888// 333 05151 70003
AAXX 09001 57799 32975 72904 10052 21026 30258 40351 52011 8703/ 333 00453 30043 70002
AAXX 09001 57866 11961 70405 10059 21040 30138 40353 52011 69901 70060 8704/ 333 00251 30044 79999
AAXX 09001 57957 32762 70205 10077 21029 30123 40328 52013 875// 333 00251
AAXX 09001 57993 32780 73603 10070 21017 30157 40330 52014 875// 333 00452 70019
AAXX 09001 58027 32968 03601 11031 21123 30340 40395 52006 333 00354 31024
AAXX 09001 58141 32963 03202 11028 21087 30369 40389 52010 333 00556 31010
AAXX 09001 58265 32565 23206 10021 21022 30345 40353 52013 81502 333 00857 30007 70005
AAXX 09001 58472 11480 83412 10052 20004 30230 40328 52012 69901 76000 8677/ 333 00856 30039 70007 91120 91534
AAXX 09001 58477 32465 63405 10056 21005 30286 40332 52015 86140 333 00855 30041 70029
AAXX 09001 58527 32962 70203 10031 21037 30274 40354 52004 85042 333 00555 30013 79999
AAXX 09001 58633 32962 70704 10042 21022 30245 40350 52009 87040 333 00755 30034 70017
AAXX 09001 58666 32565 73614 10064 20015 30213 40318 52017 878// 333 00855 30042 70005 91121 91534
AAXX 09001 58725 11663 83202 10061 20008 30048 40319 52013 69921 70060 885// 333 00453 70005
AAXX 09001 58921 11661 80202 10086 20064 30042 40297 52013 60011 70060 885// 333 00453 70021
AAXX 09001 59082 11675 80204 10087 21014 30159 40310 52020 69941 70060 885// 333 00451 70004
AAXX 09001 59211 32568 80202 10119 20044 30079 40291 52014 888// 333 00353
AAXX 09001 59265 11356 80203 10081 20054 30144 40287 52017 69981 72160 885// 333 00353 70008
AAXX 09001 59293 11565 80205 10085 20023 30193 40281 52017 69901 72580 888// 333 00556 79999
AAXX 09001 59501 32780 70204 10127 20054 30218 40240 52021 875// 333 00657
AAXX 09001 59663 32780 70206 10127 20044 30129 40239 52014 875// 333 00453
AAXX 09001 59838 32762 70410 10167 20116 30191 40201 52017 875// 333 00454 79999
AAXX 09001 59948 32380 70708 10171 20134 39689 40178 52016 878// 333 00253 91118 91507
AAXX 09001 59981 11575 80405 10238 20211 30138 40145 52016 60021 78080 882// 333 00252 70021
AAXX 09001 23226 41350 82207 11042 21058 30004 40225 52020 77172 887// 333 85708
AAXX 09001 23701 42984 71601 11057 21064 30130 40265 51006 87040
AAXX 09001 28909 42999 71504 11098 21145 30210 40316 52001 80002
AAXX 09004 60595 36/// /0000 11451
AAXX 09004 60381 36/// /2301 10100 20095
AAXX 09004 60639 36/// /0404 10121 21031
AAXX 09004 60605 36/// /1104 10129 20003
AAXX 09004 16033 12960 02302 11052 21083 38820 48515 51001 60001 333 92822
AAXX 09004 71925 11259 23215 11282 21311 30107 40150 56005 69901 73870 82600 333 11235 21283 42019 79999 90931
AAXX 09004 62309 32560 32405 10124 20091 40201 57002 83200
AAXX 09004 62325 32560 43404 10160 20084 40203 57002 84500
AAXX 09004 62332 32560 32608 10146 20104 40200 57003 83500
AAXX 09004 62387 32960 63003 10131 20081 40208 57004 86080
AAXX 09004 62459 32960 03312 10178 20076 40176 57005
AAXX 09004 62452 32560 21703 10116 20065 40218 52001 82500
AAXX 09004 62309 32560 32405 10124 20091 40201 57002 83200
AAXX 09004 62325 32560 43404 10160 20084 40203 57002 84500
AAXX 09004 62332 32560 32608 10146 20104 40200 57003 83500
AAXX 09004 62387 32960 63003 10131 20081 40208 57004 86080
AAXX 09004 62459 32960 03312 10178 20076 40176 57005
AAXX 09004 62452 32560 21703 10116 20065 40218 52001 82500
AAXX 09004 62357 32560 50000 10128 20101 40207 54000 85500
AAXX 09004 62403 32960 00000 10116 20053 40198 57009
AAXX 09004 62423 32960 00000 10120 20058 40225 57006
AAXX 09004 62458 32960 33602 10164 20071 40180 57006 83030
AAXX 09004 62455 32560 33606 10156 20087 40194 52001 83500
AAXX 09004 62420 32960 00000 10128 20069 40219 57001
AAXX 09004 62432 32960 03102 10126 20024 40222 57011
AAXX 09004 62435 32960 00405 10126 20051 40201 57003
AAXX 09004 62476 32960 03003 10164 20089 40146 55002
AAXX 09004 62458 32960 33602 10164 20071 40180 57006 83030
AAXX 09004 62455 32560 33606 10156 20087 40194 52001 83500
AAXX 09004 62420 32960 00000 10128 20069 40219 57001
AAXX 09004 62432 32960 03102 10126 20024 40222 57011
AAXX 09004 62435 32960 00405 10126 20051 40201 57003
AAXX 09004 62476 32960 03003 10164 20089 40146 55002
AAXX 09004 62305 32960 02708 10093 20076 40231 57004
AAXX 09004 62306 32960 02710 10132 20087 40216 57002
AAXX 09004 62318 32560 43207 10168 20095 40198 57001 84800
AAXX 09004 62337 NIL
AAXX 09004 62366 32960 01302 10139 20092 40210 57002
AAXX 09004 62393 32960 03205 10100 20057 40218 58003
AAXX 09004 62405 32960 00000 10114 20072 40186 57006
AAXX 09004 62414 32960 00108 10130 20021 40195 57006
AAXX 09004 62417 32960 42202 10120 20073 40219 57004 84030
AAXX 09004 62440 32960 02303 10101 20080 40203 57004
AAXX 09004 62463 32960 03012 10146 20045 40186 57004
AAXX 09004 62465 32960 03309 10178 20090 40172 57003
AAXX 09004 62419 NIL
AAXX 09004 62357 32560 50000 10128 20101 40207 54000 85500
AAXX 09004 62403 32960 00000 10116 20053 40198 57009
AAXX 09004 62423 32960 00000 10120 20058 40225 57006
AAXX 09004 48307 31556 40000 10197 20188 39759 40146 51006 71011 82556 333 20192 59002
AAXX 09004 48458 12560 80000 10223 20196 30058 40140 52022 60044 82536 333 20223 58019
AAXX 09004 48474 31557 70000 10238 20225 39985 40109 52015 71022 81556 333 20232 58004
AAXX 09004 62305 32960 02708 10093 20076 40231 57004
AAXX 09004 62306 32960 02710 10132 20087 40216 57002
AAXX 09004 62318 32560 43207 10168 20095 40198 57001 84800
AAXX 09004 62337 NIL
AAXX 09004 62366 32960 01302 10139 20092 40210 57002
AAXX 09004 62393 32960 03205 10100 20057 40218 58003
AAXX 09004 62405 32960 00000 10114 20072 40186 57006
AAXX 09004 62414 32960 00108 10130 20021 40195 57006
AAXX 09004 62417 32960 42202 10120 20073 40219 57004 84030
AAXX 09004 62440 32960 02303 10101 20080 40203 57004
AAXX 09004 62463 32960 03012 10146 20045 40186 57004
AAXX 09004 62465 32960 03309 10178 20090 40172 57003
AAXX 09004 62419 NIL
AAXX 09004 71925 11259 23215 11282 21311 30107 40150 56005 69901 73870 82600 333 11235 21283 42019 79999 90931
AAXX 09004 89628 46/// /3232 4//// 5////
AAXX 09004 65306 NIL
AAXX 09004 333 65319 33958 50000 10200 20060 39599 40108 80002 333 0//00 59008 85076
AAXX 09004 65330 31920 50406 10248 20016 39661 40093 70522 80002 333 0//00 59011 85076
AAXX 09004 65335 33960 51804 10215 20139 39877 40100 80002 333 0//00 59009 85076
AAXX 09004 65344 32958 52206 10280 20247 30078 40089 80002 333 0//00 59016 85076
AAXX 09004 61297 32960 73604 10232 20060 3//// 4//// 80002 333 0//00 5//// 87075
AAXX 09004 65306 32960 50000 10230 20040 39785 40117 80002 333 0//00 59007 85076
AAXX 09003 41150 32960 02804 10155 20111 40196 333 58002
AAXX 09001 38838 429// 00503 11016 21033 39599 40297 52009
AAXX 09001 50353 32968 71801 11255 21283 39967 40213 57019 80002 333 06603 92507
AAXX 09001 50557 32970 22205 11194 21238 39932 40265 57023 82032 333 06309 92503
AAXX 09001 50756 31956 02201 11223 21240 39972 40301 57011 70400 333 05851 92507
AAXX 09001 50949 32965 02503 11184 21230 30145 40332 57003 333 05600
AAXX 09001 50963 32960 02503 11191 21217 30160 40311 57003 333 05503 92500
AAXX 09001 50978 32975 02507 11158 21230 39897 40273 54000 333 05604
AAXX 09001 51087 32980 00000 11164 21188 39403 40462 57008 333 05302 31003 92522
AAXX 09001 51156 32980 03202 11090 21175 38844 40436 57008 333 05104 92504
AAXX 09001 51644 32960 00201 11083 21104 39089 40416 54000 333 05152
AAXX 09001 51656 32770 70902 11011 21077 39273 40412 52003 85502 333 00004
AAXX 09001 51886 32980 30201 11155 21211 37159 57002 80002 333 05151
AAXX 09001 52602 32980 03402 11190 21307 37313 52005 333 05153
AAXX 09001 52713 32980 10000 11164 21233 36940 52002 80002 333 05151
AAXX 09001 52754 32980 03601 11185 21278 36811 52005 333 05153
AAXX 09001 52818 32980 32201 11105 21189 37283 57001 80002 333 05151
AAXX 09001 52836 32980 61402 11143 21214 36933 52002 80002 333 05152
AAXX 09001 52955 32980 01402 11172 21215 37002 52005 333 05151
AAXX 09001 53068 32980 02201 11261 21291 39235 40528 52001 333 05251
AAXX 09001 53276 32980 02503 11220 21249 39011 40516 52003 333 05200
AAXX 09001 54135 32975 02703 11184 21227 30125 40370 57001 333 05453
AAXX 09001 54236 32962 02902 11149 21207 30257 40372 57001 333 05200
AAXX 09001 54539 32970 02701 11080 21155 30378 40394 52003 333 00051 31029 92502
AAXX 09001 54662 32975 00206 11080 21144 30248 40371 52008 333 00200
AAXX 09001 54753 32562 73606 11018 21079 30360 40367 52003 874// 333 00251 31023 70001
AAXX 09001 54857 11650 83405 11033 21043 30274 40372 52003 69901 78500 884// 333 00353 31005 70007 92502
AAXX 09001 57067 32970 01801 11066 21087 39702 40424 52009 333 00055
AAXX 09001 57178 32961 00201 11012 21063 30247 40415 52012 333 00253 31003
AAXX 09001 57245 32960 71801 10021 20005 30019 40384 52017 8703/ 333 00053 30007
AAXX 09001 57297 32960 00202 11018 21075 30259 40408 52013 333 00355 31022
AAXX 09001 78310 12504 60504 10224 20200 30166 40177 51009 60001 84830 333 10246 20205 31/// 56990 58011 70105 83820 92033
AAXX 09001 78315 12/64 10000 10196 20176 30110 40176 53015 60001 81500 333 10247 20196 30/// 56900 58019 70022 816//
AAXX 09001 78318 12465 51002 10212 20184 30175 40179 53010 60001 85800 333 10233 20210 31/// 56900 58020 70081 82818 83620
AAXX 09001 78322 12956 03501 10198 20169 30166 40184 53014 60001 333 10268 20168 30/// 58021
AAXX 09001 78324 12400 50305 10238 20182 30155 40166 52012 60001 85800 333 10258 20207 30/// 56800 58017 82816 85620 555 10203
AAXX 09001 78325 11530 70203 10208 20160 30126 40185 52010 60001 70422 874// 333 10235 20201 30/// 56899 58022 82820 85621 555 10202
AAXX 09001 78328 01462 70206 10221 20184 30176 40181 53007 69901 70282 878// 333 10239 20213 30/// 56199 58021 69907 79999 84817 87620 92427 555 10303
AAXX 09001 78333 12/10 13604 10214 20186 30157 40164 53016 60001 81030 333 10277 20176 30/// 56090 58016 813//
AAXX 09001 78344 NIL
AAXX 09001 78345 01565 30202 10233 20225 30149 40153 53013 60041 70281 83800 333 10277 20185 32/// 56900 58009 60047 70039 81820
AAXX 09001 78348 11550 70203 10235 20217 30110 40163 53011 69921 70582 87800 333 10259 20197 31/// 56100 57885 58010 70017 83820 85630 555 10502
AAXX 09001 78349 01450 73401 10220 20215 30053 40163 53012 60021 70286 878// 333 10279 20196 31/// 56899 58008 69936 70015 82819 87625 555 13603
AAXX 09001 78351 01550 73501 10236 20228 30126 40128 53004 60261 72161 878// 333 10300 20207 31/// 56999 59009 60117 70282 81823 87630
AAXX 09001 78353 12560 40401 10244 20225 30135 40157 53005 60001 84800 333 10268 20220 31/// 50424 56900 58012 70325 83820
AAXX 09001 78355 11560 10202 10236 20226 30016 40157 53016 60141 70261 81800 333 10262 20210 31/// 56900 58011 70203 81820
AAXX 09001 78358 01530 40504 10255 20233 30127 40142 52012 69921 72580 84200 333 10291 20204 30/// 56900 58007 69927 70004 84823
AAXX 09001 78360 12561 40101 10255 20231 30130 40142 53015 60001 84800 333 10299 20221 30/// 56900 57889 58010 70016 82820 92011
AAXX 09001 78363 01858 70000 10226 20213 30016 40132 53031 60291 76196 8702/ 333 10284 20204 32/// 56099 58014 60297 70285 87458
AAXX 09001 78365 12550 40907 10268 20228 30146 40151 53016 60001 84963 333 10281 20246 31/// 56299 57953 58009 70012 83820 819// 92035 555 10903
AAXX 09001 78369 NIL
BBXX 46221 09001 99339 71186 46/// ///// 1//// 92345 22200 00152 10701 20701 321// 41301 70007
AAXX 09001 91945 36/// /3112 10294 20219 30088 40093 56024 333 20219 59031
BBXX 42363 09001 99282 70892 46/// /0504 10150 20072 40241 90015 333 91204
BBXX 42364 09001 99291 70881 46/// /0303 10122 20067 40247 90015
BBXX 41115 09001 99184 70673 46/// ///// 1//// 90005 22200 11103 21002 302// 41101 70013
BBXX 41114 09001 99276 70802 46/// ///// 1//// 90016 22200 00234 10902 20902 307// 41201 70011
AAXX 09004 41288 36/// /0914 10233 20148 30143 40167 333 0E023 58012
BBXX DPMT 09004 99409 70122 41498 32107 10145 20095 40275 54000 70100 81245 22254 20301 333// 40803 80117
BBXX 62081 09004 99510 70134 46/// ///// 10091 20021 40162 52005 22200 00121 10911 70055
BBXX 62442 09004 99490 70164 46/// /3316 1//// 2//// 40198 52002 22200 00132
BBXX 62029 09004 99487 70125 46/// /3312 10105 20041 40182 50006 22200 00137 10911 70053
BBXX 62163 09004 99475 70084 46/// /2522 10128 20100 40176 58003 22200 00134 10910 70051 333 90710 91129
BBXX 62105 09004 99554 70122 46/// /3025 10075 20010 40048 51024 22200 00111 10911 70057 333 90710 91141
BBXX 62001 09004 99452 70050 46/// /2620 10149 20120 40224 58007 22200 00151 10707 70033 333 90710 91125
BBXX 64046 09004 99606 70049 46/// /3442 10037 20000 49846 52061 22200 00096 11018 70090
BBXX 62301 09004 99524 70047 46/// /2825 10074 20016 40078 51026 22200 00112 10606 70032 333 90710 91136
BBXX 62303 09004 99516 70051 46/// /2824 10089 20031 40104 51021 22200 00120 10606 70031 333 90710 91135
BBXX 64045 09004 99591 70117 46/// /0217 10051 21023 49974 51025 22200 00103 10914 70069 333 90710 91126
BBXX AMOUK06 09004 99507 70014 46/// ///// 10091 20035 30069 40084 52023 92350
BBXX AMOUK09 09004 99524 10018 46/// ///// 10070 20013 39992 40008 52017 92350
BBXX AMOUK11 09004 99533 70051 46/// ///// 10062 21003 30007 40053 52019 92350
BBXX AMOUK05 09004 99537 70003 46/// ///// 10057 20002 39919 49958 52016 92350
BBXX AMOUK27 09004 99582 70064 46/// ///// 1//// 2//// 39921 49923 52070 92350
BBXX AMOUK08 09004 99501 70061 46/// ///// 10102 20043 30132 40136 52021 92350
BBXX AMOUK19 09004 99571 70021 46/// ///// 10047 2//// 39828 49832 52115 92350
BBXX 63056 09004 99597 10016 47498 /3410 10070 20037 49584 53010 700// 22200 10912 70059
BBXX 63057 09004 99592 10015 47497 /3021 10069 20034 49591 53013 700// 22200 11012 70059
BBXX 62111 09004 99580 70003 46/// /3358 10052 20036 49725 52107 22200 10815 70073
BBXX PJAI 09004 99581 70014 47495 /3140 10072 20014 49758 52143 710// 22200
BBXX 62128 09004 99587 10014 47598 /2827 10069 20036 49622 53030 762// 22200 10911 70057
BBXX 62112 09004 99584 70002 47995 /3147 10054 20032 49669 53068 751// 22200
BBXX 63055 09004 99606 10016 47998 /0107 10068 20039 49609 53013 751// 22200 10910 70050
BBXX 63108 09004 99608 10017 47998 /0206 10061 20030 49608 53008 700// 22200 11011 70054
BBXX 63106 09004 99610 10017 46/// /0727 10061 49623 51004 22200
BBXX 63105 09004 99610 10017 47497 ///// 10052 20042 49630 52009 751// 22200
BBXX 63113 09004 99610 10017 46/// /0825 10070 20037 49618 52003 22200 10911 70056
BBXX 63112 09004 99611 10010 47/98 /0620 10068 20032 49630 52019 700// 22200 10912 70060
BBXX 63107 09004 99611 10017 46/// /0729 10054 49622 52003 22200
BBXX 63101 09004 99612 10009 46/// /0823 10061 20039 49642 52021 22200
BBXX 63103 09004 99612 10011 46/// /0824 10066 20031 49636 52018 22200 10911 70057
BBXX 63104 09004 99612 10016 47395 /0828 10048 20037 49635 53010 762// 22200
BBXX 63117 09004 99613 10011 47498 /0925 10057 20025 49644 52016 700// 22200
BBXX 63115 09004 99616 10013 47496 /0822 10061 20040 49655 53010 762// 22200 10912 70059
BBXX MWYG6 09004 99603 70040 47997 /3348 10042 700// 22200
BBXX 64041 09004 99607 70026 47996 /3246 10026 21000 49761 52081 700// 22200 11016 70080
BBXX 62164 09004 99572 10008 47496 /3246 10069 20039 49707 53068 751// 22200 00100 10815 70073
BBXX PJGO 09004 99571 10022 47196 /2834 10071 20049 49679 53001 704// 22200
BBXX 62133 09004 99571 10009 46/// /2953 10066 20018 49701 53066 22200 10916 70078
BBXX 62119 09004 99570 10019 47496 /3051 10066 20036 49713 53016 710// 22200 11020 70099
BBXX 62152 09004 99570 10018 47/95 /2937 10063 20045 49711 53014 761// 22200 10919 70096
BBXX 62154 09004 99564 10022 46/// ///// 10052 20040 49729 55001 22200
BBXX 62120 09004 99564 10021 47494 /2853 10045 20045 49722 53015 752// 22200
BBXX 62132 09004 99564 10020 46/// /2949 10048 20047 49801 53051 22200
BBXX 62123 09004 99563 10022 47494 /2757 10053 20042 49715 53006 763// 22200
BBXX 62165 09004 99540 10009 47997 /2727 10068 21001 49937 53018 700// 22200 10709 70045
BBXX 62127 09004 99540 10007 47998 ///// 10066 21002 49928 52010 700// 22200 10607 70036
BBXX 62131 09004 99539 10012 46/// /26// 10071 20006 49933 52012 22200
BBXX 62149 09004 99537 10011 47698 /2639 10069 20013 49955 53008 700// 22200 10607 70035
BBXX 62148 09004 99536 10015 46/// /2519 10067 20002 49975 53011 22200
BBXX 62150 09004 99536 10007 47998 /2632 10064 20004 49966 52011 700// 22200 10505 70027
BBXX 62121 09004 99535 10027 46/// /2642 10072 21005 49953 53003 22200
BBXX 62144 09004 99534 10017 47997 /2639 10067 21001 49997 53016 700// 22200 10608 70040
BBXX 62145 09004 99531 10028 47697 /2539 10074 21006 49986 53018 700// 22200 10608 70041
BBXX 62142 09004 99530 10021 46697 /2737 10073 20008 49976 52009 22200 10606 70032
BBXX 62129 09004 99584 10003 46/// ///// 10061 20035 49637 52044 22200
BBXX 62113 09004 99584 10002 47395 /3340 10068 20035 49635 52037 751// 22200
BBXX ZQSD5 09004 99583 10007 46/// /3033 10067 20036 49640 53045 22200 11116 70078
BBXX 62114 09004 99583 10000 46/// /3156 10057 20032 49663 53068 22200
BBXX 62134 09004 99580 10014 47496 /3024 10068 20031 49632 53029 751// 22200 10911 70056
BBXX 62102 09004 99579 10018 46/// /2829 10069 20033 49623 53024 22200 10913 70063
BBXX 62117 09004 99579 10000 47493 /3158 10063 20042 49683 52078 762// 22200 10812 70058
BBXX 62143 09004 99577 10018 47497 /3028 10066 20033 49661 53033 700// 22200 11014 70072
BBXX 62118 09004 99577 10009 47995 /2948 10066 20044 49653 52050 762// 22200 10913 70064
BBXX 62155 09004 99577 10007 47493 /3055 10061 20055 49666 53045 762// 22200 10814 70071
BBXX 62116 09004 99576 10011 47496 /3047 10067 20040 49633 52028 710// 22200 10914 70069
BBXX 62104 09004 99574 10013 47196 /2953 10072 20041 49644 53029 762// 22200
BBXX 62153 09004 99573 10020 47496 /2723 10058 20056 49649 53013 700// 22200 11018 70090
BBXX 62122 09004 99573 10016 47596 /2852 10066 20037 49648 56011 700// 22200 11016 70082
BBXX 62140 09004 99573 10013 46/// /30// 10065 20034 49638 53029 22200
BBXX 62146 09004 99572 10021 47/96 /2707 10065 20037 49684 55002 704// 22200 11017 70087
BBXX AMOUK14 09004 99535 70030 46/// ///// 10070 20016 39975 40013 52020 92350
BBXX 62170 09004 99514 10020 46/97 /2935 10095 20035 40046 52029 22200 00123 10604 70020 333 90710 91152
BBXX 62304 09004 99511 10018 46/98 /2831 10102 20035 40053 52023 22200 00125 10704 70021 333 90710 91142
BBXX 62305 09004 99504 10000 46/97 /2933 10109 20047 40091 51021 22200 00132 10806 70032 333 90710 91149
BBXX PCEO 09003 99496 70042 41/98 82725 10118 20064 40134 50000 7//// 8//// 22223 04131 21204 80090
BBXX ZCDD6 09003 99438 10138 41298 31723 10130 20130 40233 51015 70222 8/7// 22235 00160 20201 3//// 4//// 5//// 80130
BBXX DFRZ 09003 99374 70329 41598 70000 10190 20159 40280 50010 70122 84266 22254 2//// 399// 4//// 80170
BBXX 62103 09004 99499 70029 46/98 /2932 10114 20043 40108 51020 22200 00134 10806 70028 333 90710 91139
BBXX 62092 09004 99512 70105 46/// /2922 10091 20020 40140 52010 22200 00120 10912 70060 333 90710 91132
BBXX 62095 09004 99530 70159 46/// /2918 10076 20037 40146 52014 22200 00118 10912 70058 333 90710 91133
BBXX 62094 09004 99517 70067 46/// /2722 10079 20079 40110 52012 22200 00115 10606 70031
BBXX 62107 09004 99501 70061 46/// /3127 10097 20029 40139 51017 22200 00123 10908 70040 333 90710 91136
BBXX PHBO 09003 99467 70110 41298 82322 10145 20117 40186 51009 70222 86720 22254 20708 324//
BBXX 62094 09004 99517 70067 46/// /2622 10079 20079 40110 52012 22200 00115 10606 70031 333 90710 91137
BBXX JPBN 09004 99330 11482 41/97 72721 10193 20135 40022 54000 70282 872// 22251 00218 10905 20503 32430 40804 50802 70024
BBXX JGQH 09004 99279 11370 41/97 73119 10206 20123 40159 53021 70222 82230 22200 00237 10705 20604 335// 40803 70027
BBXX JPBN 09004 99330 11482 41/97 72721 10193 20135 40022 54000 70282 872// 22251 00218 10905 20503 32430 40804 50802 70024
AAXX 09004 40582 31958 02103 10038 21005 40201 55002 70500 333 00002 55300 00000 10175 20000 30000 40997 51172 60000 55407 40000 90467 91001 91111 91209 91303
AAXX 09004 41150 NIL
AAXX 09004 41168 NIL
AAXX 09004 41170 32960 02905 10166 20098 30184 40197 333 58001
AAXX 09004 41176 NIL
AAXX 09004 41184 NIL
AAXX 09004 41194 NIL
AAXX 09004 41196 NIL
AAXX 09004 41198 NIL
AAXX 09004 41210 NIL
AAXX 09004 41216 NIL
AAXX 09004 41217 NIL
AAXX 09004 41218 NIL
AAXX 09004 41226 NIL
AAXX 09004 41244 36/// /0504 10164 20062 39827 48118 333 0E016 58002
AAXX 09004 41246 32960 02403 10176 20092 30174 40179 333 58018
AAXX 09004 41254 36/// /3008 10060 21051 38002 48007 333 0E004 59009
AAXX 09004 41256 32560 21902 10176 20087 30170 40180 824// 333 58019 82625
AAXX 09004 41258 36/// /2505 10217 20070 30168 40172 333 0E/// 58020
AAXX 09004 41268 36/// /3307 10222 20092 30150 48124 333 0E022 58012
AAXX 09004 41312 NIL
AAXX 09004 41314 32960 02305 10114 21055 39676 40200 333 59002
AAXX 09004 41316 NIL
AAXX 09004 41404 12960 01602 10067 21063 37870 48541 60002 333 59011
AAXX 09004 41407 NIL
AAXX 09004 41431 12960 00000 10238 20222 30098 40111 60002 333 59011
AAXX 09004 41466 NIL
AAXX 09004 41477 NIL
AAXX 09004 41480 12660 41011 10261 20189 30134 40137 60002 84500 333 59008 84630
AAXX 09001 38388 42998 00000 11072 21097 30181 40255 57012 555 14107
AAXX 09001 38392 41294 81103 11076 21081 30169 40279 57007 71022 886// 333 88704 555 14106
AAXX 09001 38507 42996 01002 11022 21061 30069 40175 57014 555 10104
AAXX 09001 38511 42998 70905 11046 21052 30076 40224 57016 87070 555 14103
AAXX 09001 38545 41/93 90000 11034 21042 30090 40274 57003 74542 555 14102
AAXX 09001 38647 42997 00912 10016 21009 30137 40180 57008 555 10101
AAXX 09001 38656 42598 80903 11002 21023 30119 40232 57017 885// 555 10100
AAXX 09001 38687 41292 81603 11032 21036 30020 40266 57010 71042 886// 333 88703 555 14102
AAXX 09001 38750 42997 00902 10009 21005 30186 40157 57008 555 10000
AAXX 09001 38763 42597 71007 10020 21008 30083 40190 57014 87500 333 87623 555 10001
AAXX 09001 38774 41495 81402 10014 21003 30025 40226 53002 71022 886// 555 11002
AAXX 09001 38799 42597 80905 11004 21010 30016 40257 57009 885// 555 10001
AAXX 09001 38806 41596 81404 11019 21027 39996 40267 57001 71011 886// 555 11102
AAXX 09001 38880 42497 81103 10013 21016 39958 40220 57008 886// 333 88710 555 11002
AAXX 09001 38886 41596 81701 10013 21007 39997 40232 57012 71022 8852/ 555 11002
AAXX 09001 38895 42596 81203 10010 20005 39945 40244 57011 886// 555 11002
AAXX 09001 38911 42497 83402 11024 21033 39955 40263 57007 885// 555 12100
AAXX 09001 38915 42597 81802 10000 21005 39931 40266 56003 885// 555 11001
AAXX 09001 38974 42998 81402 10015 20007 39877 40221 57015 8802/ 555 12003
AAXX 09001 38987 41996 00000 11017 21020 39481 40252 57006 70240 555 14101
AAXX 09004 83550 315// 5//// 10248 20229 30084 40113 70210 83240 333 10302 29083 55048 59019
AAXX 09004 83698 21/// 80000 10242 20228 30098 40112 51016 75166 887// 333 10326 29081 55/// 60021
AAXX 09004 83738 21/// 81404 10214 20207 39614 40106 52004 70260 887// 333 10310 29084 55035 60361
BBXX 51205 09001 99210 71564 46/// ///// 1//// 90018 22200 00245 11805 20904 332// 41804 70027
BBXX 46114 09001 99364 71222 46/// ///// 1//// 90004 22200 00113 11302 21002 328// 41302 70011
BBXX 46088 09001 99483 71232 46/// /0104 10048 40302 90020 22200 00082 1//00 70001 333 91205 555 11039 22040 32342 43407 60019 007036 352040 354048 344051 347040 357035
BBXX 44098 09001 99428 70702 46/// ///// 1//// 90007 22200 00097 11303 20503 314// 41302 70015
BBXX 44022 09001 99409 70737 46/// ///04 10059 21023 90015 22200 00104 333 91205 555 11041 22041
BBXX 51203 09001 99208 71570 46/// ///// 1//// 90013 22200 00252 11702 20801 327// 41701 70008
BBXX 52200 09001 99134 11448 46/// ///// 1//// 90015 22200 00288 10903 20903 308// 41101 70016
BBXX 51201 09001 99217 71581 46/// ///// 1//// 90012 22200 00246 11705 21003 331// 41704 70024
AAXX 09001 89062 46/// /0217 10005 21015 39692 49732 57010 333 10029 21002
AAXX 09001 28383 42997 01802 11162 21168 30310 40402 52001
AAXX 09001 28696 42997 00000 11198 21217 30275 40429 57003
AAXX 09001 23929 42978 82002 11069 21102 30256 40326 52008 82031
AAXX 09001 23412 42599 81803 11030 21064 30143 40243 52009 885// 333 88624
AAXX 09001 28588 42998 00000 11209 21228 30250 40426 57003
BBXX SHIP 09004 99064 30963 41397 83311 10264 20241 40076 52017 79196 85220 22233 06286 11205 20201 327// 40803
AAXX 09001 28586 42997 30000 11194 21213 30257 40421 57007 80001
AAXX 09001 22282 429// 82407 11006 21027 30143 40151 52013 8805/
AAXX 09001 28688 42997 00000 11202 21221 30246 40423 57004
AAXX 09001 28465 42998 01903 11166 21179 30311 40395 52002
AAXX 09001 28791 42998 00302 11199 21218 30262 40422 57005
AAXX 09001 38847 ///// /2900 11012 21021 39470 40260
AAXX 09001 22165 42598 61706 11006 21024 30072 40134 52014 86500
AAXX 09001 22438 42570 71806 11007 21022 30125 40147 51002 87500
AAXX 09001 29998 32999 81701 11184 21184 38776 48615 57004 85072 333 21239 55000
AAXX 09001 30385 11999 60000 11280 21292 39659 40246 57005 69932 70272 85031 333 21292 55047
AAXX 09001 30469 12999 10000 11362 21378 39500 40371 56024 69902 80002 333 21362 47015 55060
AAXX 09001 30636 119// 80000 11223 21230 39709 40373 57001 60032 77177 8805/ 333 21237 47020 55018
AAXX 09001 30650 11999 52102 11165 21184 39147 40329 57004 69932 70173 83041 333 21264 47007
AAXX 09001 30664 32999 83601 11207 21213 39245 40306 57006 8802/ 333 21312 55070
AAXX 09001 30781 32999 50000 11307 21324 39773 40302 57018 82041 333 21322
AAXX 09001 30777 11998 72701 11264 21289 39607 40328 57017 69902 70172 87070 333 21287 47008 55059
AAXX 09001 30844 11998 82702 11152 21158 39348 40383 57014 60012 77172 8802/ 333 21253 47009
AAXX 09001 30925 11897 81903 11165 21184 39395 40437 57008 69902 70272 86031 333 21196 47997 55069
AAXX 09001 31371 32999 82902 11155 21206 39914 40191 57022 8801/ 333 21180 55073
AAXX 09001 31388 32999 50000 11307 21318 39916 40210 58015 80001 333 21311 47005 55063
AAXX 09001 31478 NIL
AAXX 09001 31532 32999 20000 11318 21334 39865 40251 57007 80001 333 21335 47015 55076
AAXX 09001 31594 32998 81401 11229 21242 30040 40226 57016 80001 333 21302 47019
AAXX 09001 31655 32998 42002 11192 21218 30134 40185 57010 80001 333 21221 47018
AAXX 09001 31754 32999 20000 11313 21336 39688 40250 57008 80001 333 21345
AAXX 09004 67002 31580 61203 10245 20232 30062 40096 70282 86850 333 0//00 59001 81822 83630 85360 924/7
AAXX 09004 67009 NIL
AAXX 09004 67012 NIL
AAXX 09004 67025 NIL
AAXX 09004 67027 31580 30806 10249 20231 30068 40089 58010 71790 82932 333 0//00 81920 82820 94961 95831 555 82360 81073
AAXX 09004 67072 NIL
AAXX 09004 67073 NIL
AAXX 09004 67083 12470 60000 10168 20163 38721 48495 58010 60021 86800 333 0//15 81817 86620
AAXX 09004 67095 31470 70000 10240 20231 30097 40103 57007 71522 878// 333 0//00 83817 87633
AAXX 09004 67113 NIL
AAXX 09004 67117 NIL
AAXX 09004 67137 NIL
AAXX 09004 67157 NIL
AAXX 09004 67197 12480 60808 10244 20232 30086 40096 56004 69941 86800 333 0//14 83817 84633
AAXX 09001 60373 36/// /1603 10125 20124
AAXX 09001 60623 36/// /0000 10125 21081
AAXX 09001 60393 36/// /1401 10102 20090
AAXX 09001 08521 32470 30102 10178 20129 30180 40256 57005 83800 333 83816
AAXX 09004 78988 02484 61010 10275 20232 30099 40109 52013 60001 81270 333 10294 20239 58009 60007 70007 81816 86360
AAXX 09004 78990 02475 40807 10267 20210 40114 52014 60001 82230 333 10302 20246 58007 60007 82818 84360
AAXX 09004 78873 NIL
AAXX 09001 08521 32470 30102 10178 20129 30180 40256 57005 83800 333 83816 555 60007
AAXX 09004 67023 NIL
AAXX 09004 67131 NIL
AAXX 09001 26313 43/// /1805 10012 20000 30079 40086 57017
BBXX SHIP 09004 99373 11666 41/97 71321 10180 20131 40080 57016 70222 874// 92355 22224 00190 1//// 20204 313// 40506 5//// 6//// 80150
BBXX SHIP 09004 99276 11639 41397 32214 10265 20245 40158 58002 70161 83200 22263 06247 20202 327// 40503 80250
BBXX SHIP 09004 99300 11287 41398 73439 10130 20074 40213 50005 70222 877// 22284 00245 20610 335// 40711 80100
BBXX DCTA2 09000 99307 11537 41597 62314 10220 20206 40090 53010 70222 85465 22224 04210 20606 32626 40708 50607 80210
BBXX SHIP 09004 99244 11414 41597 32313 10252 40149 52015 70300 8314/ 9//// 22272 00263 20101 32104 40402 50802
BBXX SHIP 09004 99188 11328 41398 50514 10270 20243 40115 52021 70111 82331 22283 00284 20403 307// 40607 5//// 80250
BBXX PHJV 09003 99170 31469 41598 31309 10315 20272 40079 50006 70311 83185 22243 06302 20101 331// 40101 80282
BBXX SHIP 09004 99261 30865 41498 61216 10230 20170 40152 54000 70122 8589/ 22223 00214 20504 308// 40807 80190
BBXX SHIP 09004 99261 30865 41498 61216 10230 20170 40152 54000 70122 8589/ 22223 00214 20504 308// 40807 80190
AAXX 09001 14216 NIL
AAXX 09001 14219 NIL
AAXX 09001 14232 NIL
AAXX 09001 14234 NIL
AAXX 09001 14236 NIL
AAXX 09001 14244 NIL
AAXX 09001 14248 NIL
AAXX 09001 14253 NIL
AAXX 09001 14256 12970 02304 10019 21054 39928 40256 56007 60001
AAXX 09001 14280 12960 12002 11001 21014 30147 40261 58007 60001 80001
AAXX 09001 14308 NIL
AAXX 09001 14321 NIL
AAXX 09001 14370 12960 20601 11004 21026 30148 40262 58007 60001 80001
AAXX 09001 14382 12965 12103 10019 21032 30144 40268 58011 60001 80001
AAXX 09001 14428 NIL
AAXX 09001 14441 NIL
AAXX 09001 14452 NIL
AAXX 09001 14454 NIL
AAXX 09001 14462 NIL
AAXX 09001 21432 31396 82501 11253 21277 30153 40174 53007 71011 886// 333 21253 48007
AAXX 09001 21824 32998 21902 11276 21290 30168 40178 58002 82030 333 21284 48003
AAXX 09001 21908 32999 30000 11401 21421 30098 40190 53005 80001 333 21415 55000
AAXX 09001 21921 32999 30000 11370 21397 30143 40193 53005 83030 333 21393 48033
AAXX 09001 21931 12998 32302 11251 21275 30133 40167 58005 69902 83030 333 21254 48019
AAXX 09001 21946 11397 82502 11263 21287 30044 40129 56001 69940 77172 8663/ 333 21251 47025 86708
AAXX 09001 21982 41695 83615 11153 21180 30019 40047 57006 73832 83531 333 91118
AAXX 09001 25062 41596 82905 11188 21207 30088 40092 54000 77073 885// 333 91108
AAXX 09001 25123 11496 81302 11330 21360 30112 40148 58003 70271 84531 333 21327 47021 84615
AAXX 09001 25138 32699 60000 11405 21432 30023 40162 58001 82531 333 21391 47020 55000 91102
AAXX 09001 25173 41293 83011 11188 21194 30057 40062 53002 77373 8872/ 333 91117
AAXX 09001 25248 11596 83202 11280 21304 39643 40128 52002 69930 77372 8452/ 333 21339 47028 91103
AAXX 09001 25282 41/20 93212 11137 21143 39991 49997 54000 73833 333 91116 92982
AAXX 09001 25325 NIL
AAXX 09001 25356 42599 83204 11182 21232 39940 40043 53001 8355/ 333 91006
AAXX 09001 25399 41426 83401 11070 21083 39905 49914 52006 77372 8872/ 333 91105
AAXX 09001 25428 11945 70000 11426 21455 39789 40174 57004 69900 71072 82031 333 21425 47027 55000 91100
AAXX 09001 25551 41996 82901 11174 21200 30014 40046 52002 77172 86037 333 91103
AAXX 09001 25563 41560 73107 11156 21175 39929 40009 52008 70272 86530 333 91109
AAXX 09001 25594 41596 83306 11040 21040 39850 49900 52019 77173 8552/ 333 91109
AAXX 09001 25677 41496 83006 11119 21125 39992 49998 52019 78583 8637/ 333 84713 91110
AAXX 09001 31054 11999 80000 11293 21324 39913 40211 57022 69992 77172 8802/ 333 21312 47029 55000
AAXX 09001 31123 11597 81901 11295 21333 39893 40254 58014 69901 77172 86507 333 21308 47017
AAXX 09004 93800 16/// /2609 10173 20102 40261 52017 60004 333 70000
AAXX 09004 93805 16/// /2306 10140 20083 40267 52012 60004 333 70000
AAXX 09004 61600 32960 03604 10206 20156 30125 40130 333 59002
AAXX 09004 61612 NIL
AAXX 09004 61627 31956 00404 10195 20041 3//// 4//// 706// 333 0//00 5////
AAXX 09004 61630 32960 00000 10238 20070 30101 40120 333 0//00 59011
AAXX 09004 61641 32958 03609 10236 20210 30092 40125 333 0//00 58008
AAXX 09004 61666 NIL
AAXX 09004 61679 32958 00000 10238 20140 30116 40124 333 0//00 58000
AAXX 09004 61687 32960 03604 10224 20096 30059 40116 333 0//00 58000
AAXX 09004 61695 32957 00000 10209 20185 30090 40116 333 0//00 58006
AAXX 09004 61697 32960 00000 10216 20202 30100 40114 333 0//00 58000
AAXX 09004 61698 NIL
AAXX 09004 61699 NIL
AAXX 09004 65528 NIL
AAXX 09004 65536 NIL
AAXX 09004 65545 32940 0//// 10217 20166 39681 40104 333 59016
AAXX 09004 65548 NIL
AAXX 09004 65555 NIL
AAXX 09004 65557 32958 0//// 10238 20226 39878 40117 333 59001
AAXX 09004 65560 NIL
AAXX 09004 65562 32958 0//// 10240 20218 3//// 4//// 333 5////
AAXX 09004 65563 32458 20000 10200 20200 39864 40105 82530 333 59013 82610
AAXX 09004 65578 32458 72206 10275 20254 30/// 40/// 84830 333 5//// 81812 83620 85360 94905
AAXX 09004 65585 32458 4//// 10260 20238 3//// 4//// 83570 333 5//// 83613 83360
AAXX 09004 65592 32460 8//// 10264 20244 30068 40090 885// 333 59024 88613
AAXX 09004 65594 32460 71602 10238 20242 30075 40109 84230 333 59011 84613 85360 94906
AAXX 09004 65599 NIL
BBXX 46147 09001 99518 71312 46/// /2605 10068 40316 57007 22200 00084 12004 70018 333 91206
AAXX 09003 64800 NIL
AAXX 09003 64820 NIL
AAXX 09003 64860 32960 60000 10215 20019 39829 40095 80002 333 0//00 59009 86080
AAXX 09003 64861 NIL
AAXX 09003 64870 32960 50000 10132 20034 38903 48502 80002 333 0//00 59011 85080
AAXX 09003 64871 NIL
AAXX 09003 64892 NIL
AAXX 09003 64893 NIL
AAXX 09003 64894 NIL
AAXX 09004 64910 31460 50000 10265 20254 30089 40098 71799 85900 333 0//00 59013 85616 81920 94947 95837
AAXX 09004 64911 NIL
AAXX 09004 64950 NIL
AAXX 09001 48803 31456 80000 10166 20156 30119 40235 52016 71022 888// 333 00017 20166 3/017 58050 83894 8869 6
AAXX 09001 25703 11998 80000 11354 21383 39877 40179 57010 69920 77172 82037 333 21387 47020 55000
AAXX 09001 25745 11599 80704 11159 21193 39989 40042 54000 69900 70232 885// 333 21179 47011 55000
AAXX 09001 25913 32699 70703 11168 21227 39906 40061 57001 82531 333 21180 48020 55042
AAXX 09001 25954 32699 83605 11154 21214 39887 40005 52001 8753/ 333 21204 48030 55054
AAXX 09001 25956 32598 80605 11101 21129 39984 49990 52010 885// 333 21126 44017 55049
AAXX 09001 31088 32999 20203 11186 21235 30075 40083 57007 82040 333 21184 41997 55053
AAXX 09001 31873 32998 02503 11196 21225 30115 40260 54001 333 21245 47011
AAXX 09001 31909 32999 03006 11132 21226 30114 40197 54000 333 21151 44019 55077 91013 91113
AAXX 09001 31960 32998 03610 11143 21214 30015 40266 53011 333 21149 41998 55073 91015 91117
AAXX 09001 31961 32997 01001 11236 21262 30227 40278 52004 333 21258 42004 55081
AAXX 09001 32053 32999 22304 11144 21171 30041 40092 58001 82030 333 21150 47039 91006 91106
AAXX 09001 32061 11596 83406 11095 21125 30077 40117 54000 60010 78583 889// 333 21101 47011 91009 91111
AAXX 09001 32098 32598 23002 11174 21186 30107 40118 53003 82901 333 21181 47024 91003 91104
AAXX 09001 32150 31596 10000 11152 21165 30099 40130 53003 70500 81100 333 21211 47016 55076 91001 91103
AAXX 09001 32165 12598 63108 11029 21115 30051 40113 53006 60010 86900 333 21043 47005 91010 91114
AAXX 09001 32215 31585 32702 11028 21108 39921 49950 57004 72680 82901 333 21080 47041 91003 91105
AAXX 09001 32252 NIL
AAXX 09001 32389 31698 72502 11267 21285 39977 40017 57004 74041 81531 333 21280 43033 55037
AAXX 09001 32477 32999 00802 11169 21203 39927 49960 57003 333 21185 47054 55032
AAXX 09001 32583 32999 73106 11081 21133 39907 49938 57009 87070 333 21114 44034
AAXX 09001 32618 31496 80908 11019 21031 39906 49928 57038 78583 889// 333 21054 44012 55000
AAXX 09001 31909 32999 03006 11132 21226 30114 40197 54000 333 21151 44019 55077 91013 91113
AAXX 09004 41241 36/// /1608 10181 21023 30143 40181 333 0E020 58013
AAXX 09001 31960 32998 03610 11143 21214 30015 40266 53011 333 21149 41998 55073 91015 91117
AAXX 09001 31873 32998 02503 11196 21225 30115 40260 54001 333 21245 47011
AAXX 09004 71217 16/// /3007 11079 21120 60001 333 11063 21186 70000
AAXX 09004 71224 16/// /2705 11097 21145 60001 333 11057 21196 70004
AAXX 09001 31961 32997 01001 11236 21262 30227 40278 52004 333 21258 42004 55081
AAXX 09004 71276 16/// ///04 11173 21195 60001 333 11122 21210 70000
AAXX 09004 71078 15966 03116 11204 21247 39679 40141 51025 60001 333 11189 21204 70000
AAXX 09004 71979 16/// ///// 11044 21070 38523 40213 50002 60001 333 11035 21275 70010
AAXX 09004 71356 16/// /3528 11177 21197 39921 49989 51035 60001 333 11159 21254 70005
AAXX 09004 71332 16/// /2107 11243 21269 30162 40193 58026 60001 333 11237 21264 70005
AAXX 09004 71340 16/// /2201 11153 21180 60001 333 11132 21211 70000
AAXX 09004 71343 16/// /2908 11069 21118 60001 333 11043 21156 70000
AAXX 09004 71189 46/// /2717 11034 21081 6///1 333 11016 21034 7////
AAXX 09004 89002 41592 80932 11069 21077 39502 49555 57015 73833 885// 333 00946 11060 21070 92943 96111
AAXX 09001 26416 43/// /1604 10002 21012 39956 40098 57019
AAXX 09001 50434 11677 72002 11285 21315 39350 40360 57019 69901 77070 875// 333 06209 79999
AAXX 09001 50527 32970 72004 11245 21268 39481 40370 57024 82032 333 06107
AAXX 09001 50603 32980 72504 11239 21272 39624 40382 57022 80002 333 05905
AAXX 09001 50632 32680 72704 11174 21209 39345 40318 57015 86502 333 06006
AAXX 09001 50727 11580 70000 11218 21247 39100 40422 57020 69901 77077 875// 333 05506 79999
AAXX 09001 50915 32970 02503 11243 21284 39340 40450 57005 333 05256 70001
AAXX 09001 51716 32963 70000 11044 21056 39049 40410 57003 82032 333 05101
AAXX 09001 51765 32980 00000 11132 21149 39373 40451 52002 333 00051
AAXX 09001 51777 32965 23201 11099 21138 39312 40422 57007 80002 333 05254
AAXX 09001 51811 11962 72901 11033 21050 38922 40407 57003 69941 77077 8703/ 333 05201 31038 70004 92501
AAXX 09001 51828 11862 71801 11045 21068 38761 40408 57003 69941 77077 82502 333 05251 70004 92500
AAXX 09001 52267 32980 03401 11161 21233 39311 40524 52014 333 00351
AAXX 09001 52323 32980 02703 11205 21239 38371 52005 333 00301 92502
AAXX 09001 52495 32980 63404 11142 21205 38837 40483 52009 80002 333 05105
AAXX 09001 53149 32980 02001 11211 21235 38929 40509 52004 333 05151
AAXX 09001 53192 32975 62701 11301 21330 39030 40545 57002 80002 333 05159
AAXX 09001 53231 11762 70903 11174 21200 38624 52009 69901 77000 83502 333 00003 79999
AAXX 09001 53336 32980 43602 11177 21208 38863 40493 52005 80002 333 05100
AAXX 09001 53391 32980 03203 11205 21225 38613 40497 52003 333 05100
AAXX 09001 53529 32980 20000 11153 21184 38758 40475 52003 80002 333 05201
AAXX 09001 53543 32980 13402 11137 21187 38656 40461 52002 80002 333 05203
AAXX 09001 53723 32968 20000 11118 21147 38794 40463 52007 80002 333 05202
AAXX 09001 54012 11980 22508 11211 21244 39145 40456 57002 69901 70070 80002 333 05152 70002
AAXX 09001 54026 32980 02903 11139 21210 39996 40351 57005 333 05601
AAXX 09001 54027 32980 03203 11117 21210 39740 40379 57001 333 05303
AAXX 09001 54208 32980 02001 11229 21254 38873 40487 57002 333 05153
AAXX 09001 54776 32580 63412 11013 21066 30270 40330 52013 86400 333 00451 31023 79999 91124 91534
AAXX 09001 56004 32680 72702 11164 21235 35834 57001 875// 333 00051
AAXX 09001 56033 32680 60000 11178 21253 36024 54000 81502 333 00053
AAXX 09001 56046 32980 71601 11135 21173 36269 52007 80002 333 00053
AAXX 09001 56193 NIL
AAXX 09001 56196 31958 83601 10053 20032 40337 52009 71000 8807/ 333 00052 30050
AAXX 09001 56287 32975 82202 10060 20021 40335 52001 8807/ 333 05152 70006
AAXX 09001 56684 11560 80403 11003 21024 37953 52003 69901 70060 885// 333 05151 30006 70012
AAXX 09001 56751 32778 22902 10062 20042 38036 52006 82400 333 00055 30022
AAXX 09001 56786 11580 80703 10024 21004 38166 52005 69911 76060 885// 333 00051 30025 70012
AAXX 09001 56977 11470 70701 10161 20153 40175 52011 69901 78000 874// 333 00006 79999
AAXX 09001 57259 32968 20901 11013 21013 40400 52014 80001 333 00052 31006 70001
AAXX 09001 57279 31957 23201 11003 21017 40406 52016 71000 82040 333 00253 31006
AAXX 09001 57348 32875 83603 10076 21001 40348 52007 885// 333 00152 70002
AAXX 09001 57399 32962 03404 11005 21096 40393 52013 333 00457 31018
AAXX 09001 57554 32862 70405 10035 21025 40382 52012 875// 333 00253 30017 70001
AAXX 09001 57793 32766 81402 10044 21018 40358 52011 885// 333 00453 30039 70006
AAXX 09001 58345 32963 03602 10006 21039 40379 52012 333 00656 31013 70005
AAXX 09001 58506 32970 00405 11070 21123 40383 52012 333 00257 31041 70002
AAXX 09001 58813 32662 80403 10051 20007 40330 52010 885// 333 00453 30050 70009
AAXX 09001 58834 11762 80702 10080 20044 40310 52015 69931 70060 885// 333 00655 70089
AAXX 09001 58926 11470 82902 10092 20054 40288 52017 69991 76060 887// 333 00556 70009
AAXX 09001 58944 11460 80206 10095 20057 40289 52024 69911 76060 885// 333 00758 70001
AAXX 09001 59096 11563 80202 10076 20010 40296 52011 69931 70060 885// 333 00455 70003
AAXX 09001 59102 11661 80202 10060 20030 40299 52013 69901 70060 885// 333 00455 79999
AAXX 09001 59278 11568 83604 10117 20047 40270 52014 69921 70060 888// 333 00452 70002
AAXX 09001 59456 32868 70203 10116 20048 40246 52011 875// 333 00352
AAXX 09001 59493 32768 73605 10125 20061 40243 52016 875// 333 00556
AAXX 09001 59658 32763 83603 10130 20052 40231 52017 885// 333 00553
AAXX 09001 59673 32768 73617 10133 20066 40232 52016 875// 333 00454 91121 91536
AAXX 09001 59845 11456 80402 10142 20110 40228 52017 69911 71060 888// 333 00455 70007
BBXX 46145 09001 99544 71324 46/// /2005 10068 40299 57007 22200 00075 11802 70012 333 91206
BBXX 46183 09001 99536 71311 46/// /1407 10055 40309 57006 22200 00078 10401 70006 333 91208
BBXX 46145 09001 99544 71324 46/// /2005 10068 40299 57007 22200 00075 11802 70012 333 91206
BBXX 46183 09001 99536 71311 46/// /1407 10055 40309 57006 22200 00078 10401 70006 333 91208
AAXX 09001 28615 42997 51801 11094 21140 30153 40318 52007 85030
AAXX 09004 71727 11674 12405 11072 21110 39927 40128 51023 69981 70281 81500 333 11032 21083 47004 70016 90947
AAXX 09001 60379 36/// /1401 10096 20096
AAXX 09001 60380 16/// /1301 10072 20072 69921
AAXX 09001 60394 36/// /0000 10082 20082
AAXX 09001 60374 16/// /1004 10101 20100 69921
AAXX 09001 60613 36/// /0000 10089 21029
AAXX 09004 40153 11440 42517 10083 20072 39096 48491 52002 69911 71065 84400
AAXX 09004 40179 13/// /1803 10140 20093 30144 40181 57004 60001
AAXX 09004 40180 12660 71507 10131 20082 30136 40186 58003 60001 872//
AAXX 09004 40190 16/// ///// 10110 20107 39860 40196 57001 69911
AAXX 09004 40199 13/// /0303 10152 20064 30171 40194 57002 60001
AAXX 09001 80001 32570 10302 10274 20224 30108 40109 81200 333 10297 562// 59004 81820
AAXX 09001 80002 80002 32470 10401 10270 20235 81100 333 10300 561// 81818
AAXX 09001 80009 31560 60000 10270 20237 30084 40089 70522 82821 333 10308 56000 58008 82820 85460
AAXX 09001 80022 01458 80000 10266 20243 30095 40097 60061 75065 8892/ 333 10324 5679/ 57973 58007 60067 86713 82915
AAXX 09001 80028 31460 60203 10269 20236 30068 40103 70522 83570 333 10304 5619/ 58000 83612
AAXX 09001 80035 31565 80000 10269 20254 30102 40107 70522 8228/ 333 10310 5600/ 57850 58005 82820 88360
AAXX 09001 80036 31468 71103 10256 20231 70522 82278 333 10298 56000 57892 82815 86359
AAXX 09001 80063 31568 40000 10262 20234 70511 81430 333 10310 5600/ 81620 84359
AAXX 09001 80084 31462 63603 10258 20225 70522 8287/ 333 10299 5649/ 82815 85358
AAXX 09001 80091 NIL
AAXX 09001 80094 31264 60000 10188 20182 38794 74022 82670 333 10237 5679/ 58002 82705 84358
AAXX 09001 80097 32566 60000 10246 20225 39736 40085 83831 333 10302 56999 58002 83820 83359
AAXX 09001 80099 11566 20000 10246 20237 39898 40044 69991 70552 82601 333 10298 562/9 59009 82730
AAXX 09001 80110 NIL
AAXX 09001 80112 31457 70000 10157 20139 37886 70522 83270 333 10198 5600/ 57895 59001 83810 85358
AAXX 09001 80139 NIL
AAXX 09001 80144 NIL
AAXX 09001 80210 11462 50000 10208 20170 38647 69961 70551 81835 333 10240 56090 57894 59008 81817 84358
AAXX 09001 80211 11570 60000 10216 20190 69971 70522 84280 333 10240 5682/ 84825 83360
AAXX 09001 80214 31460 82903 10219 20209 39106 60011 70562 8682/ 333 10256 5650/ 59002 60017 86817
AAXX 09001 80222 31465 43603 10140 20115 37503 70521 81170 333 10168 5689/ 59003 81815 84357
AAXX 09001 80234 NIL
AAXX 09001 80252 NIL
AAXX 09001 80259 11559 80102 10224 20193 39038 69901 75052 8592/ 333 10274 5689/ 57992 58010 82920 83820 83825 88257
AAXX 09001 80315 11565 40000 10249 20224 39572 40073 69951 70152 81250 333 10280 5609/ 59004 81827 84362
AAXX 09001 80342 NIL
AAXX 09001 80370 NIL
AAXX 09001 80372 NIL
AAXX 09001 80398 31468 20000 10256 20245 39981 40076 71395 81971 333 10322 56999 57951 58003 81913
AAXX 09004 71727 11674 12405 11072 21110 39927 40128 51023 69981 70281 81500 333 11032 21083 47004 70016 90947
AAXX 09004 45011 17962 /3619 10125 20069 40236 52014 60002 70011 333 20124 58048 70000
AAXX 09004 41515 02995 00000 10048 21014 38595 48554 60002 333 58015 60007
AAXX 09004 41560 22696 33603 11020 21136 38269 48509 60002 82320 333 59017 60007
AAXX 09004 41571 116// 50000 10100 20081 39556 40153 60002 71022 82430 333 56990 59016
AAXX 09004 41594 NIL
AAXX 09004 41685 32993 03102 10050 20014 38915 48486 333 58008
AAXX 09004 41710 02997 00502 10015 21133 39407 40226 60002 333 58008 60007
AAXX 09004 41718 11996 00000 10080 20058 30031 40139 60002 70400 333 59015
AAXX 09004 41739 02996 00506 10020 21036 39057 48488 60002 333 58010 60007
AAXX 09004 41744 32996 00000 10035 21018 38768 48483 333 59001
AAXX 09004 41749 01994 00000 10130 20111 30103 40138 60002 71000 333 59003 60007
AAXX 09004 41515 02995 00000 10048 21014 38595 48554 60002 333 58015 60007
AAXX 09004 41560 22696 33603 11020 21136 38269 48509 60002 82320 333 59017 60007
AAXX 09004 41571 116// 50000 10100 20081 39556 40153 60002 71022 82430 333 56990 59016
AAXX 09004 41594 NIL
AAXX 09004 41685 32993 03102 10050 20014 38915 48486 333 58008
AAXX 09004 41710 02997 00502 10015 21133 39407 40226 60002 333 58008 60007
AAXX 09004 41718 11996 00000 10080 20058 30031 40139 60002 70400 333 59015
AAXX 09004 41739 02996 00506 10020 21036 39057 48488 60002 333 58010 60007
AAXX 09004 41744 32996 00000 10035 21018 38768 48483 333 59001
AAXX 09004 41749 01994 00000 10130 20111 30103 40138 60002 71000 333 59003 60007
BBXX 46131 09001 99499 71250 46/// /3302 1//// 40311 57007 22200 00073 10400 70000 333 91202
AAXX 09004 41506 02694 80000 10030 20005 48540 60002 8442/ 333 5699/ 59019 60007 84640 84460
AAXX 09004 41508 22996 30000 10020 21006 48538 60002 80002 333 56009 59026 60007 83070
AAXX 09004 41523 12996 10902 10060 20026 48507 60002 81030 333 56090 59036 60007 81360
AAXX 09004 41535 12697 70000 10065 20054 48479 60032 83520 333 56990 59020 83635 84460
AAXX 09004 41536 12697 40000 10070 20048 48493 69952 81230 333 56990 59017 81840 83362
AAXX 09004 41573 12996 03602 10050 20017 48486 60002 333 59023
AAXX 09004 41600 12696 70902 10145 20127 39830 40128 69902 83570 333 59015 60007
AAXX 09004 41630 11996 00000 10070 20035 40141 60002 70400 333 59018
AAXX 09004 41678 11996 00000 10110 20068 40145 60002 70500 333 59004 60007
AAXX 09004 41696 02996 00000 11085 21122 38008 48552 60002 333 58003 60007
AAXX 09004 41697 02996 00000 10074 20040 39994 40159 60002 333 59005 60007
AAXX 09004 41700 11995 00000 10090 20057 30000 40133 60002 70400 333 59007
AAXX 09004 41725 02996 00000 10120 20079 30074 40155 60002 333 58006 60007
AAXX 09004 41746 02996 00000 10115 20095 30100 40155 60002 333 59005 60007
AAXX 09004 41759 12696 60000 10160 20057 30151 40157 60002 86500 333 56900 58001 86630
AAXX 09004 41785 02996 00502 10155 20128 30120 40133 60002 333 59002 60007
AAXX 09004 41264 36/70 /0506 10172 20120 39791 40165 333 0E021 58012
BBXX 46131 09001 99499 71250 46/// /3302 1//// 40311 57007 22200 00073 10400 70000 333 91202
AAXX 09004 41859 31330 83102 10182 20170 30096 40135 70522 8562/ 333 56799 59001 70000 82710 84618 88458
AAXX 09004 41883 31930 02702 10180 20170 30110 40130 70500 333 58006 70000
AAXX 09004 41891 31930 00000 10180 20160 30088 40128 70500 333 58003 70000
AAXX 09004 41907 31905 00000 10166 20165 30113 40128 74244 333 59004 70000
AAXX 09004 41936 31910 00000 10156 20150 40129 71000 333 59001 70000
AAXX 09004 41992 31925 00000 10190 20180 30114 40116 71000 333 58004 70000
AAXX 09004 60679 36/// /0813 10061 21253
AAXX 09004 60677 36/// /0000 10124 21049
AAXX 09004 60672 36/// /0914 10152 21119
AAXX 09004 60661 36/// /0308 10096 21094
BBXX C6OM8 09000 99306 70185 41498 40909 10212 20185 40228 57002 70311 83141 22253 04205 20403 332// 40604 5//// 80195
AAXX 09004 60650 36/// /0821 10191 21058
BBXX 61001 09004 99434 10078 46/// /2106 10153 20123 40222 57002 22200 00158 10702 70011
BBXX A8LH7 09003 99327 70100 41298 60415 10185 40260 52005 70222 83778 22214 20303 301// 40404 5////
BBXX BATFR03 09004 99495 70004 44497 82530 10109 20100 40106 70222 877// 22273 20204
BBXX BATFR09 09004 99365 70015 44897 61005 10155 20107 40262 58009 71522 857// 22222 00184
BBXX BATFR60 09004 99528 10042 46/// /2649 10085 20017 49977 58019 22213 00095
BBXX BATFR11 09004 99409 10100 46/// /3101 10152 20087 40236 53006 22244 00177
BBXX BATFR20 09004 99421 10075 44/98 32927 10152 20084 40225 56014 70000 8//// 22274 20204 329// 40204 5////
BBXX BATFR01 09004 99431 10059 46/// /2705 10085 20010 40237 50/// 22200 00187
BBXX BATFR52 09004 99501 70013 46/// /3029 10110 20042 40101 53026 22243 00134
BBXX BATFR04 09004 99561 70088 44/97 63131 10059 20014 49989 701// 8//// 22233 00112
BBXX BATFR21 09004 99429 10069 46/// ///// 20162 40228 57006 22263
BBXX BATFR12 09004 99484 70071 46/// /3213 10119 20099 40167 53010 22211 00145
BBXX BATEU09 09004 99439 10100 46/// /0306 10145 20112 40233 22261 00180
BBXX BATEU08 09004 99595 70242 46/// /3336 10015 21078 40104 58012 22223
BBXX BATFR42 09004 99499 70022 46/// /3036 10112 20039 40103 222// 00142
BBXX BATFR06 09004 99454 70015 46/// /2515 10147 20114 40220 22241 00159
BBXX BATEU06 09004 99499 70026 46/// /2922 10114 20050 40115 58002 22223 00140
BBXX 61002 09004 99421 10047 46/// ///08 10148 2//// 40252 57008 22200 00156 10502 70008
BBXX BATUK01 09004 99560 70032 46/// /2507 10044 21013 49902 53060 22200 00054
BBXX PBEO 09003 99371 10038 41998 11205 10170 20128 40270 58008 70200 80001 22262 02170 20101 301// 40801 80145
BBXX KSDF 09004 99348 10202 41798 23312 10178 20142 40238 54000 70200 82189 22223 0//// 20601 330// 40802 5//// 6//// 80156
BBXX DCPY2 09003 99339 10240 41497 23119 10180 20146 40210 57005 70200 8/100 22200 00190 2//// 80160
BBXX 45137 09001 99455 70810 46/// /2615 10011 39935 40153 52018 22200 00063 10604 70022 333 91218
BBXX 46204 09001 99514 71288 46/// /3602 10050 40318 57007 22200 00083 12002 70012 333 91202
AAXX 09001 38196 42998 00000 11056 21112 39268 40282 56006
AAXX 09001 38198 425// 81502 11045 21061 30023 40291 57005 885// 555 1/103
AAXX 09001 38328 419// 01302 11064 21105 39526 40286 56002 70241 555 1/110
AAXX 09001 38334 42998 00801 11050 21134 39283 40277 57006 555 1/115
AAXX 09001 38439 41596 83602 11032 21039 39928 40278 57006 71022 885// 555 14102
AAXX 09001 38196 42998 00000 11056 21112 39268 40282 56006
AAXX 09001 38198 425// 81502 11045 21061 30023 40291 57005 885// 555 1/103
AAXX 09001 38328 419// 01302 11064 21105 39526 40286 56002 70241 555 1/110
AAXX 09001 38334 42998 00801 11050 21134 39283 40277 57006 555 1/115
AAXX 09001 38439 41596 83602 11032 21039 39928 40278 57006 71022 885// 555 14102
BBXX 45137 09001 99455 70810 46/// /2615 10011 39935 40153 52018 22200 00063 10604 70022 333 91218
BBXX 46204 09001 99514 71288 46/// /3602 10050 40318 57007 22200 00083 12002 70012 333 91202
AAXX 09001 37545 429// 60002 11020 21029 39643 40175 57008 86005
AAXX 09001 48806 32470 81402 10133 20103 39435 40227 52012 888// 333 00014 20133 3/014 58031 83894 88696
AAXX 09004 91367 32474 30914 10306 20261 83100 333 20256 562// 83815 555 90900 91369 32474 41017 10306 20272 30081 40084 83100 333 20261 562// 58006 83815 555 90900
AAXX 09004 87688 32462 71406 10185 20158 30041 40177 54000 84670 333 10217 20162 56200 84712 83360
BBXX 44029 09001 99425 70706 46/30 /2608 10054 40222 53043 90004 22200 00094 10401 70005 333 91210 555 11099 22103
BBXX 44030 09001 99432 70704 46/// /2407 1//// 40212 53042 90004 22200 00091 11102 70011 333 91209 555 11091 22097
BBXX 44032 09001 99437 70694 46/30 /2907 10050 40193 51049 90004 22200 00094 10603 70014 333 91209 555 11087 22091
BBXX 44040 09001 99410 70736 46/// /3005 10060 21015 90015 22200 1//00 70001 333 91207 555 11067 22077
BBXX 41036 09001 99342 70770 46/// ///// 10113 20036 40271 90020 22200 00171
AAXX 09004 41136 32960 00704 10122 21050 39354 40174 333 59008
AAXX 09004 41184 32960 02302 10115 20042 40173 333 58012
AAXX 09004 41194 12960 01303 10187 20053 30176 40181 60001 333 58012 70000
AAXX 09004 41196 33960 01203 10110 20036 30144 40184 333 58011 70000
AAXX 09004 41198 32960 03007 10184 20049 40178 333 58016
AAXX 09004 41217 32960 00805 10156 20056 30144 40174 333 58007
AAXX 09004 41218 32960 00408 10145 20054 39868 40182 333 58004
AAXX 09001 21802 32999 01601 11362 21378 30161 40188 52013 333 21365
AAXX 09001 24125 32998 00000 11361 21378 39867 40183 52007 333 21364 47021
AAXX 09001 24136 32999 00000 11418 21443 30091 40205 53016 333 21418 47023 55000
AAXX 09001 24143 11999 00000 11360 21390 30123 40179 52004 69992 70271 333 21360
AAXX 09001 24266 11997 80000 11381 21409 39997 40198 52005 69902 77171 82036 333 21418 47023 55000
AAXX 09001 24329 12998 50000 11355 21383 39857 40197 52011 69922 86010 333 21357 47025 55000
AAXX 09001 24343 11697 81401 11286 21310 30037 40168 56002 69972 77172 83507 333 21287 47058 55000
AAXX 09001 24382 31996 30000 11408 21438 39919 40208 54000 71000 80001 333 21411 47012 55000
AAXX 09001 24639 11999 82701 11276 21299 39995 40162 53010 69982 70272 80007 333 21276 47023 55000
AAXX 09001 24641 11999 20701 11270 21301 30006 40161 53021 69972 70271 82010 333 21274 47033 55000
AAXX 09001 24652 11997 81204 11278 21309 30053 40187 57002 60012 77173 80007 333 21295 47040
AAXX 09001 24656 11998 80994 11305 21341 39092 40206 57013 69962 77172 85037 333 21326 47044
AAXX 09001 24671 32999 33501 11412 21431 39669 40256 56010 80001 333 21421 47021 55000
AAXX 09001 24688 31999 50000 11440 21475 39245 40316 57006 70411 85030 333 21457 47016 55016
AAXX 09001 24724 11999 82803 11179 21205 39627 40185 52006 69952 70273 85071 333 21181 48040 55000
AAXX 09001 24738 11998 83102 11197 21209 39975 40162 53010 60012 70272 83037 333 21212 47022 55000
AAXX 09001 24768 11998 50603 11313 21346 39934 40194 57013 69952 70272 80002 333 21317 47029
AAXX 09001 24923 11495 82203 11101 21121 39855 40168 56002 78683 889// 333 21143 47038 88919
AAXX 09001 24944 11694 82603 11137 21150 39846 40147 56006 60022 77172 8452/ 333 21151 47027 55004
AAXX 09001 24951 11998 83001 11182 21201 39970 40145 57007 69932 77177 85077 333 21216 47015
AAXX 09001 24661 11998 80000 11348 21377 39916 40216 57010 69942 77072 82037 333 21366 48047
AAXX 09001 24959 11998 80303 11280 21311 30030 40173 57003 69952 77172 80005 333 21307 47022 55000
AAXX 09001 24962 11998 83101 11300 21317 39969 40175 57013 69932 70272 83031 333 21300 47019 55000
AAXX 09001 24966 11999 60401 11305 21327 39949 40191 57015 69940 72272 83031 333 21305 47027 55000
AAXX 09001 24967 12999 80000 11279 21309 39948 40187 57018 69902 80005 333 21289 47025
AAXX 09001 25206 11998 82002 11285 21308 40147 57001 69940 77172 80007 333 21287 47022
AAXX 09001 25400 32998 83502 11367 21397 30097 40159 53001 82031 333 21351 48028 55000
AAXX 09001 30054 11595 82105 11089 21113 39976 40224 57008 60042 78583 8697/ 333 21125 47036
AAXX 09001 30089 11997 80000 11176 21189 39738 40173 57014 60022 77177 8801/ 333 21241 47021
AAXX 09001 30393 11998 80000 11268 21286 39102 40239 57012 69962 77172 8802/ 333 21297 47017
AAXX 09001 30493 11498 80000 11227 21252 39099 40221 57005 69952 77172 84607 333 21299 47009 55052
AAXX 09001 31004 11996 82501 11172 21191 39292 40166 57010 60012 77172 80007 333 21201 47036 55017
AAXX 09001 31137 32999 80000 11392 21411 39139 40332 53012 80001 333 21414 47023
AAXX 09004 91650 NIL
AAXX 09004 91652 NIL
AAXX 09004 91656 NIL
AAXX 09004 91659 11598 73005 10273 2025/ 40120 50000 60121 78008 878// 333 20228 569// 70166 84822 85642
AAXX 09004 91660 NIL
AAXX 09004 91669 36/// /11// 10317 20268 40124 57007 333 20248
AAXX 09004 91670 36/// /0300 10298 20228 40116
AAXX 09004 91676 NIL
AAXX 09004 91680 11699 30508 10317 20216 40110 58012 60001 70200 83202 333 20233 569/9 70084 83833
AAXX 09004 91682 NIL
AAXX 09004 91683 11599 50610 10310 20239 40117 58008 60001 70211 85800 333 20239 561// 70000 85823
AAXX 09004 91691 NIL
AAXX 09004 91693 NIL
AAXX 09004 91697 NIL
AAXX 09004 91699 NIL
AAXX 09004 83064 32996 00000 10294 20238 39811 40076 333 10354 29066 55101 58016
AAXX 09004 83235 32697 30000 10269 20174 39410 40067 83200 333 10357 29049 55/// 58000
AAXX 09004 83332 32696 20000 10254 20176 39172 40053 82100 333 10325 29055 55037 59002
AAXX 09004 83423 32595 80000 10248 20194 39278 40082 8347/ 333 10295 29069 55/// 58011
AAXX 09004 83470 32597 70902 10231 20212 39232 40079 85209 333 10272 29085 55000 59001
AAXX 09001 30157 11996 82101 11141 21161 39955 40253 56007 60012 77172 8802/ 333 21193 47023
BBXX C6HS4 09003 99100 30850 41698 61508 10280 20253 40061 50000 70222 85592 22233 06270 205// 315// 40402 80260
BBXX VROB 09004 99068 31470 46/// /3311 10279 20229 30064 40089 54000 22200 04310 85243
BBXX JPAT 09004 99085 30871 41697 72416 10264 20236 40062 52020 70322 87460 22212 00278 11305 20402 325// 41003 85244
BBXX AUYI 09004 99123 10828 41598 20404 10250 20207 40057 54003 70211 85011 22283 00300
BBXX C6HS4 09003 99100 30850 41698 61508 10280 20253 40061 50000 70222 85592 22233 06270 205// 315// 40402 80260
BBXX VROB 09004 99068 31470 46/// /3311 10279 20229 30064 40089 54000 22200 04310 85243
BBXX JPAT 09004 99085 30871 41697 72416 10264 20236 40062 52020 70322 87460 22212 00278 11305 20402 325// 41003 85244
AAXX 09004 82143 31196 70312 10270 20243 40095 7022/ 87600 222// 80250 333 10/// 58008
AAXX 09004 83552 31595 6//// 10243 20219 39927 40102 71022 8602/ 333 10383 29076 55048 58005
AAXX 09004 83565 21/94 90000 10226 20214 39616 40078 75096 89/// 333 10306 29/// 55034 58001 60021
AAXX 09004 83623 32995 8//// 1//// 2//// 39500 4//// 53026 8855/ 333 1//// 29/// 55049
AAXX 09004 83630 21597 73602 10206 20194 3//// 4//// 52020 70362 84570 333 10264 29086 55000 60021
AAXX 09004 83676 32597 60502 10246 20236 39448 40070 53009 86800 333 10291 29/// 55030
AAXX 09004 83702 21198 80502 10196 20194 39350 40103 5//// 70366 85670 333 10304 29088 55/// 60081
AAXX 09004 83704 32697 82702 10248 20232 39651 40053 53018 88500 333 10284 29089 55007
AAXX 09004 83716 21297 82303 10220 20208 39600 40087 52024 76296 889// 333 10316 29/// 55062 60241
AAXX 09004 83726 32/96 /0000 10237 20186 39158 40110 51013 8//// 333 10273 29074 55043
BBXX C6VG7 09004 99195 70822 41797 00419 10260 2//// 40160 54/// 702// 80/// 22263 00250 2//// 3//// 4//// 5//// 6//// 8//// ICE /////
BBXX C6FY5 09004 99183 50372 41597 50616 10220 2021/ 40130 54/// 72522 85332 22213 04260 20404 305// 40112 5//// 6//// 80210 ICE /////
BBXX VRHO2 09004 99478 71402 41897 82513 10080 20076 40290 57010 78362 8592/ 22274 00080 20201 327// 40802 5//// 6//// 80078 ICE /////
BBXX 9HJB9 09004 99121 70639 41898 30817 10268 20229 40120 54000 70200 82463 22223 04280 20501 3//// 4//// 5//// 6//// 80240 ICE /////
BBXX 9V7645 09003 99084 70845 41797 89905 10250 20222 40083 52003 70222 8889/ 22234 04280 20200 316// 40503 5//// 6//// 80230 ICE /////
BBXX 46088 09001 99483 71232 46/// /0104 10048 40302 90020 22200 00082 1//00 70001 333 91205 555 11039 22040 32342 43407 60019 007036 352040 354048 344051 347040 357035
BBXX 46087 09001 99485 71247 46/// /1108 10065 20024 40294 90020 22200 00082 333 91209 555 11079 22083 32354 41209 60019 113075 110070 108066 111066 112063 114059
AAXX 09004 89050 31396 83314 10005 20002 49885 52008 71022 886//
AAXX 09004 89512 41395 81344 11081 21108 39504 49653 57017 73873 8802/
AAXX 09004 89574 32598 80708 11069 21126 49701 57022 8557/ 333 21072
AAXX 09004 89592 32999 30000 11086 21127 49750 52005 80001
AAXX 09004 89606 32998 83002 11297 21363 36218 47845 52002 80007
BBXX DDZF2 09004 99195 10390 41697 20412 10265 20215 40130 54000 70100 8/442 22234 00280 20403 80230
BBXX DDZF2 09004 99195 10390 41697 20412 10265 20215 40130 54000 70100 8/442 22234 00280 20403 80230
AAXX 09004 61017 NIL
AAXX 09004 61024 NIL
AAXX 09004 61036 31958 70406 10242 20011 39883 40118 7052/ 80008 333 0//00 59007 87280
AAXX 09004 61043 32960 70610 10190 21054 39697 40135 80008 333 0//00 59002 87280
AAXX 09004 61045 NIL
AAXX 09004 61049 31956 70804 10210 20008 39818 40134 7062/ 80008 333 0//00 59002 87280
AAXX 09004 61052 32960 30606 10233 21022 39872 40125 80002 333 0//00 59011 83080
AAXX 09004 61075 32960 50402 10225 21010 39819 40125 80002 333 0//00 59009 85080
AAXX 09004 61080 NIL
AAXX 09004 61090 32960 70408 10197 21053 39625 40132 80008 333 0//00 59019 87280
AAXX 09004 61091 NIL
AAXX 09004 61096 31930 70206 10197 21010 39757 40135 7052/ 80008 333 0//00 59007 87280
AAXX 09004 61099 32960 70416 10245 20018 39867 40092 80008 333 0//00 59017 87280
AAXX 09001 60376 16/// /1603 10096 20096 69921
AAXX 09001 60593 36/// /0000 10106
AAXX 09004 89016 46/83 /1015 11087 29083 39208 4//// 5////
AAXX 09004 89507 46/89 /1111 11317 29069 36616 4//// 5////
BBXX C6OM8 09000 99306 70185 41498 40909 10212 20185 40228 57002 70311 83141 22253 04205 20403 332// 40604 5//// 80195
BBXX TBWUK38 09003 99095 70181 41997 00111 10265 20251 40110 70200 80000 22274 04330 21001 315// 41202 5//// 80255
BBXX PFBE 09003 99299 70274 41498 20815 10200 20154 40232 52005 70200 8/100 22264 00228 20301 80171 90127
BBXX SHIP 09004 99244 11414 41597 32313 10252 40149 52015 70300 8314/ 9//// 22272 00263 20101 32104 40402 50802
BBXX SHIP 09004 99188 11328 41398 50514 10270 20243 40115 52021 70111 82331 22283 00284 20403 307// 40607 5//// 80250
BBXX SHIP 09004 99373 11666 41/97 71321 10180 20131 40080 57016 70222 874// 92355 22224 00190 1//// 20204 313// 40506 5//// 6//// 80150
BBXX DCTA2 09000 99307 11537 41597 62314 10220 20206 40090 53010 70222 85465 22224 04210 20606 32626 40708 50607 80210
BBXX SHIP 09004 99276 11639 41397 32214 10265 20245 40158 58002 70161 83200 22263 06247 20202 327// 40503 80250
BBXX SHIP 09004 99300 11287 41398 73439 10130 20074 40213 50005 70222 877// 22284 00245 20610 335// 40711 80100
BBXX JGQH 09004 99279 11370 41/97 73119 10206 20123 40159 53021 70222 82230 22200 00237 10705 20604 335// 40803 70027
BBXX JPBN 09004 99330 11482 41/97 72721 10193 20135 40022 54000 70282 872// 22251 00218 10905 20503 32430 40804 50802 70024
BBXX TBWUK43 09004 99063 10853 41598 40812 10270 20249 40099 54000 75351 83872 22262 21103 318// 41104 5//// 80255
BBXX MGPU2 09003 99369 11539 41/97 80326 10100 20100 40048 54000 70522 887// 22263 00153 20409 333// 40512 5//// 80100
BBXX DGBE 09003 99388 11481 41397 83305 10070 20006 40090 53000 70222 887// 22254 29902 399// 4//03 80042
BBXX UCEE 09000 99474 11413 41496 83205 11007 40139 54000 77071 89/// 22232 20402
BBXX UFLC 09000 99478 11446 42398 83109 11063 40125 54000 8712/ 22253 06024 20604
BBXX UBSF2 09000 99477 11472 41295 63212 11050 40058 53027 77472 8672/ 22262 00040 20805
BBXX C6FY5 09004 99183 50372 41597 50616 10220 2021/ 40130 54/// 72522 85332 22213 04260 20404 305// 40112 5//// 6//// 80210 ICE /////
BBXX DDIJ 09004 99171 50760 41698 31918 10200 20146 40125 51015 7//11 81452 22244 04190 29902 317// 41007 80166
BBXX C6XQ2 09003 99182 50365 41597 50715 10253 20214 40152 54000 70211 85160 22243 04260 20704 311// 40903 5//// 80227
BBXX V7OX3 09004 99267 50410 41597 80707 10210 20210 40120 54000 7//22 8/71/ 22273 04230 20603 310// 40602 5//// 80210
BBXX A8WP6 09004 99037 50358 41697 21030 00/// 10260 2025/ 40160 53020 70211 82/// 22233 00253 2//// 3//// 4//// 5//// 6//// 80240
BBXX 46207 09001 99509 71299 46/// /3306 10076 40316 57007 22200 00085 12003 70016 333 91207
BBXX 44034 09001 99441 70681 46/30 /2811 10034 40184 51059 90004 22200 00092 11105 70026 333 91214 555 11133 22140
BBXX 44033 09001 99441 70690 46/30 /2507 10038 40194 51053 90004 22200 00081 11102 70009 333 91208 555 11078 22081
BBXX 44067 09001 99384 70770 46/// /2101 10050 40267 53012 90000
BBXX 41029 09001 99328 70796 46/// /0605 1//// 90000 555 11068 22082
BBXX V7HC6 09004 99273 70907 41/// /0710 10160 20126 40221 52001 700// 8//// 222// 00230 2//// 3//// 4//// 5//// 6//// 80140 ICE /////
BBXX C6TQ6 09004 99163 70866 41698 80310 10260 20232 40160 54000 7//21 8/86/ 22213 00280 20102 302// 40102 5//// 6//// 80240 ICE /////
BBXX 46111 09001 99481 71227 46/// /3105 10055 40299 55003 90000 22200 00063
BBXX 46112 09001 99481 71227 46/// /2903 10054 40299 55003 90000
BBXX 45137 09001 99455 70810 46/// /2615 10011 39935 40153 52018 22200 00063 10604 70022 333 91218
BBXX SHIP 09004 99261 30865 41498 61216 10230 20170 40152 54000 70122 8589/ 22223 00214 20504 308// 40807 80190
BBXX PHJV 09003 99170 31469 41598 31309 10315 20272 40079 50006 70311 83185 22243 06302 20101 331// 40101 80282
BBXX SHIP 09004 99064 30963 41397 83311 10264 20241 40076 52017 79196 85220 22233 06286 11205 20201 327// 40803
BBXX 46204 09001 99514 71288 46/// /3602 10050 40318 57007 22200 00083 12002 70012 333 91202
BBXX 46131 09001 99499 71250 46/// /3302 1//// 40311 57007 22200 00073 10400 70000 333 91202
BBXX 46145 09001 99544 71324 46/// /2005 10068 40299 57007 22200 00075 11802 70012 333 91206
BBXX 46183 09001 99536 71311 46/// /1407 10055 40309 57006 22200 00078 10401 70006 333 91208
BBXX 9HJB9 09004 99121 70639 41898 30817 10268 20229 40120 54000 70200 82463 22223 04280 20501 3//// 4//// 5//// 6//// 80240 ICE /////
BBXX DQVJ 09000 99537 71692 41598 40312 10030 20006 40120 53030 72688 844// 22263 00053 2//10 303// 40706 5//// 80020
BBXX 46147 09001 99518 71312 46/// /2605 10068 40316 57007 22200 00084 12004 70018 333 91206
BBXX 46088 09001 99483 71232 46/// /0104 10048 40302 90020 22200 00082 1//00 70001 333 91205 555 11039 22040 32342 43407 60019 007036 352040 354048 344051 347040 357035
BBXX 44022 09001 99409 70737 46/// ///04 10059 21023 90015 22200 00104 333 91205 555 11041 22041
BBXX 44098 09001 99428 70702 46/// ///// 1//// 90007 22200 00097 11303 20503 314// 41302 70015
BBXX 46114 09001 99364 71222 46/// ///// 1//// 90004 22200 00113 11302 21002 328// 41302 70011
BBXX 51205 09001 99210 71564 46/// ///// 1//// 90018 22200 00245 11805 20904 332// 41804 70027
BBXX 42364 09001 99291 70881 46/// /0303 10122 20067 40247 90015
BBXX 41115 09001 99184 70673 46/// ///// 1//// 90005 22200 11103 21002 302// 41101 70013
BBXX 41114 09001 99276 70802 46/// ///// 1//// 90016 22200 00234 10902 20902 307// 41201 70011
BBXX 42363 09001 99282 70892 46/// /0504 10150 20072 40241 90015 333 91204
BBXX 46221 09001 99339 71186 46/// ///// 1//// 92345 22200 00152 10701 20701 321// 41301 70007
BBXX VRHO2 09004 99478 71402 41897 82513 10080 20076 40290 57010 78362 8592/ 22274 00080 20201 327// 40802 5//// 6//// 80078 ICE /////
BBXX KABL 09004 99297 70795 41598 60516 10200 2012/ 40220 52010 70222 863// 22284 00254 20201 306// 40403 5//// 6//// 80150 ICE /////
BBXX 46242 09001 99332 71174 46/// ///// 1//// 92358 22200 00156 11301 20601 321// 41301 70005
BBXX 46211 09001 99469 71242 46/// ///// 1//// 90006 22200 00087 12203 21002 328// 42202 70013
BBXX 46231 09001 99327 71174 46/// ///// 1//// 92354 22200 00158 11301 20601 324// 41301 70006
BBXX 46222 09001 99336 71183 46/// ///// 1//// 92356 22200 00161 10601 20601 318// 41301 70006
BBXX 46216 09001 99343 71198 46/// ///// 1//// 92357 22200 00148 11301 20701 325// 41301 70007
BBXX 46223 09001 99335 71178 46/// ///// 1//// 90000 22200 00157 11301 20601 319// 41301 70006
BBXX 46241 09001 99330 71173 46/// ///// 1//// 92341 22200 00146 11501 20601 326// 41501 70005
BBXX 46212 09001 99408 71243 46/// ///// 1//// 90012 22200 00099 11004 21004 331// 41102 70020
BBXX 46240 09001 99366 71219 46/// ///// 1//// 90012 22200 00116 11201 21001 335// 41201 70005
BBXX 46217 09001 99342 71194 46/// ///// 1//// 90012 22200 00147 10702 20702 70008
BBXX 46237 09001 99378 71226 46/// ///// 1//// 90010 22200 00115 11202 20901 326// 41201 70008
BBXX 46248 09001 99461 71247 46/// ///// 1//// 90004 22200 00094 11103 20503 329// 41102 70017
BBXX 46249 09001 99338 71197 46/// ///// 1//// 90015 22200 00144 10402 20402 320// 41401 70010
BBXX 46244 09001 99409 71244 46/// ///// 1//// 90005 22200 00095 10804 20803 330// 41102 70019
BBXX WAHG 09004 99514 71308 41597 53110 10060 2004/ 40310 58003 70222 84208 22235 0//// 20601 328// 40802 5//// 6//// 80050 ICE /////
BBXX WKAW 09004 99294 70804 41398 80719 10190 2012/ 40208 57010 70311 885// 22244 00240 20504 30599 41706 5//// 6//// 80150 ICE /////
BBXX V7DI7 09004 99457 70383 41596 82008 10113 2011/ 40170 54000 75054 886// 22200 0//// 20301 320// 40601 5//// 6//// 80113 ICE /////
BBXX DCPY2 09003 99339 10240 41497 23119 10180 20146 40210 57005 70200 8/100 22200 00190 2//// 80160
BBXX 61002 09004 99421 10047 46/// ///08 10148 2//// 40252 57008 22200 00156 10502 70008
BBXX KSDF 09004 99348 10202 41798 23312 10178 20142 40238 54000 70200 82189 22223 0//// 20601 330// 40802 5//// 6//// 80156
BBXX PBEO 09003 99371 10038 41998 11205 10170 20128 40270 58008 70200 80001 22262 02170 20101 301// 40801 80145
BBXX BATUK01 09004 99560 70032 46/// /2507 10044 21013 49902 53060 22200 00054
BBXX BATFR06 09004 99454 70015 46/// /2515 10147 20114 40220 22241 00159
BBXX BATFR12 09004 99484 70071 46/// /3213 10119 20099 40167 53010 22211 00145
BBXX BATFR42 09004 99499 70022 46/// /3036 10112 20039 40103 222// 00142
BBXX BATEU06 09004 99499 70026 46/// /2922 10114 20050 40115 58002 22223 00140
BBXX BATEU08 09004 99595 70242 46/// /3336 10015 21078 40104 58012 22223
BBXX BATEU09 09004 99439 10100 46/// /0306 10145 20112 40233 22261 00180
BBXX BATFR21 09004 99429 10069 46/// ///// 20162 40228 57006 22263
BBXX BATFR04 09004 99561 70088 44/97 63131 10059 20014 49989 701// 8//// 22233 00112
BBXX BATFR03 09004 99495 70004 44497 82530 10109 20100 40106 70222 877// 22273 20204
BBXX BATFR60 09004 99528 10042 46/// /2649 10085 20017 49977 58019 22213 00095
BBXX A8LH7 09003 99327 70100 41298 60415 10185 40260 52005 70222 83778 22214 20303 301// 40404 5////
BBXX 61001 09004 99434 10078 46/// /2106 10153 20123 40222 57002 22200 00158 10702 70011
BBXX BATFR09 09004 99365 70015 44897 61005 10155 20107 40262 58009 71522 857// 22222 00184
BBXX BATFR01 09004 99431 10059 46/// /2705 10085 20010 40237 50/// 22200 00187
BBXX BATFR11 09004 99409 10100 46/// /3101 10152 20087 40236 53006 22244 00177
BBXX BATFR52 09004 99501 70013 46/// /3029 10110 20042 40101 53026 22243 00134
BBXX BATFR20 09004 99421 10075 44/98 32927 10152 20084 40225 56014 70000 8//// 22274 20204 329// 40204 5////
BBXX WQVY 09004 99360 10157 41999 00107 10200 2014/ 40245 51013 70200 80000 22264 0//// 20501 328// 40703 5//// 6//// 80160 ICE /////
BBXX 62094 09004 99517 70067 46/// /2622 10079 20079 40110 52012 22200 00115 10606 70031 333 90710 91137
BBXX PHBO 09003 99467 70110 41298 82322 10145 20117 40186 51009 70222 86720 22254 20708 324//
BBXX 62094 09004 99517 70067 46/// /2722 10079 20079 40110 52012 22200 00115 10606 70031
BBXX 62107 09004 99501 70061 46/// /3127 10097 20029 40139 51017 22200 00123 10908 70040 333 90710 91136
BBXX 62095 09004 99530 70159 46/// /2918 10076 20037 40146 52014 22200 00118 10912 70058 333 90710 91133
BBXX 62103 09004 99499 70029 46/98 /2932 10114 20043 40108 51020 22200 00134 10806 70028 333 90710 91139
BBXX 62092 09004 99512 70105 46/// /2922 10091 20020 40140 52010 22200 00120 10912 70060 333 90710 91132
BBXX DFRZ 09003 99374 70329 41598 70000 10190 20159 40280 50010 70122 84266 22254 2//// 399// 4//// 80170
BBXX 62146 09004 99572 10021 47/96 /2707 10065 20037 49684 55002 704// 22200 11017 70087
BBXX 62170 09004 99514 10020 46/97 /2935 10095 20035 40046 52029 22200 00123 10604 70020 333 90710 91152
BBXX PCEO 09003 99496 70042 41/98 82725 10118 20064 40134 50000 7//// 8//// 22223 04131 21204 80090
BBXX AMOUK14 09004 99535 70030 46/// ///// 10070 20016 39975 40013 52020 92350
BBXX 62305 09004 99504 10000 46/97 /2933 10109 20047 40091 51021 22200 00132 10806 70032 333 90710 91149
BBXX 62304 09004 99511 10018 46/98 /2831 10102 20035 40053 52023 22200 00125 10704 70021 333 90710 91142
BBXX 62140 09004 99573 10013 46/// /30// 10065 20034 49638 53029 22200
BBXX 62116 09004 99576 10011 47496 /3047 10067 20040 49633 52028 710// 22200 10914 70069
BBXX 62122 09004 99573 10016 47596 /2852 10066 20037 49648 56011 700// 22200 11016 70082
BBXX 9V7645 09003 99084 70845 41797 89905 10250 20222 40083 52003 70222 8889/ 22234 04280 20200 316// 40503 5//// 6//// 80230 ICE /////
BBXX 62155 09004 99577 10007 47493 /3055 10061 20055 49666 53045 762// 22200 10814 70071
BBXX 62104 09004 99574 10013 47196 /2953 10072 20041 49644 53029 762// 22200
BBXX 62143 09004 99577 10018 47497 /3028 10066 20033 49661 53033 700// 22200 11014 70072
BBXX 62153 09004 99573 10020 47496 /2723 10058 20056 49649 53013 700// 22200 11018 70090
BBXX 62102 09004 99579 10018 46/// /2829 10069 20033 49623 53024 22200 10913 70063
BBXX 62118 09004 99577 10009 47995 /2948 10066 20044 49653 52050 762// 22200 10913 70064
BBXX 62117 09004 99579 10000 47493 /3158 10063 20042 49683 52078 762// 22200 10812 70058
BBXX 62134 09004 99580 10014 47496 /3024 10068 20031 49632 53029 751// 22200 10911 70056
BBXX ZQSD5 09004 99583 10007 46/// /3033 10067 20036 49640 53045 22200 11116 70078
BBXX 62145 09004 99531 10028 47697 /2539 10074 21006 49986 53018 700// 22200 10608 70041
BBXX 62114 09004 99583 10000 46/// /3156 10057 20032 49663 53068 22200
BBXX 62121 09004 99535 10027 46/// /2642 10072 21005 49953 53003 22200
BBXX 62144 09004 99534 10017 47997 /2639 10067 21001 49997 53016 700// 22200 10608 70040
BBXX 62113 09004 99584 10002 47395 /3340 10068 20035 49635 52037 751// 22200
BBXX 62150 09004 99536 10007 47998 /2632 10064 20004 49966 52011 700// 22200 10505 70027
BBXX 62129 09004 99584 10003 46/// ///// 10061 20035 49637 52044 22200
BBXX 62142 09004 99530 10021 46697 /2737 10073 20008 49976 52009 22200 10606 70032
BBXX 62148 09004 99536 10015 46/// /2519 10067 20002 49975 53011 22200
BBXX 62131 09004 99539 10012 46/// /26// 10071 20006 49933 52012 22200
BBXX 62149 09004 99537 10011 47698 /2639 10069 20013 49955 53008 700// 22200 10607 70035
BBXX 62120 09004 99564 10021 47494 /2853 10045 20045 49722 53015 752// 22200
BBXX 62154 09004 99564 10022 46/// ///// 10052 20040 49729 55001 22200
BBXX 62127 09004 99540 10007 47998 ///// 10066 21002 49928 52010 700// 22200 10607 70036
BBXX 62165 09004 99540 10009 47997 /2727 10068 21001 49937 53018 700// 22200 10709 70045
BBXX 62123 09004 99563 10022 47494 /2757 10053 20042 49715 53006 763// 22200
BBXX 62132 09004 99564 10020 46/// /2949 10048 20047 49801 53051 22200
BBXX 62152 09004 99570 10018 47/95 /2937 10063 20045 49711 53014 761// 22200 10919 70096
BBXX PJGO 09004 99571 10022 47196 /2834 10071 20049 49679 53001 704// 22200
BBXX 62119 09004 99570 10019 47496 /3051 10066 20036 49713 53016 710// 22200 11020 70099
BBXX 62164 09004 99572 10008 47496 /3246 10069 20039 49707 53068 751// 22200 00100 10815 70073
BBXX 62133 09004 99571 10009 46/// /2953 10066 20018 49701 53066 22200 10916 70078
BBXX MWYG6 09004 99603 70040 47997 /3348 10042 700// 22200
BBXX 63115 09004 99616 10013 47496 /0822 10061 20040 49655 53010 762// 22200 10912 70059
BBXX 64041 09004 99607 70026 47996 /3246 10026 21000 49761 52081 700// 22200 11016 70080
BBXX 63117 09004 99613 10011 47498 /0925 10057 20025 49644 52016 700// 22200
BBXX 63104 09004 99612 10016 47395 /0828 10048 20037 49635 53010 762// 22200
BBXX 63103 09004 99612 10011 46/// /0824 10066 20031 49636 52018 22200 10911 70057
BBXX 63105 09004 99610 10017 47497 ///// 10052 20042 49630 52009 751// 22200
BBXX 63106 09004 99610 10017 46/// /0727 10061 49623 51004 22200
BBXX 63107 09004 99611 10017 46/// /0729 10054 49622 52003 22200
BBXX 63112 09004 99611 10010 47/98 /0620 10068 20032 49630 52019 700// 22200 10912 70060
BBXX 63101 09004 99612 10009 46/// /0823 10061 20039 49642 52021 22200
BBXX 63113 09004 99610 10017 46/// /0825 10070 20037 49618 52003 22200 10911 70056
BBXX 63055 09004 99606 10016 47998 /0107 10068 20039 49609 53013 751// 22200 10910 70050
BBXX 63108 09004 99608 10017 47998 /0206 10061 20030 49608 53008 700// 22200 11011 70054
BBXX 62112 09004 99584 70002 47995 /3147 10054 20032 49669 53068 751// 22200
BBXX 62128 09004 99587 10014 47598 /2827 10069 20036 49622 53030 762// 22200 10911 70057
BBXX 63057 09004 99592 10015 47497 /3021 10069 20034 49591 53013 700// 22200 11012 70059
BBXX PJAI 09004 99581 70014 47495 /3140 10072 20014 49758 52143 710// 22200
BBXX 62111 09004 99580 70003 46/// /3358 10052 20036 49725 52107 22200 10815 70073
BBXX 63056 09004 99597 10016 47498 /3410 10070 20037 49584 53010 700// 22200 10912 70059
BBXX AMOUK08 09004 99501 70061 46/// ///// 10102 20043 30132 40136 52021 92350
BBXX AMOUK19 09004 99571 70021 46/// ///// 10047 2//// 39828 49832 52115 92350
BBXX AMOUK11 09004 99533 70051 46/// ///// 10062 21003 30007 40053 52019 92350
BBXX AMOUK27 09004 99582 70064 46/// ///// 1//// 2//// 39921 49923 52070 92350
BBXX AMOUK05 09004 99537 70003 46/// ///// 10057 20002 39919 49958 52016 92350
BBXX AMOUK09 09004 99524 10018 46/// ///// 10070 20013 39992 40008 52017 92350
BBXX AMOUK06 09004 99507 70014 46/// ///// 10091 20035 30069 40084 52023 92350
BBXX 64045 09004 99591 70117 46/// /0217 10051 21023 49974 51025 22200 00103 10914 70069 333 90710 91126
BBXX 62303 09004 99516 70051 46/// /2824 10089 20031 40104 51021 22200 00120 10606 70031 333 90710 91135
BBXX 62163 09004 99475 70084 46/// /2522 10128 20100 40176 58003 22200 00134 10910 70051 333 90710 91129
BBXX 62029 09004 99487 70125 46/// /3312 10105 20041 40182 50006 22200 00137 10911 70053
BBXX 62001 09004 99452 70050 46/// /2620 10149 20120 40224 58007 22200 00151 10707 70033 333 90710 91125
BBXX 62081 09004 99510 70134 46/// ///// 10091 20021 40162 52005 22200 00121 10911 70055
BBXX 62442 09004 99490 70164 46/// /3316 1//// 2//// 40198 52002 22200 00132
BBXX 64046 09004 99606 70049 46/// /3442 10037 20000 49846 52061 22200 00096 11018 70090
BBXX 62301 09004 99524 70047 46/// /2825 10074 20016 40078 51026 22200 00112 10606 70032 333 90710 91136
BBXX DPMT 09004 99409 70122 41498 32107 10145 20095 40275 54000 70100 81245 22254 20301 333// 40803 80117
BBXX 62105 09004 99554 70122 46/// /3025 10075 20010 40048 51024 22200 00111 10911 70057 333 90710 91141
BBXX 3ERR2 09004 99635 10053 43/// /1027 10059 49719 57036 22200 10707 70034 333 91136
BBXX LF5T 09004 99660 10081 43/// /1330 10034 21024 49854 57031 22200 10807 70033 333 91135
BBXX LF4B 09004 99606 10037 47/94 /1234 10043 49612 57018 767// 22200 00068 10913 70067 333 91149
BBXX LF3N 09004 99653 10073 41597 71232 10039 21013 49802 57042 70222 8//// 22200 00091 10709 70045
BBXX LF3F 09004 99643 10078 43/// /1137 10030 21027 49771 57044 22200 04094 10707 70035 333 91144
BBXX LF4C 09004 99584 10019 43/// /2926 10075 20039 49616 52023 22200 10912 70060 333 91155
BBXX NWS0020 09004 99379 10236 43/// /3505 10113 20018 40238 5//// 7//// 8//// 222// 04189 2//// 3//// 4//// 5//// 6//// 8//// ICE /////
BBXX IDDUK02 09004 99676 50681 46/// ///// 49737 222//
AAXX 09004 42309 31995 00000 10134 20123 40131 70500 333 59016
AAXX 09004 42314 31595 60000 10174 20157 40135 70500 82530 333 59004 82620 86360
AAXX 09004 42398 31990 90000 10158 20158 40135 74540 89/// 333 58001
AAXX 09004 42410 31594 20000 10162 20162 40130 71000 82500 333 58000 82620
AAXX 09004 42415 31595 40000 10158 20151 40151 70500 82530 333 59009 82620 83360
AAXX 09004 42492 31/93 90000 10156 20142 40136 74344 333 59003
AAXX 09004 42587 31995 00000 10120 20101 40142 71000 333 59002
AAXX 09004 42591 31/90 90903 10154 20154 40144 74744 333 58000
AAXX 09004 42623 31494 30000 10100 20092 39265 40166 74100 83500 333 59005 83618
AAXX 09004 42701 31995 00000 10120 20105 39400 40153 70500 333 58000
AAXX 09004 42706 31994 00000 10172 20151 40129 71000 333 59003
AAXX 09004 42724 31994 00000 10158 20144 40129 71000 333 58000
AAXX 09004 42798 31994 00000 10148 20134 40139 71000 333 59003
AAXX 09004 42809 31994 00000 10176 20159 40129 71000 333 59002
AAXX 09004 42886 31995 00000 10130 20126 40146 71000 333 59001
AAXX 09004 42895 31996 00000 10164 20139 40133 70500 333 58002
AAXX 09004 42971 31995 02703 10176 20166 40130 70500 333 58003
AAXX 09004 43333 21495 60703 10260 20237 40094 70562 85401 333 56209 58005 6001/ 82616 84818
AAXX 09004 42977 NIL
AAXX 09004 43368 NIL
AAXX 09004 63756 32480 70000 10202 20194 38843 48477 8113/ 333 59004 81819 87359
AAXX 09004 63862 32480 40000 10202 20176 38869 48474 81233 333 59015 81819 83077
AAXX 09004 63881 32480 50000 10167 20161 38186 48/// 85900 333 59003 85616 81917
AAXX 09004 63932 01951 02407 10160 20160 38293 48492 60081 74362 333 0//25 58007 60017
AAXX 09004 63962 11480 50000 10210 20196 38920 48479 69901 70862 85930 333 59022 85629 81920
AAXX 09004 63729 NIL
AAXX 09004 63733 NIL
AAXX 09004 63791 NIL
AAXX 09004 63801 NIL
AAXX 09004 63832 NIL
AAXX 09004 63866 NIL
AAXX 09004 63870 NIL
AAXX 09004 63887 NIL
AAXX 09004 63894 NIL
AAXX 09004 63971 NIL
BBXX ZMFR 09004 99507 31674 43/// /28// 10097 20083 40223 52025 22282 00092
BBXX 9V5925 09004 99396 31734 41798 41405 10195 40254 51021 70111 81078 22200 20000 315// 40903
BBXX V2QD4 09003 99342 31654 41299 20730 10193 20179 40177 50008 70100 8/261 22263 00204 20502 318// 41004
BBXX ZMFR 09004 99507 31674 43/// /28// 10097 20083 40223 52025 22282 00092
BBXX 9V5925 09004 99396 31734 41798 41405 10195 40254 51021 70111 81078 22200 20000 315// 40903
BBXX V2QD4 09003 99342 31654 41299 20730 10193 20179 40177 50008 70100 8/261 22263 00204 20502 318// 41004
AAXX 09001 38599 41995 30302 11021 21030 39743 40279 58002 71041 80001
AAXX 09001 44341 31999 03209 11217 21246 38724 40542 56006 73630 333 21223 46003 555 31248
AAXX 09001 55299 32980 00401 11150 21216 35867 57002 333 05200
AAXX 09001 55591 32980 00902 11032 21172 36539 52006 333 00000
AAXX 09001 56739 32580 20701 10081 20057 38366 52010 82400 333 00052 30046
AAXX 09001 56951 32680 41101 10099 20083 38524 52010 84400 333 05100
AAXX 09001 56964 32570 72001 10157 20139 38729 40160 52010 874// 333 05102
AAXX 09001 57328 11857 80201 10060 20035 39916 40341 52005 69951 76066 885// 333 00152 70017
AAXX 09001 57411 32962 80402 10074 20042 39950 40332 52007 8807/ 333 00000 79999
AAXX 09001 57447 11470 82701 10043 20033 39801 40366 52008 69901 76060 8172/ 333 00253 70066
AAXX 09001 57662 32962 20401 10033 21056 30340 40386 52010 82040 333 00455 30016
AAXX 09001 57745 32960 30402 10045 21019 30021 40361 52005 83040 333 00253 30024
AAXX 09001 57972 11456 80202 10055 20038 30107 40341 52012 69931 76060 887// 333 00251 70016
AAXX 09001 58203 32965 03402 11041 21080 30371 40415 52015 333 00457 31042
AAXX 09001 58314 32968 00901 11032 21039 30285 40398 52010 333 00459 31007
AAXX 09001 58424 32966 00404 10000 21087 30361 40388 52008 333 00557 31015 70002
AAXX 09001 59023 32862 80703 10097 21017 39992 40311 52015 885// 333 00252
AAXX 09001 59417 32570 80701 10135 20038 30115 40272 52019 888// 333 00351
AAXX 09001 59985 11475 80408 10226 20218 30139 40144 52015 69981 78080 882// 333 00253 70022
AAXX 09001 59995 NIL
AAXX 09001 40650 42960 01303 10074 21018 40192 58001
AAXX 09001 40608 42960 80000 10036 21028 40206 51001 8801/
AAXX 09001 40621 42960 00000 10040 21050 40221 57003
AAXX 09001 40629 42960 50000 10030 21009 40200 54000 83030
AAXX 09001 40634 42960 01603 10020 21010 40125 56002
AAXX 09001 40642 42960 20000 10064 20019 40191 53004 82030
AAXX 09001 40665 42960 01502 10042 21014 40211 54000
AAXX 09001 40666 42960 00000 10038 21064 40218 54000
AAXX 09001 40674 42960 00000 10055 21072 40193 58006
AAXX 09001 40676 42960 00000 10066 21009 40200 54003
AAXX 09001 40689 42960 00000 10065 20018 40206 53004
AAXX 09001 40670 42960 00000 10086 21036 40183 58005
AAXX 09001 40656 42960 00000 10050 21010 40172 58003
AAXX 09001 40691 42960 00000 10070 20007 40220 56004
BBXX 46185 09001 99524 71298 46/// /1305 10045 40318 57005 22200 00074 12101 70006 333 91206
AAXX 09004 06610 32980 82110 10049 20017 39636 40229 57010 80007 333 55300 20000 88272 91116 91210
AAXX 09003 67765 42980 72501 10234 20120 38626 48471 87082 333 87360
AAXX 09001 24790 32984 20000 11428 21449 39326 40280 57009 82030 333 21420 48020 55000
AAXX 09001 24988 32999 02903 11228 21260 39938 40211 57005 333 21247 43005
AAXX 09001 25378 41798 73209 11109 21182 39962 49995 52008 73632 85550 333 85650 91117
AAXX 09001 25503 11699 20301 11400 21421 30045 40192 56001 69920 70271 82500 333 21407 47021 55000
AAXX 09001 25705 11998 82202 11359 21380 39803 40176 57008 69940 77172 83047 333 21354 47062 55000
AAXX 09001 25927 32699 73406 11177 21227 30050 40057 57004 85331 333 21229 44031 55034
AAXX 09001 25932 32999 80507 11131 21192 39993 40032 57003 8805/ 333 21185 42014 55031
AAXX 09001 31152 11997 81801 11269 21300 39758 40297 57010 60010 70272 85036 333 21259 47027 55000
AAXX 09001 31174 32599 50000 11183 21197 30110 40122 56006 81542 333 21189 47009 55063
AAXX 09001 31489 32998 72001 11231 21250 30058 40184 53009 83032 333 21281 47018
AAXX 09001 31866 32999 03206 11110 21235 30156 40162 56006 333 21140 44016
AAXX 09001 31959 32999 02805 11118 21214 30150 40195 57002 333 21139 45998 55084 91113
AAXX 09001 31989 32999 00303 11090 21266 30160 40217 51014 333 21107
AAXX 09001 32027 32999 62910 11119 21163 30101 40110 53002 83032 333 21126 48022 91013 91114
AAXX 09001 32076 32599 13103 11097 21182 30073 40083 57004 81500 333 21127 47062 91005 91106
AAXX 09001 32099 32998 03307 11078 21144 30085 40093 54000 333 21074 48006 91010 91116
AAXX 09001 32121 11598 83406 11083 21102 30101 40124 53002 60010 78583 889// 333 21096 91010 91112
AAXX 09001 32213 32599 43207 11033 21050 39877 49941 56004 84500 333 21053 44005 55000
AAXX 09001 32287 32999 21502 11244 21262 39982 49993 57004 82030 333 21232 47064 55024
AAXX 09001 32408 11597 80306 11118 21138 39940 49979 57022 69900 78587 85901 333 21225 48037 55037
AAXX 09001 32509 32999 83603 11056 21170 39910 49944 57013 8805/ 333 21102 44020 55068
AAXX 09001 32594 32599 51104 11138 21165 39905 49942 57004 84301 333 21140 48011 55///
AAXX 09001 36061 32999 00000 11187 21199 39980 40427 57007 333 21190 47036 55063
AAXX 09004 48378 11556 80000 10251 20235 30077 40130 52023 69904 71022 84876 333 58017
AAXX 09004 48431 32960 70504 10215 20164 39933 40150 52023 86035 333 20214 58027
AAXX 09004 48480 11558 70308 10240 20186 30108 40112 57023 69904 71022 84876 333 20238 58018 79999
AAXX 09004 48500 01540 80000 10239 20235 30108 40115 52028 60144 79592 8597/ 333 20237 58029 60085 70139
AAXX 09004 48405 32560 70306 10197 20151 39983 40150 52024 84506 333 20196 58032
AAXX 09004 48420 32560 70608 10249 20193 30112 40117 52020 82256 333 20248 58015
AAXX 09004 48568 01450 72403 10256 20241 30090 40098 52017 60184 76021 84376 333 20242 58009 60025 70176
AAXX 09004 48378 11556 80000 10251 20235 30077 40130 52023 69904 71022 84876 333 58017
AAXX 09004 48431 32960 70504 10215 20164 39933 40150 52023 86035 333 20214 58027
AAXX 09004 48480 11558 70308 10240 20186 30108 40112 57023 69904 71022 84876 333 20238 58018 79999
AAXX 09004 48500 01540 80000 10239 20235 30108 40115 52028 60144 79592 8597/ 333 20237 58029 60085 70139
BBXX 51171 09001 99064 71623 46/// ///// 1//// 92346 22200 00284
BBXX 51170 09001 99168 71695 46/// ///// 1//// 92348 22200 00268
BBXX 51169 09001 99004 51600 46/// ///// 1//// 92354 22200 00255
BBXX 52243 09001 99193 11666 46/// ///// 1//// 92354 22200 00275
BBXX 51178 09001 99142 51695 46/// ///// 1//// 92357 22200 00292
AAXX 09004 91367 32474 30914 10306 20261 83100 333 20256 562// 83815 555 90900 91369 32474 41017 10306 20272 30081 40084 83100 333 20261 562// 58006 83815 555 90900
BBXX NIL
BBXX NIL
BBXX NIL
BBXX NIL
BBXX NIL
AAXX 09004 40255 32560 40000 10110 20082 39460 40174 54001 84100 333 84830
AAXX 09004 40260 NIL
AAXX 09004 40270 11550 32508 10086 20063 39279 40179 54002 69921 71065 83200 333 83825
AAXX 09004 40272 32560 12514 10088 20044 39344 40179 54000 81100 333 81830
AAXX 09004 40290 NIL
AAXX 09004 40340 32960 70103 10160 20079 40193 57080
BBXX MGGK4 09004 99345 30254 41798 41318 10170 20043 40231 50010 70111 841// 22253 00194 2//// 3//// 4//// 5//// 80110
BBXX DDZA2 09004 99323 10297 41598 43225 10180 20112 40190 51010 7//11 84145 22264 04200 20304 80140
BBXX ZNQO3 09001 99172 10564 41298 11601 10242 20115 40158 54000 70111 81100 22264 04262 20402 336// 40602 5//// 80170
BBXX S6TV 08234 99129 10591 41597 50524 10260 20231 40115 56010 70211 83463 22264 00310 20303 302// 40302 5//// 80240
BBXX DDBR2 09004 99349 10358 41498 12714 10164 20130 40156 51005 70186 81100 22200 02194 20401 325// 40802 5//// 80145
BBXX TBWUK17 09003 99124 11124 41397 80221 10267 20250 40131 52004 70322 86710 22253 04280 20305 302// 40707 5//// 80255
BBXX A8HD5 09001 99247 10585 41798 22505 10230 20079 40190 54000 70111 82145 22275 04200 20401 325// 40501 5//// 80150
BBXX ZQDI9 09003 99228 10605 41798 20415 10196 20139 40164 58012 70200 811/7 22234 00260 20502 3//// 4//// 5//// 80163
BBXX MTDU5 08223 99349 30200 41298 61410 10170 20115 40231 52010 70322 8/7// 22262 04192 20703 3//// 4//// 5//// 80140
BBXX DDDO2 08224 99345 10214 41598 53114 10180 20139 40225 53005 70122 81530 22224 00186 2//// 80155=80164
AAXX 09004 48387 31550 50000 10190 20177 39164 40131 52009 71011 82554 333 20160 58001
AAXX 09004 48437 32962 20405 10192 20158 39933 40149 52018 80001 333 20181 58029
AAXX 09004 06670 33/// /2211 10059 20016 39692 40209 57014 333 55300 20000 91118 91212
AAXX 09004 06700 32670 70101 10014 20005 39742 40251 57004 81508 333 55300 20000 81637 87273 91107 91205
AAXX 09004 06680 33/// /2419 11005 21092 37504 47047 57015 333 55300 20000 91143 91228
AAXX 09004 06990 31960 51406 10048 21023 39656 40211 57020 71022 85500 333 55300 20000 85659 91121 91209
AAXX 09004 06760 33/// /3201 10059 21036 39794 40250 52001 333 55300 20000 91106 91203
AAXX 09004 06720 33/// /0803 10013 21007 39666 40260 58016 333 55300 20000 91107 91205
AAXX 09004 89667 46/// /0609 11046 29077 39784 4//// 5////
AAXX 0900/ 89108 46/// ///// 11270 36846 4//// 5//// 90010
AAXX 0900/ 89872 46/// ///// 11023 39734 4//// 5//// 90010
AAXX 0900/ 89799 46/// ///// 11274 4//// 5//// 90010
AAXX 0900/ 89769 46/// ///// 10004 39763 4//// 5//// 90010
AAXX 09001 23973 11997 82003 11054 21072 30238 40301 57010 69982 77173 8802/ 333 21054 47034
AAXX 09001 23975 125// 82505 11069 21090 30207 40320 57003 73632 889// 333 21070 47026 55000
AAXX 09001 23986 11599 81702 11082 21088 39657 40311 56008 60052 70282 883// 333 21082 47041
AAXX 09001 23987 11399 81704 11075 21092 30255 40331 57009 60012 70282 889// 333 21075 47019 55000 85708
AAXX 09001 24606 126// 82301 11054 21087 39945 40215 52002 69902 82502 333 21161 47023 55000
AAXX 09001 29253 329// 70000 11091 21102 30189 40367 57007 87070 333 21091 47032
AAXX 09001 29471 32498 80000 11058 21073 30151 40386 52001 889// 333 21090 47027 88919
AAXX 09001 29481 32899 83002 11057 21064 30126 40372 53001 8802/ 333 21118 47022
AAXX 09001 29553 32875 62702 11082 21096 30025 40406 57002 86050 333 21084 47015 55029
AAXX 09001 29562 32584 62302 11055 21073 39970 40400 57005 82930 333 21077 47026
AAXX 09001 29581 329// 82804 11026 21049 30104 40366 57006 84035 333 21135 47013
AAXX 09001 29594 32599 82803 11019 21057 39964 40356 57022 889// 333 21030 48018 55000
AAXX 09001 29653 31996 00000 11173 21192 39916 40440 57001 71000 333 21191 47012
AAXX 09001 29675 NIL
AAXX 09001 29676 32998 00000 11148 21161 39946 40400 53001 333 21148 47012
AAXX 09001 29752 329// 00000 11036 21187 38961 48605 57005 333 21036 49033 55022
AAXX 09001 29759 329// 00000 11087 21098 39359 40429 57001 333 21087 47031
AAXX 09001 29766 32999 01101 11166 21172 30064 40447 56003 333 21166 47016 55000
AAXX 09001 29789 12999 80000 11108 21108 39194 40434 57005 69972 83031 333 21111 47007 55000
AAXX 09001 29864 329// 03303 11149 21162 39752 40449 57006 333 21154 42003
AAXX 09001 29866 319// 80000 11126 21132 30093 40434 57005 74841 80001 333 21148 47004 55000
AAXX 09001 29869 329// 00000 11139 21145 30047 40448 57003 333 21141 48018
AAXX 09001 29956 31/02 90000 11166 21179 39853 40457 58005 74941 333 21172 47011 55070
AAXX 09001 30337 11596 82102 11107 21120 39876 40344 57010 60012 78582 889// 333 21130 47024 55039
AAXX 09001 30405 119// 72601 11038 21040 39810 40347 57011 60022 70287 87030 333 21072 47012
AAXX 09001 30504 11997 72601 11030 21037 39701 40359 57009 60022 70182 87030 333 21099 47018 55000
AAXX 09001 30603 11597 82101 11040 21042 39780 40361 57006 60052 70282 8392/ 333 21128 47018
AAXX 09001 30612 115// 81204 11105 21111 39825 40382 57009 60042 78582 8491/ 333 21165 47015 55///
AAXX 09001 30622 119// 80000 11181 21200 39711 40405 56002 60022 77177 8802/ 333 21217 47009
AAXX 09001 30627 11997 82501 11130 21143 39407 40386 57003 60022 77172 8802/ 333 21162 47011 55062
AAXX 09001 30703 115// 80000 11061 21065 39688 40379 58009 60052 70287 86907 333 21111 47020 55031
AAXX 09001 36307 NIL
AAXX 09001 23074 11597 82204 11060 21075 30132 40157 54000 69992 70283 8592/ 333 21062 47030 85923
AAXX 09001 23274 11397 81901 11031 21031 30138 40174 57010 69952 78572 889// 333 21047 47033 55000 86708
AAXX 09001 23383 11497 82201 11033 21057 39828 40180 57018 69932 78582 889// 333 21035 47033
AAXX 09001 23472 11594 82002 11030 21037 30140 40189 57011 60142 78682 889// 333 21031 48040 55000
AAXX 09001 23678 114// 82202 11034 21052 30182 40241 57004 60052 78588 889// 333 21034 47033
AAXX 09001 23884 115// 82001 11052 21059 30213 40288 57007 60022 77187 8352/ 333 21054 47044 55000
AAXX 09001 23891 11595 80501 11086 21101 39938 57021 69962 78572 8692/ 333 21114 47046 55000 95090
AAXX 09001 24507 329// 83501 11082 21096 39981 40230 58006 8807/ 333 21125 47025 55000
AAXX 09001 24817 114// 82703 11054 21076 39844 40216 53001 69902 78582 889// 333 21112 47027 55000
AAXX 09001 24908 11698 82701 11054 21064 39952 40287 57003 69902 77122 8552/ 333 21079 47034 55000 85637
AAXX 09001 29263 11559 82404 11068 21077 30257 40362 57005 69902 78582 8695/ 333 21069 47024 55000
AAXX 09001 29282 11562 82503 11047 21067 30155 40328 57005 69972 77172 8577/ 333 21047 47027 55000
AAXX 09001 29379 32598 83502 11063 21075 30154 40369 53001 889// 333 21110 47021
AAXX 09001 29570 41596 62604 11024 21060 30028 40383 54000 73611 84930 333 21043 47016
AAXX 09001 29698 129// 30000 11101 21108 39839 40376 57007 69922 80002 333 21101 47014 55///
AAXX 09001 30230 11598 81902 11094 21110 39967 40305 57006 69942 70282 869// 333 21110 47026 55000
AAXX 09001 30252 119// 81401 11159 21186 39927 40260 56010 69942 77372 8805/ 333 11159
AAXX 09001 30309 11499 82601 11051 21061 39802 40334 57012 60022 70282 889// 333 21080 47019 55000
AAXX 09001 30328 115// 80000 11142 21162 39919 40370 57011 60022 78582 889// 333 21189 47022 55027
AAXX 09001 30521 115// 80000 11163 21176 39831 40391 57009 60032 78582 889// 333 21206 47017 55029
AAXX 09001 30710 11596 80000 11090 21102 39785 40393 57005 60032 78582 889// 333 21146 47016 55052
AAXX 09001 29814 31/93 90201 11163 21176 30268 40428 57006 74740 333 21183 48009
AAXX 09004 71260 13/// ///// 11053 21150 39924 40165 52024 60001 333 11025 21060 70016
AAXX 09004 71683 46/// /2117 11169 39906 40018 57007 6///1 333 11155 21233 7////
AAXX 09004 71257 16/// /3206 11133 21179 60001 333 11113 21236 70020
AAXX 09004 71258 16/// /2911 11068 21098 60001 333 11067 21199 70000
AAXX 09004 71259 16/// /2912 11148 21188 60001 333 11118 21250 70000
AAXX 09004 71274 16/// /0000 11185 21210 60001 333 11122 21260 7////
AAXX 09004 71275 46/// /2904 11168 21199 6///1 333 11118 21226 7////
AAXX 09004 71278 16/// /2903 11176 21203 60001 333 11101 21209 70000
AAXX 09004 71286 16/// /2905 11159 21185 60001 333 11126 21200 70000
AAXX 09004 71287 16/// /2302 11168 21197 60001 333 11112 21220 70000
AAXX 09004 71289 16/// /2906 11143 21187 60001 333 21193 7////
AAXX 09004 71214 16/// /1303 11122 21184 60001 333 11083 21192 70000
AAXX 09004 71223 16/// /2909 11144 21178 60001 333 11086 21201 70000
AAXX 09004 71225 16/// /2807 11072 21110 60001 333 11056 21180 70004
AAXX 09004 71227 46/// /2902 11164 21187 6///1 333 21210 7////
AAXX 09004 71445 16/// /3127 11138 21189 39849 40135 52009 60001 333 11136 21156 70000
AAXX 09004 71751 46/// /2718 11096 21158 39874 40139 52014 6///1 333 11082 21097 7////
AAXX 09004 71351 17/// /0000 11140 21174 69941 7//4/ 333 11083 21208 70044
AAXX 09004 71353 16/// /3004 11091 21153 60001 333 11080 21184 70030
AAXX 09004 71375 46/// /2939 11018 6///1 333 11003 21028 7////
AAXX 09004 71385 46/// /2418 11035 6///1 333 10011 21035 7////
AAXX 09004 71010 16/// /3006 11145 21179 60001 333 11093 21200 70000
AAXX 09004 71462 46/// /2724 11001 21063 39930 40157 51013 6///1 333 7////
AAXX 09004 71464 46/// ///22 10044 39987 40203 53010 6///1 333 10046 21011 7////
AAXX 09004 71466 46/// ///// 10018 6///1 333 7////
AAXX 09004 71345 16/// /3107 11058 21112 60001 333 11055 21161 70000
AAXX 09004 71916 46/// /1504 11271 21293 30099 40156 58019 6///1 333 11252 21292 7////
AAXX 09004 71525 16/// /2709 11099 21124 60001 333 11085 21237 7////
AAXX 09004 71526 16/// /3209 11062 21103 60001 333 11059 21196 7////
AAXX 09004 71535 16/// /2709 11060 21108 60001 333 11060 21175 70004
AAXX 09004 71536 46/// /2504 11076 21106 6///1 333 11072 21168 7////
AAXX 09004 71537 46/// /3603 11107 21145 6///1 333 11086 21252 7////
AAXX 09004 42027 21596 83201 10028 20023 38437 48525 70296 8452/ 333 59029 6021/
AAXX 09004 42071 31694 70703 10158 20144 40135 71022 83470 333 59003 83640 87460
AAXX 09004 42101 21696 80000 10164 20143 40126 70292 8352/ 333 59013 6990/ 83635 86465
AAXX 09004 42111 21596 60502 10122 20107 39359 40143 71796 84970 333 59011 6001/ 82620 83825 81930 86360
AAXX 09004 42165 31995 00000 10104 20070 40138 70500 333 58009
AAXX 09004 42182 21594 61102 10176 20166 40125 71061 82530 333 59014 6996/ 82630 85360
AAXX 09004 42328 31995 03603 10112 20061 40144 70500 333 58007
AAXX 09004 42339 31995 00902 10172 20091 40137 70500 333 58015
AAXX 09004 42348 31995 02703 10148 20134 40124 70500 333 59009
AAXX 09004 42361 31995 01302 10186 20129 40121 70500 333 59010
AAXX 09004 42369 31/90 90000 10134 20130 40141 74544 89/// 333 59004
AAXX 09004 42379 31594 80000 10148 20122 40136 71022 85520 333 59001 85620 88458
AAXX 09004 42452 32996 03604 10210 20090 40126 333 58005
AAXX 09004 42475 31/90 90000 10148 20145 40139 74744 89/// 333 59008
AAXX 09004 42131 NIL
AAXX 09004 42189 NIL
AAXX 09004 42260 NIL
AAXX 09004 71260 13/// ///// 11053 21150 39924 40165 52024 60001 333 11025 21060 70016
AAXX 09001 51711 11980 72701 11082 21115 38094 57016 69901 70070 8701/ 333 05202 79999 92506
AAXX 09001 51730 32970 71101 11104 21116 40434 54000 80002 333 05101
AAXX 09001 52112 32980 02201 11133 21187 40499 52006 333 00154
AAXX 09001 52737 32980 01101 11156 21222 37121 52004 333 05155
AAXX 09001 52787 11762 73204 11180 21192 37062 52003 69901 70070 85502 333 00054 79999
AAXX 09001 53352 32980 21401 11238 21264 40539 52003 80002 333 05254
AAXX 09001 53593 32770 23401 11155 21194 40465 57002 82502 333 05252
AAXX 09001 53705 32970 62501 11079 21106 40449 52006 81032 333 00000
AAXX 09001 53863 32961 20000 11072 21109 40432 57002 80002 333 05151 31041
AAXX 09001 53975 32980 32701 11069 21113 40421 52006 80002 333 00054 31050
AAXX 09001 54273 31958 00000 11277 21313 40388 52007 71000 333 00155 31025 92516
AAXX 09001 54324 32970 01602 11163 21210 40386 54000 333 05255
AAXX 09001 54405 32980 42707 11123 21195 40438 52001 84030 333 05151
AAXX 09001 54436 32970 02701 11134 21164 40400 52001 333 05155
AAXX 09001 54808 32962 00902 11045 21109 40409 54000 333 00152
AAXX 09001 54826 32980 03611 11145 21186 38524 52002 333 00151 31021 91122 91502 92514
AAXX 09001 54836 32970 02701 11065 21145 40397 57001 333 00254
AAXX 09001 54863 32980 03404 11032 21083 40360 52004 333 00352 31029 79999
AAXX 09001 56018 32980 01802 11125 21199 36198 57002 333 00051
AAXX 09001 56021 32980 70000 11143 21193 36090 54000 80002 333 00153
AAXX 09001 57071 32960 02701 11041 21066 40414 52008 333 00154 31028
AAXX 09001 47008 32960 00000 11045 21233 30229 40285 53015 333 21089
AAXX 09001 47014 32950 00000 11232 21250 39924 40369 52009 333 21237
AAXX 09001 47016 32970 00000 11232 21264 39386 40305 57020 333 21238
AAXX 09001 47020 32965 00000 11144 21179 39959 40369 52002 333 21155
AAXX 09001 47025 32967 02901 11072 21141 30236 40267 53003 333 21109
AAXX 09001 47035 32970 00504 11098 21146 30330 40339 52025 333 21122
AAXX 09001 47041 11970 00000 11080 21136 30263 40292 53024 60012 71044 333 21106
AAXX 09001 47055 32965 60000 11039 21068 30241 40288 52010 86030 333 21063
AAXX 09001 47058 11559 20000 11061 21092 30252 40302 52012 69902 71072 82500 333 21067
AAXX 09001 47069 11556 83601 11046 21098 30184 40288 53017 69902 77072 885// 333 21077
AAXX 09001 47003 32980 03209 11087 21221 30262 40266 53004 333 21101
AAXX 09001 47005 32980 00501 11242 21253 38620 53002 333 21329
AAXX 09001 47022 32975 03203 11158 21228 38856 53009 333 21182
AAXX 09001 47028 32965 03603 11105 21163 30241 40342 53013 333 21116
AAXX 09001 47031 12970 00000 11182 21194 38964 53008 69902 333 21184
AAXX 09001 47037 32970 03204 11090 21157 30184 40315 52021 333 21110
AAXX 09001 47039 32960 00000 11088 21148 30112 40315 52005 333 21098
AAXX 09001 47046 NIL
AAXX 09001 47050 32965 00000 11062 21168 30264 40300 52011 333 21072
AAXX 09001 47052 32965 80000 11094 21110 39933 40293 52014 80002 333 21098
AAXX 09001 47060 11560 80000 11060 21083 30236 40297 52021 69902 70372 884// 333 21067
AAXX 09001 47061 11980 60000 11029 21039 30223 40268 52010 60102 70272 86030 333 21031
AAXX 09001 47065 11540 83202 11059 21070 30230 40299 53013 69902 77077 8802/ 333 21067
AAXX 09001 47067 NIL
AAXX 09001 47068 11560 82501 11053 21078 30253 40290 52011 69902 77172 885// 333 21067
AAXX 09001 47070 11540 80000 11044 21087 30189 40280 52006 69902 77177 8802/ 333 21052
AAXX 09001 47075 11980 00000 11074 21095 39770 40218 52015 60022 72270 333 21087
AAXX 09001 47101 11520 81802 11029 21049 30183 40283 52021 60012 77177 8672/ 333 21030 3/000 43006
AAXX 09001 47105 169// /3401 11005 21007 30230 40263 52017 60362 333 21008 3/004
AAXX 09001 47108 11660 63204 11041 21103 30174 40285 52017 69902 77177 85500 333 21044 30101
AAXX 09001 47115 11565 70715 10002 21040 39954 40234 52016 60012 77072 87800 333 21010 3/000 44001 92044
AAXX 09001 47133 11656 63602 11015 21066 30197 40285 52011 69902 77177 86500 333 21019 34000
AAXX 09001 47138 32668 62707 10011 21074 30253 40256 52019 86500 333 20006 30003 92043
AAXX 09001 47159 32672 43415 10002 21103 30161 40249 52013 84500 333 21002 30002 92024
AAXX 09001 47165 11570 63412 10013 21049 30232 40280 50003 69902 72682 86800 333 20003 31002 92034
AAXX 09001 47168 12970 43418 10013 21074 30180 40262 52009 69902 80001 333 20004 31000 92025
AAXX 09001 47184 11568 73417 10048 21014 30251 40277 50005 60012 76872 87800 333 20040 31004 92055
AAXX 09001 47090 11568 72907 11012 21042 30244 40267 52014 60292 72272 87500 333 21019 3/001 49035 92063
AAXX 09001 47095 11520 83202 11049 21064 30087 40286 52017 69972 77177 8672/ 333 21051 3/000 43001
AAXX 09001 47097 329// /2003 11028 21094 30184 40284 52015 333 21040 3/000
AAXX 09001 47098 129// /0001 11045 21066 30142 40283 52019 69982 8072/ 333 21050 3/000
AAXX 09001 47099 11540 80203 11040 21061 30250 40288 52019 69902 77177 8472/ 333 21049 3/101
AAXX 09001 47100 11320 62501 11057 21072 39313 40269 52012 60042 77077 86500 333 21070 3/000 49058
AAXX 09001 47102 11520 70510 11037 21048 30109 40296 52014 69902 77177 87800 333 21058 3/101 46///
AAXX 09001 47104 11530 83403 11012 21019 30162 40263 52017 60272 77177 8572/ 333 21014 3/000 49043
AAXX 09001 47106 11560 83203 11004 21008 30205 40256 52013 60352 77177 8672/ 333 21008 3/001
AAXX 09001 47112 11658 63603 11031 21095 30198 40286 52017 69902 77172 86500 333 21038 30101 92022
AAXX 09001 47114 11658 82502 11028 21075 30091 40281 52017 69902 77177 8672/ 333 21032 34000
AAXX 09001 47119 31664 62902 11025 21081 30240 40284 52013 77077 85500 333 21036 30102
AAXX 09001 47121 129// /2703 11026 21069 39972 40278 52019 69912 333 21027 3/000
AAXX 09001 47127 329// /2704 11021 21086 30139 40287 52015 333 21026 3/000
AAXX 09001 47129 11512 73604 11020 21037 30252 40289 52013 69942 78588 87800 333 21021 3/001 43001
AAXX 09001 47130 11656 62302 10006 20003 30189 40253 52015 60222 72272 86500 333 21006 3/001 43019 92041
AAXX 09001 47131 11663 63402 11021 21080 30212 40286 52013 69902 77022 85500 333 21032 30000
AAXX 09001 47135 329// /2707 11024 21091 39969 40280 51014 333 21031 3/101
AAXX 09001 47136 32668 42906 11017 21082 30095 40274 52017 84500 333 21028 30000
AAXX 09001 47137 329// /2705 11022 21100 30156 40279 50015 333 21034 3/101
AAXX 09001 47140 11530 71104 11024 21033 30257 40287 52009 69952 78588 87800 333 21026 3/001 47003 92012
AAXX 09001 47143 32668 43203 11008 21099 30201 40283 52018 81530 333 21012 30101
AAXX 09001 47145 11550 71403 11026 21059 30251 40279 52012 69912 78588 87800 333 21037 3/000 47///
AAXX 09001 47146 11557 71402 11018 21061 30218 40287 52011 69902 78588 87800 333 21019 3/002 42///
AAXX 09001 47150 11507 70203 11020 21035 30263 40283 52012 60012 78688 87800 333 21021 3/000 43002
AAXX 09001 47152 32670 43205 10012 21078 30208 40252 52017 83501 333 21001 30101
AAXX 09001 47154 329// /2905 11007 21091 30217 40280 52016 333 21024 3/101
AAXX 09001 47155 32672 21104 10011 21089 30216 40263 52014 81501 333 20000 30000
AAXX 09001 47156 11530 73401 11009 21020 30194 40287 52011 69972 78688 87800 333 21009 3/002 47001
AAXX 09001 47157 32973 01101 11023 21086 39986 40267 52013 333 21057 34101
AAXX 09001 47162 12975 50207 10014 21081 30221 40262 52011 69902 80001 333 21002 34000 92022
AAXX 09001 47169 11562 63420 10018 21023 30192 40289 52010 69982 78588 86800 333 20002 31003 92065
AAXX 09001 47170 11570 73210 10016 21040 30235 40280 51008 69902 78588 87800 333 20007 30003 92023
AAXX 09001 47171 11558 63601 11016 21030 30229 40286 52008 60032 78588 86800 333 21021 3/001 41006
AAXX 09001 47172 129// /1802 11007 21025 30211 40280 52009 69942 333 21009 3/003
AAXX 09001 47173 129// /3603 11016 21061 30171 40287 52011 69902 333 21019 3/001
AAXX 09001 47174 11565 62906 11009 21042 30062 40271 50003 69912 78582 85800 333 21014 30001
AAXX 09001 47175 11561 73413 11028 21034 39684 40280 52006 69932 72272 83800 333 21031 3/000 46/// 92034
AAXX 09001 47185 11670 83232 10054 21024 30175 40268 53002 69922 72376 8552/ 333 20044 31004 92057
AAXX 09001 47188 11570 73605 10037 21010 30245 40267 55001 60022 76872 87800 333 20023 31003 92042
AAXX 09001 47189 12570 62904 10060 21016 30198 40259 57005 69922 83501 333 20028 31005 92033
AAXX 09001 47192 32970 21102 10004 21078 30229 40268 52010 80001 333 21028 31101
AAXX 09004 68513 36/// /1320 10126 20081 30021 40135 58006 333 10210 20126 91026 555 91013
AAXX 09004 68514 36/// ///// 1//// 2//// 3//// 4//// 5//// 333 1//// 2//// 555
AAXX 09004 68523 36/// /1307 10161 20039 39108 48514 57003 333 10284 20161 91012 555 91017
AAXX 09004 68527 36/// /1008 10164 20076 39075 48508 51005 333 10315 20164 91014 555 91016
AAXX 09004 68572 16/// /0803 10089 20079 38432 48542 57007 60143 333 10178 20089 91005 555 20148 69985 91023
AAXX 09004 68575 16/// /2602 10116 20101 39142 48550 58003 60103 333 10170 20115 91005 555 20108 91022
AAXX 09004 68581 16/// /2003 10135 20125 39423 48550 50000 60073 333 10205 20135 91005 555 20072 69965 91021
AAXX 09004 68583 16/// /2306 10178 20147 30080 40191 51005 60013 333 10235 20177 91013 555 20016 91019
AAXX 09004 68589 16/// /3602 10102 20084 38276 48541 57006 60043 333 10230 20101 91005 555 20040 91023
AAXX 09004 68613 36/// /1403 10108 20053 30053 40172 50000 333 10217 20103 91004 555 91017
AAXX 09004 68647 16/// /1007 10089 20056 38962 48544 58007 69923 333 10155 20081 91010 555 20002 91022
AAXX 09004 68651 16/// /1107 10071 20060 38603 48561 58009 60033 333 10128 20063 91011 555 20036 69925 91025
AAXX 09004 68715 36/// /0000 10093 20037 30046 40177 57006 333 10215 20093 91002 555 91017
AAXX 09004 68717 36/// /0602 10113 20036 30016 40163 57006 333 10248 20113 91005 555 91016
AAXX 09004 68723 36/// /1004 10110 20023 39441 48542 58001 333 10202 20110 91006 555 91020
AAXX 09004 68737 36/// /1504 10091 20033 39296 48541 57012 333 10205 20086 91006 555 91021
AAXX 09004 68744 36/// /1611 10094 20048 39142 48534 57013 333 10172 20088 91017 555 91021
AAXX 09004 68747 16/// /3203 10118 20090 39694 48571 58008 69943 333 10152 20117 91005 555 20004 91023
AAXX 09004 68754 16/// /2303 10092 20079 39202 48564 58005 60013 333 10155 20091 91007 555 20012 91024
AAXX 09004 68817 NIL
AAXX 09004 68821 36/// /1510 10138 20041 39959 40203 58007 333 10229 20130 91015 555 91020
AAXX 09004 68835 36/// /0000 10109 20083 30118 40236 57008 333 10173 20107 91003 555 91023
AAXX 09004 68843 36/// /2202 10137 20114 30129 40230 58003 333 10186 20137 91005 555 91023
AAXX 09004 68849 36/// /2007 10101 20082 39477 48557 58006 333 10134 20101 91009 555 91023
AAXX 09004 68912 36/// /1320 10151 20072 30179 40188 57015 333 10171 20143 91032 555 91018
AAXX 09004 68918 36/// /1008 10145 20095 30193 40212 57015 333 10191 20141 91012 555 91021
AAXX 09004 68921 36/// /1014 10169 20091 30217 40220 58011 333 10204 20166 91020 555 91022
AAXX 09004 68925 36/// /1302 10117 20044 39832 40204 57015 333 10171 20117 91009 555 91020
AAXX 09004 68926 36/// /2202 10102 20063 30038 40223 57013 333 10213 20100 91002 555 91022
AAXX 09004 68935 16/// /0000 10107 20083 30161 40227 58007 60013 333 10198 20100 91002 555 20018 91022
AAXX 09004 41263 36/// /0000 10164 20103 39496 40188 333 0E017 58012
BBXX 46208 09001 99525 71327 46/// /2304 10065 40312 57011 22200 00078 12004 70019 333 91205
BBXX 46208 09001 99525 71327 46/// /2304 10065 40312 57011 22200 00078 12004 70019 333 91205
AAXX 09004 68817 NIL
BBXX A8GH5 09003 99211 70183 41/96 30516 10210 20164 40175 52005 70500 8//// 22214 20201 80180
BBXX V7QN8 09003 99027 11195 41298 82516 10260 2025/ 40100 50/// 78065 88679 22283 04270 20602 327// 40602 5//// 6//// 80250 ICE /////
AAXX 09001 50548 32971 60701 11258 21288 40281 57024 80002 333 06304
AAXX 09001 50564 32965 72201 11203 21234 40241 57018 80002 333 06307
AAXX 09001 51334 32975 00000 11131 21154 40416 57007 333 05458 31028 70005 92504
AAXX 09001 51818 11865 80000 11049 21060 40407 57005 69931 77070 885// 333 05202 70003 92500
AAXX 09001 52378 32980 22704 11158 21210 40516 52012 80002 333 00102
AAXX 09001 53487 32965 13401 11168 21202 40472 57001 81030 333 05251
AAXX 09001 53502 32980 70000 11144 21201 40481 52005 86032 333 05203
AAXX 09001 53923 32980 73402 11060 21097 40425 52010 85042 333 05101 92501
AAXX 09001 54049 32970 02202 11194 21247 40349 57002 333 05502
AAXX 09001 54115 32976 00000 11166 21220 40421 57001 333 05154
AAXX 09001 54157 32963 02002 11180 21215 40365 54000 333 05200 92502
AAXX 09001 54186 32965 02002 11177 21244 40345 52005 333 05204 92507
AAXX 09001 54311 32980 03605 11173 21238 40429 52006 333 05100
AAXX 09001 54346 32965 00901 11173 21201 40383 52005 333 00153
AAXX 09001 54377 32970 00203 11165 21200 40365 52012 333 00456 92502
AAXX 09001 54386 32970 00403 11242 21287 40382 52013 333 00558 92501
AAXX 09001 54493 32972 02001 11136 21188 40358 52010 333 00353
AAXX 09001 54587 NIL
AAXX 09001 54715 32970 23601 11056 21165 40408 57001 80001 333 00151
AAXX 09001 54929 32980 03203 11048 21112 40392 52001 333 00355 31036
AAXX 09001 54945 32980 03203 11034 21107 40382 54000 333 00455 79999
AAXX 09001 56065 32980 10000 11182 21205 36638 52008 80002 333 05158 70002
AAXX 09001 57193 32962 03601 11028 21091 40416 52016 333 00254 31021
AAXX 09001 57290 32962 00901 11021 21084 40412 52014 333 00355 31007
AAXX 09004 68174 16/// /0704 10174 20143 38781 48503 55000 60153 333 10315 20158 91006 555 20150 91017
AAXX 09004 68191 36/// /1510 10210 20162 39639 48534 51002 333 10319 20209 91017 555 91014
AAXX 09004 68242 NIL
AAXX 09004 68262 16/// /0605 10182 20163 38690 48497 58007 60053 333 10311 20182 91011 555 20056 69945 91017
AAXX 09004 68263 12380 70308 10168 20155 38469 48495 58006 60103 876// 333 10287 20167 91013 555 20102 69945 91017
AAXX 09004 68267 NIL
AAXX 09004 68289 16/// /0902 10179 20157 39160 48526 58002 69963 333 10245 20176 91004 555 20006 91018
AAXX 09004 68350 NIL
AAXX 09004 68368 11257 70810 10157 20157 38308 48506 56011 60051 75086 876// 555 20046 91019
AAXX 09004 68403 36/// /1816 10130 20087 30126 40159 57011 333 10209 20129 91022 555 91015
AAXX 09004 68424 16/// /2004 10167 2//// 39167 48483 58007 69963 333 10346 20157 91007 555 20006 91013
AAXX 09004 68438 36/// /1508 10139 20087 38799 48487 58003 333 10292 20136 91011 555 91015
AAXX 09004 68442 36/// /0212 10169 20125 38649 48500 55000 333 10290 20146 91017 555 91017
AAXX 09004 68461 16/// /0913 10115 20102 38319 48508 58001 60113 333 10264 20113 91019 555 20116 60625 91019
AAXX 09004 68512 36/// /0912 10152 21040 39005 48497 58006 333 10246 20152 91018 555 91015
AAXX 09004 68538 36/// /1218 10095 20056 38726 48503 50000 333 10283 20095 91025 555 91018
AAXX 09004 68587 16/// /2709 10163 20128 30190 40203 58002 60053 333 10212 20155 91014 555 20058 91020
AAXX 09004 68588 16/// /2108 10174 20137 30193 40209 51002 60013 333 10233 20173 91012 555 20018 91020
AAXX 09004 68591 16/// /2509 10167 20143 30029 40212 58002 60073 333 10218 20162 91015 555 20070 91021
AAXX 09004 68592 NIL
AAXX 09004 68618 36/// /0815 10138 20001 39061 48518 58001 333 10246 20119 91021 555 91018
AAXX 09004 68633 36/// /1518 10064 20033 38518 48512 58003 333 10241 20064 91026 555 91019
AAXX 09004 68668 16/// /2702 10110 20094 39359 48558 58003 60063 333 10153 20109 91003 555 20068 69945 91023
AAXX 09004 68714 36/// /1907 10108 20033 30128 40165 57008 333 10211 20108 91009 555 91016
AAXX 09004 68727 36/// /0713 10104 20045 39161 48527 58008 333 10237 20104 91023 555 91020
AAXX 09004 68752 36/// /2703 10120 20105 39540 48569 58006 333 10170 20117 91004 555 91023
AAXX 09004 68816 32975 09902 10120 20047 30124 40180 56017 333 91005 555 91017
AAXX 09004 68828 13/82 /0403 10092 20075 39986 40227 58015 60001
AAXX 09004 68842 12680 72505 10127 20106 30163 40235 58008 69901 87500 91023
AAXX 09004 68858 13670 /2704 10133 20129 30071 40231 58011 60031
AAXX 09004 68906 32698 53302 10115 20076 30206 40272 50000 81572 333 10170 20102 91004 555 91027
AAXX 09004 68994 32598 12206 10006 21029 30184 40214 53008 81500 333 10091 20000 91009 555 91021
AAXX 09004 89004 36/// /0748 11136 21142 38590 49596 58006 333 11128 21137 91056 555
BBXX 46206 09001 99488 71260 46/// /0902 10064 40299 57007 22200 00090 11102 70011 333 91204
BBXX OZDM2 09004 99516 10024 41297 82823 10110 20050 40038 53018 72588 8677/ 22262 04120 20108 3//// 4//// 5//// 80080
BBXX ONDY 09004 99018 30083 41597 82009 10255 2025/ 40120 52020 71522 888// 22283 00268 2//// 3//// 4//// 5//// 6//// 80250
BBXX VQNW6 09004 99052 31013 41598 33410 10290 20240 40086 52020 70211 822/2 22273 00296 2//// 327// 40905 5//// 80255
BBXX VRWS3 08233 99056 31087 41598 83310 10300 20273 40084 51/// 70322 86870 22224 04300 2//01 399// 40502 80280
BBXX SHIP 09004 99064 30963 41397 83311 10264 20241 40076 52017 79196 85220 22233 06286 11205 20201 327// 40803
BBXX 9KWP 09003 99195 31059 41697 63316 10270 20241 40054 54000 70152 843/6 22284 00270 2//// 80250
BBXX A8RL3 09001 99218 30618 41/97 40911 10245 20223 40100 57010 70211 8/8// 22213 29903 312// 4//05 5//// 80230
BBXX ONAR 09003 99233 31081 41597 81413 10210 2020/ 40090 54000 78166 8694/ 22263 00240 21105 323// 4//// 5//// 6//// 80200
BBXX ONGI 09004 99260 30019 41698 71424 10170 20119 40230 54000 7//21 862// 22273 00200 20607 314// 40403 5//// 6//// 80140
BBXX SHIP 09004 99261 30865 41498 61216 10230 20170 40152 54000 70122 8589/ 22223 00214 20504 308// 40807 80190
BBXX A8RW3 09003 99343 30163 41697 51322 10170 20079 40205 58005 70300 84549 22264 04180 21005 322// 41407 80120
BBXX ONFP 09003 99344 30077 43696 51619 10140 2006/ 40300 55/// 7//11 84243 22233 00144 20305 31615 40204 50204 6//// 80100
BBXX PCDE 09003 99400 30592 41398 50303 10171 20149 40241 54000 70111 85100 22223 2//// 30326 40802 51202 80157
BBXX DBBT 09001 99420 30092 46/// /2913 10106 20080 40214 57024 /2272 00128
BBXX DBLK 09001 99449 30000 41497 /2509 10053 20026 40235 57004 7//// 22242 04069
BBXX BATFR08 09004 99464 30519 46/// /1522 10044 20034 40142 52140 22261 00060
BBXX OZDM2 09004 99516 10024 41297 82823 10110 20050 40038 53018 72588 8677/ 22262 04120 20108 3//// 4//// 5//// 80080
AAXX 09004 42559 32996 01401 10170 20118 40123 333 59006
AAXX 09004 42571 32996 00000 10134 20107 40141 333 58000
AAXX 09004 42667 31996 01606 10154 20130 39535 40136 70500 333 59001
AAXX 09004 42675 31996 00000 10124 20097 40146 70500 333 59002
AAXX 09004 42754 32996 01804 10174 20118 39484 40128 333 58005
AAXX 09004 42779 32996 00000 10120 20081 39434 40157 333 58001
AAXX 09004 42867 31994 00000 10128 20109 40140 70500 333 58005
AAXX 09004 42933 31996 00000 10154 20109 40135 333 58004
AAXX 09004 42874 NIL
AAXX 09004 43041 NIL
BBXX 46206 09001 99488 71260 46/// /0902 10064 40299 57007 22200 00090 11102 70011 333 91204
AAXX 09001 50658 32962 12203 11215 21232 40287 57010 80002 333 05901 92503
AAXX 09001 50888 32980 02004 11158 21216 40241 57005 333 05702
AAXX 09001 50983 32965 10000 11186 21219 40262 57002 80002 333 05551 92501
AAXX 09001 51053 32980 00905 11069 21153 40410 57008 333 05408 31003 92516
AAXX 09001 51542 32980 00000 11220 21245 37614 57002 333 05101
AAXX 09001 52436 32980 01102 11139 21171 38623 40489 52010 333 00203
AAXX 09001 52908 32980 12902 11123 21172 35774 52003 80002 333 00104
AAXX 09001 52996 32970 73602 11125 21133 37635 52009 8704/ 333 00052 92502
AAXX 09001 53083 32980 00000 11298 21324 40522 57001 333 05260 79999
AAXX 09001 53764 32968 53602 11101 21152 40452 52001 80002 333 05151 31039
AAXX 09001 53787 32980 70403 11121 21155 40430 57003 80002 333 05153 92504
AAXX 09001 54096 32970 02708 11174 21231 40279 52005 333 05404 92502
AAXX 09001 54226 32980 02904 11126 21211 40380 57002 333 05302
AAXX 09001 54259 32968 01401 11232 21265 40390 52004 333 00156 92508
AAXX 09001 54527 32960 53602 11063 21177 40403 54000 85040 333 00051
AAXX 09001 54534 32970 02902 11101 21134 40395 52002 333 00053
AAXX 09004 68242 NIL
AAXX 09004 68267 NIL
AAXX 09004 68350 NIL
AAXX 09004 68592 NIL
BBXX 46205 09001 99542 71343 46/// /2008 10066 40284 57009 22200 00077 11705 70023 333 91210
BBXX 46132 09001 99497 71279 46/// /3211 10071 40297 57010 22200 00084 12004 70018 333 91213
BBXX 46205 09001 99542 71343 46/// /2008 10066 40284 57009 22200 00077 11705 70023 333 91210
BBXX 46132 09001 99497 71279 46/// /3211 10071 40297 57010 22200 00084 12004 70018 333 91213
AAXX 09001 48855 11560 80501 10228 20187 30164 40172 52020 60122 70262 8682/ 333 01021 20219 3/021 58029 8689 5 88499
AAXX 09001 48848 11497 83406 10184 20174 30195 40203 52017 60072 76166 8672/ 333 02019 20175 3/018 58049 8689 4 88499 96161
AAXX 09001 40608 42960 80000 10036 21028 40206 51001 8801/
AAXX 09001 40621 42960 00000 10040 21050 40221 57003
AAXX 09001 40629 42960 50000 10030 21009 40200 54000 83030
AAXX 09001 40634 42960 01603 10020 21010 40125 56002
AAXX 09001 40642 42960 20000 10064 20019 40191 53004 82030
AAXX 09001 40650 42960 01303 10074 21018 40192 58001
AAXX 09004 40665 42960 01502 10042 21014 40211 54000
AAXX 09004 40656 42960 00000 10050 21010 40172 58003
AAXX 09004 40666 42960 00000 10038 21064 40218 54000
AAXX 09004 40670 42960 00000 10086 21036 40183 58005
AAXX 09004 40674 42960 00000 10055 21072 40193 58006
AAXX 09004 40676 42960 00000 10066 21009 40200 54003
AAXX 09004 40689 42960 00000 10065 20018 40206 53004
AAXX 09004 40691 42960 00000 10070 20007 40220 56004
AAXX 09004 68155 16/// /0802 10213 20185 39171 48500 52002 60013 333 10358 20212 91004 555 20014 91013
AAXX 09004 68171 NIL
AAXX 09004 68176 16/// /0906 10207 20144 39126 48511 56006 60183 333 10351 20207 91016 555 20182 91015
AAXX 09004 68181 NIL
AAXX 09004 68182 36/// /0904 10214 20139 39334 48523 58001 333 10325 20213 91008 555 91015
AAXX 09004 68185 36/// /1603 10174 20133 38465 48397 50000 333 10290 20174 91006 555 91006
AAXX 09004 68253 NIL
AAXX 09004 68255 16/// /1102 10189 20159 38841 48487 58005 69943 333 10324 20189 91004 555 20004 69925 91015
AAXX 09004 68271 16/// /1403 10186 20169 38902 48504 52007 60013 333 10339 20186 91004 555 20010 91016
AAXX 09004 68273 16/// /1009 10162 20150 38450 48505 58006 60013 333 10330 20161 91012 555 20010 69925 91019
AAXX 09004 68287 16/// /1507 10125 20123 38580 48514 57007 60063 333 10202 20124 91013 555 20060 91019
AAXX 09004 68291 36/// /1408 10207 20165 39538 48531 56002 333 10312 20207 91017 555 91015
AAXX 09004 68297 NIL
AAXX 09004 68329 36/// /2004 10195 21020 39056 48485 58011 333 10340 20185 91009 555 91013
AAXX 09004 68331 36/// /1605 10162 20008 38821 48501 58002 333 10316 20162 91007 555 91017
AAXX 09004 68335 36/// /1703 10175 20064 38899 48503 57006 333 10308 20175 91006 555 91016
AAXX 09004 68341 NIL
AAXX 09004 68342 NIL
AAXX 09004 68343 36/// /0808 10196 20149 38749 48473 57005 333 10309 20196 91015 555 91013
AAXX 09004 68349 36/// /0110 10179 20155 38482 48475 51001 333 10303 20179 91016 555 91015
AAXX 09004 68353 16/// /0707 10177 20155 38506 48485 57006 60013 333 10286 20169 91011 555 20014 91016
AAXX 09004 68355 36/// /0918 10151 20120 38569 48502 52006 333 10283 20151 91026 555 91018
AAXX 09004 68370 NIL
AAXX 09004 68377 16/// /1809 10148 20141 38788 48523 52002 60373 333 10285 20147 91012 555 20372 91020
AAXX 09004 68380 36/// /2805 10138 20128 3//// 4//// 5//// 333 10296 20138 91011 555
AAXX 09004 68387 16/// /1502 10160 20147 38880 48535 57006 60013 333 10266 20159 91023 555 20012 91020
AAXX 09004 68411 36/// /1610 10243 21028 39918 40122 57006 333 10333 20243 91013 555 91012
AAXX 09004 68429 NIL
AAXX 09004 68449 16/// /0204 10152 20112 38377 48491 50000 60013 333 10229 20150 91007 555 20016 91017
AAXX 09004 68471 16/// /1410 10094 20086 38343 48526 58001 60193 333 10220 20094 91021 555 20192 69965 91021
AAXX 09004 68474 16/// /1005 10101 20093 38652 48539 57005 60133 333 10225 20101 91007 555 20130 69985 91022
AAXX 09004 68479 16/// /0000 10146 20128 38983 48537 58002 60203 333 10269 20145 91010 555 20206 91021
AAXX 09004 68481 36/// /1712 10211 20155 39793 40161 57004 333 10272 20206 91019 555 91017
AAXX 09004 68487 16/// /1910 10117 20104 39033 48540 58003 60093 333 10182 20117 91015 555 20092 91021
AAXX 09004 68491 16/// /2207 10185 20173 30143 40152 57006 60033 333 10281 20185 91015 555 20034 91015
AAXX 09004 68497 16/// /2416 10172 20159 30139 40184 58002 60053 333 10262 20172 91025 555 20058 91018
BBXX ZDLS1 09003 99312 30157 41597 31430 10163 20107 40176 57002 70111 82445 22232 04170 20608 80133
BBXX AMOUK15 09004 99211 30009 46/// ///// 10192 20137 30168 40199 54000 92350
BBXX AMOUK20 09004 99146 70285 46/// ///// 10246 20207 30154 40173 52005 92350
BBXX AMOUK17 09004 99328 30573 46/// ///// 10196 20180 30187 40195 54003 92350
BBXX AMOUK01 09004 99312 30157 46/// ///// 10169 20114 30171 40181 57005 92350
BBXX ZIPR7 09003 99195 70181 41697 30205 10210 20194 40157 54000 7//// 834// 22244 04212 2//// 3//// 4//// 5//// 80200
BBXX A8QL5 09001 99172 70215 41/97 70706 10210 20180 40150 54000 70222 86717 22254 04230 21002 80190
BBXX ZSAF 09004 99339 30162 41599 61522 10172 20073 40213 57079 70122 86500 22263 04179 2//// 318// 40606 5////
BBXX DIJY2 09004 99305 50082 41/98 /1015 10175 20074 40300 52005 70222 8/4// 22264 00170 2//05 3//// 4//// 5//// 80120
BBXX TBWUK34 09004 99190 70185 41497 40515 10206 20184 40153 52030 70211 82628 22284 00240 20703 336// 41202 5//// 80192
BBXX A8MV6 09003 99131 11147 41497 50423 10270 20241 40090 54000 70322 8/500 22253 04290 20704 30499 40706 5//// 80250
AAXX 09004 88900 46/// /2112 10032 20026 30039 40042 55005 333 10061 20032
BBXX ZCDM6 09003 99172 70743 41598 20110 10270 20241 40132 53003 70100 82148 22214 00290 20301 302// 40301 5//// 80250
BBXX ZCDF4 09003 99148 70719 41498 50823 10275 20247 40118 53004 70211 8327/ 22234 00290 20301 310// 40602 5//// 80255
BBXX GDTT 09004 99186 70653 41198 50618 10260 20246 40132 52002 75051 83244 22273 00300 20602 305// 40504 80250
BBXX PHHD 09001 99346 70721 41/98 /0110 10140 20085 40240 51025 7//22 8//// 22213 04210 2//05 80110
BBXX A8SI9 09003 99533 71793 43398 83018 10030 20030 40100 52020 8774/ 22275 00060 20906 309// 40907 80039
BBXX VQHO7 09004 99292 50443 41/98 /0304 10220 20189 40128 53010 70222 8//// 22214 00200 2//// 3//// 4//// 5//// 80200
AAXX 09004 68183 36/// /1106 10226 20137 39436 48531 52001 333 10320 20226 91010 555 91015
AAXX 09004 68188 36/// /1703 10200 20144 39200 48526 56002 333 10286 20200 91008 555 91017
AAXX 09004 68268 NIL
AAXX 09004 68272 NIL
AAXX 09004 68296 36/// /1804 10229 20176 39826 48545 55000 333 10336 20229 91013 555 91013
AAXX 09004 68322 36/// /2003 10183 20086 39107 48476 57011 333 10329 20182 91005 555 91012
AAXX 09004 68338 NIL
AAXX 09004 68345 36/// /0618 10166 20122 38653 48494 58002 333 10293 20166 91026 555 91017
AAXX 09004 68362 16/// /0908 10144 20122 38508 48510 58002 60183 333 10304 20144 91013 555 20188 60165 91019
AAXX 09004 68400 36/// /2204 10200 20168 30074 40148 57003 333 10278 20199 91009 555 91014
AAXX 09004 68408 36/// /1411 10123 20091 30137 40145 57010 333 10187 20123 91018 555 91014
AAXX 09004 68416 36/// /1610 10151 21018 39018 48485 57014 333 10279 20150 91018 555 91014
AAXX 09004 68478 16/// /2205 10136 20100 38903 48535 57006 60123 333 10265 20134 91013 555 20122 91021
AAXX 09004 68488 NIL
AAXX 09004 68494 16/// /2008 10170 20152 30056 40189 58005 60063 333 10256 20169 91019 555 20064 69925 91019
AAXX 09004 68524 36/// /1107 10137 20043 39064 48506 58001 333 10313 20137 91013 555 91017
AAXX 09004 68546 36/// /2005 10092 20052 38672 48513 58002 333 10276 20092 91011 555 91019
AAXX 09004 68558 36/// /1408 10053 20033 38202 48528 57007 333 10225 20050 91014 555 91021
AAXX 09004 68570 16/// /0802 10086 20060 38552 48543 57010 60113 333 10196 20085 91005 555 20118 91023
AAXX 09004 68580 16/// /2002 10110 20099 38992 48542 57006 60053 333 10161 20109 91002 555 20058 91022
AAXX 09004 68614 36/// /3303 10126 20058 30109 40151 58003 333 10279 20125 91005 555 91015
AAXX 09004 68624 36/// /1307 10079 20010 38760 48522 57007 333 10212 20079 91013 555 91020
AAXX 09004 68674 16/// /3405 10155 20142 30194 48601 51003 60073 333 10204 20151 91009 555 20076 91022
AAXX 09004 68712 36/// /1611 10114 20081 30096 40162 57006 333 10178 20114 91015 555 91016
AAXX 09004 68718 36/// /0000 10094 20042 39966 40221 57011 333 10227 20093 91003 555 91021
AAXX 09004 68722 36/// /0810 10060 20005 38567 48522 57005 333 10208 20060 91017 555 91021
AAXX 09004 68814 36/// /1615 10138 20098 30173 40181 58006 333 10174 20135 91018 555 91018
AAXX 09004 68832 36/// /0804 10062 20001 39246 48536 57010 333 10167 20062 91007 555 91022
AAXX 09004 68916 36/// /1129 10136 20089 39917 40189 57015 333 10177 20136 91042 555 91018
AAXX 09004 68920 36/// /0909 10166 20091 30209 40222 57012 333 10197 20162 91016 555 91022
AAXX 09004 68928 36/// /3502 10142 20088 30061 40224 58010 333 10210 20142 91004 555 91022
BBXX 51176 09001 99278 71758 46/// ///// 1//// 90002 22200 00236
BBXX 51179 09001 99143 51708 46/// ///// 1//// 90002 22200 00288
BBXX 52245 09001 99181 11458 46/// ///// 1//// 90005 22200 00284
BBXX 52248 09001 99135 11448 46/// ///// 1//// 90006 22200 00287
BBXX 52246 09001 99152 11457 46/// ///// 1//// 90007 22200 00284
BBXX 52244 09001 99200 11452 46/// ///// 1//// 90007 22200 00271
BBXX 51173 09001 99260 71739 46/// ///// 1//// 90011 22200 00238
BBXX 51172 09001 99284 71783 46/// ///// 1//// 90012 22200 00235
AAXX 09001 30455 326// 83102 11239 21257 38928 48457 57010 86502 333 21276 47010
AAXX 09001 30669 32999 72602 11217 21242 39360 40296 56014 81047 333 21274 47006
AAXX 09001 30731 115// 82003 11080 21103 39704 40333 57002 60022 72273 8257/ 333 21106 47026
AAXX 09001 30739 116// 82705 11147 21174 39502 40369 57011 69902 78583 8597/ 333 21210 47003
AAXX 09001 30741 119// 82702 11182 21182 38746 48529 54000 69952 77172 8807/ 333 21186
AAXX 09001 30745 119// 82303 11167 21186 39133 40352 57005 69972 70272 8802/ 333 21191 47007 55059
AAXX 09001 30764 32998 83001 11217 21235 39456 40317 57009 80007 333 21318 47001
AAXX 09001 30829 11675 80000 11174 21193 39691 40434 57011 69902 78582 82371 333 21249 47001
AAXX 09001 30838 11597 82403 11170 21176 39364 40415 57012 69982 78583 889// 333 21297 47011
AAXX 09001 30846 32699 82307 11120 21164 39391 40340 57011 82543 333 21140 47997
AAXX 09001 30859 32899 82704 11109 21153 39432 40300 57015 8802/ 333 21258 47004
AAXX 09001 30862 32998 82306 11166 21192 39522 40304 57009 8807/ 333 21244 47007
AAXX 09001 30957 32999 82505 11204 21216 39408 40377 57020 83041 333 21250 46001
AAXX 09001 30975 32899 80901 11300 21337 39633 40360 57021 85037 333 21360 47011
AAXX 09004 41312 36/// /3506 10216 21005 30116 40155 333 0E055 58005
AAXX 09001 30499 11958 82403 11211 21223 39519 40221 57016 69902 77172 8802/ 333 21275 47013
AAXX 09001 30683 11998 50000 11250 21268 39544 40250 57003 69902 70272 82044 333 21268 47009
AAXX 09001 30695 32998 82902 11243 21268 39864 40229 57013 86074 333 21302 47011
AAXX 09001 31253 32999 82501 11311 21341 39700 40209 57018 82036 333 21317 55056
AAXX 09001 31295 32999 82904 11181 21214 39714 40196 57014 8801/ 333 21206 47007
AAXX 09001 31348 32999 00000 11310 21317 39952 40179 53002 333 21315 47020
AAXX 09001 31418 32999 10000 11241 21260 39898 40174 56001 81040 333 21245
AAXX 09001 31439 11999 80000 11192 21218 30096 40143 57001 69900 70272 83031 333 21193 47008
AAXX 09001 31442 32999 82402 11200 21226 39827 40205 57014 83031 333 21204 47007
AAXX 09001 31445 32999 82701 11229 21248 39931 40206 57018 80001 333 21237 47006
AAXX 09001 31474 32999 00000 11334 21370 39707 40250 57009 333 21345 47013
AAXX 09001 31521 32999 60000 11246 21265 39904 40222 57016 80001 333 21309 47012
AAXX 09001 31527 32998 52301 11212 21231 39896 40222 57015 80001 333 21224 47012
AAXX 09001 31534 12598 82902 11242 21260 39843 40217 57025 69900 82605 333 11257
AAXX 09001 31587 32998 80000 11249 21262 30069 40228 57022 80001 333 21249 47016
AAXX 09001 31632 NIL
AAXX 09001 31702 32998 20202 11286 21324 39877 40252 57016 80001 333 21290 47020
AAXX 09001 31713 32999 71801 11241 21248 30093 40201 57010 84049 333 21249 47014
AAXX 09001 31725 32998 82304 11216 21228 30124 40195 57011 85042 333 21240
AAXX 09001 31801 32999 00000 11276 21293 39994 40247 57003 333 21314
AAXX 09004 83925 32/96 /2705 10202 20178 40117 52009 7002/ 8//// 222// 20000 80186 333 10214
AAXX 09004 83970 41/90 /1702 10210 20196 30140 40144 52020 700// 8//// 222// 02230 20000 80220 333 10250
AAXX 09004 83264 32893 40502 10243 20221 39659 40124 82034 333 10335 29081 55062 58003
AAXX 09004 83358 21593 8//// 10233 20220 39675 40072 70362 8379/ 333 10320 29084 55060 58008 60101
AAXX 09001 31825 32999 00000 11229 21248 39976 40203 57009 333 21261 47019
AAXX 09001 31845 32999 00000 11330 21374 30080 40266 57001 333 21353 47032
AAXX 09001 31878 32998 01802 11259 21287 30139 40278 52002 333 21300 47019
AAXX 09001 31915 32998 02704 11143 21225 39990 40271 53001 333 21180 47007
AAXX 09001 31921 31996 02202 11171 21230 30164 40269 53003 70400 333 21214 42001
AAXX 09001 31969 32998 03008 11123 21218 30226 40274 52008 333 21130 41998 91017 91119
AAXX 09001 31981 32999 02402 11274 21305 30030 40294 53009 333 21285 47023
AAXX 09001 31987 32999 00105 11158 21228 39982 40260 52006 333 21161 42998
AAXX 09001 32069 11598 73310 11072 21101 30115 40120 53002 69970 73632 87900 333 21084 47007 91012 91117
AAXX 09004 82863 31597 10000 10279 20241 39863 40071 71300 333 10354 29070 55107 58005
AAXX 09004 83228 32896 60000 10248 20207 39795 40066 83021 333 10350 29064 55111 58006
AAXX 09004 83270 32895 80000 10236 20224 39630 40109 8807/ 333 1//// 29086 55049 58005
AAXX 09004 83309 31692 80000 10268 20241 39774 40094 71094 885// 333 10334 29082 55/// 58002
AAXX 09004 83319 21692 80000 10236 20224 39754 40125 70195 8472/ 333 10343 29083 55041 58007 69911
AAXX 09004 83368 21696 80000 10230 20214 39723 40087 72096 85210 333 10326 29081 55028 58017 60101
AAXX 09004 83374 32596 63604 10247 20216 39519 40087 86800 333 10336 29080 55044 59004
AAXX 09004 83405 32991 0//// 10274 20230 39928 40060 333 10306 29075 55037 58005
AAXX 09004 83526 32497 83203 10231 29200 39160 40089 885// 333 10290 29074 55/// 59003
AAXX 09004 83695 216// 80000 10242 20225 39990 40126 52020 75122 887// 333 10320 29080 55048 69961
AAXX 09004 83718 215// 80000 10214 20204 39558 40127 52020 76066 887// 333 10287 29/// 55019 60031
BBXX 46181 09001 99538 71288 46/// /0503 10003 40330 57005 22200 00034 10400 70000 333 91203
BBXX 46092 09001 99368 71220 46/// /3105 10110 40186 56008 92357 22200 00119 555 11046 22051
BBXX 46181 09001 99538 71288 46/// /0503 10003 40330 57005 22200 00034 10400 70000 333 91203
AAXX 09001 36307 32897 80000 11146 21173 39165 48686 53001 8801/ 333 21174 47016 95090
AAXX 09004 91487 NIL
AAXX 09004 91490 NIL
AAXX 09004 91533 NIL
AAXX 09004 91601 NIL
AAXX 09004 91610 11599 21110 10300 20229 40075 58008 60001 70110 81131 333 20285 56399 70054 81820 81360 81080
AAXX 09004 91623 NIL
AAXX 09004 91629 NIL
AAXX 09004 91701 NIL
AAXX 09001 29675 32998 00000 11101 21114 39803 40425 53002 333 21101 47018
AAXX 09001 36096 11997 50000 11201 21220 39720 40578 57003 69922 70272 83031 333 21201 47009 55000 95090
AAXX 09004 42634 32996 00000 10170 20153 40132 333 58019
AAXX 09004 42647 31995 00702 10182 20144 40120 70500 333 58006
AAXX 09004 42737 32996 03603 10184 20154 40124 333 58010
AAXX 09004 42840 32996 00000 10200 20181 40121 333 58010
AAXX 09004 42909 32996 03603 10204 20161 40118 333 58007
AAXX 09004 42921 32996 00000 10120 20105 40178 333 58005
AAXX 09004 43003 31995 00000 10214 20195 40108 70500 333 58008
AAXX 09004 43014 31996 00000 10140 20100 39472 40139 70500 333 58006
AAXX 09004 43063 32996 00000 10120 20113 39495 40145 333 58010
AAXX 09004 43110 32996 00902 10206 20137 40106 333 58001
AAXX 09004 43117 32996 00502 10164 20090 40120 333 58005
AAXX 09004 43192 NIL
BBXX DGBE 09003 99388 11481 41397 83305 10070 20006 40090 53000 70222 887// 22254 29902 399// 4//03 80042
BBXX JPBN 09004 99330 11482 41/97 72721 10193 20135 40022 54000 70282 872// 22251 00218 10905 20503 32430 40804 50802 70024
BBXX SHIP 09001 99376 11343 41498 60220 10050 20003 40196 52030 70222 8727/ 22255 00150 20404 302// 40303 80030
BBXX SHIP 09004 99300 11287 41398 73439 10130 20074 40213 50005 70222 877// 22284 00245 20610 335// 40711 80100
BBXX UBSF2 09000 99477 11472 41295 63212 11050 40058 53027 77472 8672/ 22262 00040 20805
BBXX UCEE 09000 99474 11413 41496 83205 11007 40139 54000 77071 89/// 22232 20402
BBXX UFLC 09000 99478 11446 42398 83109 11063 40125 54000 8712/ 22253 06024 20604
BBXX UGOS 09001 99584 11490 41497 80312 11080 40021 55010 77072 22213 00014 20503 61100
AAXX 09004 68171 NIL
AAXX 09004 68181 NIL
AAXX 09004 68253 NIL
AAXX 09004 68297 NIL
AAXX 09004 68341 NIL
AAXX 09004 68342 NIL
AAXX 09004 68370 NIL
AAXX 09004 68429 NIL
AAXX 09004 91723 NIL
AAXX 09004 91759 11598 60617 10314 20227 40111 58018 60001 71502 8587/ 333 20212 70006 82820 83640 86464
AAXX 09004 91762 11598 30913 10298 20233 40113 58014 60001 71510 82943 333 20229 56299 70016 82822 83078 81920
AAXX 09001 45032 36/// /0106 10117 20039 30234 40250 52003 333 91112
AAXX 09001 45035 36/// /0305 10133 20056 30206 40250 52002 333 91110
AAXX 09001 45039 36/// /0104 10127 20061 30226 40242 54000 333 91109
AAXX 09001 45044 36/// /0112 10131 20059 30135 40231 52001 333 91117
BBXX 46184 09001 99539 71389 46/// /2011 10071 40233 57022 22200 00068 11006 70030 333 91213
AAXX 09001 45032 36/// /0106 10117 20039 30234 40250 52003 333 91112
AAXX 09001 45035 36/// /0305 10133 20056 30206 40250 52002 333 91110
AAXX 09001 45039 36/// /0104 10127 20061 30226 40242 54000 333 91109
AAXX 09001 45044 36/// /0112 10131 20059 30135 40231 52001 333 91117
BBXX 46184 09001 99539 71389 46/// /2011 10071 40233 57022 22200 00068 11006 70030 333 91213
AAXX 09001 48852 11458 83402 10201 20200 30164 40174 52014 60602 76366 8672/ 333 01021 20201 3/021 58033 8689 4 88499 96163
AAXX 09004 68338 NIL
AAXX 09001 31913 33/// /3103 11156 21222 30139 40264 54001 333 21207
AAXX 09001 31939 32998 01601 11280 21304 39935 40299 53009 333 21327 47026
AAXX 09001 32128 11497 80102 11079 21097 30085 40139 53002 60020 78583 883// 333 21090 47022 91006 91109
AAXX 09001 24856 11998 80402 11287 21305 39999 40169 57006 69932 70272 85031 333 21287 47018 55000
AAXX 09001 30679 NIL
AAXX 09001 30686 31999 02904 11189 21230 39836 40233 57017 73631 333 21262 47012
AAXX 09001 30961 32899 81402 11218 21230 39487 40341 57022 8805/ 333 21271
AAXX 09001 30971 32999 82602 11180 21199 39262 40308 57019 8802/ 333 21301 47004
AAXX 09001 30978 32999 71804 11238 21263 39598 40343 57022 87070 333 21323 47005
AAXX 09001 31513 32997 50000 11228 21234 39970 40214 57013 83041 333 21233 47009
AAXX 09001 31624 32999 00000 11334 21370 39707 40250 57009 333 21345 47013
AAXX 09001 31832 32999 21102 11220 21238 30151 40245 57005 80001 333 21279 47012
AAXX 09001 31939 32998 01601 11280 21304 39935 40299 53009 333 21327 47026
AAXX 09001 31913 33/// /3103 11156 21222 30139 40264 54001 333 21207
AAXX 09004 43086 31996 00502 10156 20142 39950 40134 70500 333 58020
AAXX 09004 43128 31996 10000 10172 20152 39516 40135 70510 80001 333 58010 81070
AAXX 09004 43150 31996 03604 10244 20191 30047 40124 70500 333 59009
AAXX 09004 43185 31996 03602 10230 20202 30109 40113 70510 333 58008
AAXX 09004 43189 32996 00000 10218 20176 30111 40120 333 58009
AAXX 09004 43198 32996 00000 10168 20138 39277 40116 333 58005
AAXX 09004 43201 32997 00902 10172 20135 39377 40111 333 58000
AAXX 09004 43213 32996 00000 10214 20182 39792 40113 333 58000
AAXX 09004 43226 32996 00903 10242 20182 30063 40092 333 59011
AAXX 09004 43233 32996 00000 10184 20165 39292 40111 333 59001
AAXX 09004 43237 32996 20000 10216 20188 39711 40107 80001 333 59005 82070
AAXX 09004 43245 21596 73604 10254 20239 30077 40103 70252 84570 333 59002 6992/
AAXX 09004 43279 31596 60000 10242 20230 30083 40101 70522 83530 333 58004 83620 83360
AAXX 09004 43284 32996 01105 10214 20179 39966 40083 333 59010
AAXX 09004 43295 31496 30902 10174 20161 39086 48487 70510 82601 333 56209 59005 82710
AAXX 09004 43311 32996 00000 10238 20232 40077 333 59009
AAXX 09004 43314 32996 30000 10230 20202 40080 80001 333 59008
AAXX 09004 43321 31495 20203 10202 20183 39653 40106 71010 81500 333 59016
AAXX 09004 43329 31595 60000 10234 20219 30085 40099 70500 84531 333 58003
AAXX 09004 43344 31494 30204 10224 20209 30001 40102 70511 82501 333 59012 82615
AAXX 09004 43346 22596 50506 10244 20229 30080 40087 83501 333 59006 83620 85075
AAXX 09004 43353 31496 30000 10240 20206 40080 70500 82531 333 56699 59018 82614 83072
AAXX 09004 43369 32596 30000 10234 20216 40078 81501 333 58000 81620 83075
AAXX 09004 43371 32996 20000 10226 20217 30007 40081 80001 333 59006 82075
BBXX 46145 09001 99544 71324 46/// /2005 10068 40299 57007 22200 00075 11802 70012 333 91206
BBXX 46181 09001 99538 71288 46/// /0503 10003 40330 57005 22200 00034 10400 70000 333 91203
BBXX 46183 09001 99536 71311 46/// /1407 10055 40309 57006 22200 00078 10401 70006 333 91208
BBXX 46185 09001 99524 71298 46/// /1305 10045 40318 57005 22200 00074 12101 70006 333 91206
BBXX 46204 09001 99514 71288 46/// /3602 10050 40318 57007 22200 00083 12002 70012 333 91202
BBXX 46205 09001 99542 71343 46/// /2008 10066 40284 57009 22200 00077 11705 70023 333 91210
BBXX 46206 09001 99488 71260 46/// /0902 10064 40299 57007 22200 00090 11102 70011 333 91204
BBXX 46207 09001 99509 71299 46/// /3306 10076 40316 57007 22200 00085 12003 70016 333 91207
BBXX 46208 09001 99525 71327 46/// /2304 10065 40312 57011 22200 00078 12004 70019 333 91205
BBXX VRHO2 09004 99478 71402 41897 82513 10080 20076 40290 57010 78362 8592/ 22274 00080 20201 327// 40802 5//// 6//// 80078 ICE /////
BBXX WAHG 09004 99514 71308 41597 53110 10060 20040 40310 58003 70222 84208 22235 0//// 20601 328// 40802 5//// 6//// 80050 ICE /////
BBXX WDJK 09004 99591 71467 41396 82510 10050 20050 40100 54000 71122 886// 22253 00060 2//// 30919 41105 51005 6//// 80050 ICE /////
BBXX WSRL 09003 99370 71429 41598 41209 10170 20120 40250 56015 70211 832/9 22214 0//// 20201 330// 41505 5//// 6//// 80140 ICE /////
BBXX DCTA2 09000 99307 11537 41597 62314 10220 20206 40090 53010 70222 85465 22224 04210 20606 32626 40708 50607 80210
BBXX MGPU2 09003 99369 11539 41/97 80326 10100 20100 40048 54000 70522 887// 22263 00153 20409 333 // 40512 5//// 80100
BBXX SHIP 09004 99373 11666 41/97 71321 10180 20131 40080 57016 70222 874// 92355 22224 00190 1//// 20204 313// 40506 5//// 6//// 80150
AAXX 09001 56671 32780 71601 10063 20014 38243 52007 874// 333 00054
AAXX 09001 57378 32960 03601 10004 21021 40400 52012 333 00354 31010
AAXX 09001 57426 11563 80402 10049 20046 40339 52004 69981 76066 887// 333 00152 70055
AAXX 09001 57476 32960 00401 10013 21014 40391 52009 333 00355 31002
AAXX 09001 57584 32962 30202 10027 21038 40380 52012 83040 333 00354 30001
AAXX 09001 57598 32965 00702 10029 21020 40365 52010 333 00454 30024 79999
AAXX 09001 57655 32960 30203 10042 21061 40376 52014 83040 333 00352 30015
AAXX 09001 57713 NIL
AAXX 09001 57776 11/00 93605 11055 21062 40361 52004 69901 74974 333 00154 31010 79999 93457
AAXX 09001 58321 31957 00203 11007 21053 40406 52010 71000 333 00657 31024 79999
AAXX 09001 58437 31880 10206 11099 21118 38206 52010 70040 81040 333 00056 70011 92501 93464
AAXX 09001 58445 NIL
AAXX 09001 58556 32763 73403 10025 21040 40357 52009 875// 333 00756 30022 70004
AAXX 09001 58569 11465 82905 10037 21009 40336 52019 69901 76000 885// 333 00856 30035 79999
AAXX 09001 58646 32660 80204 10049 21041 40346 52014 885// 333 00857 30042
AAXX 09001 58653 NIL
AAXX 09001 58660 NIL
AAXX 09001 58715 32962 73206 10039 21021 40342 52008 8704/ 333 00453 30033 70001
AAXX 09001 58730 32770 73602 10060 21028 40327 52013 875// 333 00555 30038 70001
AAXX 09001 58731 32965 73603 10046 21016 40327 52010 8704/ 333 00554 30029 70001
AAXX 09001 58754 11564 70205 10069 21020 40319 52020 69911 70060 875// 333 00857 70073
AAXX 09001 58911 11461 83403 10048 20020 40312 52013 69901 72160 885// 333 00454 70010
AAXX 09001 58931 11/00 90412 11009 21009 38394 52015 60011 76664 333 00058 31001 70056 93436
AAXX 09001 59254 11757 83601 10101 20068 40285 52013 69921 71060 885// 333 00351 70003
AAXX 09001 59632 11761 83605 10121 20043 40265 52019 69911 70060 885// 333 00451 70001
AAXX 09001 59855 11470 83202 10167 20136 40214 52015 69901 70060 888// 333 00455 70005
BBXX 46004 09001 99509 71361 46/// /2406 10069 40313 57009 22200 00080 11805 70025 333 91209
BBXX 46004 09001 99509 71361 46/// /2406 10069 40313 57009 22200 00080 11805 70025 333 91209
AAXX 09001 48826 31756 80203 10130 20102 30098 40238 53023 71022 885// 333 00014 20130 3/014 58045 88697
AAXX 09001 48839 32497 80218 10151 20115 30156 40223 53017 888// 222// 00190 2//07 333 00/// 20151 58042 8389 4 88696 91122 91502
AAXX 09001 48830 32460 83606 10112 20062 39943 40262 53020 888// 333 01011 20112 3/011 58033 83894 88697
AAXX 09001 48808 32470 80501 10134 20065 39975 40268 52016 888// 333 00012 20134 3/012 58037 83894 88696
AAXX 09004 64700 31956 00210 10195 21009 39780 40117 70600 333 0//00 59066
AAXX 09004 64750 NIL
AAXX 09004 60444 12965 00000 10075 20047 39173 48587 51001 60001 333 95990
AAXX 09004 71500 16/// /1503 11117 21169 60001 333 11078 21170 70000
AAXX 09004 71504 16/// ///// 11142 21185 60001 333 11081 21206 70000
AAXX 09004 71541 16/// /1605 11102 21135 60001 333 11102 21164 70004
AAXX 09004 71543 16/// /0901 11076 21105 60001 333 11067 21228 70004
AAXX 09004 71546 16/// /1103 11081 21105 60001 333 11081 21188 70000
AAXX 09004 71547 16/// /1102 11103 21135 60001 333 11082 21201 70000
AAXX 09004 71153 16/// /1802 11101 21136 60001 333 11034 21213 70000
AAXX 09004 71461 16/// /1206 11095 21137 60001 333 11092 21169 70000
AAXX 09004 71468 17/// /2618 11092 21132 39794 40123 51020 69941 7//4/ 333 21097 70032
AAXX 09004 71483 16/// ///// 11149 21179 60001 333 11101 21195 70000
AAXX 09004 71011 16/// ///// 11115 21173 60001 333 11075 21229 70000
AAXX 09004 71049 16/// /3102 11283 39961 49985 51023 60001 333 11229 21302 70000
AAXX 09004 71221 16/// /0201 11116 21147 60001 333 11115 21215 70017
AAXX 09004 71226 16/// /1004 11095 21131 60001 333 11093 21182 70004
AAXX 09004 71229 46/// /1505 11134 21158 6///1 333 11134 21210 7////
AAXX 09004 71359 16/// /2702 11151 21187 60001 333 11114 21198 70000
AAXX 09004 71067 16/// ///// 11138 21188 60001 333 11106 21222 70004
AAXX 09004 71283 16/// /1403 11115 21141 60001 333 11108 21198 70004
AAXX 09004 71288 16/// /3314 11280 21307 30117 40143 56005 60001 333 11233 21282 70000
AAXX 09004 71405 16/// ///// 11149 21174 60001 333 11093 21218 70000
AAXX 09004 71417 17/// /2333 10026 20015 39657 49690 55058 60071 7//4/ 333 10055 21020 70213
AAXX 09004 71426 46/// /2819 11025 6///1 333 11012 21027 7////
AAXX 09004 71758 16/// /2520 10020 21001 39971 40047 51097 60001 333 10133 20020 70152
AAXX 09004 71761 16/// ///// 11150 21201 60001 333 11121 21197 70000
AAXX 09004 71788 16/// /2403 11087 21115 60001 333 11074 21191 70000
AAXX 09004 71792 16/// ///// 11162 21194 60001 333 11097 21224 70011
AAXX 09004 71467 16/// /1113 11203 21222 30012 40130 56029 60001 333 11200 21248 70000
AAXX 09004 71888 16/// ///// 11159 21183 60001 333 11107 21207 70000
AAXX 09004 71895 16/// ///// 11123 21167 60001 333 11083 21223 70004
AAXX 09004 71673 16/// ///// 11126 21174 60001 333 11091 21216 70000
AAXX 09004 71690 16/// ///// 11089 21121 60001 333 11084 21203 70000
AAXX 09004 71576 16/// /2005 11155 21177 39947 40032 51013 60001 333 11098 21191 70000
BBXX 44061 09001 99388 70770 46/// /1301 1//// 90020 333 91201
BBXX 44061 09001 99388 70770 46/// /1601 1//// 40269 90010 333 91203
BBXX 44061 09001 99388 70770 46/// /0000 10061 40268 52011 90000 22200 00090 333 91201
BBXX 44059 09001 99368 70763 46/// /0602 1//// 90020 333 91202
BBXX 44059 09001 99368 70763 46/// /0502 1//// 40265 90010 333 91202
BBXX 44059 09001 99368 70763 46/// /0402 10081 40263 53017 90000 22200 00129 333 91203
BBXX 44058 09001 99376 70763 46/// /0303 1//// 90020 333 91205
BBXX 44058 09001 99376 70763 46/// /0304 1//// 40270 90010 333 91205
BBXX 44058 09001 99376 70763 46/// /0403 10077 40269 51019 90000 22200 00116 1//00 70002 333 91204
BBXX 46146 09001 99493 71237 46/// /3004 10043 40307 57007 22200 00062 10200 70002 333 91205
BBXX 46232 09001 99325 71174 46/// ///// 1//// 90008 22200 00146 11302 20601 322// 41301 70008
BBXX 46247 09001 99378 71228 46/// ///// 1//// 90021 22200 00120 11102 20801 329// 41102 70011
BBXX 46246 09001 99500 71451 46/// ///// 1//// 90029 22200 00076 11710 20806 328// 41708 70051
BBXX 46246 09001 99500 71451 46/// ///// 1//// 92359 22200 00076 11709 20806 328// 41708 70047
AAXX 09001 56144 32980 01101 11058 21175 36885 52006 333 00152
AAXX 09001 56152 32680 23201 11145 21165 36329 52006 82400 333 00152
AAXX 09001 56167 32980 03201 11067 21101 37114 52011 333 00100
AAXX 09001 56182 32780 82202 11034 21079 37225 52001 885// 333 05100 31022 79999
AAXX 09001 56357 32980 02501 11101 21140 36467 52004 333 05152
AAXX 09001 56586 11460 80000 11009 21016 38119 52003 69901 76676 885// 333 05151 30002 70002 93427
AAXX 09001 56748 32580 61101 10084 20064 38372 52010 86400 333 00051
AAXX 09001 56763 11565 81601 10113 20097 40171 52015 60021 78080 884// 333 00151 70019
AAXX 09001 56768 32678 81804 10120 20102 38204 52009 884// 333 05101
AAXX 09001 56838 31/05 92501 10132 20123 40167 52013 74340 333 00052 79999
AAXX 09001 56886 11460 80401 10034 20024 38359 52008 69951 76060 887// 333 00154 30048 70005
AAXX 09001 56946 31/03 90701 10116 20116 40174 52013 74540 333 05101
AAXX 09001 56959 32762 72701 10178 20175 40157 52011 874// 333 05102
AAXX 09001 56969 32660 71101 10184 20178 40165 52012 874// 333 05103
AAXX 09001 57731 32668 80000 10056 21007 40355 52006 885// 333 00252 30050 70002
AAXX 09001 57766 32762 20403 10053 21040 40358 52008 82500 333 00253 30022
AAXX 09001 57845 32962 83603 10053 21028 40333 52008 8807/ 333 00252 30037
AAXX 09001 57853 11960 71101 10048 21016 40356 52003 69911 70076 87040 333 00252 30039 70001
AAXX 09001 57916 32665 80701 10085 20012 40318 52008 885// 333 00253
AAXX 09001 57922 32760 73403 10016 21025 40337 52005 875// 333 00152 30022
AAXX 09001 57932 32668 70203 10073 21024 40336 52005 875// 333 00251
AAXX 09001 58338 32962 03603 10006 21024 40383 52011 333 00656 31008 70009
AAXX 09001 59007 11461 80402 10045 20022 40293 52010 69901 76060 885// 333 00153 79999
AAXX 09001 59046 32765 83602 10100 20001 40307 52018 885// 333 00300
AAXX 09001 59058 11860 83203 10091 20008 40296 52014 69901 70060 885// 333 00200 70001
AAXX 09001 59072 32765 83406 10076 20017 40317 52016 885// 333 00200 70007
AAXX 09001 59087 11762 80705 10101 21010 40283 52017 69911 70060 885// 333 00453 70001
AAXX 09001 59209 32460 80202 10085 20027 40280 52013 888// 333 00252 70001
AAXX 09004 71467 16/// /1113 11203 21222 30012 40130 56029 60001 333 11200 21248 70000
AAXX 09004 48465 31558 70910 10270 20226 30114 40118 52025 71022 83506 333 20245 58015
AAXX 09004 48350 32564 80000 10210 20176 39852 40157 52023 87506 333 20209 58023
AAXX 09004 48401 31959 50606 10240 20178 30034 40143 52028 71011 82041 333 20234 58025
AAXX 09004 94996 41462 80716 10206 20173 30009 40145 53011 78082 8687/ 90030 333 20193
AAXX 09004 94996 41462 80716 10206 20173 30009 40145 53011 78082 8687/ 90030 333 20193
AAXX 09004 60351 12960 00000 10096 20078 40250 58013 60001 333 95990
AAXX 09004 60351 12960 00000 10096 20078 40250 58013 60001 333 95990
BBXX 46243 09001 99462 71241 46/// ///// 1//// 90029 22200 00098 12202 21002 326// 42201 70012
BBXX 46236 09001 99368 71219 46/// ///// 1//// 90020 22200 00118 11201 21001 329// 41201 70007
BBXX 46229 09001 99438 71246 46/// ///// 1//// 90021 22200 00106 10704 20704 329// 41202 70022
BBXX 46225 09001 99329 71174 46/// ///// 1//// 90014 22200 00160 11301 20701 321// 41301 70005
BBXX 46213 09001 99403 71247 46/// ///// 1//// 90024 22200 00104 10804 20804 330// 41102 70021
BBXX 46215 09001 99352 71209 46/// ///// 1//// 90008 22200 00151 11302 20602 327// 41301 70009
AAXX 09001 40001 32570 61605 10077 21051 40182 58002 84550 333 84626 86360
AAXX 09001 40007 31557 83503 10072 20050 40158 52001 71000 8657/ 333 86630 88360
AAXX 09001 40025 11560 50502 10101 20085 40149 52008 60011 70260 85900 333 82926 85630
AAXX 09001 40045 11570 60000 10040 21009 40169 53001 60011 70262 84550 333 84630
AAXX 09001 40061 32570 60000 10058 20034 40154 52005 82550 333 82630 85360
AAXX 09001 40080 32562 22404 10080 20066 39444 40154 50004 81100 333 82826
AAXX 09001 40087 NIL
AAXX 09001 40095 NIL
AAXX 09001 40009 32565 70000 10075 20027 40132 55002 85530 333 85630
AAXX 09001 40016 NIL
AAXX 09001 40022 32565 50000 10084 20076 40141 52011 85800 222// 20000 333 82830 84632
AAXX 09001 40030 11/02 90000 10069 20065 40158 53008 69942 74041 89/// 333 89/05
AAXX 09001 40039 NIL
AAXX 09001 40066 11570 42801 10116 20097 40143 51008 60051 70161 84400 333 84626
AAXX 09001 40072 NIL
AAXX 09001 40083 32570 32001 10048 20020 48456 53005 83200 333 83826
AAXX 09004 65501 32960 70000 10228 21020 39807 40118 80002 333 0//00 59015 87076
AAXX 09004 65502 32960 60404 10230 21001 39741 40115 80002 333 0//00 59010 86076
AAXX 09004 65503 32960 50404 10228 20043 39774 40114 80002 333 0//00 59008 85076
AAXX 09004 65505 32960 70406 10254 20008 39778 40110 80002 333 0//00 59010 87076
AAXX 09004 65507 32960 70804 10225 20028 39763 40108 80002 333 0//00 59010 87076
AAXX 09004 65510 31940 50606 10244 20028 39597 40103 70622 80002 333 0//00 59011 85076
AAXX 09004 65516 32960 60000 10208 20051 39806 40109 80002 333 0//00 59007 86076
AAXX 09004 65518 32960 73604 10228 21002 39746 40104 80002 333 0//00 59008 87076
AAXX 09004 65522 31958 70000 10204 20077 39779 40104 70622 80002 333 0//00 59010 87076
BBXX KS078 09004 99402 31682 43/// /2730 10158 40184 22223
BBXX KS088 09004 99267 70801 43/// /1413 10228 40189 22200 06238
BBXX KS098 09004 99446 71240 43/// /2103 10096 40245 22200 06000
BBXX KS094 09004 99185 70644 43/// /0813 10262 40147 22200 06268
BBXX DDBR2 09004 99349 10358 41498 12714 10164 20130 40156 51005 70186 81100 22200 02194 20401 325// 40802 5//// 80145
BBXX DDDO2 08224 99345 10214 41598 53114 10180 20139 40225 53005 70122 81530 22224 00186 2//// 80155=80164
BBXX A8HD5 09001 99247 10585 41798 22505 10230 20079 40190 54000 70111 82145 22275 04200 20401 325// 40501 5//// 80150
BBXX 44258 09001 99445 70634 46/// /2812 10040 40146 52081 22200 00075 11108 70040 333 91216
BBXX 44258 09001 99445 70634 46/// /2812 10040 40146 52081 22200 00075 11108 70040 333 91216
AAXX 09004 97014 32560 31101 10295 20244 39993 40086 52012 81271 333 20222 50510 55063 55508 52057 56000 57804 58002 81823 80857
AAXX 09004 97028 12563 60702 10276 20244 30063 40068 51012 69904 83521 333 20235 50310 55000 56000 58001 83620 85460
AAXX 09004 97048 32456 40000 10264 20234 30046 40070 52013 83232 333 20214 50120 55067 56000 57802 58010 81817 80860
AAXX 09004 97072 11460 60000 10260 20227 39995 40095 52016 69904 70162 82571 333 20238 50470 55068 56000 58005 82619 84460
AAXX 09004 97086 NIL
AAXX 09004 97096 12560 70000 10260 20245 30068 40089 52008 60334 83221 333 20236 52410 55050 56000 57803 58000 83820 87460 80857
AAXX 09004 97120 12462 70000 10258 20237 30043 40076 52010 60024 82270 333 20248 50520 55100 56000 57802 59007 82818 86460 80860
AAXX 09004 97146 11456 60000 10252 20243 30016 40076 5//// 60044 70522 83572 333 20236 56000 59004 83613
AAXX 09004 97180 12458 70000 10265 20253 30073 40091 51019 60124 82271 333 20245 50300 55014 55508 51245 56000 59004 82819 86360
AAXX 09004 97192 01457 80605 10246 20243 30046 30046 52015 60494 72162 8352/ 333 20230 50011 55019 58008 69917 83615 88460
AAXX 09004 97230 32463 72403 10288 20244 30080 40087 52018 82132 333 20252 56000 50450 55021 56000 82814 84360
AAXX 09004 97260 32570 51502 10277 20225 30071 40078 52020 84101 333 20237 50039 55028 56000 59003 84820
AAXX 09004 97270 11458 40000 10290 20239 30073 40078 53015 69964 70521 82101 333 20244 50260 55018 56000 59010 82815
AAXX 09004 97300 32562 70000 10294 20230 30051 40091 52024 82271 333 20256 50290 55063 56000 57802 58003 82820 80857
AAXX 09004 97340 32570 82408 10286 20249 30069 40084 51018 81132 333 20244 50580 55081 56000 58002 81820 87360
AAXX 09004 97372 11465 70000 10281 20253 39964 40084 52019 60254 70196 82272 333 20225 58000 56000 82818 84359
AAXX 09004 97430 01458 71805 10274 20242 30061 40090 52017 69934 71562 84932 333 20252 50100 55002 56700 57971 57872 58006 69937 81915 83818 80980 80860
AAXX 09004 97460 32459 72403 10272 20249 30058 40072 52020 84876 333 20238 50340 55015 56700 57872 58004 83817 80858
AAXX 09004 97502 01458 53505 10300 20249 30071 40075 50001 69904 70262 83531 333 20246 55012 56000 59008 69907 83615
AAXX 09004 97530 11460 80000 10292 20249 30075 40080 52011 60024 70264 83827 333 20252 55000 56000 57802 59003 83814 87458 80833
AAXX 09004 97560 12460 60000 10290 20244 30068 40083 52010 60094 82239 333 20240 50330 55000 56000 57803 59003 82818 83361 85279 80860
AAXX 09004 97580 12460 63106 10284 20240 30084 40091 50004 60264 81208 333 20220 55015 56000 57800 58000 81814 86274 80860
AAXX 09004 97600 31459 70000 10272 20246 30074 40080 5//// 71522 84971 333 20250 5//// 55033 57961 57863 58005 81916 83818 85459 80958
AAXX 09004 97686 12462 70000 10214 20142 38354 40086 52012 69934 85833 333 20132 50/// 55013 56000 57802 58010 84813 86361 80859
AAXX 09004 97690 12465 40000 10276 20241 39986 40088 52018 60034 82131 333 20232 55000 56000 58007 82816
AAXX 09004 97724 31459 71503 10290 20247 30067 40083 52018 70521 84872 333 20246 50220 55003 56200 57822 58012 83816 80852
AAXX 09004 97748 31462 73405 10284 20246 30060 40062 54000 70522 82232 333 20260 50210 55001 56800 57883 58000 82818 85075 80857
AAXX 09004 97760 01460 63002 10282 20253 30067 40076 52015 60084 70262 83232 333 20238 55050 56000 57801 59005 83816 80860
AAXX 09004 97796 12460 40000 10286 20252 30041 40092 52016 60614 81132 333 20228 55050 56000 58004 81820
AAXX 09004 97810 12462 73106 10280 20250 30047 40056 57002 60204 82272 333 20244 50410 55013 56000 57804 59007 82819 85360 80835
AAXX 09004 97876 11256 80000 10250 20238 30101 40132 51012 60034 887// 333 20238 55075 56099 58009 83706 85607
AAXX 09004 97900 32568 73504 10271 20243 30051 40079 52019 82220 333 20258 50460 55047 56700 57873 58008 82820 87460 80830
AAXX 09004 97980 01460 62703 10290 20247 30068 40075 51007 60104 70266 85842 333 20256 50550 55017 56000 58000 60047 83620
AAXX 09004 96009 11456 82102 10242 20236 30058 40093 52015 69914 71796 8397/ 333 20236 50440 55071 56009 57903 58013 71916 82616 85360 80965
AAXX 09004 96011 12560 70000 10242 20235 30066 40092 52008 60094 83531 333 20240 50240 55037 58005 83620
AAXX 09004 96035 01458 80000 10242 20232 30060 40098 52017 69934 76196 8557/ 333 20238 50220 55005 56009 58017 69937 85617
AAXX 09004 96073 31457 70000 10226 20217 30084 40096 52017 70522 83922 333 20213 50360 55016 56000 57901 59005 83917 80960
AAXX 09004 96091 12460 30000 10238 20232 30078 40101 51013 60394 81431 333 20236 50000 50013 56000 58004 81613
AAXX 09004 96109 01456 60000 10253 20245 30047 40087 52011 69974 72162 83532 333 20245 50350 55016 56000 58000 69977 83610
AAXX 09004 96145 32456 60000 10242 20231 30086 40089 5//// 82170 333 20240 50290 55082 56400 58001 82816 86460
AAXX 09004 96147 NIL
AAXX 09004 96163 32960 20000 10244 20227 30086 40087 52006 81031 333 20229 55030 56000 59005 81362
AAXX 09004 96179 12460 70000 10242 20236 30057 40094 52008 60264 83208 333 20230 50090 55023 56000 57802 58016 83817 80850
AAXX 09004 96195 31430 73403 10248 20239 30065 40101 52016 70522 82531 333 20234 50151 55035 56000 59009 82617
AAXX 09004 96221 11430 70000 10247 20240 30076 40091 52012 60044 70596 83576 333 20246 50440 55037 56999 59007 83610 85080
AAXX 09004 96237 12456 50000 10242 20238 30052 40094 52016 60154 83158 333 20232 50870 55037 56000 58002 83817 84360
AAXX 09004 96249 31558 50000 10252 20246 30029 40090 52013 70522 82232 333 20239 50040 55060 57802 58003 82820 80863
AAXX 09004 96253 31540 70403 10237 20212 30042 40063 57001 70521 82872 333 20230 50294 55095 55508 50972 56000 57800 59018 81820 84460
AAXX 09004 96295 31440 70000 10244 20232 39993 40096 51018 84221 333 20238 50450 55020 50577 56000 57800 58006 84812 83462 80800
AAXX 09004 96509 01457 70000 10254 20244 30069 40081 52004 60104 70296 84271 333 20240 50320 55085 56000 57804 59004 60094 84815 80856
AAXX 09004 96581 32460 70203 10244 20238 30086 40093 52019 82131 333 20240 50490 56000 58003 82812 84082 80860
AAXX 09004 96633 11559 82202 10262 20244 30072 40080 52013 69904 70262 8157/ 333 20217 50660 55026 56009 58005 81622 87462
AAXX 09004 96645 32456 63205 10246 20227 30062 40094 52024 82572 333 20226 50300 55060 56000 58002 82613
AAXX 09004 96655 12457 52803 10256 20235 30077 40112 52014 60034 83521 333 20235 50000 55000 56000 58004 83612
AAXX 09004 96685 12458 80000 10251 20239 30075 40101 50017 60024 8753/ 333 20247 50050 55055 56009 58004 87412
AAXX 09004 96749 11550 62204 10258 20239 30082 40095 53020 69904 70521 82522 333 20242 50370 55025 56000 59002 82622 84461
AAXX 09004 96781 11440 80000 10210 20187 39283 48732 52013 60054 70522 83531 333 20204 56000 59002 83618
AAXX 09004 96805 01559 60000 10263 20237 30090 40099 51008 60024 71462 83221 333 20248 50610 55089 56000 57801 69947 59007 83820 80860
AAXX 09004 96839 31550 61803 10266 20230 30082 40089 52020 70521 84132 333 20252 50591 55075 56000 59004 83820
AAXX 09004 96935 32560 70000 10265 20232 30085 40091 50002 81232 333 20256 50090 55024 56000 57802 59001 81820 84080 80860
AAXX 09004 96001 11557 70000 10242 20236 39955 40103 5//// 60014 70522 84572 333 20186 50460 55065 56000 58008 84620
AAXX 09004 96015 11457 70000 10240 20237 30090 40097 5//// 60114 70262 84572 333 20204 50084 55023 56000 58020 84615
AAXX 09004 96033 01440 80000 10246 20238 30084 40090 52010 60524 71596 84927 333 20238 50234 55052 56000 57903 59006 69907 81920 84618 80980
AAXX 09004 96075 11557 70000 10231 20228 30076 40082 5//// 60014 70522 83571 333 20217 50280 55016 56000 59006 83620 85462
AAXX 09004 96087 11458 40000 10254 20242 30064 40097 51014 60014 70511 81531 333 20244 50260 55021 56000 58004 81617
AAXX 09004 96171 31408 70000 10244 20235 30062 40086 52005 74642 85522 333 20238 50040 55006 56000 59006 85615
AAXX 09004 96207 NIL
AAXX 09004 96505 NIL
AAXX 09004 96525 01457 80000 10245 20237 30081 40088 52018 60084 71562 84976 333 20240 50640 55010 56000 57900 58005 69927 81915 84615 87460 809//
AAXX 09004 96529 01450 80000 10242 20239 30076 40100 52015 60184 72165 8412/ 333 20238 50150 55058 56009 58007 69947 84818 88460
AAXX 09004 96535 32460 70702 10253 20246 30083 40103 5//// 82231 333 20241 50360 55068 56000 57803 58003 82814 85082 80864
AAXX 09004 96557 11405 80000 10228 20222 30046 40096 69904 74244 8592/ 333 20223 50460 55060 56009 57900 57800 58006 82912 83813 88460 80980 80857
AAXX 09004 96559 11456 61203 10236 20228 30062 40100 53020 60044 70521 85131 333 20228 50430 55077 56000 57801 58010 85810 80856
AAXX 09004 96565 01350 80000 10245 20240 30060 40112 5//// 60224 70562 8417/ 333 20236 50610 55080 56009 58012 60228 84808 88357
AAXX 09004 96595 11250 70000 10246 20237 30055 40107 69924 70522 85556 333 20236 50390 55073 56000 58004 85606
AAXX 09004 96607 32460 72506 10270 20231 30083 40098 52021 84221 333 20252 50330 55027 56000 58005 84815 86460
AAXX 09004 96615 32459 70404 10258 20237 30088 40102 86131 333 20242 50460 55087 56200 57823 58003 86812 80856
AAXX 09004 96695 32458 60000 10257 20242 30079 40085 5//// 83121 333 20243 50400 55050 56000 58004 83617 83465
AAXX 09004 96737 32462 20000 10246 20237 30045 40075 53010 82501 333 20228 50350 55030 56000 59006 81615
AAXX 09004 96739 NIL
AAXX 09004 96741 32560 72503 10272 20231 30081 40085 52017 84571 333 20266 56000 59003 84621
AAXX 09004 96745 32557 60000 10262 20223 30082 40087 52029 82571 333 20246 50300 55020 56000 59007 82620 85460
AAXX 09004 96751 12558 70000 10192 20152 39026 48920 52011 60104 82571 333 20174 50210 55030 56000 59004 82620
AAXX 09004 96791 12457 70000 10256 20244 30035 40109 52016 60144 82521 333 20250 50684 55064 56000 59004 82619 85460
AAXX 09004 96797 32560 71905 10268 20241 30085 40090 52017 82571 333 20258 50550 55062 51768 56000 59005 82620 85460
AAXX 09004 96837 31559 61202 10268 20235 30085 40088 52022 70521 83231 333 20260 50600 55050 56000 57800 59014 83823
AAXX 09004 96925 31465 60000 10257 20224 30083 40088 51016 69904 72992 82272 333 20245 50430 55049 56000 57800 59006 82817 85080 80860
AAXX 09004 96933 32460 70000 10266 20242 30088 40092 52024 82571 333 20260 50371 55036 59001 82618 86460
AAXX 09004 96937 32558 80000 10270 20249 30083 40088 52017 8152/ 333 20260 50300 55029 56000 59005 83623 88460
AAXX 09004 96973 11461 73003 10262 20247 30081 40086 52020 60014 70292 83971 333 20250 50351 55010 56000 57902 57802 59001 81919 82820 80976 80856
AAXX 09004 96987 32560 32405 10290 20228 30033 40092 52021 81531 333 20242 50091 56056 56000 58009 81621
AAXX 09004 97008 12559 20000 10278 20240 30057 40068 52006 60014 81131 333 20230 50360 55016 56000 58003 81820
AAXX 09004 97016 32564 50000 10284 20234 30078 40080 52012 82232 333 20246 50370 55051 56000 57802 58007 82820 83080 80860
AAXX 09004 97126 01458 72901 10250 20238 30032 40092 52014 60054 76166 82920 333 20218 50410 55053 56000 57901 58000 69907 81917 87460 80980
AAXX 09004 97142 32459 80000 10262 20245 30050 40065 5//// 8282/ 333 20250 50390 55024 56009 57806 59005 81819 88459 80857
AAXX 09004 97182 12568 71102 10268 20235 30080 40084 52020 60034 83271 333 20254 50430 55015 56000 57800 59004 83820 86360 808//
AAXX 09004 97240 31459 23204 10268 20248 39978 40093 52018 70500 81101 333 20234 50410 55059 56000 59009 81816
AAXX 09004 97284 12460 73503 10206 20175 38857 40096 5//// 60054 84271 333 20176 50140 55052 56000 57802 58004 84812 80837
AAXX 09004 97310 32566 70000 10275 20240 30065 40077 5//// 83221 333 20220 50640 55063 56000 57802 58006 82820 87460 80840
AAXX 09004 97320 01463 70000 10256 20241 30062 40075 5//// 60124 72162 84176 333 20238 50430 55059 56000 58004 69907 84819 84460
AAXX 09004 97378 32570 70000 10278 20252 39916 40079 5//// 83232 333 20228 50/// 55059 56000 58023 83820 84080
AAXX 09004 97380 32564 42806 10298 20253 30057 40077 5//// 83131 333 20266 50710 55094 56000 59002 83820
AAXX 09004 97406 32460 60000 10262 20238 30061 40086 52024 83231 333 20222 50170 55002 56000 57801 58011 83819 80860
AAXX 09004 97570 11460 41602 10300 20247 30075 40082 51009 60044 70341 82201 333 20230 55000 56000 59009 82813
AAXX 09004 97630 12468 70000 10286 20240 39915 40075 51009 69904 84942 333 20236 50378 55030 56000 57901 58016 81911 83812 85080 80978
AAXX 09004 97682 21475 43105 10286 20246 30077 40084 85004 60294 70262 83203 333 20232 55021 56000 57803 58010 82816 80856
AAXX 09004 97698 11460 61505 10284 20240 30088 40095 52010 60084 70562 83942 333 20244 55000 56000 57901 57802 58/// 81915 82816 85079 80980 80860
AAXX 09004 97700 12462 62104 10272 20237 30055 40070 52008 60174 82232 333 20234 50630 55008 56000 57804 58002 82818 80856
AAXX 09004 97722 12565 33404 10284 20222 30063 40078 52005 69904 83202 333 20228 50470 55012 56600 57862 58007 83820 80850
AAXX 09004 97780 11466 50000 10220 20141 38240 40252 57007 60344 83836 333 20136 55010 56000 57802 58012 82817 84361 80850
AAXX 09004 97790 11559 50000 10292 20250 30030 40050 51006 69904 70521 82136 333 20248 50240 55016 56000 57803 59006 82820 80858
AAXX 09001 37735 42697 50000 10022 21038 40148 58007 85500 555 10103
AAXX 09001 37851 42598 62404 10073 20041 30068 40142 57012 86500 333 91118
AAXX 09001 37989 42996 53102 10041 20034 30195 40168 57007 85030 555 10002
AAXX 09001 37740 42998 40201 11004 21028 39352 40176 57004 84050 555 11002
AAXX 09001 37925 42997 82702 10041 20016 30188 40158 57008 8807/ 555 11004
AAXX 09001 37675 42995 22501 10027 21080 39458 40122 54000 82040 555 14102
AAXX 09001 37661 42998 01101 11002 21033 39404 40181 57004 555 14102
AAXX 09001 37749 42998 03201 10013 20005 30096 40215 53008 555 11001
AAXX 09001 37864 32597 21708 10063 20040 40134 57011 82500
AAXX 09001 37985 42596 73201 10038 20031 30183 40168 58003 87500 555 11003
BBXX 46036 09001 99484 71339 46/// /2703 10061 40339 57005 22200 00086 11804 70018 333 91204
BBXX 46036 09001 99484 71339 46/// /2703 10061 40339 57005 22200 00086 11804 70018 333 91204
AAXX 09004 41312 36/// /3506 10216 21005 30116 40155 333 0E055 58005
BBXX AMOUK08 09004 99501 70061 46/// ///// 10102 20043 30132 40136 52021 92350
BBXX 63106 09004 99610 10017 46/// /0727 10061 49623 51004 22200
BBXX 63105 09004 99610 10017 47497 ///// 10052 20042 49630 52009 751// 22200
BBXX 62094 09004 99517 70067 46/// /2722 10079 20079 40110 52012 22200 00115 10606 70031
BBXX 64049 09003 99571 10022 41/97 82750 10064 20055 49640 55020 70722 8//// 22200 04095 20714 327// 40716 5//// 80060
AAXX 09001 88900 46/// /2112 10032 20026 30039 40042 55005 333 10061 20032
BBXX 41010 09001 99289 70785 46/// /0305 10205 40214 90020 22200 00241 10903 20401 300// 40903 70017 333 91207 555 11054 22056
BBXX 41009 09001 99285 70802 46/// /0607 10211 20146 40214 90020 22200 00248 10803 20502 300// 40802 70015 333 91209 555 11068 22071
BBXX 44062 09001 99386 70764 46/// /3501 1//// 90020 22200 00103 333 91202
BBXX 44062 09001 99386 70764 46/// /3403 1//// 40254 90010 22200 00103 333 91204
BBXX 44062 09001 99386 70764 46/// /3302 10063 40252 51013 90000 22200 00103 1//00 70001 333 91204
BBXX 44063 09001 99390 70764 46/// /0000 1//// 90020 333 91200
BBXX 44063 09001 99390 70764 46/// /0000 1//// 40284 90010 333 91200
BBXX 44063 09001 99390 70764 46/// /0000 10054 40281 90000 22200 00097 1//00 70001 333 91200
BBXX 44041 09001 99372 70768 46/// /0801 1//// 90020 333 91201
BBXX 44041 09001 99372 70768 46/// /0701 1//// 40294 90010 333 91201
BBXX 44041 09001 99372 70768 46/// /0701 10053 40292 53017 90000 22200 00125 1//00 70001 333 91202
BBXX 44042 09001 99380 70763 46/// /0102 1//// 90020 333 91202
BBXX 44042 09001 99380 70763 46/// /3602 1//// 40275 90010 333 91202
BBXX 44042 09001 99380 70763 46/// /3602 10066 40275 51019 90000 22200 00104 1//00 70002 333 91203
BBXX 44043 09001 99392 70764 46/// /3204 1//// 90020 333 91206
BBXX 44043 09001 99392 70764 46/// /3304 1//// 40263 90010 333 91205
BBXX 44043 09001 99392 70764 46/// /3103 10062 40263 51014 90000 22200 00094 1//00 70002 333 91204
BBXX 42361 09001 99276 70925 46/// ///04 10167 20061 40220 53003 90030 555 11035 22037
BBXX 44100 09001 99363 70756 46/// ///// 1//// 90022 22200 00145 11003 21002 308// 41101 70013
BBXX 41110 09001 99341 70777 46/// ///// 1//// 90021 22200 00156 11102 20901 312// 41101 70008
BBXX 42099 09001 99273 70842 46/// ///// 1//// 90027 22200 00242 10603 20603 70016
BBXX 41113 09001 99284 70805 46/// ///// 1//// 90021 22200 00216 10901 20901 70007
BBXX 41112 09001 99307 70813 46/// ///// 1//// 90021 22200 00169 10502 20502 311// 41101 70012
BBXX 42363 09001 99282 70892 46/// /0704 10150 20072 40244 90030 333 91204
BBXX 42364 09001 99291 70881 46/// /3504 10122 20072 40247 90030
BBXX 46238 09001 99334 71195 46/// ///// 1//// 90020 22200 00150 10703 20702 329// 41501 70013
BBXX 46239 09001 99363 71221 46/// ///// 1//// 90021 22200 00127 11202 21002 328// 41202 70011
AAXX 09001 20046 42498 60000 11149 21162 30037 40070 52007 82501
AAXX 09001 20069 NIL
AAXX 09001 20087 11897 81306 11161 21195 30102 40113 52003 69902 77173 8807/ 333 21184 48019
AAXX 09001 20292 NIL
AAXX 09001 20353 46/// /2509 11020 21051 30034 40038 52004 333 91111
AAXX 09001 20667 42598 81904 11028 21032 30091 40098 52003 885//
AAXX 09001 20674 11298 72906 11038 21040 30048 40107 53013 69972 73673 875// 333 21105 48020 86705 91109
AAXX 09001 20744 42498 31504 11030 21050 30066 40084 52011 83500
AAXX 09001 20891 11497 70302 11226 21251 30076 40121 52003 69972 78582 8593/ 333 21240 47/// 85916 91103
AAXX 09001 23022 41497 82211 11019 21030 30077 40138 52012 73683 885// 333 91114
AAXX 09001 23032 41496 82310 11033 21047 30123 40154 52013 78583 889// 333 88913 91115
AAXX 09001 23058 42398 72505 11070 21083 30163 40167 52006 87600 333 85708
AAXX 09001 23242 41997 72706 11065 21081 30180 40196 52018 73632 87030
AAXX 09001 23256 41498 82605 11072 21077 30155 40191 52011 70282 84306 333 84911
AAXX 09001 23330 42997 02003 11109 21122 30218 40240 52017
AAXX 09001 23445 41997 02405 11021 21033 30223 40249 52031 70282
AAXX 09001 23552 41496 82603 11005 21017 30201 40236 52017 77172 885// 333 88612
AAXX 09001 23631 42998 22403 11083 21089 30237 40280 52005 82030
AAXX 09001 23662 41596 82103 11048 21054 30204 40249 52006 78582 883//
AAXX 09001 23724 42998 80802 11101 21107 30238 40306 52006 8805/
AAXX 09001 23734 41996 70000 11040 21042 30215 40309 51011 71022 87010
AAXX 09001 23849 42696 42503 11071 21102 40334 52014 84500 333 84643
AAXX 09001 23867 42599 62503 11104 21132 30250 40326 54000 82571
AAXX 09001 23933 42997 61902 11074 21088 30270 40329 52008 82021
AAXX 09001 28064 42998 81901 11100 21144 30252 40348 52011 80002
AAXX 09001 28275 42997 01101 11185 21197 30318 40384 52006
AAXX 09001 28493 42997 01401 11217 21235 30321 40423 58004
AAXX 09001 28698 41996 60000 11185 21197 30258 40428 57005 77674 80001
AAXX 09001 23426 42984 12405 11030 21072 30232 40257 52020 80001
AAXX 09001 23625 42998 00501 11104 21110 30254 40290 52014
AAXX 09001 28076 42697 32001 11123 21143 30278 40355 52006 81501
AAXX 09001 28367 42984 21801 11161 21174 30245 40385 52003 80001
AAXX 09001 28382 42998 20000 11231 21242 30323 40403 53003 80001
AAXX 09001 28481 42998 02002 11162 21175 30301 40408 58002
AAXX 09001 28491 42997 02001 11157 21176 30292 40412 52002
AAXX 09001 28573 42997 02102 11181 21193 30303 40418 53001
AAXX 09001 28593 42997 00000 11196 21208 30318 40427 57001
AAXX 09001 28786 42997 00701 11171 21183 30250 40422 57006
AAXX 09001 28797 42997 00501 11166 21185 30247 40419 57007
AAXX 09001 28799 42997 00000 11177 21196 30263 40421 57005
AAXX 09004 78318 12465 51002 10212 20184 30175 40179 53010 60001 85800 333 10233 20210 31/// 56900 58020 70081 82818 83620
AAXX 09004 78325 11530 70203 10208 20160 30126 40185 52010 60001 70422 874// 333 10235 20201 30/// 56899 58022 82820 85621 555 10202
AAXX 09004 78333 12/10 13604 10214 20186 30157 40164 53016 60001 81030 333 10277 20176 30/// 56090 58016 813//
AAXX 09004 78348 11550 70203 10235 20217 30110 40163 53011 69921 70582 87800 333 10259 20197 31/// 56100 57885 58010 70017 83820 85630 555 10502
AAXX 09004 78349 01450 73401 10220 20215 30053 40163 53012 60021 70286 878// 333 10279 20196 31/// 56899 58008 69936 70015 82819 87625 555 13603
AAXX 09004 78353 12560 40401 10244 20225 30135 40157 53005 60001 84800 333 10268 20220 31/// 50424 56900 58012 70325 83820
AAXX 09004 78360 12561 40101 10255 20231 30130 40142 53015 60001 84800 333 10299 20221 30/// 56900 57889 58010 70016 82820 92011
AAXX 09004 91369 32474 41017 10306 20272 30081 40084 83100 333 20261 562// 58006 83815 555 90900
AAXX 09004 91425 32574 10404 10283 20267 30092 40093 5//// 81200 333 20244 561// 58005 81820 555 90900
AAXX 09004 91434 32474 51005 10311 20252 30113 40114 5//// 83208 333 20261 562/9 58007 83818 555 90900
AAXX 09004 91353 32474 80506 10317 20256 30108 40115 5//// 83208 333 20256 561/9 58009 83819 85080 555 90900
AAXX 09003 63661 32980 00904 10130 20113 48517 333 59006
AAXX 09003 63671 32980 00000 10230 20206 333
AAXX 09003 63793 32480 70000 10235 20205 40060 875// 333 59010 87614
AAXX 09004 63688 32980 00912 10125 20103 48/// 333 5////
AAXX 09004 63740 32470 30205 10145 20137 48491 81530 333 59003 81618
AAXX 09004 63612 NIL
AAXX 09004 63661 NIL
AAXX 09004 63671 NIL
AAXX 09004 63695 NIL
AAXX 09004 63708 NIL
AAXX 09004 63714 NIL
AAXX 09004 63723 NIL
AAXX 09004 63772 NIL
AAXX 09004 63793 NIL
AAXX 09004 63820 NIL
BBXX WDE2719 09003 99607 71514 41/96 80505 11011 2//// 40070 5//// 771// 8//// 222// 0//// 2//// 3//// 4//// 5//// 6//// 8//// ICE /////
BBXX WC5932 09004 99443 70874 43/// /3021 00/// 11024 21089 40200 57003 7//// 8//// 22284 0//// 2//// 3//// 4//// 5//// 6//// 81045 ICE /////
BBXX VRWG3 09004 99394 70157 41/97 71001 10170 20079 40280 56/// 70322 8//3/ 22222 00150 2//// 3//// 4//// 5//// 6//// 80120 ICE /////
BBXX WHKM 09004 99358 10309 41498 63120 10150 20116 40150 51010 7//11 861// 22263 0//// 20403 327// 40605 5//// 6//// 80130 ICE /////
BBXX 46219 09001 99332 71199 46/// ///// 1//// 90028 22200 00136 10703 20703 328// 41301 70017
BBXX 46214 09001 99379 71235 46/// ///// 1//// 90027 22200 00114 10903 20902 329// 41302 70015
BBXX 44099 09001 99369 70757 46/// ///// 1//// 90022 22200 00136 10802 20802 310// 41101 70009
BBXX 44022 09001 99409 70737 46/// ///05 10060 21020 90030 22200 00104 333 91206 555 11046 22046
BBXX 44040 09001 99410 70736 46/// /3005 10060 21016 90019 22200 1//00 70001 333 91206 555 11067 22077
BBXX 51204 09001 99213 71581 46/// ///// 1//// 90022 22200 00249 11504 20902 330// 41503 70018
BBXX 51202 09001 99214 71577 46/// ///// 1//// 90009 22200 00242 10804 20804 336// 41702 70020
BBXX A8QL5 09001 99172 70215 41/97 70706 10210 20180 40150 54000 70222 86717 22254 04230 21002 80190
BBXX TBWUK34 09004 99190 70185 41497 40515 10206 20184 40153 52030 70211 82628 22284 00240 20703 336// 41202 5//// 80192
BBXX ZIPR7 09003 99195 70181 41697 30205 10210 20194 40157 54000 7//// 834// 22244 04212 2//// 3//// 4//// 5//// 80200
BBXX AMOUK01 09004 99312 30157 46/// ///// 10169 20114 30171 40181 57005 92350
BBXX AMOUK17 09004 99328 30573 46/// ///// 10196 20180 30187 40195 54003 92350
BBXX ZSAF 09004 99339 30162 41599 61522 10172 20073 40213 57079 70122 86500 22263 04179 2//// 318// 40606 5////
BBXX DIJY2 09004 99305 50082 41/98 /1015 10175 20074 40300 52005 70222 8/4// 22264 00170 2//05 3//// 4//// 5//// 80120
BBXX AMOUK15 09004 99211 30009 46/// ///// 10192 20137 30168 40199 54000 92350
BBXX ZDLS1 09003 99312 30157 41597 31430 10163 20107 40176 57002 70111 82445 22232 04170 20608 80133
BBXX AMOUK20 09004 99146 70285 46/// ///// 10246 20207 30154 40173 52005 92350
BBXX A8GH5 09003 99211 70183 41/96 30516 10210 20164 40175 52005 70500 8//// 22214 20201 80180
BBXX ZNQO3 09001 99172 10564 41298 11601 10242 20115 40158 54000 70111 81100 22264 04262 20402 336// 40602 5//// 80170
BBXX ZQDI9 09003 99228 10605 41798 20415 10196 20139 40164 58012 70200 811/7 22234 00260 20502 3//// 4//// 5//// 80163
BBXX A8HD5 09001 99247 10585 41798 22505 10230 20079 40190 54000 70111 82145 22275 04200 20401 325// 40501 5//// 80150
BBXX MGGK4 09004 99345 30254 41798 41318 10170 20043 40231 50010 70111 841// 22253 00194 2//// 3//// 4//// 5//// 80110
BBXX PDHP 09003 99229 10626 41998 09904 10236 20113 40149 55007 7//// 80000 22235 00264 20201 80162
BBXX DDZF2 09004 99195 10390 41697 20412 10265 20215 40130 54000 70100 8/442 22234 00280 20403 80230
BBXX VQHO7 09004 99292 50443 41/98 /0304 10220 20189 40128 53010 70222 8//// 22214 00200 2//// 3//// 4//// 5//// 80200
BBXX 46036 09001 99484 71339 46/// /2703 10061 40339 57005 22200 00086 11804 70018 333 91204
BBXX 44258 09001 99445 70634 46/// /2812 10040 40146 52081 22200 00075 11108 70040 333 91216
BBXX KS098 09004 99446 71240 43/// /2103 10096 40245 22200 06000
BBXX KS094 09004 99185 70644 43/// /0813 10262 40147 22200 06268
BBXX KS088 09004 99267 70801 43/// /1413 10228 40189 22200 06238
BBXX 46215 09001 99352 71209 46/// ///// 1//// 90008 22200 00151 11302 20602 327// 41301 70009
BBXX 46213 09001 99403 71247 46/// ///// 1//// 90024 22200 00104 10804 20804 330// 41102 70021
BBXX 46229 09001 99438 71246 46/// ///// 1//// 90021 22200 00106 10704 20704 329// 41202 70022
BBXX 46236 09001 99368 71219 46/// ///// 1//// 90020 22200 00118 11201 21001 329// 41201 70007
BBXX 46225 09001 99329 71174 46/// ///// 1//// 90014 22200 00160 11301 20701 321// 41301 70005
BBXX 46243 09001 99462 71241 46/// ///// 1//// 90029 22200 00098 12202 21002 326// 42201 70012
BBXX 46246 09001 99500 71451 46/// ///// 1//// 92359 22200 00076 11709 20806 328// 41708 70047
BBXX 46246 09001 99500 71451 46/// ///// 1//// 90029 22200 00076 11710 20806 328// 41708 70051
BBXX 46247 09001 99378 71228 46/// ///// 1//// 90021 22200 00120 11102 20801 329// 41102 70011
BBXX 46232 09001 99325 71174 46/// ///// 1//// 90008 22200 00146 11302 20601 322// 41301 70008
BBXX 46146 09001 99493 71237 46/// /3004 10043 40307 57007 22200 00062 10200 70002 333 91205
BBXX 44059 09001 99368 70763 46/// /0402 10081 40263 53017 90000 22200 00129 333 91203
BBXX 44059 09001 99368 70763 46/// /0502 1//// 40265 90010 333 91202
BBXX 44061 09001 99388 70770 46/// /0000 10061 40268 52011 90000 22200 00090 333 91201
BBXX 44061 09001 99388 70770 46/// /1601 1//// 40269 90010 333 91203
BBXX 44058 09001 99376 70763 46/// /0304 1//// 40270 90010 333 91205
BBXX 44058 09001 99376 70763 46/// /0303 1//// 90020 333 91205
BBXX 44061 09001 99388 70770 46/// /1301 1//// 90020 333 91201
BBXX 44059 09001 99368 70763 46/// /0602 1//// 90020 333 91202
BBXX 44058 09001 99376 70763 46/// /0403 10077 40269 51019 90000 22200 00116 1//00 70002 333 91204
BBXX 46004 09001 99509 71361 46/// /2406 10069 40313 57009 22200 00080 11805 70025 333 91209
BBXX 46184 09001 99539 71389 46/// /2011 10071 40233 57022 22200 00068 11006 70030 333 91213
BBXX 46092 09001 99368 71220 46/// /3105 10110 40186 56008 92357 22200 00119 555 11046 22051
BBXX 46181 09001 99538 71288 46/// /0503 10003 40330 57005 22200 00034 10400 70000 333 91203
BBXX 51173 09001 99260 71739 46/// ///// 1//// 90011 22200 00238
BBXX 51172 09001 99284 71783 46/// ///// 1//// 90012 22200 00235
BBXX 51176 09001 99278 71758 46/// ///// 1//// 90002 22200 00236
BBXX A8SI9 09003 99533 71793 43398 83018 10030 20030 40100 52020 8774/ 22275 00060 20906 309// 40907 80039
BBXX GDTT 09004 99186 70653 41198 50618 10260 20246 40132 52002 75051 83244 22273 00300 20602 305// 40504 80250
BBXX PHHD 09001 99346 70721 41/98 /0110 10140 20085 40240 51025 7//22 8//// 22213 04210 2//05 80110
BBXX ZCDM6 09003 99172 70743 41598 20110 10270 20241 40132 53003 70100 82148 22214 00290 20301 302// 40301 5//// 80250
BBXX 46205 09001 99542 71343 46/// /2008 10066 40284 57009 22200 00077 11705 70023 333 91210
BBXX 46132 09001 99497 71279 46/// /3211 10071 40297 57010 22200 00084 12004 70018 333 91213
BBXX 46206 09001 99488 71260 46/// /0902 10064 40299 57007 22200 00090 11102 70011 333 91204
BBXX 46208 09001 99525 71327 46/// /2304 10065 40312 57011 22200 00078 12004 70019 333 91205
BBXX WPGK 09004 99384 70725 41498 33324 10078 2002/ 40230 54000 70200 83800 22285 00200 20605 3//// 4//// 5//// 6//// 80050 ICE /////
BBXX 46185 09001 99524 71298 46/// /1305 10045 40318 57005 22200 00074 12101 70006 333 91206
BBXX 46087 09001 99485 71247 46/// /1108 10065 20024 40294 90020 22200 00082 333 91209 555 11079 22083 32354 41209 60019 113075 110070 108066 111066 112063 114059
BBXX C6VG7 09004 99195 70822 41797 00419 10260 2//// 40160 54/// 702// 80/// 22263 00250 2//// 3//// 4//// 5//// 6//// 8//// ICE /////
BBXX 41036 09001 99342 70770 46/// ///// 10113 20036 40271 90020 22200 00171
BBXX 44032 09001 99437 70694 46/30 /2907 10050 40193 51049 90004 22200 00094 10603 70014 333 91209 555 11087 22091
BBXX 44030 09001 99432 70704 46/// /2407 1//// 40212 53042 90004 22200 00091 11102 70011 333 91209 555 11091 22097
BBXX 44040 09001 99410 70736 46/// /3005 10060 21015 90015 22200 1//00 70001 333 91207 555 11067 22077
BBXX 44029 09001 99425 70706 46/30 /2608 10054 40222 53043 90004 22200 00094 10401 70005 333 91210 555 11099 22103
BBXX TBWUK47 09004 99059 10918 41498 40512 10279 20243 40092 52011 70211 83851 22264 04292 20101 318// 40403 80254
BBXX PBOF 09003 99354 11243 41/96 83245 10000 21027 40310 52050 76077 8//// 22272 04130 20612 333// 40710 81010 90128
BBXX UGOS 09001 99584 11490 41497 80312 11080 40021 55010 77072 22213 00014 20503 61100
BBXX UGWJ 09001 99214 11164 41198 80616 10203 40235 52031 70220 8872/ 22252 00247 20704
BBXX 52245 09001 99181 11458 46/// ///// 1//// 90005 22200 00284
BBXX 52244 09001 99200 11452 46/// ///// 1//// 90007 22200 00271
BBXX 52246 09001 99152 11457 46/// ///// 1//// 90007 22200 00284
BBXX 52248 09001 99135 11448 46/// ///// 1//// 90006 22200 00287
BBXX A8MV6 09003 99131 11147 41497 50423 10270 20241 40090 54000 70322 8/500 22253 04290 20704 30499 40706 5//// 80250
BBXX TBWUK17 09003 99124 11124 41397 80221 10267 20250 40131 52004 70322 86710 22253 04280 20305 302// 40707 5//// 80255
BBXX 52243 09001 99193 11666 46/// ///// 1//// 92354 22200 00275
BBXX AUYI 09004 99123 10828 41598 20404 10250 20207 40057 54003 70211 85011 22283 00300
BBXX WC5932 09004 99443 70874 43/// /3021 00/// 11024 21089 40200 57003 7//// 8//// 22284 0//// 2//// 3//// 4//// 5//// 6//// 81045 ICE /////
BBXX KS078 09004 99402 31682 43/// /2730 10158 40184 22223
BBXX 51179 09001 99143 51708 46/// ///// 1//// 90002 22200 00288
BBXX V7QN8 09003 99027 11195 41298 82516 10260 2025/ 40100 50/// 78065 88679 22283 04270 20602 327// 40602 5//// 6//// 80250 ICE /////
BBXX 51169 09001 99004 51600 46/// ///// 1//// 92354 22200 00255
BBXX 51178 09001 99142 51695 46/// ///// 1//// 92357 22200 00292
BBXX V2QD4 09003 99342 31654 41299 20730 10193 20179 40177 50008 70100 8/261 22263 00204 20502 318// 41004
BBXX ZMFR 09004 99507 31674 43/// /28// 10097 20083 40223 52025 22282 00092
BBXX 9V5925 09004 99396 31734 41798 41405 10195 40254 51021 70111 81078 22200 20000 315// 40903
BBXX SHIP 09004 99085 30871 41697 72416 10264 20236 40062 52020 70322 87460 22212 00278 11305 20402 325// 41003 85244
BBXX VROB 09004 99068 31470 46/// /3311 10279 20229 30064 40089 54000 22200 04310 85243
BBXX C6HS4 09003 99100 30850 41698 61508 10280 20253 40061 50000 70222 85592 22233 06270 205// 315// 40402 80260
BBXX 51170 09001 99168 71695 46/// ///// 1//// 92348 22200 00268
BBXX 51171 09001 99064 71623 46/// ///// 1//// 92346 22200 00284
BBXX WHKM 09004 99358 10309 41498 63120 10150 20116 40150 51010 7//11 861// 22263 0//// 20403 327// 40605 5//// 6//// 80130 ICE /////
BBXX VRWG3 09004 99394 70157 41/97 71001 10170 20079 40280 56/// 70322 8//3/ 22222 00150 2//// 3//// 4//// 5//// 6//// 80120 ICE /////
BBXX OZDM2 09004 99516 10024 41297 82823 10110 20050 40038 53018 72588 8677/ 22262 04120 20108 3//// 4//// 5//// 80080
BBXX DDBR2 09004 99349 10358 41498 12714 10164 20130 40156 51005 70186 81100 22200 02194 20401 325// 40802 5//// 80145
BBXX DDZA2 09004 99323 10297 41598 43225 10180 20112 40190 51010 7//11 84145 22264 04200 20304 80140
BBXX C6OM8 09000 99306 70185 41498 40909 10212 20185 40228 57002 70311 83141 22253 04205 20403 332// 40604 5//// 80195
AAXX 09004 89610 46/// /0426 39528 4//// 5////
BBXX VVKV 09003 99242 51600 42598 31703 10280 20225 40057 55001 70111 83400 22236
AAXX 09004 48327 31558 70000 10210 20197 39784 40145 52013 71022 84545 333 20205 59008
AAXX 09004 91723 NIL
AAXX 09004 91964 NIL
AAXX 09001 28867 42998 00000 11217 21242 3//// 4//// 5//// 555 1/124
AAXX 09001 28952 419// 01601 11204 21216 30190 40402 57007 72874 555 1/121
AAXX 09001 28952 419// 01601 11204 21216 30190 40402 57007 72874 555 1/121
AAXX 09001 28867 42998 00000 11217 21242 3//// 4//// 5//// 555 1/124
AAXX 09001 31152 11997 81801 11269 21300 39758 40297 57010 60010 70272 85036 333 21259 47027 55000
AAXX 09001 31163 NIL
AAXX 09001 31285 32999 22301 11243 21285 30120 40206 53016 81049 333 21244
AAXX 09001 31561 32998 52302 11243 21261 30163 40194 56003 83039 333 21244
AAXX 09001 31683 32999 50000 11253 21264 30089 40171 54000 81044 333 21268 47012
AAXX 09001 32010 32498 23104 11097 21123 30021 40071 56002 82900 333 21109 48047 91005 91106
AAXX 09004 60525 12965 00000 10100 20078 40272 50001 60001 333 0//00 95990
AAXX 09004 60525 12965 00000 10100 20078 40272 50001 60001 333 0//00 95990
BBXX 44137 09001 99423 70620 46/// /2814 10084 40173 52051 22200 00123 11313 70064 333 91217
AAXX 09004 63729 32480 10000 10190 20182 38843 48/// 81900 333 55300 58022 81817 81919
AAXX 09004 63733 32480 10000 10192 20188 38833 48470 81900 333 59012 81919
AAXX 09004 6380101480 83310 10205 20198 39171 48492 69901 79596 8292/ 333 0//11 59008 69907 82819 81920 88458
AAXX 09004 63866 32580 40000 10218 20195 39495 48/// 84500 333 59011 84622
AAXX 09004 6388732480 70000 10189 20180 38560 48484 8153/ 333 55300 59008 81617 87358
AAXX 09004 63971 32580 70605 10255 20244 39956 40085 8493/ 33 55300 59002 84822 81923 87358
BBXX 44137 09001 99423 70620 46/// /2814 10084 40173 52051 22200 00123 11313 70064 333 91217
AAXX 09004 71923 16/// ///34 11234 21254 39639 40100 53023 60001 333 11207 21234 70003
AAXX 09004 71490 16/// /3116 11267 21290 39819 40153 52023 60001 333 11230 21267 70034
AAXX 09004 71963 16/// /3330 11256 21280 39734 40155 51014 60001 333 11223 21256 70021
AAXX 09004 71592 16/// /0703 11138 21180 30016 40029 53007 60001 333 11126 21161 70000
AAXX 09004 48001 NIL
AAXX 09004 48004 31901 90000 10152 20152 74744 333 20144 56999
AAXX 09004 48008 31950 00000 10155 20144 40148 71044 333 20135 58020
AAXX 09004 48010 31220 30000 10160 20160 40140 74044 83600 333 20155 56400 58007
AAXX 09004 48018 31940 00000 10163 20163 40121 74244 333 20095 59009
AAXX 09004 48019 32950 00000 10150 20134 40133 74244 333 20147 59005
AAXX 09004 48020 NIL
AAXX 09004 48025 NIL
AAXX 09004 48035 31/01 90000 10144 20140 40137 333 20128 56999 59005
AAXX 09004 48037 32930 00000 10191 20175 40123 333 20184 59007
AAXX 09004 48042 32958 00000 10197 20185 40127 333 20192 59001
AAXX 09004 48045 NIL
AAXX 09004 48048 32540 00000 10187 20175 40126 333 20183 59006
AAXX 09004 48053 32950 00000 10190 20175 40120 333 20189 59017
AAXX 09004 48057 31456 22201 10127 20113 71000 81501 333 20122 56609
AAXX 09004 48060 31320 70000 10152 20134 40166 71022 82470 333 20130 56560 58004
AAXX 09004 48062 31540 30000 10213 20210 40116 74044 83800 333 20178 56900 58003
AAXX 09004 48071 32956 03201 10247 20233 40121 333 20240 58000
AAXX 09004 48077 32956 20402 10220 20205 40110 80001 333 20190 56009 59018
AAXX 09004 48078 32550 22701 10210 20195 40122 81501 333 20180 56909 58000
AAXX 09004 48080 31520 40000 10196 20185 40118 71044 86870 333 20187 56990 58011
AAXX 09004 48094 32456 60000 10235 20230 40112 84940 333 20228 56990 58006
AAXX 09004 48097 32456 73201 10240 20226 40120 85830 333 20225 56990 58010
AAXX 09004 48108 31596 80000 10230 20198 40108 70522 82256 333 20223 56399 58004
AAXX 09004 48109 32496 20000 10250 20233 40105 82500 333 20240 56900 58003
AAXX 09004 48110 NIL
AAXX 09004 48112 32597 80406 10256 20229 40094 83876 333 20198 56199 58008
BBXX 44138 09001 99443 70536 46/// /2415 10114 40089 5//// 22200 00089 10807 70033 333 91219
AAXX 09001 48921 NIL
AAXX 09001 48924 31330 80000 10164 20162 39429 40103 5//// 710// 856// 333 20158 58013
AAXX 09001 48925 01310 80202 10180 20172 39407 40145 5//// 69954 71055 8577/ 333 20175 58003 69957
AAXX 09001 48926 31558 40901 10188 20178 39679 40146 5//// 710// 82800 333 20187 58001
AAXX 09001 48927 01210 80702 10116 20110 39196 48656 5//// 60034 75155 888// 333 20115 58026 60027
AAXX 09001 48928 11310 80901 10116 20112 39116 48582 5//// 69964 750// 888// 333 20116 58027
AAXX 09001 48930 31457 70401 10212 20187 39807 40159 52012 71044 82830 333 20210 58000
AAXX 09001 48935 31459 60403 10141 20119 38986 48477 52015 71044 85204 333 20140 58010
AAXX 09001 48938 01558 80901 10216 20213 39805 40142 52003 69944 71064 8481/ 333 20216 58001 69947
AAXX 09001 48940 31640 73601 10212 20157 39946 40145 52016 71044 87500 333 20210 58024
AAXX 09001 48941 31440 82202 10198 20172 3//// 4//// 5//// 710// 8377/ 333 20198 5////
AAXX 09001 48944 31640 50405 10155 20104 39529 40128 5//// 710// 85500 333 20150 58001
AAXX 09001 48945 31458 60403 10209 20105 39976 40156 5//// 710// 84810 333 20190 58024
AAXX 09001 48946 31559 72701 10212 20184 39978 40146 52008 710// 83850 333 20212 58027
AAXX 09001 48947 31530 50902 10190 20152 30004 40174 52001 71044 83530 333 20180 58011
AAXX 09001 48948 31460 60902 10185 20143 39938 40158 52008 71044 83830 333 20185 58047
AAXX 09001 48952 31450 70901 10198 20181 39929 40125 52005 70544 83830 333 20198 58022
AAXX 09001 48953 31940 50000 10203 20202 39915 40076 5//// 710// 85030 333 20200 58008
AAXX 09001 48955 32765 33603 10221 20164 30000 40120 52010 83530 333 20206 58015
AAXX 09001 48957 31568 63602 10250 20169 39974 40082 5//// 710// 84242 333 20240 59007
BBXX 44138 09001 99443 70536 46/// /2415 10114 40089 5//// 22200 00089 10807 70033 333 91219
AAXX 09001 98134 11458 80411 10212 20195 39957 40150 5//// 60164 71586 8427/ 333 20172 56199 58011 70158 84819 88357 555 20034
AAXX 09001 98223 11562 70205 10270 20212 40092 53010 69904 70584 81178 333 20257 56999 59008 79999 81820 86278 555 29999
AAXX 09001 98232 11565 83606 10252 20225 40123 50000 60024 71562 8457/ 222// 20101 333 56199 59010 70020 84620 88358 555 20020
AAXX 09001 98325 11460 70000 10265 20252 40078 53014 69904 70544 83570 222// 20000 333 20220 56999 59026 79999 83616 84359 98308
AAXX 09001 98328 11461 81102 10178 20166 38508 40083 53018 60024 74084 8557/ 333 20142 50180 55002 56999 59016 70018 85613 88358 555 29992
AAXX 09001 98330 11470 63401 10260 20229 30057 40089 53025 60024 70564 82230 333 20240 56999 59023 70022 82818 86358 555 00042
AAXX 09001 98336 31468 83602 10250 20234 30096 40101 53012 60244 70544 82207 333 20220 56899 59031 70240 82815 88275
AAXX 09001 98429 NIL
AAXX 09001 98430 NIL
AAXX 09001 98431 11467 81202 10256 20240 30042 40089 52019 60264 76162 8352/ 333 20216 56999 59011 70258 83616 88458 555 20030
AAXX 09001 98440 11460 83602 10252 20246 30088 40093 52025 61184 72586 8427/ 333 20240 56199 58000 71183 84815 88357 555 20244
AAXX 09001 98444 11430 80403 10238 20238 30074 40093 53033 60544 78182 8422/ 333 20214 56999 59006 70537 84817 88459 555 20295
AAXX 09001 98526 11568 80000 10248 20237 40085 52026 60084 76122 8327/ 333 20230 56999 59002 70078 83820 88358 98315 555 20004
AAXX 09001 98531 11570 50903 10267 20243 30061 40065 53011 60084 70564 82262 333 20/// 56199 59017 70085 82820 83358 555 20005
AAXX 09001 98536 11468 80401 10254 20231 39982 40081 53024 60414 70584 8327/ 222// 20000 333 20239 56199 59009 70414 83818 88357
AAXX 09001 98543 11470 80802 10264 20252 30077 40088 53017 69924 71422 83507 333 20243 56299 58002 70002 83618 88272
AAXX 09001 98550 11458 80000 10248 20237 40089 52036 60104 76086 8422/ 333 20240 56999 58006 70098 84818 88457 555 20040
AAXX 09001 98618 11580 82703 10250 20236 40078 53009 60544 70266 82267 333 20235 56999 58004 70535 82820 84358 88274 555 0//// 20197
AAXX 09001 98630 11470 80000 10248 20226 40135 53012 60434 70266 8432/ 222// 20000 333 20238 56999 58006 70432 84918 88458 555 20164
AAXX 09001 98637 NIL
AAXX 09001 98646 11560 83601 10250 20245 30074 40102 52023 60224 70262 8287/ 333 20244 56999 58003 70224 82820 88459 555 20026
AAXX 09001 98653 11465 80000 10250 20236 30035 40080 53024 60034 70544 82278 333 20222 56999 58007 70032 82818 84358 86272
AAXX 09001 98741 11467 81801 10258 20243 40081 52027 60084 70544 82877 333 20239 56999 58001 70082 82818 84358 88275
AAXX 09001 98747 11462 80000 10246 20235 39875 40080 53013 60144 70544 8247/ 333 20230 56999 58001 70144 82618 88358
AAXX 09001 98753 11465 63602 10260 20240 40091 53031 60014 70544 82232 333 20239 55000 2//// 56999 58009 70012 82816 83359 85079
AAXX 09001 98755 12575 80000 10260 20247 40080 53014 60154 8257/ 333 20230 56999 58001 70150 82620 88359
AAXX 09001 98836 11460 72903 10256 20223 40089 53016 69904 71522 82870 333 20238 56999 58005 79999 82818 87362
AAXX 09004 94997 46/// ///// 10192 39898 49913 5////
AAXX 09004 89610 46/// /0426 39528 4//// 5////
AAXX 09004 94290 46/// /0407 10297 30075 40084 51006 90024
AAXX 09004 94210 35/// /2408 10305 30071 40076 52022
AAXX 09004 94289 46/// /0207 10291 30070 40077 50004 90015
AAXX 09004 94379 46/// /1011 10259 30095 40104 51005 90026
AAXX 09004 82113 31695 70000 10256 20236 3//// 4//// 71392 83420 333 10349 29084 55075 5////
AAXX 09004 82212 32996 30502 10288 20260 30008 40089 80003 333 10345 29083 55086 58001
AAXX 09004 82336 31597 81404 10280 20256 3//// 4//// 71310 8227/ 333 10312 29087 55010 5////
AAXX 09004 82410 21595 60000 10253 20242 3//// 4//// 70362 8442/ 333 10315 29094 55015 5//// 60161
AAXX 09004 82425 32193 81402 10264 20221 3//// 4//// 887// 333 10294 29092 55/// 5////
AAXX 09004 82533 21195 80000 10250 20241 3//// 4//// 79666 887// 333 10344 29089 55051 5//// 60031
AAXX 09004 82704 32894 80000 10245 20234 39840 40034 8807/ 333 10306 29094 55004 59003
AAXX 09004 82723 21496 61402 10239 20230 30014 40096 70195 86900 333 10342 29088 55045 58007 69961
AAXX 09004 83766 31597 70502 10240 20213 39454 40089 5//// 71320 87900 333 10322 29077 55036
AAXX 09004 83836 21497 80904 10200 20192 39134 40091 53024 70398 886// 333 10264 29089 55018 69941
AAXX 09004 83881 21496 81403 10224 20199 39808 40087 53016 75096 889// 333 10308 29082 55028 60011
AAXX 09004 83980 32797 31410 10202 20124 39858 40138 53005 83040 333 10281 29060 55101
AAXX 09004 83997 32497 30000 10184 20164 30135 40178 53012 83400 333 10233 29079 55078
AAXX 09004 82042 32597 50000 10277 20262 3//// 4//// 83300 333 10338 29086 55093 5////
AAXX 09004 82240 32096 00000 10297 20249 3//// 4//// 333 10339 29072 55088 5////
AAXX 09004 82317 32893 30000 10262 20244 3//// 4//// 82054 333 10354 29080 55058 5////
AAXX 09004 82610 21595 80000 10249 20247 3//// 4//// 70266 887// 333 10347 29090 55042 5//// 60481
AAXX 09004 82807 21294 83602 10246 20237 3//// 4//// 75196 887// 333 10320 29089 55048 5//// 60211
AAXX 09004 94997 46/// ///// 10192 39898 49913 5////
AAXX 09004 94290 46/// /0407 10297 30075 40084 51006 90024
AAXX 09004 89610 46/// /0426 39528 4//// 5////
AAXX 09004 17090 11660 80000 10006 21008 38673 48447 58005 69961 77172 85520 333 85633 88458 93102
BBXX SHIP 09004 99367 11645 41/98 82122 10180 20180 40007 57032 70311 86117 22264 00210 20204 33199 40708 5//08 80180
BBXX SHIP 09004 99286 11325 41598 83128 10165 20095 40174 52019 70222 8752/ 22214 00220 20103 301// 40506 80125
BBXX 7JJA 09004 99161 11161 41597 60436 00 10280 40095 54 70222 85353 9//// 22213 00250 20404 303 40308 5 6//// 80250 ICE/////
BBXX SHIP 09004 99230 11650 41497 21211 10275 20227 40165 52006 70200 82200 22221 04268 20402 30510 40704 50803
BBXX SHIP 09004 99076 11291 41198 62207 00/// 10320 20281 40099 50008 70222 84353 9//// 22283 00324 21006 304// 41005 5//// 6//// 80290 THNKS/B.REGARDS MASTER PACIFIC GLORY INM C - 443272110
AAXX 09001 55228 32780 20000 11081 21295 36010 57006 82100 333 05407
AAXX 09001 55578 32980 00000 11085 21171 36390 52001 333 05157
AAXX 09001 55664 32980 00000 11108 21185 36031 57005 333 05100
AAXX 09001 55773 32970 00000 11113 21129 36037 52001 333 00051
AAXX 09001 56116 32980 00000 11101 21152 36356 52002 333 00052
AAXX 09001 56137 32980 00000 11075 21154 36818 52008 333 00151
AAXX 09001 56172 32780 70000 11042 21056 37384 52011 875// 333 00051
AAXX 09001 56247 32980 10000 11002 21086 37452 52011 80002 333 00052
AAXX 09001 56312 32680 80000 10026 21021 37106 52004 884// 333 00001 31016
AAXX 09001 56462 32580 82001 11001 21031 37160 52003 884// 333 05102 31038
AAXX 09001 56651 32680 62901 10013 21002 37663 52010 86400 333 05100 31026
AAXX 09001 56691 11575 81602 11021 21037 37833 52004 69901 70060 8757/ 333 05100 31013 70004 93428
AAXX 09001 56985 11510 80201 10090 20076 38764 40229 52015 69971 76086 885// 333 00254 70007
AAXX 09001 57633 32765 80201 10030 21019 39559 40372 52008 885// 333 00252 30032 70004
AAXX 09001 57902 11463 80402 10030 20024 38719 40315 52007 69911 76060 887// 333 00053 30039 70006
AAXX 09001 55279 32980 02506 11022 21288 35716 54000 333 05202
AAXX 09001 55472 32980 02506 11028 21302 35749 57006 333 05205
AAXX 09001 55696 32980 00000 11090 21105 36376 52002 333 05151
AAXX 09001 56079 32780 63601 11088 21109 36693 52003 86500 333 05101
AAXX 09001 56106 32980 00000 11133 21200 36229 52001 333 00051
AAXX 09001 56257 32980 00000 11086 21126 36288 52003 333 05153
AAXX 09001 56374 32580 80902 11041 21069 37469 54000 884// 333 05151 31020 79999
AAXX 09001 56385 11/01 90000 11081 21084 37038 57003 69911 74964 333 05251 30002 70012 92503 93460
AAXX 09001 56954 31230 82701 10129 20129 40176 52011 71000 886// 333 05100
AAXX 09001 56966 11770 80906 10183 20114 40185 52015 69901 78080 884// 333 00104 79999
AAXX 09001 57237 11970 83401 10040 21026 40351 52012 69901 76060 8807/ 333 00052 30028 79999
AAXX 09001 57306 32960 83201 10068 20054 40337 52009 8807/ 333 00001
AAXX 09001 57604 11740 81101 10075 20069 40326 52003 69901 72160 885// 333 00051 70004
AAXX 09001 57707 11468 80901 10017 20004 38582 52002 69901 70076 886// 333 05151 30022 70003
AAXX 09001 57832 32770 70402 10026 21031 39588 40356 52004 875// 333 00152 30018 79999
AAXX 09004 89528 46/// /0215 36647 4//// 5////
BBXX 44056 09001 99362 70757 46/// ///// 1//// 92350 22200 00142 10902 20902 309// 41101 70012
AAXX 09001 48969 ///// ///// 10/// 20/// 30/// 40/// 8//// 333 20207
AAXX 09001 48962 ///// ///// 10/// 20/// 30/// 40/// 8//// 333 20230
AAXX 09001 48990 NIL
AAXX 09001 48986 ///// ///// 10/// 20/// 30/// 40/// 8//// 333 20220
AAXX 09001 48995 ///// ///// 10/// 20/// 30/// 40/// 8//// 333 20240
AAXX 09001 48967 NIL
AAXX 09001 48992 NIL
AAXX 09001 48965 NIL
AAXX 09001 48985 ///// ///// 10/// 20/// 30/// 40/// 8//// 333 20232
AAXX 09001 48970 ///// ///// 10/// 20/// 30/// 40/// 8//// 333 20220
AAXX 09001 48991 32460 83601 10255 20236 30095 40107 8887/ 333 20250 58001
AAXX 09001 48964 NIL
AAXX 09001 48997 22497 83601 10248 20230 30105 40113 888// 333 20230 58001 60042
AAXX 09001 48968 NIL
AAXX 09001 48973 NIL
AAXX 09001 48966 32397 63601 10225 20202 30115 40128 82141 333 20222 58035 69922
AAXX 09001 48983 ///// ///// 10/// 20/// 30/// 40/// 8//// 333 20240
AAXX 09001 48972 ///// ///// 10/// 20/// 30/// 40/// 8//// 333 20225
AAXX 09001 48998 ///// ///// 10/// 20/// 30/// 40/// 8//// 333 20230
AAXX 09001 48993 NIL
AAXX 09001 48971 NIL
AAXX 09001 48963 NIL
AAXX 09001 48987 NIL
BBXX A8SI9 09003 99533 71793 43398 83018 10030 20030 40100 52020 8774/ 22275 00060 20906 309// 40907 80039
BBXX DQVJ 09000 99537 71692 41598 40312 10030 20006 40120 53030 72688 844// 22263 00053 2//10 303// 40706 5//// 80020
BBXX MINFR03 0900/ 99299 30310 46/// ///// 10173 40191 52001
AAXX 09004 71277 46/// /1407 11091 21129 6///1 333 11091 21180 7////
AAXX 09004 71981 16/// /2403 11069 21143 60001 333 11057 21197 70004
AAXX 09004 71982 16/// /3004 11071 21127 60001 333 11068 21219 70000
AAXX 09004 71986 16/// /2710 11151 21180 60001 333 11117 21228 70000
AAXX 09004 71990 17/// /0702 11147 21162 38499 40148 58010 60021 7//4/ 333 11147 21204 70023 555 10030
AAXX 09004 71406 17/// /2264 10017 20005 39601 49610 56089 60071 7//4/ 333 10062 21023 70142
AAXX 09004 71418 46/// /2752 10026 20000 39935 49967 51107 6///1 333 10126 20023 7////
AAXX 09004 71354 16/// /3003 11159 21181 60001 333 11107 21195 70005
AAXX 09004 71048 16/// /2809 11148 21184 60001 333 11102 21202 70000
AAXX 09004 89667 46/// /0409 11045 39782 4//// 5//// 90030
AAXX 0900/ 89667 46/// ///// 4//// 5//// 90020
AAXX 0900/ 89667 46/// ///// 4//// 5//// 90010
AAXX 0900/ 89869 46/// ///// 11035 39704 4//// 5//// 90030
AAXX 0900/ 89329 46/// ///// 11100 38645 4//// 5//// 90030
AAXX 0900/ 89799 46/// ///// 11293 4//// 5//// 90030
AAXX 0900/ 89108 46/// ///// 11279 36844 4//// 5//// 90030
BBXX 45143 09001 99449 70806 46/// /2813 10025 39946 40163 52010 22200 00074 10604 70020 333 91215
BBXX 45143 09001 99449 70806 46/// /2813 10025 39946 40163 52010 22200 00074 10604 70020 333 91215
AAXX 09004 89657 46/// /3401 11012 20106 49798 52018
AAXX 09001 30252 119// 81401 11159 21186 39927 40260 56010 69942 77372 8805/ 333 21201 47016 55033
AAXX 09001 24923 11495 82203 11101 21121 39855 40168 56002 60022 78683 899// 333 21143 47038 88919
BBXX S6OM 09004 99262 11224 41596 80136 10145 20127 40278 52/// 78922 877// 22211 00215 21214 301// 41218 5//// 80135
BBXX MCCN6 09004 99102 30944 41298 62916 10255 20241 40060 53011 70182 8324/ 22233 00264 2//// 3//// 4//// 5//// 80245
BBXX DCDP2 09004 99438 70437 41596 82325 10165 20149 40190 58015 71211 8/8// 22264 04180 20505 80155
BBXX ZDLS1 09003 99312 30157 41597 31430 10163 20107 40176 57002 70111 82445 22232 04170 20608 80133
BBXX 42360 09001 99267 70905 46/// /0303 10184 90000 22200 10502 70009 333 91206
AAXX 09004 83437 32597 22703 10239 20184 39377 40082 82104 333 10310 29061 55101 59006
AAXX 09004 83579 32596 80903 10224 20178 38996 40099 88800 333 10285 29072 55029 59003
AAXX 09004 83592 325// 70000 10221 20204 39431 40105 84410 333 10288 29079 55049 59017
AAXX 09004 83384 325// 41802 10274 20200 39516 40081 83460 333 10353 29057 55/// 59003
AAXX 09004 83386 32795 40000 10238 20199 39553 40075 81085 333 10331 29066 55115 59006
AAXX 09004 83388 32496 50000 10266 20179 39409 40062 82136 333 10335 29052 55112 58000
AAXX 09004 83393 329// 10000 10228 20198 39399 40113 81060 333 10304 29070 55089 59004
AAXX 09004 83442 32595 30000 10246 20211 39735 40079 81232 333 10337 29070 55/// 59015
AAXX 09004 83479 32798 80000 10253 20221 39304 40088 8803/ 333 10314 29069 55085 59003
AAXX 09004 83483 32696 51802 10272 20222 39527 40079 84014 333 10337 29068 55102 59002
AAXX 09004 83531 325// 60902 10226 20171 39067 40082 86100 333 10295 29068 55013 59011
AAXX 09004 83538 32595 81401 10205 20172 38699 40072 887// 333 10262 29074 55058 59015
AAXX 09004 83574 217// 83602 10240 20219 39581 40189 5//// 76066 88700 333 1//// 29084 55010 60201
AAXX 09004 83582 211// 81801 10220 20220 39338 40099 53014 70262 88700 333 10272 29092 55009 60021
AAXX 09004 83595 325// 60904 10260 20231 30036 40120 83250 333 10335 29074 55103 59034
AAXX 09004 83687 21696 81405 10208 20186 39096 40093 53002 70262 887// 333 10272 29081 55030 60081
AAXX 09004 83692 21694 83604 10195 20195 39088 40119 53003 72162 882// 333 10250 29097 55003 60111
AAXX 09004 83811 21396 81402 10206 20198 39212 40093 53009 70296 8577/ 333 10296 29087 55040 60111
AAXX 09004 83844 32597 609// 10235 20224 30096 40103 52020 83460 333 10277 29086 55///
AAXX 09004 83887 21597 71402 10180 20172 39072 40109 52011 70262 85502 333 10245 29090 55021 69931
AAXX 09004 83907 21497 70905 10225 20171 39834 40113 52017 70196 82780 333 10325 29072 55031 60031
AAXX 09004 83914 21896 81409 10204 20164 39356 40116 52010 70598 8802/ 333 10286 29072 55020 60071
AAXX 09004 83919 21596 61406 10164 20161 38966 40139 52009 71096 86800 333 10240 29092 55013 60101
AAXX 09004 83927 32597 80902 10276 20099 30020 40089 52008 885// 333 10330 29043 55094
AAXX 09004 83936 31996 81407 10250 20148 30010 40130 52017 70542 8802/ 333 10302 29052 55103
AAXX 09004 83948 32497 60000 10198 20181 30126 40132 53008 82430 333 10216 29088 55001
AAXX 09004 83964 32597 31406 10182 20149 39652 40140 52010 83100 333 10269 29069 55118
AAXX 09004 83995 32497 41408 10200 20178 30160 40163 54000 82161 333 10269 29078 55///
BBXX V7MO2 09004 99272 70914 41/97 /0608 10175 20085 40217 57002 7//// 8//// 22200 00237 20301 304// 40502 5//// 6//// 80125 ICE /////
BBXX WRAH 09003 99196 10595 41598 30210 10240 2//// 40145 54000 7//11 83260 22254 00269 20202 3//// 4//// 5//// 6//// 8//// ICE /////
BBXX WDB7815 09003 99574 71445 41/97 /2409 10056 20030 40110 54/// 75055 8//// 22233 04056 2//// 318// 41204 5//// 6//// 80044 ICE /////
BBXX 41053 09001 99185 70661 46/// /0707 10269 40135 90030 333 91210
BBXX 41053 09001 99185 70661 46/// /0705 10275 40135 90020 333 91206
BBXX 41053 09001 99185 70661 46/// /0705 10275 40134 90010 333 91206
BBXX 41052 09001 99183 70648 46/// /0606 10266 40130 90030 333 91208
BBXX 41052 09001 99183 70648 46/// /0507 10261 40129 90020 333 91208
BBXX 41052 09001 99183 70648 46/// /0607 10265 40127 90010 333 91208
BBXX 44024 09001 99423 70659 46/30 /2809 10072 40196 51059 90004 22200 00099 11112 70059 333 91211 555 11111 22117
BBXX 42085 09001 99179 70665 46/// /0103 10269 40130 90030 333 91204
BBXX 42085 09001 99179 70665 46/// /0104 10269 40129 90020 333 91205
BBXX 42085 09001 99179 70665 46/// /0104 10269 40128 90010 333 91204
BBXX MINFR03 0900/ 99299 30310 46/// ///// 10173 40191 52001
BBXX WRAH 09003 99196 10595 41598 30210 10240 2//// 40145 54000 7//11 83260 22254 00269 20202 3//// 4//// 5//// 6//// 8//// ICE /////
BBXX 45143 09001 99449 70806 46/// /2813 10025 39946 40163 52010 22200 00074 10604 70020 333 91215
BBXX SHIP 09004 99076 11291 41198 62207 00/// 10320 20281 40099 50008 70222 84353 9//// 22283 00324 21006 304// 41005 5//// 6//// 80290 THNKS/B/REGARDS MASTER PACIFIC GLORY INM C - 443272110
BBXX SHIP 09004 99230 11650 41497 21211 10275 20227 40165 52006 70200 82200 22221 04268 20402 30510 40704 50803
BBXX SHIP 09004 99076 11291 41198 62207 00/// 10320 20281 40099 50008 70222 84353 9//// 22283 00324 21006 304// 41005 5//// 6//// 80290 THNKS/B.REGARDS MASTER PACIFIC GLORY INM C - 443272110
BBXX 7JJA 09004 99161 11161 41597 60436 00 10280 40095 54 70222 85353 9//// 22213 00250 20404 303 40308 5 6//// 80250 ICE/////
BBXX SHIP 09004 99367 11645 41/98 82122 10180 20180 40007 57032 70311 86117 22264 00210 20204 33199 40708 5//08 80180
BBXX SHIP 09004 99286 11325 41598 83128 10165 20095 40174 52019 70222 8752/ 22214 00220 20103 301// 40506 80125
BBXX 64049 09003 99571 10022 41/97 82750 10064 20055 49640 55020 70722 8//// 22200 04095 20714 327// 40716 5//// 80060
BBXX WDB7815 09003 99574 71445 41/97 /2409 10056 20030 40110 54/// 75055 8//// 22233 04056 2//// 318// 41204 5//// 6//// 80044 ICE /////
BBXX 44056 09001 99362 70757 46/// ///// 1//// 92350 22200 00142 10902 20902 309// 41101 70012
BBXX 44138 09001 99443 70536 46/// /2415 10114 40089 5//// 22200 00089 10807 70033 333 91219
BBXX V7MO2 09004 99272 70914 41/97 /0608 10175 20085 40217 57002 7//// 8//// 22200 00237 20301 304// 40502 5//// 6//// 80125 ICE /////
BBXX 44137 09001 99423 70620 46/// /2814 10084 40173 52051 22200 00123 11313 70064 333 91217
BBXX 46219 09001 99332 71199 46/// ///// 1//// 90028 22200 00136 10703 20703 328// 41301 70017
BBXX 44099 09001 99369 70757 46/// ///// 1//// 90022 22200 00136 10802 20802 310// 41101 70009
BBXX 46214 09001 99379 71235 46/// ///// 1//// 90027 22200 00114 10903 20902 329// 41302 70015
BBXX 44040 09001 99410 70736 46/// /3005 10060 21016 90019 22200 1//00 70001 333 91206 555 11067 22077
BBXX 44022 09001 99409 70737 46/// ///05 10060 21020 90030 22200 00104 333 91206 555 11046 22046
BBXX WDE2719 09003 99607 71514 41/96 80505 11011 2//// 40070 5//// 771// 8//// 222// 0//// 2//// 3//// 4//// 5//// 6//// 8//// ICE /////
BBXX 46239 09001 99363 71221 46/// ///// 1//// 90021 22200 00127 11202 21002 328// 41202 70011
BBXX 46238 09001 99334 71195 46/// ///// 1//// 90020 22200 00150 10703 20702 329// 41501 70013
BBXX 42364 09001 99291 70881 46/// /3504 10122 20072 40247 90030
BBXX 42099 09001 99273 70842 46/// ///// 1//// 90027 22200 00242 10603 20603 70016
BBXX 41113 09001 99284 70805 46/// ///// 1//// 90021 22200 00216 10901 20901 70007
BBXX 41112 09001 99307 70813 46/// ///// 1//// 90021 22200 00169 10502 20502 311// 41101 70012
BBXX 42363 09001 99282 70892 46/// /0704 10150 20072 40244 90030 333 91204
BBXX 41110 09001 99341 70777 46/// ///// 1//// 90021 22200 00156 11102 20901 312// 41101 70008
BBXX 44043 09001 99392 70764 46/// /3103 10062 40263 51014 90000 22200 00094 1//00 70002 333 91204
BBXX 42361 09001 99276 70925 46/// ///04 10167 20061 40220 53003 90030 555 11035 22037
BBXX 44043 09001 99392 70764 46/// /3304 1//// 40263 90010 333 91205
BBXX 44043 09001 99392 70764 46/// /3204 1//// 90020 333 91206
BBXX 44100 09001 99363 70756 46/// ///// 1//// 90022 22200 00145 11003 21002 308// 41101 70013
BBXX 44042 09001 99380 70763 46/// /3602 10066 40275 51019 90000 22200 00104 1//00 70002 333 91203
BBXX 44042 09001 99380 70763 46/// /3602 1//// 40275 90010 333 91202
BBXX 44042 09001 99380 70763 46/// /0102 1//// 90020 333 91202
BBXX 44041 09001 99372 70768 46/// /0701 10053 40292 53017 90000 22200 00125 1//00 70001 333 91202
BBXX 44041 09001 99372 70768 46/// /0701 1//// 40294 90010 333 91201
BBXX 44062 09001 99386 70764 46/// /3302 10063 40252 51013 90000 22200 00103 1//00 70001 333 91204
BBXX 44041 09001 99372 70768 46/// /0801 1//// 90020 333 91201
BBXX 44062 09001 99386 70764 46/// /3501 1//// 90020 22200 00103 333 91202
BBXX 44063 09001 99390 70764 46/// /0000 1//// 40284 90010 333 91200
BBXX 44063 09001 99390 70764 46/// /0000 10054 40281 90000 22200 00097 1//00 70001 333 91200
BBXX 44063 09001 99390 70764 46/// /0000 1//// 90020 333 91200
BBXX 41009 09001 99285 70802 46/// /0607 10211 20146 40214 90020 22200 00248 10803 20502 300// 40802 70015 333 91209 555 11068 22071
BBXX 41010 09001 99289 70785 46/// /0305 10205 40214 90020 22200 00241 10903 20401 300// 40903 70017 333 91207 555 11054 22056
BBXX 44062 09001 99386 70764 46/// /3403 1//// 40254 90010 22200 00103 333 91204
BBXX VVKV 09003 99242 51600 42598 31703 10280 20225 40057 55001 70111 83400 22236
AAXX 09001 08561 31/01 99901 10070 20070 30030 40269 57002 74541 89/// 555 60007 96645
BBXX VQOG5 09004 99062 10933 41498 50512 10278 20238 40088 53002 70311 82251 22223 00279 20101 320// 41003 80250
BBXX DDGK2 09004 99246 10585 41798 13605 10225 20074 40175 54000 702// 81101 22234 00260 2//// 80140
BBXX MZER8 09003 99049 11066 41598 50409 10290 20227 40091 53009 70222 83262 22213 00283 20501 303// 40802 80247
BBXX VRFS2 09004 99096 31348 41498 53307 10295 20260 40072 50009 70222 85441 22224 00/// 20401 335// 40502 80270
BBXX PEND 09003 99104 31161 41599 62515 10280 20221 40087 53017 70211 83101 22243 00320 2//// 80238
BBXX PDWT 09003 99018 31271 41/97 70306 10284 20245 40089 51012 72582 86772 22273 00/// 2//00 80255
BBXX 9MBW7 09004 99242 11272 41397 80327 10200 20184 40120 54/// 70003 88/// 22254 00253 20202 302// 4//07 80190
BBXX 9VBM6 09003 99375 10083 41999 00310 10170 20137 40290 54000 7//00 80478 22263 04210 20503 30303 40902 50902 80150
BBXX 9VDD2 09004 99535 71597 41698 72322 10060 20040 40150 54000 7//55 8744/ 22273 04050 21012 32626 41012 50810 80050
BBXX A8IQ2 09000 99068 11082 41298 30204 10265 20265 40110 52010 70100 83142 22253 04290 20301 303// 41001 80265
AAXX 09001 47008 32960 00000 11045 21233 30229 40285 53015 333 21089
AAXX 09001 47014 32950 00000 11232 21250 39924 40369 52009 333 21237
AAXX 09001 47016 32970 00000 11232 21264 39386 40305 57020 333 21238
AAXX 09001 47020 32965 00000 11144 21179 39959 40369 52002 333 21155
AAXX 09001 47025 32967 02901 11072 21141 30236 40267 53003 333 21109
AAXX 09001 47035 32970 00504 11098 21146 30330 40339 52025 333 21122
AAXX 09001 47041 11970 00000 11080 21136 30263 40292 53024 60012 71044 333 21106
AAXX 09001 47055 32965 60000 11039 21068 30241 40288 52010 86030 333 21063
AAXX 09001 47058 11559 20000 11061 21092 30252 40302 52012 69902 71072 82500 333 21067
AAXX 09001 47069 11556 83601 11046 21098 30184 40288 53017 69902 77072 885// 333 21077
AAXX 09001 47003 32980 03209 11087 21221 30262 40266 53004 333 21101
AAXX 09001 47005 32980 00501 11242 21253 38620 53002 333 21329
AAXX 09001 47022 32975 03203 11158 21228 38856 53009 333 21182
AAXX 09001 47028 32965 03603 11105 21163 30241 40342 53013 333 21116
AAXX 09001 47031 12970 00000 11182 21194 38964 53008 69902 333 21184
AAXX 09001 47037 32970 03204 11090 21157 30184 40315 52021 333 21110
AAXX 09001 47039 32960 00000 11088 21148 30112 40315 52005 333 21098
AAXX 09001 47050 32965 00000 11062 21168 30264 40300 52011 333 21072
AAXX 09001 47052 32965 80000 11094 21110 39933 40293 52014 80002 333 21098
AAXX 09001 47060 11560 80000 11060 21083 30236 40297 52021 69902 70372 884// 333 21067
AAXX 09001 47061 11980 60000 11029 21039 30223 40268 52010 60102 70272 86030 333 21031
AAXX 09001 47065 11540 83202 11059 21070 30230 40299 53013 69902 77077 8802/ 333 21067
AAXX 09001 47068 11560 82501 11053 21078 30253 40290 52011 69902 77172 885// 333 21067
AAXX 09001 47070 11540 80000 11044 21087 30189 40280 52006 69902 77177 8802/ 333 21052
AAXX 09001 47075 11980 00000 11074 21095 39770 40218 52015 60022 72270 333 21087
AAXX 09001 45032 36/// /0107 10118 20031 30236 40252 52002
AAXX 09001 45035 36/// /0406 10132 20058 30207 40251 52001
AAXX 09001 45039 36/// /0205 10127 20061 30230 40245 52004
AAXX 09001 45044 36/// /0012 10131 20059 30137 40233 52002 333 91118
AAXX 09001 45032 36/// /0107 10118 20031 30236 40252 52002
AAXX 09001 45035 36/// /0406 10132 20058 30207 40251 52001
AAXX 09001 45039 36/// /0205 10127 20061 30230 40245 52004
AAXX 09001 45044 36/// /0012 10131 20059 30137 40233 52002 333 91118
AAXX 09004 63714 32980 00000 10111 20088 48496 333 59002
AAXX 09004 47409 11/60 22606 11068 21128 30079 40135 51009 69902 72611 82230 333 21089 4/007 70045
AAXX 09004 17501 12560 31206 10150 20077 30133 40152 51002 60001 83200 333 81825 82830 92437
AAXX 09004 17505 12560 30806 10124 20090 30049 40163 52003 60001 83200 333 81825 82830
AAXX 09004 17515 12560 30000 10069 20077 39999 40177 52003 60001 83200 333 81825 82830
AAXX 09004 17530 12560 30000 10076 20065 30108 40166 52003 60001 83200 333 81825 82830
AAXX 09004 17535 12560 33505 10089 20072 30106 40143 51002 60001 83200 333 81825 82830
AAXX 09004 17550 12560 33505 10112 20084 30007 40154 52001 60001 83200 333 81825 82830 92437
BBXX PBOF 09003 99354 11243 41/96 83245 10000 21027 40310 52050 76077 8//// 22272 04130 20612 333 // 40710 81010 90128
AAXX 09001 98429 11559 82102 10251 20248 40049 52018 60134 76066 83871 333 20242 56999 59010 70125 83823 88459
AAXX 09001 98430 11558 81401 10249 20233 40085 52026 60124 70586 83871 333 20234 56999 59004 70124 83620 88358 555 29996
AAXX 0900/ 89332 46/// ///// 11039 39155 4//// 5////
AAXX 0900/ 89327 46/// ///// 10013 39571 4//// 5////
AAXX 09004 71073 16/// /3109 11074 21120 60001 333 21179 7////
AAXX 09004 71399 16/// ///// 11144 21173 60001 333 11098 21230 70000
AAXX 09004 71848 16/// ///// 11065 21128 60001 333 11056 21171 70000
AAXX 09004 71974 46/// /1507 11221 21239 30119 40163 57015 6///1 333 11219 21272 7////
AAXX 09004 71793 16/// ///// 11158 21190 60001 333 11098 21225 70004
AAXX 09004 71012 16/// /3602 11125 21186 60001 333 11081 21204 70000
AAXX 09004 71013 16/// ///// 11140 21182 60001 333 11096 21210 70000
AAXX 09004 71060 16/// /3002 11074 21084 38674 40315 53004 60001 333 11071 21245 70007
AAXX 09004 71565 16/// /3005 11071 21111 60001 333 11063 21273 70016
AAXX 09004 71566 16/// /2501 11084 21153 60001 333 11076 21189 70013
AAXX 09004 71567 17/// /3005 11168 21206 69941 7//4/ 333 11116 21220 70004
AAXX 09004 71495 16/// /3211 11072 21102 60001 333 11071 21216 70000
BBXX DMQN 09003 99220 70241 41/98 /0608 10225 20203 40167 51005 700// 8//// 22214 04240 20502 3//// 4//// 5//// 80210
AAXX 09004 89646 46/// ///10 11252 29078 37511 4//// 5////
AAXX 09004 89648 46/// /2112 11243 29074 37097 4//// 5////
AAXX 09004 89659 46/// /2814 11216 29069 37584 4//// 5////
AAXX 09004 89661 46/// /2405 11055 29047 39143 4//// 5////
AAXX 09004 89662 42975 43504 10000 21138 39679 49782 52005 80008 222 ICE 98015
AAXX 09004 89666 46/// /1807 11040 29087 39606 4//// 5////
BBXX DMQN 09003 99220 70241 41/98 /0608 10225 20203 40167 51005 700// 8//// 22214 04240 20502 3//// 4//// 5//// 80210
BBXX BATEU08 09004 99595 70242 46/// /3336 10015 21078 40104 58012 22223
BBXX 64045 09004 99591 70117 46/// /0217 10051 21023 49974 51025 22200 00103 10914 70069 333 90710 91126
BBXX 62112 09004 99584 70002 47995 /3147 10054 20032 49669 53068 751// 22200
BBXX 62113 09004 99584 10002 47395 /3340 10068 20035 49635 52037 751// 22200
BBXX 62129 09004 99584 10003 46/// ///// 10061 20035 49637 52044 22200
BBXX 62114 09004 99583 10000 46/// /3156 10057 20032 49663 53068 22200
BBXX AMOUK27 09004 99582 70064 46/// ///// 1//// 2//// 39921 49923 52070 92350
BBXX PJAI 09004 99581 70014 47495 /3140 10072 20014 49758 52143 710// 22200
BBXX 62111 09004 99580 70003 46/// /3358 10052 20036 49725 52107 22200 10815 70073
BBXX 62117 09004 99579 10000 47493 /3158 10063 20042 49683 52078 762// 22200 10812 70058
BBXX AMOUK19 09004 99571 70021 46/// ///// 10047 2//// 39828 49832 52115 92350
BBXX BATFR04 09004 99561 70088 44/97 63131 10059 20014 49989 701// 8//// 22233 00112
BBXX BATUK01 09004 99560 70032 46/// /2507 10044 21013 49902 53060 22200 00054
BBXX 62105 09004 99554 70122 46/// /3025 10075 20010 40048 51024 22200 00111 10911 70057 333 90710 91141
BBXX AMOUK05 09004 99537 70003 46/// ///// 10057 20002 39919 49958 52016 92350
BBXX AMOUK14 09004 99535 70030 46/// ///// 10070 20016 39975 40013 52020 92350
BBXX AMOUK11 09004 99533 70051 46/// ///// 10062 21003 30007 40053 52019 92350
BBXX 62095 09004 99530 70159 46/// /2918 10076 20037 40146 52014 22200 00118 10912 70058 333 90710 91133
BBXX 62301 09004 99524 70047 46/// /2825 10074 20016 40078 51026 22200 00112 10606 70032 333 90710 91136
BBXX 62094 09004 99517 70067 46/// /2722 10079 20079 40110 52012 22200 00115 10606 70031
BBXX 62303 09004 99516 70051 46/// /2824 10089 20031 40104 51021 22200 00120 10606 70031 333 90710 91135
BBXX 62023 09003 99514 70079 46/97 /2817 10076 2//// 40129 5//// 22200 10706 70031 555 70046 81008 91129
BBXX 62092 09004 99512 70105 46/// /2922 10091 20020 40140 52010 22200 00120 10912 70060 333 90710 91132
BBXX SCKB 09003 99512 70104 41595 73228 10080 20038 40120 54000 7//11 8792/ 22224 00100 21209 331// 40908 5//// 6//// 80060
BBXX 62081 09004 99510 70134 46/// ///// 10091 20021 40162 52005 22200 00121 10911 70055
BBXX AMOUK06 09004 99507 70014 46/// ///// 10091 20035 30069 40084 52023 92350
BBXX A8NQ5 09003 99506 70244 41298 63411 10080 21015 40205 52005 70222 8/7// 22224 29901 332// 41004 80040
BBXX 62305 09004 99504 10000 46/97 /2933 10109 20047 40091 51021 22200 00132 10806 70032 333 90710 91149
BBXX PHAM 09004 99503 70011 41597 43034 10110 20097 40100 52030 7//// 8/200 22262 21010 80103 90127
BBXX AMOUK08 09004 99501 70061 46/// ///// 10102 20043 30132 40136 52021 92350
BBXX BATFR52 09004 99501 70013 46/// /3029 10110 20042 40101 53026 22243 00134
BBXX TESTFR9 09004 99501 70012 46/// /3131 10108 29066 40108 22244
BBXX PDHW 09003 99499 70177 41498 73120 10080 20013 40200 52020 70311 8547/ 22223 00120 20804 80050
BBXX 62103 09004 99499 70029 46/98 /2932 10114 20043 40108 51020 22200 00134 10806 70028 333 90710 91139
BBXX BATEU06 09004 99499 70026 46/// /2922 10114 20050 40115 58002 22223 00140
BBXX BATFR42 09004 99499 70022 46/// /3036 10112 20039 40103 222// 00142
BBXX PCEO 09003 99496 70042 41/98 82725 10118 20064 40134 50000 7//// 8//// 22223 04131 21204 80090
BBXX BATFR03 09004 99495 70004 44497 82530 10109 20100 40106 70222 877// 22273 20204
BBXX 62442 09004 99490 70164 46/// /3316 1//// 2//// 40198 52002 22200 00132
BBXX 62029 09004 99487 70125 46/// /3312 10105 20041 40182 50006 22200 00137 10911 70053
BBXX DHEE 09003 99484 70206 41397 80110 10095 20021 40220 51020 70222 87776 22264 00130 21406 327// 41407
BBXX BATFR12 09004 99484 70071 46/// /3213 10119 20099 40167 53010 22211 00145
BBXX PJFF 09004 99478 70095 41/96 /2117 10150 20133 40180 54000 702// 8/7// 22214 04150 20604 309// 40805 80140
BBXX 62163 09004 99475 70084 46/// /2522 10128 20100 40176 58003 22200 00134 10910 70051 333 90710 91129
BBXX SKOZ 09004 99471 70273 43/93 90719 10100 40199 55009 22263 00125 2//// 4////
BBXX C6KD8 09003 99471 70137 41296 82917 10121 20113 40196 56015 75055 84628 22214 02138 21108 332// 41508 5//// 80117
BBXX PHBO 09003 99467 70110 41298 82322 10145 20117 40186 51009 70222 86720 22254 20708 324//
BBXX BATFR06 09004 99454 70015 46/// /2515 10147 20114 40220 22241 00159
BBXX 62001 09004 99452 70050 46/// /2620 10149 20120 40224 58007 22200 00151 10707 70033 333 90710 91125
BBXX WDD3825 09004 99425 70273 43698 32315 10175 2015/ 40258 54000 7//// 8316/ 22254 00170 2//// 3//// 4//// 5//// 6//// 80160
BBXX C6KD9 09000 99425 70193 41397 73508 10150 20123 40261 51002 70322 83772 22254 02154 21003 332// 41405 5//// 80135
BBXX DPMT 09004 99409 70122 41498 32107 10145 20095 40275 54000 70100 81245 22254 20301 333// 40803 80117
BBXX VRWG3 09004 99394 70157 41/97 71001 10170 20079 40280 56/// 70322 8//3/ 22222 00150 2//// 3//// 4//// 5//// 6//// 80120
BBXX BAREU61 09004 99394 10003 46/// /3204 10160 29074 40256 22243
BBXX BATFR09 09004 99365 70015 44897 61005 10155 20107 40262 58009 71522 857// 22222 00184
BBXX C6XC6 09004 99364 70029 41/97 79902 10150 2//// 40250 5//// 7//22 8//// 22273 0//// 2//// 3//// 4//// 5//// 6//// 8////
BBXX BATEU09 09004 99439 10100 46/// /0306 10145 20112 40233 22261 00180
BBXX ZCDD6 09003 99438 10138 41298 31723 10130 20130 40233 51015 70222 8/7// 22235 00160 20201 3//// 4//// 5//// 80130
BBXX BAREU60 09004 99438 10141 46/// ///// 40234 22222
BBXX 61001 09004 99434 10078 46/// /2106 10153 20123 40222 57002 22200 00158 10702 70011
BBXX BATFR01 09004 99431 10059 46/// /2705 10085 20010 40237 50/// 22200 00187
BBXX BAREU05 09004 99429 10064 46/// ///// 40232 57001 22254
BBXX BATFR21 09004 99429 10069 46/// ///// 20162 40228 57006 22263
BBXX 61002 09004 99421 10047 46/// ///08 10148 2//// 40252 57008 22200 00156 10502 70008
BBXX BATFR20 09004 99421 10075 44/98 32927 10152 20084 40225 56014 70000 8//// 22274 20204 329// 40204 5////
BBXX BATFR11 09004 99409 10100 46/// /3101 10152 20087 40236 53006 22244 00177
BBXX BAREU63 09004 99401 10123 46/// /3111 10159 29073 40254 52002 22233
BBXX BAREU61 09004 99394 10003 46/// /3204 10160 29074 40256 22243
BBXX NWS0020 09004 99379 10236 43/// /3505 10113 20018 40238 5//// 7//// 8//// 222// 04189 2//// 3//// 4//// 5//// 6//// 8////
BBXX PBEN 09003 99376 10077 41/98 19904 10160 20127 40270 54000 7//22 81100 22223 20501 399// 41002 80140
BBXX PBEO 09003 99371 10038 41998 11205 10170 20128 40270 58008 70200 80001 22262 02170 20101 301// 40801 80145
BBXX HZZB 09003 99369 10123 41797 33215 10170 2015/ 40271 56002 7//00 82489 22223 0//// 20202 333// 40303 5//// 6//// 80155
BBXX WQVY 09004 99360 10157 41999 00107 10200 2014/ 40245 51013 70200 80000 22264 0//// 20501 328// 40703 5//// 6//// 80160
BBXX ZCBW2 09003 99359 10172 43998 10209 10170 20100 40240 51005 7//// 81000 22263 00190 20403 3//// 4//// 5//// 80130
BBXX KSDF 09004 99348 10202 41798 23312 10178 20142 40238 54000 70200 82189 22223 0//// 20601 330// 40802 5//// 6//// 80156
BBXX KABP 09003 99347 10220 43/95 /3013 10160 2013/ 40225 56016 7//// 8//// 22211 0//// 2//// 3//// 4//// 5//// 6//// 80140
BBXX DDDO2 08224 99345 10214 41598 53114 10180 20139 40225 53005 70122 81530 22224 00186 2//// 80155=80164
BBXX DCPY2 09003 99339 10240 41497 23119 10180 20146 40210 57005 70200 8/100 22200 00190 2//// 80160
BBXX UBEF5 09001 99335 10146 41/98 93307 10180 40287 54000 70000 89/// 22213 00200 20501
BBXX WDF6832 09003 99330 10285 41498 33325 10180 2011/ 40200 54000 70200 838// 22264 0//// 20505 3//// 4//// 5//// 6//// 80140
BBXX DDZA2 09004 99323 10297 41598 43225 10180 20112 40190 51010 7//11 84145 22264 04200 20304 80140
AAXX 09004 71793 16/// ///// 11158 21190 60001 333 11098 21225 70004
AAXX 09004 71848 16/// ///// 11065 21128 60001 333 11056 21171 70000
AAXX 09004 71974 46/// /1507 11221 21239 30119 40163 57015 6///1 333 11219 21272 7////
AAXX 09004 71399 16/// ///// 11144 21173 60001 333 11098 21230 70000
AAXX 09004 71565 16/// /3005 11071 21111 60001 333 11063 21273 70016
AAXX 09004 71566 16/// /2501 11084 21153 60001 333 11076 21189 70013
AAXX 09004 71567 17/// /3005 11168 21206 69941 7//4/ 333 11116 21220 70004
AAXX 09004 71012 16/// /3602 11125 21186 60001 333 11081 21204 70000
AAXX 09004 71013 16/// ///// 11140 21182 60001 333 11096 21210 70000
AAXX 09004 71060 16/// /3002 11074 21084 38674 40315 53004 60001 333 11071 21245 70007
AAXX 09004 71495 16/// /3211 11072 21102 60001 333 11071 21216 70000
AAXX 09004 71073 16/// /3109 11074 21120 60001 333 21179 7////
BBXX 46004 09001 99509 71361 46/// /2406 10069 40313 57009 22200 00080 11805 70025 333 91209
BBXX 46036 09001 99484 71339 46/// /2703 10061 40339 57005 22200 00086 11804 70018 333 91204
BBXX KS098 09004 99446 71240 43/// /2103 10096 40245 22200 06000
BBXX WDB7815 09003 99574 71445 41/97 /2409 10056 20030 40110 54/// 75055 8//// 22233 04056 2//// 318// 41204 5//// 6//// 80044 ICE /////
AAXX 09004 48550 11558 60503 10260 20246 30073 40080 57021 71022 82246 333 58000
AAXX 09004 63791 32580 10610 10227 20151 39092 48475 81530 333 55300 59010 81622
AAXX 09001 10382 01675 72008 10064 20028 39995 40040 58050 60011 72162 875// 333 32/// 55/// 20185 30133 55300 20000 30000 69987 87639 91114
AAXX 09001 89063 41/95 93607 11001 21005 39810 49821 54000 77374 800// 333 10007 21002
AAXX 09004 96505 11420 80000 10193 20189 39064 4//// 5//// 60044 71042 8662/ 333 20190 55002 56009 58001 86710 88463
BBXX PJGO 09004 99571 10022 47196 /2834 10071 20049 49679 53001 704// 22200
BBXX 63106 09004 99610 10017 46/// /0727 10061 49623 51004 22200
BBXX 63113 09004 99610 10017 46/// /0825 10070 20037 49618 52003 22200 10911 70056
BBXX 62107 09004 99501 70061 46/// /3127 10097 20029 40139 51017 22200 00123 10908 70040 333 90710 91136
BBXX 62094 09004 99517 70067 46/// /2622 10079 20079 40110 52012 22200 00115 10606 70031 333 90710 91137
AAXX 09004 82098 32496 50506 10284 20233 30125 40142 8366/ 333 10334 29069 55098 58005
AAXX 09004 82246 32997 00000 10266 20243 39930 40128 333 10322 29083 55070 58024
AAXX 09004 82445 31995 20000 10294 20249 30083 40134 71040 82001 333 10340 29076 55083 59019
AAXX 09004 82460 32595 63601 10290 20234 30102 40131 83500 333 10381 29062 55105 59012
AAXX 09004 82562 32995 03602 10305 20230 39994 40101 333 10363 29060 55070 58009
AAXX 09004 82571 32997 00502 10285 20192 39951 40124 333 10366 29058 55107 58011
AAXX 09004 82765 32998 00000 10302 20189 39911 40147 333 10391 29046 55104 58008
AAXX 09004 83096 32695 10903 10265 20218 30116 40123 81500 333 10306 29071 55116 58000
AAXX 09004 83186 32999 00905 10280 20184 39551 40074 333 10336 29055 55114 59012
AAXX 09004 83236 32998 10000 10251 20213 39582 40069 80002 333 10335 29/// 55119 59006
AAXX 09004 83242 32795 10503 10250 20159 39614 40102 81050 333 10340 29053 55109 59008
AAXX 09004 83288 32495 00000 10279 20204 39589 40070 333 10333 29058 55115 59004
AAXX 09004 83344 32696 30096 10205 20185 39155 40112 83030 333 10281 29081 55078 59003
AAXX 09004 82141 32997 00507 10278 20232 30135 40147 333 10308 29074 55105 58007
AAXX 09004 82181 32997 10512 10295 20228 30002 40141 80002 333 10334 29067 55091 58005
AAXX 09004 82198 32992 00503 10256 20219 30083 40135 333 10325 29072 55104 58001
AAXX 09004 82353 32998 00902 10293 20239 30019 40103 333 10354 29072 55103 59006
AAXX 09004 82361 32996 03602 10286 20239 30100 40137 333 10346 29073 55046 58009
AAXX 09004 82476 32595 30505 10295 20178 30008 40127 81150 333 10389 29047 55101 58010
AAXX 09004 82861 31996 00904 10315 20184 39923 40090 70044 333 10391 29049 55100 58005
AAXX 09004 63708 32980 00000 10177 20145 48464 333 59010
AAXX 09004 63820 42480 10000 10255 20243 40082 81100 333 59005 81819
AAXX 09003 63723 32980 00000 10244 20220 40084 333 59006
BBXX 44014 09001 99366 70748 46/// ///06 1//// 90005 22200 10803 20502 303// 40803 70017 555 11060 22060
AAXX 0900/ 89872 46/// ///// 11023 39733 4//// 5//// 90040
AAXX 0900/ 89866 46/// ///// 11021 39677 4//// 5//// 90030
AAXX 0900/ 89329 46/// ///// 11101 38645 4//// 5//// 90040
AAXX 0900/ 89799 46/// ///// 11294 4//// 5//// 90040
AAXX 0900/ 89327 46/// ///// 10010 39572 4//// 5//// 90030
AAXX 0900/ 89332 46/// ///// 11043 39154 4//// 5//// 90030
AAXX 0900/ 89769 46/// ///// 11010 39763 4//// 5//// 90040
AAXX 0900/ 89828 46/// ///// 11300 36431 4//// 5//// 90030
AAXX 0900/ 89108 46/// ///// 11279 36843 4//// 5//// 90040
AAXX 0900/ 89879 46/// ///// 10021 39684 4//// 5//// 90030
AAXX 0900/ 89879 46/// ///// 10021 39685 4//// 5//// 90040
AAXX 0900/ 89314 46/// ///// 11089 38114 4//// 5//// 90030
AAXX 0900/ 89314 46/// ///// 11089 38114 4//// 5//// 90040
AAXX 09004 89667 46/// /0408 11046 29078 39782 4//// 5//// 90040
AAXX 09001 01332 16/// /0203 10037 21050 60021 333 91114
BBXX 46241 09001 99330 71173 46/// ///// 1//// 90011 22200 00145 11301 20601 325// 41301 70005
BBXX 46216 09001 99343 71198 46/// ///// 1//// 90027 22200 00147 11501 20501 327// 41501 70006
BBXX 46223 09001 99335 71178 46/// ///// 1//// 90030 22200 00157 11301 20601 320// 41301 70005
BBXX 46231 09001 99327 71174 46/// ///// 1//// 90024 22200 00158 11301 20601 325// 41301 70007
BBXX 46222 09001 99336 71183 46/// ///// 1//// 90026 22200 00159 11201 20601 317// 41201 70006
BBXX 46242 09001 99332 71174 46/// ///// 1//// 90028 22200 00156 10601 20601 322// 41301 70005
BBXX 46221 09001 99339 71186 46/// ///// 1//// 90015 22200 00151 10601 20601 321// 41301 70007
AAXX 09004 71789 16/// ///// 11089 21121 60001 333 11049 21192 70000
AAXX 09004 71791 16/// /2803 11136 21179 60001 333 11105 21199 70000
AAXX 09004 71794 16/// ///// 11150 21192 60001 333 11094 21218 70004
AAXX 09004 71795 47/// ///// 11110 21136 6///1 7//4/ 333 7////
AAXX 09004 71796 16/// ///// 11157 21186 60001 333 11077 21198 70004
AAXX 09004 71797 16/// ///// 11145 21183 60001 333 11115 21203 70000
AAXX 09004 71102 16/// ///// 11186 21217 60001 333 11110 21203 70000
AAXX 09004 71105 16/// ///// 11108 21142 60001 333 11108 21245 7////
AAXX 09004 71051 16/// ///// 11084 21119 60001 333 21249 7////
AAXX 09004 71057 16/// ///// 11072 21117 60001 333 11054 21224 70004
AAXX 09004 71070 16/// ///// 11063 21095 60001 333 11048 21163 70000
AAXX 09004 71089 16/// ///// 11144 21181 60001 333 11093 21186 70004
AAXX 09004 71409 16/// ///// 11088 21113 60001 333 11064 21226 70004
AAXX 09004 71509 16/// /3006 11055 21106 60001 333 11055 21181 7////
AAXX 09004 71517 16/// /2904 11087 21113 60001 333 11080 21212 7////
AAXX 09004 71518 16/// /3107 11058 21106 60001 333 11057 21212 7////
AAXX 09004 71519 16/// /2301 11094 21119 60001 333 11072 21239 7////
AAXX 09004 71520 46/// /1302 11166 21176 39375 40062 51017 6///1 333 11095 21210 7////
AAXX 09004 71521 16/// ///// 11186 21208 60001 333 11093 21188 70000
AAXX 09004 71523 46/// ///// 11113 21121 39696 40078 50002 6///1 333 11059 21142 7////
AAXX 09004 71528 16/// /2606 11063 21098 60001 333 11050 21172 7////
AAXX 09004 71006 46/// /3103 11136 21168 6///1 333 11084 21192 7////
AAXX 09004 71007 16/// ///// 11078 21119 60001 333 11056 21191 70022
AAXX 09004 71008 16/// /3112 11064 21116 60001 333 11064 21223 70000
AAXX 09004 71009 16/// /3009 11062 21097 60001 333 11061 21240 70004
AAXX 09004 71035 16/// ///// 11063 21095 60001 333 11061 21255 70004
AAXX 09004 71841 16/// /2606 11151 21199 39702 40113 52012 60001 333 11134 21166 70000
AAXX 09004 71433 46/// /2833 11038 21051 39905 40139 53031 6///1 333 11016 21044 7////
AAXX 09004 71383 16/// ///// 11146 21169 39461 40081 51024 60001 333 11084 21149 70000
AAXX 09004 71841 16/// /2606 11151 21199 39702 40113 52012 60001 333 11134 21166 70000
AAXX 09004 71433 46/// /2833 11038 21051 39905 40139 53031 6///1 333 11016 21044 7////
AAXX 09004 71102 16/// ///// 11186 21217 60001 333 11110 21203 70000
AAXX 09004 71105 16/// ///// 11108 21142 60001 333 11108 21245 7////
AAXX 09004 71789 16/// ///// 11089 21121 60001 333 11049 21192 70000
AAXX 09004 71791 16/// /2803 11136 21179 60001 333 11105 21199 70000
AAXX 09004 71794 16/// ///// 11150 21192 60001 333 11094 21218 70004
AAXX 09004 71795 47/// ///// 11110 21136 6///1 7//4/ 333 7////
AAXX 09004 71796 16/// ///// 11157 21186 60001 333 11077 21198 70004
AAXX 09004 71797 16/// ///// 11145 21183 60001 333 11115 21203 70000
AAXX 09004 71051 16/// ///// 11084 21119 60001 333 21249 7////
AAXX 09004 71057 16/// ///// 11072 21117 60001 333 11054 21224 70004
AAXX 09004 71070 16/// ///// 11063 21095 60001 333 11048 21163 70000
AAXX 09004 71089 16/// ///// 11144 21181 60001 333 11093 21186 70004
AAXX 09001 38069 429// 80000 11050 21074 30094 40293 57002 8801/
AAXX 09001 35746 429// 03504 11210 21228 30241 40314 57003 555 1/118
AAXX 09001 38062 415// 81001 11060 21079 30120 40289 57005 77177 8872/ 555 1/105
AAXX 09001 35969 414// 80000 11064 21076 30132 40313 57003 77172 8802/ 555 1/106
AAXX 09001 35953 419// 80603 11110 21123 30161 40298 57002 77371 8802/ 555 1/112
AAXX 09001 35953 419// 80603 11110 21123 30161 40298 57002 77371 8802/ 555 1/112
AAXX 09001 35849 42998 00000 11191 21217 30210 40304 57005 555 1/118
AAXX 09001 38062 415// 81001 11060 21079 30120 40289 57005 77177 8872/ 555 1/105
AAXX 09001 35969 414// 80000 11064 21076 30132 40313 57003 77172 8802/ 555 1/106
AAXX 09004 89063 41/95 93607 11001 21005 39810 49821 54000 77374 800// 333 10007 21002
BBXX ZCAS2 09003 99188 31176 41598 52213 10279 20214 40067 52010 70200 83241 22253 00301 20202 325// 40203 80235
BBXX 9V7548 09004 99157 31546 41598 50804 10305 20256 40094 50/// 70322 8458/ 22284 04300 2//// 30000 80270
BBXX ZCAS2 09003 99188 31176 41598 52213 10279 20214 40067 52010 70200 83241 22253 00301 20202 325// 40203 80235
BBXX 9V7548 09004 99157 31546 41598 50804 10305 20256 40094 50/// 70322 8458/ 22284 04300 2//// 30000 80270
BBXX WCZ5238 09003 99140 51249 41898 31019 10270 20197 40130 54/// 7//11 83//5 22273 00250 20803 31023 41005 51407 6//// 80220 ICE /////
BBXX DMQN 09003 99220 70241 41/98 /0608 10225 20203 40167 51005 700// 8//// 22214 04240 20502 3//// 4//// 5//// 80210
BBXX DDGK2 09004 99246 10585 41798 13605 10225 20074 40175 54000 702// 81101 22234 00260 2//// 80140
BBXX 46231 09001 99327 71174 46/// ///// 1//// 90024 22200 00158 11301 20601 325// 41301 70007
BBXX 46216 09001 99343 71198 46/// ///// 1//// 90027 22200 00147 11501 20501 327// 41501 70006
BBXX 46222 09001 99336 71183 46/// ///// 1//// 90026 22200 00159 11201 20601 317// 41201 70006
BBXX 46223 09001 99335 71178 46/// ///// 1//// 90030 22200 00157 11301 20601 320// 41301 70005
BBXX 46242 09001 99332 71174 46/// ///// 1//// 90028 22200 00156 10601 20601 322// 41301 70005
BBXX 46221 09001 99339 71186 46/// ///// 1//// 90015 22200 00151 10601 20601 321// 41301 70007
BBXX 46241 09001 99330 71173 46/// ///// 1//// 90011 22200 00145 11301 20601 325// 41301 70005
BBXX 44014 09001 99366 70748 46/// ///06 1//// 90005 22200 10803 20502 303// 40803 70017 555 11060 22060
BBXX 9VDD2 09004 99535 71597 41698 72322 10060 20040 40150 54000 7//55 8744/ 22273 04050 21012 32626 41012 50810 80050
BBXX 44024 09001 99423 70659 46/30 /2809 10072 40196 51059 90004 22200 00099 11112 70059 333 91211 555 11111 22117
BBXX 42085 09001 99179 70665 46/// /0103 10269 40130 90030 333 91204
BBXX 41052 09001 99183 70648 46/// /0507 10261 40129 90020 333 91208
BBXX 42085 09001 99179 70665 46/// /0104 10269 40128 90010 333 91204
BBXX 42085 09001 99179 70665 46/// /0104 10269 40129 90020 333 91205
BBXX 41052 09001 99183 70648 46/// /0606 10266 40130 90030 333 91208
BBXX 41053 09001 99185 70661 46/// /0705 10275 40134 90010 333 91206
BBXX 41053 09001 99185 70661 46/// /0705 10275 40135 90020 333 91206
BBXX 41052 09001 99183 70648 46/// /0607 10265 40127 90010 333 91208
BBXX 41053 09001 99185 70661 46/// /0707 10269 40135 90030 333 91210
BBXX 42360 09001 99267 70905 46/// /0303 10184 90000 22200 10502 70009 333 91206
BBXX DCDP2 09004 99438 70437 41596 82325 10165 20149 40190 58015 71211 8/8// 22264 04180 20505 80155
BBXX A8IQ2 09000 99068 11082 41298 30204 10265 20265 40110 52010 70100 83142 22253 04290 20301 303// 41001 80265
BBXX VQOG5 09004 99062 10933 41498 50512 10278 20238 40088 53002 70311 82251 22223 00279 20101 320// 41003 80250
BBXX SHIP 09004 99242 11272 41397 80327 10200 20184 40120 54/// 70003 88/// 22254 00253 20202 302// 4//07 80190
BBXX S6OM 09004 99262 11224 41596 80136 10145 20127 40278 52/// 78922 877// 22211 00215 21214 301// 41218 5//// 80135
BBXX 66022 09001 99541 10142 46/// /1815 10050 39990 22200 00053
BBXX 9VBM6 09003 99375 10083 41999 00310 10170 20137 40290 54000 7//00 80478 22263 04210 20503 30303 40902 50902 80150
BBXX WCZ5238 09003 99140 51249 41898 31019 10270 20197 40130 54/// 7//11 83//5 22273 00250 20803 31023 41005 51407 6//// 80220 ICE /////
BBXX PEND 09003 99104 31161 41599 62515 10280 20221 40087 53017 70211 83101 22243 00320 2//// 80238
BBXX VRFS2 09004 99096 31348 41498 53307 10295 20260 40072 50009 70222 85441 22224 00/// 20401 335// 40502 80270
BBXX PDWT 09003 99018 31271 41/97 70306 10284 20245 40089 51012 72582 86772 22273 00/// 2//00 80255
BBXX MZER8 09003 99049 11066 41598 50409 10290 20227 40091 53009 70222 83262 22213 00283 20501 303// 40802 80247
BBXX MCCN6 09004 99102 30944 41298 62916 10255 20241 40060 53011 70182 8324/ 22233 00264 2//// 3//// 4//// 5//// 80245
OOXX AABRI 09004 99839 51342 60134 05251 46/// /2506 11059 21242 39198 49815 5//// 90030
BBXX SHIP 09004 99367 11645 41/98 82122 10180 20180 40007 57032 70311 86117 22264 00210 20204 33199 40708 5//08 80180
OOXX AALAU 09004 99775 31708 57070 00371 46/// /1807 11055 21112 39736 49782 5//// 90030
OOXX AAKOM 09004 99795 51121 56392 18332 46/// /3104 11125 21174 37750 49612 57008 90030
OOXX AAMIZ 09004 99707 30443 58304 22602 46/// /1013 11286 2//// 37299 49603 5//// 90030
AAXX 09004 71055 46/// /1606 11185 21204 39755 40101 56024 6///1 333 11185 21378 7////
AAXX 09004 71065 16/// ///// 11180 21210 60001 333 11108 21235 70004
AAXX 09004 71014 16/// /3204 11093 21157 60001 333 11077 21187 7////
AAXX 09004 71481 16/// /2102 11075 21134 60001 333 11069 21204 7////
AAXX 09004 71498 16/// /2911 11060 21101 60001 333 11055 21208 70004
AAXX 09004 71540 16/// /2806 11064 21092 60001 333 11061 21245 70004
AAXX 09004 71544 16/// ///// 11133 21167 60001 333 11113 21183 70004
AAXX 09004 71548 16/// ///// 11164 21216 60001 333 11124 21213 70000
AAXX 09004 71360 16/// ///// 11160 21189 60001 333 11098 21203 70000
AAXX 09004 71380 16/// /3204 11088 21156 60001 333 11068 21203 70000
AAXX 09004 71249 16/// /3016 11080 21120 60001 333 11080 21212 70000
AAXX 09004 71857 16/// ///// 11162 21200 60001 333 11124 21203 70000
AAXX 09004 71413 16/// ///// 11154 21188 60001 333 11081 21217 70000
AAXX 09004 71414 16/// ///// 11162 21217 60001 333 11121 21214 70000
AAXX 09004 71440 16/// ///// 11065 21105 60001 333 11065 21180 70004
AAXX 09004 71674 16/// ///// 11140 21176 60001 333 11083 21204 70000
AAXX 09004 71904 16/// ///// 11073 21115 60001 333 11073 21216 70000
AAXX 09004 71346 16/// /2806 11063 21102 60001 333 11060 21159 70000
AAXX 09001 31713 32999 71801 11241 21248 30093 40201 57010 84049 333 21279 47014
AAXX 09004 42131 32996 02701 10156 20149 40127 333 59009
OOXX AAVIT 09004 99785 31778 57087 00501 46/// /1411 11040 21089 39721 49783 5//// 90030
OOXX AAERC 09004 99815 31639 60713 00451 46/// /2206 11011 21079 39713 49768 5//// 90030
AAXX 09004 41858 31903 02702 10184 20170 30086 40133 74440 333 58003 70000
AAXX 09004 41863 31430 60000 10175 20170 30091 40135 71022 82530 333 56990 58008 70000 82618 86362
AAXX 09004 41886 31902 00000 10160 20160 30107 40128 74444 333 58000 70000
AAXX 09004 41895 31908 00000 10170 20170 30107 40130 74400 333 59008 70000
AAXX 09004 41915 31915 00000 10141 20140 30107 40134 71044 333 58003 70000
AAXX 09004 41926 31902 10000 10155 20155 30117 40131 74200 333 58004 70000
AAXX 09004 41933 31905 00000 10170 20160 30117 40126 74244 333 59001 70000
AAXX 09004 41939 31930 00000 10163 20160 40137 71044 333 58005 70000
AAXX 09004 41941 31940 00000 10190 20180 30117 40123 70500 333 59003 70000
AAXX 09004 41946 31920 00000 10170 20170 30124 40129 71000 333 58001 70000
AAXX 09004 41947 31908 00000 10177 20177 30123 40126 74644 333 59002 70000
AAXX 09004 41953 31940 00000 10190 20190 30121 40127 70500 333 58004 70000
AAXX 09004 41958 31930 00000 10184 20180 30123 40125 70500 333 58001 70000
AAXX 09004 41960 31015 00000 10172 20170 30119 40131 71000 333 58002 70000
AAXX 09004 41964 31912 00000 10174 20170 30130 40132 71000 333 59001 70000
AAXX 09004 41984 31950 00000 10170 20160 30116 40118 70500 333 59002 70000
BBXX AMOUK01 09004 99312 30157 46/// ///// 10169 20114 30171 40181 57005 92350
AAXX 09004 82594 32697 40907 10282 20174 30092 40100 82100 333 10338 29052 55091 58002
AAXX 09004 82979 32493 40000 10287 20154 39632 40072 82130 333 10342 29045 55120 58003
AAXX 09004 82986 32995 01815 10272 20193 39327 40106 333 3310346 29053 55108 58006
AAXX 09004 83179 32594 21804 10287 20160 39620 40059 82200 333 10360 29043 55112 59002
AAXX 09004 83192 32995 01205 10249 20185 39962 40126 333 10339 29054 55097 58001
AAXX 09004 83339 32995 01803 10229 20144 39125 40082 333 10287 29057 55117 59005
AAXX 09004 83498 32595 10901 10248 20227 30135 40140 81100 333 10289 55/// 59011
OOXX SEP63 08221 99594 10180 ///// 00401 26/// /0104 10013 29082 39970 92210 333 60000
OOXX SEP63 08221 99594 10180 ///// 00401 26/// /3604 10013 29082 39970 92220 333 60000
OOXX SEP63 08221 99594 10180 ///// 00401 26/// /0304 10013 29082 39970 92230 333 60000
OOXX SEP63 08221 99594 10180 ///// 00401 26/// /3405 10014 29081 39960 92240 333 60000
OOXX SEP63 08221 99594 10180 ///// 00401 26/// /3505 10016 29080 39960 92250 333 60000
OOXX SEP63 08231 99594 10180 ///// 00401 26/// /0105 10016 29080 39960 92300 333 60000
OOXX SEP63 08231 99594 10180 ///// 00401 26/// /0105 10017 29079 39960 92310 333 60000
OOXX SEP63 08231 99594 10180 ///// 00401 26/// /0305 10017 29079 39950 92320 333 60000
OOXX SEP63 08231 99594 10180 ///// 00401 26/// /3406 10017 29079 39950 92330 333 60000
OOXX SEP63 08231 99594 10180 ///// 00401 26/// /3505 10018 29080 39950 92340 333 60000
OOXX SEP63 08231 99594 10180 ///// 00401 26/// /3505 10018 29079 39940 92350 333 60000
OOXX SEP63 09001 99594 10180 ///// 00401 26/// /3505 10019 29078 39940 90000 333 60000
OOXX FRP31 08211 99052 70527 ///// 00091 26/// /0403 10272 29075 30177 92157 333 60000
OOXX FRP31 08221 99052 70527 ///// 00091 26/// /0405 10273 29076 30177 92207 333 60000
OOXX FRP31 08221 99052 70527 ///// 00091 26/// /0405 10273 29076 30178 92217 333 60000
OOXX FRP31 08221 99052 70527 ///// 00091 26/// /0405 10273 29076 30181 92227 333 60000
OOXX FRP31 08221 99052 70527 ///// 00091 26/// /0404 10273 29075 30181 92237 333 60000
OOXX FRP31 08221 99052 70527 ///// 00091 26/// /0404 10272 29075 30184 92247 333 60000
OOXX FRP31 08221 99052 70527 ///// 00091 26/// /0405 10272 29075 30184 92257 333 60000
OOXX FRP31 08231 99052 70527 ///// 00091 26/// /0406 10270 29076 30185 92307 333 60000
OOXX FRP31 08231 99052 70527 ///// 00091 26/// /0505 10268 29076 30188 92317 333 60000
OOXX FRP31 08231 99052 70527 ///// 00091 26/// /0405 10268 29076 30188 92327 333 60000
OOXX FRP31 08231 99052 70527 ///// 00091 26/// /0406 10270 29075 30189 92337 333 60000
OOXX FRP31 08231 99052 70527 ///// 00091 26/// /0405 10271 29074 30192 92347 333 60000
AAXX 09004 60525 12965 00000 10100 20054 40272 50001 60001 333 0//00 95990
BBXX SHIP 09004 99420 10060 41298 12921 10150 20108 40235 53010 7020/ 81100 22200 00180 20402 80126 333 81803
BBXX JPAT 09004 99085 30871 41697 72416 10264 20236 40062 52020 70322 87460 22212 00278 11305 20402 325// 41003 85244
BBXX C6HS4 09003 99100 30850 41698 61508 10280 20253 40061 50000 70222 85592 22233 06270 205// 315// 40402 80260
BBXX MCCN6 09004 99102 30944 41298 62916 10255 20241 40060 53011 70182 8324/ 22233 00264 2//// 3//// 4//// 5//// 80245
BBXX AMOUK15 09004 99211 30009 46/// ///// 10192 20137 30168 40199 54000 92350
BBXX MINFR03 0900/ 99299 30310 46/// ///// 10173 40191 52001
BBXX ZDLS1 09003 99312 30157 41597 31430 10163 20107 40176 57002 70111 82445 22232 04170 20608 80133
BBXX AMOUK17 09004 99328 30573 46/// ///// 10196 20180 30187 40195 54003 92350
BBXX ZSAF 09004 99339 30162 41599 61522 10172 20073 40213 57079 70122 86500 22263 04179 2//// 318// 40606 5////
BBXX MGGK4 09004 99345 30254 41798 41318 10170 20043 40231 50010 70111 841// 22253 00194 2//// 3//// 4//// 5//// 80110
BBXX MTDU5 08223 99349 30200 41298 61410 10170 20115 40231 52010 70322 8/7// 22262 04192 20703 3//// 4//// 5//// 80140
BBXX 9VDD2 09004 99535 71597 41698 72322 10060 20040 40150 54000 7//55 8744/ 22273 04050 21012 32626 41012 50810 80050
AAXX 09004 60525 12965 00000 10100 20054 40272 50001 60001 333 0//00 95990
AAXX 09004 71869 12974 02910 11171 21264 39698 40248 53012 60001 333 11154 21181 79999
AAXX 09004 71869 12974 02910 11171 21264 39698 40248 53012 60001 333 11154 21181 79999
AAXX 09004 91844 46/// /9901 10280 40123 22200 00272
BBXX MINUK04 0900/ 99555 10084 46/// ///// 10073 4//// 52010
BBXX MINUK03 0900/ 99539 10004 46/// ///// 10068 49939 52055
BBXX MINFR00 0900/ 99484 70078 46/// ///// 10088 40165 52016
BBXX 46224 09001 99332 71175 46/// ///// 1//// 90006 22200 00153 11301 20601 320// 41301 70005
BBXX AMOUK08 09004 99501 70061 46/// ///// 10102 20043 30132 40136 52021 92350
BBXX 63106 09004 99610 10017 46/// /0727 10061 49623 51004 22200
BBXX 63105 09004 99610 10017 47497 ///// 10052 20042 49630 52009 751// 22200
BBXX 62094 09004 99517 70067 46/// /2722 10079 20079 40110 52012 22200 00115 10606 70031
BBXX 64049 09003 99571 10022 41/97 82750 10064 20055 49640 55020 70722 8//// 22200 04095 20714 327// 40716 5//// 80060
BBXX AMOUK04 09004 99533 70062 46/// ///// 10038 2//// 30058 4//// 52049 92350
BBXX 46224 09001 99332 71175 46/// ///// 1//// 90006 22200 00153 11301 20601 320// 41301 70005
BBXX WDD3826 09004 99257 70869 41398 70219 10190 2016/ 40205 54000 7//22 877// 22224 00240 20301 303// 40703 5//// 6//// 80170 ICE /////
BBXX SHIP 09004 99318 71508 41598 61410 10210 20180 40210 56/// 7//22 8644/ 22223 00210 20403 33502 40604 51005 6//// 80190 ICE /////
BBXX A8EY7 09004 99533 11671 41396 71122 10025 20013 49860 57060 77077 8/7// 22262 2//08 399// 4//07 5//// 80020
BBXX ZCAS2 09003 99188 31176 41598 52213 10279 20214 40067 52010 70200 83241 22253 00301 20202 325// 40203 80235
BBXX 9V7548 09004 99157 31546 41598 50804 10305 20256 40094 50/// 70322 8458/ 22284 04300 2//// 30000 80270
BBXX MINUK03 0900/ 99539 10004 46/// ///// 10068 49939 52055
BBXX MINUK04 0900/ 99555 10084 46/// ///// 10073 4//// 52010
BBXX MINFR00 0900/ 99484 70078 46/// ///// 10088 40165 52016
BBXX BSH02 09001 99542 10079 46/// ///// 22200 00084 21007 70037
BBXX SHIP 09004 99420 10060 41298 12921 10150 20108 40235 53010 7020/ 81100 22200 00180 20402 80126 333 81803
BBXX VVKS 09003 99098 31560 41597 60503 10280 20260 40048 54000 70371 8541/ 22232
OOXX CAP16 08231 99624 71145 ///// 02061 26/// /0101 11290 29066 39838 92300 333 60000
OOXX CAP16 08231 99624 71145 ///// 02061 26/// /0102 11292 29066 39835 92310 333 60000
OOXX CAP16 08231 99624 71145 ///// 02061 26/// /0102 11290 29066 39832 92320 333 60000
OOXX CAP16 08231 99624 71145 ///// 02061 26/// /0102 11287 29067 39831 92330 333 60000
OOXX CAP16 08231 99624 71145 ///// 02061 26/// /3602 11289 29066 39833 92340 333 60000
OOXX CAP16 08231 99624 71145 ///// 02061 26/// /3601 11290 29066 39832 92350 333 60000
OOXX CAP16 09001 99624 71145 ///// 02061 26/// /3602 11293 29066 39826 90000 333 60000
OOXX CAP16 09001 99624 71145 ///// 02061 26/// /3601 11293 29066 39829 90010 333 60000
OOXX CAP16 09001 99624 71145 ///// 02061 26/// /3601 11291 29066 39822 90020 333 60000
OOXX CAP16 09001 99624 71145 ///// 02061 26/// /3602 11287 29067 39818 90030 333 60000
OOXX CAP16 09001 99624 71145 ///// 02061 26/// /2602 11285 29067 39814 90040 333 60000
OOXX CAP16 09001 99624 71145 ///// 02061 26/// /2502 11285 29067 39816 90050 333 60000
OOXX AUP07 08221 99/// ///// ///// ///// 26/// /0206 10064 29095 30124 92257 333 60000
OOXX AUP07 08231 99/// ///// ///// ///// 26/// /0205 10062 29095 30125 92307 333 60000
OOXX AUP07 08231 99/// ///// ///// ///// 26/// /3605 10062 29095 30125 92317 333 60000
OOXX AUP07 08231 99/// ///// ///// ///// 26/// /0105 10063 29095 30126 92327 333 60000
OOXX AUP07 08231 99/// ///// ///// ///// 26/// /3605 10064 29095 30126 92337 333 60000
OOXX AUP07 08231 99/// ///// ///// ///// 26/// /0105 10071 29096 30127 92347 333 60000
OOXX AUP07 08231 99/// ///// ///// ///// 26/// /0105 10068 29095 30128 92357 333 60000
OOXX AUP07 09001 99/// ///// ///// ///// 26/// /0206 10065 29095 30129 90007 333 60000
OOXX AUP07 09001 99/// ///// ///// ///// 26/// /0205 10067 29095 30129 90017 333 60000
OOXX AUP07 09001 99/// ///// ///// ///// 26/// /0105 10068 29095 30130 90027 333 60000
OOXX AUP07 09001 99/// ///// ///// ///// 26/// /0105 10065 29095 30130 90037 333 60000
OOXX AUP07 09001 99/// ///// ///// ///// 26/// /0105 10066 29095 30131 90047 333 60000
OOXX GBP67 08221 99159 50057 ///// 04381 26/// /0804 10158 29096 39672 92200 333 60000
OOXX GBP67 08221 99159 50057 ///// 04381 26/// /0704 10155 29096 39673 92210 333 60000
OOXX GBP67 08221 99159 50057 ///// 04381 26/// /0804 10153 29097 39673 92220 333 69920
OOXX GBP67 08221 99159 50057 ///// 04381 26/// /0804 10156 29097 39673 92230 333 60000
OOXX GBP67 08221 99159 50057 ///// 04381 26/// /0704 10158 29097 39673 92240 333 60000
OOXX GBP67 08221 99159 50057 ///// 04381 26/// /0905 10153 29098 39673 92250 333 60000
OOXX GBP67 08231 99159 50057 ///// 04381 26/// /0904 10153 29098 39673 92300 333 69920
OOXX GBP67 08231 99159 50057 ///// 04381 26/// /0904 10155 29098 39672 92310 333 60000
OOXX GBP67 08231 99159 50057 ///// 04381 26/// /0804 10156 29098 39671 92320 333 60000
OOXX GBP67 08231 99159 50057 ///// 04381 26/// /0804 10154 29098 39671 92330 333 60000
OOXX GBP67 08231 99159 50057 ///// 04381 26/// /0804 10156 29097 39670 92340 333 60000
OOXX GBP67 08231 99159 50057 ///// 04381 26/// /0905 10158 29098 39668 92350 333 60000
OOXX RUP54 08221 99586 10494 ///// 01271 26/// /0303 11066 29093 30088 92227 333 60120
OOXX RUP54 08221 99586 10494 ///// 01271 26/// /0102 11066 29093 30089 92237 333 60120
OOXX RUP54 08221 99586 10494 ///// 01271 26/// /3603 11066 29093 30090 92247 333 60120
OOXX RUP54 08221 99586 10494 ///// 01271 26/// /3603 11066 29093 30090 92257 333 60120
OOXX RUP54 08231 99586 10494 ///// 01271 26/// /0203 11066 29093 30090 92307 333 60120
OOXX RUP54 08231 99586 10494 ///// 01271 26/// /0303 11066 29093 30090 92317 333 60120
OOXX RUP54 08231 99586 10494 ///// 01271 26/// /0303 11067 29093 30090 92327 333 60120
OOXX RUP54 08231 99586 10494 ///// 01271 26/// /0503 11067 29093 30091 92337 333 60120
OOXX RUP54 08231 99586 10494 ///// 01271 26/// /0303 11067 29093 30092 92347 333 60120
OOXX RUP54 08231 99586 10494 ///// 01271 26/// /0103 11066 29093 30093 92357 333 60120
OOXX RUP54 09001 99586 10494 ///// 01271 26/// /3503 11066 29093 30092 90007 333 60120
OOXX RUP54 09001 99586 10494 ///// 01271 26/// /3604 11067 29093 30092 90017 333 60120
OOXX RUP59 08221 99539 10848 ///// 02121 26/// /0000 11251 29073 30103 92240 333 60000
OOXX RUP59 08221 99539 10848 ///// 02121 26/// /0000 11252 29072 30103 92250 333 60000
OOXX RUP59 08231 99539 10848 ///// 02121 26/// /0000 11252 29073 30103 92300 333 60000
OOXX RUP59 08231 99539 10848 ///// 02121 26/// /0000 11253 29073 30103 92310 333 60000
OOXX RUP59 08231 99539 10848 ///// 02121 26/// /0000 11254 29073 30103 92320 333 60000
OOXX RUP59 08231 99539 10848 ///// 02121 26/// /0000 11253 29072 30104 92330 333 60000
OOXX RUP59 08231 99539 10848 ///// 02121 26/// /0000 11257 29072 30103 92340 333 60000
OOXX RUP59 08231 99539 10848 ///// 02121 26/// /0000 11255 29073 30102 92350 333 60000
OOXX RUP59 09001 99539 10848 ///// 02121 26/// /0000 11257 29072 30102 90000 333 60000
OOXX RUP59 09001 99539 10848 ///// 02121 26/// /0000 11257 29072 30102 90010 333 60000
OOXX RUP59 09001 99539 10848 ///// 02121 26/// /0000 11257 29072 30102 90020 333 60000
OOXX RUP59 09001 99539 10848 ///// 02121 26/// /0000 11259 29071 30101 90030 333 60000
OOXX RUP58 08221 99442 11320 ///// 01121 26/// /0601 11170 29052 30090 92242 333 60000
OOXX RUP58 08221 99442 11320 ///// 01121 26/// /1101 11172 29056 30090 92252 333 60000
OOXX RUP58 08231 99442 11320 ///// 01121 26/// /1101 11169 29056 30091 92302 333 60000
OOXX RUP58 08231 99442 11320 ///// 01121 26/// /1001 11167 29055 30091 92312 333 60000
OOXX RUP58 08231 99442 11320 ///// 01121 26/// /0901 11164 29054 30091 92322 333 60000
OOXX RUP58 08231 99442 11320 ///// 01121 26/// /0000 11160 29053 30092 92332 333 60000
OOXX RUP58 08231 99442 11320 ///// 01121 26/// /3501 11198 29053 30093 92342 333 60000
OOXX RUP58 08231 99442 11320 ///// 01121 26/// /3401 11203 29057 30093 92352 333 60000
OOXX RUP58 09001 99442 11320 ///// 01121 26/// /1901 11182 29059 30092 90002 333 60000
OOXX RUP58 09001 99442 11320 ///// 01121 26/// /2901 11157 29055 30093 90012 333 60000
OOXX RUP58 09001 99442 11320 ///// 01121 26/// /2701 11155 29050 30093 90022 333 60000
OOXX RUP58 09001 99442 11320 ///// 01121 26/// /0000 11147 29049 30093 90032 333 60000
OOXX AUP09 08221 99124 31309 ///// 00321 26/// ///// 1//// 29/// 3//// 92214 333 6///0
OOXX AUP09 08221 99124 31309 ///// 00321 26/// ///// 1//// 29/// 3//// 92224 333 6///0
OOXX AUP09 08221 99124 31309 ///// 00321 26/// ///// 1//// 29/// 3//// 92234 333 6///0
OOXX AUP09 08221 99124 31309 ///// 00321 26/// ///// 1//// 29/// 3//// 92244 333 6///0
OOXX AUP09 08221 99124 31309 ///// 00321 26/// ///// 1//// 29/// 3//// 92254 333 6///0
OOXX AUP09 08231 99124 31309 ///// 00321 26/// ///// 1//// 29/// 3//// 92304 333 6///0
OOXX AUP09 08231 99124 31309 ///// 00321 26/// ///// 1//// 29/// 3//// 92314 333 6///0
OOXX AUP09 08231 99124 31309 ///// 00321 26/// ///// 1//// 29/// 3//// 92324 333 6///0
OOXX AUP09 08231 99124 31309 ///// 00321 26/// ///// 1//// 29/// 3//// 92334 333 6///0
OOXX AUP09 08231 99124 31309 ///// 00321 26/// ///// 1//// 29/// 3//// 92344 333 6///0
OOXX AUP09 08231 99124 31309 ///// 00321 26/// ///// 1//// 29/// 3//// 92354 333 6///0
OOXX AUP09 09001 99124 31309 ///// 00321 26/// ///// 1//// 29/// 3//// 90004 333 6///0
OOXX ISP34 08221 99641 70219 ///// 01301 26/// /1803 11038 29001 39983 92210 333 6///0
OOXX ISP34 08221 99641 70219 ///// 01301 26/// /1804 11038 29001 39984 92220 333 6///0
OOXX ISP34 08221 99641 70219 ///// 01301 26/// /1704 11039 29001 39986 92230 333 6///0
OOXX ISP34 08221 99641 70219 ///// 01301 26/// /1504 11039 29001 39988 92240 333 6///0
OOXX ISP34 08221 99641 70219 ///// 01301 26/// /1503 11039 29001 39989 92250 333 6///0
OOXX ISP34 08231 99641 70219 ///// 01301 26/// /1503 11042 29001 39990 92300 333 6///0
OOXX ISP34 08231 99641 70219 ///// 01301 26/// /1703 11042 29001 39993 92310 333 6///0
OOXX ISP34 08231 99641 70219 ///// 01301 26/// /1804 11042 29001 39994 92320 333 6///0
OOXX ISP34 08231 99641 70219 ///// 01301 26/// /1603 11044 29001 39998 92330 333 6///0
OOXX ISP34 08231 99641 70219 ///// 01301 26/// /1804 11045 29001 30000 92340 333 6///0
OOXX ISP34 08231 99641 70219 ///// 01301 26/// /1904 11045 29001 30002 92350 333 6///0
OOXX ISP34 09001 99641 70219 ///// 01301 26/// /1804 11047 29001 30005 90000 333 6///0
OOXX RUP60 08221 99531 11588 ///// 00651 26/// /0106 11084 29048 39851 92252 333 60000
OOXX RUP60 08231 99531 11588 ///// 00651 26/// /3102 11085 29048 39851 92302 333 60000
OOXX RUP60 08231 99531 11588 ///// 00651 26/// /3303 11085 29048 39850 92312 333 60000
OOXX RUP60 08231 99531 11588 ///// 00651 26/// /3201 11083 29048 39850 92322 333 60000
OOXX RUP60 08231 99531 11588 ///// 00651 26/// /2803 11082 29047 39849 92332 333 60000
OOXX RUP60 08231 99531 11588 ///// 00651 26/// /0204 11081 29047 39848 92342 333 60000
OOXX RUP60 08231 99531 11588 ///// 00651 26/// /3403 11077 29046 39847 92352 333 60000
OOXX RUP60 09001 99531 11588 ///// 00651 26/// /3203 11078 29048 39845 90002 333 60000
OOXX RUP60 09001 99531 11588 ///// 00651 26/// /3202 11077 29047 39843 90012 333 60000
OOXX RUP60 09001 99531 11588 ///// 00651 26/// /3302 11072 29045 39842 90022 333 60000
OOXX RUP60 09001 99531 11588 ///// 00651 26/// /2902 11070 29045 39840 90032 333 60000
OOXX RUP60 09001 99531 11588 ///// 00651 26/// /2804 11070 29044 39837 90042 333 60000
OOXX FJP26 08221 99178 31775 ///// 00311 26/// /2803 10304 29066 30088 92210 333 60000
OOXX FJP26 08221 99178 31775 ///// 00311 26/// /2904 10299 29066 30087 92220 333 60000
OOXX FJP26 08221 99178 31775 ///// 00311 26/// /2903 10300 29067 30087 92230 333 60000
OOXX FJP26 08221 99178 31775 ///// 00311 26/// /2703 10304 29067 30086 92240 333 60000
OOXX FJP26 08221 99178 31775 ///// 00311 26/// /2803 10304 29065 30085 92250 333 60000
OOXX FJP26 08231 99178 31775 ///// 00311 26/// /2602 10303 29064 30084 92300 333 60000
OOXX FJP26 08231 99178 31775 ///// 00311 26/// /2601 10304 29063 30083 92310 333 60000
OOXX FJP26 08231 99178 31775 ///// 00311 26/// /1801 10310 29063 30081 92320 333 60000
OOXX FJP26 08231 99178 31775 ///// 00311 26/// /0701 10317 29055 30080 92330 333 60000
OOXX FJP26 08231 99178 31775 ///// 00311 26/// /3103 10313 29059 30079 92340 333 60000
OOXX FJP26 08231 99178 31775 ///// 00311 26/// /3502 10317 29058 30079 92350 333 60000
OOXX FJP26 09001 99178 31775 ///// 00311 26/// /0303 10321 29053 30078 90000 333 60000
OOXX MRP43 08221 99181 70159 ///// 00101 26/// /3103 10192 29048 30140 92240 333 60000
OOXX MRP43 08221 99181 70159 ///// 00101 26/// /3203 10193 29047 30139 92250 333 60000
OOXX MRP43 08231 99181 70159 ///// 00101 26/// /3203 10195 29046 30139 92300 333 60000
OOXX MRP43 08231 99181 70159 ///// 00101 26/// /3203 10196 29044 30139 92310 333 60000
OOXX MRP43 08231 99181 70159 ///// 00101 26/// /3203 10195 29043 30139 92320 333 60000
OOXX MRP43 08231 99181 70159 ///// 00101 26/// /3203 10193 29045 30139 92330 333 60000
OOXX MRP43 08231 99181 70159 ///// 00101 26/// /3303 10191 29046 30139 92340 333 60000
OOXX MRP43 08231 99181 70159 ///// 00101 26/// /3303 10190 29046 30138 92350 333 60000
OOXX MRP43 09001 99181 70159 ///// 00101 26/// /3302 10189 29048 30137 90000 333 60000
OOXX MRP43 09001 99181 70159 ///// 00101 26/// /3202 10188 29049 30137 90010 333 60000
OOXX MRP43 09001 99181 70159 ///// 00101 26/// /3401 10185 29052 30137 90020 333 60000
OOXX MRP43 09001 99181 70159 ///// 00101 26/// /3501 10184 29055 30135 90030 333 60000
OOXX CAP14 08221 99487 71234 ///// 00431 26/// /3602 10046 29065 30235 92220 333 60000
OOXX CAP14 08221 99487 71234 ///// 00431 26/// /0101 10045 29065 30234 92230 333 60000
OOXX CAP14 08221 99487 71234 ///// 00431 26/// /0101 10047 29065 30234 92240 333 60000
OOXX CAP14 08221 99487 71234 ///// 00431 26/// /3501 10050 29065 30236 92250 333 60000
OOXX CAP14 08231 99487 71234 ///// 00431 26/// /3401 10053 29065 30234 92300 333 60000
OOXX CAP14 08231 99487 71234 ///// 00431 26/// /3402 10053 29064 30233 92310 333 60000
OOXX CAP14 08231 99487 71234 ///// 00431 26/// /3501 10053 29064 30234 92320 333 60000
OOXX CAP14 08231 99487 71234 ///// 00431 26/// /0302 10049 29065 30234 92330 333 60000
OOXX CAP14 08231 99487 71234 ///// 00431 26/// /0201 10045 29067 30234 92340 333 60000
OOXX CAP14 08231 99487 71234 ///// 00431 26/// /0501 10041 29069 30234 92350 333 60000
OOXX CAP14 09001 99487 71234 ///// 00431 26/// /0601 10036 29072 30235 90000 333 60000
OOXX CAP14 09001 99487 71234 ///// 00431 26/// /0501 10035 29072 30235 90010 333 60000
OOXX KIP39 08221 99020 51574 ///// 00181 26/// /0904 10290 29070 30099 92230 333 60000
OOXX KIP39 08221 99020 51574 ///// 00181 26/// /0904 10287 29071 30099 92240 333 60000
OOXX KIP39 08221 99020 51574 ///// 00181 26/// /0904 10288 29071 30096 92250 333 60000
OOXX KIP39 08231 99020 51574 ///// 00181 26/// /0904 10286 29071 30095 92300 333 60000
OOXX KIP39 08231 99020 51574 ///// 00181 26/// /0904 10288 29071 30094 92310 333 60000
OOXX KIP39 08231 99020 51574 ///// 00181 26/// /0904 10291 29071 30092 92320 333 60000
OOXX KIP39 08231 99020 51574 ///// 00181 26/// /0904 10291 29070 30090 92330 333 60000
OOXX KIP39 08231 99020 51574 ///// 00181 26/// /0904 10288 29071 30089 92340 333 60000
OOXX KIP39 08231 99020 51574 ///// 00181 26/// /0904 10287 29071 30086 92350 333 60000
OOXX KIP39 09001 99020 51574 ///// 00181 26/// /0904 10287 29071 30084 90000 333 60000
OOXX KIP39 09001 99020 51574 ///// 00181 26/// /0904 10286 29071 30082 90010 333 60000
OOXX KIP39 09001 99020 51574 ///// 00181 26/// /0904 10290 29071 30083 90020 333 60000
OOXX ARP01 08221 99345 50585 ///// 00311 26/// /1401 10121 29039 30110 92210 333 60000
OOXX ARP01 08221 99345 50585 ///// 00311 26/// /1601 10120 29039 30111 92220 333 60000
OOXX ARP01 08221 99345 50585 ///// 00311 26/// /1101 10118 29039 30111 92230 333 60000
OOXX ARP01 08221 99345 50585 ///// 00311 26/// /1602 10117 29039 30112 92240 333 60000
OOXX ARP01 08221 99345 50585 ///// 00311 26/// /1601 10115 29039 30113 92250 333 60000
OOXX ARP01 08231 99345 50585 ///// 00311 26/// /1601 10114 29039 30114 92300 333 60000
OOXX ARP01 08231 99345 50585 ///// 00311 26/// /1602 10113 29039 30114 92310 333 60000
OOXX ARP01 08231 99345 50585 ///// 00311 26/// /0000 10113 29039 30115 92320 333 60000
OOXX ARP01 08231 99345 50585 ///// 00311 26/// /0000 10113 29038 30115 92330 333 60000
OOXX ARP01 08231 99345 50585 ///// 00311 26/// /0000 10113 29038 30116 92340 333 60000
OOXX ARP01 08231 99345 50585 ///// 00311 26/// /1802 10113 29038 30117 92350 333 60000
OOXX ARP01 09001 99345 50585 ///// 00311 26/// /0000 10112 29038 30119 90000 333 60000
OOXX CKP23 08221 99212 51598 ///// 00051 26/// /0304 10281 29077 30124 92250 333 60000
OOXX CKP23 08231 99212 51598 ///// 00051 26/// /0404 10287 29077 30123 92300 333 60000
OOXX CKP23 08231 99212 51598 ///// 00051 26/// /0404 10285 29076 30122 92310 333 60000
OOXX CKP23 08231 99212 51598 ///// 00051 26/// /0304 10279 29076 30122 92320 333 60000
OOXX CKP23 08231 99212 51598 ///// 00051 26/// /0404 10275 29078 30121 92330 333 60000
OOXX CKP23 08231 99212 51598 ///// 00051 26/// /0304 10274 29079 30120 92340 333 60000
OOXX CKP23 08231 99212 51598 ///// 00051 26/// /0304 10274 29078 30119 92350 333 60000
OOXX CKP23 09001 99212 51598 ///// 00051 26/// /0203 10272 29081 30119 90000 333 60000
OOXX CKP23 09001 99212 51598 ///// 00051 26/// /0103 10271 29079 30118 90010 333 60000
OOXX CKP23 09001 99212 51598 ///// 00051 26/// /0103 10275 29080 30117 90020 333 60000
OOXX CKP23 09001 99212 51598 ///// 00051 26/// /3603 10279 29079 30116 90030 333 60000
OOXX CKP23 09001 99212 51598 ///// 00051 26/// /3601 10283 29075 30115 90040 333 60000
OOXX NZP46 08221 99438 51765 ///// 00221 26/// /2109 10133 29058 30210 92220 333 60000
OOXX NZP46 08221 99438 51765 ///// 00221 26/// /2007 10134 29059 30210 92230 333 60000
OOXX NZP46 08221 99438 51765 ///// 00221 26/// /2107 10143 29057 30211 92240 333 60000
OOXX NZP46 08221 99438 51765 ///// 00221 26/// /2208 10145 29053 30211 92250 333 60000
OOXX NZP46 08231 99438 51765 ///// 00221 26/// /2207 10148 29052 30213 92300 333 60000
OOXX NZP46 08231 99438 51765 ///// 00221 26/// /2108 10145 29053 30213 92310 333 60000
OOXX NZP46 08231 99438 51765 ///// 00221 26/// /2108 10143 29054 30214 92320 333 60000
OOXX NZP46 08231 99438 51765 ///// 00221 26/// /2208 10146 29054 30214 92330 333 60000
OOXX NZP46 08231 99438 51765 ///// 00221 26/// /2108 10145 29055 30215 92340 333 60000
OOXX NZP46 08231 99438 51765 ///// 00221 26/// /2207 10143 29056 30216 92350 333 60000
OOXX NZP46 09001 99438 51765 ///// 00221 26/// /2108 10141 29057 30217 90000 333 60000
OOXX NZP46 09001 99438 51765 ///// 00221 26/// /2208 10138 29058 30217 90010 333 60000
AAXX 09004 91559 46/// /0403 10278 40083 22200 00279
AAXX 09004 71427 17/// /2724 11044 21090 30061 40068 51073 60011 7//4/ 333 11008 21047 70090
AAXX 09004 71732 16/// /1905 11025 21084 60001 333 11003 21072 70000
AAXX 09004 71494 16/// /2407 11059 21071 39632 40163 51031 60001 333 11040 21069 70081 555 10010
AAXX 09004 71512 17/// /2814 11038 21039 39928 49942 53091 60061 7//4/ 333 11019 21038 70248
AAXX 09004 71392 16/// /2102 11041 21083 60001 333 11008 21046 70045
AAXX 09004 91531 46/// /0811 1//// 40065 22200 00255
AAXX 0900/ 89314 46/// ///// 11084 38115 4//// 5//// 90010
AAXX 0900/ 89828 46/// ///// 11299 36432 4//// 5//// 90010
AAXX 0900/ 89869 46/// ///// 11034 39706 4//// 5//// 90010
AAXX 0900/ 89866 46/// ///// 11035 39677 4//// 5//// 90010
AAXX 0900/ 89329 46/// ///// 11100 38646 4//// 5//// 90020
AAXX 0900/ 89868 46/// ///// 11026 39717 4//// 5////
AAXX 0900/ 89332 46/// ///// 11043 39155 4//// 5//// 90010
AAXX 09004 48300 31/02 90000 10193 20183 39819 40137 52011 74740 333 20188 59005
AAXX 09004 48327 31558 70000 10210 20197 39784 40145 52013 71022 84545 333 20205 59008
AAXX 09004 48331 31556 60000 10220 20209 39908 40141 52018 71022 83576 333 20214 58004
AAXX 09004 48353 32660 71303 10218 20154 39862 40155 52022 84536 333 20215 58025
AAXX 09004 48356 32668 70000 10198 20163 39957 40158 53013 82550 333 20195 58025
AAXX 09004 48375 31657 50000 10222 20203 39885 40113 52015 71022 82536 333 20218 58001
AAXX 09004 48378 11556 80000 10251 20235 30077 40130 52023 69904 71022 84876 333 20249 58017 79999
AAXX 09004 48381 32560 70204 10207 20166 39930 40151 52013 82256 333 20193 58026
AAXX 09004 48407 32960 70405 10215 20169 39990 40133 52013 85056 333 20205 58023
AAXX 09004 48431 32960 70504 10215 20164 39933 40150 52023 86035 333 20214 58027
AAXX 09004 48480 11558 70308 10240 20186 30108 40112 52023 69904 71022 84876 333 20238 58018 79999
AAXX 09004 48500 01540 80000 10239 20235 30108 40115 52028 60144 79592 8597/ 333 20237 58029 60085 70139
AAXX 09004 48551 01556 70000 10242 20232 30093 40101 52016 60034 72162 83576 333 20242 58009 69926 70032
AAXX 09004 48565 32560 60906 10265 20236 30074 40084 52021 82246 333 20254 58006
AAXX 09004 48569 01459 70000 10245 20224 30064 40105 52019 69904 71062 83446 333 20242 58013 69907 79999
AAXX 09004 48583 31559 80000 10250 20231 30094 40100 52012 71022 82207 333 20223 58012
AAXX 09004 48300 31/02 90000 10193 20183 39819 40137 52011 74740 333 20188 59005
AAXX 09004 48327 31558 70000 10210 20197 39784 40145 52013 71022 84545 333 20205 59008
AAXX 09004 48331 31556 60000 10220 20209 39908 40141 52018 71022 83576 333 20214 58004
AAXX 09004 48353 32660 71303 10218 20154 39862 40155 52022 84536 333 20215 58025
AAXX 09004 48356 32668 70000 10198 20163 39957 40158 53013 82550 333 20195 58025
AAXX 09004 48375 31657 50000 10222 20203 39885 40113 52015 71022 82536 333 20218 58001
AAXX 09004 48378 11556 80000 10251 20235 30077 40130 52023 69904 71022 84876 333 20249 58017 79999
AAXX 09004 48381 32560 70204 10207 20166 39930 40151 52013 82256 333 20193 58026
AAXX 09004 48407 32960 70405 10215 20169 39990 40133 52013 85056 333 20205 58023
AAXX 09004 48431 32960 70504 10215 20164 39933 40150 52023 86035 333 20214 58027
AAXX 09004 48480 11558 70308 10240 20186 30108 40112 52023 69904 71022 84876 333 20238 58018 79999
AAXX 09004 48500 01540 80000 10239 20235 30108 40115 52028 60144 79592 8597/ 333 20237 58029 60085 70139
AAXX 09004 48551 01556 70000 10242 20232 30093 40101 52016 60034 72162 83576 333 20242 58009 69926 70032
AAXX 09004 48565 32560 60906 10265 20236 30074 40084 52021 82246 333 20254 58006
AAXX 09004 48569 01459 70000 10245 20224 30064 40105 52019 69904 71062 83446 333 20242 58013 69907 79999
AAXX 09004 48583 31559 80000 10250 20231 30094 40100 52012 71022 82207 333 20223 58012
AAXX 09001 98232 11565 83606 10252 20225 40123 50000 60024 71562 8457/ 222// 20101 333 20215 56199 59010 70020 84620 88358 555 20020
BBXX FLAO 0900/ 99764 70847 46/// ///// 11133 40141 57007
AAXX 09004 91642 46/// /0000 1//// 40088 22200 0////
BBXX 41040 09001 99145 70530 46/// /0502 10273 92350 555 11024 22026
AAXX 09004 71016 16/// ///// 11093 60001 333 11021 21216 70003
AAXX 09004 71956 17/// /2718 11035 21056 39921 40156 51019 69931 7//4/ 333 11002 21043 70021
BBXX 44056 09001 99362 70757 46/// ///// 1//// 90020 22200 00142 10902 20902 70011
AAXX 09001 59158 32660 80103 10147 20102 30097 40200 51021 885//
AAXX 09001 59562 32668 83501 10197 20138 30199 40211 52021 885//
AAXX 09001 59567 11258 80118 10166 20166 39785 40168 50007 60062 72162 885//
AAXX 09001 58968 11556 80804 10134 20111 30257 40265 51020 60062 76162 887//
AAXX 09001 58974 11258 80111 10126 20105 30143 40271 52022 60032 76166 887//
AAXX 09001 59358 31658 80106 10151 20122 30171 40203 52023 71022 885//
AAXX 09001 59559 32565 40412 10212 20142 30137 40165 53010 82230
AAXX 09001 59792 11457 80313 10196 20175 30186 40191 52023 69952 75152 8572/
BBXX 46109 09001 99481 71234 46/// /0403 10055 40305 92357 22200 00084
BBXX 46110 09001 99481 71230 46/// /3004 10055 40302 92358
BBXX 42085 09001 99179 70665 46/// /0103 10269 40127 90000 22200 00281 10501 70005 333 91203
AAXX 09001 08515 32475 60501 10160 20152 30147 40268 52008 86800 333 82814 86640 910// 911//
AAXX 09001 08515 32475 60501 10160 20152 30147 40268 52008 86800 333 82814 86640 910// 911// 555 60007 912//
AAXX 09004 41316 36/100 /0208 10202 21052 30135 40161 333 0E019 58006
BBXX 46094 09001 99446 71243 46/// /3607 10087 90030
BBXX 46094 09001 99446 71243 46/// /3606 10087 90020
BBXX 46094 09001 99446 71243 46/// /3507 10086 90010
BBXX 46094 09001 99446 71243 46/// /3606 10086 90000
BBXX 46094 09001 99446 71243 46/// /0107 10087 92350
BBXX 46094 09001 99446 71243 46/// /3506 10086 92340
BBXX 44055 09001 99391 70753 46/// ///// 1//// 90030 22200 00100 10301 70004
BBXX ZDLS1 09003 99312 30157 41597 31430 10163 20107 40176 57002 70111 82445 22232 04170 20608 80133
AAXX 09004 41316 36/100 /0208 10202 21052 30135 40161 333 0E019 58006
BBXX AMOUK04 09004 99533 70062 46/// ///// 10038 2//// 30058 4//// 52049 92350
BBXX 44055 09001 99391 70753 46/// ///// 1//// 90030 22200 00100 10301 70004
BBXX 46094 09001 99446 71243 46/// /3607 10087 90030
BBXX 46094 09001 99446 71243 46/// /3507 10086 90010
BBXX 46094 09001 99446 71243 46/// /3606 10086 90000
BBXX 46094 09001 99446 71243 46/// /3506 10086 92340
BBXX 46094 09001 99446 71243 46/// /0107 10087 92350
BBXX 46094 09001 99446 71243 46/// /3606 10087 90020
BBXX 42085 09001 99179 70665 46/// /0103 10269 40127 90000 22200 00281 10501 70005 333 91203
BBXX 46110 09001 99481 71230 46/// /3004 10055 40302 92358
BBXX 46109 09001 99481 71234 46/// /0403 10055 40305 92357 22200 00084
BBXX 44056 09001 99362 70757 46/// ///// 1//// 90020 22200 00142 10902 20902 70011
BBXX 41040 09001 99145 70530 46/// /0502 10273 92350 555 11024 22026
BBXX FLAO 0900/ 99764 70847 46/// ///// 11133 40141 57007
BBXX VVKS 09003 99098 31560 41597 60503 10280 20260 40048 54000 70371 8541/ 22232
AAXX 09004 96147 01458 20000 10234 20221 30095 40101 5//// 69944 70561 81531 333 20224 56000 58005 69947 81616
BBXX SHIP 09004 99420 10060 41298 12921 10150 20108 40235 53010 7020/ 81100 22200 00180 20402 80126 333 81803
AAXX 09004 71026 16/// /2705 11096 21137 39375 40271 51014 60001 333 11096 7////
AAXX 09004 92036 46/// /3302 10275 40080 22200 00315
BBXX PJGO 09004 99571 10022 47196 /2834 10071 20049 49679 53001 704// 22200
BBXX 63106 09004 99610 10017 46/// /0727 10061 49623 51004 22200
BBXX 63113 09004 99610 10017 46/// /0825 10070 20037 49618 52003 22200 10911 70056
BBXX 62107 09004 99501 70061 46/// /3127 10097 20029 40139 51017 22200 00123 10908 70040 333 90710 91136
BBXX 62094 09004 99517 70067 46/// /2622 10079 20079 40110 52012 22200 00115 10606 70031 333 90710 91137
AAXX 09004 93713 46/// /0000 10156 40247 22200 00151
BBXX A8EY7 09004 99533 11671 41396 71122 10025 20013 49860 57060 77077 8/7// 22262 2//08 399// 4//07 5//// 80020
BBXX SHIP 09004 99318 71508 41598 61410 10210 20180 40210 56/// 7//22 8644/ 22223 00210 20403 33502 40604 51005 6//// 80190 ICE /////
OOXX AAPIG 09004 99758 51003 56251 08502 46/// /0922 11109 21158 38742 49710 57006 92340
BBXX SHIP 09004 99250 30473 41498 20721 10260 20218 40103 58010 70000 81100 22252 04260 20501 3//// 4//// 5//// 80230
BBXX SHIP 09004 99250 30473 41498 20721 10260 20218 40103 58010 70000 81100 22252 04260 20501 3//// 4//// 5//// 80230
BBXX SHIP 09004 99250 30473 41498 20721 10260 20218 40103 58010 70000 81100 22252 04260 20501 3//// 4//// 5//// 80230
AAXX 09004 91689 46/// /0707 10309 40107 22200 0////
AAXX 0900/ 68902 46/// ///// 40223 57009
BBXX 3EAT6 09003 99137 51771 41698 40710 10335 20243 40121 54000 70300 8/1/2 22263 00300 308// 40201
BBXX 3EAT6 09003 99137 51771 41698 40710 10335 20243 40121 54000 70300 8/1/2 22263 00300 308// 40201
BBXX SHIP 09004 99420 10060 41298 12921 10150 20108 40235 53010 7020/ 81100 22200 00180 20402 80126 333 81803
BBXX 9VBM6 09003 99375 10083 41999 00310 10170 20137 40290 54000 7//00 80478 22263 04210 20503 30303 40902 50902 80150
BBXX MINUK03 0900/ 99539 10004 46/// ///// 10068 49939 52055
BBXX AMOUK04 09004 99533 70062 46/// ///// 10038 2//// 30058 4//// 52049 92350
BBXX MINFR00 0900/ 99484 70078 46/// ///// 10088 40165 52016
BBXX SHIP 09004 99250 30473 41498 20721 10260 20218 40103 58010 70000 81100 22252 04260 20501 3//// 4//// 5//// 80230
AAXX 09004 89257 46/// /2608 11129 21151 39675 49746 57011 90020
AAXX 09004 89272 46/// /3506 11120 21145 37944 49561 57006 90020
AAXX 09001 38846 429// 00503 11104 21136 38542 48500 52005
AAXX 09004 41594 319// 00000 10075 20047 39919 40145 71000 333 59012
AAXX 09004 04418 NIL
AAXX 09004 04425 NIL
AAXX 09004 04432 NIL
AAXX 09004 04436 NIL
AAXX 09004 04464 46/// /1514 11346 21380 333 553// 20000
AAXX 09004 04485 NIL
AAXX 09004 04488 46/// /3009 11411 21444 37404 57004 333 553// 20000
AAXX 09004 89257 46/// /2608 11127 21149 39675 49746 57015 90010
AAXX 09004 89262 46/// /0607 11068 21083 39730 49774 57015 90010
AAXX 09004 89266 46/// /3509 11116 21129 39618 49759 57012 90010
AAXX 09004 89272 46/// /3606 11117 21144 37944 49559 57006 90010
AAXX 09004 89832 46/// /0610 11047 39483 49776 52007 92350
AAXX 09004 89834 46/// /1415 11162 38039 4//// 52008 92350
BBXX AMOUK01 09004 99312 30157 46/// ///// 10169 20114 30171 40181 57005 92350
AAXX 09004 41929 31910 00000 10171 20160 30118 40127 71040 333 58003 70000
AAXX 09004 48310 31550 80000 10202 20196 39684 40146 52019 71022 85546 333 20190 59003
AAXX 09004 48325 31/00 90000 10210 20208 39886 40133 52017 74742 333 20185 59007
AAXX 09004 48329 31530 70000 10201 20195 39791 40135 52012 71010 86805 333 20195 59012
AAXX 09004 48352 32661 71005 10204 20155 39955 40160 52019 85536 333 20200 58028
AAXX 09004 48357 32563 80503 10214 20138 39984 40156 52014 83536 333 20210 58025
AAXX 09004 48380 11560 70000 10243 20225 30037 40132 52021 69914 70162 84556 333 20239 58011 70001
AAXX 09004 48383 31559 70602 10205 20145 39987 40150 51008 71022 86535 333 20201 58025
AAXX 09004 48403 32560 60806 10210 20160 39932 40146 52017 82535 333 20208 58026
AAXX 09004 48421 31950 20000 10210 20202 30007 40123 52015 71000 80005 333 20205 58008
AAXX 09004 48425 31556 60602 10243 20196 30119 40129 52026 71022 82506 333 20241 58018
AAXX 09004 48426 31958 61103 10245 20173 30117 40130 52031 70522 82045 333 20245 58021
AAXX 09004 48430 31959 21212 10250 20169 30110 40117 52022 70500 80005 333 20242 58020
AAXX 09004 48450 31559 70505 10259 20194 30090 40123 52025 71022 82556 333 20224 58017
AAXX 09004 48459 12562 60504 10250 20204 30111 40114 52020 69904 83555 333 20249 58016 79999
AAXX 09004 48552 11458 70000 10240 20233 30096 40103 52015 60174 71062 86907 333 20230 58013 70169
AAXX 09004 48566 32560 60806 10255 20237 30087 40095 52018 82846 333 20253 58003
BBXX AMOUK08 09004 99501 70061 46/// ///// 10102 20043 30132 40136 52021 92350
BBXX 63106 09004 99610 10017 46/// /0727 10061 49623 51004 22200
BBXX 63105 09004 99610 10017 47497 ///// 10052 20042 49630 52009 751// 22200
BBXX 62094 09004 99517 70067 46/// /2722 10079 20079 40110 52012 22200 00115 10606 70031
BBXX 64049 09003 99571 10022 41/97 82750 10064 20055 49640 55020 70722 8//// 22200 04095 20714 327// 40716 5//// 80060
AAXX 09004 41061 32960 01010 10100 21010 39468 40178 333 59016
BBXX 3EAT6 09003 99137 51771 41698 40710 10335 20243 40121 54000 70300 8/1/2 22263 00300 308// 40201
BBXX KGTY 09004 99488 71258 43/// /1709 10100 2005/ 4//// 5//// 7//// 8//// 22211 0//// 2//// 3//// 4//// 5//// 6//// 80078 ICE /////
BBXX BAREU61 09004 99394 10003 46/// /3204 10160 29074 40256 22243
BBXX BAREU63 09004 99401 10123 46/// /3111 10159 29073 40254 52002 22233
BBXX TESTFR9 09004 99501 70012 46/// /3131 10108 29066 40108 22244
BBXX BAREU05 09004 99429 10064 46/// ///// 40232 57001 22254
BBXX BAREU60 09004 99438 10141 46/// ///// 40234 22222
BBXX BAREU04 09004 99492 70462 46/// ///// 40048 57032 22214
BBXX BAREU00 09004 99369 70757 46/// ///// 40271 52025 22253
AAXX 0900/ 89869 46/// ///// 11036 39704 4//// 5//// 90040
AAXX 0900/ 89866 46/// ///// 11023 39677 4//// 5//// 90040
AAXX 0900/ 89332 46/// ///// 11045 39155 4//// 5//// 90040
AAXX 0900/ 89327 46/// ///// 10010 39572 4//// 5//// 90040
AAXX 09004 71408 46/// /2445 10050 20017 39860 49938 51079 6///1 333 7////
AAXX 09001 20292 32998 32302 11170 21196 30124 40144 52001 80001 333 21195 91104
AAXX 09001 20069 11857 81205 11057 21075 30051 40064 53007 69922 77373 8802/ 333 21075 47017
AAXX 09001 98132 11460 80408 10223 20197 40188 53004 60504 70544 8527/ 333 20198 56199 58017 70499 85816 88356 555 20018
AAXX 09001 98133 11460 70406 10/// 20/// 40128 5//// 60184 71666 85470 222// 20703 333 20/// 56199 58004 70176 85618 87359 555 20130
AAXX 09001 98222 31570 60501 10248 20209 40096 53010 70544 82236 333 20228 56999 59006 82820 84078
AAXX 09001 98233 11568 83601 10240 20225 40112 52009 60014 70564 8357/ 333 20200 56299 59015 70016 83620 88358 555 20011
AAXX 09001 98324 11462 83401 10260 20244 40085 52019 69964 70584 83270 333 20258 56999 59016 70006 83816 87358 555 20004
AAXX 09001 98327 11668 73103 10258 20210 39921 40095 52017 69944 70544 82170 333 20223 33302 59020 79994 82836 87360
AAXX 09001 98334 11475 70000 10249 20240 39891 40095 52011 60134 71522 83870 333 20223 56229 59031 70133 83817 87358
AAXX 09001 98425 11558 82701 10258 20234 40079 52011 60104 70544 8487/ 333 20256 56999 59024 70097 84620 88358
AAXX 09001 98426 11568 71004 10261 20208 40090 52018 60014 70544 82170 333 20240 56999 59019 70010 82820 87358
AAXX 09001 98427 11472 60201 10260 20244 39905 40086 53027 60334 71586 83270 333 20235 56999 59002 70325 83818 86357 555 29995
AAXX 09001 98428 11458 82201 10254 20248 40081 52017 60184 76086 8357/ 333 20248 56999 59016 70184 83618 88359 555 20034
AAXX 09001 98432 11568 70702 10260 20247 40077 52010 60234 70564 82270 333 20243 56199 59012 70033 82820 87356 555 20028
AAXX 09001 98433 11/00 90204 10218 20214 39351 40071 53013 60314 76064 89/// 333 20215 56999 59020 70312 89///
AAXX 09001 98434 11459 80303 10260 20251 30083 40091 53016 60404 76122 8552/ 333 20234 56199 59027 70401 85617 88457 555 20015
AAXX 09001 98435 11468 80402 10255 20235 40087 5//// 60764 72586 8427/ 333 20196 56199 59016 70763 84818 88358 555 20048
AAXX 09001 98442 NIL
AAXX 09001 98446 11465 82401 10246 20241 30050 40096 52021 60414 76166 82407 333 20232 56199 59001 70413 84818 88270 555 20272
AAXX 09001 98447 11465 80904 10246 20241 39823 40087 5//// 60424 76166 8662/ 222// 2//// 333 20/// 56299 59009 70418 86716 88456 555 20104
AAXX 09001 98538 11466 80000 10260 20247 30060 40065 53018 60144 70542 82267 333 20252 56229 59010 70140 82811 84357 88272
AAXX 09001 98546 NIL
AAXX 09001 98548 11460 80000 10250 20243 30082 40088 53014 60074 76262 84820 333 20240 56299 59002 70072 84816 88456 98312 555 20020
AAXX 09001 98553 11460 80902 10245 20240 30085 40089 52028 60474 76186 8497/ 333 20240 56999 58001 70472 84915 88357 555 20094
AAXX 09001 98558 11462 80906 10257 20255 30024 40092 53023 60244 76198 8452/ 222// 20502 333 20226 56999 58000 70239 84615 88457 555 20048
AAXX 09001 98642 11462 80000 10257 20241 30072 40081 52021 60464 72584 8427/ 333 20238 56199 59001 70463 84815 88358 555 20001
AAXX 09001 98644 11465 81201 10250 20239 30072 40081 53020 60244 70584 8227/ 333 20238 56199 59001 70244 82817 88358 555 20024
AAXX 09001 98648 11470 83601 10242 20221 30001 40083 52020 60034 71584 84967 333 20220 56299 58000 70032 83912 84358 88270 555 20032
AAXX 09001 98746 11462 80000 10268 20223 40095 52028 60184 70596 8497/ 333 20228 56999 58001 70176 84918 88358
AAXX 09001 98751 11470 81201 10227 20217 39426 40101 52026 60134 70544 84907 333 20174 56999 58004 70128 84915 88275
AAXX 09001 98752 11468 80000 10246 20235 40089 52019 60014 71522 8257/ 333 20240 56999 58000 70014 82616 88358
AAXX 09001 98851 11470 70000 10258 20237 39932 40081 53015 60034 70542 81278 333 20218 56999 58010 70026 81818 83358 87275
AAXX 09004 89573 35965 80716 11072 21143 39676 49698 57023 8802/
AAXX 09004 89573 35965 80716 11072 21143 39676 49698 57023 8802/
AAXX 09004 63801 01480 83310 10205 20198 39171 48492 69901 79596 8292/ 333 0//11 59008 69907 82819 81920 88458
AAXX 09004 63887 32480 70000 10189 20180 38560 48484 8153/ 333 55300 59008 81617 87358
AAXX 09004 41966 31410 40000 10164 20160 30057 40139 74222 82510 333 56990 59001 70000 82616 84460
AAXX 09004 17260 11557 70103 10049 20019 39340 40161 53001 69911 71062 85250 333 85830 87359
BBXX ZDLS1 09003 99312 30157 41597 31430 10163 20107 40176 57002 70111 82445 22232 04170 20608 80133
BBXX C6TH9 09003 99174 51498 41296 83307 10260 2023/ 40130 54/// 78022 8824/ 22200 00260 2//// 3//// 4//// 5//// 6//// 80240 ICE /////
BBXX BAREU11 09004 99120 50772 46/// ///// 40133 22200
BBXX BAREU61 09004 99394 10003 46/// /3204 10160 29074 40256 22243
BBXX BAREU63 09004 99401 10123 46/// /3111 10159 29073 40254 52002 22233
BBXX TESTFR9 09004 99501 70012 46/// /3131 10108 29066 40108 22244
BBXX BAREU05 09004 99429 10064 46/// ///// 40232 57001 22254
BBXX BAREU60 09004 99438 10141 46/// ///// 40234 22222
AAXX 09004 96147 01458 20000 10234 20221 30095 40101 5//// 69994 70561 81531 333 20224 56000 58005 69947 81616
BBXX MINUK05 0900/ 99571 70021 46/// ///// 10048 49831 52118
BBXX MINUK01 0900/ 99602 70012 46/// ///// 10043 49682 52073
AAXX 0900/ 89868 46/// ///// 11035 39717 4//// 5////
AAXX 09004 48324 31530 80000 10217 20205 39911 40133 52017 71022 86536 333 20207 58003
AAXX 09004 48333 31950 60000 10210 20201 39836 40143 52015 71022 86050 333 20204 58000
AAXX 09004 48355 32565 80000 10190 20170 39933 40158 83536 333 20185 58028
AAXX 09004 48358 32560 80000 10200 20149 39979 40159 51014 86576 333 20195 58025
AAXX 09004 48384 31559 70000 10206 20172 39961 40155 52020 71022 83535 333 20191 58026
AAXX 09004 48404 32562 40506 10196 20152 39961 40144 53017 82535 333 20196 58023
AAXX 09004 48409 32960 30404 10210 20160 39987 40138 52014 82041 333 20202 58024
AAXX 09004 48419 31558 60000 10245 20215 30111 40120 52020 71022 83845 333 20230 58017
AAXX 09004 48427 31558 80000 10245 20199 30118 40126 71022 82546 333 20234 58017
AAXX 09004 48435 32562 51236 10205 20156 39693 40138 52012 83576 333 20201 58017
AAXX 09004 48453 12960 70804 10258 20194 30117 40120 52026 69904 86036 333 20251 58019 79999
AAXX 09004 48481 11558 70000 10241 20221 30085 40113 52021 69904 71022 86846 333 20225 58017 79999
AAXX 09004 48555 01550 70000 10246 20237 30082 40124 52018 69994 71062 85576 333 20228 58004 69965 70009
AAXX 09004 48556 31558 70000 10238 20229 30084 40100 52014 71022 84876 333 20218 58007
AAXX 09004 48557 31558 60000 10240 20234 30066 40102 52011 71022 84806 333 20238 58009
AAXX 09004 48560 01558 60000 10247 20238 30086 40091 51004 60124 71062 82846 333 20241 58001 69957 70115
AAXX 09004 48574 32560 50000 10246 20230 30068 40098 52017 82136 333 20230 58012
AAXX 09004 48581 31/00 90000 10237 20234 30061 40102 52015 74522 333 20234 58003
BBXX 9MEZ2 09004 99314 11358 41598 83234 10156 20089 40117 52020 70202 8//// 22254 00230 20106 80122
BBXX DDDI2 09004 99023 30840 41298 33215 10290 20277 40080 52011 70311 81160 22254 04285 20901 80280
BBXX 3FHX2 09003 99349 11299 41/98 73228 10060 20010 40235 51010 70222 8//// 222// 00///
BBXX PJGO 09004 99571 10022 47196 /2834 10071 20049 49679 53001 704// 22200
BBXX 63106 09004 99610 10017 46/// /0727 10061 49623 51004 22200
BBXX 63113 09004 99610 10017 46/// /0825 10070 20037 49618 52003 22200 10911 70056
BBXX 62107 09004 99501 70061 46/// /3127 10097 20029 40139 51017 22200 00123 10908 70040 333 90710 91136
BBXX 62094 09004 99517 70067 46/// /2622 10079 20079 40110 52012 22200 00115 10606 70031 333 90710 91137
AAXX 09004 48302 31501 51204 10150 20146 38494 40136 74611 82535 333 20146 58006
AAXX 09004 48304 31930 60000 10184 20177 39678 40148 52012 71022 86050 333 20175 59009
AAXX 09004 48334 31556 80000 10205 20197 39770 40138 52017 71022 85576 333 20205 58001
AAXX 09004 48360 32961 71105 10206 20170 39896 40161 52033 87050 333 20206 58033
AAXX 09004 48372 01558 80000 10240 20234 30068 40127 52019 69924 71062 83856 333 20228 58009 69927 70002
AAXX 09004 48373 31530 80000 10247 20237 30070 40133 52026 71022 83556 333 20245 58013
AAXX 09004 48386 11550 81605 10243 20237 30080 40124 52024 60144 71022 82556 333 20231 58016 70137
AAXX 09004 48387 31550 50000 10190 20177 39167 40131 52009 71011 82554 333 20160 58001
AAXX 09004 48408 32960 60308 10212 20162 39982 40134 52015 86035 333 20194 58020
AAXX 09004 48415 31958 40508 10240 20185 30104 40115 52022 71011 81046 333 20231 58012
AAXX 09004 48433 31956 20402 10197 20162 39979 40148 52019 71000 80005 333 20191 58027
AAXX 09004 48437 32962 20405 10192 20158 39933 40149 52018 80001 333 20181 58029
AAXX 09004 48440 12960 30000 10230 20186 30076 40126 52020 69904 82035 333 20229 58020 79999
AAXX 09004 48451 12560 73602 10257 20213 30115 40126 52024 69904 86540 333 20235 58016 79999
AAXX 09004 48454 01558 60905 10260 20205 30108 40114 69984 71022 83546 333 20258 58016 69989 70008
AAXX 09004 48457 32560 60618 10260 20207 30098 40115 82806 333 20256 58015
AAXX 09004 48463 31558 70907 10253 20197 30033 40128 71022 86566 333 20240 58018
AAXX 09004 48464 11558 83103 10242 20239 30096 40109 52019 60084 71022 85776 333 20242 58014 70080
AAXX 09004 48520 11556 60000 10237 20230 30086 40102 50010 60044 71022 84546 333 20237 58008 70037
AAXX 09004 48554 11458 80000 10246 20244 30100 40104 52016 60054 71762 84927 333 20240 58016 70049
AAXX 09004 48563 32560 70603 10252 20236 30057 40093 52016 82256 333 20200 58007
AAXX 09004 48571 11559 73304 10245 20226 30086 40098 52012 69944 71022 83257 333 20231 58013 70004
BBXX KGTY 09004 99488 71258 43/// /1709 10100 20050 4//// 5//// 7//// 8//// 22211 0//// 2//// 3//// 4//// 5//// 6//// 80078 ICE /////
BBXX DDDI2 09004 99023 30840 41298 33215 10290 20277 40080 52011 70311 81160 22254 04285 20901 80280
BBXX C6TH9 09003 99174 51498 41296 83307 10260 2023/ 40130 54/// 78022 8824/ 22200 00260 2//// 3//// 4//// 5//// 6//// 80240 ICE /////
BBXX SHIP 09004 99314 11358 41598 83234 10156 20089 40117 52020 70202 8//// 22254 00230 20106 80122
BBXX 3FHX2 09003 99349 11299 41/98 73228 10060 20010 40235 51010 70222 8//// 222// 00///
BBXX MINUK01 0900/ 99602 70012 46/// ///// 10043 49682 52073
BBXX MINUK05 0900/ 99571 70021 46/// ///// 10048 49831 52118
AAXX 09004 89065 46/// /0207 11012 21025 39641 49717 57004 90020
BBXX DDDI2 09004 99023 30840 41298 33215 10290 20277 40080 52011 70311 81160 22254 04285 20901 80280
AAXX 09004 89065 46/// /0207 11012 21025 39641 49717 57004 90020
BBXX AMOUK01 09004 99312 30157 46/// ///// 10169 20114 30171 40181 57005 92350
AAXX 09004 89013 46/// /0000 10000 2//// 3//// 4//// 5//// 90000
AAXX 09004 89065 46/// /0207 11012 21025 39641 49717 57004 90010
AAXX 09004 91375 46/// /0311 10297 40079 22200 00287
AAXX 09004 91165 12666 20312 10244 20183 30138 40172 58027 69901 92353
AAXX 09004 91212 12466 60814 10289 20244 31383 40115 50011 60041 92354
AAXX 09004 91245 32466 20815 10290 20240 30154 92354
AAXX 09004 91285 31648 8//05 10210 20180 30151 761// 90000
AAXX 09004 91334 12474 80710 10286 20239 30086 40089 50007 60144 82101
AAXX 09004 91348 11474 80609 10289 20251 30047 40100 50002 60024 72522 87201
AAXX 09004 91353 32474 80506 10317 20256 30108 40115 5//// 83208
AAXX 09004 91367 32474 30914 10306 20261 83100
AAXX 09004 91369 32474 41017 10306 20272 30081 40084 83100
AAXX 09004 91376 12474 80510 10303 20249 30080 40083 58007 60074 83878
AAXX 09004 91408 11474 73611 10289 20251 30051 40089 52014 60184 70282 82271
AAXX 09004 91413 11469 89904 10266 20249 30075 40100 52010 60074 72582 85372
AAXX 09004 91425 32574 10404 10283 20267 30092 40093 5//// 81200
AAXX 09004 91434 32474 51005 10311 20252 30113 40114 5//// 83208
AAXX 09004 91610 11599 21110 10300 20229 40075 58008 60001 70110 81131
AAXX 09004 91155 NIL
AAXX 09004 91203 NIL
AAXX 09004 91217 NIL
AAXX 09004 91232 NIL
AAXX 09004 91250 NIL
AAXX 09004 91275 NIL
AAXX 09004 91317 NIL
AAXX 09004 91324 NIL
AAXX 09004 91339 NIL
AAXX 09004 91356 NIL
AAXX 09004 91366 NIL
AAXX 09004 91371 NIL
AAXX 09004 91378 NIL
AAXX 09004 91601 NIL
AAXX 09004 97086 12560 70000 10258 20226 30065 40090 51018 60164 70262 83271 333 20242 50420 55083 56000 57803 58003 82820 85460 80860
BBXX AMOUK08 09004 99501 70061 46/// ///// 10102 20043 30132 40136 52021 92350
BBXX 63106 09004 99610 10017 46/// /0727 10061 49623 51004 22200
BBXX 63105 09004 99610 10017 47497 ///// 10052 20042 49630 52009 751// 22200
BBXX 62094 09004 99517 70067 46/// /2722 10079 20079 40110 52012 22200 00115 10606 70031
BBXX 64049 09003 99571 10022 41/97 82750 10064 20055 49640 55020 70722 8//// 22200 04095 20714 327// 40716 5//// 80060
AAXX 09004 91165 12666 20312 10244 20183 30138 40172 58027 69901 92353
AAXX 09004 91212 12466 60814 10289 20244 31383 40115 50011 60041 92354
AAXX 09004 91285 31648 8//05 10210 20180 30151 761// 90000
AAXX 09004 91334 12474 80710 10286 20239 30086 40089 50007 60144 82101
AAXX 09004 91348 11474 80609 10289 20251 30047 40100 50002 60024 72522 87201
AAXX 09004 91369 32474 41017 10306 20272 30081 40084 83100
AAXX 09004 91376 12474 80510 10303 20249 30080 40083 58007 60074 83878
AAXX 09004 91408 11474 73611 10289 20251 30051 40089 52014 60184 70282 82271
AAXX 09004 91413 11469 89904 10266 20249 30075 40100 52010 60074 72582 85372
AAXX 09004 91425 32574 10404 10283 20267 30092 40093 5//// 81200
AAXX 09004 91434 32474 51005 10311 20252 30113 40114 5//// 83208
AAXX 09004 91245 32466 20815 10290 20240 30154 92354
AAXX 09004 91353 32474 80506 10317 20256 30108 40115 5//// 83208
BBXX 3FHX2 09003 99349 11299 41/98 73228 10060 20010 40235 51010 70222 8//// 222// 00///
BBXX 9MEZ2 09004 99314 11358 41598 83234 10156 20089 40117 52020 70202 8//// 22254 00230 20106 80122
BBXX SHIP 09004 99314 11358 41598 83234 10156 20089 40117 52020 70202 8//// 22254 00230 20106 80122
AAXX 09004 96739 12562 60000 10234 20224 30047 40096 52016 60014 83532 333 20229 50250 55023 56000 59002 83625
AAXX 09004 71429 17/// /2719 11028 21062 39986 40005 53092 60031 7//4/ 333 10031 21028 70380
AAXX 09004 71724 16/// /2011 10001 21052 30146 40154 51014 60001 333 10012 21040 70000
AAXX 09001 01046 41989 01902 11034 21081 30045 40053 57003 70200 333 91110
AAXX 09004 63894 32580 60405 10262 20252 30020 40080 86200 333 55300 59006 86820
BBXX ZDLS1 09003 99312 30157 41597 31430 10163 20107 40176 57002 70111 82445 22232 04170 20608 80133
AAXX 09004 48403 32560 60806 10210 20160 39932 40146 52017 82535 333 20208 58026
AAXX 09001 98546 11450 81103 10245 20243 30090 40098 52034 60144 76186 8492/ 333 20230 56199 58013 70142 84915 88457 555 20078
BBXX ELWO6 09003 99337 30177 41498 31321 10149 20122 40190 57030 70200 81145 22274 00144 20806 324// 41106 80133
BBXX A8SF9 09004 99393 31481 41698 40519 10185 20153 40120 52025 70100 83165 22224 04170 20804 30707 41003 50602 80165
BBXX A8ZS7 09004 99034 30866 41497 43115 10290 20249 40070 52005 70311 8/670 22254 04280 20602 30000 80260
BBXX DFVY2 09004 99160 70258 41/97 20511 10230 20201 40150 56/// 70311 22244 00250 10202 70011 80210
BBXX A8TG2 09003 99314 71386 41/// /0613 10180 20106 40220 53/// 22224 20802 307// 41003 80140
BBXX DFTH2 09004 99290 71757 41699 31109 10260 20170 40220 54000 70200 8/1// 22263 00240 2//08 80200
BBXX PJGO 09004 99571 10022 47196 /2834 10071 20049 49679 53001 704// 22200
BBXX 63106 09004 99610 10017 46/// /0727 10061 49623 51004 22200
BBXX 63113 09004 99610 10017 46/// /0825 10070 20037 49618 52003 22200 10911 70056
BBXX 62107 09004 99501 70061 46/// /3127 10097 20029 40139 51017 22200 00123 10908 70040 333 90710 91136
BBXX 62094 09004 99517 70067 46/// /2622 10079 20079 40110 52012 22200 00115 10606 70031 333 90710 91137
BBXX UFML 09001 99425 11341 42998 03109 11090 40186 51000 70001 80000 22253 00037 20704
BBXX A8ZS7 09004 99034 30866 41497 43115 10290 20249 40070 52005 70311 8/670 22254 04280 20602 30000 80260
BBXX ELWO6 09003 99337 30177 41498 31321 10149 20122 40190 57030 70200 81145 22274 00144 20806 324// 41106 80133
BBXX A8ZS7 09004 99034 30866 41497 43115 10290 20249 40070 52005 70311 8/670 22254 04280 20602 30000 80260
BBXX A8SF9 09004 99393 31481 41698 40519 10185 20153 40120 52025 70100 83165 22224 04170 20804 30707 41003 50602 80165
BBXX DFVY2 09004 99160 70258 41/97 20511 10230 20201 40150 56/// 70311 22244 00250 10202 70011 80210
BBXX ELWO6 09003 99337 30177 41498 31321 10149 20122 40190 57030 70200 81145 22274 00144 20806 324// 41106 80133
BBXX A8TG2 09003 99314 71386 41/// /0613 10180 20106 40220 53/// 22224 20802 307// 41003 80140
BBXX DFTH2 09004 99290 71757 41699 31109 10260 20170 40220 54000 70200 8/1// 22263 00240 2//08 80200
AAXX 09004 89266 46/// /3508 11115 21129 39617 49758 57013 90030
AAXX 09004 89262 46/// /0508 11073 21087 39727 49771 57015 90030
AAXX 09004 89065 46/// /0106 11011 21026 39641 49717 57004 90030
AAXX 09004 89272 46/// /3506 11129 21153 37944 49566 57006 90030
AAXX 09004 89272 46/// /3606 11134 21156 37944 49570 5//// 90040
AAXX 09004 89257 46/// /2609 11133 21154 39673 49744 57013 90040
AAXX 09004 89257 46/// /2609 11130 21152 39675 49746 57011 90030
BBXX UFML 09001 99425 11341 42998 03109 11090 40186 51000 70001 80000 22253 00037 20704
AAXX 09004 16008 12960 00000 11022 21044 38576 48532 54000 60001 333 92810
BBXX AMOUK01 09004 99312 30157 46/// ///// 10169 20114 30171 40181 57005 92350
BBXX 52249 09001 99052 31503 46/// ///// 1//// 90027 22200 00312
AAXX 09001 01430 16/// ///// 10068 20020 60031
BBXX AMOUK08 09004 99501 70061 46/// ///// 10102 20043 30132 40136 52021 92350
BBXX 63106 09004 99610 10017 46/// /0727 10061 49623 51004 22200
BBXX 63105 09004 99610 10017 47497 ///// 10052 20042 49630 52009 751// 22200
BBXX 62094 09004 99517 70067 46/// /2722 10079 20079 40110 52012 22200 00115 10606 70031
BBXX 64049 09003 99571 10022 41/97 82750 10064 20055 49640 55020 70722 8//// 22200 04095 20714 327// 40716 5//// 80060
BBXX SHIP 09004 99416 70096 42598 73505 10147 20109 40269 5//// 8//// 222// 02160 20401 317// 404//
BBXX WY7686 09004 99596 71736 41497 83031 11017 2//// 49880 52/// 70222 885// 22242 0//// 20302 330// 4//06 5//// 6//// 8//// ICE /////
BBXX C6VM6 09004 99119 10453 41/98 31009 10220 20174 40120 57030 7//10 8//// 22214 00270 2//// 3//// 4//// 5//// 6//// 80190 ICE /////
BBXX WY7686 09004 99596 71736 41497 83031 11017 2//// 49880 52/// 70222 885// 22242 0//// 20302 330// 4//06 5//// 6//// 8//// ICE /////
BBXX 52249 09001 99052 31503 46/// ///// 1//// 90027 22200 00312
BBXX SHIP 09004 99416 70096 42598 73505 10147 20109 40269 5//// 8//// 222// 02160 20401 317// 404//
BBXX C6VM6 09004 99119 10453 41/98 31009 10220 20174 40120 57030 7//10 8//// 22214 00270 2//// 3//// 4//// 5//// 6//// 80190 ICE /////
BBXX SHIP 09004 99416 70096 42598 73505 10147 20109 40269 5//// 8//// 222// 02160 20401 317// 404//
BBXX C6TL7 09001 99124 11111 41596 60515 10240 20225 40100 54000 70222 8541/ 22255 00/// 20301 305// 40604 80230
BBXX TBWUK12 09004 99280 30363 41297 10722 10240 20225 40136 54000 7//// 8/1// 22253 04250 2//04 307// 4//04 80230
BBXX TBWUK37 09001 99212 11240 41298 80324 10220 20212 40158 52005 75022 8572/ 22254 04270 20306 303// 40408 80215
BBXX C6TL7 09001 99124 11111 41596 60515 10240 20225 40100 54000 70222 8541/ 22255 00/// 20301 305// 40604 80230
BBXX TBWUK12 09004 99280 30363 41297 10722 10240 20225 40136 54000 7//// 8/1// 22253 04250 2//04 307// 4//04 80230
BBXX TBWUK37 09001 99212 11240 41298 80324 10220 20212 40158 52005 75022 8572/ 22254 04270 20306 303// 40408 80215
AAXX 09004 48479 31958 40000 10250 20212 30044 40096 52012 71011 80006 333 20230 59005
AAXX 09001 02805 42499 73501 11209 21233 39954 40099 54000 70211 81470
BBXX PJGO 09004 99571 10022 47196 /2834 10071 20049 49679 53001 704// 22200
BBXX 63106 09004 99610 10017 46/// /0727 10061 49623 51004 22200
BBXX 63113 09004 99610 10017 46/// /0825 10070 20037 49618 52003 22200 10911 70056
BBXX 62107 09004 99501 70061 46/// /3127 10097 20029 40139 51017 22200 00123 10908 70040 333 90710 91136
BBXX 62094 09004 99517 70067 46/// /2622 10079 20079 40110 52012 22200 00115 10606 70031 333 90710 91137
AAXX 09004 17096 12560 61802 11054 21090 38205 48478 56008 60001 84550 333 84630 86358
AAXX 09001 32027 42599 62908 11106 21150 30085 40094 58016 82932 333 91011 91113
BBXX WY7686 09004 99596 71736 41497 83031 11017 2//// 49880 52/// 70222 885// 22242 0//// 20302 330// 4//06 5//// 6//// 8//// ICE /////
AAXX 09004 96581 32460 70000 10302 20251 30094 40101 52008 85131 333 56100 85811 80858
AAXX 09004 97980 21460 32106 10310 20246 30048 40055 57020 70162 82842 333 56000 60017 82817
AAXX 09004 63832 32480 70000 10194 20174 38800 48474 8397/ 333 58000 83817 81919 87358
BBXX C6TL7 09001 99124 11111 41596 60515 10240 20225 40100 54000 70222 8541/ 22255 00/// 20301 305// 40604 80230
BBXX TBWUK37 09001 99212 11240 41298 80324 10220 20212 40158 52005 75022 8572/ 22254 04270 20306 303// 40408 80215
BBXX TBWUK12 09004 99280 30363 41297 10722 10240 20225 40136 54000 7//// 8/1// 22253 04250 2//04 307// 4//04 80230
BBXX TBWUK12 09004 99280 30363 41297 10722 10240 20225 40136 54000 7//// 8/1// 22253 04250 2//04 307// 4//04 80230
AAXX 09001 26424 41496 81804 10005 21012 30059 40113 57011 71022 8355/
AAXX 09001 47046 32969 80000 11064 21116 30246 40280 52006 80002 333 21071
AAXX 09001 47067 11560 80000 11063 21078 30182 40308 52019 69912 71072 85100 333 21072
AAXX 09001 31442 42999 83103 11153 21204 39810 40180 57017 81031
AAXX 09003 67775 42965 31104 10204 20127 38472 48475 80002 333 83080
AAXX 09004 67775 41965 31104 10204 20127 38472 48475 80002 333 59052 83080
AAXX 09004 16682 12560 20000 10060 20046 30190 40209 57004 60001 82100 333 90730 91104 555 40000 47678 44240 50000 50054
BBXX AMOUK08 09004 99501 70061 46/// ///// 10102 20043 30132 40136 52021 92350
BBXX 63106 09004 99610 10017 46/// /0727 10061 49623 51004 22200
BBXX 63105 09004 99610 10017 47497 ///// 10052 20042 49630 52009 751// 22200
BBXX 62094 09004 99517 70067 46/// /2722 10079 20079 40110 52012 22200 00115 10606 70031
BBXX 64049 09003 99571 10022 41/97 82750 10064 20055 49640 55020 70722 8//// 22200 04095 20714 327// 40716 5//// 80060
AAXX 09001 23966 32999 62101 11105 21128 30184 40314 54000 80005 333 21105 47040 55000
AAXX 09004 71307 16/// /2410 10003 21020 39971 40227 51009 60001 333 10025 21030 70000
AAXX 09001 34009 41/93 90000 11015 21015 39858 40169 52007 74542
AAXX 09004 48458 12560 80000 10223 20196 30058 40140 52022 60044 82536 333 20223 58019 70035
AAXX 09001 25503 12699 20301 11400 21421 30045 40192 56001 69920 82500 333 21407 47021 55000
AAXX 09001 38847 429// 00000 11012 21022 40299 56001
AAXX 09004 61045 31908 70606 10200 21080 39638 40131 7064/ 80008 333 0//00 59018 87280
AAXX 09004 61045 31908 70606 10200 21080 39638 40131 7064/ 80008 333 0//00 59018 87280
BBXX PJGO 09004 99571 10022 47196 /2834 10071 20049 49679 53001 704// 22200
BBXX 63106 09004 99610 10017 46/// /0727 10061 49623 51004 22200
BBXX 63113 09004 99610 10017 46/// /0825 10070 20037 49618 52003 22200 10911 70056
BBXX 62107 09004 99501 70061 46/// /3127 10097 20029 40139 51017 22200 00123 10908 70040 333 90710 91136
BBXX 62094 09004 99517 70067 46/// /2622 10079 20079 40110 52012 22200 00115 10606 70031 333 90710 91137
AAXX 09004 61091 32960 20000 10175 20046 39691 40145 80002 333 0//00 59013 82080
AAXX 09004 61091 32960 20000 10175 20046 39691 40145 80002 333 0//00 59013 82080
AAXX 09000 44314 32998 02506 11224 2//// 39226 40430 57028 333 21233 46003 555 31246
AAXX 09003 63695 32980 02703 10110 20096
BBXX ZDLS1 09003 99312 30157 41597 31430 10163 20107 40176 57002 70111 82445 22232 04170 20608 80133
BBXX AMOUK08 09004 99501 70061 46/// ///// 10102 20043 30132 40136 52021 92350
BBXX 63106 09004 99610 10017 46/// /0727 10061 49623 51004 22200
BBXX 63105 09004 99610 10017 47497 ///// 10052 20042 49630 52009 751// 22200
BBXX 62094 09004 99517 70067 46/// /2722 10079 20079 40110 52012 22200 00115 10606 70031
BBXX 64049 09003 99571 10022 41/97 82750 10064 20055 49640 55020 70722 8//// 22200 04095 20714 327// 40716 5//// 80060
BBXX A8VL8 09004 99298 30420 41598 60620 10230 20201 40140 54/// 70222 861// 22213 0//// 20404 305// 40303 5//// 6//// 80210 ICE /////
BBXX A8VL8 09004 99298 30420 41598 60620 10230 20201 40140 54/// 70222 861// 22213 0//// 20404 305// 40303 5//// 6//// 80210 ICE /////
AAXX 09004 63705 32459 40504 10198 20187 38827 48/// 82930 333 82620 81922 83365 555 10195
AAXX 09001 63332 NIL
AAXX 09001 63333 NIL
AAXX 09001 63340 NIL
AAXX 09001 63402 NIL
AAXX 09001 63403 NIL
AAXX 09001 63450 42980 01502 10104 20020 37719 40152 333 59018
AAXX 09001 63451 42980 0//// 1//// 2//// 38134 4//// 333 59022
AAXX 09001 63471 NIL
AAXX 09004 63705 32459 40504 10198 20187 38827 48/// 82930 333 82620 81922 83365 555 10195
BBXX A8VL8 09004 99298 30420 41598 60620 10230 20201 40140 54/// 70222 861// 22213 0//// 20404 305// 40303 5//// 6//// 80210 ICE /////
BBXX PJGO 09004 99571 10022 47196 /2834 10071 20049 49679 53001 704// 22200
BBXX 63106 09004 99610 10017 46/// /0727 10061 49623 51004 22200
BBXX 63113 09004 99610 10017 46/// /0825 10070 20037 49618 52003 22200 10911 70056
BBXX 62107 09004 99501 70061 46/// /3127 10097 20029 40139 51017 22200 00123 10908 70040 333 90710 91136
BBXX 62094 09004 99517 70067 46/// /2622 10079 20079 40110 52012 22200 00115 10606 70031 333 90710 91137
AAXX 09004 65501 32960 70000 10228 21020 39807 40118 80002 333 0//00 59015 87076
AAXX 09004 65502 32960 60404 10230 21001 39741 40115 80002 333 0//00 59010 86076
AAXX 09004 65503 32960 50404 10228 20043 39774 40114 80002 333 0//00 59008 85076
AAXX 09004 65505 32960 70406 10254 20008 39778 40110 80002 333 0//00 59010 87076
AAXX 09004 65507 32960 70804 10225 20028 39763 40108 80002 333 0//00 59010 87076
AAXX 09004 65510 31940 50606 10244 20028 39597 40103 70622 80002 333 0//00 59011 85076
AAXX 09004 65516 32960 60000 10208 20051 39806 40109 80002 333 0//00 59007 86076
AAXX 09004 65518 32960 73604 10228 21002 39746 40104 80002 333 0//00 59008 87076
AAXX 09004 65522 31958 70000 10204 20077 39779 40104 70622 80002 333 0//00 59010 87076
AAXX 09001 63332 NIL
AAXX 09001 63333 NIL
AAXX 09001 63340 NIL
AAXX 09001 63402 NIL
AAXX 09001 63403 NIL
AAXX 09001 63450 42980 01502 10104 20020 37719 40152 333 59018
AAXX 09001 63451 42980 0//// 1//// 2//// 38134 4//// 333 59022
AAXX 09001 63471 NIL
AAXX 09004 67009 33480 7//// 10250 20241 39978 40096 56006 879// 333 0//00 81817 81917 87633 94974 95814
AAXX 09004 67012 33581 6//// 10234 20222 30082 40092 56005 86900 333 0//00 84820 81920 85640 94963 94964 94965 95833 95834 95835
AAXX 09004 67073 33580 6//// 10252 20213 30065 40091 56008 83832 333 0//00 83820 555 82633 81360 81073
AAXX 09004 67157 11470 5//// 10/// 20/// 30104 40111 54000 60011 7156/ 85800 333 0//11 82817 85630
AAXX 09004 67131 33580 10000 10/// 20/// 30082 40087 57012 81800 333 0//00 81823 555 81640
BBXX AMOUK08 09004 99501 70061 46/// ///// 10102 20043 30132 40136 52021 92350
BBXX 63106 09004 99610 10017 46/// /0727 10061 49623 51004 22200
BBXX 63105 09004 99610 10017 47497 ///// 10052 20042 49630 52009 751// 22200
BBXX 62094 09004 99517 70067 46/// /2722 10079 20079 40110 52012 22200 00115 10606 70031
BBXX 64049 09003 99571 10022 41/97 82750 10064 20055 49640 55020 70722 8//// 22200 04095 20714 327// 40716 5//// 80060
BBXX PJGO 09004 99571 10022 47196 /2834 10071 20049 49679 53001 704// 22200
BBXX 63106 09004 99610 10017 46/// /0727 10061 49623 51004 22200
BBXX 63113 09004 99610 10017 46/// /0825 10070 20037 49618 52003 22200 10911 70056
BBXX 62107 09004 99501 70061 46/// /3127 10097 20029 40139 51017 22200 00123 10908 70040 333 90710 91136
BBXX 62094 09004 99517 70067 46/// /2622 10079 20079 40110 52012 22200 00115 10606 70031 333 90710 91137
AAXX 09003 63612 32980 00000 10218 20193 40106 333 59005
BBXX 52243 09001 99193 11666 46/// ///// 1//// 90000 22200 00276
BBXX 51178 09001 99142 51695 46/// ///// 1//// 90000 22200 00291
BBXX 51174 09001 99142 51697 46/// ///// 1//// 90000 22200 00292
BBXX 51171 09001 99064 71623 46/// ///// 1//// 90000 22200 00284
BBXX 51170 09001 99168 71695 46/// ///// 1//// 90000 22200 00269
BBXX 51169 09001 99004 51600 46/// ///// 1//// 90000 22200 00255
AAXX 09004 89266 46/// /3509 11116 21129 39618 49759 5//// 90010
AAXX 09004 89065 46/// /0207 11012 21025 39641 49717 5//// 90020
AAXX 09004 89266 46/// /3508 11116 21130 39619 49760 57013 90000
AAXX 09004 89065 46/// /0207 11012 21025 39641 49717 5//// 90010
AAXX 09004 89262 46/// /0607 11068 21083 39730 49774 57012 90010
AAXX 09004 89262 46/// /0607 11066 21082 39731 49775 57014 90000
AAXX 09004 89272 46/// /3506 11120 21145 37944 49561 5//// 90020
AAXX 09004 89272 46/// /3605 11110 21138 37945 49556 57005 90000
AAXX 09004 89272 46/// /3606 11117 21144 37944 49559 5//// 90010
BBXX AMOUK01 09004 99312 30157 46/// ///// 10169 20114 30171 40181 57005 92350
AAXX 09004 13619 12965 03206 11014 21020 39501 42869 52009 60001
AAXX 09004 13600 12960 03602 10052 20032 30218 40272 52012 60001
AAXX 09004 13601 12960 00000 10046 20046 30126 40229 52003 60001
BBXX AMOUK08 09004 99501 70061 46/// ///// 10102 20043 30132 40136 52021 92350
BBXX 63106 09004 99610 10017 46/// /0727 10061 49623 51004 22200
BBXX 63105 09004 99610 10017 47497 ///// 10052 20042 49630 52009 751// 22200
BBXX 62094 09004 99517 70067 46/// /2722 10079 20079 40110 52012 22200 00115 10606 70031
BBXX 64049 09003 99571 10022 41/97 82750 10064 20055 49640 55020 70722 8//// 22200 04095 20714 327// 40716 5//// 80060
BBXX 52243 09001 99193 11666 46/// ///// 1//// 90000 22200 00276
BBXX 51170 09001 99168 71695 46/// ///// 1//// 90000 22200 00269
BBXX 51171 09001 99064 71623 46/// ///// 1//// 90000 22200 00284
BBXX 51174 09001 99142 51697 46/// ///// 1//// 90000 22200 00292
BBXX 51178 09001 99142 51695 46/// ///// 1//// 90000 22200 00291
BBXX 51169 09001 99004 51600 46/// ///// 1//// 90000 22200 00255
AAXX 09004 13600 12960 03602 10052 20032 30218 40272 52012 60001
AAXX 09004 13619 12965 03206 11014 21020 39501 42869 52009 60001
AAXX 09004 13601 12960 00000 10046 20046 30126 40229 52003 60001
AAXX 09004 13629 12664 40404 10008 21006 39174 42823 54004 60001 84500 333 84640
AAXX 09004 13610 12960 00000 10016 21012 39829 40269 52014 60001
AAXX 09004 13624 11658 71402 10044 20032 30201 40242 52015 60001 70294 84420 333 84640 83460
AAXX 09004 13625 12960 00000 10038 20018 39992 40231 52010 60001
AAXX 09004 13629 12664 40404 10008 21006 39174 42823 54004 60001 84500 333 84640
AAXX 09004 13625 12960 00000 10038 20018 39992 40231 52010 60001
AAXX 09004 13600 12960 03602 10052 20032 30218 40272 52012 60001
AAXX 09004 13610 12960 00000 10016 21012 39829 40269 52014 60001
AAXX 09004 13601 12960 00000 10046 20046 30126 40229 52003 60001
AAXX 09004 13624 11658 71402 10044 20032 30201 40242 52015 60001 70294 84420 333 84640 83460
AAXX 09004 13619 12965 03206 11014 21020 39501 42869 52009 60001
AAXX 09004 13619 12965 03206 11014 21020 39501 42869 52009 60001
AAXX 09004 13601 12960 00000 10046 20046 30126 40229 52003 60001
AAXX 09004 13625 12960 00000 10038 20018 39992 40231 52010 60001
AAXX 09004 13629 12664 40404 10008 21006 39174 42823 54004 60001 84500 333 84640
AAXX 09004 13600 12960 03602 10052 20032 30218 40272 52012 60001
AAXX 09004 13610 12960 00000 10016 21012 39829 40269 52014 60001
AAXX 09004 13624 11658 71402 10044 20032 30201 40242 52015 60001 70294 84420 333 84640 83460
AAXX 09004 13610 12960 00000 10016 21012 39829 40269 52014 60001
AAXX 09004 13619 12965 03206 11014 21020 39501 42869 52009 60001
AAXX 09004 13600 12960 03602 10052 20032 30218 40272 52012 60001
AAXX 09004 13601 12960 00000 10046 20046 30126 40229 52003 60001
AAXX 09004 13629 12664 40404 10008 21006 39174 42823 54004 60001 84500 333 84640
BBXX PJGO 09004 99571 10022 47196 /2834 10071 20049 49679 53001 704// 22200
BBXX 63106 09004 99610 10017 46/// /0727 10061 49623 51004 22200
BBXX 63113 09004 99610 10017 46/// /0825 10070 20037 49618 52003 22200 10911 70056
BBXX 62107 09004 99501 70061 46/// /3127 10097 20029 40139 51017 22200 00123 10908 70040 333 90710 91136
BBXX 62094 09004 99517 70067 46/// /2622 10079 20079 40110 52012 22200 00115 10606 70031 333 90710 91137
AAXX 09001 78090 15/// /0000 10226 30205 40209 69901 90000 222// 00212
BBXX SHIP 09004 99104 31057 41/97 43110 10288 20232 40069 70111 222// 0//// 20300 312// 40301 5////
BBXX SHIP 09004 99104 31057 41/97 43110 10288 20232 40069 70111 222// 0//// 20300 312// 40301 5////
AAXX 09004 42260 31995 31103 10168 20168 40125 71000 83030 333 59012
BBXX SHIP 09004 99104 31057 41/97 43110 10288 20232 40069 70111 222// 0//// 20300 312// 40301 5////
AAXX 09004 89257 46/// /2608 11127 21149 39675 49746 5//// 90010
AAXX 09004 89257 46/// /2608 11129 21151 39675 49746 5//// 90020
AAXX 09004 89257 46/// /2608 11125 21148 39676 49747 57015 90000
AAXX 09001 01160 41989 00810 10018 21053 39967 49984 58013 70200 333 91113
BBXX AMOUK08 09004 99501 70061 46/// ///// 10102 20043 30132 40136 52021 92350
BBXX 63106 09004 99610 10017 46/// /0727 10061 49623 51004 22200
BBXX 63105 09004 99610 10017 47497 ///// 10052 20042 49630 52009 751// 22200
BBXX 62094 09004 99517 70067 46/// /2722 10079 20079 40110 52012 22200 00115 10606 70031
BBXX 64049 09003 99571 10022 41/97 82750 10064 20055 49640 55020 70722 8//// 22200 04095 20714 327// 40716 5//// 80060
BBXX WZE4928 09004 99458 70842 41/97 82929 11044 2//// 40166 5//// 70222 8//// 22223 0//// 20703 3//// 4//// 5//// 6//// 8//// ICE /////
BBXX SHIP 09004 99104 31057 41/97 43110 10288 20232 40069 70111 222// 0//// 20300 312// 40301 5////
AAXX 09004 71390 46/// /2819 11041 6///1 333 11009 21045 7////
BBXX WZE4928 09004 99458 70842 41/97 82929 11044 2//// 40166 5//// 70222 8//// 22223 0//// 20703 3//// 4//// 5//// 6//// 8//// ICE /////
AAXX 09004 43192 32996 00503 10216 20194 40090 333 59010
BBXX PJGO 09004 99571 10022 47196 /2834 10071 20049 49679 53001 704// 22200
BBXX 63106 09004 99610 10017 46/// /0727 10061 49623 51004 22200
BBXX 63113 09004 99610 10017 46/// /0825 10070 20037 49618 52003 22200 10911 70056
BBXX 62107 09004 99501 70061 46/// /3127 10097 20029 40139 51017 22200 00123 10908 70040 333 90710 91136
BBXX 62094 09004 99517 70067 46/// /2622 10079 20079 40110 52012 22200 00115 10606 70031 333 90710 91137
BBXX ZDLS1 09003 99312 30157 41597 31430 10163 20107 40176 57002 70111 82445 22232 04170 20608 80133
BBXX AMOUK08 09004 99501 70061 46/// ///// 10102 20043 30132 40136 52021 92350
BBXX 63106 09004 99610 10017 46/// /0727 10061 49623 51004 22200
BBXX 63105 09004 99610 10017 47497 ///// 10052 20042 49630 52009 751// 22200
BBXX 62094 09004 99517 70067 46/// /2722 10079 20079 40110 52012 22200 00115 10606 70031
BBXX 64049 09003 99571 10022 41/97 82750 10064 20055 49640 55020 70722 8//// 22200 04095 20714 327// 40716 5//// 80060
AAXX 09001 11916 46/// /2706 11101 21117 37938 48463 52008 6///1 333 55000 91122
AAXX 09004 91723 NIL
AAXX 09004 91964 NIL
AAXX 09001 15335 03/// /2904 10035 21012 30176 40183 52016 6///1 333 55000 6///7 91006 91106
AAXX 09004 17090 11660 80000 10006 21008 38673 48447 58005 69961 77122 85520 333 85633 88458 93102
BBXX PJGO 09004 99571 10022 47196 /2834 10071 20049 49679 53001 704// 22200
BBXX 63106 09004 99610 10017 46/// /0727 10061 49623 51004 22200
BBXX 63113 09004 99610 10017 46/// /0825 10070 20037 49618 52003 22200 10911 70056
BBXX 62107 09004 99501 70061 46/// /3127 10097 20029 40139 51017 22200 00123 10908 70040 333 90710 91136
BBXX 62094 09004 99517 70067 46/// /2622 10079 20079 40110 52012 22200 00115 10606 70031 333 90710 91137
AAXX 09001 22324 11582 81405 11011 21021 30085 40135 53001 69902 72682 889// 333 21030 47004 91007
AAXX 09004 97600 31459 70000 10282 20244 30067 40073 56007 71522 83971 333 56600 57961 81916 82818 86459 80958
AAXX 09001 10791 16/// ///// 11029 21031 38494 48440 56031 60001 333 55300
AAXX 09004 03894 11358 82819 10087 20074 40126 52015 60041 76365 885// 333 82706 84615 86630 90710 91128
AAXX 09003 64810 32459 30000 10240 20233 30067 40093 82530 333 55/// 59001 82614
BBXX AMOUK08 09004 99501 70061 46/// ///// 10102 20043 30132 40136 52021 92350
BBXX 63106 09004 99610 10017 46/// /0727 10061 49623 51004 22200
BBXX 63105 09004 99610 10017 47497 ///// 10052 20042 49630 52009 751// 22200
BBXX 62094 09004 99517 70067 46/// /2722 10079 20079 40110 52012 22200 00115 10606 70031
BBXX 64049 09003 99571 10022 41/97 82750 10064 20055 49640 55020 70722 8//// 22200 04095 20714 327// 40716 5//// 80060
AAXX 09004 71706 11574 22919 10005 21060 30032 40092 52092 69901 70181 82500 333 10145 20004 70200 90930
AAXX 09004 71706 11574 22919 10005 21060 30032 40092 52092 69901 70181 82500 333 10145 20004 70200 90930
BBXX PJGO 09004 99571 10022 47196 /2834 10071 20049 49679 53001 704// 22200
BBXX 63106 09004 99610 10017 46/// /0727 10061 49623 51004 22200
BBXX 63113 09004 99610 10017 46/// /0825 10070 20037 49618 52003 22200 10911 70056
BBXX 62107 09004 99501 70061 46/// /3127 10097 20029 40139 51017 22200 00123 10908 70040 333 90710 91136
BBXX 62094 09004 99517 70067 46/// /2622 10079 20079 40110 52012 22200 00115 10606 70031 333 90710 91137
BBXX 42043 09001 99290 70949 46/// /1108 1//// 40218 90030 22200 00163 333 91211
BBXX 42043 09001 99290 70949 46/// /1108 1//// 40220 57003 90000 22200 00163 333 91210
BBXX 42044 09001 99262 70971 46/// /1406 10191 20122 40191 90030 22200 00197 333 91207
BBXX 42044 09001 99262 70971 46/// /1406 10191 20121 40190 90000 22200 00198 333 91207
BBXX 42046 09001 99279 70940 46/// /1404 1//// 40220 90030 22200 00227 333 91205
BBXX 42046 09001 99279 70940 46/// /1204 1//// 40218 90000 22200 00227 333 91205
BBXX AMOUK01 09004 99312 30157 46/// ///// 10169 20114 30171 40181 57005 92350
BBXX 42047 09001 99279 70936 46/// /0904 10149 20072 40223 90030 22200 00230 333 91206
BBXX 42047 09001 99279 70936 46/// /0904 10146 20062 40220 57005 90000 22200 00230 333 91205
BBXX 42047 09001 99279 70936 46/// /0904 10146 20062 40220 57005 90000 22200 00230 333 91205
BBXX 42047 09001 99279 70936 46/// /0904 10149 20072 40223 90030 22200 00230 333 91206
BBXX 42046 09001 99279 70940 46/// /1404 1//// 40220 90030 22200 00227 333 91205
BBXX 42046 09001 99279 70940 46/// /1204 1//// 40218 90000 22200 00227 333 91205
BBXX 42044 09001 99262 70971 46/// /1406 10191 20122 40191 90030 22200 00197 333 91207
BBXX 42044 09001 99262 70971 46/// /1406 10191 20121 40190 90000 22200 00198 333 91207
BBXX 42043 09001 99290 70949 46/// /1108 1//// 40218 90030 22200 00163 333 91211
BBXX 42043 09001 99290 70949 46/// /1108 1//// 40220 57003 90000 22200 00163 333 91210
AAXX 09004 67072 33480 70000 10259 20220 30105 40108 56007 83806 333 0//00 81817 83640 87275 924/8
AAXX 09004 67113 11475 5//// 10245 20223 30/// 40/// 5//// 6//// 7606/ 86800 333 0//// 83817 84633
AAXX 09004 67023 33580 42204 10242 20227 30085 40091 58005 82802 333 0//00 81820 83075 555 82640
AAXX 09004 65560 32960 0//// 10230 20204 39792 40099 333 59016
BBXX AMOUK08 09004 99501 70061 46/// ///// 10102 20043 30132 40136 52021 92350
BBXX 63106 09004 99610 10017 46/// /0727 10061 49623 51004 22200
BBXX 63105 09004 99610 10017 47497 ///// 10052 20042 49630 52009 751// 22200
BBXX 62094 09004 99517 70067 46/// /2722 10079 20079 40110 52012 22200 00115 10606 70031
BBXX 64049 09003 99571 10022 41/97 82750 10064 20055 49640 55020 70722 8//// 22200 04095 20714 327// 40716 5//// 80060
BBXX WRYC 09004 99010 11036 41298 21105 10280 2027/ 40090 52020 70200 8246/ 22223 00281 2//// 3//// 4//// 5//// 6//// 80270 ICE /////
BBXX PJGO 09004 99571 10022 47196 /2834 10071 20049 49679 53001 704// 22200
BBXX 63106 09004 99610 10017 46/// /0727 10061 49623 51004 22200
BBXX 63113 09004 99610 10017 46/// /0825 10070 20037 49618 52003 22200 10911 70056
BBXX 62107 09004 99501 70061 46/// /3127 10097 20029 40139 51017 22200 00123 10908 70040 333 90710 91136
BBXX 62094 09004 99517 70067 46/// /2622 10079 20079 40110 52012 22200 00115 10606 70031 333 90710 91137
BBXX 63119 09004 99581 70028 41497 83341 10048 21008 49801 52090 70722 887// 22231 20308 333// 40610 5////
BBXX 63119 09004 99581 70028 41497 83341 10048 21008 49801 52090 70722 887// 22231 20308 333// 40610 5////
BBXX 63119 09004 99581 70028 41497 83341 10048 21008 49801 52090 70722 887// 22231 20308 333// 40610 5////
BBXX ZDLS1 09003 99312 30157 41597 31430 10163 20107 40176 57002 70111 82445 22232 04170 20608 80133
BBXX ZCDQ5 09003 99365 10195 43498 60612 10150 20130 40230 54000 70100 86/5/ 22234 00164 20201 3//// 4//// 5//// 80140
BBXX ZCDQ5 09003 99365 10195 43498 60612 10150 20130 40230 54000 70100 86/5/ 22234 00164 20201 3//// 4//// 5//// 80140
AAXX 09001 10147 01360 82112 10091 20080 39921 49939 56049 60041 76362 8702/ 333 32/// 55/// 20211 30143 42686 55300 20000 30000 41272 60037 87509 91120 91214
AAXX 09001 10131 07481 72409 10060 20036 39921 49936 56012 60071 72386 333 55/// 2//// 3//// 55300 20000 30000 60067 81/19 87/58 87/61 91121 91213
AAXX 09004 44404 42905 01202 10080 20020 38137 48490 333 58000
AAXX 09004 44406 NIL
AAXX 09004 44409 42901 00000 10132 20132 39908 40114 74444 333 59001
AAXX 09004 44416 NIL
AAXX 09004 44418 41/00 90000 10150 20150 39962 40155 743// 89/// 333 59007
AAXX 09004 44424 NIL
AAXX 09004 44429 NIL
AAXX 09004 44434 4102 90000 10104 20100 39231 48535 744// 89/// 333 59006
AAXX 09004 44438 41/05 90000 10148 20144 30025 40153 745// 89/// 333 59001
AAXX 09004 44449 41902 00000 10150 20147 39988 40145 743// 333 5////
AAXX 09004 44454 41/01 90000 10073 20071 38670 48505 74744 333 59009
AAXX 09004 44462 42965 00000 10088 20074 38265 48484 333 59005
AAXX 09004 44474 NIL
AAXX 09004 44477 42256 10000 10098 2//// 38824 48533 81100 333 59015
AAXX 09004 44478 NIL
AAXX 09004 44404 42905 01202 10080 20020 38137 48490 333 58000
AAXX 09004 44406 NIL
AAXX 09004 44409 42901 00000 10132 20132 39908 40114 74444 333 59001
AAXX 09004 44416 NIL
AAXX 09004 44418 41/00 90000 10150 20150 39962 40155 743// 89/// 333 59007
AAXX 09004 44424 NIL
AAXX 09004 44429 NIL
AAXX 09004 44434 4102 90000 10104 20100 39231 48535 744// 89/// 333 59006
AAXX 09004 44438 41/05 90000 10148 20144 30025 40153 745// 89/// 333 59001
AAXX 09004 44449 41902 00000 10150 20147 39988 40145 743// 333 5////
AAXX 09004 44454 41/01 90000 10073 20071 38670 48505 74744 333 59009
AAXX 09004 44462 42965 00000 10088 20074 38265 48484 333 59005
AAXX 09004 44474 NIL
AAXX 09004 44477 42256 10000 10098 2//// 38824 48533 81100 333 59015
AAXX 09004 44478 NIL
AAXX 09004 44404 42905 01202 10080 20020 38137 48490 333 58000
AAXX 09004 44406 NIL
AAXX 09004 44409 42901 00000 10132 20132 39908 40114 74444 333 59001
AAXX 09004 44416 NIL
AAXX 09004 44418 41/00 90000 10150 20150 39962 40155 743// 89/// 333 59007
AAXX 09004 44424 NIL
AAXX 09004 44429 NIL
AAXX 09004 44434 4102 90000 10104 20100 39231 48535 744// 89/// 333 59006
AAXX 09004 44438 41/05 90000 10148 20144 30025 40153 745// 89/// 333 59001
AAXX 09004 44449 41902 00000 10150 20147 39988 40145 743// 333 5////
AAXX 09004 44454 41/01 90000 10073 20071 38670 48505 74744 333 59009
AAXX 09004 44462 42965 00000 10088 20074 38265 48484 333 59005
AAXX 09004 44474 NIL
AAXX 09004 44477 42256 10000 10098 2//// 38824 48533 81100 333 59015
AAXX 09004 44478 NIL
AAXX 09001 08579 32/// ///// 10083 20077 30141 40269 57006
AAXX 09001 08579 32/// ///// 10083 20077 30141 40269 57006 555 60005
AAXX 09001 10113 07570 52310 10070 20051 39917 49936 50003 60081 72265 333 55/// 2//// 3//// 55300 20000 30000 60067 83/32 84/39 85/47 91120 91212
BBXX AMOUK01 09004 99312 30157 46/// ///// 10169 20114 30171 40181 57005 92350
AAXX 09001 26531 32469 81502 10004 21013 30053 40130 58007 885// 333 88616 91005 91105 555 1/100
AAXX 09001 10035 01480 82208 10055 20045 39859 49917 56015 60131 76366 875// 333 33/// 55/// 20176 30132 42617 55300 20000 30000 41207 60087 87615 91122 91213
BBXX S6SR 09004 99479 50571 41997 13014 10100 20100 40190 54000 7//00 81//8 22213 00100 2//// 3//// 4//// 5//// 6//// 80100 ICE /////
BBXX S6SR 09004 99479 50571 41997 13014 10100 20100 40190 54000 7//00 81//8 22213 00100 2//// 3//// 4//// 5//// 6//// 80100 ICE /////
AAXX 09001 10532 07478 72210 10093 20061 39829 40074 56037 69971 72265 333 55/// 20247 30230 55300 20000 30000 69977 82/15 87/22 87/38 91117 91212
BBXX ZDLS1 09003 99312 30157 41597 31430 10163 20107 40176 57002 70111 82445 22232 04170 20608 80133
BBXX VQKZ6 09004 99373 70619 10170 20153 40276 52015 70222 858// 22254 02160 20403 309// 40604 5//// 80160
BBXX A8IZ2 09004 99405 70607 41598 73022 10140 20080 40180 52050 70122 87/// 22263 80100
BBXX VQKZ6 09004 99373 70619 ///// ///// 10170 20153 40276 52015 70222 858// 22254 02160 20403 309// 40604 5//// 80160
BBXX A8IZ2 09004 99405 70607 41598 73022 10140 20080 40180 52050 70122 87/// 22263 80100
BBXX VQKZ6 09004 99373 70619 ///// ///// 10170 20153 40276 52015 70222 858// 22254 02160 20403 309// 40604 5//// 80160
BBXX VQKZ6 09004 99373 70619 10170 20153 40276 52015 70222 858// 22254 02160 20403 309// 40604 5//// 80160
AAXX 09004 71463 46/// /2727 10047 21031 39987 40213 51012 6///1 333 10047 20000 7////
AAXX 09004 71463 46/// /2727 10047 21031 39987 40213 51012 6///1 333 10047 20000 7////
AAXX 09001 10544 01/03 92217 10023 20023 39009 48393 58028 69961 76176 333 44011 55300 69967 91125 91219 96041 96263 96468 96441
BBXX AMOUK01 09004 99312 30157 46/// ///// 10169 20114 30171 40181 57005 92350
BBXX VQKZ6 09004 99373 70619 10170 20153 40276 52015 70222 858// 22254 02160 20403 309// 40604 5//// 80160
AAXX 09004 62476 32960 03003 10164 20089 40149 55002
BBXX VQKZ6 09004 99373 70619 ///// ///// 10170 20153 40276 52015 70222 858// 22254 02160 20403 309// 40604 5//// 80160
BBXX ZDLS1 09003 99312 30157 41597 31430 10163 20107 40176 57002 70111 82445 22232 04170 20608 80133
BBXX AMOUK01 09004 99312 30157 46/// ///// 10169 20114 30171 40181 57005 92350
BBXX VQKZ6 09004 99373 70619 10170 20153 40276 52015 70222 858// 22254 02160 20403 309// 40604 5//// 80160
BBXX WDA2768 09004 99474 70879 43/// /0619 00/// 11056 21106 40146 5//// 7//// 8//// 22200 0//// 2//// 3//// 4//// 5//// 6//// 81071 ICE /////
BBXX WDA2768 09004 99474 70879 43/// /0619 00/// 11056 21106 40146 5//// 7//// 8//// 22200 0//// 2//// 3//// 4//// 5//// 6//// 81071 ICE /////
BBXX ZDLS1 09003 99312 30157 41597 31430 10163 20107 40176 57002 70111 82445 22232 04170 20608 80133
BBXX VQKZ6 09004 99373 70619 ///// ///// 10170 20153 40276 52015 70222 858// 22254 02160 20403 309// 40604 5//// 80160
BBXX AMOUK01 09004 99312 30157 46/// ///// 10169 20114 30171 40181 57005 92350
BBXX VQKZ6 09004 99373 70619 10170 20153 40276 52015 70222 858// 22254 02160 20403 309// 40604 5//// 80160
BBXX ZDLS1 09003 99312 30157 41597 31430 10163 20107 40176 57002 70111 82445 22232 04170 20608 80133
BBXX VQKZ6 09004 99373 70619 ///// ///// 10170 20153 40276 52015 70222 858// 22254 02160 20403 309// 40604 5//// 80160
BBXX AMOUK01 09004 99312 30157 46/// ///// 10169 20114 30171 40181 57005 92350
BBXX VQKZ6 09004 99373 70619 10170 20153 40276 52015 70222 858// 22254 02160 20403 309// 40604 5//// 80160
BBXX ZDLS1 09003 99312 30157 41597 31430 10163 20107 40176 57002 70111 82445 22232 04170 20608 80133
BBXX VQKZ6 09004 99373 70619 ///// ///// 10170 20153 40276 52015 70222 858// 22254 02160 20403 309// 40604 5//// 80160
BBXX AMOUK01 09004 99312 30157 46/// ///// 10169 20114 30171 40181 57005 92350
BBXX VQKZ6 09004 99373 70619 10170 20153 40276 52015 70222 858// 22254 02160 20403 309// 40604 5//// 80160
BBXX ZDLS1 09003 99312 30157 41597 31430 10163 20107 40176 57002 70111 82445 22232 04170 20608 80133
BBXX VQKZ6 09004 99373 70619 ///// ///// 10170 20153 40276 52015 70222 858// 22254 02160 20403 309// 40604 5//// 80160
BBXX VQKZ6 09004 99373 70619 10170 20153 40276 52015 70222 858// 22254 02160 20403 309// 40604 5//// 80160
AAXX 09004 03784 46/// /2716 10080 20019 30052 40055 52025 92350 333 90710 91132 91026
BBXX VQKZ6 09004 99373 70619 ///// ///// 10170 20153 40276 52015 70222 858// 22254 02160 20403 309// 40604 5//// 80160
BBXX VQKZ6 09004 99373 70619 10170 20153 40276 52015 70222 858// 22254 02160 20403 309// 40604 5//// 80160
BBXX VQKZ6 09004 99373 70619 ///// ///// 10170 20153 40276 52015 70222 858// 22254 02160 20403 309// 40604 5//// 80160
AAXX 09004 78388 111575 30000 10256 20214 30124 40133 69931 70181 83362 333 06239 10302 20231 58009 81922 90930
AAXX 09004 DUPE
AAXX 09004 78397 111470 43407 10233 20216 30119 40135 69901 71598 82963 333 06299 10309 20232 58017 81818 81922 90914
AAXX 09004 DUPE
AAXX 09004 78397 111470 43407 10233 20216 30119 40135 69901 71598 82963 333 06299 10309 20232 58017 81818 81922 90914
AAXX 09004 DUPE
AAXX 09004 78388 111575 30000 10256 20214 30124 40133 69931 70181 83362 333 06239 10302 20231 58009 81922 90930
AAXX 09004 DUPE
AAXX 09004 84008 32970 01412 10230 20198 30098 40108 00184 333 10277 59005 555 30082
AAXX 09004 84202 32550 80000 10270 20217 30127 886// 333 10308 58002 555 30073
AAXX 09004 84088 12560 82702 10104 20098 37050 69941 888// 333 10192 59001 555 10004 30096
AAXX 09004 84270 31560 40000 10156 20122 70542 84400 333 10207 555 30080
AAXX 09004 84135 32570 70404 10256 20195 30052 87400 333 10292 58000 555 30069
AAXX 09004 84056 12260 42702 10124 20119 60021 84400 333 10224 555 10018 30097
AAXX 09004 84036 11567 80000 10138 20105 60021 71552 8641/ 333 10178 555 10022 30081
AAXX 09004 84105 32557 80000 10245 20220 31001 8441/ 333 10268 58001 555 30085
AAXX 09004 84076 11460 73204 10135 20128 69931 72055 86402 333 10238 555 10003 30095
AAXX 09004 84160 31570 30000 10126 20092 37252 70544 83400 333 10200 58002 555 30080
AAXX 09004 84140 31550 70000 10252 20214 30010 40095 70544 87800 333 10288 58008 555 30079
AAXX 09004 84072 12665 50408 10144 20114 37282 69971 85400 333 10230 58000 555 10007 30082
AAXX 09004 84143 12558 31804 10141 20105 37381 69961 83400 333 10204 58004 555 10006 30079
AAXX 09004 84050 31465 80000 10236 20212 71522 887// 333 10265 555 30086
AAXX 09004 84226 31550 83604 10090 20090 74044 886// 333 10152 555 30100
AAXX 09004 84204 31665 81404 10276 20205 70544 886// 333 10304 555 30065
AAXX 09004 84179 11665 30000 10204 20196 39032 60111 72588 83400 333 10280 58000 555 10108 30095
AAXX 09004 84132 32570 10000 10254 20245 33858 81100 333 10318 59008 555 30094
AAXX 09004 84001 31960 01510 10232 20184 30084 40104 70544 333 10281 59002
AAXX 09004 84010 31970 01412 10227 20208 70544 333 10274
AAXX 09004 84071 11250 43605 10139 20096 37266 47114 69901 74064 83530 333 10201 59001 555 1 T
AAXX 09004 84123 11570 51907 10146 20112 37282 47118 69931 70162 85400 333 10202 58009 555 10003
AAXX 09004 84203 11560 72005 10262 20195 30080 40085 69921 71654 87430 333 10304 58004 555 10002
AAXX 09004 84239 32670 62208 10144 20116 37521 47121 86200 333 10226 59001
AAXX 09004 84252 31660 82803 10253 20206 30094 40102 70544 885// 333 10284 58001
BBXX VQKZ6 09004 99373 70619 10170 20153 40276 52015 70222 858// 22254 02160 20403 309// 40604 5//// 80160
AAXX 09004 78397 111470 43407 10233 20216 30119 40135 69901 71598 82963 333 06299 10309 20232 58017 81818 81922 90914
AAXX 09004 DUPE DUPE DUPE DUPE
AAXX 09004 78397 111470 43407 10233 20216 30119 40135 69901 71598 82963 333 06299 10309 20232 58017 81818 81922 90914
AAXX 09004 DUPE DUPE DUPE
AAXX 09004 78397 111470 43407 10233 20216 30119 40135 69901 71598 82963 333 06299 10309 20232 58017 81818 81922 90914
AAXX 09004 DUPE DUPE DUPE
AAXX 09004 78397 111470 43407 10233 20216 30119 40135 69901 71598 82963 333 06299 10309 20232 58017 81818 81922 90914
AAXX 09004 DUPE DUPE DUPE DUPE DUPE
AAXX 09004 78397 111470 43407 10233 20216 30119 40135 69901 71598 82963 333 06299 10309 20232 58017 81818 81922 90914
AAXX 09004 DUPE DUPE DUPE DUPE DUPE
AAXX 09004 78397 111470 43407 10233 20216 30119 40135 69901 71598 82963 333 06299 10309 20232 58017 81818 81922 90914
AAXX 09004 DUPE DUPE DUPE DUPE DUPE DUPE
AAXX 09004 78397 111470 43407 10233 20216 30119 40135 69901 71598 82963 333 06299 10309 20232 58017 81818 81922 90914
AAXX 09004 DUPE DUPE DUPE DUPE DUPE DUPE
AAXX 09004 71382 16/// /1702 11125 21138 39175 40135 52030 60001 333 11072 21125 70020
AAXX 09004 71382 16/// /1702 11125 21138 39175 40135 52030 60001 333 11072 21125 70020
AAXX 09004 78397 111470 43407 10233 20216 30119 40135 69901 71598 82963 333 06299 10309 20232 58017 81818 81922 90914
AAXX 09004 DUPE DUPE DUPE DUPE DUPE DUPE DUPE DUPE
AAXX 09004 78397 111470 43407 10233 20216 30119 40135 69901 71598 82963 333 06299 10309 20232 58017 81818 81922 90914
AAXX 09004 DUPE DUPE DUPE DUPE DUPE DUPE DUPE DUPE DUPE
AAXX 09004 78397 111470 43407 10233 20216 30119 40135 69901 71598 82963 333 06299 10309 20232 58017 81818 81922 90914
AAXX 09004 DUPE DUPE DUPE DUPE DUPE DUPE DUPE DUPE
AAXX 09004 78397 111470 43407 10233 20216 30119 40135 69901 71598 82963 333 06299 10309 20232 58017 81818 81922 90914
AAXX 09004 DUPE DUPE DUPE DUPE DUPE DUPE DUPE DUPE DUPE
AAXX 09001 10113 07570 52310 10070 20051 39917 49936 50003 60081 72265 333 55/// 20095 30089 55300 20000 30000 60067 83/32 84/39 85/47 91120 91212
AAXX 09001 10131 07481 72409 10060 20036 39921 49936 56012 60071 72386 333 55/// 20122 30109 55300 20000 30000 60067 81/19 87/58 87/61 91121 91213
AAXX 09004 78397 111470 43407 10233 20216 30119 40135 69901 71598 82963 333 06299 10309 20232 58017 81818 81922 90914
AAXX 09004 DUPE DUPE DUPE DUPE DUPE DUPE DUPE
AAXX 09004 78397 111470 43407 10233 20216 30119 40135 69901 71598 82963 333 06299 10309 20232 58017 81818 81922 90914
AAXX 09004 DUPE DUPE DUPE DUPE DUPE DUPE DUPE
AAXX 09004 78397 111470 43407 10233 20216 30119 40135 69901 71598 82963 333 06299 10309 20232 58017 81818 81922 90914
AAXX 09004 DUPE DUPE DUPE DUPE DUPE DUPE DUPE DUPE DUPE DUPE
AAXX 09004 78397 111470 43407 10233 20216 30119 40135 69901 71598 82963 333 06299 10309 20232 58017 81818 81922 90914
AAXX 09004 DUPE DUPE DUPE DUPE DUPE DUPE DUPE DUPE DUPE DUPE
AAXX 09004 85864 12980 32206 10204 20022 40114 57003 60001 83030 333 10240 56060 83360
AAXX 09004 85874 32982 /3017 10171 20008 39502 40107 56007 333 10227
AAXX 09004 85934 12580 12514 10119 20032 40104 54001 60001 81100 333 10149 56600 81820
AAXX 09004 89056 11225 82821 10006 21003 49881 52109 69904 71022 886// 333 10015 20003 56699 88705
AAXX 09004 89057 12460 72413 10014 20007 49878 52013 60004 87500 333 10030 20013 56600 87617
AAXX 09004 89058 32560 82918 10008 21003 39859 49880 52006 885//
AAXX 09004 89059 11440 82317 10001 21012 49848 51115 60004 71022 886// 333 10007 21002 75599 88710
AAXX 09004 89251 32460 82917 10007 21002 49873 52005 8651/ 333 10015
AAXX 09004 85574 12960 01609 10223 20119 39578 40116 52016 60001 333 10312
AAXX 09004 85629 12770 12611 10270 20123 40101 53010 60001 81200 333 10309 56200 81850
AAXX 09004 85682 12960 02411 10161 20117 40131 55000 60001 333 10216
AAXX 09004 85743 12960 53009 10140 20099 40156 53012 60001 80004 333 10248 56006 85075
AAXX 09004 85799 12960 32205 10145 20103 40167 54001 60001 80001 333 10200 56004 83070
AAXX 09004 85406 12970 02003 10192 20128 40142 53020 60001 333 10233
AAXX 09004 85418 12970 02113 10189 20135 40137 53021 60001 70200 333 10223
AAXX 09004 85432 12970 02512 10182 21033 37755 48440 52011 60001 333 10238
AAXX 09004 85442 12470 31911 10169 20132 40127 52008 60001 83500 333 10203 56400 82617
AAXX 09004 85469 42565 30811 10234 20165 40246 57007 83100 333 56200 83820
AAXX 09004 85488 12465 52906 10147 20133 40136 54000 60001 85500 333 10200 56600 82610 83611
