BBXX ZMFR 09174 99506 31682 43/// /34// 10092 20090 40259 57001 22252 00091
BBXX 44172 09181 99445 70634 46/// ///// 1//// 91731 22200 00077 11105 21003 320// 41103 70023
BBXX 44097 09181 99410 70711 46/// ///// 1//// 91732 22200 00128 11102 20902 319// 41101 70012
BBXX 46218 09181 99345 71208 46/// ///// 1//// 91732 22200 00139 12203 21002 328// 42202 70014
BBXX WDD2876 09184 99472 70864 41/98 73030 11055 2//// 40173 53/// 78677 8//// 22223 00050 2//02 3//// 4//// 5//// 6//// 8//// ICE /////
AAXX 09184 81225 11465 70309 10291 20238 40093 69901 72582 85963 333 56229 58006 82815 82918 84625
AAXX 09184 81200 11470 61205 10298 20238 40094 60131 70281 83963 333 56229 58007 82815 81925 84360
AAXX 09184 81202 12565 40908 10289 20242 40098 60001 83943 333 56299 58001 81920 83825
AAXX 09184 81209 NIL
AAXX 09184 81251 NIL
AAXX 09184 81225 11465 70309 10291 20238 40093 69901 72582 85963 333 56229 58006 82815 82918 84625
AAXX 09184 81200 11470 61205 10298 20238 40094 60131 70281 83963 333 56229 58007 82815 81925 84360
AAXX 09184 81202 12565 40908 10289 20242 40098 60001 83943 333 56299 58001 81920 83825
AAXX 09184 81209 NIL
AAXX 09184 81251 NIL
BBXX 42363 09181 99282 70892 46/// /0308 10178 20083 40254 91745 333 91208
BBXX 42364 09181 99291 70881 46/// /3503 10161 20078 40251 91745
BBXX KAWM 09184 99549 71413 41497 82819 10047 20020 40155 54000 70222 85470 22233 0//// 20502 325// 40805 5//// 6//// 80035 ICE /////
BBXX 9HJD9 09183 99034 70801 41/96 92514 10240 2//// 40120 57/// 78188 8997/ 22244 0//// 2//// 3//// 4//// 5//// 6//// 8//// ICE /////
BBXX V7MO2 09184 99262 70914 41697 63617 10210 20128 40228 57002 7//22 862// 22200 00240 20401 306// 40602 5//// 6//// 80160 ICE /////
BBXX WFLG 09183 99220 71559 41598 20819 10217 20125 40185 52010 70200 821// 22213 00222 20201 335// 41004 5//// 6//// 80161 ICE /////
BBXX C6FZ9 09184 99284 70806 41/// /3513 1//// 2//// 40180 5//// 7//// 8//// 222// 0//// 2//// 3//// 4//// 5//// 6//// 8//// ICE /////
BBXX NWS0021 09184 99317 70642 43/// /1204 10227 20163 40226 5//// 7//// 8//// 222// 04231 2//// 3//// 4//// 5//// 6//// 8//// ICE /////
BBXX DBBU 09181 99544 10113 46/// /2411/1/044 20021 49991 52009 22271/00077
BBXX DBFR 09181 99552 10151 46/// /2318 10061 20040 49946 52009 22220 00068
BBXX A8SF9 09184 99421 31549 41397 60618 10135 20118 40180 55008 70311 8567/ 22234 04150 80125
BBXX DBKV(09181 99247 70186 46/// /0508 10213 20169 40164 57003 22253 00215
AAXX 09184 40255 11660 72810 10096 20080 39468 40189 54000 69982 72122 87800 333 10152 84830 83635
BBXX DBBT 09181 99425 30092 46/// /2106 10081 20037 40227 52011 22241 00111
AAXX 09184 91413 11469 80709 10265 20239 30046 40071 57027 69931 70282 84373 333 56299 70907 555 90918
AAXX 09184 91413 11469 80709 10265 20239 30046 40071 57027 69931 70282 84373 333 56299 70907 555 90918
BBXX 46249 09181 99338 71197 46/// ///// 1//// 91745 22200 00143 11201 20601 324// 41201 70006
BBXX 46248 09181 99461 71247 46/// ///// 1//// 91734 22200 00094 11804 20402 329// 41804 70021
BBXX 46244 09181 99409 71244 46/// ///// 1//// 91735 22200 00098 12004 20803 329// 42003 70021
AAXX 09184 91348 32474 50103 10275 20247 30029 40081 55007 83101 333 561/9 70015 555 90918
BBXX 46240 09181 99366 71219 46/// ///// 1//// 91742 22200 00115 12202 21001 300// 42201 70008
BBXX 46237 09181 99378 71226 46/// ///// 1//// 91740 22200 00112 12003 21001 326// 42003 70015
BBXX 46212 09181 99408 71243 46/// ///// 1//// 91742 22200 00096 12004 20803 330// 42003 70022
BBXX 46217 09181 99342 71194 46/// ///// 1//// 91742 22200 00147 11301 21001 327// 41301 70006
BBXX 46211 09181 99469 71242 46/// ///// 1//// 91736 22200 00088 11804 20702 327// 41804 70021
AAXX 09184 91348 32474 50103 10275 20247 30029 40081 55007 83101 333 561/9 70015 555 90918
BBXX 44098 09181 99428 70702 46/// ///// 1//// 91737 22200 00096 10503 20503 312// 41101 70015
BBXX A8TG2 09184 99303 71328 41598 80214 10170 20094 40210 54000 70255 8546/ 22224 20204 305// 40204 5//// 80130
AAXX 09184 91376 11474 80911 10259 20232 30063 40066 55000 60101 72582 84878 333 56229 70109 555 90918
AAXX 09184 91376 11474 80911 10259 20232 30063 40066 55000 60101 72582 84878 333 56229 70109 555 90918
AAXX 09184 68392 16/// /1708 10128 20118 30119 4//// 52011 69962 333 10150 20127 91011 555 20006
AAXX 09184 68382 16/// /1505 10128 20118 39397 48552 53006 69942 333 10177 20128 91013 555 20004 91021
BBXX A8OZ4 09184 99331 10294 43998 03321 10160 20070 40230 51020 7//// 80/// 22274 00180 2//// 3//// 4/ /// 5//// 80110
AAXX 09184 78846 11466 70713 10250 20/// 30079 40118 60041 71582 87200 333 10284 20233 59011 87816
AAXX 09184 91334 11474 70510 10273 20243 30073 40076 56008 69931 70282 82371 333 56299 70003 555 90918
AAXX 09184 78954 11474 31208 10289 20248 30044 40107 60001 71511 83242 333 10298 20238 59003 83816
AAXX 09184 78954 11474 31208 10289 20248 30044 40107 60001 71511 83242 333 10298 20238 59003 83816
AAXX 09184 78846 11466 70713 10250 20/// 30079 40118 60041 71582 87200 333 10284 20233 59011 87816
AAXX 09184 68906 12598 83611 10165 20119 30133 40197 57010 69922 8257/ 222// 00128 20401 333 10175 20159 91024 555 20002 91019
AAXX 09184 91334 11474 70510 10273 20243 30073 40076 56008 69931 70282 82371 333 56299 70003 555 90918
AAXX 09184 68994 32598 43007 10043 21008 30248 40278 53007 83540 222// 00065 333 10077 20038 91010 555 91027
BBXX BAREU61 09184 99364 70027 46/// /3102 10154 29072 40219 57001 22264
BBXX A8OZ4 09184 99331 10294 43998 03321 10160 20070 40230 51020 7//// 80/// 22274 00180 2//// 3//// 4//// 5//// 80110
AAXX 09184 40272 31557 62414 10106 20065 39358 40201 52004 70522 85800 333 10146 83830 84635
AAXX 09184 08594 31957 30512 10251 20188 40120 70600 82031 333 10273 59004 82360
AAXX 09184 08589 32960 00314 10262 20185 40110 333 10290 59007
AAXX 09184 08583 31558 10618 10258 20170 40122 70600 81500 333 10290 59011 81620
BBXX 46088 09181 99483 71232 46/// /0104 10043 40266 57004 91750 22200 00081 1//00 70001 333 91205 555 11037 22038 31734 43605 61749 007036 006037 006036 004036 008037 024037
BBXX 41115 09181 99184 70673 46/// ///// 1//// 91735 22200 10803 20803 302// 41101 70014
BBXX 41114 09181 99276 70802 46/// ///// 1//// 91746 22200 00241 11103 20503 307// 41101 70013
BBXX 41012 09181 99300 70805 46/// /0702 10229 40216 58008 91750 22200 00248 10902 20401 310// 40902 70012 333 91204 555 11022 22022 31658 40904 61749 075021 090025 088026 083031 074025 098029
BBXX 51205 09181 99210 71564 46/// ///// 1//// 91748 22200 00243 11705 20804 332// 41703 70023
BBXX 46114 09181 99364 71222 46/// ///// 1//// 91734 22200 00110 12004 21002 330// 42003 70020
BBXX 46060 09181 99606 71468 46/// /2901 10039 40105 53007 91750 22200 00060 11001 318// 41001 70006 333 91201 555 11006 22006 31740 43002 61749 293006 290009 308007 324008 302003 299002 83002 91740
BBXX 51203 09181 99208 71570 46/// ///// 1//// 91743 22200 00251 11502 20901 328// 41501 70008
BBXX 52200 09181 99134 11448 46/// ///// 1//// 91745 22200 00288 10904 20903 309// 41101 70018
BBXX 51201 09181 99217 71581 46/// ///// 1//// 91742 22200 00245 11505 20802 332// 41505 70026
BBXX 44060 09181 99413 70721 46/// ///04 10079 91745 22200 00119 333 91205 555 11046 22046
BBXX 44022 09181 99409 70737 46/// ///07 10087 20025 91745 22200 00101 333 91209 555 11077 22077
AAXX 09184 91408 32474 80703 10272 20250 30036 40074 57019 83278 333 56999 70003 555 90918
AAXX 09184 91408 32474 80703 10272 20250 30036 40074 57019 83278 333 56999 70003 555 90918
AAXX 09184 67665 41359 70000 10233 20217 48488 71322 81932 333 10310 58017 84609 819// 84360 84280
AAXX 09184 68352 16/// /1133 10160 21039 39097 48536 53005 60012 333 10184 20157 91092 555 20016 91019
AAXX 09184 61901 169// /1113 10161 20156 39644 40153 56003 60052 91750 333 10183 8//99 555 7/090
AAXX 09184 62010 32960 00902 10152 20120 40274 52006 333 10225
AAXX 09184 16597 32565 72301 10151 20118 30181 40268 52005 87800 333 10188 82825 86650
AAXX 09184 89009 42961 11107 11332 36711 56004 333 81262
AAXX 09184 89009 42961 11107 11332 36711 56004 333 81262
BBXX DEGL 09174 99344 30184 41298 31522 10190 20159 40140 54000 70200 82185 22234 04150 20608 317// 41210 5//// 80170
BBXX 42003 09181 99260 70856 46/// /0404 1//// 91750 22200 10602 20401 303// 40601 70009 333 91206 555 11045 22047 31719 40207 61749 040042 035048 026054 033050 032048 043042 80306 91715
BBXX 42002 09181 99258 70937 46/// /0706 10205 20149 40229 50008 91750 22200 00248 10401 20401 3//// 40601 70007 333 91208 555 11059 22063 31703 40709 61749 068059 063058 067063 064058 059071 046066
BBXX 41047 09181 99275 70715 46/// /1106 10246 40206 58019 91750 22200 00254 11004 20501 309// 41003 70018 333 91208 555 11058 22061 31703 41008 61749 109060 106053 113055 111060 111061 116063 81107 91713
BBXX 41043 09181 99211 70650 46/// /0710 10264 20212 40150 58020 91750 22200 00271 10905 20804 300// 40903 70026 333 91212 555 11105 22111 31719 40712 61749 069098 068099 066100 071101 067100 064098 80711 91712
BBXX 41036 09181 99342 70770 46/// ///// 10182 20133 40229 58020 91750 22200 00172 10502 70012
BBXX 44066 09181 99396 70726 46/// /1906 10122 20046 40267 58021 91750 22200 00142 10802 20301 3//// 40801 70009 333 91207 555 11059 22061 31738 42008 61749 188056 190065 182061 187059 185062 182057
BBXX 41049 09181 99275 70630 46/// /0607 10237 20170 40211 58016 91750 22200 00247 10904 20602 300// 40903 70019 333 91208 555 11072 22076 31715 40609 61749 058067 060055 066057 063073 068069 068065 80608 91715
BBXX 41001 09181 99347 70727 46/// ///// 10178 20073 40252 58015 91750 22200 00223 10803 70013
BBXX 42020 09181 99270 70967 46/// /2403 10224 20152 40220 50004 91750 22200 00242 10401 20301 311// 40401 70006 333 91205 555 11026 22026 31747 42705 61749 237024 183014 178018 148011 172011 162017
BBXX 41044 09181 99217 70587 46/// /0709 10260 20182 40146 56017 91750 22200 00268 10905 20605 300// 40902 70027 333 91211 555 11098 22104 31651 40613 61749 067093 062094 062102 063096 059105 066102 80611 91652
BBXX 41048 09181 99320 70696 46/// /0907 10214 20192 40225 58014 91750 22200 00230 11005 20603 3//// 41004 70023 333 91209 555 11074 22078 31651 40710 61749 087074 086079 087073 084075 082081 081084 80809 91653
BBXX 42065 09181 99149 70750 46/// /0707 10270 20236 91750 22200 10603 20603 3//// 40901 70014 333 91208 555 11075 22080 31700 40610 61749 069070 068069 072072 068082 062083 052071 80509 91700
BBXX 42001 09181 99259 70897 46/// /3605 10209 20135 40227 58005 91750 22200 00239 10602 20401 3//// 40602 70009 333 91207 555 11055 22057 31746 43607 61749 356051 352046 350044 355044 012037 007041
BBXX 42012 09181 99301 70876 46/// /3504 10121 20073 40247 58011 91750 22200 00196 10701 70003 333 91205 555 11040 22041 31728 43605 61749 348037 358038 357038 005023 017019 059014
BBXX 42035 09181 99292 70944 46/// /1006 10164 20141 40245 51007 91750 22200 00164 10502 20502 70009 333 91207 555 11068 22073 31652 41008 61749 100064 101066 101062 099066 098068 099068
BBXX 42060 09181 99163 70635 46/// /0704 10274 20222 40113 58023 91750 22200 00284 11002 20401 300// 41002 70011 333 91205 555 11043 22044 31738 40705 61749 071041 070042 069043 064043 059040 058041 80705 91713
BBXX 42058 09181 99149 70749 46/// /0807 10277 20226 40108 58018 91750 22200 00280 10602 20602 306// 40901 70011 333 91208 555 11073 22078 31651 40809 61749 081069 081070 078071 079073 081073 086076 80908 91653
BBXX 42036 09181 99285 70845 46/// /0107 10174 20143 40216 58011 91750 22200 00223 10402 20402 70008 333 91209 555 11076 22079 31725 40209 61749 012072 015074 017074 018073 019072 016069
BBXX 42056 09181 99198 70849 46/// /0208 10261 20216 40158 58011 91750 22200 00275 10703 20703 70016 333 91209 555 11084 22088 31720 40410 61749 020080 028079 033082 028080 030075 036078 80409 91720
BBXX 42059 09181 99151 70675 46/// /0607 10280 20232 40114 58018 91750 22200 00287 10902 20402 3//// 40901 70012 333 91208 555 11072 22076 31711 40608 61749 059068 060065 060066 065071 062066 066067 80608 91712
BBXX 42019 09181 99279 70954 46/// /1308 10211 20151 40219 50003 91750 22200 10402 20402 70009 333 91210 555 11085 22090 31744 41410 61749 139079 282077 282077 282074 282072 280069
BBXX 44005 09181 99432 70691 46/// /2010 10075 20020 40252 56019 91750 22200 00092 11003 20502 3//// 41002 70017 333 91212 555 11101 22107 31702 42113 61749 203096 208100 206099 206101 208106 208102
BBXX 42040 09181 99292 70882 46/// /3603 10156 40246 58007 91750 22200 00223 10601 70003 333 91205 555 11031 22032 31653 40305 61749 358029 359024 002030 003030 012028 018029
BBXX 42055 09181 99222 70940 46/// /1008 10240 20163 40196 57003 91750 22200 00250 10402 20402 305// 40801 70010 333 91209 555 11083 22087 31655 41011 61749 096079 094077 091080 092077 094081 092090 80910 91655
BBXX A8TG2 09184 99303 71328 41598 80214 10170 20094 40210 54000 70255 8546/ 22224 20204 305// 40204 5//// 80130
BBXX C6DM2 09183 99055 11002 418// 70505 10270 20243 40100 50010 7//22 87/5/ 22272 0//// 2//// 3//// 4//// 5//// 6//// 80250 ICE /////
BBXX NWS0022 09184 99416 70714 43/// /2120 10118 20066 40254 5//// 7//// 8//// 222// 04124 2//// 3//// 4//// 5//// 6//// 8//// ICE /////
BBXX VCPX 09184 99426 70801 41/96 92408 10002 2//// 41021 54010 70727 8//// 22200 00070 20101 3//// 4//// 5//// 6//// 8//// ICE /////
BBXX C6XC2 09184 99233 11284 41498 80626 10190 20175 40180 57030 70222 8895/ 22244 00260 2//// 3//// 4//// 5//// 6//// 80180 ICE /////
BBXX WTD4576 09183 99594 71421 41/97 82215 10044 2//// 40125 52/// 761// 8//// 222// 0//// 2//02 322// 4//05 5//// 6//// 8//// ICE /////
BBXX LAOW5 09184 99000 50985 41/95 91310 10210 20210 40134 52034 74544 89/// 22254 00198 20201 316// 40202 5//// 6//// 80210 ICE /////
BBXX C6YA5 09183 99483 50750 41595 83430 10132 2//// 40030 56010 71255 887// 22233 00130 20401 3//// 4//// 5//// 6//// 8//// ICE /////
BBXX WDC6698 09184 99099 71426 43/// /0313 10274 20262 40100 5//// 7//// 8//// 222// 04257 2//// 3//// 4//// 5//// 6//// 8//// ICE /////
BBXX WE3592 09184 99468 70858 43/// 72734 11055 2//// 40159 54/// 7//// 8//// 222// 0//// 2//06 3//// 4//// 5//// 6//// 8//// ICE /////
BBXX PINX 09184 99214 70700 41497 50628 10260 2//// 40140 50020 70182 84251 22274 00270 20202 30505 40704 5//// 6//// 8//// ICE /////
BBXX WDJK 09184 99554 71425 41598 62423 10050 20028 40190 54000 70222 8619/ 22233 00050 20602 325// 41005 5//// 6//// 80040 ICE /////
BBXX VRHO2 09184 99502 71468 41498 32725 10080 20013 40250 5/010 7//22 83900 222// 00070 20804 32727 40803 50903 6//// 80050 ICE /////
BBXX WDF5483 09184 99419 70828 43/97 82616 10005 2//// 40227 5//// 7//// 8//// 22262 0//// 2//01 3//// 4//// 5//// 6//// 8//// ICE /////
BBXX 44025 09181 99402 70732 46/// /2008 10108 20055 40258 58021 91750 22200 00119 10902 20402 314// 40901 70010 333 91209 555 11085 22090 31740 42110 61749 204082 195074 197080 205076 199077 203074
BBXX 41008 09181 99314 70809 46/// /0206 10152 20141 40232 58007 91750 22200 00171 10902 20502 300// 40901 70011 333 91208 555 11067 22070 31716 40208 61749 020064 018066 016067 018071 020070 015071
BBXX 44014 09181 99366 70748 46/// /1006 1//// 40252 58019 91750 22200 00157 10902 20501 309// 40901 70010 333 91207 555 11062 22062 31731 41008 61749 100062 103065 102065 103065 102061 101061
BBXX 41004 09181 99325 70791 46/// /3407 10175 20158 40227 58009 91750 22200 00214 10803 20602 3//// 40802 70015 333 91208 555 11071 22074 31730 43508 61749 344068 352067 354067 002060 010053 003061
BBXX 44009 09181 99385 70747 46/// /1507 10118 40266 58025 91750 22200 00130 10802 20301 300// 40801 70008 333 91209 555 11076 22080 31740 41409 61749 147072 147070 150070 152068 153064 155060
BBXX 44027 09181 99443 70673 46/// /2209 10076 20005 40251 57010 91750 22200 00091 11104 20603 3//// 41103 70022 333 91212 555 11100 22105 31714 42313 61749 222095 221096 226103 229107 225102 226093
BBXX 41013 09181 99334 70777 46/// /1305 10209 20122 40223 58017 91750 22200 00226 10803 20401 309// 40802 70013 333 91207 555 11047 22049 31722 41308 61749 125045 140040 137043 148049 144046 143049
BBXX 44065 09181 99404 70737 46/// /2105 10095 20054 40261 58022 91750 22200 00118 10801 315// 40801 70006 333 91206 555 11053 22055 31724 42106 61749 210050 217046 209049 214040 211039 202039 82106 91749
BBXX 44020 09181 99414 70702 46/// /1908 10104 20056 40263 57022 91750 22200 00098 10301 20301 70006 333 91210 555 11086 22091 31731 42510 61749 200081 248084 248086 248084 247085 246081
BBXX 44018 09181 99421 70696 46/// /1809 10083 20057 40265 56029 91750 22200 00096 11102 20402 3//// 41101 70012 333 91211 555 11095 22100 31716 41811 61749 182090 177092 181092 178090 178090 183088
BBXX 46105 09181 99590 71522 46/// ///// 1//// 91750 22200 10603 70017
BBXX 46070 09181 99551 11753 46/// /1905 10013 21017 49760 58035 91750 22200 00045 10907 20502 3//// 40907 70035 333 91207 555 11056 22058 31713 42014 61749 188055 190046 200064 199110 192093 186079 82012 91714
BBXX 46078 09181 99561 71526 46/// ///// 1//// 40185 91750
BBXX 46053 09181 99342 71198 46/// /2801 10135 40212 51018 91750 22200 00142 333 91202 555 11014 22015 31650 42702 61749 276014 288014 307013 304012 306010 308011
BBXX 46014 09181 99394 71240 46/// /0000 10094 40238 53012 91750 22200 00115 11904 20401 3//// 41904 70020 333 91201 555 11002 22002 31702 40904 61749 154002 116002 123010 103021 090028 098026
BBXX 46011 09181 99350 71210 46/// /0501 10124 40226 51019 91750 22200 00141 12103 330// 42102 70013 333 91202 555 11008 22008 31710 40902 61749 056008 051008 053009 073008 097006 093004
BBXX 46047 09181 99324 71195 46/// /3205 10129 40219 51017 91750 22200 00143 12102 20401 336// 42102 70011 333 91206 555 11052 22054 31659 43307 61749 322049 322048 318051 320051 320052 325053
BBXX 46027 09181 99419 71244 46/// /1704 10070 40233 51014 91750 22200 00095 11904 20401 328// 41904 70019 333 91205 555 11043 22044 31656 41606 61749 173040 175041 172044 167041 161045 158046
BBXX 46086 09181 99325 71180 46/// /3102 10150 40211 51017 91750 22200 00159 11402 20401 326// 41402 70009 333 91203 555 11023 22023 31747 43103 61749 311022 314020 322016 316015 313011 340015
BBXX 46088 09181 99483 71232 46/// /0104 10043 40266 91750 22200 00081 1//00 70001 333 91205 555 11037 22038 31734 43605 61749 007036 006037 006036 004036 008037 024037
BBXX 46050 09181 99442 71246 46/// /0905 10079 40233 53008 91750 22200 00103 11704 20401 330// 41704 70019 333 91206 555 11048 22050 31700 40907 61749 089047 079054 070051 072050 079056 085052
BBXX 46069 09181 99337 71202 46/// /3205 10127 40216 51017 91750 22200 00132 12102 20401 335// 42102 70012 333 91206 555 11056 22059 31653 43307 61749 319053 323052 317055 317055 316056 320059
BBXX 46012 09181 99374 71229 46/// /0402 10109 40227 53014 91750 22200 00119 12103 20401 329// 42103 70016 333 91202 555 11015 22016 31708 40403 61749 041014 039016 041019 037023 031023 034018
BBXX 46013 09181 99382 71233 46/// /0806 10099 40231 52015 91750 22200 00105 12104 20501 3//// 42104 70018 333 91207 555 11066 22069 31655 40809 61749 074062 072062 072067 071067 074067 079073
BBXX 46087 09181 99485 71247 46/// /1009 10058 20043 40257 54000 91750 22200 00081 11902 20501 323// 41902 70011 333 91210 555 11093 22098 31704 41012 61749 097088 102088 102089 102094 102095 102093
BBXX 46029 09181 99461 71245 46/// /0807 10064 20033 40235 52004 91750 22200 00077 11703 20602 330// 41703 70016 333 91208 555 11075 22079 31746 40708 61749 075070 076064 075058 080054 081051 078055
BBXX 46054 09181 99342 71204 46/// /3103 10132 40217 51018 91750 22200 00140 12103 20401 300// 42102 70013 333 91204 555 11035 22037 31714 43104 61749 313033 311034 312035 311035 311033 319032
BBXX 46028 09181 99357 71219 46/// /2902 10121 40222 51018 91750 22200 00129 12102 330// 42102 70012 333 91203 555 11024 22024 31730 42903 61749 293023 289023 294022 295022 305022 301024
BBXX 46025 09181 99337 71191 46/// /3101 10146 40215 51015 91750 22200 00153 11201 20401 325// 41201 70006 333 91201 555 11010 22010 31650 43602 61749 306010 301010 325008 333011 354012 003012
BBXX 32012 09181 99197 50856 46/// ///// 1//// 91750 22200 11404 70022
BBXX 46002 09181 99426 71305 46/// ///// 10103 40260 52005 91750 22200 00124 11705 70027
BBXX 46006 09181 99408 71375 46/// /0603 10109 40281 54000 91750 22200 00126 11706 20401 3//// 41706 70031 333 91204 555 11026 22026 31726 40905 61749 058026 058026 055031 069031 063030 049035
BBXX 46084 09181 99566 71361 46/// /2904 10064 20048 40155 57009 91750 22200 00077 11006 20401 300// 41006 70029 333 91206 555 11045 22047 31652 42707 61749 287043 288043 283043 286046 289050 284053
BBXX 46078 09181 99561 71526 46/// ///// 1//// 40185 91750
BBXX 46075 09181 99539 71608 46/// /2207 10047 20030 40233 53007 91750 22200 00053 11308 20603 300// 41307 70040 333 91209 555 11073 22077 31700 42210 61749 223069 224069 224077 220074 224076 225077 82208 91700
BBXX 46005 09181 99461 71310 46/// ///05 10069 40273 54000 91750 22200 00101 11704 20401 3//// 41704 70019 333 91207 555 11050 22052
BBXX 46059 09181 99380 71300 46/// /0304 10114 40247 52014 91750 22200 00147 11705 20401 3//// 41705 70025 333 91206 555 11045 22046 31735 40407 61749 030042 031045 051045 062034 062039 055047
BBXX 46080 09181 99580 71500 46/// /2808 10040 20028 40142 53022 91750 22200 00053 11005 20604 3//// 41003 70026 333 91209 555 11079 22084 31651 43209 61749 283075 280074 286071 300066 302062 314075 82808 91730
BBXX DCLH2 09180 99262 50795 41798 81807 10205 20132 40175 54000 70222 8/070 22273 06190 2//// 3//// 4//// 5//// 80160
BBXX LAOW5 09184 99000 50985 41/95 91310 10210 20210 40134 52034 74544 89/// 22254 00198 20201 316// 40202 5//// 6//// 80210 ICE /////
BBXX C6YA5 09183 99483 50750 41595 83430 10132 2//// 40030 56010 71255 887// 22233 00130 20401 3//// 4//// 5//// 6//// 8//// ICE /////
BBXX 5BDK2 09184 99201 50708 43/// 32013 10240 2018/ 40170 5//// 7//// 8//// 22273 00220 21304 32333 41504 5//// 6//// 80200 ICE /////
BBXX HZGN 09183 99246 10595 41/99 12505 10234 20091 40195 54000 70200 8///1 22224 02216 299// 311// 40501 5//// 80151
BBXX DBKV/ 09181 99247 70186 46/// /0508 10213 20169 40164 57003 22253 00215
BBXX 2AKI2 09183 99350 30246 412// 80836 10175 20131 40149 56001 8572/ 00233 29903 318// 40708 5//// 80150
BBXX ONCE 09184 99181 50166 41398 61016 10220 2017/ 40150 54000 70222 82288 22234 00230 20102 310// 40703 5//// 6//// 80190 ICE /////
BBXX C6OM7 09183 99331 30170 41398 61423 10182 20104 40154 55005 70211 85188 22273 00160 20806 32300 41205 50000 80140
BBXX DBBT 09181 99425 30092 46/// /2106 10081 20037 40227 52011 22241 00111
BBXX SHIP 09184 99107 11268 41598 21606 10270 2024/ 40110 56010 70200 81139 22253 0//// 20601 306// 40902 5//// 6//// 80250 ICE /////
BBXX SHIP 09184 99055 10917 41798 20710 10270 2024/ 40115 54000 70200 81108 22223 00370 20401 3//// 4//// 5//// 6//// 80245 ICE /////
BBXX C6XC2 09184 99233 11284 41498 80626 10190 20175 40180 57030 70222 8895/ 22244 00260 2//// 3//// 4//// 5//// 6//// 80180 ICE /////
BBXX C6DM2 09183 99055 11002 418// 70505 10270 20243 40100 50010 7//22 87/5/ 22272 0//// 2//// 3//// 4//// 5//// 6//// 80250 ICE /////
BBXX LAJS6 09184 99500 11799 41597 81542 10070 2005/ 49860
BBXX WCX8883 09184 99320 11329 41/// 93211 10120 2004/ 40210 54000 70222 89/// 22211 00230 2//// 3//// 4//// 5//// 6//// 80080 ICE /////
BBXX DCCP2 09180 99075 11091 41/98 53610 10250 20225 40080 57005 70211 8//// 22213 00260 2//// 3//// 4//// 5//// 80232
BBXX SHIP 09184 99370 70635 41696 64521 10180 20131 40276 51005 75102 866// 91745 22214 0//// 1//// 20606 325// 40606 5//// 6//// 80150 /////
BBXX PINX 09184 99214 70700 41497 50628 10260 2//// 40140 50020 70182 84251 22274 00270 20202 30505 40704 5//// 6//// 8//// ICE /////
BBXX WKPN 09184 99417 70577 41398 83516 10080 2003/ 40300 58010 70322 886// 22225 00205 20302 32734 40724 50518 6//// 80055 ICE /////
BBXX C6YA7 09184 99296 71788 41698 21809 10200 2017/ 40210 54000 70200 811// 22263 0//// 2//// 3//// 4//// 5//// 6//// 80180 ICE /////
BBXX WSLH 09184 99439 71336 41498 70505 10085 2007/ 40280 54000 71652 854/1 22215 00100 21201 308// 41804 5//// 6//// 80075 ICE /////
BBXX LADQ4 09184 99453 70391 41499 72919 10140 2010/ 40210 54000 70222 8794/ 22223 00140 21202 329// 41204 5//// 6//// 80120
BBXX LAYG5 09184 99542 71548 41598 72923 10050 20000 40230 51015 70201 8749/ 22263 00075 21104 327// 4//// 5//// 80030
BBXX 4XFV 09183 99542 71633 43298 82920 10055 00/// 20010 40215 56005 7//// 833// 22274 0//// 2//// ///// 3//// 4//// 5//// 6//// 80035
BBXX 44060 09181 99413 70721 46/// ///04 10079 91745 22200 00119 333 91205 555 11046 22046
BBXX 41012 09181 99300 70805 46/// /0702 10229 40216 58008 91750 22200 00248 10902 20401 310// 40902 70012 333 91204 555 11022 22022 31658 40904 61749 075021 090025 088026 083031 074025 098029
BBXX 41115 09181 99184 70673 46/// ///// 1//// 91735 22200 10803 20803 302// 41101 70014
BBXX 44022 09181 99409 70737 46/// ///07 10087 20025 91745 22200 00101 333 91209 555 11077 22077
BBXX 41114 09181 99276 70802 46/// ///// 1//// 91746 22200 00241 11103 20503 307// 41101 70013
BBXX 46060 09181 99606 71468 46/// /2901 10039 40105 53007 91750 22200 00060 11001 318// 41001 70006 333 91201 555 11006 22006 31740 43002 61749 293006 290009 308007 324008 302003 299002 83002 91740
BBXX 46114 09181 99364 71222 46/// ///// 1//// 91734 22200 00110 12004 21002 330// 42003 70020
BBXX 51205 09181 99210 71564 46/// ///// 1//// 91748 22200 00243 11705 20804 332// 41703 70023
BBXX 46088 09181 99483 71232 46/// /0104 10043 40266 57004 91750 22200 00081 1//00 70001 333 91205 555 11037 22038 31734 43605 61749 007036 006037 006036 004036 008037 024037
BBXX WTD4576 09183 99594 71421 41/97 82215 10044 2//// 40125 52/// 761// 8//// 222// 0//// 2//02 322// 4//05 5//// 6//// 8//// ICE /////
BBXX LADR4 09184 99222 71662 41898 30618 00/// 10230 2020/ 40200 55010 70200 83063 22273 00280 20504 3//// 4//// 5//// 6//// 80210
BBXX A8SI3 09183 99545 71696 43698 11430 10040 2002/ 40160 52010 22224 00040 20607 80030
BBXX ELWR5 09183 99219 71102 41/98 43308 10270 20248 40170 50/// 7//// 8/100 22274 04265 20801 80254
BBXX A8TG2 09184 99303 71328 41598 80214 10170 20094 40210 54000 70255 8546/ 22224 20204 305// 40204 5//// 80130
BBXX 44098 09181 99428 70702 46/// ///// 1//// 91737 22200 00096 10503 20503 312// 41101 70015
BBXX 46211 09181 99469 71242 46/// ///// 1//// 91736 22200 00088 11804 20702 327// 41804 70021
BBXX 46217 09181 99342 71194 46/// ///// 1//// 91742 22200 00147 11301 21001 327// 41301 70006
BBXX 46237 09181 99378 71226 46/// ///// 1//// 91740 22200 00112 12003 21001 326// 42003 70015
BBXX 46240 09181 99366 71219 46/// ///// 1//// 91742 22200 00115 12202 21001 300// 42201 70008
BBXX 46212 09181 99408 71243 46/// ///// 1//// 91742 22200 00096 12004 20803 330// 42003 70022
BBXX 46249 09181 99338 71197 46/// ///// 1//// 91745 22200 00143 11201 20601 324// 41201 70006
BBXX 46248 09181 99461 71247 46/// ///// 1//// 91734 22200 00094 11804 20402 329// 41804 70021
BBXX 46244 09181 99409 71244 46/// ///// 1//// 91735 22200 00098 12004 20803 329// 42003 70021
BBXX NWS0021 09184 99317 70642 43/// /1204 10227 20163 40226 5//// 7//// 8//// 222// 04231 2//// 3//// 4//// 5//// 6//// 8//// ICE /////
BBXX 42364 09181 99291 70881 46/// /3503 10161 20078 40251 91745
BBXX 42363 09181 99282 70892 46/// /0308 10178 20083 40254 91745 333 91208
BBXX ELUC5 09184 99215 51751 41598 61010 10260 20232 40140 54000 70200 81286 22264 20501 305// 41502 80240
BBXX A8SF9 09184 99421 31549 41397 60618 10135 20118 40180 55008 70311 8567/ 22234 04150 80125
BBXX VRZN7 09184 99013 51637 415// 60715 10250 2022/ 40100 51020 7//22 8626/ 22253 04270 20306 314// 4//// 5//// 85230
BBXX A8OZ4 09184 99331 10294 43998 03321 10160 20070 40230 51020 7//// 80/// 22274 00180 2//// 3//// 4//// 5//// 80110
BBXX A8OZ4 09184 99331 10294 43998 03321 10160 20070 40230 51020 7//// 80/// 22274 00180 2//// 3//// 4/ /// 5//// 80110
BBXX DBFR 09181 99552 10151 46/// /2318 10061 20040 49946 52009 22220 00068
BBXX DBBU 09181 99544 10113 46/// /2411/1/044 20021 49991 52009 22271/00077
AAXX 09181 76040 32960 03401 10148 20028 30220 40234 52018 91750 333 10194 20010 30/// 58018 98660
AAXX 09181 76055 32980 03306 10171 21045 30188 40207 52015 91440 333 10188 20042 30/// 58015
AAXX 09181 76061 32981 10602 10146 20046 30155 40231 52018 80001 91740 333 10148 20060 30/// 56005 58015 81072
AAXX 09181 76220 32858 80000 10078 21022 38182 40290 52009 81035 91740 333 10078 21052 30/// 56066 58010 87070
AAXX 09181 76256 32980 33202 10170 20034 30190 40204 52017 80001 91745 333 10184 20092 30/// 56//5 58009 83070
AAXX 09181 76305 32970 33401 10208 20098 30189 40197 52014 80003 91740 333 10212 20118 30/// 56005 58008 83070
AAXX 09181 76342 31862 63602 10178 20008 39539 40264 52012 70221 86070 91750 333 10184 20076 30/// 56050 58010 86357
AAXX 09181 76390 31962 21603 10197 21071 38257 40193 52008 70544 80004 91730 333 10208 20048 30/// 56005 58017 82070
AAXX 09181 76402 31957 30901 10224 20143 30134 40192 52013 70544 80005 91745 333 10227 20106 30/// 56006 58010
AAXX 09181 76458 32970 23004 10222 20171 30174 40178 50002 80005 91740 333 10243 20132 30/// 56//6 59003 82072
AAXX 09181 76491 32960 03601 10220 20110 39831 40231 52007 91745 333 10232 20048 30/// 59029
AAXX 09181 76499 32862 30000 10252 20137 30174 40196 57001 83030 91755 333 10253 20125 30/// 56090 59027 83357
AAXX 09181 76525 32980 32103 10124 21004 37497 40181 52007 80001 91740 333 10126 20082 30/// 56//5 58012 83080
AAXX 09181 76539 31965 03601 10212 20027 38179 40212 52006 70544 91745 333 10228 20039 30/// 59003
AAXX 09181 76548 32875 62002 10228 20157 30204 40214 50005 8607/ 91745 333 10232 20160 30/// 59034 86358
AAXX 09181 76556 32970 13602 10254 20122 39150 40181 52013 80001 91730 333 10256 20122 30/// 56005 59002 81070
AAXX 09181 76577 32970 32304 10190 20144 38065 40188 50001 80003 91740 333 10199 20084 30/// 56005 59003
AAXX 09181 76581 32970 00301 10178 20125 39071 40199 57006 91750 333 10182 20068 30/// 59014
AAXX 09181 76585 32980 60000 10222 20181 30041 40200 50000 86070 91735 333 10225 20157 30/// 56/5/ 59026 86358
AAXX 09181 76625 32950 02704 10210 20078 38159 40157 57001 91740 333 10210 20096 30/// 59006
AAXX 09181 76658 31558 20902 10291 20150 39651 40158 57006 70540 81201 91742 333 10298 20175 30/// 56201 59009 81822 81070 94082 98924
AAXX 09181 76662 32970 32302 10224 20111 38477 40174 57017 81202 91745 333 10232 20060 30/// 56/0/ 59005 81833
AAXX 09181 76675 31970 00502 10170 20018 37392 40206 56001 70544 91745 333 10175 20000 30/// 59007 98470
AAXX 09181 76683 32970 00901 10203 20085 37840 40218 56010 91745 333 10215 20036 30/// 59008
AAXX 09181 76685 31965 00000 10204 20043 37883 40176 52029 70544 92055 333 30/// 569// 59002
AAXX 09181 76687 31468 51601 10188 20130 38709 40212 50003 70311 85100 91740 333 10196 20098 30/// 563// 59015 82623 83826
AAXX 09181 76692 31556 50903 10253 20182 30180 40200 57009 70544 84230 91745 333 10262 20178 30/// 5633/ 59030 81818 83630
AAXX 09181 76737 31480 31402 10208 20140 38801 40200 58001 70300 83200 91735 333 10215 20096 30/// 56200 59019 82813 91106 91514
AAXX 09181 76762 32904 03602 10276 20224 38773 40161 51005 91730 333 10277 20114 30/// 59023
AAXX 09181 76775 31970 00901 10238 20087 38538 40194 57008 70200 91730 333 10240 20078 30/// 59015
AAXX 09181 76833 32970 03610 10294 20260 30135 40137 57009 91745 333 10294 20212 30/// 59003 92001
AAXX 09181 76840 32550 10304 10309 20189 30077 40133 57009 81200 91740 333 10316 20190 30/// 568// 59008 81827
AAXX 09181 76845 32960 00602 10190 20126 37958 40186 56009 91745 333 10198 20048 30/// 59007
AAXX 09181 76243 32473 73601 10150 20079 39942 40246 52016 87300 91735 333 10162 20050 30/// 56800 58009 87616
AAXX 09181 76253 32782 30503 10178 20100 30119 40209 53011 83020 91754 333 10190 20125 30/// 56050 58006 83457 92002
AAXX 09181 76405 32880 73601 10214 20156 30176 40196 51013 87020 91750 333 10214 20138 30/// 56050 58007 87557
AAXX 09181 76412 31966 02201 10224 20106 30140 40185 57015 70544 91750 333 10228 20090 30/// 59014
AAXX 09181 76640 11358 83202 10198 20179 30212 40224 52006 69921 70222 8652/ 91740 333 10214 20166 30/// 5679/ 59041 86608
AAXX 09181 76741 31460 40000 10237 20210 30151 40170 52005 70544 83230 91735 333 10241 20160 30/// 562// 59024 83811
AAXX 09181 76843 32465 30202 10264 20164 39511 57014 83200 91740 333 10269 20170 30/// 59019 83828
AAXX 09181 76855 32580 11301 10300 20237 30075 40124 50004 81200 91740 333 10310 20206 30/// 56900 58001 81820 92000
AAXX 09181 76040 32960 03401 10148 20028 30220 40234 52018 91750 33310194 20010 30/// 58018 98660
AAXX 09181 76055 32980 03306 10171 21045 30188 40207 52015 91440 33310188 20042 30/// 58015
AAXX 09181 76061 32981 10602 10146 20046 30155 40231 52018 80001 91740333 10148 20060 30/// 56005 58015 81072
AAXX 09181 76220 32858 80000 10078 21022 38182 40290 52009 81035 91740333 10078 21052 30/// 56066 58010 87070
AAXX 09181 76256 32980 33202 10170 20034 30190 40204 52017 80001 91745333 10184 20092 30/// 56//5 58009 83070
AAXX 09181 76305 32970 33401 10208 20098 30189 40197 52014 80003 91740333 10212 20118 30/// 56005 58008 83070
AAXX 09181 76342 31862 63602 10178 20008 39539 40264 52012 70221 8607091750 333 10184 20076 30/// 56050 58010 86357
AAXX 09181 76390 31962 21603 10197 21071 38257 40193 52008 70544 8000491730 333 10208 20048 30/// 56005 58017 82070
AAXX 09181 76402 31957 30901 10224 20143 30134 40192 52013 70544 8000591745 333 10227 20106 30/// 56006 58010
AAXX 09181 76458 32970 23004 10222 20171 30174 40178 50002 80005 91740333 10243 20132 30/// 56//6 59003 82072
AAXX 09181 76491 32960 03601 10220 20110 39831 40231 52007 91745 33310232 20048 30/// 59029
AAXX 09181 76499 32862 30000 10252 20137 30174 40196 57001 83030 91755333 10253 20125 30/// 56090 59027 83357
AAXX 09181 76525 32980 32103 10124 21004 37497 40181 52007 80001 91740333 10126 20082 30/// 56//5 58012 83080
AAXX 09181 76539 31965 03601 10212 20027 38179 40212 52006 70544 91745333 10228 20039 30/// 59003
AAXX 09181 76548 32875 62002 10228 20157 30204 40214 50005 8607/ 91745333 10232 20160 30/// 59034 86358
AAXX 09181 76556 32970 13602 10254 20122 39150 40181 52013 80001 91730333 10256 20122 30/// 56005 59002 81070
AAXX 09181 76577 32970 32304 10190 20144 38065 40188 50001 80003 91740333 10199 20084 30/// 56005 59003
AAXX 09181 76581 32970 00301 10178 20125 39071 40199 57006 91750 33310182 20068 30/// 59014
AAXX 09181 76585 32980 60000 10222 20181 30041 40200 50000 86070 91735333 10225 20157 30/// 56/5/ 59026 86358
AAXX 09181 76625 32950 02704 10210 20078 38159 40157 57001 91740 33310210 20096 30/// 59006
AAXX 09181 76658 31558 20902 10291 20150 39651 40158 57006 70540 8120191742 333 10298 20175 30/// 56201 59009 81822 81070 9408298924
AAXX 09181 76662 32970 32302 10224 20111 38477 40174 57017 81202 91745333 10232 20060 30/// 56/0/ 59005 81833
AAXX 09181 76675 31970 00502 10170 20018 37392 40206 56001 70544 91745333 10175 20000 30/// 59007 98470
AAXX 09181 76683 32970 00901 10203 20085 37840 40218 56010 91745 33310215 20036 30/// 59008
AAXX 09181 76685 31965 00000 10204 20043 37883 40176 52029 70544 92055333 30/// 569// 59002
AAXX 09181 76687 31468 51601 10188 20130 38709 40212 50003 70311 8510091740 333 10196 20098 30/// 563// 59015 82623 83826
AAXX 09181 76692 31556 50903 10253 20182 30180 40200 57009 70544 8423091745 333 10262 20178 30/// 5633/ 59030 81818 83630
AAXX 09181 76737 31480 31402 10208 20140 38801 40200 58001 70300 8320091735 333 10215 20096 30/// 56200 59019 82813 91106 91514
AAXX 09181 76762 32904 03602 10276 20224 38773 40161 51005 91730 33310277 20114 30/// 59023
AAXX 09181 76775 31970 00901 10238 20087 38538 40194 57008 70200 91730333 10240 20078 30/// 59015
AAXX 09181 76833 32970 03610 10294 20260 30135 40137 57009 91745 33310294 20212 30/// 59003 92001
AAXX 09181 76840 32550 10304 10309 20189 30077 40133 57009 81200 91740333 10316 20190 30/// 568// 59008 81827
AAXX 09181 76845 32960 00602 10190 20126 37958 40186 56009 91745 33310198 20048 30/// 59007
AAXX 09181 76243 32473 73601 10150 20079 39942 40246 52016 87300 91735333 10162 20050 30/// 56800 58009 87616
AAXX 09181 76253 32782 30503 10178 20100 30119 40209 53011 83020 91754333 10190 20125 30/// 56050 58006 83457 92002
AAXX 09181 76405 32880 73601 10214 20156 30176 40196 51013 87020 91750333 10214 20138 30/// 56050 58007 87557
AAXX 09181 76412 31966 02201 10224 20106 30140 40185 57015 70544 91750333 10228 20090 30/// 59014
AAXX 09181 76640 11358 83202 10198 20179 30212 40224 52006 69921 702228652/ 91740 333 10214 20166 30/// 5679/ 59041 86608
AAXX 09181 76741 31460 40000 10237 20210 30151 40170 52005 70544 8323091735 333 10241 20160 30/// 562// 59024 83811
AAXX 09181 76843 32465 30202 10264 20164 39511 57014 83200 91740 33310269 20170 30/// 59019 83828
AAXX 09181 76855 32580 11301 10300 20237 30075 40124 50004 81200 91740333 10310 20206 30/// 56900 58001 81820 92000
AAXX 09181 76040 32960 03401 10148 20028 30220 40234 52018 91750 333 10194 20010 30/// 58018 98660
AAXX 09181 76055 32980 03306 10171 21045 30188 40207 52015 91440 333 10188 20042 30/// 58015
AAXX 09181 76061 32981 10602 10146 20046 30155 40231 52018 80001 91740 333 10148 20060 30/// 56005 58015 81072
AAXX 09181 76220 32858 80000 10078 21022 38182 40290 52009 81035 91740 333 10078 21052 30/// 56066 58010 87070
AAXX 09181 76256 32980 33202 10170 20034 30190 40204 52017 80001 91745 333 10184 20092 30/// 56//5 58009 83070
AAXX 09181 76305 32970 33401 10208 20098 30189 40197 52014 80003 91740 333 10212 20118 30/// 56005 58008 83070
AAXX 09181 76342 31862 63602 10178 20008 39539 40264 52012 70221 86070 91750 333 10184 20076 30/// 56050 58010 86357
AAXX 09181 76390 31962 21603 10197 21071 38257 40193 52008 70544 80004 91730 333 10208 20048 30/// 56005 58017 82070
AAXX 09181 76402 31957 30901 10224 20143 30134 40192 52013 70544 80005 91745 333 10227 20106 30/// 56006 58010
AAXX 09181 76458 32970 23004 10222 20171 30174 40178 50002 80005 91740 333 10243 20132 30/// 56//6 59003 82072
AAXX 09181 76491 32960 03601 10220 20110 39831 40231 52007 91745 333 10232 20048 30/// 59029
AAXX 09181 76499 32862 30000 10252 20137 30174 40196 57001 83030 91755 333 10253 20125 30/// 56090 59027 83357
AAXX 09181 76525 32980 32103 10124 21004 37497 40181 52007 80001 91740 333 10126 20082 30/// 56//5 58012 83080
AAXX 09181 76539 31965 03601 10212 20027 38179 40212 52006 70544 91745 333 10228 20039 30/// 59003
AAXX 09181 76548 32875 62002 10228 20157 30204 40214 50005 8607/ 91745 333 10232 20160 30/// 59034 86358
AAXX 09181 76556 32970 13602 10254 20122 39150 40181 52013 80001 91730 333 10256 20122 30/// 56005 59002 81070
AAXX 09181 76577 32970 32304 10190 20144 38065 40188 50001 80003 91740 333 10199 20084 30/// 56005 59003
AAXX 09181 76581 32970 00301 10178 20125 39071 40199 57006 91750 333 10182 20068 30/// 59014
AAXX 09181 76585 32980 60000 10222 20181 30041 40200 50000 86070 91735 333 10225 20157 30/// 56/5/ 59026 86358
AAXX 09181 76625 32950 02704 10210 20078 38159 40157 57001 91740 333 10210 20096 30/// 59006
AAXX 09181 76658 31558 20902 10291 20150 39651 40158 57006 70540 81201 91742 333 10298 20175 30/// 56201 59009 81822 81070 94082 98924
AAXX 09181 76662 32970 32302 10224 20111 38477 40174 57017 81202 91745 333 10232 20060 30/// 56/0/ 59005 81833
AAXX 09181 76675 31970 00502 10170 20018 37392 40206 56001 70544 91745 333 10175 20000 30/// 59007 98470
AAXX 09181 76683 32970 00901 10203 20085 37840 40218 56010 91745 333 10215 20036 30/// 59008
AAXX 09181 76685 31965 00000 10204 20043 37883 40176 52029 70544 92055 333 30/// 569// 59002
AAXX 09181 76687 31468 51601 10188 20130 38709 40212 50003 70311 85100 91740 333 10196 20098 30/// 563// 59015 82623 83826
AAXX 09181 76692 31556 50903 10253 20182 30180 40200 57009 70544 84230 91745 333 10262 20178 30/// 5633/ 59030 81818 83630
AAXX 09181 76737 31480 31402 10208 20140 38801 40200 58001 70300 83200 91735 333 10215 20096 30/// 56200 59019 82813 91106 91514
AAXX 09181 76762 32904 03602 10276 20224 38773 40161 51005 91730 333 10277 20114 30/// 59023
AAXX 09181 76775 31970 00901 10238 20087 38538 40194 57008 70200 91730 333 10240 20078 30/// 59015
AAXX 09181 76833 32970 03610 10294 20260 30135 40137 57009 91745 333 10294 20212 30/// 59003 92001
AAXX 09181 76840 32550 10304 10309 20189 30077 40133 57009 81200 91740 333 10316 20190 30/// 568// 59008 81827
AAXX 09181 76845 32960 00602 10190 20126 37958 40186 56009 91745 333 10198 20048 30/// 59007
AAXX 09181 76243 32473 73601 10150 20079 39942 40246 52016 87300 91735 333 10162 20050 30/// 56800 58009 87616
AAXX 09181 76253 32782 30503 10178 20100 30119 40209 53011 83020 91754 333 10190 20125 30/// 56050 58006 83457 92002
AAXX 09181 76405 32880 73601 10214 20156 30176 40196 51013 87020 91750 333 10214 20138 30/// 56050 58007 87557
AAXX 09181 76412 31966 02201 10224 20106 30140 40185 57015 70544 91750 333 10228 20090 30/// 59014
AAXX 09181 76640 11358 83202 10198 20179 30212 40224 52006 69921 70222 8652/ 91740 333 10214 20166 30/// 5679/ 59041 86608
AAXX 09181 76741 31460 40000 10237 20210 30151 40170 52005 70544 83230 91735 333 10241 20160 30/// 562// 59024 83811
AAXX 09181 76843 32465 30202 10264 20164 39511 57014 83200 91740 333 10269 20170 30/// 59019 83828
AAXX 09181 76855 32580 11301 10300 20237 30075 40124 50004 81200 91740 333 10310 20206 30/// 56900 58001 81820 92000
OOXX AAEMI 09184 99785 31731 57083 00521 46/// /3606 11054 21071 39716 49780 5//// 91740
AAXX 09184 78062 12565 60511 10259 20216 40193 60001 86870 333 58004 83820 85640 90908
AAXX 09184 96315 11260 72005 10246 20241 40080 60073 71086 82848 333 81705 85364
AAXX 09184 96323 NIL
AAXX 09184 78062 12565 60511 10259 20216 40193 60001 86870 333 58004 83820 85640 90908
BBXX 46002 09181 99426 71305 46/// ///// 10103 40260 52005 91750 22200 00124 11705 70027
BBXX 46005 09181 99461 71310 46/// ///05 10069 40273 54000 91750 22200 00101 11704 20401 3//// 41704 70019 333 91207 555 11050 22052
BBXX 46006 09181 99408 71375 46/// /0603 10109 40281 54000 91750 22200 00126 11706 20401 3//// 41706 70031 333 91204 555 11026 22026 31726 40905 61749 058026 058026 055031 069031 063030 049035
BBXX 46014 09181 99394 71240 46/// /0000 10094 40238 53012 91750 22200 00115 11904 20401 3//// 41904 70020 333 91201 555 11002 22002 31702 40904 61749 154002 116002 123010 103021 090028 098026
BBXX 46028 09181 99357 71219 46/// /2902 10121 40222 51018 91750 22200 00129 12102 330// 42102 70012 333 91203 555 11024 22024 31730 42903 61749 293023 289023 294022 295022 305022 301024
BBXX 46050 09181 99442 71246 46/// /0905 10079 40233 53008 91750 22200 00103 11704 20401 330// 41704 70019 333 91206 555 11048 22050 31700 40907 61749 089047 079054 070051 072050 079056 085052
BBXX A8TG2 09184 99303 71328 41598 80214 10170 20094 40210 54000 70255 8546/ 22224 20204 305// 40204 5//// 80130
BBXX KAWM 09184 99549 71413 41497 82819 10047 20020 40155 54000 70222 85470 22233 0//// 20502 325// 40805 5//// 6//// 80035 ICE /////
BBXX VRHO2 09184 99502 71468 41498 32725 10080 20013 40250 5/010 7//22 83900 222// 00070 20804 32727 40803 50903 6//// 80050 ICE /////
BBXX WDJK 09184 99554 71425 41598 62423 10050 20028 40190 54000 70222 8619/ 22233 00050 20602 325// 41005 5//// 6//// 80040 ICE /////
BBXX WSLH 09184 99439 71336 41498 70505 10085 20070 40280 54000 71652 854/1 22215 00100 21201 308// 41804 5//// 6//// 80075 ICE /////
BBXX WTD4576 09183 99594 71421 41/97 82215 10044 2//// 40125 52/// 761// 8//// 222// 0//// 2//02 322// 4//05 5//// 6//// 8//// ICE /////
AAXX 09184 78862 11478 60908 10275 20235 30087 40110 69901 71581 85832 333 10297 20244 59009 84819
AAXX 09184 12/0912 04010KT 9999 SCT022 PROB30 TEMPO 0812/0912 SHRA BKN015
AAXX 09184 TAF TQPF 081000Z 0812/0912 04010KT 9999 SCT022 PROB30 TEMPO 0812/0912 SHRA BKN015
AAXX 09184 TAF TUPJ 081000Z 0812/0912 06010KT 9999 SCT022 PROB30 TEMPO 0812/0912 SHRA BKN015
AAXX 09184 N036
AAXX 09184 TAF TUPJ 071600Z 0718/0818 06008KT 9999 SCT020 BKN280 PROB30 TEMPO 0718/0818 06010G20KT SHRA BKN015 BKN036
AAXX 09184 TEMPO 0600/0624 SHRA BKN015=+TSRA SCT012CB
AAXX 09184 TAF TUPJ 041000Z 04012/0512 07008KT 9999 SCT016 BKN038 SCT270 TEMPO 0412/0512 SHRA BKN015 PROB40 TEMPO 0418/0512 5000 SHRA BKN014 BKN036 PROB30 0420/0512 4000 TSRA FEW012CB
AAXX 09184 918 4000 TSRA FEW012CB
AAXX 09184 N015 BKN036 PROB40 TEMPO 0704/0724 3000 +TSRA SCT011CB BKN012 BECMG 0712/0714 14008KT
AAXX 09184 21/2712 07017G28KT 5000 SHRA BKN015 BKN036 PROB TEMPO 2700/2712 4000 TSRA FEW013CB
AAXX 09184 PROB30 TEMPO 0800/0806 4000 TSRA FEW012CB PROB40 TEMPO 0800/0824 2000 +SHRA/TSRA SCT010CB BKN012 BKN250
AAXX 09184 41170 42962 03306 10192 20087 30196 40209 333 10236 58002
AAXX 09184 78862 11478 60908 10275 20235 30087 40110 69901 71581 85832 333 10297 20244 59009 84819
AAXX 09184 12/0912 04010KT 9999 SCT022 PROB30 TEMPO 0812/0912 SHRA BKN015
AAXX 09184 TAF TQPF 081000Z 0812/0912 04010KT 9999 SCT022 PROB30 TEMPO 0812/0912 SHRA BKN015
AAXX 09184 TAF TUPJ 081000Z 0812/0912 06010KT 9999 SCT022 PROB30 TEMPO 0812/0912 SHRA BKN015
AAXX 09184 N036
AAXX 09184 TAF TUPJ 071600Z 0718/0818 06008KT 9999 SCT020 BKN280 PROB30 TEMPO 0718/0818 06010G20KT SHRA BKN015 BKN036
AAXX 09184 TEMPO 0600/0624 SHRA BKN015=+TSRA SCT012CB
AAXX 09184 TAF TUPJ 041000Z 04012/0512 07008KT 9999 SCT016 BKN038 SCT270 TEMPO 0412/0512 SHRA BKN015 PROB40 TEMPO 0418/0512 5000 SHRA BKN014 BKN036 PROB30 0420/0512 4000 TSRA FEW012CB
AAXX 09184 918 4000 TSRA FEW012CB
AAXX 09184 N015 BKN036 PROB40 TEMPO 0704/0724 3000 +TSRA SCT011CB BKN012 BECMG 0712/0714 14008KT
AAXX 09184 21/2712 07017G28KT 5000 SHRA BKN015 BKN036 PROB TEMPO 2700/2712 4000 TSRA FEW013CB
AAXX 09184 PROB30 TEMPO 0800/0806 4000 TSRA FEW012CB PROB40 TEMPO 0800/0824 2000 +SHRA/TSRA SCT010CB BKN012 BKN250
AAXX 09184 78862 11478 60908 10275 20235 30087 40110 69901 71581 85832 333 10297 20244 59009 84819
AAXX 09184 12/0912 04010KT 9999 SCT022 PROB30 TEMPO 0812/0912 SHRA BKN015
AAXX 09184 TAF TQPF 081000Z 0812/0912 04010KT 9999 SCT022 PROB30 TEMPO 0812/0912 SHRA BKN015
AAXX 09184 TAF TUPJ 081000Z 0812/0912 06010KT 9999 SCT022 PROB30 TEMPO 0812/0912 SHRA BKN015
AAXX 09184 N036
AAXX 09184 TAF TUPJ 071600Z 0718/0818 06008KT 9999 SCT020 BKN280 PROB30 TEMPO 0718/0818 06010G20KT SHRA BKN015 BKN036
AAXX 09184 TEMPO 0600/0624 SHRA BKN015=+TSRA SCT012CB
AAXX 09184 TAF TUPJ 041000Z 04012/0512 07008KT 9999 SCT016 BKN038 SCT270 TEMPO 0412/0512 SHRA BKN015 PROB40 TEMPO 0418/0512 5000 SHRA BKN014 BKN036 PROB30 0420/0512 4000 TSRA FEW012CB
AAXX 09184 918 4000 TSRA FEW012CB
AAXX 09184 N015 BKN036 PROB40 TEMPO 0704/0724 3000 +TSRA SCT011CB BKN012 BECMG 0712/0714 14008KT
AAXX 09184 21/2712 07017G28KT 5000 SHRA BKN015 BKN036 PROB TEMPO 2700/2712 4000 TSRA FEW013CB
AAXX 09184 PROB30 TEMPO 0800/0806 4000 TSRA FEW012CB PROB40 TEMPO 0800/0824 2000 +SHRA/TSRA SCT010CB BKN012 BKN250
AAXX 09184 91772 31498 30705 10256 20236 4//// 60001 70200 83200 333 561// 83817
AAXX 09184 91776 NIL
AAXX 09184 91779 31498 40000 10230 20227 40138 53009 60001 70200 82201 333 569/9 82816 83079
AAXX 09184 91784 31499 20705 10260 20238 40139 53007 60001 70200 82200 333 561// 82818
AAXX 09184 91792 31499 61105 10259 20240 40153 53006 60001 70201 82201 333 562/9 82814 86077
AAXX 09184 85577 12960 02107 10301 20130 39509 40085 57024 60001
AAXX 09184 85585 12598 51205 10207 20106 40185 58005 60001 85500 333 56400 85630
AAXX 09184 85629 12980 02506 10290 20140 40090 57020 60001
AAXX 09184 85672 12970 02405 10288 20126 40118 57015 60001 333
AAXX 09184 85682 12962 02508 10217 20124 40131 57007 60001
AAXX 09184 85743 12960 02705 10245 20109 40129 58018 60001
AAXX 09184 85799 12660 52206 10200 20104 40143 57008 60001 83530 333 56450 83640 84359
AAXX 09184 81405 02570 30807 10306 20238 30077 40086 60001 83831 333 60007 59001 82828 555 60005
AAXX 09184 85406 12980 02310 10217 20135 40121 56006 60001
AAXX 09184 85418 12980 52317 10206 20126 40129 56009 60001 80001 333 56000 85080
AAXX 09184 85442 12565 11912 10198 20110 40123 57014 60001 81500 333 56400 81620
AAXX 09184 85469 42565 51010 10243 20166 40273 52003 85800 333 56200 83820 83630
AAXX 09184 85488 12462 72606 10182 20136 40138 58006 60001 87500 333 56000 83615 87617
AAXX 09184 81405 02570 30807 10306 20238 30077 40086 60001 83831 333 60007 59001 82828 555 60005
AAXX 09184 85836 11770 52309 10188 20071 40151 56012 60001 70281 85050 333 56060 85356
AAXX 09184 85864 12670 10162 20109 40065 57020 60001 87200 333 56600 87833
AAXX 09184 85874 12680 53123 10164 20074 39444 40047 58020 60001 84201 333 56606 84840
AAXX 09184 85886 12670 32619 10212 20145 40031 56012 60001 81230 333 56660 81840
AAXX 09184 85892 12670 62920 10200 20074 40001 57028 60001 86200 333 56600 86835
AAXX 09184 85934 11570 70603 10131 20048 49943 57039 69901 72122 83570 333 56170 83625 87359
AAXX 09184 85968 12660 60806 10172 20046 49912 57056 60001 82178 333 56222 82843 83360 86266
AAXX 09184 89056 11225 83114 10007 20003 49905 50001 60003 71042 886// 333 56799 88704
AAXX 09184 89057 12460 80000 10029 20012 49902 54000 60003 886// 333 53399 88715
AAXX 09184 89058 31420 83214 10009 20002 39886 49907 57002 71000 886//
AAXX 09184 89059 11430 82310 10006 21013 49884 51005 69923 72822 886// 333 56299 88710
AAXX 09184 89251 31130 83214 10010 20004 49892 50004 71022 8651/
AAXX 09184 89664 12461 83509 11021 21052 39690 49732 56007 69901 888// 333 56199 83615 88650 90961 93197
AAXX 09184 78384 11460 50610 10263 20248 40143 60201 78082 85203 333 10279 20235 59006 70233 85818 90919
AAXX 09184 78383 12460 51012 10292 20235 40146 60001 85200 333 10300 20250 59001 70015 85816
AAXX 09181 13586 32970 00000 11033 21054 39980 40287 50005 333 10077
BBXX BAREU63 09184 99381 10156 46/// /0408 10171 29080 40249 54000 22243
BBXX TESTFR9 09184 99503 70042 46/// /2917 10082 29061 40164 52005 22274
BBXX V2OT9 09183 99372 10114 41598 51810 10185 20118 40250 54000 70000 82100 22283 20201 30000 4//// 5//// 80145
BBXX 2BLY5 09183 99081 70246 41598 70511 10305 20236 40095 58035 70022 8711/ 22253 00290 20301 309// 40602 80257
BBXX DCAX2 09183 99313 11243 41398 21613 10080 20058 40290 50010 70322 821// 22253 20403 3//// 4//// 5//// 80070
BBXX A8EH3 09183 99426 11457 41598 63116 10020 21033 40135 54000 702// 861// 22214 04080 20301 80000
BBXX KSDF 09184 99336 10248 41498 10510 10161 20091 40260 53010 70100 811// 22233 0//// 20301 330// 40603 5//// 6//// 80122 ICE /////
AAXX 09181 13579 32970 03302 11019 210036 39439 40313 53008 333 10059
BBXX BAREU05 09184 99434 10049 46/// ///// 40210 22200
BBXX BAREU04 09184 99515 70377 46/// ///// 40057 52029 22224
BBXX BAREU08 09184 99116 70750 46/// ///// 40093 57016 22213
AAXX 09184 89664 12461 83509 11021 21052 39690 49732 56007 69901 888// 333 56199 83615 88650 90961 93197
AAXX 09184 78384 11460 50610 10263 20248 40143 60201 78082 85203 333 10279 20235 59006 70233 85818 90919
AAXX 09184 78383 12460 51012 10292 20235 40146 60001 85200 333 10300 20250 59001 70015 85816
AAXX 09184 89664 12461 83509 11021 21052 39690 49732 56007 69901 888// 333 56199 83615 88650 90961 93197
AAXX 09184 78925 11440 62003 10275 20246 40109 58021 60001 78086 85930 333 10319 20223 59012 81918 84828 85656
AAXX 09184 85586 12460 82408 10160 20102 40144 57008 60001 885// 333 56599 88617
AAXX 09184 78925 11440 62003 10275 20246 40109 58021 60001 78086 85930 333 10319 20223 59012 81918 84828 85656
AAXX 09184 08495 11660 71904 10159 20125 30220 40228 51001 60002 70522 83572 91750 333 10165 83632 85364 87075
AAXX 09184 78700 32578 20404 10328 20207 30138 40143 58006 81130 333 10328 20224 30/// 56000 59001 81830
AAXX 09184 78703 31562 62410 10266 20218 30156 40158 56009 70544 84270 333 10268 20210 30/// 56700 59007 84820 85357
AAXX 09184 78704 31570 73202 10274 20215 30156 40161 56005 70544 82970 333 10276 20204 30/// 56700 58009 81922 81822 87458
AAXX 09184 78705 31564 32404 10265 20208 30145 40163 58013 70544 83960 333 10268 20190 30/// 56300 59002 83920 83358
AAXX 09184 78706 01554 113202 10232 20225 30172 40177 52012 60101 76155 8522/ 333 10232 20191 32/// 56299 58002 60101 85824 88458
AAXX 09184 78707 31560 60504 10248 20178 39409 40166 70544 83270 333 10250 20132 30/// 56220 59001 83823 86358
AAXX 09184 78708 01250 80408 10227 20227 30138 40169 58012 60031 75165 8572/ 333 10227 20210 32/// 56199 59007 60020 81706 85820 88458
AAXX 09184 78711 31570 53606 10272 20231 30123 40138 58011 70544 83201 333 10274 20214 30/// 56800 59008 83828
AAXX 09184 78714 32570 40804 10269 20177 84200 333 10269 20153 30/// 56100 84830
AAXX 09184 78717 01556 73602 10188 20168 38976 40169 58006 69901 75054 86520 333 10192 20152 32/// 56880 58006 69900 86620 85460
AAXX 09184 78718 31660 63612 10228 70544 83430 333 10236 20186 30/// 56800 83835 83359
AAXX 09184 78719 32440 70408 10164 20147 38362 40131 58003 87400 333 10164 20128 30/// 56100 58000 87614
AAXX 09184 78720 31566 43625 10249 20152 39041 40118 58017 70544 84430 333 10249 20117 30/// 56100 59005 84826
AAXX 09184 78724 32578 30314 10325 20201 30063 40120 51005 82130 333 10325 20240 30/// 56000 59004 82832
AAXX 09181 01001 11565 70711 10016 21006 30055 40067 53027 69902 70222 8657/ 333 10030 91116
AAXX 09181 01008 11589 23507 11059 21117 30008 40043 52006 60002 70300 82500 333 11025 91110
AAXX 09181 01010 41989 10911 10011 21060 39992 40008 53001 70200 80001 333 10013 91114
AAXX 09181 01026 NIL
AAXX 09181 01055 46/// /1504 11008 21038 30030 40048 54001 333 11004 91109
AAXX 09181 01062 NIL
AAXX 09181 01098 11480 72303 11003 21021 30053 40071 57005 60002 70122 8639/ 333 10009 91110
AAXX 09181 01115 11480 80815 10038 21046 39878 49899 58001 69902 70222 885// 333 10040 91119
AAXX 09181 01152 11789 81011 10023 21058 39925 49941 52003 60002 70222 82177 333 10024 91117
AAXX 09181 01205 NIL
AAXX 09181 01212 16/// /1904 10041 21005 39745 49760 53020 6//// 333 10058 91107
AAXX 09181 01271 16/// /1202 10010 21014 39758 49779 52012 69902 333 10028 91109
AAXX 09181 01288 11565 73302 11070 21081 39040 49788 53009 60012 70272 86540 333 11034 91103
AAXX 09181 01300 NIL
AAXX 09181 01317 11360 83109 10040 20019 39775 49788 53020 60062 78082 8787/ 333 10058 91118
AAXX 09181 01367 NIL
AAXX 09181 01384 11589 73204 10010 21014 39512 49755 53035 60082 70272 875// 333 10010 91110
AAXX 09181 01403 11567 7//// 10048 20018 39763 49830 53038 60132 70282 87903 333 10058
AAXX 09181 01415 16/// /3117 10047 20014 39827 49837 53037 6//// 333 10077 91125
AAXX 09181 01482 46/// /3007 1//// 2//// 39761 49768 53043 333 91113
AAXX 09181 01492 NIL
AAXX 09184 78925 11440 62003 10275 20246 40109 58021 60001 78086 85930 333 10319 20223 59012 81918 84828 85656
AAXX 09181 01003 NIL
AAXX 09181 01007 11989 13405 11073 21144 30052 40062 52004 60002 70200 80003 333 11040 91110
AAXX 09181 01028 NIL
AAXX 09181 01047 NIL
AAXX 09181 01049 NIL
AAXX 09181 01078 11385 42105 11037 21064 30043 40056 57004 6//// 70100 83100 333 11027 91108
AAXX 09181 01102 46/// /0817 10043 21034 39813 49832 53008 333 10050 91126
AAXX 09181 01160 NIL
AAXX 09181 01218 NIL
AAXX 09181 01238 46/// /0101 11077 21092 38650 49755 52015 333 11044 91107
AAXX 09181 01241 11586 70806 10018 21006 39760 49771 53015 60002 70222 81872 333 10030 91115
AAXX 09181 01281 NIL
AAXX 09181 01338 16/// /1104 10016 20004 39708 49773 53013 69962 333 10051 91106
AAXX 09181 01359 NIL
AAXX 09181 01397 16/// /3103 11011 21021 39328 49756 53013 69952 333 11008 91105
AAXX 09181 01400 NIL
AAXX 09181 01427 16/// /2924 10042 20021 39813 49829 53035 60102 333 10077 91136
AAXX 09181 01447 NIL
AAXX 09181 01448 46/// ///// 10049 20021 39798 49808 51029 333 10065
AAXX 09184 78862 11478 60908 10275 20235 30087 40110 69901 71581 85832 333 10297 20244 59009 84819
AAXX 09184 12/0912 04010KT 9999 SCT022 PROB30 TEMPO 0812/0912 SHRA BKN015
AAXX 09184 TAF TQPF 081000Z 0812/0912 04010KT 9999 SCT022 PROB30 TEMPO 0812/0912 SHRA BKN015
AAXX 09184 TAF TUPJ 081000Z 0812/0912 06010KT 9999 SCT022 PROB30 TEMPO 0812/0912 SHRA BKN015
AAXX 09184 N036
AAXX 09184 TAF TUPJ 071600Z 0718/0818 06008KT 9999 SCT020 BKN280 PROB30 TEMPO 0718/0818 06010G20KT SHRA BKN015 BKN036
AAXX 09184 TEMPO 0600/0624 SHRA BKN015=+TSRA SCT012CB
AAXX 09184 TAF TUPJ 041000Z 04012/0512 07008KT 9999 SCT016 BKN038 SCT270 TEMPO 0412/0512 SHRA BKN015 PROB40 TEMPO 0418/0512 5000 SHRA BKN014 BKN036 PROB30 0420/0512 4000 TSRA FEW012CB
AAXX 09184 918 4000 TSRA FEW012CB
AAXX 09184 N015 BKN036 PROB40 TEMPO 0704/0724 3000 +TSRA SCT011CB BKN012 BECMG 0712/0714 14008KT
AAXX 09184 21/2712 07017G28KT 5000 SHRA BKN015 BKN036 PROB TEMPO 2700/2712 4000 TSRA FEW013CB
AAXX 09184 PROB30 TEMPO 0800/0806 4000 TSRA FEW012CB PROB40 TEMPO 0800/0824 2000 +SHRA/TSRA SCT010CB BKN012 BKN250
AAXX 09184 86011 32570 52107 10314 20236 39922 40078 57028 85800 333 85833
AAXX 09184 86033 32670 60904 10326 20214 39976 40068 58029 85250 333 85834 81840 81358
AAXX 09184 86065 32570 52106 10316 20199 39861 40092 57021 85202 333 85833 81070
AAXX 09184 86068 32670 62008 10314 20204 39895 40082 58026 85204 333 85840 81070
AAXX 09184 86086 32570 60903 10334 20171 39992 40060 57012 83260 333 83833 83357
AAXX 09184 86097 32670 33110 10304 20193 39442 40064 57022 83200 333 83833
AAXX 09184 86128 32570 51802 10310 20238 39970 40080 57014 85200 333 85830
AAXX 09184 86134 31670 71914 10290 20231 39994 40080 57019 71522 87800 333 87840
AAXX 09184 86170 32570 51702 10308 20205 39968 40068 57018 85800 333 85827
AAXX 09184 86185 32470 81808 10284 20220 30001 40093 57021 885// 333 88620
AAXX 09184 86192 32570 60000 10314 20222 39882 40095 56013 86500 333 86620
AAXX 09184 86210 32570 52712 10298 20213 39714 40046 57021 85800 333 85827
AAXX 09184 86218 32570 61508 10304 20206 39986 40079 57023 86800 333 85830 81840
AAXX 09184 86221 32670 42304 10290 20216 39969 40101 57027 84200 333 84840
AAXX 09184 86233 32670 21802 10300 20210 39913 40098 56012 82100 333 82840
AAXX 09184 86234 32570 41805 10306 20208 39851 40029 58014 84200 333 84630
AAXX 09184 86246 32570 72610 10292 20212 39789 40066 57027 86200 333 86827
AAXX 09184 86251 32570 62308 10300 20177 39894 40057 57014 86800 333 84633 82840
AAXX 09184 86255 32670 41802 10310 20205 30025 40205 55013 84200 333 84840
AAXX 09184 86260 NIL
AAXX 09184 86268 32670 52516 10294 20213 39922 40087 57022 85200 333 85840
AAXX 09184 86285 32570 32308 10310 20206 39800 40073 58021 83100 333 83833
AAXX 09184 86297 32570 41405 10296 20210 39968 40070 58016 84800 333 84830
AAXX 09184 78897 12575 61207 10279 20239 40108 58020 60001 85832 333 0285/ 10306 20226 59009 70002 84823
AAXX 09184 78958 42580 31313 10300 20238 30102 40112 81802 333 10309 20229 58003 81820 83078
AAXX 09184 97180 11450 70704 10240 20240 30069 40087 56013 60051 76166 83272 333 56000 83819 86460
AAXX 09183 91802 NIL
AAXX 09183 91809 NIL
AAXX 09183 91831 36/// /1702 ///// ///// 10259 20218 40152 52004
AAXX 09183 91841 36/// /2005 10268 20218 3//// 5//// 555 20000
AAXX 09183 91843 31498 31301 10260 20231 40129 53014 60001 70300 83200 333 563// 83818
AAXX 09183 91848 16/// /1303 10257 20228 40088 54000 60021 555 20018
AAXX 09184 78897 12575 61207 10279 20239 40108 58020 60001 85832 333 0285/ 10306 20226 59009 70002 84823
BBXX CGDS 09184 99447 70755 46/// /2117 10018 20001 4//// 5//// 7//// 8//// 22200 0//// 2////
AAXX 09184 78958 42580 31313 10300 20238 30102 40112 81802 333 10309 20229 58003 81820 83078
AAXX 09184 78958 42580 31313 10300 20238 30102 40112 81802 333 10309 20229 58003 81820 83078
BBXX CGDS 09184 99447 70755 46/// /2117 10018 20001 4//// 5//// 7//// 8//// 22200 0//// 2////
AAXX 09181 01015 NIL
AAXX 09181 01023 11589 23201 11057 21063 39931 40029 54001 60002 70100 81178 333 11057 91103
AAXX 09181 01033 46/// /2002 10002 21058 30001 40032 51005 333 10008 91105
AAXX 09181 01059 NIL
AAXX 09181 01089 11665 81606 11026 21031 39967 40076 57002 60054 77072 885// 333 11024 91108
AAXX 09181 01167 NIL
AAXX 09181 01180 NIL
AAXX 09181 01210 41787 51305 10034 21006 39732 49758 53018 70222 82268 333 10054 91107
AAXX 09181 01228 NIL
AAXX 09181 01240 16/// /0814 10036 21002 39763 49782 53011 6//// 333 10047 91122
AAXX 09181 01304 46/// /1609 10044 20024 39723 49753 52011 333 10045 91110
AAXX 09181 01311 46/// /2809 10042 20019 39730 49790 53023 333 10042 91119
AAXX 09181 01340 NIL
AAXX 09181 01355 16/// ///// 10005 21008 39772 49777 51018 60002 333 10047
AAXX 09181 01360 NIL
AAXX 09181 01392 16/// /3302 10002 21020 39527 49748 53022 69992 333 10012 91108
AAXX 09181 01406 NIL
AAXX 09181 01411 16/// /3023 10057 20018 39797 49822 53037 6//// 333 10077 91130
AAXX 09181 01425 NIL
AAXX 09181 01433 46/// /2806 11029 21038 38551 49783 52022 333 11018 91112
AAXX 09181 01442 NIL
AAXX 09181 01450 NIL
AAXX 09181 01452 11582 72607 10041 20010 39789 49810 53031 60032 72582 8157/ 333 10059 91121
AAXX 09181 01473 16/// /0000 11001 21005 39568 49772 53033 6//// 333 10021 91107
AAXX 09181 01494 16/// /3103 10014 21004 39700 49764 53045 60022 333 10028 91109
AAXX 09181 01037 NIL
AAXX 09181 01046 NIL
AAXX 09181 01058 16/// /0000 11068 21079 39586 40062 57002 60002 333 11068 4/013 91100
AAXX 09181 01065 NIL
AAXX 09181 01092 NIL
AAXX 09181 01107 16/// /0911 10036 20015 39930 49935 53005 60002 333 10038 91121
AAXX 09181 01114 NIL
AAXX 09181 01144 41886 50911 10024 21067 70322 82046 333 10027 91122
AAXX 09181 01199 NIL
AAXX 09181 01245 NIL
AAXX 09181 01259 16/// /0908 10009 21018 39772 49794 50011 60002 333 10033 91117
AAXX 09181 01262 NIL
AAXX 09181 01278 31785 71105 10018 21033 39682 49782 53008 70222 878// 333 10026
AAXX 09181 01293 11665 71703 10015 21030 39577 49779 53010 60002 70272 87500 333 10017 91106
AAXX 09181 01329 NIL
AAXX 09181 01337 NIL
AAXX 09181 01344 16/// ///// 11024 21032 60012 333 10008 4/031
AAXX 09181 01364 NIL
AAXX 09181 01373 11989 30000 11034 21039 39577 49777 52022 60022 70120 80001 333 11006 91101
AAXX 09181 01374 NIL
AAXX 09181 01380 11580 20201 11095 21109 69932 70271 81530 333 11045 4/017 91108
AAXX 09181 01389 NIL
AAXX 09181 01393 NIL
AAXX 09181 01424 11560 8//// 10009 21003 39804 49807 53033 60072 70222 887// 333 10040
AAXX 09181 01431 16/// /2704 10004 21009 39156 49807 53028 60072 333 10010 91110
AAXX 09181 01436 NIL
AAXX 09181 01465 11975 82710 10049 20014 39774 49792 51034 69932 70282 8801/ 333 10065 91119
AAXX 09181 01471 NIL
AAXX 09181 01483 NIL
AAXX 09181 01121 46/// /0913 10036 21056 39877 49889 53008 333 10038 91125
AAXX 09181 01135 NIL
AAXX 09181 01143 16/// /1008 10018 21055 60002 333 10021 91114
AAXX 09181 01150 16/// /0407 11009 21057 60002 333 11005 91119
AAXX 09181 01192 NIL
AAXX 09181 01225 46/// /0707 10032 21025 39759 49763 52016 333 10043 91112
AAXX 09181 01230 16/// /0901 11052 21060 69922 333 11010 4/028 91105
AAXX 09181 01232 16/// /1803 10006 21035 39695 49773 53020 60002 333 10045 4/025 91108
AAXX 09181 01234 16/// /2103 11051 21061 60002 333 10020 91107
AAXX 09181 01253 16/// /1101 11088 21096 60002 333 11015 4/031 91104
AAXX 09181 01254 16/// /3301 11077 21085 60002 333 10011 4/020 91102
AAXX 09181 01257 NIL
AAXX 09181 01277 NIL
AAXX 09181 01291 16/// /0904 10011 21042 60002 333 10019 4/017 91121
AAXX 09181 01332 16/// /0000 10004 21007 69982 333 10015 91103
AAXX 09181 01366 46/// /2301 11082 21094 38179 49778 53012 333 11069 91105
AAXX 09181 01370 NIL
AAXX 09181 01376 16/// /2803 11012 21020 60052 333 10007 91106
AAXX 09181 01383 46/// /0000 11023 21024 39464 49774 53012 333 11018 91104
AAXX 09181 01386 16/// ///// 10009 21026 60002 333 10016
AAXX 09181 01416 16/// ///// 10042 20017 60172 333 10063
AAXX 09181 01419 NIL
AAXX 09181 01430 16/// ///// 10034 20016 60172 333 10067
AAXX 09181 01434 16/// /2401 11048 21064 38832 49778 51025 60002 333 11008 91107
AAXX 09181 01455 NIL
AAXX 09181 01468 16/// /3102 10005 21006 60092 333 10015 91109
AAXX 09181 01470 16/// /3001 10000 21005 39662 49775 53033 60032 333 10030 4/004 91108
AAXX 09181 01476 NIL
AAXX 09181 01481 NIL
AAXX 09181 01488 NIL
AAXX 09181 01025 16/// /0302 11066 21085 30023 40034 57001 6//// 333 11064 91106
AAXX 09181 01052 16/// /2203 11022 21051 39945 40045 57000 60002 333 11020 91108
AAXX 09181 01122 NIL
AAXX 09181 01132 16/// /0704 11001 21059 39463 49846 57004 60002 333 10003 4/051 91115
AAXX 09181 01156 NIL
AAXX 09181 01203 46/// /1202 10031 21002 39704 49751 53016 333 10043 91109
AAXX 09181 01233 16/// /0301 11055 21075 60002 333 11016 91107
AAXX 09181 01265 NIL
AAXX 09181 01273 NIL
AAXX 09181 01307 46/// /2918 10060 20026 39725 49752 55003 333 10061 91123
AAXX 09181 01321 16/// /1202 11005 21007 39517 49766 53013 69922 333 10014 91104
AAXX 09181 01327 16/// /2903 11005 21014 60052 333 10030 91105
AAXX 09181 01350 16/// /3008 11043 21050 38396 49744 52014 60002 333 11042 91111
AAXX 09181 01361 16/// /0000 11091 21100 38763 49795 53014 69982 333 11035 91105
AAXX 09181 01375 NIL
AAXX 09181 01378 16/// /0401 11018 21031 39475 49762 53017 60022 333 10000 91105
AAXX 09181 01385 16/// /3004 10002 21025 39494 49760 53021 60002 333 10010 91109
AAXX 09181 01412 16/// /3022 10054 20015 39811 49840 53034 60192 333 10075 91131
AAXX 09181 01422 16/// /2910 10051 20023 60042 333 10057 91118
AAXX 09181 01440 NIL
AAXX 09181 01441 NIL
AAXX 09181 01467 NIL
AAXX 09181 01469 NIL
AAXX 09181 01477 16/// /2901 10004 21011 60052 333 10017 4/021 91110
AAXX 09181 01480 16/// /3301 10014 21010 60072 333 10034 91107
AAXX 09181 01484 16/// /3203 10007 21014 39598 49751 53041 60082 333 10018 91109
AAXX 09181 01490 16/// /3603 11024 21026 60012 333 11008 91108
AAXX 09181 01495 16/// /3108 10042 20010 39752 49764 53044 60062 333 10064 91113
AAXX 09181 10004 NIL
AAXX 09181 10015 01665 62814 10079 20004 39995 40005 51012 69942 72582 81970 222// 02075 333 10086 20060 31005 55300 20000 30000 69907 81935 83362 91119 91215 96413
AAXX 09181 10020 15776 42815 10068 21004 39936 49968 53014 69912 333 10080 20064 3/005 55300 20000 30000 82/50 84/68 91123 91218 90358 91218
AAXX 09181 10035 12670 72205 10042 20019 39933 49992 51012 60022 875// 333 10075 20037 31003 55300 20000 30000 41080 84640 87656 91115
AAXX 09181 10055 01580 82311 10047 20020 39976 49986 51011 60042 70362 8151/ 333 10062 20037 31004 55300 20000 30000 69907 81633 88465 91118 91214
AAXX 09181 10147 01380 52206 10024 20016 30012 40031 50010 60042 72582 82130 333 10064 20022 31002 55300 20000 30000 41132 60037 82808 84363 91113 96284
AAXX 09181 10162 07481 72309 10024 20014 39939 40022 51008 60052 72386 333 10065 20020 3/002 55300 20000 30000 60017 82/11 86/50 87/57 91116
AAXX 09181 10184 12683 82305 10044 20011 39994 40002 51010 60002 885// 333 10069 20044 31004 55300 20000 30000 88635 91116
AAXX 09181 10200 01583 72406 10034 20013 30040 40038 51008 60102 72586 8483/ 333 10064 20031 32002 55300 20000 30000 69917 82827 83656 87361 91115 91211
AAXX 09181 10224 01473 72706 10033 20022 30044 40050 51010 69992 78086 878// 333 10065 20026 32002 55300 20000 30000 69957 83811 85620 91118 91212
AAXX 09181 10270 NIL
AAXX 09181 10338 12681 12408 10047 21005 39988 40061 52006 60002 81800 333 10069 20046 31003 55300 20000 30000 81835 91114
AAXX 09181 10361 12984 02406 10043 21020 39968 40073 51008 69902 333 10075 20043 31002 55300 20000 30000 91115
AAXX 09181 10393 12784 52408 10055 21026 39936 40063 52005 69962 85500 333 10076 20052 31004 55300 20000 30000 85656 91118 91211
AAXX 09181 10400 11980 02205 10027 21014 30056 40107 51005 69902 70160 333 10073 20027 31000 55300 20000 30000 91114
AAXX 09181 10438 15983 02002 10021 21024 39818 40103 52006 69902 333 10072 20019 3/101 55300
AAXX 09181 10469 12786 32307 10034 21009 39924 40091 51010 60022 83500 333 10082 20026 31001 55300 83650 91115 91211
AAXX 09181 10488 12782 12305 10030 21001 39814 40099 51010 69992 81500 333 10100 20028 31000 55300 20000 30000 40860 81650 91114
AAXX 09181 10506 12987 12304 10013 21023 39540 40133 52008 69912 80001 333 10041 20013 31101 55300 20000 30000 81078
AAXX 09181 10548 12584 21402 10003 21010 39573 40125 52010 60052 82100 333 10078 20002 31102 55300 20000 30000 82827
AAXX 09181 10637 12584 21905 10034 20017 39994 40134 51007 60052 81101 333 10104 20034 31001 55300 81833
AAXX 09181 10685 11484 62404 10013 21007 39439 40122 51011 60042 70265 86800 333 10066 20013 31001 55300 20000 30000 85811
AAXX 09181 10738 01358 80102 10045 20033 39681 40155 52009 60052 76366 8472/ 333 10108 20044 32004 55300 60037 84707 87510
AAXX 09181 10763 01670 82104 10029 20005 39755 40143 52006 60042 72162 885// 333 10089 20028 31002 55300 20000 30000 69907 84637 88650
AAXX 09181 10788 07363 73104 10051 20045 39706 40140 52010 60032 76265 333 10110 20009 3/000 55300 20000 30000 60037 81/09 86/22 87/29
AAXX 09181 10852 07350 83405 10051 20047 39573 40145 53010 60022 76265 333 10108 20051 3/005 55300 20000 30000 60027 88/07 91116
AAXX 09181 10946 07679 81701 10074 20048 39319 40144 55000 69972 75165 333 10115 20063 3/005 55300 20000 30000 69947 88/34 91113
AAXX 09181 12772 31775 81602 10025 21011 39890 40180 57003 70322 8557/ 333 10031 4/000 85650
AAXX 09181 12822 36/// /2105 10097 20030 30005 40147 57008 333 10097
AAXX 09181 12843 31970 81902 10047 21005 39996 40169 57008 70222 8807/ 333 10076 4/000
AAXX 09181 12882 31980 72004 10050 20008 30056 40190 55003 70222 8707/ 333 10050 4/000
AAXX 09181 12925 36/// /2102 10080 20037 39999 40171 57003 333 10102
AAXX 09181 12942 31984 82003 10071 20020 39941 40188 55002 70222 8807/ 333 10071 4/000
AAXX 09181 12982 31775 71704 10046 20009 30088 40191 57006 70322 875// 333 10076 4/000 87656
AAXX 09181 33815 32997 81602 10011 21002 39993 40206 57009 85042 333 10059 555 80014
AAXX 09184 48698 01464 73502 10255 20246 30078 40096 60001 71022 81132 333 60007 81818 87080
AAXX 09184 48698 01464 73502 10255 20246 30078 40096 60001 71022 81132 333 60007 81818 87080
AAXX 09184 07005 04/70 /2108 10058 20041 30039 40130 53001 60012 700// 333 10085 20058 60017 90710 91114 555 69965
AAXX 09184 07015 02782 12208 10046 20021 30062 40120 50001 60002 81500 333 10087 20041 60007 81656 90710 91112 93100 555 60005
AAXX 09184 07020 02570 7//// 1//// 2//// 30125 4//// 53005 6///2 84260 333 1//// 2//// 6///7 83830 84358 555 6///5
AAXX 09184 07027 01582 42207 10058 20038 30071 40154 52005 69902 70186 83801 333 10097 20058 60007 81826 83650 90710 91109 93100 555 60005
AAXX 09184 07037 04582 /2107 10041 20035 39961 40148 51003 69942 700// 333 10097 20040 69907 90710 91111 555 60005
AAXX 09184 07070 04461 82406 10068 20053 30034 40145 52002 60022 761// 333 10083 20060 69907 90710 91110 555 69905
AAXX 09184 07110 02662 72402 10064 20046 30047 40164 52003 69962 8553/ 333 10092 20064 60007 84640 86360 90710 91103 93100 555 60005
AAXX 09184 07117 02575 73007 10089 20022 30088 40159 52002 69902 8557/ 333 10107 20085 60007 90710 91112 92438 555 60005
AAXX 09184 07130 04458 82604 10084 20080 30107 40160 50001 60052 761// 333 10095 20082 69967 90710 91107 555 69925
AAXX 09184 07139 06/// /2602 10075 20061 39981 40156 54000 60042 333 10087 20073 69947 90710 91106 555 69925
AAXX 09184 07149 01667 62503 10077 20062 30042 40152 51003 60032 70162 86500 333 10085 20077 60007 86646 90710 91108 93100 555 60005
AAXX 09184 07168 04/59 /1803 10069 20062 30014 40158 51003 60132 751// 333 10107 20067 60037 90710 91104 555 69925
AAXX 09184 07181 04558 81904 10043 20040 39741 40158 50000 60182 761// 333 10091 20040 60027 90710 91105 555 69945
AAXX 09184 07190 04564 80504 10052 20038 39972 40158 53005 60082 761// 333 10118 20052 60017 90710 91108 555 69945
AAXX 09184 07207 01330 80408 10087 20078 60042 75355 88700 222// 327// 333 10132 20087 69947 90710 91113 92425 555 69925
AAXX 09184 07222 01250 80305 10086 20083 30127 40159 51001 60102 75065 887// 333 10124 20086 60027 87703 90710 91109 555 69965
AAXX 09184 07240 01230 83104 10083 20075 30026 40162 50001 60062 75865 887// 333 10117 20083 60027 83704 87710 90710 91108 93100 555 69945
AAXX 09184 07255 04223 72607 10111 20103 39962 40161 50000 60012 760// 333 10132 20104 60017 90710 91112 555 69965
AAXX 09184 07280 04585 81810 10104 20078 39889 40161 55003 69942 700// 333 10107 20079 60007 90710 91116 555 60005
AAXX 09184 07299 01680 82507 10105 20077 39825 40151 55001 69982 76162 8857/ 333 10127 20104 69947 83643 86656 87357 90710 91118 93100 555 69905
AAXX 09184 07314 06/// /3014 10142 20112 30144 40172 58002 69962 333 10145 20130 60007 90710 91119 555 60005
AAXX 09184 07335 04586 82110 10119 20105 30021 40165 58003 69922 700// 333 10136 20107 60007 90710 91115 555 60005
AAXX 09184 07434 04364 82206 10091 20086 39705 40185 58003 60032 700// 333 10109 20089 69907 90710 91111 555 60005
AAXX 09184 07460 02680 71403 10104 20058 39794 40183 57003 60002 875// 333 10136 20093 60007 81633 87650 90710 91110 93100 555 60005
AAXX 09184 07471 04570 82104 10073 20049 39225 48811 58004 69922 700// 333 10093 20063 60007 90710 91108 555 60005
AAXX 09184 07481 02780 71606 10100 20052 39902 40191 57005 60002 875// 333 10110 20047 60007 82656 86657 90710 91110 93100 555 60005
AAXX 09184 07510 01482 72004 10122 20109 30126 40191 57004 60022 72186 878// 333 10148 20118 60017 81711 87656 90710 91117 93100 555 69985
AAXX 09184 07535 06/// /1907 10106 20087 39888 40201 57004 60002 333 10119 20085 60007 90710 91111 555 60005
AAXX 09184 07558 06/// /2405 10066 20059 39370 40215 57002 60002 333 10076 20039 60007 90710 91108 555 60005
AAXX 09184 07577 04/65 /1801 10081 20047 30116 40207 58003 60002 700// 333 10114 20012 60007 90710 91103 555 60005
AAXX 09184 07591 04/// /0603 10034 21010 39186 4//// 51001 60002 700// 333 10078 21004 60007 90710 91108 555 60005
AAXX 09184 07607 04566 82401 10113 20085 30134 40206 55002 60002 700// 333 10150 20061 60007 90710 91104 555 60005
AAXX 09184 07621 02982 52104 10068 20045 39774 40214 57001 60002 81032 333 10148 20055 60007 81368 85073 90710 91106 93100 555 60005
AAXX 09184 07627 06/// /1603 10062 20035 39719 40216 58002 60002 333 10136 20012 60007 90710 91104 555 60005
AAXX 09184 07630 02765 71803 10095 20069 30028 40210 58003 60002 81502 333 10134 20044 60007 81650 84070 87073 90710 91103 93100 555 60005
AAXX 09184 07650 02960 51405 10084 20051 30169 40208 56002 60002 80002 333 10129 20030 60007 85071 90710 91106 93100 555 60005
AAXX 09184 07661 02972 72614 10119 20066 30040 40202 51002 60002 80006 333 10136 20095 60007 87266 90710 91122 555 60005
AAXX 09184 07690 02/60 63207 10104 20058 30148 40182 55004 60002 80002 333 10143 20082 60007 86070 90710 91109 93100 555 60005
AAXX 09184 07747 02982 73203 10107 20081 30156 40210 57004 60002 80002 333 10154 20061 60007 87073 90710 91105 555 60005
AAXX 09184 07761 02670 70705 10133 20088 30208 40219 54000 60002 878// 333 10176 20104 60007 81836 87640 90710 91106 93100 555 60005
AAXX 09184 07790 02570 72303 10114 20100 30191 40206 58004 60002 82501 333 10173 20099 60007 81630 87075 90710 91105 93100 555 60005
AAXX 09184 89577 46/// /0701 11366 35676 4//// 5////
AAXX 09184 89578 46/// /0602 11358 36730 4//// 5////
AAXX 09181 45032 36/// /0105 10110 21013 30229 40245 57001 333 91111
AAXX 09181 45035 36/// /0305 10120 20004 30201 40245 57003
AAXX 09181 45039 36/// /0103 10119 20016 30223 40238 57001
AAXX 09181 45044 36/// /0010 10117 20021 30135 40232 57001 333 91115
AAXX 09181 45032 36/// /0105 10110 21013 30229 40245 57001 333 91111
AAXX 09181 45035 36/// /0305 10120 20004 30201 40245 57003
AAXX 09181 45039 36/// /0103 10119 20016 30223 40238 57001
AAXX 09181 45044 36/// /0010 10117 20021 30135 40232 57001 333 91115
AAXX 09184 78583 11570 72909 10226 20181 40177 69961 70382 87830 333 00770 59003 81820 86640
AAXX 09181 78221 11364 80105 10241 20207 30149 40176 57010 60004 70222 887// 333 82709 88814
AAXX 09181 78224 11359 80104 10225 20201 30106 40180 58013 60021 70266 88500 333 88609
AAXX 09181 78229 42559 50606 10273 20203 30095 40171 57020 85200 333 85820
AAXX 09181 78239 31559 40707 10282 20224 30155 40158 57020 70500 84800 333 84818
AAXX 09181 12345 42460 50905 10293 20215 30111 40150 57018 85100 333 85818
AAXX 09181 78243 42559 50906 10270 20195 30041 40164 57018 85200 333 85820
AAXX 09181 78255 42559 30807 10284 20198 30010 40159 57020 83200 333 83820
AAXX 09181 78264 31560 31704 10290 20206 30067 40142 57020 70300 83200 333 10294 20220 83820
AAXX 09181 78265 41560 40907 10295 20181 30042 40142 57020 70344 84200 333 10299 20199 84825
AAXX 09181 78256 11559 31002 10309 20170 30090 40150 54000 60004 70544 83100 333 10311 20217 83825
AAXX 09181 78259 31559 41404 10303 20188 30060 40152 54000 70544 84200 333 10311 20199 84820
AAXX 09181 78268 NIL
AAXX 09184 61901 169// /1113 10161 20156 39644 40153 56003 60052 91750 333 10183 8//99 555 7/090
AAXX 09184 88889 12470 50133 10144 20063 39957 40039 58036 60001 82641 91750 333 82710 84368 91041 90710 91142
AAXX 09181 11816 12770 79902 10019 21008 39989 40156 57002 60002 86570 333 10029 86656
AAXX 09181 11826 11657 83601 10026 20008 39954 40157 55002 69952 76162 885// 333 10047 88646
AAXX 09181 11903 12662 80203 10009 21006 39788 40177 51002 60002 885// 333 10024 88643
AAXX 09181 11934 11460 82204 10022 20003 39319 42756 52007 69922 76822 8657/ 333 10029 44006 81713 86623 88459
AAXX 09181 11968 12670 79901 10013 21016 39889 40176 57009 60002 87500 333 10018 87647
AAXX 09184 03005 11450 73138 11002 21023 39817 49918 52015 60142 72682 879// 91750 333 10027 42001 55300 20000 83915 87630 90710 91155 91052
AAXX 09184 03017 15764 /3121 10006 21053 39973 40005 51022 69922 91750 333 10031 55300 20000 81/50 90710 91140 91031
AAXX 09184 03023 17219 /3107 10009 21003 30078 40083 53016 60052 786// 91750 333 10036 85/05 84/56
AAXX 09184 03026 17313 /3421 10009 21013 30049 40068 53017 69942 704// 91750 333 10036 55300 20000 81/06 83/50 90710 91127
AAXX 09184 03063 17158 /2203 11013 21025 39781 40065 53018 69902 771// 91750 333 10016 4/002 55300 20000 84/02 83/50
AAXX 09184 03066 17380 /2612 10010 21006 30047 40053 52019 69902 741// 91750 333 10036 55300 20000 81/09 86/17
AAXX 09184 03075 17469 /2926 11002 21030 39973 40017 52017 69922 782// 91750 333 10030 81/15 85/50 90710 91142 91040
AAXX 09184 03091 15976 /2914 10017 21035 39961 40042 53022 60002 91750 333 10035 55300 20000 88/61
AAXX 09184 03100 15767 /2806 10011 21004 30069 40085 52015 60062 91750 333 10045 55300 20000 86/50
AAXX 09184 03111 16577 /1501 11009 21021 30073 40086 51022 60052 91750 333 10047 82/28
AAXX 09184 03134 15980 /1202 11009 21022 30003 40077 51019 60012 91750 333 10029 55300 20000 8//99
AAXX 09184 03136 15960 /0503 11010 21016 30047 40081 51024 60032 91750 333 10039 55300 20000 8//99
AAXX 09184 03162 15984 /3502 11017 21028 39789 40084 53023 69942 91750 333 10022 55300 20000 8//99
AAXX 09184 03166 15974 /2308 10005 21008 39998 40070 51021 60002 91750 333 10031 55300 20000 86/65
AAXX 09184 03171 12980 52709 10013 21030 30045 40058 51019 60002 85030 91750 333 10042 55300 20000 85364
AAXX 09184 03204 12582 32915 10054 20005 30070 40089 52012 60002 83100 91750 333 10060 55300 20000 83822 90710 91127
AAXX 09184 03240 15983 /2408 11002 21022 30037 40066 52026 60002 91750 333 10048 55300 20000 8//99
AAXX 09184 03257 15674 /2503 10005 21013 30035 40076 51016 69922 91750 333 10049 55300 20000 81/48
AAXX 09184 03292 169// /2809 10019 21005 30046 40065 52016 60002 91750 333 10062 8//99
AAXX 09184 03302 12584 52815 10059 20000 30095 40108 51011 69922 85200 91750 333 10066 55300 20000 81825 85830 90710 91125
AAXX 09184 03354 15971 /2707 10023 20003 39952 40098 53015 69982 91750 333 10064 55300 20000 8//99
AAXX 09184 03377 11582 62409 10020 20002 30003 40089 52013 60022 70381 868// 91750 333 10053 55300 20000 82825 85642
AAXX 09184 03414 NIL
AAXX 09184 03462 15684 /2608 10025 21008 30009 40100 51017 69902 91750 333 10063 55300 20000 82/39
AAXX 09184 03482 15774 /2607 10012 21006 30068 40094 53016 60002 91750 333 10063 82/50
AAXX 09184 03502 15672 /3020 10056 21021 39963 40127 51010 60002 91750 333 10066 55300 20000 81/34 90710 91130
AAXX 09184 03535 15980 /2204 10017 21006 39991 40111 53019 69922 91750 333 10073 55300 20000 8//99
AAXX 09184 03590 15685 /2713 10034 20000 39990 40101 53012 69922 91750 333 10063 55300 20000 81/41
AAXX 09184 03649 11682 12604 10028 21005 30019 40121 52016 69902 70181 81500 91750 333 10081 55300 2//// 81640
AAXX 09184 03716 15981 /3009 10047 21001 30072 40132 53011 60012 91750 333 10076 55300 20000 8//99
AAXX 09184 03740 16675 /2610 10025 21016 39949 40130 51015 60002 91750 333 10066 55300 2//// 82/41
AAXX 09184 03746 15971 /2708 10026 21001 39975 40132 53011 69922 91750 333 10071 8//99
AAXX 09184 03772 15980 /2708 10043 20012 30088 40119 53011 69902 91750 333 10082 55300 20000 8//99
AAXX 09184 03796 46/// /2810 10054 20010 39970 40114 53004 91750 333 10077
AAXX 09184 03803 15681 /3008 10083 20040 30121 40159 52002 69942 91750 333 10101 82/30 84/34
AAXX 09184 03808 11575 73209 10073 20010 30045 40152 51003 60012 70381 82872 91750 333 10094 55300 20000 81825 86368
AAXX 09184 03809 11465 63105 10045 20029 30059 40154 53002 60012 70282 84830 91750 333 10094 81712 83625
AAXX 09184 03827 15973 /3107 10059 20012 30085 40147 52003 69942 91750 333 10096 85/70
AAXX 09184 03840 17675 /3006 10034 20019 39832 40143 53008 69922 723// 91750 333 10062 81/32 86/47
AAXX 09184 03853 15667 /2607 10051 20019 30111 40136 53009 69922 91750 333 10085 55300 20000 82/37 84/56
AAXX 09184 03874 46/// /2918 10068 20025 30119 40131 53011 91750 333 10097
AAXX 09184 03882 15970 /2606 10041 20008 30059 40124 53007 60002 91750 333 10082 55300 20000 8//99
AAXX 09184 03894 11570 72609 10076 20034 40153 53003 69952 78082 85832 333 10095 81828 85638 85364
AAXX 09184 03917 15980 /2604 10024 20000 30020 40098 53017 60022 91750 333 10041 55300 20000 8//99
BBXX VCRG 09184 99463 70623 46/// /2416 10051 21028 40259 53024 7//// 8//// 22252 00097 2////
BBXX VCRG 09184 99463 70623 46/// /2416 10051 21028 40259 53024 7//// 8//// 22252 00097 2////
AAXX 09184 78762 32670 11008 10271 20150 39092 40099 57005 81200 333 10272 20177 30/// 563// 59005 82840
AAXX 09184 78762 32670 11008 10271 20150 39092 40099 57005 81200 333 10272 20177 30/// 563// 59005 82840
AAXX 09184 78762 32670 11008 10271 20150 39092 40099 57005 81200 333 10272 20177 30/// 563// 59005 82840
BBXX 46072 09181 99517 71722 46/// /1614 10058 20055 40048 58050 91750 22200 00055 10707 20706 3//// 41003 70033 333 91218 555 11153 22163 31747 41618 61749 159141 160136 162137 161135 159133 157126 81616 91747
BBXX 44007 09181 99435 70701 46/// /2109 10064 20003 40243 58019 91750 22200 00087 11002 20402 3//// 41001 70011 333 91211 555 11098 22103 31741 42111 61749 210092 208091 214091 219083 217079 213081
BBXX 44013 09181 99424 70706 46/// /2104 10086 20043 40248 56026 91750 22200 00098 10301 20301 70005 333 91205 555 11040 22041 31652 41808 61749 203039 193047 193056 189065 191062 183062
BBXX 46026 09181 99378 71228 46/// /0908 10114 40226 51014 91750 22200 00115 12103 20301 329// 42103 70015 333 91209 555 11081 22086 31743 40909 61749 086075 284071 288067 287068 288071 292071
BBXX 46041 09181 99474 71247 46/// /0303 10042 40249 57003 91750 22200 00091 11903 20401 3//// 41903 70016 333 91204 555 11030 22030 31722 40405 61749 025029 028031 042030 041029 050025 056026
BBXX 46001 09181 99563 71480 46/// /2811 10052 40160 53012 91750 22200 00052 11607 20705 300// 41605 70033 333 91213 555 11120 22128 31708 42715 61749 277113 273113 275112 271119 272118 273118
BBXX 46082 09181 99597 71434 46/// ///// 10042 20042 40114 55000 91750 22200 00061 10904 70022
BBXX 46072 09181 99517 71722 46/// /1614 10058 20055 40048 58050 91750 22200 00055 10707 20706 3//// 41003 70033 333 91218 555 11153 22163 31747 41618 61749 159141 160136 162137 161135 159133 157126 81616 91747
BBXX 46035 09181 99571 71778 46/// /1312 1//// 49894 58063 91750 22200 10806 20704 300// 40805 70030 333 91214 555 11118 22126 31724 41217 61749 126118 122126 121136 116118 116104 121117 81215 91724
BBXX 46077 09181 99579 71543 46/// /2610 10028 21012 40150 51017 91750 22200 00048 10704 20704 3//// 41302 70020 333 91212 555 11104 22110 31656 42615 61749 257098 256098 254106 252114 252120 255124 82613 91701
BBXX 42039 09181 99288 70860 46/// /3506 10167 40227 57012 91750 22200 00229 333 91208 555 11058 22060 31650 43608 61749 351055 349055 358056 358054 355057 355053
BBXX 41040 09181 99145 70530 46/// /1902 10280 20240 40106 56015 91750 22200 00286 10903 20401 3//// 40903 70017 333 91202 555 11015 22016 31658 41903 61749 193014 171011 155011 172012 187011 178017 81902 91658
BBXX 51004 09181 99175 71524 46/// /0308 10234 20176 91750 555 11080 22085
BBXX 51002 09181 99171 71578 46/// /0711 10246 40145 53006 91750 22200 00251 333 91213 555 11121 22129 31728 40714 61749 066114 070113 072110 070114 072115 065110
BBXX 51100 09181 99236 71539 46/// /0708 10224 40209 53016 91750 22200 00235 11606 20602 331// 41606 70031 333 91210 555 11084 22088 31743 40710 61749 066080 072079 071076 074076 071073 067077
BBXX 45008 09181 99443 70824 46/// /2609 11014 39982 40202 50000 91750 22200 00065 10502 20502 70012 333 91212 555 11099 22103 61749 258094 259095 258096 256099 256091 256094
BBXX 45002 09181 99453 70864 46/// /3101 11042 21081 30002 40224 54000 91750 333 91204 555 11010 22010 31700 42906 61749 322010 324020 307020 032006 074009 255014
BBXX CGBR 09184 99534 71293 46/// /0708 10015 20015 40255 56016 7//// 8//// 22200 0//// 2////
BBXX CG2350 09184 99433 70798 46/// /2311 10019 21008 40201 58015 7//// 8//// 22200 0//// 2////
AAXX 09181 02741 17472 82008 10053 20035 39766 49781 57019 60142 72186 88/// 91739 333 10055 20026
AAXX 09181 02755 37450 71209 11009 21024 39852 49947 57036 77174 87/// 91739 333 10003 21035
AAXX 09181 02805 17265 83501 11094 21108 39935 40073 57004 60022 78587 88/// 91739 333 11094 21148
AAXX 09181 02807 47599 50000 11061 21064 39883 40071 700// 85/// 91800 333 11019 21061
AAXX 09181 02836 17382 80902 11033 21037 39825 40051 57012 60022 72487 88/// 91739 333 11014 21045
AAXX 09181 02845 47463 81006 11028 21031 39779 40030 57016 77174 88/// 91739 333 11012 21040
AAXX 09181 02849 47582 81204 11024 21042 39782 40060 57014 70087 88/// 91739 333 11014 21026
AAXX 09181 02866 37499 81205 11014 21033 39866 40017 57026 70087 88/// 91739 333 11006 21030
AAXX 09181 02897 47499 71206 11005 21025 39822 40005 700// 87/// 91800 333 11002 21020
AAXX 09181 02913 47427 71207 10006 21004 39839 49891 761// 87/// 333 10014 21013
AAXX 09181 02917 47499 71307 10003 21027 39870 49993 700// 87/// 91800 333 10003 21013
AAXX 09181 02924 47311 81104 11006 21006 39712 49908 57025 77174 88/// 91739 333 11002 21014
AAXX 09181 02926 47482 81209 10017 20008 39819 49832 56026 723// 88/// 91800 333 1//// 2////
AAXX 09181 02935 37336 81306 11007 21014 39770 49943 57027 77187 88/// 91739 333 11002 21012
AAXX 09181 02939 37480 71307 11021 21034 39863 40059 57021 70074 87/// 91739 333 11013 21021
AAXX 09181 02944 47357 71308 10003 21001 39738 49884 761// 87/// 91800 333 10004 21006
AAXX 09181 02947 47431 71207 11008 21016 49976 57028 77107 87/// 91751 333 10002 21008
AAXX 09181 02963 46/// /1409 10003 20002 49876 333 1//// 2////
AAXX 09181 02974 11480 81611 10015 21003 39858 49924 57023 60022 76876 885// 333 10015 21001 43///
AAXX 09181 02976 46/// ///// 10014 20010 39950 49967 57030 91739 333 10025 20011
AAXX 09181 02982 46/// /1722 10047 20035 39850 49857 57026 91739 333 10048 20018
AAXX 09181 02981 NIL
BBXX CZ9742 09184 99506 70969 46/// /2507 11145 21217 40250 50001 7//// 8//// 22200 0//// 2////
AAXX 09181 02741 17472 82008 10053 20035 39766 49781 57019 60142 72186 88/// 91739 333 10055 20026
AAXX 09181 02755 37450 71209 11009 21024 39852 49947 57036 77174 87/// 91739 333 10003 21035
AAXX 09181 02805 17265 83501 11094 21108 39935 40073 57004 60022 78587 88/// 91739 333 11094 21148
AAXX 09181 02807 47599 50000 11061 21064 39883 40071 700// 85/// 91800 333 11019 21061
AAXX 09181 02836 17382 80902 11033 21037 39825 40051 57012 60022 72487 88/// 91739 333 11014 21045
AAXX 09181 02845 47463 81006 11028 21031 39779 40030 57016 77174 88/// 91739 333 11012 21040
AAXX 09181 02849 47582 81204 11024 21042 39782 40060 57014 70087 88/// 91739 333 11014 21026
AAXX 09181 02866 37499 81205 11014 21033 39866 40017 57026 70087 88/// 91739 333 11006 21030
AAXX 09181 02897 47499 71206 11005 21025 39822 40005 700// 87/// 91800 333 11002 21020
AAXX 09181 02913 47427 71207 10006 21004 39839 49891 761// 87/// 333 10014 21013
AAXX 09181 02917 47499 71307 10003 21027 39870 49993 700// 87/// 91800 333 10003 21013
AAXX 09181 02924 47311 81104 11006 21006 39712 49908 57025 77174 88/// 91739 333 11002 21014
AAXX 09181 02926 47482 81209 10017 20008 39819 49832 56026 723// 88/// 91800 333 1//// 2////
AAXX 09181 02935 37336 81306 11007 21014 39770 49943 57027 77187 88/// 91739 333 11002 21012
AAXX 09181 02939 37480 71307 11021 21034 39863 40059 57021 70074 87/// 91739 333 11013 21021
AAXX 09181 02944 47357 71308 10003 21001 39738 49884 761// 87/// 91800 333 10004 21006
AAXX 09181 02947 47431 71207 11008 21016 49976 57028 77107 87/// 91751 333 10002 21008
AAXX 09181 02963 46/// /1409 10003 20002 49876 333 1//// 2////
AAXX 09181 02974 11480 81611 10015 21003 39858 49924 57023 60022 76876 885// 333 10015 21001 43///
AAXX 09181 02976 46/// ///// 10014 20010 39950 49967 57030 91739 333 10025 20011
AAXX 09181 02982 46/// /1722 10047 20035 39850 49857 57026 91739 333 10048 20018
AAXX 09181 02981 NIL
AAXX 09184 81401 06/// /1404 10273 20238 30080 40086 60021 333 60007 58000 555 60005
AAXX 09184 81408 06/// /1205 10306 20228 30078 40086 69921 333 60007 58002 555 60005
AAXX 09181 01238 41570 70101 11077 21092 38650 49755 52015 70222 82631 333 11044 91107
AAXX 09181 01359 11689 60000 11064 21077 38876 49787 51015 60032 70172 84530 333 11023 91103
AAXX 09181 01026 41989 20302 11054 21087 39888 40033 57002 70300 80004 333 11045 91104
AAXX 09181 01367 11330 83103 11037 21047 39342 49781 53017 60022 70372 8872/ 333 11016 91104
AAXX 09181 01492 11587 50304 10021 21013 39641 49756 53037 69982 70165 81578 333 10026 91110
AAXX 09184 81401 06/// /1404 10273 20238 30080 40086 60021 333 60007 58000 555 60005
AAXX 09184 81408 06/// /1205 10306 20228 30078 40086 69921 333 60007 58002 555 60005
AAXX 09181 01028 11470 52705 11009 21018 30008 40028 52004 69912 70382 85300 333 11004 91109
AAXX 09181 01049 16/// /1902 11031 21059 30054 40058 57004 60002 333 11029 91105
AAXX 09181 01218 11787 61701 11003 21014 39745 49766 53013 60002 70122 82280 333 10052 91110
AAXX 09184 78906 11474 53103 10300 20241 30106 40111 60001 71522 83841 333 10309 20229 59009 83816 83359
AAXX 09184 78016 32564 71404 10229 20175 30238 40242 57012 86801 333 10243 20180 70000
AAXX 09181 89061 379// 03404 10009 21004 39862 49869 52015 72177 333 91005 91111
BBXX VOPP 09184 99456 70735 46/// /2103 10000 20002 4//// 5//// 7//// 8//// 22200 0//// 2////
BBXX VOFG 09184 99456 70614 46/// /2716 10055 21044 40268 56006 7//// 8//// 22200 0//// 2////
BBXX CGDR 09184 99499 71268 46/// /0607 10010 20008 40266 58002 7//// 8//// 22221 00112 2////
BBXX VCLM 09184 99621 70747 46/// /1613 11149 21188 49966 53004 7//// 8//// 22200 0//// 2////
BBXX CGTF 09184 99476 70527 46/// /1713 10031 21079 40225 52018 7//// 8//// 22200 0//// 2////
BBXX VRYO3 09184 99499 70618 46/// /2720 11014 21007 40185 51011 7//// 8//// 22224 00030 2////
BBXX CGDT 09184 99490 70669 46/// /2413 11010 21076 40199 56002 7//// 8//// 22200 0//// 2////
BBXX CGCC 09184 99466 70721 46/// /2112 10008 21019 40204 58013 7//// 8//// 22200 00055 2////
BBXX CGBN 09184 99447 70636 46/// /2003 10072 21029 40265 56010 7//// 8//// 22200 0//// 2////
BBXX VAAP 09184 99446 70635 46/// /2411 10071 21015 40271 56010 7//// 8//// 22200 0//// 2////
BBXX VCWL 09184 99468 70712 46/// /2502 10007 21015 40212 57010 7//// 8//// 22200 0//// 2////
BBXX VOKJ 09184 99455 70735 46/// /1903 10007 20003 40202 58019 7//// 8//// 22200 0//// 2////
BBXX CG2965 09184 99487 71235 46/// /2901 10022 20007 40279 55002 7//// 8//// 22200 0//// 2////
BBXX C6SI6 09184 99493 11583 46/// /2819 11016 21079 49932 51024 7//// 8//// 22253 0//// 2////
BBXX VCSZ 09184 99476 70527 46/// /2507 10033 21029 40221 51023 7//// 8//// 22281 0//// 2////
BBXX CGDX 09184 99468 70712 46/// /2309 10013 21014 40213 56011 7//// 8//// 22200 0//// 2////
BBXX VCBW 09184 99517 70562 46/// /2544 11043 21126 40068 53039 7//// 8//// 22261 00035 2////
BBXX 3FZK3 09184 99448 11498 46/// /2924 11017 21065 40086 57006 7//// 8//// 22213 0//// 2////
BBXX CGJK 09184 99484 71234 46/// /0206 10046 20020 40273 55002 7//// 8//// 22200 0//// 2////
BBXX CGSB 09184 99468 70712 46/// /1907 10003 21020 40214 57010 7//// 8//// 22200 0//// 2////
BBXX VAAZ 09184 99506 70503 46/// /2842 11008 21049 40101 53068 7//// 8//// 22261 0//// 2////
BBXX CGDG 09184 99477 70516 46/// /2619 10027 21009 40223 53017 7//// 8//// 22222 00034 2////
BBXX VXKF 09184 99472 70599 46/// /2728 10036 21046 40202 55025 7//// 8//// 22253 0//// 2////
AAXX 09181 37575 42998 00902 10074 21050 39592 40177 51011 333 10118
AAXX 09181 37675 42995 00000 10019 21006 39525 40195 52020 333 10065 555 53004
AAXX 09181 37735 42998 22901 10070 21067 39771 40148 52005 82030 333 10131
AAXX 09181 37749 41/92 90000 10010 20005 30095 40215 52011 74544 333 10075 555 53002
AAXX 09181 37756 42997 00000 10006 21037 39317 40236 52019 333 10112
AAXX 09181 37864 31996 00000 10036 20026 40189 52024 71000 333 10103
AAXX 09181 37985 42996 02001 10027 20022 30191 40176 52005 333 10093
AAXX 09184 78906 11474 53103 10300 20241 30106 40111 60001 71522 83841 333 10309 20229 59009 83816 83359
AAXX 09184 78016 32564 71404 10229 20175 30238 40242 57012 86801 333 10243 20180 70000
AAXX 09184 78397 11575 12204 10317 20218 30109 40125 60001 70500 81801 333 01000 10327 20229 58001 81825
AAXX 09181 89061 379// 03404 10009 21004 39862 49869 52015 72177 333 91005 91111
AAXX 09184 91503 01470 80000 10238 20236 40072 56011 60011 70582 8487/ 333 56999 69927 84826 88459
AAXX 09184 91517 11480 81808 10235 20214 40077 57008 60071 71522 8187/ 333 56999 81815 86361
AAXX 09184 64500 32475 42410 10276 20246 30063 40076 84900 333 10288 58002 84610 81920 94942 95832
BBXX CG2958 09184 99487 71235 46/// /3002 10022 20012 40287 55001 7//// 8//// 22200 0//// 2////
AAXX 09184 91503 01470 80000 10238 20236 40072 56011 60011 70582 8487/ 333 56999 69927 84826 88459
AAXX 09184 91517 11480 81808 10235 20214 40077 57008 60071 71522 8187/ 333 56999 81815 86361
AAXX 09184 78397 11575 12204 10317 20218 30109 40125 60001 70500 81801 333 01000 10327 20229 58001 81825
BBXX CGBY 09184 99487 71235 46/// /3001 10022 20004 40278 55001 7//// 8//// 22200 0//// 2////
BBXX 41010 09181 99289 70785 46/// /1005 10229 40211 58016 91750 22200 00241 10703 20401 300// 40702 70013 333 91206 555 11051 22053
BBXX 41009 09181 99285 70802 46/// /0906 10239 20161 40207 58016 91750 22200 00249 10703 20502 300// 40702 70014 333 91207 555 11063 22066
BBXX 42057 09181 99168 70815 46/// /0804 10281 20220 40137 58009 91750 22200 00284 10903 20401 3//// 40902 70013 333 91204 555 11036 22037 31702 40805 61749 076036 075036 078041 083038 079041 077042 80705 91729
BBXX 44040 09181 99410 70736 46/// /2207 10091 20028 91745 22200 10301 70004 333 91209 555 11088 22103
BBXX 51101 09181 99243 71621 46/// /0507 10223 20168 40203 53007 91750 22200 00244 11305 20502 333// 41305 70027 333 91208 555 11069 22072 31706 40812 61749 047067 072051 058052 115057 054065 042030
BBXX 46061 09181 99602 71468 46/// /0102 10041 40103 53007 91750 22200 00060 10803 20401 300// 40803 70014 333 91203 555 11024 22024 31742 40103 61749 011024 018022 018021 021019 020016 029016
AAXX 09184 68399 16/// /2306 10179 20164 30083 40194 52010 69942 333 10238 20178 91034 555 20004 91019
AAXX 09184 68383 16/// /0000 10171 20152 39952 48576 52007 60012 333 10227 20171 91000 555 20012 91019
AAXX 09184 68398 16/// /3610 10158 20151 39399 48529 53005 60022 333 10190 20158 91017 555 20022 69985 91017
AAXX 09184 68299 16/// /1909 10090 20084 38963 48540 53005 60022 333 10107 20090 91015 555 20022 69945 91022
BBXX 44172 09181 99445 70634 46/// ///// 1//// 91801 22200 00077 11204 20903 319// 41203 70021
BBXX 44097 09181 99410 70711 46/// ///// 1//// 91802 22200 00129 10902 20902 321// 41101 70012
BBXX VOLG 09184 99/// ///// 46/// /2933 10036 21026 40258 53011 7//// 8//// 22200 0//// 2////
AAXX 09181 11423 01882 72605 11004 21007 39238 42737 53008 60032 72276 8707/ 333 10040 44009 69905 87357 91116
AAXX 09181 11487 01370 82507 10038 20021 39502 40128 52007 69992 76162 885// 333 10090 69925 81707 88626 91118
AAXX 09181 11518 01584 72706 10043 21003 39674 40116 53013 69902 76062 8157/ 333 10088 69905 81630 84357 87360 91113
AAXX 09181 11603 01482 32404 10030 21002 39617 40103 52009 60042 70161 83500 333 10066 60005 81613 83636 91111
AAXX 09181 11659 01462 82703 10055 20051 39479 40117 52006 60022 76166 887// 333 10073 69975 88712
AAXX 09181 11723 01681 81102 10048 20022 39826 40126 57002 69922 76062 8657/ 333 10050 60005 86640 88358
AAXX 09181 11782 01670 82107 10062 20029 39811 40116 56004 69932 76062 885// 333 10065 69905 84633 88640 91113
AAXX 09184 60150 32960 70000 10136 20074 39585 40240 52005 83032 333 10195 83360 85070
AAXX 09184 60155 32956 736// 10161 20137 40229 52004 82032 333 10183 82360 86070
AAXX 09184 60252 32960 62402 10188 20049 40207 55002 84032 333 10255 84360 85070
AAXX 09184 60096 NIL
AAXX 09184 60101 NIL
AAXX 09184 60115 NIL
AAXX 09184 60135 NIL
AAXX 09184 60156 NIL
AAXX 09184 60230 NIL
AAXX 09181 76040 32960 03401 10148 20028 30220 40234 52018 91750 333 10194 20010 30/// 58018 98660
AAXX 09181 76055 32980 03306 10171 21045 30188 40207 52015 91440 333 10188 20042 30/// 58015
AAXX 09181 76061 32981 10602 10146 20046 30155 40231 52018 80001 91740 333 10148 20060 30/// 56005 58015 81072
AAXX 09181 76113 32980 01501 10128 21040 39716 40196 52015 91745 333 10135 21005 30/// 58012
AAXX 09181 76122 32970 70000 10117 20056 38576 40254 52015 81024 91750 333 10120 21032 30/// 56099 58025 86357
AAXX 09181 76220 32858 80000 10078 21022 38182 40290 52009 81035 91740 333 10078 21052 30/// 56066 58010 87070
AAXX 09181 76225 32760 50901 10138 21047 38660 40199 50007 82038 91745 333 10138 20028 30/// 56055 58020 82350 83270
AAXX 09181 76256 32980 33202 10170 20034 30190 40204 52017 80001 91745 333 10184 20092 30/// 56//5 58009 83070
AAXX 09181 76258 32970 42704 10180 20091 30143 40189 52011 80004 91750 333 10185 20052 30/// 56005 58007
AAXX 09181 76305 32970 33401 10208 20098 30189 40197 52014 80003 91740 333 10212 20118 30/// 56005 58008 83070
AAXX 09181 76323 32970 43601 10190 20025 38297 40235 50000 84030 91755 333 10200 20080 30/// 56050 58007 84658
AAXX 09181 76342 31862 63602 10178 20008 39539 40264 52012 70221 86070 91750 333 10184 20076 30/// 56050 58010 86357
AAXX 09181 76390 31962 21603 10197 21071 38257 40193 52008 70544 80004 91730 333 10208 20048 30/// 56005 58017 82070
AAXX 09181 76393 31920 30401 10202 20097 39623 40210 52001 70544 80001 91751 333 10212 20100 30/// 56007 59012
AAXX 09181 76402 31957 30901 10224 20143 30134 40192 52013 70544 80005 91745 333 10227 20106 30/// 56006 58010
AAXX 09181 76423 32680 72501 10188 20044 38178 40181 58002 85054 91750 333 10197 20070 30/// 56099 58007 85357 82067
AAXX 09181 76458 32970 23004 10222 20171 30174 40178 50002 80005 91740 333 10243 20132 30/// 56//6 59003 82072
AAXX 09181 76491 32960 03601 10220 20110 39831 40231 52007 91745 333 10232 20048 30/// 59029
AAXX 09181 76499 32862 30000 10252 20137 30174 40196 57001 83030 91755 333 10253 20125 30/// 56090 59027 83357
AAXX 09181 76519 32960 32502 10206 20020 38387 40239 57001 80001 91752 333 10209 20012 30/// 56006 59004 83070
AAXX 09181 76525 32980 32103 10124 21004 37497 40181 52007 80001 91740 333 10126 20082 30/// 56//5 58012 83080
AAXX 09181 76539 31965 03601 10212 20027 38179 40212 52006 70544 91745 333 10228 20039 30/// 59003
AAXX 09181 76543 32675 72701 10229 20143 30182 40215 57009 8355/ 91739 333 10230 20153 30/// 5633/ 59032 83650 84358
AAXX 09181 76548 32875 62002 10228 20157 30204 40214 50005 8607/ 91745 333 10232 20160 30/// 59034 86358
AAXX 09181 76556 32970 13602 10254 20122 39150 40181 52013 80001 91730 333 10256 20122 30/// 56005 59002 81070
AAXX 09181 76577 32970 32304 10190 20144 38065 40188 50001 80003 91740 333 10199 20084 30/// 56005 59003
AAXX 09181 76581 32970 00301 10178 20125 39071 40199 57006 91750 333 10182 20068 30/// 59014
AAXX 09181 76585 32980 60000 10222 20181 30041 40200 50000 86070 91735 333 10225 20157 30/// 56/5/ 59026 86358
AAXX 09181 76593 32470 30504 10256 20221 30198 40200 58004 82270 91750 333 10264 20163 30/// 5611/ 59006 82020 81330 91006 91505
AAXX 09181 76625 32950 02704 10210 20078 38159 40157 57001 91740 333 10210 20096 30/// 59006
AAXX 09181 76632 31950 12102 10172 20098 37645 40150 57009 70500 81400 91750 333 10180 20075 30/// 56600 59008 81631 98550
AAXX 09181 76634 31970 00502 10218 20040 37866 40185 57008 70500 80000 91750 333 10221 20068 30/// 56/// 59002
AAXX 09181 76654 31956 02702 10297 20186 30156 40160 57001 70544 91755 333 10298 20212 30/// 59011
AAXX 09181 76656 32575 33601 10234 20079 38532 40193 58001 81530 91750 333 10240 20074 30/// 56350 58001 81620
AAXX 09181 76658 31558 20902 10291 20150 39651 40158 57006 70540 81201 91742 333 10298 20175 30/// 56201 59009 81822 81070 94082 98924
AAXX 09181 76662 32970 32302 10224 20111 38477 40174 57017 81202 91745 333 10232 20060 30/// 56/0/ 59005 81833
AAXX 09181 76665 32962 02101 10218 20100 38128 40161 57005 91755 333 10228 20080 30/// 59014
AAXX 09181 76675 31970 00502 10170 20018 37392 40206 56001 70544 91745 333 10175 20000 30/// 59007 98470
AAXX 09181 76681 31940 03201 10204 20080 37793 40170 57010 70500 91745 333 10204 20036 30/// 59004
AAXX 09181 76683 32970 00901 10203 20085 37840 40218 56010 91745 333 10215 20036 30/// 59008
AAXX 09181 76685 31965 00000 10204 20043 37883 40176 52029 70544 92055 333 30/// 569// 59002
AAXX 09181 76687 31468 51601 10188 20130 38709 40212 50003 70311 85100 91740 333 10196 20098 30/// 563// 59015 82623 83826
AAXX 09181 76692 31556 50903 10253 20182 30180 40200 57009 70544 84230 91745 333 10262 20178 30/// 5633/ 59030 81818 83630
AAXX 09181 76695 32960 02903 10254 20176 30173 40179 57005 91450 333 10256 20124 30/// 59013
AAXX 09181 76698 32560 63601 10268 20211 30168 40180 57016 86200 91750 333 10286 20156 30/// 56800 59012 86820
AAXX 09181 76737 31480 31402 10208 20140 38801 40200 58001 70300 83200 91735 333 10215 20096 30/// 56200 59019 82813 91106 91514
AAXX 09181 76743 31957 80901 10244 20192 30177 40185 58007 70222 88050 91745 333 10245 20195 30/// 56/0/ 59009 88356
AAXX 09181 76750 32560 43203 10271 20201 301167 40177 57011 83110 91750 333 10276 20168 30/// 56110 59010 83820
AAXX 09181 76762 32904 03602 10276 20224 38773 40161 51005 91730 333 10277 20114 30/// 59023
AAXX 09181 76773 32570 12101 10238 20080 38434 40186 57013 81100 91745 333 10241 20048 30/// 56900 59012 81820
AAXX 09181 76775 31970 00901 10238 20087 38538 40194 57008 70200 91730 333 10240 20078 30/// 59015
AAXX 09181 76805 32970 02102 10301 20235 30134 40139 57008 91750 333 10338 20210 30/// 59001
AAXX 09181 76833 32970 03610 10294 20260 30135 40137 57009 91745 333 10294 20212 30/// 59003 92001
AAXX 09181 76840 32550 10304 10309 20189 30077 40133 57009 81200 91740 333 10316 20190 30/// 568// 59008 81827
AAXX 09181 76845 32960 00602 10190 20126 37958 40186 56009 91745 333 10198 20048 30/// 59007
AAXX 09181 76848 32670 10502 10211 20103 38395 40112 56006 81200 91750 333 10211 20119 30/// 56100 59005 81845 98908
AAXX 09181 76903 31580 12602 10330 20253 39999 40134 57012 70300 81100 91755 333 10338 20222 30/// 56300 59012 81821
AAXX 09181 76160 32962 31801 10150 20001 39948 40202 52018 80002 91750 333 10150 20050 30/// 56004 58011 83070
AAXX 09181 76243 32473 73601 10150 20079 39942 40246 52016 87300 91735 333 10162 20050 30/// 56800 58009 87616
AAXX 09181 76253 32782 30503 10178 20100 30119 40209 53011 83020 91754 333 10190 20125 30/// 56050 58006 83457 92002
AAXX 09181 76405 32880 73601 10214 20156 30176 40196 51013 87020 91750 333 10214 20138 30/// 56050 58007 87557
AAXX 09181 76412 31966 02201 10224 20106 30140 40185 57015 70544 91750 333 10228 20090 30/// 59014
AAXX 09181 76640 11358 83202 10198 20179 30212 40224 52006 69921 70222 8652/ 91740 333 10214 20166 30/// 5679/ 59041 86608
AAXX 09181 76647 32670 60502 10275 20187 30166 40196 57004 86200 91750 333 10286 20144 30/// 56100 59010 86836
AAXX 09181 76741 31460 40000 10237 20210 30151 40170 52005 70544 83230 91735 333 10241 20160 30/// 562// 59024 83811
AAXX 09181 76843 32465 30202 10264 20164 39511 57014 83200 91740 333 10269 20170 30/// 59019 83828
AAXX 09181 76855 32580 11301 10300 20237 30075 40124 50004 81200 91740 333 10310 20206 30/// 56900 58001 81820 92000
AAXX 09184 60060 32958 60606 10210 20013 40212 55001 84032 333 10235 85360 95300
AAXX 09184 60105 32950 61605 10151 20117 40235 57001 84032 333 10162 84360 83070
AAXX 09184 60107 32560 71802 10123 20097 40232 50003 8127/ 333 10172 81820 87460 95300
AAXX 09184 60127 32960 80000 10154 20070 39641 40234 52009 80002 333 10176 88073
AAXX 09184 60141 32560 70000 10128 20068 39572 40240 51008 82532 333 10207 82630 83360 85073
AAXX 09184 60185 32460 60407 10168 20133 40240 53006 83502 333 10189 83616 84070
AAXX 09184 60191 32970 72202 10150 20113 40236 56001 8707/ 333 10180 87460
AAXX 09184 60195 32965 72412 10100 21018 38565 48579 53006 84072 333 10144 84360 83073 95500
AAXX 09184 60265 32970 60000 10148 21026 38948 48573 53001 84082 333 10163 84360 83070
AAXX 09184 60106 NIL
AAXX 09184 60190 NIL
AAXX 09184 60210 NIL
AAXX 09184 60220 NIL
AAXX 09184 60318 NIL
BBXX 46232 09181 99325 71174 46/// ///// 1//// 91738 22200 00144 11202 20601 326// 41201 70008
BBXX 46247 09181 99378 71228 46/// ///// 1//// 91751 22200 00117 12003 21002 328// 42003 70016
BBXX 46243 09181 99462 71241 46/// ///// 1//// 91759 22200 00094 11803 20702 327// 41803 70017
BBXX 46236 09181 99368 71219 46/// ///// 1//// 91750 22200 00117 12202 21002 329// 42202 70011
BBXX 46229 09181 99438 71246 46/// ///// 1//// 91751 22200 00105 11803 20702 330// 41802 70017
BBXX 46225 09181 99329 71174 46/// ///// 1//// 91744 22200 00159 11201 20601 323// 41201 70006
BBXX 46213 09181 99403 71247 46/// ///// 1//// 91754 22200 00107 12005 20803 330// 42003 70023
BBXX 46215 09181 99352 71209 46/// ///// 1//// 91738 22200 00131 12203 21001 327// 42202 70013
AAXX 09181 76040 32960 03401 10148 20028 30220 40234 52018 91750 33310194 20010 30/// 58018 98660
AAXX 09181 76055 32980 03306 10171 21045 30188 40207 52015 91440 33310188 20042 30/// 58015
AAXX 09181 76061 32981 10602 10146 20046 30155 40231 52018 80001 91740333 10148 20060 30/// 56005 58015 81072
AAXX 09181 76113 32980 01501 10128 21040 39716 40196 52015 91745 33310135 21005 30/// 58012
AAXX 09181 76122 32970 70000 10117 20056 38576 40254 52015 81024 91750333 10120 21032 30/// 56099 58025 86357
AAXX 09181 76220 32858 80000 10078 21022 38182 40290 52009 81035 91740333 10078 21052 30/// 56066 58010 87070
AAXX 09181 76225 32760 50901 10138 21047 38660 40199 50007 82038 91745333 10138 20028 30/// 56055 58020 82350 83270
AAXX 09181 76256 32980 33202 10170 20034 30190 40204 52017 80001 91745333 10184 20092 30/// 56//5 58009 83070
AAXX 09181 76258 32970 42704 10180 20091 30143 40189 52011 80004 91750333 10185 20052 30/// 56005 58007
AAXX 09181 76305 32970 33401 10208 20098 30189 40197 52014 80003 91740333 10212 20118 30/// 56005 58008 83070
AAXX 09181 76323 32970 43601 10190 20025 38297 40235 50000 84030 91755333 10200 20080 30/// 56050 58007 84658
AAXX 09181 76342 31862 63602 10178 20008 39539 40264 52012 70221 8607091750 333 10184 20076 30/// 56050 58010 86357
AAXX 09181 76390 31962 21603 10197 21071 38257 40193 52008 70544 8000491730 333 10208 20048 30/// 56005 58017 82070
AAXX 09181 76393 31920 30401 10202 20097 39623 40210 52001 70544 8000191751 333 10212 20100 30/// 56007 59012
AAXX 09181 76402 31957 30901 10224 20143 30134 40192 52013 70544 8000591745 333 10227 20106 30/// 56006 58010
AAXX 09181 76423 32680 72501 10188 20044 38178 40181 58002 85054 91750333 10197 20070 30/// 56099 58007 85357 82067
AAXX 09181 76458 32970 23004 10222 20171 30174 40178 50002 80005 91740333 10243 20132 30/// 56//6 59003 82072
AAXX 09181 76491 32960 03601 10220 20110 39831 40231 52007 91745 33310232 20048 30/// 59029
AAXX 09181 76499 32862 30000 10252 20137 30174 40196 57001 83030 91755333 10253 20125 30/// 56090 59027 83357
AAXX 09181 76519 32960 32502 10206 20020 38387 40239 57001 80001 91752333 10209 20012 30/// 56006 59004 83070
AAXX 09181 76525 32980 32103 10124 21004 37497 40181 52007 80001 91740333 10126 20082 30/// 56//5 58012 83080
AAXX 09181 76539 31965 03601 10212 20027 38179 40212 52006 70544 91745333 10228 20039 30/// 59003
AAXX 09181 76543 32675 72701 10229 20143 30182 40215 57009 8355/ 91739333 10230 20153 30/// 5633/ 59032 83650 84358
AAXX 09181 76548 32875 62002 10228 20157 30204 40214 50005 8607/ 91745333 10232 20160 30/// 59034 86358
AAXX 09181 76556 32970 13602 10254 20122 39150 40181 52013 80001 91730333 10256 20122 30/// 56005 59002 81070
AAXX 09181 76577 32970 32304 10190 20144 38065 40188 50001 80003 91740333 10199 20084 30/// 56005 59003
AAXX 09181 76581 32970 00301 10178 20125 39071 40199 57006 91750 33310182 20068 30/// 59014
AAXX 09181 76585 32980 60000 10222 20181 30041 40200 50000 86070 91735333 10225 20157 30/// 56/5/ 59026 86358
AAXX 09181 76593 32470 30504 10256 20221 30198 40200 58004 82270 91750333 10264 20163 30/// 5611/ 59006 82020 81330 91006 91505
AAXX 09181 76625 32950 02704 10210 20078 38159 40157 57001 91740 33310210 20096 30/// 59006
AAXX 09181 76632 31950 12102 10172 20098 37645 40150 57009 70500 8140091750 333 10180 20075 30/// 56600 59008 81631 98550
AAXX 09181 76634 31970 00502 10218 20040 37866 40185 57008 70500 8000091750 333 10221 20068 30/// 56/// 59002
AAXX 09181 76654 31956 02702 10297 20186 30156 40160 57001 70544 91755333 10298 20212 30/// 59011
AAXX 09181 76656 32575 33601 10234 20079 38532 40193 58001 81530 91750333 10240 20074 30/// 56350 58001 81620
AAXX 09181 76658 31558 20902 10291 20150 39651 40158 57006 70540 8120191742 333 10298 20175 30/// 56201 59009 81822 81070 9408298924
AAXX 09181 76662 32970 32302 10224 20111 38477 40174 57017 81202 91745333 10232 20060 30/// 56/0/ 59005 81833
AAXX 09181 76665 32962 02101 10218 20100 38128 40161 57005 91755 33310228 20080 30/// 59014
AAXX 09181 76675 31970 00502 10170 20018 37392 40206 56001 70544 91745333 10175 20000 30/// 59007 98470
AAXX 09181 76681 31940 03201 10204 20080 37793 40170 57010 70500 91745333 10204 20036 30/// 59004
AAXX 09181 76683 32970 00901 10203 20085 37840 40218 56010 91745 33310215 20036 30/// 59008
AAXX 09181 76685 31965 00000 10204 20043 37883 40176 52029 70544 92055333 30/// 569// 59002
AAXX 09181 76687 31468 51601 10188 20130 38709 40212 50003 70311 8510091740 333 10196 20098 30/// 563// 59015 82623 83826
AAXX 09181 76692 31556 50903 10253 20182 30180 40200 57009 70544 8423091745 333 10262 20178 30/// 5633/ 59030 81818 83630
AAXX 09181 76695 32960 02903 10254 20176 30173 40179 57005 91450 33310256 20124 30/// 59013
AAXX 09181 76698 32560 63601 10268 20211 30168 40180 57016 86200 91750333 10286 20156 30/// 56800 59012 86820
AAXX 09181 76737 31480 31402 10208 20140 38801 40200 58001 70300 8320091735 333 10215 20096 30/// 56200 59019 82813 91106 91514
AAXX 09181 76743 31957 80901 10244 20192 30177 40185 58007 70222 8805091745 333 10245 20195 30/// 56/0/ 59009 88356
AAXX 09181 76750 32560 43203 10271 20201 301167 40177 57011 83110 91750 333 10276 20168 30/// 56110 59010 83820
AAXX 09181 76762 32904 03602 10276 20224 38773 40161 51005 91730 33310277 20114 30/// 59023
AAXX 09181 76773 32570 12101 10238 20080 38434 40186 57013 81100 91745333 10241 20048 30/// 56900 59012 81820
AAXX 09181 76775 31970 00901 10238 20087 38538 40194 57008 70200 91730333 10240 20078 30/// 59015
AAXX 09181 76805 32970 02102 10301 20235 30134 40139 57008 91750 33310338 20210 30/// 59001
AAXX 09181 76833 32970 03610 10294 20260 30135 40137 57009 91745 33310294 20212 30/// 59003 92001
AAXX 09181 76840 32550 10304 10309 20189 30077 40133 57009 81200 91740333 10316 20190 30/// 568// 59008 81827
AAXX 09181 76845 32960 00602 10190 20126 37958 40186 56009 91745 33310198 20048 30/// 59007
AAXX 09181 76848 32670 10502 10211 20103 38395 40112 56006 81200 91750333 10211 20119 30/// 56100 59005 81845 98908
AAXX 09181 76903 31580 12602 10330 20253 39999 40134 57012 70300 8110091755 333 10338 20222 30/// 56300 59012 81821
AAXX 09181 76160 32962 31801 10150 20001 39948 40202 52018 80002 91750333 10150 20050 30/// 56004 58011 83070
AAXX 09181 76243 32473 73601 10150 20079 39942 40246 52016 87300 91735333 10162 20050 30/// 56800 58009 87616
AAXX 09181 76253 32782 30503 10178 20100 30119 40209 53011 83020 91754333 10190 20125 30/// 56050 58006 83457 92002
AAXX 09181 76405 32880 73601 10214 20156 30176 40196 51013 87020 91750333 10214 20138 30/// 56050 58007 87557
AAXX 09181 76412 31966 02201 10224 20106 30140 40185 57015 70544 91750333 10228 20090 30/// 59014
AAXX 09181 76640 11358 83202 10198 20179 30212 40224 52006 69921 702228652/ 91740 333 10214 20166 30/// 5679/ 59041 86608
AAXX 09181 76647 32670 60502 10275 20187 30166 40196 57004 86200 91750333 10286 20144 30/// 56100 59010 86836
AAXX 09181 76741 31460 40000 10237 20210 30151 40170 52005 70544 8323091735 333 10241 20160 30/// 562// 59024 83811
AAXX 09181 76843 32465 30202 10264 20164 39511 57014 83200 91740 33310269 20170 30/// 59019 83828
AAXX 09181 76855 32580 11301 10300 20237 30075 40124 50004 81200 91740333 10310 20206 30/// 56900 58001 81820 92000
AAXX 09184 78062 12565 60511 10259 20216 40193 60001 86870 333 58004 83820 85640 90908
AAXX 09181 76040 32960 03401 10148 20028 30220 40234 52018 91750 333 10194 20010 30/// 58018 98660
AAXX 09181 76055 32980 03306 10171 21045 30188 40207 52015 91440 333 10188 20042 30/// 58015
AAXX 09181 76061 32981 10602 10146 20046 30155 40231 52018 80001 91740 333 10148 20060 30/// 56005 58015 81072
AAXX 09181 76113 32980 01501 10128 21040 39716 40196 52015 91745 333 10135 21005 30/// 58012
AAXX 09181 76122 32970 70000 10117 20056 38576 40254 52015 81024 91750 333 10120 21032 30/// 56099 58025 86357
AAXX 09181 76220 32858 80000 10078 21022 38182 40290 52009 81035 91740 333 10078 21052 30/// 56066 58010 87070
AAXX 09181 76225 32760 50901 10138 21047 38660 40199 50007 82038 91745 333 10138 20028 30/// 56055 58020 82350 83270
AAXX 09181 76256 32980 33202 10170 20034 30190 40204 52017 80001 91745 333 10184 20092 30/// 56//5 58009 83070
AAXX 09181 76258 32970 42704 10180 20091 30143 40189 52011 80004 91750 333 10185 20052 30/// 56005 58007
AAXX 09181 76305 32970 33401 10208 20098 30189 40197 52014 80003 91740 333 10212 20118 30/// 56005 58008 83070
AAXX 09181 76323 32970 43601 10190 20025 38297 40235 50000 84030 91755 333 10200 20080 30/// 56050 58007 84658
AAXX 09181 76342 31862 63602 10178 20008 39539 40264 52012 70221 86070 91750 333 10184 20076 30/// 56050 58010 86357
AAXX 09181 76390 31962 21603 10197 21071 38257 40193 52008 70544 80004 91730 333 10208 20048 30/// 56005 58017 82070
AAXX 09181 76393 31920 30401 10202 20097 39623 40210 52001 70544 80001 91751 333 10212 20100 30/// 56007 59012
AAXX 09181 76402 31957 30901 10224 20143 30134 40192 52013 70544 80005 91745 333 10227 20106 30/// 56006 58010
AAXX 09181 76423 32680 72501 10188 20044 38178 40181 58002 85054 91750 333 10197 20070 30/// 56099 58007 85357 82067
AAXX 09181 76458 32970 23004 10222 20171 30174 40178 50002 80005 91740 333 10243 20132 30/// 56//6 59003 82072
AAXX 09181 76491 32960 03601 10220 20110 39831 40231 52007 91745 333 10232 20048 30/// 59029
AAXX 09181 76499 32862 30000 10252 20137 30174 40196 57001 83030 91755 333 10253 20125 30/// 56090 59027 83357
AAXX 09181 76519 32960 32502 10206 20020 38387 40239 57001 80001 91752 333 10209 20012 30/// 56006 59004 83070
AAXX 09181 76525 32980 32103 10124 21004 37497 40181 52007 80001 91740 333 10126 20082 30/// 56//5 58012 83080
AAXX 09181 76539 31965 03601 10212 20027 38179 40212 52006 70544 91745 333 10228 20039 30/// 59003
AAXX 09181 76543 32675 72701 10229 20143 30182 40215 57009 8355/ 91739 333 10230 20153 30/// 5633/ 59032 83650 84358
AAXX 09181 76548 32875 62002 10228 20157 30204 40214 50005 8607/ 91745 333 10232 20160 30/// 59034 86358
AAXX 09181 76556 32970 13602 10254 20122 39150 40181 52013 80001 91730 333 10256 20122 30/// 56005 59002 81070
AAXX 09181 76577 32970 32304 10190 20144 38065 40188 50001 80003 91740 333 10199 20084 30/// 56005 59003
AAXX 09181 76581 32970 00301 10178 20125 39071 40199 57006 91750 333 10182 20068 30/// 59014
AAXX 09181 76585 32980 60000 10222 20181 30041 40200 50000 86070 91735 333 10225 20157 30/// 56/5/ 59026 86358
AAXX 09181 76593 32470 30504 10256 20221 30198 40200 58004 82270 91750 333 10264 20163 30/// 5611/ 59006 82020 81330 91006 91505
AAXX 09181 76625 32950 02704 10210 20078 38159 40157 57001 91740 333 10210 20096 30/// 59006
AAXX 09181 76632 31950 12102 10172 20098 37645 40150 57009 70500 81400 91750 333 10180 20075 30/// 56600 59008 81631 98550
AAXX 09181 76634 31970 00502 10218 20040 37866 40185 57008 70500 80000 91750 333 10221 20068 30/// 56/// 59002
AAXX 09181 76654 31956 02702 10297 20186 30156 40160 57001 70544 91755 333 10298 20212 30/// 59011
AAXX 09181 76656 32575 33601 10234 20079 38532 40193 58001 81530 91750 333 10240 20074 30/// 56350 58001 81620
AAXX 09181 76658 31558 20902 10291 20150 39651 40158 57006 70540 81201 91742 333 10298 20175 30/// 56201 59009 81822 81070 94082 98924
AAXX 09181 76662 32970 32302 10224 20111 38477 40174 57017 81202 91745 333 10232 20060 30/// 56/0/ 59005 81833
AAXX 09181 76665 32962 02101 10218 20100 38128 40161 57005 91755 333 10228 20080 30/// 59014
AAXX 09181 76675 31970 00502 10170 20018 37392 40206 56001 70544 91745 333 10175 20000 30/// 59007 98470
AAXX 09181 76681 31940 03201 10204 20080 37793 40170 57010 70500 91745 333 10204 20036 30/// 59004
AAXX 09181 76683 32970 00901 10203 20085 37840 40218 56010 91745 333 10215 20036 30/// 59008
AAXX 09181 76685 31965 00000 10204 20043 37883 40176 52029 70544 92055 333 30/// 569// 59002
AAXX 09181 76687 31468 51601 10188 20130 38709 40212 50003 70311 85100 91740 333 10196 20098 30/// 563// 59015 82623 83826
AAXX 09181 76692 31556 50903 10253 20182 30180 40200 57009 70544 84230 91745 333 10262 20178 30/// 5633/ 59030 81818 83630
AAXX 09181 76695 32960 02903 10254 20176 30173 40179 57005 91450 333 10256 20124 30/// 59013
AAXX 09181 76698 32560 63601 10268 20211 30168 40180 57016 86200 91750 333 10286 20156 30/// 56800 59012 86820
AAXX 09181 76737 31480 31402 10208 20140 38801 40200 58001 70300 83200 91735 333 10215 20096 30/// 56200 59019 82813 91106 91514
AAXX 09181 76743 31957 80901 10244 20192 30177 40185 58007 70222 88050 91745 333 10245 20195 30/// 56/0/ 59009 88356
AAXX 09181 76750 32560 43203 10271 20201 301167 40177 57011 83110 91750 333 10276 20168 30/// 56110 59010 83820
AAXX 09181 76762 32904 03602 10276 20224 38773 40161 51005 91730 333 10277 20114 30/// 59023
AAXX 09181 76773 32570 12101 10238 20080 38434 40186 57013 81100 91745 333 10241 20048 30/// 56900 59012 81820
AAXX 09181 76775 31970 00901 10238 20087 38538 40194 57008 70200 91730 333 10240 20078 30/// 59015
AAXX 09181 76805 32970 02102 10301 20235 30134 40139 57008 91750 333 10338 20210 30/// 59001
AAXX 09181 76833 32970 03610 10294 20260 30135 40137 57009 91745 333 10294 20212 30/// 59003 92001
AAXX 09181 76840 32550 10304 10309 20189 30077 40133 57009 81200 91740 333 10316 20190 30/// 568// 59008 81827
AAXX 09181 76845 32960 00602 10190 20126 37958 40186 56009 91745 333 10198 20048 30/// 59007
AAXX 09181 76848 32670 10502 10211 20103 38395 40112 56006 81200 91750 333 10211 20119 30/// 56100 59005 81845 98908
AAXX 09181 76903 31580 12602 10330 20253 39999 40134 57012 70300 81100 91755 333 10338 20222 30/// 56300 59012 81821
AAXX 09181 76160 32962 31801 10150 20001 39948 40202 52018 80002 91750 333 10150 20050 30/// 56004 58011 83070
AAXX 09181 76243 32473 73601 10150 20079 39942 40246 52016 87300 91735 333 10162 20050 30/// 56800 58009 87616
AAXX 09181 76253 32782 30503 10178 20100 30119 40209 53011 83020 91754 333 10190 20125 30/// 56050 58006 83457 92002
AAXX 09181 76405 32880 73601 10214 20156 30176 40196 51013 87020 91750 333 10214 20138 30/// 56050 58007 87557
AAXX 09181 76412 31966 02201 10224 20106 30140 40185 57015 70544 91750 333 10228 20090 30/// 59014
AAXX 09181 76640 11358 83202 10198 20179 30212 40224 52006 69921 70222 8652/ 91740 333 10214 20166 30/// 5679/ 59041 86608
AAXX 09181 76647 32670 60502 10275 20187 30166 40196 57004 86200 91750 333 10286 20144 30/// 56100 59010 86836
AAXX 09181 76741 31460 40000 10237 20210 30151 40170 52005 70544 83230 91735 333 10241 20160 30/// 562// 59024 83811
AAXX 09181 76843 32465 30202 10264 20164 39511 57014 83200 91740 333 10269 20170 30/// 59019 83828
AAXX 09181 76855 32580 11301 10300 20237 30075 40124 50004 81200 91740 333 10310 20206 30/// 56900 58001 81820 92000
BBXX 46218 09181 99345 71208 46/// ///// 1//// 91802 22200 00139 12203 21002 329// 42202 70016
AAXX 09181 10004 46/60 /2714 10081 20004 30014 40014 53011 222// 00101 333 10091 20049 55300 91120 91216
BBXX 44100 09181 99363 70756 46/// ///// 1//// 91752 22200 00144 11002 21002 310// 41101 70010
BBXX 41110 09181 99341 70777 46/// ///// 1//// 91751 22200 00158 10502 20502 70012
BBXX 42099 09181 99273 70842 46/// ///// 1//// 91757 22200 00240 10402 20402 70008
BBXX 41113 09181 99284 70805 46/// ///// 1//// 91751 22200 00219 10902 20902 70008
BBXX 41112 09181 99307 70813 46/// ///// 1//// 91751 22200 00166 10502 20502 70010
BBXX 46219 09181 99332 71199 46/// ///// 1//// 91758 22200 00135 12203 20502 330// 42202 70013
BBXX 46224 09181 99332 71175 46/// ///// 1//// 91736 22200 00153 11101 20601 323// 41101 70006
BBXX 46214 09181 99379 71235 46/// ///// 1//// 91757 22200 00115 12004 20903 329// 42003 70020
BBXX 46001 09181 99563 71480 46/// /2811 10052 40160 53012 91750 22200 00052 11607 20705 300// 41605 70033 333 91213 555 11120 22128 31708 42715 61749 277113 273113 275112 271119 272118 273118
BBXX 46012 09181 99374 71229 46/// /0402 10109 40227 53014 91750 22200 00119 12103 20401 329// 42103 70016 333 91202 555 11015 22016 31708 40403 61749 041014 039016 041019 037023 031023 034018
BBXX 46013 09181 99382 71233 46/// /0806 10099 40231 52015 91750 22200 00105 12104 20501 3//// 42104 70018 333 91207 555 11066 22069 31655 40809 61749 074062 072062 072067 071067 074067 079073
BBXX 46026 09181 99378 71228 46/// /0908 10114 40226 51014 91750 22200 00115 12103 20301 329// 42103 70015 333 91209 555 11081 22086 31743 40909 61749 086075 284071 288067 287068 288071 292071
BBXX 46029 09181 99461 71245 46/// /0807 10064 20033 40235 52004 91750 22200 00077 11703 20602 330// 41703 70016 333 91208 555 11075 22079 31746 40708 61749 075070 076064 075058 080054 081051 078055
BBXX 46054 09181 99342 71204 46/// /3103 10132 40217 51018 91750 22200 00140 12103 20401 300// 42102 70013 333 91204 555 11035 22037 31714 43104 61749 313033 311034 312035 311035 311033 319032
BBXX CG2958 09184 99487 71235 46/// /3002 10022 20012 40287 55001 7//// 8//// 22200 0//// 2////
BBXX CG2965 09184 99487 71235 46/// /2901 10022 20007 40279 55002 7//// 8//// 22200 0//// 2////
BBXX CGBR 09184 99534 71293 46/// /0708 10015 20015 40255 56016 7//// 8//// 22200 0//// 2////
BBXX CGDR 09184 99499 71268 46/// /0607 10010 20008 40266 58002 7//// 8//// 22221 00112 2////
BBXX CGJK 09184 99484 71234 46/// /0206 10046 20020 40273 55002 7//// 8//// 22200 0//// 2////
AAXX 09184 87692 32560 40714 10216 20149 30140 40165 57016 81104 333 56505 81820 84070 555 10164
BBXX 44099 09181 99369 70757 46/// ///// 1//// 91752 22200 00133 11102 21002 70009
BBXX 51204 09181 99213 71581 46/// ///// 1//// 91752 22200 00248 11703 20602 331// 41703 70017
BBXX 51202 09181 99214 71577 46/// ///// 1//// 91739 22200 00241 10804 20804 334// 41501 70021
AAXX 09181 37682 32997 63301 11064 21068 38110 48515 54000 86040 333 10018
AAXX 09181 37717 325// 62402 11043 21098 38069 48504 52006 82570 333 10006
AAXX 09181 37788 41695 80501 10001 21066 39210 40235 52006 71022 8257/ 333 10048
AAXX 09181 01062 11489 61802 11040 21051 30007 40020 52002 60002 70221 86500 333 11024 91104
AAXX 09181 01427 11450 72924 10042 20021 39813 49829 53035 60102 78782 87900 333 10077 91136
AAXX 09181 14648 12970 70000 10076 20025 30129 40251 53003 60002 87070 333 10110 87460
AAXX 09181 14652 12984 62028 11035 21053 37917 48485 57025 60002 86050 333 11005 49017 86358
AAXX 09181 14542 NIL
BBXX BATFR15 09184 99499 70032 46/// /2917 10094 20029 40139 53003 22254 00134
AAXX 09184 16045 NIL
AAXX 09184 16090 11656 73303 10072 20031 30118 40202 53002 60002 71022 84530 333 10106 84640 84357
AAXX 09184 16149 12765 61803 10128 20115 30180 40196 56004 60002 86030 333 10154 86356
AAXX 09184 16261 12965 32005 10122 20087 30145 40218 53004 69922 80001 333 10180 55300
AAXX 09184 16453 12897 50802 10162 20133 30180 40258 51001 60002 85030 333 10200 55300 85358 555 0100/
AAXX 09184 16560 12265 52805 10136 20112 30225 40231 52001 60002 82501 333 10194 81705
BBXX BATEU01 09184 99466 70441 44497 62830 10054 21002 40205 53037 70222 84364 22264 00065 21004 331// 41404 5////
BBXX BATFR27 09184 99508 70011 46/// /2830 10097 20020 40124 56006 22282 00122
BBXX BATFR09 09184 99374 10025 44497 82302 10157 20117 40222 50/// 70322 8771/ 22222 00192 20000 30000 40000 50000
BBXX BATEU05 09184 99618 70108 46/// /3324 11010 21082 40061 51023 22262
BBXX BATFR12 09184 99483 70072 46/// /3505 10099 20039 40167 52002 22261 00145
AAXX 09184 16021 NIL
AAXX 09184 16022 12970 32218 11028 21034 37834 48479 56005 60002 80004 333 11018 444 18180
AAXX 09184 16033 12862 50000 11028 21056 38791 48492 53001 60002 85030 333 11004 43006 85357 92822
AAXX 09184 16040 12565 83103 10072 20034 39258 42785 56002 60002 85220 333 10078 85830 83457
AAXX 09184 16052 12970 03012 11054 21260 36613 47039 58003 60002 333 11040 49999
AAXX 09184 16061 12865 50102 10050 20022 39353 42800 56006 60002 85030 333 10084 85357
AAXX 09184 16098 11657 73302 10076 20042 30147 40199 53001 60002 71022 83570 333 10102 83640 85357
AAXX 09184 16138 12662 40000 10068 20050 30189 40201 55001 60002 84200 333 10092 84835
AAXX 09184 16148 11657 73307 10084 20072 30190 40202 53003 60002 71022 85508 333 10127 85645
AAXX 09184 16168 12170 72216 10110 20104 39465 42822 56008 60002 87200 333 10122 87803
AAXX 09184 16172 11457 80000 10104 20095 39924 40225 56003 60002 71022 888// 333 10118 83818 86621
AAXX 09184 16179 12575 70605 10124 20058 39524 42817 56004 60002 87800 333 10132 84825 84630
AAXX 09184 16224 12561 61508 10116 20102 39905 40224 56004 60002 82208 333 10146 82820
AAXX 09184 16232 12998 42203 10140 20040 30160 40213 52009 60002 80004 333 10182 55300 555 0////
AAXX 09184 16245 11562 71005 10138 20119 30200 40226 58008 60012 70262 87800 333 10160 83825 84640
AAXX 09184 16253 12560 80000 10126 20110 30223 40235 58001 60002 8458/ 333 10178 84630 86357
AAXX 09184 16258 12970 62511 10086 20038 39227 42827 53003 60002 82015 333 10104 82460
AAXX 09184 16263 12470 52622 10062 20042 38961 48523 51002 60002 85500 333 10088 85615
AAXX 09184 16294 NIL
AAXX 09184 16337 12598 51710 10116 20099 39677 40251 54000 60002 85200 333 10142 84820 555 0////
AAXX 09184 16344 11/00 92613 10034 20034 38367 48549 56003 60002 74544 333 10046 89/00 95090 95190
AAXX 09184 16434 11/00 92005 10072 20072 39051 48547 58001 60002 74741 333 10112 89/00 95096 95198
AAXX 09184 16450 12360 62204 10106 20106 39151 48612 52001 60052 86230 333 10150 83808 84357
AAXX 09184 16459 12563 32203 10124 20124 30221 40257 51003 60002 81130 333 10204 81825
AAXX 09184 16546 12966 50000 10134 20097 30201 40230 51003 60002 80001 333 10206
AAXX 09184 16564 12598 42710 10156 20124 30090 40231 53001 60002 81201 333 10188 81820 555 0////
BBXX BATFR16 09184 99444 70225 44096 83409 10129 40227 53002 72022 887// 22214 00145 20000 60/// ICE 0////
AAXX 09184 16008 12965 00000 11018 21053 38522 48482 54000 60002 333 10046 43008 92840
AAXX 09184 16084 11620 60000 10052 20043 30031 40202 58003 60002 71022 83530 333 10064 83640 83356
AAXX 09184 16088 11650 63406 10062 20062 30081 40201 58002 60002 71022 82230 333 10078 82640 85357
AAXX 09184 16110 11697 80601 10110 20096 30187 40191 56003 60012 70262 8567/ 333 10142 85740 83356 555 0////
AAXX 09184 16134 11/00 92340 10000 21006 37812 48493 52001 60002 74544 333 10012 55300 89/00
AAXX 09184 16153 12898 63606 10098 20046 39930 40197 54000 60002 83038 333 10114 83357 555 0////
AAXX 09184 16158 11565 62807 10142 20084 30201 40208 56007 69942 70152 86800 333 10146 83830 83640
AAXX 09184 16206 12570 31406 10136 20120 30212 40220 54000 60002 83100 333 10176 83830
AAXX 09184 16219 41/00 92820 10012 21003 38159 48545 56002 6///2 74544 333 10014 89/00 95090 95190
AAXX 09184 16252 12465 32412 10100 20054 39282 42836 54000 60002 81101 333 10130 81810
AAXX 09184 16280 12597 71907 10150 20134 30014 40235 57001 60002 83230 333 10174 55300 83820 85358 555 0////
AAXX 09184 16310 12598 42308 10140 20115 30016 40238 53001 60002 84500 333 10172 84630 555 0////
AAXX 09184 16320 12960 01511 10104 20060 30232 40245 51000 60002 333 10162 555 0////
AAXX 09184 16325 12998 01613 10156 20127 30214 40228 58003 60002 333 10156 98080 555 0////
AAXX 09184 16360 12997 01707 10142 20102 30122 40257 53002 60002 333 10156 555 0////
AAXX 09184 16400 12498 22216 10148 20111 39964 40253 53002 60002 82130 333 10184 55300 82817 555 0325/
AAXX 09184 16420 12497 52602 10168 20131 30188 40253 53002 60002 85800 333 10182 82815 84625 555 0////
AAXX 09184 16429 12562 31603 10130 20114 30240 40251 54001 60002 81401 333 10182 81620
AAXX 09184 16470 12960 01606 10150 20129 30021 40258 56002 60002 333 10172 55300 22/// 95000
AAXX 09184 16480 12497 32703 10150 20123 30190 40252 51003 60002 83200 333 10198 83815 555 0////
AAXX 09184 16522 12598 63304 10160 20154 39985 40227 56004 60002 82208 333 10180 55300 82820 555 0////
AAXX 09184 16539 12598 62304 10148 20137 30115 40230 58003 60002 81205 333 10170 81820 555 0////
AAXX 09184 16550 12998 02907 10148 20137 30040 40220 54000 60002 333 10182 555 0////
BBXX BATFR11 09184 99381 10068 46/// /3101 10169 20134 40224 58008 22262 00190
BBXX BATFR20 09184 99432 10053 44/98 02408 10137 20095 40206 70000 22234 20000
BBXX BATFR54 09184 99525 70055 46/// /2828 10065 21001 40127 22243 00119
BBXX BATEU04 09184 99687 70528 46/// /0625 11047 21108 49902 57056 22221
BBXX FVNM 09184 99078 71049 46/// /1118 10259 20230 40128 50003 22241 00270
BBXX BATFR56 09184 99031 10907 44998 61207 10277 20244 40099 58003 70222 86300 22253 00304
BBXX BATFR08 09184 99467 30530 46/// /1734 10025 20009 40163 50012 22223 00057
AAXX 09184 40270 31956 42309 10102 20070 39281 40185 54001 70500 84030 333 10132 84360
AAXX 09184 63125 32565 21306 10260 20190 40164 82200 333 10305 58004 82820
BBXX PHQX 09183 99314 70653 41498 61005 10242 20176 40240 56010 70111 85172 22214 20501 309// 40802 5//// 80198
AAXX 09181 10007 NIL
AAXX 09181 10044 NIL
AAXX 09181 10046 12665 82307 10039 20006 39961 40000 52012 69982 82532 333 10069 20039 32003 82640 83361 87068 91113
AAXX 09181 10091 15483 62414 10043 20019 39927 49978 51016 69902 333 10062 20042 3/003 55300 20000 30000 81/17 86/64 91125 91217
AAXX 09181 10113 01465 72308 10042 20026 30008 40027 53005 60032 72798 879// 333 10077 20032 32002 55300 20000 30000 60037 83917 86645 91116 91212 96288 96495
AAXX 09181 10124 NIL
AAXX 09181 10131 01465 82307 10031 20012 30006 40021 51013 60072 78098 8383/ 333 10060 20031 32002 55300 20000 30000 69937 81816 83650 87358 91116 96487 96483
AAXX 09181 10170 12983 82306 10040 20006 39985 40001 52010 69902 8707/ 333 10064 20040 31003 55300 20000 30000 87462 91118
AAXX 09181 10264 06361 72705 10014 20007 39927 40035 51011 60042 333 10062 20014 3/001 55300 20000 30000 60047 84/06 85/11 87/22 91115
AAXX 09181 10291 01784 22308 10053 21008 39968 40036 50004 69912 72161 82500 333 10070 20044 31003 55300 20000 30000 69917 82656 91116 91211
AAXX 09181 10315 12780 22306 10047 20001 30012 40077 53001 60002 82500 333 10071 20046 31003 55300 20000 30000 82650 91115 91211
AAXX 09181 10379 12784 22307 10042 21016 39938 40060 52009 69902 82500 333 10070 20040 31001 55300 20000 30000 40893 82656 91116
AAXX 09181 10382 01783 32409 10057 21019 30010 40055 51007 69902 70161 83500 333 10078 20054 31004 55300 20000 30000 69907 83656 91114 91211
AAXX 09181 10384 16/// /2307 10059 21020 39999 40059 53009 69902 333 10080 20058 3/003 55300 20000 30000 91115
AAXX 09181 10427 12585 12611 11021 21037 39077 48377 50000 69902 81400 333 10000 21022 3/104 44023 55300 20000 30000 81628 91120 91214
AAXX 09181 10430 12681 12305 10032 21013 39896 40090 52008 60002 81400 333 10065 20031 31001 55300 20000 30000 81635 91117
AAXX 09181 10439 12971 12104 10028 21025 39885 40108 52003 69912 80001 333 10070 20019 31100 81071 91113
AAXX 09181 10453 11184 32521 11046 21047 38714 48348 53001 69912 70231 83200 333 11020 21048 3/105 49048 55300 83803 91130 91223 96438
AAXX 09181 10496 12784 62403 10029 21008 39994 40080 53008 60022 86500 333 10093 20029 31001 55300 20000 30000 86650
AAXX 09181 10499 11586 12405 10029 21006 39799 40092 51008 60022 70161 81500 333 10073 20022 31100 55300 20000 30000 81633 91113
AAXX 09181 10505 12581 12205 10029 21011 39832 40118 51002 60002 81100 333 10060 20027 31001 55300 20000 30000 81830 91114 91211
AAXX 09181 10513 12984 12103 10035 21032 30000 40123 51007 69902 80001 333 10076 20032 31000 55300 20000 30000 81080
AAXX 09181 10532 15980 02003 10020 21003 39868 40121 51008 60012 333 10071 20008 3/104 55300 20000 30000 91114
AAXX 09181 10544 11/02 92508 11016 21016 39022 48398 53007 60082 74942 333 10043 21016 3/102 42004 55300 91116 91211 96045 96241
AAXX 09181 10554 12984 02507 10022 21013 39708 40101 51006 60062 333 10071 20020 31000 55300 20000 30000 91113
AAXX 09181 10567 11988 02306 10021 21009 39726 40107 52008 60042 70186 333 10089 20021 31001 55300 20000 30000 91117
AAXX 09181 10578 11084 52515 11039 21042 38687 48386 51006 60042 73674 85200 333 10006 21039 3/104 44027 55300 20000 30000 85800
BBXX 46238 09181 99334 71195 46/// ///// 1//// 91750 22200 00150 12202 20601 330// 42201 70009
BBXX 46239 09181 99363 71221 46/// ///// 1//// 91751 22200 00129 12004 20902 331// 42004 70020
AAXX 09181 10609 12982 22306 10033 20019 39804 40139 51006 60042 80001 333 10065 20032 31002 55300 20000 30000 82080
AAXX 09181 10616 12380 32703 10026 20014 39528 40135 52007 60052 835// 333 10051 20019 31000 55300 83607 91113
AAXX 09181 10641 15680 11904 10036 20018 39984 40133 51008 60072 333 10101 20033 3/100 55300 81/35
AAXX 09181 10655 01582 32303 10022 20011 39806 40141 53008 60062 70361 82831 333 10093 20022 31000 55300 20000 30000 69907 81823 91113
AAXX 09181 10675 07881 71903 10019 20002 39842 40139 53008 60032 70065 333 10098 20015 3/100 55300 20000 30000 69907 83/57 87/80
AAXX 09181 10688 07683 72204 10021 20001 39608 40139 51006 60032 72365 333 10070 20021 3/002 55300 20000 30000 69907 84/42 87/57 87/59
AAXX 09181 10708 11682 72404 10031 20020 39760 40152 53003 60152 70262 875// 333 10082 20028 32002 55300 20000 30000 87648
AAXX 09181 10729 07581 81603 10048 20033 30031 40154 52006 60072 70065 333 10117 20048 3/004 55300 20000 30000 69907 81/24 88/56
AAXX 09181 10731 01262 82005 10050 20036 30006 40151 53002 60172 76166 877// 333 10113 20048 32004 55300 20000 30000 60037 87806
AAXX 09181 10742 07350 72404 10033 20025 39817 40153 53004 60152 75866 333 10111 20032 3/003 55300 20000 30000 60037 83/07 87/13
AAXX 09181 10776 01470 83203 10031 20023 39698 40148 53013 60012 76362 878// 333 10099 20031 31003 55300 20000 30000 60017 85812 87616
AAXX 09181 10791 01/90 92714 11017 21017 38472 48420 56001 60122 77374 333 10000 21017 48050 55300 60057
AAXX 09181 10805 01458 80603 10051 20044 39967 40160 53003 60082 76366 888// 333 10113 20051 32005 55300 20000 30000 60057 83816 87633
AAXX 09181 10815 07361 82808 10029 20025 39199 48436 51003 60162 76266 333 10064 20025 3/003 55300 20000 30000 60047 81/08 88/23 91117
AAXX 09181 10836 01/01 93005 10016 20016 39271 40152 51005 60072 76164 333 10082 20016 31002 55300 20000 30000 60047 89/02 91120 91215 96045
AAXX 09181 10870 01582 83602 10070 20056 39604 40137 53007 69912 76162 8652/ 333 10118 20070 31006 55300 69917 86620 88530 91116 91212
AAXX 09181 10895 01465 83304 10051 20045 39566 40138 53004 69952 76362 8682/ 333 10102 20004 31102 55300 20000 30000 69957 81816 86630 88536 91116 91211
AAXX 09181 10908 01/01 92420 10018 20018 38444 48442 57005 60322 76976 333 10019 20011 3/001 49007 55300 20000 30000 60187 89/01 91129 91221 96045
AAXX 09181 10929 01470 82407 10099 20057 39620 40145 53001 69912 76162 8272/ 333 10121 20077 31007 55300 20000 30000 69917 82713 88550 91117
AAXX 09181 10948 15888 81902 10025 20004 39210 48451 51002 60002 333 10074 21015 3/104 4/006 55300 20000 30000 87/57 88/59
AAXX 09181 10961 12/89 72518 11070 21121 37038 47002 58005 60002 83542 333 11047 21071 49075 55300 20000 40878 816// 83323 87066 91129 90221 91218 90316 91220
AAXX 09181 10962 01687 72408 10065 20029 38995 48448 56001 69902 72586 83538 333 10102 20041 31003 4/998 55300 20000 30000 69907 83640 86270 91124 91212
AAXX 09181 10980 12489 72505 10013 21055 38113 48458 53002 60002 81578 333 10027 20005 3/000 44022 55300 20000 30000 81610 85267 91124 91217 96415 96414
AAXX 09184 17600 12570 23309 10133 20016 30192 40202 51022 69902 82800 333 10185 20110 82830 91135
AAXX 09184 17601 12682 13203 10089 20032 30166 40198 51022 69942 81500 91750 333 10176 81640
AAXX 09184 17607 NIL
AAXX 09184 17609 11980 02807 10083 20034 30191 40195 52024 60022 70161 333 10186 20083 91137
BBXX BATFR52 09184 99503 70042 46/// /2921 10087 21002 40155 58001 22284 00117
BBXX BATEU06 09184 99514 10041 46/// /2212 10052 20009 40102 51003 22223 00087
BBXX BATFR42 09184 99503 70018 46/// /2923 10087 20024 40137 22243 00132
BBXX BATEU07 09184 99389 31480 46/// /0629 10177 40081 56018 22222
BBXX BATFR48 09184 99157 51470 46/// /3313 10275 20215 40126 52180 22252 00304
BBXX BATFR01 09184 99423 10073 46/// /2416 10152 20117 40207 55/// 22232 00172
BBXX BATFR46 09184 99433 10053 46/// /0204 10114 20062 40209 22251 00162
BBXX BATFR35 09184 99166 51517 46/// /2904 10265 20217 40115 22272 00285
BBXX BAREU06 09184 99391 70151 46/// ///// 40238 57006 22264
BBXX BATEU02 09184 99529 70111 46/// /3013 10074 21010 40148 52005 22200 00112
BBXX BATFR47 09184 99266 51341 46/// /3432 10234 20215 40120 50/// 22262
BBXX DBJM 09181 99542 10075 46/// /2814 10080 21018 40005 52011 22261 00086
BBXX BATFR19 09184 99007 30088 46/// /2011 10262 20237 40089 22211 00274
BBXX BATEU08 09184 99595 70156 46/// /0614 10025 21030 40082 55002 22222
BBXX BATFR10 09184 99308 70132 44598 70517 40222 58002 70222 8712/ 22253 00202 20302
BBXX DBEA 09181 99539 10087 46/// /2316 10036 20018 40009 52015 22230 00050
BBXX DBKR 09181 99541 10121 46/// /2307 10045 20015 40003 52012 22200 00062
AAXX 09184 60285 32960 51008 10240 20010 40196 55004 85070 333 10266 85360
AAXX 09184 60340 NIL
BBXX DBND 09181 99/// ///// 46/// ///// 10034 20026 40026 52012 22220 00071
BBXX 41101 09184 99146 70562 46/// /3401 10288 20229 40098 57020 22200 00280 10903 70017
BBXX DBEB 09181 99538 10081 41/// /2315 10039 20038 40012 50006 7//// 22261 00054
BBXX DBFH 09181 99555 10084 46/// /3013 10060 20004 49953 56012 22200 00042
BBXX DBBI 09181 99536 10086 46/// /2503 10034 20034 40034 52012 22210 00061
BBXX DBBA 09181 99/// ///// 46/// ///// 10031 20023 40034 52011 22250 00057
BBXX DBCK 09181 99/// ///// 46/// ///// 10035 20034 40026 52012 22220 00059
BBXX 61001 09184 99434 10078 46/// /2220 10152 20116 40180 54000 22200 00158 10604 70019
AAXX 09181 14528 NIL
AAXX 09181 14537 NIL
AAXX 09181 14544 NIL
AAXX 09181 14557 12960 20202 10034 21017 39854 40231 53004 60002 82030 333 82360
AAXX 09181 14640 NIL
AAXX 09184 13600 12965 00904 10054 20032 30216 40270 52007 60002 333 10124
AAXX 09184 13610 NIL
AAXX 09184 13611 12965 23604 10104 20056 30155 40247 54002 60002 82030 333 10150 82360
AAXX 09184 13619 12965 00000 10000 21030 39498 42868 52005 60002 333 10024
AAXX 09184 13622 12965 00000 10096 20008 30241 40249 54001 60002 333 10166
AAXX 09184 13624 NIL
AAXX 09184 13625 NIL
AAXX 09184 13629 12960 00000 10030 21001 39190 42836 54002 60002 333 10060
AAXX 09184 13601 12960 20000 10078 20041 30142 40244 52010 60002 80001 333 10144
AAXX 09184 13602 NIL
AAXX 09184 13623 NIL
AAXX 09184 71805 02570 42618 10035 21023 30243 40252 53007 60002 82101 333 10041 20014 60007 82826 90710 91132 93100 555 60005
AAXX 09181 11812 36/// /2006 10065 21041 39448 42758 57003 333 10067
AAXX 09181 11813 11770 79902 10028 21025 39801 40155 57004 69902 76022 82570 333 10032 82650 87459
AAXX 09181 11816 12770 79902 10019 21008 39989 40156 57002 60002 86570 333 10029 86656
AAXX 09181 11819 16/// /0401 10022 20008 39940 40160 57002 69922 333 10035
AAXX 09181 11826 11657 83601 10026 20008 39954 40157 55002 69952 76162 885// 333 10047 88646
AAXX 09181 11841 11221 80000 10004 21003 39771 40156 58006 60042 76877 885// 333 10018 43001 85704 88635
AAXX 09181 11855 11770 89902 10038 20001 39992 40160 56006 69902 76162 8557/ 333 10045 85650 88459
AAXX 09181 11856 36/// /1004 10031 21006 39844 40167 52002 333 10041
AAXX 09181 11858 12682 79902 10049 20010 30001 40154 57005 60002 87500 333 10076 87640
AAXX 09181 11867 11658 83602 10020 21002 39843 40166 55001 69992 76122 885// 333 10045 88645
AAXX 09181 11880 11660 89901 10025 21001 39993 40168 53003 69912 76122 885// 333 10054 88633
AAXX 09181 11900 16/// /0602 10027 21019 39835 40176 52003 69902 333 10033
AAXX 09181 11903 12662 80203 10009 21006 39788 40177 51002 60002 885// 333 10024 88643
AAXX 09181 11916 11/00 92709 11025 21033 37907 48415 51007 60002 77144 333 11022 48019 89/00 91021 91132 93598 96049
AAXX 09181 11918 11458 82507 10002 21002 39311 42746 57003 60022 76872 887// 333 10029 44007 88716
AAXX 09181 11927 12765 80301 10021 21010 39908 40175 50004 60002 885// 333 10038 88650
AAXX 09181 11930 11/00 92810 11058 21059 37303 47975 52007 60032 77144 333 11045 48033 89/00 91016 91128 93503 96049
AAXX 09181 11933 11/20 82603 11002 21002 38616 48434 52005 60022 77172 885// 333 10002 44045 817// 88613 91008 444 17//1
AAXX 09181 11934 11460 82204 10022 20003 39319 42756 52007 69922 76822 8657/ 333 10029 44006 81713 86623 88459
AAXX 09181 11938 11565 82205 11024 21037 39084 42760 53002 60002 77122 885// 333 11013 44015 81620 88633
AAXX 09181 11952 16/// /9902 10010 21022 39312 42757 52005 60002 333 10027
AAXX 09181 11958 36/// /2112 11048 21055 38705 48435 52004 333 11034
AAXX 09181 11968 12670 79901 10013 21016 39889 40176 57009 60002 87500 333 10018 87647
AAXX 09181 11976 12467 81704 10020 21007 39901 40170 58004 60002 885// 333 10020 82713 88630
AAXX 09181 11978 12770 81202 10020 21001 30047 40180 57007 60002 8652/ 333 10022 86650 88460
AAXX 09181 11993 12769 82004 10037 21005 39955 40175 57009 60002 8657/ 333 10038 86650 88359
AAXX 09181 11867 11658 83602 10020 21002 39843 40166 58001 69992 76122 885// 333 10045 88645
AAXX 09184 89642 40/// /1227 11049 21066 39670 49723 56002 333 01449 91039 91149
AAXX 09184 40250 32560 42310 10100 20058 39374 40176 52004 84800 333 10154 82830 83635
AAXX 09184 40260 32660 21918 10102 20069 39382 40172 54000 82100 333 10160 82830
AAXX 09184 40265 32560 51714 10114 20074 39402 40204 54000 85200 333 10154 85820
AAXX 09184 40270 31956 42309 10102 20070 39281 40185 54001 70500 84030 333 10132 84360
AAXX 09184 40296 32660 30000 10197 20104 40213 52011 83100 333 10255 83830
BBXX DBLK 09181 99486 30000 41296 83413 10062 20062 40125 57042 75154 876// 22244 04051 20504 325// 40905
AAXX 09184 61968 16/// /0301 10246 20229 40100 60152 333 10310 59002 90710 91102 555 60005
AAXX 09184 61970 16/// ///// 10276 20252 40101 60122 333 10324 58000 555 60005
AAXX 09184 61980 12562 60913 10248 20198 40122 69902 86800 333 10296 58002 81828 85656 90710 91118 924/7 555 60005
AAXX 09184 67005 14/// /3502 10260 20223 40090 60172 700// 333 10311 59008 90710 91110 555 60005
AAXX 09184 48601 11559 60304 10257 20237 30089 40093 69921 70596 82541 333 82625 86078
AAXX 09184 48615 11559 70911 10254 20227 30096 40102 60011 76022 83547 333 83620 83364 87272
AAXX 09184 48620 11460 70000 10249 20238 30090 40099 60001 71322 82953 333 81917 86364
AAXX 09184 48647 11559 73203 10267 20245 30072 40097 60001 70522 81542 333 81627 87078
AAXX 09184 48650 11460 70303 10260 20239 30077 40096 60001 71322 82948 333 81917 83364 86078
AAXX 09184 48657 11458 70203 10245 20234 30084 40102 60001 72992 83942 333 81917 83624 86078
AAXX 09184 48665 11564 70304 10252 20236 30091 40101 69901 70162 82532 333 82630 87078
AAXX 09184 96413 12565 71601 10241 20236 30067 40094 60001 83531 333 83620 85365
AAXX 09184 96421 11365 71501 10245 20237 30054 40090 60001 70322 83531 333 82708 83616 86365
AAXX 09184 96441 11056 71403 10241 20236 30058 40085 6///1 71096 8457/ 333 82700 83616 87365
AAXX 09184 96449 12465 71401 10242 20239 30061 40080 60021 8357/ 333 83614 87365
AAXX 09184 96465 NIL
AAXX 09184 96471 12468 71705 10264 20231 30074 40077 60001 83848 333 82814 83364 87277
AAXX 09184 96481 12462 60000 10240 20225 30058 40077 60001 82841 333 81817 85080
AAXX 09184 96491 11465 70000 10258 20242 30057 40069 60001 70122 81842 333 81816 83364 87078
AAXX 09181 45007 12662 70307 10132 20004 30235 40244 58007 60001 8253/ 333 58020 81635 85359
AAXX 09184 91643 11498 70614 10275 20239 40091 53011 60001 71422 8327/ 333 5619/ 83818 87460
AAXX 09181 45007 12662 70307 10132 20004 30235 40244 58007 60001 8253/ 333 58020 81635 85359
AAXX 09181 01059 16/// /1705 11032 21053 30049 40059 54000 6//// 333 11031 91107
AAXX 09181 01228 46/// /1108 10040 21006 39765 49772 52015 333 10042 91117
AAXX 09181 01340 16/// /3102 11020 21026 38926 49781 52018 60022 333 11006 91104
AAXX 09181 01406 46/// /3319 10058 20026 39787 49805 53038 333 10074 91129
AAXX 09181 01442 11689 71202 10041 21011 39546 49796 52031 69952 70182 87800 333 10046 91110
AAXX 09181 01392 11576 43302 10002 21020 39527 49748 53022 69992 70272 82130 333 10012 91108
AAXX 09181 01494 11683 53103 10014 21004 39700 49764 53045 60022 70122 83578 333 10028 91109
AAXX 09181 01037 16/// /1601 11066 21076 30037 40043 57002 69992 333 11037 91104
AAXX 09181 01046 16/// /1603 11032 21066 30041 40048 55002 6//// 333 11026 91108
AAXX 09181 01065 11689 70601 11092 21105 39901 40069 57002 69972 70222 878// 333 11091 91102
AAXX 09181 01114 16/// /0205 10020 21072 39904 49914 55000 6//// 333 10028 91112
AAXX 09181 01245 11980 63202 11032 21070 39075 49772 52010 60002 70222 80008 333 11016 91109
AAXX 09181 01329 11345 82210 10022 20006 39723 49782 50016 60012 71082 888// 333 10064 91113
AAXX 09181 01337 16/// /0801 10004 21012 39714 49779 51014 60002 333 10032 91103
AAXX 09181 01364 16/// /2801 11075 21087 38673 49789 50013 69932 333 11041 4/021 91103
AAXX 09181 01389 11787 83204 11020 21032 39464 49771 53013 60012 70222 81718 333 11013 91108
AAXX 09184 91573 06/// /0000 10245 20235 30001 40098 55004 60031 333 58010 60007
AAXX 09184 91579 06/// /0104 10259 20241 30093 40101 53004 60001 333 58012 60007
AAXX 09184 91582 04970 /3605 10255 20239 30069 40103 53003 60002 700// 333 10277 20253 60007 90710 91108 555 60005
AAXX 09184 91583 06/// /1902 10234 20227 30087 40102 53005 60021 333 58012 60007
AAXX 09184 91590 04685 73101 10237 20225 30059 40101 53002 60022 700// 333 10294 20233 69907 90710 91105 555 69905
AAXX 09184 91592 06/// /3402 10254 20211 30018 40102 53004 60001 333 58016 60007
AAXX 09184 91596 06/// /0210 10246 20230 39999 40107 53002 60001 333 58013 60007
AAXX 09184 91577 NIL
AAXX 09184 91587 NIL
AAXX 09181 06206 45578 22608 10067 20007 39992 40045 53012 8//// 333 10083 81/26 91009 91112 91210
AAXX 09181 06207 47472 72612 10040 21001 39988 40042 53015 72386 8//// 333 10068 81/12 83/39 87/50 91014 91117 91213
AAXX 09181 06239 47675 73515 10071 21027 3//// 4//// 5//// 72100 8//// 333 10085 82/37 84/56 85/63 91017 91120 91217
AAXX 09181 06252 46/// /2813 10066 20017 30003 40049 53011 222// 00094 10707 333 10072 91016 91119 91216
AAXX 09181 06260 17972 82405 10059 20002 30079 40081 50001 69912 70380 8//// 333 10081 88/61 91008 91111 91206
AAXX 09181 06270 17459 72805 10038 20020 30051 40051 51010 60052 78186 8//// 333 10068 81/12 83/32 85/41 91009 91116 91211
AAXX 09181 06290 15771 22306 10044 20003 30034 40075 51004 69902 8//// 333 10072 82/50 91009 91116 91210
AAXX 09181 01471 11689 53001 11024 21034 60052 70172 83730 333 10007 91105
AAXX 09184 91574 46/// ///// 29084 39933 49939 58025
AAXX 09184 91570 NIL
AAXX 09184 91598 NIL
AAXX 09181 06201 45577 73309 10058 21006 39990 40042 53020 8//// 333 10075 83/29 84/32 86/39 91012 91116 91213
AAXX 09181 06203 47562 7//13 10080 20013 30019 40070 50000 75186 8//// 333 10081 83/29 84/35 85/43 91016 91119 91216
AAXX 09181 06204 47582 72815 10068 20010 30003 40054 53009 72185 8//// 333 10074 82/22 83/32 87/61 91018 91122 91218
AAXX 09181 06205 46/// /3014 10066 21022 39946 40005 5//// 333 10079 91017 91119 91216
AAXX 09181 06208 47670 52812 10069 20000 39986 40035 51006 70386 8//// 333 10079 81/37 83/63 85/66 91014 91115 91212
AAXX 09181 06211 47367 82813 10048 21006 39995 40051 53020 78185 8//// 333 10077 81/09 83/19 86/34 91018 91120 91218
AAXX 09181 06212 47582 72513 1//// 2//// 39996 40059 51008 72385 8//// 333 1//// 81/26 85/48 87/61 91015 91120 91216
AAXX 09181 06235 17573 82809 10056 20011 30061 40061 53007 60022 75180 8//// 333 10070 82/22 83/26 86/37 91015 91120 91214
AAXX 09181 06240 17679 32609 10066 21003 30081 40076 53002 60002 70380 8//// 333 10075 82/40 83/46 91012 91116 91212
AAXX 09181 06251 17571 72811 10052 20007 30048 40049 53011 60132 78086 8//// 333 10071 81/22 83/41 86/50 91015 91118 91211
AAXX 09181 06258 46/// /2511 333 91014 91119 91215
AAXX 09181 06269 17571 52205 10038 20013 30078 40072 53005 69902 70380 8//// 333 10071 81/22 83/33 85/50 91006 91116 91210
AAXX 09181 06280 17466 82306 10027 20021 30055 40059 51016 60062 76187 8//// 333 10072 82/12 83/22 85/33 91009 91116 91211
AAXX 09181 06310 15675 82610 10082 20013 30086 40096 58001 60002 8//// 333 10083 82/42 85/50 88/58 91014 91115 91211
AAXX 09181 06344 17778 82606 10068 20009 30091 40084 58002 60002 72300 8//// 333 10079 84/50 88/59 91008 91116 91210
AAXX 09181 06370 17680 62206 10046 21001 30075 40101 51001 60002 70380 8//// 333 10078 85/40 86/50 91007 91113 91209
AAXX 09181 06380 15680 12206 10038 21007 39976 40117 50001 60002 8//// 333 10068 81/45 91008 91111 91206
AAXX 09181 01122 16/// /0104 10022 21056 39783 49872 58004 60002 333 10025 91121
AAXX 09181 01156 16/// /0610 10010 21059 39965 49975 55000 60002 333 10017 91113
AAXX 09181 01273 16/// /1302 11026 21049 39584 49778 53012 60002 333 10018 91104
AAXX 09181 01135 16/// /0407 10014 21054 39741 49891 53003 60002 333 10014 91115
AAXX 09181 01192 16/// /1405 11014 21067 60002 333 11007 4/006 91111
AAXX 09181 01370 16/// /2501 11082 21090 38696 49871 52013 60022 333 11046 4/018 91104
AAXX 09181 01419 16/// /2306 10014 20002 60272 333 10027 91117
AAXX 09181 01455 16/// /0401 11008 21018 39479 49785 53033 60002 333 10023 91103
AAXX 09181 01481 16/// /0101 10016 21005 39737 49768 51038 60022 333 10052 91108
AAXX 09184 63980 32482 63009 10280 20243 40097 60002 86800 333 10303 58001 86816 943// 91130
AAXX 09184 48310 31558 60000 10229 20215 39675 40132 57001 71022 83506 333 59005
AAXX 09184 48325 31656 30000 10220 20208 39877 40123 57002 71011 82555 333 58000
AAXX 09184 48329 31556 60000 10233 20213 39798 40139 52007 71022 83535 333 58011
AAXX 09184 48352 32560 70708 10188 20129 39966 40172 57005 85506 333 58029
AAXX 09184 48357 32960 10503 10175 20120 30003 40177 57007 80001 333 58029
AAXX 09184 48380 NIL
AAXX 09184 48383 NIL
AAXX 09184 48403 32960 00808 10204 20155 39942 40157 57002 333 58026
AAXX 09184 48405 32960 30503 10170 20134 39989 40157 57008 80005 333 58024
AAXX 09184 48420 32960 30610 10257 20190 30117 40121 57006 80005 333 58019
AAXX 09184 48421 31950 20000 10223 20206 30013 40128 57005 71000 80005 333 58010
AAXX 09184 48425 31956 00000 10253 20199 30121 40131 57003 71000 333 58016
AAXX 09184 48426 31958 20608 10246 20166 30119 40132 58004 70510 80001 333 58021
AAXX 09184 48429 32660 30710 10262 20178 30117 40124 57004 81541 333 58015
AAXX 09184 48430 31958 20708 10248 20161 30121 40128 56002 70500 80005 333 58020
AAXX 09184 48450 31558 60000 10250 20201 30094 40127 57004 71022 82556 333 58017
AAXX 09184 48459 32960 00605 10250 20231 30117 40120 57007 333 58017
AAXX 09184 48465 31558 63502 10254 20220 30114 40118 57008 71022 82506 333 58014
AAXX 09184 48550 NIL
AAXX 09184 48552 12460 73103 10240 20233 30103 40109 57005 60263 85806 333 58009 70289
AAXX 09184 48566 32560 40203 10258 20228 30089 40097 57014 82145 333 58004
AAXX 09184 48568 32460 60605 10273 20227 30094 40102 57011 83836 333 58008 70055
AAXX 09184 89532 41/40 80322 11059 21079 39713 49740 55010 77172 885//
AAXX 09184 48300 31558 50000 10225 20202 39808 40122 57002 71011 84536 333 59009
AAXX 09184 48327 32560 71603 10246 20206 39781 40137 52002 84545 333 59001
AAXX 09184 48331 32560 50000 10230 20191 39911 40144 57001 83551 333 58017
AAXX 09184 48353 32962 00000 10190 20156 39865 40161 57004 333 58028
AAXX 09184 48356 32962 00000 10163 20129 39976 40180 58003 333 58027
AAXX 09184 48375 31957 00000 10215 20191 39889 40117 57002 71000 333 58014
AAXX 09184 48378 31556 20000 10240 20225 30077 40130 57008 71000 81505 333 58014
AAXX 09184 48381 32960 20804 10186 20131 39942 40165 57000 80005 333 58026
AAXX 09184 48407 32960 30308 10185 20136 30003 40149 57005 80001 333 58025
AAXX 09184 48431 32962 10808 10202 20147 39939 40157 57001 80001 333 58029
AAXX 09184 48456 NIL
AAXX 09184 48480 31958 10406 10245 20199 30109 40113 57004 71000 80001 333 58011
AAXX 09184 48500 NIL
AAXX 09184 48551 31550 70000 10243 20231 30099 40107 57008 71022 83567 333 58008 70023
AAXX 09184 48565 32460 60000 10259 20231 30084 40094 57007 82246 333 59010
AAXX 09184 48569 01558 50000 10244 20218 30067 40107 57013 69903 71061 81146 333 58005 69907 79999
AAXX 09184 48583 NIL
AAXX 09184 48302 NIL
AAXX 09184 48304 01550 80000 10215 20212 39669 40133 57001 60063 71062 84576 333 59005 60067 70060
AAXX 09184 48334 31558 60000 10226 20217 39777 40142 52004 71022 84555 333 58014
AAXX 09184 48360 32962 70910 10194 20134 39892 40159 57002 85052 333 58031
AAXX 09184 48372 32560 80903 10229 20209 30077 40135 52001 83536 333 58023 70038
AAXX 09184 48373 31956 40000 10230 20219 30067 40130 57009 71011 82035 333 58016 79999
AAXX 09184 48386 NIL
AAXX 09184 48387 31950 00000 10165 20156 39175 40149 57004 71000 333 58010
AAXX 09184 48408 32960 23510 10185 20141 39998 40152 56005 80005 333 58027
AAXX 09184 48415 NIL
AAXX 09184 48433 NIL
AAXX 09184 48437 32960 00304 10182 20136 39945 40161 57003 333 58027
AAXX 09184 48440 NIL
AAXX 09184 48451 32561 20606 10268 20196 30113 40124 57010 82400 333 58012
AAXX 09184 48454 NIL
AAXX 09184 48457 NIL
AAXX 09184 48463 NIL
AAXX 09184 48464 31558 20000 10235 20230 30096 40109 57006 71000 82500 333 58014
AAXX 09184 48479 32962 20000 10241 20193 30064 40117 80005 333 58013
AAXX 09184 48520 01556 60000 10238 20229 30096 40111 55002 60243 71062 83546 333 58011 60206 70274
AAXX 09184 48554 11457 70000 10245 20238 30102 40106 57007 60203 71062 83806 333 58005 70209
AAXX 09184 48563 32560 60000 10242 20233 30058 40094 57012 82247 333 58006 70012
AAXX 09184 48571 32560 60000 10251 20224 30095 40106 57007 82136 333 58010 70006
AAXX 09184 78947 12582 20204 10299 20233 30109 40112 60001 70300 82201 333 01209 10309 20230 59009 79999 82823
AAXX 09184 48307 31550 50000 10224 20209 39760 40143 52005 71011 82556 333 59003
AAXX 09184 48324 32560 20000 10196 20181 39909 40133 53002 81105 333 58006
AAXX 09184 48333 31956 10000 10225 20185 39842 40147 57004 71000 81040 333 58014
AAXX 09184 48350 32960 00000 10180 20163 39851 40159 57005 333 58029
AAXX 09184 48355 32962 00000 10158 20125 39949 40175 56005 333 58028
AAXX 09184 48358 31959 10000 10175 20130 30003 40184 56003 71000 80001 333 58030
AAXX 09184 48384 31958 00701 10185 20140 39970 40166 56001 71000 333 58023
AAXX 09184 48401 31958 20607 10246 20179 30032 40140 57002 71000 81045 333 58017
AAXX 09184 48404 NIL
AAXX 09184 48409 NIL
AAXX 09184 48419 31558 60404 10270 20210 30116 40124 57008 71022 82846 333 58017
AAXX 09184 48427 31957 10000 10233 20205 30113 40120 57009 71000 80001 333 58011
AAXX 09184 48435 NIL
AAXX 09184 48453 32960 20504 10265 20196 30117 40120 57008 80005 333 58014
AAXX 09184 48458 32960 10502 10227 20199 30062 40143 57003 80001 333 58022
AAXX 09184 48474 32960 30000 10227 20210 39997 40122 57019 80005 333 58014 79999
AAXX 09184 48481 NIL
AAXX 09184 48555 31550 60000 10245 20232 30087 40129 55007 71022 84535 333 58003 70276
AAXX 09184 48556 01456 80000 10235 20228 30088 40105 57006 69993 71066 83877 333 58006 69987 70009
AAXX 09184 48557 01560 60000 10240 20233 30081 40116 57005 60013 70262 84806 333 58018 60017 70012
AAXX 09184 48560 11557 80000 10248 20236 30100 40105 56011 60033 71022 83876 333 58010 70142
AAXX 09184 48574 32560 60000 10245 20238 30076 40105 57008 83136 333 58010 79999
AAXX 09184 48581 NIL
AAXX 09184 78982 02580 60613 10298 20248 30096 40101 59019 60001 83231 333 59007 60007 83822 83360 85081
AAXX 09184 78948 12884 21509 10298 20239 30105 40113 60001 70100 81442 333 01255 10308 20241 59005 81828
AAXX 09181 48921 NIL
AAXX 09181 48924 NIL
AAXX 09181 48925 NIL
AAXX 09181 48926 NIL
AAXX 09181 48927 NIL
AAXX 09181 48928 NIL
AAXX 09181 48930 31360 80000 10190 20182 39816 40173 57001 71044 8387/ 333 58021
AAXX 09181 48935 NIL
AAXX 09181 48938 NIL
AAXX 09181 48940 31930 03604 10192 20126 39959 40159 52002 71044 333 58027
AAXX 09181 48941 NIL
AAXX 09181 48944 NIL
AAXX 09181 48945 NIL
AAXX 09181 48946 NIL
AAXX 09181 48947 31510 60403 10165 20133 30026 40159 52005 71044 83560 333 58025
AAXX 09181 48948 NIL
AAXX 09181 48952 NIL
AAXX 09181 48953 NIL
AAXX 09181 48955 31758 23605 10192 20148 30017 40137 57003 71044 82500 333 58022
AAXX 09181 48957 NIL
AAXX 09181 33135 NIL
AAXX 09181 33317 11996 82006 10013 20008 39812 40154 57010 69902 71082 8802/ 333 10029
AAXX 09181 33345 32998 71703 10004 21026 39977 40187 58008 80005 333 10017
AAXX 09181 33393 11360 82207 10036 21033 39752 40146 53005 69902 78582 889// 333 10042 86709
AAXX 09181 33506 11494 72001 10001 21002 30019 40221 52005 69902 71042 87600 333 10008
AAXX 09181 33587 32962 80000 11004 21025 39939 40210 58008 80005 333 10022
AAXX 09181 33631 32797 81306 10039 21023 30044 40190 57013 885// 333 10041 88650
AAXX 09181 33663 32597 63203 10036 20001 30087 40184 58018 82531 333 10064
AAXX 09181 33658 32997 60000 10041 21027 39866 40168 57013 86030 333 10065
AAXX 09181 33711 32597 81903 10018 20005 30009 40224 52006 885// 333 10033 88623
AAXX 09181 33791 31233 82203 10013 20010 30076 40231 52007 71011 886// 333 10044 88705
AAXX 09181 33837 31959 62402 10028 20007 30184 40237 52006 71022 80001 333 10060
AAXX 09181 33924 NIL
AAXX 09181 33946 11249 81602 10011 20003 30031 40259 52013 69912 71011 886// 333 10035 88704
AAXX 09181 34300 32397 82103 11006 21021 30032 40229 52009 885// 333 10007 86707
AAXX 09181 34504 31250 82404 10000 21009 30051 40235 52012 71042 886// 333 10008 88704
AAXX 09181 34519 32460 83202 11010 21035 39944 40228 52009 886// 333 10008 88711
AAXX 09181 34601 32360 82503 11001 21011 30102 40243 52011 886// 333 10012 88707
AAXX 09181 11010 01567 89901 10045 20031 39759 40141 55001 69902 76162 333 10072 69905 81632 83646 86656
AAXX 09181 11012 16/// /2204 10076 20005 39673 40140 53003 60002 333 10122 21002 55300
AAXX 09181 11022 11565 62302 10085 20033 39735 40118 55000 69902 70282 84132 333 10097 20003 55300 84827
AAXX 09181 11035 32970 73601 10056 20008 39884 40138 58001 85072 333 10073 20014 81360 84364
AAXX 09181 11036 32781 71702 10036 21009 39915 40141 58004 333 10045 81856 83361 86462
AAXX 09181 11101 11675 81604 10100 20014 39638 40159 55000 69902 72162 87502 333 10122 20045 87635
AAXX 09181 11120 32980 52603 10011 21006 39463 40183 52006 333 10074 83363 83080
AAXX 09181 11126 16/// /1709 11038 21072 37704 48468 57004 60002 333 11010 21039 55300 91119
AAXX 09181 11130 16/// /2301 10023 20010 39574 40171 53006 60002 333 10066 21017 55300
AAXX 09181 11146 32989 42511 11081 21142 36909 47012 56002 80002 333 11069 21086 82070 91123
AAXX 09181 11150 12981 71505 10052 21028 39610 40153 53002 69912 333 10087 81359 85360 86080
AAXX 09181 11155 12888 72805 10020 21025 38331 48459 53006 60002 84051 333 10054 20011 55300 84357 87075 91132
AAXX 09181 11157 32975 62201 11047 21059 39404 40206 52001 83031 333 10000 83360 85077
AAXX 09181 11172 NIL
AAXX 09181 11190 12665 73201 10033 21022 39911 40148 57007 60002 875// 333 10038 20016 55300
AAXX 09181 11204 16/// /3001 11025 21034 39409 40228 53004 60002 333 10031 21045 55300
AAXX 09181 11212 31/00 92512 11029 21033 37813 48485 51006 74943 333 11023 91122 92610
AAXX 09181 11231 32780 63002 10001 21016 39608 40194 52001 333 10039 82650 85075
AAXX 09181 11240 32770 79901 11004 21010 39723 40173 50001 333 10036 81656 83364 86075
AAXX 09181 11244 16/// /0000 10008 21006 39833 40169 50000 60002 333 10057 21017 55300
AAXX 09181 11389 12650 60000 10056 20019 39810 40137 52002 69902 865// 333 10096 20005 55300
AAXX 09181 01205 46/// ///// 10048 20008 39708 49752 53017 333 10051
AAXX 09184 48500 31556 30000 10234 20223 30105 40112 57009 71021 82845 333 58006 70124
AAXX 09184 48451 32561 20606 10268 20196 30113 40124 57010 82400 333 58012
AAXX 09184 43466 21470 50000 10267 20233 30082 40095 70392 8413/ 333 58002 60007 84818 83460
AAXX 09184 48404 32960 00506 10170 20134 39975 40160 56007 333 58029
AAXX 09181 15015 02598 82401 10021 21039 39593 42797 55007 60002 8357/ 333 10024 21036 3/002 41998 60007 91002 91103
AAXX 09181 15020 02997 81202 10031 21024 39981 40184 55012 60002 8807/ 333 10070 20012 30009 60007 91004 91105
AAXX 09181 15090 02997 81701 10048 21002 30105 40199 57009 60002 85077 333 10073 20020 31007 55300 10066 20004 3//// 60007 91003 91104
AAXX 09181 15108 02299 62718 11092 21092 38057 48489 57008 60002 81571 333 11081 21105 3//// 43005 60007 91024 92840
AAXX 09181 15120 02697 70702 10028 21011 39703 40209 56011 60002 84570 333 10042 21040 30007 55300 10020 2//// 3//// 60007 91002 91103
AAXX 09181 15150 02997 61602 10017 21001 39987 40205 56009 60002 83031 333 10083 21017 31009 60007 91003 91103
AAXX 09181 15170 02998 80802 11022 21034 39422 42808 56008 60002 85077 333 10025 21068 3/002 47002 60007 91003 91103
AAXX 09181 15200 02697 71402 10051 20008 30057 40204 56008 60002 84570 333 10081 21019 31009 60007 91003 91103
AAXX 09181 15230 02997 72600 10024 21007 39924 40225 56008 60002 87070 333 10064 21024 31011 55300 10071 20003 3//// 60007 91001 91102
AAXX 09181 15260 02998 52501 11005 21042 39676 40230 56008 60002 85070 333 10071 21042 31008 60007 91002 91102
AAXX 09181 15280 01599 52714 11063 21105 37486 47025 53003 60002 73733 85070 333 11060 21148 3//// 48036 60007 91020 92815 92923
AAXX 09181 15292 02998 21704 10050 21021 39923 40223 57004 60002 82030 333 10094 21018 31008 60007 91007 91108
AAXX 09181 15310 02997 72004 10030 20016 30138 40227 57009 60002 80008 333 10064 20021 31013 55300 10206 20004 3//// 60007 91007 91107
AAXX 09181 15335 02997 00100 10025 20005 30228 40235 57007 60002 333 10087 20006 30011 60007 91001 91103
AAXX 09181 15346 02997 61500 10000 21027 39943 40243 55002 60002 86070 333 10087 21041 31008 60007 91001 91102
AAXX 09181 15350 02597 52203 10038 20009 30107 40230 57008 60002 85500 333 10074 20000 31008 60007 91005 91107
AAXX 09181 15360 02997 02205 10057 20027 30225 40240 52002 60002 222// 06064 20301 333 10063 20022 3//// 60007 91006 91108 92427
AAXX 09181 15410 02997 50000 10020 21005 30140 40239 58003 60002 85030 333 10098 20020 30013 60007 91002 91103
AAXX 09181 15420 02997 12401 10031 20009 30121 40236 58005 60002 81030 333 10083 21038 31009 55300 0//// 20000 3//// 60007 91003 91103
AAXX 09181 15450 02997 61901 10042 21010 39996 40237 58004 60002 83041 333 10088 21008 31008 55300 10160 20004 3//// 60007 91002 91103 99051
AAXX 09181 15460 02997 22002 10042 20002 30217 40242 58002 60002 80001 333 10081 21005 31010 60007 91003 91104
AAXX 09181 15470 02997 32500 10020 21003 30107 40238 57005 60002 83040 333 10079 21016 31011 60007 91001 91102
AAXX 09181 15480 02997 42302 10049 20005 30233 40250 54000 60002 80005 222// 06070 2//// 333 10085 20010 31010 60007 91003 91103 92427
AAXX 09181 26038 01350 81608 10006 20001 39870 49911 57021 60012 77176 8872/ 333 10008 21010 69927 88508 91014 91118 555 1/000 21010 3/101 50000 52101
AAXX 09181 26141 01246 81610 11004 21009 39808 49957 57022 60022 77173 8872/ 333 11003 21012 60017 88507 91013 91115 555 1/101 21012 3/101 51012 52101
AAXX 09181 26231 01264 81607 10013 20008 39917 49932 57017 60022 70272 883// 333 10016 21001 69927 88906 91013 91114 555 1/000 21001 3/100 50006
AAXX 09181 26045 NIL
AAXX 09181 26058 NIL
AAXX 09181 26115 NIL
AAXX 09181 26135 NIL
AAXX 09181 26242 NIL
AAXX 09181 26247 NIL
AAXX 09181 10270 06660 82406 10055 21009 39993 40048 51008 69902 222// 06055 333 10071 20052 3/004 55300 69907 82/46 87/57 88/61 91115
BBXX UFTA 09181 99851 71231 11797 80802 11312 21344 40080 54000 69902 70222 86031
AAXX 09184 91930 36/// ///// 10294 20226
AAXX 09184 91943 36/// /0107 10282 20220 30126 40128 51016 333 10288 58001
AAXX 09181 89061 379// 03404 10009 21004 39862 49869 52015 72177 333 91005 91111
AAXX 09184 70026 NIL
AAXX 09184 70133 NIL
AAXX 09184 70174 NIL
AAXX 09184 70200 NIL
AAXX 09184 70219 NIL
AAXX 09184 70231 NIL
AAXX 09184 70261 NIL
AAXX 09184 70267 NIL
AAXX 09184 70271 NIL
AAXX 09184 70273 NIL
AAXX 09184 70308 NIL
AAXX 09184 70316 NIL
AAXX 09184 70326 NIL
AAXX 09184 70340 NIL
AAXX 09184 70350 NIL
AAXX 09184 70361 NIL
AAXX 09184 70381 NIL
AAXX 09184 70398 NIL
AAXX 09184 70414 NIL
AAXX 09184 68024 41660 83604 10205 20185 48475 53011 79562 889// 333 10288
AAXX 09184 68029 41560 62704 10283 20189 48480 52024 71792 83973 333 10316
AAXX 09184 68032 42660 71202 10246 20210 48478 51017 81980 333 10313
AAXX 09184 68038 42560 81805 10259 20182 48483 52019 333 10298
AAXX 09184 68040 42560 70913 10227 20173 48485 52020 85570 333 10280
AAXX 09184 68054 42460 70909 10214 20166 48514 52015 82570 333 20309
AAXX 09184 68070 42960 81405 10211 20177 48503 52013 8808/ 333 10234
AAXX 09184 68148 42560 80510 10206 20168 48498 52010 86980 333 10225
AAXX 09184 68226 41660 30504 10267 20177 48467 52019 71322 82903 333 10331
AAXX 09184 68234 42560 71409 10197 20163 48500 52029 84480 333 10275
AAXX 09184 68240 42460 80607 10191 20166 48499 52019 8257/ 333 10273
AAXX 09184 68320 41660 50514 10222 20183 48491 52037 71392 82963 333 10350 30098
AAXX 09184 68328 41660 51406 10300 20138 48465 53017 71322 84906 333 10351
AAXX 09184 03414 15980 /2607 10017 21013 30018 40108 51016 69922 91750 333 10064 55300 20000 8//99
AAXX 09184 03301 16681 /2711 10050 20003 30036 40110 51010 60002 91750 333 10060 81/31 85/46
AAXX 09184 03305 15682 /2517 10037 21015 39847 40112 51015 60022 91750 333 10048 82/32 86/43
AAXX 09184 03313 16680 /2611 10040 21003 30006 40102 51011 69942 91750 333 10063 84/45
AAXX 09184 03316 15675 /2822 10058 20014 30081 40092 51014 69922 91750 333 10071 81/31 90710 91129
AAXX 09184 03318 16/// /3015 10055 20015 69922 91750 333 10069 90710 91126
AAXX 09184 03321 16779 /2811 10044 21004 30088 40101 51014 60002 91750 333 10071 553// 20000 83/50
AAXX 09184 03330 17570 /2709 10013 20008 39734 40101 52019 69982 723// 91750 333 10044 83/22 85/26
AAXX 09184 03344 17480 /2709 10008 21004 39759 40083 53016 60032 777// 91750 333 10033 82/14 84/28
AAXX 09184 03346 16/// /2815 10007 20001 60032 91750 333 10030 90710 91129
AAXX 09184 03348 15770 /2105 10008 21001 39986 40096 52017 60082 91750 333 10042 55300 20000 81/50
AAXX 09184 03355 17582 /2910 10032 20000 30070 40081 53017 69902 721// 91750 333 10053 55300 20000 85/21
AAXX 09184 03373 16560 /2308 10009 20003 30014 40086 53017 69922 91750 333 10049 82/27 85/38
AAXX 09184 03379 16580 /2612 10018 20007 30014 40093 52015 60012 91750 333 10064 82/26 83/32
AAXX 09184 03382 15985 /2609 10019 20005 30062 40071 53014 69902 91750 333 10055 55300 20000 8//99
AAXX 09184 03385 46681 /2609 10021 20008 30067 40077 53012 91750 333 10062 81/31
AAXX 09184 03391 11682 12608 10024 20002 30082 40089 53012 60012 70181 81500 91750 333 10071 81630
AAXX 09184 03392 16971 /2611 10017 20006 30082 40086 53014 60022 91750 333 10060 8//99
AAXX 09184 03405 16681 /2921 10053 21001 30008 40125 51013 60002 91750 333 10064 553// 20000 87/33 90710 91131
AAXX 09184 03409 16/// /2706 10028 20002 69962 91750 333 10053 55300 2////
AAXX 09184 03410 16356 /2708 10007 21002 39673 40117 51015 60012 91750 333 10038 553// 20000 81/06 87/23
AAXX 09184 03469 15983 /2611 10022 20011 30086 40089 51016 69982 91750 333 10071 553// 20000 8//99
AAXX 09184 03488 15582 /2514 10027 20013 30055 40081 52014 60012 91750 333 10066 82/25
AAXX 09184 03503 15681 /3010 10056 21012 30044 40122 51012 69902 91750 333 10067 82/36 87/50
AAXX 09184 03507 17778 /2902 10016 21011 39752 40131 51013 69922 723// 91750 333 10051 83/50
AAXX 09184 03520 16976 /2807 10031 21006 39995 40118 51012 69962 91750 333 10065 553// 20000 8//99
AAXX 09184 03522 17779 /2204 10026 21009 30029 40124 52008 69902 723// 91750 333 10072 83/50
AAXX 09184 03529 15873 /2605 10027 21003 30078 40122 52017 69922 91750 333 10074 85/57
AAXX 09184 03544 15980 /2610 10025 21003 39976 40109 52016 69942 91750 333 10061 553// 20000 8//99
AAXX 09184 03560 15982 /2610 10025 20001 39999 40105 51013 69902 91750 333 10074 553// 20000 8//99
AAXX 09184 03604 16883 /3111 10050 21010 30083 40138 51011 69922 91750 333 10083 81/57
AAXX 09184 03605 16968 /2916 10058 20006 30128 40136 51011 69922 91750 333 10080 8//99
AAXX 09184 03609 16/// /2910 10052 21003 30089 40142 51012 60002 91750 333 10081
AAXX 09184 03628 15976 /2707 10053 21005 30055 40128 51013 60002 91750 333 10075 55300 20000 8//99
AAXX 09184 03647 16866 /2910 10018 21004 39858 40118 52014 69922 91750 333 10064 553// 20000 81/57
AAXX 09184 03658 16669 /2406 10028 20001 30049 40120 51015 69902 91750 333 10074 81/39
AAXX 09184 03660 15984 /2908 10028 21002 39865 40117 51014 69902 91750 333 10064 8//99
AAXX 09184 03672 11681 12503 10044 20013 30077 40118 53011 69902 70181 81401 91750 333 10082 81630
AAXX 09184 03684 15682 /2708 10030 21001 39998 40106 51012 60012 91750 333 10068 82/32
AAXX 09184 03693 16780 /2608 10054 20015 30106 40109 52010 60002 91750 333 10082 82/50
AAXX 09184 03707 15783 /3114 10074 20005 30133 40141 52010 69982 91750 333 10091 86/50
AAXX 09184 03710 16577 /3107 10026 20019 39714 40141 52009 60012 91750 333 10067 553// 20000 81/23 87/42
AAXX 09184 03743 16977 /2607 10027 21004 39967 40131 52010 69922 91750 333 10064 8//99
AAXX 09184 03749 16976 /2605 10030 20003 30018 40130 53010 69922 91750 333 10066 8//99
AAXX 09184 03761 12780 12511 10038 20007 39979 40125 53010 60002 81500 91750 333 10073 55300 20000 81656
AAXX 09184 03768 16965 /2709 10041 20012 30041 40121 53009 60002 91750 333 10079 8//99
AAXX 09184 03769 15981 /2507 10041 20012 30038 40121 53009 60002 91750 333 10084 55300 20000 8//99
AAXX 09184 03770 16/// ///// 10053 20024 60002 91750 333 10084
AAXX 09184 03781 15681 /2611 10036 20013 39909 40119 53009 60002 91750 333 10071 553// 20000 81/36
AAXX 09184 03797 15880 /2612 10051 20007 30051 40111 53007 60002 91750 333 10074 55300 20000 82/57
AAXX 09184 03823 15672 /3007 10047 20001 39901 40148 52005 60012 91750 333 10083 553// 20000 81/40 83/46
AAXX 09184 03839 16/// ///// 10047 20028 60002 91750 333 10089 553// 20000
AAXX 09184 03857 15668 /3221 10079 20029 30074 40137 53008 69922 91750 333 10097 83/30 83/50 90710 91129
AAXX 09184 03862 15772 /2504 10030 20009 30125 40137 52012 60002 91750 333 10092 55300 20000 83/56
AAXX 09184 03866 16/// /2913 10075 20016 30109 40134 52014 60002 91750 333 10100 90710 91125
AAXX 09184 03872 15780 /2810 10057 20024 30123 40128 53010 69902 91750 333 10090 553// 20000 83/56
AAXX 09184 03876 16/// /2806 10033 20014 30125 40127 53008 69922 91750 333 10085
AAXX 09184 03895 41582 63012 10087 20029 40147 58002 70182 8383/ 333 10100 82827 86363
AAXX 09184 03896 16/// ///// 10075 69942 333 10101
AAXX 09184 03002 17358 /3142 10009 21019 39864 49883 52013 60022 782// 91750 333 10043 81/08 87/13 90710 91157 91057
AAXX 09184 03008 11460 63033 10018 21049 49949 60012 78582 869// 91750 333 10037 82915 84818 90710 91152 91050
AAXX 09184 03010 46/// /3233 10025 21002 40023 53021 333 90710 91152
AAXX 09184 03014 46/// /3232 10017 21039 49941 52012 91750 333 8//// 90710 91152
AAXX 09184 03031 17411 /3117 11007 21022 39730 40064 53011 69902 773// 91750 333 10017 553// 20000 83/10 85/35
AAXX 09184 03034 17667 /3213 10035 21022 30050 40064 53012 69942 741// 91750 333 10053 85/30 90710 91126 91025
AAXX 09184 03037 17672 /2711 10015 21005 30055 40078 51018 69902 723// 91750 333 10055 82/39 86/50
AAXX 09184 03039 46/// /3318 11044 21044 91750 333 11028 90710 91132
AAXX 09184 03041 46/// ///// 11073 21078 91750 333 11054 91000
AAXX 09184 03044 17414 /3019 11003 21019 39948 40049 53019 69902 786// 91750 333 10026 553// 20000 84/11 84/50 90710 91128
AAXX 09184 03047 16/// /2503 11024 21036 3//// 4//// 5//// 69982 91750 333 10012 553// 20000
AAXX 09184 03062 17250 /2713 10006 21019 30043 40048 50014 69902 785// 91750 333 10033 553// 20000 81/05 86/26
AAXX 09184 03065 46/// ///// 11080 21089 91750 333 11066
AAXX 09184 03068 11475 72917 10021 21026 30039 40048 52020 69902 70287 873// 91750 333 10043 81918 86650 90710 91127
AAXX 09184 03072 46/// /3027 11095 21101 91750 333 11043 90710 91145 91039
AAXX 09184 03080 17860 /2510 11003 21018 39878 40053 51020 69902 771// 91750 333 10027 85/57
AAXX 09184 03088 15975 /2714 10007 21041 39876 40042 51016 60002 91750 333 10028 553// 20000 83/64 90710 91126
AAXX 09184 03094 17456 /3035 10031 21005 30016 40021 53021 69942 781// 91750 333 10058 81/18 86/44 90710 91147
AAXX 09184 03105 15980 /1204 11003 21014 30072 40089 51017 60052 91750 333 10046 8//99
AAXX 09184 03132 17980 /3404 10020 20010 30071 40085 51021 60092 723// 91750 333 10046 8//99
AAXX 09184 03144 15982 /2303 10001 21028 30024 40068 51018 69922 91750 333 10047 553// 20000 86/63
AAXX 09184 03148 46/// /2812 11026 21043 91750 333 11004
AAXX 09184 03153 15581 /3307 10010 20003 39936 40077 52016 60042 91750 333 10025 553// 20000 82/29
AAXX 09184 03155 16382 /2104 11017 21017 39776 40082 51022 69922 91750 333 10014 85/09
AAXX 09184 03158 15984 /2406 11004 21019 39926 40066 51022 60002 91750 333 10027 553// 20000 8//99
AAXX 09184 03210 16472 /2917 10039 20010 39926 40079 51013 60032 91750 333 10045 82/15 85/23
AAXX 09184 03212 17482 /3205 10029 20016 39978 40079 52014 60082 723// 91750 333 10035 87/12 85/22
AAXX 09184 03214 17581 /2816 10049 20016 30060 40078 51012 60032 723// 91750 333 10065 83/23 90710 91127
AAXX 09184 03220 16475 ///// 10009 20002 30043 40078 52021 60002 91750 333 10042 82/15
AAXX 09184 03224 15166 /2909 11002 21005 39725 40078 52022 60012 91750 333 10014 88/02
AAXX 09184 03225 16480 /3304 10006 21008 39769 40081 51018 60042 91750 333 10027 553// 20000 87/19 83/26
AAXX 09184 03226 15484 /3206 10009 21004 39795 40076 51019 60012 91750 333 10022 87/10
AAXX 09184 03227 46/// /2923 11036 2//// 91750 333 11026 90710 91127
AAXX 09184 03230 16985 /2701 11017 21027 39814 40078 53025 60002 91750 333 10034 8//99
AAXX 09184 03238 15984 /2907 11001 21010 39892 40069 52023 60002 91750 333 10030 8//99
AAXX 09184 03261 16679 /2607 10018 21005 30036 40077 52014 69982 91750 333 10060 81/32
AAXX 09184 03265 15684 /2807 10020 20000 30046 40077 52016 69902 91750 333 10055 82/46
AAXX 09184 03266 16684 /2709 10028 21007 30059 40076 52015 69902 91750 333 10057 83/44
AAXX 09184 03275 15977 /2712 10005 21019 39869 40066 53019 60002 91750 333 10046 8//99
AAXX 09184 03281 16/// /2809 10001 21013 60002 91750 333 10035
AAXX 09184 03903 16676 /3109 10032 20015 30053 40111 53018 60032 91750 333 10045 553// 20000 81/44 84/50
AAXX 09184 03904 17481 /2606 10022 21001 30044 40105 51020 60022 723// 91750 333 10043 81/13
AAXX 09184 03907 15772 /2107 10013 21001 30091 40099 52022 60022 91750 333 10049 55300 20000 81/50
AAXX 09184 03911 16981 /2914 10017 20008 39821 40100 51018 60022 91750 333 10027 82/60
AAXX 09184 03915 16967 /0901 10004 20004 30013 40094 52020 60042 91750 333 10044 8//99
AAXX 09184 03916 16962 /2203 11002 21004 39901 40096 51022 60072 91750 333 10019 553// 20000 8//99
AAXX 09184 03923 15478 /2807 10017 21004 39901 40101 52016 60022 91750 333 10027 86/17
BBXX WABS 09184 99463 71258 41498 10318 10083 20050 40242 54000 70100 81100 22283 0//// 20506 308// 40402 5//// 6/000 80067 ICE 0/0//
BBXX KAOU 09184 99070 10968 43/// /0715 10280 20242 40082 5//// 7//// 8//// 222// 04306 2//// 3//// 4//// 5//// 6//// 8//// ICE /////
BBXX NWS0003 09184 99600 71746 43/// /1326 10010 21011 49970 5//// 7//// 8//// 222// 04024 2//// 3//// 4//// 5//// 6//// 8//// ICE /////
BBXX NWS0029 09184 99174 70246 43/// /0512 10239 20174 40127 5//// 7//// 8//// 222// 04251 2//// 3//// 4//// 5//// 6//// 8//// ICE /////
BBXX NWS0020 09184 99379 10236 43/// /2003 10127 21012 40274 5//// 7//// 8//// 222// 04185 2//// 3//// 4//// 5//// 6//// 8//// ICE /////
BBXX WBN3015 09184 99194 70685 41/// /0524 10261 2//// 40115 54/// 716// 8//// 22222 0//// 20505 30705 40605 50503 6//// 8//// ICE /////
BBXX WYP8657 09184 99419 70875 41/98 52715 11016 2//// 40261 5//// 70110 85100 22283 00067 20302 3//// 4//// 5//// 6//// 8//// ICE /////
BBXX WXJ63 09183 99611 71464 41/96 80100 11003 21006 40103 5//// 771// 8//// 222// 00060 2//// 3//// 4//// 5//// 6//// 8//// ICE /////
BBXX 3ECJ7 09184 99210 10676 415// 60813 10270 20197 40110 54000 7//// 86216 22275 0//// 20202 3//// 40202 5//// 6//// 80220 ICE /////
BBXX ONDE 09183 99362 11411 41997 23516 10060 21012 40170 51010 7//00 82/99 22200 00160 20303 335// 4//// 5//// 6//// 80030 ICE /////
BBXX WCZ5238 09184 99115 51289 41798 41022 10280 20209 40165 52006 70200 84/6/ 22273 00260 20303 326// 41004 5//// 6//// 80230 ICE /////
BBXX KEY796 09183 99571 71703 41/97 81816 10039 20039 40055 58/// 761// 8//// 222// 00028 2//// 3//// 4//// 5//// 6//// 8//// ICE /////
BBXX WNBE 09184 99219 71593 41/// /0236 10240 2//// 40190 5//// 7//// 8//// 222// 0//// 2//// 3//// 4//// 5//// 6//// 8//// ICE /////
BBXX WDF2728 09184 99299 70901 41698 73407 10111 2004/ 40260 56010 7//22 86678 22242 0//// 2//// 3//// 4//// 5//// 6//// 80078 ICE /////
BBXX C6VG7 09184 99205 70869 41697 40319 10260 2//// 40180 54/// 702// 849// 22200 00260 2//// 3//// 4//// 5//// 6//// 8//// ICE /////
BBXX C6FY5 09184 99145 50358 41597 30208 10270 2023/ 40130 54/// 7//00 831// 22213 04280 20201 309// 40602 5//// 6//// 80240 ICE /////
BBXX 44008 09181 99405 70692 46/// /1604 10104 20035 40284 57014 91750 22200 00132 10902 20401 317// 40902 70012 333 91205 555 11044 22045 31734 41506 61749 155042 152043 146040 152036 141033 135031
BBXX 44039 09181 99411 70727 46/// /2704 10082 20029 91800 22200 00110 10401 70004 333 91205
BBXX 44060 09181 99413 70721 46/// ///05 10077 91800 22200 00119 333 91206 555 11046 22051
BBXX 44022 09181 99409 70737 46/// ///07 10088 20023 91800 22200 00101 333 91210 555 11072 22077
AAXX 09184 78526 NIL
AAXX 09184 78543 NIL
BBXX 42363 09181 99282 70892 46/// /0310 10178 20094 40251 58003 91800 333 91210
BBXX 42364 09181 99291 70881 46/// /3603 10161 20078 40251 58007 91800
BBXX 44011 09181 99411 70666 46/// /1503 10093 20016 40293 57008 91750 22200 00103 11004 20401 3//// 41004 70022 333 91205 555 11032 22033 31726 43405 61749 151031 160034 154036 164031 175037 171040
BBXX 41046 09181 99238 70683 46/// /0809 10258 20200 40176 58018 91750 22200 00261 11004 20604 300// 41002 70022 333 91210 555 11094 22100 31659 40811 61749 083088 077084 079081 081082 077086 083091 80810 91742
BBXX 41041 09181 99142 70460 46/// /1504 10273 20219 40102 58017 91750 22200 00271 10803 20401 3//// 40803 70016 333 91205 555 11046 22048 31722 41405 61749 144043 141042 140044 137039 133038 131033 81405 91724
BBXX 46083 09181 99582 71380 46/// /2907 10049 20037 40140 54000 91750 22200 00067 10905 20503 300// 40905 70027 333 91209 555 11075 22080 31650 42909 61749 285070 282073 283072 298071 304060 293073 82908 91655
AAXX 09184 78255 42559 30807 10284 20198 30010 40159 57020 83200 333 83820
AAXX 09184 78317 NIL
AAXX 09184 78318 NIL
AAXX 09184 78325 NIL
AAXX 09184 78333 NIL
AAXX 09184 78338 NIL
AAXX 09184 78348 NIL
AAXX 09184 78349 NIL
AAXX 09184 78353 NIL
AAXX 09184 78360 NIL
AAXX 09184 78367 NIL
AAXX 09184 78369 NIL
AAXX 09184 91165 NIL
AAXX 09184 91182 NIL
AAXX 09184 91190 NIL
AAXX 09184 91212 NIL
AAXX 09184 91217 NIL
AAXX 09184 91285 NIL
AAXX 09184 91317 NIL
AAXX 09184 91334 11474 70510 10273 20243 30073 40076 56008 69931 70282 82371 333 56299 70003 555 90918
AAXX 09184 91348 32474 50103 10275 20247 30029 40081 55007 83101 333 561/9 70015 555 90918
AAXX 09184 91356 NIL
AAXX 09184 91366 NIL
AAXX 09184 91369 NIL
AAXX 09184 91371 NIL
AAXX 09184 91376 11474 80911 10259 20232 30063 40066 55000 60101 72582 84878 333 56229 70109 555 90918
AAXX 09184 91408 32474 80703 10272 20250 30036 40074 57019 83278 333 56999 70003 555 90918
AAXX 09184 91413 11469 80709 10265 20239 30046 40071 57027 69931 70282 84373 333 56299 70907 555 90918
AAXX 09184 91425 NIL
AAXX 09184 91434 NIL
AAXX 09184 91765 NIL
AAXX 09184 91222 NIL
AAXX 09184 91245 NIL
AAXX 09184 91323 NIL
AAXX 09184 91339 NIL
AAXX 09184 91343 NIL
AAXX 09184 91353 NIL
AAXX 09184 91442 NIL
BBXX VEP717 09184 99467 70487 41998 82830 10040 2103/ 40236 53022 70322 80004 22200 06034 20605 324// 40909 80013
AAXX 09181 26554 11312 71806 11005 21011 39884 40049 57025 60012 78683 869// 333 10001 85707 91012 91113 92982
AAXX 09181 26666 11460 81805 11006 21037 39887 40106 57016 69902 70272 886// 333 11001 88712 91011 91113
AAXX 09181 26850 11318 82104 11001 21012 39801 40076 57024 60022 77372 885// 333 10002 88707
AAXX 09181 26863 32360 81906 11013 21030 39881 40123 57017 886// 333 11003 88709
AAXX 09181 26941 11330 81704 10004 21005 39838 40078 57009 60022 77172 8872/ 333 10013 91111
AAXX 09181 26951 11356 81904 10006 20003 39894 40095 57019 69982 76876 8872/ 333 10009 88709 91110
AAXX 09181 33008 11558 82304 10028 20013 39907 40086 54000 60032 71086 885// 333 10028 88629
AAXX 09181 33019 11356 81504 10005 21003 39925 40102 57014 60032 72276 886// 333 10025 86708
AAXX 09181 33036 32362 81803 11001 21018 39905 40140 57018 886// 333 11001 88707
AAXX 09181 33041 31458 81703 11001 21013 30002 40161 58011 71022 886// 333 10008 88714
BBXX A8KC6 09184 99314 51776 41498 81619 10250 20220 40200 50010 702// 8/77/ 22254 04240 20304 317// 40304 5//// 80230 46379 1738091222
BBXX ZCAO7 09184 99166 31189 41498 12414 10271 20235 40063 50010 70211 81100 22214 00303 20501 80246
BBXX DGWD2 09183 99397 70101 41498 62706 10155 20112 40225 54000 70311 8524/ 22244 00160 2//01 330// 40502 80130
BBXX UCSJ 09181 99683 10437 41/97 92215 10021 40142 56010 70222 89/// 22251 20504
BBXX PFFH 09183 99442 10140 41/98 /1813 10158 40200 58008 7//// 8//// 22273 00158 2////
BBXX UGGA 09181 99686 10391 41/98 92109 10040 40132 57010 70222 89/// 22231 20403
BBXX UCJU 09181 99722 10637 41/98 93012 10003 40135 52011 70222 22253
BBXX DHEE 09183 99477 70286 41397 81921 10125 20107 40185 58015 75211 887// 22264 00130 20704 321// 41104 80115
BBXX 51000 09181 99235 71541 46/// /0708 10225 40203 53014 91750 22200 00234 11606 20602 331// 41606 70032 333 91210 555 11084 22089 31748 40810 61749 068079 068074 072075 070075 066068 069064
BBXX 51003 09181 99193 71606 46/// /0510 10245 40163 53004 91750 22200 00256 11605 20704 3//// 41604 70027 333 91211 555 11103 22109 31720 40612 61749 047096 048097 049099 047102 045100 048097
BBXX 46089 09181 99459 71258 46/// /0308 10080 20057 40239 57003 91750 22200 00097 11704 20603 331// 41703 70021 333 91209 555 11083 22087 31747 40309 61749 025078 023074 019071 017074 014074 015072
BBXX 46042 09181 99368 71224 46/// /1006 10109 40224 53018 91750 22200 00119 12104 20401 331// 42103 70018 333 91207 555 11058 22061 31719 41007 61749 097054 099056 100059 099057 097053 092056
BBXX DBLK 09181 99486 30000 41296 83413 10062 20062 40125 57042 75154 876// 22244 04051 20504 325// 40905
BBXX BATFR19 09184 99007 30088 46/// /2011 10262 20237 40089 22211 00274
BBXX BATFR08 09184 99467 30530 46/// /1734 10025 20009 40163 50012 22223 00057
BBXX 3ECJ7 09184 99210 10676 415// 60813 10270 20197 40110 54000 7//// 86216 22275 0//// 20202 3//// 40202 5//// 6//// 80220 ICE /////
BBXX C6VF5 09184 99168 10563 41597 60725 10240 2020/ 40170 5//// 7//11 86100 22214 00260 2//// 3//// 4//// 5//// 6//// 80210 ICE /////
BBXX 2BLY5 09183 99081 70246 41598 70511 10305 20236 40095 58035 70022 8711/ 22253 00290 20301 309// 40602 80257
BBXX DBRE 09184 99071 50308 41597 61015 10295 20255 40122 56010 70322 84776 22273 04281 20602 313// 41003 80265
BBXX SHIP 09184 99427 11759 41697 82720 10090 20090 49963 51023 75362 8571/ 22223 00150 80090
BBXX ONDE 09183 99362 11411 41997 23516 10060 21012 40170 51010 7//00 82/99 22200 00160 20303 335// 4//// 5//// 6//// 80030 ICE /////
BBXX ZCBZ5 09183 99056 10973 41/96 71608 10287 20240 40089 51006 70222 8//// 22264 02295 20101 314// 40201 5//// 80254
BBXX C6SI6 09184 99493 11583 46/// /2819 11016 21079 49932 51024 7//// 8//// 22253 0//// 2////
BBXX 3FZK3 09184 99448 11498 46/// /2924 11017 21065 40086 57006 7//// 8//// 22213 0//// 2////
BBXX A8EH3 09183 99426 11457 41598 63116 10020 21033 40135 54000 702// 861// 22214 04080 20301 80000
BBXX DCAX2 09183 99313 11243 41398 21613 10080 20058 40290 50010 70322 821// 22253 20403 3//// 4//// 5//// 80070
BBXX 46070 09181 99551 11753 46/// /1905 10013 21017 49760 58035 91750 22200 00045 10907 20502 3//// 40907 70035 333 91207 555 11056 22058 31713 42014 61749 188055 190046 200064 199110 192093 186079 82012 91714
BBXX C6FY5 09184 99145 50358 41597 30208 10270 2023/ 40130 54/// 7//00 831// 22213 04280 20201 309// 40602 5//// 6//// 80240 ICE /////
BBXX WBP3210 09184 99551 50644 43/// /3313 10096 2//// 49965 5//// 7//// 8//// 22261 00060 2//// 3//// 4//// 5//// 6//// ICE /////
BBXX 32012 09181 99197 50856 46/// ///// 1//// 91750 22200 11404 70022
BBXX 51101 09181 99243 71621 46/// /0507 10223 20168 40203 53007 91750 22200 00244 11305 20502 333// 41305 70027 333 91208 555 11069 22072 31706 40812 61749 047067 072051 058052 115057 054065 042030
BBXX 44040 09181 99410 70736 46/// /2207 10091 20028 91745 22200 10301 70004 333 91209 555 11088 22103
BBXX 41010 09181 99289 70785 46/// /1005 10229 40211 58016 91750 22200 00241 10703 20401 300// 40702 70013 333 91206 555 11051 22053
BBXX 41009 09181 99285 70802 46/// /0906 10239 20161 40207 58016 91750 22200 00249 10703 20502 300// 40702 70014 333 91207 555 11063 22066
BBXX 42057 09181 99168 70815 46/// /0804 10281 20220 40137 58009 91750 22200 00284 10903 20401 3//// 40902 70013 333 91204 555 11036 22037 31702 40805 61749 076036 075036 078041 083038 079041 077042 80705 91729
BBXX CGBY 09184 99487 71235 46/// /3001 10022 20004 40278 55001 7//// 8//// 22200 0//// 2////
BBXX CG2958 09184 99487 71235 46/// /3002 10022 20012 40287 55001 7//// 8//// 22200 0//// 2////
BBXX VREX8 09184 99482 71272 43/// /0904 10120 2008/ 40300 5//// 7//// 8//// 22225 0//// 20302 309// 40302 50302 6//// 80100 ICE /////
BBXX WGEB 09183 99347 71489 43598 50919 10167 2014/ 40260 52005 7//// 858// 22215 00200 21204 329// 4//// 5//// 6//// 80150 ICE /////
BBXX WNBE 09184 99219 71593 41/// /0236 10240 2//// 40190 5//// 7//// 8//// 222// 0//// 2//// 3//// 4//// 5//// 6//// 8//// ICE /////
BBXX C6FT7 09183 99171 70618 43/// /0507 10325 2//// 40100 54000 7//// 8//6/ 22200 00200 2//// 3//// 4//// 5//// 6//// ICE /////
BBXX MHNO6 09183 99286 70512 41598 40416 10244 20200 40178 57004 70300 83440 22253 00253 20502 303// 40803 5//// 80215
BBXX DPJK 09180 99202 70647 41/98 /0509 10270 20212 40142 57018 70200 8/26/ 22254 00299 20804 306// 41005 5//// 80229
BBXX WKWB 09184 99278 71166 41498 50112 10156 2012/ 40200 51010 70122 81102 22272 00177 20101 334// 40501 80138
BBXX CGTF 09184 99476 70527 46/// /1713 10031 21079 40225 52018 7//// 8//// 22200 0//// 2////
BBXX VCSZ 09184 99476 70527 46/// /2507 10033 21029 40221 51023 7//// 8//// 22281 0//// 2////
BBXX VCWL 09184 99468 70712 46/// /2502 10007 21015 40212 57010 7//// 8//// 22200 0//// 2////
BBXX CGCC 09184 99466 70721 46/// /2112 10008 21019 40204 58013 7//// 8//// 22200 00055 2////
BBXX VXKF 09184 99472 70599 46/// /2728 10036 21046 40202 55025 7//// 8//// 22253 0//// 2////
BBXX CG2965 09184 99487 71235 46/// /2901 10022 20007 40279 55002 7//// 8//// 22200 0//// 2////
BBXX VCBW 09184 99517 70562 46/// /2544 11043 21126 40068 53039 7//// 8//// 22261 00035 2////
BBXX VAAP 09184 99446 70635 46/// /2411 10071 21015 40271 56010 7//// 8//// 22200 0//// 2////
BBXX VRYO3 09184 99499 70618 46/// /2720 11014 21007 40185 51011 7//// 8//// 22224 00030 2////
BBXX CGJK 09184 99484 71234 46/// /0206 10046 20020 40273 55002 7//// 8//// 22200 0//// 2////
BBXX CGDG 09184 99477 70516 46/// /2619 10027 21009 40223 53017 7//// 8//// 22222 00034 2////
BBXX CGDR 09184 99499 71268 46/// /0607 10010 20008 40266 58002 7//// 8//// 22221 00112 2////
BBXX CGSB 09184 99468 70712 46/// /1907 10003 21020 40214 57010 7//// 8//// 22200 0//// 2////
BBXX VCLM 09184 99621 70747 46/// /1613 11149 21188 49966 53004 7//// 8//// 22200 0//// 2////
BBXX VAAZ 09184 99506 70503 46/// /2842 11008 21049 40101 53068 7//// 8//// 22261 0//// 2////
BBXX CGDX 09184 99468 70712 46/// /2309 10013 21014 40213 56011 7//// 8//// 22200 0//// 2////
BBXX VOFG 09184 99456 70614 46/// /2716 10055 21044 40268 56006 7//// 8//// 22200 0//// 2////
BBXX CGBN 09184 99447 70636 46/// /2003 10072 21029 40265 56010 7//// 8//// 22200 0//// 2////
BBXX VOPP 09184 99456 70735 46/// /2103 10000 20002 4//// 5//// 7//// 8//// 22200 0//// 2////
BBXX VOKJ 09184 99455 70735 46/// /1903 10007 20003 40202 58019 7//// 8//// 22200 0//// 2////
BBXX CGDT 09184 99490 70669 46/// /2413 11010 21076 40199 56002 7//// 8//// 22200 0//// 2////
BBXX CGBR 09184 99534 71293 46/// /0708 10015 20015 40255 56016 7//// 8//// 22200 0//// 2////
BBXX CZ9742 09184 99506 70969 46/// /2507 11145 21217 40250 50001 7//// 8//// 22200 0//// 2////
BBXX 44007 09181 99435 70701 46/// /2109 10064 20003 40243 58019 91750 22200 00087 11002 20402 3//// 41001 70011 333 91211 555 11098 22103 31741 42111 61749 210092 208091 214091 219083 217079 213081
BBXX 44013 09181 99424 70706 46/// /2104 10086 20043 40248 56026 91750 22200 00098 10301 20301 70005 333 91205 555 11040 22041 31652 41808 61749 203039 193047 193056 189065 191062 183062
BBXX 46035 09181 99571 71778 46/// /1312 1//// 49894 58063 91750 22200 10806 20704 300// 40805 70030 333 91214 555 11118 22126 31724 41217 61749 126118 122126 121136 116118 116104 121117 81215 91724
BBXX 46077 09181 99579 71543 46/// /2610 10028 21012 40150 51017 91750 22200 00048 10704 20704 3//// 41302 70020 333 91212 555 11104 22110 31656 42615 61749 257098 256098 254106 252114 252120 255124 82613 91701
BBXX 46001 09181 99563 71480 46/// /2811 10052 40160 53012 91750 22200 00052 11607 20705 300// 41605 70033 333 91213 555 11120 22128 31708 42715 61749 277113 273113 275112 271119 272118 273118
BBXX 46082 09181 99597 71434 46/// ///// 10042 20042 40114 55000 91750 22200 00061 10904 70022
BBXX 46072 09181 99517 71722 46/// /1614 10058 20055 40048 58050 91750 22200 00055 10707 20706 3//// 41003 70033 333 91218 555 11153 22163 31747 41618 61749 159141 160136 162137 161135 159133 157126 81616 91747
BBXX 46026 09181 99378 71228 46/// /0908 10114 40226 51014 91750 22200 00115 12103 20301 329// 42103 70015 333 91209 555 11081 22086 31743 40909 61749 086075 284071 288067 287068 288071 292071
BBXX 46041 09181 99474 71247 46/// /0303 10042 40249 57003 91750 22200 00091 11903 20401 3//// 41903 70016 333 91204 555 11030 22030 31722 40405 61749 025029 028031 042030 041029 050025 056026
BBXX 41040 09181 99145 70530 46/// /1902 10280 20240 40106 56015 91750 22200 00286 10903 20401 3//// 40903 70017 333 91202 555 11015 22016 31658 41903 61749 193014 171011 155011 172012 187011 178017 81902 91658
BBXX 42039 09181 99288 70860 46/// /3506 10167 40227 57012 91750 22200 00229 333 91208 555 11058 22060 31650 43608 61749 351055 349055 358056 358054 355057 355053
BBXX VCRG 09184 99463 70623 46/// /2416 10051 21028 40259 53024 7//// 8//// 22252 00097 2////
BBXX KGTX 09183 99534 71347 41697 82024 10072 2005/ 40184 57046 70222 886// 22274 00078 20806 327// 41505 5//// 6//// 80061 ICE /////
BBXX WDB9949 09184 99368 71425 41698 71008 10160 2010/ 40253 52020 70122 87469 22224 00150 20401 310// 40703 5//// 6//// 80125 ICE /////
BBXX 3FBC9 09184 99296 71682 41797 51017 10200 40225 51001 70222 85562 9//// 22223 00230 20303 330// 41507 5//// 6//// 80170
BBXX 2AKI3 09183 99106 70616 41697 70809 10271 20229 40106 57018 72522 8337/ 22200 00281 20201 30000 4//// 5//// 80242
BBXX A8JH8 09184 99207 70588 41597 30424 10270 20228 40135 57010 70200 82440 22214 20704 306// 41204
BBXX LAHE2 09184 99128 70576 41295 60609 10290 2027/ 40105 54000 70122 86290 22233 00300 20302 324// 40503 5//// 6//// 80275 ICE /////
BBXX WBN3015 09184 99194 70685 41/// /0524 10261 2//// 40115 54/// 716// 8//// 22222 0//// 20505 30705 40605 50503 6//// 8//// ICE /////
BBXX BAREU04 09184 99515 70377 46/// ///// 40057 52029 22224
BBXX BAREU08 09184 99116 70750 46/// ///// 40093 57016 22213
BBXX 46069 09181 99337 71202 46/// /3205 10127 40216 51017 91750 22200 00132 12102 20401 335// 42102 70012 333 91206 555 11056 22059 31653 43307 61749 319053 323052 317055 317055 316056 320059
BBXX 46047 09181 99324 71195 46/// /3205 10129 40219 51017 91750 22200 00143 12102 20401 336// 42102 70011 333 91206 555 11052 22054 31659 43307 61749 322049 322048 318051 320051 320052 325053
BBXX 46050 09181 99442 71246 46/// /0905 10079 40233 53008 91750 22200 00103 11704 20401 330// 41704 70019 333 91206 555 11048 22050 31700 40907 61749 089047 079054 070051 072050 079056 085052
BBXX 46012 09181 99374 71229 46/// /0402 10109 40227 53014 91750 22200 00119 12103 20401 329// 42103 70016 333 91202 555 11015 22016 31708 40403 61749 041014 039016 041019 037023 031023 034018
BBXX 46059 09181 99380 71300 46/// /0304 10114 40247 52014 91750 22200 00147 11705 20401 3//// 41705 70025 333 91206 555 11045 22046 31735 40407 61749 030042 031045 051045 062034 062039 055047
BBXX 46011 09181 99350 71210 46/// /0501 10124 40226 51019 91750 22200 00141 12103 330// 42102 70013 333 91202 555 11008 22008 31710 40902 61749 056008 051008 053009 073008 097006 093004
BBXX 46053 09181 99342 71198 46/// /2801 10135 40212 51018 91750 22200 00142 333 91202 555 11014 22015 31650 42702 61749 276014 288014 307013 304012 306010 308011
BBXX 46086 09181 99325 71180 46/// /3102 10150 40211 51017 91750 22200 00159 11402 20401 326// 41402 70009 333 91203 555 11023 22023 31747 43103 61749 311022 314020 322016 316015 313011 340015
BBXX 46088 09181 99483 71232 46/// /0104 10043 40266 91750 22200 00081 1//00 70001 333 91205 555 11037 22038 31734 43605 61749 007036 006037 006036 004036 008037 024037
BBXX 46075 09181 99539 71608 46/// /2207 10047 20030 40233 53007 91750 22200 00053 11308 20603 300// 41307 70040 333 91209 555 11073 22077 31700 42210 61749 223069 224069 224077 220074 224076 225077 82208 91700
BBXX 46006 09181 99408 71375 46/// /0603 10109 40281 54000 91750 22200 00126 11706 20401 3//// 41706 70031 333 91204 555 11026 22026 31726 40905 61749 058026 058026 055031 069031 063030 049035
BBXX 46084 09181 99566 71361 46/// /2904 10064 20048 40155 57009 91750 22200 00077 11006 20401 300// 41006 70029 333 91206 555 11045 22047 31652 42707 61749 287043 288043 283043 286046 289050 284053
BBXX 46078 09181 99561 71526 46/// ///// 1//// 40185 91750
BBXX 46027 09181 99419 71244 46/// /1704 10070 40233 51014 91750 22200 00095 11904 20401 328// 41904 70019 333 91205 555 11043 22044 31656 41606 61749 173040 175041 172044 167041 161045 158046
BBXX 46005 09181 99461 71310 46/// ///05 10069 40273 54000 91750 22200 00101 11704 20401 3//// 41704 70019 333 91207 555 11050 22052
BBXX 46002 09181 99426 71305 46/// ///// 10103 40260 52005 91750 22200 00124 11705 70027
BBXX 42055 09181 99222 70940 46/// /1008 10240 20163 40196 57003 91750 22200 00250 10402 20402 305// 40801 70010 333 91209 555 11083 22087 31655 41011 61749 096079 094077 091080 092077 094081 092090 80910 91655
BBXX 42040 09181 99292 70882 46/// /3603 10156 40246 58007 91750 22200 00223 10601 70003 333 91205 555 11031 22032 31653 40305 61749 358029 359024 002030 003030 012028 018029
BBXX 44005 09181 99432 70691 46/// /2010 10075 20020 40252 56019 91750 22200 00092 11003 20502 3//// 41002 70017 333 91212 555 11101 22107 31702 42113 61749 203096 208100 206099 206101 208106 208102
BBXX 42019 09181 99279 70954 46/// /1308 10211 20151 40219 50003 91750 22200 10402 20402 70009 333 91210 555 11085 22090 31744 41410 61749 139079 282077 282077 282074 282072 280069
BBXX UFTA 09181 99851 71231 11797 80802 11312 21344 40080 54000 69902 70222 86031
BBXX VQKZ5 09183 99099 70793 41497 83611 10262 20237 40102 57014 70222 86415 22254 02267 20301 304// 40301 5//// 80245
BBXX KRGB 09184 99310 71376 41/98 50607 10178 2014/ 40234 52004 7//22 85/// 22255 00183 21301 332// 42102 5//// 6//// 80156 ICE /////
BBXX WDF2728 09184 99299 70901 41698 73407 10111 2004/ 40260 56010 7//22 86678 22242 0//// 2//// 3//// 4//// 5//// 6//// 80078 ICE /////
BBXX WSRL 09184 99411 71375 41297 40507 10110 2008/ 40275 52008 7//00 834/1 22214 00144 2//// 31027 40505 51105 6//// 80095 ICE /////
BBXX J8PB 09184 99177 70670 41698 61013 10260 20246 40120 57010 7//11 86462 22222 0//// 20302 30809 40302 50302 6////
BBXX ELXU2 09180 99222 71231 41598 80205 10200 20131 40238 51010 70222 888// 22223 20302 302// 40404 5//// 80158
BBXX DBIP 09183 99260 70747 41097 30825 10240 20211 40190 54000 70200 82124 22223 04250 21205 3//// 4//// 5//// 80220
BBXX 41101 09184 99146 70562 46/// /3401 10288 20229 40098 57020 22200 00280 10903 70017
BBXX 46238 09181 99334 71195 46/// ///// 1//// 91750 22200 00150 12202 20601 330// 42201 70009
BBXX 46239 09181 99363 71221 46/// ///// 1//// 91751 22200 00129 12004 20902 331// 42004 70020
BBXX PHQX 09183 99314 70653 41498 61005 10242 20176 40240 56010 70111 85172 22214 20501 309// 40802 5//// 80198
BBXX BATEU04 09184 99687 70528 46/// /0625 11047 21108 49902 57056 22221
BBXX BATEU01 09184 99466 70441 44497 62830 10054 21002 40205 53037 70222 84364 22264 00065 21004 331// 41404 5////
BBXX 44099 09181 99369 70757 46/// ///// 1//// 91752 22200 00133 11102 21002 70009
BBXX 46219 09181 99332 71199 46/// ///// 1//// 91758 22200 00135 12203 20502 330// 42202 70013
BBXX 46214 09181 99379 71235 46/// ///// 1//// 91757 22200 00115 12004 20903 329// 42003 70020
BBXX 41112 09181 99307 70813 46/// ///// 1//// 91751 22200 00166 10502 20502 70010
BBXX 46224 09181 99332 71175 46/// ///// 1//// 91736 22200 00153 11101 20601 323// 41101 70006
BBXX 41113 09181 99284 70805 46/// ///// 1//// 91751 22200 00219 10902 20902 70008
BBXX 44100 09181 99363 70756 46/// ///// 1//// 91752 22200 00144 11002 21002 310// 41101 70010
BBXX 41110 09181 99341 70777 46/// ///// 1//// 91751 22200 00158 10502 20502 70012
BBXX 42099 09181 99273 70842 46/// ///// 1//// 91757 22200 00240 10402 20402 70008
BBXX 46218 09181 99345 71208 46/// ///// 1//// 91802 22200 00139 12203 21002 329// 42202 70016
BBXX 46236 09181 99368 71219 46/// ///// 1//// 91750 22200 00117 12202 21002 329// 42202 70011
BBXX 46215 09181 99352 71209 46/// ///// 1//// 91738 22200 00131 12203 21001 327// 42202 70013
BBXX 46229 09181 99438 71246 46/// ///// 1//// 91751 22200 00105 11803 20702 330// 41802 70017
BBXX 46225 09181 99329 71174 46/// ///// 1//// 91744 22200 00159 11201 20601 323// 41201 70006
BBXX 46213 09181 99403 71247 46/// ///// 1//// 91754 22200 00107 12005 20803 330// 42003 70023
BBXX 46243 09181 99462 71241 46/// ///// 1//// 91759 22200 00094 11803 20702 327// 41803 70017
BBXX 46232 09181 99325 71174 46/// ///// 1//// 91738 22200 00144 11202 20601 326// 41201 70008
BBXX 46247 09181 99378 71228 46/// ///// 1//// 91751 22200 00117 12003 21002 328// 42003 70016
BBXX 44172 09181 99445 70634 46/// ///// 1//// 91801 22200 00077 11204 20903 319// 41203 70021
BBXX 44097 09181 99410 70711 46/// ///// 1//// 91802 22200 00129 10902 20902 321// 41101 70012
BBXX 46061 09181 99602 71468 46/// /0102 10041 40103 53007 91750 22200 00060 10803 20401 300// 40803 70014 333 91203 555 11024 22024 31742 40103 61749 011024 018022 018021 021019 020016 029016
BBXX 44066 09181 99396 70726 46/// /1906 10122 20046 40267 58021 91750 22200 00142 10802 20301 3//// 40801 70009 333 91207 555 11059 22061 31738 42008 61749 188056 190065 182061 187059 185062 182057
BBXX 41036 09181 99342 70770 46/// ///// 10182 20133 40229 58020 91750 22200 00172 10502 70012
BBXX 41043 09181 99211 70650 46/// /0710 10264 20212 40150 58020 91750 22200 00271 10905 20804 300// 40903 70026 333 91212 555 11105 22111 31719 40712 61749 069098 068099 066100 071101 067100 064098 80711 91712
BBXX WDJK 09184 99554 71425 41598 62423 10050 20028 40190 54000 70222 8619/ 22233 00050 20602 325// 41005 5//// 6//// 80040 ICE /////
BBXX VRHO2 09184 99502 71468 41498 32725 10080 20013 40250 5/010 7//22 83900 222// 00070 20804 32727 40803 50903 6//// 80050 ICE /////
BBXX WABS 09184 99463 71258 41498 10318 10083 20050 40242 54000 70100 81100 22283 0//// 20506 308// 40402 5//// 6/000 80067 ICE 0/0//
BBXX C6KJ5 09184 99269 70916 41497 83609 10190 2014/ 40235 54000 70222 88200 22273 00245 80160
BBXX DBKR 09181 99541 10121 46/// /2307 10045 20015 40003 52012 22200 00062
BBXX DBBI 09181 99536 10086 46/// /2503 10034 20034 40034 52012 22210 00061
BBXX DBEB 09181 99538 10081 41/// /2315 10039 20038 40012 50006 7//// 22261 00054
BBXX DBFH 09181 99555 10084 46/// /3013 10060 20004 49953 56012 22200 00042
BBXX DBEA 09181 99539 10087 46/// /2316 10036 20018 40009 52015 22230 00050
BBXX DBJM 09181 99542 10075 46/// /2814 10080 21018 40005 52011 22261 00086
BBXX HZZB 09183 99359 10159 41598 31707 10180 2015/ 40266 51016 702// 831// 22233 0//// 20402 320// 40603 5//// 6//// 80160 ICE /////
BBXX ZCBW2 09183 99374 10121 43498 22012 10170 20100 40250 56010 7//// 81150 22273 00190 2//// 3//// 4//// 5//// 80130
BBXX CG2350 09184 99433 70798 46/// /2311 10019 21008 40201 58015 7//// 8//// 22200 0//// 2////
BBXX 45002 09181 99453 70864 46/// /3101 11042 21081 30002 40224 54000 91750 333 91204 555 11010 22010 31700 42906 61749 322010 324020 307020 032006 074009 255014
BBXX 45008 09181 99443 70824 46/// /2609 11014 39982 40202 50000 91750 22200 00065 10502 20502 70012 333 91212 555 11099 22103 61749 258094 259095 258096 256099 256091 256094
BBXX CGDS 09184 99447 70755 46/// /2117 10018 20001 4//// 5//// 7//// 8//// 22200 0//// 2////
BBXX WDF5483 09184 99419 70828 43/97 82616 10005 2//// 40227 5//// 7//// 8//// 22262 0//// 2//01 3//// 4//// 5//// 6//// 8//// ICE /////
BBXX WE3592 09184 99468 70858 43/// 72734 11055 2//// 40159 54/// 7//// 8//// 222// 0//// 2//06 3//// 4//// 5//// 6//// 8//// ICE /////
BBXX VCPX 09184 99426 70801 41/96 92408 10002 2//// 41021 54010 70727 8//// 22200 00070 20101 3//// 4//// 5//// 6//// 8//// ICE /////
BBXX 44018 09181 99421 70696 46/// /1809 10083 20057 40265 56029 91750 22200 00096 11102 20402 3//// 41101 70012 333 91211 555 11095 22100 31716 41811 61749 182090 177092 181092 178090 178090 183088
BBXX 44020 09181 99414 70702 46/// /1908 10104 20056 40263 57022 91750 22200 00098 10301 20301 70006 333 91210 555 11086 22091 31731 42510 61749 200081 248084 248086 248084 247085 246081
BBXX 46029 09181 99461 71245 46/// /0807 10064 20033 40235 52004 91750 22200 00077 11703 20602 330// 41703 70016 333 91208 555 11075 22079 31746 40708 61749 075070 076064 075058 080054 081051 078055
BBXX 41004 09181 99325 70791 46/// /3407 10175 20158 40227 58009 91750 22200 00214 10803 20602 3//// 40802 70015 333 91208 555 11071 22074 31730 43508 61749 344068 352067 354067 002060 010053 003061
BBXX 44027 09181 99443 70673 46/// /2209 10076 20005 40251 57010 91750 22200 00091 11104 20603 3//// 41103 70022 333 91212 555 11100 22105 31714 42313 61749 222095 221096 226103 229107 225102 226093
BBXX 46054 09181 99342 71204 46/// /3103 10132 40217 51018 91750 22200 00140 12103 20401 300// 42102 70013 333 91204 555 11035 22037 31714 43104 61749 313033 311034 312035 311035 311033 319032
BBXX 44009 09181 99385 70747 46/// /1507 10118 40266 58025 91750 22200 00130 10802 20301 300// 40801 70008 333 91209 555 11076 22080 31740 41409 61749 147072 147070 150070 152068 153064 155060
BBXX 44065 09181 99404 70737 46/// /2105 10095 20054 40261 58022 91750 22200 00118 10801 315// 40801 70006 333 91206 555 11053 22055 31724 42106 61749 210050 217046 209049 214040 211039 202039 82106 91749
BBXX 46028 09181 99357 71219 46/// /2902 10121 40222 51018 91750 22200 00129 12102 330// 42102 70012 333 91203 555 11024 22024 31730 42903 61749 293023 289023 294022 295022 305022 301024
BBXX 46105 09181 99590 71522 46/// ///// 1//// 91750 22200 10603 70017
BBXX 46087 09181 99485 71247 46/// /1009 10058 20043 40257 54000 91750 22200 00081 11902 20501 323// 41902 70011 333 91210 555 11093 22098 31704 41012 61749 097088 102088 102089 102094 102095 102093
BBXX 46025 09181 99337 71191 46/// /3101 10146 40215 51015 91750 22200 00153 11201 20401 325// 41201 70006 333 91201 555 11010 22010 31650 43602 61749 306010 301010 325008 333011 354012 003012
BBXX 41008 09181 99314 70809 46/// /0206 10152 20141 40232 58007 91750 22200 00171 10902 20502 300// 40901 70011 333 91208 555 11067 22070 31716 40208 61749 020064 018066 016067 018071 020070 015071
BBXX 46013 09181 99382 71233 46/// /0806 10099 40231 52015 91750 22200 00105 12104 20501 3//// 42104 70018 333 91207 555 11066 22069 31655 40809 61749 074062 072062 072067 071067 074067 079073
BBXX 41013 09181 99334 70777 46/// /1305 10209 20122 40223 58017 91750 22200 00226 10803 20401 309// 40802 70013 333 91207 555 11047 22049 31722 41308 61749 125045 140040 137043 148049 144046 143049
BBXX 44025 09181 99402 70732 46/// /2008 10108 20055 40258 58021 91750 22200 00119 10902 20402 314// 40901 70010 333 91209 555 11085 22090 31740 42110 61749 204082 195074 197080 205076 199077 203074
BBXX 44014 09181 99366 70748 46/// /1006 1//// 40252 58019 91750 22200 00157 10902 20501 309// 40901 70010 333 91207 555 11062 22062 31731 41008 61749 100062 103065 102065 103065 102061 101061
BBXX 46014 09181 99394 71240 46/// /0000 10094 40238 53012 91750 22200 00115 11904 20401 3//// 41904 70020 333 91201 555 11002 22002 31702 40904 61749 154002 116002 123010 103021 090028 098026
BBXX 46080 09181 99580 71500 46/// /2808 10040 20028 40142 53022 91750 22200 00053 11005 20604 3//// 41003 70026 333 91209 555 11079 22084 31651 43209 61749 283075 280074 286071 300066 302062 314075 82808 91730
BBXX C6YT4 09183 99073 70789 41397 33312 10275 20231 40089 51/// 70311 8/2// 22283 04300 20504 324// 40505 5//// 80245
BBXX FVNM 09184 99078 71049 46/// /1118 10259 20230 40128 50003 22241 00270
BBXX A8EH2 09183 99052 70806 41498 52603 10260 20238 40105 58010 70062 81268 22274 00255 20201 322// 40403 80245
BBXX WDC6698 09184 99099 71426 43/// /0313 10274 20262 40100 5//// 7//// 8//// 222// 04257 2//// 3//// 4//// 5//// 6//// 8//// ICE /////
BBXX BATFR48 09184 99157 51470 46/// /3313 10275 20215 40126 52180 22252 00304
BBXX BATFR47 09184 99266 51341 46/// /3432 10234 20215 40120 50/// 22262
BBXX BATEU07 09184 99389 31480 46/// /0629 10177 40081 56018 22222
BBXX BATFR35 09184 99166 51517 46/// /2904 10265 20217 40115 22272 00285
BBXX BATFR56 09184 99031 10907 44998 61207 10277 20244 40099 58003 70222 86300 22253 00304
BBXX WCZ5238 09184 99115 51289 41798 41022 10280 20209 40165 52006 70200 84/6/ 22273 00260 20303 326// 41004 5//// 6//// 80230 ICE /////
BBXX 42059 09181 99151 70675 46/// /0607 10280 20232 40114 58018 91750 22200 00287 10902 20402 3//// 40901 70012 333 91208 555 11072 22076 31711 40608 61749 059068 060065 060066 065071 062066 066067 80608 91712
BBXX 42058 09181 99149 70749 46/// /0807 10277 20226 40108 58018 91750 22200 00280 10602 20602 306// 40901 70011 333 91208 555 11073 22078 31651 40809 61749 081069 081070 078071 079073 081073 086076 80908 91653
BBXX 42056 09181 99198 70849 46/// /0208 10261 20216 40158 58011 91750 22200 00275 10703 20703 70016 333 91209 555 11084 22088 31720 40410 61749 020080 028079 033082 028080 030075 036078 80409 91720
BBXX 42036 09181 99285 70845 46/// /0107 10174 20143 40216 58011 91750 22200 00223 10402 20402 70008 333 91209 555 11076 22079 31725 40209 61749 012072 015074 017074 018073 019072 016069
BBXX NWS0022 09184 99416 70714 43/// /2120 10118 20066 40254 5//// 7//// 8//// 222// 04124 2//// 3//// 4//// 5//// 6//// 8//// ICE /////
BBXX 42035 09181 99292 70944 46/// /1006 10164 20141 40245 51007 91750 22200 00164 10502 20502 70009 333 91207 555 11068 22073 31652 41008 61749 100064 101066 101062 099066 098068 099068
BBXX 41001 09181 99347 70727 46/// ///// 10178 20073 40252 58015 91750 22200 00223 10803 70013
BBXX 42020 09181 99270 70967 46/// /2403 10224 20152 40220 50004 91750 22200 00242 10401 20301 311// 40401 70006 333 91205 555 11026 22026 31747 42705 61749 237024 183014 178018 148011 172011 162017
BBXX 42060 09181 99163 70635 46/// /0704 10274 20222 40113 58023 91750 22200 00284 11002 20401 300// 41002 70011 333 91205 555 11043 22044 31738 40705 61749 071041 070042 069043 064043 059040 058041 80705 91713
BBXX 42012 09181 99301 70876 46/// /3504 10121 20073 40247 58011 91750 22200 00196 10701 70003 333 91205 555 11040 22041 31728 43605 61749 348037 358038 357038 005023 017019 059014
BBXX 41044 09181 99217 70587 46/// /0709 10260 20182 40146 56017 91750 22200 00268 10905 20605 300// 40902 70027 333 91211 555 11098 22104 31651 40613 61749 067093 062094 062102 063096 059105 066102 80611 91652
BBXX 42001 09181 99259 70897 46/// /3605 10209 20135 40227 58005 91750 22200 00239 10602 20401 3//// 40602 70009 333 91207 555 11055 22057 31746 43607 61749 356051 352046 350044 355044 012037 007041
BBXX 42065 09181 99149 70750 46/// /0707 10270 20236 91750 22200 10603 20603 3//// 40901 70014 333 91208 555 11075 22080 31700 40610 61749 069070 068069 072072 068082 062083 052071 80509 91700
BBXX 41048 09181 99320 70696 46/// /0907 10214 20192 40225 58014 91750 22200 00230 11005 20603 3//// 41004 70023 333 91209 555 11074 22078 31651 40710 61749 087074 086079 087073 084075 082081 081084 80809 91653
BBXX 41049 09181 99275 70630 46/// /0607 10237 20170 40211 58016 91750 22200 00247 10904 20602 300// 40903 70019 333 91208 555 11072 22076 31715 40609 61749 058067 060055 066057 063073 068069 068065 80608 91715
BBXX 42002 09181 99258 70937 46/// /0706 10205 20149 40229 50008 91750 22200 00248 10401 20401 3//// 40601 70007 333 91208 555 11059 22063 31703 40709 61749 068059 063058 067063 064058 059071 046066
BBXX 42003 09181 99260 70856 46/// /0404 1//// 91750 22200 10602 20401 303// 40601 70009 333 91206 555 11045 22047 31719 40207 61749 040042 035048 026054 033050 032048 043042 80306 91715
BBXX 41047 09181 99275 70715 46/// /1106 10246 40206 58019 91750 22200 00254 11004 20501 309// 41003 70018 333 91208 555 11058 22061 31703 41008 61749 109060 106053 113055 111060 111061 116063 81107 91713
BBXX WCX7445 09184 99648 50632 43/// /1706 10014 2//// 49812 5//// 7//// 8//// 22241 01013 2//// 3//// 4//// 5//// 6//// ICE /////
AAXX 09181 06270 17459 72805 10038 20020 30051 40051 51010 60052 78196 8//// 333 10068 81/12 83/32 85/41 91009 91116 91211
BBXX UFJN 09181 99721 10297 41/98 22107 11020 40047 57010 70200 8225/ 22200 0//// 20301
AAXX 09181 38353 419// 00000 11073 21082 39338 40286 57017 74440 333 10039
AAXX 09181 38613 429// 03601 11025 21081 40289 54000 333 10040
AAXX 09181 38616 429// 01801 11051 21072 39234 40296 56004 333 10029
AAXX 09181 38345 32998 00901 11063 21108 38818 48506 57011 333 10043
AAXX 09181 36911 429// 00901 11064 21092 39271 40281 58014 333 10031
AAXX 09181 36974 329// 02701 11138 21158 38045 48629 52009 333 11044
AAXX 09181 36982 429// 51006 11235 21260 36546 47234 58002 80001 333 11114
AAXX 09181 76040 32960 03401 10148 20028 30220 40234 52018 91750 333 10194 20010 30/// 58018 98660
AAXX 09181 76055 32980 03306 10171 21045 30188 40207 52015 91440 333 10188 20042 30/// 58015
AAXX 09181 76061 32981 10602 10146 20046 30155 40231 52018 80001 91740 333 10148 20060 30/// 56005 58015 81072
AAXX 09181 76113 32980 01501 10128 21040 39716 40196 52015 91745 333 10135 21005 30/// 58012
AAXX 09181 76122 32970 70000 10117 20056 38576 40254 52015 81024 91750 333 10120 21032 30/// 56099 58025 86357
AAXX 09181 76123 06/// /0903 10132 21056 3//// 4//// 5//// 60002 7//// 8//// 91750 333 0//// 10138 21036 56/// 57/// 5//// 60007 8//// 8//// 8//// 8//// 9//// 9//// 9//// 444 ///// 555
AAXX 09181 76220 32858 80000 10078 21022 38182 40290 52009 81035 91740 333 10078 21052 30/// 56066 58010 87070
AAXX 09181 76225 32760 50901 10138 21047 38660 40199 50007 82038 91745 333 10138 20028 30/// 56055 58020 82350 83270
AAXX 09181 76226 06/// /0801 10155 21072 38653 40150 50007 60002 7//// 8//// 91750 333 0//// 10155 20026 30/// 4//// 54/// 56/// 57/// 58019 60007 8//// 8//// 8//// 9//// 9//// 9//// 44
AAXX 09181 76256 32980 33202 10170 20034 30190 40204 52017 80001 91745 333 10184 20092 30/// 56//5 58009 83070
AAXX 09181 76258 32970 42704 10180 20091 30143 40189 52011 80004 91750 333 10185 20052 30/// 56005 58007
AAXX 09181 76305 32970 33401 10208 20098 30189 40197 52014 80003 91740 333 10212 20118 30/// 56005 58008 83070
AAXX 09181 76323 32970 43601 10190 20025 38297 40235 50000 84030 91755 333 10200 20080 30/// 56050 58007 84658
AAXX 09181 76342 31862 63602 10178 20008 39539 40264 52012 70221 86070 91750 333 10184 20076 30/// 56050 58010 86357
AAXX 09181 76373 32580 51601 10154 20004 38224 40173 57007 83212 91755 333 10178 21006 30/// 56999 59002 82825 81337 82067
AAXX 09181 76390 31962 21603 10197 21071 38257 40193 52008 70544 80004 91730 333 10208 20048 30/// 56005 58017 82070
AAXX 09181 76393 31920 30401 10202 20097 39623 40210 52001 70544 80001 91751 333 10212 20100 30/// 56007 59012
AAXX 09181 76402 31957 30901 10224 20143 30134 40192 52013 70544 80005 91745 333 10227 20106 30/// 56006 58010
AAXX 09181 76423 32680 72501 10188 20044 38178 40181 58002 85054 91750 333 10197 20070 30/// 56099 58007 85357 82067
AAXX 09181 76458 32970 23004 10222 20171 30174 40178 50002 80005 91740 333 10243 20132 30/// 56//6 59003 82072
AAXX 09181 76490 06/// /0302 10230 20077 39814 40199 50006 60002 7//// 8//// 91750 333 0//// 10231 20080 30/// 54/// 56/// 57/// 59018 60007 8//// 8//// 8//// 8//// 9//// 9//// 9//// 44
AAXX 09181 76491 32960 03601 10220 20110 39831 40231 52007 91745 333 10232 20048 30/// 59029
AAXX 09181 76499 32862 30000 10252 20137 30174 40196 57001 83030 91755 333 10253 20125 30/// 56090 59027 83357
AAXX 09181 76519 32960 32502 10206 20020 38387 40239 57001 80001 91752 333 10209 20012 30/// 56006 59004 83070
AAXX 09181 76525 32980 32103 10124 21004 37497 40181 52007 80001 91740 333 10126 20082 30/// 56//5 58012 83080
AAXX 09181 76539 31965 03601 10212 20027 38179 40212 52006 70544 91745 333 10228 20039 30/// 59003
AAXX 09181 76543 32675 72701 10229 20143 30182 40215 57009 8355/ 91739 333 10230 20153 30/// 5633/ 59032 83650 84358
AAXX 09181 76547 06/// /2102 10232 20156 30189 40201 50000 60002 7//// 8//// 91750 333 0//// 10232 20156 56/// 57/// 59032 60007 8//// 8//// 8//// 8//// 9//// 9//// 9//// 444 ///// 555
AAXX 09181 76548 32875 62002 10228 20157 30204 40214 50005 8607/ 91745 333 10232 20160 30/// 59034 86358
AAXX 09181 76556 32970 13602 10254 20122 39150 40181 52013 80001 91730 333 10256 20122 30/// 56005 59002 81070
AAXX 09181 76577 32970 32304 10190 20144 38065 40188 50001 80003 91740 333 10199 20084 30/// 56005 59003
AAXX 09181 76578 06/// /2104 10195 20041 38061 40124 50000 60002 7//// 8//// 91750 333 0//// 10195 20078 30/// 4//// 54/// 56/// 57/// 59002 60007 8//// 8//// 8//// 9//// 9//// 9//// 44
AAXX 09181 76581 32970 00301 10178 20125 39071 40199 57006 91750 333 10182 20068 30/// 59014
AAXX 09181 76585 32980 60000 10222 20181 30041 40200 50000 86070 91735 333 10225 20157 30/// 56/5/ 59026 86358
AAXX 09181 76586 06/// /0401 10239 20151 30044 40198 50001 60002 7//// 8//// 91750 333 0//// 10240 20160 30/// 4//// 54/// 56/// 57/// 59028 60007 8//// 8//// 8//// 9//// 9//// 9//// 44
AAXX 09181 76592 06/// /0310 10263 21140 30196 40196 58004 60002 7//// 8//// 91750 333 0//// 10263 20162 30/// 4//// 54/// 56/// 57/// 59007 60007 8//// 8//// 8//// 9//// 9//// 9//// 44
AAXX 09181 76593 32470 30504 10256 20221 30198 40200 58004 82270 91750 333 10264 20163 30/// 5611/ 59006 82020 81330 91006 91505
AAXX 09181 76612 32962 03101 10224 20137 38498 40190 50002 91750 333 10232 20079 30/// 59002
AAXX 09181 76625 32950 02704 10210 20078 38159 40157 57001 91740 333 10210 20096 30/// 59006
AAXX 09181 76632 31950 12102 10172 20098 37645 40150 57009 70500 81400 91750 333 10180 20075 30/// 56600 59008 81631 98550
AAXX 09181 76634 31970 00502 10218 20040 37866 40185 57008 70500 80000 91750 333 10221 20068 30/// 56/// 59002
AAXX 09181 76641 06/// /0501 10224 20180 30194 40206 58003 60002 7//// 8//// 91750 333 0//// 10224 20169 30/// 4//// 54/// 56/// 57/// 59036 60007 8//// 8//// 8//// 8//// 9//// 9//// 9/
AAXX 09181 76644 32465 30203 10273 20188 30176 40189 58010 83200 91750 333 10273 20135 30/// 568// 59011 82810 81610 91006 91502
AAXX 09181 76645 06/// /0203 10272 20157 30182 40195 58009 60002 7//// 8//// 91750 333 0//// 10275 20132 30/// 4//// 54/// 56/// 57/// 59009 60007 8//// 8//// 8//// 9//// 9//// 9//// 44
AAXX 09181 76648 06/// /0402 10275 20172 30149 40180 58012 60002 7//// 8//// 91750 333 0//// 10295 20140 30/// 4//// 54/// 56/// 57/// 59010 60007 8//// 8//// 8//// 8//// 9//// 9//// 9/
AAXX 09181 76654 31956 02702 10297 20186 30156 40160 57001 70544 91755 333 10298 20212 30/// 59011
AAXX 09181 76656 32575 33601 10234 20079 38532 40193 58001 81530 91750 333 10240 20074 30/// 56350 58001 81620
AAXX 09181 76658 31558 20902 10291 20150 39651 40158 57006 70540 81201 91742 333 10298 20175 30/// 56201 59009 81822 81070 94082 98924
AAXX 09181 76659 06/// /0801 10317 20102 3//// 4//// 5//// 60002 7//// 8//// 91750 333 0//// 10318 20159 30/// 4//// 54/// 56/// 57/// 5//// 60007 8//// 8//// 8//// 9//// 9//// 9//// 44
AAXX 09181 76662 32970 32302 10224 20111 38477 40174 57017 81202 91745 333 10232 20060 30/// 56/0/ 59005 81833
AAXX 09181 76665 32962 02101 10218 20100 38128 40161 57005 91755 333 10228 20080 30/// 59014
AAXX 09181 76675 31970 00502 10170 20018 37392 40206 56001 70544 91745 333 10175 20000 30/// 59007 98470
AAXX 09181 76681 31940 03201 10204 20080 37793 40170 57010 70500 91745 333 10204 20036 30/// 59004
AAXX 09181 76683 32970 00901 10203 20085 37840 40218 56010 91745 333 10215 20036 30/// 59008
AAXX 09181 76684 06/// /0904 10219 20012 37840 40102 58012 60002 7//// 8//// 91750 333 0//// 10232 20031 30/// 4//// 54/// 56/// 57/// 59011 60007 8//// 8//// 8//// 9//// 9//// 9//// 44
AAXX 09181 76685 31965 00000 10204 20043 37883 40176 52029 70544 92055 333 30/// 569// 59002
AAXX 09181 76687 31468 51601 10188 20130 38709 40212 50003 70311 85100 91740 333 10196 20098 30/// 563// 59015 82623 83826
AAXX 09181 76692 31556 50903 10253 20182 30180 40200 57009 70544 84230 91745 333 10262 20178 30/// 5633/ 59030 81818 83630
AAXX 09181 76693 06/// /0703 10249 20186 30176 40195 58006 60002 7//// 8//// 91750 333 0//// 10262 20179 30/// 4//// 56/// 57/// 59032 60007 8//// 8//// 8//// 8//// 9//// 9//// 9//// 44
AAXX 09181 76695 32960 02903 10254 20176 30173 40179 57005 91450 333 10256 20124 30/// 59013
AAXX 09181 76698 32560 63601 10268 20211 30168 40180 57016 86200 91750 333 10286 20156 30/// 56800 59012 86820
AAXX 09181 76727 06/// /1202 10235 20054 38412 40098 58007 60002 7//// 8//// 91750 333 0//// 10253 20120 30/// 4//// 54/// 56/// 57/// 59012 60007 8//// 8//// 8//// 9//// 9//// 9//// 44
AAXX 09181 76737 31480 31402 10208 20140 38801 40200 58001 70300 83200 91735 333 10215 20096 30/// 56200 59019 82813 91106 91514
AAXX 09181 76738 06/// /1302 10217 20130 38801 40159 58003 60002 7//// 8//// 333 10218 20089 30/// 56/// 57/// 59019 60007 8//// 8//// 8//// 8//// 9//// 9//// 9//// 444 ///// 555 30186
AAXX 09181 76743 31957 80901 10244 20192 30177 40185 58007 70222 88050 91745 333 10245 20195 30/// 56/0/ 59009 88356
AAXX 09181 76750 32560 43203 10271 20201 301167 40177 57011 83110 91750 333 10276 20168 30/// 56110 59010 83820
AAXX 09181 76751 06/// /3503 10271 20202 30167 40177 58011 60002 7//// 8//// 91750 333 0//// 10274 20169 30/// 4//// 54/// 56/// 57/// 59010 60007 8//// 8//// 8//// 9//// 9//// 9//// 44
AAXX 09181 76762 32904 03602 10276 20224 38773 40161 51005 91730 333 10277 20114 30/// 59023
AAXX 09181 76772 06/// /1801 10243 20077 38438 40112 58017 60002 7//// 8//// 91750 333 0//// 10245 20048 30/// 4//// 56/// 57/// 59012 60007 8//// 8//// 8//// 9//// 9//// 9//// 444 ////
AAXX 09181 76773 32570 12101 10238 20080 38434 40186 57013 81100 91745 333 10241 20048 30/// 56900 59012 81820
AAXX 09181 76775 31970 00901 10238 20087 38538 40194 57008 70200 91730 333 10240 20078 30/// 59015
AAXX 09181 76776 06/// /2601 10230 20076 38518 40115 58015 60002 7//// 8//// 91750 333 0//// 10231 20077 30/// 4//// 56/// 57/// 59017 60007 8//// 8//// 8//// 9//// 9//// 9//// 444 ////
AAXX 09181 76805 32970 02102 10301 20235 30134 40139 57008 91750 333 10338 20210 30/// 59001
AAXX 09181 76806 06/// /1802 10299 20219 30135 40139 58011 60002 7//// 8//// 91750 333 10313 20198 30/// 56/// 57/// 58000 60007 8//// 8//// 8//// 8//// 9//// 9//// 9//// 555 30272
AAXX 09181 76833 32970 03610 10294 20260 30135 40137 57009 91745 333 10294 20212 30/// 59003 92001
AAXX 09181 76840 32550 10304 10309 20189 30077 40133 57009 81200 91740 333 10316 20190 30/// 568// 59008 81827
AAXX 09181 76845 32960 00602 10190 20126 37958 40186 56009 91745 333 10198 20048 30/// 59007
AAXX 09181 76848 32670 10502 10211 20103 38395 40112 56006 81200 91750 333 10211 20119 30/// 56100 59005 81845 98908
AAXX 09181 76902 06/// /2302 10316 20206 39994 40129 58017 60002 7//// 8//// 91750 333 0//// 10319 20217 30/// 4//// 54/// 56/// 57/// 59004 60007 8//// 8//// 8//// 8//// 9//// 9//// 9/
AAXX 09181 76903 31580 12602 10330 20253 39999 40134 57012 70300 81100 91755 333 10338 20222 30/// 56300 59012 81821
AAXX 09181 76160 32962 31801 10150 20001 39948 40202 52018 80002 91750 333 10150 20050 30/// 56004 58011 83070
AAXX 09181 76243 32473 73601 10150 20079 39942 40246 52016 87300 91735 333 10162 20050 30/// 56800 58009 87616
AAXX 09181 76253 32782 30503 10178 20100 30119 40209 53011 83020 91754 333 10190 20125 30/// 56050 58006 83457 92002
AAXX 09181 76311 32980 00000 10236 20093 39898 40180 52009 91755 333 10246 20090 30/// 58004
AAXX 09181 76405 32880 73601 10214 20156 30176 40196 51013 87020 91750 333 10214 20138 30/// 56050 58007 87557
AAXX 09181 76412 31966 02201 10224 20106 30140 40185 57015 70544 91750 333 10228 20090 30/// 59014
AAXX 09181 76640 11358 83202 10198 20179 30212 40224 52006 69921 70222 8652/ 91740 333 10214 20166 30/// 5679/ 59041 86608
AAXX 09181 76647 32670 60502 10275 20187 30166 40196 57004 86200 91750 333 10286 20144 30/// 56100 59010 86836
AAXX 09181 76741 31460 40000 10237 20210 30151 40170 52005 70544 83230 91735 333 10241 20160 30/// 562// 59024 83811
AAXX 09181 76843 32465 30202 10264 20164 39511 57014 83200 91740 333 10269 20170 30/// 59019 83828
AAXX 09181 76855 32580 11301 10300 20237 30075 40124 50004 81200 91740 333 10310 20206 30/// 56900 58001 81820 92000
AAXX 09181 15502 12970 52902 11006 21006 30193 40234 56003 60002 85050 333 10112 21034 555 500//
AAXX 09181 15525 12970 52002 10018 21036 39972 40246 56006 60002 83031 333 10110 20018 555 567//
AAXX 09181 15528 12968 20000 10034 21037 30029 40223 56006 60002 82010 333 10105 20020 555 560//
AAXX 09181 15535 12970 81801 10033 21002 30185 40233 57007 60002 80007 333 10093 20024 555 578//
AAXX 09181 15549 12970 31801 10017 21023 39829 40258 58008 60002 83042 333 10073 21003 555 575//
AAXX 09181 15552 12965 03202 10038 21018 30201 40251 54000 60002 222// 2//00 314// 4//00 333 10106 20026 555 567// 92012 92417
AAXX 09181 15614 12666 30000 10000 21036 39540 40270 57005 60002 82101 333 10048 21048 42002 555 577//
AAXX 09181 15615 11986 23212 11079 21165 37139 47079 52006 60002 70200 80001 333 11076 21154 555 550//
AAXX 09181 15626 12970 40000 10008 21092 30057 40253 54000 60002 80002 333 10115 20006 555 547//
AAXX 09181 15627 11989 23410 11046 21157 37631 47062 51004 60002 70200 80001 333 11046 21124 48002 555 541//
AAXX 09181 15640 12974 02903 10032 21050 39945 40267 53002 60002 333 10102 20051 555 555//
AAXX 09181 15655 12970 82302 10052 21001 30219 40253 57003 60002 80007 222// 00091 20000 333 10114 20040 555 569// 92014 92418
AAXX 09181 15712 12680 13602 10026 21033 30016 40275 53007 60002 81200 333 10106 21010 555 565//
AAXX 09181 15730 12980 21804 10048 21024 39864 40265 53005 60002 80002 333 10123 20009 555 560//
AAXX 09181 14240 12670 61901 10120 20059 30016 40170 58005 60002 82530 333 10121
AAXX 09181 14258 12670 71903 10118 20043 39989 40175 57001 60002 87500 333 10140 87633
AAXX 09181 14445 12670 81508 10129 20054 30081 40235 52006 60002 8682/ 333 10136 86896 82499 92323
AAXX 09184 16622 12960 01006 10032 21039 30273 40283 52010 60002 333 10112 90730 91108 555 10000 40032 30000 10062 2//// 30084 4//// 5//// 40000 47736 44220 50000 50008
AAXX 09184 16641 12960 00000 10078 20060 30258 40263 52005 60002 333 10162 90730 91104 555 10000 40036 40000 47726 44220 50000 50070
AAXX 09184 16682 12960 00000 10090 20050 30233 40251 53004 60002 333 10166 90730 91106 555 10000 40030 30000 10100 20120 30124 40128 50143 60195 40000 47706 44210 50000 50072
AAXX 09184 16716 12970 00000 10084 20010 30259 40278 51005 60002 333 10150 555 10000 40080 40000 47721 44170 50000 50054
AAXX 09184 16734 17/// /0207 10111 20061 30216 40278 52009 69902 7214/ 333 10186 90730 91114 555 10000 40072 60000 65555 60002
AAXX 09184 16743 NIL
AAXX 09184 16749 12860 13207 10124 20017 30238 40253 52011 60002 81040 333 10136 90730 91119 555 10000 40118 40000 47708 44190 50000 50078
AAXX 09184 16754 12560 12006 10074 20042 30226 40275 52006 60002 81100 333 10148 90730 91108 555 10000 40074 40000 47702 44210 50000 50060
AAXX 09181 26509 11470 62309 10064 20025 39954 49963 53005 60072 70186 85230 333 10066 91015 91118 555 53018
AAXX 09181 26518 11365 82007 10021 20018 49979 53004 60062 72176 8872/ 333 10022 88508 91011 91112 555 4/015 53017
AAXX 09181 26524 11397 82004 10019 20016 39845 49977 58008 60052 78076 883// 333 10019 88709 91009 91112 555 4/003 53014
AAXX 09181 26531 11257 81905 10011 20008 49991 57011 60022 71076 886// 333 10016 88705 91009 91112 555 4/998 53014
AAXX 09181 26629 11496 72105 10017 20017 39918 40013 57004 60032 71076 87500 333 10019 87610 91007 91114 92980 555 4/001 53015
AAXX 09181 26633 11464 81904 10010 21001 39885 40016 57010 60042 77177 8872/ 333 10014 88712 91007 91112 555 4/001 53012
AAXX 09181 26730 11259 81904 10003 20003 39843 40036 57008 60032 72176 886// 333 10010 88704 91007 91114 92980 555 42001 53014
AAXX 09184 47101 31940 00001 11068 21080 30182 40284 52008 71000
AAXX 09184 47105 369// /2510 11021 21111 30207 40240 55003
AAXX 09184 47108 32970 00001 11045 21157 30167 40278 58004
AAXX 09184 47115 41550 70000 10000 20000 39948 40228 55005 77077 87800 333 92040
AAXX 09184 47133 32663 20001 11043 21079 30201 40290 50007 82500
AAXX 09184 47138 32968 02505 11009 21088 30249 40252 50002 333 92032
AAXX 09184 47159 32972 01405 11011 21104 30166 40255 52007 333 92022
AAXX 09184 47165 32662 61602 11004 21034 30236 40285 55005 86500 333 92021
AAXX 09184 47168 32670 23411 11008 21110 30188 40271 50002 81500 333 92024
AAXX 09184 47184 41568 73213 10061 21030 30253 40279 55002 78082 87800 333 92044
AAXX 09184 16614 12960 00000 10010 21038 39490 40297 54000 60002 333 10072 90730 91106 555 10000 41056
AAXX 09184 16627 12560 20704 10042 20011 30271 40275 54000 60002 82100 333 10122 90730 91108 555 10000 40002 30000 10068 20072 30084 40088 50102 6//// 40000 47737 44240 50000 50030
AAXX 09184 16667 12975 00000 10060 21009 30274 40279 53005 60002 333 10130 90730 91109 555 10000 40046 30000 20082 30104 40000 47733 44180 50000 50034
AAXX 09184 16675 NIL
AAXX 09184 16710 36/// /9901 10076 20024 39507 40290 52011 333 10128 90730 91114 555 10000 41024
AAXX 09184 16723 12960 00411 10080 20017 30259 40275 53012 60002 333 10124 90730 91120 555 10000 40080 40000 47729 44230 50000 50054
AAXX 09184 16738 NIL
AAXX 09184 16746 12560 21504 10086 20045 30089 40276 53006 60002 82200 333 10138 90730 91109 555 10000 40086 40000 47595 44180 50000 50068
AAXX 09184 16643 12960 00000 10080 20053 30279 40285 52013 60002 333 10150 90730 91104 555 10000 40080 40000 47742 44220 50000 50068
AAXX 09184 16648 12960 00000 10046 21042 30179 40273 53004 60002 333 10132 90730 91106 555 10000 41032 30000 10062 2//// 30082 40082 5//// 6//// 40000 47665 44210 50000 50016
AAXX 09184 16650 12560 10000 10048 20012 30263 40267 52003 60002 81100 333 10130 90730 91104 555 10000 40032 30000 10084 20088 30090 40092 50120 60140 40000 47731 44240 50000 50034
AAXX 09184 16684 12960 00000 10056 21007 30242 40270 51002 60002 333 10134 90730 91104 555 10000 40056 40000 47714 44220 50000 50032
AAXX 09184 16732 12580 13610 10118 20026 30269 40280 53013 60002 81100 333 10138 90730 91121 555 10000 40118 40000 47725 44140 50000 50078
BBXX LF4H 09184 99596 10022 46/// /2940 10011 21004 49859 52025 8//// 22200 06084 10917 70087 333 91153
BBXX LGWS 09181 99299 70100 43/// /0204 10185 20147 40197 5//// 222/0 04170 1//// 3//// 4//// 5////
BBXX LMEL 09181 99603 10053 43/// /2808 10036 20036 49790 5//// 222/2 04079 1//// 3//// 4//// 5////
AAXX 09181 76040 32960 03401 10148 20028 30220 40234 52018 91750 333 10194 20010 30/// 58018 98660
AAXX 09181 76055 32980 03306 10171 21045 30188 40207 52015 91440 333 10188 20042 30/// 58015
AAXX 09181 76061 32981 10602 10146 20046 30155 40231 52018 80001 91740 333 10148 20060 30/// 56005 58015 81072
AAXX 09181 76113 32980 01501 10128 21040 39716 40196 52015 91745 333 10135 21005 30/// 58012
AAXX 09181 76122 32970 70000 10117 20056 38576 40254 52015 81024 91750 333 10120 21032 30/// 56099 58025 86357
AAXX 09181 76123 06/// /0903 10132 21056 3//// 4//// 5//// 60002 7//// 8//// 91750 333 0//// 10138 21036 56/// 57/// 5//// 60007 8//// 8//// 8//// 8//// 9//// 9//// 9//// 444 ///// 555
AAXX 09181 76220 32858 80000 10078 21022 38182 40290 52009 81035 91740 333 10078 21052 30/// 56066 58010 87070
AAXX 09181 76225 32760 50901 10138 21047 38660 40199 50007 82038 91745 333 10138 20028 30/// 56055 58020 82350 83270
AAXX 09181 76226 06/// /0801 10155 21072 38653 40150 50007 60002 7//// 8//// 91750 333 0//// 10155 20026 30/// 4//// 54/// 56/// 57/// 58019 60007 8//// 8//// 8//// 9//// 9//// 9//// 44
AAXX 09181 76256 32980 33202 10170 20034 30190 40204 52017 80001 91745 333 10184 20092 30/// 56//5 58009 83070
AAXX 09181 76258 32970 42704 10180 20091 30143 40189 52011 80004 91750 333 10185 20052 30/// 56005 58007
AAXX 09181 76305 32970 33401 10208 20098 30189 40197 52014 80003 91740 333 10212 20118 30/// 56005 58008 83070
AAXX 09181 76323 32970 43601 10190 20025 38297 40235 50000 84030 91755 333 10200 20080 30/// 56050 58007 84658
AAXX 09181 76342 31862 63602 10178 20008 39539 40264 52012 70221 86070 91750 333 10184 20076 30/// 56050 58010 86357
AAXX 09181 76373 32580 51601 10154 20004 38224 40173 57007 83212 91755 333 10178 21006 30/// 56999 59002 82825 81337 82067
AAXX 09181 76390 31962 21603 10197 21071 38257 40193 52008 70544 80004 91730 333 10208 20048 30/// 56005 58017 82070
AAXX 09181 76393 31920 30401 10202 20097 39623 40210 52001 70544 80001 91751 333 10212 20100 30/// 56007 59012
AAXX 09181 76402 31957 30901 10224 20143 30134 40192 52013 70544 80005 91745 333 10227 20106 30/// 56006 58010
AAXX 09181 76423 32680 72501 10188 20044 38178 40181 58002 85054 91750 333 10197 20070 30/// 56099 58007 85357 82067
AAXX 09181 76458 32970 23004 10222 20171 30174 40178 50002 80005 91740 333 10243 20132 30/// 56//6 59003 82072
AAXX 09181 76490 06/// /0302 10230 20077 39814 40199 50006 60002 7//// 8//// 91750 333 0//// 10231 20080 30/// 54/// 56/// 57/// 59018 60007 8//// 8//// 8//// 8//// 9//// 9//// 9//// 44
AAXX 09181 76491 32960 03601 10220 20110 39831 40231 52007 91745 333 10232 20048 30/// 59029
AAXX 09181 76499 32862 30000 10252 20137 30174 40196 57001 83030 91755 333 10253 20125 30/// 56090 59027 83357
AAXX 09181 76519 32960 32502 10206 20020 38387 40239 57001 80001 91752 333 10209 20012 30/// 56006 59004 83070
AAXX 09181 76525 32980 32103 10124 21004 37497 40181 52007 80001 91740 333 10126 20082 30/// 56//5 58012 83080
AAXX 09181 76539 31965 03601 10212 20027 38179 40212 52006 70544 91745 333 10228 20039 30/// 59003
AAXX 09181 76543 32675 72701 10229 20143 30182 40215 57009 8355/ 91739 333 10230 20153 30/// 5633/ 59032 83650 84358
AAXX 09181 76547 06/// /2102 10232 20156 30189 40201 50000 60002 7//// 8//// 91750 333 0//// 10232 20156 56/// 57/// 59032 60007 8//// 8//// 8//// 8//// 9//// 9//// 9//// 444 ///// 555
AAXX 09181 76548 32875 62002 10228 20157 30204 40214 50005 8607/ 91745 333 10232 20160 30/// 59034 86358
AAXX 09181 76556 32970 13602 10254 20122 39150 40181 52013 80001 91730 333 10256 20122 30/// 56005 59002 81070
AAXX 09181 76577 32970 32304 10190 20144 38065 40188 50001 80003 91740 333 10199 20084 30/// 56005 59003
AAXX 09181 76578 06/// /2104 10195 20041 38061 40124 50000 60002 7//// 8//// 91750 333 0//// 10195 20078 30/// 4//// 54/// 56/// 57/// 59002 60007 8//// 8//// 8//// 9//// 9//// 9//// 44
AAXX 09181 76581 32970 00301 10178 20125 39071 40199 57006 91750 333 10182 20068 30/// 59014
AAXX 09181 76585 32980 60000 10222 20181 30041 40200 50000 86070 91735 333 10225 20157 30/// 56/5/ 59026 86358
AAXX 09181 76586 06/// /0401 10239 20151 30044 40198 50001 60002 7//// 8//// 91750 333 0//// 10240 20160 30/// 4//// 54/// 56/// 57/// 59028 60007 8//// 8//// 8//// 9//// 9//// 9//// 44
AAXX 09181 76592 06/// /0310 10263 21140 30196 40196 58004 60002 7//// 8//// 91750 333 0//// 10263 20162 30/// 4//// 54/// 56/// 57/// 59007 60007 8//// 8//// 8//// 9//// 9//// 9//// 44
AAXX 09181 76593 32470 30504 10256 20221 30198 40200 58004 82270 91750 333 10264 20163 30/// 5611/ 59006 82020 81330 91006 91505
AAXX 09181 76612 32962 03101 10224 20137 38498 40190 50002 91750 333 10232 20079 30/// 59002
AAXX 09181 76625 32950 02704 10210 20078 38159 40157 57001 91740 333 10210 20096 30/// 59006
AAXX 09181 76632 31950 12102 10172 20098 37645 40150 57009 70500 81400 91750 333 10180 20075 30/// 56600 59008 81631 98550
AAXX 09181 76634 31970 00502 10218 20040 37866 40185 57008 70500 80000 91750 333 10221 20068 30/// 56/// 59002
AAXX 09181 76641 06/// /0501 10224 20180 30194 40206 58003 60002 7//// 8//// 91750 333 0//// 10224 20169 30/// 4//// 54/// 56/// 57/// 59036 60007 8//// 8//// 8//// 8//// 9//// 9//// 9/
AAXX 09181 76644 32465 30203 10273 20188 30176 40189 58010 83200 91750 333 10273 20135 30/// 568// 59011 82810 81610 91006 91502
AAXX 09181 76645 06/// /0203 10272 20157 30182 40195 58009 60002 7//// 8//// 91750 333 0//// 10275 20132 30/// 4//// 54/// 56/// 57/// 59009 60007 8//// 8//// 8//// 9//// 9//// 9//// 44
AAXX 09181 76648 06/// /0402 10275 20172 30149 40180 58012 60002 7//// 8//// 91750 333 0//// 10295 20140 30/// 4//// 54/// 56/// 57/// 59010 60007 8//// 8//// 8//// 8//// 9//// 9//// 9/
AAXX 09181 76654 31956 02702 10297 20186 30156 40160 57001 70544 91755 333 10298 20212 30/// 59011
AAXX 09181 76656 32575 33601 10234 20079 38532 40193 58001 81530 91750 333 10240 20074 30/// 56350 58001 81620
AAXX 09181 76658 31558 20902 10291 20150 39651 40158 57006 70540 81201 91742 333 10298 20175 30/// 56201 59009 81822 81070 94082 98924
AAXX 09181 76659 06/// /0801 10317 20102 3//// 4//// 5//// 60002 7//// 8//// 91750 333 0//// 10318 20159 30/// 4//// 54/// 56/// 57/// 5//// 60007 8//// 8//// 8//// 9//// 9//// 9//// 44
AAXX 09181 76662 32970 32302 10224 20111 38477 40174 57017 81202 91745 333 10232 20060 30/// 56/0/ 59005 81833
AAXX 09181 76665 32962 02101 10218 20100 38128 40161 57005 91755 333 10228 20080 30/// 59014
AAXX 09181 76675 31970 00502 10170 20018 37392 40206 56001 70544 91745 333 10175 20000 30/// 59007 98470
AAXX 09181 76681 31940 03201 10204 20080 37793 40170 57010 70500 91745 333 10204 20036 30/// 59004
AAXX 09181 76683 32970 00901 10203 20085 37840 40218 56010 91745 333 10215 20036 30/// 59008
AAXX 09181 76684 06/// /0904 10219 20012 37840 40102 58012 60002 7//// 8//// 91750 333 0//// 10232 20031 30/// 4//// 54/// 56/// 57/// 59011 60007 8//// 8//// 8//// 9//// 9//// 9//// 44
AAXX 09181 76685 31965 00000 10204 20043 37883 40176 52029 70544 92055 333 30/// 569// 59002
AAXX 09181 76687 31468 51601 10188 20130 38709 40212 50003 70311 85100 91740 333 10196 20098 30/// 563// 59015 82623 83826
AAXX 09181 76692 31556 50903 10253 20182 30180 40200 57009 70544 84230 91745 333 10262 20178 30/// 5633/ 59030 81818 83630
AAXX 09181 76693 06/// /0703 10249 20186 30176 40195 58006 60002 7//// 8//// 91750 333 0//// 10262 20179 30/// 4//// 56/// 57/// 59032 60007 8//// 8//// 8//// 8//// 9//// 9//// 9//// 44
AAXX 09181 76695 32960 02903 10254 20176 30173 40179 57005 91450 333 10256 20124 30/// 59013
AAXX 09181 76698 32560 63601 10268 20211 30168 40180 57016 86200 91750 333 10286 20156 30/// 56800 59012 86820
AAXX 09181 76727 06/// /1202 10235 20054 38412 40098 58007 60002 7//// 8//// 91750 333 0//// 10253 20120 30/// 4//// 54/// 56/// 57/// 59012 60007 8//// 8//// 8//// 9//// 9//// 9//// 44
AAXX 09181 76737 31480 31402 10208 20140 38801 40200 58001 70300 83200 91735 333 10215 20096 30/// 56200 59019 82813 91106 91514
AAXX 09181 76738 06/// /1302 10217 20130 38801 40159 58003 60002 7//// 8//// 333 10218 20089 30/// 56/// 57/// 59019 60007 8//// 8//// 8//// 8//// 9//// 9//// 9//// 444 ///// 555 30186
AAXX 09181 76743 31957 80901 10244 20192 30177 40185 58007 70222 88050 91745 333 10245 20195 30/// 56/0/ 59009 88356
AAXX 09181 76750 32560 43203 10271 20201 301167 40177 57011 83110 91750 333 10276 20168 30/// 56110 59010 83820
AAXX 09181 76751 06/// /3503 10271 20202 30167 40177 58011 60002 7//// 8//// 91750 333 0//// 10274 20169 30/// 4//// 54/// 56/// 57/// 59010 60007 8//// 8//// 8//// 9//// 9//// 9//// 44
AAXX 09181 76762 32904 03602 10276 20224 38773 40161 51005 91730 333 10277 20114 30/// 59023
AAXX 09181 76772 06/// /1801 10243 20077 38438 40112 58017 60002 7//// 8//// 91750 333 0//// 10245 20048 30/// 4//// 56/// 57/// 59012 60007 8//// 8//// 8//// 9//// 9//// 9//// 444 ////
AAXX 09181 76773 32570 12101 10238 20080 38434 40186 57013 81100 91745 333 10241 20048 30/// 56900 59012 81820
AAXX 09181 76775 31970 00901 10238 20087 38538 40194 57008 70200 91730 333 10240 20078 30/// 59015
AAXX 09181 76776 06/// /2601 10230 20076 38518 40115 58015 60002 7//// 8//// 91750 333 0//// 10231 20077 30/// 4//// 56/// 57/// 59017 60007 8//// 8//// 8//// 9//// 9//// 9//// 444 ////
AAXX 09181 76805 32970 02102 10301 20235 30134 40139 57008 91750 333 10338 20210 30/// 59001
AAXX 09181 76806 06/// /1802 10299 20219 30135 40139 58011 60002 7//// 8//// 91750 333 10313 20198 30/// 56/// 57/// 58000 60007 8//// 8//// 8//// 8//// 9//// 9//// 9//// 555 30272
AAXX 09181 76833 32970 03610 10294 20260 30135 40137 57009 91745 333 10294 20212 30/// 59003 92001
AAXX 09181 76840 32550 10304 10309 20189 30077 40133 57009 81200 91740 333 10316 20190 30/// 568// 59008 81827
AAXX 09181 76845 32960 00602 10190 20126 37958 40186 56009 91745 333 10198 20048 30/// 59007
AAXX 09181 76848 32670 10502 10211 20103 38395 40112 56006 81200 91750 333 10211 20119 30/// 56100 59005 81845 98908
AAXX 09181 76902 06/// /2302 10316 20206 39994 40129 58017 60002 7//// 8//// 91750 333 0//// 10319 20217 30/// 4//// 54/// 56/// 57/// 59004 60007 8//// 8//// 8//// 8//// 9//// 9//// 9/
AAXX 09181 76903 31580 12602 10330 20253 39999 40134 57012 70300 81100 91755 333 10338 20222 30/// 56300 59012 81821
AAXX 09181 76160 32962 31801 10150 20001 39948 40202 52018 80002 91750 333 10150 20050 30/// 56004 58011 83070
AAXX 09181 76243 32473 73601 10150 20079 39942 40246 52016 87300 91735 333 10162 20050 30/// 56800 58009 87616
AAXX 09181 76253 32782 30503 10178 20100 30119 40209 53011 83020 91754 333 10190 20125 30/// 56050 58006 83457 92002
AAXX 09181 76311 32980 00000 10236 20093 39898 40180 52009 91755 333 10246 20090 30/// 58004
AAXX 09181 76405 32880 73601 10214 20156 30176 40196 51013 87020 91750 333 10214 20138 30/// 56050 58007 87557
AAXX 09181 76412 31966 02201 10224 20106 30140 40185 57015 70544 91750 333 10228 20090 30/// 59014
AAXX 09181 76640 11358 83202 10198 20179 30212 40224 52006 69921 70222 8652/ 91740 333 10214 20166 30/// 5679/ 59041 86608
AAXX 09181 76647 32670 60502 10275 20187 30166 40196 57004 86200 91750 333 10286 20144 30/// 56100 59010 86836
AAXX 09181 76741 31460 40000 10237 20210 30151 40170 52005 70544 83230 91735 333 10241 20160 30/// 562// 59024 83811
AAXX 09181 76843 32465 30202 10264 20164 39511 57014 83200 91740 333 10269 20170 30/// 59019 83828
AAXX 09181 76855 32580 11301 10300 20237 30075 40124 50004 81200 91740 333 10310 20206 30/// 56900 58001 81820 92000
AAXX 09184 91925 02580 21016 10285 20208 30074 40134 51019 60001 82800 333 56200 60007 82820 90710 91122 555 60005 10822 58012
AAXX 09184 91929 04/86 /2503 10284 20233 30119 40122 51016 69922 700// 333 10284 20231 60007 90710 91107 555 60005
AAXX 09184 91938 01570 72702 10276 20194 30118 40120 51018 69902 715// 85831 333 10276 20240 60007 82821 83656 90710 91113 555 60005 12214 59010
AAXX 09184 91944 06/// /3518 10276 20209 30118 40121 51016 60002 333 10276 20260 60007 90710 91124 555 60005
AAXX 09184 91948 01450 80116 10221 20200 30036 40139 51020 60021 72586 8784/ 333 56179 60027 83816 85820 90710 91138 555 60025 10138 59005
AAXX 09184 91954 06/// /1208 1//// 2//// 30117 4//// 51010 60001 333 60007 555 59003
AAXX 09184 91958 01581 50411 10223 20159 30129 40131 53008 69901 70386 85200 333 56300 69907 85823 90710 91127 555 60005 10527 59023
AAXX 09184 91943 NIL
AAXX 09184 91945 NIL
AAXX 09181 76040 32960 03401 10148 20028 30220 40234 52018 91750 33310194 20010 30/// 58018 98660
AAXX 09181 76055 32980 03306 10171 21045 30188 40207 52015 91440 33310188 20042 30/// 58015
AAXX 09181 76061 32981 10602 10146 20046 30155 40231 52018 80001 91740333 10148 20060 30/// 56005 58015 81072
AAXX 09181 76113 32980 01501 10128 21040 39716 40196 52015 91745 33310135 21005 30/// 58012
AAXX 09181 76122 32970 70000 10117 20056 38576 40254 52015 81024 91750333 10120 21032 30/// 56099 58025 86357
AAXX 09181 76123 06/// /0903 10132 21056 3//// 4//// 5//// 60002 7////8//// 91750 333 0//// 10138 21036 56/// 57/// 5//// 600078//// 8//// 8//// 8//// 9//// 9//// 9//// 444 ///// 555
AAXX 09181 76220 32858 80000 10078 21022 38182 40290 52009 81035 91740333 10078 21052 30/// 56066 58010 87070
AAXX 09181 76225 32760 50901 10138 21047 38660 40199 50007 82038 91745333 10138 20028 30/// 56055 58020 82350 83270
AAXX 09181 76226 06/// /0801 10155 21072 38653 40150 50007 60002 7////8//// 91750 333 0//// 10155 20026 30/// 4//// 54/// 56///57/// 58019 60007 8//// 8//// 8//// 9//// 9//// 9//// 44
AAXX 09181 76256 32980 33202 10170 20034 30190 40204 52017 80001 91745333 10184 20092 30/// 56//5 58009 83070
AAXX 09181 76258 32970 42704 10180 20091 30143 40189 52011 80004 91750333 10185 20052 30/// 56005 58007
AAXX 09181 76305 32970 33401 10208 20098 30189 40197 52014 80003 91740333 10212 20118 30/// 56005 58008 83070
AAXX 09181 76323 32970 43601 10190 20025 38297 40235 50000 84030 91755333 10200 20080 30/// 56050 58007 84658
AAXX 09181 76342 31862 63602 10178 20008 39539 40264 52012 70221 8607091750 333 10184 20076 30/// 56050 58010 86357
AAXX 09181 76373 32580 51601 10154 20004 38224 40173 57007 83212 91755333 10178 21006 30/// 56999 59002 82825 81337 82067
AAXX 09181 76390 31962 21603 10197 21071 38257 40193 52008 70544 8000491730 333 10208 20048 30/// 56005 58017 82070
AAXX 09181 76393 31920 30401 10202 20097 39623 40210 52001 70544 8000191751 333 10212 20100 30/// 56007 59012
AAXX 09181 76402 31957 30901 10224 20143 30134 40192 52013 70544 8000591745 333 10227 20106 30/// 56006 58010
AAXX 09181 76423 32680 72501 10188 20044 38178 40181 58002 85054 91750333 10197 20070 30/// 56099 58007 85357 82067
AAXX 09181 76458 32970 23004 10222 20171 30174 40178 50002 80005 91740333 10243 20132 30/// 56//6 59003 82072
AAXX 09181 76490 06/// /0302 10230 20077 39814 40199 50006 60002 7////8//// 91750 333 0//// 10231 20080 30/// 54/// 56/// 57///59018 60007 8//// 8//// 8//// 8//// 9//// 9//// 9//// 44
AAXX 09181 76491 32960 03601 10220 20110 39831 40231 52007 91745 33310232 20048 30/// 59029
AAXX 09181 76499 32862 30000 10252 20137 30174 40196 57001 83030 91755333 10253 20125 30/// 56090 59027 83357
AAXX 09181 76519 32960 32502 10206 20020 38387 40239 57001 80001 91752333 10209 20012 30/// 56006 59004 83070
AAXX 09181 76525 32980 32103 10124 21004 37497 40181 52007 80001 91740333 10126 20082 30/// 56//5 58012 83080
AAXX 09181 76539 31965 03601 10212 20027 38179 40212 52006 70544 91745333 10228 20039 30/// 59003
AAXX 09181 76543 32675 72701 10229 20143 30182 40215 57009 8355/ 91739333 10230 20153 30/// 5633/ 59032 83650 84358
AAXX 09181 76547 06/// /2102 10232 20156 30189 40201 50000 60002 7////8//// 91750 333 0//// 10232 20156 56/// 57/// 59032 600078//// 8//// 8//// 8//// 9//// 9//// 9//// 444 ///// 555
AAXX 09181 76548 32875 62002 10228 20157 30204 40214 50005 8607/ 91745333 10232 20160 30/// 59034 86358
AAXX 09181 76556 32970 13602 10254 20122 39150 40181 52013 80001 91730333 10256 20122 30/// 56005 59002 81070
AAXX 09181 76577 32970 32304 10190 20144 38065 40188 50001 80003 91740333 10199 20084 30/// 56005 59003
AAXX 09181 76578 06/// /2104 10195 20041 38061 40124 50000 60002 7////8//// 91750 333 0//// 10195 20078 30/// 4//// 54/// 56///57/// 59002 60007 8//// 8//// 8//// 9//// 9//// 9//// 44
AAXX 09181 76581 32970 00301 10178 20125 39071 40199 57006 91750 33310182 20068 30/// 59014
AAXX 09181 76585 32980 60000 10222 20181 30041 40200 50000 86070 91735333 10225 20157 30/// 56/5/ 59026 86358
AAXX 09181 76586 06/// /0401 10239 20151 30044 40198 50001 60002 7////8//// 91750 333 0//// 10240 20160 30/// 4//// 54/// 56///57/// 59028 60007 8//// 8//// 8//// 9//// 9//// 9//// 44
AAXX 09181 76592 06/// /0310 10263 21140 30196 40196 58004 60002 7////8//// 91750 333 0//// 10263 20162 30/// 4//// 54/// 56///57/// 59007 60007 8//// 8//// 8//// 9//// 9//// 9//// 44
AAXX 09181 76593 32470 30504 10256 20221 30198 40200 58004 82270 91750333 10264 20163 30/// 5611/ 59006 82020 81330 91006 91505
AAXX 09181 76612 32962 03101 10224 20137 38498 40190 50002 91750 33310232 20079 30/// 59002
AAXX 09181 76625 32950 02704 10210 20078 38159 40157 57001 91740 33310210 20096 30/// 59006
AAXX 09181 76632 31950 12102 10172 20098 37645 40150 57009 70500 8140091750 333 10180 20075 30/// 56600 59008 81631 98550
AAXX 09181 76634 31970 00502 10218 20040 37866 40185 57008 70500 8000091750 333 10221 20068 30/// 56/// 59002
AAXX 09181 76641 06/// /0501 10224 20180 30194 40206 58003 60002 7////8//// 91750 333 0//// 10224 20169 30/// 4//// 54/// 56///57/// 59036 60007 8//// 8//// 8//// 8//// 9//// 9//// 9/
AAXX 09181 76644 32465 30203 10273 20188 30176 40189 58010 83200 91750333 10273 20135 30/// 568// 59011 82810 81610 91006 91502
AAXX 09181 76645 06/// /0203 10272 20157 30182 40195 58009 60002 7////8//// 91750 333 0//// 10275 20132 30/// 4//// 54/// 56///57/// 59009 60007 8//// 8//// 8//// 9//// 9//// 9//// 44
AAXX 09181 76648 06/// /0402 10275 20172 30149 40180 58012 60002 7////8//// 91750 333 0//// 10295 20140 30/// 4//// 54/// 56///57/// 59010 60007 8//// 8//// 8//// 8//// 9//// 9//// 9/
AAXX 09181 76654 31956 02702 10297 20186 30156 40160 57001 70544 91755333 10298 20212 30/// 59011
AAXX 09181 76656 32575 33601 10234 20079 38532 40193 58001 81530 91750333 10240 20074 30/// 56350 58001 81620
AAXX 09181 76658 31558 20902 10291 20150 39651 40158 57006 70540 8120191742 333 10298 20175 30/// 56201 59009 81822 81070 9408298924
AAXX 09181 76659 06/// /0801 10317 20102 3//// 4//// 5//// 60002 7////8//// 91750 333 0//// 10318 20159 30/// 4//// 54/// 56///57/// 5//// 60007 8//// 8//// 8//// 9//// 9//// 9//// 44
AAXX 09181 76662 32970 32302 10224 20111 38477 40174 57017 81202 91745333 10232 20060 30/// 56/0/ 59005 81833
AAXX 09181 76665 32962 02101 10218 20100 38128 40161 57005 91755 33310228 20080 30/// 59014
AAXX 09181 76675 31970 00502 10170 20018 37392 40206 56001 70544 91745333 10175 20000 30/// 59007 98470
AAXX 09181 76681 31940 03201 10204 20080 37793 40170 57010 70500 91745333 10204 20036 30/// 59004
AAXX 09181 76683 32970 00901 10203 20085 37840 40218 56010 91745 33310215 20036 30/// 59008
AAXX 09181 76684 06/// /0904 10219 20012 37840 40102 58012 60002 7////8//// 91750 333 0//// 10232 20031 30/// 4//// 54/// 56///57/// 59011 60007 8//// 8//// 8//// 9//// 9//// 9//// 44
AAXX 09181 76685 31965 00000 10204 20043 37883 40176 52029 70544 92055333 30/// 569// 59002
AAXX 09181 76687 31468 51601 10188 20130 38709 40212 50003 70311 8510091740 333 10196 20098 30/// 563// 59015 82623 83826
AAXX 09181 76692 31556 50903 10253 20182 30180 40200 57009 70544 8423091745 333 10262 20178 30/// 5633/ 59030 81818 83630
AAXX 09181 76693 06/// /0703 10249 20186 30176 40195 58006 60002 7////8//// 91750 333 0//// 10262 20179 30/// 4//// 56/// 57///59032 60007 8//// 8//// 8//// 8//// 9//// 9//// 9//// 44
AAXX 09181 76695 32960 02903 10254 20176 30173 40179 57005 91450 33310256 20124 30/// 59013
AAXX 09181 76698 32560 63601 10268 20211 30168 40180 57016 86200 91750333 10286 20156 30/// 56800 59012 86820
AAXX 09181 76727 06/// /1202 10235 20054 38412 40098 58007 60002 7////8//// 91750 333 0//// 10253 20120 30/// 4//// 54/// 56///57/// 59012 60007 8//// 8//// 8//// 9//// 9//// 9//// 44
AAXX 09181 76737 31480 31402 10208 20140 38801 40200 58001 70300 8320091735 333 10215 20096 30/// 56200 59019 82813 91106 91514
AAXX 09181 76738 06/// /1302 10217 20130 38801 40159 58003 60002 7////8//// 333 10218 20089 30/// 56/// 57/// 59019 60007 8////8//// 8//// 8//// 9//// 9//// 9//// 444 ///// 555 30186
AAXX 09181 76743 31957 80901 10244 20192 30177 40185 58007 70222 8805091745 333 10245 20195 30/// 56/0/ 59009 88356
AAXX 09181 76750 32560 43203 10271 20201 301167 40177 57011 83110 91750 333 10276 20168 30/// 56110 59010 83820
AAXX 09181 76751 06/// /3503 10271 20202 30167 40177 58011 60002 7////8//// 91750 333 0//// 10274 20169 30/// 4//// 54/// 56///57/// 59010 60007 8//// 8//// 8//// 9//// 9//// 9//// 44
AAXX 09181 76762 32904 03602 10276 20224 38773 40161 51005 91730 33310277 20114 30/// 59023
AAXX 09181 76772 06/// /1801 10243 20077 38438 40112 58017 60002 7////8//// 91750 333 0//// 10245 20048 30/// 4//// 56/// 57///59012 60007 8//// 8//// 8//// 9//// 9//// 9//// 444 ////
AAXX 09181 76773 32570 12101 10238 20080 38434 40186 57013 81100 91745333 10241 20048 30/// 56900 59012 81820
AAXX 09181 76775 31970 00901 10238 20087 38538 40194 57008 70200 91730333 10240 20078 30/// 59015
AAXX 09181 76776 06/// /2601 10230 20076 38518 40115 58015 60002 7////8//// 91750 333 0//// 10231 20077 30/// 4//// 56/// 57///59017 60007 8//// 8//// 8//// 9//// 9//// 9//// 444 ////
AAXX 09181 76805 32970 02102 10301 20235 30134 40139 57008 91750 33310338 20210 30/// 59001
AAXX 09181 76806 06/// /1802 10299 20219 30135 40139 58011 60002 7////8//// 91750 333 10313 20198 30/// 56/// 57/// 58000 600078//// 8//// 8//// 8//// 9//// 9//// 9//// 555 30272
AAXX 09181 76833 32970 03610 10294 20260 30135 40137 57009 91745 33310294 20212 30/// 59003 92001
AAXX 09181 76840 32550 10304 10309 20189 30077 40133 57009 81200 91740333 10316 20190 30/// 568// 59008 81827
AAXX 09181 76845 32960 00602 10190 20126 37958 40186 56009 91745 33310198 20048 30/// 59007
AAXX 09181 76848 32670 10502 10211 20103 38395 40112 56006 81200 91750333 10211 20119 30/// 56100 59005 81845 98908
AAXX 09181 76902 06/// /2302 10316 20206 39994 40129 58017 60002 7////8//// 91750 333 0//// 10319 20217 30/// 4//// 54/// 56///57/// 59004 60007 8//// 8//// 8//// 8//// 9//// 9//// 9/
AAXX 09181 76903 31580 12602 10330 20253 39999 40134 57012 70300 8110091755 333 10338 20222 30/// 56300 59012 81821
AAXX 09181 76160 32962 31801 10150 20001 39948 40202 52018 80002 91750333 10150 20050 30/// 56004 58011 83070
AAXX 09181 76243 32473 73601 10150 20079 39942 40246 52016 87300 91735333 10162 20050 30/// 56800 58009 87616
AAXX 09181 76253 32782 30503 10178 20100 30119 40209 53011 83020 91754333 10190 20125 30/// 56050 58006 83457 92002
AAXX 09181 76311 32980 00000 10236 20093 39898 40180 52009 91755 33310246 20090 30/// 58004
AAXX 09181 76405 32880 73601 10214 20156 30176 40196 51013 87020 91750333 10214 20138 30/// 56050 58007 87557
AAXX 09181 76412 31966 02201 10224 20106 30140 40185 57015 70544 91750333 10228 20090 30/// 59014
AAXX 09181 76640 11358 83202 10198 20179 30212 40224 52006 69921 702228652/ 91740 333 10214 20166 30/// 5679/ 59041 86608
AAXX 09181 76647 32670 60502 10275 20187 30166 40196 57004 86200 91750333 10286 20144 30/// 56100 59010 86836
AAXX 09181 76741 31460 40000 10237 20210 30151 40170 52005 70544 8323091735 333 10241 20160 30/// 562// 59024 83811
AAXX 09181 76843 32465 30202 10264 20164 39511 57014 83200 91740 33310269 20170 30/// 59019 83828
AAXX 09181 76855 32580 11301 10300 20237 30075 40124 50004 81200 91740333 10310 20206 30/// 56900 58001 81820 92000
AAXX 09184 78988 02586 50811 10291 20248 30096 40106 57020 60001 82231 333 59005 60007 82820 84362
AAXX 09184 78873 02478 20709 10276 20246 30068 40112 57021 69921 82200 333 59013 60007 82819
AAXX 09184 78990 NIL
AAXX 09184 78951 12580 50908 10315 20184 30104 40119 60002 82830 333 10315 20225 59002 81825 83459
AAXX 09184 78866 01450 71008 10263 20235 30109 40114 57018 60011 78081 7460 333 59012 69947 81810 87813
AAXX 09181 06407 12670 62405 10072 20026 30102 40108 57003 60002 8323/ 333 10079 83836 83358 91114 91211
AAXX 09181 06447 NIL
AAXX 09184 93004 16/// /0732 10159 20136 40196 57008 60001
AAXX 09184 93023 16/// /1114 10167 20122 40239 57001 60001
AAXX 09184 93069 16/// /0824 10172 20111 40253 52005 60001
AAXX 09184 93110 17698 /0712 10170 20136 40257 52003 60001
AAXX 09184 93186 17498 /0607 10165 20138 40274 52010 60001
AAXX 09184 93196 16/// /1610 10146 20129 40278 52004 60001
AAXX 09184 93245 16497 /0602 10136 20125 40278 52009 60001
AAXX 09184 93292 17498 /3601 10152 20130 40286 52004 60001
AAXX 09184 93309 17497 /3604 10175 20161 40263 52007 60001
AAXX 09184 93334 16/// /0501 10122 20106 39315 52005 60001
AAXX 09184 93339 16/// /2401 10110 20099 39321 52006 60001
AAXX 09184 93373 17498 /0809 10158 20137 40285 52003 60031
AAXX 09184 93404 17/98 /1111 10156 20123 40272 52008 60001
AAXX 09184 93420 17/98 /1302 10113 20097 40273 52010 60001
AAXX 09184 93439 17/98 /0702 10137 20106 40277 52009 60001
AAXX 09184 93498 16/// /0713 10137 20109 40290 52005 60001
AAXX 09184 93515 17998 /1504 10125 20120 40260 52005 60001
AAXX 09184 93527 16/// /1305 10154 20141 40268 52011 60001
AAXX 09184 93546 17698 /2101 10144 20135 40271 52008 60001
AAXX 09184 93597 16/// /1703 10139 20118 40282 52006 60001
AAXX 09184 93615 17997 /1302 10133 20111 40264 52005 60001
AAXX 09184 93678 16398 /0503 10128 20118 40285 52004 60001
AAXX 09184 93709 16/// /0000 10103 20098 40263 52008 60001
AAXX 09184 93773 17498 /3101 10129 20119 40278 52001 60001
AAXX 09184 93781 17498 /0710 10140 20117 40282 54000 60001
AAXX 09184 93800 NIL
AAXX 09184 93805 NIL
AAXX 09184 93831 17/98 /0603 10079 20077 40277 52003 60001
AAXX 09184 93845 17/97 /0000 10068 20065 40275 54000 60001
AAXX 09184 93891 17/98 /0000 10085 20079 40277 52001 60001
AAXX 09184 93909 16/// /1004 10114 20071 40273 54000 60001
AAXX 09184 93929 16/// /0000 10092 20090 40257 52010 60001
AAXX 09184 93947 16/// /3107 10085 20079 40236 52003 60001
AAXX 09184 93987 16/// /2004 10096 20054 40287 52007 60001
AAXX 09184 93994 NIL
AAXX 09184 47090 32668 12904 11026 21118 30209 40232 56007 81500 333 92042
AAXX 09184 47095 32962 03601 11096 21116 30080 40282 56001
AAXX 09184 47097 329// /0000 11066 21146 30183 40285 52005
AAXX 09184 47098 329// /0701 11074 21132 30135 40278 58001
AAXX 09184 47099 329// /1401 11084 21107 30240 40279 57004
AAXX 09184 47100 32965 02506 11094 21130 39300 40268 53002
AAXX 09184 47102 32670 72713 11023 21092 30093 40278 55007 87500
AAXX 09184 47104 32670 11603 11052 21100 30139 40241 55001 81500
AAXX 09184 47106 329// /2304 11033 21087 30187 40238 56004
AAXX 09184 47112 32970 00204 11021 21124 30188 40276 57006 333 92012
AAXX 09184 47114 32964 02503 11050 21140 30091 40283 52011
AAXX 09184 47119 32970 02002 11049 21119 30237 40281 57004
AAXX 09184 47121 329// /2703 11059 21072 39969 40279 52004
AAXX 09184 47127 329// /2504 11042 21085 30139 40288 52010
AAXX 09184 47129 41562 83602 11021 21066 30249 40286 57006 78582 888//
AAXX 09184 47130 32668 22309 11018 21087 30173 40237 54000 82500 333 92033
AAXX 09184 47131 32963 00001 11037 21112 30212 40286 51007
AAXX 09184 47135 329// /2515 11039 21085 39967 40280 52006
AAXX 09184 47136 32970 02903 11045 21084 30090 40271 52007
AAXX 09184 47137 329// /2506 11036 21098 30154 40278 52006
AAXX 09184 47140 32662 71102 11025 21059 30258 40288 54000 87500 333 92011
AAXX 09184 47143 32970 02706 11014 21102 30197 40279 52006
AAXX 09184 47145 32663 21402 11056 21085 30250 40278 50002 82500
AAXX 09184 47146 32663 61401 11036 21063 30219 40288 50003 85500
AAXX 09184 47150 41565 70201 11014 21088 30263 40283 56003 78582 87800
AAXX 09184 47152 32970 03406 11011 21094 30203 40247 58001
AAXX 09184 47154 329// /2907 11018 21092 30212 40275 52004
AAXX 09184 47155 32970 03404 11007 21088 30213 40260 50004
AAXX 09184 47156 32668 60505 11005 21068 30195 40287 55001 86500
AAXX 09184 47157 32970 03201 11052 21094 39980 40264 50003
AAXX 09184 47162 32972 00509 10000 21097 30222 40264 50006 333 92023
AAXX 09184 47169 41565 73415 10033 21014 30187 40283 57007 78582 87800 333 92064
AAXX 09184 47170 32668 63403 10009 21041 30238 40283 55005 86500 333 92022
AAXX 09184 47171 329// /0000 11024 21047 30231 40288 50001
AAXX 09184 47172 329// /3602 11007 21055 30213 40282 51001
AAXX 09184 47173 329// /2902 11056 21074 30173 40290 50004
AAXX 09184 47174 32665 32906 11027 21087 30067 40278 50002 83500
AAXX 09184 47175 41562 63409 11023 21031 39687 40282 55009 72682 86500 333 92023
AAXX 09184 47185 41565 73224 10059 20002 30181 40274 56004 78082 87800 333 92056
AAXX 09184 47188 41670 73602 10037 20012 30251 40273 55004 72588 87500 333 92032
AAXX 09184 47189 32565 62908 10060 21023 30205 40266 55007 85800 333 92033
AAXX 09184 47192 32968 00000 11046 21076 30231 40270 50004
AAXX 09184 78866 01450 71008 10263 20235 30109 40114 57018 60011 78081 7460 333 59012 69947 81810 87813
AAXX 09184 78951 12580 50908 10315 20184 30104 40119 60002 82830 333 10315 20225 59002 81825 83459
AAXX 09184 78988 02586 50811 10291 20248 30096 40106 57020 60001 82231 333 59005 60007 82820 84362
AAXX 09184 78873 02478 20709 10276 20246 30068 40112 57021 69921 82200 333 59013 60007 82819
AAXX 09184 78990 NIL
AAXX 09181 26645 11296 81804 11001 21007 39776 40038 57012 60022 77172 8872/ 333 11001 88705 91111
AAXX 09181 26659 NIL
AAXX 09181 26763 31458 81606 11008 21024 39885 40117 57017 71022 886// 333 11003 88711 91111
AAXX 09181 26825 11335 82005 10010 20007 39863 40046 57004 60012 71072 886// 333 10010 88707 91110
AAXX 09181 26832 11256 82004 10010 21004 39861 40055 57009 60032 72287 8667/ 333 10013 86706 91110
AAXX 09181 26887 11496 81906 11004 21016 39949 40159 57005 69922 71022 886// 333 11001 88714
AAXX 09181 26961 32460 81803 11001 21015 39924 40119 57020 885// 333 10000 88711
AAXX 09181 33027 11495 81903 10004 20001 39950 40120 58019 60012 77172 8872/ 333 10012
AAXX 09184 89628 46/// /3224 4//// 5////
AAXX 09181 14241 12780 82004 10108 20049 30040 40169 58005 60002 8357/ 333 10116
AAXX 09181 14284 12970 71807 10054 20037 30082 40192 58007 60002 83038 333 10096
AAXX 09181 14307 32770 81801 10135 20099 30125 40201 55000 8557/ 333 10148
AAXX 09181 14317 NIL
AAXX 09181 14431 12680 61405 10106 20066 30122 40216 57003 60002 82860 333 10147 82840
AAXX 09181 14444 33670 71204 10134 20071 30211 40240 52005 86830 333 10142
AAXX 09181 14474 12681 70906 10101 20004 30059 40251 58001 60002 87500 333 10131
AAXX 09181 01047 11588 83403 11054 21066 39670 40047 54001 69912 70272 885// 333 11054
AAXX 09181 01281 16/// /0707 10008 21042 39653 49826 55005 60032 333 10009 91116
AAXX 09181 01447 16/// /0000 11088 21097 39124 49802 52027 60042 333 11001 91103
AAXX 09184 48380 32560 80000 10244 20226 30041 40136 56001 84556 333 58016 70001
AAXX 09184 60115 42660 71405 10136 20106 40224 52003 81232 333 10194 81840 83360 85073
AAXX 09184 60135 14940 61302 10143 20129 40239 52007 60002 71022 83602 333 10173 87070
AAXX 09184 60156 15959 00105 10152 20121 40246 52009 60002 333 10187
AAXX 09184 64810 32460 50000 10275 20231 30041 40067 83530 333 10320 58001 83615 85365
AAXX 09184 64820 NIL
AAXX 09184 60106 32965 52403 10133 20081 40243 50003 83032 333 10185 83360 83070
AAXX 09184 60210 32865 70604 10131 20001 39053 48571 58002 84032 333 10163 84358 85070
AAXX 09184 60318 32557 83102 10141 20111 40231 50001 82232 333 10174 82823 83361 85070
AAXX 09181 33924 32698 83001 10049 20008 30231 40243 52007 885// 333 10051 88640
AAXX 09184 48386 31556 30000 10244 20202 30082 40126 52003 71011 82505 333 58018
AAXX 09184 48415 31958 10514 10242 20175 30123 40135 57003 71000 80005 333 58014
AAXX 09181 33088 11597 82405 10012 20007 39933 40127 57010 60022 76162 8872/ 333 10029
AAXX 09181 33177 11597 81804 10029 21009 39888 40128 53003 60022 78082 889// 333 10033
AAXX 09181 33261 11395 81902 10004 20001 30011 40198 52003 69952 71054 886// 333 10006 88708
AAXX 09181 33275 31294 82004 11006 21010 39979 40209 52005 71022 886// 333 11003 88703
AAXX 09181 33301 11497 81906 10016 21000 39852 40138 57009 69962 70282 8355/ 333 10028
AAXX 09181 33325 32997 82403 10021 21007 39894 40166 57012 8807/ 333 10021
AAXX 09181 33377 11496 72401 11004 21013 30014 40214 52004 69922 71022 86630 333 10012
AAXX 09181 33415 11697 71804 10027 21015 39753 40157 57010 69902 70282 86530 333 10028
AAXX 09181 33429 11397 82004 10017 21002 39740 40170 57010 69932 78082 8635/ 333 10035 84708
AAXX 09181 33466 32562 61804 10002 21025 30010 40203 58008 82531 333 10028
AAXX 09181 33526 32560 81101 10041 21024 39809 40151 57006 885// 333 10046 88623
AAXX 09181 33562 32997 82005 10014 21009 39814 40182 57017 8805/ 333 10028
AAXX 09181 33614 31558 82202 10022 20006 30110 40217 52006 71022 8655/ 333 10035 86632
AAXX 09181 33761 31996 61802 11003 21018 39988 40218 57001 71022 80001 333 10042
AAXX 09181 33902 31595 81901 10019 20014 30167 40235 53007 71022 885// 333 10025
AAXX 09181 33983 32497 73205 10025 20006 30179 40241 52013 875// 333 10043 87615
AAXX 09181 34415 12497 82702 10002 21022 30128 40227 51007 69932 886// 333 10016
AAXX 09181 34523 NIL
AAXX 09181 34712 32498 83403 10007 21010 30143 40231 52011 886// 333 10050 88719
AAXX 09184 78906 11474 53103 10300 20241 30106 40111 60001 71522 83841 333 10309 20229 59009 83816 83359
AAXX 09184 17026 12570 43315 10090 20038 30217 40257 52016 69922 84200 333 10093 84830 91126 92448
AAXX 09184 17034 11670 70000 10075 20032 30203 40250 52015 60062 70282 83250 333 10077 83835 87360 92428
AAXX 09184 17070 11562 62902 10008 21002 39392 40294 52010 60112 72272 86500 333 10019 86630 91109 93101
AAXX 09184 17084 11970 23504 10009 21034 39329 40265 52016 69902 70161 82030 333 10054 82360 91108
AAXX 09184 17090 12665 73402 10000 21047 38736 48504 52016 69912 85570 333 10016 85636 87360
AAXX 09184 17098 11560 70000 11046 21066 38198 48512 52010 69902 70272 85510 333 10013 85630 87457 93100
AAXX 09184 17150 12960 02402 10020 20008 30167 40297 52012 60002 333 10096
AAXX 09184 17160 12670 33509 10005 21036 39060 48519 52017 60022 83500 333 10028 83640 91121
AAXX 09184 17184 12970 02901 10033 20008 30176 40292 53011 60002 333 10097 91109
AAXX 09184 17189 12970 03004 11042 21059 39099 48540 52013 69902 333 10018
AAXX 09184 17210 12670 80601 10051 21037 39135 40183 58007 69902 8452/ 333 10065 84633 88459
AAXX 09184 17234 12970 02201 10060 20004 30206 40276 51010 60002 333 10133 91107
AAXX 09184 17260 11357 80310 10025 20018 39312 40143 57011 60132 76872 8672/ 333 10071 83709 85625 88458 960 10
AAXX 09184 17290 12970 03603 10088 20002 30238 40271 51011 60002 333 10136 91120 92418
AAXX 09184 17370 11558 71304 10086 20072 30136 40140 52025 60152 79198 85970 333 10129 81925 84830 87458 92436
AAXX 09184 17022 12660 52104 10071 20024 30112 40282 52010 60002 83250 333 10087 83834 85360 91112 92427
AAXX 09184 17031 11670 62921 10088 20040 30238 40244 52016 60022 70262 84250 333 10090 84836 86360
AAXX 09184 17038 11460 72205 10081 20024 30193 40245 52016 69922 78082 87200 333 10097 83718 86835 92437
AAXX 09184 17050 12970 01405 10058 21014 30199 40263 50001 60002 333 10112 91108
AAXX 09184 17060 12960 02206 10077 20011 30242 40283 51005 60002 333 10106
AAXX 09184 17096 11556 70505 11050 21061 38228 48500 51003 69922 77172 85550 333 11018 85620 87357 93101
AAXX 09184 17124 12660 22902 10009 21018 39347 40298 52012 69902 82500 333 10035 82640
AAXX 09184 17128 11670 53103 11004 21044 39146 40285 52018 69942 70282 83130 333 10043 83840 84360 93100
AAXX 09184 17170 NIL
AAXX 09184 17195 11670 80000 10004 21023 38998 48510 52021 60032 70272 8552/ 333 10025 85635 88459 93102
AAXX 09184 17199 11450 80000 10001 21001 39073 40194 51002 60122 77376 8672/ 333 10030 82715 85633 88458 93102 96010
AAXX 09184 17219 12965 09901 10030 20006 30134 40282 53010 60002 333 10105
AAXX 09184 17240 12970 03305 11002 21088 39090 40276 50010 69902 333 10045 91121
AAXX 09184 17244 12670 33319 10005 21045 39040 48525 52016 60002 83100 333 10022 83840
AAXX 09184 17280 11657 83410 10042 20013 39369 40170 58009 69982 76062 8552/ 333 10056 85635 88459 96010
AAXX 09184 17350 11560 70112 10098 20028 30072 40151 52021 60112 72598 85250 333 10117 85830 87360
AAXX 09181 26106 11/96 81506 10019 20008 49962 57015 60022 76076 8872/ 333 10021 91010 91114
AAXX 09181 26346 11396 81606 11010 21011 40002 57014 60022 77173 8872/ 333 11008 87709 91012 91113 92982
AAXX 09181 26406 11597 62210 10066 20022 49931 52001 60122 72582 83950 333 10066 91019 91120
AAXX 09181 26416 33/// /1905 10015 20007 49948 57004 333 10017 91111
AAXX 09181 26424 11497 82006 10018 20012 49956 57012 60052 78082 889// 333 10019 86914 91112
AAXX 09181 26544 11496 81805 10000 21002 40023 57014 60022 78582 889// 333 10002 85711 91113
AAXX 09181 26313 NIL
AAXX 09184 17024 11570 71913 10050 20021 30187 40267 53013 60072 70262 84550 333 10079 84632 87360 91120 92438
AAXX 09184 17056 12970 02603 10058 20013 30274 40279 50004 60002 333 10124 91110 92418
AAXX 09184 17067 12670 41903 10046 20007 30264 40287 52010 60002 84200 333 10098 84840 91112 92418
AAXX 09184 17092 12660 71008 10030 21031 38860 48489 51010 60002 84510 333 10072 84638 87459
AAXX 09184 17112 12970 00904 10040 21010 30282 40285 57002 60002 333 10118 92418
AAXX 09184 17115 12960 00000 10007 21001 30232 40285 52007 60002 333 10098
AAXX 09184 17116 12962 00000 10020 20003 30171 40297 53012 60002 333 10090 91108
AAXX 09184 17188 12960 03002 11008 21059 39193 40298 52013 60002 333 10049 91112
AAXX 09184 17202 11560 80611 10014 20005 39153 40196 50000 60042 76022 8652/ 333 10037 82720 85630 88459
AAXX 09184 17248 12660 83306 10007 21010 39016 48515 52027 69932 8452/ 333 10025 84635 88460
AAXX 09184 17292 12970 03404 10044 21040 39490 40268 53011 60002 333 10091 91118
AAXX 09184 17300 12960 03313 10095 21072 30164 40236 52021 60002 333 10131 91024 91130
AAXX 09184 17310 12670 10504 10118 21056 30211 40218 52035 60002 81200 333 10163 81835 91114 92438
AAXX 09184 17330 12970 03009 10109 21011 30154 40172 52023 60182 333 10110
AAXX 09181 13160 NIL
AAXX 09181 13262 NIL
AAXX 09181 13272 32970 31603 10078 21041 30087 40208 58004 80002 333 10105
AAXX 09181 13285 NIL
AAXX 09181 13289 NIL
AAXX 09181 13376 NIL
AAXX 09181 13388 NIL
AAXX 09181 13462 32970 30202 10039 21005 30229 40270 51007 82031 333 10115 82359
AAXX 09181 13473 NIL
AAXX 09181 13489 NIL
AAXX 09184 08001 11465 62406 10132 20121 30115 40196 56005 69962 78052 84872 333 10150 924/7
AAXX 09184 08015 12565 81302 10128 20070 39794 40195 57009 60002 8687/ 333 10134
AAXX 09184 08023 12570 72404 10140 20080 30136 40207 57007 60002 81138 333 10155
AAXX 09184 08027 12682 81802 10114 20077 39897 40207 58006 60002 8351/ 333 10140
AAXX 09184 08045 01/03 /2005 10116 20113 39909 40219 58007 60052 74764 333 10116 60047
AAXX 09184 08141 11/02 92302 10032 20032 39363 40243 55000 60002 74544 333 10040 89/03
AAXX 09184 08160 11350 61802 10061 20049 39916 40231 55004 60002 71000 81607 333 10092
AAXX 09184 08181 02561 73606 10108 20060 30205 40211 56006 60002 82878 333 10147 60007
AAXX 09184 08221 01957 71805 10070 20046 39534 40228 58002 60002 71022 80006 333 10101 60007
AAXX 09184 08231 12870 70501 10083 20034 39127 48530 53002 60002 86076 333 10130
AAXX 09184 08261 11/05 90000 10066 20057 39764 40255 56003 60002 74544 333 10072 89/00
AAXX 09184 08284 01558 42801 10117 20085 30140 40216 55000 60002 71011 81537 333 10160 60007
AAXX 09184 08306 12570 60000 10131 20110 30211 40217 56006 60002 85811 333 10172
AAXX 09184 08314 02570 73504 10131 20113 30117 40220 55004 60002 85806 333 10172 60007
AAXX 09184 08430 12860 43602 10116 20088 30149 40224 56003 60002 81018 333 10144
AAXX 09184 08482 12465 80000 10142 20112 30219 40227 56005 60002 82637 333 10170
AAXX 09181 06431 NIL
AAXX 09181 06432 35/67 02204 10043 20022 30046 40124 50000 333 10079 91110 91207
AAXX 09181 06449 12572 12105 10045 20015 39897 40128 54000 60002 81801 333 10069 81829 91110 91207
AAXX 09181 06450 12980 02204 10054 21006 30093 40110 51002 60002 333 10079 91112 91208
AAXX 09181 06458 35971 02204 10046 20011 39966 40121 51001 333 10068 91113 91208
AAXX 09181 06465 37978 02203 10043 21013 30047 40114 51003 700// 333 10072 91112 91208
AAXX 09181 06478 12975 12305 10026 21005 39900 40124 53002 60002 80001 333 10062 81070 91113 91209
AAXX 09181 06496 35973 /2403 10005 21022 39440 40127 51004 333 10036 81/29 91112 91208
AAXX 09181 06400 32668 52104 10038 20017 30101 40112 57002 82831 333 10082 82838 83358 91114 91211
AAXX 09181 06428 35967 /2103 10044 20007 30066 40115 58002 333 10078 81/75 91111 91207
AAXX 09181 06451 12680 12304 10048 20007 30049 40116 51001 60002 81500 333 10068 81640 91112 91209
AAXX 09181 06456 32675 62405 10052 20017 39762 40132 52002 86500 333 10067 82640 86650 91112 91210
AAXX 09181 06476 15266 82403 10019 20008 39466 40138 52002 69932 333 10038 85/04 87/06 88/08 91110 91206
AAXX 09181 06479 32976 02203 10031 21017 30035 40116 51004 333 10077 91113 91208
AAXX 09181 06490 15579 12503 10026 21010 39552 40129 51003 60002 333 10040 81/29 91111 91207
AAXX 09181 06590 12770 62203 10021 20017 39683 40143 53007 60052 85501 333 10086 85650 91111 91205
AAXX 09184 43533 11458 70906 10277 20247 30097 40100 60001 71322 8297/ 333 58009 81817 81918 87362
AAXX 09184 43555 11459 71113 10276 20253 30095 40098 60001 70522 82232 333 58008 82818 86361
AAXX 09184 43577 11459 72503 10256 20244 30105 40107 60201 76066 8222/ 333 58006 82817 87461
AAXX 09184 43588 11462 73211 10255 20251 30095 40097 60061 72582 8497/ 333 59002 83817 81918 87362
AAXX 09184 43599 11458 72711 10269 20247 30105 40107 60021 78082 8397/ 333 58005 82816 81917 87361
AAXX 09184 43533 11458 70906 10277 20247 30097 40100 60001 71322 8297/ 333 58009 81817 81918 87362
AAXX 09184 43555 11459 71113 10276 20253 30095 40098 60001 70522 82232 333 58008 82818 86361
AAXX 09184 43577 11459 72503 10256 20244 30105 40107 60201 76066 8222/ 333 58006 82817 87461
AAXX 09184 43588 11462 73211 10255 20251 30095 40097 60061 72582 8497/ 333 59002 83817 81918 87362
AAXX 09184 43599 11458 72711 10269 20247 30105 40107 60021 78082 8397/ 333 58005 82816 81917 87361
AAXX 09184 61401 NIL
AAXX 09184 61404 32958 61206 10273 21051 39746 40138 81082 333 10288 59019 81363 86073
AAXX 09184 61415 32958 23208 10234 20067 30120 40125 82030 333 10293 59023 82363
AAXX 09184 61421 33960 03008 10304 21050 39870 40123 333 10316 59003
AAXX 09184 61437 32960 00404 10312 20132 39993 40130 333 10332 59010
AAXX 09184 61442 32960 23406 10285 20060 30109 40112 80002 333 10345 59017 82080
AAXX 09184 61450 31956 00808 10294 20038 39671 40126 70622 333 10324 59015
AAXX 09184 61461 32960 00804 10325 20020 30047 40134 333 10325 59007
AAXX 09184 61489 32958 00000 10340 20037 30096 40103 333 10355 59014
AAXX 09184 61492 32958 40806 10325 21005 30113 40132 80002 333 10340 58001 84073
AAXX 09184 61497 34940 00812 10299 21033 39861 4//// 705// 333 10328 59009
AAXX 09184 61498 31956 00804 10332 20080 39974 40106 705// 333 10360 59018
AAXX 09184 61499 31930 00804 10315 20026 39856 40109 70500 333 10350 59004
AAXX 09184 61510 NIL
AAXX 09184 08055 11230 81706 10036 20032 39159 48516 53003 60002 71044 8777/ 333 10046 95090
AAXX 09184 08075 11130 72508 10035 20031 39176 48510 56002 60002 71022 87677 333 10071
AAXX 09184 08084 01957 70000 10066 20041 39781 40221 58003 60002 71022 80006 333 10117 60007
AAXX 09184 08171 11/04 90802 10060 20060 39989 40234 56005 60002 74742 333 10080 89/03
AAXX 09184 08184 02960 62601 10095 20074 30048 40205 57007 60002 80006 333 10135 60007
AAXX 09184 08202 02962 32801 10044 20027 39300 42838 52002 60002 83030 333 10108 60007
AAXX 09184 08235 NIL
AAXX 09184 08238 11630 70000 10118 20075 30150 40211 53002 60002 71022 83522 333 10152
AAXX 09184 08280 12962 60000 10080 20058 39397 40226 54000 60002 80008 333 10126
AAXX 09184 08330 12360 83001 10076 20057 30007 40242 57002 60002 886// 333 10084
AAXX 09184 08348 12765 62202 10096 20067 39494 40235 56003 60002 82048 333 10120
AAXX 09184 08360 01556 80000 10107 20082 30179 40217 50000 60002 71022 81537 333 10154 60007
AAXX 09184 08373 02570 52004 10150 20110 30193 40215 55003 60002 83839 333 10177 60007
AAXX 09184 08410 02960 70000 10110 20070 30119 40231 50000 60002 80006 333 10147 60007
AAXX 09184 08419 02660 52302 10095 20064 39557 40231 51002 60002 83025 333 10128 60007
AAXX 09184 08451 02970 73401 10141 20118 30199 40232 51004 60002 80007 333 10168 60007
AAXX 09184 08487 02480 72609 10139 20105 30192 40217 55004 60002 82875 333 10156 60007
AAXX 09183 61701 32960 00000 10306 20149 40081 80000 333 10365 59007
AAXX 09183 61705 32960 00000 10320 20196 4//// 80000 333 10357 5////
AAXX 09183 61707 32960 00000 10330 20155 4//// 80000 333 10375 5////
AAXX 09183 61711 32960 00902 10296 20150 4//// 80000 333 10320 5////
AAXX 09183 61712 32960 02305 10327 20146 4//// 80000 333 10370 5////
AAXX 09183 61717 32960 00000 10321 20176 4//// 80000 333 10371 5////
AAXX 09183 61720 NIL
AAXX 09183 61721 32960 00000 10344 20129 4//// 80000 333 10375 5////
AAXX 09183 61722 32960 00000 10315 20139 4//// 80000 333 10355
AAXX 09183 61731 32960 00000 10320 20152 4//// 80000 333 10386 5////
AAXX 09183 61733 NIL
AAXX 09184 65201 32960 61903 10278 20245 30037 40090 80008 333 10342 56000 59011 86280 91104
AAXX 09184 06030 01558 72732 10048 20011 39832 49847 52022 60012 78082 86960 333 10069 20042 69907 82920 85630 91047 91163
AAXX 09184 06060 01265 52724 10042 21010 39847 49911 50012 60032 78081 83961 333 10067 20033 69907 81704 81920 83650 85362 91049 91155 91236
AAXX 09184 06070 05967 72520 10047 21020 39873 49903 52007 60052 333 10065 20036 6///7 87/69 91034 91152 91230
AAXX 09184 06120 NIL
AAXX 09184 06180 01665 62628 10060 20006 39928 49934 52013 69912 70282 8757/ 333 10075 20057 69907 82640 86650 91045 91149
AAXX 09184 06193 07657 72437 10062 20033 39932 49943 52009 69912 71011 333 10067 20055 55300 20000 6///7 81/46 87/70 91153
AAXX 09184 71150 46/// /2706 11184 21242 39534 40253 58004 6///1 333 11183 21223 7////
AAXX 09184 71151 NIL
AAXX 09184 71152 16/// /2624 10033 21022 30209 40222 55005 60001 333 10036 21003 70013
AAXX 09184 71153 NIL
AAXX 09184 71154 17/// /2328 10003 21096 60061 7//4/ 333 10010 21101 70058
AAXX 09184 71155 NIL
AAXX 09184 71156 NIL
AAXX 09184 71157 46/// ///// 10002 21050 6///1 333 10002 21132 7////
AAXX 09184 71158 NIL
AAXX 09184 71159 NIL
AAXX 09184 71160 NIL
AAXX 09184 71161 17/// /2010 10010 21004 30038 40188 56025 60031 7//4/ 333 10021 21003 70027
AAXX 09184 71162 NIL
AAXX 09184 71163 46/// /1601 11213 21232 39737 40092 55008 6///1 333 11209 21360 7////
AAXX 09184 71164 NIL
AAXX 09184 71165 NIL
AAXX 09184 71166 NIL
AAXX 09184 71167 15966 02707 11002 21082 39066 40179 58001 60001 333 11002 21119 70000
AAXX 09184 71168 NIL
AAXX 09184 71170 NIL
AAXX 09184 71171 17/// /2607 10027 20002 30097 40195 58015 69941 7//4/ 333 10027 20003 70121
AAXX 09184 71172 17/// ///// 11012 21042 39954 40174 57006 69991 7//4/ 333 10010 21017 70009
AAXX 09184 71175 16/// /2612 10044 21049 30230 55002 60001 333 7////
AAXX 09184 71176 460// /2736 11110 39217 49894 55001 6///1 333 11092 21117 7////
AAXX 09184 71177 460// ///// 11166 38852 49849 51031 6///1 333 11104 21166 7////
AAXX 09184 71178 16/// /2632 10022 21068 30153 40185 51023 60001 333 10033 20008 70038
AAXX 09184 71179 460// ///// 11158 39088 49910 53070 6///1 333 11047 21159 7////
AAXX 09184 71180 16/// /2620 10033 21014 30199 40239 53001 60001 333 10038 21002 70000
AAXX 09184 71181 16564 62718 10028 21042 30181 40218 52016 60001 333 10039 20007 7////
AAXX 09184 71183 17/// /1606 30162 56025 69951 7//4/ 333 70005
AAXX 09184 71184 46/// /1804 10010 20000 6///1 333 10026 21012 7////
AAXX 09184 71186 NIL
AAXX 09184 71187 15966 01015 11003 21048 30246 40295 58014 60001 333 10004 21010 70000
AAXX 09184 71189 NIL
AAXX 09184 71190 NIL
AAXX 09184 71191 16/// ///// 10063 21030 60001 333 10070 21028 70000
AAXX 09184 71192 15966 00901 11100 21105 39610 40302 58007 60001 333 11104 21150 70003
AAXX 09184 71193 16/// /2809 11112 21140 39784 40160 51006 60001 333 11109 21194 70000
AAXX 09184 71196 16/// /1404 11001 21015 39968 40169 58028 60001 333 11001 21039 70000
AAXX 09184 71197 16564 32726 10035 21029 30183 40233 55000 60001 333 10038 21003 70010
AAXX 09184 71198 46/// /1917 10017 20002 6///1 333 10030 20006 7////
AAXX 09184 71199 46/// /0806 11019 21049 39268 40111 56007 6///1 333 10012 21157 7////
AAXX 09184 71500 NIL
AAXX 09184 71501 NIL
AAXX 09184 71502 NIL
AAXX 09184 71503 NIL
AAXX 09184 71504 NIL
AAXX 09184 71505 46/// /0204 11066 21089 39367 40092 53011 6///1 333 10022 21070 7////
AAXX 09184 71506 NIL
AAXX 09184 71507 16/// /1504 11069 21093 60001 333 11050 21182 70000
AAXX 09184 71508 16/// ///// 10032 21004 30061 40201 58015 60001 333 10032 20006 70000
AAXX 09184 71509 NIL
AAXX 09184 71511 NIL
AAXX 09184 71512 16/// /2708 11051 21066 30172 40186 51005 60001 333 11051 21099 70058
AAXX 09184 71513 15766 12820 11033 21120 30164 40180 53019 60001 333 11024 21075 70095
AAXX 09184 71514 NIL
AAXX 09184 71515 16/// /2311 11139 21185 39519 40253 56011 60001 333 11139 21217 70000
AAXX 09184 71516 17/// /2510 11108 21158 69971 7//4/ 333 11108 21232 70007
AAXX 09184 71517 NIL
AAXX 09184 71518 NIL
AAXX 09184 71519 NIL
AAXX 09184 71520 NIL
AAXX 09184 71521 NIL
AAXX 09184 71522 NIL
AAXX 09184 71523 NIL
AAXX 09184 71524 16/// /2005 10007 21001 30186 40212 58020 60001 333 10016 21014 70000
AAXX 09184 71525 NIL
AAXX 09184 71526 NIL
AAXX 09184 71527 15466 62814 11145 21186 39680 40209 50010 60001 333 11145 21175 70000
AAXX 09184 71528 NIL
AAXX 09184 71529 46/// /1203 11184 21221 39881 40117 58008 6///1 333 11183 21285 7////
AAXX 09184 71532 17312 82705 11012 21013 39832 40181 58009 60001 771// 333 11010 21024 70000
AAXX 09184 71534 17456 82707 10004 21024 39916 40191 56009 60001 745// 333 10015 21020 70000
AAXX 09184 71535 NIL
AAXX 09184 71536 NIL
AAXX 09184 71537 NIL
AAXX 09184 71539 NIL
AAXX 09184 71540 NIL
AAXX 09184 71541 NIL
AAXX 09184 71542 16/// /2102 11155 21176 60001 333 11155 21237 70000
AAXX 09184 71543 NIL
AAXX 09184 71544 NIL
AAXX 09184 71545 16/// ///// 11023 21066 60001 333 11023 21201 70004
AAXX 09184 71546 NIL
AAXX 09184 71547 NIL
AAXX 09184 71548 NIL
AAXX 09184 71549 NIL
AAXX 09184 71744 NIL
AAXX 09184 71750 16/// /3005 11111 21140 39928 40169 50002 60001 333 11081 21123 70009 555 10020
AAXX 09184 71751 NIL
AAXX 09184 71752 NIL
AAXX 09184 71753 16/// /2313 10064 21042 30226 40255 56015 60001 333 10066 21043 70000
AAXX 09184 71754 16/// /1805 11087 21140 39496 40188 58029 60001 333 11086 21237 70003
AAXX 09184 71755 43/// /2711 11207 21265 39797 40159 53013 6///1 333 11196 21227 7////
AAXX 09184 71756 16/// /0000 11015 21039 39162 40276 55004 60001 333 11011 21059 70000 555 10030
AAXX 09184 71758 NIL
AAXX 09184 71760 NIL
AAXX 09184 71761 NIL
AAXX 09184 71762 NIL
AAXX 09184 71763 NIL
AAXX 09184 71765 16/// /1501 11061 21078 30048 40334 58013 60001 333 11057 21081 70000
AAXX 09184 71766 16/// /2404 10011 21002 30200 40273 56005 60001 333 10012 21035 7////
AAXX 09184 71767 16/// /2613 11029 21104 39927 40193 58005 60001 333 11013 21030 70000
AAXX 09184 71768 46/// /2803 11036 21070 39783 40352 50001 6///1 333 11035 21071 7////
AAXX 09184 71769 16/// /2207 10025 20009 30249 40265 56005 60001 333 10035 20023 70000
AAXX 09184 71770 16/// /0505 11029 21082 39565 40365 53011 60001 333 11029 21058 70000
AAXX 09184 71771 NIL
AAXX 09184 71772 16/// /2706 10028 20013 30259 40265 55004 60001 333 10043 20025 70000
AAXX 09184 71773 16/// /2103 11020 21033 39239 40094 53011 60001 333 10017 21053 70000
AAXX 09184 71774 46/// ///// 10002 6///1 333 10003 21019 7////
AAXX 09184 71775 46/// /2801 11033 21035 30273 40279 56006 6///1 333 11020 21044 7////
AAXX 09184 71776 46/// /0901 11020 21078 39693 40358 51007 6///1 333 11015 21085 7////
AAXX 09184 71777 16/// ///// 11103 21112 30061 40325 58007 60001 333 11094 21118 70000
AAXX 09184 71778 46/// /0314 6///1 333 7////
AAXX 09184 71779 16/// /0000 11102 21111 39607 40298 58006 60001 333 11098 21154 70003
AAXX 09184 71780 16/// /0908 10031 20000 30242 40270 56004 60001 333 10031 20006 70002
AAXX 09184 71781 46/// /3503 10032 20010 30245 40270 55003 6///1 333 10037 20028 7////
AAXX 09184 71782 46/// /0000 11092 21112 38981 40370 51014 6///1 333 11092 21141 7////
AAXX 09184 71783 16/// /3305 10032 20014 30195 40270 56003 60001 333 10032 20016 70000
AAXX 09184 71784 16/// /2301 10008 21009 30056 40265 55004 60001 333 10008 21014 70000 555 10010
AAXX 09184 71785 17/// /1101 10009 21002 30266 40282 55003 69921 7//4/ 333 10010 21028 70002
AAXX 09184 71786 46/// /2614 11125 21139 38440 40345 51010 6///1 333 11116 21139 7////
AAXX 09184 71787 16/// /2310 10026 21064 39750 40246 57005 60001 333 10035 21054 70003
AAXX 09184 71788 NIL
AAXX 09184 71789 NIL
AAXX 09184 71791 NIL
AAXX 09184 71792 NIL
AAXX 09184 71793 NIL
AAXX 09184 71794 NIL
AAXX 09184 71795 NIL
AAXX 09184 71796 NIL
AAXX 09184 71797 NIL
AAXX 09184 71604 16/// /2818 11004 21034 60001 333 11001 21043 70010 555 10140
AAXX 09184 71605 16/// /0000 10027 21013 30113 40266 56007 60001 333 10027 21005 70000
AAXX 09184 71611 NIL
AAXX 09184 71612 NIL
AAXX 09184 71614 NIL
AAXX 09184 71616 16/// /2110 10009 21006 30092 40214 56018 60001 333 10012 21040 70000
AAXX 09184 71617 16/// /2601 11028 21080 30028 40200 56010 60001 333 11026 21071 70000
AAXX 09184 71618 17516 83018 11207 21233 30059 40098 60001 771// 333 70000
AAXX 09184 71619 16/// /2409 10005 21072 30157 40216 56006 60001 333 10005 21048 70010
AAXX 09184 71622 NIL
AAXX 09184 71632 NIL
AAXX 09184 71634 16/// /2004 10001 21021 30077 40234 55005 60001 333 10005 21088 70000
AAXX 09184 71638 16/// /3104 10000 21010 30158 40266 55007 60001 333 10004 21038 70000
AAXX 09184 71639 11474 82507 10020 21026 39950 40195 57014 69941 72272 885// 333 10021 21015 70004 90973
AAXX 09184 71642 11574 63202 11103 21127 39604 40169 51009 69981 77172 81570 333 11092 21190 47019 70038 90927
AAXX 09184 71250 NIL
AAXX 09184 71251 16/// /2510 10012 21051 39272 40213 58002 60001 333 10012 21147 70000
AAXX 09184 71252 NIL
AAXX 09184 71253 46/// /2502 11158 21178 6///1 333 11158 21296 7////
AAXX 09184 71254 16/// /2612 11001 21054 60001 333 11001 21191 70000 555 10010
AAXX 09184 71255 16/// /1906 11130 21160 60001 333 11130 21214 70000 555 10010
AAXX 09184 71256 46/// /2809 11022 21068 39213 40165 55001 6///1 333 11022 21134 7////
AAXX 09184 71257 NIL
AAXX 09184 71258 NIL
AAXX 09184 71259 NIL
AAXX 09184 71261 17/// /2813 11016 21050 39939 40203 58003 60011 7//4/ 333 10017 21017 70011 555 10070
AAXX 09184 71263 11456 82609 10009 21011 39910 40203 58012 69981 78588 888// 333 10009 21017 41997 70008 90973 93101
AAXX 09184 71264 16/// /2309 10073 21019 30244 40276 56007 60001 333 10079 21012 70000
AAXX 09184 71265 15566 62414 10031 21009 30103 40198 58016 60001 333 10032 20007 70000
AAXX 09184 71266 NIL
AAXX 09184 71267 15966 02415 10030 21055 39115 40229 50000 60001 333 10030 21111 70000
AAXX 09184 71268 12774 22713 11048 21090 39768 40181 58005 60001 82500 333 11048 21120 70000
AAXX 09184 71269 NIL
AAXX 09184 71270 NIL
AAXX 09184 71271 16/// ///// 11010 21071 60001 333 11010 21188 70000
AAXX 09184 71272 15966 13107 11251 21289 39773 40144 50002 60001 333 11223 21264 70000
AAXX 09184 71273 16/// /2009 11095 21125 39462 40150 56029 60001 333 11095 21259 70000
AAXX 09184 71274 NIL
AAXX 09184 71275 NIL
AAXX 09184 71276 NIL
AAXX 09184 71277 NIL
AAXX 09184 71278 NIL
AAXX 09184 71279 16/// /2706 11049 21116 30118 40186 50000 60001 333 11048 21137 70000
AAXX 09184 71281 NIL
AAXX 09184 71282 46/// /2513 10009 20005 39915 40188 58013 6///1 333 10014 20000 7////
AAXX 09184 71283 NIL
AAXX 09184 71284 16/// ///// 11019 21068 60001 333 11019 21176 70000
AAXX 09184 71285 NIL
AAXX 09184 71286 NIL
AAXX 09184 71287 NIL
AAXX 09184 71288 NIL
AAXX 09184 71289 NIL
AAXX 09184 71290 15966 11510 11060 21081 39407 40260 57010 60001 333 11057 21091 70000
AAXX 09184 71291 16/// /2905 11140 21199 39887 40195 51003 60001 333 11139 21187 70000 555 10010
AAXX 09184 71292 15966 02208 11170 21234 39608 40248 58014 60001 333 11170 21229 70000
AAXX 09184 71294 17/// /2204 11006 21008 39768 40175 58018 69931 7//4/ 333 11006 70025 555 10060
AAXX 09184 71295 NIL
AAXX 09184 71296 NIL
AAXX 09184 71297 16/// /2604 10027 21002 60001 333 10028 21007 70000
AAXX 09184 71298 16/// /2709 10005 21012 39985 40221 56006 60001 333 10011 21005 70003
AAXX 09184 71299 NIL
AAXX 09184 71950 17140 81605 11070 21075 39613 40264 56010 60001 710// 333 11074 21110 70000
AAXX 09184 71952 16/// /0000 11162 21176 39387 40282 57006 60001 333 11162 21204 70000
AAXX 09184 71954 46/// /2402 11199 21234 39817 40214 56014 6///1 333 11197 21232 7////
AAXX 09184 71956 NIL
AAXX 09184 71959 NIL
AAXX 09184 71960 460// /2612 11104 39881 40013 52001 6///1 333 11104 21197 7////
AAXX 09184 71962 16/// /2611 11148 21199 39796 40241 50007 60001 333 11148 21207 70000
AAXX 09184 71963 NIL
AAXX 09184 71967 16/// /1906 10005 21001 30113 40220 58019 60001 333 10013 21032 70000
AAXX 09184 71970 NIL
AAXX 09184 71971 NIL
AAXX 09184 71972 460// ///// 11076 39438 49895 55003 6///1 333 11070 21091 7////
AAXX 09184 71973 46/// /2516 10003 21075 30009 40199 53007 6///1 333 10008 21027 7////
AAXX 09184 71974 NIL
AAXX 09184 71975 460// /3508 11102 39190 49907 56020 6///1 333 11097 21106 7////
AAXX 09184 71976 NIL
AAXX 09184 71977 NIL
AAXX 09184 71978 NIL
AAXX 09184 71979 NIL
AAXX 09184 71980 NIL
AAXX 09184 71981 NIL
AAXX 09184 71982 NIL
AAXX 09184 71983 NIL
AAXX 09184 71984 16/// /2104 11133 21145 30008 40016 56007 60001 333 11133 21199 70000
AAXX 09184 71985 NIL
AAXX 09184 71986 NIL
AAXX 09184 71987 16/// /2519 10025 21027 30225 40235 53003 60001 333 10027 21015 70000
AAXX 09184 71988 NIL
AAXX 09184 71989 NIL
AAXX 09184 71990 NIL
AAXX 09184 71999 46/// ///// 11049 6///1 333 11048 21091 7////
AAXX 09184 71851 16/// /2708 11136 21207 39903 40255 50000 60001 333 11135 21184 70000
AAXX 09184 71857 NIL
AAXX 09184 71860 12983 62504 11038 21090 38797 40228 52001 60001 86031 333 11036 21111 70000
AAXX 09184 71876 15766 81806 11074 21119 39499 40187 58030 60001 333 11074 21203 70000
AAXX 09184 71885 NIL
AAXX 09184 71888 NIL
AAXX 09184 71895 NIL
AAXX 09184 71665 16/// /2932 11105 21170 39956 49966 53043 60001 333 11051 21105 70093 555 10090
AAXX 09184 71666 16/// /2411 10045 21041 30194 40239 56010 60001 333 10047 21036 70000
AAXX 09184 71667 NIL
AAXX 09184 71668 16/// /2309 10051 21051 30196 40240 56012 60001 333 10057 21043 70000
AAXX 09184 71669 NIL
AAXX 09184 71670 16/// ///// 10031 21039 60001 333 10032 21044 70000
AAXX 09184 71671 16/// /2205 10065 21028 30193 40254 58009 60001 333 10072 21017 70000
AAXX 09184 71672 17/// /2106 10003 21008 39921 40189 58018 69951 7//4/ 333 10004 21015 70005
AAXX 09184 71673 NIL
AAXX 09184 71674 NIL
AAXX 09184 71675 15566 62913 11210 21255 39843 40134 52015 60001 333 11189 21221 70153
AAXX 09184 71679 16/// /0303 11077 21083 39201 40243 56009 60001 333 11065 21086 70000
AAXX 09184 71680 NIL
AAXX 09184 71681 46/// /0301 11062 21081 6///1 333 11061 21096 7////
AAXX 09184 71682 NIL
AAXX 09184 71683 NIL
AAXX 09184 71684 15966 02508 11055 21129 39854 40162 57010 60001 333 11055 21181 70005
AAXX 09184 71685 15666 83601 11035 21055 39799 40358 50003 60001 333 11034 21057 70000
AAXX 09184 71686 NIL
AAXX 09184 71687 16/// /0000 11063 21078 39487 40295 56004 60001 333 11060 21095 70000
AAXX 09184 71688 16/// /0902 11007 21028 39212 40267 55001 60001 333 11007 21057 70000
AAXX 09184 71689 15966 00902 11141 21162 39644 40117 56007 60001 333 11141 21243 70000
AAXX 09184 71690 NIL
AAXX 09184 71691 15966 02514 11023 21083 30166 40194 55006 60001 333 11022 21117 70000
AAXX 09184 71692 NIL
AAXX 09184 71694 17/// /2404 11015 21025 39823 40190 58011 60041 7//4/ 333 11003 21023 70051 555 10110
AAXX 09184 71695 16/// /2705 11190 21237 39859 40211 58014 60001 333 11190 21218 70000
AAXX 09184 71696 16/// /2918 11210 21236 30054 40092 51011 60001 333 11180 21211 70000
AAXX 09184 71697 17261 82206 10010 20010 30023 40197 58017 69951 7614/ 333 10010 21007 70005
AAXX 09184 71699 16/// /2407 10066 21018 30245 40253 56011 60001 333 10077 20003 70000
AAXX 09184 71300 NIL
AAXX 09184 71301 17/// ///// 11072 21108 39741 40149 56006 69931 7//4/ 333 11066 21175 70003
AAXX 09184 71302 16/// /0702 11115 21125 39429 40283 57007 60001 333 11074 21138 70000
AAXX 09184 71303 46/// ///// 10016 21013 6///1 333 10025 20002 7////
AAXX 09184 71305 17548 82502 11139 21159 39798 40108 55004 69931 771// 333 11139 21287 70003
AAXX 09184 71306 17504 81824 11070 21081 39901 49933 58006 60001 773// 333 11067 21092 70000
AAXX 09184 71307 16/// /2508 10006 21010 39964 40219 58008 60001 333 10008 21009 70000
AAXX 09184 71308 16/// /2408 10043 21038 30183 40269 56004 60001 333 10044 21025 70000
AAXX 09184 71309 NIL
AAXX 09184 71310 16/// /2510 10048 21046 30212 40249 55006 60001 333 10048 21038 70000
AAXX 09184 71311 NIL
AAXX 09184 71312 16/// /2006 11190 21248 39738 40220 58022 60001 333 11189 21252 70000
AAXX 09184 71314 NIL
AAXX 09184 71315 16/// /2407 10003 21058 30160 40215 56007 60001 333 10004 21111 70000
AAXX 09184 71316 16/// /2103 11063 21100 39435 40139 56009 60001 333 11063 21219 70000
AAXX 09184 71317 NIL
AAXX 09184 71318 16/// /2611 11009 21082 39212 40181 56007 60001 333 11009 21202 70000 555 10030
AAXX 09184 71319 17/// /2209 11050 21054 39303 40180 56013 69951 7//4/ 333 11049 21107 70011
AAXX 09184 71320 16/// /0000 11136 21146 39992 49994 55000 60001 333 11115 21221 70006
AAXX 09184 71321 16/// /3314 11123 21145 39907 49950 56012 60001 333 11099 21158 70000
AAXX 09184 71322 NIL
AAXX 09184 71323 17/// /1703 10002 21021 39922 40208 58013 60011 7//4/ 333 10004 21068 70011
AAXX 09184 71331 16/// /2403 11208 21248 60001 333 11203 21236 70000
AAXX 09184 71332 NIL
AAXX 09184 71334 NIL
AAXX 09184 71335 46948 02834 11107 53022 6///1 333 11076 21113 7////
AAXX 09184 71336 46/// ///29 10027 21056 30163 40185 53015 6///1 333 10041 20011 7////
AAXX 09184 71337 46/// /2618 11012 21066 39904 40143 53013 6///1 333 11002 21037 7////
AAXX 09184 71338 46264 80000 11147 21160 39953 49960 56021 6///1 333 11146 21176 7////
AAXX 09184 71339 NIL
AAXX 09184 71340 NIL
AAXX 09184 71341 NIL
AAXX 09184 71342 NIL
AAXX 09184 71343 NIL
AAXX 09184 71344 NIL
AAXX 09184 71345 NIL
AAXX 09184 71346 NIL
AAXX 09184 71347 NIL
AAXX 09184 71348 NIL
AAXX 09184 71349 NIL
AAXX 09184 71816 12674 22625 11101 21158 30033 40095 53028 60001 82100 333 11069 21114 70398
AAXX 09184 71817 NIL
AAXX 09184 71818 12574 12625 11072 21123 30001 40019 52049 60001 81100 333 11012 21088 70214
AAXX 09184 71822 12574 72108 11095 21134 39675 40164 57011 60001 87500 333 11090 21147 70008
AAXX 09184 71825 NIL
AAXX 09184 71827 11459 72414 11151 21161 39820 40072 52003 60021 77177 86501 333 11137 21170 47018 70032 90983 93102
AAXX 09184 71828 16964 02514 11163 21220 39431 40088 53018 60001 333 11157 21187 70020
AAXX 09184 71831 12574 42310 11135 21183 30001 40161 50001 60001 84530 333 11127 21170 79999
AAXX 09184 71832 NIL
AAXX 09184 71834 11469 83007 11152 21199 39720 40165 51006 69901 77177 885// 333 11136 21164 48012 70010 90983
AAXX 09184 71841 NIL
AAXX 09184 71842 11459 82709 11162 21214 39710 40203 51011 69901 77177 885// 333 11160 21176 47003 79999 90983
AAXX 09184 71844 16464 32914 11211 21270 39844 40135 52015 60001 333 11190 21222 70000
AAXX 09184 71845 11566 72710 11176 21235 39669 40165 51015 69901 77177 86570 333 11169 21196 43008 79999 90973
AAXX 09184 71850 12574 32710 11162 21223 39708 40234 51011 60001 83500 333 11161 21199 70000
AAXX 09184 71852 16964 02609 11149 21196 39947 40257 51004 60001 333 11148 21205 70000
AAXX 09184 71854 11459 72712 11167 21214 39712 40208 53017 69901 73877 87500 333 11160 21169 48009 79999 90939
AAXX 09184 71858 16/// /3007 11178 21226 39925 40221 51001 60001 333 11178 21204 70000
AAXX 09184 71861 16/// /2606 11137 21251 39491 40251 58011 60001 333 11137 21231 7////
AAXX 09184 71862 12974 12309 11120 21172 39539 40273 58007 60001 81071 333 11120 21192 70000
AAXX 09184 71863 46864 32007 11133 21181 39522 40254 58011 6///1 333 11132 21219 7////
AAXX 09184 71580 11208 80000 11226 21260 30003 40040 56001 69901 72272 886// 333 11183 21268 44030 79999 90946
AAXX 09184 71812 46108 93221 11230 21266 30056 40070 51008 6///1 333 21230 7////
AAXX 09184 71819 17966 02732 11038 21111 30054 40096 51013 60021 7004/ 333 11028 21055 70118
AAXX 09184 71820 17/// /2212 10027 20013 30080 40195 56021 60041 7//4/ 333 10033 20003 70039 555 10010
AAXX 09184 71823 16458 62215 11160 21205 39706 40097 56003 60001 333 11132 21173 70000
AAXX 09184 71824 NIL
AAXX 09184 71826 16/// /1204 11075 21121 39883 49924 58012 60001 333 11062 21080 70029 555 10020
AAXX 09184 71829 16/// /2010 11026 21098 30023 40187 56005 60001 333 11025 21085 70009
AAXX 09184 71833 NIL
AAXX 09184 71835 16/// /2813 11174 21223 39660 40161 51016 60001 333 11168 21195 70000
AAXX 09184 71837 NIL
AAXX 09184 71839 NIL
AAXX 09184 71840 46/// /2718 11129 21201 6///1 333 11127 21181 7////
AAXX 09184 71846 16/// /2710 11184 21233 39815 40144 51012 60001 333 11173 21201 70004
AAXX 09184 71847 NIL
AAXX 09184 71848 NIL
AAXX 09184 71849 16/// /2509 11150 21205 39946 40266 50003 60001 333 11150 21204 70000
AAXX 09184 71051 NIL
AAXX 09184 71055 NIL
AAXX 09184 71057 NIL
AAXX 09184 71059 460// ///// 11193 39947 40039 56003 6///1 333 11153 21231 7////
AAXX 09184 71061 16/// /2206 11007 21066 39349 40145 53002 60001 333 11007 21147 70000
AAXX 09184 71062 46/// /2509 11002 21079 39063 40144 55004 6///1 333 11002 21115 7////
AAXX 09184 71064 460// /0000 11276 39867 40092 55008 6///1 333 11271 21296 7////
AAXX 09184 71065 NIL
AAXX 09184 71067 NIL
AAXX 09184 71070 NIL
AAXX 09184 71073 NIL
AAXX 09184 71074 NIL
AAXX 09184 71075 16/// /2204 11214 21239 39528 40164 58009 60001 333 11211 21252 70000
AAXX 09184 71078 15966 02806 11215 21250 39716 40182 50002 60001 333 11215 21234 70000
AAXX 09184 71084 460// ///// 11230 30013 40062 58001 6///1 333 11230 21278 7////
AAXX 09184 71085 15966 02722 10014 21079 38838 40249 53001 60001 333 10014 21119 70000
AAXX 09184 71087 NIL
AAXX 09184 71088 460// /3610 11145 58006 6///1 333 11131 21177 7////
AAXX 09184 71089 NIL
AAXX 09184 71096 460// ///// 11161 39219 49948 56014 6///1 333 11109 21169 7////
AAXX 09184 71097 47206 80330 11083 39423 49889 56016 6///1 745// 333 11081 21086 7////
AAXX 09184 71098 43/// /2807 11191 21240 39797 40173 51010 6///1 333 11172 21217 7////
AAXX 09184 71099 43/// /2717 11190 21251 30023 40044 51020 6///1 333 11177 21204 7////
AAXX 09184 71114 16964 01016 11002 21059 30247 40296 56014 60001 333 10007 21010 70000
AAXX 09184 71120 11769 62309 11080 21118 39465 40145 57020 69901 70288 81571 333 11080 21221 42003 79999 90922
AAXX 09184 71122 16/// /2508 11091 21139 38644 40302 50006 60001 333 11089 21116 70000
AAXX 09184 71123 12974 32508 11005 21068 39287 40168 55000 60001 81072 333 11004 21189 79999
AAXX 09184 71125 11658 82506 11089 21117 39543 40150 58036 69901 78572 8327/ 333 46997 79999 90926
AAXX 09184 71129 12674 72107 11063 21102 39336 40195 56019 60001 87500 333 11062 21202 70000
AAXX 09184 71131 16/// /2607 11095 21115 38930 40234 58007 60001 333 11095 21197 70000
AAXX 09184 71135 16/// /2412 11115 21174 39119 40251 58010 60001 333 11115 21218 70000
AAXX 09184 71137 NIL
AAXX 09184 71140 12974 42910 11158 21209 39738 40267 58004 60001 80001 333 11155 21208 70000
AAXX 09184 71145 11774 72709 11199 21244 39865 40173 50005 69901 72211 86530 333 11189 21213 48030 70008 90921
AAXX 09184 71148 16/// /2911 11143 21213 39659 40269 50001 60001 333 11143 21192 70000
AAXX 09184 71182 17564 32614 11135 21187 39560 40113 53022 60001 745// 333 11118 21184 70060
AAXX 09184 71185 160// /2626 11001 30133 40157 53009 60001 333 10006 21034 70045
AAXX 09184 71188 12574 72509 11020 21073 30166 40210 56006 60001 84149 333 11020 21083 70004
AAXX 09184 71200 16/// /3606 10033 20012 60001 333 10033 20008 70000
AAXX 09184 71207 16/// /3603 11014 21031 30212 40278 56004 60001 333 11014 21050 70003
AAXX 09184 71260 13/// ///// 11051 21153 39947 40189 50000 60001 333 11049 21101 70000
AAXX 09184 71450 16/// /1808 11107 21122 39469 40216 58023 60001 333 11107 21200 70000
AAXX 09184 71451 16/// /1901 11225 21260 39736 40186 58023 60001 333 11210 21262 70000
AAXX 09184 71452 NIL
AAXX 09184 71453 16/// /2802 11001 21055 39277 40220 56016 60001 333 11001 21208 70000 555 10010
AAXX 09184 71454 NIL
AAXX 09184 71455 NIL
AAXX 09184 71456 16/// /2210 11159 21211 39594 40223 58024 60001 333 11159 21253 70000
AAXX 09184 71457 16/// /2205 11030 21086 39284 40193 58004 60001 333 11030 21180 70000
AAXX 09184 71458 16/// /2510 11008 21062 39367 40157 56007 60001 333 11008 21213 70000
AAXX 09184 71459 16/// /2209 11037 21079 39365 40203 58021 60001 333 11037 21221 70000
AAXX 09184 71460 16/// /2909 11044 21066 39943 40190 58003 60001 333 11032 21053 70000
AAXX 09184 71461 NIL
AAXX 09184 71462 NIL
AAXX 09184 71463 NIL
AAXX 09184 71464 NIL
AAXX 09184 71465 NIL
AAXX 09184 71466 NIL
AAXX 09184 71468 NIL
AAXX 09184 71470 NIL
AAXX 09184 71471 15966 12509 10052 21056 39358 40153 56003 60001 333 10053 21105 70028
AAXX 09184 71473 16/// /3304 10022 21001 30243 40274 55000 60001 333 10022 20005 70000
AAXX 09184 71475 NIL
AAXX 09184 71476 NIL
AAXX 09184 71477 17/// /1908 10044 20038 69961 7//4/ 333 10052 20039 70014
AAXX 09184 71478 NIL
AAXX 09184 71479 NIL
AAXX 09184 71480 NIL
AAXX 09184 71481 NIL
AAXX 09184 71482 NIL
AAXX 09184 71483 NIL
AAXX 09184 71484 NIL
AAXX 09184 71485 16/// /1510 10029 20010 30244 40265 56007 60001 333 10039 20025 70000
AAXX 09184 71486 16/// /1905 11074 21106 39051 40292 58006 60001 333 11071 21144 70000
AAXX 09184 71487 16/// /2311 11103 21151 39341 40246 58009 60001 333 11103 21215 70000
AAXX 09184 71489 16/// /2010 11078 21117 39349 40190 58034 60001 333 11078 21226 70000
AAXX 09184 71490 NIL
AAXX 09184 71491 16/// /09// 11169 21189 60001 333 11021 21281 70000
AAXX 09184 71492 NIL
AAXX 09184 71493 16/// /2205 10059 21026 30213 40252 57007 60001 333 10066 21054 70000
AAXX 09184 71494 16/// /2108 11016 21025 39680 40209 58015 60001 333 11014 21069 70003
AAXX 09184 71495 NIL
AAXX 09184 71496 NIL
AAXX 09184 71497 46/// /0306 11123 21151 39805 40074 56003 6///1 333 11088 21163 7////
AAXX 09184 71498 NIL
AAXX 09184 71499 15966 81805 11188 21221 39498 40155 58021 60001 333 11188 21242 70000
AAXX 09184 71201 16/// ///// 10018 20004 60001 333 10019 21001 70000
AAXX 09184 71202 16/// ///// 10005 21063 60001 333 10005 21187 70021
AAXX 09184 71203 15966 03401 11051 21071 39813 40354 58001 60001 333 11051 21109 70000
AAXX 09184 71209 46/// /3603 10027 6///1 333 10040 20017 7////
AAXX 09184 71211 46/// /0414 10035 21013 30255 40267 56008 6///1 333 10035 20016 7////
AAXX 09184 71212 16/// /2305 11046 21064 39365 40182 57014 60001 333 11045 21128 70006 555 10020
AAXX 09184 71213 46/// /2607 11052 21123 39851 40159 57010 6///1 333 11051 21189 7////
AAXX 09184 71214 NIL
AAXX 09184 71215 46/// /0502 11017 21057 39990 40346 51003 6///1 333 11017 21069 7////
AAXX 09184 71216 16/// /1301 11018 21052 39708 40343 51005 60001 333 11018 21047 70000 555 10010
AAXX 09184 71217 NIL
AAXX 09184 71218 16/// /1902 11046 21065 39907 40351 58003 60001 333 11046 21080 70000
AAXX 09184 71219 46/// /1312 10044 20024 30225 40231 57013 6///1 333 10044 20019 7////
AAXX 09184 71220 46/// /1416 10038 20021 6///1 333 10041 20021 7////
AAXX 09184 71221 NIL
AAXX 09184 71222 16/// /2702 11061 21067 39192 40179 58007 60001 333 11058 21146 70000
AAXX 09184 71223 NIL
AAXX 09184 71224 NIL
AAXX 09184 71225 NIL
AAXX 09184 71226 NIL
AAXX 09184 71227 NIL
AAXX 09184 71228 NIL
AAXX 09184 71229 NIL
AAXX 09184 71230 16/// /2306 10048 21067 39261 40157 51004 60001 333 10048 21096 70000 555 10010
AAXX 09184 71231 16/// /2405 10030 21051 60001 333 10030 21111 70000
AAXX 09184 71232 16/// /2515 11034 21103 38704 40229 51013 60001 333 11029 21118 70000
AAXX 09184 71233 16/// /1403 10013 21085 60001 333 10013 21111 70000
AAXX 09184 71234 16/// /2907 10050 21069 39009 40212 50004 60001 333 10050 21127 70000
AAXX 09184 71235 16/// /3106 10010 21082 60001 333 10010 21119 70000
AAXX 09184 71236 46/// /2910 11036 21112 6///1 333 11036 21116 7////
AAXX 09184 71237 46/// /1602 11052 21104 39358 40198 58004 6///1 333 11052 21179 7////
AAXX 09184 71238 16/// /2703 10011 21065 60001 333 10011 21191 70000
AAXX 09184 71239 16/// /2812 11144 21217 39781 40276 50000 60001 333 11144 21201 70000
AAXX 09184 71240 16/// /0000 11019 21093 39315 40186 56022 60001 333 11017 21196 70000
AAXX 09184 71241 NIL
AAXX 09184 71242 16/// /2004 11038 21088 60001 333 11038 21145 70000
AAXX 09184 71243 NIL
AAXX 09184 71244 NIL
AAXX 09184 71245 NIL
AAXX 09184 71246 NIL
AAXX 09184 71247 15966 02311 11005 21055 39337 40214 57010 60001 333 11005 21144 70000
AAXX 09184 71248 16/// /0000 11078 21129 38871 40203 57008 60001 333 11061 21170 70006
AAXX 09184 71249 NIL
AAXX 09184 71603 12674 82315 10077 21004 30224 40278 55007 60001 81151 333 10080 20019 70000
AAXX 09184 71607 16/// /2205 10047 21031 30220 40253 56010 60001 333 10056 21050 70000
AAXX 09184 71609 12574 72413 10058 21025 30121 40257 55007 60001 82571 333 10062 21028 70000
AAXX 09184 71610 NIL
AAXX 09184 71621 11459 82310 10028 20015 30090 40197 57022 60011 76172 887// 333 10028 20006 70012 90962
AAXX 09184 71623 NIL
AAXX 09184 71624 11569 72514 10029 21009 39983 40198 57012 69901 77182 84530 333 10031 21008 41997 79999 90947
AAXX 09184 71625 17319 93206 11016 21054 30012 40175 56024 60001 745// 333 11008 21049 70000
AAXX 09184 71627 11232 81706 10007 21013 30161 40206 57025 60011 78522 887// 333 10028 21002 41997 70012 90942
AAXX 09184 71628 NIL
AAXX 09184 71630 NIL
AAXX 09184 71631 17/// /2908 11028 21042 39687 40195 56004 60021 7//4/ 333 11011 21029 70039
AAXX 09184 71633 11/08 92710 11025 21051 39918 40194 57004 60021 77372 333 10006 21025 43004 70018 90973 93102
AAXX 09184 71705 12574 42313 10052 21049 30157 40246 56010 60001 82102 333 10054 21038 79999
AAXX 09184 71706 12574 62507 10045 21050 30192 40253 56009 60001 81171 333 10047 21029 79999
AAXX 09184 71707 12674 62409 10032 21049 30184 40262 55002 60001 82172 333 10034 21026 70004
AAXX 09184 71709 12580 62725 10033 21066 30223 40237 53001 60001 81501 333 10040 21015 70004
AAXX 09184 71711 NIL
AAXX 09184 71714 46/// /2405 11002 30130 6///1 333 7////
AAXX 09184 71715 16/// /2107 11001 21049 30012 40196 58016 60001 333 10003 21080 70000
AAXX 09184 71718 12583 62105 11009 21069 30134 40201 58006 60001 83501 333 11007 21060 79999
AAXX 09184 71719 NIL
AAXX 09184 71043 12783 61002 11210 21256 39978 40074 51001 60001 83501 333 11173 21222 48019 70002
AAXX 09184 71045 16/// /0301 11042 21047 39250 40112 51010 60001 333 10012 21156 70000 555 10020
AAXX 09184 71050 46/// /2701 11132 21150 39174 40300 58008 6///1 333 11132 21153 7////
AAXX 09184 71051 NIL
AAXX 09184 71052 NIL
AAXX 09184 71066 12774 80000 11155 21196 39678 40111 58006 60001 86501 333 11155 21312 79999
AAXX 09184 71068 12974 62107 11024 21062 39427 40128 55000 60001 80002 333 11001 21147 79999
AAXX 09184 71069 16964 00000 11081 21103 39425 40148 55003 60001 333 11081 21162 70000
AAXX 09184 71076 16/// /1103 11187 21231 39716 40128 56025 60001 333 11187 21319 70000
AAXX 09184 71077 17/// /1706 11144 21161 39576 40138 56038 69941 7//4/ 333 11144 21241 70007
AAXX 09184 71079 12974 72908 11224 21282 39883 40178 53002 60001 80002 333 11215 21244 79999
AAXX 09184 71081 47164 80604 11137 21146 39987 49999 55001 6///1 745// 333 11116 21218 7////
AAXX 09184 71082 NIL
AAXX 09184 71083 11866 83416 11245 21281 39983 40027 56002 69901 77677 86072 333 11240 21294 48053 79999 90983
AAXX 09184 71090 46664 32914 11165 21198 39933 49968 5/012 6///1 333 7////
AAXX 09184 71091 460// /3308 11190 39765 49975 58010 6///1 333 7////
AAXX 09184 71092 46864 30110 11163 39295 49961 57017 6///1 333 11157 21176 7////
AAXX 09184 71093 460// /0202 11153 39460 49958 57013 6///1 333 11153 21198 7////
AAXX 09184 71094 46022 /3613 11120 39013 49898 57019 6///1 333 11096 21122 7////
AAXX 09184 71095 46564 61705 11195 21221 39922 40003 5/011 6///1 333 7////
AAXX 09184 71101 160// /1402 30217 58016 60001 333 70000
AAXX 09184 71104 12974 61206 11096 21106 39145 40299 56007 60001 82071 333 11092 21143 79999
AAXX 09184 71108 12983 10000 10007 21012 30201 40275 55004 60001 81030 333 10012 21044 70000
AAXX 09184 71109 12280 81804 10012 21001 30242 40269 57004 60001 885// 333 10013 21019 70000
AAXX 09184 71893 12374 82704 10006 21008 30247 40279 57004 60001 886// 333 10006 21022 70000
AAXX 09184 71894 NIL
AAXX 09184 71896 15966 00803 11116 21128 39419 40287 56007 60001 333 11076 21155 70000
AAXX 09184 71897 12366 80910 10032 20016 3//// 4//// 57010 60001 888XX 333 10035 20028 70000
AAXX 09184 71898 160// ///// 10029 57014 60001 333 10030 20005 70005
AAXX 09184 71899 11262 82305 10053 20051 3//// 4//// 57023 69921 76162 882XX 333 10061 20045 70022 90937
AAXX 09184 71902 11874 72930 11104 21193 39962 49971 53041 69961 73687 87020 333 11057 21104 43020 70164 90929
AAXX 09184 71905 NIL
AAXX 09184 71906 NIL
AAXX 09184 71907 17004 91822 11087 21115 39903 49935 58006 69951 74544 333 11082 21108 70015
AAXX 09184 71909 16964 03316 11124 21148 39891 49934 56012 60001 333 11099 21158 70000
AAXX 09184 71910 47006 90206 11099 21107 39889 49951 56006 6///1 745// 333 11075 21119 7////
AAXX 09184 71911 46958 01009 11304 39979 40037 51002 6///1 333 11222 21305 7////
AAXX 09184 71912 11566 82815 11209 21265 39944 40136 50006 69901 77111 885// 333 11208 21223 43011 70004 90921
AAXX 09184 71915 11474 70415 11152 21179 39871 49952 53003 69901 73677 85501 333 11140 21211 48043 79999 90923
AAXX 09184 71917 12774 20000 11338 21389 30096 40111 58017 60001 81502 333 11314 21375 79999
AAXX 09184 71922 12974 81505 11195 21244 39691 40181 57034 60001 8807/ 333 11195 21252 70000
AAXX 09184 71924 NIL
AAXX 09184 71925 12474 23108 11291 21333 30043 40086 56007 60001 81530 333 11281 21300 79999
AAXX 09184 71926 11558 63225 11256 21307 30037 40062 55003 60001 73832 86500 333 11227 21256 70004
AAXX 09184 71928 16/// /1102 11096 21125 38999 40190 56008 60001 333 11060 21173 70000
AAXX 09184 71001 NIL
AAXX 09184 71002 NIL
AAXX 09184 71003 NIL
AAXX 09184 71005 16/// ///// 11008 21064 60001 333 11008 21221 70000
AAXX 09184 71006 NIL
AAXX 09184 71007 NIL
AAXX 09184 71008 NIL
AAXX 09184 71009 NIL
AAXX 09184 71010 NIL
AAXX 09184 71011 NIL
AAXX 09184 71012 NIL
AAXX 09184 71013 NIL
AAXX 09184 71014 NIL
AAXX 09184 71015 NIL
AAXX 09184 71016 NIL
AAXX 09184 71017 NIL
AAXX 09184 71018 NIL
AAXX 09184 71019 NIL
AAXX 09184 71020 NIL
AAXX 09184 71021 NIL
AAXX 09184 71022 15566 61405 10030 20020 30191 40236 57014 60001 333 10030 20005 70006
AAXX 09184 71023 17964 02405 11118 21140 39342 40140 55018 69951 7//44 333 11118 21258 70005
AAXX 09184 71024 NIL
AAXX 09184 71026 NIL
AAXX 09184 71027 16/// /2506 10047 21051 30235 40245 55002 60001 333 10049 21010 70016
AAXX 09184 71028 16/// /3502 11089 21097 39220 40297 57010 60001 333 11089 21122 70000
AAXX 09184 71029 16/// /0811 11229 21252 30022 40062 55001 60001 333 11204 21253 70000
AAXX 09184 71030 16/64 /2209 10073 21015 30157 40247 56013 60001 333 10073 21001 70000
AAXX 09184 71032 46/// /0000 11106 21123 39478 40350 58007 6///1 333 11100 21150 7////
AAXX 09184 71033 46/// /1805 11209 21241 39497 40160 58022 6///1 333 11209 21269 7////
AAXX 09184 71035 NIL
AAXX 09184 71036 15966 02614 11120 21211 39850 40243 58005 60001 333 11120 21167 70000
AAXX 09184 71039 46/// /0000 11108 6///1 333 11107 21182 7////
AAXX 09184 71040 46/// /2308 11026 21082 39984 40187 56010 6///1 333 11020 21075 7////
AAXX 09184 71041 15766 62513 10050 21038 30123 40267 55002 60001 333 10045 21028 70000
AAXX 09184 71042 16/// /0000 11015 21019 30266 40270 55005 60001 333 11015 21069 70000
AAXX 09184 71044 16/// /2508 11084 21100 39741 40060 53006 60001 333 11080 21243 70000
AAXX 09184 71046 460// /0000 11101 30009 40026 52004 6///1 333 11082 21140 7////
AAXX 09184 71047 16/// ///// 11018 21063 60001 333 11018 21208 70004
AAXX 09184 71048 NIL
AAXX 09184 71049 NIL
AAXX 09184 71060 NIL
AAXX 09184 71063 NIL
AAXX 09184 71397 12574 72208 10070 21028 30227 40262 58011 60001 82530 333 10076 21025 79999
AAXX 09184 71400 16/64 /2512 10012 21059 60001 333 10014 21020 70063
AAXX 09184 71403 46/// /2222 10060 20007 30254 40274 56005 6///1 333 10060 20001 7////
AAXX 09184 71411 16/// /2411 10083 21008 30265 40278 58004 60001 333 10088 21030 70006
AAXX 09184 71412 16/// /2612 10049 21048 30239 40249 55003 60001 333 10051 21023 70000
AAXX 09184 71421 NIL
AAXX 09184 71430 17/// /2321 10040 20026 30098 40195 56022 60021 7//4/ 333 10050 20028 70019
AAXX 09184 71431 17/// /2415 10026 20016 30090 40187 56021 60021 7//4/ 333 10030 20006 70022
AAXX 09184 71432 NIL
AAXX 09184 71433 NIL
AAXX 09184 71435 NIL
AAXX 09184 71441 NIL
AAXX 09184 71443 16/// /2213 11181 21241 39802 40237 58012 60001 333 11179 21213 70000
AAXX 09184 71444 16/// /2803 11170 21235 39444 40241 58001 60001 333 11169 21241 70000
AAXX 09184 71447 16/// /2406 11135 21205 39703 40277 58004 60001 333 11133 21216 70000
AAXX 09184 71467 16/// /1114 11219 21239 39931 40048 55007 60001 333 11191 21239 70000 555 10030
AAXX 09184 71472 NIL
AAXX 09184 71474 16020 82004 11108 21115 39022 40314 57012 60001 333 11107 21136 70000
AAXX 09184 71510 16/// /2008 11113 21146 39466 40203 58026 60001 333 11113 21213 70000
AAXX 09184 71538 11459 83009 11010 21044 39990 40225 55004 69941 77177 885// 333 10006 21010 41997 70022 90973
AAXX 09184 71600 17964 02506 10061 21050 30289 40295 55002 69951 7//44 333 10069 20031 70005
AAXX 09184 71601 NIL
AAXX 09184 71930 13974 22808 11028 21087 39217 40167 56002 60003 81071 333 11027 21143 43014 70000
AAXX 09184 71931 16/// /2726 10025 21082 30143 40155 51027 60001 333 10050 21008 70000
AAXX 09184 71934 NIL
AAXX 09184 71935 NIL
AAXX 09184 71936 11448 81105 11162 21187 39829 40099 58009 69901 77177 885// 333 11161 21302 48023 79999 90973
AAXX 09184 71937 NIL
AAXX 09184 71938 11758 82104 11178 21219 30030 40060 57010 60011 77172 885// 333 11170 21269 48026 70010 90962 93102
AAXX 09184 71940 12982 72425 10052 21044 39336 40149 58005 60001 87070 333 10054 21115 70000
AAXX 09184 71943 12974 62320 10019 21063 39297 40141 58008 60001 80001 333 10020 21138 70000
AAXX 09184 71944 160// ///// 11063 57011 60001 333 11062 21100 70000
AAXX 09184 71945 12883 72505 11126 21160 39627 40109 53001 60001 82071 333 11119 21148 79999
AAXX 09184 71946 12674 70000 11176 21209 39870 40091 58013 60001 86571 333 11170 21315 70000
AAXX 09184 71948 46964 00916 11203 39912 40027 55004 6///1 333 11182 21254 7////
AAXX 09184 71949 NIL
AAXX 09184 71951 NIL
AAXX 09184 71957 46764 30706 11141 21192 39939 40028 53004 6///1 333 11120 21167 7////
AAXX 09184 71958 43/// /2602 11061 21070 39203 40162 58007 6///1 333 11060 21144 7////
AAXX 09184 71964 12786 40000 11034 21059 39245 40099 53013 60001 83530 333 10020 21052 79999
AAXX 09184 71966 16/// /2701 11120 21135 39664 40133 53008 60001 333 11111 21151 70000
AAXX 09184 71968 47030 /2128 11076 39952 40016 53009 6///1 745// 333 11076 21130 7////
AAXX 09184 71350 16/// /2508 10042 21043 30177 40244 56010 60001 333 10043 21031 70000
AAXX 09184 71351 NIL
AAXX 09184 71352 NIL
AAXX 09184 71353 NIL
AAXX 09184 71354 NIL
AAXX 09184 71355 16/// /2803 11289 21319 30049 40138 58012 60001 333 11266 21305 70000
AAXX 09184 71356 NIL
AAXX 09184 71357 16/// /0000 11146 21158 39956 49963 57021 60001 333 11145 21176 70000
AAXX 09184 71358 16/// /3013 11164 21186 39932 49967 58011 60001 333 11150 21236 70000 555 10010
AAXX 09184 71359 NIL
AAXX 09184 71360 NIL
AAXX 09184 71361 NIL
AAXX 09184 71362 NIL
AAXX 09184 71363 NIL
AAXX 09184 71364 NIL
AAXX 09184 71365 NIL
AAXX 09184 71368 17458 82411 10003 21017 39803 40199 58012 60001 771// 333 10003 21017 70003
AAXX 09184 71369 15966 11802 11082 21112 39426 40149 55003 60001 333 11082 21155 70000
AAXX 09184 71370 46/// /2107 10012 21020 30054 40192 57019 6///1 333 10012 21046 7////
AAXX 09184 71371 17340 81807 10006 20000 30172 40207 58022 60021 7714/ 333 10023 21019 70020
AAXX 09184 71372 NIL
AAXX 09184 71373 NIL
AAXX 09184 71374 NIL
AAXX 09184 71375 NIL
AAXX 09184 71376 NIL
AAXX 09184 71377 17/// /1703 10008 20000 30152 40201 56026 69951 7//4/ 333 10024 21008 70005
AAXX 09184 71378 16/// /1201 11033 21060 39981 40194 56019 60001 333 11030 21108 70000
AAXX 09184 71379 16/// /2309 11050 21113 39992 40167 58013 60001 333 11046 21136 70000
AAXX 09184 71380 NIL
AAXX 09184 71381 NIL
AAXX 09184 71382 NIL
AAXX 09184 71383 NIL
AAXX 09184 71384 16/// /2409 10009 21026 30197 40205 56013 60001 333 10013 21054 70010
AAXX 09184 71385 NIL
AAXX 09184 71386 16/// /2304 11015 21085 39990 40201 55003 60001 333 11013 21106 70000
AAXX 09184 71387 NIL
AAXX 09184 71388 NIL
AAXX 09184 71389 46/// /2702 11001 21014 6///1 333 10010 21060 7////
AAXX 09184 71390 NIL
AAXX 09184 71391 17/// ///// 11008 21018 60011 7//4/ 333 11004 21042 70011
AAXX 09184 71392 17/// /2406 11002 21019 60011 7//4/ 333 10012 21046 70010
AAXX 09184 71393 NIL
AAXX 09184 71395 12674 62310 10061 21043 30091 40273 56007 60001 81101 333 10066 21039 79999
AAXX 09184 71398 15566 62612 11135 21189 30115 40127 58004 60001 333 11135 21183 70000
AAXX 09184 71399 NIL
AAXX 09184 71864 NIL
AAXX 09184 71865 16/// /2310 11131 21206 39519 40230 58020 60001 333 11131 21212 70000
AAXX 09184 71866 46564 82008 11132 21166 39573 40214 58027 6///1 333 11131 21212 7////
AAXX 09184 71867 12674 82707 11193 21243 39864 40217 58013 60001 81577 333 11192 21220 70000
AAXX 09184 71868 16/// /2405 11181 21265 39766 40231 56015 60001 333 11181 21234 70000
AAXX 09184 71869 12974 51905 11149 21204 39655 40204 58031 60001 81071 333 11149 21220 70000
AAXX 09184 71871 15966 62512 11053 21089 39331 40163 56018 60001 333 11053 21217 70000
AAXX 09184 71877 12986 62110 10016 21082 38919 40209 57002 60001 80001 333 10022 21086 79999
AAXX 09184 71878 12974 22105 11072 21109 39103 40201 58003 60001 81071 333 11043 21123 79999
AAXX 09184 71879 17964 02408 10004 21072 39340 40156 58002 69951 7//44 333 10004 21134 70005
AAXX 09184 71880 12482 70000 11104 21120 39220 40377 52012 60001 87500 333 11094 21148 79999
AAXX 09184 71882 16664 80000 11035 21062 39800 40358 50003 60001 333 11035 21060 70000
AAXX 09184 71883 NIL
AAXX 09184 71887 12486 71208 11071 21090 39918 40359 57009 60001 87500 333 11071 21113 70000
AAXX 09184 71889 12474 80000 11016 21060 39920 40352 52001 60001 885// 333 11015 21030 70000
AAXX 09184 71891 16964 00000 11059 21081 30050 40335 58013 60001 333 11054 21079 70000
AAXX 09184 71892 12583 11302 10010 20006 30271 40276 55005 60001 81500 333 10010 21040 70000
AAXX 09184 71401 16/// /1401 11063 21077 39650 40360 51010 60001 333 11040 21079 70000
AAXX 09184 71402 NIL
AAXX 09184 71404 NIL
AAXX 09184 71405 NIL
AAXX 09184 71406 NIL
AAXX 09184 71407 NIL
AAXX 09184 71408 NIL
AAXX 09184 71409 NIL
AAXX 09184 71410 15966 12807 11201 21244 39905 40199 51002 60001 333 11187 21216 70000
AAXX 09184 71413 NIL
AAXX 09184 71414 NIL
AAXX 09184 71415 16/// /2110 10056 21022 30251 40254 56008 60001 333 10056 21020 70000
AAXX 09184 71417 NIL
AAXX 09184 71418 NIL
AAXX 09184 71419 46/// /2315 10054 21017 30260 40270 56008 6///1 333 10057 21014 7////
AAXX 09184 71423 NIL
AAXX 09184 71424 46/// /2313 6///1 333 7////
AAXX 09184 71425 NIL
AAXX 09184 71426 NIL
AAXX 09184 71427 16/// /2622 11016 21068 30183 40191 58004 60001 333 11011 21054 70010
AAXX 09184 71428 NIL
AAXX 09184 71429 NIL
AAXX 09184 71434 NIL
AAXX 09184 71436 17224 82003 10005 20000 39956 40194 58018 60011 7714/ 333 10005 21014 70010
AAXX 09184 71437 NIL
AAXX 09184 71438 NIL
AAXX 09184 71439 NIL
AAXX 09184 71440 NIL
AAXX 09184 71442 NIL
AAXX 09184 71445 NIL
AAXX 09184 71446 17/// /2112 11077 21121 39197 40220 58022 69971 7//4/ 333 11077 21214 70007
AAXX 09184 71448 NIL
AAXX 09184 71449 NIL
AAXX 09184 71550 NIL
AAXX 09184 71551 NIL
AAXX 09184 71552 NIL
AAXX 09184 71553 NIL
AAXX 09184 71554 NIL
AAXX 09184 71555 16/// /2710 10047 21102 38635 40220 50005 60001 333 10050 21081 70005
AAXX 09184 71556 NIL
AAXX 09184 71557 46/// /0801 11078 21092 6///1 333 11078 21114 7////
AAXX 09184 71558 NIL
AAXX 09184 71559 17/// /2208 11120 21167 39539 40274 58007 60131 7//4/ 333 11120 21191 7////
AAXX 09184 71560 16/// /2807 11126 21207 39945 40275 50001 60001 333 11122 21208 70000
AAXX 09184 71563 NIL
AAXX 09184 71564 NIL
AAXX 09184 71565 NIL
AAXX 09184 71566 NIL
AAXX 09184 71567 NIL
AAXX 09184 71568 16/// /1208 10011 20000 30263 40276 57006 60001 333 10023 21001 70000
AAXX 09184 71569 16/// /2009 11115 21156 39504 40236 58014 60001 333 11115 21202 70000
AAXX 09184 71570 16/// /2906 11159 21227 39916 40244 50006 60001 333 11158 21189 70000
AAXX 09184 71571 NIL
AAXX 09184 71572 NIL
AAXX 09184 71573 17/// /2806 10007 21013 39911 40197 58011 69931 7//4/ 333 10007 21012 70003
AAXX 09184 71574 12574 22304 10009 21070 30149 40224 55009 60001 81472 333 10012 21083 79999
AAXX 09184 71575 NIL
AAXX 09184 71576 NIL
AAXX 09184 71577 NIL
AAXX 09184 71578 16/// /2308 10000 21019 60001 333 10014 21041 70000
AAXX 09184 71579 16/// /2803 11146 21226 39954 40252 50004 60001 333 11146 21176 70000
AAXX 09184 71580 11216 80000 11226 21260 30003 40040 56001 69901 72272 886// 333 11183 21268 44030 79999 90946
AAXX 09184 71581 NIL
AAXX 09184 71582 15566 81504 10002 20002 30223 40277 56009 60001 333 10002 21031 70000
AAXX 09184 71583 NIL
AAXX 09184 71584 15966 02813 11044 21121 30136 40185 53009 60001 333 11042 21094 70000
AAXX 09184 71585 NIL
AAXX 09184 71586 16/// /1505 11195 21231 39689 40178 58033 60001 333 11195 21250 70000
AAXX 09184 71587 NIL
AAXX 09184 71588 NIL
AAXX 09184 71589 16/// /2617 10008 21091 30054 40188 51017 60001 333 10019 21015 70046
AAXX 09184 71590 16/// /1704 10004 21040 30018 40213 56012 60001 333 10008 21129 70000
AAXX 09184 71592 NIL
AAXX 09184 71593 NIL
AAXX 09184 71596 NIL
AAXX 09184 71598 16/64 /2210 10015 21070 30219 40225 55004 60001 333 10017 21061 70010
AAXX 09184 71599 16/// /2603 10064 20004 30068 40274 57008 60001 333 10072 21033 70000
AAXX 09184 71621 11459 82310 10028 20015 30090 40197 57022 60011 76172 887// 333 10028 20002 70012 90962
AAXX 09184 71900 46/// /26// 11098 21155 39963 49976 51050 6///1 333 11038 21099 7////
AAXX 09184 71903 NIL
AAXX 09184 71904 NIL
AAXX 09184 71914 16/// /3501 10018 20001 30049 40275 55004 60001 333 10021 20009 70000
AAXX 09184 71916 NIL
AAXX 09184 71918 460// ///// 11212 6///1 333 7////
AAXX 09184 71920 NIL
AAXX 09184 71921 NIL
AAXX 09184 71923 NIL
AAXX 09184 71927 NIL
AAXX 09184 71941 15966 02110 11061 21109 39737 40162 58014 60001 333 11059 21182 70010
AAXX 09184 71947 17520 82106 11110 21125 39786 40143 58017 60001 771// 333 11110 21194 70008
AAXX 09184 71700 15966 12312 10053 21062 30217 40243 56012 60001 333 10060 21046 70000
AAXX 09184 71701 12574 72411 10057 21067 30182 40245 56010 60001 81142 333 10057 21034 79999
AAXX 09184 71702 16/// /2510 10033 21037 30227 40242 55004 60001 333 10041 21027 70000
AAXX 09184 71703 12574 81912 11010 21027 39922 40226 55009 60001 8257/ 333 11007 21086 79999
AAXX 09184 71704 17564 82909 11015 21040 39992 40217 58003 60001 771// 333 10003 21020 70000
AAXX 09184 71710 NIL
AAXX 09184 71712 17/// /1201 10011 20003 30140 40201 56027 60011 7//4/ 333 10021 20000 70012
AAXX 09184 71713 17/// /2213 10007 21026 60011 7//4/ 333 10008 21049 70010
AAXX 09184 71716 NIL
AAXX 09184 71717 NIL
AAXX 09184 71720 16/// /0000 11010 21011 30125 40282 58002 60001 333 11007 21027 70000
AAXX 09184 71721 NIL
AAXX 09184 71723 16/// /1906 10010 21009 30193 40203 58018 60001 333 10020 21022 70000
AAXX 09184 71724 NIL
AAXX 09184 71732 16/// /0000 11037 21081 60001 333 11036 21057 70000
AAXX 09184 71733 16/// /2407 11059 21115 39732 40175 58010 60001 333 11055 21153 70008 555 10010
AAXX 09184 71734 16/// /2311 11063 21133 39749 40149 58013 60001 333 11063 21149 70010
AAXX 09184 71736 NIL
AAXX 09184 71737 NIL
AAXX 09184 71741 16/// /1106 11072 21092 39913 40354 58009 60001 333 11072 21112 70000
AAXX 09184 71742 NIL
AAXX 09184 71743 NIL
AAXX 09184 71744 NIL
AAXX 09184 71745 NIL
AAXX 09184 71746 NIL
AAXX 09184 71747 NIL
AAXX 09184 71748 NIL
AAXX 09184 71102 NIL
AAXX 09184 71105 NIL
AAXX 09184 71107 NIL
AAXX 09184 71110 NIL
AAXX 09184 71111 16566 81502 10040 20025 30219 40227 58015 60001 333 10052 20014 70000
AAXX 09184 71112 17/// ///// 69921 7//4/ 333 70002
AAXX 09184 71113 16/// /0207 10028 21038 30246 40270 55003 60001 333 10033 20011 70000
AAXX 09184 71115 16/// /1003 11049 21072 39742 40347 58003 60001 333 11049 21088 70000
AAXX 09184 71116 16/// /1702 10001 21088 39114 40232 58005 60001 333 10002 21093 70000
AAXX 09184 71118 16/// /2308 11027 21080 39318 40167 56007 60001 333 11026 21210 70000
AAXX 09184 71121 16964 02611 11008 21092 39317 40154 58003 60001 333 11008 21174 70000
AAXX 09184 71127 16/// /2710 11014 21079 39234 40168 50000 60001 333 11014 21137 70000
AAXX 09184 71130 15966 61807 11175 21236 39742 40222 58021 60001 333 11175 21228 70000
AAXX 09184 71132 15966 80906 11195 21219 39823 40151 58023 60001 333 11195 21226 70000
AAXX 09184 71133 NIL
AAXX 09184 71139 16/// /2706 10000 21060 38717 40210 58003 60001 333 10000 21171 70000
AAXX 09184 71141 NIL
AAXX 09184 71142 15866 82018 11076 21111 39212 40219 58020 60001 333 11076 21217 70000
AAXX 09184 71143 NIL
AAXX 09184 71144 NIL
AAXX 09184 71147 16/// /3010 11125 21215 60001 333 11124 21183 70000
AAXX 09184 71149 16/// /3209 11107 21233 60001 333 11107 21180 70000
AAXX 09184 71726 16/// /2104 11055 21105 39622 40174 57016 60001 333 11055 21111 70007 555 10010
AAXX 09184 71727 11566 82608 11024 21056 39995 40196 56010 69901 78522 885// 333 11020 21084 47003 70008 90910
AAXX 09184 71728 12686 62407 11039 21090 39962 40188 57012 60001 83501 333 11038 21078 79999
AAXX 09184 71730 11574 72512 11059 21112 39740 40176 58011 69901 70282 87500 333 11055 21119 47009 70006 90925
AAXX 09184 71731 11362 82612 11048 21080 39710 40170 58011 69921 77182 8652/ 333 11042 21067 47001 70002 90942
AAXX 09184 71735 NIL
AAXX 09184 71738 11466 60000 11108 21138 39808 40173 50006 69901 71572 86500 333 11108 21149 47017 70012 90936
AAXX 09184 71739 41469 72708 11106 21135 39786 40161 51008 6//// 77172 87500 333 11105 21189 4//// 7//// 90937
AAXX 09184 71749 16564 32912 11126 21184 39948 40204 50002 60001 333 11125 21170 70000
AAXX 09184 71799 12380 62806 10016 20003 30253 40278 55003 60001 86500 333 10017 21027 70000
AAXX 09184 71800 16/// /2723 10029 21024 30211 40244 51017 60001 333 10047 20008 70033
AAXX 09184 71801 12574 42722 10015 21072 30042 40217 51022 60001 81101 333 10027 20001 70044
AAXX 09184 71803 12680 22521 10009 21089 39997 40185 51018 60001 82501 333 10013 21016 70044
AAXX 09184 71807 NIL
AAXX 09184 71808 NIL
AAXX 09184 71809 11574 72811 10012 21073 30160 40188 53009 60011 78588 87500 333 10013 21016 41997 70050 90983 93101
AAXX 09184 71810 16/// /2710 11035 21094 30121 40189 51007 60001 333 11022 21062 70068
AAXX 09184 71811 NIL
AAXX 09184 71813 NIL
AAXX 09184 71814 16/// /2625 11018 21123 30146 40156 53008 60001 333 11014 21073 70213
AAXX 09184 71815 11474 62820 10022 21077 30179 40210 53005 69901 70282 86500 333 10027 21007 70022 90930
AAXX 09184 60135 31940 61302 10143 20129 40239 52007 71022 83602 333 10173 87070
AAXX 09184 71816 12674 22625 11101 21158 30033 40095 53028 60001 82100 333 11069 21114 70398
AAXX 09184 71817 NIL
AAXX 09184 71818 12574 12625 11072 21123 30001 40019 52049 60001 81100 333 11012 21088 70214
AAXX 09184 71822 12574 72108 11095 21134 39675 40164 57011 60001 87500 333 11090 21147 70008
AAXX 09184 71825 NIL
AAXX 09184 71827 11459 72414 11151 21161 39820 40072 52003 60021 77177 86501 333 11137 21170 47018 70032 90983 93102
AAXX 09184 71828 16964 02514 11163 21220 39431 40088 53018 60001 333 11157 21187 70020
AAXX 09184 71831 12574 42310 11135 21183 30001 40161 50001 60001 84530 333 11127 21170 79999
AAXX 09184 71832 NIL
AAXX 09184 71834 11469 83007 11152 21199 39720 40165 51006 69901 77177 885// 333 11136 21164 48012 70010 90983
AAXX 09184 71841 NIL
AAXX 09184 71842 11459 82709 11162 21214 39710 40203 51011 69901 77177 885// 333 11160 21176 47003 79999 90983
AAXX 09184 71844 16464 32914 11211 21270 39844 40135 52015 60001 333 11190 21222 70000
AAXX 09184 71845 11566 72710 11176 21235 39669 40165 51015 69901 77177 86570 333 11169 21196 43008 79999 90973
AAXX 09184 71850 12574 32710 11162 21223 39708 40234 51011 60001 83500 333 11161 21199 70000
AAXX 09184 71852 16964 02609 11149 21196 39947 40257 51004 60001 333 11148 21205 70000
AAXX 09184 71854 11459 72712 11167 21214 39712 40208 53017 69901 73877 87500 333 11160 21169 48009 79999 90939
AAXX 09184 71858 16/// /3007 11178 21226 39925 40221 51001 60001 333 11178 21204 70000
AAXX 09184 71861 16/// /2606 11137 21251 39491 40251 58011 60001 333 11137 21231 7////
AAXX 09184 71862 12974 12309 11120 21172 39539 40273 58007 60001 81071 333 11120 21192 70000
AAXX 09184 71863 46864 32007 11133 21181 39522 40254 58011 6///1 333 11132 21219 7////
AAXX 09184 71397 12574 72208 10070 21028 30227 40262 58011 60001 82530 333 10076 21025 79999
AAXX 09184 71400 16/64 /2512 10012 21059 60001 333 10014 21020 70063
AAXX 09184 71403 46/// /2222 10060 20007 30254 40274 56005 6///1 333 10060 20001 7////
AAXX 09184 71411 16/// /2411 10083 21008 30265 40278 58004 60001 333 10088 21030 70006
AAXX 09184 71412 16/// /2612 10049 21048 30239 40249 55003 60001 333 10051 21023 70000
AAXX 09184 71421 NIL
AAXX 09184 71430 17/// /2321 10040 20026 30098 40195 56022 60021 7//4/ 333 10050 20028 70019
AAXX 09184 71431 17/// /2415 10026 20016 30090 40187 56021 60021 7//4/ 333 10030 20006 70022
AAXX 09184 71432 NIL
AAXX 09184 71433 NIL
AAXX 09184 71435 NIL
AAXX 09184 71441 NIL
AAXX 09184 71443 16/// /2213 11181 21241 39802 40237 58012 60001 333 11179 21213 70000
AAXX 09184 71444 16/// /2803 11170 21235 39444 40241 58001 60001 333 11169 21241 70000
AAXX 09184 71447 16/// /2406 11135 21205 39703 40277 58004 60001 333 11133 21216 70000
AAXX 09184 71467 16/// /1114 11219 21239 39931 40048 55007 60001 333 11191 21239 70000 555 10030
AAXX 09184 71472 NIL
AAXX 09184 71474 16020 82004 11108 21115 39022 40314 57012 60001 333 11107 21136 70000
AAXX 09184 71510 16/// /2008 11113 21146 39466 40203 58026 60001 333 11113 21213 70000
AAXX 09184 71538 11459 83009 11010 21044 39990 40225 55004 69941 77177 885// 333 10006 21010 41997 70022 90973
AAXX 09184 71600 17964 02506 10061 21050 30289 40295 55002 69951 7//44 333 10069 20031 70005
AAXX 09184 71601 NIL
AAXX 09184 71603 12674 82315 10077 21004 30224 40278 55007 60001 81151 333 10080 20019 70000
AAXX 09184 71607 16/// /2205 10047 21031 30220 40253 56010 60001 333 10056 21050 70000
AAXX 09184 71609 12574 72413 10058 21025 30121 40257 55007 60001 82571 333 10062 21028 70000
AAXX 09184 71610 NIL
AAXX 09184 71621 11459 82310 10028 20015 30090 40197 57022 60011 76172 887// 333 10028 20006 70012 90962
AAXX 09184 71623 NIL
AAXX 09184 71624 11569 72514 10029 21009 39983 40198 57012 69901 77182 84530 333 10031 21008 41997 79999 90947
AAXX 09184 71625 17319 93206 11016 21054 30012 40175 56024 60001 745// 333 11008 21049 70000
AAXX 09184 71627 11232 81706 10007 21013 30161 40206 57025 60011 78522 887// 333 10028 21002 41997 70012 90942
AAXX 09184 71628 NIL
AAXX 09184 71630 NIL
AAXX 09184 71631 17/// /2908 11028 21042 39687 40195 56004 60021 7//4/ 333 11011 21029 70039
AAXX 09184 71633 11/08 92710 11025 21051 39918 40194 57004 60021 77372 333 10006 21025 43004 70018 90973 93102
AAXX 09184 71705 12574 42313 10052 21049 30157 40246 56010 60001 82102 333 10054 21038 79999
AAXX 09184 71706 12574 62507 10045 21050 30192 40253 56009 60001 81171 333 10047 21029 79999
AAXX 09184 71707 12674 62409 10032 21049 30184 40262 55002 60001 82172 333 10034 21026 70004
AAXX 09184 71709 12580 62725 10033 21066 30223 40237 53001 60001 81501 333 10040 21015 70004
AAXX 09184 71711 NIL
AAXX 09184 71714 46/// /2405 11002 30130 6///1 333 7////
AAXX 09184 71715 16/// /2107 11001 21049 30012 40196 58016 60001 333 10003 21080 70000
AAXX 09184 71718 12583 62105 11009 21069 30134 40201 58006 60001 83501 333 11007 21060 79999
AAXX 09184 71719 NIL
AAXX 09184 71864 NIL
AAXX 09184 71865 16/// /2310 11131 21206 39519 40230 58020 60001 333 11131 21212 70000
AAXX 09184 71866 46564 82008 11132 21166 39573 40214 58027 6///1 333 11131 21212 7////
AAXX 09184 71867 12674 82707 11193 21243 39864 40217 58013 60001 81577 333 11192 21220 70000
AAXX 09184 71868 16/// /2405 11181 21265 39766 40231 56015 60001 333 11181 21234 70000
AAXX 09184 71869 12974 51905 11149 21204 39655 40204 58031 60001 81071 333 11149 21220 70000
AAXX 09184 71871 15966 62512 11053 21089 39331 40163 56018 60001 333 11053 21217 70000
AAXX 09184 71877 12986 62110 10016 21082 38919 40209 57002 60001 80001 333 10022 21086 79999
AAXX 09184 71878 12974 22105 11072 21109 39103 40201 58003 60001 81071 333 11043 21123 79999
AAXX 09184 71879 17964 02408 10004 21072 39340 40156 58002 69951 7//44 333 10004 21134 70005
AAXX 09184 71880 12482 70000 11104 21120 39220 40377 52012 60001 87500 333 11094 21148 79999
AAXX 09184 71882 16664 80000 11035 21062 39800 40358 50003 60001 333 11035 21060 70000
AAXX 09184 71883 NIL
AAXX 09184 71887 12486 71208 11071 21090 39918 40359 57009 60001 87500 333 11071 21113 70000
AAXX 09184 71889 12474 80000 11016 21060 39920 40352 52001 60001 885// 333 11015 21030 70000
AAXX 09184 71891 16964 00000 11059 21081 30050 40335 58013 60001 333 11054 21079 70000
AAXX 09184 71892 12583 11302 10010 20006 30271 40276 55005 60001 81500 333 10010 21040 70000
AAXX 09184 71114 16964 01016 11002 21059 30247 40296 56014 60001 333 10007 21010 70000
AAXX 09184 71120 11769 62309 11080 21118 39465 40145 57020 69901 70288 81571 333 11080 21221 42003 79999 90922
AAXX 09184 71122 16/// /2508 11091 21139 38644 40302 50006 60001 333 11089 21116 70000
AAXX 09184 71123 12974 32508 11005 21068 39287 40168 55000 60001 81072 333 11004 21189 79999
AAXX 09184 71125 11658 82506 11089 21117 39543 40150 58036 69901 78572 8327/ 333 46997 79999 90926
AAXX 09184 71129 12674 72107 11063 21102 39336 40195 56019 60001 87500 333 11062 21202 70000
AAXX 09184 71131 16/// /2607 11095 21115 38930 40234 58007 60001 333 11095 21197 70000
AAXX 09184 71135 16/// /2412 11115 21174 39119 40251 58010 60001 333 11115 21218 70000
AAXX 09184 71137 NIL
AAXX 09184 71140 12974 42910 11158 21209 39738 40267 58004 60001 80001 333 11155 21208 70000
AAXX 09184 71145 11774 72709 11199 21244 39865 40173 50005 69901 72211 86530 333 11189 21213 48030 70008 90921
AAXX 09184 71148 16/// /2911 11143 21213 39659 40269 50001 60001 333 11143 21192 70000
AAXX 09184 71182 17564 32614 11135 21187 39560 40113 53022 60001 745// 333 11118 21184 70060
AAXX 09184 71185 160// /2626 11001 30133 40157 53009 60001 333 10006 21034 70045
AAXX 09184 71188 12574 72509 11020 21073 30166 40210 56006 60001 84149 333 11020 21083 70004
AAXX 09184 71200 16/// /3606 10033 20012 60001 333 10033 20008 70000
AAXX 09184 71207 16/// /3603 11014 21031 30212 40278 56004 60001 333 11014 21050 70003
AAXX 09184 71260 13/// ///// 11051 21153 39947 40189 50000 60001 333 11049 21101 70000
AAXX 09184 71043 12783 61002 11210 21256 39978 40074 51001 60001 83501 333 11173 21222 48019 70002
AAXX 09184 71045 16/// /0301 11042 21047 39250 40112 51010 60001 333 10012 21156 70000 555 10020
AAXX 09184 71050 46/// /2701 11132 21150 39174 40300 58008 6///1 333 11132 21153 7////
AAXX 09184 71051 NIL
AAXX 09184 71052 NIL
AAXX 09184 71066 12774 80000 11155 21196 39678 40111 58006 60001 86501 333 11155 21312 79999
AAXX 09184 71068 12974 62107 11024 21062 39427 40128 55000 60001 80002 333 11001 21147 79999
AAXX 09184 71069 16964 00000 11081 21103 39425 40148 55003 60001 333 11081 21162 70000
AAXX 09184 71076 16/// /1103 11187 21231 39716 40128 56025 60001 333 11187 21319 70000
AAXX 09184 71077 17/// /1706 11144 21161 39576 40138 56038 69941 7//4/ 333 11144 21241 70007
AAXX 09184 71079 12974 72908 11224 21282 39883 40178 53002 60001 80002 333 11215 21244 79999
AAXX 09184 71081 47164 80604 11137 21146 39987 49999 55001 6///1 745// 333 11116 21218 7////
AAXX 09184 71082 NIL
AAXX 09184 71083 11866 83416 11245 21281 39983 40027 56002 69901 77677 86072 333 11240 21294 48053 79999 90983
AAXX 09184 71090 46664 32914 11165 21198 39933 49968 5/012 6///1 333 7////
AAXX 09184 71091 460// /3308 11190 39765 49975 58010 6///1 333 7////
AAXX 09184 71092 46864 30110 11163 39295 49961 57017 6///1 333 11157 21176 7////
AAXX 09184 71093 460// /0202 11153 39460 49958 57013 6///1 333 11153 21198 7////
AAXX 09184 71094 46022 /3613 11120 39013 49898 57019 6///1 333 11096 21122 7////
AAXX 09184 71095 46564 61705 11195 21221 39922 40003 5/011 6///1 333 7////
AAXX 09184 71101 160// /1402 30217 58016 60001 333 70000
AAXX 09184 71104 12974 61206 11096 21106 39145 40299 56007 60001 82071 333 11092 21143 79999
AAXX 09184 71108 12983 10000 10007 21012 30201 40275 55004 60001 81030 333 10012 21044 70000
AAXX 09184 71109 12280 81804 10012 21001 30242 40269 57004 60001 885// 333 10013 21019 70000
AAXX 09184 71893 12374 82704 10006 21008 30247 40279 57004 60001 886// 333 10006 21022 70000
AAXX 09184 71894 NIL
AAXX 09184 71896 15966 00803 11116 21128 39419 40287 56007 60001 333 11076 21155 70000
AAXX 09184 71897 12366 80910 10032 20016 3//// 4//// 57010 60001 888XX 333 10035 20028 70000
AAXX 09184 71898 160// ///// 10029 57014 60001 333 10030 20005 70005
AAXX 09184 71899 11262 82305 10053 20051 3//// 4//// 57023 69921 76162 882XX 333 10061 20045 70022 90937
AAXX 09184 71902 11874 72930 11104 21193 39962 49971 53041 69961 73687 87020 333 11057 21104 43020 70164 90929
AAXX 09184 71905 NIL
AAXX 09184 71906 NIL
AAXX 09184 71907 17004 91822 11087 21115 39903 49935 58006 69951 74544 333 11082 21108 70015
AAXX 09184 71909 16964 03316 11124 21148 39891 49934 56012 60001 333 11099 21158 70000
AAXX 09184 71910 47006 90206 11099 21107 39889 49951 56006 6///1 745// 333 11075 21119 7////
AAXX 09184 71911 46958 01009 11304 39979 40037 51002 6///1 333 11222 21305 7////
AAXX 09184 71912 11566 82815 11209 21265 39944 40136 50006 69901 77111 885// 333 11208 21223 43011 70004 90921
AAXX 09184 71915 11474 70415 11152 21179 39871 49952 53003 69901 73677 85501 333 11140 21211 48043 79999 90923
AAXX 09184 71917 12774 20000 11338 21389 30096 40111 58017 60001 81502 333 11314 21375 79999
AAXX 09184 71922 12974 81505 11195 21244 39691 40181 57034 60001 8807/ 333 11195 21252 70000
AAXX 09184 71924 NIL
AAXX 09184 71925 12474 23108 11291 21333 30043 40086 56007 60001 81530 333 11281 21300 79999
AAXX 09184 71926 11558 63225 11256 21307 30037 40062 55003 60001 73832 86500 333 11227 21256 70004
AAXX 09184 71928 16/// /1102 11096 21125 38999 40190 56008 60001 333 11060 21173 70000
AAXX 09184 71930 13974 22808 11028 21087 39217 40167 56002 60003 81071 333 11027 21143 43014 70000
AAXX 09184 71931 16/// /2726 10025 21082 30143 40155 51027 60001 333 10050 21008 70000
AAXX 09184 71934 NIL
AAXX 09184 71935 NIL
AAXX 09184 71936 11448 81105 11162 21187 39829 40099 58009 69901 77177 885// 333 11161 21302 48023 79999 90973
AAXX 09184 71937 NIL
AAXX 09184 71938 11758 82104 11178 21219 30030 40060 57010 60011 77172 885// 333 11170 21269 48026 70010 90962 93102
AAXX 09184 71940 12982 72425 10052 21044 39336 40149 58005 60001 87070 333 10054 21115 70000
AAXX 09184 71943 12974 62320 10019 21063 39297 40141 58008 60001 80001 333 10020 21138 70000
AAXX 09184 71944 160// ///// 11063 57011 60001 333 11062 21100 70000
AAXX 09184 71945 12883 72505 11126 21160 39627 40109 53001 60001 82071 333 11119 21148 79999
AAXX 09184 71946 12674 70000 11176 21209 39870 40091 58013 60001 86571 333 11170 21315 70000
AAXX 09184 71948 46964 00916 11203 39912 40027 55004 6///1 333 11182 21254 7////
AAXX 09184 71949 NIL
AAXX 09184 71951 NIL
AAXX 09184 71957 46764 30706 11141 21192 39939 40028 53004 6///1 333 11120 21167 7////
AAXX 09184 71958 43/// /2602 11061 21070 39203 40162 58007 6///1 333 11060 21144 7////
AAXX 09184 71964 12786 40000 11034 21059 39245 40099 53013 60001 83530 333 10020 21052 79999
AAXX 09184 71966 16/// /2701 11120 21135 39664 40133 53008 60001 333 11111 21151 70000
AAXX 09184 71968 47030 /2128 11076 39952 40016 53009 6///1 745// 333 11076 21130 7////
AAXX 09184 71726 16/// /2104 11055 21105 39622 40174 57016 60001 333 11055 21111 70007 555 10010
AAXX 09184 71727 11566 82608 11024 21056 39995 40196 56010 69901 78522 885// 333 11020 21084 47003 70008 90910
AAXX 09184 71728 12686 62407 11039 21090 39962 40188 57012 60001 83501 333 11038 21078 79999
AAXX 09184 71730 11574 72512 11059 21112 39740 40176 58011 69901 70282 87500 333 11055 21119 47009 70006 90925
AAXX 09184 71731 11362 82612 11048 21080 39710 40170 58011 69921 77182 8652/ 333 11042 21067 47001 70002 90942
AAXX 09184 71735 NIL
AAXX 09184 71738 11466 60000 11108 21138 39808 40173 50006 69901 71572 86500 333 11108 21149 47017 70012 90936
AAXX 09184 71739 41469 72708 11106 21135 39786 40161 51008 6//// 77172 87500 333 11105 21189 4//// 7//// 90937
AAXX 09184 71749 16564 32912 11126 21184 39948 40204 50002 60001 333 11125 21170 70000
AAXX 09184 71799 12380 62806 10016 20003 30253 40278 55003 60001 86500 333 10017 21027 70000
AAXX 09184 71800 16/// /2723 10029 21024 30211 40244 51017 60001 333 10047 20008 70033
AAXX 09184 71801 12574 42722 10015 21072 30042 40217 51022 60001 81101 333 10027 20001 70044
AAXX 09184 71803 12680 22521 10009 21089 39997 40185 51018 60001 82501 333 10013 21016 70044
AAXX 09184 71807 NIL
AAXX 09184 71808 NIL
AAXX 09184 71809 11574 72811 10012 21073 30160 40188 53009 60011 78588 87500 333 10013 21016 41997 70050 90983 93101
AAXX 09184 71810 16/// /2710 11035 21094 30121 40189 51007 60001 333 11022 21062 70068
AAXX 09184 71811 NIL
AAXX 09184 71813 NIL
AAXX 09184 71814 16/// /2625 11018 21123 30146 40156 53008 60001 333 11014 21073 70213
AAXX 09184 71815 11474 62820 10022 21077 30179 40210 53005 69901 70282 86500 333 10027 21007 70022 90930
AAXX 09184 71621 11459 82310 10028 20015 30090 40197 57022 60011 76172 887// 333 10028 20002 70012 90962
AAXX 09181 01473 11560 80000 11001 21005 39568 49772 53033 60072 70352 87570 333 10021 91107
AAXX 09181 01277 16/// /0603 10022 21034 60002 333 10035 91111
AAXX 09181 01476 16/// /2803 10039 20006 39770 49776 53033 6//// 333 10068 91108
AAXX 09181 01015 46/// /1606 10003 21038 333 10008 91114
AAXX 09181 01167 31687 23201 11003 21082 39985 49989 55001 70200 81108 333 10015 91109
AAXX 09181 01180 11675 50804 10012 21063 39945 40002 52002 60002 70322 81147 333 10017 91109
AAXX 09181 01425 16/// /3607 10023 21001 39757 49836 53036 60552 333 10051 91117
AAXX 09181 01450 16/// /2402 11044 21059 38653 49780 52023 69952 333 11026 91112
AAXX 09184 06011 07457 73025 11020 21085 39936 40006 52009 60012 74187 333 11014 21032 55300 20000 69947 81/13 83/37 85/44 87/57 91148
AAXX 09181 01265 16/// /0000 11086 21098 39204 49791 52011 60002 333 11023 91101
AAXX 09181 01375 16/// /3403 11066 21072 6//// 333 11056 91105
AAXX 09181 01440 46/// /2918 11037 21041 38520 49778 53013 333 11029 91120
AAXX 09181 01441 16/// /2803 11019 21036 38813 49778 51025 60012 333 11011 91109
AAXX 09181 01469 16/// /3501 10013 21019 39601 49769 53032 69962 333 10024 91110
AAXX 09181 01092 46/// /2802 11022 21051 333 11011 91109
AAXX 09181 01199 11570 81205 11051 21062 39580 40054 54002 60002 70221 885// 333 11034 91106
AAXX 09181 01262 46/// /1021 10039 21025 333 10043 91128
AAXX 09181 01374 11589 20000 11046 21052 60042 70110 81440 333 11010
AAXX 09181 01393 16/// /0201 11038 21047 38979 49768 52008 6//// 333 11030 91108
AAXX 09181 01436 11230 82923 10046 20030 60242 78082 889// 333 10076 91139
AAXX 09184 17042 11560 71004 10064 20056 30212 40252 52018 60182 78088 84250 333 10113 84830 87358 92437
AAXX 09184 17074 11665 62004 10007 21018 39318 40283 52018 69922 70172 83250 333 10035 83835 86360 93100
AAXX 09184 17086 11670 81104 10026 20012 39508 40246 52016 69912 72372 8552/ 333 10034 85635 88460
AAXX 09184 17088 11670 82805 10010 21038 38806 48504 52017 69922 70272 8452/ 333 10046 84638 88460 93100
AAXX 09184 17140 12665 70304 11009 21026 38733 48514 52017 60022 87200 333 10013 87840
AAXX 09184 17155 12970 02202 11011 21046 39138 40302 52012 60002 333 10035 91111
AAXX 09184 17203 11530 80000 11004 21011 38886 48531 51003 60052 77172 8552/ 333 10003 85632 88457 93102
AAXX 09184 17237 12670 22201 10035 21011 39766 40288 50012 69922 82200 333 10085 82838 91108
AAXX 09184 17250 12675 80309 10011 21037 38823 48509 52018 60002 8352/ 333 10021 83640 88460
AAXX 09184 17270 11650 81004 10038 20032 39487 40144 57019 60242 76322 8652/ 333 10113 86637 88458
AAXX 09184 17295 12960 03408 10076 21019 30248 40255 52014 60002 333 10138
AAXX 09184 17320 12670 23306 10125 21052 30196 40201 52028 60202 82100 333 10137 82836 92448
AAXX 09184 17375 12970 03505 10120 21115 30232 40234 52023 60002 333 10168 91109 92438
AAXX 09184 78016 32564 71404 10229 20175 30238 40242 57012 86801 333 10243 20180 70000
AAXX 09184 17500 NIL
AAXX 09184 17501 12560 12408 10149 20009 30175 40194 52016 69972 81100 333 10169 81830 92447
AAXX 09184 17505 11560 11205 10084 20027 30092 40208 52020 60022 70181 81100 333 10165 81830
AAXX 09184 17507 NIL
AAXX 09184 17510 11560 23314 10143 20011 30160 40170 52020 60072 70292 82100 333 10175 82830 92447
AAXX 09184 17515 11560 10904 10088 20007 30034 40213 52026 60032 70191 81100 333 10172 81830
AAXX 09184 17521 12560 13311 10096 21000 30048 40188 51024 60032 81100 333 10184 81830
AAXX 09184 17530 11560 13311 10107 20000 30139 40197 52028 60212 70191 81100 333 10173 81830
AAXX 09184 17535 11560 13321 10119 21003 30121 40157 52011 60142 70181 81100 333 10171 81830
AAXX 09184 17540 NIL
AAXX 09184 17547 NIL
AAXX 09184 17550 11560 12909 10108 20007 30029 40176 52023 60042 70181 81100 333 10168 81830 92447
AAXX 09184 17572 11560 2//// 10149 20026 30179 40204 52021 60062 70292 82100 333 10168 82830 92447
AAXX 09184 48601 11559 60304 10257 20237 30089 40093 69921 70596 82541 333 82625 86078
AAXX 09184 48615 11559 70911 10254 20227 30096 40102 60011 76022 83547 333 83620 83364 87272
AAXX 09184 48620 11460 70000 10249 20238 30090 40099 60001 71322 82953 333 81917 86364
AAXX 09184 48647 11559 73203 10267 20245 30072 40097 60001 70522 81542 333 81627 87078
AAXX 09184 48657 11458 70203 10245 20234 30084 40102 60001 72992 83942 333 81917 83624 86078
AAXX 09184 48665 11564 70304 10252 20236 30091 40101 69901 70162 82532 333 82630 87078
AAXX 09184 96413 12565 71601 10241 20236 30067 40094 60001 83531 333 83620 85365
AAXX 09184 96421 11365 71501 10245 20237 30054 40090 60001 70322 83531 333 82708 83616 86365
AAXX 09184 96441 11056 71403 10241 20236 30058 40085 6///1 71096 8457/ 333 82700 83616 87365
AAXX 09184 96449 12465 71401 10242 20239 30061 40080 60021 8357/ 333 83614 87365
AAXX 09184 96465 12465 72203 10264 20243 30043 40076 60001 82878 333 82812 85364 87279
AAXX 09184 96471 12468 71705 10264 20231 30074 40077 60001 83848 333 82814 83364 87277
AAXX 09184 96481 12462 60000 10240 20225 30058 40077 60001 82841 333 81817 85080
AAXX 09184 96491 11465 70000 10258 20242 30057 40069 60001 70122 81842 333 81816 83364 87078
AAXX 09181 10044 46/// /2317 10041 20006 39952 49984 53010 222// 00061 333 10079 20035 55300 91120 91217
AAXX 09181 10124 46/// /2216 10037 2//// 39974 40012 51011 222// 00058 333 10077 20030 553// 91124 91219
AAXX 09184 17026 12570 43315 10090 20038 30217 40257 52016 69922 84200 333 10093 84830 91126 92448
AAXX 09184 17034 11670 70000 10075 20032 30203 40250 52015 60062 70282 83250 333 10077 83835 87360 92428
AAXX 09184 17070 11562 62902 10008 21002 39392 40294 52010 60112 72272 86500 333 10019 86630 91109 93101
AAXX 09184 17084 11970 23504 10009 21034 39329 40265 52016 69902 70161 82030 333 10054 82360 91108
AAXX 09184 17090 12665 73402 10000 21047 38736 48504 52016 69912 85570 333 10016 85636 87360
AAXX 09184 17098 11560 70000 11046 21066 38198 48512 52010 69902 70272 85510 333 10013 85630 87457 93100
AAXX 09184 17150 12960 02402 10020 20008 30167 40297 52012 60002 333 10096
AAXX 09184 17160 12670 33509 10005 21036 39060 48519 52017 60022 83500 333 10028 83640 91121
AAXX 09184 17184 12970 02901 10033 20008 30176 40292 53011 60002 333 10097 91109
AAXX 09184 17189 12970 03004 11042 21059 39099 48540 52013 69902 333 10018
AAXX 09184 17210 12670 80601 10051 21037 39135 40183 58007 69902 8452/ 333 10065 84633 88459
AAXX 09184 17234 12970 02201 10060 20004 30206 40276 51010 60002 333 10133 91107
AAXX 09184 17260 11357 80310 10025 20018 39312 40143 57011 60132 76872 8672/ 333 10071 83709 85625 88458 96010
AAXX 09184 17290 12970 03603 10088 20002 30238 40271 51011 60002 333 10136 91120 92418
AAXX 09184 17370 11558 71304 10086 20072 30136 40140 52025 60152 79198 85970 333 10129 81925 84830 87458 92436
BBXX DBBH 09181 99518 10024 41598 62816 10076 20006 40095 52013 70311 862// 22252 04118
AAXX 09184 40310 32960 03009 10084 20018 38971 48512 54000 333 10160
AAXX 09184 65501 32960 70000 10282 21010 39794 40108 80002 333 10325 58001 87076
AAXX 09184 65502 31945 70402 10290 21018 39717 40093 70622 80002 333 10332 59005 87076
AAXX 09184 65503 31932 50606 10286 20039 39751 40095 70611 80002 333 10340 59008 85076
AAXX 09184 65505 32960 70404 10305 21084 39755 40091 80002 333 10348 59001 87076
AAXX 09184 65507 32960 50404 10288 20033 39746 40094 80002 333 10342 59002 85076
AAXX 09184 65510 31940 60404 10298 20035 39570 40080 70622 80002 333 10340 59011 86076
AAXX 09184 65516 32960 50402 10305 20019 39783 40088 80002 333 10349 58000 85076
AAXX 09184 65518 32965 73602 10286 20025 39716 40078 80002 333 10343 59008 87076
AAXX 09184 65522 31958 70000 10315 20023 39751 40079 70622 80002 333 10355 59004 87076
AAXX 09183 41150 42962 23303 10174 20101 40210 80001 333 10206 58007 82075
BBXX BATUK01 09184 99563 70025 44/97 02714 10039 21032 40062 51016 700// 22211 00099
AAXX 09184 65338 32958 51402 10284 20193 39882 40068 80002 333 10358 59009 85076
AAXX 09184 65306 31956 50604 10266 20049 39768 40099 70522 80002 333 10346 58007 85076
AAXX 09184 65319 32958 50000 10290 20088 39577 40087 80002 333 10351 59010 85076
AAXX 09184 65330 31915 50802 10295 20056 39644 40080 70522 80002 333 10343 59005 85076
AAXX 09184 65335 32960 50000 10300 20132 39851 40074 80002 333 10368 59004 85076
AAXX 09184 65344 32956 52004 10289 20248 30065 40076 80002 333 10314 59006 85076
AAXX 09181 06414 36/// /2003 10035 21004 30077 40110 57004 60002 333 10078 91111 91207
AAXX 09181 06459 36/// /2304 10041 20026 39932 40127 52001 60002 333 10065 91114 91210
AAXX 09181 06494 36/// /2606 10005 21013 39315 40126 50002 60002 333 10027 91113 91208
AAXX 09184 60020 NIL
AAXX 09184 60030 02875 23512 10222 20068 30128 40183 55000 60002 82050 333 10244 60007 92418
AAXX 09184 60040 02970 40412 10220 20108 30177 40202 56003 60002 84030 333 10251 60007 92437
AAXX 09184 60338 12962 72504 10144 20122 30163 40229 53003 60002 80007 333 10164 92417
AAXX 09181 13168 NIL
AAXX 09181 13174 NIL
AAXX 09181 13269 NIL
AAXX 09181 13274 NIL
AAXX 09181 13278 NIL
AAXX 09181 13378 NIL
AAXX 09181 13397 NIL
AAXX 09181 13457 42970 51201 10068 20038 30253 40260 51002 85030 333 10141 85360
AAXX 09181 13481 NIL
AAXX 09184 64500 32475 42410 10276 20246 30063 40076 84900 333 10288 58002 84610 81920 94942 95832
AAXX 09184 64501 32358 42202 10273 20246 3//// 4//// 84900 333 10290 5//// 83808 81920 84630 94942 95832
AAXX 09184 64550 32460 8//// 10270 20234 30/// 40/// 885// 333 10305 5//// 84610 88625
AAXX 09184 64551 32460 40000 10286 20250 30045 40074 84900 333 10316 59015 82811 81916 84630 94943 95833
AAXX 09184 64570 32560 62802 10248 20229 39582 40087 84532 333 10296 59013 84620 84360 86076
AAXX 09181 15501 12970 80000 10031 20021 30186 40231 54000 60002 80007 333 10095 20002 555 593//
AAXX 09181 15505 12970 31403 10044 21044 39849 40229 57008 60002 80005 333 10100 21002 555 553//
AAXX 09181 15511 12970 60000 10043 21022 30201 40241 57007 60002 80008 333 10122 20012 555 563//
AAXX 09181 15514 12972 02701 10042 21030 30190 40226 57008 60002 333 10105 20040 555 559//
AAXX 09181 15530 12967 20000 10014 21024 30005 40251 58006 60002 80001 333 10106 20014 555 576//
AAXX 09181 15533 12969 80000 10041 20001 30177 40210 56006 60002 80007 333 10077 20032 555 575//
AAXX 09181 15550 12970 32301 10046 20001 30217 40237 56001 60002 80002 333 10076 20010 555 573//
AAXX 09181 15561 12475 52304 10024 20002 30240 40248 58013 60002 85530 222// 00094 2//00 333 10102 20010 555 586// 92013 92418
AAXX 09181 15562 12983 02304 10078 20025 30181 40254 54000 60002 222// 2//01 333 10100 20034 555 569// 92023 92428
AAXX 09181 15600 11989 32708 11012 21200 38340 48541 53001 60002 70121 82031 333 11012 21080 42003 555 522//
AAXX 09181 15601 12970 11401 11018 21052 39626 40272 53005 60002 80001 333 10050 21064 555 575//
AAXX 09181 15605 12972 20000 11024 21032 39401 40280 53001 60002 80001 333 10055 21057 42001 555 593//
AAXX 09181 15613 11989 62708 11049 21127 37744 47087 53012 60002 70200 80001 333 11046 21115 46003 555 554//
AAXX 09181 15628 12980 20000 10019 21053 39992 40257 54000 60002 80001 333 10110 20025 555 559//
AAXX 09181 15642 12980 20000 10020 21048 30077 40251 53002 60002 80001 333 10112 21004 555 561//
AAXX 09181 15661 12970 00000 10056 21005 30221 40257 54000 60002 222// 20000 333 10100 20040 555 565// 92000 92408
AAXX 09181 15726 11982 42904 11023 21150 38289 48552 54000 60002 70111 80002 333 10030 21076 47004 555 537//
AAXX 09184 40340 32960 00109 10172 20068 40214 52019 333 10215
AAXX 09181 14008 11/96 62717 11044 21047 37463 47017 58004 69902 72874 83808 333 11027 49070 91123 92868 93100 95170 444 38288 46225
AAXX 09181 14015 11565 83002 10096 20067 39825 40182 58002 69922 76162 8657/ 333 10113 82627 86637
AAXX 09181 14023 12698 72803 10102 20058 39878 40171 56003 60002 86570 333 10120 86640
AAXX 09181 14024 12398 82304 10054 20051 39078 48475 55001 69902 888// 333 10075 82807 86614 91111 95050
AAXX 09181 14026 12998 72104 10107 20048 39840 40157 50001 60002 84038 333 10125 91110
AAXX 09181 14031 12997 83301 10051 20017 39932 40163 50000 60002 8807/ 333 10107
AAXX 09181 14105 12797 81704 10130 20098 30188 40192 57003 60002 8257/ 333 10141 82650
AAXX 09181 14106 11697 80000 10090 20080 30121 40190 56003 69932 70262 885// 333 10121 88636 95000
AAXX 09181 14121 11698 80000 10114 20067 39905 40167 55000 69902 76022 885// 333 10142 88647
AAXX 09181 14122 11670 72903 10100 20065 39979 40174 53001 69902 761// 85578 333 10140 83640 85650
BBXX FLAO 0918/ 99764 70847 46/// ///// 11118 40038 57020
AAXX 09181 03973 11481 12704 10012 21008 39873 40134 52011 69932 70181 81900 333 10037 81915
AAXX 09184 64820 32460 62406 10279 20249 30075 40084 82502 333 10307 59001 82613 86070
AAXX 09181 03976 11581 32905 10050 21003 30120 40132 53009 60012 70181 83300 333 10067 82920 81820 96489
AAXX 09184 04005 21488 60502 11087 21137 40176 57012 71582 868// 333 11071 21088 69928 555 3/212
AAXX 09184 04018 32586 30513 11080 21184 40154 57006 83501 333 11056 21080 555 3//16 83628
AAXX 09184 04030 32589 30905 11102 21164 40157 55007 82531 333 11066 21102 555 3//07 81630 82638 83362
AAXX 09184 04048 NIL
AAXX 09184 04063 22565 61407 11101 21134 40133 57009 85920 333 11080 21122 69918 555 3//09
AAXX 09184 04077 NIL
AAXX 09184 04082 NIL
AAXX 09184 04097 22589 32913 11067 21147 40073 57012 70133 83300 333 11044 21083 69928 555 3/424
AAXX 09183 04013 32689 10213 11079 21251 40169 57016 81200 333 11060 21079 555 3//13
AAXX 09183 04064 32788 33605 11104 21161 40120 57011 82542 333 11065 21104 555 3//09
AAXX 09184 13629 12960 00000 10030 21001 39190 42836 54002 60002 333 10060
AAXX 09181 03951 15961 /3004 10061 20020 30133 40160 52006 69912 333 10081
AAXX 09181 03953 11470 72805 10053 20031 30125 40162 51006 69902 78081 878// 333 10079 81718 86823 92427
AAXX 09181 03955 11481 32704 10030 20013 39954 40155 50006 69902 72581 83300 333 10058 81918 83650
AAXX 09181 03956 15973 /2804 10027 21003 30063 40142 51008 69912 80/// 333 10056 81/71
AAXX 09181 03962 11470 12603 10028 20011 30125 40149 52011 69992 72581 81300 333 10073 81918
AAXX 09181 03963 17676 /3108 10057 20009 30109 40138 50007 69942 7228/ 84/// 333 10068 84/45 87/74
AAXX 09181 03966 15976 /2403 10005 21011 30047 40143 52012 69932 333 10052
AAXX 09181 03967 12975 02407 10017 21004 30009 40125 52012 69902 333 10042
AAXX 09181 03969 12481 12608 10020 21002 30014 40120 51011 69902 81600 333 10047 81718
AAXX 09181 03973 11481 12704 10012 21008 39873 40134 52011 69932 70181 81900 333 10037 81915
AAXX 09181 03976 NIL
AAXX 09181 03980 17657 /2904 10039 20011 30072 40097 52019 60022 71081 87/// 333 10061 81/31 87/56
BBXX TFBKF 09184 99635 70202 46/// ///// 22200 10602 70009
BBXX TFBLK 09184 99657 70248 46/// ///// 22200 10604 70020
BBXX TFDRN 09184 99658 70212 46/// ///// 22200 10806 70030
BBXX TFGRS 09184 99663 70182 46/// ///// 22200 10808 70038
BBXX TFGRV 09184 99638 70225 46/// ///// 22200 10702 70011
BBXX TFGSK 09184 99641 70229 46/// ///// 22200 10503 70013
BBXX TFHFN 09184 99642 70152 46/// ///// 22200 10602 70012
BBXX TFKGR 09184 99657 70136 46/// ///// 22200 10809 70045
BBXX TFSRT 09184 99633 70203 46/// ///// 22200 10503 70017
BBXX TFSTD 09184 99664 70234 46/// ///// 22200 10706 70029
AAXX 09181 12120 12570 62411 10052 20013 39975 49982 52008 69952 82508 333 10063 20037 91118 93000
AAXX 09181 12250 12777 72304 10053 20012 39954 40042 52005 60022 875// 333 10072 20026 91110 93000
AAXX 09181 12295 11357 72203 10028 20028 39868 40053 53001 60032 71075 875// 333 10028 21006 84706 91110 93001
AAXX 09181 12330 12965 72405 10051 21007 39951 40059 51005 69902 8703/ 333 10070 20041 91114 93000
AAXX 09181 12375 11665 21901 10034 20021 39941 40073 52012 60032 70261 82500 333 10057 20007 91110 93097
AAXX 09181 12424 11899 72304 10036 21002 39940 40094 52011 69942 70381 875// 333 10094 20031 91110 93094
AAXX 09181 02019 07/80 /0908 11044 21067 39377 40003 54000 69912 70087 333 11041 21063 60005 90710 91113
AAXX 09181 02081 07/99 /0903 11049 21053 39633 40043 53002 69972 70087 333 11032 21070 60005 90710 91106
AAXX 09181 02095 07283 /0703 11028 21034 39820 40025 56012 69982 70087 333 11011 21034 60005 87/06 88/29 90710 91106
AAXX 09181 02101 47/23 /1012 11015 21061 39325 49878 58013 771// 8//// 333 11013 21044 89/25
AAXX 09181 02119 07462 /0703 11031 21044 39584 49971 57011 60022 77170 333 11026 21048 69905 88/17 90710 91112
AAXX 09181 02124 07219 /0707 11029 21039 39407 49930 56015 69922 78587 333 11027 21054 69915 82/03 84/12 87/16 88/// 90710 91111
AAXX 09181 02126 07418 /0707 11011 21022 39547 49882 56015 60012 77170 333 11010 21044 69935 88/12 90710 91112
AAXX 09181 02151 07359 80902 11031 21031 39637 49975 56011 60022 77180 333 11025 21042 69915 88/07 91003 90710 91104 90710 91202
AAXX 09181 02186 07410 91107 11007 21017 39931 49956 55017 69972 74180 333 10011 21007 69945 89/10 91012 90710 91113 90710 91208
AAXX 09181 02197 07/63 /0904 11014 21025 39972 49991 58020 69922 70087 333 10003 21015 60005 90710 91110
AAXX 09181 02207 07364 /0902 11025 21027 39092 49777 53012 60042 72474 333 11020 21057 69905 88/08 90710 91106
AAXX 09181 02219 07/08 /0909 11030 21045 39156 49814 58002 60022 77177 333 11022 21048 69915 90710 91118
AAXX 09181 02226 47456 /0605 11015 21018 39332 49778 52001 771// 8//// 333 11002 21030 81/11 86/21 88/50
AAXX 09181 02243 07/17 /0703 11008 21008 39543 49807 55010 60082 77177 333 11002 21019 69965 90710 91109
AAXX 09181 02269 07324 /1215 10032 20026 60052 78187 333 10037 20012 69905 88/09 90710 91122
AAXX 09181 02287 07472 /1209 10011 20003 39858 49867 56019 60022 70087 333 10014 20001 60005 88/11 90710 91119
AAXX 09181 02297 07106 /1217 11001 21001 39859 49904 57020 69982 77287 333 10013 21007 69945 81/02 85/04 88/11 90710 91124
AAXX 09181 02308 07499 /3000 11038 21042 38924 49769 52006 60052 70087 333 11028 21059 60005 83/12 88/22 90710 91102
AAXX 09181 02327 07/10 /3302 11011 21012 39332 49758 57002 60042 78587 333 11005 21024 69935 90710 91103
AAXX 09181 02355 07350 /1308 10036 20035 39733 49745 56021 60122 76160 333 10037 20009 60015 81/07 85/12 88/23 90710 91111
AAXX 09181 02366 47344 /1107 10024 20015 39764 49770 58015 762// 8//// 333 10032 20004 81/07 83/10 88/11
AAXX 09181 02407 07480 /3504 11003 21008 39365 49724 53010 60032 70070 333 10000 21007 60005 87/12 90710 91107
AAXX 09181 02418 47129 /2802 10010 20007 39593 49722 53030 710// 8//// 333 10044 20007 88/02
AAXX 09181 02435 47/18 /0501 10003 21004 39531 49714 55003 771// 8//// 333 10006 20000 89/02
AAXX 09181 02440 07236 /0801 10003 20000 60082 76787 333 10003 21001 69955 88/05 90710 91102
AAXX 09181 02452 07381 /2305 10019 20019 60092 72387 333 10020 21001 69965 87/08 90710 91109
AAXX 09181 02456 07360 /1704 10034 20028 39699 49740 56008 60072 76186 333 10035 20004 69905 82/08 87/12 88/19 90710 91107
AAXX 09181 02469 07/69 /2006 10042 20011 60082 78186 333 10047 20005 69905 90710 91112
AAXX 09181 02498 07561 /2016 10057 20022 39769 49785 55002 60082 70060 333 10061 20033 60005 82/24 86/50 90710 91123
AAXX 09181 02518 465// /2518 10046 20028 333 10071 20040 89/21 90710 91129
AAXX 09181 02520 17482 82608 10039 20019 39695 49761 51040 60062 70086 333 10057 20026 60005 88/18 91011 90710 91112 90710 91209
AAXX 09181 02550 47212 /2212 10005 20005 39512 49782 53004 771// 8//// 333 10037 20005 85/06 88/09
AAXX 09181 02562 07568 82312 10036 20008 39642 49755 58001 69932 75286 333 10052 20015 69905 88/24 91018 90710 91119 90710 91214
AAXX 09181 02563 07674 /2212 10046 20008 39763 49785 50001 69912 70086 333 10055 20034 60005 88/37 90710 91118
AAXX 09181 02565 07662 /2311 10040 21013 39705 49822 50003 60012 70086 333 10050 20031 60005 86/36 87/57 90710 91119
AAXX 09181 02589 07663 /2213 10056 20013 39799 49820 53006 60032 70086 333 10061 20030 60005 84/36 90710 91122
AAXX 09181 02590 45673 /2114 10050 21013 39783 49843 52005 8//// 333 10060 20019 84/47 86/59
AAXX 09181 02618 07/57 /2411 10036 20004 39685 49846 53006 60072 76186 333 10052 20030 69935 90710 91124
AAXX 09181 02664 07668 12307 10041 21004 39822 49893 51002 69922 72186 333 10069 20015 69905 81/48 91012 90710 91118 90710 91210
AAXX 09181 02679 07/67 /2418 10050 20002 39833 49877 53006 69922 70086 333 10062 20050 60005 90710 91125
AAXX 09181 12105 12572 72105 10051 20007 39963 40005 51009 60002 8253/ 333 10064 20051 91114 93000
AAXX 09181 12195 11256 82304 10020 20016 39799 40028 53003 60042 71075 885// 333 10021 21001 91112 93001
AAXX 09181 12235 12973 62208 10039 20004 39810 40020 53007 69942 8603/ 333 10060 20036 91115 93000
AAXX 09181 12270 11573 62306 10038 20015 39865 40047 51010 60052 70182 863// 333 10055 20006 91114 93001
AAXX 09181 12280 11467 82205 10036 20027 39872 40029 52005 60032 70262 885// 333 10036 20007 91112 93093
AAXX 09181 12300 12675 62604 10047 21011 39958 40048 52006 69932 85530 333 10070 20046 91112 93000
AAXX 09181 12400 12782 72404 10043 21011 39839 40075 52007 69922 875// 333 10068 20042 91112 93000
AAXX 09181 12435 11965 02104 10026 21010 39906 40080 52007 60012 70281 333 10076 20022 93097
AAXX 09181 12495 11665 72003 10017 20007 39805 40101 54000 60042 70286 875// 333 10018 20000 91109 93002
AAXX 09181 12530 11560 72303 10051 20039 39898 40098 53007 60012 78082 879// 333 10056 20029 93095
AAXX 09181 12570 11557 71904 10039 20033 39780 40100 54000 60042 72562 875// 333 10049 20003 93003
AAXX 09181 12580 11680 81909 10028 20004 39860 40123 58002 69972 72122 885// 333 10039 20011 91118 93093
AAXX 09181 34523 32597 82901 10023 20010 30140 40217 52011 885// 333 10038 88623
AAXX 09181 12160 11482 71904 10048 20013 39962 40015 52011 60012 70282 875// 333 10067 20018 91111 93097
AAXX 09181 12205 12572 72206 10049 20019 30019 40027 52009 60002 875// 333 10075 20047 91114 93000
AAXX 09181 12465 11964 02103 10026 20011 39845 40081 50005 60032 70181 333 10057 20017 91115 93097
AAXX 09181 12566 11860 72101 10036 20030 39813 40110 57004 60012 70362 8453/ 333 10069 21009 93001
AAXX 09181 33135 32497 82504 10005 21021 39996 40178 58006 82605 333 10012
AAXX 09181 01300 41496 73312 10035 20024 49776 52006 78382 8//// 22200 02065 11016 70078 333 91123
AAXX 09181 01160 46/// /0414 10018 21045 39948 49965 53005 333 10027 91122
AAXX 09181 01400 41598 63117 10052 21018 49975 52019 70282 869// 22200 06090 10914 70068 333 91128
AAXX 09181 33088 11597 82405 10012 20007 39933 40127 57010 60022 76162 8872/ 333 10029
AAXX 09181 33177 11597 81804 10029 21009 39888 40128 53003 60022 78082 889// 333 10033
AAXX 09181 33261 11395 81902 10004 20001 30011 40198 52003 69952 71054 886// 333 10006 88708
AAXX 09181 33275 31294 82004 11006 21010 39979 40209 52005 71022 886// 333 11003 88703
AAXX 09181 33301 11497 81906 10016 21000 39852 40138 57009 69962 70282 8355/ 333 10028
AAXX 09181 33325 32997 82403 10021 21007 39894 40166 57012 8807/ 333 10021
AAXX 09181 33377 11496 72401 11004 21013 30014 40214 52004 69922 71022 86630 333 10012
AAXX 09181 33415 11697 71804 10027 21015 39753 40157 57010 69902 70282 86530 333 10028
AAXX 09181 33429 11397 82004 10017 21002 39740 40170 57010 69932 78082 8635/ 333 10035 84708
AAXX 09181 33466 32562 61804 10002 21025 30010 40203 58008 82531 333 10028
AAXX 09181 33526 32560 81101 10041 21024 39809 40151 57006 885// 333 10046 88623
AAXX 09181 33562 32997 82005 10014 21009 39814 40182 57017 8805/ 333 10028
AAXX 09181 33614 31558 82202 10022 20006 30110 40217 52006 71022 8655/ 333 10035 86632
AAXX 09181 33761 31996 61802 11003 21018 39988 40218 57001 71022 80001 333 10042
AAXX 09181 33902 31595 81901 10019 20014 30167 40235 53007 71022 885// 333 10025
AAXX 09181 33983 32497 73205 10025 20006 30179 40241 52013 875// 333 10043 87615
AAXX 09181 34415 12497 82702 10002 21022 30128 40227 51007 69932 886// 333 10016
AAXX 09181 34523 NIL
AAXX 09181 34712 32498 83403 10007 21010 30143 40231 52011 886// 333 10050 88719
AAXX 09181 02464 47568 /1706 10046 20014 39745 49762 52004 751// 8//// 333 10050 20006 81/21 87/25
AAXX 09181 02500 07562 /3208 10041 20008 39727 49767 52046 60032 70061 333 10070 20033 60005 84/20 85/40 90710 91112
AAXX 09181 02513 07/33 /2510 10050 20035 39786 49790 53011 60132 76286 333 10073 20042 60025 90710 91122
AAXX 09181 02615 07661 /2416 10058 20030 39938 49942 52007 69902 70086 333 10075 20058 60005 87/38 87/50 90710 91121
AAXX 09181 02635 07/59 /2508 10061 20005 69912 70410 333 10074 20052 60005 90710 91116
AAXX 09181 48823 32697 80202 10152 20097 30234 40237 51003 885// 333 58025 88696
AAXX 09181 48820 32598 80503 10155 20059 30235 40243 52003 888// 333 58022 82895 88697
AAXX 09184 64600 32960 02204 10234 20152 39422 40074 333 10325 55090 58000
AAXX 09184 64601 31940 00408 10214 20067 38970 48479 70400 333 10300 58002
AAXX 09184 64605 32960 00000 10217 20147 39327 40071 333 10315 59004
AAXX 09184 64610 32960 20000 10225 20126 3//// 4//// 80002 333 10345 5//// 82080
AAXX 09184 64650 31950 41202 10258 20178 39655 40066 70511 80002 333 10346 55101 59904 84080
AAXX 09184 64654 32960 00804 10218 20100 39521 40094 333 10332 58003
AAXX 09184 64655 32960 00000 10228 20178 39432 40081 333 10318 58003
AAXX 09184 64656 32960 00000 10230 20177 39517 40072 333 10310 58002
AAXX 09184 64659 NIL
AAXX 09184 64660 32960 00000 10251 20173 39534 40060 333 10332 58005
AAXX 09184 64662 32960 30000 10242 20183 39561 40061 80002 333 10345 58002 83080
AAXX 09184 64665 32960 00000 10236 20173 3//// 4//// 333 10342 5////
AAXX 09184 60715 12560 21302 10148 20104 30232 40239 58001 60002 82200 333 10210 59032 82823 91003 91108
AAXX 09184 60723 12970 00000 10124 20113 30057 40247 58002 60002 333 10184
AAXX 09184 60725 12960 21004 10113 2//// 30065 40244 58009 60002 80002 333 10184 82070
AAXX 09184 60735 12965 10000 10157 20105 30165 40246 55001 60002 80002 333 10212 81070
AAXX 09184 60745 12960 02108 10126 20060 39890 40264 53005 60002 333 10179
AAXX 09184 60748 12965 01608 10140 20075 39828 40247 53001 60002 333 10194
AAXX 09184 60750 12960 02205 10139 20065 30232 40257 53006 60002 333 10203
AAXX 09184 60760 12960 32601 10128 20035 30159 40265 53002 60002 80002 333 10195 20079 83070 91002 91109
AAXX 09184 60765 12958 02610 10170 20093 30256 40260 56004 60002 333 10208 92436 925//
AAXX 09184 60767 12960 22308 10145 20048 30119 40265 53005 60002 80002 333 10200 82070
AAXX 09184 60769 12960 21304 10149 20088 30254 40258 53006 60002 80002 333 10212 82070
AAXX 09184 60715 12560 21302 10148 20104 30232 40239 58001 60002 82200 333 10210 59032 82823 91003 91108
AAXX 09184 60723 12970 00000 10124 20113 30057 40247 58002 60002 333 10184
AAXX 09184 60725 12960 21004 10113 2//// 30065 40244 58009 60002 80002 333 10184 82070
AAXX 09184 60735 12965 10000 10157 20105 30165 40246 55001 60002 80002 333 10212 81070
AAXX 09184 60745 12960 02108 10126 20060 39890 40264 53005 60002 333 10179
AAXX 09184 60748 12965 01608 10140 20075 39828 40247 53001 60002 333 10194
AAXX 09184 60750 12960 02205 10139 20065 30232 40257 53006 60002 333 10203
AAXX 09184 60760 12960 32601 10128 20035 30159 40265 53002 60002 80002 333 10195 20079 83070 91002 91109
AAXX 09184 60765 12958 02610 10170 20093 30256 40260 56004 60002 333 10208 92436 925//
AAXX 09184 60767 12960 22308 10145 20048 30119 40265 53005 60002 80002 333 10200 82070
AAXX 09184 60769 12960 21304 10149 20088 30254 40258 53006 60002 80002 333 10212 82070
AAXX 09184 85223 11558 82806 10170 20107 37500 47129 57013 69911 71661 83936 333 56000 58001 83623 81930 86358 88070
AAXX 09184 85283 12584 70506 10170 20111 37191 47123 57025 69931 86508 333 56100 58000 86620
AAXX 09184 85293 32584 70910 10152 20079 36345 57015 85901 333 56600 58003 84620 81923 87070
AAXX 09184 85312 32484 70000 10244 20175 38790 57020 84530 333 56000 58006 84617 87357
AAXX 09184 85345 11484 70000 10268 20199 39640 40093 57026 60061 72162 84230 333 56440 59019 84817 85358
AAXX 09184 85364 32570 71305 10217 20146 38139 48239 57024 85231 333 56000 59011 84833 81836 83357 85070
AAXX 09184 85365 32584 70000 10271 20206 39375 40120 57024 85136 333 56000 59021 85820 84357 87070
AAXX 09184 85394 32584 53604 10301 20221 39675 40105 57031 83201 333 56000 59025 83823 85070 555 10100 29063
AAXX 09184 85041 11260 71706 10255 20252 39811 40075 57018 60171 71562 84902 333 56400 58011 81606 83920 87070
AAXX 09184 85140 11257 80000 10226 20223 39906 40116 57008 60431 76166 8672/ 333 56339 58032 84706 86615 88457
AAXX 09184 85141 11330 80000 10228 20221 39873 40106 57014 60441 76166 8672/ 333 56779 58034 84707 86616 88457
AAXX 09184 85151 NIL
AAXX 09184 85152 11230 81205 10230 20227 39874 40112 57006 60211 76166 8772/ 333 56339 58030 87705 88457
AAXX 09184 85201 31460 80912 10116 20041 36282 57010 71522 82337 333 56200 58003 81815 81917 88270
AAXX 09184 85230 NIL
AAXX 09184 85242 32584 60000 10192 20034 36540 57014 82211 333 56264 59009 82820 84457 86070
AAXX 09184 84474 31660 40000 10304 20235 39760 7022/ 84100 333 56900 58016 84840
AAXX 09184 84542 31670 83514 10200 20089 37333 7020/ 8454/ 333 5699/ 58000 84640 84462
AAXX 09184 84452 31960 71714 10266 20174 30090 40120 70222 8701/ 333 5609/ 59009 87465
AAXX 09184 84782 31965 72211 10222 20121 39608 40108 70221 8703/ 333 5609/ 59002 87359
AAXX 09184 84390 31565 61811 10270 20162 30013 40116 70320 86020 333 5600/ 58009 86456
AAXX 09184 84401 31960 52005 10294 20195 30070 40113 70222 8503/ 333 5600/ 59004 85360
AAXX 09184 84501 31659 31609 10207 20168 30101 40128 70500 83600 333 56000 59004 83740
AAXX 09184 84515 31460 60308 10300 20236 39909 40082 70120 8323/ 333 5690/ 59009 83820 83360
AAXX 09184 84370 31560 83408 10250 20222 30078 40111 70222 885// 333 56900 58003 88625
AAXX 09184 84673 31662 73504 10216 20097 37325 70122 82120 333 56990 59019 82846 85465
AAXX 09184 84688 31458 83605 10121 20041 36662 7022/ 886// 333 568// 59010 83613 85640
AAXX 09184 84628 34460 72006 10229 20175 30115 40131 70222 875// 333 564// 58003 81712 86622
AAXX 09184 84686 21765 82504 10179 20049 36858 70260 84507 333 56909 58005 69921 84650 88273
AAXX 09184 85032 32465 60210 10298 20230 39940 40101 57021 84930 333 56110 58022 83817 81920 86358
AAXX 09184 85043 31457 63608 10292 20238 39928 40088 57020 71522 86904 333 56800 58018 85615 81920 86070
AAXX 09184 85104 11450 82307 10227 20224 39930 40091 57015 60081 71796 8692/ 333 56559 58021 85615 81920 88457 96015
AAXX 09184 85109 11450 81406 10222 20222 39935 40096 57010 60581 79599 8792/ 333 56339 58025 86615 81923 88457
AAXX 09184 85114 31356 81606 10236 20225 39942 40105 57013 71722 8792/ 333 56449 58027 83607 85615 81920 88457 96015
AAXX 09184 85116 11456 81806 10228 20228 39935 40114 57010 60371 76166 8652/ 333 56449 58045 86612 88457
AAXX 09184 85123 11257 81312 10229 20224 39926 40092 57018 60021 76162 8792/ 333 56339 58032 83706 85615 81923 88457
AAXX 09184 85139 11458 80000 10235 20231 39870 40064 57025 60601 71562 8652/ 333 56449 58031 86612 88457
AAXX 09184 85153 11258 81206 10235 20228 39945 40131 56006 60781 71562 8792/ 333 56339 58047 86608 81923 88457
AAXX 09184 85154 11260 81105 10236 20230 39927 40105 58011 60281 76196 8452/ 333 56379 58029 84606 88457
AAXX 09181 48855 11597 80702 10207 20191 30173 40181 58008 60011 76162 888// 333 58025 85895 88697 96161
AAXX 09181 48848 11497 83204 10150 20143 30201 40209 57007 60021 76066 8672/ 333 58022 86894 88499 96160
AAXX 09181 48852 11496 83202 10182 20182 30175 40185 58006 60391 76366 8672/ 333 58024 86894 88499 96162
AAXX 09183 78970 41470 60910 10299 20235 30077 40102 69901 71582 84942 333 06299 10313 20221 59002 81912 83640 86076 90925
AAXX 09183 78962 11465 70913 10291 20232 30103 40111 60001 71511 84963 333 06299 10310 20230 59002 82910 87076
AAXX 09181 78268 12460 41006 10280 20250 30136 40155 57019 60001 84200 333 84815
AAXX 09184 96465 12465 72203 10264 20243 30043 40076 60001 82878 333 82812 85364 87279
AAXX 09183 78970 41470 60910 10299 20235 30077 40102 69901 71582 84942 333 06299 10313 20221 59002 81912 83640 86076 90925
AAXX 09183 78962 11465 70913 10291 20232 30103 40111 60001 71511 84963 333 06299 10310 20230 59002 82910 87076
AAXX 09181 78268 12460 41006 10280 20250 30136 40155 57019 60001 84200 333 84815
AAXX 09184 60230 12950 71405 10184 20038 40227 52001 60002 85082 91745 333 10234 85360 83070
AAXX 09181 91925 02580 21016 10285 20208 30074 40134 51019 60001 82800 333 56200 60007 82820 90710 91122 555 60005 10822 58012
AAXX 09181 91929 04/86 /2503 10284 20233 30119 40122 51016 69922 700// 333 10284 20231 60007 90710 91107 555 60005
AAXX 09181 91938 01570 72702 10276 20194 30118 40120 51018 69902 715// 85831 333 10276 20240 60007 82821 83656 90710 91113 555 60005 12214 59010
AAXX 09181 91944 06/// /3518 10276 20209 30118 40121 51016 60002 333 10276 20260 60007 90710 91124 555 60005
AAXX 09181 91948 01450 80116 10221 20200 30036 40139 51020 60021 72586 8784/ 333 56179 60027 83816 85820 90710 91138 555 60025 10138 59005
AAXX 09181 91954 06/// /1208 1//// 2//// 30117 4//// 51010 60001 333 60007 555 59003
AAXX 09181 91958 01581 50411 10223 20159 30129 40131 53008 69901 70386 85200 333 56300 69907 85823 90710 91127 555 60005 10527 59023
AAXX 09181 91945 06/// /2808 10267 20244 30100 40105 51017 69981 333 69927
AAXX 09184 68004 36/// /2407 10258 20039 38503 48458 52021 333 10320 20258 91013 555 91013
AAXX 09184 68006 36/// /2305 10298 20116 38863 48453 53005 333 10322 20290 91009 555 91009
AAXX 09184 68010 36/// /2602 10260 20175 38871 48478 52015 333 10317 20259 91005 555 91012
AAXX 09184 68018 16/// /0806 10206 20187 38881 48485 52013 60022 333 10305 20206 91008 555 20028 91014
AAXX 09184 68098 32875 22209 10157 20105 30011 40119 53003 82050 333 10216 20157 91011 555 91011
AAXX 09184 68102 36/// /2208 10243 20067 38703 48456 52022 333 10320 20243 91014 555 91011
AAXX 09184 68112 11587 42704 10230 20127 38296 48476 53011 69962 71588 83980 333 10320 20207 91009 555 20006 69945 91016
AAXX 09184 68116 36/// /0108 10257 20158 38520 48468 52017 333 10335 20257 91014 555 91014
AAXX 09184 68212 36/// /2408 10324 20019 38842 48471 52017 333 10380 20322 91017 555 91011
AAXX 09184 68312 32789 22220 10291 20019 38889 48464 53001 81280 333 10357 20291 91027 555 91010
AAXX 09184 68110 36/// /2105 10239 20017 38245 48460 53007 333 10322 20239 91011 555 91015
AAXX 09184 68300 36/// /1921 10168 20085 39948 40097 52005 333 10217 20165 91027 555 91009
AAXX 09184 41241 36/// /1506 10206 20017 30155 40193 333 0E023 10259 58002
AAXX 09184 41242 36/// /0000 10152 20093 30182 40207 333 0E019 10261 58008
AAXX 09184 41244 36/// /0502 10184 20021 39839 48253 333 0E019 10265 58005
AAXX 09184 41246 32960 02504 10198 20103 30189 40194 333 10262 58011
AAXX 09184 41251 32960 00000 10098 20062 38056 48186 333 10180 58014
AAXX 09184 41252 NIL
AAXX 09184 41253 36/// /0000 10180 20084 39823 40207 333 0E019 10253 58010
AAXX 09184 41254 NIL
AAXX 09184 41255 NIL
AAXX 09184 41256 32960 01604 10201 20082 30185 40195 333 10257 58009
AAXX 09184 41257 36/// /0000 10174 20074 39717 40208 333 0E016 10248 58012
AAXX 09184 41258 36/// /2202 10232 20098 30183 40188 333 0E/// 10259 58010
AAXX 09184 41259 36/// /0404 10092 21379 37149 40328 333 0E/// 10160 58025
AAXX 09184 41262 NIL
AAXX 09184 41263 NIL
AAXX 09184 41264 36/70 /0603 10226 20081 39804 40172 333 0E023 10267 58014
AAXX 09184 41265 36/// /0000 10179 20052 39647 40201 333 0E023 10266 58013
AAXX 09184 41267 35/81 /3416 10238 20108 30172 40188 333 0E023 10255 58016
AAXX 09184 41268 NIL
AAXX 09184 41270 36/70 /3513 10220 20070 30133 40145 333 0E021 10264 58016
AAXX 09184 41275 NIL
AAXX 09184 41287 36/// /0708 10204 20091 30139 40207 333 0E023 10287 58011
AAXX 09184 41288 36/// /1017 10233 20135 30164 40188 333 0E023 10276 58015
AAXX 09184 41290 NIL
AAXX 09184 41295 36/// /0105 10194 20117 39999 40176 333 0E021 10271 58013
AAXX 09184 41304 NIL
AAXX 09184 41312 36/// /3205 10243 20079 30127 40167 333 0E/// 10284 58007
AAXX 09184 41314 32960 09901 10180 20066 39681 40192 333 10233 59002
AAXX 09184 41315 36/// /3508 10157 20050 39182 42820 333 0E/// 10196 58010
AAXX 09184 41316 32960 09903 10238 20052 30142 40169 333 10281 58004
AAXX 09184 88963 31356 32730 10044 21010 39822 49852 50000 71511 83570 333 56760 81708 83625 90062 90081 92426 94070 95000
AAXX 09184 88968 11458 83212 10028 21005 39938 49953 52011 69901 72052 886// 333 56899 88710 90120 90268 90292 90931 92426 92732 92851 93000 94072 95062 96010
AAXX 09184 89034 32970 00000 11016 21030 39369 49679 52008 333 92408 92851
AAXX 09184 89053 31230 82726 10018 21001 39902 49916 55000 71022 887// 333 88705 90068 90084 92425 92851 94070 94479 95090 97526 98530
AAXX 09184 89055 32965 22915 10031 21010 39594 49832 54000 80005 333 56006 82270 92730 92851 95150
AAXX 09184 89066 11540 83210 10008 21006 39786 49796 52012 60021 77577 886// 333 88720 90562 90973 92405 92731 92801 93192 94070 95090 97516
AAXX 09184 91375 NIL
AAXX 09184 91519 NIL
AAXX 09184 91531 NIL
AAXX 09184 91532 45/// /3501 10268 20243 30063 40071 57002
AAXX 09184 91559 NIL
AAXX 09184 91611 NIL
AAXX 09184 91642 NIL
AAXX 09184 91679 NIL
AAXX 09184 91689 NIL
AAXX 09184 91756 NIL
AAXX 09184 91844 NIL
AAXX 09184 92036 NIL
AAXX 09184 93713 NIL
AAXX 09184 94102 46/// /2611 10286 20250 30054 40063
AAXX 09184 94103 NIL
AAXX 09184 94120 46/// /0000 10265 20255 30020 40060
AAXX 09184 94122 NIL
AAXX 09184 94131 46/// /3204 10270 20249 39907 40057
AAXX 09184 94132 NIL
AAXX 09184 94147 NIL
AAXX 09184 94150 46/// /0000 10259 20249 39997 40056
AAXX 09184 94151 46/// /3405 10295 20253 30035 4////
AAXX 09184 94170 46/// /1103 10244 20234 30042 40064
AAXX 09184 94200 NIL
AAXX 09184 94203 46/// /2610 10278 20223 30053 40063
AAXX 09184 94206 46/// /2807 10277 20224 39920 40048
AAXX 09184 94207 46/// /2417 10274 30050 40058 56019
AAXX 09184 94211 NIL
AAXX 09184 94212 46/// /2801 10271 20197 39577 40038
AAXX 09184 94216 46/// /3603 10264 20250 30007 40057
AAXX 09184 94236 NIL
AAXX 09184 94238 46/// /3204 10243 20218 39629 40041
AAXX 09184 94248 NIL
AAXX 09184 94255 46/// /0904 10268 20211 39796 40052
AAXX 09184 94268 46/// /0602 10249 20240 30052 40064
AAXX 09184 94287 46/// /3003 10260 20243 30070 40079
AAXX 09184 94290 NIL
AAXX 09184 94294 46/// /0610 10268 20236 30073 40083
AAXX 09184 94296 35/// /0506 10276 30067 40077 57009
AAXX 09184 94298 46/// /0515 10247 30077 40083 58004
AAXX 09184 95641 NIL
AAXX 09184 94893 46/// /0522 10163 20166 39955 40070
AAXX 09184 94907 46/// /3405 10135 20133 30061 40071
AAXX 09184 94910 46/// /0711 10190 20123 39839 40083
AAXX 09184 94926 46/// /1203 10129 20112 39453 40108
AAXX 09184 94935 46/// /0208 10181 20148 30081 40107
AAXX 09184 94954 46/// /0930 10160 20148 39969 40078
AAXX 09184 94956 46/// /1805 10164 20144 30056 40082
AAXX 09184 94975 46/// /0207 10164 20148 30075 40107
AAXX 09184 94983 46/// /0508 10153 20151 30102 40127
AAXX 09184 94995 46/// /2113 10191 20164 30043 40051
AAXX 09184 94996 46/// /0616 10196 20171 39980 40108
AAXX 09184 94997 NIL
AAXX 09184 94998 46/// /2909 10058 20051 30126 40137
AAXX 09184 95111 46/// /0000 10267 20255 30022 40058
AAXX 09184 95205 46/// /2508 10265 20223 30053 40060
AAXX 09184 95322 NIL
AAXX 09184 95448 46/// /1106 10204 20143 39506 40053
AAXX 09184 95458 46/// /2013 10220 20167 39796 40049
AAXX 09184 95480 46/// /1507 10208 20182 39991 40049
AAXX 09184 95481 46/// /0608 10228 20141 39998 40042
AAXX 09184 95482 46/// /0507 10248 20192 39980 40033
AAXX 09184 95485 46/// /0707 10188 20153 39853 40051
AAXX 09184 95492 46/// /0704 10186 20151 39911 40061
AAXX 09184 95527 46/// /0107 10178 20164 39822 40069
AAXX 09184 95634 46/// /1507 10161 20136 39709 40103
AAXX 09184 95637 46/// /1407 10145 20117 39804 40132
AAXX 09184 95646 46/// /1507 10144 20141 39913 40096
AAXX 09184 95666 NIL
AAXX 09184 95719 46/// /1008 10169 20132 39756 40079
AAXX 09184 95762 46/// /1206 10178 20135 39629 40074
AAXX 09184 95826 NIL
AAXX 09184 95839 46/// /1207 10155 20123 39895 40051
AAXX 09184 95864 NIL
AAXX 09184 95909 NIL
AAXX 09184 95954 NIL
AAXX 09184 95966 46/// /3407 10159 20125 39923 40122
AAXX 09184 96995 46/// /3305 10249 20240 39788 40082
AAXX 09184 96996 454// 33009 10266 20239 30059 40063 58005
AAXX 09184 94893 46/// /0522 10163 20166 39955 40070
AAXX 09184 94907 46/// /3405 10135 20133 30061 40071
AAXX 09184 94910 46/// /0711 10190 20123 39839 40083
AAXX 09184 94926 46/// /1203 10129 20112 39453 40108
AAXX 09184 94935 46/// /0208 10181 20148 30081 40107
AAXX 09184 94954 46/// /0930 10160 20148 39969 40078
AAXX 09184 94956 46/// /1805 10164 20144 30056 40082
AAXX 09184 94975 46/// /0207 10164 20148 30075 40107
AAXX 09184 94983 46/// /0508 10153 20151 30102 40127
AAXX 09184 94995 46/// /2113 10191 20164 30043 40051
AAXX 09184 94996 46/// /0616 10196 20171 39980 40108
AAXX 09184 94997 NIL
AAXX 09184 94998 46/// /2909 10058 20051 30126 40137
AAXX 09184 95111 46/// /0000 10267 20255 30022 40058
AAXX 09184 95205 46/// /2508 10265 20223 30053 40060
AAXX 09184 95322 NIL
AAXX 09184 95448 46/// /1106 10204 20143 39506 40053
AAXX 09184 95458 46/// /2013 10220 20167 39796 40049
AAXX 09184 95480 46/// /1507 10208 20182 39991 40049
AAXX 09184 95481 46/// /0608 10228 20141 39998 40042
AAXX 09184 95482 46/// /0507 10248 20192 39980 40033
AAXX 09184 95485 46/// /0707 10188 20153 39853 40051
AAXX 09184 95492 46/// /0704 10186 20151 39911 40061
AAXX 09184 95527 46/// /0107 10178 20164 39822 40069
AAXX 09184 95634 46/// /1507 10161 20136 39709 40103
AAXX 09184 95637 46/// /1407 10145 20117 39804 40132
AAXX 09184 95646 46/// /1507 10144 20141 39913 40096
AAXX 09184 95666 NIL
AAXX 09184 95719 46/// /1008 10169 20132 39756 40079
AAXX 09184 95762 46/// /1206 10178 20135 39629 40074
AAXX 09184 95826 NIL
AAXX 09184 95839 46/// /1207 10155 20123 39895 40051
AAXX 09184 95864 NIL
AAXX 09184 95909 NIL
AAXX 09184 95954 NIL
AAXX 09184 95966 46/// /3407 10159 20125 39923 40122
AAXX 09184 96995 46/// /3305 10249 20240 39788 40082
AAXX 09184 96996 454// 33009 10266 20239 30059 40063 58005
AAXX 09183 91502 01465 80000 10245 20238 40080 5//// 60231 71586 8497/ 333 56999 60231 82814 81915 84629 87460
AAXX 09183 91507 01470 80504 10234 20225 40074 5//// 69921 71552 889// 333 56999 69921 83814 81915 85627
AAXX 09183 91520 11475 80000 10225 20224 40075 55009 60021 70522 8487/ 333 56999 81814 83630 88460
AAXX 09183 91541 NIL
AAXX 09184 94310 46/// /2723 10266 20221 30040 40051 57014
AAXX 09184 95283 46/// /0000 10259 20240 30070 40077
AAXX 09184 95288 46/// /0407 10287 30057 40072 56009
AAXX 09184 95675 46/// /3310
AAXX 09184 95872 46/// /0208
AAXX 09184 95961 35/// /3304 10162 30043 40084 57019
AAXX 09184 89564 45/// /3502 11050 21087 39746 49765 53013
AAXX 09184 89570 46/// /0905 11102 21134 39059 53025
AAXX 09184 89571 45/// /2003 11026 21083 39689 49717 53024
AAXX 09184 89573 NIL
AAXX 09184 89610 NIL
AAXX 09184 89611 45/// /0505 11026 21056 39656 49707 57016
AAXX 09184 89614 NIL
AAXX 09184 89615 468// 80928 11095 21132 38813 58021
AAXX 09184 89807 NIL
AAXX 09184 89809 46/// /0206 11060 21107 39258 56019
AAXX 09184 94500 NIL
AAXX 09184 94510 46/// /1804 10191 20179 39721 40059
AAXX 09184 94515 46/// /0106 10203 20182 39718 40058
AAXX 09184 94552 46/// /0608 10175 20167 39634 40091
AAXX 09184 94578 46/// /1305 10199 20180 30089 40100
AAXX 09184 94584 46/// /0410 10210 20182 39983 40091
AAXX 09184 94601 46/// /1414 10173 20110 30130 40147
AAXX 09184 94610 46/// /1017 10184 20131 30080 40103
AAXX 09184 94637 46/// /1101 10155 20116 39678 40095
AAXX 09184 94638 46/// /1003 10166 20143 30098 40129
AAXX 09184 94642 NIL
AAXX 09184 94643 NIL
AAXX 09184 94647 46/// /1707 10162 20134 39980 40099
AAXX 09184 94651 46/// /1907 10171 20140 30014 40090
AAXX 09184 94653 46/// /1807 10185 20158 30054 40072
AAXX 09184 94659 46/// /1906 10205 20179 39857 40047
AAXX 09184 94672 46/// /3607 10201 20168 30042 40052
AAXX 09184 94691 46/// /0405 10172 20167 39740 40058
AAXX 09184 94693 46/// /0802 10187 20149 30002 40062
AAXX 09184 94700 NIL
AAXX 09184 94703 46/// /0000 10186 20178 39945 40067
AAXX 09184 94710 46/// /0000 10171 20161 39824 40070
AAXX 09184 94729 46/// /0609 10132 20098 39254 40084
AAXX 09184 94750 46/// /3003 10135 20133 39993 40115
AAXX 09184 94767 46/// /1306 10182 20165 30108 40114
AAXX 09184 94776 46/// /0000 10160 20153 30094 40104
AAXX 09184 94791 NIL
AAXX 09184 94802 46/// /3103 10105 20097 30069 40151
AAXX 09184 94804 46/// /2213 10169 20147 30018 40055
AAXX 09184 94807 NIL
AAXX 09184 94821 46/// /3603 10162 20143 39970 40051
AAXX 09184 94842 46/// /0310 10201 20078 39951 40049
AAXX 09184 94847 NIL
AAXX 09184 94850 46/// /0814 10160 20158 30016 40061
AAXX 09184 94865 46/// /0208 10192 20151 30034 40058
AAXX 09184 94866 46/// /3510 10195 20128 39924 40062
AAXX 09184 94875 46/// /0705 10198 20121 39934 40067
AAXX 09184 89564 45/// /3502 11050 21087 39746 49765 53013
AAXX 09184 89570 46/// /0905 11102 21134 39059 53025
AAXX 09184 89571 45/// /2003 11026 21083 39689 49717 53024
AAXX 09184 89573 NIL
AAXX 09184 89610 NIL
AAXX 09184 89611 45/// /0505 11026 21056 39656 49707 57016
AAXX 09184 89614 NIL
AAXX 09184 89615 468// 80928 11095 21132 38813 58021
AAXX 09184 89807 NIL
AAXX 09184 89809 46/// /0206 11060 21107 39258 56019
BBXX 3ECI3 09184 99374 31734 41497 40820 10182 20151 40261 52010 70111 84134 22243 00170 20504 321// 41004 80164
BBXX VRAE2 09183 99078 31497 41/// 41005 10293 20251 40066 56014 70398 8//// 22234 04320 2//// 80263
BBXX S6CW 09183 99141 31586 41698 60218 10280 20244 40074 56011 70322 83772 22274 00287 21602 80255
BBXX VNSZ 09164 99385 31447 46/// /3106 10192 20166 30032 40058 57021 22275 04174 85175
BBXX C6FS9 09164 99193 31468 46/// /0308 10266 20247 30051 40086 57013 22200 85252
BBXX VROB 09164 99068 31470 46/// /3409 10254 20234 30054 40079 57023 22200 04309 85240
BBXX 9HA2479 09164 99288 31581 46/// /2021 10209 20168 30056 40085 57012 22254 04219 85182
BBXX FHZI 09164 99489 31454 46/// /3504 10102 20097 30068 40079 57017 22283 04101 85099
BBXX VNSZ 09174 99383 31448 46/// /0617 10187 20162 30026 40052 57012 22224 04175 85171
BBXX 9HA2479 09174 99290 31578 46/// /2017 10208 20169 30056 40085 57010 22254 04221 85182
BBXX C6FS9 09174 99193 31468 46/// /0408 10274 20249 30050 40085 57009 22200 85255
BBXX VROB 09174 99068 31470 46/// /3215 10254 20234 30051 40076 57017 22200 04305 85239
BBXX 9KWP 09183 99165 31026 41497 43015 10280 20252 40065 58005 70211 82132 22273 2//// 80260
BBXX FHZI 09174 99487 31454 46/// /0404 10103 20095 30057 40068 57022 22283 04101 85098
BBXX VNSZ 09184 99381 31449 46/// /0209 10197 20163 30026 40052 57016 22285 04189 85175
BBXX VROC 09184 99186 31542 41598 50908 10280 20237 40098 52010 70311 8487/ 22283 20201 80250
BBXX ZCAS2 09183 99193 31179 41498 12525 10250 20235 40056 57/// 70100 81100 22223 00270 20402 320// 40301 80240
BBXX VRWS3 09183 99067 31141 41/97 61605 10290 20276 40069 57020 70222 8/55/ 22234 04310 20300 80280
AAXX 09184 94299 46/// /0612 10281 20253 30067 40077
AAXX 09184 94300 46/// /2208 10230 20194 30072 40082
AAXX 09184 94302 46/// /2305 10241 20181 30072 40078
AAXX 09184 94312 46/// /2713 10260 20213 30040 40049
AAXX 09184 94313 NIL
AAXX 09184 94317 46/// /2505 10270 20084 39462 40030
AAXX 09184 94319 46/// /3305 10255 20161 39709 40030
AAXX 09184 94324 NIL
AAXX 09184 94326 46/// /0000 10253 20157 39413 40010
AAXX 09184 94327 46/// /3507 10238 20208 39665 40028
AAXX 09184 94332 46/// /0204 10257 20189 39664 40039
AAXX 09184 94333 NIL
AAXX 09184 94341 46/// /0000 10231 20130 39815 40044
AAXX 09184 94346 46/// /0202 10232 20176 39832 40046
AAXX 09184 94363 46/// /0407 10227 20215 39861 40073
AAXX 09184 94366 NIL
AAXX 09184 94367 46/// /0206 10259 20240 30043 40084
AAXX 09184 94374 46/// /0401 10240 20211 30075 40091
AAXX 09184 94388 46/// /0208 10244 20196 30095 40100
AAXX 09184 94393 46/// /0701 10251 30079 40091 56003
AAXX 09184 94394 46/// /0507 10232 30092 40100 55001
AAXX 09184 94403 46/// /1612 10211 20167 30035 40076
AAXX 09184 94429 46/// /1207 10247 20116 39601 40053
AAXX 09184 94430 46/// /1910 10230 20138 39483 40050
AAXX 09184 94449 46/// /1310 10204 20119 39562 40079
AAXX 09184 94451 NIL
AAXX 09184 94461 46/// /1208 10240 20086 39380 40030
AAXX 09184 94462 46/// /1610 10270 20107 39487 40026
AAXX 09184 94477 NIL
AAXX 09184 94488 NIL
AAXX 09184 92001 NIL
AAXX 09184 92014 NIL
AAXX 09184 92044 11460 70000 10250 20243 30071 40077 5//// 60031 7028/ 82232
AAXX 09184 92047 NIL
AAXX 09184 92100 NIL
BBXX 3ECI3 09184 99374 31734 41497 40820 10182 20151 40261 52010 70111 84134 22243 00170 20504 321// 41004 80164
BBXX VRAE2 09183 99078 31497 41/// 41005 10293 20251 40066 56014 70398 8//// 22234 04320 2//// 80263
BBXX S6CW 09183 99141 31586 41698 60218 10280 20244 40074 56011 70322 83772 22274 00287 21602 80255
BBXX VNSZ 09164 99385 31447 46/// /3106 10192 20166 30032 40058 57021 22275 04174 85175
BBXX C6FS9 09164 99193 31468 46/// /0308 10266 20247 30051 40086 57013 22200 85252
BBXX VROB 09164 99068 31470 46/// /3409 10254 20234 30054 40079 57023 22200 04309 85240
BBXX 9HA2479 09164 99288 31581 46/// /2021 10209 20168 30056 40085 57012 22254 04219 85182
BBXX FHZI 09164 99489 31454 46/// /3504 10102 20097 30068 40079 57017 22283 04101 85099
BBXX VNSZ 09174 99383 31448 46/// /0617 10187 20162 30026 40052 57012 22224 04175 85171
BBXX 9HA2479 09174 99290 31578 46/// /2017 10208 20169 30056 40085 57010 22254 04221 85182
BBXX C6FS9 09174 99193 31468 46/// /0408 10274 20249 30050 40085 57009 22200 85255
BBXX VROB 09174 99068 31470 46/// /3215 10254 20234 30051 40076 57017 22200 04305 85239
BBXX 9KWP 09183 99165 31026 41497 43015 10280 20252 40065 58005 70211 82132 22273 2//// 80260
BBXX FHZI 09174 99487 31454 46/// /0404 10103 20095 30057 40068 57022 22283 04101 85098
BBXX VNSZ 09184 99381 31449 46/// /0209 10197 20163 30026 40052 57016 22285 04189 85175
BBXX VROC 09184 99186 31542 41598 50908 10280 20237 40098 52010 70311 8487/ 22283 20201 80250
BBXX ZCAS2 09183 99193 31179 41498 12525 10250 20235 40056 57/// 70100 81100 22223 00270 20402 320// 40301 80240
BBXX VRWS3 09183 99067 31141 41/97 61605 10290 20276 40069 57020 70222 8/55/ 22234 04310 20300 80280
BBXX PBLQ 09183 99046 10026 41498 32504 10290 20255 40080 53005 70200 82100 22200 04290 20000 30000 80265
AAXX 09184 92001 NIL
AAXX 09184 92014 NIL
AAXX 09184 92044 11460 70000 10250 20243 30071 40077 5//// 60031 7028/ 82232
AAXX 09184 92047 NIL
AAXX 09184 92100 NIL
AAXX 09184 94500 NIL
AAXX 09184 94510 46/// /1804 10191 20179 39721 40059
AAXX 09184 94515 46/// /0106 10203 20182 39718 40058
AAXX 09184 94552 46/// /0608 10175 20167 39634 40091
AAXX 09184 94578 46/// /1305 10199 20180 30089 40100
AAXX 09184 94584 46/// /0410 10210 20182 39983 40091
AAXX 09184 94601 46/// /1414 10173 20110 30130 40147
AAXX 09184 94610 46/// /1017 10184 20131 30080 40103
AAXX 09184 94637 46/// /1101 10155 20116 39678 40095
AAXX 09184 94638 46/// /1003 10166 20143 30098 40129
AAXX 09184 94642 NIL
AAXX 09184 94643 NIL
AAXX 09184 94647 46/// /1707 10162 20134 39980 40099
AAXX 09184 94651 46/// /1907 10171 20140 30014 40090
AAXX 09184 94653 46/// /1807 10185 20158 30054 40072
AAXX 09184 94659 46/// /1906 10205 20179 39857 40047
AAXX 09184 94672 46/// /3607 10201 20168 30042 40052
AAXX 09184 94691 46/// /0405 10172 20167 39740 40058
AAXX 09184 94693 46/// /0802 10187 20149 30002 40062
AAXX 09184 94700 NIL
AAXX 09184 94703 46/// /0000 10186 20178 39945 40067
AAXX 09184 94710 46/// /0000 10171 20161 39824 40070
AAXX 09184 94729 46/// /0609 10132 20098 39254 40084
AAXX 09184 94750 46/// /3003 10135 20133 39993 40115
AAXX 09184 94767 46/// /1306 10182 20165 30108 40114
AAXX 09184 94776 46/// /0000 10160 20153 30094 40104
AAXX 09184 94791 NIL
AAXX 09184 94802 46/// /3103 10105 20097 30069 40151
AAXX 09184 94804 46/// /2213 10169 20147 30018 40055
AAXX 09184 94807 NIL
AAXX 09184 94821 46/// /3603 10162 20143 39970 40051
AAXX 09184 94842 46/// /0310 10201 20078 39951 40049
AAXX 09184 94847 NIL
AAXX 09184 94850 46/// /0814 10160 20158 30016 40061
AAXX 09184 94865 46/// /0208 10192 20151 30034 40058
AAXX 09184 94866 46/// /3510 10195 20128 39924 40062
AAXX 09184 94875 46/// /0705 10198 20121 39934 40067
AAXX 09184 94299 46/// /0612 10281 20253 30067 40077
AAXX 09184 94300 46/// /2208 10230 20194 30072 40082
AAXX 09184 94302 46/// /2305 10241 20181 30072 40078
AAXX 09184 94312 46/// /2713 10260 20213 30040 40049
AAXX 09184 94313 NIL
AAXX 09184 94317 46/// /2505 10270 20084 39462 40030
AAXX 09184 94319 46/// /3305 10255 20161 39709 40030
AAXX 09184 94324 NIL
AAXX 09184 94326 46/// /0000 10253 20157 39413 40010
AAXX 09184 94327 46/// /3507 10238 20208 39665 40028
AAXX 09184 94332 46/// /0204 10257 20189 39664 40039
AAXX 09184 94333 NIL
AAXX 09184 94341 46/// /0000 10231 20130 39815 40044
AAXX 09184 94346 46/// /0202 10232 20176 39832 40046
AAXX 09184 94363 46/// /0407 10227 20215 39861 40073
AAXX 09184 94366 NIL
AAXX 09184 94367 46/// /0206 10259 20240 30043 40084
AAXX 09184 94374 46/// /0401 10240 20211 30075 40091
AAXX 09184 94388 46/// /0208 10244 20196 30095 40100
AAXX 09184 94393 46/// /0701 10251 30079 40091 56003
AAXX 09184 94394 46/// /0507 10232 30092 40100 55001
AAXX 09184 94403 46/// /1612 10211 20167 30035 40076
AAXX 09184 94429 46/// /1207 10247 20116 39601 40053
AAXX 09184 94430 46/// /1910 10230 20138 39483 40050
AAXX 09184 94449 46/// /1310 10204 20119 39562 40079
AAXX 09184 94451 NIL
AAXX 09184 94461 46/// /1208 10240 20086 39380 40030
AAXX 09184 94462 46/// /1610 10270 20107 39487 40026
AAXX 09184 94477 NIL
AAXX 09184 94488 NIL
AAXX 09184 94102 46/// /2611 10286 20250 30054 40063
AAXX 09184 94103 NIL
AAXX 09184 94120 46/// /0000 10265 20255 30020 40060
AAXX 09184 94122 NIL
AAXX 09184 94131 46/// /3204 10270 20249 39907 40057
AAXX 09184 94132 NIL
AAXX 09184 94147 NIL
AAXX 09184 94150 46/// /0000 10259 20249 39997 40056
AAXX 09184 94151 46/// /3405 10295 20253 30035 4////
AAXX 09184 94170 46/// /1103 10244 20234 30042 40064
AAXX 09184 94200 NIL
AAXX 09184 94203 46/// /2610 10278 20223 30053 40063
AAXX 09184 94206 46/// /2807 10277 20224 39920 40048
AAXX 09184 94207 46/// /2417 10274 30050 40058 56019
AAXX 09184 94211 NIL
AAXX 09184 94212 46/// /2801 10271 20197 39577 40038
AAXX 09184 94216 46/// /3603 10264 20250 30007 40057
AAXX 09184 94236 NIL
AAXX 09184 94238 46/// /3204 10243 20218 39629 40041
AAXX 09184 94248 NIL
AAXX 09184 94255 46/// /0904 10268 20211 39796 40052
AAXX 09184 94268 46/// /0602 10249 20240 30052 40064
AAXX 09184 94287 46/// /3003 10260 20243 30070 40079
AAXX 09184 94290 NIL
AAXX 09184 94294 46/// /0610 10268 20236 30073 40083
AAXX 09184 94296 35/// /0506 10276 30067 40077 57009
AAXX 09184 94298 46/// /0515 10247 30077 40083 58004
AAXX 09184 95641 NIL
AAXX 09183 NIL
AAXX 09184 40356 42960 02307 10090 20040 39197 48493 333 10140 58007 55089 555 04410 50184
AAXX 09184 40357 42960 02210 10119 20060 39541 40186 333 10191 58012 55///
AAXX 09184 40360 42960 02610 10116 20040 39594 40181 333 10194 58016 55081
AAXX 09184 40361 42960 00000 10100 21020 39418 40196 333 10180 58017 55///
AAXX 09184 40362 42960 00000 10105 21020 39671 40195 333 10197 58016 55///
AAXX 09184 40373 42960 01508 10154 20010 39773 40198 333 10212 58002 55///
AAXX 09184 40375 42960 00103 10118 20000 39303 40179 333 10200 58009 55090
AAXX 09184 40377 42960 01202 10128 20050 39715 40202 333 10236 58006 55///
AAXX 09184 40394 42960 00804 10126 21030 39054 48525 333 10200 58013 55090 555 04410 50191
AAXX 09184 40400 42960 03218 10220 20140 30131 40159 333 10265 59002 55///
AAXX 09184 40401 42960 01804 10165 21090 39465 40166 333 10240 58009
AAXX 09184 40405 42960 00906 10170 20070 39442 40184 333 10255 58007 55///
AAXX 09184 40416 42960 09902 10145 20110 30174 40194 333 10230 58005 55///
AAXX 09184 40417 42960 00203 10121 20000 30194 40209 333 10211 58002 55///
AAXX 09184 40420 42960 03002 10128 20050 39997 40207 333 10230 58001 55///
AAXX 09184 40430 42960 00000 10220 20050 39420 40133 333 10280 59004 55081
AAXX 09184 40435 NIL
AAXX 09184 40437 42960 01403 10118 21010 39497 40211 333 10240 59004 55090
AAXX 09184 40439 42960 02909 10228 20140 30118 40128 333 10304 58001 55088
AAXX 09184 06610 32575 72209 10089 20045 39593 40175 5//// 85831 333 10103 31/// 553// 20000 81830 85640 90766 93100
AAXX 09184 40550 37/41 /2402 10102 20053 40206 51007 71010 333 55300 00000 10204 20000 30000 41070 51273 60000 55407 40000 90069 90401 91001 91113 91205 91301
AAXX 09184 40551 36/// /1205 10117 20066 333 90400 91009 91115 91209 91305
AAXX 09184 40552 37/57 /1508 10111 20075 40205 50007 71011 333 55300 90069 90400 91009 91115 91213 91309
AAXX 09184 40553 37/56 /1512 10124 20095 40202 50003 71010 333 55300 90069 90400 91013 91115 91213 91311
AAXX 09184 40568 36/// /1702 10124 20121 333 90400 91003 91107 91207 91305
AAXX 09184 40569 NIL
AAXX 09184 40570 35/70 /1603 10124 21044 40207 51015 333 55300 90069 90401 91007 91113 91209 91305
AAXX 09184 40571 NIL
AAXX 09184 40572 NIL
AAXX 09184 40573 36/// /1704 10113 21093 333 90401 91009 91117 91213 91309
AAXX 09184 40580 46/// /1601 10131 20083 333 553// 00000 10256 20000 30000 41056 51312 60000 55407 40000 90400 91003 91111 91203 91301
AAXX 09184 40581 36/// /1903 10162 20094 333 90400 91005 91111 91203 91301
AAXX 09184 40582 32960 21506 10123 20041 40205 50003 80001 333 55300 00000 10203 20000 30000 41097 51300 60000 55407 40000 82070 90401 91007 91115 91209 91305
AAXX 09184 40583 NIL
AAXX 09184 40585 36/// /1816 10169 20124 222// 1//// 3//// 4//// 70/// 333 90401 91017 91123 91215 91311
AAXX 09184 40586 36/// /1604 10124 20049 333 90400 91005 91113 91207 91303
AAXX 09184 40587 36/// /1605 10125 20045 333 553// 00000 10218 20000 30000 41055 51273 60000 55407 40000 90401 91011 91111 91207 91303
AAXX 09184 40588 37/56 /1307 10132 20101 40206 50003 71011 333 55300 90069 90401 91009 91109 91207 91305
AAXX 09184 40589 NIL
AAXX 09184 40590 36/// /1512 10133 21059 333 90400 91015 91115 91213 91311
AAXX 09184 40591 NIL
AAXX 09184 40592 35/67 /2003 10101 20002 40211 50006 333 55300 00000 10229 20000 30000 41036 51265 60000 55407 40000 90069 90401 91003 91109 91205 91303
AAXX 09184 40593 36/// /2204 10142 20084 333 90400 91005 91113 91211 91307
AAXX 09184 40594 36/// /2105 10122 20067 333 90401 91005 91111 91207 91303
AAXX 09184 40596 46/// /1607 10184 20089 333 90400 91007 91109 91207 91305
AAXX 09184 91577 06/// /0402 10238 20201 30075 40096 55000 60001 333 58015 60007
AAXX 09184 41024 42960 03406 10250 20190 30112 40131 333 10320 58003 55080
AAXX 09184 41030 42960 03602 10270 20170 39852 40121 333 10340 58004 55///
AAXX 09184 41036 42960 02904 10185 20130 38575 48525 333 10260 59001 55095 555 04410 50120
AAXX 09184 41055 42960 00906 10166 20010 38383 48531 333 10236 58003 55097 555 04410 50153
AAXX 09184 41061 42960 01006 10143 20020 39477 40191 333 10240 58005 55101
AAXX 09184 41084 42960 00404 10172 21010 38879 48530 333 10268 58004 55100 555 04410 50154
AAXX 09184 41112 42960 00000 10140 20130 37956 48520 333 10241 59002 55097 555 04410 50150
AAXX 09184 41114 42960 00902 10141 20120 37988 48518 333 10240 59002 55100 555 04410 50149
AAXX 09184 41128 42960 00404 10150 21030 38842 48544 333 10244 59003 55085 555 04410 50180
AAXX 09184 41136 42960 00706 10161 21060 39359 40180 333 10250 59002 55101
AAXX 09184 41140 42560 10000 10283 20220 30120 40132 81400 333 10320 58002 55/// 81630
AAXX 09184 67002 11580 70202 10265 20235 30077 40111 69902 72162 87900 333 10315 58009 82920 86630 924/7
AAXX 09184 67009 NIL
AAXX 09184 67025 NIL
AAXX 09184 67027 31580 32808 10260 20238 30080 40101 52019 71311 83932 333 10302 83820 81920 94963 95813 555 81360 81073
AAXX 09184 67083 11470 81202 10175 20166 38740 48514 53014 60012 72196 8497/ 333 10279 81817 84917 94979 95839= RR 1,0MM 67095 11465 70000 10253 20241 30108 40114 52015 69952 71562 8597/ 333 10311 81917 83817 84633 86460 94976/7 95836/7
AAXX 09184 67113 NIL
AAXX 09184 67117 NIL
AAXX 09184 67137 NIL
AAXX 09184 67143 NIL
AAXX 09184 67161 NIL
AAXX 09184 67197 32480 61010 10250 20236 30099 40109 52010 83870 333 10304 82817 85460 555 82633
AAXX 09184 06670 01670 82410 10089 20057 39646 40154 5//// 60012 76162 8172/ 333 10115 32/// 553// 20000 60015 81736 87546 90766 93100
AAXX 09184 06700 01682 72306 10085 20038 39699 40192 5//// 69912 70282 8454/ 333 10100 31/// 553// 20000 60005 82635 84642 86357 90766 93100
AAXX 09184 06680 01/01 92523 11043 21043 37467 47001 5//// 69942 74741 333 11037 47090 553// 20000 60005 90766 93100
AAXX 09184 06990 31960 31307 10081 21005 39620 40166 5//// 71011 83020 333 10112 31/// 553// 20000 83462
AAXX 09184 06760 32880 50000 10071 21028 39750 40202 5//// 85031 333 10080 30/// 553// 20000 85358 90766 93100
AAXX 09184 06720 32975 00601 10015 21004 39621 40212 5//// 333 10063 30/// 553// 20000 90766 93100
AAXX 09181 38141 32998 21101 11146 21197 30107 40279 53006 80002 333 11098
AAXX 09181 38149 42598 80803 11077 21117 30188 40269 52003 69900 885// 333 11029
AAXX 09181 38178 426// 73601 11049 21153 39980 40280 53006 87500 333 11022
AAXX 09181 38262 126// 80902 11064 21096 30182 40268 52001 69900 885// 333 11059
AAXX 09181 38264 12298 80905 11080 21086 30171 40270 52003 69900 886// 333 11078 88704
AAXX 09181 38396 41196 80903 11052 21062 30138 40269 52002 71022 886// 333 11055 88701
AAXX 09181 38403 414// 80202 11050 21078 30131 40258 53001 71022 886// 333 11031
AAXX 09181 38413 429// 82601 11042 21064 39957 40261 57004 8807/ 333 11006
AAXX 09181 38457 31996 30101 11007 21022 39645 40248 57007 71000 333 10091
AAXX 09181 38462 429// 30000 11046 21117 38800 48532 58003 82051 333 10003
AAXX 09181 38565 329// 00000 11030 21050 39648 40255 56001 333 10050
AAXX 09181 38579 329// 00000 11026 21032 39820 40254 58005 333 10058
AAXX 09181 38583 31996 33401 11024 21030 39919 40253 58010 71000 80001 333 10020
AAXX 09181 38611 41996 03302 10004 21010 39702 40290 57004 71000 333 10040
AAXX 09181 38618 329// 00301 11019 21035 39554 40268 58004 333 10048
AAXX 09181 38683 11/91 90202 11042 21042 39959 40249 58001 69900 74942 333 11018 89/01
AAXX 09181 38696 329// 01601 11012 21055 39373 40256 58001 333 10094
AAXX 09181 38812 41995 00702 10010 21001 39765 40229 54000 71000 333 10048
AAXX 09181 38927 31956 00000 10002 21004 39867 40256 52006 71000 333 10105
AAXX 09181 37395 11596 80000 10062 20051 30097 40239 52021 60030 78088 8792/ 333 10092
AAXX 09181 37409 31/91 92706 11010 21010 38787 48503 52009 74544 333 10042 95090
AAXX 09181 37432 32997 00000 11020 21065 38949 48479 57007 333 10044
AAXX 09181 37514 32696 70000 10007 21019 39063 40241 52022 87500 333 10038
AAXX 09181 37545 329// 03203 10024 21000 39697 40222 52035 333 10068
AAXX 09181 37621 326// 40000 10039 21053 39555 40204 52020 80030 333 10110
AAXX 09181 37484 NIL
AAXX 09181 26659 11457 81604 11006 21015 39856 40073 58030 69932 77172 8872/ 333 11004 88512
BBXX TBWAA05 09183 99592 10211 41297 82030 10040 21009 49824 51021 79792 887// 22223 2//// 3//// 4//// 5//// 80020 00/87 1/764 5989300/ 871/7 64598 93931/65 1/626 /807
BBXX MSTM6 09183 99422 70098 41298 83408 10162 20122 40215 56020 70352 877// 22284 06155 20220 332// 41008 5//// 80140
BBXX UANA 09181 99730 10335 41/93 21805 10029 40032 32001 70110 80020 22242 04031 20202
BBXX UFNZ 09181 99394 70100 41298 72707 11170 40249 57013 70110 87201 22254 00120 20201
AAXX 09181 56187 11961 82901 10055 20016 39697 40366 52009 69901 70060 8807/ 333 00300 10087
AAXX 09181 56778 NIL
AAXX 09181 57265 NIL
AAXX 09181 57461 32960 70901 10048 21010 30213 40382 57002 8704/ 333 10075
AAXX 09181 57494 NIL
AAXX 09181 57516 11456 80901 10070 20050 30033 40354 52009 60021 76066 8672/ 333 00251 10092
AAXX 09181 57687 32975 73202 10047 21065 30273 40360 57003 8704/ 333 10093
AAXX 09181 57816 11461 80902 10002 21025 38897 40344 52007 69901 77070 885// 333 00051 10035
AAXX 09181 58040 32960 02902 11034 21094 30328 40342 57010 333 10011
AAXX 09181 58102 32970 02201 11024 21087 30313 40364 57013 333 10026
AAXX 09181 58150 32962 02702 11021 21082 30342 40346 57008 333 10025
AAXX 09181 58221 NIL
AAXX 09181 58238 NIL
AAXX 09181 58251 NIL
AAXX 09181 58362 NIL
AAXX 09181 58457 32960 03403 10008 21070 30291 40346 57009 333 10066
AAXX 09181 58606 NIL
AAXX 09181 58752 NIL
AAXX 09181 58847 NIL
AAXX 09181 59117 32965 70203 10086 21004 30166 40276 57002 8704/ 333 10117
AAXX 09181 59134 NIL
AAXX 09181 59287 NIL
AAXX 09181 59316 32965 72202 10113 20031 30235 40240 57007 8704/ 333 10163
AAXX 09181 59431 NIL
AAXX 09181 59644 NIL
AAXX 09181 59758 NIL
AAXX 09181 34523 32597 82901 10023 20010 30140 40217 52011 885// 333 10038 88623
AAXX 09181 48803 32497 80000 10155 20137 30120 40236 52008 888// 333 58015 84894 88696
AAXX 09181 50468 32970 02903 11153 21192 39932 40153 57008 333 11109
AAXX 09181 50953 NIL
AAXX 09181 51076 NIL
AAXX 09181 51243 NIL
AAXX 09181 51288 32980 02901 11069 21205 38387 57008 333 05754 10006
AAXX 09181 51463 NIL
AAXX 09181 51573 NIL
AAXX 09181 51709 NIL
AAXX 09181 52533 NIL
AAXX 09181 52652 NIL
AAXX 09181 52866 NIL
AAXX 09181 52983 NIL
AAXX 09181 53463 32980 02202 11125 21199 39091 40423 57010 333 05351 11068
AAXX 09181 53513 32970 02204 11125 21177 39140 40449 57012 333 05101 11056
AAXX 09181 53588 NIL
AAXX 09181 53772 NIL
AAXX 09181 53915 NIL
AAXX 09181 54218 32970 32507 11107 21226 39455 40300 57018 80002 333 11043
AAXX 09181 54337 NIL
AAXX 09181 54342 NIL
AAXX 09181 54401 NIL
AAXX 09181 54471 32960 01403 11100 21150 30273 40279 57018 333 11062
AAXX 09181 54497 32965 01102 11103 21166 30268 40285 57007 333 11025
AAXX 09181 54511 NIL
AAXX 09181 54823 32970 01102 11044 21100 30124 40345 57015 333 11003
AAXX 09181 56080 NIL
AAXX 09181 56096 NIL
AAXX 09181 57083 32963 02704 10011 21104 30214 40356 57010 333 10034
AAXX 09181 13262 32998 00000 10032 20003 30060 40213 51001 333 10114
AAXX 09181 13289 32898 52002 10038 21131 39012 48511 57003 85070 333 10048 4/015
AAXX 09181 13388 32997 00000 10027 21005 39999 40254 58003 333 10086
AAXX 09181 13160 32697 81902 10060 20022 30087 40197 56006 885// 333 10084
AAXX 09181 13285 32998 50401 10035 21006 30120 40225 58002 80006 333 10100
AAXX 09181 13376 32998 20601 10019 21002 39965 40235 54000 80001 333 10078
AAXX 09181 13489 31992 00000 11023 21023 39751 40297 53004 74444 333 10024
AAXX 09181 26058 01207 81504 11004 21010 39989 49997 56024 60012 77372 8872/ 333 10008 21004 69997 88506 91008 91113 555 1/101 21004 3/101 50000 52101
AAXX 09184 60710 12558 21104 10121 20107 30145 40225 58003 60002 81202 333 10202 81826
AAXX 09184 60714 12568 21004 10129 2//// 30239 40245 55004 60002 82200 333 10183 82820
AAXX 09184 60720 12560 31606 10160 20131 30212 40246 58006 60002 82502 333 10196 82630
AAXX 09184 60728 NIL
AAXX 09184 60729 NIL
AAXX 09184 60731 05960 /1206 10160 20124 30237 40244 58002 60002 333 10195 20074 59029 60007 91006 91116
AAXX 09184 60732 12960 00904 10108 20063 39629 40220 51002 60002 333 10213
AAXX 09184 60734 12958 31802 10122 20094 39717 40124 54000 60002 80002 333 10204 82070
AAXX 09184 60738 NIL
AAXX 09184 60739 12960 02212 10108 21006 39004 48592 56001 60002 333 10194
AAXX 09184 60740 12962 21606 10159 20123 30247 40249 53002 60002 80002 333 10214 82070
AAXX 09184 60742 NIL
AAXX 09184 60764 NIL
AAXX 09184 60770 12975 02702 10166 20105 30124 40262 53005 60002 333 10229
AAXX 09184 60772 NIL
AAXX 09184 60775 12965 02602 10163 20031 39911 40265 53004 60002 333 10221
AAXX 09184 60780 12960 01904 10142 20041 39968 40261 52004 60002 333 10227
AAXX 09181 26045 27311 71607 11002 21002 39953 49955 57024 77177 87/// 333 10010 21004 69967 87/10 91014 91116 555 1/100 21004 3/101 51002
AAXX 09181 26115 01456 82110 10064 20042 39845 49853 56019 60112 76162 8872/ 333 10064 20018 60057 88516 91015 91118 555 1/004 20018 3/001 50033
AAXX 09184 84534 31560 7//// 10274 20218 39350 40055 7032/ 8423/ 333 5699/ 59010 84830 87358
AAXX 09184 84455 21460 80000 10290 20225 39800 40148 70346 8353/ 333 5600/ 58010 60021 83620 86358
AAXX 09184 84531 31960 51915 10222 20161 30087 40104 70222 85030 333 56090 59009 85362
AAXX 09184 84691 31450 63006 10237 20189 30118 40135 70544 82601 333 56000 58013 82712 84073
AAXX 09184 84377 31560 83105 10312 20250 39980 40082 70222 86540 333 5600 /59006 86620 86358
AAXX 09184 84425 31460 83108 10290 20235 39914 40122 70222 8353/ 333 5689/ 58004 83615 85360
AAXX 09184 84773 31862 71706 10232 20164 30105 40130 70222 87010 333 56090 59007 87458
AAXX 09184 84720 31960 43008 10330 20178 39482 40148 70300 84010 333 56090 58002 84468
AAXX 09184 84564 31560 40618 10290 20164 38120 70200 84200 333 56100 59002 84830
AAXX 09184 84752 32960 72310 10186 20045 37518 70222 80001 333 56009 59006 87073
AAXX 09184 84444 21440 8//// 10153 20124 37530 71165 8427/ 333 5699/ 58012 60141 84810 85650 88465
AAXX 09184 84472 21560 81708 10204 20121 37391 70322 886// 333 56900 58000 69911 83630 86740
AAXX 09184 84735 31560 89905 10162 20033 36427 70222 84120 333 56990 58008 84830 88560
AAXX 09184 84658 21256 82702 10241 20238 39857 40091 76166 886// 333 569// 58026 61091 84705 84610
BBXX 44139 09181 99442 70571 46/// /2806 10048 40305 52005 22200 00088 11109 70043 333 91208
AAXX 09183 91551 11497 80000 10245 20241 4//// 5//// 60181 76126 8592/ 333 5629/ 60181 84818 81922 88640
AAXX 09183 91553 11598 80000 10245 20238 40097 56007 60021 72588 8292/ 333 5639/ 60021 82820 81925 88461
AAXX 09183 91554 11498 83404 10235 20228 40098 53002 60021 70228 8497/ 333 5689/ 60021 84818 81920 88461
AAXX 09183 91555 31598 79903 10255 20241 40089 56009 70222 8117/ 333 5699/ 81825 87460
AAXX 09183 91557 11598 89903 10240 20233 40077 56003 60071 72522 8117/ 333 5699/ 60071 84820 81925 88460
AAXX 09183 91565 11498 80905 10240 20230 40090 56003 69921 72522 8297/ 333 5619/ 82818 81920 88640
AAXX 09183 91568 11598 80000 10240 20233 40107 56005 72582 8582/ 333 5639/ 69941 82820 85640 88460
BBXX 44139 09181 99442 70571 46/// /2806 10048 40305 52005 22200 00088 11109 70043 333 91208
AAXX 09183 91551 11497 80000 10245 20241 4//// 5//// 60181 76126 8592/ 333 5629/ 60181 84818 81922 88640
AAXX 09183 91553 11598 80000 10245 20238 40097 56007 60021 72588 8292/ 333 5639/ 60021 82820 81925 88461
AAXX 09183 91554 11498 83404 10235 20228 40098 53002 60021 70228 8497/ 333 5689/ 60021 84818 81920 88461
AAXX 09183 91555 31598 79903 10255 20241 40089 56009 70222 8117/ 333 5699/ 81825 87460
AAXX 09183 91557 11598 89903 10240 20233 40077 56003 60071 72522 8117/ 333 5699/ 60071 84820 81925 88460
AAXX 09183 91565 11498 80905 10240 20230 40090 56003 69921 72522 8297/ 333 5619/ 82818 81920 88640
AAXX 09183 91568 11598 80000 10240 20233 40107 56005 72582 8582/ 333 5639/ 69941 82820 85640 88460
BBXX C6SI6 09184 99493 11583 46/// /2819 11016 21079 49932 51024 7//// 8//// 22253 0//// 2////
BBXX LAJS6 09184 99500 11799 41597 81542 10070 20050 49860
BBXX SHIP 09184 99427 11759 41697 82720 10090 20090 49963 51023 75362 8571/ 22223 00150 80090
AAXX 09181 01257 16/// /1101 10007 21017 39619 49777 52012 60002 333 10014 91104
AAXX 09181 01488 16/// /3004 10011 21010 60162 333 10018 4/021 91108
BBXX 46035 09181 99571 71778 46/// /1312 1//// 49894 58063 91750 22200 10806 20704 300// 40805 70030 333 91214 555 11118 22126 31724 41217 61749 126118 122126 121136 116118 116104 121117 81215 91724
BBXX 4XFV 09183 99542 71633 43298 82920 10055 00/// 20010 40215 56005 7//// 833// 22274 0//// 2//// ///// 3//// 4//// 5//// 6//// 80035
BBXX A8SI3 09183 99545 71696 43698 11430 10040 20020 40160 52010 22224 00040 20607 80030
BBXX KEY796 09183 99571 71703 41/97 81816 10039 20039 40055 58/// 761// 8//// 222// 00028 2//// 3//// 4//// 5//// 6//// 8//// ICE /////
BBXX LAYG5 09184 99542 71548 41598 72923 10050 20000 40230 51015 70201 8749/ 22263 00075 21104 327// 4//// 5//// 80030
BBXX NWS0003 09184 99600 71746 43/// /1326 10010 21011 49970 5//// 7//// 8//// 222// 04024 2//// 3//// 4//// 5//// 6//// 8//// ICE /////
BBXX 3FZK3 09184 99448 11498 46/// /2924 11017 21065 40086 57006 7//// 8//// 22213 0//// 2////
BBXX A8EH3 09183 99426 11457 41598 63116 10020 21033 40135 54000 702// 861// 22214 04080 20301 80000
BBXX DCAX2 09183 99313 11243 41398 21613 10080 20058 40290 50010 70322 821// 22253 20403 3//// 4//// 5//// 80070
BBXX DGBE 09183 99349 11440 41/97 82715 10120 20026 40162 52012 76022 8//// 22264 00220 2//// 80075
BBXX DMRX 09184 99382 11480 41497 50221 10080 20013 40155 51021 70311 8556/ 22214 00170 20504 80050
BBXX ONDE 09183 99362 11411 41997 23516 10060 21012 40170 51010 7//00 82/99 22200 00160 20303 335// 4//// 5//// 6//// 80030 ICE /////
BBXX WCX8883 09184 99320 11329 41/// 93211 10120 20040 40210 54000 70222 89/// 22211 00230 2//// 3//// 4//// 5//// 6//// 80080 ICE /////
AAXX 09181 01046 11889 81603 11032 21066 30041 40048 55002 60002 70121 81042 333 11026 91108
AAXX 09184 71935 11474 82504 11134 21157 39887 40101 53003 60011 70272 885// 333 11120 21269 44015 70014 90952 93102
AAXX 09184 71935 11474 82504 11134 21157 39887 40101 53003 60011 70272 885// 333 11120 21269 44015 70014 90952 93102
AAXX 09181 26135 27356 81605 10000 21003 39872 49947 56020 78587 88/// 333 10002 21009 69967 88/08 91112 555 1/100 21009 3/101 51006 52101
AAXX 09181 26247 27/64 /1605 10003 20001 39895 49974 58017 77177 333 10004 21008 69987 91010 91112 555 1/100 21008 3/101 51009
AAXX 09184 61017 32960 50000 10180 20038 39757 40172 80002 333 10280 59003 85080
AAXX 09184 61024 31945 41012 10230 20006 39580 40151 70700 80002 333 10283 58008 84080
AAXX 09184 61036 31956 70804 10290 20000 39862 40099 7052/ 80008 333 10324 58002 87280
AAXX 09184 61043 32960 70610 10265 21080 39676 40118 80008 333 10305 59002 87280
AAXX 09184 61045 31956 71008 10250 21005 39630 40129 7064/ 80008 333 10290 59008 87280
AAXX 09184 61049 31918 70404 10250 20060 39800 40121 7062/ 80008 333 10282 58003 87280
AAXX 09184 61052 31918 50804 10285 21036 39852 40109 70622 80002 333 10328 59005 85080
AAXX 09184 61075 31957 51002 10272 21008 39798 40107 70622 80002 333 10315 59002 85080
AAXX 09184 61080 31925 71006 10256 21018 39701 40124 70622 80008 333 10300 58001 87280
AAXX 09184 61090 31925 70406 10255 21080 39614 40127 70622 80008 333 10288 58001 87280
AAXX 09184 61091 31958 70000 10240 20060 39676 40135 7052/ 80008 333 10295 58003 87280
AAXX 09184 61096 31930 70406 10248 21046 39745 40130 70522 80008 333 10302 58009 87280
AAXX 09184 61099 31945 70406 10290 20020 39861 40088 7062/ 80008 333 10334 58002 87280
AAXX 09184 41255 36/// /2301 10193 20059 39652 40210 333 0E023 10262 58015
AAXX 09184 65352 31920 70000 10303 20048 3//// 4//// 70522 80002 333 10364 5//// 87076
AAXX 09184 65361 NIL
AAXX 09184 65376 32957 70802 10295 20118 39624 40083 80002 333 10325 58000 87076
AAXX 09184 65387 32460 72406 10290 20252 30040 40058 81202 333 10340 59011 81813 87073
AAXX 09184 91753 04585 /1207 10273 20235 30080 40112 53010 69902 700// 333 10273 20243 60007 90710 91113 555 60005
AAXX 09184 91754 32480 40604 10270 20230 30071 40112 53011 82201 333 82818 84076 555 60005 60084 20252 10303
AAXX 09181 26242 01349 81706 10000 21014 39888 49975 56019 60012 77173 8872/ 333 10008 21006 69947 88509 91010 91115 555 1/100 21006 3/101 51006 52101
AAXX 09184 71309 16/// /2606 11134 21194 30113 40125 58004 60001 333 11133 21185 70000 555 10020
AAXX 09184 71311 16/// /2311 10055 21044 30227 40252 56008 60001 333 10065 21026 70000
AAXX 09184 71317 16/// /2312 10055 21035 30211 40259 56014 60001 333 10066 21060 70000
AAXX 09184 71334 46/// /3109 11255 21297 39798 40144 50001 6///1 333 11224 21267 7////
AAXX 09184 71956 16/// /2814 11044 21086 39949 40186 58001 60001 333 11043 21055 70007
AAXX 09184 71959 16/// ///// 10051 21032 60001 333 10053 20005 70007
AAXX 09184 71970 16/// /2508 11088 21110 39535 40143 56040 60001 333 11088 21250 70000
AAXX 09184 71977 46/// /1601 11212 21212 39341 40073 50004 6///1 333 11211 21265 7////
AAXX 09184 71978 46/// /2209 11161 21201 39720 40037 55000 6///1 333 11158 21188 7////
AAXX 09184 71988 16/// /2210 10082 21006 30253 40273 56009 60001 333 10093 20030 70000
AAXX 09184 71989 16/// /0603 11277 21305 30105 40122 56010 60001 333 11266 21301 70000
AAXX 09184 71710 16/// /2721 10028 21058 30222 40232 55000 60001 333 10034 21016 70000
AAXX 09184 71721 17/// /1802 11024 21036 39925 40175 58028 60011 7//4/ 333 11021 21044 70020
AAXX 09184 71724 16/// /2014 10011 21004 30194 40202 56019 60001 333 10021 21009 70011
AAXX 09184 71736 46/// ///// 10017 21077 6///1 333 10017 21126 7////
AAXX 09184 71742 46/// /2520 10009 21081 39998 40186 51018 6///1 333 10012 21015 7////
AAXX 09184 71744 16/// /2508 10018 21041 30195 40237 56007 60001 333 10020 21052 70000
AAXX 09184 71747 16/// /2708 11150 21196 39718 40217 50005 60001 333 11142 21191 70000
AAXX 09184 71833 46/// /2507 11002 21020 6///1 333 11002 21020 7////
AAXX 09184 71837 16/// ///// 11013 60001 333 11012 21117 70000
AAXX 09184 71839 16/// ///// 10024 60001 333 10024 21139 7////
AAXX 09184 71807 16/// /2627 10033 21033 30221 40240 53013 60001 333 10043 20023 70031
AAXX 09184 71808 12574 32525 11047 21111 30068 40115 51011 60001 83500 333 11045 21067 70512
AAXX 09184 71920 16/// /2315 10080 20027 30276 40282 58006 60001 333 10083 20005 70000
AAXX 09184 71110 16/// /2618 10028 21031 30177 40238 51014 60001 333 10036 20006 70035
AAXX 09184 71133 46/// /1907 11104 21153 39422 40154 58035 6///1 333 11104 21230 7////
AAXX 09184 71141 16/// /3314 11203 21221 30015 40042 58008 60001 333 11200 21251 70000
AAXX 09184 71243 16/// /2517 10041 21065 39127 40230 58002 60001 333 10041 21095 70000
AAXX 09184 71246 16/// /2102 11050 21078 39447 40122 51002 60001 333 11049 21204 70000
AAXX 09184 71074 16/// ///00 11297 21326 30019 40100 57013 60001 333 11292 21335 70000
AAXX 09184 71087 46/// /0000 11183 21206 39889 40100 55000 6///1 333 11162 21319 7////
AAXX 09184 71551 16/// /1707 11091 21124 39524 40219 58031 60001 333 11089 21206 70000
AAXX 09184 71552 46/// /3011 11155 21203 6///1 333 11144 21168 7////
AAXX 09184 71553 16/// /2206 11204 21248 60001 333 11199 21254 70000
AAXX 09184 71556 16/// /1812 11144 21168 39601 40235 58024 60001 333 11140 21232 70000 555 10010
AAXX 09184 71564 16/// /3011 11120 21210 39875 40268 50004 60001 333 11120 21178 70000
AAXX 09184 71577 46/// /2905 11148 21212 6///1 333 11148 21190 7////
AAXX 09184 71581 17/// /2603 11019 21031 39678 40166 56013 60021 7//4/ 333 11013 70029 555 10050
AAXX 09184 71585 16/// /0902 11141 21164 39636 40122 56007 60001 333 11140 21241 70000
AAXX 09184 71156 16/// /2706 11009 21086 39062 40175 58003 60001 333 10003 21127 70000
AAXX 09184 71158 16/// /2811 11170 21202 39926 40214 50005 60001 333 11146 21173 70000
AAXX 09184 71159 16/// /2814 10008 21080 30133 40206 53006 60001 333 10018 21013 70003
AAXX 09184 71160 16/// /1804 11203 21230 39901 40124 58010 60001 333 11203 21248 70000
AAXX 09184 71164 46/// /1602 11212 21235 39974 40057 53001 6///1 333 11175 21236 7////
AAXX 09184 71165 46/// ///03 11186 21207 39795 40087 57012 6///1 333 11183 21346 7////
AAXX 09184 71166 46/// /0901 39452 56007 6///1 333 7////
AAXX 09184 71170 16/// /2612 11155 21220 60001 333 11153 21203 70000
AAXX 09184 71752 17/// /2703 10005 21004 39983 40203 56014 60041 7//4/ 333 10024 21003 70054
AAXX 09184 71758 16/// /2310 10028 21038 30184 40262 55002 60001 333 10028 21031 70000
AAXX 09184 71771 46/// /2304 10053 20041 30208 40229 56018 6///1 333 10059 20036 7////
AAXX 09184 71452 46/// /2108 11113 21157 39519 40262 57011 6///1 333 11113 21198 7////
AAXX 09184 71454 16/// /1906 11155 21216 39456 40177 58034 60001 333 11155 21247 70000
AAXX 09184 71455 46/// /2012 11101 21136 39382 40210 58024 6///1 333 11096 21203 7////
AAXX 09184 71470 46/// /2103 11217 21239 39441 40088 58014 6///1 333 11217 21297 7////
AAXX 09184 71476 17/// /1615 30220 56015 69981 7//4/ 333 70064
AAXX 09184 71478 46/// /1105 10040 20039 30125 40263 57008 6///1 333 10057 7////
AAXX 09184 71479 46/// /1606 10045 20037 30139 40261 56004 6///1 333 10053 7////
AAXX 09184 71480 16/// /1003 11196 21220 39944 40069 53001 60001 333 11175 21234 70000
AAXX 09184 71484 16/// /1510 10042 20034 30212 40231 56013 60001 333 10045 20031 70000
AAXX 09184 71492 46/// ///09 11175 21192 39303 40004 58006 6///1 333 11175 21217 7////
AAXX 09184 71496 16/// /2108 11132 21158 39570 40210 58026 60001 333 11131 21213 70000
AAXX 09184 71885 16/// ///// 10021 60001 333 10021 21119 70000
AAXX 09184 71402 46/// /2528 10003 21065 30040 40155 51023 6///1 333 10007 21013 7////
AAXX 09184 71407 16/// /2608 11270 21301 30006 40028 55000 60001 333 11248 21338 70000
AAXX 09184 71429 16/// /2514 11007 21046 30188 40208 56004 60001 333 11007 21075 70030
AAXX 09184 71437 46/// /2307 10023 21020 30102 40198 58014 6///1 333 10025 20001 7////
AAXX 09184 71442 16/// /2910 11150 21214 39913 40243 50003 60001 333 11149 21203 70000
AAXX 09184 71449 16/// /2709 11147 21213 39828 40253 51004 60001 333 11143 21227 70000
AAXX 09184 71250 16/// /2710 10021 21079 30077 40214 53021 60001 333 10029 20006 70043
AAXX 09184 71270 16/// /3205 11004 21015 39966 40189 56007 60001 333 10014 21006 70000
AAXX 09184 71295 16/// /2809 11163 21209 39740 40207 51014 60001 333 11161 21172 70000
AAXX 09184 71299 16/// /2709 11145 21178 39871 40160 50000 60001 333 11140 21197 70000
AAXX 09184 84173 31665 50904 10190 20108 71544 85500 555 30059
AAXX 09184 84143 11670 61808 10173 20113 37394 69941 72052 86800 333 59004 555 10004 30068
AAXX 09184 84202 12575 52304 10292 20200 30140 69901 85200 333 58000 555 1T 30058
AAXX 09184 84135 32675 80402 10281 20207 30059 8411/ 333 59003 555 30064
AAXX 09184 84132 31680 73604 10306 20241 39881 70544 84230 333 59005 555 30068
AAXX 09184 84270 12670 53604 10200 20124 60061 84301 555 10057 30051
AAXX 09184 84088 32675 50000 10178 20103 37055 85200 333 59004 555 30061
AAXX 09184 84056 31275 62304 10204 20029 70544 86800 555 30031
AAXX 09184 84179 31560 70902 10262 20189 39050 71544 85330 333 59004 555 30064
AAXX 09184 84076 31675 63204 10218 20118 70544 84230 555 30053
AAXX 09184 84008 12665 71412 10257 20187 30123 40133 69901 87800 00186 333 58001 555 1T 30065
AAXX 09184 84050 31565 80404 10245 20202 70544 882// 555 30077
AAXX 09184 84036 11570 80404 10160 20131 69951 75054 887// 555 10005 30083
AAXX 09184 84160 11570 41404 10185 20093 37254 69941 70546 83230 333 59009 555 10004 30055
AAXX 09184 84226 31660 73606 10140 20140 74044 87800 555 30100
AAXX 09184 84142 31110 63206 10168 20162 74045 886// 555 30096
AAXX 09184 84072 31670 70404 10219 20110 37283 70545 84230 333 59011 555 30050
AAXX 09184 84045 32557 70906 10142 20097 87800 555 30074
AAXX 09184 84105 32560 81404 10265 20219 31001 8311/ 333 58000 555 30076
AAXX 09184 71614 17/// /0802 10012 21004 30128 40194 56029 69951 7//4/ 333 10024 21014 70005
AAXX 09184 71622 16/// ///// 11003 21018 39863 40206 58008 60001 333 10000 21015 70008 555 10010
BBXX SKOZ 09184 99464 70335 43/98 82924 10136 40180 55005 22263 00130 20501 40402
AAXX 09184 71719 16/// /2517 10012 21057 30218 40224 55003 60001 333 10015 21049 70000 555 10010
AAXX 09184 71934 11458 81703 11164 21201 39844 40112 55004 69901 77177 885// 333 11164 21272 47020 79999 90973
AAXX 09184 71935 11474 82504 11134 21157 39887 40101 53003 60141 70272 885// 333 11120 21269 44015 70014 90952 93102
AAXX 09184 71951 11324 80000 11025 21027 39985 40258 57016 69941 76655 887// 333 11025 21053 40023 70028 90983
AAXX 09184 71015 17/// ///// 10029 69931 7//4/ 333 10032 7////
AAXX 09184 71017 16/// /2808 11268 21295 30067 40082 58011 60001 333 11268 21323 70000
AAXX 09184 71018 16/// ///16 11184 21208 39954 40042 57011 60001 333 11153 21218 70000
AAXX 09184 71019 46/// /2109 11008 21033 39916 40224 55009 6///1 333 11007 21084 7////
AAXX 09184 71020 46/// /1702 11181 21204 39801 40063 58009 6///1 333 11180 21203 7////
AAXX 09184 71021 46/// /0000 11086 21122 39705 40057 56009 6///1 333 11066 21149 7////
AAXX 09184 71667 16/// /2812 11126 21194 39942 40198 50002 60001 333 11124 21170 70000
AAXX 09184 71669 16/// /2903 10028 21079 38579 40226 53007 60001 333 10028 21134 70000
AAXX 09184 71832 16/// /2312 11139 21191 39814 40153 50000 60001 333 11134 21193 70000
AAXX 09184 71501 16/// /3203 11091 21100 30014 40016 52008 60001 333 11088 21137 70000
AAXX 09184 71432 16/// /2508 10024 20001 30103 40201 56016 60001 333 10028 20007 70000
AAXX 09184 71435 16/// /2608 11155 21201 39573 40193 51008 60001 333 11153 21205 70000
AAXX 09184 71441 46/// /2911 11116 21201 39936 40260 50002 6///1 333 11116 21187 7////
AAXX 09184 71472 16/// /2016 10057 20047 30204 40222 58022 60001 333 10062 20055 70004
AAXX 09184 71356 16/// /3119 11255 21285 39994 40063 55001 60001 333 11208 21256 70003
AAXX 09184 71361 16/// /2805 11131 21151 39878 40090 53002 60001 333 11119 21269 70009
AAXX 09184 71363 16/// /3311 11194 21214 39976 40031 52003 60001 333 11194 21224 70000
AAXX 09184 71364 16/// /0707 11137 21155 39888 40022 53004 60001 333 11112 21176 70000
AAXX 09184 71393 16/// ///// 11010 21081 38915 40208 55000 60001 333 10027 21099 70000
AAXX 09184 71934 11458 81703 11164 21201 39844 40112 55004 69901 77177 885// 333 11164 21272 47020 79999 90973
AAXX 09184 71935 11474 82504 11134 21157 39887 40101 53003 60141 70272 885// 333 11120 21269 44015 70014 90952 93102
AAXX 09184 71951 11324 80000 11025 21027 39985 40258 57016 69941 76655 887// 333 11025 21053 40023 70028 90983
AAXX 09184 71719 16/// /2517 10012 21057 30218 40224 55003 60001 333 10015 21049 70000 555 10010
AAXX 09184 71432 16/// /2508 10024 20001 30103 40201 56016 60001 333 10028 20007 70000
AAXX 09184 71435 16/// /2608 11155 21201 39573 40193 51008 60001 333 11153 21205 70000
AAXX 09184 71441 46/// /2911 11116 21201 39936 40260 50002 6///1 333 11116 21187 7////
AAXX 09184 71472 16/// /2016 10057 20047 30204 40222 58022 60001 333 10062 20055 70004
AAXX 09184 71832 16/// /2312 11139 21191 39814 40153 50000 60001 333 11134 21193 70000
AAXX 09184 71807 16/// /2627 10033 21033 30221 40240 53013 60001 333 10043 20023 70031
AAXX 09184 71808 12574 32525 11047 21111 30068 40115 51011 60001 83500 333 11045 21067 70512
BBXX 41052 09181 99183 70648 46/// /0508 10278 40104 58022 91800 22200 00280 333 91210
BBXX 41053 09181 99185 70661 46/// /0607 10271 40118 56022 91800 22200 00280 10805 70025 333 91209
BBXX 41052 09181 99183 70648 46/// /0507 10274 40106 91750 333 91209
BBXX 41052 09181 99183 70648 46/// /0509 10274 40108 91740 333 91211
BBXX 42085 09181 99179 70665 46/// /0906 10281 40112 91750 333 91208
BBXX 42085 09181 99179 70665 46/// /0907 10282 40112 91740 333 91209
BBXX 42085 09181 99179 70665 46/// /1007 10282 40110 57020 91800 22200 00284 10502 70009 333 91209
BBXX 41053 09181 99185 70661 46/// /0608 10268 40120 91750 333 91210
BBXX 41053 09181 99185 70661 46/// /0609 10268 40120 91740 333 91211
AAXX 09181 50953 32970 82203 11119 21175 30013 40201 57007 8801/ 333 11088
AAXX 09181 52533 32980 02502 11148 21178 38649 40448 57016 333 05354 11037
AAXX 09181 52652 32980 01802 11143 21154 38661 40445 57023 333 05300 11033
AAXX 09181 52983 32962 00701 11136 21160 38236 57006 333 00357 11047
AAXX 09181 53588 32980 02204 11185 21240 37794 57012 333 11136
AAXX 09181 53772 32962 02501 11054 21160 39414 40386 57008 333 11018
AAXX 09181 53915 32980 03402 11086 21144 38823 40453 52001 333 00352 11004
AAXX 09181 54337 32960 00000 11106 21165 30189 40277 57014 333 11019
AAXX 09181 54342 32962 01101 11166 21185 30210 40276 57016 333 11080
AAXX 09181 54511 32980 03401 11030 21174 30281 40323 57007 333 10016
AAXX 09181 56080 11970 82701 11147 21175 37211 52003 69901 77070 82037 333 00357 11012
AAXX 09181 56096 32778 30702 10016 21093 39102 40387 52007 81502 333 00552 10064
AAXX 09181 59431 32565 80201 10116 20013 30128 40277 52001 888// 333 10142
AAXX 09181 59644 32560 83607 10128 20035 30230 40247 57006 888// 333 10147
AAXX 09181 56778 11630 81102 10044 20040 38153 52005 69951 76066 885// 333 00052 10064
AAXX 09181 58238 31958 03201 11023 21063 30310 40357 57009 71000 333 10039
AAXX 09181 58251 31956 52702 11019 21047 30337 40342 57014 71000 80002 333 10025
AAXX 09181 58606 32962 00703 10024 21050 30286 40347 57001 333 10077
AAXX 09181 58752 32778 73404 10052 21070 30260 40307 57019 875// 333 10101
AAXX 09181 58847 32662 83602 10091 21002 30175 40280 57013 885// 333 10118
AAXX 09181 59287 32673 70209 10096 21051 30179 40266 57005 875// 333 10161
AAXX 09181 59758 32466 80706 10165 20112 30144 40221 57009 888// 333 10171
BBXX 44150 09181 99425 70640 46/// /2206 10074 40301 57006 22200 00099 11104 70020 333 91208
AAXX 09181 51076 32980 03201 11111 21147 39430 40361 57006 333 05701 11028
AAXX 09181 51243 32970 43201 11108 21128 39770 40366 57012 80002 333 05751 11070
AAXX 09181 51463 32975 00401 11114 21130 39192 40371 57005 333 05651 11091
AAXX 09181 51573 32980 03201 11053 21106 30364 40410 57011 333 05452 10013
AAXX 09181 51709 32965 02902 11087 21120 38864 40432 57007 333 00052 10004
AAXX 09181 52866 11968 82001 11098 21129 37797 57001 69901 77000 8802/ 333 00354 11030
BBXX 44067 09181 99384 70770 46/// /2906 10095 40251 58020 91800
BBXX 42067 09181 99300 70886 46/// /0703 10099 20047 40257 91740 22200 00181 1//00 70002 333 91205
AAXX 09181 57265 31957 02501 10006 21007 30263 40379 57004 71000 333 10065
AAXX 09181 57494 32970 63401 10006 21039 30341 40372 57002 86030 333 10070
AAXX 09181 58221 32960 42201 11023 21078 30334 40364 57009 80002 333 10030
AAXX 09181 58362 32965 02703 10005 21041 30329 40338 57008 333 10060
AAXX 09181 59134 32765 80405 10118 20020 30081 40252 57007 885// 333 10133
AAXX 09181 54401 32965 02901 11114 21195 39462 40385 57014 333 11048
BBXX 44150 09181 99425 70640 46/// /2206 10074 40301 57006 22200 00099 11104 70020 333 91208
AAXX 09183 64700 31930 20210 10260 20013 39772 40113 70600 80002 333 10330 58008 82075
AAXX 09183 64750 32960 50204 10262 20078 39666 40079 80002 91757 333 10362 58009 85075
AAXX 09184 97180 01450 70704 10240 20240 30069 40087 56013 60051 76166 83272 333 56000 60017 83819 86460
AAXX 09184 04211 45/84 /0709 11089 21162 39829 49991 57035 333 11078 21099
AAXX 09184 04220 07940 50421 11060 21133 39854 49906 57060 69952 77187 333 11055 21099 55300 20004 69937 81/68 85/75 91136
AAXX 09184 04221 45984 11026 11072 21189 39894 49932 57050 333 11072 21117 81/70 91136 91034
AAXX 09184 04231 42984 50608 11167 21211 39810 49886 57053 80006 333 11112 21185 85270
AAXX 09184 04234 45984 63602 11074 21148 39845 49855 57047 333 11032 21085 83/63 86/69 91215
AAXX 09184 04241 45982 80711 11024 21136 39793 49832 57029 333 11024 21053 88/61 91126
AAXX 09184 04250 05684 80413 11026 21116 39719 49822 57020 6///2 333 11026 21051 55300 20004 6///7 88/49
AAXX 09184 04254 45682 80809 11028 21137 39722 49835 57021 333 11027 21058 88/47 91217
AAXX 09184 04260 47850 81023 11008 21107 39727 49770 57006 78088 333 10011 21048 88/57 91138 91036
AAXX 09184 04270 47207 30754 11054 21103 39770 49808 52015 77177 333 11006 21057 81/04 83/07 91184 91070
AAXX 09184 04272 07415 1//// 11047 21093 39704 49775 57002 60102 77287 333 11009 21055 60037 81/17
AAXX 09184 04312 46/// /2701 11265 21304 30134 40177 57014
AAXX 09184 04320 NIL
AAXX 09184 04339 47/84 ///// 11087 21160 30101 40195 57003 70087 333 11080 21143 55300 20000
AAXX 09184 04360 06/// /0207 11099 21244 30096 40169 57024 6///2 333 11086 21137 55300 20000 6///7
AAXX 09184 04361 46/// /0718 11113 21285 30121 40176 57027 333 11091 21165 91230
AAXX 09184 04390 060// 30244 11046 21056 39748 49841 57060 60632 333 11019 21054 60237 81/01 83/04 91065 91174
AAXX 09184 16021 12965 31503 11020 21040 37973 48495 56002 60002 80001 333 10046
AAXX 09184 78988 02586 50811 10291 20248 30096 40106 57020 60001 82231 333 59005 60007 82820 84362
AAXX 09184 78873 02478 20709 10276 20246 30068 40112 57021 69921 82200 333 59013 60007 82819
AAXX 09184 78990 NIL
AAXX 09181 14023 12698 72803 10102 20058 39879 40172 56002 60002 86570 333 10120 86640
AAXX 09181 14024 12398 82304 10054 20051 39078 48475 55001 60002 888// 333 10075 82807 86614 91111 95050
AAXX 09181 37661 42998 03402 10083 21033 39419 40174 52014 333 10142
AAXX 09181 37675 42995 00000 10019 21006 39525 40195 52020 333 10065 555 53004
AAXX 09181 37729 42597 82704 10019 20000 38485 57002 885// 333 10070 53008
AAXX 09181 37735 42998 22901 10070 21067 39771 40148 52005 82030 333 10131
AAXX 09181 37740 42998 00501 10043 21032 39368 40180 52016 333 10100
AAXX 09181 37749 41/92 90000 10010 20005 30095 40215 52011 74544 333 10075 555 53002
AAXX 09181 37832 32997 00000 10002 21009 40175 52015 333 10122
AAXX 09181 37851 42998 00000 10049 20032 30124 40197 52020 333 10102
AAXX 09181 37864 31996 00000 10036 20026 40189 52024 71000 333 10103
AAXX 09181 37905 42997 02501 10033 21008 40183 52008 333 10089
AAXX 09181 37923 42996 00000 10040 20009 40149 54000 333 10085 555 53010
AAXX 09181 37925 42997 02701 10048 20036 30221 40191 52026 333 10009 555 53004
AAXX 09181 37985 42996 02001 10027 20022 30191 40176 52005 333 10093
AAXX 09181 37989 42596 52602 10067 20060 40190 52015 85700 333 10105
AAXX 09181 13174 32697 81807 10049 20010 30091 40193 57008 8357/ 333 10070
AAXX 09181 13168 32998 21401 10038 20007 30092 40201 58007 80001 333 10114
AAXX 09181 13269 32998 02501 10013 21004 30000 40221 54000 333 10108
AAXX 09181 13274 32998 51602 10071 21033 30049 40211 57004 80002 333 10106
AAXX 09181 37279 /1494 80000 10066 20059 30089 40235 52030 76062 8872/ 333 10106
AAXX 09181 37308 326// 80000 10006 21008 39566 40234 53004 8351/ 333 10040
AAXX 09181 37531 329// 62903 10014 20003 39505 40246 53021 80051 333 10015
AAXX 09181 37553 329// 43001 10074 21054 39528 40173 52013 80030 333 10143
AAXX 09181 37651 16/// ///00 10007 21062 3//// 4//// 5//// 60002 333 10133
AAXX 09181 37492 NIL
AAXX 09184 13624 12965 01404 10058 20038 30204 40244 54004 60002 333 10172
AAXX 09184 89002 41495 80919 11053 21064 39519 49572 52011 77173 888// 333 92911 96036 96111
BBXX SMGW 09181 99380 11219 43/97 82707 10005 40286 58010 22274 00112 2//// 4////
BBXX SLKQ 09181 99102 11120 43/97 80613 10238 40077 58010 22253 00282 2////4////
AAXX 09184 65351 31950 70404 10300 20067 3//// 4//// 70522 80002 333 10344 5//// 87076
AAXX 09184 65355 32958 70604 10270 20056 39573 40087 80002 333 10330 59006 87073
AAXX 09184 65357 NIL
AAXX 09184 65380 32960 70000 10288 20237 3//// 4//// 80002 333 10359 5//// 87076
AAXX 09184 13610 12960 20000 10048 21019 39830 40265 54002 60002 82030 333 10076 82360
AAXX 09184 60619 36/// /0210 10149 21021 333 10212
AAXX 09184 60645 36/// /0000 10230 21058 333 10269
BBXX 62087 09181 99547 10068 46/// /1205 10078 20005 4//// 5//// 22230 00095
AAXX 09184 60663 36/// /1004 10188 21086 333 10244
BBXX SBLI 09181 99265 71145 43/98 60606 10176 40196 51016 22274 00191 2//// 4//// 426621110
AAXX 09184 60612 36/// /0512 10163 21010 333 10213
BBXX 61002 09184 99421 10047 46/// ///02 10140 2//// 40214 57004 22200 00155 10401 70005
AAXX 09180 44203 329// 60000 11222 21240 38529 40543 57009 86030
AAXX 09180 44207 329// 22304 11173 21207 38408 40462 57004 82080
AAXX 09180 44212 32999 70000 11172 21191 39319 40552 57009 8707/
AAXX 09180 44213 32699 60000 11203 21221 38949 40570 57011 86500
AAXX 09180 44215 32998 00000 11251 21275 38542 40583 57002
AAXX 09180 44218 329// 01801 11204 21229 38742 40535 58010
AAXX 09180 44225 329// 80000 11133 21146 38398 40493 57010 8802/
AAXX 09180 44230 329// 13604 11156 21190 38886 40452 57016 80004
AAXX 09180 44232 329// 03101 11215 21233 39207 40451 57013
AAXX 09180 44237 32999 00000 11115 21150 38583 40414 57011
AAXX 09180 44239 329// 01401 11141 21161 38878 40394 58012 555 99600
AAXX 09180 44241 329// 00000 11146 21173 39350 40394 57006
AAXX 09180 44256 32999 32707 11137 21164 39357 40262 58019 80008
AAXX 09180 44265 329// 00000 11114 21149 38953 40424 58008
AAXX 09180 44272 329// 00000 11219 21251 38338 40538 57016
AAXX 09180 44275 32998 00000 11233 21245 37830 40476 58012
AAXX 09180 44282 32999 03402 11103 21147 38389 40417 57012
AAXX 09180 44284 32999 00000 11262 21290 37961 40478 57011
AAXX 09180 44285 32899 20000 11153 21163 38412 40467 57011 82040
AAXX 09180 44287 32999 20405 11148 21182 38228 40518 57012 80004
AAXX 09180 44294 329// 63307 11127 21151 38629 40409 57016 80006
AAXX 09180 44298 328// 53205 11124 21132 38782 40362 57001 83041
AAXX 09180 44302 329// 32906 11152 21183 39142 40322 58022 80004
AAXX 09180 44305 32999 02703 11249 21266 39092 40367 58005
AAXX 09180 44313 32999 02305 11197 21223 39401 40308 57005
AAXX 09180 44314 32998 22705 11140 2//// 39161 40311 57007 85080
AAXX 09180 44317 31998 02706 11186 21205 38970 40346 57002 70230
AAXX 09180 44336 329// 02305 11138 21173 38795 40447 57008
AAXX 09180 44341 329// 13207 11102 21126 38687 40409 56001 80004 333 91115
AAXX 09180 44347 32999 00000 11137 21172 38823 40440 57002
AAXX 09180 44352 32999 02705 11158 21185 38960 40347 56004
AAXX 09180 44358 329// 12709 11162 21181 39160 40394 57011 80004
AAXX 09180 44214 32998 03102 11219 21248 38391 40579 57011
AAXX 09180 44231 319// 00000 11150 21102 38824 40483 57015 70400
AAXX 09180 44259 31997 52105 11168 21200 39330 40297 56013 70232 84034
AAXX 09180 44277 329// 02302 11211 21229 37900 40612 57017
AAXX 09180 44288 32999 02903 11074 21128 38255 40419 57009
AAXX 09180 44292 418// 41101 11198 21217 38786 40459 58012 70470 84800
AAXX 09180 44304 329// 62304 11204 21229 39039 40369 57009 80009
AAXX 09180 44354 329// 02903 11142 21169 39178 40370 56004
AAXX 09180 44373 32999 03202 11122 21165 38644 40439 58006
AAXX 09184 78922 46/// /1505 10275 20227 30066 40110 58020
AAXX 09181 50136 32970 61601 11213 21234 39601 40169 57010 82032 333 11109
AAXX 09181 50745 32965 02701 11152 21183 30008 40203 54000 333 11056
AAXX 09181 50774 11960 02703 11140 21181 39856 40179 57001 69901 70070 333 11114
AAXX 09181 50788 32970 52206 11120 21165 30070 40160 57011 80002 333 11096
AAXX 09181 51133 32980 60703 11047 21133 39639 40312 57010 80002 333 05401 10006
AAXX 09181 51431 11970 70402 11074 21093 39492 40333 52001 69901 77077 80002 333 00000 11069
AAXX 09181 51747 11762 70000 11087 21127 39075 40433 57004 69901 77000 86502 333 00005 11007
AAXX 09181 52203 32980 00901 11111 21175 39484 40416 52008 333 05353 10034
AAXX 09181 52418 32980 03201 11108 21194 39008 40404 52001 333 05300 10011
AAXX 09181 52681 32980 01801 11113 21201 38797 40469 57015 333 00100 11041
AAXX 09181 53564 32980 02501 11108 21172 39347 40433 57004 333 05201 11031
AAXX 09181 53614 32980 00000 11118 21152 39085 40469 57008 333 00153 11031
AAXX 09181 53646 32970 03204 11131 21178 39007 40447 54000 333 00001 11049
AAXX 09181 53798 32960 02501 11042 21080 30240 40341 57014 333 10024
AAXX 09181 53845 32965 02502 11064 21137 39249 40434 52006 333 00001 10004
AAXX 09181 53959 32970 61401 11001 21134 39945 40407 52003 80002 333 10040
AAXX 09181 54094 32960 22701 11153 21209 39908 40228 57012 80002 333 11109
AAXX 09181 54102 11670 72505 11178 21206 39086 40385 57012 69911 77070 84502 333 11178
AAXX 09181 54161 32960 72506 11130 21180 39927 40239 57009 80002 333 11102
AAXX 09181 54292 32970 52202 11138 21240 39909 40249 57002 80002 333 11091
AAXX 09181 54374 32962 03602 11210 21238 39806 40309 57002 333 11093
AAXX 09181 54423 32980 03203 11110 21196 39789 40335 57012 333 11044
AAXX 09181 54618 32962 42701 11056 21093 30307 40326 57014 80002 333 10006
AAXX 09181 54843 32970 02702 11047 21107 30304 40333 57014 333 11011
AAXX 09181 54909 32964 01602 11038 21081 30278 40345 57017 333 10019
AAXX 09181 56029 32680 70000 11036 21135 36438 57004 875// 333 05404 10060
AAXX 09181 57127 32960 02001 10017 20002 39761 40390 52006 333 10093
AAXX 09181 57131 32965 02904 10005 21115 39918 40436 52012 333 10040
AAXX 09181 48892 11498 80206 10260 20240 30059 40064 58010 60021 70382 889// 333 59016 81894 83995 85697
AAXX 09181 40706 12962 00703 11006 21113 38662 40244 52008 60001 333 55075 20988
AAXX 09181 40718 11930 02603 10094 20094 30201 40172 52012 60001 71042 333 55037
AAXX 09181 40732 12960 00000 10068 20040 30182 40158 53002 60001 333 55081
AAXX 09181 40745 12960 02302 10028 21021 39066 40231 52010 60001 333 55073 21185
AAXX 09181 40754 11935 00000 10038 21008 38870 40247 52014 60001 70500 333 55082
AAXX 09181 40766 12960 01302 10039 21081 38728 40234 52005 60001 333 55086 21245
AAXX 09181 40800 11950 00000 10010 21011 38487 40253 52008 60001 71000 333 55074 2////
AAXX 09181 40811 12960 30000 10114 20037 30176 40204 51002 60001 80001 333 55092 20243 83070
AAXX 09181 40841 12960 50000 10032 21153 38293 40241 52009 60001 80006 333 55092 21538 85270
AAXX 09181 40848 12960 70000 10018 21025 38572 40256 53016 60001 80006 333 55088 21514 87270
AAXX 09181 40856 12962 21402 10006 21215 38684 40242 53004 60001 80002 333 55096 82070
AAXX 09181 40875 12960 03303 10131 21000 30180 40192 50012 60001 333 55095 21587
AAXX 09181 48826 31596 83602 10135 20103 30100 40240 54000 71022 888// 333 58025 83895 88697
AAXX 09181 48839 32497 80212 10158 20102 30162 40229 58003 888// 222// 00178 2//// 333 58019 82894 88696 9111 8 91502
AAXX 09181 48830 32798 80503 10115 20041 39943 40262 53005 885// 333 58018 88697
AAXX 09181 48808 32498 80501 10128 20070 39973 40267 52008 888// 333 58015 83894 88696
AAXX 09181 48870 11498 83605 10240 20211 30133 40140 58005 60141 70262 888// 333 58025 83894 88696
AAXX 09181 48877 11598 83406 10247 20206 30118 40123 57005 69911 70282 888// 333 58027 83895 88697
AAXX 09181 48887 32798 72901 10241 20228 30098 40104 58006 875// 333 58006 87697
OOXX AAPEG 09184 99779 31666 57186 00051 46/// ///02 11025 21068 39734 49740 5//// 91740
OOXX AAUNI 09184 99798 50833 56093 07671 46/// /2216 11080 21161 38815 49686 57001 91800
AAXX 09184 41252 36/// /9902 10209 20066 39808 40098 333 0E022 10271 58010
AAXX 09184 41254 36/// /0000 10077 20045 37966 47971 333 0E007 10178 59017
AAXX 09184 41263 36/// /0902 10206 20083 39508 40201 333 0E020 10251 58013
AAXX 09184 41268 36/// /3508 10229 20098 30171 48324 333 0E023 10264 58018
AAXX 09184 47401 11/40 82410 11019 21055 30085 40100 58011 69951 78582 883//
AAXX 09184 47412 12/65 62012 11013 21078 30108 40141 57004 60001 86200
AAXX 09184 47420 15/70 /3106 11020 21105 30098 40132 50000 60001
AAXX 09184 47426 17/70 /3408 11023 21106 30104 40153 53001 69901 72470
AAXX 09184 47582 11/60 70603 10002 21015 30153 40181 54000 60011 70282 872//
AAXX 09184 47590 12/75 12805 10013 21019 30127 40182 55000 60001 81200
AAXX 09184 47600 17/70 /2807 10053 21037 30198 40206 55003 69901 70060
AAXX 09184 47648 12/70 13216 10056 21032 30154 40189 51005 60001 81530
AAXX 09184 47662 12980 03307 10041 21071 30150 40196 55000 60001
AAXX 09184 47678 17/70 /3006 10092 20004 30006 40196 51010 69901 70060
AAXX 09184 47740 17/82 /3103 10026 20019 30183 40219 55005 69951 72386
AAXX 09184 47778 15/70 /0204 10068 20017 30125 40210 55002 60001
AAXX 09184 47807 11/60 82406 10077 20004 30224 40243 50008 69901 78082 882//
AAXX 09184 47827 12/80 73405 10083 20015 30199 40238 50002 60001 87400
AAXX 09184 47843 17/82 /3212 10078 21004 30222 40255 58006 69901 72385
AAXX 09184 47893 12/75 23103 10034 20015 30217 40223 53002 60001 82200
AAXX 09184 47909 11/65 73409 10159 20074 30220 40230 58001 69901 72522 872//
AAXX 09184 47918 11/65 80312 10168 20143 30198 40216 58001 69901 72162 888//
AAXX 09184 47936 11/75 80410 10153 20121 30165 40225 50004 69901 72162 888//
AAXX 09184 47945 11/60 80310 10184 20112 30175 40200 56013 69901 70262 8687/
AAXX 09184 47971 11/70 71303 10217 20144 30168 40178 53001 69901 70281 872//
AAXX 09184 47991 16/// /3004 10246 20209 30156 40166 55005 60001
AAXX 09184 47407 11/60 73202 11080 21098 39963 40144 58004 69901 72682 872//
AAXX 09184 47409 12/75 12308 11063 21114 30071 40127 58005 60001 81100
AAXX 09184 47418 12982 03108 11092 21122 30093 40145 50003 60001
AAXX 09184 47421 17/70 /2103 11001 21063 30106 40150 57002 69901 77170
AAXX 09184 47430 11/65 73204 11004 21054 30107 40163 52001 69901 72681 872//
AAXX 09184 47570 17/68 /2701 11005 21012 39933 40201 53001 69901 76776
AAXX 09184 47575 11/60 82307 11001 21026 30172 40177 53005 69951 78588 883//
AAXX 09184 47584 11/65 23102 11043 21057 39988 40186 53005 69901 72681 82200
AAXX 09184 47604 11/60 72104 10019 21002 30189 40198 53001 69901 72582 872//
AAXX 09184 47605 11/60 81001 10013 20003 30178 40221 55002 60051 78382 882//
AAXX 09184 47610 12/80 13402 11022 21052 39696 40220 51004 60001 81100
AAXX 09184 47624 12/80 13107 10005 21061 30058 40202 50002 60001 81200
AAXX 09184 47629 11908 00201 11021 21025 30156 40196 53006 60001 74440
AAXX 09184 47636 12970 03504 10015 21032 30148 40219 55002 60001
AAXX 09184 47651 13/// /2706 10025 21026 30196 40219 55001 60001
AAXX 09184 47655 15/70 /2608 10035 21067 30139 40198 53004 60001
AAXX 09184 47675 15/70 /0907 10052 20026 30095 40189 50005 60001
AAXX 09184 47741 11/60 80705 10037 20022 30183 40211 56008 69901 78082 882//
AAXX 09184 47746 11/65 81204 10012 20002 30201 40221 55005 69901 70382 8157/
AAXX 09184 47750 12265 81804 10009 20001 30202 40231 55000 60001 886//
AAXX 09184 47765 11/80 60703 10055 20011 30153 40220 53002 69901 70282 86200
AAXX 09184 47772 12/80 13503 10031 20000 30123 40227 53003 60001 81200
AAXX 09184 47800 15/80 /3306 10041 21030 30245 40250 52008 60001
AAXX 09184 47815 12/75 12304 10057 21029 30223 40240 50013 60001 81100
AAXX 09184 47817 11/70 83306 10076 20006 30203 40247 50003 69901 78082 882//
AAXX 09184 47830 12/75 12607 10057 21003 30210 40229 50005 60001 81100
AAXX 09184 47887 11/75 71405 10057 20027 30185 40228 53005 60031 78082 872//
AAXX 09184 47891 12/80 72201 10031 20003 30205 40223 55001 60001 872//
AAXX 09184 47895 12/80 72904 10035 20012 30213 40221 55002 60001 8223/
AAXX 09184 47927 11/60 80216 10163 20150 30167 40217 50001 60021 76162 888//
AAXX 09180 44210 32999 00000 11210 21222 38652 58010
AAXX 09180 44216 32999 73403 11155 21182 39165 40516 57020 87010
AAXX 09180 44217 32998 00000 11220 21232 37944 40563 57021
AAXX 09180 44219 329// 71402 11183 21202 38758 40529 58013 87050
AAXX 09180 44221 329// 80000 11148 21168 38729 40506 57017 8807/
AAXX 09180 44224 329// 80000 11121 21134 38168 40467 57012 8802/
AAXX 09180 44229 32999 02704 11148 21168 38015 40472 57013
AAXX 09180 44242 329// 70000 11171 21189 39399 40388 57012 87070
AAXX 09180 44243 329// 80000 11166 21189 39496 40393 57015 8802/
AAXX 09180 44254 329// 12704 11127 21160 39046 40283 58021 80004
AAXX 09180 44257 319// 23203 11075 21140 38997 40287 58016 70230 81041
AAXX 09180 44263 32998 00000 11214 21254 38165 40570 56010
AAXX 09180 44266 329// 00000 11193 21200 37870 40531 57007
AAXX 09180 44286 319// 02708 11087 21115 38736 40397 57001 73631
AAXX 09180 44291 418// 60000 11231 21254 38824 40498 58012 70471 86070
AAXX 09180 44325 329// 00000 11210 21235 39013 40545 58008
AAXX 09180 44329 NIL
AAXX 09180 44338 32999 01402 11166 21192 38598 40498 57012
AAXX 09180 44348 319// 03207 11144 21144 38769 40393 51002 70232
AAXX 09180 44374 32999 01801 11147 21203 38374 40518 58013
AAXX 09180 44385 32999 02707 11090 21151 39025 40399 57006
AAXX 09180 44386 329// 03204 11182 21208 39140 40418 57007
AAXX 09184 48409 32960 10406 10187 20140 30001 40154 57006 80001 333 58027
AAXX 09184 43400 NIL
AAXX 09184 43404 NIL
AAXX 09184 43410 NIL
AAXX 09184 43413 NIL
AAXX 09184 43415 NIL
AAXX 09184 43418 21470 41103 10266 20246 3//// 4//// 70386 84332 333 5//// 60007 84818 81920 83080
AAXX 09184 43421 22460 50000 10258 20241 30006 40108 83101 333 58001 60007 83818 84080
AAXX 09184 43422 NIL
AAXX 09184 43424 22868 70000 10264 20247 30094 40097 8703/ 333 58006 60007 87358
AAXX 09184 43436 21470 70000 10257 20247 30098 40101 78082 872// 333 58001 60097 87817
AAXX 09184 43441 NIL
AAXX 09184 43444 22470 20000 10230 20209 39574 40100 82101 333 58005 60007 82818
AAXX 09184 43467 21460 30000 10268 20233 30090 40095 70291 83200 333 58001 60007 83816
AAXX 09184 43473 22470 70901 10150 20144 38132 48499 8422/ 333 58008 60007 82705 84812 87460
AAXX 09184 43475 NIL
AAXX 09184 43476 NIL
AAXX 09184 43479 NIL
AAXX 09184 43486 21350 61403 10242 20236 30000 40094 71084 86200 333 58002 60007 86808
AAXX 09184 43495 22460 6//// 10258 20238 30087 40103 83101 333 58006 60007 83818 86080
AAXX 09184 43497 22470 50903 10260 20241 30080 40097 81131 333 58004 60007 81818 83360
AAXX 09181 40703 12960 00000 10030 21083 38917 40210 51011 60001 333 55063
AAXX 09181 40712 42662 13502 11002 21062 38681 40246 52009 81500 333 10106 81640
AAXX 09181 40729 12960 00703 10002 21093 38357 40234 52008 60001 333 55071 21165
AAXX 09181 40736 12960 00000 10092 20079 30198 40172 53017 60001 333 55083
AAXX 09181 40739 12965 03402 11002 21042 38726 40264 51003 60001 333 55086
AAXX 09181 40743 12965 00000 10024 21013 39114 40257 52010 60001 333 55087
AAXX 09181 40762 12962 00000 11028 21092 38591 40257 51004 60001 333 55087
AAXX 09181 40768 12965 01602 10029 21086 38284 40241 52007 60001 333 55087 21123
AAXX 09181 40769 12960 00000 10052 21081 38329 40243 52011 60001 333 55085 2////
AAXX 09181 40785 12960 00000 10030 21006 39129 40253 52018 60001 333 55086
AAXX 09181 40809 12965 01103 11018 21197 38553 40275 52014 60001 80001 333 55096 21369
AAXX 09181 40821 12960 40000 10052 21089 38826 40238 52007 60001 80002 333 5509421391 84270
AAXX 09181 40831 12960 50000 10124 20055 30201 40209 51006 60001 80001 333 55090 85070
AAXX 09181 40703 12960 00000 10030 21083 38917 40210 51011 60001 333 55063
AAXX 09181 40712 42662 13502 11002 21062 38681 40246 52009 81500 333 10106 81640
AAXX 09181 40729 12960 00703 10002 21093 38357 40234 52008 60001 333 55071 21165
AAXX 09181 40736 12960 00000 10092 20079 30198 40172 53017 60001 333 55083
AAXX 09181 40739 12965 03402 11002 21042 38726 40264 51003 60001 333 55086
AAXX 09181 40743 12965 00000 10024 21013 39114 40257 52010 60001 333 55087
AAXX 09181 40762 12962 00000 11028 21092 38591 40257 51004 60001 333 55087
AAXX 09181 40768 12965 01602 10029 21086 38284 40241 52007 60001 333 55087 21123
AAXX 09181 40769 12960 00000 10052 21081 38329 40243 52011 60001 333 55085 2////
AAXX 09181 40785 12960 00000 10030 21006 39129 40253 52018 60001 333 55086
AAXX 09181 40809 12965 01103 11018 21197 38553 40275 52014 60001 80001 333 55096 21369
AAXX 09181 40821 12960 40000 10052 21089 38826 40238 52007 60001 80002 333 5509421391 84270
AAXX 09181 40831 12960 50000 10124 20055 30201 40209 51006 60001 80001 333 55090 85070
AAXX 09181 06447 36/// /2404 10046 20002 39990 40117 54000 60002 333 10075 91113 91207
AAXX 09181 48845 32798 83201 10157 20122 30217 40224 57007 885// 333 58020 88697
AAXX 09181 48840 32498 80000 10158 20099 30223 40229 58004 888// 333 58024 83894 88696
AAXX 09181 30372 42999 63001 11203 21229 39251 40175 57004 82041
AAXX 09181 30433 42699 72104 11047 21082 39578 40177 57022 85930
AAXX 09181 30554 429// 80000 11221 21234 39073 40241 57023 83056
AAXX 09181 30635 418// 82703 11002 21045 39636 40205 57030 73633 8807/
AAXX 09181 30673 42999 22903 11134 21169 39367 40163 56004 80006
AAXX 09181 30692 42999 80502 11245 21257 39631 40168 57/// 80007
AAXX 09181 30758 42984 81902 11094 21140 39377 40222 57024 8807/
AAXX 09181 30802 42999 42706 11018 21101 38770 48551 57011 82031
AAXX 09181 30823 41596 82304 11070 21091 39616 40268 57019 78587 889//
AAXX 09181 30879 42999 80000 11240 21259 39406 40233 57008 8802/
AAXX 09181 30935 41997 82603 11084 21117 39344 40310 57016 71572 8807/
AAXX 09181 30949 42999 00000 11180 21180 39121 40286 57031
AAXX 09181 30965 429// 11001 11259 21284 39375 40284 57017 80002
AAXX 09181 31168 42999 00000 11165 21215 30055 40067 56003
AAXX 09181 31300 42984 60000 11265 21272 39823 40139 56007 80002
AAXX 09181 31329 NIL
AAXX 09181 31369 42998 20000 11241 21253 30001 40092 57003 82030
AAXX 09181 31416 42999 80000 11228 21240 30009 40105 57008 8801/
AAXX 09181 31484 42999 80000 11216 21240 39743 40110 57006 80009
AAXX 09181 31512 429// 60000 11179 21213 39974 40151 55008 80001
AAXX 09181 31538 42997 80000 11204 21216 39690 40154 57016 77172 80007
AAXX 09181 31707 42998 80000 11121 21183 30060 40156 57008 84071
AAXX 09181 31735 42997 72305 11165 21215 30042 40136 58003 83031
AAXX 09181 31770 41975 82706 11158 21228 30078 40110 57007 74100 80011
BBXX 41037 09181 99340 70775 46/// /0506 10180 40212 57013 91800 22200 00205 333 91207
BBXX 41038 09181 99341 70777 46/// /0504 10162 40227 57020 91800 22200 00158 333 91205
AAXX 09184 NIL
AAXX 09184 NIL
AAXX 09184 NIL
AAXX 09184 82586 32598 43601 10350 20213 39835 40069 82201 333 59005
AAXX 09184 82678 32596 60502 10352 20203 39931 40068 83202 333 59009
AAXX 09184 82784 NIL
AAXX 09184 82791 32599 61804 10365 20167 39782 40056 85220 333 59005
AAXX 09184 82983 32597 40903 10350 20205 39651 40054 84200 333 59011
AAXX 09184 83096 32695 10905 10287 20225 30094 40101 81100 333 59008
AAXX 09184 83186 32598 20903 10330 20172 39535 40054 82200 333 59009
AAXX 09184 83236 NIL
AAXX 09184 83242 32497 70904 10335 20181 39577 40057 83106 333 59011
AAXX 09184 83288 32598 41801 10336 20214 39577 40059 82225 333 59007
AAXX 09184 83344 32598 61803 10295 20194 39124 40074 86100 333 59016
AAXX 09184 82392 NIL
AAXX 09184 82583 NIL
AAXX 09184 82594 32697 40510 10316 20202 30063 40071 82130 333 59005
AAXX 09184 82683 NIL
AAXX 09184 82780 32598 21803 10367 20172 39830 40076 82200 333 59003
AAXX 09184 82789 NIL
AAXX 09184 82795 32597 31409 10301 20166 39499 40107 83200 333 58005
AAXX 09184 82879 32598 20903 10378 20161 39792 40051 82200 333 59006
AAXX 09184 82893 32798 61403 10284 20193 39195 40084 86200 333 58004
AAXX 09184 82979 32498 20906 10337 20166 39617 40055 82100 333 59016
AAXX 09184 82986 32798 51403 10353 20148 39784 40065 85100 333 59011
AAXX 09184 83179 32598 31403 10352 20134 39605 40042 83200 333 59006
AAXX 09184 83192 32597 31408 10303 20151 39937 40100 83200 333 58005
AAXX 09184 83339 32497 414// 10297 20164 39109 40050 83220 333 59016
AAXX 09184 83498 32595 20509 10287 20252 30096 40101 81101 333 59026
AAXX 09184 NIL
AAXX 09184 82022 32570 51208 10333 20200 39982 40077 85100 333 59004
AAXX 09184 82193 32570 43510 10311 20244 30062 40080 84200 333 58002
AAXX 09184 82281 32570 50514 10313 20185 30021 40082 85200 333 58002
AAXX 09184 82332 32570 61305 10301 20244 39986 40079 83201 333 59008
AAXX 09184 82398 32970 61010 10279 20218 30061 40090 80002 333 59002
AAXX 09184 82400 32570 41206 10276 20235 30033 40097 84130 333 59002
AAXX 09184 82579 32670 32105 10364 20184 39991 40067 83100 333 59006
AAXX 09184 82917 21550 70710 10295 20260 39864 40082 76022 86230 333 59014 69911
AAXX 09184 82965 21168 82305 10228 20222 39769 40099 79196 8167/ 333 58021 60301
AAXX 09184 82993 32970 01013 10299 20208 39962 40098 333 59011
AAXX 09184 83208 21470 53507 10263 20219 39410 48500 70162 84530 333 59012 69971
AAXX 09184 83349 32570 10608 10294 20226 30092 40098 81100 333 59019
AAXX 09184 83362 21560 71707 10244 20210 39867 40083 79596 85930 333 59017 60011
AAXX 09184 83378 32670 63611 10289 20134 38917 48480 85109 333 59013
AAXX 09184 83460 32570 30616 10274 20218 30032 40088 82104 333 59027
AAXX 09184 83497 NIL
AAXX 09184 83566 32570 63407 10249 20166 39167 48480 84130 333 59022
AAXX 09184 83599 NIL
AAXX 09184 83612 32570 63108 10283 20202 39446 48490 58023 86230
AAXX 09184 83649 32970 60418 10306 20230 30073 40078 56025 82201
AAXX 09184 83650 NIL
AAXX 09184 83780 21560 73309 10247 20195 39172 48470 57025 70522 87100 333 69901
AAXX 09184 83827 42570 52910 10297 20221 39792 40063 51024 85200
AAXX 09184 83840 21270 71008 10208 20179 39070 48470 56020 70162 87500 333 69941
AAXX 09184 83899 21559 51811 10212 20181 30094 40100 57010 76162 85500 333 60031
AAXX 09184 83925 NIL
AAXX 09184 83970 NIL
AAXX 09184 83971 32970 71507 10266 20159 30107 40111 55014 85507
AAXX 09184 NIL
AAXX 09184 NIL
AAXX 09184 82143 NIL
AAXX 09184 82599 32570 61013 10289 20224 30034 40094 83102 333 59004
AAXX 09184 82824 32570 53203 10304 20237 39991 40091 83230 333 59022
AAXX 09184 82899 32570 21008 10286 20207 30092 40104 82100 333 59006
AAXX 09184 83117 NIL
AAXX 09184 83248 32570 20917 10286 20218 30076 40098 82100 333 59015
AAXX 09184 83746 21330 70606 10266 20233 30048 40058 58025 71062 85530 333 69921
AAXX 09184 NIL
AAXX 09183 87007 32570 51402 10202 20011 36710 47103 57025 82206 333 56807 57899 82825 85270
AAXX 09183 87148 32570 41805 10319 20170 39981 40087 56016 84100 333 56000 84820
AAXX 09184 NIL
AAXX 09184 87022 32560 40902 10300 20182 39586 40079 57017 83230 333 56100 82830 81630
AAXX 09184 87046 32565 30904 10292 20105 39086 48481 57025 83100 333 56000 83830
AAXX 09184 87047 32470 50906 10256 20141 38776 48495 57023 83230 333 56280 57895 83815
AAXX 09184 87097 32570 52312 10290 20205 39764 40070 57024 85100 333 56900 85825
AAXX 09184 87121 42665 11406 10294 20163 39587 40088 57023 81100 333 56800 81840
AAXX 09184 87129 32965 01405 10307 20122 39874 40101 57023
AAXX 09184 87155 32565 12004 10300 20164 30034 40094 58016 81100 333 56400 81825
AAXX 09184 87162 32570 31812 10320 20171 30012 40081 57018 83500 333 56300 83625
AAXX 09184 87166 32560 11107 10302 20159 30020 40091 57017 81100 333 56300 81830
AAXX 09184 87178 32570 41805 10303 20170 39937 40079 57017 83130 333 56660 83825 83360
AAXX 09184 87217 32770 40908 10335 20157 39584 40058 57037 84200 333 56500 84856
AAXX 09184 87222 32770 20208 10329 20116 39546 40050 57032 82500 333 56600 82650
AAXX 09184 87257 32965 00511 10320 20146 39998 40099 57016
AAXX 09184 87270 32965 00910 10302 20159 30040 40101 57019
AAXX 09184 87289 32962 01412 10300 20142 30021 40102 57020
AAXX 09184 87311 NIL
AAXX 09184 87320 32970 00504 10320 20119 39565 40079 57032
AAXX 09184 87328 32780 32302 10318 20118 39442 40074 58047 83200 333 56800 57823 83850 95000
AAXX 09181 20107 31597 20107 11065 21125 39948 40044 52005 73630 81501 333 11033 91009 91111
AAXX 09181 22113 11484 71603 11012 21041 30035 40099 57002 69902 72682 86930 333 11011 91007 91111
AAXX 09181 22217 11459 81604 11019 21037 30074 40106 58005 60022 78583 889// 333 11009 85712 91008
AAXX 09181 22235 11481 21702 11031 21035 39945 40144 58004 69962 72611 81930 333 11010 91003
AAXX 09181 22349 11496 81706 11001 21019 30160 40172 58006 69932 78582 889// 333 10009 91011 91113
AAXX 09181 22408 11484 81305 11020 21048 39930 40082 57016 69922 73632 885// 333 11015 88617
AAXX 09181 22602 11973 51405 11018 21039 39835 40062 57021 69922 70272 85030 333 11014
AAXX 09181 22619 12480 81607 11011 21034 39945 40108 57016 69902 885// 333 11011 88619 91012 91112
AAXX 09181 22721 12598 81303 10000 21017 30022 40124 57016 69902 885// 333 10000 88621
AAXX 09181 22802 32584 71410 10015 21026 30036 40059 57027 87500 333 10021 91016 91118
AAXX 09181 22820 32484 61304 11029 21042 39978 40119 57016 82530 333 10000
AAXX 09181 26059 11495 81306 11005 21017 39983 40008 58030 69932 78582 889// 333 10008 87913 91113
AAXX 09181 26063 32597 61504 10003 21040 30042 40050 57017 86500 333 10011 86627 91112
AAXX 09181 26094 32470 61503 11018 21046 30039 40116 57015 86500 333 11006 86619 91113
AAXX 09181 26157 11495 81509 11004 21013 39953 40003 57023 69912 78582 889// 333 10007 86713 91117
AAXX 09181 26167 32467 81705 11002 21032 39944 40057 57016 885// 333 11002 88618 91112
AAXX 09181 26258 11/95 91706 11006 21012 39976 40032 57022 69992 73833 333 10004 91115 92982
AAXX 09181 26298 32497 81704 11026 21052 39906 40141 57016 886// 333 11023
AAXX 09181 26359 11445 81505 11006 21021 39916 40051 57021 69962 78582 889// 333 10001 91113
AAXX 09181 26702 11496 72704 10054 20011 39971 49997 52007 60032 71011 87500 333 10056 91012 91111
AAXX 09181 26781 12497 71804 11009 21022 39839 40136 57012 69902 875// 333 11009 87615
AAXX 09181 27208 31496 81404 11021 21036 39980 40161 57016 71022 886// 333 11016
AAXX 09181 27402 32397 81303 11019 21028 39984 40169 57014 886// 333 11019 88708
AAXX 09184 70133 11232 82418 11033 21044 39946 49951 53008 60011 710// 91753 333 11011 21072 555 90918
AAXX 09184 70174 11532 80000 11089 21100 39812 40060 51006 60021 771// 91753 333 11083 21122 4/063 96010 555 90918
AAXX 09184 70200 11232 82614 11067 21072 30025 40030 51037 69901 771// 91753 333 11006 21072 96010 555 90918
AAXX 09184 70219 12366 82114 11011 21028 30076 40135 51016 69901 91753 333 10000 21011 555 90918
AAXX 09184 70231 31520 82112 10000 21022 39962 40091 53020 771// 91753 333 10011 21038 4/091 91019 96010 555 90918
AAXX 09184 70261 11532 80000 11089 21100 39921 40101 53015 69931 771// 91753 333 11089 21172 96010 555 90918
AAXX 09184 70267 32766 60000 11133 21144 39625 40126 53015 91753 333 11111 21150 555 90918
AAXX 09184 70271 12566 80000 11083 21100 39522 40127 53010 60031 91753 333 11067 21083 4/008 555 90918
AAXX 09184 70273 11258 81804 11011 21017 30054 40113 51018 69951 710// 91753 333 11006 21028 4/028 555 90918
AAXX 09184 70316 32966 01309 10017 21006 30151 40188 58011 91753 333 10017 21028 555 90918
AAXX 09184 70326 12666 62206 11011 21028 30157 40168 53020 69901 91754 333 10017 555 90918
AAXX 09184 70340 12466 82705 10006 21022 30100 40161 53019 69901 91753 333 10017 20006 555 90918
AAXX 09184 70350 32666 62704 10011 21039 30118 40160 53021 91753 333 10044 21010 555 90918
AAXX 09184 70361 11564 80000 10028 20022 30121 40133 51006 60011 761// 91753 333 10056 20028 4/046 555 90918
AAXX 09184 70381 11464 80910 10039 20028 30139 40150 58004 60041 761// 91753 333 10044 20006 555 90918
AAXX 09184 70414 37440 82029 10006 21017 39738 49773 58020 771// 91756 333 10033 20006 91036 96010 555 90918
BBXX 44033 09181 99441 70690 46/24 /2208 10078 40243 56018 91804 22200 00085 10601 70006 333 91210 555 11097 22103
BBXX 46111 09181 99481 71227 46/// /0204 10034 40265 54000 91800 22200 00062
BBXX 46112 09181 99481 71227 46/// /3104 10037 40265 57003 91800
AAXX 09181 28676 329// 00402 11164 21186 30247 40385 57008 333 11100
AAXX 09181 28766 319// 00701 11153 21173 30164 40368 57008 71000 333 11116
AAXX 09181 28867 32998 00201 11175 21201 30063 40356 58016 333 11135
AAXX 09181 28879 329// 00602 11180 21195 30057 40370 57010 333 11080
AAXX 09181 28952 329// 00000 11190 21202 30155 40364 57006 333 11125
AAXX 09181 28966 329// 03601 11170 21189 30047 40354 57007 333 11087
AAXX 09181 29802 319// 00502 11152 21166 30231 40386 57005 71000 333 11147
AAXX 09181 29807 329// 00902 11146 21167 30247 40374 57012 333 11137
AAXX 09181 34691 NIL
AAXX 09181 35067 329// 00401 11218 21245 30045 40350 57009 333 11114
AAXX 09181 35078 329// 00704 11152 21172 39932 40338 57011 333 11133
AAXX 09181 35085 329// 83603 11140 21151 39835 40342 57013 80007 333 11110
AAXX 09181 35108 329// 51403 11125 21167 30253 40302 52003 80001 333 11070
AAXX 09181 35188 319// 00303 11158 21183 39861 40327 57008 77600 333 11110
AAXX 09181 35217 329// 71103 11156 21190 30257 40299 58001 80006 333 11092
AAXX 09181 35229 129// 00000 11186 21209 30047 40345 57006 69900 333 11123
AAXX 09181 35302 329// 51604 11141 21176 30260 40281 57003 85075 333 11099
AAXX 09181 35357 329// 60000 11195 21214 39834 40305 57018 84051 333 11169
AAXX 09181 35394 32998 50000 11152 21188 39600 40322 57002 80002 333 11057
AAXX 09181 35406 329// 71205 11135 21170 30274 40276 53004 80008 333 11101
AAXX 09181 35416 329// 11102 11171 21206 30183 40314 52002 80001 333 11116
AAXX 09181 35426 329// 00703 11192 21214 30018 40336 58002 333 11135
AAXX 09181 35497 329// 81402 11113 21133 39470 40306 57003 8801/ 333 11040
AAXX 09181 35532 31998 01107 11160 21187 39796 40324 53004 73633 333 11144
AAXX 09181 35671 32998 03101 11229 21251 39849 40322 57013 333 11130
AAXX 09181 35700 NIL
AAXX 09181 35746 NIL
AAXX 09181 35796 11597 80403 11086 21101 39859 40312 58006 69900 77772 886// 333 11054
AAXX 09181 35849 NIL
AAXX 09181 35925 329// 21406 11121 21134 40280 52005 80002 333 11098
AAXX 09181 35953 NIL
AAXX 09181 35969 NIL
AAXX 09181 36003 32998 21001 11180 21191 30191 40355 57011 80001 333 11118
AAXX 09181 36152 329// 20000 11229 21269 30149 40357 57007 80002 333 11138
AAXX 09181 36177 319// 00000 11203 21218 30096 40365 57001 71000 333 11128
AAXX 09181 36208 329// 03002 11092 21140 39319 40336 57003 333 11010
AAXX 09181 36397 329// 00000 11183 21212 39775 40383 53007 333 11092
AAXX 09181 36428 329// 00202 11184 21198 39811 40350 58010 333 11094 95090
AAXX 09181 36535 329// 00000 11213 21246 39675 40365 57008 333 11134
AAXX 09181 36639 329// 60702 11102 21127 39688 40319 58014 82031 333 10005
AAXX 09181 36821 319// 20000 11069 21082 39788 40294 57007 71011 80002 333 11032
AAXX 09181 36859 329// 80602 11062 21077 39515 40323 52004 8802/ 333 11062
AAXX 09181 36864 329// 00000 11093 21109 39366 40300 58011 333 11007
AAXX 09181 36870 329// 00000 11045 21054 39241 40279 58009 333 11007
AAXX 09181 38001 32997 80203 10014 21027 30221 40191 52005 8807/ 333 10013
AAXX 09181 38062 NIL
AAXX 09181 38069 NIL
AAXX 09181 38196 32998 00000 11071 21119 39252 40270 57008 333 10009
AAXX 09181 38198 325// 82901 11058 21073 30007 40276 57007 885// 333 11030
AAXX 09181 38222 31995 00000 11086 21101 39696 40281 57017 71000 333 11026
AAXX 09181 38232 32498 81307 11049 21058 30130 40232 52013 886// 333 11009
AAXX 09181 38328 319// 01101 11026 21059 39507 40253 58012 71040 333 10036
AAXX 09181 38334 32998 01001 11016 21133 39273 40253 57011 333 10040
AAXX 09181 38341 32997 01501 11048 21110 39454 40264 57009 333 10017
AAXX 09181 38343 32997 00000 11100 21128 39398 40285 57011 333 11056
AAXX 09181 38439 31993 63604 11042 21047 39907 40257 57006 74641 80001 333 11012
AAXX 09181 38598 429// 00909 10030 20001 40277 57002
AAXX 09181 38599 NIL
AAXX 09181 38725 429// 00903 11038 21161 48530 52003
AAXX 09181 38734 429// 00906 11088 21167 47070 51001
AAXX 09181 38744 429// 00000 11152 21194 38058 48520 52005
AAXX 09181 38836 329// 00000 11015 21042 39313 40286 52014 333 10118
AAXX 09181 38838 429// 00000 10012 20011 39572 40260 52006
AAXX 09181 38844 429// 00507 11033 21145 48500 51003
AAXX 09181 38846 NIL
AAXX 09181 38847 429// 00000 10040 21043 40282 52012
AAXX 09181 38932 NIL
AAXX 09181 38933 329// 00000 10018 21004 39743 40272 52007 333 10125
AAXX 09181 38944 329// 00000 10006 21014 39632 40181 52004 333 10121
AAXX 09181 38954 NIL
AAXX 09181 22271 11598 81906 11018 21039 30174 40184 58004 69970 70282 885// 333 11006
AAXX 09181 22520 32599 81305 11006 21030 30112 40122 57015 885// 333 11003 88631
AAXX 09181 22550 NIL
AAXX 09181 22583 11982 21801 11110 21116 30161 40246 58001 69950 70271 82030 333 11032
AAXX 09181 22768 NIL
AAXX 09181 22845 12498 81904 11034 21048 30035 40196 57009 69900 875// 333 11011 86711
AAXX 09181 22887 12497 71603 11029 21046 30174 40247 58006 69930 8655/ 333 11025 86617 91106
AAXX 09181 23205 11497 82202 11053 21074 30217 40232 52002 69900 78582 883// 333 11017 85618 91105
AAXX 09181 23219 32498 82702 11058 21076 30168 40278 58002 886// 333 11037
AAXX 09181 23418 11365 80000 11045 21098 30200 40276 52002 69900 70272 886// 333 11044 88707
AAXX 09181 23606 31/07 90000 11046 21046 30096 40274 58002 74722 333 11035
AAXX 09181 23711 11598 81602 11058 21069 30116 40297 54000 69920 70282 885// 333 11023
AAXX 09181 23804 32497 81503 11036 21047 30115 40268 57002 885// 333 11021 88610
AAXX 09181 27037 31397 81102 11050 21057 30041 40209 57015 71022 886// 333 11045 88707
AAXX 09181 27199 12998 81502 11082 21096 30066 40273 58006 69950 8801/ 333 11058 93404
AAXX 09181 27271 11994 80903 11054 21068 30075 40237 57012 69900 77372 8802/ 333 11034
AAXX 09181 27459 11397 81202 11053 21063 30007 40209 57010 60050 77172 8772/ 333 11018 87707
AAXX 09181 27730 12397 81601 11002 21008 39985 40183 57002 60010 8872/ 333 10003 88506
AAXX 09181 22028 32982 42009 11027 21050 30065 40104 57006 81044 333 11020 91011 91114
AAXX 09181 22106 32998 31001 11057 21068 30014 40095 58004 82041 333 11016 91002
AAXX 09181 22127 11598 72203 11016 21061 39918 40121 58004 69922 70282 86930 333 11005 84920 91007
AAXX 09181 22324 11582 71505 11004 21028 30075 40125 57005 69902 78582 87900 333 11004 91008 91111
AAXX 09181 22621 31460 81504 11010 21036 39982 40124 58025 70422 885// 333 11010 88613
AAXX 09181 22831 32997 61101 11037 21045 30099 40161 57014 86030 333 11015
AAXX 09181 22892 11396 81609 10001 21025 39998 40014 57018 69902 77172 8872/ 333 10007 91010 91115
AAXX 09181 26275 32498 81405 11003 21021 30057 40088 57020 885// 333 10018 88615
AAXX 09181 26389 31496 81603 11029 21049 39857 40127 57019 71022 886// 333 11028
AAXX 09181 26499 32498 71605 11026 21052 39931 40167 57010 87500 333 11017 87615
AAXX 09181 26695 31296 81604 11026 21036 39854 40169 57012 71022 886// 333 11025 88706
AAXX 09181 26882 11565 71804 11006 21018 39881 40161 57007 69902 70272 87500 333 11005 87621
AAXX 09184 91165 32566 60513 10228 20167 30155 40189 53008 91753 333 10228 20222 555 90918
AAXX 09184 91182 11562 40717 10217 20183 30178 40184 53008 60021 761// 91753 333 10244 20206 91020 555 90918
AAXX 09184 91190 35866 60508 10228 20161 30168 40188 53012 91754 333 10228 20206 555 90918
AAXX 09184 91212 12766 20611 10256 20239 31372 40106 55008 69901 91754 333 10294 20244 91016 555 90918
AAXX 09184 91285 12566 60000 10211 20167 30171 40184 53012 69901 91753 333 10222 555 90918
BBXX WE4805 09184 99444 70830 41/99 42723 11027 2//// 40207 53000 70201 841// 22233 00044 20302 3//// 4//// 5//// 6//// 8//// ICE /////
BBXX WQZ7791 09184 99468 70851 41/94 /0000 11177 2//// 40000 54000 73900 8//// 222// 0//// 2//00 3//// 4//// 5//// 6//// 8//// ICE /////
BBXX C6WK7 09184 99361 70046 41798 12210 1//// 2//// 40240 54/// 7//11 81/1/ 22274 04180 20200 3//// 40200 5//// 6//// 8//// ICE /////
BBXX 9HA2583 09184 99238 70669 41498 30731 1//// 2//// 40180 51/// 7//22 83278 22284 0//// 2//// 3//// 4//// 5//// 6//// 8//// ICE /////
BBXX C6VG8 09184 99300 70765 41/// /1111 10220 2//// 40200 52010 7//// 8//// 22284 00240 2//// 3//// 4//// 5//// 6//// 8//// ICE /////
BBXX WDC6027 09184 99426 70875 43/98 /2714 11038 2//// 40251 5//// 7//// 8//// 22243 00033 2//02 3//// 4//// 5//// 6//// 8//// ICE /////
BBXX V7NV4 09184 99081 70839 41898 72516 10280 20267 40100 55010 7//21 85132 22273 00290 20102 32626 40102 50102 6//// 80270 ICE /////
AAXX 09181 26997 11323 82103 11002 21005 39959 40183 58003 69902 75622 886// 333 10000 88707 93400
AAXX 09181 27595 32997 81402 11078 21105 30128 40284 58005 80007 333 11077
AAXX 09181 27612 113// 81701 11004 21016 39977 40174 57012 69942 71087 887// 333 21004
AAXX 09181 27707 11549 71802 11020 21026 39878 40179 57004 69902 71022 87500 333 11020 87624
AAXX 09181 27719 11596 82003 11011 21036 39937 40194 58002 69902 71022 885// 333 11007
AAXX 09181 27786 32997 61403 11082 21101 30102 40271 58005 80004 333 11073
AAXX 09181 27857 11996 81503 11064 21072 30042 40211 54000 60060 77172 8802/ 333 11015
AAXX 09181 27906 11597 81503 11013 21036 39945 40192 53002 69902 70282 883// 333 11004
AAXX 09181 27928 11596 82501 11001 21007 39987 40198 52006 69970 71022 8655/ 333 10004 93602
AAXX 09181 27947 11397 81404 11028 21038 30039 40203 51003 69970 72272 8872/ 333 10006 88708
AAXX 09181 27962 12497 61403 11082 21114 40236 54000 69960 885// 333 11049 88616
AAXX 09181 27983 32970 61204 11098 21119 30144 40280 58002 80001 333 11076 93402
AAXX 09181 27995 32971 80902 11102 21130 40296 52002 8802/ 333 11071
AAXX 09181 28506 32997 22301 11098 21119 30196 40317 58006 80005 333 11046
AAXX 09181 28704 32998 81003 11101 21121 30195 40298 58006 80007 333 11067
AAXX 09181 28711 32997 51203 11110 21130 39924 40324 57009 80001 333 11051
AAXX 09181 28807 32997 61402 11094 21129 30251 40305 53002 80001 333 11063
AAXX 09181 34009 12597 81902 11012 21038 39891 40204 52006 69902 885// 333 11010
AAXX 09181 34110 32597 82603 11012 21029 39925 40210 52009 8535/ 333 11001
AAXX 09181 34123 11396 82802 10004 21007 30010 40197 51003 69930 71052 886// 333 10009 88708
AAXX 09181 34152 11330 71302 11048 21051 30017 40221 52003 60020 77172 875// 333 11014 88707
AAXX 09181 34163 32498 80904 11088 21112 40242 52001 885// 333 11071 88620
AAXX 09181 34171 32960 81205 11094 21115 30045 40249 52002 86031 333 11082
AAXX 09181 34186 32980 71306 11125 21152 30119 40267 58003 83011 333 11087 93405
AAXX 09181 34247 11558 81801 10010 20005 30087 40203 52001 60010 71062 885// 333 10013 88621
AAXX 09181 34336 11496 80000 10023 20023 30103 40207 52008 69900 71052 886// 333 10025
AAXX 09181 34391 32997 51405 11122 21157 30221 40254 52004 85080 333 11078
AAXX 09181 35011 32984 81503 11105 21141 40322 53002 80001 333 11062
AAXX 09181 35121 32998 11202 11157 21181 30178 40337 58002 80001 333 11109
AAXX 09181 28676 329// 00402 11164 21186 30247 40385 57008 333 11100
AAXX 09181 28766 319// 00701 11153 21173 30164 40368 57008 71000 333 11116
AAXX 09181 28867 32998 00201 11175 21201 30063 40356 58016 333 11135
AAXX 09181 28879 329// 00602 11180 21195 30057 40370 57010 333 11080
AAXX 09181 28952 329// 00000 11190 21202 30155 40364 57006 333 11125
AAXX 09181 28966 329// 03601 11170 21189 30047 40354 57007 333 11087
AAXX 09181 29802 319// 00502 11152 21166 30231 40386 57005 71000 333 11147
AAXX 09181 29807 329// 00902 11146 21167 30247 40374 57012 333 11137
AAXX 09181 34691 NIL
AAXX 09181 35067 329// 00401 11218 21245 30045 40350 57009 333 11114
AAXX 09181 35078 329// 00704 11152 21172 39932 40338 57011 333 11133
AAXX 09181 35085 329// 83603 11140 21151 39835 40342 57013 80007 333 11110
AAXX 09181 35108 329// 51403 11125 21167 30253 40302 52003 80001 333 11070
AAXX 09181 35188 319// 00303 11158 21183 39861 40327 57008 77600 333 11110
AAXX 09181 35217 329// 71103 11156 21190 30257 40299 58001 80006 333 11092
AAXX 09181 35229 129// 00000 11186 21209 30047 40345 57006 69900 333 11123
AAXX 09181 35302 329// 51604 11141 21176 30260 40281 57003 85075 333 11099
AAXX 09181 35357 329// 60000 11195 21214 39834 40305 57018 84051 333 11169
AAXX 09181 35394 32998 50000 11152 21188 39600 40322 57002 80002 333 11057
AAXX 09181 35406 329// 71205 11135 21170 30274 40276 53004 80008 333 11101
AAXX 09181 35416 329// 11102 11171 21206 30183 40314 52002 80001 333 11116
AAXX 09181 35426 329// 00703 11192 21214 30018 40336 58002 333 11135
AAXX 09181 35497 329// 81402 11113 21133 39470 40306 57003 8801/ 333 11040
AAXX 09181 35532 31998 01107 11160 21187 39796 40324 53004 73633 333 11144
AAXX 09181 35671 32998 03101 11229 21251 39849 40322 57013 333 11130
AAXX 09181 35700 NIL
AAXX 09181 35746 NIL
AAXX 09181 35796 11597 80403 11086 21101 39859 40312 58006 69900 77772 886// 333 11054
AAXX 09181 35849 NIL
AAXX 09181 35925 329// 21406 11121 21134 40280 52005 80002 333 11098
AAXX 09181 35953 NIL
AAXX 09181 35969 NIL
AAXX 09181 36003 32998 21001 11180 21191 30191 40355 57011 80001 333 11118
AAXX 09181 36152 329// 20000 11229 21269 30149 40357 57007 80002 333 11138
AAXX 09181 36177 319// 00000 11203 21218 30096 40365 57001 71000 333 11128
AAXX 09181 36208 329// 03002 11092 21140 39319 40336 57003 333 11010
AAXX 09181 36397 329// 00000 11183 21212 39775 40383 53007 333 11092
AAXX 09181 36428 329// 00202 11184 21198 39811 40350 58010 333 11094 95090
AAXX 09181 36535 329// 00000 11213 21246 39675 40365 57008 333 11134
AAXX 09181 36639 329// 60702 11102 21127 39688 40319 58014 82031 333 10005
AAXX 09181 36821 319// 20000 11069 21082 39788 40294 57007 71011 80002 333 11032
AAXX 09181 36859 329// 80602 11062 21077 39515 40323 52004 8802/ 333 11062
AAXX 09181 36864 329// 00000 11093 21109 39366 40300 58011 333 11007
AAXX 09181 36870 329// 00000 11045 21054 39241 40279 58009 333 11007
AAXX 09181 38001 32997 80203 10014 21027 30221 40191 52005 8807/ 333 10013
AAXX 09181 38062 NIL
AAXX 09181 38069 NIL
AAXX 09181 38196 32998 00000 11071 21119 39252 40270 57008 333 10009
AAXX 09181 38198 325// 82901 11058 21073 30007 40276 57007 885// 333 11030
AAXX 09181 38222 31995 00000 11086 21101 39696 40281 57017 71000 333 11026
AAXX 09181 38232 32498 81307 11049 21058 30130 40232 52013 886// 333 11009
AAXX 09181 38328 319// 01101 11026 21059 39507 40253 58012 71040 333 10036
AAXX 09181 38334 32998 01001 11016 21133 39273 40253 57011 333 10040
AAXX 09181 38341 32997 01501 11048 21110 39454 40264 57009 333 10017
AAXX 09181 38343 32997 00000 11100 21128 39398 40285 57011 333 11056
AAXX 09181 38439 31993 63604 11042 21047 39907 40257 57006 74641 80001 333 11012
AAXX 09181 45032 36/// /0106 10109 21016 30228 40245 57001
AAXX 09181 45035 36/// /0304 10119 20010 30201 40245 54000
AAXX 09181 45039 36/// /0204 10120 20019 30222 40238 57001
AAXX 09181 45044 36/// /0010 10117 20021 30135 40232 54000 333 91115
AAXX 09184 91245 32566 40818 10270 20230 30147 91755 555 90918
AAXX 09181 45032 36/// /0106 10109 21016 30228 40245 57001
AAXX 09181 45035 36/// /0304 10119 20010 30201 40245 54000
AAXX 09181 45039 36/// /0204 10120 20019 30222 40238 57001
AAXX 09181 45044 36/// /0010 10117 20021 30135 40232 54000 333 91115
AAXX 09184 60360 12965 30205 10136 20128 40224 56001 60002 80002 333 10200 83073 95990
AAXX 09184 60390 12960 42003 10123 20104 40237 53004 60002 81032 333 10198 81360 84070 95990
AAXX 09184 60402 12960 60000 10120 20101 40231 53006 60002 80002 333 10205 86073 95990
AAXX 09184 60419 12965 32310 10097 20010 40259 53002 60002 80001 333 10198 83073 95990
AAXX 09184 60475 12970 21004 10100 20047 39297 48547 53005 60002 80002 333 10216 82073 95990
AAXX 09184 60490 12960 50000 10117 20105 40225 58004 60002 83032 333 10145 83360 83073 95990
AAXX 09184 60525 12965 30000 10138 20056 40254 55000 60002 80002 333 10185 83073 95990
AAXX 09184 60531 12965 70000 10130 20111 40234 50000 60002 82032 333 10176 82360 86073 95990
AAXX 09184 60566 12960 30000 10139 20019 40272 56003 60002 80002 333 10200 83073
AAXX 09184 60571 12965 80000 10120 20059 39322 48562 54001 60002 84082 333 10158 84360 85073 95990
AAXX 09184 60580 12960 60000 10153 20085 40265 53007 60002 80004 333 10222 86073
AAXX 09184 60590 12965 60000 10145 20081 40268 55000 60002 81034 333 10200 81360 86070
AAXX 09184 60611 12960 20903 10143 20022 40259 53011 60002 80001 333 10201 82073
AAXX 09184 60620 12960 63610 10200 2//// 40222 58003 60002 83034 333 10256 83365 84075
AAXX 09184 60630 12960 50515 10222 20014 40216 58006 60002 82032 333 10271 82362 84075
AAXX 09184 60656 12660 80606 10202 20027 40204 55001 60002 8227/ 333 10220 82846 87460
AAXX 09184 60670 12970 11011 10148 21036 39126 48557 53009 60002 80001 333 10220 81073 95990
AAXX 09184 60680 12975 41203 10157 21108 38684 48559 53005 60002 80002 333 10220 84073 95990
AAXX 09184 60351 12960 50000 10131 20116 40214 56003 60002 80002 333 10190 85070 95990
AAXX 09184 60355 12960 31802 10158 20111 40212 56003 60002 80001 333 10202 83073 95990
AAXX 09184 60445 12960 50203 10074 20032 39082 48549 52002 60002 80002 333 10161 85073 95990
AAXX 09184 60468 12960 42302 10096 20040 39292 48546 50002 60002 80002 333 84073 95990
AAXX 09184 60507 12960 70000 10125 20075 40244 53001 60002 80002 333 10183 87073 95990
AAXX 09184 60511 12565 52110 10076 20046 39107 48533 55000 60002 82502 333 10150 82626 84071 95990
AAXX 09184 60535 12970 62206 10080 20037 38900 48559 54000 60002 80002 333 10142 86070 95900
AAXX 09184 60536 12960 51806 10130 20059 39356 48540 51002 60002 81032 333 10190 81360 85073 95990
AAXX 09184 60549 11960 61507 10099 20010 38969 48563 54000 60002 70222 85072 333 10159 85460 95990
AAXX 09184 60550 12560 62406 10075 20019 38726 48559 53002 60002 82202 333 10140 82826 86073 95990
AAXX 09184 60555 12970 40000 10117 20050 40264 50000 60002 80002 333 10200 84073
AAXX 09184 60559 12960 20000 10132 20065 40269 53004 60002 80001 333 10217 82073
AAXX 09184 60581 12960 20000 10152 20062 40263 53001 60002 80002 333 10226 82073
AAXX 09184 60602 12960 60000 10157 20053 40249 56003 60002 80004 333 10185 86073 95990
AAXX 09184 60607 12960 53609 10160 21114 40238 51001 60002 84031 333 10214 84362
AAXX 09184 60640 12960 20710 10170 20019 40250 53008 60002 80001 333 10245 82073
AAXX 09184 60690 NIL
AAXX 09184 60351 12960 50000 10131 20116 40214 56003 60002 80002 333 10190 85070 95990
AAXX 09184 60355 12960 31802 10158 20111 40212 56003 60002 80001 333 10202 83073 95990
AAXX 09184 60445 12960 50203 10074 20032 39082 48549 52002 60002 80002 333 10161 85073 95990
AAXX 09184 60468 12960 42302 10096 20040 39292 48546 50002 60002 80002 333 84073 95990
AAXX 09184 60507 12960 70000 10125 20075 40244 53001 60002 80002 333 10183 87073 95990
AAXX 09184 60511 12565 52110 10076 20046 39107 48533 55000 60002 82502 333 10150 82626 84071 95990
AAXX 09184 60535 12970 62206 10080 20037 38900 48559 54000 60002 80002 333 10142 86070 95900
AAXX 09184 60536 12960 51806 10130 20059 39356 48540 51002 60002 81032 333 10190 81360 85073 95990
AAXX 09184 60549 11960 61507 10099 20010 38969 48563 54000 60002 70222 85072 333 10159 85460 95990
AAXX 09184 60550 12560 62406 10075 20019 38726 48559 53002 60002 82202 333 10140 82826 86073 95990
AAXX 09184 60555 12970 40000 10117 20050 40264 50000 60002 80002 333 10200 84073
AAXX 09184 60559 12960 20000 10132 20065 40269 53004 60002 80001 333 10217 82073
AAXX 09184 60581 12960 20000 10152 20062 40263 53001 60002 80002 333 10226 82073
AAXX 09184 60602 12960 60000 10157 20053 40249 56003 60002 80004 333 10185 86073 95990
AAXX 09184 60607 12960 53609 10160 21114 40238 51001 60002 84031 333 10214 84362
AAXX 09184 60640 12960 20710 10170 20019 40250 53008 60002 80001 333 10245 82073
AAXX 09184 60690 NIL
AAXX 09181 40701 12660 60000 11004 21088 38599 40236 52014 60001 86500 333 55012 86640
AAXX 09181 40704 12970 02402 10014 21075 38622 40207 52011 60001 333 55070 21012
AAXX 09181 40708 12960 02006 10046 21070 38665 40174 50006 60001 333 55076 20994
AAXX 09181 40710 12980 03305 10000 21099 38330 40227 53008 60001 333 55047
AAXX 09181 40713 12964 10903 10012 21105 38675 40211 51007 60001 81040 333 55080
AAXX 09181 40731 12960 00902 10025 21022 38766 40243 52011 60001 333 55071 21061
AAXX 09181 40740 12960 01303 11048 21061 38756 40256 52008 60001 333 55084
AAXX 09181 40747 12960 01803 10068 21088 38647 40218 51006 60001 333 55084 21013
AAXX 09181 40757 12962 03601 10016 21016 38941 40255 51008 60001 333 55087 20926
AAXX 09181 40763 12965 00000 10042 21048 38964 40252 51007 60001 333 55091
AAXX 09181 40782 12960 00000 10016 21066 38917 40255 51007 60001 333 55087
AAXX 09181 40783 12970 00000 10036 21078 38019 40218 52008 60001 333 55092
AAXX 09181 40789 12965 00000 10042 21010 39249 40246 52009 60001 333 55090 21282
AAXX 09181 40798 12960 10000 10030 21139 38001 40261 51007 60001 80001 333 55093 21430 81070
AAXX 09181 40818 12970 30000 10032 21104 38019 40232 52012 60001 80002 333 55093 83070
AAXX 09181 40827 12965 00000 10020 21092 38886 40291 50006 60001 333 55094
AAXX 09181 40836 12970 11502 10034 21123 38239 40254 52008 60001 80004 333 55094 21546 81068
AAXX 09181 40851 12660 50000 10105 21090 38305 40275 52004 60001 83401 333 55087 83640
AAXX 09181 40853 12960 21202 10046 21129 37789 40209 52004 60001 80001 333 55095 82070
AAXX 09181 40854 12960 02703 10076 21141 38987 40198 51004 60001 333 55086
AAXX 09181 40857 12960 20202 10150 20104 30199 40209 51005 60001 80002 222// 00/// 20000 333 55090 82070
AAXX 09181 40859 12965 43302 10044 21037 38755 40217 53007 60001 80001 333 55094 84070
AAXX 09181 40878 12965 00405 10102 21191 38893 40242 51005 60001 333 55100
AAXX 09181 40879 12962 03502 10105 21177 39533 40224 51005 60001 333 55101
AAXX 09181 40883 12962 03402 10164 20027 30169 40192 52009 60001 333 55099
BBXX A8NQ5 09183 99505 70165 41398 53316 10105 20032 40180 57010 70222 845// 22224 04116 20304 332// 40505 80070
AAXX 09184 71727 11566 82608 11024 21056 39995 40196 56010 69901 78511 885// 333 11020 21084 47003 70008 90910
AAXX 09181 40701 12660 60000 11004 21088 38599 40236 52014 60001 86500 333 55012 86640
AAXX 09181 40704 12970 02402 10014 21075 38622 40207 52011 60001 333 55070 21012
AAXX 09181 40708 12960 02006 10046 21070 38665 40174 50006 60001 333 55076 20994
AAXX 09181 40710 12980 03305 10000 21099 38330 40227 53008 60001 333 55047
AAXX 09181 40713 12964 10903 10012 21105 38675 40211 51007 60001 81040 333 55080
AAXX 09181 40731 12960 00902 10025 21022 38766 40243 52011 60001 333 55071 21061
AAXX 09181 40740 12960 01303 11048 21061 38756 40256 52008 60001 333 55084
AAXX 09181 40747 12960 01803 10068 21088 38647 40218 51006 60001 333 55084 21013
AAXX 09181 40757 12962 03601 10016 21016 38941 40255 51008 60001 333 55087 20926
AAXX 09181 40763 12965 00000 10042 21048 38964 40252 51007 60001 333 55091
AAXX 09181 40782 12960 00000 10016 21066 38917 40255 51007 60001 333 55087
AAXX 09181 40783 12970 00000 10036 21078 38019 40218 52008 60001 333 55092
AAXX 09181 40789 12965 00000 10042 21010 39249 40246 52009 60001 333 55090 21282
AAXX 09181 40798 12960 10000 10030 21139 38001 40261 51007 60001 80001 333 55093 21430 81070
AAXX 09181 40818 12970 30000 10032 21104 38019 40232 52012 60001 80002 333 55093 83070
AAXX 09181 40827 12965 00000 10020 21092 38886 40291 50006 60001 333 55094
AAXX 09181 40836 12970 11502 10034 21123 38239 40254 52008 60001 80004 333 55094 21546 81068
AAXX 09181 40851 12660 50000 10105 21090 38305 40275 52004 60001 83401 333 55087 83640
AAXX 09181 40853 12960 21202 10046 21129 37789 40209 52004 60001 80001 333 55095 82070
AAXX 09181 40854 12960 02703 10076 21141 38987 40198 51004 60001 333 55086
AAXX 09181 40857 12960 20202 10150 20104 30199 40209 51005 60001 80002 222// 00/// 20000 333 55090 82070
AAXX 09181 40859 12965 43302 10044 21037 38755 40217 53007 60001 80001 333 55094 84070
AAXX 09181 40878 12965 00405 10102 21191 38893 40242 51005 60001 333 55100
AAXX 09181 40879 12962 03502 10105 21177 39533 40224 51005 60001 333 55101
AAXX 09181 40883 12962 03402 10164 20027 30169 40192 52009 60001 333 55099
BBXX OXVE2 09184 99322 30720 41/98 60725 10180 20146 40242 7//// 8//// 22234 04200 20205 3//// 4//// 5//// 80160
AAXX 09181 40701 12660 60000 11004 21088 38599 40236 52014 60001 86500 333 55012 86640
AAXX 09181 40704 12970 02402 10014 21075 38622 40207 52011 60001 333 55070 21012
AAXX 09181 40708 12960 02006 10046 21070 38665 40174 50006 60001 333 55076 20994
AAXX 09181 40710 12980 03305 10000 21099 38330 40227 53008 60001 333 55047
AAXX 09181 40713 12964 10903 10012 21105 38675 40211 51007 60001 81040 333 55080
AAXX 09181 40731 12960 00902 10025 21022 38766 40243 52011 60001 333 55071 21061
AAXX 09181 40740 12960 01303 11048 21061 38756 40256 52008 60001 333 55084
AAXX 09181 40747 12960 01803 10068 21088 38647 40218 51006 60001 333 55084 21013
AAXX 09181 40757 12962 03601 10016 21016 38941 40255 51008 60001 333 55087 20926
AAXX 09181 40763 12965 00000 10042 21048 38964 40252 51007 60001 333 55091
AAXX 09181 40782 12960 00000 10016 21066 38917 40255 51007 60001 333 55087
AAXX 09181 40783 12970 00000 10036 21078 38019 40218 52008 60001 333 55092
AAXX 09181 40789 12965 00000 10042 21010 39249 40246 52009 60001 333 55090 21282
AAXX 09181 40798 12960 10000 10030 21139 38001 40261 51007 60001 80001 333 55093 21430 81070
AAXX 09181 40818 12970 30000 10032 21104 38019 40232 52012 60001 80002 333 55093 83070
AAXX 09181 40827 12965 00000 10020 21092 38886 40291 50006 60001 333 55094
AAXX 09181 40836 12970 11502 10034 21123 38239 40254 52008 60001 80004 333 55094 21546 81068
AAXX 09181 40851 12660 50000 10105 21090 38305 40275 52004 60001 83401 333 55087 83640
AAXX 09181 40853 12960 21202 10046 21129 37789 40209 52004 60001 80001 333 55095 82070
AAXX 09181 40854 12960 02703 10076 21141 38987 40198 51004 60001 333 55086
AAXX 09181 40857 12960 20202 10150 20104 30199 40209 51005 60001 80002 222// 00/// 20000 333 55090 82070
AAXX 09181 40859 12965 43302 10044 21037 38755 40217 53007 60001 80001 333 55094 84070
AAXX 09181 40878 12965 00405 10102 21191 38893 40242 51005 60001 333 55100
AAXX 09181 40879 12962 03502 10105 21177 39533 40224 51005 60001 333 55101
AAXX 09181 40883 12962 03402 10164 20027 30169 40192 52009 60001 333 55099
AAXX 09184 40101 11556 82411 10062 20013 39084 48479 53019 60111 76266 889// 918// 333 10121 81923 87826 91143
AAXX 09184 40103 31460 72810 10129 20082 40183 52033 70296 87900 333 10191 20112 81917 82824 85640
AAXX 09184 40100 NIL
AAXX 09184 40102 NIL
AAXX 09184 71727 11566 82608 11024 21056 39995 40196 56010 69901 78511 885// 333 11020 21084 47003 70008 90910
AAXX 09181 40716 12960 00000 10004 21062 38930 40247 52007 60001 333 55070
AAXX 09181 40719 11215 60000 10086 20082 30183 40173 52011 60001 71000 86600 333 55080 86705
AAXX 09181 40721 12960 01508 10128 21084 39654 40193 53012 60001 333 55087
AAXX 09181 40858 12960 30000 10160 20094 30196 40207 51004 60001 80002 333 83068
AAXX 09181 40872 12960 23103 10168 20081 30189 40194 51004 60001 80001 222// 00/// 20301 333 55097 82070
AAXX 09181 40877 12960 03105 10120 21104 39628 40179 52012 60001 333 55098
AAXX 09181 40898 12960 03102 10196 20089 30164 40173 52013 60001 222// 00250 10700 333 55099 2////
BBXX 46207 09181 99509 71299 46/// /2304 10062 40257 57011 22200 00086 11404 70020 333 91205
AAXX 09181 40650 12960 01802 10100 21041 40194 51003 60002
AAXX 09181 40604 12960 41002 10092 21002 40175 58003 60002 84200
AAXX 09181 40608 12960 40000 10102 21059 40186 58001 60002 84030
AAXX 09181 40621 12960 20000 10093 21050 40013 58004 60002 80001
AAXX 09181 40629 12960 00902 10090 20044 40188 57005 60002
AAXX 09181 40634 12960 00000 10092 20080 40191 51001 60002
AAXX 09181 40656 12960 00000 10120 20005 40177 52006 60002
AAXX 09181 40670 12960 00000 10132 20009 40191 51005 60002
AAXX 09181 40674 11956 00000 10102 21010 40199 51003 60002 70600
AAXX 09181 40676 12960 00603 10134 20005 40204 50004 60002
AAXX 09181 40689 12960 31803 10145 50070 40214 52010 60002 80003
AAXX 09181 40690 11958 41302 10130 20066 40207 51009 60002 70511 80002
AAXX 09181 40691 12960 50302 10135 20102 40228 50004 60002 80006
AAXX 09181 01025 17/64 00302 11066 21085 30023 40034 57001 6//// 700// 333 11064 91106
BBXX 46207 09181 99509 71299 46/// /2304 10062 40257 57011 22200 00086 11404 70020 333 91205
AAXX 0918/ 89869 46/// ///// 11049 39671 4//// 5////
AAXX 0918/ 89866 46/// ///// 11053 39617 4//// 5////
AAXX 0918/ 89769 46/// ///// 11033 39699 4//// 5//// 91810
AAXX 0918/ 89828 46/// ///// 11388 36405 4//// 5////
AAXX 0918/ 89879 46/// ///// 11025 39650 4//// 5//// 91810
AAXX 09181 48900 32497 59902 10232 20204 30093 40103 57004 85800 333 58008 81894 85696
AAXX 09181 48918 32498 73401 10254 20234 30098 40109 58011 878// 222// 00268 2//// 333 58009 82894 86696
AAXX 09181 48917 32598 60503 10258 20211 30091 40097 57009 8121/ 222// 00280 333 58007 81895 86499
AAXX 09181 48914 11598 70000 10243 20239 30105 40107 58008 60041 70382 878// 333 58014 83895 85696
AAXX 09181 48919 32598 60208 10259 20227 30072 40094 58010 868// 22200 02275 333 58000 82895 85696
AAXX 09181 48916 32598 70202 10270 20231 30054 40101 58003 878// 333 58009 83895 87696
BBXX 3ERR2 09184 99635 10053 41898 20719 10059 20004 49760 52016 70122 81071 22200 06098 11106 70028 333 91125
BBXX LF3F 09184 99643 10078 43/// /0727 10044 21004 49783 52013 22200 04093 10707 70036 333 91134
BBXX LF3N 09184 99653 10073 41597 80930 10044 21002 49810 52018 75022 8//// 22200 00092 10811 70054
BBXX LF4B 09184 99606 10037 47/97 /2938 10043 49782 52034 781// 22200 00038 11016 70079 333 91146
BBXX LF4C 09184 99584 10019 41597 83039 10041 21034 49926 52036 72582 89/// 22200 00077 10914 70068 333 91153
BBXX LF5T 09184 99660 10081 43/// /0829 10044 21024 49852 52015 22200 10808 70038 333 91142
AAXX 09183 64800 NIL
AAXX 09183 64820 NIL
AAXX 09183 64860 31958 60000 10275 20033 39816 40088 70522 80002 333 10344 58003 86080
AAXX 09183 64861 NIL
AAXX 09183 64870 32960 30000 10195 20050 38892 48485 80002 333 10300 59001 83080
AAXX 09183 64871 NIL
AAXX 09183 64892 NIL
AAXX 09183 64893 NIL
AAXX 09183 64894 NIL
AAXX 09184 64910 31460 72406 10277 20246 30072 40081 70192 83902 333 10330 58002 83616 82920 87080 94944 95834
AAXX 09184 64911 NIL
AAXX 09184 64950 NIL
AAXX 09183 87480 32965 10508 10318 20152 30078 40107 57017 80001 333 56000 81070
AAXX 09183 87532 32670 60508 10340 20131 39913 40076 57029 86100 333 56800 86840
AAXX 09184 87344 32465 40213 10318 20106 39566 40096 57023 84100 333 56800 84817
AAXX 09184 87349 32570 23608 10313 20115 39712 40094 57025 82100 333 56700 82820
AAXX 09184 87371 32962 00509 10312 20158 30092 40113 57023
AAXX 09184 87374 32565 11404 10316 20155 30020 40105 57021 81100 333 56000 81830
AAXX 09184 87395 32965 01416 10300 20135 30066 40110 57024
AAXX 09184 87418 32765 10508 10320 20104 39277 40041 57033 81900 333 56000 57944 81950
AAXX 09184 87436 32670 23415 10300 20107 39292 40076 57023 82400 333 56100 82640
AAXX 09184 87448 32565 40217 10339 20115 39536 40080 57027 84100 333 56700 84825
AAXX 09184 87453 32665 33615 10316 20108 39612 40084 57024 83100 333 56400 83835
AAXX 09184 87467 32570 20503 10340 20164 39962 40091 57025 82100 333 56600 82830
AAXX 09184 87497 32565 21405 10301 20151 30096 40123 57016 82100 333 56500 82830
AAXX 09184 87506 32670 50505 10284 20048 38533 48458 57027 85900 333 56700 57931 84635 82950 95010
AAXX 09184 87509 32670 13607 10328 20078 39222 40039 57031 81900 333 56600 57951 81940
AAXX 09184 87534 32660 43606 10339 20096 39929 40084 57025 84500 333 56200 84640
AAXX 09184 87548 32560 42303 10328 20112 30008 40101 57017 84800 333 56400 82630
AAXX 09184 87576 32760 10508 10283 20148 30113 40136 57016 81101 333 56106 81850
AAXX 09184 87582 32960 01114 10255 20174 30129 40136 57020
AAXX 09184 87585 NIL
AAXX 09181 34560 11496 81202 11035 21042 30045 40217 52010 69930 77176 8802/ 333 11021 88516 93403
AAXX 09181 34720 32597 73402 10030 20012 30175 40215 52014 87500 333 10056
AAXX 09181 34730 31396 73202 10037 20021 30115 40208 52008 71022 84530 333 10053 83619
AAXX 09181 34740 31596 83002 10040 20035 30107 40204 52011 78082 889// 333 10051
AAXX 09181 34824 32997 83102 10023 21004 30223 40228 52013 8803/ 333 10037
AAXX 09181 34858 11395 83302 10040 20036 30079 40187 52014 60040 76186 8802/ 333 10049
AAXX 09181 34866 11497 81201 10006 20004 30209 40200 52010 60010 76166 8872/ 333 10026
AAXX 09181 34880 32997 70702 11027 21043 30232 40205 52005 86031 333 10025 87300
AAXX 09181 37018 31598 80102 10054 20023 30147 40223 52021 70182 8397/ 333 10146
AAXX 09181 37054 31497 82902 10020 20017 39821 40211 52011 76162 885// 333 10038
AAXX 09181 37472 31996 82903 10042 20010 30212 40190 52011 71022 8807/ 333 10068
AAXX 09181 22282 NIL
AAXX 09181 22438 NIL
AAXX 09181 22471 12384 81804 11032 21046 30179 40204 57004 69900 885// 333 86708 11012
AAXX 09181 22563 NIL
AAXX 09181 22641 NIL
AAXX 09181 22695 31397 81203 11077 21079 30099 42260 58005 77172 8772/ 333 11054 86707
AAXX 09181 22867 NIL
AAXX 09181 22939 32497 81404 11046 21055 30020 40187 57010 8802/ 333 11010 88511
AAXX 09181 22996 11997 71602 11066 21078 30071 30269 58008 69920 77172 87010 333 11033
AAXX 09181 23324 12274 82402 11063 21067 30200 40280 54000 69900 886// 333 11026 88704
AAXX 09181 27008 32998 81103 11036 21044 39989 40164 57016 8807/ 333 11011
AAXX 09181 27051 31396 81102 11033 21037 30051 40222 57013 71022 885// 333 11033 86710
AAXX 09181 27225 31859 81103 11020 21026 30057 40191 57011 77172 8802/ 333 11026
AAXX 09181 27252 31496 80902 11056 21060 30031 40225 57011 71022 885// 333 11022 88618
AAXX 09181 27333 11984 81204 11030 21034 30040 40201 57012 69900 70272 8807/ 333 11019
AAXX 09181 27369 11995 81303 11064 21080 30087 40230 57013 60020 77172 8801/ 333 11040
AAXX 09181 27393 12998 81602 11091 21106 30108 40284 58003 69960 83037 333 11073
AAXX 09181 27479 11998 81403 11085 21113 30105 40246 58006 60010 70272 8801/ 333 11054
AAXX 09181 27532 11296 81302 11027 21034 39969 40187 57010 69960 77177 8872/ 333 11017 86705
AAXX 09181 27648 11396 81401 11031 21035 30033 40206 52004 60030 71072 8802/ 333 11006 88507
AAXX 09181 27675 32997 71305 11093 21118 30064 40243 57005 85051 333 11053
AAXX 09181 27679 12598 71303 11097 21109 30015 40250 57007 69930 87500 333 11069 87621
AAXX 09181 28214 12996 60902 11132 21145 30091 40319 54000 69900 80006 333 11070
AAXX 09181 22165 NIL
AAXX 09181 22676 NIL
AAXX 09181 22837 32477 71305 11020 21041 30086 40157 57013 877// 333 11008 86710
AAXX 09181 22954 11294 81404 11064 21068 39956 40215 57012 69900 77172 887// 333 11030 85703
AAXX 09181 23405 32672 71503 11070 21087 30155 40259 58004 87500 333 11036 87647
AAXX 09181 23412 32399 82003 11061 21076 30173 40274 52001 887// 333 11042 86707
AAXX 09181 23803 12699 81302 11059 21066 30104 40291 54000 69950 885// 333 11020 88635
AAXX 09181 27066 12498 81501 11050 21067 30060 40244 58011 69900 888// 333 11034 88713
AAXX 09181 27083 12484 81602 11062 21074 30028 40261 58003 69900 885// 333 11027
AAXX 09181 27113 32260 81202 11050 21057 30044 40195 57012 886// 333 11020 88704
AAXX 09181 27242 32398 80902 11025 21031 30080 40212 57011 8872/ 333 11027 88707
AAXX 09181 27329 31562 81302 11020 21026 30055 40183 57015 77172 885// 333 11014
AAXX 09181 27355 11497 81101 11042 21051 30063 40233 57005 60020 77172 885// 333 11020
AAXX 09181 27373 11496 81304 11075 21084 30018 40246 57008 69930 70272 886// 333 11056 88713
AAXX 09181 27665 11997 71202 11084 21121 39943 40226 57008 60030 70272 8705/ 333 11030
AAXX 09181 27835 11296 81701 10002 21001 30028 40189 52001 60010 77172 8872/ 333 10007 87703
AAXX 09181 28009 11498 81903 11076 21098 30079 40300 54000 60010 70282 885// 333 11060
AAXX 09181 28411 32997 81403 11108 21128 30121 40328 58004 80001 333 11085
AAXX 09181 28418 32998 71301 11092 21117 30157 40333 58005 87030 333 11082
AAXX 09184 91943 36/// /0107 10282 20220 30126 40128 51016 333 10288 58001
AAXX 09184 91945 06/// /2808 10267 20244 30100 40105 51017 69981 333 69927
AAXX 09181 08501 32/// /3502 10172 20136 30255 40291 52005 333 10184
AAXX 09181 08505 32470 52402 10180 20138 30233 40283 53001 83802 333 10189 82814 84070
AAXX 09181 08509 12460 63103 10160 20147 30221 40286 53002 60022 86800 333 10163 81815 86635
AAXX 09181 08512 32580 63001 10174 20134 30190 40275 52004 85802 333 10195 81820 85630
AAXX 09181 08515 32484 69901 10170 20150 30155 40276 53002 81201 333 10197 81815 86080 910// 911//
AAXX 09181 08533 32/// /0302 10126 20106 30209 40238 52004 333 10177 91105
AAXX 09181 08541 32/// /3502 10106 20081 30120 40241 52004 333 10151
AAXX 09181 08545 31458 61501 10121 20100 30148 40231 57003 71022 85831 333 10146 82815 84645 85357
AAXX 09181 08548 32/// /0000 10118 20093 30030 40236 54000 333 10144
AAXX 09181 08554 32665 43001 10141 20100 30227 40236 52001 81531 333 10168 81645 81368 84075
AAXX 09181 08558 NIL
AAXX 09181 08560 31862 72802 10082 20072 39473 40238 55000 70322 8707/ 333 10124 87356
AAXX 09181 08567 32/// /0000 10081 20076 39567 40237 54000 333 10095
AAXX 09181 08570 31101 71601 10063 20061 39772 40240 54000 74641 876// 333 10101 87703
AAXX 09181 08575 32/// /1501 10052 20049 39418 40243 54000 333 10060
AAXX 09181 08579 32/// /36// 10094 20093 30114 40241 57001 333 10094
AAXX 09181 08521 32570 20305 10182 20114 30175 40246 50000 82100 333 10208 82820
AAXX 09181 08524 32470 20303 10170 20126 30153 40251 52002 82800 333 10195 82816 91005 91107
AAXX 09184 62305 32560 40414 10152 20103 40251 52005 84800 333 10195
AAXX 09184 62306 12960 00216 10157 20050 40258 52014 69912 333 10200
AAXX 09184 62318 32960 03515 10156 20049 40235 52016 333 10208
AAXX 09184 62337 NIL
AAXX 09184 62366 32860 33507 10160 20089 40233 52025 83030 333 10196
AAXX 09184 62393 32960 03410 10138 20075 40218 51012 333 10190
AAXX 09184 62405 32960 02304 10154 20073 40186 52011 333 10244
AAXX 09184 62414 32960 03608 10178 20043 40189 52010 333 10240
AAXX 09184 62417 32960 40506 10186 20115 40240 52014 84030 333 10224
AAXX 09184 62440 32960 03005 10143 20088 40226 52016 333 10203
AAXX 09184 62463 32960 03109 10158 20033 40193 52016 333 10220
AAXX 09184 62465 32960 03308 10184 20083 40176 52013 333 10224
AAXX 09184 62419 NIL
AAXX 09181 06431 36/// /2304 10051 20013 30095 40107 54000 60002 333 10083 91113 91208
AAXX 09181 01271 17/67 91202 10010 21014 39758 49779 52012 69902 780// 333 10028 91109
AAXX 09181 01415 17858 53117 10047 20014 39827 49837 53037 6//// 781// 333 10077 91125
AAXX 09184 67341 12470 82215 10210 20170 40157 52014 69902 882// 333 10259 94364
AAXX 09181 50844 32762 80000 11167 21210 40210 52005 885// 333 11039
AAXX 09181 50854 32970 72901 11136 21174 40199 52001 80002 333 11079
AAXX 09181 50968 32962 52502 11133 21183 40227 57007 80002 333 11098
AAXX 09181 51379 11770 72002 11118 21137 40374 52001 69901 77077 875// 333 05652 11085
AAXX 09181 51467 32980 30203 11099 21164 38362 57007 80002 333 05200 11026
AAXX 09181 51495 32980 03602 11073 21198 40406 57003 333 05400 10025
AAXX 09181 53480 32680 32503 11151 21215 40402 57013 83500 333 11100
AAXX 09181 53673 32980 03604 11073 21189 40386 57006 333 11035
AAXX 09181 53698 32962 02702 11007 21136 40338 57010 333 10029
AAXX 09181 53898 32960 02201 11057 21068 40345 57014 333 10017
AAXX 09181 54308 32980 63202 11126 21209 40338 57015 80002 333 11074
AAXX 09181 54602 32962 00000 11079 21095 40322 57013 333 10014
AAXX 09181 54725 32965 02204 11050 21096 40334 57017 333 11003
AAXX 09181 54751 32570 72911 10006 21089 40293 57016 874// 333 10006
AAXX 09181 54916 32965 01401 11060 21083 40351 57012 333 10004
AAXX 09181 57014 32970 23402 11024 21145 40430 52012 80002 333 00401 10043
AAXX 09181 57025 32968 33204 11020 21126 40434 52011 80002 333 10038
AAXX 09181 57046 31/56 82903 11129 21130 38018 52005 74000 885// 333 00052 11086 91124 91529
AAXX 09181 58208 32962 02201 11028 21031 40373 57005 333 10040
AAXX 09181 08558 32/// /3502 10072 20072 39940 40241 52003 333 10106
AAXX 09181 10147 01380 52206 10024 20016 30012 40031 50010 60042 72582 82130 333 10064 20022 31002 55300 20000 30000 41132 60037 82808 84363 91113 96284 96484 96483
AAXX 09184 89022 42682 72005 11056 21087 39610 49647 52002 8751/ 333 82640 87457 99119
AAXX 09184 87078 32770 31802 10328 20166 39942 40090 57024 83100 333 56400 83850
AAXX 09184 87244 32970 00505 10308 20166 39714 4//// 5////
AAXX 09184 87393 32970 01110 10301 20143 30050 40112 57020
AAXX 09184 87416 NIL
AAXX 09184 87563 32565 43610 10293 20155 30092 40133 56020 84100 333 56400 84825
AAXX 09184 87640 32565 30502 10322 20140 39998 4//// 57025 82101 333 56706 82833
AAXX 09184 87688 NIL
AAXX 09184 87774 32682 63213 10285 20059 39073 48446 5//// 81105 333 56700 81840 86270
AAXX 09184 87852 32584 42524 10196 20040 39524 40014 57017 81406 333 56606 81633 84270
AAXX 09183 87791 11670 70511 10207 20170 30088 40096 57009 60031 71796 84970 333 56660 57930 83640 81950 83360 90007 96015
AAXX 09184 87593 32960 00909 10254 20155 30117 40143 57020
AAXX 09184 87623 32880 53610 10345 20127 39856 40072 57031 85100 333 56700 85858
AAXX 09184 87641 32665 40213 10299 20140 39952 40122 57027 81105 333 56105 81840 83270
AAXX 09184 87645 32570 30511 10274 20134 39926 40129 57024 81103 333 56106 81820
AAXX 09184 87648 32560 40710 10236 20161 30136 40147 57016 83880 333 56160 82630
AAXX 09184 87692 32560 40714 10216 20149 30140 40165 57016 81104 333 56505 81820 84070
AAXX 09184 87715 32770 12507 10330 20033 39744 40048 57031 81100 333 56700 81850
AAXX 09184 87750 32462 50506 10323 20144 39986 40083 57036 85200 333 56100 57892 85818
AAXX 09184 87765 31556 33218 10239 20033 39148 48459 57013 70400 81171 333 56577 81830 96104 96120
AAXX 09184 87784 11680 40518 10273 20159 30042 40066 57033 60041 70192 84300 333 56000 57988 83840 81945
AAXX 09184 87800 32680 31810 10271 20099 39696 40086 57016 83100 333 56600 83848
AAXX 09184 87803 42580 42711 10212 20009 39176 40065 57012 84505 333 56600 84630
AAXX 09184 87828 32680 62705 10305 20021 39996 40045 57027 84240 333 56000 57300 84835
AAXX 09184 87860 31575 42722 10290 20062 39957 40010 57025 70700 83806 333 56606 81830 83635
AAXX 09184 87904 32680 62712 10142 20038 39720 49960 57031 84471 333 56666 84640
AAXX 09184 87909 32680 63212 10266 20067 39892 49964 57035 86500 333 56000 86640
AAXX 09184 87925 32980 50715 10162 21011 39933 49956 57035 81051 333 56000 81360 84070
AAXX 09184 87938 32680 62307 10171 20070 39856 49923 57053 84570 333 56660 84636 84358
AAXX 09183 87016 32460 50904 10304 20188 39671 40069 57035 83201 333 56707 83815
AAXX 09183 87896 32680 12708 10270 20090 39892 58028 81100 333 56700 81840
AAXX 09181 34357 11498 81303 11022 21023 30048 40208 51007 60030 70282 883// 333 10001
AAXX 09181 34363 32598 81004 11068 21087 30076 40236 52005 81507 333 11049
AAXX 09181 34545 11496 80801 10009 20009 30091 40204 52008 69970 75152 886// 333 10022
AAXX 09181 34579 32998 60904 11055 21093 30173 40219 52005 80005 333 11026
AAXX 09181 34838 11697 81101 10040 20033 30118 40215 52012 60040 70282 889// 333 10046
AAXX 09181 34927 11395 83102 10035 20026 30196 40233 52016 60060 75052 886// 333 10048
AAXX 09181 34949 11296 83005 10023 20020 39657 40209 52013 60060 76162 8665/ 333 10051 88704
AAXX 09181 37001 32597 80103 10031 20012 30200 40242 52017 885// 333 10052
AAXX 09181 37031 11497 82603 10036 20032 30020 40218 52020 60020 78086 889// 333 10050
AAXX 09181 37061 11424 82401 10039 20036 30030 40198 51011 60040 78082 883// 333 10050
AAXX 09181 37085 31/91 /3604 10025 20022 30218 40245 51012 74542 333 10059
AAXX 09181 37107 11494 80000 10027 20027 39539 40226 52021 60040 78082 889// 333 10049
AAXX 09181 37126 41298 81301 11047 21050 37906 48481 52006 70274 85431 333 11005
AAXX 09181 37171 11596 80502 10067 20065 30203 40222 52021 60250 78082 889// 333 10089 88923
AAXX 09181 37228 11597 80000 10018 20008 39354 40198 51010 69900 70282 8545/ 333 10150
AAXX 09181 37470 32596 63303 10044 20008 30209 40186 52018 82530 333 10102
AAXX 09181 37663 32996 00902 11010 21020 38988 48460 53011 333 10143
AAXX 09181 23914 11999 81403 11088 21103 30046 40318 58001 69930 70272 8807/ 333 11063
AAXX 09181 23921 32697 80000 11087 21098 30184 40309 53002 8357/ 333 11069
AAXX 09181 23955 41584 72202 11105 21134 30306 40371 54000 70282 87500 333 87626
AAXX 09181 23966 41996 80000 11090 21101 30221 40353 52003 77072 8807/
AAXX 09181 28138 32999 62101 11097 21137 39754 40355 57003 80008 333 11079
AAXX 09181 28224 32898 71603 11079 21120 30110 40335 58001 60000 87057 333 11052
AAXX 09181 28255 32994 01801 11181 21193 30223 40364 57005 333 11126
AAXX 09181 28440 32997 21401 11112 21130 39991 40363 58010 80005 333 11030
AAXX 09181 28645 32997 00000 11158 21164 30057 40378 58006 333 11102
AAXX 09181 28661 32997 00401 11177 21192 30278 40379 57006 333 11102
AAXX 09181 28722 32997 62501 11167 21178 30190 40333 57007 80001 333 11060
AAXX 09181 28748 32963 00502 11124 21144 30107 40364 57009 333 11089
AAXX 09181 28838 32996 00301 11132 21184 39858 40369 58010 333 11071
AAXX 09181 29231 41496 82701 11097 21109 30283 40385 58003 78587 889// 333 85710
AAXX 09181 29313 42998 20000 11269 21291 30266 40404 57002 80001
AAXX 09181 29612 41996 02101 11180 21186 30236 40402 57005 71000
AAXX 09181 29638 41994 00000 11218 21236 30207 40390 57010 71000
AAXX 09181 29838 42997 00000 11180 21192 30113 40366 57012
AAXX 09181 29846 41913 50000 11196 21196 39967 40389 57010 71041 80001
AAXX 09181 36061 42999 00000 11191 21203 39930 40374 57007
AAXX 09181 28049 32997 61606 11088 21132 30158 40330 57001 80005 333 11050
AAXX 09181 28144 32998 51801 11086 21141 30172 40338 54001 80002 333 11035
AAXX 09181 28319 32499 51301 11085 21113 30159 40333 54000 82550 333 11059
AAXX 09181 28321 32999 61603 11089 21113 30118 40332 58002 86030 333 11074
AAXX 09181 28334 32998 20000 11158 21171 30038 40368 58001 81042 333 11044
AAXX 09181 28434 32998 00000 11225 21246 30086 40373 57006 333 11091
AAXX 09181 28552 32998 00000 11169 21184 30258 40381 57007 333 11108
AAXX 09181 28666 32999 00302 11156 21172 30187 40376 57006 333 11107
AAXX 09181 28825 31996 00000 11174 21184 30150 40337 57004 70400 333 11057
AAXX 09181 29111 42998 02101 11200 21219 30297 40393 57004
AAXX 09181 29209 42998 10000 11253 21272 30623 40405 57005 80001
AAXX 09181 29551 41996 00000 11148 21148 30195 40391 57002 71000
AAXX 09181 29602 42998 03601 11186 21205 30245 40399 57009
AAXX 09181 29636 42998 00000 11223 21230 30154 40395 57007
AAXX 09181 29654 42999 00000 11148 21154 39728 40385 57011
AAXX 09181 29712 42998 00101 11172 21184 30260 40416 58003
AAXX 09181 29724 42997 00000 11215 21233 30170 40394 57008
AAXX 09181 29726 42998 00000 11239 21264 30211 40398 57012
AAXX 09181 29814 42999 00603 11146 21181 30225 40383 57008
AAXX 09181 29827 42997 00502 11190 21202 30197 40365 57011
AAXX 09181 29923 41993 00000 11197 21203 30073 40375 57010 71041
AAXX 09181 29939 42997 00603 11104 21124 30048 40346 57010
AAXX 09181 35026 32997 00902 11105 21140 39674 40347 57003 333 11052
AAXX 09181 36021 42999 00601 11183 21195 30152 40347 57022
AAXX 09181 36022 41993 00404 11147 21153 30073 40353 58011 74840
AAXX 09181 36038 42999 00000 11225 21237 39879 40366 57010
AAXX 09181 36058 42999 00904 11107 21120 39833 40384 57003
AAXX 09181 36064 42999 00803 10005 21081 39746 40346 57011
AAXX 09181 36229 42999 00000 11240 21248 39195 40497 57006
AAXX 09181 36259 42999 00000 11278 21310 38355 48642 57007
AAXX 09184 60395 12965 70000 10145 20113 40219 55001 60002 83032 333 10204 83360 85073 95990
AAXX 09184 60421 12965 30000 10127 20063 39199 48535 56006 60002 80002 333 10189 83070 95900
AAXX 09184 60423 12965 20000 10132 20039 39257 48527 58003 60002 80002 333 10202 82073 95990
AAXX 09184 60430 12570 60000 10124 20044 40240 56004 60002 83202 333 10177 83826 85073 95990
AAXX 09184 60437 12970 70000 10093 20021 39020 48523 56002 60002 82036 333 10144 82360 86270 95900
AAXX 09184 60444 12965 50000 10100 20039 39145 48554 55003 60002 80002 333 10152 85073 95900
AAXX 09184 60452 12458 7//// 10151 20122 40222 51004 60002 83602 222// 20000 333 10187 83716 85073 91825
AAXX 09184 60457 12962 70000 10108 20096 40233 55002 60002 83082 333 10175 83360 85073 95990
AAXX 09184 60514 12560 60000 10079 20069 39342 48574 55007 60002 83202 333 10116 83826 84073 95990
AAXX 09184 60518 12560 80000 10140 20122 40210 56004 60002 83272 222// 20000 333 10174 83620 83360 91806 95990
AAXX 09184 60520 12960 70000 10116 20079 40235 51001 60002 80002 333 10190 87073 95990
AAXX 09184 60540 11960 60000 10101 20048 39096 48551 51002 60002 70212 82032 333 10156 82360 85073 95990
AAXX 09184 60560 11960 60000 10101 20037 39018 48556 53003 60002 70222 84082 333 10170 84360 83073 95990
AAXX 09184 71550 16/// /2613 11136 21223 39850 40244 58005 60001 333 11136 21188 70000
AAXX 09184 71575 17/// /0406 11099 21108 39881 49945 56008 60041 7//4/ 333 11075 21119 70048 555 10160
AAXX 09184 71576 16/// /1705 11194 21217 39917 40003 57012 60001 333 11159 21196 70000
AAXX 09184 71825 11459 62612 11139 21168 39434 40127 53005 69941 78582 86500 333 11137 21204 48078 70020 90936
AAXX 09184 71628 11259 81806 10005 21002 30049 40191 58025 69921 77122 885// 333 10007 21017 42997 70002 90942
AAXX 09184 71421 17/// ///// 11118 21169 39428 40163 51024 69931 7//4/ 333 11114 21169 70125
AAXX 09184 71228 16/// /2610 10004 21071 60001 333 10004 21205 7////
AAXX 09184 71151 16/// /3010 11166 21208 39698 40227 51011 60001 333 11164 21197 70000
AAXX 09184 71168 16/// /0000 11091 21231 39701 40329 50012 60001 333 11089 21185 70000
AAXX 09184 71186 46/// /2902 11034 21066 6///1 333 11015 21051 7////
AAXX 09184 71423 16/// /2624 11009 21071 30193 40203 53012 60001 333 10000 21050 70000
AAXX 09184 71434 16/// /2614 11201 21248 39976 40044 53016 60001 333 11177 70000
AAXX 09184 71949 46/// /3006 11091 21103 39224 40107 53014 6///1 333 11091 21145 7////
AAXX 09184 71737 17/// /1804 11025 21038 39642 40171 58021 69961 7//4/ 333 11025 21084 70021 555 10030
AAXX 09184 71743 16/// /2110 11165 21203 39783 40004 54000 60001 333 11150 21190 70000
AAXX 09184 71746 46/// /2907 11015 21040 39986 40211 58003 6///1 333 10004 21020 7////
AAXX 09184 71748 16/// /2911 11150 21216 39943 40251 50004 60001 333 11150 21206 70000
AAXX 09184 71903 46/// /2206 10051 20046 30143 40193 58025 6///1 333 10058 7////
AAXX 09184 71976 46/// /1905 11195 21216 39331 49969 55004 6///1 333 11182 21195 7////
AAXX 09184 71924 11574 60212 11183 21220 39952 40042 56012 69901 77677 86500 333 11152 21203 48037 79999 90973
AAXX 09184 71300 17/// /1903 10005 20001 30066 40190 58025 60021 7//4/ 333 10013 21007 70019
AAXX 09184 71340 16/// /2304 11053 21082 60001 333 11053 21185 70000
AAXX 09184 71341 16/// /2715 10021 21065 60001 333 10021 21113 70000
AAXX 09184 71342 16/// /2516 11032 21092 60001 333 11032 21181 70078
AAXX 09184 71344 16/// /2416 11037 21098 60001 333 11037 21125 70000
AAXX 09184 71347 16/// /3106 11010 21064 60001 333 11010 21111 7////
AAXX 09184 71348 16/// /1303 11027 21057 60001 333 11027 21120 70000
AAXX 09184 71349 16/// ///// 11041 21085 60001 333 11041 21233 70000
AAXX 09184 71503 46/// /0000 11173 21199 39788 40065 56010 6///1 333 11170 21222 7////
AAXX 09184 71506 46/// /2808 11086 21091 39151 40036 53001 6///1 333 11084 21143 7////
AAXX 09184 71511 16/// /1809 11134 21165 39558 40225 58026 60001 333 11133 21209 70000
AAXX 09184 71514 16/// /2007 11132 21172 39522 40256 58011 60001 333 11127 21220 70000
AAXX 09184 71522 46/// /2508 11086 21140 39684 40184 56003 6///1 333 11080 7////
AAXX 09184 71539 16/// /2608 11094 21151 39521 40248 58019 60001 333 11094 21223 70000
AAXX 09184 71365 16/// /1301 11176 21195 39864 40083 57013 60001 333 11173 21318 70000
AAXX 09184 71374 46/// /2734 11017 21073 6///1 333 11012 21051 7////
AAXX 09184 71381 46/// /2409 11032 21097 6///1 333 11032 21064 70000
AAXX 09184 71387 17/// /2102 11056 21094 39794 40179 58009 69991 7//4/ 333 11056 21126 70000
AAXX 09181 23909 11498 71703 11083 21098 30037 40297 57007 69930 70272 875// 333 11066
AAXX 09181 28044 32997 22801 11087 21141 30149 40321 54000 80001 333 11033
AAXX 09181 28116 32899 61402 11109 21133 30067 40313 58005 83031 333 11075
AAXX 09181 28240 32998 61301 11118 21138 30012 40357 57002 86030 333 11025
AAXX 09181 28522 31996 70000 11153 21160 30068 40347 57011 71022 80003 333 11065
AAXX 09181 28621 32997 41102 11091 21125 30083 40329 57011 80002 333 11055
AAXX 09181 29023 42498 80000 11110 21130 30277 40380 53001 885// 333 87713
AAXX 09181 29122 42499 82502 11108 21128 30310 40388 58001 885// 333 88614
AAXX 09181 29328 41996 00000 11235 21252 30249 40404 53001 70400
AAXX 09181 29348 41996 80000 11126 21135 30228 40382 57008 77172 8802/
AAXX 09181 29405 42997 02701 11187 21206 30250 40411 57002
AAXX 09181 29418 42998 00000 11216 21241 30231 40408 57004
AAXX 09181 29430 42998 00000 11205 21224 30207 40401 54000
AAXX 09181 29524 42998 00000 11220 21238 30224 40404 57008
AAXX 09181 29605 42998 00501 11143 21149 30236 40389 57011
AAXX 09181 29631 41996 00201 11201 21220 30187 40391 57009 71000
AAXX 09181 29645 41995 80000 11215 21227 30186 40392 57006 71011 8805/
AAXX 09181 29706 42998 00703 11151 21178 30231 40390 57010
AAXX 09181 29736 41996 00000 11250 21274 30120 40400 57007 71000
AAXX 09181 29937 41996 00000 11152 21172 30117 40354 57006 71000
AAXX 09181 36034 41993 00000 11193 21205 30055 40356 57012 74840
AAXX 09181 36096 NIL
AAXX 09184 71026 16/// /2314 11016 21068 39329 40205 58011 60001 333 21161 7////
AAXX 09184 71465 46/// /2508 10013 21011 39992 40212 58007 6///1 333 10029 21006 7////
AAXX 09184 71482 46/// /0501 10008 30235 40274 56006 6///1 333 10018 20006 7////
AAXX 09184 71107 16/// /3015 10047 20040 30134 40248 58014 60001 333 10053 20045 70000
AAXX 09184 71682 16/// /0601 11197 21211 39854 40092 58008 60001 333 11197 21254 70000
AAXX 09184 71269 16/// /2417 11018 21064 60001 333 11018 21172 70000
AAXX 09184 71285 46/// /2805 11042 21078 6///1 333 11042 21226 7////
AAXX 09184 71296 16/// /2309 10009 21014 39873 40182 58013 60001 333 10013 21022 70000
AAXX 09184 71137 16/// /2105 11146 21162 39264 40267 58017 60001 333 11146 21313 70000
AAXX 09184 71632 46/// /2906 11219 21253 39717 40180 50002 6///1 333 11219 21240 7////
AAXX 09184 71825 11459 62612 11139 21168 39434 40127 53005 69941 78582 86500 333 11137 21204 48078 70020 90936
AAXX 09184 71628 11259 81806 10005 21002 30049 40191 58025 69921 77122 885// 333 10007 21017 42997 70002 90942
AAXX 09184 71924 11574 60212 11183 21220 39952 40042 56012 69901 77677 86500 333 11152 21203 48037 79999 90973
AAXX 09184 71949 46/// /3006 11091 21103 39224 40107 53014 6///1 333 11091 21145 7////
AAXX 09184 71137 16/// /2105 11146 21162 39264 40267 58017 60001 333 11146 21313 70000
AAXX 09184 71421 17/// ///// 11118 21169 39428 40163 51024 69931 7//4/ 333 11114 21169 70125
BBXX 46042 09181 99368 71224 46/// /1006 10109 40224 53018 91750 22200 00119 12104 20401 331// 42103 70018 333 91207 555 11058 22061 31719 41007 61749 097054 099056 100059 099057 097053 092056
BBXX 46207 09181 99509 71299 46/// /2304 10062 40257 57011 22200 00086 11404 70020 333 91205
BBXX CGBY 09184 99487 71235 46/// /3001 10022 20004 40278 55001 7//// 8//// 22200 0//// 2////
BBXX DQVG 09183 99371 71333 41598 50314 10135 20098 40182 51007 76062 844/1 22274 20304 306// 40506 5//// 80116
BBXX KGTX 09183 99534 71347 41697 82024 10072 20050 40184 57046 70222 886// 22274 00078 20806 327// 41505 5//// 6//// 80061 ICE /////
BBXX KRGB 09184 99310 71376 41/98 50607 10178 20140 40234 52004 7//22 85/// 22255 00183 21301 332// 42102 5//// 6//// 80156 ICE /////
BBXX VREX8 09184 99482 71272 43/// /0904 10120 20080 40300 5//// 7//// 8//// 22225 0//// 20302 309// 40302 50302 6//// 80100 ICE /////
BBXX WABS 09184 99463 71258 41498 10318 10083 20050 40242 54000 70100 81100 22283 0//// 20506 308// 40402 5//// 6/000 80067 ICE 0/0//
BBXX WDB9949 09184 99368 71425 41698 71008 10160 20100 40253 52020 70122 87469 22224 00150 20401 310// 40703 5//// 6//// 80125 ICE /////
BBXX WGEB 09183 99347 71489 43598 50919 10167 20140 40260 52005 7//// 858// 22215 00200 21204 329// 4//// 5//// 6//// 80150 ICE /////
BBXX WSRL 09184 99411 71375 41297 40507 10110 20080 40275 52008 7//00 834/1 22214 00144 2//// 31027 40505 51105 6//// 80095 ICE /////
AAXX 09181 40700 11956 02304 10024 21010 30089 40180 52012 60001 70500 333 55070
AAXX 09181 40723 11959 00000 11014 21052 38949 40260 51013 60001 70500 333 55088 21139
AAXX 09181 40726 12960 00000 10050 21080 38661 40192 51003 60001 333 55083
AAXX 09181 40727 12960 01505 11006 21090 38490 40225 52010 60001 333 55090 20942
AAXX 09181 40734 12965 01602 10058 20029 30195 40169 51005 60001 333 55087
AAXX 09181 40737 12960 02003 10054 20045 30161 40179 52024 60001 55079 2////
AAXX 09181 40741 11515 80000 10010 20010 39883 40232 52017 60001 71022 886// 333 55018 88725
AAXX 09181 40780 12960 01203 10040 21121 38719 40225 52006 60001 333 55088 21225
AAXX 09181 40791 12962 00602 10070 21092 39400 40243 52011 60001 333 55094 2////
AAXX 09181 40792 12970 00602 10040 21108 38761 40233 51006 60001 333 55096
AAXX 09181 40794 12960 03603 10096 20052 30118 40218 51007 60001 91745 333 55081 21192
AAXX 09181 40812 12960 00000 10130 20044 39829 40210 52010 60001 333 55091
AAXX 09181 40829 12962 20000 10040 21088 39665 40257 52006 60001 80001 333 55092 82070
AAXX 09181 40833 12960 40000 10134 20057 30186 40218 51006 60001 80001 333 55092 84070
AAXX 09181 40835 12970 30000 10096 20017 39376 40223 54000 60001 80002 333 55093 82070
AAXX 09181 40845 NIL
AAXX 09181 40882 12962 03602 10194 20105 30157 40192 50005 60001 333 55096
AAXX 09181 40889 NIL
AAXX 09181 40890 NIL
AAXX 09181 40893 12962 03202 10220 20081 30180 40187 52007 60001 222// 00/// 20501 333 55100
AAXX 09181 40897 NIL
AAXX 09181 40700 11956 02304 10024 21010 30089 40180 52012 60001 70500 333 55070
AAXX 09181 40723 11959 00000 11014 21052 38949 40260 51013 60001 70500 333 55088 21139
AAXX 09181 40726 12960 00000 10050 21080 38661 40192 51003 60001 333 55083
AAXX 09181 40727 12960 01505 11006 21090 38490 40225 52010 60001 333 55090 20942
AAXX 09181 40734 12965 01602 10058 20029 30195 40169 51005 60001 333 55087
AAXX 09181 40737 12960 02003 10054 20045 30161 40179 52024 60001 55079 2////
AAXX 09181 40741 11515 80000 10010 20010 39883 40232 52017 60001 71022 886// 333 55018 88725
AAXX 09181 40780 12960 01203 10040 21121 38719 40225 52006 60001 333 55088 21225
AAXX 09181 40791 12962 00602 10070 21092 39400 40243 52011 60001 333 55094 2////
AAXX 09181 40792 12970 00602 10040 21108 38761 40233 51006 60001 333 55096
AAXX 09181 40794 12960 03603 10096 20052 30118 40218 51007 60001 91745 333 55081 21192
AAXX 09181 40812 12960 00000 10130 20044 39829 40210 52010 60001 333 55091
AAXX 09181 40829 12962 20000 10040 21088 39665 40257 52006 60001 80001 333 55092 82070
AAXX 09181 40833 12960 40000 10134 20057 30186 40218 51006 60001 80001 333 55092 84070
AAXX 09181 40835 12970 30000 10096 20017 39376 40223 54000 60001 80002 333 55093 82070
AAXX 09181 40845 NIL
AAXX 09181 40882 12962 03602 10194 20105 30157 40192 50005 60001 333 55096
AAXX 09181 40889 NIL
AAXX 09181 40890 NIL
AAXX 09181 40893 12962 03202 10220 20081 30180 40187 52007 60001 222// 00/// 20501 333 55100
AAXX 09181 40897 NIL
AAXX 09184 62309 32960 03506 10154 20050 40242 52014 333 10208
AAXX 09184 62325 32960 03609 10158 20037 40234 52016 333 10205
AAXX 09184 62332 32560 13316 10168 20069 40226 52018 81500 333 10198
AAXX 09184 62387 32960 03604 10148 20082 40219 52013 333 10198
AAXX 09184 62459 32960 00605 10163 20063 40180 52010 333 10216
AAXX 09184 62452 32960 03212 10122 20043 40236 52017 333 10180
AAXX 09184 61972 16/// /1702 10248 20198 40109 60002 333 10304 58016 90710 91103 555 60005
AAXX 09184 71107 16/// /3015 10047 20040 30134 40248 58014 60001 333 10053 20045 70000
AAXX 09184 71026 16/// /2314 11016 21068 39329 40205 58011 60001 333 21161 7////
AAXX 09184 71465 46/// /2508 10013 21011 39992 40212 58007 6///1 333 10029 21006 7////
AAXX 09184 71482 46/// /0501 10008 30235 40274 56006 6///1 333 10018 20006 7////
AAXX 09184 71682 16/// /0601 11197 21211 39854 40092 58008 60001 333 11197 21254 70000
AAXX 09184 71632 46/// /2906 11219 21253 39717 40180 50002 6///1 333 11219 21240 7////
AAXX 09184 71269 16/// /2417 11018 21064 60001 333 11018 21172 70000
AAXX 09184 71285 46/// /2805 11042 21078 6///1 333 11042 21226 7////
AAXX 09184 71296 16/// /2309 10009 21014 39873 40182 58013 60001 333 10013 21022 70000
AAXX 09181 23226 11360 82307 11056 21082 30046 40270 52001 69920 70272 887// 333 11037 86709
AAXX 09181 23701 32484 80201 11084 21099 30135 40271 56008 885// 333 11068 88612
AAXX 09181 28909 32999 61503 11094 21134 30204 40310 53001 80002 333 11052
AAXX 09184 60353 NIL
AAXX 09184 60367 12960 0//// 10148 20129 40217 57031 60002 333 10200
AAXX 09184 60369 12960 50000 10162 20095 40224 53003 60002 80002 333 10192 85070 91827
AAXX 09184 60401 NIL
AAXX 09184 60403 12960 50000 10112 20078 40235 55002 60002 80002 333 10234 85075 95990
AAXX 09184 60425 12970 60000 10133 20094 40226 56002 60002 81034 333 10181 81360 86073 95990
AAXX 09184 60461 12556 50000 10148 20113 40225 58005 60002 82502 222// 20000 333 10156 82823 84073 91806 95990
AAXX 09184 60467 12970 51010 10122 20076 40259 55003 60002 80002 333 10176 85073 95990
AAXX 09184 60492 12965 40000 10129 20106 40226 55000 60002 80002 333 10166 84073 95990
AAXX 09184 60515 12960 60000 10117 20079 40253 58010 60002 80002 333 10155 86070 95990
AAXX 09184 60517 12960 83202 10157 20111 40234 53006 60002 84032 333 10171 84360 85073 95990
AAXX 09184 60522 12970 70000 10125 20096 40240 51003 60002 82032 333 10185 82360 87073 95990
AAXX 09184 60557 11970 62004 10110 20009 38912 48554 58003 60002 70221 83082 333 10162 83360 84073 95990
AAXX 09184 60563 12960 40000 10118 20032 39363 48555 56004 60002 80002 333 10172 84073
AAXX 09184 60603 12960 01206 10170 20004 40256 55006 60002 333 10227
AAXX 09184 60638 12960 2//// 10184 20045 40256 53012 60002 80001 333 10222 82073
AAXX 09184 60686 11940 30813 10232 21038 40177 57006 60002 706// 80002 333 10282 83073
BBXX BAREU61 09184 99364 70027 46/// /3102 10154 29072 40219 57001 22264
BBXX V2OT9 09183 99372 10114 41598 51810 10185 20118 40250 54000 70000 82100 22283 20201 30000 4//// 5//// 80145
BBXX TESTFR9 09184 99503 70042 46/// /2917 10082 29061 40164 52005 22274
BBXX BAREU63 09184 99381 10156 46/// /0408 10171 29080 40249 54000 22243
BBXX KSDF 09184 99336 10248 41498 10510 10161 20091 40260 53010 70100 811// 22233 0//// 20301 330// 40603 5//// 6//// 80122 /////
BBXX BAREU05 09184 99434 10049 46/// ///// 40210 22200
BBXX BATFR15 09184 99499 70032 46/// /2917 10094 20029 40139 53003 22254 00134
BBXX BATFR20 09184 99432 10053 44/98 02408 10137 20095 40206 70000 22234 20000
BBXX BATFR11 09184 99381 10068 46/// /3101 10169 20134 40224 58008 22262 00190
BBXX BATFR27 09184 99508 70011 46/// /2830 10097 20020 40124 56006 22282 00122
BBXX BATFR16 09184 99444 70225 44096 83409 10129 40227 53002 72022 887// 22214 00145 20000 60/// ICE 0////
BBXX BATFR09 09184 99374 10025 44497 82302 10157 20117 40222 50/// 70322 8771/ 22222 00192 20000 30000 40000 50000
BBXX BATFR12 09184 99483 70072 46/// /3505 10099 20039 40167 52002 22261 00145
BBXX BATFR54 09184 99525 70055 46/// /2828 10065 21001 40127 22243 00119
BBXX BATEU05 09184 99618 70108 46/// /3324 11010 21082 40061 51023 22262
BBXX BATFR52 09184 99503 70042 46/// /2921 10087 21002 40155 58001 22284 00117
BBXX BATEU02 09184 99529 70111 46/// /3013 10074 21010 40148 52005 22200 00112
BBXX BATFR10 09184 99308 70132 44598 70517 40222 58002 70222 8712/ 22253 00202 20302
BBXX BATFR46 09184 99433 10053 46/// /0204 10114 20062 40209 22251 00162
BBXX BATFR01 09184 99423 10073 46/// /2416 10152 20117 40207 55/// 22232 00172
BBXX BATEU08 09184 99595 70156 46/// /0614 10025 21030 40082 55002 22222
BBXX BAREU06 09184 99391 70151 46/// ///// 40238 57006 22264
BBXX BATFR42 09184 99503 70018 46/// /2923 10087 20024 40137 22243 00132
BBXX BATEU06 09184 99514 10041 46/// /2212 10052 20009 40102 51003 22223 00087
BBXX 61001 09184 99434 10078 46/// /2220 10152 20116 40180 54000 22200 00158 10604 70019
BBXX BATUK01 09184 99563 70025 44/97 02714 10039 21032 40062 51016 700// 22211 00099
BBXX 61002 09184 99421 10047 46/// ///02 10140 2//// 40214 57004 22200 00155 10401 70005
BBXX PBEO 09183 99367 10002 41597 82210 10160 20112 40229 53002 70300 8//// 22262 02175 20201 30000 80132
BBXX 46249 09181 99338 71197 46/// ///// 1//// 91815 22200 00144 11401 20501 325// 41401 70006
BBXX 46248 09181 99461 71247 46/// ///// 1//// 91804 22200 00094 11804 21002 329// 41803 70019
BBXX 46244 09181 99409 71244 46/// ///// 1//// 91805 22200 00098 12004 20803 330// 42003 70021
AAXX 09184 87585 32960 01406 10280 20177 30117 40146 58007
AAXX 09181 28216 32999 61802 11092 21132 30025 40322 57002 80008 333 11082
AAXX 09181 28428 32998 03601 11159 21172 30152 40354 58006 333 11055
AAXX 09181 28451 32996 01601 11178 21193 30204 40377 57004 333 11118
AAXX 09181 28541 32970 00000 11178 21190 39844 40382 57006 333 11062
AAXX 09181 28655 32998 01102 11136 21147 30133 40372 57008 333 11052
AAXX 09181 28756 32997 00701 11173 21189 30208 40370 57005 333 11102
AAXX 09181 29557 42998 00000 11214 21239 30102 40395 57007
AAXX 09181 29625 42998 00000 11215 21233 30199 40397 57009
AAXX 09181 29813 42999 00402 11142 21177 30174 40366 57005
AAXX 09181 29822 42997 02902 11194 21213 30207 40387 57005
AAXX 09181 29915 42998 00302 11158 21164 30191 40362 57008
AAXX 09181 36020 42998 00401 11150 21150 30141 40355 57014
BBXX 46241 09181 99330 71173 46/// ///// 1//// 91741 22200 00143 11401 20601 326// 41401 70005
AAXX 09184 78388 112578 10715 10293 20223 30120 40129 60001 81801 333 01909 10309 20229 58002 81822
AAXX 09184 DUPE
BBXX 46216 09181 99343 71198 46/// ///// 1//// 91757 22200 00146 11401 21001 328// 41401 70005
BBXX 46240 09181 99366 71219 46/// ///// 1//// 91812 22200 00115 11101 21001 335// 41101 70007
BBXX 46237 09181 99378 71226 46/// ///// 1//// 91810 22200 00112 12203 21001 325// 42203 70015
BBXX 46212 09181 99408 71243 46/// ///// 1//// 91812 22200 00096 12004 20903 331// 42003 70022
BBXX 46217 09181 99342 71194 46/// ///// 1//// 91812 22200 00147 11301 21001 327// 41301 70006
AAXX 09184 61974 12470 52102 10272 20236 40092 60002 85800 333 10313 55068 58002 85816
AAXX 09184 61986 11468 31611 10268 20242 40086 60002 71500 83800 333 10285 59006 83818
AAXX 09184 61988 11462 71115 10246 20232 40100 60032 72582 87832 333 10260 55000 58006 83816 86650 91132
AAXX 09184 61989 NIL
AAXX 09184 61990 12470 41108 10260 20223 40119 60002 84800 333 10295 55094 58000 84816
AAXX 09184 61995 11468 41007 10222 20204 39639 60002 71500 84800 333 10271 55078 58003 84817
BBXX 46231 09181 99327 71174 46/// ///// 1//// 91754 22200 00154 11202 20601 326// 41201 70008
BBXX 46222 09181 99336 71183 46/// ///// 1//// 91756 22200 00158 11101 20601 321// 41101 70006
BBXX 46242 09181 99332 71174 46/// ///// 1//// 91758 22200 00153 11201 20501 323// 41201 70005
BBXX 46211 09181 99469 71242 46/// ///// 1//// 91806 22200 00088 11804 21002 327// 41803 70019
AAXX 09184 78388 112578 10715 10293 20223 30120 40129 60001 81801 333 01909 10309 20229 58002 81822
AAXX 09184 DUPE
BBXX 46223 09181 99335 71178 46/// ///// 1//// 91800 22200 00157 11201 20601 323// 41201 70005
AAXX 09181 56146 32880 71101 11015 21101 36716 52003 81402 333 05303 10092
AAXX 09181 56444 32780 60000 10011 21041 36792 57009 86100 333 05301 10086
AAXX 09181 56492 11762 82902 10063 20043 39939 40360 52007 69951 76066 885// 333 00252 10092
AAXX 09181 56571 11565 83604 10061 21038 38458 52013 69901 76000 885// 333 00052 10080
AAXX 09181 57799 32970 72904 10036 21044 30251 40344 52002 8703/ 333 10092
AAXX 09181 57866 32770 80205 10052 21073 30136 40351 54000 885// 333 10097
AAXX 09181 57957 32763 80204 10068 21096 30125 40330 52008 885// 333 10104
AAXX 09181 57993 32960 73602 10048 21025 30151 40324 52003 8704/ 333 10109
AAXX 09181 58027 32966 00000 11034 21105 30293 40347 57013 333 10016
AAXX 09181 58141 31958 02701 11029 21080 30333 40353 57006 70500 333 10017
AAXX 09181 58265 32962 02903 11006 21050 30334 40342 57008 333 10047
AAXX 09181 58472 11468 63409 10027 21007 30225 40324 57006 69901 70060 86140 333 10059
AAXX 09181 58477 32480 73403 10046 21018 30275 40321 57006 87100 333 10076
AAXX 09181 58527 32965 00701 10013 21056 30265 40345 54000 333 10091
AAXX 09181 58633 32965 00403 10013 21028 30235 40340 57002 333 10079
AAXX 09181 58666 32965 03411 10047 21003 30199 40305 57011 333 10075
AAXX 09181 58725 31958 02501 10009 21003 30045 40318 57002 71000 333 10101
AAXX 09181 58921 32965 70202 10060 20015 30046 40301 52002 8704/ 333 10125
AAXX 09181 59082 32970 73404 10074 21060 30152 40303 54000 8704/ 333 10136
AAXX 09181 59211 32965 80000 10114 20039 30074 40286 52007 8807/ 333 10149
AAXX 09181 59265 32761 80202 10095 21001 30143 40285 52001 885// 333 10142
AAXX 09181 59293 32868 70207 10076 21033 30186 40274 57007 875// 333 10126
AAXX 09181 59501 32765 80203 10116 20026 30213 40235 57009 885// 333 10151
AAXX 09181 59663 32778 70207 10129 21018 30127 40237 57008 875// 333 10172
AAXX 09181 59838 32962 70409 10162 20107 30195 40205 57006 8704/ 333 10186
AAXX 09181 59948 32370 70710 10146 20114 39701 40193 57007 878// 333 10199 91118 91507
AAXX 09181 59981 11570 80706 10233 20201 30140 40147 57014 69901 78000 882// 333 10253
AAXX 09184 16294 12897 42102 10138 20095 30051 40244 54000 60002 84070 333 10186 84358 555 0////
BBXX DDLK 09183 99430 70567 41698 33119 10069 20010 40295 52015 70111 81046 22263 20804 329// 41110 80043
BBXX 2BLY5 09183 99081 70246 41598 70511 10305 20236 40095 58035 70022 8711/ 22253 00290 20301 309// 40602 80257
BBXX BATFR08 09184 99467 30530 46/// /1734 10025 20009 40163 50012 22223 00057
BBXX BATFR19 09184 99007 30088 46/// /2011 10262 20237 40089 22211 00274
BBXX C6OM8 09180 99272 70204 41297 40507 10220 20173 40191 56010 70541 84678 22253 06221 20402 305// 40402 5//// 80191
BBXX BAREU12 09184 99514 10025 46/// ///// 40093 52001 22264
BBXX C6OM8 09180 99272 70204 41297 40507 10220 20173 40191 56010 70541 84678 22253 06221 20402 305// 40402 5//// 80191
BBXX A8VL5 09184 99102 11099 41/97 /0428 10250 20228 40220 55025 7//22 8/3// 22255 04260 2//06 80234
BBXX BATFR56 09184 99031 10907 44998 61207 10277 20244 40099 58003 70222 86300 22253 00304
BBXX BATFR35 09184 99166 51517 46/// /2904 10265 20217 40115 22272 00285
BBXX BATEU07 09184 99389 31480 46/// /0629 10177 40081 56018 22222
BBXX BATFR47 09184 99266 51341 46/// /3432 10234 20215 40120 50/// 22262
BBXX BATFR48 09184 99157 51470 46/// /3313 10275 20215 40126 52180 22252 00304
BBXX V7OX3 09184 99250 50448 41/98 83606 10250 20220 40060 57020 70222 87/7/ 22273 04260 2//02 3//// 4//// 5//// 80230
BBXX PBEO 09183 99367 10002 41597 82210 10160 20112 40229 53002 70300 8//// 22262 02175 20201 30000 80132
BBXX BAREU08 09184 99116 70750 46/// ///// 40093 57016 22213
BBXX BAREU04 09184 99515 70377 46/// ///// 40057 52029 22224
BBXX FVNM 09184 99078 71049 46/// /1118 10259 20230 40128 50003 22241 00270
BBXX BATEU01 09184 99466 70441 44497 62830 10054 21002 40205 53037 70222 84364 22264 00065 21004 331// 41404 5////
BBXX BATEU04 09184 99687 70528 46/// /0625 11047 21108 49902 57056 22221
BBXX PHQX 09183 99314 70653 41498 61005 10242 20176 40240 56010 70111 85172 22214 20501 309// 40802 5//// 80198
BBXX 41101 09184 99146 70562 46/// /3401 10288 20229 40098 57020 22200 00280 10903 70017
BBXX DDLK 09183 99430 70567 41698 33119 10069 20010 40295 52015 70111 81046 22263 20804 329// 41110 80043
AAXX 09184 62476 32960 00210 10212 20156 40150 52010 333 10254
AAXX 09184 62420 32960 00000 10152 20083 40233 52013 333 10211
AAXX 09184 62432 32960 02903 10157 20055 40218 52009 333 10226
AAXX 09184 62435 32960 00204 10162 20052 40201 52007 333 10226
AAXX 09184 62455 32960 03606 10159 20060 40213 52018 333 10205
AAXX 09184 62458 32960 03408 10168 20055 40186 52016 333 10224
AAXX 09184 65357 32960 60804 10304 20046 39697 40086 80002 333 10360 59002 86076
AAXX 09184 60340 32965 83602 10133 20105 40237 51010 84072 333 10157 84360 85070
AAXX 09184 04203 46/// /1413 11081 21097 30021 40039 57007
AAXX 09184 04205 45/84 /0101 11122 21160 30031 40054 57029 333 11114 21184
AAXX 09184 04208 46/// /1118 11079 21138 39938 49984 57035
AAXX 09184 04213 46/// /1419 11092 21234 39864 49976 57046 333 11089 21115
AAXX 09184 04214 46/// /1404 11066 21152 39910 49943 57054
AAXX 09184 04224 47961 60520 11049 21140 39870 49903 57062 72477 333 11044 21092 86/73
AAXX 09184 04228 NIL
AAXX 09184 04242 46/// /0706 11031 21113 39824 49840 57029
AAXX 09184 04253 46/// /1229 11012 21065 39769 49796 57009 333 91042
AAXX 09184 04266 46/// /0753 11019 21068 39685 49722 57016 333 91067
AAXX 09184 04285 46/// /0741 10000 21064 39696 49715 57037
AAXX 09184 04301 46/// /1505 11268 21315 30140 40145 57017
AAXX 09184 04313 46/// /2408 11206 21239 30177 40189 57011
AAXX 09184 04330 46/// /0103 11175 21257 30213 40231 57005
AAXX 09184 04351 46/// /3108 11178 21258 30189 40206 57013
AAXX 09184 04373 46/// /0433 11092 21139 30020 40115 57053
AAXX 09184 04382 46/// /3650 11072 21088 39944 49993 57058 333 91063
AAXX 09184 04416 46/// ///// 11454 21472 36628 57011
AAXX 09181 60370 16/// /2401 10140 20118 69922 333 10189
AAXX 09181 60371 16/// /1801 10147 20117 69922 333 10198
AAXX 09181 60372 36/// /2802 10125 20125 333 10199
AAXX 09181 60373 NIL
AAXX 09181 60374 NIL
AAXX 09181 60376 NIL
AAXX 09181 60379 NIL
AAXX 09181 60380 NIL
AAXX 09181 60381 NIL
AAXX 09181 60393 NIL
AAXX 09181 60394 NIL
AAXX 09181 60593 NIL
AAXX 09181 60595 NIL
AAXX 09181 60605 NIL
AAXX 09181 60613 NIL
AAXX 09181 60623 NIL
AAXX 09184 60624 36/// /0000 10230 21038 333 10262
AAXX 09184 60639 NIL
AAXX 09184 60645 36/// /0000 10230 21058 333 10269
AAXX 09181 10791 01/90 92714 11017 21017 38472 48420 56001 60122 77374 333 10000 21017 48050 55300 60057 96049
AAXX 09181 14235 12460 8//// 10058 20054 39020 48478 54001 60002 885// 333 10065
AAXX 09181 14246 11975 72104 10113 20065 39961 40162 55/// 60002 700// 87070 333 10120
AAXX 09181 14314 12665 61806 10150 20090 30137 40201 56/// 60002 86800 333 10153 92323 92437
AAXX 09181 14323 11675 81603 10145 20096 30161 40195 56/// 69912 76162 886// 333 10153 92323 92438
AAXX 09181 14324 NIL
AAXX 09181 14328 11960 72001 10120 20083 39785 40174 55/// 69912 7606/ 333 10129
AAXX 09181 14330 12560 81803 10100 20049 39532 40194 56/// 60002 885// 333 10106
AAXX 09181 14438 11680 61205 10124 20062 30124 40215 58/// 60002 702// 82402 333 10151 923//
AAXX 09181 14443 32698 616// 10148 20130 30125 40215 52001 86620 333 10154 92323
AAXX 09181 14447 12584 81008 10138 20065 30196 40227 54/// 60002 8212/ 333 10155 92323 91511 91115
AAXX 09181 14472 12670 61204 10131 20042 30171 40235 54000 60002 82250 333 10152 92312
AAXX 09181 08501 32/// /3502 10172 20136 30255 40291 52005 333 10184 555 60005
AAXX 09181 08505 32470 52402 10180 20138 30233 40283 53001 83802 333 10189 82814 84070 555 60007
AAXX 09181 08506 32/// /0303 10156 20119 30223 40295 52007 333 10178 91005 91107 555 60005
AAXX 09181 08509 12460 63103 10160 20147 30221 40286 53002 60022 86800 333 10163 81815 86635 555 60007
AAXX 09181 08511 12/// /9901 10163 20147 30177 40285 52005 60052 333 10170 555 60005
AAXX 09181 08512 32580 63001 10174 20134 30190 40275 52004 85802 333 10195 81820 85630 555 60005
AAXX 09181 08515 32484 69901 10170 20150 30155 40276 53002 81201 333 10197 81815 86080 910// 911// 555 60007 912//
AAXX 09181 08521 32570 20305 10182 20114 30175 40246 50000 82100 333 10208 82820 555 60007
AAXX 09181 08522 32568 19901 10186 20131 30172 40241 52001 81130 222// 313// 40301 333 10232 81823 555 60005
AAXX 09181 08524 32470 20303 10170 20126 30153 40251 52002 82800 333 10195 82816 91005 91107 555 60005
AAXX 09181 08530 NIL
AAXX 09181 08531 32/// /0000 10146 20118 30201 40240 54000 333 10154 555 60005
AAXX 09181 08532 NIL
AAXX 09181 08533 32/// /0302 10126 20106 30209 40238 52004 333 10177 91105 555 60005
AAXX 09181 08534 31/00 93602 10086 20086 30228 40246 55002 74442 333 10092 89/// 555 60007 96644
AAXX 09181 08535 NIL
AAXX 09181 08537 NIL
AAXX 09181 08540 32560 43002 10136 20111 30166 40235 53001 81872 333 10060 81820 83070 555 60007
AAXX 09181 08541 32/// /3502 10106 20081 30120 40241 52004 333 10151 555 60005
AAXX 09181 08544 11460 71901 10124 20110 30208 40229 58002 69902 70282 8683/ 333 10154 82818 85630 555 69907
AAXX 09181 08545 31458 61501 10121 20100 30148 40231 57003 71022 85831 333 10146 82815 84645 85357 555 60005
AAXX 09181 08548 32/// /0000 10118 20093 30030 40236 54000 333 10144 555 60005
AAXX 09181 08551 31462 79902 10126 20113 30166 40224 57006 70222 878// 333 10143 85818 85624 91105 555 60005
AAXX 09181 08554 32665 43001 10141 20100 30227 40236 52001 81531 333 10168 81645 81368 84075 555 60005
AAXX 09181 08558 32/// /3502 10072 20072 39940 40241 52003 333 10106 555 60005
AAXX 09181 08560 31862 72802 10082 20072 39473 40238 55000 70322 8707/ 333 10124 87356 555 60005
AAXX 09181 08561 31/01 93102 10080 20080 30003 40240 53003 74741 333 10105 89/01 91105 555 60007 96640 90312 90212 96647
AAXX 09181 08562 12/// /3002 10077 20072 39938 40237 52001 69912 333 10119 555 60005
AAXX 09181 08567 32/// /0000 10081 20076 39567 40237 54000 333 10095 555 60005
AAXX 09181 08568 32/// /3107 10040 20036 38659 48530 57003 333 10079 555 60005
AAXX 09181 08570 31101 71601 10063 20061 39772 40240 54000 74641 876// 333 10101 87703 555 60005
AAXX 09181 08571 32/// /0000 10063 20063 39528 40244 52004 333 10098 555 60005
AAXX 09181 08575 32/// /1501 10052 20049 39418 40243 54000 333 10060 555 60005
AAXX 09181 08579 32/// /36// 10094 20093 30114 40241 57001 333 10094 555 60005
AAXX 09181 13463 32970 30901 10049 20006 30207 40268 52007 81042 333 10117
AAXX 09181 13459 32970 41101 10010 21006 39495 40274 53006 82031 333 10102
AAXX 09181 13461 32975 20903 10080 21013 30255 40263 50008 80002 333 10156 92312 92428
AAXX 09181 13363 32962 00000 11044 21044 39314 48503 58003 333 10007
BBXX BAREU62 09184 99409 10287 46/// ///// 40278 22274
AAXX 09184 60595 36/// /0000 11451 333 11451
AAXX 09184 60381 36/// /0000 10139 20121 333 10200
AAXX 09184 60639 36/// /0907 10153 20001 333 10215
AAXX 09184 60605 36/// /1205 10178 20000 333 10200
AAXX 09181 13180 32998 61809 10061 21014 30100 40212 57007 84032 333 10098 91112
AAXX 09181 13173 32998 71604 10053 20009 30101 40203 58004 82036 333 10075
AAXX 09181 13266 32998 00702 10029 20000 30107 40211 56002 333 10082
AAXX 09181 13384 32998 31101 10007 21015 30080 40237 56002 80001 333 10090
AAXX 09181 13369 31696 12501 11104 21115 39027 48478 58002 71000 81500 333 11061 4/027
AAXX 09181 13383 32998 01701 10014 21002 30026 40237 57004 80006 333 10087
AAXX 09181 13389 32998 70000 10010 21036 39967 40258 54000 80006 333 10081
AAXX 09181 13278 32998 52302 10039 21006 30002 40232 55003 85070 333 10098
AAXX 09181 13378 32998 32304 10008 21081 38305 48528 54000 80002 333 10026 4/016
AAXX 09181 13397 32998 41404 11005 21019 39719 40277 50004 80002 333 10063
AAXX 09181 13492 NIL
AAXX 09181 13584 NIL
AAXX 09181 13585 42998 00000 11006 21019 39462 40287 52006 333 10064 94077
AAXX 09181 13597 42998 00000 10022 21048 30190 40265 51009 333 10136 94072
AAXX 09181 13598 42998 00000 11036 21053 48504 53004 333 10072 94044 47001
AAXX 09181 28676 329// 00402 11164 21186 30247 40385 57008 333 11100
AAXX 09181 28766 319// 00701 11153 21173 30164 40368 57008 71000 333 11116
AAXX 09181 28867 32998 00201 11175 21201 30063 40356 58016 333 11135
AAXX 09181 28879 329// 00602 11180 21195 30057 40370 57010 333 11080
AAXX 09181 28952 329// 00000 11190 21202 30155 40364 57006 333 11125
AAXX 09181 28966 329// 03601 11170 21189 30047 40354 57007 333 11087
AAXX 09181 29802 319// 00502 11152 21166 30231 40386 57005 71000 333 11147
AAXX 09181 29807 329// 00902 11146 21167 30247 40374 57012 333 11137
AAXX 09181 34691 32998 61105 11082 21172 30233 40220 54000 86030 333 11052
AAXX 09181 35067 329// 00401 11218 21245 30045 40350 57009 333 11114
AAXX 09181 35078 329// 00704 11152 21172 39932 40338 57011 333 11133
AAXX 09181 35085 329// 83603 11140 21151 39835 40342 57013 80007 333 11110
AAXX 09181 35108 329// 51403 11125 21167 30253 40302 52003 80001 333 11070
AAXX 09181 35188 319// 00303 11158 21183 39861 40327 57008 77600 333 11110
AAXX 09181 35217 329// 71103 11156 21190 30257 40299 58001 80006 333 11092
AAXX 09181 35229 129// 00000 11186 21209 30047 40345 57006 69900 333 11123
AAXX 09181 35302 329// 51604 11141 21176 30260 40281 57003 85075 333 11099
AAXX 09181 35357 329// 60000 11195 21214 39834 40305 57018 84051 333 11169
AAXX 09181 35394 32998 50000 11152 21188 39600 40322 57002 80002 333 11057
AAXX 09181 35406 329// 71205 11135 21170 30274 40276 53004 80008 333 11101
AAXX 09181 35416 329// 11102 11171 21206 30183 40314 52002 80001 333 11116
AAXX 09181 35426 329// 00703 11192 21214 30018 40336 58002 333 11135
AAXX 09181 35497 329// 81402 11113 21133 39470 40306 57003 8801/ 333 11040
AAXX 09181 35532 31998 01107 11160 21187 39796 40324 53004 73633 333 11144
AAXX 09181 35671 32998 03101 11229 21251 39849 40322 57013 333 11130
AAXX 09181 35700 32998 81106 11094 21124 30265 40240 58001 80006 333 11072
AAXX 09181 35746 NIL
AAXX 09181 35796 11597 80403 11086 21101 39859 40312 58006 69900 77772 886// 333 11054
AAXX 09181 35849 NIL
AAXX 09181 35925 329// 21406 11121 21134 40280 52005 80002 333 11098
AAXX 09181 35953 NIL
AAXX 09181 35969 NIL
AAXX 09181 36003 32998 21001 11180 21191 30191 40355 57011 80001 333 11118
AAXX 09181 36152 329// 20000 11229 21269 30149 40357 57007 80002 333 11138
AAXX 09181 36177 319// 00000 11203 21218 30096 40365 57001 71000 333 11128
AAXX 09181 36208 329// 03002 11092 21140 39319 40336 57003 333 11010
AAXX 09181 36397 329// 00000 11183 21212 39775 40383 53007 333 11092
AAXX 09181 36428 329// 00202 11184 21198 39811 40350 58010 333 11094 95090
AAXX 09181 36535 329// 00000 11213 21246 39675 40365 57008 333 11134
AAXX 09181 36639 329// 60702 11102 21127 39688 40319 58014 82031 333 10005
AAXX 09181 36821 319// 20000 11069 21082 39788 40294 57007 71011 80002 333 11032
AAXX 09181 36859 329// 80602 11062 21077 39515 40323 52004 8802/ 333 11062
AAXX 09181 36864 329// 00000 11093 21109 39366 40300 58011 333 11007
AAXX 09181 36870 329// 00000 11045 21054 39241 40279 58009 333 11007
AAXX 09181 38001 32997 80203 10014 21027 30221 40191 52005 8807/ 333 10013
AAXX 09181 38062 NIL
AAXX 09181 38069 NIL
AAXX 09181 38196 32998 00000 11071 21119 39252 40270 57008 333 10009
AAXX 09181 38198 325// 82901 11058 21073 30007 40276 57007 885// 333 11030
AAXX 09181 38222 31995 00000 11086 21101 39696 40281 57017 71000 333 11026
AAXX 09181 38232 32498 81307 11049 21058 30130 40232 52013 886// 333 11009
AAXX 09181 38328 319// 01101 11026 21059 39507 40253 58012 71040 333 10036
AAXX 09181 38334 32998 01001 11016 21133 39273 40253 57011 333 10040
AAXX 09181 38341 32997 01501 11048 21110 39454 40264 57009 333 10017
AAXX 09181 38343 32997 00000 11100 21128 39398 40285 57011 333 11056
AAXX 09181 38439 31993 63604 11042 21047 39907 40257 57006 74641 80001 333 11012
AAXX 09181 28676 329// 00402 11164 21186 30247 40385 57008 333 11100
AAXX 09181 28766 319// 00701 11153 21173 30164 40368 57008 71000 333 11116
AAXX 09181 28867 32998 00201 11175 21201 30063 40356 58016 333 11135
AAXX 09181 28879 329// 00602 11180 21195 30057 40370 57010 333 11080
AAXX 09181 28952 329// 00000 11190 21202 30155 40364 57006 333 11125
AAXX 09181 28966 329// 03601 11170 21189 30047 40354 57007 333 11087
AAXX 09181 29802 319// 00502 11152 21166 30231 40386 57005 71000 333 11147
AAXX 09181 29807 329// 00902 11146 21167 30247 40374 57012 333 11137
AAXX 09181 34691 32998 61105 11082 21172 30233 40220 54000 86030 333 11052
AAXX 09181 35067 329// 00401 11218 21245 30045 40350 57009 333 11114
AAXX 09181 35078 329// 00704 11152 21172 39932 40338 57011 333 11133
AAXX 09181 35085 329// 83603 11140 21151 39835 40342 57013 80007 333 11110
AAXX 09181 35108 329// 51403 11125 21167 30253 40302 52003 80001 333 11070
AAXX 09181 35188 319// 00303 11158 21183 39861 40327 57008 77600 333 11110
AAXX 09181 35217 329// 71103 11156 21190 30257 40299 58001 80006 333 11092
AAXX 09181 35229 129// 00000 11186 21209 30047 40345 57006 69900 333 11123
AAXX 09181 35302 329// 51604 11141 21176 30260 40281 57003 85075 333 11099
AAXX 09181 35357 329// 60000 11195 21214 39834 40305 57018 84051 333 11169
AAXX 09181 35394 32998 50000 11152 21188 39600 40322 57002 80002 333 11057
AAXX 09181 35406 329// 71205 11135 21170 30274 40276 53004 80008 333 11101
AAXX 09181 35416 329// 11102 11171 21206 30183 40314 52002 80001 333 11116
AAXX 09181 35426 329// 00703 11192 21214 30018 40336 58002 333 11135
AAXX 09181 35497 329// 81402 11113 21133 39470 40306 57003 8801/ 333 11040
AAXX 09181 35532 31998 01107 11160 21187 39796 40324 53004 73633 333 11144
AAXX 09181 35671 32998 03101 11229 21251 39849 40322 57013 333 11130
AAXX 09181 35700 32998 81106 11094 21124 30265 40240 58001 80006 333 11072
AAXX 09181 35746 NIL
AAXX 09181 35796 11597 80403 11086 21101 39859 40312 58006 69900 77772 886// 333 11054
AAXX 09181 35849 NIL
AAXX 09181 35925 329// 21406 11121 21134 40280 52005 80002 333 11098
AAXX 09181 35953 NIL
AAXX 09181 35969 NIL
AAXX 09181 36003 32998 21001 11180 21191 30191 40355 57011 80001 333 11118
AAXX 09181 36152 329// 20000 11229 21269 30149 40357 57007 80002 333 11138
AAXX 09181 36177 319// 00000 11203 21218 30096 40365 57001 71000 333 11128
AAXX 09181 36208 329// 03002 11092 21140 39319 40336 57003 333 11010
AAXX 09181 36397 329// 00000 11183 21212 39775 40383 53007 333 11092
AAXX 09181 36428 329// 00202 11184 21198 39811 40350 58010 333 11094 95090
AAXX 09181 36535 329// 00000 11213 21246 39675 40365 57008 333 11134
AAXX 09181 36639 329// 60702 11102 21127 39688 40319 58014 82031 333 10005
AAXX 09181 36821 319// 20000 11069 21082 39788 40294 57007 71011 80002 333 11032
AAXX 09181 36859 329// 80602 11062 21077 39515 40323 52004 8802/ 333 11062
AAXX 09181 36864 329// 00000 11093 21109 39366 40300 58011 333 11007
AAXX 09181 36870 329// 00000 11045 21054 39241 40279 58009 333 11007
AAXX 09181 38001 32997 80203 10014 21027 30221 40191 52005 8807/ 333 10013
AAXX 09181 38062 NIL
AAXX 09181 38069 NIL
AAXX 09181 38196 32998 00000 11071 21119 39252 40270 57008 333 10009
AAXX 09181 38198 325// 82901 11058 21073 30007 40276 57007 885// 333 11030
AAXX 09181 38222 31995 00000 11086 21101 39696 40281 57017 71000 333 11026
AAXX 09181 38232 32498 81307 11049 21058 30130 40232 52013 886// 333 11009
AAXX 09181 38328 319// 01101 11026 21059 39507 40253 58012 71040 333 10036
AAXX 09181 38334 32998 01001 11016 21133 39273 40253 57011 333 10040
AAXX 09181 38341 32997 01501 11048 21110 39454 40264 57009 333 10017
AAXX 09181 38343 32997 00000 11100 21128 39398 40285 57011 333 11056
AAXX 09181 38439 31993 63604 11042 21047 39907 40257 57006 74641 80001 333 11012
AAXX 09184 87416 32965 00505 10319 20122 39325 40042 57035
AAXX 09181 22550 11572 81803 11014 21034 30184 40194 57003 69920 70282 8353/ 333 11014
AAXX 09181 22563 12397 81803 11035 21043 30171 40211 58006 69950 886// 333 11024 88708
AAXX 09181 22867 32497 81602 11044 21050 30107 40225 57006 886// 333 11048 88710 91105
AAXX 09181 22641 11599 81203 11017 21031 30153 40169 57008 69900 70272 885// 333 11017 88626 91107
AAXX 09181 22768 11296 81202 11051 21058 30167 40225 57009 69920 71072 886// 333 11026 88705
AAXX 09181 01311 47559 82809 10042 20019 39730 49790 53023 781// 333 10042 91119
AAXX 09184 62423 32960 03403 10126 20054 40239 52016 333 10210
AAXX 09184 62403 32960 03405 10178 20025 40183 52010 333 10238
AAXX 09184 62357 32960 03606 10140 20085 40237 52019 333 10220
AAXX 09181 50353 32970 60000 11219 21243 39907 40145 57008 80002 333 11127
AAXX 09181 50557 32970 02501 11203 21242 39861 40184 57010 333 11112
AAXX 09181 50756 32960 01801 11167 21207 39879 40197 54000 333 11109
AAXX 09181 50949 32965 02504 11106 21192 30031 40211 57008 333 11077
AAXX 09181 50963 32962 02001 11149 21183 30053 40199 57012 333 11091
AAXX 09181 50978 32678 72203 11129 21198 39839 40207 57005 875// 333 11092
AAXX 09181 51087 32980 00000 11170 21193 39356 40393 54000 333 05700 11037
AAXX 09181 51156 32980 02501 11093 21162 38795 40349 57009 333 05700 10006
AAXX 09181 51644 32960 72701 11039 21091 39090 40408 57009 80002 333 05103 10010
AAXX 09181 51656 32980 71401 11023 21103 39261 40398 57008 80002 333 05251 10026
AAXX 09181 51886 32980 20701 11114 21245 37137 57004 80002 333 05351 11030
AAXX 09181 52602 32980 01401 11186 21309 37294 57003 333 05254 11002
AAXX 09181 52713 32980 00401 11144 21310 36928 57008 333 05251 11020
AAXX 09181 52754 32980 00202 11184 21354 36830 57003 333 00252 11035
AAXX 09181 52818 32980 02001 11111 21197 37263 57010 333 05252 10000
AAXX 09181 52836 32980 01602 11143 21227 36914 57010 333 05200 11023
AAXX 09181 52955 32980 01402 11179 21225 37013 57001 333 00153 11018
AAXX 09181 53068 32980 02704 11158 21192 39156 40398 57010 333 05910 11154
AAXX 09181 53276 32980 32709 11145 21186 38944 40398 57017 80002 333 11145
AAXX 09181 54135 32980 02503 11120 21199 30016 40251 57012 333 11052
AAXX 09181 54236 32980 02002 11127 21179 30154 40266 57015 333 11047
AAXX 09181 54539 32970 02902 11077 21129 30288 40303 57012 333 11021
AAXX 09181 54662 11975 02201 11047 21107 30175 40296 57015 69901 70080 333 11047
AAXX 09181 54753 11560 72906 10001 21067 30298 40305 57016 69901 78580 874// 333 10001
AAXX 09181 54857 32965 02906 11027 21100 30234 40332 57015 333 11005
AAXX 09181 57067 32965 80402 11021 21065 39689 40398 52002 8807/ 333 10056
AAXX 09181 57178 31958 02202 11003 21032 30215 40382 54000 71000 333 10049
AAXX 09181 57245 32972 30201 10009 21010 30026 40391 52006 83030 333 00253 10092
AAXX 09181 57297 32960 00000 11019 21049 30225 40373 57006 333 10035
BBXX 9LD2206 09183 99172 70230 41997 10415 10240 20188 40130 53010 7//00 80001 22262 04249 20501 307// 40701 80205
BBXX PBLQ 09183 99046 10026 41498 32504 10290 20255 40080 53005 70200 82100 22200 04290 20000 30000 80265
BBXX DFUM2 09183 99120 10631 41697 60521 10270 20228 40130 51010 70211 864// 22264 00270 20505 80240
BBXX 3FMV6 09183 99199 30115 41598 71621 10180 20146 40110 40110 53010 70222 85770 22283 06172 21002 80160
BBXX LGWS 09181 99299 70100 43/// /0204 10185 20147 40197 5//// 222/0 04170 1//// 3//// 4//// 5////
BBXX PHQW 09183 99024 70040 41398 31515 10267 20238 40078 54000 7//00 837// 22223 00279 20401 315// 40803 80246 90161
BBXX PCDE 09183 99400 30643 41/98 60406 10162 20139 40250 52008 7//22 8/7// 22223 20601 320// 40602 80148
BBXX PCIH 09183 99039 70118 41497 71708 10270 20236 40074 58014 70222 22275 20201 316// 40602 80245
BBXX PHPP 09184 99118 10607 41498 40429 10258 20221 40112 50010 703// 841// 22224 00285 2//03 80232
BBXX DGZR2 09183 99251 10577 41998 09903 10220 20066 40175 54000 70222 80000 22274 00275 20000 80135
BBXX A8RL3 09181 99196 30658 41297 40911 10250 40090 51000 70211 83/// 22213 00250 2//06 3//// 4//06 5////
BBXX DFNB2 09183 99229 10372 41598 33421 10240 20172 40150 54000 70200 83030 22234 00240 20405 80195
BBXX NWS0029 09184 99174 70246 43/// /0512 10239 20174 40127 5//// 7//// 8//// 222// 04251 2//// 3//// 4//// 5//// 6//// 8//// ICE /////
BBXX SLKQ 09181 99102 11120 43/97 80613 10238 40077 58010 22253 00282 2////4////
BBXX SMGW 09181 99380 11219 43/97 82707 10005 40286 58010 22274 00112 2//// 4////
BBXX WHIA 09183 99205 10909 41998 09902 10250 2019/ 40121 5/000 70200 80000 22213 0//// 2//// 3//// 4//// 5//// 6//// 80210 ICE /////
BBXX DGBE 09183 99349 11440 41/97 82715 10120 20026 40162 52012 76022 8//// 22264 00220 2//// 80075
BBXX MIBR 09183 99220 11142 41997 80112 10136 20056 40232 54000 70282 8801/ 22200 00205 2//// 3//// 4//// 5//// 80098
BBXX MGRL8 09183 99099 10752 41596 42908 10285 20250 40103 50020 70122 84060 22284 04295 20000 30000 40000 50000 80260
BBXX DGZL 09183 99063 10785 41397 70109 10285 20244 40100 56010 71385 86792 22264 00290 2//// 80255
BBXX A8QR9 09181 99163 10728 41/96 23609 10285 20230 40110 50/// 70311 82//8 22284 20101 80245
BBXX DMRX 09184 99382 11480 41497 50221 10080 20013 40155 51021 70311 8556/ 22214 00170 20504 80050
BBXX PHKL 09181 99053 10978 41698 40000 10300 20260 40094 50000 70211 82576 22274 00294 20000 300// 40000 5//// 80270
BBXX VNVZ 09184 99246 11338 41/98 80322 10205 20189 40181 51002 70252 88/// 22244 00249 2//// 3//// 4//// 5//// 80195
BBXX KAOU 09184 99070 10968 43/// /0715 10280 20242 40082 5//// 7//// 8//// 222// 04306 2//// 3//// 4//// 5//// 6//// 8//// ICE /////
BBXX 3EPD8 09184 99251 50763 41298 81815 10198 20121 40158 7//22 8/71/ 22243 04180 2//// 80155
AAXX 09181 40656 12960 00000 10120 20005 40177 52006 60002
AAXX 09181 40670 12960 00000 10132 20009 40191 51005 60002
AAXX 09181 40674 11956 00000 10102 21010 40199 51003 60002 70600
AAXX 09181 40676 12960 00603 10134 20005 40204 50004 60002
AAXX 09181 40689 12960 31803 10145 40214 50070 52010 60002 80003
AAXX 09181 40690 11958 41302 10130 20066 40207 51009 60002 70511 80002
AAXX 09181 40691 12960 50302 10135 20102 40228 50004 60002 80006
BBXX 46221 09181 99339 71186 46/// ///// 1//// 91745 22200 00150 12201 20501 315// 42201 70006
AAXX 09184 40582 32960 21506 10123 20041 40205 50003 80001 333 55300 00000 10203 20000 30000 41097 51300 60000 55407 40000 82070 90401 91007 91115 91209 91305
AAXX 09184 41150 NIL
AAXX 09184 41168 NIL
AAXX 09184 41170 42962 03306 10192 20087 30196 40209 333 10236 58002
AAXX 09184 41176 NIL
AAXX 09184 41184 42960 01902 10158 20079 40185 333 10272 58006
AAXX 09184 41194 12960 00505 10209 20080 30189 40194 60001 333 10267 58005
AAXX 09184 41196 42960 01004 10146 20057 30156 40197 333 10268 58012
AAXX 09184 41198 42960 03003 10203 20067 40195 333 10262 58009
AAXX 09184 41210 NIL
AAXX 09184 41216 NIL
AAXX 09184 41217 42960 03605 10183 20100 30156 40186 333 10268 58005
AAXX 09184 41218 42960 03606 10182 20034 39879 40189 333 10267 58005
AAXX 09184 41226 NIL
AAXX 09184 41244 36/// /0502 10184 20021 39839 48253 333 0E019 10265 58005
AAXX 09184 41246 32960 02504 10198 20103 30189 40194 333 10262 58011
AAXX 09184 41254 36/// /0000 10077 20045 37966 47971 333 0E007 10178 59017
AAXX 09184 41256 32960 01604 10201 20082 30185 40195 333 10257 58009
AAXX 09184 41258 36/// /2202 10232 20098 30183 40188 333 0E/// 10259 58010
AAXX 09184 41268 36/// /3508 10229 20098 30171 48324 333 0E023 10264 58018
AAXX 09184 41312 36/// /3205 10243 20079 30127 40167 333 0E/// 10284 58007
AAXX 09184 41314 32960 09901 10180 20066 39681 40192 333 10233 59002
AAXX 09184 41316 32960 09903 10238 20052 30142 40169 333 10281 58004
AAXX 09184 41404 42960 09902 10108 21056 37879 48541 333 10230 59006
AAXX 09184 41407 NIL
AAXX 09184 41431 42960 01810 10264 20231 30112 40125 333 10306 58003
AAXX 09184 41466 42960 01704 10156 20129 38572 48472 333 10250 59009
AAXX 09184 41477 NIL
AAXX 09184 41480 42560 51012 10267 20167 30151 40154 81570 333 10298 58000 81620 84358
BBXX JPBN 09184 99330 11484 41/97 82817 10180 20103 40100 53011 70222 882// 22261 00211 1//09 20503 399// 4//05 70043
BBXX JGQH 09184 99274 11370 41/97 83512 10189 20097 40196 55005 70282 882// 22200 00242 1//05 20301 399// 4//03 70026
BBXX JGQH 09184 99274 11370 41/97 83512 10189 20097 40196 55005 70282 882// 22200 00242 1//05 20301 399// 4//03 70026
BBXX JPBN 09184 99330 11484 41/97 82817 10180 20103 40100 53011 70222 882// 22261 00211 1//09 20503 399// 4//05 70043
AAXX 09184 83550 31597 5//// 10298 20240 30048 40077 70211 82204 333 59024
AAXX 09184 83698 32998 83603 10268 20223 30096 40110 56010 8802/
AAXX 09184 83738 21697 80000 10230 20209 39560 40053 57013 71560 887// 333 60021
AAXX 09181 91943 36/// /0107 10282 20220 30126 40128 51016 333 10288 58001
AAXX 09181 91945 06/// /2808 10267 20244 30100 40105 51017 69981 333 69927
AAXX 09181 28588 32998 00601 11166 21179 30221 40394 57009 333 11111
AAXX 09181 28383 31996 00000 11214 21233 30307 40401 57004 70400 333 11109
AAXX 09181 23929 32977 81902 11097 21143 30254 40325 54000 82037 333 11047
AAXX 09181 28586 32997 00000 11182 21201 30237 40400 57007 333 11105
AAXX 09181 40604 12960 41002 10092 21002 40175 58003 60002 84200
AAXX 09181 40608 12960 40000 10102 21059 40186 58001 60002 84030
AAXX 09181 40621 12960 20000 10093 21050 40013 58004 60002 80001
AAXX 09181 40629 12960 00902 10090 20044 40188 57005 60002
AAXX 09181 40634 12960 00000 10092 20080 40191 51001 60002
AAXX 09181 40650 12960 01802 10100 21041 40194 51003 60002
BBXX 51205 09181 99210 71564 46/// ///// 1//// 91818 22200 00243 11505 20903 331// 41503 70023
BBXX 46114 09181 99364 71222 46/// ///// 1//// 91804 22200 00111 12004 21002 330// 42003 70018
BBXX 42363 09181 99282 70892 46/// /0308 10178 20094 40251 91815 333 91209
BBXX 42364 09181 99291 70881 46/// /3603 10156 20078 40247 91815
BBXX 41115 09181 99184 70673 46/// ///// 1//// 91805 22200 11103 20803 303// 41101 70013
BBXX 41114 09181 99276 70802 46/// ///// 1//// 91816 22200 00241 11103 20503 308// 41101 70013
AAXX 09181 28465 32998 00000 11196 21215 30301 40387 57012 333 11119
AAXX 09181 28791 32998 00703 11169 21188 30227 40384 57013 333 11106
BBXX 63110 09183 99595 10015 41/96 /3055 10027 21013 49871 79087 8//// 22200 11016 70080
BBXX 62301 09184 99524 70047 46/// /2919 10071 20008 40120 51006 22200 00108 10504 70022 333 90710 91127
BBXX 62303 09184 99516 70051 46/// /3017 10081 20007 40136 52007 22200 00120 10605 70023 333 90710 91125
BBXX 64046 09184 99606 70049 46/// /3333 10024 21035 49990 53002 22200 00097 11016 70081
BBXX 62001 09184 99452 70050 46/// /2618 10137 20111 40172 58006 22200 00152 10908 70041
BBXX 62163 09184 99475 70084 46/// /0410 10090 20051 40166 51003 22200 00134 10907 70036
BBXX 62029 09184 99487 70125 46/// /3613 10096 20037 40176 53003 22200 00138 10907 70036
BBXX 64045 09184 99591 70117 46/// /0107 10038 21036 40082 52001 22200 00102 11013 70065
BBXX 62081 09184 99510 70134 46/// ///// 10074 20029 40178 51004 22200 00121 10908 70042
BBXX 62442 09184 99490 70164 46/// /3414 1//// 2//// 40198 53006 22200 00133
BBXX 62027 09184 99491 70022 46/// /3009 1//// 2//// 40145 57004 22200 00128 11303 329// 70016
BBXX 62105 09184 99554 70122 46/// /2919 10074 20012 40116 51002 22200 00110 10911 70055 333 90710 91127
BBXX AMOUK02 09184 99535 70031 46/// ///// 10060 20012 30062 40092 54000 91750
BBXX AMOUK14 09184 99535 70030 46/// ///// 10063 20017 30059 40098 52020 91750
BBXX AMOUK12 09184 99533 70054 46/// ///// 10061 20015 30082 40122 52017 91750
BBXX AMOUK13 09184 99519 10017 46/// ///// 10064 20020 30087 40090 52012 91750
BBXX AMOUK05 09184 99519 10041 46/// ///// 10083 20006 30040 40080 52006 91750
BBXX AMOUK21 09184 99572 70073 46/// ///// 10025 21018 30083 40078 52006 91750
BBXX AMOUK08 09184 99501 70061 46/// ///// 10096 20028 30150 40155 54002 91750
BBXX AMOUK27 09184 99579 70052 46/// ///// 1//// 2//// 30053 40053 52004 91750
BBXX AMOUK09 09184 99525 10017 46/// ///// 10038 20006 30074 40090 52004 91750
BBXX AMOUK11 09184 99533 70061 46/// ///// 10041 21002 30076 40120 52040 91750
BBXX AMOUK19 09184 99571 70021 46/// ///// 10027 21036 30041 40047 52025 91750
BBXX 63056 09184 99597 10016 47596 /2943 10027 21013 49850 52026 771// 22200 11017 70086
BBXX 63057 09184 99592 10015 47496 /2942 10034 21013 49889 52033 700// 22200 11016 70078
BBXX 62111 09184 99580 70003 46/// /3334 10040 21046 49998 52018 22200 10811 70057
BBXX PJAI 09184 99581 70014 47598 /3127 10045 21033 40004 53024 700// 22200
BBXX 62112 09184 99584 70002 47998 /3027 10023 21044 49963 52026 762// 22200
BBXX 63055 09184 99606 10016 47996 /2842 10025 20004 49829 52023 761// 22200 11018 70092
BBXX 63108 09184 99608 10017 47495 /3041 10015 21009 49811 52018 762// 22200 11117 70086
BBXX 63106 09184 99610 10017 46/// /2937 10040 49780 53015 22200
BBXX 63105 09184 99610 10017 47496 ///// 10046 20023 49778 53010 751// 22200
BBXX 63113 09184 99610 10017 46/// /3041 10032 20031 49820 52017 22200 11018 70088
BBXX 63112 09184 99611 10010 47/96 /3148 10032 20005 49785 53004 751// 22200 11118 70088
BBXX 63107 09184 99611 10017 46/// /2931 10045 49779 53009 22200
BBXX 63101 09184 99612 10009 46/// /3240 10040 20022 49789 53006 22200
BBXX 63103 09184 99612 10011 46/// /3042 10043 20019 49799 52006 22200 11016 70082
BBXX 63104 09184 99612 10016 47396 /3029 10048 20029 49777 53015 762// 22200
BBXX 63117 09184 99613 10011 47498 /3131 10047 20017 49788 53010 700// 22200
BBXX 63115 09184 99616 10013 47598 /3125 10055 20030 49786 53010 700// 22200 11015 70075
BBXX MWYG6 09184 99603 70040 47998 /3141 10027 700// 22200
BBXX 64041 09184 99607 70026 47996 /2943 10007 21026 49920 52011 700// 22200 11119 70096
BBXX 62146 09184 99572 10021 47/98 /3238 10037 21018 49982 52023 700// 22200 10915 70076
BBXX 62164 09184 99572 10008 47697 /2834 10059 21005 40000 52026 700// 22200 00101 10913 70067
BBXX PJGO 09184 99571 10022 46/// ///// 22200
BBXX 62133 09184 99571 10009 46/// /2934 10050 21046 49988 52023 22200 10913 70063
BBXX 62119 09184 99570 10019 466// /3035 10052 21041 49993 52024 22200 10914 70071
BBXX 62152 09184 99570 10018 47/95 /3027 10052 21027 49992 52026 740// 22200 10913 70067
BBXX 62154 09184 99564 10022 46/// /3130 10052 21043 49987 53024 22200
BBXX 62120 09184 99564 10021 469// /3135 10050 21042 49995 52026 22200
BBXX 62132 09184 99564 10020 46/// /3230 10055 21030 40011 52014 22200
BBXX 62123 09184 99563 10022 47698 /2933 10058 21033 49986 52027 700// 22200
BBXX 62165 09184 99540 10009 47598 /2914 10057 21004 40070 52020 700// 22200 10707 70033
BBXX 62127 09184 99540 10007 47599 ///// 10048 20003 40065 52019 700// 22200 10707 70033
BBXX 62131 09184 99539 10012 46/// /29// 10058 20011 40060 52018 22200
BBXX 62149 09184 99537 10011 47499 /2819 10053 20008 40069 52017 700// 22200 10706 70028
BBXX 62148 09184 99536 10015 46/// /2822 10053 20011 40073 52013 22200
BBXX 62150 09184 99536 10007 47499 /2822 10048 20012 40082 52015 700// 22200 10807 70034
BBXX 62121 09184 99535 10027 46/// /3324 10052 21001 40054 52010 22200
BBXX 62144 09184 99534 10017 47598 /2721 10052 20010 40078 53009 700// 22200 10707 70033
BBXX 62145 09184 99531 10028 47598 /2623 10060 20006 40074 51009 700// 22200 10708 70038
BBXX 62142 09184 99530 10021 46498 /2823 10059 20017 40069 52010 22200 10607 70033
BBXX 62128 09184 99587 10014 47997 /2942 10023 21046 49946 52035 700// 22200 11017 70083
BBXX 62129 09184 99584 10003 46/// ///// 10031 21045 49953 52025 22200
BBXX 62113 09184 99584 10002 47998 /3139 10042 21052 49943 52023 730// 22200
BBXX ZQSD5 09184 99583 10007 46/// /3044 11001 21042 49956 52030 22200 11116 70078
BBXX 62114 09184 99583 10000 46/// /3043 10028 21055 49954 52035 22200
BBXX 62134 09184 99580 10014 47997 /3132 10026 21025 49955 52032 700// 22200 11016 70079
BBXX 62102 09184 99579 10018 46/// /2436 10034 21022 49946 52036 22200 10915 70074
BBXX 62117 09184 99579 10000 47996 /3039 10045 21012 49979 52027 700// 22200 10809 70047
BBXX 62140 09184 99573 10013 46/// /30// 10051 21039 49966 51034 22200
BBXX 62122 09184 99573 10016 47998 /2941 10052 21049 49960 52031 700// 22200 10914 70070
BBXX 62153 09184 99573 10020 47497 /3133 10014 20011 49966 52032 700// 22200 10915 70074
BBXX 62104 09184 99574 10013 47998 /3036 10058 21043 49968 52032 700// 22200
BBXX 62116 09184 99576 10011 47697 /3030 10048 21030 49965 52032 700// 22200 10915 70076
BBXX 62155 09184 99577 10007 47998 /3037 10045 21035 49981 52027 700// 22200 10813 70063
BBXX 62118 09184 99577 10009 47997 /3036 10043 21047 49975 52028 771// 22200 10914 70070
BBXX 62143 09184 99577 10018 47997 /3130 10038 21029 49983 52031 700// 22200 10915 70075
BBXX AMOUK06 09184 99507 70016 46/// ///// 10078 20027 30112 40128 52009 91750
BBXX AMOUK16 09184 99523 70063 46/// ///// 10045 20007 30137 40136 57006 91750
BBXX 62094 09184 99517 70067 46/// /2917 10078 20032 40146 52005 22200 00115 10504 70019
BBXX 62103 09184 99499 70029 46/// /3219 10093 20026 40138 57004 22200 00130 10803 70015 333 90710 91129
BBXX 62170 09184 99514 10020 46/97 /2629 10085 20024 40104 52004 22200 00119 10502 70011 333 90710 91137
BBXX 62304 09184 99511 10018 46/98 /2726 10086 20021 40113 53005 22200 00123 10602 70008 333 90710 91133
BBXX 62305 09184 99504 10000 46/98 /2928 10094 20023 40139 53007 22200 00129 10602 70012 333 90710 91134
BBXX PHBO 09183 99432 70175 41596 82423 10146 20142 40190 51012 75552 883// 22254 20704 327// 40702 80144
BBXX 62107 09184 99501 70061 46/// /3214 10092 20012 40155 52004 22200 00122 10905 70025
BBXX 62092 09184 99512 70105 46/// /3109 10087 20027 40162 51004 22200 00118 10909 70044
BBXX 62095 09184 99530 70159 46/// /2910 10071 20017 40174 55000 22200 00118 11010 70052
BBXX 44098 09181 99428 70702 46/// ///// 1//// 91807 22200 00096 11003 21002 313// 41101 70013
AAXX 09181 28696 32997 00201 11166 21185 30245 40397 57008 333 11100
AAXX 09181 28688 32997 00702 11136 21171 30217 40388 57010 333 11099
BBXX 51203 09181 99208 71570 46/// ///// 1//// 91813 22200 00251 11502 20901 329// 41501 70008
BBXX 52200 09181 99134 11448 46/// ///// 1//// 91815 22200 00287 10804 20804 309// 41101 70019
BBXX 51201 09181 99217 71581 46/// ///// 1//// 91812 22200 00245 11505 20902 332// 41504 70025
BBXX 46088 09181 99483 71232 46/// /0104 10044 40265 91820 22200 00082 1//00 70001 333 91205 555 11039 22040 31817 40105 61819 007039 004038 008036 007036 006037 006036
BBXX SHIP 09184 99084 30989 41498 53111 10277 20247 40078 57005 70122 84/// 22233 06279 11305 399// 4////
AAXX 09181 29998 42999 00000 11193 21193 38716 48565 57004
AAXX 09181 30385 41998 80000 11251 21263 39592 40168 57013 77172 80007
AAXX 09181 30469 429// 80000 11340 21356 39421 40276 57022 80002
AAXX 09181 30636 419// 80801 11163 21176 39584 40223 57040 77177 8802/
AAXX 09181 30650 42984 81402 11121 21138 39060 40211 57031 86041
AAXX 09181 30664 42999 80901 11250 21256 39185 40269 57001 80005
AAXX 09181 30781 42999 50000 11235 21247 39700 40247 57007 80007
AAXX 09181 30777 42998 22401 11166 21185 39529 40215 58016 80002
AAXX 09181 30844 41999 82706 11068 21080 39261 40253 57033 70272 8802/
AAXX 09181 30925 428// 81801 11098 21129 39327 40333 57016 8807/
AAXX 09181 31371 42999 63201 11136 21179 39858 40131 57012 86050
AAXX 09181 31388 41984 80000 11266 21277 39856 40143 57005 70272 80007
AAXX 09181 31478 NIL
AAXX 09181 31532 41999 80000 11265 21277 39789 40162 57011 77172 80007
AAXX 09181 31594 42998 80000 11235 21247 39970 40155 56007 82031
AAXX 09181 31655 42998 02304 11173 21192 30070 40120 57010
AAXX 09181 31754 41998 80000 11178 21190 39618 40148 57010 77172 84027
AAXX 09181 22282 325// 82205 11025 21044 30186 40194 58012 885// 333 11006
AAXX 09181 22676 12984 01502 11089 21096 30154 40237 57004 69920 333 11037
AAXX 09181 22165 31598 61510 11005 21017 30111 40174 54000 72682 82930 333 10005 91113
BBXX SBLI 09181 99265 71145 43/98 60606 10176 40196 51016 22274 00191 2//// 4//// NNNN 426621110
BBXX WECH 09184 99295 71361 43698 60105 10194 2009/ 40262 51018 7//// 86378 22255 00194 2//// 33313 40303 50202 6//// 80139 ICE /////
BBXX 44067 09181 99384 70770 46/// /2906 10095 40251 58020 91800
BBXX 42067 09181 99300 70886 46/// /0703 10099 20047 40257 91740 22200 00181 1//00 70002 333 91205
BBXX 44150 09181 99425 70640 46/// /2206 10074 40301 57006 22200 00099 11104 70020 333 91208
BBXX 41053 09181 99185 70661 46/// /0608 10268 40120 91750 333 91210
BBXX 41053 09181 99185 70661 46/// /0609 10268 40120 91740 333 91211
BBXX 42085 09181 99179 70665 46/// /1007 10282 40110 57020 91800 22200 00284 10502 70009 333 91209
BBXX 42085 09181 99179 70665 46/// /0907 10282 40112 91740 333 91209
BBXX 42085 09181 99179 70665 46/// /0906 10281 40112 91750 333 91208
BBXX 41053 09181 99185 70661 46/// /0607 10271 40118 56022 91800 22200 00280 10805 70025 333 91209
BBXX 41052 09181 99183 70648 46/// /0507 10274 40106 91750 333 91209
BBXX 41052 09181 99183 70648 46/// /0509 10274 40108 91740 333 91211
BBXX 41052 09181 99183 70648 46/// /0508 10278 40104 58022 91800 22200 00280 333 91210
BBXX 44139 09181 99442 70571 46/// /2806 10048 40305 52005 22200 00088 11109 70043 333 91208
BBXX C6KD5 09183 99251 70572 41398 60725 10252 20178 40165 56010 76022 85673 22214 02263 21307 307// 41206 5//// 80205
BBXX DPLE 09183 99443 70608 41598 32415 10080 20013 40295 52005 70200 82542 22224 00090 21002 321// 41206 80050
BBXX A8SO7 09184 99201 70842 41597 70218 10265 20246 40163 58/// 70322 873// 22233 20504 308// 40703 5//// 80252
BBXX OXBB2 09181 99222 70609 41698 60811 10260 20170 40130 57/// 70311 86161 22214 00260 20106 80200
BBXX FLAO 0918/ 99764 70847 46/// ///// 11118 40038 57020
BBXX 9HA2583 09184 99238 70669 41498 30731 1//// 2//// 40180 51/// 7//22 83278 22284 0//// 2//// 3//// 4//// 5//// 6//// 8//// ICE /////
BBXX 46042 09181 99368 71224 46/// /1006 10109 40224 53018 91750 22200 00119 12104 20401 331// 42103 70018 333 91207 555 11058 22061 31719 41007 61749 097054 099056 100059 099057 097053 092056
BBXX 46089 09181 99459 71258 46/// /0308 10080 20057 40239 57003 91750 22200 00097 11704 20603 331// 41703 70021 333 91209 555 11083 22087 31747 40309 61749 025078 023074 019071 017074 014074 015072
BBXX PDNN 09183 99292 70799 41798 20811 10235 20143 40209 57005 70111 82070 22283 02249 20202 303// 40803 80177 90161
BBXX DGOS 09183 99338 70559 41597 60407 10200 20126 40245 58010 70200 83470 22224 20601 80155
BBXX PCBT 09183 99189 70578 41398 70720 10282 20238 40119 57020 70222 8671/ 22254 20503 304// 40904 80250
BBXX DILE 09183 99289 70783 41397 50819 10240 20172 40202 58010 70122 83152 22274 04240 20402 308// 40404 80195
BBXX DQVG 09183 99371 71333 41598 50314 10135 20098 40182 51007 76062 844/1 22274 20304 306// 40506 5//// 80116
BBXX DEDI 09184 99213 70924 41598 80209 10245 20161 40215 51005 70322 8/52/ 22253 00260 20301 30000 80190
BBXX 46083 09181 99582 71380 46/// /2907 10049 20037 40140 54000 91750 22200 00067 10905 20503 300// 40905 70027 333 91209 555 11075 22080 31650 42909 61749 285070 282073 283072 298071 304060 293073 82908 91655
BBXX 41046 09181 99238 70683 46/// /0809 10258 20200 40176 58018 91750 22200 00261 11004 20604 300// 41002 70022 333 91210 555 11094 22100 31659 40811 61749 083088 077084 079081 081082 077086 083091 80810 91742
BBXX 41041 09181 99142 70460 46/// /1504 10273 20219 40102 58017 91750 22200 00271 10803 20401 3//// 40803 70016 333 91205 555 11046 22048 31722 41405 61749 144043 141042 140044 137039 133038 131033 81405 91724
BBXX 42364 09181 99291 70881 46/// /3603 10161 20078 40251 58007 91800
AAXX 09181 38388 NIL
AAXX 09181 38392 32297 80905 11062 21077 30164 40273 52006 886// 333 11054 88705
AAXX 09181 38507 32996 01503 10064 21031 30083 40186 52015 333 10101
AAXX 09181 38511 NIL
AAXX 09181 38545 31998 80906 11031 21059 30071 40253 52001 70242 8802/ 333 11029
AAXX 09181 38647 32997 00910 10001 21017 30150 40193 52013 333 10061
AAXX 09181 38656 NIL
AAXX 09181 38687 31/92 90503 11022 21022 39993 40238 58002 74740 333 10057 89/01
AAXX 09181 38750 32997 02701 10077 20058 30210 40182 52009 333 10165
AAXX 09181 38763 32997 00902 10015 21002 30099 40206 52009 333 10044
AAXX 09181 38774 31495 81402 10024 20008 30026 40226 58005 71022 886// 333 10030
AAXX 09181 38799 32997 03601 10012 20004 39983 40221 54000 333 10097
AAXX 09181 38806 32997 01402 10016 20002 39962 40230 58002 333 10087
AAXX 09181 38880 32397 81103 10021 20002 39967 40228 53003 886// 333 10030 88709
AAXX 09181 38886 31996 80000 10014 21003 30002 40237 52014 71022 8807/ 333 10026
AAXX 09181 38895 32996 02601 11007 21010 39931 40231 52013 333 10107
AAXX 09181 38911 32997 01303 10038 21011 39932 40232 53003 333 10117
AAXX 09181 38915 32997 00902 10047 20008 39908 40237 58004 333 10117
AAXX 09181 38974 32996 81801 10010 20002 39882 40226 52004 71022 8802/ 333 10035
AAXX 09181 38987 32996 01502 10044 20002 39487 40242 52012 333 10169
BBXX 42363 09181 99282 70892 46/// /0310 10178 20094 40251 58003 91800 333 91210
BBXX 44011 09181 99411 70666 46/// /1503 10093 20016 40293 57008 91750 22200 00103 11004 20401 3//// 41004 70022 333 91205 555 11032 22033 31726 43405 61749 151031 160034 154036 164031 175037 171040
BBXX C6VG7 09184 99205 70869 41697 40319 10260 2//// 40180 54/// 702// 849// 22200 00260 2//// 3//// 4//// 5//// 6//// 8//// ICE /////
BBXX KEY796 09183 99571 71703 41/97 81816 10039 20039 40055 58/// 761// 8//// 222// 00028 2//// 3//// 4//// 5//// 6//// 8//// ICE /////
BBXX WXJ63 09183 99611 71464 41/96 80100 11003 21006 40103 5//// 771// 8//// 222// 00060 2//// 3//// 4//// 5//// 6//// 8//// ICE /////
BBXX NWS0003 09184 99600 71746 43/// /1326 10010 21011 49970 5//// 7//// 8//// 222// 04024 2//// 3//// 4//// 5//// 6//// 8//// ICE /////
BBXX 44039 09181 99411 70727 46/// /2704 10082 20029 91800 22200 00110 10401 70004 333 91205
BBXX 44008 09181 99405 70692 46/// /1604 10104 20035 40284 57014 91750 22200 00132 10902 20401 317// 40902 70012 333 91205 555 11044 22045 31734 41506 61749 155042 152043 146040 152036 141033 135031
BBXX 44022 09181 99409 70737 46/// ///07 10088 20023 91800 22200 00101 333 91210 555 11072 22077
BBXX 44060 09181 99413 70721 46/// ///05 10077 91800 22200 00119 333 91206 555 11046 22051
BBXX WYP8657 09184 99419 70875 41/98 52715 11016 2//// 40261 5//// 70110 85100 22283 00067 20302 3//// 4//// 5//// 6//// 8//// ICE /////
BBXX H9UY 09184 99124 71010 41798 20713 00/// 10270 40151 54/// 70200 82241 9//// 22273 04260 20301 323// 40302 5//// 6//// 80240
BBXX V7NV4 09184 99081 70839 41898 72516 10280 20267 40100 55010 7//21 85132 22273 00290 20102 32626 40102 50102 6//// 80270 ICE /////
BBXX DDAC2 09180 99108 70897 41/98 13603 10260 20218 40110 54000 7//00 81400 22233 04270 2//// 334// 40406 5//// 80230
BBXX A8PX5 09184 99516 11613 41597 32835 10010 21016 49850 54000 70100 8/4// 22254 04030 21007 3//// 4//// 5//// 80000
BBXX A8UX5 09184 99240 11187 41697 80340 10150 20113 40220 58005 7//// 8/77/ 22254 04205 20610 302// 40710 80130
BBXX SHIP 09184 99283 11598 41897 12615 10240 20223 40160 52004 70200 81040 22263 06244 20203 326// 40606 80228
BBXX 7JJA 09184 99170 11178 41696 80441 00 10260 20232 40090 57015 70755 886// 9//// 22221 0 2 12 304 4 12 5 6//// 80240 IC E/////
BBXX SHIP 09184 99109 11303 41297 31016 00/// 10270 20257 40080 50005 70100 82163 9//// 22213 00321 2//// 3//// 4//// 5//// 6//// 80260 THNKS/B.REGARDS MASTER PACIFIC GLORY INM C - 443272110
BBXX SHIP 09184 99362 11576 41694 73610 10110 20092 40026 52022 70011 86456 22264 399// 40209 80100
BBXX SHIP 09184 99222 11339 41297 80527 10230 20201 40142 56004 70322 8//// 22283 00267 20306 303// 4//// 5//// 80210
BBXX SHIP 09184 99242 11415 41/97 73618 10237 40173 52003 70222 8//// 22241 00264
BBXX DCTA2 09180 99303 11608 41/98 72310 10238 20202 40130 51010 70222 87/3/ 22225 04210 2//03 330// 4//06 5//// 80213
BBXX A8IP2 09183 99516 70066 41597 43016 10085 20019 40141 54000 70311 83444 22274 20704 3//// 4//// 5//// 80055
BBXX VNSZ 09184 99381 31449 46/// /0209 10197 20163 30026 40052 57016 22285 04189 85175
BBXX ZCAS2 09183 99193 31179 41498 12525 10250 20235 40056 57/// 70100 81100 22223 00270 20402 320// 40301 80240
BBXX VRWS3 09183 99067 31141 41/97 61605 10290 20276 40069 57020 70222 8/55/ 22234 04310 20300 80280
BBXX VROC 09184 99186 31542 41598 50908 10280 20237 40098 52010 70311 8487/ 22283 20201 80250
BBXX 9KWP 09183 99165 31026 41497 43015 10280 20252 40065 58005 70211 82132 22273 2//// 80260
BBXX SHIP 09183 99141 31586 41698 60218 10280 20244 40074 56011 70322 83772 22274 00287 21602 80255
BBXX 3ECI3 09184 99374 31734 41497 40820 10182 20151 40261 52010 70111 84134 22243 00170 20504 321// 41004 80164
BBXX VRAE2 09183 99078 31497 41/// 41005 10293 20251 40066 56014 70398 8//// 22234 04320 2//// 80263
BBXX SHIP 09183 99111 31222 41498 42105 10280 2024/ 40090 56010 70211 8428/ 22214 00300 2//// 3//// 4//// 5//// 6//// 80250 ICE /////
BBXX A8HJ8 09183 99012 11034 41/96 /0511 10268 20245 40097 54000 70200 8//// 22200 20201 30000 80251
BBXX ZCAO7 09184 99166 31189 41498 12414 10271 20235 40063 50010 70211 81100 22214 00303 20501 80246
BBXX A8KC6 09184 99314 51776 41498 81619 10250 20220 40200 50010 702// 8/77/ 22254 04240 20304 317// 40304 5//// 80230 46379 1738091222
AAXX 09181 48806 32498 81403 10125 20078 39436 40234 58001 888// 333 58009 83894 88696
AAXX 09181 26313 12/// 82006 10031 20020 49908 57013 60032 889// 333 10031 91116
AAXX 09181 38388 32998 00000 11065 21097 30178 40252 54000 333 11033
AAXX 09181 14216 12670 82402 10129 20113 30044 40194 53/// 69952 887// 333 10134 923// 924/8
AAXX 09181 14219 11460 82603 10074 20050 39173 48488 54/// 69952 72166 888// 333 10085
AAXX 09181 14232 12583 72202 10108 20067 30040 40174 56/// 60002 87800 333 10142
AAXX 09181 14234 11980 82405 10124 20062 39925 40168 58/// 60002 700// 8807/ 333 10124
AAXX 09181 14236 12670 62402 10112 20061 39975 40171 54/// 60002 83870 333 10117
AAXX 09181 14244 11481 72102 10133 20040 30059 40186 54/// 60002 700// 84570 333 10143
AAXX 09181 14248 12960 81802 10103 20046 39998 40171 56/// 60002 8801/ 333 10105
AAXX 09181 14253 12960 72002 10112 20052 30000 40172 57/// 60002 82078 333 10122
AAXX 09181 14256 12970 72305 10106 20036 39849 40164 58005 60002 87070 333 10115
AAXX 09181 14280 12960 31803 10082 20023 30078 40188 58003 60002 83030 333 10106
AAXX 09181 14308 12565 82703 10109 20090 39838 40188 57/// 60002 885// 333 10135
AAXX 09181 14321 12668 81305 10133 20091 30181 40205 57/// 69902 885// 333 10145 92323 92437
AAXX 09181 14370 11958 20701 10054 20010 30080 40191 54000 60002 71021 80001 333 10130
AAXX 09181 14382 12960 51901 10071 20002 30082 40203 53005 60002 85030 333 10119
AAXX 09181 14428 12570 61308 10136 20084 30204 40211 56/// 60002 86830 333 10150 92323
AAXX 09181 14441 11580 81607 10145 20106 30191 40215 51/// 60002 700// 84406 333 10160 92323
AAXX 09181 14452 NIL
AAXX 09181 14454 12775 81204 10135 20042 30169 40229 54/// 60002 8257/ 333 10156 92323
AAXX 09181 14462 12680 80502 10108 20032 30239 40246 54/// 60002 8287/ 333 10140
BBXX BAREU12 09184 99514 10025 46/// ///// 40093 52001 22264
BBXX BAREU62 09184 99409 10287 46/// ///// 40278 22274
BBXX TFEA 09181 99631 70212 42/99 20715 11041 40140 22242 00080
BBXX 62087 09181 99547 10068 46/// /1205 10078 20005 4//// 5//// 22230 00095
BBXX SKOZ 09184 99464 70335 43/98 82924 10136 40180 55005 22263 00130 20501 40402
BBXX UANA 09181 99730 10335 41/93 21805 10029 40032 32001 70110 80020 22242 04031 20202
BBXX UFNZ 09181 99394 70100 41298 72707 11170 40249 57013 70110 87201 22254 00120 20201
BBXX TBWAA05 09183 99592 10211 41297 82030 10040 21009 49824 51021 79792 887// 22223 2//// 3//// 4//// 5//// 80020 00/87 1/764 5989300/ 871/7 64598 93931/65 1/626 /807
BBXX MSTM6 09183 99422 70098 41298 83408 10162 20122 40215 56020 70352 877// 22284 06155 20220 332// 41008 5//// 80140
BBXX 62023 09183 99514 70079 46/97 /3112 10073 2//// 40164 5//// 22200 10603 70017 555 70029 80013
BBXX TFHFN 09184 99642 70152 46/// ///// 22200 10602 70012
BBXX TFKGR 09184 99657 70136 46/// ///// 22200 10809 70045
BBXX TFSTD 09184 99664 70234 46/// ///// 22200 10706 70029
BBXX TFGSK 09184 99641 70229 46/// ///// 22200 10503 70013
BBXX TFSRT 09184 99633 70203 46/// ///// 22200 10503 70017
BBXX TFGRV 09184 99638 70225 46/// ///// 22200 10702 70011
BBXX TFBLK 09184 99657 70248 46/// ///// 22200 10604 70020
BBXX TFDRN 09184 99658 70212 46/// ///// 22200 10806 70030
BBXX TFGRS 09184 99663 70182 46/// ///// 22200 10808 70038
BBXX TFBKF 09184 99635 70202 46/// ///// 22200 10602 70009
BBXX DBBH 09181 99518 10024 41598 62816 10076 20006 40095 52013 70311 862// 22252 04118
BBXX LF4H 09184 99596 10022 46/// /2940 10011 21004 49859 52025 8//// 22200 06084 10917 70087 333 91153
BBXX LMEL 09181 99603 10053 43/// /2808 10036 20036 49790 5//// 222/2 04079 1//// 3//// 4//// 5////
BBXX UFJN 09181 99721 10297 41/98 22107 11020 40047 57010 70200 8225/ 22200 0//// 20301
BBXX DHEE 09183 99477 70286 41397 81921 10125 20107 40185 58015 75211 887// 22264 00130 20704 321// 41104 80115
BBXX UCJU 09181 99722 10637 41/98 93012 10003 40135 52011 70222 22253
BBXX UGGA 09181 99686 10391 41/98 92109 10040 40132 57010 70222 89/// 22231 20403
BBXX PFFH 09183 99442 10140 41/98 /1813 10158 40200 58008 7//// 8//// 22273 00158 2////
BBXX UCSJ 09181 99683 10437 41/97 92215 10021 40142 56010 70222 89/// 22251 20504
BBXX DGWD2 09183 99397 70101 41498 62706 10155 20112 40225 54000 70311 8524/ 22244 00160 2//01 330// 40502 80130
BBXX NWS0020 09184 99379 10236 43/// /2003 10127 21012 40274 5//// 7//// 8//// 222// 04185 2//// 3//// 4//// 5//// 6//// 8//// ICE /////
AAXX 09181 21432 41697 63203 11175 21187 30145 40165 57002 77172 86500
AAXX 09181 21824 42998 82002 11310 21325 30178 40188 54000 85035
AAXX 09181 21908 NIL
AAXX 09181 21921 NIL
AAXX 09181 21931 41997 82706 11256 21288 30140 40174 53002 77173 8805/
AAXX 09181 21946 41497 82102 11330 21353 30046 40134 54000 77171 885// 333 88613
AAXX 09181 21982 11996 63510 11159 21201 30029 40057 54000 69902 73832 82031 333 21174 49012 91117
AAXX 09181 25062 11996 82804 11173 21185 30079 40083 57002 69982 77173 8801/ 333 21186 47010 91108
AAXX 09181 25123 41996 81401 11363 21390 30105 40142 57005 70271 83031
AAXX 09181 25138 41699 72901 11363 21384 30002 40139 56003 70272 84530 333 91102
AAXX 09181 25173 11396 83206 11164 21170 30064 40069 58001 69952 77173 885// 333 21177 48045 91111
AAXX 09181 25248 42998 80000 11386 21413 39637 40146 57003 8803/ 333 91100
AAXX 09181 25282 11556 83408 11140 21146 30024 40030 52010 60020 77173 885// 333 21145 48008 55000 91111 92980
AAXX 09181 25325 NIL
AAXX 09181 25356 11598 73202 11190 21239 39955 40060 54000 69922 77872 87500 333 21193 48019 55000 91004
AAXX 09181 25399 11579 72203 11114 21149 30005 40014 52019 60020 70273 87500 333 21115 48051 55000 91107
AAXX 09181 25428 41956 70000 11410 21444 39778 40160 54000 71022 84031 333 91100
AAXX 09181 25551 11696 83402 11196 21229 30019 40051 57003 69920 77172 84537 333 21206 47024 55000 91104
AAXX 09181 25563 11565 83406 11166 21185 39959 40040 58003 69932 77172 885// 333 21168 48023 55000 91107
AAXX 09181 25594 31498 81302 11085 21100 39975 40026 52017 70232 885// 333 21086 48022 91108
AAXX 09181 25677 32598 83103 11133 21146 30020 40026 57010 8657/ 333 21133 86623 91104
AAXX 09181 31054 41998 80000 11372 21368 39853 40156 57003 77172 80007
AAXX 09181 31123 41998 60101 11339 21368 39848 40203 53007 70272 80001
AAXX 09180 44329 32998 00000 11156 21190 37868 40510 58007
AAXX 09184 67002 11580 70202 10265 20235 30077 40111 69902 72162 87900 333 10315 58009 82920 86630 924/7
AAXX 09184 67009 NIL
AAXX 09184 67025 NIL
AAXX 09184 67027 31580 32808 10260 20238 30080 40101 52019 71311 83932 333 10302 83820 81920 94963 95813 555 81360 81073
AAXX 09184 67083 11470 81202 10175 20166 38740 48514 53014 60012 72196 8497/ 333 10279 81817 84917 94979 95839
AAXX 09184 67095 11465 70000 10253 20241 30108 40114 52015 69952 71562 8597/ 333 10311 81917 83817 84633 86460 94976 94977 95836 95837
AAXX 09184 67113 NIL
AAXX 09184 67117 NIL
AAXX 09184 67137 NIL
AAXX 09184 67143 NIL
AAXX 09184 67161 NIL
AAXX 09184 67197 32480 61010 10250 20236 30099 40109 52010 83870 333 10304 82817 85460 555 82633
AAXX 09184 61627 32960 00604 10342 20016 3//// 4//// 333 10371 5////
AAXX 09184 61600 32960 03408 10293 20148 30087 40092 333 10356 59019
AAXX 09184 61612 32960 00000 10333 20027 30087 40095 333 10366 59017
AAXX 09184 61627 NIL
AAXX 09184 61630 32960 00404 10340 20113 30067 40086 333 10388 59022
AAXX 09184 61641 32960 03608 10266 20206 30064 40097 333 10291 59013
AAXX 09184 61666 32962 00000 10348 20160 30070 40078 333 10385 59014
AAXX 09184 61679 32960 00406 10357 20162 30081 40089 333 10385 59011
AAXX 09184 61687 31956 03606 10357 20131 30018 40074 70500 333 10378 59023
AAXX 09184 61695 32960 00602 10314 20163 30063 40089 333 10350 59007
AAXX 09184 61697 32960 02802 10300 20228 30068 40082 333 10345 59013
AAXX 09184 61698 32960 40000 10325 20153 30069 40080 80002 333 10370 59019 84073
AAXX 09184 61699 32958 01206 10340 20058 39872 40059 333 10368 59018
AAXX 09181 38599 31995 00807 10009 21008 39739 40266 57004 7100 333 10041
AAXX 09181 38511 32998 71004 11004 21019 30077 40223 52009 87500 333 10009
AAXX 09181 38656 32698 80904 11019 21047 30127 40241 52011 885// 333 10013
BBXX ZMFR 09184 99506 31683 43/// /33// 10095 20093 40261 52005 22251 00091
BBXX 3EAT6 09183 99154 31791 41698 31211 10281 20244 40115 52010 70300 8/400 22253 00290 20302 310// 40302
AAXX 09184 93800 16/// /1804 10111 20097 40253 52007 60001
AAXX 09184 93805 16/// /0304 10111 20071 40259 54000 60001
AAXX 09184 93994 16/// /1210 10204 20180 40189 52010 60001
BBXX ZMFR 09184 99506 31683 43/// /33// 10095 20093 40261 52005 22251 00091
BBXX 3EAT6 09183 99154 31791 41698 31211 10281 20244 40115 52010 70300 8/400 22253 00290 20302 310// 40302
BBXX 46147 09181 99518 71312 46/// /2204 10059 40245 57015 22200 00083 11405 70023 333 91206
BBXX 46147 09181 99518 71312 46/// /2204 10059 40245 57015 22200 00083 11405 70023 333 91206
BBXX 46183 09181 99536 71311 46/// /1706 10059 40226 57017 22200 00080 1//// 70/// 333 912//
AAXX 09181 25703 41996 50000 11397 21422 39850 40157 57003 77671 82031
AAXX 09181 25745 NIL
AAXX 09181 25913 42699 81003 11160 21220 39876 40029 57001 81537
AAXX 09181 25954 42998 00110 11120 21164 39801 49916 57030 80005 333 91015 91115
AAXX 09181 25956 42699 20613 11094 21119 39891 49897 57047 82500 333 91014 91118
AAXX 09181 31088 42999 20105 11206 21255 30054 40062 54000 82040
AAXX 09181 31873 42997 02403 11169 21213 30055 40198 57003
AAXX 09181 31909 42598 82908 11100 21197 30064 40145 56007 8351/ 333 91012 91113
AAXX 09181 31960 42998 03503 11109 21205 39971 40218 57004
AAXX 09181 31961 42998 02502 11201 21234 30172 40223 55000
AAXX 09181 32053 42697 72504 11163 21197 30024 40075 57004 82530 333 91006 91106
AAXX 09181 32061 41584 73504 11107 21135 30049 40089 57007 70282 87900 333 91006 91107
AAXX 09181 32098 42998 13101 11213 21225 30086 40097 57003 81040 333 91002 91103
AAXX 09181 32150 42996 70202 11180 21192 30074 40106 57005 87050 333 91003 91104
AAXX 09181 32165 41598 62404 11021 21071 30062 40124 54000 72681 86900 333 91006 91107
AAXX 09181 32215 41596 63206 11045 21084 39913 49942 52008 78783 86900 333 91010 91114
AAXX 09181 32252 NIL
AAXX 09181 32389 41394 82809 11204 21216 39891 49930 58011 78583 889// 333 85707 91012 91113 92982
AAXX 09181 32477 42997 00000 11326 21342 39915 49951 53003
AAXX 09181 32583 42999 33505 11075 21179 39851 49882 57001 80001
AAXX 09181 32618 41496 80611 10000 21009 39679 49701 57036 78582 889// 333 91017 91119
AAXX 09184 71217 16/// /2502 11020 21082 60001 333 11020 21121 70000
AAXX 09184 71224 16/// /2409 10009 21059 60001 333 10010 21116 70000
AAXX 09184 71063 16/// /1706 10006 21003 30089 40188 58022 60001 333 10009 21019 70003
AAXX 09184 71343 16/// /2512 10030 21049 60001 333 10030 21094 70000
BBXX 46183 09181 99536 71311 46/// /1706 10059 40226 57017 22200 00080 1//// 70/// 333 912//
AAXX 09184 71463 46/// /3205 10001 21020 39984 40211 56015 6///1 333 10038 21003 7////
AAXX 09184 71475 16/// /0402 11017 21018 30186 40282 57009 60001 333 11009 21023 70000
AAXX 09184 71979 16/// ///// 10052 21101 38503 40157 50000 60001 333 10053 21068 70000
AAXX 09184 71189 46/// /2705 11021 21075 6///1 333 11015 21057 7////
AAXX 09184 71375 46/// /2722 11034 6///1 333 10000 21061 7////
AAXX 09184 71276 16/// ///08 11022 21071 60001 333 11022 21213 70000
AAXX 09181 50434 32980 71802 11270 21301 39277 40249 57010 80002 333 11192
AAXX 09181 50527 32970 02005 11230 21250 39394 40253 57014 333 11181
AAXX 09181 50603 32980 02906 11140 21181 39535 40259 57014 333 11125
AAXX 09181 50632 32980 13601 11167 21196 39273 40221 57009 80002 333 11129
AAXX 09181 50727 11570 83202 11155 21182 39011 40275 57004 69911 77077 885// 333 11155
AAXX 09181 50915 11980 02203 11200 21236 39246 40343 57001 69931 70070 333 11177
AAXX 09181 51716 32965 02501 11056 21074 39052 40413 57009 333 05151 10013
AAXX 09181 51765 32980 00000 11104 21150 39367 40423 57003 333 05100 10039
AAXX 09181 51777 32975 72203 11036 21100 39328 40430 57001 80002 333 00104 11002
AAXX 09181 51811 11962 52201 11062 21074 38929 40426 57007 69901 70070 80002 333 00054 11012
AAXX 09181 51828 11865 72201 11033 21052 38771 40413 57002 69911 77070 875// 333 00001 10000
AAXX 09181 52267 32980 02202 11121 21209 39280 40469 57014 333 05251 11037
AAXX 09181 52323 32980 02902 11203 21240 38337 57013 333 05353 11053
AAXX 09181 52495 32980 02703 11157 21211 38839 40497 57014 333 00154 11095
AAXX 09181 53149 32980 02707 11140 21165 38873 40415 57012 333 05606 11139
AAXX 09181 53192 11680 62704 11195 21222 38952 40418 57002 69911 70070 84502 333 11189
AAXX 09181 53231 32975 72005 11138 21174 38618 57008 85032 333 00004 11123
AAXX 09181 53336 32980 42704 11123 21172 38841 40446 57006 80002 333 05202 11113
AAXX 09181 53391 32980 22709 11165 21193 38554 40392 57012 80002 333 05704 11154
AAXX 09181 53529 32980 02702 11148 21203 38762 40462 57008 333 00052 11059
AAXX 09181 53543 32980 02903 11140 21211 38641 40434 57007 333 11085
AAXX 09181 53723 32970 02701 11155 21177 38807 40471 57008 333 00153 11039
AAXX 09181 54012 11970 72508 11179 21214 39060 40347 57005 69901 77070 80002 333 11169
AAXX 09181 54026 32980 72903 11091 21202 39892 40235 57011 80002 333 11043
AAXX 09181 54027 32980 73404 11096 21201 39642 40262 57013 86032 333 11044
AAXX 09181 54208 32980 62905 11178 21213 38807 40380 57018 80002 333 11159
AAXX 09181 54776 11565 72703 11035 21049 30239 40299 57011 69951 78588 874// 333 11001
AAXX 09181 56004 32980 13201 11180 21283 35802 57003 80002 333 05400 11034
AAXX 09181 56033 32980 20402 11171 21275 36020 54000 80002 333 05153 11028
AAXX 09181 56046 32980 71401 11092 21206 36256 54000 80008 333 05152 10012
AAXX 09181 56193 NIL
AAXX 09181 56196 32963 81601 10058 20015 40370 52011 8807/ 333 00351 10094
AAXX 09181 56287 11456 80000 10043 20034 40384 52012 60031 76066 885// 333 00352 10081
AAXX 09181 56684 11560 80703 10001 21016 37952 52009 69931 76060 885// 333 05100 10021
AAXX 09181 56751 32780 11404 10104 20034 38021 52006 81400 333 05103 10173
AAXX 09181 56786 11565 83603 10018 20003 38160 52005 69981 76166 885// 333 05151 10039
AAXX 09181 56977 11465 80401 10127 20124 40183 52004 69911 76060 885// 333 00153 10201
AAXX 09181 57259 32970 00000 11010 21013 40392 52005 333 10084
AAXX 09181 57279 32961 03402 10005 21034 40382 54000 333 10062
AAXX 09181 57348 32860 73602 10074 21006 40353 52001 875// 333 10094
AAXX 09181 57399 32962 00202 11006 21070 40377 52001 333 10076
AAXX 09181 57554 32862 81601 10038 21016 40380 52001 885// 333 10066
AAXX 09181 57793 32961 71101 10032 21015 40351 57005 8704/ 333 10099
AAXX 09181 58345 32962 02902 11007 21065 40358 57008 333 10052
AAXX 09181 58506 32975 00402 11061 21116 40369 52003 333 11004
AAXX 09181 58813 32964 70201 10030 21006 40329 52001 8704/ 333 10085
AAXX 09181 58834 32965 03401 10055 21001 40310 52004 333 10109
AAXX 09181 58926 32970 73402 10076 20003 40285 57004 8704/ 333 10133
AAXX 09181 58944 32461 80405 10100 20039 40266 57010 885// 333 10125
AAXX 09181 59096 32965 70203 10066 21042 40290 57010 8704/ 333 10122
AAXX 09181 59102 32962 00202 10038 21018 40300 57004 333 10089
AAXX 09181 59278 32973 70403 10116 20010 40270 57003 8704/ 333 10156
AAXX 09181 59456 32869 73603 10121 20026 40247 57005 875// 333 10165
AAXX 09181 59493 32970 70203 10115 20000 40245 57008 8704/ 333 10151
AAXX 09181 59658 32965 63602 10122 20054 40236 57004 86040 333 10164
AAXX 09181 59673 32965 73611 10137 20014 40232 57005 8704/ 333 10157 91118 91536
AAXX 09181 59845 32560 80901 10145 20113 40229 57008 888// 333 10151
AAXX 09184 87311 32765 12703 10342 20097 39386 40038 57036 81100 333 56000 81850
AAXX 09184 65528 NIL
AAXX 09184 65536 NIL
AAXX 09184 65545 NIL
AAXX 09184 65548 NIL
AAXX 09184 65555 NIL
AAXX 09184 65557 NIL
AAXX 09184 65560 32960 0//// 10313 20197 39764 40069 333 10355 59005
AAXX 09184 65562 32458 6//// 10315 20221 3//// 4//// 83502 333 10356 5//// 83615 86080
AAXX 09184 65563 32956 00000 10275 20230 39838 40077 333 10333 59005
AAXX 09184 65578 32460 62406 10290 20271 30/// 40/// 85802 333 10321 5//// 83813 85620 94919
AAXX 09184 65585 32460 6//// 10285 20244 3//// 4//// 85502 333 10326 5//// 85613 83076
AAXX 09184 65592 NIL
AAXX 09184 65594 32458 61804 10278 20245 30051 40085 86200 333 10304 58000 86813 94908
AAXX 09184 65599 32460 5//// 10269 20243 39996 40070 84202 333 10305 59003 84815 84076 94908 94904
BBXX 46131 09181 99499 71250 46/// /2703 1//// 40280 57001 22200 00070 10300 70001 333 91204
BBXX 46131 09181 99499 71250 46/// /2703 1//// 40280 57001 22200 00070 10300 70001 333 91204
AAXX 09184 61202 NIL
AAXX 09184 61214 NIL
AAXX 09184 61223 31920 30604 10267 20012 39827 40125 70600 80002 333 10305 59005 83075
AAXX 09184 61226 31958 21008 10290 20022 39823 40119 70611 80002 333 10318 59011 82075
AAXX 09184 61230 32960 30804 10329 21039 39812 40081 80002 333 10360 59011 83075
AAXX 09184 61233 32960 00604 10305 20007 3//// 4//// 333 10345 5////
AAXX 09184 61235 32960 00806 10340 20006 3//// 4//// 333 10372 5////
AAXX 09184 61240 31959 30000 10258 20030 39782 40107 70600 80002 333 10335 59008 83075
AAXX 09184 61250 32960 10000 10285 20108 3//// 4//// 80002 333 10318 5//// 81075
AAXX 09184 61257 31958 00804 10350 20104 30017 40110 70600 333 10370 59028
AAXX 09184 61265 31958 40804 10290 20040 39796 40102 70600 80002 333 10335 59004 84075
AAXX 09184 61270 32960 50000 10330 20086 3//// 4//// 80002 333 10362 5//// 85075
AAXX 09184 61272 32960 53602 10299 20076 39776 40101 80002 333 10365 59002 85075
AAXX 09184 61277 31958 20804 10310 20030 39783 40101 70600 80002 333 10343 58000 82075
AAXX 09184 61285 32960 70000 10340 20093 39928 40077 80002 333 10375 59014 87075
AAXX 09184 61291 31958 50804 10310 20032 39672 40079 70622 80002 333 10345 59011 85075
AAXX 09184 61293 31958 70606 10312 20053 3//// 4//// 70622 80002 333 10345 5//// 87075
AAXX 09184 61296 32960 60000 10300 20137 3//// 4//// 80002 333 10352 5//// 86075
AAXX 09184 61297 32960 70206 10302 20026 3//// 4//// 80002 333 10343 5//// 87075
BBXX VOXS 09184 99467 70480 41997 62729 10042 2003/ 40234 51025 70122 80008 22200 04028 20606 325// 40806 80038
AAXX 09181 36096 42997 60000 11267 21285 39672 40550 57008 83031 333 95090
BBXX VOXS 09184 99467 70480 41997 62729 10042 2003/ 40234 51025 70122 80008 22200 04028 20606 325// 40806 80038
BBXX 46204 09181 99514 71288 46/// /1403 10056 40257 57012 22200 00080 11502 70012 333 91204
AAXX 09184 13623 12970 10000 10062 21005 30242 40248 52007 60002 80007 333 10125
AAXX 09184 13623 12970 10000 10062 21005 30242 40248 52007 60002 80007 333 10125
AAXX 09181 60373 36/// /0202 10136 20135 333 10188
AAXX 09181 60623 36/// /0000 10162 21080 333 10216
AAXX 09181 60393 36/// /1601 10149 20122 333 10204
AAXX 09184 40153 11540 52810 10059 20036 39105 48495 52023 60032 71065 85400 333 10110
AAXX 09184 40179 12660 53013 10174 20050 30166 40203 52012 60002 85800 333 10209
AAXX 09184 40180 12660 72914 10169 20045 30157 40157 52012 60002 874// 333 10201
AAXX 09184 40190 16/// ///// 10140 20087 39876 40210 52008 60002 333 10189
AAXX 09184 40199 13/// /0403 10173 20044 30185 40208 52022 60002 333 10226
AAXX 09184 60692 36/// /0417 10233 21029 333 10274
AAXX 09181 89064 32358 71701 10043 29080 49900 57002 8664/
AAXX 09184 89002 41495 80919 11053 21064 39519 49572 52011 77173 888// 333 92911 96036 96111
AAXX 09184 60676 36/// /0514 10144 20030 333 10178
AAXX 09184 60664 36/// /0000 10149 21052 333 10211
AAXX 09184 60691 36/// /0517 10225 21058 333 10259
AAXX 09184 60662 36/// /0000 10138 21043 333 10179
AAXX 09184 60633 36/// /1806 10220 21134 333 10278
AAXX 09184 60667 36/// /0000 10174 20015 333 10205
AAXX 09181 14324 11/00 92711 10016 20016 38412 48513 56/// 69992 761// 333 10018 41998
BBXX 46204 09181 99514 71288 46/// /1403 10056 40257 57012 22200 00080 11502 70012 333 91204
AAXX 09184 60679 36/// /1305 10071 21166 333 10138
AAXX 09184 60650 36/// /0712 10224 21068 333 10270
AAXX 09184 60677 36/// /0000 10161 21059 333 10200
AAXX 09184 60661 36/// /0109 10166 21106 333 10231
AAXX 09184 60672 36/// /0906 10172 21112 333 10190
AAXX 09181 60379 36/// /0000 10128 20128 333 10189
AAXX 09181 60380 16/// /2701 10125 20120 69922 333 10204
AAXX 09181 60394 16/// /0000 10126 20122 69922 333 10203
AAXX 09181 60374 36/// /1102 10133 20132 333 10187
AAXX 09181 60613 36/// /0000 10146 20009 333 10207
AAXX 09181 08535 32/// /2001 10093 20090 30148 40243 54000 333 10133 555 60005
AAXX 09184 04048 31689 10222 11089 21171 40126 57010 73633 81501 333 11049 21090 555 3/429
BBXX 45137 09181 99455 70810 46/// /2511 11008 39954 40173 57006 22200 00057 10503 70014 333 91214
AAXX 09181 78310 12570 60507 10242 20198 30177 40188 56004 60001 85831 333 10242 20176 30/// 56199 59001 83820 84622 92045 555 10403
AAXX 09181 78315 12575 70102 10234 20193 30112 40178 58006 60001 8587/ 333 10239 20161 30/// 56199 58002 83820 84360 555 10401
AAXX 09181 78318 01558 80304 10214 20207 30179 40183 58009 60051 76162 8582/ 333 10217 20194 32/// 56999 58002 60047 70045 84820 88458
AAXX 09181 78322 11459 73505 10256 20201 30157 40174 58015 60001 70522 86840 333 10270 20184 30/// 56190 59005 83818 83622 555 10402
AAXX 09181 78324 11410 40305 10261 20217 30150 40161 56018 60001 70511 84800 333 10261 20218 30/// 56100 59007 82817 83620 555 10403
AAXX 09181 78325 01460 70202 10229 20211 30119 40177 58011 60031 71562 8587/ 333 10229 20201 32/// 56199 59006 60027 70027 82814 85616 87389 555 10403
AAXX 09181 78328 11/61 20905 10268 20220 30169 40/// 58007 60001 70500 82200 333 10270 20213 30/// 56900 59011 70032 828// 92427
AAXX 09181 78333 11410 31402 10274 20203 30152 40159 57012 60001 70500 83900 333 10284 20204 30/// 56300 57935 59001 83818 819// 555 11401
AAXX 09181 78344 11564 30603 10299 20206 30101 40149 58021 60001 70500 83240 333 10299 20209 30/// 56290 59005 83820 555 10902
AAXX 09181 78345 12565 21004 10305 20215 30144 40147 58022 60001 82800 333 10307 20193 30/// 56900 59007 70039 81820
AAXX 09181 78348 11556 40703 10270 20218 30110 40162 58013 60001 70511 84800 333 10276 20230 30/// 56200 57823 58000 70002 83821 555 10903
AAXX 09181 78349 11561 50702 10281 20200 30052 40161 58019 60001 70511 85200 333 10281 20207 30/// 56100 57811 58005 70015 85821 555 10503
AAXX 09181 78351 12550 21006 10298 20218 30138 40140 58017 60001 82800 333 10298 20188 31/// 56900 57855 58001 70255 82830
AAXX 09181 78353 12570 31003 10285 20216 30135 40157 58017 60001 83800 333 10285 20234 31/// 56200 57852 59001 70023 81820 83626 555 10803
AAXX 09181 78355 12570 40707 10280 20197 30015 40155 56014 60001 84800 333 10280 20205 31/// 56200 58002 70201 83823 555 10903
AAXX 09181 78358 11540 50706 10291 20230 30129 40144 58017 60001 70511 85200 333 10294 20209 30/// 56200 58004 70002 85823 555 10903
AAXX 09181 78360 12570 11305 10298 20207 30132 40143 58017 60001 81930 333 10302 20214 30/// 56990 57959 58005 81820 819// 92023
AAXX 09181 78363 11560 40000 10293 20201 30019 40133 58015 60001 70500 84200 333 10293 20182 31/// 56900 57817 58015 70288 84820
AAXX 09181 78365 11562 40908 10278 20239 30151 40156 58017 60001 70511 84261 333 10282 20249 31/// 56299 57863 58008 70001 84821 92035 555 10903
AAXX 09181 78369 11568 50706 10285 20233 30135 40144 57012 60001 70511 85200 333 10288 20260 30/// 56200 57863 58008 85820 92034 555 10703
BBXX 45137 09181 99455 70810 46/// /2511 11008 39954 40173 57006 22200 00057 10503 70014 333 91214
AAXX 09184 65001 31935 70000 10280 20105 3//// 4//// 70522 80008 333 10346 5//// 87280
AAXX 09184 65030 31910 70610 10205 20054 3//// 40101 70522 80008 333 10278 58001 87280
AAXX 09184 65055 31956 70000 10230 20040 30410 40077 70522 80008 333 10300 58001 87280
AAXX 09184 65101 31957 73406 10289 20120 3//// 40072 70522 80008 333 10350 59005 86280
AAXX 09184 65112 32965 72904 10288 20096 3//// 4//// 80008 333 10355 5//// 87280
AAXX 09184 65125 31960 72804 10290 20067 30694 40097 70522 80008 333 10365 59011 87280
AAXX 09184 65208 31940 71902 10292 20130 39829 40087 70522 80008 333 10345 58001 87280
AAXX 09184 65271 11959 70000 10276 20109 30995 40093 60001 70522 80008 333 10346 58005 87280
BBXX 41036 09181 99342 70770 46/// ///// 10182 20137 40226 91820 22200 00172
AAXX 09184 91650 NIL
AAXX 09184 91652 NIL
AAXX 09184 91656 NIL
AAXX 09184 91659 NIL
AAXX 09184 91660 NIL
AAXX 09184 91669 36/// /13// 10258 20254 40123 52006
AAXX 09184 91670 36/// /0500 10263 20227 40117
AAXX 09184 91676 NIL
AAXX 09184 91680 11699 70000 10233 20220 40122 53010 60001 70311 81837 333 56999 81833 87279
AAXX 09184 91682 NIL
AAXX 09184 91683 11499 70000 10231 20230 40123 53003 69941 70282 83802 333 561/9 83818 87080
AAXX 09184 91691 NIL
AAXX 09184 91693 NIL
AAXX 09184 91697 NIL
AAXX 09184 91699 NIL
BBXX ZMKA 09183 99392 31730 41598 70208 10171 20164 40254 54000 70222 83779 22283 20200 322// 40501 80167
BBXX 9HA2479 09184 99292 31576 46/// /2114 10211 20169 30061 40090 52002 22254 04217 85184
BBXX C6FS9 09184 99193 31468 46/// /0708 10264 20241 30053 40088 57002 22200 04293 85247
BBXX VROB 09184 99068 31470 46/// /3313 10250 20228 30050 40075 57014 22200 04306 85234
BBXX FHZI 09184 99485 31455 46/// /0705 10105 20096 30053 40064 57021 22283 04105 85100
BBXX JPAT 09184 99095 30862 41598 72105 10267 20230 40069 57007 70311 8215/ 22243 00281 10805 299// 31823 40703 50701 85240
BBXX ZMKA 09183 99392 31730 41598 70208 10171 20164 40254 54000 70222 83779 22283 20200 322// 40501 80167
BBXX 9HA2479 09184 99292 31576 46/// /2114 10211 20169 30061 40090 52002 22254 04217 85184
BBXX C6FS9 09184 99193 31468 46/// /0708 10264 20241 30053 40088 57002 22200 04293 85247
BBXX VROB 09184 99068 31470 46/// /3313 10250 20228 30050 40075 57014 22200 04306 85234
BBXX FHZI 09184 99485 31455 46/// /0705 10105 20096 30053 40064 57021 22283 04105 85100
BBXX JPAT 09184 99095 30862 41598 72105 10267 20230 40069 57007 70311 8215/ 22243 00281 10805 299// 31823 40703 50701 85240
AAXX 09184 83552 32498 7//// 10345 20207 39934 4//// 873// 333 58004
AAXX 09184 83623 32996 7//// 1//// 2//// 39471 4//// 58034 86550
AAXX 09184 83630 21497 63208 10244 20188 3//// 4//// 52031 70352 83540 333 69961
AAXX 09184 83702 32599 62308 10291 20192 39327 40072 58013 86300
AAXX 09184 83704 32698 73602 10296 20221 39634 40033 58021 87200
AAXX 09184 83726 21597 80000 10224 20207 39128 40084 58027 71044 887// 333 60031
BBXX 44034 09181 99441 70681 46/30 /2110 10078 40249 56012 91804 22200 00092 11104 70019 333 91212 555 11125 22132
BBXX 44060 09181 99413 70721 46/// ///05 10079 91815 22200 00119 333 91206 555 11046 22051
BBXX 44022 09181 99409 70737 46/// ///07 10088 20028 91815 22200 00101 333 91209 555 11072 22072
BBXX 44029 09181 99425 70706 46/30 /1905 10079 40244 56023 91804 22200 00092 333 91206 555 11064 22067
BBXX 44030 09181 99432 70704 46/// /2106 1//// 40243 56017 91804 22200 00091 11102 70010 333 91209 555 11079 22084
BBXX 44040 09181 99410 70736 46/// /2107 10094 20035 91815 22200 10201 70003 333 91208 555 11088 22103
AAXX 09181 34691 32998 61105 11082 21172 30233 40220 54000 86030 333 11052
AAXX 09181 35700 32998 81106 11094 21124 30265 40240 58001 80006 333 11072
AAXX 09181 35746 329// 03605 11178 21204 30245 40318 58002 333 11130
AAXX 09181 35849 32998 00000 11164 21183 30214 40306 54000 333 11088
AAXX 09181 35953 329// 00503 11158 21177 30161 40300 57001 333 11056
AAXX 09181 35969 325// 80000 11096 21112 30116 40298 58004 886// 333 11052
AAXX 09181 38062 115// 80401 11075 21097 30114 40284 58001 69940 70272 886// 333 11030
AAXX 09181 38069 129// 80000 11040 21062 30079 40276 57001 69900 8801/ 333 11016
AAXX 09184 06610 32575 72209 10089 20045 39593 40175 57005 85831 333 10103 31/// 55300 20000 81830 85640 90766 93100 91129 91214
AAXX 09184 06670 01670 82410 10089 20057 39646 40154 53003 60012 76162 8172/ 333 10115 32/// 55300 20000 60015 81736 87546 90766 93100 91138 91220
AAXX 09184 06700 01682 72306 10085 20038 39699 40192 57004 69912 70282 8454/ 333 10100 31/// 55300 20000 60005 82635 84642 86357 90766 93100 91118 91214
AAXX 09184 06680 01/01 92523 11043 21043 37467 47001 57002 69942 74741 333 11037 47090 55300 20000 60005 90766 93100 91160 91244
AAXX 09184 06990 31960 31307 10081 21005 39620 40166 52006 71011 83020 333 10112 31/// 55300 20000 83462 91118 91210
AAXX 09184 06760 32880 50000 10071 21028 39750 40202 52003 85031 333 10080 30/// 55300 20000 85358 90766 93100 91104 91202
AAXX 09184 06720 32975 00601 10015 21004 39621 40212 52002 333 10063 30/// 55300 20000 90766 93100 91105 91203
AAXX 09181 21802 42999 00000 11385 21420 30172 40200 52007
AAXX 09181 24125 NIL
AAXX 09181 24136 42999 03602 11433 21468 30109 40227 52006
AAXX 09181 24143 42999 00000 11413 21444 30129 40186 57004
AAXX 09181 24266 41998 50000 11423 21448 30007 40211 52005 70272 80001
AAXX 09181 24329 42998 20000 11396 21422 39861 40207 52002 82010
AAXX 09181 24343 42998 22902 11376 21399 30050 40185 54000 80002
AAXX 09181 24382 41996 80000 11385 21413 39909 40096 54000 77172 82036
AAXX 09181 24639 41997 80000 11314 21342 39995 40165 53001 77177 80007
AAXX 09181 24641 41999 30000 11323 21352 30002 40161 53001 70271 80001
AAXX 09181 24652 42997 00000 11347 21377 30027 40166 57003
AAXX 09181 24656 41998 80101 11328 21357 30046 40161 57006 77173 80007
AAXX 09181 24671 42999 53302 11410 21438 39624 40209 57006 80001
AAXX 09181 24688 41998 80402 11424 21455 39214 40273 57004 77172 8801/
AAXX 09181 24724 41997 83103 11145 21165 39588 40136 55002 77172 8802/
AAXX 09181 24738 41997 80000 11305 21315 39964 40159 57001 77172 8802/
AAXX 09181 24768 42998 80000 11367 21402 39885 40149 57005 80007
AAXX 09181 24923 41596 82303 11088 21099 39813 40124 57014 78582 86907 333 86924
AAXX 09181 24944 41698 80000 11237 21255 39835 40148 57014 77172 85507
AAXX 09181 24951 41998 80000 11248 21266 39962 40142 56002 77177 86027
AAXX 09181 24661 41999 80000 11374 21401 39861 40161 57006 70272 80007
AAXX 09181 24959 41998 83301 11313 21342 30003 40146 57003 77172 80005
AAXX 09181 24962 41998 82201 11336 21365 39932 40142 57002 77172 83038
AAXX 09181 24966 41998 80000 11352 21374 39893 40138 57004 77172 80007
AAXX 09181 24967 41998 80000 11362 21390 39914 40162 57003 77177 80006
AAXX 09181 25206 41998 82101 11331 21353 30110 40141 57003 77177 80007
AAXX 09181 25400 41998 81401 11366 21394 30088 40150 54000 77172 80007
AAXX 09181 30054 41596 82102 11069 21089 39902 40146 57021 78582 84907
AAXX 09181 30089 41999 80000 11171 21183 39920 40154 55000 70272 8807/
AAXX 09181 30393 41998 82602 11247 21259 39042 40162 57005 77172 8802/
AAXX 09181 30493 41998 82701 11215 21240 39044 40153 57005 77172 80007
AAXX 09181 31004 41996 80000 11236 21248 39255 40149 57006 77172 82037
AAXX 09181 31137 41998 80000 11378 21399 39051 40225 58016 77172 80005
AAXX 09184 42309 31595 60000 10190 20174 40098 70522 81530 333 59022
AAXX 09184 42314 31595 70000 10202 20179 40120 70522 82530 333 59018 82620 86360
AAXX 09184 42410 21494 60000 10208 20192 40114 70522 83530 333 59022 6990/ 83618 86360
AAXX 09184 42415 31996 20000 10184 20171 40133 70500 82030 333 59022 82360
AAXX 09184 42492 31992 00000 10150 20143 40126 74644 333 59031
AAXX 09184 42587 31995 00000 10150 20136 40132 70500 333 59020
AAXX 09184 42591 31994 01804 10140 20140 40140 71000 333 59019
AAXX 09184 42623 31495 30000 10144 20112 39243 40125 70511 83500 333 59017 83618
AAXX 09184 42701 31995 02702 10148 20097 39399 40144 70500 333 59011
AAXX 09184 42706 31995 00000 10188 20147 40120 70500 333 59013
AAXX 09184 42724 31595 50000 10192 20179 40123 70522 82530 333 59006 82620 84360
AAXX 09184 42798 31995 00000 10178 20147 40125 70500 333 59012
AAXX 09184 42809 31995 00000 10180 20163 40118 70500 333 59014
AAXX 09184 42886 31996 00000 10174 20139 40133 70500 333 59010
AAXX 09184 42895 31996 00000 10188 20154 40121 70500 333 59013
AAXX 09184 42971 31995 02003 10196 20180 40129 70500 333 59007
AAXX 09184 43333 21495 80704 10252 20246 40102 76066 8542/ 333 56299 59011 6005/ 82616 84818 87456
AAXX 09184 42398 NIL
AAXX 09184 42977 NIL
AAXX 09184 43368 NIL
BBXX 46088 09181 99483 71232 46/// /0104 10044 40265 91820 22200 00082 1//00 70001 333 91205 555 11039 22040 31817 40105 61819 007039 004038 008036 007036 006037 006036
BBXX 46087 09181 99485 71247 46/// /1008 10058 20042 40259 91820 22200 00081 333 91210 555 11087 22091 31731 41011 61819 103082 099083 095083 097088 102088 102089
AAXX 09183 67765 41775 70902 10211 20168 38641 48484 70262 8147/ 333 10285 81650 87460
AAXX 09183 67775 42775 41407 10229 20133 38484 48488 84432 333 10279 84650
AAXX 09183 67867 42980 71210 10206 20135 38566 48494 87032 333 10260 87359
AAXX 09183 67881 42780 11803 10206 20122 38563 48491 81402 333 10270 81650
AAXX 09183 67965 41970 51316 10205 20138 38670 48494 70522 85030 333 10251 85360
AAXX 09183 67983 41770 20000 10193 20136 38873 48498 70500 81401 333 10257 81650
AAXX 09183 67991 42980 61306 10262 20148 39565 48490 86030 333 10270 86360
AAXX 09184 67765 41775 70902 10211 20168 38641 48484 70262 8147/ 333 10285 58019 81650 87460
AAXX 09184 67775 42775 41407 10229 20133 38484 48488 84432 333 10279 58015 84650
AAXX 09184 67779 NIL
AAXX 09184 67853 NIL
AAXX 09184 67861 NIL
AAXX 09184 67867 42980 71210 10206 20135 38566 48494 87032 333 10260 58026 87359
AAXX 09184 67881 42780 11803 10206 20122 38563 48491 81402 333 10270 58018 81656
AAXX 09184 67965 41970 51316 10205 20138 38670 48494 70522 85030 333 10251 58022 85360
AAXX 09184 67975 NIL
AAXX 09184 67977 NIL
AAXX 09184 67983 41770 20000 10193 20136 38873 48498 70500 81401 333 10257 58018 81650
AAXX 09184 67991 42980 61306 10262 20148 39565 48490 86030 333 10270 58034 86360
AAXX 09181 34691 32998 61105 11082 21172 30233 40220 54000 86030 333 11052
AAXX 09181 35700 32998 81106 11094 21124 30265 40240 58001 80006 333 11072
AAXX 09181 35746 329// 03605 11178 21204 30245 40318 58002 333 11130
AAXX 09181 35849 32998 00000 11164 21183 30214 40306 54000 333 11088
AAXX 09181 35953 329// 00503 11158 21177 30161 40300 57001 333 11056
AAXX 09181 35969 325// 80000 11096 21112 30116 40298 58004 886// 333 11052
AAXX 09181 38062 115// 80401 11075 21097 30114 40284 58001 69940 70272 886// 333 11030
AAXX 09181 38069 129// 80000 11040 21062 30079 40276 57001 69900 8801/ 333 11016
AAXX 09181 30157 41997 80000 11078 21096 39872 40161 57021 77172 8802/
AAXX 09184 40250 32560 42310 10100 20058 39374 40176 52004 84800 333 10154 82830 83635
AAXX 09184 40265 32560 51714 10114 20074 39402 40204 54000 85200 333 10154 85820
AAXX 09184 40296 32660 30000 10197 20104 40213 52011 83100 333 10255 83830
AAXX 09184 40310 32960 03009 10084 20018 38971 48512 54000 333 10160
BBXX ZCDF4 09183 99125 70704 41598 30520 10310 20261 40110 57020 70100 82144 22265 00290 20401 309// 40602 5//// 80275
BBXX WKAE 09184 99481 70309 41496 72317 10120 20102 40165 54000 74022 874// 22224 00110 20302 318// 40804 5//// 6//// 80110 ICE /////
BBXX A8PF6 09184 99440 70333 41697 82724 10160 20160 40230 54000 7//22 887// 22273 0//// 20402 327// 40606 5//// 6//// 80160 ICE /////
BBXX WDE8288 09184 99225 10601 41/98 03517 10250 2012/ 40170 54000 70000 80000 22284 0//// 20404 335// 40604 5//// 6//// 80170 ICE /////
BBXX WDC6923 09184 99264 10527 41598 30213 10220 20140 40190 51010 70200 83080 22274 00250 20201 301// 40302 5//// 6//// 80170 ICE /////
BBXX C6OM8 09180 99272 70204 41297 40507 10220 20173 40191 56010 70541 84678 22253 06221 20402 305// 40402 5//// 80191
BBXX SHIP 09184 99109 11303 41297 31016 00/// 10270 20257 40080 50005 70100 82163 9//// 22213 00321 2//// 3//// 4//// 5//// 6//// 80260 THNKS/B/REGARDS MASTER PACIFIC GLORY INM C - 443272110
BBXX UFLC 09180 99461 11416 42/98 92810 11022 40133 54000 89/// 22272 06030 20302
BBXX A8PX5 09184 99516 11613 41597 32835 10010 21016 49850 54000 70100 8/4// 22254 04030 21007 3//// 4//// 5//// 80000
BBXX SHIP 09184 99242 11415 41/97 73618 10237 40173 52003 70222 8//// 22241 00264
BBXX SHIP 09184 99362 11576 41694 73610 10110 20092 40026 52022 70011 86456 22264 399// 40209 80100
BBXX SHIP 09184 99222 11339 41297 80527 10230 20201 40142 56004 70322 8//// 22283 00267 20306 303// 4//// 5//// 80210
BBXX DCTA2 09180 99303 11608 41/98 72310 10238 20202 40130 51010 70222 87/3/ 22225 04210 2//03 330// 4//06 5//// 80213
BBXX SHIP 09184 99109 11303 41297 31016 00/// 10270 20257 40080 50005 70100 82163 9//// 22213 00321 2//// 3//// 4//// 5//// 6//// 80260 THNKS/B.REGARDS MASTER PACIFIC GLORY INM C - 443272110
BBXX 7JJA 09184 99170 11178 41696 80441 00 10260 20232 40090 57015 70755 886// 9//// 22221 0 2 12 304 4 12 5 6//// 80240 IC E/////
BBXX A8UX5 09184 99240 11187 41697 80340 10150 20113 40220 58005 7//// 8/77/ 22254 04205 20610 302// 40710 80130
BBXX SHIP 09184 99283 11598 41897 12615 10240 20223 40160 52004 70200 81040 22263 06244 20203 326// 40606 80228
BBXX JGQH 09184 99274 11370 41/97 83512 10189 20097 40196 55005 70282 882// 22200 00242 1//05 20301 399// 4//03 70026
BBXX JPBN 09184 99330 11484 41/97 82817 10180 20103 40100 53011 70222 882// 22261 00211 1//09 20503 399// 4//05 70043
BBXX A8VL5 09184 99102 11099 41/97 /0428 10250 20228 40220 55025 7//22 8/3// 22255 04260 2//06 80234
BBXX V7OX3 09184 99250 50448 41/98 83606 10250 20220 40060 57020 70222 87/7/ 22273 04260 2//02 3//// 4//// 5//// 80230
BBXX ZMFR 09184 99506 31683 43/// /33// 10095 20093 40261 52005 22251 00091
BBXX 3EAT6 09183 99154 31791 41698 31211 10281 20244 40115 52010 70300 8/400 22253 00290 20302 310// 40302
BBXX SHIP 09184 99084 30989 41498 53111 10277 20247 40078 57005 70122 84/// 22233 06279 11305 399// 4////
BBXX OXVE2 09184 99322 30720 41/98 60725 10180 20146 40242 7//// 8//// 22234 04200 20205 3//// 4//// 5//// 80160
BBXX 46112 09181 99481 71227 46/// /3104 10037 40265 57003 91800
BBXX 44033 09181 99441 70690 46/24 /2208 10078 40243 56018 91804 22200 00085 10601 70006 333 91210 555 11097 22103
BBXX 41037 09181 99340 70775 46/// /0506 10180 40212 57013 91800 22200 00205 333 91207
BBXX 41038 09181 99341 70777 46/// /0504 10162 40227 57020 91800 22200 00158 333 91205
BBXX 46204 09181 99514 71288 46/// /1403 10056 40257 57012 22200 00080 11502 70012 333 91204
BBXX VOXS 09184 99467 70480 41997 62729 10042 2003/ 40234 51025 70122 80008 22200 04028 20606 325// 40806 80038
BBXX 46131 09181 99499 71250 46/// /2703 1//// 40280 57001 22200 00070 10300 70001 333 91204
BBXX 46183 09181 99536 71311 46/// /1706 10059 40226 57017 22200 00080 1//// 70/// 333 912//
BBXX 9HA2064 09183 99352 71669 41797 61813 10180 20164 40250 54000 7//22 86171 22224 0//// 2//// 3//// 4//// 5//// 6//// 80170 ICE /////
BBXX 46147 09181 99518 71312 46/// /2204 10059 40245 57015 22200 00083 11405 70023 333 91206
BBXX 46088 09181 99483 71232 46/// /0104 10044 40265 91820 22200 00082 1//00 70001 333 91205 555 11039 22040 31817 40105 61819 007039 004038 008036 007036 006037 006036
BBXX 44098 09181 99428 70702 46/// ///// 1//// 91807 22200 00096 11003 21002 313// 41101 70013
BBXX 41114 09181 99276 70802 46/// ///// 1//// 91816 22200 00241 11103 20503 308// 41101 70013
BBXX 42364 09181 99291 70881 46/// /3603 10156 20078 40247 91815
BBXX 41115 09181 99184 70673 46/// ///// 1//// 91805 22200 11103 20803 303// 41101 70013
BBXX 42363 09181 99282 70892 46/// /0308 10178 20094 40251 91815 333 91209
BBXX 46114 09181 99364 71222 46/// ///// 1//// 91804 22200 00111 12004 21002 330// 42003 70018
BBXX 51205 09181 99210 71564 46/// ///// 1//// 91818 22200 00243 11505 20903 331// 41503 70023
BBXX 46221 09181 99339 71186 46/// ///// 1//// 91745 22200 00150 12201 20501 315// 42201 70006
BBXX WDE5381 09184 99277 71158 43/// ///// 1//// 2//// 4//// 5//// 7//// 8//// 22211 0//// 2//// 3//// 4//// 5//// 6//// ICE /////
BBXX WDC3786 09184 99227 71466 41498 70719 10211 2019/ 40195 52024 75022 87744 22224 00260 20402 301// 40605 5//// 6//// 80199 ICE /////
BBXX DDLK 09183 99430 70567 41698 33119 10069 20010 40295 52015 70111 81046 22263 20804 329// 41110 80043
BBXX 46211 09181 99469 71242 46/// ///// 1//// 91806 22200 00088 11804 21002 327// 41803 70019
BBXX 46242 09181 99332 71174 46/// ///// 1//// 91758 22200 00153 11201 20501 323// 41201 70005
BBXX 46231 09181 99327 71174 46/// ///// 1//// 91754 22200 00154 11202 20601 326// 41201 70008
BBXX 46222 09181 99336 71183 46/// ///// 1//// 91756 22200 00158 11101 20601 321// 41101 70006
BBXX 46223 09181 99335 71178 46/// ///// 1//// 91800 22200 00157 11201 20601 323// 41201 70005
BBXX 46240 09181 99366 71219 46/// ///// 1//// 91812 22200 00115 11101 21001 335// 41101 70007
BBXX 46217 09181 99342 71194 46/// ///// 1//// 91812 22200 00147 11301 21001 327// 41301 70006
BBXX 46212 09181 99408 71243 46/// ///// 1//// 91812 22200 00096 12004 20903 331// 42003 70022
BBXX 46237 09181 99378 71226 46/// ///// 1//// 91810 22200 00112 12203 21001 325// 42203 70015
BBXX 46216 09181 99343 71198 46/// ///// 1//// 91757 22200 00146 11401 21001 328// 41401 70005
BBXX 46241 09181 99330 71173 46/// ///// 1//// 91741 22200 00143 11401 20601 326// 41401 70005
BBXX 46244 09181 99409 71244 46/// ///// 1//// 91805 22200 00098 12004 20803 330// 42003 70021
BBXX 46248 09181 99461 71247 46/// ///// 1//// 91804 22200 00094 11804 21002 329// 41803 70019
BBXX 46249 09181 99338 71197 46/// ///// 1//// 91815 22200 00144 11401 20501 325// 41401 70006
BBXX ZCDF4 09183 99125 70704 41598 30520 10310 20261 40110 57020 70100 82144 22265 00290 20401 309// 40602 5//// 80275
BBXX 46207 09181 99509 71299 46/// /2304 10062 40257 57011 22200 00086 11404 70020 333 91205
BBXX C6VG8 09184 99300 70765 41/// /1111 10220 2//// 40200 52010 7//// 8//// 22284 00240 2//// 3//// 4//// 5//// 6//// 8//// ICE /////
BBXX 46111 09181 99481 71227 46/// /0204 10034 40265 54000 91800 22200 00062
BBXX 45137 09181 99455 70810 46/// /2511 11008 39954 40173 57006 22200 00057 10503 70014 333 91214
BBXX WDC6027 09184 99426 70875 43/98 /2714 11038 2//// 40251 5//// 7//// 8//// 22243 00033 2//02 3//// 4//// 5//// 6//// 8//// ICE /////
BBXX WE4805 09184 99444 70830 41/99 42723 11027 2//// 40207 53000 70201 841// 22233 00044 20302 3//// 4//// 5//// 6//// 8//// ICE /////
BBXX WQZ7791 09184 99468 70851 41/94 /0000 11177 2//// 40000 54000 73900 8//// 222// 0//// 2//00 3//// 4//// 5//// 6//// 8//// ICE /////
BBXX WKAE 09184 99481 70309 41496 72317 10120 20102 40165 54000 74022 874// 22224 00110 20302 318// 40804 5//// 6//// 80110 ICE /////
BBXX BAREU12 09184 99514 10025 46/// ///// 40093 52001 22264
BBXX BAREU62 09184 99409 10287 46/// ///// 40278 22274
BBXX A8IP2 09183 99516 70066 41597 43016 10085 20019 40141 54000 70311 83444 22274 20704 3//// 4//// 5//// 80055
BBXX 62304 09184 99511 10018 46/98 /2726 10086 20021 40113 53005 22200 00123 10602 70008 333 90710 91133
BBXX 62145 09184 99531 10028 47598 /2623 10060 20006 40074 51009 700// 22200 10708 70038
BBXX 62095 09184 99530 70159 46/// /2910 10071 20017 40174 55000 22200 00118 11010 70052
BBXX 62092 09184 99512 70105 46/// /3109 10087 20027 40162 51004 22200 00118 10909 70044
BBXX 62107 09184 99501 70061 46/// /3214 10092 20012 40155 52004 22200 00122 10905 70025
BBXX PHBO 09183 99432 70175 41596 82423 10146 20142 40190 51012 75552 883// 22254 20704 327// 40702 80144
BBXX 62305 09184 99504 10000 46/98 /2928 10094 20023 40139 53007 22200 00129 10602 70012 333 90710 91134
BBXX 62103 09184 99499 70029 46/// /3219 10093 20026 40138 57004 22200 00130 10803 70015 333 90710 91129
BBXX 62170 09184 99514 10020 46/97 /2629 10085 20024 40104 52004 22200 00119 10502 70011 333 90710 91137
BBXX 62094 09184 99517 70067 46/// /2917 10078 20032 40146 52005 22200 00115 10504 70019
BBXX 62143 09184 99577 10018 47997 /3130 10038 21029 49983 52031 700// 22200 10915 70075
BBXX AMOUK16 09184 99523 70063 46/// ///// 10045 20007 30137 40136 57006 91750
BBXX AMOUK06 09184 99507 70016 46/// ///// 10078 20027 30112 40128 52009 91750
BBXX 62155 09184 99577 10007 47998 /3037 10045 21035 49981 52027 700// 22200 10813 70063
BBXX 62118 09184 99577 10009 47997 /3036 10043 21047 49975 52028 771// 22200 10914 70070
BBXX 62116 09184 99576 10011 47697 /3030 10048 21030 49965 52032 700// 22200 10915 70076
BBXX 62153 09184 99573 10020 47497 /3133 10014 20011 49966 52032 700// 22200 10915 70074
BBXX 62104 09184 99574 10013 47998 /3036 10058 21043 49968 52032 700// 22200
BBXX 62117 09184 99579 10000 47996 /3039 10045 21012 49979 52027 700// 22200 10809 70047
BBXX 62140 09184 99573 10013 46/// /30// 10051 21039 49966 51034 22200
BBXX 62122 09184 99573 10016 47998 /2941 10052 21049 49960 52031 700// 22200 10914 70070
BBXX 62102 09184 99579 10018 46/// /2436 10034 21022 49946 52036 22200 10915 70074
BBXX 62134 09184 99580 10014 47997 /3132 10026 21025 49955 52032 700// 22200 11016 70079
BBXX ZQSD5 09184 99583 10007 46/// /3044 11001 21042 49956 52030 22200 11116 70078
BBXX 62114 09184 99583 10000 46/// /3043 10028 21055 49954 52035 22200
BBXX 62113 09184 99584 10002 47998 /3139 10042 21052 49943 52023 730// 22200
BBXX 62129 09184 99584 10003 46/// ///// 10031 21045 49953 52025 22200
BBXX 62142 09184 99530 10021 46498 /2823 10059 20017 40069 52010 22200 10607 70033
BBXX 62128 09184 99587 10014 47997 /2942 10023 21046 49946 52035 700// 22200 11017 70083
BBXX 62150 09184 99536 10007 47499 /2822 10048 20012 40082 52015 700// 22200 10807 70034
BBXX 62121 09184 99535 10027 46/// /3324 10052 21001 40054 52010 22200
BBXX 62144 09184 99534 10017 47598 /2721 10052 20010 40078 53009 700// 22200 10707 70033
BBXX 62148 09184 99536 10015 46/// /2822 10053 20011 40073 52013 22200
BBXX 62149 09184 99537 10011 47499 /2819 10053 20008 40069 52017 700// 22200 10706 70028
BBXX 62131 09184 99539 10012 46/// /29// 10058 20011 40060 52018 22200
BBXX 62127 09184 99540 10007 47599 ///// 10048 20003 40065 52019 700// 22200 10707 70033
BBXX 62123 09184 99563 10022 47698 /2933 10058 21033 49986 52027 700// 22200
BBXX 62165 09184 99540 10009 47598 /2914 10057 21004 40070 52020 700// 22200 10707 70033
BBXX 62132 09184 99564 10020 46/// /3230 10055 21030 40011 52014 22200
BBXX 62120 09184 99564 10021 469// /3135 10050 21042 49995 52026 22200
BBXX 62154 09184 99564 10022 46/// /3130 10052 21043 49987 53024 22200
BBXX 62152 09184 99570 10018 47/95 /3027 10052 21027 49992 52026 740// 22200 10913 70067
BBXX 62119 09184 99570 10019 466// /3035 10052 21041 49993 52024 22200 10914 70071
BBXX 62133 09184 99571 10009 46/// /2934 10050 21046 49988 52023 22200 10913 70063
BBXX PJGO 09184 99571 10022 46/// ///// 22200
BBXX 62146 09184 99572 10021 47/98 /3238 10037 21018 49982 52023 700// 22200 10915 70076
BBXX 62164 09184 99572 10008 47697 /2834 10059 21005 40000 52026 700// 22200 00101 10913 70067
BBXX 64041 09184 99607 70026 47996 /2943 10007 21026 49920 52011 700// 22200 11119 70096
BBXX MWYG6 09184 99603 70040 47998 /3141 10027 700// 22200
BBXX 63115 09184 99616 10013 47598 /3125 10055 20030 49786 53010 700// 22200 11015 70075
BBXX 63104 09184 99612 10016 47396 /3029 10048 20029 49777 53015 762// 22200
BBXX 63117 09184 99613 10011 47498 /3131 10047 20017 49788 53010 700// 22200
BBXX 63103 09184 99612 10011 46/// /3042 10043 20019 49799 52006 22200 11016 70082
BBXX 63107 09184 99611 10017 46/// /2931 10045 49779 53009 22200
BBXX 63112 09184 99611 10010 47/96 /3148 10032 20005 49785 53004 751// 22200 11118 70088
BBXX 63101 09184 99612 10009 46/// /3240 10040 20022 49789 53006 22200
BBXX 63113 09184 99610 10017 46/// /3041 10032 20031 49820 52017 22200 11018 70088
BBXX 63105 09184 99610 10017 47496 ///// 10046 20023 49778 53010 751// 22200
BBXX 63106 09184 99610 10017 46/// /2937 10040 49780 53015 22200
BBXX 63108 09184 99608 10017 47495 /3041 10015 21009 49811 52018 762// 22200 11117 70086
BBXX 63055 09184 99606 10016 47996 /2842 10025 20004 49829 52023 761// 22200 11018 70092
BBXX 62112 09184 99584 70002 47998 /3027 10023 21044 49963 52026 762// 22200
BBXX PJAI 09184 99581 70014 47598 /3127 10045 21033 40004 53024 700// 22200
BBXX 62111 09184 99580 70003 46/// /3334 10040 21046 49998 52018 22200 10811 70057
BBXX 63057 09184 99592 10015 47496 /2942 10034 21013 49889 52033 700// 22200 11016 70078
BBXX AMOUK09 09184 99525 10017 46/// ///// 10038 20006 30074 40090 52004 91750
BBXX AMOUK11 09184 99533 70061 46/// ///// 10041 21002 30076 40120 52040 91750
BBXX 63056 09184 99597 10016 47596 /2943 10027 21013 49850 52026 771// 22200 11017 70086
BBXX AMOUK19 09184 99571 70021 46/// ///// 10027 21036 30041 40047 52025 91750
BBXX AMOUK27 09184 99579 70052 46/// ///// 1//// 2//// 30053 40053 52004 91750
BBXX AMOUK08 09184 99501 70061 46/// ///// 10096 20028 30150 40155 54002 91750
BBXX AMOUK21 09184 99572 70073 46/// ///// 10025 21018 30083 40078 52006 91750
BBXX AMOUK13 09184 99519 10017 46/// ///// 10064 20020 30087 40090 52012 91750
BBXX AMOUK05 09184 99519 10041 46/// ///// 10083 20006 30040 40080 52006 91750
BBXX AMOUK12 09184 99533 70054 46/// ///// 10061 20015 30082 40122 52017 91750
BBXX AMOUK14 09184 99535 70030 46/// ///// 10063 20017 30059 40098 52020 91750
BBXX 62442 09184 99490 70164 46/// /3414 1//// 2//// 40198 53006 22200 00133
BBXX AMOUK02 09184 99535 70031 46/// ///// 10060 20012 30062 40092 54000 91750
BBXX 62105 09184 99554 70122 46/// /2919 10074 20012 40116 51002 22200 00110 10911 70055 333 90710 91127
BBXX 62027 09184 99491 70022 46/// /3009 1//// 2//// 40145 57004 22200 00128 11303 329// 70016
BBXX 62081 09184 99510 70134 46/// ///// 10074 20029 40178 51004 22200 00121 10908 70042
BBXX 64045 09184 99591 70117 46/// /0107 10038 21036 40082 52001 22200 00102 11013 70065
BBXX 62029 09184 99487 70125 46/// /3613 10096 20037 40176 53003 22200 00138 10907 70036
AAXX 09184 67765 41775 70902 10211 20168 38641 48484 70262 8147/ 333 10285 58019 81650 87460
AAXX 09184 67775 42775 41407 10229 20133 38484 48488 84432 333 10279 58015 84650
AAXX 09184 67779 NIL
AAXX 09184 67853 NIL
AAXX 09184 67861 NIL
AAXX 09184 67867 42980 71210 10206 20135 38566 48494 87032 333 10260 58026 87359
AAXX 09184 67881 42780 11803 10206 20122 38563 48491 81402 333 10270 58018 81656
AAXX 09184 67965 41970 51316 10205 20138 38670 48494 70522 85030 333 10251 58022 85360
AAXX 09184 67975 NIL
AAXX 09184 67977 NIL
AAXX 09184 67983 41770 20000 10193 20136 38873 48498 70500 81401 333 10257 58018 81650
AAXX 09184 67991 42980 61306 10262 20148 39565 48490 86030 333 10270 58034 86360
AAXX 09184 89050 41292 83414 10012 20010 49908 54000 74442 886//
AAXX 09184 89512 31996 81338 11053 21090 39492 49639 52010 73832 8801/ 333 11051
AAXX 09184 89574 42598 61401 11039 21092 49720 52022 81531
AAXX 09184 89592 41395 80913 11038 21045 49618 57007 77373 8802/
AAXX 09184 89606 42998 53404 11388 21456 36201 47832 54000 80001 333 11279
BBXX 62163 09184 99475 70084 46/// /0410 10090 20051 40166 51003 22200 00134 10907 70036
BBXX 62001 09184 99452 70050 46/// /2618 10137 20111 40172 58006 22200 00152 10908 70041
BBXX 64046 09184 99606 70049 46/// /3333 10024 21035 49990 53002 22200 00097 11016 70081
BBXX 62303 09184 99516 70051 46/// /3017 10081 20007 40136 52007 22200 00120 10605 70023 333 90710 91125
BBXX 62301 09184 99524 70047 46/// /2919 10071 20008 40120 51006 22200 00108 10504 70022 333 90710 91127
BBXX 63110 09183 99595 10015 41/96 /3055 10027 21013 49871 79087 8//// 22200 11016 70080
BBXX BATFR20 09184 99432 10053 44/98 02408 10137 20095 40206 70000 22234 20000
BBXX KSDF 09184 99336 10248 41498 10510 10161 20091 40260 53010 70100 811// 22233 0//// 20301 330// 40603 5//// 6//// 80122 /////
BBXX TESTFR9 09184 99503 70042 46/// /2917 10082 29061 40164 52005 22274
BBXX BATFR27 09184 99508 70011 46/// /2830 10097 20020 40124 56006 22282 00122
BBXX V2OT9 09183 99372 10114 41598 51810 10185 20118 40250 54000 70000 82100 22283 20201 30000 4//// 5//// 80145
BBXX BAREU63 09184 99381 10156 46/// /0408 10171 29080 40249 54000 22243
BBXX BATFR11 09184 99381 10068 46/// /3101 10169 20134 40224 58008 22262 00190
BBXX BAREU05 09184 99434 10049 46/// ///// 40210 22200
BBXX BATFR15 09184 99499 70032 46/// /2917 10094 20029 40139 53003 22254 00134
BBXX PBEO 09183 99367 10002 41597 82210 10160 20112 40229 53002 70300 8//// 22262 02175 20201 30000 80132
BBXX 61002 09184 99421 10047 46/// ///02 10140 2//// 40214 57004 22200 00155 10401 70005
BBXX BATUK01 09184 99563 70025 44/97 02714 10039 21032 40062 51016 700// 22211 00099
BBXX 61001 09184 99434 10078 46/// /2220 10152 20116 40180 54000 22200 00158 10604 70019
BBXX BATEU06 09184 99514 10041 46/// /2212 10052 20009 40102 51003 22223 00087
BBXX BATFR42 09184 99503 70018 46/// /2923 10087 20024 40137 22243 00132
BBXX BAREU06 09184 99391 70151 46/// ///// 40238 57006 22264
BBXX BATEU08 09184 99595 70156 46/// /0614 10025 21030 40082 55002 22222
BBXX BATFR01 09184 99423 10073 46/// /2416 10152 20117 40207 55/// 22232 00172
BBXX BATFR46 09184 99433 10053 46/// /0204 10114 20062 40209 22251 00162
BBXX BATFR10 09184 99308 70132 44598 70517 40222 58002 70222 8712/ 22253 00202 20302
BBXX BATEU02 09184 99529 70111 46/// /3013 10074 21010 40148 52005 22200 00112
BBXX BATFR52 09184 99503 70042 46/// /2921 10087 21002 40155 58001 22284 00117
BBXX BATEU05 09184 99618 70108 46/// /3324 11010 21082 40061 51023 22262
BBXX BATFR54 09184 99525 70055 46/// /2828 10065 21001 40127 22243 00119
BBXX BATFR12 09184 99483 70072 46/// /3505 10099 20039 40167 52002 22261 00145
BBXX BATFR09 09184 99374 10025 44497 82302 10157 20117 40222 50/// 70322 8771/ 22222 00192 20000 30000 40000 50000
BBXX BATFR16 09184 99444 70225 44096 83409 10129 40227 53002 72022 887// 22214 00145 20000 60/// ICE 0////
BBXX BAREU61 09184 99364 70027 46/// /3102 10154 29072 40219 57001 22264
BBXX LF4B 09184 99606 10037 47/97 /2938 10043 49782 52034 781// 22200 00038 11016 70079 333 91146
BBXX LF5T 09184 99660 10081 43/// /0829 10044 21024 49852 52015 22200 10808 70038 333 91142
BBXX LF4C 09184 99584 10019 41597 83039 10041 21034 49926 52036 72582 89/// 22200 00077 10914 70068 333 91153
BBXX LF3N 09184 99653 10073 41597 80930 10044 21002 49810 52018 75022 8//// 22200 00092 10811 70054
BBXX 3ERR2 09184 99635 10053 41898 20719 10059 20004 49760 52016 70122 81071 22200 06098 11106 70028 333 91125
BBXX LF3F 09184 99643 10078 43/// /0727 10044 21004 49783 52013 22200 04093 10707 70036 333 91134
BBXX A8NQ5 09183 99505 70165 41398 53316 10105 20032 40180 57010 70222 845// 22224 04116 20304 332// 40505 80070
BBXX IDDUK02 09184 99676 50681 46/// ///// 49794 222//
BBXX C6WK7 09184 99361 70046 41798 12210 1//// 2//// 40240 54/// 7//11 81/1/ 22274 04180 20200 3//// 40200 5//// 6//// 8//// ICE /////
AAXX 09184 64005 NIL
AAXX 09184 64040 NIL
AAXX 09184 64210 12465 40000 10242 20224 39719 40067 60052 84500 333 10260 59008 84618
AAXX 09184 64360 NIL
AAXX 09181 55299 32880 70701 11084 21196 35826 57003 874// 333 05503 10045
AAXX 09181 55591 32980 02902 10055 21191 36469 52010 333 05605 10164
AAXX 09181 56739 32578 33602 10087 20065 38355 52001 83400 333 05100 10195
AAXX 09181 56951 32775 20000 10105 20083 38512 52002 82400 333 05151 10227
AAXX 09181 56964 32565 71402 10158 20133 38721 40140 52002 874// 333 05151 10231
AAXX 09181 57328 11858 80901 10058 20028 39933 40360 52005 69901 71060 885// 333 10065
AAXX 09181 57411 11458 83601 10063 20040 39977 40363 52007 69931 76066 8672/ 333 10082
AAXX 09181 57447 11962 82501 10047 20034 39803 40368 52003 69901 76060 8802/ 333 10054
AAXX 09181 57662 32963 80401 10053 21051 30329 40374 57002 8807/ 333 10089
AAXX 09181 57745 32960 80402 10046 21066 30025 40365 54000 8807/ 333 10095
AAXX 09181 57972 32960 83202 10044 21025 30107 40341 54000 8807/ 333 10075
AAXX 09181 58203 31956 02002 11033 21063 30327 40371 57008 71000 333 10036
AAXX 09181 58314 32965 02001 11039 21039 30259 40372 57004 333 10047
AAXX 09181 58424 32962 00702 10000 21075 30342 40369 57004 333 10043
AAXX 09181 59023 32868 80705 10100 21023 39990 40308 52013 885// 333 10127
AAXX 09181 59417 32567 80902 10132 20041 30112 40269 52004 888// 333 10170
AAXX 09181 59985 11568 80408 10226 20211 30145 40150 57009 60011 72580 882// 333 10251
AAXX 09181 59995 NIL
BBXX YJUF7 09184 99448 70592 41998 32711 10043 2104/ 40288 55010 70111 80001 22261 00058 20402 32329 40805 50704 80010
AAXX 09184 94996 45458 80516 10201 20178 39974 40110 53005 91830
BBXX 46185 09181 99524 71298 46/// /2105 10062 40247 57014 22200 00072 11701 70007 333 91207
AAXX 09184 94996 45458 80516 10201 20178 39974 40110 53005 91830
BBXX 46185 09181 99524 71298 46/// /2105 10062 40247 57014 22200 00072 11701 70007 333 91207
BBXX YJUF7 09184 99448 70592 41998 32711 10043 2104/ 40288 55010 70111 80001 22261 00058 20402 32329 40805 50704 80010
AAXX 09181 24790 41999 00000 11433 21456 39300 40242 57007 77670
AAXX 09181 24988 42999 02803 11241 21266 39809 40079 57004
AAXX 09181 25378 11797 73303 11117 21161 30008 40042 52003 69902 70272 82550 333 21124 48006 91107
AAXX 09181 25503 41999 40000 11423 21443 30012 40160 56003 70272 80001
AAXX 09181 25705 41998 82102 11333 21356 39773 40141 57003 77172 85037
AAXX 09181 25927 42998 03106 11217 21257 30017 40024 57006
AAXX 09181 25932 42699 60607 11120 21155 39945 49985 54000 86500 333 91111
AAXX 09181 31152 42997 81802 11300 21330 39693 40135 57010 86036
AAXX 09181 31174 42999 20301 11241 21248 30074 40087 57003 80001
AAXX 09181 31489 42998 72001 11240 21265 39996 40122 58008 80006
AAXX 09181 31866 42999 83403 11137 21208 30121 40127 55001 8801/ 333 91113
AAXX 09181 31959 42999 82901 11124 21207 30116 40161 57003 83032
AAXX 09181 31989 42999 00105 11073 21217 30123 40178 54000
AAXX 09181 32027 42999 00000 11221 21233 30081 40090 57001 333 91000 91103
AAXX 09181 32076 42998 02904 11173 21192 30069 40080 58001 333 91005 91105
AAXX 09181 32099 42598 53207 11080 21148 30083 40091 54000 85200 333 91009 91111
AAXX 09181 32121 41997 51401 11139 21159 30073 40097 57003 70281 85030 333 91003 91104
AAXX 09181 32213 41598 12909 11048 21058 39766 49833 53010 73631 81500 333 91012 91112
AAXX 09181 32287 42999 31503 11277 21295 39949 49960 54000 83030
AAXX 09181 32408 41397 83204 11124 21151 39832 49871 57013 78583 889// 333 91114 92980
AAXX 09181 32509 41998 83315 11070 21192 39816 49850 57007 73631 80001 333 91020 91121
AAXX 09181 32594 42598 60308 11081 21127 39903 49940 53015 85301 333 91010 91113
AAXX 0918/ 89828 46/// ///// 11393 36405 4//// 5//// 91810
AAXX 09184 42027 32596 80000 10062 20023 38460 48547 8352/ 333 58022
AAXX 09184 42101 31995 00000 10164 20157 40142 70500 333 58004
AAXX 09184 42111 21595 00000 10116 20109 39359 40146 71000 333 59013
AAXX 09184 42131 32996 00000 10124 20101 40156 333 58030
AAXX 09184 42165 32996 00000 10130 20020 40160 333 58017
AAXX 09184 42182 31993 00000 10164 20150 40139 74440 333 58003
AAXX 09184 42328 32996 00000 10146 21040 40163 333 58014
AAXX 09184 42339 31995 00502 10180 21013 40148 70500 333 58012
AAXX 09184 42348 31995 03403 10172 21005 40148 70500 333 58022
AAXX 09184 42361 31994 03202 10200 20164 40137 71044 333 59001
AAXX 09184 42369 31991 20000 10162 20148 40129 74440 82030 333 59026 82360
AAXX 09184 42379 31991 00000 10136 20117 40123 74640 333 59023
AAXX 09184 42452 32996 03602 10202 20093 40143 333 58014
AAXX 09184 42475 31994 00000 10180 20160 40127 71000 333 59023
AAXX 09184 42071 NIL
AAXX 09184 42189 NIL
AAXX 09184 42260 NIL
AAXX 09181 23074 41497 82304 11038 21046 30196 40221 52007 78582 889//
AAXX 09181 23274 41397 82903 11042 21045 30226 40262 52010 78582 889// 333 86707
AAXX 09181 23383 41497 81401 11052 21062 39871 40226 52011 78582 87901
AAXX 09181 23472 41597 82603 11038 21060 30235 40284 52012 78583 889//
AAXX 09181 23678 425// 82602 11032 21049 30257 40317 52008 889//
AAXX 09181 23884 419// 82001 11067 21076 30261 40337 52006 70272 8802/
AAXX 09181 23891 41596 62103 11054 21083 39937 52008 78582 86900
AAXX 09181 24507 419// 83203 11090 21097 39948 40196 52011 77172 80007
AAXX 09181 24817 419// 80000 11079 21089 39778 40149 56001 77172 80006
AAXX 09181 24908 41497 82701 11069 21090 39882 40218 52012 78582 889//
AAXX 09181 29263 41959 72702 11103 21131 30241 40346 53002 77172 84032
AAXX 09181 29282 41562 82503 11059 21086 30127 40302 52008 78582 889//
AAXX 09181 29379 42998 83202 11073 21103 30121 40336 54000 80002
AAXX 09181 29570 42896 53101 11067 21104 39995 40354 57003 83031
AAXX 09181 29698 429// 81702 11101 21132 39791 40326 57009 84042
AAXX 09181 30230 41596 82403 11055 21069 39851 40180 56005 78582 8697/
AAXX 09181 30252 416// 80000 11097 21109 39844 40165 57022 78582 889//
AAXX 09181 30309 41599 82803 11049 21066 39740 40268 57001 78582 8391/
AAXX 09181 30328 415// 80501 11083 21102 39801 40237 57002 78582 889//
AAXX 09181 30521 415// 82802 11014 21047 39714 40236 57021 70282 889//
AAXX 09181 30710 42997 80000 11062 21074 39713 40310 57017 80002
AAXX 09181 23973 41597 81802 11076 21085 30281 40345 52005 77172 8672/
AAXX 09181 23975 425// 82702 11085 21104 30244 40358 52007 889//
AAXX 09181 23986 41499 82503 11092 21099 39670 40327 52005 70182 8632/
AAXX 09181 23987 41497 82301 11098 21124 30275 40352 52005 78582 889//
AAXX 09181 24606 419// 80000 11100 21106 39897 40171 53007 77372 8802/
AAXX 09181 29253 429// 80000 11120 21145 30184 40363 53003 8802/
AAXX 09181 29471 42598 73002 11084 21107 30116 40353 58001 86930 333 86922
AAXX 09181 29481 42999 83101 11077 21108 30089 40336 54000 80007
AAXX 09181 29553 42972 02701 11140 21153 39991 40380 57004
AAXX 09181 29562 42984 21801 11125 21145 39936 40376 57005 80002
AAXX 09181 29581 429// 72702 11090 21110 30076 40345 56001 80005
AAXX 09181 29594 42999 82804 11052 21102 39923 40318 57017 82031
AAXX 09181 29653 42997 01702 11237 21256 39875 40412 57010
AAXX 09181 29675 42998 20000 11138 21194 39760 40388 57013 80009
AAXX 09181 29676 42998 80000 11163 21182 39903 40356 57011 80007
AAXX 09181 29752 429// 00000 11045 21233 38911 48560 57010
AAXX 09181 29759 429// 00000 11109 21122 39318 40393 57012
AAXX 09181 29766 42999 71101 11207 21219 30030 40420 57009 80001
AAXX 09181 29789 42999 80000 11170 21176 39141 40405 57009 80007
AAXX 09181 29864 429// 03204 11170 21182 39706 40407 57011
AAXX 09181 29866 419// 80501 11126 21132 30055 40395 57008 71022 8802/
AAXX 09181 29869 419// 83601 11122 21128 30005 40402 57007 71011 8802/ 333 95090
AAXX 09181 29956 41/06 90000 11108 21114 39806 40395 57014 74941
AAXX 09181 30337 41595 80000 11075 21085 39762 40218 57003 78682 889//
AAXX 09181 30405 429// 32601 11068 21011 39760 40302 57007 83030
AAXX 09181 30504 42597 73002 11022 21135 39651 40304 57009 82530
AAXX 09181 30603 42697 83002 11006 21069 39721 40291 57011 84507
AAXX 09181 30612 415// 83204 11019 21050 39749 40284 57016 70282 82939
AAXX 09181 30622 419// 80000 11115 21121 39600 40269 57027 70172 86033
AAXX 09181 30627 42999 82803 11029 21056 39319 40285 57028 80006
AAXX 09181 30703 429// 80000 11117 21123 39634 40337 57011 82071
AAXX 09181 36307 42897 63301 11206 21213 39124 48623 57011 84032 333 95090
AAXX 09183 42071 31995 22904 10134 20111 40153 70521 82030 333 58015 82360
AAXX 09184 71351 16/// /2604 10010 21064 60001 333 10010 21178 70010
AAXX 09184 71353 16/// /2510 11020 21090 60001 333 11017 21133 70006
AAXX 09184 71385 46/// /2610 11007 6///1 333 10032 7////
AAXX 09184 71257 16/// /2007 11053 21100 60001 333 11053 21169 70010
AAXX 09184 71258 16/// /2113 11012 21085 60001 333 11012 21119 70000
AAXX 09184 71259 16/// /2407 11047 21095 60001 333 11047 21191 70000
AAXX 09184 71274 16/// /2603 11048 21088 60001 333 11047 21239 70000
AAXX 09184 71275 46/// /2406 11046 21078 6///1 333 11046 21230 7////
AAXX 09184 71278 16/// /2504 11012 21059 60001 333 11012 21222 70004
AAXX 09184 71286 16/// /2608 11012 21061 60001 333 11012 21202 70000
AAXX 09184 71287 16/// /2406 11043 21078 60001 333 11043 21211 70000
AAXX 09184 71289 16/// /2408 10005 21067 60001 333 21160 7////
AAXX 09184 71462 46/// /2918 11024 21075 39958 58001 6///1 333 7////
AAXX 09184 71466 46/// ///// 10014 39983 40224 6///1 333 7////
AAXX 09184 71445 16/// /3013 11170 21205 39920 40210 50002 60001 333 11148 21181 70000
AAXX 09184 71525 16/// /2212 11021 21056 60001 333 11021 21139 70000
AAXX 09184 71535 16/// /2414 10024 21049 60001 333 10024 21096 70000
AAXX 09184 71536 16/// /2414 10015 21057 60001 333 10016 21106 7////
AAXX 09184 71537 16/// /2507 11046 21087 60001 333 11046 21189 7////
AAXX 09184 71345 16/// /2213 10016 21059 60001 333 10016 21092 70000
AAXX 09184 71751 46/// /2714 11124 21181 39920 40188 50002 6///1 333 11113 21145 7////
AAXX 09184 71916 46/// /3202 11327 21355 30028 40086 55003 6///1 333 11292 21331 7////
AAXX 09184 71214 16/// /2510 11014 21079 60001 333 11013 21200 70006
AAXX 09184 71223 16/// /2410 11017 21081 60001 333 11017 21187 70000
AAXX 09184 71225 16/// /2106 10009 21061 60001 333 10010 21094 70000
AAXX 09184 71227 46/// /2611 11007 21061 6///1 333 11007 21194 7////
AAXX 09184 71683 46/// /2504 11082 39892 40002 50001 6///1 333 11081 21173 7////
BBXX JPBN 09184 99330 11484 41/97 82817 10180 20103 40100 53011 70222 882// 22261 00211 1//09 20503 399// 4//05 70043
BBXX SMGW 09181 99380 11219 43/97 82707 10005 40286 58010 22274 00112 2//// 4////
BBXX UFLC 09180 99461 11416 42/98 92810 11022 40133 54000 89/// 22272 06030 20302
AAXX 09181 51711 32980 12502 11135 21161 38106 57008 80002 333 05252 11050
AAXX 09181 51730 32975 00000 11097 21117 40422 57004 333 05101 10013
AAXX 09181 52112 32980 01403 11088 21194 40423 57008 333 05500 10015
AAXX 09181 52737 32980 00202 11122 21252 37108 57007 333 05101 11024
AAXX 09181 52787 32980 03203 11185 21249 37070 57006 333 00155 11131
AAXX 09181 53352 32980 00901 11172 21209 40442 57015 333 11112
AAXX 09181 53593 32970 00000 11141 21182 40398 57005 333 11062
AAXX 09181 53705 32970 02202 11102 21130 40475 57008 333 00255 11020
AAXX 09181 53863 32970 02503 11052 21156 40402 57004 333 11004
AAXX 09181 53975 32975 02903 11040 21150 40382 57005 333 10024
AAXX 09181 54273 32970 00000 11256 21287 40290 57012 333 11115
AAXX 09181 54324 32970 02202 11094 21199 40280 57015 333 11029
AAXX 09181 54405 32980 02205 11099 21188 40369 57005 333 11043
AAXX 09181 54436 32980 00000 11132 21158 40313 57008 333 11023
AAXX 09181 54808 32962 01801 11041 21074 40343 57015 333 10007
AAXX 09181 54826 32980 03412 11129 21198 38497 57006 333 11096
AAXX 09181 54836 32968 02702 11058 21121 40347 57010 333 11009
AAXX 09181 54863 11970 02502 11050 21100 40321 57011 69901 70080 333 10002
AAXX 09181 56018 32680 70000 11065 21179 36160 54000 879// 333 05402 10023
AAXX 09181 56021 32980 70000 11125 21215 36064 54000 80002 333 05302 11019
AAXX 09181 57071 32968 02904 10000 21123 40370 57006 333 10043
AAXX 09181 47090 32668 12904 11026 21118 30209 40232 56007 81500 333 92042
AAXX 09181 47095 32962 03601 11096 21116 30080 40282 56001
AAXX 09181 47097 329// /0000 11066 21146 30183 40285 52005
AAXX 09181 47098 329// /0701 11074 21132 30135 40278 58001
AAXX 09181 47099 329// /1401 11084 21107 30240 40279 57004
AAXX 09181 47100 32965 02506 11094 21130 39300 40268 53002
AAXX 09181 47102 32670 72713 11023 21092 30093 40278 55007 87500
AAXX 09181 47104 32670 11603 11052 21100 30139 40241 55001 81500
AAXX 09181 47106 329// /2304 11033 21087 30187 40238 56004
AAXX 09181 47112 32970 00204 11021 21124 30188 40276 57006 333 92012
AAXX 09181 47114 32964 02503 11050 21140 30091 40283 52011
AAXX 09181 47119 32970 02002 11049 21119 30237 40281 57004
AAXX 09181 47121 329// /2703 11059 21072 39969 40279 52004
AAXX 09181 47127 329// /2504 11042 21085 30139 40288 52010
AAXX 09181 47129 41562 83602 11021 21066 30249 40286 57006 78582 888//
AAXX 09181 47130 32668 22309 11018 21087 30173 40237 54000 82500 333 92033
AAXX 09181 47131 32963 00001 11037 21112 30212 40286 51007
AAXX 09181 47135 329// /2515 11039 21085 39967 40280 52006
AAXX 09181 47136 32970 02903 11045 21084 30090 40271 52007
AAXX 09181 47137 329// /2506 11036 21098 30154 40278 52006
AAXX 09181 47140 32662 71102 11025 21059 30258 40288 54000 87500 333 92011
AAXX 09181 47143 32970 02706 11014 21102 30197 40279 52006
AAXX 09181 47145 32663 21402 11056 21085 30250 40278 50002 82500
AAXX 09181 47146 32663 61401 11036 21063 30219 40288 50003 85500
AAXX 09181 47150 41565 70201 11014 21088 30263 40283 56003 78582 87800
AAXX 09181 47152 32970 03406 11011 21094 30203 40247 58001
AAXX 09181 47154 329// /2907 11018 21092 30212 40275 52004
AAXX 09181 47155 32970 03404 11007 21088 30213 40260 50004
AAXX 09181 47156 32668 60505 11005 21068 30195 40287 55001 86500
AAXX 09181 47157 32970 03201 11052 21094 39980 40264 50003
AAXX 09181 47162 32972 00509 10000 21097 30222 40264 50006 333 92023
AAXX 09181 47169 41565 73415 10033 21014 30187 40283 57007 78582 87800 333 92064
AAXX 09181 47170 32668 63403 10009 21041 30238 40283 55005 86500 333 92022
AAXX 09181 47171 329// /0000 11024 21047 30231 40288 50001
AAXX 09181 47172 329// /3602 11007 21055 30213 40282 51001
AAXX 09181 47173 329// /2902 11056 21074 30173 40290 50004
AAXX 09181 47174 32665 32906 11027 21087 30067 40278 50002 83500
AAXX 09181 47175 41562 63409 11023 21031 39687 40282 55009 72682 86500 333 92023
AAXX 09181 47185 41565 73224 10059 20002 30181 40274 56004 78082 87800 333 92056
AAXX 09181 47188 41670 73602 10037 20012 30251 40273 55004 72588 87500 333 92032
AAXX 09181 47189 32565 62908 10060 21023 30205 40266 55007 85800 333 92033
AAXX 09181 47192 32968 00000 11046 21076 30231 40270 50004
AAXX 09181 47008 42970 03201 11073 21116 30168 40225 57001
AAXX 09181 47014 42950 00000 11202 21221 39863 40306 53001
AAXX 09181 47016 42970 30501 11208 21248 39380 40290 53002 80002
AAXX 09181 47020 42965 00000 11140 21167 39891 40299 58005
AAXX 09181 47025 42961 00000 11084 21107 30196 40227 57013
AAXX 09181 47035 42965 03601 11110 21135 30283 40272 57002
AAXX 09181 47041 42970 00000 11098 21119 30200 40229 57013
AAXX 09181 47055 42965 00000 11061 21113 30197 40245 57007
AAXX 09181 47058 42960 00000 11069 21102 30232 40282 57004
AAXX 09181 47069 42565 13202 11039 21084 30168 40272 58009 81500
AAXX 09181 47003 42980 02705 11055 21216 30220 40224 54000
AAXX 09181 47005 42980 01802 11210 21235 38582 57004
AAXX 09181 47022 NIL
AAXX 09181 47028 42962 00000 11119 21154 30179 40281 57010
AAXX 09181 47031 42970 80000 11204 21216 38933 58004 80002
AAXX 09181 47037 42970 03201 11082 21167 30143 40172 57003
AAXX 09181 47039 42960 00000 11112 21132 30081 40285 57002
AAXX 09181 47046 42969 80000 11061 21092 30199 40223 57010 80002
AAXX 09181 47050 42965 00000 11092 21132 30235 40271 52001
AAXX 09181 47052 42965 00000 11146 21166 39929 40295 52005
AAXX 09181 47060 42960 80701 11036 21093 30217 40277 57006 8804/
AAXX 09181 47061 42980 03202 11041 21105 30194 40240 57010
AAXX 09181 47065 42970 00000 11054 21087 30215 40283 58005
AAXX 09181 47067 42965 00000 11080 21101 30174 40302 52002
AAXX 09181 47068 42970 82701 11012 21055 30233 40269 57007 8803/
AAXX 09181 47070 42970 00000 11058 21101 30194 40286 52004
AAXX 09181 47075 42980 02305 11097 21155 39748 40200 57006
AAXX 09181 47101 31940 00001 11068 21080 30182 40284 52008 71000
AAXX 09181 47105 369// /2510 11021 21111 30207 40240 55003
AAXX 09181 47108 32970 00001 11045 21157 30167 40278 58004
AAXX 09181 47115 41550 70000 10000 20000 39948 40228 55005 77077 87800 333 92040
AAXX 09181 47133 32663 20001 11043 21079 30201 40290 50007 82500
AAXX 09181 47138 32968 02505 11009 21088 30249 40252 50002 333 92032
AAXX 09181 47159 32972 01405 11011 21104 30166 40255 52007 333 92022
AAXX 09181 47165 32662 61602 11004 21034 30236 40285 55005 86500 333 92021
AAXX 09181 47168 32670 23411 11008 21110 30188 40271 50002 81500 333 92024
AAXX 09181 47184 41568 73213 10061 21030 30253 40279 55002 78082 87800 333 92044
AAXX 09184 63729 32480 50000 10205 20189 38847 48/// 81902 333 55300 58004 81617 81919 85071
AAXX 09184 63733 32580 20000 10211 20190 38837 48477 81931 333 10280 55300 58000 81921
AAXX 09184 63756 12580 60000 10216 20198 38847 48483 39902 8194/ 333 0//17 10280 58003 81820 81921 86359
AAXX 09184 63791 32580 11119 10254 20153 39090 48478 81501 333 10350 55300 59008 81626 Q1011
AAXX 09184 63801 12580 60000 10224 20203 39195 48513 69922 8197/ 333 0//17 10260 58002 81820 81922 86359
AAXX 09184 63832 12480 70000 10206 20197 38812 48485 60212 8397/ 333 10263 55300 58009 83816 81917 87357
AAXX 09184 63862 01580 82705 10202 20185 38886 48493 60302 79296 8592/ 333 0//65 10310 58008 60077 85622 81923 88458
AAXX 09184 63866 32580 70610 10274 20206 39480 48/// 87900 333 10340 59011 87620 81928
AAXX 09184 63870 32480 10608 10278 20252 30055 40073 81200 333 10330 55300 59010 81818
AAXX 09184 63881 01480 72404 10163 20148 38195 48/// 60082 76062 83920 333 0//13 10216 58015 60017 83617 81919 86456
AAXX 09184 63887 01580 81905 10170 20169 38578 48494 60722 76196 8597/ 333 0//95 10275 55300 58009 60727 85820 81923 88358
AAXX 09184 63894 32580 40312 10272 20251 30020 40080 84200 333 10327 55300 59006 84822
AAXX 09184 63932 12580 80000 10163 20160 38303 48502 60101 8592/ 333 58015 85620 81921 88458
AAXX 09184 63962 11580 70304 10222 20189 38923 48483 60022 71796 8592/ 333 10301 58003 85622 81924 84457
AAXX 09184 63971 11580 73608 10246 20240 39952 40080 60142 70262 8397/ 333 0//19 10290 55300 58003 83820 81921 85458
AAXX 09184 68513 36/// /1320 10161 20100 30013 40125 53006 333 10223 20161 91026 555 91012
AAXX 09184 68514 32/// /2415 10267 21017 39620 48511 52017 333 10350 20267 91023 555 91009
AAXX 09184 68523 36/// /2117 10250 21072 39064 48490 53006 333 10307 20250 91026 555 91012
AAXX 09184 68527 36/// /2111 10289 21041 39011 48469 53007 333 10333 20289 91018 555 91009
AAXX 09184 68572 NIL
AAXX 09184 68575 16/// /0102 10122 20112 39136 48545 53012 60022 333 10152 20120 91005 555 20024 91021
AAXX 09184 68581 36/// /2402 10138 20128 39421 48549 53008 333 10161 20131 91004 555 91020
AAXX 09184 68583 16/// /0702 10182 20162 30083 40194 52011 69962 333 10216 20181 91005 555 20006 91019
AAXX 09184 68589 16/// /0208 10099 20088 38277 48542 53007 69922 333 10122 20098 91013 555 20002 91023
AAXX 09184 68613 36/// /2207 10143 20083 30022 40139 52007 333 10208 20143 91012 555 91013
AAXX 09184 68647 NIL
AAXX 09184 68651 NIL
AAXX 09184 68715 36/// /2107 10194 20099 30000 40126 53002 333 10283 20194 91013 555 91012
AAXX 09184 68717 36/// /2006 10210 20070 39976 40118 52008 333 10286 20210 91009 555 91012
AAXX 09184 68723 36/// /2007 10215 20043 39356 48495 55000 333 10270 20215 91012 555 91011
AAXX 09184 68737 32470 11709 10175 20084 39226 48497 52013 81500 333 10235 20175 91015 555 91014
AAXX 09184 68744 32500 61009 10148 20083 39085 48492 52017 86800 333 10216 20148 91016 555 91015
AAXX 09184 68747 36/// /0905 10149 20103 39621 48517 55000 333 10177 20149 91010 555 91015
AAXX 09184 68754 16/// /0607 10112 20105 39158 48527 58001 60012 333 10136 20110 91011 555 20014 91020
AAXX 09184 68817 NIL
AAXX 09184 68821 36/// /1212 10205 20083 39879 40115 53010 333 10283 20203 91018 555 91012
AAXX 09184 68835 36/// /1403 10167 20127 30043 40158 53006 333 10206 20167 91006 555 91015
AAXX 09184 68843 36/// /0816 10155 20128 30070 40170 56001 333 10188 20154 91023 555 91017
AAXX 09184 68849 36/// /0918 10122 20106 39417 48510 55000 333 10159 20120 91026 555 91016
AAXX 09184 68912 36/// /1613 10141 20118 30138 40147 52007 333 10169 20141 91017 555 91014
AAXX 09184 68918 36/// /1210 10184 20113 30126 40145 53003 333 10235 20184 91013 555 91014
AAXX 09184 68921 36/// /0815 10183 20144 30146 40149 55000 333 10211 20183 91021 555 91014
AAXX 09184 68925 36/// /1604 10178 20079 39773 40135 53001 333 10243 20178 91013 555 91014
AAXX 09184 68926 32970 21007 10176 20125 39961 40140 52008 80000 333 10249 20176 91014 555 91014
AAXX 09184 68935 36/// /0707 10170 20127 30071 40135 52003 333 10223 20170 91015 555 91013
BBXX 46208 09181 99525 71327 46/// /2007 10071 40226 57023 22200 00077 11705 70025 333 91208
AAXX 09181 50548 32980 00000 11245 21278 40199 57008 333 11103
AAXX 09181 50564 32970 00000 11220 21241 40175 57004 333 11133
AAXX 09181 51334 11975 71601 11074 21090 40360 57011 69901 70070 82032 333 05604 11038
AAXX 09181 51818 11862 82902 11041 21058 40420 57005 69921 77070 885// 333 00000 11012
AAXX 09181 52378 32980 01806 11118 21201 40476 57016 333 05101 11050
AAXX 09181 53487 32962 03201 11146 21194 40408 57003 333 11066
AAXX 09181 53502 32980 02002 11140 21184 40493 57009 333 00255 11049
AAXX 09181 53923 32980 03203 11096 21157 40450 54000 333 11017
AAXX 09181 54049 32970 02203 11125 21195 40231 57008 333 11076
AAXX 09181 54115 32980 72504 11139 21230 40302 57009 80002 333 11074
AAXX 09181 54157 32962 02202 11126 21176 40264 57007 333 11111
AAXX 09181 54186 32970 72003 11152 21220 40253 57011 80002 333 11104
AAXX 09181 54311 32980 73403 11143 21210 40328 57020 8703/ 333 11092
AAXX 09181 54346 32965 01102 11146 21182 40290 57013 333 11075
AAXX 09181 54377 32970 00204 11162 21188 40297 57001 333 11049
AAXX 09181 54386 32970 00402 11229 21264 40308 54000 333 11107
AAXX 09181 54493 32970 00000 11152 21170 40288 57008 333 11039
AAXX 09181 54587 NIL
AAXX 09181 54715 32968 02201 11060 21087 40336 57017 333 10000
AAXX 09181 54929 32970 03202 11050 21093 40346 57015 333 10005
AAXX 09181 54945 32980 00000 11045 21105 40341 57014 333 10013
AAXX 09181 56065 32980 12901 11159 21193 36652 52003 80002 333 00252 11026
AAXX 09181 57193 32962 02001 11023 21068 40358 57014 333 10030
AAXX 09181 57290 32962 02502 10001 21061 40366 57009 333 10035
AAXX 09184 68572 NIL
AAXX 09184 68647 NIL
AAXX 09184 68651 NIL
AAXX 09184 68817 NIL
BBXX 46208 09181 99525 71327 46/// /2007 10071 40226 57023 22200 00077 11705 70025 333 91208
AAXX 09181 45032 36/// /0005 10108 21009 30228 40245 54000
AAXX 09181 45035 36/// /0304 10118 20004 30201 40245 54000
AAXX 09181 45039 36/// /0103 10119 20018 30223 40238 52001
AAXX 09181 45044 36/// /0009 10117 20022 30134 40231 57001 333 91114
AAXX 09181 35746 329// 03605 11178 21204 30245 40318 58002 333 11130
AAXX 09181 35849 32998 00000 11164 21183 30214 40306 54000 333 11088
AAXX 09181 35953 329// 00503 11158 21177 30161 40300 57001 333 11056
AAXX 09181 35969 325// 80000 11096 21112 30116 40298 58004 886// 333 11052
AAXX 09181 38062 115// 80401 11075 21097 30114 40284 58001 69940 70272 886// 333 11030
AAXX 09181 38069 129// 80000 11040 21062 30079 40276 57001 69900 8801/ 333 11016
AAXX 09184 61017 32960 50000 10180 20038 39757 40172 80002 333 10280 59003 85080
AAXX 09184 61024 31945 41012 10230 20006 39580 40151 70700 80002 333 10283 58008 84080 P140
AAXX 09184 61036 31956 70804 10290 20000 39862 40099 7052/ 80008 333 10324 58002 87280
AAXX 09184 61043 32960 70610 10265 21080 39676 40118 80008 333 10305 59002 87280
AAXX 09184 61045 31956 71008 10250 21005 39630 40129 7064/ 80008 333 10290 59008 87280
AAXX 09184 61049 31918 70404 10250 20060 39800 40121 7062/ 80008 333 10282 58003 87280
AAXX 09184 61052 31918 50804 10285 21036 39852 40109 70622 80002 333 10328 59005 85080
AAXX 09184 61075 31957 51002 10272 21008 39798 40107 70622 80002 333 10315 59002 85080
AAXX 09184 61080 31925 71006 10256 21018 39701 40124 70622 80008 333 10300 58001 87280
AAXX 09184 61090 31925 70406 10255 21080 39614 40127 70622 80008 333 10288 58001 87280
AAXX 09184 61091 31958 70000 10240 20060 39676 40135 7052/ 80008 333 10295 58003 87280
AAXX 09184 61096 31930 70406 10248 21046 39745 40130 70522 80008 333 10302 58009 87280
AAXX 09184 61099 31945 70406 10290 20020 39861 40088 7062/ 80008 333 10334 58002 87280
AAXX 09181 45032 36/// /0005 10108 21009 30228 40245 54000
AAXX 09181 45035 36/// /0304 10118 20004 30201 40245 54000
AAXX 09181 45039 36/// /0103 10119 20018 30223 40238 52001
AAXX 09181 45044 36/// /0009 10117 20022 30134 40231 57001 333 91114
AAXX 09181 35746 329// 03605 11178 21204 30245 40318 58002 333 11130
AAXX 09181 35849 32998 00000 11164 21183 30214 40306 54000 333 11088
AAXX 09181 35953 329// 00503 11158 21177 30161 40300 57001 333 11056
AAXX 09181 35969 325// 80000 11096 21112 30116 40298 58004 886// 333 11052
AAXX 09181 38062 115// 80401 11075 21097 30114 40284 58001 69940 70272 886// 333 11030
AAXX 09181 38069 129// 80000 11040 21062 30079 40276 57001 69900 8801/ 333 11016
AAXX 09181 38846 429// 00504 11048 21088 38526 48500 53003
BBXX 46206 09181 99488 71260 46/// /0502 10062 40264 57003 22200 00089 11703 70014 333 91203
AAXX 09184 42571 32996 00000 10166 20119 40128 333 59020
AAXX 09184 42667 32996 00000 10184 20133 39545 40140 333 58000
AAXX 09184 42675 31996 00000 10164 20112 40139 70500 333 59009
AAXX 09184 42754 31996 02103 10192 20120 39409 40130 70500 333 59005
AAXX 09184 42867 31996 03203 10174 20120 40137 70500 333 59002
AAXX 09184 42933 32996 00000 10194 20101 40137 333 58000
AAXX 09184 42559 NIL
AAXX 09184 42779 NIL
AAXX 09184 42874 NIL
AAXX 09184 43041 NIL
AAXX 09184 68174 31665 80906 10170 20123 38790 48512 53002 70522 8257/ 333 10221 20170 91012 555 91018
AAXX 09184 68191 36/// /1810 10210 20138 39657 48550 53007 333 10291 20208 91018 555 91016
AAXX 09184 68242 32580 80316 10165 20121 38716 48494 53008 885// 333 10227 20162 91021 555 91016
AAXX 09184 68262 16/// /0702 10173 20138 38712 48518 53007 60042 333 10174 20167 91003 555 20040 91019
AAXX 09184 68263 12680 60705 10145 20123 38490 48516 53007 60032 86500 333 10163 20145 91007 555 20030 91020
AAXX 09184 68267 NIL
AAXX 09184 68289 16/// /1503 10169 20130 39176 48539 53008 69922 333 10206 20168 91005 555 20002 91019
AAXX 09184 68350 36/// /0706 10182 20139 38671 48521 53016 333 10223 20182 91009 555 91020
AAXX 09184 68368 12570 80705 10140 20112 38326 48525 53011 60022 875// 333 10150 555 20020 91022
AAXX 09184 68403 36/// /1921 10161 20113 30108 40141 53012 333 10209 20161 91030 555 91014
AAXX 09184 68424 32782 12008 10285 20043 39136 48478 53003 81400 333 10346 20281 91011 555 91009
AAXX 09184 68438 32782 70417 10205 20155 38772 48467 53018 83972 333 10314 20205 91026 555 91012
AAXX 09184 68442 32680 43612 10193 20124 38629 48482 53007 83460 333 10271 20189 91018 555 91015
AAXX 09184 68461 32480 80911 10120 20095 38330 48518 53010 885// 333 10170 20120 91017 555 91021
AAXX 09184 68512 32982 02114 10163 21011 38994 48488 53006 333 10272 20163 91020 555 91014
AAXX 09184 68538 31874 12810 10238 21017 38664 48452 53005 70500 81060 333 10293 20238 91012 555 91011
AAXX 09184 68587 36/// /0303 10183 20134 30169 40182 52015 333 10207 20183 91005 555 91018
AAXX 09184 68588 16/// /0902 10178 20149 30194 40210 53005 69922 333 10225 20177 91003 555 20002 69925 91021
AAXX 09184 68591 NIL
AAXX 09184 68592 NIL
AAXX 09184 68618 32980 02314 10203 21046 39028 48499 53010 333 10275 20203 91019 555 91014
AAXX 09184 68633 36/// /1516 10152 20087 38473 48468 53010 333 10239 20152 91023 555 91014
AAXX 09184 68668 11560 81106 10129 20106 39313 48521 51005 60022 76199 885// 333 10152 20129 91010 555 20028 69965 91018
AAXX 09184 68714 36/// /1917 10162 20112 30094 40131 52011 333 10240 20162 91024 555 91013
AAXX 09184 68727 NIL
AAXX 09184 68752 36/// /0616 10139 20126 39486 48526 51001 333 10173 20139 91022 555 91017
AAXX 09184 68816 32980 11918 10182 20127 30079 40133 53001 80001 333 10248 20062 555 91013
AAXX 09184 68828 42570 21113 10163 20146 39903 40135 50003 82500 333 10204 555 91013
AAXX 09184 68842 32370 80820 10157 20126 30100 40171 53003 876// 333 10191 555 91029
AAXX 09184 68858 11950 80610 10153 20151 30024 40182 50001 60062 76256 885// 333 10184 555 91018
AAXX 09184 68906 12598 83611 10165 20119 30133 40197 57010 69922 8257/ 222// 00128 20401 333 10175 20159 91024 555 20002 91019
AAXX 09184 68994 32598 43007 10043 21008 30248 40278 53007 83540 222// 00065 333 10077 20038 91010 555 91027
AAXX 09184 89004 31000 80639 11118 21124 38601 49601 52005 77577 886// 333 11117 21123 91049 555
BBXX 46206 09181 99488 71260 46/// /0502 10062 40264 57003 22200 00089 11703 70014 333 91203
AAXX 09181 31329 41997 80000 11291 21315 39427 40165 57011 77172 80007
AAXX 09184 40255 11660 72810 10096 20080 39468 40189 54000 69982 72122 87800 333 10152 84830 83635
AAXX 09184 40260 32660 21918 10102 20069 39382 40172 54000 82100 333 10160 82830
AAXX 09184 40270 31956 42309 10102 20070 39281 40185 54001 70500 84030 333 10132 84360
AAXX 09184 40272 31557 62414 10106 20065 39358 40201 52004 70522 85800 333 10146 83830 84635
AAXX 09184 40290 NIL
AAXX 09184 40340 32960 00109 10172 20068 40214 52019 333 10215
AAXX 09184 68267 NIL
AAXX 09184 68591 NIL
AAXX 09184 68592 NIL
AAXX 09184 68727 NIL
BBXX NIL
BBXX NIL
BBXX NIL
AAXX 09181 60376 36/// /3401 10142 20142 333 10193
AAXX 09181 60593 36/// /0000 10155 333 10201
AAXX 09184 40250 32560 42310 10100 20058 39374 40176 52004 84800 333 10154 82830 83635
AAXX 09184 40265 32560 51714 10114 20074 39402 40204 54000 85200 333 10154 85820
AAXX 09184 40296 32660 30000 10197 20104 40213 52011 83100 333 10255 83830
AAXX 09184 40310 32960 03009 10084 20018 38971 48512 54000 333 10160
BBXX NIL
BBXX NIL
AAXX 09181 10567 11988 02306 10021 21009 39726 40107 52008 60042 70286 333 10089 20021 31001 55300 20000 30000 91117
BBXX A8QJ7 09183 99095 50330 41498 31508 10270 20241 40098 57019 7//11 8/1// 22253 06240 20402 31007 40402 50402 80250
BBXX A8QJ7 09183 99095 50330 41498 31508 10270 20241 40098 57019 7//11 8/1// 22253 06240 20402 31007 40402 50402 80250
AAXX 09181 50658 32962 23203 11161 21192 40190 57002 80002 333 11097
AAXX 09181 50888 32980 82507 11105 21182 40172 57013 8801/ 333 11078
AAXX 09181 50983 32970 72702 11139 21200 40199 57004 80002 333 11089
AAXX 09181 51053 32980 00904 11043 21118 40337 57006 333 05704 10007
AAXX 09181 51542 32980 73402 11117 21164 37597 57003 80002 333 05204 11071
AAXX 09181 52436 32980 00904 11145 21193 38577 40427 57012 333 05400 11041
AAXX 09181 52908 32980 13201 11185 21259 35745 57009 80002 333 05357 11036
AAXX 09181 52996 32970 03405 11161 21187 37649 57002 333 00257 11093
AAXX 09181 53083 32980 01803 11227 21255 40407 57005 333 05905 11192
AAXX 09181 53764 32970 02202 11082 21161 40431 52004 333 11036
AAXX 09181 53787 32980 00901 11107 21160 40377 57010 333 11034
AAXX 09181 54096 32670 72704 11154 21222 40218 52001 82502 333 11112
AAXX 09181 54226 32980 02905 11087 21221 40264 57021 333 11059
AAXX 09181 54259 32962 02701 11197 21218 40296 57010 333 11092
AAXX 09181 54527 32960 02501 11066 21127 40329 57010 333 11001
AAXX 09181 54534 32965 03202 11118 21144 40312 57009 333 11014
BBXX 46132 09181 99497 71279 46/// /3102 10056 40262 57005 22200 00082 11604 70018 333 91204
BBXX 46181 09181 99538 71288 46/// /0301 10007 40253 57021 22200 00032 10200 70000 333 91202
BBXX 46205 09181 99542 71343 46/// /2108 10073 40186 57027 22200 00080 11507 70033 333 91210
BBXX 44062 09181 99386 70764 46/// /2104 1//// 91820 22200 00105 333 91205
BBXX 44062 09181 99386 70764 46/// /2104 1//// 40235 91810 22200 00105 333 91205
BBXX 44062 09181 99386 70764 46/// /2204 10096 40236 57018 91800 22200 00104 10201 70003 333 91205
BBXX 44063 09181 99390 70764 46/// /2106 1//// 91820 333 91207
BBXX 44063 09181 99390 70764 46/// /2106 1//// 40261 91810 333 91207
BBXX 44063 09181 99390 70764 46/// /2106 10091 40266 56017 91800 22200 00097 1//00 70002 333 91207
BBXX 44041 09181 99372 70768 46/// /3204 1//// 91820 333 91205
BBXX 44041 09181 99372 70768 46/// /3304 1//// 40274 91810 333 91205
BBXX 44041 09181 99372 70768 46/// /3304 10090 40275 57017 91800 22200 00121 1//00 70001 333 91205
BBXX 44042 09181 99380 70763 46/// /3402 1//// 91820 333 91202
BBXX 44042 09181 99380 70763 46/// /3301 1//// 40255 91810 333 91201
BBXX 44042 09181 99380 70763 46/// /3301 10096 40257 57015 91800 22200 00107 1//00 70001 333 91201
BBXX 44043 09181 99392 70764 46/// /1806 1//// 91820 333 91207
BBXX 44043 09181 99392 70764 46/// /1805 1//// 40246 91810 333 91206
BBXX 44043 09181 99392 70764 46/// /1805 10090 40248 57021 91800 22200 00092 10201 70004 333 91206
BBXX 41010 09181 99289 70785 46/// /0905 10230 40207 91820 22200 00241 10803 20401 300// 40802 70013 333 91206 555 11050 22052
BBXX 41009 09181 99285 70802 46/// /0905 10240 20156 40205 91820 22200 00249 10703 20502 300// 40702 70014 333 91207 555 11056 22058
BBXX ZDLS1 09183 99328 30172 41598 21621 10169 20166 40135 52005 70200 8/494 22232 04146 20508 318// 40804 80167
BBXX A8QL5 09181 99117 70239 41597 30507 10260 20210 40100 53002 71011 81945 22244 04280 20101 319// 40301 80225
BBXX MZIU7 09184 99284 70162 41998 30510 10231 20112 40193 54000 7//00 83080 22200 20000 300// 400// 5//// 80164
BBXX A8FQ8 09183 99283 30132 41298 31435 10180 20131 40160 53020 70122 83872 22234 00183 20706 312// 40808 80150
BBXX AMOUK17 09184 99327 30573 46/// ///// 10200 20177 30190 40199 52013 91750
BBXX AMOUK15 09184 99181 50030 46/// ///// 10208 20155 30138 40171 57010 91750
BBXX AMOUK01 09184 99328 30173 46/// ///// 10174 20129 30142 40151 52007 91750
BBXX A8UL5 09183 99286 30423 41898 30910 10245 20209 40118 52013 70200 81481 22214 20303 3//// 4//// 5//// 80220
AAXX 09181 31825 42684 73101 11169 21211 39917 40137 57011 8655/
AAXX 09181 31845 42998 00000 11316 21368 30015 40199 57008
AAXX 09181 31878 42984 72001 11213 21250 30081 40216 57002 80002
AAXX 09181 31915 42998 82604 11122 21217 39936 40214 57002 80005
AAXX 09181 31921 42998 82503 11155 21225 30105 40209 57004 86035
AAXX 09181 31969 42998 02704 11099 21190 30178 40230 55000
AAXX 09181 31981 42999 02403 11232 21257 39978 40237 55002
AAXX 09181 31987 42999 00105 11108 21218 39941 40213 57004
AAXX 09181 32069 41494 81002 11102 21115 30084 40089 57007 78682 889// 333 91003 91105
BBXX VQKZ6 09184 99347 70352 41498 30319 10195 20153 40294 57010 70200 82101 22254 02180 20302 309// 40403 5//// 80170
BBXX DCDP2 09184 99432 70511 41497 73318 10070 20026 40275 52020 70311 86273 22264 04080 21005 80050
BBXX ZCDF4 09183 99125 70704 41598 30520 10310 20261 40110 57020 70100 82144 22265 00290 20401 309// 40602 5//// 80275
BBXX GDTT 09184 99211 70689 41498 60722 10300 20258 40167 58/// 7//11 8/2// 22273 00300 20406 305// 40406 80270
BBXX MZDL7 09183 99304 71179 41597 60107 10150 20113 40225 52010 70311 86800 22231 00180 20000 332// 40603 5//// 80130
AAXX 09184 89020 46/// /2006 11061 21092 39602 49636 52002 91740
BBXX MGSM3 09184 99066 11379 41498 60919 10283 20240 40043 54000 70022 86/// 22233 04300 20501 31010 41003 51003 80240
BBXX A8SI9 09184 99534 11700 43496 82628 10020 2101/ 49670 56020 886// 22234 00062 20804 325// 41010 80010
BBXX MCCW7 09184 99062 10913 41498 40408 10280 20243 40095 51021 70322 844// 22263 00277 29901 3//// 4//// 5//// 80254
BBXX A8MV6 09183 99111 11118 41/97 83628 10270 20241 40090 56010 70322 88/1/ 22253 04290 20707 33699 41006 5//// 80250
AAXX 09184 42634 32996 03203 10194 20135 40149 333 58015
AAXX 09184 42647 31996 00000 10228 20159 40134 70500 333 58006
AAXX 09184 42737 32996 03602 10206 20141 40143 333 58009
AAXX 09184 42840 32996 00000 10234 20190 40133 333 58004
AAXX 09184 42909 32996 00503 10222 20152 40139 333 58010
AAXX 09184 42921 32996 00000 10146 20102 40184 333 58001
AAXX 09184 43003 31995 00000 10216 20177 40116 70500 333 59004
AAXX 09184 43014 32996 00000 10178 20099 39478 40136 333 59003
AAXX 09184 43063 32996 00000 10184 20137 39505 40138 333 58004
AAXX 09184 43110 31996 00000 10234 20197 40119 70544 333 58000
AAXX 09184 43117 32996 00000 10228 20128 40121 333 59004
AAXX 09184 43192 NIL
AAXX 09181 30455 429// 80000 11146 21166 38848 48404 57025 86072
AAXX 09181 30731 415// 82505 11012 21038 39619 40227 57031 73632 8297/
AAXX 09181 30739 426// 82302 11068 21084 39405 40237 57032 8697/
AAXX 09181 30741 419// 89704 11104 21170 38667 48460 57034 77172 8807/
AAXX 09181 30745 419// 82403 11102 21115 39050 40227 57026 77172 8802/
AAXX 09181 30764 42998 83101 11174 21186 39385 40225 57017 8801/
AAXX 09181 30829 42984 82304 11104 21124 39607 40322 57019 80006
AAXX 09181 30838 41597 81802 10101 21107 39287 40301 57018 77172 8872/
AAXX 09181 30846 41997 82205 11078 21114 39305 40230 58032 77173 8801/
AAXX 09181 30859 42999 82503 11098 21140 39363 40220 57022 80001
AAXX 09181 30862 42984 82004 11127 21154 39452 40216 57011 8801/
AAXX 09181 30957 429// 42205 11161 21167 39328 40272 57025 82042
AAXX 09181 30967 NIL
AAXX 09181 30975 42998 80501 11276 21307 39551 40264 57009 80007
BBXX 62141 09183 99493 50590 41597 73537 10117 40080 57031 72122 87372 22200 20607 33535 40504 50607
AAXX 09184 68155 16/// /1002 10212 20178 39182 48511 53004 69922 333 10233 20210 91014 555 20002 91015
AAXX 09184 68171 NIL
AAXX 09184 68176 16/// /0908 10199 20134 39136 48519 53006 69922 333 10237 20199 91015 555 20002 91016
AAXX 09184 68181 NIL
AAXX 09184 68182 36/// /1106 10204 20139 39350 48535 53017 333 10272 20204 91014 555 91017
AAXX 09184 68185 16/// /1204 10148 20116 38463 48396 58003 69942 333 10196 20146 91008 555 20004 91006
AAXX 09184 68253 NIL
AAXX 09184 68255 16/// /1403 10179 20124 38862 48507 53007 60132 333 10188 20165 91006 555 20134 91017
AAXX 09184 68271 16/// /0000 10184 20164 38913 48514 55000 60012 333 10207 20182 91001 555 20014 91017
AAXX 09184 68273 16/// /0912 10155 20130 38466 48521 53003 60032 333 10184 20154 91017 555 20036 91021
AAXX 09184 68287 16/// /1806 10112 20110 38593 48526 52010 60042 333 10151 20112 91011 555 20040 69945 91021
AAXX 09184 68291 36/// /1609 10197 20141 39555 48543 53006 333 10277 20197 91018 555 91017
AAXX 09184 68297 NIL
AAXX 09184 68329 36/// /2603 10304 20037 39026 48476 53006 333 10372 20304 91005 555 91010
AAXX 09184 68331 36/// /1808 10270 20031 38811 48503 53003 333 10336 20270 91012 555 91015
AAXX 09184 68335 16/// /0410 10221 20157 38886 48497 52020 60022 333 10308 20196 91017 555 20026 91015
AAXX 09184 68341 36/// /0208 10170 20137 38530 48514 53010 333 10214 20168 91016 555 91020
AAXX 09184 68342 NIL
AAXX 09184 68343 16/// /3607 10185 20136 38749 48472 52010 60042 333 10210 20185 91013 555 20044 91013
AAXX 09184 68349 16/// /0310 10164 20137 38506 48499 53015 60012 333 10207 20164 91016 555 20016 91018
AAXX 09184 68353 16/// /0206 10163 20128 38521 48499 53012 60182 333 10176 20160 91009 555 20188 91018
AAXX 09184 68355 NIL
AAXX 09184 68370 NIL
AAXX 09184 68377 16/// /1106 10153 20135 38797 48532 53007 60042 333 10163 20152 91009 555 20044 91021
AAXX 09184 68380 36/// /2805 10117 20104 3//// 4//// 5//// 333 10149 20117 91012 555
AAXX 09184 68387 16/// /1214 10148 20135 38887 48540 53010 60072 333 10156 20148 91025 555 20078 91021
AAXX 09184 68411 36/// /1708 10259 20000 39901 40104 53018 333 10353 20259 91017 555 91011
AAXX 09184 68429 NIL
AAXX 09184 68449 36/// /0515 10152 20098 38383 48497 53007 333 10219 20151 91021 555 91018
AAXX 09184 68471 16/// /1604 10104 20096 38345 48527 53008 60042 333 10108 20102 91007 555 20046 69945 91022
AAXX 09184 68474 16/// /0000 10107 20094 38656 48543 52012 60012 333 10122 20105 91001 555 20014 91023
AAXX 09184 68479 16/// /1003 10147 20124 38990 48544 53008 69962 333 10165 20147 91005 555 20006 91021
AAXX 09184 68481 NIL
AAXX 09184 68487 16/// /1103 10124 20109 39033 48541 53006 69962 333 10150 20123 91005 555 20006 91021
AAXX 09184 68491 NIL
AAXX 09184 68497 16/// /2905 10178 20165 30154 40199 52010 60022 333 10204 20178 91008 555 20026 69925 91019
AAXX 09184 83766 32597 62702 10296 20205 39420 40056 5//// 84230
AAXX 09184 83836 21496 80902 10222 20207 39092 40047 55020 79562 8696/ 333 60021
AAXX 09184 83881 32597 71807 10300 20188 39787 40063 58012 84924
AAXX 09184 83980 31596 51410 10256 20162 39835 40113 57018 70522 85200
AAXX 09184 83997 32497 61416 10231 20160 30128 40171 58009 86200
AAXX 09184 83925 11295 82410 10194 20179 40110 57010 7502/ 887// 222// 20501 80184
AAXX 09184 82098 32597 20703 10332 20210 30060 40077 82200 333 58004
AAXX 09184 82106 21598 60504 10316 20247 3//// 4//// 70362 86200 333 5//// 69921
AAXX 09184 82113 21596 63210 10316 20259 3//// 4//// 70362 85202 333 5//// 60021
AAXX 09184 82212 32798 52702 10350 20292 30019 40099 84320 333 58004
AAXX 09184 82246 32597 60703 10312 20251 39893 40091 83530 333 59003
AAXX 09184 82336 32598 63606 10304 20248 3//// 4//// 83223 333 5////
AAXX 09184 82445 32597 60507 10324 20250 30047 40099 84203 333 58009
AAXX 09184 82460 32597 40504 10377 20223 30038 40067 84200 333 59008
AAXX 09184 82533 31497 61802 10312 20251 3//// 4//// 71722 85370 333 5////
AAXX 09184 82562 32598 63603 10350 20234 39925 40031 86200 333 59007
AAXX 09184 82571 32497 60501 10327 20226 39898 40069 84230 333 58000
AAXX 09184 82704 32596 60000 10295 20245 39862 40056 86200 333 58010
AAXX 09184 82723 32598 53602 10347 20238 30014 40095 85300 333 58006
AAXX 09184 82765 32598 43603 10332 20238 39859 40095 84200 333 58004
AAXX 09184 68183 11570 81210 10211 20141 39449 48539 53017 69942 72155 885// 333 10265 20211 91016 555 20004 91016
AAXX 09184 68188 36/// /1603 10189 20142 39213 48536 53011 333 10253 20188 91007 555 91018
AAXX 09184 68268 16/// /0803 10180 20163 38891 48528 52011 60052 333 10194 20174 91005 555 20052 91019
AAXX 09184 68272 16/// /2002 10197 20178 39079 48522 55000 60032 333 10213 20195 91003 555 20030 91017
AAXX 09184 68296 32/// /2008 10213 20152 39848 48558 52012 333 10280 20213 91013 555 91016
AAXX 09184 68322 32982 02104 10297 20054 39071 48463 52012 333 10379 20297 91008 555 91008
AAXX 09184 68338 12678 30211 10185 20154 38739 48471 52016 60102 82960 333 10311 20167 91015 555 20108 91013
AAXX 09184 68345 36/// /0415 10184 20141 38650 48492 53007 333 10239 20184 91023 555 91016
AAXX 09184 68362 32480 70510 10149 20109 38516 48518 52015 875// 333 10189 20149 91017 555 91020
AAXX 09184 68400 NIL
AAXX 09184 68408 36/// /1610 10139 20112 30126 40134 52008 333 10189 20139 91020 555 91013
AAXX 09184 68416 36/// /2110 10265 21061 38988 48475 52005 333 10307 20265 91015 555 91011
AAXX 09184 68478 12470 80203 10137 20121 38909 48541 52012 60012 885// 333 10162 20137 91006 555 20010 91021
AAXX 09184 68488 NIL
AAXX 09184 68494 16/// /3004 10173 20158 30068 40201 53003 60012 333 10214 20172 91006 555 20010 91020
AAXX 09184 68524 32986 02508 10271 21082 39005 48473 52010 333 10321 20271 91012 555 91010
AAXX 09184 68546 16/// /1903 10133 20106 38640 48484 53003 60012 333 10251 20131 91007 555 20016 91016
AAXX 09184 68558 NIL
AAXX 09184 68570 NIL
AAXX 09184 68580 NIL
AAXX 09184 68614 32980 02603 10197 20003 30077 40118 52014 333 10298 20196 91008 555 91011
AAXX 09184 68624 32982 01407 10198 21017 38711 48485 52013 333 10270 20198 91013 555 91015
AAXX 09184 68674 16/// /0202 10178 20159 30157 48581 52010 69942 333 10217 20175 91005 555 20004 91018
AAXX 09184 68712 32900 01819 10136 20116 30062 40128 52005 333 10177 20136 91024 555 91012
AAXX 09184 68718 36/// /1203 10189 20086 39889 40134 52011 333 10287 20189 91007 555 91013
AAXX 09184 68722 36/// /2402 10158 21135 38527 48484 52007 333 10229 20158 91006 555 91016
AAXX 09184 68814 36/// /2020 10169 20142 30133 40141 52007 333 10186 20153 91025 555 91014
AAXX 09184 68832 32570 10812 10134 20078 39177 48489 52008 81500 333 10204 20134 91022 555 91014
AAXX 09184 68916 36/// /0606 10160 20122 39879 40148 52006 333 10201 20160 91018 555 91015
AAXX 09184 68920 32470 40610 10185 20134 30139 40152 52003 84800 333 10207 20184 91017 555 91015
AAXX 09184 68928 36/// /0910 10187 20154 39981 40141 58003 333 10229 20187 91020 555 91014
AAXX 09184 82143 31598 40309 10300 20232 40082 7012/ 81270 222// 80250 333 58000
AAXX 09184 83117 11196 80801 10240 20226 40078 57025 69936 7032/ 886// 222// 02190 20101 80230
AAXX 09184 83264 32797 53208 10289 20220 39657 40119 82214 333 58012
AAXX 09184 83358 21698 80000 10250 20236 39648 40045 71601 885// 333 58002 60131
AAXX 09184 82042 32198 60000 10327 20274 3//// 4//// 83632 333 5////
AAXX 09184 82141 32598 23608 10304 20250 30069 40081 82200 333 59001
AAXX 09184 82145 32598 30903 10336 20227 30034 40075 82201 333 59003
AAXX 09184 82181 32797 20708 10331 20210 39961 40099 82040 333 59001
AAXX 09184 82198 32495 50706 10325 20228 30023 40074 85200 333 59001
AAXX 09184 82240 21696 40000 10301 20248 3//// 4//// 70352 84900 333 5//// 69981
AAXX 09184 82317 31594 62702 10284 20238 3//// 4//// 70192 83370 333 5////
AAXX 09184 82353 32598 61802 10335 20231 39945 40028 84230 333 59004
AAXX 09184 82361 32497 33204 10332 20252 30047 40084 83200 333 59004
AAXX 09184 82476 32595 50304 10356 20182 39949 40067 85200 333 59006
AAXX 09184 82610 21596 50000 10251 20247 3//// 4//// 70266 83043 333 5//// 60091
AAXX 09184 82807 31595 71802 10287 20244 3//// 4//// 72922 84340 333 5////
AAXX 09184 82861 32597 41406 10333 20244 39880 40047 82101 333 59007
AAXX 09184 83270 32798 80000 10313 20220 39614 40090 88170 333 58006
AAXX 09184 83309 21695 80000 10250 20232 39771 40094 71062 886// 333 58007 60201
AAXX 09184 83319 32797 63206 10318 20226 39727 40095 84204 333 59004
AAXX 09184 83405 32597 4//// 10310 20239 39911 40042 84200 333 59001
AAXX 09184 83811 21496 83602 10248 20213 39176 40060 58021 71064 8427/ 333 60051
AAXX 09184 83844 32597 814// 10218 20192 30072 40079 56011 8572/
AAXX 09184 83887 21597 81806 10228 20156 39048 40082 57012 70352 885// 333 69921
AAXX 09184 83907 32497 11404 10312 20148 39806 40081 56019 81100
AAXX 09184 83914 31596 61410 10244 20166 39319 40079 56014 70522 82350
AAXX 09184 83919 21395 81408 10154 20148 38947 40125 58005 76096 887// 333 60071
AAXX 09184 83927 32997 00506 10276 20143 30058 40128 57011
AAXX 09184 83936 32497 21407 10280 20131 39986 40106 57010 82100
AAXX 09184 83948 32497 70000 10219 20186 30102 40108 56007 85878
AAXX 09184 83964 31596 61406 10229 20156 39626 40111 57012 70522 83740
AAXX 09184 83995 32697 71410 10236 20191 30130 40133 58010 86401
AAXX 09184 83695 21696 80000 10272 20245 39953 40088 57012 72022 885// 333 69911
BBXX 44061 09181 99388 70770 46/// /2505 1//// 91820 333 91207
BBXX 44061 09181 99388 70770 46/// /2505 1//// 40248 91810 333 91207
BBXX 44061 09181 99388 70770 46/// /2506 10087 40249 57024 91800 22200 00075 333 91208
BBXX 44059 09181 99368 70763 46/// /1703 1//// 91820 333 91204
BBXX 44059 09181 99368 70763 46/// /1604 1//// 40236 91810 333 91205
BBXX 44059 09181 99368 70763 46/// /1603 10146 40237 57020 91800 22200 00129 333 91204
BBXX 44057 09181 99395 70761 46/// /2206 1//// 91820 333 91208
BBXX 44057 09181 99395 70761 46/// /2106 1//// 40252 91810 333 91208
BBXX 44057 09181 99395 70761 46/// /2206 10088 40253 57021 91800 22200 00079 333 91208
BBXX 44058 09181 99376 70763 46/// /0401 1//// 91820 333 91201
BBXX 44058 09181 99376 70763 46/// /3501 1//// 40248 91810 333 91201
BBXX 44058 09181 99376 70763 46/// /3601 10107 40251 57017 91800 22200 00112 1//00 70001 333 91201
BBXX 44032 09181 99437 70694 46/30 /2210 10075 40239 58015 91804 22200 00093 10504 70018 333 91212 555 11130 22138
AAXX 09181 30499 42999 80000 11168 21187 39455 40140 57008 80005
AAXX 09181 30683 429// 80000 11214 21232 39489 40181 57006 80007
AAXX 09181 30695 41999 82903 11188 21207 39799 40154 57012 70272 80007
AAXX 09181 31253 42999 20000 11279 21304 39637 40147 57006 80001
AAXX 09181 31295 42999 42702 11180 21199 39660 40139 57013 82031
AAXX 09181 31348 42999 80000 11253 21258 39913 40124 57006 80007
AAXX 09181 31418 42984 80201 11237 21256 39846 40121 57008 80007
AAXX 09181 31439 42999 00000 11264 21288 30058 40116 57008
AAXX 09181 31442 42997 21902 11246 21270 39770 40153 57006 82030
AAXX 09181 31445 42984 82902 11219 21238 39871 40142 57006 80001
AAXX 09181 31474 41998 80000 11250 21281 39634 40157 57010 77172 80007
AAXX 09181 31521 31965 82201 11204 21223 39838 40148 57008 70272 80007
AAXX 09181 31527 41998 82001 11194 21213 39829 40150 57011 70272 8807/
AAXX 09181 31534 41998 80000 11212 21231 39787 40154 57005 77072 80007
AAXX 09181 31587 42998 53001 11195 21214 30002 40158 57009 80001
AAXX 09181 31632 NIL
AAXX 09181 31702 42998 80201 11253 21285 39803 40169 56007 80007
AAXX 09181 31713 42999 02703 11151 21193 30039 40142 54000
AAXX 09181 31725 42998 32302 11190 21202 30068 40139 54000 80002
AAXX 09181 31801 41997 80000 11226 21244 39924 40170 57011 77172 80007
BBXX 46092 09181 99368 71220 46/// /1206 10099 40220 52018 91757 22200 00120 555 11067 22072
BBXX 46132 09181 99497 71279 46/// /3102 10056 40262 57005 22200 00082 11604 70018 333 91204
BBXX 46205 09181 99542 71343 46/// /2108 10073 40186 57027 22200 00080 11507 70033 333 91210
BBXX 46181 09181 99538 71288 46/// /0301 10007 40253 57021 22200 00032 10200 70000 333 91202
AAXX 09184 48481 32960 00302 10220 20205 30083 40111 57009 333 58007
AAXX 09181 21921 42999 00000 11399 21427 30138 40189 58001
BBXX 46184 09181 99539 71389 46/// /3207 10059 40188 57003 22200 00068 11006 70029 333 91208
BBXX 46232 09181 99325 71174 46/// ///// 1//// 91808 22200 00145 11302 20701 325// 41301 70008
BBXX 46247 09181 99378 71228 46/// ///// 1//// 91821 22200 00117 12003 21002 328// 42002 70016
BBXX 46184 09181 99539 71389 46/// /3207 10059 40188 57003 22200 00068 11006 70029 333 91208
AAXX 09184 68171 NIL
AAXX 09184 68181 NIL
AAXX 09184 68253 NIL
AAXX 09184 68297 NIL
AAXX 09184 68342 NIL
AAXX 09184 68355 NIL
AAXX 09184 68370 NIL
AAXX 09184 68429 NIL
AAXX 09184 68481 NIL
AAXX 09184 68491 NIL
AAXX 09184 91723 NIL
AAXX 09184 91759 11598 21804 10237 20222 40119 53014 60001 70500 82100 333 82820
AAXX 09184 91762 11599 10000 10247 20217 40116 53014 60001 70101 81100 333 81822
BBXX 46246 09181 99500 71451 46/// ///// 1//// 91759 22200 00076 11708 21004 327// 41707 70038
BBXX A8GH5 09183 99252 70157 41497 60515 10210 20172 40165 54000 70200 84770 22214 20401 80185
AAXX 09181 31913 NIL
AAXX 09181 32128 41497 70903 11077 21091 30049 40102 56007 78581 87300 333 91005 91105
AAXX 09181 24856 41997 80000 11333 21350 39969 40143 57011 77177 80007
AAXX 09181 30679 NIL
AAXX 09181 30686 42999 63101 11184 21200 39778 40168 57017 80001
AAXX 09181 30961 42/// /0000 11163 21177 39416 40248 57019
AAXX 09181 30971 42999 81002 11163 21182 39197 40228 57015 80008
AAXX 09181 30978 42999 23301 11238 21256 39513 40251 57017 80002
AAXX 09181 31513 41997 80000 11194 21200 39901 40140 57009 70272 80001
AAXX 09181 31624 NIL
AAXX 09181 31832 42964 81101 11165 21199 30088 40179 57004 8807/
BBXX 46246 09181 99500 71451 46/// ///// 1//// 91829 22200 00076 11707 20803 327// 41706 70034
BBXX 46243 09181 99462 71241 46/// ///// 1//// 91829 22200 00093 11803 21002 327// 41803 70017
BBXX 46236 09181 99368 71219 46/// ///// 1//// 91820 22200 00117 12002 20901 328// 42001 70010
BBXX 46229 09181 99438 71246 46/// ///// 1//// 91821 22200 00105 11804 20702 329// 41803 70018
BBXX 46225 09181 99329 71174 46/// ///// 1//// 91814 22200 00160 11301 20501 322// 41301 70006
BBXX 46213 09181 99403 71247 46/// ///// 1//// 91824 22200 00108 12005 20804 330// 42003 70024
BBXX 46215 09181 99352 71209 46/// ///// 1//// 91808 22200 00132 12202 20901 326// 42202 70012
BBXX 46004 09181 99509 71361 46/// /2109 10070 40219 57023 22200 00079 11507 70033 333 91211
BBXX 46004 09181 99509 71361 46/// /2109 10070 40219 57023 22200 00079 11507 70033 333 91211
BBXX KS094 09184 99170 70621 43/// /1109 10269 40112 22222 06272
BBXX KS078 09184 99406 31731 43/// /3123 10158 40184 22243
BBXX KS088 09184 99267 70801 43/// /1412 10240 40188 22200 06234
AAXX 09181 56671 32780 80201 10073 20024 38236 52008 885// 333 00051 10093
AAXX 09181 57378 32962 00201 10015 21014 40382 52002 333 10075
AAXX 09181 57426 11556 80000 10049 20046 40359 52006 69921 71060 887// 333 00100 10056
AAXX 09181 57476 32960 70000 10036 20001 40376 57001 8703/ 333 10069
AAXX 09181 57584 32975 80402 10042 21085 40372 57001 8807/ 333 10074
AAXX 09181 57598 32962 70401 10023 21020 40363 52002 8703/ 333 10098
AAXX 09181 57655 32960 80401 10051 21045 40372 52001 8807/ 333 10075
AAXX 09181 57713 NIL
AAXX 09181 57776 32980 73603 11066 21074 40361 57008 8704/ 333 11021
AAXX 09181 58321 31958 02901 11019 21044 40377 57007 71000 333 10049
AAXX 09181 58437 32980 02905 11084 21222 38203 57004 333 11067
AAXX 09181 58445 NIL
AAXX 09181 58556 32962 02501 11006 21041 40345 57005 333 10055
AAXX 09181 58569 32465 13204 10021 21030 40321 57008 81100 333 10064
AAXX 09181 58646 32960 00000 10013 21014 40335 57007 333 10082
AAXX 09181 58653 NIL
AAXX 09181 58660 NIL
AAXX 09181 58715 32965 73404 10020 21029 40338 52005 8704/ 333 10077
AAXX 09181 58730 32968 00201 10020 21021 40321 57002 333 10111
AAXX 09181 58731 32962 03601 10003 21011 40326 52001 333 10093
AAXX 09181 58754 32965 73602 10064 21056 40298 57017 8703/ 333 10108
AAXX 09181 58911 32965 40401 10022 20004 40315 52002 84040 333 10083
AAXX 09181 58931 31970 10404 11020 21020 38386 57002 72844 81030 333 10009
AAXX 09181 59254 32760 70202 10113 20021 40283 52001 875// 333 10147
AAXX 09181 59632 32762 73402 10129 20000 40258 57003 875// 333 10149
AAXX 09181 59855 32470 83402 10164 20128 40217 57008 888// 333 10176
AAXX 09184 43086 32996 00000 10184 20146 39840 40122 333 59011
AAXX 09184 43128 31996 00000 10218 20191 39521 40131 70500 333 59003
AAXX 09184 43150 31596 50202 10258 20229 30054 40129 70522 84501 333 59004 84620
AAXX 09184 43185 31596 11404 10264 20235 30116 40119 70510 81500 333 59002 81620
AAXX 09184 43189 32596 40902 10268 20242 30118 40127 81531 333 59004
AAXX 09184 43198 32996 20000 10210 20172 39293 40122 80001 333 58003 82075
AAXX 09184 43201 32996 00000 10212 20171 39396 40118 333 58002
AAXX 09184 43213 32996 20000 10242 20192 39804 40122 80001 333 59002
AAXX 09184 43226 32996 00902 10264 20226 30084 40113 333 58007
AAXX 09184 43233 32896 40503 10230 20191 39313 40122 84030 333 58005
AAXX 09184 43237 21496 70904 10244 20217 39730 40123 71322 85330 333 56390 57922 58005 6990/ 84615 81930 85360
AAXX 09184 43245 32596 40704 10270 20244 30094 40120 82830 333 59004
AAXX 09184 43279 22496 60202 10272 20246 30102 40120 85430 333 58002 6993/ 84618 84360
AAXX 09184 43284 32996 33203 10254 20218 39990 40106 82031 333 58016 82359
AAXX 09184 43295 32396 60204 10212 20187 39110 48518 85601 333 56209 58010 84708 83618
AAXX 09184 43311 32596 80000 10256 20247 40099 83432 333 58006 82620 85360
AAXX 09184 43314 32596 70000 10276 20235 40102 83832 333 58006
AAXX 09184 43321 21495 60505 10242 20218 39676 40124 70552 82530 333 58010 6991/
AAXX 09184 43329 21495 80902 10256 20247 30103 40117 76065 8357/ 333 58007 6002/
AAXX 09184 43344 21995 20203 10244 20229 30016 40116 70511 80001 333 58006 6990/ 82075
AAXX 09184 43346 22596 60506 10270 20247 30098 40105 84501 333 58007 6990/ 84620 86075
AAXX 09184 43353 31496 40000 10268 20217 40103 70500 82531 333 56699 58003 82614 84072
AAXX 09184 43369 32596 20000 10256 20244 40103 81501 333 58011 81620
AAXX 09184 43371 32996 10000 10264 20244 30026 40099 80001 333 58004 81075
BBXX CFO383 09184 99439 70602 47998 /2307 10063 2105/ 40294 5//// 700// 8/ // 22200 00093 11007 2//// 3//// 70033 80025 333 91011
AAXX 09184 71221 16/// /2713 10016 21050 60001 333 10016 21147 70000
AAXX 09184 71226 16/// /2608 10039 21056 60001 333 10039 21107 70000
AAXX 09184 71229 46/// /1906 11059 21080 6///1 333 11050 21168 7////
AAXX 09184 71244 16/// /2506 11001 21075 38977 40228 50002 60001 333 10000 21104 70000
AAXX 09184 71405 16/// ///// 10008 21064 60001 333 10008 21202 70000
AAXX 09184 71417 16/// /2736 11014 21050 30074 40109 50011 60001 333 11012 21038 70109
AAXX 09184 71426 46/// /2114 10003 6///1 333 10006 21027 7////
AAXX 09184 71888 16/// ///// 11006 21065 60001 333 11006 21207 70000
AAXX 09184 71895 16/// ///// 11022 21072 60001 333 11019 21176 70000
AAXX 09184 71322 16/// /3422 11228 21248 30056 40069 51007 60001 333 11203 21229 7//// 555 10070
AAXX 09184 71332 16/// /2105 11179 21198 30021 40051 57009 60001 333 11173 21264 70000
AAXX 09184 71461 16/// /1203 11040 21062 60001 333 11040 21108 70000
AAXX 09184 71468 16/// /2918 11119 21129 39840 40173 51007 60001 333 21126 70013
AAXX 09184 71483 16/// ///// 11053 21086 60001 333 11052 21153 70000
AAXX 09184 71153 16/// /2612 10043 21071 60001 333 10043 21147 70000
AAXX 09184 71283 16/// /2105 11030 21065 60001 333 11002 21118 70000
AAXX 09184 71067 16/// ///// 11009 21079 60001 333 11009 21187 70000
AAXX 09184 71673 16/// ///// 11010 21067 60001 333 11010 21189 70000
AAXX 09184 71690 16/// ///// 10040 21040 60001 333 10040 21117 7////
AAXX 09184 71359 16/// /2304 11053 21088 60001 333 11053 21212 70000
AAXX 09184 71894 16/// /0203 10011 20011 30257 40266 50001 60001 333 10011 21001 70000
AAXX 09184 71906 12974 32411 11157 21198 39961 40030 52010 60001 80002 333 11147 21176 70000
AAXX 09184 71010 16/// /2611 10002 21065 60001 333 10002 21182 70000
AAXX 09184 71011 16/// ///// 11029 21090 60001 333 11029 21165 70000
AAXX 09184 71024 16/// /2702 11155 21170 60001 333 11155 21256 70000 555 10010
AAXX 09184 71049 16/// /3007 11234 39993 40017 56001 60001 333 11217 21302 70000
AAXX 09184 71761 16/// ///// 11037 21074 60001 333 11037 21226 70000
AAXX 09184 71788 16/// /2413 10015 21043 60001 333 10015 21122 70000
AAXX 09184 71792 16/// ///// 11030 21081 60001 333 11030 21184 70015
BBXX CFO383 09184 99439 70602 47998 /2307 10063 2105/ 40294 5//// 700// 8/ // 22200 00093 11007 2//// 3//// 70033 80025 333 91011
AAXX 09184 71500 16/// /2005 11012 21079 60001 333 11012 21125 70000
AAXX 09184 71504 46/// ///// 10016 21072 6///1 333 10016 21169 7////
AAXX 09184 71526 16/// /2407 11011 21081 60001 333 11011 21113 70000
AAXX 09184 71541 16/// /2308 11029 21062 60001 333 11027 21129 70000
AAXX 09184 71543 16/// /2512 10027 21043 60001 333 10034 21127 70000
AAXX 09184 71546 16/// /2905 10046 21045 60001 333 10046 21128 70000
AAXX 09184 71547 16/// /2620 10029 21055 60001 333 10029 21123 70000
BBXX 46146 09181 99493 71237 46/// /3004 10026 40275 57004 22200 00055 10200 70002 333 91206
AAXX 09184 89528 46/// /3627 4//// 5////
BBXX 44099 09181 99369 70757 46/// ///// 1//// 91822 22200 00133 10902 20902 70009
BBXX 44039 09181 99411 70727 46/// /2703 10083 20028 91753 22200 00111 10401 70004 333 91205
AAXX 09184 71894 16/// /0203 10011 20011 30257 40266 50001 60001 333 10011 21001 70000
AAXX 09184 71906 12974 32411 11157 21198 39961 40030 52010 60001 80002 333 11147 21176 70000
AAXX 09184 45011 47563 /0121 10117 20024 40239 57004 70011 333 58020
AAXX 09184 45011 47563 /0121 10117 20024 40239 57004 70011 333 58020
BBXX 46146 09181 99493 71237 46/// /3004 10026 40275 57004 22200 00055 10200 70002 333 91206
AAXX 09181 56144 32780 70201 11010 21160 36836 52004 874// 333 05402 10104
AAXX 09181 56152 32980 72901 11082 21150 36301 52003 80002 333 05303 10061
AAXX 09181 56167 32980 51101 11036 21094 37064 52007 80002 333 05351 10136
AAXX 09181 56182 32780 72202 11045 21113 37245 52009 875// 333 00152 10044
AAXX 09181 56357 32980 03202 11028 21091 36438 52004 333 05302 10124
AAXX 09181 56586 11457 83603 11021 21041 38129 52012 69901 77077 885// 333 00052 10013
AAXX 09181 56748 32580 61601 10111 20087 38358 52003 86400 333 05103 10198
AAXX 09181 56763 32680 20901 10094 20088 40178 52007 82402 333 00152 10155
AAXX 09181 56768 32680 71402 10091 20080 38201 52004 874// 333 00051 10152
AAXX 09181 56838 32670 13201 10138 20122 40142 52004 81400 333 05151 10261
AAXX 09181 56886 11760 81401 10029 20016 38352 52010 69901 76066 885// 333 00052 10051
AAXX 09181 56946 32680 10901 10121 20118 40139 57001 81400 333 05151 10247
AAXX 09181 56959 32765 71602 10213 20165 40137 52004 874// 333 00004 10285
AAXX 09181 56969 32660 80701 10183 20146 40163 57003 884// 333 00100 10245
AAXX 09181 57731 32768 82202 10051 21045 40363 52008 885// 333 00151 10077
AAXX 09181 57766 11462 80403 10048 21067 40359 52001 69901 72200 885// 333 10099
AAXX 09181 57845 32962 80205 10053 21097 40335 52009 8807/ 333 10104
AAXX 09181 57853 11762 83602 10044 21080 40357 57001 69901 70070 885// 333 10097
AAXX 09181 57916 11463 81401 10066 20052 40323 52017 69971 76060 885// 333 00153 10122
AAXX 09181 57922 11958 83404 10010 21016 40336 52013 69901 77760 8802/ 333 00052 10074
AAXX 09181 57932 32667 80202 10075 21052 40338 52009 885// 333 00151 10124
AAXX 09181 58338 32962 00000 11009 21055 40362 57005 333 10057
AAXX 09181 59007 11462 80402 10047 20003 40291 52008 69901 76000 885// 333 10068
AAXX 09181 59046 32774 80202 10104 21056 40304 52007 885// 333 10144
AAXX 09181 59058 32865 83402 10096 21024 40296 52001 885// 333 10145
AAXX 09181 59072 32761 83405 10069 21039 40315 52005 885// 333 10097
AAXX 09181 59087 32760 70904 10079 21078 40285 57004 87500 333 10144
AAXX 09181 59209 32563 82902 10084 20022 40282 52008 888// 333 10107
AAXX 09184 67975 42975 61002 10212 20139 38910 48500 86030 333 10261 58026 86360
AAXX 09184 67977 42780 11405 10268 20171 39651 48534 81400 333 10315 58033 81650
AAXX 09183 67975 42975 61002 10212 20139 38910 48500 86030 333 10261 86360
AAXX 09183 67977 42780 11405 10268 20171 39651 48534 81400 333 10315 81650
BBXX 44258 09181 99445 70634 46/// /2210 10068 40276 57008 22200 00076 11104 70021 333 91211
BBXX 44258 09181 99445 70634 46/// /2210 10068 40276 57008 22200 00076 11104 70021 333 91211
AAXX 09181 80001 11570 40503 10290 20238 30119 40120 69931 70350 83201 333 561/0 59003 83820
AAXX 09181 80002 32570 30204 10294 20237 82101 333 561/0 82820
AAXX 09181 80009 31560 42302 10294 20238 30082 40087 70500 82804 333 56090 59021 82820 84070
AAXX 09181 80022 31460 73204 10294 20249 30090 40092 70522 82871 333 56990 59011 82813 85458
AAXX 09181 80028 31460 70303 10306 20236 30068 40103 70511 82506 333 561/9 59014 82615 86270
AAXX 09181 80035 31565 60903 10300 20246 30099 40104 70522 84230 333 5629/ 57861 59010 84820 85270
AAXX 09181 80036 31568 30604 10315 20229 70511 82202 333 560/0 82820
AAXX 09181 80063 31566 50000 10310 20227 70522 85400 333 5600/ 85620
AAXX 09181 80084 31570 50000 10296 20225 70522 8483/ 333 5609/ 84820
AAXX 09181 80091 31465 60000 10292 20231 70542 83288 333 56099 84815 83357
AAXX 09181 80094 31468 22705 10230 20191 38799 70510 81170 333 5669/ 59010 81815
AAXX 09181 80097 32570 50405 10302 20211 39735 40080 39735 40080 82801 333 569/9 59003 82820 83070
AAXX 09181 80099 31468 30303 10310 20233 39913 40056 70511 83201 333 563/9 57892 59014 83815
AAXX 09181 80110 31570 40103 10258 20128 38489 70521 84201 333 560/1 59017 84833
AAXX 09181 80112 31570 40804 10208 20125 37892 70522 84201 333 560/9 57895 59003 84825
AAXX 09181 80139 32570 30206 10230 20217 83200 333 561// 83823
AAXX 09181 80144 31560 40000 10288 20225 70522 84200 333 560// 84820
AAXX 09181 80149 NIL
AAXX 09181 80144 31560 40000 10288 20225 70522 84200 333 560// 84820
AAXX 09181 80211 31565 53202 10254 20173 70522 85200 333 562// 85825
AAXX 09181 80214 31460 61404 10275 20214 39106 70522 85231 333 56550 57882 59012 81818 84820
AAXX 09181 80222 31568 61106 10203 20073 37508 70522 85850 333 56290 59004 85823
AAXX 09181 80234 32562 30902 10316 20187 39595 40090 83101 333 563/9 59016 83823
AAXX 09181 80241 NIL
AAXX 09181 80259 31560 62602 10190 20192 39037 70521 83830 333 5629/ 59013
AAXX 09181 80315 32565 30000 10296 20203 39580 40074 83150 333 5688/ 59013 83827
AAXX 09181 80342 32568 63503 10213 20166 38203 86800 333 564// 59013 86825
AAXX 09181 80370 32570 61004 10165 20094 86800 333 563// 86820
AAXX 09181 80398 32470 72202 10305 20260 39992 40087 83271 333 56199 57881 59010 83815 87459
AAXX 09184 86330 32998 01015 10290 20119 40106 57013
AAXX 09184 86360 32597 11310 10302 20136 40113 57020 81100
AAXX 09184 86460 32598 31210 10286 20122 40124 57019 82105
AAXX 09184 86490 32597 40808 10297 20166 40120 57022 84100
AAXX 09184 86530 32698 41309 10276 20115 40122 57019 84100
AAXX 09184 86545 32597 50912 10276 20162 40144 57016 85200
AAXX 09184 86565 32598 51214 10240 20146 40148 57011 85200
AAXX 09184 86580 42598 11113 10222 20170 40147 57017 81100
AAXX 09184 89610 46/// /0423 11046 39518 4//// 5//// 333 90700 91128
BBXX 44140 09181 99429 70515 46/// /3206 10132 40292 52022 22200 00108 11207 70036 333 91208
AAXX 09184 84143 11670 61808 10173 20113 37394 69941 72052 86800 333 59004 555 10004 30068
AAXX 09184 84202 12575 52304 10292 20200 30140 69901 85200 333 58000 555 1T 30058
AAXX 09184 84135 32675 80402 10281 20207 30059 8411/ 333 59003 555 30064
AAXX 09184 84132 31680 73604 10306 20241 39881 70544 84230 333 59005 555 30068
AAXX 09184 84270 12670 53604 10200 20124 60061 84301 555 10057 30051
AAXX 09184 84088 32675 50000 10178 20103 37055 85200 333 59004 555 30061
AAXX 09184 84056 31275 62304 10204 20029 70544 86800 555 30031
AAXX 09184 84179 31560 70902 10262 20189 39050 71544 85330 333 59004 555 30064
AAXX 09184 84076 31675 63204 10218 20118 70544 84230 555 30053
AAXX 09184 84008 12665 71412 10257 20187 30123 40133 69901 87800 00186 333 58001 555 1T 30065
AAXX 09184 84050 31565 80404 10245 20202 70544 882// 555 30077
AAXX 09184 84036 11570 80404 10160 20131 69951 75054 887// 555 10005 30083
AAXX 09184 84160 11570 41404 10185 20093 37254 69941 70546 83230 333 59009 555 10004 30055
AAXX 09184 84226 31660 73606 10140 20140 74044 87800 555 30100
AAXX 09184 84072 31670 70404 10219 20110 37283 70545 84230 333 59011 555 30050
AAXX 09184 84045 32557 70906 10142 20097 87800 555 30074
AAXX 09184 84105 32560 81404 10265 20219 31001 8311/ 333 58000 555 30076
AAXX 09184 84001 31565 71510 10261 20181 30103 40123 70544 81530 333 58002
AAXX 09184 84010 31570 71312 10250 20211 70544 82230
AAXX 09184 84018 31580 62914 10264 20223 30097 40104 70544 84230 333 59008
AAXX 09184 84027 31570 61006 10187 20127 37163 47138 70242 84230 333 59002
AAXX 09184 84063 32580 40000 10308 20247 39727 40052 84200 333 59024
AAXX 09184 84069 11456 82304 10234 20195 69901 70554 882// 555 1 T
AAXX 09184 84071 31680 70304 10195 20085 37267 47119 70242 85230 333 59006
AAXX 09184 84099 32575 71003 10318 20216 3//// 40085 83130 333 5////
AAXX 09184 84101 31562 72812 10263 20221 30091 40105 70544 83530 333 59004
AAXX 09184 84117 31565 72607 10262 20210 30086 40109 70544 84530 333 59008
AAXX 09184 84123 31570 61914 10182 20117 37277 47115 70242 85231 333 59025
AAXX 09184 84147 11565 51204 10187 20135 69921 70262 83230 555 10002
AAXX 09184 84163 11570 81404 10222 20196 38940 48491 69931 78022 8321/ 333 59002 555 10003
AAXX 09184 84176 31680 40320 10200 20123 70134 84200
AAXX 09184 84200 31960 62609 10235 20200 70544 86030
AAXX 09184 84203 31560 60504 10291 20183 30088 40093 70544 84131 333 59002
AAXX 09184 84217 32570 60906 10257 20194 84230
AAXX 09184 84239 11680 50605 10211 20117 37528 47143 69931 70162 85200 333 59001 555 10003
AAXX 09184 84252 11570 59903 10275 20210 30101 40109 69951 70544 81130 333 58001 555 10005
AAXX 09184 84265 11670 60000 10235 20169 38754 4//// 69961 70564 82230 333 58013 555 10006
AAXX 09184 96001 NIL
AAXX 09184 96015 32456 40000 10261 20250 30080 40087 52003 82272 333 56000 57805 82815 80860
AAXX 09184 96033 31450 60000 10262 20241 30093 40098 57010 70521 82938 333 56000 57903 81920 82617 84357 80980
AAXX 09184 96075 32440 30000 10244 20238 30084 40089 52001 81571 333 56000 81617
AAXX 09184 96087 32460 70306 10266 20236 30060 40093 58004 82241 333 56000 57802 82815 85360 80860
AAXX 09184 96171 31440 70000 10264 20246 30061 40085 57005 70522 84522 333 56000 84615
AAXX 09184 96207 NIL
AAXX 09184 96525 32458 70000 10253 20245 30068 40075 57016 84971 333 56000 57900 81915 83615 809//
AAXX 09184 96529 01450 80000 10230 20230 30068 40092 57016 60191 70162 8512/ 333 56009 85817 88460
AAXX 09184 96559 31430 70000 10236 20228 30069 40107 52010 71322 85970 333 56600 57962 57864 81913 84810 86462 80974 80850
AAXX 09184 96607 32458 70000 10256 20244 30076 40091 56008 85921 333 56000 57940 81915 85814 809//
AAXX 09184 96615 31450 40000 10250 20232 30082 40096 56011 71796 82961 333 56000 57901 82918 81362 80968
AAXX 09184 96737 32456 50000 10256 20229 30048 40079 58005 83221 333 56000 83618
AAXX 09184 96739 31430 70000 10251 20243 30045 40094 57005 71022 84532 333 56000 84618
AAXX 09184 96741 32550 71402 10286 20252 30073 40077 57009 82572 333 56000 82622 85360
AAXX 09184 96745 32556 70000 10286 20238 30080 40085 57006 83521 333 56000 83620 86460
AAXX 09184 96751 32540 70000 10196 20172 39034 48920 58010 84510 333 56000 84620 84460
AAXX 09184 96791 11456 80000 10266 20248 30030 40104 57012 69901 70296 8552/ 333 56009 85617 88460
AAXX 09184 96797 31457 71602 10270 20247 30078 40083 57014 71322 83971 333 56000 57903 81918 82620 84460 80980
AAXX 09184 96837 32556 62002 10266 20248 30099 40082 57011 83972 333 56000 57900 81920 82820
AAXX 09184 96925 32465 70000 10266 20245 30074 40079 57015 83232 333 56000 57800 83817 86080 80860
AAXX 09184 96933 32460 40000 10280 20242 30078 40081 57013 83571 333 56200 83617
AAXX 09184 96937 32558 23505 10276 20246 20072 40077 57016 81109 333 56700 81820
AAXX 09184 96973 31458 60000 10268 20251 30068 40074 57013 71311 83931 333 56000 57903 81919 80976 82820 80850
AAXX 09184 96987 32458 70000 10264 20240 30022 40082 57008 84511 333 56000 84618
AAXX 09184 97014 01459 60402 10236 20228 39994 40087 57009 60021 76062 8487/ 333 56000 69907 83818
AAXX 09184 97028 NIL
AAXX 09184 97048 32457 70000 10250 20243 30050 40074 55005 83232 333 56000 57801 83817 85360 80860
AAXX 09184 97072 NIL
AAXX 09184 97086 NIL
AAXX 09184 97096 11458 70000 10244 20231 30071 40092 57016 60021 70262 82271 333 56000 57803 60027 82818 85360 80857
AAXX 09184 97120 01459 80000 10245 20230 30056 40089 57008 69957 76096 8497/ 333 56009 57900 57801 69907 81917 83818 85460 80981 80860
AAXX 09184 97146 NIL
AAXX 09184 97180 01450 70704 10240 20240 30069 40087 56013 60051 76166 83272 333 56000 60017 83819 86460
AAXX 09184 97192 32410 70704 10245 20242 30044 40101 58012 8452/ 333 56609 84615 88460
AAXX 09184 97230 32460 82602 10273 20241 30067 40074 56015 84232 333 56000 57801 84816 86359 80858
AAXX 09184 97260 NIL
AAXX 09184 97270 31450 50000 10264 20240 30063 40068 57012 70522 82111 333 56000 82815
AAXX 09184 97300 32560 70000 10268 20238 30034 40075 57013 83271 333 56000 57802 83820 85360 80857
AAXX 09184 97340 NIL
AAXX 09184 97372 32458 70000 10238 20234 39950 40071 57015 84271 333 56000 84818 83359
AAXX 09184 97430 01458 70000 10244 20231 30055 40085 57004 60201 72162 84932 333 56700 57971 57871 60017 81915 83818 80980 80860
AAXX 09184 97460 NIL
AAXX 09184 97502 31450 61203 10256 20242 30063 40067 56015 70292 86531 333 56000 86620
AAXX 09184 97530 11450 70000 10250 20242 30064 40069 69941 70262 83272 333 56000 57802 83814 85460 80857
AAXX 09184 97560 32460 60000 10252 20243 30063 40078 57012 84847 333 56000 57803 82818 85361 86279 80860
AAXX 09184 97686 NIL
AAXX 09184 97690 NIL
AAXX 09184 97724 NIL
AAXX 09184 97748 NIL
AAXX 09184 97760 01440 73202 10250 20244 30062 40071 57010 60031 72162 83932 333 56000 57901 60037 81915 82816 80960
AAXX 09184 97796 NIL
AAXX 09184 97810 32458 40000 10264 20243 30051 40060 54007 83232 333 56000 57802 83819 80845
AAXX 09184 97900 32562 40701 10256 20246 30039 40067 57009 81105 333 56000 57805 81820 84275 80826
AAXX 09184 97980 11456 72706 10246 20229 30059 40066 57002 60021 72992 86842 333 56000 83816 83617
AAXX 09184 96009 31556 70000 10250 20241 30060 40095 57005 70292 81571 333 56000 81620 85460
AAXX 09184 96011 31558 41005 10248 20234 30070 40096 50002 70511 81521 333 56000 81620
AAXX 09184 96035 32458 70000 10255 20233 30080 40098 58006 82578 333 56000 82618
AAXX 09184 96073 31456 70000 10253 20240 30083 40094 50002 70522 83972 333 56000 57901 83915 80958
AAXX 09184 96091 32460 50000 10256 20239 30078 40101 56001 82411 333 56000 82613
AAXX 09184 96109 32957 50000 10254 20239 30048 40087 58001 84032 333 56000 84360
AAXX 09184 96145 32450 40106 10268 20238 30096 40099 56006 84200 333 56800 57883 84817 80857
AAXX 09184 96147 NIL
AAXX 09184 96163 32556 60000 10258 20243 30088 40091 57002 83521 333 56000 83620
AAXX 09184 96179 32460 70000 10262 20243 30049 57005 83238 333 56800 57882 83817 80850
AAXX 09184 96195 NIL
AAXX 09184 96221 31450 70103 10259 20248 30066 40081 58006 71322 83932 333 56999 57993 81920 82615 85360 80980
AAXX 09184 96237 32457 80000 10254 20245 30049 40091 50000 82537 333 56000 82617 88280
AAXX 09184 96249 32560 60000 10244 20238 30026 40087 57010 82132 333 56000 57802 82820 80863
AAXX 09184 96253 32458 70403 10250 20236 30052 40072 57007 83932 333 56000 57900 57800 81915 81820 83360 80900 80800
AAXX 09184 96295 31460 52703 10252 20235 39983 40085 56009 71311 83328 333 56000 57900 82915 82615 80900
AAXX 09184 96509 32458 80000 10250 20235 30071 40082 57011 81171 333 56000 81815 84461
AAXX 09184 96581 31456 70103 10254 20247 30083 40090 57010 71322 81930 333 56000 57903 81912 81813 87360 80980 80860
AAXX 09184 96633 31458 72603 10252 20242 30063 40071 57010 72999 84971 333 56000 57901 81918 83620 86460 80980
AAXX 09184 96645 31440 60000 10236 20234 30051 40083 57015 71022 84532 333 56000 84913
AAXX 09184 96655 NIL
AAXX 09184 96685 32459 50000 10257 20247 30061 40087 56014 83511 333 56000 83618
AAXX 09184 96749 31550 62202 10262 20237 30072 40086 58012 70522 81521 333 56000 81622 86461
AAXX 09184 96781 NIL
AAXX 09184 96805 01558 70000 10272 20230 30094 40103 50000 69901 72122 84971 333 56000 57901 57801 69907 82920 82820 80980 80858
AAXX 09184 96839 NIL
AAXX 09184 96935 32560 52702 10264 20237 30073 40080 57010 81131 333 56000 81820 84080
AAXX 09184 97008 NIL
AAXX 09184 97016 NIL
AAXX 09184 97126 NIL
AAXX 09184 97182 NIL
AAXX 09184 97240 NIL
AAXX 09184 97310 32560 60000 10252 20229 30053 40065 57013 83221 333 56000 57802 83820 84460 80850
AAXX 09184 97320 32560 70000 10242 20233 30051 40064 57016 83218 333 56000 57802 83820 85280 80840
AAXX 09184 97378 32560 40000 10248 20235 39924 40087 56007 10010 333 56000 81820 83080
AAXX 09184 97406 01460 80000 10232 20232 30054 40080 57010 60231 70262 85972 333 56000 57901 57801 60017 81917 84818 86460 80975 80860
AAXX 09184 97570 32460 53303 10248 20236 30064 40071 56011 81132 333 56000 81815 85080
AAXX 09184 97630 01450 80105 10236 20221 39917 40075 56014 60021 76162 87923 333 56000 57901 60027 82910 86709 80978
AAXX 09184 97700 NIL
AAXX 09184 97722 32461 70000 10239 20227 30050 40065 57030 84872 333 56600 57861 83819 80857
BBXX 44140 09181 99429 70515 46/// /3206 10132 40292 52022 22200 00108 11207 70036 333 91208
AAXX 09181 40001 32570 60805 10076 21054 40145 58010 84550 333 10112 84626 86360
AAXX 09181 40007 11460 80905 10073 20059 40119 55008 60122 76062 8557/ 333 10112 85626 88360
AAXX 09181 40025 11560 73006 10106 20086 40123 53006 60082 79596 87800 333 10170 83926 86630
AAXX 09181 40045 32570 81407 10118 20054 40143 57017 8452/ 333 10154 84630 88460
AAXX 09181 40061 11560 82407 10062 20038 40146 52022 60042 76062 8552/ 333 10158 85630 88460
AAXX 09181 40080 32565 53013 10100 20005 39437 40150 53012 85800 333 10160 82826 84630
AAXX 09181 40087 NIL
AAXX 09181 40095 NIL
AAXX 09181 40009 11565 80602 10070 20056 40091 57024 60132 76266 8552/ 333 10140 85630 88460
AAXX 09181 40016 NIL
AAXX 09181 40022 11565 62808 10098 20086 40131 53026 60202 76169 86800 333 10162 84830 85630
AAXX 09181 40030 11565 72903 10092 20043 40122 58002 60052 70266 83570 333 10150 83630 87360
AAXX 09181 40039 11565 82004 10089 20076 40123 53020 60122 76264 8552/ 333 10123 85630 88460
AAXX 09181 40066 11570 72708 10084 20053 40142 52024 60183 76096 87400 333 10158 87626
AAXX 09181 40072 32570 60000 10124 20051 40158 57010 83550 333 10184 83630 86360
AAXX 09181 40083 11570 52502 10026 21026 48438 53011 69992 72161 85800 333 10112 82826 84630
AAXX 09184 40270 31956 42309 10102 20070 39281 40185 54001 84030 333 10132 84360
BBXX 46036 09181 99484 71339 46/// /2007 10069 40267 57016 22200 00087 11605 70027 333 91208
AAXX 09184 40270 31956 42309 10102 20070 39281 40185 54001 84030 333 10132 84360
AAXX 09184 40270 31956 42309 10102 20070 39281 40185 70500 54001 84030 333 10132 84360
BBXX AMOUK08 09184 99501 70061 46/// ///// 10096 20028 30150 40155 54002 91750
BBXX 63106 09184 99610 10017 46/// /2937 10040 49780 53015 22200
BBXX 63105 09184 99610 10017 47496 ///// 10046 20023 49778 53010 751// 22200
BBXX 63119 09184 99578 70022 41/97 /0627 10017 21030 40010 52/// 756// 8//// 22200 2//// 331// 40404 5////
BBXX 44100 09181 99363 70756 46/// ///// 1//// 91822 22200 00144 10902 20902 70010
BBXX 42099 09181 99273 70842 46/// ///// 1//// 91827 22200 00240 10502 20502 70008
BBXX 41113 09181 99284 70805 46/// ///// 1//// 91821 22200 00219 11102 20902 70008
BBXX 41112 09181 99307 70813 46/// ///// 1//// 91821 22200 00166 10502 20502 70010
BBXX 42363 09181 99282 70892 46/// /0408 10172 20089 40247 91830 333 91208
BBXX 42364 09181 99291 70881 46/// /3603 10161 20083 40247 91830
BBXX 42361 09181 99276 70925 46/// ///08 10189 20122 40224 58013 91830 555 11064 22068
BBXX 46238 09181 99334 71195 46/// ///// 1//// 91820 22200 00151 12202 20601 330// 42201 70010
BBXX 46239 09181 99363 71221 46/// ///// 1//// 91821 22200 00130 12004 20902 330// 42003 70019
AAXX 09183 63671 32980 00000 10265 20216 333 10325
AAXX 09183 63723 32980 00705 10283 20208 40080 333 10345 59002
AAXX 09183 63793 32580 13605 10255 20185 40061 81500 333 10312 58005 81621
AAXX 09184 83064 32498 80000 10284 20207 39802 40070 8472/ 333 58012
AAXX 09184 83235 32698 30502 10344 20200 39390 40044 83200 333 59021
AAXX 09184 83332 32698 60000 10313 20183 39164 40040 84260 333 58002
AAXX 09184 83423 32698 83202 10260 20182 39260 40064 8221/ 333 59006
AAXX 09184 83470 22698 73204 10252 20198 39215 40063 87200 333 59005 60071
AAXX 09184 78318 01558 80304 10214 20207 30179 40183 58009 60051 76162 8582/ 333 10217 20194 32/// 56999 58002 60047 70045 84820 88458
AAXX 09184 78325 01460 70202 10229 20211 30119 40177 58011 60031 71562 8587/ 333 10229 20201 32/// 56199 59006 60027 70027 82814 85616 87389 555 10403
AAXX 09184 78333 11410 31402 10274 20203 30152 40159 57012 60001 70500 83900 333 10284 20204 30/// 56300 57935 59001 83818 819// 555 11401
AAXX 09184 78348 11556 40703 10270 20218 30110 40162 58013 60001 70511 84800 333 10276 20230 30/// 56200 57823 58000 70002 83821 555 10903
AAXX 09184 78349 11561 50702 10281 20200 30052 40161 58019 60001 70511 85200 333 10281 20207 30/// 56100 57811 58005 70015 85821 555 10503
AAXX 09184 78353 12570 31003 10285 20216 30135 40157 58017 60001 83800 333 10285 20234 31/// 56200 57852 59001 70023 81820 83626 555 10803
AAXX 09184 78360 12570 11305 10298 20207 30132 40143 58017 60001 81930 333 10302 20214 30/// 56990 57959 58005 81820 819// 92023
AAXX 09184 78369 11568 50706 10285 20233 30135 40144 57012 60001 70511 85200 333 10288 20260 30/// 56200 57863 58008 85820 92034 555 10703
AAXX 09181 23426 32984 70000 11145 21172 30260 40286 57002 87030 333 11084
AAXX 09181 23625 11998 80000 11067 21075 30247 40282 57003 69930 70272 8802/ 333 11065
AAXX 09181 28076 32997 20000 11181 21187 30280 40359 57002 80001 333 11117
AAXX 09181 28367 32984 00000 11170 21183 30242 40381 57005 333 11092
AAXX 09181 28382 32998 20000 11221 21247 30318 40396 57007 80001 333 11160
AAXX 09181 28481 32997 00000 11185 21197 30298 40407 54000 333 11118
AAXX 09181 28491 32997 10000 11198 21210 30285 40406 57002 80001 333 11080
AAXX 09181 28573 31996 00000 11202 21214 30280 40396 57008 71000 333 11102
AAXX 09181 28593 31996 00000 11201 21213 30296 40405 57003 71000 333 11100
AAXX 09181 28786 31997 30802 11146 21152 30215 40385 57012 70241 80002 333 11106
AAXX 09181 28797 12997 20703 11148 21161 30215 40385 57005 69900 80001 333 11139
AAXX 09181 28799 32997 00502 11127 21179 30229 40384 57007 333 11131
AAXX 09181 20046 NIL
AAXX 09181 20069 NIL
AAXX 09181 20087 41998 21205 11198 21231 30124 40135 52001 70271 82030
AAXX 09181 20292 NIL
AAXX 09181 20353 46/// /2104 11044 21061 30102 40106 52005
AAXX 09181 20667 11896 82403 11028 21032 30139 40146 52008 77172 8802/ 333 11018
AAXX 09181 20674 41296 82305 11031 21035 30079 40139 53001 71043 886// 333 88706 91107
AAXX 09181 20744 11598 31905 11015 21026 30125 40143 52009 69970 70231 82501 333 11003
AAXX 09181 20891 41598 59902 11264 21288 30141 40187 52014 70282 82531 333 91103
AAXX 09181 23022 11597 72311 11029 21042 30149 40211 52006 69950 70283 87530 333 11016 91114
AAXX 09181 23032 11496 82307 11025 21041 30182 40213 52008 60010 78583 889// 333 11023 88912 91116
AAXX 09181 23058 11598 32308 11071 21084 30228 40232 52001 69960 73687 83500 333 11031
AAXX 09181 23242 32997 72302 11140 21160 30248 40265 52002 87030 333 11076
AAXX 09181 23256 11998 52408 11127 21140 30239 40276 52003 69900 73632 85030 333 11054 91012 91113
AAXX 09181 23330 31193 81902 11155 21161 30265 40287 52004 74841 8663/ 333 11127 86701 93523
AAXX 09181 23445 32297 81603 11056 21060 30277 40303 57003 886// 333 11048 88703
AAXX 09181 23552 12297 82402 11052 21059 30285 40321 57001 885// 333 11011 88705
AAXX 09181 23631 11997 81502 11062 21070 30251 40294 57007 69950 77172 8807/ 333 11064
AAXX 09181 23662 12498 82402 11069 21078 30289 40335 52006 60020 885// 333 11015 88610
AAXX 09181 23724 11998 82101 11061 21069 30221 40288 54000 69940 77172 8802/ 333 11064
AAXX 09181 23734 32598 71403 11072 21077 30206 40302 57011 87500 333 11041
AAXX 09181 23849 42696 62102 11106 21133 40350 57005 83530 333 83643
AAXX 09181 23867 12999 80000 11077 21083 30290 40364 57002 69900 8801/ 333 11071
AAXX 09181 23933 12997 81702 11150 21175 30279 40339 57004 69910 80001 333 11093
AAXX 09181 28064 32998 22001 11135 21170 30243 40341 57006 80001 333 11086
AAXX 09181 28275 32997 00000 11206 21225 30319 40385 57004 333 11162
AAXX 09181 28493 32997 00000 11216 21234 30301 40403 57004 333 11109
AAXX 09181 28698 12997 00501 11141 21184 30228 40395 57008 69900 333 11095
BBXX 44060 09181 99413 70721 46/// ///05 10081 91830 22200 00119 333 91206 555 11051 22051
BBXX 44022 09181 99409 70737 46/// ///06 10090 20030 91830 22200 00101 333 91208 555 11062 22067
BBXX 44040 09181 99410 70736 46/// /2206 10097 20037 91819 22200 10201 70003 333 91209 555 11082 22098
BBXX 46219 09181 99332 71199 46/// ///// 1//// 91828 22200 00135 12203 21002 331// 42202 70014
BBXX 46224 09181 99332 71175 46/// ///// 1//// 91806 22200 00154 11701 20501 320// 41701 70006
BBXX 46214 09181 99379 71235 46/// ///// 1//// 91827 22200 00115 12004 21003 329// 42003 70021
BBXX 51204 09181 99213 71581 46/// ///// 1//// 91822 22200 00248 11503 20702 331// 41502 70016
BBXX 51202 09181 99214 71577 46/// ///// 1//// 91809 22200 00241 10704 20704 333// 41501 70022
BBXX 46036 09181 99484 71339 46/// /2007 10069 40267 57016 22200 00087 11605 70027 333 91208
BBXX WC5932 09184 99456 70870 43/// /2921 00/// 11060 21128 40228 52003 7//// 8//// 22243 0//// 2//// 3//// 4//// 5//// 6//// 81078 ICE /////
BBXX ONFP 09184 99357 30117 43593 32319 10150 2010/ 40240 57010 70100 83183 22233 04162 20703 31818 40904 50904 6//// 80120 ICE /////
BBXX WHKM 09184 99362 10254 41998 03213 10130 20051 40250 52010 7//00 80000 22273 0//// 20202 3//// 40302 5//// 6//// 80090 ICE /////
BBXX V7HC6 09184 99273 70907 41697 70417 10180 20148 40230 56009 70222 85497 22200 00230 20402 305// 40602 5//// 6//// 80160 ICE /////
BBXX 62141 09183 99493 50590 41597 73537 10117 40080 57031 72122 87372 22200 20607 33535 40504 50607
BBXX ONFP 09184 99357 30117 43593 32319 10150 2010/ 40240 57010 70100 83183 22233 04162 20703 31818 40904 50904 6//// 80120 ICE /////
BBXX A8GH5 09183 99252 70157 41497 60515 10210 20172 40165 54000 70200 84770 22214 20401 80185
BBXX MZIU7 09184 99284 70162 41998 30510 10231 20112 40193 54000 7//00 83080 22200 20000 300// 400// 5//// 80164
BBXX AMOUK15 09184 99181 50030 46/// ///// 10208 20155 30138 40171 57010 91750
BBXX AMOUK01 09184 99328 30173 46/// ///// 10174 20129 30142 40151 52007 91750
BBXX A8UL5 09183 99286 30423 41898 30910 10245 20209 40118 52013 70200 81481 22214 20303 3//// 4//// 5//// 80220
BBXX A8FQ8 09183 99283 30132 41298 31435 10180 20131 40160 53020 70122 83872 22234 00183 20706 312// 40808 80150
BBXX AMOUK17 09184 99327 30573 46/// ///// 10200 20177 30190 40199 52013 91750
BBXX A8QL5 09181 99117 70239 41597 30507 10260 20210 40100 53002 71011 81945 22244 04280 20101 319// 40301 80225
BBXX ZDLS1 09183 99328 30172 41598 21621 10169 20166 40135 52005 70200 8/494 22232 04146 20508 318// 40804 80167
BBXX A8QJ7 09183 99095 50330 41498 31508 10270 20241 40098 57019 7//11 8/1// 22253 06240 20402 31007 40402 50402 80250
BBXX PBOF 09183 99384 11213 41497 62824 10007 21011 40290 56020 70222 8//// 22273 04120 20402 80000 90162
BBXX UDWE 09181 99502 11560 41997 93210 11040 49925 51010 77021 22253 00038 20202 30500 40805
BBXX A8MV6 09183 99111 11118 41/97 83628 10270 20241 40090 56010 70322 88/1/ 22253 04290 20707 33699 41006 5//// 80250
BBXX A8SI9 09184 99534 11700 43496 82628 10020 2101/ 49670 56020 886// 22234 00062 20804 325// 41010 80010
BBXX MCCW7 09184 99062 10913 41498 40408 10280 20243 40095 51021 70322 844// 22263 00277 29901 3//// 4//// 5//// 80254
BBXX MGSM3 09184 99066 11379 41498 60919 10283 20240 40043 54000 70022 86/// 22233 04300 20501 31010 41003 51003 80240
BBXX WC5932 09184 99456 70870 43/// /2921 00/// 11060 21128 40228 52003 7//// 8//// 22243 0//// 2//// 3//// 4//// 5//// 6//// 81078 ICE /////
BBXX 46036 09181 99484 71339 46/// /2007 10069 40267 57016 22200 00087 11605 70027 333 91208
BBXX 44140 09181 99429 70515 46/// /3206 10132 40292 52022 22200 00108 11207 70036 333 91208
BBXX OYCY2 09184 99389 71362 41596 50610 10110 2011/ 40300 54000 742// 8528/ 22224 00170 20302 306// 40502 5//// 6//// 80110 ICE /////
BBXX 44258 09181 99445 70634 46/// /2210 10068 40276 57008 22200 00076 11104 70021 333 91211
BBXX 44099 09181 99369 70757 46/// ///// 1//// 91822 22200 00133 10902 20902 70009
BBXX 44039 09181 99411 70727 46/// /2703 10083 20028 91753 22200 00111 10401 70004 333 91205
BBXX 46146 09181 99493 71237 46/// /3004 10026 40275 57004 22200 00055 10200 70002 333 91206
BBXX CFO383 09184 99439 70602 47998 /2307 10063 2105/ 40294 5//// 700// 8/ // 22200 00093 11007 2//// 3//// 70033 80025 333 91011
BBXX KS094 09184 99170 70621 43/// /1109 10269 40112 22222 06272
BBXX KS088 09184 99267 70801 43/// /1412 10240 40188 22200 06234
BBXX 46004 09181 99509 71361 46/// /2109 10070 40219 57023 22200 00079 11507 70033 333 91211
BBXX 46243 09181 99462 71241 46/// ///// 1//// 91829 22200 00093 11803 21002 327// 41803 70017
BBXX 46215 09181 99352 71209 46/// ///// 1//// 91808 22200 00132 12202 20901 326// 42202 70012
BBXX 46225 09181 99329 71174 46/// ///// 1//// 91814 22200 00160 11301 20501 322// 41301 70006
BBXX 46229 09181 99438 71246 46/// ///// 1//// 91821 22200 00105 11804 20702 329// 41803 70018
BBXX 46236 09181 99368 71219 46/// ///// 1//// 91820 22200 00117 12002 20901 328// 42001 70010
BBXX 46213 09181 99403 71247 46/// ///// 1//// 91824 22200 00108 12005 20804 330// 42003 70024
BBXX 46246 09181 99500 71451 46/// ///// 1//// 91829 22200 00076 11707 20803 327// 41706 70034
BBXX 46246 09181 99500 71451 46/// ///// 1//// 91759 22200 00076 11708 21004 327// 41707 70038
BBXX 46232 09181 99325 71174 46/// ///// 1//// 91808 22200 00145 11302 20701 325// 41301 70008
BBXX 46247 09181 99378 71228 46/// ///// 1//// 91821 22200 00117 12003 21002 328// 42002 70016
BBXX 46184 09181 99539 71389 46/// /3207 10059 40188 57003 22200 00068 11006 70029 333 91208
BBXX 44032 09181 99437 70694 46/30 /2210 10075 40239 58015 91804 22200 00093 10504 70018 333 91212 555 11130 22138
BBXX 44058 09181 99376 70763 46/// /3601 10107 40251 57017 91800 22200 00112 1//00 70001 333 91201
BBXX 44058 09181 99376 70763 46/// /3501 1//// 40248 91810 333 91201
BBXX 44058 09181 99376 70763 46/// /0401 1//// 91820 333 91201
BBXX 44057 09181 99395 70761 46/// /2206 10088 40253 57021 91800 22200 00079 333 91208
BBXX 44059 09181 99368 70763 46/// /1703 1//// 91820 333 91204
BBXX 44057 09181 99395 70761 46/// /2206 1//// 91820 333 91208
BBXX 44059 09181 99368 70763 46/// /1603 10146 40237 57020 91800 22200 00129 333 91204
BBXX 44057 09181 99395 70761 46/// /2106 1//// 40252 91810 333 91208
BBXX 44061 09181 99388 70770 46/// /2505 1//// 40248 91810 333 91207
BBXX 44061 09181 99388 70770 46/// /2506 10087 40249 57024 91800 22200 00075 333 91208
BBXX 44059 09181 99368 70763 46/// /1604 1//// 40236 91810 333 91205
BBXX 44061 09181 99388 70770 46/// /2505 1//// 91820 333 91207
BBXX 46092 09181 99368 71220 46/// /1206 10099 40220 52018 91757 22200 00120 555 11067 22072
BBXX DCDP2 09184 99432 70511 41497 73318 10070 20026 40275 52020 70311 86273 22264 04080 21005 80050
BBXX GDTT 09184 99211 70689 41498 60722 10300 20258 40167 58/// 7//11 8/2// 22273 00300 20406 305// 40406 80270
BBXX MZDL7 09183 99304 71179 41597 60107 10150 20113 40225 52010 70311 86800 22231 00180 20000 332// 40603 5//// 80130
BBXX VQKZ6 09184 99347 70352 41498 30319 10195 20153 40294 57010 70200 82101 22254 02180 20302 309// 40403 5//// 80170
BBXX 44043 09181 99392 70764 46/// /1805 1//// 40246 91810 333 91206
BBXX 44043 09181 99392 70764 46/// /1805 10090 40248 57021 91800 22200 00092 10201 70004 333 91206
BBXX 41009 09181 99285 70802 46/// /0905 10240 20156 40205 91820 22200 00249 10703 20502 300// 40702 70014 333 91207 555 11056 22058
BBXX 41010 09181 99289 70785 46/// /0905 10230 40207 91820 22200 00241 10803 20401 300// 40802 70013 333 91206 555 11050 22052
BBXX 44043 09181 99392 70764 46/// /1806 1//// 91820 333 91207
BBXX 44042 09181 99380 70763 46/// /3301 10096 40257 57015 91800 22200 00107 1//00 70001 333 91201
BBXX 44042 09181 99380 70763 46/// /3301 1//// 40255 91810 333 91201
BBXX 44041 09181 99372 70768 46/// /3304 1//// 40274 91810 333 91205
BBXX 44042 09181 99380 70763 46/// /3402 1//// 91820 333 91202
BBXX 44063 09181 99390 70764 46/// /2106 10091 40266 56017 91800 22200 00097 1//00 70002 333 91207
BBXX 44041 09181 99372 70768 46/// /3304 10090 40275 57017 91800 22200 00121 1//00 70001 333 91205
BBXX 44063 09181 99390 70764 46/// /2106 1//// 40261 91810 333 91207
BBXX 44062 09181 99386 70764 46/// /2204 10096 40236 57018 91800 22200 00104 10201 70003 333 91205
BBXX 44063 09181 99390 70764 46/// /2106 1//// 91820 333 91207
BBXX 44041 09181 99372 70768 46/// /3204 1//// 91820 333 91205
BBXX 44062 09181 99386 70764 46/// /2104 1//// 91820 22200 00105 333 91205
BBXX 44062 09181 99386 70764 46/// /2104 1//// 40235 91810 22200 00105 333 91205
BBXX 46205 09181 99542 71343 46/// /2108 10073 40186 57027 22200 00080 11507 70033 333 91210
BBXX 46181 09181 99538 71288 46/// /0301 10007 40253 57021 22200 00032 10200 70000 333 91202
BBXX 46132 09181 99497 71279 46/// /3102 10056 40262 57005 22200 00082 11604 70018 333 91204
BBXX 46206 09181 99488 71260 46/// /0502 10062 40264 57003 22200 00089 11703 70014 333 91203
BBXX 46208 09181 99525 71327 46/// /2007 10071 40226 57023 22200 00077 11705 70025 333 91208
BBXX 46185 09181 99524 71298 46/// /2105 10062 40247 57014 22200 00072 11701 70007 333 91207
BBXX YJUF7 09184 99448 70592 41998 32711 10043 2104/ 40288 55010 70111 80001 22261 00058 20402 32329 40805 50704 80010
BBXX 44060 09181 99413 70721 46/// ///05 10079 91815 22200 00119 333 91206 555 11046 22051
BBXX 44022 09181 99409 70737 46/// ///07 10088 20028 91815 22200 00101 333 91209 555 11072 22072
BBXX 46087 09181 99485 71247 46/// /1008 10058 20042 40259 91820 22200 00081 333 91210 555 11087 22091 31731 41011 61819 103082 099083 095083 097088 102088 102089
BBXX 44040 09181 99410 70736 46/// /2107 10094 20035 91815 22200 10201 70003 333 91208 555 11088 22103
BBXX 44034 09181 99441 70681 46/30 /2110 10078 40249 56012 91804 22200 00092 11104 70019 333 91212 555 11125 22132
BBXX 44030 09181 99432 70704 46/// /2106 1//// 40243 56017 91804 22200 00091 11102 70010 333 91209 555 11079 22084
BBXX 44029 09181 99425 70706 46/30 /1905 10079 40244 56023 91804 22200 00092 333 91206 555 11064 22067
BBXX 41036 09181 99342 70770 46/// ///// 10182 20137 40226 91820 22200 00172
BBXX KS078 09184 99406 31731 43/// /3123 10158 40184 22243
BBXX 9HA2479 09184 99292 31576 46/// /2114 10211 20169 30061 40090 52002 22254 04217 85184
BBXX VROB 09184 99068 31470 46/// /3313 10250 20228 30050 40075 57014 22200 04306 85234
BBXX FHZI 09184 99485 31455 46/// /0705 10105 20096 30053 40064 57021 22283 04105 85100
BBXX C6FS9 09184 99193 31468 46/// /0708 10264 20241 30053 40088 57002 22200 04293 85247
BBXX ZMKA 09183 99392 31730 41598 70208 10171 20164 40254 54000 70222 83779 22283 20200 322// 40501 80167
BBXX SHIP 09184 99095 30862 41598 72105 10267 20230 40069 57007 70311 8215/ 22243 00281 10805 299// 31823 40703 50701 85240
BBXX WHKM 09184 99362 10254 41998 03213 10130 20051 40250 52010 7//00 80000 22273 0//// 20202 3//// 40302 5//// 6//// 80090 ICE /////
BBXX SHIP 09183 99417 10301 41597 42506 10090 2003/ 40260 54000 7//00 84876 22213 00120 2//// 3//// 4//// 5//// 6//// 80060 ICE /////
BBXX A8PF6 09184 99440 70333 41697 82724 10160 20160 40230 54000 7//22 887// 22273 0//// 20402 327// 40606 5//// 6//// 80160 ICE /////
BBXX UCAD 09181 99716 10258 41/97 91807 10020 40037 54000 70221 88/// 22233 00080 20303
AAXX 09184 62600 31968 00209 10200 20040 39976 40192 70600 10235 58008
AAXX 09184 62640 31930 00216 10220 20010 39759 40119 70700 10300 59006
AAXX 09184 62641 31565 73612 10250 20184 30100 40148 70722 82570 10255 56990 58003 82630 87365
AAXX 09181 21908 42999 00000 11419 21443 30110 40204 52007
AAXX 09181 78458 21458 70000 10260 20246 40148 57025 76162 87800 333 10288 20212 31/// 56200 58000 60120 87817
AAXX 09181 78460 21460 71403 10228 20211 40147 56014 71784 85923 333 10290 20190 31/// 56100 58012 69937 82918 83820 84457
AAXX 09181 78467 21466 40903 10242 20228 40137 57018 72181 83220 333 10270 20217 31/// 56200 58002 60217 83818
AAXX 09181 78479 32566 40905 10301 20238 40128 57008 70280 84200 333 10308 20255 30/// 56200 58006 84822
AAXX 09181 78482 32566 31304 10319 20211 40141 57029 83901 333 10325 20190 30/// 56000 59009 81921 82825
AAXX 09181 7848532566 40805 10301 20212 40128 57004 84200 333 10314 20212 30/// 56100 58018 84820
AAXX 09181 78486 21558 60302 10269 20226 40117 57024 76022 83920 333 10316 20229 31/// 56200 59003 69900 81922 82622 84457
AAXX 09181 78488 32566 40208 10280 20225 40135 57021 84200 333 10305 20195 30/// 56100 59005 84820
AAXX 09184 91723 NIL
AAXX 09184 91964 NIL
AAXX 09181 31152 42997 81802 11300 21330 39693 40135 57010 86036
AAXX 09181 31163 NIL
AAXX 09181 31285 41999 80000 11214 21247 30033 40117 57006 77171 85026
AAXX 09181 31561 42998 82701 11211 21230 30087 40117 56011 80005
AAXX 09181 31683 42999 80000 11265 21277 30044 40125 57009 80005
AAXX 09181 32010 41498 52504 11131 21144 30009 40059 54000 70282 82902 333 91005 91107
BBXX A8PX5 09184 99516 11613 41597 32835 10010 21016 49850 54000 70100 8/4// 22254 04030 21007 3//// 4//// 5//// 80000
BBXX A8SI9 09184 99534 11700 43496 82628 10020 21010 49670 56020 886// 22234 00062 20804 325// 41010 80010
BBXX DCTA2 09180 99303 11608 41/98 72310 10238 20202 40130 51010 70222 87/3/ 22225 04210 2//03 330// 4//06 5//// 80213
BBXX SHIP 09184 99362 11576 41694 73610 10110 20092 40026 52022 70011 86456 22264 399// 40209 80100
BBXX UDWE 09181 99502 11560 41997 93210 11040 49925 51010 77021 22253 00038 20202 30500 40805
AAXX 09181 30961 42999 00000 11164 21177 39416 40248 57019
BBXX 44137 09181 99423 70620 46/// /2101 10076 40309 57006 22200 00123 11205 70025 333 91203
BBXX 44137 09181 99423 70620 46/// /2101 10076 40309 57006 22200 00123 11205 70025 333 91203
AAXX 09184 63688 32980 00907 10136 20048 48/// 333 10220 59002
AAXX 09184 63708 32580 30000 10245 20129 48475 81530 333 10305 59002 81622 83359
AAXX 09184 63740 32570 4408 10180 20130 48498 84500 333 10284 58000 84620
AAXX 09184 63772 12980 00505 10272 20233 69902 333 10325
AAXX 09184 63820 32580 10508 10275 20247 40086 81100 333 10342 59003 81822
AAXX 09184 63612 NIL
AAXX 09184 63661 NIL
AAXX 09184 63671 NIL
AAXX 09184 63695 NIL
AAXX 09184 63714 NIL
AAXX 09184 63723 NIL
AAXX 09184 63793 NIL
AAXX 09184 71923 16/// ///11 11243 21264 39662 40127 56006 60001 333 11241 21259 70000 555 10010
AAXX 09184 71963 16/// /2705 11257 21281 39696 40118 56014 60001 333 11245 21281 70000
AAXX 09184 71490 16/// /2712 11291 21317 39787 40125 56010 60001 333 11276 21296 7////
AAXX 09184 71592 16/// /3401 11201 21229 30001 40014 57009 60001 333 11152 21208 70000
BBXX 44138 09181 99443 70536 46/// /3106 10052 40290 52013 22200 00090 11210 70048 333 91208
BBXX 44138 09181 99443 70536 46/// /3106 10052 40290 52013 22200 00090 11210 70048 333 91208
BBXX 46004 09181 99509 71361 46/// /2109 10070 40219 57023 22200 00079 11507 70033 333 91211
BBXX 46036 09181 99484 71339 46/// /2007 10069 40267 57016 22200 00087 11605 70027 333 91208
BBXX 46181 09181 99538 71288 46/// /0301 10007 40253 57021 22200 00032 10200 70000 333 91202
BBXX 46183 09181 99536 71311 46/// /1706 10059 40226 57017 22200 00080 1//// 70/// 333 912//
BBXX 46185 09181 99524 71298 46/// /2105 10062 40247 57014 22200 00072 11701 70007 333 91207
BBXX 46204 09181 99514 71288 46/// /1403 10056 40257 57012 22200 00080 11502 70012 333 91204
BBXX 46205 09181 99542 71343 46/// /2108 10073 40186 57027 22200 00080 11507 70033 333 91210
BBXX 46206 09181 99488 71260 46/// /0502 10062 40264 57003 22200 00089 11703 70014 333 91203
BBXX 46208 09181 99525 71327 46/// /2007 10071 40226 57023 22200 00077 11705 70025 333 91208
BBXX OYCY2 09184 99389 71362 41596 50610 10110 20110 40300 54000 742// 8528/ 22224 00170 20302 306// 40502 5//// 6//// 80110 ICE /////
AAXX 09184 94290 46/// /0210 10286 30070 40079 55001 91824
AAXX 09184 94210 35/// /2212 10273 30051 40056 57013
AAXX 09184 94289 46/// /0409 10289 30066 40073 56004 91815
AAXX 09184 94379 46/// /0313 10253 30086 40095 55003 91826
AAXX 09184 94997 46/// ///// 10027 30101 40116 5////
AAXX 09184 89610 46/// /0423 11046 39518 4//// 5//// 333 90700 91128
AAXX 09184 89614 46/// /0926 11095 29077 38859 4//// 5//// 333 90700 91131
AAXX 09184 89807 46/// /1715 11030 29084 39635 4//// 5//// 333 90700 91119
AAXX 09184 83437 32599 53604 10305 20178 39357 40062 84203 333 59010
AAXX 09184 83579 21597 80903 10246 20197 38979 40077 76166 88800 333 59003 60031
AAXX 09184 83592 32597 63604 10271 20202 39406 40074 83220 333 59021
AAXX 09184 82784 32598 30903 10331 20220 39625 40071 83200 333 58006
AAXX 09184 94290 46/// /0210 10286 30070 40079 55001 91824
AAXX 09184 94997 46/// ///// 10027 30101 40116 5////
AAXX 09184 89610 46/// /0423 11046 39518 4//// 5//// 333 90700 91128
AAXX 09184 89614 46/// /0926 11095 29077 38859 4//// 5//// 333 90700 91131
AAXX 09184 89807 46/// /1715 11030 29084 39635 4//// 5//// 333 90700 91119
AAXX 09181 55228 32980 00000 11122 21278 36017 54000 333 05158 10008
AAXX 09181 55578 32980 02505 10043 21271 36344 52006 333 05506 10137
AAXX 09181 55664 32980 00000 11088 21240 35995 57006 333 05554 10080
AAXX 09181 55773 32970 00000 11104 21150 36006 57006 333 05452 10065
AAXX 09181 56116 32680 51402 10000 21105 36316 52003 81102 333 05406 10079
AAXX 09181 56137 32780 70000 10005 21159 36765 52007 82402 333 05504 10143
AAXX 09181 56172 32980 70000 11004 21062 37356 52018 80002 333 05101 10118
AAXX 09181 56247 32980 00000 10044 21068 37397 52014 333 05401 10172
AAXX 09181 56312 11580 81401 10031 21005 37076 57004 69901 78300 884// 333 05451 10133
AAXX 09181 56462 11580 81403 10038 21014 37122 57004 69901 78000 884// 333 05406 10130
AAXX 09181 56651 32980 00701 10052 20000 37641 52001 333 05152 10142
AAXX 09181 56691 11466 80204 11038 21049 37834 52008 69931 76676 8772/ 333 05152 11001 93428
AAXX 09181 56985 11658 81602 10093 20069 38755 40231 52004 69901 76060 885// 333 00153 10127
AAXX 09181 57633 11765 80401 10024 21043 39563 40377 54000 69901 77070 885// 333 00051 10048
AAXX 09181 57902 11458 80404 10020 20014 38717 40316 52008 69971 76060 887// 333 00052 10050
BBXX PDHO 09183 99341 10231 41998 03605 10150 20101 40274 52012 70200 80000 22225 00173 20101 30000 80122
AAXX 09181 55279 32880 71605 11086 21247 35680 54000 85402 333 05454 10032
AAXX 09181 55472 32980 03602 11072 21258 35718 54000 333 05557 10036
AAXX 09181 55696 32980 00000 11024 21081 36329 52004 333 05403 10139
AAXX 09181 56079 32780 60702 11094 21139 36710 52008 86900 333 00151 10018
AAXX 09181 56106 32780 60000 11027 21205 36177 52004 85132 333 05606 10083
AAXX 09181 56257 32680 32901 11020 21087 36255 52003 83400 333 05301 10118
AAXX 09181 56374 11480 81406 11054 21096 37479 52011 69921 78588 884// 333 00052 11013
AAXX 09181 56385 11/00 93203 11110 21115 37056 52006 60011 77074 333 00153 11064
AAXX 09181 56954 32565 60000 10137 20137 40144 54000 83240 333 05151 10258
AAXX 09181 56966 11775 80905 10165 20099 40195 52008 69901 70060 885// 333 00253 10199
AAXX 09181 57237 32975 63204 10040 21074 40366 52009 86040 333 10063
AAXX 09181 57306 32964 83201 10063 20040 40365 52009 8807/ 333 10097
AAXX 09181 57604 11430 83402 10060 20054 40353 52008 60021 76066 885// 333 10084
AAXX 09181 57707 11462 80000 10004 21005 38593 52006 69941 76877 887// 333 00051 10027
AAXX 09181 57832 11664 80401 10024 21067 39592 40360 52004 69901 70060 885// 333 00151 10063
AAXX 0918/ 48969 NIL
AAXX 0918/ 48962 NIL
AAXX 0918/ 48990 NIL
AAXX 0918/ 48986 NIL
AAXX 0918/ 48995 NIL
AAXX 0918/ 48967 NIL
AAXX 0918/ 48992 NIL
AAXX 0918/ 48965 NIL
AAXX 0918/ 48985 NIL
AAXX 0918/ 48970 NIL
AAXX 0918/ 48991 NIL
AAXX 0918/ 48964 NIL
AAXX 0918/ 48997 NIL
AAXX 0918/ 48968 NIL
AAXX 0918/ 48973 NIL
AAXX 0918/ 48966 NIL
AAXX 0918/ 48983 NIL
AAXX 0918/ 48972 NIL
AAXX 0918/ 48998 NIL
AAXX 0918/ 48993 NIL
AAXX 0918/ 48971 NIL
AAXX 0918/ 48963 NIL
AAXX 0918/ 48987 NIL
BBXX 44024 09181 99423 70659 46/30 /2206 10083 40290 54000 91804 22200 00091 11104 70022 333 91207 555 11075 22079
BBXX 41052 09181 99183 70648 46/// /0610 10271 40104 91830 333 91215
BBXX 41052 09181 99183 70648 46/// /0508 10277 40103 91820 333 91209
BBXX 41052 09181 99183 70648 46/// /0608 10278 40104 91810 333 91210
BBXX 41053 09181 99185 70661 46/// /0608 10275 40116 91830 333 91210
BBXX 41053 09181 99185 70661 46/// /0807 10269 40116 91820 333 91209
BBXX 41053 09181 99185 70661 46/// /1007 10266 40118 91810 333 91210
BBXX 9HA2064 09183 99352 71669 41797 61813 10180 20164 40250 54000 7//22 86171 22224 0//// 2//// 3//// 4//// 5//// 6//// 80170 ICE /////
AAXX 09184 71048 16/// /2616 11021 21085 60001 333 11021 21185 70000
AAXX 09184 71981 16/// /2608 11004 21072 60001 333 11004 21133 70000
AAXX 09184 71982 16/// /2705 11058 21103 60001 333 11055 21145 70000
AAXX 09184 71986 16/// /1805 11030 21079 60001 333 11030 21191 70000
AAXX 09184 71990 17/// /2302 11091 21101 38451 40059 53001 60011 7//4/ 333 11089 21165 70059 555 10070
AAXX 09184 71354 47/// /2508 11018 21062 6///1 7//4/ 333 11018 21183 7////
AAXX 09184 71406 17/// /2631 11018 21067 30102 40112 53003 69971 7//4/ 333 11016 21041 70189
AAXX 09184 71418 46/// /2729 10037 21029 30191 40224 53002 6///1 333 10039 21003 7////
AAXX 09184 71277 46/// /1609 11055 21086 6///1 333 11006 21130 7////
BBXX 44056 09181 99362 70757 46/// ///// 1//// 91750 22200 00142 11102 20602 309// 41101 70009
BBXX 45143 09181 99449 70806 46/// /2811 11009 39968 40187 57004 22200 00073 10502 70012 333 91214
BBXX 45143 09181 99449 70806 46/// /2811 11009 39968 40187 57004 22200 00073 10502 70012 333 91214
AAXX 09181 45032 36/// /0105 10107 21014 30228 40245 54000
AAXX 09181 45035 36/// /0106 10121 20014 30200 40244 57001
AAXX 09181 45039 36/// /0204 10119 20016 30223 40238 54000
AAXX 09181 45044 36/// /0009 10117 20023 30133 40230 57001 333 91114
AAXX 09181 45032 36/// /0105 10107 21014 30228 40245 54000
AAXX 09181 45035 36/// /0106 10121 20014 30200 40244 57001
AAXX 09181 45039 36/// /0204 10119 20016 30223 40238 54000
AAXX 09181 45044 36/// /0009 10117 20023 30133 40230 57001 333 91114
BBXX MNAN4 09184 99342 30181 41497 41622 10180 20180 40135 50030 70300 84200 22243 20504 317// 40905 5//// 80180
BBXX WRAH 09184 99157 10546 41598 20413 10230 2//// 40150 51003 7//00 821// 22254 00257 20202 334// 40304 5//// 6//// 8//// ICE /////
BBXX WKPF 09183 99414 70377 41297 82109 10185 20161 40264 57010 71622 887// 22264 00167 202// 3//// 405// 505// 6//// 80170 ICE /////
AAXX 09184 83384 32597 50000 10346 20182 39495 40058 83292 333 59019
AAXX 09184 83386 32598 60508 10322 20184 39531 40051 82246 333 59012
AAXX 09184 83388 32497 43203 10340 20168 39392 40040 83201 333 59012
AAXX 09184 83393 32599 63603 10316 20171 39360 40062 82226 333 59018
AAXX 09184 83442 32597 70000 10326 20218 39704 40036 81252 333 59023
AAXX 09184 83479 31598 73612 10279 20178 39286 40073 71522 87700 333 59008
AAXX 09184 83483 32598 63604 10340 20218 39493 40042 83216 333 59022
AAXX 09184 83531 32597 73203 10264 20195 39060 40076 87500 333 58002
AAXX 09184 83538 32597 83602 10236 20166 38677 40047 87020 333 59010
AAXX 09184 83574 21794 83602 10236 20224 39549 40156 5//// 76066 88700 333 60041
AAXX 09184 83582 21597 80902 10252 20215 39312 40070 57018 76362 88700 333 60021
AAXX 09184 83595 32597 63202 10330 20230 39995 40078 83254 333 59008
AAXX 09184 83692 21697 83204 10214 20199 39120 40152 58051 72162 882// 333 60011
AAXX 09184 82863 32598 53604 10332 20235 39851 40059 83340 333 58003
AAXX 09184 83228 32799 53604 10348 20211 39779 40048 82202 333 59005
AAXX 09184 83368 32698 60502 10320 20227 39691 40049 86200 333 59009
AAXX 09184 83374 32598 53206 10310 20215 39502 40064 85200 333 59002
AAXX 09184 83526 21498 80904 10212 20198 39139 40071 71796 883// 333 58001 60131
BBXX 42085 09181 99179 70665 46/// /1009 10277 40108 91830 333 91211
BBXX 42085 09181 99179 70665 46/// /0909 10282 40108 91820 333 91210
BBXX 42085 09181 99179 70665 46/// /1007 10281 40109 91810 333 91209
BBXX 42360 09181 99267 70905 46/// /0508 10195 91800 22200 00246 10402 70011 333 91210
BBXX MNAN4 09184 99342 30181 41497 41622 10180 20180 40135 50030 70300 84200 22243 20504 317// 40905 5//// 80180
BBXX WRAH 09184 99157 10546 41598 20413 10230 2//// 40150 51003 7//00 821// 22254 00257 20202 334// 40304 5//// 6//// 8//// ICE /////
BBXX WKPF 09183 99414 70377 41297 82109 10185 20161 40264 57010 71622 887// 22264 00167 202// 3//// 405// 505// 6//// 80170 ICE /////
BBXX 44056 09181 99362 70757 46/// ///// 1//// 91750 22200 00142 11102 20602 309// 41101 70009
BBXX 41052 09181 99183 70648 46/// /0608 10278 40104 91810 333 91210
BBXX 41053 09181 99185 70661 46/// /0608 10275 40116 91830 333 91210
BBXX 41053 09181 99185 70661 46/// /0807 10269 40116 91820 333 91209
BBXX 41053 09181 99185 70661 46/// /1007 10266 40118 91810 333 91210
BBXX 41052 09181 99183 70648 46/// /0508 10277 40103 91820 333 91209
BBXX 41052 09181 99183 70648 46/// /0610 10271 40104 91830 333 91215
BBXX 44024 09181 99423 70659 46/30 /2206 10083 40290 54000 91804 22200 00091 11104 70022 333 91207 555 11075 22079
BBXX WDE8265 09183 99428 70494 41398 83624 10070 2005/ 40276 52020 70152 86518 22265 0//// 20204 32715 41005 50504 6//// 80060 ICE /////
BBXX 44138 09181 99443 70536 46/// /3106 10052 40290 52013 22200 00090 11210 70048 333 91208
BBXX KIYI 09184 99541 71359 41397 82219 10078 2007/ 40175 57040 75122 886// 22274 0//// 20102 326// 40805 5//// 6//// 80075 ICE /////
BBXX 44137 09181 99423 70620 46/// /2101 10076 40309 57006 22200 00123 11205 70025 333 91203
BBXX V7HC6 09184 99273 70907 41697 70417 10180 20148 40230 56009 70222 85497 22200 00230 20402 305// 40602 5//// 6//// 80160 ICE /////
BBXX 44040 09181 99410 70736 46/// /2206 10097 20037 91819 22200 10201 70003 333 91209 555 11082 22098
BBXX 44022 09181 99409 70737 46/// ///06 10090 20030 91830 22200 00101 333 91208 555 11062 22067
BBXX 44060 09181 99413 70721 46/// ///05 10081 91830 22200 00119 333 91206 555 11051 22051
BBXX 46214 09181 99379 71235 46/// ///// 1//// 91827 22200 00115 12004 21003 329// 42003 70021
BBXX 46219 09181 99332 71199 46/// ///// 1//// 91828 22200 00135 12203 21002 331// 42202 70014
BBXX 46224 09181 99332 71175 46/// ///// 1//// 91806 22200 00154 11701 20501 320// 41701 70006
BBXX 41113 09181 99284 70805 46/// ///// 1//// 91821 22200 00219 11102 20902 70008
BBXX 44100 09181 99363 70756 46/// ///// 1//// 91822 22200 00144 10902 20902 70010
BBXX 41112 09181 99307 70813 46/// ///// 1//// 91821 22200 00166 10502 20502 70010
BBXX 42364 09181 99291 70881 46/// /3603 10161 20083 40247 91830
BBXX 42099 09181 99273 70842 46/// ///// 1//// 91827 22200 00240 10502 20502 70008
BBXX 42361 09181 99276 70925 46/// ///08 10189 20122 40224 58013 91830 555 11064 22068
BBXX 42363 09181 99282 70892 46/// /0408 10172 20089 40247 91830 333 91208
BBXX 46239 09181 99363 71221 46/// ///// 1//// 91821 22200 00130 12004 20902 330// 42003 70019
BBXX 46238 09181 99334 71195 46/// ///// 1//// 91820 22200 00151 12202 20601 330// 42201 70010
BBXX 45143 09181 99449 70806 46/// /2811 11009 39968 40187 57004 22200 00073 10502 70012 333 91214
BBXX PDHO 09183 99341 10231 41998 03605 10150 20101 40274 52012 70200 80000 22225 00173 20101 30000 80122
BBXX UCAD 09181 99716 10258 41/97 91807 10020 40037 54000 70221 88/// 22233 00080 20303
BBXX 63119 09184 99578 70022 41/97 /0627 10017 21030 40010 52/// 756// 8//// 22200 2//// 331// 40404 5////
AAXX 0918/ 89767 46/// ///// 11159 39612 4//// 5////
AAXX 09184 89016 46/89 /3315 11063 29080 39193 4//// 5////
AAXX 09184 89657 46/// /1504 11098 20013 49792 58008
AAXX 09184 62600 31968 00209 10200 20040 39976 40192 70600 10235 58008
AAXX 09184 62640 31930 00216 10220 20010 39759 40119 70700 10300 59006
AAXX 09184 62641 31565 73612 10250 20184 30100 40148 70722 82570 10255 56990
AAXX 09184 48433 31956 20404 10180 20140 39983 40154 57010 71000 80005 333 58023
AAXX 09181 47008 42970 03201 11073 21116 30168 40225 57001
AAXX 09181 47014 42950 00000 11202 21221 39863 40306 53001
AAXX 09181 47016 42970 30501 11208 21248 39380 40290 53002 80002
AAXX 09181 47020 42965 00000 11140 21167 39891 40299 58005
AAXX 09181 47025 42961 00000 11084 21107 30196 40227 57013
AAXX 09181 47035 42965 03601 11110 21135 30283 40272 57002
AAXX 09181 47041 42970 00000 11098 21119 30200 40229 57013
AAXX 09181 47055 42965 00000 11061 21113 30197 40245 57007
AAXX 09181 47058 42960 00000 11069 21102 30232 40282 57004
AAXX 09181 47069 42565 13202 11039 21084 30168 40272 58009 81500
AAXX 09181 47003 42980 02705 11055 21216 30220 40224 54000
AAXX 09181 47005 42980 01802 11210 21235 38582 57004
AAXX 09181 47028 42962 00000 11119 21154 30179 40281 57010
AAXX 09181 47031 42970 80000 11204 21216 38933 58004 80002
AAXX 09181 47037 42970 03201 11082 21167 30143 40172 57003
AAXX 09181 47039 42960 00000 11112 21132 30081 40285 57002
AAXX 09181 47046 42969 80000 11061 21092 30199 40223 57010 80002
AAXX 09181 47050 42965 00000 11092 21132 30235 40271 52001
AAXX 09181 47052 42965 00000 11146 21166 39929 40295 52005
AAXX 09181 47060 42960 80701 11036 21093 30217 40277 57006 8804/
AAXX 09181 47061 42980 03202 11041 21105 30194 40240 57010
AAXX 09181 47065 42970 00000 11054 21087 30215 40283 58005
AAXX 09181 47067 42965 00000 11080 21101 30174 40302 52002
AAXX 09181 47068 42970 82701 11012 21055 30233 40269 57007 8803/
AAXX 09181 47070 42970 00000 11058 21101 30194 40286 52004
AAXX 09181 47075 42980 02305 11097 21155 39748 40200 57006
BBXX DDDI2 09184 99053 30801 41/98 /2917 10288 20236 40090 51020 70300 8//// 22254 04290 2//// 80250
BBXX DDYZ2 09184 99162 10412 41997 00811 10265 20230 40120 53005 70100 80000 22274 04280 20302 310// 40402 80240
BBXX DQXQ 09184 99226 11166 41596 80323 10142 20090 40225 57010 70222 885// 22254 00190 2//// 80113
BBXX PCQL 09183 99034 31183 41/98 /3207 10250 20207 40085 56010 76162 8//// 22213 04285 2//// 80220
BBXX VRGW2 09184 99080 11098 41397 /3522 10261 20245 40092 58013 70222 8/212 22215 04270 20504 80250
BBXX VVPG 09183 99189 10725 41798 43506 10280 20264 40099 51002 70201 84021 222// 00/// 2////
BBXX VRBQ6 09184 99286 11433 41498 /2917 10210 20164 40184 54000 70222 8//// 22214 00240 2//// 80180
BBXX VQOG5 09184 99059 10971 41/98 80610 10280 20246 40086 58003 71352 8637/ 22223 00286 2//// 80256
BBXX VQIB9 09183 99050 11106 41/98 /0215 10270 20234 40082 54000 70211 8//// 22214 00/// 2//// 80245
BBXX 9VDD2 09184 99542 71673 41498 31724 10055 20000 40220 53070 70300 821/5 22264 06015 20504 324// 40706 80030
BBXX 9VDD3 09184 99381 11354 41397 62725 10060 21010 40220 5//// 7//22 85333 22214 00080 20104 80030
AAXX 09184 89667 46/// ///99 00138 11010 29059 39765 4//// 5//// 91820
AAXX 09184 89667 46/// /01// 11012 39734 4//// 5//// 91810
AAXX 09184 89667 46/// /0761 11018 39734 4//// 5////
AAXX 0918/ 89828 46/// ///// 11393 36404 4//// 5//// 91820
AAXX 0918/ 89108 46/// ///// 11245 36801 4//// 5//// 91820
AAXX 0918/ 89879 46/// ///// 11024 39649 4//// 5//// 91820
AAXX 0918/ 89879 46/// ///// 11018 39650 4//// 5//// 91830
AAXX 0918/ 89872 46/// ///// 11029 39685 4//// 5//// 91820
AAXX 0918/ 89869 46/// ///// 11053 39671 4//// 5//// 91820
AAXX 0918/ 89869 46/// ///// 11049 39671 4//// 5//// 91830
AAXX 0918/ 89866 46/// ///// 11031 39616 4//// 5//// 91830
AAXX 0918/ 89329 46/// ///// 11105 38619 4//// 5//// 91820
AAXX 0918/ 89799 46/// ///// 11295 4//// 5//// 91830
AAXX 0918/ 89868 46/// ///// 11056 39674 4//// 5//// 91820
AAXX 0918/ 89332 46/// ///// 11023 39124 4//// 5//// 91820
AAXX 0918/ 89769 46/// ///// 11036 39698 4//// 5//// 91820
AAXX 0918/ 89769 46/// ///// 11031 39699 4//// 5//// 91830
AAXX 0918/ 89314 46/// ///// 11131 38074 4//// 5//// 91830
AAXX 0918/ 89667 46/// ///// 4//// 5////
AAXX 09184 47407 11/60 73202 11080 21098 39963 40144 58004 69901 78582 872//
AAXX 09184 47746 11/65 81204 10012 20002 30201 40221 55005 69901 70382 8157/
BBXX 9VDD3 09184 99381 11354 41397 62725 10060 21010 40220 5//// 7//22 85333 22214 00080 20104 80030
BBXX PBOF 09183 99384 11213 41497 62824 10007 21011 40290 56020 70222 8//// 22273 04120 20402 80000 90162
AAXX 09184 89062 41457 63416 10028 21036 39746 49786 52008 70172 8655/ 333 86615
AAXX 09184 71012 16/// /2310 11011 21073 60001 333 11011 21200 70000
AAXX 09184 71013 16/// ///// 11028 21079 60001 333 11028 21161 70000
AAXX 09184 71060 16/// /2506 11027 21072 38662 40261 50000 60001 333 11027 21121 70006
AAXX 09184 71073 16/// /1706 11008 21087 60001 333 11008 21126 70000
AAXX 09184 71399 16/// ///// 11030 21088 60001 333 11030 21206 70000
AAXX 09184 71793 16/// ///// 11025 21083 60001 333 11025 21195 70000
AAXX 09184 71848 16/// ///// 10018 21069 60001 333 10019 21105 70000
AAXX 09184 71565 16/// /2609 11079 21099 60001 333 11060 21158 70000
AAXX 09184 71566 16/// /2002 11020 21073 60001 333 11020 21113 70000
AAXX 09184 71567 16/// /2203 11076 21105 60001 333 11076 21241 70014
AAXX 09184 71974 46/// /1505 11271 21293 30059 40103 57006 6///1 333 11229 21271 7////
AAXX 09184 71495 16/// /2512 10031 21082 60001 333 10031 21093 70000
BBXX 46241 09181 99330 71173 46/// ///// 1//// 91811 22200 00145 10501 20501 326// 41301 70005
BBXX 41110 09181 99341 70777 46/// ///// 1//// 91821 22200 00157 11002 21002 70011
BBXX 46216 09181 99343 71198 46/// ///// 1//// 91827 22200 00147 11101 20501 327// 41101 70005
BBXX 46223 09181 99335 71178 46/// ///// 1//// 91830 22200 00158 11201 20601 320// 41201 70005
BBXX 46231 09181 99327 71174 46/// ///// 1//// 91824 22200 00156 11302 20601 325// 41301 70008
BBXX 46222 09181 99336 71183 46/// ///// 1//// 91826 22200 00160 11301 20601 326// 41301 70006
BBXX 46242 09181 99332 71174 46/// ///// 1//// 91828 22200 00154 11201 20601 322// 41201 70005
AAXX 09181 08509 11460 63103 10160 20147 30221 40286 53002 60022 70252 86800 333 10163 81815 86635
AAXX 0918/ 89327 46/// ///// 10014 39845 4//// 5//// 91830
AAXX 0918/ 89872 46/// ///// 11029 39685 4//// 5//// 91830
AAXX 0918/ 89329 46/// ///// 11108 38618 4//// 5//// 91830
AAXX 0918/ 89799 46/// ///// 11296 4//// 5//// 91840
AAXX 09181 89063 41497 73205 10005 21006 39855 49866 52019 71072 875// 333 44128
AAXX 09184 97748 31460 62606 10270 20241 30059 40061 54000 70522 82232 333 56600 57862 82815 84075 80850
AAXX 09184 97126 32457 80000 10244 20232 30025 40085 57020 60021 70262 8392/ 333 56009 57900 69907 82915 88460 80980
AAXX 09184 89062 41457 63416 10028 21036 39746 49786 52008 70172 8655/ 333 86615
BBXX 63106 09184 99610 10017 46/// /2937 10040 49780 53015 22200
BBXX 63113 09184 99610 10017 46/// /3041 10032 20031 49820 52017 22200 11018 70088
BBXX 62107 09184 99501 70061 46/// /3214 10092 20012 40155 52004 22200 00122 10905 70025
BBXX 62159 09184 99605 10017 41393 72950 10026 20026 49819 52015 76362 847// 22200 11418 70089
AAXX 09181 08509 11460 63103 10160 20147 30221 40286 53002 60022 70252 86800 333 10163 81815 86635 555 60007
AAXX 09184 89646 46/// ///04 11317 29074 37499 4//// 5////
AAXX 09184 89648 46/// /2507 11299 29062 37074 4//// 5////
AAXX 09184 89659 46/// /2913 11248 29071 37566 4//// 5////
AAXX 09184 89661 46/// /2701 11053 29048 39124 4//// 5////
AAXX 09184 89666 46/// /3207 11064 29079 39555 4//// 5////
AAXX 09181 40001 32570 60805 10076 21054 40145 58010 84550 333 10112 84626 86360
AAXX 09181 40007 11460 80905 10073 20059 40119 55008 60122 76062 8557/ 333 10112 85626 88360
AAXX 09181 40025 11560 73006 10106 20086 40123 53006 60082 79596 87800 333 10170 83926 86630
AAXX 09181 40045 32570 81407 10118 20054 40143 57017 8452/ 333 10154 84630 88460
AAXX 09181 40061 11560 82407 10062 20038 40146 52022 60042 76062 8552/ 333 10158 85630 88460
AAXX 09181 40080 32565 53013 10100 20005 39437 40150 53012 85800 333 10160 82826 84630
AAXX 09181 40087 NIL
AAXX 09181 40095 NIL
AAXX 09181 40009 11565 80602 10070 20056 40091 57024 60132 76266 8552/ 333 10140 85630 88460
AAXX 09181 40016 NIL
AAXX 09181 40022 11565 62808 10098 20086 40131 53026 60202 76169 86800 333 10162 84830 85630
AAXX 09181 40030 11565 72903 10092 20043 40122 58002 60052 70266 83570 333 10150 83630 87360
AAXX 09181 40039 11565 82004 10089 20076 40123 53020 60122 76264 8552/ 333 10123 85630 88460
AAXX 09181 40066 11570 72708 10084 20053 40142 52024 60183 76096 87400 333 10158 87626
AAXX 09181 40072 32570 60000 10124 20051 40158 57010 83550 333 10184 83630 86360
AAXX 09181 40083 11570 52502 10026 21026 48438 53011 69992 72161 85800 333 10112 82826 84630
AAXX 09184 48440 31957 00000 10219 20179 30077 40127 57001 71010 333 58017
AAXX 09184 97008 31458 50000 10248 20236 30053 40064 57011 71511 82132 333 56000 82819
BBXX 46221 09181 99339 71186 46/// ///// 1//// 91815 22200 00150 11401 20501 324// 41401 70006
AAXX 09184 71502 46/// /2907 11098 21104 39974 49990 5/007 6///1 333 11092 21184 7////
AAXX 09184 71509 16/// /2517 10037 21053 60001 333 10037 21098 70000
AAXX 09184 71517 16/// /2516 10020 21057 60001 333 10020 21134 70000
AAXX 09184 71518 16/// /2208 11011 21053 60001 333 11011 21151 70000
AAXX 09184 71519 16/// /2407 10011 21045 60001 333 10011 21116 70000
AAXX 09184 71528 16/// /2516 10011 21042 60001 333 10011 21114 70000
AAXX 09184 71789 16/// ///// 10029 21059 60001 333 10029 21114 70000
AAXX 09184 71791 16/// /2406 11033 21077 60001 333 11033 21223 70000
AAXX 09184 71794 16/// ///// 11013 21067 60001 333 11013 21208 70000
AAXX 09184 71795 46/// ///// 10006 21050 6///1 333 10006 21161 7////
AAXX 09184 71796 16/// ///// 10006 21068 60001 333 10006 21203 70000
AAXX 09184 71797 16/// ///// 11050 21087 60001 333 11050 21199 70000
AAXX 09184 71006 16/// /2610 10008 21066 60001 333 10008 7////
AAXX 09184 71007 16/// ///// 10008 21062 60001 333 10008 21131 70007
AAXX 09184 71008 16/// /2610 11041 21078 60001 333 11041 21142 70000
AAXX 09184 71009 16/// /1402 11020 21083 60001 333 11020 21143 70000
AAXX 09184 71035 16/// ///// 11008 21078 60001 333 11008 21146 70000
AAXX 09184 71102 16/// ///// 11066 21100 60001 333 11066 21218 70000
AAXX 09184 71105 16/// ///// 11015 21063 60001 333 11015 21188 70000
AAXX 09184 71841 16/// /2810 11145 21202 39756 40170 51007 60001 333 11144 21191 70000
AAXX 09184 71051 16/// ///// 10016 21082 60001 333 10016 21113 7////
AAXX 09184 71057 16/// ///// 11015 21086 60001 333 11015 21126 70000
AAXX 09184 71070 16/// ///// 10013 21057 60001 333 10013 21073 70000
AAXX 09184 71089 16/// ///// 11025 21077 60001 333 11025 21229 70000
AAXX 09184 71433 46/// /3026 11049 21078 39935 40170 51009 6///1 333 11027 21054 7////
AAXX 09184 71409 16/// ///// 11022 21071 60001 333 11022 21142 70000
AAXX 09184 71841 16/// /2810 11145 21202 39756 40170 51007 60001 333 11144 21191 70000
AAXX 09184 71433 46/// /3026 11049 21078 39935 40170 51009 6///1 333 11027 21054 7////
AAXX 09184 71789 16/// ///// 10029 21059 60001 333 10029 21114 70000
AAXX 09184 71791 16/// /2406 11033 21077 60001 333 11033 21223 70000
AAXX 09184 71794 16/// ///// 11013 21067 60001 333 11013 21208 70000
AAXX 09184 71795 46/// ///// 10006 21050 6///1 333 10006 21161 7////
AAXX 09184 71796 16/// ///// 10006 21068 60001 333 10006 21203 70000
AAXX 09184 71797 16/// ///// 11050 21087 60001 333 11050 21199 70000
AAXX 09184 71006 16/// /2610 10008 21066 60001 333 10008 7////
AAXX 09184 71007 16/// ///// 10008 21062 60001 333 10008 21131 70007
AAXX 09184 71008 16/// /2610 11041 21078 60001 333 11041 21142 70000
AAXX 09184 71009 16/// /1402 11020 21083 60001 333 11020 21143 70000
AAXX 09184 71035 16/// ///// 11008 21078 60001 333 11008 21146 70000
AAXX 09184 71502 46/// /2907 11098 21104 39974 49990 5/007 6///1 333 11092 21184 7////
AAXX 09184 71509 16/// /2517 10037 21053 60001 333 10037 21098 70000
AAXX 09184 71517 16/// /2516 10020 21057 60001 333 10020 21134 70000
AAXX 09184 71518 16/// /2208 11011 21053 60001 333 11011 21151 70000
AAXX 09184 71519 16/// /2407 10011 21045 60001 333 10011 21116 70000
AAXX 09184 71528 16/// /2516 10011 21042 60001 333 10011 21114 70000
AAXX 09184 71102 16/// ///// 11066 21100 60001 333 11066 21218 70000
AAXX 09184 71105 16/// ///// 11015 21063 60001 333 11015 21188 70000
AAXX 09184 71409 16/// ///// 11022 21071 60001 333 11022 21142 70000
AAXX 09184 71051 16/// ///// 10016 21082 60001 333 10016 21113 7////
AAXX 09184 71057 16/// ///// 11015 21086 60001 333 11015 21126 70000
AAXX 09184 71070 16/// ///// 10013 21057 60001 333 10013 21073 70000
AAXX 09184 71089 16/// ///// 11025 21077 60001 333 11025 21229 70000
AAXX 0918/ 89332 46/// ///// 11023 39123 4//// 5//// 91830
AAXX 0918/ 89108 46/// ///// 11244 36801 4//// 5//// 91830
AAXX 09184 89667 46/// /3300 11010 29055 39734 4//// 5//// 91830
AAXX 09184 89063 41497 73205 10005 21006 39855 49866 52019 71072 875// 333 44128
BBXX DDYZ2 09184 99162 10412 41997 00811 10265 20230 40120 53005 70100 80000 22274 04280 20302 310// 40402 80240
BBXX VRGW2 09184 99080 11098 41397 /3522 10261 20245 40092 58013 70222 8/212 22215 04270 20504 80250
BBXX VQOG5 09184 99059 10971 41/98 80610 10280 20246 40086 58003 71352 8637/ 22223 00286 2//// 80256
BBXX SHIP 09184 99286 11433 41498 /2917 10210 20164 40184 54000 70222 8//// 22214 00240 2//// 80180
BBXX VVPG 09183 99189 10725 41798 43506 10280 20264 40099 51002 70201 84021 222// 00/// 2////
BBXX VQIB9 09183 99050 11106 41/98 /0215 10270 20234 40082 54000 70211 8//// 22214 00/// 2//// 80245
BBXX 9VDD3 09184 99381 11354 41397 62725 10060 21010 40220 5//// 7//22 85333 22214 00080 20104 80030
BBXX DQXQ 09184 99226 11166 41596 80323 10142 20090 40225 57010 70222 885// 22254 00190 2//// 80113
BBXX 46221 09181 99339 71186 46/// ///// 1//// 91815 22200 00150 11401 20501 324// 41401 70006
BBXX WKDY 09183 99370 70731 41598 60809 10120 20102 40265 57003 70222 83148 22224 00216 20205 305// 40306 5//// 6//// 80110 ICE /////
BBXX 46223 09181 99335 71178 46/// ///// 1//// 91830 22200 00158 11201 20601 320// 41201 70005
BBXX 46222 09181 99336 71183 46/// ///// 1//// 91826 22200 00160 11301 20601 326// 41301 70006
BBXX 46242 09181 99332 71174 46/// ///// 1//// 91828 22200 00154 11201 20601 322// 41201 70005
BBXX 46231 09181 99327 71174 46/// ///// 1//// 91824 22200 00156 11302 20601 325// 41301 70008
BBXX 46216 09181 99343 71198 46/// ///// 1//// 91827 22200 00147 11101 20501 327// 41101 70005
BBXX 41110 09181 99341 70777 46/// ///// 1//// 91821 22200 00157 11002 21002 70011
BBXX 46241 09181 99330 71173 46/// ///// 1//// 91811 22200 00145 10501 20501 326// 41301 70005
BBXX WCOB 09184 99249 70859 41497 83423 10220 20174 40186 57012 75052 887// 22274 0//// 20204 332// 40306 5//// 6//// 80190 ICE /////
BBXX 9VDD2 09184 99542 71673 41498 31724 10055 20000 40220 53070 70300 821/5 22264 06015 20504 324// 40706 80030
BBXX 42360 09181 99267 70905 46/// /0508 10195 91800 22200 00246 10402 70011 333 91210
BBXX 42085 09181 99179 70665 46/// /1009 10277 40108 91830 333 91211
BBXX 42085 09181 99179 70665 46/// /0909 10282 40108 91820 333 91210
BBXX 42085 09181 99179 70665 46/// /1007 10281 40109 91810 333 91209
BBXX DDDI2 09184 99053 30801 41/98 /2917 10288 20236 40090 51020 70300 8//// 22254 04290 2//// 80250
BBXX PCQL 09183 99034 31183 41/98 /3207 10250 20207 40085 56010 76162 8//// 22213 04285 2//// 80220
BBXX 62159 09184 99605 10017 41393 72950 10026 20026 49819 52015 76362 847// 22200 11418 70089
AAXX 09181 27612 113// 81701 11004 21016 39977 40174 57012 69942 71087 887// 333 11004
BBXX WCOB 09184 99249 70859 41497 83423 10220 20174 40186 57012 75052 887// 22274 0//// 20204 332// 40306 5//// 6//// 80190 ICE /////
BBXX WKDY 09183 99370 70731 41598 60809 10120 20102 40265 57003 70222 83148 22224 00216 20205 305// 40306 5//// 6//// 80110 ICE /////
BBXX A8TG2 09184 99303 71328 41598 80214 10170 20094 40210 54000 70255 8546/ 22224 20204 305// 40204 80130
BBXX A8ZS7 09184 99071 30829 41598 82512 10275 20234 40080 53/// 76288 8696/ 22254 04260 29902 80245
BBXX A8RV8 09184 99204 11135 41297 80430 10200 20153 40190 52/// 75022
AAXX 09181 10616 12380 32703 10026 20014 39528 40135 52007 60052 831// 333 10051 20019 31000 55300 83807 91113
AAXX 09184 89003 46/89 /3225 11103 29064 38793 4//// 5////
AAXX 09184 89507 46/89 /1010 11251 29068 36641 4//// 5////
AAXX 09184 71249 16/// /2720 11040 21084 60001 333 11040 21133 70000
AAXX 09184 71055 46/// /1907 11143 21153 39691 40025 56004 6///1 333 11137 21253 7////
AAXX 09184 71065 16/// ///// 11054 21091 60001 333 11054 21246 70000
AAXX 09184 71520 17/// /2113 11137 21156 39451 40140 52004 69941 7//4/ 333 11134 7////
AAXX 09184 71521 16/// ///// 11121 21163 60001 333 11102 21192 70000
AAXX 09184 71523 16/// ///// 11072 21129 39775 40158 58011 60001 333 11063 7////
AAXX 09184 71540 16/// /1302 11080 21110 60001 333 11051 21138 70000
AAXX 09184 71544 16/// ///// 11005 21060 60001 333 11005 21166 70000
AAXX 09184 71548 16/// ///// 11044 21082 60001 333 11044 21220 70000
AAXX 09184 71346 16/// /2414 10024 21045 60001 333 10024 21096 70000
AAXX 09184 71674 16/// ///// 11009 21071 60001 333 11009 21180 70000
AAXX 09184 71481 16/// /3303 11014 21084 60001 333 11014 21133 70000
AAXX 09184 71498 16/// /2110 11032 21079 60001 333 11032 21110 70000
AAXX 09184 71014 16/// /2502 10012 21082 60001 333 10014 21139 70000
AAXX 09184 71360 16/// ///// 11012 21070 60001 333 11012 21226 70000
AAXX 09184 71380 16/// /2411 11013 21078 60001 333 11005 21131 70000
AAXX 09184 71383 16/// ///// 11120 21154 39539 40161 53002 60001 333 21149 7////
AAXX 09184 71857 16/// ///// 11085 21120 60001 333 11085 21223 70000
AAXX 09184 71413 16/// ///// 10006 21070 60001 333 10006 21183 70000
AAXX 09184 71414 16/// ///// 11063 21098 60001 333 11063 21226 70000
AAXX 09184 71440 16/// ///// 10000 21074 60001 333 10000 21114 70000
AAXX 09184 71520 17/// /2113 11137 21156 39451 40140 52004 69941 7//4/ 333 11134 7////
AAXX 09184 71521 16/// ///// 11121 21163 60001 333 11102 21192 70000
AAXX 09184 71523 16/// ///// 11072 21129 39775 40158 58011 60001 333 11063 7////
AAXX 09184 71540 16/// /1302 11080 21110 60001 333 11051 21138 70000
AAXX 09184 71544 16/// ///// 11005 21060 60001 333 11005 21166 70000
AAXX 09184 71548 16/// ///// 11044 21082 60001 333 11044 21220 70000
AAXX 09184 71249 16/// /2720 11040 21084 60001 333 11040 21133 70000
AAXX 09184 71055 46/// /1907 11143 21153 39691 40025 56004 6///1 333 11137 21253 7////
AAXX 09184 71065 16/// ///// 11054 21091 60001 333 11054 21246 70000
AAXX 09181 27459 11397 81202 11053 21063 30007 40209 57010 60050 77172 8772/ 333 11040 87707
AAXX 09184 63705 32970 11304 10230 20194 38832 48488 80001 333 10267 58002 81080 555 10204
AAXX 09184 61017 32960 50000 10180 20038 39757 40172 80002 333 10280 59003 85080
AAXX 09184 61024 31945 41012 10230 20006 39580 40151 70700 80002 333 10283 58008 84080
AAXX 09184 61036 31956 70804 10290 20000 39862 40099 7052/ 80008 333 10324 58002 87280
AAXX 09184 61043 32960 70610 10265 21080 39676 40118 80008 333 10305 59002 87280
AAXX 09184 61045 31956 71008 10250 21005 39630 40129 7064/ 80008 333 10290 59008 87280
AAXX 09184 61049 31918 70404 10250 20060 39800 40121 7062/ 80008 333 10282 58003 87280
AAXX 09184 61052 31918 50804 10285 21036 39852 40109 70622 80002 333 10328 59005 85080
AAXX 09184 61075 31957 51002 10272 21008 39798 40107 70622 80002 333 10315 59002 85080
AAXX 09184 61080 31925 71006 10256 21018 39701 40124 70622 80008 333 10300 58001 87280
AAXX 09184 61090 31925 70406 10255 21080 39614 40127 70622 80008 333 10288 58001 87280
AAXX 09184 61091 31958 70000 10240 20060 39676 40135 7052/ 80008 333 10295 58003 87280
AAXX 09184 61096 31930 70406 10248 21046 39745 40130 70522 80008 333 10302 58009 87280
AAXX 09184 61099 31945 70406 10290 20020 39861 40088 7062/ 80008 333 10334 58002 87280
AAXX 09184 88903 45/// /0213 10090 21010 30011 40011 53004
AAXX 09184 61017 32960 50000 10180 20038 39757 40172 80002 333 10280 59003 85080
AAXX 09184 61024 31945 41012 10230 20006 39580 40151 70700 80002 333 10283 58008 84080
AAXX 09184 61036 31956 70804 10290 20000 39862 40099 7052/ 80008 333 10324 58002 87280
AAXX 09184 61043 32960 70610 10265 21080 39676 40118 80008 333 10305 59002 87280
AAXX 09184 61045 31956 71008 10250 21005 39630 40129 7064/ 80008 333 10290 59008 87280
AAXX 09184 61049 31918 70404 10250 20060 39800 40121 7062/ 80008 333 10282 58003 87280
AAXX 09184 61052 31918 50804 10285 21036 39852 40109 70622 80002 333 10328 59005 85080
AAXX 09184 61075 31957 51002 10272 21008 39798 40107 70622 80002 333 10315 59002 85080
AAXX 09184 61080 31925 71006 10256 21018 39701 40124 70622 80008 333 10300 58001 87280
AAXX 09184 61090 31925 70406 10255 21080 39614 40127 70622 80008 333 10288 58001 87280
AAXX 09184 61091 31958 70000 10240 20060 39676 40135 7052/ 80008 333 10295 58003 87280
AAXX 09184 61096 31930 70406 10248 21046 39745 40130 70522 80008 333 10302 58009 87280
AAXX 09184 61099 31945 70406 10290 20020 39861 40088 7062/ 80008 333 10334 58002 87280
AAXX 09184 63729 32480 50000 10205 20189 38847 48/// 81902 333 55300 58004 81617 81919 85071
AAXX 09184 63733 32580 20000 10211 20190 38837 48477 81931 333 10280 55300 58000 81921
AAXX 09184 63756 12580 60000 10216 20198 38847 48483 8194/ 333 0//17 10280 58003 81820 81921 86359
AAXX 09184 63791 32580 11119 10254 20153 39090 48478 81501 333 10350 55300 59008 81626
AAXX 09184 63801 12580 60000 10224 20203 39195 48513 69922 8197/ 333 0//17 10260 58002 81820 81922 86359
AAXX 09184 63832 12480 70000 10206 20197 38812 48485 60212 8397/ 333 10263 55300 58009 83816 81917 87357
AAXX 09184 63862 01580 82705 10202 20185 38886 48493 60302 79296 8592/ 333 0//65 10310 58008 60077 85622 81923 88458
AAXX 09184 63866 32580 70610 10274 20206 39480 48/// 87900 333 10340 59011 87620 81928
AAXX 09184 63870 32480 10608 10278 20252 30055 40073 81200 333 10330 55300 59010 81818
AAXX 09184 63881 01480 72404 10163 20148 38195 48/// 60082 76062 83920 333 0//13 10216 58015 60017 83617 81919 86456
AAXX 09184 63887 01580 81905 10170 20169 38578 48494 60722 76196 8597/ 333 0//95 10275 55300 58009 60727 85820 81923 88358
AAXX 09184 63894 32580 40312 10272 20251 30020 40080 84200 333 10327 55300 59006 84822
AAXX 09184 63932 12580 80000 10163 20160 38303 48502 60101 8592/ 333 58015 85620 81921 88458
AAXX 09184 63962 11580 70304 10222 20189 38923 48483 60022 71796 8592/ 333 10301 58003 85622 81924 84457
AAXX 09184 63971 11580 73608 10246 20240 39952 40080 60142 70262 8397/ 333 0//19 10290 55300 58003 83820 81921 85458
AAXX 09183 63661 32980 00000 10160 20110 48520 333 10257 58001
AAXX 09183 63695 32980 23603 10145 20129 82040 333 82359
OOXX FRP31 09151 99052 70527 ///// 00091 26/// /0604 10285 29072 30186 91557 333 60000
OOXX FRP31 09161 99052 70527 ///// 00091 26/// /0605 10281 29073 30184 91607 333 60000
OOXX FRP31 09161 99052 70527 ///// 00091 26/// /0603 10285 29072 30182 91617 333 60000
OOXX FRP31 09161 99052 70527 ///// 00091 26/// /0604 10285 29072 30179 91627 333 60000
OOXX FRP31 09161 99052 70527 ///// 00091 26/// /0605 10287 29069 30178 91637 333 60000
OOXX FRP31 09161 99052 70527 ///// 00091 26/// /0505 10290 29069 30177 91647 333 60000
OOXX FRP31 09161 99052 70527 ///// 00091 26/// /0605 10293 29068 30175 91657 333 60000
OOXX FRP31 09171 99052 70527 ///// 00091 26/// /0705 10297 29066 30173 91707 333 60000
OOXX FRP31 09171 99052 70527 ///// 00091 26/// /0506 10294 29068 30171 91717 333 60000
OOXX FRP31 09171 99052 70527 ///// 00091 26/// /0407 10288 29070 30169 91727 333 60000
OOXX FRP31 09171 99052 70527 ///// 00091 26/// /0506 10292 29070 30169 91737 333 60000
OOXX FRP31 09171 99052 70527 ///// 00091 26/// /0506 10293 29068 30167 91747 333 60000
AAXX 09184 97016 01464 80000 10244 20234 30073 40075 56009 60011 70262 84971 333 56000 57901 57801 69907 81919 83820 84460 80984 80860
AAXX 09184 78764 32660 20815 10252 20149 39025 40149 57015 82100 333 10256 20178 30/// 562// 59001 82635
AAXX 09184 78764 32660 20815 10252 20149 39025 40149 57015 82100 333 10256 20178 30/// 562// 59001 82635
AAXX 09184 78764 32660 20815 10252 20149 39025 40149 57015 82100 333 10256 20178 30/// 562// 59001 82635
BBXX DDDI2 09184 99053 30801 41/98 /2917 10288 20236 40090 51020 70300 8//// 22254 04290 2//// 80250
BBXX 9VDD2 09184 99542 71673 41498 31724 10055 20000 40220 53070 70300 821/5 22264 06015 20504 324// 40706 80030
BBXX KIYI 09184 99541 71359 41397 82219 10078 20070 40175 57040 75122 886// 22274 0//// 20102 326// 40805 5//// 6//// 80075 ICE /////
AAXX 09184 71352 16/// /2513 11008 21021 39731 40192 58011 60001 333 11007 21019 70013
AAXX 09184 91844 46/// /0000 10256 40123 22200 00272
AAXX 09184 71352 16/// /2513 11008 21021 39731 40192 58011 60001 333 11007 21019 70013
AAXX 09181 58968 11557 81003 10140 20123 30231 40239 58012 60011 76162 887//
AAXX 09181 58974 46/// /0312 10137 20101 30119 40246 58012
AAXX 09181 59358 32660 80105 10151 20118 30163 40195 57008 885//
AAXX 09181 59559 32965 60410 10205 20131 30137 40165 58012 86050
AAXX 09181 59792 32460 80312 10200 20172 30178 40183 57011 8542/
AAXX 09181 59997 12460 60505 10270 20245 30063 40074 57016 6998/ 83880
AAXX 09181 59158 32660 80103 10152 20110 30088 40191 58014 885//
AAXX 09181 59562 32675 73501 10181 20122 30188 40200 58009 8257/
AAXX 09181 59567 46/// /0110 10171 20171 39793 40175 55007
AAXX 09184 65557 32460 1//// 10285 20227 39844 40082 81200 333 10/// 58000 81815 94902
AAXX 09184 85406 12980 02310 10217 20135 40121 56006 60001
AAXX 09184 85418 12980 52317 10206 20126 40129 56009 60001 80001 333 56000 85080
AAXX 09184 85442 12565 11912 10198 20110 40123 57014 60001 81500 333 56400 81620
AAXX 09184 85469 42565 51010 10243 20166 40273 52003 85800 333 56200 83820 83630
AAXX 09184 85488 12462 72606 10182 20136 40138 58006 60001 87500 333 56000 83615 87617
AAXX 09184 85577 12960 02107 10301 20130 39509 40085 57024 60001
AAXX 09184 85585 12598 51205 10207 20106 40185 58005 60001 85500 333 56400 85630
AAXX 09184 85629 12980 02506 10290 20140 40090 57020 60001
AAXX 09184 85672 12970 02405 10288 20126 40118 57015 60001 333
AAXX 09184 85682 12962 02508 10217 20124 40131 57007 60001
AAXX 09184 85743 12960 02705 10245 20109 40129 58018 60001
AAXX 09184 85799 12660 52206 10200 20104 40143 57008 60001 83530 333 56450 83640 84359
AAXX 09184 97724 31457 63504 10230 20226 30055 40071 57014 70521 83232 333 56200 57822 82818 80842
AAXX 09181 98232 11560 80410 10238 20215 40113 58013 60241 78088 8557/ 333 56199 85620 85628 88358
AAXX 09184 85836 11770 52309 10188 20071 40151 56012 60001 70281 85050 333 56060 85356
AAXX 09184 85864 12670 10162 20109 40065 57020 60001 87200 333 56600 87833
AAXX 09184 85874 12680 53123 10164 20074 39444 40047 58020 60001 84201 333 56606 84840
AAXX 09184 85886 12670 32619 10212 20145 40031 56012 60001 81230 333 56660 81840
AAXX 09184 85892 12670 62920 10200 20074 40001 57028 60001 86200 333 56600 86835
AAXX 09184 85934 11570 70603 10131 20048 49943 57039 69901 72122 83570 333 56170 83625 87359
AAXX 09184 85968 12660 60806 10172 20046 49912 57056 60001 82178 333 56222 82843 83360 86266
AAXX 09184 89056 11225 83114 10007 20003 49905 50001 60003 71042 886// 333 56799 88704
AAXX 09184 89057 12460 80000 10029 20012 49902 54000 60003 886// 333 53399 88715
AAXX 09184 89058 31420 83214 10009 20002 39886 49907 57002 71000 886//
AAXX 09184 89059 11430 82310 10006 21013 49884 51005 69923 72822 886// 333 56299 88710
AAXX 09184 89251 31130 83214 10010 20004 49892 50004 71022 8651/
BBXX AMOUK08 09184 99501 70061 46/// ///// 10096 20028 30150 40155 54002 91750
BBXX 63106 09184 99610 10017 46/// /2937 10040 49780 53015 22200
BBXX 63105 09184 99610 10017 47496 ///// 10046 20023 49778 53010 751// 22200
BBXX AMOUK04 09184 99533 70062 46/// ///// 10063 20016 30087 4//// 52026 91750
BBXX WDC6055 09184 99435 70875 41/98 02309 11060 2//// 40230 5//// 70200 8//// 22283 00040 2//02 3//// 4//// 5//// 6//// 8//// ICE /////
BBXX A8RV8 09184 99204 11135 41297 80430 10200 20153 40190 52/// 75022
BBXX WDC6055 09184 99435 70875 41/98 02309 11060 2//// 40230 5//// 70200 8//// 22283 00040 2//02 3//// 4//// 5//// 6//// 8//// ICE /////
BBXX BSH02 09181 99542 10079 46/// ///// 22200 00085 21106 70030
BBXX BSH03 09181 99540 10081 46/// ///// 22200 00073 21007 70036
BBXX A8ZS7 09184 99071 30829 41598 82512 10275 20234 40080 53/// 76288 8696/ 22254 04260 29902 80245
BBXX A8TG2 09184 99303 71328 41598 80214 10170 20094 40210 54000 70255 8546/ 22224 20204 305// 40204 80130
OOXX MXP44 09161 99280 71140 ///// 00041 26/// /1422 10112 29054 30175 91610 333 60000
OOXX MXP44 09161 99280 71140 ///// 00041 26/// /1422 10115 29054 30175 91620 333 60000
OOXX MXP44 09161 99280 71140 ///// 00041 26/// /1422 10124 29054 30176 91630 333 60000
OOXX MXP44 09161 99280 71140 ///// 00041 26/// /1422 10127 29054 30176 91640 333 60000
OOXX MXP44 09161 99280 71140 ///// 00041 26/// /1422 10130 29054 30176 91650 333 60000
OOXX MXP44 09171 99280 71140 ///// 00041 26/// /1422 10134 29054 30176 91700 333 60000
OOXX MXP44 09171 99280 71140 ///// 00041 26/// /1422 10137 29054 30178 91710 333 60000
OOXX MXP44 09171 99280 71140 ///// 00041 26/// /1422 10139 29055 30178 91720 333 60000
OOXX MXP44 09171 99280 71140 ///// 00041 26/// /1422 10142 29055 30178 91730 333 60000
OOXX MXP44 09171 99280 71140 ///// 00041 26/// /1422 10146 29055 30177 91740 333 60000
OOXX MXP44 09171 99280 71140 ///// 00041 26/// /1422 10150 29055 30178 91750 333 60000
OOXX MXP44 09181 99280 71140 ///// 00041 26/// /1422 10157 29055 30178 91800 333 60000
OOXX AUP07 09161 99/// ///// ///// ///// 26/// /0107 10056 29095 30134 91657 333 60000
OOXX AUP07 09171 99/// ///// ///// ///// 26/// /3505 10056 29095 30133 91707 333 60000
OOXX AUP07 09171 99/// ///// ///// ///// 26/// /3305 10058 29095 30133 91717 333 60000
OOXX AUP07 09171 99/// ///// ///// ///// 26/// /3205 10059 29095 30133 91727 333 60000
OOXX AUP07 09171 99/// ///// ///// ///// 26/// /3305 10058 29095 30132 91737 333 60000
OOXX AUP07 09171 99/// ///// ///// ///// 26/// /3205 10059 29095 30131 91747 333 60000
OOXX AUP07 09171 99/// ///// ///// ///// 26/// /3005 10057 29095 30129 91757 333 60000
OOXX AUP07 09181 99/// ///// ///// ///// 26/// /3005 10058 29095 30128 91807 333 60000
OOXX AUP07 09181 99/// ///// ///// ///// 26/// /3606 10061 29095 30127 91817 333 60000
OOXX AUP07 09181 99/// ///// ///// ///// 26/// /0207 10062 29095 30127 91827 333 60000
OOXX AUP07 09181 99/// ///// ///// ///// 26/// /0208 10063 29095 30127 91837 333 60000
OOXX AUP07 09181 99/// ///// ///// ///// 26/// /0209 10063 29095 30126 91847 333 60000
OOXX GBP67 09161 99159 50057 ///// 04381 26/// /0305 10153 29099 39649 91600 333 69920
OOXX GBP67 09161 99159 50057 ///// 04381 26/// /0304 10158 29099 39650 91610 333 60000
OOXX GBP67 09161 99159 50057 ///// 04381 26/// /0503 10160 29099 39648 91620 333 60000
OOXX GBP67 09161 99159 50057 ///// 04381 26/// /0403 10161 29099 39649 91630 333 60000
OOXX GBP67 09161 99159 50057 ///// 04381 26/// /0703 10163 29099 39649 91640 333 60000
OOXX GBP67 09161 99159 50057 ///// 04381 26/// /0503 10162 29099 39649 91650 333 60000
OOXX GBP67 09171 99159 50057 ///// 04381 26/// /0603 10164 29099 39649 91700 333 60000
OOXX GBP67 09171 99159 50057 ///// 04381 26/// /0603 10165 29099 39649 91710 333 60000
OOXX GBP67 09171 99159 50057 ///// 04381 26/// /0403 10162 29099 39649 91720 333 60000
OOXX GBP67 09171 99159 50057 ///// 04381 26/// /0204 10161 29099 39650 91730 333 60000
OOXX GBP67 09171 99159 50057 ///// 04381 26/// /0104 10162 29099 39650 91740 333 60000
OOXX GBP67 09171 99159 50057 ///// 04381 26/// /0304 10162 29099 39652 91750 333 60000
OOXX FJP26 09161 99178 31775 ///// 00311 26/// /1302 10228 29092 30076 91610 333 60000
OOXX FJP26 09161 99178 31775 ///// 00311 26/// /1302 10228 29092 30075 91620 333 60000
OOXX FJP26 09161 99178 31775 ///// 00311 26/// /1402 10227 29092 30076 91630 333 60000
OOXX FJP26 09161 99178 31775 ///// 00311 26/// /1302 10228 29092 30075 91640 333 60000
OOXX FJP26 09161 99178 31775 ///// 00311 26/// /1302 10227 29092 30078 91650 333 60000
OOXX FJP26 09171 99178 31775 ///// 00311 26/// /1301 10226 29093 30080 91700 333 60000
OOXX FJP26 09171 99178 31775 ///// 00311 26/// /1202 10227 29092 30082 91710 333 60000
OOXX FJP26 09171 99178 31775 ///// 00311 26/// /1202 10230 29090 30082 91720 333 60000
OOXX FJP26 09171 99178 31775 ///// 00311 26/// /1102 10236 29087 30084 91730 333 60000
OOXX FJP26 09171 99178 31775 ///// 00311 26/// /1302 10237 29087 30085 91740 333 60000
OOXX FJP26 09171 99178 31775 ///// 00311 26/// /1401 10235 29088 30086 91750 333 60000
OOXX FJP26 09181 99178 31775 ///// 00311 26/// /0801 10234 29089 30089 91800 333 60000
OOXX MRP43 09161 99181 70159 ///// 00101 26/// /0304 10330 29009 30096 91640 333 60000
OOXX MRP43 09161 99181 70159 ///// 00101 26/// /3603 10328 29009 30096 91650 333 60000
OOXX MRP43 09171 99181 70159 ///// 00101 26/// /3603 10329 29012 30096 91700 333 60000
OOXX MRP43 09171 99181 70159 ///// 00101 26/// /3502 10326 29013 30096 91710 333 60000
OOXX MRP43 09171 99181 70159 ///// 00101 26/// /3104 10312 29014 30097 91720 333 60000
OOXX MRP43 09171 99181 70159 ///// 00101 26/// /3003 10315 29012 30098 91730 333 60000
OOXX MRP43 09171 99181 70159 ///// 00101 26/// /3004 10308 29014 30097 91740 333 60000
OOXX MRP43 09171 99181 70159 ///// 00101 26/// /3004 10302 29015 30098 91750 333 60000
OOXX MRP43 09181 99181 70159 ///// 00101 26/// /3005 10296 29015 30100 91800 333 60000
OOXX MRP43 09181 99181 70159 ///// 00101 26/// /3004 10291 29016 30100 91810 333 60000
OOXX MRP43 09181 99181 70159 ///// 00101 26/// /3103 10283 29017 30101 91820 333 60000
OOXX MRP43 09181 99181 70159 ///// 00101 26/// /3003 10279 29017 30102 91830 333 60000
OOXX GBP68 09161 99371 50123 ///// 00641 26/// /3601 10004 29082 30179 91600 333 60000
OOXX GBP68 09161 99371 50123 ///// 00641 26/// /3602 10005 29086 30179 91610 333 60000
OOXX GBP68 09161 99371 50123 ///// 00641 26/// /3602 10004 29090 30179 91620 333 60000
OOXX GBP68 09161 99371 50123 ///// 00641 26/// /3602 10001 29094 30178 91630 333 60000
OOXX GBP68 09161 99371 50123 ///// 00641 26/// /3602 10004 29098 30177 91640 333 60000
OOXX GBP68 09161 99371 50123 ///// 00641 26/// /3603 11006 29/// 30176 91650 333 60000
OOXX GBP68 09171 99371 50123 ///// 00641 26/// /3603 11004 29/// 30175 91700 333 60000
OOXX GBP68 09171 99371 50123 ///// 00641 26/// /3602 11006 29000 30176 91710 333 60000
OOXX GBP68 09171 99371 50123 ///// 00641 26/// /3601 11008 29000 30174 91720 333 60000
OOXX GBP68 09171 99371 50123 ///// 00641 26/// /3601 11005 29000 30175 91730 333 60000
OOXX GBP68 09171 99371 50123 ///// 00641 26/// /3601 10004 29000 30176 91740 333 60000
OOXX GBP68 09171 99371 50123 ///// 00641 26/// /3602 11005 29000 30175 91750 333 60000
OOXX RUP54 09161 99586 10494 ///// 01271 26/// /2004 11085 29093 30114 91627 333 60120
OOXX RUP54 09161 99586 10494 ///// 01271 26/// /2305 11085 29093 30114 91637 333 60120
OOXX RUP54 09161 99586 10494 ///// 01271 26/// /1204 11085 29093 30115 91647 333 60120
OOXX RUP54 09161 99586 10494 ///// 01271 26/// /3605 11085 29093 30115 91657 333 60120
OOXX RUP54 09171 99586 10494 ///// 01271 26/// /2306 11086 29093 30114 91707 333 60120
OOXX RUP54 09171 99586 10494 ///// 01271 26/// /0106 11086 29093 30114 91717 333 60120
OOXX RUP54 09171 99586 10494 ///// 01271 26/// /2407 11086 29093 30114 91727 333 60120
OOXX RUP54 09171 99586 10494 ///// 01271 26/// /2306 11087 29093 30112 91737 333 60120
OOXX RUP54 09171 99586 10494 ///// 01271 26/// /2306 11087 29093 30111 91747 333 60120
OOXX RUP54 09171 99586 10494 ///// 01271 26/// /1506 11088 29093 30112 91757 333 60120
OOXX RUP54 09181 99586 10494 ///// 01271 26/// /2906 11089 29093 30112 91807 333 60120
OOXX RUP54 09181 99586 10494 ///// 01271 26/// /2705 11090 29093 30113 91817 333 60120
OOXX RUP58 09161 99442 11320 ///// 01121 26/// /2001 11136 29046 30035 91642 333 60000
OOXX RUP58 09161 99442 11320 ///// 01121 26/// /2201 11136 29046 30035 91652 333 60000
OOXX RUP58 09171 99442 11320 ///// 01121 26/// /2401 11132 29045 30036 91702 333 60000
OOXX RUP58 09171 99442 11320 ///// 01121 26/// /1301 11131 29045 30036 91712 333 60000
OOXX RUP58 09171 99442 11320 ///// 01121 26/// /0000 11134 29045 30038 91722 333 60000
OOXX RUP58 09171 99442 11320 ///// 01121 26/// /2401 11135 29045 30037 91732 333 60000
OOXX RUP58 09171 99442 11320 ///// 01121 26/// /2401 11143 29047 30038 91742 333 60000
OOXX RUP58 09171 99442 11320 ///// 01121 26/// /0000 11145 29048 30039 91752 333 60000
OOXX RUP58 09181 99442 11320 ///// 01121 26/// /2401 11145 29048 30039 91802 333 60000
OOXX RUP58 09181 99442 11320 ///// 01121 26/// /1801 11147 29049 30037 91812 333 60000
OOXX RUP58 09181 99442 11320 ///// 01121 26/// /1901 11150 29049 30037 91822 333 60000
OOXX RUP58 09181 99442 11320 ///// 01121 26/// /1801 11144 29048 30035 91832 333 60000
OOXX NZP46 09161 99438 51765 ///// 00221 26/// /2004 10101 29070 30266 91620 333 60000
OOXX NZP46 09161 99438 51765 ///// 00221 26/// /1905 10102 29070 30265 91630 333 60000
OOXX NZP46 09161 99438 51765 ///// 00221 26/// /2005 10102 29068 30265 91640 333 60000
OOXX NZP46 09161 99438 51765 ///// 00221 26/// /2004 10103 29070 30267 91650 333 60000
OOXX NZP46 09171 99438 51765 ///// 00221 26/// /1804 10103 29069 30267 91700 333 60000
OOXX NZP46 09171 99438 51765 ///// 00221 26/// /1804 10104 29068 30267 91710 333 60000
OOXX NZP46 09171 99438 51765 ///// 00221 26/// /1805 10104 29068 30268 91720 333 60000
OOXX NZP46 09171 99438 51765 ///// 00221 26/// /1804 10104 29069 30268 91730 333 60000
OOXX NZP46 09171 99438 51765 ///// 00221 26/// /1904 10104 29070 30268 91740 333 60000
OOXX NZP46 09171 99438 51765 ///// 00221 26/// /1904 10104 29068 30269 91750 333 60000
OOXX NZP46 09181 99438 51765 ///// 00221 26/// /2004 10105 29068 30269 91800 333 60000
OOXX NZP46 09181 99438 51765 ///// 00221 26/// /1905 10106 29068 30270 91810 333 60000
OOXX RUP60 09161 99531 11588 ///// 00651 26/// /0407 11109 29039 39785 91652 333 60000
OOXX RUP60 09171 99531 11588 ///// 00651 26/// /3204 11121 29042 39783 91702 333 60000
OOXX RUP60 09171 99531 11588 ///// 00651 26/// /0802 11108 29039 39783 91712 333 60000
OOXX RUP60 09171 99531 11588 ///// 00651 26/// /3203 11117 29040 39785 91722 333 60000
OOXX RUP60 09171 99531 11588 ///// 00651 26/// /3002 11089 29033 39784 91732 333 60000
OOXX RUP60 09171 99531 11588 ///// 00651 26/// /2905 11094 29034 39784 91742 333 60000
OOXX RUP60 09171 99531 11588 ///// 00651 26/// /3605 11084 29032 39782 91752 333 60000
OOXX RUP60 09181 99531 11588 ///// 00651 26/// /2706 11079 29031 39781 91802 333 60000
OOXX RUP60 09181 99531 11588 ///// 00651 26/// /3106 11076 29029 39779 91812 333 60000
OOXX RUP60 09181 99531 11588 ///// 00651 26/// /3204 11071 29029 39779 91822 333 60000
OOXX RUP60 09181 99531 11588 ///// 00651 26/// /2907 11070 29028 39779 91832 333 60000
OOXX RUP60 09181 99531 11588 ///// 00651 26/// /3101 11074 29030 39779 91842 333 60000
OOXX RUP59 09161 99539 10848 ///// 02121 26/// /0000 11257 29073 30058 91640 333 60000
OOXX RUP59 09161 99539 10848 ///// 02121 26/// /0000 11256 29073 30058 91650 333 60000
OOXX RUP59 09171 99539 10848 ///// 02121 26/// /0000 11258 29072 30056 91700 333 60000
OOXX RUP59 09171 99539 10848 ///// 02121 26/// /0000 11259 29072 30054 91710 333 60000
OOXX RUP59 09171 99539 10848 ///// 02121 26/// /0000 11258 29073 30054 91720 333 60000
OOXX RUP59 09171 99539 10848 ///// 02121 26/// /0000 11262 29071 30053 91730 333 60000
OOXX RUP59 09171 99539 10848 ///// 02121 26/// /0000 11260 29072 30052 91740 333 60000
OOXX RUP59 09171 99539 10848 ///// 02121 26/// /0000 11262 29072 30052 91750 333 60000
OOXX RUP59 09181 99539 10848 ///// 02121 26/// /0000 11265 29071 30050 91800 333 60000
OOXX RUP59 09181 99539 10848 ///// 02121 26/// /0000 11267 29071 30051 91810 333 60000
OOXX RUP59 09181 99539 10848 ///// 02121 26/// /0000 11268 29072 30051 91820 333 60000
OOXX RUP59 09181 99539 10848 ///// 02121 26/// /0000 11269 29071 30049 91830 333 60000
OOXX ARP01 09161 99345 50585 ///// 00311 26/// /1102 10114 29037 30122 91610 333 60000
OOXX ARP01 09161 99345 50585 ///// 00311 26/// /1401 10116 29036 30120 91620 333 60000
OOXX ARP01 09161 99345 50585 ///// 00311 26/// /1101 10115 29036 30119 91630 333 60000
OOXX ARP01 09161 99345 50585 ///// 00311 26/// /1102 10116 29037 30118 91640 333 60000
OOXX ARP01 09161 99345 50585 ///// 00311 26/// /1601 10118 29036 30116 91650 333 60000
OOXX ARP01 09171 99345 50585 ///// 00311 26/// /1601 10118 29036 30115 91700 333 60000
OOXX ARP01 09171 99345 50585 ///// 00311 26/// /1101 10118 29037 30114 91710 333 60000
OOXX ARP01 09171 99345 50585 ///// 00311 26/// /1601 10119 29036 30113 91720 333 69920
OOXX ARP01 09171 99345 50585 ///// 00311 26/// /1601 10121 29036 30112 91730 333 60000
OOXX ARP01 09171 99345 50585 ///// 00311 26/// /1101 10120 29036 30112 91740 333 60000
OOXX ARP01 09171 99345 50585 ///// 00311 26/// /1102 10119 29036 30111 91750 333 60000
OOXX ARP01 09181 99345 50585 ///// 00311 26/// /1401 10121 29036 30110 91800 333 60000
OOXX ISP34 09161 99641 70219 ///// 01301 26/// /1304 11075 29001 30084 91610 333 6///0
OOXX ISP34 09161 99641 70219 ///// 01301 26/// /1403 11078 29001 30084 91620 333 6///0
OOXX ISP34 09161 99641 70219 ///// 01301 26/// /1203 11079 29001 30083 91630 333 6///0
OOXX ISP34 09161 99641 70219 ///// 01301 26/// /1403 11080 29001 30082 91640 333 6///0
OOXX ISP34 09161 99641 70219 ///// 01301 26/// /1503 11083 29001 30079 91650 333 6///0
OOXX ISP34 09171 99641 70219 ///// 01301 26/// /2203 11087 29001 30079 91700 333 6///0
OOXX ISP34 09171 99641 70219 ///// 01301 26/// /2003 11090 29001 30078 91710 333 6///0
OOXX ISP34 09171 99641 70219 ///// 01301 26/// /1702 11090 29001 30077 91720 333 6///0
OOXX ISP34 09171 99641 70219 ///// 01301 26/// /2403 11091 29001 30079 91730 333 6///0
OOXX ISP34 09171 99641 70219 ///// 01301 26/// /2603 11094 29001 30080 91740 333 6///0
OOXX ISP34 09171 99641 70219 ///// 01301 26/// /2203 11093 29001 30082 91750 333 6///0
OOXX ISP34 09181 99641 70219 ///// 01301 26/// /2102 11093 29001 30082 91800 333 6///0
OOXX AUP04 09171 99377 31451 ///// 00311 26/// /0201 10182 29079 30005 91705 333 60000
OOXX AUP04 09171 99377 31451 ///// 00311 26/// /3601 10182 29079 30005 91715 333 60000
OOXX AUP04 09171 99377 31451 ///// 00311 26/// /3401 10181 29079 30006 91725 333 60000
OOXX AUP04 09171 99377 31451 ///// 00311 26/// /3301 10181 29079 30005 91735 333 60000
OOXX AUP04 09171 99377 31451 ///// 00311 26/// /3301 10176 29081 30005 91745 333 60000
OOXX AUP04 09171 99377 31451 ///// 00311 26/// /2201 10176 29082 30005 91755 333 60000
OOXX AUP04 09181 99377 31451 ///// 00311 26/// /3401 10176 29082 30005 91805 333 60000
OOXX AUP04 09181 99377 31451 ///// 00311 26/// /3101 10177 29082 30004 91815 333 60000
OOXX AUP04 09181 99377 31451 ///// 00311 26/// /2401 10176 29082 30004 91825 333 60000
OOXX AUP04 09181 99377 31451 ///// 00311 26/// /1801 10174 29083 30004 91835 333 60000
OOXX AUP04 09181 99377 31451 ///// 00311 26/// /2001 10173 29084 30003 91845 333 60000
OOXX AUP04 09181 99377 31451 ///// 00311 26/// /1901 10172 29084 30002 91855 333 60000
OOXX CAP14 09161 99487 71234 ///// 00431 26/// /3401 10013 29085 30204 91620 333 60000
OOXX CAP14 09161 99487 71234 ///// 00431 26/// /3302 10013 29085 30204 91630 333 60000
OOXX CAP14 09161 99487 71234 ///// 00431 26/// /3302 10014 29085 30204 91640 333 60000
OOXX CAP14 09161 99487 71234 ///// 00431 26/// /3301 10015 29085 30204 91650 333 60000
OOXX CAP14 09171 99487 71234 ///// 00431 26/// /3401 10015 29084 30205 91700 333 60000
OOXX CAP14 09171 99487 71234 ///// 00431 26/// /3201 10016 29084 30204 91710 333 60000
OOXX CAP14 09171 99487 71234 ///// 00431 26/// /3101 10020 29084 30206 91720 333 60000
OOXX CAP14 09171 99487 71234 ///// 00431 26/// /3101 10022 29082 30204 91730 333 60000
OOXX CAP14 09171 99487 71234 ///// 00431 26/// /2901 10019 29083 30206 91740 333 60000
OOXX CAP14 09171 99487 71234 ///// 00431 26/// /2901 10019 29083 30206 91750 333 60000
OOXX CAP14 09181 99487 71234 ///// 00431 26/// /3101 10022 29082 30205 91800 333 60000
OOXX CAP14 09181 99487 71234 ///// 00431 26/// /3201 10021 29081 30205 91810 333 60000
OOXX KIP39 09161 99020 51574 ///// 00181 26/// /1203 10248 29086 30100 91630 333 60000
OOXX KIP39 09161 99020 51574 ///// 00181 26/// /1103 10251 29085 30102 91640 333 60000
OOXX KIP39 09161 99020 51574 ///// 00181 26/// /1003 10253 29084 30102 91650 333 60000
OOXX KIP39 09171 99020 51574 ///// 00181 26/// /1103 10255 29084 30104 91700 333 60000
OOXX KIP39 09171 99020 51574 ///// 00181 26/// /1102 10257 29083 30105 91710 333 60000
OOXX KIP39 09171 99020 51574 ///// 00181 26/// /1003 10260 29082 30107 91720 333 60000
OOXX KIP39 09171 99020 51574 ///// 00181 26/// /0903 10264 29081 30108 91730 333 60000
OOXX KIP39 09171 99020 51574 ///// 00181 26/// /0904 10264 29079 30109 91740 333 60000
OOXX KIP39 09171 99020 51574 ///// 00181 26/// /0904 10267 29079 30110 91750 333 60000
OOXX KIP39 09181 99020 51574 ///// 00181 26/// /1004 10268 29078 30111 91800 333 60000
OOXX KIP39 09181 99020 51574 ///// 00181 26/// /1004 10269 29078 30112 91810 333 60000
OOXX KIP39 09181 99020 51574 ///// 00181 26/// /0904 10272 29077 30113 91820 333 60000
AAXX 0918/ 89327 46/// ///// 10016 39752 4//// 5//// 91840
AAXX 0918/ 89828 46/// ///// 11383 36405 4//// 5//// 91840
AAXX 0918/ 89108 46/// ///// 11246 36801 4//// 5//// 91840
AAXX 0918/ 89879 46/// ///// 11018 39651 4//// 5//// 91840
AAXX 0918/ 89872 46/// ///// 11030 39684 4//// 5//// 91840
AAXX 0918/ 89869 46/// ///// 11053 39671 4//// 5//// 91840
AAXX 0918/ 89866 46/// ///// 11025 39615 4//// 5//// 91840
AAXX 0918/ 89329 46/// ///// 11108 38618 4//// 5//// 91840
AAXX 0918/ 89868 46/// ///// 11046 39675 4//// 5//// 91840
AAXX 0918/ 89332 46/// ///// 11019 39123 4//// 5//// 91840
AAXX 0918/ 89314 46/// ///// 11129 38073 4//// 5//// 91840
AAXX 09184 89667 46/// /3400 11000 29052 39733 4//// 5//// 91840
AAXX 09184 48550 11558 60000 10267 20242 30090 40097 57017 69953 71062 82246 333 59004 70005
AAXX 09184 85586 12460 82408 10160 20102 40144 57008 60001 885// 333 56599 88617
BBXX A8LK5 3 09183 99361 70042 43198 62607 10180 20130 40270 52010 700// 8//// 22254 00190 80150
BBXX ZCDQ4 09184 99358 10218 41798 11504 10150 20080 40210 54000 70301 80000 22274 00198 20201 30202 40301 5//// 80110
AAXX 09184 91559 46/// /1303 10235 40086 22200 00279
AAXX 09184 40100 11560 53110 10138 20064 30161 40193 51032 60091 70286 85200 918// 333 10198 85826 91143 92437
AAXX 09184 71390 46/// /2607 11037 6///1 333 11037 21072 7////
AAXX 09184 71612 17/// /1703 10007 21005 30116 40208 58023 60011 7//4/ 333 10025 20002 70012
AAXX 09184 71425 17/// /2906 11025 21049 30164 40201 53001 60051 7//4/ 333 11017 21050 70059
AAXX 09184 71428 16/// /2316 11009 21077 30187 40193 56001 60001 333 11009 21069 70000
AAXX 09184 71612 17/// /1703 10007 21005 30116 40208 58023 60011 7//4/ 333 10025 20002 70012
AAXX 09184 71425 17/// /2906 11025 21049 30164 40201 53001 60051 7//4/ 333 11017 21050 70059
AAXX 09184 71428 16/// /2316 11009 21077 30187 40193 56001 60001 333 11009 21069 70000
AAXX 09184 71390 46/// /2607 11037 6///1 333 11037 21072 7////
AAXX 09184 89807 46/// /1717 11031 29084 39635 4//// 5//// 91830 333 90700 91121
BBXX ZCDQ5 09183 99357 10251 43898 21108 10140 20130 40250 54000 70100 88//3 22234 00173 20201 3//// 4//// 5//// 80130
AAXX 09184 89614 46/// /0926 11094 29075 38859 4//// 5//// 91830 333 90700 91131
AAXX 09184 89807 46/// /1717 11031 29084 39635 4//// 5//// 91830 333 90700 91121
AAXX 09184 89614 46/// /0926 11094 29075 38859 4//// 5//// 91830 333 90700 91131
AAXX 09184 91531 46/// /1104 1//// 40054 22200 00267
AAXX 09184 97700 32457 72204 10252 20242 30059 40073 57010 71522 83872 333 56000 57803 82816 84457 80850
AAXX 09184 41984 31940 00000 10188 20180 30112 40114 70500 333 59006 70000
AAXX 09184 41923 31940 03103 10204 20190 30105 40115 70500 333 59008 70000
AAXX 09184 41936 31916 00000 10170 20160 40126 70500 333 59007 70000
AAXX 09184 41943 32940 00000 10186 20180 30121 40129 333 59003 70000
AAXX 09184 41950 31940 00000 10180 20170 30114 40117 70500 333 59009 70000
AAXX 09184 41978 31931 00000 10204 20190 30109 40116 70500 333 59001 70000
AAXX 09184 41992 31920 00000 10183 20170 30109 40111 71010 333 59006 70000
AAXX 09184 41858 31430 82702 10166 20160 30080 40127 71020 8651/ 333 56699 59015 70000 86615 88458
AAXX 09184 41863 32450 82702 10170 20160 30076 40121 8452/ 333 56699 59023 70000 84615 88458
AAXX 09184 41886 31906 00000 10178 20170 30099 40120 74244 333 59011 70000
AAXX 09184 41895 31908 03601 10163 20150 30104 40127 74400 333 59010 70000
AAXX 09184 41909 31909 00000 10165 20165 30104 40116 70540 333 59005 70000
AAXX 09184 41915 31930 00000 10176 20170 30099 40125 71044 333 59011 70000
AAXX 09184 41926 31908 00000 10150 20140 30109 40123 74600 333 59009 70000
AAXX 09184 41929 31905 00000 10172 20160 30107 40116 74040 333 59009 70000
AAXX 09184 41933 31940 00000 10203 20190 30112 40121 70500 333 59006 70000
AAXX 09184 41939 31930 00000 10184 20170 40137 71044 333 58003 70000
AAXX 09184 41941 31940 00000 10214 20200 30108 40113 70500 333 59018 70000
AAXX 09184 41946 31940 00000 10178 20170 30118 40123 70500 333 59012 70000
AAXX 09184 41947 31930 00000 10196 20180 30119 40121 71044 333 59011 70000
AAXX 09184 41951 NIL
AAXX 09184 41953 NIL
AAXX 09184 41958 31940 00000 10198 20190 30129 40131 70500 333 58002 70000
AAXX 09184 41960 31940 00000 10186 20185 30124 40125 70500 333 59010 70000
AAXX 09184 41963 NIL
AAXX 09184 41964 NIL
AAXX 09184 41965 NIL
AAXX 09184 41966 NIL
AAXX 09184 41984 NIL
AAXX 09184 41989 NIL
AAXX 09184 41998 NIL
AAXX 09184 78764 32660 20815 10252 20149 39025 40149 57015 82100 333 10256 20178 30/// 562// 59001 82635
BBXX MINUK05 0918/ 99571 70021 46/// ///// 10025 40041 52023
BBXX MINUK01 0918/ 99602 70012 46/// ///// 10010 49915 52012
BBXX 44056 09181 99362 70757 46/// ///// 1//// 91820 22200 00142 11102 21002 310// 41101 70009
AAXX 09184 71016 16/// ///// 10015 60001 333 10015 21115 70000
BBXX 46109 09181 99481 71234 46/// /1204 10042 40266 91757 22200 00083
BBXX 44055 09181 99391 70753 46/// ///// 1//// 91830 22200 00100 1//00 70002
AAXX 09184 91642 46/// /0000 1//// 40083 22200 0////
AAXX 09184 71016 16/// ///// 10015 60001 333 10015 21115 70000
BBXX SHIP 09184 99230 11672 41/97 21014 10263 20226 40176 52003 70200 8//// 22223 04262
BBXX 46094 09181 99446 71243 46/// /0804 10083 91830
BBXX 46094 09181 99446 71243 46/// /0503 10082 91820
BBXX 46094 09181 99446 71243 46/// /1004 10084 91810
BBXX 46094 09181 99446 71243 46/// /1004 10082 91800
BBXX 46094 09181 99446 71243 46/// /1101 10084 91750
BBXX 46094 09181 99446 71243 46/// /1501 10085 91740
BBXX S6SR 09184 99455 50531 41497 /3317 10110 20092 40190 56010 7//// 84/3/ 22213 00100 2//04 333// 4//// 5//// 6//// 80100 ICE /////
BBXX 9HXC9 09184 99223 70775 41598 40622 10253 20219 40134 56005 7//11 84103 22275 04275 20602 3//// 40702 5//// 6//// 80229 ICE /////
BBXX DHDH 09184 99125 10435 41598 51525 10250 20222 40140 51010 70211 8514/ 22234 00260 20303 80230
BBXX A8AD7 09183 99105 70161 41796 30607 10280 20224 40090 55005 70600 82145 22233 02290 2//// 30000 80240
BBXX DHDH 09184 99125 10435 41598 51525 10250 20222 40140 51010 70211 8514/ 22234 00260 20303 80230
BBXX MINFR03 0918/ 99299 30310 46/// ///// 10175 40198 52019
BBXX BATFR19 09184 99007 30088 46/// /2011 10262 20237 40089 22211 00274
BBXX SHIP 09184 99084 30989 41498 53111 10277 20247 40078 57005 70122 84/// 22233 06279 11305 399// 4////
BBXX 9KWP 09183 99165 31026 41497 43015 10280 20252 40065 58005 70211 82132 22273 2//// 80260
BBXX A8RL3 09181 99196 30658 41297 40911 10250 40090 51000 70211 83/// 22213 00250 2//06 3//// 4//06 5////
BBXX 3FMV6 09183 99199 30115 41598 71621 10180 20146 40110 40110 53010 70222 85770 22283 06172 21002 80160
BBXX C6OM7 09183 99331 30170 41398 61423 10182 20104 40154 55005 70211 85188 22273 00160 20806 32300 41205 50000 80140
BBXX PCDE 09183 99400 30643 41/98 60406 10162 20139 40250 52008 7//22 8/7// 22223 20601 320// 40602 80148
BBXX DBBT 09181 99425 30092 46/// /2106 10081 20037 40227 52011 22241 00111
BBXX BATFR08 09184 99467 30530 46/// /1734 10025 20009 40163 50012 22223 00057
BBXX DBLK 09181 99486 30000 41296 83413 10062 20062 40125 57042 75154 876// 22244 04051 20504 325// 40905
BBXX BATEU08 09184 99595 70156 46/// /0614 10025 21030 40082 55002 22222
BBXX 64045 09184 99591 70117 46/// /0107 10038 21036 40082 52001 22200 00102 11013 70065
BBXX 62112 09184 99584 70002 47998 /3027 10023 21044 49963 52026 762// 22200
BBXX 62113 09184 99584 10002 47998 /3139 10042 21052 49943 52023 730// 22200
BBXX 62129 09184 99584 10003 46/// ///// 10031 21045 49953 52025 22200
BBXX 62114 09184 99583 10000 46/// /3043 10028 21055 49954 52035 22200
BBXX PJAI 09184 99581 70014 47598 /3127 10045 21033 40004 53024 700// 22200
BBXX 62111 09184 99580 70003 46/// /3334 10040 21046 49998 52018 22200 10811 70057
BBXX AMOUK27 09184 99579 70052 46/// ///// 1//// 2//// 30053 40053 52004 91750
BBXX 62117 09184 99579 10000 47996 /3039 10045 21012 49979 52027 700// 22200 10809 70047
BBXX 63119 09184 99578 70022 41/97 /0627 10017 21030 40010 52/// 756// 8//// 22200 2//// 331// 40404 5////
BBXX AMOUK21 09184 99572 70073 46/// ///// 10025 21018 30083 40078 52006 91750
BBXX AMOUK19 09184 99571 70021 46/// ///// 10027 21036 30041 40047 52025 91750
BBXX BATUK01 09184 99563 70025 44/97 02714 10039 21032 40062 51016 700// 22211 00099
BBXX 62105 09184 99554 70122 46/// /2919 10074 20012 40116 51002 22200 00110 10911 70055 333 90710 91127
BBXX AMOUK02 09184 99535 70031 46/// ///// 10060 20012 30062 40092 54000 91750
BBXX AMOUK14 09184 99535 70030 46/// ///// 10063 20017 30059 40098 52020 91750
BBXX AMOUK11 09184 99533 70061 46/// ///// 10041 21002 30076 40120 52040 91750
BBXX AMOUK12 09184 99533 70054 46/// ///// 10061 20015 30082 40122 52017 91750
BBXX 62095 09184 99530 70159 46/// /2910 10071 20017 40174 55000 22200 00118 11010 70052
BBXX BATEU02 09184 99529 70111 46/// /3013 10074 21010 40148 52005 22200 00112
BBXX BATFR54 09184 99525 70055 46/// /2828 10065 21001 40127 22243 00119
BBXX 62301 09184 99524 70047 46/// /2919 10071 20008 40120 51006 22200 00108 10504 70022 333 90710 91127
BBXX AMOUK16 09184 99523 70063 46/// ///// 10045 20007 30137 40136 57006 91750
BBXX 62094 09184 99517 70067 46/// /2917 10078 20032 40146 52005 22200 00115 10504 70019
BBXX A8IP2 09183 99516 70066 41597 43016 10085 20019 40141 54000 70311 83444 22274 20704 3//// 4//// 5//// 80055
BBXX 62303 09184 99516 70051 46/// /3017 10081 20007 40136 52007 22200 00120 10605 70023 333 90710 91125
BBXX 62023 09183 99514 70079 46/97 /3112 10073 2//// 40164 5//// 22200 10603 70017 555 70029 80013
BBXX 62092 09184 99512 70105 46/// /3109 10087 20027 40162 51004 22200 00118 10909 70044
BBXX 62081 09184 99510 70134 46/// ///// 10074 20029 40178 51004 22200 00121 10908 70042
BBXX BATFR27 09184 99508 70011 46/// /2830 10097 20020 40124 56006 22282 00122
BBXX AMOUK06 09184 99507 70016 46/// ///// 10078 20027 30112 40128 52009 91750
BBXX A8NQ5 09183 99505 70165 41398 53316 10105 20032 40180 57010 70222 845// 22224 04116 20304 332// 40505 80070
BBXX 62305 09184 99504 10000 46/98 /2928 10094 20023 40139 53007 22200 00129 10602 70012 333 90710 91134
BBXX TESTFR9 09184 99503 70042 46/// /2917 10082 29061 40164 52005 22274
BBXX BATFR42 09184 99503 70018 46/// /2923 10087 20024 40137 22243 00132
BBXX AMOUK08 09184 99501 70061 46/// ///// 10096 20028 30150 40155 54002 91750
BBXX BATFR15 09184 99499 70032 46/// /2917 10094 20029 40139 53003 22254 00134
BBXX 62103 09184 99499 70029 46/// /3219 10093 20026 40138 57004 22200 00130 10803 70015 333 90710 91129
BBXX 62027 09184 99491 70022 46/// /3009 1//// 2//// 40145 57004 22200 00128 11303 329// 70016
BBXX 62442 09184 99490 70164 46/// /3414 1//// 2//// 40198 53006 22200 00133
BBXX 62029 09184 99487 70125 46/// /3613 10096 20037 40176 53003 22200 00138 10907 70036
BBXX BATFR12 09184 99483 70072 46/// /3505 10099 20039 40167 52002 22261 00145
BBXX DHEE 09183 99477 70286 41397 81921 10125 20107 40185 58015 75211 887// 22264 00130 20704 321// 41104 80115
BBXX 62163 09184 99475 70084 46/// /0410 10090 20051 40166 51003 22200 00134 10907 70036
BBXX 62001 09184 99452 70050 46/// /2618 10137 20111 40172 58006 22200 00152 10908 70041
BBXX BATFR16 09184 99444 70225 44096 83409 10129 40227 53002 72022 887// 22214 00145 20000 60/// ICE 0////
BBXX PHBO 09183 99432 70175 41596 82423 10146 20142 40190 51012 75552 883// 22254 20704 327// 40702 80144
BBXX MSTM6 09183 99422 70098 41298 83408 10162 20122 40215 56020 70352 877// 22284 06155 20220 332// 41008 5//// 80140
BBXX DGWD2 09183 99397 70101 41498 62706 10155 20112 40225 54000 70311 8524/ 22244 00160 2//01 330// 40502 80130
BBXX UFNZ 09181 99394 70100 41298 72707 11170 40249 57013 70110 87201 22254 00120 20201
BBXX BAREU06 09184 99391 70151 46/// ///// 40238 57006 22264
BBXX PBEO 09183 99367 10002 41597 82210 10160 20112 40229 53002 70300 8//// 22262 02175 20201 30000 80132
BBXX BAREU61 09184 99364 70027 46/// /3102 10154 29072 40219 57001 22264
BBXX C6WK7 09184 99361 70046 41798 12210 1//// 2//// 40240 54/// 7//11 81/1/ 22274 04180 20200 3//// 40200 5//// 6//// 8//// /////
BBXX A8ZS7 09184 99071 30829 41598 82512 10275 20234 40080 53/// 76288 8696/ 22254 04260 29902 80245
BBXX JPAT 09184 99095 30862 41598 72105 10267 20230 40069 57007 70311 8215/ 22243 00281 10805 299// 31823 40703 50701 85240
BBXX A8FQ8 09183 99283 30132 41298 31435 10180 20131 40160 53020 70122 83872 22234 00183 20706 312// 40808 80150
BBXX A8UL5 09183 99286 30423 41898 30910 10245 20209 40118 52013 70200 81481 22214 20303 3//// 4//// 5//// 80220
BBXX OXVE2 09184 99322 30720 41/98 60725 10180 20146 40242 7//// 8//// 22234 04200 20205 3//// 4//// 5//// 80160
BBXX AMOUK17 09184 99327 30573 46/// ///// 10200 20177 30190 40199 52013 91750
BBXX ZDLS1 09183 99328 30172 41598 21621 10169 20166 40135 52005 70200 8/494 22232 04146 20508 318// 40804 80167
BBXX AMOUK01 09184 99328 30173 46/// ///// 10174 20129 30142 40151 52007 91750
BBXX MNAN4 09184 99342 30181 41497 41622 10180 20180 40135 50030 70300 84200 22243 20504 317// 40905 5//// 80180
BBXX ONFP 09184 99357 30117 43593 32319 10150 2010/ 40240 57010 70100 83183 22233 04162 20703 31818 40904 50904 6//// 80120 /////
BBXX A8AD7 09183 99105 70161 41796 30607 10280 20224 40090 55005 70600 82145 22233 02290 2//// 30000 80240
AAXX 09184 71288 16/// /3106 11285 21313 30053 40079 58007 60001 333 11278 21299 70000
AAXX 09184 71155 16/// ///// 11002 21053 60001 333 11002 21188 70000
AAXX 09184 71362 16/// /1803 11169 21192 39838 40103 55005 60001 333 11169 21269 70000
AAXX 09184 71288 16/// /3106 11285 21313 30053 40079 58007 60001 333 11278 21299 70000
AAXX 09184 71155 16/// ///// 11002 21053 60001 333 11002 21188 70000
AAXX 09181 02981 16/// ///// 10058 20043 39806 49816 57024 60122 91739 333 10062 20025
AAXX 09184 92036 46/// /2302 10256 40070 22200 00311
BBXX 63106 09184 99610 10017 46/// /2937 10040 49780 53015 22200
BBXX 63113 09184 99610 10017 46/// /3041 10032 20031 49820 52017 22200 11018 70088
BBXX 62107 09184 99501 70061 46/// /3214 10092 20012 40155 52004 22200 00122 10905 70025
BBXX SHIP 09184 99230 11672 41/97 21014 10263 20226 40176 52003 70200 8//// 22223 04262
BBXX S6SR 09184 99455 50531 41497 /3317 10110 20092 40190 56010 7//// 84/3/ 22213 00100 2//04 333// 4//// 5//// 6//// 80100 ICE /////
AAXX 09184 93713 46/// /0000 10123 40249 22200 00169
BBXX 46094 09181 99446 71243 46/// /0804 10083 91830
BBXX 46094 09181 99446 71243 46/// /1101 10084 91750
BBXX 46094 09181 99446 71243 46/// /1501 10085 91740
BBXX 46094 09181 99446 71243 46/// /0503 10082 91820
BBXX 46094 09181 99446 71243 46/// /1004 10084 91810
BBXX 46094 09181 99446 71243 46/// /1004 10082 91800
BBXX 9HXC9 09184 99223 70775 41598 40622 10253 20219 40134 56005 7//11 84103 22275 04275 20602 3//// 40702 5//// 6//// 80229 ICE /////
BBXX 46109 09181 99481 71234 46/// /1204 10042 40266 91757 22200 00083
BBXX 44055 09181 99391 70753 46/// ///// 1//// 91830 22200 00100 1//00 70002
BBXX 44056 09181 99362 70757 46/// ///// 1//// 91820 22200 00142 11102 21002 310// 41101 70009
BBXX MINUK01 0918/ 99602 70012 46/// ///// 10010 49915 52012
BBXX MINUK05 0918/ 99571 70021 46/// ///// 10025 40041 52023
BBXX ZCDQ5 09183 99357 10251 43898 21108 10140 20130 40250 54000 70100 88//3 22234 00173 20201 3//// 4//// 5//// 80130
BBXX ZCDQ4 09184 99358 10218 41798 11504 10150 20080 40210 54000 70301 80000 22274 00198 20201 30202 40301 5//// 80110
BBXX AMOUK04 09184 99533 70062 46/// ///// 10063 20016 30087 4//// 52026 91750
BBXX MINFR00 0918/ 99465 70148 46/// ///// 10090 40168 52008
OOXX AAPIG 09184 99758 51003 56251 08502 46/// /0812 11114 21222 38718 49685 54000 91750
AAXX 09184 91689 46/// /0921 10255 40120 22200 00134
AAXX 09184 96195 31450 72604 10256 20245 30065 40101 50003 70522 82571 333 56000 82615 84460
BBXX S6IW 09183 99522 71771 41/97 81638 10061 2//// 49888 5//// 702// 8//// 222// 00078 2//02 317// 4//04 5//// 6//// 8//// ICE /////
BBXX S6IW 09183 99522 71771 41/97 81638 10061 2//// 49888 5//// 702// 8//// 222// 00078 2//02 317// 4//04 5//// 6//// 8//// ICE /////
BBXX MINFR00 0918/ 99465 70148 46/// ///// 10090 40168 52008
BBXX MINFR03 0918/ 99299 30310 46/// ///// 10175 40198 52019
BBXX A8AD7 09183 99105 70161 41796 30607 10280 20224 40090 55005 70600 82145 22233 02290 2//// 30000 80240
BBXX DHDH 09184 99125 10435 41598 51525 10250 20222 40140 51010 70211 8514/ 22234 00260 20303 80230
BBXX ZCDQ4 09184 99358 10218 41798 11504 10150 20080 40210 54000 70301 80000 22274 00198 20201 30202 40301 5//// 80110
BBXX ZCDQ5 09183 99357 10251 43898 21108 10140 20130 40250 54000 70100 88//3 22234 00173 20201 3//// 4//// 5//// 80130
BBXX PDHO 09183 99341 10231 41998 03605 10150 20101 40274 52012 70200 80000 22225 00173 20101 30000 80122
AAXX 09184 04418 NIL
AAXX 09184 04425 NIL
AAXX 09184 04432 NIL
AAXX 09184 04436 NIL
AAXX 09184 04464 46/// /1446 11254 21276 333 553// 20004
AAXX 09184 04485 46/// /3039 11291 21306 37222 57035 333 553// 20000
AAXX 09184 04488 NIL
BBXX MINFR00 0918/ 99465 70148 46/// ///// 10090 40168 52008
BBXX MINFR03 0918/ 99299 30310 46/// ///// 10175 40198 52019
BBXX AMOUK08 09184 99501 70061 46/// ///// 10096 20028 30150 40155 54002 91750
BBXX 63106 09184 99610 10017 46/// /2937 10040 49780 53015 22200
BBXX 63105 09184 99610 10017 47496 ///// 10046 20023 49778 53010 751// 22200
BBXX ZQDI9 09183 99191 10648 41797 10310 10260 20163 40194 52010 70200 8/1// 22234 00272 20101 303// 40202 5//// 80200
BBXX VRGL4 09184 99124 10587 41598 50424 10265 20196 40131 57/// 70322 84442 22224 00274 20706 30400 40706 5//// 80220
BBXX DDDO2 09194 99327 10281 41998 03315 10148 20067 40250 51005 70100 80000 22224 00204 2//// 80105
BBXX S6TV 09194 99143 10536 41697 20522 10240 20190 40166 51020 70200 81122 22264 00280 20405 335// 40604 5//// 80208
BBXX TBWUK17 09183 99095 11099 41/96 90119 10262 20252 40125 57002 76166 89779 22253 04280 20402 30202 40503 50604 80255
AAXX 09184 71408 46/// /2528 10025 21019 30141 40221 6///1 333 10028 7////
AAXX 09184 71408 46/// /2528 10025 21019 30141 40221 6///1 333 10028 7////
AAXX 09181 98132 31460 80409 10208 20196 40193 58015 70544 8557/ 333 56199 85616 88357
AAXX 09181 98133 NIL
AAXX 09181 98222 11465 83601 10225 20204 40102 56003 60061 76164 8757/ 333 56999 87618 88359
AAXX 09181 98233 11560 80000 10225 20211 40095 58013 60701 76166 885// 333 56999 88620
AAXX 09181 98324 11460 80000 10249 20234 40067 57017 60021 70584 8327/ 333 56999 83816 88358
AAXX 09181 98327 11565 73103 10232 20209 39909 40084 57018 69901 70584 84808 333 56999 84636 87280
AAXX 09181 98334 11468 80000 10233 20228 39885 40090 57019 69921 70362 8227/ 333 56999 82817 88358
AAXX 09181 98425 32558 53602 10240 20232 40074 58013 84670 333 56999 84620 85358
AAXX 09181 98426 31565 71002 10246 20210 40076 57024 70544 81170 333 56999 81820 87358
AAXX 09181 98427 11472 73601 10238 20229 40078 58012 69907 78088 8227/ 333 56999 82818 88357
AAXX 09181 98428 32458 73603 10248 20237 40073 58010 82474 333 56299 82618 85359
AAXX 09181 98432 31568 70000 10250 20239 40072 57014 70544 82270 333 56999 82820 87356
AAXX 09181 98433 11460 80406 10210 20204 39358 40078 57005 60021 70286 8387/ 333 56999 83612 88357
AAXX 09181 98434 31462 80301 10250 20242 30074 40082 58011 71622 8452/ 333 56199 85617 88457
AAXX 09181 98435 32470 70000 10249 20230 40075 5//// 84270 333 56999 84818 87358
AAXX 09181 98442 NIL
AAXX 09181 98446 32465 73102 10252 20238 30037 40083 58013 83232 333 56299 83818 86357 85070
AAXX 09181 98447 11470 72202 10238 20230 39822 40086 5//// 60011 71582 82230 333 56999 82818 87357
AAXX 09181 98538 11466 70000 10247 20238 30051 40056 58009 69901 70162 82208 333 56999 82811 87272
AAXX 09181 98546 32575 80000 10241 20233 30062 40070 57015 83207 333 56999 83820 88275
AAXX 09181 98548 32466 60000 10250 20236 30071 40077 58011 81230 333 56999 81816 86357
AAXX 09181 98553 11464 83201 10244 20239 30068 40072 57016 60031 78084 84907 333 56999 81915 84618 88272
AAXX 09181 98558 32466 70501 10255 20244 40076 58014 83970 333 56999 82915 86357
AAXX 09181 98642 31462 30000 10242 20231 30060 40069 58015 71311 81942 333 56199 81915
AAXX 09181 98644 32465 80000 10255 20248 30060 40069 58016 8327/ 333 56999 83817 88358
AAXX 09181 98648 31468 53601 10246 20218 39993 40075 57010 70544 82268 333 56299 82817 84270
AAXX 09181 98746 11460 80902 10237 20210 40072 58027 69901 70584 8397/ 333 56999 83918 88358
AAXX 09181 98751 11465 70000 10204 20198 39411 40083 57010 60021 70162 84270 333 56999 84815 85356
AAXX 09181 98752 11460 51001 10252 20244 40074 57016 69961 70182 82270 333 56999 82818 85358
AAXX 09181 98851 32470 73002 10235 20214 39928 40077 58008 81170 333 56999 81818 87358
BBXX S6TV 09194 99143 10536 41697 20522 10240 20190 40166 51020 70200 81122 22264 00280 20405 335// 40604 5//// 80208
BBXX S6IW 09183 99522 71771 41/97 81638 10061 2//// 49888 5//// 702// 8//// 222// 00078 2//02 317// 4//04 5//// 6//// 8//// ICE /////
BBXX MINUK04 0918/ 99555 10084 46/// ///// 10060 4//// 57014
BBXX MINUK03 0918/ 99526 10043 46/// ///// 10075 40049 57011
BBXX MINFR05 0918/ 99514 10020 46/// ///// 10043 40107 52016
BBXX ZQDI9 09183 99191 10648 41797 10310 10260 20163 40194 52010 70200 8/1// 22234 00272 20101 303// 40202 5//// 80200
BBXX VRGL4 09184 99124 10587 41598 50424 10265 20196 40131 57/// 70322 84442 22224 00274 20706 30400 40706 5//// 80220
BBXX DDDO2 09194 99327 10281 41998 03315 10148 20067 40250 51005 70100 80000 22224 00204 2//// 80105
BBXX TBWUK17 09183 99095 11099 41/96 90119 10262 20252 40125 57002 76166 89779 22253 04280 20402 30202 40503 50604 80255
BBXX AMOUK04 09184 99533 70062 46/// ///// 10063 20016 30087 4//// 52026 91750
BBXX A8LK5 09183 99361 70042 43198 62607 10180 20130 40270 52010 700// 8//// 22254 00190 80150
BBXX PFFH 09183 99442 10140 41/98 /1813 10158 40200 58008 7//// 8//// 22273 00158 2////
BBXX BAREU05 09184 99434 10049 46/// ///// 40210 22200
BBXX 61001 09184 99434 10078 46/// /2220 10152 20116 40180 54000 22200 00158 10604 70019
BBXX BATFR46 09184 99433 10053 46/// /0204 10114 20062 40209 22251 00162
BBXX BATFR20 09184 99432 10053 44/98 02408 10137 20095 40206 70000 22234 20000
BBXX BATFR01 09184 99423 10073 46/// /2416 10152 20117 40207 55/// 22232 00172
BBXX 61002 09184 99421 10047 46/// ///02 10140 2//// 40214 57004 22200 00155 10401 70005
BBXX BAREU62 09184 99409 10287 46/// ///// 40278 22274
BBXX BATFR11 09184 99381 10068 46/// /3101 10169 20134 40224 58008 22262 00190
BBXX BAREU63 09184 99381 10156 46/// /0408 10171 29080 40249 54000 22243
BBXX NWS0020 09184 99379 10236 43/// /2003 10127 21012 40274 5//// 7//// 8//// 222// 04185 2//// 3//// 4//// 5//// 6//// 8//// /////
BBXX BATFR09 09184 99374 10025 44497 82302 10157 20117 40222 50/// 70322 8771/ 22222 00192 20000 30000 40000 50000
BBXX ZCBW2 09183 99374 10121 43498 22012 10170 20100 40250 56010 7//// 81150 22273 00190 2//// 3//// 4//// 5//// 80130
BBXX V2OT9 09183 99372 10114 41598 51810 10185 20118 40250 54000 70000 82100 22283 20201 30000 4//// 5//// 80145
BBXX PBEO 09183 99367 10002 41597 82210 10160 20112 40229 53002 70300 8//// 22262 02175 20201 30000 80132
BBXX WHKM 09184 99362 10254 41998 03213 10130 20051 40250 52010 7//00 80000 22273 0//// 20202 3//// 40302 5//// 6//// 80090 /////
BBXX HZZB 09183 99359 10159 41598 31707 10180 2015/ 40266 51016 702// 831// 22233 0//// 20402 320// 40603 5//// 6//// 80160 /////
BBXX KSDF 09184 99336 10248 41498 10510 10161 20091 40260 53010 70100 811// 22233 0//// 20301 330// 40603 5//// 6//// 80122 /////
BBXX A8OZ4 09184 99331 10294 43998 03321 10160 20070 40230 51020 7//// 80/// 22274 00180 2//// 3//// 4//// 5//// 80110
BBXX DDDO2 09184 99327 10281 41998 03315 10148 20067 40250 51005 70100 80000 22224 00204 2//// 80105
BBXX MYNJ6 09183 99004 70475 415// 50913 10280 20253 40110 54000 7//00 85185 22273 00250 20502 30909 40502 50502 6//// 80260 ICE /////
BBXX MYNJ6 09183 99004 70475 415// 50913 10280 20253 40110 54000 7//00 85185 22273 00250 20502 30909 40502 50502 6//// 80260 ICE /////
BBXX TBWUK17 09183 99095 11099 41/96 90119 10262 20252 40125 57002 76166 89779 22253 04280 20402 30202 40503 50604 80255
BBXX VRGL4 09184 99124 10587 41598 50424 10265 20196 40131 57/// 70322 84442 22224 00274 20706 30400 40706 5//// 80220
BBXX ZQDI9 09183 99191 10648 41797 10310 10260 20163 40194 52010 70200 8/1// 22234 00272 20101 303// 40202 5//// 80200
BBXX MINUK03 0918/ 99526 10043 46/// ///// 10075 40049 57011
BBXX MINFR05 0918/ 99514 10020 46/// ///// 10043 40107 52016
BBXX MINUK04 0918/ 99555 10084 46/// ///// 10060 4//// 57014
BBXX DDDI2 09184 99056 30797 41/98 82306 10290 20270 40100 52010 79022 882// 22254 00/// 2//// 80275
BBXX 3FHX2 09183 99352 11304 41/98 /2821 10040 20010 40230 54000 70222 8//// 222// 00/// 2////
BBXX 9MBW7 09184 99209 11238 41/97 80424 10200 20184 40110 56010 70050 88/// 22254 00260 2//// 80190
BBXX 9VBM6 09183 99371 10035 41797 41903 10180 20130 40240 5//// 7//11 82/88 22273 04210 2//// 80150
BBXX TBWUK37 09184 99179 11199 41597 /0430 10240 20210 40107 54000 70322 8/8/8 22244 04280 20805 304// 41206 80220
AAXX 09184 84143 11670 61808 10173 20113 37394 69941 72052 86800 333 59004 555 10004 30068
AAXX 09184 84202 12575 52304 10292 20200 30140 69901 85200 333 58000 555 1T 30058
AAXX 09184 84135 32675 80402 10281 20207 30059 8411/ 333 59003 555 30064
AAXX 09184 84132 31680 73604 10306 20241 39881 70544 84230 333 59005 555 30068
AAXX 09184 84270 12670 53604 10200 20124 60061 84301 555 10057 30051
AAXX 09184 84088 32675 50000 10178 20103 37055 85200 333 59004 555 30061
AAXX 09184 84056 31275 62304 10204 20029 70544 86800 555 30031
AAXX 09184 84179 31560 70902 10262 20189 39050 71544 85330 333 59004 555 30064
AAXX 09184 84076 31675 63204 10218 20118 70544 84230 555 30053
AAXX 09184 84008 12665 71412 10257 20187 30123 40133 69901 87800 00186 333 58001 555 1T 30065
AAXX 09184 84050 31565 80404 10245 20202 70544 882// 555 30077
AAXX 09184 84036 11570 80404 10160 20131 69951 75054 887// 555 10005 30083
AAXX 09184 84160 11570 41404 10185 20093 37254 69941 70546 83230 333 59009 555 10004 30055
AAXX 09184 84226 31660 73606 10140 20140 74044 87800 555 30100
AAXX 09184 84072 31670 70404 10219 20110 37283 70545 84230 333 59011 555 30050
AAXX 09184 84045 32557 70906 10142 20097 87800 555 30074
AAXX 09184 84105 32560 81404 10265 20219 31001 8311/ 333 58000 555 30076
AAXX 09184 84204 31670 70000 10298 20204 70544 84831 555 30057
AAXX 09184 84001 31565 71510 10261 20181 30103 40123 70544 81530 333 58002
AAXX 09184 84010 31570 71312 10250 20211 70544 82230
AAXX 09184 84018 31580 62914 10264 20223 30097 40104 70544 84230 333 59008
AAXX 09184 84027 31570 61006 10187 20127 37163 47138 70242 84230 333 59002
AAXX 09184 84063 32580 40000 10308 20247 39727 40052 84200 333 59024
AAXX 09184 84069 11456 82304 10234 20195 69901 70554 882// 555 1 T
AAXX 09184 84071 31680 70304 10195 20085 37267 47119 70242 85230 333 59006
AAXX 09184 84099 32575 71003 10318 20216 3//// 40085 83130 333 5////
AAXX 09184 84101 31562 72812 10263 20221 30091 40105 70544 83530 333 59004
AAXX 09184 84117 31565 72607 10262 20210 30086 40109 70544 84530 333 59008
AAXX 09184 84123 31570 61914 10182 20117 37277 47115 70242 85231 333 59025
AAXX 09184 84147 11565 51204 10187 20135 69921 70262 83230 555 10002
AAXX 09184 84163 11570 81404 10222 20196 38940 48491 69931 78022 8321/ 333 59002 555 10003
AAXX 09184 84176 31680 40320 10200 20123 70134 84200
AAXX 09184 84200 31960 62609 10235 20200 70544 86030
AAXX 09184 84203 31560 60504 10291 20183 30088 40093 70544 84131 333 59002
AAXX 09184 84217 32570 60906 10257 20194 84230
AAXX 09184 84239 11680 50605 10211 20117 37528 47143 69931 70162 85200 333 59001 555 10003
AAXX 09184 84252 11570 59903 10275 20210 30101 40109 69951 70544 81130 333 58001 555 10005
AAXX 09184 84265 11670 60000 10235 20169 38754 4//// 69961 70564 82230 333 58013 555 10006
AAXX 09184 97796 11457 80000 10252 20243 30043 40085 55008 69901 70562 8697/ 333 56009 57900 82911 86612 80980
BBXX TBWUK17 09183 99095 11099 41/96 90119 10262 20252 40125 57002 76166 89779 22253 04280 20402 30202 40503 50604 80255
BBXX 63106 09184 99610 10017 46/// /2937 10040 49780 53015 22200
BBXX 63113 09184 99610 10017 46/// /3041 10032 20031 49820 52017 22200 11018 70088
BBXX 62107 09184 99501 70061 46/// /3214 10092 20012 40155 52004 22200 00122 10905 70025
AAXX 09184 62007 32960 00000 10177 20133 40261 54000 333 10230
AAXX 09184 62010 32960 00902 10152 20120 40274 52006 333 10225
AAXX 09184 62012 32560 32604 10169 20141 30240 40270 54000 83500 333 10212 83625
AAXX 09184 62016 32560 43604 10170 20111 40293 52006 81570 333 10210 81625 84360
AAXX 09184 62124 32960 01309 10175 20064 39743 40257 52005 333 10202
AAXX 09184 62161 32960 00000 10167 20099 40241 53011 333 10205
AAXX 09184 62259 32960 50603 10184 20079 40254 53007 85080 333 10212 85360
AAXX 0918/ 89828 46/// ///// 11389 36405 4//// 5//// 91830
BBXX DDDI2 09184 99056 30797 41/98 82306 10290 20270 40100 52010 79022 882// 22254 00/// 2//// 80275
BBXX TBWUK37 09184 99179 11199 41597 /0430 10240 20210 40107 54000 70322 8/8/8 22244 04280 20805 304// 41206 80220
BBXX 3FHX2 09183 99352 11304 41/98 /2821 10040 20010 40230 54000 70222 8//// 222// 00/// 2////
BBXX SHIP 09184 99209 11238 41/97 80424 10200 20184 40110 56010 70050 88/// 22254 00260 2//// 80190
BBXX DDSC2 09183 99386 70364 41598 52004 10170 20146 40300 51010 70300 841// 22215 00167 20000 80155
BBXX 9VBM6 09183 99371 10035 41797 41903 10180 20130 40240 5//// 7//11 82/88 22273 04210 2//// 80150
AAXX 09184 71904 16/// ///// 11023 21089 60001 333 11006 21120 70000
AAXX 09184 71245 46/// /2423 11009 21138 6///1 333 11009 21098 7////
AAXX 09184 71904 16/// ///// 11023 21089 60001 333 11006 21120 70000
AAXX 09181 01059 11589 71705 11032 21053 30049 40059 54000 60002 70220 87500 333 11031 91107
AAXX 09184 91375 46/// /0806 10264 40065 22200 00285
BBXX 9VBM6 09183 99371 10035 41797 41903 10180 20130 40240 5//// 7//11 82/88 22273 04210 2//// 80150
BBXX DDDI2 09184 99056 30797 41/98 82306 10290 20270 40100 52010 79022 882// 22254 00/// 2//// 80275
BBXX 3FHX2 09183 99352 11304 41/98 /2821 10040 20010 40230 54000 70222 8//// 222// 00/// 2////
AAXX 09184 91165 32566 60513 10228 20167 30155 40189 53008 91753
AAXX 09184 91212 12766 20611 10256 20239 31372 40106 55008 69901 91754
AAXX 09184 91245 32566 40818 10270 20230 30147 91755
AAXX 09184 91285 12566 60000 10211 20167 30171 40184 53012 69901 91753
AAXX 09184 91334 11474 70510 10273 20243 30073 40076 56008 69931 70282 82371
AAXX 09184 91348 32474 50103 10275 20247 30029 40081 55007 83101
AAXX 09184 91376 11474 80911 10259 20232 30063 40066 55000 60101 72582 84878
AAXX 09184 91408 32474 80703 10272 20250 30036 40074 57019 83278
AAXX 09184 91413 11469 80709 10265 20239 30046 40071 57027 69931 70282 84373
AAXX 09184 91155 NIL
AAXX 09184 91203 NIL
AAXX 09184 91217 NIL
AAXX 09184 91232 NIL
AAXX 09184 91250 NIL
AAXX 09184 91275 NIL
AAXX 09184 91317 NIL
AAXX 09184 91324 NIL
AAXX 09184 91339 NIL
AAXX 09184 91353 NIL
AAXX 09184 91356 NIL
AAXX 09184 91366 NIL
AAXX 09184 91367 NIL
AAXX 09184 91369 NIL
AAXX 09184 91371 NIL
AAXX 09184 91378 NIL
AAXX 09184 91425 NIL
AAXX 09184 91434 NIL
AAXX 09184 91601 NIL
AAXX 09184 91610 NIL
AAXX 09184 62721 32970 73412 10260 20080 39672N 40108 80007 10315 56009 58009 87275
AAXX 09184 62733 32970 03209 10280 20150 39574 40072 10350 58005
AAXX 09184 62750 32970 73407 10265 20095 39654 40085 80007 10320 56009 58008 87275
AAXX 09184 62751 32970 03105 10248 20046 39643 40103 10340 58019
AAXX 09184 62752 32970 00205 10305 20130 39405 40062 10364 58005
AAXX 09184 62762 32970 70406 10252 20124 39598 40066 80007 10338 56009 58006 87275
AAXX 09184 62771 32970 73114 10240 20050 39476 40117 80007 10250 56009 58011 87275
AAXX 09184 62772 32970 03606 10250 20130 39654 40083 10320 58006
AAXX 09184 62781 32970 70206 10235 20035 39483 40116 80007 10297 56009 58008 87275
AAXX 09184 62790 31950 70516 21060 39406 40137 70722 80007 10285 56009 58015 87275
AAXX 09184 62795 32970 70210 10290 20120 39582 40075 80007 10372 56009 58007 87275
AAXX 09184 62803 31968 73607 10240 20080 3//// 4//// 70622 80007 10300 56009 5//// 87275
AAXX 09184 62805 32970 73204 10360 20140 39929 40044 80007 10355 56009 58003 87275
AAXX 09184 62809 32970 73602 10252 20073 39602 40111 80007 10305 56009 58014 87275
BBXX AMOUK08 09184 99501 70061 46/// ///// 10096 20028 30150 40155 54002 91750
BBXX 63106 09184 99610 10017 46/// /2937 10040 49780 53015 22200
BBXX 63105 09184 99610 10017 47496 ///// 10046 20023 49778 53010 751// 22200
AAXX 09184 91245 32566 40818 10270 20230 30147 91755
AAXX 09184 91165 32566 60513 10228 20167 30155 40189 53008 91753
AAXX 09184 91212 12766 20611 10256 20239 31372 40106 55008 69901 91754
AAXX 09184 91285 12566 60000 10211 20167 30171 40184 53012 69901 91753
AAXX 09184 91334 11474 70510 10273 20243 30073 40076 56008 69931 70282 82371
AAXX 09184 91348 32474 50103 10275 20247 30029 40081 55007 83101
AAXX 09184 91376 11474 80911 10259 20232 30063 40066 55000 60101 72582 84878
AAXX 09184 91408 32474 80703 10272 20250 30036 40074 57019 83278
AAXX 09184 91413 11469 80709 10265 20239 30046 40071 57027 69931 70282 84373
BBXX 3FQS8 09184 99291 70784 41198 30105 00/// 10223 2021/ 40202 52006 70200 88243 22274 00250 20401 303// 40401 5//// 6//// 80208 /////
AAXX 09184 96655 32456 80000 10250 20241 30130 40104 57010 86573 333 56000 86612
AAXX 0918/ 89327 46/// ///// 10015 39568 4//// 5//// 91820
AAXX 09184 71372 16/// /1406 10009 20003 60001 333 10023 21017 70000
AAXX 09184 71373 16/// /1704 10012 21022 60001 333 10012 21018 70012
AAXX 09184 71388 46/// /2607 11020 21071 30000 40191 56011 6///1 333 11016 21095 7////
AAXX 09184 71824 46/// /2104 11093 21119 6///1 333 11093 21182 7////
AAXX 09181 01257 11471 71101 10007 21017 39619 49777 52012 60002 70222 87460 333 10014 91104
BBXX 63106 09184 99610 10017 46/// /2937 10040 49780 53015 22200
BBXX 63113 09184 99610 10017 46/// /3041 10032 20031 49820 52017 22200 11018 70088
BBXX 62107 09184 99501 70061 46/// /3214 10092 20012 40155 52004 22200 00122 10905 70025
AAXX 0918/ 89868 46/// ///// 11046 39674 4//// 5//// 91830
AAXX 0918/ 89769 46/// ///// 11029 39700 4//// 5//// 91840
BBXX 42043 09181 99290 70949 46/// /1105 1//// 40231 91830 22200 00165 333 91207
BBXX 42043 09181 99290 70949 46/// /1104 1//// 40235 54000 91800 22200 00167 333 91205
BBXX 42044 09181 99262 70971 46/// /0303 10205 20174 40203 91830 22200 00197 333 91204
BBXX 42044 09181 99262 70971 46/// /0203 10203 20174 40207 91800 22200 00197 333 91203
BBXX 42045 09181 99262 70965 46/// /1204 10210 40205 91830 22200 00220 333 91205
BBXX 42045 09181 99262 70965 46/// /1303 10211 40209 91800 22200 00220 333 91204
BBXX 42046 09181 99279 70940 46/// /1105 1//// 40228 91830 22200 00227 333 91206
BBXX 42046 09181 99279 70940 46/// /1205 1//// 40233 91800 22200 00227 333 91206
BBXX 42047 09181 99279 70936 46/// /1104 10182 20099 40229 91830 22200 00229 333 91205
BBXX 42047 09181 99279 70936 46/// /1104 10185 20102 40231 91800 22200 00229 333 91206
BBXX 42047 09181 99279 70936 46/// /1104 10182 20099 40229 91830 22200 00229 333 91205
BBXX 42047 09181 99279 70936 46/// /1104 10185 20102 40231 91800 22200 00229 333 91206
BBXX 42046 09181 99279 70940 46/// /1205 1//// 40233 91800 22200 00227 333 91206
BBXX 42046 09181 99279 70940 46/// /1105 1//// 40228 91830 22200 00227 333 91206
BBXX 42045 09181 99262 70965 46/// /1303 10211 40209 91800 22200 00220 333 91204
BBXX 42045 09181 99262 70965 46/// /1204 10210 40205 91830 22200 00220 333 91205
BBXX 42044 09181 99262 70971 46/// /0203 10203 20174 40207 91800 22200 00197 333 91203
BBXX 42044 09181 99262 70971 46/// /0303 10205 20174 40203 91830 22200 00197 333 91204
BBXX 42043 09181 99290 70949 46/// /1105 1//// 40231 91830 22200 00165 333 91207
BBXX 42043 09181 99290 70949 46/// /1104 1//// 40235 54000 91800 22200 00167 333 91205
BBXX 52243 09181 99193 11666 46/// ///// 1//// 91800 22200 00271
BBXX 51179 09181 99143 51708 46/// ///// 1//// 91800 22200 00285
BBXX 51178 09181 99142 51695 46/// ///// 1//// 91800 22200 00283
BBXX 52246 09181 99152 11457 46/// ///// 1//// 91800 22200 00283
BBXX 51176 09181 99278 71758 46/// ///// 1//// 91800 22200 00235
BBXX 52245 09181 99181 11458 46/// ///// 1//// 91800 22200 00281
BBXX 51174 09181 99142 51697 46/// ///// 1//// 91800 22200 00283
BBXX 52244 09181 99200 11452 46/// ///// 1//// 91800 22200 00270
BBXX 51173 09181 99260 71739 46/// ///// 1//// 91800 22200 00241
BBXX 51172 09181 99284 71783 46/// ///// 1//// 91800 22200 00229
BBXX 51171 09181 99064 71623 46/// ///// 1//// 91800 22200 00281
BBXX 51170 09181 99168 71695 46/// ///// 1//// 91800 22200 00264
BBXX 51169 09181 99004 51600 46/// ///// 1//// 91800 22200 00255
BBXX 52248 09181 99135 11448 46/// ///// 1//// 91800 22200 00286
AAXX 09184 89013 46/// /0613 11212 21250 37455 49444 52008 91840
AAXX 09184 89257 46/// /2407 11098 21127 39670 49740 52002 91840
AAXX 09184 89266 46/// /9901 11046 21102 39619 49756 52003 91840
AAXX 09184 89272 46/// /3105 11086 21124 3//// 4//// 5//// 91840
AAXX 09181 20069 42976 00602 11147 21165 30109 40122 51004
AAXX 09181 20046 11498 81708 11082 21092 30048 40080 57002 69910 73673 885// 333 11089 91114
AAXX 09184 41515 02695 70000 10077 21012 38587 48548 60003 84520 333 56990 58002 60007 84650 83458
AAXX 09184 41560 22696 31803 10015 21072 38266 48500 60003 82320 333 59010 60007
AAXX 09184 41571 119// 20504 10120 20071 39579 40173 60003 70500 81030 333 56090 58018
AAXX 09184 41685 32993 00502 10095 21032 38926 48501 333 59001
AAXX 09184 41710 02997 03602 10045 21163 39422 40234 60003 333 58021 60007
AAXX 09184 41718 12996 00000 10110 20079 30064 40171 60003 333 58018
AAXX 09184 41739 02996 00000 10090 21061 39081 48523 60003 333 58017 60007
AAXX 09184 41744 32996 00000 10110 21044 38795 48515 333 58010
AAXX 09184 41515 02695 70000 10077 21012 38587 48548 60003 84520 333 56990 58002 60007 84650 83458
AAXX 09184 41560 22696 31803 10015 21072 38266 48500 60003 82320 333 59010 60007
AAXX 09184 41571 119// 20504 10120 20071 39579 40173 60003 70500 81030 333 56090 58018
AAXX 09184 41594 NIL
AAXX 09184 41685 32993 00502 10095 21032 38926 48501 333 59001
AAXX 09184 41710 02997 03602 10045 21163 39422 40234 60003 333 58021 60007
AAXX 09184 41718 12996 00000 10110 20079 30064 40171 60003 333 58018
AAXX 09184 41739 02996 00000 10090 21061 39081 48523 60003 333 58017 60007
AAXX 09184 41744 32996 00000 10110 21044 38795 48515 333 58010
AAXX 09184 41749 NIL
AAXX 09184 41529 12995 00000 10094 20051 39795 40187 60003 333 58024 60007
AAXX 09184 41598 11695 30000 10145 20097 39880 40155 60003 70400 83500 333 58020
AAXX 09184 41620 32995 01305 10070 21101 38624 48523 333 58012 q1022
AAXX 09184 41624 02995 00502 10120 20029 39964 40170 60003 333 58028 60007
AAXX 09184 41640 01995 03104 10170 20125 39899 40150 60003 70500 333 58025 60007
AAXX 09184 41660 119// 02704 11006 21072 38470 48561 60003 70500 333 58012
AAXX 09184 41675 11996 00000 10110 20043 30029 40173 60003 70400 333 58031
AAXX 09184 41712 NIL
AAXX 09184 41715 01996 00000 10145 20049 30112 40178 60003 70500 333 58018 60007
AAXX 09184 41756 01995 03612 10190 20009 30106 40172 60003 70504 333 58007 60007
AAXX 09184 41764 32996 00000 10150 20069 30109 40161 60003 333 58015 60007
AAXX 09184 41768 02996 00000 10145 20086 30161 40168 60003 333 58031 60007
AAXX 09184 41780 02996 00502 10185 20090 30144 40171 60003 333 58013 60007
AAXX 09184 41506 02694 70000 10045 20009 48550 60003 83420 333 56990 58016 60007 83640 84460
AAXX 09184 41508 22996 30000 10060 20013 48556 60003 83030 333 56090 58023 60007 83360
AAXX 09184 41523 02996 10000 10080 20036 48535 60003 81040 333 56090 58032 60007 81360
AAXX 09184 41535 12697 30000 10060 20026 48494 60003 83500 333 56900 58015 83635
AAXX 09184 41536 NIL
AAXX 09184 41573 12996 00000 10050 20028 48513 60003 333 58020
AAXX 09184 41600 02996 33602 10150 20123 39857 40157 60003 83070 333 58025 60007
AAXX 09184 41630 11996 00000 10130 20101 40170 60003 70400 333 58027
AAXX 09184 41678 12996 00000 10140 20102 40166 60003 333 58021 60007
AAXX 09184 41696 02996 00000 11035 21127 38048 48584 60003 333 58018 60007
AAXX 09184 41697 02996 00000 10117 20050 40179 60003 333 58013 60007
AAXX 09184 41700 11995 00000 10140 20068 40162 60003 70400 333 58023
AAXX 09184 41725 02996 00000 10165 20063 40170 60003 333 58017 60007
AAXX 09184 41746 02996 00000 10145 20097 40172 60003 333 58007 60007
AAXX 09184 41759 12996 00000 10175 20064 30178 40184 60002 333 58023
AAXX 09184 41785 02996 00000 10165 20109 40166 60003 333 58017 60007
AAXX 09184 41529 12995 00000 10094 20051 39795 40187 60003 333 58024 60007
AAXX 09184 41598 11695 30000 10145 20097 39880 40155 60003 70400 83500 333 58020
AAXX 09184 41620 32995 01305 10070 21101 38624 48523 333 58012 q1022
AAXX 09184 41624 02995 00502 10120 20029 39964 40170 60003 333 58028 60007
AAXX 09184 41640 01995 03104 10170 20125 39899 40150 60003 70500 333 58025 60007
AAXX 09184 41660 119// 02704 11006 21072 38470 48561 60003 70500 333 58012
AAXX 09184 41675 11996 00000 10110 20043 30029 40173 60003 70400 333 58031
AAXX 09184 41715 01996 00000 10145 20049 30112 40178 60003 70500 333 58018 60007
AAXX 09184 41756 01995 03612 10190 20009 30106 40172 60003 70504 333 58007 60007
AAXX 09184 41764 32996 00000 10150 20069 30109 40161 60003 333 58015 60007
AAXX 09184 41768 02996 00000 10145 20086 30161 40168 60003 333 58031 60007
AAXX 09184 41780 02996 00502 10185 20090 30144 40171 60003 333 58013 60007
AAXX 09184 41529 12995 00000 10094 20051 39795 40187 60003 333 58024 60007
AAXX 09184 41598 11695 30000 10145 20097 39880 40155 60003 70400 83500 333 58020
AAXX 09184 41620 32995 01305 10070 21101 38624 48523 333 58012 q1022
AAXX 09184 41624 02995 00502 10120 20029 39964 40170 60003 333 58028 60007
AAXX 09184 41640 01995 03104 10170 20125 39899 40150 60003 70500 333 58025 60007
AAXX 09184 41660 119// 02704 11006 21072 38470 48561 60003 70500 333 58012
AAXX 09184 41675 11996 00000 10110 20043 30029 40173 60003 70400 333 58031
AAXX 09184 41712 NIL
AAXX 09184 41715 01996 00000 10145 20049 30112 40178 60003 70500 333 58018 60007
AAXX 09184 41756 01995 03612 10190 20009 30106 40172 60003 70504 333 58007 60007
AAXX 09184 41764 32996 00000 10150 20069 30109 40161 60003 333 58015 60007
AAXX 09184 41768 02996 00000 10145 20086 30161 40168 60003 333 58031 60007
AAXX 09184 41780 02996 00502 10185 20090 30144 40171 60003 333 58013 60007
AAXX 09184 41515 02695 70000 10077 21012 38587 48548 60003 84520 333 56990 58002 60007 84650 83458
AAXX 09184 41560 22696 31803 10015 21072 38266 48500 60003 82320 333 59010 60007
AAXX 09184 41571 119// 20504 10120 20071 39579 40173 60003 70500 81030 333 56090 58018
AAXX 09184 41594 NIL
AAXX 09184 41685 32993 00502 10095 21032 38926 48501 333 59001
AAXX 09184 41710 02997 03602 10045 21163 39422 40234 60003 333 58021 60007
AAXX 09184 41718 12996 00000 10110 20079 30064 40171 60003 333 58018
AAXX 09184 41739 02996 00000 10090 21061 39081 48523 60003 333 58017 60007
AAXX 09184 41744 32996 00000 10110 21044 38795 48515 333 58010
AAXX 09184 41749 NIL
BBXX AMOUK08 09184 99501 70061 46/// ///// 10096 20028 30150 40155 54002 91750
BBXX 63106 09184 99610 10017 46/// /2937 10040 49780 53015 22200
BBXX 63105 09184 99610 10017 47496 ///// 10046 20023 49778 53010 751// 22200
AAXX 09184 41620 32995 01305 10070 21101 38624 48523 333 58012
AAXX 09184 41506 02694 70000 10045 20009 48550 60003 83420 333 56990 58016 60007 83640 84460
AAXX 09184 41508 22996 30000 10060 20013 48556 60003 83030 333 56090 58023 60007 83360
AAXX 09184 41523 02996 10000 10080 20036 48535 60003 81040 333 56090 58032 60007 81360
AAXX 09184 41535 12697 30000 10060 20026 48494 60003 83500 333 56900 58015 83635
AAXX 09184 41573 12996 00000 10050 20028 48513 60003 333 58020
AAXX 09184 41600 02996 33602 10150 20123 39857 40157 60003 83070 333 58025 60007
AAXX 09184 41630 11996 00000 10130 20101 40170 60003 70400 333 58027
AAXX 09184 41678 12996 00000 10140 20102 40166 60003 333 58021 60007
AAXX 09184 41696 02996 00000 11035 21127 38048 48584 60003 333 58018 60007
AAXX 09184 41697 02996 00000 10117 20050 40179 60003 333 58013 60007
AAXX 09184 41700 11995 00000 10140 20068 40162 60003 70400 333 58023
AAXX 09184 41725 02996 00000 10165 20063 40170 60003 333 58017 60007
AAXX 09184 41746 02996 00000 10145 20097 40172 60003 333 58007 60007
AAXX 09184 41759 12996 00000 10175 20064 30178 40184 60002 333 58023
AAXX 09184 41785 02996 00000 10165 20109 40166 60003 333 58017 60007
AAXX 09184 41529 12995 00000 10094 20051 39795 40187 60003 333 58024 60007
AAXX 09184 41598 11695 30000 10145 20097 39880 40155 60003 70400 83500 333 58020
AAXX 09184 41620 32995 01305 10070 21101 38624 48523 333 58012 q1022
AAXX 09184 41624 02995 00502 10120 20029 39964 40170 60003 333 58028 60007
AAXX 09184 41640 01995 03104 10170 20125 39899 40150 60003 70500 333 58025 60007
AAXX 09184 41660 119// 02704 11006 21072 38470 48561 60003 70500 333 58012
AAXX 09184 41675 11996 00000 10110 20043 30029 40173 60003 70400 333 58031
AAXX 09184 41715 01996 00000 10145 20049 30112 40178 60003 70500 333 58018 60007
AAXX 09184 41756 01995 03612 10190 20009 30106 40172 60003 70504 333 58007 60007
AAXX 09184 41764 32996 00000 10150 20069 30109 40161 60003 333 58015 60007
AAXX 09184 41768 02996 00000 10145 20086 30161 40168 60003 333 58031 60007
AAXX 09184 41780 02996 00502 10185 20090 30144 40171 60003 333 58013 60007
AAXX 09184 41620 32995 01305 10070 21101 38624 48523 333 58012
AAXX 09184 41515 02695 70000 10077 21012 38587 48548 60003 84520 333 56990 58002 60007 84650 83458
AAXX 09184 41560 22696 31803 10015 21072 38266 48500 60003 82320 333 59010 60007
AAXX 09184 41571 119// 20504 10120 20071 39579 40173 60003 70500 81030 333 56090 58018
AAXX 09184 41685 32993 00502 10095 21032 38926 48501 333 59001
AAXX 09184 41710 02997 03602 10045 21163 39422 40234 60003 333 58021 60007
AAXX 09184 41718 12996 00000 10110 20079 30064 40171 60003 333 58018
AAXX 09184 41739 02996 00000 10090 21061 39081 48523 60003 333 58017 60007
AAXX 09184 41744 32996 00000 10110 21044 38795 48515 333 58010
BBXX 51169 09181 99004 51600 46/// ///// 1//// 91800 22200 00255
BBXX 51178 09181 99142 51695 46/// ///// 1//// 91800 22200 00283
BBXX 51179 09181 99143 51708 46/// ///// 1//// 91800 22200 00285
BBXX 51174 09181 99142 51697 46/// ///// 1//// 91800 22200 00283
BBXX 52248 09181 99135 11448 46/// ///// 1//// 91800 22200 00286
BBXX 52246 09181 99152 11457 46/// ///// 1//// 91800 22200 00283
BBXX 52245 09181 99181 11458 46/// ///// 1//// 91800 22200 00281
BBXX 52244 09181 99200 11452 46/// ///// 1//// 91800 22200 00270
BBXX 52243 09181 99193 11666 46/// ///// 1//// 91800 22200 00271
BBXX 51170 09181 99168 71695 46/// ///// 1//// 91800 22200 00264
BBXX 51171 09181 99064 71623 46/// ///// 1//// 91800 22200 00281
BBXX 51172 09181 99284 71783 46/// ///// 1//// 91800 22200 00229
BBXX 51173 09181 99260 71739 46/// ///// 1//// 91800 22200 00241
BBXX 51176 09181 99278 71758 46/// ///// 1//// 91800 22200 00235
AAXX 09181 10544 11/02 92508 11016 21016 39022 48398 53007 60082 74942 333 10043 21016 3/102 42004 55300 91116 91211 96047 96241
AAXX 09181 20667 11896 82403 11028 21032 30139 40146 52008 69900 77172 8802/ 333 11018
AAXX 09184 97460 01458 70000 10230 20227 30048 40058 56025 60021 83876 333 56000 57902 60027 81917 82818 80958
AAXX 09184 97460 01458 70000 10230 20227 30048 40058 56025 60021 76162 83876 333 56000 57902 60027 81917 82818 80958
AAXX 09181 02805 11265 83501 11094 21108 39935 40073 57004 60022 77087 887// 333 11094 21148 47///
BBXX 63106 09184 99610 10017 46/// /2937 10040 49780 53015 22200
BBXX 63113 09184 99610 10017 46/// /3041 10032 20031 49820 52017 22200 11018 70088
BBXX 62107 09184 99501 70061 46/// /3214 10092 20012 40155 52004 22200 00122 10905 70025
BBXX SHIP 09184 99239 30912 41498 51216 10220 20158 40136 52000 70228 8423/ 22223 00231 80180
BBXX SHIP 09184 99239 30912 41498 51216 10220 20158 40136 52000 70228 8423/ 22223 00231 80180
AAXX 09184 97072 01457 80000 10248 20235 30994 40094 57007 69921 70262 8357/ 333 56009 69927 83619 85460
BBXX SHIP 09184 99239 30912 41498 51216 10220 20158 40136 52000 70228 8423/ 22223 00231 80180
AAXX 09181 38618 329// 00301 11019 21035 39554 40268 58004 333 10048
AAXX 09184 96839 11456 70000 10258 20234 30076 40083 57011 69921 72996 84972 333 56000 57901 81918 83820 80980
BBXX SHIP 09184 99239 30912 41498 51216 10220 20158 40136 52000 70228 8423/ 22223 00231 80180
AAXX 0918/ 89872 46/// ///// 11029 39685 4//// 5////
AAXX 0918/ 89872 46/// ///// 11025 39686 4//// 5//// 91810
AAXX 0918/ 89869 46/// ///// 11049 39671 4//// 5//// 91810
AAXX 0918/ 89866 46/// ///// 11053 39616 4//// 5//// 91810
AAXX 0918/ 89866 46/// ///// 11045 39616 4//// 5//// 91820
AAXX 0918/ 89329 46/// ///// 11108 38617 4//// 5////
AAXX 0918/ 89329 46/// ///// 11104 38618 4//// 5//// 91810
AAXX 0918/ 89799 46/// ///// 11299 4//// 5//// 91810
AAXX 0918/ 89799 46/// ///// 11298 4//// 5//// 91820
AAXX 0918/ 89868 46/// ///// 11048 39674 4//// 5////
AAXX 0918/ 89327 46/// ///// 10014 39565 4//// 5//// 91810
AAXX 0918/ 89108 46/// ///// 11245 36801 4//// 5//// 91810
AAXX 0918/ 89332 46/// ///// 11003 39123 4//// 5////
AAXX 0918/ 89332 46/// ///// 11013 39123 4//// 5//// 91810
AAXX 0918/ 89314 46/// ///// 11135 38075 4//// 5//// 91810
AAXX 0918/ 89314 46/// ///// 11135 38074 4//// 5//// 91820
AAXX 09184 97340 32560 82203 10262 20251 30062 40076 56007 82232 333 56000 82820 88080
AAXX 09181 28552 42998 00000 11185 21203 30255 40379 57003
AAXX 09184 96035 32458 70000 10255 20233 30060 40098 58006 82578 333 56000 82618
AAXX 09181 24125 41998 70000 11384 21394 39888 40209 52007 70272 80001
AAXX 09181 29430 42398 80000 11205 21224 30207 40401 54000 886// 333 88708
AAXX 09184 97260 32560 61403 10248 20239 30064 40070 57007 84501 333 56000 84620
BBXX AMOUK08 09184 99501 70061 46/// ///// 10096 20028 30150 40155 54002 91750
BBXX 63106 09184 99610 10017 46/// /2937 10040 49780 53015 22200
BBXX 63105 09184 99610 10017 47496 ///// 10046 20023 49778 53010 751// 22200
AAXX 09184 97086 01458 82005 10254 20234 30068 40093 56007 60021 71522 8452/ 333 56009 69967 84615 88460
AAXX 09184 71376 17/// /1903 11008 21021 39897 40195 58021 60011 7//4/ 333 11008 21062 70030
AAXX 0918/ 68902 46/// ///// 40175 57007
AAXX 09184 48435 32962 10918 10198 20152 39701 40147 58003 80001 333 58026
AAXX 09181 25745 42698 60503 11169 21211 39963 40016 57014 86500
AAXX 09184 71971 16/// /2603 11120 21164 39987 40033 57019 60001 333 11094 21168 70000
BBXX 63106 09184 99610 10017 46/// /2937 10040 49780 53015 22200
BBXX 63113 09184 99610 10017 46/// /3041 10032 20031 49820 52017 22200 11018 70088
BBXX 62107 09184 99501 70061 46/// /3214 10092 20012 40155 52004 22200 00122 10905 70025
AAXX 09184 65592 32460 5//// 10275 20241 30051 40073 84903 333 10304 59003 84813 81920 94915 94947 95837
AAXX 09184 97182 01460 80604 10240 20229 30076 40080 57012 60051 76162 8322/ 333 56009 57800 60037 83819 86459 808//
BBXX AMOUK08 09184 99501 70061 46/// ///// 10096 20028 30150 40155 54002 91750
BBXX 63106 09184 99610 10017 46/// /2937 10040 49780 53015 22200
BBXX 63105 09184 99610 10017 47496 ///// 10046 20023 49778 53010 751// 22200
BBXX ONAN 09184 99034 51326 41597 41019 10260 2023/ 40110 50020 70222 832// 22273 00250 21005 3//// 40804 5//// 6//// 80240 ICE /////
BBXX ONAN 09184 99034 51326 41597 41019 10260 2023/ 40110 50020 70222 832// 22273 00250 21005 3//// 40804 5//// 6//// 80240 ICE /////
AAXX 09181 20292 42998 42005 11215 21247 30137 40157 58004 80005 333 91107
BBXX WDE2719 09183 99607 71514 41/95 /9901 10000 2//// 40090 5//// 745// 8//// 222// 01011 2//// 3//// 4//// 5//// 6//// 8//// ICE /////
BBXX WDE2719 09183 99607 71514 41/95 /9901 10000 2//// 40090 5//// 745// 8//// 222// 01011 2//// 3//// 4//// 5//// 6//// 8//// ICE /////
BBXX 63106 09184 99610 10017 46/// /2937 10040 49780 53015 22200
BBXX 63113 09184 99610 10017 46/// /3041 10032 20031 49820 52017 22200 11018 70088
BBXX 62107 09184 99501 70061 46/// /3214 10092 20012 40155 52004 22200 00122 10905 70025
BBXX AMOUK08 09184 99501 70061 46/// ///// 10096 20028 30150 40155 54002 91750
BBXX 63106 09184 99610 10017 46/// /2937 10040 49780 53015 22200
BBXX 63105 09184 99610 10017 47496 ///// 10046 20023 49778 53010 751// 22200
AAXX 09184 03784 46/// /2713 10061 20018 30108 40112 52013 91750 333 10084
AAXX 09184 71554 16/// /2207 11006 21061 30194 40200 58006 60001 333 11003 21058 70011
BBXX MINFR09 0918/ 99314 31152 46/// ///// 40103 57002
BBXX MINFR09 0918/ 99314 31152 46/// ///// 40103 57002
AAXX 09184 91367 11474 81008 10261 20230 60571 70282 85267 333 56229 85815 83760 88280 555 90918
BBXX 63106 09184 99610 10017 46/// /2937 10040 49780 53015 22200
BBXX 63113 09184 99610 10017 46/// /3041 10032 20031 49820 52017 22200 11018 70088
BBXX 62107 09184 99501 70061 46/// /3214 10092 20012 40155 52004 22200 00122 10905 70025
AAXX 09184 91367 11474 81008 10261 20230 60571 70282 85267 333 56229 85815 83760 88280 555 90918
AAXX 09184 91367 11474 81008 10261 20230 60571 70282 85267 333 56229 85815 83760 88280 555 90918
BBXX 52249 09181 99052 31503 46/// ///// 1//// 91800 22200 00304
AAXX 09181 10616 12380 32703 10026 20014 39528 40135 52007 60052 83100 333 10051 20019 31000 55300 83807 91113
BBXX AMOUK08 09184 99501 70061 46/// ///// 10096 20028 30150 40155 54002 91750
BBXX 63106 09184 99610 10017 46/// /2937 10040 49780 53015 22200
BBXX 63105 09184 99610 10017 47496 ///// 10046 20023 49778 53010 751// 22200
BBXX 52249 09181 99052 31503 46/// ///// 1//// 91800 22200 00304
BBXX WDA2768 09184 99470 70864 41/97 /3523 00/// 11049 21083 40178 5//// 7852/ 8//// 22223 0//// 2//05 3//// 4//// 5//// 6//// 81059 ICE /////
BBXX WDA2768 09184 99470 70864 41/97 /3523 00/// 11049 21083 40178 5//// 7852/ 8//// 22223 0//// 2//05 3//// 4//// 5//// 6//// 81059 ICE /////
BBXX 63106 09184 99610 10017 46/// /2937 10040 49780 53015 22200
BBXX 63113 09184 99610 10017 46/// /3041 10032 20031 49820 52017 22200 11018 70088
BBXX 62107 09184 99501 70061 46/// /3214 10092 20012 40155 52004 22200 00122 10905 70025
AAXX 09184 96207 31430 70000 10206 20195 39223 40145 57007 70522 83531 333 56000 83615
AAXX 09181 78090 15/// /0000 10228 30185 40188 69901 91800 222// 00127
BBXX AMOUK08 09184 99501 70061 46/// ///// 10096 20028 30150 40155 54002 91750
BBXX 63106 09184 99610 10017 46/// /2937 10040 49780 53015 22200
BBXX 63105 09184 99610 10017 47496 ///// 10046 20023 49778 53010 751// 22200
AAXX 09184 97028 01560 80908 10246 20237 30067 40071 51015 60231 76062 84221 333 56000 57802 60237 84820 87460 80860
BBXX 63106 09184 99610 10017 46/// /2937 10040 49780 53015 22200
BBXX 63113 09184 99610 10017 46/// /3041 10032 20031 49820 52017 22200 11018 70088
BBXX 62107 09184 99501 70061 46/// /3214 10092 20012 40155 52004 22200 00122 10905 70025
BBXX AMOUK08 09184 99501 70061 46/// ///// 10096 20028 30150 40155 54002 91750
BBXX 63106 09184 99610 10017 46/// /2937 10040 49780 53015 22200
BBXX 63105 09184 99610 10017 47496 ///// 10046 20023 49778 53010 751// 22200
AAXX 09184 48552 11460 73103 10240 20233 30103 40109 57005 60263 70262 85806 333 58009 70289
AAXX 09184 91723 NIL
AAXX 09184 91964 NIL
BBXX 63106 09184 99610 10017 46/// /2937 10040 49780 53015 22200
BBXX 63113 09184 99610 10017 46/// /3041 10032 20031 49820 52017 22200 11018 70088
BBXX 62107 09184 99501 70061 46/// /3214 10092 20012 40155 52004 22200 00122 10905 70025
AAXX 09184 48360 32962 70910 10194 20134 39895 40161 52000 85052 333 58033
AAXX 09184 48583 01457 70000 10243 20227 30094 40100 57008 60033 76162 82876 333 58010 60026 70031
AAXX 09184 89573 35965 70000 11037 21108 39697 49719 52022 87032
AAXX 09184 89573 35965 70000 11037 21108 39697 49719 52022 87032
BBXX AMOUK08 09184 99501 70061 46/// ///// 10096 20028 30150 40155 54002 91750
BBXX 63106 09184 99610 10017 46/// /2937 10040 49780 53015 22200
BBXX 63105 09184 99610 10017 47496 ///// 10046 20023 49778 53010 751// 22200
AAXX 09184 48581 31557 60000 10245 20230 30071 40113 57006 71022 82146 333 58010
BBXX 63106 09184 99610 10017 46/// /2937 10040 49780 53015 22200
BBXX 63113 09184 99610 10017 46/// /3041 10032 20031 49820 52017 22200 11018 70088
BBXX 62107 09184 99501 70061 46/// /3214 10092 20012 40155 52004 22200 00122 10905 70025
AAXX 09181 25282 11556 83408 11140 21146 30024 40030 52010 60020 77173 885// 333 21145 48008 55000 91114 92980
BBXX WDD2451 09184 99607 71513 41/94 /1007 10010 2//// 40120 52020 74722 8//// 22200 0//// 2//// 3//// 4//// 5//// 65//3 8//// ICE 20///
BBXX WDD2451 09184 99607 71513 41/94 /1007 10010 2//// 40120 52020 74722 8//// 22200 0//// 2//// 3//// 4//// 5//// 65//3 8//// ICE 20///
AAXX 09181 10224 01473 72706 10033 20022 30044 40050 51010 69992 78086 878// 333 10065 20026 32002 55300 20000 30000 69957 83811 85620 91118 91212 96487
BBXX VRBK6 09184 99276 11263 41397 80330 10180 2011/ 40220 54000 7//22 88943 22213 00250 20806 30303 40806 50806 6//// 80140 ICE /////
BBXX A8CB7 09183 99074 11082 41397 40425 10250 20250 40090 54000 70300 84333 22254 06270 21005 30403 40906 51006 80250
BBXX A8CB7 09183 99074 11082 41397 40425 10250 20250 40090 54000 70300 84333 22254 06270 21005 30403 40906 51006 80250
BBXX VRBK6 09184 99276 11263 41397 80330 10180 2011/ 40220 54000 7//22 88943 22213 00250 20806 30303 40806 50806 6//// 80140 ICE /////
BBXX AMOUK08 09184 99501 70061 46/// ///// 10096 20028 30150 40155 54002 91750
BBXX 63106 09184 99610 10017 46/// /2937 10040 49780 53015 22200
BBXX 63105 09184 99610 10017 47496 ///// 10046 20023 49778 53010 751// 22200
AAXX 09184 48383 31957 00301 10175 20126 30012 40177 71000 333 58030
BBXX WDE8293 09184 99140 10582 41597 20419 10260 20186 40125 52025 70500 821// 22275 00280 20304 303// 40403 5//// 6//// 80210 ICE /////
BBXX WDE8293 09184 99140 10582 41597 20419 10260 20186 40125 52025 70500 821// 22275 00280 20304 303// 40403 5//// 6//// 80210 ICE /////
AAXX 09184 89065 46/// /1606 10005 21024 39659 49735 5//// 91820
AAXX 09184 89262 46/// /3105 10047 21024 39733 49775 5//// 91820
AAXX 09184 89065 46/// /1606 10005 21024 39659 49735 5//// 91820
AAXX 09184 89065 46/// /1505 10010 21023 39659 49735 5//// 91810
AAXX 09184 89262 46/// /3305 10045 21021 39732 49774 5//// 91810
BBXX A8VL8 09184 99282 30460 41298 40508 10250 20222 40130 54000 7//00 848// 22233 00220 20204 331// 40204 5//// 6//// 80230 ICE /////
BBXX A8VL8 09184 99282 30460 41298 40508 10250 20222 40130 54000 7//00 848// 22233 00220 20204 331// 40204 5//// 6//// 80230 ICE /////
AAXX 09184 71339 46964 02623 11061 21161 30050 6///1 333 7////
AAXX 09183 63612 32980 00000 10282 20155 40092 333 10345 58001
AAXX 09184 71588 16/// /2619 10002 21063 60001 333 10003 21021 70000
AAXX 09184 71558 46/// ///// 11038 21109 30053 40090 51012 6///1 333 11029 21055 7////
BBXX A8VL8 09184 99282 30460 41298 40508 10250 20222 40130 54000 7//00 848// 22233 00220 20204 331// 40204 5//// 6//// 80230 /////
BBXX VRAC9 09184 99243 10602 41297 70218 10260 2020/ 40160 54/// 7//22 877// 22264 00290 2//// 3//// 4//// 5//// 6//// 80220 ICE /////
BBXX VRAC9 09184 99243 10602 41297 70218 10260 2020/ 40160 54/// 7//22 877// 22264 00290 2//// 3//// 4//// 5//// 6//// 80220 ICE /////
AAXX 09184 89257 46/// /2409 11099 21127 39670 49740 5//// 91810
AAXX 09184 89257 46/// /2408 11099 21128 39669 49739 5//// 91820
AAXX 09184 89262 46/// /3305 10045 21021 39732 49774 5//// 91810
AAXX 09184 44454 42450 20000 10091 20078 38655 48490 82600 333 59033
AAXX 09184 89272 46/// /2603 11079 21116 3//// 4//// 5//// 91820
AAXX 09184 89272 46/// /2404 11071 21109 3//// 4//// 5//// 91810
BBXX VRZN8 09184 99073 51466 41297 50915 10270 2023/ 40145 5//// 70211 8528/ 22213 00270 20902 305// 41303 5//// 6//// 80240 ICE /////
AAXX 09184 60190 32970 70402 10157 20074 40228 53001 8707/ 333 20186 87358
AAXX 09184 67009 32580 70000 10270 20248 39982 40100 51008 879// 333 10312 87820 81920 94976 85836
AAXX 09184 67009 32580 70000 10270 20248 39982 40100 51008 879// 333 10312 87820 81920 85836
AAXX 09184 89514 32/95 91428 11047 49640 52001 89/// 333 89///
AAXX 09184 89514 32/95 91428 11047 49640 52001 89/// 333 89///
AAXX 09184 42874 32996 00000 10178 20132 40134 333 59005
AAXX 09184 43041 32996 00000 10180 20147 39516 40144 333 59004
AAXX 09184 42779 32996 00000 10154 20091 39438 40151 333 59007
BBXX VRAC9 09184 99260 10570 41297 70218 10260 2020/ 40160 54/// 7//22 877// 22264 00290 2//// 3//// 4//// 5//// 6//// 80220 ICE /////
BBXX VRAC9 09184 99260 10570 41297 70218 10260 2020/ 40160 54/// 7//22 877// 22264 00290 2//// 3//// 4//// 5//// 6//// 80220 ICE /////
AAXX 09181 10908 01/01 92420 10018 20018 38444 48442 57005 60322 76974 333 10019 20011 3/001 49007 55300 20000 30000 60187 89/01 91129 91221 96045
AAXX 09181 15335 02997 00100 10025 20005 30228 40235 57007 60002 333 10087 20006 31011 60007 91001 91103
AAXX 09184 71448 16/// /2907 11159 21221 39896 40244 51010 60001 333 11158 7////
AAXX 09184 71817 12974 02623 11061 21162 30049 40062 52059 60001 333 70000
AAXX 09184 71382 17/// /2007 11059 21073 39222 40174 56014 60011 7//4/ 333 11059 21125 70030
AAXX 09184 71382 17/// /2007 11059 21073 39222 40174 56014 60011 7//4/ 333 11059 21125 70030
AAXX 09184 85836 11770 52309 10188 20071 40151 56012 60001 70281 85050 333 56060 85356
AAXX 09184 85864 12670 10162 20109 40065 57020 60001 87200 333 56600 87833
AAXX 09184 85874 12680 53123 10164 20074 39444 40047 58020 60001 84201 333 56606 84840
AAXX 09184 85886 12670 32619 10212 20145 40031 56012 60001 81230 333 56660 81840
AAXX 09184 85892 12670 62920 10200 20074 40001 57028 60001 86200 333 56600 86835
AAXX 09184 85934 11570 70603 10131 20048 49943 57039 69901 72122 83570 333 56170 83625 87359
AAXX 09184 85968 12660 60806 10172 20046 49912 57056 60001 82178 333 56222 82843 83360 86266
AAXX 09184 89056 11225 83114 10007 20003 49905 50001 60003 71042 886// 333 56799 88704
AAXX 09184 89057 12460 80000 10029 20012 49902 54000 60003 886// 333 53399 88715
AAXX 09184 89058 31420 83214 10009 20002 39886 49907 57002 71000 886//
AAXX 09184 89059 11430 82310 10006 21013 49884 51005 69923 72822 886// 333 56299 88710
AAXX 09184 89251 31130 83214 10010 20004 49892 50004 71022 8651/
AAXX 09184 85586 12460 82408 10160 20102 40144 57008 60001 885// 333 56599 88617
AAXX 09184 85577 12960 02107 10301 20130 39509 40085 57024 60001
AAXX 09184 85585 12598 51205 10207 20106 40185 58005 60001 85500 333 56400 85630
AAXX 09184 85629 12980 02506 10290 20140 40090 57020 60001
AAXX 09184 85672 12970 02405 10288 20126 40118 57015 60001 333
AAXX 09184 85682 12962 02508 10217 20124 40131 57007 60001
AAXX 09184 85743 12960 02705 10245 20109 40129 58018 60001
AAXX 09184 85799 12660 52206 10200 20104 40143 57008 60001 83530 333 56450 83640 84359
AAXX 09184 85406 12980 02310 10217 20135 40121 56006 60001
AAXX 09184 85418 12980 52317 10206 20126 40129 56009 60001 80001 333 56000 85080
AAXX 09184 85442 12565 11912 10198 20110 40123 57014 60001 81500 333 56400 81620
AAXX 09184 85469 42565 51010 10243 20166 40273 52003 85800 333 56200 83820 83630
AAXX 09184 85488 12462 72606 10182 20136 40138 58006 60001 87500 333 56000 83615 87617
AAXX 09184 85223 11558 82806 10170 20107 37500 47129 57013 69911 71661 83936 333 56000 58001 83623 81930 86358 88070
AAXX 09184 85283 12584 70506 10170 20111 37191 47123 57025 69931 86508 333 56100 58000 86620
AAXX 09184 85293 32584 70910 10152 20079 36345 57015 85901 333 56600 58003 84620 81923 87070
AAXX 09184 85312 32484 70000 10244 20175 38790 57020 84530 333 56000 58006 84617 87357
AAXX 09184 85345 11484 70000 10268 20199 39640 40093 57026 60061 72162 84230 333 56440 59019 84817 85358
AAXX 09184 85364 32570 71305 10217 20146 38139 48239 57024 85231 333 56000 59011 84833 81836 83357 85070
AAXX 09184 85365 32584 70000 10271 20206 39375 40120 57024 85136 333 56000 59021 85820 84357 87070
AAXX 09184 85394 32584 53604 10301 20221 39675 40105 57031 83201 333 56000 59025 83823 85070 555 10100 29063
