AAXX 01124 40255 32560 32704 10130 20018 39444 40162 57012 83100 333 83830
BBXX ZMFR 01114 99420 31758 43/// /1821 10152 20137 40031 52009 22233 00160
BBXX VRDX2 01123 99107 31412 41/97 /0715 10280 20224 40103 7//// 8/678 22224 00300 20404
AAXX 01124 40272 31558 32416 10118 20001 39323 40170 57019 70500 83100 333 83830
BBXX 44172 01121 99445 70634 46/// ///// 1//// 91131 22200 00053 10703 20703 70016
BBXX 44097 01121 99410 70711 46/// ///// 1//// 91132 22200 00109 10803 20803 70014
BBXX 46218 01121 99345 71208 46/// ///// 1//// 91132 22200 00133 11305 21003 330// 41304 70024
AAXX 01124 40340 32960 00000 10200 20020 40161 57027
AAXX 01124 40296 32960 02106 10226 20062 40168 57023
BBXX 42362 01121 99278 70907 46/// /2105 10222 20194 40237 91145
BBXX 42363 01121 99282 70892 46/// /2206 10222 20178 40237 91145 333 91206
BBXX 42364 01121 99291 70881 46/// /2105 10211 20178 40237 91145
BBXX WFLG 01124 99327 71218 41797 80809 10128 20109 40190 54000 70222 8827/ 22264 04111 20302 329// 41203 5//// 6//// 80117 ICE /////
AAXX 01124 08495 12582 12715 10163 20111 30278 40286 58004 60001 81500 91150 333 81624
BBXX 46249 01121 99338 71197 46/// ///// 1//// 91137 22200 00145 11503 21002 326// 41502 70013
BBXX 46248 01121 99461 71247 46/// ///// 1//// 91134 22200 00095 11104 21003 325// 41103 70019
BBXX 46244 01121 99409 71244 46/// ///// 1//// 91135 22200 00101 11304 21002 329// 41303 70020
AAXX 01124 91334 32474 20315 10279 20232 30095 40098 52003 81101 333 10328 561/9 59002 555 90112
BBXX 46240 01121 99366 71219 46/// ///// 1//// 91142 22200 00119 11202 21001 334// 41202 70012
BBXX 46237 01121 99378 71226 46/// ///// 1//// 91140 22200 00109 11304 21002 327// 41303 70018
BBXX 46212 01121 99408 71243 46/// ///// 1//// 91142 22200 00103 11204 21002 330// 41203 70019
BBXX 46217 01121 99342 71194 46/// ///// 1//// 91142 22200 00144 11302 20901 327// 41302 70010
AAXX 01124 91334 32474 20315 10279 20232 30095 40098 52003 81101 333 10328 561/9 59002 555 90112
AAXX 01124 40270 31556 52410 10110 21011 39257 40161 57027 70511 85200 333 85825
BBXX 46211 01121 99469 71242 46/// ///// 1//// 91136 22200 00087 11103 20902 326// 41102 70015
AAXX 01124 68906 12598 32819 10170 20104 30060 40124 58006 69921 81572 222// 00133 20401 318// 41001 333 10178 20113 91041 555 20002 91012
AAXX 01124 68392 36/// /0910 10239 20182 30301 4//// 52180 333 10247 20149 91015 555
BBXX BAREU61 01124 99064 10034 46/// /1903 10293 29068 40116 57015 22262
BBXX DBEA 01121 99540 10083 46/// /2411 10080 20072 40051 52003 22221 00058
BBXX DBKV 01121 99195 70228 46/// /0815 10200 20089 40229 52005 22211 00217
BBXX DBBT 01121 99339 30184 46/// /3005 10170 20128 40153 57006 22200 00136
BBXX DBBU 01121 99542 10120 46/// /2210 10097 20092 40049 57006 22220 00061
BBXX DBFR 01121 99535 10086 46/// /2204 10107 20107 40064 52006 22230 00053
BBXX DBJM 01121 99540 10086 46/// /2308 10088 20080 40056 52006 22232 00055
BBXX DBFH 01121 99535 10086 46/// /2204 10106 20099 40066 52007 22200 00058
BBXX DBEB 01121 99539 10079 41/// /2411 10084 20083 40049 54002 7//// 22200 00061
AAXX 01124 40310 32660 12512 10112 21029 38928 48473 57012 81100 333 81830
BBXX 41115 01121 99184 70673 46/// ///// 1//// 91135 22200 11102 21002 336// 41101 70010
BBXX 41114 01121 99276 70802 46/// ///// 1//// 91146 22200 00233 11001 21001 70004
BBXX 44098 01121 99428 70702 46/// ///// 1//// 91137 22200 00081 10402 20402 70009
BBXX 51205 01121 99210 71564 46/// ///// 1//// 91148 22200 00242 11004 21003 307// 41102 70018
BBXX 46114 01121 99364 71222 46/// ///// 1//// 91134 22200 00120 11306 21003 329// 41305 70031
BBXX 46060 01121 99606 71468 46/// /3309 11035 40041 57034 91150 22200 00047 333 91211 555 11089 22093
BBXX 51203 01121 99208 71570 46/// ///// 1//// 91143 22200 00245 11301 21001 326// 41301 70006
BBXX 52200 01121 99134 11448 46/// ///// 1//// 91145 22200 00286 11104 20703 308// 41101 70018
BBXX 51201 01121 99217 71581 46/// ///// 1//// 91142 22200 00240 11103 21002 333// 41102 70013
AAXX 01124 16597 32470 52404 10150 20098 30148 40235 58008 85800 333 81815 85650
BBXX DHSI 01124 99449 70071 41397 81342 10150 20133 40175 58005 70200 8/7// 22252 00110 29910 80140
BBXX V7DS3 01123 99246 71523 41/98 30515 10220 20189 40190 54000 70222 8/262 22223 06220 20402 80200
BBXX DCSL2 01124 99336 11567 41598 33422 10140 20080 40210 54000 70222 83400 22224 00184 20304 331// 40410 80110
AAXX 01124 91376 32474 80808 10273 20240 30080 40083 58005 84878 333 10280 56229 59010 70099 555 90112
AAXX 01124 91376 32474 80808 10273 20240 30080 40083 58005 84878 333 10280 56229 59010 70099 555 90112
AAXX 01124 68994 11295 83127 10096 20094 39839 49867 58028 60081 75155 886// 222// 00074 309// 333 10100 20070 91037 555 20082 60265 90986
AAXX 01124 78384 12460 60910 10258 20241 40182 60002 81202 333 10293 20255 58003 70000 81818 86073
AAXX 01124
AAXX 01124 78383 12460 60709 10255 20223 40188 60012 83202 333 10291 20238 58005 70012 83818 83070 90999
AAXX 01124 91772 31498 30000 10261 20241 4//// 60001 70200 83200 333 10316 569// 83817
AAXX 01124 91776 NIL
AAXX 01124 91779 31498 10000 10220 20212 40105 58006 60001 70200 81100 333 10299 569// 81817
AAXX 01124 91784 11498 10000 10240 20237 40102 58006 60031 70181 81100 333 10295 569// 81817
AAXX 01124 91792 31498 40805 10258 20239 40113 58008 60001 70221 84800 333 10296 569// 84816
AAXX 01124 91772 31498 30000 10261 20241 4//// 60001 70200 83200 333 10316 569// 83817
AAXX 01124 91776 NIL
AAXX 01124 91779 31498 10000 10220 20212 40105 58006 60001 70200 81100 333 10299 569// 81817
AAXX 01124 91784 11498 10000 10240 20237 40102 58006 60031 70181 81100 333 10295 569// 81817
AAXX 01124 91792 31498 40805 10258 20239 40113 58008 60001 70221 84800 333 10296 569// 84816
AAXX 01124 78384 12460 60910 10258 20241 40182 60002 81202 333 10293 20255 58003 70000 81818 86073
AAXX 01124 78383 12460 60709 10255 20223 40188 60012 83202 333 10291 20238 58005 70012 83818 83070 90999
AAXX 01124 68382 16/// /0205 10247 20165 39326 48520 58011 69921 333 10256 20157 91010 555 20002 91014
AAXX 01124 68352 16/// /0709 10289 20072 39028 48493 58018 60031 333 10294 20179 91014 555 20036 69945 91012
BBXX BAREU63 01124 99324 10197 46/// /1806 10164 29056 40214 57011 22282
AAXX 01124 89054 32450 83511 10016 20011 49930 51005 71022 886// 333 10028 21020 56899 88702
AAXX 01124 89056 11/04 93210 10014 20010 49925 54001 60002 74542 333 10013 20006 41999 55008 89/01
AAXX 01124 89057 12460 82606 10011 20002 49920 54000 60002 885// 333 10020 20008 41030 56699 88710
AAXX 01124 89058 31440 83207 10015 20008 39907 49928 52004 71000 886//
AAXX 01124 89059 12960 42310 11001 21012 49908 52008 60002 84050 333 10022 20006 42998 55007 75055 84360
AAXX 01124 89251 31158 83213 10014 2008 49913 50001 71022 8672/ 333 20007
AAXX 01124 67297 32480 6//// 10306 20245 40082 82231 333 58020 94320
AAXX 01124 61902 32586 11313 10270 20179 40151 81800 333 59004 81826
AAXX 01124 11161 31010 11012 21077 39782 49823 52011 69902 74074 81670 333 11002 21027 56840 58031 81703 83360 90930 93197
BBXX C6DM2 01124 99057 10999 416// 73205 10270 20228 40090 50010 7//11 878// 22273 0//// 2//// 3//// 4//// 5//// 6//// 80240 ICE /////
BBXX ICRA 01124 99048 30555 418// 33020 10270 2024/ 40110 54040 7//// 83/1/ 22254 00270 2//// 3//// 4//// 5//// 6//// 80250 ICE /////
BBXX PBIG 01124 99120 70732 41498 20823 10250 20223 40131 52006 70200 81180 22264 00290 20502
BBXX NWS0022 01124 99416 70714 43/// /2105 10060 20045 40175 5//// 7//// 8//// 222// 04094 2//// 3//// 4//// 5//// 6//// 8//// ICE /////
BBXX WDC6698 01124 99213 71579 43/// /2002 1//// 2//// 40150 5//// 7//// 8//// 222// 04237 2//// 3//// 4//// 5//// 6//// 8//// ICE /////
BBXX 41012 01121 99300 70805 46/// /2905 1//// 91150 555 11053 22057
BBXX 41001 01121 99347 70727 46/// ///// 10185 20079 40223 53018 91150 22200 00214 10804 70022
BBXX 41049 01121 99275 70630 46/// /2201 10230 20209 40254 53017 91150 22200 00232 10903 20401 300// 40903 70017 333 91201 555 11009 22010 31101 41702 61149 217010 193010 184012 185012 175013 172013 81702 91107
BBXX 42020 01121 99270 70967 46/// /3603 10210 20205 40222 53019 91150 22200 00196 10602 20401 312// 40601 70008 333 91203 555 11033 22039 31111 41604 61149 002028 012010 150016 157034 167034 170019
BBXX 41044 01121 99217 70587 46/// /0909 10254 20201 40229 53017 91150 22200 00257 10806 20704 300// 40804 70029 333 91211 555 11094 22100 31050 40911 61149 090089 086089 087088 089091 092089 085086 80910 91119
BBXX 41048 01121 99320 70696 46/// /2706 10216 20153 40226 53019 91150 22200 00221 10804 20502 3//// 40804 70022 333 91207 555 11062 22065 31054 42708 61149 271062 272065 272064 270068 273069 274068 82707 91055
BBXX 42065 01121 99149 70750 46/// /0809 10266 20224 91150 22200 10603 20603 70016 333 91211 555 11093 22099 31117 40711 61149 074087 070083 072090 065091 061089 061085 80710 91117
BBXX 42012 01121 99301 70876 46/// /2004 10192 20182 40224 53005 91150 22200 00181 10301 20301 70004 333 91204 555 11044 22051 31057 42005 61149 203040 200042 200040 204041 205043 201046
BBXX 42001 01121 99259 70897 46/// /1505 10241 20193 40232 53010 91150 22200 00241 10401 20401 70004 333 91205 555 11048 22051 31104 41606 61149 151045 149043 148043 148045 155045 157043
BBXX 42035 01121 99292 70944 46/// /2803 10172 20172 40230 51019 91150 22200 00158 10501 20301 320// 40501 70006 333 91204 555 11034 22040 31051 43205 61149 283030 284028 255031 271033 299022 323041
BBXX 42058 01121 99149 70749 46/// /0812 10271 20219 40137 53017 91150 22200 00271 10807 20807 70033 333 91214 555 11123 22132 31103 40915 61149 083115 079114 079115 079116 082127 078121 80914 91104
BBXX 42060 01121 99163 70635 46/// /0709 10268 20208 40185 53020 91150 22200 00273 10605 20605 300// 41001 70024 333 91212 555 11100 22106 31121 40612 61149 066095 065101 067107 061101 066092 074092 80611 91121
BBXX 42036 01121 99285 70845 46/// /1604 10210 20158 40235 53009 91150 22200 00212 10501 321// 40501 70003 333 91205 555 11045 22048 31114 41506 61149 159043 157043 158043 156047 159047 156045
BBXX 42056 01121 99198 70849 46/// /0610 10260 20244 40181 53007 91150 22200 00269 10703 20703 70016 333 91212 555 11107 22113 31146 40712 61149 061099 060090 064090 062092 059090 057090 80611 91145
BBXX 42059 01121 99151 70675 46/// /1010 10267 20218 40167 53021 91150 22200 00277 10804 20804 70022 333 91212 555 11109 22115 31141 40913 61149 099103 083098 083092 085087 090092 079094 81011 91142
BBXX 42019 01121 99279 70954 46/// /0000 10226 20219 40223 53023 91150 22200 10602 20301 316// 40602 70008 333 91201 555 11004 22005 31130 40101 61149 179003 034003 005005 285003 300003 300002
BBXX 44005 01121 99432 70691 46/// /3309 10072 20045 40142 51033 91150 22200 00081 10402 20402 3//// 40801 70012 333 91210 555 11092 22097 31130 43211 61149 330086 323091 324090 319092 319083 312089
BBXX 41060 01121 99148 70510 46/// ///// 1//// 91150 22200 11006 70031
BBXX 42040 01121 99292 70882 46/// /2003 10206 40229 53008 91150 22200 00201 10501 321// 40501 70003 333 91204 555 11032 22037 31102 41905 61149 203032 202034 205033 197034 190038 192037
BBXX 42003 01121 99260 70856 46/// /0703 1//// 91150 22200 10501 300// 40501 70003 333 91203 555 11028 22029 31101 40904 61149 073026 082026 088025 085025 087029 086028 80903 91101
BBXX 42055 01121 99222 70940 46/// /0906 10249 20216 40196 53011 91150 22200 00250 10502 20502 70009 333 91207 555 11063 22066 31110 41008 61149 088059 090057 090063 090066 096063 097060 80907 91128
BBXX 41047 01121 99275 70715 46/// /0902 10239 40237 53015 91150 22200 00253 10802 314// 40802 70011 333 91202 555 11015 22015 31146 40802 61149 087015 100016 105013 087010 093009 106010 80802 91146
BBXX 42002 01121 99258 70937 46/// /1405 10241 20233 40223 53013 91150 22200 00244 10602 20401 317// 40602 70009 333 91205 555 11045 22048 31130 41506 61149 142045 146050 148051 154049 148051 151045
BBXX 41043 01121 99211 70650 46/// /0908 10253 20223 40216 53016 91150 22200 00258 11005 20703 300// 41004 70024 333 91210 555 11085 22090 31148 41010 61149 091080 094083 099084 104077 097085 090080 81009 91127
BBXX 41036 01121 99342 70770 46/// ///// 10172 20066 40223 53007 91150 22200 00207 10602 70008
BBXX 44066 01121 99396 70726 46/// /3103 10101 20063 40200 53017 91150 22200 00123 10502 20401 3//// 40502 70012 333 91204 555 11030 22031 31101 43305 61149 304029 300028 313028 326030 312037 319035
BBXX 32012 01121 99197 50856 46/// ///// 1//// 91150 22200 11103 70017
BBXX 46002 01121 99426 71305 46/// ///// 10126 40113 57013 91150 22200 00118 10906 70029
BBXX 46006 01121 99408 71375 46/// /1708 10128 49969 56025 91150 22200 00121 10806 20705 3//// 40804 70032 333 91210 555 11091 22098 31123 41710 61149 169085 170081 172083 173081 177085 175083
BBXX 46084 01121 99566 71361 46/// ///// 10042 20033 49996 58033 91150 22200 00069 11112 70061
BBXX 46078 01121 99561 71526 46/// /3609 11050 21107 40063 57021 91150 22200 11304 20503 300// 41303 70021 333 91212 555 11093 22099 31144 43612 61149 001086 356087 008088 004090 000092 005087 80110 91108
BBXX 46075 01121 99539 71608 46/// /2011 10003 21038 40086 58036 91150 22200 00039 11304 20503 300// 41303 70021 333 91214 555 11118 22124 31148 42114 61149 202110 201106 201104 203112 207111 211111 82112 91057
BBXX 46005 01121 99461 71310 46/// ///12 10113 40062 56007 91150 22200 00099 10908 20906 3//// 41505 70040 333 91215 555 11132 22142
BBXX 46059 01121 99380 71300 46/// /1611 10128 40156 56024 91150 22200 00135 11304 20603 3//// 41302 70020 333 91213 555 11118 22125 31052 41613 61149 154108 153103 152105 152102 155102 153102
BBXX 46080 01121 99580 71500 46/// /3512 11045 21096 40038 58030 91150 22200 00043 10604 20604 70020 333 91214 555 11127 22133 31102 43515 61149 348120 345122 344122 343120 343120 345118 83514 91131
BBXX 44025 01121 99402 70732 46/// /2605 10089 20060 40193 53016 91150 22200 00099 10802 20401 315// 40801 70008 333 91206 555 11057 22059 31145 42606 61149 259054 264048 260045 257042 267031 270029
BBXX 41008 01121 99314 70809 46/// /2302 10152 20138 40237 53009 91150 22200 00161 11001 300// 41001 70003 333 91202 555 11016 22017 31124 42603 61149 233016 241017 257023 269021 274018 281015
BBXX 44039 01121 99411 70727 46/// /2405 10079 20059 40196 91145 22200 00083 1//00 70002 333 91206
BBXX 44060 01121 99413 70721 46/// ///01 10069 40181 91145 22200 00090 333 91202 555 11010 22010
BBXX 44022 01121 99409 70737 46/// ///03 10067 20043 40194 91145 22200 00070 333 91204 555 11026 22026
BBXX 41004 01121 99325 70791 46/// /2503 10185 20082 40235 53010 91150 22200 00204 10901 3//// 40901 70004 333 91203 555 11027 22027 31059 42404 61149 246026 251026 251025 249027 244026 249027
BBXX 44009 01121 99385 70747 46/// /2803 10089 40224 53009 91150 22200 00099 10701 20301 300// 40701 70005 333 91203 555 11028 22029 31050 43003 61149 282026 278024 280025 282025 292025 298026
BBXX 44014 01121 99366 70748 46/// /1903 1//// 40220 53009 91150 22200 00140 10502 20401 303// 40501 70008 333 91203 555 11026 22026 31100 41904 61149 193026 198026 197028 205027 194030 210029
BBXX 44027 01121 99443 70673 46/// /3411 10025 20006 40117 53037 91150 22200 00077 10403 20403 3//// 40901 70014 333 91213 555 11114 22120 31052 43313 61149 336106 333104 337101 342099 336099 328108
BBXX 44065 01121 99404 70737 46/// /2606 10073 20051 40196 53017 91150 22200 00091 10701 20501 317// 40701 70007 333 91207 555 11058 22060 31052 42507 61149 259055 260058 259056 258058 262060 259060 82607 91052
BBXX 41013 01121 99334 70777 46/// /1601 10175 20094 40225 53009 91150 22200 00184 10601 20401 320// 40601 70007 333 91202 555 11014 22015 31052 41102 61149 156014 130012 136013 128014 130013 123014
BBXX 44040 01121 99410 70736 46/// /2504 10070 20059 40198 91145 22200 1//00 70001 333 91205 555 11057 22067
BBXX 44020 01121 99414 70702 46/// /2806 1//// 40170 52024 91150 22200 00065 333 91207 555 11060 22063
BBXX 46014 01121 99394 71240 46/// /1204 10102 40203 57010 91150 22200 00108 11204 20401 3//// 41204 70020 333 91205 555 11041 22042 31108 41006 61149 125039 124042 117037 104039 098041 096036
BBXX 46011 01121 99350 71210 46/// /0701 10119 40187 54000 91150 22200 00131 11205 20401 330// 41205 70024 333 91202 555 11006 22006 31147 41002 61149 063006 043005 034003 013002 180001 125003
BBXX 46047 01121 99324 71195 46/// /1602 10107 40193 53003 91150 22200 00134 11405 328// 41405 70024 333 91204 555 11022 22022 31129 41605 61149 165021 156023 157025 144022 159021 171017
BBXX 46086 01121 99325 71180 46/// /0000 10107 40190 51004 91150 22200 00150 11504 327// 41504 70018 333 91202 555 11005 22005 31105 43503 61149 108006 083007 016009 325008 344015 338011
BBXX 46027 01121 99419 71244 46/// /1104 10089 40204 58005 91150 22200 00090 11204 329// 41204 70020 333 91206 555 11046 22048 31149 41106 61149 109043 104039 095031 089030 088032 091034
BBXX 46088 01121 99483 71232 46/// /0908 10061 40253 51007 91150 22200 00076 10402 20402 70009 333 91210 555 11086 22090 31055 41012 61149 087080 093084 096091 097095 100090 104100
BBXX 46050 01121 99442 71246 46/// /1206 10092 40208 56004 91150 22200 00094 11404 20401 325// 41404 70020 333 91208 555 11065 22069 31104 41209 61149 119061 122064 125070 126071 127073 129069
BBXX 46069 01121 99337 71202 46/// /1502 10091 40189 50000 91150 22200 00132 11405 328// 41405 70023 333 91204 555 11024 22024 31132 41404 61149 146023 137024 130022 148024 159020 173026
BBXX 46013 01121 99382 71233 46/// /0810 10102 40199 56009 91150 22200 00109 11205 20301 3//// 41205 70024 333 91212 555 11101 22107 31131 40812 61149 077093 075097 076098 077099 079099 079092
BBXX 46012 01121 99374 71229 46/// /0409 10124 40191 56006 91150 22200 00119 11305 20402 330// 41304 70023 333 91210 555 11091 22098 31050 40411 61149 039085 039088 039083 035085 039085 042087
BBXX 46087 01121 99485 71247 46/// /0911 10049 20042 40237 58004 91150 22200 00080 11103 20402 326// 41103 70016 333 91213 555 11117 22123 31103 40914 61149 084111 086106 083109 082112 081115 079106
BBXX 46029 01121 99461 71245 46/// /1008 10088 20046 40207 58006 91150 22200 00088 11203 20502 327// 41202 70015 333 91210 555 11087 22092 31147 41010 61149 103081 104078 105076 104077 103081 105078
BBXX 46028 01121 99357 71219 46/// /1901 10126 40182 52003 91150 22200 00130 11204 20301 328// 41204 70022 333 91202 555 11010 22011 31109 40903 61149 196010 169012 145010 109012 087013 084010
BBXX 46025 01121 99337 71191 46/// /2201 10105 20103 40185 54000 91150 22200 00147 11503 326// 41503 70013 333 91202 555 11012 22012 31127 41703 61149 215013 182009 186016 208006 276004 204005
BBXX 46105 01121 99590 71522 46/// ///// 1//// 91150 22200 10604 70018
BBXX 46070 01121 99551 11753 46/// /0108 11021 21078 40069 56007 91150 22200 00031 11005 20704 3//// 41004 70025 333 91210 555 11086 22090 31056 40211 61149 011082 007082 008081 004079 006079 021079 80109 91116
BBXX 46078 01121 99561 71526 46/// /3609 11050 21107 40063 57021 91150 22200 11304 20503 300// 41303 70021 333 91212 555 11093 22099 31144 43612 61149 001086 356087 008088 004090 000092 005087 80110 91108
BBXX V7DS3 01123 99246 71523 41/98 30515 10220 20189 40190 54000 70222 8/262 22223 06220 20402 80200
BBXX 44098 01121 99428 70702 46/// ///// 1//// 91137 22200 00081 10402 20402 70009
BBXX 46060 01121 99606 71468 46/// /3309 11035 40041 57034 91150 22200 00047 333 91211 555 11089 22093
BBXX 51205 01121 99210 71564 46/// ///// 1//// 91148 22200 00242 11004 21003 307// 41102 70018
BBXX 46114 01121 99364 71222 46/// ///// 1//// 91134 22200 00120 11306 21003 329// 41305 70031
BBXX 41115 01121 99184 70673 46/// ///// 1//// 91135 22200 11102 21002 336// 41101 70010
BBXX 41114 01121 99276 70802 46/// ///// 1//// 91146 22200 00233 11001 21001 70004
BBXX 46211 01121 99469 71242 46/// ///// 1//// 91136 22200 00087 11103 20902 326// 41102 70015
BBXX 46212 01121 99408 71243 46/// ///// 1//// 91142 22200 00103 11204 21002 330// 41203 70019
BBXX 46237 01121 99378 71226 46/// ///// 1//// 91140 22200 00109 11304 21002 327// 41303 70018
BBXX 46217 01121 99342 71194 46/// ///// 1//// 91142 22200 00144 11302 20901 327// 41302 70010
BBXX 46240 01121 99366 71219 46/// ///// 1//// 91142 22200 00119 11202 21001 334// 41202 70012
BBXX 46249 01121 99338 71197 46/// ///// 1//// 91137 22200 00145 11503 21002 326// 41502 70013
BBXX 46244 01121 99409 71244 46/// ///// 1//// 91135 22200 00101 11304 21002 329// 41303 70020
BBXX 46248 01121 99461 71247 46/// ///// 1//// 91134 22200 00095 11104 21003 325// 41103 70019
BBXX WFLG 01124 99327 71218 41797 80809 10128 20109 40190 54000 70222 8827/ 22264 04111 20302 329// 41203 5//// 6//// 80117 ICE /////
BBXX 42362 01121 99278 70907 46/// /2105 10222 20194 40237 91145
BBXX 42364 01121 99291 70881 46/// /2105 10211 20178 40237 91145
BBXX 42363 01121 99282 70892 46/// /2206 10222 20178 40237 91145 333 91206
BBXX DCSL2 01124 99336 11567 41598 33422 10140 20080 40210 54000 70222 83400 22224 00184 20304 331// 40410 80110
BBXX DBFH 01121 99535 10086 46/// /2204 10106 20099 40066 52007 22200 00058
BBXX DBEB 01121 99539 10079 41/// /2411 10084 20083 40049 54002 7//// 22200 00061
BBXX DBEA 01121 99540 10083 46/// /2411 10080 20072 40051 52003 22221 00058
BBXX DBJM 01121 99540 10086 46/// /2308 10088 20080 40056 52006 22232 00055
BBXX DBFR 01121 99535 10086 46/// /2204 10107 20107 40064 52006 22230 00053
BBXX DBBU 01121 99542 10120 46/// /2210 10097 20092 40049 57006 22220 00061
BBXX DBBT 01121 99339 30184 46/// /3005 10170 20128 40153 57006 22200 00136
BBXX DBKV 01121 99195 70228 46/// /0815 10200 20089 40229 52005 22211 00217
BBXX BAREU61 01124 99064 10034 46/// /1903 10293 29068 40116 57015 22262
AAXX 01124 11161 31010 11012 21077 39782 49823 52011 69902 74074 81670 333 11002 21027 56840 58031 81703 83360 90930 93197
BBXX BAREU11 01124 99541 10081 46/// ///// 40049 52002 22200
BBXX BAREU54 01124 99098 70814 46/// ///// 40121 52007 22223
BBXX BAREU04 01124 99412 70676 46/// ///// 40148 52013 22213
BBXX BAREU08 01124 99406 70231 46/// ///// 40290 52040 22254
AAXX 01124 78774 32670 70506 10236 20190 30002 40079 52006 83204 333 10336 20220 30/// 56202 58001 83835 85075
AAXX 01124 91408 32474 80807 10275 20224 30064 40102 52012 81278 333 10311 56999 59009 70005 555 90112
AAXX 01124 78774 32670 70506 10236 20190 30002 40079 52006 83204 333 10336 20220 30/// 56202 58001 83835 85075
AAXX 01124 78774 32670 70506 10236 20190 30002 40079 52006 83204 333 10336 20220 30/// 56202 58001 83835 85075
AAXX 01124 91408 32474 80807 10275 20224 30064 40102 52012 81278 333 10311 56999 59009 70005 555 90112
AAXX 01124 85574 12960 01805 10181 20116 39616 40162 52021 60004 333 20150 30/// 55122 70000
AAXX 01124 85585 12498 51914 10174 20122 40212 51016 60004 83504 333 20158 30/// 55117 56306 70000 83620
AAXX 01124 85629 12960 01705 10190 20132 40160 52/// 60004 333 20136 30/// 50620 55131 70000
AAXX 01124 85672 12965 01806 10170 20142 40166 52014 60004 333 20134 30/// 55130 70000
AAXX 01124 85682 12960 02305 10161 20136 40163 50007 60004 333 20104 30/// 50540 55075 70000
AAXX 01124 85766 12960 09902 10171 20136 40215 52013 60004 333 20094 30/// 55133 70000
AAXX 01124 85418 12970 62304 10228 20129 40134 60004 83031 333 20196 30/// 55093 56066 70000 83365 83080
AAXX 01124 85432 12970 40711 10128 20029 37772 48475 53008 60004 80001 333 20056 30/// 51370 55102 56000 70000 81072
AAXX 01124 85442 12975 31103 10197 20144 40137 53011 60004 80001 333 20170 30/// 50750 55118 56007 70000 83080
AAXX 01124 85467 13980 01305 10183 20110 40170 51009 60004 333 20140 30/// 5///0 55073 70000
AAXX 01124 85488 12462 23401 10176 20128 40167 50008 60004 81501 333 20129 30007 50350 55057 56600 70000 81610 81075
AAXX 01124 68396 32680 60906 10252 20199 39423 48495 57030 86500 333 10192 555 91012
BBXX VCXF 01124 99464 70484 41798 81225 10019 2000/ 40179 57050 70222 885// 22200 02021 20303 33524 41007 50904 80010
BBXX VCXF 01124 99464 70484 41798 81225 10019 2000/ 40179 57050 70222 885// 22200 02021 20303 33524 41007 50904 80010
AAXX 01121 76556 32960 01402 10140 20103 39140 40159 50001 91130 333 10292 20132 30118 58034 70000
AAXX 01121 76577 32460 60000 10130 20100 38065 40154 57004 86600 91140 333 10265 20122 30111 56500 58017 70000 86615
AAXX 01121 76665 32958 00502 10084 20065 38147 40182 52010 91145 333 10270 20078 30067 58020 70000
AAXX 01121 76675 32960 01601 10002 21015 37401 40245 5//// 91147 333 10202 21010 31034 58014 79999
AAXX 01121 76683 32962 00401 10064 20034 37850 40238 55003 91145 333 10220 20064 30040 50171 55063 21449 58012 7000
AAXX 01121 76685 32950 00000 10068 20046 37886 40177 52002 91150 333 10232 20066 30027 58015 70000
AAXX 01121 76750 32558 23601 10213 20212 30171 40182 5//// 81120 91150 333 10313 20204 30200 56220 58016 70038 81820
AAXX 01121 76762 32904 00000 10144 20128 38776 40150 53011 91140 333 10312 20144 30137 58/// 70000
AAXX 01121 76845 32330 70503 10122 20106 37963 40180 56002 87700 91150 333 10222 20108 30089 56200 58010 87707
AAXX 01121 76243 32970 03107 10122 20062 39971 40272 54000 91130 333 10282 20092 30070 58121 70000
AAXX 01121 76311 32920 00000 10106 20041 39889 40170 50004 91140 333 10338 20100 30078 58030 70000
AAXX 01124 89009 41432 63410 11254 36880 51010 77672 81608 333 11236 21257 81715 86256
AAXX 01124 78858 11577 30813 10257 20239 30136 40192 60032 7018/ 83200 333 10286 20217 59001 83822
AAXX 01124 CCA 89664 11161 31010 11012 21077 39782 49823 52011 69902 74074 81670 333 11002 21027 56840 58031 81703 83360 90930 93197
AAXX 01124 85864 11680 22108 10152 20098 40166 52025 60064 7028/ 82200 333 20124 31/// 55088 56600 70058 82835
AAXX 01124 85874 11682 23115 10132 20077 39541 40157 51036 69944 7028/ 82100 333 20100 31/// 56600 70004 82835
AAXX 01124 85934 12580 53021 10106 20032 40063 52005 69904 82530 333 20045 30/// 55014 56770 79999 82620 84360
AAXX 01124 89056 11/04 93210 10014 20010 49925 54001 60002 74542 333 10013 20006 41999 55008 89/01
AAXX 01124 89057 12460 82606 10011 20002 49920 54000 60002 885// 333 10020 20008 41030 56699 88710
AAXX 01124 89058 31440 83207 10015 20008 39907 49928 52004 71000 886//
AAXX 01124 89059 12960 42310 11001 21012 49908 52008 60002 84050 333 10022 20006 42998 55007 75055 84360
AAXX 01124 89251 31158 83213 10014 2008 49913 50001 71022 8672/ 333 20007
AAXX 01121 76556 32960 01402 10140 20103 39140 40159 50001 91130 33310292 20132 30118 58034 70000
AAXX 01121 76577 32460 60000 10130 20100 38065 40154 57004 86600 91140333 10265 20122 30111 56500 58017 70000 86615
AAXX 01121 76665 32958 00502 10084 20065 38147 40182 52010 91145 33310270 20078 30067 58020 70000
AAXX 01121 76675 32960 01601 10002 21015 37401 40245 5//// 91147 33310202 21010 31034 58014 79999
AAXX 01121 76683 32962 00401 10064 20034 37850 40238 55003 91145 33310220 20064 30040 50171 55063 21449 58012 7000
AAXX 01121 76685 32950 00000 10068 20046 37886 40177 52002 91150 33310232 20066 30027 58015 70000
AAXX 01121 76750 32558 23601 10213 20212 30171 40182 5//// 81120 91150333 10313 20204 30200 56220 58016 70038 81820
AAXX 01121 76762 32904 00000 10144 20128 38776 40150 53011 91140 33310312 20144 30137 58/// 70000
AAXX 01121 76845 32330 70503 10122 20106 37963 40180 56002 87700 91150333 10222 20108 30089 56200 58010 87707
AAXX 01121 76243 32970 03107 10122 20062 39971 40272 54000 91130 33310282 20092 30070 58121 70000
AAXX 01121 76311 32920 00000 10106 20041 39889 40170 50004 91140 33310338 20100 30078 58030 70000
AAXX 01121 76556 32960 01402 10140 20103 39140 40159 50001 91130 333 10292 20132 30118 58034 70000
AAXX 01121 76577 32460 60000 10130 20100 38065 40154 57004 86600 91140 333 10265 20122 30111 56500 58017 70000 86615
AAXX 01121 76665 32958 00502 10084 20065 38147 40182 52010 91145 333 10270 20078 30067 58020 70000
AAXX 01121 76675 32960 01601 10002 21015 37401 40245 5//// 91147 333 10202 21010 31034 58014 79999
AAXX 01121 76683 32962 00401 10064 20034 37850 40238 55003 91145 333 10220 20064 30040 50171 55063 21449 58012 7000
AAXX 01121 76685 32950 00000 10068 20046 37886 40177 52002 91150 333 10232 20066 30027 58015 70000
AAXX 01121 76750 32558 23601 10213 20212 30171 40182 5//// 81120 91150 333 10313 20204 30200 56220 58016 70038 81820
AAXX 01121 76762 32904 00000 10144 20128 38776 40150 53011 91140 333 10312 20144 30137 58/// 70000
AAXX 01121 76845 32330 70503 10122 20106 37963 40180 56002 87700 91150 333 10222 20108 30089 56200 58010 87707
AAXX 01121 76243 32970 03107 10122 20062 39971 40272 54000 91130 333 10282 20092 30070 58121 70000
AAXX 01121 76311 32920 00000 10106 20041 39889 40170 50004 91140 333 10338 20100 30078 58030 70000
AAXX 01124 11161 31010 11012 21077 39782 49823 52011 69902 74074 81670 333 11002 21027 56840 58031 81703 83360 90930 93197
AAXX 01124 89009 41432 63410 11254 36880 51010 77672 81608 333 11236 21257 81715 86256
AAXX 01124 CCA 89664 11161 31010 11012 21077 39782 49823 52011 69902 74074 81670 333 11002 21027 56840 58031 81703 83360 90930 93197
BBXX BATFR21 01124 99433 10077 46/// /0809 20422 40213 22233
BBXX BATEU05 01124 99662 70136 46/// /3504 10009 49629 51009 22272
BBXX BATFR15 01124 99496 70042 46/// /2419 10127 20117 40059 58019 22224 00122
AAXX 01124 81405 02460 70807 10270 20237 30135 40144 60134 86831 333 20229 69907 58006 85815 83646 555 69905
BBXX BAREU06 01124 99431 10100 46/// ///// 40219 52001 22214
AAXX 01124 08594 32460 70720 10222 20113 40195 83232 333 59008 82615 84360 87070
AAXX 01124 08589 NIL
AAXX 01124 08583 31559 80622 10220 20117 40222 70622 83506 333 58003 83624 88270
BBXX BATFR27 01124 99466 70046 46/// /2133 10144 20107 40134 58048 22283 00137
BBXX BATFR09 01124 99437 70091 44296 82036 10144 20119 40205 58022 74022 884// 22213 00147 20406 328// 40910 5//// 60//0 ICE 0/0//
BBXX BATFR13 01124 99253 70510 44498 40920 10242 20194 40268 53010 70211 843// 22254 00252 20404 311// 41204 5////
BBXX BATFR53 01124 99174 51283 44/97 00609 10247 20189 40152 56010 70200 22222 00259 309// 40502 5////
BBXX BATEU04 01124 99630 70512 46/// /3505 11123 21181 40013 57001 22233
BBXX BATFR19 01124 99067 30055 46/// /1810 10244 20194 40139 58016 22200 00259
BBXX BATFR05 01124 99079 70146 46/// /0912 10280 20195 40127 58012 22273 00264
BBXX BATFR45 01124 99012 10527 46/// ///// 10280 20215 40115 55012 22254 00282
BBXX FVNM 01124 99144 70822 46/// /0815 10262 20222 40144 53017 22281 00277
AAXX 01124 CCA 89664 11161 31010 11012 21077 39782 49823 52011 69902 74074 81670 333 11002 21027 56840 58031 81703 83360 90930 93197
AAXX 01121 33815 42598 63305 10037 21017 39982 40193 58003 84289 555 11006
AAXX 01124 78925 11568 60610 10252 20219 40179 53025 60021 71522 85870 333 10292 20236 58000 70106 82825 84657 85360
AAXX 01124 61901 12486 71209 10187 20135 39675 40181 60001 878// 91150 333 59006 81816 87632
AAXX 01124 78925 11568 60610 10252 20219 40179 53025 60021 71522 85870 333 10292 20236 58000 70106 82825 84657 85360
AAXX 01124 97180 12458 70601 10271 20269 30087 40105 53012 60001 81272 333 10298 56000 81819 86360
AAXX 01124 85574 12960 01805 10181 20116 39616 40162 51021 60004 333 20150 30/// 55122 70000
AAXX 01121 12772 31412 81902 11011 21017 39930 40226 57008 72842 886// 333 88710
AAXX 01121 12822 16/// /1201 10020 20007 30060 40207 58005 69931
AAXX 01121 12843 31358 71101 10001 21012 30041 40217 57008 70174 878// 333 82806 87615
AAXX 01121 12882 31465 62105 10038 20008 30092 40227 56010 70341 83270 333 83813
AAXX 01121 12925 36/// /2102 10045 21005 30039 40214 57006
AAXX 01121 12942 31981 32202 10054 21022 39970 40219 57005 70311 83070
AAXX 01121 12982 31965 71703 10040 21004 30123 40227 58007 70111 85078
AAXX 01121 10004 NIL
AAXX 01121 10015 01145 72307 10080 20075 30036 40046 50003 69951 71054 82612 333 31/// 55300 20335 30334 69907 82702 86462 87075 91115 91212 96453
AAXX 01121 10020 07258 72308 10077 20077 39994 40026 50003 69921 70065 333 55300 20310 30309 69917 81/05 84/11 87/35 91114 91211
AAXX 01121 10035 01156 82508 10086 20085 39985 40043 51007 60021 72162 886// 333 32/// 55300 20109 30107 41281 69967 88703 91114 96010
AAXX 01121 10055 01340 82306 10079 20077 30034 40044 51005 60021 71065 886// 333 31/// 55300 20173 30173 69917 88708
AAXX 01121 10147 01363 82605 10111 20102 30047 40065 52006 60021 72065 875// 333 31/// 55300 20138 30131 41305 69957 84709 87622
AAXX 01121 10162 01225 82406 10098 20095 39982 40063 55000 60031 72165 876// 333 31/// 55300 20057 30056 60017 87704
AAXX 01121 10184 01258 82104 10076 20071 30054 40062 56008 60041 75864 877// 333 31/// 55300 20035 30035 60047 87705
AAXX 01121 10200 17481 82305 10110 20095 30067 40065 50002 60011 70065 333 55300 20302 30301 86/12 88/67 88/69
AAXX 01121 10224 01470 72505 10115 20099 30069 40075 50005 69921 70265 878// 333 32/// 55300 20250 30249 69917 83815 86627
AAXX 01121 10270 06360 82203 10082 20081 30037 40092 56005 60021 222// 06044 333 55300 60027 88/07
AAXX 01121 10338 01365 82405 10119 20106 30017 40088 51003 69931 75865 888// 333 31/// 55300 20218 30218 69927 82808 86615 88625
AAXX 01121 10361 01581 82203 10103 20085 39998 40100 56001 69991 72065 875// 333 31/// 55300 20135 30135 69997 87622
AAXX 01121 10393 01556 82204 10076 20070 39975 40101 57009 69921 76162 875// 333 31/// 55300 20149 30145 69927 87623
AAXX 01121 10400 01365 72106 10121 20114 30057 40106 58004 60021 72065 876// 333 32/// 55300 20140 30140 60027 81707 87711
AAXX 01121 10438 07487 81603 10109 20095 39840 40116 58001 69961 72365 333 55300 69907 86/14 88/20
AAXX 01121 10469 01481 82005 10093 20082 39953 40116 58003 60021 70365 885// 333 32/// 55300 60027 83617 88620
AAXX 01121 10488 01465 82104 10088 20072 39845 40124 58004 69911 76165 878// 333 31/// 55300 20195 30193 41272 69917 83814 87620
AAXX 01121 10506 01260 82305 10102 20091 39554 40127 58008 69941 75065 886// 333 31/// 55300 20262 30261 69927 88704
AAXX 01121 10548 01430 82003 10086 20086 39602 40138 58005 69951 75165 887// 333 31/// 55300 20123 30123 69927 88713 96443
AAXX 01121 10637 01382 71906 10119 20105 30007 40143 58007 69901 70262 878// 333 31/// 55300 69907 81807 84616 87634 96460
AAXX 01121 10685 01145 82307 10081 20078 39467 40134 58006 69961 76154 887// 333 41998 55300 20188 30188 69967 85703 88709 96451 96446
AAXX 01121 10738 01588 71903 10118 20080 39710 40173 58006 69911 70262 875// 333 31/// 55300 69917 87625
AAXX 01121 10763 01470 82304 10106 20091 39781 40159 58002 69901 72162 878// 333 31/// 55300 20120 30119 69907 82810 87614
AAXX 01121 10788 07450 70803 10045 20045 39748 40185 58005 60011 72265 333 55300 20241 30241 69917 87/15
AAXX 01121 10852 01484 72407 10100 20084 39618 40182 58006 69901 72162 878// 333 31/// 55300 20322 30321 69907 82816 87633 91113
AAXX 01121 10946 07588 81703 10092 20064 39373 40197 58003 69941 72265 333 55300 20393 30393 69907 81/22 84/27 88/40
AAXX 01124 65338 31940 53602 10335 20168 39933 40118 70522 80002 333 0//00 58007 85076
AAXX 01121 10609 01484 82208 10117 20100 39815 40139 58013 69911 70265 875// 333 31/// 55300 20183 30179 69917 87613 91113
AAXX 01121 10616 01170 72305 10103 20089 39547 40137 58006 69981 70265 878// 333 32/// 55300 69917 81802 83808 86812 96459
AAXX 01121 10641 17488 82106 10122 20104 39997 40141 58007 69911 70050 333 55300 84/10 86/50 88/60
AAXX 01121 10655 01483 82607 10119 20100 39825 40148 58005 69901 70265 875// 333 31/// 55300 20354 30349 69907 83616 87623
AAXX 01121 10675 07488 72104 10112 20094 39865 40152 58004 69931 70065 333 55300 20192 30192 69927 87/13
AAXX 01121 10688 07225 82004 10074 20071 39639 40160 58004 69971 75165 333 55300 20090 30090 69947 85/05 87/41 88/49
AAXX 01121 10708 01040 82106 10107 20101 39778 40159 58008 60021 75152 877// 333 31/// 55300 20256 30249 60017 81701 87704
AAXX 01121 10729 07488 81805 10120 20109 30047 40167 58005 69901 70065 333 55300 20254 30254 69907 81/10 87/25 88/30
AAXX 01121 10731 01384 82308 10124 20106 30025 40166 58004 69911 72165 888// 333 31/// 55300 20195 30195 69907 81708 87623 91113
AAXX 01121 10742 07488 82404 10116 20096 39838 40165 58006 69921 72265 333 55300 20224 30224 69907 88/14
AAXX 01121 10776 01462 81804 10073 20073 39729 40173 58005 69931 76165 877// 333 31/// 55300 20257 30257 69917 87710
AAXX 01121 10791 01/90 92414 10017 20017 38519 48464 58002 60061 76164 333 49121 55300 60037 91120 91215 96045
AAXX 01121 10805 01482 82006 10126 20102 39995 40183 58004 69901 75865 888// 333 31/// 55300 20197 30197 69907 81812 87633
AAXX 01121 10815 01156 82506 10077 20076 39244 48488 55002 69961 75365 875// 333 42007 55300 20410 30409 69947 82702 84704 87608 91113 96458 96453 96451 444 17070
AAXX 01121 10836 11486 72307 10085 20077 39313 40174 58004 69901 70252 878// 333 31/// 55300 20447 30444 81811 87617 96450
AAXX 01121 10870 01484 72608 10113 20085 39651 40178 58004 69901 70252 875// 333 31/// 55300 69907 82615 87635
AAXX 01121 10895 01/02 92001 10040 20038 39613 40190 58002 60021 75865 333 42002 55300 20229 30228 69967 96047
AAXX 01121 10908 01/01 92311 10035 20035 38500 48496 56003 60031 76386 333 42075 55300 20438 30438 60017 89/01 91122 91216 96045
AAXX 01121 10929 11486 82702 10109 20079 39676 40202 58001 69901 70282 87845 333 31/// 55300 20372 30367 83816 86640
AAXX 01121 10948 01165 81704 10042 20042 39265 48503 58005 60021 76162 885// 333 43028 55300 20307 30307 69947 81703 88650
AAXX 01121 10961 11/01 72612 11042 21042 37091 47062 51004 60011 74174 875// 333 49275 55301 20970 41132 876// 91123 91213 96471
AAXX 01121 10962 11589 72408 10079 20070 39047 48498 58002 69961 70262 8653/ 333 31/// 41998 55303 20712 30633 81621 86638 91117 91211
AAXX 01121 10980 11581 72417 10016 20015 38156 48500 50001 60021 72874 875// 333 44085 55300 20415 30415 87620 91124 91218 90326 91219 96245 96445
AAXX 01121 10007 NIL
AAXX 01121 10044 NIL
AAXX 01121 10046 41250 82407 10095 20085 30010 40048 52007 72165 877// 333 87705 91113
AAXX 01121 10091 01125 82209 10060 20060 39992 40043 56012 60031 75165 877// 222// 06052 333 32/// 55300 20101 30101 60037 87702 91113
AAXX 01121 10113 11970 72208 10093 20089 30038 40057 51003 60021 70365 81012 333 32/// 55302 20492 30390 81466 86070
AAXX 01121 10124 NIL
AAXX 01121 10131 01470 72406 10103 20089 30041 40055 50004 60011 70265 8353/ 333 31/// 55300 20205 30205 69917 83614 87365
AAXX 01121 10170 01256 82105 10095 20090 30037 40053 58003 60041 72162 877// 333 32/// 55300 20101 30099 69987 87706
AAXX 01121 10264 01140 82204 10091 20088 39965 40070 57003 60031 75862 877// 333 31/// 55300 20094 30094 60027 87703
AAXX 01121 10291 01218 82004 10063 20061 30019 40087 58013 69981 76154 886// 333 31/// 55300 20085 30084 69987 88704
AAXX 01121 10315 01250 82104 10117 20117 30028 40091 58002 69931 75865 875// 333 32/// 55300 20157 30157 69937 81704 85707 87612
AAXX 01121 10379 01458 82206 10084 20081 39973 40094 58005 69961 76162 885// 333 31/// 55300 20115 30112 41278 69967 88616
AAXX 01121 10382 01258 82204 10086 20077 30050 40095 57007 69951 76165 875// 333 31/// 55300 20116 30116 69957 84706 87616
AAXX 01121 10384 06/// /2105 10085 20080 30035 40095 58008 69941 333 55300 20167 30167 69947
AAXX 01121 10427 01/02 92507 10064 20064 39120 48433 58001 60031 75365 333 42028 55300 20151 30151 60027 91116 96045 96459 96453 96452
AAXX 01121 10430 01125 82204 10108 20108 39917 40106 50003 60031 75865 886// 333 31/// 55300 20057 30057 60027 82702 87705
AAXX 01121 10439 NIL
AAXX 01121 10453 11/90 92519 10044 20044 38773 48409 53002 60041 76165 333 49108 55300 91127 91220 96045 96251 96463 96453 96449
AAXX 01121 10496 01480 82304 10093 20072 30027 40111 58008 69901 76152 885// 333 31/// 55300 20140 30140 69907 85710 88616
AAXX 01121 10499 01460 82207 10045 20026 39837 40130 58006 69901 70352 875// 333 31/// 55300 20231 30230 69907 82710 87626
AAXX 01121 10505 01380 82209 10114 20105 39834 40110 58011 60011 75866 888// 333 32/// 55300 20234 30234 69987 86807 88611 91114
AAXX 01121 10513 01582 72203 10130 20117 39999 40118 58006 60021 70262 8653/ 333 32/// 55300 20281 30281 69997 84624 86648
AAXX 01121 10532 07485 72203 10109 20102 39884 40128 58002 69961 70065 333 55300 20096 30096 69957 87/10 87/26
AAXX 01121 10544 01/01 92313 10063 20063 39063 48449 58002 60021 76364 333 44012 55300 60017 91118 91213 96045 96258 96463
AAXX 01121 10554 01480 82509 10108 20087 39737 40118 55004 69901 70362 8587/ 333 31/// 55300 20217 30217 69907 83816 83620 87462 96461
AAXX 01121 10567 01581 82306 10099 20079 39754 40125 57004 69911 70262 8682/ 333 31/// 55300 20276 30276 69917 81821 86628 87459
AAXX 01121 10578 11/01 92616 10038 20038 38742 48442 50003 60011 74565 333 44067 55300 20310 30305 91123 90241 91218 90315 91220
AAXX 01121 01001 11363 81710 10013 20003 39629 49640 52024 60051 70276 885// 222// 00007 333 91112
AAXX 01121 01008 41489 41210 11012 21063 39987 40021 58010 70300 81508 333 91113
AAXX 01121 01010 41689 71414 10022 21085 39909 49925 50001 70222 82578 333 91120
AAXX 01121 01026 NIL
AAXX 01121 01055 46/// /1416 11001 21038 30011 40029 55006 333 91124
AAXX 01121 01062 NIL
AAXX 01121 01098 NIL
AAXX 01121 01115 41480 81418 10021 21030 39875 49896 50001 70222 887// 333 91125
AAXX 01121 01152 11682 81016 10001 21057 39895 49911 56011 60001 70222 8157/ 333 91122
AAXX 01121 01205 NIL
AAXX 01121 01212 16/// /1705 10071 20035 39843 49859 54001 6//// 333 91110
AAXX 01121 01271 NIL
AAXX 01121 01288 41330 81505 11018 21049 39179 49924 58010 77072 885// 333 91117
AAXX 01121 01300 NIL
AAXX 01121 01317 41275 81603 10063 20039 39868 49882 57009 78082 8682/ 333 91109
AAXX 01121 01367 11340 80000 11068 21081 39506 49958 57013 60002 77072 887// 333 91100
AAXX 01121 01384 41142 81602 11005 21010 39706 49954 58017 76877 887// 333 91107
AAXX 01121 01403 11570 62313 10071 20054 39826 49894 57006 69971 70182 86900 333 91118
AAXX 01121 01415 NIL
AAXX 01121 01482 46/// /2207 10057 20045 39928 49935 56018 333 91117
AAXX 01121 01492 41258 80402 10007 21000 39828 49946 58022 77072 887// 333 91106
AAXX 01121 01003 NIL
AAXX 01121 01007 11989 81012 11021 21068 30003 40013 57006 60001 70222 80007 333 91118
AAXX 01121 01028 11640 81216 10001 21030 39966 49986 56029 60001 73632 86506 222// 0//// 333 91124
AAXX 01121 01047 41688 81805 11048 21060 39680 40057 57004 70222 8802/
AAXX 01121 01049 16/// /1509 11011 21052 30045 40049 55005 69931 333 91117
AAXX 01121 01078 11375 81412 11010 21038 30089 40102 53008 6//// 71532 87360 333 91123
AAXX 01121 01102 46/// /1414 10003 21008 39866 49885 58011 333 91118
AAXX 01121 01160 41889 81207 10025 21064 39906 49923 57005 70222 8801/ 333 91113
AAXX 01121 01218 NIL
AAXX 01121 01238 41460 81205 11033 21062 38782 49904 58008 70273 8572/ 333 91116
AAXX 01121 01241 11686 71208 10026 20005 39860 49872 58009 60021 72165 8657/ 333 91115
AAXX 01121 01281 NIL
AAXX 01121 01338 16/// /0603 10015 20008 39836 49902 58011 60071 333 91108
AAXX 01121 01359 11889 70000 11040 21059 39017 49934 57014 60021 70272 87070 333 91102
AAXX 01121 01397 16/// /1401 11030 21034 39529 49969 58018 60061 333 91103
AAXX 01121 01400 NIL
AAXX 01121 01427 11458 62210 10083 20069 39929 49944 54000 60001 71062 84872 333 91112
AAXX 01121 01447 NIL
AAXX 01121 01448 46/// /2405 10075 20068 39939 49949 50001 333 91110
AAXX 01124 96315 13460 70310 10283 20249 40104 69902 82848 333 10315 82815 85364
AAXX 01124 96323 NIL
AAXX 01124 78897 14583 80912 10232 20189 40193 53026 60011 700// 333 10290 20223 58004 70050
BBXX PHQX 01123 99149 70654 41597 20909 10272 20217 40180 52020 70200 82200 22254 20303 3//// 4//// 5//// 80233
AAXX 01121 13579 32970 03101 10033 21088 39383 40236 56006
AAXX 01124 78897 14583 80912 10232 20189 40193 53026 60011 700// 333 10290 20223 58004 70050
AAXX 01121 01025 16/// /1912 10002 21066 39944 49955 55007 6//// 333 91119
AAXX 01121 01052 16/// /1606 11010 21052 39932 40031 58005 60001 333 91116
AAXX 01121 01122 16/// /1804 11032 21069 39850 49941 57007 60001 333 91110
AAXX 01121 01132 16/// /1902 11055 21087 39558 49953 57009 60001 333 4/059 91117
AAXX 01121 01156 16/// /1209 10024 21059 39901 49911 56004 60001 333 91115
AAXX 01121 01203 46/// /1812 10073 20035 39803 49851 57006 333 91120
AAXX 01121 01233 16/// /1505 11025 21046 60011 333 91110
AAXX 01121 01265 NIL
AAXX 01121 01273 16/// /1503 10028 21035 39703 49896 55013 69951 333 91109
AAXX 01121 01307 46/// /2010 10082 20065 39840 49867 58009 333 91118
AAXX 01121 01321 16/// /1601 10022 20013 39626 49876 55006 69991 333 91107
AAXX 01121 01327 11150 80802 10003 21005 60051 77277 8762/ 333 91105
AAXX 01121 01350 16/// /1104 11026 21027 38525 49891 57012 60021 222// 00048 333 91112
AAXX 01121 01361 16/// /0904 11060 21076 38893 49927 57008 69981 333 4/069 91110
AAXX 01121 01375 NIL
AAXX 01121 01378 16/// /0000 11049 21057 39652 49949 57013 60041 333 91102
AAXX 01121 01385 16/// /1203 11008 21016 39686 49958 58010 60041 333 91106
AAXX 01121 01412 16/// /1908 10083 20068 39892 49920 57004 69931 333 91113
AAXX 01121 01422 16/// /2006 10084 20050 69951 333 91112
AAXX 01121 01440 NIL
AAXX 01121 01441 NIL
AAXX 01121 01467 NIL
AAXX 01121 01469 NIL
AAXX 01121 01477 16/// /0301 10002 21002 60041 333 4/024 91105
AAXX 01121 01480 16/// /0201 10006 21002 60051 333 91105
AAXX 01121 01484 16/// /1503 10001 21012 39799 49955 58021 60011 333 91110
AAXX 01121 01490 16/// /1302 11017 21018 60071 333 91108
AAXX 01121 01495 16/// /1006 10034 20025 39924 49937 58022 60051 333 91111
AAXX 01121 01037 16/// /1209 11010 21061 39994 40000 55006 60001 333 91121
AAXX 01121 01046 NIL
AAXX 01121 01058 16/// /1609 11052 21070 39586 40060 57005 60001 333 4/022 91113
AAXX 01121 01065 11689 81003 11035 21055 39926 40091 57002 60001 70282 888// 333 91106
AAXX 01121 01092 NIL
AAXX 01121 01107 16/// /1612 10013 2//// 39894 49899 58002 69961 333 91120
AAXX 01121 01114 16/// /0704 10035 21046 39883 49893 56007 60001 333 91107
AAXX 01121 01144 41886 81117 10010 21052 70322 84026 333 91123
AAXX 01121 01199 NIL
AAXX 01121 01245 11683 70105 10013 21058 39196 49890 56015 69931 70172 8552/ 333 91112
AAXX 01121 01259 16/// /1212 10020 21016 39846 49869 58015 60041 333 91116
AAXX 01121 01262 NIL
AAXX 01121 01278 41785 81305 10020 21021 39797 49898 58019 71572 8297/
AAXX 01121 01293 11982 81607 10024 21035 39690 49895 58014 60001 70222 8801/ 333 91112
AAXX 01121 01329 NIL
AAXX 01121 01337 NIL
AAXX 01121 01344 16/// ///// 10020 21002 60031 333 4/072
AAXX 01121 01364 16/// /1002 11062 21077 38811 49939 50010 60011 333 4/047 91111
AAXX 01121 01373 11565 80000 11050 21061 39742 49946 57015 60031 70272 8772/ 333 91102
AAXX 01121 01374 NIL
AAXX 01121 01380 16/// /1402 11049 21060 6//// 333 4/038 91108
AAXX 01121 01389 11710 81302 11015 21022 39653 49965 58011 60071 77172 8272/ 333 91104
AAXX 01121 01393 NIL
AAXX 01121 01424 16/// ///// 10014 20006 39910 49914 56012 60071
AAXX 01121 01431 16/// /1802 10021 20012 39278 49933 56004 60091 333 91106
AAXX 01121 01436 NIL
AAXX 01121 01465 11345 82802 10035 20031 39933 49951 51009 60021 72864 886// 333 91110
AAXX 01121 01471 11456 80101 11031 21041 60021 77172 8772/ 333 91102
AAXX 01121 01483 NIL
AAXX 01121 01015 NIL
AAXX 01121 01023 41589 61208 11006 21085 39864 49959 58004 70220 82578 333 91116
AAXX 01121 01033 46/// /1614 10020 21065 39909 49940 55016 333 91120
AAXX 01121 01059 41480 71511 11022 21048 30058 40068 54000 70322 876// 333 91117
AAXX 01121 01089 16/// /1502 11019 21040 30019 40128 52001 6//// 333 91106
AAXX 01121 01167 41687 81611 10022 21106 39913 49918 58004 70222 8142/ 333 91116
AAXX 01121 01180 NIL
AAXX 01121 01210 41687 61904 10077 20024 39830 49855 58002 70222 83261 333 91110
AAXX 01121 01228 NIL
AAXX 01121 01240 16/// /1412 10037 20013 39843 49862 58007 6//// 333 91119
AAXX 01121 01304 46/// /0000 10079 20062 39827 49857 58004 333 91100
AAXX 01121 01311 46/// /1703 10058 20052 39825 49885 55005 333 91112
AAXX 01121 01340 NIL
AAXX 01121 01355 16/// ///// 10007 21002 39903 49908 56013 60011
AAXX 01121 01360 NIL
AAXX 01121 01392 11471 81602 11007 21016 39739 49966 56019 60061 77187 888// 333 91107
AAXX 01121 01406 46/// /1909 10070 20059 39866 49883 55008 333 91116
AAXX 01121 01411 16/// /2112 10086 20061 39880 49905 58006 6//// 333 91115
AAXX 01121 01425 NIL
AAXX 01121 01433 46/// /2302 10013 21008 38673 49901 58006 333 91111
AAXX 01121 01442 11180 82301 10009 20002 39692 49949 57003 69991 70272 886// 333 91107
AAXX 01121 01450 NIL
AAXX 01121 01452 11075 70000 10026 20020 39930 49952 50001 69951 70222 876// 333 91105
AAXX 01121 01473 41205 80000 11011 21016 39736 49945 56017 75652 887// 333 91102
AAXX 01121 01494 11120 81206 10011 20010 39873 49938 58024 60061 76076 886// 333 91108
BBXX BATFR46 01124 99388 10004 44/97 02204 10159 20120 40259 58008 700// 22253 00165 20000
BBXX BATFR08 01124 99266 30545 44597 31311 10242 20162 40130 58007 702// 831// 22243 00265 20804 315// 40804 5////
BBXX BATEU08 01124 99578 10016 46/// /2431 10084 20050 49904 53022 22223
BBXX BATEU01 01124 99439 70245 44197 72933 10119 20049 40236 51030 72522 83777 22263 00149 20402 329// 41008 5////
BBXX BATEU09 01124 99410 10088 46/// /2513 10155 20122 40222 22221 00160
AAXX 01124 48601 11560 70302 10266 20247 30101 40105 60001 70522 82532 333 10294 82625 84364 87077
AAXX 01124 48615 11558 81405 10253 20239 30109 40115 69981 76062 83547 333 10270 83620 88272
AAXX 01124 48620 11662 70702 10262 20246 30098 40107 69901 70586 83548 333 10300 83635 84365 87276
AAXX 01124 48647 11464 72804 10293 20256 30083 40108 60001 71322 82931 333 10336 81917 87078
AAXX 01124 48657 11560 70403 10265 20243 30095 40113 60001 70522 82531 333 10310 82624 84366 87078
AAXX 01124 48665 11464 72903 10281 20249 30098 40108 60001 71322 81932 333 10328 81917 87078
AAXX 01124 96413 11565 73504 10277 20250 30086 40112 60061 70398 82533 333 10310 82620 84365 86080
AAXX 01124 96421 12468 70201 10269 20252 30069 40105 60001 82531 333 10321 82618 85365
AAXX 01124 96441 11468 71102 10258 20249 30076 40103 60001 70192 82541 333 10316 82614 86080
AAXX 01124 96449 11460 70202 10268 20253 30086 40105 69961 76062 8357/ 333 10315 83614 87365
AAXX 01124 96465 12470 70310 10284 20252 30075 40108 60001 83842 333 10312 82810 87080
AAXX 01124 96471 11468 70405 10281 20245 30103 40106 60001 70222 82848 333 10314 81814 83364 87277
AAXX 01124 96481 12462 63604 10273 20236 30087 40106 60001 82841 333 10319 81817 83364 85080
AAXX 01124 96491 11465 70710 10277 20249 30102 40114 6///1 70382 85848 333 10293 83815 87277
AAXX 01121 01121 46/// /1315 11002 21043 39891 49904 53003 333 91126
AAXX 01121 01135 16/// /1804 11033 21072 39791 49945 56011 69951 333 4/030 91114
AAXX 01121 01143 16/// /1308 10006 21083 60001 333 91118
AAXX 01121 01150 16/// /1802 11051 21082 69971 333 91113
AAXX 01121 01192 16/// /1405 10018 21174 60001 333 4/016 91117
AAXX 01121 01225 46/// /1204 10055 20018 39856 49860 57005 333 91109
AAXX 01121 01230 16/// /1403 11012 21052 69941 333 4/045 91113
AAXX 01121 01232 16/// /1806 10033 21044 39819 49897 55004 60001 333 91116
AAXX 01121 01234 16/// /2002 11008 21013 60041 333 91103
AAXX 01121 01253 16/// /1804 10012 21029 69981 333 91108
AAXX 01121 01254 16/// /1001 10002 21007 60001 333 4/030 91103
AAXX 01121 01257 NIL
AAXX 01121 01277 NIL
AAXX 01121 01291 16/// /0904 11042 21052 69991 333 4/037 91110
AAXX 01121 01332 16/// /0000 11001 21012 60031 333 91102
AAXX 01121 01366 46/// /1506 11047 21060 38302 49903 56010 333 91110
AAXX 01121 01370 16/// /2101 11054 21062 38841 40023 56014 60051 333 4/038 91103
AAXX 01121 01376 16/// /1202 11014 21021 60041 333 91106
AAXX 01121 01383 46/// /0000 11012 21013 39642 49957 58010 333 91100
AAXX 01121 01386 16/// ///// 11002 21014 60021
AAXX 01121 01416 16/// ///// 10076 20072 69941
AAXX 01121 01419 NIL
AAXX 01121 01430 16/// ///// 10082 20068 60031
AAXX 01121 01434 16/// /0000 11039 21049 38965 49923 56013 60051 333 91102
AAXX 01121 01455 16/// /2201 10002 21010 39636 49946 58008 60021 333 91104
AAXX 01121 01468 16/// /1304 11005 21011 60031 333 91108
AAXX 01121 01470 16/// /2701 11004 21011 39830 49945 55012 60031 333 4/015 91105
AAXX 01121 01476 NIL
AAXX 01121 01481 16/// /3501 10032 20028 39904 49936 56021 60101 333 91110
AAXX 01121 01488 NIL
AAXX 01124 41170 32965 11409 10240 20026 30160 40173 80001 333 59032
BBXX CGDS 01124 99429 70792 46/// /2311 10044 20024 40127 56033 7//// 8//// 22200 0//// 2////
AAXX 01124 48698 01464 70405 10270 20258 30090 40109 69961 70598 83838 333 10314 50260 55043 69907 81816 83650 85080
AAXX 01124 48698 01464 70405 10270 20258 30090 40109 69961 70598 83838 333 10314 50260 55043 69907 81816 83650 85080
BBXX CGDS 01124 99429 70792 46/// /2311 10044 20024 40127 56033 7//// 8//// 22200 0//// 2////
AAXX 01124 91503 31475 50000 10272 20257 40076 50004 70522 81936 333 10342 56000 59013 81818 81919 85280
AAXX 01124 91517 31475 51805 10264 20245 40082 52008 70522 81837 333 10321 56999 59009 81815 85280
AAXX 01124 91503 31475 50000 10272 20257 40076 50004 70522 81936 333 10342 56000 59013 81818 81919 85280
AAXX 01124 91517 31475 51805 10264 20245 40082 52008 70522 81837 333 10321 56999 59009 81815 85280
AAXX 01124 78583 11470 40000 10240 20230 40179 69981 72588 84802 333 02205 10285 20/// 58018 83815
AAXX 01124 85574 12960 01805 10181 20116 39616 40162 52021 60004 333 20150 30/// 55122 70000
AAXX 01124 85585 12498 51914 10174 20122 40212 51016 60004 83504 333 20158 30/// 55117 56306 70000 83620
AAXX 01124 85629 12960 01705 10190 20132 40160 52/// 60004 333 20136 30/// 50620 55131 70000
AAXX 01124 85672 12965 01806 10170 20142 40166 52014 60004 333 20134 30/// 55130 70000
AAXX 01124 85682 12960 02305 10161 20136 40163 50007 60004 333 20104 30/// 50540 55075 70000
AAXX 01124 85766 12960 09902 10171 20136 40215 52013 60004 333 20094 30/// 55133 70000
AAXX 01124 61901 12486 71209 10187 20135 39675 40181 60001 878// 91150 333 59006 81816 87632
AAXX 01124 61902 32586 11313 10270 20179 40151 81800 333 59004 81826
AAXX 01124 88889 11480 71313 10090 20071 39955 40039 51017 69944 70262 876// 91150 333 20086 31008 87710
AAXX 01124 03005 12470 52427 10067 20036 39730 49827 57004 60001 82902 91150 333 55310 20327 81918 85075 90710 91134
AAXX 01124 03017 15966 /2213 10056 20033 39812 49844 58006 60001 91150 333 55307 20348 8//99
AAXX 01124 03023 17765 /2329 10068 20027 39838 49843 50001 60031 723// 91150 333 83/50 90710 91138
AAXX 01124 03026 17982 /2114 10057 20030 39810 49828 58002 69921 723// 91150 333 55300 20209 81/63
AAXX 01124 03063 17480 /2009 10031 20017 39606 49880 58008 60041 761// 91150 333 55300 20137 81/14 87/20
AAXX 01124 03066 17684 /2012 10063 20022 39865 49871 56004 69901 723// 91150 333 55310 20507 81/37 83/66
AAXX 01124 03075 15970 /2018 10060 20037 39805 49848 57007 60001 91150 333 8//99 90710 91127
AAXX 01124 03091 15979 /2119 10070 20027 39808 49886 58007 69921 91150 333 55307 20425 87/67 90710 91127
AAXX 01124 03100 17667 /2419 10069 20042 39859 49875 58001 60011 723// 91150 333 55300 20163 81/32 85/64 90710 91140
AAXX 01124 03111 16976 /2320 10074 20040 39903 49915 58011 60001 91150 333 81/58 90710 91131
AAXX 01124 03134 16/// /2212 10071 20039 3//// 4//// 5//// 60001 91150 333 55300 20281
AAXX 01124 03136 17567 /2219 10082 20047 39892 49924 58007 69901 723// 91150 333 55303 20403 85/26 90710 91127
AAXX 01124 03162 11470 72214 10063 20037 39657 49939 57013 69901 70382 878// 91150 333 55300 20312 83818 85625 90710 91127
AAXX 01124 03166 15666 /2317 10075 20031 39843 49911 57013 69901 91150 333 55306 20447 81/34 90710 91131
AAXX 01124 03171 11565 72514 10070 20040 39897 49909 58005 69901 78011 878// 91150 333 55301 20343 82825 87635
AAXX 01124 03204 12572 62418 10091 20046 39938 49957 58010 60001 8487/ 91150 333 55300 20188 83825 85365 90710 91127
AAXX 01124 03240 15962 /2115 10077 20044 39909 49937 57011 69901 91150 333 55300 20164 81/68
AAXX 01124 03257 17663 /2313 10071 20052 39935 49975 55006 60031 762// 91150 333 55300 20060 85/38 85/47 90710 91125
AAXX 01124 03292 165// /2211 10095 20075 39965 49983 58015 69921 91150 333 82/23 86/61
AAXX 01124 03302 17761 /2322 10097 20060 39963 49975 58007 60031 723// 91150 333 55300 20111 87/50 90710 91129
AAXX 01124 03354 15674 /2111 10100 20070 39866 40006 57018 60001 91150 333 55300 20323 82/44 84/61
AAXX 01124 03377 12680 82117 10103 20067 39926 40008 58019 60001 84572 91150 333 55300 20294 84641 85362 88070 90710 91125
AAXX 01124 03414 17572 /2114 10107 20083 39910 49996 58016 60011 723// 91150 333 55300 20298 84/24 83/57
AAXX 01124 03462 15580 /2013 10106 20079 39936 40024 58018 60001 91150 333 55300 20384 82/21
AAXX 01124 03482 15974 /2115 10114 20080 30007 40032 58017 60001 91150 333 87/62
AAXX 01124 03502 17564 /2217 10095 20080 39842 40001 58019 60021 757// 91150 333 55300 20150 81/21 85/50 90710 91128 91028
AAXX 01124 03535 15664 /2014 10103 20075 39897 40012 58016 60001 91150 333 55300 20379 84/40 90710 91126
AAXX 01124 03590 15982 /2112 10113 20096 39937 40045 58018 60001 91150 333 55300 20359 83/59
AAXX 01124 03649 11475 72209 10110 20083 39936 40034 58020 69901 70265 8357/ 91150 333 55300 2//// 81712 83624 86466
AAXX 01124 03716 15878 /2108 10108 20081 39974 40033 58024 60001 91150 333 55300 20177 84/57 86/61
AAXX 01124 03740 16470 /2109 10103 20083 39867 40040 58022 60001 91150 333 55300 2//// 86/13
AAXX 01124 03746 15466 /2112 10109 20089 39901 40052 57018 60001 91150 333 81/17 87/50
AAXX 01124 03772 15576 /2214 10126 20090 30024 40054 58015 60001 91150 333 55300 20271 83/23 87/56
AAXX 01124 03796 46/// /2313 10104 20104 39934 40075 58017 91150
AAXX 01124 03803 NIL
AAXX 01124 03808 11365 82414 10108 20099 39937 40041 57023 69941 72162 8462/ 91150 333 55300 20091 81706 83656 88460 90710 91125
AAXX 01124 03809 11158 82317 10107 20099 39952 40044 57024 69961 76166 887// 91150 333 82702 85703 87712 90710 91126
AAXX 01124 03827 17256 /2415 10113 20113 39987 40048 58028 60011 782// 91150 333 85/05 84/43
AAXX 01124 03840 17770 /2110 10097 20084 39740 40041 58025 69901 781// 91150 333 87/50
AAXX 01124 03853 15764 /1911 10116 20098 30021 40045 58026 60001 91150 333 55300 20157 88/50
AAXX 01124 03874 46/// /2417 10114 20104 30049 40060 58018 91150 333 90710 91127
AAXX 01124 03882 17366 /2210 10120 20110 30007 40070 58019 69901 751// 91150 333 55300 20345 87/07 91020
AAXX 01124 03894 11003 81913 10119 20119 40075 58031 60071 76565 887// 333 88700
AAXX 01124 03917 15469 /2112 10067 20037 39859 49935 58006 60001 91150 333 55309 20466 81/19
AAXX 01124 85418 12970 62304 10228 20129 40134 60004 83031 333 20196 30/// 55093 56066 70000 83365 83080
AAXX 01124 85432 12970 40711 10128 20029 37772 48475 53008 60004 80001 333 20056 30/// 51370 55102 56000 70000 81072
AAXX 01124 85442 12975 31103 10197 20144 40137 53011 60004 80001 333 20170 30/// 50750 55118 56007 70000 83080
AAXX 01124 85467 13980 01305 10183 20110 40170 51009 60004 333 20140 30/// 5///0 55073 70000
AAXX 01124 85488 12462 23401 10176 20128 40167 50008 60004 81501 333 20129 30007 50350 55057 56600 70000 81610 81075
AAXX 01124 85864 11680 22108 10152 20098 40166 52025 60064 7028/ 82200 333 20124 31/// 55088 56600 70058 82835
AAXX 01124 85874 11682 23115 10132 20077 39541 40157 51036 69944 7028/ 82100 333 20100 31/// 56600 70004 82835
AAXX 01124 85934 12580 53021 10106 20032 40063 52005 69904 82530 333 20045 30/// 55014 56770 79999 82620 84360
AAXX 01124 89056 11/04 93210 10014 20010 49925 54001 60002 74542 333 10013 20006 41999 55008 89/01
AAXX 01124 89057 12460 82606 10011 20002 49920 54000 60002 885// 333 10020 20008 41030 56699 88710
AAXX 01124 89058 31440 83207 10015 20008 39907 49928 52004 71000 886//
AAXX 01124 89059 12960 42310 11001 21012 49908 52008 60002 84050 333 10022 20006 42998 55007 75055 84360
AAXX 01124 89251 31158 83213 10014 2008 49913 50001 71022 8672/ 333 20007
BBXX 42039 01121 99288 70860 46/// /1804 10217 40230 53008 91150 22200 00229 10501 70003 333 91205 555 11040 22041 31100 41706 61149 175038 176039 169044 170045 167052 165051 81706 91100
BBXX 41040 01121 99145 70530 46/// /0811 10264 20220 40175 53024 91150 22200 00269 10907 20605 3//// 40904 70033 333 91213 555 11115 22123 31115 40714 61149 077107 070107 066108 068112 065112 066105 80712 91115
BBXX 46072 01121 99517 71722 46/// /2504 10007 21006 40050 58019 91150 22200 00042 10706 20401 3//// 40706 70029 333 91205 555 11040 22042 31113 42306 61149 254038 251039 249042 247045 247045 245045 82505 91108
BBXX 46082 01121 99597 71434 46/// ///// 10030 49999 56048 91150 22200 00060 10706 70031
BBXX 46072 01121 99517 71722 46/// /2504 10007 21006 40050 58019 91150 22200 00042 10706 20401 3//// 40706 70029 333 91205 555 11040 22042 31113 42306 61149 254038 251039 249042 247045 247045 245045 82505 91108
BBXX 46077 01121 99579 71543 46/// /1702 11073 21112 40096 58014 91150 22200 00024 10501 20301 3//// 40501 70005 333 91203 555 11015 22016 31118 42404 61149 165014 202008 166016 236018 284018 205015 82503 91118
BBXX 46035 01121 99571 71778 46/// /0116 1//// 40034 51019 91150 22200 11008 20806 300// 41005 70039 333 91220 555 11160 22171 31144 43520 61149 013161 023146 022146 022160 027152 021150 80218 91145
BBXX 44007 01121 99435 70701 46/// /2604 10046 20046 40153 51022 91150 22200 00074 10801 3//// 40801 70004 333 91205 555 11044 22045 31130 42805 61149 264042 277042 277042 270035 265038 271032
AAXX 01124 78583 11470 40000 10240 20230 40179 69981 72588 84802 333 02205 10285 20/// 58018 83815
BBXX 51004 01121 99175 71524 46/// /0408 10230 20203 91150 555 11085 22090
BBXX 51002 01121 99171 71578 46/// /0607 10237 40153 58015 91150 22200 00246 333 91208 555 11073 22077 31051 40709 61149 062071 058073 063070 058071 061074 064075
BBXX 51100 01121 99236 71539 46/// /3504 10212 40177 58010 91150 22200 00231 11104 330// 41104 70018 333 91205 555 11043 22044 31138 43505 61149 352041 351038 333018 343017 343016 340018
BBXX 46026 01121 99378 71228 46/// /0810 10128 40196 56007 91150 22200 00115 11304 20502 329// 41304 70022 333 91213 555 11109 22119 31101 42816 61149 074104 281106 281101 282104 284122 288127
BBXX 46041 01121 99474 71247 46/// /1212 10077 40206 58005 91150 22200 00087 11304 20503 3//// 41303 70020 333 91215 555 11133 22141 31149 41215 61149 115122 114121 114115 113116 110114 113112
AAXX 01124 07643 02986 22812 10182 20103 30212 40222 58021 60001 80001 333 60007 82076 90710 91121 555 60005
AAXX 01124 07761 02584 51802 10151 20101 30203 40214 58002 60001 85800 333 60007 81826 85640 90710 91105 93100 555 60005
AAXX 01124 07005 01470 82012 10130 20122 30011 40099 58021 60011 72065 888// 333 69947 83810 88616 90710 91118 93100 555 69905
AAXX 01124 07015 01370 82111 10128 20117 30043 40099 58018 69901 75065 887// 333 69907 88709 90710 91120 93100 555 69905
AAXX 01124 07020 01440 82017 10123 20121 30051 40077 58032 60041 76065 887// 333 60037 88716 90710 91128 555 60035
AAXX 01124 07027 01470 82016 10137 20121 30021 40101 58025 69961 72065 875// 333 69907 87618 90710 91124 93100 555 69905
AAXX 01124 07037 01460 82117 10129 20116 39934 40115 58018 69921 70162 887// 333 69907 88612 90710 91124 93100 555 60005
AAXX 01124 07070 04468 82211 10127 20109 30033 40142 58013 69901 700// 333 69907 90710 91122 555 60005
AAXX 01124 07110 01245 82224 10125 20123 39966 40079 58031 60161 75865 887// 333 60117 88705 91036 90710 91139 555 60035
AAXX 01124 07117 01456 82214 10129 20123 30005 40074 58033 60061 76265 8472/ 333 60067 90710 91127 92446 555 60035
AAXX 01124 07130 04356 82113 10135 20129 3//// 4//// 69941 760// 333 69927 90710 91127 555 69925
AAXX 01124 07139 01240 82213 10127 20113 39959 40131 58019 69981 76065 887// 333 69907 88703 90710 91122 93100 555 69905
AAXX 01124 07149 01464 82111 10133 20117 30032 40140 58020 69901 75052 885// 333 69907 85610 87613 90710 91124 93100 555 69905
AAXX 01124 07168 01470 72114 10134 20113 30022 40163 58017 69901 72162 875// 333 69907 86615 87650 90710 91122 93100 555 69905
AAXX 01124 07181 04386 82312 10118 20107 39761 40167 58011 60011 700// 333 69927 90710 91120 555 69905
AAXX 01124 07190 04586 81809 10123 20100 39994 40175 58007 69901 700// 333 69907 90710 91116 555 60005
AAXX 01124 07207 01456 82430 10134 20118 69921 70262 886// 222// 328// 333 69907 91041 90710 91142 92456 555 69905
AAXX 01124 07222 01457 82314 10131 20122 30127 40158 58015 60021 75865 887// 333 60017 87710 90710 91127 555 69905
AAXX 01124 07240 04469 82013 10136 20118 30031 40165 58018 69921 700// 333 69927 90710 91123 555 69925
AAXX 01124 07255 01265 82310 10130 20121 39990 40188 58015 69961 72052 887// 333 69927 87706 90710 91121 93100 555 69925
AAXX 01124 07280 04368 81809 10123 20117 39922 40193 58015 69921 700// 333 69927 90710 91117 555 60005
AAXX 01124 07299 02468 72407 10139 20089 39867 40190 58011 60001 878// 333 60007 81813 85627 87640 90710 91119 93100 555 60005
AAXX 01124 07314 06/// /2015 10128 20117 30167 40195 58018 60001 333 60007 90710 91122 555 60005
AAXX 01124 07335 01230 82214 10129 20123 30045 40189 58016 69921 75052 887// 333 69927 88705 90710 91122 93100 555 69925
AAXX 01124 07434 01120 82211 10111 20111 39732 40210 58017 69941 75065 887// 333 69947 88703 90710 91119 93100 555 69925
AAXX 01124 07460 02682 71908 10154 20093 39819 40202 58020 69901 81101 333 60007 81838 87073 90710 91114 93100 555 60005
AAXX 01124 07471 01578 62405 10129 20080 39252 48835 58017 69901 70162 85501 333 60007 85623 90710 91111 93100 555 60005
AAXX 01124 07481 01667 41204 10127 20106 39930 40217 58020 69961 70154 84500 333 60007 82634 83657 90710 91106 93100 555 60005
AAXX 01124 07510 01581 72109 10145 20120 30153 40218 58022 69941 70165 875// 333 69907 81621 87633 90710 91114 93100 555 60005
AAXX 01124 07535 06/// /2205 10121 20116 39920 40232 58017 69981 333 69927 90710 91112 555 69925
AAXX 01124 07558 06/// /2107 10102 20099 39399 40234 58012 69921 333 60007 90710 91109 555 60005
AAXX 01124 07577 01465 30205 10104 20099 30134 40224 58014 69921 70141 81532 333 60007 81616 83075 90710 91109 93100 555 60005
AAXX 01124 07591 04/// /0702 10086 20013 39202 4//// 58015 60001 700// 333 60007 90710 91105 555 60005
AAXX 01124 07607 04986 /2303 10168 20104 30156 40226 58029 60001 700// 333 60007 90710 91108 555 60005
AAXX 01124 07621 02684 31302 10154 20084 39799 40227 58027 60001 81501 333 60007 81640 83076 90710 91106 93100 555 60005
AAXX 01124 07627 02580 11502 10144 20074 39749 40232 58028 60001 81101 333 60007 81820 90710 91104 93100 555 60005
AAXX 01124 07630 01470 62703 10147 20099 30057 40236 58027 69901 70165 83801 333 60007 83819 84076 90710 91108 93100 555 60005
AAXX 01124 07643 04986 /2812 10182 20103 30212 40222 58021 60001 700// 333 60007 90710 91121 555 60005
AAXX 01124 07650 02984 32708 10144 20092 30175 40214 58012 60001 80002 333 60007 83076 90710 91113 93100 555 60005
AAXX 01124 07661 02475 41106 10127 20093 30053 40214 58004 60001 82201 333 60007 82816 90710 91110 555 60005
AAXX 01124 07690 02584 23204 10151 20050 30185 40219 58004 60001 82802 333 60007 81820 90710 91111 93100 555 60005
AAXX 01124 07747 02580 23305 10178 20094 30181 40233 58028 60001 81541 333 60007 81626 90710 91113 93100 555 60005
AAXX 01124 07790 04582 81103 10142 20079 30207 40222 50000 60001 700// 333 60007 90710 91107 555 60005
AAXX 01121 11816 11118 80603 11003 21010 30040 40209 58004 69921 76662 887// 333 82702 88704 93401
AAXX 01121 11826 11322 82601 11002 21012 30002 40208 57004 69911 77172 887// 333 88709
AAXX 01121 11903 11458 80000 11019 21033 39829 40224 57006 69901 71022 885// 333 82710 88629
AAXX 01121 11934 11462 79902 11029 21046 39349 42780 58008 69901 77074 8654/ 333 81710 86623
AAXX 01121 11968 11150 82004 11004 21018 39925 40215 58008 60001 71022 886// 333 88703
BBXX CZ9742 01124 99506 70969 46/// /2916 11072 21101 4//// 5//// 7//// 8//// 22200 0//// 2////
BBXX VOPP 01124 99456 70735 46/// /2003 11014 21015 4//// 5//// 7//// 8//// 22200 0//// 2////
BBXX VCRG 01124 99474 70619 46/// /0129 10022 20021 40008 56009 7//// 8//// 22200 0//// 2////
AAXX 01124 07790 02580 61103 10142 20079 30207 40222 50000 60001 86501 333 60007 86630 83076 90710 91107 93100 555 60005
BBXX CG2960 01124 99429 70824 46/// /1507 10040 20023 40057 56051 7//// 8//// 22200 0//// 2////
BBXX CGUM 01124 99462 70602 46/// /0308 10052 20051 49981 56028 7//// 8//// 22200 0//// 2////
BBXX CG2350 01124 99433 70798 46/// /1409 10051 20022 40109 56037 7//// 8//// 22200 0//// 2////
AAXX 01124 41170 32965 11409 10240 20026 30160 40173 80001 333 59032 81074
BBXX CZ9742 01124 99506 70969 46/// /2916 11072 21101 4//// 5//// 7//// 8//// 22200 0//// 2////
BBXX VCRG 01124 99474 70619 46/// /0129 10022 20021 40008 56009 7//// 8//// 22200 0//// 2////
BBXX CG2350 01124 99433 70798 46/// /1409 10051 20022 40109 56037 7//// 8//// 22200 0//// 2////
BBXX CG2960 01124 99429 70824 46/// /1507 10040 20023 40057 56051 7//// 8//// 22200 0//// 2////
BBXX VOPP 01124 99456 70735 46/// /2003 11014 21015 4//// 5//// 7//// 8//// 22200 0//// 2////
BBXX CGUM 01124 99462 70602 46/// /0308 10052 20051 49981 56028 7//// 8//// 22200 0//// 2////
AAXX 01121 01062 11589 20704 11019 21034 30074 40087 57010 69901 70200 81522 333 91107
AAXX 01121 01098 41380 61413 10012 21036 30117 40136 52003 70222 86300 333 91120
AAXX 01121 01205 46/// /1911 10078 20044 39801 49845 58005 333 91115
AAXX 01121 01271 16/// /1002 10030 21023 39872 49893 57012 6//// 333 91105
AAXX 01121 01415 16/// /2005 10080 20058 39906 49916 56004 6//// 333 91110
AAXX 01124 64500 32460 61808 10291 20235 30111 40124 84500 333 0//00 58005 84611 85640
BBXX 46002 01121 99426 71305 46/// ///// 10126 40113 57013 91150 22200 00118 10906 70029
BBXX 46005 01121 99461 71310 46/// ///12 10113 40062 56007 91150 22200 00099 10908 20906 3//// 41505 70040 333 91215 555 11132 22142
BBXX 46006 01121 99408 71375 46/// /1708 10128 49969 56025 91150 22200 00121 10806 20705 3//// 40804 70032 333 91210 555 11091 22098 31123 41710 61149 169085 170081 172083 173081 177085 175083
BBXX 46012 01121 99374 71229 46/// /0409 10124 40191 56006 91150 22200 00119 11305 20402 330// 41304 70023 333 91210 555 11091 22098 31050 40411 61149 039085 039088 039083 035085 039085 042087
BBXX 46013 01121 99382 71233 46/// /0810 10102 40199 56009 91150 22200 00109 11205 20301 3//// 41205 70024 333 91212 555 11101 22107 31131 40812 61149 077093 075097 076098 077099 079099 079092
BBXX 46014 01121 99394 71240 46/// /1204 10102 40203 57010 91150 22200 00108 11204 20401 3//// 41204 70020 333 91205 555 11041 22042 31108 41006 61149 125039 124042 117037 104039 098041 096036
BBXX 46028 01121 99357 71219 46/// /1901 10126 40182 52003 91150 22200 00130 11204 20301 328// 41204 70022 333 91202 555 11010 22011 31109 40903 61149 196010 169012 145010 109012 087013 084010
BBXX 46029 01121 99461 71245 46/// /1008 10088 20046 40207 58006 91150 22200 00088 11203 20502 327// 41202 70015 333 91210 555 11087 22092 31147 41010 61149 103081 104078 105076 104077 103081 105078
BBXX 46050 01121 99442 71246 46/// /1206 10092 40208 56004 91150 22200 00094 11404 20401 325// 41404 70020 333 91208 555 11065 22069 31104 41209 61149 119061 122064 125070 126071 127073 129069
BBXX WFLG 01124 99327 71218 41797 80809 10128 20109 40190 54000 70222 8827/ 22264 04111 20302 329// 41203 5//// 6//// 80117 ICE /////
BBXX CGBY 01124 99487 71235 46/// /0102 10035 20016 40272 53010 7//// 8//// 22200 0//// 2////
BBXX VCLM 01124 99468 70712 46/// /1504 11037 21039 40178 51012 7//// 8//// 22200 0//// 2////
BBXX CG2958 01124 99512 71279 46/// /1233 10065 21027 40126 58053 7//// 8//// 22242 0//// 2////
BBXX CGDT 01124 99468 70712 46/// /1404 11035 21037 40186 51013 7//// 8//// 22200 0//// 2////
BBXX VOLG 01124 99458 70598 46/// /3615 10051 20050 49954 56027 7//// 8//// 22212 0//// 2////
BBXX CGBR 01124 99525 71288 46/// /3609 10041 20025 40152 58020 7//// 8//// 22200 0//// 2////
BBXX VRYO3 01124 99456 70735 46/// /2003 11008 21019 40162 50005 7//// 8//// 22200 0//// 2////
BBXX VOKF 01124 99490 70669 46/// /3607 11027 21032 40154 53010 7//// 8//// 22200 0//// 2////
BBXX VCSZ 01124 99480 70609 46/// /0438 10011 20013 40019 56030 7//// 8//// 22233 0//// 2////
AAXX 01123 91551 31598 10000 10251 20244 40075 58002 70522 81100 333 10324 569// 59010 81820
AAXX 01123 91553 NIL
AAXX 01123 91554 31598 10000 10250 20231 40075 58002 70122 81100 333 10315 569// 59005 81820
AAXX 01123 91555 31598 10000 10270 20250 40064 58003 70111 81100 333 10312 569// 59013 81825
AAXX 01123 91557 31598 59902 10257 20238 40079 58001 70122 82801 333 10/// 569/9 59011 82825 85080
AAXX 01123 91565 31598 50000 10265 20244 40072 54000 70221 85801 333 10315 561/9 59005 85825
AAXX 01123 91568 31598 10000 10234 20224 40086 58004 70122 81101 333 10310 569/9 59006 81825
BBXX VOKJ 01124 99455 70735 46/// /2202 11012 21016 40166 50004 7//// 8//// 22200 0//// 2////
BBXX CGDG 01124 99447 70636 46/// /3320 10029 20077 40043 51034 7//// 8//// 22200 0//// 2////
BBXX 3FZK3 01124 99489 71237 46/// /2903 10020 20019 40277 53011 7//// 8//// 22200 0//// 2////
BBXX CGDR 01124 99484 71234 46/// /0205 10055 20030 40264 53006 7//// 8//// 22200 0//// 2////
BBXX CGTF 01124 99476 70527 46/// /3504 10005 21002 40134 56039 7//// 8//// 22200 0//// 2////
BBXX VXKF 01124 99462 70602 46/// /3612 10047 20047 49974 58024 7//// 8//// 22252 0//// 2////
BBXX CGBN 01124 99447 70636 46/// /3117 10033 20024 40042 51033 7//// 8//// 22200 0//// 2////
BBXX CGJV 01124 99462 70631 46/// /3510 10020 20018 40040 51021 7//// 8//// 22200 0//// 2////
BBXX VCWL 01124 99468 70712 46/// /0000 11036 21037 40185 51012 7//// 8//// 22200 0//// 2////
BBXX CGHL 01124 99476 70527 46/// /1405 10008 20000 40134 56038 7//// 8//// 22200 0//// 2////
BBXX VAAP 01124 99462 70602 46/// /0116 10040 20038 49973 56026 7//// 8//// 22200 0//// 2////
BBXX CGDX 01124 99468 70712 46/// /2403 11032 21035 40186 51012 7//// 8//// 22200 0//// 2////
BBXX VCBW 01124 99456 70735 46/// /2003 11007 21021 40167 50005 7//// 8//// 22200 0//// 2////
BBXX C6SI6 01124 99451 11522 46/// /1910 10009 21037 40230 53003 7//// 8//// 22213 0//// 2////
BBXX VOFG 01124 99456 70614 46/// /3121 10043 20042 49986 56009 7//// 8//// 22200 0//// 2////
BBXX CGSB 01124 99483 70709 46/// /0805 11092 21116 40187 58005 7//// 8//// 22200 0//// 2////
AAXX 01123 91551 31598 10000 10251 20244 40075 58002 70522 81100 333 10324 569// 59010 81820
AAXX 01123 91553 NIL
AAXX 01123 91554 31598 10000 10250 20231 40075 58002 70122 81100 333 10315 569// 59005 81820
AAXX 01123 91555 31598 10000 10270 20250 40064 58003 70111 81100 333 10312 569// 59013 81825
AAXX 01123 91557 31598 59902 10257 20238 40079 58001 70122 82801 333 10/// 569/9 59011 82825 85080
AAXX 01123 91565 31598 50000 10265 20244 40072 54000 70221 85801 333 10315 561/9 59005 85825
AAXX 01123 91568 31598 10000 10234 20224 40086 58004 70122 81101 333 10310 569/9 59006 81825
AAXX 01121 89061 179// 01302 10026 21011 39888 49895 54000 60022 70077 333 10028 20000 91004 91111
AAXX 01124 78948 11577 20714 10263 20222 30166 40174 60001 70511 82400 333 05200 10296 20246 59002 70011 81824
AAXX 01124 78792 31459 50000 10250 20213 30088 40101 52021 70500 82170 333 10323 20242 30/// 560// 59004 82818 83359
AAXX 01124 78793 32470 30000 10222 20208 30066 40097 52011 81101 333 10338 20218 30/// 56/// 58002 81820
AAXX 01124 78795 31340 10000 10210 20202 39996 40096 5//// 71044 815// 333 10340 20210 31/// 560// 59001 81608
AAXX 01124 78947 11578 61112 10258 20216 30173 40176 69962 725// 86400 333 05200 10293 20249 59002 70006 81821 85638 90919
BBXX CGDT 01124 99468 70712 46/// /1404 11035 21037 40186 51013 7//// 8//// 22200 0//// 2////
BBXX VCLM 01124 99468 70712 46/// /1504 11037 21039 40178 51012 7//// 8//// 22200 0//// 2////
AAXX 01121 11423 NIL
AAXX 01121 11487 01364 72606 10085 20071 39537 40154 58006 69961 72054 875// 333 69905 83707 86620 87642 91111
AAXX 01121 11518 01465 82205 10079 20063 39710 40147 58006 69901 76022 887// 333 69905 85710 87630
AAXX 01121 11603 01259 81104 10026 20009 39664 40153 58006 69901 71072 886// 333 60005 86704 87711
AAXX 01121 11659 01/09 91102 10018 20018 39522 40172 58005 69991 74565 333 60005 89/03
AAXX 01121 11723 01112 81401 10008 21002 39885 40191 57004 69951 75152 887// 333 69945 88702
AAXX 01121 11782 02460 82308 10024 21001 39864 40175 58006 60001 886// 333 60005 88712
BBXX CGBY 01124 99487 71235 46/// /0102 10035 20016 40272 53010 7//// 8//// 22200 0//// 2////
BBXX CG2958 01124 99512 71279 46/// /1233 10065 21027 40126 58053 7//// 8//// 22242 0//// 2////
BBXX VOLG 01124 99458 70598 46/// /3615 10051 20050 49954 56027 7//// 8//// 22212 0//// 2////
AAXX 01124 97180 32458 70601 10271 20269 30087 40105 53012 81272 333 10298 56000 59004 81819 86360
AAXX 01124 85574 12960 01805 10181 20116 39616 40162 51021 60004 333 20150 30/// 55122 70000
AAXX 01124 91413 32469 60708 10273 20222 30093 40118 52010 82231 333 10317 56299 59004 555 90112
BBXX VOFG 01124 99456 70614 46/// /3121 10043 20042 49986 56009 7//// 8//// 22200 0//// 2////
BBXX CGDR 01124 99484 71234 46/// /0205 10055 20030 40264 53006 7//// 8//// 22200 0//// 2////
BBXX CGTF 01124 99476 70527 46/// /3504 10005 21002 40134 56039 7//// 8//// 22200 0//// 2////
BBXX 3FZK3 01124 99489 71237 46/// /2903 10020 20019 40277 53011 7//// 8//// 22200 0//// 2////
BBXX CGHL 01124 99476 70527 46/// /1405 10008 20000 40134 56038 7//// 8//// 22200 0//// 2////
BBXX CGDG 01124 99447 70636 46/// /3320 10029 20077 40043 51034 7//// 8//// 22200 0//// 2////
BBXX CGBR 01124 99525 71288 46/// /3609 10041 20025 40152 58020 7//// 8//// 22200 0//// 2////
BBXX VCBW 01124 99456 70735 46/// /2003 11007 21021 40167 50005 7//// 8//// 22200 0//// 2////
BBXX VRYO3 01124 99456 70735 46/// /2003 11008 21019 40162 50005 7//// 8//// 22200 0//// 2////
BBXX VAAP 01124 99462 70602 46/// /0116 10040 20038 49973 56026 7//// 8//// 22200 0//// 2////
BBXX CGSB 01124 99483 70709 46/// /0805 11092 21116 40187 58005 7//// 8//// 22200 0//// 2////
BBXX C6SI6 01124 99451 11522 46/// /1910 10009 21037 40230 53003 7//// 8//// 22213 0//// 2////
BBXX VOKF 01124 99490 70669 46/// /3607 11027 21032 40154 53010 7//// 8//// 22200 0//// 2////
BBXX CGDX 01124 99468 70712 46/// /2403 11032 21035 40186 51012 7//// 8//// 22200 0//// 2////
BBXX CGJV 01124 99462 70631 46/// /3510 10020 20018 40040 51021 7//// 8//// 22200 0//// 2////
BBXX VCWL 01124 99468 70712 46/// /0000 11036 21037 40185 51012 7//// 8//// 22200 0//// 2////
BBXX CGBN 01124 99447 70636 46/// /3117 10033 20024 40042 51033 7//// 8//// 22200 0//// 2////
BBXX VXKF 01124 99462 70602 46/// /3612 10047 20047 49974 58024 7//// 8//// 22252 0//// 2////
BBXX VOKJ 01124 99455 70735 46/// /2202 11012 21016 40166 50004 7//// 8//// 22200 0//// 2////
BBXX VCSZ 01124 99480 70609 46/// /0438 10011 20013 40019 56030 7//// 8//// 22233 0//// 2////
AAXX 01124 91413 32469 60708 10273 20222 30093 40118 52010 82231 333 10317 56299 59004 555 90112
AAXX 01124 78792 31459 50000 10250 20213 30088 40101 52021 70500 82170 333 10323 20242 30/// 560// 59004 82818 83359
AAXX 01124 78793 32470 30000 10222 20208 30066 40097 52011 81101 333 10338 20218 30/// 56/// 58002 81820
AAXX 01124 78795 31340 10000 10210 20202 39996 40096 5//// 71044 815// 333 10340 20210 31/// 560// 59001 81608
AAXX 01124 78792 31459 50000 10250 20213 30088 40101 52021 70500 82170 333 10323 20242 30/// 560// 59004 82818 83359
AAXX 01124 78793 32470 30000 10222 20208 30066 40097 52011 81101 333 10338 20218 30/// 56/// 58002 81820
AAXX 01124 78795 31340 10000 10210 20202 39996 40096 5//// 71044 815// 333 10340 20210 31/// 560// 59001 81608
AAXX 01121 89061 179// 01302 10026 21011 39888 49895 54000 60022 70077 333 10028 20000 91004 91111
BBXX VAAZ 01124 99/// ///// 46/// /2320 11017 21052 40176 56025 7//// 8//// 22200 0//// 2////
AAXX 01121 02741 47599 11703 10011 21012 30054 40070 57017 70000 81/// 91139
AAXX 01121 02755 47483 11405 11056 21070 30013 40112 54001 70010 81/// 91139
AAXX 01121 02805 47470 71603 11041 21053 39968 40103 54001 72187 87/// 91139
AAXX 01121 02807 47480 71301 11049 21056 39924 40112 700// 87/// 91200
AAXX 01121 02836 47459 81502 11043 21051 39885 40113 52008 72487 88/// 91139
AAXX 01121 02845 47336 71502 11089 21094 39864 40124 52012 77174 87/// 91139
AAXX 01121 02849 47383 81402 11039 21046 39841 40121 52008 74187 88/// 91139
AAXX 01121 02866 47461 81302 11073 21079 39977 40133 52006 77870 88/// 91139
AAXX 01121 02897 47499 81203 11074 21086 39950 40140 700// 88/// 91200
AAXX 01121 02913 47460 81303 11026 21033 30040 40093 700// 88///
AAXX 01121 02917 47999 01103 11070 21082 30012 40140 700// 91200
AAXX 01121 02924 47280 11201 11062 21066 39906 40110 54001 70072 81/// 91139
AAXX 01121 02926 47374 11403 11031 21037 30081 40094 55004 700// 81/// 91200
AAXX 01121 02935 47358 70000 11042 21049 39943 40121 52003 77187 87/// 91139
AAXX 01121 02939 47583 10801 11087 21093 39947 40150 52006 70087 81/// 91139
AAXX 01121 02944 47580 71302 11045 21055 39956 40108 700// 87/// 91200
AAXX 01121 02947 47370 81101 11039 21042 40128 52007 70072 88/// 91151
AAXX 01121 02963 42580 71502 11054 21064 40102 58007 70211 85506
AAXX 01121 02974 42882 40801 11045 21061 30051 40119 52003 70200 81034
AAXX 01121 02976 46/// /3402 11018 21018 30102 40119 52009 91139
AAXX 01121 02981 47599 51709 10028 2//// 30080 40090 57015 70000 85/// 91139
AAXX 01121 02982 46/// /1804 10009 21054 30095 40103 57006 91139
BBXX CGCC 01124 99463 70725 46/// /1903 11037 21043 40173 51003 7//// 8//// 22200 0//// 2////
AAXX 01124 78897 11465 70912 10232 20189 40193 53026 60011 71586 878// 333 022// 10290 20223 58004 70050 81815 83820 86656
AAXX 01124 78954 11474 60915 10255 20210 30103 40168 69901 71511 86800 333 10294 20245 59002 83816 85630 90910
AAXX 01124 78897 11465 70912 10232 20189 40193 53026 60011 71586 878// 333 022// 10290 20223 58004 70050 81815 83820 86656
AAXX 01124 78954 11474 60915 10255 20210 30103 40168 69901 71511 86800 333 10294 20245 59002 83816 85630 90910
AAXX 01121 11423 01/01 92607 10046 20044 39276 42771 58003 69941 75854 333 69915 89/01 91012 91111
AAXX 01124 60105 32558 31410 10136 20099 40310 50001 83500 333 83620
AAXX 01124 60107 32965 03606 10152 20065 40284 58002
AAXX 01124 60141 32960 00000 10163 21032 39628 40293 56005
AAXX 01124 60185 32970 00605 10162 20086 40315 50000
AAXX 01124 60190 32975 00000 10147 20040 40298 50002
AAXX 01124 60191 32975 02803 10153 20048 40312 52007
AAXX 01124 60210 32970 02002 10150 21048 39105 48624 58002
AAXX 01124 60220 32960 03606 10160 20051 40302 51006
AAXX 01124 60265 32970 00000 10125 21112 39000 48614 58007
AAXX 01124 60060 NIL
AAXX 01124 60106 NIL
AAXX 01124 60127 NIL
AAXX 01124 60195 NIL
AAXX 01124 60318 NIL
AAXX 01121 11812 36/// /1104 11025 21025 39485 42784 57002
AAXX 01121 11813 11/01 99902 11013 21016 39849 40210 56004 69921 76654 333 89/00 93401
AAXX 01121 11816 11118 80603 11003 21010 30040 40209 58004 69921 76662 887// 333 82702 88704 93401
AAXX 01121 11819 36/// /1502 11005 21012 39990 40214 57001
AAXX 01121 11826 11322 82601 11002 21012 30002 40208 57004 69911 77172 887// 333 88709
AAXX 01121 11841 11441 82502 11006 21019 39817 40205 56004 60001 71022 886// 333 88713
AAXX 01121 11855 11327 80804 11003 21010 30043 40215 57005 69901 75172 887// 333 88708
AAXX 01121 11856 36/// /1105 11012 21019 39887 40217 57003
AAXX 01121 11858 11566 89901 10012 21001 30054 40210 57004 69901 70276 885// 333 88630
AAXX 01121 11867 11456 82201 10001 21020 39887 40213 55002 69901 71072 885// 333 81713 88618
AAXX 01121 11880 11420 89901 11003 21003 30042 40220 58008 69901 77122 885// 333 84713 88623
AAXX 01121 11900 16/// /0601 11015 21039 39879 40227 57002 69901
AAXX 01121 11903 11458 80000 11019 21033 39829 40224 57006 69901 71022 885// 333 82710 88629
AAXX 01121 11916 11/00 92905 11042 21054 37923 48436 53004 60001 74944 333 89/00 91011 93598
AAXX 01121 11918 11370 72509 11006 21031 39345 42776 56010 69901 72674 86870 333 81708 85820
AAXX 01121 11927 11350 89901 11005 21019 39950 40221 57006 69911 77722 885// 333 85707 88630
AAXX 01121 11930 11/00 93114 11072 21077 37293 47962 58001 69981 77141 333 89/00 91021 91123 93510 96049
AAXX 01121 11933 11/10 79902 11038 21055 38634 48449 55003 69901 78571 878// 333 828// 85803 444 28//5
AAXX 01121 11934 11462 79902 11029 21046 39349 42780 58008 69901 77074 8654/ 333 81710 86623
AAXX 01121 11938 11481 72205 11045 21057 39106 42781 57005 69901 70274 8717/ 333 81813 87358 93502
AAXX 01121 11952 16/// /1502 11028 21031 39339 42780 57007 60001
AAXX 01121 11958 36/// /2112 11064 21073 38721 48449 57004
AAXX 01121 11968 11150 82004 11004 21018 39925 40215 58008 60001 71022 886// 333 88703
AAXX 01121 11976 12565 81703 10005 21017 39937 40208 58008 60001 885// 333 88620
AAXX 01121 11978 12665 81406 10002 21009 30084 40219 58005 60001 885// 333 88645
AAXX 01121 11993 12468 51803 10011 21007 39994 40217 57007 60001 85200 333 83711 85831
AAXX 01124 60101 32460 62110 10153 20105 40311 58001 86500 333 86616
AAXX 01124 60115 32970 02311 10171 20034 40278 56011
AAXX 01124 60135 32458 13005 10156 20095 40306 56005 81600 333 81710
AAXX 01124 60150 32960 02603 10158 21008 39641 40296 50003
AAXX 01124 60155 32958 032// 10162 20103 40301 50001
AAXX 01124 60156 17460 10103 10160 20087 40313 56006 60001 70010 81600 333 81816
AAXX 01124 60230 12950 03603 10175 20011 40299 56002 60001 91146
AAXX 01124 60252 16960 /0605 10180 20035 40288 56021 60001
AAXX 01124 60096 NIL
AAXX 01124 81408 06/// /0704 10251 2//// 30134 40142 60114 333 20227 60017 58004 555 69925
BBXX DBLK 01121 99425 30090 41497 22716 10106 20069 40034 52012 70281 82400 22213 04101 20606 326// 41008
AAXX 01124 60285 32958 00404 10156 20113 40298 50002
AAXX 01124 60340 NIL
AAXX 01124 64501 32465 52110 10280 20234 3//// 4//// 84230 333 0//00 5//// 84810 94919 95839
AAXX 01124 64550 32470 7//// 10288 20239 30/// 40/// 878// 333 0//00 5//// 84815 87630 94939 95839
AAXX 01124 64556 32465 6//// 10283 20225 39529 40110 86200 333 0//00 58000 86813 94929 95839
AAXX 01124 64570 32560 61902 10290 20220 39616 40140 86200 333 0//00 58002 86826 94919 95839
AAXX 01121 76122 32956 01601 10032 21026 38611 40295 52006 91150 333 10212 20029 31001 58061 70000
AAXX 01121 76305 32970 03401 10130 21017 30164 40173 5//// 91150 333 10252 20120 30080 58025 70000
AAXX 01121 76373 32910 00000 11006 21041 38266 40226 5//// 91155 333 10270 21032 31045 58033 70000
AAXX 01121 76382 32960 03201 10110 20017 38959 40217 52010 91158 333 10268 20084 30050 58041 79999
AAXX 01121 76390 31950 01801 10081 21047 38288 40234 52010 70544 91130 333 10245 20060 30055 58049 70000
AAXX 01121 76423 32760 60000 10082 21011 38199 40198 52011 86630 91155 333 10255 20070 56090 58032 70000 86357
AAXX 01121 76458 32960 03602 10142 20134 30160 40165 52004 91148 333 10264 20118 30108 58033 70000
AAXX 01121 76499 32957 00000 10160 20155 30176 40197 5//// 91150 333 10300 20158 30153 58031 70000
AAXX 01121 76525 32960 00906 10116 20025 37504 40159 51001 91145 333 10188 20108 30101 55092 22351 58029 70000
AAXX 01121 76556 32960 01402 10140 20103 39140 40159 50001 91130 333 10292 20132 30118 58034 70000
AAXX 01121 76577 32460 60000 10130 20100 38065 40154 57004 86600 91140 333 10265 20122 30111 56500 58017 70000 86615
AAXX 01121 76612 32958 20000 10108 20086 38502 40183 5//// 82008 91150 333 10284 20105 30094 55097 21157 56005 58028 70000
AAXX 01121 76654 31956 03601 10226 20193 30162 40166 5//// 70544 91200 333 10294 20225 30220 58037 70000
AAXX 01121 76665 32958 00502 10084 20065 38147 40182 52010 91145 333 10270 20078 30067 58020 70000
AAXX 01121 76675 32960 01601 10002 21015 37401 40245 5//// 91147 333 10202 21010 31034 58014 79999
AAXX 01121 76683 32962 00401 10064 20034 37850 40238 55003 91145 333 10220 20064 30040 50171 55063 21449 58012 7000
AAXX 01121 76685 32950 00000 10068 20046 37886 40177 52002 91150 333 10232 20066 30027 58015 70000
AAXX 01121 76687 31460 22201 10130 20114 38716 40211 53010 70121 82500 91140 333 10225 20128 30110 563// 58023 70000 82622
AAXX 01121 76692 31920 03601 10215 20207 30174 40193 52006 74044 91150 333 10278 20212 30207 58023 70000
AAXX 01121 76737 31470 60000 10138 20122 38812 40203 50004 70222 866// 91135 333 10233 20137 30120 569// 58025 70000 86710
AAXX 01121 76750 32558 23601 10213 20212 30171 40182 5//// 81120 91150 333 10313 20204 30200 56220 58016 70038 81820
AAXX 01121 76762 32904 00000 10144 20128 38776 40150 53011 91140 333 10312 20144 30137 58/// 70000
AAXX 01121 76843 32365 10801 10194 20171 39506 40148 55015 81100 91145 333 10303 20186 30176 568// 58008 70000 81810
AAXX 01121 76845 32330 70503 10122 20106 37963 40180 56002 87700 91150 333 10222 20108 30089 56200 58010 87707
AAXX 01121 76848 01350 80401 10146 20123 38397 40121 51003 69911 75652 887// 91150 333 10212 20143 30130 561// 58009 69917 70003 88709
AAXX 01121 76243 32970 03107 10122 20062 39971 40272 54000 91130 333 10282 20092 30070 58121 70000
AAXX 01121 76311 32920 00000 10106 20041 39889 40170 50004 91140 333 10338 20100 30078 58030 70000
AAXX 01121 76640 31010 70000 10214 20211 30198 40210 57001 71044 8342/ 91140 333 10278 20200 30196 5639/ 58021 70000 83601 84440
AAXX 01121 76741 31240 73604 10238 20227 30130 40149 52007 70544 85220 91135 333 10276 20155 30139 561// 58010 70000 82704 83805
AAXX 01123 91502 31470 83205 10276 20252 40085 50007 71522 85907 333 10329 56709 59005 84815 81916 87280
AAXX 01123 91507 01470 73604 10270 20241 40085 52014 60061 72582 83936 333 10336 56000 59002 60067 82816 81917 83360
AAXX 01123 91520 31480 30000 10255 20248 40080 50010 70500 81238 333 10320 56000 59009 81815
AAXX 01123 91541 32480 10000 10260 20246 40085 52010 81100 333 10305 56700 81815
AAXX 01124 86011 NIL
AAXX 01124 86033 02470 81904 10254 20234 30014 40109 52025 60024 886// 333 20238 5//// 88714
AAXX 01124 86065 NIL
AAXX 01124 86068 02870 22305 10266 20226 39907 40098 52012 69924 81081 333 20236 50264 70002 81357 82070
AAXX 01124 86086 32370 52303 10260 20181 39999 40088 52012 85500 333 20210 5//// 85610
AAXX 01124 86097 01420 73305 10222 20217 39458 40101 52018 60064 71042 87500 333 20196 50114 70061 87610
AAXX 01124 86128 NIL
AAXX 01124 86134 02970 02208 10266 20193 39996 40081 54000 60074 333 20208 50604 70072
AAXX 01124 86170 32970 02202 10246 20171 39982 40084 52011 333 20160 50964
AAXX 01124 86185 32970 00000 10242 20173 30001 40095 52015 333 20230 5////
AAXX 01124 86192 32970 03204 10244 20173 39879 40096 52003 333 20172 5////
AAXX 01124 86210 NIL
AAXX 01124 86218 32970 01705 10262 20182 39998 40093 52021 333 20210 51134
AAXX 01124 86221 32970 01804 10248 20204 39971 40104 52024 333 20202 50484
AAXX 01124 86233 32970 01804 10244 20191 39910 40099 52017 333 20204 5////
AAXX 01124 86234 32970 01808 10256 20201 39858 40039 51015 333 20195 50094
AAXX 01124 86246 32970 01806 10250 20168 39795 40076 52020 333 20166 5////
AAXX 01124 86251 32970 00000 10242 20178 39905 40072 53020 333 20200 5////
AAXX 01124 86255 32970 01806 10244 20190 30045 40112 52018 333 20202 50854
AAXX 01124 86260 NIL
AAXX 01124 86268 32970 00802 10240 20176 39911 40074 52005 333 20194 5////
AAXX 01124 86285 32970 02305 10216 20188 39802 40083 52020 333 20178 50624
AAXX 01124 86297 32970 02305 10234 20197 39935 40039 52009 333 20200 50804
AAXX 01123 91502 31470 83205 10276 20252 40085 50007 71522 85907 333 10329 56709 59005 84815 81916 87280
AAXX 01123 91507 01470 73604 10270 20241 40085 52014 60061 72582 83936 333 10336 56000 59002 60067 82816 81917 83360
AAXX 01123 91520 31480 30000 10255 20248 40080 50010 70500 81238 333 10320 56000 59009 81815
AAXX 01123 91541 32480 10000 10260 20246 40085 52010 81100 333 10305 56700 81815
AAXX 01121 76122 32956 01601 10032 21026 38611 40295 52006 91150 333 10212 20029 31001 58061 70000
AAXX 01121 76305 32970 03401 10130 21017 30164 40173 5//// 91150 333 10252 20120 30080 58025 70000
AAXX 01121 76373 32910 00000 11006 21041 38266 40226 5//// 91155 333 10270 21032 31045 58033 70000
AAXX 01121 76382 32960 03201 10110 20017 38959 40217 52010 91158 333 10268 20084 30050 58041 79999
AAXX 01121 76390 31950 01801 10081 21047 38288 40234 52010 70544 91130 333 10245 20060 30055 58049 70000
AAXX 01121 76423 32760 60000 10082 21011 38199 40198 52011 86630 91155 333 10255 20070 56090 58032 70000 86357
AAXX 01121 76458 32960 03602 10142 20134 30160 40165 52004 91148 333 10264 20118 30108 58033 70000
AAXX 01121 76499 32957 00000 10160 20155 30176 40197 5//// 91150 333 10300 20158 30153 58031 70000
AAXX 01121 76525 32960 00906 10116 20025 37504 40159 51001 91145 333 10188 20108 30101 55092 22351 58029 70000
AAXX 01121 76556 32960 01402 10140 20103 39140 40159 50001 91130 333 10292 20132 30118 58034 70000
AAXX 01121 76577 32460 60000 10130 20100 38065 40154 57004 86600 91140 333 10265 20122 30111 56500 58017 70000 86615
AAXX 01121 76612 32958 20000 10108 20086 38502 40183 5//// 82008 91150 333 10284 20105 30094 55097 21157 56005 58028 70000
AAXX 01121 76654 31956 03601 10226 20193 30162 40166 5//// 70544 91200 333 10294 20225 30220 58037 70000
AAXX 01121 76665 32958 00502 10084 20065 38147 40182 52010 91145 333 10270 20078 30067 58020 70000
AAXX 01121 76675 32960 01601 10002 21015 37401 40245 5//// 91147 333 10202 21010 31034 58014 79999
AAXX 01121 76683 32962 00401 10064 20034 37850 40238 55003 91145 333 10220 20064 30040 50171 55063 21449 58012 7000
AAXX 01121 76685 32950 00000 10068 20046 37886 40177 52002 91150 333 10232 20066 30027 58015 70000
AAXX 01121 76687 31460 22201 10130 20114 38716 40211 53010 70121 82500 91140 333 10225 20128 30110 563// 58023 70000 82622
AAXX 01121 76692 31920 03601 10215 20207 30174 40193 52006 74044 91150 333 10278 20212 30207 58023 70000
AAXX 01121 76737 31470 60000 10138 20122 38812 40203 50004 70222 866// 91135 333 10233 20137 30120 569// 58025 70000 86710
AAXX 01121 76750 32558 23601 10213 20212 30171 40182 5//// 81120 91150 333 10313 20204 30200 56220 58016 70038 81820
AAXX 01121 76762 32904 00000 10144 20128 38776 40150 53011 91140 333 10312 20144 30137 58/// 70000
AAXX 01121 76843 32365 10801 10194 20171 39506 40148 55015 81100 91145 333 10303 20186 30176 568// 58008 70000 81810
AAXX 01121 76845 32330 70503 10122 20106 37963 40180 56002 87700 91150 333 10222 20108 30089 56200 58010 87707
AAXX 01121 76848 01350 80401 10146 20123 38397 40121 51003 69911 75652 887// 91150 333 10212 20143 30130 561// 58009 69917 70003 88709
AAXX 01121 76243 32970 03107 10122 20062 39971 40272 54000 91130 333 10282 20092 30070 58121 70000
AAXX 01121 76311 32920 00000 10106 20041 39889 40170 50004 91140 333 10338 20100 30078 58030 70000
AAXX 01121 76640 31010 70000 10214 20211 30198 40210 57001 71044 8342/ 91140 333 10278 20200 30196 5639/ 58021 70000 83601 84440
AAXX 01121 76741 31240 73604 10238 20227 30130 40149 52007 70544 85220 91135 333 10276 20155 30139 561// 58010 70000 82704 83805
AAXX 01121 76122 32956 01601 10032 21026 38611 40295 52006 91150 33310212 20029 31001 58061 70000
AAXX 01121 76305 32970 03401 10130 21017 30164 40173 5//// 91150 33310252 20120 30080 58025 70000
AAXX 01121 76373 32910 00000 11006 21041 38266 40226 5//// 91155 33310270 21032 31045 58033 70000
AAXX 01121 76382 32960 03201 10110 20017 38959 40217 52010 91158 33310268 20084 30050 58041 79999
AAXX 01121 76390 31950 01801 10081 21047 38288 40234 52010 70544 91130333 10245 20060 30055 58049 70000
AAXX 01121 76423 32760 60000 10082 21011 38199 40198 52011 86630 91155333 10255 20070 56090 58032 70000 86357
AAXX 01121 76458 32960 03602 10142 20134 30160 40165 52004 91148 33310264 20118 30108 58033 70000
AAXX 01121 76499 32957 00000 10160 20155 30176 40197 5//// 91150 33310300 20158 30153 58031 70000
AAXX 01121 76525 32960 00906 10116 20025 37504 40159 51001 91145 33310188 20108 30101 55092 22351 58029 70000
AAXX 01121 76556 32960 01402 10140 20103 39140 40159 50001 91130 33310292 20132 30118 58034 70000
AAXX 01121 76577 32460 60000 10130 20100 38065 40154 57004 86600 91140333 10265 20122 30111 56500 58017 70000 86615
AAXX 01121 76612 32958 20000 10108 20086 38502 40183 5//// 82008 91150333 10284 20105 30094 55097 21157 56005 58028 70000
AAXX 01121 76654 31956 03601 10226 20193 30162 40166 5//// 70544 91200333 10294 20225 30220 58037 70000
AAXX 01121 76665 32958 00502 10084 20065 38147 40182 52010 91145 33310270 20078 30067 58020 70000
AAXX 01121 76675 32960 01601 10002 21015 37401 40245 5//// 91147 33310202 21010 31034 58014 79999
AAXX 01121 76683 32962 00401 10064 20034 37850 40238 55003 91145 33310220 20064 30040 50171 55063 21449 58012 7000
AAXX 01121 76685 32950 00000 10068 20046 37886 40177 52002 91150 33310232 20066 30027 58015 70000
AAXX 01121 76687 31460 22201 10130 20114 38716 40211 53010 70121 8250091140 333 10225 20128 30110 563// 58023 70000 82622
AAXX 01121 76692 31920 03601 10215 20207 30174 40193 52006 74044 91150333 10278 20212 30207 58023 70000
AAXX 01121 76737 31470 60000 10138 20122 38812 40203 50004 70222 866//91135 333 10233 20137 30120 569// 58025 70000 86710
AAXX 01121 76750 32558 23601 10213 20212 30171 40182 5//// 81120 91150333 10313 20204 30200 56220 58016 70038 81820
AAXX 01121 76762 32904 00000 10144 20128 38776 40150 53011 91140 33310312 20144 30137 58/// 70000
AAXX 01121 76843 32365 10801 10194 20171 39506 40148 55015 81100 91145333 10303 20186 30176 568// 58008 70000 81810
AAXX 01121 76845 32330 70503 10122 20106 37963 40180 56002 87700 91150333 10222 20108 30089 56200 58010 87707
AAXX 01121 76848 01350 80401 10146 20123 38397 40121 51003 69911 75652887// 91150 333 10212 20143 30130 561// 58009 69917 7000388709
AAXX 01121 76243 32970 03107 10122 20062 39971 40272 54000 91130 33310282 20092 30070 58121 70000
AAXX 01121 76311 32920 00000 10106 20041 39889 40170 50004 91140 33310338 20100 30078 58030 70000
AAXX 01121 76640 31010 70000 10214 20211 30198 40210 57001 71044 8342/91140 333 10278 20200 30196 5639/ 58021 70000 83601 84440
AAXX 01121 76741 31240 73604 10238 20227 30130 40149 52007 70544 8522091135 333 10276 20155 30139 561// 58010 70000 82704 83805
AAXX 01121 78221 NIL
AAXX 01121 78224 31559 19900 10148 20135 30144 40221 53012 70544 81200 333 20145 81820
AAXX 01121 78229 12559 11001 10194 20169 30126 40201 52010 60004 81400 333 81620
AAXX 01121 78239 11559 20507 10240 20208 30205 40208 52010 60004 70500 82800 333 20235 82820
AAXX 01121 12345 12559 20605 10200 20197 30170 40200 54000 60004 82601 333 82620
AAXX 01121 78243 12559 50604 10205 20193 30096 40220 52013 60004 85100 333 85820
AAXX 01121 78255 12559 30000 10220 20204 30059 40208 52010 60004 81802 333 20220 81820
AAXX 01121 78264 11559 10102 10215 20194 30116 40191 52020 60004 70500 81100 333 20205 81820
AAXX 01121 78265 11558 20504 10212 20198 30094 40194 52010 60004 71144 82200 333 20211 82820
AAXX 01121 78256 NIL
AAXX 01121 78259 NIL
AAXX 01121 78268 11458 61109 10255 20232 30184 40203 54000 60004 70500 83200 333 83810 86825
BBXX 41010 01121 99289 70785 46/// /0000 10216 40242 53015 91150 22200 00236 10901 20401 300// 40901 70006 333 91201 555 11004 22004
BBXX 41009 01121 99285 70802 46/// /3004 10217 20182 40242 53012 91150 22200 00234 10901 300// 40901 70004 333 91204 555 11037 22039
BBXX 42057 01121 99168 70815 46/// /0810 10273 20225 40159 51010 91150 22200 00274 10703 20703 3//// 40802 70017 333 91212 555 11101 22107 31107 40812 61149 076101 072101 073100 074096 072100 071094 80711 91142
AAXX 01124 71805 01220 80925 10029 20026 30009 40018 56055 60071 76366 8677/ 333 60077 85704 83618 88458 91037 90710 91138 93100 555 60045
AAXX 01121 01281 16/// ///// 1//// 2//// 39767 49944 58018 60011
AAXX 01124 16008 12570 50105 10056 21005 38560 48518 51007 60001 85500 333 85630 92810
AAXX 01124 16084 12860 60404 10070 21041 30055 40225 58006 60001 82034 333 55310 82357
AAXX 01124 16088 12970 50000 10060 20010 30109 40229 51005 60001 82031 333 82360
AAXX 01124 16110 12998 49902 10120 20038 30219 40223 51001 60001 80002 333 55310 555 0100/
AAXX 01124 16134 12984 00217 10028 21027 37854 48530 51006 60001 333 55310 92835 95030
AAXX 01124 16153 12999 50603 10128 20102 39952 40216 51012 60001 85030 333 55300 85359 555 0213/
AAXX 01124 16158 12662 61402 10100 20011 30224 40231 50001 60001 86200 333 55300 86640
AAXX 01124 16206 NIL
AAXX 01124 16219 42970 01312 10046 20009 38144 48526 51007 6///1 333 55310
AAXX 01124 16252 12980 00000 10092 21088 39273 42828 50000 60001 333 55310 95000
AAXX 01124 16280 12697 61207 10112 20077 30001 40225 58002 60001 83550 333 55300 83640 84356 555 0212/
AAXX 01124 16310 12998 03502 10126 21017 30001 40224 50000 60001 333 55310 555 0100/
AAXX 01124 16320 12560 23509 10120 20030 30207 40219 51004 60001 82100 333 55310 82820 555 0217/
AAXX 01124 16325 NIL
AAXX 01124 16360 12598 13414 10112 20000 30075 40211 58003 60001 81100 333 55310 81820 555 0318/
AAXX 01124 16400 NIL
AAXX 01124 16420 12698 23606 10154 20056 30168 40233 58000 60001 82500 333 55310 82640 555 0100/
AAXX 01124 16429 12470 53102 10162 20142 30220 40232 56008 60001 84201 333 55310 81818 83820
AAXX 01124 16470 11460 73012 10150 20120 30002 40238 51001 69901 70252 84520 333 55300 22/// 84610 87456 95060
AAXX 01124 16480 12998 02104 10160 20031 30159 40220 58003 60001 333 55310 555 0200/
AAXX 01124 16522 12497 62715 10150 20129 39985 40228 51003 60001 86200 333 55300 86815 555 0500/
AAXX 01124 16539 NIL
AAXX 01124 16550 12798 50000 10182 20131 30037 40214 51009 60001 85030 333 55310 85356 555 0100/
AAXX 01121 45032 36/// /0602 10158 20111 30204 40221 52002
AAXX 01121 45035 36/// /1403 10168 20118 30176 40218 52003
AAXX 01121 45039 36/// /2501 10154 20119 30205 40221 52002
AAXX 01121 45044 36/// /0905 10157 20121 30123 40217 52001
AAXX 01124 16021 12988 63402 10050 21026 37999 48509 51013 60001 80006 333 92852
AAXX 01124 16022 12884 42704 10059 21067 37874 48500 51003 60001 83031 333 55310 83358 92832
AAXX 01124 16033 12675 62904 10008 21014 38811 48513 51005 60001 81606 333 81735 92802
AAXX 01124 16040 12765 60000 10014 21022 39283 42807 58002 60001 86030 333 86356 92830
AAXX 01124 16052 11460 73006 11086 21104 36655 47095 52004 60001 70244 85071 333 55300 85310
AAXX 01124 16061 12270 51906 10072 20072 39374 42819 50006 60001 82530 333 55307 82603 83361
AAXX 01124 16098 12980 22503 10090 20004 30172 40223 58001 60001 80001
AAXX 01124 16138 11925 20000 10052 20022 30217 40228 50000 60001 71040 80001
AAXX 01124 16148 12980 03003 10077 20024 30220 40233 51003 60001 333 55310
AAXX 01124 16168 12480 71812 10080 21038 39467 42822 51007 60001 87500 333 87613
AAXX 01124 16172 12961 01802 10068 21043 39943 40247 50002 60001
AAXX 01124 16179 12982 10503 10082 21060 39534 42822 50002 60001 80001
AAXX 01124 16224 12675 70103 10074 21037 39901 40225 58001 60001 87500 333 55300 87640
AAXX 01124 16232 12998 10000 10122 20000 30162 40216 51005 60001 80005 333 55300 555 0117/
AAXX 01124 16245 12565 70905 10126 20019 30204 40231 50001 60001 87500 333 87630
AAXX 01124 16253 12960 00806 10104 21001 30223 40235 58008 60001 333 55310
AAXX 01124 16258 12970 00000 10060 21066 39214 42816 51004 60001
AAXX 01124 16263 12980 02910 10040 21081 38953 48512 58002 60001
AAXX 01124 16294 42998 09901 10142 20063 30035 40229 58002 6///1 555 0100/
AAXX 01124 16337 12999 02005 10116 21015 39647 40218 50009 60001 555 0216/
AAXX 01124 16344 12982 02804 10010 21099 38331 48515 51007 60001 333 55310 95000 95100
AAXX 01124 16434 12480 43606 10108 20052 39030 48535 51006 60001 84501 333 84615 95010 95100
AAXX 01124 16450 12475 12702 10080 20042 39116 48575 58004 60001 81100 333 81810
AAXX 01124 16459 NIL
AAXX 01124 16546 NIL
AAXX 01124 16564 12598 52525 10168 20146 30082 40222 58001 60001 84001 333 83820 83630 555 0300/
AAXX 01124 13600 12970 03204 10070 21035 30182 40235 52010 60001
AAXX 01124 13610 12965 00000 10044 21084 39813 40247 54004 60001
AAXX 01124 13611 12965 00000 10084 21004 30101 40194 52005 60001
AAXX 01124 13619 12970 02204 10010 21047 39453 42831 54002 60001
AAXX 01124 13622 12970 02204 10102 20008 30198 40205 52007 60001
AAXX 01124 13624 12970 03602 10108 21016 30162 40201 57008 60001
AAXX 01124 13625 NIL
AAXX 01124 13629 12970 00404 11010 21045 39139 42793 54000 60001
AAXX 01124 13601 12970 00000 10100 21026 30089 40190 54002 60001
AAXX 01124 13602 NIL
AAXX 01124 13623 12970 00404 10100 21086 30217 40223 52006 60001
AAXX 01124 16206 12682 50403 10054 21062 30221 40230 58001 60001 81130 333 81835 84360
AAXX 01124 16546 12460 73109 10160 20122 30206 40234 58002 60001 87800 333 83818 85640
AAXX 01124 61766 31950 80612 10214 20023 30098 40143 70622 87071 333 0//00 59009 86360
AAXX 01124 61769 31958 70405 10230 20042 3//// 4//// 70622 84031 333 0//00 5//// 84359 84075
AAXX 01124 16045 NIL
AAXX 01124 16090 12960 21603 10084 20001 30143 40227 50000 60001 80001 333 55310
AAXX 01124 16149 12970 03401 10077 21026 30210 40226 51002 60001
AAXX 01124 16261 NIL
AAXX 01124 16453 12997 02506 10150 20058 30150 40228 57009 60001 333 55310 555 0100/
AAXX 01124 16560 12462 73214 10170 20104 30227 40233 58001 60001 87800 333 55305 82818 85620
AAXX 01124 78958 01460 50807 10265 20226 30153 40163 69931 78081 85400 333 10296 20235 58000 70015 84817
AAXX 01121 78221 NIL
AAXX 01121 78224 31559 19900 10148 20135 30144 40221 53012 70544 81200 333 20145 81820
AAXX 01121 78229 12559 11001 10194 20169 30126 40201 52010 60004 81400 333 81620
AAXX 01121 78239 11559 20507 10240 20208 30205 40208 52010 60004 70500 82800 333 20235 82820
AAXX 01121 12345 12559 20605 10200 20197 30170 40200 54000 60004 82601 333 82620
AAXX 01121 78243 12559 50604 10205 20193 30096 40220 52013 60004 85100 333 85820
AAXX 01121 78255 12559 30000 10220 20204 30059 40208 52010 60004 81802 333 20220 81820
AAXX 01121 78264 11559 10102 10215 20194 30116 40191 52020 60004 70500 81100 333 20205 81820
AAXX 01121 78265 11558 20504 10212 20198 30094 40194 52010 60004 71144 82200 333 20211 82820
AAXX 01121 78256 NIL
AAXX 01121 78259 NIL
AAXX 01121 78268 11458 61109 10255 20232 30184 40203 54000 60004 70500 83200 333 83810 86825
AAXX 01121 45032 36/// /0602 10158 20111 30204 40221 52002
AAXX 01121 45035 36/// /1403 10168 20118 30176 40218 52003
AAXX 01121 45039 36/// /2501 10154 20119 30205 40221 52002
AAXX 01121 45044 36/// /0905 10157 20121 30123 40217 52001
AAXX 01124 78958 01460 50807 10265 20226 30153 40163 69931 78081 85400 333 10296 20235 58000 70015 84817
AAXX 01124 61970 16/// ///// 10322 20260 40088 60001 333 59013 555 60005
AAXX 01124 61972 16/// /1707 10287 20224 40093 60001 333 59013 90710 91114 555 60005
AAXX 01124 61980 12562 60404 10289 20226 40104 60001 86832 333 59003 82821 85650 90710 91106 92427 555 60005
AAXX 01124 67005 12575 33216 10311 20235 40095 60001 82803 333 59009 82822 90710 91123 555 60005
AAXX 01124 84673 21665 20000 10142 20096 37366 70206 82100 333 20113 56900 58009 60054 82846
AAXX 01124 84658 31662 60000 10255 20248 39866 40101 702// 865// 333 20240 560// 59001 86633
AAXX 01124 84401 31660 60000 10235 20183 30074 40118 70122 8353/ 333 20235 5600/ 59016 83640 83360
AAXX 01124 84377 31458 80000 10243 20226 30003 40109 70244 84520 333 20223 5600/ 59007 84613 85460
AAXX 01124 84452 31660 71710 10200 20179 30097 40128 70322 875// 333 20195 560// 59003 87635
AAXX 01124 84628 34960 21904 10205 20190 30112 40128 70140 80001 333 20195 56001 59009 82073
AAXX 01124 84720 31960 39901 10218 20177 39503 40170 701// 80010 333 20178 56090 59017 83468
AAXX 01124 84515 31460 89902 10246 20229 39940 40117 70329 8453/ 333 20214 5699/ 58000 84617 85357
AAXX 01124 84735 21360 8//// 10072 20049 36463 702// 82150 333 20043 56990 58009 60094 82810 86630
AAXX 01124 84782 31962 60000 10214 20135 39618 40120 70222 8603/ 333 20180 5601/ 59019 86360
AAXX 01124 84686 21560 80000 10099 20075 36894 70222 8452/ 333 20092 56990 59006 60084 81615 83656 85464
AAXX 01124 84691 31960 51302 10220 20193 30117 40124 70304 8503/ 333 20160 5600/ 59023 85360
AAXX 01124 84501 31958 22003 10193 20164 30097 40124 71010 82030 333 20187 56000 59008 82365
AAXX 01124 84688 31257 70000 10070 20021 36673 702// 876// 333 20060 569// 58001 83640 84650
AAXX 01124 84425 31560 80000 10238 20227 39931 40151 702// 885// 333 20/// 568// 59002 88620
AAXX 01124 84472 31560 40000 10104 20073 37415 7012/ 84700 333 20086 56900 58002 84733
AAXX 01124 84370 31960 09902 10251 20233 30072 40105 702// 333 20213 59008
AAXX 01124 84752 22860 33205 10132 20087 37533 70144 83030 333 20096 56090 58006 69904 83360
BBXX 46089 01121 99459 71258 46/// /1409 10094 20063 40194 52006 91150 22200 00092 11105 20804 325// 41103 70024 333 91211 555 11097 22103 31057 41412 61149 145091 145098 145093 145095 145094 145099
BBXX 51000 01121 99235 71541 46/// /3604 10212 40171 58010 91150 22200 00229 11004 312// 41004 70019 333 91205 555 11042 22043 31132 43605 61149 358040 359041 345025 336013 340014 354015
BBXX 51101 01121 99243 71621 46/// /1406 10214 20192 40178 58007 91150 22200 00238 11004 20501 309// 41003 70019 333 91208 555 11066 22069 31116 41308 61149 139063 136070 132056 125065 089064 092059
BBXX 46061 01121 99602 71468 46/// /3512 11027 40031 58036 91150 22200 00052 10502 20502 300// 40901 70012 333 91214 555 11126 22132 31107 43514 61149 353118 354119 348111 347113 352120 348116
BBXX 46083 01121 99582 71380 46/// /1219 10020 21006 49983 56049 91150 22200 00063 10809 20808 300// 41101 70043 333 91224 555 11209 22224 31103 41126 61149 116195 120195 122188 120190 115203 116193 81122 91148
AAXX 01124 91643 11498 83211 10274 20254 40090 51007 69991 72522 84370 333 10301 5669/ 84918 88460
AAXX 01124 63980 42480 83115 10297 20240 40100 84232 333 59006 84817 83359 87075 94331 91124
AAXX 01124 91203 32471 80814 10306 20261 30129 40134 52007 82236 333 56299 58000 82817 83368 87080 555 90112
BBXX 44008 01121 99405 70692 46/// /3108 10088 20056 40174 52031 91150 22200 00116 333 91210 555 11088 22092 31051 43011 61149 309083 311083 310088 307086 307085 308088
BBXX 44172 01121 99445 70634 46/// ///// 1//// 91201 22200 00053 10803 20803 70016
BBXX 44097 01121 99410 70711 46/// ///// 1//// 91202 22200 00109 10803 20803 70014
BBXX 42362 01121 99278 70907 46/// /2204 10222 20194 40237 53010 91200
BBXX 42363 01121 99282 70892 46/// /2105 10222 20178 40237 52006 91200 333 91205
BBXX 44011 01121 99411 70666 46/// /3109 10085 20063 40131 52040 91150 22200 00091 10706 20706 70031 333 91211 555 11100 22106 31055 41213 61149 310094 310098 306095 306095 308099 306105
BBXX 41046 01121 99238 70683 46/// /0905 10247 20207 40223 53012 91150 22200 00252 10903 20401 300// 40903 70016 333 91206 555 11053 22055 31149 40806 61149 089048 105037 104041 104039 107040 106038 80805 91149
AAXX 01124 48601 11560 70302 10266 20247 30101 40105 60001 70522 82532 333 10294 82625 84364 87077
AAXX 01124 48615 11558 81405 10253 20239 30109 40115 69981 76062 83547 333 10270 83620 88272
AAXX 01124 48620 11662 70702 10262 20246 30098 40107 69901 70586 83548 333 10300 83635 84365 87276
AAXX 01124 48647 11464 72804 10293 20256 30083 40108 60001 71322 82931 333 10336 81917 87078
AAXX 01124 48650 11460 72803 10282 20255 30086 40104 60001 71322 82942 333 10320 81917 86078
AAXX 01124 48657 11560 70403 10265 20243 30095 40113 60001 70522 82531 333 10310 82624 84366 87078
AAXX 01124 48665 11464 72903 10281 20249 30098 40108 60001 71322 81932 333 10328 81917 87078
AAXX 01124 96413 11565 73504 10277 20250 30086 40112 60061 70398 82533 333 10310 82620 84365 86080
AAXX 01124 96421 12468 70201 10269 20252 30069 40105 60001 82531 333 10321 82618 85365
AAXX 01124 96441 11468 71102 10258 20249 30076 40103 60001 70192 82541 333 10316 82614 86080
AAXX 01124 96449 11460 70202 10268 20253 30086 40105 69961 76062 8357/ 333 10315 83614 87365
AAXX 01124 96465 12470 70310 10284 20252 30075 40108 60001 83842 333 10312 82810 87080
AAXX 01124 96471 11468 70405 10281 20245 30103 40106 60001 70222 82848 333 10314 81814 83364 87277
AAXX 01124 96481 12462 63604 10273 20236 30087 40106 60001 82841 333 10319 81817 83364 85080
AAXX 01124 96491 11465 70710 10277 20249 30102 40114 6///1 70382 85848 333 10293 83815 87277
AAXX 01124 91574 46/// ///// 29080 39942 49948 56047
AAXX 01124 91570 NIL
AAXX 01124 91598 NIL
AAXX 01121 06206 45967 8//11 10095 20075 39977 40029 58008 8//// 333 87/64 88/67 91013 91114 91212
AAXX 01121 06207 47961 82312 10081 20071 39985 40038 58004 70381 8//// 333 88/66 91013 91117 91215
AAXX 01121 06239 45964 8//13 10096 20075 39946 40007 51001 8//// 333 88/66 91015 91117 91214
AAXX 01121 06252 46/// /2311 10101 20090 39988 40034 58015 222// 00091 10503 333 91013 91116 91214
AAXX 01121 06260 17233 82205 10115 20110 30078 40080 58012 69901 75181 8//// 333 84/04 87/05 88/07 91009 91114 91208
AAXX 01121 06270 15380 72307 10110 20098 30060 40060 58004 60001 8//// 333 81/09 84/13 86/16 91011 91114 91209
AAXX 01121 06290 17259 82304 10115 20112 30047 40087 58004 60011 72385 8//// 333 82/05 85/06 86/08 91006 91109 91206
AAXX 01124 91577 06/// /0000 10231 20214 30062 40083 58001 60184 333 20227 59013 60037
AAXX 01124 91579 06/// /1010 10235 20227 30075 40083 58007 60084 333 20230 59010 60037
AAXX 01124 91582 04360 81208 10237 20234 30052 40086 58006 60081 763// 333 60037 90710 91112 555 60025
AAXX 01124 91583 06/// /1802 10228 20223 30075 40090 50001 60174 333 20229 59009 60117
AAXX 01124 91587 06/// /1602 10229 20221 30049 40094 58002 60104 333 20228 59002 60007
AAXX 01124 91590 04650 81206 10214 20207 30054 40097 58003 60041 700// 333 60027 90710 91111 555 69945
AAXX 01124 91592 06/// /0705 10218 20216 30015 40100 58004 60234 333 20214 58001 60037
AAXX 01124 91596 06/// /1008 10218 20208 39993 40102 50000 60154 333 20208 58004 60057
AAXX 01124 91573 NIL
AAXX 01124 91203 32471 80814 10306 20261 30129 40134 52007 82236 333 56299 58000 82817 83368 87080 555 90112
AAXX 01121 06201 47960 42111 10090 20076 39954 40006 58009 75186 8//// 333 84/64 91012 91114 91212
AAXX 01121 06203 45962 72112 10105 20096 39999 40050 58017 8//// 333 87/59 91014 91116 91213
AAXX 01121 06204 45965 82212 10105 20093 39985 40035 58017 8//// 333 81/62 88/66 91014 91115 91213
AAXX 01121 06205 45962 82213 10090 20068 39930 49988 58001 8//// 333 85/60 88/64 91016 91118 91215
AAXX 01121 06208 47266 12210 10100 20091 30007 40056 58003 70131 8//// 333 81/06 91012 91113 91210
AAXX 01121 06211 45967 82010 10092 20074 39968 40023 58010 8//// 333 88/66 91012 91118 91215
AAXX 01121 06212 45964 82110 1//// 2//// 39988 40051 58010 8//// 333 81/62 88/65 91012 91115 91214
AAXX 01121 06235 15263 72209 10101 20093 30058 40058 58011 60001 8//// 333 85/04 87/67 91012 91115 91211
AAXX 01121 06240 17371 82310 10118 20108 30076 40071 58011 69901 72380 8//// 333 87/08 88/09 91013 91113 91210
AAXX 01121 06251 15361 22108 10085 20083 30051 40052 58005 60001 8//// 333 81/08 91011 91114 91211
AAXX 01121 06258 46/// /2109 333 91010 91112 91210
AAXX 01121 06269 17480 82307 10117 20101 30081 40075 58008 69901 70385 8//// 333 88/10 91010 91111 91209
AAXX 01121 06280 17375 82407 10115 20101 30064 40068 57003 69931 70251 8//// 333 85/09 88/10 91010 91113 91209
AAXX 01121 06310 17371 82109 10110 20105 30072 40082 58016 69931 72385 8//// 333 81/08 83/10 87/12 91012 91112 91210
AAXX 01121 06344 17269 82307 10119 20113 30084 40078 58011 69911 72381 8//// 333 86/06 88/08 91012 91114 91210
AAXX 01121 06370 17360 82205 10126 20124 30068 40093 58013 60041 78185 8//// 333 81/08 83/09 87/11 91008 91110 91207
AAXX 01121 06380 17364 82207 10120 20110 39974 40112 58012 60021 70285 8//// 333 86/07 88/08 91010 91113 91209
BBXX DBBC 01121 99535 10100 46/// /2507 10109 20097 40067 52008 22220 00054
BBXX DBBA 01121 99/// ///// 46/// +//// 10091 20090 40454 57004 22220 00057
BBXX DBKR 01121 99541 10121 46/// /2104 10090 20090 40053 57003 22200 00058
AAXX 01124 16325 12998 02807 10136 20034 30206 40220 50000 60001 333 98080 555 0100/
BBXX DBCK 01121 99/// ///// 46/// ///// 10111 20111 40062 52005 22220 00054
BBXX DBBI 01121 99535 10100 46/// /2507 10111 20111 40067 52008 22260 00053
AAXX 01121 37682 32997 71602 11010 21020 38104 48491 52003 8707/
AAXX 01121 37717 32598 61904 10004 21044 38030 48459 57009 82531 555 1/102
AAXX 01121 37788 41795 60000 10023 21037 39184 40196 57010 71022 82530
BBXX DBND 01121 99536 10086 46/// /2306 10106 20098 40061 52005 22220 00065
BBXX 46232 01121 99325 71174 46/// ///// 1//// 91138 22200 00147 11404 20902 328// 41403 70018
BBXX 46247 01121 99378 71228 46/// ///// 1//// 91151 22200 00115 11304 21003 329// 41303 70022
BBXX 46243 01121 99462 71241 46/// ///// 1//// 91159 22200 00090 11303 21002 326// 41302 70015
BBXX 46236 01121 99368 71219 46/// ///// 1//// 91150 22200 00121 11204 21002 328// 41203 70020
BBXX 46229 01121 99438 71246 46/// ///// 1//// 91151 22200 00098 11304 21003 327// 41303 70022
BBXX 46225 01121 99329 71174 46/// ///// 1//// 91144 22200 00149 11302 20801 323// 41302 70009
BBXX 46213 01121 99403 71247 46/// ///// 1//// 91154 22200 00108 11304 20902 328// 41303 70020
BBXX 46215 01121 99352 71209 46/// ///// 1//// 91138 22200 00125 11303 21002 328// 41303 70017
BBXX 46218 01121 99345 71208 46/// ///// 1//// 91202 22200 00133 11405 21003 329// 41404 70025
AAXX 01124 89642 42758 83109 11012 21029 39795 49848 58002 885// 333 10053 21012 88650
BBXX 41101 01124 99146 70562 46/// /0822 10266 20221 40166 52024 22200 00268 10806 70030 555 1/028
BBXX 61001 01124 99434 10078 46/// /1104 10131 20105 40210 54000 22200 00138 10702 70011
BBXX DBBH 01121 99378 10157 41598 13411 10159 20067 40228 57013 70100 81110 22241 04159 20401
AAXX 01121 10044 46/// /2412 10088 20082 30010 40041 51005 222// 00054 333 55300 91116 91213
AAXX 01121 10124 46/// ///// 10094 2//// 30012 40050 50004 222// 00056 333 553// 911// 912//
BBXX 62087 01121 99547 10068 46/// /0602 10094 20090 4//// 5//// 22230 00080
BBXX 44099 01121 99369 70757 46/// ///// 1//// 91152 22200 00101 10801 20801 70005
BBXX 41110 01121 99341 70777 46/// ///// 1//// 91151 22200 00133 10601 20601 70005
BBXX 42099 01121 99273 70842 46/// ///// 1//// 91157 22200 00223 10501 20501 70003
BBXX 41113 01121 99284 70805 46/// ///// 1//// 91151 22200 00213 11101 70003
BBXX 41112 01121 99307 70813 46/// ///// 1//// 91151 22200 00166 11001 21001 70003
AAXX 01121 03951 17557 /2711 10083 20058 39976 40002 54000 60021 78186 87/// 333 87/25 90710 91117
AAXX 01121 03953 11575 62509 10093 20033 39961 49997 50002 69961 72581 868// 333 85826 86635 92448
AAXX 01121 03955 11683 42407 10074 20051 39799 49994 57007 60021 70281 81902 333 81930 83070
AAXX 01121 03956 17859 /2407 10088 20062 39913 49989 58006 60011 71086 84/// 333 84/57 87/63
AAXX 01121 03962 11475 12208 10077 20049 39950 49974 58004 69991 70181 81300 333 81712 81918
AAXX 01121 03963 17665 /2414 10084 20039 39921 49949 55002 69931 7038/ 82/// 333 82/32 84/59 85/73 90710 91120
AAXX 01121 03966 17566 /2306 10070 20044 39878 49970 57007 69991 78185 85/// 333 81/23 83/29 85/36
AAXX 01121 03967 11580 52209 10073 20042 39855 49968 58006 69931 70361 81832 333 81820 84075
AAXX 01121 03969 11570 42310 10079 20041 39859 49961 58013 69911 70162 81832 333 81820 83070
AAXX 01121 03973 11468 72105 10051 20042 39690 49942 58005 60031 72582 873// 333 81918 86822 85640
AAXX 01121 03976 NIL
AAXX 01121 03980 17557 /2309 10059 20045 39882 49907 51001 60021 78186 87/// 333 87/29 90710 91118
BBXX 51204 01121 99213 71581 46/// ///// 1//// 91152 22200 00246 11202 21001 328// 41201 70010
BBXX 51202 01121 99214 71577 46/// ///// 1//// 91140 22200 00238 11003 21003 304// 41101 70014
BBXX 46219 01121 99332 71199 46/// ///// 1//// 91158 22200 00137 11105 21003 330// 41104 70024
BBXX 46224 01121 99332 71175 46/// ///// 1//// 91136 22200 00145 11302 21001 322// 41301 70008
BBXX 46214 01121 99379 71235 46/// ///// 1//// 91150 22200 00117 11305 21003 330// 41304 70026
AAXX 01121 01046 16/// /1417 11010 21061 39987 49994 58008 6//// 333 91127
AAXX 01121 01092 46/// /1513 11010 21041 333 91121
AAXX 01121 01199 11570 81507 11054 21068 39595 40071 57005 6//// 73632 885//
AAXX 01121 01329 11260 83102 10031 20021 39840 49900 55009 60091 78082 888// 333 91110
AAXX 01121 01337 16/// /1001 10009 21005 39836 49902 57009 60051 333 91106
AAXX 01121 01374 41480 80000 11028 21030 72374 886//
AAXX 01121 01436 41261 72312 10084 20072 70262 8687/ 222// 00082 333 91114
AAXX 01121 01265 16/// /2005 11019 21041 39352 49933 55011 60011 333 91111
AAXX 01121 01375 16/// /1707 11058 21063 6//// 333 91117
AAXX 01121 01440 46/// /2212 11006 21007 38651 49913 58011 333 91114
AAXX 01121 01469 16/// /1902 10007 21014 39773 49944 57018 69951 333 91105
AAXX 01124 78862 11476 40714 10256 20211 30168 40191 60001 70511 84802 333 10282 20219 58000 84818
AAXX 01124 014G24KT SHRA BKN015 BKN038
AAXX 01124 TAF TKPN 011000Z 0112/0212 07014KT 9999 SCT022 PROB40 TEMPO 0112/0212 07014G24KT SHRA BKN015 BKN038
AAXX 01124 TAF TQPF 011000Z 0112/0212 07014KT 9999 SCT022 PROB40 TEMPO 0112/0212 07014G24KT SHRA BKN015 BKN038
AAXX 01124 TAF TUPJ 011000Z 0112/0212 07014KT 9999 SCT022 PROB40 TEMPO 0112/0212 07014G24KT SHRA BKN015 BKN038
AAXX 01124 2400/2424 07016KT 9999 SCT020 SCT040 PROB40 TEMPO 2400/2412 07018G28KT SHRA TEMPO 2412/2424 07016G26KT SHRA
AAXX 01124 TAF TUPJ 041000Z 04012/0512 07008KT 9999 SCT016 BKN038 SCT270 TEMPO 0412/0512 SHRA BKN015 PROB40 TEMPO 0418/0512 5000 SHRA BKN014 BKN036 PROB30 0420/0512 4000 TSRA FEW012CB
AAXX 01124 918 4000 TSRA FEW012CB
AAXX 01124 N015 BKN036 PROB40 TEMPO 0704/0724 3000 +TSRA SCT011CB BKN012 BECMG 0712/0714 14008KT
AAXX 01124 21/2712 07017G28KT 5000 SHRA BKN015 BKN036 PROB TEMPO 2700/2712 4000 TSRA FEW013CB
AAXX 01124 PROB30 TEMPO 0800/0806 4000 TSRA FEW012CB PROB40 TEMPO 0800/0824 2000 +SHRA/TSRA SCT010CB BKN012 BKN250
AAXX 01121 01419 16/// /2105 10057 20041 60031 333 91111
AAXX 01121 01228 46/// /1505 10050 20025 39857 49864 55003 333 91111
AAXX 01121 01340 16/// /0806 10009 21025 39048 49905 57009 69941 333 91114
AAXX 01121 01425 16/// /2801 10023 20020 39856 49935 57007 60031 333 91103
AAXX 01124 89532 42980 10703 10024 21057 39836 49863 57027 80002 333 10039 21022
AAXX 01124 48300 32560 11205 10261 20196 39799 40109 52005 81500 333 10305 59024
AAXX 01124 48327 32960 00000 10273 20191 39782 40135 52011 333 10320 59010
AAXX 01124 48331 32562 10000 10270 20196 39899 40128 52007 81100 333 10320 59014
AAXX 01124 48353 32662 21002 10250 20175 39845 40135 52011 81130 333 10300 59010
AAXX 01124 48356 32960 00000 10245 20165 39953 40151 52012 333 10291 59016
AAXX 01124 48375 NIL
AAXX 01124 48378 31558 30000 10270 20210 30075 40127 52011 71011 82505 333 10318 59010
AAXX 01124 48381 32960 20000 10261 20184 39920 40137 52008 80005 333 10299 59010
AAXX 01124 48407 31959 30201 10270 20165 39988 40129 52010 70511 80005 333 10320 59016
AAXX 01124 48431 NIL
AAXX 01124 48456 NIL
AAXX 01124 48480 31557 60000 10291 20215 30109 40114 52014 70522 83836 333 10325 59009
AAXX 01124 48500 31556 83305 10273 20205 30112 40118 52012 71022 8255/ 333 10315 59009
AAXX 01124 48551 01440 83603 10242 20232 30104 40112 52008 60092 72995 83877 333 10265 59004 60047 70169
AAXX 01124 48565 31457 70803 10266 20229 30084 40094 52014 71022 82246 333 10301 59006
AAXX 01124 48569 11459 80000 10240 20225 30062 40103 52012 60352 71022 86826 333 10244 59021 71394
AAXX 01124 48583 31558 70000 10254 20241 30103 40109 52019 71022 82246 333 10280 58003 71394
AAXX 01124 48310 32560 20000 10240 20198 39675 40131 52011 82500 333 10310 59016
AAXX 01124 48325 32660 10000 10256 20217 39874 40117 52017 81500 333 10335 59013
AAXX 01124 48329 31957 00000 10271 20192 39780 40116 52004 70500 333 10322 59018
AAXX 01124 48352 32962 00000 10265 20178 39944 40144 52010 333 10300 59012
AAXX 01124 48357 32960 21002 10228 20166 39986 40157 52018 80001 333 10300 59016
AAXX 01124 48380 31958 00000 10274 20225 30036 40130 52012 71000 333 10323 59014
AAXX 01124 48383 31957 00802 10235 20166 39984 40146 52016 71000 333 10294 59018
AAXX 01124 48403 31957 00000 10275 20190 39925 40134 52013 70500 333 10311 59008
AAXX 01124 48405 31958 20503 10255 20191 39970 40133 52012 71000 80005 333 10295 59019
AAXX 01124 48420 31957 60000 10273 20210 30111 40116 52009 71022 83056 333 10313 59009
AAXX 01124 48421 31556 60000 10292 20228 30005 40118 52015 71022 83505 333 10345 59011
AAXX 01124 48425 31550 80603 10295 20201 30115 40125 52012 70522 83556 333 10325 59010
AAXX 01124 48426 31559 60000 10299 20165 30106 40119 52009 70522 82556 333 10322 59012
AAXX 01124 48429 32960 60304 10280 20174 30113 40120 52008 82036 333 10311 59007
AAXX 01124 48430 NIL
AAXX 01124 48450 31956 20000 10295 20177 30092 40125 52010 70500 80005 333 10327 59009
AAXX 01124 48459 31959 40604 10301 20208 30114 40116 52013 70511 84050 333 10324 59008
AAXX 01124 48465 31958 50000 10273 20211 30114 40118 52009 71011 80006 333 10293 59010
AAXX 01124 48550 01457 70506 10260 20238 30100 40107 52001 60362 71096 82876 333 10283 59010 60017 70356
AAXX 01124 48552 01456 82903 10237 20230 30100 40106 52007 60792 76196 85277 333 10248 59016 60027 70835
AAXX 01124 48566 01560 80503 10248 20226 30097 40106 52013 60102 70262 82847 333 10295 59013 60017 70106
AAXX 01124 48568 11461 71703 10242 20230 30093 40101 52013 60512 70162 82836 333 10248 59016 72368
AAXX 01124 78862 11476 40714 10256 20211 30168 40191 60001 70511 84802 333 10282 20219 58000 84818
AAXX 01124 014G24KT SHRA BKN015 BKN038
AAXX 01124 TAF TKPN 011000Z 0112/0212 07014KT 9999 SCT022 PROB40 TEMPO 0112/0212 07014G24KT SHRA BKN015 BKN038
AAXX 01124 TAF TQPF 011000Z 0112/0212 07014KT 9999 SCT022 PROB40 TEMPO 0112/0212 07014G24KT SHRA BKN015 BKN038
AAXX 01124 TAF TUPJ 011000Z 0112/0212 07014KT 9999 SCT022 PROB40 TEMPO 0112/0212 07014G24KT SHRA BKN015 BKN038
AAXX 01124 2400/2424 07016KT 9999 SCT020 SCT040 PROB40 TEMPO 2400/2412 07018G28KT SHRA TEMPO 2412/2424 07016G26KT SHRA
AAXX 01124 TAF TUPJ 041000Z 04012/0512 07008KT 9999 SCT016 BKN038 SCT270 TEMPO 0412/0512 SHRA BKN015 PROB40 TEMPO 0418/0512 5000 SHRA BKN014 BKN036 PROB30 0420/0512 4000 TSRA FEW012CB
AAXX 01124 918 4000 TSRA FEW012CB
AAXX 01124 N015 BKN036 PROB40 TEMPO 0704/0724 3000 +TSRA SCT011CB BKN012 BECMG 0712/0714 14008KT
AAXX 01124 21/2712 07017G28KT 5000 SHRA BKN015 BKN036 PROB TEMPO 2700/2712 4000 TSRA FEW013CB
AAXX 01124 PROB30 TEMPO 0800/0806 4000 TSRA FEW012CB PROB40 TEMPO 0800/0824 2000 +SHRA/TSRA SCT010CB BKN012 BKN250
AAXX 01124 48302 31558 41203 10173 20151 38492 40121 52004 71011 82835 333 10200 59021
AAXX 01124 48304 32965 00000 10243 20208 39663 40123 52005 333 10303 59016
AAXX 01124 48334 31958 00000 10250 20196 39762 40123 52006 71000 333 10310 59013
AAXX 01124 48360 31959 00000 10245 20176 39875 40137 52011 71000 333 10293 59013
AAXX 01124 48372 31958 20000 10277 20239 30068 40125 52010 71000 80001 333 10324 59011
AAXX 01124 48373 31958 20000 10262 20206 30063 40125 52010 71000 80001 333 10315 59012
AAXX 01124 48386 31950 00000 10276 20224 30078 40121 52011 71000 333 10318 59013
AAXX 01124 48387 31556 60904 10220 20133 39173 40127 52007 70522 83556 333 10255 59025
AAXX 01124 48408 32960 60102 10262 20180 39981 40131 52013 85035 333 10326 59014
AAXX 01124 48415 31556 80705 10281 20217 30107 40118 52017 71022 82556 333 10324 59010
AAXX 01124 48433 NIL
AAXX 01124 48437 32962 00402 10243 20203 39923 40135 52012 333 10303 59018
AAXX 01124 48440 31958 00000 10285 20218 30068 40117 52008 71021 333 10315 59013
AAXX 01124 48451 32961 60000 10275 20223 30116 40127 52015 86070 333 10305 59010
AAXX 01124 48454 31559 60503 10301 20179 30108 40115 52007 70522 82546 333 10327 59008
AAXX 01124 48457 31556 60104 10278 20204 30102 40119 53012 70522 84846 333 10281 59004
AAXX 01124 48463 31556 60108 10278 20205 30029 40122 52012 71022 82806 333 10342 59002
AAXX 01124 48464 32560 80000 10281 20207 30097 40109 52009 84476 333 10319 59011
AAXX 01124 48479 NIL
AAXX 01124 48520 31556 60205 10265 20228 30096 40111 50011 71022 83546 333 10305 59012
AAXX 01124 48554 01456 80000 10234 20232 30101 40105 52011 60912 76062 889// 333 10255 59019 60017 71005
AAXX 01124 48563 01458 80506 10243 20236 30065 40101 52016 60052 76162 83877 333 10260 59013 60027 70052
AAXX 01124 48571 12558 80000 10240 20233 30084 40095 52012 60332 83288 333 10295 59030 72050
AAXX 01124 48307 NIL
AAXX 01124 48324 32560 20602 10252 20188 39910 40130 51012 81105 333 10328 59009
AAXX 01124 48333 31958 00000 10253 20194 39835 40137 52012 71000 333 10308 59007
AAXX 01124 48350 NIL
AAXX 01124 48355 31957 00000 10230 20168 39925 40147 52013 71000 333 10298 59013
AAXX 01124 48358 32960 10904 10223 20151 39981 40159 52014 80001 333 10284 59018
AAXX 01124 48384 NIL
AAXX 01124 48401 31558 71202 10304 20205 30023 40129 52012 70522 82856 333 10331 59010
AAXX 01124 48404 32962 00802 10252 20201 39954 40133 53012 333 10299 59014
AAXX 01124 48409 NIL
AAXX 01124 48419 31558 60000 10292 20211 30114 40122 51011 70522 82545 333 10320 59009
AAXX 01124 48427 31559 60000 10260 20208 30107 40114 52008 71022 82132 333 10312 59009
AAXX 01124 48435 31958 60000 10255 20168 39694 40131 52015 70521 86076 333 10296 59006
AAXX 01124 48453 32960 60403 10293 20197 30113 40116 52009 84036 333 10330 59008
AAXX 01124 48458 32960 60000 10285 20201 30055 40135 52012 86030 333 10330 59012
AAXX 01124 48474 31557 70000 10280 20199 39997 40120 52013 70522 82256 333 10323 59007
AAXX 01124 48481 NIL
AAXX 01124 48555 01450 80000 10253 20237 30089 40131 51010 60362 71062 8677/ 333 10262 59012 60067 70510
AAXX 01124 48556 01458 80000 10237 20234 30086 40102 52010 60152 76122 83877 333 10260 59013 60077 70155
AAXX 01124 48557 01458 80000 10235 20228 30068 40103 52004 60312 76166 8687/ 333 10250 59015 60047 70332
AAXX 01124 48560 01510 80000 10234 20228 30091 40096 52010 61112 76166 84876 333 10247 59029 60067 71887
AAXX 01124 48574 11560 80000 10244 20238 30070 40099 52013 60382 70262 84876 333 10265 59026 70674
AAXX 01124 48581 31540 70202 10244 20237 30068 40109 52015 71022 82546 333 10254 59009 72674
AAXX 01121 45007 12657 11302 10174 20110 30209 40218 53016 60002 81501 333 10202 59008 81645
AAXX 01121 45007 12657 11302 10174 20110 30209 40218 53016 60002 81501 333 10202 59008 81645
BBXX 46238 01121 99334 71195 46/// ///// 1//// 91150 22200 00139 11303 21002 329// 41303 70017
BBXX 46239 01121 99363 71221 46/// ///// 1//// 91151 22200 00119 11306 21003 329// 41305 70028
AAXX 01124 91317 32474 60908 10283 20271 30104 40108 5//// 82201 333 562/9 59010 82818 83080 555 90112
OOXX AAUNI 01124 99798 50833 56093 07671 46/// /0000 11067 21138 39021 49908 5//// 91200
AAXX 01124 91317 32474 60908 10283 20271 30104 40108 5//// 82201 333 562/9 59010 82818 83080 555 90112
AAXX 01121 01218 16/// /1409 10061 21047 39860 49881 55006 60001 333 91118
AAXX 01121 01447 16/// /0000 11014 21023 39271 49941 56013 60021 333 91100
AAXX 01121 01317 41275 81603 10063 20039 39868 49882 57009 78082 8632/ 333 91109
AAXX 01121 11010 01/09 90902 10035 20035 39812 40197 55005 74565 333 69915 89/02
AAXX 01121 11012 17/// /2505 10104 20082 39718 40181 58004 69971 7//8/ 333 55301
AAXX 01121 11022 11350 82402 10031 20021 39787 40180 58005 69931 70282 886// 333 55300 88709
AAXX 01121 11035 11228 82102 10026 20026 39934 40192 58003 69961 75052 886// 333 88706
AAXX 01121 11036 01113 81403 10007 20000 39969 40199 56002 69911 76165 333 69905 85703 85704 87713
AAXX 01121 11101 11575 71606 10086 20052 39690 40216 58007 69901 70262 885// 333 88630
AAXX 01121 11120 01165 52702 10030 20016 39515 40234 58005 69901 70254 333 69905 81703 85362
AAXX 01121 11126 16/// /2906 11012 21012 37755 48514 50004 69901 333 55310 91115
AAXX 01121 11130 17/// /2302 10029 20017 39627 40226 58005 60011 7//8/ 333 55301
AAXX 01121 11146 11/09 72904 11054 21066 36949 47057 52008 60011 74174 876// 333 877// 91123 92612
AAXX 01121 11150 01280 71504 10059 20030 39661 40205 58002 60021 72166 333 69905 81705 83636 86647
AAXX 01121 11155 11/05 92809 10023 20021 38370 48496 53003 60031 75164 333 55300 89/05 91124
AAXX 01121 11157 11162 79901 10031 20029 39434 40214 54000 60021 76066 8681/ 333 81703 83834 86656
AAXX 01121 11172 NIL
AAXX 01121 11190 11908 80702 10009 20002 39962 40202 58002 60011 74544 887// 333 55300 87635
AAXX 01121 11204 31950 30000 11001 21021 39429 40243 58004 71022 82031 333 55305 82360
AAXX 01121 11212 31/75 72707 10012 21036 37846 48509 51004 70131 83802 333 817// 83635 85073 444 16086
AAXX 01121 11231 32765 69901 11001 21023 39651 40240 57005 333 81650 85359
AAXX 01121 11240 32765 49901 10046 21007 39759 40203 57003 333 81856 84658
AAXX 01121 11244 16/// /0000 10037 21024 39873 40207 58002 69901 333 55300
AAXX 01121 11389 11560 82106 10068 20056 39858 40185 58001 69911 70262 885// 333 55300
AAXX 01121 06400 11374 72106 10128 20120 30081 40092 58013 69921 76065 875// 333 81709 85711 87614 91111 91209
AAXX 01121 06428 NIL
AAXX 01121 06451 11483 82206 10126 20109 30038 40104 58013 69941 76165 875// 333 87611 91113 91208
AAXX 01121 06456 11258 82306 10112 20107 39762 40122 58012 60021 75165 877// 333 82704 85706 87708 91111 91207
AAXX 01121 06476 17038 82205 10094 20089 39475 40128 58014 69931 71065 333 88/01 91111 91206
AAXX 01121 06479 17470 /2205 10122 20112 30029 40107 58010 60011 75286 333 83/11 87/15 91111 91207
AAXX 01121 06490 17382 82407 10102 20089 39563 40124 58011 60021 70065 333 86/06 88/08 91114 91208
AAXX 01121 06590 11365 82105 10107 20101 39699 40145 58008 69901 70252 876// 333 87707 91110 91206
AAXX 01121 06407 11375 82207 10122 20105 30086 40092 58013 69921 70265 885// 333 84708 86612 91113 91209
AAXX 01121 06447 NIL
AAXX 01124 13625 12970 00000 10070 21010 39977 40213 52026 60001
AAXX 01121 06431 NIL
AAXX 01121 06432 NIL
AAXX 01121 06449 11237 82107 10115 20107 39892 40116 58014 69981 75865 877// 333 87706 91111 91208
AAXX 01121 06450 17257 82205 10124 20108 30082 40098 58013 60011 76151 333 84/06 87/07 88/09 91110 91206
AAXX 01121 06458 NIL
AAXX 01121 06465 NIL
AAXX 01121 06478 11257 72207 10116 20105 39900 40115 58012 60011 70265 876// 333 81706 85706 87711 91111 91208
AAXX 01121 06496 NIL
BBXX TFDRN 01124 99658 70212 46/// ///// 22200 10706 70028
BBXX TFGRS 01124 99663 70182 46/// ///// 22200 10806 70030
BBXX TFGRV 01124 99638 70225 46/// ///// 22200 10907 70036
BBXX TFGSK 01124 99641 70229 46/// ///// 22200 10908 70040
BBXX TFHFN 01124 99642 70152 46/// ///// 22200 10906 70031
BBXX TFKGR 01124 99657 70136 46/// ///// 22200 10806 70028
BBXX TFSRT 01124 99633 70203 46/// ///// 22200 11010 70048
BBXX TFSTD 01124 99664 70234 46/// ///// 22200 10810 70049
AAXX 01121 33135 /1498 43204 11003 21044 39980 40163 52012 70181 82330 555 69991
AAXX 01121 33317 31496 72902 10003 21011 39852 40197 58002 71011 87500 333 87616
AAXX 01121 33345 32598 63304 10015 21071 39965 40174 52006 86500
AAXX 01121 33393 /1597 52205 10027 21038 39800 40198 58013 70271 85500 333 85628 555 69901
AAXX 01121 33506 31596 83002 10009 21005 39951 40151 58004 71022 885//
AAXX 01121 33587 32597 23401 10017 21048 39920 40188 52003 82500
AAXX 01121 33631 31296 82003 10001 21008 30084 40233 58002 71022 886// 333 88706
AAXX 01121 33663 NIL
AAXX 01121 33658 31997 23401 10045 21025 39903 40206 57009 70281 82030
AAXX 01121 33711 32498 33305 10014 21024 39955 40169 58005 83500 333 83617
AAXX 01121 33791 NIL
AAXX 01121 33837 32567 53303 10048 21001 30131 40183 58003 85500
AAXX 01121 33924 /1598 73506 10038 20004 30161 40173 53002 70282 86209 555 60021
AAXX 01121 33946 /1124 83503 10001 21002 39940 40166 51006 77176 8772/ 333 87702 555 60021
AAXX 01121 34300 /1497 82902 10006 21008 39952 40147 56004 77172 885// 333 85710 555 69901
AAXX 01121 34504 /1342 83303 10004 21002 39968 40150 57004 71072 886// 333 88707 555 60021
AAXX 01121 34519 /1110 83503 11001 21007 39843 40123 57014 78587 889// 333 87701 555 60071
AAXX 01121 34601 /1/08 93404 10001 21002 30013 40152 52003 78682 333 89/02 555 60051
AAXX 01121 76056 06/// /0501 10144 20020 30167 40191 55000 60001 7//// 8//// 91150 333 0//// 10268 20144 30/// 4//// 50389 54/// 55082 56/// 57/// 58042 60007 70000 8//// 8//// 8//// 9/
AAXX 01121 76122 32956 01601 10032 21026 38611 40295 52006 91150 333 10212 20029 31001 58061 70000
AAXX 01121 76123 06/// 01704 10026 21048 3//// 4//// 5//// 60001 7//// 80000 91150 333 0//// 10248 20020 4//// 50259 55086 56/// 57/// 5//// 60007 70000 8//// 8//// 8//// 8//// 9//// 9/
AAXX 01121 76305 32970 03401 10130 21017 30164 40173 5//// 91150 333 10252 20120 30080 58025 70000
AAXX 01121 76373 32910 00000 11006 21041 38266 40226 5//// 91155 333 10270 21032 31045 58033 70000
AAXX 01121 76382 32960 03201 10110 20017 38959 40217 52010 91158 333 10268 20084 30050 58041 79999
AAXX 01121 76390 31950 01801 10081 21047 38288 40234 52010 70544 91130 333 10245 20060 30055 58049 70000
AAXX 01121 76423 32760 60000 10082 21011 38199 40198 52011 86630 91155 333 10255 20070 56090 58032 70000 86357
AAXX 01121 76458 32960 03602 10142 20134 30160 40165 52004 91148 333 10264 20118 30108 58033 70000
AAXX 01121 76490 06/// /0602 10168 20144 39815 40208 52027 60001 7//// 8//// 91150 333 0//// 10315 20164 30/// 50329 54/// 55081 56/// 57/// 58034 60007 70000 8//// 8//// 8//// 8//// 9/
AAXX 01121 76499 32957 00000 10160 20155 30176 40197 5//// 91150 333 10300 20158 30153 58031 70000
AAXX 01121 76525 32960 00906 10116 20025 37504 40159 51001 91145 333 10188 20108 30101 55092 22351 58029 70000
AAXX 01121 76539 32958 03601 10079 20075 38200 40209 50/// 91150 333 10261 20064 30035 58011 70000
AAXX 01121 76547 06/// /0000 10204 20204 30186 40198 52010 69921 7//// 8//// 91150 333 0//// 10281 20200 4//// 50259 55058 56/// 57/// 58026 69927 70002 8//// 8//// 8//// 8//// 9//// 9/
AAXX 01121 76556 32960 01402 10140 20103 39140 40159 50001 91130 333 10292 20132 30118 58034 70000
AAXX 01121 76577 32460 60000 10130 20100 38065 40154 57004 86600 91140 333 10265 20122 30111 56500 58017 70000 86615
AAXX 01121 76586 06/// /0000 10162 20161 30042 40200 53013 60001 7//// 8//// 91150 333 0//// 10303 20161 30/// 4//// 50269 54/// 55070 56/// 57/// 58021 60007 70000 8//// 8//// 8//// 9/
AAXX 01121 76592 06/// /0705 10212 20049 30203 40203 53015 60001 7//// 8//// 91150 333 0//// 10299 20210 30/// 4//// 50689 54/// 55066 56/// 57/// 58028 60007 70000 8//// 8//// 8//// 9/
AAXX 01121 76612 32958 20000 10108 20086 38502 40183 5//// 82008 91150 333 10284 20105 30094 55097 21157 56005 58028 70000
AAXX 01121 76641 06/// /0000 10202 20201 30188 40200 53006 60001 7//// 8//// 91150 333 0//// 10302 20201 30/// 4//// 50169 54/// 55000 56/// 57/// 58023 60007 70000 8//// 8//// 8//// 8/
AAXX 01121 76645 06/// /0703 10215 20203 30192 40205 53013 60001 7//// 8//// 91150 333 0//// 10324 20213 30/// 4//// 50379 54/// 55060 56/// 57/// 58027 60007 70000 8//// 8//// 8//// 9/
AAXX 01121 76654 31956 03601 10226 20193 30162 40166 5//// 70544 91200 333 10294 20225 30220 58037 70000
AAXX 01121 76662 32960 02301 10110 20075 38490 40177 52004 91145 333 10288 20080 30072 58024 70000
AAXX 01121 76665 32958 00502 10084 20065 38147 40182 52010 91145 333 10270 20078 30067 58020 70000
AAXX 01121 76675 32960 01601 10002 21015 37401 40245 5//// 91147 333 10202 21010 31034 58014 79999
AAXX 01121 76683 32962 00401 10064 20034 37850 40238 55003 91145 333 10220 20064 30040 50171 55063 21449 58012 7000
AAXX 01121 76685 32950 00000 10068 20046 37886 40177 52002 91150 333 10232 20066 30027 58015 70000
AAXX 01121 76687 31460 22201 10130 20114 38716 40211 53010 70121 82500 91140 333 10225 20128 30110 563// 58023 70000 82622
AAXX 01121 76692 31920 03601 10215 20207 30174 40193 52006 74044 91150 333 10278 20212 30207 58023 70000
AAXX 01121 76693 06/// /3401 10216 20209 30175 40194 53007 60001 7//// 8//// 91150 333 0//// 10278 20212 30/// 4//// 50199 55000 56/// 57/// 58024 60007 70000 8//// 8//// 8//// 8//// 9/
AAXX 01121 76698 32558 10000 10204 20197 30184 40196 5//// 81200 91150 333 10308 20204 30173 56200 58019 70000 81820
AAXX 01121 76737 31470 60000 10138 20122 38812 40203 50004 70222 866// 91135 333 10233 20137 30120 569// 58025 70000 86710
AAXX 01121 76738 02/// ///// 1//// 2//// 3//// 4//// 5//// 6//// 7//// 8//// 333 1//// 2//// 30/// 5//// 55/// 56/// 57/// 5//// 6//// 7//// 8//// 8//// 8//// 8//// 9//// 9//// 9//// 44
AAXX 01121 76750 32558 23601 10213 20212 30171 40182 5//// 81120 91150 333 10313 20204 30200 56220 58016 70038 81820
AAXX 01121 76751 06/// /3601 10210 20210 30171 40182 52012 60001 7//// 8//// 91150 333 0//// 10294 20210 30/// 4//// 50209 54/// 55000 56/// 57/// 58016 60007 70038 8//// 8//// 8//// 9/
AAXX 01121 76762 32904 00000 10144 20128 38776 40150 53011 91140 333 10312 20144 30137 58/// 70000
AAXX 01121 76772 06/// /0801 10061 20041 38450 40244 52007 60001 7//// 8//// 91150 333 0//// 10300 20061 30/// 4//// 5///9 55000 56/// 57/// 58018 60007 70000 8//// 8//// 8//// 9//// 9/
AAXX 01121 76806 06/// /3001 10216 20212 30139 40143 53006 60001 7//// 8//// 91150 333 10317 20216 30208 30/// 50209 55000 56/// 57/// 58021 60007 70000 8//// 8//// 8//// 8//// 9//// 9/
AAXX 01121 76840 32820 23604 10268 20195 30073 40128 52007 82030 91150 333 10352 20225 30/// 55091 56/9/ 58010 70000 82358
AAXX 01121 76843 32365 10801 10194 20171 39506 40148 55015 81100 91145 333 10303 20186 30176 568// 58008 70000 81810
AAXX 01121 76845 32330 70503 10122 20106 37963 40180 56002 87700 91150 333 10222 20108 30089 56200 58010 87707
AAXX 01121 76848 01350 80401 10146 20123 38397 40121 51003 69911 75652 887// 91150 333 10212 20143 30130 561// 58009 69917 70003 88709
AAXX 01121 76902 06/// /0401 10227 20158 39990 40129 53009 60001 7//// 8//// 91150 333 0//// 10337 20215 30/// 4//// 50409 54/// 56/// 57/// 58005 60007 70000 8//// 8//// 8//// 8//// 9/
AAXX 01121 76243 32970 03107 10122 20062 39971 40272 54000 91130 333 10282 20092 30070 58121 70000
AAXX 01121 76311 32920 00000 10106 20041 39889 40170 50004 91140 333 10338 20100 30078 58030 70000
AAXX 01121 76405 32940 00000 10110 20075 30154 40176 57002 91050 333 10260 20104 30080 58030 70000
AAXX 01121 76640 31010 70000 10214 20211 30198 40210 57001 71044 8342/ 91140 333 10278 20200 30196 5639/ 58021 70000 83601 84440
AAXX 01121 76741 31240 73604 10238 20227 30130 40149 52007 70544 85220 91135 333 10276 20155 30139 561// 58010 70000 82704 83805
AAXX 01121 76056 06/// /0501 10144 20020 30167 40191 55000 60001 7//// 8//// 91150 333 0//// 10268 20144 30/// 4//// 50389 54/// 55082 56/// 57/// 58042 60007 70000 8//// 8//// 8//// 9/
AAXX 01121 76122 32956 01601 10032 21026 38611 40295 52006 91150 333 10212 20029 31001 58061 70000
AAXX 01121 76123 06/// 01704 10026 21048 3//// 4//// 5//// 60001 7//// 80000 91150 333 0//// 10248 20020 4//// 50259 55086 56/// 57/// 5//// 60007 70000 8//// 8//// 8//// 8//// 9//// 9/
AAXX 01121 76305 32970 03401 10130 21017 30164 40173 5//// 91150 333 10252 20120 30080 58025 70000
AAXX 01121 76373 32910 00000 11006 21041 38266 40226 5//// 91155 333 10270 21032 31045 58033 70000
AAXX 01121 76382 32960 03201 10110 20017 38959 40217 52010 91158 333 10268 20084 30050 58041 79999
AAXX 01121 76390 31950 01801 10081 21047 38288 40234 52010 70544 91130 333 10245 20060 30055 58049 70000
AAXX 01121 76423 32760 60000 10082 21011 38199 40198 52011 86630 91155 333 10255 20070 56090 58032 70000 86357
AAXX 01121 76458 32960 03602 10142 20134 30160 40165 52004 91148 333 10264 20118 30108 58033 70000
AAXX 01121 76490 06/// /0602 10168 20144 39815 40208 52027 60001 7//// 8//// 91150 333 0//// 10315 20164 30/// 50329 54/// 55081 56/// 57/// 58034 60007 70000 8//// 8//// 8//// 8//// 9/
AAXX 01121 76499 32957 00000 10160 20155 30176 40197 5//// 91150 333 10300 20158 30153 58031 70000
AAXX 01121 76525 32960 00906 10116 20025 37504 40159 51001 91145 333 10188 20108 30101 55092 22351 58029 70000
AAXX 01121 76539 32958 03601 10079 20075 38200 40209 50/// 91150 333 10261 20064 30035 58011 70000
AAXX 01121 76547 06/// /0000 10204 20204 30186 40198 52010 69921 7//// 8//// 91150 333 0//// 10281 20200 4//// 50259 55058 56/// 57/// 58026 69927 70002 8//// 8//// 8//// 8//// 9//// 9/
AAXX 01121 76556 32960 01402 10140 20103 39140 40159 50001 91130 333 10292 20132 30118 58034 70000
AAXX 01121 76577 32460 60000 10130 20100 38065 40154 57004 86600 91140 333 10265 20122 30111 56500 58017 70000 86615
AAXX 01121 76586 06/// /0000 10162 20161 30042 40200 53013 60001 7//// 8//// 91150 333 0//// 10303 20161 30/// 4//// 50269 54/// 55070 56/// 57/// 58021 60007 70000 8//// 8//// 8//// 9/
AAXX 01121 76592 06/// /0705 10212 20049 30203 40203 53015 60001 7//// 8//// 91150 333 0//// 10299 20210 30/// 4//// 50689 54/// 55066 56/// 57/// 58028 60007 70000 8//// 8//// 8//// 9/
AAXX 01121 76612 32958 20000 10108 20086 38502 40183 5//// 82008 91150 333 10284 20105 30094 55097 21157 56005 58028 70000
AAXX 01121 76641 06/// /0000 10202 20201 30188 40200 53006 60001 7//// 8//// 91150 333 0//// 10302 20201 30/// 4//// 50169 54/// 55000 56/// 57/// 58023 60007 70000 8//// 8//// 8//// 8/
AAXX 01121 76645 06/// /0703 10215 20203 30192 40205 53013 60001 7//// 8//// 91150 333 0//// 10324 20213 30/// 4//// 50379 54/// 55060 56/// 57/// 58027 60007 70000 8//// 8//// 8//// 9/
AAXX 01121 76654 31956 03601 10226 20193 30162 40166 5//// 70544 91200 333 10294 20225 30220 58037 70000
AAXX 01121 76662 32960 02301 10110 20075 38490 40177 52004 91145 333 10288 20080 30072 58024 70000
AAXX 01121 76665 32958 00502 10084 20065 38147 40182 52010 91145 333 10270 20078 30067 58020 70000
AAXX 01121 76675 32960 01601 10002 21015 37401 40245 5//// 91147 333 10202 21010 31034 58014 79999
AAXX 01121 76683 32962 00401 10064 20034 37850 40238 55003 91145 333 10220 20064 30040 50171 55063 21449 58012 7000
AAXX 01121 76685 32950 00000 10068 20046 37886 40177 52002 91150 333 10232 20066 30027 58015 70000
AAXX 01121 76687 31460 22201 10130 20114 38716 40211 53010 70121 82500 91140 333 10225 20128 30110 563// 58023 70000 82622
AAXX 01121 76692 31920 03601 10215 20207 30174 40193 52006 74044 91150 333 10278 20212 30207 58023 70000
AAXX 01121 76693 06/// /3401 10216 20209 30175 40194 53007 60001 7//// 8//// 91150 333 0//// 10278 20212 30/// 4//// 50199 55000 56/// 57/// 58024 60007 70000 8//// 8//// 8//// 8//// 9/
AAXX 01121 76698 32558 10000 10204 20197 30184 40196 5//// 81200 91150 333 10308 20204 30173 56200 58019 70000 81820
AAXX 01121 76737 31470 60000 10138 20122 38812 40203 50004 70222 866// 91135 333 10233 20137 30120 569// 58025 70000 86710
AAXX 01121 76738 02/// ///// 1//// 2//// 3//// 4//// 5//// 6//// 7//// 8//// 333 1//// 2//// 30/// 5//// 55/// 56/// 57/// 5//// 6//// 7//// 8//// 8//// 8//// 8//// 9//// 9//// 9//// 44
AAXX 01121 76750 32558 23601 10213 20212 30171 40182 5//// 81120 91150 333 10313 20204 30200 56220 58016 70038 81820
AAXX 01121 76751 06/// /3601 10210 20210 30171 40182 52012 60001 7//// 8//// 91150 333 0//// 10294 20210 30/// 4//// 50209 54/// 55000 56/// 57/// 58016 60007 70038 8//// 8//// 8//// 9/
AAXX 01121 76762 32904 00000 10144 20128 38776 40150 53011 91140 333 10312 20144 30137 58/// 70000
AAXX 01121 76772 06/// /0801 10061 20041 38450 40244 52007 60001 7//// 8//// 91150 333 0//// 10300 20061 30/// 4//// 5///9 55000 56/// 57/// 58018 60007 70000 8//// 8//// 8//// 9//// 9/
AAXX 01121 76806 06/// /3001 10216 20212 30139 40143 53006 60001 7//// 8//// 91150 333 10317 20216 30208 30/// 50209 55000 56/// 57/// 58021 60007 70000 8//// 8//// 8//// 8//// 9//// 9/
AAXX 01121 76840 32820 23604 10268 20195 30073 40128 52007 82030 91150 333 10352 20225 30/// 55091 56/9/ 58010 70000 82358
AAXX 01121 76843 32365 10801 10194 20171 39506 40148 55015 81100 91145 333 10303 20186 30176 568// 58008 70000 81810
AAXX 01121 76845 32330 70503 10122 20106 37963 40180 56002 87700 91150 333 10222 20108 30089 56200 58010 87707
AAXX 01121 76848 01350 80401 10146 20123 38397 40121 51003 69911 75652 887// 91150 333 10212 20143 30130 561// 58009 69917 70003 88709
AAXX 01121 76902 06/// /0401 10227 20158 39990 40129 53009 60001 7//// 8//// 91150 333 0//// 10337 20215 30/// 4//// 50409 54/// 56/// 57/// 58005 60007 70000 8//// 8//// 8//// 8//// 9/
AAXX 01121 76243 32970 03107 10122 20062 39971 40272 54000 91130 333 10282 20092 30070 58121 70000
AAXX 01121 76311 32920 00000 10106 20041 39889 40170 50004 91140 333 10338 20100 30078 58030 70000
AAXX 01121 76405 32940 00000 10110 20075 30154 40176 57002 91050 333 10260 20104 30080 58030 70000
AAXX 01121 76640 31010 70000 10214 20211 30198 40210 57001 71044 8342/ 91140 333 10278 20200 30196 5639/ 58021 70000 83601 84440
AAXX 01121 76741 31240 73604 10238 20227 30130 40149 52007 70544 85220 91135 333 10276 20155 30139 561// 58010 70000 82704 83805
AAXX 01121 76056 06/// /0501 10144 20020 30167 40191 55000 60001 7////8//// 91150 333 0//// 10268 20144 30/// 4//// 50389 54///55082 56/// 57/// 58042 60007 70000 8//// 8//// 8//// 9/
AAXX 01121 76122 32956 01601 10032 21026 38611 40295 52006 91150 33310212 20029 31001 58061 70000
AAXX 01121 76123 06/// 01704 10026 21048 3//// 4//// 5//// 60001 7////80000 91150 333 0//// 10248 20020 4//// 50259 55086 56///57/// 5//// 60007 70000 8//// 8//// 8//// 8//// 9//// 9/
AAXX 01121 76305 32970 03401 10130 21017 30164 40173 5//// 91150 33310252 20120 30080 58025 70000
AAXX 01121 76373 32910 00000 11006 21041 38266 40226 5//// 91155 33310270 21032 31045 58033 70000
AAXX 01121 76382 32960 03201 10110 20017 38959 40217 52010 91158 33310268 20084 30050 58041 79999
AAXX 01121 76390 31950 01801 10081 21047 38288 40234 52010 70544 91130333 10245 20060 30055 58049 70000
AAXX 01121 76423 32760 60000 10082 21011 38199 40198 52011 86630 91155333 10255 20070 56090 58032 70000 86357
AAXX 01121 76458 32960 03602 10142 20134 30160 40165 52004 91148 33310264 20118 30108 58033 70000
AAXX 01121 76490 06/// /0602 10168 20144 39815 40208 52027 60001 7////8//// 91150 333 0//// 10315 20164 30/// 50329 54/// 5508156/// 57/// 58034 60007 70000 8//// 8//// 8//// 8//// 9/
AAXX 01121 76499 32957 00000 10160 20155 30176 40197 5//// 91150 33310300 20158 30153 58031 70000
AAXX 01121 76525 32960 00906 10116 20025 37504 40159 51001 91145 33310188 20108 30101 55092 22351 58029 70000
AAXX 01121 76539 32958 03601 10079 20075 38200 40209 50/// 91150 33310261 20064 30035 58011 70000
AAXX 01121 76547 06/// /0000 10204 20204 30186 40198 52010 69921 7////8//// 91150 333 0//// 10281 20200 4//// 50259 55058 56///57/// 58026 69927 70002 8//// 8//// 8//// 8//// 9//// 9/
AAXX 01121 76556 32960 01402 10140 20103 39140 40159 50001 91130 33310292 20132 30118 58034 70000
AAXX 01121 76577 32460 60000 10130 20100 38065 40154 57004 86600 91140333 10265 20122 30111 56500 58017 70000 86615
AAXX 01121 76586 06/// /0000 10162 20161 30042 40200 53013 60001 7////8//// 91150 333 0//// 10303 20161 30/// 4//// 50269 54///55070 56/// 57/// 58021 60007 70000 8//// 8//// 8//// 9/
AAXX 01121 76592 06/// /0705 10212 20049 30203 40203 53015 60001 7////8//// 91150 333 0//// 10299 20210 30/// 4//// 50689 54///55066 56/// 57/// 58028 60007 70000 8//// 8//// 8//// 9/
AAXX 01121 76612 32958 20000 10108 20086 38502 40183 5//// 82008 91150333 10284 20105 30094 55097 21157 56005 58028 70000
AAXX 01121 76641 06/// /0000 10202 20201 30188 40200 53006 60001 7////8//// 91150 333 0//// 10302 20201 30/// 4//// 50169 54///55000 56/// 57/// 58023 60007 70000 8//// 8//// 8//// 8/
AAXX 01121 76645 06/// /0703 10215 20203 30192 40205 53013 60001 7////8//// 91150 333 0//// 10324 20213 30/// 4//// 50379 54///55060 56/// 57/// 58027 60007 70000 8//// 8//// 8//// 9/
AAXX 01121 76654 31956 03601 10226 20193 30162 40166 5//// 70544 91200333 10294 20225 30220 58037 70000
AAXX 01121 76662 32960 02301 10110 20075 38490 40177 52004 91145 33310288 20080 30072 58024 70000
AAXX 01121 76665 32958 00502 10084 20065 38147 40182 52010 91145 33310270 20078 30067 58020 70000
AAXX 01121 76675 32960 01601 10002 21015 37401 40245 5//// 91147 33310202 21010 31034 58014 79999
AAXX 01121 76683 32962 00401 10064 20034 37850 40238 55003 91145 33310220 20064 30040 50171 55063 21449 58012 7000
AAXX 01121 76685 32950 00000 10068 20046 37886 40177 52002 91150 33310232 20066 30027 58015 70000
AAXX 01121 76687 31460 22201 10130 20114 38716 40211 53010 70121 8250091140 333 10225 20128 30110 563// 58023 70000 82622
AAXX 01121 76692 31920 03601 10215 20207 30174 40193 52006 74044 91150333 10278 20212 30207 58023 70000
AAXX 01121 76693 06/// /3401 10216 20209 30175 40194 53007 60001 7////8//// 91150 333 0//// 10278 20212 30/// 4//// 50199 5500056/// 57/// 58024 60007 70000 8//// 8//// 8//// 8//// 9/
AAXX 01121 76698 32558 10000 10204 20197 30184 40196 5//// 81200 91150333 10308 20204 30173 56200 58019 70000 81820
AAXX 01121 76737 31470 60000 10138 20122 38812 40203 50004 70222 866//91135 333 10233 20137 30120 569// 58025 70000 86710
AAXX 01121 76738 02/// ///// 1//// 2//// 3//// 4//// 5//// 6//// 7////8//// 333 1//// 2//// 30/// 5//// 55/// 56/// 57/// 5////6//// 7//// 8//// 8//// 8//// 8//// 9//// 9//// 9//// 44
AAXX 01121 76750 32558 23601 10213 20212 30171 40182 5//// 81120 91150333 10313 20204 30200 56220 58016 70038 81820
AAXX 01121 76751 06/// /3601 10210 20210 30171 40182 52012 60001 7////8//// 91150 333 0//// 10294 20210 30/// 4//// 50209 54///55000 56/// 57/// 58016 60007 70038 8//// 8//// 8//// 9/
AAXX 01121 76762 32904 00000 10144 20128 38776 40150 53011 91140 33310312 20144 30137 58/// 70000
AAXX 01121 76772 06/// /0801 10061 20041 38450 40244 52007 60001 7////8//// 91150 333 0//// 10300 20061 30/// 4//// 5///9 5500056/// 57/// 58018 60007 70000 8//// 8//// 8//// 9//// 9/
AAXX 01121 76806 06/// /3001 10216 20212 30139 40143 53006 60001 7////8//// 91150 333 10317 20216 30208 30/// 50209 55000 56///57/// 58021 60007 70000 8//// 8//// 8//// 8//// 9//// 9/
AAXX 01121 76840 32820 23604 10268 20195 30073 40128 52007 82030 91150333 10352 20225 30/// 55091 56/9/ 58010 70000 82358
AAXX 01121 76843 32365 10801 10194 20171 39506 40148 55015 81100 91145333 10303 20186 30176 568// 58008 70000 81810
AAXX 01121 76845 32330 70503 10122 20106 37963 40180 56002 87700 91150333 10222 20108 30089 56200 58010 87707
AAXX 01121 76848 01350 80401 10146 20123 38397 40121 51003 69911 75652887// 91150 333 10212 20143 30130 561// 58009 69917 7000388709
AAXX 01121 76902 06/// /0401 10227 20158 39990 40129 53009 60001 7////8//// 91150 333 0//// 10337 20215 30/// 4//// 50409 54///56/// 57/// 58005 60007 70000 8//// 8//// 8//// 8//// 9/
AAXX 01121 76243 32970 03107 10122 20062 39971 40272 54000 91130 33310282 20092 30070 58121 70000
AAXX 01121 76311 32920 00000 10106 20041 39889 40170 50004 91140 33310338 20100 30078 58030 70000
AAXX 01121 76405 32940 00000 10110 20075 30154 40176 57002 91050 33310260 20104 30080 58030 70000
AAXX 01121 76640 31010 70000 10214 20211 30198 40210 57001 71044 8342/91140 333 10278 20200 30196 5639/ 58021 70000 83601 84440
AAXX 01121 76741 31240 73604 10238 20227 30130 40149 52007 70544 8522091135 333 10276 20155 30139 561// 58010 70000 82704 83805
BBXX UFTA 01121 99844 71200 41996 82406 11240 21269 40041 52007 77173 80007 333 11239
AAXX 01124 43533 11458 82508 10254 20242 30083 40086 60022 78082 869// 333 10304 58000 84817 82918
AAXX 01124 43555 12562 13203 10286 20216 30081 40084 60002 81101 333 10309 59010 81820
AAXX 01124 43577 12465 22706 10299 20229 30084 40086 60002 81201 333 10322 59008 81818
AAXX 01124 43588 12465 32909 10289 20232 30082 40084 60002 82201 333 10304 59008 82818
AAXX 01124 43599 12462 72906 10290 20238 30086 40088 60002 84962 333 10310 59004 83817 81918 87076
AAXX 01124 43533 11458 82508 10254 20242 30083 40086 60022 78082 869// 333 10304 58000 84817 82918
AAXX 01124 43555 12562 13203 10286 20216 30081 40084 60002 81101 333 10309 59010 81820
AAXX 01124 43577 12465 22706 10299 20229 30084 40086 60002 81201 333 10322 59008 81818
AAXX 01124 43588 12465 32909 10289 20232 30082 40084 60002 82201 333 10304 59008 82818
AAXX 01124 43599 12462 72906 10290 20238 30086 40088 60002 84962 333 10310 59004 83817 81918 87076
AAXX 01121 15015 02598 62302 10012 21035 39607 42808 58003 60001 86500 333 43005 60007 91003 91103
AAXX 01121 15020 02997 03403 10044 21023 30006 40207 57006 60001 333 60007 91004 91106
AAXX 01121 15090 01597 22802 10045 21025 30118 40212 57007 60001 70344 81140 333 55307 00360 20836 30308 60007 91005 91105
AAXX 01121 15108 02198 42704 11093 21093 38055 48489 53001 60001 83540 333 44018 60007 95000
AAXX 01121 15120 02699 23001 10026 21044 39723 40231 57003 60001 82500 333 43004 55310 00117 21127 30195 60007 91002 91102
AAXX 01121 15150 02997 01301 10052 21034 39995 40211 57012 60001 333 60007 91003 91103
AAXX 01121 15170 02597 80401 11040 21060 39423 42808 57009 60001 8557/ 333 43002 60007 91002 91102
AAXX 01121 15200 02597 31603 10022 20010 30087 40236 57006 60001 83200 333 60007 91003 91103
AAXX 01121 15230 02598 20201 10036 21029 39942 40242 57006 60001 82400 333 55310 00424 21194 30191 60007 91002 91102
AAXX 01121 15260 02599 13402 10021 21041 39688 40237 57005 60001 81100 333 60007 91003 91104 95001
AAXX 01121 15280 02999 02908 11134 21203 37429 47947 57003 60001 333 49035 60007 444 46235
AAXX 01121 15292 02998 03601 10027 21006 39940 40243 57007 60001 333 41998 60007 91002 91102 95000
AAXX 01121 15310 01996 00102 10062 21026 30124 40211 57006 60001 71011 333 55310 00605 21208 31211 60007 91004 91106
AAXX 01121 15335 02597 23203 10061 21005 30200 40207 57004 60001 82100 333 60007 91006 91106
AAXX 01121 15346 02997 01702 10055 21056 39926 40220 57010 60001 333 60007 91004 91104 95090
AAXX 01121 15350 02997 03101 10074 21064 30095 40216 57008 60001 333 60007 91002 91103
AAXX 01121 15360 02997 03407 10052 21015 30176 40190 57006 60001 222// 06060 20301 333 60007 91010 91111 92427
AAXX 01121 15410 02997 01501 10064 21025 30130 40228 58012 60001 333 60007 91001 91102
AAXX 01121 15420 02997 02501 10053 21013 30106 40220 57009 60001 333 55310 0//// 21281 3//// 60007 91003 91104
AAXX 01121 15450 01996 02502 10022 20017 39986 40228 58004 60001 71000 333 55310 00648 21308 31300 60007 91003 91103
AAXX 01121 15460 01995 02504 10040 20009 30195 40220 57006 60001 71011 333 60007 91006 91106
AAXX 01121 15470 01996 02402 10017 20017 30097 40228 57005 60001 71041 333 60007 91003 91103
AAXX 01121 15480 02997 03103 10060 20010 30191 40209 57003 60001 222// 06067 2//// 333 60007 91006 91106 92427
AAXX 01124 68383 36/// /0000 10305 20181 39872 48565 57012 333 10306 20197 91000 555 91011
AAXX 01124 91930 36/// ///// 10235 20221 333 10289
AAXX 01124 91943 36/// /0905 10260 20203 30135 40137 58011 333 58019
AAXX 01121 89061 179// 01302 10026 21011 39888 49895 54000 60022 70077 333 10028 20000 91004 91111
AAXX 01124 85032 12465 70000 10260 20244 39946 40107 52011 60034 82130 333 20218 30/// 55071 56110 59009 70034 82817 87358
AAXX 01124 85043 12865 53606 10260 20232 39952 40112 52030 60014 85030 333 20230 30/// 55055 56080 58008 70014 85358
AAXX 01124 85104 12565 70000 10250 20240 39942 40102 52012 60024 82530 333 20225 31/// 55045 56770 58002 80022 82620 87358
AAXX 01124 85109 11258 70000 10255 20248 39948 40109 52018 60054 71522 82630 333 20231 32/// 56770 58008 70054 82706 87358
AAXX 01124 85114 12565 70000 10263 20250 39948 40112 52018 60094 82530 333 20239 31/// 55025 56770 58005 70087 82620 87358
AAXX 01124 85116 NIL
AAXX 01124 85123 12565 70000 10256 20248 39946 40111 52016 60024 84534 333 20242 30/// 55000 56446 58012 70023 84620 85358 86070
AAXX 01124 85139 11456 80000 10238 20238 39880 40072 51010 60114 76122 8692/ 333 20249 32/// 55025 56449 58000 70110 85610 81920 88457
AAXX 01124 85153 11330 81804 10232 20232 39922 40109 52012 60794 76166 8792/ 333 20218 32/// 56449 58912 70787 86610 81920 88457
AAXX 01124 85154 11359 80000 10240 20237 39946 40124 52016 60204 76162 8657/ 333 20232 31022 55000 56379 58017 70201 83607 83623 88457
AAXX 01124 70026 NIL
AAXX 01124 70133 NIL
AAXX 01124 70174 NIL
AAXX 01124 70200 NIL
AAXX 01124 70219 NIL
AAXX 01124 70231 NIL
AAXX 01124 70261 NIL
AAXX 01124 70267 NIL
AAXX 01124 70271 NIL
AAXX 01124 70273 NIL
AAXX 01124 70308 NIL
AAXX 01124 70316 NIL
AAXX 01124 70326 NIL
AAXX 01124 70340 NIL
AAXX 01124 70350 NIL
AAXX 01124 70361 NIL
AAXX 01124 70381 NIL
AAXX 01124 70398 NIL
AAXX 01124 70414 NIL
AAXX 01124 68026 41660 50907 10325 20194 48495 57021 71792 85983
AAXX 01124 68029 42660 52703 10302 20209 48491 57023 85873
AAXX 01124 68030 41660 50308 10284 20204 48490 57017 84904
AAXX 01124 68032 42660 50709 10340 20206 48500 57016 84202
AAXX 01124 68038 42660 50906 10333 20189 48500 57018 84202
AAXX 01124 68040 42660 52203 10330 20157 48501 57018 85202
AAXX 01124 68054 42560 31108 10300 20169 48518 56016 83200
AAXX 01124 68070 42660 10206 10316 20182 48511 57021 81100
AAXX 01124 68148 42660 53209 10301 20181 48507 57015 85100
AAXX 01124 68234 42660 33613 10320 20147 48501 57012 83200
AAXX 01124 68320 42660 32310 10352 20138 48508 57013 82102
AAXX 01124 68325 42660 42912 10308 20122 48497 57017 84200
AAXX 01124 68328 42660 13207 10342 20072 48479 57017 81200
AAXX 01121 26554 42964 42802 11012 21055 39987 40154 51004 84030 555 1/102
AAXX 01121 26666 42560 73102 11014 21062 39932 40152 52009 87500 333 87621 555 1/101
AAXX 01121 26850 42960 23001 11006 21051 39891 40169 52003 82030 555 1/105
AAXX 01121 26863 42562 53105 11015 21042 39915 40157 51006 85500 333 85621 555 1/102
AAXX 01121 26941 42660 72101 11008 21021 39938 40181 54000 87500 333 87638 555 1/100
AAXX 01121 26951 42580 72803 11006 21024 39975 40180 52004 85530 555 1/101
AAXX 01121 33008 41456 81901 10000 21022 30002 40185 58007 71022 885// 333 88616 555 11000
AAXX 01121 33019 41356 82302 11022 21031 30011 40192 54000 71022 886// 333 88707 555 1/100
AAXX 01121 33036 42570 63301 10011 21045 39940 40175 52007 86500 333 86628 555 1/001
AAXX 01121 33041 41460 73004 11008 21033 30006 40165 52013 70272 87500 333 87617 555 1/100
BBXX UCAB 01121 99664 10080 41/97 92212 10070 49823 54000 70062 8//// 22283 00090 21110
BBXX PHAM 01123 99495 70011 41496 81821 10117 20089 40080 57030 75255 8/700 22200 20602 80102 91024
BBXX PDNN 01123 99469 70059 41297 82348 10149 20131 40104 57012 78082 886// 22242 20408 327// 40706 80138 91024
BBXX DDSD2 01123 99406 70231 41498 52922 40290 55030 703// 852// 22254 21608 3//// 4//// 5////
BBXX PDXQ 01123 99538 10070 41597 42515 10095 20076 40060 54000 70551 82576 22223 04065 20601 30000 80085
BBXX DEDI 01123 99445 70150 41598 52723 10155 20102 40175 58005 70322 824// 22224 00150 20704 329// 41006 80125
AAXX 01124 03301 16666 /2416 10089 20088 39907 49979 58010 60021 91150 333 84/34 87/43
AAXX 01124 03305 17462 /2235 10086 20065 39721 49979 55018 60161 762// 91150 333 84/12 85/22 90710 91157 91055
AAXX 01124 03313 16428 /2708 10084 20074 39891 49984 56012 60141 91150 333 87/16 91019
AAXX 01124 03316 17547 /2523 10087 20067 39971 49982 56014 60041 782// 91150 333 82/25 85/38 90710 91131
AAXX 01124 03318 16/// /2417 10083 20069 60071 91150 333 90710 91132
AAXX 01124 03321 16981 /2314 10114 20060 39972 49984 58019 60001 91150 333 553// 20354 85/63
AAXX 01124 03330 17461 /2110 10073 20067 39642 49999 58021 60011 782// 91150 333 83/13 85/20
AAXX 01124 03344 17458 /2113 10077 20063 39667 49980 56020 60081 762// 91150 333 81/14 84/19 90710 91127
AAXX 01124 03346 16/// /2322 10083 20062 60011 91150 333 90710 91136
AAXX 01124 03348 17680 /2114 10091 20071 39885 49991 58014 69901 723// 91150 333 55300 20134 81/31 87/47 90710 91125
AAXX 01124 03355 15781 /2317 10107 20068 39973 49984 58019 69981 91150 333 55300 20233 81/50 84/62 90710 91126
AAXX 01124 03373 16663 /2012 10101 20073 39935 40003 58019 60001 91150 333 84/30 84/41
AAXX 01124 03379 16779 /2119 10105 20071 39935 40010 58021 60001 91150 333 81/50 90710 91126
AAXX 01124 03382 15679 /2116 10099 20075 39977 49985 58018 60001 91150 333 55300 20265 81/37
AAXX 01124 03385 46970 /2121 10102 20079 39992 40002 58016 91150 333 85/62 90710 91128
AAXX 01124 03391 12682 82015 10103 20078 30009 40016 58015 60001 84532 91150 333 81638 84656 87365
AAXX 01124 03392 16975 /2122 10100 20082 30010 40014 58020 60001 91150 333 81/63 90710 91128
AAXX 01124 03405 16662 /2429 10091 20079 39879 49993 57008 69981 91150 333 553// 20177 87/45 90710 91147
AAXX 01124 03409 16/// /2317 10094 20063 60001 91150 333 55300 2//// 90710 91130 91028
AAXX 01124 03410 16457 /2320 10073 20066 39565 49993 58014 60071 91150 333 553// 20139 82/13 84/18 90710 91136 91031
AAXX 01124 03469 15981 /2119 10108 20086 30021 40024 58014 60001 91150 333 553// 20285 81/63 90710 91128
AAXX 01124 03488 15981 /2116 10114 20079 30002 40027 58012 60001 91150 333 83/63 83/66 90710 91128
AAXX 01124 03503 17566 /2208 10096 20079 39931 40007 58015 60021 761// 91150 333 81/21 87/38 90710 91128
AAXX 01124 03507 17365 /2121 10086 20084 39647 40012 58021 60031 761// 91150 333 84/09 86/18 90710 91128
AAXX 01124 03520 16668 /2415 10107 20077 39894 40012 58019 60001 91150 333 553// 20321 82/31 86/45 90710 91125
AAXX 01124 03522 15563 /2007 10114 20078 39927 40018 58021 60001 91150 333 87/28
AAXX 01124 03529 15567 /2014 10109 20078 39984 40026 58020 60001 91150 333 82/27 90710 91125
AAXX 01124 03544 15566 /1906 10102 20076 39894 40022 58017 60001 91150 333 553// 20396 86/22
AAXX 01124 03560 15581 /2114 10112 20085 39932 40033 58018 60001 91150 333 553// 20427 85/22 87/60
AAXX 01124 03604 16458 /2620 10093 20078 39960 40013 58016 60011 91150 333 81/14 86/33 90710 91132 91032
AAXX 01124 03605 16756 /2124 10107 20097 30010 40018 58021 69921 91150 333 87/56 83/61 90710 91132
AAXX 01124 03609 16/// /2126 10103 20092 39974 40026 58023 60001 91150 333 90710 91134
AAXX 01124 03628 15974 /2111 10108 20078 39960 40031 58025 60001 91150 333 55300 20273 8//99
AAXX 01124 03647 16574 /2217 10097 20080 39777 40028 57020 60001 91150 333 553// 20502 87/20 90710 91126
AAXX 01124 03658 16577 /2016 10117 20082 39973 40041 58019 60001 91150 333 81/20 87/57
AAXX 01124 03660 15471 /2309 10107 20080 39801 40044 58015 60001 91150 333 84/16 87/56 91020
AAXX 01124 03672 16581 /2313 10125 20085 30013 40053 58013 69921 91150 333 81/23 87/56
AAXX 01124 03684 15480 /2211 10120 20091 39941 40045 58020 69901 91150 333 84/19 85/59
AAXX 01124 03693 16480 /2110 10118 20102 30054 40056 58021 60001 91150 333 83/19 87/56
AAXX 01124 03707 15970 /2107 10112 20091 30026 40033 58025 60001 91150 333 86/60
AAXX 01124 03710 16367 /2314 10087 20087 39623 40037 58019 60001 91150 333 553// 20157 81/07 87/56
AAXX 01124 03743 11475 82211 10109 20087 39889 40047 57020 69901 721// 85577 91150 333 81714 84650 86468
AAXX 01124 03749 16475 /2112 10114 20093 39945 40053 58016 60001 91150 333 81/17 87/56
AAXX 01124 03761 17473 /2218 10111 20087 39908 40049 58021 69901 723// 91150 333 55300 20347 81/12 87/50 90710 91127
AAXX 01124 03768 16472 /2314 10118 20090 39975 40053 58017 60001 91150 333 84/16 87/48 90710 91125
AAXX 01124 03769 17479 /2211 10120 20105 39979 40059 58020 6///1 723// 91150 333 55300 20317 83/14 86/41
AAXX 01124 03781 15483 /2115 10112 20096 39855 40058 58018 69901 91150 333 553// 20285 84/11 83/18 86/56
AAXX 01124 03797 15470 /2115 10124 20106 30009 40068 58018 60001 91150 333 55300 20349 87/11 85/61
AAXX 01124 03823 17772 /2111 10099 20090 39801 40040 58027 69921 723// 91150 333 553// 20090 87/50
AAXX 01124 03839 16/// ///// 10115 20098 60001 91150 333 553// 20149
AAXX 01124 03857 17326 /2415 10109 20109 39992 40055 58026 60011 782// 91150 333 81/09 87/25
AAXX 01124 03862 17671 /2310 10122 20102 30045 40057 58024 69901 723// 91150 333 55300 20153 86/35 83/50
AAXX 01124 03866 16/// /2312 10111 20104 3//// 4//// 5//// 69921 91150
AAXX 01124 03872 17457 /2216 10111 20109 30058 40062 58023 69921 710// 91150 333 553// 20230 83/10 87/28
AAXX 01124 03876 16/// /2215 10112 20108 30064 40067 58025 69921 91150
AAXX 01124 03895 41250 81920 10120 20113 40082 57028 76354 885// 333 81703 84707 87612
BBXX DCQR2 01123 99100 31517 41598 73005 10283 20251 40072 50000 71682 8477/ 22284 04290 20101 3//// 4//// 5//// 80259
BBXX PCDE 01123 99380 31494 41998 00000 10215 20166 40160 54000 7//// 80000 22253 2//// 30000 80183
BBXX ELYP7 01124 99143 31146 41697 52116 10280 20239 40080 57010 70322 84460 22243 20404 80250
BBXX A8KC6 01124 99134 51759 41597 30510 10270 20226 40080 51010 70311 824// 22214 04330 20402 305// 40402 5//// 80240 46379 1738010124
AAXX 01124 03008 16/// /2123 10072 20030 39770 49838 57003 60001 91150 333 90710 91132
AAXX 01124 03010 46/// /2223 10078 20041 49823 50104 333 90710 91138
AAXX 01124 03014 46/// /2325 10034 20007 39804 49830 55002 91150 333 8//// 90710 91133
AAXX 01124 03031 17563 /2312 10044 20020 39540 49860 57005 60061 761// 91150 333 553// 20107 86/22 85/33 90710 91127 91027
AAXX 01124 03034 17677 /2220 10073 20039 39836 49849 58002 60021 723// 91150 333 84/33 90710 91128
AAXX 01124 03037 17570 /2511 10053 20039 39842 49864 55002 60051 723// 91150 333 81/28 84/50 90710 91128
AAXX 01124 03039 46/// /2234 10000 21031 91150 333 90710 91145
AAXX 01124 03041 46/// /2147 11024 21024 91150 333 90710 91147
AAXX 01124 03044 17561 /2109 10051 20031 39751 49849 55004 60011 783// 91150 333 553// 20207 84/20 84/25
AAXX 01124 03047 17558 /2015 10037 20017 39594 49894 58007 60061 781// 91150 333 553// 20255 85/28 85/56 90710 91128
AAXX 01124 03062 17682 /2017 10056 20031 39854 49859 58008 60011 723// 91150 333 553// 20344 81/34 86/65 90710 91127
AAXX 01124 03065 46/// /2341 11028 21031 91150 333 90710 91160 91059
AAXX 01124 03068 12584 62218 10065 20018 39861 49869 56007 60001 82832 91150 333 81822 86075 90710 91125
AAXX 01124 03080 17982 /2313 10064 20019 39719 49887 58006 69901 723// 91150 333 8//99
AAXX 01124 03088 15970 /2221 10061 20046 39738 49898 58004 69901 91150 333 553// 20507 8//99 90710 91128
AAXX 01124 03094 15982 /1812 10043 20015 39866 49871 58008 60001 91150 333 81/63
AAXX 01124 03105 15562 /2222 10073 20044 39894 49911 58005 69941 91150 333 81/24 83/32 90710 91130
AAXX 01124 03132 15969 /2316 10081 20045 39926 49939 58009 60001 91150 333 8//99 90710 91126
AAXX 01124 03144 15679 /2215 10075 20029 39861 49903 58009 60011 91150 333 553// 20239 84/40 90710 91125 91025
AAXX 01124 03148 46/// /2126 10026 20016 91150 333 90710 91144 91044
AAXX 01124 03153 15462 /2317 10077 20048 39805 49941 58010 60001 91150 333 553// 20514 81/19
AAXX 01124 03155 16779 /2215 10063 20024 39632 49925 57009 69961 91150 333 81/50 86/57 90710 91127
AAXX 01124 03158 15970 /2319 10071 20044 39788 49922 57014 60001 91150 333 553// 20469 8//99 90710 91127
AAXX 01124 03210 16565 /2413 10077 20050 39807 49956 58011 60001 91150 333 84/24 84/58 90710 91125
AAXX 01124 03212 15568 /2512 10088 20039 39859 49956 58013 69961 91150 333 85/29 83/59
AAXX 01124 03214 15760 /2013 10078 20067 39945 49964 58010 69941 91150 333 85/56 85/61
AAXX 01124 03220 16973 ///// 10081 20054 39911 49945 56014 60021 91150 333 8//99
AAXX 01124 03225 16463 /2116 10068 20050 39661 49962 56011 60081 91150 333 553// 20164 85/11 83/63
AAXX 01124 03226 17668 /2314 10069 20053 39688 49960 58013 60061 723// 91150 333 83/43 87/56
AAXX 01124 03227 46/// /2333 10018 2//// 91150 333 90710 91138
AAXX 01124 03230 16969 /2416 10068 20042 39688 49940 58013 69921 91150 333 8//99
AAXX 01124 03238 15965 /2309 10076 20037 39773 49943 58009 69981 91150 333 82/65
AAXX 01124 03261 16672 /2609 10091 20073 39943 49983 57009 60011 91150 333 83/31 85/47 91020
AAXX 01124 03265 17467 /2709 10081 20061 39952 49982 55008 60011 762// 91150 333 85/15
AAXX 01124 03266 16671 /1810 10092 20070 39962 49979 58015 69981 91150 333 84/39 83/62
AAXX 01124 03275 17435 /2317 10072 20057 39784 49974 55006 60011 782// 91150 333 81/15 85/22 90710 91127
AAXX 01124 03281 16/// /2015 10067 20067 69941 91150 333 90710 91126
AAXX 01124 03903 16480 /2310 10062 20035 39878 49935 58003 69941 91150 333 553// 20292 81/19 85/62
AAXX 01124 03904 16980 /2116 10059 20034 39863 49922 58005 69921 91150 333 8//99 90710 91125
AAXX 01124 03907 15681 /2114 10068 20036 39908 49916 58006 69901 91150 333 55304 20399 81/37 90710 91130
AAXX 01124 03911 16482 /2209 10051 20030 39660 49930 58006 69921 91150 333 82/13
AAXX 01124 03915 16580 /2111 10065 20045 39848 49925 58005 60001 91150 333 84/20
AAXX 01124 03916 16983 /2507 10057 20033 39729 49917 58008 60001 91150 333 553// 20396 8//99 91020
AAXX 01124 03923 17472 /2414 10062 20036 39745 49938 58005 69901 781// 91150 333 84/15 85/22 90710 91125 91025
BBXX WE4805 01124 99468 70867 41/// 83022 10013 2//// 49997 54000 77507 8//// 22273 0//// 20302 3//// 4//// 5//// 6//// 8//// ICE /////
BBXX NWS0029 01124 99415 70707 43/// /2906 10058 20030 40174 5//// 7//// 8//// 222// 04067 2//// 3//// 4//// 5//// 6//// 8//// ICE /////
BBXX KAOU 01124 99009 10859 43/// /2281 10278 20227 40087 5//// 7//// 8//// 222// 04289 2//// 3//// 4//// 5//// 6//// 8//// ICE /////
BBXX NWS0003 01124 99539 71665 43/// /3500 10006 21046 40027 5//// 7//// 8//// 222// 0//// 2//// 3//// 4//// 5//// 6//// 8//// ICE /////
BBXX 3EBL5 01123 99260 70801 41899 20907 10240 20057 40220 53020 7//00 82//1 22200 04240 20000 3//// 4//// 5//// 6//// 80140 ICE /////
BBXX NWS0020 01124 99261 70801 43/// /0605 10226 20142 40230 5//// 7//// 8//// 222// 04254 2//// 3//// 4//// 5//// 6//// 8//// ICE /////
BBXX NWS0021 01124 99321 70722 43/// /3110 10209 20148 40212 5//// 7//// 8//// 222// 04218 2//// 3//// 4//// 5//// 6//// 8//// ICE /////
BBXX WZP8164 01124 99472 70866 41/98 82921 10005 2//// 40007 57001 70222 8//// 22223 0//// 20402 3//// 4//// 5//// 6//// 8//// ICE /////
BBXX WAZV 01124 99490 71280 41597 81255 10060 2//// 40150 54000 76262 887// 22232 00090 20406 313// 41015 5//// 6//// 8//// ICE /////
AAXX 01124 78526 NIL
AAXX 01124 78543 NIL
BBXX 44060 01121 99413 70721 46/// ///02 10070 40185 53015 91200 22200 00088 333 91203 555 11021 22021
BBXX 44022 01121 99409 70737 46/// ///02 10067 20043 40194 53019 91200 22200 00070 333 91203 555 11026 22026
AAXX 01124 17600 11562 62720 10170 20106 30084 40093 58004 60041 72998 86900 333 84824 82929 91132 92447 96025
AAXX 01124 17601 NIL
AAXX 01124 17607 41565 62202 10151 20096 39897 40087 56011 72982 84983 333 82820 82925 83650
AAXX 01124 17609 11565 52612 10178 20104 30088 40092 58012 60021 72598 84983 333 81925 83650
BBXX 41041 01121 99142 70460 46/// /0811 10254 20209 40177 52023 91150 22200 00261 11007 20705 3//// 41005 70036 333 91213 555 11112 22120 31059 40813 61149 081105 079100 081098 082100 077101 082102 80811 91059
BBXX 46001 01121 99563 71480 46/// /3517 11007 49967 56029 91150 22200 00041 10809 20809 300// 41401 70046 333 91221 555 11178 22188 31102 43422 61149 351167 350169 351170 349171 351170 349176
AAXX 01124 78255 12559 30000 10220 20204 30059 40208 52010 60004 81802 333 20220 81820
AAXX 01124 78317 NIL
AAXX 01124 78318 NIL
AAXX 01124 78325 NIL
AAXX 01124 78333 NIL
AAXX 01124 78338 NIL
AAXX 01124 78348 NIL
AAXX 01124 78349 NIL
AAXX 01124 78353 NIL
AAXX 01124 78360 NIL
AAXX 01124 78367 NIL
AAXX 01124 78369 NIL
AAXX 01124 17600 11562 62720 10170 20106 30084 40093 58004 60041 72998 86900 333 84824 82929 91132 92447 96025
AAXX 01124 17601 NIL
AAXX 01124 17607 41565 62202 10151 20096 39897 40087 56011 72982 84983 333 82820 82925 83650
AAXX 01124 17609 11565 52612 10178 20104 30088 40092 58012 60021 72598 84983 333 81925 83650
AAXX 01124 91165 NIL
AAXX 01124 91182 NIL
AAXX 01124 91190 NIL
AAXX 01124 91212 NIL
AAXX 01124 91217 NIL
AAXX 01124 91285 NIL
AAXX 01124 91317 32474 60908 10283 20271 30104 40108 5//// 82201 333 562/9 59010 82818 83080 555 90112
AAXX 01124 91334 32474 20315 10279 20232 30095 40098 52003 81101 333 10328 561/9 59002 555 90112
AAXX 01124 91348 NIL
AAXX 01124 91356 NIL
AAXX 01124 91366 NIL
AAXX 01124 91369 NIL
AAXX 01124 91371 NIL
AAXX 01124 91376 32474 80808 10273 20240 30080 40083 58005 84878 333 10280 56229 59010 70099 555 90112
AAXX 01124 91408 32474 80807 10275 20224 30064 40102 52012 81278 333 10311 56999 59009 70005 555 90112
AAXX 01124 91413 32469 60708 10273 20222 30093 40118 52010 82231 333 10317 56299 59004 555 90112
AAXX 01124 91425 NIL
AAXX 01124 91434 NIL
AAXX 01124 91765 NIL
AAXX 01124 91222 NIL
AAXX 01124 91245 NIL
AAXX 01124 91323 NIL
AAXX 01124 91339 NIL
AAXX 01124 91343 NIL
AAXX 01124 91353 NIL
AAXX 01124 91442 NIL
BBXX 51003 01121 99193 71606 46/// /0905 10238 40161 58013 91150 22200 00249 11203 20401 3//// 41203 70016 333 91206 555 11052 22055 31113 40907 61149 090049 095048 085046 088049 082049 081047
BBXX 46053 01121 99342 71198 46/// /0802 10110 40188 54000 91150 22200 00140 11403 326// 41403 70015 333 91203 555 11023 22023 31057 40805 61149 078022 082020 087024 084026 072038 077041
BBXX 46042 01121 99368 71224 46/// /0707 10131 40185 50000 91150 22200 00124 11204 20402 331// 41204 70022 333 91209 555 11075 22081 31105 40811 61149 075069 079069 075074 081088 076089 070084
BBXX DBLK 01121 99425 30090 41497 22716 10106 20069 40034 52012 70281 82400 22213 04101 20606 326// 41008
BBXX BATFR08 01124 99266 30545 44597 31311 10242 20162 40130 58007 702// 831// 22243 00265 20804 315// 40804 5////
BBXX BATFR45 01124 99012 10527 46/// ///// 10280 20215 40115 55012 22254 00282
BBXX BATFR19 01124 99067 30055 46/// /1810 10244 20194 40139 58016 22200 00259
BBXX BATFR05 01124 99079 70146 46/// /0912 10280 20195 40127 58012 22273 00264
BBXX ICRA 01124 99048 30555 418// 33020 10270 2024/ 40110 54040 7//// 83/1/ 22254 00270 2//// 3//// 4//// 5//// 6//// 80250 ICE /////
BBXX 32012 01121 99197 50856 46/// ///// 1//// 91150 22200 11103 70017
BBXX C6SI6 01124 99451 11522 46/// /1910 10009 21037 40230 53003 7//// 8//// 22213 0//// 2////
BBXX 46070 01121 99551 11753 46/// /0108 11021 21078 40069 56007 91150 22200 00031 11005 20704 3//// 41004 70025 333 91210 555 11086 22090 31056 40211 61149 011082 007082 008081 004079 006079 021079 80109 91116
BBXX C6DM2 01124 99057 10999 416// 73205 10270 20228 40090 50010 7//11 878// 22273 0//// 2//// 3//// 4//// 5//// 6//// 80240 ICE /////
BBXX 44007 01121 99435 70701 46/// /2604 10046 20046 40153 51022 91150 22200 00074 10801 3//// 40801 70004 333 91205 555 11044 22045 31130 42805 61149 264042 277042 277042 270035 265038 271032
BBXX 46082 01121 99597 71434 46/// ///// 10030 49999 56048 91150 22200 00060 10706 70031
BBXX 46077 01121 99579 71543 46/// /1702 11073 21112 40096 58014 91150 22200 00024 10501 20301 3//// 40501 70005 333 91203 555 11015 22016 31118 42404 61149 165014 202008 166016 236018 284018 205015 82503 91118
BBXX 46035 01121 99571 71778 46/// /0116 1//// 40034 51019 91150 22200 11008 20806 300// 41005 70039 333 91220 555 11160 22171 31144 43520 61149 013161 023146 022146 022160 027152 021150 80218 91145
BBXX 46072 01121 99517 71722 46/// /2504 10007 21006 40050 58019 91150 22200 00042 10706 20401 3//// 40706 70029 333 91205 555 11040 22042 31113 42306 61149 254038 251039 249042 247045 247045 245045 82505 91108
BBXX 42039 01121 99288 70860 46/// /1804 10217 40230 53008 91150 22200 00229 10501 70003 333 91205 555 11040 22041 31100 41706 61149 175038 176039 169044 170045 167052 165051 81706 91100
BBXX 41040 01121 99145 70530 46/// /0811 10264 20220 40175 53024 91150 22200 00269 10907 20605 3//// 40904 70033 333 91213 555 11115 22123 31115 40714 61149 077107 070107 066108 068112 065112 066105 80712 91115
BBXX PHQX 01123 99149 70654 41597 20909 10272 20217 40180 52020 70200 82200 22254 20303 3//// 4//// 5//// 80233
BBXX FVNM 01124 99144 70822 46/// /0815 10262 20222 40144 53017 22281 00277
BBXX BATEU04 01124 99630 70512 46/// /3505 11123 21181 40013 57001 22233
BBXX BATFR13 01124 99253 70510 44498 40920 10242 20194 40268 53010 70211 843// 22254 00252 20404 311// 41204 5////
BBXX VCXF 01124 99464 70484 41798 81225 10019 2000/ 40179 57050 70222 885// 22200 02021 20303 33524 41007 50904 80010
BBXX BAREU54 01124 99098 70814 46/// ///// 40121 52007 22223
BBXX BAREU04 01124 99412 70676 46/// ///// 40148 52013 22213
BBXX 46059 01121 99380 71300 46/// /1611 10128 40156 56024 91150 22200 00135 11304 20603 3//// 41302 70020 333 91213 555 11118 22125 31052 41613 61149 154108 153103 152105 152102 155102 153102
BBXX 46075 01121 99539 71608 46/// /2011 10003 21038 40086 58036 91150 22200 00039 11304 20503 300// 41303 70021 333 91214 555 11118 22124 31148 42114 61149 202110 201106 201104 203112 207111 211111 82112 91057
BBXX 44025 01121 99402 70732 46/// /2605 10089 20060 40193 53016 91150 22200 00099 10802 20401 315// 40801 70008 333 91206 555 11057 22059 31145 42606 61149 259054 264048 260045 257042 267031 270029
BBXX 46080 01121 99580 71500 46/// /3512 11045 21096 40038 58030 91150 22200 00043 10604 20604 70020 333 91214 555 11127 22133 31102 43515 61149 348120 345122 344122 343120 343120 345118 83514 91131
BBXX 46005 01121 99461 71310 46/// ///12 10113 40062 56007 91150 22200 00099 10908 20906 3//// 41505 70040 333 91215 555 11132 22142
BBXX 41013 01121 99334 70777 46/// /1601 10175 20094 40225 53009 91150 22200 00184 10601 20401 320// 40601 70007 333 91202 555 11014 22015 31052 41102 61149 156014 130012 136013 128014 130013 123014
BBXX 44065 01121 99404 70737 46/// /2606 10073 20051 40196 53017 91150 22200 00091 10701 20501 317// 40701 70007 333 91207 555 11058 22060 31052 42507 61149 259055 260058 259056 258058 262060 259060 82607 91052
BBXX 44027 01121 99443 70673 46/// /3411 10025 20006 40117 53037 91150 22200 00077 10403 20403 3//// 40901 70014 333 91213 555 11114 22120 31052 43313 61149 336106 333104 337101 342099 336099 328108
BBXX 44040 01121 99410 70736 46/// /2504 10070 20059 40198 91145 22200 1//00 70001 333 91205 555 11057 22067
BBXX UFTA 01121 99844 71200 41996 82406 11240 21269 40041 52007 77173 80007 333 11239
BBXX 46239 01121 99363 71221 46/// ///// 1//// 91151 22200 00119 11306 21003 329// 41305 70028
BBXX 46238 01121 99334 71195 46/// ///// 1//// 91150 22200 00139 11303 21002 329// 41303 70017
BBXX 46214 01121 99379 71235 46/// ///// 1//// 91150 22200 00117 11305 21003 330// 41304 70026
BBXX 46224 01121 99332 71175 46/// ///// 1//// 91136 22200 00145 11302 21001 322// 41301 70008
BBXX 46219 01121 99332 71199 46/// ///// 1//// 91158 22200 00137 11105 21003 330// 41104 70024
BBXX 44099 01121 99369 70757 46/// ///// 1//// 91152 22200 00101 10801 20801 70005
BBXX 41112 01121 99307 70813 46/// ///// 1//// 91151 22200 00166 11001 21001 70003
BBXX 41110 01121 99341 70777 46/// ///// 1//// 91151 22200 00133 10601 20601 70005
BBXX 42099 01121 99273 70842 46/// ///// 1//// 91157 22200 00223 10501 20501 70003
BBXX 41113 01121 99284 70805 46/// ///// 1//// 91151 22200 00213 11101 70003
BBXX 41101 01124 99146 70562 46/// /0822 10266 20221 40166 52024 22200 00268 10806 70030 555 1/028
BBXX 46243 01121 99462 71241 46/// ///// 1//// 91159 22200 00090 11303 21002 326// 41302 70015
BBXX 46225 01121 99329 71174 46/// ///// 1//// 91144 22200 00149 11302 20801 323// 41302 70009
BBXX 46213 01121 99403 71247 46/// ///// 1//// 91154 22200 00108 11304 20902 328// 41303 70020
BBXX 46229 01121 99438 71246 46/// ///// 1//// 91151 22200 00098 11304 21003 327// 41303 70022
BBXX 46232 01121 99325 71174 46/// ///// 1//// 91138 22200 00147 11404 20902 328// 41403 70018
BBXX 46215 01121 99352 71209 46/// ///// 1//// 91138 22200 00125 11303 21002 328// 41303 70017
BBXX 46247 01121 99378 71228 46/// ///// 1//// 91151 22200 00115 11304 21003 329// 41303 70022
BBXX 46236 01121 99368 71219 46/// ///// 1//// 91150 22200 00121 11204 21002 328// 41203 70020
BBXX 46218 01121 99345 71208 46/// ///// 1//// 91202 22200 00133 11405 21003 329// 41404 70025
BBXX 44172 01121 99445 70634 46/// ///// 1//// 91201 22200 00053 10803 20803 70016
BBXX 44097 01121 99410 70711 46/// ///// 1//// 91202 22200 00109 10803 20803 70014
BBXX 44008 01121 99405 70692 46/// /3108 10088 20056 40174 52031 91150 22200 00116 333 91210 555 11088 22092 31051 43011 61149 309083 311083 310088 307086 307085 308088
BBXX 41046 01121 99238 70683 46/// /0905 10247 20207 40223 53012 91150 22200 00252 10903 20401 300// 40903 70016 333 91206 555 11053 22055 31149 40806 61149 089048 105037 104041 104039 107040 106038 80805 91149
BBXX 42363 01121 99282 70892 46/// /2105 10222 20178 40237 52006 91200 333 91205
BBXX 44011 01121 99411 70666 46/// /3109 10085 20063 40131 52040 91150 22200 00091 10706 20706 70031 333 91211 555 11100 22106 31055 41213 61149 310094 310098 306095 306095 308099 306105
BBXX 42362 01121 99278 70907 46/// /2204 10222 20194 40237 53010 91200
BBXX 46061 01121 99602 71468 46/// /3512 11027 40031 58036 91150 22200 00052 10502 20502 300// 40901 70012 333 91214 555 11126 22132 31107 43514 61149 353118 354119 348111 347113 352120 348116
BBXX 46083 01121 99582 71380 46/// /1219 10020 21006 49983 56049 91150 22200 00063 10809 20808 300// 41101 70043 333 91224 555 11209 22224 31103 41126 61149 116195 120195 122188 120190 115203 116193 81122 91148
BBXX 51101 01121 99243 71621 46/// /1406 10214 20192 40178 58007 91150 22200 00238 11004 20501 309// 41003 70019 333 91208 555 11066 22069 31116 41308 61149 139063 136070 132056 125065 089064 092059
BBXX 46089 01121 99459 71258 46/// /1409 10094 20063 40194 52006 91150 22200 00092 11105 20804 325// 41103 70024 333 91211 555 11097 22103 31057 41412 61149 145091 145098 145093 145095 145094 145099
BBXX 42057 01121 99168 70815 46/// /0810 10273 20225 40159 51010 91150 22200 00274 10703 20703 3//// 40802 70017 333 91212 555 11101 22107 31107 40812 61149 076101 072101 073100 074096 072100 071094 80711 91142
BBXX 41010 01121 99289 70785 46/// /0000 10216 40242 53015 91150 22200 00236 10901 20401 300// 40901 70006 333 91201 555 11004 22004
BBXX 41009 01121 99285 70802 46/// /3004 10217 20182 40242 53012 91150 22200 00234 10901 300// 40901 70004 333 91204 555 11037 22039
BBXX CGCC 01124 99463 70725 46/// /1903 11037 21043 40173 51003 7//// 8//// 22200 0//// 2////
BBXX CGBN 01124 99447 70636 46/// /3117 10033 20024 40042 51033 7//// 8//// 22200 0//// 2////
BBXX 3FZK3 01124 99489 71237 46/// /2903 10020 20019 40277 53011 7//// 8//// 22200 0//// 2////
BBXX VOKF 01124 99490 70669 46/// /3607 11027 21032 40154 53010 7//// 8//// 22200 0//// 2////
BBXX VAAP 01124 99462 70602 46/// /0116 10040 20038 49973 56026 7//// 8//// 22200 0//// 2////
BBXX CGDX 01124 99468 70712 46/// /2403 11032 21035 40186 51012 7//// 8//// 22200 0//// 2////
BBXX VCBW 01124 99456 70735 46/// /2003 11007 21021 40167 50005 7//// 8//// 22200 0//// 2////
BBXX CGDG 01124 99447 70636 46/// /3320 10029 20077 40043 51034 7//// 8//// 22200 0//// 2////
BBXX CGHL 01124 99476 70527 46/// /1405 10008 20000 40134 56038 7//// 8//// 22200 0//// 2////
BBXX VCWL 01124 99468 70712 46/// /0000 11036 21037 40185 51012 7//// 8//// 22200 0//// 2////
BBXX CGJV 01124 99462 70631 46/// /3510 10020 20018 40040 51021 7//// 8//// 22200 0//// 2////
BBXX VOKJ 01124 99455 70735 46/// /2202 11012 21016 40166 50004 7//// 8//// 22200 0//// 2////
BBXX VOFG 01124 99456 70614 46/// /3121 10043 20042 49986 56009 7//// 8//// 22200 0//// 2////
BBXX VXKF 01124 99462 70602 46/// /3612 10047 20047 49974 58024 7//// 8//// 22252 0//// 2////
BBXX CGTF 01124 99476 70527 46/// /3504 10005 21002 40134 56039 7//// 8//// 22200 0//// 2////
BBXX VCSZ 01124 99480 70609 46/// /0438 10011 20013 40019 56030 7//// 8//// 22233 0//// 2////
BBXX VOLG 01124 99458 70598 46/// /3615 10051 20050 49954 56027 7//// 8//// 22212 0//// 2////
BBXX CGDR 01124 99484 71234 46/// /0205 10055 20030 40264 53006 7//// 8//// 22200 0//// 2////
BBXX VRYO3 01124 99456 70735 46/// /2003 11008 21019 40162 50005 7//// 8//// 22200 0//// 2////
BBXX CGBR 01124 99525 71288 46/// /3609 10041 20025 40152 58020 7//// 8//// 22200 0//// 2////
BBXX CGSB 01124 99483 70709 46/// /0805 11092 21116 40187 58005 7//// 8//// 22200 0//// 2////
BBXX VCLM 01124 99468 70712 46/// /1504 11037 21039 40178 51012 7//// 8//// 22200 0//// 2////
BBXX CG2958 01124 99512 71279 46/// /1233 10065 21027 40126 58053 7//// 8//// 22242 0//// 2////
BBXX CGBY 01124 99487 71235 46/// /0102 10035 20016 40272 53010 7//// 8//// 22200 0//// 2////
BBXX CGDT 01124 99468 70712 46/// /1404 11035 21037 40186 51013 7//// 8//// 22200 0//// 2////
BBXX CGUM 01124 99462 70602 46/// /0308 10052 20051 49981 56028 7//// 8//// 22200 0//// 2////
BBXX VOPP 01124 99456 70735 46/// /2003 11014 21015 4//// 5//// 7//// 8//// 22200 0//// 2////
BBXX CZ9742 01124 99506 70969 46/// /2916 11072 21101 4//// 5//// 7//// 8//// 22200 0//// 2////
BBXX VCRG 01124 99474 70619 46/// /0129 10022 20021 40008 56009 7//// 8//// 22200 0//// 2////
BBXX 46041 01121 99474 71247 46/// /1212 10077 40206 58005 91150 22200 00087 11304 20503 3//// 41303 70020 333 91215 555 11133 22141 31149 41215 61149 115122 114121 114115 113116 110114 113112
BBXX 46026 01121 99378 71228 46/// /0810 10128 40196 56007 91150 22200 00115 11304 20502 329// 41304 70022 333 91213 555 11109 22119 31101 42816 61149 074104 281106 281101 282104 284122 288127
BBXX 44020 01121 99414 70702 46/// /2806 1//// 40170 52024 91150 22200 00065 333 91207 555 11060 22063
BBXX 44014 01121 99366 70748 46/// /1903 1//// 40220 53009 91150 22200 00140 10502 20401 303// 40501 70008 333 91203 555 11026 22026 31100 41904 61149 193026 198026 197028 205027 194030 210029
BBXX 44009 01121 99385 70747 46/// /2803 10089 40224 53009 91150 22200 00099 10701 20301 300// 40701 70005 333 91203 555 11028 22029 31050 43003 61149 282026 278024 280025 282025 292025 298026
BBXX 41004 01121 99325 70791 46/// /2503 10185 20082 40235 53010 91150 22200 00204 10901 3//// 40901 70004 333 91203 555 11027 22027 31059 42404 61149 246026 251026 251025 249027 244026 249027
BBXX 44039 01121 99411 70727 46/// /2405 10079 20059 40196 91145 22200 00083 1//00 70002 333 91206
BBXX 44060 01121 99413 70721 46/// ///01 10069 40181 91145 22200 00090 333 91202 555 11010 22010
BBXX 41008 01121 99314 70809 46/// /2302 10152 20138 40237 53009 91150 22200 00161 11001 300// 41001 70003 333 91202 555 11016 22017 31124 42603 61149 233016 241017 257023 269021 274018 281015
BBXX 44022 01121 99409 70737 46/// ///03 10067 20043 40194 91145 22200 00070 333 91204 555 11026 22026
BBXX 46105 01121 99590 71522 46/// ///// 1//// 91150 22200 10604 70018
BBXX 46025 01121 99337 71191 46/// /2201 10105 20103 40185 54000 91150 22200 00147 11503 326// 41503 70013 333 91202 555 11012 22012 31127 41703 61149 215013 182009 186016 208006 276004 204005
BBXX 46029 01121 99461 71245 46/// /1008 10088 20046 40207 58006 91150 22200 00088 11203 20502 327// 41202 70015 333 91210 555 11087 22092 31147 41010 61149 103081 104078 105076 104077 103081 105078
BBXX 46078 01121 99561 71526 46/// /3609 11050 21107 40063 57021 91150 22200 11304 20503 300// 41303 70021 333 91212 555 11093 22099 31144 43612 61149 001086 356087 008088 004090 000092 005087 80110 91108
BBXX 46028 01121 99357 71219 46/// /1901 10126 40182 52003 91150 22200 00130 11204 20301 328// 41204 70022 333 91202 555 11010 22011 31109 40903 61149 196010 169012 145010 109012 087013 084010
BBXX 46006 01121 99408 71375 46/// /1708 10128 49969 56025 91150 22200 00121 10806 20705 3//// 40804 70032 333 91210 555 11091 22098 31123 41710 61149 169085 170081 172083 173081 177085 175083
BBXX 46084 01121 99566 71361 46/// ///// 10042 20033 49996 58033 91150 22200 00069 11112 70061
BBXX 46087 01121 99485 71247 46/// /0911 10049 20042 40237 58004 91150 22200 00080 11103 20402 326// 41103 70016 333 91213 555 11117 22123 31103 40914 61149 084111 086106 083109 082112 081115 079106
BBXX 46013 01121 99382 71233 46/// /0810 10102 40199 56009 91150 22200 00109 11205 20301 3//// 41205 70024 333 91212 555 11101 22107 31131 40812 61149 077093 075097 076098 077099 079099 079092
BBXX 46069 01121 99337 71202 46/// /1502 10091 40189 50000 91150 22200 00132 11405 328// 41405 70023 333 91204 555 11024 22024 31132 41404 61149 146023 137024 130022 148024 159020 173026
BBXX 46002 01121 99426 71305 46/// ///// 10126 40113 57013 91150 22200 00118 10906 70029
BBXX 46050 01121 99442 71246 46/// /1206 10092 40208 56004 91150 22200 00094 11404 20401 325// 41404 70020 333 91208 555 11065 22069 31104 41209 61149 119061 122064 125070 126071 127073 129069
BBXX 46012 01121 99374 71229 46/// /0409 10124 40191 56006 91150 22200 00119 11305 20402 330// 41304 70023 333 91210 555 11091 22098 31050 40411 61149 039085 039088 039083 035085 039085 042087
BBXX 46088 01121 99483 71232 46/// /0908 10061 40253 51007 91150 22200 00076 10402 20402 70009 333 91210 555 11086 22090 31055 41012 61149 087080 093084 096091 097095 100090 104100
BBXX 46086 01121 99325 71180 46/// /0000 10107 40190 51004 91150 22200 00150 11504 327// 41504 70018 333 91202 555 11005 22005 31105 43503 61149 108006 083007 016009 325008 344015 338011
BBXX 46014 01121 99394 71240 46/// /1204 10102 40203 57010 91150 22200 00108 11204 20401 3//// 41204 70020 333 91205 555 11041 22042 31108 41006 61149 125039 124042 117037 104039 098041 096036
BBXX 46011 01121 99350 71210 46/// /0701 10119 40187 54000 91150 22200 00131 11205 20401 330// 41205 70024 333 91202 555 11006 22006 31147 41002 61149 063006 043005 034003 013002 180001 125003
BBXX 46027 01121 99419 71244 46/// /1104 10089 40204 58005 91150 22200 00090 11204 329// 41204 70020 333 91206 555 11046 22048 31149 41106 61149 109043 104039 095031 089030 088032 091034
BBXX 46047 01121 99324 71195 46/// /1602 10107 40193 53003 91150 22200 00134 11405 328// 41405 70024 333 91204 555 11022 22022 31129 41605 61149 165021 156023 157025 144022 159021 171017
BBXX 41044 01121 99217 70587 46/// /0909 10254 20201 40229 53017 91150 22200 00257 10806 20704 300// 40804 70029 333 91211 555 11094 22100 31050 40911 61149 090089 086089 087088 089091 092089 085086 80910 91119
BBXX 41060 01121 99148 70510 46/// ///// 1//// 91150 22200 11006 70031
BBXX 42003 01121 99260 70856 46/// /0703 1//// 91150 22200 10501 300// 40501 70003 333 91203 555 11028 22029 31101 40904 61149 073026 082026 088025 085025 087029 086028 80903 91101
BBXX 42040 01121 99292 70882 46/// /2003 10206 40229 53008 91150 22200 00201 10501 321// 40501 70003 333 91204 555 11032 22037 31102 41905 61149 203032 202034 205033 197034 190038 192037
BBXX 42056 01121 99198 70849 46/// /0610 10260 20244 40181 53007 91150 22200 00269 10703 20703 70016 333 91212 555 11107 22113 31146 40712 61149 061099 060090 064090 062092 059090 057090 80611 91145
BBXX 42019 01121 99279 70954 46/// /0000 10226 20219 40223 53023 91150 22200 10602 20301 316// 40602 70008 333 91201 555 11004 22005 31130 40101 61149 179003 034003 005005 285003 300003 300002
BBXX 44005 01121 99432 70691 46/// /3309 10072 20045 40142 51033 91150 22200 00081 10402 20402 3//// 40801 70012 333 91210 555 11092 22097 31130 43211 61149 330086 323091 324090 319092 319083 312089
BBXX 42059 01121 99151 70675 46/// /1010 10267 20218 40167 53021 91150 22200 00277 10804 20804 70022 333 91212 555 11109 22115 31141 40913 61149 099103 083098 083092 085087 090092 079094 81011 91142
BBXX 42058 01121 99149 70749 46/// /0812 10271 20219 40137 53017 91150 22200 00271 10807 20807 70033 333 91214 555 11123 22132 31103 40915 61149 083115 079114 079115 079116 082127 078121 80914 91104
BBXX 42036 01121 99285 70845 46/// /1604 10210 20158 40235 53009 91150 22200 00212 10501 321// 40501 70003 333 91205 555 11045 22048 31114 41506 61149 159043 157043 158043 156047 159047 156045
BBXX 42060 01121 99163 70635 46/// /0709 10268 20208 40185 53020 91150 22200 00273 10605 20605 300// 41001 70024 333 91212 555 11100 22106 31121 40612 61149 066095 065101 067107 061101 066092 074092 80611 91121
BBXX 42035 01121 99292 70944 46/// /2803 10172 20172 40230 51019 91150 22200 00158 10501 20301 320// 40501 70006 333 91204 555 11034 22040 31051 43205 61149 283030 284028 255031 271033 299022 323041
BBXX 42065 01121 99149 70750 46/// /0809 10266 20224 91150 22200 10603 20603 70016 333 91211 555 11093 22099 31117 40711 61149 074087 070083 072090 065091 061089 061085 80710 91117
BBXX 42020 01121 99270 70967 46/// /3603 10210 20205 40222 53019 91150 22200 00196 10602 20401 312// 40601 70008 333 91203 555 11033 22039 31111 41604 61149 002028 012010 150016 157034 167034 170019
BBXX CG2960 01124 99429 70824 46/// /1507 10040 20023 40057 56051 7//// 8//// 22200 0//// 2////
BBXX CG2350 01124 99433 70798 46/// /1409 10051 20022 40109 56037 7//// 8//// 22200 0//// 2////
BBXX CGDS 01124 99429 70792 46/// /2311 10044 20024 40127 56033 7//// 8//// 22200 0//// 2////
BBXX 41012 01121 99300 70805 46/// /2905 1//// 91150 555 11053 22057
BBXX 41049 01121 99275 70630 46/// /2201 10230 20209 40254 53017 91150 22200 00232 10903 20401 300// 40903 70017 333 91201 555 11009 22010 31101 41702 61149 217010 193010 184012 185012 175013 172013 81702 91107
BBXX 42012 01121 99301 70876 46/// /2004 10192 20182 40224 53005 91150 22200 00181 10301 20301 70004 333 91204 555 11044 22051 31057 42005 61149 203040 200042 200040 204041 205043 201046
BBXX 42001 01121 99259 70897 46/// /1505 10241 20193 40232 53010 91150 22200 00241 10401 20401 70004 333 91205 555 11048 22051 31104 41606 61149 151045 149043 148043 148045 155045 157043
BBXX 41048 01121 99320 70696 46/// /2706 10216 20153 40226 53019 91150 22200 00221 10804 20502 3//// 40804 70022 333 91207 555 11062 22065 31054 42708 61149 271062 272065 272064 270068 273069 274068 82707 91055
BBXX 41001 01121 99347 70727 46/// ///// 10185 20079 40223 53018 91150 22200 00214 10804 70022
BBXX WDC6698 01124 99213 71579 43/// /2002 1//// 2//// 40150 5//// 7//// 8//// 222// 04237 2//// 3//// 4//// 5//// 6//// 8//// ICE /////
BBXX 41047 01121 99275 70715 46/// /0902 10239 40237 53015 91150 22200 00253 10802 314// 40802 70011 333 91202 555 11015 22015 31146 40802 61149 087015 100016 105013 087010 093009 106010 80802 91146
BBXX 41043 01121 99211 70650 46/// /0908 10253 20223 40216 53016 91150 22200 00258 11005 20703 300// 41004 70024 333 91210 555 11085 22090 31148 41010 61149 091080 094083 099084 104077 097085 090080 81009 91127
BBXX PBIG 01124 99120 70732 41498 20823 10250 20223 40131 52006 70200 81180 22264 00290 20502
BBXX NWS0022 01124 99416 70714 43/// /2105 10060 20045 40175 5//// 7//// 8//// 222// 04094 2//// 3//// 4//// 5//// 6//// 8//// ICE /////
BBXX 44066 01121 99396 70726 46/// /3103 10101 20063 40200 53017 91150 22200 00123 10502 20401 3//// 40502 70012 333 91204 555 11030 22031 31101 43305 61149 304029 300028 313028 326030 312037 319035
BBXX 41036 01121 99342 70770 46/// ///// 10172 20066 40223 53007 91150 22200 00207 10602 70008
BBXX 42055 01121 99222 70940 46/// /0906 10249 20216 40196 53011 91150 22200 00250 10502 20502 70009 333 91207 555 11063 22066 31110 41008 61149 088059 090057 090063 090066 096063 097060 80907 91128
BBXX 42002 01121 99258 70937 46/// /1405 10241 20233 40223 53013 91150 22200 00244 10602 20401 317// 40602 70009 333 91205 555 11045 22048 31130 41506 61149 142045 146050 148051 154049 148051 151045
BBXX TFHFN 01124 99642 70152 46/// ///// 22200 10906 70031
BBXX TFSTD 01124 99664 70234 46/// ///// 22200 10810 70049
BBXX TFDRN 01124 99658 70212 46/// ///// 22200 10706 70028
BBXX TFGSK 01124 99641 70229 46/// ///// 22200 10908 70040
BBXX TFSRT 01124 99633 70203 46/// ///// 22200 11010 70048
BBXX TFGRS 01124 99663 70182 46/// ///// 22200 10806 70030
BBXX TFGRV 01124 99638 70225 46/// ///// 22200 10907 70036
BBXX TFKGR 01124 99657 70136 46/// ///// 22200 10806 70028
BBXX 62087 01121 99547 10068 46/// /0602 10094 20090 4//// 5//// 22230 00080
BBXX DBBH 01121 99378 10157 41598 13411 10159 20067 40228 57013 70100 81110 22241 04159 20401
BBXX DBBI 01121 99535 10100 46/// /2507 10111 20111 40067 52008 22260 00053
BBXX DBND 01121 99536 10086 46/// /2306 10106 20098 40061 52005 22220 00065
BBXX DBBC 01121 99535 10100 46/// /2507 10109 20097 40067 52008 22220 00054
BBXX DBKR 01121 99541 10121 46/// /2104 10090 20090 40053 57003 22200 00058
BBXX DK7210 01121 99540 10066 46/// /2212 10099 20099 30021 222// 20604 70018
BBXX BATFR53 01124 99174 51283 44/97 00609 10247 20189 40152 56010 70200 22222 00259 309// 40502 5////
AAXX 01124 65352 32956 70404 10337 20061 3//// 4//// 80002 333 5//// 87076
AAXX 01124 65361 32960 70406 10325 21020 3//// 4//// 80002 333 5//// 87076
AAXX 01124 65376 32956 70408 10314 20069 39662 40120 80002 333 59014 87073
AAXX 01124 65387 32957 72206 10219 20208 30084 40102 80002 333 59007 87073
AAXX 01121 10004 46/60 /2210 10094 20086 30039 40039 58001 222// 00075 333 55304 91115 91212
AAXX 01124 64500 32460 61808 10291 20235 30111 40124 84500 333 0//00 58005 84611 85640
AAXX 01121 63021 42980 00805 10246 21065 37744 40054 333 59001
AAXX 01124 89577 46/// /0908 11307 35786 4//// 5////
AAXX 01124 89578 46/// /0409 11312 36854 4//// 5////
AAXX 01124 81225 11470 40710 10248 20224 40151 60234 70161 81142 333 20/// 56299 58003 81810 83360
AAXX 01124 81200 11465 71008 10248 20221 40150 60054 70282 86832 333 20/// 56299 58004 83810 85620
AAXX 01124 81202 11460 71104 10236 20221 40152 60134 7158/ 87832 333 20230 56299 58003 83812 87625
AAXX 01124 81209 NIL
AAXX 01124 81251 NIL
AAXX 01124 91925 06/// /0404 10231 20199 30065 40126 56011 60001 333 10315 58015 60007 90710 91108 555 60005 10308
AAXX 01124 91929 04969 80306 10261 20228 30125 40128 56017 60001 700// 333 60007 90710 91108 555 60005
AAXX 01124 91938 01315 80812 10231 20215 30142 40144 56008 60171 76186 888// 333 60147 81806 87640 90710 91122 555 60145 10322
AAXX 01124 91943 36/// /0905 10260 20203 30135 40137 58011 333 58019
AAXX 01124 91944 06/// /0509 10243 20212 30141 40144 56009 60101 333 60107 90710 91116 555 60055
AAXX 01124 91948 06/// /0203 10239 20202 30059 40161 56013 69961 333 10288 59004 60007 90710 91106 555 60005 13406
AAXX 01124 91954 06/// /3506 10252 20229 30136 40139 58014 60001 333 10255 58015 60007
AAXX 01124 91958 06/// /2003 10229 20217 30148 40150 56016 69961 333 10269 58013 60007 90710 91105 555 60005 11905
AAXX 01124 91945 NIL
BBXX MGRH9 01124 99266 31532 41697 11223 10245 20164 40165 52/// 70100 81100 22200 00245 20806 314// 41003 5//// 80195
BBXX A8KH9 01124 99063 30798 41698 62612 10280 20246 40075 51015 7//// 84464 22214 20404 32499 40606 5//// 80255
BBXX A8KX4 01124 99389 51503 41499 42110 10150 20121 40210 54000 7//// 844// 22264 00161 2//// 80133
BBXX C6KD5 01123 99462 70081 41297 82524 10129 20120 40140 53008 76166 87774 22254 02132 21509 325// 41308 5//// 80124
BBXX PBDH 01123 99047 10984 41398 80302 10264 20234 40103 52022 70282 8577/ 22232 00280 20100 303// 40301 80242
AAXX 01121 38353 42998 02801 11058 21092 39324 40265 53008
AAXX 01121 38613 42999 01401 10002 21046 39312 40234 54000 555 1/101
AAXX 01121 38616 42597 10000 11014 21044 39205 40249 51003 81500
AAXX 01121 38345 42999 00000 11044 21124 38799 48490 53005 555 1/111
AAXX 01121 36911 42999 00000 11042 21065 39250 40248 53022 555 1/113
AAXX 01121 36974 429// 02202 11188 21207 37985 48565 53014 555 17120
AAXX 01121 36982 429// 03401 11178 21257 36540 47200 54000
AAXX 01124 48375 32960 00000 10275 20184 39884 40108 52016 333 10332 59016
AAXX 01124 48431 32960 20000 10272 20195 39920 40133 52014 80005 333 10300 59010
AAXX 01124 47090 32560 23204 11010 21096 30207 40230 52013 82500 333 10049 3/101 42001 92042
AAXX 01124 47095 11550 63602 11067 21107 30071 40270 52016 69902 70522 86500 333 11013 34104
AAXX 01124 47097 129// /3203 11053 21129 30161 40262 52019 69902 333 10008 3/106
AAXX 01124 47098 329// /3602 11069 21112 30127 40269 52019 333 11003 3/105
AAXX 01124 47099 329// /1401 11083 21112 30235 40274 52015 333 10011 3/106
AAXX 01124 47100 11358 72706 11085 21113 39282 40245 52028 69912 77077 85520 333 11034 3/105 49022
AAXX 01124 47102 12662 63209 11041 21093 30096 40283 50005 69902 85500 333 10014 34102
AAXX 01124 47104 32665 62707 11009 21102 30123 40223 52020 82510 333 10040 3/101 43002
AAXX 01124 47106 329// /2904 11007 21086 30166 40217 52019 333 10053 3/000
AAXX 01124 47112 11658 23411 11046 21103 30184 40272 51014 69902 70500 81500 333 10013 30104 92034
AAXX 01124 47114 12662 52702 11055 21124 30065 40257 52022 69922 85500 333 10012 3/106 46///
AAXX 01124 47119 11956 03405 11057 21104 30224 40268 50015 69902 70500 333 10006 34103
AAXX 01124 47121 129// /2704 11047 21102 39945 40253 52029 69912 333 10018 3/104
AAXX 01124 47127 129// /2502 11052 21111 30113 40262 52022 69922 333 10017 3/103
AAXX 01124 47129 12662 63608 11030 21082 30238 40275 50010 60022 85500 333 10010 3/001 43///
AAXX 01124 47130 32665 62708 11005 21101 30139 40202 50008 85500 333 10075 31102 92033
AAXX 01124 47131 12961 00001 11054 21102 30196 40270 52018 60022 333 10016 3/000 47003
AAXX 01124 47135 129// /2906 11041 21091 39945 40257 52025 69952 333 10012 3/102
AAXX 01124 47136 12670 22905 11033 21122 30055 40234 52013 69902 82500 333 10043 30105
AAXX 01124 47137 129// /2907 11037 21126 30123 40247 50014 69902 333 10027 3/104
AAXX 01124 47140 12668 53605 11026 21086 30239 40269 52011 69952 85500 333 10020 34101 92012
AAXX 01124 47143 11670 22910 11017 21100 30162 40244 52012 69922 72272 82500 333 10056 30103
AAXX 01124 47145 11958 03208 11045 21106 30235 40263 52017 69952 70500 333 10010 3/101 47///
AAXX 01124 47146 12668 43409 11023 21086 30198 40267 52013 69952 84500 333 10031 34000
AAXX 01124 47150 12668 23608 11031 21093 30248 40268 51009 60032 82500 333 10012 3/000 42///
AAXX 01124 47152 12670 23208 11010 21084 30169 40213 50020 69922 82500 333 10080 34101
AAXX 01124 47154 129// /2910 11028 21090 30182 40245 52013 69942 333 10042 3/101
AAXX 01124 47155 12970 02703 11007 21088 30178 40225 52021 69932 333 10082 34101
AAXX 01124 47156 11665 63606 11006 21057 30171 40263 51004 60012 72682 86500 333 10040 3/000 42///
AAXX 01124 47157 12970 03406 11031 21115 39949 40230 52011 69902 333 10043 30105
AAXX 01124 47162 32970 00511 10004 21101 30186 40228 52020 333 10075 30101 92024
AAXX 01124 47169 12670 63621 10020 21043 30170 40267 52005 69902 86500 333 10069 31002 92066
AAXX 01124 47170 12670 63409 10009 21083 30212 40257 52005 69902 85500 333 10072 30001 92023
AAXX 01124 47171 129// /3405 11015 21074 30211 40268 52007 60012 333 10019 3/000
AAXX 01124 47172 129// /3206 11001 21065 30191 40260 51007 60012 333 10041 3/001
AAXX 01124 47173 129// /3407 11018 21083 30142 40257 52007 60022 333 10021 3/101
AAXX 01124 47174 12665 63408 11018 21067 30035 40245 52011 69942 86500 333 10040 34101
AAXX 01124 47175 12570 63415 11027 21065 39662 40256 50004 69942 85500 333 10033 34101 92024
AAXX 01124 47185 12665 73231 10048 21032 30158 40251 50013 69902 87500 333 10090 31004 92057
AAXX 01124 47188 12670 63206 10042 21048 30226 40248 50006 69902 86500 333 10093 31003 92032
AAXX 01124 47189 32670 33402 10049 21044 30178 40239 54000 83500 333 10101 30002 92022
AAXX 01124 47192 12973 03606 11005 21115 30194 40232 51014 69902 333 10065 30101
AAXX 01124 47101 11658 43601 11072 21110 30164 40266 52022 69922 70522 84500 333 10007 3/109 44///
AAXX 01124 47105 369// /2703 11008 21092 30192 40225 52022 333 10045 3/000
AAXX 01124 47108 11956 03405 11063 21118 30159 40271 51019 69902 70500 333 10004 34104
AAXX 01124 47115 11512 80721 11003 21003 39879 40157 57014 60042 77177 8672/ 333 10043 3/000 46005 92045
AAXX 01124 47133 11665 33206 11035 21093 30179 40268 52017 60022 72272 83500 333 10014 3/000 43001
AAXX 01124 47138 12970 02909 11002 21112 30205 40208 50004 69902 333 10074 30101 92033
AAXX 01124 47159 12970 02906 11006 21105 30130 40218 51024 69902 333 10079 30102 92022
AAXX 01124 47165 12670 63616 10007 21051 30213 40261 52003 69922 86500 333 10061 31001 92035
AAXX 01124 47168 32670 63612 10002 21098 30153 40235 51008 85500 333 10072 30101 92024
AAXX 01124 47184 12665 73414 10049 21036 30238 40264 51010 69902 87500 333 10083 31004 92054
AAXX 01124 48409 32960 20000 10267 20203 39975 40123 52012 82041 333 10308 59020
AAXX 01124 48556 01458 80000 10237 20234 30086 40102 52010 60152 76166 83877 333 10260 59013 60077 70155
AAXX 01124 60715 12560 72713 10165 20112 30247 40254 56009 60001 8488/ 333 58036 50341 84823 85359 91021 91121
AAXX 01124 60723 12570 42606 10161 20134 30086 40274 56007 60001 83280 333 50111 83823
AAXX 01124 60725 12562 52610 10151 2//// 30102 40281 50003 60001 85800 333 50341 83820 83630
AAXX 01124 60735 12560 43302 10178 20094 30177 40258 58010 60001 84800 333 50171 81823 84630
AAXX 01124 60745 12560 22508 10170 20043 39899 40268 56015 60001 82500 333 50341 81630
AAXX 01124 60748 12565 22204 10175 20061 39847 40262 56017 60001 82200 333 50291 82823
AAXX 01124 60750 12560 73110 10183 20052 30234 40259 56014 60001 878// 333 5///1 83820 85626
AAXX 01124 60760 12560 22803 10174 20030 30173 40277 56014 60001 82200 333 50241 82830
AAXX 01124 60765 12560 32610 10154 20063 30278 40282 58009 60001 83500 333 83630 92436 925//
AAXX 01124 60767 12558 62412 10158 20033 30128 40272 58013 60001 83532 333 50151 83630 83070
AAXX 01124 60769 12460 52912 10163 20080 30258 40262 58011 60001 85800 333 50461 82816 84630
BBXX LAHV 01121 99589 10057 43/// /1907 10084 20057 49916 222// 04082 1////
BBXX LF4H 01124 99596 10022 46/98 12319 10078 20050 49868 57003 8//// 22200 06084 10705 70026 333 91121
BBXX LMEL 01121 99603 10053 43/// /1403 10059 20059 49882 5//// 222/0 04088 1//// 3//// 4//// 5////
AAXX 01124 91487 11599 31207 10249 2023/ 40099 60001 70300 83100 333 10297 563//
AAXX 01124 91490 NIL
AAXX 01124 91533 NIL
AAXX 01124 91601 NIL
AAXX 01124 91610 11599 30806 10267 20224 40091 50000 60001 70310 83100 333 10///
AAXX 01124 562// 83820
AAXX 01124 91623 NIL
AAXX 01124 91629 NIL
AAXX 01124 91701 NIL
AAXX 01124 91487 11599 31207 10249 2023/ 40099 60001 70300 83100 333 10297 563//
AAXX 01124 91490 NIL
AAXX 01124 91533 NIL
AAXX 01124 91601 NIL
AAXX 01124 91610 11599 30806 10267 20224 40091 50000 60001 70310 83100 333 10///
AAXX 01124 562// 83820
AAXX 01124 91623 NIL
AAXX 01124 91629 NIL
AAXX 01124 91701 NIL
AAXX 01124 78764 32960 01110 10193 20131 39031 40158 52011 333 10258 20188 30/// 54000 56///
AAXX 01124 93004 16/// /2319 10158 20147 40101 52008 60001 333 10184
AAXX 01124 93023 16/// /2703 10167 20151 40086 52008 60001 333 10220
AAXX 01124 93069 16/// /2620 10176 20161 40059 52011 6///1 333 10204
AAXX 01124 93110 17497 /2419 10180 20159 40047 52012 60021 333 10225
AAXX 01124 93186 17397 /2603 10187 20183 40017 52002 60001 333 10227
AAXX 01124 93196 16/// /3112 10181 20179 40022 57014 60021 333 10217
AAXX 01124 93245 16497 /3501 10166 20162 40019 57001 60151 333 10225
AAXX 01124 93292 17/97 /1803 10171 20166 40011 57005 60001 333 10267
AAXX 01124 93309 17497 /2409 10166 20157 40027 54000 69941 333 10223
AAXX 01124 93334 16/// /0000 10132 20129 39096 52002 60061 333 10198
AAXX 01124 93339 16/// /2205 10120 20119 39104 52003 60101 333 10202
AAXX 01124 93373 17397 /1503 10172 20165 40018 52002 60041 333 10199
AAXX 01124 93404 17395 /3505 10152 20148 40029 52008 60031 333 10229
AAXX 01124 93420 17498 /2212 10154 20135 40027 52008 60001 333 10179
AAXX 01124 93439 17397 /1713 10147 20129 40044 52013 60001 333 10165
AAXX 01124 93498 16/// /2214 10139 20139 40029 52005 60051 333 10167
AAXX 01124 93515 17997 /2314 10154 20119 40053 52013 60001 333 10217
AAXX 01124 93527 16/// /1102 10165 20162 40035 52014 60001 333 10242
AAXX 01124 93546 17698 /2002 10170 20159 40034 52009 60001 333 10224
AAXX 01124 93597 16/// /1712 10141 20120 40047 52008 60001 333 10166
AAXX 01124 93615 17596 /2510 10154 20120 40052 52009 60001 333 10212
AAXX 01124 93678 16998 /2209 10132 20119 40059 52004 60001 333 10166
AAXX 01124 93709 16/// /0902 10103 20089 40037 52007 60001 333 10206
AAXX 01124 93773 17395 /1405 10115 20109 40076 52007 60031 333 10209
AAXX 01124 93781 17898 /2106 10145 20118 40065 52007 60001 333 10222
AAXX 01124 93800 NIL
AAXX 01124 93805 NIL
AAXX 01124 93831 17/98 /1710 10112 20069 40072 52020 60001 333 10253
AAXX 01124 93845 17598 /2315 10110 20086 40085 52010 60001 333 10170
AAXX 01124 93891 17/98 /2414 10120 20068 40070 52005 60001 333 10226
AAXX 01124 93909 16/// /2423 10094 20053 40080 52012 69921
AAXX 01124 93929 16/// /2218 10053 20027 40030 52009 69941
AAXX 01124 93947 16/// /2730 10034 20009 49948 52014 60021
AAXX 01124 93987 16/// /3420 10161 20158 40012 57021 60051
AAXX 01124 93994 NIL
AAXX 01124 87692 31560 20216 10232 20178 30168 40192 52011 70640 82100 333 10232 20160 56800 82820 555 10192 60882 64088 65052 70726 74141 89651
AAXX 01124 16622 12960 03311 10078 21024 30216 40227 58007 60001 333 90730 91120 555 30000 10068 2//// 30055 4//// 5//// 40000 47692 44205 50000 50040
AAXX 01124 16641 12970 00000 10120 20018 30187 40193 58002 60001 333 90730 91106 555 40000 47673 44220 50000 50076
AAXX 01124 16682 12560 13610 10126 20026 30155 40174 54000 60001 81100 333 90730 91112 555 30000 10135 20100 30096 40150 50112 60165 40000 47644 44180 50000 50082
AAXX 01124 16716 12570 30000 10130 20032 30171 40190 51001 60001 82150 555 40000 47657 44185 50000 50086
AAXX 01124 16734 NIL
AAXX 01124 16743 NIL
AAXX 01124 16749 12560 42814 10144 20085 30089 40103 51002 60001 83240 333 90730 91120 555 40000 47600 44230 50000 50114
AAXX 01124 16754 12565 63512 10128 20084 30119 40167 52005 60001 86800 333 82820 85630 90730 91125 555 40000 47621 44205 50000 50106
AAXX 01121 26038 21576 61201 11015 21021 30075 40116 50002 70287 84905 333 11012 21025 60007 84927 555 1/103 21025 3/105 51021 52102
AAXX 01121 26045 27/81 01802 11023 21037 30120 40122 52008 70000 80/// 333 11011 21028 60007 80/// 555 1/100 21028 3/101 51018
AAXX 01121 26058 27465 81201 11023 21033 30122 40129 52006 70011 88/// 333 11019 21028 60007 88/12 555 1/100 21028 3/101 51020 52108
AAXX 01121 26115 27584 51402 10026 21015 30090 40099 56014 70000 85/// 333 10029 21036 60007 85/24 555 1/100 21036 3/102 50005
AAXX 01121 26135 27165 71501 11015 21020 30048 40124 52003 72477 87/// 333 11015 21026 69957 87/03 555 1/100 21026 3/101 51019 52102
AAXX 01121 26141 21269 72102 11022 21029 39972 40124 52005 70282 87500 333 11021 21030 60007 87604 555 1/101 21030 3/103 51023 52104
AAXX 01121 26231 21584 41501 10001 21041 30106 40121 57002 70211 82101 333 10013 21032 60007 82833 555 1/100 21032 3/101 51012
AAXX 01121 26242 21682 72101 11008 21032 30040 40128 51006 70387 85330 333 10002 21029 60007 85942 555 1/000 21029 3/102 51020 52104
AAXX 01121 26247 27/69 /2202 11011 21028 30051 40132 52002 70000 333 11008 21041 60007 555 1/101 21041 3/102 51021
AAXX 01123 68452 NIL
AAXX 01123 68454 32589 43610 10260 20111 38385 48/// 54000 84200
AAXX 01123 68456 NIL
AAXX 01124 67665 42580 73004 10249 20233 48598 71622 8523/ 333 59005 85825 86360
AAXX 01124 78764 32960 01110 10193 20131 39031 40158 52011 333 10258 20188 30/// 54000 56///
OOXX AAEMI 01124 99785 31731 57083 00521 46/// /2305 11079 21119 39809 49875 5//// 91140
OOXX AAPEG 01124 99779 31666 57186 00051 46/// /1005 11074 21085 39827 49833 52014 91140
AAXX 01123 68452 NIL
AAXX 01123 68454 32589 43610 10260 20111 38385 48/// 54000 84200
AAXX 01123 68456 NIL
AAXX 01121 26645 42964 62101 11019 21037 39896 40162 54000 86030 555 1/104
AAXX 01121 26659 42965 63002 11013 21042 39940 40159 51004 80001 555 1/103
AAXX 01121 26763 42560 72903 11015 21056 39918 40151 52009 87500 333 87623 555 1/101
AAXX 01121 26825 42960 31902 11004 21025 39982 40169 58004 83030 555 1/001
AAXX 01121 26832 42660 72101 11003 21024 39977 40175 58003 875// 333 87636 555 1/000
AAXX 01121 26887 41497 82904 11013 21030 39928 40139 52013 70272 886// 333 88712 555 1/101
AAXX 01121 26961 42962 23003 11003 21048 39973 40169 52007 82030 555 1////
AAXX 01121 33027 42698 53002 10005 21061 30011 40183 52007 85500 555 14100
OOXX AAERI 01124 99849 51288 60048 09901 46/// /0815 11092 21106 38765 49888 5//// 91140
AAXX 01121 14240 12662 82101 10039 20006 30055 40214 58006 60001 885// 333 70000
AAXX 01121 14258 12670 62501 10065 20026 30022 40212 58006 60001 86500 333 70000 86633
AAXX 01121 14445 12984 12402 10107 21023 30059 40214 58004 60001 81031 222// 00145 333 70000 81399 81099 92311
OOXX AAMIZ 01124 99707 30443 58304 22602 46/// /0809 11094 2//// 37431 49606 5//// 91140
AAXX 01124 67665 42580 73004 10249 20233 48598 71622 8523/ 333 59005 85825 86360
AAXX 01124 78764 32960 01110 10193 20131 39031 40158 52011 333 10258 20188 30/// 54000 56///
AAXX 01124 85041 12260 70000 10254 20248 39837 40102 52020 60024 84730 333 20229 31/// 55042 56000 59001 70018 84704 86358
AAXX 01124 85140 11250 80000 10220 20219 39914 40125 52034 60444 76196 8772/ 333 20214 32/// 55052 56770 58024 70442 84706 87613 88457
AAXX 01124 85141 11220 80000 10234 20228 39890 40117 52022 60334 76196 8772/ 333 20220 32/// 55000 56339 58023 70334 87705 88457
AAXX 01124 85151 NIL
AAXX 01124 85152 11220 80000 10232 20229 39875 40106 52010 61194 76196 8772/ 333 20224 32/// 55040 56339 58015 71190 87705 88457
AAXX 01124 85201 12270 80503 10066 20044 36312 52014 60114 82537 333 20041 31003 55000 56000 58011 70114 82605 84357 88270
AAXX 01124 85230 NIL
AAXX 01124 85242 12484 70000 10100 20058 36564 52010 60054 83530 333 20078 31/// 56220 58010 70048 83617 87357
AAXX 01121 26106 42/98 51602 10007 21038 30090 40133 57007 81244
AAXX 01121 26313 43/// /1803 10004 21019 30109 40116 57014
AAXX 01121 26346 42597 60000 11026 21034 39886 40137 52005 86500 333 86628 93500
AAXX 01121 26406 42565 81705 10018 21022 30106 40112 57017 885// 333 88625
AAXX 01121 26416 43/// /1803 11005 21023 39985 40128 57011
AAXX 01121 26424 42998 61903 11003 21021 30074 40128 57014 81031
AAXX 01121 26544 42665 22402 11005 21041 39996 40152 52004 81530
AAXX 01121 15502 12970 13403 10078 21019 30187 40227 58008 60001 81050 333 10078 21058 555 550//
AAXX 01121 15525 12975 12703 10048 21002 39957 40227 58001 60001 81030 333 10051 20013 42001 555 570//
AAXX 01121 15528 12670 22702 10052 21023 30023 40216 56004 60001 82100 333 10058 21008 41998 555 558//
AAXX 01121 15535 11556 22505 10030 20000 30170 40218 58002 60001 71011 82100 333 10037 20002 555 581//
AAXX 01121 15549 12570 22504 10014 21020 39805 40234 52003 60001 82500 333 10014 21017 43005 555 578//
AAXX 01121 15552 12960 03206 10048 21019 30164 40214 52004 60001 333 10052 20018 555 562// 92015 92417
AAXX 01121 15614 12670 22504 10016 21048 39509 40232 57002 60001 82100 333 10019 21022 44008 555 559//
AAXX 01121 15615 11988 03608 11130 21300 37061 47990 52002 60001 70200 333 11128 21157 444 26170 555 523//
AAXX 01121 15626 12970 22704 10050 21044 30028 40220 54000 60001 82032 333 10058 20026 43004 555 551//
AAXX 01121 15627 11989 03206 11106 21168 37581 47997 54000 60001 70241 333 11106 21176 48034 444 36185 555 560//
AAXX 01121 15640 12676 12906 10042 21047 39905 40224 52002 60001 81200 333 10045 20022 555 552//
AAXX 01121 15655 12980 23205 10064 21018 30176 40210 52004 60001 80001 222// 00074 332// 40602 333 10065 20034 555 556// 81335 92033 92438
AAXX 01121 15712 12575 23203 10053 21043 39975 40230 58007 60001 82200 333 10056 20009 42005 555 550//
AAXX 01121 15730 12670 20206 10044 21036 39819 40219 58001 60001 82230 333 10046 20014 43003 555 556//
AAXX 01121 14241 12260 72901 10037 20012 30079 40212 58009 60001 81670
AAXX 01121 14284 12960 01503 10043 21011 30112 40223 57011 60001
AAXX 01121 14307 32982 02002 10118 20028 30143 40219 58003 333 70000
AAXX 01121 14317 NIL
AAXX 01121 14431 12970 12902 10127 20017 30127 40220 57004 60001 81030
AAXX 01121 14444 33980 03203 10127 21008 30192 40222 57005 333
AAXX 01121 14474 12981 01704 10104 21006 30026 40218 51002 60001
AAXX 01121 14008 12599 72710 11001 21031 37496 47060 51002 60001 85072 333 95120
AAXX 01121 14015 12765 40501 10033 21008 39854 40221 58009 60001 81531 333 81650
AAXX 01121 14023 12799 72802 10048 21011 39912 40212 56004 60001 81572 333 81656
AAXX 01121 14026 12897 70000 10035 21006 39879 40206 58004 60001 87070
AAXX 01121 14031 11996 71301 10036 21005 39975 40208 57004 60001 710// 87070
AAXX 01121 14105 12997 52302 10109 20040 30218 40223 58000 60001 81038
AAXX 01121 14106 12999 51801 10088 20025 30148 40217 58006 60001 81038 333 95000
AAXX 01121 14112 12/97 21802 10080 29050 60001
AAXX 01121 14121 12998 72301 10032 20004 39938 40211 58010 60001 87070
AAXX 01121 14122 12981 72501 10041 20014 30011 40211 58014 60001 87030
BBXX BATUK01 01124 99560 70032 46/// /2405 10080 20012 49911 58011 22200 00062
AAXX 01121 26509 32497 81403 10004 21016 30114 40123 58014 885// 333 88616 91006 91110 555 1/001
AAXX 01121 26518 31260 81803 11022 21022 39927 40137 58013 70242 886// 333 88705 91005 91106 93502 555 1/101 4/997
AAXX 01121 26524 32397 61902 11013 21019 30002 40138 58011 86600 333 86707 91005 91106 555 1/100
AAXX 01121 26531 32666 21901 10012 21026 30064 40141 58007 81501 333 91003 91104 555 1/100
AAXX 01121 26629 32667 22004 10006 21011 30057 40154 58006 81501 333 91005 91106 555 1/000 4/001
AAXX 01121 26633 32667 71902 11010 21035 30019 40153 58004 87500 333 87636 91003 91103 555 1/101 4/003
AAXX 01121 26730 32670 72102 11012 21019 39970 40167 58002 87500 333 91003 91103 555 1/101 43004
AAXX 01121 06414 16/// /2105 10124 20109 30060 40092 58014 60021 333 91111 91207
AAXX 01121 06459 16/// /2107 10120 20119 39928 40117 58015 69941 333 91113 91208
AAXX 01121 06494 16/// /2307 10087 20086 39337 40124 58010 60021 333 91113 91209
AAXX 01124 60060 32960 03004 10168 20090 40296 51005
AAXX 01124 60106 32965 01812 10157 20047 40300 58009
AAXX 01124 60127 32965 00000 10155 20035 39698 40295 58009
AAXX 01124 08001 12475 7//// 10148 20106 30132 40213 57016 60001 8587/ 333 92438
AAXX 01124 08015 12570 70000 10096 20058 39815 40222 57015 60001 83157
AAXX 01124 08023 12680 70905 10153 20099 30140 40210 57027 60001 82548
AAXX 01124 08027 12581 51714 10146 20069 39907 40214 57032 60001 81101
AAXX 01124 08045 01370 71812 10114 20108 39951 40262 58008 60021 70264 8487/ 333 69927
AAXX 01124 08141 11/08 91902 10056 20053 39404 40279 58011 69941 74544 333 5///0 89/03
AAXX 01124 08160 12984 22805 10146 20054 39955 40262 58013 60001 80001
AAXX 01124 08181 02980 13410 10154 20059 30239 40245 58016 60001 80001 333 60007
AAXX 01124 08221 02974 12002 10091 20008 39590 40283 58017 60001 80001 333 60007
AAXX 01124 08231 12870 42501 10124 20036 39177 48584 58013 60001 82038
AAXX 01124 08261 12965 00801 10108 20062 39821 40307 58003 60001
AAXX 01124 08284 02981 12301 10224 20040 30177 40251 58020 60001 80001 333 60007
AAXX 01124 08306 12980 02206 10166 20113 30249 40255 58012 60001
AAXX 01124 08314 02572 22310 10169 20132 30151 40253 58010 60001 82455 333 60007
AAXX 01124 08430 12980 02804 10200 20049 30194 40268 58015 60001
AAXX 01124 08482 12980 02808 10194 20014 30263 40271 58008 60001
AAXX 01124 16325 12998 02807 10136 20034 30206 40220 50000 60001 333 98080 555 0100/
AAXX 01124 16643 12560 30304 10118 20015 30196 40202 58002 60001 81102 333 81830 83068 90730 91113 555 40000 47677 44200 50000 50074
AAXX 01124 16648 12860 12605 10090 21013 30130 40220 58005 60001 81050 333 90730 91109 555 30000 10066 2//// 30060 40054 5//// 6//// 40000 47628 44210 50000 50050
AAXX 01124 16650 11560 60515 10084 21002 30191 40195 52004 69901 70162 86530 333 86620 84358 90730 91126 555 30000 10074 20072 30078 40074 50100 60120 40000 47673 44210 50000 50050 70000 77/// 7R///
AAXX 01124 16684 12460 70312 10090 20029 30162 40190 52016 60001 87600 333 82712 87625 90730 91123 555 40000 47652 44210 50000 50064
AAXX 01124 16732 12470 63626 10118 20053 30145 40156 51003 60001 86800 333 82818 86625 90730 91140 555 40000 47633 44150 50000 50088
AAXX 01124 16614 12960 00000 10030 21067 39435 40232 57004 60001 333 90730 91109
AAXX 01124 16627 12560 30213 10086 21026 30207 40211 53001 60001 81150 333 81830 83358 90730 91125 555 30000 10070 20064 30060 40062 50074 6//// 40000 47685 44210 50000 50044
AAXX 01124 16667 12560 63514 10100 20031 30171 40176 52020 60001 83450 333 83625 86357 90730 91132 555 30000 20094 30098 40000 47658 44200 50000 50070
AAXX 01124 16675 NIL
AAXX 01124 16710 36/// /9903 10069 21009 39415 40192 57006 333 90730 91106
AAXX 01124 16723 12560 43515 10120 20040 30126 40142 52007 60001 84840 333 82820 84630 90730 91120 555 40000 47626 44210 50000 50084
AAXX 01124 16738 17/// /0214 10103 20052 39979 40180 52001 69901 7414/ 333 90730 91125 555 60000 65555 60013
AAXX 01124 16746 11560 63612 10124 20080 39993 40176 53002 69911 70261 86800 333 82820 86630 90730 91124 555 40000 47522 44175 50000 50102 70000 77/// 7R///
AAXX 01124 04005 NIL
AAXX 01124 04018 41475 51308 11010 21036 49624 51005 71522 82626 555 3//08 82715 83560 85267
AAXX 01124 04030 41581 40806 11018 21053 49631 52007 71522 81532 555 3//06 81625 84362
AAXX 01124 04048 41478 71308 10017 21018 49636 51001 71582 85963 555 3/611
AAXX 01124 04063 41458 81202 11022 21031 49629 52009 78522 889// 555 3//04
AAXX 01124 04077 NIL
AAXX 01124 04082 NIL
AAXX 01124 04097 42589 53406 10017 21005 49630 52010 82970 555 3/309
AAXX 01124 17500 11560 60706 10154 20103 30034 40094 57018 60021 70281 86900 333 83825 83930
AAXX 01124 17501 11560 73604 10161 20073 30065 40084 56011 60021 72582 84950 333 81925 83830 85360 92437
AAXX 01124 17505 11560 70000 10143 20108 39981 40093 55012 60011 78082 84950 333 81925 83830 85360
AAXX 01124 17507 11560 62410 10165 20090 39980 40099 57015 60021 70281 86900 333 83825 83930
AAXX 01124 17510 11560 51304 10177 20081 30059 40069 57012 60011 70381 85900 333 81925 84830 92427
AAXX 01124 17515 11560 70309 10146 20097 39929 40103 57015 60021 72581 84950 333 81925 83830 85360
AAXX 01124 17521 11560 71509 10158 20106 39946 40085 57015 60011 70382 84950 333 81925 83830 85360
AAXX 01124 17530 11560 71807 10153 20115 30044 40100 57014 60041 70381 84950 333 81925 83830 85360
AAXX 01124 17535 11560 71812 10148 20112 30047 40083 57020 60071 70382 84950 333 81925 83830 85360
AAXX 01124 17540 11560 51610 10152 20112 30084 40108 57021 60091 70182 84930 333 81925 83830 92437
AAXX 01124 17547 11560 51915 10131 20109 39850 40092 57021 60051 70182 84930 333 81925 83830 92437
AAXX 01124 17550 11560 70713 10151 20101 39944 40087 57020 60051 70382 84950 333 81925 83830 85360 92447
AAXX 01124 17572 11560 5//// 10162 20084 30071 40095 56015 60021 70381 85900 333 81925 84830 92427
AAXX 01124 17022 11530 80110 10067 20055 39999 40166 52018 60091 76064 8652/ 333 86625 88457 91123 92433
AAXX 01124 17031 11558 73011 10108 20063 30110 40116 53003 69941 78022 85270 333 85830 87359
AAXX 01124 17038 12670 50000 10121 20054 30063 40113 55005 60001 81150 333 81835 85360 92428
AAXX 01124 17050 12670 33606 10078 20008 30153 40217 55000 60001 82230 333 82835 83360 91114
AAXX 01124 17060 11458 73618 10062 20034 30150 40191 52008 69921 71082 86250 333 82710 85830 87360
AAXX 01124 17096 11557 71403 11009 21033 38200 48473 57008 60001 71022 85550 333 85630 87358
AAXX 01124 17124 11458 73005 10045 20007 39214 40140 53003 69921 76066 86510 333 82718 85630 87459
AAXX 01124 17128 11112 83404 10003 20003 39028 40149 55000 60091 77377 8652/ 333 83703 85625 88458 93106 96010
AAXX 01124 17170 NIL
AAXX 01124 17195 12670 71512 10078 21022 38890 48417 55005 60001 84550 333 84640 87360
AAXX 01124 17199 11558 83002 10036 20007 39064 40177 56009 60001 71022 8562/ 333 82720 84635 88459
AAXX 01124 17219 12565 53622 10097 20030 30002 40148 53005 60001 83230 333 83830 85360 91130
AAXX 01124 17240 11550 80801 10012 21002 38956 40114 53004 60061 76877 8552/ 333 85630 88458 91104 93101
AAXX 01124 17244 11660 71611 10053 20028 38909 48412 55003 69941 76162 84520 333 84635 87459
AAXX 01124 17280 11640 82302 10053 20047 39380 40181 56011 60021 76166 85520 333 85635 88459 96010
AAXX 01124 17350 11560 80516 10087 20083 30041 40120 57022 60051 76182 8552/ 333 85630 88458
AAXX 01124 17042 12970 33002 10137 20025 30083 40122 55003 60001 83030 333 83360 92428
AAXX 01124 17074 11550 83601 10017 20008 39199 40160 55000 60041 77022 8452/ 333 84630 88460 91103 93103
AAXX 01124 17086 12670 51602 10115 21023 39394 40108 55006 60001 83550 333 83635 85360
AAXX 01124 17088 12670 62203 10059 21048 38750 48453 56011 60001 84550 333 84640 86360
AAXX 01124 17140 12665 80704 10035 21015 38633 48423 55004 60001 8552/ 333 85638 88459
AAXX 01124 17155 11570 83607 10030 20003 39020 40153 52011 60011 70262 8552/ 333 85632 88458 91114
AAXX 01124 17203 11670 80000 10000 21012 38869 48515 57012 69941 72274 8452/ 333 84640 88460 93100
AAXX 01124 17237 11665 80402 10059 20052 39628 40137 50009 60031 76166 8552/ 333 85633 88458 91112
AAXX 01124 17250 12675 60404 10059 21005 38718 48415 56006 60001 83550 333 83640 86360
AAXX 01124 17270 11658 80000 10068 20058 39515 40172 57014 69981 71022 8552/ 333 85635 88459
AAXX 01124 17295 12560 33216 10146 20048 30088 40095 57003 60001 81130 333 81830 83360
AAXX 01124 17320 11558 73503 10096 20089 30085 40090 56015 60231 78282 85270 333 85830 87359 92446
AAXX 01124 17375 12670 32102 10160 20105 30072 40074 55001 60001 83200 333 83836 91104 92438
AAXX 01124 17024 11556 73006 10079 20071 30065 40143 52012 60041 76262 84550 333 84628 87358 91115 92426
AAXX 01124 17056 12670 83303 10069 20053 30204 40208 51001 60001 8452/ 333 84633 88459 91111 92428
AAXX 01124 17067 11560 70404 10072 20047 30159 40182 52013 60011 78088 87200 333 87830 91116 92427
AAXX 01124 17092 12670 62901 10045 21026 38832 48460 56011 60001 84550 333 84640 86360
AAXX 01124 17112 12665 70408 10056 20005 30206 40209 53002 60001 84510 333 84635 87460 91121 92417
AAXX 01124 17115 11460 70111 10057 20033 30138 40190 52007 60021 72588 85220 333 82710 84835 87460 96010
AAXX 01124 17116 11557 70601 10061 20054 30064 40188 52011 60011 78022 84250 333 84829 87359 91107 96010
AAXX 01124 17188 11660 72906 10062 20008 39053 40118 53004 60011 70162 85570 333 85635 87360 91115
AAXX 01124 17202 11570 80611 10044 20027 39142 40195 57011 69921 70262 8552/ 333 82720 85630 88459
AAXX 01124 17248 12675 73402 10053 20017 38894 48409 55000 60001 84250 333 84840 87360
AAXX 01124 17292 12670 53005 10077 20059 39353 40112 52008 60001 83250 333 83835 85360 91116
AAXX 01124 17300 11560 43613 10122 20066 30007 40078 55003 60031 70281 84200 333 84830
AAXX 01124 17310 NIL
AAXX 01124 17330 11670 50703 10122 20044 30142 40160 57012 60151 72582 82250 333 82840 85360
AAXX 01124 17026 12570 73208 10094 20075 30092 40131 52010 60001 84570 333 84630 87360 91114 92428
AAXX 01124 17034 12670 62003 10134 21033 30071 40117 53001 60001 83230 333 83835 86360 92428
AAXX 01124 17070 11556 80602 10035 20032 39273 40153 53004 69991 76062 8552/ 333 85630 88458 91103 96010
AAXX 01124 17084 11550 82303 10034 20026 39225 40148 55005 60021 76065 8552/ 333 85630 88459 96010
AAXX 01124 17090 12665 61404 10050 21027 38671 48445 55008 60001 84550 333 84640 86360
AAXX 01124 17098 11657 40000 11044 21063 38167 48484 55008 60001 71022 84500 333 84635
AAXX 01124 17150 11460 73511 10050 20028 30061 40187 53009 60011 70282 85230 333 82715 84835 87360 91121
AAXX 01124 17160 12670 73505 10074 20012 38944 48420 55003 60001 84570 333 84640 87360 91115
AAXX 01124 17184 12670 73507 10068 20025 30055 40168 52013 60001 84220 333 84840 87460 91122
AAXX 01124 17189 11458 83013 10018 20007 38961 48427 53006 60081 77077 8552/ 333 83715 85630 88459 93101
AAXX 01124 17210 12670 72802 10071 20023 39135 40180 57012 60001 83520 333 83633 87459
AAXX 01124 17234 12670 63301 10120 20044 30065 40133 53005 60001 84250 333 84836 86360 91108
AAXX 01124 17260 11/07 90706 10049 20047 39337 40167 56014 69921 74572 333 89/02
AAXX 01124 17290 12970 03407 10139 20061 30098 40130 53007 60001 333 91123 92428
AAXX 01124 17370 11558 82508 10122 20048 30120 40124 57023 69991 78082 85220 333 85830 88458 92426
AAXX 01123 04013 42589 61109 11008 21027 49627 52013 82220 555 3//09
AAXX 01123 04064 42684 43405 11034 21100 49643 52008 82242 555 3//09
AAXX 01121 13586 32970 00000 1056 21069 39949 40245 57007 333 95900
BBXX TFDRN 01124 99658 70212 46/// ///// 22200 10706 70028
BBXX TFGRS 01124 99663 70182 46/// ///// 22200 10806 70030
BBXX TFGRV 01124 99638 70225 46/// ///// 22200 10907 70036
BBXX TFGSK 01124 99641 70229 46/// ///// 22200 10908 70040
BBXX TFHFN 01124 99642 70152 46/// ///// 22200 10906 70031
BBXX TFKGR 01124 99657 70136 46/// ///// 22200 10806 70028
BBXX TFSRT 01124 99633 70203 46/// ///// 22200 11010 70048
BBXX TFSTD 01124 99664 70234 46/// ///// 22200 10810 70049
BBXX TFBKF 01124 99635 70202 46/// ///// 22200 10806 70028
AAXX 01124 60710 11562 72407 10148 20110 30188 40268 50003 69921 70262 8588/ 333 50601 83820 83630
AAXX 01124 60714 11468 73014 10167 20134 30258 40264 58008 69921 70262 878// 333 50381 85816 84630
AAXX 01124 60720 NIL
AAXX 01124 60728 NIL
AAXX 01124 60729 NIL
AAXX 01124 60731 NIL
AAXX 01124 60732 12560 62606 10103 20069 39603 40232 56003 60001 86800 333 50161 83820 84626
AAXX 01124 60734 12565 53008 10141 20109 39745 40266 57012 60001 82580 333 50161 82630 84360
AAXX 01124 60738 12558 5//// 10091 20075 39021 48571 58012 60001 85200 333 50271 85823
AAXX 01124 60739 NIL
AAXX 01124 60740 12560 52710 10175 20094 30257 40259 58012 60001 82580 333 50171 82626 84360
AAXX 01124 60742 NIL
AAXX 01124 60764 12962 22304 10152 20040 30228 40280 58015 60001 82080 333 50471 82360
AAXX 01124 60770 12975 63402 10187 20092 30135 40273 57013 60001 85082 333 50271 85360
AAXX 01124 60772 NIL
AAXX 01124 60775 12575 43104 10175 20034 39920 40273 56013 60001 82280 333 5///1 82826 83360
AAXX 01124 60780 12960 03106 10146 20015 39988 40297 58014 333 5///1
AAXX 01124 43466 22970 02301 10280 20197 30074 40086 333 00017 10301 59006 60007
AAXX 01121 13160 32997 01803 10054 21014 30115 40226 57010
AAXX 01121 13262 32998 02502 10049 21031 30076 40227 57015
AAXX 01121 13272 32970 21703 10071 21039 30109 40230 57012 82030 333 82360
AAXX 01121 13285 31696 20901 10050 21006 30137 40242 58006 71000 82500
AAXX 01121 13289 32999 03106 11019 21029 38993 48485 56002 70241
AAXX 01121 13376 32998 00201 10054 21022 39974 40242 58017
AAXX 01121 13388 31696 20000 10056 21023 39990 40242 57009 71000 81100
AAXX 01121 13462 42970 01701 10086 21085 30189 40229 57010
AAXX 01121 13473 NIL
AAXX 01121 13489 32698 21102 10032 21044 39711 40243 56007 82100
AAXX 01124 78982 01480 60911 10249 20229 30148 40153 52023 60051 702588 84231 333 10296 20238 58008 60027 70050 84817 84362
AAXX 01124 78615 32482 40000 10198 20195 30048 40191 53012 84500 333 10304 20198 30/// 56800 58018 70190 84610
AAXX 01124 78627 32482 81406 10134 20114 38180 53005 885// 333 10234 20110 30/// 562// 58010 88616
AAXX 01124 78637 11458 50000 10226 20223 30149 40165 53009 60031 71064 82501 333 10292 20220 32/// 56209 58013 70134 82618 83070
AAXX 01124 78641 11482 73614 10154 20141 38557 40152 53008 69901 70354 87500 333 10244 20154 30/// 56800 58004 87614
AAXX 01124 78647 32982 20000 10192 20186 30122 40129 53008 80001 333 10328 20186 30/// 56009 58003 82070
AAXX 01124 06011 07464 52008 10047 20023 39677 49743 52005 60011 72186 333 55300 20094 69957 81/19 85/45 91138 91220
AAXX 01124 17022 11530 80110 10067 20055 39999 40166 52018 60091 76064 8652/ 333 86625 88457 91123 92433
AAXX 01124 17031 11558 73011 10108 20063 30110 40116 53003 69941 78022 85270 333 85830 87359
AAXX 01124 17038 12670 50000 10121 20054 30063 40113 55005 60001 81150 333 81835 85360 92428
AAXX 01124 17050 12670 33606 10078 20008 30153 40217 55000 60001 82230 333 82835 83360 91114
AAXX 01124 17060 11458 73618 10062 20034 30150 40191 52008 69921 71082 86250 333 82710 85830 87360
AAXX 01124 17096 11557 71403 11009 21033 38200 48473 57008 60001 71022 85550 333 85630 87358
AAXX 01124 17124 11458 73005 10045 20007 39214 40140 53003 69921 76066 86510 333 82718 85630 87459
AAXX 01124 17128 11112 83404 10003 20003 39028 40149 55000 60091 77377 8652/ 333 83703 85625 88458 93106 96010
AAXX 01124 17170 NIL
AAXX 01124 17195 12670 71512 10078 21022 38890 48417 55005 60001 84550 333 84640 87360
AAXX 01124 17199 11558 83002 10036 20007 39064 40177 56009 60001 71022 8562/ 333 82720 84635 88459
AAXX 01124 17219 12565 53622 10097 20030 30002 40148 53005 60001 83230 333 83830 85360 91130
AAXX 01124 17240 11550 80801 10012 21002 38956 40114 53004 60061 76877 8552/ 333 85630 88458 91104 93101
AAXX 01124 17244 11660 71611 10053 20028 38909 48412 55003 69941 76162 84520 333 84635 87459
AAXX 01124 17280 11640 82302 10053 20047 39380 40181 56011 60021 76166 85520 333 85635 88459 96010
AAXX 01124 17350 11560 80516 10087 20083 30041 40120 57022 60051 76182 8552/ 333 85630 88458
AAXX 01124 71043 11583 20903 11333 21382 30168 40269 51003 69901 77677 81570 333 11300 21356 48034 79999 90983
AAXX 01124 71045 16/// /0607 11174 21191 39290 40184 56020 60001 333 11124 21219 4/030 70000 555 10020
AAXX 01124 71050 46/// /0705 11083 21115 39159 40268 58002 6///1 333 11066 21126 7////
AAXX 01124 71051 NIL
AAXX 01124 71052 NIL
AAXX 01124 71066 12974 00000 11217 21250 39848 40289 53022 60001 333 11090 21217 48026 70014
AAXX 01124 71068 12974 01704 11137 21182 39592 40314 52013 60001 333 11055 21137 47007 70000
AAXX 01124 71069 16964 00000 11174 21181 39592 40328 53011 60001 333 11034 21175 70000
AAXX 01124 71076 16/// /2502 11167 21182 39854 40263 53020 60001 333 11099 21184 4/037 55/// 20000 70000
AAXX 01124 71077 16/// /2404 11135 21159 39738 40300 52018 60001 333 11057 21137 4/020 55/// 20000 70003 555 10020
AAXX 01124 71079 11569 83211 11135 21158 39902 40189 52041 69961 77177 885// 333 11056 21136 48012 70038 90983 93101
AAXX 01124 71081 46964 03011 11361 21405 30094 40107 53001 6///1 333 11295 21363 7////
AAXX 01124 71082 NIL
AAXX 01124 71083 11248 83515 11254 21294 30114 40158 51017 69901 77177 886// 333 11159 21268 48058 70002 90983
AAXX 01124 71090 46964 02703 11372 21412 30046 40083 51002 6///1 333 11319 21383 7////
AAXX 01124 71091 460// /3114 11283 39841 40058 53002 6///1 333 7////
AAXX 01124 71092 46164 60902 11266 39358 40045 53001 6///1 333 21267 7////
AAXX 01124 71093 460// ///// 11237 39535 40046 52001 6///1 333 11233 21248 7////
AAXX 01124 71094 46064 /2104 11250 39093 40018 58001 6///1 333 11246 21257 7////
AAXX 01124 71095 46964 02202 11380 21419 30006 40092 51001 6///1 333 11339 21387 7////
AAXX 01124 71101 160// /1536 30060 56012 60021 333 70185
AAXX 01124 71104 12674 81410 11058 21116 39150 40295 53004 60001 8257/ 333 11039 21104 44028 70000
AAXX 01124 71108 12674 80608 10036 21039 30208 40282 53013 60001 885// 333 10047 20016 70000
AAXX 01124 71109 12674 81124 10045 21014 30155 40182 56010 60001 8657/ 333 10044 20033 70000
AAXX 01124 78615 32482 40000 10198 20195 30048 40191 53012 84500 333 10304 20198 30/// 56800 58018 70190 84610
AAXX 01124 78627 32482 81406 10134 20114 38180 53005 885// 333 10234 20110 30/// 562// 58010 88616
AAXX 01124 78637 11458 50000 10226 20223 30149 40165 53009 60031 71064 82501 333 10292 20220 32/// 56209 58013 70134 82618 83070
AAXX 01124 78641 11482 73614 10154 20141 38557 40152 53008 69901 70354 87500 333 10244 20154 30/// 56800 58004 87614
AAXX 01124 78647 32982 20000 10192 20186 30122 40129 53008 80001 333 10328 20186 30/// 56009 58003 82070
OOXX AAERC 01124 99815 31639 60713 00451 46/// /1805 11084 21113 39794 49851 5//// 91140
AAXX 01124 71816 12974 12704 11238 21281 30123 40188 56005 60001 80001 333 11155 21250 47089 55065 70000
AAXX 01124 71817 NIL
AAXX 01124 71818 12974 11905 11217 21241 30152 40171 58009 60001 80008 333 11106 21221 44024 55068 70000
AAXX 01124 71822 11/10 91405 11092 21105 39659 40145 58004 60001 71042 333 11098 21100 43045 70004
AAXX 01124 71825 NIL
AAXX 01124 71827 11269 81409 11105 21112 39830 40080 58026 69901 77177 887// 333 11127 21157 47018 79999 90973
AAXX 01124 71828 16158 82105 11173 21205 39491 40161 58005 60001 333 11173 21277 70000
AAXX 01124 71831 11456 81310 11047 21061 39752 40034 58038 69961 77172 885// 333 11070 21089 48042 70046 90910
AAXX 01124 71832 NIL
AAXX 01124 71834 11/12 93005 11019 21027 39575 40000 58013 60051 77177 333 11003 21019 47032 70058 90973 93106
AAXX 01124 71841 NIL
AAXX 01124 71842 11469 82911 11059 21089 39586 40059 52010 69901 77177 885// 333 11022 21060 47010 70018 90973
AAXX 01124 71844 NIL
AAXX 01124 71845 11369 82707 11045 21054 39546 40021 53004 69942 771// 887// 333 11036 21052 44021 70004 90999 555 10004 20002
AAXX 01124 71850 11466 83209 11063 21089 39594 40098 53019 69901 77122 885// 333 11015 21063 48012 70020 90962
AAXX 01124 71852 16564 83227 11071 21106 39867 40167 53038 60001 333 10016 21071 70005
AAXX 01124 71854 NIL
AAXX 01124 71858 16/// /3212 11115 21137 39916 40205 53044 60001 333 11013 21117 70015
AAXX 01124 71861 16/// /3219 11079 21106 39517 40262 51040 60001 333 10016 21079 4/012 70000
AAXX 01124 71862 11574 83220 11077 21116 39571 40295 53036 60001 73611 885// 333 10024 21077 48009 70000
AAXX 01124 71863 46564 63119 11094 21140 39587 40311 51037 6///1 333 11001 21094 7////
AAXX 01124 71114 160// /1012 10017 21025 30256 40305 51011 60001 333 10062 20003 70005
AAXX 01124 71120 NIL
AAXX 01124 71122 46/// /2304 11163 21199 38696 40374 51004 6///1 333 21163 4/016 7////
AAXX 01124 71123 12974 21808 11176 21250 39443 40351 50005 60001 80001 333 11034 21194 44007 70000
AAXX 01124 71125 11974 02609 11134 21163 39711 40320 51024 69922 7007/ 333 48012 70014 90999
AAXX 01124 71129 12974 22703 11134 21166 39487 40355 51021 60001 80001 333 11028 21134 40997 70000
AAXX 01124 71131 16/// /3107 11139 21182 39050 40361 51017 60001 333 11026 21139 70000
AAXX 01124 71135 16/// /3217 11099 21159 39211 40336 51027 60001 333 10011 21099 4/003 70000
AAXX 01124 71137 NIL
AAXX 01124 71140 11974 03123 11071 21104 39708 40221 5/042 69901 73674 333 11020 21072 70000
AAXX 01124 71145 11459 53414 11083 21101 39807 40104 53033 69981 77177 85500 333 11056 21083 48038 70018 90983 93101
AAXX 01124 71148 16/// /3123 11060 21077 39602 40193 53024 60001 333 10003 21061 4/014 70000
AAXX 01124 71185 17416 80603 11021 30077 40101 57022 60021 74544 333 11038 21059 70015
AAXX 01124 71188 11466 83104 11026 21055 30086 40129 52020 60021 72272 885// 333 11026 21045 47019 55000 70146 90983 93102
AAXX 01124 71200 16/// /0607 10047 20004 60001 333 10052 20036 70000
AAXX 01124 71207 16/// /3603 10003 21020 30223 40289 50008 60001 333 10027 21007 70000
AAXX 01124 71260 13/// ///// 10013 20004 39778 40013 58044 69901 333 10023 21015 44001 79999
AAXX 01124 71401 16/// /3303 11038 21070 39660 40366 53010 60001 333 10023 21045 4/012 70007
AAXX 01124 71402 NIL
AAXX 01124 71404 NIL
AAXX 01124 71405 NIL
AAXX 01124 71406 NIL
AAXX 01124 71407 NIL
AAXX 01124 71408 NIL
AAXX 01124 71409 NIL
AAXX 01124 71410 17648 83312 11119 21138 39890 40176 53046 60001 771// 333 11049 21119 70003
AAXX 01124 71413 NIL
AAXX 01124 71414 NIL
AAXX 01124 71415 17/// /3127 10021 20019 30015 40018 53016 60031 7//4/ 333 10083 20021 70176
AAXX 01124 71417 NIL
AAXX 01124 71418 NIL
AAXX 01124 71419 46/// /3023 10047 20046 39964 49974 55007 6///1 333 10070 20047 7////
AAXX 01124 71423 NIL
AAXX 01124 71424 46/// /2603 6///1 333 7////
AAXX 01124 71425 17/// /0105 11031 21046 30114 40151 53013 60011 7//4/ 333 11023 21035 70080
AAXX 01124 71426 NIL
AAXX 01124 71427 NIL
AAXX 01124 71428 16/// /0410 11029 21041 30144 40150 50008 60001 333 11044 21055 70022
AAXX 01124 71429 17/// /0113 11019 21025 30081 40100 53026 60011 7//4/ 333 11006 21020 70200
AAXX 01124 71434 NIL
AAXX 01124 71436 17359 81403 10010 20004 39892 40128 58027 69951 7104/ 333 10010 20003 70055
AAXX 01124 71437 46/// /1410 10052 20010 30007 40102 56039 6///1 333 10058 20035 7////
AAXX 01124 71438 NIL
AAXX 01124 71439 NIL
AAXX 01124 71440 NIL
AAXX 01124 71442 NIL
AAXX 01124 71445 NIL
AAXX 01124 71446 NIL
AAXX 01124 71448 16/// /3215 11061 21082 39797 40131 53030 60001 333 10008 21061 70017
AAXX 01124 71449 16/// /3120 11041 21091 39716 40122 53018 60001 333 10005 21041 70020
AAXX 01124 71851 NIL
AAXX 01124 71857 NIL
AAXX 01124 71860 12974 60000 11144 21192 38900 40365 58004 60002 82031 333 10005 21157 41997 70000 555 10000 20000
AAXX 01124 71876 15966 02911 11105 21143 39651 40341 51024 60001 333 11028 21110 70000
AAXX 01124 71885 NIL
AAXX 01124 71886 16/// /3321 11091 21121 39642 40267 51046 60001 333 11010 21093 4/006 55/// 20000 70000
AAXX 01124 71888 NIL
AAXX 01124 71890 16/// /0603 11056 21085 30135 40163 50001 60001 333 11042 21067 4/022 70012 555 10010
AAXX 01124 71895 NIL
AAXX 01124 71450 NIL
AAXX 01124 71451 16/// /2808 11113 21140 39805 40247 53026 60001 333 11064 21135 4/025 70006 555 10010
AAXX 01124 71452 46/// /3121 11078 21113 39566 40300 51041 6///1 333 10021 21083 4/005 7////
AAXX 01124 71453 NIL
AAXX 01124 71454 NIL
AAXX 01124 71455 NIL
AAXX 01124 71456 NIL
AAXX 01124 71457 16/// /2002 11216 21234 39432 40370 50005 60001 333 10006 21220 4/001 70014 555 10010
AAXX 01124 71458 16/// /2207 11163 21191 39537 40347 51007 60001 333 11034 21198 4/010 70000
AAXX 01124 71459 16/// /2809 11106 21157 39522 40365 51021 60001 333 11009 21106 70000
AAXX 01124 71460 16/// /1521 10033 20015 39825 40066 58040 60001 333 10006 21038 70000
AAXX 01124 71461 NIL
AAXX 01124 71462 NIL
AAXX 01124 71463 46/// /1715 10044 20004 39893 40116 58038 6///1 333 10068 20031 7////
AAXX 01124 71464 NIL
AAXX 01124 71465 NIL
AAXX 01124 71466 NIL
AAXX 01124 71468 NIL
AAXX 01124 71470 NIL
AAXX 01124 71471 15966 01301 11164 21189 39491 40316 50009 60001 333 11029 21175 70000
AAXX 01124 71473 16/// /0613 10024 21009 30243 40274 51008 60001 333 10038 20022 70000
AAXX 01124 71475 16/// /2902 11001 21002 30171 40267 50000 60001 333 10005 21011 70002
AAXX 01124 71476 NIL
AAXX 01124 71477 17/// /1336 10037 20027 60031 7//4/ 333 10032 20021 7////
AAXX 01124 71478 NIL
AAXX 01124 71479 NIL
AAXX 01124 71480 NIL
AAXX 01124 71481 NIL
AAXX 01124 71482 NIL
AAXX 01124 71483 NIL
AAXX 01124 71484 NIL
AAXX 01124 71485 16/// /1245 10055 21003 30143 40163 56011 60001 333 10056 20047 70002
AAXX 01124 71486 16/// /1703 11180 21194 39107 40373 58002 60001 333 11014 21195 4/017 70000
AAXX 01124 71487 NIL
AAXX 01124 71489 NIL
AAXX 01124 71490 NIL
AAXX 01124 71491 NIL
AAXX 01124 71492 NIL
AAXX 01124 71493 16/// /3210 10011 20004 30023 40061 53038 60001 333 10083 20010 70117
AAXX 01124 71494 NIL
AAXX 01124 71495 NIL
AAXX 01124 71496 16/// /3012 11103 21138 39688 40322 51034 60001 333 11027 21106 7////
AAXX 01124 71497 46/// /2309 11209 21237 39985 40266 51010 6///1 333 11197 21239 7////
AAXX 01124 71498 NIL
AAXX 01124 71499 17466 83007 11138 21157 39606 40258 51023 60001 771// 333 11103 21142 70000
AAXX 01124 71726 16/// /1001 11053 21057 39590 40138 58006 60001 333 11054 21059 4/029 70009
AAXX 01124 71727 12274 81003 11110 21123 39977 40181 58001 60001 886// 333 11068 21132 48044 70020
AAXX 01124 71728 12482 81402 11089 21119 39943 40171 57007 60001 887// 333 11095 21112 44002 70010
AAXX 01124 71730 11132 81306 11033 21033 39653 40081 58035 69901 70275 887// 333 11051 21061 79999 90961
AAXX 01124 71731 12274 81607 11033 21042 39655 40111 58022 60001 885// 333 11044 21061 48016 79999
AAXX 01124 71735 NIL
AAXX 01124 71738 11456 81508 11005 21021 39651 40002 58037 69902 7717/ 885// 333 11024 21037 47026 79999 90999 555 10000 20000
AAXX 01124 71739 41459 81410 11053 21063 39686 40052 58042 6//// 77177 885// 333 11053 21081 7//// 90927 93101
AAXX 01124 71749 16564 83010 11011 21036 39789 40034 55001 60021 333 10002 21023 70045
AAXX 01124 71799 11480 80106 10033 20018 30249 40273 51008 69951 76122 885// 333 10062 20033 55016 70005 90942
AAXX 01124 71800 16/// /0818 10020 20016 30043 40076 58067 60001 333 10025 21015 70000
AAXX 01124 71801 11210 81323 11002 21007 39947 40122 56039 60021 77922 887// 333 11003 21030 44002 70018 90921 93102
AAXX 01124 71803 11266 81016 11017 21028 39926 40115 57037 60031 72472 8662/ 333 11032 21044 44006 70028 90973 93103
AAXX 01124 71807 NIL
AAXX 01124 71808 11440 80412 11074 21088 30097 40145 56021 60011 77172 885// 333 11094 21097 44028 70012 90931 93101
AAXX 01124 71809 11540 80415 11024 21032 30069 40097 57027 60101 77187 885// 333 11006 21040 47012 70174 90973 93110
AAXX 01124 71810 17/// /0509 11048 21065 30067 40134 51010 69951 7//4/ 333 11036 21052 70049
AAXX 01124 71811 NIL
AAXX 01124 71813 17/// /0212 11073 21089 30108 40122 56007 69971 7//4/ 333 11078 21096 70056
AAXX 01124 71814 17/// /0213 11091 21101 30115 40125 56019 60041 7//4/ 333 11086 21107 70050
AAXX 01124 71815 11366 80614 10021 20009 30009 40040 56036 60051 76166 885// 333 10004 21018 42004 70062 90983
AAXX 01124 71201 16/// ///// 10038 21024 60001 333 10051 20035 70000
AAXX 01124 71202 17/// ///// 11158 21202 69981 7//4/ 333 11033 21169 70022
AAXX 01124 71203 15966 83602 11038 21058 39810 40346 51008 60001 333 10046 21057 70000
AAXX 01124 71209 46/// /1212 10040 6///1 333 10061 20031 7////
AAXX 01124 71211 46/// /0428 10036 21014 30261 40273 51015 6///1 333 10051 20030 7////
AAXX 01124 71212 16/// /2401 11048 21054 39336 40148 52009 60001 333 11016 21048 4/035 70003 555 10010
AAXX 01124 71213 46/// /1410 11051 21052 39783 40088 57036 6///1 333 11070 21086 7////
AAXX 01124 71214 NIL
AAXX 01124 71215 46/// /1607 10000 21063 39989 40343 51013 6///1 333 10053 21039 7////
AAXX 01124 71216 16/// /0902 11039 21059 39728 40366 51012 60001 333 10035 21050 4/008 70000
AAXX 01124 71217 NIL
AAXX 01124 71218 16/// /1803 11040 21051 39907 40349 53011 60001 333 10039 21050 70000
AAXX 01124 71219 46/// /1417 10031 21015 30122 40128 56013 6///1 333 10019 21002 7////
AAXX 01124 71220 46/// /1428 10043 21003 6///1 333 10029 20008 7////
AAXX 01124 71221 NIL
AAXX 01124 71222 16/// /0704 11148 21162 39202 40208 58018 60001 333 11166 21211 4/031 70000
AAXX 01124 71223 NIL
AAXX 01124 71224 NIL
AAXX 01124 71225 NIL
AAXX 01124 71226 NIL
AAXX 01124 71227 NIL
AAXX 01124 71228 NIL
AAXX 01124 71229 NIL
AAXX 01124 71230 16/// /0701 11161 21206 39381 40314 50006 60001 333 11049 21180 70000
AAXX 01124 71231 17/// /1504 11142 21163 69961 7//4/ 333 10017 21144 70006
AAXX 01124 71232 16/// /2509 11102 21172 38774 40325 58004 60001 333 10006 21108 70000
AAXX 01124 71233 NIL
AAXX 01124 71234 16/// /1502 11089 21099 39123 40363 58001 60001 333 10011 21099 70000
AAXX 01124 71235 16/// /1907 11106 21151 60001 333 10000 21132 70000
AAXX 01124 71236 46/// /1102 11114 21141 6///1 333 11005 21119 7////
AAXX 01124 71237 46/// /1606 11171 21193 39511 40367 50005 6///1 333 10011 21192 7////
AAXX 01124 71238 16/// /0000 11182 21208 60001 333 11032 21185 4/004 70000
AAXX 01124 71239 16/// /3321 11046 21097 39726 40195 53034 60001 333 10005 21048 4/004 70000
AAXX 01124 71240 16/// ///// 11152 21194 39480 40370 51016 60001 333 11015 21153 70000
AAXX 01124 71241 NIL
AAXX 01124 71242 16/// /2005 11182 21215 60001 333 11024 21192 4/005 70004
AAXX 01124 71243 NIL
AAXX 01124 71244 NIL
AAXX 01124 71245 NIL
AAXX 01124 71246 NIL
AAXX 01124 71247 15266 82306 11111 21122 39487 40379 51011 60001 333 10002 21163 70013
AAXX 01124 71248 16/// /2601 11236 21273 38990 40368 58004 60001 333 11024 21243 4/015 70000
AAXX 01124 71249 NIL
AAXX 01124 71900 46/// /21// 11210 21247 30139 40152 58008 6///1 333 11151 21211 7////
AAXX 01124 71903 NIL
AAXX 01124 71904 NIL
AAXX 01124 71914 16/// /0401 10019 20001 30049 40275 50011 60001 333 10035 20016 70000
AAXX 01124 71916 NIL
AAXX 01124 71918 460// ///// 11370 6///1 333 7////
AAXX 01124 71920 NIL
AAXX 01124 71921 NIL
AAXX 01124 71923 NIL
AAXX 01124 71927 17/// /3401 10017 20007 30216 40275 50007 69951 7//4/ 333 10057 20012 70005
AAXX 01124 71941 15266 81709 11061 21065 39698 40121 56022 60001 333 11064 21073 70000
AAXX 01124 71947 15164 81608 11073 21076 39751 40104 58027 60001 333 11093 21099 70000
AAXX 01124 71604 NIL
AAXX 01124 71605 16/// /3601 10031 21029 30121 40273 53011 60001 333 10054 20014 70000
AAXX 01124 71611 16/// /0702 11015 21026 60001 333 10011 21016 70012
AAXX 01124 71612 16/// /2101 11012 21024 30082 40174 50001 60001 333 11017 21022 70012
AAXX 01124 71614 16/// /2201 11012 21021 30098 40165 50007 60001 333 11017 21024 4/003 70003
AAXX 01124 71616 16/// /1601 11037 21043 30060 40183 53005 60001 333 11030 21040 70020
AAXX 01124 71617 16/// /1203 11107 21124 30009 40186 58004 60001 333 11117 21131 70021
AAXX 01124 71618 17408 83429 11173 21191 30114 40153 52027 60001 772// 333 11059 21174 70000
AAXX 01124 71619 NIL
AAXX 01124 71622 NIL
AAXX 01124 71632 46/// /3312 11147 21173 39769 40225 53028 6///1 333 11083 21147 4/019 7////
AAXX 01124 71634 16/// /0000 11027 21037 39972 40127 53028 60001 333 11002 21027 4/009 70140 555 10040
AAXX 01124 71638 16/// /1003 10022 21025 30159 40266 50011 60001 333 10052 20012 70000
AAXX 01124 71639 12462 81405 10026 20004 39875 40117 58030 60001 885// 333 10022 20008 70000
AAXX 01124 71642 13374 81606 11008 21017 39484 40030 58038 60001 887// 333 11011 21084 44024 70000
AAXX 01124 71051 NIL
AAXX 01124 71055 NIL
AAXX 01124 71057 NIL
AAXX 01124 71059 460// ///// 11311 30166 40263 51012 6///1 333 11306 21345 7////
AAXX 01124 71061 16/// /2506 11132 21199 39508 40329 52004 60001 333 11033 21163 4/004 70000
AAXX 01124 71062 46/// /2209 11139 21215 39206 40328 53004 6///1 333 11031 21149 4/012 7////
AAXX 01124 71064 460// /3405 11323 30055 40288 53012 6///1 333 11328 21366 7////
AAXX 01124 71065 NIL
AAXX 01124 71067 NIL
AAXX 01124 71070 NIL
AAXX 01124 71073 NIL
AAXX 01124 71074 NIL
AAXX 01124 71075 16/// /3004 11149 21166 39613 40242 51025 60001 333 11121 21149 4/063 70000
AAXX 01124 71078 NIL
AAXX 01124 71084 460// ///// 11361 30196 40248 51007 6///1 333 11348 21363 7////
AAXX 01124 71085 17048 81504 11117 21126 38923 40360 50004 60001 710// 333 11003 21122 70000
AAXX 01124 71087 NIL
AAXX 01124 71088 460// /2914 11330 56001 6///1 333 11212 21330 7////
AAXX 01124 71089 NIL
AAXX 01124 71096 460// ///// 11230 39290 40043 58003 6///1 333 11227 21245 7////
AAXX 01124 71097 46864 83611 11174 39581 40067 58005 6///1 333 11177 21188 7////
AAXX 01124 71098 43/// /3312 11079 21092 39710 40072 53034 6///1 333 11030 21079 7////
AAXX 01124 71099 43/// /0308 11096 21110 30014 40034 53004 6///1 333 11095 21125 7////
AAXX 01124 71250 NIL
AAXX 01124 71251 46/// /1602 11121 21140 39412 40383 50005 6///1 333 10006 21141 7////
AAXX 01124 71252 NIL
AAXX 01124 71253 46/// /2501 11211 21227 6///1 333 11131 21229 4/026 7////
AAXX 01124 71254 16/// /2407 11135 21201 60001 333 11037 21178 4/004 70000
AAXX 01124 71255 16/// /2504 11133 21170 60001 333 11074 21139 4/021 70009 555 10010
AAXX 01124 71256 46/// /2702 11163 21205 39362 40342 51009 6///1 333 11039 21171 7////
AAXX 01124 71257 NIL
AAXX 01124 71258 NIL
AAXX 01124 71259 NIL
AAXX 01124 71261 16/// /1316 10033 20012 39789 40048 58053 60001 333 10033 20017 70000
AAXX 01124 71263 13960 01609 10026 20014 39815 40105 57038 60001 81001 333 10190 21112 70004
AAXX 01124 71264 17/// /3216 10030 20022 30002 40033 53037 60021 7//4/ 333 10095 20030 70356
AAXX 01124 71265 15566 81408 10049 20024 30022 40116 56032 60001 333 10048 20028 70006
AAXX 01124 71266 NIL
AAXX 01124 71267 15966 62505 11144 21151 39237 40384 51004 60001 333 10026 21159 70000
AAXX 01124 71268 NIL
AAXX 01124 71269 NIL
AAXX 01124 71270 NIL
AAXX 01124 71271 NIL
AAXX 01124 71272 17766 83308 11213 21236 39847 40216 51027 60001 771// 333 11106 21213 70000
AAXX 01124 71273 16/// /2805 11121 21158 39631 40317 51018 60001 333 11032 21122 55/// 20000 70000
AAXX 01124 71274 NIL
AAXX 01124 71275 NIL
AAXX 01124 71276 NIL
AAXX 01124 71277 NIL
AAXX 01124 71278 NIL
AAXX 01124 71279 16/// /0104 11074 21091 30089 40157 53001 60001 333 11070 21093 70025
AAXX 01124 71281 NIL
AAXX 01124 71282 46/// /1510 10012 20012 39851 40122 56021 6///1 333 10006 21001 7////
AAXX 01124 71283 NIL
AAXX 01124 71284 16/// ///// 11158 21205 60001 333 11043 21162 70000
AAXX 01124 71285 NIL
AAXX 01124 71286 NIL
AAXX 01124 71287 NIL
AAXX 01124 71288 NIL
AAXX 01124 71289 NIL
AAXX 01124 71290 15966 00701 11200 21216 39453 40328 50000 60001 333 11051 21205 70000
AAXX 01124 71291 17/// /3003 11013 21027 39725 40012 56007 60041 7//4/ 333 10000 21013 4/024 55/// 20000 70064 555 10060
AAXX 01124 71292 17566 83323 11090 21116 39643 40268 51047 60001 771// 333 11010 21090 70000
AAXX 01124 71294 NIL
AAXX 01124 71295 NIL
AAXX 01124 71296 NIL
AAXX 01124 71297 16/// /1403 10041 20023 60001 333 10058 20021 70000
AAXX 01124 71298 16/// /1711 10044 20031 39818 40047 56050 60001 333 10055 20030 70000
AAXX 01124 71299 NIL
AAXX 01124 71665 16/// /2104 11186 21232 30134 40144 55006 60001 333 11170 21198 4/020 70000
AAXX 01124 71666 17/// /3414 10002 21006 30042 40087 53027 69951 7//4/ 333 10031 20002 4/001 70070
AAXX 01124 71667 NIL
AAXX 01124 71668 17/// /3110 11017 21040 30077 40121 53032 60021 7//4/ 333 10007 21023 4/001 70016
AAXX 01124 71669 NIL
AAXX 01124 71670 17/// ///// 11003 21008 69961 7//4/ 333 10006 21003 70083
AAXX 01124 71671 17/// /3107 10023 20020 30011 40071 51038 69931 7//4/ 333 10062 20023 70088
AAXX 01124 71672 16/// /1202 10016 20006 39861 40126 58026 60001 333 10018 20013 4/010 70029
AAXX 01124 71673 NIL
AAXX 01124 71674 NIL
AAXX 01124 71675 17236 83408 11076 21081 39745 40025 53013 60021 7714/ 333 11049 21076 70112
AAXX 01124 71679 16/// /0804 11082 21114 39194 40237 58002 60001 333 11038 21092 4/005 70000
AAXX 01124 71680 NIL
AAXX 01124 71681 46/// /0000 11041 21065 6///1 333 10040 21051 7////
AAXX 01124 71682 NIL
AAXX 01124 71683 NIL
AAXX 01124 71684 17258 81313 11052 21057 39786 40092 56036 60001 771// 333 11071 21087 70000
AAXX 01124 71685 15666 82301 11041 21073 39818 40376 53007 60001 333 10023 21044 70000
AAXX 01124 71686 469// /0606 11129 21142 39202 40189 58018 6///1 333 11142 21181
AAXX 01124 71687 16/// /3101 11041 21053 39486 40288 50014 60001 333 11011 21047 4/029 70000
AAXX 01124 71688 16/// /0000 11054 21057 39213 40273 50013 60001 333 11020 21068 4/091 70000
AAXX 01124 71689 15966 02504 11157 21173 39827 40304 51024 60001 333 11079 21157 70006
AAXX 01124 71690 NIL
AAXX 01124 71691 15566 83203 11055 21074 30139 40167 50002 60001 333 11041 21065 70000
AAXX 01124 71692 NIL
AAXX 01124 71694 16/// /1102 10000 21009 39757 40122 58025 60001 333 11001 21031 4/017 70019
AAXX 01124 71695 16/// /3112 11092 21118 39886 40230 51037 60001 333 11036 21127 4/026 70005 555 10020
AAXX 01124 71696 16/// /3424 11174 21192 30107 40145 53026 60001 333 11059 21175 70000
AAXX 01124 71697 15561 81406 10030 20027 39955 40127 56024 60001 333 10021 20007 70003
AAXX 01124 71699 17/// /3207 10000 21012 30105 40112 51036 69991 7//4/ 333 10068 21001 70015
AAXX 01124 71397 11374 83311 10028 20014 30053 40088 53040 69981 70262 885// 333 10066 20027 70084 90931
AAXX 01124 71400 17/64 /0403 11024 21029 60031 7//4/ 333 11020 21035 70064
AAXX 01124 71403 46/// /3326 10052 20044 39979 49999 53022 6///1 333 10078 20051 7////
AAXX 01124 71411 16/// /3211 10039 20034 30056 40068 53044 60001 333 10091 20039 70238
AAXX 01124 71412 17/// /3317 10026 20023 39989 49998 53002 60031 7//4/ 333 10062 20026 70276
AAXX 01124 71421 NIL
AAXX 01124 71430 NIL
AAXX 01124 71431 16/// /1611 10032 20022 30028 40124 56028 60001 333 10026 20009 70012
AAXX 01124 71432 NIL
AAXX 01124 71433 NIL
AAXX 01124 71435 NIL
AAXX 01124 71441 46/// /3318 11043 21059 39851 40165 53029 6///1 333 10019 21043 7////
AAXX 01124 71443 16/// /3213 11083 21124 39823 40246 51046 60001 333 11013 21083 4/007 70000
AAXX 01124 71444 16/// /3210 11094 21123 39426 40200 51039 60001 333 11029 21094 4/016 70000 555 10010
AAXX 01124 71447 16/// /3224 11062 21099 39683 40241 53035 60001 333 11004 21064 70000
AAXX 01124 71467 16/// /1103 11280 21307 30149 40270 52009 60001 333 11250 21290 4/004 70000
AAXX 01124 71472 NIL
AAXX 01124 71474 16964 01806 11078 21102 39032 40308 53010 60001 333 11021 21114 70000
AAXX 01124 71510 NIL
AAXX 01124 71538 11662 81711 10042 20026 39823 40052 58045 69901 78011 885// 333 10063 20030 79999 90910
AAXX 01124 71600 174// 82920 10075 20074 39922 49928 53011 60151 74344 333 10094 20072 70165
AAXX 01124 71601 NIL
AAXX 01124 71102 NIL
AAXX 01124 71105 NIL
AAXX 01124 71107 NIL
AAXX 01124 71110 NIL
AAXX 01124 71111 17432 81440 10057 20047 30058 40066 56015 60031 76144 333 10053 20034
AAXX 01124 71112 16/// ///// 60001 333 70000
AAXX 01124 71113 16/// /3606 10039 21033 30262 40286 50011 60001 333 10067 20018 70000
AAXX 01124 71115 16/// /1008 11035 21058 39741 40342 51011 60001 333 10050 21043 70000
AAXX 01124 71116 46/// /3504 11109 21131 39241 40385 51013 6///1 333 10023 21118 4/001 7//// 555 10010
AAXX 01124 71118 16/// /2309 11164 21203 39485 40350 51010 60001 333 11037 21166 70000
AAXX 01124 71121 16964 02207 11138 21219 39482 40340 53004 60001 333 11035 21139 70000
AAXX 01124 71127 16/// /2407 11144 21202 39390 40356 53005 60001 333 11030 21148 4/011 70000
AAXX 01124 71130 15966 02712 11098 21123 39806 40279 51026 60001 333 11020 21098 70000
AAXX 01124 71132 17466 82607 11130 21146 39931 40255 51022 60001 771// 333 11101 21130 70000
AAXX 01124 71133 NIL
AAXX 01124 71139 NIL
AAXX 01124 71141 NIL
AAXX 01124 71142 15966 02608 11120 21143 39343 40352 51026 60001 333 10004 21120 70000
AAXX 01124 71143 NIL
AAXX 01124 71144 NIL
AAXX 01124 71147 NIL
AAXX 01124 71149 16/// /3215 11065 21120 60001 333 10019 21065 70000
AAXX 01124 71500 NIL
AAXX 01124 71501 NIL
AAXX 01124 71502 NIL
AAXX 01124 71503 NIL
AAXX 01124 71504 NIL
AAXX 01124 71505 46/// /0000 11194 21222 39384 40130 58021 6///1 333 11055 21244 7////
AAXX 01124 71506 NIL
AAXX 01124 71507 NIL
AAXX 01124 71508 16/// ///// 10054 20034 39981 40119 56032 60001 333 10044 20030 70014
AAXX 01124 71509 NIL
AAXX 01124 71511 16/// /3114 11086 21115 39650 40310 51035 60001 333 11017 21086 55/// 20000 70000
AAXX 01124 71512 17/// /3603 11054 21057 30135 40149 53008 60011 7//4/ 333 11056 21076 70154
AAXX 01124 71513 17666 60312 11073 21091 30111 40127 56006 69981 7004/ 333 11078 21096 70046
AAXX 01124 71514 NIL
AAXX 01124 71515 16/// /3221 11079 21100 39563 40286 51039 60001 333 11009 21080 55/// 20000 70000
AAXX 01124 71516 NIL
AAXX 01124 71517 NIL
AAXX 01124 71518 NIL
AAXX 01124 71519 NIL
AAXX 01124 71520 NIL
AAXX 01124 71521 NIL
AAXX 01124 71522 NIL
AAXX 01124 71523 NIL
AAXX 01124 71524 16/// /1803 11017 21023 30153 40180 50004 60001 333 11022 21025 4/006 70000
AAXX 01124 71525 NIL
AAXX 01124 71526 NIL
AAXX 01124 71527 17566 83010 11057 21084 39563 40072 51010 60001 771// 333 11021 21058 70005
AAXX 01124 71528 NIL
AAXX 01124 71529 46/// /16// 11194 21218 30021 40261 53022 6///1 333 11172 21261 4/019 7////
AAXX 01124 71532 15464 81308 10001 20000 39767 40113 56026 60001 333 11001 21021 70000
AAXX 01124 71534 16458 81613 10022 20014 39827 40099 58034 60001 333 10009 20002 70045
AAXX 01124 71535 NIL
AAXX 01124 71536 NIL
AAXX 01124 71537 NIL
AAXX 01124 71539 NIL
AAXX 01124 71540 NIL
AAXX 01124 71541 NIL
AAXX 01124 71542 16/// /2511 11100 21155 60001 333 11079 21111 70004
AAXX 01124 71543 NIL
AAXX 01124 71544 NIL
AAXX 01124 71545 16/// ///// 11151 21196 60001 333 11032 21151 70000
AAXX 01124 71546 NIL
AAXX 01124 71547 NIL
AAXX 01124 71548 NIL
AAXX 01124 71549 NIL
AAXX 01124 71950 17766 81205 11070 21090 39598 40248 57010 60001 771// 333 11071 21116 70000
AAXX 01124 71952 16/// /3601 11119 21130 39379 40267 58002 60001 333 11138 21180 4/041 70000
AAXX 01124 71954 NIL
AAXX 01124 71956 NIL
AAXX 01124 71959 NIL
AAXX 01124 71960 460// /1407 11296 30105 40246 52007 6///1 333 11246 21310 7////
AAXX 01124 71962 16/// /2916 11027 21063 39660 40084 52002 60001 333 11003 21027 4/004 70021
AAXX 01124 71963 NIL
AAXX 01124 71967 16/// /1403 11028 21034 30077 40184 55000 60001 333 11004 21035 4/006 70000
AAXX 01124 71970 NIL
AAXX 01124 71971 NIL
AAXX 01124 71972 460// ///// 11126 39610 40080 55001 6///1 333 11133 21141 7////
AAXX 01124 71973 46/// /0602 11018 21030 39885 40073 58026 6///1 333 11022 21030 7////
AAXX 01124 71974 NIL
AAXX 01124 71975 460// /2711 11187 39303 40047 58003 6///1 333 11191 21210 7////
AAXX 01124 71976 NIL
AAXX 01124 71977 NIL
AAXX 01124 71978 NIL
AAXX 01124 71979 NIL
AAXX 01124 71980 46/// /0000 11384 21429 6///1 333 21384 4/032 7////
AAXX 01124 71981 NIL
AAXX 01124 71982 NIL
AAXX 01124 71983 NIL
AAXX 01124 71984 16/// /0000 11293 21323 30248 40257 51013 60001 333 11232 21314 70000
AAXX 01124 71985 NIL
AAXX 01124 71986 NIL
AAXX 01124 71987 17/// /0124 10003 20002 30056 40065 53027 60021 7//4/ 333 10017 20003 70134
AAXX 01124 71988 NIL
AAXX 01124 71989 NIL
AAXX 01124 71990 NIL
AAXX 01124 71999 46/// ///// 11027 6///1 333 10062 21036 7////
AAXX 01124 71744 NIL
AAXX 01124 71750 17/// /0000 10001 21001 39758 49990 56023 60081 7//4/ 333 10026 20000 4/015 70081
AAXX 01124 71751 NIL
AAXX 01124 71752 NIL
AAXX 01124 71753 17/// /3210 10034 20023 39998 40027 53027 60051 7//4/ 333 10107 20034 70320
AAXX 01124 71754 16/// /3011 11119 21167 39647 40337 51024 60001 333 11032 21123 4/002 55/// 20000 70000
AAXX 01124 71755 43/// /3409 11087 21104 39698 40045 5/021 6///1 333 11046 21088 7////
AAXX 01124 71756 16/// /1503 11049 21073 39161 40281 51013 60001 333 11028 21064 4/062 70000
AAXX 01124 71758 NIL
AAXX 01124 71760 NIL
AAXX 01124 71761 NIL
AAXX 01124 71762 NIL
AAXX 01124 71763 NIL
AAXX 01124 71765 16/// /1703 11022 21046 30037 40320 50014 60001 333 10038 21023 70000
AAXX 01124 71766 16/// /1305 10031 21014 30188 40261 50004 60001 333 10051 20023 70000
AAXX 01124 71767 16/// /1508 10020 20007 39797 40058 58048 60001 333 10021 21023 4/005 70000
AAXX 01124 71768 46/// /2502 11026 21055 39782 40346 51014 6///1 333 10046 21034 7////
AAXX 01124 71769 16/// /1220 10048 21012 30239 40255 50003 60001 333 10058 20043 70000
AAXX 01124 71770 NIL
AAXX 01124 71771 NIL
AAXX 01124 71772 16/// /1417 10045 20011 30256 40262 51008 60001 333 10057 20043 70000
AAXX 01124 71773 16/// /1601 11144 21157 39263 40146 58017 60001 333 11101 21181 4/027 70000
AAXX 01124 71774 46/// ///// 10002 6///1 333 10023 20002 7////
AAXX 01124 71775 16/// /2501 10014 21005 30279 40285 51014 60001 333 10045 20001 70000
AAXX 01124 71776 46/// /1305 11019 21063 39704 40365 53010 6///1 333 10043 21039 7////
AAXX 01124 71777 16/// ///// 11034 21037 30053 40312 51015 60001 333 11006 21042 4/010 70000
AAXX 01124 71778 46/// /0815 6///1 333 7////
AAXX 01124 71779 16/// /3001 11144 21157 39615 40311 58001 60001 333 11049 21167 4/026 70000
AAXX 01124 71780 17/// /0808 10041 20006 30223 40251 58004 69921 7//4/ 333 10060 20030 70002
AAXX 01124 71781 46/// /1318 10051 21004 30230 40255 50002 6///1 333 10057 20047 7////
AAXX 01124 71782 46/// /3502 11133 21149 39004 40388 53011 6///1 333 11004 21138 7////
AAXX 01124 71783 17/// /0702 10046 20002 30186 40261 50009 69921 7//4/ 333 10055 20039 70002
AAXX 01124 71784 16/// /0302 10018 21015 30062 40270 50011 60001 333 10042 20012 70000
AAXX 01124 71785 16/// /0703 10038 21027 30270 40286 50015 60001 333 10067 20024 70000
AAXX 01124 71786 46/// /0803 11207 21228 38472 40399 51001 6///1 333 11057 21209 7////
AAXX 01124 71787 17/// /3211 11018 21018 39591 40077 53026 69931 7//4/ 333 10049 21018 4/002 70036
AAXX 01124 71788 NIL
AAXX 01124 71789 NIL
AAXX 01124 71791 NIL
AAXX 01124 71792 NIL
AAXX 01124 71793 NIL
AAXX 01124 71794 NIL
AAXX 01124 71795 NIL
AAXX 01124 71796 NIL
AAXX 01124 71797 NIL
AAXX 01124 71930 NIL
AAXX 01124 71931 16/// /1216 11011 21019 30104 40116 56034 60001 333 10020 21051 70000
AAXX 01124 71934 12974 00000 11242 21268 39996 40268 53027 60001 333 11150 21251 47029 70002
AAXX 01124 71935 11258 82603 11235 21273 30066 40287 52031 69901 77177 887// 333 11146 21260 47028 79999 90936
AAXX 01124 71936 11574 80000 11172 21200 39995 40267 52028 69921 77177 885// 333 11163 21177 48028 70006 90983 93101
AAXX 01124 71937 NIL
AAXX 01124 71938 NIL
AAXX 01124 71940 12982 23206 11192 21236 39485 40331 51008 60001 80001 333 11046 21197 48003 70000
AAXX 01124 71943 12974 21405 11105 21177 39434 40301 51005 60001 80001 333 11059 21109 46003 70000
AAXX 01124 71944 160// ///// 11215 50000 60001 333 11062 21218 70000
AAXX 01124 71945 12974 01805 11165 21223 39772 40265 50006 60001 333 11099 21181 47014 70000
AAXX 01124 71946 12974 10000 11363 21371 30062 40297 52023 60001 80001 333 11263 21364 48045 70000
AAXX 01124 71948 47064 /0915 11286 30137 40257 51010 6///1 745// 333 11273 21288 7////
AAXX 01124 71949 46/// /1106 11215 21239 39303 40219 56012 6///1 333 11207 21245 7////
AAXX 01124 71951 11266 80000 11049 21055 39930 40204 58020 60021 77177 885// 333 11030 21074 47042 70016 90973 93102
AAXX 01124 71957 46964 01006 11299 21371 30143 40238 51002 6///1 333 11262 21318 7////
AAXX 01124 71964 11666 80403 11145 21166 39266 40148 58019 69901 77171 885// 333 11111 21193 47019 79999 90911
AAXX 01124 71966 16/// /0000 11356 21396 39736 40230 56011 60001 333 11231 21361 4/045 70000
AAXX 01124 71968 460// /1403 11256 30139 40207 51003 6///1 333 11241 21317 7////
AAXX 01124 71300 NIL
AAXX 01124 71301 16/// ///// 11058 21059 39676 40082 58031 60001 333 11062 21148 4/011 70009 555 10010
AAXX 01124 71302 16/// /3605 11139 21151 39449 40306 50000 60001 333 11052 21176 4/027 70000
AAXX 01124 71303 46/// ///// 10052 20026 6///1 333 10050 20033 7////
AAXX 01124 71305 15966 00704 11269 21295 39968 40277 53020 60001 333 11132 21270 70000
AAXX 01124 71306 17466 81710 11100 21116 30046 40079 56010 60001 771// 333 11109 21139 70000
AAXX 01124 71307 NIL
AAXX 01124 71308 17/// /3013 10032 20030 39920 40003 53009 60101 7//4/ 333 10092 20032 70310
AAXX 01124 71309 NIL
AAXX 01124 71310 16/// /3311 10016 20013 39988 40025 53017 60001 333 10059 20016 70240
AAXX 01124 71311 NIL
AAXX 01124 71312 16/// /3012 11104 21131 39804 40276 51026 60001 333 11021 21104 70000
AAXX 01124 71314 16/// /1509 10014 20002 39746 40098 58035 60001 333 10004 21001 4/014 70046
AAXX 01124 71315 NIL
AAXX 01124 71316 16/// /2407 11132 21180 39608 40320 51007 60001 333 11036 21141 70000
AAXX 01124 71317 NIL
AAXX 01124 71318 16/// /2509 11157 21195 39373 40365 52014 60001 333 11033 21180 4/003 70000
AAXX 01124 71319 16/// /2501 11085 21090 39279 40157 52013 60001 333 11056 21092 70005
AAXX 01124 71320 16/// /2910 11361 21397 30098 40098 53001 60001 333 11296 21364 4/061 70000
AAXX 01124 71321 16/// /0402 11167 21186 30046 40090 58001 60001 333 11155 21176 4/011 70000 555 10010
AAXX 01124 71322 46/// /3527 11247 21269 30159 40172 53019 6///1 333 11113 21248 4/021 7//// 555 10050
AAXX 01124 71323 NIL
AAXX 01124 71331 16/// /3104 11093 21126 60001 333 11062 21118 4/029 55/// 20000 70020 555 10030
AAXX 01124 71332 NIL
AAXX 01124 71334 NIL
AAXX 01124 71335 46864 3//// 11091 58010 6///1 333 11123 21149 7////
AAXX 01124 71336 46/// ///29 10014 20004 30063 40085 56055 6///1 333 11002 21011 7////
AAXX 01124 71337 46/// /1108 11028 21031 39878 40119 56022 6///1 333 11033 21054 7////
AAXX 01124 71338 46964 31907 11250 21295 30053 40060 58004 6///1 333 11239 21299 7////
AAXX 01124 71339 16964 02902 11108 21170 30145 40160 56017 60001 333 11085 21166 70000
AAXX 01124 71340 NIL
AAXX 01124 71341 NIL
AAXX 01124 71342 NIL
AAXX 01124 71343 NIL
AAXX 01124 71344 NIL
AAXX 01124 71345 NIL
AAXX 01124 71346 NIL
AAXX 01124 71347 NIL
AAXX 01124 71348 NIL
AAXX 01124 71349 NIL
AAXX 01124 71864 NIL
AAXX 01124 71865 16/// /3009 11094 21119 39592 40294 51036 60001 333 10004 21100 70000
AAXX 01124 71866 46964 02911 11103 21143 39691 40328 51034 6///1 333 11026 21106 7////
AAXX 01124 71867 11474 83212 11093 21114 39889 40233 51037 69901 77177 885// 333 11037 21129 47025 70030 90983
AAXX 01124 71868 16/// /3113 11085 21120 39804 40257 51036 60001 333 11014 21091 70000
AAXX 01124 71869 11474 82911 11089 21107 39760 40302 51028 69901 70377 885// 333 11022 21111 47011 79999 90963
AAXX 01124 71871 15966 02712 11149 21186 39500 40343 51015 60001 333 11044 21149 70000
AAXX 01124 71877 NIL
AAXX 01124 71878 12974 01903 11201 21246 39243 40377 52002 60001 333 11020 21203 48008 70000
AAXX 01124 71879 16964 02103 11138 21200 39506 40345 53006 60001 333 11028 21139 70005
AAXX 01124 71880 12982 60000 11088 21109 39234 40380 50012 60001 86070 333 10002 21090 42001 70000
AAXX 01124 71882 160// /0302 11045 21068 39819 40377 53007 60001 333 10019 21048 70000
AAXX 01124 71883 46/// /0000 11162 21177 39523 40388 50002 6///1 333 10013 21177 7////
AAXX 01124 71887 12986 71210 11027 21085 39906 40341 51009 60001 87070 333 10043 21037 45997 70000
AAXX 01124 71889 12674 81403 11017 21062 39920 40350 53022 60001 8657/ 333 10063 21039 70000
AAXX 01124 71891 16964 61703 11021 21045 30039 40321 50014 60001 333 10039 21021 70000
AAXX 01124 71892 12674 80906 10028 21023 30278 40283 51016 60001 8257/ 333 10049 20013 55016 70000
AAXX 01124 71700 15466 32905 11017 21031 30098 40124 53032 60001 333 10001 21018 70031
AAXX 01124 71701 12469 63008 11019 21034 30059 40122 52032 60001 85670 333 10000 21019 70034
AAXX 01124 71702 16/// /3617 10010 20007 30039 40054 53025 60001 333 10042 20010 4/001 70215
AAXX 01124 71703 11366 83004 11049 21058 39850 40152 52019 60053 7026/ 886// 333 11031 21058 44007 70098 90999 555 10018 20048
AAXX 01124 71704 15766 31514 10034 20021 39832 40052 56049 60001 333 10057 20021 70000
AAXX 01124 71710 NIL
AAXX 01124 71712 16/// /1903 11012 21019 30107 40169 58001 60001 333 11016 21021 70010
AAXX 01124 71713 16/// /0702 11039 21048 60001 333 11041 21052 70068
AAXX 01124 71716 NIL
AAXX 01124 71717 NIL
AAXX 01124 71720 16/// /1302 10019 21025 30115 40271 50003 60001 333 10043 21001 70000
AAXX 01124 71721 16/// /1606 11035 21040 39893 40142 58020 60001 333 11031 21037 70020
AAXX 01124 71723 16/// /0000 11030 21046 30168 40178 53005 60001 333 11029 21034 70011
AAXX 01124 71724 NIL
AAXX 01124 71732 16/// /1706 11030 21042 60001 333 11040 21056 4/014 70000
AAXX 01124 71733 16/// /1304 11032 21032 39645 40077 58036 60001 333 11051 21060 4/007 70000
AAXX 01124 71734 NIL
AAXX 01124 71736 NIL
AAXX 01124 71737 NIL
AAXX 01124 71741 16/// /1210 11027 21078 39903 40338 53010 60001 333 10042 21037 70000
AAXX 01124 71742 NIL
AAXX 01124 71743 NIL
AAXX 01124 71744 NIL
AAXX 01124 71745 NIL
AAXX 01124 71746 NIL
AAXX 01124 71747 NIL
AAXX 01124 71748 NIL
AAXX 01124 71150 46/// /3221 11095 21121 39519 40216 51041 6///1 333 11031 21097 7////
AAXX 01124 71151 NIL
AAXX 01124 71152 17/// /0823 10040 20023 30011 40024 56044 60031 7//4/ 333 10017 20007 70057
AAXX 01124 71153 16/// /1902 11103 21133 60001 333 10009 21116 70000
AAXX 01124 71154 16/// /2214 11048 21133 60001 333 10003 21053 70000
AAXX 01124 71155 NIL
AAXX 01124 71156 NIL
AAXX 01124 71157 NIL
AAXX 01124 71158 NIL
AAXX 01124 71159 NIL
AAXX 01124 71160 NIL
AAXX 01124 71161 16/// /1203 11017 21023 30003 40153 58015 60001 333 11015 21032 70000
AAXX 01124 71162 NIL
AAXX 01124 71163 46/// /3003 11193 21210 39914 40272 53027 6///1 333 11156 21194 7////
AAXX 01124 71164 NIL
AAXX 01124 71165 NIL
AAXX 01124 71166 NIL
AAXX 01124 71167 15966 02805 11203 21241 39195 40349 50002 60001 333 11014 21217 70000
AAXX 01124 71168 16/// /3116 11036 21077 39633 40230 51024 60001 333 10033 21038 70013
AAXX 01124 71170 NIL
AAXX 01124 71171 16/// /1605 10041 20013 30006 40102 58035 60001 333 10064 20031 70000
AAXX 01124 71172 16/// ///// 10006 21005 39864 40082 58040 60001 333 11008 21035 4/011 70000
AAXX 01124 71175 NIL
AAXX 01124 71176 460// /2318 11160 39385 40087 55001 6///1 333 11165 21208 7////
AAXX 01124 71177 460// /3211 11120 39079 40102 58003 6///1 333 11123 21157 7////
AAXX 01124 71178 16/// /1216 10003 21011 30094 40126 56034 60001 333 11015 21033 55/// 20000 70000
AAXX 01124 71179 460// /2714 11125 39285 40133 57006 6///1 333 11138 21161 7////
AAXX 01124 71180 17/// /1039 10056 20033 39950 49989 56024 60021 7//4/ 333 10045 21003 70073
AAXX 01124 71181 17240 81017 10013 20001 39989 40025 58051 60051 74344 333 10016 21022 70045
AAXX 01124 71183 16/// /2604 30128 50002 60001 333 70004
AAXX 01124 71184 46/// /2005 11011 21021 6///1 333 11014 21017 7////
AAXX 01124 71186 NIL
AAXX 01124 71187 15966 81112 10016 21015 30256 40305 51012 60001 333 10061 20003 70000
AAXX 01124 71189 NIL
AAXX 01124 71190 NIL
AAXX 01124 71191 17/// ///// 10010 20000 60021 7//4/ 333 10042 20010 4/003 70083
AAXX 01124 71192 15961 02802 11142 21152 39619 40312 50000 60001 333 11050 21162 70000
AAXX 01124 71193 17/// /1210 11056 21060 39686 40052 58039 69941 7//4/ 333 11074 21082 4/032 70004 555 10010
AAXX 01124 71196 16/// /1304 11047 21052 39941 40143 56020 60001 333 11045 21052 4/020 70010 555 10010
AAXX 01124 71197 17248 60824 10026 20023 39970 40019 56028 60041 74344 333 10015 21003 70140
AAXX 01124 71198 46/// /1704 11019 21035 6///1 333 11017 21025 7////
AAXX 01124 71199 NIL
AAXX 01124 71350 17/// /3414 10015 20011 39975 40040 53025 69931 7//4/ 333 10051 20013 70199
AAXX 01124 71351 NIL
AAXX 01124 71352 16/// /1510 10018 20013 39638 40092 58037 60001 333 10018 20004 70000
AAXX 01124 71353 NIL
AAXX 01124 71354 NIL
AAXX 01124 71355 16/// /2804 11326 21360 30028 40117 53013 60001 333 11280 21337 4/012 70000
AAXX 01124 71356 16/// /3424 11332 21369 30152 40223 53025 60001 333 11207 21332 4/006 70000
AAXX 01124 71357 NIL
AAXX 01124 71358 17/// /2802 11376 21417 30045 40082 53002 69931 7//4/ 333 11318 21386 4/042 70027
AAXX 01124 71359 NIL
AAXX 01124 71360 NIL
AAXX 01124 71361 NIL
AAXX 01124 71362 NIL
AAXX 01124 71363 NIL
AAXX 01124 71364 NIL
AAXX 01124 71365 NIL
AAXX 01124 71368 15466 81511 10023 20010 39705 40094 58039 60001 333 10024 20008 70000
AAXX 01124 71369 15966 01002 11162 21182 39592 40328 53011 60001 333 11035 21162 70000
AAXX 01124 71370 46/// /0702 11046 21059 30030 40169 53007 6///1 333 11028 21046 7////
AAXX 01124 71371 17216 82205 11012 21013 30138 40173 50005 60001 710// 333 11016 21024 70003
AAXX 01124 71372 16/// /1903 11014 21017 60001 333 11020 21024 70000
AAXX 01124 71373 NIL
AAXX 01124 71374 NIL
AAXX 01124 71375 NIL
AAXX 01124 71376 NIL
AAXX 01124 71377 16/// /2302 11018 21030 30119 40168 50002 60001 333 11017 21024 4/003 70000
AAXX 01124 71378 16/// /1001 11085 21111 39964 40178 53004 60001 333 11079 21091 4/023 70030
AAXX 01124 71379 NIL
AAXX 01124 71380 NIL
AAXX 01124 71381 NIL
AAXX 01124 71382 NIL
AAXX 01124 71383 NIL
AAXX 01124 71384 NIL
AAXX 01124 71385 NIL
AAXX 01124 71386 16/// /3209 11042 21054 39937 40146 51015 60001 333 11042 21065 70100
AAXX 01124 71387 NIL
AAXX 01124 71388 46/// /0903 11107 21122 39982 40176 58003 6///1 333 11064 21124 7////
AAXX 01124 71389 NIL
AAXX 01124 71390 NIL
AAXX 01124 71391 17/// ///// 11028 21035 60011 7//4/ 333 11020 21029 70038
AAXX 01124 71392 NIL
AAXX 01124 71393 NIL
AAXX 01124 71395 11259 83219 10017 20015 39866 40042 53030 60041 71084 886// 333 10095 20017 70353 90933
AAXX 01124 71398 15766 81407 11067 21077 30038 40049 58027 60001 333 11064 21080 70000
AAXX 01124 71399 NIL
AAXX 01124 71812 47004 93429 11249 21288 30158 40172 53019 6///1 745// 333 11114 21249 7////
AAXX 01124 71819 17532 80609 11065 21073 30110 40152 56017 60001 771// 333 11075 21120 70000
AAXX 01124 71820 16/// /0904 10007 20005 30035 40151 56020 60001 333 11003 21011 4/002 70000
AAXX 01124 71823 17264 81805 11107 21110 39733 40129 56018 60001 745// 333 11159 21259 70000
AAXX 01124 71824 46/// /1502 11088 21094 6///1 333 11099 21107 7////
AAXX 01124 71826 16/// /0000 11226 21259 30012 40057 58003 60001 333 11207 21232 4/015 70000 555 10010
AAXX 01124 71829 16/// /3010 11069 21089 39994 40159 50002 60001 333 11056 21078 70014
AAXX 01124 71833 46/// /1607 10024 20013 6///1 333 10022 20005 7////
AAXX 01124 71835 16/// /2912 11045 21057 39536 40015 53003 60001 333 11035 21052 4/021 70008
AAXX 01124 71837 NIL
AAXX 01124 71839 NIL
AAXX 01124 71840 NIL
AAXX 01124 71846 16/// /2802 11033 21035 39687 40001 56009 60001 333 11030 21043 4/010 70014 555 10020
AAXX 01124 71847 NIL
AAXX 01124 71848 NIL
AAXX 01124 71849 16/// /3225 11072 21105 39867 40170 53039 60001 333 10015 21072 4/001 70006
AAXX 01124 71001 15966 00705 11148 21165 39114 40130 58022 60001 333 11310 21352 70000
AAXX 01124 71002 15966 00503 11288 21321 39613 40191 58008 60001 333 11170 21311 70003
AAXX 01124 71003 15266 81806 11099 21106 39732 40127 56019 60001 333 11159 21239 70000
AAXX 01124 71005 NIL
AAXX 01124 71006 NIL
AAXX 01124 71007 NIL
AAXX 01124 71008 NIL
AAXX 01124 71009 NIL
AAXX 01124 71010 NIL
AAXX 01124 71011 NIL
AAXX 01124 71012 NIL
AAXX 01124 71013 NIL
AAXX 01124 71014 NIL
AAXX 01124 71015 NIL
AAXX 01124 71016 NIL
AAXX 01124 71017 NIL
AAXX 01124 71018 NIL
AAXX 01124 71019 NIL
AAXX 01124 71020 NIL
AAXX 01124 71021 NIL
AAXX 01124 71022 17666 81310 10030 21010 30080 40124 56016 60061 70044 333 10023 20009 70055
AAXX 01124 71023 16964 02907 11128 21157 39509 40309 51013 60001 333 11051 21136 70005
AAXX 01124 71024 46/// /0000 11222 21241 6///1 333 11092 21225 4/016 7////
AAXX 01124 71026 NIL
AAXX 01124 71027 17/// /2501 10022 20022 39979 49989 56023 60081 7//4/ 333 10030 20002 70242
AAXX 01124 71028 16/// /3401 11108 21123 39207 40279 58005 60001 333 11057 21108 4/005 70000
AAXX 01124 71029 NIL
AAXX 01124 71030 16/64 /3409 11002 21009 30020 40109 51037 60001 333 10083 21002 70021
AAXX 01124 71032 46/// /0000 11073 21085 39471 40335 53010 6///1 333 10006 21095 4/017 7////
AAXX 01124 71033 46/// /3106 11148 21163 39606 40261 51023 6///1 333 11109 21152 4/028 55/// 20000 7//// 555 10020
AAXX 01124 71035 NIL
AAXX 01124 71036 17666 83218 11062 21108 39838 40221 51047 60001 771// 333 10000 21062 70000
AAXX 01124 71039 46/// /0000 11336 6///1 333 11346 21390 7////
AAXX 01124 71040 46/// /0704 11104 21124 39963 40169 58006 6///1 333 11111 21134 7////
AAXX 01124 71041 17/06 /3013 10030 20029 39850 49990 55003 60081 76144 333 10067 20016 70241
AAXX 01124 71042 16/// /0802 10018 21012 30272 40276 51016 60001 333 10043 21003 70000
AAXX 01124 71044 16/// /2901 11349 21389 39892 40239 55001 60001 333 11274 21400 4/015 70000
AAXX 01124 71046 460// /2606 11333 30196 40214 51001 6///1 333 11246 21352 7////
AAXX 01124 71047 NIL
AAXX 01124 71048 NIL
AAXX 01124 71049 NIL
AAXX 01124 71060 NIL
AAXX 01124 71063 NIL
AAXX 01124 71550 NIL
AAXX 01124 71551 NIL
AAXX 01124 71552 NIL
AAXX 01124 71553 NIL
AAXX 01124 71554 16/// /3205 11045 21059 30167 40173 53007 60001 333 11025 21051 70088
AAXX 01124 71555 46/// /1605 11097 21112 38725 40351 58001 6///1 333 11010 21117 7////
AAXX 01124 71556 16/// /3211 11086 21113 39685 40311 51035 60001 333 10003 21101 4/002 70000
AAXX 01124 71557 46/// /0000 11049 21062 6///1 333 10028 21056 7////
AAXX 01124 71558 46/// ///// 11066 21074 30107 40144 56017 6///1 333 11070 21123 7////
AAXX 01124 71559 46/// /3122 11075 21111 39564 40288 51034 6///1 333 10022 21076 55/// 20000 7////
AAXX 01124 71560 46/// /3118 11042 21055 39854 40161 53029 6///1 333 10017 21045 7////
AAXX 01124 71563 NIL
AAXX 01124 71564 NIL
AAXX 01124 71565 NIL
AAXX 01124 71566 NIL
AAXX 01124 71567 NIL
AAXX 01124 71568 16/// /1410 10041 21018 30236 40249 58002 60001 333 10043 20026 70000
AAXX 01124 71569 16/// /2913 11095 21124 39575 40301 51039 60001 333 10001 21102 4/001 70000
AAXX 01124 71570 16/// /3210 11067 21095 39821 40137 53031 60001 333 10007 21067 70006
AAXX 01124 71571 NIL
AAXX 01124 71572 NIL
AAXX 01124 71573 16/// /1507 10030 20012 39800 40081 58046 60001 333 10059 20025 70000
AAXX 01124 71574 11574 83108 11022 21039 30051 40125 51027 69901 70376 885// 333 10004 21030 43025 70184 90963
AAXX 01124 71575 NIL
AAXX 01124 71576 16/// /0000 11383 21426 30002 40093 52002 60001 333 11340 21388 4/002 55/// 20000 70000
AAXX 01124 71577 46/// /3216 11072 21102 6///1 333 10011 21072 7////
AAXX 01124 71578 16/// /2302 11038 21045 60001 333 11034 21041 70000
AAXX 01124 71579 16/// /3310 11067 21109 39869 40157 53037 60001 333 10020 21067 70009
AAXX 01124 71580 11469 43115 11356 21390 30128 40167 58008 69901 77671 84500 333 11357 21400 43030 79999 90931
AAXX 01124 71581 NIL
AAXX 01124 71582 15766 81207 10031 21028 30116 40169 58021 60001 333 10028 20011 70003
AAXX 01124 71583 NIL
AAXX 01124 71584 15766 60205 11069 21087 30095 40144 53003 60001 333 11060 21082 70000
AAXX 01124 71585 NIL
AAXX 01124 71586 16/// /3008 11097 21115 39790 40271 53022 60001 333 11047 21114 4/045 70004 555 10020
AAXX 01124 71587 NIL
AAXX 01124 71588 16/// /1404 11012 21017 60001 333 11024 21040 70000
AAXX 01124 71589 17/// /0804 11012 21013 39978 40112 56037 60011 7//4/ 333 11011 21044 4/002 70014 555 10020
AAXX 01124 71590 16/// /3205 11049 21065 39962 40156 51018 60001 333 11037 21057 4/014 70095 555 10030
AAXX 01124 71592 NIL
AAXX 01124 71593 NIL
AAXX 01124 71596 NIL
AAXX 01124 71598 17/64 /3608 11007 21025 30109 40115 53030 60011 7//4/ 333 10003 21007 4/006 70128 555 10030
AAXX 01124 71599 NIL
AAXX 01124 71893 11680 81910 10039 21025 30235 40267 50008 69901 72122 8257/ 333 10050 20028 55013 79999 90920
AAXX 01124 71894 16/// /0914 10057 20022 30184 40193 56019 60001 333 10069 20043 70004
AAXX 01124 71896 15966 13607 11138 21152 39439 40308 50001 60001 333 11053 21189 70000
AAXX 01124 71897 12274 81420 10024 21015 3//// 4//// 57016 60001 8882X 333 10038 20006 70000
AAXX 01124 71898 160// ///// 10034 56016 60011 333 10025 20009 70010
AAXX 01124 71899 12474 81421 10053 20042 3//// 4//// 57029 60001 888XX 333 10022 20011 70018
AAXX 01124 71902 12974 23202 11184 21243 30140 40149 55006 60002 82030 333 11160 21198 48048 70000 555 10000 20000
AAXX 01124 71905 NIL
AAXX 01124 71906 12974 70000 11188 21228 30070 40122 58014 60001 87070 333 11163 21237 44015 79999
AAXX 01124 71907 17462 81706 11126 21147 30047 40080 56011 60001 745// 333 11131 21152 70000
AAXX 01124 71909 16964 00503 11167 21196 30030 40074 58001 60001 333 11155 21174 70000
AAXX 01124 71910 46564 82802 11188 21222 30020 40084 51006 6///1 333 11129 21196 7////
AAXX 01124 71911 46040 02509 11379 30128 40190 53005 6///1 333 11332 21439 7////
AAXX 01124 71912 NIL
AAXX 01124 71915 11474 63410 11275 21317 30024 40109 52005 69901 77177 86530 333 11172 21280 48042 70002 90983
AAXX 01124 71917 11561 81203 11353 21410 30121 40136 52002 69901 77177 885// 333 11348 21383 47015 55/// 10083 20000 70002 90993
AAXX 01124 71922 11574 82809 11096 21115 39794 40276 52025 69901 70277 885// 333 11050 21113 47036 70084 90932
AAXX 01124 71924 11216 63313 11325 21366 30076 40171 52011 69901 77677 86600 333 11328 21340 48038 55/// 79999 90983
AAXX 01124 71925 11974 02908 11372 21415 30236 40281 52010 69901 77677 333 11350 21389 42021 79999 90983
AAXX 01124 71926 11916 03429 11326 21385 30193 40219 51019 69901 73871 333 11204 21326 46043 70004 90963
AAXX 01124 71928 16/// /1003 11230 21255 39135 40362 58002 60001 333 11028 21243 4/009 70000
AAXX 01124 71603 12369 83213 10030 20021 30051 40104 53038 60001 886// 333 10097 20030 70112
AAXX 01124 71607 16/// /3209 11010 21025 30094 40127 51031 60001 333 10059 21010 4/001 70037
AAXX 01124 71609 11474 83414 10004 21026 39971 40105 53039 69931 70282 885// 333 10062 20001 70066 90952
AAXX 01124 71610 17232 82101 11024 21030 39876 40175 51011 60001 710// 333 10010 21026 70008
AAXX 01124 71621 NIL
AAXX 01124 71623 NIL
AAXX 01124 71624 12569 81407 10042 20023 39896 40108 58037 60001 885// 333 10027 20014 55011 70002
AAXX 01124 71625 16262 81404 11040 21048 39981 40144 56019 60001 333 11037 21046 70010
AAXX 01124 71627 11258 82404 11014 21036 30126 40171 50003 69901 70252 886// 333 11018 21023 42003 70012 90941
AAXX 01124 71628 11259 81304 11036 21046 30016 40159 58019 60001 71022 83500 333 10184 21214 4-6015 70022
AAXX 01124 71630 NIL
AAXX 01124 71631 16/// /1610 10019 20007 39580 40079 58035 60001 333 10013 21001 70000
AAXX 01124 71633 12474 81612 10026 20005 39799 40070 58043 60001 885// 333 10018 21001 55000 79999
AAXX 01124 71705 11132 83416 10001 21004 39997 40084 53025 60011 75165 887// 333 10033 20000 70108 90927
AAXX 01124 71706 11124 83513 10018 20016 39986 40046 53025 60001 70244 886// 333 10057 20015 70176
AAXX 01124 71707 11/08 93509 10043 20034 39903 49978 56024 60031 76154 333 10062 20023 70100 90947
AAXX 01124 71709 11148 80321 10016 20014 30003 40016 53008 60232 751// 887// 333 10027 20016 41997 70280 90999 555 10010 20010
AAXX 01124 71711 NIL
AAXX 01124 71714 46/// /0000 11038 21043 30101 40195 51008 6///1 333 11038 21043 4/014 7////
AAXX 01124 71715 16/// /0403 11056 21070 39987 40172 51007 60001 333 11047 21057 4/012 70065
AAXX 01124 71718 11359 83406 11045 21054 30104 40171 53008 69901 77177 887// 333 11030 21076 48013 70114 90983
AAXX 01124 71719 17/// /0121 11012 21023 30105 40111 53028 69931 7//4/ 333 10002 21012 4/006 70122 555 10040
AAXX 01124 78862 11476 40714 10256 20211 30168 40191 60001 70511 84802 333 10282 20219 58000 84818
AAXX 01124 014G24KT SHRA BKN015 BKN038
AAXX 01124 TAF TKPN 011000Z 0112/0212 07014KT 9999 SCT022 PROB40 TEMPO 0112/0212 07014G24KT SHRA BKN015 BKN038
AAXX 01124 TAF TQPF 011000Z 0112/0212 07014KT 9999 SCT022 PROB40 TEMPO 0112/0212 07014G24KT SHRA BKN015 BKN038
AAXX 01124 TAF TUPJ 011000Z 0112/0212 07014KT 9999 SCT022 PROB40 TEMPO 0112/0212 07014G24KT SHRA BKN015 BKN038
AAXX 01124 2400/2424 07016KT 9999 SCT020 SCT040 PROB40 TEMPO 2400/2412 07018G28KT SHRA TEMPO 2412/2424 07016G26KT SHRA
AAXX 01124 TAF TUPJ 041000Z 04012/0512 07008KT 9999 SCT016 BKN038 SCT270 TEMPO 0412/0512 SHRA BKN015 PROB40 TEMPO 0418/0512 5000 SHRA BKN014 BKN036 PROB30 0420/0512 4000 TSRA FEW012CB
AAXX 01124 918 4000 TSRA FEW012CB
AAXX 01124 N015 BKN036 PROB40 TEMPO 0704/0724 3000 +TSRA SCT011CB BKN012 BECMG 0712/0714 14008KT
AAXX 01124 21/2712 07017G28KT 5000 SHRA BKN015 BKN036 PROB TEMPO 2700/2712 4000 TSRA FEW013CB
AAXX 01124 PROB30 TEMPO 0800/0806 4000 TSRA FEW012CB PROB40 TEMPO 0800/0824 2000 +SHRA/TSRA SCT010CB BKN012 BKN250
AAXX 01121 12120 11666 81905 10021 20000 30076 40083 57024 69901 76011 885// 333 93097
AAXX 01121 12250 11458 71603 10012 21009 30035 40125 57020 60001 71011 875// 333 87614 93000
AAXX 01121 12295 11230 81802 11025 21025 39980 40171 57008 60001 71011 886// 333 88703 93000
AAXX 01121 12330 11116 81703 10019 20019 30009 40119 57016 69921 71065 886// 333 88703 93092
AAXX 01121 12375 11258 51502 10022 20004 30019 40152 58019 60001 71042 81632 333 93000
AAXX 01121 12424 11575 71804 10051 20024 39985 40139 57009 69901 70376 875// 333 93097
AAXX 01124 08055 11117 81202 10030 20026 39196 48547 58015 69901 71041 886// 333 50560 95090
AAXX 01124 08075 11258 82111 10042 20038 39229 48558 58009 60001 71042 886// 333 50011
AAXX 01124 08084 02980 42506 10116 20049 39818 40251 58023 60001 80001 333 60007
AAXX 01124 08171 NIL
AAXX 01124 08184 02985 11901 10172 20070 30078 40231 58021 60001 80001 333 60007
AAXX 01124 08202 01225 82304 10064 20058 39347 42880 58009 60001 71044 886// 333 60007
AAXX 01124 08235 NIL
AAXX 01124 08238 12965 01205 10188 20072 30184 40243 58010 60001
AAXX 01124 08280 12980 13403 10126 20022 39449 40270 58014 60001 80001
AAXX 01124 08330 11220 80000 10056 20044 30069 40307 58005 60001 71144 88600
AAXX 01124 08348 12965 02604 10108 20043 39551 40294 58010 60001
AAXX 01124 08360 02984 02205 10195 20043 30222 40259 58018 60001 333 60007
AAXX 01124 08373 02570 11804 10192 20109 30237 40258 58012 60001 81600 333 60007
AAXX 01124 08410 02980 00502 10120 20028 30185 40297 58012 60001 333 60007
AAXX 01124 08419 02970 03101 10107 20023 39613 40289 58013 60001 333 60007
AAXX 01124 08451 02980 02503 10174 20113 30263 40296 58006 60001 333 60007
AAXX 01124 08487 02475 12003 10160 20103 30244 40269 58010 60001 81800 333 60007
AAXX 01121 13168 32998 51602 10074 21009 30120 40228 56013 85030
AAXX 01121 13174 32697 61602 10055 21002 30126 40228 57011 82530
AAXX 01121 13269 32997 01601 10059 21013 30016 40234 57009
AAXX 01121 13274 32997 01903 10078 21036 30067 40229 57013
AAXX 01121 13278 32998 02503 10061 21020 30012 40241 57009
AAXX 01121 13378 32999 03102 11040 21076 38262 48483 51003
AAXX 01121 13397 32698 13203 10032 21029 39687 40237 57009 81100
AAXX 01121 13457 22970 02402 10119 21015 30214 40221 56006
AAXX 01121 13481 NIL
AAXX 01121 13173 32998 61804 10064 21016 30129 40231 57007 86030
AAXX 01121 13180 31996 01103 10038 20036 30125 40238 56011 71000
AAXX 01121 13266 32997 30802 10053 21025 30130 40234 58006 83030
AAXX 01121 13369 32997 10000 11031 21103 39011 48476 58002 80001
AAXX 01121 13383 32998 00101 10062 21053 30032 40239 50009
AAXX 01121 13384 32698 11401 10070 20004 30083 40236 57013 81100
AAXX 01121 13389 32598 50401 10042 21076 39953 40241 58007 85800
AAXX 01121 13477 NIL
AAXX 01121 15501 12970 00000 10047 20002 30177 40222 58006 60001 333 10047 21022 555 573//
AAXX 01121 15505 12775 22902 10049 21040 39848 40227 57006 60001 82300 333 10055 20004 41998 555 552//
AAXX 01121 15511 12970 03403 10058 21009 30191 40231 58008 60001 333 10058 21020 555 562//
AAXX 01121 15514 12970 02903 10042 21020 30185 40221 57001 60001 333 10044 21014 555 564//
AAXX 01121 15530 12670 22502 10054 21001 39994 40236 54000 60001 82101 333 10061 20001 43009 555 568//
AAXX 01121 15533 12970 02302 10033 21018 30181 40214 51002 60001 333 10033 20010 43002 555 569//
AAXX 01121 15550 11918 02701 10039 20007 30189 40209 58005 60001 71011 333 10041 20000 555 580//
AAXX 01121 15561 12970 03206 10048 21012 30197 40205 52004 60001 222// 00072 2//01 333 10060 20030 555 565// 81194 92025 92428
AAXX 01121 15562 12970 03206 10046 21015 30143 40217 52005 60001 222// 2//02 333 10046 20010 555 565// 92036 92438
AAXX 01121 15600 11388 30000 11048 21054 38291 48496 51004 60001 70300 83200 333 11048 21096 48012 555 595//
AAXX 01121 15601 12984 00000 10058 21022 39584 40209 58004 60001 333 10060 21026 555 556//
AAXX 01121 15605 12777 22704 10006 21045 39364 40229 58006 60001 82500 333 10006 21056 44004 555 569//
AAXX 01121 15613 11989 03606 11099 21219 37679 47008 54000 60001 70200 333 11099 21134 48047 555 537//
AAXX 01121 15628 12682 12502 10036 21034 39965 40228 58004 60001 81200 333 10048 20017 43009 555 560//
AAXX 01121 15642 12980 33605 10058 21018 30033 40203 54000 60001 80002 333 10060 20010 555 558//
AAXX 01121 15661 12970 03206 10064 20002 30162 40198 54000 60001 222// 00076 20402 333 10064 20026 555 564// 92034 92438
AAXX 01121 15726 11/08 93301 11045 21051 38231 48496 58003 60002 74144 333 11045 21081 44051 555 596//
AAXX 01121 12105 11232 81605 10019 20013 30039 40082 58013 69981 76111 8772/ 333 87704 93001
AAXX 01121 12195 11958 22003 11002 21018 39924 40157 57008 60001 71041 80001 333 93000
AAXX 01121 12235 11228 81705 10003 20002 39895 40110 57014 60001 71011 886// 333 88704 93000
AAXX 01121 12270 11439 71703 11008 21009 39958 40145 57017 60001 71041 875// 333 93000
AAXX 01121 12280 11440 81805 11024 21027 39990 40152 57013 60001 71011 885// 333 93000
AAXX 01121 12300 11/01 91902 10042 20042 30008 40098 57014 60011 75164 333 93001
AAXX 01121 12400 11656 81903 10046 20043 39878 40115 58011 69911 72154 875// 333 93091
AAXX 01121 12435 11325 81703 10010 20001 39963 40139 57014 69901 72011 886// 333 93097
AAXX 01121 12495 11663 52003 10019 21008 39877 40175 58011 60001 70141 81506 333 93000
AAXX 01121 12530 12660 71603 10047 20014 39947 40148 58009 60001 82502 333 93000
AAXX 01121 12570 12560 71704 10007 21008 39844 40170 57013 60001 875// 333 93000
AAXX 01121 12580 12970 01905 10023 21015 39920 40185 58011 60001 333 93000
AAXX 01121 12160 12560 71505 10011 21011 30065 40119 57024 60001 82236 333 93000
AAXX 01121 12205 11330 82206 10059 20058 30071 40079 57017 60021 76122 8772/ 333 93002
AAXX 01121 12465 11756 71804 10015 21001 39908 40146 58013 60001 71011 8555/ 333 93000
AAXX 01121 12566 11558 72901 10010 21006 39869 40170 57012 60001 71011 875// 333 93000
AAXX 01124 06030 01359 82413 10073 20067 39967 49983 52009 60011 71065 886// 333 69907 83707 87708
AAXX 01124 06060 01260 72311 10083 20075 39936 40000 52009 69911 70282 87500 333 6///7 82704 85708 87612 91123
AAXX 01124 06070 05464 72406 10084 20071 39976 40006 52004 60021 333 69907 81/10 85/16 87/20 91124
AAXX 01124 06120 36373 72311 10090 20089 39996 40022 52004 333 81/07 85/10 87/16 91022 91122
AAXX 01124 06180 01130 82111 10071 20068 30018 40024 57009 60111 71065 886// 333 60027 88702
AAXX 01124 06193 07230 82116 10049 20044 30030 40041 57022 60051 75265 333 55300 20104 60057 81/06 83/10 85/13 88/16 91026 91127
AAXX 01124 71114 160// /1012 10017 21025 30256 40305 51011 60001 333 10062 20003 70005
AAXX 01124 71120 NIL
AAXX 01124 71122 46/// /2304 11163 21199 38696 40374 51004 6///1 333 21163 4/016 7////
AAXX 01124 71123 12974 21808 11176 21250 39443 40351 50005 60001 80001 333 11034 21194 44007 70000
AAXX 01124 71125 11974 02609 11134 21163 39711 40320 51024 69922 7007/ 333 48012 70014 90999
AAXX 01124 71129 12974 22703 11134 21166 39487 40355 51021 60001 80001 333 11028 21134 40997 70000
AAXX 01124 71131 16/// /3107 11139 21182 39050 40361 51017 60001 333 11026 21139 70000
AAXX 01124 71135 16/// /3217 11099 21159 39211 40336 51027 60001 333 10011 21099 4/003 70000
AAXX 01124 71137 NIL
AAXX 01124 71140 11974 03123 11071 21104 39708 40221 5/042 69901 73674 333 11020 21072 70000
AAXX 01124 71145 11459 53414 11083 21101 39807 40104 53033 69981 77177 85500 333 11056 21083 48038 70018 90983 93101
AAXX 01124 71148 16/// /3123 11060 21077 39602 40193 53024 60001 333 10003 21061 4/014 70000
AAXX 01124 71185 17416 80603 11021 30077 40101 57022 60021 74544 333 11038 21059 70015
AAXX 01124 71188 11466 83104 11026 21055 30086 40129 52020 60021 72272 885// 333 11026 21045 47019 55000 70146 90983 93102
AAXX 01124 71200 16/// /0607 10047 20004 60001 333 10052 20036 70000
AAXX 01124 71207 16/// /3603 10003 21020 30223 40289 50008 60001 333 10027 21007 70000
AAXX 01124 71260 13/// ///// 10013 20004 39778 40013 58044 69901 333 10023 21015 44001 79999
AAXX 01124 71726 16/// /1001 11053 21057 39590 40138 58006 60001 333 11054 21059 4/029 70009
AAXX 01124 71727 12274 81003 11110 21123 39977 40181 58001 60001 886// 333 11068 21132 48044 70020
AAXX 01124 71728 12482 81402 11089 21119 39943 40171 57007 60001 887// 333 11095 21112 44002 70010
AAXX 01124 71730 11132 81306 11033 21033 39653 40081 58035 69901 70275 887// 333 11051 21061 79999 90961
AAXX 01124 71731 12274 81607 11033 21042 39655 40111 58022 60001 885// 333 11044 21061 48016 79999
AAXX 01124 71735 NIL
AAXX 01124 71738 11456 81508 11005 21021 39651 40002 58037 69902 7717/ 885// 333 11024 21037 47026 79999 90999 555 10000 20000
AAXX 01124 71739 41459 81410 11053 21063 39686 40052 58042 6//// 77177 885// 333 11053 21081 7//// 90927 93101
AAXX 01124 71749 16564 83010 11011 21036 39789 40034 55001 60021 333 10002 21023 70045
AAXX 01124 71799 11480 80106 10033 20018 30249 40273 51008 69951 76122 885// 333 10062 20033 55016 70005 90942
AAXX 01124 71800 16/// /0818 10020 20016 30043 40076 58067 60001 333 10025 21015 70000
AAXX 01124 71801 11210 81323 11002 21007 39947 40122 56039 60021 77922 887// 333 11003 21030 44002 70018 90921 93102
AAXX 01124 71803 11266 81016 11017 21028 39926 40115 57037 60031 72472 8662/ 333 11032 21044 44006 70028 90973 93103
AAXX 01124 71807 NIL
AAXX 01124 71808 11440 80412 11074 21088 30097 40145 56021 60011 77172 885// 333 11094 21097 44028 70012 90931 93101
AAXX 01124 71809 11540 80415 11024 21032 30069 40097 57027 60101 77187 885// 333 11006 21040 47012 70174 90973 93110
AAXX 01124 71810 17/// /0509 11048 21065 30067 40134 51010 69951 7//4/ 333 11036 21052 70049
AAXX 01124 71811 NIL
AAXX 01124 71813 17/// /0212 11073 21089 30108 40122 56007 69971 7//4/ 333 11078 21096 70056
AAXX 01124 71814 17/// /0213 11091 21101 30115 40125 56019 60041 7//4/ 333 11086 21107 70050
AAXX 01124 71815 11366 80614 10021 20009 30009 40040 56036 60051 76166 885// 333 10004 21018 42004 70062 90983
AAXX 01124 71816 12974 12704 11238 21281 30123 40188 56005 60001 80001 333 11155 21250 47089 55065 70000
AAXX 01124 71817 NIL
AAXX 01124 71818 12974 11905 11217 21241 30152 40171 58009 60001 80008 333 11106 21221 44024 55068 70000
AAXX 01124 71822 11/10 91405 11092 21105 39659 40145 58004 60001 71042 333 11098 21100 43045 70004
AAXX 01124 71825 NIL
AAXX 01124 71827 11269 81409 11105 21112 39830 40080 58026 69901 77177 887// 333 11127 21157 47018 79999 90973
AAXX 01124 71828 16158 82105 11173 21205 39491 40161 58005 60001 333 11173 21277 70000
AAXX 01124 71831 11456 81310 11047 21061 39752 40034 58038 69961 77172 885// 333 11070 21089 48042 70046 90910
AAXX 01124 71832 NIL
AAXX 01124 71834 11/12 93005 11019 21027 39575 40000 58013 60051 77177 333 11003 21019 47032 70058 90973 93106
AAXX 01124 71841 NIL
AAXX 01124 71842 11469 82911 11059 21089 39586 40059 52010 69901 77177 885// 333 11022 21060 47010 70018 90973
AAXX 01124 71844 NIL
AAXX 01124 71845 11369 82707 11045 21054 39546 40021 53004 69942 771// 887// 333 11036 21052 44021 70004 90999 555 10004 20002
AAXX 01124 71850 11466 83209 11063 21089 39594 40098 53019 69901 77122 885// 333 11015 21063 48012 70020 90962
AAXX 01124 71852 16564 83227 11071 21106 39867 40167 53038 60001 333 10016 21071 70005
AAXX 01124 71854 NIL
AAXX 01124 71858 16/// /3212 11115 21137 39916 40205 53044 60001 333 11013 21117 70015
AAXX 01124 71861 16/// /3219 11079 21106 39517 40262 51040 60001 333 10016 21079 4/012 70000
AAXX 01124 71862 11574 83220 11077 21116 39571 40295 53036 60001 73611 885// 333 10024 21077 48009 70000
AAXX 01124 71863 46564 63119 11094 21140 39587 40311 51037 6///1 333 11001 21094 7////
AAXX 01124 71043 11583 20903 11333 21382 30168 40269 51003 69901 77677 81570 333 11300 21356 48034 79999 90983
AAXX 01124 71045 16/// /0607 11174 21191 39290 40184 56020 60001 333 11124 21219 4/030 70000 555 10020
AAXX 01124 71050 46/// /0705 11083 21115 39159 40268 58002 6///1 333 11066 21126 7////
AAXX 01124 71051 NIL
AAXX 01124 71052 NIL
AAXX 01124 71066 12974 00000 11217 21250 39848 40289 53022 60001 333 11090 21217 48026 70014
AAXX 01124 71068 12974 01704 11137 21182 39592 40314 52013 60001 333 11055 21137 47007 70000
AAXX 01124 71069 16964 00000 11174 21181 39592 40328 53011 60001 333 11034 21175 70000
AAXX 01124 71076 16/// /2502 11167 21182 39854 40263 53020 60001 333 11099 21184 4/037 55/// 20000 70000
AAXX 01124 71077 16/// /2404 11135 21159 39738 40300 52018 60001 333 11057 21137 4/020 55/// 20000 70003 555 10020
AAXX 01124 71079 11569 83211 11135 21158 39902 40189 52041 69961 77177 885// 333 11056 21136 48012 70038 90983 93101
AAXX 01124 71081 46964 03011 11361 21405 30094 40107 53001 6///1 333 11295 21363 7////
AAXX 01124 71082 NIL
AAXX 01124 71083 11248 83515 11254 21294 30114 40158 51017 69901 77177 886// 333 11159 21268 48058 70002 90983
AAXX 01124 71090 46964 02703 11372 21412 30046 40083 51002 6///1 333 11319 21383 7////
AAXX 01124 71091 460// /3114 11283 39841 40058 53002 6///1 333 7////
AAXX 01124 71092 46164 60902 11266 39358 40045 53001 6///1 333 21267 7////
AAXX 01124 71093 460// ///// 11237 39535 40046 52001 6///1 333 11233 21248 7////
AAXX 01124 71094 46064 /2104 11250 39093 40018 58001 6///1 333 11246 21257 7////
AAXX 01124 71095 46964 02202 11380 21419 30006 40092 51001 6///1 333 11339 21387 7////
AAXX 01124 71101 160// /1536 30060 56012 60021 333 70185
AAXX 01124 71104 12674 81410 11058 21116 39150 40295 53004 60001 8257/ 333 11039 21104 44028 70000
AAXX 01124 71108 12674 80608 10036 21039 30208 40282 53013 60001 885// 333 10047 20016 70000
AAXX 01124 71109 12674 81124 10045 21014 30155 40182 56010 60001 8657/ 333 10044 20033 70000
AAXX 01121 01046 41580 81417 11010 21061 39987 49994 58008 73632 889// 333 91127
AAXX 01121 01380 41136 81402 11049 21060 77072 886// 333 4/038 91108
AAXX 01121 01015 46/// /1714 10006 21060 333 91123
AAXX 01121 01180 11680 81605 10010 21101 39880 49937 58008 60001 70222 8784/ 333 91112
AAXX 01121 01450 16/// /1702 11030 21041 38793 49932 56011 60031 333 91104
AAXX 01121 01257 16/// /2501 10011 21004 39730 49890 56010 60041 333 91106
AAXX 01121 01277 16/// /0802 11003 21012 60061 333 91107
AAXX 01121 01476 16/// /2703 10032 20025 39939 49945 53003 6//// 333 91109
AAXX 01121 01488 16/// /1201 10002 21003 60061 333 4/004 91104
AAXX 01121 01262 46/// /1315 10010 20007 333 91118
AAXX 01121 01393 16/// /1202 11037 21049 39150 49954 58013 6//// 333 91109
AAXX 01124 71043 11583 20903 11333 21382 30168 40269 51003 69901 77677 81570 333 11300 21356 48034 79999 90983
AAXX 01124 71045 16/// /0607 11174 21191 39290 40184 56020 60001 333 11124 21219 4/030 70000 555 10020
AAXX 01124 71050 46/// /0705 11083 21115 39159 40268 58002 6///1 333 11066 21126 7////
AAXX 01124 71051 NIL
AAXX 01124 71052 NIL
AAXX 01124 71066 12974 00000 11217 21250 39848 40289 53022 60001 333 11090 21217 48026 70014
AAXX 01124 71068 12974 01704 11137 21182 39592 40314 52013 60001 333 11055 21137 47007 70000
AAXX 01124 71069 16964 00000 11174 21181 39592 40328 53011 60001 333 11034 21175 70000
AAXX 01124 71076 16/// /2502 11167 21182 39854 40263 53020 60001 333 11099 21184 4/037 55/// 20000 70000
AAXX 01124 71077 16/// /2404 11135 21159 39738 40300 52018 60001 333 11057 21137 4/020 55/// 20000 70003 555 10020
AAXX 01124 71079 11569 83211 11135 21158 39902 40189 52041 69961 77177 885// 333 11056 21136 48012 70038 90983 93101
AAXX 01124 71081 46964 03011 11361 21405 30094 40107 53001 6///1 333 11295 21363 7////
AAXX 01124 71082 NIL
AAXX 01124 71083 11248 83515 11254 21294 30114 40158 51017 69901 77177 886// 333 11159 21268 48058 70002 90983
AAXX 01124 71090 46964 02703 11372 21412 30046 40083 51002 6///1 333 11319 21383 7////
AAXX 01124 71091 460// /3114 11283 39841 40058 53002 6///1 333 7////
AAXX 01124 71092 46164 60902 11266 39358 40045 53001 6///1 333 21267 7////
AAXX 01124 71093 460// ///// 11237 39535 40046 52001 6///1 333 11233 21248 7////
AAXX 01124 71094 46064 /2104 11250 39093 40018 58001 6///1 333 11246 21257 7////
AAXX 01124 71095 46964 02202 11380 21419 30006 40092 51001 6///1 333 11339 21387 7////
AAXX 01124 71101 160// /1536 30060 56012 60021 333 70185
AAXX 01124 71104 12674 81410 11058 21116 39150 40295 53004 60001 8257/ 333 11039 21104 44028 70000
AAXX 01124 71108 12674 80608 10036 21039 30208 40282 53013 60001 885// 333 10047 20016 70000
AAXX 01124 71109 12674 81124 10045 21014 30155 40182 56010 60001 8657/ 333 10044 20033 70000
AAXX 01121 33088 32997 63103 11008 21026 30000 40197 58001 83044
AAXX 01121 33177 /1572 82401 10012 21011 39957 40200 52007 70282 889// 555 69901
AAXX 01121 33261 /1497 72702 10011 21021 39960 40145 54000 70287 87900 333 87917 555 69901
AAXX 01121 33275 /1597 82803 10008 21012 39915 40142 58006 72622 8535/ 333 85921 555 69901
AAXX 01121 33301 32497 62902 10003 21014 39909 40198 58004 86500 333 86616
AAXX 01121 33325 32697 63401 10020 21073 39915 40188 52001 86500 333 86633
AAXX 01121 33377 32597 33003 10013 21025 39959 40156 58001 82230
AAXX 01121 33415 32697 62905 10015 21033 39799 40206 58001 84530
AAXX 01121 33429 /1497 62804 10015 21025 39769 40201 58002 70282 85330 333 85911 555 69901
AAXX 01121 33466 32698 13004 10019 21046 39984 40175 52003 81100
AAXX 01121 33526 32660 52503 10041 21050 39859 40202 58005 83530
AAXX 01121 33562 /1997 33003 10002 21042 39827 40197 52002 70381 83030 555 69901
AAXX 01121 33614 32497 82904 10016 21006 30050 40156 58006 884// 333 88710
AAXX 01121 33761 31558 73203 10008 21003 39957 40185 54000 71011 86530
AAXX 01121 33902 /1597 63305 10040 21009 30101 40168 54000 70282 86200 555 69901
AAXX 01121 33983 31295 83005 10027 20017 30056 40118 57001 71022 886// 333 88704
AAXX 01121 34415 /1317 80000 10005 21001 30042 40140 57009 77177 8772/ 555 60051
AAXX 01121 34523 NIL
AAXX 01121 34712 31430 80000 10026 20023 30029 40115 57012 71042 886// 333 88712
AAXX 01124 71930 NIL
AAXX 01124 71931 16/// /1216 11011 21019 30104 40116 56034 60001 333 10020 21051 70000
AAXX 01124 71934 12974 00000 11242 21268 39996 40268 53027 60001 333 11150 21251 47029 70002
AAXX 01124 71935 11258 82603 11235 21273 30066 40287 52031 69901 77177 887// 333 11146 21260 47028 79999 90936
AAXX 01124 71936 11574 80000 11172 21200 39995 40267 52028 69921 77177 885// 333 11163 21177 48028 70006 90983 93101
AAXX 01124 71937 NIL
AAXX 01124 71938 NIL
AAXX 01124 71940 12982 23206 11192 21236 39485 40331 51008 60001 80001 333 11046 21197 48003 70000
AAXX 01124 71943 12974 21405 11105 21177 39434 40301 51005 60001 80001 333 11059 21109 46003 70000
AAXX 01124 71944 160// ///// 11215 50000 60001 333 11062 21218 70000
AAXX 01124 71945 12974 01805 11165 21223 39772 40265 50006 60001 333 11099 21181 47014 70000
AAXX 01124 71946 12974 10000 11363 21371 30062 40297 52023 60001 80001 333 11263 21364 48045 70000
AAXX 01124 71948 47064 /0915 11286 30137 40257 51010 6///1 745// 333 11273 21288 7////
AAXX 01124 71949 46/// /1106 11215 21239 39303 40219 56012 6///1 333 11207 21245 7////
AAXX 01124 71951 11266 80000 11049 21055 39930 40204 58020 60021 77177 885// 333 11030 21074 47042 70016 90973 93102
AAXX 01124 71957 46964 01006 11299 21371 30143 40238 51002 6///1 333 11262 21318 7////
AAXX 01124 71964 11666 80403 11145 21166 39266 40148 58019 69901 77171 885// 333 11111 21193 47019 79999 90911
AAXX 01124 71966 16/// /0000 11356 21396 39736 40230 56011 60001 333 11231 21361 4/045 70000
AAXX 01124 71968 460// /1403 11256 30139 40207 51003 6///1 333 11241 21317 7////
AAXX 01124 71397 11374 83311 10028 20014 30053 40088 53040 69981 70262 885// 333 10066 20027 70084 90931
AAXX 01124 71400 17/64 /0403 11024 21029 60031 7//4/ 333 11020 21035 70064
AAXX 01124 71403 46/// /3326 10052 20044 39979 49999 53022 6///1 333 10078 20051 7////
AAXX 01124 71411 16/// /3211 10039 20034 30056 40068 53044 60001 333 10091 20039 70238
AAXX 01124 71412 17/// /3317 10026 20023 39989 49998 53002 60031 7//4/ 333 10062 20026 70276
AAXX 01124 71421 NIL
AAXX 01124 71430 NIL
AAXX 01124 71431 16/// /1611 10032 20022 30028 40124 56028 60001 333 10026 20009 70012
AAXX 01124 71432 NIL
AAXX 01124 71433 NIL
AAXX 01124 71435 NIL
AAXX 01124 71441 46/// /3318 11043 21059 39851 40165 53029 6///1 333 10019 21043 7////
AAXX 01124 71443 16/// /3213 11083 21124 39823 40246 51046 60001 333 11013 21083 4/007 70000
AAXX 01124 71444 16/// /3210 11094 21123 39426 40200 51039 60001 333 11029 21094 4/016 70000 555 10010
AAXX 01124 71447 16/// /3224 11062 21099 39683 40241 53035 60001 333 11004 21064 70000
AAXX 01124 71467 16/// /1103 11280 21307 30149 40270 52009 60001 333 11250 21290 4/004 70000
AAXX 01124 71472 NIL
AAXX 01124 71474 16964 01806 11078 21102 39032 40308 53010 60001 333 11021 21114 70000
AAXX 01124 71510 NIL
AAXX 01124 71538 11662 81711 10042 20026 39823 40052 58045 69901 78011 885// 333 10063 20030 79999 90910
AAXX 01124 71600 174// 82920 10075 20074 39922 49928 53011 60151 74344 333 10094 20072 70165
AAXX 01124 71601 NIL
AAXX 01124 71893 11680 81910 10039 21025 30235 40267 50008 69901 72122 8257/ 333 10050 20028 55013 79999 90920
AAXX 01124 71894 16/// /0914 10057 20022 30184 40193 56019 60001 333 10069 20043 70004
AAXX 01124 71896 15966 13607 11138 21152 39439 40308 50001 60001 333 11053 21189 70000
AAXX 01124 71897 12274 81420 10024 21015 3//// 4//// 57016 60001 8882X 333 10038 20006 70000
AAXX 01124 71898 160// ///// 10034 56016 60011 333 10025 20009 70010
AAXX 01124 71899 12474 81421 10053 20042 3//// 4//// 57029 60001 888XX 333 10022 20011 70018
AAXX 01124 71902 12974 23202 11184 21243 30140 40149 55006 60002 82030 333 11160 21198 48048 70000 555 10000 20000
AAXX 01124 71905 NIL
AAXX 01124 71906 12974 70000 11188 21228 30070 40122 58014 60001 87070 333 11163 21237 44015 79999
AAXX 01124 71907 17462 81706 11126 21147 30047 40080 56011 60001 745// 333 11131 21152 70000
AAXX 01124 71909 16964 00503 11167 21196 30030 40074 58001 60001 333 11155 21174 70000
AAXX 01124 71910 46564 82802 11188 21222 30020 40084 51006 6///1 333 11129 21196 7////
AAXX 01124 71911 46040 02509 11379 30128 40190 53005 6///1 333 11332 21439 7////
AAXX 01124 71912 NIL
AAXX 01124 71915 11474 63410 11275 21317 30024 40109 52005 69901 77177 86530 333 11172 21280 48042 70002 90983
AAXX 01124 71917 11561 81203 11353 21410 30121 40136 52002 69901 77177 885// 333 11348 21383 47015 55/// 10083 20000 70002 90993
AAXX 01124 71922 11574 82809 11096 21115 39794 40276 52025 69901 70277 885// 333 11050 21113 47036 70084 90932
AAXX 01124 71924 11216 63313 11325 21366 30076 40171 52011 69901 77677 86600 333 11328 21340 48038 55/// 79999 90983
AAXX 01124 71925 11974 02908 11372 21415 30236 40281 52010 69901 77677 333 11350 21389 42021 79999 90983
AAXX 01124 71926 11916 03429 11326 21385 30193 40219 51019 69901 73871 333 11204 21326 46043 70004 90963
AAXX 01124 71928 16/// /1003 11230 21255 39135 40362 58002 60001 333 11028 21243 4/009 70000
AAXX 01124 71864 NIL
AAXX 01124 71865 16/// /3009 11094 21119 39592 40294 51036 60001 333 10004 21100 70000
AAXX 01124 71866 46964 02911 11103 21143 39691 40328 51034 6///1 333 11026 21106 7////
AAXX 01124 71867 11474 83212 11093 21114 39889 40233 51037 69901 77177 885// 333 11037 21129 47025 70030 90983
AAXX 01124 71868 16/// /3113 11085 21120 39804 40257 51036 60001 333 11014 21091 70000
AAXX 01124 71869 11474 82911 11089 21107 39760 40302 51028 69901 70377 885// 333 11022 21111 47011 79999 90963
AAXX 01124 71871 15966 02712 11149 21186 39500 40343 51015 60001 333 11044 21149 70000
AAXX 01124 71877 NIL
AAXX 01124 71878 12974 01903 11201 21246 39243 40377 52002 60001 333 11020 21203 48008 70000
AAXX 01124 71879 16964 02103 11138 21200 39506 40345 53006 60001 333 11028 21139 70005
AAXX 01124 71880 12982 60000 11088 21109 39234 40380 50012 60001 86070 333 10002 21090 42001 70000
AAXX 01124 71882 160// /0302 11045 21068 39819 40377 53007 60001 333 10019 21048 70000
AAXX 01124 71883 46/// /0000 11162 21177 39523 40388 50002 6///1 333 10013 21177 7////
AAXX 01124 71887 12986 71210 11027 21085 39906 40341 51009 60001 87070 333 10043 21037 45997 70000
AAXX 01124 71889 12674 81403 11017 21062 39920 40350 53022 60001 8657/ 333 10063 21039 70000
AAXX 01124 71891 16964 61703 11021 21045 30039 40321 50014 60001 333 10039 21021 70000
AAXX 01124 71892 12674 80906 10028 21023 30278 40283 51016 60001 8257/ 333 10049 20013 55016 70000
AAXX 01121 33791 32697 53306 10029 21022 30007 40160 56004 85500 333 85633
AAXX 01124 71603 12369 83213 10030 20021 30051 40104 53038 60001 886// 333 10097 20030 70112
AAXX 01124 71607 16/// /3209 11010 21025 30094 40127 51031 60001 333 10059 21010 4/001 70037
AAXX 01124 71609 11474 83414 10004 21026 39971 40105 53039 69931 70282 885// 333 10062 20001 70066 90952
AAXX 01124 71610 17232 82101 11024 21030 39876 40175 51011 60001 710// 333 10010 21026 70008
AAXX 01124 71621 NIL
AAXX 01124 71623 NIL
AAXX 01124 71624 12569 81407 10042 20023 39896 40108 58037 60001 885// 333 10027 20014 55011 70002
AAXX 01124 71625 16262 81404 11040 21048 39981 40144 56019 60001 333 11037 21046 70010
AAXX 01124 71627 11258 82404 11014 21036 30126 40171 50003 69901 70252 886// 333 11018 21023 42003 70012 90941
AAXX 01124 71628 11259 81304 11036 21046 30016 40159 58019 60001 71022 83500 333 10184 21214 4-6015 70022
AAXX 01124 71630 NIL
AAXX 01124 71631 16/// /1610 10019 20007 39580 40079 58035 60001 333 10013 21001 70000
AAXX 01124 71633 12474 81612 10026 20005 39799 40070 58043 60001 885// 333 10018 21001 55000 79999
AAXX 01124 71705 11132 83416 10001 21004 39997 40084 53025 60011 75165 887// 333 10033 20000 70108 90927
AAXX 01124 71706 11124 83513 10018 20016 39986 40046 53025 60001 70244 886// 333 10057 20015 70176
AAXX 01124 71707 11/08 93509 10043 20034 39903 49978 56024 60031 76154 333 10062 20023 70100 90947
AAXX 01124 71709 11148 80321 10016 20014 30003 40016 53008 60232 751// 887// 333 10027 20016 41997 70280 90999 555 10010 20010
AAXX 01124 71711 NIL
AAXX 01124 71714 46/// /0000 11038 21043 30101 40195 51008 6///1 333 11038 21043 4/014 7////
AAXX 01124 71715 16/// /0403 11056 21070 39987 40172 51007 60001 333 11047 21057 4/012 70065
AAXX 01124 71718 11359 83406 11045 21054 30104 40171 53008 69901 77177 887// 333 11030 21076 48013 70114 90983
AAXX 01124 71719 17/// /0121 11012 21023 30105 40111 53028 69931 7//4/ 333 10002 21012 4/006 70122 555 10040
BBXX C6SI6 01124 99451 11522 46/// /1910 10009 21037 40230 53003 7//// 8//// 22213 0//// 2////
BBXX DCSL2 01124 99336 11567 41598 33422 10140 20080 40210 54000 70222 83400 22224 00184 20304 331// 40410 80110
BBXX DHEB 01123 99517 11618 41/97 83625 11035 21066 40120 50005 78500 8//// 22264 2//// 3//// 4//// 5//// 81045
AAXX 01124 71114 160// /1012 10017 21025 30256 40305 51011 60001 333 10062 20003 70005
AAXX 01124 71120 NIL
AAXX 01124 71122 46/// /2304 11163 21199 38696 40374 51004 6///1 333 21163 4/016 7////
AAXX 01124 71123 12974 21808 11176 21250 39443 40351 50005 60001 80001 333 11034 21194 44007 70000
AAXX 01124 71125 11974 02609 11134 21163 39711 40320 51024 69922 7007/ 333 48012 70014 90999
AAXX 01124 71129 12974 22703 11134 21166 39487 40355 51021 60001 80001 333 11028 21134 40997 70000
AAXX 01124 71131 16/// /3107 11139 21182 39050 40361 51017 60001 333 11026 21139 70000
AAXX 01124 71135 16/// /3217 11099 21159 39211 40336 51027 60001 333 10011 21099 4/003 70000
AAXX 01124 71137 NIL
AAXX 01124 71140 11974 03123 11071 21104 39708 40221 5/042 69901 73674 333 11020 21072 70000
AAXX 01124 71145 11459 53414 11083 21101 39807 40104 53033 69981 77177 85500 333 11056 21083 48038 70018 90983 93101
AAXX 01124 71148 16/// /3123 11060 21077 39602 40193 53024 60001 333 10003 21061 4/014 70000
AAXX 01124 71185 17416 80603 11021 30077 40101 57022 60021 74544 333 11038 21059 70015
AAXX 01124 71188 11466 83104 11026 21055 30086 40129 52020 60021 72272 885// 333 11026 21045 47019 55000 70146 90983 93102
AAXX 01124 71200 16/// /0607 10047 20004 60001 333 10052 20036 70000
AAXX 01124 71207 16/// /3603 10003 21020 30223 40289 50008 60001 333 10027 21007 70000
AAXX 01124 71260 13/// ///// 10013 20004 39778 40013 58044 69901 333 10023 21015 44001 79999
AAXX 01124 71864 NIL
AAXX 01124 71865 16/// /3009 11094 21119 39592 40294 51036 60001 333 10004 21100 70000
AAXX 01124 71866 46964 02911 11103 21143 39691 40328 51034 6///1 333 11026 21106 7////
AAXX 01124 71867 11474 83212 11093 21114 39889 40233 51037 69901 77177 885// 333 11037 21129 47025 70030 90983
AAXX 01124 71868 16/// /3113 11085 21120 39804 40257 51036 60001 333 11014 21091 70000
AAXX 01124 71869 11474 82911 11089 21107 39760 40302 51028 69901 70377 885// 333 11022 21111 47011 79999 90963
AAXX 01124 71871 15966 02712 11149 21186 39500 40343 51015 60001 333 11044 21149 70000
AAXX 01124 71877 NIL
AAXX 01124 71878 12974 01903 11201 21246 39243 40377 52002 60001 333 11020 21203 48008 70000
AAXX 01124 71879 16964 02103 11138 21200 39506 40345 53006 60001 333 11028 21139 70005
AAXX 01124 71880 12982 60000 11088 21109 39234 40380 50012 60001 86070 333 10002 21090 42001 70000
AAXX 01124 71882 160// /0302 11045 21068 39819 40377 53007 60001 333 10019 21048 70000
AAXX 01124 71883 46/// /0000 11162 21177 39523 40388 50002 6///1 333 10013 21177 7////
AAXX 01124 71887 12986 71210 11027 21085 39906 40341 51009 60001 87070 333 10043 21037 45997 70000
AAXX 01124 71889 12674 81403 11017 21062 39920 40350 53022 60001 8657/ 333 10063 21039 70000
AAXX 01124 71891 16964 61703 11021 21045 30039 40321 50014 60001 333 10039 21021 70000
AAXX 01124 71892 12674 80906 10028 21023 30278 40283 51016 60001 8257/ 333 10049 20013 55016 70000
AAXX 01124 71893 11680 81910 10039 21025 30235 40267 50008 69901 72122 8257/ 333 10050 20028 55013 79999 90920
AAXX 01124 71894 16/// /0914 10057 20022 30184 40193 56019 60001 333 10069 20043 70004
AAXX 01124 71896 15966 13607 11138 21152 39439 40308 50001 60001 333 11053 21189 70000
AAXX 01124 71897 12274 81420 10024 21015 3//// 4//// 57016 60001 8882X 333 10038 20006 70000
AAXX 01124 71898 160// ///// 10034 56016 60011 333 10025 20009 70010
AAXX 01124 71899 12474 81421 10053 20042 3//// 4//// 57029 60001 888XX 333 10022 20011 70018
AAXX 01124 71902 12974 23202 11184 21243 30140 40149 55006 60002 82030 333 11160 21198 48048 70000 555 10000 20000
AAXX 01124 71905 NIL
AAXX 01124 71906 12974 70000 11188 21228 30070 40122 58014 60001 87070 333 11163 21237 44015 79999
AAXX 01124 71907 17462 81706 11126 21147 30047 40080 56011 60001 745// 333 11131 21152 70000
AAXX 01124 71909 16964 00503 11167 21196 30030 40074 58001 60001 333 11155 21174 70000
AAXX 01124 71910 46564 82802 11188 21222 30020 40084 51006 6///1 333 11129 21196 7////
AAXX 01124 71911 46040 02509 11379 30128 40190 53005 6///1 333 11332 21439 7////
AAXX 01124 71912 NIL
AAXX 01124 71915 11474 63410 11275 21317 30024 40109 52005 69901 77177 86530 333 11172 21280 48042 70002 90983
AAXX 01124 71917 11561 81203 11353 21410 30121 40136 52002 69901 77177 885// 333 11348 21383 47015 55/// 10083 20000 70002 90993
AAXX 01124 71922 11574 82809 11096 21115 39794 40276 52025 69901 70277 885// 333 11050 21113 47036 70084 90932
AAXX 01124 71924 11216 63313 11325 21366 30076 40171 52011 69901 77677 86600 333 11328 21340 48038 55/// 79999 90983
AAXX 01124 71925 11974 02908 11372 21415 30236 40281 52010 69901 77677 333 11350 21389 42021 79999 90983
AAXX 01124 71926 11916 03429 11326 21385 30193 40219 51019 69901 73871 333 11204 21326 46043 70004 90963
AAXX 01124 71928 16/// /1003 11230 21255 39135 40362 58002 60001 333 11028 21243 4/009 70000
AAXX 01124 71930 NIL
AAXX 01124 71931 16/// /1216 11011 21019 30104 40116 56034 60001 333 10020 21051 70000
AAXX 01124 71934 12974 00000 11242 21268 39996 40268 53027 60001 333 11150 21251 47029 70002
AAXX 01124 71935 11258 82603 11235 21273 30066 40287 52031 69901 77177 887// 333 11146 21260 47028 79999 90936
AAXX 01124 71936 11574 80000 11172 21200 39995 40267 52028 69921 77177 885// 333 11163 21177 48028 70006 90983 93101
AAXX 01124 71937 NIL
AAXX 01124 71938 NIL
AAXX 01124 71940 12982 23206 11192 21236 39485 40331 51008 60001 80001 333 11046 21197 48003 70000
AAXX 01124 71943 12974 21405 11105 21177 39434 40301 51005 60001 80001 333 11059 21109 46003 70000
AAXX 01124 71944 160// ///// 11215 50000 60001 333 11062 21218 70000
AAXX 01124 71945 12974 01805 11165 21223 39772 40265 50006 60001 333 11099 21181 47014 70000
AAXX 01124 71946 12974 10000 11363 21371 30062 40297 52023 60001 80001 333 11263 21364 48045 70000
AAXX 01124 71948 47064 /0915 11286 30137 40257 51010 6///1 745// 333 11273 21288 7////
AAXX 01124 71949 46/// /1106 11215 21239 39303 40219 56012 6///1 333 11207 21245 7////
AAXX 01124 71951 11266 80000 11049 21055 39930 40204 58020 60021 77177 885// 333 11030 21074 47042 70016 90973 93102
AAXX 01124 71957 46964 01006 11299 21371 30143 40238 51002 6///1 333 11262 21318 7////
AAXX 01124 71964 11666 80403 11145 21166 39266 40148 58019 69901 77171 885// 333 11111 21193 47019 79999 90911
AAXX 01124 71966 16/// /0000 11356 21396 39736 40230 56011 60001 333 11231 21361 4/045 70000
AAXX 01124 71968 460// /1403 11256 30139 40207 51003 6///1 333 11241 21317 7////
AAXX 01121 02019 07/99 /3303 11033 21122 39345 49968 55006 69901 70087 333 60005 90710 91118
AAXX 01121 02081 07/77 /1404 11052 21064 39652 40063 56006 60001 70010 333 60005 90710 91109
AAXX 01121 02095 07379 /1504 11062 21074 39886 40094 53002 60001 70010 333 60005 88/08 90710 91109
AAXX 01121 02101 47432 /1408 11071 21108 39418 49984 56014 771// 8//// 333 83/12 85/14 88/25
AAXX 01121 02119 07564 /1201 11128 21139 39653 40051 58007 69911 77177 333 69905 87/23 87/56 90710 91103
AAXX 01121 02124 07673 /1203 11084 21117 39502 40038 57011 69911 78587 333 69905 88/39 90710 91105
AAXX 01121 02126 07330 /1001 11086 21097 39690 40036 58009 69941 77177 333 69945 88/09 90710 91104
AAXX 01121 02151 36/// ///// 1//// 2//// 3//// 4//// 5//// 6///1 333 6///5 910// 90710 911// 90710 912//
AAXX 01121 02186 35480 81409 11012 21026 30048 40073 58004 60001 333 60005 83/12 85/15 88/37 91012 90710 91112 90710 91211
AAXX 01121 02197 07/59 /1504 11044 21053 30084 40103 50000 69921 72487 333 69905 90710 91108
AAXX 01121 02207 07664 /1907 11010 21048 39211 49903 58003 69941 70087 333 60005 87/41 90710 91116
AAXX 01121 02219 07/50 /1107 11073 21084 39283 49956 58014 69941 77177 333 69905 90710 91113
AAXX 01121 02226 47/30 /1509 11032 21048 39509 49965 57013 771// 8//// 333 89/16
AAXX 01121 02243 07/60 /1303 11035 21038 39747 40019 57011 60021 72487 333 69905 90710 91108
AAXX 01121 02269 05570 /1610 10012 21015 60001 333 60005 84/22 87/44 90710 91113
AAXX 01121 02287 05581 /1503 11016 21043 30062 40072 58006 60001 333 60005 88/25 90710 91106
AAXX 01121 02297 07599 /1706 11021 21043 30029 40075 56004 69941 70070 333 60005 81/20 83/29 85/34 90710 91110
AAXX 01121 02308 07450 /1602 11043 21055 39088 49949 57013 69921 77170 333 69915 85/12 88/27 90710 91107
AAXX 01121 02327 07/29 /1103 11042 21048 39547 49986 58017 60021 77187 333 69915 90710 91106
AAXX 01121 02355 05474 /1710 10006 21016 30019 40033 58017 60001 333 60005 81/11 83/57 85/59 90710 91113
AAXX 01121 02366 45/82 /0401 11065 21074 30028 40034 56021 8////
AAXX 01121 02407 07325 /1503 11022 21023 39606 49977 58023 60041 77175 333 60015 88/07 90710 91106
AAXX 01121 02418 47122 /1203 10002 20000 39844 49975 56026 771// 8//// 333 88/02
AAXX 01121 02435 47/10 /1104 11034 21045 39815 40005 56030 772// 8//// 333 89/01
AAXX 01121 02440 07367 /1302 11035 21045 69911 70087 333 60005 83/09 86/35 87/42 88/// 90710 91103
AAXX 01121 02452 07128 /1103 11032 21032 60061 77174 333 60015 87/01 90710 91106
AAXX 01121 02456 05469 /1602 11010 21020 30000 40043 58022 60001 333 60005 82/16 84/26 86/58 88/// 90710 91105
AAXX 01121 02469 07/80 /1603 10013 20001 69921 72386 333 69925 90710 91105
AAXX 01121 02498 05583 /1710 10036 21002 30046 40063 56017 60001 333 60005 87/24 90710 91114
AAXX 01121 02518 462// /2009 10061 20060 333 88/03 90710 91113
AAXX 01121 02520 17374 81907 10027 20017 39904 49971 56018 60021 70076 333 60005 88/07 91010 90710 91110 90710 91207
AAXX 01121 02550 47241 /1706 10013 20013 39724 40000 56012 710// 8//// 333 88/03
AAXX 01121 02562 07364 81604 10004 20003 39890 40006 56031 60021 76474 333 69985 84/08 85/12 88/38 91008 90710 91108 90710 91205
AAXX 01121 02563 07340 /1710 10020 20014 30010 40032 58028 69971 76264 333 69975 83/09 86/13 88/16 90710 91116
AAXX 01121 02565 07258 /1403 10010 20007 39906 40027 58028 60021 76187 333 60015 87/05 88/07 90710 91106
AAXX 01121 02589 07499 /1907 10031 21002 30048 40069 56020 69901 70084 333 60005 83/16 87/33 87/64 90710 91114
AAXX 01121 02590 45880 /1606 10014 21002 30003 40065 56024 8//// 333 86/57
AAXX 01121 02618 07/26 /1803 10033 20033 39841 40005 58011 60071 76186 333 69935 90710 91108
AAXX 01121 02664 01240 81805 10034 20028 39969 40041 58021 69931 76152 886// 333 69915 87704 91008 90710 91108 90710 91206
AAXX 01121 02679 05/80 /1710 10030 20012 30024 40068 56026 60001 333 60005 90710 91114
AAXX 01124 89514 32697 81421 10024 49883 57013 86046 333 10024 21010 86435
AAXX 01124 60020 NIL
AAXX 01124 60030 02675 40116 10196 20084 30242 40298 50003 60001 83802 333 60007 92438
AAXX 01124 60040 02682 40509 10205 20097 30285 40310 50006 60001 84500 333 60007 92438
AAXX 01124 60338 12981 01103 10184 20062 30219 40285 58007 60001 333 92418
AAXX 01124 78388 111570 71106 10251 20216 30167 40176 69901 72581 85802 333 01209 10302 20234 58004 85822 87072 90910
AAXX 01124 DUPE
AAXX 01124 81225 11470 40710 10248 20224 40151 60234 70161 81142 333 20/// 56299 58003 81810 83360
AAXX 01124 81200 11465 71008 10248 20221 40150 60054 70282 86832 333 20/// 56299 58004 83810 85620
AAXX 01124 81202 11460 71104 10236 20221 40152 60134 7158/ 87832 333 20230 56299 58003 83812 87625
AAXX 01124 81209 NIL
AAXX 01124 81251 NIL
AAXX 01124 78388 111570 71106 10251 20216 30167 40176 69901 72581 85802 333 01209 10302 20234 58004 85822 87072 90910
AAXX 01124 DUPE
AAXX 01121 02464 47468 /1304 10013 20002 30029 40047 56020 722// 8//// 333 81/12 83/32
AAXX 01121 02500 07005 /2007 10069 20068 39903 49944 56017 60061 73487 333 69935 88/01 90710 91111
AAXX 01121 02513 07/29 /1805 10064 20059 39973 49978 58010 60091 78186 333 60015 90710 91108
AAXX 01121 02615 07120 /2208 10067 20062 30025 40030 56008 60051 71086 333 60005 88/02 90710 91111
AAXX 01121 02635 07/18 /2303 10066 20063 60091 78186 333 69925 90710 91108
AAXX 01124 65306 32960 51008 10313 20036 39800 40128 80002 333 0//00 59003 85076
AAXX 01124 65319 32960 50000 10330 20042 39611 40118 80002 333 0//00 59011 85076
AAXX 01124 65330 31930 50806 10330 20010 39676 40108 70522 80002 333 0//00 59005 85076
AAXX 01124 65335 31956 50406 10340 20127 39890 40112 70522 80002 333 0//00 59002 85076
AAXX 01124 65344 32458 72210 10300 20249 30101 40112 83802 333 0//00 59009 81612 83813 85076 94918 95838
AAXX 01124 64600 32565 11404 10319 20168 39444 40081 81100 333 59008 81823 94909 95879
AAXX 01124 64601 32970 20416 10300 20004 38989 48507 80002 333 59002 82080
AAXX 01124 64605 31980 23602 10315 20087 39343 40068 70344 80002 333 59007 82080
AAXX 01124 64610 32970 41804 10330 20060 3//// 4//// 80002 333 5//// 84080
AAXX 01124 64650 32560 41406 10315 20222 39675 40080 84200 333 59006 84830 94919 95879
AAXX 01124 64654 32580 30000 10348 20164 39527 40083 83200 333 59007 83830 94913 95833
AAXX 01124 64655 31580 30406 10310 20224 39444 40080 70141 83100 333 59006 83826 94919 95819
AAXX 01124 64656 31580 31804 10315 20219 39529 40072 70344 83200 333 59009 83823 94939 95839
AAXX 01124 64659 NIL
AAXX 01124 64660 32570 53404 10325 20189 39547 40062 85200 333 59011 85826 94939 95839
AAXX 01124 64662 32580 62202 10326 20228 39581 40069 84102 333 59010 84820 86080 94919 95819
AAXX 01124 64665 32580 82804 10325 20225 3//// 4//// 82202 333 5//// 82828 88080 94919 95879
AAXX 01121 37989 42598 60403 10094 20068 30197 40170 57013 86500 555 10017
AAXX 01121 37985 41595 53401 10099 20074 30171 40157 57016 71022 85540 555 11012
AAXX 01121 37925 42998 00000 10084 20078 30191 40162 57019 555 11007
AAXX 01121 37749 42998 01401 10102 20006 30071 40187 57022 555 11010
AAXX 01121 37675 42597 80902 10029 20005 39501 40167 57008 8872/ 555 11006
AAXX 01121 37661 42998 02601 10101 20053 39992 40137 57016 555 10011
AAXX 01121 37740 42999 02001 10093 21019 39355 40151 57009 555 10012
AAXX 01121 37851 42598 83202 10078 20041 30097 40167 57021 885//
AAXX 01121 06432 17/36 /2106 10122 20116 30035 40110 58011 69921 78186 333 81/09 85/13 87/17 91112 91209
AAXX 01121 06458 37483 /2208 10126 20112 39957 40107 58014 70086 333 85/10 88/14 91112 91209
AAXX 01121 06465 17481 /2104 10127 20109 30038 40103 58014 69961 78186 333 83/13 87/16 91110 91205
AAXX 01121 06496 17264 /2205 10093 20090 39454 40117 58011 60051 72286 333 83/04 88/06 91111 91206
AAXX 01121 06428 17232 /2205 10124 20117 30054 40102 58011 60021 78186 333 81/05 83/09 87/12 91109 91206
AAXX 01124 48481 32960 60000 10272 20191 30086 40114 52014 86030 333 10341 59012
AAXX 01121 01300 41597 62208 10071 20031 49848 57002 72582 86208 22200 02067 10706 70032 333 91114
AAXX 01124 85223 11220 80000 10141 20129 37535 47168 52016 60114 70461 8552/ 333 20125 31/// 55011 56009 58014 70111 83705 84623 88457
AAXX 01124 85283 12384 70000 10138 20121 37227 47157 52008 60024 84534 333 20110 21011 55040 56100 58027 70020 81707 83610 85070
AAXX 01124 85345 12884 41804 10272 20227 39656 40111 51003 60124 84030 333 20222 31/// 56000 58016 70122 84360
AAXX 01124 85364 12570 50000 10184 20146 38174 48192 53006 60044 82830 333 20152 30/// 55038 56000 58004 70042 82830 84358
AAXX 01124 85365 12884 21807 10268 20200 39394 40105 51007 60114 82030 333 20205 31/// 56040 58018 70113 82357
AAXX 01121 01271 17684 81002 10030 21023 39872 49893 57012 6//// 721// 333 91105
AAXX 01121 01415 17561 72005 10080 20058 39906 49916 56004 6//// 700// 333 91110
AAXX 01121 01400 41597 42413 10086 20054 49952 52005 70310 82170 22200 06077 10505 70027 333 91117
AAXX 01121 01218 11787 81409 10061 21047 39860 49881 55006 60001 70222 83280 333 91118
AAXX 01124 68386 36/// /0304 10290 20203 39673 48619 57012 333 10295 20204 91009 555 91021
AAXX 01124 68379 36/// /3604 10301 20196 39793 48560 57012 333 10316 20214 91009 555 91012
AAXX 01124 68299 36/// /0508 10180 20137 38915 48507 57007 333 10194 20118 91012 555 91017
AAXX 01121 33088 32997 63103 11008 21026 30000 40197 58001 83044
AAXX 01121 33177 /1572 82401 10012 21011 39957 40200 52007 70282 889// 555 69901
AAXX 01121 33261 /1497 72702 10011 21021 39960 40145 54000 70287 87900 333 87917 555 69901
AAXX 01121 33275 /1597 82803 10008 21012 39915 40142 58006 72622 8535/ 333 85921 555 69901
AAXX 01121 33301 32497 62902 10003 21014 39909 40198 58004 86500 333 86616
AAXX 01121 33325 32697 63401 10020 21073 39915 40188 52001 86500 333 86633
AAXX 01121 33377 32597 33003 10013 21025 39959 40156 58001 82230
AAXX 01121 33415 32697 62905 10015 21033 39799 40206 58001 84530
AAXX 01121 33429 /1497 62804 10015 21025 39769 40201 58002 70282 85330 333 85911 555 69901
AAXX 01121 33466 32698 13004 10019 21046 39984 40175 52003 81100
AAXX 01121 33526 32660 52503 10041 21050 39859 40202 58005 83530
AAXX 01121 33562 /1997 33003 10002 21042 39827 40197 52002 70381 83030 555 69901
AAXX 01121 33614 32497 82904 10016 21006 30050 40156 58006 884// 333 88710
AAXX 01121 33761 31558 73203 10008 21003 39957 40185 54000 71011 86530
AAXX 01121 33902 /1597 63305 10040 21009 30101 40168 54000 70282 86200 555 69901
AAXX 01121 33983 31295 83005 10027 20017 30056 40118 57001 71022 886// 333 88704
AAXX 01121 34415 /1317 80000 10005 21001 30042 40140 57009 77177 8772/ 555 60051
AAXX 01121 34523 NIL
AAXX 01121 34712 31430 80000 10026 20023 30029 40115 57012 71042 886// 333 88712
AAXX 01124 65501 NIL
AAXX 01124 65502 32965 53606 10287 21084 39764 40143 80002 333 0//00 59009 85076
AAXX 01124 65503 32960 70612 10299 20034 39796 40139 81032 333 0//00 59010 81363 87076
AAXX 01124 65505 32965 70408 10295 21089 39802 40141 80002 333 0//00 59014 87076
AAXX 01124 65507 32960 70804 10309 20008 39785 40132 80002 333 0//00 59003 87076
AAXX 01124 65510 32960 50410 10279 21028 39623 40139 80002 333 0//00 59007 85076
AAXX 01124 65516 32965 60406 10306 21078 39825 40130 80002 333 0//00 59015 86076
AAXX 01124 65518 32965 70404 10312 21069 39761 40121 80002 333 0//00 59008 87076
AAXX 01124 65522 32960 70808 10307 21061 39798 40125 80002 333 0//00 0//00 59013 87076
BBXX PCEO 01123 99237 70508 41598 30608 10240 20180 40251 52004 7//00 831/5 22254 04251 20401 316// 40501 5//// 80200
AAXX 01121 14024 12899 7//// 1//// 2//// 3//// 4//// 5//// 87070
AAXX 01121 48921 31940 00901 10150 20141 38576 48070 52011 71044 333 10180 59010
AAXX 01121 48924 31910 01601 10232 20211 39502 40124 52013 71044 333 10279 59021
AAXX 01121 48925 31430 30202 10210 20169 39391 40122 52011 71044 83100 333 10290 59022
AAXX 01121 48926 31520 10902 10244 20182 39665 40124 52009 71044 81100 333 10306 59027
AAXX 01121 48927 31320 81402 10140 20129 39172 48631 52004 71044 888// 333 10166 59020
AAXX 01121 48928 31420 80903 10148 20131 39088 48563 52006 71044 888// 333 10176 59013
AAXX 01121 48930 31360 50000 10125 20199 39791 40139 52008 71044 83800 333 10302 59047
AAXX 01121 48935 31910 00000 10160 20124 38980 48471 52020 71044 333 10205 59020
AAXX 01121 48938 31520 21402 10234 20184 39804 40138 52001 71044 82800 333 10288 59006
AAXX 01121 48940 31920 03201 10246 20190 39938 40135 52012 71044 333 10292 59006
AAXX 01121 48941 31920 00902 10236 20195 3//// 4//// 5//// 71044 333 10295 5////
AAXX 01121 48944 31520 13205 10154 20125 39528 40127 52002 71044 81500 333 10218 58002
AAXX 01121 48945 31940 00000 10240 20180 39968 40147 57003 71044 333 10295 59011
AAXX 01121 48946 31520 11401 10230 20186 39977 40144 52010 71044 81100 333 10292 59019
AAXX 01121 48947 NIL
AAXX 01121 48948 NIL
AAXX 01121 48952 NIL
AAXX 01121 48953 31420 30000 10260 20207 39918 40081 52011 71044 83200 333 10334 59031
AAXX 01121 48955 32560 23601 10280 20187 30012 40128 52024 81530 333 10330 58002
AAXX 01121 48957 NIL
AAXX 01124 68024 42660 61207 10340 20142 48501 57022 85202
AAXX 01124 48001 31220 80401 10170 20135 40142 70522 8692/ 333 10190 56339 59027
AAXX 01124 48004 32440 70000 10201 20168 87900 333 10245 56500
AAXX 01124 48008 32540 60000 10210 20160 40137 83970 333 10275 56810 59027
AAXX 01124 48010 32510 40000 10235 20209 40134 82830 333 10272 56770 59022
AAXX 01124 48018 32940 00000 10235 20191 40136 333 10295 59025
AAXX 01124 48019 32450 10000 10210 20160 40133 81100 333 10264 56500 59020
AAXX 01124 48020 32458 40000 10220 20185 83230 333 10270 56550
AAXX 01124 48025 32456 52701 10232 20198 40136 82840 333 10275 56550 59039
AAXX 01124 48035 31930 00000 10217 20173 40107 705// 333 10266 59027
AAXX 01124 48037 32930 00000 10272 20191 40098 333 10305 59038
AAXX 01124 48042 32957 00000 10272 20211 40118 333 10298 59019
AAXX 01124 48045 31/04 90000 10154 20154 74544 89/// 333 10182 56999
AAXX 01124 48048 32940 00401 10270 20211 40122 333 10305 59014
AAXX 01124 48053 32956 00000 10280 20220 40116 333 10305 59014
AAXX 01124 48057 32439 43201 10208 20143 83801 333 10258 56609
AAXX 01124 48060 32410 10000 10235 20174 40123 81100 333 10292 56500 59022
AAXX 01124 48062 31950 02702 10265 20220 40120 70500 333 10310 59012
AAXX 01124 48071 32956 03201 10278 20233 40129 333 10302 59010
AAXX 01124 48077 32956 00000 10290 20196 40106 333 10344 59022
AAXX 01124 48078 32556 22701 10297 20218 40114 81201 333 10345 56909 59013
AAXX 01124 48080 31956 00000 10275 20211 40113 70500 333 10344 59010
AAXX 01124 48094 32456 10000 10275 20255 40117 81500 333 10325 56900 59010
AAXX 01124 48097 32456 22301 10290 20196 40124 82800 333 10350 56900 59017
AAXX 01124 48108 31596 70501 10290 20215 40120 70522 83255 333 10355 56219 59016
AAXX 01124 48109 31496 10401 10285 20248 40114 70122 81500 333 10320 56900 59013
AAXX 01124 48110 31596 52302 10290 20239 40110 70522 82536 333 10340 56999 59007
AAXX 01124 48112 31597 80405 10282 20220 40098 70250 84876 333 10293 56199 59011
AAXX 01124 91925 06/// /0404 10231 20199 30065 40126 56011 60001 333 10315 58015 60007 90710 91108 555 60005 10308
AAXX 01124 91929 04969 80306 10261 20228 30125 40128 56017 60001 700// 333 60007 90710 91108 555 60005
AAXX 01124 91938 01315 80812 10231 20215 30142 40144 56008 60171 76186 888// 333 60147 81806 87640 90710 91122 555 60145 10322
AAXX 01124 91943 36/// /0905 10260 20203 30135 40137 58011 333 58019= 91944 06/// /0509 10243 20212 30141 40144 56009 60101 333 60107 90710 91116 555 60055
AAXX 01124 91948 06/// /0203 10239 20202 30059 40161 56013 69961 333 10288 59004 60007 90710 91106 555 60005 13406
AAXX 01124 91954 06/// /3506 10252 20229 30136 40139 58014 60001 333 10255 58015 60007
AAXX 01124 91958 06/// /2003 10229 20217 30148 40150 56016 69961 333 10269 58013 60007 90710 91105 555 60005 11905
AAXX 01124 91945 36/// /0804 10243 20222 30141 40146 58015 333 10298
AAXX 01124 94102 46/// /2913 10298 20262 30075 40084
AAXX 01124 94103 NIL
AAXX 01124 94120 46/// /3007 10298 20259 30048 40088
AAXX 01124 94122 46/// /3110 10295 20253 30080 40088
AAXX 01124 94131 46/// /2902 10268 20221 39934 40085
AAXX 01124 94132 NIL
AAXX 01124 94147 NIL
AAXX 01124 94150 46/// /0406 10276 20250 30034 40094
AAXX 01124 94151 46/// /0506 10290 20237 30074 4////
AAXX 01124 94170 46/// /0000 10242 20231 30085 40107
AAXX 01124 94200 NIL
AAXX 01124 94203 46/// /2709 10293 20233 30068 40078
AAXX 01124 94206 46/// /0104 10272 2//// 39942 40070
AAXX 01124 94207 46/// /2612 10279 30068 40076 53018
AAXX 01124 94211 NIL
AAXX 01124 94212 46/// /2102 10272 20211 39609 40072
AAXX 01124 94216 46/// /0619 10323 20207 30033 40083
AAXX 01124 94236 NIL
AAXX 01124 94238 46/// /3613 10312 20183 39649 40062
AAXX 01124 94248 NIL
AAXX 01124 94255 46/// /0303 10295 20167 39805 40061
AAXX 01124 94268 46/// /0000 10266 20247 30075 40087
AAXX 01124 94287 46/// /1709 10253 20199 30116 40125
AAXX 01124 94290 NIL
AAXX 01124 94294 46/// /1309 10264 20184 30126 40136
AAXX 01124 94296 35/// /1517 10264 30092 40102 52009
AAXX 01124 94298 46/// /1222 10260 30111 40117 51014
AAXX 01124 95641 NIL
AAXX 01124 92001 NIL
AAXX 01124 92014 NIL
AAXX 01124 92044 31470 82911 10267 20250 30093 40099 52005 70222 83236
AAXX 01124 92047 NIL
AAXX 01124 92100 NIL
AAXX 01124 89564 41481 10607 11005 21057 39867 49887 56015 70300 81870
AAXX 01124 89570 46/// /2805 11033 21058 39226 51004 333 10073
AAXX 01124 89571 41575 22409 10012 21042 39865 49894 51005 70300 82500
AAXX 01124 89573 NIL
AAXX 01124 89610 NIL
AAXX 01124 89611 41780 71411 10027 21045 39740 49792 53007 71422 85591
AAXX 01124 89614 NIL
AAXX 01124 89615 46/// /0921 11042 21102 38905 55000 333 11023
AAXX 01124 89807 NIL
AAXX 01124 89809 46/// /0917 11018 21032 39342 53002 333 11005
BBXX VRAE2 01124 99156 31579 41/// /1414 10275 20254 40070 52003 75055 8//// 22273 04300 20602 80260
BBXX ZMIQ 01123 99412 31761 41298 81815 10155 20137 40027 58025 7//00 887// 22213 00165 20102 399// 40204 80145
BBXX VNSZ 01114 99408 31462 46/// /0710 10187 20171 30142 40168 52008 22276 04197 85177
BBXX C6FS9 01114 99348 31512 46/// /0326 10216 20163 30140 40176 52020 22213 04229 85181
BBXX 9HA2479 01114 99220 31676 46/// /1427 10231 20225 30071 40100 57002 22214 04269 85227
BBXX VROB 01114 99207 31530 46/// /1219 10253 20177 30103 40128 52012 22283 04269 85202
BBXX ZCBU6 01124 99462 31666 41/98 82128 10155 20137 40097 52015 70011 8//// 22233 00171 20402 321// 41008 5//// 80145
BBXX SHIP 01124 99121 31230 41/97 52706 10296 20234 40089 70222 222// 0//// 20301 328// 40301 5////
BBXX FHZI 01114 99572 31458 46/// /3219 10029 20017 30036 40047 52008 22283 04021 85024
BBXX VNSZ 01104 99412 31464 46/// /0404 10191 20167 30144 40170 52014 22200 85175
BBXX C6FS9 01104 99350 31511 46/// /0322 10214 20162 30133 40169 52019 22283 04224 85181
BBXX VNSZ 01124 99404 31459 46/// /0909 10180 20172 30138 40164 52012 22276 85175
BBXX ZCBU6 01104 99442 31671 41598 42126 10155 20137 40062 57011 70111 8455/ 22234 00171 20402 321// 40504 5//// 80145
BBXX 9HA2479 01104 99222 31673 46/// /1326 10223 20217 30073 40102 52008 22214 04255 85219
BBXX VROB 01104 99209 31530 46/// /1320 10258 20179 30101 40126 52016 22283 04277 85204
BBXX VNAH 01104 99383 31416 46/// /1209 10189 20152 30096 40119 52004 22200 85165
BBXX FHZI 01104 99574 31458 46/// /3119 10030 20020 30033 40044 52007 22283 04021 85026
BBXX 2ALD3 01123 99359 31510 41398 40216 10210 20195 40173 53010 70311 84798 22254 04220 2//// 80200
BBXX SHIP 01124 99060 31056 41/97 71713 10258 20250 40017 75122 222// 0//// 20301 326// 40301 5////
BBXX A8VJ2 01123 99067 31329 41498 52610 10280 20252 40099 50/// 71311 84178 22283 00260 20801 30000 80260
BBXX V2BE4 01121 99114 31558 41/97 /2509 10240 20225 40089 52038 76366 8//// 22233 04270 20301 80230
BBXX YJZC5 01123 99229 31587 41493 72026 10240 20218 40091 51/// 70311 85998 22253 02259 20103 399// 40105 80225
AAXX 01124 94893 NIL
AAXX 01124 94907 46/// /1106 10189 20174 30131 40141
AAXX 01124 94910 46/// /0805 10238 20132 39888 40131
AAXX 01124 94926 46/// /1004 10194 20130 39513 40169
AAXX 01124 94935 46/// /3606 10201 20153 30128 40154
AAXX 01124 94954 46/// /0921 10173 20166 30040 40150
AAXX 01124 94956 46/// /0104 10150 20134 30129 40155
AAXX 01124 94975 46/// /0408 10193 20150 30127 40159
AAXX 01124 94983 NIL
AAXX 01124 94995 46/// /0911 10198 20141 30173 40181
AAXX 01124 94996 46/// /1205 10201 20158 30005 40133
AAXX 01124 94997 NIL
AAXX 01124 94998 46/// /2114 10040 21020 30055 40066
AAXX 01124 95111 46/// /0000 10289 20249 30050 40086
AAXX 01124 95205 46/// /3215 10321 20247 30065 40072
AAXX 01124 95322 NIL
AAXX 01124 95448 46/// /2206 10316 20018 39497 40041
AAXX 01124 95458 46/// /0718 10356 21021 39807 40060
AAXX 01124 95480 46/// /0609 10347 20043 30030 40087
AAXX 01124 95481 46/// /1407 10332 20086 30040 40083
AAXX 01124 95482 46/// /1607 10345 20059 30010 40064
AAXX 01124 95485 NIL
AAXX 01124 95492 46/// /0905 10291 20103 39961 40110
AAXX 01124 95527 46/// /0000 10223 20138 39889 40136
AAXX 01124 95634 46/// /1415 10256 20128 39689 40078
AAXX 01124 95637 46/// /1411 10180 20138 39794 40120
AAXX 01124 95646 46/// /0000 10241 20133 39904 40086
AAXX 01124 95666 NIL
AAXX 01124 95719 46/// /0808 10227 20117 39823 40146
AAXX 01124 95762 46/// /1409 10201 20078 39700 40146
AAXX 01124 95826 NIL
AAXX 01124 95839 46/// /1210 10286 20103 39942 40097
AAXX 01124 95864 NIL
AAXX 01124 95909 NIL
AAXX 01124 95954 NIL
AAXX 01124 95966 46/// /3008 10184 20141 39965 40163
AAXX 01124 96995 46/// /2201 10249 20228 39798 40092
AAXX 01124 96996 457// 71309 10276 20238 30090 40094 53011
AAXX 01124 94500 NIL
AAXX 01124 94510 46/// /0907 10249 20143 39776 40115
AAXX 01124 94515 46/// /0502 10194 20133 39785 40126
AAXX 01124 94552 46/// /0609 10175 20124 39700 40158
AAXX 01124 94578 46/// /1107 10219 20142 30160 40171
AAXX 01124 94584 46/// /1124 10221 20164 30046 40155
AAXX 01124 94601 46/// /1218 10182 20118 30128 40145
AAXX 01124 94610 46/// /2011 10226 20164 30079 40102
AAXX 01124 94637 46/// /1513 10260 20142 39661 40074
AAXX 01124 94638 46/// /1809 10187 20153 30095 40126
AAXX 01124 94642 NIL
AAXX 01124 94643 NIL
AAXX 01124 94647 46/// /0803 10226 20162 39969 40088
AAXX 01124 94651 46/// /1408 10249 20158 30013 40089
AAXX 01124 94653 46/// /2614 10237 20163 30067 40085
AAXX 01124 94659 46/// /0512 10341 21035 39888 40076
AAXX 01124 94672 46/// /0915 10330 20010 30071 40081
AAXX 01124 94691 46/// /0407 10281 20056 39794 40113
AAXX 01124 94693 46/// /0509 10301 20066 30047 40107
AAXX 01124 94700 NIL
AAXX 01124 94703 46/// /1006 10262 20123 30007 40129
AAXX 01124 94710 46/// /0807 10277 20081 39888 40134
AAXX 01124 94729 46/// /0000 10191 20101 39320 40151
AAXX 01124 94750 46/// /2306 10168 20152 30044 40166
AAXX 01124 94767 46/// /0409 10220 20160 30167 40173
AAXX 01124 94776 46/// /0607 10195 20148 30159 40169
AAXX 01124 94791 NIL
AAXX 01124 94802 46/// /2103 10156 20125 30067 40148
AAXX 01124 94804 46/// /0920 10245 20154 30020 40057
AAXX 01124 94807 NIL
AAXX 01124 94821 46/// /0905 10214 20088 30026 40107
AAXX 01124 94842 46/// /0715 10190 20149 30028 40125
AAXX 01124 94847 NIL
AAXX 01124 94850 46/// /0911 10163 20161 30089 40134
AAXX 01124 94865 46/// /2609 10199 20175 30102 40126
AAXX 01124 94866 46/// /2705 10200 20176 39991 40129
AAXX 01124 94875 46/// /0105 10270 20098 39988 40119
AAXX 01124 94299 46/// /1418 10267 20206 30103 40113
AAXX 01124 94300 46/// /2117 10238 20170 30088 40098
AAXX 01124 94302 46/// /2115 10252 20134 30078 40084
AAXX 01124 94312 46/// /2911 10269 20222 30058 40067
AAXX 01124 94313 NIL
AAXX 01124 94317 46/// /3506 10351 20036 39462 40029
AAXX 01124 94319 46/// /3209 10344 20172 39721 40041
AAXX 01124 94324 NIL
AAXX 01124 94326 46/// /0805 10303 20095 39453 40050
AAXX 01124 94327 46/// /0000 10291 20139 39696 40059
AAXX 01124 94332 46/// /3303 10254 20189 39686 40061
AAXX 01124 94333 NIL
AAXX 01124 94341 46/// /0807 10302 20117 39861 40090
AAXX 01124 94346 46/// /0807 10251 20132 39888 40103
AAXX 01124 94363 46/// /1005 10223 20163 39907 40120
AAXX 01124 94366 NIL
AAXX 01124 94367 46/// /1208 10249 20174 30097 40139
AAXX 01124 94374 46/// /1207 10230 20168 30131 40147
AAXX 01124 94388 46/// /1319 10238 20157 30146 40151
AAXX 01124 94393 46/// /1321 10252 30106 40118 51011
AAXX 01124 94394 46/// /1319 10236 30129 40137 51012
AAXX 01124 94403 46/// /1911 10217 20180 30061 40101
AAXX 01124 94429 46/// /2106 10305 20094 39608 40055
AAXX 01124 94430 46/// /2604 10314 20036 39485 40048
AAXX 01124 94449 46/// /0709 10312 20130 39541 40052
AAXX 01124 94451 NIL
AAXX 01124 94461 NIL
AAXX 01124 94462 46/// /2217 10281 20151 39528 40066
AAXX 01124 94477 NIL
AAXX 01124 94488 NIL
AAXX 01124 85406 12980 09901 10238 20132 40124 51009 60004 333 20204 55065 56000 70000
AAXX 01124 85418 12970 62304 10228 20129 40134 60004 83031 333 20196 30/// 55093 56066 70000 83365 83080
AAXX 01124 85432 12970 40711 10128 20029 37772 48475 53008 60004 80001 333 20056 30/// 51370 55102 56000 70000 81072
AAXX 01124 85442 12975 31103 10197 20144 40137 53011 60004 80001 333 20170 30/// 50750 55118 56007 70000 83080
AAXX 01124 85467 13980 01305 10183 20110 40170 51009 60004 333 20140 30/// 5///0 55073 70000
AAXX 01124 85469 42565 50000 10197 20180 40172 57006 85800 333 56200 84820 83630
AAXX 01124 85488 12462 23401 10176 20128 40167 50008 60004 81501 333 20129 30007 50350 55057 56600 70000 81610 81075
AAXX 01124 85574 12960 01805 10181 20116 39616 40162 51021 60004 333 20150 30/// 55122 70000
AAXX 01124 85577 12960 02002 10189 20124 39563 40164 52017 60004 333 20150 30013 50220 55118 70000
AAXX 01123 NIL
AAXX 01124 94299 46/// /1418 10267 20206 30103 40113
AAXX 01124 94300 46/// /2117 10238 20170 30088 40098
AAXX 01124 94302 46/// /2115 10252 20134 30078 40084
AAXX 01124 94312 46/// /2911 10269 20222 30058 40067
AAXX 01124 94313 NIL
AAXX 01124 94317 46/// /3506 10351 20036 39462 40029
AAXX 01124 94319 46/// /3209 10344 20172 39721 40041
AAXX 01124 94324 NIL
AAXX 01124 94326 46/// /0805 10303 20095 39453 40050
AAXX 01124 94327 46/// /0000 10291 20139 39696 40059
AAXX 01124 94332 46/// /3303 10254 20189 39686 40061
AAXX 01124 94333 NIL
AAXX 01124 94341 46/// /0807 10302 20117 39861 40090
AAXX 01124 94346 46/// /0807 10251 20132 39888 40103
AAXX 01124 94363 46/// /1005 10223 20163 39907 40120
AAXX 01124 94366 NIL
AAXX 01124 94367 46/// /1208 10249 20174 30097 40139
AAXX 01124 94374 46/// /1207 10230 20168 30131 40147
AAXX 01124 94388 46/// /1319 10238 20157 30146 40151
AAXX 01124 94393 46/// /1321 10252 30106 40118 51011
AAXX 01124 94394 46/// /1319 10236 30129 40137 51012
AAXX 01124 94403 46/// /1911 10217 20180 30061 40101
AAXX 01124 94429 46/// /2106 10305 20094 39608 40055
AAXX 01124 94430 46/// /2604 10314 20036 39485 40048
AAXX 01124 94449 46/// /0709 10312 20130 39541 40052
AAXX 01124 94451 NIL
AAXX 01124 94461 NIL
AAXX 01124 94462 46/// /2217 10281 20151 39528 40066
AAXX 01124 94477 NIL
AAXX 01124 94488 NIL
AAXX 01124 92001 NIL
AAXX 01124 92014 NIL
AAXX 01124 92044 31470 82911 10267 20250 30093 40099 52005 70222 83236
AAXX 01124 92047 NIL
AAXX 01124 92100 NIL
AAXX 01124 94893 NIL
AAXX 01124 94907 46/// /1106 10189 20174 30131 40141
AAXX 01124 94910 46/// /0805 10238 20132 39888 40131
AAXX 01124 94926 46/// /1004 10194 20130 39513 40169
AAXX 01124 94935 46/// /3606 10201 20153 30128 40154
AAXX 01124 94954 46/// /0921 10173 20166 30040 40150
AAXX 01124 94956 46/// /0104 10150 20134 30129 40155
AAXX 01124 94975 46/// /0408 10193 20150 30127 40159
AAXX 01124 94983 NIL
AAXX 01124 94995 46/// /0911 10198 20141 30173 40181
AAXX 01124 94996 46/// /1205 10201 20158 30005 40133
AAXX 01124 94997 NIL
AAXX 01124 94998 46/// /2114 10040 21020 30055 40066
AAXX 01124 95111 46/// /0000 10289 20249 30050 40086
AAXX 01124 95205 46/// /3215 10321 20247 30065 40072
AAXX 01124 95322 NIL
AAXX 01124 95448 46/// /2206 10316 20018 39497 40041
AAXX 01124 95458 46/// /0718 10356 21021 39807 40060
AAXX 01124 95480 46/// /0609 10347 20043 30030 40087
AAXX 01124 95481 46/// /1407 10332 20086 30040 40083
AAXX 01124 95482 46/// /1607 10345 20059 30010 40064
AAXX 01124 95485 NIL
AAXX 01124 95492 46/// /0905 10291 20103 39961 40110
AAXX 01124 95527 46/// /0000 10223 20138 39889 40136
AAXX 01124 95634 46/// /1415 10256 20128 39689 40078
AAXX 01124 95637 46/// /1411 10180 20138 39794 40120
AAXX 01124 95646 46/// /0000 10241 20133 39904 40086
AAXX 01124 95666 NIL
AAXX 01124 95719 46/// /0808 10227 20117 39823 40146
AAXX 01124 95762 46/// /1409 10201 20078 39700 40146
AAXX 01124 95826 NIL
AAXX 01124 95839 46/// /1210 10286 20103 39942 40097
AAXX 01124 95864 NIL
AAXX 01124 95909 NIL
AAXX 01124 95954 NIL
AAXX 01124 95966 46/// /3008 10184 20141 39965 40163
AAXX 01124 96995 46/// /2201 10249 20228 39798 40092
AAXX 01124 96996 457// 71309 10276 20238 30090 40094 53011
AAXX 01124 NIL
AAXX 01124 94500 NIL
AAXX 01124 94510 46/// /0907 10249 20143 39776 40115
AAXX 01124 94515 46/// /0502 10194 20133 39785 40126
AAXX 01124 94552 46/// /0609 10175 20124 39700 40158
AAXX 01124 94578 46/// /1107 10219 20142 30160 40171
AAXX 01124 94584 46/// /1124 10221 20164 30046 40155
AAXX 01124 94601 46/// /1218 10182 20118 30128 40145
AAXX 01124 94610 46/// /2011 10226 20164 30079 40102
AAXX 01124 94637 46/// /1513 10260 20142 39661 40074
AAXX 01124 94638 46/// /1809 10187 20153 30095 40126
AAXX 01124 94642 NIL
AAXX 01124 94643 NIL
AAXX 01124 94647 46/// /0803 10226 20162 39969 40088
AAXX 01124 94651 46/// /1408 10249 20158 30013 40089
AAXX 01124 94653 46/// /2614 10237 20163 30067 40085
AAXX 01124 94659 46/// /0512 10341 21035 39888 40076
AAXX 01124 94672 46/// /0915 10330 20010 30071 40081
AAXX 01124 94691 46/// /0407 10281 20056 39794 40113
AAXX 01124 94693 46/// /0509 10301 20066 30047 40107
AAXX 01124 94700 NIL
AAXX 01124 94703 46/// /1006 10262 20123 30007 40129
AAXX 01124 94710 46/// /0807 10277 20081 39888 40134
AAXX 01124 94729 46/// /0000 10191 20101 39320 40151
AAXX 01124 94750 46/// /2306 10168 20152 30044 40166
AAXX 01124 94767 46/// /0409 10220 20160 30167 40173
AAXX 01124 94776 46/// /0607 10195 20148 30159 40169
AAXX 01124 94791 NIL
AAXX 01124 94802 46/// /2103 10156 20125 30067 40148
AAXX 01124 94804 46/// /0920 10245 20154 30020 40057
AAXX 01124 94807 NIL
AAXX 01124 94821 46/// /0905 10214 20088 30026 40107
AAXX 01124 94842 46/// /0715 10190 20149 30028 40125
AAXX 01124 94847 NIL
AAXX 01124 94850 46/// /0911 10163 20161 30089 40134
AAXX 01124 94865 46/// /2609 10199 20175 30102 40126
AAXX 01124 94866 46/// /2705 10200 20176 39991 40129
AAXX 01124 94875 46/// /0105 10270 20098 39988 40119
AAXX 01124 89564 41481 10607 11005 21057 39867 49887 56015 70300 81870
AAXX 01124 89570 46/// /2805 11033 21058 39226 51004 333 10073
AAXX 01124 89571 41575 22409 10012 21042 39865 49894 51005 70300 82500
AAXX 01124 89573 NIL
AAXX 01124 89610 NIL
AAXX 01124 89611 41780 71411 10027 21045 39740 49792 53007 71422 85591
AAXX 01124 89614 NIL
AAXX 01124 89615 46/// /0921 11042 21102 38905 55000 333 11023
AAXX 01124 89807 NIL
AAXX 01124 89809 46/// /0917 11018 21032 39342 53002 333 11005
AAXX 01124 94102 46/// /2913 10298 20262 30075 40084
AAXX 01124 94103 NIL
AAXX 01124 94120 46/// /3007 10298 20259 30048 40088
AAXX 01124 94122 46/// /3110 10295 20253 30080 40088
AAXX 01124 94131 46/// /2902 10268 20221 39934 40085
AAXX 01124 94132 NIL
AAXX 01124 94147 NIL
AAXX 01124 94150 46/// /0406 10276 20250 30034 40094
AAXX 01124 94151 46/// /0506 10290 20237 30074 4////
AAXX 01124 94170 46/// /0000 10242 20231 30085 40107
AAXX 01124 94200 NIL
AAXX 01124 94203 46/// /2709 10293 20233 30068 40078
AAXX 01124 94206 46/// /0104 10272 2//// 39942 40070
AAXX 01124 94207 46/// /2612 10279 30068 40076 53018
AAXX 01124 94211 NIL
AAXX 01124 94212 46/// /2102 10272 20211 39609 40072
AAXX 01124 94216 46/// /0619 10323 20207 30033 40083
AAXX 01124 94236 NIL
AAXX 01124 94238 46/// /3613 10312 20183 39649 40062
AAXX 01124 94248 NIL
AAXX 01124 94255 46/// /0303 10295 20167 39805 40061
AAXX 01124 94268 46/// /0000 10266 20247 30075 40087
AAXX 01124 94287 46/// /1709 10253 20199 30116 40125
AAXX 01124 94290 NIL
AAXX 01124 94294 46/// /1309 10264 20184 30126 40136
AAXX 01124 94296 35/// /1517 10264 30092 40102 52009
AAXX 01124 94298 46/// /1222 10260 30111 40117 51014
AAXX 01124 95641 NIL
AAXX 01124 06670 01481 72006 10107 20080 39694 40202 57007 69931 70252 875// 333 55300 20407 60005 83717 86646 91123 91215
AAXX 01124 06700 01169 72205 10100 20080 39731 40223 57016 69921 75065 875// 333 55300 20641 60005 81703 83709 86640 91110 91207
AAXX 01124 06680 01/01 92625 11014 21021 37518 47060 58003 60021 74344 333 55300 20403 69915 91152 91236
AAXX 01124 06990 31658 71406 10079 20032 39669 40218 57010 71062 876// 333 55302 20605 87745 91115 91208
AAXX 01124 06760 31958 70000 10045 20013 39766 40223 57010 70511 8707/ 333 55300 20770 83361 87464 91105 91203
AAXX 01124 06720 32970 60704 10044 20025 39665 40252 58010 8263/ 333 55306 20904 86358 91107 91204
BBXX VRAE2 01124 99156 31579 41/// /1414 10275 20254 40070 52003 75055 8//// 22273 04300 20602 80260
BBXX ZMIQ 01123 99412 31761 41298 81815 10155 20137 40027 58025 7//00 887// 22213 00165 20102 399// 40204 80145
BBXX VNSZ 01114 99408 31462 46/// /0710 10187 20171 30142 40168 52008 22276 04197 85177
BBXX C6FS9 01114 99348 31512 46/// /0326 10216 20163 30140 40176 52020 22213 04229 85181
BBXX 9HA2479 01114 99220 31676 46/// /1427 10231 20225 30071 40100 57002 22214 04269 85227
BBXX VROB 01114 99207 31530 46/// /1219 10253 20177 30103 40128 52012 22283 04269 85202
BBXX ZCBU6 01124 99462 31666 41/98 82128 10155 20137 40097 52015 70011 8//// 22233 00171 20402 321// 41008 5//// 80145
BBXX SHIP 01124 99121 31230 41/97 52706 10296 20234 40089 70222 222// 0//// 20301 328// 40301 5////
BBXX FHZI 01114 99572 31458 46/// /3219 10029 20017 30036 40047 52008 22283 04021 85024
BBXX VNSZ 01104 99412 31464 46/// /0404 10191 20167 30144 40170 52014 22200 85175
BBXX C6FS9 01104 99350 31511 46/// /0322 10214 20162 30133 40169 52019 22283 04224 85181
BBXX VNSZ 01124 99404 31459 46/// /0909 10180 20172 30138 40164 52012 22276 85175
BBXX ZCBU6 01104 99442 31671 41598 42126 10155 20137 40062 57011 70111 8455/ 22234 00171 20402 321// 40504 5//// 80145
BBXX 9HA2479 01104 99222 31673 46/// /1326 10223 20217 30073 40102 52008 22214 04255 85219
BBXX VROB 01104 99209 31530 46/// /1320 10258 20179 30101 40126 52016 22283 04277 85204
BBXX VNAH 01104 99383 31416 46/// /1209 10189 20152 30096 40119 52004 22200 85165
BBXX FHZI 01104 99574 31458 46/// /3119 10030 20020 30033 40044 52007 22283 04021 85026
BBXX 2ALD3 01123 99359 31510 41398 40216 10210 20195 40173 53010 70311 84798 22254 04220 2//// 80200
BBXX SHIP 01124 99060 31056 41/97 71713 10258 20250 40017 75122 222// 0//// 20301 326// 40301 5////
BBXX A8VJ2 01123 99067 31329 41498 52610 10280 20252 40099 50/// 71311 84178 22283 00260 20801 30000 80260
BBXX V2BE4 01121 99114 31558 41/97 /2509 10240 20225 40089 52038 76366 8//// 22233 04270 20301 80230
BBXX YJZC5 01123 99229 31587 41493 72026 10240 20218 40091 51/// 70311 85998 22253 02259 20103 399// 40105 80225
AAXX 01124 91375 NIL
AAXX 01124 91519 NIL
AAXX 01124 91531 NIL
AAXX 01124 91532 45/// /0607 10268 20237 30081 40089 57002 333 10310
AAXX 01124 91559 NIL
AAXX 01124 91611 NIL
AAXX 01124 91642 NIL
AAXX 01124 91679 NIL
AAXX 01124 91689 NIL
AAXX 01124 91756 NIL
AAXX 01124 91844 NIL
AAXX 01124 92036 NIL
AAXX 01124 93713 NIL
AAXX 01124 06610 32467 72308 10109 20076 39633 40213 57013 86501 333 55302 20727 82614 86640 91115 91209
AAXX 01120 67489 31570 72903 10273 20204 38731 48489 71722 85973 333 59018 81928 84830 84460 555 10281 29065
AAXX 01120 67586 41557 73406 10205 20189 38758 48475 79596 85971 333 59011 81924 84825 86458 555 10260 29088
AAXX 01120 67693 41570 70000 10231 20207 39233 48484 71796 84938 333 59012 81925 84830 86275 555 10291 29089
AAXX 01120 67423 31681 70302 10310 20218 39481 48502 71522 8193/ 333 59016 81935 86360 555 10319 29059
AAXX 01120 67485 32680 72604 10274 20175 86933 333 81930 85835 555 10275 29058
AAXX 01120 67690 41580 70282 10298 20212 70362 82907 333 81925 87280 555 10302 29055
AAXX 01120 67692 31680 72602 10254 20199 71792 8597/ 333 81930 85835 87459 555 10258 29074
AAXX 01124 85585 12498 51914 10174 20122 40212 51016 60004 83504 333 20158 30/// 55117 56306 70000 83620
AAXX 01124 85586 11458 52705 10174 20128 40182 52027 60004 7052/ 85500 333 20114 30/// 50330 55048 56700 85612
AAXX 01124 85629 12960 01705 10190 20132 40160 52/// 60004 333 20136 30/// 50620 55131 70000
AAXX 01124 85672 12965 01806 10170 20142 40166 52014 60004 333 20134 30/// 55130 70000
AAXX 01124 85682 12960 02305 10161 20136 40163 50007 60004 333 20104 30/// 50540 55075 70000
AAXX 01124 85743 12460 41404 10141 20118 40207 51012 60004 84600 333 20100 30/// 50350 55102 56600 70000 84717
AAXX 01124 85766 12960 09902 10171 20136 40215 52013 60004 333 20094 30/// 55133 70000
AAXX 01124 85782 NIL
AAXX 01124 85799 12660 49902 10150 20143 40229 52009 70142 84100 333 10127 30/// 50730 55097 56400 84840
AAXX 01124 85830 NIL
AAXX 01124 41241 NIL
AAXX 01124 41242 NIL
AAXX 01124 41244 NIL
AAXX 01124 41246 32960 01011 10237 20162 30161 40165 333 59031
AAXX 01124 41251 NIL
AAXX 01124 41252 36/// /3104 10263 20049 39785 40074 333 0E017 59018
AAXX 01124 41253 36/// /3604 10251 20096 39792 40175 333 0E015 59021
AAXX 01124 41254 NIL
AAXX 01124 41255 32960 02302 10246 20069 39631 40147 91215 333 59013
AAXX 01124 41256 32960 00508 10236 20129 30164 40174 333 59018
AAXX 01124 41257 36/// /1006 10233 20104 39687 40176 333 0E012 59018
AAXX 01124 41258 36/// /0605 10233 20124 30165 40170 333 0E/// 59018
AAXX 01124 41259 36/// /0404 10105 21074 37135 40310 333 0E/// 58015
AAXX 01124 41262 NIL
AAXX 01124 41263 36/// /9902 10245 20055 39486 40177 333 0E012 59015
AAXX 01124 41264 NIL
AAXX 01124 41265 36/// /0804 10254 20091 39621 40174 333 0E019 59019
AAXX 01124 41267 35/// /3610 10237 20105 30161 40176 333 0E018 59015
AAXX 01124 41268 32960 00108 10243 20106 30158 40174 333 59014
AAXX 01124 41270 36/70 /0209 10241 20094 30118 40129 333 0E016 59014
AAXX 01124 41275 NIL
AAXX 01124 41287 36/// /0407 10271 20059 30119 40186 333 0E016 59008
AAXX 01124 41288 32460 10810 10257 20129 30150 40172 81500 333 59001 81610
AAXX 01124 41290 NIL
AAXX 01124 41295 36/// /0509 10255 20088 39979 40156 333 0E018 59009
AAXX 01124 41304 NIL
AAXX 01124 41312 36/// /1706 10254 20131 30114 40153 333 0E045 59012
AAXX 01124 41314 32960 09908 10236 20050 39663 40163 333 59018
AAXX 01124 41315 36/// /1508 10203 20075 39169 42807 333 0E/// 59013
AAXX 01124 41316 32960 01908 10253 20115 30129 40155 333 59015
AAXX 01124 41024 32660 32508 10284 20220 30107 40126 83500 333 58012 83640
AAXX 01124 41030 32660 32003 10322 20180 39848 40117 83500 333 58012 83640
AAXX 01124 41036 NIL
AAXX 01124 41055 32960 02309 10264 20010 38370 48515 333 59007 555 04410 50104
AAXX 01124 41061 32960 00904 10280 20090 39426 40127 333 59034
AAXX 01124 41084 32960 00000 10310 20050 38850 48508 333 59012 555 04410 50103
AAXX 01124 41112 32960 02012 10237 20060 37961 48525 333 59006 555 04410 50147
AAXX 01124 41114 32560 22408 10250 20110 37990 48515 82200 333 59007 82825 555 04410 50127
AAXX 01124 41128 32960 01108 10312 21020 38806 48514 333 59033 555 04410 50117
AAXX 01124 41136 32960 00606 10277 20020 39323 40131 333 59034
AAXX 01124 41140 32960 01909 10290 20230 30110 40123 333 59020
AAXX 01124 85864 11680 22108 10152 20098 40166 52025 60064 7028/ 82200 333 20124 31/// 55088 56600 70058 82835
AAXX 01124 85874 11682 23115 10132 20077 39541 40157 51036 69944 7028/ 82100 333 20100 31/// 56600 70004 82835
AAXX 01124 85934 12580 53021 10106 20032 40063 52005 69904 82530 333 20045 30/// 55014 56770 79999 82620 84360
AAXX 01124 89054 32450 83511 10016 20011 49930 51005 71022 886// 333 10028 21020 56899 88702
AAXX 01124 89056 11/04 93210 10014 20010 49925 54001 60002 74542 333 10013 20006 41999 55008 89/01
AAXX 01124 89057 12460 82606 10011 20002 49920 54000 60002 885// 333 10020 20008 41030 56699 88710
AAXX 01124 89058 31440 83207 10015 20008 39907 49928 52004 71000 886//
AAXX 01124 89059 12960 42310 11001 21012 49908 52008 60002 84050 333 10022 20006 42998 55007 75055 84360
AAXX 01124 40356 32960 02208 10120 20040 39175 48477 333 58022 555 04410 50156
AAXX 01124 40357 32960 01104 10160 20090 39509 40148 333 58020
AAXX 01124 40360 32560 22408 10158 20030 39562 40157 82100 333 58016 82830
AAXX 01124 40361 32960 02405 10195 20010 39377 40138 333 58016
AAXX 01124 40362 31940 03311 10178 20020 39622 40133 70600 333 58007
AAXX 01124 40373 32960 23108 10238 21020 39703 40115 80004 333 59050 82070
AAXX 01124 40375 32960 03304 10170 21030 39266 40142 333 58014
AAXX 01124 40377 32960 03610 10242 20110 39652 40127 333 59033
AAXX 01124 40394 32660 43016 10230 20110 39006 48494 84400 333 59002 84645 555 04410 50111
AAXX 01124 40400 32960 03015 10236 20150 30134 40162 333 58025
AAXX 01124 40401 NIL
AAXX 01124 40405 NIL
AAXX 01124 40416 32960 01313 10225 20110 30118 40138 333 59047
AAXX 01124 40417 32960 01415 10237 20090 30127 40142 333 59056
AAXX 01124 40420 32960 21816 10250 20070 39940 40147 80001 333 59051 82070
AAXX 01124 40430 32660 52608 10276 20130 39408 40111 82101 333 58001 82840 83070
AAXX 01124 40435 32960 02810 10275 20060 39104 40117 333 59013
AAXX 01124 40437 32960 02507 10266 20020 39444 40139 333 59038
AAXX 01124 40439 32660 62710 10282 20160 30116 40134 83531 333 58005 83640
AAXX 01124 94310 46/// /3016 10267 20217 30057 40068 52016 333 10319
AAXX 01124 95283 46/// /1211 10271 20201 30109 40116
AAXX 01124 95288 46/// /1423 10275 30096 40111 51016
AAXX 01124 95675 46/// /1005
AAXX 01124 95872 46/// /2211
AAXX 01124 95961 35/// /3104 10161 30106 40147 52005
AAXX 01124 40550 37/36 /1906 10218 20083 40125 55014 70411 333 0/023 55300 00320 10000 20799 30255 41346 51572 61054 55407 40543 90069 90400 91013 91123 91209 91305
AAXX 01124 40551 46/// /1508 10224 20010 333 0//// 90400 91011 91136 91227 91315
AAXX 01124 40552 47/58 /1706 10228 20004 40122 56008 71011 333 0/024 55300 90069 90401 91011 91133 91225 91313
AAXX 01124 40553 37/50 /1520 10201 20110 40126 56010 71011 333 0/021 55301 90069 90401 91023 91129 91221 91315
AAXX 01124 40568 36/// /1214 10169 20144 333 0//// 90401 91017 91119 91215 91311
AAXX 01124 40569 NIL
AAXX 01124 40570 35/62 /3112 10235 21010 40116 55012 333 0/025 55300 90069 90401 91015 91119 91215 91311
AAXX 01124 40571 NIL
AAXX 01124 40572 NIL
AAXX 01124 40573 36/// /3108 10237 21014 333 0//// 90401 91011 91123 91215 91307
AAXX 01124 40580 36/// /2003 10248 20003 333 0/027 553// 00340 10000 20827 30185 41336 51638 61013 55407 40642 90400 91005 91129 91213 91307
AAXX 01124 40581 36/// /0903 10206 20129 333 0//// 90400 91005 91125 91209 91305
AAXX 01124 40582 41750 62108 10239 21011 40124 56009 70622 82430 333 00027 55300 00278 10000 20717 30218 41387 51610 60935 55407 40500 82640 86358 90400 91011 91136 91227 91317
AAXX 01124 40583 NIL
AAXX 01124 40585 36/// /1613 10172 20137 222// 1//// 3//// 4//// 70/// 333 0//// 90401 91019 91133 91227 91321
AAXX 01124 40586 36/// /1806 10236 20008 333 0//// 90401 91009 91129 91221 91313
AAXX 01124 40587 36/// /2006 10238 20005 333 0/026 553// 00345 10000 20900 30258 41328 51625 61158 55407 40642 90400 91009 91131 91221 91313
AAXX 01124 40588 47/58 /1313 10196 20135 40133 55005 71011 333 0/021 55300 90069 90401 91019 91129 91221 91315
AAXX 01124 40589 NIL
AAXX 01124 40590 46/// /2006 10231 20000 333 0//// 90401 91007 91129 91223 91315
AAXX 01124 40591 NIL
AAXX 01124 40592 37/56 /1909 10239 20005 40124 55012 70410 333 0/027 55300 00329 10000 20769 30204 41357 51589 60973 55407 40565 90069 90401 91013 91129 91217 91311
AAXX 01124 40593 36/// /1514 10177 20142 333 0//// 90400 91017 91133 91227 91319
AAXX 01124 40594 36/// /1913 10245 20006 333 0//// 90400 91017 91142 91227 91319
AAXX 01124 40596 46/// /1518 10200 20147 333 0//// 90400 91021 91134 91227 91323
AAXX 01121 38141 42598 81401 10000 21073 30024 40346 57007 885// 555 14101
AAXX 01121 38149 42598 80901 10033 21038 30110 40187 57012 885// 555 11004
AAXX 01121 38178 42998 00901 11020 21170 39921 40216 57015 555 10102
AAXX 01121 38262 42698 70901 10015 21076 30106 40188 57012 85550 555 14002
AAXX 01121 38264 42998 80202 10017 21024 30093 40188 57012 86033 555 14001
AAXX 01121 38396 42997 70804 10028 21045 30061 40187 57015 85071 555 10003
AAXX 01121 38403 42997 00000 10022 21098 30080 40203 57007 555 11007
AAXX 01121 38413 42998 01003 10020 21052 39918 40214 57008 555 11001
AAXX 01121 38457 41996 00000 10002 21046 39624 40225 54000 71000 555 1/106
AAXX 01121 38462 42999 00000 11007 21106 38754 48487 54000 555 1/101
AAXX 01121 38565 32998 00000 10028 21061 39617 40208 57006 555 11014
AAXX 01121 38579 32998 00000 11005 21053 39795 40225 57006 555 1/100
AAXX 01121 38583 31/93 90901 11032 21036 39904 40239 57004 74742 555 1/100
AAXX 01121 38611 NIL
AAXX 01121 38618 41/92 90201 11018 21023 39520 40231 57001 74742 555 11100
AAXX 01121 38683 42997 00703 10062 20006 39917 40195 57008 555 11006
AAXX 01121 38696 32999 00701 10045 21069 39345 40208 57003 555 14105
AAXX 01121 38812 42997 00701 10066 21036 39731 40186 57013 555 11004
AAXX 01121 38927 32960 00903 10082 20002 39830 40206 57010 555 11007
AAXX 01121 37395 42999 70905 10152 21005 39994 40131 57004 87031 555 10013
AAXX 01121 37409 42598 40901 10034 21038 38730 48451 57003 84540 333 95010 1/101
AAXX 01121 37432 42697 60000 10060 21057 38920 48464 57006 86500 555 10004
AAXX 01121 37514 42699 60000 10070 21044 38996 40139 57023 86500
AAXX 01121 37545 42999 20000 10121 20013 39626 40128 57019
AAXX 01121 37621 42699 20000 10108 21033 39516 40146 57009 82500 555 11010
AAXX 01121 37484 NIL
BBXX 41038 01121 99341 70777 46/// /2201 10132 40220 53006 91200 22200 00134 333 91202
AAXX 01124 41859 11330 80502 10188 20160 30111 40149 69903 76166 8672/ 333 10213 56199 59008 79999 83709 85617 88458
AAXX 01124 41883 11330 83104 10214 20150 30114 40135 69904 76062 8572/ 333 10262 56699 59015 79999 83709 85615 88458
AAXX 01124 41891 31440 63002 10235 20150 30081 40120 70522 82540 333 10293 56990 59025 70000 82615 86365
AAXX 01124 41907 32910 53102 10225 20140 30114 40129 85030 333 10275 56090 59018 70000 85362
AAXX 01124 41923 31950 62702 10246 20120 30112 40121 70522 86040 333 10285 56090 59018 70000 86360
AAXX 01124 41936 31440 50000 10234 20150 40130 70522 82530 333 10294 56990 59020 70000 82615 84362
AAXX 01124 41943 32440 60000 10227 20160 30121 40129 84430 333 10287 56990 59012 70000 83618 85362
AAXX 01124 41950 31445 60000 10223 20170 30119 40122 70510 83530 333 10288 56990 59021 70000 83617 84362
AAXX 01124 41978 31956 20000 10240 20130 30109 40116 70500 82030 333 10280 56090 59022 70000 82360
AAXX 01124 41992 31430 20000 10240 20170 30113 40115 70500 82500 333 10312 56900 59021 70000 82616
BBXX A8IP2 01123 99369 70319 41298 50415 10171 20150 40037 53/// 703// 8/77/ 22224 06170 20504 334// 40704 5//// 80158
BBXX AVMI 01123 99330 31517 41298 40524 10210 20/// 40244 55008 70200 82/// 22200 00210
BBXX DDYZ2 01124 99361 10148 41799 11405 10160 20144 40230 51010 7//// 81/// 22224 00170 20602 30000 80150
AAXX 01121 80400 NIL
AAXX 01121 80403 NIL
AAXX 01121 80405 NIL
AAXX 01121 80407 NIL
AAXX 01121 80410 NIL
AAXX 01121 80413 32470 10202 10202 20150 39663 40155 81600 333 20209 50304 55073 21592 56900 58001 555 10182
AAXX 01121 80415 NIL
AAXX 01121 80419 NIL
AAXX 01121 80421 NIL
AAXX 01121 80423 12470 5//// 10275 20198 30136 40153 69944 852// 333 20222 30/// 50304 55008 2//// 562// 58004 85810 555 10152
AAXX 01121 80428 32468 63401 10226 20204 39939 40124 60024 8257/ 333 20213 30/// 50204 55022 21323 5699/ 59007 82617 84357 555 10135
AAXX 01121 80432 NIL
AAXX 01121 80435 12470 20702 10250 20238 30060 40136 60014 82500 333 20231 30/// 50074 55055 2//// 56900 58002 82613 555 10134
AAXX 01121 80438 12970 30903 10139 20109 38542 48539 60024 81018 333 20137 30/// 50184 55096 21740 56099 58012 555 10228
AAXX 01121 80444 NIL
AAXX 01121 80447 32558 30000 10191 20188 39691 40116 82520 333 20191 30/// 50344 55095 21480 56990 58020 82620 555 10164
AAXX 01121 80448 12970 00000 10211 20211 3//// 4//// 60014 333 20205 30/// 5///4 55038 21382 5////
AAXX 01121 80450 32975 51103 10244 20225 30092 40148 80008 333 20236 30/// 5///4 55077 21655 56009 58013 555 10144
AAXX 01121 80453 NIL
AAXX 01121 80457 32970 2//// 10258 20188 30045 40130 82020 333 20252 30/// 51204 55086 2//// 56900 58002 555 10130
AAXX 01121 80462 NIL
AAXX 01121 80402 NIL
AAXX 01121 80412 NIL
AAXX 01121 80416 NIL
AAXX 01121 80420 NIL
AAXX 01121 80425 32470 40503 10256 20190 30968 40129 84400 333 20254 30/// 50274 55057 21027 56900 58004 84613 555 10130
AAXX 01121 80426 32960 23103 10194 20155 39503 40152 80008 333 20194 30/// 5///4 55039 21134 56009 58008 555 10178
AAXX 01121 80427 32970 03403 10211 20184 39891 40147 333 20208 30/// 50404 55018 21559 58001 5//// 555 10160
AAXX 01121 80431 32970 2//// 10190 20182 39647 40129 80008 333 20170 30/// 50274 55064 21022 56009 58005 555 10149
AAXX 01121 80434 NIL
AAXX 01121 80437 NIL
AAXX 01121 80440 32570 30902 10228 20193 39922 40133 81530 333 20225 30/// 50424 55028 21201 56990 59014 81620 555 10142
AAXX 01121 80442 NIL
AAXX 01121 80472 32465 63602 10212 20191 39658 40141 83208 333 20197 30/// 50614 55069 21661 56209 59004 83816 555 10160
AAXX 01121 80475 32460 40000 10205 20203 39779 40148 84500 333 20195 30/// 5///4 55071 2//// 56900 59016 84617 555 10161
AAXX 01121 80476 32370 1//// 10236 20206 30106 40136 81500 333 20231 30/// 50674 55086 21676 56900 58004 81610
AAXX 01121 80478 NIL
AAXX 01121 80479 NIL
AAXX 01121 38611 41694 30002 11026 21026 39663 40255 57003 71042 83300 555 11005
AAXX 01121 01026 41589 71909 11001 21059 39810 49951 57005 70232 81548 333 4/021 91119
AAXX 01124 85104 12565 70000 10250 20240 39942 40102 52012 60024 82530 333 20225 31/// 55045 56770 58002 70022 82620 87358
AAXX 01123 91802 NIL
AAXX 01123 91809 NIL
AAXX 01123 91831 36/// /1003 10245 20231 40115 5////
AAXX 01123 91841 16/// /0000 10240 20222 40099 57014 69921 333 10278
AAXX 01123 91843 31498 51301 10244 20222 40108 58014 60001 70222 852// 333 10270 563// 85816
AAXX 01123 91848 36/// /1907 10235 20227 49899 57015 333 10281
AAXX 01124 16459 12984 00000 10168 20009 30192 40227 58012 60001
AAXX 01121 01311 47459 81703 10058 20052 39825 49885 55005 782// 333 91112
AAXX 01124 60621 36/// /0611 10181 21051
AAXX 01121 89064 16/// /1202 10030 29085 49916 57001 69914 333 20008
AAXX 01124 60619 36/// /0615 10147 21039
AAXX 01124 89002 42298 70611 11021 21035 39889 49943 57003 876// 333 11014 21023
BBXX 61002 01124 99421 10047 46/// ///15 10139 2//// 40236 57010 22200 00133 10503 70016
AAXX 01124 65501 31958 70202 10285 21011 39832 40148 70622 80002 333 0//00 59007 87076
AAXX 01124 65502 32965 53606 10287 21084 39764 40143 80002 333 0//00 59009 85076
AAXX 01124 65503 32960 70612 10299 20034 39796 40139 81032 333 0//00 59010 81363 87076
AAXX 01124 65505 32965 70408 10295 21089 39802 40141 80002 333 0//00 59014 87076
AAXX 01124 65507 32960 70804 10309 20008 39785 40132 80002 333 0//00 59003 87076
AAXX 01124 65510 32960 50410 10279 21028 39623 40139 80002 333 0//00 59007 85076
AAXX 01124 65516 32965 60406 10306 21078 39825 40130 80002 333 0//00 59015 86076
AAXX 01124 65518 32965 70404 10312 21069 39761 40121 80002 333 0//00 59008 87076
AAXX 01124 65522 32960 70808 10307 21061 39798 40125 80002 333 0//00 0//00 59013 87076
AAXX 01124 60667 36/// /0000 10130 21047
AAXX 01124 60692 36/// /0417 10218 21062
AAXX 01124 60645 36/// /0000 10182 21019
AAXX 01124 60663 36/// /1603 10158 21091
AAXX 01124 04005 41457 80216 11028 21055 49647 52019 78582 8582/ 555 3/317
AAXX 01124 60612 36/// /0719 10156 21071
BBXX 44139 01121 99442 70571 46/// /1911 10107 49946 57049 22200 00045 10806 70029 333 91213
AAXX 01121 34523 /1496 81103 10016 20011 30051 40128 57009 76162 8772/ 555 69901
AAXX 01121 01025 17/82 01912 10002 21066 39944 49955 55007 6//// 700// 333 91119
AAXX 01121 01441 16/// /1705 10003 21018 38937 49908 55010 60051 333 91109
AAXX 01121 01257 11375 82501 10011 21004 39730 49890 56010 60041 70222 8377/ 333 91106
AAXX 01121 01424 11460 8//// 10014 20006 39910 49914 56012 60071 76162 887//
BBXX 44139 01121 99442 70571 46/// /1911 10107 49946 57049 22200 00045 10806 70029 333 91213
AAXX 01121 80402 NIL
AAXX 01121 80412 NIL
AAXX 01121 80416 NIL
AAXX 01121 80420 NIL
AAXX 01121 80425 32470 40503 10256 20190 30968 40129 84400 333 20254 30/// 50274 55057 21027 56900 58004 84613 555 10130
AAXX 01121 80426 32960 23103 10194 20155 39503 40152 80008 333 20194 30/// 5///4 55039 21134 56009 58008 555 10178
AAXX 01121 80427 32970 03403 10211 20184 39891 40147 333 20208 30/// 50404 55018 21559 58001 5//// 555 10160
AAXX 01121 80431 32970 2//// 10190 20182 39647 40129 80008 333 20170 30/// 50274 55064 21022 56009 58005 555 10149
AAXX 01121 80434 NIL
AAXX 01121 80437 NIL
AAXX 01121 80440 32570 30902 10228 20193 39922 40133 81530 333 20225 30/// 50424 55028 21201 56990 59014 81620 555 10142
AAXX 01121 80442 NIL
AAXX 01121 80472 32465 63602 10212 20191 39658 40141 83208 333 20197 30/// 50614 55069 21661 56209 59004 83816 555 10160
AAXX 01121 80475 32460 40000 10205 20203 39779 40148 84500 333 20195 30/// 5///4 55071 2//// 56900 59016 84617 555 10161
AAXX 01121 80476 32370 1//// 10236 20206 30106 40136 81500 333 20231 30/// 50674 55086 21676 56900 58004 81610
AAXX 01121 80478 NIL
AAXX 01121 80479 NIL
AAXX 01121 0000114801SMVN01 SVMR 011200
AAXX 01121 80400 NIL
AAXX 01121 80403 NIL
AAXX 01121 80405 NIL
AAXX 01121 80407 NIL
AAXX 01121 80410 NIL
AAXX 01121 80413 32470 10202 10202 20150 39663 40155 81600 333 20209 50304 55073 21592 56900 58001 555 10182
AAXX 01121 80415 NIL
AAXX 01121 80419 NIL
AAXX 01121 80421 NIL
AAXX 01121 80423 12470 5//// 10275 20198 30136 40153 69944 852// 333 20222 30/// 50304 55008 2//// 562// 58004 85810 555 10152
AAXX 01121 80428 32468 63401 10226 20204 39939 40124 60024 8257/ 333 20213 30/// 50204 55022 21323 5699/ 59007 82617 84357 555 10135
AAXX 01121 80432 NIL
AAXX 01121 80435 12470 20702 10250 20238 30060 40136 60014 82500 333 20231 30/// 50074 55055 2//// 56900 58002 82613 555 10134
AAXX 01121 80438 12970 30903 10139 20109 38542 48539 60024 81018 333 20137 30/// 50184 55096 21740 56099 58012 555 10228
AAXX 01121 80444 NIL
AAXX 01121 80447 32558 30000 10191 20188 39691 40116 82520 333 20191 30/// 50344 55095 21480 56990 58020 82620 555 10164
AAXX 01121 80448 12970 00000 10211 20211 3//// 4//// 60014 333 20205 30/// 5///4 55038 21382 5////
AAXX 01121 80450 32975 51103 10244 20225 30092 40148 80008 333 20236 30/// 5///4 55077 21655 56009 58013 555 10144
AAXX 01121 80453 NIL
AAXX 01121 80457 32970 2//// 10258 20188 30045 40130 82020 333 20252 30/// 51204 55086 2//// 56900 58002 555 10130
AAXX 01121 80462 NIL
AAXX 01121 0000055301SAVN20 SVMR 011200 METAR SVCR 011200Z NIL
AAXX 01121 METAR SVMC 011200Z NIL
AAXX 01121 METAR SVBM 011200Z 00000KT 9999 FEW016 20/19 Q1018 NOSIG
AAXX 01121 METAR SVBS 011200Z 02004KT 9999 FEW016 20/15 Q1018
AAXX 01121 METAR SVMI 011200Z NIL
AAXX 01121 METAR SVFM 011200Z NIL
AAXX 01121 METAR SVBC 011200Z NIL
AAXX 01121 METAR SVCU 011200Z NIL
AAXX 01121 METAR SVMG 011200Z NIL
AAXX 01121 METAR SVAC 011200Z NIL
AAXX 01121 METAR SVMT 011200Z 07003KT 9999 FEW013 25/24 Q1013
AAXX 01121 METAR SVBI 011200Z 09003KT 9999 FEW020 23/19 Q1014
AAXX 01121 METAR SVCB 011200Z NIL
AAXX 01121 METAR SVVA 011200Z 36003KT 9999 SCT016 21/19 Q1016
AAXX 01121 METAR SVSO 011200Z 00000KT 9999 SCT017 21/20 Q1016
AAXX 01121 0000060501SAVN21 SVMR 011200 METAR SVLO 011200Z NIL
AAXX 01121 METAR SVGI 011200Z NIL
AAXX 01121 METAR SVMN 011200Z NIL
AAXX 01121 METAR SVVL 011200Z NIL
AAXX 01121 METAR SVGU 011200Z 34002KT 9999 FEW017 SCT070 23/20 Q1013
AAXX 01121 METAR SVJM 011200Z /////KT CAVOK 19/18 Q1014
AAXX 01121 METAR SVCZ 011200Z NIL
AAXX 01121 METAR SVVP 011200Z NIL
AAXX 01121 METAR SVVG 011200Z NIL
AAXX 01121 METAR SVMD 011200Z 09006KT CAVOK 14/11 Q1022
AAXX 01121 METAR SVCL 011200Z NIL
AAXX 01121 METAR SVSA 011200Z 00000KT 8000 VCBR FEW020 19/19 Q1016
AAXX 01121 METAR SVGD 011200Z 00000KT CAVOK 21/21 Q////
AAXX 01121 METAR SVSR 011200Z 11005KT CAVOK 24/23 Q1014
AAXX 01121 METAR SVTM 011200Z NIL
AAXX 01121 METAR SVPA 011200Z /////KT CAVOK 26/19 Q1013
AAXX 01121 METAR SVSE 011200Z NIL
AAXX 01121 0000099101SMVN20 SVMR 011200
AAXX 01121 80402 NIL
AAXX 01121 80412 NIL
AAXX 01121 80416 NIL
AAXX 01121 80420 NIL
AAXX 01121 80425 32470 40503 10256 20190 30968 40129 84400 333 20254 30/// 50274 55057 21027 56900 58004 84613 555 10130
AAXX 01121 80426 32960 23103 10194 20155 39503 40152 80008 333 20194 30/// 5///4 55039 21134 56009 58008 555 10178
AAXX 01121 80427 32970 03403 10211 20184 39891 40147 333 20208 30/// 50404 55018 21559 58001 5//// 555 10160
AAXX 01121 80431 32970 2//// 10190 20182 39647 40129 80008 333 20170 30/// 50274 55064 21022 56009 58005 555 10149
AAXX 01121 80434 NIL
AAXX 01121 80437 NIL
AAXX 01121 80440 32570 30902 10228 20193 39922 40133 81530 333 20225 30/// 50424 55028 21201 56990 59014 81620 555 10142
AAXX 01121 80442 NIL
AAXX 01121 80472 32465 63602 10212 20191 39658 40141 83208 333 20197 30/// 50614 55069 21661 56209 59004 83816 555 10160
AAXX 01121 80475 32460 40000 10205 20203 39779 40148 84500 333 20195 30/// 5///4 55071 2//// 56900 59016 84617 555 10161
AAXX 01121 80476 32370 1//// 10236 20206 30106 40136 81500 333 20231 30/// 50674 55086 21676 56900 58004 81610
AAXX 01121 80478 NIL
AAXX 01121 80479 NIL
AAXX 01124 78016 32464 12510 10205 20187 30222 40226 52017 81200 333 10224 20204 70015
AAXX 01121 48820 32797 80000 10161 20111 30193 40201 53009 885// 333 00016 10169 59023 70000 88697
AAXX 01121 48823 32697 83401 10164 20122 30196 40199 53009 885// 333 00017 10175 59017 70000 88696
AAXX 01124 41251 32/67 /1903 10169 20014 36180 47812 91229 333 59180
AAXX 01124 78016 32464 12510 10205 20187 30222 40226 52017 81200 333 10224 20204 70015
AAXX 01124 91753 04586 /0805 10274 20232 30055 40087 58007 60001 700// 333 60007 90710 91107 555 60005
AAXX 01124 91754 06/// /0304 10263 20232 30043 40084 58008 60001 333 10319 55087 2//// 58001 60007 555 60005
AAXX 01121 13492 ///// 0//// 10000
AAXX 01121 13584 NIL
AAXX 01121 13585 42998 00000 10020 21057 39428 40241 53003
AAXX 01121 13597 42998 ///// 10077 21053 30135 40208 58003
AAXX 01121 13598 42998 00202 10010 21071 48473 57005
AAXX 01121 37279 42998 60901 10164 20002 30977 40121 57011 80007
AAXX 01121 37308 42799 40000 10108 21033 39503 40142 57017 82031 555 11008
AAXX 01121 37531 42999 00000 10092 21025 39439 40154 57016
AAXX 01121 37553 42599 50000 10111 21047 39500 40135 57018 82530 555 10008
AAXX 01121 37651 16/// ///00 10115 21027 3//// 4//// 5//// 60001
AAXX 01121 37492 NIL
AAXX 01124 48430 31959 40000 10295 20197 30115 40122 52015 70510 82055 333 10329 59006
AAXX 01124 71015 16/// ///// 11101 60001 333 11010 21105 70003
AAXX 01124 71017 16/// /2814 11333 21368 30244 40260 51012 60001 333 11332 7////
AAXX 01124 71018 16/// ///12 11325 21358 30078 40170 53012 60001 333 11329 21340 70000
AAXX 01124 71019 46/// /3104 11050 21050 39844 40150 51019 6///1 333 11032 21059 7////
AAXX 01124 71020 46/// /1402 11279 21310 39982 40255 53021 6///1 333 11221 21287 4/010 7////
AAXX 01124 71021 46/// /0000 11323 21359 39908 40290 51017 6///1 333 11238 21326 4/006 7////
AAXX 01124 71250 17/// /1112 10002 21005 39977 40114 56038 60031 7//4/ 333 10005 21025 70034
AAXX 01124 71270 16/// /1608 10026 20001 39864 40083 58041 60001 333 10017 20008 70039
AAXX 01124 71288 16/// /3006 11372 21411 30248 40275 53010 60001 333 11348 21389 4/001 70000
AAXX 01124 71295 16/// /2910 11060 21083 39621 40069 53010 60001 333 11019 21062 4/028 55/// 20000 70028 555 10040
AAXX 01124 71296 16/// /1510 10023 20012 39787 40093 58037 60001 333 10006 20000 4/010 70058
AAXX 01124 71920 17/// /3219 10032 20029 30085 40091 53048 60011 7//4/ 333 10101 20032 70172
AAXX 01124 71450 16/// /3011 11108 21150 39587 40334 51034 60001 333 10003 21112 70000
AAXX 01124 71453 16/// /2604 11109 21149 39424 40377 51019 60001 333 10014 21119 55/// 20000 70000
AAXX 01124 71454 16/// /3007 11098 21123 39579 40294 53024 60001 333 11054 21113 55/// 20000 70006
AAXX 01124 71455 46/// /3116 11109 21149 39512 40341 51029 6///1 333 10000 21110 7////
AAXX 01124 71456 16/// /2910 11114 21132 39675 40294 51031 60001 333 11029 21117 70000
AAXX 01124 71465 46/// /1319 10055 20029 39845 40060 56053 6///1 333 10059 20040 7////
AAXX 01124 71470 16/// /3101 11341 21377 39608 40280 53019 60001 333 11258 21341 70000
AAXX 01124 71476 46/// /0628 30113 6///1 333 7////
AAXX 01124 71478 16/// /1431 10058 20022 39989 40125 56016 60001 333 10066 20047 70000
AAXX 01124 71479 16/// /1155 10055 20023 39994 40114 55007 60001 333 10065 7////
AAXX 01124 71480 16/// /1104 11312 21344 30131 40263 51003 60001 333 11318 21376 4/028 70000
AAXX 01124 71484 16/// /1641 10059 20014 30069 40087 58038 60001 333 10037 20010 70000
AAXX 01124 71487 16/// /3016 11098 21139 39432 40331 51029 60001 333 10013 21098 70000
AAXX 01124 71489 16/// /2808 11155 21187 39509 40353 51023 60001 333 11034 21155 70000
AAXX 01124 71492 46/// ///03 11279 21307 39487 40221 51012 6///1 333 11226 21294 4/012 7////
AAXX 01124 71837 16/// ///// 11076 60001 333 10005 21103 70003
AAXX 01124 71839 16/// ///// 11111 60001 333 10015 21124 70000
AAXX 01124 71912 11358 83311 11138 21162 39953 40140 53031 69961 77177 885// 333 11056 21139 47024 70030 90983 93104
AAXX 01124 71752 16/// /1508 10035 20014 39891 40108 58038 60001 333 10071 20026 4/003 70000
AAXX 01124 71758 17/// /3410 10038 20038 39902 49978 56025 60041 7//4/ 333 10057 20020 70107
AAXX 01124 71771 46/// /1540 10060 20050 30054 40075 56016 6///1 333 10060 20041 7////
AAXX 01124 71155 16/// ///// 11175 21216 60001 333 11034 21193 4/001 70000
AAXX 01124 71156 16/// /2803 11227 21254 39195 40350 50003 60001 333 11017 21234 4/017 70000
AAXX 01124 71157 46/// ///// 11138 21185 6///1 333 11030 21138 7////
AAXX 01124 71158 16/// /3217 11106 21121 39871 40152 53043 60001 333 11016 21106 70003
AAXX 01124 71159 17/// /0712 10013 21002 39964 40036 56036 60061 7//4/ 333 11002 21023 70100
AAXX 01124 71160 16/// /0000 11183 21208 30031 40255 52018 60001 333 11182 21203 4/040 70000
AAXX 01124 71162 16/// /0803 11145 21166 30033 40251 53031 60001 333 21156 70000
AAXX 01124 71164 46/// /0804 11344 21383 30181 40269 50006 6///1 333 21376 7////
AAXX 01124 71165 46/// ///00 11207 21230 39979 40277 53025 6///1 333 11188 21209 7////
AAXX 01124 71166 46/// /1102 11226 21246 39626 40264 52020 6///1 333 11099 21228 7////
AAXX 01124 71170 16/// /3216 11064 21107 60001 333 11010 21064 70000
AAXX 01124 71199 46/// /0000 11296 21328 39367 40261 56011 6///1 333 11256 21319 4/032 7////
AAXX 01124 71074 16/// ///02 11318 21350 30117 40199 53008 60001 333 11304 21329 4/009 7//// 555 10010
AAXX 01124 71087 46/// /0000 11242 21270 30067 40285 51027 6///1 333 11184 21255 7////
AAXX 01124 71851 16/// /3324 11054 21087 39843 40184 53041 60001 333 10024 21054 70000
AAXX 01124 71885 16/// ///// 11120 60001 333 10013 21146 7////
AAXX 01124 71552 46/// /3425 11074 21087 6///1 333 11001 21074 7////
AAXX 01124 71553 16/// /3219 11098 21124 60001 333 11022 21098 70000
AAXX 01124 71564 16/// /3313 11044 21059 39804 40178 53032 60001 333 10024 21045 70000
AAXX 01124 71571 16/// /2307 11093 21197 39061 40297 50012 60001 333 11070 21112 70000
AAXX 01124 71585 46/// /2504 11155 21169 39819 40302 51024 6///1 333 21166 4/020 7//// 555 10010
AAXX 01124 71599 16/// /3404 10014 20014 39889 40090 53039 60001 333 10077 20014 70141
AAXX 01124 71621 11436 80904 10009 20005 30033 40140 57028 60001 710// 885// 333 10011 20001 43002 70005
AAXX 01124 71300 16/// /1403 11028 21032 30031 40156 58017 60001 333 11021 21037 4/010 70007
AAXX 01124 71307 16/// /1515 10049 20027 39815 40064 56054 60001 333 10061 20025 4/001 70000
AAXX 01124 71311 16/// /3416 10003 21001 30048 40073 51030 60001 333 10067 20003 70124
AAXX 01124 71317 17/// /3314 10016 20008 39999 40045 53033 69931 7//4/ 333 10090 20016 70102
AAXX 01124 71334 46/// /3307 11214 21244 39873 40217 51027 6///1 333 11107 21216 7////
AAXX 01124 71501 16/// /0802 11362 21406 30206 40208 51003 60001 333 11257 21366 4/059 70003
AAXX 01124 71516 16/// /3019 11086 21140 60001 333 10024 21086 70000
AAXX 01124 71954 46/// /3307 11092 21112 39851 40239 51031 6///1 333 11043 21126 7////
AAXX 01124 71956 16/// /1613 10034 20022 39804 40035 56045 60001 333 10001 21042 4/004 70000
AAXX 01124 71959 17/// ///// 10044 20041 60081 7//4/ 333 10064 20039 70208
AAXX 01124 71970 16/// /2710 11131 21162 39706 40316 51023 60001 333 11033 21138 70000
AAXX 01124 71977 46/// /3001 11344 21344 39461 40222 53001 6///1 333 11278 21357 4/033 7////
AAXX 01124 71978 46/// /3603 11264 21290 39856 40188 53001 6///1 333 11246 21337 4/006 7////
AAXX 01124 71989 16/// /0504 11368 21406 30305 40323 51007 60001 333 21371 4/048 7////
AAXX 01124 71402 46/// /1108 11019 21026 30014 40130 56027 6///1 333 11031 21039 7////
AAXX 01124 71434 17/// /0203 11096 21107 39934 40000 56008 60011 7//4/ 333 11091 4/011 70023 555 10030
AAXX 01124 71442 16/// /3217 11085 21117 39852 40172 51046 60001 333 11004 21085 70000
AAXX 01124 71446 16/// /2910 11118 21159 39330 40350 51026 60001 333 10004 21118 70000
AAXX 01124 71110 17/// /0823 10021 20018 39974 40034 56057 60121 7//4/ 333 10020 20006 70119
AAXX 01124 71133 46/// /2609 11119 21160 39573 40305 51026 6///1 333 11031 21121 4/001 7////
AAXX 01124 71139 16/// /3005 11115 21176 38831 40349 51017 60001 333 11003 21118 70019
AAXX 01124 71141 16/// /3209 11350 21387 30193 40222 53001 60001 333 11347 21378 4/004 70000
AAXX 01124 71147 16/// /3316 11048 21079 60001 333 10022 21048 70000
AAXX 01124 71120 11974 02404 11144 21178 39641 40326 51012 60001 73600 333 11038 21145 44007 70002
AAXX 01124 71137 16/// /3210 11097 21141 39378 40359 51026 60001 333 11007 21109 70000
AAXX 01124 71807 17/// /1131 10015 20004 30048 40067 56056 60051 7//4/ 333 10011 21011 70050
AAXX 01124 71357 16/// /1907 11245 21276 30057 40064 58004 60001 333 11238 21299 4/070 70000
AAXX 01124 71362 16/// /2302 11246 21274 39990 40261 53026 60001 333 11150 21251 70000
AAXX 01124 71373 16/// /1001 11019 21032 60001 333 10045 21029 70000
AAXX 01124 71376 16/// /2002 11016 21017 39865 40161 50003 60001 333 11003 21016 70020
AAXX 01124 71382 16/// /1802 11047 21051 39197 40139 51002 60001 333 11028 21055 70020
AAXX 01124 71387 16/// /1501 11094 21106 39775 40164 56001 60001 333 11080 21121 70000
AAXX 01124 71389 46/// /1602 11040 21047 6///1 333 11021 21041 7////
AAXX 01124 71393 16/// ///// 11133 21160 39030 40361 58003 60001 333 10008 21151 70000
AAXX 01124 71243 46/// /2303 11127 21146 39252 40398 51004 6///1 333 10024 21144 7////
AAXX 01124 71246 16/// /1703 11222 21241 39621 40323 51018 60001 333 11063 21222 70018
AAXX 01124 71667 17/// /2911 11011 21039 39783 40028 55001 60021 7//4/ 333 10001 21023 4/018 70043 555 10040
AAXX 01124 71669 16/// /0000 11139 21163 38660 40349 58004 60001 333 11005 21170 70000
AAXX 01124 71435 16/// /2510 11054 21067 39446 40041 53004 60001 333 11030 21054 4/026 70041 555 10060
AAXX 01124 71472 17/// /1831 10074 20033 60011 7//4/ 333 10069 20046 70010
AAXX 01124 71510 16/// /2808 11143 21184 39606 40345 51032 60001 333 11032 21143 70000
AAXX 01124 71710 17/// /0320 10016 20011 30002 40011 53006 60011 7//4/ 333 10027 20016 70260
AAXX 01124 71736 46/// ///// 11126 21143 6///1 333 10000 21131 4/001 7////
AAXX 01124 71742 46/// /0915 11017 21020 39929 40117 56036 6///1 333 11032 21043 7////
AAXX 01124 71744 16/// /3308 11011 21032 30074 40115 53031 60001 333 10007 21011 4/003 70144 555 10020
AAXX 01124 71746 16/// /1512 10036 20019 39827 40046 56049 60001 333 10058 20021 70000
AAXX 01124 71747 46/// /3008 11036 21056 39585 40061 5/004 6///1 333 4/019 7//// 555 10040
AAXX 01124 78922 46/// /1013 10233 20216 30136 40181 53023
BBXX SHJC 01121 99131 10488 43/98 40906 10256 40160 56020 22254 00261 2//// 4////
BBXX SMGW 01121 99293 71163 43/95 83505 10139 40189 55006 22244 00167 2//// 4////
AAXX 01124 71912 11358 83311 11138 21162 39953 40140 53031 69961 77177 885// 333 11056 21139 47024 70030 90983 93104
AAXX 01124 71621 11436 80904 10009 20005 30033 40140 57028 60001 710// 885// 333 10011 20001 43002 70005
AAXX 01124 48350 32662 10000 10227 20179 39841 40144 52013 81100 333 10295 59012
AAXX 01124 71807 17/// /1131 10015 20004 30048 40067 56056 60051 7//4/ 333 10011 21011 70050
AAXX 01124 71435 16/// /2510 11054 21067 39446 40041 53004 60001 333 11030 21054 4/026 70041 555 10060
AAXX 01124 71472 17/// /1831 10074 20033 60011 7//4/ 333 10069 20046 70010
AAXX 01124 71510 16/// /2808 11143 21184 39606 40345 51032 60001 333 11032 21143 70000
AAXX 01124 71120 11974 02404 11144 21178 39641 40326 51012 60001 73600 333 11038 21145 44007 70002
AAXX 01124 71137 16/// /3210 11097 21141 39378 40359 51026 60001 333 11007 21109 70000
AAXX 01124 43400 NIL
AAXX 01124 43404 22470 2//// 10271 20237 30091 40101 82100 333 00018 10307 59006 60007 82818
AAXX 01124 43410 NIL
AAXX 01124 43413 22470 13205 10277 20235 30090 40094 81100 333 10295 59007 60007 81818
AAXX 01124 43415 22470 11402 10290 20250 39986 40094 81100 333 00015 10315 59005 60007 81818
AAXX 01124 43418 22970 21102 10266 20225 3//// 4//// 80002 333 10292 5//// 60007 82080
AAXX 01124 43421 22470 10000 10296 20216 39989 40091 81100 333 10320 59005 60007 81818
AAXX 01124 43422 22970 00000 10290 20202 39960 40090 333 00019 10324 59006 60007
AAXX 01124 43424 22978 03103 10284 20228 30075 40078 333 00021 10304 59010 60007
AAXX 01124 43436 22970 00202 10270 20226 30087 40090 333 00017 10295 59006 60007
AAXX 01124 43441 22970 00000 10295 20203 39950 40079 333 10322 59003 60007
AAXX 01124 43444 22470 13503 10270 20175 39555 40088 81100 333 10300 59007 60007 81820
AAXX 01124 43467 22966 02306 10290 20202 30085 40090 333 10306 59002 60007
AAXX 01124 43473 22470 11401 10171 20114 38125 48485 81100 333 00000 10218 59003 60007 81814
AAXX 01124 43475 22970 00502 10282 20187 30086 40094 333 10299 59001 60007
AAXX 01124 43476 22970 00906 10200 20111 38765 48510 333 10248 59004 60007
AAXX 01124 43479 22970 10503 10230 20151 39254 80001 333 10273 59004 60007 81080
AAXX 01124 43486 22970 02702 10300 20203 39991 40085 333 00018 10342 59002 60007
AAXX 01124 43495 22970 0//// 10282 20221 30080 40096 333 10298 59004 60007
AAXX 01124 43497 22976 01802 10283 20213 30069 40086 333 10308 59005 60007
AAXX 01124 91643 11498 80000 10260 20249 4//// 60110 78086 84370 333 10307 5619/
AAXX 01124 91631 11498 80000 10260 20249 4//// 60110 78086 84370 333 10307 5619/
AAXX 01064 91631 11498 70910 10276 20251 4//// 60001 70522 83370 333 5629/
AAXX 01121 48855 01597 83202 10197 20192 30176 40184 52013 60034 76066 888// 333 01021 10217 59012 60022 7003 3 83895 88697 96160
AAXX 01121 48848 02597 83202 10181 20163 30186 40194 52007 69994 888// 333 01018 10195 59014 69902 70009 8389 5 88697
AAXX 01121 48840 32498 80502 10172 20140 30183 40189 52006 888// 333 00018 10190 59028 70000 83894 88696
AAXX 01121 48917 32598 60902 10280 20246 30126 40132 52006 862// 222// 00291 2//00 333 00029 10317 59002 7000 0 86895
AAXX 01121 48918 32498 70505 10250 20228 30117 40128 52008 84208 222// 00259 2//02 333 00025 10278 59004 7000 0 82894 87299
AAXX 01121 48914 32598 70903 10265 20228 30118 40120 52019 82208 333 00027 10300 59005 70000 82895 87299
AAXX 01121 48900 32497 41205 10272 20223 30108 40118 52015 84800 333 10322 59008 81894 83696
AAXX 01124 78397 111570 13005 10254 20224 30154 40170 60001 70500 81800 333 01000 10324 20243 58000 81824
AAXX 01121 48852 01497 82701 10185 20182 30176 40186 52010 60154 76166 888// 333 01019 10193 59016 60032 7015 1 86894 88697 96160
AAXX 01121 48845 02798 70000 10170 20157 30188 40195 53002 69964 875// 333 01017 10174 59022 69922 70006 8769 7
AAXX 01121 48916 12698 70903 10273 20234 30065 40112 53010 69934 875// 333 00/// 10284 59014 70003 87696
AAXX 01121 48919 32498 70709 10265 20242 30100 40124 52018 82808 22200 02266 2//04 333 40270 59005 70000 8189 4 87299
AAXX 01124 78397 111570 13005 10254 20224 30154 40170 60001 70500 81800 333 01000 10324 20243 58000 81824
AAXX 01124 61974 11465 52403 10302 20245 40088 60001 71522 84343 333 59013 81917 83818 94329
AAXX 01124 61986 12580 11203 10298 20241 40088 60001 81200 333 59011 81820 94329
AAXX 01124 61988 12480 31210 10294 20221 40094 60001 83240 333 59014 83818 91123
AAXX 01124 61989 12480 31311 10293 20227 40102 60001 83840 333 59014 83818
AAXX 01124 61990 12475 31307 10292 20222 40104 60001 83800 333 59004 83818 94329
AAXX 01124 61995 11465 72804 10255 20218 39629 60071 71582 87800 333 0//22 59008 86815 84650 91114 94329
AAXX 01120 44203 329// 00000 11329 21351 38524 40632 52005 333 11310
AAXX 01120 44207 329// 31802 11229 21269 38411 40516 53002 83080 333 11194
AAXX 01120 44212 32999 01805 11340 21368 39342 40666 52005 333 11256
AAXX 01120 44213 32999 00000 11329 21359 38956 40672 52003 333 11244
AAXX 01120 44215 32998 00000 11253 21291 38539 40583 57003 333 11152
AAXX 01120 44218 329// 02101 11223 21255 38748 40563 52012 333 11125
AAXX 01120 44225 329// 00000 11326 21342 38397 40697 53008 333 11273
AAXX 01120 44230 129// 60104 11191 21230 38809 40520 52007 69932 84048 333 11098 555 93100
AAXX 01120 44232 329// 00000 11221 21247 39231 40482 52008 333 11157
AAXX 01120 44237 32999 00000 11193 21242 38581 40468 53012 333 11107
AAXX 01120 44239 329// 50101 11188 21229 38900 40450 52008 80006 333 11114
AAXX 01120 44241 329// 50000 11241 21266 39379 40467 52006 85080 333 11176
AAXX 01120 44256 115// 80000 11190 21209 39399 40327 58005 69902 77072 8652/ 333 11165
AAXX 01120 44265 329// 00502 11217 21242 38986 40540 56003 333 11127
AAXX 01120 44272 319// 01601 11287 21318 38327 40596 52004 77800 333 11198
AAXX 01120 44275 32998 03201 11207 21240 37790 40496 53011 333 11143
AAXX 01120 44282 11999 03206 11152 21258 38382 40448 52004 69902 70270 333 11117
AAXX 01120 44284 32899 20503 11255 21306 37915 40606 52012 82040 333 11121
AAXX 01120 44285 32999 01103 11186 21200 38405 40487 51010 333 11132
AAXX 01120 44287 118// 40402 11172 21220 38195 40503 52017 69902 70131 84030 333 11102
AAXX 01120 44294 129// 00207 11192 21228 38618 40445 52017 69962 333 11141 555 93101
AAXX 01120 44298 118// 33602 11195 21207 38758 40391 52022 69902 70172 83040 333 11130
AAXX 01120 44302 NIL
AAXX 01120 44305 119// 83202 11178 21202 39079 40320 56008 69922 77172 8802/ 333 11168 555 93100
AAXX 01120 44313 32999 60000 11256 21288 39461 40397 57013 83054 333 11204
AAXX 01120 44314 32998 70000 11163 21197 39176 40355 57009 87010 333 11129
AAXX 01120 44317 329// 82702 11160 21211 38965 40326 57012 8807/ 333 11091
AAXX 01120 44336 329// 23605 11160 21198 38788 40471 52018 80004 333 11087
AAXX 01120 44341 119// 23512 11159 21191 38657 40415 53015 69992 70131 82034 333 11126 555 93100
AAXX 01120 44347 119// 43608 11140 21167 38792 40404 52019 69922 70273 81048 333 11108 555 93100
AAXX 01120 44352 119// 80000 11174 21193 38929 40318 58011 69902 77072 8802/ 333 11117 555 93100
AAXX 01120 44358 119// 71401 11177 21189 39106 40348 57011 69922 72272 85048 333 11176 555 93100
AAXX 01120 44214 32998 03303 11217 21266 38395 40581 53006 333 11110
AAXX 01120 44231 319// 20000 11192 21260 38846 40537 53009 70410 80001 333 11141
AAXX 01120 44259 32997 73001 11161 21195 39349 40315 56005 87070 333 11131
AAXX 01120 44277 329// 21803 11231 21263 37885 40631 52006 81017 333 11162
AAXX 01120 44288 32699 23206 11161 21206 38236 40478 52016 82040 333 11131
AAXX 01120 44292 11899 33203 11166 21192 38782 40427 52016 69902 70270 83080 333 11116 555 93100
AAXX 01120 44304 NIL
AAXX 01120 44354 119// 62905 11169 21195 39130 40330 52006 69942 73672 86070 333 11140
AAXX 01120 44373 115// 83408 11122 21139 38617 40406 53020 77173 69922 8824/ 333 11090 96038
AAXX 01121 06447 16/// /2307 10126 20109 39982 40104 58014 69911 333 91113 91208
AAXX 01124 85782 11140 89902 10126 20126 40231 52005 60004 886// 333 20062 30/// 56099 70000 88703
AAXX 01121 06431 16/// /2204 10120 20116 30085 40096 58010 60021 333 91111 91206
AAXX 01124 04211 47/56 /3010 11219 21238 39861 40032 52009 72277
AAXX 01124 04220 07550 82712 11132 21152 39962 40016 52011 60031 77777 333 55300 20004 69997 81/21 83/27 87/31 88/36 91126
AAXX 01124 04221 47/// /0806 11178 21244 39975 40015 52016 772//
AAXX 01124 04231 12984 10707 11266 21304 39981 40061 52010 69901 81500 333 81650
AAXX 01124 04234 45573 10406 11185 21252 30033 40044 52004 333 81/29
AAXX 01124 04241 47584 30906 11154 21212 39988 40030 52007 70088 333 81/28 83/32
AAXX 01124 04250 07584 50114 11134 21174 39908 40018 52003 69901 70087 333 55300 20000 6///7 81/21 83/43 85/69
AAXX 01124 04254 45584 70312 11140 21199 39905 40024 52005 333 85/23 87/40
AAXX 01124 04260 45983 30510 11133 21264 39958 40004 52005 333 83/70
AAXX 01124 04270 45/84 /2405 11173 21265 39874 49915 52007
AAXX 01124 04272 07/02 0//// 11131 21202 39854 49929 57004 69941 77387 333 69947
AAXX 01124 04312 46/// /2004 11288 21327 30038 40081 52013
AAXX 01124 04320 47/// /3041 11180 21201 39835 49851 54000 773// 333 55300 91160 91248 91051
AAXX 01124 04339 47/13 ///// 11124 21132 39632 49723 57012 77177 333 55300 20000
AAXX 01124 04360 06/// /3302 11062 21100 39603 49672 52008 6///1 333 55300 20000 6///7
AAXX 01124 04361 467// 82203 11064 21095 39623 49675 52008 333 88/50
AAXX 01124 04390 07/57 02825 11081 21171 39688 49781 52010 60061 77787 333 60027 91037 91156 91239
AAXX 01121 40706 11410 82502 10038 20014 38629 40183 57012 60001 71022 8572/ 333 82710 84630 88458
AAXX 01121 40718 12560 33603 10114 20086 30182 40154 55004 60001 83500 222// 00118 20301 333 83630
AAXX 01121 40732 12460 61104 10126 20099 30172 40148 54000 60001 83770 333 83715 86360
AAXX 01121 40745 12965 31102 10142 21121 38996 40148 57012 60001 83040 333 83359
AAXX 01121 40754 11520 82504 10050 20029 38815 40181 55013 60021 78086 8532/ 333 81725 82930 83635 88459
AAXX 01121 40766 12660 70703 10085 20012 38690 40169 57013 60001 84370 333 81935 83640 87359
AAXX 01121 40800 12660 42807 10108 21006 38441 40160 57018 60001 83550 333 83640 84360
AAXX 01121 40811 11540 71604 10212 20082 30114 40141 56026 69911 70522 85370 333 82930 83631 87358
AAXX 01121 40841 12660 52806 10190 21001 38246 40157 55014 60001 82370 333 81940 81645 84360
AAXX 01121 40848 12665 42702 10186 21138 38523 40160 56020 60001 81130 333 81845 83359
AAXX 01121 40856 12662 11107 10139 21166 38633 40186 56011 60001 81100 333 81840
AAXX 01121 40875 12960 02005 10232 20023 30156 40168 56016 60001 333
AAXX 01124 48433 31558 40000 10261 20200 39974 40140 52020 71011 82545 333 10318 59005
AAXX 01124 47401 11/65 73615 11009 21055 30155 40170 58003 69902 72682 872// 333 10011
AAXX 01124 47412 11/20 81305 10003 21010 30122 40155 58012 69952 78572 883// 333 10027
AAXX 01124 47420 15/70 /1409 10019 21017 30152 40186 58017 60002 333 10020
AAXX 01124 47426 17/16 /0607 10000 21010 30105 40154 58023 69902 76776 333 10027
AAXX 01124 47582 11/58 81207 10020 20005 30114 40141 56011 60022 78087 883// 333 10031
AAXX 01124 47590 12/70 53208 10023 21017 30096 40151 58016 60002 85500 333 10060
AAXX 01124 47600 17/56 /1703 10033 20024 30141 40149 58015 60262 76166 333 10070
AAXX 01124 47648 12/65 73005 10056 20008 30117 40152 58016 69902 81130 333 10121
AAXX 01124 47662 11/70 20402 10070 21035 30105 40150 58018 69902 72511 81230 333 10092
AAXX 01124 47678 15/70 /1905 10125 20082 39964 40151 58017 60002 333 10155
AAXX 01124 47740 17/61 /2809 10067 21007 30108 40143 58019 60032 70085 333 10089
AAXX 01124 47778 17/62 /0106 10094 20072 30075 40159 58010 69952 76160 333 10115
AAXX 01124 47807 11/58 72910 10087 20009 30177 40195 57005 69902 72582 872// 333 10095
AAXX 01124 47827 11/57 82703 10084 20050 30166 40205 50002 69902 78081 882// 333 10152
AAXX 01124 47843 17/65 /3113 10085 20007 30188 40221 52007 60042 70086 333 10099
AAXX 01124 47893 12/65 12805 10088 21002 30164 40170 58004 60002 81100 333 10153
AAXX 01124 47909 11/60 73510 10160 20072 30196 40206 51009 69902 72582 872// 333 10172
AAXX 01124 47918 11/60 50111 10174 20093 30216 40234 53018 69902 70261 85800 333 10200
AAXX 01124 47936 11/60 63514 10166 20070 30163 40223 51014 69902 70282 86800 333 10188
AAXX 01124 47945 11/65 73413 10190 20108 30166 40190 51017 69902 70262 8783/ 333 10204
AAXX 01124 47971 11/70 71606 10201 20129 30148 40158 58009 69902 72511 872// 333 10204
AAXX 01124 47991 16/// /0610 10225 20204 30149 40159 56001 69902 333 10249
AAXX 01124 88963 01230 40000 10038 20001 39870 49899 52005 69904 71071 81741 333 10038 21010 45999 56577 57312 69901 81706 90050 90080 92405 94079 95009
AAXX 01124 88968 01358 63216 10008 21012 39910 49925 52027 60054 72052 886// 333 10014 20002 44002 56799 69901 88708 90122 90268 90292 90931 92426 92731 92821 94070 95090 96010
AAXX 01124 89034 01258 80508 11030 21047 39622 49939 52003 69904 71072 886// 333 11030 21056 56199 69901 88705 90025 92840
AAXX 01124 89055 01106 80000 11002 21002 39664 49907 52009 69904 77072 886// 333 10002 21027 56199 69901 88702 90004 90091 90205 90276 92730 92840 95136 96010
AAXX 01124 89066 32570 80000 10016 21061 39878 49887 51009 886// 333 10042 20011 56199 88730 92407 94070
AAXX 01124 47407 11/60 72603 11049 21066 39990 40170 56014 69902 78582 8527/ 333 11038
AAXX 01124 47409 11/60 71806 11007 21029 30119 40174 57014 69902 78522 872// 333 10009
AAXX 01124 47418 11/70 81711 10022 21021 30130 40180 56013 69902 78582 882// 333 10029
AAXX 01124 47421 17/23 /1903 10000 21014 30100 40144 58015 69902 76776 333 10023
AAXX 01124 47430 11/60 80807 10019 20003 30067 40122 56029 60012 78382 882// 333 10039
AAXX 01124 47570 17/50 /1602 11045 21053 39899 40170 58016 60002 71000 333 10021
AAXX 01124 47575 11/60 22601 10004 21015 30113 40118 58016 69902 72681 82200 333 10035
AAXX 01124 47584 11/58 81707 10004 20003 39959 40153 58017 60032 78572 883// 333 10004
AAXX 01124 47604 11/60 81703 10043 20028 30143 40152 58013 60022 78088 882// 333 10060
AAXX 01124 47605 11/58 70804 10049 20037 30098 40140 58024 60102 72988 873// 333 10105
AAXX 01124 47610 12970 02801 10000 21041 39644 40160 58011 60002 333 10067
AAXX 01124 47624 12/70 13205 10025 21045 30011 40153 58018 60002 81500 333 10095
AAXX 01124 47629 12965 12502 10025 20004 30111 40150 58015 69902 81030 333 10086
AAXX 01124 47636 12/65 70802 10046 21029 30096 40166 58014 60002 8713/ 333 10079
AAXX 01124 47651 12/70 62702 10025 21001 30142 40165 58014 60002 81130 333 10069
AAXX 01124 47655 17/70 /2805 10082 20002 30099 40156 57015 69902 72360 333 10120
AAXX 01124 47675 15/70 /2409 10114 20027 30056 40147 58020 60002 333 10135
AAXX 01124 47741 11/60 82104 10040 20022 30129 40157 58018 60012 78082 882// 333 10076
AAXX 01124 47746 12/70 80903 10039 20019 30139 40159 58015 69902 8627/ 333 10084
AAXX 01124 47750 11/75 80602 10056 20033 30128 40156 58012 69902 72522 882// 333 10119
AAXX 01124 47765 11/70 72507 10074 21005 30109 40175 58010 69902 70282 872// 333 10096
AAXX 01124 47772 11/70 82505 10096 20031 30061 40162 58013 69902 78081 882// 333 10115
AAXX 01124 47800 15/73 /3216 10047 21028 30201 40206 53009 60002 333 10084
AAXX 01124 47815 12/60 72106 10070 20002 30171 40188 58013 69902 872// 333 10112
AAXX 01124 47817 11/60 83114 10090 20021 30164 40208 52001 69902 78082 882// 333 10104
AAXX 01124 47830 11/56 62508 10076 20019 30174 40193 50000 60002 70511 86070 333 10151
AAXX 01124 47887 11/60 81903 10079 21016 30135 40177 58016 60012 70282 882// 333 10092
AAXX 01124 47891 11/65 72406 10085 20021 30152 40169 58009 69902 72582 872// 333 10112
AAXX 01124 47895 12/70 62812 10092 20006 30156 40164 58010 60002 86200 333 10121
AAXX 01124 47927 12/60 50111 10169 20093 30185 40235 51019 60002 85800 333 10193
AAXX 01121 33663 32598 33101 10034 21001 30105 40203 52002 83300
AAXX 01121 50953 32965 01601 11190 21225 30144 40342 54000
AAXX 01121 53463 32960 70201 11054 21149 39019 40337 57006 85032 333 05302
AAXX 01121 54471 32960 00703 11114 21186 30345 40351 52001
AAXX 01121 51288 32980 00903 11153 21227 38432 57006 333 05400
AAXX 01121 52866 32970 01802 11059 21173 37732 52022 333 00000
AAXX 01121 54497 32962 03604 11101 21193 30289 40306 52009
AAXX 01121 53513 32970 12205 11054 21172 39065 40371 52015 80002 333 05104
AAXX 01121 54337 32960 00401 11094 21186 30259 40349 57007
AAXX 01121 54823 31920 01401 11026 21056 30111 40331 57002 71000
AAXX 01124 40100 12557 82012 10160 20072 30097 40129 56013 60001 8597/ 912// 333 81920 84826 83358 91135 92436
AAXX 01124 40101 11556 82206 10070 20046 39067 48466 56012 69921 76062 882// 912// 333 88826
AAXX 01124 40103 32458 82010 10161 20060 40125 57020 889// 333 81917 82224 85640 555 10184
AAXX 01124 40102 NIL
AAXX 01121 51133 32980 00201 11075 21154 39674 40368 57011 333 06252
AAXX 01121 53564 32965 00000 11081 21133 39261 40357 52003 333 05302
AAXX 01121 53614 31956 21601 11054 21100 39003 40376 52006 71000 80002 333 00052
AAXX 01121 53959 31956 40201 11012 21036 39864 40330 52013 71000 80002
AAXX 01121 57127 32960 82002 10064 20027 39672 40295 52015 8807/
AAXX 01121 57131 31915 71802 10006 21008 39825 40345 52018 71040 8703/
AAXX 01121 57494 32965 20404 10033 20012 30263 40294 52011 82030
AAXX 01121 58362 32568 10203 10048 21014 30300 40308 52009 81100
AAXX 01121 52203 32980 00000 11103 21164 39476 40428 52009 333 00053
AAXX 01121 53798 31930 70000 11035 21052 30235 40337 57006 71000 8703/
AAXX 01121 54423 32975 73601 11080 21171 39794 40345 57006 80002
AAXX 01121 54618 32962 41101 11029 21092 30316 40335 52002 80002
AAXX 01121 54218 32965 31801 11116 21197 39497 40366 57010 80002
BBXX DGZS2 01123 99023 11049 41/98 50316 10265 20251 40100 52005 70222 8//// 22254 00270 2//// 80255
AAXX 01121 51076 32980 00202 11169 21200 39505 40488 57009 333 05354
AAXX 01121 54401 32970 50403 11089 21172 39354 40337 57003 80002
BBXX A8VL5 01124 99514 10027 41/97 /2225 10120 20102 40191 55009 7//// 8/7// 22200 00120 2//04 80110
BBXX A8IM7 01124 99342 71262 41/98 /0304 10140 20105 40210 58020 70322 8//// 22224 20204 3//// 4//// 5//// 80120
BBXX A8FA5 01123 99281 70154 41598 60508 10220 20131 40320 5/000 7//22 8446/ 22200 20202 304// 40501 5//// 80165
AAXX 01124 08171 12465 11001 10114 20067 30024 40265 58014 60001 81600
BBXX A8KM9 01124 99271 71724 41/98 12118 10235 20189 40159 56011 72581 8//// 22264 20403 80204
AAXX 01121 08501 NIL
AAXX 01121 08505 11470 31603 10178 20121 30279 40329 52016 69921 70181 82842 333 81818
AAXX 01121 08509 11560 43105 10162 20133 30259 40324 52012 60021 70181 82850 333 81830 91110
AAXX 01121 08512 NIL
AAXX 01121 08515 42275 62905 10184 20164 30208 40331 51010 86800 222// 00173 333 81705 83812 910// 911//
AAXX 01121 08533 32/// /3503 10158 20103 30279 40308 57002 333 91106
AAXX 01121 08541 32/// /3103 10144 20088 30186 40306 57003 333 91106
AAXX 01121 08545 11562 71804 10128 20091 30198 40282 57003 69951 70265 87802 222// 00145 333 81820 86635 91007 91107
AAXX 01121 08548 32/// /9903 10132 20090 30086 40292 57002
AAXX 01121 08554 32/// /2302 10158 20105 30295 40305 57005
AAXX 01121 08558 32/// /2402 10113 20113 30004 40302 54000
AAXX 01121 08560 32/// /9903 10096 20066 39522 40286 57007 333 91105
AAXX 01121 08567 32/// /2003 10111 20070 39609 40276 57008 333 91106
AAXX 01121 08570 32/// /1302 10082 20063 39829 40297 57003
AAXX 01121 08575 NIL
AAXX 01121 08579 32/// /2402 10141 20085 30176 40301 57002
AAXX 01121 34523 /1496 81103 10016 20011 30051 40128 57009 76162 8772/ 555 69901
AAXX 01121 54843 32972 00401 11035 21076 30317 40346 52007
AAXX 01121 54909 31959 52501 11014 21028 30267 40334 52011 71000 85030
AAXX 01121 56029 32980 53201 10009 21164 36432 54000 80002 333 05306
AAXX 01121 50788 32970 02001 11244 21276 30207 40304 57003
AAXX 01121 54161 32960 03601 11175 21229 30031 40356 52002
AAXX 01121 54374 32662 22501 11156 21202 39835 40338 52015 82400
AAXX 01121 57516 31720 83201 10083 20049 39949 40268 52013 71000 885// 333 05151
AAXX 01121 58238 31956 30201 10032 21023 30274 40320 52011 70500 80002
AAXX 01121 58251 31950 03603 10004 21041 30315 40320 52008 70500
AAXX 01121 58606 31950 00904 10082 20033 30215 40275 52004 71000
AAXX 01121 58752 31956 30701 10088 20048 30240 40287 52013 70500 83030
AAXX 01121 59758 32465 70904 10181 20152 30128 40205 52014 878//
AAXX 01121 50745 32965 02002 11157 21211 30132 40337 57006
AAXX 01121 54094 31958 00901 11194 21233 39995 40329 52011 70400
AAXX 01121 57816 31659 80904 10052 20000 38828 40246 52009 71000 885// 333 05152
AAXX 01121 58102 31950 63603 11003 21016 30282 40333 52003 71000 80001
AAXX 01121 50136 32970 30000 11309 21346 39744 40363 57003 80002
AAXX 01121 50774 31958 00000 11268 21292 39998 40348 52003 70400
AAXX 01121 53646 32970 22702 11047 21105 38930 40361 52004 80002 333 05151
AAXX 01121 53845 32965 03601 11018 21116 39166 40352 52017 333 00000
AAXX 01121 54102 32980 01402 11176 21221 39071 40386 57017
AAXX 01121 58040 31956 00402 11022 21077 30312 40326 52005 70500
AAXX 01121 58221 31930 60701 10030 21005 30298 40328 52015 71000 86040
AAXX 01121 58847 31659 10403 10104 20043 30168 40273 52023 71000 81500
AAXX 01121 59134 32962 60902 10118 20023 30078 40249 52020 86040
AAXX 01121 59431 32561 73601 10139 20072 30083 40232 52017 878//
AAXX 01121 59644 32760 73603 10161 20093 30195 40212 52013 875//
AAXX 01121 52533 32980 00000 11081 21162 38639 40450 52007 333 00252
AAXX 01121 52652 32980 02001 11119 21195 38653 40460 52004 333 00356
AAXX 01121 52983 32962 02702 11072 21154 38179 52019 333 00251
AAXX 01121 53915 32980 13202 11014 21156 38750 40359 52021 80002 333 00201
AAXX 01121 56080 32970 03402 11071 21146 37155 52022 333 05153
AAXX 01121 56096 32968 20201 10064 21041 39003 40280 52021 80002 333 00001
AAXX 01121 56187 11920 83201 10054 20036 39621 40287 52017 69911 76066 8807/ 333 00052
AAXX 01121 57461 31950 80902 10086 20046 30135 40303 52012 71000 8807/
AAXX 01121 58457 31950 03202 10047 21022 30257 40312 52007 71000
AAXX 01121 59316 32960 60703 10147 20095 30228 40233 52017 86040
AAXX 01121 57687 31720 82502 10060 20043 30198 40285 52006 71000 885//
AAXX 01121 58150 31550 73403 10018 21049 30328 40332 52011 70500 875//
AAXX 01121 59117 32968 02201 10121 20082 30127 40235 52014
AAXX 01121 53588 32980 02509 11119 21209 37796 57005
AAXX 01121 53772 31950 00000 11036 21104 39363 40338 52005 70400
AAXX 01121 54342 32960 01101 11173 21205 30283 40351 57004
AAXX 01121 54511 32970 52001 11023 21144 30281 40323 57002 80002
AAXX 01121 57083 31/09 90000 11006 21026 30196 40340 52001 74544
AAXX 01121 54292 32970 22904 11134 21207 39961 40307 52015 80002
AAXX 01121 52418 32980 00000 11070 21159 39012 40419 57001 333 00053
AAXX 01121 52681 32980 02903 11066 21160 38745 40423 52012 333 00353
AAXX 01121 56778 32970 02203 10143 20037 38106 52013 333 05202
AAXX 01121 57265 31950 80203 10034 20011 30206 40322 52020 71000 8807/
AAXX 01121 59287 32663 73604 10152 20082 30138 40225 52015 875//
AAXX 01121 40703 12960 60000 10066 20004 38895 40175 56015 60001 80006 333 86269
AAXX 01121 40712 11540 70203 10048 20010 38657 40178 55009 60001 70522 84306 333 81930 83635 87268
AAXX 01121 40729 11460 80000 10020 20006 38318 40182 56007 60021 70272 8462/ 333 82715 84635 88458
AAXX 01121 40736 12960 53402 10120 20083 30176 40150 57006 60001 85070 333 85359
AAXX 01121 40739 12665 32405 10064 21035 38673 40194 56002 60001 82502 333 82635
AAXX 01121 40743 12665 42302 10120 21069 39052 40180 56011 60001 84430 333 84635
AAXX 01121 40762 12665 61503 10074 21089 38545 40205 55005 60001 82530 333 82640 85359
AAXX 01121 40768 12660 61602 10078 20013 38232 40160 57013 60001 86300 333 81725 82935 84640
AAXX 01121 40769 12560 72803 10078 20006 38282 40146 56006 60001 85370 333 82930 83635 85460
AAXX 01121 40785 12660 73502 10068 21032 39079 40190 56001 60001 83510 333 83640 87460
AAXX 01121 40809 12665 73005 10122 21141 38498 40196 55006 60001 83320 333 82935 81640 87459
AAXX 01121 40821 12660 73003 10130 21082 38777 40161 55007 60001 82426 333 82640 84460 87270
AAXX 01121 40831 12660 71606 10210 20121 30130 40138 56020 60001 84370 333 81935 83640 87360
AAXX 01121 80402 NIL
AAXX 01121 80412 NIL
AAXX 01121 80416 NIL
AAXX 01121 80420 NIL
AAXX 01121 80425 32470 40503 10256 20190 30968 40129 84400 333 20254 30/// 50274 55057 21027 56900 58004 84613 555 10130
AAXX 01121 80426 32960 23103 10194 20155 39503 40152 80008 333 20194 30/// 5///4 55039 21134 56009 58008 555 10178
AAXX 01121 80427 32970 03403 10211 20184 39891 40147 333 20208 30/// 50404 55018 21559 58001 5//// 555 10160
AAXX 01121 80431 32970 2//// 10190 20182 39647 40129 80008 333 20170 30/// 50274 55064 21022 56009 58005 555 10149
AAXX 01121 80434 NIL
AAXX 01121 80437 NIL
AAXX 01121 80440 32570 30902 10228 20193 39922 40133 81530 333 20225 30/// 50424 55028 21201 56990 59014 81620 555 10142
AAXX 01121 80442 NIL
AAXX 01121 80472 32465 63602 10212 20191 39658 40141 83208 333 20197 30/// 50614 55069 21661 56209 59004 83816 555 10160
AAXX 01121 80475 32460 40000 10205 20203 39779 40148 84500 333 20195 30/// 5///4 55071 2//// 56900 59016 84617 555 10161
AAXX 01121 80476 32370 1//// 10236 20206 30106 40136 81500 333 20231 30/// 50674 55086 21676 56900 58004 81610
AAXX 01121 80478 NIL
AAXX 01121 80479 NIL
AAXX 01121 80400 NIL
AAXX 01121 80403 NIL
AAXX 01121 80405 NIL
AAXX 01121 80407 NIL
AAXX 01121 80410 NIL
AAXX 01121 80413 32470 10202 10202 20150 39663 40155 81600 333 20209 50304 55073 21592 56900 58001 555 10182
AAXX 01121 80415 NIL
AAXX 01121 80419 NIL
AAXX 01121 80421 NIL
AAXX 01121 80423 12470 5//// 10275 20198 30136 40153 69944 852// 333 20222 30/// 50304 55008 2//// 562// 58004 85810 555 10152
AAXX 01121 80428 32468 63401 10226 20204 39939 40124 60024 8257/ 333 20213 30/// 50204 55022 21323 5699/ 59007 82617 84357 555 10135
AAXX 01121 80432 NIL
AAXX 01121 80435 12470 20702 10250 20238 30060 40136 60014 82500 333 20231 30/// 50074 55055 2//// 56900 58002 82613 555 10134
AAXX 01121 80438 12970 30903 10139 20109 38542 48539 60024 81018 333 20137 30/// 50184 55096 21740 56099 58012 555 10228
AAXX 01121 80444 NIL
AAXX 01121 80447 32558 30000 10191 20188 39691 40116 82520 333 20191 30/// 50344 55095 21480 56990 58020 82620 555 10164
AAXX 01121 80448 12970 00000 10211 20211 3//// 4//// 60014 333 20205 30/// 5///4 55038 21382 5////
AAXX 01121 80450 32975 51103 10244 20225 30092 40148 80008 333 20236 30/// 5///4 55077 21655 56009 58013 555 10144
AAXX 01121 80453 NIL
AAXX 01121 80457 32970 2//// 10258 20188 30045 40130 82020 333 20252 30/// 51204 55086 2//// 56900 58002 555 10130
AAXX 01121 80462 NIL
AAXX 01124 71801 11210 81323 11002 21007 39947 40122 56039 60021 77972 887// 333 11003 21030 44002 70018 90921 93102
AAXX 01124 71801 11210 81323 11002 21007 39947 40122 56039 60021 77972 887// 333 11003 21030 44002 70018 90921 93102
AAXX 01121 28676 429// 81201 11154 21173 30219 40356 57002 85031 555 1/116
AAXX 01121 28766 41997 61704 11144 21174 30138 40341 57007 70273 86301 555 1/116
AAXX 01121 28867 42998 61401 11140 21167 30051 40341 57013 80002 555 1/113
AAXX 01121 28879 429// 61803 11106 21140 30055 40359 57010 80001 555 1/114
AAXX 01121 28952 42999 72001 11099 21121 30122 40322 57010 80001 555 1/111
AAXX 01121 28966 429// 51402 11142 21172 30068 40372 57006 80006 555 1/117
AAXX 01121 29802 429// 21602 11182 21208 30243 40400 57001 80001 555 1/120
AAXX 01121 29807 429// 00000 11187 21219 30271 40400 57005 555 1/121
AAXX 01121 34691 41998 80000 10012 21023 30201 40188 57001 70242 8807/ 555 1/001
AAXX 01121 35067 429// 40602 11140 21163 30055 40350 57009 80001 555 1/115
AAXX 01121 35078 42998 41103 11164 21185 39971 40381 57008 80001 555 1/118
AAXX 01121 35085 429// 31702 11176 21194 39877 40394 57011 80001 555 1/118
AAXX 01121 35108 41496 81002 11033 21051 30166 40213 53001 77772 886//
AAXX 01121 35188 419// 21401 11135 21155 39919 40383 57018 70471 80001 555 1/119
AAXX 01121 35217 42998 81402 11047 21057 30167 40209 57001 8802/ 555 1/104
AAXX 01121 35229 42998 81302 11082 21124 39956 40240 57007 8807/ 555 1/109
AAXX 01121 35302 41996 81303 11027 21050 30181 40201 54000 70272 8802/ 555 1/103
AAXX 01121 35357 42997 00000 11162 21188 39889 40357 57019 555 1/119
AAXX 01121 35394 42998 00402 11110 21174 39666 40381 57011 555 1/115
AAXX 01121 35406 42597 81001 11029 21056 30191 40193 54000 885// 555 1/102
AAXX 01121 35416 42997 82004 11056 21082 30080 40204 58008 8807/ 555 1/105
AAXX 01121 35426 42999 80904 11079 21106 39929 40232 57015 8801/ 555 1/109
AAXX 01121 35497 429// 00702 11069 21192 39528 40355 57010 555 1/110
AAXX 01121 35532 41998 71012 11124 21159 39717 40233 57012 73733 80003 333 91016 91118 555 1/113
AAXX 01121 35671 42998 00604 11101 21154 39884 40336 57012 555 1/112
AAXX 01121 35700 42598 80301 11014 21040 30203 40179 53001 885// 555 1/101
AAXX 01121 35746 42998 60805 11073 21094 30169 40238 57019 83042 555 1/110
AAXX 01121 35796 41997 00407 11126 21164 39888 40349 57016 73633 555 1/114
AAXX 01121 35849 42998 40903 11058 21106 30144 40232 57010 80001 555 1/107
AAXX 01121 35925 42998 71404 11033 21050 30068 40181 57010 80005 555 1/104
AAXX 01121 35953 42999 20909 11056 21098 30107 40240 57010 80002 555 1/108
AAXX 01121 35969 42999 00706 11062 21111 30094 40273 57016 555 1/107
AAXX 01121 36003 42998 00000 11186 21209 30237 40402 57006 555 1/121
AAXX 01121 36152 429// 01402 11153 21208 30208 40411 57003 555 1/118
AAXX 01121 36177 429// 01301 11126 21146 30155 40418 57009 555 1/121
AAXX 01121 36208 429// 00801 11144 21179 39393 40440 57007 555 1/118
AAXX 01121 36397 429// 00000 11122 21157 39819 40416 57007 555 1/115
AAXX 01121 36428 429// 00000 11209 21228 39907 40457 57010 333 95090 555 1/122
AAXX 01121 36535 429// 30000 11170 21220 39772 40457 57008 83030 555 1/120
AAXX 01121 36639 429// 01401 11206 21250 39713 40373 57019 555 1/125
AAXX 01121 36821 419// 20000 11094 21110 39791 40302 57015 71011 80002
AAXX 01121 36859 429// 00000 11042 21099 39485 40285 57019 555 1/112
AAXX 01121 36864 42999 00000 11074 21091 39354 40279 57012
AAXX 01121 36870 41996 00000 11049 21072 39222 40259 57012 70400 555 1/110
AAXX 01121 38001 42997 83603 10013 21013 30201 40171 57006 8807/ 555 10003
AAXX 01121 38062 42999 00904 11044 21087 30071 40238 57014 555 1/106
AAXX 01121 38069 42998 00801 10006 21076 30035 40228 57014
AAXX 01121 38196 41998 03602 11010 21129 39236 40228 56010 70230
AAXX 01121 38198 42997 00000 11055 21081 39974 40241 57009 555 1/110
AAXX 01121 38222 42997 00000 11065 21111 39671 40249 54000 555 1/109
AAXX 01121 38232 42598 71002 10026 21039 30069 40168 57005 87500 555 1/004
AAXX 01121 38328 42999 00000 11030 21084 39486 40232 56004 555 1/117
AAXX 01121 38334 42998 00801 11023 21137 39248 40228 57005 555 1/113
AAXX 01121 38341 41997 02001 11113 21133 39451 40282 57008 70272 555 1/114
AAXX 01121 38343 42998 03402 11118 21145 39391 40283 57001
AAXX 01121 38439 41/92 91201 11044 21044 39884 40233 57009 74744 555 14101
AAXX 01121 28676 429// 81201 11154 21173 30219 40356 57002 85031 555 1/116
AAXX 01121 28766 41997 61704 11144 21174 30138 40341 57007 70273 86301 555 1/116
AAXX 01121 28867 42998 61401 11140 21167 30051 40341 57013 80002 555 1/113
AAXX 01121 28879 429// 61803 11106 21140 30055 40359 57010 80001 555 1/114
AAXX 01121 28952 42999 72001 11099 21121 30122 40322 57010 80001 555 1/111
AAXX 01121 28966 429// 51402 11142 21172 30068 40372 57006 80006 555 1/117
AAXX 01121 29802 429// 21602 11182 21208 30243 40400 57001 80001 555 1/120
AAXX 01121 29807 429// 00000 11187 21219 30271 40400 57005 555 1/121
AAXX 01121 34691 41998 80000 10012 21023 30201 40188 57001 70242 8807/ 555 1/001
AAXX 01121 35067 429// 40602 11140 21163 30055 40350 57009 80001 555 1/115
AAXX 01121 35078 42998 41103 11164 21185 39971 40381 57008 80001 555 1/118
AAXX 01121 35085 429// 31702 11176 21194 39877 40394 57011 80001 555 1/118
AAXX 01121 35108 41496 81002 11033 21051 30166 40213 53001 77772 886//
AAXX 01121 35188 419// 21401 11135 21155 39919 40383 57018 70471 80001 555 1/119
AAXX 01121 35217 42998 81402 11047 21057 30167 40209 57001 8802/ 555 1/104
AAXX 01121 35229 42998 81302 11082 21124 39956 40240 57007 8807/ 555 1/109
AAXX 01121 35302 41996 81303 11027 21050 30181 40201 54000 70272 8802/ 555 1/103
AAXX 01121 35357 42997 00000 11162 21188 39889 40357 57019 555 1/119
AAXX 01121 35394 42998 00402 11110 21174 39666 40381 57011 555 1/115
AAXX 01121 35406 42597 81001 11029 21056 30191 40193 54000 885// 555 1/102
AAXX 01121 35416 42997 82004 11056 21082 30080 40204 58008 8807/ 555 1/105
AAXX 01121 35426 42999 80904 11079 21106 39929 40232 57015 8801/ 555 1/109
AAXX 01121 35497 429// 00702 11069 21192 39528 40355 57010 555 1/110
AAXX 01121 35532 41998 71012 11124 21159 39717 40233 57012 73733 80003 333 91016 91118 555 1/113
AAXX 01121 35671 42998 00604 11101 21154 39884 40336 57012 555 1/112
AAXX 01121 35700 42598 80301 11014 21040 30203 40179 53001 885// 555 1/101
AAXX 01121 35746 42998 60805 11073 21094 30169 40238 57019 83042 555 1/110
AAXX 01121 35796 41997 00407 11126 21164 39888 40349 57016 73633 555 1/114
AAXX 01121 35849 42998 40903 11058 21106 30144 40232 57010 80001 555 1/107
AAXX 01121 35925 42998 71404 11033 21050 30068 40181 57010 80005 555 1/104
AAXX 01121 35953 42999 20909 11056 21098 30107 40240 57010 80002 555 1/108
AAXX 01121 35969 42999 00706 11062 21111 30094 40273 57016 555 1/107
AAXX 01121 36003 42998 00000 11186 21209 30237 40402 57006 555 1/121
AAXX 01121 36152 429// 01402 11153 21208 30208 40411 57003 555 1/118
AAXX 01121 36177 429// 01301 11126 21146 30155 40418 57009 555 1/121
AAXX 01121 36208 429// 00801 11144 21179 39393 40440 57007 555 1/118
AAXX 01121 36397 429// 00000 11122 21157 39819 40416 57007 555 1/115
AAXX 01121 36428 429// 00000 11209 21228 39907 40457 57010 333 95090 555 1/122
AAXX 01121 36535 429// 30000 11170 21220 39772 40457 57008 83030 555 1/120
AAXX 01121 36639 429// 01401 11206 21250 39713 40373 57019 555 1/125
AAXX 01121 36821 419// 20000 11094 21110 39791 40302 57015 71011 80002
AAXX 01121 36859 429// 00000 11042 21099 39485 40285 57019 555 1/112
AAXX 01121 36864 42999 00000 11074 21091 39354 40279 57012
AAXX 01121 36870 41996 00000 11049 21072 39222 40259 57012 70400 555 1/110
AAXX 01121 38001 42997 83603 10013 21013 30201 40171 57006 8807/ 555 10003
AAXX 01121 38062 42999 00904 11044 21087 30071 40238 57014 555 1/106
AAXX 01121 38069 42998 00801 10006 21076 30035 40228 57014
AAXX 01121 38196 41998 03602 11010 21129 39236 40228 56010 70230
AAXX 01121 38198 42997 00000 11055 21081 39974 40241 57009 555 1/110
AAXX 01121 38222 42997 00000 11065 21111 39671 40249 54000 555 1/109
AAXX 01121 38232 42598 71002 10026 21039 30069 40168 57005 87500 555 1/004
AAXX 01121 38328 42999 00000 11030 21084 39486 40232 56004 555 1/117
AAXX 01121 38334 42998 00801 11023 21137 39248 40228 57005 555 1/113
AAXX 01121 38341 41997 02001 11113 21133 39451 40282 57008 70272 555 1/114
AAXX 01121 38343 42998 03402 11118 21145 39391 40283 57001
AAXX 01121 38439 41/92 91201 11044 21044 39884 40233 57009 74744 555 14101
AAXX 01124 88878 46/// /1416 10104 20080 40014 52025
AAXX 01124 88883 46/// /1510 10102 20086 40047 52020
AAXX 01124 88897 46/// /1510 10083 20062 40031 57001
AAXX 01121 30372 32999 30000 11331 21354 39419 40413 52005 80007 333 11263
AAXX 01121 30433 12999 60201 11174 21193 39729 40369 52008 69902 86030 333 11150
AAXX 01121 30554 119// 80000 11214 21232 39181 40364 52003 60012 77177 8801/ 333 11213
AAXX 01121 30635 118// 81101 11179 21185 39750 40367 52006 69972 70372 83032 333 11148
AAXX 01121 30673 32999 20000 11308 21320 39500 40368 57003 80005 333 11203
AAXX 01121 30692 32997 00502 11304 21321 39783 40342 57/// 333 11222
AAXX 01121 30758 11929 80000 11231 21257 39452 40352 57008 69942 77177 8807/ 333 11212
AAXX 01121 30802 31698 82805 11130 21191 38807 48576 52005 71522 82931 333 11101 95700
AAXX 01121 30823 11699 61902 11114 21149 39696 40365 52007 69902 70382 85901 333 11107
AAXX 01121 30879 32999 20000 11290 21314 39524 40378 57008 80001 333 11245
AAXX 01121 30935 12699 81902 11150 21177 39386 40384 52005 69942 83441 333 11122
AAXX 01121 30949 12999 23202 11139 21191 39169 40321 54000 69902 82040 333 11105
AAXX 01121 30965 329// 71001 11202 21221 39441 40335 57008 83042 333 11176
AAXX 01121 31168 32999 20202 11234 21246 30226 40238 58005 80001 333 11184
AAXX 01121 31300 31915 00000 11284 21296 39994 40319 58008 71011 333 11241
AAXX 01121 31329 32999 00000 11344 21374 39590 40358 58002 333 11277
AAXX 01121 31369 11598 82702 11235 21247 30162 40256 57005 69970 70282 82902 333 11196
AAXX 01121 31416 32998 00000 11323 21334 30177 40279 58004 333 11225
AAXX 01121 31484 NIL
AAXX 01121 31512 329// 00000 11252 21284 30132 40318 58004 333 14177
AAXX 01121 31538 32998 00000 11300 21317 39840 40330 54000 333 11236
AAXX 01121 31707 32998 20000 11218 21258 30206 40306 58003 80001 333 11177
AAXX 01121 31735 31995 22401 11250 21279 30197 40295 54000 71000 80001 333 11208
AAXX 01121 31770 11964 80000 11168 21218 30208 40240 58003 69920 70272 82031 333 11130
AAXX 01120 44210 32999 00000 11219 21244 38661 51021 333 11130
AAXX 01120 44216 32999 03203 11328 21351 39184 40640 56001 333 11273
AAXX 01120 44217 32998 00000 11236 21261 37929 40574 58005 333 11165
AAXX 01120 44219 329// 01102 11275 21299 38765 40607 51002 333 11228
AAXX 01120 44221 329// 00000 11345 21364 38747 40684 52004 333 11275
AAXX 01120 44224 329// 00000 11373 21401 38174 40739 52014 333 11276
AAXX 01120 44229 32999 22302 11230 21263 38004 40534 52008 82040 333 11189
AAXX 01120 44242 329// 51102 11259 21285 39448 40479 52006 85050 333 11179
AAXX 01120 44243 329// 20702 11321 21355 39546 40509 51006 82040 333 11201
AAXX 01120 44254 NIL
AAXX 01120 44257 NIL
AAXX 01120 44263 32998 00000 11254 21300 38163 40614 52007 333 11175
AAXX 01120 44266 329// 01503 11168 21217 37848 40481 53006 333 11143
AAXX 01120 44286 129// 42705 11165 21198 38730 40435 51009 69902 84070 333 11132 555 93100
AAXX 01120 44291 128// 23202 11193 21215 38819 40465 52015 69902 82040 333 11126
AAXX 01120 44325 319// 00505 11128 21180 38951 40424 53017 70230 333 11053
AAXX 01120 44329 31998 00000 11194 21235 37821 40478 53013 70230 333 11136
AAXX 01120 44338 11699 60000 11174 21193 38548 40437 52004 60022 71522 84570 333 11107 555 93102
AAXX 01120 44348 329// 83207 11160 21160 38712 40335 51013 8802/ 333 11135
AAXX 01120 44374 32999 13404 11150 21180 38326 40459 53013 80004 333 11085
AAXX 01120 44385 11999 73207 11104 21148 38995 40381 52018 60012 73673 87010 333 11047 555 93197
AAXX 01120 44386 329// 73206 11164 21198 39084 40338 52012 87010 333 11073
AAXX 01123 87007 01465 70502 10088 20059 36770 47180 52015 60064 70165 83570 333 10126 20078 56770 60031 83618 84360
AAXX 01123 87148 32970 01805 10256 20167 30000 40105 51013 333 10293 20160
AAXX 01124 70133 32966 01006 11344 30176 40183 58010 91153 333 21356 4/127 555 90112
AAXX 01124 70174 11666 40000 11406 39942 40216 58010 69901 771// 91153 333 21406 4/076 555 90112
AAXX 01124 70200 32566 40000 11333 21356 30154 40159 56009 91153 333 21356 555 90112
AAXX 01124 70219 31759 80414 11306 21344 30029 40090 58038 91153 333 21350 555 90112
AAXX 01124 70231 32966 00000 11461 30059 40203 57014 91153 333 21461 4/097 555 90112
AAXX 01124 70261 11858 80000 11344 30015 40204 58014 69901 771// 91153 333 21356 96010 555 90112
AAXX 01124 70267 15966 60000 11339 21372 39671 40219 58012 69901 91153 333 21344 70003 555 90112
AAXX 01124 70271 15766 80000 11239 21267 39496 40137 58018 69901 91153 333 21317 70003 555 90112
AAXX 01124 70273 11256 83505 11183 21206 30057 40118 56021 69901 771// 91153 333 21189 4/071 96010 555 90112
AAXX 01124 70316 12666 21508 11078 21089 39999 40036 56030 60091 91153 333 21117 4/025 70102 555 90112
AAXX 01124 70326 32966 40204 11311 21344 30092 40107 58035 91154 333 21333 4/005 555 90112
AAXX 01124 70340 35966 00208 11289 21339 30076 40143 58027 91153 333 21294 555 90112
AAXX 01124 70350 32566 23116 11089 21161 30037 40079 58027 91153 333 21150 4/003 91024 555 90112
AAXX 01124 70361 11432 80611 11011 21039 30006 40017 56048 69901 771// 91153 333 21067 4/069 70005 555 90112
AAXX 01124 70381 11532 81411 11011 21033 30081 40090 58029 60011 771// 91153 333 21017 4/018 70028 96010 555 90112
AAXX 01124 70414 37558 83411 11039 21067 30042 40080 56004 771// 91156 333 21050 555 90112
AAXX 01124 87022 01960 02310 10270 20204 39598 40091 52013 60184 70160 333 10272 20194 60031
AAXX 01124 87046 01965 41403 10208 20202 39130 48517 52013 60084 70162 84070 333 10212 20190 56030 69931 84360 98365
AAXX 01124 87047 01465 62002 10204 20173 38821 48540 52013 60054 70162 83132 333 10232 20177 31/// 56566 69941 83810 83360
AAXX 01124 87097 32970 00000 10238 20200 39773 40078 52012 333 10266 20196
AAXX 01124 87121 32965 13204 10254 20199 39622 40124 52020 81030 333 10254 20210 56060 81360
AAXX 01124 87129 NIL
AAXX 01124 87155 32965 01603 10244 20178 30052 40112 51017 333 10250 20191
AAXX 01124 87162 32970 01807 10256 20200 30029 40097 51020 333 10266 20198
AAXX 01124 87166 32960 01607 10234 20173 30038 40109 51017 333 10258 20193
AAXX 01124 87178 32970 01404 10233 20172 39945 40088 52019 333 10275 20198
AAXX 01124 87217 32970 01806 10284 20208 39631 40104 5//// 333 10310 20215
AAXX 01124 87222 32770 10216 10299 20160 39588 40090 52016 81400 333 10300 20239 56000 81656
AAXX 01124 87257 NIL
AAXX 01124 87270 32965 01110 10232 20166 30069 40130 52017 333 10260 20200 30018
AAXX 01124 87289 12562 31614 10206 20163 30037 40119 51009 60014 84450 333 10230 20176 56360 84620 85360
AAXX 01124 87311 32965 01805 10284 20125 39454 40104 52029 333 10326 20242
AAXX 01124 87320 32970 00908 10283 20153 39617 40124 53004 333 10340 20237
AAXX 01124 87328 32980 02302 10291 20139 39498 40123 52021 333 10297 20203 95000
AAXX 01124 78526 12566 61203 10239 20222 30173 40196 53019 60021 91156 333 10289 20228 70036 555 90112
AAXX 01124 78543 12666 60609 10239 20211 30112 40194 53020 69981 91153 333 10289 20222 70008 555 90112
AAXX 01121 26997 41440 83101 10006 20001 39909 40131 52004 71072 886// 333 88712
AAXX 01121 27595 41/98 81402 11057 21072 30054 40204 53005 70272 8352/
AAXX 01121 27612 41496 81901 10000 21012 39927 40122 52012 71072 887//
AAXX 01121 27707 41558 70000 11003 21015 39830 40127 52001 71022 86570 333 86627
AAXX 01121 27719 42497 81903 10003 21011 39877 40130 54000 883//
AAXX 01121 27786 41497 81403 11027 21043 30035 40200 52003 72272 885// 333 88618
AAXX 01121 27857 41396 81502 10001 20004 39986 40151 57001 77172 8802/ 333 88510
AAXX 01121 27906 41494 81802 10003 21005 39889 40133 52002 78682 883//
AAXX 01121 27928 41497 80401 10007 21010 39929 40138 58001 70252 885//
AAXX 01121 27947 41296 81503 10007 21001 39988 40149 54000 71072 8872/ 333 88705
AAXX 01121 27962 41397 81404 10002 21012 39949 40170 54000 70272 885// 333 88608
AAXX 01121 27983 42498 81403 11036 21047 30076 40209 52004 886// 333 88713
AAXX 01121 27995 42598 81102 11031 21051 40211 57002 885//
AAXX 01121 28506 41997 81401 11062 21076 30104 40221 52006 77172 8802/
AAXX 01121 28704 42998 81602 11048 21063 30117 40215 53005 8802/
AAXX 01121 28711 42298 81802 11069 21075 39839 40229 53006 886// 333 88705
AAXX 01121 28807 41697 80000 11044 21067 30167 40220 53002 72272 8657/ 333 86636
AAXX 01121 34009 41496 81901 11003 21021 39828 40137 58003 71082 886//
AAXX 01121 34110 42899 82701 10000 21015 39857 40138 58006 8805/
AAXX 01121 34123 41/08 93001 10004 21002 39952 40137 58006 77574 333 96045
AAXX 01121 34152 41396 81502 10000 21003 39960 40159 57004 72842 886// 333 88707
AAXX 01121 34163 41498 81002 11005 21008 40180 57005 70282 885// 333 88620
AAXX 01121 34171 41230 81604 11006 21012 39990 40186 56003 77172 8872/ 333 88505
AAXX 01121 34186 41296 81402 11019 21021 30065 40206 53002 71042 886// 333 88704
AAXX 01121 34247 41256 80801 10019 20014 30026 40141 57013 76162 8872/ 333 85706
AAXX 01121 34336 41532 80801 10021 20018 30034 40139 57015 78084 883//
AAXX 01121 34391 42996 81401 11010 21020 30172 40204 53003 71022 8802/
AAXX 01121 35011 41497 81501 11055 21076 30068 40227 54000 77172 8802/ 333 88515
AAXX 01121 35121 42598 81303 11078 21105 30082 40235 57002 885// 333 88620
AAXX 01121 22271 41596 80911 11042 21075 30150 40160 52016 73833 885//
AAXX 01121 22520 42397 82403 11063 21078 30138 40148 52013 886// 333 88707
AAXX 01121 22550 41992 21501 11078 21095 30155 40165 52011 74841 82030
AAXX 01121 22583 41568 71801 11015 21017 30081 40162 52011 70288 8657/
AAXX 01121 22768 41396 81801 11010 21014 30105 40162 52005 77187 8872/ 333 86707
AAXX 01121 22845 42698 80000 11040 21045 39998 40158 52007 82575
AAXX 01121 22887 41297 81501 11011 21017 30103 40174 52005 78582 889// 333 86705 91103
AAXX 01121 23205 41295 80705 11078 21096 30157 40173 52018 77373 8772/ 333 87705 91111
AAXX 01121 23219 41396 80504 11051 21061 30065 40173 52009 77172 8802/
AAXX 01121 23418 41365 81302 11027 21034 30097 40171 52009 70272 8665/ 333 86707
AAXX 01121 23606 42360 82002 11026 21029 30005 40180 52011 886// 333 88708
AAXX 01121 23711 42498 81201 11061 21069 30024 40203 52006 885// 333 88617
AAXX 01121 23804 41297 81901 11040 21049 30041 40193 52009 77172 887// 333 86703
AAXX 01121 27037 41395 80903 11011 21024 39972 40136 58002 77372 8872/ 333 86708
AAXX 01121 27199 41598 81502 11066 21082 39998 40202 52008 70272 8652/
AAXX 01121 27271 41496 80802 11038 21046 30017 40177 51001 77172 8152/
AAXX 01121 27459 41397 81401 11010 21014 39954 40152 53003 77172 8872/ 333 88706
AAXX 01121 27730 42498 82302 11003 21034 39936 40133 52002 885// 333 88616
AAXX 01121 20107 41597 71108 11006 21066 39922 40016 57008 73631 83530 333 91011 91114
AAXX 01121 22003 NIL
AAXX 01121 22004 NIL
AAXX 01121 22100 NIL
AAXX 01121 22140 NIL
AAXX 01121 22113 42584 71304 11013 21050 30082 40146 52006 86530 333 91008 91111
AAXX 01121 22212 41597 83202 11037 21045 39970 40137 52009 72682 889// 333 85920 91003
AAXX 01121 22213 NIL
AAXX 01121 22217 42497 80000 11016 21030 30094 40126 52009 889// 333 86625 91001
AAXX 01121 22235 41468 80802 11028 21032 39941 40139 52012 78582 889// 333 86911 91004
AAXX 01121 22249 41483 80301 11019 21025 39947 40138 52012 78582 889// 333 91002
AAXX 01121 22312 41496 80902 11017 21022 30110 40132 52012 78584 889// 333 91003 96040
AAXX 01121 22334 41582 82104 11005 21014 30116 40123 51004 70282 885// 333 91005
AAXX 01121 22349 41498 72504 11003 21015 30125 40137 52011 70282 86930 333 91005
AAXX 01121 22408 42382 82403 11084 21094 39998 40154 52020 885// 333 88609 93402
AAXX 01121 22602 41457 80000 11117 21123 39914 40152 52008 71022 885// 333 88610
AAXX 01121 22619 42482 23101 11092 21099 39987 40156 52009 82500
AAXX 01121 22721 42699 80000 11045 21051 30049 40153 52008 885// 333 88640
AAXX 01121 22802 42599 60101 11036 21054 30123 40147 52008 84530
AAXX 01121 22820 41259 83302 11021 21024 39997 40138 52004 77172 886// 333 88705
AAXX 01121 26059 41496 82502 11021 21036 30109 40134 51010 78582 889// 333 86916
AAXX 01121 26063 42997 63302 11017 21038 30126 40134 52007 86030
AAXX 01121 26094 41570 81801 11009 21016 30048 40125 52008 70272 885// 333 88624 93704
AAXX 01121 26157 41440 81602 11018 21023 30079 40130 52006 78582 889// 333 86713
AAXX 01121 26167 42215 82701 11052 21055 30024 40140 51011 71011 886// 333 88705
AAXX 01121 26258 41598 71701 11016 21030 30080 40136 52003 83530
AAXX 01121 26298 41496 82001 11006 21018 39887 40120 52006 77772 886//
AAXX 01121 26359 42573 72001 11020 21032 30006 40144 52011 87900 333 93711
AAXX 01121 26702 41996 61702 10002 21022 30102 40129 58023 71041 80001 333 91004 91105
AAXX 01121 26781 41496 83203 11021 21034 39837 40137 52015 77172 8802/ 333 88510
AAXX 01121 27208 41595 80000 11009 21016 39940 40119 52004 77172 8802/
AAXX 01121 27402 41995 82601 11010 21017 39938 40121 53007 77172 8802/
AAXX 01121 38598 41596 80909 11016 21030 40242 57004 71022 886//
AAXX 01121 38599 NIL
AAXX 01121 38725 42999 00902 11007 21204 37752 48490 57007
AAXX 01121 38734 42999 00506 11051 21130 37442 47050 56001
AAXX 01121 38744 42699 41801 11050 21134 38026 48540 56003 82501
AAXX 01121 38836 42999 00000 10032 21043 39261 40211 57004
AAXX 01121 38838 42598 71803 10008 21009 39548 40216 57004 87900
AAXX 01121 38844 42999 00502 11012 21139 38500 53007
AAXX 01121 38846 42999 02302 11026 21081 38510 48480 57007
AAXX 01121 38847 NIL
AAXX 01121 38932 42699 61601 10027 21001 40234 56004 85900
AAXX 01121 38933 NIL
AAXX 01121 38944 42997 53602 10053 20026 39647 40187 57003 85030
AAXX 01121 38954 NIL
AAXX 01124 91165 32566 43005 10189 20161 30135 40171 58011 91153 333 20183 70005 555 90112
AAXX 01124 91182 31559 23303 10206 20178 30161 40163 56013 705// 91153 555 90112
AAXX 01124 91190 35966 00103 10189 20144 30148 40166 56017 91154 333 20189 555 90112
AAXX 01124 91212 32766 20709 10256 20228 31387 40121 50006 91154 333 20244 70010 555 90112
AAXX 01124 91285 32462 82405 10190 20170 30151 91211 555 90112
AAXX 01124 82143 NIL
AAXX 01124 82599 32570 60809 10279 20225 30076 40136 86200 333 20243 59009
AAXX 01124 82824 32470 50000 10273 20247 30019 40120 82230 333 20251 59006
AAXX 01124 82899 32570 40912 10290 20212 30132 40144 84200 333 20262 59003
AAXX 01124 83117 NIL
AAXX 01124 83248 32570 50616 10306 20239 30124 40146 85200 333 20267 59005
AAXX 01124 83746 21560 70805 10258 20228 40050 50002 72162 81530 333 20234 60024
BBXX 46054 01121 99342 71204 46/// /1303 10115 40188 51004 91150 22200 00127 11104 20401 300// 41104 70022 333 91204 555 11033 22034 31148 41204 61149 125032 129029 138028 145026 151023 160020
AAXX 01121 37759 42998 02602 10061 20005 40117 58028
AAXX 01121 37851 42598 83202 10078 20041 30097 40167 57021 885//
AAXX 01121 37989 42598 60403 10094 20068 30197 40170 57013 86500 555 10017
AAXX 01121 37740 42999 02001 10093 21019 39355 40151 57009 555 10012
AAXX 01121 37925 42998 00000 10084 20078 30191 40162 57019 555 11007
AAXX 01124 NIL
AAXX 01124 NIL
AAXX 01124 82022 21570 50614 10262 20207 30043 40139 70262 82230 333 20235 59004 69984
AAXX 01124 82193 22470 51010 10280 20243 30109 40129 85200 333 20219 59004 60074
AAXX 01124 82281 32570 50516 10298 20203 30062 40124 85200 333 20270 58001
AAXX 01124 82332 22970 43301 10277 20238 30032 40125 84030 333 20246 59007 60014
AAXX 01124 82398 32570 51111 10279 20224 30106 40135 85100 333 20254 58009
AAXX 01124 82400 32470 31310 10276 20235 30079 40144 83100 333 20254 58010
AAXX 01124 82579 22570 41204 10307 20229 30046 40122 84100 333 20265 59003 69934
AAXX 01124 82917 21560 70402 10240 20236 39904 40126 71062 82230 333 20229 59001 60104
AAXX 01124 82965 21265 70605 10264 20245 39804 40133 7105/ 85530 333 20236 58008 60024
AAXX 01124 82993 32570 30614 10288 20204 30007 40142 83100 333 20220 58003
AAXX 01124 83208 32970 53305 10248 20227 39435 48550 85050 333 20209 59006 60054
AAXX 01124 83349 31458 60104 10272 20244 30135 40141 71511 86800 333 20242 59024
AAXX 01124 83362 22570 60109 10252 20213 39885 40100 82530 333 20226 59015 60504
AAXX 01124 83378 22470 53010 10217 20182 38957 48520 84530 333 20189 59013 60024
AAXX 01124 83460 32570 50416 10274 20220 30073 40129 85100 333 20233 59004
AAXX 01124 83497 NIL
AAXX 01124 83566 NIL
AAXX 01124 83599 NIL
AAXX 01124 83612 22270 82606 10242 20210 39461 48500 52016 886// 333 20213 60344
AAXX 01124 83649 32570 70109 10270 20223 30109 40114 51010 84530 333 20253
AAXX 01124 83650 NIL
AAXX 01124 83780 21360 72904 10216 20186 39179 48470 51014 71062 87500 333 20193 60624
AAXX 01124 83827 32970 02107 10250 20180 39800 40071 51014 333 20149
AAXX 01124 83840 22470 71311 10189 20156 39082 48480 51009 87500 333 20161 60134
AAXX 01124 83899 21225 81804 10210 20203 30100 40106 53015 76366 885// 333 20195 60674
AAXX 01124 83925 NIL
AAXX 01124 83970 NIL
AAXX 01124 83971 21430 80705 10188 20188 30125 40129 51032 76362 885// 333 20184 60184
AAXX 01124 NIL
AAXX 01124 NIL
AAXX 01124 NIL
AAXX 01124 NIL
AAXX 01124 NIL
AAXX 01124 NIL
AAXX 01124 NIL
AAXX 01124 NIL
AAXX 01121 22028 41598 71410 11007 21035 30125 40164 52008 73632 87900 333 91013 91114
AAXX 01121 22106 42598 71001 11046 21055 30053 40134 52005 87500 333 87632 91002
AAXX 01121 22127 41496 80903 11027 21043 39942 40147 52010 78582 889// 333 86911 91005
AAXX 01121 22324 41458 80201 11017 21022 30079 40129 52011 78582 889// 333 91002
AAXX 01121 22621 42498 82301 11081 21104 30016 40162 52008 885// 333 88619
AAXX 01121 22831 41598 70000 11011 21012 30085 40146 52011 70282 85930
AAXX 01121 22892 41997 00000 11025 21041 30116 40132 52010 70171
AAXX 01121 26275 41498 72602 11020 21029 30098 40129 52013 70272 82530
AAXX 01121 26389 41359 82901 11009 21019 39850 40117 52010 77172 8872/
AAXX 01121 26499 41/92 91701 11046 21045 39893 40129 52008 74942
AAXX 01121 26695 41397 72101 11004 21019 39814 40126 52001 70372 87600 333 87710
AAXX 01121 26882 41331 83104 11008 21018 39851 40130 52008 77372 8872/ 333 88708
BBXX V7MO2 01124 99262 70914 41/// /1506 10220 20100 40230 52020 7//// 8//// 22200 00230 20201 314// 40601 5//// 6//// 80150 ICE /////
BBXX ONFW 01124 99040 11195 41197 30209 10310 20242 40100 54/// 70200 8327/ 22243 04230 20201 335// 40401 5//// 6//// 80260 ICE /////
BBXX WJBJ 01123 99146 70733 41498 70825 10260 20232 40150 52011 70321 8529/ 22264 00278 20805 309// 41104 5//// 6//// 80240 ICE /////
BBXX NAZJ 01124 99502 71580 41/// 40218 11011 2//// 40129 54/// 7//// 844// 22252 04044 20702 33636 40705 50705 6//// 8//// ICE /////
BBXX WKPY 01124 99423 70549 41497 82132 10150 20150 40017 57090 75085 8842/ 22264 00122 2//// 320// 40712 5//// 6//// 80150 ICE /////
BBXX WKAE 01124 99301 70880 41398 62215 10190 20175 40220 54000 70222 861// 22200 00180 2//// 3//// 4//// 5//// 6//// 80180 ICE /////
AAXX 01121 14024 12899 72704 10044 21011 39093 48490 57003 60001 87070 333 95000
BBXX 3EYJ5 01123 99125 30084 41/98 71815 10250 20188 40150 56005 70322 86469 22244 04270 2//// 318// 41603 5//// 80210
AAXX 01121 08521 32470 50405 10179 20084 30263 40334 50007 85800 333 83818 84630
AAXX 01121 08524 32470 73503 10171 20092 30236 40334 52007 87800 333 81815 87630 91105
BBXX VRFO7 01124 99273 70474 41698 50917 10230 20165 40290 52010 70300 852// 22254 20802 332// 40806 80190
BBXX V7OX3 01124 99345 50205 41598 32806 10220 20205 40210 54000 7//00 82141 22223 04240 20801 301// 41201 5//// 80210
BBXX A8RV9 01124 99176 50170 41697 50724 10227 20169 40134 51/// 70300 84713 22234 20404 311// 40904 5//// 80189
BBXX C6NZ3 01120 99283 50457 41297 80813 10222 20170 40099 57/// 70382 887// 22213 2//// 308// 40905 5//// 80190
BBXX DPRB 01121 99304 11226 41/97 /3603 10080 20013 40295 51010 70211 8//// 22200 20504 304// 40605 5//// 80050
BBXX PHOB 01124 99090 10758 41998 01812 10300 20231 40075 55000 70211 80000 22274 00275 20303 3//// 4//// 5//// 80250
BBXX DHEB 01123 99517 11618 41/97 83625 11035 21066 40120 50005 78500 8//// 22264 2//// 3//// 4//// 5//// 81045
BBXX PDWT 01123 99281 11257 41/98 63415 10140 20064 40250 55010 70011 8//// 22253 04210 20303 33334 40202 50201 80100
BBXX DGTX 01123 99245 11198 41/96 /0334 10150 20097 40220 52021 70222 8//// 22214 00170 2//// 80120
BBXX DFNB2 01123 99200 11137 41/98 50727 10200 20149 40185 52015 70222 851// 22284 00220 2//06 80168
BBXX DGDD 01121 99319 71237 41/97 70705 10140 20114 40205 5/010 70200 8//// 22224 04150 2//// 3//// 4//// 5//// 80125
BBXX A8FA5 01123 99281 70154 41598 60508 10220 20131 40320 5/000 7//22 8446/ 22200 20202 304// 40501 5//// 80165
BBXX SHJC 01121 99131 10488 43/98 40906 10256 40160 56020 22254 00261 2//// 4////
BBXX PJHA 01124 99022 30089 41797 52212 10294 20289 40124 55093 7//// 85078 22274 06260 20201 323// 40803 80290
BBXX AUYL 01123 99060 10013 41296 62608 10290 20236 40198 57001 70322 86011 22200 00270 44192 2824010123
BBXX MIBR 01124 99197 30620 41498 51410 10270 20226 40101 54000 70222 83239 22254 00278 20201 306// 40604 5//// 80240
BBXX A8IQ2 01120 99228 30144 41698 12705 10195 20138 40140 58010 70000 81400 22200 00170 20201 300// 40000 5//// 80160
BBXX PHKL 01121 99096 10662 41697 53410 10290 20217 40089 55007 70322 84400 22224 00279 20304 3//// 4//// 5//// 80238
BBXX PDHO 01124 99125 10435 41597 11516 10270 20191 40138 57031 70100 81100 22264 00264 20404 80216
BBXX UBAU 01121 99121 70175 41598 70503 10260 40158 52003 70221 875// 22211 04250 20100
BBXX A8JS5 01124 99164 30098 41598 61711 10215 20152 40144 56012 70222 865// 22243 04198 20402 319// 40603 5//// 80175
BBXX PDKK 01123 99089 50123 41498 21415 10242 20204 40148 58006 7//// 81170 22254 20401 316// 41003 80216
BBXX DCUJ2 01123 99169 10406 41998 01813 10280 20217 40117 58023 70200 80000 22234 00260 20303 316// 40604 80235
BBXX OXOR2 01124 99128 10579 41698 40517 10270 20174 40127 55014 70200 81110 22265 00263 20502 335// 40604 80206
BBXX PHPP 01124 99151 10539 41797 30415 10255 20181 40151 56016 70000 83100 22255 00255 20804 80205
BBXX A8IM7 01124 99342 71262 41/98 /0304 10140 20105 40210 58020 70322 8//// 22224 20204 3//// 4//// 5//// 80120
BBXX A8KM9 01124 99271 71724 41/98 12118 10235 20189 40159 56011 72581 8//// 22264 20403 80204
BBXX SMGW 01121 99293 71163 43/95 83505 10139 40189 55006 22244 00167 2//// 4////
BBXX 44139 01121 99442 70571 46/// /1911 10107 49946 57049 22200 00045 10806 70029 333 91213
BBXX 41038 01121 99341 70777 46/// /2201 10132 40220 53006 91200 22200 00134 333 91202
BBXX PCEO 01123 99237 70508 41598 30608 10240 20180 40251 52004 7//00 831/5 22254 04251 20401 316// 40501 5//// 80200
BBXX PJKV 01123 99273 70657 41598 21810 10235 20225 40248 53018 70300 82111 2229/ 04250 20801 314// 41202 5//// 80228
BBXX 46042 01121 99368 71224 46/// /0707 10131 40185 50000 91150 22200 00124 11204 20402 331// 41204 70022 333 91209 555 11075 22081 31105 40811 61149 075069 079069 075074 081088 076089 070084
BBXX 46053 01121 99342 71198 46/// /0802 10110 40188 54000 91150 22200 00140 11403 326// 41403 70015 333 91203 555 11023 22023 31057 40805 61149 078022 082020 087024 084026 072038 077041
BBXX 46001 01121 99563 71480 46/// /3517 11007 49967 56029 91150 22200 00041 10809 20809 300// 41401 70046 333 91221 555 11178 22188 31102 43422 61149 351167 350169 351170 349171 351170 349176
BBXX 41041 01121 99142 70460 46/// /0811 10254 20209 40177 52023 91150 22200 00261 11007 20705 3//// 41005 70036 333 91213 555 11112 22120 31059 40813 61149 081105 079100 081098 082100 077101 082102 80811 91059
BBXX 44022 01121 99409 70737 46/// ///02 10067 20043 40194 53019 91200 22200 00070 333 91203 555 11026 22026
BBXX 44060 01121 99413 70721 46/// ///02 10070 40185 53015 91200 22200 00088 333 91203 555 11021 22021
BBXX NWS0020 01124 99261 70801 43/// /0605 10226 20142 40230 5//// 7//// 8//// 222// 04254 2//// 3//// 4//// 5//// 6//// 8//// ICE /////
BBXX NWS0021 01124 99321 70722 43/// /3110 10209 20148 40212 5//// 7//// 8//// 222// 04218 2//// 3//// 4//// 5//// 6//// 8//// ICE /////
BBXX 3EBL5 01123 99260 70801 41899 20907 10240 20057 40220 53020 7//00 82//1 22200 04240 20000 3//// 4//// 5//// 6//// 80140 ICE /////
BBXX WAZV 01124 99490 71280 41597 81255 10060 2//// 40150 54000 76262 887// 22232 00090 20406 313// 41015 5//// 6//// 8//// ICE /////
BBXX NWS0003 01124 99539 71665 43/// /3500 10006 21046 40027 5//// 7//// 8//// 222// 0//// 2//// 3//// 4//// 5//// 6//// 8//// ICE /////
BBXX NWS0029 01124 99415 70707 43/// /2906 10058 20030 40174 5//// 7//// 8//// 222// 04067 2//// 3//// 4//// 5//// 6//// 8//// ICE /////
BBXX OZDQ2 01123 99470 71615 41/97 /0322 10010 40091 56020 70722 8//// 22224 00040 20606
BBXX DGXS 01124 99532 71456 41196 60515 10036 20018 49890 55030 7//72 84/// 22224 00050 21812 33232 41812 51410 80028
BBXX DHEE 01123 99226 71108 41/98 23407 10205 20158 40160 54000 70211 82400 22274 00230 2//// 80175
BBXX PHDL 01123 99306 70633 41298 62212 40245 52008 70282 86700 22224 20301 315// 40703 91024
BBXX PCEX 01123 99293 70945 41/91 /2808 10180 20177 40222 53012 74584 8//// 22200 02168 2//// 80178
BBXX DDJS2 01123 99307 71193 41697 63503 10125 20106 40202 51030 70322 85062 22274 00153 20201 335// 40603 5//// 80115
BBXX PIAG 01123 99599 70682 413// 42220 10090 40175 51048 70200 842// 22263 00180 20503
BBXX DDSC2 01123 99174 70702 41598 60419 10265 20235 40185 53010 70311 85280 22253 00269 20403 30000 80243
BBXX C6KD9 01120 99303 70487 41498 61208 10220 20189 40298 51010 70322 83222 22214 02224 20903 329// 41204 5//// 80200
BBXX DGBE 01123 99510 71419 41/96 81120 10080 20064 49800 58060 70222 8//// 22224 00070 2//// 80072
BBXX DGZS2 01123 99023 11049 41/98 50316 10265 20251 40100 52005 70222 8//// 22254 00270 2//// 80255
BBXX AVMI 01123 99330 31517 41298 40524 10210 20/// 40244 55008 70200 82/// 22200 00210
BBXX YJZC5 01123 99229 31587 41493 72026 10240 20218 40091 51/// 70311 85998 22253 02259 20103 399// 40105 80225
BBXX SHIP 01124 99060 31056 41/97 71713 10258 20250 40017 75122 222// 0//// 20301 326// 40301 5////
BBXX A8VJ2 01123 99067 31329 41498 52610 10280 20252 40099 50/// 71311 84178 22283 00260 20801 30000 80260
BBXX V2BE4 01121 99114 31558 41/97 /2509 10240 20225 40089 52038 76366 8//// 22233 04270 20301 80230
BBXX 2ALD3 01123 99359 31510 41398 40216 10210 20195 40173 53010 70311 84798 22254 04220 2//// 80200
BBXX VNSZ 01124 99404 31459 46/// /0909 10180 20172 30138 40164 52012 22276 85175
BBXX SHIP 01124 99121 31230 41/97 52706 10296 20234 40089 70222 222// 0//// 20301 328// 40301 5////
BBXX ZCBU6 01124 99462 31666 41/98 82128 10155 20137 40097 52015 70011 8//// 22233 00171 20402 321// 41008 5//// 80145
BBXX ZMIQ 01123 99412 31761 41298 81815 10155 20137 40027 58025 7//00 887// 22213 00165 20102 399// 40204 80145
BBXX VRAE2 01124 99156 31579 41/// /1414 10275 20254 40070 52003 75055 8//// 22273 04300 20602 80260
BBXX PBDH 01123 99047 10984 41398 80302 10264 20234 40103 52022 70282 8577/ 22232 00280 20100 303// 40301 80242
BBXX A8KH9 01124 99063 30798 41698 62612 10280 20246 40075 51015 7//// 84464 22214 20404 32499 40606 5//// 80255
BBXX A8KX4 01124 99389 51503 41499 42110 10150 20121 40210 54000 7//// 844// 22264 00161 2//// 80133
BBXX MGRH9 01124 99266 31532 41697 11223 10245 20164 40165 52/// 70100 81100 22200 00245 20806 314// 41003 5//// 80195
BBXX KAOU 01124 99009 10859 43/// /2281 10278 20227 40087 5//// 7//// 8//// 222// 04289 2//// 3//// 4//// 5//// 6//// 8//// ICE /////
BBXX A8KC6 01124 99134 51759 41597 30510 10270 20226 40080 51010 70311 824// 22214 04330 20402 305// 40402 5//// 80240 46379 1738010124
BBXX ELYP7 01124 99143 31146 41697 52116 10280 20239 40080 57010 70322 84460 22243 20404 80250
BBXX DCQR2 01123 99100 31517 41598 73005 10283 20251 40072 50000 71682 8477/ 22284 04290 20101 3//// 4//// 5//// 80259
BBXX PCDE 01123 99380 31494 41998 00000 10215 20166 40160 54000 7//// 80000 22253 2//// 30000 80183
BBXX DDYZ2 01124 99361 10148 41799 11405 10160 20144 40230 51010 7//// 81/// 22224 00170 20602 30000 80150
BBXX A8IP2 01123 99369 70319 41298 50415 10171 20150 40037 53/// 703// 8/77/ 22224 06170 20504 334// 40704 5//// 80158
BBXX 62023 01123 99514 70079 46/96 /2626 10103 2//// 40017 5//// 22200 10707 70034 555 70051 80010
BBXX TFBKF 01124 99635 70202 46/// ///// 22200 10806 70028
BBXX LF4H 01124 99596 10022 46/98 12319 10078 20050 49868 57003 8//// 22200 06084 10705 70026 333 91121
BBXX LAHV 01121 99589 10057 43/// /1907 10084 20057 49916 222// 04082 1////
BBXX LMEL 01121 99603 10053 43/// /1403 10059 20059 49882 5//// 222/0 04088 1//// 3//// 4//// 5////
BBXX C6KD5 01123 99462 70081 41297 82524 10129 20120 40140 53008 76166 87774 22254 02132 21509 325// 41308 5//// 80124
BBXX DEDI 01123 99445 70150 41598 52723 10155 20102 40175 58005 70322 824// 22224 00150 20704 329// 41006 80125
BBXX DDSD2 01123 99406 70231 41498 52922 40290 55030 703// 852// 22254 21608 3//// 4//// 5////
BBXX PDXQ 01123 99538 10070 41597 42515 10095 20076 40060 54000 70551 82576 22223 04065 20601 30000 80085
BBXX PDNN 01123 99469 70059 41297 82348 10149 20131 40104 57012 78082 886// 22242 20408 327// 40706 80138 91024
BBXX PHAM 01123 99495 70011 41496 81821 10117 20089 40080 57030 75255 8/700 22200 20602 80102 91024
BBXX UCAB 01121 99664 10080 41/97 92212 10070 49823 54000 70062 8//// 22283 00090 21110
BBXX C6OT4 01124 99092 70911 41/98 20612 10254 20237 40113 53011 70300 8//78 22223 04266 20705 323// 41303 5//// 80242
BBXX WZP8164 01124 99472 70866 41/98 82921 10005 2//// 40007 57001 70222 8//// 22223 0//// 20402 3//// 4//// 5//// 6//// 8//// ICE /////
BBXX WE4805 01124 99468 70867 41/// 83022 10013 2//// 49997 54000 77507 8//// 22273 0//// 20302 3//// 4//// 5//// 6//// 8//// ICE /////
AAXX 01124 60351 12970 13206 10172 20102 40264 58019 60001 81032 333 81359 95900
AAXX 01124 60355 42660 52104 10166 20078 40268 58002 60001 82202 333 0//00 82833 84073 95900
AAXX 01124 60445 12965 02003 10115 20063 39107 48576 58014 60001 333 95900
AAXX 01124 60468 12565 12604 10112 20034 39318 48570 57007 60001 81100 333 81826 95900
AAXX 01124 60507 12975 00000 10158 20017 40299 58009 60001 333 95900
AAXX 01124 60511 12970 02508 10145 20014 39157 48587 58006 60001 333 95900
AAXX 01124 60535 12970 03610 10090 20010 38925 48582 58005 60001 333 0//00 95900
AAXX 01124 60536 12975 01804 10170 20038 39412 48590 58003 60001 333 95900
AAXX 01124 60549 11960 01706 10131 20029 39015 48604 58006 60001 333 95900
AAXX 01124 60550 12980 00000 10101 21003 38763 48596 58002 60001 333 0//00 95900
AAXX 01124 60555 12970 00000 10160 20030 40280 58004 60001
AAXX 01124 60559 12960 02603 10167 20039 40292 58005 60001
AAXX 01124 60581 12960 02604 10164 20015 40294 58007 60001 333 0//00
AAXX 01124 60602 12965 00000 10151 20012 40298 58004 60001 333 0//00 95900
AAXX 01124 60607 12960 00108 10137 21011 40289 58010 60001 333 0//00
AAXX 01124 60640 12960 20612 10155 20039 40277 58020 60001 82030 333 0//00 82360
AAXX 01124 60690 NIL
AAXX 01124 60360 12575 22410 10172 20110 40272 58014 60001 81802 333 0//00 81826 95910
AAXX 01124 60390 12970 10000 10184 20063 40287 56017 60001 80002 333 81070 95900
AAXX 01124 60402 12965 12408 10165 20087 40282 58019 60001 80002 333 81073 95900
AAXX 01124 60419 12965 20000 10133 20067 40288 58012 60001 82030 333 82360 95900
AAXX 01124 60475 12975 13210 10134 20034 39327 48580 51005 60001 80002 333 81073 95900
AAXX 01124 60490 12980 02004 10168 20051 40284 56009 60001 333 0//00 95900
AAXX 01124 60525 12965 03010 10177 20039 40269 58011 60001 333 0//00 95900
AAXX 01124 60531 NIL
AAXX 01124 60566 12960 00000 10170 20027 40299 58006 60001 333 0//00
AAXX 01124 60571 12980 00000 10154 21001 39355 48596 58008 60001 333 0//00 95900
AAXX 01124 60580 12960 00000 10173 20074 40292 58013 60001
AAXX 01124 60590 12960 00000 10154 20025 40303 58010 60001 333 0//00
AAXX 01124 60611 12660 31208 10146 20008 40274 58015 60001 82230 333 0//00 82833
AAXX 01124 60620 12960 00611 10160 20014 40299 58003 60001 333 0//00
AAXX 01124 60630 11959 00622 10184 21014 40259 58014 70700
AAXX 01124 60656 12980 21004 10160 21015 40287 58001 60001 80002 333 0//00 82073
AAXX 01124 60670 12683 60000 10135 21059 39133 48565 58014 60001 82270 333 0//00 82846 84460 95900
AAXX 01124 60680 12982 41803 10165 21141 38685 48560 58018 60001 83032 333 83362 95900
BBXX UBVF4 01121 99550 10058 41598 72412 10100 40025 57007 70222 87420 22213 20203
BBXX DDYL2 01123 99337 10250 41597 53316 10150 20053 40150 52010 76266 8506/ 22264 00180 20303 329// 41208 80100
AAXX 01124 60360 12575 22410 10172 20110 40272 58014 60001 81802 333 0//00 81826 95910
AAXX 01124 60390 12970 10000 10184 20063 40287 56017 60001 80002 333 81070 95900
AAXX 01124 60402 12965 12408 10165 20087 40282 58019 60001 80002 333 81073 95900
AAXX 01124 60419 12965 20000 10133 20067 40288 58012 60001 82030 333 82360 95900
AAXX 01124 60475 12975 13210 10134 20034 39327 48580 51005 60001 80002 333 81073 95900
AAXX 01124 60490 12980 02004 10168 20051 40284 56009 60001 333 0//00 95900
AAXX 01124 60525 12965 03010 10177 20039 40269 58011 60001 333 0//00 95900
AAXX 01124 60531 NIL
AAXX 01124 60566 12960 00000 10170 20027 40299 58006 60001 333 0//00
AAXX 01124 60571 12980 00000 10154 21001 39355 48596 58008 60001 333 0//00 95900
AAXX 01124 60580 12960 00000 10173 20074 40292 58013 60001
AAXX 01124 60590 12960 00000 10154 20025 40303 58010 60001 333 0//00
AAXX 01124 60611 12660 31208 10146 20008 40274 58015 60001 82230 333 0//00 82833
AAXX 01124 60620 12960 00611 10160 20014 40299 58003 60001 333 0//00
AAXX 01124 60630 11959 00622 10184 21014 40259 58014 70700
AAXX 01124 60656 12980 21004 10160 21015 40287 58001 60001 80002 333 0//00 82073
AAXX 01124 60670 12683 60000 10135 21059 39133 48565 58014 60001 82270 333 0//00 82846 84460 95900
AAXX 01124 60680 12982 41803 10165 21141 38685 48560 58018 60001 83032 333 83362 95900
AAXX 0112/ 41858 NIL
AAXX 0112/ 41863 NIL
AAXX 0112/ 41886 NIL
AAXX 0112/ 41895 NIL
AAXX 0112/ 41909 NIL
AAXX 0112/ 41915 NIL
AAXX 0112/ 41926 NIL
AAXX 0112/ 41929 NIL
AAXX 0112/ 41933 NIL
AAXX 0112/ 41939 NIL
AAXX 0112/ 41941 NIL
AAXX 0112/ 41946 NIL
AAXX 0112/ 41947 NIL
AAXX 0112/ 41951 NIL
AAXX 0112/ 41953 NIL
AAXX 0112/ 41958 NIL
AAXX 0112/ 41960 NIL
AAXX 0112/ 41963 NIL
AAXX 0112/ 41964 NIL
AAXX 0112/ 41965 NIL
AAXX 0112/ 41966 NIL
AAXX 0112/ 41984 NIL
AAXX 0112/ 41989 NIL
AAXX 0112/ 41998 NIL
AAXX 01124 60351 12970 13206 10172 20102 40264 58019 60001 81032 333 81359 95900
AAXX 01124 60355 42660 52104 10166 20078 40268 58002 60001 82202 333 0//00 82833 84073 95900
AAXX 01124 60445 12965 02003 10115 20063 39107 48576 58014 60001 333 95900
AAXX 01124 60468 12565 12604 10112 20034 39318 48570 57007 60001 81100 333 81826 95900
AAXX 01124 60507 12975 00000 10158 20017 40299 58009 60001 333 95900
AAXX 01124 60511 12970 02508 10145 20014 39157 48587 58006 60001 333 95900
AAXX 01124 60535 12970 03610 10090 20010 38925 48582 58005 60001 333 0//00 95900
AAXX 01124 60536 12975 01804 10170 20038 39412 48590 58003 60001 333 95900
AAXX 01124 60549 11960 01706 10131 20029 39015 48604 58006 60001 333 95900
AAXX 01124 60550 12980 00000 10101 21003 38763 48596 58002 60001 333 0//00 95900
AAXX 01124 60555 12970 00000 10160 20030 40280 58004 60001
AAXX 01124 60559 12960 02603 10167 20039 40292 58005 60001
AAXX 01124 60581 12960 02604 10164 20015 40294 58007 60001 333 0//00
AAXX 01124 60602 12965 00000 10151 20012 40298 58004 60001 333 0//00 95900
AAXX 01124 60607 12960 00108 10137 21011 40289 58010 60001 333 0//00
AAXX 01124 60640 12960 20612 10155 20039 40277 58020 60001 82030 333 0//00 82360
AAXX 01124 60690 NIL
BBXX 41053 01121 99185 70661 46/// /1204 10254 40188 53020 91200 22200 00269 10602 70012 333 91205
BBXX 41053 01121 99185 70661 46/// /1204 10254 40186 91150 333 91206
BBXX 41053 01121 99185 70661 46/// /1205 10254 40184 91140 333 91206
AAXX 01121 38847 42999 02702 10006 21011 40255 53006
AAXX 01121 40701 12660 70000 10016 21056 38571 40203 58010 60001 84570 333 84635 86360
AAXX 01121 40704 12665 62108 10062 21011 38582 40150 56004 60001 82502 333 82640 85070
AAXX 01121 40708 12660 51609 10070 21001 38618 40119 58006 60001 84330 333 82835 82940
AAXX 01121 40710 12673 72703 10038 21017 38290 40169 55006 60001 83570 333 83635 86359
AAXX 01121 40713 12660 71403 10062 20021 38640 40162 56010 60001 84370 333 82835 82936 84359
AAXX 01121 40719 11550 73603 10118 20081 30159 40148 56011 60001 70522 82570 333 82625 86358
AAXX 01121 40731 11540 70000 10038 20032 38724 40195 55011 60021 71062 84370 333 81930 83635 87459
AAXX 01121 40738 11640 60102 10112 20108 30169 40171 53001 69901 71082 83550 333 83635 85359
AAXX 01121 40740 12660 62302 10060 21041 38691 40153 56009 60001 86400 333 86635
AAXX 01121 40747 11558 52003 10085 20031 38609 40157 56006 60001 70521 85360 333 82930 84840
AAXX 01121 40757 12662 63601 10092 21043 38888 40190 56006 60001 83570 333 83635 85359
AAXX 01121 40763 12665 30000 10102 21050 38911 40195 57011 60001 83400 333 83635
AAXX 01121 40782 12660 71502 10082 20048 38876 40181 58019 60031 84370 333 81935 83640 87459
AAXX 01121 40783 12562 72802 10056 21004 37967 40146 56015 60001 85370 333 81930 84635 87359
AAXX 01121 40789 12665 50000 10112 21051 39186 40174 56015 60001 82530 333 82640 83360
AAXX 01121 40798 11560 72004 10034 20001 37962 40185 55013 60011 70287 85370 333 82930 83635 87359
AAXX 01121 40818 12665 22407 10140 21065 37961 40126 56014 60001 82500 333 82640
AAXX 01121 40827 12965 41504 10110 21087 38844 40241 55006 60001 83072 333 83360
AAXX 01121 40836 12665 62206 10128 21315 38203 40165 57012 60001 85370 333 82835 83640 85360
AAXX 01121 40851 12960 22206 10186 21024 38262 40151 56017 60001 80001 333 82070
AAXX 01121 40853 12665 12710 10144 21061 37758 40146 56008 60001 81100 333 81840
AAXX 01121 40854 12960 10402 10178 21066 38935 40139 56015 60001 80002 333 81070
AAXX 01121 40857 12960 61809 10210 20167 30145 40154 57019 60001 86070 222// 00202 20402 333 86360
AAXX 01121 40859 12960 01705 10176 21098 38717 40156 56019 60001 333
AAXX 01121 40878 12970 01203 10172 21146 38852 40211 56012 60001 333
AAXX 01121 40879 12960 02402 10220 21130 39495 40180 55010 60001 333
AAXX 01121 40883 12960 01603 10234 20089 30147 40170 56014 60001 222// 00218 20500 333
AAXX 01121 40898 12962 00000 10232 20046 30160 40169 56014 60001 222// 00235 10400 333
BBXX 46207 01121 99509 71299 46/// /1421 10063 40089 57031 22200 00080 11216 70081 333 91226
AAXX 01124 91945 36/// /0804 10243 20222 30141 40146 58015 333 10298
AAXX 01121 45032 36/// /0802 10154 20111 30205 40222 52001
AAXX 01121 45035 36/// /1303 10167 20118 30177 40220 52001
AAXX 01121 45039 36/// /9902 10156 20123 30207 40223 52002
AAXX 01121 45044 36/// /0906 10157 20121 30124 40218 52001
BBXX 46207 01121 99509 71299 46/// /1421 10063 40089 57031 22200 00080 11216 70081 333 91226
AAXX 01121 45032 36/// /0802 10154 20111 30205 40222 52001
AAXX 01121 45035 36/// /1303 10167 20118 30177 40220 52001
AAXX 01121 45039 36/// /9902 10156 20123 30207 40223 52002
AAXX 01121 45044 36/// /0906 10157 20121 30124 40218 52001
BBXX 3ERR2 01124 99635 10053 41598 82024 10078 20062 49831 57004 72582 83903 22200 06100 10907 70034 333 91137
BBXX LF3F 01124 99643 10078 43/// /1516 10062 20037 49854 57003 22200 04083 10706 70028 333 91124
BBXX LF3N 01124 99653 10073 41497 71918 10078 20059 49837 54000 71582 879// 22200 00089 10706 70032
BBXX LF4B 01124 99606 10037 47/98 /2217 10074 49867 57005 782// 22200 00059 10705 70026 333 91126
BBXX LF4C 01124 99584 10019 41498 52322 10086 20056 49888 57004 70320 852// 22200 00072 10605 70026 333 91131
BBXX LF5T 01124 99660 10081 43397 81824 10060 20046 49834 52001 889// 22200 10807 70035 333 91134
AAXX 01121 38599 41215 80804 11021 21030 39706 40240 4000 71042 886// 333 88705
AAXX 01124 87344 32560 22903 10244 20154 39612 40142 52013 82500 333 10287 20193 56500 82625
AAXX 01124 87349 32570 12702 10258 20133 39764 40145 51008 81100 333 10282 20178 30018 56000 81830
AAXX 01124 87371 32962 00911 10235 20158 30137 40158 52017 333 10269 20197
AAXX 01124 87374 32965 00513 10234 20159 30064 40150 52013 333 10248 20184
AAXX 01124 87395 32465 41114 10236 20165 30101 40146 51015 84500 333 10268 20174 56200 84616
AAXX 01124 87418 32965 01402 10297 20126 39338 40096 52021 333 10324 20231
AAXX 01124 87436 32970 03405 10304 20167 39338 40110 53024 333 10312 20215
AAXX 01124 87448 32965 01805 10250 20165 39582 40125 52020 333 10286 20180
AAXX 01124 87453 32965 03615 10270 20136 39660 40130 52012 333 10280 20210
AAXX 01124 87467 NIL
AAXX 01124 87497 32965 00910 10225 20156 30145 40172 52016 333 10257 20179
AAXX 01124 87506 32970 01805 10232 20067 38614 48542 52013 333 10276 20136 95000
AAXX 01124 87509 32970 00000 10272 20123 39296 40110 51013 333 10296 20186 30016
AAXX 01124 87534 32960 03614 10239 20167 39994 40151 52017 333 10289 20164 30012
AAXX 01124 87548 32962 00216 10228 20152 30056 40149 52004 333 10277 20166
AAXX 01124 87576 32560 10513 10242 20138 30160 40183 51015 81100 333 10250 20206 56200 81830
AAXX 01124 87582 32960 00906 10222 20152 30178 40185 52015 333 10244 20210
AAXX 01124 87585 32460 10505 10226 20163 30150 40180 51015 81100 333 10245 20202 30019 56200 81815
AAXX 01121 40716 11658 80602 10048 20030 38894 40178 57012 69941 70262 8342X 333 83635 88458
AAXX 01121 40719 11550 73603 10118 20081 30159 40148 56011 60001 70522 82570 333 82625 86358
AAXX 01121 40721 12960 40000 10102 21006 39618 40161 55001 60001 83032 333 83360
AAXX 01121 40858 12660 62107 10220 20125 30146 40156 57016 60001 81570 333 81640 85360
AAXX 01121 40872 12960 01504 10240 20125 30163 40168 58018 60001 222// 00228 20301 333
AAXX 01121 40877 12960 00000 10212 21019 39593 40141 57025 60001 333
AAXX 01121 40898 12962 00000 10232 20046 30160 40169 56014 60001 222// 00235 10400 333
AAXX 01121 22165 41596 60317 11032 21063 30106 40170 52016 73832 84530 333 91123
AAXX 01121 22676 41456 81701 11002 21005 30087 40166 52009 77072 885//
AAXX 01121 22837 41498 70802 11005 21026 30066 40137 51003 70282 879// 333 85916
AAXX 01121 22954 42665 80201 11048 21054 39904 40160 52004 885// 333 88640
AAXX 01121 23405 41956 80000 11032 21039 30062 40165 52010 77172 8802/
AAXX 01121 23412 42398 81802 11009 21019 30062 40160 52001 883// 333 86708
AAXX 01121 23803 41597 81701 11052 21059 30019 40204 52007 77172 8802/ 333 88525
AAXX 01121 27066 41396 81301 11034 21045 39994 40176 52008 77177 8872/ 333 88707
AAXX 01121 27083 41459 81301 11043 21052 39958 40187 52006 77172 8802/
AAXX 01121 27113 41448 80702 11008 21012 39980 40128 54000 77187 8372/
AAXX 01121 27242 41462 81003 11022 21028 30008 40139 58001 78582 887//
AAXX 01121 27329 41537 81802 11006 21012 39981 40108 54000 78682 889//
AAXX 01121 27355 41496 81402 11020 21023 39987 40155 54000 77172 8872/
AAXX 01121 27373 41299 81403 11047 21053 39959 40183 52002 70272 8667/ 333 86705 91401
AAXX 01121 27665 42297 81502 11008 21018 39891 40165 53003 886// 333 88705
AAXX 01121 27835 41450 70000 10007 21001 39984 40143 52003 71072 875// 333 87617
AAXX 01121 28009 41498 82001 11065 21077 39995 40213 52006 70272 885//
AAXX 01121 28411 41497 81502 11075 21092 30027 40230 52009 78587 8632/ 333 86918
AAXX 01121 28418 41599 81602 11069 21098 30060 40233 52008 70282 885// 333 88626
AAXX 01121 38599 41215 80804 11021 21030 39706 40240 4000 71042 886// 333 88705
AAXX 01123 87480 32965 00712 10237 20162 30129 40158 52016 333 10268 20204
AAXX 01123 87532 32970 00508 10244 20167 39984 40149 52017 333 10290 20206
AAXX 01121 34560 41/01 91305 11008 21008 30004 40173 57006 74944 333 89/02
AAXX 01121 34720 41597 80503 10014 20012 30069 40109 56024 70242 886//
AAXX 01121 34730 41230 80905 10006 20004 30024 40117 57017 71042 8665/ 333 86704 93400
AAXX 01121 34740 42998 71204 10042 20019 30029 40125 57012 84031
AAXX 01121 34824 42597 80201 10044 20022 30097 40102 55008 885//
AAXX 01121 34858 41496 81403 10015 20005 30045 40153 56007 71042 886//
AAXX 01121 34866 42498 81403 10010 20009 30184 40175 56006 8860/
AAXX 01121 34880 41496 83402 10013 21005 30211 40184 55002 71022 8672/ 333 88414
AAXX 01121 37018 42998 81204 10114 20009 30039 40113 57009 8807/
AAXX 01121 37054 42598 60805 10000 21012 39765 40156 55005 86500
AAXX 01121 37472 42597 71103 10048 20014 30185 40163 55004 85531
AAXX 01121 22282 41/// 91013 11045 21058 30144 40152 52005 73933 333 91118
AAXX 01121 22438 NIL
AAXX 01121 22471 42484 72202 11025 21041 30119 40143 51002 82530
AAXX 01121 22563 42478 72701 11016 21027 30124 40163 52013 86330 333 86611
AAXX 01121 22641 42399 80000 11058 21065 30141 40157 51010 886// 333 88708 91100
AAXX 01121 22695 41398 81801 11009 21015 30020 40174 52009 70272 887// 333 87707
AAXX 01121 22867 41293 80000 11031 21035 30046 40162 52008 74442 886// 333 88703 91102
AAXX 01121 22939 41396 80501 11014 21022 39971 40135 52002 77172 8872/ 333 84709
AAXX 01121 22996 41997 81801 11048 21065 30002 40197 52010 77172 8802/
AAXX 01121 23324 41377 82203 11024 21033 30090 40169 52005 70272 886// 333 88708
AAXX 01121 27008 41598 80501 11016 21024 39955 40128 52001 70272 885//
AAXX 01121 27051 41496 80802 11013 21027 39987 40156 52003 77172 8552/ 333 85614
AAXX 01121 27225 41456 80803 11012 21022 39985 40117 54000 77172 8872/ 333 88716
AAXX 01121 27252 41457 80903 11034 21038 39962 40151 57005 71072 885// 333 88618
AAXX 01121 27333 41280 81704 11016 21027 39964 40124 57002 70272 887// 333 88707
AAXX 01121 27369 41659 81402 11002 21036 30026 40167 54000 77072 885//
AAXX 01121 27393 42598 80000 11080 21094 30036 40211 52007 84401
AAXX 01121 27479 41450 81403 11028 21041 30041 40178 58001 78582 889// 333 88916
AAXX 01121 27532 41295 81802 10002 21004 39914 40129 52010 8872/ 333 86706
AAXX 01121 27648 41294 81401 10002 21001 39973 40143 52005 77172 8872/ 333 88706
AAXX 01121 27675 41497 81305 11023 21035 30000 40173 58002 70272 885// 333 88618
AAXX 01121 27679 41498 81503 11027 21043 39959 40187 52002 70272 885// 333 88617
AAXX 01121 28214 41999 81801 11078 21100 30002 40223 52008 70272 8807/
BBXX 3FZK3 01124 99489 71237 46/// /2903 10020 20019 40277 53011 7//// 8//// 22200 0//// 2////
BBXX 46001 01121 99563 71480 46/// /3517 11007 49967 56029 91150 22200 00041 10809 20809 300// 41401 70046 333 91221 555 11178 22188 31102 43422 61149 351167 350169 351170 349171 351170 349176
BBXX 46026 01121 99378 71228 46/// /0810 10128 40196 56007 91150 22200 00115 11304 20502 329// 41304 70022 333 91213 555 11109 22119 31101 42816 61149 074104 281106 281101 282104 284122 288127
BBXX 46042 01121 99368 71224 46/// /0707 10131 40185 50000 91150 22200 00124 11204 20402 331// 41204 70022 333 91209 555 11075 22081 31105 40811 61149 075069 079069 075074 081088 076089 070084
BBXX A8IM7 01124 99342 71262 41/98 /0304 10140 20105 40210 58020 70322 8//// 22224 20204 3//// 4//// 5//// 80120
BBXX CG2958 01124 99512 71279 46/// /1233 10065 21027 40126 58053 7//// 8//// 22242 0//// 2////
BBXX CGBR 01124 99525 71288 46/// /3609 10041 20025 40152 58020 7//// 8//// 22200 0//// 2////
BBXX CGBY 01124 99487 71235 46/// /0102 10035 20016 40272 53010 7//// 8//// 22200 0//// 2////
BBXX CGDR 01124 99484 71234 46/// /0205 10055 20030 40264 53006 7//// 8//// 22200 0//// 2////
BBXX DGBE 01123 99510 71419 41/96 81120 10080 20064 49800 58060 70222 8//// 22224 00070 2//// 80072
BBXX DGDD 01121 99319 71237 41/97 70705 10140 20114 40205 5/010 70200 8//// 22224 04150 2//// 3//// 4//// 5//// 80125
BBXX DGXS 01124 99532 71456 41196 60515 10036 20018 49890 55030 7//72 84/// 22224 00050 21812 33232 41812 51410 80028
BBXX WAZV 01124 99490 71280 41597 81255 10060 2//// 40150 54000 76262 887// 22232 00090 20406 313// 41015 5//// 6//// 8//// ICE /////
BBXX IDDUK02 01124 99538 50380 46/// ///// 40062 222//
BBXX BATFR53 01124 99174 51283 44/97 00609 10247 20189 40152 56010 70200 22222 00259 309// 40502 5////
BBXX DGZS2 01123 99023 11049 41/98 50316 10265 20251 40100 52005 70222 8//// 22254 00270 2//// 80255
BBXX V7DS3 01123 99246 71523 41/98 30515 10220 20189 40190 54000 70222 8/262 22223 06220 20402 80200
BBXX BAREU54 01124 99098 70814 46/// ///// 40121 52007 22223
BBXX BAREU04 01124 99412 70676 46/// ///// 40148 52013 22213
BBXX BATFR13 01124 99253 70510 44498 40920 10242 20194 40268 53010 70211 843// 22254 00252 20404 311// 41204 5////
BBXX BATEU04 01124 99630 70512 46/// /3505 11123 21181 40013 57001 22233
BBXX FVNM 01124 99144 70822 46/// /0815 10262 20222 40144 53017 22281 00277
BBXX PHQX 01123 99149 70654 41597 20909 10272 20217 40180 52020 70200 82200 22254 20303 3//// 4//// 5//// 80233
BBXX 41101 01124 99146 70562 46/// /0822 10266 20221 40166 52024 22200 00268 10806 70030 555 1/028
BBXX PCEO 01123 99237 70508 41598 30608 10240 20180 40251 52004 7//00 831/5 22254 04251 20401 316// 40501 5//// 80200
BBXX A8KM9 01124 99271 71724 41/98 12118 10235 20189 40159 56011 72581 8//// 22264 20403 80204
BBXX A8IM7 01124 99342 71262 41/98 /0304 10140 20105 40210 58020 70322 8//// 22224 20204 3//// 4//// 5//// 80120
BBXX VRFO7 01124 99273 70474 41698 50917 10230 20165 40290 52010 70300 852// 22254 20802 332// 40806 80190
BBXX DHSI 01124 99449 70071 41397 81342 10150 20133 40175 58005 70200 8/7// 22252 00110 29910 80140
BBXX BAREU63 01124 99324 10197 46/// /1806 10164 29056 40214 57011 22282
BBXX BAREU08 01124 99406 70231 46/// ///// 40290 52040 22254
BBXX BAREU11 01124 99541 10081 46/// ///// 40049 52002 22200
BBXX BAREU06 01124 99431 10100 46/// ///// 40219 52001 22214
BBXX BATFR27 01124 99466 70046 46/// /2133 10144 20107 40134 58048 22283 00137
BBXX BATFR15 01124 99496 70042 46/// /2419 10127 20117 40059 58019 22224 00122
BBXX BATFR09 01124 99437 70091 44296 82036 10144 20119 40205 58022 74022 884// 22213 00147 20406 328// 40910 5//// 60//0 ICE 0/0//
BBXX BATEU05 01124 99662 70136 46/// /3504 10009 49629 51009 22272
BBXX BATFR21 01124 99433 10077 46/// /0809 20422 40213 22233
BBXX BATFR46 01124 99388 10004 44/97 02204 10159 20120 40259 58008 700// 22253 00165 20000
BBXX BATEU08 01124 99578 10016 46/// /2431 10084 20050 49904 53022 22223
BBXX BATEU01 01124 99439 70245 44197 72933 10119 20049 40236 51030 72522 83777 22263 00149 20402 329// 41008 5////
BBXX BATEU09 01124 99410 10088 46/// /2513 10155 20122 40222 22221 00160
BBXX 61001 01124 99434 10078 46/// /1104 10131 20105 40210 54000 22200 00138 10702 70011
BBXX BATUK01 01124 99560 70032 46/// /2405 10080 20012 49911 58011 22200 00062
BBXX 61002 01124 99421 10047 46/// ///15 10139 2//// 40236 57010 22200 00133 10503 70016
BBXX A8VL5 01124 99514 10027 41/97 /2225 10120 20102 40191 55009 7//// 8/7// 22200 00120 2//04 80110
BBXX BAREU61 01124 99064 10034 46/// /1903 10293 29068 40116 57015 22262
BBXX BATFR45 01124 99012 10527 46/// ///// 10280 20215 40115 55012 22254 00282
BBXX BATFR05 01124 99079 70146 46/// /0912 10280 20195 40127 58012 22273 00264
BBXX BATFR19 01124 99067 30055 46/// /1810 10244 20194 40139 58016 22200 00259
BBXX BATFR08 01124 99266 30545 44597 31311 10242 20162 40130 58007 702// 831// 22243 00265 20804 315// 40804 5////
BBXX A8FA5 01123 99281 70154 41598 60508 10220 20131 40320 5/000 7//22 8446/ 22200 20202 304// 40501 5//// 80165
BBXX A8RV9 01124 99176 50170 41697 50724 10227 20169 40134 51/// 70300 84713 22234 20404 311// 40904 5//// 80189
BBXX V7OX3 01124 99345 50205 41598 32806 10220 20205 40210 54000 7//00 82141 22223 04240 20801 301// 41201 5//// 80210
BBXX 3EYJ5 01123 99125 30084 41/98 71815 10250 20188 40150 56005 70322 86469 22244 04270 2//// 318// 41603 5//// 80210
AAXX 01124 60353 12575 23204 10170 20106 40268 58017 60001 82130 333 0//00 82820 91838 95900
AAXX 01124 60367 12565 7//// 10153 20126 40284 53009 60001 878// 333 0//00 83820 86640
AAXX 01124 60369 12960 00306 10170 21011 40277 57013 60001 333 0//00 91827
AAXX 01124 60401 NIL
AAXX 01124 60403 12670 20000 10150 20088 40282 58017 60001 81230 333 0//00 81840 95900
AAXX 01124 60425 12975 00000 10137 20065 40296 58008 60001 333 0//00 95900
AAXX 01124 60461 12970 00000 10166 20048 40284 58008 60001 222// 20000 333 91808 95900
AAXX 01124 60467 12960 03208 10115 20049 40293 58010 60001 333 0//00 95900
AAXX 01124 60492 12970 00000 10130 20091 40287 50000 60001 333 95900
AAXX 01124 60515 12960 00000 10110 20057 40294 58015 60001 333 0//00 95900
AAXX 01124 60517 12965 03202 10164 20091 40287 58011 60001 333 0//00 95900
AAXX 01124 60522 NIL
AAXX 01124 60557 12975 00000 10120 21004 38955 48591 58006 60001 333 95900
AAXX 01124 60563 12960 00000 10143 20002 39395 48592 53005 60001 333 0//00
AAXX 01124 60603 12960 01006 10152 20007 40305 57020 60001 333 0//00
AAXX 01124 60638 12960 01106 10150 20000 40287 58017 60001
AAXX 01124 60686 12960 00920 10210 21069 40223 58011 60001 70700 333 0//00
BBXX 44067 01121 99384 70770 46/// /1902 10046 40206 52004 91200
AAXX 01124 60395 12960 00000 10153 20087 40278 58018 60001 333 95900
AAXX 01124 60421 12965 00000 10115 20065 39236 48572 58007 60001 333 0//00 95900
AAXX 01124 60423 12670 40000 10130 20073 39289 48556 58004 60001 84200 333 84840 95900
AAXX 01124 60430 12965 00000 10140 20059 40294 58005 60001 333 0//00 95900
AAXX 01124 60437 12980 10000 10120 20033 39064 48562 58009 60001 80001 333 81070 95900
AAXX 01124 60444 12975 00000 10134 20044 39182 48589 50002 60001 333 95900
AAXX 01124 60452 12965 0//// 10156 20064 40276 58014 60001 222// 20000 333 91826
AAXX 01124 60457 12970 03304 10170 20051 40288 58007 60001 333 95900
AAXX 01124 60514 12960 10000 10144 20012 39370 48601 51002 60001 80002 333 0//00 81073 95900
AAXX 01124 60518 12965 01806 10170 20034 40269 55006 60001 222// 20000 333 0//00 91807 95900
AAXX 01124 60520 12970 02404 10162 20038 40284 58008 60001 333 95900
AAXX 01124 60540 12960 00000 10094 20025 39127 48579 58005 60001 333 95900
AAXX 01124 60560 12670 00000 10136 21023 39055 48594 50005 60001 333 95900
AAXX 01121 03976 10070 20024 39913 49925 56002 60021 72782 83901 333 82920 81820 84075 96487 90710 91121
AAXX 01124 60370 NIL
AAXX 01121 60371 36/// /3201 10168 20072
AAXX 01121 60372 36/// /0000 10165 20050
AAXX 01121 60373 NIL
AAXX 01121 60374 NIL
AAXX 01121 60376 NIL
AAXX 01121 60379 NIL
AAXX 01121 60380 NIL
AAXX 01121 60381 NIL
AAXX 01121 60393 NIL
AAXX 01121 60394 NIL
AAXX 01121 60593 NIL
AAXX 01121 60595 NIL
AAXX 01121 60605 NIL
AAXX 01121 60613 NIL
AAXX 01121 60623 NIL
AAXX 01124 60624 36/// /0000 10153 21047
AAXX 01124 60639 NIL
AAXX 01124 60645 36/// /0000 10182 21019
AAXX 01121 14235 12460 8//// 10031 21052 39039 48490 53002 60001 8357/ 333 70000
AAXX 01121 14246 11670 81502 10045 20003 30000 40208 56003 69901 7616/ 885// 333 70000
AAXX 01121 14314 12681 21001 10117 20007 30158 40222 53001 60001 81261 333 70000 92311 92418
AAXX 01121 14323 12682 23001 10112 20025 30187 40221 56002 60001 82500 333 70000 92311 92418
AAXX 01121 14324 12780 30903 10038 21064 38420 48521 51006 60001 83030 333 70000
AAXX 01121 14328 12660 71201 10044 21012 39803 40204 58009 60001 86530 333 70000
AAXX 01121 14330 12982 50301 10033 21056 39539 40220 58008 60001 85030 333 70000
AAXX 01121 14438 12984 13001 10122 21006 30125 40216 58001 60001 81040 333 70000 92301
AAXX 01121 14443 32699 332// 10124 20080 30124 40223 52003 83100 333 70000 92312
AAXX 01121 14447 NIL
AAXX 01121 14472 12980 02303 10118 21088 30136 40201 50000 60001 222// 00156 333 70000 92312
AAXX 01121 08501 NIL
AAXX 01121 08505 11470 31603 10178 20121 30279 40329 52016 69921 70181 82842 333 81818 555 50024 60007
AAXX 01121 08506 32/// /0104 10164 20114 30269 40341 52018 333 91108 555 50034 60005
AAXX 01121 08509 11560 43105 10162 20133 30259 40324 52012 60021 70181 82850 333 81830 91110 555 50024 69947
AAXX 01121 08511 32/// /3103 10168 20105 30218 40326 52010 333 91006 91108 555 50024 60005
AAXX 01121 08512 NIL
AAXX 01121 08515 42275 62905 10184 20164 30208 40331 51010 86800 222// 00173 333 81705 83812 910// 911// 555 59924 60007 912//
AAXX 01121 08521 32470 50405 10179 20084 30263 40334 50007 85800 333 83818 84630 555 50004 60007
AAXX 01121 08522 32/// /9901 10190 20072 30266 40335 52009 555 50004 60005
AAXX 01121 08524 32470 73503 10171 20092 30236 40334 52007 87800 333 81815 87630 91105 555 50004 60005
AAXX 01121 08530 NIL
AAXX 01121 08531 32/// /2505 10146 20089 30259 40297 57003 333 91108 555 50004 60005
AAXX 01121 08532 NIL
AAXX 01121 08533 32/// /3503 10158 20103 30279 40308 57002 333 91106 555 50004 60005
AAXX 01120 08534 32570 72402 10144 20113 30287 40304 50002 87500 333 87628 555 50004 60007
AAXX 01121 08535 32/// /2303 10151 20100 30210 40303 57002 333 91107 555 50004 60005
AAXX 01121 08537 NIL
AAXX 01121 08540 31560 72603 10140 20085 30225 40294 50003 70342 872// 333 87630 555 50004 60007 96644 90325
AAXX 01121 08541 32/// /3103 10144 20088 30186 40306 57003 333 91106 555 50004 60005
AAXX 01121 08544 32560 71905 10136 20096 30261 40282 58003 87502 333 87626 91107 555 50004 60007
AAXX 01121 08545 11562 71804 10128 20091 30198 40282 57003 69951 70265 87802 222// 00145 333 81820 86635 91007 91107 555 59984 60005
AAXX 01121 08548 32/// /9903 10132 20090 30086 40292 57002 555 50004 60005
AAXX 01121 08551 NIL
AAXX 01121 08554 32/// /2302 10158 20105 30295 40305 57005 555 50004 60005
AAXX 01121 08558 32/// /2402 10113 20113 30004 40302 54000 555 50004 60005
AAXX 01121 08560 32/// /9903 10096 20066 39522 40286 57007 333 91105 555 50004 60005
AAXX 01121 08561 31120 73002 10105 20105 30073 40311 50002 74141 872// 333 84702 87820 555 50004 60007 96643 90315 90215 96641
AAXX 01121 08562 32/// /3002 10109 20105 30005 40303 54000 555 59914 60005
AAXX 01121 08567 32/// /2003 10111 20070 39609 40276 57008 333 91106 555 50004 60005
AAXX 01121 08568 32/// /2604 10090 20014 38706 48577 57005 333 91007 91108 555 50004 60005
AAXX 01121 08570 32/// /1302 10082 20063 39829 40297 57003 555 50004 60005
AAXX 01121 08571 32/// /3006 10096 20069 39585 40296 57002 333 91109 555 50004 60005
AAXX 01121 08575 NIL
AAXX 01121 08579 32/// /2402 10141 20085 30176 40301 57002 555 50004 60005
BBXX 46035 01121 99571 71778 46/// /0116 1//// 40034 51019 91150 22200 11008 20806 300// 41005 70039 333 91220 555 11160 22171 31144 43520 61149 013161 023146 022146 022160 027152 021150 80218 91145
BBXX NAZJ 01124 99502 71580 41/// 40218 11011 2//// 40129 54/// 7//// 844// 22252 04044 20702 33636 40705 50705 6//// 8//// ICE /////
BBXX NWS0003 01124 99539 71665 43/// /3500 10006 21046 40027 5//// 7//// 8//// 222// 0//// 2//// 3//// 4//// 5//// 6//// 8//// ICE /////
BBXX OZDQ2 01123 99470 71615 41/97 /0322 10010 40091 56020 70722 8//// 22224 00040 20606
BBXX 44030 01121 99432 70704 46/// /3003 1//// 40153 51020 91204 22200 00080 10801 70004 333 91203 555 11034 22036
AAXX 01121 40700 12960 30402 10100 20030 30066 40156 56014 60001 80005 333 83267
AAXX 01121 40723 12660 60000 10088 21002 38886 40173 55005 60001 83550 333 83640 84359
AAXX 01121 40726 12560 72005 10074 20010 38628 40154 57008 60001 84370 333 82930 82635 86458
AAXX 01121 40727 11640 81203 10018 20008 38460 40184 56010 69961 76022 8452/ 333 84645 88460
AAXX 01121 40734 12562 70602 10118 20090 30178 40152 56007 60001 84870 333 82820 83625 87359
AAXX 01121 40737 12960 43602 10132 20075 30139 40157 57005 60001 84030 333 84360
AAXX 01121 40741 12960 30000 10158 21031 39799 40138 57013 60001 82051 333 82360
AAXX 01121 40780 12560 61607 10112 20021 38670 40146 55011 60001 83370 333 81930 83640 86358
AAXX 01121 40791 12660 72703 10128 21067 39341 40174 57020 60001 84370 333 82935 82640 85360
AAXX 01121 40792 12665 61803 10114 21084 38711 40181 55006 60001 81532 333 81635 85360
AAXX 01121 40794 12660 41005 10206 20040 30061 40158 57018 60001 84500 91140 333 84640
AAXX 01121 40812 12660 60904 10164 20042 39776 40151 56018 60001 84520 91145 333 84640 86459
AAXX 01121 40829 12965 00602 10138 21091 39615 40202 57018 60001 333
AAXX 01121 40833 12660 71609 10234 20024 30128 40160 57018 60001 87300 91145 333 81935 86640
AAXX 01121 40835 12960 70000 10190 21078 39336 40165 57025 60001 87070 333 87360
AAXX 01121 40845 12960 41804 10212 20170 30149 40154 57015 60001 84070 333 84360
AAXX 01121 40882 12960 01902 10232 20101 30131 40166 56014 60001 333
AAXX 01121 40889 12960 00703 10238 20104 30166 40171 56015 60001 222// 00242 20300 333
AAXX 01121 40890 12960 00503 10238 20095 30152 40160 56017 60001 222// 00234 20300 333
AAXX 01121 40893 12960 02105 10236 20135 30164 40170 57015 60001 222// 00215 20401 333
AAXX 01121 40897 15960 00000 10250 21139 30157 40171 56016 60001 333 Q1016 A3003
AAXX 01121 50844 32962 02201 11202 21230 40345 57007
AAXX 01121 50854 32965 02201 11205 21244 40348 57001
AAXX 01121 50968 32962 02201 11221 21245 40354 52008
AAXX 01121 51379 32980 01603 11161 21195 40459 57011 333 05655
AAXX 01121 51467 32980 02702 11055 21170 38291 52010 333 05452
AAXX 01121 51495 32980 01101 11066 21155 40413 52002 333 00054
AAXX 01121 53480 32980 72201 11082 21163 40349 57007 80002
AAXX 01121 53673 31957 30000 11059 21089 40342 52001 71040 80002
AAXX 01121 53698 31920 62701 11031 21047 40339 54000 71000 80002
AAXX 01121 53898 31911 00201 11031 21044 40339 52001 71000
AAXX 01121 54308 32980 60000 11105 21209 40354 57001 80002
AAXX 01121 54602 32960 82501 11057 21110 40333 57001 80007
AAXX 01121 54725 32962 01401 11037 21071 40342 52005
AAXX 01121 54751 32570 63605 11035 21085 40333 57003 86400
AAXX 01121 54916 32960 00000 11021 21044 40333 52004
AAXX 01121 57014 32962 71102 10022 21041 40324 52014 8703/ 333 00003
AAXX 01121 57025 31750 63602 11016 21038 40339 52013 71000 86500
AAXX 01121 57046 32962 02202 11046 21094 37982 52010 333 00000
AAXX 01121 58208 31930 80902 10024 20015 40312 57005 71000 8807/
AAXX 01124 87593 32560 20709 10224 20158 30157 40184 52/// 82100 333 10230 20185 56200 82825
AAXX 01124 87623 32980 03615 10263 20156 39929 40146 52016 333 10288 20201
AAXX 01124 87641 32965 00509 10216 20153 30012 40182 52024 333 10256 20140 30011
AAXX 01124 87645 32570 13613 10216 20157 39982 40184 51017 81100 333 10229 20133 56000 81820
AAXX 01124 87648 32560 13612 10242 20172 30176 40186 52011 81100 333 10242 20170 56100 81825
AAXX 01124 87692 31560 20216 10232 20178 30168 40192 52011 70640 82100 333 10232 20160 56800 82820
AAXX 01124 87715 32960 02308 10256 20101 39837 40140 52019 333 10348 20219
AAXX 01124 87750 32965 03226 10288 20117 30041 40136 52015 333 10288 20230
AAXX 01124 87765 32960 03219 10178 20037 39232 48540 52019 333 10202 20138 96120
AAXX 01124 87784 32980 02012 10265 20008 30093 40116 52027 333 10334 20262
AAXX 01124 87791 32980 02913 10301 20141 30104 40112 50015 333 10301 20224
AAXX 01124 87800 32980 00000 10204 20135 39792 40178 52016 333 10250 20085
AAXX 01124 87803 32580 32717 10169 20051 39246 40139 52017 83500 333 10224 20115 56600 83630
AAXX 01124 87828 32980 02313 10266 20006 30062 40112 52028 333 10292 20237
AAXX 01124 87860 31680 72507 10204 20110 30051 40104 52032 71421 82260 333 10260 20193 56550 57870 82042 86360
AAXX 01124 87904 01680 42709 10106 20010 39884 40129 5//// 60054 702// 81476 333 10123 20050 56666 60052 81635
AAXX 01124 87909 32580 22013 10134 20029 30061 40136 52037 81130 333 10188 20089 56500 81825
AAXX 01124 87925 12980 32712 10100 20031 30086 40110 52015 60054 80006 333 10100 20045 56000 83270
AAXX 01124 87938 32680 62903 10083 20034 39953 40022 57009 83170 333 10121 20060 83840 86360
AAXX 01123 87896 32580 81830 10134 20087 30009 40104 5//// 8117/ 333 10220 2//// 56559 81830 88360
AAXX 01123 NIL
AAXX 01121 48892 32598 60207 10262 20233 30131 40136 53019 82108 333 10301 59003 70000 82895 86299 555 20260
AAXX 01121 48870 01498 83402 10236 20206 30158 40165 52010 60164 70282 888// 333 01023 10246 59005 60092 7016 1 83894 88696
AAXX 01121 48887 32798 60706 10257 20223 30119 40125 53009 81508 333 00026 10303 59003 70000 81697 86299
AAXX 01121 48877 01598 73601 10233 20214 30157 40162 52014 60054 72582 878// 333 01024 10262 58007 69942 7005 0 83895 86697
AAXX 01121 48920 02598 20210 10264 20250 30118 40121 52016 69924 82200 222// 00280 2//03 333 10285 59008 6992 2 70002 82895
AAXX 01124 89022 41560 80810 11049 21063 39908 49946 57006 70272 8687/ 333 11038 21059 86620 88457
AAXX 01124 89062 41465 80208 10014 21009 39833 49873 52010 77172 886// 333 10030 20009 82710 85620 87650
AAXX 01121 23914 42998 81802 11088 21095 39952 40221 53010 8807/
AAXX 01121 23921 42598 70000 11098 21110 30073 40195 53004 82951
AAXX 01121 23955 11984 81904 11065 21093 30202 40266 57014 69902 70282 82037 333 11052
AAXX 01121 23966 11499 80000 11076 21102 30177 40307 58004 69932 70282 8395/ 333 11066
AAXX 01121 28138 41598 82501 11103 21112 39641 40237 52005 70282 885//
AAXX 01121 28224 41598 82002 11075 21101 30006 40228 53008 70272 8355/
AAXX 01121 28255 42594 82102 11096 21118 30122 40258 53005 885// 333 88631
AAXX 01121 28440 42597 81301 11086 21147 39890 40254 54000 885//
AAXX 01121 28645 41597 81803 11084 21099 39973 40281 57008 70272 885//
AAXX 01121 28661 41997 81905 11079 21095 30211 40307 57007 70272 8807/
AAXX 01121 28722 41596 81802 11056 21074 30100 40235 54000 77172 8802/
AAXX 01121 28748 42560 81803 11091 21107 30046 40298 57004 885//
AAXX 01121 28838 41997 81901 11114 21120 39789 40292 57006 70272 8807/
AAXX 01121 29231 11496 81702 11067 21087 30252 40352 57005 69922 78582 889// 333 11065 88912
AAXX 01121 29313 11598 81903 11072 21085 30222 40349 57008 69902 70272 8551/ 333 11068
AAXX 01121 29612 32998 81703 11118 21131 30225 40387 57005 8807/ 333 11118
AAXX 01121 29638 12598 81603 11141 21154 30238 40417 57005 69902 82501 333 11086
AAXX 01121 29838 11997 00000 11133 21153 30183 40433 57008 69902 70271 333 11096
AAXX 01121 29846 11560 31602 11094 21106 30033 40440 56004 69902 72287 82531 333 11071
AAXX 01121 36061 12999 00000 11159 21168 30011 40453 56005 69902 333 11069
AAXX 01121 23909 41596 81701 11071 21084 39954 40210 52010 77172 8651/
AAXX 01121 28044 42597 32202 11075 21109 30037 40206 52006 82501
AAXX 01121 28116 41699 61401 11085 21103 39977 40219 52009 70182 83501
AAXX 01121 28240 42598 82002 11087 21113 39907 40243 53003 82531
AAXX 01121 28522 41996 81802 11064 21084 39973 40240 52003 77172 8802/
AAXX 01121 28621 41998 81803 11064 21084 39988 40229 54000 70272 8803/
AAXX 01121 28719 41498 818// 11080 21094 39782 40238 54000 70272 886//
AAXX 01121 29023 11398 81903 11070 21087 30212 40313 57013 69922 70282 885// 333 11064 86708
AAXX 01121 29122 12799 71904 11068 21080 30251 40327 57010 69902 84530 333 11063 84657
AAXX 01121 29328 11498 81903 11078 21100 30227 40373 57005 69902 70282 8593/ 333 11068
AAXX 01121 29348 11997 82002 11090 21119 30243 40396 58001 69922 70282 8807/ 333 11067
AAXX 01121 29405 12997 81703 11116 21136 30206 40362 58005 69902 83031 333 11080
AAXX 01121 29418 12598 71703 11118 21146 30209 40379 57003 69922 82530 333 11092
AAXX 01121 29430 11998 61701 11112 21125 30212 40399 54000 69902 70282 84031 333 11077
AAXX 01121 29524 12498 81602 11121 21141 30220 40393 54000 69922 889// 333 11093
AAXX 01121 29605 32998 81602 11158 21185 30222 40375 57007 80001 333 11123
AAXX 01121 29631 11997 72004 11109 21122 30210 40406 57002 69932 70282 80009 333 11085
AAXX 01121 29645 11598 81903 11085 21104 30226 40423 54000 69902 70282 885// 333 11076 88622
AAXX 01121 29706 32998 81804 11174 21200 30236 40396 57003 80001 333 11142
AAXX 01121 29736 11997 21603 11127 21147 30168 40436 53001 69922 70281 80001 333 11087
AAXX 01121 29937 32998 00701 11136 21156 30202 40440 57004 333 11091
AAXX 01121 36034 32998 00203 11165 21191 30137 40436 57002 333 11127
AAXX 01121 36096 11996 70601 11226 21251 39693 40557 53004 69942 77172 83036 333 11208 95090
AAXX 01124 81225 11470 40710 10248 20224 40151 60234 70161 81142 333 20/// 56299 58003 81810 83360
AAXX 01124 81200 11465 71008 10248 20221 40150 60054 70282 86832 333 20/// 56299 58004 83810 85620
AAXX 01124 81202 11460 71104 10236 20221 40152 60134 7158/ 87832 333 20230 56299 58003 83812 87625
AAXX 01124 81209 NIL
AAXX 01124 81251 NIL
AAXX 01124 87016 NIL
AAXX 01124 87078 NIL
AAXX 01124 87244 NIL
AAXX 01124 87393 32570 41409 10230 20164 30068 40130 52012 84500 333 10250 20172 56300 84621
AAXX 01124 87416 32965 02302 10273 20131 39393 40105 52007 333 10312 20215 30018
AAXX 01124 87563 32965 03210 10234 20159 30128 40170 53011 333 10234 20130
AAXX 01124 87640 31965 03610 10232 20151 30070 40179 52009 700// 333 10271 20145 30014
AAXX 01124 87688 NIL
AAXX 01124 87774 32982 02718 10210 20108 39158 48534 5//// 333 10290 20088
AAXX 01124 87852 01584 22720 10138 20064 39624 40121 52044 60024 70161 82500 333 10196 20097 56600 60022 82630
AAXX 01121 28049 42997 51805 11104 21130 30046 40218 52006 85050
AAXX 01121 28144 42598 72101 11075 21113 30059 40223 52005 82552
AAXX 01121 28319 41499 82001 11070 21095 30061 40232 52008 70272 8357/
AAXX 01121 28321 41496 81401 11080 21094 30016 40228 52008 78582 8632/
AAXX 01121 28334 41598 82202 11070 21093 39926 40241 53005 70272 8657/
AAXX 01121 28434 42599 81101 11068 21082 39977 40244 53006 889// 333 86925
AAXX 01121 28552 41598 82304 11068 21091 30165 40282 57003 73673 885// 333 92980
AAXX 01121 28666 42599 71704 11102 21113 30139 40324 57008 73673 87500
AAXX 01121 28825 42597 81701 11053 21091 30063 40240 54000 885//
AAXX 01121 29111 32998 12103 11073 21090 30210 40301 57016 80002 333 11055
AAXX 01121 29209 32998 81602 11077 21108 30198 40330 57010 84032 333 11059
AAXX 01121 29551 11497 62201 11083 21125 30223 40415 58002 69902 78582 86300 333 11065
AAXX 01121 29602 32999 81603 11150 21184 30226 40377 57005 80001 333 11105
AAXX 01121 29636 11598 62103 11087 21111 30183 40412 58005 69902 70282 86300 333 11085
AAXX 01121 29654 11497 81903 11097 21107 39775 40420 57002 69962 78582 86971 333 11092 84920
AAXX 01121 29712 11498 61903 11141 21161 30245 40399 58002 69922 70272 82670 333 11132
AAXX 01121 29724 32997 51902 11154 21167 30194 40413 58006 80001 333 11127
AAXX 01121 29726 32598 82001 11109 21137 30241 40419 57002 885// 333 11089 88623
AAXX 01121 29814 32999 01301 11196 21222 30251 40412 57002 333 11154
AAXX 01121 29827 32697 50701 11146 21159 30253 40420 57003 82530 333 11108
AAXX 01121 29923 32999 01701 11128 21141 30135 40430 58005 333 11092
AAXX 01121 29939 32997 00801 11175 21187 30140 40448 57006 333 11111
AAXX 01121 35026 42597 81101 11130 21153 39599 40274 57005 885//
AAXX 01121 36021 32999 01703 11126 21146 30222 40414 53003 333 11083
AAXX 01121 36022 32998 00501 11188 21194 30141 40428 56005 333 11107
AAXX 01121 36038 32999 01501 11130 21165 39959 40432 57005 333 11041
AAXX 01121 36058 32999 00000 11152 21165 39892 40455 53006 333 11084
AAXX 01121 36064 32999 03202 11097 21128 39815 40443 54000 333 11015
AAXX 01121 36229 32999 10000 11168 21187 39226 40494 57001 80001 333 11113
AAXX 01121 36259 32999 00000 11237 21285 38356 48640 53003 333 11149
AAXX 01121 34357 41497 81304 10003 21000 39990 40147 56011 70242 886//
AAXX 01121 34363 41295 81404 11010 21010 30032 40188 58005 71042 886// 333 93403
AAXX 01121 34545 41298 81504 10021 20020 30027 40139 55011 70254 886//
AAXX 01121 34579 42998 81302 10002 21015 30146 40191 55004 8005/
AAXX 01121 34838 42997 80102 10086 20020 30012 40107 55011 8807/
AAXX 01121 34927 42697 80701 10081 20018 30067 40104 56013 8557/
AAXX 01121 34949 42998 31306 10064 21021 39583 40123 56013 83030
AAXX 01121 37001 42997 81906 10103 20074 30060 40100 55004 8001/
AAXX 01121 37031 42997 81503 10092 20004 39914 40106 56017 81034
AAXX 01121 37061 41996 81602 10019 20008 39994 40162 56008 71042 8807/
AAXX 01121 37085 41598 81003 10019 20007 30199 40226 56007 70262 885//
AAXX 01121 37126 42999 83403 11011 21157 37872 48441 57007 85031
AAXX 01121 37171 42998 80901 10129 20004 30101 40119 57001 8807/
AAXX 01121 37228 42998 03001 10057 21041 39298 40125 56008
AAXX 01121 37470 42598 61903 10054 20005 30184 40162 57006 86500
AAXX 01121 37663 42999 00706 10052 21061 38954 48439 55001
AAXX 01121 37575 42999 22502 10109 21030 39579 40156 57027 82050 555 11007
AAXX 01121 37675 42597 80902 10029 20005 39501 40167 57008 8872/ 555 11006
AAXX 01121 37735 42996 60000 10097 21002 39387 40139 57005 86032 555 10010
AAXX 01121 37749 42998 01401 10102 20006 30071 40187 57022 555 11010
AAXX 01121 37756 42999 02403 10076 21038 39294 40187 57020 555 11004
AAXX 01121 37864 32597 60404 10077 20034 40162 57011 86500 333 86620
AAXX 01121 37985 41595 53401 10099 20074 30171 40157 57016 71022 85540 555 11012
BBXX ELWO6 01123 99266 70522 41598 21209 10250 20199 40260 54000 7//22 82468 22254 04248 20401 80215
BBXX A8RV8 01124 99211 10384 41698 63617 10275 20234 40135 58015 7//11
BBXX DGOQ 01124 99547 10100 41296 82720 10081 40035 54000 75151 8/7// 22282 04058 327// 4//02
BBXX DEFY 01123 99116 70764 41697 40724 10268 20242 40101 57010 70300 83201 22252 02268 80249
AAXX 01124 71026 46/// /2305 11118 21135 39480 40372 50011 6///1 333 21174 4/001 7//// 555 10010
AAXX 01124 71063 16/// /1303 11032 21038 30056 40156 57019 60001 333 11022 21038 4/017 70021 555 10010
AAXX 01124 71151 16/// /3112 11063 21084 39584 40091 53018 60001 333 11016 21063 4/005 55/// 20000 70008 555 10010
AAXX 01124 71186 46/// /2602 11097 21125 6///1 333 11057 21107 7////
AAXX 01124 71190 46/// /2813 11042 21068 6///1 333 11026 21045 7////
AAXX 01124 71107 16/// /1844 10049 20039 39976 40088 56027 60001 333 10057 20042 70000
AAXX 01124 71840 46/// /3324 11055 21074 6///1 333 10017 21055 7////
AAXX 01124 71309 16/// /1404 11068 21084 30037 40049 58027 60001 333 11065 21081 4/035 70000
AAXX 01124 71340 16/// /0000 11193 21221 60001 333 11032 21195 70000
AAXX 01124 71341 16/// /0000 11120 21132 60001 333 10006 21120 70000
AAXX 01124 71342 16/// /2708 11132 21180 60001 333 11030 21134 70000
AAXX 01124 71344 16/// /2409 11133 21177 60001 333 11023 21143 70000
AAXX 01124 71347 16/// /0502 11222 21241 60001 333 11053 21233 7////
AAXX 01124 71348 16/// /0705 11174 21200 60001 333 11034 21189 70000
AAXX 01124 71349 17/// ///// 11156 21189 69941 7//4/ 333 11043 21162 70004
AAXX 01124 71976 46/// /2703 11199 21221 39441 40087 57005 6///1 333 11198 21202 4/004 7//// 555 10040
AAXX 01124 71269 16/// /2509 11112 21144 60001 333 11004 21112 70000
AAXX 01124 71285 46/// /2404 11152 21193 6///1 333 11040 21164 7////
AAXX 01124 71299 46/// /1509 11046 21053 39755 40029 58038 6///1 333 11070 21080 4/032 7////
AAXX 01124 71903 46/// /1514 10053 20039 39985 40034 6///1 333 7////
AAXX 01124 71421 16/// ///// 11250 21277 39446 40197 58005 60001 333 11147 21252 70003
AAXX 01124 71550 16/// /3217 11067 21114 39837 40220 51046 60001 333 11002 21067 4/003 70000
AAXX 01124 71551 16/// /3202 11124 21156 39656 40350 51033 60001 333 10004 21125 70000
AAXX 01124 71575 16/// /3103 11187 21210 30015 40081 53006 60001 333 11128 21196 4/015 70000
AAXX 01124 71581 16/// /1302 11019 21028 39630 40116 58024 60001 333 11030 4/019 70000
AAXX 01124 71737 16/// /1401 11041 21046 39616 40144 50004 60001 333 11040 21046 4/020 70000
AAXX 01124 71743 16/// /1702 11168 21200 39876 40100 58009 60001 333 11164 21201 7////
AAXX 01124 71748 16/// /3122 11074 21106 39861 40152 53036 60001 333 10010 21074 70000
AAXX 01124 71503 46/// /0501 11327 21363 39982 40274 52013 6///1 333 11224 21341 4/009 7//// 555 10020
AAXX 01124 71506 46/// /0101 11179 21208 39246 40168 55004 6///1 333 11233 21277 7////
AAXX 01124 71514 16/// /3117 11092 21131 39588 40312 51038 60001 333 11001 21093 4/003 55/// 20000 70000
AAXX 01124 71539 16/// /3016 11093 21134 39610 40332 51035 60001 333 10017 21093 55/// 20000 70000
AAXX 01124 71228 46/// /2305 11181 21220 6///1 333 11032 7////
AAXX 01124 71361 16/// /2903 11234 21260 30057 40276 51031 60001 333 11145 21259 70000
AAXX 01124 71365 16/// /0000 11364 21401 30058 40291 53024 60001 333 11266 21368 4/029 70000
AAXX 01124 71374 46/// /0427 11074 21082 6///1 333 11044 21079 7////
AAXX 01124 71825 11462 80000 11194 21229 39473 40181 58009 69901 77111 88500 333 11162 21263 48122 79999 90952
AAXX 01124 71832 16/// /1605 11033 21038 39676 40001 56040 60001 333 11011 21043 4/051 70000 555 10030
AAXX 01124 71854 11462 83011 11065 21092 39599 40075 53018 60012 771// 885// 333 11019 21066 48020 70074 90929 555 10036 20036
AAXX 01124 71682 16/// /0901 11331 21361 30038 40288 53021 60001 333 11275 21331 70000
AAXX 01124 71622 16/// ///// 10027 20013 39745 40082 56044 60001 333 10051 20017 70000
AAXX 01124 71407 16/// /2218 11350 21392 30148 40170 53002 60001 333 11335 21358 70000
AAXX 01124 71423 17/// /0329 11023 21025 30084 40093 53005 69961 7//4/ 333 21027 4/001 7////
AAXX 01124 67002 32580 33211 10315 20243 30082 40115 82800 333 59010 82823 92418
AAXX 01124 67009 NIL
AAXX 01124 67012 32582 52208 10310 20261 30081 40092 56022 83930 333 0//00 83820 81920 83360 94961/2/3 95831/2/3
AAXX 01124 67025 NIL
AAXX 01124 67027 31565 83216 10304 20264 30069 40090 57018 71522 889// 333 0//00 83817 81917 85633 94964 95834
AAXX 01124 67045 NIL
AAXX 01124 67072 31470 52008 10299 20256 30089 40092 56014 71792 82906 333 0//00 82817 81917 84275 92428 94995/6/8 95876 555 81640
AAXX 01124 67073 32581 7//// 10296 20239 30068 40094 57014 83935 333 0//00 81920 81820 83633 84273 94962/5 95832 555 82360
AAXX 01124 67083 32582 72602 10287 20186 38705 48482 57027 85932 333 0//00 83823 83923 85073 94979 95839
AAXX 01124 67095 31475 61208 10293 20243 30075 40083 58020 71522 83932 333 0//00 83817 81917 84360 94966/8 95836/8
AAXX 01124 67113 NIL
AAXX 01124 67117 NIL
AAXX 01124 67137 NIL
AAXX 01124 67143 NIL
AAXX 01124 67152 NIL
AAXX 01124 67157 31575 6//// 10/// 20/// 30105 40112 58026 71522 86800 333 0//00 82820 85640
AAXX 01124 67161 NIL
AAXX 01124 67197 11456 71012 10238 20233 30107 40117 55010 69981 72162 878// 333 0//51 83817 85633
AAXX 01121 13463 32970 02702 10093 21081 30164 40225 57012
AAXX 01121 13459 32970 01802 10073 21091 39450 40217 58005 333 47003
AAXX 01121 13461 32970 02304 10127 21058 30211 40219 57008 333 92322 92428 92512
AAXX 01121 13363 31970 01802 11035 21055 39314 48504 57011 70240 333 47017
AAXX 01124 64551 32465 61808 10290 20233 30090 40119 86900 333 59005 83813 81923 86640 94941 95831
AAXX 01124 67017 NIL
AAXX 01124 67020 NIL
AAXX 01124 67023 11465 71802 10250 20232 30077 40083 56013 69921 72996 83903 333 0//11 83817 81917 87073 94975/6/7 95835/6/7
AAXX 01124 67037 NIL
AAXX 01124 67067 NIL
AAXX 01124 67107 NIL
AAXX 01124 67131 32582 73208 10/// 20/// 30077 40082 57012 83832 333 0//00 83820 83073 555 81640 81360
AAXX 01124 71421 16/// ///// 11250 21277 39446 40197 58005 60001 333 11147 21252 70003
AAXX 01124 71825 11462 80000 11194 21229 39473 40181 58009 69901 77111 88500 333 11162 21263 48122 79999 90952
AAXX 01124 71832 16/// /1605 11033 21038 39676 40001 56040 60001 333 11011 21043 4/051 70000 555 10030
AAXX 01124 71854 11462 83011 11065 21092 39599 40075 53018 60012 771// 885// 333 11019 21066 48020 70074 90929 555 10036 20036
AAXX 01124 78970 11468 11003 10283 20223 30128 40153 69952 70500 81100 333 00200 10314 20233 58000 70006 81818
AAXX 01124 78962 11466 20706 10264 20206 30155 40163 60001 71500 82232 333 02299 10303 20232 59003 79999 82816
AAXX 01124 61968 16/// /2706 10312 20241 40097 60001 333 59007 90710 91113 555 60005
AAXX 01124 61976 16/// /0806 10315 20222 40093 60001 333 59012 90710 91109 555 60005
AAXX 01124 78970 11468 11003 10283 20223 30128 40153 69952 70500 81100 333 00200 10314 20233 58000 70006 81818
AAXX 01124 78962 11466 20706 10264 20206 30155 40163 60001 71500 82232 333 02299 10303 20232 59003 79999 82816
BBXX 41052 01121 99183 70648 46/// /0808 10268 40183 53021 91200 22200 00267 333 91210
BBXX 41052 01121 99183 70648 46/// /0809 10268 40181 91150 333 91210
BBXX 41052 01121 99183 70648 46/// /0908 10268 40180 91140 333 91211
AAXX 01124 87467 32970 00211 10242 20179 30025 40157 52024 333 10261 20170
AAXX 01121 28216 41899 72001 11095 21116 39929 40224 52011 70172 87070
AAXX 01121 28428 41497 82003 11064 21084 30046 40238 52003 77172 8802/
AAXX 01121 28451 42997 82003 11075 21100 30100 40266 54000 8807/
AAXX 01121 28541 42983 80000 11089 21138 39743 40257 54000 8807/
AAXX 01121 28655 41998 71906 11081 21096 30063 40295 57008 73673 87030
AAXX 01121 28756 42997 81904 11093 21104 30167 40324 57012 8807/
AAXX 01121 29557 12698 80000 11070 21103 30135 40414 58004 69902 8655/ 333 11046 86640
AAXX 01121 29625 12598 72204 11125 21145 30212 40403 57007 69902 87500 333 11102 87625
AAXX 01121 29813 32999 01503 11177 21189 30203 40399 57006 333 11139
AAXX 01121 29822 32997 81602 11115 21135 30246 40420 57004 8807/ 333 11112
AAXX 01121 29915 32998 01602 11155 21168 30235 40407 57007 333 11120
AAXX 01121 36020 32998 71201 11120 21133 30204 40418 57004 83032 333 11085
AAXX 01124 41241 36/// /3106 10247 20108 30130 40168 333 0E019 59030
AAXX 01124 41242 36/// /0204 10244 20105 30156 40180 333 0E016 59030
AAXX 01121 22213 41581 83402 11040 21045 39961 40132 52010 78582 8597/ 333 91003
AAXX 01121 22100 42599 73301 11065 21073 39980 40129 51002 87500 333 91002
AAXX 01121 22003 41499 81408 11002 21029 30136 40146 52007 73683 889// 333 91010 91114
AAXX 01121 22004 41598 61410 11022 21047 30015 40129 52005 73683 86900 333 91015 91116
AAXX 01121 22140 41597 81012 11013 21053 30136 40151 52003 73632 885// 333 91015 91119
AAXX 01124 61017 32960 50404 10230 20008 39777 40189 80002 333 0//00 59003 85080
AAXX 01124 61024 32960 41214 10273 21080 39602 40168 80001 333 0//00 58008 84080
AAXX 01124 61036 31958 71408 10292 20036 39910 40149 7052/ 80008 333 0//00 58004 87280
AAXX 01124 61043 32960 70612 10285 21050 39704 40143 80008 333 0//00 58008 87280
AAXX 01124 61045 31930 70404 10250 21024 39660 40162 7062/ 80008 333 0//00 58001 87280
AAXX 01124 61049 31958 70804 10270 21028 39818 40138 70622 80008 333 0//00 59003 87280
AAXX 01124 61052 31940 71008 10278 21053 39891 40149 70622 80008 333 0//00 58002 87280
AAXX 01124 61075 31958 51006 10280 21006 39832 40140 70622 80002 333 0//00 58000 85080
AAXX 01124 61080 31945 71210 10270 20005 39738 40158 70622 80008 333 0//00 58002 87280
AAXX 01124 61090 31958 70606 10256 21061 39647 40159 70622 80008 333 0//00 59008 87280
AAXX 01124 61091 32965 73604 10265 20079 39708 40164 80008 333 0//00 58001 87280
AAXX 01124 61096 31957 70608 10280 21028 39766 40147 70522 80008 333 0//00 58001 87280
AAXX 01124 61099 32960 70606 10306 20029 39896 40123 80008 333 0//00 59004 87280
AAXX 01121 23226 41360 80204 11087 21106 39946 40169 52006 77172 887// 333 85709 93404
AAXX 01121 23701 41481 82401 11020 21032 30057 40189 51013 70272 885// 333 88613
AAXX 01121 28909 42497 81403 11042 21054 30118 40221 53005 8452/
AAXX 01124 60595 36/// /0000 11451
AAXX 01124 60381 36/// /1701 10192 20059
AAXX 01124 60639 36/// /1007 10144 21021
AAXX 01124 60605 36/// /0000 10145 21033
AAXX 01121 10908 01/01 92311 10035 20035 38500 48496 56003 60031 76186 333 42075 55300 20438 30438 60017 89/01 91122 91216 96045
AAXX 01124 67002 32580 33211 10315 20243 30082 40115 82800 333 59010 82823 92418
AAXX 01124 67009 NIL
AAXX 01124 67012 32582 52208 10310 20261 30081 40092 56022 83930 333 0//00 83820 81920 83360 94961 95831
AAXX 01124 67025 NIL
AAXX 01124 67027 31565 83216 10304 20264 30069 40090 57018 71522 889// 333 0//00 83817 81917 85633 94964 95834
AAXX 01124 67045 NIL
AAXX 01124 67072 31470 52008 10299 20256 30089 40092 56014 71792 82906 333 0//00 82817 81917 84275 92428 94995 95876 555 81640
AAXX 01124 67073 32581 7//// 10296 20239 30068 40094 57014 83935 333 0//00 81920 81820 83633 84273 94962 95832 555 82360
AAXX 01124 67083 32582 72602 10287 20186 38705 48482 57027 85932 333 0//00 83823 83923 85073 94979 95839
AAXX 01124 67095 31475 61208 10293 20243 30075 40083 58020 71522 83932 333 0//00 83817 81917 84360 94966 95836
AAXX 01124 67113 NIL
AAXX 01124 67117 NIL
AAXX 01124 67137 NIL
AAXX 01124 67143 NIL
AAXX 01124 67152 NIL
AAXX 01124 67157 31575 6//// 10/// 20/// 30105 40112 58026 71522 86800 333 0//00 82820 85640
AAXX 01124 67161 NIL
AAXX 01124 67197 11456 71012 10238 20233 30107 40117 55010 69981 72162 878// 333 0//51 83817 85633
AAXX 01121 56146 32880 43402 10039 21170 36711 52006 82402 333 05304
AAXX 01121 56444 32780 12702 10017 21098 36817 52011 81100 333 05202
AAXX 01121 56492 31730 80401 10082 20050 39861 40278 52020 71000 885// 333 00052
AAXX 01121 56571 32980 03603 10111 20011 38376 52011 333 05402
AAXX 01121 57799 32962 62901 10093 20047 30180 40272 52007 86030
AAXX 01121 57866 31758 82001 10084 20050 30059 40272 52005 71000 885//
AAXX 01121 57957 31757 80202 10100 20050 30056 40259 52006 71000 885//
AAXX 01121 57993 32860 73401 10108 20056 30089 40259 52009 875//
AAXX 01121 58027 31930 60000 10012 21010 30270 40324 52011 71000 80002
AAXX 01121 58141 31930 20703 10009 21051 30309 40329 52009 70500 80002
AAXX 01121 58265 32562 60204 10048 21028 30308 40314 52008 86500
AAXX 01121 58472 31956 73409 10058 21011 30203 40301 52010 70500 8704/ 333 91118 91536
AAXX 01121 58477 31457 10204 10064 21001 30250 40296 52008 70500 81100
AAXX 01121 58527 32960 01101 10073 20034 30198 40277 52009
AAXX 01121 58633 31956 70705 10077 20028 30189 40293 52013 70500 8704/
AAXX 01121 58666 31956 03609 10066 20003 30190 40295 52023 70500 333 91118 91502
AAXX 01121 58725 32962 72201 10094 20063 39993 40263 52004 8704/
AAXX 01121 58921 32661 80701 10114 20073 30003 40255 52003 885//
AAXX 01121 59082 31656 82902 10122 20067 30097 40247 52010 70500 885//
AAXX 01121 59211 31957 81402 10144 20070 30011 40222 52012 70500 8807/
AAXX 01121 59265 31958 00203 10118 20063 30096 40238 52015 71000
AAXX 01121 59293 32965 73603 10146 20049 30145 40232 52016 8704/
AAXX 01121 59501 32965 00702 10152 20112 30202 40223 52016
AAXX 01121 59663 31956 00404 10164 20113 30107 40216 52017 70500
AAXX 01121 59838 32760 70404 10199 20163 30172 40182 52011 875//
AAXX 01121 59948 32380 70909 10180 20165 39706 40196 52016 878//
AAXX 01121 59981 32570 40706 10231 20182 30170 40177 52016 83140
AAXX 01124 67017 NIL
AAXX 01124 67020 NIL
AAXX 01124 67023 11465 71802 10250 20232 30077 40083 56013 69921 72996 83903 333 0//11 83817 81917 87073 94975 95835
AAXX 01124 67037 NIL
AAXX 01124 67067 NIL
AAXX 01124 67107 NIL
AAXX 01124 67131 32582 73208 10/// 20/// 30077 40082 57012 83832 333 0//00 83820 83073 555 81640 81360
AAXX 01124 61017 32960 50404 10230 20008 39777 40189 80002 333 0//00 59003 85080
AAXX 01124 61024 32960 41214 10273 21080 39602 40168 80001 333 0//00 58008 84080
AAXX 01124 61036 31958 71408 10292 20036 39910 40149 7052/ 80008 333 0//00 58004 87280
AAXX 01124 61043 32960 70612 10285 21050 39704 40143 80008 333 0//00 58008 87280
AAXX 01124 61045 31930 70404 10250 21024 39660 40162 7062/ 80008 333 0//00 58001 87280
AAXX 01124 61049 31958 70804 10270 21028 39818 40138 70622 80008 333 0//00 59003 87280
AAXX 01124 61052 31940 71008 10278 21053 39891 40149 70622 80008 333 0//00 58002 87280
AAXX 01124 61075 31958 51006 10280 21006 39832 40140 70622 80002 333 0//00 58000 85080
AAXX 01124 61080 31945 71210 10270 20005 39738 40158 70622 80008 333 0//00 58002 87280
AAXX 01124 61090 31958 70606 10256 21061 39647 40159 70622 80008 333 0//00 59008 87280
AAXX 01124 61091 32965 73604 10265 20079 39708 40164 80008 333 0//00 58001 87280
AAXX 01124 61096 31957 70608 10280 21028 39766 40147 70522 80008 333 0//00 58001 87280
AAXX 01124 61099 32960 70606 10306 20029 39896 40123 80008 333 0//00 59004 87280
AAXX 01124 61401 NIL
AAXX 01124 61404 32960 60816 10170 20010 39859 40265 80002 333 0//00 59014 86073
AAXX 01124 61415 32960 50615 1016/ 20029 30255 40260 82030 333 0//00 59021 82363 83080
AAXX 01124 61421 32958 30408 10195 21030 39965 40224 83070 333 0//00 5//// 83363
AAXX 01124 61437 33960 60406 10208 20076 30115 40266 86072 333 0//00 59015 86363
AAXX 01124 61442 31930 60916 10207 21052 30220 40224 70722 84082 333 0//00 59016 84363 85073
AAXX 01124 61450 31930 60816 10198 21030 39743 40211 707// 80002 333 0//00 59010 86073
AAXX 01124 61461 NIL
AAXX 01124 61489 31956 50406 10207 21050 30202 40209 706// 85070 333 0//00 59014 85363
AAXX 01124 61492 31930 50812 10210 21042 30208 40228 70622 84072 333 0//00 59009 84363 83073
AAXX 01124 61497 34940 00412 10233 21028 39925 4//// 705// 333 0//00 59015
AAXX 01124 61498 31940 60406 10220 20125 30046 40181 705// 80002 333 0//00 59024 86073
AAXX 01124 61499 NIL
AAXX 01124 61510 NIL
AAXX 01124 48384 32960 00000 10230 20173 39972 40166 51029 333 10317 58016
AAXX 01121 48839 32697 70507 10172 20135 30131 40198 51012 875// 222// 00186 2//02 333 00/// 10182 59020 7000 0 87696
AAXX 01121 48826 31796 83202 10156 20127 30058 40197 53003 71022 885// 333 00017 10186 59024 70000 88697
AAXX 01124 87244 32570 11602 102151 20155 39760 40143 5//// 81450 444 10290 2//// 56440 81625
AAXX 01121 48830 11796 80502 10139 20078 39898 40213 53012 69904 71022 885// 333 00014 10153 59022 79999 8869 7
AAXX 01121 48808 32498 80000 10134 20123 39924 40215 52012 888// 333 00014 10149 59021 70000 83894 88696
AAXX 01121 51431 32980 00000 11062 21115 39457 40302 57020 333 06752
AAXX 01121 51747 32965 00000 11113 21183 39043 40457 57005 333 05351
BBXX MINUK05 0112/ 99571 70021 46/// ///// 10080 49891 57003
BBXX MINUK04 0112/ 99555 10084 46/// ///// 10083 4//// 57060
AAXX 01124 71854 11462 83011 11065 21092 39599 40075 53018 60022 771// 885// 333 11019 21066 48020 70074 90929 555 10036 20036
AAXX 01121 50468 32970 03402 11254 21272 30089 40326 57004
AAXX 01121 51243 11862 70701 11109 21124 39852 40454 57008 69941 77077 875// 333 05402
AAXX 01121 51463 31/01 90701 11111 21126 39252 40440 57007 74540 333 05655
AAXX 01121 51573 32970 02901 11060 21147 30366 40413 57003 333 05251
AAXX 01121 51709 32962 71801 11040 21092 38828 40403 54000 80002 333 05200
AAXX 01124 71854 11462 83011 11065 21092 39599 40075 53018 60022 771// 885// 333 11019 21066 48020 70074 90929 555 10036 20036
AAXX 01121 50353 32965 00000 11289 21322 30073 40329 57007
AAXX 01121 50557 32970 02001 11282 21313 39996 40343 57008
AAXX 01121 50756 32960 02902 11213 21244 30013 40348 57002
AAXX 01121 50949 32965 02701 11191 21239 30162 40352 57002
AAXX 01121 50963 32962 02203 11240 21267 30183 40339 52005
AAXX 01121 50978 32970 02703 11200 21233 39935 40321 52007
AAXX 01121 51087 32980 00000 11213 21238 39426 40516 57007 333 05454
AAXX 01121 51156 32980 50000 11133 21183 38839 40469 57002 80002 333 05551
AAXX 01121 51644 32960 01601 11064 21121 39064 40422 57006 333 05301
AAXX 01121 51656 32970 01801 11057 21110 39243 40420 57009 333 05351
AAXX 01121 51886 32980 20401 11090 21279 37131 54000 80002 333 05302
AAXX 01121 52602 32980 02703 11125 21269 37289 52001 333 05251
AAXX 01121 52713 32980 23602 11087 21271 36921 52001 80002 333 05151
AAXX 01121 52754 32980 02904 11084 21285 36779 52007 333 05305
AAXX 01121 52818 32980 20000 11071 21234 37260 52002 80002 333 05200
AAXX 01121 52836 32980 71101 11113 21274 36911 54000 80002 333 05100
AAXX 01121 52955 32980 02201 11116 21273 36970 52005 333 05201
AAXX 01121 53068 11980 80402 11173 21196 39098 40357 57003 69921 77070 8802/ 333 05701
AAXX 01121 53276 32980 72706 11079 21141 38896 40333 54000 83032
AAXX 01121 54135 32975 02701 11162 21209 30118 40363 57007
AAXX 01121 54236 32960 03201 11135 21183 30242 40358 57004
AAXX 01121 54539 32970 00901 11045 21109 30332 40347 54000
AAXX 01121 54662 32970 03605 11092 21172 30216 40339 52002
AAXX 01121 54753 32565 50203 11030 21093 30331 40338 52002 85400
AAXX 01121 54857 11971 00207 11027 21084 30237 40335 52010 69901 70080
AAXX 01121 57067 32960 70701 10012 21057 39617 40331 52022 8703/
AAXX 01121 57178 31912 80703 11001 21028 30168 40336 52016 71000 8807/
AAXX 01121 57245 31940 82901 10047 20029 39934 40299 52014 71000 8807/ 333 00001
AAXX 01121 57297 31615 80201 10018 21003 30172 40319 54000 71000 885//
BBXX VEP717 01124 99487 70487 41797 81334 10022 2002/ 40162 56061 71022 885// 22200 06022 20606 335// 41104 80021
BBXX 62169 01123 99614 10014 41297 62728 10080 20071 49835 51005 78186 8479/ 22200 02080 20305 327// 41006 5//// 80076
BBXX A8LP6 01124 99347 70330 41198 72706 10190 20167 40340 52005 70322 8777/ 22224 04152 299// 330// 41206 80175
BBXX 62303 01124 99516 70051 46/// /2422 10101 20082 40014 57015 22200 00110 10606 70032 333 90710 91133
BBXX 62301 01124 99524 70047 46/// /2219 10100 20084 49992 58016 22200 00097 10606 70028 333 90710 91127
BBXX 64046 01124 99606 70049 46/// /2219 10074 20033 49786 58003 22200 00080 10911 70053
BBXX 62001 01124 99452 70050 46/// /2220 10141 20115 40182 58018 22200 00131 10708 70039 333 90710 91128
BBXX 62163 01124 99475 70084 46/// /2518 10119 20099 40090 50002 22200 00127 10808 70041 333 90710 91126
BBXX 62029 01124 99487 70125 46/// /2722 10113 20062 40070 50010 22200 00127 10911 70054 333 90710 91138
BBXX 62442 01124 99490 70164 46/// /2822 1//// 2//// 40084 51019 22200 00122 333 90710 91139
BBXX 62081 01124 99510 70134 46/// ///// 10097 20024 40018 51009 22200 00119 10912 70062
BBXX 62105 01124 99554 70121 46/// /2526 10074 20018 49874 50001 22200 00106 11013 70067 333 90710 91134
BBXX 64045 01124 99591 70117 46/// /2321 10069 20028 49762 57001 22200 00100 10913 70063 333 90710 91131
BBXX 62027 01124 99491 70022 46/// /2018 1//// 2//// 40084 57030 22200 00109 11104 328// 70018
BBXX PCGM 01123 99338 70288 41/99 20405 10210 20155 40355 52015 70300 8///8 22214 00211 20804 80175
BBXX 2AUO5 01123 99606 10016 41397 72218 10083 20063 49840 57004 70222 8/7// 22251 20603 325// 40906 80074
BBXX 63055 01124 99606 10016 47998 /2516 10083 20035 49851 56001 700// 22200 10605 70025
BBXX 62112 01124 99584 70002 47998 /2121 10078 20035 49881 51001 700// 22200
BBXX PJAI 01124 99581 70014 47999 /2017 10083 20022 49873 58006 700// 22200
BBXX 62111 01124 99580 70003 46/// /2326 10078 20041 49898 58001 22200 10504 70022
BBXX 63056 01124 99597 10016 47498 /2320 10077 20043 49856 57001 700// 22200 10605 70027
BBXX 63110 01124 99595 10015 46/// ///// 22200
BBXX 63057 01124 99592 10015 47498 /2319 10083 20041 49872 54000 700// 22200 10706 70028
BBXX 62128 01124 99587 10014 47598 /2323 10077 20042 49881 50001 700// 22200 10605 70026
BBXX 62129 01124 99584 10003 46/// ///// 10082 20040 49892 51001 22200
BBXX 62113 01124 99584 10002 47998 /2121 10079 20035 49890 51001 700// 22200
BBXX 63108 01124 99608 10017 47598 /2319 10072 20038 49843 58003 700// 22200 10705 70026
BBXX 63106 01124 99610 10017 46/// /2217 10076 49841 57003 22200
BBXX 63105 01124 99610 10017 47597 ///// 10078 20036 49840 57003 751// 22200
BBXX 63113 01124 99610 10017 46/// /2416 10076 20035 49845 58004 22200 10706 70031
BBXX 63112 01124 99611 10010 46/// /2420 10093 20026 49830 58002 22200 10706 70032
BBXX 63107 01124 99611 10017 46/// /2324 10072 49837 57004 22200
BBXX 63101 01124 99612 10009 46/// /2517 10077 20038 49832 58003 22200
BBXX 63103 01124 99612 10011 46/// /2522 10079 20029 49838 58002 22200 10707 70033
BBXX 63104 01124 99612 10016 47598 /2116 10077 20041 49839 56002 700// 22200
BBXX 63117 01124 99613 10011 47499 /2218 10185 20058 49834 58003 730// 22200
BBXX 63115 01124 99616 10013 47597 /2119 10117 20046 49825 58001 700// 22200 10708 70040
BBXX MWYG6 01124 99603 70040 47998 /2127 10079 700// 22200
BBXX 64041 01124 99607 70026 47597 /2226 10059 20059 49807 58003 700// 22200 10909 70047
BBXX PJGO 01124 99571 10022 47/97 /2220 10085 49936 51001 700// 22200
BBXX 62133 01124 99571 10009 46/// /2325 10083 20032 49917 54000 22200
BBXX 62119 01124 99570 10019 47597 /2424 10085 20043 49938 53004 700// 22200 10505 70023
BBXX 62152 01124 99570 10018 47/98 /2116 10084 20045 49941 52003 700// 22200 10505 70024
BBXX 62154 01124 99564 10022 46/// /2322 10091 20047 49951 54000 22200
BBXX 62120 01124 99564 10021 47597 /2528 10086 20086 49946 56001 700// 22200
BBXX 62132 01124 99564 10020 46/// /2623 10087 20044 49946 58002 22200
BBXX 62123 01124 99563 10022 47997 /2325 10088 20051 49949 55001 700// 22200
BBXX 62165 01124 99540 10009 47997 /2225 10095 20067 40000 58015 700// 22200 10403 70014
BBXX 62127 01124 99540 10007 47998 ///// 10094 20067 49993 58017 700// 22200 10503 70015
BBXX 62131 01124 99539 10012 46/// /20// 10094 20072 40005 58014 22200
BBXX 62149 01124 99537 10011 47998 /2127 10098 20071 40007 58016 700// 22200 10503 70016
BBXX 62148 01124 99536 10015 46/// /2121 10096 20066 40020 58016 22200
BBXX 62150 01124 99536 10007 47998 /2225 10094 20067 40014 57017 700// 22200 10402 70011
BBXX 62121 01124 99535 10027 46/// ///// 22200
BBXX 62144 01124 99534 10017 47998 /2123 10099 20065 40022 58017 700// 22200 10402 70012
BBXX 62145 01124 99531 10028 47997 /2022 10102 20079 40036 58013 700// 22200 10403 70015
BBXX 62142 01124 99530 10021 47997 /2122 10090 20081 40031 58017 700// 22200 10402 70010
BBXX 62164 01124 99572 10008 47997 /2323 10093 20046 49919 53002 700// 22200 00091 10606 70028
BBXX 62146 01124 99572 10021 47/97 /2421 10083 20039 49934 53008 700// 22200 10605 70025
BBXX 62140 01124 99573 10013 46/// /25// 10084 20040 49913 58001 22200
BBXX 62122 01124 99573 10016 47598 /2423 10089 20034 49930 53005 700// 22200 10605 70025
BBXX 62153 01124 99573 10020 47698 /2422 10086 20045 49922 57001 700// 22200 10605 70026
BBXX 62104 01124 99574 10013 47597 /2523 10088 20042 49911 54000 700// 22200
BBXX 62116 01124 99576 10011 47496 /2428 10084 20043 49903 57001 710// 22200 10606 70029
BBXX 62155 01124 99577 10007 47497 /2429 10082 20047 49910 52002 700// 22200 10605 70027
BBXX 62118 01124 99577 10009 47597 /2327 10093 20046 49899 52002 700// 22200 10606 70029
BBXX 62143 01124 99577 10018 47597 /2426 10084 20043 49913 50004 700// 22200 10505 70027
BBXX ZQSD5 01124 99583 10007 46/// /2317 10084 20050 49892 51003 22200 10706 70031
BBXX 62117 01124 99579 10000 47998 /2225 10084 20048 49895 50003 700// 22200 10505 70025
BBXX 62102 01124 99579 10018 46/// /2322 10082 20042 49903 50000 22200 10606 70030
BBXX 62134 01124 99580 10014 47497 /2424 10083 20047 49900 50001 700// 22200 10505 70025
BBXX 62114 01124 99583 10000 46/// /2122 10078 20041 49883 52001 22200
BBXX 62305 01124 99504 10000 46/96 /2219 10120 20120 40087 58020 22200 00116 10602 70009 333 90710 91128
BBXX 62304 01124 99511 10018 46/97 /2216 10117 20110 40081 57013 22200 00107 10502 70010 333 90710 91130
BBXX 62170 01124 99514 10020 46/97 /2221 10114 20114 40076 58013 22200 00106 10601 70006 333 90710 91133
BBXX 62103 01124 99499 70029 46/96 /2221 10123 20117 40064 57007 22200 00118 10804 70018 333 90710 91128
BBXX 62094 01124 99517 70067 46/// /2317 10101 20078 40004 58004 22200 00107 10706 70031
BBXX 63119 01124 99583 10009 41498 12426 10081 20041 49882 54000 70100 811// 22200 20304 323// 40706 5////
BBXX PHBO 01123 99494 70067 41297 82420 10116 20106 40051 58015 70222 8472/ 22214 20603 328// 41205 80111
BBXX 62103 01124 99499 70029 46/97 /2123 10124 20118 40050 58033 22200 00118 10804 70018 333 90710 91129
BBXX 62095 01124 99531 70159 46/// /2625 10069 20005 49956 53010 22200 00111 11016 70079 333 90710 91143
BBXX 62107 01124 99501 70061 46/// /2423 10117 20103 40035 57027 22200 00115 11006 70029 333 90710 91128
BBXX 62305 01124 99504 10000 46/// /2219 10120 20120 40087 58020 22200 01273 10602 70009 333 90710 91128
BBXX UELS 01121 99359 10205 41598 53312 10160 40178 57010 70222 854// 22223 20605
AAXX 01124 40582 41750 62108 10239 21011 40124 56009 70622 82430 333 00027 55300 00278 10000 20717 30218 41387 51610 60935 55407 40500 82640 86358 90400 91011 91136 91227 91317
AAXX 01124 41150 NIL
AAXX 01124 41168 NIL
AAXX 01124 41170 32965 11409 10240 20026 30160 40173 80001 333 59032 81074
AAXX 01124 41176 NIL
AAXX 01124 41184 32960 03009 10250 20084 40157 333 59026
AAXX 01124 41194 12960 03309 10242 20067 30162 40167 60001 333 59026
AAXX 01124 41196 32960 03209 10247 20071 30129 40167 333 59028
AAXX 01124 41198 32983 01107 10239 20140 30140 40168 333 59030
AAXX 01124 41210 NIL
AAXX 01124 41216 NIL
AAXX 01124 41217 32960 03408 10251 20092 30128 40157 333 59023
AAXX 01124 41218 32960 03005 10259 20057 39857 40159 333 59021
AAXX 01124 41226 NIL
AAXX 01124 41244 NIL
AAXX 01124 41246 32960 01011 10237 20162 30161 40165 333 59031
AAXX 01124 41254 NIL
AAXX 01124 41256 32960 00508 10236 20129 30164 40174 333 59018
AAXX 01124 41258 36/// /0605 10233 20124 30165 40170 333 0E/// 59018
AAXX 01124 41268 32960 00108 10243 20106 30158 40174 333 59014
AAXX 01124 41312 36/// /1706 10254 20131 30114 40153 333 0E045 59012
AAXX 01124 41314 32960 09908 10236 20050 39663 40163 333 59018
AAXX 01124 41316 32960 01908 10253 20115 30129 40155 333 59015
AAXX 01124 41404 12960 01006 10251 21047 37874 48503 60002 333 58002
AAXX 01124 41407 12970 00610 10306 21020 38916 60002 333 59034
AAXX 01124 41431 11930 02120 10284 20208 30110 40123 60002 70744 333 59020
AAXX 01124 41466 12960 01806 10260 20105 38562 48465 60002 333 59022
AAXX 01124 41477 12960 01716 10270 20200 60002 333
AAXX 01124 41480 12460 21213 10270 20183 30140 40143 60002 82500 333 59021 82618
BBXX 44032 01121 99437 70694 46/30 /3204 10051 40145 51033 91204 22200 00081 10801 70005 333 91205 555 11047 22049
AAXX 01124 41036 32960 02516 10260 20100 38566 48516 333 59005 555 04410 50111
BBXX 46111 01121 99481 71227 46/// /1007 10063 40254 51005 91200 22200 00052
BBXX 42362 01121 99278 70907 46/// /2204 10222 20194 40241 91215
BBXX 42363 01121 99282 70892 46/// /2305 10222 20172 40241 91215 333 91205
BBXX 42364 01121 99291 70881 46/// /2105 10206 20178 40237 53006 91200
BBXX 42364 01121 99291 70881 46/// /2204 10206 20178 40237 91215
AAXX 01121 91945 36/// /0804 10243 20222 30141 40146 58015 333 10298
AAXX 01121 29998 32999 02001 11267 21285 38747 48580 52013 333 11185
AAXX 01121 30385 32999 60000 11312 21330 39762 40363 58004 80008 333 11285
AAXX 01121 30469 329// 80000 11331 21348 39540 40403 57011 80005 333 11277 1/134 53302
AAXX 01121 30636 129// 80000 11219 21238 39714 40378 52007 69902 8805/ 333 11207
AAXX 01121 30650 11960 80000 11210 21229 39142 40345 54000 60022 77177 8802/ 333 11206
AAXX 01121 30664 32999 80000 11250 21268 39274 40358 57004 8801/ 333 11244
AAXX 01121 30781 NIL
AAXX 01121 30777 32998 82602 11264 21296 39635 40358 57008 83077 333 11244
AAXX 01121 30844 11998 82704 11130 21143 39313 40335 54000 69992 77177 8802/ 333 11130
AAXX 01121 30925 329// 00000 11179 21191 39371 40416 58006 333 11107
AAXX 01121 31371 32999 00000 11307 21336 30028 40328 58009 333 11252
AAXX 01121 31388 32984 00000 11324 21342 30025 40324 58005 333 11215
AAXX 01121 31478 NIL
AAXX 01121 31532 32999 00000 11355 21377 39954 40351 58001 333 11276
AAXX 01121 31594 32999 00000 11272 21290 30128 40319 58005 333 11216
AAXX 01121 31655 32998 00000 11315 21327 30237 40290 58001 333 11236
AAXX 01121 31754 32999 00000 11320 21337 39758 40136 52002 333 11175
AAXX 01121 89062 41465 80208 10014 21009 39833 49873 52010 77172 886// 333 10030 20009 82710 85620 87650
AAXX 01121 38847 ///// /2502 10005 21015 39430 40220
AAXX 01121 38388 42998 70000 10040 21025 30103 40174 56004 87010 555 18004
AAXX 01121 38392 42998 70904 10037 21040 30084 40188 57018 87070 555 10003
AAXX 01121 38507 42998 50000 10097 20034 30057 40158 57010 85030 555 10012
AAXX 01121 38511 42598 70701 10048 21005 30015 40157 57012 87900 555 10006
AAXX 01121 38545 42998 30202 10048 21043 30014 40190 57007 82083 555 10004
AAXX 01121 38647 42998 70904 10066 21001 30111 40154 57002 87050 555 10010
AAXX 01121 38656 42998 60000 10067 21016 30048 40157 57008 86050 555 10008
AAXX 01121 38687 42997 21104 10083 21007 39948 40182 57008 82030 555 10008
AAXX 01121 38750 42997 22302 10111 20085 30191 40163 54000 82030 555 10014
AAXX 01121 38763 42998 70000 10049 20011 30059 40166 53001 87030 555 10008
AAXX 01121 38774 42898 83202 10065 20004 39979 40175 53005 8807/ 555 10007
AAXX 01121 38799 42997 00906 10105 21038 39922 40151 57020 555 10010
AAXX 01121 38806 42997 01405 10096 21005 39921 40180 57015 555 11008
AAXX 01121 38880 42797 73202 10108 21022 39906 40158 53004 85530 555 10011
AAXX 01121 38886 42997 53501 10117 21009 39923 40147 53001 80003 555 10011
AAXX 01121 38895 42996 02101 10148 21019 39859 40141 56010 555 10010
AAXX 01121 38911 42998 01105 10087 21022 39896 40190 57015 555 11007
AAXX 01121 38915 42999 01306 10082 20004 39872 40195 57018 555 11007
AAXX 01121 38974 42998 50501 10148 21005 39797 40122 57011 85060 555 10014
AAXX 01121 38987 42596 62704 10158 21117 39420 40140 57016 86900 555 11008
AAXX 01121 22438 42570 72306 11035 21060 30116 40138 51009 87500
AAXX 01121 28465 41998 82108 11071 21092 30208 40288 57008 73673 8807/ 333 91012 91113
AAXX 01121 28696 42997 81801 11170 21196 30226 40377 57001 80002
AAXX 01121 28588 42998 51802 11146 21173 30178 40348 57006 80002
AAXX 01121 28586 42997 31902 11149 21169 30195 40354 57001 80001
AAXX 01121 28688 42997 21501 11162 21181 30193 40366 57005 80001
AAXX 01121 28791 42998 82001 11178 21197 30216 40374 57006 80001
AAXX 01121 28383 42997 81502 11104 21157 30215 40304 57013 80001
AAXX 01124 45011 17959 /1204 10158 20119 40218 52015 60002 70011 333 10204 59008
AAXX 01124 67767 NIL
AAXX 01124 67843 42680 50302 10284 20191 38923 48485 84203 333 59006 81930 84835
AAXX 01124 67969 42680 40501 10304 20177 3//// 48/// 81101 333 5//// 81845 84080
AAXX 01121 23929 42978 62002 11106 21134 30143 40213 52002 83031
BBXX A8IZ2 01124 99340 10274 41698 33325 10180 20090 40155 52015 70101 8314/ 22234 20503 331// 40806 80130
AAXX 01124 60195 32970 00000 10106 21037 38601 48614 58004 333 95500
AAXX 01121 48803 32497 81802 10160 20133 30078 40194 52009 888// 333 00017 10180 59019 70000 84894 88696
AAXX 01124 40153 11330 82219 10069 20046 39067 48463 57012 60001 71042 884//
AAXX 01124 40179 11558 42217 10177 20073 30117 40154 57015 60001 70510 83101
AAXX 01124 40180 11656 42017 10172 20058 30109 40157 58017 60001 70521 81101
AAXX 01124 40190 16/// ///// 10171 20029 39828 40156 57017 60001
AAXX 01124 40199 13/// /1903 10208 20026 30141 40163 57023 60001
AAXX 01124 04203 46/// /3607 11211 21248 30008 40026 52004
AAXX 01124 04205 45/84 /1201 11299 21370 30007 40032 52001
AAXX 01124 04208 46/// /1611 11210 21255 39972 40019 52005
AAXX 01124 04213 46/// /2305 11184 21251 39909 40026 52008
AAXX 01124 04214 46/// /3412 11173 21205 39992 40025 52008
AAXX 01124 04224 475// 72915 11128 21172 39981 40015 52013 785// 333 87/20 91132 91226
AAXX 01124 04228 NIL
AAXX 01124 04242 46/// /0414 11145 21187 30015 40032 52011
AAXX 01124 04253 46/// /0806 11137 21203 39985 40012 52004
AAXX 01124 04266 46/// /3138 11091 21166 39931 49969 52006 333 91050
AAXX 01124 04285 46/// /3153 11081 21164 39856 49875 52022 333 91067
AAXX 01124 04301 46/// /2613 11282 21329 30083 40088 52001
AAXX 01124 04313 46/// /0340 11227 21259 39973 49985 52014
AAXX 01124 04330 46/// /0132 11129 21154 39758 49775 57009
AAXX 01124 04351 46/// /3606 11073 21112 39685 49701 52013
AAXX 01124 04373 46/// /3053 11129 21154 39587 49679 52002 333 91068
AAXX 01124 04382 46/// /3123 11076 21174 39686 49734 52008
AAXX 01124 04416 NIL
AAXX 01123 61701 31959 50920 10230 20018 40161 70622 80002 333 58000 85073
AAXX 01123 61705 NIL
AAXX 01123 61707 32960 50911 10240 20005 4//// 87070 333 5//// 84462 83363
AAXX 01123 61711 32960 50903 10270 20134 4//// 80002 333 5//// 85071
AAXX 01123 61712 32960 60907 10225 20044 4//// 86070 333 5//// 84461 85362
AAXX 01123 61717 31958 60814 10246 21024 4//// 70500 86030 333 5//// 86362
AAXX 01123 61720 NIL
AAXX 01123 61721 31959 70812 10250 20002 4//// 70522 84032 333 5//// 84363 85074
AAXX 01123 61722 32960 60815 10232 21025 4//// 80002 333 5//// 84273 83074
BBXX SHIP 01124 99007 11463 41498 73416 10264 20227 40104 70222 86/// 22252 06297 11204 399// 4////
BBXX 3FMH7 01124 99338 11656 41697 63041 00/// 10150 20097 40146 5//// 70322 86/// 9//// 22271 0//// 1//// 20313 306// 40513 5//// 6//// 80120
BBXX SHIP 01124 99176 11307 41398 40515 10260 20218 40140 52018 70210 82131 22283 00280 399// 4//// 5//// 80230
BBXX SHIP 01124 99344 11445 41497 81525 10150 20076 40164 57013 76022 884// 22282 00216 80110
BBXX SHIP 01124 99054 11068 41497 60513 10270 20243 40118 52013 70322 8545/ 22252 00259 80250
BBXX DHYW 01121 99460 11523 41/// 70503 10020 21005 40220 52020 70222 8//// 22214 2//// 309// 4//06 5//// 80010
AAXX 01121 44304 119// 70000 11178 21211 39011 40347 53003 69962 77072 8802/ 333 11155
AAXX 01121 44302 119// 52703 11154 21171 39149 40334 58005 69972 70271 87010 333 11153 555 93199
AAXX 01124 71718 11359 83406 11045 21054 30104 40171 53008 69921 77177 887// 333 11030 21076 48013 70116 90983
BBXX SHIP 01124 99559 31099 41496 72638 10014 21021 49800 57009 72072 84833 22243 00028 11313 20808 32623 40809 50908 61000 85000 0/0
BBXX SHIP 01124 99000 51350 41/97 21319 10240 20215 40106 57022 70122 8//// 22200 04239
BBXX SHIP 01124 99066 31270 41/97 22915 10280 20265 40086 54000 70000 820// 22283 00297 10402 80269
BBXX SHIP 01124 99559 31099 41496 72638 10014 21021 49800 57009 72072 84833 22243 00028 11313 20808 32623 40809 50908 61000 85000 0/0
BBXX SHIP 01124 99000 51350 41/97 21319 10240 20215 40106 57022 70122 8//// 22200 04239
BBXX SHIP 01124 99066 31270 41/97 22915 10280 20265 40086 54000 70000 820// 22283 00297 10402 80269
AAXX 01124 71718 11359 83406 11045 21054 30104 40171 53008 69921 77177 887// 333 11030 21076 48013 70116 90983
AAXX 01121 14216 12975 12101 10106 21015 30066 40218 58005 60001 81060 333 70000 92311 92418
AAXX 01121 14219 12570 20901 10054 21019 39190 48500 58003 60001 82501 333 70000
AAXX 01121 14232 11640 71801 10038 20017 30077 40216 58010 60001 71022 87500 333 70000
AAXX 01121 14234 11656 70501 10027 20011 39965 40217 58007 60001 7102/ 87500 333 70000
AAXX 01121 14236 12862 80000 10039 20009 30009 40211 58005 60001 885// 333 70000
AAXX 01121 14244 12460 81101 10042 20007 30091 40223 58007 60001 8557/ 333 70000
AAXX 01121 14248 11650 82302 10019 20007 30040 40219 53006 60001 7104/ 8357/ 333 70000
AAXX 01121 14253 12660 62301 10042 21004 30034 40211 58008 60001 86500 333 70000
AAXX 01121 14256 12570 82301 10035 21009 39889 40213 55002 60001 8257/ 333 70000
AAXX 01121 14280 11958 21603 10046 21019 30108 40219 58006 60001 71000 82030 333 70000
AAXX 01121 14308 12982 23201 10105 21024 39862 40214 58005 60001 80001 333 70000
AAXX 01121 14321 12683 22201 10133 20034 30203 40227 56001 60001 81130 333 70000 92301 92418
AAXX 01121 14370 12960 20000 10060 20009 30106 40217 57006 60001 81032 333 70000
AAXX 01121 14382 12960 02101 10061 21020 30102 40223 58006 60001 333 70000
AAXX 01121 14428 12770 13302 10126 21001 30212 40219 56005 60001 81500 222// 00133 333 70000 92311
AAXX 01121 14441 12589 21803 10139 20030 30188 40212 50000 60001 81109 222// 00163 333 70000 92311
AAXX 01121 14452 12999 12903 10111 20016 39995 40221 57003 60001 80001 333 92311
AAXX 01121 14454 12783 11702 10122 20003 30154 40214 54002 60001 81100 333 70000 92312
AAXX 01121 14462 12980 01401 10104 21077 30217 40223 58005 60001 333 70000
AAXX 01121 14452 12999 12903 10111 20016 39995 40221 57003 60001 80001 333 92311
AAXX 01121 21432 11998 62307 11191 21217 30080 40100 54000 69902 73632 86030 333 11184
AAXX 01121 21824 31998 82406 11166 21190 30138 40147 52003 73632 8807/ 333 11161
AAXX 01121 21908 11998 80000 11256 21274 30055 40141 52008 69922 77172 8802/ 333 11216
AAXX 01121 21921 11997 81803 11184 21217 30144 40191 58002 69952 77172 8802/ 333 11175
AAXX 01121 21931 32998 02002 11262 21294 30155 40190 53008 333 11259
AAXX 01121 21946 12999 02204 11284 21308 30138 40224 58002 69900 333 11296
AAXX 01121 21982 42998 83404 11236 21268 30150 40180 58004 8805/ 333 91106
AAXX 01121 25062 41998 02104 11395 21435 30224 40228 52002 70230 333 91108
AAXX 01121 25123 11996 81701 11287 21318 30216 40252 57001 69960 77173 8805/ 333 11275
AAXX 01121 25138 11598 80000 11341 21364 30124 40261 54000 69930 77172 8452/ 333 11287 91102
AAXX 01121 25173 42999 03004 11272 21296 30206 40211 58005 333 91106
AAXX 01121 25248 NIL
AAXX 01121 25282 42984 03004 11304 21321 30191 40198 54000 333 91108
AAXX 01121 25325 NIL
AAXX 01121 25356 NIL
AAXX 01121 25399 42974 82401 11290 21320 30173 40183 58004 86531 333 91102
AAXX 01121 25428 31918 70000 11429 21461 39922 40312 58004 71022 80001 333 1//// 91100
AAXX 01121 25551 42998 20000 11450 21483 30195 40232 58002 80001 333 91100
AAXX 01121 25563 42970 03306 11385 21420 30126 40217 58002 333 91107
AAXX 01121 25594 42598 20201 11260 21307 30124 40179 57003 82500 333 91103
AAXX 01121 25677 42998 02804 11301 21332 30193 40199 58001 333 91106
AAXX 01121 31054 11998 80000 11346 21374 39998 40307 57002 69972 77172 8807/ 333 11332
AAXX 01121 31123 11996 81702 11275 21306 39951 40309 57007 69962 77372 87017 333 11272
AAXX 01121 08575 32/// /9902 10099 20060 39455 40270 57009
AAXX 01121 08512 11475 42903 10182 20149 30234 40319 52010 69901 70181 84800 222// 0//// 333 82816 83645 91108
AAXX 01124 61600 32960 70808 10202 20027 30106 40190 85072 333 59018
AAXX 01124 61612 32958 50808 10220 21004 30202 40210 82082 333 0//00 59007 82363 84073
AAXX 01124 61627 32958 63608 10226 21041 3//// 4//// 83032 333 0//00 5//// 82363 85073
AAXX 01124 61630 32956 50806 10222 20023 30169 40189 80002 333 0//00 59020 85073
AAXX 01124 61641 32956 60416 10194 20080 30157 40190 83032 333 0//00 58002 83363 86073
AAXX 01124 61666 32960 70406 10220 21003 30180 40189 85072 333 0//00 59008 85363 83073
AAXX 01124 61679 31935 70417 10225 20168 30178 40186 70711 84032 333 0//00 59014 84363 86073
AAXX 01124 61687 31940 61014 10243 21051 30111 40169 70611 81082 333 0//00 59010 81363 86073
AAXX 01124 61695 32960 53608 10217 20014 30136 40163 83082 333 0//00 59014 83363 84073
AAXX 01124 61697 32960 20418 10225 20045 30144 40159 80002 333 0//00 59002 82073
AAXX 01124 61698 32960 70608 10233 20013 30146 40157 80002 333 0//00 59013 87073
AAXX 01124 61699 33958 61606 10235 20074 39957 40150 80002 333 0//00 59012 86073
AAXX 01121 08501 32/// /3203 10155 20093 30303 40339 52020 333 91006 91107
AAXX 01121 14024 12899 72704 10044 21068 39093 48490 57003 60001 87070 333 95000
AAXX 01121 08575 32/// /9902 10099 20060 39455 40270 57009 555 50004 60005
AAXX 01124 60662 36/// /0000 10110 21074
AAXX 01124 60660 36/// /2602 10201 21086
AAXX 01124 60661 36/// /0513 10165 21108
AAXX 01124 60677 36/// /0000 10130 21076
AAXX 01121 08512 11475 42903 10182 20149 30234 40319 52010 69901 70181 84800 222// 0//// 333 82816 83645 91108 555 59904 60005
AAXX 01124 60633 36/// /1506 10198 21101
AAXX 01124 60691 36/// /0520 10216 21091
AAXX 01124 60679 36/// /1706 10083 21262
AAXX 01124 60672 36/// /0805 10136 21114
AAXX 01124 60676 36/// /0416 10125 21041
AAXX 01124 60650 36/// /2303 10159 21067
AAXX 01121 60373 36/// /2502 10169 20091
AAXX 01121 60623 36/// /0000 10154 21155
AAXX 01121 60393 36/// /1801 10196 20052
AAXX 01121 08501 32/// /3203 10155 20093 30303 40339 52020 333 91006 91107 555 50054 60005
AAXX 01121 80001 31560 30000 10232 20213 30088 40093 7050/ 81804 333 20228 30/// 50380 55089 56090 59005 81820 83070
AAXX 01121 80002 01470 50402 10254 20243 60014 7200/ 81170 333 20245 31/// 5///0 55081 5619/ 60012 70010 81817 84358
AAXX 01121 80009 NIL
AAXX 01121 80022 31960 20000 10250 20223 30095 40097 70500 80001 333 20242 30/// 50420 55078 56//0 59007 82070
AAXX 01121 80028 NIL
AAXX 01121 80035 31965 00000 10224 20218 30138 40143 7050/ 333 20217 30/// 50770 55089 59006
AAXX 01121 80036 31968 00705 10232 20181 7050/ 333 20232 30/// 50790 55090
AAXX 01121 80063 31420 30000 10242 20236 7104/ 82601 333 20230 30/// 560/0 82620
AAXX 01121 80084 31450 40000 10256 20244 7052/ 84800 333 20243 30/// 55037 560// 84815
AAXX 01121 80091 31458 20000 10244 20237 7400/ 82800 333 20242 30/// 50390 55073 569// 82615
AAXX 01121 80094 31368 10000 10190 20184 38810 7401/ 81100 333 20182 30/// 50420 55091 569// 59001 81807
AAXX 01121 80097 32570 40000 10212 20212 39774 40125 82641 333 20200 30/// 50750 55085 56999 58015 82723
AAXX 01121 80099 11566 30000 10222 20213 39947 40092 69924 70500 83401 333 20210 30/// 50410 55060 569/9 58000 83620
AAXX 01121 80110 31550 60000 10187 20166 38499 7052/ 84570 333 20174 30/// 55033 5600/ 59011 84625 83358
AAXX 01121 80342 32570 41802 10140 20112 38216 84800 333 20136 30/// 50580 55097 563// 58002 84828
AAXX 01121 80139 NIL
AAXX 01121 80144 01450 80000 10246 20243 69944 7102/ 8551/ 333 20240 31/// 55019 5600/ 69942 85615 88457
AAXX 01121 80149 NIL
AAXX 01121 80210 NIL
AAXX 01121 80211 31565 50000 10176 20161 7052/ 333 20176 30/// 50//0 55078 5651/ 83827 83362
AAXX 01121 80214 31456 40000 10239 20191 39125 7404/ 82530 333 20190 30/// 50210 55083 5650/ 59010 82615 83359
AAXX 01121 80222 31909 10504 10076 20073 37529 74140 88001 333 20050 30/// 55098 56//9 59006 81070
AAXX 01121 80234 32562 10000 10226 20174 39625 40120 81501 333 10324 20194 300// 55091 562/9 58003 81623
AAXX 01121 80241 NIL
AAXX 01121 80259 NIL
AAXX 01121 80315 32565 40000 10221 20195 39598 40105 84200 333 20218 30/// 50540 55075 562// 57864 59005 81833 83835
AAXX 01121 80342 32570 41802 10140 20112 38216 84800 333 20136 30/// 50580 55097 563// 58002 84828
AAXX 01121 80370 32570 40000 10050 20043 84400 333 20042 30/// 50300 55053 563// 84620
AAXX 01121 80398 32570 70000 10252 20245 30026 40122 84130 333 20250 30/// 50540 55074 5622/ 59003 84825 87358
BBXX 46147 01121 99518 71312 46/// /1420 10065 40067 57028 22200 00077 11217 70087 333 91226
AAXX 01124 93800 16/// /0405 10123 20075 40089 52002 60001
AAXX 01124 93805 16/// /2115 10116 20069 40106 52009 60001
AAXX 01124 93994 16/// /3104 10219 20210 40123 57011 60001
BBXX 46147 01121 99518 71312 46/// /1420 10065 40067 57028 22200 00077 11217 70087 333 91226
AAXX 01121 80001 31560 30000 10232 20213 30088 40093 7050/ 81804 333 20228 30/// 50380 55089 56090 59005 81820 83070
AAXX 01121 80002 01470 50402 10254 20243 60014 7200/ 81170 333 20245 31/// 5///0 55081 5619/ 60012 70010 81817 84358
AAXX 01121 80009 NIL
AAXX 01121 80022 31960 20000 10250 20223 30095 40097 70500 80001 333 20242 30/// 50420 55078 56//0 59007 82070
AAXX 01121 80028 NIL
AAXX 01121 80035 31965 00000 10224 20218 30138 40143 7050/ 333 20217 30/// 50770 55089 59006
AAXX 01121 80036 31968 00705 10232 20181 7050/ 333 20232 30/// 50790 55090
AAXX 01121 80063 31420 30000 10242 20236 7104/ 82601 333 20230 30/// 560/0 82620
AAXX 01121 80084 31450 40000 10256 20244 7052/ 84800 333 20243 30/// 55037 560// 84815
AAXX 01121 80091 31458 20000 10244 20237 7400/ 82800 333 20242 30/// 50390 55073 569// 82615
AAXX 01121 80094 31368 10000 10190 20184 38810 7401/ 81100 333 20182 30/// 50420 55091 569// 59001 81807
AAXX 01121 80097 32570 40000 10212 20212 39774 40125 82641 333 20200 30/// 50750 55085 56999 58015 82723
AAXX 01121 80099 11566 30000 10222 20213 39947 40092 69924 70500 83401 333 20210 30/// 50410 55060 569/9 58000 83620
AAXX 01121 80110 31550 60000 10187 20166 38499 7052/ 84570 333 20174 30/// 55033 5600/ 59011 84625 83358
AAXX 01121 80342 32570 41802 10140 20112 38216 84800 333 20136 30/// 50580 55097 563// 58002 84828
AAXX 01121 80139 NIL
AAXX 01121 80144 01450 80000 10246 20243 69944 7102/ 8551/ 333 20240 31/// 55019 5600/ 69942 85615 88457
AAXX 01121 80149 NIL
AAXX 01121 80210 NIL
AAXX 01121 80211 31565 50000 10176 20161 7052/ 333 20176 30/// 50//0 55078 5651/ 83827 83362
AAXX 01121 80214 31456 40000 10239 20191 39125 7404/ 82530 333 20190 30/// 50210 55083 5650/ 59010 82615 83359
AAXX 01121 80222 31909 10504 10076 20073 37529 74140 88001 333 20050 30/// 55098 56//9 59006 81070
AAXX 01121 80234 32562 10000 10226 20174 39625 40120 81501 333 10324 20194 300// 55091 562/9 58003 81623
AAXX 01121 80241 NIL
AAXX 01121 80259 NIL
AAXX 01121 80315 32565 40000 10221 20195 39598 40105 84200 333 20218 30/// 50540 55075 562// 57864 59005 81833 83835
AAXX 01121 80342 32570 41802 10140 20112 38216 84800 333 20136 30/// 50580 55097 563// 58002 84828
AAXX 01121 80370 32570 40000 10050 20043 84400 333 20042 30/// 50300 55053 563// 84620
AAXX 01121 80398 32570 70000 10252 20245 30026 40122 84130 333 20250 30/// 50540 55074 5622/ 59003 84825 87358
AAXX 01121 31873 32997 02301 11256 21278 30156 40305 54000 333 11180
AAXX 01121 44254 119// 10000 11176 21189 39072 40332 54000 69972 70171 80002 333 11148 555 93101
AAXX 01121 44257 129// 23204 11150 21207 39013 40357 51007 69902 80001 333 11105
AAXX 01121 25703 31999 20000 11475 21511 30018 40342 57002 77670 80001 333 11451
AAXX 01121 25745 32698 10901 11405 21432 30184 40244 58005 81500 333 11384
AAXX 01121 25913 32999 00503 11211 21229 30068 40228 58001 333 11199
AAXX 01121 25954 32998 63506 11216 21273 30068 40190 57003 80001 333 11203
AAXX 01121 25956 32598 50606 11230 21270 30161 40167 58005 85500 333 11198
AAXX 01121 31088 32999 33604 11264 21310 30230 40238 58003 82041 333 11256
AAXX 01121 31873 32997 02301 11256 21278 30156 40305 54000 333 11180
AAXX 01121 31909 12998 02905 11125 21220 30145 40226 52008 69900 333 11060
AAXX 01121 31960 32997 03511 11181 21207 30020 40275 51010 333 11147 91017 91117
AAXX 01121 31961 32997 31101 11217 21235 30251 40302 52008 80001 333 11150
AAXX 01121 32053 12997 22502 11200 21219 30179 40232 58003 69930 80001 333 11133 91003 91104
AAXX 01121 32061 11561 71202 11177 21203 30198 40239 58006 69990 78582 83902 333 11137 91002 91103
AAXX 01121 32098 11494 83406 11135 21155 30202 40213 58012 69990 78683 889// 333 11119 91010 91110
AAXX 01121 32150 11596 70104 11050 21060 30139 40169 53001 60040 72683 87900 333 11029 91009 91109
AAXX 01121 32165 31598 81605 10010 21029 30131 40192 58012 78582 889// 333 10028 91007 91109
AAXX 01121 32215 32696 13102 11038 21100 30189 40219 52002 81800 333 11020 91004 91105
AAXX 01121 32252 NIL
AAXX 01121 32389 NIL
AAXX 01121 32477 12998 20601 11190 21202 30191 40226 52006 69900 82030 333 11037
AAXX 01121 32583 32999 00000 11109 21137 30173 40205 52005 333 11070
AAXX 01121 32618 11598 80505 11073 21137 30137 40159 57003 69900 70282 885// 333 11062
AAXX 01121 31909 12998 02905 11125 21220 30145 40226 52008 69900 333 11060
AAXX 01121 31961 32997 31101 11217 21235 30251 40302 52008 80001 333 11150
AAXX 01121 31960 32997 03511 11181 21207 30020 40275 51010 333 11147 91017 91117
AAXX 01124 89002 42298 70611 11021 21035 39889 49943 57003 876// 333 11014 21023
AAXX 01124 65201 31457 62404 10305 20244 30084 40137 70522 86208 333 86500 57892 58005 86814 91106 94919
BBXX A8GU5 01124 99372 10114 41497 72927 10180 20146 40250 54000 7//// 87878 22233 04180 20404 80160
BBXX ELWP5 01121 99309 70112 41598 40410 10180 20131 40352 54000 70211 82141 22214 2//03 326// 40802 5//// 80150
AAXX 01124 65528 NIL
AAXX 01124 65536 NIL
AAXX 01124 65545 NIL
AAXX 01124 65548 NIL
AAXX 01124 65555 NIL
AAXX 01124 65557 31950 0//// 10299 20104 39884 40128 70511 333 59002
AAXX 01124 65560 31940 0//// 10307 21006 39815 40123 70500 333 59005
AAXX 01124 65562 NIL
AAXX 01124 65563 NIL
AAXX 01124 65578 31957 02004 10290 20191 30112 40129 70511 80000 333 59008
AAXX 01124 65585 NIL
AAXX 01124 65592 NIL
AAXX 01124 65594 31958 53608 10280 20144 30093 40127 70511 80002 333 59003 85080
AAXX 01124 65599 31940 6//// 10288 20135 30037 40111 70522 80002 333 59008 86076
AAXX 01124 71217 16/// /1903 11083 21092 60001 333 11008 21142 70028
AAXX 01124 71224 16/// /1905 11112 21139 60001 333 10005 21115 70000
AAXX 01124 71938 11664 20000 11297 21327 30253 40285 53016 69901 77677 82500 333 11280 21313 46029 79999 90983
AAXX 01124 71189 46/// /2903 11095 21122 6///1 333 11059 21099 7////
AAXX 01124 71432 16/// /1507 10046 20013 30017 40114 56034 60001 333 10064 20032 70006
AAXX 01124 71979 16/// ///// 11257 21283 38567 40314 58005 60001 333 11070 21274 4/043 70000
AAXX 01124 71276 16/// ///07 11157 21200 60001 333 11050 21166 70000
AAXX 01124 71343 16/// /1506 11118 21141 60001 333 10019 21118 70000
AAXX 01124 71432 16/// /1507 10046 20013 30017 40114 56034 60001 333 10064 20032 70006
AAXX 01124 71938 11664 20000 11297 21327 30253 40285 53016 69901 77677 82500 333 11280 21313 46029 79999 90983
AAXX 01121 50434 32980 00000 11338 21378 39390 40427 57009
AAXX 01121 50527 32970 01402 11274 21302 39496 40396 57013
AAXX 01121 50603 32978 70202 11213 21243 39601 40360 57012 80002
AAXX 01121 50632 32980 03601 11209 21240 39377 40365 57011
AAXX 01121 50727 32980 00000 11279 21314 39083 40431 57011
AAXX 01121 50915 32970 71102 11194 21233 39268 40382 57016 80002
AAXX 01121 51716 32965 00201 11049 21113 39023 40412 52001 333 05251
AAXX 01121 51765 32980 00000 11089 21143 39342 40432 57009 333 05401
AAXX 01121 51777 32970 03601 11074 21145 39291 40427 57013 333 05402
AAXX 01121 51811 32962 10000 11054 21115 38897 40421 52003 80002 333 05252
AAXX 01121 51828 32965 03201 11042 21144 38732 40393 57003 333 05252
AAXX 01121 52267 32980 02901 11076 21195 39225 40410 52015 333 00200
AAXX 01121 52323 32980 03203 11114 21161 38316 52008 333 00001
AAXX 01121 52495 32980 02705 11080 21195 38776 40420 52014 333 00204
AAXX 01121 53149 32980 72907 11126 21171 38818 40342 52009 80002 333 05451
AAXX 01121 53192 32980 60402 11190 21223 38920 40398 57022 80002
AAXX 01121 53231 11957 82704 11111 21137 38554 52008 69901 77000 80007 333 00001
AAXX 01121 53336 32980 52702 11102 21163 38775 40368 52010 80002 333 05251
AAXX 01121 53391 32980 70000 11099 21162 38523 40338 57013 80002 333 05403
AAXX 01121 53529 32980 42902 11069 21182 38695 40386 52009 80002 333 00002
AAXX 01121 53543 32980 42706 11060 21193 38584 40336 52005 80002
AAXX 01121 53723 32968 02901 11069 21149 38737 40392 52010 333 00000
AAXX 01121 54012 32980 60902 11243 21276 39078 40400 57019 80002
AAXX 01121 54026 32970 03401 11139 21208 39994 40351 57004
AAXX 01121 54027 32975 00000 11145 21220 39711 40354 57009
AAXX 01121 54208 32980 70000 11166 21210 38798 40396 57013 80002
AAXX 01121 54776 32580 53410 11026 21066 30251 40311 52003 85400 333 91121 91534
AAXX 01121 56004 32680 62706 11036 21233 35801 57001 82902 333 05302 91117 91527
AAXX 01121 56033 32980 73402 11059 21264 36000 52002 80008 333 05305 91120 91527
AAXX 01121 56046 32780 60903 11012 21192 36239 52006 82502 333 05306 91119 91527
AAXX 01121 56193 NIL
AAXX 01121 56196 31958 82702 10072 20036 40285 52019 71000 8807/ 333 00001
AAXX 01121 56287 11420 80701 10059 20055 40288 52019 69961 76060 885// 333 05151
AAXX 01121 56684 32980 00402 10076 20033 37895 52023 333 05304
AAXX 01121 56751 32780 12004 10140 20026 38015 52009 81100 333 05205
AAXX 01121 56786 32962 03204 10063 20038 38104 52022 333 05301
AAXX 01121 56977 32570 31601 10165 20154 40161 52016 83400 333 05101
AAXX 01121 57259 32963 80903 10058 21011 40309 52020 8807/
AAXX 01121 57279 31925 00000 10013 21008 40316 52014 71000
AAXX 01121 57348 32960 60000 10108 20051 40263 52014 86030
AAXX 01121 57399 31957 03602 10027 21001 40301 52006 71000
AAXX 01121 57554 31857 80402 10090 20005 40289 52013 70500 885//
AAXX 01121 57793 31930 01401 10080 20061 40279 52007 71000
AAXX 01121 58345 32961 03601 10035 21020 40315 52006
AAXX 01121 58506 32/60 10908 10000 21054 40297 57007 81100
AAXX 01121 58813 32966 00201 10084 20059 40266 52004
AAXX 01121 58834 32970 00000 10093 20064 40262 52011
AAXX 01121 58926 32770 83401 10122 20060 40254 52007 885//
AAXX 01121 58944 32560 20403 10126 20064 40260 52008 82500
AAXX 01121 59096 32663 73601 10123 20057 40243 52014 875//
AAXX 01121 59102 32963 01601 10089 20056 40250 52004
AAXX 01121 59278 32760 20203 10161 20076 40228 52015 82500
AAXX 01121 59456 32868 70401 10176 20090 40215 52019 875//
AAXX 01121 59493 32961 00402 10174 20091 40218 52018
AAXX 01121 59658 32760 71101 10168 20129 40211 52015 875//
AAXX 01121 59673 32962 00903 10167 20132 40215 52017
AAXX 01121 59845 32562 70901 10188 20162 40198 52014 878//
BBXX ZCDQ4 01124 99366 10191 41398 30018 10140 20045 40200 50202 70301 82202 22234 00168 20301 305// 40 407 5//// 80095
AAXX 01121 48806 32498 70000 10162 20131 39403 40185 52004 878// 333 00028 10188 59020 70000 82894 87697
BBXX A8GU5 01124 99372 10114 41497 72927 10180 20146 40250 54000 7//// 87878 22233 04180 20404 80160
BBXX ELWP5 01121 99309 70112 41598 40410 10180 20131 40352 54000 70211 82141 22214 2//03 326// 40802 5//// 80150
AAXX 01121 60379 36/// /2101 10200 20073
AAXX 01121 60380 36/// /3101 10173 20049
AAXX 01121 60394 36/// /1901 10195 20075
AAXX 01121 60374 36/// /2702 10173 20077
AAXX 01121 60613 36/// /1403 10157 21035
BBXX ZCDQ4 01124 99366 10191 41398 30018 10140 20045 40200 50202 70301 82202 22234 00168 20301 305// 40407 5//// 80095
AAXX 01124 62305 32560 63115 10127 20079 40183 57006 86800
AAXX 01124 62306 31557 62922 10176 20073 40174 57005 70720 86800
AAXX 01124 62318 32560 52516 10180 20119 40156 57008 85800
AAXX 01124 62337 31940 02515 10182 20014 40156 57017 70700
AAXX 01124 62366 32560 32516 10175 20042 40169 57018 83200
AAXX 01124 62393 32960 03212 10182 20064 40204 56018
AAXX 01124 62405 32960 32808 10202 20081 40188 57022 83050
AAXX 01124 62414 32960 53511 10196 20011 40197 57024 80004
AAXX 01124 62417 32960 02810 10182 20067 40198 57020
AAXX 01124 62440 31956 02414 10181 20051 40161 57014 70700
AAXX 01124 62463 32960 23116 10219 21032 40172 57025 82030
AAXX 01124 62465 32960 30407 10204 20044 40168 57022 80004
AAXX 01124 62419 NIL
BBXX 46131 01121 99499 71250 46/// /1307 1//// 40264 52001 22200 00073 10401 70006 333 91208
BBXX 42085 01121 99179 70665 46/// /0708 10251 40184 52024 91200 22200 00270 10703 70013 333 91211
BBXX 46131 01121 99499 71250 46/// /1307 1//// 40264 52001 22200 00073 10401 70006 333 91208
BBXX 46088 01121 99483 71232 46/// /0707 10059 40254 91220 22200 00076 10401 20401 70007 333 91209 555 11078 22082 31121 40911 61219 074074 073075 087084 087080 093084 096091
BBXX 46087 01121 99485 71247 46/// /0912 10053 20044 40230 91220 22200 00080 333 91213 555 11122 22129 31210 40814 61219 084117 084112 084113 084111 086106 083109
BBXX 46249 01121 99338 71197 46/// ///// 1//// 91207 22200 00145 11403 21002 326// 41402 70013
BBXX 46248 01121 99461 71247 46/// ///// 1//// 91204 22200 00095 11204 21003 326// 41203 70020
BBXX 46244 01121 99409 71244 46/// ///// 1//// 91205 22200 00101 11204 21003 329// 41203 70021
BBXX 42085 01121 99179 70665 46/// /0708 10261 40183 91150 333 91212
BBXX 42085 01121 99179 70665 46/// /0606 10261 40180 91140 333 91208
AAXX 01121 40001 32570 70201 10120 20034 40160 58015 84550 333 84626 87360
AAXX 01121 40007 31530 80805 10075 20068 40156 56020 71000 8552/ 333 85630 88460
AAXX 01121 40025 11560 81807 10122 20107 40126 56010 60091 79960 87900 333 85926 87630
AAXX 01121 40045 31956 01903 10111 20045 40177 57028 71000
AAXX 01121 40061 32570 50000 10132 20050 40140 57028 82550 333 82630 83360
AAXX 01121 40080 32570 52512 10140 20011 39428 40143 57026 85800 333 83826 84630
AAXX 01121 40087 NIL
AAXX 01121 40095 NIL
BBXX 46241 01121 99330 71173 46/// ///// 1//// 91141 22200 00144 11501 21001 326// 41501 70007
BBXX 46216 01121 99343 71198 46/// ///// 1//// 91157 22200 00143 11502 21001 326// 41502 70012
BBXX 46240 01121 99366 71219 46/// ///// 1//// 91212 22200 00118 11202 21001 335// 41202 70012
BBXX 46237 01121 99378 71226 46/// ///// 1//// 91210 22200 00109 11404 21002 325// 41403 70019
BBXX 46212 01121 99408 71243 46/// ///// 1//// 91212 22200 00104 11104 21002 330// 41103 70019
BBXX 46217 01121 99342 71194 46/// ///// 1//// 91212 22200 00144 11302 21001 327// 41301 70010
BBXX 46223 01121 99335 71178 46/// ///// 1//// 91200 22200 00151 11302 20901 325// 41302 70010
BBXX 46231 01121 99327 71174 46/// ///// 1//// 91154 22200 00147 11303 21001 328// 41302 70013
BBXX 46222 01121 99336 71183 46/// ///// 1//// 91156 22200 00147 11302 21001 327// 41302 70012
BBXX 46242 01121 99332 71174 46/// ///// 1//// 91158 22200 00144 11301 21001 323// 41301 70007
BBXX 46211 01121 99469 71242 46/// ///// 1//// 91206 22200 00087 11203 21002 327// 41202 70015
BBXX 46204 01121 99514 71288 46/// /0801 10065 40122 57030 22200 00081 10809 70045 333 91202
BBXX 41115 01121 99184 70673 46/// ///// 1//// 91205 22200 11002 21002 300// 41101 70010
BBXX 41114 01121 99276 70802 46/// ///// 1//// 91216 22200 00227 10901 20901 70003
BBXX 46204 01121 99514 71288 46/// /0801 10065 40122 57030 22200 00081 10809 70045 333 91202
AAXX 01124 86330 32498 71116 10212 20161 40119 52015 86570 333 10239 20179 30014
AAXX 01124 86360 32697 31214 10232 20152 40140 52011 83100 333 10318 20162 30014
AAXX 01124 86460 32998 01212 10224 20154 40151 52010 333 1//// 20175 30013
AAXX 01124 86490 32997 00711 10228 20153 40162 51012 333 10278 20171 30013
AAXX 01124 86530 32997 01015 10222 20139 40157 55004 333 10232 20136 30///
AAXX 01124 86545 32497 10910 10220 20153 40164 52009 81200 333 10246 20140 31011
AAXX 01124 86565 32598 51014 10234 20162 40167 52011 85400 333 10234 20168 30013
AAXX 01124 86580 32597 20806 10224 20186 40168 52/// 82400 333 10224 20180 30///
BBXX VRHO2 01124 99410 11397 41898 72813 10080 20038 40110 56020 70322 87263 22215 00120 20502 33131 40803 50904 6//// 80060 ICE /////
AAXX 01124 62309 32560 32814 10187 20079 40156 57011 83200
AAXX 01124 62325 12560 72508 10148 20128 40158 57010 60021 878//
AAXX 01124 62332 31956 42416 10172 20086 40159 57012 70700 80004
AAXX 01124 62387 32960 02811 10193 20048 40192 57022
AAXX 01124 62452 32560 22410 10154 20031 40180 57014 82100
AAXX 01124 62459 32960 03119 10189 20023 40175 57016
AAXX 01124 62357 32960 02713 10188 20048 40169 57005
AAXX 01124 62403 32960 03207 10202 21024 40193 57022
AAXX 01124 62423 32960 02912 10180 20043 40210 57019
AAXX 01124 62458 31556 33207 10180 20023 40188 57016 70500 83100
AAXX 01124 62455 32960 02603 10186 20061 40158 57018
AAXX 01124 62420 32960 02707 10190 20002 40193 57020
AAXX 01124 62432 32960 23212 10188 20038 40211 57032 80002
AAXX 01124 62435 32960 43103 10204 20033 40189 57024 80002
AAXX 01124 62476 32960 00409 10226 20128 40149 56023
AAXX 01124 60531 12970 02210 10160 20041 40290 58014 60001 333 0//00 95900
AAXX 01124 91650 11599 20000 10262 2025/ 40075 58006 60001 70210 82100 333 10309 569// 82820
AAXX 01124 91652 NIL
AAXX 01124 91656 NIL
AAXX 01124 91659 NIL
AAXX 01124 91660 NIL
AAXX 01124 91669 36/// /2201 10259 20259 40095 5//// 91215 333 10330
AAXX 01124 91670 36/// /0500 10270 20238 40087
AAXX 01124 91676 14/// /0805 10271 20239 30024 40084 55005 60001 333 10320
AAXX 01124 91680 11598 51104 10251 20248 40092 58008 69911 70268 858// 333 10334 569// 83828 85650
AAXX 01124 91682 NIL
AAXX 01124 91683 11598 70000 10264 20244 40093 58005 69901 78022 8783/ 333 10320 5699/ 85822 87648
AAXX 01124 91691 14/// /0701 10259 20246 30098 40101 55005 60031 333 10320
AAXX 01124 91693 11599 20000 10248 2024/ 40077 58007 60001 70100 82100 333 10302 569// 82825
AAXX 01124 91697 14/// /0903 10264 20228 30092 40097 55008 60001 333 10313
AAXX 01124 91699 14/// /0804 10258 20223 30077 40109 55007 60001 333 10314
BBXX 46114 01121 99364 71222 46/// ///// 1//// 91204 22200 00120 11306 21003 329// 41305 70031
BBXX 9HA2479 01124 99219 31679 46/// /1115 10243 20220 30066 40095 57007 22214 04268 85226
BBXX C6FS9 01124 99346 31513 46/// /0319 10216 20159 30143 40179 52014 22283 04230 85179
BBXX VROB 01124 99205 31529 46/// /1219 10255 20177 30104 40129 52008 22283 04269 85202
BBXX VNAH 01124 99383 31416 46/// /1106 10186 20157 30098 40121 52002 22200 04210 85168
BBXX FHZI 01124 99570 31458 46/// /3321 10029 20018 30034 40045 54000 22283 04020 85024
BBXX 3ECI3 01124 99440 31729 41297 82016 10170 20135 40077 54000 70322 8/7// 22253 00180 20502 314// 40401 80150
BBXX 41036 01121 99342 70770 46/// ///// 10175 20058 40225 91220 22200 00206
AAXX 01124 62458 31556 33207 10180 20023 40188 57016 70500 83100
AAXX 01124 62455 32960 02603 10186 20061 40158 57018
AAXX 01124 62420 32960 02707 10190 20002 40193 57020
AAXX 01124 62432 32960 23212 10188 20038 40211 57032 80002
AAXX 01124 62435 32960 43103 10204 20033 40189 57024 80002
AAXX 01124 62476 32960 00409 10226 20128 40149 56023
AAXX 01121 21802 11296 80000 11191 21219 30105 40130 52010 60032 77172 8802/ 333 11189
AAXX 01121 24125 11998 80000 11221 21233 39862 40160 52005 69902 77172 8802/ 333 11193 51209
AAXX 01121 24136 12999 33603 11290 21320 30069 40178 54000 69942 83030 333 11197
AAXX 01121 24143 11998 81807 11266 21300 30154 40208 53004 69952 77173 8802/ 333 11245
AAXX 01121 24266 11997 80000 11344 21374 30059 40257 58006 69902 77172 8802/ 333 11361
AAXX 01121 24329 32999 60000 11364 21384 39887 40218 52004 333 11350
AAXX 01121 24343 11496 81603 11270 21294 30099 40230 58005 69982 77172 86607 333 11252 83711
AAXX 01121 24382 31996 50000 11426 21455 39997 40292 57004 71022 80001 333 11386
AAXX 01121 24639 12999 82303 11189 21201 30074 40236 54000 69922 80007 333 11125
AAXX 01121 24641 11998 80701 11269 21300 30080 40237 58001 69962 77177 80008 333 11254
AAXX 01121 24652 11997 81205 11283 21313 30140 40277 52003 69942 77183 80007 333 11276
AAXX 01121 24656 11999 80501 11329 21364 30177 40294 58007 69902 70272 80006 333 11301
AAXX 01121 24671 32999 73301 11433 21461 39748 40345 58007 80008 333 11436
AAXX 01121 24688 31999 00000 11509 21535 39341 40458 58002 70400 333 11497
AAXX 01121 24724 11597 82403 11147 21167 39691 40245 58002 69932 78583 86901 333 11135
AAXX 01121 24738 12998 81802 11158 21164 30073 40258 52003 69932 82031 333 11131
AAXX 01121 24768 11996 70801 11326 21358 30018 40281 57007 69902 77172 87010 333 11326
AAXX 01121 24923 11699 62306 11137 21164 39973 40295 52004 69942 73683 85901 333 91110
AAXX 01121 24944 11596 82602 11133 21139 39969 40273 52003 60022 78582 8693/ 333 11130 86929
AAXX 01121 24951 11998 80000 11232 21250 30076 40258 54000 60012 77177 80007 333 11230
AAXX 01121 24661 32999 80000 11387 21413 39993 40301 58006 80001 333 11380
AAXX 01121 24959 11997 82101 11308 21338 30125 40270 57004 69952 77172 80005 333 11308
AAXX 01121 24962 11998 80000 11339 21361 30065 40277 57004 69922 77172 8807/ 333 11300
AAXX 01121 24966 11997 80000 11343 21364 30033 40281 57004 69920 77172 83037 333 11347
AAXX 01121 24967 12999 80000 11329 21357 30041 40289 53003 69942 80001 333 11288
AAXX 01121 25206 11998 82301 11331 21360 30237 40268 58003 69900 77172 83037 333 11332
AAXX 01121 25400 32998 01801 11384 21407 30205 40269 58005 333 11374
AAXX 01121 30054 11997 80000 11175 21201 30073 40330 57002 60012 77172 85047 333 11173
AAXX 01121 30089 NIL
AAXX 01121 30393 11998 80000 11307 21323 39205 40376 57004 69902 77172 83037 333 11296 47///
AAXX 01121 30493 32999 82301 11312 21336 39203 40379 54000 80001 333 11242
AAXX 01121 31004 11996 82302 11162 21181 39398 40278 58001 69952 77172 83037 333 11146
AAXX 01121 31137 11999 80000 11371 21395 39201 40381 57003 69972 77172 80005 333 11300
AAXX 01124 62357 32960 02713 10188 20048 40169 57005
AAXX 01124 62403 32960 03207 10202 21024 40193 57022
AAXX 01124 62423 32960 02912 10180 20043 40210 57019
BBXX 9HA2479 01124 99219 31679 46/// /1115 10243 20220 30066 40095 57007 22214 04268 85226
BBXX C6FS9 01124 99346 31513 46/// /0319 10216 20159 30143 40179 52014 22283 04230 85179
BBXX VROB 01124 99205 31529 46/// /1219 10255 20177 30104 40129 52008 22283 04269 85202
BBXX VNAH 01124 99383 31416 46/// /1106 10186 20157 30098 40121 52002 22200 04210 85168
BBXX FHZI 01124 99570 31458 46/// /3321 10029 20018 30034 40045 54000 22283 04020 85024
BBXX 3ECI3 01124 99440 31729 41297 82016 10170 20135 40077 54000 70322 8/7// 22253 00180 20502 314// 40401 80150
AAXX 01124 62309 32560 32814 10187 20079 40156 57011 83200
AAXX 01124 62325 12560 72508 10148 20128 40158 57010 60021 878//
AAXX 01124 62332 31956 42416 10172 20086 40159 57012 70700 80004
AAXX 01124 62387 32960 02811 10193 20048 40192 57022
AAXX 01124 62452 32560 22410 10154 20031 40180 57014 82100
AAXX 01124 62459 32960 03119 10189 20023 40175 57016
AAXX 01124 40250 NIL
AAXX 01124 40265 NIL
AAXX 01124 40296 32960 02106 10226 20062 40168 57023
AAXX 01124 40310 32660 12512 10112 21029 38928 48473 57012 81100 333 81830
AAXX 01124 82143 31598 80208 10290 20250 40140 7022/ 85242 222// 80260 333 20258 58005
AAXX 01124 83117 11297 81001 10230 20216 40060 54000 60072 7022/ 8877/ 222// 02220 20101 80220 333 20220
BBXX 51203 01121 99208 71570 46/// ///// 1//// 91213 22200 00245 11201 21001 326// 41201 70006
BBXX 52200 01121 99134 11448 46/// ///// 1//// 91215 22200 00286 11104 20903 308// 41102 70019
BBXX 51201 01121 99217 71581 46/// ///// 1//// 91212 22200 00240 11302 21002 331// 41301 70012
AAXX 01121 30157 11997 81302 11247 21286 30080 40395 51004 69902 77173 80007 333 11241
BBXX 44098 01121 99428 70702 46/// ///// 1//// 91207 22200 00081 10802 20802 70008
BBXX 44039 01121 99411 70727 46/// /2406 10079 20059 40199 53016 91200 22200 00083 1//00 70002 333 91208
BBXX 44060 01121 99413 70721 46/// ///04 10072 40189 91215 22200 00090 333 91205 555 11036 22041
BBXX 44022 01121 99409 70737 46/// ///03 10068 20043 40195 91215 22200 00069 333 91204 555 11031 22031
BBXX 44033 01121 99441 70690 46/30 /3506 10047 40145 53031 91204 22200 00063 10201 70005 333 91207 555 11075 22079
BBXX 44034 01121 99441 70681 46/30 /3109 10033 40134 53030 91204 22200 00075 10402 70009 333 91211 555 11109 22114
BBXX 44040 01121 99410 70736 46/// /2603 10068 20054 40200 91215 22200 1//00 70000 333 91204 555 11041 22051
BBXX 46221 01121 99339 71186 46/// ///// 1//// 91145 22200 00148 11502 21001 325// 41502 70009
AAXX 01124 67755 NIL
AAXX 01124 67771 NIL
AAXX 01124 67773 NIL
AAXX 01124 67774 NIL
AAXX 01124 67785 NIL
AAXX 01124 67789 NIL
AAXX 01124 67855 NIL
AAXX 01124 67857 NIL
AAXX 01124 67863 NIL
AAXX 01124 67871 NIL
AAXX 01124 67875 NIL
AAXX 01124 67891 NIL
AAXX 01124 67895 NIL
AAXX 01124 67897 NIL
AAXX 01124 67899 41583 70903 10230 20188 3//// 48/// 76162 8327/ 333 5//// 83820 86460
AAXX 01124 67951 42680 31807 10277 20162 3//// 48/// 83201 333 5//// 83830
AAXX 01124 67963 NIL
AAXX 01124 67967 NIL
AAXX 01124 67971 42675 61204 10280 20167 3//// 48/// 82132 333 5//// 82845 86080
AAXX 01124 67976 42680 61707 10295 20189 3//// 48/// 81102 333 5//// 81846 86080
AAXX 01124 67979 NIL
AAXX 01124 67765 41572 72001 10237 20188 38642 48487 76062 83273 333 59008 81915 83020 87460
AAXX 01124 67775 41458 81004 10193 20183 38490 48494 76186 8427/ 333 59002 84815 88458
AAXX 01124 67779 NIL
AAXX 01124 67853 NIL
AAXX 01124 67861 42680 20403 10263 20186 38701 48483 81272 333 59007 81830
AAXX 01124 67867 42680 31506 10267 20158 38562 48491 83202 333 59004 83845
AAXX 01124 67881 NIL
AAXX 01124 67965 42680 61808 10283 20160 38672 48500 83202 333 59001 83847 86080
AAXX 01124 67975 42680 71508 10273 20178 38900 48494 84202 333 59004 84840 87080
AAXX 01124 67977 NIL
AAXX 01124 67983 42680 50904 10256 20172 38863 48493 85102 333 59011 83836 85080
AAXX 01124 67991 NIL
BBXX SHIP 01124 99176 11307 41398 40515 10260 20218 40140 52018 70210 82131 22283 00280 399// 4//// 5//// 80230
BBXX SHIP 01124 99344 11445 41497 81525 10150 20076 40164 57013 76022 884// 22282 00216 80110
BBXX SHIP 01124 99054 11068 41497 60513 10270 20243 40118 52013 70322 8545/ 22252 00259 80250
BBXX DHYW 01121 99460 11523 41/// 70503 10020 21005 40220 52020 70222 8//// 22214 2//// 309// 4//06 5//// 80010
BBXX 3FMH7 01124 99338 11656 41697 63041 00/// 10150 20097 40146 5//// 70322 86/// 9//// 22271 0//// 1//// 20313 306// 40513 5//// 6//// 80120
BBXX MGPU2 01123 99416 11331 41497 53435 11050 21096 40200 55/// 70122 851// 22283 00050 20403 301// 40504 5//// 81060
BBXX UBSF2 01120 99474 11483 42/97 95005 11002 40339 51000 70000 80000 20000 06003 2////
BBXX UFLC 01120 99586 11500 41295 83604 11112 40256 54000 77377 8472/ 22282 06012 ICE 52095
BBXX A8RV8 01124 99211 10384 41698 63617 10275 20234 40135 58015 7//11
BBXX V7OX3 01124 99345 50205 41598 32806 10220 20205 40210 54000 7//00 82141 22223 04240 20801 301// 41201 5//// 80210
BBXX 3EYJ5 01123 99125 30084 41/98 71815 10250 20188 40150 56005 70322 86469 22244 04270 2//// 318// 41603 5//// 80210
BBXX A8RV9 01124 99176 50170 41697 50724 10227 20169 40134 51/// 70300 84713 22234 20404 311// 40904 5//// 80189
BBXX IDDUK02 01124 99538 50380 46/// ///// 40062 222//
BBXX 41053 01121 99185 70661 46/// /1205 10254 40184 91140 333 91206
BBXX 41053 01121 99185 70661 46/// /1204 10254 40186 91150 333 91206
BBXX 41053 01121 99185 70661 46/// /1204 10254 40188 53020 91200 22200 00269 10602 70012 333 91205
BBXX VRFO7 01124 99273 70474 41698 50917 10230 20165 40290 52010 70300 852// 22254 20802 332// 40806 80190
BBXX V7MO2 01124 99262 70914 41/// /1506 10220 20100 40230 52020 7//// 8//// 22200 00230 20201 314// 40601 5//// 6//// 80150 ICE /////
BBXX WKAE 01124 99301 70880 41398 62215 10190 20175 40220 54000 70222 861// 22200 00180 2//// 3//// 4//// 5//// 6//// 80180 ICE /////
BBXX NAZJ 01124 99502 71580 41/// 40218 11011 2//// 40129 54/// 7//// 844// 22252 04044 20702 33636 40705 50705 6//// 8//// ICE /////
BBXX WKPY 01124 99423 70549 41497 82132 10150 20150 40017 57090 75085 8842/ 22264 00122 2//// 320// 40712 5//// 6//// 80150 ICE /////
BBXX WJBJ 01123 99146 70733 41498 70825 10260 20232 40150 52011 70321 8529/ 22264 00278 20805 309// 41104 5//// 6//// 80240 ICE /////
BBXX 46054 01121 99342 71204 46/// /1303 10115 40188 51004 91150 22200 00127 11104 20401 300// 41104 70022 333 91204 555 11033 22034 31148 41204 61149 125032 129029 138028 145026 151023 160020
BBXX 46204 01121 99514 71288 46/// /0801 10065 40122 57030 22200 00081 10809 70045 333 91202
BBXX 41114 01121 99276 70802 46/// ///// 1//// 91216 22200 00227 10901 20901 70003
BBXX 41115 01121 99184 70673 46/// ///// 1//// 91205 22200 11002 21002 300// 41101 70010
BBXX 46231 01121 99327 71174 46/// ///// 1//// 91154 22200 00147 11303 21001 328// 41302 70013
BBXX 46242 01121 99332 71174 46/// ///// 1//// 91158 22200 00144 11301 21001 323// 41301 70007
BBXX 46222 01121 99336 71183 46/// ///// 1//// 91156 22200 00147 11302 21001 327// 41302 70012
BBXX 46211 01121 99469 71242 46/// ///// 1//// 91206 22200 00087 11203 21002 327// 41202 70015
BBXX 46223 01121 99335 71178 46/// ///// 1//// 91200 22200 00151 11302 20901 325// 41302 70010
BBXX 46217 01121 99342 71194 46/// ///// 1//// 91212 22200 00144 11302 21001 327// 41301 70010
BBXX 46237 01121 99378 71226 46/// ///// 1//// 91210 22200 00109 11404 21002 325// 41403 70019
BBXX 46240 01121 99366 71219 46/// ///// 1//// 91212 22200 00118 11202 21001 335// 41202 70012
BBXX 46212 01121 99408 71243 46/// ///// 1//// 91212 22200 00104 11104 21002 330// 41103 70019
BBXX 46216 01121 99343 71198 46/// ///// 1//// 91157 22200 00143 11502 21001 326// 41502 70012
BBXX 46241 01121 99330 71173 46/// ///// 1//// 91141 22200 00144 11501 21001 326// 41501 70007
BBXX 46248 01121 99461 71247 46/// ///// 1//// 91204 22200 00095 11204 21003 326// 41203 70020
BBXX 46249 01121 99338 71197 46/// ///// 1//// 91207 22200 00145 11403 21002 326// 41402 70013
BBXX 46244 01121 99409 71244 46/// ///// 1//// 91205 22200 00101 11204 21003 329// 41203 70021
BBXX 46087 01121 99485 71247 46/// /0912 10053 20044 40230 91220 22200 00080 333 91213 555 11122 22129 31210 40814 61219 084117 084112 084113 084111 086106 083109
BBXX 46088 01121 99483 71232 46/// /0707 10059 40254 91220 22200 00076 10401 20401 70007 333 91209 555 11078 22082 31121 40911 61219 074074 073075 087084 087080 093084 096091
BBXX 42085 01121 99179 70665 46/// /0606 10261 40180 91140 333 91208
BBXX 42085 01121 99179 70665 46/// /0708 10261 40183 91150 333 91212
BBXX 42085 01121 99179 70665 46/// /0708 10251 40184 52024 91200 22200 00270 10703 70013 333 91211
BBXX 46131 01121 99499 71250 46/// /1307 1//// 40264 52001 22200 00073 10401 70006 333 91208
BBXX 46147 01121 99518 71312 46/// /1420 10065 40067 57028 22200 00077 11217 70087 333 91226
BBXX 42364 01121 99291 70881 46/// /2204 10206 20178 40237 91215
BBXX 42364 01121 99291 70881 46/// /2105 10206 20178 40237 53006 91200
BBXX 42363 01121 99282 70892 46/// /2305 10222 20172 40241 91215 333 91205
BBXX 42362 01121 99278 70907 46/// /2204 10222 20194 40241 91215
BBXX 46111 01121 99481 71227 46/// /1007 10063 40254 51005 91200 22200 00052
BBXX 44032 01121 99437 70694 46/30 /3204 10051 40145 51033 91204 22200 00081 10801 70005 333 91205 555 11047 22049
BBXX 41052 01121 99183 70648 46/// /0809 10268 40181 91150 333 91210
BBXX 41052 01121 99183 70648 46/// /0908 10268 40180 91140 333 91211
BBXX 41052 01121 99183 70648 46/// /0808 10268 40183 53021 91200 22200 00267 333 91210
BBXX DEFY 01123 99116 70764 41697 40724 10268 20242 40101 57010 70300 83201 22252 02268 80249
BBXX ELWO6 01123 99266 70522 41598 21209 10250 20199 40260 54000 7//22 82468 22254 04248 20401 80215
BBXX 44030 01121 99432 70704 46/// /3003 1//// 40153 51020 91204 22200 00080 10801 70004 333 91203 555 11034 22036
BBXX 44067 01121 99384 70770 46/// /1902 10046 40206 52004 91200
BBXX 46207 01121 99509 71299 46/// /1421 10063 40089 57031 22200 00080 11216 70081 333 91226
BBXX 9LD2206 01123 99148 70516 41696 41017 10272 20220 40182 52030 78000 844// 22262 04269 20403 308// 40904 80235
BBXX SHIP 01124 99066 31270 41/97 22915 10280 20265 40086 54000 70000 820// 22283 00297 10402 80269
BBXX SHIP 01124 99000 51350 41/97 21319 10240 20215 40106 57022 70122 8//// 22200 04239
BBXX SHIP 01124 99559 31099 41496 72638 10014 21021 49800 57009 72072 84833 22243 00028 11313 20808 32623 40809 50908 61000 85000 0/0
BBXX SHIP 01124 99007 11463 41498 73416 10264 20227 40104 70222 86/// 22252 06297 11204 399// 4////
BBXX ONFW 01124 99040 11195 41197 30209 10310 20242 40100 54/// 70200 8327/ 22243 04230 20201 335// 40401 5//// 6//// 80260 ICE /////
AAXX 01124 42309 31996 00000 10184 20139 40164 70500 333 10274 58005
AAXX 01124 42314 31595 70000 10196 20133 40138 70522 83530 333 10248 59026 83620 87360
AAXX 01124 42398 21595 80000 10166 20155 40167 76066 83531 333 10213 58004 6990/
AAXX 01124 42410 31996 00000 10224 20169 40152 70500 333 10270 59002
AAXX 01124 42492 21493 81106 10168 20158 40130 76066 8452/ 333 10181 59018 6005/ 84618 88458
AAXX 01124 42587 21494 70000 10184 20181 40137 76166 84530 333 10202 59006 6027/ 84618 86360
AAXX 01124 42591 21494 71407 10178 20175 40149 71062 85530 333 10195 59006 6008/ 85618 86360
AAXX 01124 42623 31595 71405 10198 20123 39255 40124 70511 81530 333 10250 59026 81620 86360
AAXX 01124 42701 21494 80902 10158 20151 39415 40158 76066 8672/ 333 10202 59008 6017/ 82708 85615 88458
AAXX 01124 42706 31495 83203 10230 20182 40131 70522 8653/ 333 10280 56599 59017 86615 86360
AAXX 01124 42724 31995 40000 10232 20152 40125 70511 84030 333 10291 59027 84360
AAXX 01124 42798 21494 72703 10206 20187 40138 76066 85430 333 10275 59006 6990/ 84618 83825 87360
AAXX 01124 42809 31495 73202 10254 20148 40136 70522 83530 333 10288 59014 83615 87358
AAXX 01124 42886 21495 80000 10194 20181 40147 76162 8652/ 333 10249 59010 6004/ 86618 88458
AAXX 01124 42895 32996 41802 10250 20150 40126 84030 333 10310 59020 84360
AAXX 01124 42971 31595 61805 10278 20154 40124 70522 82531 333 10328 59022 82620 85360
AAXX 01124 43333 31495 61104 10270 20241 40110 70511 85401 333 10313 56209 59011 83616 84818
AAXX 01124 42415 NIL
AAXX 01124 42977 NIL
AAXX 01124 43368 NIL
BBXX ZCDQ4 01124 99366 10191 41398 30018 10140 20045 40200 50202 70301 82202 22234 00168 20301 305// 40407 5//// 80095
BBXX ELWP5 01121 99309 70112 41598 40410 10180 20131 40352 54000 70211 82141 22214 2//03 326// 40802 5//// 80150
BBXX A8GU5 01124 99372 10114 41497 72927 10180 20146 40250 54000 7//// 87878 22233 04180 20404 80160
BBXX ZCDQ4 01124 99366 10191 41398 30018 10140 20045 40200 50202 70301 82202 22234 00168 20301 305// 40 407 5//// 80095
BBXX A8IZ2 01124 99340 10274 41698 33325 10180 20090 40155 52015 70101 8314/ 22234 20503 331// 40806 80130
BBXX 62142 01124 99530 10021 47997 /2122 10090 20081 40031 58017 700// 22200 10402 70010
BBXX 62107 01124 99501 70061 46/// /2423 10117 20103 40035 57027 22200 00115 11006 70029 333 90710 91128
BBXX 62305 01124 99504 10000 46/// /2219 10120 20120 40087 58020 22200 01273 10602 70009 333 90710 91128
BBXX UELS 01121 99359 10205 41598 53312 10160 40178 57010 70222 854// 22223 20605
BBXX PHBO 01123 99494 70067 41297 82420 10116 20106 40051 58015 70222 8472/ 22214 20603 328// 41205 80111
BBXX 62095 01124 99531 70159 46/// /2625 10069 20005 49956 53010 22200 00111 11016 70079 333 90710 91143
BBXX 62094 01124 99517 70067 46/// /2317 10101 20078 40004 58004 22200 00107 10706 70031
BBXX 62103 01124 99499 70029 46/97 /2123 10124 20118 40050 58033 22200 00118 10804 70018 333 90710 91129
BBXX 63119 01124 99583 10009 41498 12426 10081 20041 49882 54000 70100 811// 22200 20304 323// 40706 5////
BBXX 62103 01124 99499 70029 46/96 /2221 10123 20117 40064 57007 22200 00118 10804 70018 333 90710 91128
BBXX 62170 01124 99514 10020 46/97 /2221 10114 20114 40076 58013 22200 00106 10601 70006 333 90710 91133
BBXX 62304 01124 99511 10018 46/97 /2216 10117 20110 40081 57013 22200 00107 10502 70010 333 90710 91130
BBXX 62305 01124 99504 10000 46/96 /2219 10120 20120 40087 58020 22200 00116 10602 70009 333 90710 91128
BBXX 62116 01124 99576 10011 47496 /2428 10084 20043 49903 57001 710// 22200 10606 70029
BBXX 62114 01124 99583 10000 46/// /2122 10078 20041 49883 52001 22200
BBXX 62134 01124 99580 10014 47497 /2424 10083 20047 49900 50001 700// 22200 10505 70025
BBXX 62102 01124 99579 10018 46/// /2322 10082 20042 49903 50000 22200 10606 70030
BBXX 62117 01124 99579 10000 47998 /2225 10084 20048 49895 50003 700// 22200 10505 70025
BBXX 62122 01124 99573 10016 47598 /2423 10089 20034 49930 53005 700// 22200 10605 70025
BBXX ZQSD5 01124 99583 10007 46/// /2317 10084 20050 49892 51003 22200 10706 70031
BBXX 62143 01124 99577 10018 47597 /2426 10084 20043 49913 50004 700// 22200 10505 70027
BBXX 62118 01124 99577 10009 47597 /2327 10093 20046 49899 52002 700// 22200 10606 70029
BBXX 62155 01124 99577 10007 47497 /2429 10082 20047 49910 52002 700// 22200 10605 70027
BBXX 62153 01124 99573 10020 47698 /2422 10086 20045 49922 57001 700// 22200 10605 70026
BBXX 62104 01124 99574 10013 47597 /2523 10088 20042 49911 54000 700// 22200
BBXX 62140 01124 99573 10013 46/// /25// 10084 20040 49913 58001 22200
BBXX 62146 01124 99572 10021 47/97 /2421 10083 20039 49934 53008 700// 22200 10605 70025
BBXX 62164 01124 99572 10008 47997 /2323 10093 20046 49919 53002 700// 22200 00091 10606 70028
BBXX 62145 01124 99531 10028 47997 /2022 10102 20079 40036 58013 700// 22200 10403 70015
BBXX 62131 01124 99539 10012 46/// /20// 10094 20072 40005 58014 22200
BBXX 62150 01124 99536 10007 47998 /2225 10094 20067 40014 57017 700// 22200 10402 70011
BBXX 62132 01124 99564 10020 46/// /2623 10087 20044 49946 58002 22200
BBXX 62144 01124 99534 10017 47998 /2123 10099 20065 40022 58017 700// 22200 10402 70012
BBXX 62121 01124 99535 10027 46/// ///// 22200
BBXX 62165 01124 99540 10009 47997 /2225 10095 20067 40000 58015 700// 22200 10403 70014
BBXX 62127 01124 99540 10007 47998 ///// 10094 20067 49993 58017 700// 22200 10503 70015
BBXX 62148 01124 99536 10015 46/// /2121 10096 20066 40020 58016 22200
BBXX 62149 01124 99537 10011 47998 /2127 10098 20071 40007 58016 700// 22200 10503 70016
BBXX 62123 01124 99563 10022 47997 /2325 10088 20051 49949 55001 700// 22200
BBXX 62152 01124 99570 10018 47/98 /2116 10084 20045 49941 52003 700// 22200 10505 70024
BBXX 62154 01124 99564 10022 46/// /2322 10091 20047 49951 54000 22200
BBXX 62120 01124 99564 10021 47597 /2528 10086 20086 49946 56001 700// 22200
BBXX 62119 01124 99570 10019 47597 /2424 10085 20043 49938 53004 700// 22200 10505 70023
BBXX 63103 01124 99612 10011 46/// /2522 10079 20029 49838 58002 22200 10707 70033
BBXX PJGO 01124 99571 10022 47/97 /2220 10085 49936 51001 700// 22200
BBXX 63115 01124 99616 10013 47597 /2119 10117 20046 49825 58001 700// 22200 10708 70040
BBXX 63117 01124 99613 10011 47499 /2218 10185 20058 49834 58003 730// 22200
BBXX 62133 01124 99571 10009 46/// /2325 10083 20032 49917 54000 22200
BBXX 64041 01124 99607 70026 47597 /2226 10059 20059 49807 58003 700// 22200 10909 70047
BBXX MWYG6 01124 99603 70040 47998 /2127 10079 700// 22200
BBXX 63104 01124 99612 10016 47598 /2116 10077 20041 49839 56002 700// 22200
BBXX 63107 01124 99611 10017 46/// /2324 10072 49837 57004 22200
BBXX 63101 01124 99612 10009 46/// /2517 10077 20038 49832 58003 22200
BBXX 63113 01124 99610 10017 46/// /2416 10076 20035 49845 58004 22200 10706 70031
BBXX 63105 01124 99610 10017 47597 ///// 10078 20036 49840 57003 751// 22200
BBXX 63112 01124 99611 10010 46/// /2420 10093 20026 49830 58002 22200 10706 70032
BBXX 62128 01124 99587 10014 47598 /2323 10077 20042 49881 50001 700// 22200 10605 70026
BBXX 62129 01124 99584 10003 46/// ///// 10082 20040 49892 51001 22200
BBXX 62113 01124 99584 10002 47998 /2121 10079 20035 49890 51001 700// 22200
BBXX 63106 01124 99610 10017 46/// /2217 10076 49841 57003 22200
BBXX 63056 01124 99597 10016 47498 /2320 10077 20043 49856 57001 700// 22200 10605 70027
BBXX 63108 01124 99608 10017 47598 /2319 10072 20038 49843 58003 700// 22200 10705 70026
BBXX 62111 01124 99580 70003 46/// /2326 10078 20041 49898 58001 22200 10504 70022
BBXX 63110 01124 99595 10015 46/// ///// 22200
BBXX 63057 01124 99592 10015 47498 /2319 10083 20041 49872 54000 700// 22200 10706 70028
BBXX PJAI 01124 99581 70014 47999 /2017 10083 20022 49873 58006 700// 22200
BBXX 62112 01124 99584 70002 47998 /2121 10078 20035 49881 51001 700// 22200
BBXX 63055 01124 99606 10016 47998 /2516 10083 20035 49851 56001 700// 22200 10605 70025
BBXX 2AUO5 01123 99606 10016 41397 72218 10083 20063 49840 57004 70222 8/7// 22251 20603 325// 40906 80074
BBXX PCGM 01123 99338 70288 41/99 20405 10210 20155 40355 52015 70300 8///8 22214 00211 20804 80175
BBXX 62105 01124 99554 70121 46/// /2526 10074 20018 49874 50001 22200 00106 11013 70067 333 90710 91134
BBXX 62027 01124 99491 70022 46/// /2018 1//// 2//// 40084 57030 22200 00109 11104 328// 70018
BBXX 64045 01124 99591 70117 46/// /2321 10069 20028 49762 57001 22200 00100 10913 70063 333 90710 91131
BBXX 62442 01124 99490 70164 46/// /2822 1//// 2//// 40084 51019 22200 00122 333 90710 91139
BBXX 62081 01124 99510 70134 46/// ///// 10097 20024 40018 51009 22200 00119 10912 70062
BBXX 62001 01124 99452 70050 46/// /2220 10141 20115 40182 58018 22200 00131 10708 70039 333 90710 91128
BBXX 62029 01124 99487 70125 46/// /2722 10113 20062 40070 50010 22200 00127 10911 70054 333 90710 91138
BBXX 62163 01124 99475 70084 46/// /2518 10119 20099 40090 50002 22200 00127 10808 70041 333 90710 91126
BBXX 64046 01124 99606 70049 46/// /2219 10074 20033 49786 58003 22200 00080 10911 70053
BBXX 62303 01124 99516 70051 46/// /2422 10101 20082 40014 57015 22200 00110 10606 70032 333 90710 91133
BBXX A8LP6 01124 99347 70330 41198 72706 10190 20167 40340 52005 70322 8777/ 22224 04152 299// 330// 41206 80175
BBXX 62301 01124 99524 70047 46/// /2219 10100 20084 49992 58016 22200 00097 10606 70028 333 90710 91127
BBXX 62169 01123 99614 10014 41297 62728 10080 20071 49835 51005 78186 8479/ 22200 02080 20305 327// 41006 5//// 80076
BBXX MINUK04 0112/ 99555 10084 46/// ///// 10083 4//// 57060
BBXX MINUK05 0112/ 99571 70021 46/// ///// 10080 49891 57003
BBXX DGOQ 01124 99547 10100 41296 82720 10081 40035 54000 75151 8/7// 22282 04058 327// 4//02
BBXX BAREU11 01124 99541 10081 46/// ///// 40049 52002 22200
BBXX BAREU08 01124 99406 70231 46/// ///// 40290 52040 22254
BBXX A8VL5 01124 99514 10027 41/97 /2225 10120 20102 40191 55009 7//// 8/7// 22200 00120 2//04 80110
BBXX BATUK01 01124 99560 70032 46/// /2405 10080 20012 49911 58011 22200 00062
BBXX 61002 01124 99421 10047 46/// ///15 10139 2//// 40236 57010 22200 00133 10503 70016
BBXX BATEU01 01124 99439 70245 44197 72933 10119 20049 40236 51030 72522 83777 22263 00149 20402 329// 41008 5////
BBXX BATFR46 01124 99388 10004 44/97 02204 10159 20120 40259 58008 700// 22253 00165 20000
BBXX 61001 01124 99434 10078 46/// /1104 10131 20105 40210 54000 22200 00138 10702 70011
BBXX BATEU09 01124 99410 10088 46/// /2513 10155 20122 40222 22221 00160
BBXX BATEU08 01124 99578 10016 46/// /2431 10084 20050 49904 53022 22223
BBXX BATFR21 01124 99433 10077 46/// /0809 20422 40213 22233
BBXX BAREU63 01124 99324 10197 46/// /1806 10164 29056 40214 57011 22282
BBXX DHSI 01124 99449 70071 41397 81342 10150 20133 40175 58005 70200 8/7// 22252 00110 29910 80140
BBXX BATFR27 01124 99466 70046 46/// /2133 10144 20107 40134 58048 22283 00137
BBXX BATFR15 01124 99496 70042 46/// /2419 10127 20117 40059 58019 22224 00122
BBXX BATEU05 01124 99662 70136 46/// /3504 10009 49629 51009 22272
BBXX BAREU06 01124 99431 10100 46/// ///// 40219 52001 22214
BBXX BATFR09 01124 99437 70091 44296 82036 10144 20119 40205 58022 74022 884// 22213 00147 20406 328// 40910 5//// 60//0 ICE 0/0//
BBXX LF3F 01124 99643 10078 43/// /1516 10062 20037 49854 57003 22200 04083 10706 70028 333 91124
BBXX LF4B 01124 99606 10037 47/98 /2217 10074 49867 57005 782// 22200 00059 10705 70026 333 91126
BBXX LF5T 01124 99660 10081 43397 81824 10060 20046 49834 52001 889// 22200 10807 70035 333 91134
BBXX 3ERR2 01124 99635 10053 41598 82024 10078 20062 49831 57004 72582 83903 22200 06100 10907 70034 333 91137
BBXX LF3N 01124 99653 10073 41497 71918 10078 20059 49837 54000 71582 879// 22200 00089 10706 70032
BBXX LF4C 01124 99584 10019 41498 52322 10086 20056 49888 57004 70320 852// 22200 00072 10605 70026 333 91131
BBXX DDYL2 01123 99337 10250 41597 53316 10150 20053 40150 52010 76266 8506/ 22264 00180 20303 329// 41208 80100
BBXX UBVF4 01121 99550 10058 41598 72412 10100 40025 57007 70222 87420 22213 20203
AAXX 01124 41858 11430 83305 10196 20170 30106 40153 60019 76162 8552/ 333 10218 56799 59002 70010 85615 88458
AAXX 01124 41863 11450 82701 10188 20170 30101 40145 69957 76166 8562/ 333 10208 56999 59007 70005 85618 88458
AAXX 01124 41886 32950 60000 10245 20140 30103 40124 86030 333 10272 56090 59020 70000 86365
AAXX 01124 41909 32450 83202 10223 20150 30108 40120 8352/ 333 10276 56599 59022 70001 83616 88459
AAXX 01124 41915 32450 70000 10206 20150 30103 40129 82531 333 10290 56999 59024 70000 82616 85362
AAXX 01124 41926 32450 73602 10222 20140 30126 40140 82510 333 10275 56890 59015 70000 82618 85459
AAXX 01124 41929 32956 63101 10234 20160 30118 40128 86030 333 10282 56090 59018 70000 86365
AAXX 01124 41933 31940 40000 10245 20210 30119 40128 70520 84030 333 10280 56090 59017 70000 84362
AAXX 01124 41939 31950 30000 10220 20170 40129 70541 83030 333 10287 56090 59023 70000 83362
AAXX 01124 41941 32956 30000 10235 20160 30116 40121 83030 333 10292 56090 59021 70000 83362
AAXX 01124 41946 32950 30000 10243 20160 30129 40134 83030 333 10282 56090 59019 70000 83362
AAXX 01124 41947 31950 60000 10246 20170 30125 40127 70520 86070 333 10290 56090 59016 70000 82458 85360
AAXX 01124 41953 31950 60000 10240 20190 30111 40117 70521 86030 333 10273 56090 59025 70000 86362
AAXX 01124 41958 31940 50000 10236 20160 30121 40123 70522 85030 333 10285 56090 59020 70000 85362
AAXX 01124 41960 31950 40000 10240 20180 30126 40128 70500 84030 333 10295 56090 59024 70000 84362
AAXX 01124 41963 31930 40000 10270 20160 30130 40133 70522 84030 333 10286 56090 59009 70000 84360
AAXX 01124 41964 31450 43601 10214 20160 30134 40136 70520 82530 333 10292 56990 59017 70000 82618 83362
AAXX 01124 41984 32940 00000 10248 20160 30120 10122 333 10298 59015 70000
AAXX 01124 41989 31440 40000 10240 20180 30119 40122 70522 82530 333 10278 56990 59018 70000 82618 83362
AAXX 01124 41998 32930 02803 10250 20190 30109 40115 333 10303 59010 70000
AAXX 01124 89050 31294 83610 10014 21008 49927 54000 74022 886//
AAXX 01124 89512 42598 71328 10012 21076 39741 49889 57013 87500
AAXX 01124 89574 32998 00904 10009 21065 49894 57004
AAXX 01124 89592 32998 00000 11008 21032 49873 57017
AAXX 01124 89606 31998 22908 11274 21325 36301 47758 52005 70230 80001
AAXX 01124 94996 457// 81105 10201 20158 39996 40131 50003 91230 333 10234
AAXX 01124 94996 457// 81105 10201 20158 39996 40131 50003 91230 333 10234
AAXX 01124 65201 31457 62404 10305 20244 30084 40137 70522 86208 333 86500 86814 91106 94919
BBXX 46185 01121 99524 71298 46/// /1518 10069 40114 57029 22200 00071 11014 70068 333 91222
AAXX 01121 55299 32880 62202 11004 21190 35847 52001 86400 333 05202
AAXX 01121 55591 32680 70000 10041 21181 36505 57010 85402 333 05101
AAXX 01121 56739 32980 03401 10137 20085 38362 52009 333 05202
AAXX 01121 56951 32775 10401 10161 20091 38509 52012 81100 333 05202
AAXX 01121 56964 32970 01601 10182 20145 38716 40159 52010 333 05202
AAXX 01121 57328 31956 80000 10086 20052 39847 40268 52014 71000 8807/
AAXX 01121 57411 31930 80401 10075 20046 39895 40278 52017 71000 8807/
AAXX 01121 57447 32962 82701 10087 20043 39714 40273 52010 8807/
AAXX 01121 57662 31956 83202 10060 20035 30102 40292 52009 71000 8807/
AAXX 01121 57745 31950 80000 10088 20036 39936 40271 52010 71000 8807/
AAXX 01121 57972 11750 80000 10078 20069 30043 40274 52005 69901 72166 885//
AAXX 01121 58203 31908 03601 10001 21020 30280 40324 52001 74244
AAXX 01121 58314 31950 80702 10039 20023 30200 40312 52002 71000 8807/
AAXX 01121 58424 31950 20402 10060 21007 30278 40305 52005 70500 82040
AAXX 01121 59023 31856 82001 10115 20058 39930 40246 52013 70500 885//
AAXX 01121 59417 32560 80901 10147 20082 30063 40220 52013 888//
AAXX 01121 59985 32572 60404 10232 20200 30173 40178 52019 86200
AAXX 01121 59995 NIL
BBXX ZMFR 01124 99421 31760 43/// /1920 10151 20121 40031 57002 22233 00157
BBXX ZMFR 01124 99421 31760 43/// /1920 10151 20121 40031 57002 22233 00157
BBXX 46185 01121 99524 71298 46/// /1518 10069 40114 57029 22200 00071 11014 70068 333 91222
AAXX 01121 47101 11658 43601 11072 21110 30164 40266 52022 69922 70522 84500 333 10007 3/109 44///
AAXX 01121 47105 369// /2703 11008 21092 30192 40225 52022 333 10045 3/000
AAXX 01121 47108 11956 03405 11063 21118 30159 40271 51019 69902 70500 333 10004 34104
AAXX 01121 47115 11512 80721 11003 21003 39879 40157 57014 60042 77177 8672/ 333 10043 3/000 46005 92045
AAXX 01121 47133 11665 33206 11035 21093 30179 40268 52017 60022 72272 83500 333 10014 3/000 43001
AAXX 01121 47138 12970 02909 11002 21112 30205 40208 50004 69902 333 10074 30101 92033
AAXX 01121 47159 12970 02906 11006 21105 30130 40218 51024 69902 333 10079 30102 92022
AAXX 01121 47165 12670 63616 10007 21051 30213 40261 52003 69922 86500 333 10061 31001 92035
AAXX 01121 47168 32670 63612 10002 21098 30153 40235 51008 85500 333 10072 30101 92024
AAXX 01121 47184 12665 73414 10049 21036 30238 40264 51010 69902 87500 333 10083 31004 92054
AAXX 01121 47008 32970 03201 11052 21132 30193 40249 52007 333 10003
AAXX 01121 47014 32950 20901 11138 21198 39871 40302 52013 82040 333 11069
AAXX 01121 47016 12970 00000 11149 21191 39389 40306 52017 69902 333 11070
AAXX 01121 47020 32965 60000 11108 21144 39906 40277 52012 86030 333 11054
AAXX 01121 47025 12560 40000 11053 21078 30208 40238 52007 69932 84500 333 10019
AAXX 01121 47035 32970 03602 11094 21179 30296 40305 52009 333 11045
AAXX 01121 47041 11560 00000 11082 21088 30211 40239 52014 60022 71044 333 11008
AAXX 01121 47055 32965 21801 11015 21067 30205 40252 52014 82030 333 10015
AAXX 01121 47058 12960 83202 11078 21128 30238 40288 52015 69902 80002 333 11052
AAXX 01121 47069 11956 03208 11054 21109 30169 40274 52009 69902 71000 333 11013
AAXX 01121 47090 32560 23204 11010 21096 30207 40230 52013 82500 333 10049 3/101 42001 92042
AAXX 01121 47095 11550 63602 11067 21107 30071 40270 52016 69902 70522 86500 333 11013 34104
AAXX 01121 47097 129// /3203 11053 21129 30161 40262 52019 69902 333 10008 3/106
AAXX 01121 47098 329// /3602 11069 21112 30127 40269 52019 333 11003 3/105
AAXX 01121 47099 329// /1401 11083 21112 30235 40274 52015 333 10011 3/106
AAXX 01121 47100 11358 72706 11085 21113 39282 40245 52028 69912 77077 85520 333 11034 3/105 49022
AAXX 01121 47102 12662 63209 11041 21093 30096 40283 50005 69902 85500 333 10014 34102
AAXX 01121 47104 32665 62707 11009 21102 30123 40223 52020 82510 333 10040 3/101 43002
AAXX 01121 47106 329// /2904 11007 21086 30166 40217 52019 333 10053 3/000
AAXX 01121 47112 11658 23411 11046 21103 30184 40272 51014 69902 70500 81500 333 10013 30104 92034
AAXX 01121 47114 12662 52702 11055 21124 30065 40257 52022 69922 85500 333 10012 3/106 46///
AAXX 01121 47119 11956 03405 11057 21104 30224 40268 50015 69902 70500 333 10006 34103
AAXX 01121 47121 129// /2704 11047 21102 39945 40253 52029 69912 333 10018 3/104
AAXX 01121 47127 129// /2502 11052 21111 30113 40262 52022 69922 333 10017 3/103
AAXX 01121 47129 12662 63608 11030 21082 30238 40275 50010 60022 85500 333 10010 3/001 43///
AAXX 01121 47130 32665 62708 11005 21101 30139 40202 50008 85500 333 10075 31102 92033
AAXX 01121 47131 12961 00001 11054 21102 30196 40270 52018 60022 333 10016 3/000 47003
AAXX 01121 47135 129// /2906 11041 21091 39945 40257 52025 69952 333 10012 3/102
AAXX 01121 47136 12670 22905 11033 21122 30055 40234 52013 69902 82500 333 10043 30105
AAXX 01121 47137 129// /2907 11037 21126 30123 40247 50014 69902 333 10027 3/104
AAXX 01121 47140 12668 53605 11026 21086 30239 40269 52011 69952 85500 333 10020 34101 92012
AAXX 01121 47143 11670 22910 11017 21100 30162 40244 52012 69922 72272 82500 333 10056 30103
AAXX 01121 47145 11958 03208 11045 21106 30235 40263 52017 69952 70500 333 10010 3/101 47///
AAXX 01121 47146 12668 43409 11023 21086 30198 40267 52013 69952 84500 333 10031 34000
AAXX 01121 47150 12668 23608 11031 21093 30248 40268 51009 60032 82500 333 10012 3/000 42///
AAXX 01121 47152 12670 23208 11010 21084 30169 40213 50020 69922 82500 333 10080 34101
AAXX 01121 47154 129// /2910 11028 21090 30182 40245 52013 69942 333 10042 3/101
AAXX 01121 47155 12970 02703 11007 21088 30178 40225 52021 69932 333 10082 34101
AAXX 01121 47156 11665 63606 11006 21057 30171 40263 51004 60012 72682 86500 333 10040 3/000 42///
AAXX 01121 47157 12970 03406 11031 21115 39949 40230 52011 69902 333 10043 30105
AAXX 01121 47162 32970 00511 10004 21101 30186 40228 52020 333 10075 30101 92024
AAXX 01121 47169 12670 63621 10020 21043 30170 40267 52005 69902 86500 333 10069 31002 92066
AAXX 01121 47170 12670 63409 10009 21083 30212 40257 52005 69902 85500 333 10072 30001 92023
AAXX 01121 47171 129// /3405 11015 21074 30211 40268 52007 60012 333 10019 3/000
AAXX 01121 47172 129// /3206 11001 21065 30191 40260 51007 60012 333 10041 3/001
AAXX 01121 47173 129// /3407 11018 21083 30142 40257 52007 60022 333 10021 3/101
AAXX 01121 47174 12665 63408 11018 21067 30035 40245 52011 69942 86500 333 10040 34101
AAXX 01121 47175 12570 63415 11027 21065 39662 40256 50004 69942 85500 333 10033 34101 92024
AAXX 01121 47185 12665 73231 10048 21032 30158 40251 50013 69902 87500 333 10090 31004 92057
AAXX 01121 47188 12670 63206 10042 21048 30226 40248 50006 69902 86500 333 10093 31003 92032
AAXX 01121 47189 32670 33402 10049 21044 30178 40239 54000 83500 333 10101 30002 92022
AAXX 01121 47192 12973 03606 11005 21115 30194 40232 51014 69902 333 10065 30101
AAXX 01121 24790 31999 30000 11472 21489 39435 40409 57001 77671 80001 333 21460
AAXX 01121 24988 32999 20000 11371 21407 39973 40262 52002 80001 333 11305
AAXX 01121 25378 42998 02001 11290 21327 30167 40204 58002 333 91102
AAXX 01121 25503 32699 31203 11440 21469 30166 40317 58003 82501 333 11438
AAXX 01121 25705 31996 20000 11469 21494 39937 40334 58002 77671 80001 333 11448
AAXX 01121 25927 32998 23203 11294 21311 30229 40237 57002 80001 333 11254
AAXX 01121 25932 NIL
AAXX 01121 31152 32997 80000 11335 21366 39854 40311 57007 85036 333 11345
AAXX 01121 31174 32999 00602 11301 21313 30251 40264 58001 333 11172
AAXX 01121 31489 32998 00000 11317 21341 30152 40285 58005 333 11208
AAXX 01121 31866 12999 23404 11117 21200 30213 40219 50002 69900 80001 333 11073
AAXX 01121 31959 32998 02606 11111 21195 30170 40215 53024 333 11046 91012 91113
AAXX 01121 31989 32999 00404 11085 21199 30154 40210 51004 333 11016
AAXX 01121 32027 11598 63404 11172 21191 30234 40243 57004 60020 70232 83930 333 11155 91005 91106
AAXX 01121 32076 11496 83401 11137 21150 30212 40223 54000 60010 78582 889// 333 11098 91002 91102
AAXX 01121 32099 12597 60705 11048 21054 30182 40190 57016 78582 86900 333 11063 91006 91108
AAXX 01121 32121 11597 83402 11087 21111 30163 40186 58006 60010 78582 8693/ 333 11059 91003 91105
AAXX 01121 32213 32998 03207 11038 21083 30148 40213 51002 333 11030 91112
AAXX 01121 32287 11497 73108 11081 21099 30195 40206 57005 69920 78583 86970 333 11080 84713
AAXX 01121 32408 32999 21202 11240 21265 30159 40202 53001 81031 333 11215
AAXX 01121 32509 11998 03309 11096 21213 30160 40196 52003 73630 333 11081 91012 91114
AAXX 01121 32594 32998 20705 11083 21141 30174 40212 54000 80001 333 11045
AAXX 01121 47003 32980 03605 11078 21151 30260 40264 52013 333 11049
AAXX 01121 47005 12980 00501 11220 21238 38610 52012 69902 333 11107
AAXX 01121 47022 32975 00000 11150 21177 38839 52016 333 11066
AAXX 01121 47028 32962 03602 11080 21154 30205 40305 52017 333 11047
AAXX 01121 47031 12970 00000 11145 21165 38937 52012 69922 333 11094
AAXX 01121 47037 32970 03203 11076 21174 30155 40286 52013 333 11045
AAXX 01121 47039 12960 40000 11074 21128 30078 40279 52004 69902 80001 333 11023
AAXX 01121 47046 11550 80000 11011 21040 30213 40236 52019 60012 71022 885// 333 10012
AAXX 01121 47050 12965 00000 11082 21145 30242 40278 52021 69912 333 11040
AAXX 01121 47052 32565 80000 11094 21119 39915 40273 52019 885// 333 11040
AAXX 01121 47060 12960 03602 11075 21097 30215 40276 52010 69902 333 11047
AAXX 01121 47061 32670 83202 11007 21049 30183 40228 52010 84530 333 10046
AAXX 01121 47065 31950 00000 11086 21110 30218 40287 52021 71020 333 11040
AAXX 01121 47067 31560 03201 11062 21089 30165 40291 52009 71020 333 11040
AAXX 01121 47068 12560 60000 11053 21103 30234 40271 52009 69902 86500 333 11033
AAXX 01121 47070 32970 43207 11057 21083 30182 40274 52013 84030 333 11002
AAXX 01121 47075 12980 02301 11108 21128 39750 40204 52021 69922 333 11031
AAXX 01124 63729 11580 10236 20177 38865 48/// 60011 70196 81930 333 0//13 55306 59001 81622 81924 83360
AAXX 01124 63733 32580 13110 10274 20202 38852 48498 81900 333 55310 59014 81825 81927
AAXX 01124 63756 32580 32812 10260 20198 38863 48504 83940 333 55308 59008 83826 81927
AAXX 01124 63791 32580 20910 10332 20116 39096 48502 82200 333 55310 59008 82832
AAXX 01124 63832 32580 60608 10286 20183 38814 48495 83932 333 55310 59018 83823 81924
AAXX 01124 63862 32580 42710 10276 20181 38885 48508 83973 333 55310 59004 83825 81927
AAXX 01124 63866 32580 30000 10309 20209 39492 48/// 83200 333 55310 59011 83828
AAXX 01124 63870 32580 10214 10322 20215 30076 40098 81200 333 55310 59002 81826
AAXX 01124 63894 32580 40318 10302 20232 30040 40100 83200 333 55310 59006 83825
AAXX 01124 63932 32580 62707 10212 20180 38300 48495 8397/ 333 55300 59009 83823 81924 86358
AAXX 01124 63962 32580 10000 10295 20187 38925 48495 81900 333 55310 59004 81826 81928
AAXX 01124 63971 32580 40118 10298 20251 39968 40096 84900 333 55310 59007 84824 81925
AAXX 01124 63801 NIL
AAXX 01124 63881 NIL
AAXX 01124 63887 NIL
AAXX 01121 60376 16/// /3101 10191 20073 69921
AAXX 01121 60593 36/// /0000 10143
AAXX 01124 63125 32575 10914 10282 20195 40151 81100 333 59016 81823
BBXX NIL
AAXX 01124 60522 12975 02404 10161 20029 40294 58013 60001 333 0//00 95900
AAXX 01124 40255 32560 32704 10130 20018 39444 40162 57012 83100 333 83830
AAXX 01124 40260 NIL
AAXX 01124 40270 31556 52410 10110 21011 39257 40161 57027 70511 85200 333 85825
AAXX 01124 40272 31558 32416 10118 20001 39323 40170 57019 70500 83100 333 83830
AAXX 01124 40290 NIL
AAXX 01124 40340 32960 00000 10200 20020 40161 57027
BBXX NIL
BBXX NIL
AAXX 01124 40250 NIL
AAXX 01124 40265 NIL
AAXX 01124 40296 32960 02106 10226 20062 40168 57023
AAXX 01124 40310 32660 12512 10112 21029 38928 48473 57012 81100 333 81830
BBXX NIL
BBXX NIL
BBXX PJHA 01124 99022 30089 41797 52212 10294 20289 40124 55093 7//// 85078 22274 06260 20201 323// 40803 80290
BBXX ICRA 01124 99048 30555 418// 33020 10270 2024/ 40110 54040 7//// 83/1/ 22254 00270 2//// 3//// 4//// 5//// 6//// 80250 /////
BBXX SHIP 01124 99060 31056 41/97 71713 10258 20250 40017 75122 222// 0//// 20301 326// 40301 5////
BBXX A8KH9 01124 99063 30798 41698 62612 10280 20246 40075 51015 7//// 84464 22214 20404 32499 40606 5//// 80255
BBXX BATFR19 01124 99067 30055 46/// /1810 10244 20194 40139 58016 22200 00259
BBXX 3EYJ5 01123 99125 30084 41/98 71815 10250 20188 40150 56005 70322 86469 22244 04270 2//// 318// 41603 5//// 80210
BBXX A8JS5 01124 99164 30098 41598 61711 10215 20152 40144 56012 70222 865// 22243 04198 20402 319// 40603 5//// 80175
BBXX MIBR 01124 99197 30620 41498 51410 10270 20226 40101 54000 70222 83239 22254 00278 20201 306// 40604 5//// 80240
BBXX A8IQ2 01120 99228 30144 41698 12705 10195 20138 40140 58010 70000 81400 22200 00170 20201 300// 40000 5//// 80160
BBXX BATFR08 01124 99266 30545 44597 31311 10242 20162 40130 58007 702// 831// 22243 00265 20804 315// 40804 5////
BBXX DBBT 01121 99339 30184 46/// /3005 10170 20128 40153 57006 22200 00136
BBXX DBLK 01121 99425 30090 41497 22716 10106 20069 40034 52012 70281 82400 22213 04101 20606 326// 41008
BBXX SHIP 01124 99559 31099 41496 72638 10014 21021 49800 57009 72072 84833 22243 00028 11313 20808 32623 40809 50908 61000 85000
AAXX 01121 03976 11572 62309 10070 20047 39913 49925 56002 60021 72782 83901 333 82920 81820 84075 96487 90710 91121
BBXX DPRB 01121 99304 11226 41/97 /3603 10080 20013 40295 51010 70211 8//// 22200 20504 304// 40605 5//// 80050
BBXX MGPU2 01123 99416 11331 41497 53435 11050 21096 40200 55/// 70122 851// 22283 00050 20403 301// 40504 5//// 81060
BBXX SHIP 01124 99344 11445 41497 81525 10150 20076 40164 57013 76022 884// 22282 00216 80110
BBXX UBSF2 01120 99474 11483 42/97 95005 11002 06003 2//// 20000 40339 51000 70000 80000
BBXX UFLC 01120 99586 11500 41295 83604 11112 40256 54000 77377 8472/ 22282 06012 ICE 52095
BBXX VRHO2 01124 99410 11397 41898 72813 10080 20038 40110 56020 70322 87263 22215 00120 20502 33131 40803 50904 6//// 80060 ICE /////
AAXX 01124 17601 41560 72615 10167 20102 30060 40091 55005 72581 869/2 91150 333 81928 85832
AAXX 01121 23973 11997 81802 11074 21080 30284 40348 54000 69942 77187 8801/ 333 11074
AAXX 01121 23975 115// 82202 11094 21110 30239 40353 54000 69922 70382 889// 333 11058
AAXX 01121 23986 11496 71902 11110 21123 39699 40364 51001 69952 78582 8633/ 333 11109
AAXX 01121 23987 11599 61902 11064 21080 30283 40359 51002 69942 70282 86900 333 11064
AAXX 01121 24606 118// 32701 11128 21148 39991 40271 52014 69902 70271 83040 333 11106
AAXX 01121 29253 119// 70000 11074 21104 30204 40383 52003 69922 70272 87070 333 11072
AAXX 01121 29471 11496 82101 11070 21083 30171 40408 52004 69962 78582 889// 333 11062 88916
AAXX 01121 29481 11597 80601 11102 21108 30157 40408 52003 69932 78578 883// 333 11077
AAXX 01121 29553 11950 82301 11083 21111 30035 40417 52002 69922 77182 8802/ 333 11073
AAXX 01121 29562 11584 72001 11085 21096 39980 40415 58003 69952 70282 87900 333 11072
AAXX 01121 29581 129// 82603 11074 21095 30148 40416 52005 69902 8802/ 333 11065
AAXX 01121 29594 11597 82802 11079 21093 30013 40415 52007 69992 78582 85901 333 11079
AAXX 01121 29653 32597 71702 11095 21130 39910 40418 58005 82208 333 11073
AAXX 01121 29675 12598 70000 11097 21133 39808 40429 53001 69922 87500 333 11066
AAXX 01121 29676 11698 80000 11100 21127 39974 40419 58001 69902 70272 885// 333 11054
AAXX 01121 29752 114// 72406 11133 21146 38927 48563 57003 69942 78583 82939 333 11120 91115
AAXX 01121 29759 115// 82002 11101 21137 39352 40427 58002 69902 78583 8295/ 333 11095
AAXX 01121 29766 32899 70000 11131 21144 30069 40448 57001 87050 333 11110
AAXX 01121 29789 32999 80000 11136 21171 39193 40447 52007 8801/ 333 11076
AAXX 01121 29864 329// 23401 11158 21177 39750 40450 54000 80002 333 11071
AAXX 01121 29866 329// 70000 11116 21122 30093 40433 58002 87030 333 11036
AAXX 01121 29869 116// 60000 11086 21114 30050 40442 54000 69902 70272 83531 333 11032 95090
AAXX 01121 29956 32984 62702 11116 21144 39864 40456 57003 86030 333 11057
AAXX 01121 30337 11596 70000 11162 21181 39918 40398 52017 69992 78582 84901 333 11134
AAXX 01121 30405 115// 82502 11110 21123 39857 40413 52004 69902 78581 82931 333 11096 53006
AAXX 01121 30504 11997 80000 11117 21123 39742 40426 52004 69952 77187 85037 333 11089
AAXX 01121 30603 11596 80000 11148 21148 39818 40427 52008 69972 78582 85908 333 11109
AAXX 01121 30612 115// 80000 11211 21223 39859 40443 52009 69902 70282 82935 333 11195
AAXX 01121 30622 329// 50000 11239 21245 39718 40427 51004 80003 333 11194
AAXX 01121 30627 11998 02001 11187 21199 39416 40420 54000 69902 70171 333 11166
AAXX 01121 30703 119// 80000 11127 21133 39722 40435 53010 60022 77172 82077 333 11084
AAXX 01121 36307 32997 60000 11300 21337 39132 48610 53005 80002 333 11249
AAXX 01121 23074 11497 81702 11177 21196 30214 40241 52006 69902 70272 8257/ 333 11143
AAXX 01121 23274 11597 71803 11162 21181 30224 40262 58008 69902 77172 8657/ 333 11106 86627
AAXX 01121 23383 11598 82101 11135 21170 39920 40289 52008 69922 70287 87907 333 11115
AAXX 01121 23472 11497 71604 11135 21155 30230 40281 58008 69922 78582 86906 333 11121
AAXX 01121 23678 125// 81203 11082 21096 30243 40303 58008 69932 889// 333 11082
AAXX 01121 23884 115// 81801 11080 21090 30265 40342 58002 69942 77172 86503 333 11078
AAXX 01121 23891 11596 70000 11107 21143 30007 52008 69902 70282 86930 333 11101
AAXX 01121 24507 329// 30000 11234 21253 30033 40298 52018 82031 333 11170
AAXX 01121 24817 125// 72201 11131 21144 39899 40282 52005 69902 82530 333 11112
AAXX 01121 24908 11597 82402 11101 21114 39982 40325 52007 69952 78582 84937 333 11101
AAXX 01121 29263 11559 72001 11078 21092 30279 40384 52001 69902 78582 82932 333 11067
AAXX 01121 29282 11984 22402 11095 21125 30204 40382 52008 69922 70171 80001 333 11064
AAXX 01121 29379 11597 81701 11099 21116 30188 40408 52002 69902 78522 889// 333 11081
AAXX 01121 29570 11596 82301 11066 21098 30052 40412 54000 69902 78582 889// 333 11057
AAXX 01121 29698 329// 80000 11185 21204 39887 40445 52005 84042 333 11148
AAXX 01121 30230 11597 80000 11186 21205 30009 40362 52004 69932 78582 85941 333 10143
AAXX 01121 30252 119// 70000 11286 21304 30058 40414 52001 60012 70172 83041 333 11271
AAXX 01121 30309 11596 82501 11113 21119 39846 40392 52005 69972 78582 85931 333 11098
AAXX 01121 30328 119// 80000 11149 21162 39950 40405 52007 60022 77177 84027 333 11141
AAXX 01121 30521 115// 50000 11208 21227 39852 40425 52008 69932 70281 85900 333 11176
AAXX 01121 30710 11496 80000 11097 21104 39806 40417 52004 69962 78582 889// 333 11083
AAXX 01123 42071 31995 00000 10164 20095 40138 70500 333 10194 59043
AAXX 01124 42101 31695 70000 10184 20119 40136 70522 83530 333 10206 59038 83635 84360
AAXX 01124 42165 31995 03601 10192 21021 40136 70500 333 10210 59020
AAXX 01124 42328 32996 03204 10202 21043 40149 333 10219 59010
AAXX 01124 42339 31994 40902 10194 20020 40137 70500 80001 333 10203 59012 84070
AAXX 01124 42348 31995 49903 10170 20138 40135 71022 84030 333 10183 59019 84360
AAXX 01124 42361 21595 80000 10156 20142 40131 71044 8692/ 333 10162 59020 6006/ 84615 86825 81930 88458
AAXX 01124 42452 31594 83602 10172 20151 40132 71044 8452/ 333 10179 59006
AAXX 01124 42027 NIL
AAXX 01124 42071 NIL
AAXX 01124 42111 NIL
AAXX 01124 42131 NIL
AAXX 01124 42182 NIL
AAXX 01124 42189 NIL
AAXX 01124 42260 NIL
AAXX 01124 42369 NIL
AAXX 01124 42379 NIL
AAXX 01124 42475 NIL
AAXX 01124 71525 16/// /2204 11156 21166 60001 333 11002 21159 70011
AAXX 01124 71535 16/// /1602 11127 21137 60001 333 10021 21132 70000
AAXX 01124 71536 16/// /2703 11143 21156 60001 333 10023 21152 70000
AAXX 01124 71537 46/// /2205 11146 21164 6///1 333 11004 21153 7////
AAXX 01124 71010 16/// /2706 11143 21193 60001 333 21152 7////
AAXX 01124 71345 17/// /1305 11125 21141 69941 7//4/ 333 10021 21125 7////
AAXX 01124 71916 46/// /0000 11382 21419 30226 40286 51010 6///1 333 21384 7////
AAXX 01124 71683 46/// /1703 11282 30088 40205 50002 6///1 333 11248 21282 7////
AAXX 01124 71464 46/// ///22 10055 39872 40085 58045 6///1 333 10073 20034 7////
AAXX 01124 71257 17/// /1807 11171 21204 69941 7//4/ 333 11023 21186 70013
AAXX 01124 71258 16/// /1910 11150 21206 60001 333 11016 21167 70006
AAXX 01124 71259 16/// /1303 11189 21214 60001 333 11011 21189 70000
AAXX 01124 71274 16/// /2403 11164 21198 60001 333 11038 21165 70000
AAXX 01124 71275 46/// /2308 11176 21199 6///1 333 11039 21181 7////
AAXX 01124 71278 16/// /2202 11161 21194 60001 333 11032 21164 70000
AAXX 01124 71286 16/// /2405 11153 21192 60001 333 11036 21180 70000
AAXX 01124 71287 16/// /2304 11166 21190 60001 333 11029 21171 4/001 70000
AAXX 01124 71289 16/// /2208 11152 21208 60001 333 11022 21152 70000
AAXX 01124 71351 46/// /2204 11128 21182 6///1 333 11027 21128 7////
AAXX 01124 71353 17/// /2312 11122 21203 60011 7//4/ 333 11029 21137 70015
AAXX 01124 71375 46/// /0213 11047 6///1 333 11052 21070 7////
AAXX 01124 71385 46/// /3210 11056 6///1 333 21057 7////
AAXX 01124 71445 16/// /3231 11108 21125 39881 40164 53043 60001 333 11018 21108 4/047 70009
AAXX 01124 71214 16/// /2508 11137 21183 60001 333 11030 21153 70000
AAXX 01124 71225 16/// /1606 11141 21155 60001 333 10028 21141 70000
AAXX 01124 71227 46/// /2109 11166 21209 6///1 333 11035 21185 7////
AAXX 01121 40009 11565 71001 10104 20070 40137 57017 69921 70166 85500 333 85630 87360
AAXX 01121 40016 32970 40000 10130 20060 40192 56014 84050 333 84360
AAXX 01121 40022 11560 71608 10130 20115 40145 57024 60151 79596 87900 222// 20503 333 83930 85632
AAXX 01121 40030 31570 70000 10090 20060 40137 57028 70200 84550 333 84630 87360
AAXX 01121 40039 32970 01001 10123 20035 40146 56018
AAXX 01121 40066 11558 70000 10117 20061 40117 56018 69953 76062 83470 333 83626 87360
AAXX 01121 40072 32970 00000 10100 20066 40185 57028
AAXX 01121 40083 32570 42204 10060 21021 48440 57014 84200 333 84826
AAXX 01121 51711 32980 02501 11124 21151 38073 54000 333 05353
AAXX 01121 51730 32970 00000 11074 21130 40428 57002 333 05351
AAXX 01121 52112 32980 02704 11054 21166 40420 52009 333 00001
AAXX 01121 52737 32980 03201 11116 21257 37100 52005 333 00053
AAXX 01121 52787 32980 03206 11168 21207 37040 52003 333 05159
AAXX 01121 53352 32680 72505 11095 21160 40383 52010 82502
AAXX 01121 53593 32960 52201 11080 21157 40343 57004 80002
AAXX 01121 53705 32965 42502 11024 21154 40387 52010 80002 333 00202
AAXX 01121 53863 31956 40000 11046 21084 40349 52006 70500 80002
AAXX 01121 53975 32965 01402 10005 21122 40334 52007
AAXX 01121 54273 32970 02502 11184 21228 40362 52010
AAXX 01121 54324 32970 02702 11113 21204 40356 57003
AAXX 01121 54405 32980 02502 11066 21163 40330 57004
AAXX 01121 54436 32980 00000 11079 21165 40351 54000
AAXX 01121 54808 32961 00000 11028 21044 40333 52003
AAXX 01121 54826 32960 33606 11083 21171 38512 52001 80002
AAXX 01121 54836 32968 00702 11030 21066 40342 52005
AAXX 01121 54863 32565 43403 11036 21092 40334 52006 84500
AAXX 01121 56018 32980 72201 10025 21223 36161 52005 80002 333 05206
AAXX 01121 56021 32980 71103 11046 21253 36057 54000 8701/ 333 05303 91118 91529
AAXX 01121 57071 31/00 90702 11030 21033 40343 52008 74944
AAXX 01124 63729 11580 10236 20177 38865 48/// 60011 70196 81930 333 0//13 55306 59001 81622 81924 83360
AAXX 01124 63733 32580 13110 10274 20202 38852 48498 81900 333 55310 59014 81825 81927
AAXX 01124 63756 32580 32812 10260 20198 38863 48504 83940 333 55308 59008 83826 81927
AAXX 01124 63791 32580 20910 10332 20116 39096 48502 48502 82200 333 55310 59008 82832
AAXX 01124 63832 32580 60608 10286 20183 38814 48495 83932 333 55310 59018 83823 81924
AAXX 01124 63862 32580 42710 10276 20181 38885 48508 83973 333 55310 59004 83825 81927
AAXX 01124 63866 32580 30000 10309 20209 39492 48/// 83200 333 55310 59011 83828
AAXX 01124 63870 32580 10214 10322 20215 30076 40098 81200 333 55310 59002 81826
AAXX 01124 63894 32580 40318 10302 20232 30040 40100 83200 333 55310 59006 83825
AAXX 01124 63932 32580 62707 10212 20180 38300 48495 8397/ 333 55300 59009 83823 81924 86358
AAXX 01124 63962 32580 10000 10295 20187 38925 48495 81900 333 55310 59004 81826 81928
AAXX 01124 63971 32580 40118 10298 20251 39968 40096 84900 333 55310 59007 84824 81925
AAXX 01124 63801 NIL
AAXX 01124 63881 NIL
AAXX 01124 63887 NIL
AAXX 01121 38954 42998 00000 11022 21077 37976 48580 52003
BBXX A8GH5 01123 99060 70261 41696 30516 10275 20195 40150 54000 70500 81101 22254 20401 80220
AAXX 01121 40650 42960 03203 10159 20097 40159 57014
AAXX 01121 40604 42560 30000 10126 20072 40157 57015 83200
AAXX 01121 40608 41558 70602 10140 20079 40162 56018 70522 81150
AAXX 01121 40621 42960 31503 10145 20082 40186 57015 80002
AAXX 01121 40623 41558 70000 10076 20058 40193 58004 71062 87500
AAXX 01121 40629 42560 72606 10090 20073 40192 57014 83532
AAXX 01121 40631 42960 00000 10152 20089 40167 57013
AAXX 01121 40634 42560 62806 10090 20050 40171 57018 86500
AAXX 01121 40637 42960 30000 10167 20130 40172 57004 80002
AAXX 01121 40642 42560 30000 10148 20027 40157 57010 83100
AAXX 01121 40656 41956 02904 10157 20100 40144 57015 70600
AAXX 01121 40665 42960 01404 10210 20127 40145 57013
AAXX 01121 40670 42960 03303 10156 20103 40152 57014
AAXX 01121 40674 42960 23106 10212 20062 40138 57012 82100
AAXX 01121 40676 42960 30802 10224 20068 40132 56012 83031
AAXX 01121 40680 41558 50807 10222 20059 40151 58009 70622 85800
AAXX 01121 40689 41630 81810 10204 20118 40136 56015 70722 888//
AAXX 01121 40691 42660 70304 10200 20157 40158 57014 87800
AAXX 01124 41254 36/// /2812 10174 21228 38081 48085 333 0E003 59007
AAXX 01124 68513 36/// /1816 10228 20113 30035 40145 58001 333 10228 20122 91021 555 91014
AAXX 01124 68514 32/// /0403 10348 21038 39645 48565 57018 333 10350 20136 91007 555 91012
AAXX 01124 68523 36/// /2609 10334 21033 39081 48523 58011 333 10334 20121 91016 555 91014
AAXX 01124 68527 36/// /2704 10343 20044 39033 48501 58012 333 10345 20204 91009 555 91012
AAXX 01124 68572 32880 31604 10286 20069 38372 48475 58001 83200 333 10287 20075 91010 555 91016
AAXX 01124 68575 NIL
AAXX 01124 68581 36/// /1306 10297 20220 39319 48498 57011 333 10301 20157 91013 555 91009
AAXX 01124 68583 NIL
AAXX 01124 68589 36/// /0306 10266 20142 38229 48479 57003 333 10269 20105 91011 555 91018
AAXX 01124 68613 36/// /2707 10217 20134 30051 40165 58006 333 10227 20112 91013 555 91016
AAXX 01124 68647 36/// /2706 10284 20062 38888 48500 57011 333 10286 20130 91015 555 91014
AAXX 01124 68651 36/// /2908 10269 20076 38538 48502 58006 333 10269 20127 91021 555 91018
AAXX 01124 68715 36/// /2304 10270 20109 30022 40145 58001 333 10273 20115 91010 555 91015
AAXX 01124 68717 36/// /2506 10275 20086 30000 40139 57007 333 10277 20132 91013 555 91014
AAXX 01124 68723 36/// /2706 10329 21010 39354 48525 57011 333 10329 20153 91015 555 91011
AAXX 01124 68737 32975 01906 10318 20085 39205 48511 57012 333 10320 20112 91012 555 91012
AAXX 01124 68744 36/// /0204 10311 20079 39056 48495 57012 333 10311 20132 91009 555 91011
AAXX 01124 68747 36/// /2104 10324 20096 39567 48530 57013 333 10325 20147 91009 555 91010
AAXX 01124 68754 16/// /1706 10276 20137 39096 48503 57010 69921 333 10284 20134 91010 555 20002 91013
AAXX 01124 68817 NIL
AAXX 01124 68821 36/// /2825 10285 20068 39868 40098 57009 333 10290 20135 91038 555 91011
AAXX 01124 68835 36/// /1505 10301 20160 39974 40083 57005 333 10303 20143 91013 555 91008
AAXX 01124 68843 NIL
AAXX 01124 68849 36/// /2006 10274 20136 39367 48508 57010 333 10278 20147 91009 555 91011
AAXX 01124 68912 NIL
AAXX 01124 68918 36/// /2813 10239 20141 30115 40133 58006 333 10240 20179 91023 555 91013
AAXX 01124 68921 NIL
AAXX 01124 68925 36/// /2807 10220 20124 39769 40126 58002 333 10222 20122 91017 555 91013
AAXX 01124 68926 36/// /2210 10267 20126 39931 40104 56002 333 10306 20135 91018 555 91011
AAXX 01124 68935 36/// /2406 10248 20153 30050 40112 57005 333 10248 20141 91014 555 91011
AAXX 01121 50548 32975 00401 11270 21305 40348 57005
AAXX 01121 50564 32970 02201 11269 21292 40336 57005
AAXX 01121 51334 11770 71402 11099 21119 40448 57001 69901 77077 82502 333 05552
AAXX 01121 51818 32965 03401 11057 21126 40422 52002 333 05253
AAXX 01121 52378 32980 02505 11088 21191 40409 52012 333 00201
AAXX 01121 53487 31957 11401 11063 21153 40338 57003 70400 80002
AAXX 01121 53502 32980 13205 11035 21190 40395 52014 80002 333 00204
AAXX 01121 53923 32980 03203 11012 21134 40338 52016
AAXX 01121 54049 32970 00000 11189 21240 40357 57007
AAXX 01121 54115 32966 20000 11143 21204 40359 57013 80002
AAXX 01121 54157 32962 00000 11173 21223 40360 52001
AAXX 01121 54186 32965 00000 11186 21227 40340 52010
AAXX 01121 54311 32980 80403 11123 21204 40358 57007 80007
AAXX 01121 54346 32965 00901 11138 21201 40356 57002
AAXX 01121 54377 32962 00203 11108 21183 40321 52011
AAXX 01121 54386 32970 00201 11163 21208 40319 52015
AAXX 01121 54493 32966 03601 11112 21193 40325 52010
AAXX 01121 54587 NIL
AAXX 01121 54715 31958 00000 11042 21070 40336 57001 71000
AAXX 01121 54929 32960 01102 10000 21058 40331 52011
AAXX 01121 54945 32962 03402 11009 21059 40341 52015
AAXX 01121 56065 32980 22001 11108 21187 36613 52011 80002 333 05200
AAXX 01121 57193 31616 80402 10013 20001 40325 57003 71000 885//
AAXX 01121 57290 31950 80401 10012 21012 40328 52001 71000 8802/
AAXX 01124 68575 NIL
AAXX 01124 68583 NIL
AAXX 01124 68817 NIL
AAXX 01124 68843 NIL
AAXX 01124 68912 NIL
AAXX 01124 68921 NIL
AAXX 01124 48307 31958 00000 10227 20194 39766 40149 52016 71000 333 10315 59002
BBXX VOXS 01124 99467 70480 41798 81220 10009 2101/ 40197 56065 70222 886// 22200 04016 20402 334// 40908 80001
BBXX VOXS 01124 99467 70480 41798 81220 10009 2101/ 40197 56065 70222 886// 22200 04016 20402 334// 40908 80001
AAXX 01124 68174 11650 70312 10188 20147 38778 48502 57009 60141 79599 83982 333 10289 20158 91029 555 20146 91017
AAXX 01124 68191 36/// /3304 10324 20165 39607 40080 58016 333 10325 20196 91009 555 91011
AAXX 01124 68242 32682 33305 10287 20128 38706 48493 58008 83100 333 10289 20143 91010 555 91015
AAXX 01124 68262 36/// /2904 10277 20138 38691 48504 58008 333 10279 20164 91010 555 91017
AAXX 01124 68263 32680 42910 10252 20154 38478 48503 58007 84200 333 10256 20140 91014 555 91018
AAXX 01124 68267 32570 52910 10254 20124 38235 48498 58007 85100 333 10254 20131 91015 555 91020
AAXX 01124 68289 16/// /0807 10247 20168 39129 48511 58008 69921 333 10255 20178 91013 555 20002 91014
AAXX 01124 68350 16/// /3106 10307 20069 38648 48504 58011 69921 333 10320 20155 91013 555 20002 91017
AAXX 01124 68368 42682 43411 10248 20143 38317 48508 56008 84100 333 20187 555 91020
AAXX 01124 68403 36/// /2122 10232 20120 30127 40159 58005 333 10235 20131 91029 555 91016
AAXX 01124 68424 32982 02407 10329 21113 39174 48526 58010 333 10337 20137 91014 555 91013
AAXX 01124 68438 32882 22812 10337 20008 38780 48488 58010 82070 333 10339 20129 91017 555 91013
AAXX 01124 68442 32782 42506 10290 20041 38635 48492 58008 84200 333 10315 20132 91012 555 91016
AAXX 01124 68461 32680 52509 10263 20076 38311 48490 57010 85100 333 10263 20125 91019 555 91018
AAXX 01124 68512 32982 02613 10257 20032 39018 48528 58005 333 10270 20123 91021 555 91017
AAXX 01124 68538 32782 12408 10309 20049 38691 48484 58011 81100 333 10309 20153 91017 555 91014
AAXX 01124 68587 NIL
AAXX 01124 68588 36/// /0312 10293 20163 30077 40092 57011 333 10304 20199 91022 555 91009
AAXX 01124 68591 NIL
AAXX 01124 68592 NIL
AAXX 01124 68618 32980 02313 10292 20011 39043 48530 58006 333 10301 20085 91021 555 91016
AAXX 01124 68633 36/// /3108 10288 20032 38486 48480 58008 333 10290 20125 91019 555 91016
AAXX 01124 68668 32670 12010 10299 20086 39253 48509 57010 81100 333 10299 20157 91015 555 91011
AAXX 01124 68714 36/// /2208 10228 20113 30113 40149 57007 333 10233 20114 91016 555 91015
AAXX 01124 68727 36/// /2113 10319 20065 39082 48496 57010 333 10321 20153 91020 555 91011
AAXX 01124 68752 16/// /1310 10269 20189 39426 48511 57011 69921 333 10303 20151 91016 555 20002 91011
AAXX 01124 68816 32575 23017 10227 20130 30093 40146 58007 82504 333 20187 91024 555 91014
AAXX 01124 68828 32570 12111 10218 20156 39885 40113 55001 81500 333 20185 555 91012
AAXX 01124 68842 32582 12215 10238 20149 30028 40096 56015 81500 333 20144 555 91009
AAXX 01124 68858 32680 12115 10240 20156 39946 40098 56011 81100 333 20179 555 91009
AAXX 01124 68906 12598 32819 10170 20104 30060 40124 58006 69921 81572 222// 00133 20401 318// 41001 333 10178 20113 91041 555 20002 91012
AAXX 01124 68994 11295 83127 10096 20094 39839 49867 58028 60081 75155 886// 222// 00074 309// 333 10100 20070 91037 555 20082 60265 90986
AAXX 01124 89004 36/// /1420 11051 21135 38911 49920 58012 333 11047 21112 91024 555 90986
AAXX 01124 42559 22596 80000 10174 20161 40108 8452/ 333 10188 59017 6005/ 84620 88460
AAXX 01124 42571 21596 80000 10172 20162 40120 79596 8593/ 333 10229 59017 6016/
AAXX 01124 42667 31595 10196 20180 39515 40106 70500 83530 333 10268 59017 83625 85360
AAXX 01124 42675 21596 71804 10226 20201 40095 76062 84530 333 10236 59030 6996/ 84625 85360
AAXX 01124 42754 31594 63608 10186 20160 39471 40113 71022 83530 333 10218 59005 83620 85360
AAXX 01124 42779 21496 81402 10174 20168 39425 40132 72166 8452/ 333 10182 59022 6019/ 84615 88458
AAXX 01124 42874 21495 80904 10210 20191 40122 76062 8572/ 333 10230 59012 6001/ 83715 85620 88458
AAXX 01124 43041 21596 80000 10212 20200 39511 40130 72162 8451/ 333 10226 59014 6003/ 84625 88458
AAXX 01124 42867 NIL
AAXX 01124 42933 NIL
AAXX 01124 68587 NIL
AAXX 01124 68591 NIL
AAXX 01124 68592 NIL
BBXX ZNQO3 01120 99445 70091 41/96 92018 10143 20129 40161 52010 76166 89/// 22254 04142 20807 323// 41106 5//// 80135
BBXX A8UQ2 01124 99263 10568 41998 00000 10240 20127 40140 57010 705// 80000 22273 00240 20000 3//// 4//// 5//// 80170
BBXX TBWUK17 01123 99348 30192 41697 72930 10202 20196 40161 52003 70222 87774 22262 04220 20305 32626 40507 50607 80198
BBXX TBWUK18 01123 99308 30485 41/98 71108 10235 20152 40159 58004 70222 8347/ 22222 00242 20200 3//// 4//// 5//// 80185
BBXX 46206 01121 99488 71260 46/// /1015 10050 40203 57014 22200 00084 10606 70030 333 91218
BBXX CFO383 01124 99439 70602 47495 /3028 10080 2008/ 49934 52003 762// 8/ // 22200 00067 10704 2//// 3//// 4//// 5//// 6//// 70019 80081 333 91035
AAXX 01121 50658 31956 00000 11236 21250 40345 57004 70400
AAXX 01121 50888 32962 02001 11248 21269 40310 57001
AAXX 01121 50983 32970 03603 11220 21249 40310 57001
AAXX 01121 51053 32975 10905 11155 21188 40466 57007 80002 333 05456
AAXX 01121 51542 32980 00000 11260 21291 37613 57006 333 05553
AAXX 01121 52436 32980 02701 11106 21175 38577 40440 52003 333 00153
AAXX 01121 52908 32980 72906 11061 21205 35739 52001 80002 333 05303 91123 91529
AAXX 01121 52996 32970 10210 11106 21167 37601 52011 80002 333 00056
AAXX 01121 53083 32980 70202 11190 21216 40375 57021 80002 333 05603
AAXX 01121 53764 32965 23201 11039 21112 40357 52011 80002
AAXX 01121 53787 32970 70402 11051 21117 40341 52005 80002
AAXX 01121 54096 32970 02903 11179 21220 40316 52006
AAXX 01121 54226 32980 03601 11178 21221 40363 57011
AAXX 01121 54259 31958 00401 11175 21213 40366 52009 70400
AAXX 01121 54527 32960 71602 11037 21093 40336 57001 80002
AAXX 01121 54534 32965 01401 11048 21110 40341 52002
BBXX 46206 01121 99488 71260 46/// /1015 10050 40203 57014 22200 00084 10606 70030 333 91218
BBXX CFO383 01124 99439 70602 47495 /3028 10080 2008/ 49934 52003 762// 8/ // 22200 00067 10704 2//// 3//// 4//// 5//// 6//// 70019 80081 333 91035
BBXX 46132 01121 99497 71279 46/// /1219 10066 40147 57012 22200 00082 11013 70063 333 91225
BBXX 46205 01121 99542 71343 46/// /1618 10075 49995 57024 22200 00071 11114 70068 333 91223
BBXX 46132 01121 99497 71279 46/// /1219 10066 40147 57012 22200 00082 11013 70063 333 91225
BBXX 46205 01121 99542 71343 46/// /1618 10075 49995 57024 22200 00071 11114 70068 333 91223
AAXX 01121 40604 42560 30000 10126 20072 40157 57015 83200
AAXX 01121 40608 41558 70602 10140 20079 40162 56018 70522 81150
AAXX 01121 40621 42960 31503 10145 20082 40186 57015 80002
AAXX 01121 40623 41558 70000 10076 20058 40193 58004 71062 87500
AAXX 01121 40629 42560 72606 10090 20073 40192 57014 83532
AAXX 01121 40631 42960 00000 10152 20089 40167 57013
AAXX 01121 40634 42560 62806 10090 20050 40171 57018 86500
AAXX 01121 40637 42960 30000 10167 20130 40172 57004 80002
AAXX 01121 40642 42560 30000 10148 20027 40157 57010 83100
AAXX 01121 40650 42960 03203 10159 20097 40159 57014
AAXX 01121 40656 41956 02904 10157 20100 40144 57015 70600
AAXX 01121 40665 42960 01404 10210 20127 40145 57013
AAXX 01121 40670 42960 03303 10156 20103 40152 57014
AAXX 01121 40674 42960 23106 10212 20062 40138 57012 82100
AAXX 01121 40676 42960 30802 10224 20068 40132 56012 83031
AAXX 01121 40680 41558 50807 10222 20059 40151 58009 70622 85800
AAXX 01121 40689 41630 81810 10204 20118 40136 56015 70722 888//
AAXX 01121 40691 42660 70304 10200 20157 40158 57014 87800
AAXX 01124 88900 46/// /2413 10044 20016 30049 40052 51007 333 10050 20042
BBXX DCPL2 01123 99143 10701 41997 80118 10265 20200 40075 54000 70222 8804/ 22264 00276 29907 80220
BBXX A8UE4 01123 99477 11553 41/97 /0503 10000 20000 40220 58010 70277 8//// 22214 04030 20204 327// 40308 5//// 80000
BBXX LAVN4 01124 99173 70200 41/97 90921 10200 2008/ 40198 56010 70200 8//// 22213 00210 21004 304// 40904 NNNN
BBXX DANV 01124 99116 10614 41597 20520 10264 20188 40110 56020 7//00 82206 22224 04250 20104 304// 40305 80212
BBXX A8FQ8 01123 99017 70109 41799 41409 10290 20235 40150 50010 70222 83461 22274 00280 20402 80250
BBXX A8QL5 01121 99143 70252 41/97 80618 10245 20209 40150 52010 70222 87077 22284 04260 20807 303// 41207 80220
BBXX TBWUK11 01123 99142 30451 41598 40325 10310 20257 40160 57020 70311 8/4// 22253 00330 21003 30000 40000 50000 80270
BBXX 62141 01123 99493 50591 41596 82518 10121 20119 40020 54000 71022 8/700 22200 20502 332// 40602 5//// 80120
BBXX ZCDT2 01124 99128 70637 41598 50615 10265 20213 40160 50002 70200 85800 22264 00270 20202 306// 40405 5//// 80230
BBXX PHHD 01121 99146 70597 41/97 60710 10270 20221 40172 50002 72122 8/3// 22243 04260 2//05 327// 41004 80235
BBXX VREX7 01123 99199 70654 41298 40822 10270 20241 40210 50000 70000 84464 22214 04260 20201 30807 40504 50405 80250
BBXX ZCBU2 01123 99375 31782 41598 83328 10190 20174 40018 52002 70200 86464 22225 00190 20402 313// 40404 5//// 80180
AAXX 01124 89020 46/// /0607 11052 21066 39904 49939 57005 91140
AAXX 01121 30499 32999 02501 11277 21288 39619 40348 57004 333 11244
AAXX 01121 30683 329// 00000 11274 21292 39623 40342 58007 333 11188
AAXX 01121 30695 32999 23601 11288 21312 39960 40337 58004 80004 333 11201
AAXX 01121 31253 32999 30000 11330 21360 39817 40337 58006 80001 333 11304
AAXX 01121 31295 32999 00000 11251 21276 39818 40319 58006 333 11176
AAXX 01121 31348 32999 00000 11352 21356 30072 40295 58006 333 11235
AAXX 01121 31418 32984 00000 11267 21285 30006 40288 58003 333 11218
AAXX 01121 31439 NIL
AAXX 01121 31442 32997 20000 11288 21318 39930 40324 57008 80001 333 11180
AAXX 01121 31445 32984 00000 11274 21298 30035 40317 58002 333 11166
AAXX 01121 31474 32998 00000 11349 21384 39795 40348 58001 333 11129
AAXX 01121 31521 32980 00000 11269 21287 39990 40314 57012 333 11188
AAXX 01121 31527 32998 02301 11255 21280 39986 40320 58002 333 11175
AAXX 01121 31534 32999 00000 11302 21319 39948 40336 54000 333 11215
AAXX 01121 31587 32998 00000 11298 21315 30165 40330 58004 333 11188
AAXX 01121 31632 NIL
AAXX 01121 31702 32998 00301 11316 21352 39958 40341 58003 333 11224
AAXX 01121 31713 32998 02701 11288 21299 30187 40298 54000 333 11148
AAXX 01121 31725 32998 03202 11269 21275 30219 40293 58002 333 11155
AAXX 01121 31801 32998 00000 11296 21315 30041 40298 52003 333 11166
AAXX 01124 68155 36/// /2602 10328 20161 39169 48524 57010 333 10329 20207 91007 555 91013
AAXX 01124 68171 NIL
AAXX 01124 68176 36/// /1704 10344 20100 39104 48518 58015 333 10348 20190 91010 555 91013
AAXX 01124 68181 NIL
AAXX 01124 68182 36/// /0703 10313 20167 39312 48529 57011 333 10313 20193 91009 555 91013
AAXX 01124 68185 NIL
AAXX 01124 68253 36/// /1703 10315 20169 39033 48524 58008 333 10315 20189 91009 555 91015
AAXX 01124 68255 36/// /2906 10285 20134 38843 48501 58012 333 10286 20166 91012 555 91015
AAXX 01124 68271 36/// /3103 10306 20128 38891 48509 58008 333 10306 20157 91008 555 91015
AAXX 01124 68273 16/// /2708 10269 20154 38449 48502 57007 69921 333 10272 20137 91014 555 20002 91019
AAXX 01124 68287 36/// /0904 10187 20161 38566 48502 58002 333 10219 20140 91010 555 91018
AAXX 01124 68291 36/// /0104 10302 20185 39509 48535 58008 333 10309 20195 91007 555 91012
AAXX 01124 68297 NIL
AAXX 01124 68329 36/// /2807 10355 21017 39069 48529 58007 333 10358 20161 91013 555 91014
AAXX 01124 68331 36/// /2705 10327 20000 38823 48521 58003 333 10327 20156 91011 555 91017
AAXX 01124 68335 36/// /3404 10337 20029 38899 48525 58007 333 10337 20143 91009 555 91016
AAXX 01124 68341 36/// /3210 10282 20092 38518 48503 58012 333 10293 20143 91020 555 91018
AAXX 01124 68342 32480 12905 10308 20082 38500 48497 57005 81200 333 10321 2//// 91012 555 91018
AAXX 01124 68343 36/// /2504 10324 20028 38755 48490 58007 333 10325 20152 91010 555 91014
AAXX 01124 68349 36/// /3110 10292 20124 38494 48487 58008 333 10293 20151 91017 555 91016
AAXX 01124 68353 36/// /2708 10274 20136 38502 48481 58007 333 10274 20136 91014 555 91016
AAXX 01124 68355 36/// /2607 10294 20087 38557 48493 58010 333 10294 20147 91017 555 91017
AAXX 01124 68370 32680 62306 10261 20214 38359 48503 57011 86200 333 1//// 20166 555 91020
AAXX 01124 68377 36/// /2904 10296 20152 38716 48464 57016 333 10311 20166 91008 555 91011
AAXX 01124 68380 36/// /3207 10265 20120 3//// 4//// 5//// 333 10270 20136 91014 555
AAXX 01124 68387 16/// /0308 10291 20196 38823 48494 58011 69921 333 10292 20170 91018 555 20002 91014
AAXX 01124 68411 36/// /0903 10344 21059 39918 40115 58019 333 10344 20178 91007 555 91012
AAXX 01124 68429 36/// ///// 10318 21045 38668 48496 57007 333 10321 20136 555 91016
AAXX 01124 68449 36/// /2904 10269 20066 38373 48482 57010 333 10274 20123 91009 555 91017
AAXX 01124 68471 NIL
AAXX 01124 68474 36/// /3006 10295 20065 38580 48475 57011 333 10295 20104 91014 555 91014
AAXX 01124 68479 36/// /3305 10318 20124 38904 48486 57013 333 10318 20160 91009 555 91012
AAXX 01124 68481 36/// /0306 10296 20198 39732 40087 57011 333 10300 20198 91011 555 91010
AAXX 01124 68487 36/// /3604 10291 20165 38955 48493 57008 333 10297 20147 91011 555 91013
AAXX 01124 68491 36/// /0513 10289 20225 30085 40094 57008 333 10293 20205 91024 555 91009
AAXX 01124 68497 36/// /0914 10305 20225 30035 40077 57012 333 10322 20209 91022 555 91008
AAXX 01124 41254 36/// /2812 10174 21228 38081 48085 333 0E003 59007
BBXX 44059 01121 99368 70763 46/// /1602 1//// 91220 333 91203
BBXX 44059 01121 99368 70763 46/// /1602 1//// 40208 91210 333 91202
BBXX 44059 01121 99368 70763 46/// /1502 10067 40207 52003 91200 22200 00103 333 91202
BBXX 44057 01121 99395 70761 46/// /0000 1//// 91220 333 91201
BBXX 44057 01121 99395 70761 46/// /3601 1//// 40203 91210 333 91201
BBXX 44057 01121 99395 70761 46/// /0301 10019 40203 53006 91200 22200 00039 333 91201
BBXX 44058 01121 99376 70763 46/// /1901 1//// 91220 333 91201
BBXX 44058 01121 99376 70763 46/// /1801 1//// 40209 91210 333 91201
BBXX 44058 01121 99376 70763 46/// /0000 10073 40210 52003 91200 22200 00084 1//00 70000 333 91201
BBXX 46092 01121 99368 71220 46/// /0909 10118 40184 91157 22200 00119 555 11098 22108
AAXX 01121 30455 119// 80000 11250 21268 38959 48480 53002 69962 70272 8807/ 333 11235
AAXX 01121 30731 115// 83205 11067 21118 39714 40341 52005 69902 73632 8553/ 333 11057
AAXX 01121 30739 116// 82704 11105 21141 39474 40325 54000 69902 73632 8497/ 333 11102
AAXX 01121 30741 119// 83206 11146 21159 38734 48511 58005 69982 73873 8802/ 333 11124
AAXX 01121 30745 119// 80000 11171 21190 39106 40325 58006 60022 77177 8801/ 333 11161
AAXX 01121 30764 11997 80000 11233 21251 39480 40348 57008 69962 77172 8801/ 333 11233
AAXX 01121 30829 32984 43001 11229 21248 39673 40431 52001 80001 333 11178
AAXX 01121 30838 11998 62705 11174 21180 39339 40390 52002 69932 70273 82042 333 11153
AAXX 01121 30846 11999 80000 11210 21235 39357 40339 57010 69962 70272 84046 333 11170
AAXX 01121 30859 11897 80000 11203 21229 39430 40331 57007 69932 77172 8801/ 333 11202
AAXX 01121 30862 32970 82601 11259 21291 39539 40354 57006 8801/ 333 11258
AAXX 01121 30957 119// 22101 11204 21210 39372 40337 57005 69922 70172 82040 333 11150
AAXX 01121 30975 32898 80502 11296 21326 39668 40396 57010 8802/ 333 11271
AAXX 01124 68183 32678 40705 10302 20175 39410 48530 57012 82172 333 10302 20203 91009 555 91012
AAXX 01124 68188 36/// /0000 10273 20170 39179 48523 58005 333 10273 20170 91003 555 91014
AAXX 01124 68268 36/// /2506 10307 20150 38872 48526 57005 333 10314 20154 91012 555 91017
AAXX 01124 68272 16/// /2103 10294 20164 39054 48517 57011 69921 333 10295 20167 91006 555 20002 91014
AAXX 01124 68296 16/// /1204 1//// 2//// 38912 4//// 57000 69921 333 1//// 2//// 91009 555 20002
AAXX 01124 68322 36/// /2706 10366 21042 39121 48528 57011 333 10372 20143 91013 555 91013
AAXX 01124 68338 32675 22707 10315 20021 38745 48488 57007 82200 333 10318 20123 91014 555 91014
AAXX 01124 68345 36/// /3407 10305 20053 38650 48498 57012 333 10309 20154 91017 555 91016
AAXX 01124 68362 36/// /2506 10288 20116 38488 48490 57006 333 10288 20139 91013 555 91017
AAXX 01124 68400 36/// /0406 10314 20179 30009 40079 57013 333 10331 20213 91015 555 91008
AAXX 01124 68408 36/// /1611 10199 20134 30146 40154 57007 333 10209 20115 91018 555 91015
AAXX 01124 68416 36/// /2506 10323 21075 39024 48521 57008 333 10323 20113 91013 555 91015
AAXX 01124 68478 12589 10105 10294 20157 38835 48488 57008 69921 81200 333 10304 20130 91009 555 20002 91013
AAXX 01124 68488 16/// /0907 10279 20176 39227 48501 57006 69921 333 10291 20151 91013 555 20002 91011
AAXX 01124 68494 36/// /0808 10297 20212 39942 40068 57012 333 10313 20188 91017 555 91007
AAXX 01124 68524 32986 03006 10343 20034 39026 48507 57010 333 10350 20167 91014 555 91012
AAXX 01124 68546 36/// /3205 10285 20090 38634 48485 57008 333 10291 20109 91008 555 91015
AAXX 01124 68558 36/// /2612 10239 20085 38180 48486 57005 333 10240 20079 91018 555 91019
AAXX 01124 68570 12370 32207 10280 20081 38482 48474 57005 69921 83900 333 10281 20114 91014 555 20002 91015
AAXX 01124 68580 36/// /1008 10282 20193 38910 48489 57005 333 10294 20125 91013 555 91013
AAXX 01124 68614 32980 02409 10264 20107 30103 40143 57005 333 10272 20125 91019 555 91014
AAXX 01124 68624 32982 02406 10317 21032 38716 48498 57008 333 10318 20149 91017 555 91015
AAXX 01124 68674 36/// /0902 10310 20219 30061 48563 58010 333 10311 20204 91006 555 91009
AAXX 01124 68712 36/// /2408 10206 20131 30088 40152 57004 333 10222 20128 91012 555 91015
AAXX 01124 68718 NIL
AAXX 01124 68722 36/// /2110 10267 21027 38543 48502 57003 333 10272 20074 91018 555 91018
AAXX 01124 68814 NIL
AAXX 01124 68832 NIL
AAXX 01124 68916 NIL
AAXX 01124 68920 NIL
AAXX 01124 68928 36/// /2213 10239 20155 39954 40110 57005 333 10249 20170 91024 555 91011
BBXX 44062 01121 99386 70764 46/// /2203 1//// 91220 22200 00079 333 91203
BBXX 44062 01121 99386 70764 46/// /2303 1//// 40190 91210 22200 00079 333 91203
BBXX 44062 01121 99386 70764 46/// /2302 10064 40191 52006 91200 22200 00079 1//00 70001 333 91203
BBXX 44063 01121 99390 70764 46/// /0000 1//// 91220 333 91200
BBXX 44063 01121 99390 70764 46/// /0000 1//// 40223 91210 333 91200
BBXX 44063 01121 99390 70764 46/// /0000 10053 40216 53006 91200 22200 00063 1//00 70001 333 91200
BBXX 44041 01121 99372 70768 46/// /0801 1//// 91220 333 91201
BBXX 44041 01121 99372 70768 46/// /0901 1//// 40232 91210 333 91201
BBXX 44041 01121 99372 70768 46/// /0901 10044 40232 54000 91200 22200 00088 1//00 70001 333 91201
BBXX 44042 01121 99380 70763 46/// /2102 1//// 91220 333 91203
BBXX 44042 01121 99380 70763 46/// /2102 1//// 40212 91210 333 91203
BBXX 44042 01121 99380 70763 46/// /2103 10073 40212 91200 22200 00082 1//00 70000 333 91203
BBXX 44043 01121 99392 70764 46/// /2102 1//// 91220 333 91203
BBXX 44043 01121 99392 70764 46/// /2102 1//// 40199 91210 333 91203
BBXX 44043 01121 99392 70764 46/// /2203 10054 40200 53005 91200 22200 00055 1//00 70001 333 91203
AAXX 01121 31825 12984 50000 11231 21250 30029 40257 52005 69900 80008 333 11119
AAXX 01121 31845 32998 00000 11302 21326 30116 40301 52005 333 11160
AAXX 01121 31878 32983 00000 11265 21290 30169 40308 52003 333 11182
AAXX 01121 31915 32998 22803 11218 21243 30021 40311 52009 80001 333 11149
AAXX 01121 31921 32998 03304 11173 21207 30200 40305 53006 333 11155
AAXX 01121 31969 32997 03302 11102 21199 30219 40271 52015 333 11042
AAXX 01121 31981 32999 00000 11246 21272 30040 40302 52008 333 11146
AAXX 01121 31987 32999 03507 11155 21232 39983 40261 51013 333 11082 91114
AAXX 01121 32069 31597 51302 11141 21154 30215 40220 57005 78582 85900 333 11118 91003 91104
AAXX 01124 82042 32698 60504 10265 20236 3//// 4//// 84422 333 20242 5////
AAXX 01124 82240 21494 80000 10251 20245 3//// 4//// 76166 8272/ 333 20248 5//// 60074
AAXX 01124 82317 22894 40000 10266 20241 3//// 4//// 84050 333 20230 5//// 60024
AAXX 01124 82610 32596 50000 10241 20235 3//// 4//// 83043 333 20220 5////
AAXX 01124 82807 32895 30000 10238 20236 3//// 4//// 83030 333 20236 5////
AAXX 01124 82106 21698 61804 10247 20239 3//// 4//// 70362 84530 333 20232 5//// 60224
AAXX 01124 82113 22596 50502 10270 20241 3//// 4//// 85100 333 20242 5//// 69914
AAXX 01124 82212 31895 51402 10239 20233 30044 40126 71012 83133 333 20230 58002
AAXX 01124 82533 22297 61802 10266 20243 3//// 4//// 86650 333 20237 5//// 60024
AAXX 01124 82704 22895 80000 10243 20237 39882 40077 8807/ 333 20236 58000 60164
AAXX 01124 82723 32897 40504 10264 20252 30051 40136 84050 333 20240 59005
AAXX 01124 83096 32695 30906 10283 20233 30124 40131 83100 333 20251 59006
AAXX 01124 83186 32597 81405 10232 20205 39599 40128 887// 333 20203 58000
AAXX 01124 83236 21598 61403 10243 20225 39623 40112 70366 84304 333 20222 59002 60024
AAXX 01124 83242 32496 80902 10235 20209 39658 40149 887// 333 20241 58000
AAXX 01124 83288 32598 82301 10249 20210 39633 40127 885// 333 20222 58002
AAXX 01124 83344 22498 80506 10223 20182 39168 40123 84240 333 20177 59001 69924
AAXX 01124 83599 31298 699// 10255 20236 40066 51010 7022/ 83759 222// 02253 20502 80245
AAXX 01124 83650 41797 70706 10270 20214 40188 52008 720// 85531 222// 02264 21602 80230 333 20220
AAXX 01124 83925 11295 81208 10210 20204 40110 52023 7616/ 8870/ 222// 20401 80206 333 20206
AAXX 01124 83970 41496 41005 10230 20201 40138 57037 70362 846// 222// 02200 20401 80210 333 20185
AAXX 01124 82979 32498 53605 10281 20193 39672 40114 83120 333 20242 58003
AAXX 01124 82986 32598 30503 10284 20185 39843 40124 83100 333 20223 58001
AAXX 01124 83179 32598 43201 10245 20209 39671 40118 84200 333 20230 59008
AAXX 01124 83192 32597 60506 10280 20172 39977 40140 84240 333 20228 58003
AAXX 01124 83339 32497 50502 10224 20209 39154 40113 82231 333 20204 59009
AAXX 01124 83498 22595 83614 10282 20244 30132 40137 84231 333 20243 59011 69934
AAXX 01124 42634 32996 00709 10214 20126 40137 333 10231 59009
AAXX 01124 42647 31996 03203 10234 20089 40122 70400 333 10249 59010
AAXX 01124 42737 32996 00209 10218 20105 40128 333 10248 59010
AAXX 01124 42840 32996 03603 10230 20134 40122 333 10248 58006
AAXX 01124 42909 32997 03408 10240 20000 40122 222// 20000 333 10259 59006
AAXX 01124 42921 32996 23202 10250 20106 40128 82030 333 10283 59004 82360
AAXX 01124 43014 32596 50000 10280 20158 39443 40076 85400 333 10297 59012 85620
AAXX 01124 43110 31997 23406 10274 20201 40093 70541 82040 333 10308 59004 82360
AAXX 01124 43117 32597 71402 10296 20135 40079 84430 333 10319 59011
AAXX 01124 43003 NIL
AAXX 01124 43063 NIL
AAXX 01124 43192 NIL
AAXX 01124 60340 32970 01804 10158 20051 40290 58009
AAXX 01124 61202 32965 01006 10223 21080 39635 40193 333 0//00 58014
AAXX 01124 61214 NIL
AAXX 01124 61223 31940 20612 10245 21022 39876 40177 70600 80002 333 0//00 59009 82075
AAXX 01124 61226 31950 31010 10266 20072 39869 40167 70611 83040 333 0//00 58000 83365
AAXX 01124 61230 32960 50414 10214 21088 39885 40161 80002 333 0//00 59021 85075
AAXX 01124 61233 32960 40606 10236 21049 3//// 4//// 80002 333 0//00 5//// 84075
AAXX 01124 61235 31959 70814 10226 21009 3//// 4//// 70622 80002 333 0//00 5//// 87075
AAXX 01124 61240 32960 60608 10268 21036 39828 40155 80002 333 0//00 59006 86075
AAXX 01124 61250 32960 60806 10270 20082 3//// 4//// 80002 333 0//00 5//// 86075
AAXX 01124 61257 31956 ///// 1//// 2//// 3//// 4//// 7//// 8//// 333 0//00 59012 8////
AAXX 01124 61265 32965 40208 10277 21026 39842 40151 80002 333 0//00 59020 84075
AAXX 01124 61270 32960 60406 10250 21009 3//// 4//// 80002 333 0//00 5//// 86075
AAXX 01124 61272 32960 21402 10262 20035 39830 40158 80002 333 0//00 59024 82075
AAXX 01124 61277 32960 20808 10275 20008 39826 40147 80002 333 0//00 58024 82075
AAXX 01124 61285 32960 61404 10245 21017 30015 40167 84072 333 0//00 59012 84365 83075
AAXX 01124 61291 32960 50808 10244 21006 39738 40154 80002 333 0//00 59014 85075
AAXX 01124 61293 32960 40410 10255 20004 3//// 4//// 80002 333 0//00 5//// 84075
AAXX 01124 61296 32960 63602 10270 20092 3//// 4//// 80002 333 0//00 5//// 86075
AAXX 01124 61297 32960 63610 10253 21025 3//// 4//// 80002 333 0//00 5//// 85075
AAXX 01120 44354 119// 62905 11169 21195 39130 40330 52006 69942 77372 86070 333 11140 96036
BBXX 46181 01121 99538 71288 46/// /0410 11011 40182 57026 22200 00036 10301 70004 333 91212
AAXX 01124 68171 NIL
AAXX 01124 68181 NIL
AAXX 01124 68185 NIL
AAXX 01124 68297 NIL
AAXX 01124 68471 NIL
BBXX 46181 01121 99538 71288 46/// /0410 11011 40182 57026 22200 00036 10301 70004 333 91212
BBXX DQVI 01123 99407 10290 41/96 90219 10070 20026 40180 52030 7//// 8/7// 22200 00110 2//// 80050
BBXX 46184 01121 99539 71389 46/// /1416 10067 49876 57048 22200 00059 11111 70053 333 91220
AAXX 01124 91723 NIL
AAXX 01124 91759 NIL
AAXX 01124 91762 NIL
AAXX 01121 78310 12556 30803 10212 20205 30201 40212 53011 60001 82830 333 10287 20202 30/// 56990 58020 81820 92023
AAXX 01121 78315 12570 30401 10170 20164 30145 40212 53010 60001 81132 333 10289 20169 30/// 50640 56999 58016 81820
AAXX 01121 78318 11560 30702 10198 20178 30209 40213 53014 60001 70500 81802 333 10292 20198 30/// 56909 58017 81821 83073
AAXX 01121 78322 11558 40102 10186 20170 30202 40220 53028 60001 71000 82202 333 10295 20182 30/// 56909 58015 82820
AAXX 01121 78324 11510 20404 10236 20204 30197 40208 51019 60001 70500 82500 333 10274 20220 30/// 56100 58018 82620 555 10402
AAXX 01121 78325 11540 41104 10204 20168 30158 40217 51013 60001 70400 81102 333 10265 20199 30/// 55075 56909 58014 81820 84080
AAXX 01121 78328 11/61 30903 10226 20192 30211 40/// 53010 60001 70500 81102 333 10270 20220 30/// 50890 56900 58011 818// 83073 92417
AAXX 01121 78333 12/10 10602 10202 20188 30199 40206 53013 60001 81042 333 10287 20195 30/// 56099 58011 813//
AAXX 01121 78344 11563 20403 10209 20199 30156 40205 53009 60001 70500 82800 333 10299 20196 30/// 50550 56900 58010 82820
AAXX 01121 78345 12465 70404 10226 20218 30199 40202 53012 60001 878// 333 10300 20212 30/// 56099 58006 85816
AAXX 01121 78348 11550 70405 10233 20204 30159 40212 53012 60001 70511 87840 333 10259 20229 30/// 50394 56290 57855 58010 81820 87632 555 10702
AAXX 01121 78349 11540 33301 10206 20203 30106 40217 53015 60001 71000 83202 333 10300 20206 30/// 50404 56109 58009 83820 555 10503
AAXX 01121 78351 12550 10000 10214 20211 30168 40170 53008 60001 81500 333 30/// 56900 58000 81630
AAXX 01121 78353 12570 30702 10244 20204 30183 40205 53016 60001 82241 333 10286 20240 30/// 50144 56999 58003 82820
AAXX 01121 78355 11566 50204 10224 20217 30056 40197 53008 60001 71011 85800 333 10290 20210 30/// 55097 56900 58003 84820
AAXX 01121 78358 11540 30704 10245 20226 30178 40193 52015 60031 70580 81202 333 10286 20231 31/// 50174 56909 58004 70038 81823 83070
AAXX 01121 78360 11556 30304 10221 20213 30177 40189 51012 60001 71000 82800 333 10305 20220 30/// 56909 57847 58010 81820 92023
AAXX 01121 78363 11960 00000 10181 20174 30064 40180 51019 60001 71000 333 10301 20181 30/// 50780 56/// 58007
AAXX 01121 78365 11558 50912 10264 20227 30195 40200 53012 69911 71581 85262 333 10275 20235 32/// 56299 57822 58006 70236 85820 92046 555 10903
AAXX 01121 78369 NIL
BBXX 46184 01121 99539 71389 46/// /1416 10067 49876 57048 22200 00059 11111 70053 333 91220
AAXX 01121 31913 NIL
AAXX 01121 32128 11599 73404 11022 21047 30110 40162 53003 69940 70383 87300 333 11009 91007 91108
AAXX 01121 24856 11997 80000 11331 21353 30096 40272 58003 69952 77177 80007 333 11302
AAXX 01121 30679 NIL
AAXX 01121 30686 32999 03601 11296 21313 39929 40348 58004 333 11206
AAXX 01121 30961 11897 00000 11226 21238 39489 40346 57005 69902 77177 8802/ 333 11217
AAXX 01121 30971 32999 80301 11220 21246 39278 40343 57009 80007 333 11162
AAXX 01121 30978 32999 80701 11281 21312 39629 40390 58012 8802/ 333 11228
AAXX 01121 31513 32999 02901 11247 21252 30068 40317 58003 333 11183
AAXX 01121 31624 NIL
AAXX 01121 31832 32968 00000 11280 21298 30209 40306 52001 333 11185
AAXX 01124 43086 NIL
AAXX 01124 43128 NIL
AAXX 01124 43150 NIL
AAXX 01124 43185 NIL
AAXX 01124 43189 NIL
AAXX 01124 43198 NIL
AAXX 01124 43201 NIL
AAXX 01124 43213 NIL
AAXX 01124 43226 NIL
AAXX 01124 43233 NIL
AAXX 01124 43237 NIL
AAXX 01124 43245 NIL
AAXX 01124 43279 NIL
AAXX 01124 43284 NIL
AAXX 01124 43295 NIL
AAXX 01124 43311 NIL
AAXX 01124 43314 NIL
AAXX 01124 43321 NIL
AAXX 01124 43329 NIL
AAXX 01124 43344 NIL
AAXX 01124 43346 NIL
AAXX 01124 43353 NIL
AAXX 01124 43369 NIL
AAXX 01124 43371 NIL
BBXX MINUK03 0112/ 99550 70015 46/// ///// 10078 49948 57004
BBXX MINUK01 0112/ 99571 70021 46/// ///// 10078 49899 57004
AAXX 01124 89016 46/89 /1007 11005 29066 39533 4//// 5////
BBXX 3FMH7 01124 99338 11656 41697 63041 00/// 10150 20097 40146 5//// 70322 86/// 9//// 22271 0//// 1//// 20313 306// 40513 5//// 6//// 80120
BBXX A8UE4 01123 99477 11553 41/97 /0503 10000 20000 40220 58010 70277 8//// 22214 04030 20204 327// 40308 5//// 80000
BBXX DHYW 01121 99460 11523 41/// 70503 10020 21005 40220 52020 70222 8//// 22214 2//// 309// 4//06 5//// 80010
BBXX UFLC 01120 99586 11500 41295 83604 11112 40256 54000 77377 8472/ 22282 06012 ICE 52095
BBXX 46054 01121 99342 71204 46/// /1303 10115 40188 51004 91150 22200 00127 11104 20401 300// 41104 70022 333 91204 555 11033 22034 31148 41204 61149 125032 129029 138028 145026 151023 160020
BBXX 46181 01121 99538 71288 46/// /0410 11011 40182 57026 22200 00036 10301 70004 333 91212
BBXX 46185 01121 99524 71298 46/// /1518 10069 40114 57029 22200 00071 11014 70068 333 91222
BBXX 46204 01121 99514 71288 46/// /0801 10065 40122 57030 22200 00081 10809 70045 333 91202
BBXX 46205 01121 99542 71343 46/// /1618 10075 49995 57024 22200 00071 11114 70068 333 91223
BBXX 46206 01121 99488 71260 46/// /1015 10050 40203 57014 22200 00084 10606 70030 333 91218
BBXX 46207 01121 99509 71299 46/// /1421 10063 40089 57031 22200 00080 11216 70081 333 91226
AAXX 01121 56671 32980 03602 10111 20019 38187 52006 333 05301
AAXX 01121 57378 31912 03603 10033 20018 40305 52013 71000
AAXX 01121 57426 31756 80000 10077 20047 40275 52012 71000 885// 333 05102
AAXX 01121 57476 32960 00000 10046 20034 40294 52008
AAXX 01121 57584 31930 00202 10064 20039 40289 52006 71000
AAXX 01121 57598 32960 03201 10074 20031 40282 52010
AAXX 01121 57655 32960 80203 10096 20020 40278 52013 8807/
AAXX 01121 57713 NIL
AAXX 01121 57776 31/00 90705 10007 20001 40287 52005 74540
AAXX 01121 58321 31640 30000 10026 21008 40325 52011 71000 83500
AAXX 01121 58437 32980 10907 11029 21134 38195 52002 80002
AAXX 01121 58445 NIL
AAXX 01121 58556 31956 02901 10045 21015 40311 52012 70500
AAXX 01121 58569 31458 73605 10060 21016 40301 52014 70500 878//
AAXX 01121 58646 32660 70000 10071 20022 40295 52016 875//
AAXX 01121 58653 NIL
AAXX 01121 58660 NIL
AAXX 01121 58715 31956 03401 10075 20035 40270 52006 71000
AAXX 01121 58730 32965 00201 10085 20037 40274 52013
AAXX 01121 58731 32966 50401 10084 20033 40276 52014 85040
AAXX 01121 58754 32560 83401 10085 20037 40288 52022 885//
AAXX 01121 58911 32665 73201 10108 20062 40257 52004 87500
AAXX 01121 58931 31/00 90706 10020 20020 38387 52001 74544
AAXX 01121 59254 31758 80402 10144 20086 40234 52017 70500 885//
AAXX 01121 59632 31757 70203 10155 20078 40219 52016 70500 875//
AAXX 01121 59855 32570 70703 10202 20160 40200 52015 878//
BBXX 46004 01121 99509 71361 46/// /1414 10079 49927 57027 22200 00072 11011 70054 333 91218
BBXX 46004 01121 99509 71361 46/// /1414 10079 49927 57027 22200 00072 11011 70054 333 91218
AAXX 01124 91324 32474 80909 10289 20257 30088 40090 81201 333 562/9 59007 81819 88075 555 90112
AAXX 01124 91329 NIL
AAXX 01124 91336 NIL
AAXX 01124 91339 32474 80410 10294 20249 30091 40097 8322/ 333 56199 58000 83818 86462 555 90112
AAXX 01124 91320 NIL
AAXX 01121 33658 /1997 23401 10045 21025 39903 40206 57009 70281 82030 555 69901
AAXX 01124 71888 16/// ///// 11190 21220 60001 333 11038 21190 70000
AAXX 01124 71895 17/// ///// 11170 21224 69941 7//4/ 333 11019 21178 70004
AAXX 01124 71405 16/// ///// 11174 21211 60001 333 11033 21179 70000
AAXX 01124 71417 17/// /1010 11026 21026 30102 40137 56018 60071 7//4/ 333 11044 21063 70069
AAXX 01124 71426 46/// /3410 11051 6///1 333 11031 21051 7////
AAXX 01124 71221 16/// /3301 11217 21237 60001 333 11048 21220 70000
AAXX 01124 71226 16/// /2405 11098 21191 60001 333 11030 21100 70000
AAXX 01124 71229 46/// /1705 11198 21223 6///1 333 11058 21210 4/007 7////
AAXX 01124 71244 16/// /2803 11134 21153 39084 40364 51007 60001 333 10005 21134 70000
AAXX 01124 71011 16/// ///// 11147 21215 60001 333 11016 21150 70000
AAXX 01124 71049 16/// /3302 11350 30150 40175 51009 60001 333 11231 21354 70000
AAXX 01124 71067 17/// ///// 11169 21240 69941 7//4/ 333 11040 21177 70004
AAXX 01124 71315 16/// /0000 11047 21060 30083 40137 51022 60001 333 11021 21052 4/021 70136 555 10110
AAXX 01124 71461 16/// /1502 11168 21194 60001 333 11035 21174 70000
AAXX 01124 71468 17/// /3120 11005 21009 39690 40010 56008 60011 7//4/ 333 21009 7////
AAXX 01124 71483 16/// ///// 11159 21202 60001 333 11037 21162 70000
AAXX 01124 71673 16/// ///// 11161 21212 60001 333 11025 21186 70000
AAXX 01124 71690 16/// ///// 11190 21212 60001 333 11062 21200 70000
AAXX 01124 71359 16/// /2704 11148 21181 60001 333 11037 21153 70000
AAXX 01124 71379 16/// /1304 11087 21105 39978 40153 58001 60001 333 11090 21104 70012
AAXX 01124 71500 16/// /1602 11147 21217 60001 333 11038 21147 70000
AAXX 01124 71504 16/// ///// 11123 21207 60001 333 11032 21164 7////
AAXX 01124 71541 16/// /2207 11158 21190 60001 333 11054 21166 70000
AAXX 01124 71543 16/// /0000 11223 21240 60001 333 11057 21249 70004
AAXX 01124 71546 16/// /1603 11141 21178 60001 333 11029 21143 70000
AAXX 01124 71547 16/// /2103 11132 21190 60001 333 11052 21133 70000
AAXX 01124 71283 16/// /3604 11158 21183 60001 333 11061 21164 70000
AAXX 01124 71761 16/// ///// 11148 21186 60001 333 11035 21154 70000
AAXX 01124 71788 17/// /1506 11127 21136 69941 7//4/ 333 10009 21140 70004
AAXX 01124 71792 16/// ///// 11149 21200 60001 333 11030 21162 70000
AAXX 01124 91324 32474 80909 10289 20257 30088 40090 81201 333 562/9 59007 81819 88075 555 90112
AAXX 01124 91329 NIL
AAXX 01124 91336 NIL
AAXX 01124 91339 32474 80410 10294 20249 30091 40097 8322/ 333 56199 58000 83818 86462 555 90112
AAXX 01124 91320 NIL
BBXX 46232 01121 99325 71174 46/// ///// 1//// 91208 22200 00146 11503 21002 328// 41502 70015
BBXX 46247 01121 99378 71228 46/// ///// 1//// 91221 22200 00114 11204 20903 330// 41203 70021
BBXX 46246 01121 99500 71451 46/// ///// 1//// 91229 22200 00068 11109 21006 318// 41106 70043
BBXX 46246 01121 99500 71451 46/// ///// 1//// 91159 22200 00068 11108 21007 315// 41105 70042
AAXX 01121 56144 32780 60000 10011 21141 36840 52005 86400 333 05302
AAXX 01121 56152 32980 02001 11028 21184 36299 52010 333 05302
AAXX 01121 56167 32980 02701 10015 21138 37061 52017 333 05303
AAXX 01121 56182 32980 62202 10011 21107 37175 52025 80002 333 05403
AAXX 01121 56357 32680 62501 10063 21193 36450 52011 86400 333 05104
AAXX 01121 56586 32460 83402 10014 21005 38069 52020 885// 333 05152
AAXX 01121 56748 32580 12701 10141 20081 38361 52009 81400 333 05202
AAXX 01121 56763 32980 01404 10225 20009 40096 52018 333 05304
AAXX 01121 56768 32980 01402 10145 20071 38176 52014 333 05201
AAXX 01121 56838 32670 10000 10179 20138 40161 52009 81400 333 05201
AAXX 01121 56886 32970 01403 10065 20056 38300 52019 333 05301
AAXX 01121 56946 32680 12201 10178 20116 40163 52008 81100 333 05201
AAXX 01121 56959 32968 00401 10218 20188 40130 52012 333 05201
AAXX 01121 56969 32960 01601 10188 20168 40149 52016 333 05251
AAXX 01121 57731 32663 80000 10086 20038 40269 52013 885// 333 00051
AAXX 01121 57766 31757 80901 10092 20052 40278 52008 71000 885//
AAXX 01121 57845 32960 82001 10076 20046 40262 52009 8807/
AAXX 01121 57853 31740 83401 10080 20040 40277 52006 71000 885//
AAXX 01121 57916 32665 80000 10118 20059 40232 52011 885// 333 05201
AAXX 01121 57922 31659 81802 10063 20031 40253 52010 71000 885// 333 05100
AAXX 01121 57932 32661 80000 10101 20055 40257 52012 885// 333 05103
AAXX 01121 58338 31957 20000 10027 21001 40314 52008 71000 80002
AAXX 01121 59007 32461 80201 10073 20053 40216 52010 886//
AAXX 01121 59046 31757 80702 10117 20062 40245 52008 70500 885//
AAXX 01121 59058 31850 83202 10100 20056 40251 52008 71000 885//
AAXX 01121 59072 11730 83201 10085 20085 40262 52008 69921 71060 885//
AAXX 01121 59087 32760 83403 10138 20057 40237 52011 885//
AAXX 01121 59209 11350 80401 10102 20093 40219 52007 69911 76066 887//
BBXX 46146 01121 99493 71237 46/// /1208 10053 40274 52008 22200 00067 10201 70004 333 91210
BBXX 46146 01121 99493 71237 46/// /1208 10053 40274 52008 22200 00067 10201 70004 333 91210
AAXX 01124 67137 11570 70000 10233 20198 38865 48472 56011 60041 72162 86903 333 0//11 86820 82920 83073 94992/6/8 95812/6/8 555 10280 81623
BBXX 46243 01121 99462 71241 46/// ///// 1//// 91229 22200 00090 11203 20802 325// 41202 70016
BBXX 46236 01121 99368 71219 46/// ///// 1//// 91220 22200 00120 11304 21002 329// 41303 70019
BBXX 46229 01121 99438 71246 46/// ///// 1//// 91221 22200 00098 11304 21003 327// 41303 70021
BBXX 46225 01121 99329 71174 46/// ///// 1//// 91214 22200 00149 11402 20901 326// 41402 70010
BBXX 46213 01121 99403 71247 46/// ///// 1//// 91224 22200 00108 11204 21002 329// 41203 70021
BBXX 46215 01121 99352 71209 46/// ///// 1//// 91208 22200 00125 11404 21002 326// 41403 70020
AAXX 01121 45032 36/// /0802 10152 20113 30208 40225 52003
AAXX 01121 45035 36/// /1103 10165 20115 30179 40221 52002
AAXX 01121 45039 36/// /0802 10156 20127 30208 40223 52001
AAXX 01121 45044 36/// /0905 10156 20124 30125 40221 52001
AAXX 01124 71120 12974 02404 11144 21178 39641 40326 51012 60001 333 11038 21145 44007 70002
AAXX 01121 45032 36/// /0802 10152 20113 30208 40225 52003
AAXX 01121 45035 36/// /1103 10165 20115 30179 40221 52002
AAXX 01121 45039 36/// /0802 10156 20127 30208 40223 52001
AAXX 01121 45044 36/// /0905 10156 20124 30125 40221 52001
AAXX 01124 71120 12974 02404 11144 21178 39641 40326 51012 60001 333 11038 21145 44007 70002
BBXX 44039 01121 99411 70727 46/// /2506 10078 20061 40201 91153 22200 00083 1//00 70002 333 91207
BBXX 44099 01121 99369 70757 46/// ///// 1//// 91222 22200 00101 10701 20701 70005
BBXX 44258 01121 99445 70634 46/// /3212 10043 40036 52037 22200 00053 10703 70016 333 91214
BBXX 44258 01121 99445 70634 46/// /3212 10043 40036 52037 22200 00053 10703 70016 333 91214
AAXX 01124 96009 01435 81803 20256 20247 30067 40102 52014 60011 79196 8592/ 333 10292 56009 57903 59003 60017 81914 84614 80965
AAXX 01124 96011 32460 80000 10258 20237 30085 40111 52013 84532 333 10304 56000 58001 84619
AAXX 01124 96035 31450 70000 10274 20236 30067 40105 52020 70522 85376 333 10324 56000 57902 59003 81916 84617 80956
AAXX 01124 96073 31556 70000 10276 20229 30100 40112 52024 70522 83522 333 10322 56000 58004 83620
AAXX 01124 96091 31460 60205 10270 20250 30066 40110 52016 70292 83231 333 10300 56000 57802 59003 83817 80860
AAXX 01124 96109 32458 30000 10303 20219 30045 40085 52014 81531 333 10342 56000 59004 81618
AAXX 01124 96145 NIL
AAXX 01124 96147 NIL
AAXX 01124 96163 32560 30000 10270 20238 30107 40110 52020 81501 333 10316 56000 58006 81620
AAXX 01124 96179 32460 70108 10272 20249 30064 40101 52007 81206 333 10334 56800 57882 59003 81817 80840
AAXX 01124 96195 31457 70406 10294 20237 30065 40101 51020 70522 82511 333 10336 56000 59009 82615
AAXX 01124 96221 NIL
AAXX 01124 96237 11457 73505 10270 20245 30054 40095 51017 60041 70262 84378 333 10304 56000 57903 59003 81918 83816 83360 85280 80980
AAXX 01124 96249 32560 73506 10270 20244 30037 40098 52017 84232 333 10302 56700 57871 59008 84820 80863
AAXX 01124 96253 01457 70000 10254 20236 30069 40090 52012 60011 71562 82972 333 10300 56000 57900 59017 60017 81915 81820 83460
AAXX 01124 96295 32460 80000 10276 20244 39985 40087 56009 8652/ 333 10300 56009 59014 86615
AAXX 01124 96509 01458 60000 10274 20259 30092 40104 52024 69951 71362 84971 333 10314 56000 57902 57802 59008 69957 82915 82815 80975 80858
AAXX 01124 96581 32458 62705 10278 20241 30095 40102 52025 84131 333 10336 56600 59008 84810 84361 80861
AAXX 01124 96633 32458 50000 10269 20254 30082 40090 52022 82271 333 10303 56000 59005 82818
AAXX 01124 96645 31450 72202 10272 20260 30062 40094 52027 71792 85972 333 10336 56000 57901 59011 81912 85612 80982
AAXX 01124 96655 31457 70000 10278 20258 30076 40110 57015 71322 86971 333 10324 56000 57903 81912 85612 80962
AAXX 01124 96685 32460 60000 10288 20256 30074 40100 52025 83511 333 10318 56000 59008 83617
AAXX 01124 96749 32558 73006 10261 20229 30080 40094 51015 83421 333 10278 56500 59009 83620 85461
AAXX 01124 96781 NIL
AAXX 01124 96805 32558 72605 10268 20241 30089 40099 51017 83271 333 10294 56000 57801 59001 83820 80858
AAXX 01124 96839 01450 82204 10270 20244 30094 40101 52028 60031 70296 85976 333 10294 56000 57901 58007 69997 82919 83820 80980
AAXX 01124 96935 NIL
AAXX 01124 96001 31456 80000 10258 20252 39961 40109 52004 70522 84572 333 10288 56200 59011 84619
AAXX 01124 96015 32456 71703 10273 20252 30100 40107 53015 83272 333 10308 56000 57802 58005 83617 80860
AAXX 01124 96033 31457 60000 10274 20239 30107 40113 52021 70522 82936 333 10300 56000 57903 59010 81920 82617 80980
AAXX 01124 96075 01440 70000 10280 20250 30083 40088 57004 60011 70562 85971 333 10312 56000 57901 59022 69917 82915 83617 80965
AAXX 01124 96087 32460 60608 10277 20245 30070 40103 51014 82241 333 10304 56100 57813 59002 82815 80858
AAXX 01124 96171 32456 60000 10298 20231 30063 40087 53019 83521 333 10336 56000 59006 83618
AAXX 01124 96207 32458 73508 10248 20191 39236 40158 52020 84531 333 10290 56000 84618
AAXX 01124 96525 31457 72604 10280 20254 30098 40105 52027 71792 82976 333 10325 56500 57951 59008 81915 84615 80980
AAXX 01124 96529 32457 40000 10264 20252 30096 40119 52024 83131 333 10320 56000 59005 83818
AAXX 01124 96535 32460 50000 10270 20249 30097 40117 51022 81231 333 10330 56800 57883 58000 81815 85082 80865
AAXX 01124 96557 31450 70000 10287 20254 30047 40096 52024 70522 85921 333 10331 56600 57960 57860 59005 82912 83813 86460 80980 80857
AAXX 01124 96559 31456 60000 10298 20249 30057 40095 52021 71322 84931 333 10344 56800 57982 57883 59003 81914 83812 80974 80858
AAXX 01124 96565 01350 70000 10248 20232 30056 40109 52009 60161 70596 84271 333 10340 56000 57803 58041 60167 84809 86809 86357 80840
AAXX 01124 96595 31458 70000 10277 20253 30056 40108 52023 71422 85576 333 10316 56000 59016 85612
AAXX 01124 96607 11458 80000 10279 20251 30090 40105 52025 69901 70262 85221 333 10326 56009 59025 69907 84813 88459
AAXX 01124 96615 32456 72703 10286 20252 30091 40106 52022 81251 333 10320 56000 57801 59019 81816 87360 80859
AAXX 01124 96695 NIL
AAXX 01124 96737 11450 80000 10258 20231 30036 40062 57009 69901 70562 85521 333 10276 56600 59023 85617 84460
AAXX 01124 96739 01460 80000 10245 20236 30050 40099 52013 69901 70262 8552/ 333 10265 56009 59006 69907 85618
AAXX 01124 96741 32556 82905 10277 20235 30093 40097 52025 8357/ 333 10294 56009 58000 83620 85460
AAXX 01124 96745 32556 70000 10272 20240 30088 40093 52012 83521 333 10292 56000 59011 83620 86460
AAXX 01124 96751 01550 80000 10204 20197 39026 48920 52010 60021 70562 85571 333 10224 56000 59013 69937 85620
AAXX 01124 96791 01450 80000 10248 20239 30036 40110 52012 60051 76166 8552/ 333 10290 56009 59001 60057 85617 88460
AAXX 01124 96797 01456 81605 10250 20241 30087 40090 52018 60221 76062 8597/ 333 10296 56009 57902 59006 60087 81918 83620 85460 80980
AAXX 01124 96837 31456 72908 10276 20247 30101 40105 52034 71522 84972 333 10308 56700 57900 58012 81920 83818
AAXX 01124 96925 32465 60000 10274 20242 30095 40100 52025 82232 333 10301 56600 57860 59003 82817 84080 80860
AAXX 01124 96933 31460 72702 10282 20232 30091 40094 52023 71322 82921 333 56600 57963 59008 81917 81619 86460 80962
AAXX 01124 96937 32558 60109 10282 20248 30092 40097 51023 82121 333 10328 56000 59005 82820 85460
AAXX 01124 96973 32558 70000 10274 20257 30091 40096 52018 82276 333 10322 56000 57803 58002 82820 80850
AAXX 01124 96987 31458 70000 10244 20237 30032 40091 52005 71622 85921 333 10300 56000 59005 82919 83619 80980
AAXX 01124 97014 01458 81202 10242 20232 30025 40118 52017 60051 70262 84871 333 10308 56000 59009 69907 83818
AAXX 01124 97028 32560 70000 10272 20255 30082 40088 53010 83521 333 10304 56000 59014 83620 86460
AAXX 01124 97048 32457 60000 10274 20239 30065 40089 52022 84932 333 10348 56200 57901 57801 59026 81918 83818 80980 80860
AAXX 01124 97072 32558 70000 10268 20232 30016 40116 52025 82571 333 10310 56000 59009 82620 85360
AAXX 01124 97086 32560 42303 10266 20249 30081 40106 51018 82471 333 10312 56000 58011 82620
AAXX 01124 97096 NIL
AAXX 01124 97120 11460 43401 10272 20240 30058 40091 52017 69901 70162 81236 333 10304 56000 57803 59004 81818 80860
AAXX 01124 97146 NIL
AAXX 01124 97180 32458 70601 10271 20269 30087 40105 53012 81272 333 10298 56000 59004 81819 86360
AAXX 01124 97192 32456 70000 10272 20255 30056 40113 52012 84270 333 10318 56200 57822 59007 84816 87360 80857
AAXX 01124 97230 01460 82902 10257 20238 30082 40089 52016 60011 76162 82228 333 10305 56000 57802 58001 60017 82819 86460 80857
AAXX 01124 97260 01458 80000 10247 20242 30084 40091 52013 60011 76166 8697/ 333 10291 56009 57902 59009 60167 81916 80980 81616 85616
AAXX 01124 97270 01440 80000 10256 20232 30091 40095 53024 69951 72162 8682/ 333 10294 56009 57800 59011 69957 82813 85617 88460 808//
AAXX 01124 97300 01560 50000 10256 20244 30057 40098 52008 60031 71562 83271 333 10296 56000 57802 59008 60037 83820 80857
AAXX 01124 97340 NIL
AAXX 01124 97372 01450 83303 10249 20242 39985 40105 52023 60051 76162 8397/ 333 10299 56009 59005 90057 81914 82815 87459
AAXX 01124 97430 01459 73605 10254 20239 30078 40107 52022 60021 72162 84232 333 10300 56700 57872 59002 60027 84818 80860
AAXX 01124 97460 11459 70000 10252 20238 30077 40091 52028 60071 70262 83876 333 10308 56000 57802 59012 82817 80858
AAXX 01124 97502 01450 70000 10246 20242 30098 40102 52019 60151 72162 86521 333 10292 56000 58000 60157 86612
AAXX 01124 97530 NIL
AAXX 01124 97560 NIL
AAXX 01124 97580 01459 80000 10258 20252 30095 40102 52005 69911 72162 86907 333 10296 56000 57904 58010 69917 81913 85620 88275 80965
AAXX 01124 97600 NIL
AAXX 01124 97686 NIL
AAXX 01124 97690 32450 60000 10252 20235 39992 40094 52013 83834 333 10275 56000 57800 58014 82815 86080
AAXX 01124 97724 31458 73202 10246 20230 30076 40093 52012 70522 83872 333 10285 56700 57872 59007 82818 84459 80850
AAXX 01124 97748 31460 62518 10284 20249 30056 40058 51001 70522 82232 333 10296 56600 57862 58003 82815 84359 80850
AAXX 01124 97760 11459 70000 10248 20242 30090 40099 52015 60071 71362 83932 333 10310 56000 57901 59009 81915 82816 80960
AAXX 01124 97796 01450 53005 10262 20237 30064 40115 52025 69901 70562 83532 333 10338 56000 58006 69907 83612
AAXX 01124 97810 01457 72610 10261 20249 30075 40084 57015 60051 72162 64872 333 10325 56700 57871 59002 60047 82819 84458 80856
AAXX 01124 97876 31450 80000 10266 20245 30110 40140 51019 71422 8692/ 333 10320 56009 57901 59002 82910 84612 88258 80959
AAXX 01124 97900 32462 72610 10282 20252 30068 40097 52020 84976 333 10333 56600 57961 58000 83917 86275 80975
AAXX 01124 97980 32460 50000 10254 20242 30088 40095 52015 84831 333 10298 56000 58010 82817 82618
AAXX 01124 97008 32458 70000 10262 20250 30079 40089 52008 84272 333 10282 56000 57801 59013 84818 80860
AAXX 01124 97016 11460 70000 10256 20238 30100 40102 52016 69951 70162 83972 333 10316 56000 57901 57801 59007 81918 82818 86460 80980 80860
AAXX 01124 97126 01457 83501 10266 20245 30046 40106 52026 69901 76062 8392/ 333 10310 56009 57901 59007 69907 81915 82615 88460 80980
AAXX 01124 97142 NIL
AAXX 01124 97182 32562 70701 10277 20253 30093 40098 52014 83871 333 10292 56000 57800 59004 82820 86460 808//
AAXX 01124 97240 NIL
AAXX 01124 97284 01456 70000 10190 20186 38870 40108 52007 60111 72162 85221 333 10244 56000 57801 59005 69927 85810 80837
AAXX 01124 97310 01456 70000 10260 20242 30084 40093 52010 60031 70262 83221 333 10298 56000 57802 59004 60037 83818 85460 80840
AAXX 01124 97320 32560 70000 10282 20247 30085 40098 52012 83236 333 10326 56000 57801 59004 83820 83360 80850
AAXX 01124 97378 32560 70000 10258 20249 39926 40089 58002 84231 333 10306 56000 59014 84820
AAXX 01124 97380 32558 40000 10281 20246 30088 40108 52032 83131 333 10310 56000 58009 83820
AAXX 01124 97406 11460 60000 10236 20236 30067 40092 52019 60211 70262 84231 333 10316 56000 57801 59006 84818 80860
AAXX 01124 97570 31458 83406 10288 20251 30075 40082 52006 70542 85872 333 10300 56600 59001 81815 87362
AAXX 01124 97630 01450 83608 10240 20234 39944 40105 51016 69961 76022 85923 333 10306 56600 57961 59014 69967 84810 81911 86458 80970
AAXX 01124 97682 11456 71505 10258 20237 30069 40077 52014 69901 70162 84872 333 10342 56000 57802 59017 69907 82815 84620 87361 80856
AAXX 01124 97698 31456 40000 10260 20239 30110 40117 52022 70542 83202 333 10290 56000 57803 58020 83815 84080 80856
AAXX 01124 97700 NIL
AAXX 01124 97722 NIL
AAXX 01124 97780 NIL
AAXX 01124 97790 11559 82710 10281 20230 30046 40066 52008 69901 70562 83871 333 10312 56000 57803 59015 82820 86458 80858
AAXX 01124 64700 31958 30212 10305 21053 39788 40124 70600 80002 91155 333 0//00 58008 83075
AAXX 01124 64701 NIL
AAXX 01124 64702 NIL
AAXX 01124 64705 NIL
AAXX 01124 64706 31920 63604 10310 21005 39631 40097 70522 80002 333 0//00 58004 86075
AAXX 01124 64708 NIL
AAXX 01124 64709 31930 73406 10299 21045 3//// 4//// 70544 80002 91210 333 0//00 5//// 87075
AAXX 01124 64710 NIL
AAXX 01124 64713 NIL
AAXX 01124 64722 NIL
AAXX 01124 64750 32965 63604 10350 20063 39680 40084 80002 91200 333 0//00 59003 86075
AAXX 01124 64751 32959 10408 10310 20034 3//// 4//// 81030 91150 333 0//00 5//// 81365
AAXX 01124 64753 31915 00427 10230 21011 3//// 4//// 73133 91200 333 0//00 5////
AAXX 01124 64754 NIL
AAXX 01124 64756 32962 40000 10363 20036 39488 4//// 80002 91200 333 0//00 59003 84075
AAXX 01124 64757 NIL
AAXX 01124 64758 NIL
AAXX 01124 64761 NIL
AAXX 01121 98134 NIL
AAXX 01121 98223 31562 10202 10242 20193 40135 53020 70244 81160 333 10278 56999 59003 81820
AAXX 01121 98232 11565 83607 10245 20225 40163 69957 53010 78088 8557/ 333 10263 56199 58022 82820 88358
AAXX 01121 98325 31458 33605 10273 20245 40133 53017 70240 82230 333 10295 56999 59011 82817
AAXX 01121 98328 11460 71402 10176 20152 38536 40122 52011 69921 70584 81230 333 10216 56999 59016 81814 87358
AAXX 01121 98330 31475 40000 10265 20241 30107 40139 52023 70344 84200 333 10320 56999 59015 84818
AAXX 01121 98336 32470 50403 10248 20240 30148 40153 53018 82231 333 10310 56199 59020 82815
AAXX 01121 98429 31560 51103 10268 20223 40133 52024 70544 82830 333 10300 56999 59024 82825 83360
AAXX 01121 98430 31558 20000 10256 20222 40131 52017 70544 82100 333 10310 56999 59007 82820
AAXX 01121 98431 31458 70601 10262 20237 30086 40133 53021 70342 83230 333 10296 56999 59017 83818 84360
AAXX 01121 98440 11465 40405 10260 20240 30130 40135 52016 60091 71586 83230 333 10293 56199 59023 83815 84358
AAXX 01121 98444 32462 30303 10274 20239 30106 40125 53026 82270 333 10314 56999 59018 82818 83459
AAXX 01121 98526 32570 13601 10260 20247 40128 52019 81100 333 10/// 56999 59014 81820
AAXX 01121 98531 31570 10401 10272 20241 30118 40122 53020 70544 81200 333 10317 56199 59012 81820
AAXX 01121 98536 31465 60403 10252 20225 39928 40134 53026 70341 83270 333 10277 56199 59007 83818 84357
AAXX 01121 98543 11468 60403 10268 20248 30100 40111 53020 69941 70182 82208 333 10329 56199 59023 82818 86272
AAXX 01121 98550 11459 70202 10267 20243 40122 52027 60071 78082 84970 333 10304 56999 59009 82915 87357
AAXX 01121 98618 32570 23504 10277 20231 40120 53017 82201 333 10314 56999 59014 82820
AAXX 01121 98630 32575 30204 10270 20254 40132 53011 82201 222// 2//03 333 10308 56199 59004 82820
AAXX 01121 98637 NIL
AAXX 01121 98646 11460 73401 10260 20244 30112 40140 52020 60021 72598 82970 333 10310 56199 59010 82918 86359
AAXX 01121 98653 11470 50000 10265 20252 30055 40100 52025 60011 70584 82272 333 10310 56999 59015 82818 83358
AAXX 01121 98741 31470 60402 10278 20264 40107 52014 70244 82270 333 10295 56199 59004 82817 86358
AAXX 01121 98747 31460 30000 10260 20247 39898 40103 52023 70544 82201 333 10312 56999 59014 82818
AAXX 01121 98753 11465 73601 10267 20247 40105 52014 69941 70564 82278 333 10277 56999 59011 82816 85359 86279
AAXX 01121 98755 32575 72701 10274 20254 40108 52020 81230 333 10300 56999 59022 81820 87360
AAXX 01121 98836 11460 70402 10266 20253 40113 53023 60131 72582 84270 333 10340 56299 59008 84818 86362
BBXX 46036 01121 99484 71339 46/// /1512 10095 49968 57039 22200 00078 11008 70038 333 91215
BBXX 46036 01121 99484 71339 46/// /1512 10095 49968 57039 22200 00078 11008 70038 333 91215
AAXX 01121 88900 46/// /2413 10044 20016 30049 40052 51007 333 10050 20042
BBXX 2AUO5 01123 99606 10016 41397 72218 10083 20063 49840 57004 70222 8/7// 22251 20603 325// 40906 80074
BBXX 63106 01124 99610 10017 46/// /2217 10076 49841 57003 22200
BBXX 63105 01124 99610 10017 47597 ///// 10078 20036 49840 57003 751// 22200
BBXX 62305 01124 99504 10000 46/96 /2219 10120 20120 40087 58020 22200 00116 10602 70009 333 90710 91128
BBXX 62103 01124 99499 70029 46/96 /2221 10123 20117 40064 57007 22200 00118 10804 70018 333 90710 91128
BBXX MYSU5 01124 99446 70183 41597 42924 10115 20062 40183 51029 70111 84400 22253 00140 20405 304// 40510 5//// 80090
AAXX 01124 63688 32580 30720 10240 20056 48/// 83900 333 59002 81924 83825
AAXX 01124 63708 32680 22407 10292 20130 48487 82200 333 59007 82830
AAXX 01124 63714 32580 36014 10260 20026 48493 81200 333 58001 81826
AAXX 01124 63740 32580 10212 10256 20083 48496 81200 333 59004 81828
AAXX 01124 63772 32580 10308 20224 81100 333 81828
AAXX 01124 63820 32580 10713 10315 20220 40098 81100 333 59005 81829
AAXX 01124 63612 NIL
AAXX 01124 63661 NIL
AAXX 01124 63671 NIL
AAXX 01124 63695 NIL
AAXX 01124 63723 NIL
AAXX 01124 63793 NIL
AAXX 01123 63612 32980 10348 20056 40090 333 58000
AAXX 01123 63671 32980 00908 10340 20120
AAXX 01123 63723 32682 10103 10358 20120 40086 81100 333 59003 81831
AAXX 01123 63793 32580 13627 10320 20145 40059 81400 333 59010 81627
AAXX 01121 23426 41968 80000 11130 21143 30153 40179 54000 77172 8807/
AAXX 01121 23625 41998 83201 11088 21095 30145 40180 52007 70272 80005
AAXX 01121 28076 42997 82002 11111 21131 30171 40247 57003 82036
AAXX 01121 28367 41984 82103 11074 21100 30140 40274 57008 70272 8807/
AAXX 01121 28382 42998 81801 11130 21165 30232 40308 57002 8801/
AAXX 01121 28481 42997 81903 11145 21172 30218 40324 57006 80002
AAXX 01121 28491 42997 61803 11125 21160 30210 40327 57008 86030
AAXX 01121 28573 42997 82205 11144 21164 30224 40336 57009 80001
AAXX 01121 28593 42997 61803 11137 21180 30250 40354 57003 86010
AAXX 01121 28786 42997 81702 11153 21172 30203 40374 57008 80002
AAXX 01121 28797 42997 61801 11162 21188 30204 40374 57014 80001
AAXX 01121 28799 42997 60000 11172 21206 30231 40389 57002 80001
BBXX 41010 01121 99289 70785 46/// /0000 10216 40245 91220 22200 00236 10501 20401 300// 40501 70007 333 91201 555 11002 22002
BBXX 41009 01121 99285 70802 46/// /3103 10216 20182 40248 91220 22200 00234 10901 300// 40901 70004 333 91204 555 11033 22034
BBXX 42362 01121 99278 70907 46/// /2304 10222 20194 40244 91230
BBXX 42363 01121 99282 70892 46/// /2205 10222 20172 40244 91230 333 91205
BBXX 42364 01121 99291 70881 46/// /2305 10211 20178 40244 91230
BBXX 42361 01121 99276 70925 46/// ///03 10222 20206 40234 53024 91230 555 11022 22023
BBXX 44100 01121 99363 70756 46/// ///// 1//// 91222 22200 00122 10801 20801 70004
BBXX 41110 01121 99341 70777 46/// ///// 1//// 91221 22200 00133 10601 20601 70005
BBXX 42099 01121 99273 70842 46/// ///// 1//// 91227 22200 00223 10501 20501 70003
BBXX 41113 01121 99284 70805 46/// ///// 1//// 91221 22200 00213 10901 70003
BBXX 41112 01121 99307 70813 46/// ///// 1//// 91221 22200 00166 10901 20901 70003
AAXX 01121 20046 NIL
AAXX 01121 20069 NIL
AAXX 01121 20087 31998 02407 11187 21213 30155 40166 58005 73600 333 11186
AAXX 01121 20292 NIL
AAXX 01121 20353 46/// /2307 11159 21205 30238 40242 52009
AAXX 01121 20667 42998 70902 11185 21211 30256 40264 52019 87070
AAXX 01121 20674 31998 00107 11194 21213 30168 40232 52023 73630 333 11161 91110
AAXX 01121 20744 41997 21209 11138 21181 30249 40268 52010 73630 82031
AAXX 01121 20891 11997 82506 11144 21164 30090 40134 52010 69972 77172 8802/ 333 11107 91109
AAXX 01121 23022 41496 60807 11086 21124 30156 40219 52014 78583 86900
AAXX 01121 23032 41997 80605 11148 21161 30179 40211 52010 70282 83031
AAXX 01121 23058 41996 80602 11172 21184 30213 40218 52001 77172 8802/
AAXX 01121 23242 NIL
AAXX 01121 23256 41498 81504 11169 21188 30172 40209 57011 77172 885// 333 88617
AAXX 01121 23330 41297 80000 11131 21144 30155 40177 57001 70272 8677/ 333 86704
AAXX 01121 23445 41697 81502 11102 21108 30157 40184 57005 77172 8802/ 333 88522
AAXX 01121 23552 41996 80000 11091 21098 30170 40206 57010 77187 80007
AAXX 01121 23631 41497 82501 11075 21081 30137 40179 52001 77172 8452/ 333 84615
AAXX 01121 23662 41496 81303 11069 21074 30195 40240 57016 77172 8552/ 333 85617
AAXX 01121 23724 42999 82201 11093 21096 30123 40191 52006 83045
AAXX 01121 23734 41597 81801 11064 21071 30105 40198 52001 70272 886//
AAXX 01121 23849 42996 72104 11086 21109 40228 57008 87030
AAXX 01121 23867 41999 81904 11061 21080 30197 40271 57013 73673 8801/
AAXX 01121 23933 42697 61802 11115 21136 30160 40219 57001 82531
AAXX 01121 28064 42998 81902 11146 21181 30138 40235 54000 82041
AAXX 01121 28275 41597 82105 11108 21152 30219 30219 40281 53002 73622 8255/
AAXX 01121 28493 42997 71701 11119 21163 30241 40339 57001 87070
AAXX 01121 28698 42997 82201 11163 21189 30206 40373 57001 80005
AAXX 01124 78318 11560 30702 10198 20178 30209 40213 53014 60001 70500 81802 333 10292 20198 30/// 56909 58017 81821 83073
AAXX 01124 78325 11540 41104 10204 20168 30158 40217 51013 60001 70400 81102 333 10265 20199 30/// 55075 56909 58014 81820 84080
AAXX 01124 78333 12/10 10602 10202 20188 30199 40206 53013 60001 81042 333 10287 20195 30/// 56099 58011 813//
AAXX 01124 78348 11550 70405 10233 20204 30159 40212 53012 60001 70511 87840 333 10259 20229 30/// 50394 56290 57855 58010 81820 87632 555 10702
AAXX 01124 78349 11540 33301 10206 20203 30106 40217 53015 60001 71000 83202 333 10300 20206 30/// 50404 56109 58009 83820 555 10503
AAXX 01124 78353 12570 30702 10244 20204 30183 40205 53016 60001 82241 333 10286 20240 30/// 50144 56999 58003 82820
AAXX 01124 78360 11556 30304 10221 20213 30177 40189 51012 60001 71000 82800 333 10305 20220 30/// 56909 57847 58010 81820 92023
BBXX WZJC 01123 99225 70780 41398 70519 10244 2021/ 40203 52015 70200 8713/ 22273 00256 20302 303// 40402 5//// 6//// 80222 ICE /////
BBXX WCOB 01123 99292 70444 41598 20919 10210 20164 40305 52008 70110 8113/ 22223 0//// 20604 33109 41508 51006 6//// 80180 ICE /////
BBXX C6XC6 01124 99179 71034 41597 23407 10256 2//// 40130 54000 70200 822// 22273 04240 2//// 33636 41201 51201 6//// 8//// ICE /////
BBXX V7HD2 01124 99338 30257 41598 11720 10220 2019/ 40090 54000 7//00 818// 22200 00228 2//// 3//// 4//// 5//// 6//// 80200 ICE /////
AAXX 01121 38847 ///// /2502 10005 21015 39430 40220
AAXX 01124 82246 32998 01402 10270 20241 39929 40127 333 20231 59011
AAXX 01124 82336 22698 82702 10266 20246 3//// 4//// 84590 333 20246 5//// 60084 10078
AAXX 01124 82445 21495 80000 10252 20245 30094 40146 71665 8572/ 333 20250 58003 60054
AAXX 01124 82460 32597 70503 10280 20240 30096 40125 87200 333 20250 59002
AAXX 01124 82562 21597 83602 10245 20239 30034 40143 72162 8852/ 333 20234 58017 60034
AAXX 01124 82571 22497 80904 10254 20233 39950 40125 885// 333 20242 58000 69924
AAXX 01124 82765 21598 80902 10250 20240 39923 40164 70052 8582/ 333 20239 58014 60044
AAXX 01124 82141 32698 60509 10293 20240 30113 40125 83230 333 20265 58004
AAXX 01124 82145 32598 40902 10292 20241 30083 40124 83201 333 20205 58007
AAXX 01124 82181 32497 50506 10265 20235 30007 40147 83960 333 20246 59001
AAXX 01124 82198 32495 53608 10293 20232 30771 40123 83204 333 20256 58004
AAXX 01124 82353 32496 81804 10261 20239 30020 40104 8672/ 333 20236 58002
AAXX 01124 82361 32597 83602 10266 20243 30092 40129 84110 333 20253 59002
AAXX 01124 82476 32595 80506 10275 20223 30006 40125 8381/ 333 20254 58004
AAXX 01124 82861 22597 61404 10259 20242 39931 40101 84230 333 20233 58009 60614
AAXX 01124 83437 21596 83203 10222 20214 39400 40114 76166 887// 333 20213 59003 60124
AAXX 01124 83550 31597 8//// 10268 20233 30075 40104 70222 8227/ 333 20233 59014
AAXX 01124 83552 21598 7//// 10259 20246 39942 40117 71022 875// 333 2//// 59009 60054
AAXX 01124 83565 21597 83602 10234 20218 39614 40080 70266 887// 333 20221 59022 60154
AAXX 01124 83579 21599 83602 10202 20195 38975 40082 70362 88800 333 20190 59037 60134
AAXX 01124 83592 21596 80504 10224 20217 39424 40098 72065 8472/ 333 20208 59015 60274
AAXX 01124 83630 21295 83208 10198 20188 3//// 4//// 51015 76162 887// 333 20184 60104
AAXX 01124 83698 21397 80000 10252 20234 30084 40098 51010 75166 887// 333 20240 60024
AAXX 01124 83702 22198 33206 10230 20203 39342 40094 53014 82605 333 20207 60024
AAXX 01124 83704 22698 50502 10232 20224 39646 40051 53011 85700 333 2//// 60074
AAXX 01124 83716 22497 72303 10243 20216 39579 40066 53008 86332 333 20220 60054
AAXX 01124 83726 21596 83201 10207 20204 39135 40086 51007 76664 887// 333 20199 60214
AAXX 01124 83738 21697 82703 10232 20216 39560 40051 52004 71660 887// 333 20215 60134
BBXX 51205 01121 99210 71564 46/// ///// 1//// 91218 22200 00241 11003 21003 309// 41102 70016
BBXX 46238 01121 99334 71195 46/// ///// 1//// 91220 22200 00138 11404 21002 329// 41403 70018
BBXX 46239 01121 99363 71221 46/// ///// 1//// 91221 22200 00119 11305 20903 330// 41304 70026
BBXX 51204 01121 99213 71581 46/// ///// 1//// 91222 22200 00246 11302 21001 327// 41302 70010
BBXX 51202 01121 99214 71577 46/// ///// 1//// 91210 22200 00238 11003 21003 307// 41101 70015
BBXX 44060 01121 99413 70721 46/// ///05 10074 40192 91230 22200 00092 333 91206 555 11051 22057
BBXX 44022 01121 99409 70737 46/// ///03 10068 20041 40195 91230 22200 00069 333 91204 555 11031 22031
BBXX 44040 01121 99410 70736 46/// /2604 10069 20052 40201 91219 22200 1//00 70000 333 91204 555 11046 22057
BBXX 46219 01121 99332 71199 46/// ///// 1//// 91228 22200 00137 11304 21003 329// 41303 70022
BBXX 46224 01121 99332 71175 46/// ///// 1//// 91206 22200 00145 11402 20901 322// 41401 70008
BBXX 46214 01121 99379 71235 46/// ///// 1//// 91220 22200 00118 11105 20903 330// 41104 70024
BBXX VRJI2 01123 99161 70263 41596 80519 10220 2014/ 40170 54000 7//22 87627 22253 00220 21004 30505 41504 51503 6//// 80170
BBXX V7HD2 01124 99338 30257 41598 11720 10220 2019/ 40090 54000 7//00 818// 22200 00228 2//// 3//// 4//// 5//// 6//// 80200 ICE /////
BBXX A8QL5 01121 99143 70252 41/97 80618 10245 20209 40150 52010 70222 87077 22284 04260 20807 303// 41207 80220
BBXX A8FQ8 01123 99017 70109 41799 41409 10290 20235 40150 50010 70222 83461 22274 00280 20402 80250
BBXX TBWUK11 01123 99142 30451 41598 40325 10310 20257 40160 57020 70311 8/4// 22253 00330 21003 30000 40000 50000 80270
BBXX DANV 01124 99116 10614 41597 20520 10264 20188 40110 56020 7//00 82206 22224 04250 20104 304// 40305 80212
BBXX LAVN4 01124 99173 70200 41/97 90921 10200 2008/ 40198 56010 70200 8//// 22213 00210 21004 304// 40904 NNNN
BBXX A8UQ2 01124 99263 10568 41998 00000 10240 20127 40140 57010 705// 80000 22273 00240 20000 3//// 4//// 5//// 80170
BBXX TBWUK17 01123 99348 30192 41697 72930 10202 20196 40161 52003 70222 87774 22262 04220 20305 32626 40507 50607 80198
BBXX TBWUK18 01123 99308 30485 41/98 71108 10235 20152 40159 58004 70222 8347/ 22222 00242 20200 3//// 4//// 5//// 80185
BBXX A8GH5 01123 99060 70261 41696 30516 10275 20195 40150 54000 70500 81101 22254 20401 80220
BBXX A8UX3 01124 99177 70179 41496 80228 10190 20083 40225 50005 70322 85770 22283 04220 20503 305// 40804 80130
BBXX DCPP2 01124 99270 10345 41997 13520 10205 20069 40155 58035 70200 80001 22275 20506 328// 40503 5//// 80130
BBXX DCCP2 01120 99187 30606 41498 21006 10265 20226 40100 56010 70200 82200 22254 00270 29902 31206 4//05 5//04 80237
BBXX 4RBI 01123 99018 70015 41697 61710 10295 20245 40133 70222 8347/ 22223 00320 20301 314// 40702 5//// 80260
BBXX LAIP5 01123 99152 50025 41/98 /1708 10220 20189 40167 70111 8//// 22233 04200 20504 3//// 4//// 5//// 80200
BBXX KABL 01124 99254 10575 41998 01400 10250 2024/ 40170 54000 7//00 80/// 22275 00250 20800 314// 40801 5//// 6//// 80240 ICE /////
BBXX WKPF 01124 99160 10410 41997 01319 10270 2023/ 40101 57040 705// 80/// 22234 00274 20404 31611 40504 50504 6//// 80240 ICE /////
BBXX UDWE 01121 99454 11385 42/96 93414 11032 40181 57007 22213 89/// 00032 20402
BBXX A8UE4 01123 99477 11553 41/97 /0503 10000 20000 40220 58010 70277 8//// 22214 04030 20204 327// 40308 5//// 80000
BBXX DCPL2 01123 99143 10701 41997 80118 10265 20200 40075 54000 70222 8804/ 22264 00276 29907 80220
BBXX 9HA2064 01123 99287 11242 41796 83613 10120 20083 40250 54000 7//22 887// 22254 0//// 2//// 3//// 4//// 5//// 6//// 80100 ICE /////
BBXX MNDC9 01124 99334 11403 41/98 41603 10150 20092 40156 57017 71300 8//// 22283 04200 20301 80120
BBXX TBWUK43 01124 99055 10986 41396 80405 10250 20237 40115 54000 76366 887// 22223 20402 304// 40502 5//// 80241
BBXX HZGN 01123 99063 10950 41597 81815 10270 20250 40137 52010 70322 888// 22264 02274 20401 318// 40602 5//// 80255
BBXX A8HG2 01124 99222 11156 41997 00924 10180 20131 40220 53015 70200 80000 22263 04170 20402 3//// 4//// 5//// 80150
BBXX DCLH2 01120 99283 11697 41/98 42909 10213 20141 40150 51010 70211 8//// 22264 06230 2//// 3//// 4//// 5//// 80168
BBXX ONCE 01124 99225 11223 41497 80729 10210 2015/ 40200 51020 70222 887// 22214 00250 2//// 3//// 4//// 5//// 6//// 80170 ICE /////
BBXX VRHO2 01124 99410 11397 41898 72813 10080 20038 40110 56020 70322 87263 22215 00120 20502 33131 40803 50904 6//// 80060 ICE /////
BBXX C6YA7 01124 99145 10724 41697 83524 10260 2022/ 40070 56010 70522 8869/ 22273 00290 20303 334// 40704 5//// 6//// 80230 ICE /////
BBXX WCX8882 01124 99409 11540 41497 60909 10070 2003/ 40249 51004 7//22 866// 22214 00100 20504 309// 40608 5//// 6//// 80050 ICE /////
BBXX WECH 01123 99310 11654 43498 33124 10178 2012/ 40215 5//// 7//// 83/// 22225 00212 2//// 3//// 4//// 5//// 6//// 80144 ICE /////
BBXX SHIP 01124 99072 10767 41398 61212 10270 2023/ 40080 54000 70322 8522/ 22233 00300 2//// 3//// 4//// 5//// 6//// 80240 ICE /////
BBXX ONFE 01124 99081 10759 41797 11313 10270 2021/ 40120 5//// 7//00 811// 22274 00280 2//// 3//// 4//// 5//// 6//// 80230 ICE /////
BBXX KFMV 01123 99172 11628 41498 70715 10239 2021/ 40140 54000 71662 84368 22265 00306 20302 31310 40602 50502 6//// 80217 ICE /////
BBXX WCX8812 01124 99446 11514 41697 72208 10030 2105/ 40236 5//// 70222 8762/ 22253 00030 20402 309// 40908 5//// 6//// 80000 ICE /////
BBXX 46036 01121 99484 71339 46/// /1512 10095 49968 57039 22200 00078 11008 70038 333 91215
BBXX 44258 01121 99445 70634 46/// /3212 10043 40036 52037 22200 00053 10703 70016 333 91214
BBXX 44039 01121 99411 70727 46/// /2506 10078 20061 40201 91153 22200 00083 1//00 70002 333 91207
BBXX 44099 01121 99369 70757 46/// ///// 1//// 91222 22200 00101 10701 20701 70005
BBXX 46215 01121 99352 71209 46/// ///// 1//// 91208 22200 00125 11404 21002 326// 41403 70020
BBXX 46213 01121 99403 71247 46/// ///// 1//// 91224 22200 00108 11204 21002 329// 41203 70021
BBXX 46225 01121 99329 71174 46/// ///// 1//// 91214 22200 00149 11402 20901 326// 41402 70010
BBXX 46229 01121 99438 71246 46/// ///// 1//// 91221 22200 00098 11304 21003 327// 41303 70021
BBXX 46236 01121 99368 71219 46/// ///// 1//// 91220 22200 00120 11304 21002 329// 41303 70019
BBXX 46243 01121 99462 71241 46/// ///// 1//// 91229 22200 00090 11203 20802 325// 41202 70016
BBXX 46146 01121 99493 71237 46/// /1208 10053 40274 52008 22200 00067 10201 70004 333 91210
BBXX 46246 01121 99500 71451 46/// ///// 1//// 91159 22200 00068 11108 21007 315// 41105 70042
BBXX 46232 01121 99325 71174 46/// ///// 1//// 91208 22200 00146 11503 21002 328// 41502 70015
BBXX 46246 01121 99500 71451 46/// ///// 1//// 91229 22200 00068 11109 21006 318// 41106 70043
BBXX 46247 01121 99378 71228 46/// ///// 1//// 91221 22200 00114 11204 20903 330// 41203 70021
BBXX 46004 01121 99509 71361 46/// /1414 10079 49927 57027 22200 00072 11011 70054 333 91218
BBXX 46184 01121 99539 71389 46/// /1416 10067 49876 57048 22200 00059 11111 70053 333 91220
BBXX A8JI2 01124 99287 70524 41698 30914 10231 20188 40260 51005 70100 83182 22214 04250 20502 309// 40803 5//// 80202
BBXX 46181 01121 99538 71288 46/// /0410 11011 40182 57026 22200 00036 10301 70004 333 91212
BBXX 44043 01121 99392 70764 46/// /2102 1//// 40199 91210 333 91203
BBXX 44043 01121 99392 70764 46/// /2203 10054 40200 53005 91200 22200 00055 1//00 70001 333 91203
BBXX 44043 01121 99392 70764 46/// /2102 1//// 91220 333 91203
BBXX 44042 01121 99380 70763 46/// /2102 1//// 40212 91210 333 91203
BBXX 44042 01121 99380 70763 46/// /2103 10073 40212 91200 22200 00082 1//00 70000 333 91203
BBXX 44042 01121 99380 70763 46/// /2102 1//// 91220 333 91203
BBXX 44063 01121 99390 70764 46/// /0000 1//// 40223 91210 333 91200
BBXX 44041 01121 99372 70768 46/// /0901 10044 40232 54000 91200 22200 00088 1//00 70001 333 91201
BBXX 44041 01121 99372 70768 46/// /0901 1//// 40232 91210 333 91201
BBXX 44041 01121 99372 70768 46/// /0801 1//// 91220 333 91201
BBXX 44063 01121 99390 70764 46/// /0000 10053 40216 53006 91200 22200 00063 1//00 70001 333 91200
BBXX 44062 01121 99386 70764 46/// /2303 1//// 40190 91210 22200 00079 333 91203
BBXX 44063 01121 99390 70764 46/// /0000 1//// 91220 333 91200
BBXX 44062 01121 99386 70764 46/// /2302 10064 40191 52006 91200 22200 00079 1//00 70001 333 91203
BBXX 44062 01121 99386 70764 46/// /2203 1//// 91220 22200 00079 333 91203
BBXX 44058 01121 99376 70763 46/// /0000 10073 40210 52003 91200 22200 00084 1//00 70000 333 91201
BBXX 44058 01121 99376 70763 46/// /1901 1//// 91220 333 91201
BBXX 44058 01121 99376 70763 46/// /1801 1//// 40209 91210 333 91201
BBXX 44059 01121 99368 70763 46/// /1502 10067 40207 52003 91200 22200 00103 333 91202
BBXX 44057 01121 99395 70761 46/// /0000 1//// 91220 333 91201
BBXX 44059 01121 99368 70763 46/// /1602 1//// 40208 91210 333 91202
BBXX 44059 01121 99368 70763 46/// /1602 1//// 91220 333 91203
BBXX 44057 01121 99395 70761 46/// /3601 1//// 40203 91210 333 91201
BBXX 44057 01121 99395 70761 46/// /0301 10019 40203 53006 91200 22200 00039 333 91201
BBXX 62141 01123 99493 50591 41596 82518 10121 20119 40020 54000 71022 8/700 22200 20502 332// 40602 5//// 80120
BBXX A8DE3 01124 99458 50753 41598 52115 10130 20074 40225 52025 7//// 84200 22254 29901 323// 40805 80100
BBXX SHIP 01123 99117 50784 41398 71610 10220 20190 40130 52020 70122 8777/ 22234 04170 2//// 80234
BBXX TBWUK03 01123 99204 50401 41398 80820 10255 20236 40121 54000 70222 86710 22200 20402 304// 40703 5//// 80241
BBXX ELTY2 01123 99028 50382 41698 30715 10285 20265 40135 52015 70211 8/243 22271 21003 30207 41202 51202 80270
BBXX ELWR5 01120 99004 70812 41397 82206 10235 20217 40112 53021 70011 8/7// 22284 04251 20303 319// 40503 80222
BBXX PCGQ 01121 99169 50383 41598 40510 10268 20213 40120 52010 70211 822/6 22243 04268 20602 305// 40602 80229
BBXX DBUT 01121 99234 50429 41496 80512 10240 20208 40126 57010 75052 8772/ 22265 20504 3//// 4//// 5//// 80218
BBXX MZDL7 01123 99463 50476 41/97 83408 10156 20146 40148 54000 70252 884// 22213 00160 20302 323// 40703 5//// 80150
BBXX C6YM6 01124 99322 50471 41498 30923 10220 2014/ 40160 54000 7//22 83/8/ 22214 00220 2//// 3//// 4//// 5//// 6//// 80170 ICE /////
BBXX ONAI 01124 99189 50366 41897 80329 10260 2022/ 40130 52010 72162 88/// 22213 00270 2//// 3//// 4//// 5//// 6//// 80230 ICE /////
BBXX P3GY9 01124 99261 50438 41596 80919 10240 2023/ 40075 57015 78166 88743 22253 00260 20704 309// 40803 5//// 6//// 80230 ICE /////
BBXX 9HJD9 01123 99351 50542 41798 20618 10220 2021/ 40200 54000 7//22 82/// 222// 0//// 2//// 3//// 4//// 5//// 6//// 80210 ICE /////
BBXX 46092 01121 99368 71220 46/// /0909 10118 40184 91157 22200 00119 555 11098 22108
BBXX VREX7 01123 99199 70654 41298 40822 10270 20241 40210 50000 70000 84464 22214 04260 20201 30807 40504 50405 80250
BBXX ZCDT2 01124 99128 70637 41598 50615 10265 20213 40160 50002 70200 85800 22264 00270 20202 306// 40405 5//// 80230
BBXX PHHD 01121 99146 70597 41/97 60710 10270 20221 40172 50002 72122 8/3// 22243 04260 2//05 327// 41004 80235
BBXX 46205 01121 99542 71343 46/// /1618 10075 49995 57024 22200 00071 11114 70068 333 91223
BBXX 46132 01121 99497 71279 46/// /1219 10066 40147 57012 22200 00082 11013 70063 333 91225
BBXX CFO383 01124 99439 70602 47495 /3028 10080 2008/ 49934 52003 762// 8/ // 22200 00067 10704 2//// 3//// 4//// 5//// 6//// 70019 80081 333 91035
BBXX 46206 01121 99488 71260 46/// /1015 10050 40203 57014 22200 00084 10606 70030 333 91218
BBXX VOXS 01124 99467 70480 41798 81220 10009 2101/ 40197 56065 70222 886// 22200 04016 20402 334// 40908 80001
BBXX WCOB 01123 99292 70444 41598 20919 10210 20164 40305 52008 70110 8113/ 22223 0//// 20604 33109 41508 51006 6//// 80180 ICE /////
BBXX 46185 01121 99524 71298 46/// /1518 10069 40114 57029 22200 00071 11014 70068 333 91222
BBXX 46221 01121 99339 71186 46/// ///// 1//// 91145 22200 00148 11502 21001 325// 41502 70009
BBXX 44040 01121 99410 70736 46/// /2603 10068 20054 40200 91215 22200 1//00 70000 333 91204 555 11041 22051
BBXX 44039 01121 99411 70727 46/// /2406 10079 20059 40199 53016 91200 22200 00083 1//00 70002 333 91208
BBXX 44033 01121 99441 70690 46/30 /3506 10047 40145 53031 91204 22200 00063 10201 70005 333 91207 555 11075 22079
BBXX 44034 01121 99441 70681 46/30 /3109 10033 40134 53030 91204 22200 00075 10402 70009 333 91211 555 11109 22114
BBXX 44098 01121 99428 70702 46/// ///// 1//// 91207 22200 00081 10802 20802 70008
BBXX 44060 01121 99413 70721 46/// ///04 10072 40189 91215 22200 00090 333 91205 555 11036 22041
BBXX 44022 01121 99409 70737 46/// ///03 10068 20043 40195 91215 22200 00069 333 91204 555 11031 22031
BBXX 46114 01121 99364 71222 46/// ///// 1//// 91204 22200 00120 11306 21003 329// 41305 70031
BBXX 41036 01121 99342 70770 46/// ///// 10175 20058 40225 91220 22200 00206
BBXX WZJC 01123 99225 70780 41398 70519 10244 2021/ 40203 52015 70200 8713/ 22273 00256 20302 303// 40402 5//// 6//// 80222 ICE /////
BBXX DANM 01124 99335 70771 41798 32905 10186 20044 40218 51008 70200 81188 22254 00210 20301 320// 40602 80112
BBXX PBFM 01123 99380 70464 41298 82028 10200 20153 40271 54000 71522 8677/ 22224 20503 316// 40802 80170
BBXX A8CN9 01120 99532 71437 41598 50702 10050 20003 49830 57/// 70362 83470 22263 21006 31515 41006 50905 80030
BBXX C6KJ5 01124 99228 70867 41497 20912 10250 2021/ 40215 52020 70210 82100 22273 00261 80220
BBXX SHIP 01124 99535 71445 41/98 83319 10045 20015 49845 57035 7//22 8//// 22264 00050 2//// 80264
BBXX DFKP2 01124 99287 71622 41598 31809 10200 20135 40163 57020 70200 83100 22224 00230 20201 331// 40805 80160
BBXX A8PX5 01124 99367 71444 41/97 /1120 10120 20083 40020 52/// 70322 8//// 22224 04160 20710 327// 40708 5//// 80100
BBXX DDAC2 01120 99507 71510 41/96 /3614 10010 21016 49980 53000 7//66 8/720 22272 04060 2//// 316// 4//10 5//// 80000
BBXX 9VVN 01124 99546 71524 41/97 /0525 10010 2102/ 40175 52020 79577 8//// 22264 04040 2//// 3//// 4//// 5//// 63110 80000
BBXX VRCI9 01124 99390 71255 41/98 /1111 10140 20105 40180 58030 70200 8//// 22275 00119 2//// 3//// 4//// 80120
BBXX OXBB2 01121 99146 70730 41498 41015 10265 20223 40140 53005 70211 84200 22255 00270 20305 309// 41004 80235
BBXX 4XFV 01123 99383 71665 41397 81740 10130 2011/ 49950 57080 76465 22224 80120
BBXX ZMFR 01124 99421 31760 43/// /1920 10151 20121 40031 57002 22233 00157
BBXX 9HA2479 01124 99219 31679 46/// /1115 10243 20220 30066 40095 57007 22214 04268 85226
BBXX VROB 01124 99205 31529 46/// /1219 10255 20177 30104 40129 52008 22283 04269 85202
BBXX VNAH 01124 99383 31416 46/// /1106 10186 20157 30098 40121 52002 22200 04210 85168
BBXX FHZI 01124 99570 31458 46/// /3321 10029 20018 30034 40045 54000 22283 04020 85024
BBXX 3ECI3 01124 99440 31729 41297 82016 10170 20135 40077 54000 70322 8/7// 22253 00180 20502 314// 40401 80150
BBXX C6FS9 01124 99346 31513 46/// /0319 10216 20159 30143 40179 52014 22283 04230 85179
BBXX ZCBZ5 01123 99024 11069 41697 30508 10271 20244 40091 55004 70200 82442 22224 02278 20101 303// 40504 5//// 80252
BBXX ONDY 01124 99068 30828 41498 73108 10270 2023/ 40090 54000 70222 87800 22213 00280 2//// 3//// 4//// 5//// 6//// 80240 ICE /////
BBXX C6UA2 01124 99214 31670 41596 70913 10240 20211 40100 56010 7//65 83/5/ 22242 00260 23001 3//// 42502 5//// 6//// 80220 ICE /////
BBXX ZCBU2 01123 99375 31782 41598 83328 10190 20174 40018 52002 70200 86464 22225 00190 20402 313// 40404 5//// 80180
BBXX 9HJI9 01124 99428 31739 41/// /2110 10140 2//// 4//// 5//// 7//// 8//// 22233 0//// 2//// 3//// 4//// 5//// 6//// 8//// ICE /////
BBXX C6XC6 01124 99179 71034 41597 23407 10256 2//// 40130 54000 70200 822// 22273 04240 2//// 33636 41201 51201 6//// 8//// ICE /////
BBXX WDE9586 01123 99099 70876 43/// /0519 10260 2023/ 40090 51010 7//// 8//// 22234 00260 2//// 3//// 4//// 5//// 6//// 80240 ICE /////
BBXX WBP3210 01124 99652 51035 43/// /1113 10017 2//// 49764 5//// 7//// 8//// 22252 00020 2//// 3//// 4//// 5//// 6//// ICE /////
BBXX WCX7445 01124 99616 50627 43/// /3514 10023 2//// 49852 5//// 7//// 8//// 22242 00009 2//// 3//// 4//// 5//// 6//// ICE /////
BBXX A8EY7 01123 99423 71700 41/95 81234 10070 20049 49850 57050 76466 8//// 22223 2//12 3//// 4//// 5//// 80060
BBXX A8UT7 01124 99327 70680 41498 43020 10130 20084 40133 52015 70200 83283 22263 20605 324// 41007 80105
BBXX WBWK 01123 99280 71463 41597 82225 10206 2016/ 40150 56010 78188 887// 22262 00217 2//// 329// 41006 5//// 6//// 80178 ICE /////
BBXX 3FSB4 01124 99341 70763 41998 01201 10175 2//// 40230 51010 7//00 80000 22214 0//// 2//// 3//// 4//// 5//// 6//// ICE /////
BBXX 5BDK2 01124 99155 70806 41497 70524 10260 2023/ 40190 51010 70300 86188 22243 00270 20704 305// 41004 5//// 6//// 80240 ICE /////
BBXX WAHG 01124 99529 71344 41596 81642 10065 2//// 40005 56047 70222 886// 22275 0//// 20705 317// 41104 5//// 6//// ICE /////
BBXX C6FV9 01123 99242 70883 41798 60912 10248 2023/ 40230 53020 7//22 8287/ 22274 00250 20502 3//// 40804 5//// 6//// 80232 ICE /////
BBXX KGTZ 01124 99537 71542 41598 43527 11039 2//// 40076 57027 70211 8455/ 22224 00044 2//// 3//// 4//// 5//// 6//// ICE /////
BBXX C6FU4 01124 99216 70690 41898 60818 10250 20222 40210 51/// 7//22 8624/ 22234 00260 20405 3//// 4//// 5//// 6//// 80230 ICE /////
BBXX HZRX 01123 99241 70810 41997 01018 /// 10240 20200 40217 55002 70100 80000 22213 10140 20102 31010 40201 5//// 6//// 80190 ///// /////
BBXX WDD3826 01124 99376 70375 41498 20913 10160 2014/ 40355 52010 70200 811/8 22254 00150 20101 331// 41002 5//// 6//// 80150 ICE /////
BBXX 9HXC9 01124 99246 70750 41497 60516 10230 20176 40200 51010 7//22 86545 22235 00260 2//// 3//// 4//// 5//// 6//// 80194 ICE /////
BBXX WHRN 01123 99255 71443 41398 23515 10200 2017/ 40160 54000 70111 824// 22215 00210 20302 312// 41305 5//// 6//// 80180 ICE /////
BBXX WRYC 01124 99362 70622 41398 62538 10205 2015/ 40151 55025 78165 84368 22264 00207 20509 328// 40507 5//// 6//// 80170 ICE /////
BBXX ZCDG8 01123 99153 70647 41698 70819 10257 20217 40174 51010 70322 86360 22263 00280 2//// 3//// 4//// 5//// 80230
BBXX KCGH 01124 99256 70746 41498 50410 10222 2016/ 40189 50003 70222 852// 22233 00233 2//// 3//// 4//// 5//// 6//// 80183 ICE /////
BBXX WDD6126 01124 99246 70834 41/98 00413 10210 2017/ 40225 52008 70200 80/// 22274 00220 20502 3//// 4//// 5//// 6//// 80185 ICE /////
BBXX KGTY 01124 99517 71313 43/// /1435 10072 2005/ 4//// 5//// 7//// 8//// 22211 0//// 2//// 3//// 4//// 5//// 6//// 80061 ICE /////
BBXX WPGK 01124 99236 70721 41498 30809 10244 2021/ 40190 54000 70200 83800 22234 00261 20504 311// 40803 5//// 6//// 80222 ICE /////
BBXX OZ2048 01120 99591 10037 42/98 62408 10086 49982
BBXX MINUK03 0112/ 99550 70015 46/// ///// 10078 49948 57004
BBXX MINUK01 0112/ 99571 70021 46/// ///// 10078 49899 57004
BBXX DQVI 01123 99407 10290 41/96 90219 10070 20026 40180 52030 7//// 8/7// 22200 00110 2//// 80050
BBXX ZNQO3 01120 99445 70091 41/96 92018 10143 20129 40161 52010 76166 89/// 22254 04142 20807 323// 41106 5//// 80135
BBXX OZDJ2 01123 99443 70093 41196 32535 10120 20101 40166 54000 70084 82700 22253 00140 20705 328// 40608 5//// 80110
BBXX VRCZ7 01123 99415 70101 41397 81819 10150 20132 40250 52010 70222 887// 22244 20604 318// 40604 5//// 80140
BBXX WAHV 01123 99377 10083 43498 72727 10163 2013/ 40247 51007 85431 22274 00165 20805 80147
BBXX V7PW3 01123 99364 10137 41498 42312 10160 20120 40225 58011 70200 8416/ 22274 00162 20301 327// 40503 80138
BBXX C6LU4 01124 99410 70180 41398 72921 10150 2012/ 40290 57020 70362 87920 22214 20302 328// 40503 5//// 80130
BBXX 3EPD8 01124 99394 70113 41598 62116 10189 20108 40298 7//22 83575 22284 04161 299// 80145
BBXX WCZ5535 01124 99324 10296 41598 52822 10180 2013/ 40095 54000 7//22 852// 22233 0//// 2//// 3//// 4//// 5//// 6//// 80150 ICE /////
BBXX KABP 01123 99364 70022 43595 /2713 10168 2012/ 40270 50010 7//// 8//// 22211 0//// 2//// 3//// 4//// 5//// 6//// 80140 ICE /////
BBXX WDD3825 01124 99435 70291 43798 82823 10140 2009/ 40280 52005 7//// 8827/ 22214 00150 20804 314// 40603 5//// 6//// 80110 ICE /////
BBXX WBDS 01124 99380 70143 419// 42518 10160 2010/ 40314 51014 70110 80008 22225 00172 20303 330// 40402 5//// 6//// 80126 ICE /////
AAXX 01124 63801 11580 71805 10262 20214 39200 48531 69901 70262 8193/ 333 0//16 55300 59027 81822 81923 87360
AAXX 01124 63881 32480 63009 10215 20144 38199 48/// 85902 333 55307 59002 85818 81920 83676
AAXX 01124 63887 32580 53116 10255 20172 38581 48506 85300 333 55310 58001 85824 81925
AAXX 01124 91723 NIL
AAXX 01124 91964 36/// /0706 10219 20214 40174 57009
AAXX 01124 78866 01480 20810 10264 20196 30192 40197 52019 69901 70280 82200 333 10284 20251 59002 60007 70008 82819
AAXX 01124 78866 01480 20810 10264 20196 30192 40197 52019 69901 70280 82200 333 10284 20251 59002 60007 70008 82819
AAXX 01124 89528 46/// /1409 4//// 5////
AAXX 01124 89628 46/// /3122 4//// 5////
AAXX 01121 30089 11998 80000 11236 21255 30068 40312 52024 60012 77177 80071 333 11213 24739 11997 82702 11142 21148 39840 40247 52004 69962 77172 8802/ 333 11121
AAXX 01121 78458 32466 50000 10220 20211 40202 52010 85200 333 10296 20204 30/// 56000 58003 85818
AAXX 01121 78460 31460 29902 10185 20181 40203 52020 70544 82800 10285 20180 30/// 56200 58006 82616
AAXX 01121 78467 NIL
AAXX 01121 78479 32466 40606 10255 20220 40168 52010 84200 333 10282 20226 30/// 56100 59007 84816
AAXX 01121 78482 31462 30000 10196 20190 40215 5//// 71040 81230 333 10315 20190 30/// 56000 58004 81815
AAXX 01121 78485 32466 50203 10209 20194 40196 52023 82230 333 10305 20202 30/// 56000 58003 82818 84357
AAXX 01121 78486 32466 30000 10230 20210 40181 52025 82230 333 10312 20215 30/// 50113 56000 58005 82818
AAXX 01121 78488 32466 10000 10210 20207 40195 5//// 81200 333 10300 20185 30/// 56000 58005 81812
AAXX 01121 31152 32997 80000 11335 21366 39854 40311 57007 85036 333 11345
AAXX 01121 31163 NIL
AAXX 01121 31285 32999 00000 11268 21307 30210 40297 57001 333 11264
AAXX 01121 31561 32999 00000 11304 21321 30256 40287 58002 333 11210
AAXX 01121 31683 12999 00000 11304 21321 30183 40267 58002 69900 333 11220
AAXX 01121 32010 11496 82906 11166 21179 30159 40211 57003 60020 78583 86907 333 11147 86913 91011 91114
AAXX 01123 87016 12560 52706 10255 20224 39701 40098 51003 60034 82551 333 10271 20221 56644 82620
AAXX 01121 78458 32466 50000 10220 20211 40202 52010 85200 333 10296 20204 30/// 56000 58003 85818
AAXX 01121 78460 31460 29902 10185 20181 40203 52020 70544 82800 10285 20180 30/// 56200 58006 82616
AAXX 01121 78467 NIL
AAXX 01121 78479 32466 40606 10255 20220 40168 52010 84200 333 10282 20226 30/// 56100 59007 84816
AAXX 01121 78482 31462 30000 10196 20190 40215 5//// 71040 81230 333 10315 20190 30/// 56000 58004 81815
AAXX 01121 78485 32466 50203 10209 20194 40196 52023 82230 333 10305 20202 30/// 56000 58003 82818 84357
AAXX 01121 78486 32466 30000 10230 20210 40181 52025 82230 333 10312 20215 30/// 50113 56000 58005 82818
AAXX 01121 78488 32466 10000 10210 20207 40195 5//// 81200 333 10300 20185 30/// 56000 58005 81812
AAXX 0112/ 89767 46/// ///// 11023 39774 4//// 5////
AAXX 01124 71490 16/// /3305 11367 21402 39956 40309 53019 60001 333 11285 21370 4/009 7////
AAXX 01124 71592 16/// /3503 11340 21381 30085 40099 53002 60001 333 11303 21358 4/010 70000
AAXX 01124 71963 16/// /2401 11337 21371 39846 40278 51024 60001 333 11262 21337 4/005 70000
AAXX 01124 71277 46/// /1509 11155 21198 6///1 333 11044 21155 7////
AAXX 01124 71923 16/// ///09 11278 21302 39775 40247 53024 60001 333 11170 21284 4/002 7////
AAXX 01124 42027 31595 30501 10072 21015 38413 48500 70521 83400 333 10102 59042
AAXX 01124 42111 31595 00000 10158 20123 39358 40134 70522 85870 333 10187 59036 84620 83825 86360
AAXX 01124 42131 31995 63202 10184 20106 40144 70522 84031 333 10214 59027
AAXX 01124 42182 31594 81405 10174 20150 40137 71022 84530 333 10195 59030 84630 87360
AAXX 01124 42369 21495 40714 10142 20138 40118 72996 82530 333 10164 56190 59041 6050/ 82615 84360
BBXX 44138 01121 99443 70536 46/// /1709 10119 40006 57072 22200 00092 10806 70031 333 91211
BBXX KS094 01124 99179 70629 43/// /0912 10262 40199 22200 06255
BBXX KS088 01124 99267 70801 43/// /0701 10173 40234 22200 06226
BBXX KS098 01124 99445 71242 43/// /0919 10094 40204 22252 06000
BBXX 44138 01121 99443 70536 46/// /1709 10119 40006 57072 22200 00092 10806 70031 333 91211
AAXX 01124 91367 32474 50909 10278 20255 84201 333 10300 562/9 84815 82080 555 90112
AAXX 01124 67137 11570 70000 10233 20198 38865 48472 56011 60041 72162 86903 333 0//11 86820 82920 83073 94992 95812 555 10280 81623
BBXX C6CN4 01121 99108 70633 41697 20905 10256 20202 40173 52020 7//00 8/300 22264 04210 20402 3//// 4//// 5////
AAXX 01124 89667 46/// /0803 11076 29092 39829 4//// 5//// 91220
AAXX 01124 89667 46/// /0704 11073 39828 4//// 5//// 91210
AAXX 01124 89667 46/// /0805 11072 39828 4//// 5////
AAXX 0112/ 89667 46/// ///// 11073 39827 4//// 5////
AAXX 0112/ 89872 46/// ///// 11053 39780 4//// 5//// 91220
AAXX 0112/ 89869 46/// ///// 11053 39778 4//// 5//// 91220
AAXX 0112/ 89866 46/// ///// 11028 39720 4//// 5//// 91220
AAXX 0112/ 89329 46/// ///// 11121 38707 4//// 5//// 91210
AAXX 0112/ 89329 46/// ///// 11124 38707 4//// 5//// 91220
AAXX 0112/ 89799 46/// ///// 11241 4//// 5//// 91220
AAXX 0112/ 89868 46/// ///// 11076 39784 4//// 5//// 91220
AAXX 0112/ 89828 46/// ///// 11203 36515 4//// 5//// 91230
AAXX 0112/ 89108 46/// ///// 11219 36982 4//// 5//// 91220
AAXX 0112/ 89108 46/// ///// 11221 36982 4//// 5//// 91230
AAXX 0112/ 89879 46/// ///// 11014 39742 4//// 5//// 91220
AAXX 0112/ 89332 46/// ///// 11078 39197 4//// 5//// 91210
AAXX 0112/ 89332 46/// ///// 11076 39196 4//// 5//// 91220
AAXX 0112/ 89769 46/// ///// 11074 39807 4//// 5//// 91220
AAXX 0112/ 89314 46/// ///// 11119 38204 4//// 5//// 91210
AAXX 01121 78458 32466 50000 10220 20211 40202 52010 85200 333 10296 20204 30/// 56000 58003 85818
AAXX 01121 78460 31460 29902 10185 20181 40203 52020 70544 82800 10285 20180 30/// 56200 58006 82616
AAXX 01121 78467 21466 62003 10220 20214 40195 5//// 702// 86200 333 10275 20200 31/// 56200 58003 60022 70037 86815
AAXX 01121 78479 32466 40606 10255 20220 40168 52010 84200 333 10282 20226 30/// 56100 59007 84816
AAXX 01121 78482 31462 30000 10196 20190 40215 5//// 71040 81230 333 10315 20190 30/// 56000 58004 81815
AAXX 01121 78485 32466 50203 10209 20194 40196 52023 82230 333 10305 20202 30/// 56000 58003 82818 84357
AAXX 01121 78486 32466 30000 10230 20210 40181 52025 82230 333 10312 20215 30/// 50113 56000 58005 82818
AAXX 01121 78488 32466 10000 10210 20207 40195 5//// 81200 333 10300 20185 30/// 56000 58005 81812
AAXX 01121 78458 32466 50000 10220 20211 40202 52010 85200 333 10296 20204 30/// 56000 58003 85818
AAXX 01121 78460 31460 29902 10185 20181 40203 52020 70544 82800 10285 20180 30/// 56200 58006 82616
AAXX 01121 78467 21466 62003 10220 20214 40195 5//// 702// 86200 333 10275 20200 31/// 56200 58003 60022 70037 86815
AAXX 01121 78479 32466 40606 10255 20220 40168 52010 84200 333 10282 20226 30/// 56100 59007 84816
AAXX 01121 78482 31462 30000 10196 20190 40215 5//// 71040 81230 333 10315 20190 30/// 56000 58004 81815
AAXX 01121 78485 32466 50203 10209 20194 40196 52023 82230 333 10305 20202 30/// 56000 58003 82818 84357
AAXX 01121 78486 32466 30000 10230 20210 40181 52025 82230 333 10312 20215 30/// 50113 56000 58005 82818
AAXX 01121 78488 32466 10000 10210 20207 40195 5//// 81200 333 10300 20185 30/// 56000 58005 81812
AAXX 01124 91367 32474 50909 10278 20255 84201 333 10300 562/9 84815 82080 555 90112
BBXX C6CN4 01121 99108 70633 41697 20905 10256 20202 40173 52020 7//00 8/300 22264 04210 20402 3//// 4//// 5////
BBXX 2BLY5 01123 99036 50381 41698 30916 10300 20235 40134 54000 7//11 8/1// 22274 00285 20402 30000 80255
AAXX 01124 42260 21496 80704 10164 20164 40139 71022 84530 333 10179 59016 6002/
AAXX 01124 42867 21596 51605 10250 20217 40093 72162 83330 333 10276 59027 6995/ 82620 81930 83360
AAXX 01124 42933 21597 60000 10290 20182 40085 70162 84830 333 10310 59019 6990/ 83620 85360
BBXX V7QN8 01123 99107 11204 41297 40609 10270 2020/ 40120 57/// 70322 84886 22243 04280 20602 306// 40602 5//// 6//// 80220 ICE /////
AAXX 01124 94997 46/// ///// 10038 30105 40120 5////
AAXX 01124 94290 46/// /1322 10274 30109 40118 51009 91224
AAXX 01124 40401 31959 21008 10255 20110 39437 40114 70600 80001 333 58000 82070
BBXX 41033 01121 99323 70804 46/// /2501 1//// 40233 53011 91200 555 11010 22010
AAXX 01124 94290 46/// /1322 10274 30109 40118 51009 91224
AAXX 01124 94997 46/// ///// 10038 30105 40120 5////
AAXX 01124 94210 35/// /2608 10286 30078 40083 52025
AAXX 01124 94289 46/// /1320 10273 30105 40112 51009 91215
AAXX 01124 94379 46/// /1219 10253 30124 40133 51006 91226
AAXX 01124 83064 22798 81801 10261 20241 39852 40122 85370 333 2//// 58000 60074
AAXX 01124 83235 21697 80000 10212 20209 39455 40124 76165 885// 333 20211 58008 60314
AAXX 01124 83332 32697 73604 10253 20210 39206 40101 84250 333 20214 59005
AAXX 01124 83423 21598 83202 10227 20210 39288 40100 70362 8557/ 333 20200 59016 60184
AAXX 01124 82586 32598 60908 10290 20220 39894 40130 86400 333 20240 58009
AAXX 01124 82678 32596 83602 10280 20231 39991 40130 8657/ 333 20240 58010
AAXX 01124 82784 32598 33602 10256 20225 39680 40134 83200 333 20214 58008
AAXX 01124 82791 32599 60909 10290 20193 39853 40129 86200 333 20243 59009
AAXX 01124 82983 32598 60904 10284 20222 39710 40116 86100 333 20252 58001
AAXX 01124 43003 31995 03212 10252 20141 40102 70400 333 10278 58001
AAXX 01124 43063 32597 42702 10276 20164 39465 40076 82531 333 10306 59005 82626
BBXX SHIP 01124 99281 11273 41597 33527 10150 20096 40286 50003 70122 8266/ 22244 00229 80120
BBXX SHIP 01124 99424 71666 41/95 /1251 10040 20040 40954 54027 72126 8//// 91150 22223 00100 2//// 3//// 4//// 5//// 80040
AAXX 0112/ 89828 46/// ///// 11199 36515 4//// 5//// 91220
AAXX 0112/ 89879 46/// ///// 11014 39742 4//// 5//// 91210
AAXX 0112/ 89866 46/// ///// 11025 39720 4//// 5//// 91210
AAXX 01121 55228 32780 72202 11040 21284 35989 57005 84902 333 05352
AAXX 01121 55578 32880 80000 10022 21168 36366 57001 885// 333 05101
AAXX 01121 55664 11880 82901 11019 21080 36006 57001 69901 77000 885// 333 05355
AAXX 01121 55773 11369 80000 11045 21056 36024 52003 60011 78580 889// 333 05253
AAXX 01121 56116 32680 30000 10008 21170 36329 52001 82402 333 05302
AAXX 01121 56137 32780 62701 10053 21193 36777 52002 82402 333 05202
AAXX 01121 56172 32980 51101 10010 21080 37315 52023 80002 333 05401
AAXX 01121 56247 32880 60201 10099 21103 37405 52004 81402 333 05301
AAXX 01121 56312 32680 41601 10069 21071 37082 52004 81140 333 05103
AAXX 01121 56462 32680 72902 10049 21055 37124 52029 83402 333 05301
AAXX 01121 56651 32680 12504 10153 21104 37629 52014 81400 333 05205
AAXX 01121 56691 11120 80902 10012 20005 37786 52016 69911 76060 887// 333 05251
AAXX 01121 56985 32965 01402 10143 20097 38713 40163 52014 333 05201
AAXX 01121 57633 32762 83603 10058 20006 39295 40288 52013 885// 333 00001
AAXX 01121 57902 11420 80402 10049 20049 38662 40240 52014 69931 76060 887// 333 05253
AAXX 01121 55279 32880 52007 11012 21187 35689 57008 83402 333 05403
AAXX 01121 55472 32980 01607 11016 21177 35721 57005 333 05452
AAXX 01121 55696 32680 70000 10043 21113 36349 52002 81442 333 00054
AAXX 01121 56079 32980 03602 11049 21145 36666 52013 333 05200
AAXX 01121 56106 32780 72902 10038 21205 36193 57001 86102 333 05202
AAXX 01121 56257 32680 20902 10048 21197 36275 52010 82400 333 05201
AAXX 01121 56374 32780 40701 11019 21051 37431 52030 82402 333 05352
AAXX 01121 56385 11/00 92703 11075 21078 37015 52012 69921 76664 333 05254 93430
AAXX 01121 56954 32970 02501 10183 20142 40163 52015 333 05201
AAXX 01121 56966 32775 10906 10195 20110 40142 52018 81100 333 05200
AAXX 01121 57237 11965 80203 10079 20006 40280 52020 69901 72100 8807/
AAXX 01121 57306 32962 72902 10074 20038 40278 52015 8704/
AAXX 01121 57604 31720 83402 10073 20056 40272 52019 71000 885//
AAXX 01121 57707 31450 80000 10041 20026 38529 52016 71000 886// 333 05151
AAXX 01121 57832 32663 80202 10068 20023 39514 40272 52013 885// 333 00001
AAXX 01124 42415 31596 60000 10190 20153 40158 70522 83330 333 10225 59019 83620 81930 86360
AAXX 0112/ 48969 NIL
AAXX 0112/ 48962 NIL
AAXX 0112/ 48990 NIL
AAXX 0112/ 48986 NIL
AAXX 0112/ 48995 NIL
AAXX 0112/ 48967 NIL
AAXX 0112/ 48992 NIL
AAXX 0112/ 48965 NIL
AAXX 0112/ 48985 NIL
AAXX 0112/ 48970 NIL
AAXX 0112/ 48991 NIL
AAXX 0112/ 48964 NIL
AAXX 0112/ 48997 NIL
AAXX 0112/ 48968 NIL
AAXX 0112/ 48973 NIL
AAXX 0112/ 48966 NIL
AAXX 0112/ 48983 NIL
AAXX 0112/ 48972 NIL
AAXX 0112/ 48998 NIL
AAXX 0112/ 48993 NIL
AAXX 0112/ 48971 NIL
AAXX 0112/ 48963 NIL
AAXX 0112/ 48987 NIL
AAXX 01124 71406 17/// /0618 11054 21060 30115 40125 56023 60021 7//4/ 333 11053 21062 70022
AAXX 01124 71418 46/// /0817 10035 20031 39956 49988 58023 6///1 333 10038 20013 7////
AAXX 01124 71048 16/// /2811 11116 21171 60001 333 11016 21118 70000
AAXX 01124 71981 16/// /2503 11137 21159 60001 333 10003 21144 70006
AAXX 01124 71982 16/// /2702 11157 21179 60001 333 10010 21162 70000
AAXX 01124 71986 16/// /1704 11144 21175 60001 333 11018 21144 70000
AAXX 01124 71990 17/// /0402 11227 21246 38548 40219 53002 69961 7//4/ 333 11151 21242 4/093 55/// 00000 70009
AAXX 01124 71354 16/// /2410 11160 21198 60001 333 11040 21160 70000
AAXX 01124 71981 16/// /2503 11137 21159 60001 333 10003 21144 70006
AAXX 01124 71982 16/// /2702 11157 21179 60001 333 10010 21162 70000
AAXX 01124 71986 16/// /1704 11144 21175 60001 333 11018 21144 70000
AAXX 01124 71990 17/// /0402 11227 21246 38548 40219 53002 69961 7//4/ 333 11151 21242 4/093 55/// 00000 70009
AAXX 01124 71406 17/// /0618 11054 21060 30115 40125 56023 60021 7//4/ 333 11053 21062 70022
AAXX 01124 71418 46/// /0817 10035 20031 39956 49988 58023 6///1 333 10038 20013 7////
AAXX 01124 71354 16/// /2410 11160 21198 60001 333 11040 21160 70000
AAXX 01124 71048 16/// /2811 11116 21171 60001 333 11016 21118 70000
AAXX 01124 43192 31596 72506 10300 20217 40087 70522 83432 333 10334 58001
AAXX 01124 89657 46/// /1000 11049 20004 49838 52010
AAXX 01124 89542 46/// /1006 10001 20075 49869 57017
BBXX 44029 01121 99425 70706 46/30 /2906 10057 40156 51020 91204 22200 00074 10301 70004 333 91207 555 11070 22073
BBXX 41052 01121 99183 70648 46/// /0809 10269 40186 91230 333 91211
BBXX 41052 01121 99183 70648 46/// /0809 10268 40184 91220 333 91211
BBXX 41052 01121 99183 70648 46/// /0809 10268 40184 91210 333 91211
BBXX 41053 01121 99185 70661 46/// /1204 10258 40192 91230 333 91205
BBXX 41053 01121 99185 70661 46/// /1304 10257 40191 91220 333 91206
BBXX 41053 01121 99185 70661 46/// /1304 10254 40189 91210 333 91206
BBXX 42085 01121 99179 70665 46/// /0707 10249 40190 91230 333 91211
BBXX 42085 01121 99179 70665 46/// /0809 10258 40188 91220 333 91213
BBXX 42085 01121 99179 70665 46/// /0807 10255 40187 91210 333 91208
BBXX 42023 01121 99261 70831 46/// /0504 1//// 91230 333 91205
BBXX 42023 01121 99261 70831 46/// /0504 1//// 91200 333 91205
BBXX 42360 01121 99267 70905 46/// /1702 10230 91200 22200 00245 10401 70004 333 91203
BBXX 44056 01121 99362 70757 46/// ///// 1//// 91150 22200 00122 11001 21001 70003
BBXX ZCDY2 01124 99202 70680 41598 32626 10260 20212 40242 53015 70200 82260 22234 00260 20304 3//// 4//// 5////
BBXX ZCDF4 01123 99153 70723 41698 40738 10270 20241 40172 51000 70222 84900 22274 00270 20602 309// 41003 5//// 80250
AAXX 01124 87257 32965 00509 10256 20155 30041 40142 52031 333 10293 20192
BBXX 44024 01121 99423 70659 46/28 /3113 10062 40106 53042 91204 22200 00081 10606 70028 333 91215 555 11160 22170
BBXX VRJI2 01123 99161 70263 41596 80519 10220 2014/ 40170 54000 7//22 87627 22253 00220 21004 30505 41504 51503 6//// 80170
BBXX A8VL8 01124 99209 11108 41/// /1014 10200 20161 40210 51010 7//// 8//// 22200 0//// 20202 31010 4//// 50202 6//// 80175 ICE /////
BBXX WHKM 01124 99138 30887 41298 41909 10330 20264 40088 52012 7//11 838/1 22233 0//// 20101 399// 40503 5//// 6//// 80280 ICE /////
AAXX 01124 83384 21597 63202 10254 20230 39531 40106 70352 84490 333 20222 59021 60154
AAXX 01124 83386 21498 80503 10261 20227 39577 40102 70252 8479/ 333 20221 59009 60014
AAXX 01124 83388 32497 80000 10244 20211 39444 40107 8551/ 333 20223 59002
AAXX 01124 83442 22597 70502 10252 20231 39758 40106 878// 333 20217 59006 60034
AAXX 01124 83479 21598 83204 10242 20199 39323 40115 72096 885// 333 20198 59013 60224
AAXX 01124 83483 21498 80503 10233 20222 39545 40105 70266 8672/ 333 20213 59020 60204
AAXX 01124 83531 21597 83205 10204 20194 39067 40095 76162 8652/ 333 20191 59002 60104
AAXX 01124 83538 21292 83603 10181 20178 38698 40081 76362 886// 333 20170 59016 60264
AAXX 01124 83574 21794 80904 10234 20217 39562 40169 5//// 76366 88600 333 20214 60184
AAXX 01124 83582 21597 83602 10224 20214 39327 40088 52010 76362 88600 333 20200 60064
AAXX 01124 83595 32597 80902 10260 20231 30057 40134 855// 333 20230 59017
AAXX 01124 83687 21697 83608 10214 20195 39065 40061 53002 70262 887// 333 20196 60694
AAXX 01124 83692 21698 83610 10202 20195 39036 40059 54000 72162 882// 333 20195 60204
AAXX 01124 83695 21695 80000 10244 20239 39960 40096 54000 75165 887// 333 20235 60104
AAXX 01124 83718 21492 80000 10222 20208 39524 40088 51008 76066 887// 333 20221 60584
AAXX 01124 82392 32499 33604 10286 20209 30016 40118 83400 333 20231 58008
AAXX 01124 82583 32599 80909 10275 20202 39786 40120 888// 333 20243 58009
AAXX 01124 82594 32697 50907 10280 20220 30123 40131 82413 333 20230 58012
AAXX 01124 82683 32595 60506 10278 20188 39685 40133 86400 333 20233 58006
AAXX 01124 82780 32598 33604 10302 20204 39894 40144 83100 333 20245 58006
AAXX 01124 82789 32599 10510 10222 20178 38946 40036 81100 333 20177 58001
AAXX 01124 82795 32597 40909 10251 20191 39526 40140 84100 333 20213 59002
AAXX 01124 82879 21598 50505 10262 20229 39860 40124 70162 85500 333 20240 58008 60074
AAXX 01124 83811 22597 71402 10210 20174 39190 40079 55006 84590 333 20178 60054
AAXX 01124 83844 21596 814// 10234 20193 30072 40079 52013 75065 8572/ 333 20199 60104
AAXX 01124 83887 22597 70510 10188 20160 39056 40098 52015 87500 333 20140 60034
AAXX 01124 83907 22497 10906 10226 20173 39826 40105 51012 81500 333 20168 69904
AAXX 01124 83914 21596 60907 10212 20172 39328 40089 52010 71091 86200 333 20148 60114
AAXX 01124 83919 21596 60909 10178 20143 38945 40120 52012 71565 83820 333 20128 60094
AAXX 01124 83927 21597 81406 10193 20166 30034 40106 52009 70262 885// 333 20173 60044
AAXX 01124 83936 32497 51406 10230 20161 39991 40111 51008 85200 333 20188
AAXX 01124 83948 21496 70000 10209 20189 30112 40118 51013 71022 87300 333 20181 60234
AAXX 01124 83964 21596 61402 10192 20175 39632 40121 52024 75022 86700 333 20160 60064
AAXX 01124 83995 21697 60912 10218 20182 30138 40141 53010 70165 86400 333 20185 60164
BBXX MLJA8 01123 99253 10566 41998 01504 10250 20170 40173 54000 7//00 80000 22200 04250 20000 31600 40301 5//// 80200
BBXX SHIP 01124 99281 11273 41597 33527 10150 20096 40286 50003 70122 8266/ 22244 00229 80120
BBXX UFLT 01121 99543 11478 42/98 11406 11030 40190 58002 81/// 22253 00000 20501 314 40501
BBXX V7QN8 01123 99107 11204 41297 40609 10270 2020/ 40120 57/// 70322 84886 22243 04280 20602 306// 40602 5//// 6//// 80220 ICE /////
BBXX A8VL8 01124 99209 11108 41/// /1014 10200 20161 40210 51010 7//// 8//// 22200 0//// 20202 31010 4//// 50202 6//// 80175 ICE /////
BBXX 2BLY5 01123 99036 50381 41698 30916 10300 20235 40134 54000 7//11 8/1// 22274 00285 20402 30000 80255
BBXX WHKM 01124 99138 30887 41298 41909 10330 20264 40088 52012 7//11 838/1 22233 0//// 20101 399// 40503 5//// 6//// 80280 ICE /////
BBXX 44056 01121 99362 70757 46/// ///// 1//// 91150 22200 00122 11001 21001 70003
BBXX 42360 01121 99267 70905 46/// /1702 10230 91200 22200 00245 10401 70004 333 91203
BBXX 42023 01121 99261 70831 46/// /0504 1//// 91200 333 91205
BBXX 42023 01121 99261 70831 46/// /0504 1//// 91230 333 91205
BBXX 42085 01121 99179 70665 46/// /0707 10249 40190 91230 333 91211
BBXX 41053 01121 99185 70661 46/// /1304 10254 40189 91210 333 91206
BBXX 41053 01121 99185 70661 46/// /1304 10257 40191 91220 333 91206
BBXX 41052 01121 99183 70648 46/// /0809 10268 40184 91210 333 91211
BBXX 41052 01121 99183 70648 46/// /0809 10268 40184 91220 333 91211
BBXX 42085 01121 99179 70665 46/// /0807 10255 40187 91210 333 91208
BBXX 41053 01121 99185 70661 46/// /1204 10258 40192 91230 333 91205
BBXX 41052 01121 99183 70648 46/// /0809 10269 40186 91230 333 91211
BBXX 42085 01121 99179 70665 46/// /0809 10258 40188 91220 333 91213
BBXX 44029 01121 99425 70706 46/30 /2906 10057 40156 51020 91204 22200 00074 10301 70004 333 91207 555 11070 22073
BBXX SHIP 01124 99424 71666 41/95 /1251 10040 20040 40954 54027 72126 8//// 91150 22223 00100 2//// 3//// 4//// 5//// 80040
BBXX 41033 01121 99323 70804 46/// /2501 1//// 40233 53011 91200 555 11010 22010
BBXX WDF9323 01123 99191 71531 41/98 40605 10230 2020/ 40130 56020 701// 8//// 22234 0//// 21001 310// 41404 5//// 6//// 80210 ICE /////
BBXX C6CN4 01121 99108 70633 41697 20905 10256 20202 40173 52020 7//00 8/300 22264 04210 20402 3//// 4//// 5////
BBXX KS094 01124 99179 70629 43/// /0912 10262 40199 22200 06255
BBXX KS098 01124 99445 71242 43/// /0919 10094 40204 22252 06000
BBXX KS088 01124 99267 70801 43/// /0701 10173 40234 22200 06226
BBXX 44138 01121 99443 70536 46/// /1709 10119 40006 57072 22200 00092 10806 70031 333 91211
BBXX 51205 01121 99210 71564 46/// ///// 1//// 91218 22200 00241 11003 21003 309// 41102 70016
BBXX 46238 01121 99334 71195 46/// ///// 1//// 91220 22200 00138 11404 21002 329// 41403 70018
BBXX 46239 01121 99363 71221 46/// ///// 1//// 91221 22200 00119 11305 20903 330// 41304 70026
BBXX 44022 01121 99409 70737 46/// ///03 10068 20041 40195 91230 22200 00069 333 91204 555 11031 22031
BBXX 44060 01121 99413 70721 46/// ///05 10074 40192 91230 22200 00092 333 91206 555 11051 22057
BBXX 44040 01121 99410 70736 46/// /2604 10069 20052 40201 91219 22200 1//00 70000 333 91204 555 11046 22057
BBXX 46219 01121 99332 71199 46/// ///// 1//// 91228 22200 00137 11304 21003 329// 41303 70022
BBXX 46224 01121 99332 71175 46/// ///// 1//// 91206 22200 00145 11402 20901 322// 41401 70008
BBXX 46214 01121 99379 71235 46/// ///// 1//// 91220 22200 00118 11105 20903 330// 41104 70024
BBXX 41112 01121 99307 70813 46/// ///// 1//// 91221 22200 00166 10901 20901 70003
BBXX 42361 01121 99276 70925 46/// ///03 10222 20206 40234 53024 91230 555 11022 22023
BBXX 41113 01121 99284 70805 46/// ///// 1//// 91221 22200 00213 10901 70003
BBXX 42099 01121 99273 70842 46/// ///// 1//// 91227 22200 00223 10501 20501 70003
BBXX 42364 01121 99291 70881 46/// /2305 10211 20178 40244 91230
BBXX 44100 01121 99363 70756 46/// ///// 1//// 91222 22200 00122 10801 20801 70004
BBXX 41110 01121 99341 70777 46/// ///// 1//// 91221 22200 00133 10601 20601 70005
BBXX 41009 01121 99285 70802 46/// /3103 10216 20182 40248 91220 22200 00234 10901 300// 40901 70004 333 91204 555 11033 22034
BBXX 42362 01121 99278 70907 46/// /2304 10222 20194 40244 91230
BBXX 41010 01121 99289 70785 46/// /0000 10216 40245 91220 22200 00236 10501 20401 300// 40501 70007 333 91201 555 11002 22002
BBXX 42363 01121 99282 70892 46/// /2205 10222 20172 40244 91230 333 91205
BBXX MYSU5 01124 99446 70183 41597 42924 10115 20062 40183 51029 70111 84400 22253 00140 20405 304// 40510 5//// 80090
AAXX 01124 83566 21230 80212 10183 20176 39190 48500 76164 8572/ 333 20176 59025 60314
AAXX 01124 83766 21597 62302 10238 20207 39426 40058 5//// 70152 84201 333 20200 60014
AAXX 01124 83836 21497 80904 10193 20170 39112 40073 53009 70362 885// 333 20169 60314
AAXX 01124 83881 21496 43204 10206 20178 39787 40068 51008 71041 84200 333 20164 60014
AAXX 01124 83980 22597 41410 10202 20154 39848 40127 51012 84200 333 20165 69904
AAXX 01124 83997 32497 40916 10230 20151 30139 40182 51016 84200 333 20188
AAXX 01124 82863 21498 80904 10264 20237 39903 40114 70295 888// 333 20228 59008 60334
AAXX 01124 83228 21599 80901 10245 20228 39844 40119 70262 885// 333 20234 58003 60054
AAXX 01124 83368 21698 70000 10253 20226 39738 40103 70362 86204 333 20222 59008 60074
AAXX 01124 83374 21597 82704 10226 20221 39544 40115 72165 885// 333 20212 59014 60264
AAXX 01124 83526 21498 83203 10215 20199 39158 40090 70362 885// 333 20198 59020 60094
AAXX 01120 44354 119// 62905 11169 21195 39130 40330 52006 69942 77372 86070 333 11140 96036
AAXX 01121 47003 32980 03605 11078 21151 30260 40264 52013 333 11049
AAXX 01121 47005 12980 00501 11220 21238 38610 52012 69902 333 11107
AAXX 01121 47022 32975 00000 11150 21177 38839 52016 333 11066
AAXX 01121 47028 32962 03602 11080 21154 30205 40305 52017 333 11047
AAXX 01121 47031 12970 00000 11145 21165 38937 52012 69922 333 11094
AAXX 01121 47037 32970 03203 11076 21174 30155 40286 52013 333 11045
AAXX 01121 47039 12960 40000 11074 21128 30078 40279 52004 69902 80001 333 11023
AAXX 01121 47046 11550 80000 11011 21040 30213 40236 52019 60012 71022 885// 333 10012
AAXX 01121 47050 12965 00000 11082 21145 30242 40278 52021 69912 333 11040
AAXX 01121 47052 32565 80000 11094 21119 39915 40273 52019 885// 333 11040
AAXX 01121 47060 12960 03602 11075 21097 30215 40276 52010 69902 333 11047
AAXX 01121 47061 32670 83202 11007 21049 30183 40228 52010 84530 333 10046
AAXX 01121 47065 31950 00000 11086 21110 30218 40287 52021 71020 333 11040
AAXX 01121 47067 31560 03201 11062 21089 30165 40291 52009 71020 333 11040
AAXX 01121 47068 12560 60000 11053 21103 30234 40271 52009 69902 86500 333 11033
AAXX 01121 47070 32970 43207 11057 21083 30182 40274 52013 84030 333 11002
AAXX 01121 47075 12980 02301 11108 21128 39750 40204 52021 69922 333 11031
AAXX 01121 47008 32970 03201 11052 21132 30193 40249 52007 333 10003
AAXX 01121 47014 32950 20901 11138 21198 39871 40302 52013 82040 333 11069
AAXX 01121 47016 12970 00000 11149 21191 39389 40306 52017 69902 333 11070
AAXX 01121 47020 32965 60000 11108 21144 39906 40277 52012 86030 333 11054
AAXX 01121 47025 12560 40000 11053 21078 30208 40238 52007 69932 84500 333 10019
AAXX 01121 47035 32970 03602 11094 21179 30296 40305 52009 333 11045
AAXX 01121 47041 11560 00000 11082 21088 30211 40239 52014 60022 71044 333 11008
AAXX 01121 47055 32965 21801 11015 21067 30205 40252 52014 82030 333 10015
AAXX 01121 47058 12960 83202 11078 21128 30238 40288 52015 69902 80002 333 11052
AAXX 01121 47069 11956 03208 11054 21109 30169 40274 52009 69902 71000 333 11013
BBXX 46145 01121 99544 71324 46/// /1518 10056 40056 57023 22200 00068 10807 70036 333 91222
BBXX 46208 01121 99525 71327 46/// /1418 10072 40040 57016 22200 00073 11214 70072 333 91223
BBXX 46208 01121 99525 71327 46/// /1418 10072 40040 57016 22200 00073 11214 70072 333 91223
BBXX 46145 01121 99544 71324 46/// /1518 10056 40056 57023 22200 00068 10807 70036 333 91222
AAXX 01124 71140 11974 03123 11071 21104 39708 40221 5/042 69901 73674 333 11020 21072 48005 70000
AAXX 01124 47604 11/60 81703 10043 20028 30143 40152 58013 60022 78082 882// 333 10060
AAXX 01121 38933 41997 00000 10046 21021 39720 40243 53005 70240
AAXX 01124 71140 11974 03123 11071 21104 39708 40221 5/042 69901 73674 333 11020 21072 48005 70000
AAXX 01124 71140 11974 03123 11071 21104 39708 40221 5/042 69901 73674 333 11020 21072 48005 70000
AAXX 01121 14648 NIL
AAXX 01121 14652 NIL
AAXX 01121 14542 NIL
AAXX 01121 14528 NIL
AAXX 01121 14537 NIL
AAXX 01121 14544 NIL
AAXX 01121 14557 NIL
AAXX 01121 14640 NIL
AAXX 01121 45032 36/// /1003 10151 20117 30208 40225 54000
AAXX 01121 45035 36/// /0903 10163 20113 30180 40222 52001
AAXX 01121 45039 36/// /0602 10156 20128 30208 40223 54000
AAXX 01121 45044 36/// /0906 10156 20124 30126 40222 52001
AAXX 01121 45032 36/// /1003 10151 20117 30208 40225 54000
AAXX 01121 45035 36/// /0903 10163 20113 30180 40222 52001
AAXX 01121 45039 36/// /0602 10156 20128 30208 40223 54000
AAXX 01121 45044 36/// /0906 10156 20124 30126 40222 52001
BBXX MNDC9 01124 99334 11403 41/98 41603 10150 20092 40156 57017 71300 8//// 22283 04200 20301 80120
BBXX UDWE 01121 99454 11385 42/96 93414 11032 40181 57007 22213 89/// 00032 20402
BBXX UFLT 01121 99543 11478 42/98 11406 11030 40190 58002 81/// 22253 00000 20501 314 40501
AAXX 01124 87909 32580 22013 10134 20029 30061 40136 52037 81130 333 10188 20089 56500 81825
AAXX 01124 89625 46/// /2703 11230 29072 36491 4//// 5//// 91200
AAXX 01124 89646 46/// /0106 11171 29085 37602 4//// 5////
AAXX 01124 89648 46/// /2409 11191 29069 37165 4//// 5////
AAXX 01124 89659 46/// /3007 11181 29076 37650 4//// 5////
AAXX 01124 89661 46/// /2602 11016 29038 39190 4//// 5////
AAXX 01124 89662 42980 01612 10031 21055 39699 49803 52008 222 ICE 98012
AAXX 01124 89666 46/// /1408 11047 29096 39636 4//// 5////
AAXX 01124 16400 12998 01804 10154 20095 39949 40238 50002 60001 333 55310 555 0214/
AAXX 01124 71848 16/// ///// 11141 21157 60001 333 11002 21158 70021
AAXX 01124 71565 16/// /2903 11231 21253 60001 333 11024 21240 4/001 70000
AAXX 01124 71566 16/// /2204 11171 21217 60001 333 11031 21171 70000
AAXX 01124 71567 16/// /2506 11160 21190 60001 333 11036 21160 70000
AAXX 01124 71073 16/// /1803 11125 21138 60001 333 11023 21138 70000
AAXX 01124 71399 17/// ///// 11160 21195 69941 7//4/ 333 11029 21175 70004
AAXX 01124 71974 46/// /1404 11369 21404 30259 40305 53008 6///1 333 11298 21371 7////
AAXX 01124 71013 16/// ///// 11162 21194 60001 333 11019 7////
AAXX 01124 71060 16/// /2603 11211 21233 38736 40384 58005 60001 333 11019 21233 4/013 70000
AAXX 01124 71495 16/// /1902 11134 21187 60001 333 11009 21166 70000
AAXX 01124 71793 16/// ///// 11164 21198 60001 333 11025 21164 70000
AAXX 01124 71848 16/// ///// 11141 21157 60001 333 11002 21158 70021
BBXX 46241 01121 99330 71173 46/// ///// 1//// 91211 22200 00144 11301 20901 326// 41301 70007
BBXX 46004 01121 99509 71361 46/// /1414 10079 49927 57027 22200 00072 11011 70054 333 91218
BBXX 46036 01121 99484 71339 46/// /1512 10095 49968 57039 22200 00078 11008 70038 333 91215
BBXX 46145 01121 99544 71324 46/// /1518 10056 40056 57023 22200 00068 10807 70036 333 91222
BBXX 46208 01121 99525 71327 46/// /1418 10072 40040 57016 22200 00073 11214 70072 333 91223
BBXX A8CN9 01120 99532 71437 41598 50702 10050 20003 49830 57/// 70362 83470 22263 21006 31515 41006 50905 80030
BBXX A8PX5 01124 99367 71444 41/97 /1120 10120 20083 40020 52/// 70322 8//// 22224 04160 20710 327// 40708 5//// 80100
BBXX KGTY 01124 99517 71313 43/// /1435 10072 20050 4//// 5//// 7//// 8//// 22211 0//// 2//// 3//// 4//// 5//// 6//// 80061 ICE /////
BBXX KS098 01124 99445 71242 43/// /0919 10094 40204 22252 06000
BBXX SHIP 01124 99535 71445 41/98 83319 10045 20015 49845 57035 7//22 8//// 22264 00050 2//// 80264
BBXX VRCI9 01124 99390 71255 41/98 /1111 10140 20105 40180 58030 70200 8//// 22275 00119 2//// 3//// 4//// 80120
BBXX WAHG 01124 99529 71344 41596 81642 10065 2//// 40005 56047 70222 886// 22275 0//// 20705 317// 41104 5//// 6//// ICE /////
BBXX 46216 01121 99343 71198 46/// ///// 1//// 91227 22200 00143 11302 21001 326// 41302 70012
BBXX 46223 01121 99335 71178 46/// ///// 1//// 91230 22200 00151 11402 20801 326// 41401 70009
BBXX 46231 01121 99327 71174 46/// ///// 1//// 91224 22200 00147 11303 21001 328// 41302 70013
BBXX 46222 01121 99336 71183 46/// ///// 1//// 91226 22200 00147 11302 20901 327// 41302 70011
BBXX 46242 01121 99332 71174 46/// ///// 1//// 91228 22200 00145 11301 21001 323// 41301 70007
AAXX 01121 20069 31958 22610 11114 21148 30169 40182 58004 73830 82030 333 11113 91115
AAXX 01121 20292 31998 20506 11204 21229 30121 40141 52021 73630 82030 333 11164 91113
AAXX 01121 20046 41996 82416 11095 21102 30082 40115 58026 73832 8803/ 333 91120
AAXX 01121 10513 01582 72203 10130 20117 39999 40118 58006 60021 70162 8653/ 333 32/// 55300 20281 30281 69997 84624 86648
BBXX 44039 01121 99411 70727 46/// /2506 10078 20061 40201 91230 22200 00083 1//00 70002 333 91207
AAXX 01124 97240 31457 80000 10250 20241 39982 40096 52017 70522 84131 333 10316 56000 59004 84816
AAXX 01124 96145 32440 63606 10270 20241 30106 40109 53011 86810 333 10304 56800 57882 58000 82616 84817 80857
AAXX 01124 96935 31460 81803 10265 20244 30098 40104 52033 71522 85973 333 10305 56000 57902 58002 84813 81920 86080 80980
BBXX MINFR03 0112/ 99252 10549 46/// ///// 10245 40164 57015
BBXX FLAO 0112/ 99764 70847 46/// ///// 11308 40096 52002
AAXX 01121 31512 329// 00000 11252 21284 30132 40318 58004 333 11177
AAXX 01124 89507 46/89 /1305 29064 36886 4//// 5////
BBXX 63055 01124 99606 10016 47998 /2516 10083 20035 49851 56001 700// 22200 10605 70025
BBXX 63106 01124 99610 10017 46/// /2217 10076 49841 57003 22200
BBXX 63113 01124 99610 10017 46/// /2416 10076 20035 49845 58004 22200 10706 70031
BBXX 62305 01124 99504 10000 46/// /2219 10120 20120 40087 58020 22200 01273 10602 70009 333 90710 91128
BBXX 62103 01124 99499 70029 46/97 /2123 10124 20118 40050 58033 22200 00118 10804 70018 333 90710 91129
BBXX VSXC9 01124 99341 70258 41398 53218 10180 20148 40360 53020 70222 85161 22264 00200 20602 334// 41204 80160
AAXX 01124 78767 11565 72302 10208 20189 30140 40150 51021 69942 715// 84570 333 10277 20203 31/// 56000 58000 70022 84625 83358
AAXX 01124 78767 11565 72302 10208 20189 30140 40150 51021 69942 715// 84570 333 10277 20203 31/// 56000 58000 70022 84625 83358
AAXX 01124 78767 11565 72302 10208 20189 30140 40150 51021 69942 715// 84570 333 10277 20203 31/// 56000 58000 70022 84625 83358
AAXX 01124 89807 46/// /1913 11002 29090 39729 4//// 5//// 91230 333 90700 91117
AAXX 01121 11933 11/10 79902 11038 21055 38634 48449 55003 69911 78571 878// 333 828// 85803 444 28//5
AAXX 01124 89610 46/// /0417 11019 39606 4//// 5//// 333 90700 91121
AAXX 01124 89610 46/// /0417 11019 39606 4//// 5//// 333 90700 91121
AAXX 01124 89807 46/// /1913 11002 29090 39729 4//// 5//// 91230 333 90700 91117
AAXX 01124 89610 46/// /0417 11019 39606 4//// 5//// 333 90700 91121
BBXX VRDB3 01124 99043 11364 41498 40720 10290 20263 40091 56010 70222 84/// 22235 00280 2//// 3//// 4//// 80270
BBXX VRCI9 01124 99390 71255 41/98 /1111 10140 20105 40180 58030 70200 8//// 22275 00119 2//// 3//// 4//// 80120
BBXX VRCI9 01124 99390 71255 41/98 /1111 10140 20105 40180 58030 70200 8//// 22275 00119 2//// 3//// 4//// 80120
BBXX VRDB3 01124 99043 11364 41498 40720 10290 20263 40091 56010 70222 84/// 22235 00280 2//// 3//// 4//// 80270
BBXX 4XFV 01123 99383 71665 41397 81740 10130 20110 49950 57080 76465 22224 80120
BBXX 9VVN 01124 99546 71524 41/97 /0525 10010 21020 40175 52020 79577 8//// 22264 04040 2//// 3//// 4//// 5//// 63110 80000
BBXX A8EY7 01123 99423 71700 41/95 81234 10070 20049 49850 57050 76466 8//// 22223 2//12 3//// 4//// 5//// 80060
BBXX DDAC2 01120 99507 71510 41/96 /3614 10010 21016 49980 53000 7//66 8/720 22272 04060 2//// 316// 4//10 5//// 80000
BBXX KGTZ 01124 99537 71542 41598 43527 11039 2//// 40076 57027 70211 8455/ 22224 00044 2//// 3//// 4//// 5//// 6//// ICE /////
BBXX SHIP 01124 99424 71666 41/95 /1251 10040 20040 40954 54027 72126 8//// 91150 22223 00100 2//// 3//// 4//// 5//// 80040
BBXX WCX8812 01124 99446 11514 41697 72208 10030 21050 40236 5//// 70222 8762/ 22253 00030 20402 309// 40908 5//// 6//// 80000 ICE /////
BBXX WCX8882 01124 99409 11540 41497 60909 10070 20030 40249 51004 7//22 866// 22214 00100 20504 309// 40608 5//// 6//// 80050 ICE /////
BBXX WECH 01123 99310 11654 43498 33124 10178 20120 40215 5//// 7//// 83/// 22225 00212 2//// 3//// 4//// 5//// 6//// 80144 ICE /////
BBXX 46221 01121 99339 71186 46/// ///// 1//// 91215 22200 00148 11502 20901 327// 41502 70009
AAXX 01124 42189 31595 20000 10212 20136 40155 70500 82500 333 10244 59006 82625
AAXX 01124 42379 31595 10000 10196 20145 40172 70500 81500 333 10256 59004 81625
AAXX 01124 43086 21596 80000 10246 20225 39937 40115 70262 8457/ 333 10250 59012 6001/
AAXX 01124 43128 32597 71405 10252 20205 39499 40100 84630 333 10285 59014 84620 86360
AAXX 01124 43150 32596 60505 10260 20215 30050 40125 82560 222// 20000 333 10300 59017 82620 85360
AAXX 01124 43185 21596 80703 10252 20228 30111 40115 70262 8452/ 333 10268 59006 6004/ 84620 88460
AAXX 01124 43189 32597 70502 10270 20216 30111 40120 82531 333 10309 59016
AAXX 01124 43198 32496 72305 10264 20172 39262 40071 82531 333 10305 56599 59006 82615 86358
AAXX 01124 43201 32397 60906 10298 20142 39359 40059 86432 333 10320 56299 59017 80708 83615 85358
AAXX 01124 43213 32597 50903 10290 20169 39778 40091 82878 333 10311 59009
AAXX 01124 43226 32497 52702 10290 20212 30061 40090 83530 333 10330 58000
AAXX 01124 43233 32897 60000 10292 20107 39276 40062 86050 333 10318 59015
AAXX 01124 43237 32597 40910 10310 20160 39692 40075 81530 333 10328 56220 59020 81620 84360
AAXX 01124 43245 21597 40000 10252 20237 30078 40104 70161 81532 333 10279 59011 6009/
AAXX 01124 43279 22597 70903 10270 20232 30091 40108 82432 333 10298 59011 6007/ 82620 83360 86075
AAXX 01124 43284 32496 72306 10284 20202 39967 40081 83870 333 10330 59002 83615 85358
AAXX 01124 43295 32497 20903 10254 20144 39803 48500 82501 333 10285 59015 81615
AAXX 01124 43311 21496 70906 10272 20256 40066 70265 83470 333 10317 56299 59010 6014/ 82618 85456
AAXX 01124 43314 32597 20000 10314 20263 40085 82400 333 10344 59004
AAXX 01124 43321 32497 20906 10282 20143 39653 40093 81501 333 10299 59013
AAXX 01124 43329 32597 40502 10280 20252 30086 40099 82431 333 10314 59009
AAXX 01124 43344 32597 30705 10292 20208 30097 40096 83500 333 10315 59009 83620
AAXX 01124 43346 32597 20705 10270 20241 30088 40095 81501 333 10293 59010 81620
AAXX 01124 43353 32996 22305 10292 20224 40089 80001 333 56009 59015 82072
AAXX 01124 43369 32496 81809 10264 20242 40082 8482/ 333 10295 56499 58003 83618 88460
AAXX 01124 43371 32597 29902 10300 20207 30009 40081 81101 333 10325 59013 81820
AAXX 01124 17270 11658 80000 10068 20058 39515 40172 57014 69981 71062 85520 333 85635 88459
AAXX 01124 71502 16/// /1409 11294 21318 30183 40200 56002 60001 333 11229 21295 7////
AAXX 01124 71509 16/// /2103 11135 21143 60001 333 10024 21143 70000
AAXX 01124 71517 16/// /0000 11136 21147 60001 333 10023 21155 70000
AAXX 01124 71518 16/// /2202 11150 21159 60001 333 10002 21154 70004
AAXX 01124 71519 46/// /1703 11148 21157 6///1 333 10008 7////
AAXX 01124 71528 47/// /2103 11124 21131 6///1 7//4/ 333 10010 21146 7////
AAXX 01124 71433 46/// /1819 10023 20019 39762 49990 56034 6///1 333 10027 20018 7////
AAXX 01124 71409 16/// ///// 11150 21161 60001 333 10021 21157 70000
AAXX 01124 71006 16/// /2507 11139 21186 60001 333 11027 21149 70000
AAXX 01124 71007 17/// ///// 11121 21136 69951 7//4/ 333 10000 21129 7////
AAXX 01124 71008 16/// /2903 11155 21172 60001 333 11012 21156 70000
AAXX 01124 71009 16/// /0000 11209 21223 60001 333 11028 21226 70000
AAXX 01124 71012 16/// /2508 11167 21203 60001 333 11035 21168 70000
AAXX 01124 71035 16/// ///// 11206 21228 60001 333 11025 21222 70000
AAXX 01124 71102 16/// ///// 11172 21204 60001 333 11043 21172 7////
AAXX 01124 71105 17/// ///// 11192 21213 69941 7//4/ 333 10006 21198 70008
AAXX 01124 71841 16/// /2905 11026 21037 39618 40014 55004 60001 333 11019 21026 4/024 70006 555 10020
AAXX 01124 71789 16/// ///// 11103 21113 60001 333 10019 21125 70000
AAXX 01124 71791 16/// /3003 11165 21199 60001 333 11037 21165 70000
AAXX 01124 71794 16/// ///// 11170 21205 60001 333 11034 21174 70000
AAXX 01124 71795 16/// ///// 11138 21165 60001 333 10004 21167 70011
AAXX 01124 71796 16/// ///// 11175 21209 60001 333 11033 21175 70000
AAXX 01124 71797 16/// ///// 11150 21181 60001 333 11044 21156 70000
AAXX 01124 71051 16/// ///// 11179 21197 60001 333 10001 21180 70000
AAXX 01124 71057 16/// ///// 11123 21137 60001 333 11010 21132 70004
AAXX 01124 71070 16/// ///// 11131 21147 60001 333 10026 21133 70000
AAXX 01124 71089 16/// ///// 11161 21197 60001 333 11031 21165 70000
AAXX 01124 71502 16/// /1409 11294 21318 30183 40200 56002 60001 333 11229 21295 7////
AAXX 01124 71509 16/// /2103 11135 21143 60001 333 10024 21143 70000
AAXX 01124 71517 16/// /0000 11136 21147 60001 333 10023 21155 70000
AAXX 01124 71518 16/// /2202 11150 21159 60001 333 10002 21154 70004
AAXX 01124 71519 46/// /1703 11148 21157 6///1 333 10008 7////
AAXX 01124 71528 47/// /2103 11124 21131 6///1 7//4/ 333 10010 21146 7////
AAXX 01124 71789 16/// ///// 11103 21113 60001 333 10019 21125 70000
AAXX 01124 71791 16/// /3003 11165 21199 60001 333 11037 21165 70000
AAXX 01124 71794 16/// ///// 11170 21205 60001 333 11034 21174 70000
AAXX 01124 71795 16/// ///// 11138 21165 60001 333 10004 21167 70011
AAXX 01124 71796 16/// ///// 11175 21209 60001 333 11033 21175 70000
AAXX 01124 71797 16/// ///// 11150 21181 60001 333 11044 21156 70000
AAXX 01124 71051 16/// ///// 11179 21197 60001 333 10001 21180 70000
AAXX 01124 71057 16/// ///// 11123 21137 60001 333 11010 21132 70004
AAXX 01124 71070 16/// ///// 11131 21147 60001 333 10026 21133 70000
AAXX 01124 71089 16/// ///// 11161 21197 60001 333 11031 21165 70000
AAXX 01124 71102 16/// ///// 11172 21204 60001 333 11043 21172 7////
AAXX 01124 71105 17/// ///// 11192 21213 69941 7//4/ 333 10006 21198 70008
AAXX 01124 71006 16/// /2507 11139 21186 60001 333 11027 21149 70000
AAXX 01124 71007 17/// ///// 11121 21136 69951 7//4/ 333 10000 21129 7////
AAXX 01124 71008 16/// /2903 11155 21172 60001 333 11012 21156 70000
AAXX 01124 71009 16/// /0000 11209 21223 60001 333 11028 21226 70000
AAXX 01124 71012 16/// /2508 11167 21203 60001 333 11035 21168 70000
AAXX 01124 71035 16/// ///// 11206 21228 60001 333 11025 21222 70000
AAXX 01124 71841 16/// /2905 11026 21037 39618 40014 55004 60001 333 11019 21026 4/024 70006 555 10020
AAXX 01124 71409 16/// ///// 11150 21161 60001 333 10021 21157 70000
AAXX 01124 71433 46/// /1819 10023 20019 39762 49990 56034 6///1 333 10027 20018 7////
AAXX 01124 89667 46/// /0904 11074 39829 4//// 5//// 91230
AAXX 0112/ 89866 46/// ///// 11029 39719 4//// 5//// 91230
AAXX 0112/ 89879 46/// ///// 11013 39741 4//// 5//// 91230
AAXX 0112/ 89872 46/// ///// 11055 39780 4//// 5//// 91230
AAXX 0112/ 89329 46/// ///// 11121 38708 4//// 5//// 91230
AAXX 0112/ 89332 46/// ///// 11076 4//// 5//// 91230
AAXX 0112/ 89332 46/// ///// 11076 39196 4//// 5////
AAXX 0112/ 89314 46/// ///// 11120 38205 4//// 5//// 91230
AAXX 0112/ 89314 46/// ///// 11121 38204 4//// 5////
AAXX 0112/ 89108 46/// ///// 11221 36980 4//// 5//// 91210
AAXX 0112/ 89799 46/// ///// 11243 4//// 5////
AAXX 0112/ 89869 46/// ///// 11058 39779 4//// 5//// 91230
BBXX VRFH2 01123 99412 11552 41297 63222 10070 20030 40220 52020 7//22 86244 22214 00050 20805 33232 40805 5//// 80050
BBXX MGRX9 01124 99265 31127 41/98 /1732 10232 20198 40104 57011 70300 8/54/ 22283 00/// 20602 324// 40403 80210
BBXX DDSX2 01124 99062 10786 41998 00906 10265 20179 40094 52005 70200 80000 22234 00302 20201 318// 40701 80207
BBXX 9MSW7 01124 99159 11193 41698 80118 10275 20239 40100 56001 70312 88/// 22254 00290 20306 316// 40307 80252
BBXX 9VBS 01124 99221 11142 41/98 90707 10190 20159 40220 51011 70200 89670 22200 00/// 20101 323// 40101 80170
BBXX V7SY6 01124 99199 11193 41797 70425 10240 20196 40250 54000 71422 87771 22213 00200 21010 30505 41010 51010 80210
BBXX VRWE8 01123 99221 11142 41998 00716 10180 20148 40220 54000 70200 80000 22200 00170 2//// 80160
BBXX A8IY8 01124 99123 10747 41397 71814 10279 20212 40084 57006 70322 8677/ 22275 00280 20502 80232
BBXX WDE8264 01123 99056 10859 41298 20402 10270 20243 40115 51005 70200 8113/ 22264 00290 20202 80250
BBXX VRFH2 01123 99412 11552 41297 63222 10070 20030 40220 52020 7//22 86244 22214 00050 20805 33232 40805 5//// 80050
BBXX MGRX9 01124 99265 31127 41/98 /1732 10232 20198 40104 57011 70300 8/54/ 22283 00/// 20602 324// 40403 80210
BBXX DDSX2 01124 99062 10786 41998 00906 10265 20179 40094 52005 70200 80000 22234 00302 20201 318// 40701 80207
BBXX 9MSW7 01124 99159 11193 41698 80118 10275 20239 40100 56001 70312 88/// 22254 00290 20306 316// 40307 80252
BBXX 9VBS 01124 99221 11142 41/98 90707 10190 20159 40220 51011 70200 89670 22200 00/// 20101 323// 40101 80170
BBXX V7SY6 01124 99199 11193 41797 70425 10240 20196 40250 54000 71422 87771 22213 00200 21010 30505 41010 51010 80210
BBXX VRWE8 01123 99221 11142 41998 00716 10180 20148 40220 54000 70200 80000 22200 00170 2//// 80160
BBXX A8IY8 01124 99123 10747 41397 71814 10279 20212 40084 57006 70322 8677/ 22275 00280 20502 80232
BBXX WDE8264 01123 99056 10859 41298 20402 10270 20243 40115 51005 70200 8113/ 22264 00290 20202 80250
BBXX A8TX8 01123 99094 31339 41698 62507 10295 20263 40100 52017 70311 8347/ 22225 04290 20601 80272
BBXX A8TX8 01123 99094 31339 41698 62507 10295 20263 40100 52017 70311 8347/ 22225 04290 20601 80272
AAXX 01124 40405 32960 02510 10270 20120 39390 40115 333 59017
BBXX MINFR03 0112/ 99252 10549 46/// ///// 10245 40164 57015
BBXX VRFH2 01123 99412 11552 41297 63222 10070 20030 40220 52020 7//22 86244 22214 00050 20805 33232 40805 5//// 80050
BBXX V7SY6 01124 99199 11193 41797 70425 10240 20196 40250 54000 71422 87771 22213 00200 21010 30505 41010 51010 80210
BBXX WDE8264 01123 99056 10859 41298 20402 10270 20243 40115 51005 70200 8113/ 22264 00290 20202 80250
BBXX 9MSW7 01124 99159 11193 41698 80118 10275 20239 40100 56001 70312 88/// 22254 00290 20306 316// 40307 80252
BBXX VRWE8 01123 99221 11142 41998 00716 10180 20148 40220 54000 70200 80000 22200 00170 2//// 80160
BBXX 9VBS 01124 99221 11142 41/98 90707 10190 20159 40220 51011 70200 89670 22200 00/// 20101 323// 40101 80170
BBXX DDSX2 01124 99062 10786 41998 00906 10265 20179 40094 52005 70200 80000 22234 00302 20201 318// 40701 80207
BBXX A8IY8 01124 99123 10747 41397 71814 10279 20212 40084 57006 70322 8677/ 22275 00280 20502 80232
BBXX SHIP 01124 99512 11703 41498 40320 10020 20020 40119 54010 70211 831// 22255 00043 2//// 3//// 4//// 80020
BBXX VQGQ4 01124 99132 11339 41/98 50717 10280 20237 40100 56010 70222 8//// 22234 00291 20402 306// 40402 80250
BBXX VRFJ6 01124 99227 11166 41/97 00722 10160 20127 40201 54010 70200 8//// 22252 00142 20504 310// 40503 80140
BBXX MGRX9 01124 99265 31127 41/98 /1732 10232 20198 40104 57011 70300 8/54/ 22283 00/// 20602 324// 40403 80210
BBXX SHIP 01124 99043 11364 41498 40720 10290 20263 40091 56010 70222 84/// 22235 00280 2//// 3//// 4//// 80270
BBXX 46221 01121 99339 71186 46/// ///// 1//// 91215 22200 00148 11502 20901 327// 41502 70009
BBXX FLAO 0112/ 99764 70847 46/// ///// 11308 40096 52002
BBXX 44039 01121 99411 70727 46/// /2506 10078 20061 40201 91230 22200 00083 1//00 70002 333 91207
BBXX 46242 01121 99332 71174 46/// ///// 1//// 91228 22200 00145 11301 21001 323// 41301 70007
BBXX 46216 01121 99343 71198 46/// ///// 1//// 91227 22200 00143 11302 21001 326// 41302 70012
BBXX 46222 01121 99336 71183 46/// ///// 1//// 91226 22200 00147 11302 20901 327// 41302 70011
BBXX 46223 01121 99335 71178 46/// ///// 1//// 91230 22200 00151 11402 20801 326// 41401 70009
BBXX 46231 01121 99327 71174 46/// ///// 1//// 91224 22200 00147 11303 21001 328// 41302 70013
BBXX 46241 01121 99330 71173 46/// ///// 1//// 91211 22200 00144 11301 20901 326// 41301 70007
BBXX 46208 01121 99525 71327 46/// /1418 10072 40040 57016 22200 00073 11214 70072 333 91223
BBXX 46145 01121 99544 71324 46/// /1518 10056 40056 57023 22200 00068 10807 70036 333 91222
BBXX 44024 01121 99423 70659 46/28 /3113 10062 40106 53042 91204 22200 00081 10606 70028 333 91215 555 11160 22170
BBXX ZCDF4 01123 99153 70723 41698 40738 10270 20241 40172 51000 70222 84900 22274 00270 20602 309// 41003 5//// 80250
BBXX ZCDY2 01124 99202 70680 41598 32626 10260 20212 40242 53015 70200 82260 22234 00260 20304 3//// 4//// 5////
BBXX VRCU7 01123 99335 10254 41/98 33416 10170 20153 40110 50010 70200 8218/ 22264 04157 20302 334// 40603 80160
BBXX VSXC9 01124 99341 70258 41398 53218 10180 20148 40360 53020 70222 85161 22264 00200 20602 334// 41204 80160
AAXX 01124 97180 12458 70601 10271 20269 30087 40105 53012 60001 81272 333 10298 56000 81819 86360
AAXX 01124 97810 01457 72610 10261 20249 30075 40084 57015 60051 72162 84872 333 10325 56700 57871 59002 60047 82819 84458 80856
AAXX 0112/ 89872 46/// ///// 11050 39781 4//// 5//// 91210
AAXX 0112/ 89869 46/// ///// 11046 39778 4//// 5//// 91210
AAXX 0112/ 89769 46/// ///// 11076 39807 4//// 5//// 91210
AAXX 0112/ 89828 46/// ///// 11199 36515 4//// 5//// 91210
AAXX 0112/ 89799 46/// ///// 11241 4//// 5//// 91210
AAXX 01124 71520 16/// /1506 11107 21118 39461 40149 56004 60001 333 11116 21148 70000
AAXX 01124 71521 16/// /0000 11107 21125 60001 333 11118 21123 70000
AAXX 01124 71522 46/// /0601 11100 21118 39671 40171 55008 6///1 333 11101 21109 70000
AAXX 01124 71523 16/// ///// 11094 21101 39763 40147 55002 60001 333 11103 21110 70000
AAXX 01124 71540 16/// /0000 11223 21246 60001 333 11021 21226 70000
AAXX 01124 71544 16/// ///// 11144 21191 60001 333 11040 21144 70000
AAXX 01124 71548 16/// ///// 11131 21182 60001 333 11033 21134 70000
AAXX 01124 71481 16/// /1806 11166 21224 60001 333 11037 21175 70004
AAXX 01124 71498 16/// /2103 11142 21150 60001 333 11002 21142 70000
AAXX 01124 71249 16/// /2410 11135 21207 60001 333 11028 21151 70000
AAXX 01124 71674 16/// ///// 11154 21201 60001 333 11031 21161 70000
AAXX 01124 71014 16/// /2004 11120 21194 60001 333 11025 21144 70000
AAXX 01124 71271 16/// ///// 11127 21185 60001 333 11033 21131 70000
AAXX 01124 71346 16/// /2503 11143 21155 60001 333 10011 21143 70000
AAXX 01124 71055 46/// /2602 11353 21389 39889 40249 52010 6///1 333 11289 21392 7////
AAXX 01124 71065 16/// ///// 11196 21218 60001 333 11033 21196 70000
AAXX 01124 71413 16/// ///// 11163 21195 60001 333 11023 21177 70000
AAXX 01124 71414 16/// ///// 11156 21189 60001 333 11033 21164 70000
AAXX 01124 71440 16/// ///// 11142 21171 60001 333 11015 21145 70000
AAXX 01124 71904 16/// ///// 11134 21195 60001 333 11020 21145 70000
AAXX 01124 89003 46/89 /3210 11065 29066 39133 4//// 5////
AAXX 01124 71857 16/// ///// 11150 21185 60001 333 11039 21161 7////
AAXX 01124 71360 16/// ///// 11144 21187 60001 333 11034 21155 70000
AAXX 01124 71380 16/// /1602 11165 21230 60001 333 11026 21209 70004
AAXX 01124 71381 46/// /0903 11109 21124 6///1 333 21141 70000
AAXX 01124 71383 16/// ///// 11099 21120 39537 40159 55004 60001 333 11108 21116 70000
AAXX 01124 64005 32570 62706 10314 20236 39720 40078 83201 333 0//00 59013 82818 86080
AAXX 01124 89807 46/// /1614 11002 29089 39729 4//// 5//// 333 90700 91116
AAXX 01124 64005 32570 62706 10314 20236 39720 40078 83201 333 59013 82818 86080
AAXX 01124 64006 31565 52704 10313 20/// 3//// 4//// 70522 84201 333 0//00 5//// 84830
AAXX 01124 64008 NIL
AAXX 01124 64018 NIL
AAXX 01124 64040 31458 80904 10274 20227 39604 40057 79592 8191/ 333 0//00 59038 81815 88461 94622
AAXX 01124 64062 NIL
AAXX 01124 64072 NIL
AAXX 01124 64076 NIL
AAXX 01124 64108 NIL
AAXX 01124 64115 NIL
AAXX 01124 64126 NIL
AAXX 01124 64146 NIL
AAXX 01124 64155 NIL
AAXX 01124 64180 31560 71803 10272 20/// 38268 4//// 70522 81224 333 0//00 59023 81820 87360
AAXX 01124 64184 NIL
AAXX 01124 64207 NIL
AAXX 01124 64210 32460 72906 10275 20207 39757 40106 872// 333 0//00 59005 87618
AAXX 01124 64220 NIL
AAXX 01124 64222 NIL
AAXX 01124 89614 46/// /0915 11042 29073 38929 4//// 5//// 91230 333 90700 91130
AAXX 01124 89807 46/// /1614 11002 29089 39729 4//// 5//// 333 90700 91116
AAXX 01124 89614 46/// /0915 11042 29073 38929 4//// 5//// 91230 333 90700 91130
AAXX 01124 71346 16/// /2503 11143 21155 60001 333 10011 21143 70000
AAXX 01124 71481 16/// /1806 11166 21224 60001 333 11037 21175 70004
AAXX 01124 71498 16/// /2103 11142 21150 60001 333 11002 21142 70000
AAXX 01124 71413 16/// ///// 11163 21195 60001 333 11023 21177 70000
AAXX 01124 71414 16/// ///// 11156 21189 60001 333 11033 21164 70000
AAXX 01124 71440 16/// ///// 11142 21171 60001 333 11015 21145 70000
AAXX 01124 71249 16/// /2410 11135 21207 60001 333 11028 21151 70000
AAXX 01124 71520 16/// /1506 11107 21118 39461 40149 56004 60001 333 11116 21148 70000
AAXX 01124 71521 16/// /0000 11107 21125 60001 333 11118 21123 70000
AAXX 01124 71522 46/// /0601 11100 21118 39671 40171 55008 6///1 333 11101 21109 70000
AAXX 01124 71523 16/// ///// 11094 21101 39763 40147 55002 60001 333 11103 21110 70000
AAXX 01124 71540 16/// /0000 11223 21246 60001 333 11021 21226 70000
AAXX 01124 71544 16/// ///// 11144 21191 60001 333 11040 21144 70000
AAXX 01124 71548 16/// ///// 11131 21182 60001 333 11033 21134 70000
AAXX 01124 71014 16/// /2004 11120 21194 60001 333 11025 21144 70000
AAXX 01124 71055 46/// /2602 11353 21389 39889 40249 52010 6///1 333 11289 21392 7////
AAXX 01124 71065 16/// ///// 11196 21218 60001 333 11033 21196 70000
AAXX 01124 71271 16/// ///// 11127 21185 60001 333 11033 21131 70000
AAXX 01124 71877 12974 22104 11139 21171 39037 40369 58003 60001 80001 333 10022 21151 41997 70000
AAXX 01124 71877 12974 22104 11139 21171 39037 40369 58003 60001 80001 333 10022 21151 41997 70000
AAXX 01124 17601 11560 72615 10167 20102 30060 40091 55005 60001 72581 869/2 91150 333 81928 85832
AAXX 01124 17601 11560 72615 10167 20102 30060 40091 55005 60001 72581 869/2 91150 333 81928 85832
AAXX 01124 88903 45/// /3309 10069 21011 30007 40007 50003 333 10073 20035
AAXX 01124 83393 32599 73603 10254 20206 39406 40118 84430 333 20216 59002
AAXX 01124 83264 21896 80506 10222 20215 39691 40158 70066 8802/ 333 20213 58000 60254
AAXX 01124 83358 21598 80000 10244 20230 39681 40079 70162 885// 333 20204 59013 60454
AAXX 01124 83270 21798 60000 10234 20222 39650 40133 72062 81038 333 20215 59015 60074
AAXX 01124 83319 21697 70000 10240 20232 39775 40147 70362 8578/ 333 20220 59006 60234
AAXX 01124 83405 21695 8//// 10248 20234 39960 40093 71064 885// 333 20224 58002 60404
AAXX 01124 89667 46/// /1004 11074 29083 39830 4//// 5//// 91240
AAXX 0112/ 89828 46/// ///// 11199 36515 4//// 5//// 91240
AAXX 0112/ 89108 46/// ///// 11223 36982 4//// 5//// 91240
AAXX 0112/ 89872 46/// ///// 11058 39780 4//// 5//// 91240
AAXX 0112/ 89869 46/// ///// 11064 39778 4//// 5//// 91240
AAXX 0112/ 89866 46/// ///// 11034 39719 4//// 5//// 91240
AAXX 0112/ 89329 46/// ///// 11124 38708 4//// 5//// 91240
AAXX 0112/ 89799 46/// ///// 11241 4//// 5//// 91240
AAXX 0112/ 89868 46/// ///// 11078 39785 4//// 5//// 91240
AAXX 0112/ 89332 46/// ///// 11083 39189 4//// 5//// 91240
AAXX 0112/ 89769 46/// ///// 11074 39805 4//// 5//// 91230
AAXX 0112/ 89769 46/// ///// 11074 39806 4//// 5//// 91240
AAXX 0112/ 89314 46/// ///// 11124 38203 4//// 5//// 91240
AAXX 01121 59158 32660 23503 10152 20096 30102 40205 51013 82500
AAXX 01121 59562 12662 83201 10175 20129 30211 40223 51022 69902 885//
AAXX 01121 59567 11460 80109 10166 20150 39822 40206 51013 60252 70262 885//
AAXX 01121 58968 31558 80903 10151 20110 30240 40248 51012 71022 885//
AAXX 01121 58974 31558 80308 10144 20085 30131 40258 52013 70522 885//
AAXX 01121 59358 31620 70104 10160 20112 30182 40214 51020 70511 875//
AAXX 01121 59792 32460 50308 10196 20153 30198 40203 52015 85400
AAXX 01121 59997 32460 50506 10276 20249 30124 40132 52016 83860
OOXX FRP29 01101 99210 30556 ///// 00751 26/// /0304 10319 29071 39813 91007 333 60000
OOXX FRP29 01101 99210 30556 ///// 00751 26/// /0304 10319 29070 39812 91017 333 60000
OOXX FRP29 01101 99210 30556 ///// 00751 26/// /0404 10318 29070 39812 91027 333 60000
OOXX FRP29 01101 99210 30556 ///// 00751 26/// /0204 10322 29067 39812 91037 333 60000
OOXX FRP29 01101 99210 30556 ///// 00751 26/// /0304 10320 29068 39814 91047 333 60000
OOXX FRP29 01101 99210 30556 ///// 00751 26/// /0403 10312 29069 39814 91057 333 60000
OOXX FRP29 01111 99210 30556 ///// 00751 26/// /0403 10316 29067 39810 91107 333 60000
OOXX FRP29 01111 99210 30556 ///// 00751 26/// /0403 10311 29069 39809 91117 333 60000
OOXX FRP29 01111 99210 30556 ///// 00751 26/// /0602 10305 29071 39805 91127 333 60000
OOXX FRP29 01111 99210 30556 ///// 00751 26/// /0403 10306 29072 39806 91137 333 60000
OOXX FRP29 01111 99210 30556 ///// 00751 26/// /0803 10302 29073 39806 91147 333 60000
OOXX FRP29 01111 99210 30556 ///// 00751 26/// /1103 10299 29074 39805 91157 333 60000
OOXX SEP63 01101 99594 10180 ///// 00401 26/// /0104 10004 29087 30010 91010 333 60000
OOXX SEP63 01101 99594 10180 ///// 00401 26/// /3504 10006 29087 30010 91020 333 60000
OOXX SEP63 01101 99594 10180 ///// 00401 26/// /3404 10008 29087 30010 91030 333 60000
OOXX SEP63 01101 99594 10180 ///// 00401 26/// /3504 10010 29086 30010 91040 333 60000
OOXX SEP63 01101 99594 10180 ///// 00401 26/// /3504 10012 29086 30010 91050 333 60000
OOXX SEP63 01111 99594 10180 ///// 00401 26/// /3503 10013 29086 30010 91100 333 60000
OOXX SEP63 01111 99594 10180 ///// 00401 26/// /0503 10014 29085 30010 91110 333 60000
OOXX SEP63 01111 99594 10180 ///// 00401 26/// /0303 10014 29086 30010 91120 333 60000
OOXX SEP63 01111 99594 10180 ///// 00401 26/// /0104 10014 29086 30010 91130 333 60000
OOXX SEP63 01111 99594 10180 ///// 00401 26/// /0103 10014 29086 30010 91140 333 60000
OOXX SEP63 01111 99594 10180 ///// 00401 26/// /0104 10015 29085 30000 91150 333 60000
OOXX SEP63 01121 99594 10180 ///// 00401 26/// /0203 10017 29084 30000 91200 333 60000
AAXX 01124 91844 46/// /0000 10231 40102 22200 00269
BBXX 61001 01124 99434 10078 46/// /1104 10131 20105 40210 54000 22200 00138 10702 70011
BBXX BATFR21 01124 99433 10077 46/// /0809 20422 40213 22233
BBXX BAREU06 01124 99431 10100 46/// ///// 40219 52001 22214
BBXX 61002 01124 99421 10047 46/// ///15 10139 2//// 40236 57010 22200 00133 10503 70016
BBXX BATEU09 01124 99410 10088 46/// /2513 10155 20122 40222 22221 00160
BBXX DQVI 01123 99407 10290 41/96 90219 10070 20026 40180 52030 7//// 8/7// 22200 00110 2//// 80050
BBXX BATFR46 01124 99388 10004 44/97 02204 10159 20120 40259 58008 700// 22253 00165 20000
BBXX DBBH 01121 99378 10157 41598 13411 10159 20067 40228 57013 70100 81110 22241 04159 20401
BBXX WAHV 01123 99377 10083 43498 72727 10163 2013/ 40247 51007 85431 22274 00165 20805 80147
BBXX A8GU5 01124 99372 10114 41497 72927 10180 20146 40250 54000 7//// 87878 22233 04180 20404 80160
BBXX ZCDQ4 01124 99366 10191 41398 30018 10140 20045 40200 50202 70301 82202 22234 00168 20301 305// 40407 5//// 80095
BBXX V7PW3 01123 99364 10137 41498 42312 10160 20120 40225 58011 70200 8416/ 22274 00162 20301 327// 40503 80138
BBXX DDYZ2 01124 99361 10148 41799 11405 10160 20144 40230 51010 7//// 81/// 22224 00170 20602 30000 80150
BBXX UELS 01121 99359 10205 41598 53312 10160 40178 57010 70222 854// 22223 20605
BBXX A8IZ2 01124 99340 10274 41698 33325 10180 20090 40155 52015 70101 8314/ 22234 20503 331// 40806 80130
BBXX DDYL2 01123 99337 10250 41597 53316 10150 20053 40150 52010 76266 8506/ 22264 00180 20303 329// 41208 80100
BBXX BAREU63 01124 99324 10197 46/// /1806 10164 29056 40214 57011 22282
BBXX WCZ5535 01124 99324 10296 41598 52822 10180 2013/ 40095 54000 7//22 852// 22233 0//// 2//// 3//// 4//// 5//// 6//// 80150 ICE /////
BBXX ONDY 01124 99068 30828 41498 73108 10270 2023/ 40090 54000 70222 87800 22213 00280 2//// 3//// 4//// 5//// 6//// 80240 ICE /////
BBXX WHKM 01124 99138 30887 41298 41909 10330 20264 40088 52012 7//11 838/1 22233 0//// 20101 399// 40503 5//// 6//// 80280 ICE /////
BBXX TBWUK11 01123 99142 30451 41598 40325 10310 20257 40160 57020 70311 8/4// 22253 00330 21003 30000 40000 50000 80270
BBXX DCCP2 01120 99187 30606 41498 21006 10265 20226 40100 56010 70200 82200 22254 00270 29902 31206 4//05 5//04 80237
BBXX TBWUK18 01123 99308 30485 41/98 71108 10235 20152 40159 58004 70222 8347/ 22222 00242 20200 3//// 4//// 5//// 80185
BBXX V7HD2 01124 99338 30257 41598 11720 10220 2019/ 40090 54000 7//00 818// 22200 00228 2//// 3//// 4//// 5//// 6//// 80200 ICE /////
BBXX TBWUK17 01123 99348 30192 41697 72930 10202 20196 40161 52003 70222 87774 22262 04220 20305 32626 40507 50607 80198
AAXX 01121 98134 11458 80404 10200 20181 39986 40179 52016 56008 70544 84270 333 10235 56199 59006 84818 87357
BBXX 64045 01124 99591 70117 46/// /2321 10069 20028 49762 57001 22200 00100 10913 70063 333 90710 91131
BBXX 62112 01124 99584 70002 47998 /2121 10078 20035 49881 51001 700// 22200
BBXX 62113 01124 99584 10002 47998 /2121 10079 20035 49890 51001 700// 22200
BBXX 62129 01124 99584 10003 46/// ///// 10082 20040 49892 51001 22200
BBXX 62114 01124 99583 10000 46/// /2122 10078 20041 49883 52001 22200
BBXX PJAI 01124 99581 70014 47999 /2017 10083 20022 49873 58006 700// 22200
BBXX 62111 01124 99580 70003 46/// /2326 10078 20041 49898 58001 22200 10504 70022
BBXX 62117 01124 99579 10000 47998 /2225 10084 20048 49895 50003 700// 22200 10505 70025
BBXX MINUK05 0112/ 99571 70021 46/// ///// 10080 49891 57003
BBXX BATUK01 01124 99560 70032 46/// /2405 10080 20012 49911 58011 22200 00062
BBXX 62105 01124 99554 70121 46/// /2526 10074 20018 49874 50001 22200 00106 11013 70067 333 90710 91134
BBXX MINUK03 0112/ 99550 70015 46/// ///// 10078 49948 57004
BBXX 62095 01124 99531 70159 46/// /2625 10069 20005 49956 53010 22200 00111 11016 70079 333 90710 91143
BBXX 62301 01124 99524 70047 46/// /2219 10100 20084 49992 58016 22200 00097 10606 70028 333 90710 91127
BBXX 62094 01124 99517 70067 46/// /2317 10101 20078 40004 58004 22200 00107 10706 70031
BBXX 62303 01124 99516 70051 46/// /2422 10101 20082 40014 57015 22200 00110 10606 70032 333 90710 91133
BBXX 62023 01123 99514 70079 46/96 /2626 10103 2//// 40017 5//// 22200 10707 70034 555 70051 80010
BBXX 62081 01124 99510 70134 46/// ///// 10097 20024 40018 51009 22200 00119 10912 70062
BBXX 62305 01124 99504 10000 46/96 /2219 10120 20120 40087 58020 22200 00116 10602 70009 333 90710 91128
BBXX 62107 01124 99501 70061 46/// /2423 10117 20103 40035 57027 22200 00115 11006 70029 333 90710 91128
BBXX 62103 01124 99499 70029 46/96 /2221 10123 20117 40064 57007 22200 00118 10804 70018 333 90710 91128
BBXX BATFR15 01124 99496 70042 46/// /2419 10127 20117 40059 58019 22224 00122
BBXX PHAM 01123 99495 70011 41496 81821 10117 20089 40080 57030 75255 8/700 22200 20602 80102 91024
BBXX PHBO 01123 99494 70067 41297 82420 10116 20106 40051 58015 70222 8472/ 22214 20603 328// 41205 80111
BBXX 62027 01124 99491 70022 46/// /2018 1//// 2//// 40084 57030 22200 00109 11104 328// 70018
BBXX 62442 01124 99490 70164 46/// /2822 1//// 2//// 40084 51019 22200 00122 333 90710 91139
BBXX 62029 01124 99487 70125 46/// /2722 10113 20062 40070 50010 22200 00127 10911 70054 333 90710 91138
BBXX 62163 01124 99475 70084 46/// /2518 10119 20099 40090 50002 22200 00127 10808 70041 333 90710 91126
BBXX PDNN 01123 99469 70059 41297 82348 10149 20131 40104 57012 78082 886// 22242 20408 327// 40706 80138 91024
BBXX BATFR27 01124 99466 70046 46/// /2133 10144 20107 40134 58048 22283 00137
BBXX C6KD5 01123 99462 70081 41297 82524 10129 20120 40140 53008 76166 87774 22254 02132 21509 325// 41308 5//// 80124
BBXX 62001 01124 99452 70050 46/// /2220 10141 20115 40182 58018 22200 00131 10708 70039 333 90710 91128
BBXX DHSI 01124 99449 70071 41397 81342 10150 20133 40175 58005 70200 8/7// 22252 00110 29910 80140
BBXX MYSU5 01124 99446 70183 41597 42924 10115 20062 40183 51029 70111 84400 22253 00140 20405 304// 40510 5//// 80090
BBXX DEDI 01123 99445 70150 41598 52723 10155 20102 40175 58005 70322 824// 22224 00150 20704 329// 41006 80125
BBXX ZNQO3 01120 99445 70091 41/96 92018 10143 20129 40161 52010 76166 89/// 22254 04142 20807 323// 41106 5//// 80135
BBXX OZDJ2 01123 99443 70093 41196 32535 10120 20101 40166 54000 70084 82700 22253 00140 20705 328// 40608 5//// 80110
BBXX BATEU01 01124 99439 70245 44197 72933 10119 20049 40236 51030 72522 83777 22263 00149 20402 329// 41008 5////
BBXX BATFR09 01124 99437 70091 44296 82036 10144 20119 40205 58022 74022 884// 22213 00147 20406 328// 40910 5//// 60//0 ICE 0/0//
BBXX WDD3825 01124 99435 70291 43798 82823 10140 2009/ 40280 52005 7//// 8827/ 22214 00150 20804 314// 40603 5//// 6//// 80110 ICE /////
BBXX VRCZ7 01123 99415 70101 41397 81819 10150 20132 40250 52010 70222 887// 22244 20604 318// 40604 5//// 80140
BBXX C6LU4 01124 99410 70180 41398 72921 10150 2012/ 40290 57020 70362 87920 22214 20302 328// 40503 5//// 80130
BBXX BAREU08 01124 99406 70231 46/// ///// 40290 52040 22254
BBXX 3EPD8 01124 99394 70113 41598 62116 10189 20108 40298 7//22 83575 22284 04161 299// 80145
BBXX BATFR46 01124 99388 10004 44/97 02204 10159 20120 40259 58008 700// 22253 00165 20000
BBXX WBDS 01124 99380 70143 419// 42518 10160 2010/ 40314 51014 70110 80008 22225 00172 20303 330// 40402 5//// 6//// 80126 ICE /////
BBXX KABP 01123 99364 70022 43595 /2713 10168 2012/ 40270 50010 7//// 8//// 22211 0//// 2//// 3//// 4//// 5//// 6//// 80140 ICE /////
BBXX 2AUO5 01123 99606 10016 41397 72218 10083 20063 49840 57004 70222 8/7// 22251 20603 325// 40906 80074
BBXX 63106 01124 99610 10017 46/// /2217 10076 49841 57003 22200
BBXX 63105 01124 99610 10017 47597 ///// 10078 20036 49840 57003 751// 22200
BBXX 62305 01124 99504 10000 46/96 /2219 10120 20120 40087 58020 22200 00116 10602 70009 333 90710 91128
BBXX 62103 01124 99499 70029 46/96 /2221 10123 20117 40064 57007 22200 00118 10804 70018 333 90710 91128
BBXX 9V7645 01123 99323 71220 417// 80701 10135 20118 40190 54000 70211 88/// 22274 04140 2//// 3//// 4//// 5//// 6//// 80125 ICE /////
BBXX TBWUK48 01123 99056 10833 41694 23404 10270 20185 40104 53014 70100 8/100 22263 04283 20000 80215
BBXX BSH03 01121 99540 10081 46/// ///// 22200 00064 20603 70016
BBXX BSH02 01121 99542 10079 46/// ///// 22200 00065 20603 70017
BBXX 9HJB9 01124 99225 70780 41898 60529 10233 20184 40210 54000 70311 85276 22234 04256 20504 3//// 4//// 5//// 6//// 80200 ICE /////
BBXX 9V7645 01123 99323 71220 417// 80701 10135 20118 40190 54000 70211 88/// 22274 04140 2//// 3//// 4//// 5//// 6//// 80125 ICE /////
BBXX MVQP8 01124 99285 70941 41296 60000 10215 20207 40237 52025 71122 83172 22200 00210 20000 322// 40301 5//// 80210
BBXX A8TX8 01123 99094 31339 41698 62507 10295 20263 40100 52017 70311 8347/ 22225 04290 20601 80272
OOXX MRP43 01101 99181 70159 ///// 00101 26/// /0507 10174 29020 30221 91050 333 60000
OOXX MRP43 01111 99181 70159 ///// 00101 26/// /0508 10176 29020 30220 91100 333 60000
OOXX MRP43 01111 99181 70159 ///// 00101 26/// /0508 10181 29020 30218 91110 333 60000
OOXX MRP43 01111 99181 70159 ///// 00101 26/// /0609 10183 29020 30220 91120 333 60000
OOXX MRP43 01111 99181 70159 ///// 00101 26/// /0608 10188 29019 30220 91130 333 60000
OOXX MRP43 01111 99181 70159 ///// 00101 26/// /0609 10189 29019 30214 91140 333 60000
OOXX MRP43 01111 99181 70159 ///// 00101 26/// /0608 10198 29018 30219 91150 333 60000
OOXX MRP43 01121 99181 70159 ///// 00101 26/// /0609 10202 29017 30218 91200 333 60000
OOXX MRP43 01121 99181 70159 ///// 00101 26/// /0709 10200 29018 30216 91210 333 60000
OOXX MRP43 01121 99181 70159 ///// 00101 26/// /0609 10205 29017 30215 91220 333 60000
OOXX MRP43 01121 99181 70159 ///// 00101 26/// /0609 10206 29017 30213 91230 333 60000
OOXX MRP43 01121 99181 70159 ///// 00101 26/// /0608 10203 29017 30209 91240 333 60000
OOXX AUP04 01111 99377 31451 ///// 00311 26/// /2602 10254 29062 30063 91108 333 60000
OOXX AUP04 01111 99377 31451 ///// 00311 26/// /2701 10251 29063 30064 91118 333 60000
OOXX AUP04 01111 99377 31451 ///// 00311 26/// /2801 10249 29064 30066 91128 333 60000
OOXX AUP04 01111 99377 31451 ///// 00311 26/// /3201 10246 29065 30066 91138 333 60000
OOXX AUP04 01111 99377 31451 ///// 00311 26/// /3001 10244 29066 30066 91148 333 60000
OOXX AUP04 01111 99377 31451 ///// 00311 26/// /3302 10240 29068 30069 91158 333 60000
OOXX AUP04 01121 99377 31451 ///// 00311 26/// /2902 10236 29069 30068 91208 333 60000
OOXX AUP04 01121 99377 31451 ///// 00311 26/// /3101 10234 29070 30068 91218 333 60000
OOXX AUP04 01121 99377 31451 ///// 00311 26/// /2802 10231 29071 30067 91228 333 60000
OOXX AUP04 01121 99377 31451 ///// 00311 26/// /3001 10229 29072 30068 91238 333 60000
OOXX AUP04 01121 99377 31451 ///// 00311 26/// /2801 10227 29072 30067 91248 333 60000
OOXX AUP04 01121 99377 31451 ///// 00311 26/// /2901 10225 29073 30067 91258 333 60000
OOXX ISP34 01101 99641 70219 ///// 01301 26/// /2202 10006 29001 39559 91010 333 6///0
OOXX ISP34 01101 99641 70219 ///// 01301 26/// /1202 10003 29001 39560 91020 333 6///0
OOXX ISP34 01101 99641 70219 ///// 01301 26/// /1602 11001 29001 39561 91030 333 6///0
OOXX ISP34 01101 99641 70219 ///// 01301 26/// /1502 11002 29001 39561 91040 333 6///0
OOXX ISP34 01101 99641 70219 ///// 01301 26/// /1602 11004 29001 39561 91050 333 6///0
OOXX ISP34 01111 99641 70219 ///// 01301 26/// /1503 11005 29001 39561 91100 333 6///0
OOXX ISP34 01111 99641 70219 ///// 01301 26/// /1703 11009 29001 39562 91110 333 6///0
OOXX ISP34 01111 99641 70219 ///// 01301 26/// /1603 11010 29001 39563 91120 333 6///0
OOXX ISP34 01111 99641 70219 ///// 01301 26/// /1903 11010 29001 39561 91130 333 6///0
OOXX ISP34 01111 99641 70219 ///// 01301 26/// /1803 11010 29001 39560 91140 333 6///0
OOXX ISP34 01111 99641 70219 ///// 01301 26/// /1503 11013 29001 39560 91150 333 6///0
OOXX ISP34 01121 99641 70219 ///// 01301 26/// /1703 11014 29001 39561 91200 333 6///0
OOXX NZP46 01101 99438 51765 ///// 00221 26/// /3408 10162 29/// 30019 91030 333 69920
OOXX NZP46 01101 99438 51765 ///// 00221 26/// /3408 10161 29/// 30017 91040 333 60000
OOXX NZP46 01101 99438 51765 ///// 00221 26/// /3407 10161 29/// 30017 91050 333 60000
OOXX NZP46 01111 99438 51765 ///// 00221 26/// /3508 10160 29/// 30015 91100 333 60000
OOXX NZP46 01111 99438 51765 ///// 00221 26/// /3408 10159 29/// 30015 91110 333 60000
OOXX NZP46 01111 99438 51765 ///// 00221 26/// /3509 10160 29/// 30015 91120 333 69920
OOXX NZP46 01111 99438 51765 ///// 00221 26/// /3410 10163 29/// 30013 91130 333 69920
OOXX NZP46 01111 99438 51765 ///// 00221 26/// /3409 10162 29/// 30013 91140 333 69920
OOXX NZP46 01111 99438 51765 ///// 00221 26/// /3411 10164 29/// 30010 91150 333 60000
OOXX NZP46 01121 99438 51765 ///// 00221 26/// /3410 10164 29100 30007 91200 333 69920
OOXX NZP46 01121 99438 51765 ///// 00221 26/// /3409 10164 29/// 30005 91210 333 69940
OOXX NZP46 01121 99438 51765 ///// 00221 26/// /3409 10166 29/// 30004 91220 333 69920
OOXX FJP26 01101 99178 31775 ///// 00311 26/// /1002 10254 29093 30065 91020 333 60000
OOXX FJP26 01101 99178 31775 ///// 00311 26/// /1101 10254 29094 30064 91030 333 60000
OOXX FJP26 01101 99178 31775 ///// 00311 26/// /1401 10254 29094 30065 91040 333 60000
OOXX FJP26 01101 99178 31775 ///// 00311 26/// /1301 10254 29094 30065 91050 333 60000
OOXX FJP26 01111 99178 31775 ///// 00311 26/// /0901 10254 29094 30065 91100 333 60000
OOXX FJP26 01111 99178 31775 ///// 00311 26/// /0601 10255 29093 30063 91110 333 60000
OOXX FJP26 01111 99178 31775 ///// 00311 26/// /1302 10255 29093 30061 91120 333 60000
OOXX FJP26 01111 99178 31775 ///// 00311 26/// /1302 10254 29094 30059 91130 333 60000
OOXX FJP26 01111 99178 31775 ///// 00311 26/// /1001 10254 29093 30059 91140 333 60000
OOXX FJP26 01111 99178 31775 ///// 00311 26/// /1001 10254 29093 30057 91150 333 60000
OOXX FJP26 01121 99178 31775 ///// 00311 26/// /1002 10254 29093 30056 91200 333 60000
OOXX FJP26 01121 99178 31775 ///// 00311 26/// /0901 10254 29093 30054 91210 333 60000
OOXX AUP06 01101 99192 31468 ///// 00071 26/// /1007 10269 29060 30115 91056 333 60000
OOXX AUP06 01111 99192 31468 ///// 00071 26/// /1007 10269 29060 30117 91106 333 60000
OOXX AUP06 01111 99192 31468 ///// 00071 26/// /1007 10270 29060 30118 91116 333 60000
OOXX AUP06 01111 99192 31468 ///// 00071 26/// /1106 10268 29059 30120 91126 333 60000
OOXX AUP06 01111 99192 31468 ///// 00071 26/// /1106 10268 29057 30121 91136 333 60000
OOXX AUP06 01111 99192 31468 ///// 00071 26/// /1106 10268 29057 30121 91146 333 60000
OOXX AUP06 01111 99192 31468 ///// 00071 26/// /1205 10266 29060 30122 91156 333 60000
OOXX AUP06 01121 99192 31468 ///// 00071 26/// /1305 10263 29062 30122 91206 333 60000
OOXX AUP06 01121 99192 31468 ///// 00071 26/// /1205 10262 29062 30122 91216 333 60000
OOXX AUP06 01121 99192 31468 ///// 00071 26/// /1205 10260 29063 30122 91226 333 60000
OOXX AUP06 01121 99192 31468 ///// 00071 26/// /1205 10262 29061 30122 91236 333 60000
OOXX AUP06 01121 99192 31468 ///// 00071 26/// /1205 10261 29063 30122 91246 333 60000
OOXX PTP53 01101 99377 70257 ///// 00121 26/// /2707 10176 29001 30253 91010 333 60000
OOXX PTP53 01101 99377 70257 ///// 00121 26/// /2806 10177 29001 30254 91020 333 60000
OOXX PTP53 01101 99377 70257 ///// 00121 26/// /2806 10176 29001 30255 91030 333 60000
OOXX PTP53 01101 99377 70257 ///// 00121 26/// /2807 10175 29001 30257 91040 333 60000
OOXX PTP53 01101 99377 70257 ///// 00121 26/// /2806 10177 29001 30257 91050 333 60000
OOXX PTP53 01111 99377 70257 ///// 00121 26/// /2807 10178 29001 30257 91100 333 60000
OOXX PTP53 01111 99377 70257 ///// 00121 26/// /2807 10178 29001 30257 91110 333 60000
OOXX PTP53 01111 99377 70257 ///// 00121 26/// /2806 10179 29001 30257 91120 333 60000
OOXX PTP53 01111 99377 70257 ///// 00121 26/// /2706 10180 29001 30258 91130 333 60000
OOXX PTP53 01111 99377 70257 ///// 00121 26/// /2706 10181 29001 30257 91140 333 60000
OOXX PTP53 01111 99377 70257 ///// 00121 26/// /2706 10183 29001 30256 91150 333 60000
OOXX PTP53 01121 99377 70257 ///// 00121 26/// /2705 10184 29001 30256 91200 333 60000
OOXX ARP03 01101 99412 50712 ///// 08491 26/// /2701 10160 29050 39217 91010 333 60000
OOXX ARP03 01101 99412 50712 ///// 08491 26/// /2701 10163 29047 39217 91020 333 60000
OOXX ARP03 01101 99412 50712 ///// 08491 26/// /2701 10167 29045 39220 91030 333 60000
OOXX ARP03 01101 99412 50712 ///// 08491 26/// /2501 10170 29041 39220 91040 333 60000
OOXX ARP03 01101 99412 50712 ///// 08491 26/// /2402 10173 29041 39222 91050 333 60000
OOXX ARP03 01111 99412 50712 ///// 08491 26/// /2502 10177 29039 39223 91100 333 60000
OOXX ARP03 01111 99412 50712 ///// 08491 26/// /2502 10179 29038 39224 91110 333 60000
OOXX ARP03 01111 99412 50712 ///// 08491 26/// /2402 10179 29039 39226 91120 333 60000
OOXX ARP03 01111 99412 50712 ///// 08491 26/// /2502 10181 29039 39226 91130 333 60000
OOXX ARP03 01111 99412 50712 ///// 08491 26/// /2502 10183 29038 39226 91140 333 60000
OOXX ARP03 01111 99412 50712 ///// 08491 26/// /2402 10186 29038 39225 91150 333 60000
OOXX ARP03 01121 99412 50712 ///// 08491 26/// /2402 10188 29037 39226 91200 333 60000
OOXX MYP42 01101 99045 11014 ///// 15551 26/// /1202 10180 29096 38438 91014 333 60000
OOXX MYP42 01101 99045 11014 ///// 15551 26/// /1102 10180 29096 38425 91024 333 60000
OOXX MYP42 01101 99045 11014 ///// 15551 26/// /1203 10184 29095 38434 91034 333 60000
OOXX MYP42 01101 99045 11014 ///// 15551 26/// /2102 10181 29096 38423 91044 333 60000
OOXX MYP42 01101 99045 11014 ///// 15551 26/// /1701 10181 29096 38436 91054 333 60000
OOXX MYP42 01111 99045 11014 ///// 15551 26/// /1304 10184 29096 38420 91104 333 60000
OOXX MYP42 01111 99045 11014 ///// 15551 26/// /1201 10181 29095 38445 91114 333 60000
OOXX MYP42 01111 99045 11014 ///// 15551 26/// /1103 10178 29095 38445 91124 333 60000
OOXX MYP42 01111 99045 11014 ///// 15551 26/// /0703 10177 29096 38436 91134 333 60000
OOXX MYP42 01111 99045 11014 ///// 15551 26/// /0101 10180 29096 38431 91144 333 60000
OOXX MYP42 01111 99045 11014 ///// 15551 26/// /0101 10175 29095 38434 91154 333 60000
OOXX MYP42 01121 99045 11014 ///// 15551 26/// /0201 10176 29096 38440 91204 333 60000
OOXX ARP01 01101 99345 50585 ///// 00311 26/// /1101 10094 29038 30150 91010 333 60000
OOXX ARP01 01101 99345 50585 ///// 00311 26/// /1101 10095 29038 30153 91020 333 60000
OOXX ARP01 01101 99345 50585 ///// 00311 26/// /1101 10097 29037 30153 91030 333 60000
OOXX ARP01 01101 99345 50585 ///// 00311 26/// /1101 10098 29036 30154 91040 333 60000
OOXX ARP01 01101 99345 50585 ///// 00311 26/// /1101 10099 29036 30155 91050 333 60000
OOXX ARP01 01111 99345 50585 ///// 00311 26/// /1101 10100 29036 30157 91100 333 60000
OOXX ARP01 01111 99345 50585 ///// 00311 26/// /1101 10099 29035 30157 91110 333 60000
OOXX ARP01 01111 99345 50585 ///// 00311 26/// /1401 10101 29036 30158 91120 333 60000
OOXX ARP01 01111 99345 50585 ///// 00311 26/// /1101 10101 29036 30157 91130 333 60000
OOXX ARP01 01111 99345 50585 ///// 00311 26/// /0901 10102 29035 30158 91140 333 60000
OOXX ARP01 01111 99345 50585 ///// 00311 26/// /1101 10101 29035 30157 91150 333 60000
OOXX ARP01 01121 99345 50585 ///// 00311 26/// /1101 10101 29035 30158 91200 333 60000
OOXX USP76 01091 99647 71471 ///// 01501 26/// /1501 11366 29031 39898 90904 333 60000
OOXX USP76 01091 99647 71471 ///// 01501 26/// /1501 11367 29031 39898 90914 333 60000
OOXX USP76 01091 99647 71471 ///// 01501 26/// /1501 11367 29031 39897 90924 333 60000
OOXX USP76 01091 99647 71471 ///// 01501 26/// /1001 11370 29031 39896 90934 333 60000
OOXX USP76 01091 99647 71471 ///// 01501 26/// /0000 11368 29031 39895 90944 333 60000
OOXX USP76 01091 99647 71471 ///// 01501 26/// /0000 11368 29031 39893 90954 333 60000
OOXX USP76 01101 99647 71471 ///// 01501 26/// /0000 11367 29031 39892 91004 333 60000
OOXX USP76 01101 99647 71471 ///// 01501 26/// /0000 11369 29031 39891 91014 333 60000
OOXX USP76 01101 99647 71471 ///// 01501 26/// /0000 11371 29031 39891 91024 333 60000
OOXX USP76 01101 99647 71471 ///// 01501 26/// /0000 11370 29031 39891 91034 333 60000
OOXX USP76 01101 99647 71471 ///// 01501 26/// /0000 11367 29031 39890 91044 333 60000
OOXX USP76 01101 99647 71471 ///// 01501 26/// /1701 11368 29031 39890 91054 333 60000
OOXX RUP54 01101 99586 10494 ///// 01271 26/// /0603 11065 29089 30039 91027 333 60120
OOXX RUP54 01101 99586 10494 ///// 01271 26/// /0603 11065 29089 30039 91037 333 60120
OOXX RUP54 01101 99586 10494 ///// 01271 26/// /0502 11065 29089 30041 91047 333 60120
OOXX RUP54 01101 99586 10494 ///// 01271 26/// /0603 11066 29089 30042 91057 333 60120
OOXX RUP54 01111 99586 10494 ///// 01271 26/// /0603 11066 29089 30042 91107 333 60120
OOXX RUP54 01111 99586 10494 ///// 01271 26/// /0503 11067 29089 30042 91117 333 60120
OOXX RUP54 01111 99586 10494 ///// 01271 26/// /0502 11067 29089 30042 91127 333 60120
OOXX RUP54 01111 99586 10494 ///// 01271 26/// /0503 11068 29089 30043 91137 333 60120
OOXX RUP54 01111 99586 10494 ///// 01271 26/// /0402 11069 29089 30045 91147 333 60120
OOXX RUP54 01111 99586 10494 ///// 01271 26/// /0402 11069 29089 30045 91157 333 60120
OOXX RUP54 01121 99586 10494 ///// 01271 26/// /0302 11069 29089 30045 91207 333 60120
OOXX RUP54 01121 99586 10494 ///// 01271 26/// /0402 11070 29089 30046 91217 333 60120
OOXX FRP31 01101 99052 70527 ///// 00091 26/// /0405 10252 29080 30208 91014 333 60000
OOXX FRP31 01101 99052 70527 ///// 00091 26/// /0405 10253 29081 30208 91024 333 60000
OOXX FRP31 01101 99052 70527 ///// 00091 26/// /0407 10255 29080 30214 91034 333 60000
OOXX FRP31 01101 99052 70527 ///// 00091 26/// /0506 10255 29081 30212 91044 333 60000
OOXX FRP31 01101 99052 70527 ///// 00091 26/// /0505 10255 29081 30213 91054 333 69920
OOXX FRP31 01111 99052 70527 ///// 00091 26/// /0506 10257 29082 30213 91104 333 60000
OOXX FRP31 01111 99052 70527 ///// 00091 26/// /0506 10258 29083 30217 91114 333 60000
OOXX FRP31 01111 99052 70527 ///// 00091 26/// /0406 10259 29083 30217 91124 333 60000
OOXX FRP31 01111 99052 70527 ///// 00091 26/// /0406 10259 29083 30216 91134 333 60000
OOXX FRP31 01111 99052 70527 ///// 00091 26/// /0409 10263 29080 30217 91144 333 60000
OOXX FRP31 01111 99052 70527 ///// 00091 26/// /0507 10262 29081 30221 91154 333 60000
OOXX FRP31 01121 99052 70527 ///// 00091 26/// /0505 10262 29082 30222 91204 333 60000
OOXX AUP09 01101 99124 31309 ///// 00321 26/// ///// 1//// 29/// 3//// 91018 333 6///0
OOXX AUP09 01101 99124 31309 ///// 00321 26/// ///// 1//// 29/// 3//// 91028 333 6///0
OOXX AUP09 01101 99124 31309 ///// 00321 26/// ///// 1//// 29/// 3//// 91038 333 6///0
OOXX AUP09 01101 99124 31309 ///// 00321 26/// ///// 1//// 29/// 3//// 91048 333 6///0
OOXX AUP09 01101 99124 31309 ///// 00321 26/// ///// 1//// 29/// 3//// 91058 333 6///0
OOXX AUP09 01111 99124 31309 ///// 00321 26/// ///// 1//// 29/// 3//// 91108 333 6///0
OOXX AUP09 01111 99124 31309 ///// 00321 26/// ///// 1//// 29/// 3//// 91118 333 6///0
OOXX AUP09 01111 99124 31309 ///// 00321 26/// ///// 1//// 29/// 3//// 91128 333 6///0
OOXX AUP09 01111 99124 31309 ///// 00321 26/// ///// 1//// 29/// 3//// 91138 333 6///0
OOXX AUP09 01111 99124 31309 ///// 00321 26/// ///// 1//// 29/// 3//// 91148 333 6///0
OOXX AUP09 01111 99124 31309 ///// 00321 26/// ///// 1//// 29/// 3//// 91158 333 6///0
OOXX AUP09 01121 99124 31309 ///// 00321 26/// ///// 1//// 29/// 3//// 91208 333 6///0
OOXX KIP39 01101 99020 51574 ///// 00181 26/// /1004 10255 29091 30111 91030 333 60000
OOXX KIP39 01101 99020 51574 ///// 00181 26/// /1104 10254 29091 30109 91040 333 60000
OOXX KIP39 01101 99020 51574 ///// 00181 26/// /1003 10254 29091 30108 91050 333 60000
OOXX KIP39 01111 99020 51574 ///// 00181 26/// /1104 10254 29091 30108 91100 333 60000
OOXX KIP39 01111 99020 51574 ///// 00181 26/// /1104 10253 29091 30106 91110 333 60000
OOXX KIP39 01111 99020 51574 ///// 00181 26/// /1103 10253 29091 30105 91120 333 60000
OOXX KIP39 01111 99020 51574 ///// 00181 26/// /1004 10254 29092 30104 91130 333 60000
OOXX KIP39 01111 99020 51574 ///// 00181 26/// /0904 10254 29091 30103 91140 333 60000
OOXX KIP39 01111 99020 51574 ///// 00181 26/// /1004 10254 29091 30103 91150 333 60000
OOXX KIP39 01121 99020 51574 ///// 00181 26/// /1004 10254 29091 30102 91200 333 60000
OOXX KIP39 01121 99020 51574 ///// 00181 26/// /1004 10254 29091 30101 91210 333 60000
OOXX KIP39 01121 99020 51574 ///// 00181 26/// /1004 10254 29091 30101 91220 333 60000
OOXX CAP14 01101 99487 71234 ///// 00431 26/// /0502 10039 29075 30200 91040 333 60000
OOXX CAP14 01101 99487 71234 ///// 00431 26/// /0402 10039 29076 30202 91050 333 60000
OOXX CAP14 01111 99487 71234 ///// 00431 26/// /0701 10038 29077 30202 91100 333 60000
OOXX CAP14 01111 99487 71234 ///// 00431 26/// /0802 10040 29077 30203 91110 333 60000
OOXX CAP14 01111 99487 71234 ///// 00431 26/// /0502 10039 29078 30201 91120 333 60000
OOXX CAP14 01111 99487 71234 ///// 00431 26/// /0402 10037 29080 30200 91130 333 69920
OOXX CAP14 01111 99487 71234 ///// 00431 26/// /0502 10036 29080 30199 91140 333 60000
OOXX CAP14 01111 99487 71234 ///// 00431 26/// /0302 10035 29081 30202 91150 333 69920
OOXX CAP14 01121 99487 71234 ///// 00431 26/// /0302 10033 29082 30201 91200 333 60000
OOXX CAP14 01121 99487 71234 ///// 00431 26/// /0302 10033 29083 30201 91210 333 60000
OOXX CAP14 01121 99487 71234 ///// 00431 26/// /0101 10033 29084 30200 91220 333 69920
OOXX CAP14 01121 99487 71234 ///// 00431 26/// /3501 10033 29085 30199 91230 333 69920
OOXX MXP44 01101 99280 71140 ///// 00041 26/// /1422 10134 29054 30155 91010 333 60000
OOXX MXP44 01101 99280 71140 ///// 00041 26/// /1422 10133 29054 30156 91020 333 60000
OOXX MXP44 01101 99280 71140 ///// 00041 26/// /1422 10132 29054 30157 91030 333 60000
OOXX MXP44 01101 99280 71140 ///// 00041 26/// /1422 10131 29054 30155 91040 333 60000
OOXX MXP44 01101 99280 71140 ///// 00041 26/// /1422 10130 29054 30155 91050 333 60000
OOXX MXP44 01111 99280 71140 ///// 00041 26/// /1422 10129 29054 30156 91100 333 60000
OOXX MXP44 01111 99280 71140 ///// 00041 26/// /1422 10129 29054 30156 91110 333 60000
OOXX MXP44 01111 99280 71140 ///// 00041 26/// /1422 10129 29054 30156 91120 333 60000
OOXX MXP44 01111 99280 71140 ///// 00041 26/// /1422 10130 29054 30157 91130 333 60000
OOXX MXP44 01111 99280 71140 ///// 00041 26/// /1422 10129 29054 30158 91140 333 60000
OOXX MXP44 01111 99280 71140 ///// 00041 26/// /1422 10129 29054 30159 91150 333 60000
OOXX MXP44 01121 99280 71140 ///// 00041 26/// /1422 10130 29054 30159 91200 333 60000
OOXX RUP58 01101 99442 11320 ///// 01121 26/// /0901 11183 29067 30118 91052 333 60000
OOXX RUP58 01111 99442 11320 ///// 01121 26/// /0901 11186 29069 30118 91102 333 60000
OOXX RUP58 01111 99442 11320 ///// 01121 26/// /0801 11191 29070 30117 91112 333 60000
OOXX RUP58 01111 99442 11320 ///// 01121 26/// /0701 11192 29071 30117 91122 333 60000
OOXX RUP58 01111 99442 11320 ///// 01121 26/// /1001 11195 29072 30117 91132 333 60000
OOXX RUP58 01111 99442 11320 ///// 01121 26/// /1401 11198 29073 30118 91142 333 60000
OOXX RUP58 01111 99442 11320 ///// 01121 26/// /0901 11201 29074 30118 91152 333 60000
OOXX RUP58 01121 99442 11320 ///// 01121 26/// /0201 11207 29074 30119 91202 333 60000
OOXX RUP58 01121 99442 11320 ///// 01121 26/// /0201 11206 29076 30119 91212 333 60000
OOXX RUP58 01121 99442 11320 ///// 01121 26/// /0601 11206 29077 30118 91222 333 60000
OOXX RUP58 01121 99442 11320 ///// 01121 26/// /1601 11209 29077 30118 91232 333 60000
OOXX RUP58 01121 99442 11320 ///// 01121 26/// /2101 11210 29077 30118 91242 333 60000
OOXX GBP67 01101 99159 50057 ///// 04381 26/// /0503 10198 29066 39686 91010 333 60000
OOXX GBP67 01101 99159 50057 ///// 04381 26/// /0403 10189 29073 39686 91020 333 60000
OOXX GBP67 01101 99159 50057 ///// 04381 26/// /0503 10191 29074 39687 91030 333 60000
OOXX GBP67 01101 99159 50057 ///// 04381 26/// /0503 10195 29071 39687 91040 333 60000
OOXX GBP67 01101 99159 50057 ///// 04381 26/// /0303 10189 29071 39686 91050 333 60000
OOXX GBP67 01111 99159 50057 ///// 04381 26/// /0403 10190 29073 39686 91100 333 60000
OOXX GBP67 01111 99159 50057 ///// 04381 26/// /0502 10192 29074 39684 91110 333 60000
OOXX GBP67 01111 99159 50057 ///// 04381 26/// /0403 10193 29073 39684 91120 333 60000
OOXX GBP67 01111 99159 50057 ///// 04381 26/// /0303 10190 29077 39684 91130 333 60000
OOXX GBP67 01111 99159 50057 ///// 04381 26/// /0503 10186 29078 39683 91140 333 60000
OOXX GBP67 01111 99159 50057 ///// 04381 26/// /0603 10185 29076 39682 91150 333 60000
OOXX GBP67 01121 99159 50057 ///// 04381 26/// /0602 10191 29070 39681 91200 333 60000
OOXX RUP59 01101 99539 10848 ///// 02121 26/// /0000 11125 29083 30123 91050 333 60000
OOXX RUP59 01111 99539 10848 ///// 02121 26/// /0601 11111 29086 30122 91100 333 60000
OOXX RUP59 01111 99539 10848 ///// 02121 26/// /0701 11099 29085 30122 91110 333 60000
OOXX RUP59 01111 99539 10848 ///// 02121 26/// /0701 11095 29081 30119 91120 333 60000
OOXX RUP59 01111 99539 10848 ///// 02121 26/// /0701 11093 29080 30119 91130 333 60000
OOXX RUP59 01111 99539 10848 ///// 02121 26/// /0702 11092 29079 30119 91140 333 60000
OOXX RUP59 01111 99539 10848 ///// 02121 26/// /0701 11092 29079 30120 91150 333 60000
OOXX RUP59 01121 99539 10848 ///// 02121 26/// /0701 11091 29079 30119 91200 333 60000
OOXX RUP59 01121 99539 10848 ///// 02121 26/// /0801 11091 29079 30117 91210 333 60000
OOXX RUP59 01121 99539 10848 ///// 02121 26/// /0701 11091 29079 30118 91220 333 60000
OOXX RUP59 01121 99539 10848 ///// 02121 26/// /0701 11091 29079 30117 91230 333 60000
OOXX RUP59 01121 99539 10848 ///// 02121 26/// /0401 11092 29079 30117 91240 333 60000
OOXX AUP07 01101 99/// ///// ///// ///// 26/// /1907 10040 29066 30048 91050 333 60000
OOXX AUP07 01111 99/// ///// ///// ///// 26/// /2008 10041 29066 30050 91100 333 60000
OOXX AUP07 01111 99/// ///// ///// ///// 26/// /2108 10041 29064 30050 91110 333 60000
OOXX AUP07 01111 99/// ///// ///// ///// 26/// /1907 10042 29065 30051 91120 333 60000
OOXX AUP07 01111 99/// ///// ///// ///// 26/// /2108 10042 29067 30051 91130 333 60000
OOXX AUP07 01111 99/// ///// ///// ///// 26/// /2110 10043 29066 30054 91140 333 60000
OOXX AUP07 01111 99/// ///// ///// ///// 26/// /2207 10042 29065 30055 91150 333 60000
OOXX AUP07 01121 99/// ///// ///// ///// 26/// /2108 10041 29066 30057 91200 333 60000
OOXX AUP07 01121 99/// ///// ///// ///// 26/// /2108 10040 29064 30058 91210 333 60000
OOXX AUP07 01121 99/// ///// ///// ///// 26/// /2107 10040 29066 30059 91220 333 60000
OOXX AUP07 01121 99/// ///// ///// ///// 26/// /2307 10041 29066 30060 91230 333 60000
OOXX AUP07 01121 99/// ///// ///// ///// 26/// /2306 10042 29068 30059 91240 333 60000
AAXX 01124 91559 46/// /0000 10254 40064 22200 00290
AAXX 01124 71619 17/// /3105 11021 21035 30065 40123 53030 60021 7//4/ 333 10001 21030 70130
AAXX 01124 71384 16/// /2801 11036 21044 30172 40180 53012 60001 333 11037 21057 70020
AAXX 01124 71323 16/// /1301 11048 21056 39879 40165 51013 60001 333 11008 21052 70000
AAXX 01124 71430 16/// /1814 10042 20021 30045 40142 56023 60001 333 10046 21001 70000
AAXX 01124 71494 16/// /2301 11044 21046 39638 40164 51012 60001 333 10001 21048 4/003 70009
AAXX 01124 71427 16/// /3502 11045 21067 30151 40159 50005 60001 333 11046 21049 70050
AAXX 01124 71294 16/// /1302 11013 39720 40125 58026 60001 333 11027 4/012 70000
AAXX 01124 71430 16/// /1814 10042 20021 30045 40142 56023 60001 333 10046 21001 70000
AAXX 01124 71427 16/// /3502 11045 21067 30151 40159 50005 60001 333 11046 21049 70050
AAXX 01124 71294 16/// /1302 11013 39720 40125 58026 60001 333 11027 4/012 70000
AAXX 01124 71494 16/// /2301 11044 21046 39638 40164 51012 60001 333 10001 21048 4/003 70009
BBXX SHIP 01124 99512 11703 41498 40320 10020 20020 40119 54010 70211 831// 22255 00043 2//// 3//// 4//// 80020
BBXX VRBQ6 01124 99512 11703 41498 40320 10020 20020 40119 54010 70211 831// 22255 00043 2//// 3//// 4//// 80020
BBXX VRFH2 01123 99412 11552 41297 63222 10070 20030 40220 52020 7//22 86244 22214 00050 20805 33232 40805 5//// 80050
AAXX 01124 91531 46/// /0405 1//// 40071 22200 00262
AAXX 01124 63705 32565 21308 10257 20164 38853 48509 82900 333 59006 81825 81927 555 10192
BBXX MINFR05 0112/ 99055 10000 46/// ///// 10260 40123 57018
AAXX 01124 71016 16/// ///// 11095 60001 333 11004 21099 70000
AAXX 01124 71988 16/// /3323 10031 20022 30094 40113 51036 60001 333 10091 20030 70063
BBXX 44055 01121 99391 70753 46/// ///// 1//// 91230 22200 00070 1//00 70000
BBXX 46109 01121 99481 71234 46/// /1203 10042 40250 91157 22200 00079
AAXX 01124 91642 46/// /0000 1//// 40076 22200 0////
AAXX 01124 71364 16/// /1205 11282 21312 30090 40232 53002 60001 333 11267 21301 4/030 70000
AAXX 01124 71364 16/// /1205 11282 21312 30090 40232 53002 60001 333 11267 21301 4/030 70000
BBXX MINFR05 0112/ 99055 10000 46/// ///// 10260 40123 57018
BBXX UHFW 01121 99443 11360 42/98 90609 11030 40194 56020 22253 06030 20401
BBXX UGSN 01121 99514 11409 42/98 /3408 11140 40251 57005 22200 00014 2//// ICE 41092
BBXX 44055 01121 99391 70753 46/// ///// 1//// 91230 22200 00070 1//00 70000
BBXX 46109 01121 99481 71234 46/// /1203 10042 40250 91157 22200 00079
BBXX 66022 01121 99541 10142 46/// /1908 10048 30060 22200 00040
AAXX 01124 92036 46/// /2904 10262 40093 22200 00313
BBXX 46094 01121 99446 71243 46/// /0908 10091 91150
BBXX 46094 01121 99446 71243 46/// /0807 10090 91140
BBXX 46094 01121 99446 71243 46/// /0807 10093 91230
BBXX 46094 01121 99446 71243 46/// /0907 10093 91220
BBXX 46094 01121 99446 71243 46/// /0806 10093 91210
BBXX 46094 01121 99446 71243 46/// /1106 10092 91200
BBXX 63055 01124 99606 10016 47998 /2516 10083 20035 49851 56001 700// 22200 10605 70025
BBXX 63106 01124 99610 10017 46/// /2217 10076 49841 57003 22200
BBXX 63113 01124 99610 10017 46/// /2416 10076 20035 49845 58004 22200 10706 70031
BBXX 62305 01124 99504 10000 46/// /2219 10120 20120 40087 58020 22200 01273 10602 70009 333 90710 91128
BBXX 62103 01124 99499 70029 46/97 /2123 10124 20118 40050 58033 22200 00118 10804 70018 333 90710 91129
BBXX 44056 01121 99362 70757 46/// ///// 1//// 91220 22200 00122 11001 21001 70003
AAXX 01124 93713 46/// /0000 10130 40027 22200 00140
BBXX 9V7645 01123 99323 71220 417// 80701 10135 20118 40190 54000 70211 88/// 22274 04140 2//// 3//// 4//// 5//// 6//// 80125 ICE /////
BBXX MINFR09 0112/ 99334 11404 46/// ///// 40159 57017
AAXX 01124 91689 46/// /0303 10270 40084 22200 00295
AAXX 01121 24923 11699 62306 11137 21164 39973 40295 52004 69942 73683 85901 333 11130 91110
BBXX WDF6832 01123 99390 70333 41398 33516 10160 2011/ 40350 51020 70200 831// 22224 00190 20302 332// 41505 5//// 6//// 80130 ICE /////
BBXX S6SR 01124 99058 70112 41997 30608 10300 20215 40150 54000 7//22 83/9/ 22273 00250 2//// 3//// 4//// 5//// 6//// 80240 ICE /////
BBXX MINFR09 0112/ 99334 11404 46/// ///// 40159 57017
BBXX UGSN 01121 99514 11409 42/98 /3408 11140 40251 57005 22200 00014 2//// ICE 41092
BBXX UHFW 01121 99443 11360 42/98 90609 11030 40194 56020 22253 06030 20401
AAXX 01124 67237 11540 72721 10307 20227 40117 60061 79522 8793/ 333 58036 94390
BBXX VRCU7 01123 99335 10254 41/98 33416 10170 20153 40110 50010 70200 8218/ 22264 04157 20302 334// 40603 80160
BBXX 44056 01121 99362 70757 46/// ///// 1//// 91220 22200 00122 11001 21001 70003
BBXX 46094 01121 99446 71243 46/// /0807 10090 91140
BBXX 46094 01121 99446 71243 46/// /1106 10092 91200
BBXX 46094 01121 99446 71243 46/// /0907 10093 91220
BBXX 46094 01121 99446 71243 46/// /0806 10093 91210
BBXX 46094 01121 99446 71243 46/// /0908 10091 91150
BBXX 46094 01121 99446 71243 46/// /0807 10093 91230
BBXX 3FQS8 01124 99530 71465 41/96 83543 00/// 10024 2002/ 49862 56008 70322 88/// 22264 0//// 2//// 3//// 4//// 5//// 6//// 80020 /////
BBXX S6SR 01124 99058 70112 41997 30608 10300 20215 40150 54000 7//22 83/9/ 22273 00250 2//// 3//// 4//// 5//// 6//// 80240 ICE /////
BBXX WDF6832 01123 99390 70333 41398 33516 10160 2011/ 40350 51020 70200 831// 22224 00190 20302 332// 41505 5//// 6//// 80130 ICE /////
BBXX MINFR09 0112/ 99334 11404 46/// ///// 40159 57017
AAXX 01124 71223 16/// /2609 11163 21201 60001 333 11038 21185 70000
BBXX 42013 01121 99272 70829 46/// ///// 1//// 40247 91220
AAXX 01121 98132 31462 70706 10212 20184 40224 52019 70544 85230 333 10237 56199 58003 85816 88357
AAXX 01121 98133 NIL
AAXX 01121 98222 31575 20204 10237 20194 40123 53015 70544 81230 333 10285 56999 59013 81820
AAXX 01121 98233 11570 73603 10220 20198 40150 52015 60061 70564 87500 333 10275 56999 59009 87620
AAXX 01121 98324 31462 53402 10270 20246 40130 52022 70544 81201 333 10322 56999 59020 81816 85080
AAXX 01121 98327 31668 73502 10251 20222 39973 40149 52028 70544 82208 333 10309 56999 59008 82836 87277
AAXX 01121 98334 32565 10000 10249 20237 39952 40158 52018 81200 333 10305 56999 59016 81820
AAXX 01121 98425 31560 60402 10284 20218 40131 52016 70142 83608 333 10296 56999 59012 83620 86280
AAXX 01121 98426 31568 20702 10259 20222 40138 52016 70544 81170 333 10327 56999 59015 81820
AAXX 01121 98427 32475 20202 10248 20223 39940 40119 52016 82100 333 10298 56199 59025 82818
AAXX 01121 98428 32458 41404 10275 20235 40127 53014 81861 333 10308 56999 59022 81618
AAXX 01121 98432 31568 20401 10264 20219 40135 52026 70544 81202 333 10312 56999 59017 81820
AAXX 01121 98433 31460 30306 10212 20196 39411 40136 53011 70544 83201 333 10247 56999 59009 83812
AAXX 01121 98434 32470 30303 10251 20243 30138 40146 52019 82201 333 10293 56199 59017 82818
AAXX 01121 98435 32470 30402 10260 20240 40139 5//// 83200 333 10298 56199 59019 83818
AAXX 01121 98442 NIL
AAXX 01121 98446 32475 32202 10260 20238 30094 40140 53022 82201 333 10310 56599 59009 82818
AAXX 01121 98447 NIL
AAXX 01121 98538 31466 43604 10280 20256 30102 40107 52011 70242 82201 333 10302 56199 58030 82811 83075
AAXX 01121 98546 11575 70405 10275 20254 30117 40125 52018 60011 72582 83208 333 10321 56999 59019 83820 87275
AAXX 01121 98548 11465 40000 10268 20248 30100 40106 53010 69907 70381 83207 333 10305 56299 59025 83816
AAXX 01121 98553 11464 80000 10254 20248 30114 40118 52022 60221 71586 8597/ 333 10283 56999 59008 81915 84618 88358
AAXX 01121 98558 11460 80606 10249 20249 40125 52024 60181 78088 8497/ 333 10293 56999 59010 83915 88357
AAXX 01121 98642 11460 73603 10260 20244 30102 40111 52022 60011 70282 87200 333 10292 56199 59019 87815
AAXX 01121 98644 11462 70401 10250 20243 30109 40118 52028 60111 70282 82268 333 10300 56999 59016 82268 83358 85272
AAXX 01121 98648 11468 63202 10250 20239 30032 40114 52015 70584 82262 333 10290 56299 59018 82817 83358 85072
AAXX 01121 98746 11462 81802 10270 20228 40108 52028 60151 70586 82977 333 10326 56999 58004 82918 84358 87275
AAXX 01121 98751 31468 70401 10230 20216 39440 40116 52012 70544 84970 333 10280 56999 59010 84915 87356
AAXX 01121 98752 32460 40000 10273 20256 40118 52025 82270 333 10303 56999 59014 82818 84358
AAXX 01121 98851 32470 63202 10264 20234 39952 40101 53028 82106 333 10312 56999 59008 82818 86075
BBXX 2AUO5 01123 99606 10016 41397 72218 10083 20063 49840 57004 70222 8/7// 22251 20603 325// 40906 80074
BBXX 63106 01124 99610 10017 46/// /2217 10076 49841 57003 22200
BBXX 63105 01124 99610 10017 47597 ///// 10078 20036 49840 57003 751// 22200
BBXX 62305 01124 99504 10000 46/96 /2219 10120 20120 40087 58020 22200 00116 10602 70009 333 90710 91128
BBXX 62103 01124 99499 70029 46/96 /2221 10123 20117 40064 57007 22200 00118 10804 70018 333 90710 91128
BBXX WDA2768 01124 99458 70871 43/// /3210 00/// 10011 21006 40006 55012 7//// 8//// 22261 0//// 2//// 3//// 4//// 5//// 6//// 80004 ICE /////
BBXX ONFI 01123 99297 50150 41998 01205 10260 2022/ 40210 54/// 7//// 80/// 22223 00250 2//// 3//// 4//// 5//// 6//// 80230 ICE /////
BBXX ONFI 01123 99297 50150 41998 01205 10260 2022/ 40210 54/// 7//// 80/// 22223 00250 2//// 3//// 4//// 5//// 6//// 80230 ICE /////
BBXX WDA2768 01124 99458 70871 43/// /3210 00/// 10011 21006 40006 55012 7//// 8//// 22261 0//// 2//// 3//// 4//// 5//// 6//// 80004 ICE /////
BBXX 42013 01121 99272 70829 46/// ///// 1//// 40247 91220
AAXX 01124 71408 46/// /0730 10018 20008 39959 40038 58050 6///1 333 10014 20003 7////
AAXX 01121 28552 41598 82304 11068 21091 30165 40282 57003 73673 885//
BBXX 42369 01121 99272 70903 46/// /2003 1//// 91140 22200 10401 70004
BBXX 42370 01121 99273 70905 46/// ///// 10228 91140 22200 10401 70005
BBXX 3FQS8 01124 99530 71465 41/96 83543 00/// 10024 20020 49862 56008 70322 88/// 22264 0//// 2//// 3//// 4//// 5//// 6//// 80020 /////
BBXX 42376 01121 99291 70879 46/// /0000 10215 40222 91140 22200 10101 70003
BBXX 42392 01121 99272 70900 46/// ///// 1//// 91140 22200 10401 70004
BBXX 42887 01121 99282 70885 46/// /2502 10230 91140 22200 10401 70005
BBXX 42392 01121 99272 70900 46/// ///// 1//// 91140 22200 10401 70004
BBXX 42887 01121 99282 70885 46/// /2502 10230 91140 22200 10401 70005
BBXX 42376 01121 99291 70879 46/// /0000 10215 40222 91140 22200 10101 70003
BBXX 42370 01121 99273 70905 46/// ///// 10228 91140 22200 10401 70005
BBXX 42369 01121 99272 70903 46/// /2003 1//// 91140 22200 10401 70004
BBXX 63055 01124 99606 10016 47998 /2516 10083 20035 49851 56001 700// 22200 10605 70025
BBXX 63106 01124 99610 10017 46/// /2217 10076 49841 57003 22200
BBXX 63113 01124 99610 10017 46/// /2416 10076 20035 49845 58004 22200 10706 70031
BBXX 62305 01124 99504 10000 46/// /2219 10120 20120 40087 58020 22200 01273 10602 70009 333 90710 91128
BBXX 62103 01124 99499 70029 46/97 /2123 10124 20118 40050 58033 22200 00118 10804 70018 333 90710 91129
AAXX 01124 78906 11459 70403 10246 20199 30172 40177 60122 7808/ 87800 333 10294 20221 59005 70136 84817 90919
AAXX 01124 78906 11459 70403 10246 20199 30172 40177 60122 7808/ 87800 333 10294 20221 59005 70136 84817 90919
AAXX 01124 78906 11459 70403 10246 20199 30172 40177 60122 7808/ 87800 333 10294 20221 59005 70136 84817 90919
AAXX 01124 41506 02697 73606 10100 21024 48513 60002 84420 333 10130 56990 59013 60007 84640 83460
AAXX 01124 41508 22997 00000 10110 21066 48524 60002 333 10160 59043 60007
AAXX 01124 41523 12997 00000 10140 21028 48511 60002 333 10155 56000 59042 60007
AAXX 01124 41535 12997 00000 10130 21009 48490 60002 333 10160 59022
AAXX 01124 41536 12997 00000 10120 21009 48491 60002 333 10172 59038
AAXX 01124 41573 12997 01302 10075 21005 48484 60002 333 10110 59037
AAXX 01124 41600 01995 00000 10190 20072 39834 40128 60002 70400 333 10208 59045 60007
AAXX 01124 41630 11995 00000 10180 20071 40146 60002 70500 333 10195 59042
AAXX 01124 41678 02997 03104 10190 20059 40145 60002 333 10200 59035 60007
AAXX 01124 41696 02997 03102 10100 21148 38004 48511 60002 333 10120 59011 60007
AAXX 01124 41697 02997 00000 10228 20092 39995 40150 60002 333 10245 59011 60007
AAXX 01124 41700 11996 00000 10195 20053 30015 40143 60002 70500 333 10210 59026
AAXX 01124 41725 02996 02704 10220 20034 30072 40151 60002 333 10225 59010 60007
AAXX 01124 41746 02996 03602 10210 20075 30113 40172 60002 333 10225 58000 60007
AAXX 01124 41759 22996 00904 10245 20012 30167 40173 60002 333 10250 59003
AAXX 01124 41785 02997 00502 10215 20056 30138 40151 60002 333 10225 59009 60007
AAXX 01124 41515 02697 30000 10107 21175 38549 48513 60002 83500 333 10140 56900 59020 60007 83650
AAXX 01124 41560 22697 31303 10030 21051 38295 48528 60002 82430 333 10065 58007 60007
AAXX 01124 41571 11996 02316 10170 20008 39557 40141 60002 70500 333 10205 59048
AAXX 01124 41594 31994 02304 10180 20058 39925 40143 70500 333 10205 59046
AAXX 01124 41685 32997 00000 10145 21084 38912 48495 333 10155 59009
AAXX 01124 41710 02997 01302 10165 21158 39378 40151 60002 333 10178 59030 60007
AAXX 01124 41718 12996 00000 10220 20049 30049 40152 60002 333 10230 59021
AAXX 01124 41739 02997 00000 10160 21028 39070 48526 60002 333 10200 59010 60007 41744 32996 02702 10185 21087 38779 48506 333 10195 59010
AAXX 01124 41749 11995 03104 10205 20054 30123 40156 60002 70400 333 10220 59009
AAXX 01124 41515 02697 30000 10107 21175 38549 48513 60002 83500 333 10140 56900 59020 60007 83650
AAXX 01124 41560 22697 31303 10030 21051 38295 48528 60002 82430 333 10065 58007 60007
AAXX 01124 41571 11996 02316 10170 20008 39557 40141 60002 70500 333 10205 59048
AAXX 01124 41594 31994 02304 10180 20058 39925 40143 70500 333 10205 59046
AAXX 01124 41685 32997 00000 10145 21084 38912 48495 333 10155 59009
AAXX 01124 41710 02997 01302 10165 21158 39378 40151 60002 333 10178 59030 60007
AAXX 01124 41718 12996 00000 10220 20049 30049 40152 60002 333 10230 59021
AAXX 01124 41739 02997 00000 10160 21028 39070 48526 60002 333 10200 59010 60007 41744 32996 02702 10185 21087 38779 48506 333 10195 59010
AAXX 01124 41749 11995 03104 10205 20054 30123 40156 60002 70400 333 10220 59009
BBXX C6TH9 01123 99165 51517 41296 80110 10250 2022/ 40120 54/// 7//11 8724/ 22200 00260 2//// 3//// 4//// 5//// 6//// 80230 ICE /////
BBXX 3EMK6 01124 99266 70925 41/// /1906 10230 2//// 40240 52020 7//// 8//// 22200 00230 2//// 3//// 4//// 5//// 6//// 8//// ICE /////
AAXX 0112/ 68902 46/// ///// 40134 54000
AAXX 01124 78906 11459 70403 10246 20199 30172 40177 60122 7808/ 87800 333 10294 20221 59005 70136 84817 90919
AAXX 01124 91375 46/// /0709 10274 40080 22200 00280
AAXX 01124 17601 11560 72615 10167 20107 30058 40089 56008 60021 72598 86902 91150 333 81928 85832 90710 91130
AAXX 01124 91165 32566 43005 10189 20161 30135 40171 58011 91153
AAXX 01124 91203 32471 80814 10306 20261 30129 40134 52007 82236
AAXX 01124 91212 32766 20709 10256 20228 31387 40121 50006 91154
AAXX 01124 91285 32462 82405 10190 20170 30151 91211
AAXX 01124 91317 32474 60908 10283 20271 30104 40108 5//// 82201
AAXX 01124 91324 32474 80909 10289 20257 30088 40090 81201
AAXX 01124 91334 32474 20315 10279 20232 30095 40098 52003 81101
AAXX 01124 91367 32474 50909 10278 20255 84201
AAXX 01124 91376 32474 80808 10273 20240 30080 40083 58005 84878
AAXX 01124 91408 32474 80807 10275 20224 30064 40102 52012 81278
AAXX 01124 91413 32469 60708 10273 20222 30093 40118 52010 82231
AAXX 01124 91155 NIL
AAXX 01124 91217 NIL
AAXX 01124 91232 NIL
AAXX 01124 91245 NIL
AAXX 01124 91250 NIL
AAXX 01124 91275 NIL
AAXX 01124 91339 NIL
AAXX 01124 91348 NIL
AAXX 01124 91353 NIL
AAXX 01124 91356 NIL
AAXX 01124 91366 NIL
AAXX 01124 91369 NIL
AAXX 01124 91371 NIL
AAXX 01124 91378 NIL
AAXX 01124 91425 NIL
AAXX 01124 91434 NIL
AAXX 01124 91601 NIL
AAXX 01124 91610 NIL
BBXX 42369 01121 99272 70903 46/// /2003 1//// 91200 22200 10401 70004
BBXX 42370 01121 99273 70905 46/// ///// 10228 91200 22200 10401 70005
BBXX 42376 01121 99291 70879 46/// /0000 10216 40226 53016 91200 22200 10101 70003
BBXX 42392 01121 99272 70900 46/// ///// 1//// 91200 22200 10401 70004
BBXX 42887 01121 99282 70885 46/// /2503 10230 91200 22200 10401 70005
BBXX 2AUO5 01123 99606 10016 41397 72218 10083 20063 49840 57004 70222 8/7// 22251 20603 325// 40906 80074
BBXX 63106 01124 99610 10017 46/// /2217 10076 49841 57003 22200
BBXX 63105 01124 99610 10017 47597 ///// 10078 20036 49840 57003 751// 22200
BBXX 62305 01124 99504 10000 46/96 /2219 10120 20120 40087 58020 22200 00116 10602 70009 333 90710 91128
BBXX 62103 01124 99499 70029 46/96 /2221 10123 20117 40064 57007 22200 00118 10804 70018 333 90710 91128
AAXX 01124 03008 12582 62123 10072 20030 49838 60001 82801 91150 333 82820 86075 90710 91132
BBXX VRZQ9 01124 99153 70228 41297 80418 10210 2015/ 40220 54/// 70222 88602 22253 00270 20905 305// 40906 5//// 6//// 80170 ICE /////
BBXX C6FR4 01124 99162 70861 41596 70520 10240 2//// 40170 53020 7//65 8597/ 22263 04280 20401 306// 40702 5//// 6//// 8//// ICE /////
AAXX 01124 03770 16/// ///// 10130 20097 60001 91150
AAXX 01124 91165 32566 43005 10189 20161 30135 40171 58011 91153
AAXX 01124 91212 32766 20709 10256 20228 31387 40121 50006 91154
AAXX 01124 91285 32462 82405 10190 20170 30151 91211
AAXX 01124 91317 32474 60908 10283 20271 30104 40108 5//// 82201
AAXX 01124 91334 32474 20315 10279 20232 30095 40098 52003 81101
AAXX 01124 91376 32474 80808 10273 20240 30080 40083 58005 84878
AAXX 01124 91408 32474 80807 10275 20224 30064 40102 52012 81278
AAXX 01124 91413 32469 60708 10273 20222 30093 40118 52010 82231
BBXX SHIP 01124 99288 11771 41597 82722 10220 20205 40120 56/// 78022 8836/ 22253 00220 20404 32528 40606 51207 6//// 80210 ICE /////
BBXX VRZQ9 01124 99153 70228 41297 80418 10210 2015/ 40220 54/// 70222 88602 22253 00270 20905 305// 40906 5//// 6//// 80170 ICE /////
BBXX 42376 01121 99291 70879 46/// /0000 10216 40226 53016 91200 22200 10101 70003
BBXX 42392 01121 99272 70900 46/// ///// 1//// 91200 22200 10401 70004
BBXX 42887 01121 99282 70885 46/// /2503 10230 91200 22200 10401 70005
BBXX 42370 01121 99273 70905 46/// ///// 10228 91200 22200 10401 70005
BBXX 42369 01121 99272 70903 46/// /2003 1//// 91200 22200 10401 70004
BBXX C6FR4 01124 99162 70861 41596 70520 10240 2//// 40170 53020 7//65 8597/ 22263 04280 20401 306// 40702 5//// 6//// 8//// ICE /////
BBXX 3EMK6 01124 99266 70925 41/// /1906 10230 2//// 40240 52020 7//// 8//// 22200 00230 2//// 3//// 4//// 5//// 6//// 8//// ICE /////
BBXX C6TH9 01123 99165 51517 41296 80110 10250 2022/ 40120 54/// 7//11 8724/ 22200 00260 2//// 3//// 4//// 5//// 6//// 80230 ICE /////
AAXX 01124 71392 17/// /0000 11039 21043 60011 7//4/ 333 11038 21042 70012
AAXX 01124 71724 16/// /1903 11029 21044 30170 40178 53007 60001 333 11029 21032 70000
AAXX 01124 71392 17/// /0000 11039 21043 60011 7//4/ 333 11038 21042 70012
AAXX 01124 71724 16/// /1903 11029 21044 30170 40178 53007 60001 333 11029 21032 70000
AAXX 01121 59559 32565 60308 10193 20141 30167 40196 50014 84250
BBXX C6XC2 01124 99355 11242 41896 83531 10000 21061 40280 51020 7//22 886// 22282 00100 20506 333// 40306 5//// 6//// 81020 ICE /////
BBXX C6XC2 01124 99355 11242 41896 83531 10000 21061 40280 51020 7//22 886// 22282 00100 20506 333// 40306 5//// 6//// 81020 ICE /////
AAXX 01124 71971 16/// /1603 11310 21339 30050 40098 53004 60001 333 11313 21347 70000
AAXX 01124 71971 16/// /1603 11310 21339 30050 40098 53004 60001 333 11313 21347 70000
BBXX 63055 01124 99606 10016 47998 /2516 10083 20035 49851 56001 700// 22200 10605 70025
BBXX 63106 01124 99610 10017 46/// /2217 10076 49841 57003 22200
BBXX 63113 01124 99610 10017 46/// /2416 10076 20035 49845 58004 22200 10706 70031
BBXX 62305 01124 99504 10000 46/// /2219 10120 20120 40087 58020 22200 01273 10602 70009 333 90710 91128
BBXX 62103 01124 99499 70029 46/97 /2123 10124 20118 40050 58033 22200 00118 10804 70018 333 90710 91129
BBXX SKEC 01121 99634 10206 46/// ///// 11012 40034 57009 22231 00025
BBXX 42369 01121 99272 70903 46/// /2003 1//// 91220 22200 10401 70004
BBXX 42370 01121 99273 70905 46/// ///// 10229 91220 22200 10401 70005
BBXX 42376 01121 99291 70879 46/// /0000 10216 40226 91220 22200 10101 70003
BBXX 42392 01121 99272 70900 46/// ///// 1//// 91220 22200 10401 70004
BBXX 42887 01121 99282 70885 46/// /2803 10233 91220 22200 10601 70006
BBXX 42369 01121 99272 70903 46/// /2003 1//// 91220 22200 10401 70004
BBXX 42392 01121 99272 70900 46/// ///// 1//// 91220 22200 10401 70004
BBXX 42887 01121 99282 70885 46/// /2803 10233 91220 22200 10601 70006
BBXX 42376 01121 99291 70879 46/// /0000 10216 40226 91220 22200 10101 70003
BBXX 42370 01121 99273 70905 46/// ///// 10229 91220 22200 10401 70005
BBXX SKEC 01121 99634 10206 46/// ///// 11012 40034 57009 22231 00025
BBXX C6XC2 01124 99355 11242 41896 83531 10000 21061 40280 51020 7//22 886// 22282 00100 20506 333 // 40306 5//// 6//// 81020 ICE /////
BBXX 2AUO5 01123 99606 10016 41397 72218 10083 20063 49840 57004 70222 8/7// 22251 20603 325// 40906 80074
BBXX 63106 01124 99610 10017 46/// /2217 10076 49841 57003 22200
BBXX 63105 01124 99610 10017 47597 ///// 10078 20036 49840 57003 751// 22200
BBXX 62305 01124 99504 10000 46/96 /2219 10120 20120 40087 58020 22200 00116 10602 70009 333 90710 91128
BBXX 62103 01124 99499 70029 46/96 /2221 10123 20117 40064 57007 22200 00118 10804 70018 333 90710 91128
BBXX ONGI 01124 99211 50068 41798 61419 10240 20180 40200 54000 7//21 852// 22233 00230 20505 314// 40302 5//// 6//// 80200 ICE /////
BBXX ONGI 01124 99211 50068 41798 61419 10240 20180 40200 54000 7//21 852// 22233 00230 20505 314// 40302 5//// 6//// 80200 ICE /////
AAXX 01124 89573 35980 02707 10007 21068 39870 49892 52003 333 80000 00292
AAXX 01124 89573 35980 02707 10007 21068 39870 49892 52003 333 80000 00292
BBXX VRAC9 01124 99329 11368 41298 70109 10140 2010/ 40140 57020 7//22 876// 22213 00240 2//// 3//// 4//// 5//// 6//// 80120 ICE /////
BBXX 63055 01124 99606 10016 47998 /2516 10083 20035 49851 56001 700// 22200 10605 70025
BBXX 63106 01124 99610 10017 46/// /2217 10076 49841 57003 22200
BBXX 63113 01124 99610 10017 46/// /2416 10076 20035 49845 58004 22200 10706 70031
BBXX 62305 01124 99504 10000 46/// /2219 10120 20120 40087 58020 22200 01273 10602 70009 333 90710 91128
BBXX 62103 01124 99499 70029 46/97 /2123 10124 20118 40050 58033 22200 00118 10804 70018 333 90710 91129
AAXX 01124 96221 32460 70000 10280 20252 30076 40090 52019 81576 333 10328 56999 59006 81617 85080
AAXX 01124 48481 32560 60302 10272 20191 30090 40118 52016 82151 333 10340 59008
AAXX 01121 11101 11575 81606 10086 20052 39690 40216 58007 69901 70262 885// 333 88630
AAXX 01121 11190 11608 80702 10009 20002 39962 40202 58002 60011 74544 887// 333 55300 87635
AAXX 01121 23921 42598 73401 11106 21114 30074 40198 52005 82951
BBXX VRAC9 01124 99329 11368 41298 70109 10140 2010/ 40140 57020 7//22 876// 22213 00240 2//// 3//// 4//// 5//// 6//// 80120 ICE /////
AAXX 01121 02805 41470 81603 11041 21053 39968 40103 54001 70272 8772/
AAXX 01124 89262 46/// /1405 11008 21023 39867 49910 52007 91240
AAXX 01121 31632 42999 00000 11319 21325 39903 40307 58///
AAXX 01121 25932 32999 03001 11208 21226 30176 40218 53001 333 11200
AAXX 01124 96695 11457 60000 10275 20253 30085 40090 51013 69901 70296 84221 333 10325 56000 57802 58012 84817 80860
BBXX 2AUO5 01123 99606 10016 41397 72218 10083 20063 49840 57004 70222 8/7// 22251 20603 325// 40906 80074
BBXX 63106 01124 99610 10017 46/// /2217 10076 49841 57003 22200
BBXX 63105 01124 99610 10017 47597 ///// 10078 20036 49840 57003 751// 22200
BBXX 62305 01124 99504 10000 46/96 /2219 10120 20120 40087 58020 22200 00116 10602 70009 333 90710 91128
BBXX 62103 01124 99499 70029 46/96 /2221 10123 20117 40064 57007 22200 00118 10804 70018 333 90710 91128
BBXX VRAC9 01124 99329 11368 41298 70109 10140 20100 40140 57020 7//22 876// 22213 00240 2//// 3//// 4//// 5//// 6//// 80120 ICE /////
AAXX 01121 23022 41496 60807 11086 21119 30156 40219 52014 78583 86900
AAXX 01124 71734 16/// /1504 11066 21077 39707 40105 56025 60001 333 11078 21094 70000
AAXX 01121 31484 32999 02302 11267 21275 39920 40295 58008 333 11197
BBXX MINFR00 0112/ 99116 51310 46/// ///// 10245 40141 57009
AAXX 01124 89614 46/// /0919 11041 29073 38929 4//// 5//// 333 90700 91127
BBXX 42043 01121 99290 70949 46/// /3303 1//// 40236 91230 22200 00136 333 91204
BBXX 42043 01121 99290 70949 46/// /3103 1//// 40230 91200 22200 00136 333 91204
AAXX 01124 89614 46/// /0919 11041 29073 38929 4//// 5//// 333 90700 91127
BBXX 42044 01121 99262 70971 46/// /3601 10181 20179 40221 91230 22200 00173 333 91201
BBXX 42044 01121 99262 70971 46/// /0801 10181 20179 40213 91200 22200 00172 333 91202
AAXX 0112/ 89769 46/// ///// 11068 39808 4//// 5////
AAXX 0112/ 89872 46/// ///// 11049 39780 4//// 5////
AAXX 0112/ 89866 46/// ///// 11025 39721 4//// 5////
AAXX 0112/ 89329 46/// ///// 11124 38706 4//// 5////
AAXX 0112/ 89868 46/// ///// 11076 39783 4//// 5//// 91210
AAXX 0112/ 89828 46/// ///// 11189 36514 4//// 5////
AAXX 0112/ 89108 46/// ///// 11221 36980 4//// 5////
AAXX 0112/ 89879 46/// ///// 11014 39742 4//// 5////
BBXX 42045 01121 99262 70965 46/// /1103 10194 40218 91230 22200 00190 333 91203
BBXX 42045 01121 99262 70965 46/// /0903 10195 40214 91200 22200 00195 333 91203
BBXX 42046 01121 99279 70940 46/// /1702 1//// 40236 91230 22200 00224 333 91203
BBXX 42046 01121 99279 70940 46/// /1602 1//// 40229 91200 22200 00224 333 91203
BBXX 42047 01121 99279 70936 46/// /1702 10210 20208 40233 91230 22200 00222 333 91202
BBXX 42047 01121 99279 70936 46/// /1802 10210 20208 40231 91200 22200 00222 333 91202
AAXX 01123 63695 32580 10204 10255 20086 81100 333 81825
BBXX 42045 01121 99262 70965 46/// /0903 10195 40214 91200 22200 00195 333 91203
BBXX 42045 01121 99262 70965 46/// /1103 10194 40218 91230 22200 00190 333 91203
BBXX 42044 01121 99262 70971 46/// /3601 10181 20179 40221 91230 22200 00173 333 91201
BBXX 42044 01121 99262 70971 46/// /0801 10181 20179 40213 91200 22200 00172 333 91202
BBXX 42043 01121 99290 70949 46/// /3303 1//// 40236 91230 22200 00136 333 91204
BBXX 42043 01121 99290 70949 46/// /3103 1//// 40230 91200 22200 00136 333 91204
BBXX MINFR00 0112/ 99116 51310 46/// ///// 10245 40141 57009
BBXX 63055 01124 99606 10016 47998 /2516 10083 20035 49851 56001 700// 22200 10605 70025
BBXX 63106 01124 99610 10017 46/// /2217 10076 49841 57003 22200
BBXX 63113 01124 99610 10017 46/// /2416 10076 20035 49845 58004 22200 10706 70031
BBXX 62305 01124 99504 10000 46/// /2219 10120 20120 40087 58020 22200 01273 10602 70009 333 90710 91128
BBXX 62103 01124 99499 70029 46/97 /2123 10124 20118 40050 58033 22200 00118 10804 70018 333 90710 91129
AAXX 01121 30781 32999 50000 11317 21335 39842 40376 57006 80001 333 11320
AAXX 01124 67009 32580 72816 10286 20237 39981 40099 57012 879// 333 0//00 85820 81920 84640 9476/8 95836/8 555 10330
BBXX 42047 01121 99279 70936 46/// /1702 10210 20208 40233 91230 22200 00222 333 91202
BBXX 42047 01121 99279 70936 46/// /1802 10210 20208 40231 91200 22200 00222 333 91202
BBXX 42046 01121 99279 70940 46/// /1602 1//// 40229 91200 22200 00224 333 91203
BBXX 42046 01121 99279 70940 46/// /1702 1//// 40236 91230 22200 00224 333 91203
AAXX 01120 44230 129// 60104 11191 21230 38909 40520 52007 69932 84048 333 11098 555 93100
AAXX 01120 44288 32699 23206 11161 21206 38236 40478 52016 82040 333 11101
AAXX 01124 67009 32580 72816 10286 20237 39981 40099 57012 879// 333 0//00 85820 81920 84640 94768 95836 555 10330
AAXX 0112/ 89799 46/// ///// 11241 4//// 5//// 91230
AAXX 0112/ 89314 46/// ///// 11120 38204 4//// 5//// 91220
AAXX 01121 32389 32999 70000 11288 21402 30174 40230 54000 82030 333 11249
BBXX 2AUO5 01123 99606 10016 41397 72218 10083 20063 49840 57004 70222 8/7// 22251 20603 325// 40906 80074
BBXX 63106 01124 99610 10017 46/// /2217 10076 49841 57003 22200
BBXX 63105 01124 99610 10017 47597 ///// 10078 20036 49840 57003 751// 22200
BBXX 62305 01124 99504 10000 46/96 /2219 10120 20120 40087 58020 22200 00116 10602 70009 333 90710 91128
BBXX 62103 01124 99499 70029 46/96 /2221 10123 20117 40064 57007 22200 00118 10804 70018 333 90710 91128
BBXX 4XFB 01124 99377 10161 41498 21204 10150 20120 40200 54000 70100 8218/ 222// 00185 20302 326// 403// 5//// 80130
BBXX 4XFB 01124 99377 10161 41498 21204 10150 20120 40200 54000 70100 8218/ 222// 00185 20302 326// 403// 5//// 80130
BBXX 4XFB 01124 99377 10161 41498 21204 10150 20120 40200 54000 70100 8218/ 222// 00185 20302 326// 403// 5//// 80130
AAXX 01121 89063 41498 53503 11002 21005 39888 49899 52002 70172 85500 333 10003 21010
BBXX 63055 01124 99606 10016 47998 /2516 10083 20035 49851 56001 700// 22200 10605 70025
BBXX 63106 01124 99610 10017 46/// /2217 10076 49841 57003 22200
BBXX 63113 01124 99610 10017 46/// /2416 10076 20035 49845 58004 22200 10706 70031
BBXX 62305 01124 99504 10000 46/// /2219 10120 20120 40087 58020 22200 01273 10602 70009 333 90710 91128
BBXX 62103 01124 99499 70029 46/97 /2123 10124 20118 40050 58033 22200 00118 10804 70018 333 90710 91129
AAXX 01124 17270 11650 80000 10068 20058 39515 40172 57014 69981 71062 8552/ 333 85635 88459
AAXX 01121 89063 41498 53503 11002 21005 39888 49899 52002 70172 85500 333 10003 21010
AAXX 01121 10961 11/01 72612 11042 21042 37091 47062 51004 60011 74174 875// 333 49270 55301 20970 41132 876// 91123 91213 96471
BBXX 2AUO5 01123 99606 10016 41397 72218 10083 20063 49840 57004 70222 8/7// 22251 20603 325// 40906 80074
BBXX 63106 01124 99610 10017 46/// /2217 10076 49841 57003 22200
BBXX 63105 01124 99610 10017 47597 ///// 10078 20036 49840 57003 751// 22200
BBXX 62305 01124 99504 10000 46/96 /2219 10120 20120 40087 58020 22200 00116 10602 70009 333 90710 91128
BBXX 62103 01124 99499 70029 46/96 /2221 10123 20117 40064 57007 22200 00118 10804 70018 333 90710 91128
BBXX 63055 01124 99606 10016 47998 /2516 10083 20035 49851 56001 700// 22200 10605 70025
BBXX 63106 01124 99610 10017 46/// /2217 10076 49841 57003 22200
BBXX 63113 01124 99610 10017 46/// /2416 10076 20035 49845 58004 22200 10706 70031
BBXX 62305 01124 99504 10000 46/// /2219 10120 20120 40087 58020 22200 01273 10602 70009 333 90710 91128
BBXX 62103 01124 99499 70029 46/97 /2123 10124 20118 40050 58033 22200 00118 10804 70018 333 90710 91129
BBXX PFFH 01123 99015 70040 41497 41708 10273 20251 40117 54000 70181 84200 22223 00279 20101 318// 40803 80257 91030 9755
BBXX 2AUO5 01123 99606 10016 41397 72218 10083 20063 49840 57004 70222 8/7// 22251 20603 325// 40906 80074
BBXX 63106 01124 99610 10017 46/// /2217 10076 49841 57003 22200
BBXX 63105 01124 99610 10017 47597 ///// 10078 20036 49840 57003 751// 22200
BBXX 62305 01124 99504 10000 46/96 /2219 10120 20120 40087 58020 22200 00116 10602 70009 333 90710 91128
BBXX 62103 01124 99499 70029 46/96 /2221 10123 20117 40064 57007 22200 00118 10804 70018 333 90710 91128
BBXX 63055 01124 99606 10016 47998 /2516 10083 20035 49851 56001 700// 22200 10605 70025
BBXX 63106 01124 99610 10017 46/// /2217 10076 49841 57003 22200
BBXX 63113 01124 99610 10017 46/// /2416 10076 20035 49845 58004 22200 10706 70031
BBXX 62305 01124 99504 10000 46/// /2219 10120 20120 40087 58020 22200 01273 10602 70009 333 90710 91128
BBXX 62103 01124 99499 70029 46/97 /2123 10124 20118 40050 58033 22200 00118 10804 70018 333 90710 91129
AAXX 01121 78090 15/// /0000 10260 30254 40257 69901 91200 222// 00210
BBXX PDGS 01124 99257 71364 41/98 /2117 10175 40178 58012 70222 8//// 22224 00210 2////
AAXX 01123 91553 31598 20605 10250 20248 40078 58003 70222 82900 10315 569// 59010 82820 81925
AAXX 01123 91553 31598 20605 10250 20248 40078 58003 70222 82900 10315 569// 59010 82820 81925
BBXX 2AUO5 01123 99606 10016 41397 72218 10083 20063 49840 57004 70222 8/7// 22251 20603 325// 40906 80074
BBXX 63106 01124 99610 10017 46/// /2217 10076 49841 57003 22200
BBXX 63105 01124 99610 10017 47597 ///// 10078 20036 49840 57003 751// 22200
BBXX 62305 01124 99504 10000 46/96 /2219 10120 20120 40087 58020 22200 00116 10602 70009 333 90710 91128
BBXX 62103 01124 99499 70029 46/96 /2221 10123 20117 40064 57007 22200 00118 10804 70018 333 90710 91128
BBXX PDGS 01124 99257 71364 41/98 /2117 10175 40178 58012 70222 8//// 22224 00210 2////
AAXX 01124 96465 12470 70310 10284 20252 30075 40108 60001 83842 333 10312 83810 87080
BBXX 63055 01124 99606 10016 47998 /2516 10083 20035 49851 56001 700// 22200 10605 70025
BBXX 63106 01124 99610 10017 46/// /2217 10076 49841 57003 22200
BBXX 63113 01124 99610 10017 46/// /2416 10076 20035 49845 58004 22200 10706 70031
BBXX 62305 01124 99504 10000 46/// /2219 10120 20120 40087 58020 22200 01273 10602 70009 333 90710 91128
BBXX 62103 01124 99499 70029 46/97 /2123 10124 20118 40050 58033 22200 00118 10804 70018 333 90710 91129
BBXX 2AUO5 01123 99606 10016 41397 72218 10083 20063 49840 57004 70222 8/7// 22251 20603 325// 40906 80074
BBXX 63106 01124 99610 10017 46/// /2217 10076 49841 57003 22200
BBXX 63105 01124 99610 10017 47597 ///// 10078 20036 49840 57003 751// 22200
BBXX 62305 01124 99504 10000 46/96 /2219 10120 20120 40087 58020 22200 00116 10602 70009 333 90710 91128
BBXX 62103 01124 99499 70029 46/96 /2221 10123 20117 40064 57007 22200 00118 10804 70018 333 90710 91128
AAXX 01124 83470 32698 52702 10224 20203 39258 40113 85200 333 20195 58000
AAXX 01124 91723 NIL
AAXX 01124 91964 36/// /0706 10219 20214 40174 57009
BBXX 63055 01124 99606 10016 47998 /2516 10083 20035 49851 56001 700// 22200 10605 70025
BBXX 63106 01124 99610 10017 46/// /2217 10076 49841 57003 22200
BBXX 63113 01124 99610 10017 46/// /2416 10076 20035 49845 58004 22200 10706 70031
BBXX 62305 01124 99504 10000 46/// /2219 10120 20120 40087 58020 22200 01273 10602 70009 333 90710 91128
BBXX 62103 01124 99499 70029 46/97 /2123 10124 20118 40050 58033 22200 00118 10804 70018 333 90710 91129
AAXX 01124 87078 32970 01804 10246 20132 39958 40105 52004 333 10330 20180
AAXX 01121 34579 42998 81302 10002 21015 30146 40191 55004 8005/
AAXX 01124 71770 16/// /2502 11020 21059 39603 40404 51018 60001 333 10035 21039 70000
AAXX 01124 71770 16/// /2502 11020 21059 39603 40404 51018 60001 333 10035 21039 70000
BBXX 2AUO5 01123 99606 10016 41397 72218 10083 20063 49840 57004 70222 8/7// 22251 20603 325// 40906 80074
BBXX 63106 01124 99610 10017 46/// /2217 10076 49841 57003 22200
BBXX 63105 01124 99610 10017 47597 ///// 10078 20036 49840 57003 751// 22200
BBXX 62305 01124 99504 10000 46/96 /2219 10120 20120 40087 58020 22200 00116 10602 70009 333 90710 91128
BBXX 62103 01124 99499 70029 46/96 /2221 10123 20117 40064 57007 22200 00118 10804 70018 333 90710 91128
AAXX 01124 71390 46/// /2804 11047 6///1 333 11039 21067 7////
BBXX 42046 01121 99279 70940 46/// /1702 1//// 40236 91230 22200 00224 333 91203
BBXX 63055 01124 99606 10016 47998 /2516 10083 20035 49851 56001 700// 22200 10605 70025
BBXX 63106 01124 99610 10017 46/// /2217 10076 49841 57003 22200
BBXX 63113 01124 99610 10017 46/// /2416 10076 20035 49845 58004 22200 10706 70031
BBXX 62305 01124 99504 10000 46/// /2219 10120 20120 40087 58020 22200 01273 10602 70009 333 90710 91128
BBXX 62103 01124 99499 70029 46/97 /2123 10124 20118 40050 58033 22200 00118 10804 70018 333 90710 91129
AAXX 01124 82098 32497 50000 10294 20243 30102 40119 83560 333 20251 58001
BBXX 2AUO5 01123 99606 10016 41397 72218 10083 20063 49840 57004 70222 8/7// 22251 20603 325// 40906 80074
BBXX 63106 01124 99610 10017 46/// /2217 10076 49841 57003 22200
BBXX 63105 01124 99610 10017 47597 ///// 10078 20036 49840 57003 751// 22200
BBXX 62305 01124 99504 10000 46/96 /2219 10120 20120 40087 58020 22200 00116 10602 70009 333 90710 91128
BBXX 62103 01124 99499 70029 46/96 /2221 10123 20117 40064 57007 22200 00118 10804 70018 333 90710 91128
AAXX 01121 10929 11486 82702 10109 20079 39676 40202 58001 69901 70382 87845 333 31/// 55300 20372 30367 83816 86640
AAXX 01124 89065 46/// /0205 11005 21040 39792 49869 52006 91240
AAXX 01124 89065 46/// /9901 10004 21046 39792 49869 52006 91220
AAXX 01124 89266 46/// /1906 11068 21094 39792 49933 52006 91220
AAXX 01134 89266 46/// /1708 11071 21094 39792 49933 52006 91250
AAXX 01124 89065 46/// /9901 10004 21046 39792 49869 52006 91220
AAXX 01124 89065 46/// /9902 10003 21047 39792 49869 52006 91210
AAXX 01124 89266 46/// /1804 11068 21093 39791 49932 52005 91210
AAXX 01124 89065 46/// /9902 10003 21047 39792 49869 52006 91210
AAXX 01124 71604 17/// /1005 10022 20022 60121 7//4/ 333 10006 21007 4/042 70209 555 10100
AAXX 01121 25356 42999 20000 11466 21508 30121 40240 54000 80001 333 91000
AAXX 01121 31439 00000 11201 21220 30213 40261 57002 80009
AAXX 01114 91697 14/// /0802 10263 20232 30100 40105 55003
AAXX 01124 91697 14/// /0903 10264 20228 30092 40097 55008 60001 333 10313
AAXX 01124 91691 14/// /0701 10259 20246 30098 40101 55005 60031 333 10320
AAXX 01114 91691 14/// /0701 10259 20244 30103 40106 55004
AAXX 01121 34740 43/// /1005 10036 20018 30026 40123 57011
AAXX 01124 97600 32459 72704 10268 20247 30089 40095 52019 84971 333 10314 56600 57961 59009 82916 86459 80958
AAXX 01121 25248 32998 00000 11364 21394 39756 40264 57004 333 11296 91101
AAXX 01121 10469 01481 82005 10093 20082 39953 40116 58003 60021 72165 885// 333 32/// 55300 60027 83617 88620
AAXX 01121 10488 01465 82104 10088 20072 39845 40124 58004 69911 76152 878// 333 31/// 55300 20195 30193 41272 69917 83814 87620
BBXX PDGS 01124 99283 71282 41/98 /0204 10170 40230 58005 70222 8//// 22224 00180 2////
AAXX 01121 10980 11581 72417 10016 20015 38156 48500 50001 60021 72874 875// 333 44085 55300 20415 30415 87620 91124 91218 90326 91219 96245 96468 96445
AAXX 01124 71363 16/// /3010 11373 21414 30145 40204 51009 60001 333 11336 21374 70000
AAXX 01124 71363 16/// /3010 11373 21414 30145 40204 51009 60001 333 11336 21374 70000
AAXX 01124 71332 16/// /0802 11305 21338 30242 40273 51016 60001 333 11282 21319 4/013 70000
AAXX 01124 71029 16/// /0507 11342 21379 30232 40274 52015 60001 333 11310 21346 4/028 70012
AAXX 01121 10685 01145 82307 10081 20078 39467 40134 58006 69961 76154 887// 333 31/// 41998 55300 20188 30188 69967 85703 88709 96451 96446
AAXX 01124 71472 16/// /3127 60001 333 7////
AAXX 01124 71005 16/// ///// 11173 21208 60001 333 11037 21178 70000
AAXX 01124 71047 16/// ///// 11153 21189 60001 333 11036 21154 70000
AAXX 01124 71233 16/// /1303 11144 21229 60001 333 11029 21180 7////
AAXX 01124 71507 16/// /1910 11145 21174 60001 333 11067 21152 70005
AAXX 01124 71507 16/// /1910 11145 21174 60001 333 11067 21152 70005
AAXX 01124 71245 46/// /2212 11135 21239 6///1 333 11097 21157 7////
