AAXX 01184 40255 32560 50000 10102 20041 39450 40172 52003 85200 333 10136 85830
BBXX ZMFR 01174 99426 31771 43/// /1925 10148 20116 40038 52007 22233 00164
BBXX ZMENA 01174 99412 31732 46/// ///// 10175 20156 40045 222//
BBXX 46218 01181 99345 71208 46/// ///// 1//// 91732 22200 00133 11305 21003 329// 41304 70024
BBXX 44172 01181 99445 70634 46/// ///// 1//// 91731 22200 00052 10803 20803 70013
BBXX 44097 01181 99410 70711 46/// ///// 1//// 91732 22200 00109 10702 20702 70010
AAXX 01184 40270 31650 42608 10094 20018 39266 40177 52007 70522 85800 333 10122 83825 84630
BBXX WDD2876 01184 99469 70869 41/97 83142 10005 2//// 49986 54/// 72622 8//// 22263 00033 2//04 3//// 4//// 5//// 6//// 8//// ICE /////
AAXX 01184 78764 32560 50715 10250 20148 39025 40160 57013 82202 333 10254 20188 30/// 54000 562/2 82530 85075
AAXX 01184 78764 32560 50715 10250 20148 39025 40160 57013 82202 333 10254 20188 30/// 54000 562/2 82530 85075
AAXX 01184 78764 32560 50715 10250 20148 39025 40160 57013 82202 333 10254 20188 30/// 54000 562/2 82530 85075
AAXX 01184 40310 32660 12808 10056 21002 38949 48489 52015 81100 333 10123 81830
BBXX 42362 01181 99278 70907 46/// /2105 10228 20206 40254 91745
BBXX 42363 01181 99282 70892 46/// /2407 10256 20183 40254 91745 333 91207
BBXX 42364 01181 99291 70881 46/// /2505 10217 20189 40247 91745
BBXX WDB9950 01183 99463 11517 41398 81715 10015 21024 40220 57010 7//22 887// 22254 00020 20102 310// 40907 5//// 6//// 80000 ICE /////
BBXX WHKM 01184 99147 30899 41197 51519 10220 20190 40110 54000 76021 83470 22233 0//// 2//// 3//// 4//// 5//// 6//// 80200 ICE /////
BBXX C6WK7 01184 99344 70077 41697 23213 1//// 2//// 40310 50/// 7//22 823// 22214 04170 20200 3//// 40200 5//// 6//// 8//// ICE /////
AAXX 01184 08495 12580 12613 10153 20106 30272 40280 53011 60002 81500 91750 333 10174 81626
AAXX 01184 91334 32474 40211 10275 20229 30075 40078 56010 82101 333 568/9 555 90118
AAXX 01184 91334 32474 40211 10275 20229 30075 40078 56010 82101 333 568/9 555 90118
BBXX DBBT 01181 99339 30184 46/// /3002 10166 20149 40152 52006 22220 00133
BBXX DBBU 01181 99542 10120 46/// /2107 10093 20096 40061 52003 22270 00061
BBXX DBKV 01181 99199 70224 46/// /0714 10195 20093 40207 57016 22211 00210
BBXX 46249 01181 99338 71197 46/// ///// 1//// 91737 22200 00141 11102 21001 328// 41102 70012
BBXX 46248 01181 99461 71247 46/// ///// 1//// 91734 22200 00096 11106 21004 325// 41103 70028
BBXX 46244 01181 99409 71244 46/// ///// 1//// 91735 22200 00101 11304 21002 328// 41302 70018
BBXX 44098 01181 99428 70702 46/// ///// 1//// 91737 22200 00082 10801 20801 70006
BBXX 46240 01181 99366 71219 46/// ///// 1//// 91742 22200 00120 11102 21001 335// 41102 70010
BBXX 46237 01181 99378 71226 46/// ///// 1//// 91740 22200 00109 11203 21002 326// 41203 70016
BBXX 46212 01181 99408 71243 46/// ///// 1//// 91742 22200 00104 11104 21003 329// 41103 70019
BBXX 46217 01181 99342 71194 46/// ///// 1//// 91742 22200 00144 11302 21001 326// 41301 70010
AAXX 01184 61902 32582 11516 10260 20196 40132 81800 333 10284 58007 81824
AAXX 01184 78774 32670 60520 10318 20187 30008 40101 58016 82204 333 10323 20220 30/// 56202 58005 82835 84075
AAXX 01184 78774 32670 60520 10318 20187 30008 40101 58016 82204 333 10323 20220 30/// 56202 58005 82835 84075
AAXX 01184 78774 32670 60520 10318 20187 30008 40101 58016 82204 333 10323 20220 30/// 56202 58005 82835 84075
BBXX 41115 01181 99184 70673 46/// ///// 1//// 91735 22200 11002 21002 70010
BBXX 41114 01181 99276 70802 46/// ///// 1//// 91746 22200 00234 10901 20901 70003
BBXX 51203 01181 99208 71570 46/// ///// 1//// 91743 22200 00244 11101 20901 326// 41101 70007
BBXX 52200 01181 99134 11448 46/// ///// 1//// 91745 22200 00285 11104 20803 309// 41102 70018
BBXX 51201 01181 99217 71581 46/// ///// 1//// 91742 22200 00240 11103 20902 332// 41102 70013
BBXX 51205 01181 99210 71564 46/// ///// 1//// 91748 22200 00241 11004 21003 305// 41102 70018
BBXX 46114 01181 99364 71222 46/// ///// 1//// 91734 22200 00121 11205 21003 329// 41204 70025
BBXX 46060 01181 99606 71468 46/// /3209 11015 49943 58050 91750 22200 00048 10402 20402 70009 333 91211 555 11092 22095 31713 43211 61749 316088 315089 316095 315095 315091 312091 83110 91717
AAXX 01184 89054 11107 80413 10028 20023 49906 57020 60021 74075 886// 333 56199 88703 96463 96451
AAXX 01184 89056 11/04 90114 10017 20013 49893 57020 60003 74542 333 89/01
AAXX 01184 89057 11450 83506 10014 20002 49898 57015 69923 76842 8802/ 333 56079 88510
AAXX 01184 89058 11462 83411 10024 20015 39880 49901 57016 60021 76874 8572/
AAXX 01184 89059 12960 21805 10012 21009 49905 57006 60003 80002 333 74008 81163
AAXX 01184 89251 41150 83614 10033 20014 49887 57018 76062 8672/
AAXX 01184 16597 32570 12203 10110 20092 30167 40256 53013 81100 333 10157 81820
AAXX 01184 67297 32470 6//// 10284 20239 40100 84430 333 58002 94367
AAXX 01184 68906 12598 72620 10148 20116 30042 40106 57005 69922 8657/ 222// 00133 20401 333 10184 20147 91033 555 20002 91010
AAXX 01184 68994 11496 83013 10093 20093 39796 49824 58013 60092 76066 885// 222// 00074 333 10106 20088 91019 555 20090 69965 90982
AAXX 01184 91772 31398 20903 10254 20234 4//// 60001 70200 82100 333 562// 82707
AAXX 01184 91776 NIL
AAXX 01184 91779 31498 20000 10230 20210 40098 53006 60001 70200 82101 333 569/9 82816
AAXX 01184 91784 11498 20910 10261 20239 40102 53013 60011 70181 82201 333 562/9 82818
AAXX 01184 91792 31498 60306 10250 20237 40112 53011 60001 70301 84801 333 561/9 84816 86077
AAXX 01184 91762 11598 41902 10245 20235 40088 53011 69901 70202 81101 333 569/9 81822 84079
AAXX 01184 91759 11598 40000 10241 20238 40091 53010 60001 70200 81101 333 569/9 81824 84079
AAXX 01184
AAXX 01184 91762 11598 41902 10245 20235 40088 53011 69901 70202 81101 333 569/9 81822 84079
AAXX 01184 91759 11598 40000 10241 20238 40091 53010 60001 70200 81101 333 569/9 81824 84079
AAXX 01184 91772 31398 20903 10254 20234 4//// 60001 70200 82100 333 562// 82707
AAXX 01184 91776 NIL
AAXX 01184 91779 31498 20000 10230 20210 40098 53006 60001 70200 82101 333 569/9 82816
AAXX 01184 91784 11498 20910 10261 20239 40102 53013 60011 70181 82201 333 562/9 82818
AAXX 01184 91792 31498 60306 10250 20237 40112 53011 60001 70301 84801 333 561/9 84816 86077
AAXX 01184 78954 11484 31118 10286 20228 30080 40144 69901 70181 83840 333 10294 20245 59003 82818 90920
AAXX 01184 78954 11484 31118 10286 20228 30080 40144 69901 70181 83840 333 10294 20245 59003 82818 90920
AAXX 01184 89009 41556 73310 11274 36897 52009 77672 87021 333 87430
AAXX 01184 08583 31558 80720 10215 20115 40188 70622 83536 333 10235 59008 83624 83360 86270
AAXX 01184 08589 32458 80620 10213 20127 40174 83501 333 10240 59010 83616 88070
AAXX 01184 08594 31459 70823 10210 20128 40173 70622 84232 333 10227 59010 84615 83360 87070
BBXX A8IZ2 31201 01184 99338 10289 41598 23128 10150 20100 40170 52010 70111 82/// 22233 80120
BBXX A8IZ2 01184 99338 10289 41598 23128 10150 20100 40170 52010 70111 82/// 22233 80120
AAXX 01184 89009 41556 73310 11274 36897 52009 77672 87021 333 87430
AAXX 01184 78384 12460 70715 10283 20240 40185 60001 81205 333 10289 20255 58009 70000 81818 85073
AAXX 01184
AAXX 01184 78383 12460 50609 10276 20223 40189 60001 82202 333 10288 20238 58012 70012 82818 83070
AAXX 01184 78384 12460 70715 10283 20240 40185 60001 81205 333 10289 20255 58009 70000 81818 85073
AAXX 01184 78383 12460 50609 10276 20223 40189 60001 82202 333 10288 20238 58012 70012 82818 83070
AAXX 01181 63333 42980 00000 10156 21007 38193 40225 333 10274 59011
AAXX 01181 63340 42980 03601 10180 20026 37960 40186 333 10276 58000
AAXX 01181 63402 NIL
AAXX 01181 63450 42980 00706 10160 20034 37760 40152 333 10250 59005
AAXX 01181 63451 42980 0//// 1//// 2//// 38164 4//// 333 10275 59007
AAXX 01181 63471 NIL
AAXX 01181 NNNN
AAXX 01184 61901 169// /1309 10174 20145 39667 40174 53002 60002 91750 333 10204 8//99 555 7/090
BBXX C6DM2 01183 99067 10989 416// 33405 10270 20228 40100 50010 7//00 831// 22272 0//// 2//// 3//// 4//// 5//// 6//// 80240 ICE /////
BBXX WSNB 01184 99526 71383 41297 81830 00/// 10090 2007/ 49800 57033 75152 886// 22273 0//// 20711 318// 41010 5//// 6//// 80078 ICE /////
BBXX NWS0022 01184 99416 70714 43/// /2110 10111 20055 40150 5//// 7//// 8//// 222// 04098 2//// 3//// 4//// 5//// 6//// 8//// ICE /////
BBXX ELPP9 01183 99202 70567 41799 40524 10270 20228 40150 56000 70211 84002 22274 04260 20208 305// 40208 5//// 6//// 80240 ICE /////
BBXX WFLG 01184 99323 71242 41497 70507 10139 20109 40230 51020 70122 875// 22264 00117 20301 332// 40604 5//// 6//// 80122 ICE /////
BBXX WDC6698 01184 99213 71579 43/// /1202 1//// 2//// 40160 5//// 7//// 8//// 222// 04237 2//// 3//// 4//// 5//// 6//// 8//// ICE /////
BBXX HPHV 01184 99226 70862 417// 10716 10260 20186 40240 51010 7//00 81//9 22253 00280 21004 30909 41004 51004 6//// 80210 ICE /////
BBXX PCHM 01184 99341 31692 41598 51825 10180 20163 40131 53022 70311 84448 22264 00190 20205 327// 40205 80170
BBXX C6TQ6 01184 99299 70900 41697 62905 10200 20169 40250 54000 70222 8656/ 22200 00160 2//// 39999 4//// 5//// 6//// 80180 ICE /////
BBXX DBKV 01181 99199 70224 46/// /0714 10195 20093 40207 57016 22211 00210
BBXX DBBT 01181 99339 30184 46/// /3002 10166 20149 40152 52006 22220 00133
BBXX ONAI 01184 99174 50363 41798 70521 10320 2028/ 40120 54000 701// 87090 22283 00277 2//// 3//// 4//// 5//// 6//// 80290 ICE /////
BBXX ONCE 01184 99241 11231 41898 60725 10180 2011/ 40200 54000 70110 85260 22214 00245 2//// 3//// 4//// 5//// 6//// 80140 ICE /////
BBXX HZGN 01183 99062 10935 41497 51809 10270 20243 40113 58012 70362 832// 22264 02260 20201 318// 40402 5//// 80250
BBXX LAJF7 01184 99324 11364 41597 72817 10170 2010/ 40196 57035 70222 8786/ 22213 00216 2//// 3//// 4//// 5//// 6//// 80130 ICE /////
BBXX C6DM2 01183 99067 10989 416// 33405 10270 20228 40100 50010 7//00 831// 22272 0//// 2//// 3//// 4//// 5//// 6//// 80240 ICE /////
BBXX A8IZ2 01184 99338 10289 41598 23128 10150 20100 40170 52010 70111 82/// 22233 80120
BBXX KABP 01183 99364 70043 41399 22625 10161 2012/ 40278 52008 70200 828// 22253 00159 20605 324// 40706 5//// 6//// 80138 ICE /////
BBXX DBBU 01181 99542 10120 46/// /2107 10093 20096 40061 52003 22270 00061
BBXX C6WK7 01184 99344 70077 41697 23213 1//// 2//// 40310 50/// 7//22 823// 22214 04170 20200 3//// 40200 5//// 6//// 8//// ICE /////
BBXX ELPP9 01183 99202 70567 41799 40524 10270 20228 40150 56000 70211 84002 22274 04260 20208 305// 40208 5//// 6//// 80240 ICE /////
BBXX A8UT7 01184 99383 70694 41598 72513 10141 20058 40148 58010 70211 8348/ 22263 2//// 326// 40804 80098
BBXX HPHV 01184 99226 70862 417// 10716 10260 20186 40240 51010 7//00 81//9 22253 00280 21004 30909 41004 51004 6//// 80210 ICE /////
BBXX WFLG 01184 99323 71242 41497 70507 10139 20109 40230 51020 70122 875// 22264 00117 20301 332// 40604 5//// 6//// 80122 ICE /////
BBXX ELQQ4 01184 99205 70730 41697 40913 10260 2025/ 40140 56020 7//22 842// 22224 00250 2//// 3//// 4//// 5//// 6//// 80250 ICE /////
BBXX 46114 01181 99364 71222 46/// ///// 1//// 91734 22200 00121 11205 21003 329// 41204 70025
BBXX 51205 01181 99210 71564 46/// ///// 1//// 91748 22200 00241 11004 21003 305// 41102 70018
BBXX 46060 01181 99606 71468 46/// /3209 11015 49943 58050 91750 22200 00048 10402 20402 70009 333 91211 555 11092 22095 31713 43211 61749 316088 315089 316095 315095 315091 312091 83110 91717
BBXX 41115 01181 99184 70673 46/// ///// 1//// 91735 22200 11002 21002 70010
BBXX 41114 01181 99276 70802 46/// ///// 1//// 91746 22200 00234 10901 20901 70003
BBXX WSNB 01184 99526 71383 41297 81830 00/// 10090 2007/ 49800 57033
BBXX 3FQS8 01184 99533 71484 41296 83543 00/// 10020 2101/ 49930 52030 70322 88865 22264 00050 21008 335// 40907 5//// 6//// 81010 /////
BBXX DFGX2 01183 99546 71765 41/98 33419 11011 21056 40020 55000 70211 832// 22264 00030 2//// 82026
BBXX 46217 01181 99342 71194 46/// ///// 1//// 91742 22200 00144 11302 21001 326// 41301 70010
BBXX 46212 01181 99408 71243 46/// ///// 1//// 91742 22200 00104 11104 21003 329// 41103 70019
BBXX 46240 01181 99366 71219 46/// ///// 1//// 91742 22200 00120 11102 21001 335// 41102 70010
BBXX 46237 01181 99378 71226 46/// ///// 1//// 91740 22200 00109 11203 21002 326// 41203 70016
BBXX 44098 01181 99428 70702 46/// ///// 1//// 91737 22200 00082 10801 20801 70006
BBXX 46249 01181 99338 71197 46/// ///// 1//// 91737 22200 00141 11102 21001 328// 41102 70012
BBXX 46244 01181 99409 71244 46/// ///// 1//// 91735 22200 00101 11304 21002 328// 41302 70018
BBXX 46248 01181 99461 71247 46/// ///// 1//// 91734 22200 00096 11106 21004 325// 41103 70028
BBXX ZCDF4 01183 99157 70734 41498 40833 10278 20244 40160 53001 70211 83144 22275 00270 20604 309// 41006 5//// 80254
BBXX 42362 01181 99278 70907 46/// /2105 10228 20206 40254 91745
BBXX 42364 01181 99291 70881 46/// /2505 10217 20189 40247 91745
BBXX 42363 01181 99282 70892 46/// /2407 10256 20183 40254 91745 333 91207
AAXX 01181 76040 32960 03303 10186 20066 30235 40249 52089 91740 333 10190 20059 30/// 58066 98660
AAXX 01181 76225 32960 00201 10142 21044 38744 40254 50006 91745 333 10142 20017 30/// 58090
AAXX 01181 76256 32980 00000 10200 20084 30197 40211 5//// 91745 333 10208 20074 30/// 58049
AAXX 01181 76305 32970 00601 10238 20066 30197 40205 52014 91740 333 10242 20120 30/// 58037
AAXX 01181 76323 32970 00000 10184 20042 38353 40322 52038 91750 333 10184 20020 30/// 58062
AAXX 01181 76342 31762 41202 10168 21003 39579 40298 57060 70321 84030 91750 333 10172 20110 30/// 56010 58077 84357
AAXX 01181 76373 32980 00000 10167 21035 38292 40257 52076 91750 333 10180 21032 30/// 59054
AAXX 01181 76382 32980 03402 10195 20049 39002 40281 52012 91747 333 10200 20076 30/// 58070
AAXX 01181 76390 31866 42106 10114 21006 38327 40289 52015 70544 81085 91730 333 10124 20060 30/// 56074 58068 81356 83070
AAXX 01181 76458 32970 02703 10226 20155 30179 40183 57003 91738 333 10248 20112 30/// 58037
AAXX 01181 76491 32560 43606 10240 20124 39890 40284 52020 84400 91750 333 10250 20108 30/// 56800 58084 84630
AAXX 01181 76499 32560 73402 10259 20194 30233 40256 52015 85430 91740 333 10260 20158 30/// 5689/ 58079 85631 82357
AAXX 01181 76525 32980 60505 10126 20035 37529 40202 52007 80006 91740 333 10126 20108 30/// 56//5 58040 86080
AAXX 01181 76548 31468 70201 10248 20217 30249 40259 51015 70542 874// 91740 333 10252 20200 30/// 56100 58057 87611
AAXX 01181 76556 32970 20000 10248 20144 39153 40181 51001 80005 91735 333 10255 20130 30/// 56003 58028 82070
AAXX 01181 76577 32570 83604 10193 20139 38094 40206 52004 81407 91740 333 10197 20110 30/// 56505 58034 81622 88277 99021
AAXX 01181 76593 32370 40505 10278 20257 30216 40218 58006 82260 91750 333 10282 20210 30/// 5611/ 58031 82820 82330 91007 91505
AAXX 01181 76625 32960 41103 10216 20069 38190 40174 52024 84070 91750 333 10218 20130 30/// 56050 58019 84360
AAXX 01181 76654 31956 02702 10284 20214 30166 40170 57012 70544 91750 333 10284 20222 30/// 58023
AAXX 01181 76665 31562 31702 10215 20110 38161 40205 57006 70300 81120 91750 333 10226 20078 30/// 56550 57853 58032 81824
AAXX 01181 76687 31666 50701 10214 20125 38744 40240 50003 70211 85400 91745 333 10218 20118 30/// 563// 58030 83620 82823
AAXX 01181 76692 31556 73603 10260 20221 30209 40229 52008 70242 8423/ 91745 333 10261 20212 30/// 5611/ 58036 81820 83630 83360
AAXX 01181 76737 31480 50201 10228 20125 38834 40226 50001 70322 82237 91735 333 10233 20122 30/// 56229 58027 82817 91105 91511
AAXX 01181 76750 11560 40603 10301 20214 30182 40192 57014 69931 70020 83204 91750 333 10313 20204 30/// 56106 58020 83820
AAXX 01181 76762 31904 23602 10276 20224 38787 40167 58016 70400 80004 91746 333 10278 20138 30/// 56006 58020 82060 91204
AAXX 01181 76773 31566 43601 10232 20133 38458 40191 57012 70544 81408 91748 333 10237 20042 30/// 56909 58018 81620 83268
AAXX 01181 76843 32665 30801 10276 20172 39525 40168 50007 82106 91745 333 10286 20186 30/// 568// 58015 82820
AAXX 01181 76845 32460 51302 10174 20125 37983 40206 58002 85600 91747 333 10184 20108 30/// 56200 58024 85717
AAXX 01181 76160 32962 00501 10212 20026 39960 40211 52011 91730 333 10212 20070 30/// 58040
AAXX 01181 76243 32974 03107 10148 20049 30058 40360 52025 91730 333 10164 20092 30/// 58172
AAXX 01181 76253 32982 00502 10240 20084 30119 40209 57002 91743 333 10245 20120 30/// 58025 92002
AAXX 01181 76311 32980 00000 10244 20091 39911 40195 52008 91740 333 10254 20086 30/// 58033
AAXX 01181 76640 31458 40903 10252 20226 30247 40259 52016 70540 8223/ 91740 333 10268 20196 30/// 5623/ 58045 82811
AAXX 01184 81225 11558 60707 10300 20228 40116 69901 71511 83932 333 56299 59005 81925 83830 5358
AAXX 01184 81200 12570 51605 10300 20219 40117 60001 84852 333 56229 58001 83830 83358
AAXX 01184 81202 12570 61110 10284 20226 40123 69901 70182 85832 333 56299 59008 1820 5630
AAXX 01184 81209 NIL
AAXX 01184 81251 NIL
BBXX BAREU05 01184 99358 70100 46/// ///// 40314 52010 22200
AAXX 01181 13586 32970 01001 11036 21064 39974 40281 52015 333 10062 95990
BBXX BAREU08 01184 99396 70252 46/// ///// 40322 52025 22254
BBXX 46070 01181 99551 11753 46/// /3104 11021 21124 40061 54000 91750 22200 00031 11005 20401 3//// 41005 70027 333 91205 555 11042 22044 31658 43307 61749 311042 315044 310047 323047 324049 327047 83206 91705
BBXX 46105 01181 99590 71522 46/// ///// 1//// 91750 22200 10705 70025
BBXX 42003 01181 99260 70856 46/// /0101 1//// 91750 22200 10501 314// 40501 70003 333 91203 555 11015 22016 31749 40103 61749 007013 014014 026014 014013 042014 040015 80102 91749
BBXX 42040 01181 99292 70882 46/// /2505 10208 40234 58017 91750 22200 00201 10401 70003 333 91205 555 11046 22052 31749 42505 61749 249046 250046 253042 256041 243039 236039
BBXX 42002 01181 99258 70937 46/// /1502 10249 20229 40250 50000 91750 22200 00248 10602 316// 40602 70008 333 91203 555 11022 22023 31749 41603 61749 152021 158016 151016 142020 142019 133020
BBXX 41047 01181 99275 70715 46/// /1103 10245 40225 57027 91750 22200 00258 10902 312// 40902 70010 333 91203 555 11026 22027 31707 40904 61749 106025 106024 103025 096027 091029 088026 80903 91708
BBXX 41043 01181 99211 70650 46/// /0908 10255 20211 40206 58026 91750 22200 00258 11005 20703 300// 41003 70023 333 91210 555 11085 22091 31713 41010 61749 092080 094082 096084 102085 101081 099080 81009 91735
BBXX 41036 01181 99342 70770 46/// ///// 10196 20062 40189 58039 91750 22200 00200 10501 70007
BBXX 44066 01181 99396 70726 46/// /2207 10105 20065 40170 58037 91750 22200 00127 10502 20501 3//// 40801 70008 333 91209 555 11076 22080 31742 42209 61749 216072 218072 208065 216061 214059 209059
BBXX 32012 01181 99197 50856 46/// ///// 1//// 91750 22200 11403 70016
BBXX 46006 01181 99408 71375 46/// /2304 10119 49998 51036 91750 22200 00121 10907 20401 3//// 40907 70036 333 91206 555 11047 22049 31739 42306 61749 229044 227046 223033 203031 196030 202024
BBXX 46002 01181 99426 71305 46/// ///// 10129 40092 56006 91750 22200 00119 10806 70032
BBXX 46084 01181 99566 71361 46/// ///// 10053 20049 49915 56039 91750 22200 00068 11213 70067
BBXX 46075 01181 99539 71608 46/// /2412 10024 21024 40024 56022 91750 22200 00039 10908 20806 300// 40906 70041 333 91215 555 11128 22136 31653 42417 61749 235119 234114 238132 239126 237134 239140 82415 91657
BBXX 46005 01181 99461 71310 46/// ///14 10114 40044 56003 91750 22200 00099 10907 20806 3//// 40904 70036 333 91217 555 11149 22161
BBXX 46059 01181 99380 71300 46/// /1511 10139 40150 55000 91750 22200 00136 10604 20604 3//// 41302 70021 333 91212 555 11113 22121 31712 41615 61749 152105 154105 155110 153109 151111 149107
BBXX 46080 01181 99580 71500 46/// /3212 11030 21095 49955 56042 91750 22200 00044 10705 20705 70026 333 91214 555 11127 22133 31712 43415 61749 323120 328118 328118 329118 331116 333116 83313 91718
BBXX 41012 01181 99300 70805 46/// /2504 10190 40229 58025 91750 22200 00231 10901 20301 314// 40901 70004 333 91205 555 11046 22047 31730 42606 61749 253044 253048 264051 261050 257046 253044
BBXX 41049 01181 99275 70630 46/// /1803 10234 20194 40234 56026 91750 22200 00235 10903 20401 300// 40903 70015 333 91204 555 11032 22033 31650 41804 61749 179030 178026 178023 178025 181027 177031 81803 91651
BBXX 41001 01181 99347 70727 46/// ///// 10192 20096 40207 58030 91750 22200 00215 10704 70018
BBXX 42020 01181 99270 70967 46/// /0213 10175 20107 40271 51013 91750 22200 00197 10704 20704 70022 333 91215 555 11134 22142 31728 40216 61749 017127 014127 015135 018126 019130 017127
BBXX 41044 01181 99217 70587 46/// /0908 10255 20197 40212 56022 91750 22200 00258 11007 20604 300// 41005 70034 333 91210 555 11089 22094 31735 40810 61749 088082 087080 090082 093081 095080 094085 80909 91654
BBXX 41048 01181 99320 70696 46/// /2704 10219 20148 40216 58026 91750 22200 00222 11004 20301 3//// 41004 70019 333 91204 555 11035 22036 31735 42705 61749 269035 273039 270036 276037 278035 280034 82704 91735
BBXX 41060 01181 99148 70510 46/// ///// 1//// 91750 22200 11106 70032
BBXX 42065 01181 99170 70817 46/// /0609 10271 20227 91750 22200 10803 20703 3//// 40801 70017 333 91211 555 11096 22103 31717 40611 61749 058088 055085 057085 053089 054087 053087 80510 91718
BBXX 42001 01181 99259 70897 46/// /1302 10245 20189 40252 58007 91750 22200 00244 10501 20401 3//// 40501 70004 333 91202 555 11020 22022 31749 41203 61749 130017 128013 124017 129016 123014 119019
BBXX 42035 01181 99292 70944 46/// /3610 10151 20075 40275 50012 91750 22200 00151 10402 20402 70011 333 91212 555 11111 22119 31655 43614 61749 359104 358113 358106 358113 356108 358116
BBXX 42012 01181 99301 70876 46/// /2205 10195 20186 40224 58020 91750 22200 00179 10301 20301 70003 333 91206 555 11060 22069 31737 42206 61749 219055 220056 219053 215052 213051 211050
BBXX 42058 01181 99149 70749 46/// /0812 10274 20216 40129 58023 91750 22200 00271 10906 20605 310// 40903 70031 333 91215 555 11128 22137 31724 40815 61749 082119 081116 082115 085115 079112 079105 80813 91724
BBXX 42060 01181 99163 70635 46/// /0709 10269 20212 40167 58028 91750 22200 00274 10704 20704 300// 41002 70022 333 91211 555 11095 22101 31728 40612 61749 066089 066091 064090 064082 067080 062082 80610 91727
BBXX 42056 01181 99198 70849 46/// /0709 10267 20244 40190 58014 91750 22200 00270 10603 20603 70017 333 91211 555 11097 22103 31705 40611 61749 070091 070091 075087 072091 068096 071090 80710 91706
BBXX 42036 01181 99285 70845 46/// /2004 10216 20187 40236 58014 91750 22200 00214 10501 70003 333 91205 555 11041 22045 31652 41905 61749 203038 208036 206037 197039 199036 194039
BBXX 42059 01181 99151 70675 46/// /0910 10274 20211 40154 58025 91750 22200 00277 10704 20704 3//// 40802 70022 333 91211 555 11103 22109 31715 40812 61749 091094 087093 089095 087099 085092 087089 80911 91715
BBXX 42019 01181 99279 70954 46/// /0112 10181 20107 40264 50010 91750 22200 10604 20604 70021 333 91215 555 11132 22141 31704 42916 61749 353124 284122 283127 283125 283131 284127
BBXX 44005 01181 99432 70691 46/// /0000 10069 20038 40152 58011 91750 22200 00082 10702 20401 3//// 40702 70009 333 91201 555 11005 22005 31652 43502 61749 249004 275005 268009 265010 300009 337012
BBXX 42055 01181 99222 70940 46/// /0805 10255 20226 40227 50000 91750 22200 00251 10602 20501 309// 40601 70009 333 91206 555 11056 22061 31650 40707 61749 079052 078054 075052 072053 078053 079054 80806 91750
BBXX 44025 01181 99402 70732 46/// /2006 10089 20053 40160 58039 91750 22200 00101 10701 20401 317// 40701 70006 333 91207 555 11063 22066 31744 42007 61749 197058 198054 198050 197048 194044 194039
BBXX 41008 01181 99314 70809 46/// /2205 10150 20149 40221 58028 91750 22200 00164 10901 20301 70004 333 91206 555 11053 22056 31651 42207 61749 224052 225051 227051 228055 222059 220058
BBXX 44039 01181 99411 70727 46/// /1401 10086 20053 40169 91745 22200 00088 1//00 70002 333 91202
BBXX 44060 01181 99413 70721 46/// ///02 10076 40162 91745 22200 00095 333 91202 555 11021 22021
BBXX 44022 01181 99409 70737 46/// ///06 10094 20038 40155 91745 22200 00073 333 91208 555 11072 22077
BBXX 41004 01181 99325 70791 46/// /2207 10202 20132 40208 58031 91750 22200 00209 10301 20301 70005 333 91209 555 11076 22081 31715 42109 61749 220073 220071 218070 215069 215070 218063
BBXX 44014 01181 99366 70748 46/// /0607 1//// 40180 58044 91750 22200 00145 10501 20501 318// 40901 70007 333 91208 555 11070 22070 31732 40608 61749 063068 062070 065064 066064 066062 066060
BBXX 44009 01181 99385 70747 46/// /1807 10105 40177 58046 91750 22200 00103 10701 20301 300// 40701 70006 333 91208 555 11070 22075 31733 41808 61749 176064 175065 178067 178064 177063 180067
BBXX 44027 01181 99443 70673 46/// /3406 10010 21017 40149 51004 91750 22200 00077 10402 20401 3//// 40801 70008 333 91208 555 11065 22067 31743 43408 61749 336063 335062 336058 349052 359059 004060
BBXX 41013 01181 99334 70777 46/// /2107 10195 20079 40193 58035 91750 22200 00187 10501 20501 313// 40801 70006 333 91208 555 11080 22087 31739 42109 61749 212074 215072 214069 214067 212064 214060
BBXX 44065 01181 99404 70737 46/// /1806 10085 20053 40158 58043 91750 22200 00094 10701 20301 316// 40701 70005 333 91207 555 11061 22064 31650 41807 61749 183058 181058 186055 187050 178045 165038 81906 91745
BBXX 44040 01181 99410 70736 46/// /2304 10095 20034 40161 91745 22200 1//00 70000 333 91208 555 11051 22062
BBXX 44020 01181 99414 70702 46/// /2302 10079 20064 40163 58023 91750 22200 00066 1//00 70002 333 91202 555 11019 22020 31701 42704 61749 243017 325015 289022 268031 265038 262034
AAXX 01181 76040 32960 03303 10186 20066 30235 40249 52089 91740 333 10190 20059 30/// 58066 98660
AAXX 01181 76225 32960 00201 10142 21044 38744 40254 50006 91745 333 10142 20017 30/// 58090
AAXX 01181 76256 32980 00000 10200 20084 30197 40211 5//// 91745 333 10208 20074 30/// 58049
AAXX 01181 76305 32970 00601 10238 20066 30197 40205 52014 91740 333 10242 20120 30/// 58037
AAXX 01181 76323 32970 00000 10184 20042 38353 40322 52038 91750 333 10184 20020 30/// 58062
AAXX 01181 76342 31762 41202 10168 21003 39579 40298 57060 70321 84030 91750 333 10172 20110 30/// 56010 58077 84357
AAXX 01181 76373 32980 00000 10167 21035 38292 40257 52076 91750 333 10180 21032 30/// 59054
AAXX 01181 76382 32980 03402 10195 20049 39002 40281 52012 91747 333 10200 20076 30/// 58070
AAXX 01181 76390 31866 42106 10114 21006 38327 40289 52015 70544 81085 91730 333 10124 20060 30/// 56074 58068 81356 83070
AAXX 01181 76458 32970 02703 10226 20155 30179 40183 57003 91738 333 10248 20112 30/// 58037
AAXX 01181 76491 32560 43606 10240 20124 39890 40284 52020 84400 91750 333 10250 20108 30/// 56800 58084 84630
AAXX 01181 76499 32560 73402 10259 20194 30233 40256 52015 85430 91740 333 10260 20158 30/// 5689/ 58079 85631 82357
AAXX 01181 76525 32980 60505 10126 20035 37529 40202 52007 80006 91740 333 10126 20108 30/// 56//5 58040 86080
AAXX 01181 76548 31468 70201 10248 20217 30249 40259 51015 70542 874// 91740 333 10252 20200 30/// 56100 58057 87611
AAXX 01181 76556 32970 20000 10248 20144 39153 40181 51001 80005 91735 333 10255 20130 30/// 56003 58028 82070
AAXX 01181 76577 32570 83604 10193 20139 38094 40206 52004 81407 91740 333 10197 20110 30/// 56505 58034 81622 88277 99021
AAXX 01181 76593 32370 40505 10278 20257 30216 40218 58006 82260 91750 333 10282 20210 30/// 5611/ 58031 82820 82330 91007 91505
AAXX 01181 76625 32960 41103 10216 20069 38190 40174 52024 84070 91750 333 10218 20130 30/// 56050 58019 84360
AAXX 01181 76654 31956 02702 10284 20214 30166 40170 57012 70544 91750 333 10284 20222 30/// 58023
AAXX 01181 76665 31562 31702 10215 20110 38161 40205 57006 70300 81120 91750 333 10226 20078 30/// 56550 57853 58032 81824
AAXX 01181 76687 31666 50701 10214 20125 38744 40240 50003 70211 85400 91745 333 10218 20118 30/// 563// 58030 83620 82823
AAXX 01181 76692 31556 73603 10260 20221 30209 40229 52008 70242 8423/ 91745 333 10261 20212 30/// 5611/ 58036 81820 83630 83360
AAXX 01181 76737 31480 50201 10228 20125 38834 40226 50001 70322 82237 91735 333 10233 20122 30/// 56229 58027 82817 91105 91511
AAXX 01181 76750 11560 40603 10301 20214 30182 40192 57014 69931 70020 83204 91750 333 10313 20204 30/// 56106 58020 83820
AAXX 01181 76762 31904 23602 10276 20224 38787 40167 58016 70400 80004 91746 333 10278 20138 30/// 56006 58020 82060 91204
AAXX 01181 76773 31566 43601 10232 20133 38458 40191 57012 70544 81408 91748 333 10237 20042 30/// 56909 58018 81620 83268
AAXX 01181 76843 32665 30801 10276 20172 39525 40168 50007 82106 91745 333 10286 20186 30/// 568// 58015 82820
AAXX 01181 76845 32460 51302 10174 20125 37983 40206 58002 85600 91747 333 10184 20108 30/// 56200 58024 85717
AAXX 01181 76160 32962 00501 10212 20026 39960 40211 52011 91730 333 10212 20070 30/// 58040
AAXX 01181 76243 32974 03107 10148 20049 30058 40360 52025 91730 333 10164 20092 30/// 58172
AAXX 01181 76253 32982 00502 10240 20084 30119 40209 57002 91743 333 10245 20120 30/// 58025 92002
AAXX 01181 76311 32980 00000 10244 20091 39911 40195 52008 91740 333 10254 20086 30/// 58033
AAXX 01181 76640 31458 40903 10252 20226 30247 40259 52016 70540 8223/ 91740 333 10268 20196 30/// 5623/ 58045 82811
BBXX 46014 01181 99394 71240 46/// /0702 10107 40216 51006 91750 22200 00108 11104 3//// 41104 70021 333 91204 555 11019 22020 31749 40805 61749 074016 070013 078020 080029 073034 078037
BBXX 46011 01181 99350 71210 46/// /1603 10102 40219 51015 91750 22200 00130 11305 20401 328// 41305 70024 333 91204 555 11026 22026 31654 41205 61749 158025 149025 135025 129027 125026 117033
BBXX 46047 01181 99324 71195 46/// /1403 10108 40224 51020 91750 22200 00134 11504 330// 41504 70022 333 91205 555 11031 22032 31650 41406 61749 140032 141031 126030 147032 156031 152033
BBXX 46086 01181 99325 71180 46/// /0000 10110 40227 51023 91750 22200 00151 11504 329// 41504 70018 333 91201 555 11004 22004 31710 41402 61749 092004 137002 124004 136008 173010 091005
BBXX 46027 01181 99419 71244 46/// /1402 10106 40201 53012 91750 22200 00090 11103 327// 41103 70016 333 91202 555 11018 22021 31749 41402 61749 137014 135011 124005 107003 103006 085011
BBXX 46050 01181 99442 71246 46/// /1106 10088 40198 55000 91750 22200 00093 10904 20301 324// 40904 70020 333 91208 555 11067 22070 31651 41008 61749 108062 109059 105059 102060 107061 106062
BBXX 46088 01181 99483 71232 46/// /0606 10067 40242 57006 91750 22200 00076 10301 20301 70005 333 91207 555 11061 22064 31651 40609 61749 062058 062065 064075 063076 058071 059073
BBXX 46069 01181 99337 71202 46/// /1504 10098 40225 52022 91750 22200 00132 11405 329// 41405 70023 333 91205 555 11036 22037 31744 41405 61749 154035 153030 143032 153023 148027 162030
BBXX 46013 01181 99382 71233 46/// /0808 10110 40213 53016 91750 22200 00108 11204 20402 3//// 41203 70019 333 91209 555 11082 22087 31725 40911 61749 076077 076079 078084 077086 078088 083086
BBXX 46012 01181 99374 71229 46/// /1003 10124 40212 51017 91750 22200 00119 11104 20401 331// 41104 70019 333 91204 555 11029 22034 31712 41205 61749 097026 095026 092030 108033 117035 126032
BBXX 46087 01181 99485 71247 46/// /1214 10077 20031 40221 55008 91750 22200 00078 10904 20503 322// 40903 70018 333 91217 555 11151 22162 31704 41117 61749 117140 119135 117140 117133 115139 114140
BBXX 46029 01181 99461 71245 46/// /1009 10091 20034 40196 56010 91750 22200 00089 11105 20503 325// 41104 70025 333 91212 555 11101 22108 31746 41012 61749 102094 102094 102095 100092 098096 098097
BBXX 46028 01181 99357 71219 46/// /1304 10137 40206 51016 91750 22200 00131 11204 20401 329// 41204 70021 333 91205 555 11043 22048 31743 41305 61749 128039 131037 133036 128033 121033 119031
BBXX 46054 01181 99342 71204 46/// /1602 10094 40222 51020 91750 22200 00129 11204 20301 300// 41204 70022 333 91204 555 11024 22024 31734 41604 61749 160023 163028 141023 140013 134010 124011
BBXX 46025 01181 99337 71191 46/// /1401 10106 20106 40221 51022 91750 22200 00145 11402 324// 41402 70011 333 91203 555 11011 22011 31705 41404 61749 142012 151014 140015 135016 141022 139020
AAXX 01181 76040 32960 03303 10186 20066 30235 40249 52089 91740 33310190 20059 30/// 58066 98660
AAXX 01181 76225 32960 00201 10142 21044 38744 40254 50006 91745 33310142 20017 30/// 58090
AAXX 01181 76256 32980 00000 10200 20084 30197 40211 5//// 91745 33310208 20074 30/// 58049
AAXX 01181 76305 32970 00601 10238 20066 30197 40205 52014 91740 33310242 20120 30/// 58037
AAXX 01181 76323 32970 00000 10184 20042 38353 40322 52038 91750 33310184 20020 30/// 58062
AAXX 01181 76342 31762 41202 10168 21003 39579 40298 57060 70321 8403091750 333 10172 20110 30/// 56010 58077 84357
AAXX 01181 76373 32980 00000 10167 21035 38292 40257 52076 91750 33310180 21032 30/// 59054
AAXX 01181 76382 32980 03402 10195 20049 39002 40281 52012 91747 33310200 20076 30/// 58070
AAXX 01181 76390 31866 42106 10114 21006 38327 40289 52015 70544 8108591730 333 10124 20060 30/// 56074 58068 81356 83070
AAXX 01181 76458 32970 02703 10226 20155 30179 40183 57003 91738 33310248 20112 30/// 58037
AAXX 01181 76491 32560 43606 10240 20124 39890 40284 52020 84400 91750333 10250 20108 30/// 56800 58084 84630
AAXX 01181 76499 32560 73402 10259 20194 30233 40256 52015 85430 91740333 10260 20158 30/// 5689/ 58079 85631 82357
AAXX 01181 76525 32980 60505 10126 20035 37529 40202 52007 80006 91740333 10126 20108 30/// 56//5 58040 86080
AAXX 01181 76548 31468 70201 10248 20217 30249 40259 51015 70542 874//91740 333 10252 20200 30/// 56100 58057 87611
AAXX 01181 76556 32970 20000 10248 20144 39153 40181 51001 80005 91735333 10255 20130 30/// 56003 58028 82070
AAXX 01181 76577 32570 83604 10193 20139 38094 40206 52004 81407 91740333 10197 20110 30/// 56505 58034 81622 88277 99021
AAXX 01181 76593 32370 40505 10278 20257 30216 40218 58006 82260 91750333 10282 20210 30/// 5611/ 58031 82820 82330 91007 91505
AAXX 01181 76625 32960 41103 10216 20069 38190 40174 52024 84070 91750333 10218 20130 30/// 56050 58019 84360
AAXX 01181 76654 31956 02702 10284 20214 30166 40170 57012 70544 91750333 10284 20222 30/// 58023
AAXX 01181 76665 31562 31702 10215 20110 38161 40205 57006 70300 8112091750 333 10226 20078 30/// 56550 57853 58032 81824
AAXX 01181 76687 31666 50701 10214 20125 38744 40240 50003 70211 8540091745 333 10218 20118 30/// 563// 58030 83620 82823
AAXX 01181 76692 31556 73603 10260 20221 30209 40229 52008 70242 8423/91745 333 10261 20212 30/// 5611/ 58036 81820 83630 83360
AAXX 01181 76737 31480 50201 10228 20125 38834 40226 50001 70322 8223791735 333 10233 20122 30/// 56229 58027 82817 91105 91511
AAXX 01181 76750 11560 40603 10301 20214 30182 40192 57014 69931 7002083204 91750 333 10313 20204 30/// 56106 58020 83820
AAXX 01181 76762 31904 23602 10276 20224 38787 40167 58016 70400 8000491746 333 10278 20138 30/// 56006 58020 82060 91204
AAXX 01181 76773 31566 43601 10232 20133 38458 40191 57012 70544 8140891748 333 10237 20042 30/// 56909 58018 81620 83268
AAXX 01181 76843 32665 30801 10276 20172 39525 40168 50007 82106 91745333 10286 20186 30/// 568// 58015 82820
AAXX 01181 76845 32460 51302 10174 20125 37983 40206 58002 85600 91747333 10184 20108 30/// 56200 58024 85717
AAXX 01181 76160 32962 00501 10212 20026 39960 40211 52011 91730 33310212 20070 30/// 58040
AAXX 01181 76243 32974 03107 10148 20049 30058 40360 52025 91730 33310164 20092 30/// 58172
AAXX 01181 76253 32982 00502 10240 20084 30119 40209 57002 91743 33310245 20120 30/// 58025 92002
AAXX 01181 76311 32980 00000 10244 20091 39911 40195 52008 91740 33310254 20086 30/// 58033
AAXX 01181 76640 31458 40903 10252 20226 30247 40259 52016 70540 8223/91740 333 10268 20196 30/// 5623/ 58045 82811
AAXX 01184 78073 12565 20608 10256 20170 40223 60001 81101 333 58013 81825
BBXX 3FQS8 01184 99533 71484 41296 83543 00/// 10020 21010 49930 52030 70322 88865 22264 00050 21008 335// 40907 5//// 6//// 81010 /////
BBXX 46002 01181 99426 71305 46/// ///// 10129 40092 56006 91750 22200 00119 10806 70032
BBXX 46005 01181 99461 71310 46/// ///14 10114 40044 56003 91750 22200 00099 10907 20806 3//// 40904 70036 333 91217 555 11149 22161
BBXX 46006 01181 99408 71375 46/// /2304 10119 49998 51036 91750 22200 00121 10907 20401 3//// 40907 70036 333 91206 555 11047 22049 31739 42306 61749 229044 227046 223033 203031 196030 202024
BBXX 46028 01181 99357 71219 46/// /1304 10137 40206 51016 91750 22200 00131 11204 20401 329// 41204 70021 333 91205 555 11043 22048 31743 41305 61749 128039 131037 133036 128033 121033 119031
BBXX 46029 01181 99461 71245 46/// /1009 10091 20034 40196 56010 91750 22200 00089 11105 20503 325// 41104 70025 333 91212 555 11101 22108 31746 41012 61749 102094 102094 102095 100092 098096 098097
BBXX 46050 01181 99442 71246 46/// /1106 10088 40198 55000 91750 22200 00093 10904 20301 324// 40904 70020 333 91208 555 11067 22070 31651 41008 61749 108062 109059 105059 102060 107061 106062
BBXX 46054 01181 99342 71204 46/// /1602 10094 40222 51020 91750 22200 00129 11204 20301 300// 41204 70022 333 91204 555 11024 22024 31734 41604 61749 160023 163028 141023 140013 134010 124011
BBXX WFLG 01184 99323 71242 41497 70507 10139 20109 40230 51020 70122 875// 22264 00117 20301 332// 40604 5//// 6//// 80122 ICE /////
BBXX WSNB 01184 99526 71383 41297 81830 00/// 10090 20070 49800 57033 75152 886// 22273 0//// 20711 318// 41010 5//// 6//// 80078 ICE /////
BBXX DBFR 01181 99535 10086 46/// /1904 10103 20101 40043 57017 22240 00058
BBXX DBND 01181 99536 10086 46/// /1906 10103 20103 40040 57018 22240 00067
BBXX DBCK 01181 99/// ///// 46/// ///// 10106 20106 40041 57017 22220 00061
BBXX DBEB 01181 99539 10079 41/// /1911 10084 20084 40025 57021 7//// 22200 00062
BBXX 61001 01184 99434 10078 46/// /1102 10130 20102 40226 52014 22200 00137 10602 70008
BBXX DBKR 01181 99541 10121 46/// /2104 10094 20094 40062 54001 22200 00055
BBXX DBBC 01181 99535 10100 46/// /1702 10101 20092 40057 57012 22220 00054
BBXX DBEA 01181 99540 10082 46/// /1810 10081 20074 40030 57017 22221 00060
BBXX DBBI 01181 99535 10100 46/// /1602 10101 20101 40057 57011 22240 00052
BBXX DBBA 01181 99/// ///// 46/// ///// 10096 20085 40063 52002 22220 00055
BBXX 41101 01184 99146 70562 46/// /0822 10266 20218 40142 57026 22200 00268 10806 70028 555 1/027
BBXX DBJM 01181 99540 10085 46/// /1911 10087 20079 40032 57018 22270 00060
AAXX 01181 13579 32970 00000 11034 21065 39414 40291 52009 333 10045
AAXX 01181 33815 32998 02701 10001 21023 30007 40221 52012 333 10040 555 80016
AAXX 01184 85864 12980 02705 10205 20053 40185 58003 60001
AAXX 01184 85874 12680 13123 10182 20034 39561 40167 58003 60001 81100 333 56600 81840
AAXX 01184 85934 12580 62927 10147 20045 40065 54002 60001 84530 333 56660 84620 83357
AAXX 01184 89056 11/04 90114 10017 20013 49893 57020 60003 74542 333 89/01
AAXX 01184 89057 11450 83506 10014 20002 49898 57015 69923 76842 8802/ 333 56079 88510
AAXX 01184 89058 11462 83411 10024 20015 39880 49901 57016 60021 76874 8572/
AAXX 01184 89059 12960 21805 10012 21009 49905 57006 60003 80002 333 74008 81163
AAXX 01184 89251 41150 83614 10033 20014 49887 57018 76062 8672/
AAXX 01184 85574 12960 01512 10287 20128 39572 40098 57022 60001
AAXX 01184 85585 12598 31710 10211 20139 40202 58008 60001 82504 333 56406 82625
AAXX 01184 85629 12980 02205 10290 20152 40107 57011 60001
AAXX 01184 85672 12970 01810 10338 20163 4121 57015 60001 333
AAXX 01184 85682 12960 02414 10259 20139 40140 58014 60001
AAXX 01184 85703 12960 01815 10323 20210 40135 57013 60001
AAXX 01184 85743 12960 02307 10300 20108 40166 57020 60001
AAXX 01184 85766 12960 01810 10277 20134 40187 57016 60001
AAXX 01184 85782 12560 21808 10252 20119 40202 57016 60001 82100 333 56400 82830
AAXX 01184 85799 12680 61711 10219 20139 40215 57005 60001 70322 82101 333 56404 82840 84070
AAXX 01184 85406 12980 52015 10241 20144 40109 57011 60001 85030 333 56000 85365
AAXX 01184 85432 12870 52622 10236 20085 37752 48424 57009 60001 81131 333 56666 81857 82361 84070
AAXX 01184 85442 12975 41914 10230 20143 40120 57012 60001 80001 333 56007 83080
AAXX 01184 85467 13980 02515 10211 20116 40144 58011 60001
AAXX 01184 85469 42565 62807 10244 20193 40184 52002 82202 333 56707 82820 83076
AAXX 01184 85488 12962 22911 10218 20125 40143 58007 80001 333 56000 82075
AAXX 01184 91408 32474 80706 10274 20226 30037 40075 57014 82278 333 56999 70005 555 90118
BBXX 44007 01181 99435 70701 46/// /1503 10071 20071 40146 58023 91750 22200 00067 10801 3//// 40801 70006 333 91203 555 11031 22035 31705 41704 61749 150028 168017 161022 164028 174029 182028
AAXX 01184 78583 11456 70904 10245 20237 40187 60051 72588 87840 333 0/220 58027 81810 87640
AAXX 01184 81405 01560 60705 10265 20238 30108 40117 60011 70286 85831 333 60017 58003 85820 555 69905
BBXX PCSV 01183 99267 30035 41598 62209 10200 20141 40203 53/// 70211 82141 22273 04193 20501 323// 41004 80163
BBXX BAREU04 01184 99421 70662 46/// ///// 40151 57011 22213
BBXX A8ME3 01180 99209 11189 41297 80310 10210 20174 40170 56008 75052 8/7// 22213 04250 20604 304// 41007 5////
BBXX BATFR53 01184 99172 51272 46/// /0607 10250 20192 40182 54/// 22222 00259
BBXX A8SF7 01181 99202 51309 41398 51005 10255 20210 40180 54000 70311 8526/ 22254 04240 20501 310// 41003 5//// 80225
BBXX BAREU54 01184 99096 70800 46/// ///// 40099 57025 22223
BBXX BAREU00 01184 99536 70035 46/// ///// 49957 22261
AAXX 01184 40272 32560 41904 10082 20011 39342 40197 52012 84800 333 10127 82830 83835
BBXX BAREU11 01184 99541 10080 46/// ///// 40026 22200
BBXX PDUJ 01183 99363 70083 41497 73107 10168 20108 40299 52009 7//22 877// 22223 04218 20501 328// 41202 80133
AAXX 01184 91408 32474 80706 10274 20226 30037 40075 57014 82278 333 56999 70005 555 90118
AAXX 01184 48698 01462 70205 10260 20255 30094 40113 60001 71022 82801 333 60007 81812 86081
AAXX 01184 48698 01462 70205 10260 20255 30094 40113 60001 71022 82801 333 60007 81812 86081
AAXX 01184 86011 32570 43203 10334 20227 39931 40086 56009 84100 333 84830
AAXX 01184 86033 31570 81908 10322 20216 39986 40079 57028 71621 885// 333 88630
AAXX 01184 86065 NIL
AAXX 01184 86068 32670 22412 10350 20163 39884 40069 57020 82200 333 82840
AAXX 01184 86086 32570 22303 10342 20146 39983 40070 57024 82100 333 82833
AAXX 01184 86097 32670 22405 10294 20140 39439 40063 57015 82100 333 82833
AAXX 01184 86128 NIL
AAXX 01184 86134 32570 32310 10336 20149 39980 40063 57025 83100 333 83833
AAXX 01184 86170 32670 42006 10350 20141 39959 40058 57023 84100 333 84840
AAXX 01184 86185 32570 41804 10328 20215 39987 40077 57009 84500 333 83633
AAXX 01184 86192 32570 40000 10318 20200 39875 40086 57012 84200 333 84820
AAXX 01184 86210 32570 42702 10310 20150 39696 40025 57018 84200 333 84833
AAXX 01184 86218 32570 41614 10324 20160 39983 40076 57016 84100 333 84833
AAXX 01184 86221 32670 41108 10314 20183 39966 40097 57014 84200 333 84840
AAXX 01184 86233 32670 21805 10310 20148 39900 40084 56003 82100 333 82840
AAXX 01184 86234 32570 31815 10310 20150 39847 40024 58003 83200 333 83630
AAXX 01184 86246 32570 62310 10320 20199 39768 40043 57021 86200 333 86833
AAXX 01184 86251 32570 62308 10288 20164 39904 40069 57001 86800 333 84633 82840
AAXX 01184 86255 32670 21812 10304 20191 30044 40110 58010 82100 333 82840
AAXX 01184 86260 NIL
AAXX 01184 86268 32670 42405 10290 20179 39920 40081 52010 84100 333 84840
AAXX 01184 86285 32670 41808 10292 20179 39798 40075 55004 84200 333 84840
AAXX 01184 86297 32570 52302 10310 20187 39918 40019 57021 84505 333 84625 82270
AAXX 01184 81225 11558 60707 10300 20228 40116 69901 71511 83932 333 56299 59005 81925 83830 5358
AAXX 01184 81200 12570 51605 10300 20219 40117 60001 84852 333 56229 58001 83830 83358
AAXX 01184 81202 12570 61110 10284 20226 40123 69901 70182 85832 333 56299 59008 1820 5630
AAXX 01184 81209 NIL
AAXX 01184 81251 NIL
AAXX 01181 12772 31445 81601 11008 21014 39936 40231 52003 71022 886// 333 11008 4/000 88716
AAXX 01181 12822 16/// /0901 10018 20015 30068 40215 53001 69972 333 10023
AAXX 01181 12843 31435 81001 10003 21007 30049 40225 54000 72086 8557/ 333 10005 4/000 85616
AAXX 01181 12882 31965 81904 10024 20011 30101 40237 51006 70222 8807/ 333 10040 4/000
AAXX 01181 12925 36/// /1801 10018 21004 30050 40227 52004 333 10046
AAXX 01181 12942 31981 41301 10025 21009 39981 40233 52002 70111 82041 333 10063 4/000
AAXX 01181 12982 31662 71603 10022 21016 30134 40238 52003 70311 8255/ 333 10051 4/000 82640
AAXX 01181 01001 11350 81103 10013 20007 39640 49651 57003 69912 71064 887// 333 10015 91113
AAXX 01181 01008 11480 71110 11004 21046 39952 49986 58013 69902 77172 875// 333 11003 91114
AAXX 01181 01010 11985 71414 10026 21048 39900 49916 58007 60002 70222 85078 333 10027 91118
AAXX 01181 01026 11689 71704 10004 21082 39810 49951 57004 60002 70232 81578 333 10013 4/021 91116
AAXX 01181 01055 46/// /1521 11004 21044 30003 40021 53005 333 10002 91128
AAXX 01181 01062 NIL
AAXX 01181 01098 11480 51311 10009 21025 30120 40138 50001 69902 70122 85300 333 10019 91121
AAXX 01181 01115 16/// /1416 10020 21021 39875 49895 55001 6//// 333 10025 91121
AAXX 01181 01152 11475 81412 10007 21055 39898 49914 50000 69902 70272 885// 333 10011 91121
AAXX 01181 01205 NIL
AAXX 01181 01212 16/// /1708 10065 20033 39847 49863 50006 6//// 333 10074 91110
AAXX 01181 01271 NIL
AAXX 01181 01288 11330 81103 11033 21042 39176 49925 57002 60042 77072 885// 333 11007 91109
AAXX 01181 01300 NIL
AAXX 01181 01317 41462 81805 10068 20038 39875 49889 54001 78182 889// 333 10080 91110
AAXX 01181 01367 NIL
AAXX 01181 01384 11120 81701 11002 21004 39695 49943 56002 60052 72372 887// 333 11001 91104
AAXX 01181 01403 11570 62210 10066 20048 39833 49901 54000 69962 70222 86600 333 10071 91117
AAXX 01181 01415 NIL
AAXX 01181 01482 46/// /2305 10048 20038 39935 49942 58004 333 10059 91113
AAXX 01181 01492 NIL
AAXX 01184 78925 12570 50716 10282 20229 40163 56022 69941 84230 333 10287 20236 58003 83826
AAXX 01181 01003 NIL
AAXX 01181 01007 11989 81115 11005 21058 39966 49975 56021 60002 70272 80007 333 11002 91120
AAXX 01181 01028 NIL
AAXX 01181 01047 31688 82207 11068 21088 39682 40061 52005 70222 885// 333 11035
AAXX 01181 01049 NIL
AAXX 01181 01078 11375 81317 11002 21032 30080 40093 54000 6//// 70322 87367 333 11002 91121
AAXX 01181 01102 46/// /1416 10030 20001 39861 49880 54000 333 10031 91122
AAXX 01181 01160 NIL
AAXX 01181 01218 NIL
AAXX 01181 01238 41460 61901 11062 21073 38779 49900 58001 70272 84720 333 11027 91113
AAXX 01181 01241 11586 71206 10037 21009 39862 49873 51005 60022 70222 8157/ 333 10039 91112
AAXX 01181 01281 NIL
AAXX 01181 01338 16/// /0803 10016 20009 39837 49903 50004 60122 333 10019 91107
AAXX 01181 01359 NIL
AAXX 01181 01397 NIL
AAXX 01181 01400 NIL
AAXX 01181 01427 NIL
AAXX 01181 01447 NIL
AAXX 01181 01448 46/// /2611 10076 20056 39938 49947 50001 333 91114
AAXX 01184 96315 11259 70211 10275 20247 40097 60283 76196 83878 333 81703 85465
AAXX 01184 96323 NIL
AAXX 01184 78925 12570 50716 10282 20229 40163 56022 69941 84230 333 10287 20236 58003 83826
AAXX 01184 78897 11565 70709 10252 20209 40168 57025 60091 72586 878// 333 022// 10287 20223 58001 70101 83820 86656
AAXX 01184 78897 11565 70709 10252 20209 40168 57025 60091 72586 878// 333 022// 10287 20223 58001 70101 83820 86656
AAXX 01184 91503 31470 40000 10262 20251 40059 57002 70521 81208 333 56000 81816 84279
AAXX 01184 91517 01465 82702 10255 20245 40071 53002 69911 75021 8587/ 333 56999 69917 82815 83625 85361
AAXX 01184 91503 31470 40000 10262 20251 40059 57002 70521 81208 333 56000 81816 84279
AAXX 01184 91517 01465 82702 10255 20245 40071 53002 69911 75021 8587/ 333 56999 69917 82815 83625 85361
BBXX CGDS 01184 99429 70792 46/// /2616 10068 20045 40011 58060 7//// 8//// 22200 0//// 2////
AAXX 01184 78388 111565 50716 10284 20222 30160 40169 60001 70522 84802 333 01209 10302 20234 58009 84822
AAXX 01184 78862 11576 40813 10276 20214 30150 40173 60001 70511 84200 333 10281 20219 58002 84822
AAXX 01184 14G24KT SHRA BKN015 BKN038
AAXX 01184 TAF TKPN 011000Z 0112/0212 07014KT 9999 SCT022 PROB40 TEMPO 0112/0212 07014G24KT SHRA BKN015 BKN038
AAXX 01184 TAF TQPF 011000Z 0112/0212 07014KT 9999 SCT022 PROB40 TEMPO 0112/0212 07014G24KT SHRA BKN015 BKN038
AAXX 01184 TAF TUPJ 011000Z 0112/0212 07014KT 9999 SCT022 PROB40 TEMPO 0112/0212 07014G24KT SHRA BKN015 BKN038
AAXX 01184 2400/2424 07016KT 9999 SCT020 SCT040 PROB40 TEMPO 2400/2412 07018G28KT SHRA TEMPO 2412/2424 07016G26KT SHRA
AAXX 01184 TAF TUPJ 041000Z 04012/0512 07008KT 9999 SCT016 BKN038 SCT270 TEMPO 0412/0512 SHRA BKN015 PROB40 TEMPO 0418/0512 5000 SHRA BKN014 BKN036 PROB30 0420/0512 4000 TSRA FEW012CB
AAXX 01184 918 4000 TSRA FEW012CB
AAXX 01184 N015 BKN036 PROB40 TEMPO 0704/0724 3000 +TSRA SCT011CB BKN012 BECMG 0712/0714 14008KT
AAXX 01184 21/2712 07017G28KT 5000 SHRA BKN015 BKN036 PROB TEMPO 2700/2712 4000 TSRA FEW013CB
AAXX 01184 PROB30 TEMPO 0800/0806 4000 TSRA FEW012CB PROB40 TEMPO 0800/0824 2000 +SHRA/TSRA SCT010CB BKN012 BKN250
AAXX 01184 78862 11576 40813 10276 20214 30150 40173 60001 70511 84200 333 10281 20219 58002 84822
AAXX 01184 14G24KT SHRA BKN015 BKN038
AAXX 01184 TAF TKPN 011000Z 0112/0212 07014KT 9999 SCT022 PROB40 TEMPO 0112/0212 07014G24KT SHRA BKN015 BKN038
AAXX 01184 TAF TQPF 011000Z 0112/0212 07014KT 9999 SCT022 PROB40 TEMPO 0112/0212 07014G24KT SHRA BKN015 BKN038
AAXX 01184 TAF TUPJ 011000Z 0112/0212 07014KT 9999 SCT022 PROB40 TEMPO 0112/0212 07014G24KT SHRA BKN015 BKN038
AAXX 01184 2400/2424 07016KT 9999 SCT020 SCT040 PROB40 TEMPO 2400/2412 07018G28KT SHRA TEMPO 2412/2424 07016G26KT SHRA
AAXX 01184 TAF TUPJ 041000Z 04012/0512 07008KT 9999 SCT016 BKN038 SCT270 TEMPO 0412/0512 SHRA BKN015 PROB40 TEMPO 0418/0512 5000 SHRA BKN014 BKN036 PROB30 0420/0512 4000 TSRA FEW012CB
AAXX 01184 918 4000 TSRA FEW012CB
AAXX 01184 N015 BKN036 PROB40 TEMPO 0704/0724 3000 +TSRA SCT011CB BKN012 BECMG 0712/0714 14008KT
AAXX 01184 21/2712 07017G28KT 5000 SHRA BKN015 BKN036 PROB TEMPO 2700/2712 4000 TSRA FEW013CB
AAXX 01184 PROB30 TEMPO 0800/0806 4000 TSRA FEW012CB PROB40 TEMPO 0800/0824 2000 +SHRA/TSRA SCT010CB BKN012 BKN250
AAXX 01184 78388 111565 50716 10284 20222 30160 40169 60001 70522 84802 333 01209 10302 20234 58009 84822
AAXX 01184 78862 11576 40813 10276 20214 30150 40173 60001 70511 84200 333 10281 20219 58002 84822
AAXX 01184 14G24KT SHRA BKN015 BKN038
AAXX 01184 TAF TKPN 011000Z 0112/0212 07014KT 9999 SCT022 PROB40 TEMPO 0112/0212 07014G24KT SHRA BKN015 BKN038
AAXX 01184 TAF TQPF 011000Z 0112/0212 07014KT 9999 SCT022 PROB40 TEMPO 0112/0212 07014G24KT SHRA BKN015 BKN038
AAXX 01184 TAF TUPJ 011000Z 0112/0212 07014KT 9999 SCT022 PROB40 TEMPO 0112/0212 07014G24KT SHRA BKN015 BKN038
AAXX 01184 2400/2424 07016KT 9999 SCT020 SCT040 PROB40 TEMPO 2400/2412 07018G28KT SHRA TEMPO 2412/2424 07016G26KT SHRA
AAXX 01184 TAF TUPJ 041000Z 04012/0512 07008KT 9999 SCT016 BKN038 SCT270 TEMPO 0412/0512 SHRA BKN015 PROB40 TEMPO 0418/0512 5000 SHRA BKN014 BKN036 PROB30 0420/0512 4000 TSRA FEW012CB
AAXX 01184 918 4000 TSRA FEW012CB
AAXX 01184 N015 BKN036 PROB40 TEMPO 0704/0724 3000 +TSRA SCT011CB BKN012 BECMG 0712/0714 14008KT
AAXX 01184 21/2712 07017G28KT 5000 SHRA BKN015 BKN036 PROB TEMPO 2700/2712 4000 TSRA FEW013CB
AAXX 01184 PROB30 TEMPO 0800/0806 4000 TSRA FEW012CB PROB40 TEMPO 0800/0824 2000 +SHRA/TSRA SCT010CB BKN012 BKN250
BBXX CGDS 01184 99429 70792 46/// /2616 10068 20045 40011 58060 7//// 8//// 22200 0//// 2////
BBXX BATFR13 01184 99240 70525 44798 60917 10247 20192 40241 56016 70322 86565 22254 00257 20410 308// 40804 5////
BBXX FVNM 01184 99151 70827 46/// /0619 10279 20235 40150 58014 22281 00277
BBXX BATFR11 01184 99421 10042 46/// ///// 10140 20115 40224 51007 22263 00140
BBXX BATEU08 01184 99578 10046 46/// /2225 10084 20064 49919 51008 22223
BBXX BATFR27 01184 99481 70052 46/// /2830 10122 20082 40078 56016 22283 00130
BBXX BATEU05 01184 99667 70167 46/// /3306 11008 49642 53007 22263
BBXX BATFR20 01184 99414 10094 44898 3//// 10140 20110 40226 70000 8304/ 22244 20000
BBXX BATFR05 01184 99088 70155 46/// /1008 10277 20162 40124 53015 22273 00262
BBXX BATFR08 01184 99279 30544 46/// /1112 10232 20149 40161 51019 22243 00260
AAXX 01181 10004 46/59 /2010 10090 20086 30006 40006 58024 222// 00074 333 10099 20088 55300 91114 91211
AAXX 01181 10015 01350 81908 10084 20076 30015 40025 58017 69952 72122 876// 222// 02063 333 10088 20078 31008 55300 20000 30000 69907 87707 96010
AAXX 01181 10020 17146 72210 10080 20080 39982 40014 58010 69922 72030 333 10081 20070 3/007 55300 20000 30000 87/02 91116 91212
AAXX 01181 10035 01459 82004 10091 20085 39977 40035 58010 60022 75122 875// 333 10093 20079 31008 55300 20000 30000 41248 69907 86710 87624
AAXX 01181 10055 12570 72004 10092 20078 30037 40047 58006 60022 8251/ 333 10093 20052 31005 55300 20000 30000 82620 87466
AAXX 01181 10147 01361 81804 10109 20097 30037 40055 58011 60022 75122 875// 333 10111 20088 31007 55300 20000 30000 41277 69907 84707 87614
AAXX 01181 10162 17557 61903 10091 20086 39985 40067 58003 60032 71065 333 10104 20051 3/005 55300 20000 30000 84/29 86/65 86/67
AAXX 01181 10184 11660 62104 10092 20083 30062 40070 50008 60052 70365 82110 333 10095 20026 31002 55300 20000 30000 82834 86467 96446 99050
AAXX 01181 10200 07261 71904 10107 20102 30032 40030 58023 60012 72365 333 10114 20100 3/010 55300 20000 30000 69907 85/05 87/09 87/17
AAXX 01181 10224 01370 82005 10115 20106 30047 40053 58016 69932 72162 887// 333 10118 20101 32010 55300 20000 30000 69917 87708
AAXX 01181 10270 NIL
AAXX 01181 10338 01365 81805 10115 20109 30000 40071 58013 69982 76166 878// 333 10122 20103 31009 55300 20000 30000 69957 81808 87618
AAXX 01181 10361 01582 82003 10113 20090 39994 40096 58001 69992 70262 885// 333 10121 20063 31006 55300 20000 30000 69907 84633 88640
AAXX 01181 10393 01458 82305 10096 20096 39984 40109 51011 60012 75165 875// 333 10096 20030 31003 55300 20000 30000 69907 84618 87626
AAXX 01181 10400 01481 71807 10131 20106 30024 40072 58022 60032 70252 878// 333 10132 20109 32010 55300 20000 30000 69907 81810 87623
AAXX 01181 10438 07369 81604 10108 20097 39827 40103 58011 69962 72265 333 10119 20074 3/007 55300 69907 88/07 88/10
AAXX 01181 10469 11486 61905 10106 20088 39952 40115 50004 60022 70362 86800 333 10114 20061 31006 55300 81818 86629
AAXX 01181 10488 01480 82105 10107 20083 39850 40127 53007 69952 72162 878// 333 10110 20036 31003 55300 20000 30000 41298 69907 81811 87628
AAXX 01181 10506 01163 82206 10103 20090 39528 40099 58016 69972 75865 886// 333 10105 20091 31008 55300 20000 30000 69917 88703
AAXX 01181 10548 01166 82004 10090 20087 39596 40131 58004 69972 72065 876// 333 10099 20018 31002 55300 20000 30000 69907 87703
AAXX 01181 10637 01482 71906 10122 20102 39995 40130 58006 69902 76022 875// 333 10126 20101 31009 55300 69907 85615 87620
AAXX 01181 10685 01260 82205 10087 20081 39477 40143 52006 60012 76065 885// 333 10088 20028 31001 55300 20000 30000 69957 85705 87612
AAXX 01181 10738 12588 71802 10107 20074 39701 40165 58001 69912 84532 333 10122 20084 31006 55300 83627 87075
AAXX 01181 10763 01468 71603 10099 20086 39782 40161 51002 69902 70162 875// 333 10109 20081 31007 55300 20000 30000 69907 82614 87630
AAXX 01181 10788 07638 70901 10049 20049 39750 40187 53002 60012 72365 333 10058 20019 3/001 55300 20000 30000 69907 81/35 84/46 87/50
AAXX 01181 10852 15888 81904 10087 20071 39615 40181 50003 69902 333 10111 20080 3/006 55300 20000 30000 82/56 88/78
AAXX 01181 10946 15676 81502 10057 20046 39367 40202 53001 69942 333 10106 20048 3/002 55300 20000 30000 88/37
BBXX BATEU01 01184 99439 70265 46/// /2836 10127 20037 40247 51015 22263 00139
BBXX BATFR46 01184 99376 70006 46/// /2213 10157 20127 40254 53008 22253 00162
BBXX BATEU04 01184 99617 70497 46/// /3617 11122 21233 40004 55008 22243
BBXX BATFR33 01184 99380 10097 46/// /3220 10157 20125 40247 53011 22275 00024
BBXX BATFR19 01184 99067 30055 46/// /1818 10237 20195 40123 50007 22200 00257
AAXX 01184 78948 11577 20920 10286 20226 30143 40151 69911 70500 82800 333 02200 10297 20246 59002 70012 90954
AAXX 01184 78970 11472 20912 10322 20215 30109 40134 60001 71500 82800 333 02200 10328 20233 58000 81818
AAXX 01184 78962 12572 21021 10298 20202 30134 40142 60001 82200 333 02200 10307 20232 59002 82820
AAXX 01181 10007 NIL
AAXX 01181 10044 46/// /1908 10094 20076 30009 40040 58007 222// 00047 333 10102 20054 55300 91116 91213
AAXX 01181 10046 12460 72003 10097 20080 30004 40042 58009 60022 875// 333 10103 20075 31007 84612 87640
AAXX 01181 10091 17458 82408 10071 20068 30007 40058 51008 60032 70053 333 10084 20025 3/002 55300 20000 30000 83/11 86/66 88/68
AAXX 01181 10113 01465 81806 10096 20096 30005 40024 58024 60022 72065 886// 333 10096 20082 32008 55300 20000 30000 69927 88711
AAXX 01181 10124 46/// ///// 10094 2//// 39988 40025 58022 222// 00059 333 10105 20084 553//
AAXX 01181 10131 07463 81904 10107 20094 30023 40037 58017 60012 72365 333 10109 20097 3/009 55300 20000 30000 69907 87/13 88/22 88/41
AAXX 01181 10170 11565 72004 10093 20081 30046 40062 50001 60042 70162 8355/ 333 10107 20040 32004 55300 20000 30000 83627 85364
AAXX 01181 10264 06462 82003 10103 20097 39969 40074 58002 60032 333 10103 20044 3/004 55300 20000 30000 69907 82/12 88/34 88/63
AAXX 01181 10291 01360 72003 10094 20087 30029 40096 51011 60012 70262 876// 333 10098 20010 31001 55300 20000 30000 69907 87709
AAXX 01181 10315 01257 81905 10119 20119 30000 40063 58021 60012 75865 887// 333 10120 20107 32010 55300 20000 30000 69937 81704 83706 86708 96010
AAXX 01181 10379 01472 62004 10095 20095 39980 40100 51008 60012 70162 83530 333 10098 20041 31004 55300 20000 30000 41246 69907 83616 86363
AAXX 01181 10382 01480 72103 10103 20090 30057 40101 51008 60012 70262 875// 333 10106 20042 31004 55300 20000 30000 69907 81615 87630
AAXX 01181 10384 06/// /1904 10101 20095 30042 40101 51009 60012 333 10101 20042 3/004 55300 20000 30000 69907
AAXX 01181 10427 01/02 92212 10069 20069 39102 48418 58012 60062 75865 333 10070 20047 3/004 42021 55300 20000 30000 60017 91117 91212 96047 96459 96453 96452 96451
AAXX 01181 10430 01580 81903 10113 20098 39894 40082 58014 60052 70265 885// 333 10114 20096 31009 55300 20000 30000 69987 87625
AAXX 01181 10439 NIL
AAXX 01181 10453 11/90 92219 10050 20050 38763 48401 58011 60062 75164 333 10051 20024 3/002 49102 55300 91125 91220 96045 96461
AAXX 01181 10496 01484 82204 10106 20092 30034 40118 53009 60012 72165 885// 333 10106 20045 31004 55300 20000 30000 69907 88617
AAXX 01181 10499 01458 82205 10057 20045 39847 40139 53010 69972 75865 885// 333 10060 20024 31002 55300 20000 30000 69907 83711 88626
AAXX 01181 10505 01486 82211 10122 20101 39802 40077 56019 60012 72162 878// 333 10126 20105 32010 55300 20000 30000 69907 85811 87656 91118 91213
AAXX 01181 10513 01484 71805 10130 20099 39977 40095 58016 60022 72586 878// 333 10139 20100 32009 55300 20000 30000 69907 81810 86656
AAXX 01181 10532 07483 71703 10110 20098 39867 40111 58008 60012 72365 333 10121 20078 3/006 55300 20000 30000 69947 83/13 87/19 87/34
AAXX 01181 10544 01/01 92111 10067 20067 39056 48443 58005 60032 75864 333 10068 20042 3/004 42008 55300 69997 91117 91213 96045 96259 96463
AAXX 01181 10554 11482 82204 10102 20084 39736 40118 50001 69912 70362 8357/ 333 10108 20070 31007 55300 20000 30000 83616 87360 96458
AAXX 01181 10567 11786 52007 10092 20077 39753 40125 50001 69912 70262 81504 333 10105 20055 31005 55300 20000 30000 81650 85080
AAXX 01181 10578 11/01 92414 10040 20040 38754 48454 51008 60032 76064 333 10042 20009 3/001 44064 55300 20000 30000 91121 91217 96045
AAXX 01181 10609 01462 82209 10114 20104 39799 40123 56008 69912 72162 877// 333 10118 20105 31010 55300 20000 30000 69907 87710 91115 91211
AAXX 01181 10616 01256 82306 10102 20093 39530 40119 58011 60012 75862 878// 333 10104 20092 32009 55300 69907 82805 86808 87613 96459
AAXX 01181 10641 07488 81804 10130 20099 39984 40128 58006 69912 70065 333 10131 20104 3/010 55300 69907 88/19
AAXX 01181 10655 01485 72307 10111 20097 39820 40144 58004 69902 70262 878// 333 10122 20092 31008 55300 20000 30000 69907 84814 85626
AAXX 01181 10675 07388 71703 10104 20091 39865 40153 51003 69942 72365 333 10118 20068 3/006 55300 20000 30000 69917 82/09 87/20 87/38
AAXX 01181 10688 07359 82003 10086 20086 39646 40165 51006 60022 75165 333 10089 20038 3/004 55300 20000 30000 69967 81/07 87/26 88/50
AAXX 01181 10708 01262 82007 10108 20101 39765 40145 57004 60022 72165 885// 333 10112 20101 32010 55300 20000 30000 69927 81705 85707 88615 96453
AAXX 01181 10729 15488 71806 10118 20106 30032 40152 58005 69902 333 10123 20100 3/009 55300 20000 30000 83/12 87/28 87/58
AAXX 01181 10731 01678 72306 10131 20102 30010 40151 58001 69912 72162 875// 333 10131 20110 31010 55300 20000 30000 69907 87640 91113
AAXX 01181 10742 07588 82103 10121 20089 39831 40157 58001 69932 72265 333 10125 20098 3/009 55300 20000 30000 69907 83/21 86/28 88/33
AAXX 01181 10776 11535 71503 10062 20060 39733 40179 52004 69932 71062 875// 333 10095 20017 31002 55300 20000 30000 82630 87646
AAXX 01181 10791 01/90 92414 10029 20029 38532 48476 53004 60132 76164 333 10030 20007 49117 55300 60037 91119 91214 96045
AAXX 01181 10805 11689 81906 10126 20096 39980 40168 50000 69902 70165 83548 333 10133 20114 31010 55300 20000 30000 83641 83358
AAXX 01181 10815 07288 82607 10077 20075 39235 48480 58003 60032 70065 333 10081 20068 3/004 55300 20000 30000 69947 87/05 88/09 91115
AAXX 01181 10836 11489 72205 10075 20068 39308 40172 50001 69902 70262 8687/ 333 10088 20068 31006 55300 20000 30000 82810 86650 91113
AAXX 01181 10870 11788 72503 10088 20063 39652 40184 50002 69902 70262 84508 333 10115 20081 31007 55300 84656 86270
AAXX 01181 10895 01675 71902 10075 20075 39618 40187 53003 60022 76064 875// 333 10084 20006 31001 55300 20000 30000 69907 87643 95147
AAXX 01181 10908 01/01 92317 10036 20036 38491 48487 58003 60092 76164 333 10040 20032 3/002 42070 55300 20000 30000 60037 89/01 91123 90206 91218 91218 96045
AAXX 01181 10929 11782 61602 10092 20070 39664 40193 50001 69902 70182 82501 333 10115 20078 31006 55300 20000 30000 82650 86080
AAXX 01181 10948 17088 41802 10014 20014 39258 48490 50002 60022 72065 333 10054 20009 3/101 4/026 55300 20000 30000 81/00 84/78
AAXX 01181 10961 12589 42515 11057 21095 37094 47065 53004 60012 81042 333 11036 21062 49265 55300 20000 40869 81333 84070 91122 91217
AAXX 01181 10962 12989 52408 10081 20039 39047 48498 52001 69962 81032 333 10087 20053 31005 4/998 55300 20000 30000 81361 85075 91115
AAXX 01181 10980 12989 52612 10023 20020 38163 48506 53003 60022 80001 333 10025 20001 3/000 44077 55300 20000 30000 85070 91126 91217
BBXX PHQX 01183 99141 70671 41798 20911 10285 20222 40165 54000 70200 82101 22254 20604 310// 40904 5//// 80240
BBXX PCEO 01183 99227 70522 41598 4//01 10262 20223 40225 56025 7//00 83307 22254 04254 2//// 315// 41204 5//// 80234
AAXX 01181 01037 NIL
AAXX 01181 01046 NIL
AAXX 01181 01058 16/// /1609 11068 21089 39587 40064 52003 60002 333 11051 4/019 91116
AAXX 01181 01065 11689 81604 11037 21068 39928 40094 53006 60002 70222 888// 333 11027 91109
AAXX 01181 01092 NIL
AAXX 01181 01107 16/// /1612 10014 2//// 39890 49895 57001 60022 333 10032 91116
AAXX 01181 01114 16/// /0102 10008 21038 39890 49900 57003 60002 333 10043 91107
AAXX 01181 01144 46/// /1211 10011 21047 333 10014 91124
AAXX 01181 01199 NIL
AAXX 01181 01245 NIL
AAXX 01181 01259 16/// /1308 10038 21011 39853 49876 53003 60042 333 10042 91113
AAXX 01181 01262 NIL
AAXX 01181 01278 11985 81005 10020 21027 39800 49901 53004 69902 70272 887// 333 10031
AAXX 01181 01293 11865 81204 10021 21036 39699 49904 54001 60002 70272 8807/ 333 10026 91113
AAXX 01181 01329 NIL
AAXX 01181 01337 NIL
AAXX 01181 01344 16/// ///// 10013 21004 60072 333 10024 4/071
AAXX 01181 01364 16/// /1004 11059 21070 38807 49933 50000 60042 333 11054 91106
AAXX 01181 01373 11460 80000 11044 21051 39735 49938 57000 60032 70222 886// 333 11043 91102
AAXX 01181 01374 11/20 90000 11026 21027 60042 77072 333 11022
AAXX 01181 01380 16/// /1502 11051 21061 6//// 333 11046 4/043 91106
AAXX 01181 01389 NIL
AAXX 01181 01393 NIL
AAXX 01181 01424 11460 8//// 10032 20023 39910 49913 58005 60162 75152 877// 333 10036
AAXX 01181 01431 16/// /1401 10005 21003 39277 49936 52001 60132 333 10025 91107
AAXX 01181 01436 NIL
AAXX 01181 01465 11675 52308 10065 20058 39931 49949 53001 60022 70221 81631 333 10071 91109
AAXX 01181 01471 11370 83501 11023 21032 60022 77172 8772/ 333 11021 91102
AAXX 01181 01483 NIL
AAXX 01181 01015 NIL
AAXX 01181 01023 NIL
AAXX 01181 01033 46/// /1514 10017 21070 39909 49940 58004 333 10024 91118
AAXX 01181 01059 11487 61515 11020 21054 30052 40062 55000 69902 73831 81660 333 11014 91120
AAXX 01181 01089 16/// /1407 11020 21038 30018 40127 54000 6//// 333 11017 91109
AAXX 01181 01167 31687 81610 10020 21061 39907 49911 57004 70322 8352/ 333 10028 91116
AAXX 01181 01180 NIL
AAXX 01181 01210 41586 61603 10066 20021 39836 49862 52002 70282 83261 333 10079 91112
AAXX 01181 01228 NIL
AAXX 01181 01240 16/// /1410 10050 20010 39848 49867 51006 6//// 333 10051 91116
AAXX 01181 01304 46/// /0000 10068 20050 39831 49861 50001 333 10078 91100
AAXX 01181 01311 46/// /1907 10062 20050 39829 49890 57000 333 10069 91109
AAXX 01181 01340 NIL
AAXX 01181 01355 16/// ///// 10009 21001 39903 49908 53004 60022 333 10021
AAXX 01181 01360 NIL
AAXX 01181 01392 11356 80000 11003 21007 39722 49948 56005 60072 71072 888// 333 11003 91104
AAXX 01181 01406 46/// /1910 10079 20062 39872 49890 54001 333 10084 91114
AAXX 01181 01411 16/// /2009 10080 20056 39883 49908 55004 6//// 333 10086 91115
AAXX 01181 01425 NIL
AAXX 01181 01433 46/// /2501 11003 21012 38675 49911 50000 333 10014 91115
AAXX 01181 01442 11484 70101 10011 20006 39686 49943 57001 60022 70162 87800 333 10017 91104
AAXX 01181 01450 NIL
AAXX 01181 01452 11478 82205 10066 20046 39925 49946 50001 69962 70322 875// 333 10071 91109
AAXX 01181 01473 11X01 90000 11010 21012 39736 49945 53002 60022 74554 333 11002 91101
AAXX 01181 01494 11X03 91201 10026 20025 39881 49946 58001 60082 74564 333 10026 91108
BBXX VOXS 01184 99467 70480 41296 81126 10054 2004/ 40008 56093 70266 886// 22200 04016 20504 335// 40808 80050
AAXX 01181 11816 11020 80503 10000 21006 30048 40217 52003 60032 76162 887// 333 10000 84701 87702
AAXX 01181 11826 11210 81701 10002 21005 30010 40216 52004 69982 76176 887// 333 10002 88705
AAXX 01181 11903 11137 80000 11017 21017 39834 40229 53002 69922 71072 885// 333 11011 43004 83702 88716
AAXX 01181 11934 11465 71603 11022 21041 39358 42788 53003 69902 70277 875// 333 11004 41998 81710 84713
AAXX 01181 11968 11130 82005 11010 21020 39932 40223 52003 60002 71077 886// 333 11001 88702
AAXX 01181 01025 16/// /1808 10005 21092 39941 49952 57004 60002 333 10013 91116
AAXX 01181 01052 16/// /1708 11029 21066 39927 40027 53007 60002 333 11007 91120
AAXX 01181 01122 16/// /3401 11022 21044 39836 49926 57009 60012 333 11020 91106
AAXX 01181 01132 16/// /1404 11019 21054 39548 49937 54001 69982 333 11019 4/060 91111
AAXX 01181 01156 NIL
AAXX 01181 01203 46/// /1709 10066 20021 39810 49857 53003 333 10082 91117
AAXX 01181 01233 16/// /1403 11030 21042 60022 333 11022 91109
AAXX 01181 01265 NIL
AAXX 01181 01273 NIL
AAXX 01181 01307 46/// /2009 10075 20048 39846 49873 54001 333 10085 91116
AAXX 01181 01321 16/// /1601 10010 20006 39633 49884 50007 60032 333 10028 91104
AAXX 01181 01327 11250 80804 10006 21002 60172 78087 889// 333 10015 91108
AAXX 01181 01350 16/// /2405 11012 21029 38525 49888 53002 60032 333 11006 91111
AAXX 01181 01361 16/// /0804 11047 21063 38891 49919 54001 60012 333 11047 4/069 91109
AAXX 01181 01375 NIL
AAXX 01181 01378 16/// /0000 11019 21024 39640 49933 56004 60052 333 11019 91102
AAXX 01181 01385 16/// /0701 11007 21013 39671 49943 56004 60042 333 11007 91106
AAXX 01181 01412 16/// /2110 10076 20049 39892 49921 54000 69922 333 10085 91115
AAXX 01181 01422 16/// /1804 10073 20043 60022 333 10087 91112
AAXX 01181 01440 NIL
AAXX 01181 01441 NIL
AAXX 01181 01467 NIL
AAXX 01181 01469 NIL
AAXX 01181 01477 16/// /1901 10001 21002 60052 333 10005 4/024 91102
AAXX 01181 01480 16/// /0301 10006 21002 60062 333 10011 91103
AAXX 01181 01484 16/// /3502 10003 21007 39791 49947 54000 60042 333 10007 91107
AAXX 01181 01490 16/// /2202 11011 21012 60072 333 11011 91105
AAXX 01181 01495 16/// /1602 10049 20040 39933 49946 57003 60052 333 10065 91112
AAXX 01184 07005 04/70 /1918 10136 20113 39956 40044 56026 60022 700// 333 10138 20118 69927 91030 90710 91130 555 69925
AAXX 01184 07015 04484 82022 10134 20115 39988 40044 58028 69902 753// 333 10135 20116 69907 91032 90710 91133 555 69905
AAXX 01184 07020 01458 82421 10116 20093 30029 40055 53015 60202 70264 887// 333 10125 20102 60027 88710 90710 91129 555 69905
AAXX 01184 07027 04559 82320 10119 20105 39984 40064 55001 60042 763// 333 10144 20119 60037 90710 91135 555 60025
AAXX 01184 07037 04468 81922 10128 20110 39886 40066 56020 69922 700// 333 10134 20114 69907 90710 91134 555 60005
AAXX 01184 07070 04470 82115 10134 20107 30000 40108 58015 69902 700// 333 10135 20120 60007 90710 91127 555 60005
AAXX 01184 07110 01465 72408 10098 20089 39966 40080 52009 60242 78086 875// 333 10126 20098 60027 83711 85640 90710 91122 555 69965
AAXX 01184 07117 01430 82313 10107 20098 30000 40070 51012 60142 76566 887// 333 10130 20105 60017 90710 91123 92435 555 69925
AAXX 01184 07130 04464 82312 10120 20109 3//// 4//// 60032 760// 333 10136 20119 60027 90710 91125 555 60025
AAXX 01184 07139 06/// /2117 10120 20106 39918 40089 56017 60022 333 10131 20118 60017 91028 90710 91130 555 69925
AAXX 01184 07149 01270 82017 10130 20111 30002 40109 56013 69942 75865 875// 333 10138 20119 69927 82706 87611 91029 90710 91129 93100 555 69925
AAXX 01184 07168 04/70 /2016 10132 20107 30001 40142 58012 69902 700// 333 10137 20120 60007 90710 91124 555 60005
AAXX 01184 07181 04486 82216 10113 20105 39747 40153 58002 60012 700// 333 10120 20103 69907 90710 91122 555 69905
AAXX 01184 07190 04686 81912 10120 20096 39980 40161 58002 69902 700// 333 10132 20106 60007 90710 91119 555 60005
AAXX 01184 07207 01457 82616 10122 20113 60062 75062 886// 222// 328// 333 10134 20118 60057 90710 91131 92466 555 69995
AAXX 01184 07222 01460 82317 10124 20115 30087 40118 56013 60042 76066 885// 333 10134 20121 60017 85611 88624 91028 90710 91133 555 69965
AAXX 01184 07240 02475 82018 10127 20104 30002 40136 56013 60012 877// 333 10136 20126 69927 87714 91028 90710 91129 93100 555 60005
AAXX 01184 07255 04570 /2213 10125 20104 39967 40165 58008 69962 700// 333 10138 20122 69907 90710 91122 555 60005
AAXX 01184 07280 04469 81807 10113 20105 39908 40180 58006 69942 700// 333 10124 20107 69907 90710 91114 555 60005
AAXX 01184 07299 02768 71504 10115 20080 39857 40183 58002 60002 86501 333 10144 20095 60007 85650 87075 90710 91110 93100 555 60005
AAXX 01184 07314 06/// /2021 10136 20102 30133 40161 56010 60002 333 10139 20125 60007 91033 90710 91136 555 60005
AAXX 01184 07335 04686 81914 10124 20103 30016 40160 58013 69982 700// 333 10132 20120 69907 90710 91123 555 60005
AAXX 01184 07434 04369 82010 10103 20098 39712 40190 56007 60012 700// 333 10112 20102 69927 90710 91115 555 60005
AAXX 01184 07460 02882 72010 10110 20071 39802 40191 58006 69902 81541 333 10165 20099 60007 81656 87073 90710 91114 93100 555 60005
AAXX 01184 07471 04970 /2403 10060 20045 39237 48821 58005 69902 700// 333 10131 20060 60007 90710 91106 555 60005
AAXX 01184 07481 02765 71607 10103 20086 39912 40201 57004 69962 82505 333 10153 20066 60007 82656 86074 90710 91111 93100 555 60005
AAXX 01184 07510 02681 71607 10125 20106 30120 40185 58013 69942 81532 333 10153 20125 60007 81640 86073 90710 91110 93100 555 60005
AAXX 01184 07535 06/// /1408 10116 20100 39890 40202 58011 60012 333 10126 20113 60007 90710 91113 555 60005
AAXX 01184 07558 06/// /2602 10079 20078 39375 40216 58009 69922 333 10121 20077 60007 90710 91103 555 60005
AAXX 01184 07577 04/42 /0000 10087 20073 30121 40212 52002 69922 710// 333 10142 20075 60007 90710 91103 555 60005
AAXX 01184 07591 04/// /0304 10046 20009 39208 4//// 51007 60002 700// 333 10124 21009 60007 90710 91109 555 60005
AAXX 01184 07607 04986 /0903 10107 20095 30122 40194 57009 60002 700// 333 10172 20107 60007 90710 91105 555 60005
AAXX 01184 07621 02984 72103 10092 20078 39760 40195 58011 60002 81042 333 10165 20091 60007 81365 87076 90710 91105 93100 555 60005
AAXX 01184 07627 06/// /1508 10105 20064 39711 40199 58010 60002 333 10155 20071 60007 90710 91113 555 60005
AAXX 01184 07630 02980 71204 10118 20090 30022 40203 56013 69902 82032 333 10157 20115 60007 82363 87076 90710 91109 93100 555 60005
AAXX 01184 07643 02986 62504 10119 20093 30201 40211 55001 60002 80001 333 10187 20119 60007 86076 90710 91105 555 60005
AAXX 01184 07650 02982 11407 10114 20084 30178 40217 53008 60002 80002 333 10165 20079 60007 81076 90710 91108 93100 555 60005
AAXX 01184 07661 02468 60408 10116 20088 30065 40227 52008 60002 86800 333 10132 20101 60007 82816 84620 90710 91111 555 60005
AAXX 01184 07690 02580 70804 10144 20094 30196 40230 50010 60002 875// 333 10160 20063 60007 83625 87633 90710 91110 93100 555 60005
AAXX 01184 07747 02980 33605 10120 20092 30159 40212 58004 60002 80001 333 10190 20120 60007 83076 90710 91106 93100 555 60005
AAXX 01184 07761 02675 31703 10127 20086 30225 40236 52019 60002 83500 333 10168 20053 60007 83640 90710 91107 93100 555 60005
AAXX 01184 07790 02680 62903 10115 20087 30218 40233 51012 60002 86501 333 10144 20058 60007 86633 83076 90710 91104 93100 555 60005
AAXX 01181 01121 46/// /1213 10009 21037 39884 49896 58004 333 10011 91122
AAXX 01181 01135 NIL
AAXX 01181 01143 16/// /1506 10002 21064 60002 333 10013 91119
AAXX 01181 01150 16/// /3302 11050 21070 60032 333 11050 91114
AAXX 01181 01192 NIL
AAXX 01181 01225 46/// /1603 10058 20019 39860 49865 53006 333 10061 91106
AAXX 01181 01230 16/// /1803 11019 21044 69952 333 11008 4/044 91111
AAXX 01181 01232 16/// /1704 10031 21029 39817 49895 53002 60002 333 10039 91114
AAXX 01181 01234 16/// /2103 11016 21020 60042 333 11005 91104
AAXX 01181 01253 16/// /2402 10002 21028 69982 333 10013 91106
AAXX 01181 01254 16/// /1701 11019 21025 69922 333 10003 4/029 91103
AAXX 01181 01257 NIL
AAXX 01181 01277 NIL
AAXX 01181 01291 16/// /1102 10000 21028 60012 333 10004 4/038 91108
AAXX 01181 01332 16/// /0000 10003 21008 60062 333 10003 91101
AAXX 01181 01366 46/// /1605 11049 21059 38304 49906 53005 333 11045 91109
AAXX 01181 01370 NIL
AAXX 01181 01376 16/// /0901 11008 21014 60042 333 11007 91106
AAXX 01181 01383 46/// /0000 11015 21017 39630 49944 57002 333 11012 91100
AAXX 01181 01386 16/// ///// 11001 21012 60022 333 10001
AAXX 01181 01416 16/// ///// 10065 20062 60042 333 10078
AAXX 01181 01419 NIL
AAXX 01181 01430 16/// ///// 10076 20053 60032 333 10085
AAXX 01181 01434 16/// /0301 11014 21021 38963 49918 57000 60112 333 11014 91103
AAXX 01181 01455 16/// /2402 10006 21004 39634 49943 52002 60022 333 10012 91108
AAXX 01181 01468 16/// /1802 10006 20000 60042 333 10006 91106
AAXX 01181 01470 16/// /3002 10004 20001 39829 49943 50001 60032 333 10005 4/015 91103
AAXX 01181 01476 NIL
AAXX 01181 01481 16/// /2101 10038 20035 39912 49944 58003 60102 333 10046 91104
AAXX 01181 01488 NIL
BBXX VOXS 01184 99467 70480 41296 81126 10054 2004/ 40008 56093 70266 886// 22200 04016 20504 335// 40808 80050
AAXX 01184 97180 12458 60203 10249 20240 30075 40093 58011 60001 82231 333 56000 81819 84360
AAXX 01184 03005 12470 62320 10059 20034 39722 49820 57006 60002 8483/ 91750 333 10069 55300 20000 81817 84625 86362 90710 91127
AAXX 01184 03017 15666 /2317 10050 20029 39806 49837 53002 60002 91750 333 10060 55300 20000 81/39 87/62
AAXX 01184 03023 17567 /2422 10047 20018 39839 49844 53004 60052 782// 91750 333 10079 81/22 85/41 90710 91143
AAXX 01184 03026 17980 /2119 10039 20017 39809 49827 50002 60012 723// 91750 333 10065 55300 20000 82/61
AAXX 01184 03063 17458 /2107 10026 20012 39598 49873 55000 60052 782// 91750 333 10037 55300 20000 85/16 84/25
AAXX 01184 03066 15984 /2008 10040 20007 39854 49860 58001 69902 91750 333 10070 55300 20000 8//99
AAXX 01184 03075 15971 /2015 10046 20023 39800 49844 53001 60002 91750 333 10062 83/61 87/69
AAXX 01184 03091 15981 /2213 10052 20013 39797 49875 50001 69922 91750 333 10078 55300 20000 88/69
AAXX 01184 03100 17566 /2721 10040 20023 39859 49875 52005 60052 782// 91750 333 10080 55300 20000 83/28 90710 91132 91032
AAXX 01184 03111 16974 /2321 10052 20018 39899 49912 53005 60002 91750 333 10076 8//99 90710 91130
AAXX 01184 03134 16/// /2408 10055 20032 3//// 4//// 5//// 69982 91750 333 10081 55300 20000
AAXX 01184 03136 17676 /2318 10074 20030 39878 49911 56003 69902 781// 91750 333 10085 55300 20000 81/30 87/41 90710 91129
AAXX 01184 03162 15475 /2112 10046 20027 39644 49928 57003 69922 91750 333 10065 55300 20000 81/15 85/23
AAXX 01184 03166 15984 /2112 10057 20024 39833 49902 56004 69922 91750 333 10080 55300 20000 8//99
AAXX 01184 03171 11570 62413 10056 20027 39881 49893 57001 69902 70381 868// 91750 333 10079 55300 20000 82825 86635
AAXX 01184 03204 12580 32522 10074 20025 39929 49949 53004 60002 83800 91750 333 10097 55300 20000 82825 90710 91135 91034
AAXX 01184 03240 15984 /2320 10064 20025 39890 49918 57006 69902 91750 333 10089 55300 20000 8//99 90710 91127
AAXX 01184 03257 17972 /2112 10068 20035 39910 49950 56005 60032 723// 91750 333 10097 55300 20000 8//99
AAXX 01184 03292 169// /2206 10071 20057 39937 49955 57012 60032 91750 333 10103 87/62 84/67
AAXX 01184 03302 15976 /2521 10081 20023 39962 49974 52013 60032 91750 333 10105 55300 20000 82/60 90710 91126
AAXX 01184 03354 15781 /2307 10078 20065 39841 49982 55003 60042 91750 333 10103 55300 20000 81/50 88/57
AAXX 01184 03377 11784 72310 10078 20065 39892 49975 57007 60032 72162 84571 91750 333 10105 55300 20000 84650 85361 87070
AAXX 01184 03414 15780 /2312 10073 20041 39896 49983 55002 60022 91750 333 10110 55300 20000 81/56 86/65
AAXX 01184 03462 17661 /2513 10087 20071 39899 49987 55009 69902 782// 91750 333 10108 55300 20000 84/32 85/41
AAXX 01184 03482 17771 /2009 10092 20076 39963 49988 56014 69942 723// 91750 333 10115 82/56 88/61
AAXX 01184 03502 15571 /2621 10079 20044 39837 49997 53008 60032 91750 333 10105 55300 20000 81/26 90710 91129
AAXX 01184 03535 17773 /2204 10075 20067 39871 49987 55000 69982 723// 91750 333 10103 55300 20000 83/50 87/61
AAXX 01184 03590 17661 /2208 10089 20086 39890 49998 56020 60042 762// 91750 333 10114 55300 20000 81/36 87/47
AAXX 01184 03649 11465 82406 10093 20083 39904 40003 55000 69982 76162 8753/ 91750 333 10113 55300 2//// 81712 83620 87650
AAXX 01184 03716 17571 /2511 10091 20075 39951 40010 53011 60022 723// 91750 333 10109 55300 20000 85/23 85/50
AAXX 01184 03740 16360 /2513 10082 20077 39836 40011 53004 60032 91750 333 10105 55300 2//// 81/08 86/11
AAXX 01184 03746 17368 /2408 10091 20087 39864 40016 55003 60042 757// 91750 333 10111 84/08 84/50
AAXX 01184 03772 17680 /2208 10103 20090 39978 40008 55012 60072 723// 91750 333 10130 55300 20000 81/39 87/56
AAXX 01184 03796 46/// /2521 10107 20107 39871 40010 55025 91750 333 10112 90710 91135 91035
AAXX 01184 03803 NIL
AAXX 01184 03808 11470 52712 10087 20053 39940 40045 52018 60022 70182 83871 91750 333 10113 55300 20000 81818 84075
AAXX 01184 03809 11470 52817 10092 20049 39953 40045 53019 60012 70262 84570 91750 333 10112 81618 83635
AAXX 01184 03827 17961 /2614 10090 20075 39978 40039 53017 60032 723// 91750 333 10113 81/59 83/63
AAXX 01184 03840 17374 /2509 10072 20071 39720 40023 53008 60032 722// 91750 333 10099 81/07 84/56 86/63
AAXX 01184 03853 17680 /2507 10095 20077 39997 40021 53009 60022 723// 91750 333 10117 55300 20000 84/33 87/60
AAXX 01184 03874 46/// /2617 10097 20089 30008 40019 53004 91750 333 10118
AAXX 01184 03882 17662 /2405 10103 20099 39955 40018 56014 60152 762// 91750 333 10121 55300 20000 87/45 83/57
AAXX 01184 03894 11480 72416 10106 20092 40057 52018 60212 70264 8581/ 333 10120 83814 84656 87463 90710 91125
AAXX 01184 03917 15982 /2314 10039 20008 39861 49938 51013 60012 91750 333 10071 55300 20000 83/59
AAXX 01184 61901 169// /1309 10174 20145 39667 40174 53002 60002 91750 333 10204 8//99 555 7/090
AAXX 01184 61902 32582 11516 10260 20196 40132 81800 333 10284 58007 81824
AAXX 01184 88878 46/// /1814 10140 20065 40061 52027
AAXX 01184 88889 12586 71912 10120 20048 39992 40075 51022 60001 878// 91750 333 86824
BBXX 46082 01181 99597 71434 46/// ///// 10029 49878 58065 91750 22200 00060 11111 70057
BBXX 46072 01181 99517 71722 46/// /1606 10015 21032 40011 56017 91750 22200 00042 11105 20502 3//// 41105 70027 333 91208 555 11067 22070 31745 41608 61749 158064 152060 153060 154054 054032 057030 81607 91745
BBXX 46035 01181 99571 71778 46/// /0410 1//// 40063 52009 91750 22200 10907 20805 300// 40905 70035 333 91213 555 11102 22109 31708 40415 61749 035102 036114 032109 028104 025102 020104 80513 91708
BBXX 46077 01181 99579 71543 46/// /0803 11069 21121 40036 56032 91750 22200 00036 10401 20301 3//// 40401 70004 333 91204 555 11030 22030 31650 41206 61749 079030 101029 104030 109027 094029 112026 81304 91651
BBXX 46072 01181 99517 71722 46/// /1606 10015 21032 40011 56017 91750 22200 00042 11105 20502 3//// 41105 70027 333 91208 555 11067 22070 31745 41608 61749 158064 152060 153060 154054 054032 057030 81607 91745
BBXX 42039 01181 99288 70860 46/// /2505 10227 40235 58020 91750 22200 00231 10601 70003 333 91206 555 11053 22055 31650 42606 61749 252050 245049 239047 236045 234047 226046 82605 91750
BBXX 41040 01181 99145 70530 46/// /0710 10265 20221 40153 56024 91750 22200 00268 11007 20805 3//// 41004 70033 333 91212 555 11105 22111 31651 40713 61749 073097 068098 068099 068103 071102 069107 80712 91651
AAXX 01184 78906 11476 51006 10288 20211 30152 40157 60021 71581 84840 333 10293 20221 59001 70156 84817 90945
AAXX 01184 78951 11570 31018 10290 20216 30137 40152 69901 0180 83800 333 10295 20248 58000 79999 83822
AAXX 01184 78866 02582 40815 10282 20211 30173 40178 57025 60001 84800 333 58001 60007 84820
AAXX 01184 78767 31565 80407 10261 20215 30140 40142 58010 71522 84470 333 10269 20203 31/// 56000 58000 84625 84459
BBXX 51004 01181 99175 71524 46/// /0706 10249 20204 91750 555 11066 22070
BBXX 51002 01181 99171 71578 46/// /1007 10237 40163 53017 91750 22200 00246 333 91209 555 11075 22079 31747 41009 61749 094072 093072 085068 082074 084075 084073
BBXX 51100 01181 99236 71539 46/// /0607 10213 40189 53014 91750 22200 00232 11003 20501 309// 41003 70017 333 91208 555 11070 22073 31728 40709 61749 060067 067072 059070 054065 046064 051066
BBXX 42085 01181 99179 70665 46/// /1010 1//// 91740 333 91212
BBXX 46026 01181 99378 71228 46/// /0909 10121 40213 51019 91750 22200 00112 11303 20402 328// 41303 70016 333 91211 555 11098 22106 31653 42913 61749 086091 283092 281094 283095 283097 283095
BBXX 46041 01181 99474 71247 46/// /1212 10091 40196 56009 91750 22200 00088 10904 20603 3//// 40903 70022 333 91215 555 11126 22135 31724 41217 61749 122119 119121 118127 120125 117128 119129
AAXX 01181 14528 NIL
AAXX 01181 14537 NIL
AAXX 01181 14544 NIL
AAXX 01181 14557 11960 20201 10016 21018 39874 40254 51006 60002 70161 82030 333 82360
AAXX 01181 14640 NIL
AAXX 01184 65338 31930 50000 10305 20176 39906 40093 70522 80002 333 10361 59007 85076
AAXX 01181 14648 12970 23601 10042 21047 30131 40255 52018 60002 82030 333 10087 82360
AAXX 01181 14652 12984 63614 11024 21026 37946 48513 53016 60002 86030 333 11024 49074 86360
AAXX 01181 14542 11956 22901 10020 21009 30045 40241 52012 60002 71021 82030 333 10091 82361 95990
BBXX VCXF 01184 99464 70484 41/90 92027 10065 2006/ 49974 57083 74742 89/// 22200 02022 20504 33523 41007 50902 80065
AAXX 01181 76040 32960 03303 10186 20066 30235 40249 52089 91740 333 10190 20059 30/// 58066 98660
AAXX 01181 76225 32960 00201 10142 21044 38744 40254 50006 91745 333 10142 20017 30/// 58090
AAXX 01181 76256 32980 00000 10200 20084 30197 40211 5//// 91745 333 10208 20074 30/// 58049
AAXX 01181 76305 32970 00601 10238 20066 30197 40205 52014 91740 333 10242 20120 30/// 58037
AAXX 01181 76323 32970 00000 10184 20042 38353 40322 52038 91750 333 10184 20020 30/// 58062
AAXX 01181 76342 31762 41202 10168 21003 39579 40298 57060 70321 84030 91750 333 10172 20110 30/// 56010 58077 84357
AAXX 01181 76373 32980 00000 10167 21035 38292 40257 52076 91750 333 10180 21032 30/// 59054
AAXX 01181 76382 32980 03402 10195 20049 39002 40281 52012 91747 333 10200 20076 30/// 58070
AAXX 01181 76390 31866 42106 10114 21006 38327 40289 52015 70544 81085 91730 333 10124 20060 30/// 56074 58068 81356 83070
AAXX 01181 76402 32958 03602 10220 20087 30135 40193 57003 70544 91745 333 10226 20074 30/// 58024
AAXX 01181 76458 32970 02703 10226 20155 30179 40183 57003 91738 333 10248 20112 30/// 58037
AAXX 01181 76491 32560 43606 10240 20124 39890 40284 52020 84400 91750 333 10250 20108 30/// 56800 58084 84630
AAXX 01181 76499 32560 73402 10259 20194 30233 40256 52015 85430 91740 333 10260 20158 30/// 5689/ 58079 85631 82357
AAXX 01181 76525 32980 60505 10126 20035 37529 40202 52007 80006 91740 333 10126 20108 30/// 56//5 58040 86080
AAXX 01181 76543 31570 73604 10247 20209 30235 40268 51005 70544 878// 91745 333 10247 20179 30/// 561// 58061 81834 86640
AAXX 01181 76548 31468 70201 10248 20217 30249 40259 51015 70542 874// 91740 333 10252 20200 30/// 56100 58057 87611
AAXX 01181 76556 32970 20000 10248 20144 39153 40181 51001 80005 91735 333 10255 20130 30/// 56003 58028 82070
AAXX 01181 76577 32570 83604 10193 20139 38094 40206 52004 81407 91740 333 10197 20110 30/// 56505 58034 81622 88277 99021
AAXX 01181 76593 32370 40505 10278 20257 30216 40218 58006 82260 91750 333 10282 20210 30/// 5611/ 58031 82820 82330 91007 91505
AAXX 01181 76625 32960 41103 10216 20069 38190 40174 52024 84070 91750 333 10218 20130 30/// 56050 58019 84360
AAXX 01181 76644 32460 41204 10296 20202 30182 40196 57029 84200 91755 333 10305 20208 30/// 562// 59020 84820
AAXX 01181 76654 31956 02702 10284 20214 30166 40170 57012 70544 91750 333 10284 20222 30/// 58023
AAXX 01181 76665 31562 31702 10215 20110 38161 40205 57006 70300 81120 91750 333 10226 20078 30/// 56550 57853 58032 81824
AAXX 01181 76685 31950 23601 10218 21004 37902 40197 57004 70544 80001 91750 333 10220 20065 30/// 56009 58017 82077
AAXX 01181 76687 31666 50701 10214 20125 38744 40240 50003 70211 85400 91745 333 10218 20118 30/// 563// 58030 83620 82823
AAXX 01181 76692 31556 73603 10260 20221 30209 40229 52008 70242 8423/ 91745 333 10261 20212 30/// 5611/ 58036 81820 83630 83360
AAXX 01181 76695 32560 20403 10286 20219 30192 40197 57009 82200 91750 333 10288 20204 30/// 562// 58027 82823
AAXX 01181 76698 32560 40403 10302 20217 30188 40199 57017 84200 91750 333 10312 20204 30/// 56200 58019 84820
AAXX 01181 76737 31480 50201 10228 20125 38834 40226 50001 70322 82237 91735 333 10233 20122 30/// 56229 58027 82817 91105 91511
AAXX 01181 76750 11560 40603 10301 20214 30182 40192 57014 69931 70020 83204 91750 333 10313 20204 30/// 56106 58020 83820
AAXX 01181 76762 31904 23602 10276 20224 38787 40167 58016 70400 80004 91746 333 10278 20138 30/// 56006 58020 82060 91204
AAXX 01181 76773 31566 43601 10232 20133 38458 40191 57012 70544 81408 91748 333 10237 20042 30/// 56909 58018 81620 83268
AAXX 01181 76843 32665 30801 10276 20172 39525 40168 50007 82106 91745 333 10286 20186 30/// 568// 58015 82820
AAXX 01181 76845 32460 51302 10174 20125 37983 40206 58002 85600 91747 333 10184 20108 30/// 56200 58024 85717
AAXX 01181 76903 31681 61301 10320 20199 30002 40132 57011 70122 81101 91755 333 10332 20222 30/// 56109 58006 81833 85074
AAXX 01181 76160 32962 00501 10212 20026 39960 40211 52011 91730 333 10212 20070 30/// 58040
AAXX 01181 76243 32974 03107 10148 20049 30058 40360 52025 91730 333 10164 20092 30/// 58172
AAXX 01181 76253 32982 00502 10240 20084 30119 40209 57002 91743 333 10245 20120 30/// 58025 92002
AAXX 01181 76311 32980 00000 10244 20091 39911 40195 52008 91740 333 10254 20086 30/// 58033
AAXX 01181 76405 32980 13303 10226 20142 30178 40200 50012 80001 91750 333 10226 20090 30/// 56005 58034 81070
AAXX 01181 76640 31458 40903 10252 20226 30247 40259 52016 70540 8223/ 91740 333 10268 20196 30/// 5623/ 58045 82811
AAXX 01184 78951 11570 31018 10290 20216 30137 40152 69901 0180 83800 333 10295 20248 58000 79999 83822
AAXX 01184 78866 02582 40815 10282 20211 30173 40178 57025 60001 84800 333 58001 60007 84820
AAXX 01184 78767 31565 80407 10261 20215 30140 40142 58010 71522 84470 333 10269 20203 31/// 56000 58000 84625 84459
AAXX 01184 78951 11570 31018 10290 20216 30137 40152 69901 0180 83800 333 10295 20248 58000 79999 83822
AAXX 01184 78906 11476 51006 10288 20211 30152 40157 60021 71581 84840 333 10293 20221 59001 70156 84817 90945
AAXX 01184 78866 02582 40815 10282 20211 30173 40178 57025 60001 84800 333 58001 60007 84820
AAXX 01184 78906 11476 51006 10288 20211 30152 40157 60021 71581 84840 333 10293 20221 59001 70156 84817 90945
AAXX 01184 78767 31565 80407 10261 20215 30140 40142 58010 71522 84470 333 10269 20203 31/// 56000 58000 84625 84459
AAXX 01181 76040 32960 03303 10186 20066 30235 40249 52089 91740 33310190 20059 30/// 58066 98660
AAXX 01181 76225 32960 00201 10142 21044 38744 40254 50006 91745 33310142 20017 30/// 58090
AAXX 01181 76256 32980 00000 10200 20084 30197 40211 5//// 91745 33310208 20074 30/// 58049
AAXX 01181 76305 32970 00601 10238 20066 30197 40205 52014 91740 33310242 20120 30/// 58037
AAXX 01181 76323 32970 00000 10184 20042 38353 40322 52038 91750 33310184 20020 30/// 58062
AAXX 01181 76342 31762 41202 10168 21003 39579 40298 57060 70321 8403091750 333 10172 20110 30/// 56010 58077 84357
AAXX 01181 76373 32980 00000 10167 21035 38292 40257 52076 91750 33310180 21032 30/// 59054
AAXX 01181 76382 32980 03402 10195 20049 39002 40281 52012 91747 33310200 20076 30/// 58070
AAXX 01181 76390 31866 42106 10114 21006 38327 40289 52015 70544 8108591730 333 10124 20060 30/// 56074 58068 81356 83070
AAXX 01181 76402 32958 03602 10220 20087 30135 40193 57003 70544 91745333 10226 20074 30/// 58024
AAXX 01181 76458 32970 02703 10226 20155 30179 40183 57003 91738 33310248 20112 30/// 58037
AAXX 01181 76491 32560 43606 10240 20124 39890 40284 52020 84400 91750333 10250 20108 30/// 56800 58084 84630
AAXX 01181 76499 32560 73402 10259 20194 30233 40256 52015 85430 91740333 10260 20158 30/// 5689/ 58079 85631 82357
AAXX 01181 76525 32980 60505 10126 20035 37529 40202 52007 80006 91740333 10126 20108 30/// 56//5 58040 86080
AAXX 01181 76543 31570 73604 10247 20209 30235 40268 51005 70544 878//91745 333 10247 20179 30/// 561// 58061 81834 86640
AAXX 01181 76548 31468 70201 10248 20217 30249 40259 51015 70542 874//91740 333 10252 20200 30/// 56100 58057 87611
AAXX 01181 76556 32970 20000 10248 20144 39153 40181 51001 80005 91735333 10255 20130 30/// 56003 58028 82070
AAXX 01181 76577 32570 83604 10193 20139 38094 40206 52004 81407 91740333 10197 20110 30/// 56505 58034 81622 88277 99021
AAXX 01181 76593 32370 40505 10278 20257 30216 40218 58006 82260 91750333 10282 20210 30/// 5611/ 58031 82820 82330 91007 91505
AAXX 01181 76625 32960 41103 10216 20069 38190 40174 52024 84070 91750333 10218 20130 30/// 56050 58019 84360
AAXX 01181 76644 32460 41204 10296 20202 30182 40196 57029 84200 91755333 10305 20208 30/// 562// 59020 84820
AAXX 01181 76654 31956 02702 10284 20214 30166 40170 57012 70544 91750333 10284 20222 30/// 58023
AAXX 01181 76665 31562 31702 10215 20110 38161 40205 57006 70300 8112091750 333 10226 20078 30/// 56550 57853 58032 81824
AAXX 01181 76685 31950 23601 10218 21004 37902 40197 57004 70544 8000191750 333 10220 20065 30/// 56009 58017 82077
AAXX 01181 76687 31666 50701 10214 20125 38744 40240 50003 70211 8540091745 333 10218 20118 30/// 563// 58030 83620 82823
AAXX 01181 76692 31556 73603 10260 20221 30209 40229 52008 70242 8423/91745 333 10261 20212 30/// 5611/ 58036 81820 83630 83360
AAXX 01181 76695 32560 20403 10286 20219 30192 40197 57009 82200 91750333 10288 20204 30/// 562// 58027 82823
AAXX 01181 76698 32560 40403 10302 20217 30188 40199 57017 84200 91750333 10312 20204 30/// 56200 58019 84820
AAXX 01181 76737 31480 50201 10228 20125 38834 40226 50001 70322 8223791735 333 10233 20122 30/// 56229 58027 82817 91105 91511
AAXX 01181 76750 11560 40603 10301 20214 30182 40192 57014 69931 7002083204 91750 333 10313 20204 30/// 56106 58020 83820
AAXX 01181 76762 31904 23602 10276 20224 38787 40167 58016 70400 8000491746 333 10278 20138 30/// 56006 58020 82060 91204
AAXX 01181 76773 31566 43601 10232 20133 38458 40191 57012 70544 8140891748 333 10237 20042 30/// 56909 58018 81620 83268
AAXX 01181 76843 32665 30801 10276 20172 39525 40168 50007 82106 91745333 10286 20186 30/// 568// 58015 82820
AAXX 01181 76845 32460 51302 10174 20125 37983 40206 58002 85600 91747333 10184 20108 30/// 56200 58024 85717
AAXX 01181 76903 31681 61301 10320 20199 30002 40132 57011 70122 8110191755 333 10332 20222 30/// 56109 58006 81833 85074
AAXX 01181 76160 32962 00501 10212 20026 39960 40211 52011 91730 33310212 20070 30/// 58040
AAXX 01181 76243 32974 03107 10148 20049 30058 40360 52025 91730 33310164 20092 30/// 58172
AAXX 01181 76253 32982 00502 10240 20084 30119 40209 57002 91743 33310245 20120 30/// 58025 92002
AAXX 01181 76311 32980 00000 10244 20091 39911 40195 52008 91740 33310254 20086 30/// 58033
AAXX 01181 76405 32980 13303 10226 20142 30178 40200 50012 80001 91750333 10226 20090 30/// 56005 58034 81070
AAXX 01181 76640 31458 40903 10252 20226 30247 40259 52016 70540 8223/91740 333 10268 20196 30/// 5623/ 58045 82811
BBXX VCXF 01184 99464 70484 41/90 92027 10065 2006/ 49974 57083 74742 89/// 22200 02022 20504 33523 41007 50902 80065
AAXX 01181 76040 32960 03303 10186 20066 30235 40249 52089 91740 333 10190 20059 30/// 58066 98660
AAXX 01181 76225 32960 00201 10142 21044 38744 40254 50006 91745 333 10142 20017 30/// 58090
AAXX 01181 76256 32980 00000 10200 20084 30197 40211 5//// 91745 333 10208 20074 30/// 58049
AAXX 01181 76305 32970 00601 10238 20066 30197 40205 52014 91740 333 10242 20120 30/// 58037
AAXX 01181 76323 32970 00000 10184 20042 38353 40322 52038 91750 333 10184 20020 30/// 58062
AAXX 01181 76342 31762 41202 10168 21003 39579 40298 57060 70321 84030 91750 333 10172 20110 30/// 56010 58077 84357
AAXX 01181 76373 32980 00000 10167 21035 38292 40257 52076 91750 333 10180 21032 30/// 59054
AAXX 01181 76382 32980 03402 10195 20049 39002 40281 52012 91747 333 10200 20076 30/// 58070
AAXX 01181 76390 31866 42106 10114 21006 38327 40289 52015 70544 81085 91730 333 10124 20060 30/// 56074 58068 81356 83070
AAXX 01181 76402 32958 03602 10220 20087 30135 40193 57003 70544 91745 333 10226 20074 30/// 58024
AAXX 01181 76458 32970 02703 10226 20155 30179 40183 57003 91738 333 10248 20112 30/// 58037
AAXX 01181 76491 32560 43606 10240 20124 39890 40284 52020 84400 91750 333 10250 20108 30/// 56800 58084 84630
AAXX 01181 76499 32560 73402 10259 20194 30233 40256 52015 85430 91740 333 10260 20158 30/// 5689/ 58079 85631 82357
AAXX 01181 76525 32980 60505 10126 20035 37529 40202 52007 80006 91740 333 10126 20108 30/// 56//5 58040 86080
AAXX 01181 76543 31570 73604 10247 20209 30235 40268 51005 70544 878// 91745 333 10247 20179 30/// 561// 58061 81834 86640
AAXX 01181 76548 31468 70201 10248 20217 30249 40259 51015 70542 874// 91740 333 10252 20200 30/// 56100 58057 87611
AAXX 01181 76556 32970 20000 10248 20144 39153 40181 51001 80005 91735 333 10255 20130 30/// 56003 58028 82070
AAXX 01181 76577 32570 83604 10193 20139 38094 40206 52004 81407 91740 333 10197 20110 30/// 56505 58034 81622 88277 99021
AAXX 01181 76593 32370 40505 10278 20257 30216 40218 58006 82260 91750 333 10282 20210 30/// 5611/ 58031 82820 82330 91007 91505
AAXX 01181 76625 32960 41103 10216 20069 38190 40174 52024 84070 91750 333 10218 20130 30/// 56050 58019 84360
AAXX 01181 76644 32460 41204 10296 20202 30182 40196 57029 84200 91755 333 10305 20208 30/// 562// 59020 84820
AAXX 01181 76654 31956 02702 10284 20214 30166 40170 57012 70544 91750 333 10284 20222 30/// 58023
AAXX 01181 76665 31562 31702 10215 20110 38161 40205 57006 70300 81120 91750 333 10226 20078 30/// 56550 57853 58032 81824
AAXX 01181 76685 31950 23601 10218 21004 37902 40197 57004 70544 80001 91750 333 10220 20065 30/// 56009 58017 82077
AAXX 01181 76687 31666 50701 10214 20125 38744 40240 50003 70211 85400 91745 333 10218 20118 30/// 563// 58030 83620 82823
AAXX 01181 76692 31556 73603 10260 20221 30209 40229 52008 70242 8423/ 91745 333 10261 20212 30/// 5611/ 58036 81820 83630 83360
AAXX 01181 76695 32560 20403 10286 20219 30192 40197 57009 82200 91750 333 10288 20204 30/// 562// 58027 82823
AAXX 01181 76698 32560 40403 10302 20217 30188 40199 57017 84200 91750 333 10312 20204 30/// 56200 58019 84820
AAXX 01181 76737 31480 50201 10228 20125 38834 40226 50001 70322 82237 91735 333 10233 20122 30/// 56229 58027 82817 91105 91511
AAXX 01181 76750 11560 40603 10301 20214 30182 40192 57014 69931 70020 83204 91750 333 10313 20204 30/// 56106 58020 83820
AAXX 01181 76762 31904 23602 10276 20224 38787 40167 58016 70400 80004 91746 333 10278 20138 30/// 56006 58020 82060 91204
AAXX 01181 76773 31566 43601 10232 20133 38458 40191 57012 70544 81408 91748 333 10237 20042 30/// 56909 58018 81620 83268
AAXX 01181 76843 32665 30801 10276 20172 39525 40168 50007 82106 91745 333 10286 20186 30/// 568// 58015 82820
AAXX 01181 76845 32460 51302 10174 20125 37983 40206 58002 85600 91747 333 10184 20108 30/// 56200 58024 85717
AAXX 01181 76903 31681 61301 10320 20199 30002 40132 57011 70122 81101 91755 333 10332 20222 30/// 56109 58006 81833 85074
AAXX 01181 76160 32962 00501 10212 20026 39960 40211 52011 91730 333 10212 20070 30/// 58040
AAXX 01181 76243 32974 03107 10148 20049 30058 40360 52025 91730 333 10164 20092 30/// 58172
AAXX 01181 76253 32982 00502 10240 20084 30119 40209 57002 91743 333 10245 20120 30/// 58025 92002
AAXX 01181 76311 32980 00000 10244 20091 39911 40195 52008 91740 333 10254 20086 30/// 58033
AAXX 01181 76405 32980 13303 10226 20142 30178 40200 50012 80001 91750 333 10226 20090 30/// 56005 58034 81070
AAXX 01181 76640 31458 40903 10252 20226 30247 40259 52016 70540 8223/ 91740 333 10268 20196 30/// 5623/ 58045 82811
AAXX 01181 02741 37457 81707 10021 20007 30021 40037 57013 78185 88/// 91739 333 10032 21074
AAXX 01181 02755 37483 71406 11041 21056 30016 40114 54001 77174 87/// 91739 333 11038 21080
AAXX 01181 02805 37457 81606 11035 21050 39965 40100 52002 74187 88/// 91739 333 11034 21063
AAXX 01181 02807 47483 81704 11034 21052 39928 40115 785// 88/// 91800 333 11030 21079
AAXX 01181 02836 37429 71504 11096 21111 39903 40136 52010 77172 87/// 91739 333 11040 21096
AAXX 01181 02845 47257 81405 11080 21084 39871 40130 52003 77170 88/// 91739 333 11054 21096
AAXX 01181 02849 47259 71502 11111 21124 39864 40153 52013 77187 87/// 91739 333 11035 21111
AAXX 01181 02866 37499 31501 11082 21088 39987 40143 52006 70087 83/// 91739 333 11057 21083
AAXX 01181 02897 47999 01202 11116 21128 39958 40151 700// 91800 333 11067 21118
AAXX 01181 02913 47582 81206 11038 21053 30035 40089 700// 88/// 333 11026 21043
AAXX 01181 02917 47983 01103 11090 21097 30020 40149 700// 91800 333 11060 21093
AAXX 01181 02924 47469 81401 11052 21060 39905 40109 57006 78587 88/// 91739 333 11052 21065
AAXX 01181 02926 37699 71306 11034 21055 30057 40070 56012 700// 81/// 91800 333 11024 21039
AAXX 01181 02935 37482 71403 11039 21051 39946 40125 54000 700// 87/// 91739 333 11039 21050
AAXX 01181 02939 37399 70801 11062 21070 39959 40161 52005 70000 87/// 91739 333 11062 21091
AAXX 01181 02944 47580 11104 11066 21073 39949 40102 700// 81/// 91800 333 11044 21066
AAXX 01181 02947 47560 51202 11044 21049 40141 52004 70020 85/// 91751 333 11033 21051
AAXX 01181 02963 46/// /1405 11057 21067 40097 333 1//// 2////
AAXX 01181 02974 32575 70903 11054 21064 30050 40119 57005 70311 875// 333 11038 21078 45///
AAXX 01181 02976 46/// /1302 11009 21009 30113 40130 52004 91739 333 11009 21035
AAXX 01181 02981 17465 81612 10030 2//// 30052 40062 57015 60012 70086 85/// 91739 333 10037 21021
AAXX 01181 02982 46/// /1515 10018 21016 30080 40088 57011 91739 333 10018 21024
AAXX 01181 02741 37457 81707 10021 20007 30021 40037 57013 78185 88/// 91739 333 10032 21074
AAXX 01181 02755 37483 71406 11041 21056 30016 40114 54001 77174 87/// 91739 333 11038 21080
AAXX 01181 02805 37457 81606 11035 21050 39965 40100 52002 74187 88/// 91739 333 11034 21063
AAXX 01181 02807 47483 81704 11034 21052 39928 40115 785// 88/// 91800 333 11030 21079
AAXX 01181 02836 37429 71504 11096 21111 39903 40136 52010 77172 87/// 91739 333 11040 21096
AAXX 01181 02845 47257 81405 11080 21084 39871 40130 52003 77170 88/// 91739 333 11054 21096
AAXX 01181 02849 47259 71502 11111 21124 39864 40153 52013 77187 87/// 91739 333 11035 21111
AAXX 01181 02866 37499 31501 11082 21088 39987 40143 52006 70087 83/// 91739 333 11057 21083
AAXX 01181 02897 47999 01202 11116 21128 39958 40151 700// 91800 333 11067 21118
AAXX 01181 02913 47582 81206 11038 21053 30035 40089 700// 88/// 333 11026 21043
AAXX 01181 02917 47983 01103 11090 21097 30020 40149 700// 91800 333 11060 21093
AAXX 01181 02924 47469 81401 11052 21060 39905 40109 57006 78587 88/// 91739 333 11052 21065
AAXX 01181 02926 37699 71306 11034 21055 30057 40070 56012 700// 81/// 91800 333 11024 21039
AAXX 01181 02935 37482 71403 11039 21051 39946 40125 54000 700// 87/// 91739 333 11039 21050
AAXX 01181 02939 37399 70801 11062 21070 39959 40161 52005 70000 87/// 91739 333 11062 21091
AAXX 01181 02944 47580 11104 11066 21073 39949 40102 700// 81/// 91800 333 11044 21066
AAXX 01181 02947 47560 51202 11044 21049 40141 52004 70020 85/// 91751 333 11033 21051
AAXX 01181 02963 46/// /1405 11057 21067 40097 333 1//// 2////
AAXX 01181 02974 32575 70903 11054 21064 30050 40119 57005 70311 875// 333 11038 21078 45///
AAXX 01181 02976 46/// /1302 11009 21009 30113 40130 52004 91739 333 11009 21035
AAXX 01181 02981 17465 81612 10030 2//// 30052 40062 57015 60012 70086 85/// 91739 333 10037 21021
AAXX 01181 02982 46/// /1515 10018 21016 30080 40088 57011 91739 333 10018 21024
BBXX CGBR 01184 99525 71288 46/// /0214 10053 20048 40091 56030 7//// 8//// 22200 0//// 2////
BBXX 3FZK3 01184 99489 71237 46/// /2805 10038 20019 40262 56008 7//// 8//// 22200 0//// 2////
BBXX CGSB 01184 99483 70709 46/// /1401 11058 21082 40142 57030 7//// 8//// 22200 0//// 2////
BBXX CG2350 01184 99433 70798 46/// /1915 10069 20055 49993 58068 7//// 8//// 22200 0//// 2////
BBXX C6SI6 01184 99457 11534 46/// /1707 10003 21042 40225 57002 7//// 8//// 22212 0//// 2////
BBXX CZ9742 01184 99506 70969 46/// /3119 11086 21130 4//// 5//// 7//// 8//// 22200 0//// 2////
BBXX VCBW 01184 99456 70735 46/// /0605 11004 21014 40106 58050 7//// 8//// 22200 0//// 2////
BBXX VOFG 01184 99456 70614 46/// /3322 10033 20032 40036 51041 7//// 8//// 22200 0//// 2////
BBXX CGUM 01184 99463 70601 46/// /3418 10031 20030 40007 51025 7//// 8//// 22211 0//// 2////
BBXX VOLG 01184 99461 70588 46/// /3630 10034 20029 49954 53006 7//// 8//// 22222 0//// 2////
BBXX CG2960 01184 99429 70824 46/// /2201 10077 20049 49969 56046 7//// 8//// 22200 0//// 2////
BBXX VCSZ 01184 99472 70588 46/// /3524 10029 20031 49993 56023 7//// 8//// 22234 0//// 2////
BBXX CGDX 01184 99468 70712 46/// /0406 11027 21035 40143 58038 7//// 8//// 22200 0//// 2////
BBXX CGDT 01184 99468 70712 46/// /0505 11013 21030 40142 58039 7//// 8//// 22200 0//// 2////
BBXX VOPP 01184 99456 70735 46/// /0702 11005 21004 4//// 5//// 7//// 8//// 22200 0//// 2////
BBXX VCLM 01184 99468 70712 46/// /0604 11014 21032 40134 58039 7//// 8//// 22200 0//// 2////
BBXX CGTF 01184 99476 70527 46/// /3112 10019 20017 49972 56080 7//// 8//// 22200 0//// 2////
BBXX CGDR 01184 99486 71232 46/// /0109 10065 20023 40252 56007 7//// 8//// 22211 00100 2////
BBXX CGBN 01184 99447 70636 46/// /3115 10029 20004 40095 51018 7//// 8//// 22200 0//// 2////
BBXX VOKF 01184 99490 70669 46/// /2604 11025 21050 40147 57008 7//// 8//// 22200 0//// 2////
AAXX 01184 78958 11573 21112 10301 20227 30129 40139 60001 70600 82200 333 10304 20235 59002 82822
AAXX 01181 01271 16/// /1104 10035 21033 39873 49894 52001 69902 333 10037 47001 91107
AAXX 01181 01367 16/// /0000 11059 21070 39496 49946 57005 6//// 333 11059 91100
AAXX 01181 01415 16/// /2005 10074 20047 39907 49918 55000 6//// 333 10088 91113
AAXX 01181 01028 11660 61317 10006 21015 39943 49963 57006 60002 73632 86500 333 10008 91124
AAXX 01181 01049 16/// /1511 11027 21070 30043 40047 52005 69932 333 11011 91118
AAXX 01181 01160 41670 81108 10009 21032 39907 49924 52009 78582 888// 333 10034 91116
AAXX 01181 01359 11370 62401 11051 21063 39014 49935 55002 60022 72682 83630 333 11036 91103
AAXX 01181 01397 16/// /0000 11031 21035 39511 49951 56007 60082 333 11027 91103
AAXX 01181 01427 11465 22307 10075 20053 39927 49943 53002 60002 70181 82900 333 10084 91112
BBXX CGSB 01184 99483 70709 46/// /1401 11058 21082 40142 57030 7//// 8//// 22200 0//// 2////
BBXX CG2960 01184 99429 70824 46/// /2201 10077 20049 49969 56046 7//// 8//// 22200 0//// 2////
BBXX CGBR 01184 99525 71288 46/// /0214 10053 20048 40091 56030 7//// 8//// 22200 0//// 2////
BBXX VCBW 01184 99456 70735 46/// /0605 11004 21014 40106 58050 7//// 8//// 22200 0//// 2////
BBXX CGUM 01184 99463 70601 46/// /3418 10031 20030 40007 51025 7//// 8//// 22211 0//// 2////
BBXX VCSZ 01184 99472 70588 46/// /3524 10029 20031 49993 56023 7//// 8//// 22234 0//// 2////
BBXX VOFG 01184 99456 70614 46/// /3322 10033 20032 40036 51041 7//// 8//// 22200 0//// 2////
BBXX CG2350 01184 99433 70798 46/// /1915 10069 20055 49993 58068 7//// 8//// 22200 0//// 2////
BBXX C6SI6 01184 99457 11534 46/// /1707 10003 21042 40225 57002 7//// 8//// 22212 0//// 2////
BBXX 3FZK3 01184 99489 71237 46/// /2805 10038 20019 40262 56008 7//// 8//// 22200 0//// 2////
BBXX CGDT 01184 99468 70712 46/// /0505 11013 21030 40142 58039 7//// 8//// 22200 0//// 2////
BBXX CZ9742 01184 99506 70969 46/// /3119 11086 21130 4//// 5//// 7//// 8//// 22200 0//// 2////
BBXX VOPP 01184 99456 70735 46/// /0702 11005 21004 4//// 5//// 7//// 8//// 22200 0//// 2////
BBXX VCLM 01184 99468 70712 46/// /0604 11014 21032 40134 58039 7//// 8//// 22200 0//// 2////
BBXX CGBN 01184 99447 70636 46/// /3115 10029 20004 40095 51018 7//// 8//// 22200 0//// 2////
BBXX CGTF 01184 99476 70527 46/// /3112 10019 20017 49972 56080 7//// 8//// 22200 0//// 2////
BBXX VOKF 01184 99490 70669 46/// /2604 11025 21050 40147 57008 7//// 8//// 22200 0//// 2////
BBXX CGDX 01184 99468 70712 46/// /0406 11027 21035 40143 58038 7//// 8//// 22200 0//// 2////
BBXX VOLG 01184 99461 70588 46/// /3630 10034 20029 49954 53006 7//// 8//// 22222 0//// 2////
BBXX CGDR 01184 99486 71232 46/// /0109 10065 20023 40252 56007 7//// 8//// 22211 00100 2////
AAXX 01184 41170 42960 01405 10185 20149 30162 40175 333 10248 59042
AAXX 01184 91413 32469 60910 10264 20230 30054 40079 57027 82171 333 56299 555 90118
AAXX 01184 85574 12960 01512 10287 20128 39572 40098 57022 60001
AAXX 01184 85585 12598 31710 10211 20139 40202 58008 60001 82504 333 56406 82625
AAXX 01184 85629 12980 02205 10290 20152 40107 57011 60001
AAXX 01184 85672 12970 01810 10338 20163 4121 57015 60001 333
AAXX 01184 85682 12960 02414 10259 20139 40140 58014 60001
AAXX 01184 85703 12960 01815 10323 20210 40135 57013 60001
AAXX 01184 85743 12960 02307 10300 20108 40166 57020 60001
AAXX 01184 85766 12960 01810 10277 20134 40187 57016 60001
AAXX 01184 85782 12560 21808 10252 20119 40202 57016 60001 82100 333 56400 82830
AAXX 01184 85799 12680 61711 10219 20139 40215 57005 60001 70322 82101 333 56404 82840 84070
AAXX 01184 85406 12980 52015 10241 20144 40109 57011 60001 85030 333 56000 85365
AAXX 01184 85432 12870 52622 10236 20085 37752 48424 57009 60001 81131 333 56666 81857 82361 84070
AAXX 01184 85442 12975 41914 10230 20143 40120 57012 60001 80001 333 56007 83080
AAXX 01184 85467 13980 02515 10211 20116 40144 58011 60001
AAXX 01184 85469 42565 62807 10244 20193 40184 52002 82202 333 56707 82820 83076
AAXX 01184 85488 12962 22911 10218 20125 40143 58007 80001 333 56000 82075
AAXX 01184 85864 12980 02705 10205 20053 40185 58003 60001
AAXX 01184 85874 12680 13123 10182 20034 39561 40167 58003 60001 81100 333 56600 81840
AAXX 01184 85934 12580 62927 10147 20045 40065 54002 60001 84530 333 56660 84620 83357
AAXX 01184 89056 11/04 90114 10017 20013 49893 57020 60003 74542 333 89/01
AAXX 01184 89057 11450 83506 10014 20002 49898 57015 69923 76842 8802/ 333 56079 88510
AAXX 01184 89058 11462 83411 10024 20015 39880 49901 57016 60021 76874 8572/
AAXX 01184 89059 12960 21805 10012 21009 49905 57006 60003 80002 333 74008 81163
AAXX 01184 89251 41150 83614 10033 20014 49887 57018 76062 8672/
AAXX 01184 78073 12565 20608 10256 20170 40223 60001 81101 333 58013 81825
AAXX 01184 78958 11573 21112 10301 20227 30129 40139 60001 70600 82200 333 10304 20235 59002 82822
BBXX CGDG 01184 99447 70636 46/// /3318 10025 20052 40096 51017 7//// 8//// 22200 0//// 2////
BBXX CGCC 01184 99463 70725 46/// /0507 11028 21030 40125 58041 7//// 8//// 22200 0//// 2////
BBXX CGBY 01184 99487 71235 46/// /2806 10037 20017 40262 57004 7//// 8//// 22200 0//// 2////
BBXX VOKJ 01184 99455 70735 46/// /0701 10004 21008 40103 58053 7//// 8//// 22200 0//// 2////
BBXX CGHL 01184 99476 70527 46/// /1015 10019 20017 49974 56078 7//// 8//// 22200 0//// 2////
BBXX CGJV 01184 99462 70631 46/// /3509 10001 21005 40097 51025 7//// 8//// 22200 0//// 2////
BBXX VXKF 01184 99462 70602 46/// /3518 10031 20030 40002 51028 7//// 8//// 22200 0//// 2////
BBXX VAAP 01184 99461 70602 46/// /3415 10033 20032 40003 51031 7//// 8//// 22200 0//// 2////
BBXX VCWL 01184 99468 70712 46/// /0504 11030 21040 40141 58039 7//// 8//// 22200 0//// 2////
BBXX VAAZ 01184 99/// ///// 46/// /1414 11006 21009 40073 56065 7//// 8//// 22200 0//// 2////
BBXX VRYO3 01184 99456 70735 46/// /0704 11003 21013 40101 58050 7//// 8//// 22200 0//// 2////
AAXX 01184 91413 32469 60910 10264 20230 30054 40079 57027 82171 333 56299 555 90118
BBXX CGCC 01184 99463 70725 46/// /0507 11028 21030 40125 58041 7//// 8//// 22200 0//// 2////
BBXX VAAP 01184 99461 70602 46/// /3415 10033 20032 40003 51031 7//// 8//// 22200 0//// 2////
BBXX VCWL 01184 99468 70712 46/// /0504 11030 21040 40141 58039 7//// 8//// 22200 0//// 2////
BBXX VXKF 01184 99462 70602 46/// /3518 10031 20030 40002 51028 7//// 8//// 22200 0//// 2////
BBXX VAAZ 01184 99/// ///// 46/// /1414 11006 21009 40073 56065 7//// 8//// 22200 0//// 2////
BBXX CGJV 01184 99462 70631 46/// /3509 10001 21005 40097 51025 7//// 8//// 22200 0//// 2////
BBXX CGHL 01184 99476 70527 46/// /1015 10019 20017 49974 56078 7//// 8//// 22200 0//// 2////
BBXX CGBY 01184 99487 71235 46/// /2806 10037 20017 40262 57004 7//// 8//// 22200 0//// 2////
BBXX VOKJ 01184 99455 70735 46/// /0701 10004 21008 40103 58053 7//// 8//// 22200 0//// 2////
BBXX VRYO3 01184 99456 70735 46/// /0704 11003 21013 40101 58050 7//// 8//// 22200 0//// 2////
BBXX CGDG 01184 99447 70636 46/// /3318 10025 20052 40096 51017 7//// 8//// 22200 0//// 2////
AAXX 01184 64500 32460 42208 10271 20233 30094 40107 84500 333 10285 58001 84611
AAXX 01181 11812 36/// /1504 11007 21007 39496 42794 52006 333 11007
AAXX 01181 11813 11/02 99902 11006 21007 39857 40217 52004 60032 76654 333 11005 89/00 93403
AAXX 01181 11816 11020 80503 10000 21006 30048 40217 52003 60032 76162 887// 333 10000 84701 87702
AAXX 01181 11819 16/// /1502 11002 21006 39997 40221 52004 60012 333 11001
AAXX 01181 11826 11210 81701 10002 21005 30010 40216 52004 69982 76176 887// 333 10002 88705
AAXX 01181 11841 11416 82602 11002 21009 39825 40213 51002 69902 75052 887// 333 11002 43006 88710
AAXX 01181 11855 11356 80803 10003 21004 30054 40225 53005 69942 71065 886// 333 10003 88708
AAXX 01181 11856 16/// /1204 11007 21012 39896 40226 52004 69972 333 11007
AAXX 01181 11858 11564 89901 10011 20005 30064 40220 52002 69972 70262 885// 333 10014 88630
AAXX 01181 11867 11322 80101 10000 21013 39894 40221 53002 69922 75662 887// 333 10002 43004 83709 87714 93401
AAXX 01181 11880 11420 89901 10000 21000 30050 40228 51001 69942 72076 886// 333 10001 41998 88710
AAXX 01181 11900 16/// /0000 11011 21021 39885 40232 52004 69912 333 11010
AAXX 01181 11903 11137 80000 11017 21017 39834 40229 53002 69922 71072 885// 333 11011 43004 83702 88716
AAXX 01181 11916 11/01 92804 11023 21031 37943 48452 51009 60012 74974 333 11019 48051 89/00 91012 91120 93598
AAXX 01181 11918 12474 72510 11007 21012 39354 42783 53001 60002 875// 333 11005 43002 81710 87626
AAXX 01181 11927 11250 89901 11008 21016 39958 40229 52003 69922 71011 886// 333 11002 83705 88715
AAXX 01181 11930 11/00 93215 11053 21057 37318 47992 53020 60042 77174 333 11053 48040 89/00 91020 91128 93545 96049
AAXX 01181 11933 11/01 99902 11014 21014 38650 48465 51007 69922 74988 333 11011 48043 89/00 93501
AAXX 01181 11934 11465 71603 11022 21041 39358 42788 53003 69902 70277 875// 333 11004 41998 81710 84713
AAXX 01181 11938 11462 82203 11037 21042 39117 42790 51002 69902 77172 887// 333 11030 44019 88710
AAXX 01181 11952 16/// /1403 11033 21037 39350 42789 52003 60002 333 11023
AAXX 01181 11958 36/// /9904 11038 21044 38740 48469 52011 333 11035
AAXX 01181 11968 11130 82005 11010 21020 39932 40223 52003 60002 71077 886// 333 11001 88702
AAXX 01181 11976 11335 81704 11004 21012 39948 40221 52005 69932 72272 885// 333 10007 43001 85706 88613 91009
AAXX 01181 11978 11657 81603 10004 21009 30089 40224 50003 60002 71022 885// 333 10015 88633
AAXX 01181 11993 11464 71804 10009 21002 30004 40227 52006 69902 72222 87500 333 10013 43997 84711 87630
BBXX C6SI6 01184 99457 11534 46/// /1707 10003 21042 40225 57002 7//// 8//// 22212 0//// 2////
BBXX WDB9950 01183 99463 11517 41398 81715 10015 21024 40220 57010 7//22 887// 22254 00020 20102 310// 40907 5//// 6//// 80000 ICE /////
AAXX 01181 11423 NIL
AAXX 01181 11487 01370 72707 10090 20074 39547 40164 53004 69982 70252 86541 333 10092 60005 81709 83619 85638 91112
AAXX 01181 11518 01480 72305 10091 20077 39719 40154 53008 69922 70162 83670 333 10092 60005 82711 86357
AAXX 01181 11603 01257 81202 10042 20031 39671 40158 52006 69962 71062 886// 333 10042 60005 88706
AAXX 01181 11659 01225 81003 10026 20026 39532 40181 53004 60032 72164 887// 333 10028 69935 88705
AAXX 01181 11723 01132 81202 10008 21002 39892 40198 53001 60012 71052 886// 333 10008 60005 88703
AAXX 01181 11782 01458 82405 10022 20012 39870 40182 54000 69922 72162 885// 333 10029 69925 83711 88620
AAXX 01184 60101 32460 22305 10135 20109 40305 53009 82200 333 10165 82816
AAXX 01184 60115 32970 02703 10119 20062 40279 52008 333 10200
AAXX 01184 60135 15458 10000 10107 20088 40305 53013 69902 81600 333 10167 81710
AAXX 01184 60150 32960 02902 10122 21007 39639 40302 52010 333 10164
AAXX 01184 60155 32960 030// 10143 20116 40297 53010 333 10171
AAXX 01184 60156 15460 23508 10124 20089 40312 53014 60002 82200 333 10179 82616
AAXX 01184 60230 12960 02803 10176 21011 40285 53009 60002 91745 333 10220
AAXX 01184 60252 12960 02505 10149 20067 40284 53007 60002 333 10217 95800
AAXX 01184 60096 NIL
AAXX 01184 60060 32460 22602 10155 20116 40290 53006 81502 333 10172 81616 95300
AAXX 01184 60107 32960 02004 10118 20069 40279 53003 333 10164
AAXX 01184 60141 32960 00000 10105 20021 39628 40306 53011 333 10171
AAXX 01184 60185 32970 00405 10155 20102 40303 53009 333 10195
AAXX 01184 60190 32968 02403 10137 20045 40284 53001 333 10182
AAXX 01184 60191 32975 00000 10148 20047 40301 57002 333 10194
AAXX 01184 60210 32970 02002 10148 21078 39089 48604 53004 333 10186
AAXX 01184 60265 32970 00501 10166 21110 38976 48601 53006 333 10182
AAXX 01184 60105 NIL
AAXX 01184 60106 NIL
AAXX 01184 60127 NIL
AAXX 01184 60195 NIL
AAXX 01184 60220 NIL
AAXX 01184 60318 NIL
AAXX 01184 60285 32960 03411 10157 20112 40282 53008 333 10195
AAXX 01184 60340 NIL
BBXX DBLK 01181 99416 30100 41497 72814 10124 20079 40047 52003 71521 878// 22213 04132 20606 325// 41008
AAXX 01184 64551 32460 30000 10272 20244 30078 40007 83200 333 10302 59002 83815 94943 95839
AAXX 01184 64550 32460 6//// 10258 20232 30/// 40/// 86500 333 10295 5//// 83610 86625
BBXX VCRG 01184 99474 70619 46/// /3525 11002 21004 40072 53018 7//// 8//// 22200 0//// 2////
BBXX VCRG 01184 99474 70619 46/// /3525 11002 21004 40072 53018 7//// 8//// 22200 0//// 2////
BBXX VEP717 01184 99487 70487 41/94 91424 10055 2005/ 49975 56059 74524 89/// 22200 06021 20504 301// 41107 80054
AAXX 01184 43533 11459 89902 10260 20247 30106 40109 69901 70382 8327/ 333 58001 83817 87361
AAXX 01184 43555 12465 39902 10269 20218 30112 40115 60001 81131 333 59002 81818
AAXX 01184 43577 12465 22504 10275 20223 30119 40121 60001 81202 333 59002 81818
AAXX 01184 43588 12465 32906 10275 20223 30117 40119 60001 82202 333 58000 82818
AAXX 01184 43599 12465 53204 10276 20235 30115 40117 60001 82202 333 58001 82818 85076
AAXX 01184 43533 11459 89902 10260 20247 30106 40109 69901 70382 8327/ 333 58001 83817 87361
AAXX 01184 43555 12465 39902 10269 20218 30112 40115 60001 81131 333 59002 81818
AAXX 01184 43577 12465 22504 10275 20223 30119 40121 60001 81202 333 59002 81818
AAXX 01184 43588 12465 32906 10275 20223 30117 40119 60001 82202 333 58000 82818
AAXX 01184 43599 12465 53204 10276 20235 30115 40117 60001 82202 333 58001 82818 85076
AAXX 01181 78221 NIL
AAXX 01181 78224 32560 39906 10275 20173 30144 40217 58020 70311 83100 333 83825
AAXX 01181 78229 42559 41001 10194 20169 30126 40201 52010 84200 333 84825
AAXX 01181 78239 41559 50608 10272 20218 30203 40206 57020 70520 85800 333 10274 20235 84820
AAXX 01181 12345 42560 40806 10284 20204 30160 40190 57024 84100 333 84825
AAXX 01181 78243 42559 50707 10266 20197 30092 40216 57019 85200 333 85820
AAXX 01181 78255 42559 40000 10281 20195 30053 40202 57020 84202 333 10290 20220 84820
AAXX 01181 78264 31560 31804 10286 20204 30106 40182 57020 70200 83100 333 83820
AAXX 01181 78265 41560 40807 10290 20189 30083 40183 57030 70544 84200 333 10297 20211 84825
AAXX 01181 78256 NIL
AAXX 01181 78259 NIL
AAXX 01181 78268 NIL
AAXX 01184 78016 11564 63106 10211 20172 30217 40221 57019 69951 70181 85801 333 10218 20204 70020 90935
AAXX 01181 45007 12559 31005 10168 20121 30210 40219 58005 60001 82501 333 59011 81620
AAXX 01184 78016 11564 63106 10211 20172 30217 40221 57019 69951 70181 85801 333 10218 20204 70020 90935
AAXX 01181 45007 12559 31005 10168 20121 30210 40219 58005 60001 82501 333 59011 81620
AAXX 01181 78221 NIL
AAXX 01181 78224 32560 39906 10275 20173 30144 40217 58020 70311 83100 333 83825
AAXX 01181 78229 42559 41001 10194 20169 30126 40201 52010 84200 333 84825
AAXX 01181 78239 41559 50608 10272 20218 30203 40206 57020 70520 85800 333 10274 20235 84820
AAXX 01181 12345 42560 40806 10284 20204 30160 40190 57024 84100 333 84825
AAXX 01181 78243 42559 50707 10266 20197 30092 40216 57019 85200 333 85820
AAXX 01181 78255 42559 40000 10281 20195 30053 40202 57020 84202 333 10290 20220 84820
AAXX 01181 78264 31560 31804 10286 20204 30106 40182 57020 70200 83100 333 83820
AAXX 01181 78265 41560 40807 10290 20189 30083 40183 57030 70544 84200 333 10297 20211 84825
AAXX 01181 78256 NIL
AAXX 01181 78259 NIL
AAXX 01181 78268 NIL
AAXX 01184 78016 11564 63106 10211 20172 30217 40221 57019 69951 70181 85801 333 10218 20204 70020 90935
AAXX 01181 45032 36/// /0902 10159 20116 30206 40223 54000
AAXX 01181 45035 36/// /0801 10153 20123 30179 40221 57001
AAXX 01181 45039 36/// /1003 10157 20117 30206 40222 54000
AAXX 01181 45044 36/// /0906 10157 20122 30123 40217 57001
AAXX 01181 45032 36/// /0902 10159 20116 30206 40223 54000
AAXX 01181 45035 36/// /0801 10153 20123 30179 40221 57001
AAXX 01181 45039 36/// /1003 10157 20117 30206 40222 54000
AAXX 01181 45044 36/// /0906 10157 20122 30123 40217 57001
BBXX A8GH5 01183 99046 70266 41396 60517 10300 20200 40120 56010 70522 8577/ 22254 04270 20302 305// 40605 80230
AAXX 01184 78982 02480 30818 10292 20240 30125 40130 57030 6000183201 333 58001 60007 83819
AAXX 01184 78947 11578 60913 10284 20222 30150 40153 69901 70582 86400 333 05200 10296 20249 59003 70006 86825 90920
AAXX 01181 89061 179// 00000 10045 20009 39882 49889 57001 60023 70070 333 91001 91105
BBXX A8TG2 01183 99254 71179 41798 80506 10170 20135 40190 52020 702// 8/7// 22273 20103 304// 40103 5//// 80150
BBXX 41010 01181 99289 70785 46/// /2102 10226 40231 58022 91750 22200 00239 10901 300// 40901 70006 333 91202 555 11015 22016
BBXX 41009 01181 99285 70802 46/// /3102 10218 20168 40236 58022 91750 22200 00235 10901 300// 40901 70004 333 91203 555 11022 22022
BBXX 42057 01181 99168 70815 46/// /0610 10278 20228 40169 58012 91750 22200 00275 10704 20704 70020 333 91211 555 11096 22102 31653 40612 61749 056096 057099 060093 062098 059101 058104 80611 91653
AAXX 01184 71805 01325 80429 10028 20024 39917 49926 56022 60172 76166 8577/ 333 10035 20026 60097 86708 88458 91040 90710 91144 93100 555 60025
AAXX 01184 81401 06/// /0607 10303 20217 30103 40109 69921 333 60007 59003 555 60005
AAXX 01184 81408 06/// /0706 10295 20220 30099 40107 60011 333 60017 59007 555 60005
AAXX 01184 16325 12998 02905 10100 20062 30227 40241 52020 60002 333 10150 98075 555 0////
AAXX 01184 13600 12965 00904 10034 21006 30197 40251 52013 60002 333 10112
AAXX 01184 13610 12960 00000 10040 21040 39809 40243 54002 60002 333 10060
AAXX 01184 13611 12965 03604 10084 20002 30111 40203 52011 60002 333 10112
AAXX 01184 13619 12965 00404 11008 21029 39460 42835 52006 60002 333 10040
AAXX 01184 13622 12965 00402 10056 21033 30216 40224 52015 60002 333 10114
AAXX 01184 13624 12965 01404 10044 21007 30179 40219 52012 60002 333 10134
AAXX 01184 13625 12960 00000 10030 21018 39985 40224 54002 60002 333 10110
AAXX 01184 13629 12965 01402 11026 21070 39163 42814 52019 60002 333 10010
AAXX 01184 13601 12960 01802 10050 21009 30123 40226 52020 60002 333 10120
AAXX 01184 13602 NIL
AAXX 01184 13623 12960 02204 10036 21070 30216 40223 52008 60002 333 10100
AAXX 01184 16021 12860 50202 10022 21057 38004 48519 53003 60002 85070 333 10050 43010 82357 84458 92852
AAXX 01184 16022 12984 01405 10040 21040 37884 48515 52009 60002 333 10064 43012 92832
AAXX 01184 16033 12662 70000 10010 21014 38818 48520 52003 60002 85506 333 10020 47026 85640 92802
AAXX 01184 16040 12965 72803 10010 21041 39294 42816 52005 60002 87070 333 10026 47007 84359 87462 92830
AAXX 01184 16052 12660 52215 11074 21093 36652 47090 53001 60002 82081 333 11068 49999 82340
AAXX 01184 16061 12270 41905 10072 20069 39372 42817 53008 60002 84500 333 10088 84606
AAXX 01184 16098 11959 43203 10030 20006 30187 40240 52013 60002 71011 80001 333 10100
AAXX 01184 16138 11950 00000 10034 20031 30226 40237 51009 60002 71011 333 10097
AAXX 01184 16148 11950 02203 10030 20026 30231 40244 53015 60002 71000 333 10090
AAXX 01184 16168 12162 81912 10088 20088 39477 42831 52009 60002 886// 333 10092 82702 88610
AAXX 01184 16172 12961 20000 10022 21009 39951 40261 53010 60002 80001 333 10092
AAXX 01184 16179 12982 01102 10078 21056 39548 42834 51012 60002 333 10092
AAXX 01184 16224 12668 83602 10088 20024 39910 40232 52003 60002 885// 333 10092 88635
AAXX 01184 16232 12998 00000 10102 20008 30189 40244 51014 60002 333 10192 55300 555 0////
AAXX 01184 16245 NIL
AAXX 01184 16253 12960 00703 10090 20058 30237 40250 52014 60002 333 10140
AAXX 01184 16258 12960 02404 10062 21101 39230 42830 52010 60002 333 10070
AAXX 01184 16263 12970 02707 10050 21028 38970 48529 52009 60002 333 10054
AAXX 01184 16294 42998 00000 10108 20064 30055 40251 52011 6///2 333 10152 555 0////
AAXX 01184 16337 12998 00000 10078 20005 39657 40237 52012 60002 333 10124 555 0////
AAXX 01184 16344 12970 02802 10020 21033 38351 48534 52014 60002 333 10032 43049 95000 95100
AAXX 01184 16434 12968 03302 10064 20041 39043 48539 52010 60002 333 10124 95000 95100
AAXX 01184 16450 12960 03101 10094 20060 39135 48595 52014 60002 333 10122
AAXX 01184 16459 12980 00000 10082 20053 30216 40253 52018 60002 333 10180
AAXX 01184 16546 12460 73105 10140 20117 30220 40249 52015 60002 87800 333 10168 82818 85636
AAXX 01184 16564 12598 22723 10148 20114 30098 40240 51015 60002 82100 333 10186 82820 555 0////
AAXX 01184 16008 12965 03503 10008 21010 38560 48517 54000 60002 333 10056 43028 92851
AAXX 01184 16084 11958 02303 11002 21009 30068 40243 53017 60002 71000 333 10078
AAXX 01184 16088 11940 01002 10030 20030 30124 40246 53017 60002 71021 333 10090
AAXX 01184 16110 12997 00708 10058 20043 30230 40234 51004 60002 333 10134 555 0////
AAXX 01184 16134 12984 02406 10040 21026 37864 48538 51008 60002 333 10042 44021 92835
AAXX 01184 16153 12899 52004 10116 20094 39958 40224 53006 60002 85030 333 10159 85358 555 0////
AAXX 01184 16158 12962 01302 10072 20011 30230 40238 52008 60002 333 10126
AAXX 01184 16206 12570 70204 10100 20046 30228 40237 51008 60002 87800 333 10130 82830 85640
AAXX 01184 16219 42965 02910 10042 20007 38158 48540 51008 6///2 333 10056 41002 92842
AAXX 01184 16252 12975 00000 10064 21038 39290 42842 52012 60002 333 10106 95000
AAXX 01184 16280 NIL
AAXX 01184 16310 12998 03403 10090 20026 30010 40236 52011 60002 333 10128 555 0////
AAXX 01184 16320 12960 03509 10102 20074 30229 40242 52017 60002 333 10120 555 0////
AAXX 01184 16325 NIL
AAXX 01184 16360 12998 03509 10078 20027 30100 40238 52021 60002 333 10118 555 0////
AAXX 01184 16400 12998 01205 10118 20089 39959 40252 53013 60002 333 10158 55300 555 0213/
AAXX 01184 16420 12997 00000 10128 20057 30180 40246 52010 60002 333 10162 555 0////
AAXX 01184 16429 12562 20000 10112 20103 30242 40253 51016 60002 82200 333 10164 82822
AAXX 01184 16470 12460 73109 10150 20120 30010 40246 51010 69902 83520 333 10150 55300 22/// 83610 86456 95060
AAXX 01184 16480 12997 02802 10118 20095 30173 40236 52013 60002 333 10162 555 0////
AAXX 01184 16522 12497 43306 10146 20123 30000 40244 52015 60002 84200 333 10152 55300 84815 555 0////
AAXX 01184 16539 NIL
AAXX 01184 16550 12798 33208 10150 20104 30049 40229 52017 60002 83030 333 10184 83356 555 0////
AAXX 01184 16045 NIL
AAXX 01184 16090 11956 23504 10028 20025 30153 40239 53016 60002 71011 80001 333 10092
AAXX 01184 16149 12970 02302 10044 20021 30218 40234 53008 60002 333 10090
AAXX 01184 16261 NIL
AAXX 01184 16453 12997 31003 10132 20106 30166 40245 52013 60002 83030 333 10160 55300 83359 555 0////
AAXX 01184 16560 12462 63007 10142 20097 30243 40249 52015 60002 86800 333 10174 82818 85620
AAXX 01181 89061 179// 00000 10045 20009 39882 49889 57001 60023 70070 333 91001 91105
AAXX 01184 78862 11576 40813 10276 20214 30150 40173 60001 70511 84200 333 10281 20219 58002 84822
AAXX 01184 14G24KT SHRA BKN015 BKN038
AAXX 01184 TAF TKPN 011000Z 0112/0212 07014KT 9999 SCT022 PROB40 TEMPO 0112/0212 07014G24KT SHRA BKN015 BKN038
AAXX 01184 TAF TQPF 011000Z 0112/0212 07014KT 9999 SCT022 PROB40 TEMPO 0112/0212 07014G24KT SHRA BKN015 BKN038
AAXX 01184 TAF TUPJ 011000Z 0112/0212 07014KT 9999 SCT022 PROB40 TEMPO 0112/0212 07014G24KT SHRA BKN015 BKN038
AAXX 01184 2400/2424 07016KT 9999 SCT020 SCT040 PROB40 TEMPO 2400/2412 07018G28KT SHRA TEMPO 2412/2424 07016G26KT SHRA
AAXX 01184 TAF TUPJ 041000Z 04012/0512 07008KT 9999 SCT016 BKN038 SCT270 TEMPO 0412/0512 SHRA BKN015 PROB40 TEMPO 0418/0512 5000 SHRA BKN014 BKN036 PROB30 0420/0512 4000 TSRA FEW012CB
AAXX 01184 918 4000 TSRA FEW012CB
AAXX 01184 N015 BKN036 PROB40 TEMPO 0704/0724 3000 +TSRA SCT011CB BKN012 BECMG 0712/0714 14008KT
AAXX 01184 21/2712 07017G28KT 5000 SHRA BKN015 BKN036 PROB TEMPO 2700/2712 4000 TSRA FEW013CB
AAXX 01184 PROB30 TEMPO 0800/0806 4000 TSRA FEW012CB PROB40 TEMPO 0800/0824 2000 +SHRA/TSRA SCT010CB BKN012 BKN250
AAXX 01184 17600 11565 73210 10157 20109 30120 40130 51019 60052 71782 879// 333 10179 20149 82825 83930 85650 96025 97037 97034
AAXX 01184 17601 11575 42811 10151 20090 30093 40124 52018 60032 72998 84963 91750 333 10173 81925 84830
AAXX 01184 17607 NIL
AAXX 01184 17609 11570 32802 10106 20087 30124 40128 51026 60022 71311 83900 333 10179 20106 81925 83650 97011 97012 97018
AAXX 01181 01062 11470 81408 11006 21016 30051 40064 57012 69912 70387 8652/ 333 11005 91113
AAXX 01181 01492 11101 82201 10012 20008 39824 49942 54001 60062 75052 886// 333 10012 91104
AAXX 01184 61976 16/// /0809 10283 20223 40123 60002 333 10321 59007 90710 91112 555 60005
AAXX 01184 61980 12560 61805 10250 20225 40127 60012 86800 333 10298 59009 82820 86650 90710 91109 924/7 555 60005
AAXX 01184 67005 14/// /3210 10287 20240 40123 60002 700// 333 10314 59009 90710 91115 555 60005
AAXX 01184 65201 31457 61904 10286 20242 30076 40126 70522 82208 333 10342 56500 57832 58011 82812 86280 91111 94919
AAXX 01183 61701 31959 40910 10260 20025 40137 70511 80002 333 10280 58002 84072
AAXX 01183 61705 32960 50905 10272 20058 4//// 82032 333 10285 5//// 82361 84071
AAXX 01183 61707 NIL
AAXX 01183 61711 32960 30902 10280 20168 4//// 80002 333 10300 5//// 83073
AAXX 01183 61712 32960 32706 10275 20010 4//// 80002 333 10305 5//// 83072
AAXX 01183 61717 32960 20506 10273 20019 4//// 82030 333 10289 5//// 82362
AAXX 01183 61720 NIL
AAXX 01183 61721 NIL
AAXX 01183 61722 NIL
AAXX 01183 61731 NIL
AAXX 01183 61733 NIL
AAXX 01184 91376 11474 60810 10270 20240 30069 40073 53003 60021 70282 84878 333 56229 70051 555 90118
AAXX 01184 48601 11559 70000 10256 20246 30104 40108 60001 70522 82531 333 82625 83364 87077
AAXX 01184 48615 11458 81005 10257 20239 30109 40115 60051 76162 84547 333 81710 83620 88272
AAXX 01184 48620 11360 70000 10239 20232 30099 40108 60001 71022 82545 333 81708 83364 86078
AAXX 01184 48647 11560 70501 10264 20246 30082 40107 60001 70522 81541 333 81626 87078
AAXX 01184 48650 11560 70704 10256 20238 30086 40105 60001 70522 82542 333 82630 86078
AAXX 01184 48657 11460 70203 10247 20238 30099 40117 69901 76062 83532 333 81712 83624 87078
AAXX 01184 48665 12564 60304 10254 20240 30105 40115 60001 82532 333 82630 86078
AAXX 01184 96413 11165 70000 10256 20244 30084 40110 60021 70162 83531 333 81702 83620 86365
AAXX 01184 96421 11468 71401 10248 20241 30070 40106 60011 70262 8357/ 333 83618 87365
AAXX 01184 96441 11460 81302 10253 20248 30070 40097 60061 76162 8452/ 333 84616 88464
AAXX 01184 96449 NIL
AAXX 01184 96465 12470 70311 10282 20243 30062 40095 60001 83832 333 82810 83364 87079
AAXX 01184 96471 12468 71301 10248 20231 30094 40097 60001 81848 333 81814 83364 87277
AAXX 01184 96481 12462 73305 10263 20232 30071 40090 60001 8487/ 333 82817 86364
AAXX 01184 96491 11463 70204 10263 20249 30083 40095 69901 76062 83848 333 81815 83850 87277
BBXX 42362 01181 99278 70907 46/// /2204 10228 20206 40254 58014 91800
BBXX 42363 01181 99282 70892 46/// /2407 10261 20183 40251 58013 91800 333 91207
BBXX 44011 01181 99411 70666 46/// /2907 10088 20053 40161 54000 91750 22200 00092 10805 20503 3//// 40804 70025 333 91208 555 11077 22081 31741 41109 61749 288072 289066 286066 285062 287067 292068
BBXX 41046 01181 99238 70683 46/// /1006 10251 20206 40211 58026 91750 22200 00254 10903 20502 300// 40903 70017 333 91207 555 11062 22065 31744 41007 61749 101058 100055 094053 100051 101051 102055 81006 91744
AAXX 01184 91574 46/// ///// 29085 39932 49938 53006
AAXX 01184 91570 NIL
AAXX 01184 91598 NIL
BBXX 46089 01181 99459 71258 46/// /1408 10098 20070 40184 55000 91750 22200 00092 11005 20704 324// 41004 70027 333 91210 555 11087 22094 31651 41311 61749 136082 138086 136088 134084 135092 135097
AAXX 01181 06206 46661 7//11 10094 20080 39936 49988 58023 8//// 333 10100 84/39 87/58 91013 91115 91212
AAXX 01181 06207 47056 8//12 10077 20072 39943 49996 58026 78181 8//// 333 10086 81/00 85/02 87/03 91015 91116 91214
AAXX 01181 06239 45664 7//10 10095 20081 39911 49971 58018 8//// 333 10099 84/47 87/50 87/58 91012 91116 91213
AAXX 01181 06252 46/// ///// 1//// 2//// 3//// 4//// 5//// 222// 0//// 10503 333 10108 910// 91115 91213
AAXX 01181 06260 17257 82007 10123 20118 30024 40026 57035 60032 76285 8//// 333 10125 85/05 87/06 88/08 91011 91111 91207
AAXX 01181 06270 17144 81905 10102 20100 30013 40013 58029 60012 78285 8//// 333 10111 84/02 86/03 86/05 91007 91111 91207
AAXX 01181 06290 17258 81907 10119 20116 30006 40046 58026 60032 76285 8//// 333 10119 82/04 85/05 87/08 91009 91109 91207
AAXX 01184 91573 06/// /0806 10238 2//// 39966 4//// 55002 60001 333 59011 60007
AAXX 01184 91577 06/// /1704 10227 20212 30043 40064 55003 60021 333 59010 60007
AAXX 01184 91579 06/// /1010 10239 20232 30063 40071 53003 60191 333 59004 60097
AAXX 01184 91582 04256 81207 10235 20232 30039 40073 53004 60402 763// 333 10241 20223 60247 90710 91119 555 60055
AAXX 01184 91583 06/// /1604 10228 20220 30056 40071 55001 60101 333 59006 60037
AAXX 01184 91587 06/// /1306 10230 20222 30035 40080 53005 60091 333 59001 60067
AAXX 01184 91590 04686 80000 10214 20209 30042 40085 53002 60152 700// 333 10221 20211 69907 90710 91103 555 69905
AAXX 01184 91592 06/// /0704 10219 20219 30003 40088 53005 60161 333 58001 60037
AAXX 01184 91596 06/// /1010 10219 20211 39980 40089 53004 60091 333 58000 60057
AAXX 01181 06201 47549 62111 10087 20077 39917 49969 58020 76150 8//// 333 10096 83/20 84/26 85/31 91013 91117 91214
AAXX 01181 06203 47060 82109 10103 20099 39946 49997 58034 76281 8//// 333 10107 81/01 83/05 85/09 91011 91115 91212
AAXX 01181 06204 47459 82110 10104 20096 39945 49995 58024 78165 8//// 333 10110 81/10 85/43 88/50 91011 91116 91213
AAXX 01181 06205 47558 82113 10087 20070 39899 49957 56021 75885 8//// 333 10095 81/28 88/47 91016 91116 91213
AAXX 01181 06208 47260 82109 10105 20091 39964 40013 58026 78100 8//// 333 10108 82/06 84/07 87/08 91012 91113 91210
AAXX 01181 06211 47659 81910 10087 20075 39925 49980 58024 78160 8//// 333 10100 84/40 86/46 88/50 91011 91112 91210
AAXX 01181 06212 47130 82209 1//// 2//// 39942 40005 57028 76381 8//// 333 1//// 81/02 83/06 85/10 91012 91115 91212
AAXX 01181 06235 17156 82205 10098 20093 30009 40009 58032 60062 76281 8//// 333 10103 82/02 86/04 87/05 91007 91114 91210
AAXX 01181 06240 17358 82009 10124 20119 30018 40013 58039 60062 76285 8//// 333 10124 84/07 87/08 88/10 91013 91113 91210
AAXX 01181 06251 17159 82006 10083 20082 30009 40010 58024 69922 75281 8//// 333 10093 83/03 86/05 87/06 91007 91111 91209
AAXX 01181 06258 46/// /2006 333 91008 91110 91209
AAXX 01181 06269 17350 82009 10123 20114 30026 40020 58037 60052 76285 8//// 333 10123 84/07 86/08 88/10 91014 91114 91209
AAXX 01181 06280 17256 81805 10111 20106 30021 40025 58028 60032 78286 8//// 333 10117 81/05 83/08 85/09 91007 91111 91208
AAXX 01181 06310 17464 81913 10116 20103 30009 40019 58036 60022 76181 8//// 333 10119 82/11 84/14 87/16 91016 91116 91213
AAXX 01181 06344 17361 81908 10124 20118 30024 40018 57038 60062 78186 8//// 333 10125 85/07 87/09 88/11 91011 91114 91209
AAXX 01181 06370 17366 82007 10128 20121 30026 40051 56026 60042 78185 8//// 333 10129 81/08 84/11 87/14 91011 91112 91207
AAXX 01181 06380 17483 82010 10124 20106 39937 40074 57022 60022 70281 8//// 333 10126 83/13 85/17 87/24 91014 91114 91210
AAXX 01181 37682 32997 33402 11076 21081 38108 48515 52002 83040 333 11007
AAXX 01181 37717 325// 62101 11020 21048 38035 48469 52001 84530 333 10010
AAXX 01181 37788 41994 23301 11032 21049 39188 40224 52002 71011 82030 333 10034
BBXX 51101 01181 99243 71621 46/// /1503 10222 20185 40177 53011 91750 22200 00238 11406 20401 335// 41406 70028 333 91205 555 11035 22036 31732 41407 61749 146035 142051 152037 161026 173035 163038
BBXX 46061 01181 99602 71468 46/// /3313 11032 49937 56047 91750 22200 00053 10802 20402 300// 40801 70012 333 91215 555 11136 22142 31736 43216 61749 326127 327128 326129 325130 326128 326128
BBXX 46083 01181 99582 71380 46/// /1121 10020 20019 49883 56056 91750 22200 00063 11311 20809 300// 41307 70057 333 91225 555 11227 22244 31739 41127 61749 109212 111219 111214 112214 113210 112214 81123 91736
AAXX 01181 37575 42998 03602 10032 21036 39579 40172 54000 333 10114
AAXX 01181 37675 42495 80000 10008 20003 39502 40173 52002 8802/ 333 10030 555 53005
AAXX 01181 37735 42997 00000 10017 21041 39772 40156 52010 333 10102
AAXX 01181 37749 42998 62702 10036 20004 30083 40202 52005 86080 333 10107 555 53003
AAXX 01181 37756 42997 00000 10011 21018 39304 40216 51004 333 10083
AAXX 01181 37864 32597 80000 10065 20065 40168 50005 885// 333 10085 88623
AAXX 01181 37985 42596 52701 10073 20067 30174 40160 54000 85540 333 10106
AAXX 01184 16280 12597 51306 10114 20106 30014 40238 52007 60002 83550 333 10118 83630 83356 555 0////
AAXX 01184 89642 40/// /0504 11024 21038 39779 49832 55006
BBXX 44008 01181 99405 70692 46/// /2605 10098 20057 40175 57018 91750 22200 00112 10603 20401 326// 40603 70017 333 91206 555 11052 22054 31650 42507 61749 256051 255048 258041 265036 271047 269046
BBXX 44097 01181 99410 70711 46/// ///// 1//// 91802 22200 00110 10702 20702 70010
AAXX 01181 06407 11265 81909 10127 20111 30019 40024 57034 60042 76165 885// 333 10127 82706 86613 91115 91210
AAXX 01181 06447 NIL
AAXX 01184 63980 41458 72110 10267 20240 40131 78182 86832 333 10306 59002 86816 87075 943// 91120
AAXX 01181 06431 NIL
AAXX 01181 06432 NIL
AAXX 01181 06449 11360 82009 10121 20105 39852 40075 57021 60022 75065 876// 333 10122 83708 86710 91114 91210
AAXX 01181 06450 17481 82007 10129 20110 30033 40049 58028 60042 76161 333 10131 82/10 86/14 88/17 91111 91207
AAXX 01181 06458 NIL
AAXX 01181 06465 NIL
AAXX 01181 06478 11470 72008 10121 20103 39866 40080 56018 60022 75065 875// 333 10122 81713 87615 91113 91209
AAXX 01181 06496 NIL
AAXX 01181 06400 11340 81910 10132 20121 30014 40025 57034 60032 76165 875// 333 10132 81707 83710 87624 91113 91210
AAXX 01181 06428 NIL
AAXX 01181 06451 11482 72009 10126 20107 39990 40056 58029 69972 76165 87/// 333 10127 84614 86626 91115 91210
AAXX 01181 06456 11365 82109 10116 20103 39726 40084 58018 60022 75052 875// 333 10117 82708 84710 87613 91115 91210
AAXX 01181 06476 17132 82206 10093 20088 39451 40103 58010 69952 76131 333 10094 88/02 91115 91207
AAXX 01181 06479 17478 /2107 10124 20111 39990 40068 56024 60032 75265 333 10126 81/13 83/19 85/27 91111 91207
AAXX 01181 06490 17260 82006 10100 20088 39537 40097 58013 60032 70051 333 10102 86/05 88/07 91112 91207
AAXX 01181 06590 11470 72107 10109 20100 39680 40125 57007 69972 70165 875// 333 10109 87612 91112 91207
AAXX 01184 40250 32960 02306 10080 21023 39370 40174 52013 333 10142
AAXX 01184 40260 32960 02008 10084 21011 39383 40180 52017 333 10140
AAXX 01184 40265 32560 60000 10070 20017 39387 40206 52012 86800 333 10135 84825 83630
AAXX 01184 40296 32660 20000 10180 20071 40179 52012 82100 333 10234 82830
BBXX DBBH 01181 99378 10155 41/98 /3004 10145 20048 40257 52021 70200 8/000 22271 04158
AAXX 01181 03951 17858 /2612 10074 20025 39986 40012 52012 60032 72285 81/// 333 10108 81/56
AAXX 01181 03953 11575 62610 10069 21010 39973 40009 52009 60022 70282 868// 333 10094 81828 86642 92438
AAXX 01181 03955 11570 12504 10033 20012 39812 40010 52017 60022 72581 81900 333 10094 81928 92600
AAXX 01181 03956 17981 /2505 10049 20019 39921 49998 52019 60012 7035/ 80/// 333 10100 82/70
AAXX 01181 03962 11475 12304 10049 20029 39963 49987 51012 60022 70181 81300 333 10102 81918
AAXX 01181 03963 17565 /2616 10061 20003 39930 49958 52011 60012 72381 84/// 333 10086 84/29 85/75 90710 91122
AAXX 01181 03966 17573 /2406 10037 20014 39890 49983 52014 60032 7818/ 85/// 333 10076 81/25 83/42 85/50
AAXX 01181 03967 NIL
AAXX 01181 03969 11475 32607 10048 20024 39872 49976 53018 69932 72581 83800 333 10085 81818 83623
AAXX 01181 03973 11575 32506 10014 20003 39698 49954 52009 60072 72681 83300 333 10060 83920
AAXX 01181 03976 NIL
AAXX 01181 03980 17456 /2513 10034 20019 39884 49909 53006 60052 7818/ 85/// 333 10070 82/18 84/25 85/46 90710 91121
AAXX 01181 01037 16/// /1210 11012 21068 39990 49996 57002 60002 333 11008 91122
AAXX 01181 01046 16/// /1419 11013 21073 39982 49989 58006 6//// 333 11006 91127
AAXX 01181 01092 46/// /1511 11005 21036 333 11001 91120
AAXX 01181 01245 11680 63101 10011 21053 39195 49890 54000 69932 70122 84510 333 10018 91111
AAXX 01181 01329 11230 80205 10030 20021 39844 49904 58003 60212 76366 887// 333 10036 91108
AAXX 01181 01337 16/// /0501 10009 21004 39839 49905 50001 60112 333 10013 91105
AAXX 01181 01389 11710 80000 11021 21026 39638 49950 57004 60082 77172 8272/ 333 11015 91104
AAXX 01181 01436 11461 72307 10078 20059 69982 70262 875// 333 10085 91116
AAXX 01181 01156 16/// /1812 10008 21019 39898 49908 53004 69922 333 10032 91115
AAXX 01181 01265 16/// /2002 11020 21041 39346 49926 57002 60022 333 11014 91111
AAXX 01181 01273 16/// /1602 10020 21041 39705 49899 52002 69932 333 10032 91114
AAXX 01181 01375 16/// /1705 11060 21065 6//// 333 11057 91110
AAXX 01181 01469 16/// /0000 10001 21015 39769 49941 57001 60012 333 10008 91104
AAXX 01181 01023 16/// /1209 10003 21084 39862 49957 56006 6//// 333 10004 91115
AAXX 01181 01228 46/// /1405 10054 20022 39858 49865 52003 333 10054 91108
AAXX 01181 01340 16/// /0000 11018 21027 39050 49916 50005 60012 333 10023 91110
AAXX 01181 01425 16/// /1803 10059 20041 39856 49935 53001 60082 333 10072 91108
AAXX 01184 91376 11474 60810 10270 20240 30069 40073 53003 60021 70282 84878 333 56229 70051 555 90118
AAXX 01181 01135 16/// /1804 11007 21044 39777 49929 57011 60022 333 11007 4/031 91109
AAXX 01181 01192 16/// /1107 10013 21086 60002 333 10029 4/016 91117
AAXX 01181 01257 11970 71301 10015 21026 39731 49891 54001 60042 70122 80007 333 10019 91104
AAXX 01181 01370 16/// /0201 11054 21059 38834 40015 57003 60072 333 11047 4/039 91104
AAXX 01181 01419 16/// /2105 10046 20034 60062 333 10058 91111
BBXX 51000 01181 99235 71541 46/// /0607 10216 40183 53014 91750 22200 00229 10904 20402 308// 40903 70018 333 91208 555 11072 22075 31655 40708 61749 063066 059067 061064 061064 058065 060069
AAXX 01181 33135 12997 23002 11038 21060 30004 40190 52008 69992 82040 333 10002
AAXX 01181 33317 NIL
AAXX 01181 33345 32998 43303 11005 21076 39991 40202 52010 84030 333 10019
AAXX 01181 33393 12960 51903 11013 21039 39798 40202 58002 69902 85030 333 10030
AAXX 01181 33506 11597 83003 11007 21017 39964 40165 52007 69902 78582 889// 333 10010
AAXX 01181 33587 32966 00000 11020 21038 39944 40217 52011 333 10017
AAXX 01181 33631 11295 81305 10006 20001 30090 40238 53006 69992 77172 8772/ 333 10013 87704
AAXX 01181 33663 NIL
AAXX 01181 33658 12997 02101 11010 21052 39914 40224 52006 69902 333 10046
AAXX 01181 33711 32997 63104 11002 21047 39982 40198 52013 86030 333 10014
AAXX 01181 33791 NIL
AAXX 01181 33837 32967 02801 10006 21020 30167 40220 52017 333 10057
AAXX 01181 33924 NIL
AAXX 01181 33946 11908 02402 11010 21014 39978 40206 52015 60032 74671 333 10033
AAXX 01181 34300 11497 83102 10003 21010 39956 40151 51001 69902 70272 885// 333 10006 85710
AAXX 01181 34504 12997 03205 11013 21021 39983 40167 52008 60022 333 10005
AAXX 01181 34519 11215 83207 11007 21014 39849 40130 52002 60152 78687 889// 333 10010 87704
AAXX 01181 34601 11560 53305 11004 21007 30031 40171 52009 60052 70182 85500 333 10002 85620
BBXX 44100 01181 99363 70756 46/// ///// 1//// 91752 22200 00124 10901 20901 70006
BBXX 41110 01181 99341 70777 46/// ///// 1//// 91751 22200 00137 10501 20501 70004
BBXX 42099 01181 99273 70842 46/// ///// 1//// 91757 22200 00225 10601 20601 70003
BBXX 41113 01181 99284 70805 46/// ///// 1//// 91751 22200 00218 11001 21001 70003
BBXX 41112 01181 99307 70813 46/// ///// 1//// 91751 22200 00170 10901 20901 70003
AAXX 01184 89532 42980 10304 11014 21062 39803 49830 56013 80002
OOXX AAUNI 01184 99798 50833 56093 07671 46/// /0608 11100 21126 39044 49944 5//// 91800
BBXX 44099 01181 99369 70757 46/// ///// 1//// 91752 22200 00106 10701 20701 70006
BBXX 51202 01181 99214 71577 46/// ///// 1//// 91740 22200 00237 11003 21002 308// 41101 70013
BBXX 46232 01181 99325 71174 46/// ///// 1//// 91738 22200 00146 11303 21002 327// 41303 70016
BBXX 46247 01181 99378 71228 46/// ///// 1//// 91751 22200 00113 11304 21003 328// 41303 70019
BBXX 46243 01181 99462 71241 46/// ///// 1//// 91759 22200 00089 11104 21003 324// 41102 70019
BBXX 46236 01181 99368 71219 46/// ///// 1//// 91750 22200 00120 11303 21002 328// 41303 70017
BBXX 46229 01181 99438 71246 46/// ///// 1//// 91751 22200 00098 11004 21003 326// 41102 70019
BBXX 46225 01181 99329 71174 46/// ///// 1//// 91744 22200 00149 11302 21001 327// 41302 70010
BBXX 46213 01181 99403 71247 46/// ///// 1//// 91754 22200 00108 11104 20903 329// 41103 70019
BBXX 46215 01181 99352 71209 46/// ///// 1//// 91738 22200 00126 11304 21002 327// 41303 70018
BBXX 46219 01181 99332 71199 46/// ///// 1//// 91758 22200 00137 11304 21002 329// 41304 70022
BBXX 46224 01181 99332 71175 46/// ///// 1//// 91736 22200 00146 11302 21001 321// 41302 70009
BBXX 46211 01181 99469 71242 46/// ///// 1//// 91736 22200 00084 11003 21003 325// 41102 70017
BBXX 46214 01181 99379 71235 46/// ///// 1//// 91750 22200 00119 11304 21003 328// 41303 70022
AAXX 01184 87692 32960 00716 10266 20199 30138 40163 57015 555 10162
BBXX 46238 01181 99334 71195 46/// ///// 1//// 91750 22200 00140 11503 21002 328// 41503 70017
BBXX 46239 01181 99363 71221 46/// ///// 1//// 91751 22200 00118 11205 21002 330// 41204 70023
AAXX 01181 11423 01/02 92607 10066 20065 39285 42779 53005 60022 75865 333 10066 44005 69925 89/01 91012 91114
AAXX 01181 01205 46/// /1708 10065 20033 39812 49856 50005 333 10083 91120
AAXX 01181 01115 11470 81416 10020 21021 39875 49895 55001 69982 70272 885// 333 10025 91121
AAXX 01181 01218 11787 61405 10063 21037 39863 49884 50004 60002 70122 82280 333 10068 91116
AAXX 01181 01281 16/// ///// 1//// 2//// 39756 49931 57002 60022
AAXX 01181 03976 11578 52510 10054 20005 39922 49934 52006 60042 72781 85900 333 10081 82920 81820 83640 96489 96487 90710 91125
AAXX 01181 76040 32960 03303 10186 20066 30235 40249 52089 91740 333 10190 20059 30/// 58066 98660
AAXX 01181 76056 06/// /3209 10228 21044 30202 40225 50013 60002 7//// 8//// 91750 333 0//// 10232 20139 30/// 4//// 54/// 56/// 57/// 58041 60007 8//// 8//// 8//// 9//// 9//// 9//// 44
AAXX 01181 76122 32980 10902 10146 21016 38642 40311 52005 80004 91752 333 10152 21003 30/// 56009 58080
AAXX 01181 76123 06/// /0806 10156 21045 3//// 4//// 5//// 60002 7//// 8//// 91750 333 0//// 10156 21011 56/// 57/// 5//// 60007 8//// 8//// 8//// 8//// 9//// 9//// 9//// 444 ///// 555
AAXX 01181 76225 32960 00201 10142 21044 38744 40254 50006 91745 333 10142 20017 30/// 58090
AAXX 01181 76256 32980 00000 10200 20084 30197 40211 5//// 91745 333 10208 20074 30/// 58049
AAXX 01181 76305 32970 00601 10238 20066 30197 40205 52014 91740 333 10242 20120 30/// 58037
AAXX 01181 76323 32970 00000 10184 20042 38353 40322 52038 91750 333 10184 20020 30/// 58062
AAXX 01181 76342 31762 41202 10168 21003 39579 40298 57060 70321 84030 91750 333 10172 20110 30/// 56010 58077 84357
AAXX 01181 76373 32980 00000 10167 21035 38292 40257 52076 91750 333 10180 21032 30/// 59054
AAXX 01181 76382 32980 03402 10195 20049 39002 40281 52012 91747 333 10200 20076 30/// 58070
AAXX 01181 76390 31866 42106 10114 21006 38327 40289 52015 70544 81085 91730 333 10124 20060 30/// 56074 58068 81356 83070
AAXX 01181 76402 32958 03602 10220 20087 30135 40193 57003 70544 91745 333 10226 20074 30/// 58024
AAXX 01181 76458 32970 02703 10226 20155 30179 40183 57003 91738 333 10248 20112 30/// 58037
AAXX 01181 76490 06/// /0107 10247 20098 39874 40259 50017 60002 7//// 8//// 91750 333 0//// 10257 20164 30/// 54/// 56/// 57/// 58087 60007 8//// 8//// 8//// 8//// 9//// 9//// 9//// 44
AAXX 01181 76491 32560 43606 10240 20124 39890 40284 52020 84400 91750 333 10250 20108 30/// 56800 58084 84630
AAXX 01181 76499 32560 73402 10259 20194 30233 40256 52015 85430 91740 333 10260 20158 30/// 5689/ 58079 85631 82357
AAXX 01181 76525 32980 60505 10126 20035 37529 40202 52007 80006 91740 333 10126 20108 30/// 56//5 58040 86080
AAXX 01181 76538 06/// /0603 10213 20087 38223 40166 50003 60002 7//// 8//// 91750 333 0//// 10213 20057 30/// 4//// 54/// 56/// 57/// 58043 60007 8//// 8//// 8//// 9//// 9//// 9//// 44
AAXX 01181 76543 31570 73604 10247 20209 30235 40268 51005 70544 878// 91745 333 10247 20179 30/// 561// 58061 81834 86640
AAXX 01181 76547 06/// /0603 10258 20221 30236 40248 50009 60002 7//// 8//// 91750 333 0//// 10259 20200 56/// 57/// 58060 60007 8//// 8//// 8//// 8//// 9//// 9//// 9//// 444 ///// 555
AAXX 01181 76548 31468 70201 10248 20217 30249 40259 51015 70542 874// 91740 333 10252 20200 30/// 56100 58057 87611
AAXX 01181 76556 32970 20000 10248 20144 39153 40181 51001 80005 91735 333 10255 20130 30/// 56003 58028 82070
AAXX 01181 76577 32570 83604 10193 20139 38094 40206 52004 81407 91740 333 10197 20110 30/// 56505 58034 81622 88277 99021
AAXX 01181 76578 06/// /0404 10215 20031 38088 40143 58002 60002 7//// 8//// 91750 333 0//// 10215 20113 30/// 4//// 54/// 56/// 57/// 58032 60007 8//// 8//// 8//// 9//// 9//// 9//// 44
AAXX 01181 76586 06/// /3502 10229 20187 30092 40248 50016 60002 7//// 8//// 91750 333 0//// 10229 20158 30/// 4//// 54/// 56/// 57/// 58061 60007 8//// 8//// 8//// 9//// 9//// 9//// 44
AAXX 01181 76592 06/// /0513 10278 21073 30217 40217 58008 60002 7//// 8//// 91750 333 0//// 10282 20210 30/// 4//// 54/// 56/// 57/// 58034 60007 8//// 8//// 8//// 9//// 9//// 9//// 44
AAXX 01181 76593 32370 40505 10278 20257 30216 40218 58006 82260 91750 333 10282 20210 30/// 5611/ 58031 82820 82330 91007 91505
AAXX 01181 76625 32960 41103 10216 20069 38190 40174 52024 84070 91750 333 10218 20130 30/// 56050 58019 84360
AAXX 01181 76641 06/// /1902 10276 20223 30231 40243 50009 60002 7//// 8//// 91750 333 0//// 10276 20201 30/// 4//// 54/// 56/// 57/// 58051 60007 8//// 8//// 8//// 8//// 9//// 9//// 9/
AAXX 01181 76644 32460 41204 10296 20202 30182 40196 57029 84200 91755 333 10305 20208 30/// 562// 59020 84820
AAXX 01181 76645 06/// /0604 10290 20198 30202 40215 58013 60002 7//// 8//// 91750 333 0//// 10310 20213 30/// 4//// 54/// 56/// 57/// 58030 60007 8//// 8//// 8//// 9//// 9//// 9//// 44
AAXX 01181 76654 31956 02702 10284 20214 30166 40170 57012 70544 91750 333 10284 20222 30/// 58023
AAXX 01181 76659 06/// /2502 10310 20123 3//// 4//// 5//// 60002 7//// 8//// 91750 333 0//// 10312 20168 30/// 4//// 54/// 56/// 57/// 5//// 60007 8//// 8//// 8//// 9//// 9//// 9//// 44
AAXX 01181 76665 31562 31702 10215 20110 38161 40205 57006 70300 81120 91750 333 10226 20078 30/// 56550 57853 58032 81824
AAXX 01181 76681 31940 13202 10190 20108 37821 40222 57010 70510 80001 91745 333 10190 20030 30/// 58023 81077
AAXX 01181 76683 32978 03602 10215 21019 37857 40225 57008 91750 333 10218 20050 30/// 58019 98528
AAXX 01181 76684 02/// ///// 1//// 2//// 3//// 4//// 5//// 6//// 7//// 8//// 9//// 333 0//// 1//// 2//// 30/// 4//// 54/// 56/// 57/// 5//// 6//// 8//// 8//// 8//// 9//// 9//// 9//// 44
AAXX 01181 76685 31950 23601 10218 21004 37902 40197 57004 70544 80001 91750 333 10220 20065 30/// 56009 58017 82077
AAXX 01181 76687 31666 50701 10214 20125 38744 40240 50003 70211 85400 91745 333 10218 20118 30/// 563// 58030 83620 82823
AAXX 01181 76692 31556 73603 10260 20221 30209 40229 52008 70242 8423/ 91745 333 10261 20212 30/// 5611/ 58036 81820 83630 83360
AAXX 01181 76693 06/// /3603 10259 20222 30207 40226 50003 60002 7//// 8//// 91750 333 0//// 10261 20212 30/// 4//// 56/// 57/// 58036 60007 8//// 8//// 8//// 8//// 9//// 9//// 9//// 44
AAXX 01181 76695 32560 20403 10286 20219 30192 40197 57009 82200 91750 333 10288 20204 30/// 562// 58027 82823
AAXX 01181 76698 32560 40403 10302 20217 30188 40199 57017 84200 91750 333 10312 20204 30/// 56200 58019 84820
AAXX 01181 76727 06/// /2101 10237 20045 38430 40118 58007 60002 7//// 8//// 91750 333 0//// 10247 20128 30/// 4//// 54/// 56/// 57/// 58019 60007 8//// 8//// 8//// 9//// 9//// 9//// 44
AAXX 01181 76737 31480 50201 10228 20125 38834 40226 50001 70322 82237 91735 333 10233 20122 30/// 56229 58027 82817 91105 91511
AAXX 01181 76738 02/// ///// 1//// 2//// 3//// 4//// 5//// 6//// 7//// 8//// 333 1//// 2//// 30/// 56/// 57/// 5//// 6//// 8//// 8//// 8//// 8//// 9//// 9//// 9//// 444 ///// 555 3////
AAXX 01181 76750 11560 40603 10301 20214 30182 40192 57014 69931 70020 83204 91750 333 10313 20204 30/// 56106 58020 83820
AAXX 01181 76751 06/// /0604 10301 20219 30182 40192 58014 69942 7//// 8//// 91750 333 0//// 10303 20208 30/// 4//// 54/// 56/// 57/// 58019 60007 8//// 8//// 8//// 9//// 9//// 9//// 44
AAXX 01181 76762 31904 23602 10276 20224 38787 40167 58016 70400 80004 91746 333 10278 20138 30/// 56006 58020 82060 91204
AAXX 01181 76772 06/// /0202 10230 20075 38462 40148 58012 60002 7//// 8//// 91750 333 0//// 10233 20052 30/// 4//// 56/// 57/// 58024 60007 8//// 8//// 8//// 9//// 9//// 9//// 444 ////
AAXX 01181 76773 31566 43601 10232 20133 38458 40191 57012 70544 81408 91748 333 10237 20042 30/// 56909 58018 81620 83268
AAXX 01181 76776 06/// /2601 10233 20074 38540 40140 58018 60002 7//// 8//// 91750 333 0//// 10239 20077 30/// 4//// 56/// 57/// 58020 60007 8//// 8//// 8//// 9//// 9//// 9//// 444 ////
AAXX 01181 76806 06/// /2403 10301 20228 30146 40150 58015 60002 7//// 8//// 91750 333 10310 20210 30/// 56/// 57/// 58007 60007 8//// 8//// 8//// 8//// 9//// 9//// 9//// 555 30273
AAXX 01181 76843 32665 30801 10276 20172 39525 40168 50007 82106 91745 333 10286 20186 30/// 568// 58015 82820
AAXX 01181 76845 32460 51302 10174 20125 37983 40206 58002 85600 91747 333 10184 20108 30/// 56200 58024 85717
AAXX 01181 76902 06/// /1601 10331 20199 30002 40137 58010 60002 7//// 8//// 91750 333 0//// 10333 20215 30/// 4//// 54/// 56/// 57/// 58007 60007 8//// 8//// 8//// 8//// 9//// 9//// 9/
AAXX 01181 76903 31681 61301 10320 20199 30002 40132 57011 70122 81101 91755 333 10332 20222 30/// 56109 58006 81833 85074
AAXX 01181 76160 32962 00501 10212 20026 39960 40211 52011 91730 333 10212 20070 30/// 58040
AAXX 01181 76243 32974 03107 10148 20049 30058 40360 52025 91730 333 10164 20092 30/// 58172
AAXX 01181 76253 32982 00502 10240 20084 30119 40209 57002 91743 333 10245 20120 30/// 58025 92002
AAXX 01181 76311 32980 00000 10244 20091 39911 40195 52008 91740 333 10254 20086 30/// 58033
AAXX 01181 76405 32980 13303 10226 20142 30178 40200 50012 80001 91750 333 10226 20090 30/// 56005 58034 81070
AAXX 01181 76640 31458 40903 10252 20226 30247 40259 52016 70540 8223/ 91740 333 10268 20196 30/// 5623/ 58045 82811
AAXX 01184 85032 11358 73610 10245 20238 39938 40099 57032 60261 71592 85904 333 56806 58018 82608 84615 81920 87070
AAXX 01184 85043 31450 63606 10264 20245 39940 40101 57013 71622 86904 333 56800 58020 85817 81920 86070
AAXX 01184 85104 11440 82715 10250 20236 39932 40092 57028 60021 71682 8692/ 333 56770 58018 85615 81923 88457
AAXX 01184 85109 11430 83608 10246 20243 39940 40101 57020 60091 79522 8692/ 333 56889 58020 85615 81920 88457
AAXX 01184 85114 11458 83005 10262 20246 39928 40091 57032 60031 71582 84907 333 56706 58010 83817 81920 88270
AAXX 01184 85116 NIL
AAXX 01184 85123 11357 71407 10251 20237 39933 40100 57018 60061 71562 85958 333 56330 58030 84608 81923 85357 87270
AAXX 01184 85139 12465 72704 10270 20243 39861 40052 57034 60231 83538 333 56666 58009 83615 84358 87270
AAXX 01184 85153 11458 80906 10242 20236 39910 40094 57030 60451 71566 8792/ 333 56339 58010 86612 81920 88457
AAXX 01184 85154 11460 80000 10242 20234 39926 40104 57034 60281 71566 8457/ 333 56379 58016 81610 83627 88357
AAXX 01181 76040 32960 03303 10186 20066 30235 40249 52089 91740 33310190 20059 30/// 58066 98660
AAXX 01181 76056 06/// /3209 10228 21044 30202 40225 50013 60002 7////8//// 91750 333 0//// 10232 20139 30/// 4//// 54/// 56///57/// 58041 60007 8//// 8//// 8//// 9//// 9//// 9//// 44
AAXX 01181 76122 32980 10902 10146 21016 38642 40311 52005 80004 91752333 10152 21003 30/// 56009 58080
AAXX 01181 76123 06/// /0806 10156 21045 3//// 4//// 5//// 60002 7////8//// 91750 333 0//// 10156 21011 56/// 57/// 5//// 600078//// 8//// 8//// 8//// 9//// 9//// 9//// 444 ///// 555
AAXX 01181 76225 32960 00201 10142 21044 38744 40254 50006 91745 33310142 20017 30/// 58090
AAXX 01181 76256 32980 00000 10200 20084 30197 40211 5//// 91745 33310208 20074 30/// 58049
AAXX 01181 76305 32970 00601 10238 20066 30197 40205 52014 91740 33310242 20120 30/// 58037
AAXX 01181 76323 32970 00000 10184 20042 38353 40322 52038 91750 33310184 20020 30/// 58062
AAXX 01181 76342 31762 41202 10168 21003 39579 40298 57060 70321 8403091750 333 10172 20110 30/// 56010 58077 84357
AAXX 01181 76373 32980 00000 10167 21035 38292 40257 52076 91750 33310180 21032 30/// 59054
AAXX 01181 76382 32980 03402 10195 20049 39002 40281 52012 91747 33310200 20076 30/// 58070
AAXX 01181 76390 31866 42106 10114 21006 38327 40289 52015 70544 8108591730 333 10124 20060 30/// 56074 58068 81356 83070
AAXX 01181 76402 32958 03602 10220 20087 30135 40193 57003 70544 91745333 10226 20074 30/// 58024
AAXX 01181 76458 32970 02703 10226 20155 30179 40183 57003 91738 33310248 20112 30/// 58037
AAXX 01181 76490 06/// /0107 10247 20098 39874 40259 50017 60002 7////8//// 91750 333 0//// 10257 20164 30/// 54/// 56/// 57///58087 60007 8//// 8//// 8//// 8//// 9//// 9//// 9//// 44
AAXX 01181 76491 32560 43606 10240 20124 39890 40284 52020 84400 91750333 10250 20108 30/// 56800 58084 84630
AAXX 01181 76499 32560 73402 10259 20194 30233 40256 52015 85430 91740333 10260 20158 30/// 5689/ 58079 85631 82357
AAXX 01181 76525 32980 60505 10126 20035 37529 40202 52007 80006 91740333 10126 20108 30/// 56//5 58040 86080
AAXX 01181 76538 06/// /0603 10213 20087 38223 40166 50003 60002 7////8//// 91750 333 0//// 10213 20057 30/// 4//// 54/// 56///57/// 58043 60007 8//// 8//// 8//// 9//// 9//// 9//// 44
AAXX 01181 76543 31570 73604 10247 20209 30235 40268 51005 70544 878//91745 333 10247 20179 30/// 561// 58061 81834 86640
AAXX 01181 76547 06/// /0603 10258 20221 30236 40248 50009 60002 7////8//// 91750 333 0//// 10259 20200 56/// 57/// 58060 600078//// 8//// 8//// 8//// 9//// 9//// 9//// 444 ///// 555
AAXX 01181 76548 31468 70201 10248 20217 30249 40259 51015 70542 874//91740 333 10252 20200 30/// 56100 58057 87611
AAXX 01181 76556 32970 20000 10248 20144 39153 40181 51001 80005 91735333 10255 20130 30/// 56003 58028 82070
AAXX 01181 76577 32570 83604 10193 20139 38094 40206 52004 81407 91740333 10197 20110 30/// 56505 58034 81622 88277 99021
AAXX 01181 76578 06/// /0404 10215 20031 38088 40143 58002 60002 7////8//// 91750 333 0//// 10215 20113 30/// 4//// 54/// 56///57/// 58032 60007 8//// 8//// 8//// 9//// 9//// 9//// 44
AAXX 01181 76586 06/// /3502 10229 20187 30092 40248 50016 60002 7////8//// 91750 333 0//// 10229 20158 30/// 4//// 54/// 56///57/// 58061 60007 8//// 8//// 8//// 9//// 9//// 9//// 44
AAXX 01181 76592 06/// /0513 10278 21073 30217 40217 58008 60002 7////8//// 91750 333 0//// 10282 20210 30/// 4//// 54/// 56///57/// 58034 60007 8//// 8//// 8//// 9//// 9//// 9//// 44
AAXX 01181 76593 32370 40505 10278 20257 30216 40218 58006 82260 91750333 10282 20210 30/// 5611/ 58031 82820 82330 91007 91505
AAXX 01181 76625 32960 41103 10216 20069 38190 40174 52024 84070 91750333 10218 20130 30/// 56050 58019 84360
AAXX 01181 76641 06/// /1902 10276 20223 30231 40243 50009 60002 7////8//// 91750 333 0//// 10276 20201 30/// 4//// 54/// 56///57/// 58051 60007 8//// 8//// 8//// 8//// 9//// 9//// 9/
AAXX 01181 76644 32460 41204 10296 20202 30182 40196 57029 84200 91755333 10305 20208 30/// 562// 59020 84820
AAXX 01181 76645 06/// /0604 10290 20198 30202 40215 58013 60002 7////8//// 91750 333 0//// 10310 20213 30/// 4//// 54/// 56///57/// 58030 60007 8//// 8//// 8//// 9//// 9//// 9//// 44
AAXX 01181 76654 31956 02702 10284 20214 30166 40170 57012 70544 91750333 10284 20222 30/// 58023
AAXX 01181 76659 06/// /2502 10310 20123 3//// 4//// 5//// 60002 7////8//// 91750 333 0//// 10312 20168 30/// 4//// 54/// 56///57/// 5//// 60007 8//// 8//// 8//// 9//// 9//// 9//// 44
AAXX 01181 76665 31562 31702 10215 20110 38161 40205 57006 70300 8112091750 333 10226 20078 30/// 56550 57853 58032 81824
AAXX 01181 76681 31940 13202 10190 20108 37821 40222 57010 70510 8000191745 333 10190 20030 30/// 58023 81077
AAXX 01181 76683 32978 03602 10215 21019 37857 40225 57008 91750 33310218 20050 30/// 58019 98528
AAXX 01181 76684 02/// ///// 1//// 2//// 3//// 4//// 5//// 6//// 7////8//// 9//// 333 0//// 1//// 2//// 30/// 4//// 54/// 56///57/// 5//// 6//// 8//// 8//// 8//// 9//// 9//// 9//// 44
AAXX 01181 76685 31950 23601 10218 21004 37902 40197 57004 70544 8000191750 333 10220 20065 30/// 56009 58017 82077
AAXX 01181 76687 31666 50701 10214 20125 38744 40240 50003 70211 8540091745 333 10218 20118 30/// 563// 58030 83620 82823
AAXX 01181 76692 31556 73603 10260 20221 30209 40229 52008 70242 8423/91745 333 10261 20212 30/// 5611/ 58036 81820 83630 83360
AAXX 01181 76693 06/// /3603 10259 20222 30207 40226 50003 60002 7////8//// 91750 333 0//// 10261 20212 30/// 4//// 56/// 57///58036 60007 8//// 8//// 8//// 8//// 9//// 9//// 9//// 44
AAXX 01181 76695 32560 20403 10286 20219 30192 40197 57009 82200 91750333 10288 20204 30/// 562// 58027 82823
AAXX 01181 76698 32560 40403 10302 20217 30188 40199 57017 84200 91750333 10312 20204 30/// 56200 58019 84820
AAXX 01181 76727 06/// /2101 10237 20045 38430 40118 58007 60002 7////8//// 91750 333 0//// 10247 20128 30/// 4//// 54/// 56///57/// 58019 60007 8//// 8//// 8//// 9//// 9//// 9//// 44
AAXX 01181 76737 31480 50201 10228 20125 38834 40226 50001 70322 8223791735 333 10233 20122 30/// 56229 58027 82817 91105 91511
AAXX 01181 76738 02/// ///// 1//// 2//// 3//// 4//// 5//// 6//// 7////8//// 333 1//// 2//// 30/// 56/// 57/// 5//// 6//// 8////8//// 8//// 8//// 9//// 9//// 9//// 444 ///// 555 3////
AAXX 01181 76750 11560 40603 10301 20214 30182 40192 57014 69931 7002083204 91750 333 10313 20204 30/// 56106 58020 83820
AAXX 01181 76751 06/// /0604 10301 20219 30182 40192 58014 69942 7////8//// 91750 333 0//// 10303 20208 30/// 4//// 54/// 56///57/// 58019 60007 8//// 8//// 8//// 9//// 9//// 9//// 44
AAXX 01181 76762 31904 23602 10276 20224 38787 40167 58016 70400 8000491746 333 10278 20138 30/// 56006 58020 82060 91204
AAXX 01181 76772 06/// /0202 10230 20075 38462 40148 58012 60002 7////8//// 91750 333 0//// 10233 20052 30/// 4//// 56/// 57///58024 60007 8//// 8//// 8//// 9//// 9//// 9//// 444 ////
AAXX 01181 76773 31566 43601 10232 20133 38458 40191 57012 70544 8140891748 333 10237 20042 30/// 56909 58018 81620 83268
AAXX 01181 76776 06/// /2601 10233 20074 38540 40140 58018 60002 7////8//// 91750 333 0//// 10239 20077 30/// 4//// 56/// 57///58020 60007 8//// 8//// 8//// 9//// 9//// 9//// 444 ////
AAXX 01181 76806 06/// /2403 10301 20228 30146 40150 58015 60002 7////8//// 91750 333 10310 20210 30/// 56/// 57/// 58007 600078//// 8//// 8//// 8//// 9//// 9//// 9//// 555 30273
AAXX 01181 76843 32665 30801 10276 20172 39525 40168 50007 82106 91745333 10286 20186 30/// 568// 58015 82820
AAXX 01181 76845 32460 51302 10174 20125 37983 40206 58002 85600 91747333 10184 20108 30/// 56200 58024 85717
AAXX 01181 76902 06/// /1601 10331 20199 30002 40137 58010 60002 7////8//// 91750 333 0//// 10333 20215 30/// 4//// 54/// 56///57/// 58007 60007 8//// 8//// 8//// 8//// 9//// 9//// 9/
AAXX 01181 76903 31681 61301 10320 20199 30002 40132 57011 70122 8110191755 333 10332 20222 30/// 56109 58006 81833 85074
AAXX 01181 76160 32962 00501 10212 20026 39960 40211 52011 91730 33310212 20070 30/// 58040
AAXX 01181 76243 32974 03107 10148 20049 30058 40360 52025 91730 33310164 20092 30/// 58172
AAXX 01181 76253 32982 00502 10240 20084 30119 40209 57002 91743 33310245 20120 30/// 58025 92002
AAXX 01181 76311 32980 00000 10244 20091 39911 40195 52008 91740 33310254 20086 30/// 58033
AAXX 01181 76405 32980 13303 10226 20142 30178 40200 50012 80001 91750333 10226 20090 30/// 56005 58034 81070
AAXX 01181 76640 31458 40903 10252 20226 30247 40259 52016 70540 8223/91740 333 10268 20196 30/// 5623/ 58045 82811
AAXX 01181 76040 32960 03303 10186 20066 30235 40249 52089 91740 333 10190 20059 30/// 58066 98660
AAXX 01181 76056 06/// /3209 10228 21044 30202 40225 50013 60002 7//// 8//// 91750 333 0//// 10232 20139 30/// 4//// 54/// 56/// 57/// 58041 60007 8//// 8//// 8//// 9//// 9//// 9//// 44
AAXX 01181 76122 32980 10902 10146 21016 38642 40311 52005 80004 91752 333 10152 21003 30/// 56009 58080
AAXX 01181 76123 06/// /0806 10156 21045 3//// 4//// 5//// 60002 7//// 8//// 91750 333 0//// 10156 21011 56/// 57/// 5//// 60007 8//// 8//// 8//// 8//// 9//// 9//// 9//// 444 ///// 555
AAXX 01181 76225 32960 00201 10142 21044 38744 40254 50006 91745 333 10142 20017 30/// 58090
AAXX 01181 76256 32980 00000 10200 20084 30197 40211 5//// 91745 333 10208 20074 30/// 58049
AAXX 01181 76305 32970 00601 10238 20066 30197 40205 52014 91740 333 10242 20120 30/// 58037
AAXX 01181 76323 32970 00000 10184 20042 38353 40322 52038 91750 333 10184 20020 30/// 58062
AAXX 01181 76342 31762 41202 10168 21003 39579 40298 57060 70321 84030 91750 333 10172 20110 30/// 56010 58077 84357
AAXX 01181 76373 32980 00000 10167 21035 38292 40257 52076 91750 333 10180 21032 30/// 59054
AAXX 01181 76382 32980 03402 10195 20049 39002 40281 52012 91747 333 10200 20076 30/// 58070
AAXX 01181 76390 31866 42106 10114 21006 38327 40289 52015 70544 81085 91730 333 10124 20060 30/// 56074 58068 81356 83070
AAXX 01181 76402 32958 03602 10220 20087 30135 40193 57003 70544 91745 333 10226 20074 30/// 58024
AAXX 01181 76458 32970 02703 10226 20155 30179 40183 57003 91738 333 10248 20112 30/// 58037
AAXX 01181 76490 06/// /0107 10247 20098 39874 40259 50017 60002 7//// 8//// 91750 333 0//// 10257 20164 30/// 54/// 56/// 57/// 58087 60007 8//// 8//// 8//// 8//// 9//// 9//// 9//// 44
AAXX 01181 76491 32560 43606 10240 20124 39890 40284 52020 84400 91750 333 10250 20108 30/// 56800 58084 84630
AAXX 01181 76499 32560 73402 10259 20194 30233 40256 52015 85430 91740 333 10260 20158 30/// 5689/ 58079 85631 82357
AAXX 01181 76525 32980 60505 10126 20035 37529 40202 52007 80006 91740 333 10126 20108 30/// 56//5 58040 86080
AAXX 01181 76538 06/// /0603 10213 20087 38223 40166 50003 60002 7//// 8//// 91750 333 0//// 10213 20057 30/// 4//// 54/// 56/// 57/// 58043 60007 8//// 8//// 8//// 9//// 9//// 9//// 44
AAXX 01181 76543 31570 73604 10247 20209 30235 40268 51005 70544 878// 91745 333 10247 20179 30/// 561// 58061 81834 86640
AAXX 01181 76547 06/// /0603 10258 20221 30236 40248 50009 60002 7//// 8//// 91750 333 0//// 10259 20200 56/// 57/// 58060 60007 8//// 8//// 8//// 8//// 9//// 9//// 9//// 444 ///// 555
AAXX 01181 76548 31468 70201 10248 20217 30249 40259 51015 70542 874// 91740 333 10252 20200 30/// 56100 58057 87611
AAXX 01181 76556 32970 20000 10248 20144 39153 40181 51001 80005 91735 333 10255 20130 30/// 56003 58028 82070
AAXX 01181 76577 32570 83604 10193 20139 38094 40206 52004 81407 91740 333 10197 20110 30/// 56505 58034 81622 88277 99021
AAXX 01181 76578 06/// /0404 10215 20031 38088 40143 58002 60002 7//// 8//// 91750 333 0//// 10215 20113 30/// 4//// 54/// 56/// 57/// 58032 60007 8//// 8//// 8//// 9//// 9//// 9//// 44
AAXX 01181 76586 06/// /3502 10229 20187 30092 40248 50016 60002 7//// 8//// 91750 333 0//// 10229 20158 30/// 4//// 54/// 56/// 57/// 58061 60007 8//// 8//// 8//// 9//// 9//// 9//// 44
AAXX 01181 76592 06/// /0513 10278 21073 30217 40217 58008 60002 7//// 8//// 91750 333 0//// 10282 20210 30/// 4//// 54/// 56/// 57/// 58034 60007 8//// 8//// 8//// 9//// 9//// 9//// 44
AAXX 01181 76593 32370 40505 10278 20257 30216 40218 58006 82260 91750 333 10282 20210 30/// 5611/ 58031 82820 82330 91007 91505
AAXX 01181 76625 32960 41103 10216 20069 38190 40174 52024 84070 91750 333 10218 20130 30/// 56050 58019 84360
AAXX 01181 76641 06/// /1902 10276 20223 30231 40243 50009 60002 7//// 8//// 91750 333 0//// 10276 20201 30/// 4//// 54/// 56/// 57/// 58051 60007 8//// 8//// 8//// 8//// 9//// 9//// 9/
AAXX 01181 76644 32460 41204 10296 20202 30182 40196 57029 84200 91755 333 10305 20208 30/// 562// 59020 84820
AAXX 01181 76645 06/// /0604 10290 20198 30202 40215 58013 60002 7//// 8//// 91750 333 0//// 10310 20213 30/// 4//// 54/// 56/// 57/// 58030 60007 8//// 8//// 8//// 9//// 9//// 9//// 44
AAXX 01181 76654 31956 02702 10284 20214 30166 40170 57012 70544 91750 333 10284 20222 30/// 58023
AAXX 01181 76659 06/// /2502 10310 20123 3//// 4//// 5//// 60002 7//// 8//// 91750 333 0//// 10312 20168 30/// 4//// 54/// 56/// 57/// 5//// 60007 8//// 8//// 8//// 9//// 9//// 9//// 44
AAXX 01181 76665 31562 31702 10215 20110 38161 40205 57006 70300 81120 91750 333 10226 20078 30/// 56550 57853 58032 81824
AAXX 01181 76681 31940 13202 10190 20108 37821 40222 57010 70510 80001 91745 333 10190 20030 30/// 58023 81077
AAXX 01181 76683 32978 03602 10215 21019 37857 40225 57008 91750 333 10218 20050 30/// 58019 98528
AAXX 01181 76684 02/// ///// 1//// 2//// 3//// 4//// 5//// 6//// 7//// 8//// 9//// 333 0//// 1//// 2//// 30/// 4//// 54/// 56/// 57/// 5//// 6//// 8//// 8//// 8//// 9//// 9//// 9//// 44
AAXX 01181 76685 31950 23601 10218 21004 37902 40197 57004 70544 80001 91750 333 10220 20065 30/// 56009 58017 82077
AAXX 01181 76687 31666 50701 10214 20125 38744 40240 50003 70211 85400 91745 333 10218 20118 30/// 563// 58030 83620 82823
AAXX 01181 76692 31556 73603 10260 20221 30209 40229 52008 70242 8423/ 91745 333 10261 20212 30/// 5611/ 58036 81820 83630 83360
AAXX 01181 76693 06/// /3603 10259 20222 30207 40226 50003 60002 7//// 8//// 91750 333 0//// 10261 20212 30/// 4//// 56/// 57/// 58036 60007 8//// 8//// 8//// 8//// 9//// 9//// 9//// 44
AAXX 01181 76695 32560 20403 10286 20219 30192 40197 57009 82200 91750 333 10288 20204 30/// 562// 58027 82823
AAXX 01181 76698 32560 40403 10302 20217 30188 40199 57017 84200 91750 333 10312 20204 30/// 56200 58019 84820
AAXX 01181 76727 06/// /2101 10237 20045 38430 40118 58007 60002 7//// 8//// 91750 333 0//// 10247 20128 30/// 4//// 54/// 56/// 57/// 58019 60007 8//// 8//// 8//// 9//// 9//// 9//// 44
AAXX 01181 76737 31480 50201 10228 20125 38834 40226 50001 70322 82237 91735 333 10233 20122 30/// 56229 58027 82817 91105 91511
AAXX 01181 76738 02/// ///// 1//// 2//// 3//// 4//// 5//// 6//// 7//// 8//// 333 1//// 2//// 30/// 56/// 57/// 5//// 6//// 8//// 8//// 8//// 8//// 9//// 9//// 9//// 444 ///// 555 3////
AAXX 01181 76750 11560 40603 10301 20214 30182 40192 57014 69931 70020 83204 91750 333 10313 20204 30/// 56106 58020 83820
AAXX 01181 76751 06/// /0604 10301 20219 30182 40192 58014 69942 7//// 8//// 91750 333 0//// 10303 20208 30/// 4//// 54/// 56/// 57/// 58019 60007 8//// 8//// 8//// 9//// 9//// 9//// 44
AAXX 01181 76762 31904 23602 10276 20224 38787 40167 58016 70400 80004 91746 333 10278 20138 30/// 56006 58020 82060 91204
AAXX 01181 76772 06/// /0202 10230 20075 38462 40148 58012 60002 7//// 8//// 91750 333 0//// 10233 20052 30/// 4//// 56/// 57/// 58024 60007 8//// 8//// 8//// 9//// 9//// 9//// 444 ////
AAXX 01181 76773 31566 43601 10232 20133 38458 40191 57012 70544 81408 91748 333 10237 20042 30/// 56909 58018 81620 83268
AAXX 01181 76776 06/// /2601 10233 20074 38540 40140 58018 60002 7//// 8//// 91750 333 0//// 10239 20077 30/// 4//// 56/// 57/// 58020 60007 8//// 8//// 8//// 9//// 9//// 9//// 444 ////
AAXX 01181 76806 06/// /2403 10301 20228 30146 40150 58015 60002 7//// 8//// 91750 333 10310 20210 30/// 56/// 57/// 58007 60007 8//// 8//// 8//// 8//// 9//// 9//// 9//// 555 30273
AAXX 01181 76843 32665 30801 10276 20172 39525 40168 50007 82106 91745 333 10286 20186 30/// 568// 58015 82820
AAXX 01181 76845 32460 51302 10174 20125 37983 40206 58002 85600 91747 333 10184 20108 30/// 56200 58024 85717
AAXX 01181 76902 06/// /1601 10331 20199 30002 40137 58010 60002 7//// 8//// 91750 333 0//// 10333 20215 30/// 4//// 54/// 56/// 57/// 58007 60007 8//// 8//// 8//// 8//// 9//// 9//// 9/
AAXX 01181 76903 31681 61301 10320 20199 30002 40132 57011 70122 81101 91755 333 10332 20222 30/// 56109 58006 81833 85074
AAXX 01181 76160 32962 00501 10212 20026 39960 40211 52011 91730 333 10212 20070 30/// 58040
AAXX 01181 76243 32974 03107 10148 20049 30058 40360 52025 91730 333 10164 20092 30/// 58172
AAXX 01181 76253 32982 00502 10240 20084 30119 40209 57002 91743 333 10245 20120 30/// 58025 92002
AAXX 01181 76311 32980 00000 10244 20091 39911 40195 52008 91740 333 10254 20086 30/// 58033
AAXX 01181 76405 32980 13303 10226 20142 30178 40200 50012 80001 91750 333 10226 20090 30/// 56005 58034 81070
AAXX 01181 76640 31458 40903 10252 20226 30247 40259 52016 70540 8223/ 91740 333 10268 20196 30/// 5623/ 58045 82811
BBXX UFTA 01181 99845 71198 11997 82306 11246 21275 40045 54000 69922 73673 80001
AAXX 01184 91930 36/// ///// 10273 20223
AAXX 01184 91943 36/// /1006 10283 20201 30152 40154 51012 333 10286 58010
AAXX 01181 89061 179// 00000 10045 20009 39882 49889 57001 60023 70070 333 91001 91105
AAXX 01184 89664 12861 61014 11016 21108 39804 49844 52012 69903 86070 333 56080 81657 86658 90987 93197
AAXX 01184 78397 111572 61317 10308 20249 30141 40157 60001 70500 83801 333 01909 10326 20243 58012 83822 83073
AAXX 01184 48310 31957 00000 10188 20173 39687 40152 52000 71000 333 59014
AAXX 01184 48325 31656 60000 10215 20201 39897 40144 52002 71022 82556 333 59016
AAXX 01184 48329 31550 30000 10215 20191 39800 40143 52002 71000 83500 333 59012
AAXX 01184 48352 NIL
AAXX 01184 48357 32960 10000 10180 20154 39987 40161 57007 80001 333 59014
AAXX 01184 48380 31956 00000 10222 20207 30042 40137 57006 71000 333 59012
AAXX 01184 48383 31957 00000 10184 20153 39994 40158 56006 71000 333 59012
AAXX 01184 48403 31957 00902 10236 20178 39929 40142 57007 71000 333 59017
AAXX 01184 48405 31958 20504 10205 20171 39980 40147 57003 71000 80005 333 59017
AAXX 01184 48420 31956 50000 10252 20219 30115 40120 57006 71011 81036 333 59017
AAXX 01184 48421 31950 20000 10225 20197 30022 40137 56002 71010 80005 333 59012
AAXX 01184 48425 NIL
AAXX 01184 48426 31957 50000 10278 20182 30112 40125 57009 70511 80006 333 59015
AAXX 01184 48429 31559 50106 10264 20193 30118 40125 57004 71011 81135 333 59014
AAXX 01184 48430 31958 20000 10257 20193 30114 40122 56009 71000 80002 333 59017
AAXX 01184 48450 31956 20000 10255 20193 30099 40133 57004 71000 80005 333 58005
AAXX 01184 48459 31959 60403 10270 20216 30117 40120 57003 71022 86050 333 59012
AAXX 01184 48465 31958 53402 10254 20218 30118 40122 57006 71011 80006 333 59015
AAXX 01184 48550 01457 71110 10246 20234 30105 40112 57005 60483 76122 82876 333 59010 60116 70478
AAXX 01184 48552 NIL
AAXX 01184 48566 NIL
AAXX 01184 48568 32460 71102 10246 20231 30100 40108 57008 81846 333 59012 71516
AAXX 01184 48300 31957 00000 10209 20193 39827 40144 52006 71000 333 59016
AAXX 01184 48327 32660 10000 10216 20186 39797 40158 57014 81500 333 59007
AAXX 01184 48331 NIL
AAXX 01184 48353 31956 00000 10187 20164 39856 40152 57004 71000 333 59011
AAXX 01184 48356 31959 00000 10186 20152 39962 40164 57004 71000 333 59015
AAXX 01184 48375 32960 00000 10225 20194 39900 40128 57001 333 59020
AAXX 01184 48378 31556 40000 10238 20203 30081 40135 56005 71022 82505 333 59013
AAXX 01184 48381 32960 20803 10215 20169 39931 40152 57002 80005 333 59016
AAXX 01184 48407 NIL
AAXX 01184 48431 32960 20703 10245 20190 39927 40141 57005 82035 333 59013
AAXX 01184 48456 NIL
AAXX 01184 48480 31557 50000 10262 20211 30112 40116 57004 71011 84835 333 59010
AAXX 01184 48500 31556 80000 10245 20208 30115 40122 57004 71022 8225/ 333 59011
AAXX 01184 48551 01440 80203 10240 20233 30101 40109 57015 60653 76166 8482/ 333 59021 60527 70651
AAXX 01184 48565 01457 70000 10243 20225 30084 40094 57009 60053 76062 82246 333 59019 60037 70050
AAXX 01184 48569 31458 70000 10233 20219 30072 40113 57008 71022 82876 333 59012 70970
AAXX 01184 48583 NIL
AAXX 01184 16008 12965 03503 10008 21010 38560 48517 54000 60002 333 10056 43028 92851
AAXX 01184 16084 11958 02303 11002 21009 30068 40243 53017 60002 71000 333 10078
AAXX 01184 16088 11940 01002 10030 20030 30124 40246 53017 60002 71021 333 10090
AAXX 01184 16110 12997 00708 10058 20043 30230 40234 51004 60002 333 10134 555 0////
AAXX 01184 16134 12984 02406 10040 21026 37864 48538 51008 60002 333 10042 44021 92835
AAXX 01184 16153 12899 52004 10116 20094 39958 40224 53006 60002 85030 333 10159 85358 555 0////
AAXX 01184 16158 12962 01302 10072 20011 30230 40238 52008 60002 333 10126
AAXX 01184 16206 12570 70204 10100 20046 30228 40237 51008 60002 87800 333 10130 82830 85640
AAXX 01184 16219 42965 02910 10042 20007 38158 48540 51008 6///2 333 10056 41002 92842
AAXX 01184 16252 12975 00000 10064 21038 39290 42842 52012 60002 333 10106 95000
AAXX 01184 16280 NIL
AAXX 01184 16310 12998 03403 10090 20026 30010 40236 52011 60002 333 10128 555 0////
AAXX 01184 16320 12960 03509 10102 20074 30229 40242 52017 60002 333 10120 555 0////
AAXX 01184 16325 NIL
AAXX 01184 16360 12998 03509 10078 20027 30100 40238 52021 60002 333 10118 555 0////
AAXX 01184 16400 12998 01205 10118 20089 39959 40252 53013 60002 333 10158 55300 555 0213/
AAXX 01184 16420 12997 00000 10128 20057 30180 40246 52010 60002 333 10162 555 0////
AAXX 01184 16429 12562 20000 10112 20103 30242 40253 51016 60002 82200 333 10164 82822
AAXX 01184 16470 12460 73109 10150 20120 30010 40246 51010 69902 83520 333 10150 55300 22/// 83610 86456 95060
AAXX 01184 16480 12997 02802 10118 20095 30173 40236 52013 60002 333 10162 555 0////
AAXX 01184 16522 12497 43306 10146 20123 30000 40244 52015 60002 84200 333 10152 55300 84815 555 0////
AAXX 01184 16539 NIL
AAXX 01184 16550 12798 33208 10150 20104 30049 40229 52017 60002 83030 333 10184 83356 555 0////
AAXX 01184 68030 42660 30000 10235 20201 48495 52021 82904 333 10302
AAXX 01184 68038 42660 30904 10295 20164 48499 52022 81382 333 10336
AAXX 01184 68054 42960 20805 10255 20168 48522 53014 81062 333 10314
AAXX 01184 68070 41660 20000 10289 20189 48505 52016 71300 81900 333 10327
AAXX 01184 68148 42960 00606 10255 20192 48500 52014 333 10326
AAXX 01184 68226 42960 12305 10310 20051 48496 52016 81080 333 10360
AAXX 01184 68234 42660 12705 10280 20141 48490 52009 81400 333 10342
AAXX 01184 68320 42960 00000 10295 20118 48500 53008 333 10364
AAXX 01184 68325 42660 11802 10257 20159 48494 53013 81400 333 10317
AAXX 01184 03301 16972 /2412 10072 20040 39905 49977 53010 60022 91750 333 10100 8//99
AAXX 01184 03305 17570 /2318 10065 20036 39719 49979 53005 60192 781// 91750 333 10095 83/27 83/37 85/47 90710 91126
AAXX 01184 03313 16778 /2507 10070 20040 39879 49972 53002 60162 91750 333 10101 81/50
AAXX 01184 03316 15666 /2515 10085 20057 39957 49968 53003 60072 91750 333 10105 83/48
AAXX 01184 03318 16/// /2415 10075 20053 60072 91750 333 10094
AAXX 01184 03321 16974 /2508 10074 20042 39961 49973 55000 69942 91750 333 10115 553// 20000 81/66
AAXX 01184 03330 15967 /2410 10055 20044 39621 49979 56006 60032 91750 333 10086 81/58 88/63
AAXX 01184 03344 17962 /2414 10054 20039 39646 49961 55008 60152 723// 91750 333 10080 82/67
AAXX 01184 03346 16/// /2415 10058 20042 60052 91750 333 10087
AAXX 01184 03348 15980 /2210 10066 20053 39866 49973 55006 60022 91750 333 10100 55300 20000 81/60 88/65
AAXX 01184 03355 15981 /2412 10075 20053 39948 49959 56011 60032 91750 333 10109 55300 20000 88/65
AAXX 01184 03373 16973 /2208 10076 20069 39902 49970 56009 60012 91750 333 10105 88/58
AAXX 01184 03379 16786 /2314 10080 20067 39902 49978 56007 60022 91750 333 10106 88/56
AAXX 01184 03382 17978 /2208 10072 20057 39951 49960 58010 60032 723// 91750 333 10106 55300 20000 88/60
AAXX 01184 03385 46777 /2213 10083 20081 39959 49969 58008 91750 333 10106 87/50
AAXX 01184 03391 11475 82408 10084 20064 39969 49976 56011 60012 72162 8157/ 91750 333 10105 81618 87357
AAXX 01184 03392 16666 /2413 10081 20075 39976 49979 56009 60022 91750 333 10102 87/44
AAXX 01184 03405 16570 /2622 10073 20049 39874 49989 53013 60012 91750 333 10102 553// 20000 81/23 85/38 90710 91133
AAXX 01184 03409 16/// /2511 10067 20043 60002 91750 333 10097 55300 2////
AAXX 01184 03410 16470 /2308 10046 20042 39552 49984 53004 60142 91750 333 10081 553// 20000 82/12 83/20
AAXX 01184 03469 17562 /2214 10095 20082 39979 49982 56012 69902 782// 91750 333 10112 553// 20000 85/22 83/38
AAXX 01184 03488 17780 /2013 10099 20083 39955 49980 58020 69922 723// 91750 333 10116 84/56 88/61
AAXX 01184 03503 15567 /2503 10075 20053 39920 49996 53007 60052 91750 333 10110 82/25
AAXX 01184 03507 15467 /2310 10057 20054 39634 40003 53005 60072 91750 333 10088 85/12
AAXX 01184 03520 16574 /2406 10074 20052 39874 49994 52002 60012 91750 333 10111 553// 20000 83/23 87/59
AAXX 01184 03522 15968 /2407 10088 20046 39907 49998 52003 60012 91750 333 10117 85/58 87/62
AAXX 01184 03529 17777 /2305 10086 20078 39956 49999 53001 69942 723// 91750 333 10110 83/56 87/61
AAXX 01184 03544 17584 /2304 10078 20069 39861 49990 55006 60022 723// 91750 333 10104 553// 20000 82/28 86/60
AAXX 01184 03560 17681 /2210 10095 20078 39889 49991 56013 69922 723// 91750 333 10112 553// 20000 81/40 87/50
AAXX 01184 03604 16980 /2820 10086 20042 39952 40005 53010 60022 91750 333 10111 85/59 90710 91129
AAXX 01184 03605 16971 /2718 10090 20057 30000 40008 53010 60022 91750 333 10107 8//99 90710 91127
AAXX 01184 03609 16/// /2618 10089 20049 39961 40013 53007 60012 91750 333 10103 90710 91126
AAXX 01184 03628 17674 /2409 10083 20075 39937 40009 53008 60012 723// 91750 333 10111 55300 20000 84/46 87/60
AAXX 01184 03647 16367 /2311 10082 20080 39745 49997 53001 69942 91750 333 10099 553// 20000 81/06 86/29
AAXX 01184 03658 16456 /2306 10094 20082 39938 40006 55007 60012 91750 333 10118 82/19 86/38
AAXX 01184 03660 17663 /2606 10085 20078 39761 40006 55009 60032 781// 91750 333 10109 82/43 85/50
AAXX 01184 03672 16780 /2306 10098 20088 39966 40006 55013 60052 91750 333 10126 88/56
AAXX 01184 03684 17769 /2106 10082 20077 39893 49998 56019 60032 761// 91750 333 10120 87/50
AAXX 01184 03693 16663 /2607 10102 20096 30003 40006 55019 60062 91750 333 10123 87/48
AAXX 01184 03707 15565 /2714 10093 20064 30013 40020 52010 60032 91750 333 10116 81/27
AAXX 01184 03710 16262 /2509 10063 20063 39601 40018 52010 60032 91750 333 10087 553// 20000 84/05 83/15
AAXX 01184 03743 16688 /2510 10089 20076 39855 40014 55003 60032 91750 333 10110 81/33 87/43
AAXX 01184 03749 16671 /2307 10093 20085 39905 40014 55003 60092 91750 333 10114 82/31 86/50
AAXX 01184 03761 17671 /2214 10092 20078 39870 40012 55007 60102 781// 91750 333 10114 55300 20000 81/42 87/50
AAXX 01184 03768 16772 /2413 10099 20084 39932 40010 55010 60102 91750 333 10122 87/50
AAXX 01184 03769 17670 /2307 10104 20101 39931 40011 56008 6///2 762// 91750 333 10121 55300 20000 83/43 87/50
AAXX 01184 03781 17781 /2310 10094 20089 39807 40010 56010 60152 762// 91750 333 10113 553// 20000 87/50
AAXX 01184 03797 17766 /2213 10113 20107 39949 40007 56024 60072 761// 91750 333 10125 55300 20000 87/50
AAXX 01184 03823 15563 /2610 10072 20060 39795 40036 53016 60022 91750 333 10102 553// 20000 83/21 84/58
AAXX 01184 03839 16/// ///// 10093 20076 60012 91750 333 10119 553// 20000
AAXX 01184 03857 17357 /2722 10104 20100 39962 40025 53003 60072 782// 91750 333 10116 81/08 86/38 90710 91132
AAXX 01184 03862 17670 /2409 10104 20097 30008 40020 53001 60112 757// 91750 333 10123 55300 20000 84/39 85/50
AAXX 01184 03866 16/// /2516 10100 20091 39999 40024 5//// 60122 91750 333 10115
AAXX 01184 03872 17765 /2512 10100 20095 30017 40021 53001 60132 761// 91750 333 10116 553// 20000 88/50
AAXX 01184 03876 16/// /2609 10101 20095 30019 40021 55007 60152 91750 333 10116
AAXX 01184 03895 41365 82514 10106 20095 40062 53012 70265 8657/ 333 10121 84707 86656 90710 91125
AAXX 01184 03008 16/// /2220 10063 20024 39759 49827 56002 60002 91750 333 10073 90710 91127
AAXX 01184 03010 46/// /2321 10066 20031 49821 52003 333 90710 91130
AAXX 01184 03014 46/// /2618 10032 20007 39794 49820 57003 91750 333 8//// 90710 91131
AAXX 01184 03031 17439 /2708 10019 20006 39538 49861 53002 60102 782// 91750 333 10052 553// 20000 84/14 85/23
AAXX 01184 03034 17882 /2116 10050 20027 39834 49847 51005 60052 723// 91750 333 10077 82/57 90710 91131
AAXX 01184 03037 17571 /2511 10040 20025 39839 49861 52004 60062 723// 91750 333 10066 81/29 87/61
AAXX 01184 03039 46/// /2623 11012 21043 91750 333 10011 90710 91135
AAXX 01184 03041 46/// /2147 11040 21040 91750 333 11005 90710 91147
AAXX 01184 03044 17559 /2006 10033 20018 39744 49842 53001 60032 782// 91750 333 10060 553// 20000 81/21 83/26 86/46
AAXX 01184 03047 17380 /2011 10019 20007 39590 49891 50003 60152 761// 91750 333 10058 553// 20000 82/07 86/44
AAXX 01184 03062 17984 /2012 10028 20005 39852 49857 55001 60012 723// 91750 333 10059 553// 20000 81/68
AAXX 01184 03065 46/// /2337 11036 21040 91750 333 11019 90710 91158 91058
AAXX 01184 03068 12682 52108 10035 20001 39853 49862 52001 60002 81532 91750 333 10070 81630 85075
AAXX 01184 03080 15984 /2408 10044 20004 39706 49874 58005 69902 91750 333 10069 8//99
AAXX 01184 03088 17467 /2412 10041 20033 39724 49886 56002 69902 751// 91750 333 10063 553// 20000 81/11 85/16
AAXX 01184 03094 15981 /1811 10044 20005 39858 49863 54000 60002 91750 333 10073 88/64
AAXX 01184 03105 15562 /2523 10055 20028 39888 49905 53003 60032 91750 333 10077 83/22 90710 91131
AAXX 01184 03132 17880 /2416 10051 20032 39920 49934 53006 69982 723// 91750 333 10084 84/57
AAXX 01184 03144 17460 /2412 10047 20031 39853 49896 50002 60042 781// 91750 333 10078 553// 20000 81/16 84/33
AAXX 01184 03148 46/// /2512 10002 20002 91750 333 10037 90710 91126
AAXX 01184 03153 17562 /2817 10047 20031 39792 49929 56003 69982 782// 91750 333 10081 553// 20000 84/21 83/41 90710 91130
AAXX 01184 03155 16685 /2014 10037 20009 39618 49913 56003 69982 91750 333 10065 81/34
AAXX 01184 03158 15983 /2317 10050 20034 39770 49905 58010 60002 91750 333 10076 553// 20000 8//99 90710 91125
AAXX 01184 03210 16570 /2215 10064 20037 39795 49945 55000 60002 91750 333 10079 82/28 90710 91126
AAXX 01184 03212 15681 /2510 10073 20024 39847 49945 55001 60012 91750 333 10091 84/31 86/45 90710 91126
AAXX 01184 03214 15667 /2514 10080 20044 39935 49953 55000 69942 91750 333 10093 86/37
AAXX 01184 03220 16577 ///// 10071 20044 39899 49933 56002 60022 91750 333 10089 83/24 84/46
AAXX 01184 03225 16571 /2415 10054 20025 39644 49946 56004 60082 91750 333 10078 553// 20000 83/23 90710 91126
AAXX 01184 03226 15575 /2308 10055 20028 39674 49947 53001 60062 91750 333 10077 81/28 87/41
AAXX 01184 03227 46/// /2425 10000 2//// 91750 333 10022 90710 91133
AAXX 01184 03230 16480 /2410 10040 20032 39676 49931 55001 60022 91750 333 10072 81/12 83/15 90710 91127
AAXX 01184 03238 15974 /2508 10046 20019 39756 49928 57004 60012 91750 333 10077 81/74
AAXX 01184 03261 16564 /2311 10061 20044 39920 49960 55002 60042 91750 333 10096 81/28 84/33
AAXX 01184 03265 17681 /2312 10066 20044 39928 49958 56002 60022 723// 91750 333 10099 81/35 87/49
AAXX 01184 03266 16680 /2106 10071 20045 39941 49958 56007 60032 91750 333 10102 81/48 84/68
AAXX 01184 03275 15969 /2313 10054 20030 39753 49944 58003 60012 91750 333 10084 81/64
AAXX 01184 03281 16/// /2314 10045 20039 60032 91750 333 10074
AAXX 01184 03903 16771 /2308 10036 20010 39885 49942 51015 69982 91750 333 10076 553// 20000 82/56
AAXX 01184 03904 16979 /2216 10035 20007 39866 49926 51008 60022 91750 333 10064 8//99 90710 91125
AAXX 01184 03907 17980 /2321 10039 20012 39909 49916 51009 69962 723// 91750 333 10076 55300 20000 81/60 90710 91128
AAXX 01184 03911 16982 /2210 10022 20006 39660 49934 51012 69942 91750 333 10062 81/60
AAXX 01184 03915 16981 /1705 10026 20026 39848 49927 51012 60022 91750 333 10074 83/60
AAXX 01184 03916 16985 /2608 10027 20003 39727 49917 51006 69942 91750 333 10060 553// 20000 82/58 91019
AAXX 01184 03923 15973 /2511 10032 20011 39744 49940 51015 60032 91750 333 10066 8//99
AAXX 01181 11010 11129 69902 10042 20042 39818 40202 52008 69902 71022 333 10044 81702 83643 86657
AAXX 01181 11012 17559 82305 10106 20065 39724 40188 52004 60012 7//4/ 886// 333 10109 20011 55300
AAXX 01181 11022 11/06 90301 10022 20015 39797 40191 52007 69942 74554 333 10038 20005 55300 89/02
AAXX 01181 11035 11233 82202 10035 20033 39942 40199 52005 60022 76065 886// 333 10035 20018 84704 87706
AAXX 01181 11036 01148 81404 10016 20010 39976 40205 50004 60012 72166 333 10016 69945 83702 85705 86626
AAXX 01181 11101 12560 71902 10067 20047 39684 40214 53007 69902 875// 333 10100 20058 87630
AAXX 01181 11120 31140 89901 10011 20008 39515 40239 52008 71042 333 10038 81703 87705
AAXX 01181 11126 16/// /1711 10002 21030 37749 48504 56005 69902 333 10008 21015 55300 91115
AAXX 01181 11130 16/// /1701 10013 20009 39629 40232 53005 60012 333 10033 20010 55300
AAXX 01181 11146 11284 52609 11044 21064 36964 47074 52007 60012 70344 82571 333 11038 82315 84340 91123 92611
AAXX 01181 11150 11975 41606 10054 20024 39663 40208 52002 60022 70162 333 10067 81359 84080
AAXX 01181 11155 17/// /2909 10035 20011 38381 48506 53007 60032 7//4/ 333 10036 20015 55300 91125
AAXX 01181 11157 11108 89901 10016 20016 39448 40233 50006 60042 74644 887// 333 10039 84703 87709
AAXX 01181 11172 NIL
AAXX 01181 11190 11658 80701 10025 20016 39971 40210 53004 60032 76162 885// 333 10025 20002 55300 88638
AAXX 01181 11204 16/// /0000 11013 21018 39436 40254 52005 60002 333 10005 21027 55300
AAXX 01181 11212 32/83 72705 10022 21029 37862 48524 51005 81572 333 10028 816// 87459
AAXX 01181 11231 31750 79901 11018 21018 39660 40253 51009 71022 333 10014 81650 83360 86071
AAXX 01181 11240 32965 71602 10016 20000 39770 40219 52007 333 10064 85361 87072
AAXX 01181 11244 16/// /3401 10020 21006 39884 40220 52008 69902 333 10054 21003 55300
AAXX 01181 11389 11550 82005 10075 20063 39866 40192 52006 69922 70262 885// 333 10076 20029 55300
AAXX 01184 70026 NIL
AAXX 01184 70133 NIL
AAXX 01184 70174 NIL
AAXX 01184 70200 NIL
AAXX 01184 70219 NIL
AAXX 01184 70231 NIL
AAXX 01184 70261 NIL
AAXX 01184 70267 NIL
AAXX 01184 70271 NIL
AAXX 01184 70273 NIL
AAXX 01184 70308 NIL
AAXX 01184 70316 NIL
AAXX 01184 70326 NIL
AAXX 01184 70340 NIL
AAXX 01184 70350 NIL
AAXX 01184 70361 NIL
AAXX 01184 70381 NIL
AAXX 01184 70398 NIL
AAXX 01184 70414 NIL
AAXX 01184 78526 NIL
AAXX 01184 78543 NIL
AAXX 01184 78255 42559 40000 10281 20195 30053 40202 57020 84202 333 10290 20220 84820
AAXX 01184 78317 NIL
AAXX 01184 78318 NIL
AAXX 01184 78325 NIL
AAXX 01184 78333 NIL
AAXX 01184 78338 NIL
AAXX 01184 78348 NIL
AAXX 01184 78349 NIL
AAXX 01184 78353 NIL
AAXX 01184 78360 NIL
AAXX 01184 78367 NIL
AAXX 01184 78369 NIL
AAXX 01184 91165 NIL
AAXX 01184 91182 NIL
AAXX 01184 91190 NIL
AAXX 01184 91212 NIL
AAXX 01184 91217 NIL
AAXX 01184 91285 NIL
AAXX 01184 91317 NIL
AAXX 01184 91334 32474 40211 10275 20229 30075 40078 56010 82101 333 568/9 555 90118
AAXX 01184 91348 NIL
AAXX 01184 91356 NIL
AAXX 01184 91366 NIL
AAXX 01184 91369 NIL
AAXX 01184 91371 NIL
AAXX 01184 91376 11474 60810 10270 20240 30069 40073 53003 60021 70282 84878 333 56229 70051 555 90118
AAXX 01184 91408 32474 80706 10274 20226 30037 40075 57014 82278 333 56999 70005 555 90118
AAXX 01184 91413 32469 60910 10264 20230 30054 40079 57027 82171 333 56299 555 90118
AAXX 01184 91425 NIL
AAXX 01184 91434 NIL
AAXX 01184 91765 NIL
AAXX 01184 91222 NIL
AAXX 01184 91245 NIL
AAXX 01184 91323 NIL
AAXX 01184 91339 NIL
AAXX 01184 91343 NIL
AAXX 01184 91353 NIL
AAXX 01184 91442 NIL
BBXX 41041 01181 99142 70460 46/// /0809 10253 20197 40152 56026 91750 22200 00261 11106 20805 3//// 41104 70032 333 91211 555 11098 22105 31657 41013 61749 083093 084098 084096 090100 097105 100103 80911 91707
BBXX 41038 01181 99341 70777 46/// /2105 10162 40183 58043 91800 22200 00137 333 91206
AAXX 01184 48307 31950 00000 10170 20161 39780 40171 51004 71000 333 59005
AAXX 01184 48324 32560 20000 10196 20180 39923 40147 55001 81105 333 59011
AAXX 01184 48333 NIL
AAXX 01184 48350 31958 00000 10179 20164 39848 40156 57011 71000 333 59011
AAXX 01184 48355 31956 00000 10170 20155 39935 40161 56004 71000 333 59016
AAXX 01184 48358 31958 20000 10165 20156 39982 40164 57009 71000 80001 333 59015
AAXX 01184 48384 NIL
AAXX 01184 48401 31957 11202 10261 20198 30032 40139 57004 71000 80005 333 59012
AAXX 01184 48404 32961 00602 10200 20176 39964 40146 56005 333 59015
AAXX 01184 48409 NIL
AAXX 01184 48419 31558 60102 10274 20214 30115 40123 56009 71022 82545 333 59016
AAXX 01184 48427 NIL
AAXX 01184 48435 31958 21016 10240 20167 39697 40136 57007 70500 80001 333 59014
AAXX 01184 48453 32960 50000 10260 20207 30117 40120 57005 80006 333 59016
AAXX 01184 48458 32960 10000 10244 20207 30061 40142 57001 81040 333 59010
AAXX 01184 48474 31956 20000 10234 20202 30001 40126 57005 71020 80005 333 59011
AAXX 01184 48481 32960 10000 10237 20197 30090 40118 57006 80001 333 59011
AAXX 01184 48555 NIL
AAXX 01184 48556 01456 80000 10235 20228 30086 40102 57011 60213 72166 83877 333 59023 60047 70212
AAXX 01184 48557 01458 80000 10230 20222 30068 40103 57006 60373 76122 8687/ 333 59021 60037 70386
AAXX 01184 48560 11550 80000 10243 20234 30106 40111 56002 61153 71022 83876 333 59014 71689
AAXX 01184 48574 32560 80000 10244 20235 30076 40106 57006 84246 333 59024 70486
AAXX 01184 48581 NIL
BBXX 46053 01181 99342 71198 46/// /2901 10105 40222 52019 91750 22200 00139 11403 329// 41403 70014 333 91202 555 11014 22015 31747 42902 61749 292014 336005 060006 069005 037003 007008
BBXX 46042 01181 99368 71224 46/// /1109 10129 40208 53012 91750 22200 00123 11205 20502 331// 41204 70023 333 91211 555 11098 22106 31718 41111 61749 106089 109074 107082 105087 105084 105080
BBXX 44060 01181 99413 70721 46/// ///02 10077 40159 58040 91800 22200 00094 333 91203 555 11021 22026
BBXX 44022 01181 99409 70737 46/// ///06 10094 20039 40151 57047 91800 22200 00073 333 91208 555 11072 22082
AAXX 01181 15015 02597 71101 11010 21028 39626 42821 53011 60002 87500 333 10020 21025 3/001 43004 60007 91001 91102 92830
AAXX 01181 15020 02997 31701 10009 21039 30019 40223 52007 60002 83070 333 10052 21014 31009 60007 91002 91103
AAXX 01181 15090 02997 32701 11009 21029 30136 40232 52010 60002 83040 333 10048 21044 34003 55300 10222 20004 3//// 60007 91002 91102 92600
AAXX 01181 15108 01/91 92710 11116 21116 38054 48489 53005 60002 74941 333 11089 21116 3//// 44018 60007 91016 92713 92863
AAXX 01181 15120 02997 41901 11019 21030 39741 40258 53013 60002 84050 333 10039 21031 3/002 43003 55300 10037 2//// 3//// 60007 91002 91103 92600 92842
AAXX 01181 15150 02997 03401 11019 21058 30016 40238 52011 60002 333 10057 21069 34007 60007 91001 91102
AAXX 01181 15170 02997 10801 11083 21088 39437 42817 52008 60002 81040 333 11034 21098 3/000 43002 60007 91002 91102 92870
AAXX 01181 15200 02997 61202 10005 21001 30099 40249 52006 60002 86070 333 10026 21040 31006 60007 91002 91103
AAXX 01181 15230 02997 00200 11002 21023 39960 40265 53015 60002 333 10049 21045 34007 55300 10039 20003 3//// 60007 91001 91101
AAXX 01181 15260 02997 02102 11046 21061 39706 40270 53009 60002 333 10034 21053 34006 60007 91003 91103
AAXX 01181 15280 02999 02910 11138 21238 37450 47966 53013 60002 333 11127 21150 3//// 49035 60007 91016 92848
AAXX 01181 15292 02998 21201 11013 21024 39960 40268 53016 60002 82030 333 10041 21058 3/004 41998 60007 91002 91103
AAXX 01181 15310 01996 03002 10007 21046 30153 40242 52016 60002 71000 333 10065 21017 34012 55300 10225 20004 3//// 60007 91004 91107 92600
AAXX 01181 15335 02997 02700 11020 21027 30230 40237 52017 60002 333 10065 21028 34008 60007 91001 91102 92600
AAXX 01181 15346 02997 00201 11019 21052 39951 40254 52017 60002 333 10058 21041 34007 60007 91001 91104
AAXX 01181 15350 02997 03102 10010 21059 30123 40247 51015 60002 333 10084 20002 31009 60007 91004 91104
AAXX 01181 15360 02998 03004 10018 21008 30214 40229 52020 60002 222// 06055 20301 333 10053 20001 3//// 60007 91004 91105 92428
AAXX 01181 15410 02997 03001 10029 21029 30150 40248 52013 60002 333 10077 21059 34011 60007 91003 91103
AAXX 01181 15420 01995 02402 11026 21027 30134 40251 52015 60002 72840 333 10060 21036 31009 55300 0//// 20000 3//// 60007 91004 91104 92600 96010
AAXX 01181 15450 02997 01702 10002 21019 30006 40251 52012 60002 333 10044 21073 34003 55300 10204 20004 3//// 60007 91002 91103 92600
AAXX 01181 15460 02997 02503 10003 21007 30222 40247 52016 60002 333 10050 21006 34009 60007 91005 91106 92600
AAXX 01181 15470 02997 02201 11011 21011 30119 40251 52012 60002 333 10027 21033 31007 60007 91002 91102 92600
AAXX 01181 15480 01996 02903 10015 21001 30225 40242 52015 60002 71000 222// 06064 2//// 333 10067 21003 31007 60007 91005 91105 92426
BBXX 46001 01181 99563 71480 46/// /3417 11002 49901 56027 91750 22200 00041 10811 20808 300// 41208 70056 333 91221 555 11179 22190 31659 43321 61749 341167 339170 340170 340172 338169 337171
BBXX PHAM 01183 99495 70011 41297 82622 10116 20096 40051 53011 75165 887// 22200 20504 80105 91032
BBXX UBVF4 01181 99563 10071 41/97 /2209 10080 49985 57125 70222 8//// 22213 20203
BBXX DDYL2 01183 99342 10229 41/98 /0118 10140 20075 40210 52030 7//// 8//// 22264 00160 2////
BBXX UCAB 01181 99675 10093 41/97 91714 10050 49824 52020 70022 8//// 22213 00090 20807 317// 40808
AAXX 01181 26554 31946 21901 11066 21082 30001 40172 52006 71011 82030 333 11012
AAXX 01181 26666 32460 70000 11025 21051 39953 40174 52008 87600 333 11013 87712
AAXX 01181 26850 32960 00000 11056 21070 39902 40186 52006 333 11002
AAXX 01181 26863 32962 22703 11070 21091 39938 40187 52011 82030 333 11073
AAXX 01181 26941 31258 82103 11030 21043 39942 40188 52003 71011 886// 333 11006 88704
AAXX 01181 26951 32965 61601 11033 21050 39985 40191 52005 82032 333 11004
AAXX 01181 33008 31658 71703 10002 21019 39988 40170 57009 71022 87500 333 10007 87641
AAXX 01181 33019 31456 81802 11022 21031 30014 40195 58001 71022 886// 333 11012 86714
AAXX 01181 33036 32670 30000 11027 21082 39959 40198 52006 83500 333 10011
AAXX 01181 33041 12660 33001 11020 21045 30028 40189 52007 69902 83500 333 10004
BBXX MGRH9 01184 99266 31532 41/98 51315 10230 20146 40150 50002 7//00 85/// 22200 00244 2//// 3//// 4//// 5//// 80180
BBXX DCDO2 01183 99066 31486 41698 63415 10270 20243 40070 56010 70322 86464 22234 00310 2//// 3//// 4//// 5//// 80250
BBXX PCDE 01183 99387 31480 41597 11401 10180 20131 40140 58010 7//00 81100 22263 20501 80150
BBXX ZQAY4 01184 99252 31538 41597 41420 10250 20204 40137 56004 70222 84100 22244 00287 21004 314// 41005 5//// 80220
BBXX ELYP7 01184 99156 31144 41498 21609 10270 20252 40070 57020 71300 82/// 22243 20401 321// 40804 80257
BBXX A8KX4 01184 99382 51526 41298 81814 10170 20119 40235 52020 70322 8/700 22274 04169 2//// 327// 40803 80140
BBXX A8KH9 01184 99052 30810 41/97 63205 10255 20212 40080 54000 76222 847/8 22214 20301 32000 41004 5//// 80225
AAXX 01184 78397 111572 61317 10308 20249 30141 40157 60001 70500 83801 333 01909 10326 20243 58012 83822 83073
AAXX 01184 89664 12861 61014 11016 21108 39804 49844 52012 69903 86070 333 56080 81657 86658 90987 93197
BBXX WDE3569 01184 99453 70833 41/97 82519 10016 2//// 49915 57001 75052 886// 22273 0//// 20202 3//// 4//// 5//// 6//// 8//// ICE /////
BBXX V7MO2 01184 99262 70914 41697 30803 10230 20185 40251 54006 70500 82//2 22200 00230 20101 3//// 40301 5//// 6//// 80200 ICE /////
BBXX NWS0029 01184 99415 70707 43/// /2605 10085 20034 40162 5//// 7//// 8//// 222// 04070 2//// 3//// 4//// 5//// 6//// 8//// ICE /////
BBXX NWS0003 01184 99539 71665 43/// /0000 11014 21029 40010 5//// 7//// 8//// 222// 0//// 2//// 3//// 4//// 5//// 6//// 8//// ICE /////
BBXX KAOU 01184 99016 10870 43/// /3105 10277 20223 40111 5//// 7//// 8//// 222// 04288 2//// 3//// 4//// 5//// 6//// 8//// ICE /////
BBXX NWS0021 01184 99322 70733 43/// /2705 10204 20119 40202 5//// 7//// 8//// 222// 04217 2//// 3//// 4//// 5//// 6//// 8//// ICE /////
BBXX NWS0020 01184 99261 70801 43/// /0508 10232 20150 40228 5//// 7//// 8//// 222// 04253 2//// 3//// 4//// 5//// 6//// 8//// ICE /////
BBXX ZCDG7 01184 99303 71168 41/91 /9903 10127 20127 40222 51014 74544 8//// 22243 00170 20000 300// 40000 5////
BBXX A8TG2 01183 99254 71179 41798 80506 10170 20135 40190 52020 702// 8/7// 22273 20103 304// 40103 5//// 80150
BBXX C6SW3 01184 99084 10830 41797 20505 10270 20243 40100 52020 7//// 80101 22224 00280 2//00 324// 4//// 5//// 6//// 80250 ICE /////
BBXX 51003 01181 99193 71606 46/// /0805 10238 40165 53012 91750 22200 00249 11003 20401 3//// 41003 70015 333 91206 555 11048 22050 31741 40806 61749 075046 075046 071049 070046 074048 073046
BBXX ONFE 01184 99095 10749 43/// /1714 10270 2023/ 4//// 5//// 7//// 8//// 22211 0//// 2//// 3//// 4//// 5//// 6//// 80240 ICE /////
BBXX C6XC2 01184 99362 11247 41497 83419 11010 21040 40280 54000 70222 8897/ 22212 00090 2//// 3//// 4//// 5//// 6//// 80020 ICE /////
BBXX C6SW3 01184 99084 10830 41797 20505 10270 20243 40100 52020 7//// 80101 22224 00280 2//00 324// 4//// 5//// 6//// 80250 ICE /////
BBXX C6SI6 01184 99457 11534 46/// /1707 10003 21042 40225 57002 7//// 8//// 22212 0//// 2////
BBXX A8ME3 01180 99209 11189 41297 80310 10210 20174 40170 56008 75052 8/7// 22213 04250 20604 304// 41007 5////
BBXX 46070 01181 99551 11753 46/// /3104 11021 21124 40061 54000 91750 22200 00031 11005 20401 3//// 41005 70027 333 91205 555 11042 22044 31658 43307 61749 311042 315044 310047 323047 324049 327047 83206 91705
BBXX VREX8 01184 99448 11294 41796 61719 10040 2113/ 40210 54000 71911 86478 22214 0//// 20205 31112 40205 50204 6//// 81010 ICE /////
BBXX C6VF5 01184 99131 10431 41997 01632 10250 2021/ 40130 5//// 70500 80000 22234 00270 2//// 315// 40608 5//// 6//// 80220 ICE /////
BBXX A8GH5 01183 99046 70266 41396 60517 10300 20200 40120 56010 70522 8577/ 22254 04270 20302 305// 40605 80230
BBXX DBLK 01181 99416 30100 41497 72814 10124 20079 40047 52003 71521 878// 22213 04132 20606 325// 41008
BBXX VQOG5 01184 99242 10527 41998 00406 10205 20205 40176 54000 70200 80000 22200 00197 2//00 300// 4//// 5//// 80205
BBXX BATFR19 01184 99067 30055 46/// /1818 10237 20195 40123 50007 22200 00257
BBXX BATFR08 01184 99279 30544 46/// /1112 10232 20149 40161 51019 22243 00260
BBXX BATFR05 01184 99088 70155 46/// /1008 10277 20162 40124 53015 22273 00262
BBXX HZDD 01183 99257 10530 41997 02206 10220 20153 40171 54000 70200 80000 22244 02210 299// 322// 40401 5//// 80180
BBXX PCSV 01183 99267 30035 41598 62209 10200 20141 40203 53/// 70211 82141 22273 04193 20501 323// 41004 80163
BBXX 44011 01181 99411 70666 46/// /2907 10088 20053 40161 54000 91750 22200 00092 10805 20503 3//// 40804 70025 333 91208 555 11077 22081 31741 41109 61749 288072 289066 286066 285062 287067 292068
BBXX 42363 01181 99282 70892 46/// /2407 10261 20183 40251 58013 91800 333 91207
BBXX 42362 01181 99278 70907 46/// /2204 10228 20206 40254 58014 91800
BBXX 41010 01181 99289 70785 46/// /2102 10226 40231 58022 91750 22200 00239 10901 300// 40901 70006 333 91202 555 11015 22016
BBXX 42057 01181 99168 70815 46/// /0610 10278 20228 40169 58012 91750 22200 00275 10704 20704 70020 333 91211 555 11096 22102 31653 40612 61749 056096 057099 060093 062098 059101 058104 80611 91653
BBXX 41009 01181 99285 70802 46/// /3102 10218 20168 40236 58022 91750 22200 00235 10901 300// 40901 70004 333 91203 555 11022 22022
BBXX VCRG 01184 99474 70619 46/// /3525 11002 21004 40072 53018 7//// 8//// 22200 0//// 2////
BBXX VOKJ 01184 99455 70735 46/// /0701 10004 21008 40103 58053 7//// 8//// 22200 0//// 2////
BBXX VXKF 01184 99462 70602 46/// /3518 10031 20030 40002 51028 7//// 8//// 22200 0//// 2////
BBXX VRYO3 01184 99456 70735 46/// /0704 11003 21013 40101 58050 7//// 8//// 22200 0//// 2////
BBXX VCWL 01184 99468 70712 46/// /0504 11030 21040 40141 58039 7//// 8//// 22200 0//// 2////
BBXX CGCC 01184 99463 70725 46/// /0507 11028 21030 40125 58041 7//// 8//// 22200 0//// 2////
BBXX CGBY 01184 99487 71235 46/// /2806 10037 20017 40262 57004 7//// 8//// 22200 0//// 2////
BBXX CGDG 01184 99447 70636 46/// /3318 10025 20052 40096 51017 7//// 8//// 22200 0//// 2////
BBXX CGJV 01184 99462 70631 46/// /3509 10001 21005 40097 51025 7//// 8//// 22200 0//// 2////
BBXX CGHL 01184 99476 70527 46/// /1015 10019 20017 49974 56078 7//// 8//// 22200 0//// 2////
BBXX VAAP 01184 99461 70602 46/// /3415 10033 20032 40003 51031 7//// 8//// 22200 0//// 2////
BBXX A8TG2 01183 99254 71179 41798 80506 10170 20135 40190 52020 702// 8/7// 22273 20103 304// 40103 5//// 80150
BBXX KCGH 01183 99247 70735 43/// ///// 1//// 2//// 4//// 5//// 7//// 8//// 22211 0//// 2//// 3//// 4//// 5//// 6//// ICE /////
BBXX WDD6126 01184 99254 70855 41598 40407 10240 2016/ 40232 57015 7//00 81106 22274 00236 20401 314// 40602 5//// 6//// 80190 ICE /////
BBXX 9HXD9 01184 99244 70747 41898 71614 1//// 2//// 40190 54/// 76262 8696/ 22274 04270 21004 315// 4//// 5//// 6//// 8//// ICE /////
BBXX C6T2064 01183 99301 70746 41598 23010 10240 2016/ 40220 54000 70200 81230 22264 20302 80190
BBXX ZCDG7 01184 99303 71168 41/91 /9903 10127 20127 40222 51014 74544 8//// 22243 00170 20000 300// 40000 5////
BBXX WDE9193 01183 99269 70916 41797 30505 10310 2024/ 40229 58011 70222 82415 22272 0//// 20201 316// 40602 5//// 6//// 80255 ICE /////
BBXX DDBR2 01184 99206 70604 41297 81127 10250 20204 40210 56020 75811 887// 22264 00250 20502 310// 41005 5//// 80220
BBXX VOPP 01184 99456 70735 46/// /0702 11005 21004 4//// 5//// 7//// 8//// 22200 0//// 2////
BBXX VCLM 01184 99468 70712 46/// /0604 11014 21032 40134 58039 7//// 8//// 22200 0//// 2////
BBXX CGBN 01184 99447 70636 46/// /3115 10029 20004 40095 51018 7//// 8//// 22200 0//// 2////
BBXX CGDT 01184 99468 70712 46/// /0505 11013 21030 40142 58039 7//// 8//// 22200 0//// 2////
BBXX VCBW 01184 99456 70735 46/// /0605 11004 21014 40106 58050 7//// 8//// 22200 0//// 2////
BBXX 3FZK3 01184 99489 71237 46/// /2805 10038 20019 40262 56008 7//// 8//// 22200 0//// 2////
BBXX CGDR 01184 99486 71232 46/// /0109 10065 20023 40252 56007 7//// 8//// 22211 00100 2////
BBXX CGDX 01184 99468 70712 46/// /0406 11027 21035 40143 58038 7//// 8//// 22200 0//// 2////
BBXX PCGQ 01181 99183 50384 41398 70308 10268 20236 40087 58/// 70382 877// 22253 04259 20502 309// 40602 80245
BBXX 32012 01181 99197 50856 46/// ///// 1//// 91750 22200 11403 70016
BBXX A8DE3 01183 99475 50758 41398 63112 10137 20098 40270 52014 70211 85461 22244 20303 323// 40707 80115
BBXX DBUT 01181 99242 50452 41598 72811 10265 20215 40091 57020 70162 83525 22265 20804 308// 41205 5//// 80230
BBXX UFTA 01181 99845 71198 11997 82306 11246 21275 40045 54000 69922 73673 80001
BBXX 46239 01181 99363 71221 46/// ///// 1//// 91751 22200 00118 11205 21002 330// 41204 70023
BBXX 46238 01181 99334 71195 46/// ///// 1//// 91750 22200 00140 11503 21002 328// 41503 70017
BBXX WDD3826 01184 99375 70398 41698 62119 10190 2016/ 40304 56026 78022 862/8 22264 00170 20202 332// 40804 5//// 6//// 80170 ICE /////
BBXX DDAC2 01180 99512 71525 41397 83412 11010 21044 40010 52020 7//22 86770 22273 04056 20606 309// 40908 5//// 81022
BBXX OXBB2 01181 99133 70748 41798 50914 10260 20225 40120 58010 70322 84441 22255 00270 20406 80235
BBXX 46219 01181 99332 71199 46/// ///// 1//// 91758 22200 00137 11304 21002 329// 41304 70022
BBXX 46213 01181 99403 71247 46/// ///// 1//// 91754 22200 00108 11104 20903 329// 41103 70019
BBXX 46224 01181 99332 71175 46/// ///// 1//// 91736 22200 00146 11302 21001 321// 41302 70009
BBXX 46225 01181 99329 71174 46/// ///// 1//// 91744 22200 00149 11302 21001 327// 41302 70010
BBXX 46215 01181 99352 71209 46/// ///// 1//// 91738 22200 00126 11304 21002 327// 41303 70018
BBXX 46232 01181 99325 71174 46/// ///// 1//// 91738 22200 00146 11303 21002 327// 41303 70016
BBXX 46229 01181 99438 71246 46/// ///// 1//// 91751 22200 00098 11004 21003 326// 41102 70019
BBXX 46243 01181 99462 71241 46/// ///// 1//// 91759 22200 00089 11104 21003 324// 41102 70019
BBXX 46236 01181 99368 71219 46/// ///// 1//// 91750 22200 00120 11303 21002 328// 41303 70017
BBXX 46214 01181 99379 71235 46/// ///// 1//// 91750 22200 00119 11304 21003 328// 41303 70022
BBXX 46211 01181 99469 71242 46/// ///// 1//// 91736 22200 00084 11003 21003 325// 41102 70017
BBXX 46247 01181 99378 71228 46/// ///// 1//// 91751 22200 00113 11304 21003 328// 41303 70019
BBXX 44099 01181 99369 70757 46/// ///// 1//// 91752 22200 00106 10701 20701 70006
BBXX 41113 01181 99284 70805 46/// ///// 1//// 91751 22200 00218 11001 21001 70003
BBXX 42099 01181 99273 70842 46/// ///// 1//// 91757 22200 00225 10601 20601 70003
BBXX 44100 01181 99363 70756 46/// ///// 1//// 91752 22200 00124 10901 20901 70006
BBXX 41112 01181 99307 70813 46/// ///// 1//// 91751 22200 00170 10901 20901 70003
BBXX 41110 01181 99341 70777 46/// ///// 1//// 91751 22200 00137 10501 20501 70004
BBXX 44097 01181 99410 70711 46/// ///// 1//// 91802 22200 00110 10702 20702 70010
BBXX 44008 01181 99405 70692 46/// /2605 10098 20057 40175 57018 91750 22200 00112 10603 20401 326// 40603 70017 333 91206 555 11052 22054 31650 42507 61749 256051 255048 258041 265036 271047 269046
BBXX 51101 01181 99243 71621 46/// /1503 10222 20185 40177 53011 91750 22200 00238 11406 20401 335// 41406 70028 333 91205 555 11035 22036 31732 41407 61749 146035 142051 152037 161026 173035 163038
BBXX 46061 01181 99602 71468 46/// /3313 11032 49937 56047 91750 22200 00053 10802 20402 300// 40801 70012 333 91215 555 11136 22142 31736 43216 61749 326127 327128 326129 325130 326128 326128
BBXX 46083 01181 99582 71380 46/// /1121 10020 20019 49883 56056 91750 22200 00063 11311 20809 300// 41307 70057 333 91225 555 11227 22244 31739 41127 61749 109212 111219 111214 112214 113210 112214 81123 91736
BBXX 46089 01181 99459 71258 46/// /1408 10098 20070 40184 55000 91750 22200 00092 11005 20704 324// 41004 70027 333 91210 555 11087 22094 31651 41311 61749 136082 138086 136088 134084 135092 135097
BBXX 41046 01181 99238 70683 46/// /1006 10251 20206 40211 58026 91750 22200 00254 10903 20502 300// 40903 70017 333 91207 555 11062 22065 31744 41007 61749 101058 100055 094053 100051 101051 102055 81006 91744
BBXX 46027 01181 99419 71244 46/// /1402 10106 40201 53012 91750 22200 00090 11103 327// 41103 70016 333 91202 555 11018 22021 31749 41402 61749 137014 135011 124005 107003 103006 085011
BBXX 46012 01181 99374 71229 46/// /1003 10124 40212 51017 91750 22200 00119 11104 20401 331// 41104 70019 333 91204 555 11029 22034 31712 41205 61749 097026 095026 092030 108033 117035 126032
BBXX 46011 01181 99350 71210 46/// /1603 10102 40219 51015 91750 22200 00130 11305 20401 328// 41305 70024 333 91204 555 11026 22026 31654 41205 61749 158025 149025 135025 129027 125026 117033
BBXX 46047 01181 99324 71195 46/// /1403 10108 40224 51020 91750 22200 00134 11504 330// 41504 70022 333 91205 555 11031 22032 31650 41406 61749 140032 141031 126030 147032 156031 152033
BBXX 41008 01181 99314 70809 46/// /2205 10150 20149 40221 58028 91750 22200 00164 10901 20301 70004 333 91206 555 11053 22056 31651 42207 61749 224052 225051 227051 228055 222059 220058
BBXX 46014 01181 99394 71240 46/// /0702 10107 40216 51006 91750 22200 00108 11104 3//// 41104 70021 333 91204 555 11019 22020 31749 40805 61749 074016 070013 078020 080029 073034 078037
BBXX 44060 01181 99413 70721 46/// ///02 10076 40162 91745 22200 00095 333 91202 555 11021 22021
BBXX 41004 01181 99325 70791 46/// /2207 10202 20132 40208 58031 91750 22200 00209 10301 20301 70005 333 91209 555 11076 22081 31715 42109 61749 220073 220071 218070 215069 215070 218063
BBXX 44039 01181 99411 70727 46/// /1401 10086 20053 40169 91745 22200 00088 1//00 70002 333 91202
BBXX 44009 01181 99385 70747 46/// /1807 10105 40177 58046 91750 22200 00103 10701 20301 300// 40701 70006 333 91208 555 11070 22075 31733 41808 61749 176064 175065 178067 178064 177063 180067
BBXX 44022 01181 99409 70737 46/// ///06 10094 20038 40155 91745 22200 00073 333 91208 555 11072 22077
BBXX 44025 01181 99402 70732 46/// /2006 10089 20053 40160 58039 91750 22200 00101 10701 20401 317// 40701 70006 333 91207 555 11063 22066 31744 42007 61749 197058 198054 198050 197048 194044 194039
BBXX 44014 01181 99366 70748 46/// /0607 1//// 40180 58044 91750 22200 00145 10501 20501 318// 40901 70007 333 91208 555 11070 22070 31732 40608 61749 063068 062070 065064 066064 066062 066060
BBXX 46075 01181 99539 71608 46/// /2412 10024 21024 40024 56022 91750 22200 00039 10908 20806 300// 40906 70041 333 91215 555 11128 22136 31653 42417 61749 235119 234114 238132 239126 237134 239140 82415 91657
BBXX 46059 01181 99380 71300 46/// /1511 10139 40150 55000 91750 22200 00136 10604 20604 3//// 41302 70021 333 91212 555 11113 22121 31712 41615 61749 152105 154105 155110 153109 151111 149107
BBXX 46080 01181 99580 71500 46/// /3212 11030 21095 49955 56042 91750 22200 00044 10705 20705 70026 333 91214 555 11127 22133 31712 43415 61749 323120 328118 328118 329118 331116 333116 83313 91718
BBXX 46005 01181 99461 71310 46/// ///14 10114 40044 56003 91750 22200 00099 10907 20806 3//// 40904 70036 333 91217 555 11149 22161
BBXX 46084 01181 99566 71361 46/// ///// 10053 20049 49915 56039 91750 22200 00068 11213 70067
BBXX 46006 01181 99408 71375 46/// /2304 10119 49998 51036 91750 22200 00121 10907 20401 3//// 40907 70036 333 91206 555 11047 22049 31739 42306 61749 229044 227046 223033 203031 196030 202024
BBXX 46002 01181 99426 71305 46/// ///// 10129 40092 56006 91750 22200 00119 10806 70032
BBXX 44005 01181 99432 70691 46/// /0000 10069 20038 40152 58011 91750 22200 00082 10702 20401 3//// 40702 70009 333 91201 555 11005 22005 31652 43502 61749 249004 275005 268009 265010 300009 337012
BBXX VOFG 01184 99456 70614 46/// /3322 10033 20032 40036 51041 7//// 8//// 22200 0//// 2////
BBXX VCSZ 01184 99472 70588 46/// /3524 10029 20031 49993 56023 7//// 8//// 22234 0//// 2////
BBXX CGTF 01184 99476 70527 46/// /3112 10019 20017 49972 56080 7//// 8//// 22200 0//// 2////
BBXX VOKF 01184 99490 70669 46/// /2604 11025 21050 40147 57008 7//// 8//// 22200 0//// 2////
BBXX CZ9742 01184 99506 70969 46/// /3119 11086 21130 4//// 5//// 7//// 8//// 22200 0//// 2////
BBXX CGSB 01184 99483 70709 46/// /1401 11058 21082 40142 57030 7//// 8//// 22200 0//// 2////
BBXX CGUM 01184 99463 70601 46/// /3418 10031 20030 40007 51025 7//// 8//// 22211 0//// 2////
BBXX CGBR 01184 99525 71288 46/// /0214 10053 20048 40091 56030 7//// 8//// 22200 0//// 2////
BBXX VOLG 01184 99461 70588 46/// /3630 10034 20029 49954 53006 7//// 8//// 22222 0//// 2////
BBXX VCXF 01184 99464 70484 41/90 92027 10065 2006/ 49974 57083 74742 89/// 22200 02022 20504 33523 41007 50902 80065
BBXX 46026 01181 99378 71228 46/// /0909 10121 40213 51019 91750 22200 00112 11303 20402 328// 41303 70016 333 91211 555 11098 22106 31653 42913 61749 086091 283092 281094 283095 283097 283095
BBXX 46041 01181 99474 71247 46/// /1212 10091 40196 56009 91750 22200 00088 10904 20603 3//// 40903 70022 333 91215 555 11126 22135 31724 41217 61749 122119 119121 118127 120125 117128 119129
BBXX 42085 01181 99179 70665 46/// /1010 1//// 91740 333 91212
BBXX 46035 01181 99571 71778 46/// /0410 1//// 40063 52009 91750 22200 10907 20805 300// 40905 70035 333 91213 555 11102 22109 31708 40415 61749 035102 036114 032109 028104 025102 020104 80513 91708
BBXX 42039 01181 99288 70860 46/// /2505 10227 40235 58020 91750 22200 00231 10601 70003 333 91206 555 11053 22055 31650 42606 61749 252050 245049 239047 236045 234047 226046 82605 91750
BBXX 41040 01181 99145 70530 46/// /0710 10265 20221 40153 56024 91750 22200 00268 11007 20805 3//// 41004 70033 333 91212 555 11105 22111 31651 40713 61749 073097 068098 068099 068103 071102 069107 80712 91651
BBXX 46072 01181 99517 71722 46/// /1606 10015 21032 40011 56017 91750 22200 00042 11105 20502 3//// 41105 70027 333 91208 555 11067 22070 31745 41608 61749 158064 152060 153060 154054 054032 057030 81607 91745
BBXX 46077 01181 99579 71543 46/// /0803 11069 21121 40036 56032 91750 22200 00036 10401 20301 3//// 40401 70004 333 91204 555 11030 22030 31650 41206 61749 079030 101029 104030 109027 094029 112026 81304 91651
BBXX 46082 01181 99597 71434 46/// ///// 10029 49878 58065 91750 22200 00060 11111 70057
BBXX VOXS 01184 99467 70480 41296 81126 10054 2004/ 40008 56093 70266 886// 22200 04016 20504 335// 40808 80050
BBXX PCEO 01183 99227 70522 41598 4//01 10262 20223 40225 56025 7//00 83307 22254 04254 2//// 315// 41204 5//// 80234
BBXX PHQX 01183 99141 70671 41798 20911 10285 20222 40165 54000 70200 82101 22254 20604 310// 40904 5//// 80240
BBXX BATEU04 01184 99617 70497 46/// /3617 11122 21233 40004 55008 22243
BBXX FVNM 01184 99151 70827 46/// /0619 10279 20235 40150 58014 22281 00277
BBXX BATFR13 01184 99240 70525 44798 60917 10247 20192 40241 56016 70322 86565 22254 00257 20410 308// 40804 5////
BBXX VQAJ8 01183 99486 71225 41298 83510 10056 20001 40251 54000 70200 87778 22200 00100 20201 300// 40000 5//// 80035
BBXX 4XFV 01183 99381 71639 41197 82440 10155 20135 49900 56010 70252 88722 22224 0//// 20507 318// 40714 80145
BBXX WDC6644 01184 99475 71334 41396 81826 10100 2009/ 49980 56060 76366 887// 22273 00094 20201 315// 41007 5//// 6//// 80094 ICE /////
BBXX WCX8883 01184 99372 71285 41297 81822 10140 2012/ 40180 52010 7//22 886// 22235 00140 20803 31917 40602 5//// 6//// 80130 ICE /////
BBXX V7MO2 01184 99262 70914 41697 30803 10230 20185 40251 54006 70500 82//2 22200 00230 20101 3//// 40301 5//// 6//// 80200 ICE /////
BBXX LAIG7 01184 99255 71248 41497 80407 10180 2013/ 40220 52030 70222 8892/ 22223 00191 20201 301// 40403 5//// 6//// 80150 ICE /////
BBXX BAREU54 01184 99096 70800 46/// ///// 40099 57025 22223
BBXX BAREU04 01184 99421 70662 46/// ///// 40151 57011 22213
BBXX 44007 01181 99435 70701 46/// /1503 10071 20071 40146 58023 91750 22200 00067 10801 3//// 40801 70006 333 91203 555 11031 22035 31705 41704 61749 150028 168017 161022 164028 174029 182028
BBXX 41101 01184 99146 70562 46/// /0822 10266 20218 40142 57026 22200 00268 10806 70028 555 1/027
BBXX 44027 01181 99443 70673 46/// /3406 10010 21017 40149 51004 91750 22200 00077 10402 20401 3//// 40801 70008 333 91208 555 11065 22067 31743 43408 61749 336063 335062 336058 349052 359059 004060
BBXX 41013 01181 99334 70777 46/// /2107 10195 20079 40193 58035 91750 22200 00187 10501 20501 313// 40801 70006 333 91208 555 11080 22087 31739 42109 61749 212074 215072 214069 214067 212064 214060
BBXX 46054 01181 99342 71204 46/// /1602 10094 40222 51020 91750 22200 00129 11204 20301 300// 41204 70022 333 91204 555 11024 22024 31734 41604 61749 160023 163028 141023 140013 134010 124011
BBXX 46029 01181 99461 71245 46/// /1009 10091 20034 40196 56010 91750 22200 00089 11105 20503 325// 41104 70025 333 91212 555 11101 22108 31746 41012 61749 102094 102094 102095 100092 098096 098097
BBXX 44020 01181 99414 70702 46/// /2302 10079 20064 40163 58023 91750 22200 00066 1//00 70002 333 91202 555 11019 22020 31701 42704 61749 243017 325015 289022 268031 265038 262034
BBXX 46028 01181 99357 71219 46/// /1304 10137 40206 51016 91750 22200 00131 11204 20401 329// 41204 70021 333 91205 555 11043 22048 31743 41305 61749 128039 131037 133036 128033 121033 119031
BBXX 46025 01181 99337 71191 46/// /1401 10106 20106 40221 51022 91750 22200 00145 11402 324// 41402 70011 333 91203 555 11011 22011 31705 41404 61749 142012 151014 140015 135016 141022 139020
BBXX 46087 01181 99485 71247 46/// /1214 10077 20031 40221 55008 91750 22200 00078 10904 20503 322// 40903 70018 333 91217 555 11151 22162 31704 41117 61749 117140 119135 117140 117133 115139 114140
BBXX 44040 01181 99410 70736 46/// /2304 10095 20034 40161 91745 22200 1//00 70000 333 91208 555 11051 22062
BBXX 44065 01181 99404 70737 46/// /1806 10085 20053 40158 58043 91750 22200 00094 10701 20301 316// 40701 70005 333 91207 555 11061 22064 31650 41807 61749 183058 181058 186055 187050 178045 165038 81906 91745
BBXX 46013 01181 99382 71233 46/// /0808 10110 40213 53016 91750 22200 00108 11204 20402 3//// 41203 70019 333 91209 555 11082 22087 31725 40911 61749 076077 076079 078084 077086 078088 083086
BBXX 46088 01181 99483 71232 46/// /0606 10067 40242 57006 91750 22200 00076 10301 20301 70005 333 91207 555 11061 22064 31651 40609 61749 062058 062065 064075 063076 058071 059073
BBXX 46050 01181 99442 71246 46/// /1106 10088 40198 55000 91750 22200 00093 10904 20301 324// 40904 70020 333 91208 555 11067 22070 31651 41008 61749 108062 109059 105059 102060 107061 106062
BBXX 46086 01181 99325 71180 46/// /0000 10110 40227 51023 91750 22200 00151 11504 329// 41504 70018 333 91201 555 11004 22004 31710 41402 61749 092004 137002 124004 136008 173010 091005
BBXX 46069 01181 99337 71202 46/// /1504 10098 40225 52022 91750 22200 00132 11405 329// 41405 70023 333 91205 555 11036 22037 31744 41405 61749 154035 153030 143032 153023 148027 162030
BBXX 42003 01181 99260 70856 46/// /0101 1//// 91750 22200 10501 314// 40501 70003 333 91203 555 11015 22016 31749 40103 61749 007013 014014 026014 014013 042014 040015 80102 91749
BBXX 41043 01181 99211 70650 46/// /0908 10255 20211 40206 58026 91750 22200 00258 11005 20703 300// 41003 70023 333 91210 555 11085 22091 31713 41010 61749 092080 094082 096084 102085 101081 099080 81009 91735
BBXX 41036 01181 99342 70770 46/// ///// 10196 20062 40189 58039 91750 22200 00200 10501 70007
BBXX 42002 01181 99258 70937 46/// /1502 10249 20229 40250 50000 91750 22200 00248 10602 316// 40602 70008 333 91203 555 11022 22023 31749 41603 61749 152021 158016 151016 142020 142019 133020
BBXX 44066 01181 99396 70726 46/// /2207 10105 20065 40170 58037 91750 22200 00127 10502 20501 3//// 40801 70008 333 91209 555 11076 22080 31742 42209 61749 216072 218072 208065 216061 214059 209059
BBXX 42040 01181 99292 70882 46/// /2505 10208 40234 58017 91750 22200 00201 10401 70003 333 91205 555 11046 22052 31749 42505 61749 249046 250046 253042 256041 243039 236039
BBXX C6TQ6 01184 99299 70900 41697 62905 10200 20169 40250 54000 70222 8656/ 22200 00160 2//// 39999 4//// 5//// 6//// 80180 ICE /////
BBXX WDC6698 01184 99213 71579 43/// /1202 1//// 2//// 40160 5//// 7//// 8//// 222// 04237 2//// 3//// 4//// 5//// 6//// 8//// ICE /////
BBXX WSNB 01184 99526 71383 41297 81830 00/// 10090 2007/ 49800 57033 75152 886// 22273 0//// 20711 318// 41010 5//// 6//// 80078 ICE /////
BBXX NWS0022 01184 99416 70714 43/// /2110 10111 20055 40150 5//// 7//// 8//// 222// 04098 2//// 3//// 4//// 5//// 6//// 8//// ICE /////
BBXX DNCQ 01183 99199 71069 41998 30104 10242 20179 40162 50000 70200 80002 22234 04240 20201 331// 40301 5//// 80200
BBXX WSLH 01184 99233 71534 41598 40409 10211 2016/ 40180 5//// 70200 8428/ 22253 00189 20101 332// 40902 5//// 6//// 80178 ICE /////
BBXX A8PX5 01184 99361 71422 41597 32925 10120 20102 40080 52040 70100 8/4// 22224 04160 20907 327// 41208 5//// 80110
BBXX LAVD4 01184 99213 71628 41499 40811 10220 2019/ 40173 51009 70311 83460 22273 00230 20603 332// 41205 80200
BBXX HZRX 01183 99254 70799 41497 40317 /// 10250 20200 40233 55002 70311 84100 22214 10140 20102 30303 40201 5//// 6//// 80180 ///// /////
BBXX 42019 01181 99279 70954 46/// /0112 10181 20107 40264 50010 91750 22200 10604 20604 70021 333 91215 555 11132 22141 31704 42916 61749 353124 284122 283127 283125 283131 284127
BBXX 42055 01181 99222 70940 46/// /0805 10255 20226 40227 50000 91750 22200 00251 10602 20501 309// 40601 70009 333 91206 555 11056 22061 31650 40707 61749 079052 078054 075052 072053 078053 079054 80806 91750
BBXX 42059 01181 99151 70675 46/// /0910 10274 20211 40154 58025 91750 22200 00277 10704 20704 3//// 40802 70022 333 91211 555 11103 22109 31715 40812 61749 091094 087093 089095 087099 085092 087089 80911 91715
BBXX 42060 01181 99163 70635 46/// /0709 10269 20212 40167 58028 91750 22200 00274 10704 20704 300// 41002 70022 333 91211 555 11095 22101 31728 40612 61749 066089 066091 064090 064082 067080 062082 80610 91727
BBXX 42058 01181 99149 70749 46/// /0812 10274 20216 40129 58023 91750 22200 00271 10906 20605 310// 40903 70031 333 91215 555 11128 22137 31724 40815 61749 082119 081116 082115 085115 079112 079105 80813 91724
BBXX 42056 01181 99198 70849 46/// /0709 10267 20244 40190 58014 91750 22200 00270 10603 20603 70017 333 91211 555 11097 22103 31705 40611 61749 070091 070091 075087 072091 068096 071090 80710 91706
BBXX 42036 01181 99285 70845 46/// /2004 10216 20187 40236 58014 91750 22200 00214 10501 70003 333 91205 555 11041 22045 31652 41905 61749 203038 208036 206037 197039 199036 194039
BBXX 42012 01181 99301 70876 46/// /2205 10195 20186 40224 58020 91750 22200 00179 10301 20301 70003 333 91206 555 11060 22069 31737 42206 61749 219055 220056 219053 215052 213051 211050
BBXX 42035 01181 99292 70944 46/// /3610 10151 20075 40275 50012 91750 22200 00151 10402 20402 70011 333 91212 555 11111 22119 31655 43614 61749 359104 358113 358106 358113 356108 358116
BBXX 41049 01181 99275 70630 46/// /1803 10234 20194 40234 56026 91750 22200 00235 10903 20401 300// 40903 70015 333 91204 555 11032 22033 31650 41804 61749 179030 178026 178023 178025 181027 177031 81803 91651
BBXX 41044 01181 99217 70587 46/// /0908 10255 20197 40212 56022 91750 22200 00258 11007 20604 300// 41005 70034 333 91210 555 11089 22094 31735 40810 61749 088082 087080 090082 093081 095080 094085 80909 91654
BBXX 41048 01181 99320 70696 46/// /2704 10219 20148 40216 58026 91750 22200 00222 11004 20301 3//// 41004 70019 333 91204 555 11035 22036 31735 42705 61749 269035 273039 270036 276037 278035 280034 82704 91735
BBXX 41001 01181 99347 70727 46/// ///// 10192 20096 40207 58030 91750 22200 00215 10704 70018
BBXX 42001 01181 99259 70897 46/// /1302 10245 20189 40252 58007 91750 22200 00244 10501 20401 3//// 40501 70004 333 91202 555 11020 22022 31749 41203 61749 130017 128013 124017 129016 123014 119019
BBXX 41012 01181 99300 70805 46/// /2504 10190 40229 58025 91750 22200 00231 10901 20301 314// 40901 70004 333 91205 555 11046 22047 31730 42606 61749 253044 253048 264051 261050 257046 253044
BBXX 42065 01181 99170 70817 46/// /0609 10271 20227 91750 22200 10803 20703 3//// 40801 70017 333 91211 555 11096 22103 31717 40611 61749 058088 055085 057085 053089 054087 053087 80510 91718
BBXX 41060 01181 99148 70510 46/// ///// 1//// 91750 22200 11106 70032
BBXX 42020 01181 99270 70967 46/// /0213 10175 20107 40271 51013 91750 22200 00197 10704 20704 70022 333 91215 555 11134 22142 31728 40216 61749 017127 014127 015135 018126 019130 017127
BBXX 46105 01181 99590 71522 46/// ///// 1//// 91750 22200 10705 70025
BBXX 41047 01181 99275 70715 46/// /1103 10245 40225 57027 91750 22200 00258 10902 312// 40902 70010 333 91203 555 11026 22027 31707 40904 61749 106025 106024 103025 096027 091029 088026 80903 91708
BBXX ZCBH7 01184 99023 31093 41597 33510 10283 20266 40121 52031 70322 8/244 22273 04291 20201 334// 40202 5//// 80271
BBXX ZCBZ5 01183 99031 11085 41/96 70218 10274 20240 40096 52001 70022 8//// 22224 02275 20303 302// 40504 5//// 80250
BBXX A8SF7 01181 99202 51309 41398 51005 10255 20210 40180 54000 70311 8526/ 22254 04240 20501 310// 41003 5//// 80225
BBXX BATFR53 01184 99172 51272 46/// /0607 10250 20192 40182 54/// 22222 00259
BBXX PCHM 01184 99341 31692 41598 51825 10180 20163 40131 53022 70311 84448 22264 00190 20205 327// 40205 80170
BBXX TBWUK42 01184 99074 30805 41598 63110 10280 20244 40116 52/// 71600 81805 22213 20502 315// 40504 5//// 80255
AAXX 0118/ 89872 46/// ///// 11065 39798 4//// 5////
AAXX 0118/ 89869 46/// ///// 11074 39798 4//// 5////
AAXX 0118/ 89866 46/// ///// 11018 39735 4//// 5////
AAXX 0118/ 89329 46/// ///// 11108 38730 4//// 5////
AAXX 0118/ 89327 46/// ///// 11029 39639 4//// 5////
AAXX 0118/ 89769 46/// ///// 11056 39818 4//// 5////
AAXX 0118/ 89879 46/// ///// 11014 39741 4//// 5////
BBXX CG2350 01184 99433 70798 46/// /1915 10069 20055 49993 58068 7//// 8//// 22200 0//// 2////
BBXX CG2960 01184 99429 70824 46/// /2201 10077 20049 49969 56046 7//// 8//// 22200 0//// 2////
BBXX CGDS 01184 99429 70792 46/// /2616 10068 20045 40011 58060 7//// 8//// 22200 0//// 2////
AAXX 01184 89667 46/// /0507 11052 39851 4//// 5////
BBXX DBBH 01181 99378 10155 41/98 /3004 10145 20048 40257 52021 70200 8/000 22271 04158
BBXX MCUV3 01183 99409 70211 41498 63225 10145 20117 40292 5/000 70222 84448 22253 2//07 332// 4//07 5//// 80130
BBXX VRCZ7 01183 99395 70101 41/97 42720 10155 20128 40263 52/// 70111 8//// 22244 2//// 3//// 4//// 5//// 80140
BBXX DBND 01181 99536 10086 46/// /1906 10103 20103 40040 57018 22240 00067
BBXX DBKR 01181 99541 10121 46/// /2104 10094 20094 40062 54001 22200 00055
BBXX DBBC 01181 99535 10100 46/// /1702 10101 20092 40057 57012 22220 00054
BBXX DBBI 01181 99535 10100 46/// /1602 10101 20101 40057 57011 22240 00052
BBXX DBEB 01181 99539 10079 41/// /1911 10084 20084 40025 57021 7//// 22200 00062
BBXX DBEA 01181 99540 10082 46/// /1810 10081 20074 40030 57017 22221 00060
BBXX DBJM 01181 99540 10085 46/// /1911 10087 20079 40032 57018 22270 00060
BBXX DBFR 01181 99535 10086 46/// /1904 10103 20101 40043 57017 22240 00058
BBXX DK7210 01181 99540 10066 46/// /1909 10096 20096 39991 222// 20603 70015
BBXX C6LU3 01183 99380 70288 41598 53414 10180 2013/ 40340 53015 70211 84201 22254 20302 328// 40906 80150
BBXX ZQTP2 01184 99365 70003 41598 12418 10155 20128 40264 53002 70200 81500 22263 00160 20503 30000 4//// 5//// 80140
BBXX WAHV 01184 99377 10059 41898 72510 10150 2012/ 40265 52012 70110 8383/ 22264 00161 20602 329// 41002 5//// 6//// 80130 ICE /////
BBXX WBP3210 01184 99656 51056 43/// /1309 10014 2//// 49796 5//// 7//// 8//// 22252 00019 2//// 3//// 4//// 5//// 6//// ICE /////
BBXX WCX7445 01184 99626 50622 43/// /3605 10033 2//// 49837 5//// 7//// 8//// 22233 00009 2//// 3//// 4//// 5//// 6//// ICE /////
AAXX 01184 78906 11476 51006 10288 20211 30152 40157 60021 71581 84840 333 10293 20221 59001 70156 84817 90945
AAXX 01184 48409 32960 20404 10212 20176 39991 40142 57004 80001 333 59010
AAXX 01184 60645 36/// /0000 10167 21052 333 10205
AAXX 01184 60621 36/// /0808 10176 21069 333 10210
AAXX 01184 60619 36/// /0409 10123 21045 333 10170
BBXX 62087 01181 99547 10068 46/// /0503 10090 20088 4//// 5//// 22270 00079
AAXX 01184 78922 46/// /0916 10264 20214 30114 40159 56025
AAXX 01184 60663 36/// /0905 10137 21107 333 10177
AAXX 01181 26509 11457 81105 11001 21013 30088 40097 57013 69902 77172 8872/ 333 10030 88510 91009 91110 555 53010
AAXX 01181 26518 32260 81606 11016 21019 40116 57013 8872/ 333 11015 88705 91009 91111 555 4/997 53011
AAXX 01181 26524 32998 81603 11011 21017 39988 40124 58016 8801/ 333 11005 91005 91108 555 53008
AAXX 01181 26531 32960 71703 11004 21016 40138 58007 87050 333 10016 21005 91005 91107 555 53007
AAXX 01181 26629 32861 81605 11012 21018 30045 40143 57009 8807/ 333 10006 91008 91108 555 4/001 53008
AAXX 01181 26633 31557 71501 11020 21029 30018 40153 58005 71022 84552 333 10002 91003 91106 555 4/003 53006
AAXX 01181 26730 31650 71603 11029 21029 39965 40162 58005 71022 82530 333 11011 91004 91104 555 43004 53004
BBXX 61002 01184 99421 10047 46/// /0000 10135 2//// 40230 52002 22200 00133 10502 70009
BBXX TFBKF 01184 99635 70202 46/// ///// 22200 10706 70028
BBXX TFDRN 01184 99658 70212 46/// ///// 22200 10806 70029
BBXX TFGRS 01184 99663 70182 46/// ///// 22200 10806 70032
BBXX TFGRV 01184 99638 70225 46/// ///// 22200 10907 70037
BBXX TFGSK 01184 99641 70229 46/// ///// 22200 11007 70035
BBXX TFHFN 01184 99642 70152 46/// ///// 22200 10907 70033
BBXX TFKGR 01184 99657 70136 46/// ///// 22200 10805 70024
BBXX TFSRT 01184 99633 70203 46/// ///// 22200 11109 70047
BBXX TFSTD 01184 99664 70234 46/// ///// 22200 10810 70049
AAXX 01184 04005 21460 70216 11028 21059 49659 52005 78582 87800 333 11018 21029 69918 555 3/316
AAXX 01184 04018 22584 70610 10000 21008 49613 56003 70287 87830 333 10007 21021 69918 555 3//11 82830 85640 87650
AAXX 01184 04030 31581 50806 11009 21035 49620 57003 71522 81531 333 10012 21023 555 3//08 81625 84357
AAXX 01184 04048 21420 61019 10004 21010 49610 57012 72688 86900 333 10019 21004 60058 555 3/620
AAXX 01184 04063 21450 81502 11022 21031 49645 52005 78582 8572/ 333 11011 21025 60018 555 3//03
AAXX 01184 04077 NIL
AAXX 01184 04082 NIL
AAXX 01184 04097 32689 32901 10008 21066 49645 52008 83200 333 10027 21006 555 3/303
AAXX 01184 60612 36/// /0411 10140 21080 333 10167
AAXX 01184 85041 11458 83404 10257 20254 39810 40074 57034 60131 71796 85907 333 56000 58008 83815 82920 88270 91015
AAXX 01184 85140 12370 80000 10265 20245 39890 40100 57037 60101 8752/ 333 56700 58010 87608 88458
AAXX 01184 85141 12384 70000 10260 20235 39860 40091 57040 60061 84504 333 56707 58012 81608 84615 87070
AAXX 01184 85151 NIL
AAXX 01184 85152 11358 81703 10248 20234 39864 40096 57026 60251 75062 8672/ 333 56339 58014 86710 88457
AAXX 01184 85201 31465 83011 10080 20054 36302 57011 71522 85963 333 56000 59013 83815 82917 84357 87070
AAXX 01184 85230 NIL
AAXX 01184 85242 32484 60908 10150 20072 36550 57020 82308 333 56202 58003 81817 81920 86270
AAXX 01184 89664 12861 61014 11016 21108 39804 49844 52012 69903 86070 333 56080 81657 86658 90987 93197
BBXX DDYZ2 01184 99356 10172 41999 03605 10160 20078 40255 52015 7//// 80000 22224 06170 2//// 80115
BBXX A8IH2 01183 99052 51540 41599 60708 10280 20217 40140 53010 7//22 86162 22254 06270 21002 323// 41203 5//// 80235
BBXX PFBF 01184 99144 51706 41398 20502 10282 20279 40060 51002 70300 8114/ 22200 02283 20304 318// 40608 5//// 80280
AAXX 01184 48552 01430 80000 10232 20226 30097 40104 57012 61203 76362 8627/ 333 59008 60267 71222
AAXX 01184 48566 01560 80000 10234 20220 30105 40113 57009 60183 70262 82847 333 59011 60047 70184
AAXX 01181 15502 12970 03202 11024 21034 30210 40251 52016 60002 333 10090 21058 555 593//
AAXX 01181 15525 12968 02003 11012 21014 39976 40253 53012 60002 333 10051 21012 42001 555 599//
AAXX 01181 15528 12970 02301 10004 21019 30045 40242 52014 60002 333 10058 21008 41998 555 584//
AAXX 01181 15535 12966 00000 11004 21022 30192 40241 52012 60002 333 10041 21006 555 588// 92600
AAXX 01181 15549 12970 00000 11024 21035 39827 40263 52004 60002 333 10014 21024 43004 555 591//
AAXX 01181 15552 12960 03203 10004 21023 30197 40248 52021 60002 222// 2//00 333 10052 20004 555 582// 92013 92417
AAXX 01181 15614 12975 00000 11028 21058 39529 40266 52011 60002 333 10025 21033 44008 555 578//
AAXX 01181 15615 11988 03410 11128 21264 37089 47022 52016 60002 70200 333 11117 21157 555 531//
AAXX 01181 15626 12970 00000 11016 21044 30058 40255 52020 60002 333 10058 21016 43004 555 581//
AAXX 01181 15640 12970 02704 10014 21064 39935 40259 52017 60002 333 10045 20014 555 556//
AAXX 01181 15655 12970 03203 10038 21036 30209 40243 52017 60002 222// 00073 332// 40601 333 10065 20038 555 559// 92023 92428
AAXX 01181 15712 12675 23601 10001 21036 30006 40267 53015 60002 82200 333 10061 21003 42004 555 576//
AAXX 01181 15730 12970 00000 10001 21032 39855 40262 52024 60002 333 10046 21002 42003 555 578//
AAXX 01184 60715 12560 72608 10155 20119 30263 40270 53013 60002 8488/ 333 10173 58041 83823 85359 91013 91123
AAXX 01184 60723 12565 62702 10146 20120 30093 40283 51009 60002 83280 333 10163 83823 84360
AAXX 01184 60725 12560 53508 10136 2//// 30106 40286 52011 60002 85800 333 10171 83820 83630
AAXX 01184 60735 12562 23202 10161 20091 30190 40272 52008 60002 82800 333 10194 81823
AAXX 01184 60745 12560 22106 10131 20037 39904 40278 53011 60002 82200 333 10182 82830
AAXX 01184 60748 12565 30802 10139 20081 39848 40228 53007 60002 82202 333 10195 82826
AAXX 01184 60750 12560 53601 10168 20063 30244 40269 51010 60002 85800 333 10200 83820 84626
AAXX 01184 60760 12560 12408 10133 20013 30174 40280 53010 60002 81200 333 10192 81830 91009 91114
AAXX 01184 60765 12558 42608 10159 20057 30280 40283 52006 60002 83502 333 10191 83630 92436 925//
AAXX 01184 60767 12560 22102 10132 20033 30133 40278 52011 60002 82502 333 10173 82630
AAXX 01184 60769 12560 42708 10158 20097 30265 40269 53011 60002 84800 333 10179 82820 83630
AAXX 01184 16622 12960 00603 10028 21037 30253 40263 52022 60002 333 10080 90730 91116 555 10000 40028 30000 10042 2//// 30056 4//// 5//// 40000 47719 44210 50000 50006
AAXX 01184 16641 12965 00000 10036 20026 30218 40223 52023 60002 333 10124 90730 91104 555 10000 40012 40000 47692 44195 50000 50032
AAXX 01184 16682 12560 10105 10074 20021 30186 40205 52019 60002 81100 333 10128 90730 91107 555 10000 40014 30000 10075 20090 30096 40100 50112 60165 40000 47669 44190 50000 50052
AAXX 01184 16716 12560 40104 10092 20003 30215 40234 52019 60002 82150 333 10134 82820 83358 555 10000 40074 40000 47690 44185 50000 50056
AAXX 01184 16734 NIL
AAXX 01184 16743 NIL
AAXX 01184 16749 12560 33014 10130 20078 30125 40139 52015 60002 83200 333 10144 90730 91122 555 10000 40130 40000 47624 44200 50000 50104
AAXX 01184 16754 12460 53512 10118 20073 30154 40202 52021 60002 85800 333 10130 81818 85630 90730 91126 555 10000 40118 40000 47647 44205 50000 50096
BBXX 3FZK3 01184 99489 71237 46/// /2805 10038 20019 40262 56008 7//// 8//// 22200 0//// 2////
BBXX 46001 01181 99563 71480 46/// /3417 11002 49901 56027 91750 22200 00041 10811 20808 300// 41208 70056 333 91221 555 11179 22190 31659 43321 61749 341167 339170 340170 340172 338169 337171
BBXX 46012 01181 99374 71229 46/// /1003 10124 40212 51017 91750 22200 00119 11104 20401 331// 41104 70019 333 91204 555 11029 22034 31712 41205 61749 097026 095026 092030 108033 117035 126032
BBXX 46013 01181 99382 71233 46/// /0808 10110 40213 53016 91750 22200 00108 11204 20402 3//// 41203 70019 333 91209 555 11082 22087 31725 40911 61749 076077 076079 078084 077086 078088 083086
BBXX 46014 01181 99394 71240 46/// /0702 10107 40216 51006 91750 22200 00108 11104 3//// 41104 70021 333 91204 555 11019 22020 31749 40805 61749 074016 070013 078020 080029 073034 078037
BBXX 46026 01181 99378 71228 46/// /0909 10121 40213 51019 91750 22200 00112 11303 20402 328// 41303 70016 333 91211 555 11098 22106 31653 42913 61749 086091 283092 281094 283095 283097 283095
BBXX A8PX5 01184 99361 71422 41597 32925 10120 20102 40080 52040 70100 8/4// 22224 04160 20907 327// 41208 5//// 80110
BBXX CGBR 01184 99525 71288 46/// /0214 10053 20048 40091 56030 7//// 8//// 22200 0//// 2////
BBXX CGBY 01184 99487 71235 46/// /2806 10037 20017 40262 57004 7//// 8//// 22200 0//// 2////
BBXX CGDR 01184 99486 71232 46/// /0109 10065 20023 40252 56007 7//// 8//// 22211 00100 2////
BBXX DGDD 01181 99319 71214 41298 81704 10150 20116 40205 55000 70222 887// 22224 04160 20401 330// 40405 5//// 80130
BBXX DGXS 01184 99527 71422 41296 83421 10045 20023 49800 55000 75152 8/77/ 22224 00060 299// 314// 41405 5//// 80035
BBXX LAHV 01181 99589 10057 43/// /1806 10075 20049 49917 222// 04084 1////
BBXX LDGJ 01181 99603 10053 43/// /1503 10071 20043 49893 5//// 222/0 04078 1//// 3//// 4//// 5////
BBXX LF4H 01184 99596 10022 46/98 12219 10076 20045 49862 57007 8//// 22200 06085 10706 70028 333 91122
BBXX LMEL 01181 99603 10053 43/// /1504 10065 20055 49887 5//// 222/0 04082 1//// 3//// 4//// 5////
AAXX 01184 60715 12560 72608 10155 20119 30263 40270 53013 60002 8488/ 333 10173 58041 83823 85359 91013 91123
AAXX 01184 60723 12565 62702 10146 20120 30093 40283 51009 60002 83280 333 10163 83823 84360
AAXX 01184 60725 12560 53508 10136 2//// 30106 40286 52011 60002 85800 333 10171 83820 83630
AAXX 01184 60735 12562 23202 10161 20091 30190 40272 52008 60002 82800 333 10194 81823
AAXX 01184 60745 12560 22106 10131 20037 39904 40278 53011 60002 82200 333 10182 82830
AAXX 01184 60748 12565 30802 10139 20081 39848 40228 53007 60002 82202 333 10195 82826
AAXX 01184 60750 12560 53601 10168 20063 30244 40269 51010 60002 85800 333 10200 83820 84626
AAXX 01184 60760 12560 12408 10133 20013 30174 40280 53010 60002 81200 333 10192 81830 91009 91114
AAXX 01184 60765 12558 42608 10159 20057 30280 40283 52006 60002 83502 333 10191 83630 92436 925//
AAXX 01184 60767 12560 22102 10132 20033 30133 40278 52011 60002 82502 333 10173 82630
AAXX 01184 60769 12560 42708 10158 20097 30265 40269 53011 60002 84800 333 10179 82820 83630
AAXX 01181 14240 11756 63601 10010 20003 30069 40230 53008 60002 71020 86500 333 10050
AAXX 01181 14258 12960 01201 10006 21001 30033 40227 52005 60002 333 10066
AAXX 01181 14445 12970 52601 10104 20001 30078 40234 52010 60002 85030 333 10119 85399 92301
AAXX 01184 91925 02581 31103 10304 20218 30091 40151 51012 60001 83800 333 56100 60007 83820 90710 91107 555 60005 11107 58014
AAXX 01184 91929 04981 80710 10274 20230 30141 40144 51014 60002 700// 333 10274 20253 60007 90710 91112 555 60005
AAXX 01184 91938 01575 70804 10264 20200 30148 40150 58001 60482 721// 868// 333 10264 20224 60057 81820 86650 90710 91113 555 69905 11214 58011
AAXX 01184 91943 36/// /1006 10283 20201 30152 40154 51012 333 10286 58010
AAXX 01184 91944 06/// /1109 10279 20214 30154 40157 51006 60102 333 10281 20231 60007 90710 91111 555 60005
AAXX 01184 91948 02582 31003 10259 20200 30075 40177 50002 60001 83200 333 56200 60007 83821 90710 91109 555 60005 11309 59003
AAXX 01184 91954 06/// /0110 10260 20237 30153 40156 51013 60001 333 60007 555 58014
AAXX 01184 91958 01375 73308 10253 20234 30161 40163 50005 60031 72586 878// 333 56799 60037 81806 85815 87650 90710 91114 555 60025 13115 58008
AAXX 01184 91945 NIL
AAXX 01181 38353 429// 00000 11106 21126 39312 40270 58015 333 11012
AAXX 01181 38613 429// 00101 11058 21092 40256 54000 333 10040
AAXX 01181 38616 425// 60000 11037 21059 39195 40248 58010 83530 333 10016
AAXX 01181 38345 32998 00901 11064 21119 38779 48471 57014 333 10068
AAXX 01181 36911 429// 00000 11113 21119 39241 40267 58023 333 11004
AAXX 01181 36974 329// 00901 11198 21212 37978 48569 58007 333 11128
AAXX 01181 36982 429// 60000 11197 21260 36540 47205 54000 86030 333 11098
AAXX 01184 47090 32662 22908 11015 21093 30220 40243 53009 82500 333 92043
AAXX 01184 47095 31930 03602 11130 21148 30081 40286 52015 71000
AAXX 01184 47097 329// /2702 11088 21124 30179 40282 52014
AAXX 01184 47098 329// /3402 11103 21120 30134 40278 52012
AAXX 01184 47099 329// /0000 11114 21123 30244 40283 53012
AAXX 01184 47100 41356 62501 11103 21121 39298 40270 52014 72272 85500
AAXX 01184 47102 32662 42910 11041 21082 30095 40282 52004 84500
AAXX 01184 47104 41665 50001 11021 21044 30139 40240 53005 72272 85500
AAXX 01184 47106 41340 82906 11001 21024 30185 40236 52010 77077 8552/
AAXX 01184 47112 31957 03603 11063 21118 30190 40279 53010 70500 333 92022
AAXX 01184 47114 32960 02702 11098 21122 30084 40280 53014
AAXX 01184 47119 31940 03202 11075 21098 30238 40283 52015 71000
AAXX 01184 47121 329// /2702 11106 21120 39966 40282 52018
AAXX 01184 47127 329// /0901 11109 21132 30133 40285 53012
AAXX 01184 47129 32660 60903 11041 21078 30247 40285 52011 85500
AAXX 01184 47130 41556 82710 11002 21016 30169 40233 52021 77077 8572/ 333 92033
AAXX 01184 47131 31956 00001 11079 21105 30210 40285 52017 71000
AAXX 01184 47135 329// /2713 11072 21110 39961 40277 53016
AAXX 01184 47136 32965 02902 11066 21117 30081 40263 52020
AAXX 01184 47137 329// /2507 11065 21123 30145 40270 53014
AAXX 01184 47140 32661 41102 11044 21086 30250 40280 52008 84500 333 92012
AAXX 01184 47143 32965 02905 11038 21124 30185 40268 52019
AAXX 01184 47145 31956 00001 11091 21111 30248 40276 52016 71000
AAXX 01184 47146 31956 00702 11058 21088 30213 40283 52014 71000
AAXX 01184 47150 31658 60502 11045 21080 30256 40276 51010 71021 85500
AAXX 01184 47152 32970 00203 11037 21103 30191 40236 52017
AAXX 01184 47154 329// /2909 11046 21116 30202 40265 52016
AAXX 01184 47155 32970 01807 11021 21101 30199 40247 52011
AAXX 01184 47156 32665 50506 11048 21085 30187 40281 52013 85500
AAXX 01184 47157 32970 02703 11081 21115 39969 40256 52016
AAXX 01184 47162 32970 00505 11023 21108 30203 40245 52008 333 92022
AAXX 01184 47169 32670 63618 10023 21034 30174 40270 52006 86500 333 92065
AAXX 01184 47170 32668 23409 11001 21073 30225 40270 53011 82500 333 92023
AAXX 01184 47171 329// /1101 11065 21090 30224 40282 52010
AAXX 01184 47172 329// /3606 11032 21090 30203 40273 52007
AAXX 01184 47173 329// /3402 11077 21105 30162 40280 52012
AAXX 01184 47174 32662 53204 11054 21102 30049 40262 51004 85500
AAXX 01184 47175 32563 63607 11032 21055 39672 40268 52012 86500 333 92033
AAXX 01184 47185 32665 73421 10051 21024 30167 40260 52009 87500 333 92046
AAXX 01184 47188 32670 53204 10029 21041 30237 40259 52007 85500 333 92032
AAXX 01184 47189 32670 23203 10035 21022 30183 40244 52008 82500 333 92032
AAXX 01184 47192 32970 00701 11058 21115 30215 40254 52014
AAXX 01184 47101 31940 00001 11113 21128 30178 40281 53009 71000
AAXX 01184 47105 369// /2703 11016 21051 30207 40240 53004
AAXX 01184 47108 31950 02705 11072 21110 30169 40281 52014 70500
AAXX 01184 47115 41530 80709 11023 21031 39934 40216 52039 77072 8552/ 333 92053
AAXX 01184 47133 31950 03201 11073 21100 30197 40287 52016 71000
AAXX 01184 47138 32670 22306 11019 21104 30236 40239 52021 81500 333 92033
AAXX 01184 47159 32970 03410 11023 21132 30146 40235 52013 333 92023
AAXX 01184 47165 32670 60505 11012 21063 30222 40271 52008 85500 333 92032
AAXX 01184 47168 32970 03412 11027 21114 30164 40247 52006 333 92024
AAXX 01184 47184 32670 63410 10042 21031 30243 40269 51002 86500 333 92053
AAXX 01181 48820 32797 83601 10158 20131 30192 40200 58004 885// 333 59027 88697
AAXX 01181 48823 31496 83201 10158 20135 30194 40197 58006 71022 888// 333 59023 86894 88696
AAXX 01181 26645 32997 51901 11040 21052 39901 40170 54000 80001 333 11011
AAXX 01181 26659 32965 02201 11050 21060 39956 40178 52006 333 11013
AAXX 01181 26763 32960 02601 11059 21074 39940 40178 52007 333 11013
AAXX 01181 26825 32360 71805 11020 21032 39976 40165 54000 8663/ 333 10004 86708
AAXX 01181 26832 31436 81804 11025 21031 39976 40175 58001 71042 886// 333 11001 88704
AAXX 01181 26887 12897 22601 11048 21068 39958 40171 52007 60012 82030 333 10001
AAXX 01181 26961 32461 72702 11031 21056 39993 40192 52010 83530 333 10000
AAXX 01181 33027 31996 10000 11030 21043 30024 40197 52006 71011 81030 333 10019
AAXX 01184 65352 32956 70402 10326 20040 3//// 4//// 80002 333 10360 5//// 87076
AAXX 01184 65361 32960 70000 10290 20098 3//// 4//// 80002 333 10360 5//// 87076
AAXX 01184 65376 31940 70804 10308 20120 39643 40097 70522 80002 333 10345 58001 87073
AAXX 01184 65387 32958 72204 10280 20249 30076 40094 80002 333 10324 58002 87073
AAXX 01184 60106 32965 02206 10128 20053 40304 53009 333 10180
AAXX 01184 60220 32960 00212 10154 20118 40290 51009 333 10168
AAXX 01184 60318 32960 02308 10158 20081 40284 53009 333 10196
AAXX 01181 14008 12599 72301 10014 21101 37516 47084 52009 60002 87070 333 10015 49100 92878 95100
AAXX 01181 14015 12972 63501 10024 20010 39869 40237 51009 60002 82038 333 10054
AAXX 01181 14023 12999 72101 10000 21010 39926 40231 51008 60002 87070 333 10068
AAXX 01181 14024 12999 32507 10051 21073 39112 48504 52007 60002 80008 333 10058 42012 92854 95000
AAXX 01181 14026 12997 53201 10009 21010 39891 40221 52005 60002 82035 333 10057
AAXX 01181 14031 11996 81001 10028 20012 39986 40220 52006 60002 710// 8807/ 333 10059
AAXX 01181 14105 12997 11206 10037 20021 30233 40238 50008 60002 80001 333 10115
AAXX 01181 14106 12998 40000 10020 20008 30164 40235 52008 60002 84030 333 10111 95000
AAXX 01181 14121 12998 52101 10011 20004 39953 40227 52004 60002 80008 333 10054
AAXX 01181 14122 12982 52603 10022 20009 30029 40231 52007 60002 83031 333 10063
AAXX 01184 16643 12960 00000 10046 20021 30225 40230 50016 60002 333 10118 90730 91102 555 10000 40046 40000 47698 44200 50000 50036
AAXX 01184 16648 12960 00000 10024 21022 30163 40256 52023 60002 333 10094 90730 91105 555 10000 40020 30000 10048 2//// 30052 40050 5//// 6//// 40000 47653 44210 50000 50008
AAXX 01184 16650 12560 40710 10074 20009 30235 40239 52021 60002 84500 333 10088 90730 91117 555 10000 40066 30000 10062 20068 30074 40070 50096 60120 40000 47708 44225 50000 50048
AAXX 01184 16684 12460 60412 10092 20015 30198 40226 52025 60002 85650 333 10094 82714 85625 90730 91121 555 10000 40090 40000 47679 44210 50000 50060
AAXX 01184 16732 12568 53627 10114 20054 30185 40196 52020 60002 85800 333 10124 82820 84625 90730 91139 555 10000 40114 40000 47663 44150 50000 50086
AAXX 01181 06414 16/// /2008 10131 20109 39999 40031 57032 60032 333 10134 91114 91209
AAXX 01181 06459 16/// /2009 10126 20121 39890 40078 57021 69962 333 10127 91114 91210
AAXX 01181 06494 16/// /2208 10087 20086 39315 40099 58012 60032 333 10088 91114 91209
AAXX 01183 04013 22589 80913 11014 21048 49642 52009 82520 333 10008 21018 69918 555 3//18
AAXX 01183 04064 32684 60000 11033 21041 49636 57004 8423/ 333 11015 21048 555 3//02
AAXX 01181 13160 NIL
AAXX 01181 13262 NIL
AAXX 01181 13272 32965 01502 10030 21044 30123 40246 52007 333 10076
AAXX 01181 13285 NIL
AAXX 01181 13289 NIL
AAXX 01181 13376 NIL
AAXX 01181 13388 NIL
AAXX 01181 13462 32970 00602 10020 21045 30217 40258 52023 333 10088
AAXX 01181 13473 NIL
AAXX 01181 13489 NIL
AAXX 01181 26038 01983 61304 11038 21043 30069 40112 58009 69902 70211 82039 333 11012 21045 60007 82/67 555 1/105 21045 3/110 51026 52103
AAXX 01181 26045 NIL
AAXX 01181 26058 NIL
AAXX 01181 26115 NIL
AAXX 01181 26135 01568 31301 11043 21047 30051 40128 58005 69962 70311 82530 333 11015 21050 60007 82627 555 1/102 21050 3/103 51025 52110
AAXX 01181 26141 01269 81504 11027 21032 39981 40134 50000 69902 70282 884// 333 11021 21038 60007 88604 555 1/102 21038 3/105 51025 52106
AAXX 01181 26231 01584 81504 11009 21032 30101 40116 58010 60002 70211 81006 333 10013 21032 60007 81/25 555 1/100 21032 3/101 51015
AAXX 01181 26242 01562 41801 11044 21055 30048 40138 58001 69902 70200 82530 333 10002 21044 60007 82633 555 1/103 21044 3/103 51024 52108
AAXX 01181 26247 NIL
AAXX 01184 08001 11462 8//// 10138 20111 30102 40183 53007 60042 76162 8587/ 333 10160 924/7
AAXX 01184 08015 12570 62504 10138 20049 39781 40180 57005 60002 83877 333 10138
AAXX 01184 08023 12660 61916 10150 20047 30108 40178 57018 60002 82578 333 10163
AAXX 01184 08027 12481 81612 10142 20063 39884 40191 57006 60002 81142 333 10165
AAXX 01184 08045 01008 82013 10124 20118 39914 40223 57007 60082 76364 8477/ 333 10124 60067
AAXX 01184 08141 11460 61402 10062 20048 39383 40255 57006 69942 70242 82655 333 10075
AAXX 01184 08160 12982 31202 10122 20058 39927 40236 54000 60002 81031 333 10182
AAXX 01184 08181 02980 12509 10127 20082 30221 40227 58003 60002 80008 333 10171 60007
AAXX 01184 08221 02967 01805 10087 20020 39569 40261 5//// 60002 333 10126 60007
AAXX 01184 08231 12970 13102 10106 20024 39165 48569 53005 60002 80001 333 10162
AAXX 01184 08261 12768 82605 10106 20069 39811 40297 53010 60002 87078 333 10136
AAXX 01184 08284 06/// /3204 10132 20083 30163 40239 52003 60002 333 10241 60007
AAXX 01184 08306 12475 20000 10133 20105 30247 40253 53009 60002 82601 333 10191
AAXX 01184 08314 02574 12903 10121 20103 30146 40250 52007 60002 81475 333 10172 60007
AAXX 01184 08430 12980 00801 10172 20055 30181 40255 53005 60002 333 10228
AAXX 01184 08482 12980 02811 10182 20033 30255 40263 53010 60002 333 10222
AAXX 01184 60710 12560 62510 10150 20127 30196 40276 53010 69922 85880 333 10153 83820 83630
AAXX 01184 60714 12462 43008 10154 20125 30273 40279 53010 69922 84800 333 10174 83816
AAXX 01184 60720 NIL
AAXX 01184 60728 NIL
AAXX 01184 60729 NIL
AAXX 01184 60731 NIL
AAXX 01184 60732 NIL
AAXX 01184 60734 12558 41102 10102 20097 39752 40276 53009 60002 83202 333 10156 83823
AAXX 01184 60738 12560 2//// 10069 20068 39027 48583 52010 60002 82200 333 10114 82823
AAXX 01184 60739 NIL
AAXX 01184 60740 12460 52804 10162 20116 30269 40271 52012 60002 84880 333 10181 82816 83623
AAXX 01184 60742 NIL
AAXX 01184 60764 12962 02804 10128 20028 30222 40274 53010 60002 333 10188
AAXX 01184 60770 12675 42804 10146 20079 30136 40276 53007 60002 83580 333 10202 83633
AAXX 01184 60772 NIL
AAXX 01184 60775 12575 42904 10135 20048 39926 40284 53012 60002 82280 333 10190 82826 83360
AAXX 01184 60780 12960 02706 10127 20014 39986 40295 52005 60002 333 10168
AAXX 01181 14241 12965 42401 10004 21006 30095 40230 52008 60002 84030 333 10055
AAXX 01181 14284 12960 61602 10036 20022 30124 40235 53004 60002 86030 333 10065
AAXX 01181 14307 32980 10401 10047 20020 30165 40243 52013 80001 333 10124
AAXX 01181 14317 NIL
AAXX 01181 14431 12980 01101 10033 20010 30148 40245 53011 60002 333 10128
AAXX 01181 14444 33980 20000 10074 20010 30213 40243 52011 82030 333 10132
AAXX 01181 14474 12980 03504 10083 21069 30054 40248 51011 60002 333 10111
AAXX 01181 01447 16/// /0000 11024 21026 39272 49944 52003 60022 333 11009 91100
AAXX 01184 16614 12960 00000 11048 21074 39470 40294 52041 60002 333 10045 42998 90730 91104 555 10000 41057
AAXX 01184 16627 12560 10104 10030 21015 30251 40255 52024 60002 81100 333 10088 90730 91110 555 10000 40030 30000 10042 20048 30062 40066 50074 6//// 40000 47722 44240 50000 50014
AAXX 01184 16667 12565 33611 10086 20024 30223 40229 52029 60002 83100 333 10108 90730 91128 555 10000 40086 30000 20084 30096 40000 47697 44200 50000 50060
AAXX 01184 16675 NIL
AAXX 01184 16710 36/// /9901 10026 21018 39461 40255 52029 333 10084 90730 91106 555 10000 41029
AAXX 01184 16723 12560 53408 10094 20034 30173 40189 52026 60002 82150 333 10124 82820 85356 90730 91116 555 10000 40094 40000 47661 44210 50000 50068
AAXX 01184 16738 17/// /0215 10085 20048 30023 40226 52023 69912 7414/ 333 10107 90730 91131 555 10000 40084 60000 60001 60208
AAXX 01184 16746 11560 70209 10096 20071 30030 40215 52021 60012 72162 87800 333 10126 82820 87630 90730 91116 555 10000 40094 40000 47550 44175 50000 50084 60000 60010 60120 70000 77R// 7R///
AAXX 01184 93004 16/// /2320 10151 20150 40107 52009 60001
AAXX 01184 93023 16/// /2702 10158 20147 40099 52013 60001
AAXX 01184 93069 16/// /2518 10171 20153 40075 52017 6///1
AAXX 01184 93110 17597 /2417 10179 20146 40066 52017 60001
AAXX 01184 93186 17598 /2613 10184 20158 40037 52020 60001
AAXX 01184 93196 16/// /2608 10189 20187 40020 52012 69981
AAXX 01184 93245 16498 /2407 10164 20151 40035 52019 60001
AAXX 01184 93292 17598 /1605 10171 20161 40034 52025 69941
AAXX 01184 93309 17498 /1507 10158 20148 40055 52026 60001
AAXX 01184 93334 16/// /0000 10115 20113 39121 52019 60021
AAXX 01184 93339 16/// /1702 10108 20107 39127 52018 60021
AAXX 01184 93373 17495 /2205 10156 20149 40050 52025 60051
AAXX 01184 93404 17798 /1310 10151 20131 40056 52021 60031
AAXX 01184 93420 17898 /2005 10136 20087 40058 52021 60001
AAXX 01184 93439 17898 /1712 10145 20110 40066 52015 60001
AAXX 01184 93498 16/// /2315 10131 20112 40060 52028 60051
AAXX 01184 93515 17/97 /2211 10143 20102 40075 52019 60001
AAXX 01184 93527 16/// /0409 10156 20151 40060 52020 60001
AAXX 01184 93546 17498 /3610 10171 20164 40053 52017 69921
AAXX 01184 93597 16/// /1714 10146 20124 40067 52022 60001
AAXX 01184 93615 17597 /1103 10140 20127 40073 52015 60001
AAXX 01184 93678 16397 /2309 10128 20121 40079 52020 60001
AAXX 01184 93709 16/// /0000 10085 20079 40065 52021 60001
AAXX 01184 93773 17598 /2802 10110 20107 40091 52018 60061
AAXX 01184 93781 17498 /1910 10121 20104 40083 52024 60001
AAXX 01184 93800 NIL
AAXX 01184 93805 NIL
AAXX 01184 93831 17798 /1920 10097 20035 40106 52029 60001
AAXX 01184 93845 17698 /2517 10091 20058 40112 52021 69921
AAXX 01184 93891 17798 /2412 10105 20050 40093 52017 60001
AAXX 01184 93909 16/// /2226 10086 20039 40110 52020 69921
AAXX 01184 93929 16/// /2012 10064 20024 40075 52031 60001
AAXX 01184 93947 16/// /2523 10051 20020 49994 52032 69921
AAXX 01184 93987 16/// /2506 10151 20148 49976 57011 60021
AAXX 01184 93994 NIL
AAXX 01184 17024 11556 72711 10049 20042 30134 40213 52032 60162 76166 84550 333 10102 84628 87358 91119 92436
AAXX 01184 17056 12970 03304 10040 20004 30250 40255 52022 60002 333 10078 91114 92438
AAXX 01184 17067 11670 60803 10063 20018 30215 40238 52026 60012 70282 86200 333 10079 86840 91111 92408
AAXX 01184 17092 12670 52702 11002 21032 38843 48468 53005 60002 84530 333 10051 84638 85359
AAXX 01184 17112 12965 50303 10050 20015 30247 40250 52020 60002 85050 333 10063 85360 91114 92417
AAXX 01184 17115 12660 60314 10060 20014 30187 40239 52024 60022 83230 333 10063 83835 86360
AAXX 01184 17116 11660 70406 10056 20020 30113 40237 52020 60022 70282 84250 333 10066 84835 87360 91109
AAXX 01184 17188 12660 33107 10030 21016 39106 40186 52024 60012 81530 333 10066 81637 83360 91119
AAXX 01184 17202 12560 80703 10036 20019 39154 40194 52006 69922 8652/ 333 10050 82720 85630 88459
AAXX 01184 17248 12670 80801 10037 20015 38930 48440 52020 60002 8452/ 333 10068 84640 88460
AAXX 01184 17292 12670 32905 10053 20037 39396 40162 52022 60002 83200 333 10083 83835 91112
AAXX 01184 17300 12960 33205 10093 20037 30052 40124 52025 60032 83030 333 10133 83362
AAXX 01184 17310 NIL
AAXX 01184 17330 11670 71901 10101 20072 30116 40134 52020 60172 70282 83270 333 10129 83840 87360
AAXX 01181 33088 32997 01901 11044 21053 30003 40203 54000 333 11006
AAXX 01181 33177 12997 01701 11014 21026 39949 40194 57003 69902 333 10020
AAXX 01181 33261 11497 83102 11010 21032 39989 40177 52015 69902 70282 889// 333 10011 88917
AAXX 01181 33275 11497 83105 11004 21019 39929 40158 52005 69942 78582 8435/ 333 10011 84918
AAXX 01181 33301 32997 21702 11022 21028 39911 40203 58002 82030 333 10009
AAXX 01181 33325 32997 02601 11022 21045 39932 40210 52004 333 10021
AAXX 01181 33377 11597 73504 11004 21045 39984 40183 52015 69902 70281 87500 333 10013 87621
AAXX 01181 33415 32997 21802 11019 21037 39802 40214 52001 80001 333 10016
AAXX 01181 33429 11997 00000 11022 21031 39779 40217 52002 69902 70281 333 10019
AAXX 01181 33466 32989 43002 11003 21067 30010 40203 52012 84030 333 10024
AAXX 01181 33526 32960 00000 11037 21059 39862 40216 52001 333 10059
AAXX 01181 33562 12997 22402 11030 21054 39842 40217 53006 69902 82030 333 10003
AAXX 01181 33614 11556 83206 10010 21017 30074 40181 52012 69902 78582 883// 333 10018 88920
AAXX 01181 33761 32998 03202 11025 21062 39983 40215 52011 333 10010
AAXX 01181 33902 11996 02903 11003 21016 30127 40196 52018 69902 71011 333 10040
AAXX 01181 33983 11497 83209 10016 21000 30100 40162 52020 60012 70284 889// 333 10050 88913
AAXX 01181 34415 11395 80000 10002 21004 30044 40142 54000 60092 77177 8772/ 333 10009 93711
AAXX 01181 34523 NIL
AAXX 01181 34712 11496 83407 10004 20004 30045 40132 52013 60032 77176 8772/ 333 10026
AAXX 01181 33317 31996 02701 11048 21054 39862 40214 52003 71011 333 10008
AAXX 01181 33791 32997 73304 10006 21030 30034 40189 52013 87030 333 10029
AAXX 01181 33924 12598 33305 10040 21012 30192 40204 52018 60022 83900 333 10049
AAXX 01184 17026 11565 73217 10072 20047 30148 40187 52029 69912 76022 85570 333 10109 85625 87359 91126 92447
AAXX 01184 17034 12670 62203 10107 20055 30121 40167 52025 60002 83230 333 10139 83835 86360 92428
AAXX 01184 17070 11556 80802 10023 20021 39326 40215 52023 60012 71062 8552/ 333 10035 85630 88457 91105
AAXX 01184 17084 11550 81702 10019 20017 39256 40183 52015 60072 76166 8552/ 333 10034 85630 88459 91104 96010
AAXX 01184 17090 12665 60000 10027 21017 38687 48460 52009 60002 84550 333 10057 84640 86360
AAXX 01184 17098 12660 40605 11136 21136 38175 48496 53002 69962 84500 333 11035 84635
AAXX 01184 17150 12460 73508 10055 20026 30109 40236 52022 60012 84250 333 10055 81715 84835 86360
AAXX 01184 17160 11665 83508 10025 20015 38980 48449 52019 69902 76062 8452/ 333 10076 84638 88460 91116
AAXX 01184 17184 12670 73506 10063 20028 30108 40222 52027 60002 84270 333 10070 84840 87460 91112
AAXX 01184 17189 11670 73215 10017 21006 39011 48470 52025 60102 72176 85550 333 10027 85635 87360
AAXX 01184 17210 11670 70501 10056 20040 39145 40194 51003 69982 72162 83520 333 10079 83633 87459
AAXX 01184 17234 12970 51602 10077 20033 30115 40184 52029 60002 85030 333 10137 85360 91110
AAXX 01184 17260 11340 70908 10059 20059 39340 40169 53002 60012 76042 87700 333 10059 83709 87630 96010
AAXX 01184 17290 12970 03509 10094 20045 30140 40172 52023 60002 333 10141 91118 92438
AAXX 01184 17370 1//// /1701 10115 20051 30135 40142 5//// 60032 333 10136
AAXX 01184 17022 11558 80506 10047 20033 30062 40231 52029 60152 76066 8652/ 333 10079 86625 88458 91121 92436
AAXX 01184 17031 11558 73021 10087 20067 30164 40170 52027 69962 76082 85250 333 10139 85830 87358
AAXX 01184 17038 11959 52710 10118 20023 30094 40145 52020 60002 70522 85030 333 10143 85360 92426
AAXX 01184 17050 12970 20201 10025 21004 30195 40260 52022 60002 82030 333 10080 82360 91114
AAXX 01184 17060 12660 30305 10073 21020 30202 40243 52022 69922 83100 333 10075 83835
AAXX 01184 17096 11556 72403 11034 21034 38210 48483 55000 69902 72272 85550 333 10005 85625 87357 93197
AAXX 01184 17124 11560 73108 10024 21004 39269 40206 52024 69922 70262 84550 333 10046 84630 86360
AAXX 01184 17128 11656 71303 10009 20007 39061 40186 52017 60132 71072 84520 333 10015 84640 87458 93101
AAXX 01184 17170 NIL
AAXX 01184 17195 12670 82006 10041 20003 38928 48450 52022 60002 8452/ 333 10086 84635 88460
AAXX 01184 17199 12565 82302 10028 20022 39071 40186 51003 60002 8562/ 333 10040 82720 84635 88459
AAXX 01184 17219 12565 30118 10067 20018 30053 40200 51028 60002 81130 333 10105 81830 83360 91129
AAXX 01184 17240 11570 73102 10016 20001 39001 40170 52023 60082 72372 85570 333 10023 85630 87360 91105
AAXX 01184 17244 11660 73310 10028 20001 38956 48454 52026 60052 76166 84520 333 10065 84635 87459
AAXX 01184 17280 11660 62505 10042 20040 39387 40190 53003 60032 70262 83250 333 10058 83840 86360
AAXX 01184 17350 11660 80312 10081 20073 30063 40142 51010 60122 76166 8552/ 333 10093 85635 88458
AAXX 01181 15015 02597 71101 11010 21028 39626 42821 53011 60002 87500 333 10020 21025 3/001 43004 60007 91001 91102 92830
AAXX 01181 15020 02997 31701 10009 21039 30019 40223 52007 60002 83070 333 10052 21014 31009 60007 91002 91103
AAXX 01181 15090 02997 32701 11009 21029 30136 40232 52010 60002 83040 333 10048 21044 34003 55300 10222 20004 3//// 60007 91002 91102 92600
AAXX 01181 15108 01/91 92710 11116 21116 38054 48489 53005 60002 74941 333 11089 21116 3//// 44018 60007 91016 92713 92863
AAXX 01181 15120 02997 41901 11019 21030 39741 40258 53013 60002 84050 333 10039 21031 3/002 43003 55300 10037 2//// 3//// 60007 91002 91103 92600 92842
AAXX 01181 15150 02997 03401 11019 21058 30016 40238 52011 60002 333 10057 21069 34007 60007 91001 91102
AAXX 01181 15170 02997 10801 11083 21088 39437 42817 52008 60002 81040 333 11034 21098 3/000 43002 60007 91002 91102 92870
AAXX 01181 15200 02997 61202 10005 21001 30099 40249 52006 60002 86070 333 10026 21040 31006 60007 91002 91103
AAXX 01181 15230 02997 00200 11002 21023 39960 40265 53015 60002 333 10049 21045 34007 55300 10039 20003 3//// 60007 91001 91101
AAXX 01181 15260 02997 02102 11046 21061 39706 40270 53009 60002 333 10034 21053 34006 60007 91003 91103
AAXX 01181 15280 02999 02910 11138 21238 37450 47966 53013 60002 333 11127 21150 3//// 49035 60007 91016 92848
AAXX 01181 15292 02998 21201 11013 21024 39960 40268 53016 60002 82030 333 10041 21058 3/004 41998 60007 91002 91103
AAXX 01181 15310 01996 03002 10007 21046 30153 40242 52016 60002 71000 333 10065 21017 34012 55300 10225 20004 3//// 60007 91004 91107 92600
AAXX 01181 15335 02997 02700 11020 21027 30230 40237 52017 60002 333 10065 21028 34008 60007 91001 91102 92600
AAXX 01181 15346 02997 00201 11019 21052 39951 40254 52017 60002 333 10058 21041 34007 60007 91001 91104
AAXX 01181 15350 02997 03102 10010 21059 30123 40247 51015 60002 333 10084 20002 31009 60007 91004 91104
AAXX 01181 15360 02998 03004 10018 21008 30214 40229 52020 60002 222// 06055 20301 333 10053 20001 3//// 60007 91004 91105 92428
AAXX 01181 15410 02997 03001 10029 21029 30150 40248 52013 60002 333 10077 21059 34011 60007 91003 91103
AAXX 01181 15420 01995 02402 11026 21027 30134 40251 52015 60002 72840 333 10060 21036 31009 55300 0//// 20000 3//// 60007 91004 91104 92600 96010
AAXX 01181 15450 02997 01702 10002 21019 30006 40251 52012 60002 333 10044 21073 34003 55300 10204 20004 3//// 60007 91002 91103 92600
AAXX 01181 15460 02997 02503 10003 21007 30222 40247 52016 60002 333 10050 21006 34009 60007 91005 91106 92600
AAXX 01181 15470 02997 02201 11011 21011 30119 40251 52012 60002 333 10027 21033 31007 60007 91002 91102 92600
AAXX 01181 15480 01996 02903 10015 21001 30225 40242 52015 60002 71000 222// 06064 2//// 333 10067 21003 31007 60007 91005 91105 92426
AAXX 01184 06011 07561 72313 10042 20005 39673 49740 52002 60112 78186 333 10063 20033 55300 20000 60097 81/22 83/37 85/57 87/70 91024 91131
AAXX 01184 06030 02462 72110 10071 20058 39965 49981 58003 60012 81536 333 10080 20049 6///7 81610 83363 87274
AAXX 01184 06060 01256 81908 10076 20071 39933 49997 58006 69912 71022 87602 333 10088 20067 6///7 83705 86706
AAXX 01184 06070 05460 31805 10074 20058 39980 40010 54000 60022 333 10084 20049 6///7 83/13
AAXX 01184 06120 36359 82112 10081 20077 30002 40028 57004 333 10091 20056 83/07 85/09 88/12 91122
AAXX 01184 06180 01460 72211 10078 20070 30031 40037 54000 60112 72052 8763/ 333 10083 20039 69907 87710
AAXX 01184 06193 07029 72315 10064 20063 30038 40049 52013 60072 72085 333 10067 20026 55300 20000 69937 81/01 83/03 87/11 91129
AAXX 01181 26106 32/97 71503 11006 21023 40127 57008 87600 333 10007
AAXX 01181 26313 32/// 81906 11001 21024 40096 57018 889// 333 10013 91010 91110
AAXX 01181 26346 32597 21501 11046 21047 40148 57001 82500 333 11021
AAXX 01181 26406 11597 81405 10001 21011 40087 57017 69922 72272 8802/ 333 10023 88530 91010
AAXX 01181 26416 33/// /1504 11014 21027 40107 57017 333 11002
AAXX 01181 26424 32497 71605 11010 21025 40118 57015 83550 333 11003
AAXX 01181 26544 31596 72002 11041 21044 40162 52002 71011 87300 333 11004
AAXX 01184 17042 12970 61210 10147 21043 30091 40130 51002 60002 86050 333 10163 86360 92428
AAXX 01184 17074 12560 81901 10014 20012 39247 40210 53026 60052 8452/ 333 10018 84630 88460 91104
AAXX 01184 17086 11670 70702 10082 20000 39425 40146 52019 69902 76022 85550 333 10131 85635 87360
AAXX 01184 17088 11670 81604 10038 21029 38766 48466 52007 69902 70262 8552/ 333 10061 85640 88460
AAXX 01184 17140 11657 80501 10008 21003 38663 48451 52017 60012 77122 8552/ 333 10041 85638 88459 93100
AAXX 01184 17155 12670 83305 10018 21009 39070 40213 52023 60012 8452/ 333 10034 84635 88459 91114
AAXX 01184 17203 11670 80000 11008 21018 38878 48523 52004 69992 70272 8452/ 333 10002 84640 88460 93101
AAXX 01184 17237 11670 83106 10061 20030 39674 40186 52025 60032 70262 8452/ 333 10067 84633 88458 91111
AAXX 01184 17250 12675 60406 10016 21010 38752 48445 52021 60002 83550 333 10078 83640 86360
AAXX 01184 17270 12665 71001 10074 20054 39521 40177 52005 69982 85570 333 10075 85639 87359
AAXX 01184 17295 12960 03416 10113 20037 30131 40138 52021 60002 333 10149
AAXX 01184 17320 11560 73402 10098 20085 30124 40129 52023 60302 78182 85270 333 10128 85830 87359 92447
AAXX 01184 17375 12970 03601 10098 20097 30122 40124 52027 60002 333 10161 91105 92428
AAXX 01184 08055 11257 70704 10046 20042 39168 48526 58007 69902 71022 87600 333 10050 95090
AAXX 01184 08075 11265 81913 10054 20041 39199 48535 57006 60002 70242 888// 333 10056
AAXX 01184 08084 02570 62605 10099 20045 39797 40232 58003 60002 81522 333 10144 60007
AAXX 01184 08171 NIL
AAXX 01184 08184 02975 00000 10109 20074 30057 40213 57002 60002 333 10178 60007
AAXX 01184 08202 02565 72107 10058 20048 39330 42865 56002 60002 84506 333 10081 60007
AAXX 01184 08235 NIL
AAXX 01184 08238 12980 01604 10134 20111 30170 40230 53001 60002 333 10203
AAXX 01184 08280 12980 09902 10086 20024 39438 40270 53005 60002 333 10161
AAXX 01184 08330 12565 62504 10101 20073 30057 40291 52006 60002 84531 333 10103
AAXX 01184 08348 12965 02403 10114 20067 39536 40276 53004 60002 333 10153
AAXX 01184 08360 02980 10000 10134 20081 30217 40254 52009 60002 80001 333 10205 60007
AAXX 01184 08373 02560 12702 10128 20115 30228 40250 53003 60002 81600 333 10196 60007
AAXX 01184 08410 02980 02102 10112 20035 30171 40283 53008 60002 333 10164 60007
AAXX 01184 08419 02980 02304 10106 20024 39606 40281 53011 60002 333 10171 60007
AAXX 01184 08451 NIL
AAXX 01184 08487 02680 12504 10139 20111 30234 40260 53006 60002 81800 333 10168 60007
AAXX 01181 13168 NIL
AAXX 01181 13174 NIL
AAXX 01181 13269 NIL
AAXX 01181 13274 NIL
AAXX 01181 13278 NIL
AAXX 01181 13378 NIL
AAXX 01181 13397 NIL
AAXX 01181 13457 32970 00000 10019 21004 30244 40252 52014 333 10121
AAXX 01181 13481 NIL
AAXX 01184 17500 NIL
AAXX 01184 17501 11560 62408 10147 20087 30104 40123 52019 60032 72588 84950 333 10163 81925 83830 92437
AAXX 01184 17505 11560 70405 10118 20103 30020 40133 52014 60102 78088 84950 333 10171 81925 83830
AAXX 01184 17507 NIL
AAXX 01184 17510 11560 60000 10117 20104 30090 40100 52015 60092 72598 85850 333 10186 82825 84630 92427
AAXX 01184 17515 11560 62904 10099 20082 39967 40144 52022 60042 79598 84950 333 10159 81925 83830
AAXX 01184 17521 11560 72708 10114 20088 39981 40119 52021 60012 71322 86950 333 10165 82930 84830 85360
AAXX 01184 17530 11560 62505 10111 20091 30076 40133 52024 60042 78022 84950 333 10169 81925 83830
AAXX 01184 17535 11560 60000 10115 20092 30075 40111 52021 60092 70382 84950 333 10148 81925 83830
AAXX 01184 17540 11560 62105 10133 20098 30117 40141 52025 60092 71311 84950 333 10166 81925 83830 92437
AAXX 01184 17547 11560 60208 10099 20087 39877 40122 52017 60052 71300 94950 333 10145 81925 83830 92437
AAXX 01184 17550 11560 70406 10116 20096 39976 40122 52024 60052 70382 84950 333 10152 81925 83830 92447
AAXX 01184 17572 11560 6//// 10125 20098 30110 40135 52022 60192 72598 85850 333 10171 82825 84630 92427
AAXX 01181 03967 11480 32410 10044 20025 39853 49967 53009 69952 72581 83830 333 10090 82818
AAXX 01181 15501 12970 00000 10001 21033 30196 40242 53016 60002 333 10058 21022 555 578//
AAXX 01181 15505 12970 01402 11005 21050 39870 40257 52010 60002 333 10060 21015 41998 555 572//
AAXX 01181 15511 12968 03202 10021 21023 30214 40255 52015 60002 333 10063 21020 555 573//
AAXX 01181 15514 12968 00000 10013 21019 30201 40238 52012 60002 333 10046 21014 555 579//
AAXX 01181 15530 12962 00000 11020 21033 30013 40262 53011 60002 333 10069 21020 43009 555 591//
AAXX 01181 15533 12970 00000 10006 21021 30199 40232 52010 60002 333 10044 20006 43002 555 582//
AAXX 01181 15550 12958 00000 10008 21009 30215 40235 52015 60002 333 10046 20000 555 588//
AAXX 01181 15561 12970 02706 10008 21015 30238 40246 52026 60002 222// 00072 2//01 333 10060 20002 555 584// 92024 92428
AAXX 01181 15562 12962 03209 10018 21017 30178 40253 52019 60002 222// 2//02 333 10046 20010 555 578// 92035 92437
AAXX 01181 15600 11989 03210 11084 21148 38309 48517 52011 60002 70000 333 11080 21084 48012 555 560//
AAXX 01181 15601 12980 00000 11026 21069 39608 40255 52013 60002 333 10070 21028 555 569//
AAXX 01181 15605 12970 03203 11040 21046 39393 40277 52018 60002 333 10014 21056 44003 555 595//
AAXX 01181 15613 11989 03412 11088 21260 37703 47036 52012 60002 70200 333 11088 21134 48047 555 523//
AAXX 01181 15628 12980 00000 11040 21066 39998 40270 52019 60002 333 10054 21048 43008 555 582//
AAXX 01181 15642 12980 00000 10000 21012 30072 40247 52016 60002 333 10068 20000 555 592//
AAXX 01181 15661 12970 02702 10030 21022 30196 40233 52008 60002 222// 20000 333 10064 20026 555 569// 92012 92418
AAXX 01181 15726 11983 03503 11081 21143 38260 48528 52014 60002 70141 333 11045 21081 44051 555 561//
AAXX 01184 71726 16/// /1403 11022 21032 39526 40069 57052 60001 333 11022 21059 70000
AAXX 01184 71727 12682 80803 11067 21093 39931 40133 56032 60001 885// 333 11066 21132 79999
AAXX 01184 71728 11348 81205 11085 21108 39893 40119 58042 69901 77122 887// 333 11083 21148 44002 79999 90952
AAXX 01184 71730 11120 81410 11001 21002 39537 49959 58061 60011 77142 887// 333 11001 21061 48013 70001 90921
AAXX 01184 71731 11/06 91409 11005 21013 39534 49983 57068 69981 77372 333 11004 21061 48017 70008 90910 93101
AAXX 01184 71735 NIL
AAXX 01184 71738 11259 83004 10007 21003 39604 49953 56027 60021 77177 885// 333 10008 21040 43027 70016 90973 93102
AAXX 01184 71739 41108 81206 11030 21037 39601 49963 57055 6//// 77177 887// 333 11029 21072 4//// 7//// 90973 93102
AAXX 01184 71749 16564 83013 11036 21071 39802 40048 50002 60001 333 11004 21037 70045
AAXX 01184 71799 11783 72903 10038 20021 30238 40262 58004 69941 70262 83570 333 10052 20028 70009 90937
AAXX 01184 71800 17/// /0422 10019 20019 39881 49913 56070 60151 7//4/ 333 10031 21016 70147
AAXX 01184 71801 11224 80722 10007 20005 39796 49968 56071 60161 76374 887// 333 10007 21030 42004 70180 90973 93106
AAXX 01184 71803 11240 80613 11007 21017 39845 40032 56034 60021 77122 887// 333 11005 21044 44008 70046 90952 93102
AAXX 01184 71807 NIL
AAXX 01184 71808 11574 60204 11042 21062 30050 40097 56022 69921 70272 86500 333 11041 21154 44028 70014 90930
AAXX 01184 71809 11362 80414 11004 21017 30021 40048 57022 60031 77176 887// 333 11004 21040 43013 70206 90983 93103
AAXX 01184 71810 17/// /3506 11031 21065 30058 40125 55010 69931 7//4/ 333 11028 21055 70049
AAXX 01184 71811 NIL
AAXX 01184 71813 16/// /3609 11054 21104 30090 40104 55009 60001 333 11054 21114 70056
AAXX 01184 71814 16/// /0114 11044 21062 30078 40088 55013 60001 333 11044 21111 70050
AAXX 01184 71815 11462 80312 10016 21008 39997 40028 55005 60091 76166 885// 333 10030 21021 41002 70156 90983
AAXX 01184 71401 16/// /3502 11023 21063 39683 40393 51016 60001 333 11023 21045 70007
AAXX 01184 71402 NIL
AAXX 01184 71404 NIL
AAXX 01184 71405 NIL
AAXX 01184 71406 NIL
AAXX 01184 71407 NIL
AAXX 01184 71408 NIL
AAXX 01184 71409 NIL
AAXX 01184 71410 17559 83212 11117 21144 39953 40242 51026 60001 771// 333 11084 21134 70003
AAXX 01184 71413 NIL
AAXX 01184 71414 NIL
AAXX 01184 71415 16/// /3324 10010 20004 30079 40082 53033 60001 333 10076 20010 70170
AAXX 01184 71417 NIL
AAXX 01184 71418 NIL
AAXX 01184 71419 46/// /3132 10039 20031 30008 40018 53040 6///1 333 10077 20038 7////
AAXX 01184 71423 NIL
AAXX 01184 71424 46/// /0702 6///1 333 7////
AAXX 01184 71425 NIL
AAXX 01184 71426 NIL
AAXX 01184 71427 NIL
AAXX 01184 71428 16/// /3005 11026 21050 30138 40144 56006 60001 333 11020 21061 70010
AAXX 01184 71429 16/// /3506 11014 21036 30096 40115 53003 60001 333 11004 21031 70180
AAXX 01184 71434 NIL
AAXX 01184 71436 17662 81411 10033 20017 39778 40011 56076 60031 76244 333 10046 21011 70083
AAXX 01184 71437 NIL
AAXX 01184 71438 NIL
AAXX 01184 71439 NIL
AAXX 01184 71440 NIL
AAXX 01184 71442 NIL
AAXX 01184 71445 NIL
AAXX 01184 71446 NIL
AAXX 01184 71448 16/// /3221 11102 21130 39879 40218 51034 60001 333 11018 21102 70000
AAXX 01184 71449 NIL
AAXX 01184 71350 16/// /3414 11007 21015 30029 40095 53025 60001 333 10048 21007 70186
AAXX 01184 71351 NIL
AAXX 01184 71352 17/// /1812 10032 20028 39529 49977 58059 60041 7//4/ 333 10034 20004 70041
AAXX 01184 71353 NIL
AAXX 01184 71354 NIL
AAXX 01184 71355 16/// /2803 11327 21362 30054 40144 53011 60001 333 11307 21347 70000 555 10010
AAXX 01184 71356 NIL
AAXX 01184 71357 NIL
AAXX 01184 71358 17/// /2702 11381 21423 30057 40094 53009 69931 7//4/ 333 11336 21392 70027
AAXX 01184 71359 NIL
AAXX 01184 71360 NIL
AAXX 01184 71361 NIL
AAXX 01184 71362 NIL
AAXX 01184 71363 NIL
AAXX 01184 71364 NIL
AAXX 01184 71365 NIL
AAXX 01184 71368 17366 81813 10042 20035 39600 49984 58056 60041 7614/ 333 10043 20008 70040
AAXX 01184 71369 15966 00902 11157 21182 39610 40351 51012 60001 333 11094 21180 70000
AAXX 01184 71370 46/// /0704 11030 21035 39978 40116 58041 6///1 333 11030 21046 7////
AAXX 01184 71371 17240 81008 10001 21008 30072 40106 58054 60001 710// 333 10001 21028 70000
AAXX 01184 71372 NIL
AAXX 01184 71373 NIL
AAXX 01184 71374 NIL
AAXX 01184 71375 NIL
AAXX 01184 71376 NIL
AAXX 01184 71377 17/// /0806 10002 21009 30047 40096 58058 69931 7//4/ 333 10002 21031 70003
AAXX 01184 71378 NIL
AAXX 01184 71379 16/// /1308 11086 21101 39924 40098 58046 60001 333 11084 21147 70000
AAXX 01184 71380 NIL
AAXX 01184 71381 NIL
AAXX 01184 71382 16/// /1905 11031 21035 39164 40100 58029 60001 333 11028 21057 70000
AAXX 01184 71383 NIL
AAXX 01184 71384 16/// /2002 11024 21042 30133 40141 58036 60001 333 11020 21057 70010
AAXX 01184 71385 NIL
AAXX 01184 71386 16/// /3503 11039 21054 39928 40136 58012 60001 333 11036 21091 70080
AAXX 01184 71387 NIL
AAXX 01184 71388 46/// /2902 11067 21086 39936 40129 56034 6///1 333 11067 21124 7////
AAXX 01184 71389 NIL
AAXX 01184 71390 46/// /2804 11031 6///1 333 11031 21074 7////
AAXX 01184 71391 16/// ///// 11019 21028 60001 333 11019 21033 70011
AAXX 01184 71392 16/// /0505 11032 21038 60001 333 11031 21053 70012
AAXX 01184 71393 NIL
AAXX 01184 71395 12474 83221 10014 21006 39912 40089 53013 60001 885// 333 10081 20008 70351
AAXX 01184 71398 17466 81304 11036 21046 39960 49971 58042 60001 771// 333 11036 21107 70000
AAXX 01184 71399 NIL
AAXX 01184 71700 15566 82906 11003 21019 30120 40146 56012 60001 333 10007 21026 70031
AAXX 01184 71701 12469 82907 11005 21022 30083 40146 55010 60001 885// 333 10004 21019 70034
AAXX 01184 71702 16/// /3518 11003 21015 30091 40106 53017 60001 333 10025 21005 70202
AAXX 01184 71703 12469 83202 11047 21059 39845 40147 58017 60001 885// 333 11044 21058 70046
AAXX 01184 71704 17666 82115 10077 20052 39744 49960 57046 60021 7004/ 333 10077 20021 70023
AAXX 01184 71710 16/// /3522 11006 21012 30061 40070 53021 60001 333 10031 21014 70260
AAXX 01184 71712 16/// /0608 10005 21003 30023 40084 58064 60001 333 10006 21027 70000
AAXX 01184 71713 NIL
AAXX 01184 71716 NIL
AAXX 01184 71717 NIL
AAXX 01184 71720 16/// /1002 10033 21005 30107 40263 58001 60001 333 10033 21003 70000
AAXX 01184 71721 NIL
AAXX 01184 71723 16/// /0603 11015 21027 30112 40122 58042 60001 333 11015 21034 70011
AAXX 01184 71724 NIL
AAXX 01184 71732 16/// /1610 10004 21008 60001 333 10005 21056 70000
AAXX 01184 71733 17/// /1311 11001 21001 39529 49953 58063 69971 7//4/ 333 11001 21060 70007
AAXX 01184 71734 NIL
AAXX 01184 71736 NIL
AAXX 01184 71737 NIL
AAXX 01184 71741 NIL
AAXX 01184 71742 NIL
AAXX 01184 71743 NIL
AAXX 01184 71744 NIL
AAXX 01184 71745 NIL
AAXX 01184 71746 NIL
AAXX 01184 71747 NIL
AAXX 01184 71748 NIL
AAXX 01184 71550 NIL
AAXX 01184 71551 NIL
AAXX 01184 71552 46/// /3329 11099 21116 6///1 333 11027 21101 7////
AAXX 01184 71553 NIL
AAXX 01184 71554 16/// /2305 11040 21061 30145 40151 56023 60001 333 11035 21066 70042
AAXX 01184 71555 16/// /2812 11031 21161 38719 40339 56001 60001 333 21117 7////
AAXX 01184 71556 NIL
AAXX 01184 71557 46/// /0601 11033 21059 6///1 333 11033 21056 7////
AAXX 01184 71558 46/// ///// 11045 21055 30053 40090 56025 6///1 333 11041 21123 7////
AAXX 01184 71559 46/// /3019 11083 21125 39631 40361 51029 6///1 333 11064 21094 7////
AAXX 01184 71560 46/// /3331 11070 21118 39938 40248 51034 6///1 333 11017 21077 7////
AAXX 01184 71563 NIL
AAXX 01184 71564 NIL
AAXX 01184 71565 NIL
AAXX 01184 71566 NIL
AAXX 01184 71567 NIL
AAXX 01184 71568 17/// /1313 10032 20008 30228 40241 56001 69921 7//4/ 333 10043 20016 70002
AAXX 01184 71569 16/// /2916 11102 21147 39630 40362 51026 60001 333 11071 21135 70000
AAXX 01184 71570 16/// /3116 11099 21135 39901 40221 51036 60001 333 11023 21101 70000
AAXX 01184 71571 NIL
AAXX 01184 71572 NIL
AAXX 01184 71573 17/// /2011 10070 20042 39703 49980 58055 60061 7//4/ 333 10071 20025 70055
AAXX 01184 71574 12574 83004 11007 21026 30061 40135 58006 60001 885// 333 11003 21073 70120
AAXX 01184 71575 NIL
AAXX 01184 71576 NIL
AAXX 01184 71577 46/// /3319 11089 21127 6///1 333 11015 21098 7////
AAXX 01184 71578 NIL
AAXX 01184 71579 NIL
AAXX 01184 71580 12974 03506 11353 21387 30149 40188 53016 60001 333 11325 21400 45030 79999
AAXX 01184 71581 NIL
AAXX 01184 71582 17662 81210 10031 20015 30063 40116 56024 60021 7614/ 333 10046 21006 70018
AAXX 01184 71583 NIL
AAXX 01184 71584 15966 03407 11035 21069 30076 40124 56015 60001 333 11033 21111 70000
AAXX 01184 71585 NIL
AAXX 01184 71586 NIL
AAXX 01184 71587 NIL
AAXX 01184 71588 16/// /1602 10008 21016 60001 333 10008 21047 70000
AAXX 01184 71589 17/// /0605 11009 21009 39879 40011 56041 60061 7//4/ 333 11005 21048 70070 555 10080
AAXX 01184 71590 16/// /2702 11047 21072 39949 40143 58024 60001 333 11045 21060 70036
AAXX 01184 71592 NIL
AAXX 01184 71593 NIL
AAXX 01184 71596 NIL
AAXX 01184 71598 17/64 /3207 11005 21027 30119 40125 56007 60021 7//4/ 333 10000 21026 70104
AAXX 01184 71599 NIL
AAXX 01184 71114 160// /1114 10030 21034 30256 40305 50001 60001 333 10030 20003 70000
AAXX 01184 71120 12974 12507 11139 21194 39674 40363 53014 60001 80001 333 11083 21167 79999
AAXX 01184 71122 16/// /2505 11134 21196 38716 40404 50012 60001 333 21172 7////
AAXX 01184 71123 12974 11808 11119 21200 39455 40369 50005 60001 80001 333 11118 21216 70000
AAXX 01184 71125 12974 02610 11121 21175 39741 40354 52016 60001 333 70006
AAXX 01184 71129 12974 22302 11091 21152 39518 40388 53011 60001 80001 333 11091 21148 70000
AAXX 01184 71131 16/// /2408 11121 21179 39079 40395 51013 60001 333 11084 21187 70000
AAXX 01184 71135 16/// /3012 11095 21160 39262 40396 51029 60001 333 11069 21114 70000
AAXX 01184 71137 NIL
AAXX 01184 71140 11574 63115 11080 21110 39780 40298 5/024 69901 70271 86500 333 11037 21090 44005 79999 90940
AAXX 01184 71145 11440 83314 11128 21154 39885 40187 52034 60011 77177 885// 333 11071 21129 48039 70026 90983 93101
AAXX 01184 71148 NIL
AAXX 01184 71185 17964 00806 10004 30031 40055 56019 69951 7//44 333 10005 21059 70020
AAXX 01184 71188 NIL
AAXX 01184 71200 16/// /0308 10058 20007 60001 333 10058 20036 70000
AAXX 01184 71207 16/// /3504 10010 21020 30216 40282 50001 60001 333 10010 21007 70000
AAXX 01184 71260 13/// ///// 10006 20004 39723 49956 57030 60071 333 10015 21015 43006 70072
AAXX 01184 71864 NIL
AAXX 01184 71865 16/// /2909 11093 21136 39637 40344 51022 60001 333 11064 21109 70000
AAXX 01184 71866 46964 02608 11108 21155 39732 40372 51020 6///1 333 11053 21141 7////
AAXX 01184 71867 11440 8//// 11095 21118 39937 40285 52020 69901 77177 887// 333 11086 21129 47025 70016 90983
AAXX 01184 71868 16/// /3114 11077 21130 39847 40304 51017 60001 333 11076 21091 70000
AAXX 01184 71869 12974 02607 11105 21146 39799 40346 52018 60001 333 11043 21129 79999
AAXX 01184 71871 15966 02512 11119 21189 39525 40371 51012 60001 333 11095 21171 70000
AAXX 01184 71877 12986 11604 11094 21105 39033 40368 58003 60001 81070 333 11094 21151 70000
AAXX 01184 71878 12974 01814 11092 21117 39239 40366 58001 60001 333 11090 21218 70000
AAXX 01184 71879 16964 01902 11102 21209 39522 40363 50008 60001 333 11085 21148 70005
AAXX 01184 71880 12982 53505 11071 21108 39262 40418 51017 60001 85070 333 11066 21096 70000
AAXX 01184 71882 160// /3603 11057 21080 39850 40412 53016 60001 333 11036 21061 70000
AAXX 01184 71883 46/// /0000 11155 21166 39546 40421 53014 6///1 333 11155 21197 7////
AAXX 01184 71887 12886 81212 11021 21082 39917 40353 53013 60001 84071 333 11021 21037 70000
AAXX 01184 71889 11774 81607 10016 21033 39932 40363 53008 69901 70272 82571 333 10016 21039 79999 90951
AAXX 01184 71891 16964 30000 11013 21039 30043 40326 50004 60001 333 11013 21023 70000
AAXX 01184 71892 11680 81604 10048 21015 30257 40262 55005 69921 70282 885// 333 10049 20013 70002 90941
AAXX 01184 71816 12974 22302 11159 21203 30085 40149 57022 60001 80001 333 11152 21250 70000
AAXX 01184 71817 NIL
AAXX 01184 71818 12974 02304 11135 21166 30110 40129 57024 60001 333 11126 21221 70000
AAXX 01184 71822 11248 81508 11051 21062 39594 40074 56041 69901 77122 886// 333 11051 21128 43045 79999 90931
AAXX 01184 71825 NIL
AAXX 01184 71827 11348 81413 11072 21080 39769 40016 58030 69901 77177 885// 333 11072 21186 47018 79999 90983
AAXX 01184 71828 17362 62208 11145 21165 39461 40128 56024 69951 7//44 333 11143 21277 70005
AAXX 01184 71831 11/08 91307 11021 21030 39680 49959 58039 60061 77377 333 11021 21047 48048 70066 90973 93106
AAXX 01184 71832 NIL
AAXX 01184 71834 11362 83208 11028 21045 39566 49991 58008 60021 77177 887// 333 11003 21089 47034 70080 90983 93102
AAXX 01184 71841 NIL
AAXX 01184 71842 11458 83220 11066 21093 39623 40098 51018 69901 77177 886// 333 11024 21068 47010 70018 90973
AAXX 01184 71844 NIL
AAXX 01184 71845 11220 83217 11082 21098 39583 40061 51024 60021 77177 887// 333 11032 21085 44024 70024 90973
AAXX 01184 71850 11432 83317 11101 21131 39656 40166 51029 69961 77177 887// 333 11015 21101 48012 70024 90973 93101
AAXX 01184 71852 17564 83329 11074 21122 39949 40251 51037 69951 74544 333 11017 21091 70005
AAXX 01184 71854 11448 73112 11085 21125 39664 40146 52028 69941 77177 87500 333 11028 21085 48019 70054 90993
AAXX 01184 71858 16/// /3209 11082 21115 39969 40260 51018 60001 333 11082 21118 70015
AAXX 01184 71861 16/// /3014 11093 21119 39579 40332 51026 60001 333 11066 21101 70000
AAXX 01184 71862 11574 13015 11085 21126 39636 40367 52029 69901 70271 81500 333 11066 21097 48009 79999 90941
AAXX 01184 71863 46864 33113 11118 21165 39644 40376 51025 6///1 333 11075 21145 7////
AAXX 01184 71604 NIL
AAXX 01184 71605 16/// /3504 10047 20000 30106 40258 58007 60001 333 10055 20014 70000
AAXX 01184 71611 NIL
AAXX 01184 71612 NIL
AAXX 01184 71614 NIL
AAXX 01184 71616 16/// /0703 11005 21016 30009 40131 57046 60001 333 11005 21040 70010
AAXX 01184 71617 16/// /0402 11077 21092 39964 40139 56035 60001 333 11074 21131 70010
AAXX 01184 71618 17/04 /3428 11215 21241 30171 40210 51030 69931 7734/ 333 11131 21215 70003
AAXX 01184 71619 NIL
AAXX 01184 71622 NIL
AAXX 01184 71632 46/// /3310 11148 21176 39822 40281 51023 6///1 333 11128 21156 7////
AAXX 01184 71634 16/// /0000 11013 21025 39984 40139 58002 60001 333 11012 21078 70065
AAXX 01184 71638 16/// /3202 10059 20005 30141 40248 55007 60001 333 10063 20008 70000
AAXX 01184 71639 11466 81408 10032 20013 39757 49996 58067 69921 78022 887// 333 10038 20008 70002 90921
AAXX 01184 71642 11/08 90000 10002 20002 39407 49946 57041 60061 77172 333 10002 21084 44029 70060 90952
AAXX 01184 71893 11474 81807 10034 20016 30224 40256 58004 60011 76122 885// 333 10050 20007 70012 90952
AAXX 01184 71894 16/// /0917 10094 20025 30172 40181 55003 60001 333 10094 20015 70004
AAXX 01184 71896 15966 03607 11132 21144 39420 40292 55000 60001 333 11132 21192 70000
AAXX 01184 71897 11474 80925 10050 20019 3//// 4//// 57032 60011 780XX 8892X 333 10052 20010 70010 90999
AAXX 01184 71898 160// ///// 10067 58047 60001 333 10068 21014 70010
AAXX 01184 71899 12366 81216 10053 20034 3//// 4//// 57047 60001 888XX 333 10058 20000 70018
AAXX 01184 71902 12874 32605 11145 21218 30103 40112 57018 60001 83010 333 11139 21200 70000
AAXX 01184 71905 NIL
AAXX 01184 71906 12874 10000 11139 21206 30050 40102 56016 60001 81071 333 11138 21237 70000
AAXX 01184 71907 16464 60908 11134 21153 30021 40054 58022 60001 333 11124 21152 70000
AAXX 01184 71909 16064 80803 11162 21191 30026 40070 56003 60001 333 11143 21190 70000
AAXX 01184 71910 46964 02502 11248 21289 30033 40097 50003 6///1 333 11145 21250 7////
AAXX 01184 71911 46014 02713 11354 30140 40201 51011 6///1 333 11344 21439 7////
AAXX 01184 71912 11458 83114 11169 21196 30016 40206 53032 69921 77177 886// 333 11100 21169 47022 70032 90983
AAXX 01184 71915 11474 73312 11301 21343 30043 40128 52003 69901 77177 83530 333 11206 21301 48042 79999 90983
AAXX 01184 71917 11959 70402 11337 21395 30132 40147 53010 69901 77677 86078 333 11302 21383 47015 79999 90983
AAXX 01184 71922 12974 02907 11126 21159 39836 40322 51019 60001 333 11088 21142 70012
AAXX 01184 71924 11916 03108 11312 21354 30105 40200 53020 69901 77677 333 11309 21349 48038 79999 90983
AAXX 01184 71925 11962 23008 11363 21408 30260 40305 51009 69901 77677 82030 333 11357 21389 42021 79999 90983
AAXX 01184 71926 11956 03315 11325 21382 30246 40272 53029 60001 73800 333 11301 21338 79999
AAXX 01184 71928 16/// /1102 11178 21242 39133 40369 51007 60001 333 11169 21243 70000
AAXX 01184 71051 NIL
AAXX 01184 71055 NIL
AAXX 01184 71057 NIL
AAXX 01184 71059 460// ///// 11306 30190 40288 53014 6///1 333 11301 21345 7////
AAXX 01184 71061 16/// /1502 11130 21195 39522 40353 50007 60001 333 11117 21182 70000
AAXX 01184 71062 46/// /1605 11100 21207 39207 40330 50001 6///1 333 11100 21162 7////
AAXX 01184 71064 460// /3307 11332 30078 40311 51013 6///1 333 11315 21373 7////
AAXX 01184 71065 NIL
AAXX 01184 71067 NIL
AAXX 01184 71070 NIL
AAXX 01184 71073 NIL
AAXX 01184 71074 16/// ///06 11310 21341 30126 40208 53004 60001 333 11310 21329 7////
AAXX 01184 71075 NIL
AAXX 01184 71078 NIL
AAXX 01184 71084 460// ///// 11342 30211 40263 51008 6///1 333 11341 21363 7////
AAXX 01184 71085 15966 32822 11020 21116 38925 40349 58002 60001 333 11020 21122 70000
AAXX 01184 71087 NIL
AAXX 01184 71088 460// /3114 11332 51005 6///1 333 11317 21336 7////
AAXX 01184 71089 NIL
AAXX 01184 71096 460// ///// 11258 39296 40051 53006 6///1 333 11223 21261 7////
AAXX 01184 71097 47964 03304 11171 39587 40072 53002 6///1 741// 333 11171 21189 7////
AAXX 01184 71098 43/// /3215 11117 21140 39783 40149 51034 6///1 333 11031 21118 7////
AAXX 01184 71099 43/// /3413 11094 21111 30035 40055 52010 6///1 333 11089 21125 7////
AAXX 01184 71450 16/// /2709 11101 21161 39630 40381 51023 60001 333 11072 21162 70000
AAXX 01184 71451 16/// /3004 11116 21147 39854 40298 51021 60001 333 11087 21137 70006 555 10010
AAXX 01184 71452 46/// /3016 11093 21130 39626 40367 51029 6///1 333 11062 21107 7////
AAXX 01184 71453 16/// /1905 11046 21122 39444 40395 51008 60001 333 11046 21127 70000
AAXX 01184 71454 16/// /3203 11114 21171 39614 40336 51018 60001 333 11093 21167 70000
AAXX 01184 71455 NIL
AAXX 01184 71456 16/// /2608 11117 21154 39717 40341 51017 60001 333 11087 21126 70000
AAXX 01184 71457 16/// /1606 11112 21128 39440 40382 50001 60001 333 11112 21220 70014 555 10010
AAXX 01184 71458 16/// /1604 11136 21197 39564 40378 51016 60001 333 11104 21210 70000
AAXX 01184 71459 NIL
AAXX 01184 71460 16/// /1416 10031 20026 39711 49949 56068 60001 333 10034 21038 70000
AAXX 01184 71461 NIL
AAXX 01184 71462 NIL
AAXX 01184 71463 NIL
AAXX 01184 71464 NIL
AAXX 01184 71465 NIL
AAXX 01184 71466 NIL
AAXX 01184 71468 NIL
AAXX 01184 71470 NIL
AAXX 01184 71471 15966 01103 11131 21184 39478 40300 55004 60001 333 11073 21188 70000
AAXX 01184 71473 16/// /0914 10044 21024 30227 40257 58003 60001 333 10044 20022 70000
AAXX 01184 71475 16/// /2508 10002 20001 30164 40260 55001 60001 333 10002 21019 70002
AAXX 01184 71476 NIL
AAXX 01184 71477 17/// /1334 10046 20029 60041 7//4/ 333 10049 20019 70064
AAXX 01184 71478 NIL
AAXX 01184 71479 NIL
AAXX 01184 71480 NIL
AAXX 01184 71481 NIL
AAXX 01184 71482 NIL
AAXX 01184 71483 NIL
AAXX 01184 71484 NIL
AAXX 01184 71485 17/// /1250 10058 20007 30105 40125 58019 69921 7//4/ 333 10058 20031 70004
AAXX 01184 71486 16/// /1904 11167 21191 39116 40392 50001 60001 333 11144 21202 70000
AAXX 01184 71487 16/// /2912 11084 21143 39483 40388 51024 60001 333 11067 21112 70000
AAXX 01184 71489 NIL
AAXX 01184 71490 NIL
AAXX 01184 71491 NIL
AAXX 01184 71492 NIL
AAXX 01184 71493 16/// /3310 10010 21005 30073 40111 53008 60001 333 10042 20009 70117
AAXX 01184 71494 16/// /1705 11027 21028 39604 40129 56031 60001 333 11026 21048 70009
AAXX 01184 71495 NIL
AAXX 01184 71496 16/// /2710 11108 21155 39729 40367 51021 60001 333 11053 21141 7////
AAXX 01184 71497 46/// /0904 11222 21248 30002 40284 53006 6///1 333 21248 7////
AAXX 01184 71498 NIL
AAXX 01184 71499 17366 82807 11129 21142 39647 40301 51019 60001 771// 333 11118 21142 70000
AAXX 01184 71603 12369 83212 10022 21002 30091 40144 51007 60001 886// 333 10030 20018 70082
AAXX 01184 71607 16/// /3405 11014 21035 30122 40155 50000 60001 333 10015 21017 70037
AAXX 01184 71609 11474 83610 10001 21034 30003 40138 55001 69901 70272 885// 333 10062 21009 70066 90950
AAXX 01184 71610 17428 80907 11003 21010 39828 40126 58038 60001 710// 333 11003 21026 70008
AAXX 01184 71621 12474 81604 10055 20023 39930 40035 56069 60001 81670 333 10062 21010 70005
AAXX 01184 71623 NIL
AAXX 01184 71624 11358 81309 10041 20039 39783 49992 58066 60021 76181 887// 333 10049 20014 70024 90931
AAXX 01184 71625 17258 81408 11001 21006 39866 40027 56081 69951 7//44 333 11001 21069 70005
AAXX 01184 71627 11348 81006 10002 21017 30058 40103 58057 60001 71042 887// 333 10002 21034 79999
AAXX 01184 71628 11124 80911 10001 21006 39922 40063 58074 60001 71022 84500 333 10001 21214 70022
AAXX 01184 71630 NIL
AAXX 01184 71631 NIL
AAXX 01184 71633 11474 81715 10036 20029 39682 49949 56064 60021 76162 885// 333 10040 21003 41003 70020 90926
AAXX 01184 71705 11262 83106 11002 21009 30038 40126 51009 69941 78575 887// 333 10011 21005 41997 70104 90937
AAXX 01184 71706 11324 83515 11002 21006 30041 40101 53025 69941 78582 887// 333 10057 21004 70176 90916
AAXX 01184 71707 11261 83515 10030 20018 39935 40011 53033 60061 75164 887// 333 10060 21003 70164 90973
AAXX 01184 71709 11256 83625 11006 21015 30062 40075 53020 69901 72452 887// 333 10034 21015 70280 90917
AAXX 01184 71711 NIL
AAXX 01184 71714 16/// /0504 11029 21036 30061 40154 57040 60001 333 21048 7////
AAXX 01184 71715 16/// /1704 11050 21063 39959 40144 57028 60001 333 11050 21078 70017 555 10010
AAXX 01184 71718 11462 82405 11047 21060 30083 40149 58022 69901 78576 887// 333 11037 21076 48013 70060 90937
AAXX 01184 71719 17/// /3512 11005 21025 30115 40121 56009 60021 7//4/ 333 10000 21023 70113 555 10020
AAXX 01184 71900 46/// /18// 11175 21218 30105 40118 56018 6///1 333 11171 21213 7////
AAXX 01184 71903 NIL
AAXX 01184 71904 NIL
AAXX 01184 71914 16/// /0503 10040 21025 30037 40262 50000 60001 333 10040 20016 70000
AAXX 01184 71916 NIL
AAXX 01184 71918 460// ///// 11377 6///1 333 7////
AAXX 01184 71920 NIL
AAXX 01184 71921 NIL
AAXX 01184 71923 NIL
AAXX 01184 71927 17/// /1901 10026 20017 30208 40267 57004 69971 7//4/ 333 10038 20002 70012
AAXX 01184 71941 17256 81514 11027 21030 39594 40011 58073 60001 710// 333 11027 21081 70000
AAXX 01184 71947 15266 81510 11045 21045 39667 40015 58052 60001 333 11045 21105 70000
AAXX 01184 71397 12474 83307 10020 21007 30095 40130 53003 60001 885// 333 10053 20018 70084
AAXX 01184 71400 17/64 /0205 11005 21009 60011 7//4/ 333 11005 21035 70077
AAXX 01184 71403 46/// /3230 10036 20012 30034 40054 53022 6///1 333 10080 20036 7////
AAXX 01184 71411 16/// /3110 10036 20016 30113 40125 53014 60001 333 10084 20032 70238
AAXX 01184 71412 16/// /3526 10007 20000 30054 40064 53037 60001 333 10066 20006 70276
AAXX 01184 71421 NIL
AAXX 01184 71430 16/// /1521 10056 20027 39935 40031 56074 60001 333 10061 21002 70000
AAXX 01184 71431 NIL
AAXX 01184 71432 NIL
AAXX 01184 71433 NIL
AAXX 01184 71435 NIL
AAXX 01184 71441 46/// /3328 11071 21127 39936 40253 51034 6///1 333 11015 21079 7////
AAXX 01184 71443 16/// /3013 11077 21119 39863 40289 51013 60001 333 11051 21085 70000 555 10010
AAXX 01184 71444 16/// /3109 11095 21126 39494 40275 51023 60001 333 11051 21104 70000
AAXX 01184 71447 16/// /3222 11070 21104 39757 40321 51029 60001 333 11047 21084 70000
AAXX 01184 71467 16/// /1203 11282 21309 30167 40289 53011 60001 333 11260 21290 70000
AAXX 01184 71472 NIL
AAXX 01184 71474 16864 31707 11065 21098 39033 40313 53006 60001 333 11065 21114 70000
AAXX 01184 71510 16/// /2710 11113 21168 60001 333 11088 21183 70000
AAXX 01184 71538 11569 82430 10069 20029 39765 49992 55019 69961 70282 885// 333 10088 20030 70006 90926
AAXX 01184 71600 164// 83032 10053 20034 30008 40014 53036 60041 333 10098 20051 70200
AAXX 01184 71601 NIL
AAXX 01184 71150 46/// /3121 11097 21118 39589 40293 51024 6///1 333 11053 21105 7////
AAXX 01184 71151 NIL
AAXX 01184 71152 17/// /0425 10030 20004 39960 49973 55018 60021 7//4/ 333 10040 21007 70080
AAXX 01184 71153 NIL
AAXX 01184 71154 16/// /2318 11008 21136 60001 333 11008 21053 70000
AAXX 01184 71155 NIL
AAXX 01184 71156 NIL
AAXX 01184 71157 46/// ///// 11104 21177 6///1 333 11088 21148 7////
AAXX 01184 71158 NIL
AAXX 01184 71159 NIL
AAXX 01184 71160 NIL
AAXX 01184 71161 17/// /1107 10036 20010 39895 40043 58081 60011 7//4/ 333 10036 21032 70012
AAXX 01184 71162 NIL
AAXX 01184 71163 46/// /1905 11184 21200 39948 40307 53026 6///1 333 11165 21195 7////
AAXX 01184 71164 NIL
AAXX 01184 71165 NIL
AAXX 01184 71166 NIL
AAXX 01184 71167 15966 02803 11191 21232 39201 40368 50008 60001 333 11128 21235 70000
AAXX 01184 71168 16/// /3127 11022 21098 39674 40275 51017 60001 333 11010 21041 70013
AAXX 01184 71170 16/// /3217 11077 21121 60001 333 11028 21083 70000
AAXX 01184 71171 17/// /2112 10074 20054 39893 49988 56060 60031 7//4/ 333 10076 20028 70026 555 10010
AAXX 01184 71172 17/// ///// 10012 20005 39740 49955 58066 60041 7//4/ 333 10022 21035 70041
AAXX 01184 71175 NIL
AAXX 01184 71176 460// /2413 11145 39377 40074 55005 6///1 333 11145 21208 7////
AAXX 01184 71177 460// /2506 11105 39052 40067 57017 6///1 333 11101 21157 7////
AAXX 01184 71178 17/// /0825 11002 21004 39978 40010 56055 60021 7//4/ 333 10005 21039 70024
AAXX 01184 71179 460// /2404 11105 39258 40099 56017 6///1 333 11077 21173 7////
AAXX 01184 71180 17/// /0211 10037 20021 39976 40015 55006 60091 7//4/ 333 10069 21006 70160
AAXX 01184 71181 17348 60519 10019 20007 39880 49916 56034 60131 74344 333 10025 21022 70175
AAXX 01184 71183 16/// /1006 30059 58058 60001 333 70000
AAXX 01184 71184 46/// /0605 10001 21010 6///1 333 10002 21026 7////
AAXX 01184 71186 NIL
AAXX 01184 71187 15866 31214 10028 21026 30256 40305 50002 60001 333 10028 20003 70000
AAXX 01184 71189 NIL
AAXX 01184 71190 NIL
AAXX 01184 71191 16/// ///// 10012 21012 60001 333 10028 20009 70083
AAXX 01184 71192 17959 00301 11128 21137 39603 40297 58004 60001 710// 333 11126 21170 70000
AAXX 01184 71193 17/// /1107 11034 21035 39600 49962 57055 69991 7//4/ 333 11033 21092 70013 555 10030
AAXX 01184 71196 16/// /1311 11007 21010 39826 40025 58083 60001 333 11007 21057 70000
AAXX 01184 71197 17564 80111 10041 20024 39962 40011 55004 60071 74344 333 10042 21006 70210
AAXX 01184 71198 46/// /0807 11012 21018 6///1 333 11011 21028 7////
AAXX 01184 71199 46/// /3201 11229 21253 39348 40231 55007 6///1 333 11229 21345 7////
AAXX 01184 71851 NIL
AAXX 01184 71857 NIL
AAXX 01184 71860 12983 10000 11114 21151 38895 40363 58002 60001 81041 333 11114 21163 70000
AAXX 01184 71876 15966 02606 11094 21156 39682 40375 50012 60001 333 11054 21168 70000
AAXX 01184 71885 NIL
AAXX 01184 71886 NIL
AAXX 01184 71888 NIL
AAXX 01184 71890 16/// /0502 11039 21075 30116 40144 56020 60001 333 11039 21067 70009 555 10010
AAXX 01184 71895 NIL
AAXX 01184 71930 13974 20000 11181 21239 39369 40354 50001 60003 80001 333 11125 21203 47016 70000
AAXX 01184 71931 16/// /0719 11007 21013 30006 40018 56048 60001 333 10025 21058 70000
AAXX 01184 71934 11274 80000 11191 21220 30053 40326 52027 69901 77171 885// 333 11191 21251 47029 70002 90952
AAXX 01184 71935 NIL
AAXX 01184 71936 11474 80000 11176 21204 30047 40321 53032 69901 77177 885// 333 11167 21178 48028 70006 90983
AAXX 01184 71937 NIL
AAXX 01184 71938 11566 80000 11302 21333 30276 40308 53012 69901 77077 885// 333 11295 21331 79999 90983
AAXX 01184 71940 12982 40000 11186 21223 39469 40315 58010 60001 80001 333 11183 21215 70000
AAXX 01184 71943 12974 61206 11117 21191 39425 40292 52002 60001 80001 333 11077 21126 70000
AAXX 01184 71944 160// ///// 11212 50000 60001 333 11138 21240 70000
AAXX 01184 71945 12983 30000 11199 21252 39762 40254 57005 60001 80001 333 11112 21208 70000
AAXX 01184 71946 12974 30000 11343 21354 30076 40312 50009 60001 80001 333 11343 21374 70000
AAXX 01184 71948 46064 /1207 11298 30159 40280 51016 6///1 333 11283 21302 7////
AAXX 01184 71949 46/// /1214 11153 21178 39249 40155 56032 6///1 333 11153 21245 7////
AAXX 01184 71951 11780 80214 11033 21052 39871 40142 58031 69901 77172 8657/ 333 11031 21080 47040 70016 90917
AAXX 01184 71957 46964 31208 11281 21353 30142 40237 53001 6///1 333 11281 21318 7////
AAXX 01184 71964 NIL
AAXX 01184 71966 16/// /0000 11314 21350 39667 40161 56038 60001 333 11313 21361 70000
AAXX 01184 71968 460// /3404 11356 30129 40198 58005 6///1 333 11235 21363 7////
AAXX 01184 71043 11983 11204 11321 21372 30154 40255 58003 69901 77677 81070 333 11316 21366 48034 79999 90983
AAXX 01184 71045 17/// /0808 11134 21148 39240 40129 57020 60021 7//4/ 333 11134 21250 70015 555 10070
AAXX 01184 71050 46/// /0901 11106 21123 39144 40259 58003 6///1 333 11081 21156 7////
AAXX 01184 71051 NIL
AAXX 01184 71052 NIL
AAXX 01184 71066 12974 30000 11238 21280 39873 40318 50011 60001 80001 333 11101 21266 79999
AAXX 01184 71068 12974 12502 11147 21208 39598 40322 50005 60001 80001 333 11087 21190 70000
AAXX 01184 71069 16964 00000 11163 21185 39611 40352 51013 60001 333 11097 21191 70000
AAXX 01184 71076 16/// /2502 11169 21183 39890 40302 53020 60001 333 11148 21192 70000
AAXX 01184 71077 16/// /2503 11134 21167 39777 40344 53022 60001 333 11115 21157 70000
AAXX 01184 71079 11466 83112 11152 21179 39957 40248 52025 69901 77172 885// 333 11117 21159 48012 70028 90937
AAXX 01184 71081 46964 03213 11363 21410 30103 40116 51008 6///1 333 11352 21370 7////
AAXX 01184 71082 NIL
AAXX 01184 71083 11908 03422 11302 21346 30160 40204 51025 69901 73871 333 11207 21302 48058 70002 90932
AAXX 01184 71090 46964 02702 11375 21415 30058 40095 53008 6///1 333 11331 21387 7////
AAXX 01184 71091 460// /2916 11309 39855 40073 51008 6///1 333 7////
AAXX 01184 71092 46562 30805 11274 39370 40058 53008 6///1 333 11258 21275 7////
AAXX 01184 71093 460// ///// 11267 39546 40060 53008 6///1 333 11232 21267 7////
AAXX 01184 71094 46064 /1603 11249 39091 40016 52001 6///1 333 11247 21257 7////
AAXX 01184 71095 46964 01903 11372 21412 30022 40108 53010 6///1 333 11362 21387 7////
AAXX 01184 71101 160// /1442 39987 56037 60011 333 70195
AAXX 01184 71104 11974 81517 11037 21107 39146 40290 53005 60001 73611 86071 333 11037 21110 70000
AAXX 01184 71108 11883 70406 10050 21027 30188 40262 50010 69901 70182 87030 333 10050 20012 79999 90950
AAXX 01184 71109 11680 81120 10046 20006 30128 40155 58010 69901 76122 8757/ 333 10049 20008 79999 90910
AAXX 01184 71201 16/// ///// 10072 20001 60001 333 10072 20035 70000
AAXX 01184 71202 17/// ///// 11082 21156 69941 7//4/ 333 11082 21173 70018
AAXX 01184 71203 15766 80701 11023 21047 39835 40374 53017 60001 333 11023 21057 70000
AAXX 01184 71209 46/// /1704 10042 6///1 333 10042 20028 7////
AAXX 01184 71211 46/// /0332 10042 21012 30242 40254 58009 6///1 333 10045 20027 7////
AAXX 01184 71212 16/// /0000 11045 21055 39306 40115 57026 60001 333 11028 21058 70000
AAXX 01184 71213 46/// /1312 11016 21016 39680 49980 56061 6///1 333 11016 21086 7////
AAXX 01184 71214 NIL
AAXX 01184 71215 46/// /1509 10015 21048 30006 40361 53010 6///1 333 10015 21039 7////
AAXX 01184 71216 16/// /1003 11024 21065 39753 40393 51020 60001 333 11024 21050 70000
AAXX 01184 71217 NIL
AAXX 01184 71218 16/// /1902 11033 21050 39926 40369 53014 60001 333 11033 21056 70000
AAXX 01184 71219 46/// /1022 10054 21005 30038 40044 58050 6///1 333 10055 21006 7////
AAXX 01184 71220 46/// /1222 10058 20010 6///1 333 10061 20003 7////
AAXX 01184 71221 NIL
AAXX 01184 71222 16/// /0703 11110 21122 39163 40159 58013 60001 333 11106 21240 70000
AAXX 01184 71223 NIL
AAXX 01184 71224 NIL
AAXX 01184 71225 NIL
AAXX 01184 71226 NIL
AAXX 01184 71227 NIL
AAXX 01184 71228 NIL
AAXX 01184 71229 NIL
AAXX 01184 71230 16/// /2403 11163 21218 39367 40302 58008 60001 333 11096 21207 70000
AAXX 01184 71231 16/// /1610 11054 21091 60001 333 11054 21144 70006
AAXX 01184 71232 16/// /2512 11079 21169 38782 40337 50008 60001 333 11069 21108 70000
AAXX 01184 71233 NIL
AAXX 01184 71234 16/// /1605 11054 21064 39113 40346 58008 60001 333 11053 21106 70000
AAXX 01184 71235 16/// /0000 11090 21121 60001 333 11088 21132 70000
AAXX 01184 71236 46/// /2806 11044 21120 6///1 333 11043 21119 7////
AAXX 01184 71237 46/// /1603 11132 21165 39519 40382 50006 6///1 333 11132 21192 7////
AAXX 01184 71238 16/// /2402 11058 21186 60001 333 11058 21189 70000
AAXX 01184 71239 NIL
AAXX 01184 71240 16/// ///// 11093 21175 39501 40392 51008 60001 333 11091 21157 70000
AAXX 01184 71241 NIL
AAXX 01184 71242 16/// /2202 11121 21166 60001 333 11115 21194 70004
AAXX 01184 71243 NIL
AAXX 01184 71244 16/// /1813 11060 21106 39092 40373 50003 60001 333 11058 21136 70000
AAXX 01184 71245 NIL
AAXX 01184 71246 NIL
AAXX 01184 71247 15966 00702 11104 21112 39502 40402 51004 60001 333 11099 21163 70013
AAXX 01184 71248 16/// /0000 11132 21196 38980 40357 50003 60001 333 11132 21243 70000
AAXX 01184 71249 NIL
AAXX 01184 71950 15866 81814 11050 21095 39563 40209 56016 60001 333 11047 21117 70000
AAXX 01184 71952 16/// /0401 11125 21136 39350 40235 55015 60001 333 11115 21242 70000
AAXX 01184 71954 NIL
AAXX 01184 71956 NIL
AAXX 01184 71959 NIL
AAXX 01184 71960 460// /1309 11321 30112 40254 50002 6///1 333 11272 21325 7////
AAXX 01184 71962 16/// /2918 11064 21100 39714 40142 51028 60001 333 11020 21064 70021
AAXX 01184 71963 NIL
AAXX 01184 71967 17/// /0903 10003 21004 30021 40127 58048 69941 7//4/ 333 10003 21035 70004
AAXX 01184 71970 NIL
AAXX 01184 71971 NIL
AAXX 01184 71972 460// ///// 11135 39609 40080 55002 6///1 333 11125 21149 7////
AAXX 01184 71973 46/// /0408 11012 21027 39852 40040 56012 6///1 333 11012 21034 7////
AAXX 01184 71974 NIL
AAXX 01184 71975 460// /2513 11191 39305 40048 53002 6///1 333 11186 21212 7////
AAXX 01184 71976 NIL
AAXX 01184 71977 NIL
AAXX 01184 71978 NIL
AAXX 01184 71979 NIL
AAXX 01184 71980 46/// /0000 11344 21385 6///1 333 11334 21389 7////
AAXX 01184 71981 NIL
AAXX 01184 71982 NIL
AAXX 01184 71983 NIL
AAXX 01184 71984 16/// /1203 11265 21295 30266 40275 51010 60001 333 11263 21314 70000
AAXX 01184 71985 NIL
AAXX 01184 71986 NIL
AAXX 01184 71987 16/// /3421 11009 21018 30099 40108 53005 60001 333 10011 21012 70127
AAXX 01184 71988 NIL
AAXX 01184 71989 NIL
AAXX 01184 71990 NIL
AAXX 01184 71999 46/// ///// 11027 6///1 333 11025 21042 7////
AAXX 01184 71102 NIL
AAXX 01184 71105 NIL
AAXX 01184 71107 NIL
AAXX 01184 71110 NIL
AAXX 01184 71111 17416 81341 10058 20048 39990 49998 58041 60071 76144 333 10061 20011
AAXX 01184 71112 16/// ///// 60001 333 70000
AAXX 01184 71113 16/// /0109 10054 21022 30254 40278 58002 60001 333 10054 20018 70000
AAXX 01184 71115 NIL
AAXX 01184 71116 16/// /1304 11077 21098 39260 40408 51008 60001 333 21139 7////
AAXX 01184 71118 16/// /2206 11140 21213 39509 40379 51013 60001 333 11100 21174 70000
AAXX 01184 71121 16964 02307 11104 21211 39501 40364 53011 60001 333 11104 21175 70000
AAXX 01184 71127 16/// /2205 11102 21206 39398 40367 50005 60001 333 11102 21148 70000
AAXX 01184 71130 15966 02513 11084 21139 39847 40323 51018 60001 333 11080 21099 70000
AAXX 01184 71132 17566 82606 11143 21164 39969 40296 51017 60001 771// 333 11120 21143 70000
AAXX 01184 71133 NIL
AAXX 01184 71139 16/// /2007 11091 21193 38857 40378 51012 60001 333 11074 21145 70007
AAXX 01184 71141 NIL
AAXX 01184 71142 15966 02011 11091 21134 39380 40393 51017 60001 333 11082 21137 70000
AAXX 01184 71143 NIL
AAXX 01184 71144 NIL
AAXX 01184 71147 16/// /3315 11068 21110 60001 333 11014 21078 70000
AAXX 01184 71149 16/// /3214 11068 21125 60001 333 11028 21084 70000
AAXX 01184 71812 46108 93422 11278 21319 30208 40222 53028 6///1 333 11197 21279 7////
AAXX 01184 71819 15366 80514 11045 21053 30055 40097 56025 60001 333 11040 21120 70000
AAXX 01184 71820 17/// /1515 10055 20030 39925 40039 58076 69931 7//4/ 333 10057 21011 70003
AAXX 01184 71823 17364 81707 11071 21083 39682 40071 58034 60011 7//44 333 11071 21259 70010
AAXX 01184 71824 NIL
AAXX 01184 71826 16/// /0000 11222 21253 30018 40063 51004 60001 333 11204 21250 70000
AAXX 01184 71829 16/// /3304 11047 21072 39976 40140 56019 60001 333 11046 21078 70003
AAXX 01184 71833 46/// /1907 10039 20036 6///1 333 10039 20005 7////
AAXX 01184 71835 17/// /3311 11082 21101 39573 40055 51024 69981 7//4/ 333 11031 21084 70016
AAXX 01184 71837 NIL
AAXX 01184 71839 NIL
AAXX 01184 71840 46/// /3315 11074 21100 6///1 333 11019 21084 7////
AAXX 01184 71846 16/// /3207 11060 21078 39703 40018 51010 60001 333 11029 21072 70014 555 10020
AAXX 01184 71847 NIL
AAXX 01184 71848 NIL
AAXX 01184 71849 16/// /3328 11076 21121 39949 40255 51038 60001 333 11019 21091 70000
AAXX 01184 71250 NIL
AAXX 01184 71251 16/// /1611 11049 21080 39413 40381 58002 60001 333 21141 7////
AAXX 01184 71252 NIL
AAXX 01184 71253 46/// /1201 11222 21240 6///1 333 11134 21229 7////
AAXX 01184 71254 16/// /2206 11079 21164 60001 333 11079 21178 70000
AAXX 01184 71255 16/// /2408 11138 21180 60001 333 11108 21161 70009
AAXX 01184 71256 46/// /0000 11172 21219 39364 40351 50000 6///1 333 11122 21197 7////
AAXX 01184 71257 NIL
AAXX 01184 71258 NIL
AAXX 01184 71259 NIL
AAXX 01184 71261 17/// /1915 10061 20042 39696 49952 56050 60031 7//4/ 333 10061 20017 70027
AAXX 01184 71263 11460 /2016 10058 20051 39708 49994 57061 60021 78011 85700 333 10059 21112 70024 909/6
AAXX 01184 71264 16/// /3212 10030 21001 30062 40093 53023 60001 333 10085 20025 70345
AAXX 01184 71265 17461 80707 10043 20036 39904 49997 58066 60021 7614/ 333 10053 20028 70023
AAXX 01184 71266 NIL
AAXX 01184 71267 15966 01704 11054 21061 39233 40381 58005 60001 333 11054 21159 70000
AAXX 01184 71268 NIL
AAXX 01184 71269 NIL
AAXX 01184 71270 NIL
AAXX 01184 71271 16/// ///// 11118 21190 60001 333 11101 21142 70000
AAXX 01184 71272 15966 03207 11240 21268 39904 40277 51028 60001 333 11169 21241 70000
AAXX 01184 71273 16/// /2707 11099 21182 39662 40351 51018 60001 333 11073 21122 70000
AAXX 01184 71274 NIL
AAXX 01184 71275 NIL
AAXX 01184 71276 NIL
AAXX 01184 71277 NIL
AAXX 01184 71278 NIL
AAXX 01184 71279 16/// /0104 11048 21070 30076 40143 56008 60001 333 11047 21108 70020
AAXX 01184 71281 NIL
AAXX 01184 71282 46/// /1417 10029 20029 39721 49988 57079 6///1 333 10035 21003 7////
AAXX 01184 71283 NIL
AAXX 01184 71284 16/// ///// 11119 21183 60001 333 11119 21164 70000
AAXX 01184 71285 NIL
AAXX 01184 71286 NIL
AAXX 01184 71287 NIL
AAXX 01184 71288 NIL
AAXX 01184 71289 NIL
AAXX 01184 71290 15966 11303 11190 21211 39437 40312 56002 60001 333 11131 21219 70000
AAXX 01184 71291 16/// /3210 11034 21058 39732 40020 52003 60001 333 11003 21034 70064 555 10060
AAXX 01184 71292 15966 03018 11082 21106 39693 40322 51022 60001 333 11053 21099 70000
AAXX 01184 71294 NIL
AAXX 01184 71295 NIL
AAXX 01184 71296 NIL
AAXX 01184 71297 17/// /2206 10067 20059 60031 7//4/ 333 10067 20021 70029
AAXX 01184 71298 17/// /2419 10054 20029 39771 49999 55013 69981 7//4/ 333 10078 20030 70008
AAXX 01184 71299 NIL
AAXX 01184 71001 17566 63009 11204 21228 39050 40065 57027 60001 771// 333 11134 21380 70000
AAXX 01184 71002 17566 81502 11172 21192 39584 40154 58023 69911 7714/ 333 11172 21311 70001
AAXX 01184 71003 15366 81607 11068 21079 39681 40070 58034 60001 333 11068 21239 70000
AAXX 01184 71005 NIL
AAXX 01184 71006 NIL
AAXX 01184 71007 NIL
AAXX 01184 71008 NIL
AAXX 01184 71009 NIL
AAXX 01184 71010 NIL
AAXX 01184 71011 NIL
AAXX 01184 71012 NIL
AAXX 01184 71013 NIL
AAXX 01184 71014 NIL
AAXX 01184 71015 NIL
AAXX 01184 71016 NIL
AAXX 01184 71017 NIL
AAXX 01184 71018 NIL
AAXX 01184 71019 NIL
AAXX 01184 71020 NIL
AAXX 01184 71021 NIL
AAXX 01184 71022 45666 81212 10070 20009 30003 40047 58047 6///1 333 10067 21014
AAXX 01184 71023 NIL
AAXX 01184 71024 16/// /0301 11237 21267 60001 333 21256 7////
AAXX 01184 71026 NIL
AAXX 01184 71027 17/// /3407 10039 20029 30009 40019 53022 60041 7//4/ 333 10043 21010 70277
AAXX 01184 71028 16/// /3302 11093 21112 39195 40267 58002 60001 333 11085 21127 70000
AAXX 01184 71029 NIL
AAXX 01184 71030 16/64 /3007 11009 21024 30055 40145 53004 60001 333 10018 21009 70021
AAXX 01184 71032 46/// /0000 11064 21083 39483 40349 53009 6///1 333 11064 21095 7////
AAXX 01184 71033 46/// /2906 11138 21151 39646 40304 51018 6///1 333 11126 21152 7//// 555 10020
AAXX 01184 71035 NIL
AAXX 01184 71036 15566 13013 11056 21108 39898 40284 51017 60001 333 11026 21074 70000
AAXX 01184 71039 46/// /0000 11288 6///1 333 11288 21395 7////
AAXX 01184 71040 46/// /0504 11074 21097 39920 40124 56034 6///1 333 11074 21139 7////
AAXX 01184 71041 17256 83115 10020 20017 39906 40047 53043 60021 7614/ 333 10074 20002 70253
AAXX 01184 71042 16/// /1101 10050 21017 30259 40263 53004 60001 333 10050 21003 70000
AAXX 01184 71044 16/// /0000 11376 21419 39869 40218 55013 60001 333 11343 21400 70000
AAXX 01184 71046 460// /1309 11358 30180 40199 58010 6///1 333 11310 21382 7////
AAXX 01184 71047 NIL
AAXX 01184 71048 NIL
AAXX 01184 71049 NIL
AAXX 01184 71060 NIL
AAXX 01184 71063 NIL
AAXX 01184 71744 NIL
AAXX 01184 71750 17/// /3504 11007 21022 39747 49978 58004 60051 7//4/ 333 10025 21007 70128
AAXX 01184 71751 NIL
AAXX 01184 71752 NIL
AAXX 01184 71753 16/// /3312 10012 21006 30054 40083 52021 60001 333 10086 20012 70309
AAXX 01184 71754 16/// /2705 11105 21178 39678 40371 50012 60001 333 11060 21199 70000
AAXX 01184 71755 43/// /3317 11123 21147 39767 40117 51031 6///1 333 11046 21123 7////
AAXX 01184 71756 16/// /1701 11042 21068 39165 40286 50007 60001 333 11042 21064 70000
AAXX 01184 71758 NIL
AAXX 01184 71760 NIL
AAXX 01184 71761 NIL
AAXX 01184 71762 NIL
AAXX 01184 71763 NIL
AAXX 01184 71765 16/// /2001 11015 21040 30041 40324 50004 60001 333 11015 21025 70000
AAXX 01184 71766 17/// /1305 10034 20002 30176 40249 58006 69931 7//4/ 333 10041 21010 70003
AAXX 01184 71767 17/// /1808 10036 20030 39683 49939 58063 60061 7//4/ 333 10037 21023 70060
AAXX 01184 71768 46/// /0102 11002 21040 39801 40367 53013 6///1 333 11001 21034 7////
AAXX 01184 71769 17/// /1309 10045 20003 30230 40246 58006 69941 7//4/ 333 10050 20026 70004
AAXX 01184 71770 NIL
AAXX 01184 71771 NIL
AAXX 01184 71772 17/// /1908 10043 20017 30243 40249 58007 69921 7//4/ 333 10051 20030 70002
AAXX 01184 71773 16/// /1806 11088 21103 39203 40076 58025 60001 333 11088 21187 70000
AAXX 01184 71774 46/// ///// 10016 6///1 333 10017 20001 7////
AAXX 01184 71775 16/// /0906 10043 21008 30256 40262 58011 60001 333 10045 20001 70000
AAXX 01184 71776 46/// /0806 11005 21060 39728 40392 51018 6///1 333 11004 21039 7////
AAXX 01184 71777 16/// ///// 11024 21028 30056 40315 50006 60001 333 11024 21042 70000
AAXX 01184 71778 46/// /0226 6///1 333 7////
AAXX 01184 71779 16/// /0301 11129 21141 39600 40293 58004 60001 333 11126 21168 70000
AAXX 01184 71780 16/// /0910 10063 20003 30214 40242 56007 60001 333 10063 20030 70002
AAXX 01184 71781 46/// /1317 10049 20001 30220 40245 58003 6///1 333 10054 20030 7////
AAXX 01184 71782 46/// /0000 11107 21142 39030 40427 51018 6///1 333 11106 21138 7////
AAXX 01184 71783 16/// /0205 10059 20006 30176 40250 58003 60001 333 10059 20039 70002
AAXX 01184 71784 16/// /2602 10040 20000 30045 40253 55004 60001 333 10077 20012 70000
AAXX 01184 71785 16/// /0704 10058 21028 30252 40268 55003 60001 333 10058 20024 70000
AAXX 01184 71786 46/// /0000 11224 21247 38500 40449 51015 6///1 333 11151 21235 7////
AAXX 01184 71787 16/// /3305 11026 21026 39630 40121 51003 60001 333 11002 21028 70036
AAXX 01184 71788 NIL
AAXX 01184 71789 NIL
AAXX 01184 71791 NIL
AAXX 01184 71792 NIL
AAXX 01184 71793 NIL
AAXX 01184 71794 NIL
AAXX 01184 71795 NIL
AAXX 01184 71796 NIL
AAXX 01184 71797 NIL
AAXX 01184 71500 NIL
AAXX 01184 71501 NIL
AAXX 01184 71502 NIL
AAXX 01184 71503 NIL
AAXX 01184 71504 NIL
AAXX 01184 71505 46/// /0000 11158 21181 39312 40059 58033 6///1 333 11157 21244 7////
AAXX 01184 71506 NIL
AAXX 01184 71507 NIL
AAXX 01184 71508 17/// ///// 10047 20044 39863 49999 58066 60011 7//4/ 333 10054 20028 70014
AAXX 01184 71509 NIL
AAXX 01184 71511 NIL
AAXX 01184 71512 16/// /3404 11019 21020 30116 40130 56015 60001 333 11016 21099 70154
AAXX 01184 71513 15966 03609 11055 21107 30093 40109 55009 60001 333 11055 21115 70046
AAXX 01184 71514 NIL
AAXX 01184 71515 16/// /3013 11114 21140 39627 40359 51032 60001 333 11069 21115 70000
AAXX 01184 71516 16/// /3018 11068 21143 60001 333 11057 21105 70000
AAXX 01184 71517 NIL
AAXX 01184 71518 NIL
AAXX 01184 71519 NIL
AAXX 01184 71520 NIL
AAXX 01184 71521 NIL
AAXX 01184 71522 NIL
AAXX 01184 71523 NIL
AAXX 01184 71524 16/// /0703 11011 21015 30091 40117 58051 60001 333 11009 21037 70000
AAXX 01184 71525 NIL
AAXX 01184 71526 NIL
AAXX 01184 71527 17456 83213 11062 21094 39606 40118 51022 60001 771// 333 11028 21063 70005
AAXX 01184 71528 NIL
AAXX 01184 71529 46/// /08// 11240 21270 30078 40320 53032 6///1 333 11183 21274 7////
AAXX 01184 71532 17366 81311 10015 20015 39640 49981 58077 60021 7614/ 333 10016 21021 70018
AAXX 01184 71534 17356 81613 10026 20025 39712 49980 58063 60021 74344 333 10028 20002 70025
AAXX 01184 71535 NIL
AAXX 01184 71536 NIL
AAXX 01184 71537 NIL
AAXX 01184 71539 NIL
AAXX 01184 71540 NIL
AAXX 01184 71541 NIL
AAXX 01184 71542 16/// /0301 11194 21215 60001 333 11089 21198 70000
AAXX 01184 71543 NIL
AAXX 01184 71544 NIL
AAXX 01184 71545 17/// ///// 11107 21171 69961 7//4/ 333 11099 21169 70006
AAXX 01184 71546 NIL
AAXX 01184 71547 NIL
AAXX 01184 71548 NIL
AAXX 01184 71549 NIL
AAXX 01184 71300 NIL
AAXX 01184 71301 16/// ///// 11021 21021 39582 49980 56057 60001 333 11021 21148 70006 555 10010
AAXX 01184 71302 16/// /0106 11130 21140 39431 40290 51001 60001 333 11130 21180 70000
AAXX 01184 71303 46/// ///// 10052 20032 6///1 333 10079 20033 7////
AAXX 01184 71305 15966 02404 11263 21288 30019 40331 51026 60001 333 11188 21300 70000
AAXX 01184 71306 17466 60910 11110 21129 30020 40053 58021 60001 771// 333 11104 21139 70000
AAXX 01184 71307 17/// /2221 10075 20048 39740 49986 56036 60021 7//4/ 333 10085 20017 70023
AAXX 01184 71308 16/// /3219 10021 20019 39979 40062 53041 60001 333 10095 20018 70307
AAXX 01184 71309 NIL
AAXX 01184 71310 16/// /3414 11004 21010 30049 40086 53030 60001 333 10059 21004 70230
AAXX 01184 71311 NIL
AAXX 01184 71312 16/// /2812 11088 21141 39845 40321 51018 60001 333 11083 21106 70000
AAXX 01184 71314 17/// /1512 10025 20013 39628 49976 56069 69971 7//4/ 333 10027 21001 70007
AAXX 01184 71315 NIL
AAXX 01184 71316 16/// /1502 11119 21195 39641 40360 53018 60001 333 11106 21192 70000
AAXX 01184 71317 NIL
AAXX 01184 71318 16/// /2210 11093 21173 39385 40377 50008 60001 333 11093 21180 70000
AAXX 01184 71319 16/// /2301 11058 21061 39246 40120 58029 60001 333 11058 21092 70000
AAXX 01184 71320 NIL
AAXX 01184 71321 16/// /0802 11159 21179 30043 40087 55003 60001 333 11143 21188 70000 555 10010
AAXX 01184 71322 46/// /3620 11277 21302 30210 40223 53029 6///1 333 11195 21278 7////
AAXX 01184 71323 16/// /1203 11029 21034 39849 40134 56029 60001 333 11029 21052 70000
AAXX 01184 71331 16/// /3006 11111 21145 60001 333 11091 21118 70000 555 10010
AAXX 01184 71332 NIL
AAXX 01184 71334 NIL
AAXX 01184 71335 46864 3//// 11104 56011 6///1 333 11081 21161 7////
AAXX 01184 71336 46/// ///24 10004 20002 39951 49973 56055 6///1 333 10014 21013 7////
AAXX 01184 71337 46/// /0607 11019 21021 39816 40054 56030 6///1 333 11015 21061 7////
AAXX 01184 71338 47432 80000 11259 21297 30065 40072 53006 6///1 745// 333 11235 21299 7////
AAXX 01184 71339 16564 63605 11098 21174 30100 40115 56026 60001 333 11097 21166 70000
AAXX 01184 71340 NIL
AAXX 01184 71341 NIL
AAXX 01184 71342 NIL
AAXX 01184 71343 NIL
AAXX 01184 71344 NIL
AAXX 01184 71345 NIL
AAXX 01184 71346 NIL
AAXX 01184 71347 NIL
AAXX 01184 71348 NIL
AAXX 01184 71349 NIL
AAXX 01184 71665 16/// /2505 11147 21226 30096 40106 57019 60001 333 11140 21203 70000
AAXX 01184 71666 16/// /3208 10002 21019 30076 40121 54000 60001 333 10012 21006 70070
AAXX 01184 71667 NIL
AAXX 01184 71668 17/// /2810 11008 21031 30100 40144 56010 69951 7//4/ 333 10011 21030 70021
AAXX 01184 71669 NIL
AAXX 01184 71670 16/// ///// 10002 21014 60001 333 10005 21007 70083
AAXX 01184 71671 16/// /3309 10020 21001 30056 40116 53007 60001 333 10065 20018 70088
AAXX 01184 71672 16/// /1305 10047 20023 39748 40009 56075 60001 333 10055 20007 70029
AAXX 01184 71673 NIL
AAXX 01184 71674 NIL
AAXX 01184 71675 17448 83312 11104 21120 39793 40075 51023 60031 7714/ 333 11049 21104 70104
AAXX 01184 71679 16/// /0605 11081 21111 39156 40195 58018 60001 333 11080 21122 70000
AAXX 01184 71680 NIL
AAXX 01184 71681 46/// /2202 11039 21059 6///1 333 11039 21055 7////
AAXX 01184 71682 NIL
AAXX 01184 71683 NIL
AAXX 01184 71684 17258 81212 11018 21019 39683 49984 56061 60001 710// 333 11018 21088 70000
AAXX 01184 71685 15566 33402 11056 21073 39849 40412 53016 60001 333 11033 21058 70000
AAXX 01184 71686 469// /0604 11094 21105 39163 40139 58013 6///1 333 11092 21204
AAXX 01184 71687 16/// /3101 11024 21046 39489 40291 50007 60001 333 11024 21047 70000
AAXX 01184 71688 16/// /0000 11030 21039 39212 40271 50003 60001 333 11029 21068 70000
AAXX 01184 71689 15966 02803 11150 21173 39862 40341 51021 60001 333 11115 21180 70003
AAXX 01184 71690 NIL
AAXX 01184 71691 15466 83402 11039 21062 30120 40148 56020 60001 333 11038 21065 70000
AAXX 01184 71692 NIL
AAXX 01184 71694 17/// /1104 10014 20006 39630 49990 58076 60011 7//4/ 333 10015 21031 70014
AAXX 01184 71695 16/// /3016 11093 21123 39934 40281 52021 60001 333 11085 21127 70000 555 10010
AAXX 01184 71696 16/// /3325 11217 21240 30164 40202 51030 60001 333 11131 21217 70000
AAXX 01184 71697 17564 81111 10033 20032 39835 40005 56071 60021 7614/ 333 10046 20007 70023
AAXX 01184 71699 16/// /3205 10000 21025 30139 40147 53001 60001 333 10016 21004 70015
AAXX 01181 01046 11885 81419 11013 21073 39982 49989 58006 60002 70232 8801/ 333 11006 91127
AAXX 01181 01144 41886 81211 10011 21047 70272 84026 333 10014 91124
AAXX 01181 01277 16/// /0803 10013 21022 60062 333 10015 91107
AAXX 01181 01476 16/// /2205 10059 20053 39938 49944 57003 6//// 333 10068 91106
AAXX 01181 01440 46/// /2305 11013 21014 38654 49920 54001 333 11002 91115
AAXX 01181 01015 46/// /1710 10007 21046 333 10008 91122
AAXX 01181 01180 11675 81606 10016 21062 39876 49933 55005 60002 70222 8687/ 333 10022 91114
AAXX 01181 01450 16/// /1704 11016 21026 38793 49925 52001 60042 333 11013 91106
AAXX 01181 01199 11470 81508 11078 21093 39601 40082 52004 60002 73673 8672/ 333 91112
AAXX 01181 01262 46/// /1416 10034 20013 333 10034 91119
AAXX 01181 01393 16/// /3501 11037 21048 39134 49937 57007 6//// 333 11029 91108
AAXX 01184 71726 16/// /1403 11022 21032 39526 40069 57052 60001 333 11022 21059 70000
AAXX 01184 71727 12682 80803 11067 21093 39931 40133 56032 60001 885// 333 11066 21132 79999
AAXX 01184 71728 11348 81205 11085 21108 39893 40119 58042 69901 77122 887// 333 11083 21148 44002 79999 90952
AAXX 01184 71730 11120 81410 11001 21002 39537 49959 58061 60011 77142 887// 333 11001 21061 48013 70001 90921
AAXX 01184 71731 11/06 91409 11005 21013 39534 49983 57068 69981 77372 333 11004 21061 48017 70008 90910 93101
AAXX 01184 71735 NIL
AAXX 01184 71738 11259 83004 10007 21003 39604 49953 56027 60021 77177 885// 333 10008 21040 43027 70016 90973 93102
AAXX 01184 71739 41108 81206 11030 21037 39601 49963 57055 6//// 77177 887// 333 11029 21072 4//// 7//// 90973 93102
AAXX 01184 71749 16564 83013 11036 21071 39802 40048 50002 60001 333 11004 21037 70045
AAXX 01184 71799 11783 72903 10038 20021 30238 40262 58004 69941 70262 83570 333 10052 20028 70009 90937
AAXX 01184 71800 17/// /0422 10019 20019 39881 49913 56070 60151 7//4/ 333 10031 21016 70147
AAXX 01184 71801 11224 80722 10007 20005 39796 49968 56071 60161 76374 887// 333 10007 21030 42004 70180 90973 93106
AAXX 01184 71803 11240 80613 11007 21017 39845 40032 56034 60021 77122 887// 333 11005 21044 44008 70046 90952 93102
AAXX 01184 71807 NIL
AAXX 01184 71808 11574 60204 11042 21062 30050 40097 56022 69921 70272 86500 333 11041 21154 44028 70014 90930
AAXX 01184 71809 11362 80414 11004 21017 30021 40048 57022 60031 77176 887// 333 11004 21040 43013 70206 90983 93103
AAXX 01184 71810 17/// /3506 11031 21065 30058 40125 55010 69931 7//4/ 333 11028 21055 70049
AAXX 01184 71811 NIL
AAXX 01184 71813 16/// /3609 11054 21104 30090 40104 55009 60001 333 11054 21114 70056
AAXX 01184 71814 16/// /0114 11044 21062 30078 40088 55013 60001 333 11044 21111 70050
AAXX 01184 71815 11462 80312 10016 21008 39997 40028 55005 60091 76166 885// 333 10030 21021 41002 70156 90983
AAXX 01184 71816 12974 22302 11159 21203 30085 40149 57022 60001 80001 333 11152 21250 70000
AAXX 01184 71817 NIL
AAXX 01184 71818 12974 02304 11135 21166 30110 40129 57024 60001 333 11126 21221 70000
AAXX 01184 71822 11248 81508 11051 21062 39594 40074 56041 69901 77122 886// 333 11051 21128 43045 79999 90931
AAXX 01184 71825 NIL
AAXX 01184 71827 11348 81413 11072 21080 39769 40016 58030 69901 77177 885// 333 11072 21186 47018 79999 90983
AAXX 01184 71828 17362 62208 11145 21165 39461 40128 56024 69951 7//44 333 11143 21277 70005
AAXX 01184 71831 11/08 91307 11021 21030 39680 49959 58039 60061 77377 333 11021 21047 48048 70066 90973 93106
AAXX 01184 71832 NIL
AAXX 01184 71834 11362 83208 11028 21045 39566 49991 58008 60021 77177 887// 333 11003 21089 47034 70080 90983 93102
AAXX 01184 71841 NIL
AAXX 01184 71842 11458 83220 11066 21093 39623 40098 51018 69901 77177 886// 333 11024 21068 47010 70018 90973
AAXX 01184 71844 NIL
AAXX 01184 71845 11220 83217 11082 21098 39583 40061 51024 60021 77177 887// 333 11032 21085 44024 70024 90973
AAXX 01184 71850 11432 83317 11101 21131 39656 40166 51029 69961 77177 887// 333 11015 21101 48012 70024 90973 93101
AAXX 01184 71852 17564 83329 11074 21122 39949 40251 51037 69951 74544 333 11017 21091 70005
AAXX 01184 71854 11448 73112 11085 21125 39664 40146 52028 69941 77177 87500 333 11028 21085 48019 70054 90993
AAXX 01184 71858 16/// /3209 11082 21115 39969 40260 51018 60001 333 11082 21118 70015
AAXX 01184 71861 16/// /3014 11093 21119 39579 40332 51026 60001 333 11066 21101 70000
AAXX 01184 71862 11574 13015 11085 21126 39636 40367 52029 69901 70271 81500 333 11066 21097 48009 79999 90941
AAXX 01184 71863 46864 33113 11118 21165 39644 40376 51025 6///1 333 11075 21145 7////
AAXX 01184 71864 NIL
AAXX 01184 71865 16/// /2909 11093 21136 39637 40344 51022 60001 333 11064 21109 70000
AAXX 01184 71866 46964 02608 11108 21155 39732 40372 51020 6///1 333 11053 21141 7////
AAXX 01184 71867 11440 8//// 11095 21118 39937 40285 52020 69901 77177 887// 333 11086 21129 47025 70016 90983
AAXX 01184 71868 16/// /3114 11077 21130 39847 40304 51017 60001 333 11076 21091 70000
AAXX 01184 71869 12974 02607 11105 21146 39799 40346 52018 60001 333 11043 21129 79999
AAXX 01184 71871 15966 02512 11119 21189 39525 40371 51012 60001 333 11095 21171 70000
AAXX 01184 71877 12986 11604 11094 21105 39033 40368 58003 60001 81070 333 11094 21151 70000
AAXX 01184 71878 12974 01814 11092 21117 39239 40366 58001 60001 333 11090 21218 70000
AAXX 01184 71879 16964 01902 11102 21209 39522 40363 50008 60001 333 11085 21148 70005
AAXX 01184 71880 12982 53505 11071 21108 39262 40418 51017 60001 85070 333 11066 21096 70000
AAXX 01184 71882 160// /3603 11057 21080 39850 40412 53016 60001 333 11036 21061 70000
AAXX 01184 71883 46/// /0000 11155 21166 39546 40421 53014 6///1 333 11155 21197 7////
AAXX 01184 71887 12886 81212 11021 21082 39917 40353 53013 60001 84071 333 11021 21037 70000
AAXX 01184 71889 11774 81607 10016 21033 39932 40363 53008 69901 70272 82571 333 10016 21039 79999 90951
AAXX 01184 71891 16964 30000 11013 21039 30043 40326 50004 60001 333 11013 21023 70000
AAXX 01184 71892 11680 81604 10048 21015 30257 40262 55005 69921 70282 885// 333 10049 20013 70002 90941
AAXX 01184 71893 11474 81807 10034 20016 30224 40256 58004 60011 76122 885// 333 10050 20007 70012 90952
AAXX 01184 71894 16/// /0917 10094 20025 30172 40181 55003 60001 333 10094 20015 70004
AAXX 01184 71896 15966 03607 11132 21144 39420 40292 55000 60001 333 11132 21192 70000
AAXX 01184 71897 11474 80925 10050 20019 3//// 4//// 57032 60011 780XX 8892X 333 10052 20010 70010 90999
AAXX 01184 71898 160// ///// 10067 58047 60001 333 10068 21014 70010
AAXX 01184 71899 12366 81216 10053 20034 3//// 4//// 57047 60001 888XX 333 10058 20000 70018
AAXX 01184 71902 12874 32605 11145 21218 30103 40112 57018 60001 83010 333 11139 21200 70000
AAXX 01184 71905 NIL
AAXX 01184 71906 12874 10000 11139 21206 30050 40102 56016 60001 81071 333 11138 21237 70000
AAXX 01184 71907 16464 60908 11134 21153 30021 40054 58022 60001 333 11124 21152 70000
AAXX 01184 71909 16064 80803 11162 21191 30026 40070 56003 60001 333 11143 21190 70000
AAXX 01184 71910 46964 02502 11248 21289 30033 40097 50003 6///1 333 11145 21250 7////
AAXX 01184 71911 46014 02713 11354 30140 40201 51011 6///1 333 11344 21439 7////
AAXX 01184 71912 11458 83114 11169 21196 30016 40206 53032 69921 77177 886// 333 11100 21169 47022 70032 90983
AAXX 01184 71915 11474 73312 11301 21343 30043 40128 52003 69901 77177 83530 333 11206 21301 48042 79999 90983
AAXX 01184 71917 11959 70402 11337 21395 30132 40147 53010 69901 77677 86078 333 11302 21383 47015 79999 90983
AAXX 01184 71922 12974 02907 11126 21159 39836 40322 51019 60001 333 11088 21142 70012
AAXX 01184 71924 11916 03108 11312 21354 30105 40200 53020 69901 77677 333 11309 21349 48038 79999 90983
AAXX 01184 71925 11962 23008 11363 21408 30260 40305 51009 69901 77677 82030 333 11357 21389 42021 79999 90983
AAXX 01184 71926 11956 03315 11325 21382 30246 40272 53029 60001 73800 333 11301 21338 79999
AAXX 01184 71928 16/// /1102 11178 21242 39133 40369 51007 60001 333 11169 21243 70000
AAXX 01184 71114 160// /1114 10030 21034 30256 40305 50001 60001 333 10030 20003 70000
AAXX 01184 71120 12974 12507 11139 21194 39674 40363 53014 60001 80001 333 11083 21167 79999
AAXX 01184 71122 16/// /2505 11134 21196 38716 40404 50012 60001 333 21172 7////
AAXX 01184 71123 12974 11808 11119 21200 39455 40369 50005 60001 80001 333 11118 21216 70000
AAXX 01184 71125 12974 02610 11121 21175 39741 40354 52016 60001 333 70006
AAXX 01184 71129 12974 22302 11091 21152 39518 40388 53011 60001 80001 333 11091 21148 70000
AAXX 01184 71131 16/// /2408 11121 21179 39079 40395 51013 60001 333 11084 21187 70000
AAXX 01184 71135 16/// /3012 11095 21160 39262 40396 51029 60001 333 11069 21114 70000
AAXX 01184 71137 NIL
AAXX 01184 71140 11574 63115 11080 21110 39780 40298 5/024 69901 70271 86500 333 11037 21090 44005 79999 90940
AAXX 01184 71145 11440 83314 11128 21154 39885 40187 52034 60011 77177 885// 333 11071 21129 48039 70026 90983 93101
AAXX 01184 71148 NIL
AAXX 01184 71185 17964 00806 10004 30031 40055 56019 69951 7//44 333 10005 21059 70020
AAXX 01184 71188 NIL
AAXX 01184 71200 16/// /0308 10058 20007 60001 333 10058 20036 70000
AAXX 01184 71207 16/// /3504 10010 21020 30216 40282 50001 60001 333 10010 21007 70000
AAXX 01184 71260 13/// ///// 10006 20004 39723 49956 57030 60071 333 10015 21015 43006 70072
AAXX 01184 71397 12474 83307 10020 21007 30095 40130 53003 60001 885// 333 10053 20018 70084
AAXX 01184 71400 17/64 /0205 11005 21009 60011 7//4/ 333 11005 21035 70077
AAXX 01184 71403 46/// /3230 10036 20012 30034 40054 53022 6///1 333 10080 20036 7////
AAXX 01184 71411 16/// /3110 10036 20016 30113 40125 53014 60001 333 10084 20032 70238
AAXX 01184 71412 16/// /3526 10007 20000 30054 40064 53037 60001 333 10066 20006 70276
AAXX 01184 71421 NIL
AAXX 01184 71430 16/// /1521 10056 20027 39935 40031 56074 60001 333 10061 21002 70000
AAXX 01184 71431 NIL
AAXX 01184 71432 NIL
AAXX 01184 71433 NIL
AAXX 01184 71435 NIL
AAXX 01184 71441 46/// /3328 11071 21127 39936 40253 51034 6///1 333 11015 21079 7////
AAXX 01184 71443 16/// /3013 11077 21119 39863 40289 51013 60001 333 11051 21085 70000 555 10010
AAXX 01184 71444 16/// /3109 11095 21126 39494 40275 51023 60001 333 11051 21104 70000
AAXX 01184 71447 16/// /3222 11070 21104 39757 40321 51029 60001 333 11047 21084 70000
AAXX 01184 71467 16/// /1203 11282 21309 30167 40289 53011 60001 333 11260 21290 70000
AAXX 01184 71472 NIL
AAXX 01184 71474 16864 31707 11065 21098 39033 40313 53006 60001 333 11065 21114 70000
AAXX 01184 71510 16/// /2710 11113 21168 60001 333 11088 21183 70000
AAXX 01184 71538 11569 82430 10069 20029 39765 49992 55019 69961 70282 885// 333 10088 20030 70006 90926
AAXX 01184 71600 164// 83032 10053 20034 30008 40014 53036 60041 333 10098 20051 70200
AAXX 01184 71601 NIL
AAXX 01184 71550 NIL
AAXX 01184 71551 NIL
AAXX 01184 71552 46/// /3329 11099 21116 6///1 333 11027 21101 7////
AAXX 01184 71553 NIL
AAXX 01184 71554 16/// /2305 11040 21061 30145 40151 56023 60001 333 11035 21066 70042
AAXX 01184 71555 16/// /2812 11031 21161 38719 40339 56001 60001 333 21117 7////
AAXX 01184 71556 NIL
AAXX 01184 71557 46/// /0601 11033 21059 6///1 333 11033 21056 7////
AAXX 01184 71558 46/// ///// 11045 21055 30053 40090 56025 6///1 333 11041 21123 7////
AAXX 01184 71559 46/// /3019 11083 21125 39631 40361 51029 6///1 333 11064 21094 7////
AAXX 01184 71560 46/// /3331 11070 21118 39938 40248 51034 6///1 333 11017 21077 7////
AAXX 01184 71563 NIL
AAXX 01184 71564 NIL
AAXX 01184 71565 NIL
AAXX 01184 71566 NIL
AAXX 01184 71567 NIL
AAXX 01184 71568 17/// /1313 10032 20008 30228 40241 56001 69921 7//4/ 333 10043 20016 70002
AAXX 01184 71569 16/// /2916 11102 21147 39630 40362 51026 60001 333 11071 21135 70000
AAXX 01184 71570 16/// /3116 11099 21135 39901 40221 51036 60001 333 11023 21101 70000
AAXX 01184 71571 NIL
AAXX 01184 71572 NIL
AAXX 01184 71573 17/// /2011 10070 20042 39703 49980 58055 60061 7//4/ 333 10071 20025 70055
AAXX 01184 71574 12574 83004 11007 21026 30061 40135 58006 60001 885// 333 11003 21073 70120
AAXX 01184 71575 NIL
AAXX 01184 71576 NIL
AAXX 01184 71577 46/// /3319 11089 21127 6///1 333 11015 21098 7////
AAXX 01184 71578 NIL
AAXX 01184 71579 NIL
AAXX 01184 71580 12974 03506 11353 21387 30149 40188 53016 60001 333 11325 21400 45030 79999
AAXX 01184 71581 NIL
AAXX 01184 71582 17662 81210 10031 20015 30063 40116 56024 60021 7614/ 333 10046 21006 70018
AAXX 01184 71583 NIL
AAXX 01184 71584 15966 03407 11035 21069 30076 40124 56015 60001 333 11033 21111 70000
AAXX 01184 71585 NIL
AAXX 01184 71586 NIL
AAXX 01184 71587 NIL
AAXX 01184 71588 16/// /1602 10008 21016 60001 333 10008 21047 70000
AAXX 01184 71589 17/// /0605 11009 21009 39879 40011 56041 60061 7//4/ 333 11005 21048 70070 555 10080
AAXX 01184 71590 16/// /2702 11047 21072 39949 40143 58024 60001 333 11045 21060 70036
AAXX 01184 71592 NIL
AAXX 01184 71593 NIL
AAXX 01184 71596 NIL
AAXX 01184 71598 17/64 /3207 11005 21027 30119 40125 56007 60021 7//4/ 333 10000 21026 70104
AAXX 01184 71599 NIL
AAXX 01184 71603 12369 83212 10022 21002 30091 40144 51007 60001 886// 333 10030 20018 70082
AAXX 01184 71607 16/// /3405 11014 21035 30122 40155 50000 60001 333 10015 21017 70037
AAXX 01184 71609 11474 83610 10001 21034 30003 40138 55001 69901 70272 885// 333 10062 21009 70066 90950
AAXX 01184 71610 17428 80907 11003 21010 39828 40126 58038 60001 710// 333 11003 21026 70008
AAXX 01184 71621 12474 81604 10055 20023 39930 40035 56069 60001 81670 333 10062 21010 70005
AAXX 01184 71623 NIL
AAXX 01184 71624 11358 81309 10041 20039 39783 49992 58066 60021 76181 887// 333 10049 20014 70024 90931
AAXX 01184 71625 17258 81408 11001 21006 39866 40027 56081 69951 7//44 333 11001 21069 70005
AAXX 01184 71627 11348 81006 10002 21017 30058 40103 58057 60001 71042 887// 333 10002 21034 79999
AAXX 01184 71628 11124 80911 10001 21006 39922 40063 58074 60001 71022 84500 333 10001 21214 70022
AAXX 01184 71630 NIL
AAXX 01184 71631 NIL
AAXX 01184 71633 11474 81715 10036 20029 39682 49949 56064 60021 76162 885// 333 10040 21003 41003 70020 90926
AAXX 01184 71705 11262 83106 11002 21009 30038 40126 51009 69941 78575 887// 333 10011 21005 41997 70104 90937
AAXX 01184 71706 11324 83515 11002 21006 30041 40101 53025 69941 78582 887// 333 10057 21004 70176 90916
AAXX 01184 71707 11261 83515 10030 20018 39935 40011 53033 60061 75164 887// 333 10060 21003 70164 90973
AAXX 01184 71709 11256 83625 11006 21015 30062 40075 53020 69901 72452 887// 333 10034 21015 70280 90917
AAXX 01184 71711 NIL
AAXX 01184 71714 16/// /0504 11029 21036 30061 40154 57040 60001 333 21048 7////
AAXX 01184 71715 16/// /1704 11050 21063 39959 40144 57028 60001 333 11050 21078 70017 555 10010
AAXX 01184 71718 11462 82405 11047 21060 30083 40149 58022 69901 78576 887// 333 11037 21076 48013 70060 90937
AAXX 01184 71719 17/// /3512 11005 21025 30115 40121 56009 60021 7//4/ 333 10000 21023 70113 555 10020
AAXX 01184 71401 16/// /3502 11023 21063 39683 40393 51016 60001 333 11023 21045 70007
AAXX 01184 71402 NIL
AAXX 01184 71404 NIL
AAXX 01184 71405 NIL
AAXX 01184 71406 NIL
AAXX 01184 71407 NIL
AAXX 01184 71408 NIL
AAXX 01184 71409 NIL
AAXX 01184 71410 17559 83212 11117 21144 39953 40242 51026 60001 771// 333 11084 21134 70003
AAXX 01184 71413 NIL
AAXX 01184 71414 NIL
AAXX 01184 71415 16/// /3324 10010 20004 30079 40082 53033 60001 333 10076 20010 70170
AAXX 01184 71417 NIL
AAXX 01184 71418 NIL
AAXX 01184 71419 46/// /3132 10039 20031 30008 40018 53040 6///1 333 10077 20038 7////
AAXX 01184 71423 NIL
AAXX 01184 71424 46/// /0702 6///1 333 7////
AAXX 01184 71425 NIL
AAXX 01184 71426 NIL
AAXX 01184 71427 NIL
AAXX 01184 71428 16/// /3005 11026 21050 30138 40144 56006 60001 333 11020 21061 70010
AAXX 01184 71429 16/// /3506 11014 21036 30096 40115 53003 60001 333 11004 21031 70180
AAXX 01184 71434 NIL
AAXX 01184 71436 17662 81411 10033 20017 39778 40011 56076 60031 76244 333 10046 21011 70083
AAXX 01184 71437 NIL
AAXX 01184 71438 NIL
AAXX 01184 71439 NIL
AAXX 01184 71440 NIL
AAXX 01184 71442 NIL
AAXX 01184 71445 NIL
AAXX 01184 71446 NIL
AAXX 01184 71448 16/// /3221 11102 21130 39879 40218 51034 60001 333 11018 21102 70000
AAXX 01184 71449 NIL
AAXX 01184 71700 15566 82906 11003 21019 30120 40146 56012 60001 333 10007 21026 70031
AAXX 01184 71701 12469 82907 11005 21022 30083 40146 55010 60001 885// 333 10004 21019 70034
AAXX 01184 71702 16/// /3518 11003 21015 30091 40106 53017 60001 333 10025 21005 70202
AAXX 01184 71703 12469 83202 11047 21059 39845 40147 58017 60001 885// 333 11044 21058 70046
AAXX 01184 71704 17666 82115 10077 20052 39744 49960 57046 60021 7004/ 333 10077 20021 70023
AAXX 01184 71710 16/// /3522 11006 21012 30061 40070 53021 60001 333 10031 21014 70260
AAXX 01184 71712 16/// /0608 10005 21003 30023 40084 58064 60001 333 10006 21027 70000
AAXX 01184 71713 NIL
AAXX 01184 71716 NIL
AAXX 01184 71717 NIL
AAXX 01184 71720 16/// /1002 10033 21005 30107 40263 58001 60001 333 10033 21003 70000
AAXX 01184 71721 NIL
AAXX 01184 71723 16/// /0603 11015 21027 30112 40122 58042 60001 333 11015 21034 70011
AAXX 01184 71724 NIL
AAXX 01184 71732 16/// /1610 10004 21008 60001 333 10005 21056 70000
AAXX 01184 71733 17/// /1311 11001 21001 39529 49953 58063 69971 7//4/ 333 11001 21060 70007
AAXX 01184 71734 NIL
AAXX 01184 71736 NIL
AAXX 01184 71737 NIL
AAXX 01184 71741 NIL
AAXX 01184 71742 NIL
AAXX 01184 71743 NIL
AAXX 01184 71744 NIL
AAXX 01184 71745 NIL
AAXX 01184 71746 NIL
AAXX 01184 71747 NIL
AAXX 01184 71748 NIL
AAXX 01184 71350 16/// /3414 11007 21015 30029 40095 53025 60001 333 10048 21007 70186
AAXX 01184 71351 NIL
AAXX 01184 71352 17/// /1812 10032 20028 39529 49977 58059 60041 7//4/ 333 10034 20004 70041
AAXX 01184 71353 NIL
AAXX 01184 71354 NIL
AAXX 01184 71355 16/// /2803 11327 21362 30054 40144 53011 60001 333 11307 21347 70000 555 10010
AAXX 01184 71356 NIL
AAXX 01184 71357 NIL
AAXX 01184 71358 17/// /2702 11381 21423 30057 40094 53009 69931 7//4/ 333 11336 21392 70027
AAXX 01184 71359 NIL
AAXX 01184 71360 NIL
AAXX 01184 71361 NIL
AAXX 01184 71362 NIL
AAXX 01184 71363 NIL
AAXX 01184 71364 NIL
AAXX 01184 71365 NIL
AAXX 01184 71368 17366 81813 10042 20035 39600 49984 58056 60041 7614/ 333 10043 20008 70040
AAXX 01184 71369 15966 00902 11157 21182 39610 40351 51012 60001 333 11094 21180 70000
AAXX 01184 71370 46/// /0704 11030 21035 39978 40116 58041 6///1 333 11030 21046 7////
AAXX 01184 71371 17240 81008 10001 21008 30072 40106 58054 60001 710// 333 10001 21028 70000
AAXX 01184 71372 NIL
AAXX 01184 71373 NIL
AAXX 01184 71374 NIL
AAXX 01184 71375 NIL
AAXX 01184 71376 NIL
AAXX 01184 71377 17/// /0806 10002 21009 30047 40096 58058 69931 7//4/ 333 10002 21031 70003
AAXX 01184 71378 NIL
AAXX 01184 71379 16/// /1308 11086 21101 39924 40098 58046 60001 333 11084 21147 70000
AAXX 01184 71380 NIL
AAXX 01184 71381 NIL
AAXX 01184 71382 16/// /1905 11031 21035 39164 40100 58029 60001 333 11028 21057 70000
AAXX 01184 71383 NIL
AAXX 01184 71384 16/// /2002 11024 21042 30133 40141 58036 60001 333 11020 21057 70010
AAXX 01184 71385 NIL
AAXX 01184 71386 16/// /3503 11039 21054 39928 40136 58012 60001 333 11036 21091 70080
AAXX 01184 71387 NIL
AAXX 01184 71388 46/// /2902 11067 21086 39936 40129 56034 6///1 333 11067 21124 7////
AAXX 01184 71389 NIL
AAXX 01184 71390 46/// /2804 11031 6///1 333 11031 21074 7////
AAXX 01184 71391 16/// ///// 11019 21028 60001 333 11019 21033 70011
AAXX 01184 71392 16/// /0505 11032 21038 60001 333 11031 21053 70012
AAXX 01184 71393 NIL
AAXX 01184 71395 12474 83221 10014 21006 39912 40089 53013 60001 885// 333 10081 20008 70351
AAXX 01184 71398 17466 81304 11036 21046 39960 49971 58042 60001 771// 333 11036 21107 70000
AAXX 01184 71399 NIL
AAXX 01184 71930 13974 20000 11181 21239 39369 40354 50001 60003 80001 333 11125 21203 47016 70000
AAXX 01184 71931 16/// /0719 11007 21013 30006 40018 56048 60001 333 10025 21058 70000
AAXX 01184 71934 11274 80000 11191 21220 30053 40326 52027 69901 77171 885// 333 11191 21251 47029 70002 90952
AAXX 01184 71935 NIL
AAXX 01184 71936 11474 80000 11176 21204 30047 40321 53032 69901 77177 885// 333 11167 21178 48028 70006 90983
AAXX 01184 71937 NIL
AAXX 01184 71938 11566 80000 11302 21333 30276 40308 53012 69901 77077 885// 333 11295 21331 79999 90983
AAXX 01184 71940 12982 40000 11186 21223 39469 40315 58010 60001 80001 333 11183 21215 70000
AAXX 01184 71943 12974 61206 11117 21191 39425 40292 52002 60001 80001 333 11077 21126 70000
AAXX 01184 71944 160// ///// 11212 50000 60001 333 11138 21240 70000
AAXX 01184 71945 12983 30000 11199 21252 39762 40254 57005 60001 80001 333 11112 21208 70000
AAXX 01184 71946 12974 30000 11343 21354 30076 40312 50009 60001 80001 333 11343 21374 70000
AAXX 01184 71948 46064 /1207 11298 30159 40280 51016 6///1 333 11283 21302 7////
AAXX 01184 71949 46/// /1214 11153 21178 39249 40155 56032 6///1 333 11153 21245 7////
AAXX 01184 71951 11780 80214 11033 21052 39871 40142 58031 69901 77172 8657/ 333 11031 21080 47040 70016 90917
AAXX 01184 71957 46964 31208 11281 21353 30142 40237 53001 6///1 333 11281 21318 7////
AAXX 01184 71964 NIL
AAXX 01184 71966 16/// /0000 11314 21350 39667 40161 56038 60001 333 11313 21361 70000
AAXX 01184 71968 460// /3404 11356 30129 40198 58005 6///1 333 11235 21363 7////
AAXX 01184 71893 11474 81807 10034 20016 30224 40256 58004 60011 76122 885// 333 10050 20007 70012 90952
AAXX 01184 71894 16/// /0917 10094 20025 30172 40181 55003 60001 333 10094 20015 70004
AAXX 01184 71896 15966 03607 11132 21144 39420 40292 55000 60001 333 11132 21192 70000
AAXX 01184 71897 11474 80925 10050 20019 3//// 4//// 57032 60011 780XX 8892X 333 10052 20010 70010 90999
AAXX 01184 71898 160// ///// 10067 58047 60001 333 10068 21014 70010
AAXX 01184 71899 12366 81216 10053 20034 3//// 4//// 57047 60001 888XX 333 10058 20000 70018
AAXX 01184 71902 12874 32605 11145 21218 30103 40112 57018 60001 83010 333 11139 21200 70000
AAXX 01184 71905 NIL
AAXX 01184 71906 12874 10000 11139 21206 30050 40102 56016 60001 81071 333 11138 21237 70000
AAXX 01184 71907 16464 60908 11134 21153 30021 40054 58022 60001 333 11124 21152 70000
AAXX 01184 71909 16064 80803 11162 21191 30026 40070 56003 60001 333 11143 21190 70000
AAXX 01184 71910 46964 02502 11248 21289 30033 40097 50003 6///1 333 11145 21250 7////
AAXX 01184 71911 46014 02713 11354 30140 40201 51011 6///1 333 11344 21439 7////
AAXX 01184 71912 11458 83114 11169 21196 30016 40206 53032 69921 77177 886// 333 11100 21169 47022 70032 90983
AAXX 01184 71915 11474 73312 11301 21343 30043 40128 52003 69901 77177 83530 333 11206 21301 48042 79999 90983
AAXX 01184 71917 11959 70402 11337 21395 30132 40147 53010 69901 77677 86078 333 11302 21383 47015 79999 90983
AAXX 01184 71922 12974 02907 11126 21159 39836 40322 51019 60001 333 11088 21142 70012
AAXX 01184 71924 11916 03108 11312 21354 30105 40200 53020 69901 77677 333 11309 21349 48038 79999 90983
AAXX 01184 71925 11962 23008 11363 21408 30260 40305 51009 69901 77677 82030 333 11357 21389 42021 79999 90983
AAXX 01184 71926 11956 03315 11325 21382 30246 40272 53029 60001 73800 333 11301 21338 79999
AAXX 01184 71928 16/// /1102 11178 21242 39133 40369 51007 60001 333 11169 21243 70000
AAXX 01184 71043 11983 11204 11321 21372 30154 40255 58003 69901 77677 81070 333 11316 21366 48034 79999 90983
AAXX 01184 71045 17/// /0808 11134 21148 39240 40129 57020 60021 7//4/ 333 11134 21250 70015 555 10070
AAXX 01184 71050 46/// /0901 11106 21123 39144 40259 58003 6///1 333 11081 21156 7////
AAXX 01184 71051 NIL
AAXX 01184 71052 NIL
AAXX 01184 71066 12974 30000 11238 21280 39873 40318 50011 60001 80001 333 11101 21266 79999
AAXX 01184 71068 12974 12502 11147 21208 39598 40322 50005 60001 80001 333 11087 21190 70000
AAXX 01184 71069 16964 00000 11163 21185 39611 40352 51013 60001 333 11097 21191 70000
AAXX 01184 71076 16/// /2502 11169 21183 39890 40302 53020 60001 333 11148 21192 70000
AAXX 01184 71077 16/// /2503 11134 21167 39777 40344 53022 60001 333 11115 21157 70000
AAXX 01184 71079 11466 83112 11152 21179 39957 40248 52025 69901 77172 885// 333 11117 21159 48012 70028 90937
AAXX 01184 71081 46964 03213 11363 21410 30103 40116 51008 6///1 333 11352 21370 7////
AAXX 01184 71082 NIL
AAXX 01184 71083 11908 03422 11302 21346 30160 40204 51025 69901 73871 333 11207 21302 48058 70002 90932
AAXX 01184 71090 46964 02702 11375 21415 30058 40095 53008 6///1 333 11331 21387 7////
AAXX 01184 71091 460// /2916 11309 39855 40073 51008 6///1 333 7////
AAXX 01184 71092 46562 30805 11274 39370 40058 53008 6///1 333 11258 21275 7////
AAXX 01184 71093 460// ///// 11267 39546 40060 53008 6///1 333 11232 21267 7////
AAXX 01184 71094 46064 /1603 11249 39091 40016 52001 6///1 333 11247 21257 7////
AAXX 01184 71095 46964 01903 11372 21412 30022 40108 53010 6///1 333 11362 21387 7////
AAXX 01184 71101 160// /1442 39987 56037 60011 333 70195
AAXX 01184 71104 11974 81517 11037 21107 39146 40290 53005 60001 73611 86071 333 11037 21110 70000
AAXX 01184 71108 11883 70406 10050 21027 30188 40262 50010 69901 70182 87030 333 10050 20012 79999 90950
AAXX 01184 71109 11680 81120 10046 20006 30128 40155 58010 69901 76122 8757/ 333 10049 20008 79999 90910
AAXX 01184 71864 NIL
AAXX 01184 71865 16/// /2909 11093 21136 39637 40344 51022 60001 333 11064 21109 70000
AAXX 01184 71866 46964 02608 11108 21155 39732 40372 51020 6///1 333 11053 21141 7////
AAXX 01184 71867 11440 8//// 11095 21118 39937 40285 52020 69901 77177 887// 333 11086 21129 47025 70016 90983
AAXX 01184 71868 16/// /3114 11077 21130 39847 40304 51017 60001 333 11076 21091 70000
AAXX 01184 71869 12974 02607 11105 21146 39799 40346 52018 60001 333 11043 21129 79999
AAXX 01184 71871 15966 02512 11119 21189 39525 40371 51012 60001 333 11095 21171 70000
AAXX 01184 71877 12986 11604 11094 21105 39033 40368 58003 60001 81070 333 11094 21151 70000
AAXX 01184 71878 12974 01814 11092 21117 39239 40366 58001 60001 333 11090 21218 70000
AAXX 01184 71879 16964 01902 11102 21209 39522 40363 50008 60001 333 11085 21148 70005
AAXX 01184 71880 12982 53505 11071 21108 39262 40418 51017 60001 85070 333 11066 21096 70000
AAXX 01184 71882 160// /3603 11057 21080 39850 40412 53016 60001 333 11036 21061 70000
AAXX 01184 71883 46/// /0000 11155 21166 39546 40421 53014 6///1 333 11155 21197 7////
AAXX 01184 71887 12886 81212 11021 21082 39917 40353 53013 60001 84071 333 11021 21037 70000
AAXX 01184 71889 11774 81607 10016 21033 39932 40363 53008 69901 70272 82571 333 10016 21039 79999 90951
AAXX 01184 71891 16964 30000 11013 21039 30043 40326 50004 60001 333 11013 21023 70000
AAXX 01184 71892 11680 81604 10048 21015 30257 40262 55005 69921 70282 885// 333 10049 20013 70002 90941
AAXX 01184 71930 13974 20000 11181 21239 39369 40354 50001 60003 80001 333 11125 21203 47016 70000
AAXX 01184 71931 16/// /0719 11007 21013 30006 40018 56048 60001 333 10025 21058 70000
AAXX 01184 71934 11274 80000 11191 21220 30053 40326 52027 69901 77171 885// 333 11191 21251 47029 70002 90952
AAXX 01184 71935 NIL
AAXX 01184 71936 11474 80000 11176 21204 30047 40321 53032 69901 77177 885// 333 11167 21178 48028 70006 90983
AAXX 01184 71937 NIL
AAXX 01184 71938 11566 80000 11302 21333 30276 40308 53012 69901 77077 885// 333 11295 21331 79999 90983
AAXX 01184 71940 12982 40000 11186 21223 39469 40315 58010 60001 80001 333 11183 21215 70000
AAXX 01184 71943 12974 61206 11117 21191 39425 40292 52002 60001 80001 333 11077 21126 70000
AAXX 01184 71944 160// ///// 11212 50000 60001 333 11138 21240 70000
AAXX 01184 71945 12983 30000 11199 21252 39762 40254 57005 60001 80001 333 11112 21208 70000
AAXX 01184 71946 12974 30000 11343 21354 30076 40312 50009 60001 80001 333 11343 21374 70000
AAXX 01184 71948 46064 /1207 11298 30159 40280 51016 6///1 333 11283 21302 7////
AAXX 01184 71949 46/// /1214 11153 21178 39249 40155 56032 6///1 333 11153 21245 7////
AAXX 01184 71951 11780 80214 11033 21052 39871 40142 58031 69901 77172 8657/ 333 11031 21080 47040 70016 90917
AAXX 01184 71957 46964 31208 11281 21353 30142 40237 53001 6///1 333 11281 21318 7////
AAXX 01184 71964 NIL
AAXX 01184 71966 16/// /0000 11314 21350 39667 40161 56038 60001 333 11313 21361 70000
AAXX 01184 71968 460// /3404 11356 30129 40198 58005 6///1 333 11235 21363 7////
AAXX 01184 71701 12469 82907 11005 21022 30083 40146 55010 60001 885// 333 10004 21027 70034
AAXX 01184 60020 NIL
AAXX 01184 60030 02670 60114 10180 20099 30237 40294 53013 60002 83806 333 10203 60007 92438
AAXX 01184 60040 02580 33613 10185 20101 30276 40301 52014 60002 83505 333 10213 60007 92428
AAXX 01184 60338 12981 02508 10152 20065 30211 40277 53003 60002 333 10188 92418
AAXX 01184 48425 31550 80000 10266 20217 30121 40131 57005 71022 82556 333 59015
AAXX 01184 71701 12469 82907 11005 21022 30083 40146 55010 60001 885// 333 10004 21027 70034
AAXX 01184 48566 01560 80000 10234 20220 30105 40113 57009 60153 70262 82847 333 59011 60017 70156
AAXX 01184 48555 01440 80902 10236 20227 30089 40132 55005 60903 76122 8672/ 333 59013 60407 70895
AAXX 01181 02019 07/59 /1209 11035 21087 39345 49967 58006 69902 70410 333 11012 21052 60005 90710 91117
AAXX 01181 02081 05/72 /1504 11075 21087 39657 40070 54001 60002 333 11051 21075 60005 90710 91110
AAXX 01181 02095 07360 /1305 11081 21093 39890 40100 51004 69902 77170 333 11046 21081 69905 88/07 90710 91108
AAXX 01181 02101 47/09 /1410 11037 21057 39402 49963 58007 771// 8//// 333 11037 21082 89/16
AAXX 01181 02119 07422 /0801 11067 21071 39638 40031 57007 60042 74187 333 11067 21151 69975 88/18 90710 91104
AAXX 01181 02124 07525 /1204 11055 21088 39486 40017 57003 60032 77177 333 11055 21171 69945 89/21 90710 91109
AAXX 01181 02126 07426 /1202 11041 21050 39670 40011 57006 60032 77177 333 11040 21144 69945 88/10 90710 91106
AAXX 01181 02151 36/// ///// 1//// 2//// 3//// 4//// 5//// 6///2 333 1//// 2//// 6///5 910// 90710 911// 90710 912//
AAXX 01181 02186 17580 81609 11015 21044 30050 40075 56006 69922 74187 333 11008 21027 60005 88/31 91011 90710 91112 90710 91209
AAXX 01181 02197 07/61 /1603 11039 21052 30087 40106 54000 69932 70010 333 11035 21057 60005 90710 91109
AAXX 01181 02207 07431 /1302 11023 21040 39214 49909 50000 69992 77187 333 10004 21023 69905 87/16 90710 91106
AAXX 01181 02219 07/19 /1108 11044 21055 39272 49939 50000 60022 77177 333 11044 21098 69915 90710 91115
AAXX 01181 02226 47484 /1506 11028 21040 39491 49945 58008 724// 8//// 333 11026 21045 86/14 88/31
AAXX 01181 02243 07/21 /1103 11014 21014 39715 49985 58015 60042 77187 333 11014 21156 69965 90710 91107
AAXX 01181 02269 07343 /1414 10018 20014 69902 72471 333 10020 21059 69905 87/07 90710 91117
AAXX 01181 02287 05679 /1407 11018 21047 30048 40058 57009 60002 333 11014 21055 60005 87/40 90710 91111
AAXX 01181 02297 07599 /1608 11016 21053 30024 40070 57003 69962 70070 333 11014 21040 60005 85/24 88/31 90710 91113
AAXX 01181 02308 07458 /1501 11045 21058 39073 49934 58005 69952 77170 333 11041 21054 69905 88/11 90710 91104
AAXX 01181 02327 07/33 /1102 11035 21039 39522 49958 57009 60052 77177 333 11034 21065 69945 90710 91105
AAXX 01181 02355 07258 /1514 10015 20012 39970 49984 57027 69992 71087 333 10015 21011 69925 83/05 85/08 87/15 90710 91119
AAXX 01181 02366 47/56 /1408 10011 20005 39987 49993 58020 761// 8//// 333 10012 21133
AAXX 01181 02407 07232 /1402 11025 21026 39585 49955 57010 60082 72275 333 11021 21035 69915 88/03 90710 91104
AAXX 01181 02418 47/02 /1902 10024 20023 39828 49959 58003 780// 8//// 333 10025 21005 89/02
AAXX 01181 02435 47280 /1403 10000 21009 39783 49971 56015 724// 8//// 333 10000 21053 88/05
AAXX 01181 02440 07328 /1302 11004 21010 60042 78587 333 11003 21089 69935 84/08 88/14 90710 91105
AAXX 01181 02452 07102 /2102 11001 21001 60082 73387 333 11001 21039 69925 89/02 90710 91104
AAXX 01181 02456 07247 /1504 10006 20002 39958 40000 58014 60022 77176 333 10008 21063 69965 81/03 85/05 87/09 88/// 90710 91107
AAXX 01181 02469 07/59 /1804 10020 20011 60042 76186 333 10023 21091 60015 90710 91110
AAXX 01181 02498 07458 /1614 10034 20023 30009 40025 56017 69962 78186 333 10039 20008 69935 87/10 90710 91118
AAXX 01181 02518 464// /2009 10064 20058 333 10067 20037 81/18 88/32 90710 91111
AAXX 01181 02520 17365 82005 10054 20047 39911 49978 53003 60022 70081 333 10058 21005 60005 85/09 87/13 88/21 91007 90710 91108 90710 91206
AAXX 01181 02550 47159 /2207 10047 20047 39726 49999 53003 710// 8//// 333 10048 21017 88/02
AAXX 01181 02562 17258 81903 10023 20021 39880 49996 50000 60032 71065 333 10023 21055 60005 88/04 91004 90710 91104 90710 91204
AAXX 01181 02563 07241 /2005 10031 20028 39986 40008 55004 60052 71086 333 10032 21011 60005 88/05 90710 91110
AAXX 01181 02565 07358 /1602 10023 20022 39893 40013 57004 60022 71087 333 10025 21050 60005 88/07 90710 91103
AAXX 01181 02589 07247 /1809 10032 20024 30009 40030 56019 60022 76164 333 10033 20013 69975 88/05 90710 91117
AAXX 01181 02590 47250 /1707 10024 20024 39965 40026 56013 780// 8//// 333 10024 21029 88/04
AAXX 01181 02618 07/56 /2203 10057 20057 39853 40016 53008 60082 71086 333 10064 20005 60005 90710 91107
AAXX 01181 02664 17127 82202 10058 20054 39968 40039 53011 69962 72081 333 10059 20020 60005 88/02 91004 90710 91105 90710 91203
AAXX 01181 02679 07/18 /1909 10035 20035 39992 40037 58009 60022 71086 333 10035 20020 60005 90710 91113
AAXX 01184 91487 NIL
AAXX 01184 91490 NIL
AAXX 01184 91533 NIL
AAXX 01184 91601 NIL
AAXX 01184 91610 11599 20911 10264 20226 40075 53003 60001 70201 822100 333 562//
AAXX 01184 82820
AAXX 01184 91623 NIL
AAXX 01184 91629 NIL
AAXX 01184 91701 NIL
AAXX 01184 91487 NIL
AAXX 01184 91490 NIL
AAXX 01184 91533 NIL
AAXX 01184 91601 NIL
AAXX 01184 91610 11599 20911 10264 20226 40075 53003 60001 70201 822100 333 562//
AAXX 01184 82820
AAXX 01184 91623 NIL
AAXX 01184 91629 NIL
AAXX 01184 91701 NIL
AAXX 01184 43400 NIL
AAXX 01184 43404 NIL
AAXX 01184 43410 NIL
AAXX 01184 43413 22470 50904 10262 20248 30119 40123 85100 333 58/// 60007 85818
AAXX 01184 43415 NIL
AAXX 01184 43418 22470 30902 10255 20235 3//// 4//// 83232 333 5//// 60007 83818
AAXX 01184 43421 22960 00000 10232 20217 30017 40119 333 59008 60007
AAXX 01184 43422 NIL
AAXX 01184 43424 22968 0//// 10232 20223 30107 40109 333 59006 60007
AAXX 01184 43436 22970 00000 10238 20229 30112 40115 333 59009 60007
AAXX 01184 43441 NIL
AAXX 01184 43444 22970 00000 10182 20173 39585 40120 333 59008 60007
AAXX 01184 43467 22960 00000 10234 20213 30099 40104 333 59016 60007
AAXX 01184 43473 22970 00000 10108 20027 38134 48506 333 59011 60007
AAXX 01184 43475 NIL
AAXX 01184 43476 NIL
AAXX 01184 43479 NIL
AAXX 01184 43486 22970 01402 10227 20203 30015 40109 333 59008 60007
AAXX 01184 43495 22968 0//// 10235 20209 30101 40117 333 59010 60007
AAXX 01184 43497 22976 00501 10241 20214 30096 40114 333 59009 60007
AAXX 01181 12160 11412 81405 10006 20003 30046 40100 56006 60042 76176 8752/ 333 10014 21012 93004
AAXX 01181 12205 11330 82205 10091 20091 30078 40086 50011 60042 71065 886// 333 10091 20019 93002
AAXX 01181 12465 11235 82004 10028 20025 39899 40136 55005 69932 76162 877// 333 10028 21034 87706 93093
AAXX 01181 12566 11556 81901 10014 20004 39870 40171 52002 60002 71022 875// 333 10022 21067 93000
AAXX 01181 12120 11230 82004 10030 20029 30060 40067 57005 60022 75162 886// 333 10031 21017 93002
AAXX 01181 12250 11217 81803 10026 20025 30017 40107 56007 60032 76122 8772/ 333 10026 21021 87703 93003
AAXX 01181 12295 11340 81603 11011 21011 39964 40154 56013 60002 71022 886// 333 11011 21069 88708 93000
AAXX 01181 12330 11128 82204 10055 20054 30002 40111 53001 60022 71065 877// 333 10056 21008 87703 93002
AAXX 01181 12375 11460 81602 10023 20002 30005 40138 56009 69902 76122 875// 333 10029 21012 87616 93097
AAXX 01181 12424 11499 72304 10074 20052 39981 40133 55001 69932 70165 875// 333 10075 20004 93093
AAXX 01184 43400 NIL
AAXX 01184 43404 NIL
AAXX 01184 43410 NIL
AAXX 01184 43413 22470 50904 10262 20248 30119 40123 85100 333 58/// 60007 85818
AAXX 01184 43415 NIL
AAXX 01184 43418 22470 30902 10255 20235 3//// 4//// 83232 333 5//// 60007 83818
AAXX 01184 43421 22960 00000 10232 20217 30017 40119 333 59008 60007
AAXX 01184 43422 NIL
AAXX 01184 43424 22968 0//// 10232 20223 30107 40109 333 59006 60007
AAXX 01184 43436 22970 00000 10238 20229 30112 40115 333 59009 60007
AAXX 01184 43441 NIL
AAXX 01184 43444 22970 00000 10182 20173 39585 40120 333 59008 60007
AAXX 01184 43467 22960 00000 10234 20213 30099 40104 333 59016 60007
AAXX 01184 43473 22970 00000 10108 20027 38134 48506 333 59011 60007
AAXX 01184 43475 NIL
AAXX 01184 43476 NIL
AAXX 01184 43479 NIL
AAXX 01184 43486 22970 01402 10227 20203 30015 40109 333 59008 60007
AAXX 01184 43495 22968 0//// 10235 20209 30101 40117 333 59010 60007
AAXX 01184 43497 22976 00501 10241 20214 30096 40114 333 59009 60007
AAXX 01184 64600 32960 20000 10254 20204 39448 40095 80002 333 10329 55072 58003 82080
AAXX 01184 64601 31956 00408 10242 20034 38995 48504 70400 333 10315 58000
AAXX 01184 64605 32960 00000 10245 20117 39353 40089 333 10332 58000
AAXX 01184 64610 32960 00000 10230 20166 3//// 4//// 333 10350 5////
AAXX 01184 64650 32958 41204 10281 20239 39686 40095 80002 333 10327 55079 58021 84080
AAXX 01184 64654 32960 30806 10255 20160 39564 40106 80002 333 10366 58001 83080
AAXX 01184 64655 NIL
AAXX 01184 64656 31560 10000 10280 20235 39538 40087 71300 81903 333 10325 59009 81930 94942 95832
AAXX 01184 64659 NIL
AAXX 01184 64660 32960 30000 10280 20213 39557 40078 83030 333 10340 59001 83365
AAXX 01184 64662 32960 30000 10288 20234 39580 40073 80002 333 10336 59002 83080
AAXX 01184 64665 31560 80000 10277 20228 3//// 4//// 71799 82963 333 10339 5//// 82930 84365 88080 94959 95839
AAXX 01181 10270 06560 82002 10087 20087 30040 40095 50003 60022 222// 06045 333 10098 20039 3/004 55300 69917 83/22 87/61 88/63
AAXX 01184 43466 21960 00000 10230 20207 30103 40115 71000 333 59004 60007
AAXX 01181 12105 11130 81703 10056 20053 30036 40079 53003 60052 75562 886// 333 10056 21006 88703 93004
AAXX 01181 12195 11225 81804 11023 21023 39915 40150 56003 60002 71011 886// 333 11001 21028 93000
AAXX 01181 12235 11110 82005 10019 20019 39879 40092 55001 60042 76165 8672/ 333 10019 21013 86702 93004
AAXX 01181 12270 11315 81803 10004 20003 39937 40123 56013 60022 76172 8672/ 333 10004 21039 93002
AAXX 01181 12280 11312 81505 11005 21006 39968 40129 56013 69952 77322 8772/ 333 11003 21036 93095
AAXX 01181 12300 11115 82603 10082 20081 30014 40103 52010 60022 75364 886// 333 10082 20003 93001
AAXX 01181 12400 11320 82304 10077 20076 39885 40119 53009 69972 75064 886// 333 10078 20002 91009 91109 93096
AAXX 01181 12435 11440 81903 10040 20033 39953 40126 56003 69982 71065 885// 333 10041 21020 93001
AAXX 01181 12495 12664 71804 10008 21010 39866 40165 56009 60002 875// 333 10019 21009 93000
AAXX 01181 12530 11558 81703 10037 20021 39949 40151 52002 69902 72122 885// 333 10049 21001 93097
AAXX 01181 12570 11458 81603 10011 21004 39840 40165 55004 60002 71022 885// 333 10011 21027 93000
AAXX 01181 12580 11565 51907 10010 21014 39915 40181 58003 69902 72611 85300 333 10024 21009 91111 93097
AAXX 01184 85223 31570 73510 10178 20120 37524 47155 57016 71522 86330 333 56000 58014 85825 81927 87357
AAXX 01184 85283 32584 60310 10180 20122 37212 47148 57019 86200 333 56100 58017 86820
AAXX 01184 85364 40000 10262 20178 38162 48207 57006 83530 333 56000 58002 83633 85357
AAXX 01184 85365 32584 21807 10320 20225 39376 40071 57016 82100 333 56400 58026 82823
AAXX 01181 13160 11697 72101 10035 20004 30127 40238 52004 69902 70266 87500 333 10063
AAXX 01181 13262 32998 50000 10016 21015 30093 40247 51009 85030 333 10080
AAXX 01181 13285 32997 01102 11023 21033 30150 40258 52014 333 10062
AAXX 01181 13289 32998 03006 11045 21059 39011 48496 53007 333 11015 4/004
AAXX 01181 13376 32998 01902 10002 21029 39994 40267 53016 333 10065
AAXX 01181 13489 32997 80402 11006 21044 39731 40272 52013 333 10042
AAXX 01181 13388 31996 00601 10007 21030 30007 40264 52013 71000 333 10066
AAXX 01181 33088 32997 01901 11044 21053 30003 40203 54000 333 11006
AAXX 01181 33177 12997 01701 11014 21026 39949 40194 57003 69902 333 10020
AAXX 01181 33261 11497 83102 11010 21032 39989 40177 52015 69902 70282 889// 333 10011 88917
AAXX 01181 33275 11497 83105 11004 21019 39929 40158 52005 69942 78582 8435/ 333 10011 84918
AAXX 01181 33301 32997 21702 11022 21028 39911 40203 58002 82030 333 10009
AAXX 01181 33325 32997 02601 11022 21045 39932 40210 52004 333 10021
AAXX 01181 33377 11597 73504 11004 21045 39984 40183 52015 69902 70281 87500 333 10013 87621
AAXX 01181 33415 32997 21802 11019 21037 39802 40214 52001 80001 333 10016
AAXX 01181 33429 11997 00000 11022 21031 39779 40217 52002 69902 70281 333 10019
AAXX 01181 33466 32989 43002 11003 21067 30010 40203 52012 84030 333 10024
AAXX 01181 33526 32960 00000 11037 21059 39862 40216 52001 333 10059
AAXX 01181 33562 12997 22402 11030 21054 39842 40217 53006 69902 82030 333 10003
AAXX 01181 33614 11556 83206 10010 21017 30074 40181 52012 69902 78582 883// 333 10018 88920
AAXX 01181 33761 32998 03202 11025 21062 39983 40215 52011 333 10010
AAXX 01181 33902 11996 02903 11003 21016 30127 40196 52018 69902 71011 333 10040
AAXX 01181 33983 11497 83209 10016 21000 30100 40162 52020 60012 70284 889// 333 10050 88913
AAXX 01181 34415 11395 80000 10002 21004 30044 40142 54000 60092 77177 8772/ 333 10009 93711
AAXX 01181 34523 NIL
AAXX 01181 34712 11496 83407 10004 20004 30045 40132 52013 60032 77176 8772/ 333 10026
AAXX 01181 13168 32698 51402 10022 21013 30128 40238 51002 85500 333 10078
AAXX 01181 13174 32997 11405 10017 21016 30143 40247 52004 81030 333 10068
AAXX 01181 13269 32998 02301 10006 21017 30034 40257 52015 333 10081
AAXX 01181 13274 32997 01503 10042 21025 30085 40250 53007 333 10079
AAXX 01181 02464 47257 /1505 10024 20017 39990 40008 56013 761// 8//// 333 10024 21048 81/06 88/07
AAXX 01181 02500 07350 /2106 10069 20066 39911 49952 54000 60082 72386 333 10070 20005 69965 83/07 90710 91109
AAXX 01181 02513 07/61 /2004 10073 20062 39988 49993 53005 60092 70061 333 10074 20019 60005 90710 91108
AAXX 01181 02615 07457 /2306 10064 20060 30039 40043 52003 60052 71011 333 10071 20037 60005 87/12 90710 91110
AAXX 01181 02635 07/45 /2403 10073 20070 60092 71061 333 10078 20029 60005 90710 91106
AAXX 01181 01300 41597 62010 10064 20033 49842 57005 70222 86/// 22200 02068 10706 70032 333 91113
AAXX 01181 01400 41498 62109 10081 20070 49928 57009 78082 84870 22200 06077 10606 70029 333 91115
AAXX 01181 48852 11497 80000 10184 20182 30169 40179 58008 60021 76166 888// 333 59015 86894 88697 96160
AAXX 01181 48855 11597 83201 10195 20193 30169 40177 57007 60021 76062 888// 333 59011 83895 88697 96160
AAXX 01181 48848 32597 83201 10176 20159 30184 40192 57006 888// 333 59016 82895 88697
AAXX 01181 06447 16/// /2008 10125 20110 39936 40058 58026 69962 333 10126 91117 91209
AAXX 01184 67002 11580 33604 10277 20246 30098 40131 60012 70360 81802 333 10329 59010 81822 83630 92408
AAXX 01184 67009 NIL
AAXX 01184 67012 NIL
AAXX 01184 67025 NIL
AAXX 01184 67027 11470 73012 10286 20261 30086 40107 52010 69902 70162 83832 333 10313 82817 84073 555 82640 81360
AAXX 01184 67072 NIL
AAXX 01184 67073 NIL
AAXX 01184 67083 31470 70000 10203 20185 38743 48519 72999 879// 333 10291 81817 8917 83620 94979 95839
AAXX 01184 67095 32475 60000 10275 20248 30110 40116 51009 84960 333 10320 81917 83817 83633 83360 94965 95835
AAXX 01184 67113 NIL
AAXX 01184 67137 NIL
AAXX 01184 67157 NIL
AAXX 01184 67197 11430 70810 10233 20228 30112 40122 51008 60042 76162 878// 333 10272 833817 86633 RR 3.6MM
AAXX 01184 65306 32960 53604 10285 20065 39797 40128 80002 333 10345 58014 85076
AAXX 01184 65319 32960 50000 10310 20093 39601 40111 80002 333 10369 58005 85076
AAXX 01184 65330 31920 50402 10313 20083 39666 40102 70522 80002 333 10356 58003 85076
AAXX 01184 65335 31940 50802 10325 20128 39879 40102 70522 80002 333 10380 58008 85076
AAXX 01184 65344 32958 51804 10286 20255 30094 40105 80002 333 10307 58005 85076
AAXX 01184 08171 12968 10302 10086 20067 30001 40244 56007 60002 80005 333 10140
AAXX 01181 06428 17483 /2008 10133 20112 39995 40042 58030 60032 78186 333 10133 81/15 85/20 88/46 91113 91208
AAXX 01181 06431 16/// /1906 10133 20120 30022 40033 58033 60042 333 10133 91112 91207
AAXX 01181 06432 17/82 /2010 10133 20112 39984 40058 58026 69922 72286 333 10133 81/14 83/18 85/21 91115 91211
AAXX 01181 06458 37478 /2010 10127 20112 39917 40067 58024 78186 333 10128 81/15 85/20 87/25 91114 91210
AAXX 01181 06465 17467 /2007 10127 20108 39999 40064 56023 69982 76186 333 10130 81/16 85/26 87/31 91112 91208
AAXX 01181 06496 17257 /2107 10095 20089 39429 40090 58014 60062 70086 333 10095 83/05 85/08 88/12 91112 91208
AAXX 01184 68024 42660 20000 10305 20155 48494 53018 81480 333 10357
AAXX 01184 66160 35565 72307 10255 20220 40102 82231 333 10294 58000
AAXX 01184 48407 31959 30104 10206 20175 39992 40136 56006 71011 80001 333 59013
AAXX 01181 33663 32997 00000 11010 21016 30109 40208 52002 333 10036
AAXX 01181 34523 11494 82801 10003 20000 30035 40112 58011 60052 77372 8772/ 333 10028
AAXX 01184 84455 31460 60000 10289 20227 39810 40162 70222 83130 333 5600/ 58000 83820 83360
AAXX 01184 84377 21458 81603 10246 20223 30000 40106 70256 85720 333 5600/ 58019 60121 85712 86460
AAXX 01184 84425 31560 60605 10315 20235 39924 40133 71522 8323/ 333 5600/ 58004 83820 83360
AAXX 01184 84452 31960 01916 10310 20206 30084 40114 70122 333 58002
AAXX 01184 84673 31665 41003 10240 20105 37340 70120 81120 333 56990 58003 81846 83466
AAXX 01184 84390 31965 02013 10315 20201 30003 40101 70100 333 58008
AAXX 01184 84686 21659 89902 10113 20067 36888 76162 885// 333 56900 58026 60021 83640 88650
AAXX 01184 84370 31960 03208 10290 20241 30064 40097 70100 333 58004
AAXX 01184 84691 31960 22610 10292 20221 30103 40110 70202 80001 333 56000 59005 82073
AAXX 01184 84564 31560 20616 10254 20162 38145 7012/ 82200 333 56000 58005 82830
AAXX 01184 84515 31460 83510 10292 20232 39936 40111 70223 84130 333 56000 58017 84817 85358
AAXX 01184 84782 31965 42213 10262 20146 39603 40096 70221 84010 333 56070 59011 84462
AAXX 01184 84472 31560 62501 10215 20116 37396 70100 86500 333 56900 58003 82725 84633
AAXX 01184 84501 31960 11611 10228 20178 30083 40109 70200 81030 333 56000 59007 81365
AAXX 01184 84688 31459 80907 10150 20085 36665 70222 886// 333 568// 59006 83615 86656
AAXX 01184 84752 32560 62513 10188 20105 37531 70300 8352/ 333 5699/ 58008 83530 83460
AAXX 01184 84752 32560 62513 10188 20105 37531 70300 8352/ 333 5699/ 58008 83530 83460
AAXX 01184 84401 31960 31909 10335 20187 30054 40096 70202 83030 333 56000 58000 83360
AAXX 01184 84720 31960 33304 10332 20217 39490 40154 70300 83040 333 56090 59020 83368
AAXX 01184 84735 31460 8//// 10014 20057 36445 70222 86130 333 56990 58012 86815 84656
AAXX 01184 84658 21459 61803 10260 20253 39850 40086 76022 861// 333 560// 58011 60011 84810 82640
AAXX 01184 84628 34960 01810 10264 20191 30101 40117 70210 333 59002
AAXX 01183 91551 NIL
AAXX 01183 91553 NIL
AAXX 01183 91554 31598 80000 10240 20233 40063 53003 70222 83237 333 56999 83820 85362 88279
AAXX 01183 91555 31598 30000 10267 20250 40060 56003 70121 8110 333 569/9 81823 83080
AAXX 01183 91557 31598 39902 10240 20218 40065 56002 70522 81101 333 569/9 81820 83080
AAXX 01183 91565 31598 30000 10250 20235 40061 53008 70221 81101 333 568/9 81822 83080
AAXX 01183 91568 31598 60000 10235 20228 40078 53008 70512 83802 333 568/9 83825 86080
AAXX 01183 91551 NIL
AAXX 01183 91553 NIL
AAXX 01183 91554 31598 80000 10240 20233 40063 53003 70222 83237 333 56999 83820 85362 88279
AAXX 01183 91555 31598 30000 10267 20250 40060 56003 70121 8110 333 569/9 81823 83080
AAXX 01183 91557 31598 39902 10240 20218 40065 56002 70522 81101 333 569/9 81820 83080
AAXX 01183 91565 31598 30000 10250 20235 40061 53008 70221 81101 333 568/9 81822 83080
AAXX 01183 91568 31598 60000 10235 20228 40078 53008 70512 83802 333 568/9 83825 86080
AAXX 01184 91925 02581 31103 10304 20218 30091 40151 51012 60001 83800 333 56100 60007 83820 90710 91107 555 60005 11107 58014
AAXX 01184 91929 04981 80710 10274 20230 30141 40144 51014 60002 700// 333 10274 20253 60007 90710 91112 555 60005
AAXX 01184 91938 01575 70804 10264 20200 30148 40150 58001 60482 721// 868// 333 10264 20224 60057 81820 86650 90710 91113 555 69905 11214 58011
AAXX 01184 91943 36/// /1006 10283 20201 30152 40154 51012 333 10286 58010= 91944 06/// /1109 10279 20214 30154 40157 51006 60102 333 10281 20231 60007 90710 91111 555 60005
AAXX 01184 91948 02582 31003 10259 20200 30075 40177 50002 60001 83200 333 56200 60007 83821 90710 91109 555 60005 11309 59003
AAXX 01184 91954 06/// /0110 10260 20237 30153 40156 51013 60001 333 60007 555 58014
AAXX 01184 91958 01375 73308 10253 20234 30161 40163 50005 60031 72586 878// 333 56799 60037 81806 85815 87650 90710 91114 555 60025 13115 58008
AAXX 01184 91945 36/// /0506 10288 20225 30158 40163 51009
AAXX 01184 85406 12980 52015 10241 20144 40109 57011 60001 85030 333 56000 85365
AAXX 01184 85418 12970 22321 10246 20142 40113 57018 60001 80001 333 56000 82080
AAXX 01184 85432 12870 52622 10236 20085 37752 48424 57009 60001 81131 333 56666 81857 82361 84070
AAXX 01184 85442 12975 41914 10230 20143 40120 57012 60001 80001 333 56007 83080
AAXX 01184 85467 13980 02515 10211 20116 40144 58011 60001
AAXX 01184 85469 42565 62807 10244 20193 40184 52002 82202 333 56707 82820 83076
AAXX 01184 85488 12962 22911 10218 20125 40143 58007 80001 333 56000 82075
AAXX 01184 85574 12960 01512 10287 20128 39572 40098 57022 60001
AAXX 01184 85577 12960 02106 10296 20134 39525 40102 57020 60001
AAXX 01184 94299 46/// /1520 10264 20211 30075 40085
AAXX 01184 94300 46/// /1813 10224 20184 30076 40086
AAXX 01184 94302 46/// /2009 10215 20174 30076 40082
AAXX 01184 94312 46/// /3105 10240 20219 30057 40066
AAXX 01184 94313 NIL
AAXX 01184 94317 46/// /2508 10283 20032 39469 40036
AAXX 01184 94319 46/// /3408 10274 20189 39725 40046
AAXX 01184 94324 NIL
AAXX 01184 94326 46/// /3622 10313 20090 39449 40046
AAXX 01184 94327 46/// /3404 10289 20140 39688 40050
AAXX 01184 94332 46/// /0000 10228 20192 39687 40062
AAXX 01184 94333 NIL
AAXX 01184 94341 46/// /0508 1//// 2//// 39856 40085
AAXX 01184 94346 46/// /0407 10218 20123 39880 40095
AAXX 01184 94363 46/// /1203 10189 20156 39923 40136
AAXX 01184 94366 NIL
AAXX 01184 94367 46/// /1411 10246 20177 30080 40122
AAXX 01184 94374 46/// /1305 10195 20154 3//// 4////
AAXX 01184 94388 46/// /1314 10235 20159 30128 40133
AAXX 01184 94393 46/// /1420 10249 30086 40098 55003
AAXX 01184 94394 46/// /1420 10235 30108 40116 56004
AAXX 01184 94403 46/// /1813 10222 20185 30048 40088
AAXX 01184 94429 46/// /2306 10239 20162 39605 40052
AAXX 01184 94430 46/// /1705 10247 20074 39477 40040
AAXX 01184 94449 46/// /1207 10252 20149 39550 40062
AAXX 01184 94451 NIL
AAXX 01184 94461 46/// /0806 10201 20182 39414 40063
AAXX 01184 94462 46/// /2206 10231 20180 39547 40085
AAXX 01184 94477 NIL
AAXX 01184 94488 NIL
AAXX 01184 68029 41560 70505 10216 20183 48500 52027 71799 85973 333 10310
AAXX 01184 94500 NIL
AAXX 01184 94510 46/// /0505 10197 20137 39773 40112
AAXX 01184 94515 46/// /0610 10189 20137 39787 40128
AAXX 01184 94552 46/// /1303 10126 20112 39691 40149
AAXX 01184 94578 46/// /2107 10166 20138 30149 40160
AAXX 01184 94584 46/// /1218 10218 20159 30030 40139
AAXX 01184 94601 46/// /1215 10176 20094 30123 40140
AAXX 01184 94610 46/// /1107 10193 20141 30084 40107
AAXX 01184 94637 46/// /1508 10192 20149 39676 40090
AAXX 01184 94638 46/// /2005 10169 20162 30090 40121
AAXX 01184 94642 NIL
AAXX 01184 94643 NIL
AAXX 01184 94647 46/// /0107 10219 20151 39956 40074
AAXX 01184 94651 46/// /3207 10231 20171 30016 40092
AAXX 01184 94653 46/// /2905 10218 20151 30066 40084
AAXX 01184 94659 46/// /0310 10276 20008 39886 40074
AAXX 01184 94672 46/// /0510 10299 20021 30056 40066
AAXX 01184 94691 46/// /0308 10244 20052 39789 40108
AAXX 01184 94693 46/// /0210 10238 20069 30045 40105
AAXX 01184 94700 NIL
AAXX 01184 94703 46/// /0406 10218 20124 30003 40125
AAXX 01184 94710 46/// /0804 10203 20080 39882 40128
AAXX 01184 94729 46/// /1803 10122 20108 39319 40150
AAXX 01184 94750 46/// /0000 10141 20138 30036 40158
AAXX 01184 94767 46/// /3205 10190 20158 30165 40171
AAXX 01184 94776 46/// /0000 10141 20132 30157 40167
AAXX 01184 94791 NIL
AAXX 01184 94802 46/// /1704 10125 20096 30056 40137
AAXX 01184 94804 46/// /0215 10214 20172 39998 40035
AAXX 01184 94807 NIL
AAXX 01184 94821 46/// /0306 10176 20101 39997 40078
AAXX 01184 94842 46/// /0817 10180 20167 30001 40098
AAXX 01184 94847 NIL
AAXX 01184 94850 46/// /0819 10164 20162 30064 40108
AAXX 01184 94865 46/// /0000 10172 20159 30089 40113
AAXX 01184 94866 46/// /0000 10179 20161 39976 40114
AAXX 01184 94875 46/// /0000 10193 20106 39994 40125
AAXX 01183 NIL
AAXX 01184 85864 12980 02705 10205 20053 40185 58003 60001
AAXX 01184 85874 12680 13123 10182 20034 39561 40167 58003 60001 81100 333 56600 81840
AAXX 01184 85934 12580 62927 10147 20045 40065 54002 60001 84530 333 56660 84620 83357
AAXX 01184 89054 11107 80413 10028 20023 49906 57020 60021 74075 886// 333 56199 88703 96463 96451
AAXX 01184 89056 11/04 90114 10017 20013 49893 57020 60003 74542 333 89/01
AAXX 01184 89057 11450 83506 10014 20002 49898 57015 69923 76842 8802/ 333 56079 88510
AAXX 01184 89058 11462 83411 10024 20015 39880 49901 57016 60021 76874 8572/
AAXX 01184 89059 12960 21805 10012 21009 49905 57006 60003 80002 333 74008 81163
AAXX 01184 89251 41150 83614 10033 20014 49887 57018 76062 8672/
AAXX 01184 85585 12598 31710 10211 20139 40202 58008 60001 82504 333 56406 82625
AAXX 01184 85586 11458 52610 10193 20121 40162 60001 70522 85500 333 56700 85615
AAXX 01184 85629 12980 02205 10290 20152 40107 57011 60001
AAXX 01184 85672 NIL
AAXX 01184 85682 12960 02414 10259 20139 40140 58014 60001
AAXX 01184 85743 12960 02307 10300 20108 40166 57020 60001
AAXX 01184 85766 12960 01810 10277 20134 40187 57016 60001
AAXX 01184 85782 12560 21808 10252 20119 40202 57016 60001 82100 333 56400 82830
AAXX 01184 85799 12680 61711 10219 20139 40215 57005 60001 70322 82101 333 56404 82840 84070
AAXX 01184 85830 NIL
AAXX 01184 94102 46/// /2613 10294 20268 30068 40077
AAXX 01184 94103 NIL
AAXX 01184 94120 46/// /1809 10271 20236 30043 40083
AAXX 01184 94122 46/// /2809 10289 20255 30069 40077
AAXX 01184 94131 46/// /2807 10251 20233 39925 40076
AAXX 01184 94132 NIL
AAXX 01184 94147 NIL
AAXX 01184 94150 46/// /0000 10247 20237 30013 40072
AAXX 01184 94151 46/// /0207 10281 20235 30051 4////
AAXX 01184 94170 46/// /1501 10241 20237 30061 40083
AAXX 01184 94200 NIL
AAXX 01184 94203 46/// /2809 10288 20231 30063 40073
AAXX 01184 94206 46/// /0000 10255 2//// 39940 40068
AAXX 01184 94207 46/// /2711 10276 30061 40069 56017
AAXX 01184 94211 NIL
AAXX 01184 94212 46/// /1903 10250 20227 39598 40061
AAXX 01184 94216 46/// /0306 10276 20231 30023 40073
AAXX 01184 94236 NIL
AAXX 01184 94238 46/// /3108 10288 20193 39641 40054
AAXX 01184 94248 NIL
AAXX 01184 94255 46/// /3510 10290 20210 39808 40064
AAXX 01184 94268 46/// /0304 10244 20222 30076 40088
AAXX 01184 94287 46/// /1707 10235 20201 30094 40103
AAXX 01184 94290 NIL
AAXX 01184 94294 46/// /1406 10235 20182 30111 40121
AAXX 01184 94296 NIL
AAXX 01184 94298 46/// /1219 10254 30087 40093 56006
AAXX 01184 95641 NIL
AAXX 01184 88963 31230 20000 10036 21001 39876 49906 52001 71000 81601 333 56807 81706 90066 90080 92405 94075 95000
AAXX 01184 88968 11450 82905 10019 20006 39926 49942 51012 69901 75152 887// 333 56799 88710 90010 90093 90208 90295 90910 92426 92734 92851 94075 95085 96010
AAXX 01184 89034 31358 80000 11012 21031 39618 49934 54000 71022 886// 333 56299 88708 92426 92830
AAXX 01184 89053 31762 70000 10050 20020 39897 49910 57015 70142 87070 333 56000 87556 90317 92407 95090 96440 96410
AAXX 01184 89055 11208 81104 11008 21015 39672 49915 53003 69981 77174 886// 333 56399 88704 90061 90095 90261 90276 92730 92801 95190 96044
AAXX 01184 89066 32570 81103 10020 21052 39893 49902 53004 84607 333 56102 84730 88270 92407 94070 95000
AAXX 01184 94893 NIL
AAXX 01184 94907 46/// /0000 10187 20179 30118 40128
AAXX 01184 94910 46/// /0000 10181 20137 39898 40142
AAXX 01184 94926 46/// /0000 10138 20120 39503 40158
AAXX 01184 94935 46/// /3505 10176 20163 30113 40139
AAXX 01184 94954 46/// /0825 10177 20169 30020 40130
AAXX 01184 94956 46/// /0704 10156 20138 30103 40129
AAXX 01184 94975 46/// /0107 10167 20150 30110 40142
AAXX 01184 94983 NIL
AAXX 01184 94995 46/// /1206 10197 20078 30167 40175
AAXX 01184 94996 46/// /1403 10186 20161 30003 40131
AAXX 01184 94997 NIL
AAXX 01184 94998 46/// /2419 10039 20002 30081 40092
AAXX 01184 95111 46/// /3505 10253 20230 30043 40079
AAXX 01184 95205 46/// /2609 10280 20232 30067 40074
AAXX 01184 95322 NIL
AAXX 01184 95448 46/// /1404 10248 20074 39493 40036
AAXX 01184 95458 46/// /1612 10280 20062 39825 40079
AAXX 01184 95480 46/// /0609 10280 20078 30024 40081
AAXX 01184 95481 46/// /0905 10246 20097 30043 40086
AAXX 01184 95482 46/// /0516 10325 20105 30005 40059
AAXX 01184 95485 46/// /0808 10238 2//// 39904 40102
AAXX 01184 95492 46/// /0709 10258 20123 39960 40109
AAXX 01184 95527 46/// /0310 10197 20128 39900 40148
AAXX 01184 95634 46/// /1410 10184 20143 39709 40099
AAXX 01184 95637 46/// /1207 10159 20127 39796 40122
AAXX 01184 95646 46/// /0405 10217 20120 39898 40080
AAXX 01184 95666 NIL
AAXX 01184 95719 46/// /1506 10155 20087 39826 40149
AAXX 01184 95762 46/// /1506 10135 20107 39699 40145
AAXX 01184 95826 NIL
AAXX 01184 95839 46/// /0310 10207 20066 39939 40094
AAXX 01184 95864 NIL
AAXX 01184 95909 NIL
AAXX 01184 95954 NIL
AAXX 01184 95966 46/// /2504 10139 20130 39959 40157
AAXX 01184 96995 46/// /2801 10231 20227 39791 40085
AAXX 01184 96996 457// 11108 10272 20241 30091 40095 58015
AAXX 01183 91502 01465 83205 10257 20245 40060 5//// 60031 71688 879// 333 56799 60031 83814 81915 87628
AAXX 01183 91507 01465 70000 10262 20249 40066 55007 69921 76162 8297/ 333 56999 69927 82815 81916 87460
AAXX 01183 91520 11460 82707 10259 20249 40069 53002 69901 71622 889// 333 56699 83815 81916 85627
AAXX 01183 91541 NIL
AAXX 01184 89564 45/// /1317 11032 21079 39853 49873 58007
AAXX 01184 89570 46/// /1404 11071 21083 39238 51007
AAXX 01184 89571 45/// /2107 11012 21044 39877 49906 52007
AAXX 01184 89573 NIL
AAXX 01184 89610 NIL
AAXX 01184 89611 45/// /1204 10007 21043 39748 49800 51003
AAXX 01184 89614 NIL
AAXX 01184 89615 466// 80816 11064 21104 38914 51005
AAXX 01184 89807 NIL
AAXX 01184 89809 46/// /0803 11026 21040 39353 51003
AAXX 01184 89564 45/// /1317 11032 21079 39853 49873 58007
AAXX 01184 89570 46/// /1404 11071 21083 39238 51007
AAXX 01184 89571 45/// /2107 11012 21044 39877 49906 52007
AAXX 01184 89573 NIL
AAXX 01184 89610 NIL
AAXX 01184 89611 45/// /1204 10007 21043 39748 49800 51003
AAXX 01184 89614 NIL
AAXX 01184 89615 466// 80816 11064 21104 38914 51005
AAXX 01184 89807 NIL
AAXX 01184 89809 46/// /0803 11026 21040 39353 51003
AAXX 01184 94500 NIL
AAXX 01184 94510 46/// /0505 10197 20137 39773 40112
AAXX 01184 94515 46/// /0610 10189 20137 39787 40128
AAXX 01184 94552 46/// /1303 10126 20112 39691 40149
AAXX 01184 94578 46/// /2107 10166 20138 30149 40160
AAXX 01184 94584 46/// /1218 10218 20159 30030 40139
AAXX 01184 94601 46/// /1215 10176 20094 30123 40140
AAXX 01184 94610 46/// /1107 10193 20141 30084 40107
AAXX 01184 94637 46/// /1508 10192 20149 39676 40090
AAXX 01184 94638 46/// /2005 10169 20162 30090 40121
AAXX 01184 94642 NIL
AAXX 01184 94643 NIL
AAXX 01184 94647 46/// /0107 10219 20151 39956 40074
AAXX 01184 94651 46/// /3207 10231 20171 30016 40092
AAXX 01184 94653 46/// /2905 10218 20151 30066 40084
AAXX 01184 94659 46/// /0310 10276 20008 39886 40074
AAXX 01184 94672 46/// /0510 10299 20021 30056 40066
AAXX 01184 94691 46/// /0308 10244 20052 39789 40108
AAXX 01184 94693 46/// /0210 10238 20069 30045 40105
AAXX 01184 94700 NIL
AAXX 01184 94703 46/// /0406 10218 20124 30003 40125
AAXX 01184 94710 46/// /0804 10203 20080 39882 40128
AAXX 01184 94729 46/// /1803 10122 20108 39319 40150
AAXX 01184 94750 46/// /0000 10141 20138 30036 40158
AAXX 01184 94767 46/// /3205 10190 20158 30165 40171
AAXX 01184 94776 46/// /0000 10141 20132 30157 40167
AAXX 01184 94791 NIL
AAXX 01184 94802 46/// /1704 10125 20096 30056 40137
AAXX 01184 94804 46/// /0215 10214 20172 39998 40035
AAXX 01184 94807 NIL
AAXX 01184 94821 46/// /0306 10176 20101 39997 40078
AAXX 01184 94842 46/// /0817 10180 20167 30001 40098
AAXX 01184 94847 NIL
AAXX 01184 94850 46/// /0819 10164 20162 30064 40108
AAXX 01184 94865 46/// /0000 10172 20159 30089 40113
AAXX 01184 94866 46/// /0000 10179 20161 39976 40114
AAXX 01184 94875 46/// /0000 10193 20106 39994 40125
AAXX 01184 94893 NIL
AAXX 01184 94907 46/// /0000 10187 20179 30118 40128
AAXX 01184 94910 46/// /0000 10181 20137 39898 40142
AAXX 01184 94926 46/// /0000 10138 20120 39503 40158
AAXX 01184 94935 46/// /3505 10176 20163 30113 40139
AAXX 01184 94954 46/// /0825 10177 20169 30020 40130
AAXX 01184 94956 46/// /0704 10156 20138 30103 40129
AAXX 01184 94975 46/// /0107 10167 20150 30110 40142
AAXX 01184 94983 NIL
AAXX 01184 94995 46/// /1206 10197 20078 30167 40175
AAXX 01184 94996 46/// /1403 10186 20161 30003 40131
AAXX 01184 94997 NIL
AAXX 01184 94998 46/// /2419 10039 20002 30081 40092
AAXX 01184 95111 46/// /3505 10253 20230 30043 40079
AAXX 01184 95205 46/// /2609 10280 20232 30067 40074
AAXX 01184 95322 NIL
AAXX 01184 95448 46/// /1404 10248 20074 39493 40036
AAXX 01184 95458 46/// /1612 10280 20062 39825 40079
AAXX 01184 95480 46/// /0609 10280 20078 30024 40081
AAXX 01184 95481 46/// /0905 10246 20097 30043 40086
AAXX 01184 95482 46/// /0516 10325 20105 30005 40059
AAXX 01184 95485 46/// /0808 10238 2//// 39904 40102
AAXX 01184 95492 46/// /0709 10258 20123 39960 40109
AAXX 01184 95527 46/// /0310 10197 20128 39900 40148
AAXX 01184 95634 46/// /1410 10184 20143 39709 40099
AAXX 01184 95637 46/// /1207 10159 20127 39796 40122
AAXX 01184 95646 46/// /0405 10217 20120 39898 40080
AAXX 01184 95666 NIL
AAXX 01184 95719 46/// /1506 10155 20087 39826 40149
AAXX 01184 95762 46/// /1506 10135 20107 39699 40145
AAXX 01184 95826 NIL
AAXX 01184 95839 46/// /0310 10207 20066 39939 40094
AAXX 01184 95864 NIL
AAXX 01184 95909 NIL
AAXX 01184 95954 NIL
AAXX 01184 95966 46/// /2504 10139 20130 39959 40157
AAXX 01184 96995 46/// /2801 10231 20227 39791 40085
AAXX 01184 96996 457// 11108 10272 20241 30091 40095 58015
AAXX 01184 94102 46/// /2613 10294 20268 30068 40077
AAXX 01184 94103 NIL
AAXX 01184 94120 46/// /1809 10271 20236 30043 40083
AAXX 01184 94122 46/// /2809 10289 20255 30069 40077
AAXX 01184 94131 46/// /2807 10251 20233 39925 40076
AAXX 01184 94132 NIL
AAXX 01184 94147 NIL
AAXX 01184 94150 46/// /0000 10247 20237 30013 40072
AAXX 01184 94151 46/// /0207 10281 20235 30051 4////
AAXX 01184 94170 46/// /1501 10241 20237 30061 40083
AAXX 01184 94200 NIL
AAXX 01184 94203 46/// /2809 10288 20231 30063 40073
AAXX 01184 94206 46/// /0000 10255 2//// 39940 40068
AAXX 01184 94207 46/// /2711 10276 30061 40069 56017
AAXX 01184 94211 NIL
AAXX 01184 94212 46/// /1903 10250 20227 39598 40061
AAXX 01184 94216 46/// /0306 10276 20231 30023 40073
AAXX 01184 94236 NIL
AAXX 01184 94238 46/// /3108 10288 20193 39641 40054
AAXX 01184 94248 NIL
AAXX 01184 94255 46/// /3510 10290 20210 39808 40064
AAXX 01184 94268 46/// /0304 10244 20222 30076 40088
AAXX 01184 94287 46/// /1707 10235 20201 30094 40103
AAXX 01184 94290 NIL
AAXX 01184 94294 46/// /1406 10235 20182 30111 40121
AAXX 01184 94296 NIL
AAXX 01184 94298 46/// /1219 10254 30087 40093 56006
AAXX 01184 95641 NIL
BBXX VRAE3 01184 99073 31483 41696 83219 10257 20252 40076 54000 713// 88/// 22234 00310 2//// 3//// 4//// 5//// 80250
BBXX 3ECI3 01184 99448 31719 41597 62025 10135 20096 40068 54000 70122 86434 22253 00140 20306 320// 40805 80115
BBXX VNSZ 01174 99383 31446 46/// /2706 10187 20176 30092 40118 57004 22285 85180
BBXX VNSZ 01164 99387 31449 46/// /0915 10189 20177 30094 40120 57032 22276 04190 85181
BBXX VROB 01164 99196 31529 46/// /1219 10251 20159 30079 40104 57023 22283 04266 85191
BBXX C6FS9 01164 99338 31518 46/// /0617 10214 20162 30137 40173 57006 22213 04224 85180
BBXX 9HA2479 01164 99210 31689 46/// /1331 10258 20230 30038 40067 57017 22214 04270 85237
BBXX VNAH 01164 99383 31416 46/// /0802 10190 20163 30069 40092 57024 22200 04210 85172
BBXX FHZI 01164 99562 31459 46/// /3323 10033 20025 30027 40038 57005 22283 04021 85030
BBXX 9HA2479 01174 99208 31691 46/// /1228 10262 20233 30041 40070 57010 22214 04274 85241
BBXX C6FS9 01174 99337 31519 46/// /0617 10215 20154 30136 40172 57003 22213 04225 85176
BBXX VROB 01174 99194 31528 46/// /1117 10249 20154 30075 40100 57018 22283 04271 85187
BBXX VNAH 01174 99383 31416 46/// /1104 10189 20155 30064 40087 57020 22200 04210 85168
BBXX FHZI 01174 99560 31460 46/// /3222 10034 20027 30030 40041 54000 22283 04021 85031
BBXX A8KO3 01180 99174 31142 41798 62108 10250 20222 40100 54000 70211 854// 22284 00200 20303 80230
BBXX VNSZ 01184 99383 31449 46/// /0215 10209 20194 30092 40118 57013 22285 04214 85199
BBXX C6FS9 01184 99335 31521 46/// /0618 10215 20161 30136 40172 57001 22213 04227 85180
BBXX 9HA2479 01184 99205 31694 46/// /1128 10262 20233 30046 40075 52002 22214 04275 85241
BBXX V2BE4 01181 99123 31566 41397 63207 10270 20256 40049 54000 76166 8672/ 22233 04290 20604 80260
BBXX VRAE2 01184 99144 31570 41/98 81912 10268 20248 40051 58002 70022 8//// 22273 04300 2//// 80254
AAXX 01184 94299 46/// /1520 10264 20211 30075 40085
AAXX 01184 94300 46/// /1813 10224 20184 30076 40086
AAXX 01184 94302 46/// /2009 10215 20174 30076 40082
AAXX 01184 94312 46/// /3105 10240 20219 30057 40066
AAXX 01184 94313 NIL
AAXX 01184 94317 46/// /2508 10283 20032 39469 40036
AAXX 01184 94319 46/// /3408 10274 20189 39725 40046
AAXX 01184 94324 NIL
AAXX 01184 94326 46/// /3622 10313 20090 39449 40046
AAXX 01184 94327 46/// /3404 10289 20140 39688 40050
AAXX 01184 94332 46/// /0000 10228 20192 39687 40062
AAXX 01184 94333 NIL
AAXX 01184 94341 46/// /0508 1//// 2//// 39856 40085
AAXX 01184 94346 46/// /0407 10218 20123 39880 40095
AAXX 01184 94363 46/// /1203 10189 20156 39923 40136
AAXX 01184 94366 NIL
AAXX 01184 94367 46/// /1411 10246 20177 30080 40122
AAXX 01184 94374 46/// /1305 10195 20154 3//// 4////
AAXX 01184 94388 46/// /1314 10235 20159 30128 40133
AAXX 01184 94393 46/// /1420 10249 30086 40098 55003
AAXX 01184 94394 46/// /1420 10235 30108 40116 56004
AAXX 01184 94403 46/// /1813 10222 20185 30048 40088
AAXX 01184 94429 46/// /2306 10239 20162 39605 40052
AAXX 01184 94430 46/// /1705 10247 20074 39477 40040
AAXX 01184 94449 46/// /1207 10252 20149 39550 40062
AAXX 01184 94451 NIL
AAXX 01184 94461 46/// /0806 10201 20182 39414 40063
AAXX 01184 94462 46/// /2206 10231 20180 39547 40085
AAXX 01184 94477 NIL
AAXX 01184 94488 NIL
AAXX 01184 91375 NIL
AAXX 01184 91519 NIL
AAXX 01184 91531 NIL
AAXX 01184 91532 45/// /0505 10262 20235 30065 40073 52005
AAXX 01184 91559 NIL
AAXX 01184 91611 NIL
AAXX 01184 91642 NIL
AAXX 01184 91679 NIL
AAXX 01184 91689 NIL
AAXX 01184 91756 NIL
AAXX 01184 91844 NIL
AAXX 01184 92036 NIL
AAXX 01184 93713 NIL
AAXX 01184 41024 42960 03308 10242 20200 30132 40151 333 10315 58019 55083
AAXX 01184 41030 42960 00000 10260 20200 39871 40143 333 10342 58011 55///
AAXX 01184 41036 42960 02406 10182 20130 38591 48540 333 10284 58007 55100 555 0 4410 50165
AAXX 01184 41055 42960 00000 10192 20050 38389 48536 333 10275 59003 55098 555 04410 50145
AAXX 01184 41061 42960 01106 10195 20060 39449 40153 333 10290 59027 55095
AAXX 01184 41084 42960 00000 10214 20030 38879 48536 333 10320 59005 55102 555 04410 50134
AAXX 01184 41112 42960 02005 10160 20000 37977 48542 333 10245 59008 55100 555 04410 50160
AAXX 01184 41114 42960 02104 10164 20060 38011 48541 333 10264 59007 55105 555 04410 50159
AAXX 01184 41128 42960 00000 10200 21030 38834 48542 333 10320 59023 55090 555 04410 50147
AAXX 01184 41136 42960 00608 10209 21020 39340 40153 333 10288 59031 55097
AAXX 01184 41140 42960 01003 10263 20220 30129 40133 333 10300 59017 55///
AAXX 01184 40356 42960 00000 10060 20030 39190 48483 333 10120 58011 55080 555 04410 50192
AAXX 01184 40357 42960 03103 10093 20070 39531 40185 333 10160 58025 55///
AAXX 01184 40360 42960 02204 10106 20020 39585 40190 333 10168 58014 55085
AAXX 01184 40361 42960 03304 10112 21020 39399 40174 333 10195 58022 55///
AAXX 01184 40362 41930 03504 10105 20000 39649 40170 70600 333 10183 58033 55///
AAXX 01184 40373 42660 33508 10178 21010 39734 40150 83500 333 10254 59012 55/// 83635
AAXX 01184 40375 42960 02605 10120 21030 39290 40169 333 10172 58022 55096
AAXX 01184 40377 42960 00410 10174 20100 39677 40156 333 10248 59004 55///
AAXX 01184 40394 42960 00804 10158 20090 39031 48512 333 10230 58007 55088 555 04410 50150
AAXX 01184 40400 42960 03408 10184 20130 30158 40186 333 10250 58032 55092
AAXX 01184 40401 42960 22605 10180 20020 39461 40159 80001 333 10260 58010 82070
AAXX 01184 40405 42960 00807 10200 20120 39403 40134 333 10280 59006 55///
AAXX 01184 40416 42960 61510 10200 20130 30120 40140 86030 333 10230 59052 55/// 86358
AAXX 01184 40417 42960 51411 10186 20110 30136 40151 85030 333 10246 59055 55/// 85360
AAXX 01184 40420 42960 01808 10163 20070 39950 40158 333 10252 59045 55///
AAXX 01184 40430 42960 02606 10242 20140 39429 40136 333 10290 58004 55080
AAXX 01184 40435 NIL
AAXX 01184 40437 42960 01503 10178 20040 39453 40149 333 10266 59038 55090
AAXX 01184 40439 42660 32608 10215 20130 30139 40158 82530 333 10282 58018 55020 82640
AAXX 01184 94310 46/// /3015 10263 20214 30055 40066 57011
AAXX 01184 95283 46/// /1208 10264 20193 30088 40095
AAXX 01184 95288 46/// /1417 10269 30070 40085 56012
AAXX 01184 95675 46/// /0512
AAXX 01184 95872 46/// /3604
AAXX 01184 95961 35/// /0305 10152 30085 40126 57013
BBXX VRAE3 01184 99073 31483 41696 83219 10257 20252 40076 54000 713// 88/// 22234 00310 2//// 3//// 4//// 5//// 80250
BBXX 3ECI3 01184 99448 31719 41597 62025 10135 20096 40068 54000 70122 86434 22253 00140 20306 320// 40805 80115
BBXX VNSZ 01174 99383 31446 46/// /2706 10187 20176 30092 40118 57004 22285 85180
BBXX VNSZ 01164 99387 31449 46/// /0915 10189 20177 30094 40120 57032 22276 04190 85181
BBXX VROB 01164 99196 31529 46/// /1219 10251 20159 30079 40104 57023 22283 04266 85191
BBXX C6FS9 01164 99338 31518 46/// /0617 10214 20162 30137 40173 57006 22213 04224 85180
BBXX 9HA2479 01164 99210 31689 46/// /1331 10258 20230 30038 40067 57017 22214 04270 85237
BBXX VNAH 01164 99383 31416 46/// /0802 10190 20163 30069 40092 57024 22200 04210 85172
BBXX FHZI 01164 99562 31459 46/// /3323 10033 20025 30027 40038 57005 22283 04021 85030
BBXX 9HA2479 01174 99208 31691 46/// /1228 10262 20233 30041 40070 57010 22214 04274 85241
BBXX C6FS9 01174 99337 31519 46/// /0617 10215 20154 30136 40172 57003 22213 04225 85176
BBXX VROB 01174 99194 31528 46/// /1117 10249 20154 30075 40100 57018 22283 04271 85187
BBXX VNAH 01174 99383 31416 46/// /1104 10189 20155 30064 40087 57020 22200 04210 85168
BBXX FHZI 01174 99560 31460 46/// /3222 10034 20027 30030 40041 54000 22283 04021 85031
BBXX A8KO3 01180 99174 31142 41798 62108 10250 20222 40100 54000 70211 854// 22284 00200 20303 80230
BBXX VNSZ 01184 99383 31449 46/// /0215 10209 20194 30092 40118 57013 22285 04214 85199
BBXX C6FS9 01184 99335 31521 46/// /0618 10215 20161 30136 40172 57001 22213 04227 85180
BBXX 9HA2479 01184 99205 31694 46/// /1128 10262 20233 30046 40075 52002 22214 04275 85241
BBXX V2BE4 01181 99123 31566 41397 63207 10270 20256 40049 54000 76166 8672/ 22233 04290 20604 80260
BBXX VRAE2 01184 99144 31570 41/98 81912 10268 20248 40051 58002 70022 8//// 22273 04300 2//// 80254
AAXX 01181 38141 32598 80000 11012 21063 30011 40173 57004 885// 333 11001
AAXX 01181 38149 42598 80000 11003 21059 30095 40173 57004 885// 333 10042
AAXX 01181 38178 429// 00000 11061 21106 39905 40303 57001 333 11038
AAXX 01181 38262 329// 80000 11022 21085 30096 40180 57007 8803/ 333 10044
AAXX 01181 38264 42998 71402 11004 21042 30078 40174 57009 87030 333 10043
AAXX 01181 38396 42997 80903 11011 21050 30050 40178 57010 86071 333 10047
AAXX 01181 38403 429// 60000 11030 21122 30060 40183 57012 80001 333 10024
AAXX 01181 38413 429// 00903 11024 21087 39890 40290 57024 333 10026
AAXX 01181 38457 32997 00701 11040 21070 39603 40213 57013 333 10060
AAXX 01181 38462 429// 00000 11036 21106 38752 48487 54000 333 10046
AAXX 01181 38565 329// 00000 11019 21056 39597 40198 57019 333 10062
AAXX 01181 38579 329// 00401 11072 21081 39771 40212 57016 333 10021
AAXX 01181 38583 31/92 93601 11061 21061 39880 40218 57014 74944 333 11023
AAXX 01181 38611 NIL
AAXX 01181 38618 31/// 90000 11035 21040 39513 40228 57004 74744 333 10011
AAXX 01181 38683 42997 10702 11014 21043 39897 40182 57007 8103/ 333 10065
AAXX 01181 38696 329// 00901 10004 21084 39321 40194 57012 333 10074
AAXX 01181 38812 42997 00802 11005 21026 39710 40175 57010 333 10075
AAXX 01181 38927 32959 00701 11005 21011 39829 40216 56001 71000 333 10094
AAXX 01184 41241 NIL
AAXX 01184 41242 36/// /0000 10166 20109 30168 40192 333 0E019 10251 59030
AAXX 01184 41244 NIL
AAXX 01184 41246 32960 02204 10208 20135 30177 40182 333 10251 59023
AAXX 01184 41251 36/// /0605 10138 21097 38056 49922 333 0E013 10173 58011
AAXX 01184 41252 NIL
AAXX 01184 41253 36/// /0000 10170 20119 39808 40192 333 0E019 10255 59024
AAXX 01184 41254 36/// /9902 10129 21096 38013 48018 333 0E009 10178 58001
AAXX 01184 41255 36/// /2704 10209 20065 39653 40208 333 0E019 10252 59010
AAXX 01184 41256 32960 02003 10201 20119 30170 40180 333 10247 59026
AAXX 01184 41257 36/// /2904 10183 20118 39706 40196 333 0E017 10241 59018
AAXX 01184 41258 NIL
AAXX 01184 41259 NIL
AAXX 01184 41262 NIL
AAXX 01184 41263 NIL
AAXX 01184 41264 NIL
AAXX 01184 41265 NIL
AAXX 01184 41267 35/// /2804 10211 20102 30171 40186 333 0E021 10248 59021
AAXX 01184 41268 NIL
AAXX 01184 41270 36/70 /0204 10213 20127 30131 40143 333 0E021 10252 59019
AAXX 01184 41275 NIL
AAXX 01184 41287 36/// /1005 10182 20117 30142 40211 333 0E021 10275 59010
AAXX 01184 41288 NIL
AAXX 01184 41290 NIL
AAXX 01184 41295 36/// /1004 10175 20124 30000 40182 333 0E020 10263 59012
AAXX 01184 41304 NIL
AAXX 01184 41312 36/// /2405 10235 20144 30133 40172 333 0E/// 10280 59016
AAXX 01184 41314 NIL
AAXX 01184 41315 NIL
AAXX 01184 41316 32960 00603 10214 20109 30149 40175 333 10288 59017
AAXX 01184 40550 37/33 /1701 10126 20111 40153 52016 71011 333 55300 00000 10193 20000 30000 41139 51332 60000 55407 40000 90069 90401 91001 91117 91205 91303
AAXX 01184 40551 46/// /2106 10145 20017 333 90400 91007 91111 91209 91303
AAXX 01184 40552 47/50 /2607 10155 20100 40151 52017 71011 333 55300 90069 90400 91009 91111 91209 91305
AAXX 01184 40553 37/38 /1606 10155 20138 40149 52014 71011 333 55300 90069 90401 91007 91125 91221 91313
AAXX 01184 40568 36/// /1408 10160 20146 333 90400 91009 91121 91217 91313
AAXX 01184 40569 NIL
AAXX 01184 40570 35/61 /3209 10150 20025 40161 51020 333 55300 90069 90400 91011 91115 91211 91309
AAXX 01184 40571 NIL
AAXX 01184 40572 NIL
AAXX 01184 40573 36/// /3009 10148 20014 333 90400 91009 91113 91211 91309
AAXX 01184 40580 36/// /1701 10174 20121 333 553// 00000 10149 20000 30000 41269 51420 60000 55407 40000 90400 91003 91107 91201 91301
AAXX 01184 40581 36/// /2003 10192 20142 333 90400 91005 91113 91203 91301
AAXX 01184 40582 41835 52103 10170 20114 40149 52018 70622 85030 333 55300 00000 10132 20000 30000 41304 51437 60000 55407 40000 85358 90401 91003 91111 91209 91305
AAXX 01184 40583 NIL
AAXX 01184 40585 36/// /2013 10171 20149 222// 1//// 3//// 4//// 70/// 333 90400 91013 91119 91213 91311
AAXX 01184 40586 36/// /2602 10170 20102 333 90400 91003 91107 91205 91301
AAXX 01184 40587 36/// /2906 10159 20102 333 553// 00000 10177 20000 30000 41205 51383 60000 55407 40000 90401 91007 91109 91205 91303
AAXX 01184 40588 47/50 /1405 10171 20146 40148 51015 71011 333 55300 90069 90400 91007 91125 91213 91309
AAXX 01184 40589 NIL
AAXX 01184 40590 46/// /3109 10160 21003 333 90400 91011 91111 91209 91305
AAXX 01184 40591 NIL
AAXX 01184 40592 37/56 /1001 10173 20040 40150 51018 71010 333 55300 00000 10091 20000 30000 41326 51417 60000 55407 40000 90069 90401 91001 91113 91209 91303
AAXX 01184 40593 36/// /1807 10172 20152 333 90400 91007 91117 91215 91309
AAXX 01184 40594 36/// /1903 10185 20143 333 90400 91005 91117 91213 91305
AAXX 01184 40596 46/// /1514 10202 20167 333 90400 91017 91121 91217 91315
AAXX 01181 37395 32997 70905 10104 21027 39990 40129 57002 87030 333 10154
AAXX 01181 37409 32597 60907 10013 21042 38750 48460 53025 86540 333 11028 95070
AAXX 01181 37432 32697 30000 11009 21051 38919 48456 57001 83500 333 10064
AAXX 01181 37514 32696 50000 10002 21047 39025 40202 85500 333 10092
AAXX 01181 37545 329// 20000 10022 21018 39637 40159 52008 82001 333 10125
AAXX 01181 37621 329// 02901 10047 21041 39513 40156 54000 333 10125
AAXX 01181 37484 NIL
AAXX 01184 61974 12475 70000 10260 20231 40120 60002 82806 333 10316 55112 59007 82818 86275
AAXX 01184 61986 12570 11403 10274 20240 40118 60002 81200 333 10320 59006 81820
AAXX 01184 61988 12570 11306 10256 20221 40126 60002 81200 333 10312 55104 59013 81820 91119
AAXX 01184 61989 NIL
AAXX 01184 61990 12468 33402 10256 20223 40129 60002 83800 333 10299 55115 59008 83818
AAXX 01184 61995 12470 11202 10215 20207 39653 60072 81200 333 10286 55045 59009 81818
AAXX 01184 06670 02481 62305 10094 20068 39684 40193 52002 69932 84501 333 10118 31/// 55300 20000 60005 81714 83621 90766 93100 91115 91210
AAXX 01184 06700 01680 53101 10080 20069 39717 40212 57001 69922 70152 85501 333 10110 31/// 55300 20004 60005 81635 84657 90766 93100 91109 91206
AAXX 01184 06680 01/01 92517 11021 21024 37519 47060 52004 60102 74742 333 11001 43390 55300 20000 60005 90766 93100 91152 91237
AAXX 01184 06990 31450 81409 10069 20034 39659 40210 52001 71022 886// 333 10088 42/// 55300 20000 88719 91116 91209
AAXX 01184 06760 31962 20000 10043 20010 39783 40241 53018 71011 80001 333 10065 31/// 55300 20000 82069 90766 93100 91104 91203
AAXX 01184 06720 32965 30805 10034 20025 39651 40239 50003 83010 333 10057 31/// 55300 20000 83459 90766 93100 91107 91205
AAXX 01184 06610 32469 82103 10089 20070 39621 40204 55001 87501 333 10114 31/// 55300 20000 81710 87656 90766 93100 91114 91209
AAXX 01181 13378 32998 00602 11068 21076 38289 48507 52016 333 11026 4/020
AAXX 01181 13278 32997 02301 10008 21029 30026 40260 53011 333 10065
AAXX 01181 13397 32998 01201 11036 21053 39714 40279 52017 333 10049
BBXX A8IP3 01183 99445 70133 41497 42929 10120 20079 40180 52040 70100 822// 22254 04140 20709 327// 41308 80098
AAXX 01184 68040 42560 41503 10276 20166 48499 53019 84400 333 10337 30126
BBXX DILE 01183 99420 70122 41298 53032 10141 20113 40221 52020 70165 84790 22254 04150 21207 327// 41808 80125
BBXX A8PG7 01183 99095 51201 41598 71013 10250 20199 40160 54000 70322 8644/ 22214 29901 309// 41004 5//// 80215
BBXX C6KD5 01183 99446 70094 41598 72318 10120 20105 40168 52015 70281 86464 22254 02136 20403 323// 40907 5//// 80112
AAXX 01181 50468 NIL
AAXX 01181 50953 NIL
AAXX 01181 51076 NIL
AAXX 01181 51243 NIL
AAXX 01181 51288 32980 00904 11157 21244 38426 57002 333 05400 11102
AAXX 01181 51463 NIL
AAXX 01181 51573 NIL
AAXX 01181 51709 NIL
AAXX 01181 52533 NIL
AAXX 01181 52652 NIL
AAXX 01181 52866 NIL
AAXX 01181 52983 NIL
AAXX 01181 53463 NIL
AAXX 01181 53513 NIL
AAXX 01181 53588 NIL
AAXX 01181 53772 NIL
AAXX 01181 53915 NIL
AAXX 01181 54218 NIL
AAXX 01181 54337 NIL
AAXX 01181 54342 NIL
AAXX 01181 54401 NIL
AAXX 01181 54471 NIL
AAXX 01181 54497 NIL
AAXX 01181 54511 NIL
AAXX 01181 54823 NIL
AAXX 01181 56080 NIL
AAXX 01181 56096 NIL
AAXX 01181 57083 NIL
AAXX 01181 48921 NIL
AAXX 01181 48924 NIL
AAXX 01181 48925 NIL
AAXX 01181 48926 NIL
AAXX 01181 48927 NIL
AAXX 01181 48928 NIL
AAXX 01181 48930 31210 30000 10180 20172 39817 40175 52009 71044 83600 333 59006
AAXX 01181 48935 NIL
AAXX 01181 48938 NIL
AAXX 01181 48940 31920 03601 10208 20183 39944 40143 57008 71044 333 59007
AAXX 01181 48941 NIL
AAXX 01181 48944 NIL
AAXX 01181 48945 NIL
AAXX 01181 48946 NIL
AAXX 01181 48947 NIL
AAXX 01181 48948 NIL
AAXX 01181 48952 NIL
AAXX 01181 48953 NIL
AAXX 01181 48955 31758 33601 10228 20175 30017 40135 57002 71044 82530 333 59006
AAXX 01181 48957 NIL
BBXX 44139 01181 99442 70571 46/// /2816 10069 49896 52003 22200 00045 10808 70042 333 91219
AAXX 01181 78268 12560 41005 10274 20244 30177 40196 57020 60004 84200 333 84820
BBXX 44139 01181 99442 70571 46/// /2816 10069 49896 52003 22200 00045 10808 70042 333 91219
AAXX 01181 78268 12560 41005 10274 20244 30177 40196 57020 60004 84200 333 84820
AAXX 01181 01441 16/// /1804 10005 21017 38939 49909 57001 60072 333 10017 91112
AAXX 01181 01488 16/// /0000 10002 21003 60062 333 10004 4/019 91103
AAXX 01181 01023 11589 71209 10003 21084 39862 49957 56006 60002 70222 81578 333 10004 91115
AAXX 01181 34523 11494 82801 10003 20000 30035 40112 58011 60052 77372 8772/ 333 10028
AAXX 01183 91802 NIL
AAXX 01183 91809 NIL
AAXX 01183 91831 36/// /0804 10261 20235 40130 57004
AAXX 01183 91841 NIL
AAXX 01183 91843 31499 22901 10263 20234 40119 52014 60001 70100 82200 333 567// 82816
AAXX 01183 91848 NIL
BBXX 46035 01181 99571 71778 46/// /0410 1//// 40063 52009 91750 22200 10907 20805 300// 40905 70035 333 91213 555 11102 22109 31708 40415 61749 035102 036114 032109 028104 025102 020104 80513 91708
BBXX 4XFV 01183 99381 71639 41197 82440 10155 20135 49900 56010 70252 88722 22224 0//// 20507 318// 40714 80145
BBXX DDAC2 01180 99512 71525 41397 83412 11010 21044 40010 52020 7//22 86770 22273 04056 20606 309// 40908 5//// 81022
BBXX DFGX2 01183 99546 71765 41/98 33419 11011 21056 40020 55000 70211 832// 22264 00030 2//// 82026
BBXX NWS0003 01184 99539 71665 43/// /0000 11014 21029 40010 5//// 7//// 8//// 222// 0//// 2//// 3//// 4//// 5//// 6//// 8//// ICE /////
BBXX C6XC2 01184 99362 11247 41497 83419 11010 21040 40280 54000 70222 8897/ 22212 00090 2//// 3//// 4//// 5//// 6//// 80020 ICE /////
BBXX DEHY 01184 99321 11254 41/98 63526 10085 21014 40260 54000 70222 8//// 22214 00150 2//// 80043
BBXX DGZR2 01183 99339 11281 41/97 53329 10035 21015 40220 70211 8//// 22213 00160 20304 80015
BBXX LAJF7 01184 99324 11364 41597 72817 10170 20100 40196 57035 70222 8786/ 22213 00216 2//// 3//// 4//// 5//// 6//// 80130 ICE /////
BBXX VREX8 01184 99448 11294 41796 61719 10040 21130 40210 54000 71911 86478 22214 0//// 20205 31112 40205 50204 6//// 81010 ICE /////
AAXX 01181 26045 27/80 01703 11041 21042 30131 40133 50000 70000 80/// 333 11011 21048 60007 80/// 555 1/101 21048 3/101 51025
AAXX 01181 26247 27/61 /1401 11042 21043 30057 40139 57002 70011 333 11008 21043 60007 555 1/103 21043 3/103 51026
AAXX 01181 26115 27682 71604 10023 21005 30071 40079 56013 70000 83/// 333 10029 21036 60007 83/37 91009 91111 555 1/100 21036 3/102 50008
AAXX 01181 26058 27574 81200 11025 21033 30138 40146 51007 70000 88/// 333 11021 21036 60007 88/21 555 1/101 21036 3/102 51024 52108
AAXX 01184 81225 11558 60707 10300 20228 40116 69901 71511 83932 333 56299 59005 81925 83830 5358
AAXX 01184 81200 12570 51605 10300 20219 40117 60001 84852 333 56229 58001 83830 83358
AAXX 01184 81202 12570 61110 10284 20226 40123 69901 70182 85832 333 56299 59008 1820 5630
AAXX 01184 81209 NIL
AAXX 01184 81251 NIL
AAXX 01181 48845 32698 80000 10169 20159 30187 40194 58005 885// 333 59018 88696
AAXX 01181 48840 32498 80501 10164 20135 30185 40191 57004 888// 333 59025 83894 88696
AAXX 01184 91753 04586 /1002 10257 20236 30052 40084 53011 60002 700// 333 10288 20243 60007 90710 91106 555 60005
AAXX 01184 91754 01480 10402 10265 20236 30040 40081 53008 60001 702// 81200 333 60007 81818 555 60005
AAXX 01181 01367 114// 80000 11059 21070 39496 49946 57005 69992 70322 887// 333 11059 91100
AAXX 01184 71309 16/// /1403 11036 21052 39959 49970 58042 60001 333 11036 21105 70000
AAXX 01184 71311 16/// /3515 10001 21014 30096 40121 51014 60001 333 10025 20000 70124
AAXX 01184 71317 16/// /3516 10011 21012 30046 40092 51014 60001 333 10076 20010 70096
AAXX 01184 71320 16/// /3112 11364 21400 30107 40107 51008 60001 333 11352 21370 70000
AAXX 01184 71920 16/// /3115 10029 20017 30130 40136 53005 60001 333 10074 20029 70149
AAXX 01184 71631 17/// /1810 10031 20023 39473 49965 58051 60051 7//4/ 333 10032 21001 70047
AAXX 01184 71713 16/// /1405 11028 21047 60001 333 11028 21065 70000
AAXX 01184 71721 17/// /1408 11007 21019 39805 40051 58073 60011 7//4/ 333 11007 21037 70020
AAXX 01184 71724 16/// /0506 11020 21029 30114 40122 58043 60001 333 11020 21034 70000
AAXX 01184 71736 46/// ///// 11017 21115 6///1 333 11017 21131 7//// 555 10010
AAXX 01184 71742 46/// /0512 11008 21011 39847 40034 56035 6///1 333 11007 21043 7////
AAXX 01184 71744 17/// /3405 10000 21031 30096 40137 51005 69931 7//4/ 333 10006 21024 70097
AAXX 01184 71746 17/// /2113 10078 20047 39739 49955 57046 60021 7//4/ 333 10078 20021 70018
AAXX 01184 71837 16/// ///// 11023 60001 333 11023 21103 70003
AAXX 01184 71839 16/// ///// 11021 60001 333 11021 21124 70000
AAXX 01184 71954 46/// /3309 11103 21127 39898 40290 51024 6///1 333 11089 21126 7////
AAXX 01184 71956 17/// /2307 10026 20026 39698 49925 56065 60071 7//4/ 333 10038 21042 70072
AAXX 01184 71959 17/// ///// 10029 20023 60011 7//4/ 333 10078 20014 70222
AAXX 01184 71970 16/// /2610 11120 21166 39736 40349 51016 60001 333 11089 21181 70000
AAXX 01184 71977 46/// /3004 11317 21317 39447 40209 58008 6///1 333 11317 21358 7////
AAXX 01184 71978 46/// /2108 11281 21310 39854 40184 56001 6///1 333 11246 21350 7////
AAXX 01184 71989 16/// /0501 11377 21416 30311 40329 51007 60001 333 11334 21382 7////
AAXX 01184 71758 17/// /3416 10027 20027 39933 40009 53032 60061 7//4/ 333 10055 21005 70165
AAXX 01184 71807 17/// /0519 10024 20019 39924 49942 56046 60121 7//4/ 333 10027 21011 70167
AAXX 01184 71250 17/// /0614 10010 20005 39818 49953 56070 60201 7//4/ 333 10010 21025 70236
AAXX 01184 71288 16/// /3008 11361 21399 30270 40297 52008 60001 333 11354 21389 70000
AAXX 01184 71294 16/// /1907 10015 20015 39615 40015 56073 60001 333 10015 21053 70000
AAXX 01184 71299 46/// /1406 11021 21025 39679 49950 58043 6///1 333 11021 21091 7////
AAXX 01184 71667 16/// /3014 11036 21075 39797 40043 50003 60001 333 11004 21037 70043 555 10060
AAXX 01184 71669 16/// /2603 11039 21180 38660 40347 53005 60001 333 11039 21170 70000
AAXX 01184 71015 17/// ///// 11063 69931 7//4/ 333 11063 21111 70006
AAXX 01184 71017 16/// /2712 11327 21361 30267 40283 53014 60001 333 11321 21383 7////
AAXX 01184 71019 46/// /3202 11045 21047 39840 40146 58015 6///1 333 11043 21059 7////
AAXX 01184 71020 46/// /0000 11296 21328 39999 40274 50007 6///1 333 11241 21302 7////
AAXX 01184 71021 46/// /0000 11309 21345 39923 40305 50003 6///1 333 11304 21331 7//// 555 10010
AAXX 01184 71026 16/// /0000 11106 21133 39496 40398 51004 60001 333 21174 7////
AAXX 01184 71063 16/// /0906 10000 21005 39962 40061 58076 60001 333 10000 21038 70000
AAXX 01184 71431 17/// /1010 10044 20032 39913 40008 56075 60011 7//4/ 333 10046 20008 70010
AAXX 01184 71472 17/// /1521 10078 20037 60021 7//4/ 333 10087 20022 70030
AAXX 01184 71402 46/// /0716 11007 21015 39930 40045 56041 6///1 333 11007 21043 7////
AAXX 01184 71427 16/// /2804 11028 21054 30138 40146 56014 60001 333 11028 21070 70030
AAXX 01184 71434 16/// /3310 11091 21106 39937 40003 50001 60001 333 11084 70023 555 10030
AAXX 01184 71442 16/// /3316 11086 21122 39929 40252 51036 60001 333 11030 21106 70000
AAXX 01184 71446 16/// /2405 11087 21148 39364 40388 50013 60001 333 11080 21139 70000
AAXX 01184 71449 16/// /3120 11087 21131 39789 40201 51035 60001 333 11023 21087 70006
AAXX 01184 71551 16/// /2608 11107 21155 39692 40389 50017 60001 333 11078 21154 70000
AAXX 01184 71553 16/// /3118 11095 21116 60001 333 11054 21101 70000
AAXX 01184 71556 16/// /3010 11083 21142 39732 40361 50019 60001 333 11051 21108 70000
AAXX 01184 71564 16/// /3316 11069 21117 39886 40265 51037 60001 333 11014 21075 70000
AAXX 01184 71571 16/// /1416 11079 21227 39040 40274 58015 60001 333 11079 21120 70000
AAXX 01184 71578 16/// /0405 11027 21042 60001 333 11026 21046 70000
AAXX 01184 71579 16/// /3313 11076 21129 39949 40240 51032 60001 333 11015 21089 70000
AAXX 01184 71585 16/// /2902 11149 21168 39854 40346 51021 60001 333 21183 7////
AAXX 01184 71599 16/// /3302 10004 20004 39931 40133 53007 60001 333 10065 20004 70126
AAXX 01184 71356 16/// /3420 11340 21379 30198 40270 53021 60001 333 11304 21344 70000
AAXX 01184 71361 16/// /1803 11244 21272 30104 40327 53028 60001 333 11218 21259 70000
AAXX 01184 71362 17/// /2401 11189 21210 30046 40317 53025 60011 7//4/ 333 11183 21255 70010
AAXX 01184 71365 16/// /1701 11347 21381 30072 40306 51009 60001 333 11346 21372 70000
AAXX 01184 71373 16/// /1603 10024 20000 60001 333 10024 21029 70000
AAXX 01184 71378 16/// /1706 11038 21063 39902 40114 58041 60001 333 11038 21100 70010
AAXX 01184 71389 46/// /0903 11026 21041 6///1 333 11025 21042 7////
AAXX 01184 71393 16/// ///// 11094 21106 39026 40361 58003 60001 333 11094 21151 70000
AAXX 01184 71935 11274 71505 11245 21283 30113 40336 52027 69901 72872 84500 333 11222 21260 47028 79999 90942
AAXX 01184 71455 46/// /2710 11089 21142 39551 40384 51018 6///1 333 11078 21131 7////
AAXX 01184 71459 16/// /2206 11078 21134 39545 40389 51008 60001 333 11065 21139 70000
AAXX 01184 71465 46/// /2220 10065 20036 39776 49989 56030 6///1 333 10078 20032 7////
AAXX 01184 71470 16/// /2503 11292 21323 39643 40316 51020 60001 333 11292 21345 70000
AAXX 01184 71476 16/// /0632 30038 58045 60001 333 7////
AAXX 01184 71480 16/// /1205 11313 21348 30118 40250 58002 60001 333 11304 21376 70000
AAXX 01184 71484 16/// /1519 10043 20032 30015 40033 56044 60001 333 10062 20010 70000
AAXX 01184 71489 16/// /2709 11110 21171 39538 40382 51011 60001 333 11088 21191 70000
AAXX 01184 71492 46/// ///04 11287 21316 39507 40244 53011 6///1 333 11276 21294 7////
AAXX 01184 71075 16/// /2903 11152 21169 39658 40290 51020 60001 333 11136 21157 70000
AAXX 01184 71087 46/// /0801 11226 21253 30099 40318 51019 6///1 333 11224 21255 7////
AAXX 01184 71851 17/// /3221 11071 21097 39922 40266 51030 60011 7//4/ 333 11011 21080 70012
AAXX 01184 71885 46/// ///// 11031 6///1 333 11027 21146 7////
AAXX 01184 71886 16/// /3017 11085 21116 39693 40322 51024 60001 333 11053 21099 70000
AAXX 01184 71825 11466 82504 11112 21128 39442 40141 56027 69921 77177 885// 333 11100 21263 48122 70002 90973
AAXX 01184 71137 16/// /2705 11084 21134 39415 40401 51016 60001 333 11049 21131 70000
AAXX 01184 71148 16/// /3123 11090 21119 39684 40283 51034 60001 333 11035 21091 70000
AAXX 01184 71155 16/// ///// 11118 21174 60001 333 11116 21215 70000
AAXX 01184 71156 16/// /2704 11204 21251 39199 40368 50006 60001 333 11165 21250 70000
AAXX 01184 71158 16/// /3215 11112 21135 39948 40232 51037 60001 333 11056 21122 70003
AAXX 01184 71159 17/// /0406 10008 21010 39951 40023 55005 60101 7//4/ 333 10018 21026 70197
AAXX 01184 71160 16/// /0102 11184 21207 30086 40311 53029 60001 333 11181 21203 70000
AAXX 01184 71162 16/// /0804 11153 21175 30085 40304 51028 60001 333 11139 21162 70000
AAXX 01184 71164 46/// /0000 11367 21408 30175 40263 58005 6///1 333 11331 7////
AAXX 01184 71165 46/// ///01 11197 21217 30011 40310 53024 6///1 333 11195 21211 7////
AAXX 01184 71166 46/// /1003 11238 21259 39632 40272 50002 6///1 333 11118 21276 7////
AAXX 01184 71239 16/// /3115 11071 21118 39807 40283 51030 60001 333 11026 21081 70000
AAXX 01184 71243 16/// /1704 11042 21091 39250 40395 58003 60001 333 21144 7////
AAXX 01184 71246 16/// /1304 11187 21211 39637 40339 51013 60001 333 11138 21236 70000
AAXX 01184 71614 17/// /1107 10003 21008 30018 40084 58062 60021 7//4/ 333 10003 21024 70023
AAXX 01184 71501 17/// /1103 11361 21405 30199 40201 58005 60011 7//4/ 333 11281 21374 70013
AAXX 01184 71511 16/// /2909 11088 21140 39695 40359 51020 60001 333 11049 21116 70000
AAXX 01184 71110 17/// /0525 10022 20018 39858 49917 56037 60141 7//4/ 333 10026 21004 70259
AAXX 01184 71133 46/// /2713 11107 21178 39604 40340 51018 6///1 333 11071 21131 7////
AAXX 01184 71141 16/// /3207 11341 21377 30220 40249 53016 60001 333 11340 21378 70000
AAXX 01184 71431 17/// /1010 10044 20032 39913 40008 56075 60011 7//4/ 333 10046 20008 70010
AAXX 01184 71472 17/// /1521 10078 20037 60021 7//4/ 333 10087 20022 70030
AAXX 01184 71935 11274 71505 11245 21283 30113 40336 52027 69901 72872 84500 333 11222 21260 47028 79999 90942
AAXX 01184 71807 17/// /0519 10024 20019 39924 49942 56046 60121 7//4/ 333 10027 21011 70167
AAXX 01184 71631 17/// /1810 10031 20023 39473 49965 58051 60051 7//4/ 333 10032 21001 70047
AAXX 01184 71954 46/// /3309 11103 21127 39898 40290 51024 6///1 333 11089 21126 7////
AAXX 01184 71956 17/// /2307 10026 20026 39698 49925 56065 60071 7//4/ 333 10038 21042 70072
AAXX 01184 71959 17/// ///// 10029 20023 60011 7//4/ 333 10078 20014 70222
AAXX 01184 71970 16/// /2610 11120 21166 39736 40349 51016 60001 333 11089 21181 70000
AAXX 01184 71977 46/// /3004 11317 21317 39447 40209 58008 6///1 333 11317 21358 7////
AAXX 01184 71978 46/// /2108 11281 21310 39854 40184 56001 6///1 333 11246 21350 7////
AAXX 01184 71989 16/// /0501 11377 21416 30311 40329 51007 60001 333 11334 21382 7////
AAXX 01184 71309 16/// /1403 11036 21052 39959 49970 58042 60001 333 11036 21105 70000
AAXX 01184 71311 16/// /3515 10001 21014 30096 40121 51014 60001 333 10025 20000 70124
AAXX 01184 71317 16/// /3516 10011 21012 30046 40092 51014 60001 333 10076 20010 70096
AAXX 01184 71320 16/// /3112 11364 21400 30107 40107 51008 60001 333 11352 21370 70000
BBXX 44150 01181 99425 70640 46/// /3311 10058 40122 5//// 22200 00095 10806 70029 333 91213
AAXX 01184 71837 16/// ///// 11023 60001 333 11023 21103 70003
AAXX 01184 71839 16/// ///// 11021 60001 333 11021 21124 70000
AAXX 01184 71667 16/// /3014 11036 21075 39797 40043 50003 60001 333 11004 21037 70043 555 10060
AAXX 01184 71669 16/// /2603 11039 21180 38660 40347 53005 60001 333 11039 21170 70000
AAXX 01184 71015 17/// ///// 11063 69931 7//4/ 333 11063 21111 70006
AAXX 01184 71017 16/// /2712 11327 21361 30267 40283 53014 60001 333 11321 21383 7////
AAXX 01184 71019 46/// /3202 11045 21047 39840 40146 58015 6///1 333 11043 21059 7////
AAXX 01184 71020 46/// /0000 11296 21328 39999 40274 50007 6///1 333 11241 21302 7////
AAXX 01184 71021 46/// /0000 11309 21345 39923 40305 50003 6///1 333 11304 21331 7//// 555 10010
AAXX 01184 71026 16/// /0000 11106 21133 39496 40398 51004 60001 333 21174 7////
AAXX 01184 71063 16/// /0906 10000 21005 39962 40061 58076 60001 333 10000 21038 70000
AAXX 01184 71713 16/// /1405 11028 21047 60001 333 11028 21065 70000
AAXX 01184 71721 17/// /1408 11007 21019 39805 40051 58073 60011 7//4/ 333 11007 21037 70020
AAXX 01184 71724 16/// /0506 11020 21029 30114 40122 58043 60001 333 11020 21034 70000
AAXX 01184 71736 46/// ///// 11017 21115 6///1 333 11017 21131 7//// 555 10010
AAXX 01184 71742 46/// /0512 11008 21011 39847 40034 56035 6///1 333 11007 21043 7////
AAXX 01184 71744 17/// /3405 10000 21031 30096 40137 51005 69931 7//4/ 333 10006 21024 70097
AAXX 01184 71746 17/// /2113 10078 20047 39739 49955 57046 60021 7//4/ 333 10078 20021 70018
AAXX 01184 71920 16/// /3115 10029 20017 30130 40136 53005 60001 333 10074 20029 70149
AAXX 01184 08221 02967 01805 10087 20020 39569 40261 52001 60002 333 10126 60007
BBXX MINUK03 0118/ 99549 70010 46/// ///// 10078 49926 57014
AAXX 01184 71825 11466 82504 11112 21128 39442 40141 56027 69921 77177 885// 333 11100 21263 48122 70002 90973
AAXX 01184 71137 16/// /2705 11084 21134 39415 40401 51016 60001 333 11049 21131 70000
AAXX 01184 71148 16/// /3123 11090 21119 39684 40283 51034 60001 333 11035 21091 70000
AAXX 01181 37279 32594 70000 10074 20034 39982 40125 58004 87500 333 10171
AAXX 01181 37308 329// 60000 10017 21034 39516 40180 52002 82031 333 10120
AAXX 01181 37531 329// 00000 11032 21035 39435 40184 52002 333 10102
AAXX 01181 37553 329// 02001 10017 21049 39501 40158 52001 333 10123
AAXX 01181 37651 16/// ///00 10007 21037 3//// 4//// 5//// 60002 333 10125
AAXX 01181 37492 NIL
BBXX 44150 01181 99425 70640 46/// /3311 10058 40122 5//// 22200 00095 10806 70029 333 91213
AAXX 01184 91643 11498 83306 10267 20251 40076 55000 60241 83270 333 5689/ 83818 88460
AAXX 01184 91636 11498 83407 10270 20252 40085 69961 71482 83370 333 5689/
AAXX 01184 48302 NIL
AAXX 01184 48304 32962 00000 10180 20172 39681 40151 50001 333 59011
AAXX 01184 48334 31956 00000 10210 20160 39771 40138 57001 71000 333 59020
AAXX 01184 48360 31959 00000 10196 20161 39882 40148 57004 71000 333 59010
AAXX 01184 48372 31958 23302 10230 20222 30076 40135 57003 71000 80001 333 59011
AAXX 01184 48386 31930 00000 10229 20215 30083 40128 57007 71000 333 59010
AAXX 01184 48387 31956 21004 10180 20163 39187 40157 52010 71000 81051 333 59019
AAXX 01184 48408 32960 20102 10203 20170 39987 40140 57005 80005 333 59015
AAXX 01184 48415 31556 70000 10267 20208 30124 40135 52003 71022 82556 333 59005
AAXX 01184 48433 NIL
AAXX 01184 48437 32960 00103 10215 20174 39930 40144 57007 333 59017
AAXX 01184 48440 31958 20000 10248 20221 30076 40126 57005 71000 80001 333 59011
AAXX 01184 48451 32960 70000 10254 20223 30117 40128 57007 84055 333 59015
AAXX 01184 48454 NIL
AAXX 01184 48457 NIL
AAXX 01184 48463 NIL
AAXX 01184 48464 NIL
AAXX 01184 48479 NIL
AAXX 01184 48520 01556 60000 10238 20226 30099 40114 55012 60063 71062 83546 333 59017 69927 70056
AAXX 01184 48554 01440 80000 10232 20229 30101 40105 57008 61403 71096 889// 333 59008 60307 71442
AAXX 01184 48563 01458 80000 10230 20227 30059 40095 57017 60223 76162 83877 333 59027 60167 70224
AAXX 01184 48571 32559 70000 10231 20222 30104 40116 57008 83278 333 59015 71378
BBXX 44067 01181 99384 70770 46/// /2304 10116 40130 58060 91800
AAXX 01181 48803 32497 81402 10150 20135 30080 40196 57006 888// 333 59026 85894 88696
AAXX 01184 04211 47/59 /2906 11231 21251 39887 40059 52013 77777 333 11204 21232
AAXX 01184 04220 075// 72411 11144 21205 39979 40033 52009 60032 7//87 333 10282 21204 55300 20360 69907 81/27 83/33 85/41 87/47
AAXX 01184 04221 47784 31016 11178 21231 39995 40035 52008 70088 333 11161 21183 83/// 91019
AAXX 01184 04231 12/89 00608 11297 21341 39993 40075 52005 6///2 333 11224 21298
AAXX 01184 04234 47569 80505 11171 21231 30037 40048 52003 77788 333 11167 21194 88/29
AAXX 01184 04241 45656 80810 11156 21206 39991 40032 52001 333 11148 21158 85/33 88/38
AAXX 01184 04250 05484 50508 11138 21184 39913 40022 52011 69902 333 11122 21141 55300 20036 6///7 81/19 85/69
AAXX 01184 04254 45584 10608 11151 21223 39907 40027 54000 333 11128 21155 81/25
AAXX 01184 04260 45984 10410 11135 21266 39961 40007 54000 333 11123 21138 81/69
AAXX 01184 04270 45/84 /0207 11138 21222 39872 49912 52001 333 11111 21182
AAXX 01184 04272 07/02 0//// 11126 21181 39834 49908 57021 60072 77377 333 11125 21136 60057
AAXX 01184 04312 46/// /3108 11267 21303 30047 40090 52002
AAXX 01184 04320 47/// /3439 11159 21176 39825 49841 57006 77377 333 11151 21183 91156 91052
AAXX 01184 04339 47/47 ///// 11088 21115 39617 49707 57006 77177 333 11085 21126 55300 20000
AAXX 01184 04360 06/// /2606 11060 21074 39636 49705 52021 6///2 333 11052 21075 55300 20000 6///7
AAXX 01184 04361 464// 83002 11058 21069 39657 49709 52021 333 11054 21074 81/11 88/24
AAXX 01184 04390 07/78 02826 11066 21180 39685 49779 57001 60092 70087 333 11065 21082 60017 91166 91246
AAXX 01180 44214 32998 03101 11238 21286 38396 40604 58001
AAXX 01180 44231 319// 00000 11230 21296 38857 40578 52005 70040
AAXX 01180 44259 41997 63003 11179 21199 39340 40311 56007 70272 86070
AAXX 01180 44277 329// 00000 11310 21340 37889 40725 52001
AAXX 01180 44288 32999 02602 11184 21256 38242 40508 58004
AAXX 01180 44292 418// 62901 11194 21213 38783 40440 58004 77171 86020
AAXX 01180 44304 419// 12706 11240 21272 39046 40403 52008 70270 80001
AAXX 01180 44354 419// 23208 11188 21221 39156 40374 52020 73672 82040
AAXX 01180 44373 42999 22903 11160 21186 38625 40446 50001 80004
BBXX 41053 01181 99185 70661 46/// /0808 10269 40170 58025 91800 22200 00272 10703 70016 333 91209
BBXX 41053 01181 99185 70661 46/// /0808 10269 40170 91750 333 91210
BBXX 41053 01181 99185 70661 46/// /0908 10269 40171 91740 333 91209
BBXX 42085 01181 99179 70665 46/// /1010 10271 40161 57029 91800 22200 00270 10703 70016 333 91212
BBXX 42085 01181 99179 70665 46/// /1010 10271 40163 91750 333 91212
AAXX 01181 76040 32960 03303 10186 20066 30235 40249 52089 91740 333 10190 20059 30/// 58066 98660
AAXX 01181 76056 06/// /3209 10228 21044 30202 40225 50013 60002 7//// 8//// 91750 333 0//// 10232 20139 30/// 4//// 54/// 56/// 57/// 58041 60007 8//// 8//// 8//// 9//// 9//// 9//// 44
AAXX 01181 76122 32980 10902 10146 21016 38642 40311 52005 80004 91752 333 10152 21003 30/// 56009 58080
AAXX 01181 76123 06/// /0806 10156 21045 3//// 4//// 5//// 60002 7//// 8//// 91750 333 0//// 10156 21011 56/// 57/// 5//// 60007 8//// 8//// 8//// 8//// 9//// 9//// 9//// 444 ///// 555
AAXX 01181 76220 32958 00000 10100 20044 38243 40362 5//// 91150 333 10100 21064 30/// 58057
AAXX 01181 76225 32960 00201 10142 21044 38744 40254 50006 91745 333 10142 20017 30/// 58090
AAXX 01181 76256 32980 00000 10200 20084 30197 40211 5//// 91745 333 10208 20074 30/// 58049
AAXX 01181 76305 32970 00601 10238 20066 30197 40205 52014 91740 333 10242 20120 30/// 58037
AAXX 01181 76323 32970 00000 10184 20042 38353 40322 52038 91750 333 10184 20020 30/// 58062
AAXX 01181 76342 31762 41202 10168 21003 39579 40298 57060 70321 84030 91750 333 10172 20110 30/// 56010 58077 84357
AAXX 01181 76373 32980 00000 10167 21035 38292 40257 52076 91750 333 10180 21032 30/// 59054
AAXX 01181 76382 32980 03402 10195 20049 39002 40281 52012 91747 333 10200 20076 30/// 58070
AAXX 01181 76390 31866 42106 10114 21006 38327 40289 52015 70544 81085 91730 333 10124 20060 30/// 56074 58068 81356 83070
AAXX 01181 76402 32958 03602 10220 20087 30135 40193 57003 70544 91745 333 10226 20074 30/// 58024
AAXX 01181 76458 32970 02703 10226 20155 30179 40183 57003 91738 333 10248 20112 30/// 58037
AAXX 01181 76490 06/// /0107 10247 20098 39874 40259 50017 60002 7//// 8//// 91750 333 0//// 10257 20164 30/// 54/// 56/// 57/// 58087 60007 8//// 8//// 8//// 8//// 9//// 9//// 9//// 44
AAXX 01181 76491 32560 43606 10240 20124 39890 40284 52020 84400 91750 333 10250 20108 30/// 56800 58084 84630
AAXX 01181 76499 32560 73402 10259 20194 30233 40256 52015 85430 91740 333 10260 20158 30/// 5689/ 58079 85631 82357
AAXX 01181 76525 32980 60505 10126 20035 37529 40202 52007 80006 91740 333 10126 20108 30/// 56//5 58040 86080
AAXX 01181 76538 06/// /0603 10213 20087 38223 40166 50003 60002 7//// 8//// 91750 333 0//// 10213 20057 30/// 4//// 54/// 56/// 57/// 58043 60007 8//// 8//// 8//// 9//// 9//// 9//// 44
AAXX 01181 76543 31570 73604 10247 20209 30235 40268 51005 70544 878// 91745 333 10247 20179 30/// 561// 58061 81834 86640
AAXX 01181 76547 06/// /0603 10258 20221 30236 40248 50009 60002 7//// 8//// 91750 333 0//// 10259 20200 56/// 57/// 58060 60007 8//// 8//// 8//// 8//// 9//// 9//// 9//// 444 ///// 555
AAXX 01181 76548 31468 70201 10248 20217 30249 40259 51015 70542 874// 91740 333 10252 20200 30/// 56100 58057 87611
AAXX 01181 76556 32970 20000 10248 20144 39153 40181 51001 80005 91735 333 10255 20130 30/// 56003 58028 82070
AAXX 01181 76577 32570 83604 10193 20139 38094 40206 52004 81407 91740 333 10197 20110 30/// 56505 58034 81622 88277 99021
AAXX 01181 76578 06/// /0404 10215 20031 38088 40143 58002 60002 7//// 8//// 91750 333 0//// 10215 20113 30/// 4//// 54/// 56/// 57/// 58032 60007 8//// 8//// 8//// 9//// 9//// 9//// 44
AAXX 01181 76586 06/// /3502 10229 20187 30092 40248 50016 60002 7//// 8//// 91750 333 0//// 10229 20158 30/// 4//// 54/// 56/// 57/// 58061 60007 8//// 8//// 8//// 9//// 9//// 9//// 44
AAXX 01181 76592 06/// /0513 10278 21073 30217 40217 58008 60002 7//// 8//// 91750 333 0//// 10282 20210 30/// 4//// 54/// 56/// 57/// 58034 60007 8//// 8//// 8//// 9//// 9//// 9//// 44
AAXX 01181 76593 32370 40505 10278 20257 30216 40218 58006 82260 91750 333 10282 20210 30/// 5611/ 58031 82820 82330 91007 91505
AAXX 01181 76625 32960 41103 10216 20069 38190 40174 52024 84070 91750 333 10218 20130 30/// 56050 58019 84360
AAXX 01181 76641 06/// /1902 10276 20223 30231 40243 50009 60002 7//// 8//// 91750 333 0//// 10276 20201 30/// 4//// 54/// 56/// 57/// 58051 60007 8//// 8//// 8//// 8//// 9//// 9//// 9/
AAXX 01181 76644 32460 41204 10296 20202 30182 40196 57029 84200 91755 333 10305 20208 30/// 562// 59020 84820
AAXX 01181 76645 06/// /0604 10290 20198 30202 40215 58013 60002 7//// 8//// 91750 333 0//// 10310 20213 30/// 4//// 54/// 56/// 57/// 58030 60007 8//// 8//// 8//// 9//// 9//// 9//// 44
AAXX 01181 76654 31956 02702 10284 20214 30166 40170 57012 70544 91750 333 10284 20222 30/// 58023
AAXX 01181 76659 06/// /2502 10310 20123 3//// 4//// 5//// 60002 7//// 8//// 91750 333 0//// 10312 20168 30/// 4//// 54/// 56/// 57/// 5//// 60007 8//// 8//// 8//// 9//// 9//// 9//// 44
AAXX 01181 76662 32670 52001 10216 20100 38505 40206 57001 82202 91740 333 10228 20080 30/// 56/0/ 58024 82833 83070
AAXX 01181 76665 31562 31702 10215 20110 38161 40205 57006 70300 81120 91750 333 10226 20078 30/// 56550 57853 58032 81824
AAXX 01181 76681 31940 13202 10190 20108 37821 40222 57010 70510 80001 91745 333 10190 20030 30/// 58023 81077
AAXX 01181 76683 32978 03602 10215 21019 37857 40225 57008 91750 333 10218 20050 30/// 58019 98528
AAXX 01181 76684 02/// ///// 1//// 2//// 3//// 4//// 5//// 6//// 7//// 8//// 9//// 333 0//// 1//// 2//// 30/// 4//// 54/// 56/// 57/// 5//// 6//// 8//// 8//// 8//// 9//// 9//// 9//// 44
AAXX 01181 76685 31950 23601 10218 21004 37902 40197 57004 70544 80001 91750 333 10220 20065 30/// 56009 58017 82077
AAXX 01181 76687 31666 50701 10214 20125 38744 40240 50003 70211 85400 91745 333 10218 20118 30/// 563// 58030 83620 82823
AAXX 01181 76692 31556 73603 10260 20221 30209 40229 52008 70242 8423/ 91745 333 10261 20212 30/// 5611/ 58036 81820 83630 83360
AAXX 01181 76693 06/// /3603 10259 20222 30207 40226 50003 60002 7//// 8//// 91750 333 0//// 10261 20212 30/// 4//// 56/// 57/// 58036 60007 8//// 8//// 8//// 8//// 9//// 9//// 9//// 44
AAXX 01181 76695 32560 20403 10286 20219 30192 40197 57009 82200 91750 333 10288 20204 30/// 562// 58027 82823
AAXX 01181 76698 32560 40403 10302 20217 30188 40199 57017 84200 91750 333 10312 20204 30/// 56200 58019 84820
AAXX 01181 76727 06/// /2101 10237 20045 38430 40118 58007 60002 7//// 8//// 91750 333 0//// 10247 20128 30/// 4//// 54/// 56/// 57/// 58019 60007 8//// 8//// 8//// 9//// 9//// 9//// 44
AAXX 01181 76737 31480 50201 10228 20125 38834 40226 50001 70322 82237 91735 333 10233 20122 30/// 56229 58027 82817 91105 91511
AAXX 01181 76738 02/// ///// 1//// 2//// 3//// 4//// 5//// 6//// 7//// 8//// 333 1//// 2//// 30/// 56/// 57/// 5//// 6//// 8//// 8//// 8//// 8//// 9//// 9//// 9//// 444 ///// 555 3////
AAXX 01181 76750 11560 40603 10301 20214 30182 40192 57014 69931 70020 83204 91750 333 10313 20204 30/// 56106 58020 83820
AAXX 01181 76751 06/// /0604 10301 20219 30182 40192 58014 69942 7//// 8//// 91750 333 0//// 10303 20208 30/// 4//// 54/// 56/// 57/// 58019 60007 8//// 8//// 8//// 9//// 9//// 9//// 44
AAXX 01181 76762 31904 23602 10276 20224 38787 40167 58016 70400 80004 91746 333 10278 20138 30/// 56006 58020 82060 91204
AAXX 01181 76772 06/// /0202 10230 20075 38462 40148 58012 60002 7//// 8//// 91750 333 0//// 10233 20052 30/// 4//// 56/// 57/// 58024 60007 8//// 8//// 8//// 9//// 9//// 9//// 444 ////
AAXX 01181 76773 31566 43601 10232 20133 38458 40191 57012 70544 81408 91748 333 10237 20042 30/// 56909 58018 81620 83268
AAXX 01181 76776 06/// /2601 10233 20074 38540 40140 58018 60002 7//// 8//// 91750 333 0//// 10239 20077 30/// 4//// 56/// 57/// 58020 60007 8//// 8//// 8//// 9//// 9//// 9//// 444 ////
AAXX 01181 76806 06/// /2403 10301 20228 30146 40150 58015 60002 7//// 8//// 91750 333 10310 20210 30/// 56/// 57/// 58007 60007 8//// 8//// 8//// 8//// 9//// 9//// 9//// 555 30273
AAXX 01181 76833 32970 03608 10310 20206 30152 40154 54000 91730 333 10320 20250 30/// 58024 92033
AAXX 01181 76843 32665 30801 10276 20172 39525 40168 50007 82106 91745 333 10286 20186 30/// 568// 58015 82820
AAXX 01181 76845 32460 51302 10174 20125 37983 40206 58002 85600 91747 333 10184 20108 30/// 56200 58024 85717
AAXX 01181 76848 11570 70503 10173 20119 38414 40139 58002 69901 72452 8355/ 91750 333 10186 20143 30/// 56199 58014 83822 83465
AAXX 01181 76902 06/// /1601 10331 20199 30002 40137 58010 60002 7//// 8//// 91750 333 0//// 10333 20215 30/// 4//// 54/// 56/// 57/// 58007 60007 8//// 8//// 8//// 8//// 9//// 9//// 9/
AAXX 01181 76903 31681 61301 10320 20199 30002 40132 57011 70122 81101 91755 333 10332 20222 30/// 56109 58006 81833 85074
AAXX 01181 76160 32962 00501 10212 20026 39960 40211 52011 91730 333 10212 20070 30/// 58040
AAXX 01181 76243 32974 03107 10148 20049 30058 40360 52025 91730 333 10164 20092 30/// 58172
AAXX 01181 76253 32982 00502 10240 20084 30119 40209 57002 91743 333 10245 20120 30/// 58025 92002
AAXX 01181 76311 32980 00000 10244 20091 39911 40195 52008 91740 333 10254 20086 30/// 58033
AAXX 01181 76405 32980 13303 10226 20142 30178 40200 50012 80001 91750 333 10226 20090 30/// 56005 58034 81070
AAXX 01181 76640 31458 40903 10252 20226 30247 40259 52016 70540 8223/ 91740 333 10268 20196 30/// 5623/ 58045 82811
AAXX 01181 76855 32580 31301 10322 20232 30082 40132 52007 81230 91740 333 10325 20196 30/// 56990 58006 81820 82359 92000
BBXX 44255 01181 99473 70573 46/// /0313 10035 49953 5//// 22200 00033 10705 70026 333 91216
AAXX 01181 56187 11930 80000 10050 20037 39609 40275 57013 69901 71060 8807/ 333 05251 10064
AAXX 01181 57461 31940 81601 10075 20050 30126 40292 57007 71000 8807/ 333 10116
AAXX 01181 57516 31830 82901 10079 20059 39945 40263 57008 71000 885// 333 05201 10089
AAXX 01181 57687 31720 82902 10065 20048 30191 40278 57007 71000 885// 333 10065
AAXX 01181 57816 11420 80704 10031 20024 38826 40244 57009 69921 76060 885// 333 05252 10070
AAXX 01181 58040 31958 00202 11043 21071 30307 40321 57011 71000 333 10051
AAXX 01181 58102 31950 80201 11015 21023 30276 40327 57007 71000 8802/ 333 10018
AAXX 01181 58150 31530 73202 10005 21047 30313 40317 57010 70500 875// 333 10059
AAXX 01181 59117 32663 80000 10100 20084 30127 40235 57003 885// 333 10177
AAXX 01181 59316 32560 70903 10139 20072 30222 40227 57009 875// 333 10188
AAXX 01181 59644 32560 83603 10148 20098 30194 40211 57004 888// 333 10181
AAXX 01181 76040 32960 03303 10186 20066 30235 40249 52089 91740 333 10190 20059 30/// 58066 98660
AAXX 01181 76056 06/// /3209 10228 21044 30202 40225 50013 60002 7//// 8//// 91750 333 0//// 10232 20139 30/// 4//// 54/// 56/// 57/// 58041 60007 8//// 8//// 8//// 9//// 9//// 9//// 44
AAXX 01181 76122 32980 10902 10146 21016 38642 40311 52005 80004 91752 333 10152 21003 30/// 56009 58080
AAXX 01181 76123 06/// /0806 10156 21045 3//// 4//// 5//// 60002 7//// 8//// 91750 333 0//// 10156 21011 56/// 57/// 5//// 60007 8//// 8//// 8//// 8//// 9//// 9//// 9//// 444 ///// 555
AAXX 01181 76220 32958 00000 10100 20044 38243 40362 5//// 91150 333 10100 21064 30/// 58057
AAXX 01181 76225 32960 00201 10142 21044 38744 40254 50006 91745 333 10142 20017 30/// 58090
AAXX 01181 76256 32980 00000 10200 20084 30197 40211 5//// 91745 333 10208 20074 30/// 58049
AAXX 01181 76305 32970 00601 10238 20066 30197 40205 52014 91740 333 10242 20120 30/// 58037
AAXX 01181 76323 32970 00000 10184 20042 38353 40322 52038 91750 333 10184 20020 30/// 58062
AAXX 01181 76342 31762 41202 10168 21003 39579 40298 57060 70321 84030 91750 333 10172 20110 30/// 56010 58077 84357
AAXX 01181 76373 32980 00000 10167 21035 38292 40257 52076 91750 333 10180 21032 30/// 59054
AAXX 01181 76382 32980 03402 10195 20049 39002 40281 52012 91747 333 10200 20076 30/// 58070
AAXX 01181 76390 31866 42106 10114 21006 38327 40289 52015 70544 81085 91730 333 10124 20060 30/// 56074 58068 81356 83070
AAXX 01181 76402 32958 03602 10220 20087 30135 40193 57003 70544 91745 333 10226 20074 30/// 58024
AAXX 01181 76458 32970 02703 10226 20155 30179 40183 57003 91738 333 10248 20112 30/// 58037
AAXX 01181 76490 06/// /0107 10247 20098 39874 40259 50017 60002 7//// 8//// 91750 333 0//// 10257 20164 30/// 54/// 56/// 57/// 58087 60007 8//// 8//// 8//// 8//// 9//// 9//// 9//// 44
AAXX 01181 76491 32560 43606 10240 20124 39890 40284 52020 84400 91750 333 10250 20108 30/// 56800 58084 84630
AAXX 01181 76499 32560 73402 10259 20194 30233 40256 52015 85430 91740 333 10260 20158 30/// 5689/ 58079 85631 82357
AAXX 01181 76525 32980 60505 10126 20035 37529 40202 52007 80006 91740 333 10126 20108 30/// 56//5 58040 86080
AAXX 01181 76538 06/// /0603 10213 20087 38223 40166 50003 60002 7//// 8//// 91750 333 0//// 10213 20057 30/// 4//// 54/// 56/// 57/// 58043 60007 8//// 8//// 8//// 9//// 9//// 9//// 44
AAXX 01181 76543 31570 73604 10247 20209 30235 40268 51005 70544 878// 91745 333 10247 20179 30/// 561// 58061 81834 86640
AAXX 01181 76547 06/// /0603 10258 20221 30236 40248 50009 60002 7//// 8//// 91750 333 0//// 10259 20200 56/// 57/// 58060 60007 8//// 8//// 8//// 8//// 9//// 9//// 9//// 444 ///// 555
AAXX 01181 76548 31468 70201 10248 20217 30249 40259 51015 70542 874// 91740 333 10252 20200 30/// 56100 58057 87611
AAXX 01181 76556 32970 20000 10248 20144 39153 40181 51001 80005 91735 333 10255 20130 30/// 56003 58028 82070
AAXX 01181 76577 32570 83604 10193 20139 38094 40206 52004 81407 91740 333 10197 20110 30/// 56505 58034 81622 88277 99021
AAXX 01181 76578 06/// /0404 10215 20031 38088 40143 58002 60002 7//// 8//// 91750 333 0//// 10215 20113 30/// 4//// 54/// 56/// 57/// 58032 60007 8//// 8//// 8//// 9//// 9//// 9//// 44
AAXX 01181 76586 06/// /3502 10229 20187 30092 40248 50016 60002 7//// 8//// 91750 333 0//// 10229 20158 30/// 4//// 54/// 56/// 57/// 58061 60007 8//// 8//// 8//// 9//// 9//// 9//// 44
AAXX 01181 76592 06/// /0513 10278 21073 30217 40217 58008 60002 7//// 8//// 91750 333 0//// 10282 20210 30/// 4//// 54/// 56/// 57/// 58034 60007 8//// 8//// 8//// 9//// 9//// 9//// 44
AAXX 01181 76593 32370 40505 10278 20257 30216 40218 58006 82260 91750 333 10282 20210 30/// 5611/ 58031 82820 82330 91007 91505
AAXX 01181 76625 32960 41103 10216 20069 38190 40174 52024 84070 91750 333 10218 20130 30/// 56050 58019 84360
AAXX 01181 76641 06/// /1902 10276 20223 30231 40243 50009 60002 7//// 8//// 91750 333 0//// 10276 20201 30/// 4//// 54/// 56/// 57/// 58051 60007 8//// 8//// 8//// 8//// 9//// 9//// 9/
AAXX 01181 76644 32460 41204 10296 20202 30182 40196 57029 84200 91755 333 10305 20208 30/// 562// 59020 84820
AAXX 01181 76645 06/// /0604 10290 20198 30202 40215 58013 60002 7//// 8//// 91750 333 0//// 10310 20213 30/// 4//// 54/// 56/// 57/// 58030 60007 8//// 8//// 8//// 9//// 9//// 9//// 44
AAXX 01181 76654 31956 02702 10284 20214 30166 40170 57012 70544 91750 333 10284 20222 30/// 58023
AAXX 01181 76659 06/// /2502 10310 20123 3//// 4//// 5//// 60002 7//// 8//// 91750 333 0//// 10312 20168 30/// 4//// 54/// 56/// 57/// 5//// 60007 8//// 8//// 8//// 9//// 9//// 9//// 44
AAXX 01181 76662 32670 52001 10216 20100 38505 40206 57001 82202 91740 333 10228 20080 30/// 56/0/ 58024 82833 83070
AAXX 01181 76665 31562 31702 10215 20110 38161 40205 57006 70300 81120 91750 333 10226 20078 30/// 56550 57853 58032 81824
AAXX 01181 76681 31940 13202 10190 20108 37821 40222 57010 70510 80001 91745 333 10190 20030 30/// 58023 81077
AAXX 01181 76683 32978 03602 10215 21019 37857 40225 57008 91750 333 10218 20050 30/// 58019 98528
AAXX 01181 76684 02/// ///// 1//// 2//// 3//// 4//// 5//// 6//// 7//// 8//// 9//// 333 0//// 1//// 2//// 30/// 4//// 54/// 56/// 57/// 5//// 6//// 8//// 8//// 8//// 9//// 9//// 9//// 44
AAXX 01181 76685 31950 23601 10218 21004 37902 40197 57004 70544 80001 91750 333 10220 20065 30/// 56009 58017 82077
AAXX 01181 76687 31666 50701 10214 20125 38744 40240 50003 70211 85400 91745 333 10218 20118 30/// 563// 58030 83620 82823
AAXX 01181 76692 31556 73603 10260 20221 30209 40229 52008 70242 8423/ 91745 333 10261 20212 30/// 5611/ 58036 81820 83630 83360
AAXX 01181 76693 06/// /3603 10259 20222 30207 40226 50003 60002 7//// 8//// 91750 333 0//// 10261 20212 30/// 4//// 56/// 57/// 58036 60007 8//// 8//// 8//// 8//// 9//// 9//// 9//// 44
AAXX 01181 76695 32560 20403 10286 20219 30192 40197 57009 82200 91750 333 10288 20204 30/// 562// 58027 82823
AAXX 01181 76698 32560 40403 10302 20217 30188 40199 57017 84200 91750 333 10312 20204 30/// 56200 58019 84820
AAXX 01181 76727 06/// /2101 10237 20045 38430 40118 58007 60002 7//// 8//// 91750 333 0//// 10247 20128 30/// 4//// 54/// 56/// 57/// 58019 60007 8//// 8//// 8//// 9//// 9//// 9//// 44
AAXX 01181 76737 31480 50201 10228 20125 38834 40226 50001 70322 82237 91735 333 10233 20122 30/// 56229 58027 82817 91105 91511
AAXX 01181 76738 02/// ///// 1//// 2//// 3//// 4//// 5//// 6//// 7//// 8//// 333 1//// 2//// 30/// 56/// 57/// 5//// 6//// 8//// 8//// 8//// 8//// 9//// 9//// 9//// 444 ///// 555 3////
AAXX 01181 76750 11560 40603 10301 20214 30182 40192 57014 69931 70020 83204 91750 333 10313 20204 30/// 56106 58020 83820
AAXX 01181 76751 06/// /0604 10301 20219 30182 40192 58014 69942 7//// 8//// 91750 333 0//// 10303 20208 30/// 4//// 54/// 56/// 57/// 58019 60007 8//// 8//// 8//// 9//// 9//// 9//// 44
AAXX 01181 76762 31904 23602 10276 20224 38787 40167 58016 70400 80004 91746 333 10278 20138 30/// 56006 58020 82060 91204
AAXX 01181 76772 06/// /0202 10230 20075 38462 40148 58012 60002 7//// 8//// 91750 333 0//// 10233 20052 30/// 4//// 56/// 57/// 58024 60007 8//// 8//// 8//// 9//// 9//// 9//// 444 ////
AAXX 01181 76773 31566 43601 10232 20133 38458 40191 57012 70544 81408 91748 333 10237 20042 30/// 56909 58018 81620 83268
AAXX 01181 76776 06/// /2601 10233 20074 38540 40140 58018 60002 7//// 8//// 91750 333 0//// 10239 20077 30/// 4//// 56/// 57/// 58020 60007 8//// 8//// 8//// 9//// 9//// 9//// 444 ////
AAXX 01181 76806 06/// /2403 10301 20228 30146 40150 58015 60002 7//// 8//// 91750 333 10310 20210 30/// 56/// 57/// 58007 60007 8//// 8//// 8//// 8//// 9//// 9//// 9//// 555 30273
AAXX 01181 76833 32970 03608 10310 20206 30152 40154 54000 91730 333 10320 20250 30/// 58024 92033
AAXX 01181 76843 32665 30801 10276 20172 39525 40168 50007 82106 91745 333 10286 20186 30/// 568// 58015 82820
AAXX 01181 76845 32460 51302 10174 20125 37983 40206 58002 85600 91747 333 10184 20108 30/// 56200 58024 85717
AAXX 01181 76848 11570 70503 10173 20119 38414 40139 58002 69901 72452 8355/ 91750 333 10186 20143 30/// 56199 58014 83822 83465
AAXX 01181 76902 06/// /1601 10331 20199 30002 40137 58010 60002 7//// 8//// 91750 333 0//// 10333 20215 30/// 4//// 54/// 56/// 57/// 58007 60007 8//// 8//// 8//// 8//// 9//// 9//// 9/
AAXX 01181 76903 31681 61301 10320 20199 30002 40132 57011 70122 81101 91755 333 10332 20222 30/// 56109 58006 81833 85074
AAXX 01181 76160 32962 00501 10212 20026 39960 40211 52011 91730 333 10212 20070 30/// 58040
AAXX 01181 76243 32974 03107 10148 20049 30058 40360 52025 91730 333 10164 20092 30/// 58172
AAXX 01181 76253 32982 00502 10240 20084 30119 40209 57002 91743 333 10245 20120 30/// 58025 92002
AAXX 01181 76311 32980 00000 10244 20091 39911 40195 52008 91740 333 10254 20086 30/// 58033
AAXX 01181 76405 32980 13303 10226 20142 30178 40200 50012 80001 91750 333 10226 20090 30/// 56005 58034 81070
AAXX 01181 76640 31458 40903 10252 20226 30247 40259 52016 70540 8223/ 91740 333 10268 20196 30/// 5623/ 58045 82811
AAXX 01181 76855 32580 31301 10322 20232 30082 40132 52007 81230 91740 333 10325 20196 30/// 56990 58006 81820 82359 92000
AAXX 01181 76040 32960 03303 10186 20066 30235 40249 52089 91740 33310190 20059 30/// 58066 98660
AAXX 01181 76056 06/// /3209 10228 21044 30202 40225 50013 60002 7////8//// 91750 333 0//// 10232 20139 30/// 4//// 54/// 56///57/// 58041 60007 8//// 8//// 8//// 9//// 9//// 9//// 44
AAXX 01181 76122 32980 10902 10146 21016 38642 40311 52005 80004 91752333 10152 21003 30/// 56009 58080
AAXX 01181 76123 06/// /0806 10156 21045 3//// 4//// 5//// 60002 7////8//// 91750 333 0//// 10156 21011 56/// 57/// 5//// 600078//// 8//// 8//// 8//// 9//// 9//// 9//// 444 ///// 555
AAXX 01181 76220 32958 00000 10100 20044 38243 40362 5//// 91150 33310100 21064 30/// 58057
AAXX 01181 76225 32960 00201 10142 21044 38744 40254 50006 91745 33310142 20017 30/// 58090
AAXX 01181 76256 32980 00000 10200 20084 30197 40211 5//// 91745 33310208 20074 30/// 58049
AAXX 01181 76305 32970 00601 10238 20066 30197 40205 52014 91740 33310242 20120 30/// 58037
AAXX 01181 76323 32970 00000 10184 20042 38353 40322 52038 91750 33310184 20020 30/// 58062
AAXX 01181 76342 31762 41202 10168 21003 39579 40298 57060 70321 8403091750 333 10172 20110 30/// 56010 58077 84357
AAXX 01181 76373 32980 00000 10167 21035 38292 40257 52076 91750 33310180 21032 30/// 59054
AAXX 01181 76382 32980 03402 10195 20049 39002 40281 52012 91747 33310200 20076 30/// 58070
AAXX 01181 76390 31866 42106 10114 21006 38327 40289 52015 70544 8108591730 333 10124 20060 30/// 56074 58068 81356 83070
AAXX 01181 76402 32958 03602 10220 20087 30135 40193 57003 70544 91745333 10226 20074 30/// 58024
AAXX 01181 76458 32970 02703 10226 20155 30179 40183 57003 91738 33310248 20112 30/// 58037
AAXX 01181 76490 06/// /0107 10247 20098 39874 40259 50017 60002 7////8//// 91750 333 0//// 10257 20164 30/// 54/// 56/// 57///58087 60007 8//// 8//// 8//// 8//// 9//// 9//// 9//// 44
AAXX 01181 76491 32560 43606 10240 20124 39890 40284 52020 84400 91750333 10250 20108 30/// 56800 58084 84630
AAXX 01181 76499 32560 73402 10259 20194 30233 40256 52015 85430 91740333 10260 20158 30/// 5689/ 58079 85631 82357
AAXX 01181 76525 32980 60505 10126 20035 37529 40202 52007 80006 91740333 10126 20108 30/// 56//5 58040 86080
AAXX 01181 76538 06/// /0603 10213 20087 38223 40166 50003 60002 7////8//// 91750 333 0//// 10213 20057 30/// 4//// 54/// 56///57/// 58043 60007 8//// 8//// 8//// 9//// 9//// 9//// 44
AAXX 01181 76543 31570 73604 10247 20209 30235 40268 51005 70544 878//91745 333 10247 20179 30/// 561// 58061 81834 86640
AAXX 01181 76547 06/// /0603 10258 20221 30236 40248 50009 60002 7////8//// 91750 333 0//// 10259 20200 56/// 57/// 58060 600078//// 8//// 8//// 8//// 9//// 9//// 9//// 444 ///// 555
AAXX 01181 76548 31468 70201 10248 20217 30249 40259 51015 70542 874//91740 333 10252 20200 30/// 56100 58057 87611
AAXX 01181 76556 32970 20000 10248 20144 39153 40181 51001 80005 91735333 10255 20130 30/// 56003 58028 82070
AAXX 01181 76577 32570 83604 10193 20139 38094 40206 52004 81407 91740333 10197 20110 30/// 56505 58034 81622 88277 99021
AAXX 01181 76578 06/// /0404 10215 20031 38088 40143 58002 60002 7////8//// 91750 333 0//// 10215 20113 30/// 4//// 54/// 56///57/// 58032 60007 8//// 8//// 8//// 9//// 9//// 9//// 44
AAXX 01181 76586 06/// /3502 10229 20187 30092 40248 50016 60002 7////8//// 91750 333 0//// 10229 20158 30/// 4//// 54/// 56///57/// 58061 60007 8//// 8//// 8//// 9//// 9//// 9//// 44
AAXX 01181 76592 06/// /0513 10278 21073 30217 40217 58008 60002 7////8//// 91750 333 0//// 10282 20210 30/// 4//// 54/// 56///57/// 58034 60007 8//// 8//// 8//// 9//// 9//// 9//// 44
AAXX 01181 76593 32370 40505 10278 20257 30216 40218 58006 82260 91750333 10282 20210 30/// 5611/ 58031 82820 82330 91007 91505
AAXX 01181 76625 32960 41103 10216 20069 38190 40174 52024 84070 91750333 10218 20130 30/// 56050 58019 84360
AAXX 01181 76641 06/// /1902 10276 20223 30231 40243 50009 60002 7////8//// 91750 333 0//// 10276 20201 30/// 4//// 54/// 56///57/// 58051 60007 8//// 8//// 8//// 8//// 9//// 9//// 9/
AAXX 01181 76644 32460 41204 10296 20202 30182 40196 57029 84200 91755333 10305 20208 30/// 562// 59020 84820
AAXX 01181 76645 06/// /0604 10290 20198 30202 40215 58013 60002 7////8//// 91750 333 0//// 10310 20213 30/// 4//// 54/// 56///57/// 58030 60007 8//// 8//// 8//// 9//// 9//// 9//// 44
AAXX 01181 76654 31956 02702 10284 20214 30166 40170 57012 70544 91750333 10284 20222 30/// 58023
AAXX 01181 76659 06/// /2502 10310 20123 3//// 4//// 5//// 60002 7////8//// 91750 333 0//// 10312 20168 30/// 4//// 54/// 56///57/// 5//// 60007 8//// 8//// 8//// 9//// 9//// 9//// 44
AAXX 01181 76662 32670 52001 10216 20100 38505 40206 57001 82202 91740333 10228 20080 30/// 56/0/ 58024 82833 83070
AAXX 01181 76665 31562 31702 10215 20110 38161 40205 57006 70300 8112091750 333 10226 20078 30/// 56550 57853 58032 81824
AAXX 01181 76681 31940 13202 10190 20108 37821 40222 57010 70510 8000191745 333 10190 20030 30/// 58023 81077
AAXX 01181 76683 32978 03602 10215 21019 37857 40225 57008 91750 33310218 20050 30/// 58019 98528
AAXX 01181 76684 02/// ///// 1//// 2//// 3//// 4//// 5//// 6//// 7////8//// 9//// 333 0//// 1//// 2//// 30/// 4//// 54/// 56///57/// 5//// 6//// 8//// 8//// 8//// 9//// 9//// 9//// 44
AAXX 01181 76685 31950 23601 10218 21004 37902 40197 57004 70544 8000191750 333 10220 20065 30/// 56009 58017 82077
AAXX 01181 76687 31666 50701 10214 20125 38744 40240 50003 70211 8540091745 333 10218 20118 30/// 563// 58030 83620 82823
AAXX 01181 76692 31556 73603 10260 20221 30209 40229 52008 70242 8423/91745 333 10261 20212 30/// 5611/ 58036 81820 83630 83360
AAXX 01181 76693 06/// /3603 10259 20222 30207 40226 50003 60002 7////8//// 91750 333 0//// 10261 20212 30/// 4//// 56/// 57///58036 60007 8//// 8//// 8//// 8//// 9//// 9//// 9//// 44
AAXX 01181 76695 32560 20403 10286 20219 30192 40197 57009 82200 91750333 10288 20204 30/// 562// 58027 82823
AAXX 01181 76698 32560 40403 10302 20217 30188 40199 57017 84200 91750333 10312 20204 30/// 56200 58019 84820
AAXX 01181 76727 06/// /2101 10237 20045 38430 40118 58007 60002 7////8//// 91750 333 0//// 10247 20128 30/// 4//// 54/// 56///57/// 58019 60007 8//// 8//// 8//// 9//// 9//// 9//// 44
AAXX 01181 76737 31480 50201 10228 20125 38834 40226 50001 70322 8223791735 333 10233 20122 30/// 56229 58027 82817 91105 91511
AAXX 01181 76738 02/// ///// 1//// 2//// 3//// 4//// 5//// 6//// 7////8//// 333 1//// 2//// 30/// 56/// 57/// 5//// 6//// 8////8//// 8//// 8//// 9//// 9//// 9//// 444 ///// 555 3////
AAXX 01181 76750 11560 40603 10301 20214 30182 40192 57014 69931 7002083204 91750 333 10313 20204 30/// 56106 58020 83820
AAXX 01181 76751 06/// /0604 10301 20219 30182 40192 58014 69942 7////8//// 91750 333 0//// 10303 20208 30/// 4//// 54/// 56///57/// 58019 60007 8//// 8//// 8//// 9//// 9//// 9//// 44
AAXX 01181 76762 31904 23602 10276 20224 38787 40167 58016 70400 8000491746 333 10278 20138 30/// 56006 58020 82060 91204
AAXX 01181 76772 06/// /0202 10230 20075 38462 40148 58012 60002 7////8//// 91750 333 0//// 10233 20052 30/// 4//// 56/// 57///58024 60007 8//// 8//// 8//// 9//// 9//// 9//// 444 ////
AAXX 01181 76773 31566 43601 10232 20133 38458 40191 57012 70544 8140891748 333 10237 20042 30/// 56909 58018 81620 83268
AAXX 01181 76776 06/// /2601 10233 20074 38540 40140 58018 60002 7////8//// 91750 333 0//// 10239 20077 30/// 4//// 56/// 57///58020 60007 8//// 8//// 8//// 9//// 9//// 9//// 444 ////
AAXX 01181 76806 06/// /2403 10301 20228 30146 40150 58015 60002 7////8//// 91750 333 10310 20210 30/// 56/// 57/// 58007 600078//// 8//// 8//// 8//// 9//// 9//// 9//// 555 30273
AAXX 01181 76833 32970 03608 10310 20206 30152 40154 54000 91730 33310320 20250 30/// 58024 92033
AAXX 01181 76843 32665 30801 10276 20172 39525 40168 50007 82106 91745333 10286 20186 30/// 568// 58015 82820
AAXX 01181 76845 32460 51302 10174 20125 37983 40206 58002 85600 91747333 10184 20108 30/// 56200 58024 85717
AAXX 01181 76848 11570 70503 10173 20119 38414 40139 58002 69901 724528355/ 91750 333 10186 20143 30/// 56199 58014 83822 83465
AAXX 01181 76902 06/// /1601 10331 20199 30002 40137 58010 60002 7////8//// 91750 333 0//// 10333 20215 30/// 4//// 54/// 56///57/// 58007 60007 8//// 8//// 8//// 8//// 9//// 9//// 9/
AAXX 01181 76903 31681 61301 10320 20199 30002 40132 57011 70122 8110191755 333 10332 20222 30/// 56109 58006 81833 85074
AAXX 01181 76160 32962 00501 10212 20026 39960 40211 52011 91730 33310212 20070 30/// 58040
AAXX 01181 76243 32974 03107 10148 20049 30058 40360 52025 91730 33310164 20092 30/// 58172
AAXX 01181 76253 32982 00502 10240 20084 30119 40209 57002 91743 33310245 20120 30/// 58025 92002
AAXX 01181 76311 32980 00000 10244 20091 39911 40195 52008 91740 33310254 20086 30/// 58033
AAXX 01181 76405 32980 13303 10226 20142 30178 40200 50012 80001 91750333 10226 20090 30/// 56005 58034 81070
AAXX 01181 76640 31458 40903 10252 20226 30247 40259 52016 70540 8223/91740 333 10268 20196 30/// 5623/ 58045 82811
AAXX 01181 76855 32580 31301 10322 20232 30082 40132 52007 81230 91740333 10325 20196 30/// 56990 58006 81820 82359 92000
BBXX SGW 01181 99275 71153 43/98 00002 10169 40216 50010 22234 00171 20000 40702
BBXX SHJC 01181 99124 10470 43/98 11009 10242 40179 53009 22254 00264 2//// 4////
AAXX 01184 89002 42999 12207 11008 21023 39863 49917 57015 80001
AAXX 01181 50953 32965 00000 11224 21245 30139 40336 54000 333 11150
AAXX 01181 52866 32968 70000 11096 21174 37743 57004 80002 333 05103 10012
AAXX 01181 53463 32975 53404 11080 21164 39022 40326 52007 80002 333 05403 11043
AAXX 01181 53513 32970 00000 11132 21172 39080 40368 52001 333 00001 11013
AAXX 01181 54218 32765 80000 11144 21201 39465 40318 57020 885// 333 11048
AAXX 01181 54337 32960 00000 11134 21193 30243 40332 57009 333 11055
AAXX 01181 54471 32960 03601 11146 21185 30327 40333 57004 333 11073
AAXX 01181 54497 32962 03603 11121 21197 30284 40301 52003 333 11059
AAXX 01181 54823 32970 01102 11028 21125 30094 40312 57010 333 10034
AAXX 01181 52533 32980 02202 11141 21191 38628 40422 57010 333 05152 11022
AAXX 01181 53588 32980 02511 11118 21174 37771 57014 333 11073 91117 91525
AAXX 01181 53772 31950 00000 11066 21112 39352 40310 57007 71000 333 10035
AAXX 01181 53915 32780 82902 11037 21126 38745 40331 57013 885// 333 00002 10042
AAXX 01181 54342 31957 01101 11202 21222 30266 40334 57005 71000 333 11106
AAXX 01181 54511 32965 71803 11036 21104 30258 40300 57016 85032 333 10032
AAXX 01181 56080 11670 83401 11106 21145 37152 57008 69901 77000 885// 333 05203 10037
AAXX 01181 57083 31/12 92502 10000 21025 30182 40325 57013 71040 333 10001
AAXX 01181 56778 32568 12201 10100 20065 38115 57002 81100 333 05207 10207
AAXX 01181 57265 31958 83601 10008 21014 30202 40317 57005 71000 8807/ 333 10078
AAXX 01181 58221 31950 20901 10010 21035 30291 40320 54000 71000 82040 333 10083
AAXX 01181 58238 31957 60902 10011 21045 30268 40314 52002 70500 80002 333 10090
AAXX 01181 58251 31950 73601 10001 21040 30306 40311 57007 71000 8704/ 333 10074
AAXX 01181 58457 31740 73401 10036 21026 30255 40310 52004 71000 875// 333 10082
AAXX 01181 58606 31940 60903 10054 20011 30217 40276 57007 71000 86040 333 10124
AAXX 01181 58847 31658 80403 10103 20036 30160 40263 57004 71000 885// 333 10167
AAXX 01181 59134 32660 80206 10114 20042 30075 40245 57004 885// 333 10177
AAXX 01181 59287 32661 70202 10129 20084 30141 40227 57001 8554/ 333 10201
AAXX 01181 59431 32660 80201 10127 20067 30077 40225 57009 885// 333 10152
AAXX 01181 59758 32465 70904 10182 20139 30124 40201 57006 879// 333 10206
AAXX 01181 50468 32970 03401 11273 21296 30085 40317 52001 333 11154
AAXX 01181 51076 32980 00201 11212 21249 39493 40465 57007 333 05553 11105
AAXX 01181 51573 32970 00000 11091 21152 30361 40408 57006 333 05351 11027
AAXX 01181 52652 32980 02002 11167 21206 38636 40421 57011 333 05154 11043
AAXX 01181 52983 32962 72702 11071 21142 38172 57014 80002 333 00103 11015
AAXX 01181 54401 32965 80701 11076 21160 39333 40296 57008 8802/ 333 11026
AAXX 01181 56096 32768 83601 10051 21053 39010 40270 57004 885// 333 05104 10089
AAXX 01180 44203 329// 00000 11361 21384 38536 40686 51006
AAXX 01180 44207 329// 02302 11302 21339 38419 40595 52005
AAXX 01180 44212 32999 01803 11356 21383 39343 40678 53003
AAXX 01180 44213 32999 00000 11346 21381 38955 40684 57006
AAXX 01180 44215 32998 00000 11292 21322 38544 40619 52005
AAXX 01180 44218 329// 00000 11261 21300 38748 40595 58002
AAXX 01180 44225 329// 20000 11356 21377 38405 40729 54000 80001
AAXX 01180 44230 329// 00104 11230 21271 38921 40563 52005
AAXX 01180 44232 329// 00000 11248 21275 39249 40455 52010
AAXX 01180 44237 32999 02705 11233 21280 38589 40515 51003
AAXX 01180 44239 329// 53405 11156 21226 38905 40430 51008 80006
AAXX 01180 44241 329// 00000 11308 21332 39387 40511 54000
AAXX 01180 44256 41999 30000 11249 21267 39380 40328 57010 70172 83070
AAXX 01180 44265 329// 00000 11237 21261 38971 40531 58011
AAXX 01180 44272 329// 01803 11300 21330 38335 40619 58001
AAXX 01180 44275 32998 00000 11286 21310 37797 40610 51001
AAXX 01180 44282 32999 03406 11161 21266 38384 40457 58003
AAXX 01180 44284 32999 00204 11286 21333 37920 40653 58001
AAXX 01180 44285 32999 00000 11201 21255 38410 40506 57001
AAXX 01180 44287 32999 03503 11234 21288 38201 40574 54000
AAXX 01180 44294 329// 03403 11234 21268 38629 40492 57001
AAXX 01180 44298 329// 03208 11216 21228 38773 40518 52004
AAXX 01180 44302 319// 02712 11214 21249 39154 40364 51002 73632 333 91212
AAXX 01180 44305 419// 83202 11173 21197 39070 40308 56001 70272 8802/
AAXX 01180 44313 32999 60000 11234 21266 39439 40364 57011 86070
AAXX 01180 44314 419// 73603 11163 21189 39152 40309 57007 77172 8702/
AAXX 01180 44317 419// 80000 11163 21197 38940 40295 57010 77072 8802/
AAXX 01180 44336 329// 03104 11208 21235 38799 40520 53001
AAXX 01180 44341 329// 03306 11174 21211 38681 40456 53008 333 91114
AAXX 01180 44347 32999 00000 11200 21226 38807 40469 51004
AAXX 01180 44352 419// 73607 11178 21190 38926 40324 51002 70272 8707/
AAXX 01180 44358 319// 63202 11194 21206 39120 40365 53013 70232 86030
AAXX 01181 57494 32965 70402 10008 20004 30262 40293 57006 8703/ 333 10107
AAXX 01181 58752 31656 80202 10061 20002 30235 40282 57004 70500 885// 333 10131
BBXX 44255 01181 99473 70573 46/// /0313 10035 49953 5//// 22200 00033 10705 70026 333 91216
AAXX 01181 50136 32970 00000 11339 21381 39745 40348 52003 333 11188
AAXX 01181 50745 32965 02202 11183 21219 30114 40315 57008 333 11124
AAXX 01181 50774 32960 00000 11320 21350 39994 40338 52004 333 11184
AAXX 01181 50788 32970 02503 11249 21275 30201 40296 54000 333 11184
AAXX 01181 51133 32980 00704 11080 21138 39653 40335 57010 333 06351 11023
AAXX 01181 51431 NIL
AAXX 01181 51747 NIL
AAXX 01181 52203 32980 00702 11118 21176 39468 40407 57003 333 05201 11024
AAXX 01181 52418 32970 00000 11132 21182 38994 40400 57005 333 05457 10000
AAXX 01181 52681 32980 02202 11120 21172 38744 40399 57007 333 00100 11007
AAXX 01181 53564 32975 10000 11080 21152 39269 40338 52004 80002 333 05405 11013
AAXX 01181 53614 32965 02001 11083 21123 39004 40360 52002 333 00001 11004
AAXX 01181 53646 32970 02903 11088 21156 38934 40338 57006 333 05202 10011
AAXX 01181 53798 31920 81401 11048 21059 30206 40308 57016 71000 8807/ 333 11020
AAXX 01181 53845 32965 02002 11064 21117 39174 40339 57001 333 05101 10048
AAXX 01181 53959 31950 61802 11040 21058 39864 40324 57010 71000 80002 333 10051
AAXX 01181 54094 32962 01801 11232 21265 30001 40332 52006 333 11144
AAXX 01181 54102 11980 71802 11131 21147 39031 40301 57017 69941 77070 80002 333 11131
AAXX 01181 54161 32960 21601 11210 21241 30015 40337 57007 80002 333 11130
AAXX 01181 54292 32965 42705 11161 21219 39971 40314 52005 80002 333 11083
AAXX 01181 54374 11962 00202 11206 21239 39842 40345 52004 69901 70080 333 11070
AAXX 01181 54423 32970 83201 11105 21180 39775 40319 57011 80007 333 11022
AAXX 01181 54618 32962 61402 11049 21083 30286 40305 57025 80002 333 10026
AAXX 01181 54843 32967 00000 11067 21089 30297 40326 57014 333 10014
AAXX 01181 54909 31909 82502 11036 21046 30249 40316 57008 74240 8807/ 333 10024
AAXX 01181 56029 32980 02201 11094 21177 36419 57010 333 05504 10096
AAXX 01181 57127 11960 81101 10053 20043 39668 40288 57006 69901 70060 8807/ 333 10076
AAXX 01181 57131 31920 82204 10002 21011 39820 40336 57008 71000 8807/ 333 10020
AAXX 01181 40706 11550 70502 10026 20016 38634 40191 53001 69901 78082 85370 333 55000 20197 83630 82935 87458
AAXX 01181 40718 12560 52602 10100 20092 30185 40157 52005 60001 83530 333 55025 83630
AAXX 01181 40732 12560 12402 10098 20086 30162 40138 56003 60001 81400 333 55037 81625
AAXX 01181 40745 12962 11702 10046 21069 39006 40159 58002 60001 81030 333 55082 21002
AAXX 01181 40754 11660 72702 10052 20034 38810 40171 58004 60021 70162 83370 333 55002 81935 82640 87460
AAXX 01181 40766 12660 71204 10075 20002 38695 40180 53005 60001 84370 333 55000 20224 82935 83640 87359
AAXX 01181 40800 12960 00000 10046 21008 38438 40167 51007 60001 333 55013 2////
AAXX 01181 40811 11956 41303 10180 20142 30122 40149 53004 60001 70511 82011 333 55008 20384 82460 84070
AAXX 01181 40841 12660 31503 10062 21048 38249 40172 58002 60001 81430 333 55060 21013 81640
AAXX 01181 40848 12965 22802 10116 21120 38526 40168 51002 60001 82030 333 55084 21300 82360
AAXX 01181 40856 12962 01404 10074 21150 38641 40174 50000 60001 333 55095 2////
AAXX 01181 40875 12960 00402 10133 20056 30163 40175 51002 60001 333 55091 21456
AAXX 01184 85041 11458 83404 10257 20254 39810 40074 57034 60131 71796 85907 333 56000 58008 83815 82920 88270 96015
AAXX 01184 47401 11/70 80117 11015 21066 30138 40153 56007 69901 78582 882//
AAXX 01184 47412 11/40 83203 11004 21012 30084 40117 56010 60031 78588 883//
AAXX 01184 47420 17/39 /1322 10007 21001 30101 40135 58028 69901 76760
AAXX 01184 47426 17/57 /1312 10041 20032 30051 40099 56013 60071 72360
AAXX 01184 47582 11/56 81004 10020 20010 30090 40117 57007 60071 78082 883//
AAXX 01184 47590 12/75 13107 10004 21023 30052 40107 58022 60001 81500
AAXX 01184 47600 17/50 /0303 10034 20022 30110 40118 56008 60101 76166
AAXX 01184 47648 12965 71003 10053 20003 30057 40092 58030 60001 87030
AAXX 01184 47662 12/70 23603 10035 21054 30053 40098 56026 60001 81130
AAXX 01184 47678 17/70 /1703 10107 20093 39908 40095 58029 69951 72360
AAXX 01184 47740 17/15 /3406 10013 20006 30108 40143 53014 60111 78586
AAXX 01184 47778 17/69 /3107 10093 20037 30028 40112 56023 69951 70060
AAXX 01184 47807 11/70 73214 10040 21066 30203 40222 51018 69901 70282 872//
AAXX 01184 47827 11/75 63316 10073 21027 30164 40203 53010 69901 70182 86200
AAXX 01184 47843 15/80 /3409 10050 21038 30202 40236 53007 60001
AAXX 01184 47893 11/65 62908 10073 21004 30137 40143 56008 69901 78082 86200
AAXX 01184 47909 11/65 73610 10152 20080 30188 40198 58004 69901 78082 872//
AAXX 01184 47918 11/60 40207 10148 20078 30195 40213 57015 69901 70261 84800
AAXX 01184 47936 12/60 43610 10166 20053 30146 40206 56013 60001 84800
AAXX 01184 47945 11/60 23512 10177 20091 30154 40179 56009 69901 70261 82800
AAXX 01184 47971 11/65 81809 10208 20135 30106 40116 55020 69901 78082 8627/
AAXX 01184 47991 16/// /1804 10226 20211 30120 40130 56017 60061
AAXX 01184 47407 11/30 83103 11039 21048 39948 40126 56021 60031 78588 883//
AAXX 01184 47409 11/20 80706 11002 21008 30072 40127 58028 69951 78582 883//
AAXX 01184 47418 11/50 80907 10009 20001 30067 40117 57034 60081 78488 887//
AAXX 01184 47421 17/70 /2903 10009 21005 30066 40110 56013 69901 72360
AAXX 01184 47430 11/65 73203 10006 21001 30044 40099 55003 60031 70282 872//
AAXX 01184 47570 17/01 /2301 11060 21069 39855 40127 56022 60001 73430
AAXX 01184 47575 12/60 72207 10035 20002 30094 40099 57001 60001 8123/
AAXX 01184 47584 11/56 70102 11013 21013 39923 40118 56015 69901 71082 872//
AAXX 01184 47604 12960 70302 10018 20000 30101 40110 56016 69951 872//
AAXX 01184 47605 11/56 82409 10046 20031 30073 40115 56010 60161 78098 882//
AAXX 01184 47610 12/65 13201 11026 21041 39601 40120 56020 60001 81100
AAXX 01184 47624 12/80 13304 10007 21049 39956 40099 56029 60001 81500
AAXX 01184 47629 12965 03303 11009 21020 30058 40098 56027 60001
AAXX 01184 47636 11/65 83504 10035 20006 30051 40121 58016 69901 78011 882//
AAXX 01184 47651 13/// /3603 10046 20008 30096 40119 58017 69901
AAXX 01184 47655 17/70 /2807 10063 21002 30045 40102 56024 69901 76760
AAXX 01184 47675 15/70 /2410 10107 20018 30002 40093 56030 60001
AAXX 01184 47741 11/62 82615 10038 20017 30120 40148 53004 60161 72588 882//
AAXX 01184 47746 11/60 82806 10040 20016 30115 40135 53005 69901 78082 882//
AAXX 01184 47750 11/75 62504 10039 20018 30091 40119 56013 69901 78082 86200
AAXX 01184 47765 11/75 23008 10037 21066 30105 40172 53019 69901 70182 82200
AAXX 01184 47772 11/65 72603 10080 20020 30020 40121 56014 69901 70381 872//
AAXX 01184 47800 15/72 /3209 10022 21057 30222 40227 50009 60001
AAXX 01184 47815 11/60 73011 10055 21084 30179 40196 53021 69901 70282 87200
AAXX 01184 47817 11/80 63106 10047 21048 30179 40224 52011 69901 70381 86200
AAXX 01184 47830 11/59 12612 10069 21023 30153 40172 56003 60001 70522 81530
AAXX 01184 47887 11/65 82909 10049 21031 30136 40179 53012 60021 72582 882//
AAXX 01184 47891 11/60 83010 10070 21002 30118 40135 55005 69901 72582 882//
AAXX 01184 47895 11/70 72809 10080 21018 30123 40131 55011 69901 72511 872//
AAXX 01184 47927 12/60 40209 10161 20071 30169 40219 58009 60001 84800
AAXX 01184 41265 36/// /9902 10188 20108 39649 40202 333 0E021 10256 59010
AAXX 01184 41315 36/// /2104 10171 20088 39187 42824 333 0E/// 10218 59011
AAXX 01184 40100 11556 81705 10123 20110 30119 40151 51006 60281 79596 889// 918// 333 10182 81920 87826 92436
AAXX 01184 40101 11540 82105 10059 20049 39079 48475 53011 60171 76366 889// 918// 333 10087 81923 87826
AAXX 01184 40103 31550 72208 10134 20086 40144 52009 72162 87800 333 10161 84824 85640 555 10183
AAXX 01184 40102 NIL
AAXX 01181 40703 12660 70000 10008 21018 38903 40196 53003 60001 82506 333 55052 82640 87267
AAXX 01181 40712 11640 32402 11014 21016 38661 40196 53001 60001 71021 82502 333 55020 82635
AAXX 01181 40729 11560 70000 10008 20003 38320 40187 51002 69901 70282 87630 333 55000 20358 84720 84635
AAXX 01181 40736 12960 80000 10104 20088 30171 40145 57004 60001 8801/ 333 55059 88459
AAXX 01181 40739 12665 50000 10026 21056 38669 40185 56003 60001 85500 333 55075 85635
AAXX 01181 40743 11562 60603 10046 21029 39054 40186 50000 69901 72510 86300 333 55080 81930 85635
AAXX 01181 40762 12665 53202 10008 21093 38542 40186 56003 60001 82530 333 55063 82640 85359
AAXX 01181 40768 12560 60000 10021 21006 38245 40186 52001 60001 85370 333 55027 20544 81725 82935 83640
AAXX 01181 40769 12660 30000 10036 21025 38285 40161 50003 60001 82530 333 20600 55014 82635
AAXX 01181 40785 12960 20000 10032 20007 39077 40194 53003 60001 82030 333 55007 82360
AAXX 01181 40809 42662 50000 10056 21156 38496 40177 50000 60001 82570 333 55038 21344 82635 85459
AAXX 01181 40821 12660 70000 10098 21035 38774 40161 50001 60001 81478 333 55045 20858 86360 85270
AAXX 01181 40831 12960 01502 10174 20150 30148 40156 52017 60001 333 55025
AAXX 01181 40716 11640 60000 10030 20025 38902 40183 53004 69981 71062 81570 333 55000 81640 85359
AAXX 01181 40719 11540 50000 10072 20072 30161 40150 54000 60001 71022 81550 333 55020 81625 84358
AAXX 01181 40721 12960 40000 10064 21008 39616 40164 56001 60001 84030 333 55040 84360
AAXX 01181 40858 12960 21807 10200 20134 30150 40161 51003 60001 83030 333 55075 82359
AAXX 01181 40872 12660 61406 10216 20133 30166 40171 52006 60001 82570 222// 00/// 20301 333 55086 82640 86360
AAXX 01181 40877 12960 00000 10112 21004 39608 40160 52008 60001 333 55096
AAXX 01181 40898 12960 00000 10174 20054 30162 40171 50001 60001 222// 00234 10600 333 55094 2////
AAXX 01181 08501 NIL
AAXX 01181 08505 32570 22904 10168 20085 30275 40325 52009 81802 333 10184 81820
AAXX 01181 08509 32560 33104 10162 20117 30261 40326 53011 83800 333 10176 83825
AAXX 01181 08512 32/// /0103 10163 20104 30234 40320 52010 333 10187 91107
AAXX 01181 08515 32480 73102 10172 20138 30201 40326 52010 878// 333 10190 83818 86646 910// 911//
AAXX 01181 08533 32/// /3103 10147 20101 30274 40304 52011 333 10164 91106
AAXX 01181 08541 32/// /2503 10135 20081 30176 40296 52004 333 10155 91105
AAXX 01181 08545 11240 81906 10127 20112 30166 40249 57007 60012 76162 887// 333 10141 84704 85705 91010 91111 96010
AAXX 01181 08548 32/// /2103 10124 20082 30068 40274 54000 333 10135 91106
AAXX 01181 08554 31570 23302 10141 20086 30290 40300 53013 70300 81800 333 10179 81828
AAXX 01181 08558 32/// /2302 10107 20089 39993 40291 52005 333 10130
AAXX 01181 08560 32/// /2104 10077 20068 39503 40271 57002 333 10108 91007 91107
AAXX 01181 08567 32/// /2207 10100 20064 39584 40252 57005 333 10118 91011 91111
AAXX 01181 08570 32/// /2403 10101 20076 39815 40279 52005 333 10124 91005 91106
AAXX 01181 08575 32/// /1801 10088 20054 39431 40247 57005 333 10104 91105
AAXX 01181 08579 32/// /2402 10139 20088 30162 40287 52004 333 10151 91005 91107
BBXX FLAO 0118/ 99764 70847 46/// ///// 11313 40110 52008
BBXX MINUK01 0118/ 99571 70021 46/// ///// 10055 49886 57001
AAXX 01181 40703 12660 70000 10008 21018 38903 40196 53003 60001 82506 333 55052 82640 87267
AAXX 01181 40712 11640 32402 11014 21016 38661 40196 53001 60001 71021 82502 333 55020 82635
AAXX 01181 40729 11560 70000 10008 20003 38320 40187 51002 69901 70282 87630 333 55000 20358 84720 84635
AAXX 01181 40736 12960 80000 10104 20088 30171 40145 57004 60001 8801/ 333 55059 88459
AAXX 01181 40739 12665 50000 10026 21056 38669 40185 56003 60001 85500 333 55075 85635
AAXX 01181 40743 11562 60603 10046 21029 39054 40186 50000 69901 72510 86300 333 55080 81930 85635
AAXX 01181 40762 12665 53202 10008 21093 38542 40186 56003 60001 82530 333 55063 82640 85359
AAXX 01181 40768 12560 60000 10021 21006 38245 40186 52001 60001 85370 333 55027 20544 81725 82935 83640
AAXX 01181 40769 12660 30000 10036 21025 38285 40161 50003 60001 82530 333 20600 55014 82635
AAXX 01181 40785 12960 20000 10032 20007 39077 40194 53003 60001 82030 333 55007 82360
AAXX 01181 40809 42662 50000 10056 21156 38496 40177 50000 60001 82570 333 55038 21344 82635 85459
AAXX 01181 40821 12660 70000 10098 21035 38774 40161 50001 60001 81478 333 55045 20858 86360 85270
AAXX 01181 40831 12960 01502 10174 20150 30148 40156 52017 60001 333 55025
AAXX 01181 01271 17/84 41104 10035 21033 39873 49894 52001 69902 700// 333 10037 47001 91107
AAXX 01181 01415 17462 82005 10074 20047 39907 49918 55000 6//// 700// 333 10088 91113
AAXX 01181 28676 129// 01401 11202 21218 30197 40336 57010 69900 333 11110
AAXX 01181 28766 119// 21602 11176 21201 30124 40330 57007 69930 71011 80001 333 11101
AAXX 01181 28867 NIL
AAXX 01181 28879 329// 01202 11121 21158 30035 40340 57005 333 11068
AAXX 01181 28952 NIL
AAXX 01181 28966 129// 21602 11138 21178 30024 40327 57010 69900 80001 333 11123
AAXX 01181 29802 NIL
AAXX 01181 29807 NIL
AAXX 01181 34691 32998 80501 11008 21026 30198 40185 53006 8807/ 333 10017
AAXX 01181 35067 129// 30601 11191 21209 30029 40330 57015 69900 80001 333 11106
AAXX 01181 35078 129// 00803 11211 21234 39944 40360 57012 69900 333 11147
AAXX 01181 35085 31/// 90000 11214 21235 39849 40372 57016 74941 333 11141
AAXX 01181 35108 115// 71201 11046 21070 30160 40207 57006 69900 70272 87500 333 11029
AAXX 01181 35188 119// 00401 11130 21154 39890 40352 57016 69900 71000 333 11098
AAXX 01181 35217 129// 80000 11056 21067 30160 40202 57006 69900 8802/ 333 11042
AAXX 01181 35229 329// 51001 11128 21152 39939 40227 57011 85070 333 11082
AAXX 01181 35302 129// 81103 11042 21069 30178 40198 57002 69900 8802/ 333 11026
AAXX 01181 35357 329// 01802 11226 21251 39861 40341 57020 333 11150
AAXX 01181 35394 32998 00503 11120 21196 39628 40343 57020 333 11079
AAXX 01181 35406 NIL
AAXX 01181 35416 32697 81103 11068 21088 30072 40196 58006 885// 333 11051
AAXX 01181 35426 329// 50903 11124 21144 39913 40220 57006 80005 333 11073
AAXX 01181 35497 329// 00501 11039 21179 39495 40310 57018 333 11057
AAXX 01181 35532 31998 71012 11120 21155 39706 40221 57006 73733 80003 333 11094 91016
AAXX 01181 35671 32998 00603 11116 21163 39851 40304 57019 333 11084
AAXX 01181 35700 32598 70601 11027 21050 30200 40176 58004 87500 333 11007
AAXX 01181 35746 NIL
AAXX 01181 35796 31997 00408 11110 21171 39852 40309 57020 73633 333 11110
AAXX 01181 35849 NIL
AAXX 01181 35925 319// 71103 11069 21078 40177 57003 71022 80005 333 11017
AAXX 01181 35953 NIL
AAXX 01181 35969 NIL
AAXX 01181 36003 NIL
AAXX 01181 36152 329// 01402 11204 21248 30180 40387 57015 333 11114
AAXX 01181 36177 329// 01201 11170 21180 30132 40399 57013 333 11096
AAXX 01181 36208 329// 00902 11162 21193 39380 40434 57002 333 11070
AAXX 01181 36397 329// 01402 11120 21160 39797 40391 57013 333 11076
AAXX 01181 36428 329// 00000 11250 21274 39885 40443 57016 333 11140 95090
AAXX 01181 36535 319// 00000 11250 21267 39748 40454 57016 74840 333 11106
AAXX 01181 36639 329// 01301 11202 21225 39683 40340 57012 333 11092
AAXX 01181 36821 329// 00000 11157 21181 39763 40285 57012 333 11076
AAXX 01181 36859 329// 00201 11105 21125 39462 40280 57013 333 11008
AAXX 01181 36864 329// 00000 11143 21163 39337 40287 57012 333 11025
AAXX 01181 36870 329// 00000 11085 21096 39202 40253 57014 333 11017
AAXX 01181 38001 32997 80502 10006 21017 30208 40178 52003 8807/ 333 10016
AAXX 01181 38062 NIL
AAXX 01181 38069 NIL
AAXX 01181 38196 NIL
AAXX 01181 38198 NIL
AAXX 01181 38222 32997 81603 11120 21155 39677 40269 58008 8807/ 333 11044
AAXX 01181 38232 32598 83201 10006 21024 30065 40165 58002 885// 333 10027
AAXX 01181 38328 NIL
AAXX 01181 38334 NIL
AAXX 01181 38341 11996 00000 11163 21182 39426 40272 57015 69900 71040 333 11077
AAXX 01181 38343 31/92 90000 11169 21181 39368 40277 57018 74944 333 11085
AAXX 01181 38439 NIL
AAXX 01181 28676 129// 01401 11202 21218 30197 40336 57010 69900 333 11110
AAXX 01181 28766 119// 21602 11176 21201 30124 40330 57007 69930 71011 80001 333 11101
AAXX 01181 28867 NIL
AAXX 01181 28879 329// 01202 11121 21158 30035 40340 57005 333 11068
AAXX 01181 28952 NIL
AAXX 01181 28966 129// 21602 11138 21178 30024 40327 57010 69900 80001 333 11123
AAXX 01181 29802 NIL
AAXX 01181 29807 NIL
AAXX 01181 34691 32998 80501 11008 21026 30198 40185 53006 8807/ 333 10017
AAXX 01181 35067 129// 30601 11191 21209 30029 40330 57015 69900 80001 333 11106
AAXX 01181 35078 129// 00803 11211 21234 39944 40360 57012 69900 333 11147
AAXX 01181 35085 31/// 90000 11214 21235 39849 40372 57016 74941 333 11141
AAXX 01181 35108 115// 71201 11046 21070 30160 40207 57006 69900 70272 87500 333 11029
AAXX 01181 35188 119// 00401 11130 21154 39890 40352 57016 69900 71000 333 11098
AAXX 01181 35217 129// 80000 11056 21067 30160 40202 57006 69900 8802/ 333 11042
AAXX 01181 35229 329// 51001 11128 21152 39939 40227 57011 85070 333 11082
AAXX 01181 35302 129// 81103 11042 21069 30178 40198 57002 69900 8802/ 333 11026
AAXX 01181 35357 329// 01802 11226 21251 39861 40341 57020 333 11150
AAXX 01181 35394 32998 00503 11120 21196 39628 40343 57020 333 11079
AAXX 01181 35406 NIL
AAXX 01181 35416 32697 81103 11068 21088 30072 40196 58006 885// 333 11051
AAXX 01181 35426 329// 50903 11124 21144 39913 40220 57006 80005 333 11073
AAXX 01181 35497 329// 00501 11039 21179 39495 40310 57018 333 11057
AAXX 01181 35532 31998 71012 11120 21155 39706 40221 57006 73733 80003 333 11094 91016
AAXX 01181 35671 32998 00603 11116 21163 39851 40304 57019 333 11084
AAXX 01181 35700 32598 70601 11027 21050 30200 40176 58004 87500 333 11007
AAXX 01181 35746 NIL
AAXX 01181 35796 31997 00408 11110 21171 39852 40309 57020 73633 333 11110
AAXX 01181 35849 NIL
AAXX 01181 35925 319// 71103 11069 21078 40177 57003 71022 80005 333 11017
AAXX 01181 35953 NIL
AAXX 01181 35969 NIL
AAXX 01181 36003 NIL
AAXX 01181 36152 329// 01402 11204 21248 30180 40387 57015 333 11114
AAXX 01181 36177 329// 01201 11170 21180 30132 40399 57013 333 11096
AAXX 01181 36208 329// 00902 11162 21193 39380 40434 57002 333 11070
AAXX 01181 36397 329// 01402 11120 21160 39797 40391 57013 333 11076
AAXX 01181 36428 329// 00000 11250 21274 39885 40443 57016 333 11140 95090
AAXX 01181 36535 319// 00000 11250 21267 39748 40454 57016 74840 333 11106
AAXX 01181 36639 329// 01301 11202 21225 39683 40340 57012 333 11092
AAXX 01181 36821 329// 00000 11157 21181 39763 40285 57012 333 11076
AAXX 01181 36859 329// 00201 11105 21125 39462 40280 57013 333 11008
AAXX 01181 36864 329// 00000 11143 21163 39337 40287 57012 333 11025
AAXX 01181 36870 329// 00000 11085 21096 39202 40253 57014 333 11017
AAXX 01181 38001 32997 80502 10006 21017 30208 40178 52003 8807/ 333 10016
AAXX 01181 38062 NIL
AAXX 01181 38069 NIL
AAXX 01181 38196 NIL
AAXX 01181 38198 NIL
AAXX 01181 38222 32997 81603 11120 21155 39677 40269 58008 8807/ 333 11044
AAXX 01181 38232 32598 83201 10006 21024 30065 40165 58002 885// 333 10027
AAXX 01181 38328 NIL
AAXX 01181 38334 NIL
AAXX 01181 38341 11996 00000 11163 21182 39426 40272 57015 69900 71040 333 11077
AAXX 01181 38343 31/92 90000 11169 21181 39368 40277 57018 74944 333 11085
AAXX 01181 38439 NIL
AAXX 01184 70133 32966 00704 11344 30156 40161 56015 91753 333 11339 21361 555 90118
AAXX 01184 70174 12966 20000 11411 39908 40183 58014 69901 91753 333 11350 21411 4/076 555 90118
AAXX 01184 70200 32566 40000 11339 21367 30120 40126 58016 91753 333 11317 21361 555 90118
AAXX 01184 70219 11516 80318 11294 21328 39969 40028 56025 69931 771// 91753 333 11283 21344 4/005 96038 555 90118
AAXX 01184 70231 32966 00000 11467 39998 40146 58030 91753 333 11439 21472 4/097 555 90118
AAXX 01184 70261 11959 20000 11406 39968 40160 56025 69931 710// 91753 333 11344 21411 555 90118
AAXX 01184 70267 32866 20000 11361 21380 39622 40171 56023 91753 333 11322 21361 555 90118
AAXX 01184 70271 12866 80000 11217 21244 39435 40064 58034 69901 91753 333 11217 21283 4/010 555 90118
AAXX 01184 70273 12266 4//05 11200 21228 39997 40057 58037 69901 91753 333 11172 21206 4/071 555 90118
AAXX 01184 70316 12666 22413 11039 21061 39962 49997 56010 69901 91753 333 11017 21139 555 90118
AAXX 01184 70326 32966 63407 11244 21278 30018 40034 56039 91754 333 11222 21350 555 90118
AAXX 01184 70340 32966 00110 11272 21322 39999 40068 58040 91753 333 11272 21300 555 90118
AAXX 01184 70350 32566 22916 11089 21150 39969 40011 57034 91753 333 11089 21189 91021 555 90118
AAXX 01184 70361 11212 /0714 10000 21011 39901 49912 56052 60031 771// 91753 333 10006 21072 4/074 91024 96010 555 90118
AAXX 01184 70381 11532 81320 11006 21022 30004 40012 58038 69931 771// 91753 333 10006 21028 4/020 91027 96038 96010 555 90118
AAXX 01184 70414 35566 43316 11033 21083 30038 40075 53003 91756 333 11028 21050 555 90118
AAXX 01183 87007 11459 71405 10113 20080 36757 47165 56009 69901 75051 83720 333 56770 83718 84545
AAXX 01183 87148 32570 11813 10334 20166 39976 40081 58017 81100 333 56500 81825
AAXX 01184 78526 32666 40815 10278 20206 30156 40179 58026 91756 333 10289 20239 555 90118
AAXX 01184 78543 32966 00614 10283 20194 30098 40178 56026 91753 333 10283 20239 555 90118
AAXX 01180 44210 32999 00000 11265 21290 38660 56003
AAXX 01180 44216 32999 03203 11341 21364 39208 40683 51004
AAXX 01180 44217 32998 00000 11283 21300 37940 40636 51005
AAXX 01180 44219 329// 01402 11317 21341 38773 40652 52020
AAXX 01180 44221 329// 70000 11334 21356 38743 40663 58004 87050
AAXX 01180 44224 329// 70000 11380 21409 38176 40764 54000 87010
AAXX 01180 44229 32999 63202 11219 21251 38008 40536 51003 86040
AAXX 01180 44242 329// 60000 11261 21285 39452 40484 54000 86050
AAXX 01180 44243 329// 20000 11294 21326 39547 40498 58004 82030
AAXX 01180 44254 329// 03201 11175 21204 39071 40332 54000
AAXX 01180 44257 329// 03205 11155 21212 39015 40363 57002
AAXX 01180 44263 32998 00000 11258 21304 38166 40638 57003
AAXX 01180 44266 329// 03601 11221 21261 37848 40540 53003
AAXX 01180 44286 419// 22708 11192 21228 38736 40469 50001 70173 82020
AAXX 01180 44291 326// 31603 11235 21258 38820 40496 58004 83500
AAXX 01180 44325 329// 00903 11196 21229 38961 40479 52004
AAXX 01180 44329 NIL
AAXX 01180 44338 32999 10000 11234 21259 38553 40486 52001 80004
AAXX 01180 44348 329// 23207 11194 21200 38748 40403 51019 82040
AAXX 01180 44374 32999 32903 11178 21194 38337 40499 51001 83010
AAXX 01180 44385 31999 02704 11151 21193 39016 40433 51006 70232
AAXX 01180 44386 329// 03208 11170 21204 39108 40377 52012
AAXX 01181 30372 41998 80000 11285 21310 39427 40402 58001 77172 84017
AAXX 01181 30433 42999 23502 11192 21211 39739 40384 52007 80001
AAXX 01181 30554 419// 80000 11213 21225 39177 40359 54000 70272 8801/
AAXX 01181 30635 428// 81301 11206 21218 39761 40385 52009 83031
AAXX 01181 30673 42999 00000 11331 21336 39498 40375 57001
AAXX 01181 30692 42997 00202 11336 21353 39781 40349 57///
AAXX 01181 30758 41920 80000 11219 21245 39447 40339 54000 77177 8807/
AAXX 01181 30802 42799 33401 11162 21222 38818 48581 52003 81501
AAXX 01181 30823 41698 82503 11119 21154 39702 40372 52002 78582 86901
AAXX 01181 30879 42999 80000 11274 21292 39518 40367 57003 80007
AAXX 01181 30935 41697 82701 11176 21195 39392 40400 52002 71522 85941
AAXX 01181 30949 42699 20000 11190 21216 39165 40342 58005 82500
AAXX 01181 30965 419// 83101 11194 21213 39425 40315 57008 77172 8807/
AAXX 01181 31168 42999 00502 11226 21232 30215 40227 57002
AAXX 01181 31300 41910 00000 11304 21315 39991 40318 53002 71000
AAXX 01181 31329 42999 00000 11358 21386 39587 40360 54000
AAXX 01181 31369 42998 82701 11224 21236 30145 40236 57007 8802/
AAXX 01181 31416 42998 00000 11361 21372 30172 40276 54000
AAXX 01181 31484 NIL
AAXX 01181 31512 419// 00000 11265 21290 30128 40315 53002 71000
AAXX 01181 31538 42998 00000 11338 21362 39836 40334 57002
AAXX 01181 31707 42998 50000 11242 21267 30200 40303 53001 80001
AAXX 01181 31735 42997 01301 11286 21320 30190 40290 51003
AAXX 01181 31770 42963 60000 11213 21246 30196 40229 57003 80001
AAXX 01184 88897 46/// /2413 10115 20079 40054 52011
AAXX 01184 87022 32960 00000 10326 20208 39575 40068 56019
AAXX 01184 87046 32565 20903 10312 20155 39100 48498 57019 81250 333 56000 57897 81830 94080 94489 98365
AAXX 01184 87047 NIL
AAXX 01184 87097 32570 31809 10331 20184 39748 40051 57019 83100 333 56000 83830
AAXX 01184 87121 32665 10506 10326 20196 39598 40095 57016 81100 333 56800 81840
AAXX 01184 87129 32965 00903 10365 20135 39879 40103 57024
AAXX 01184 87155 32565 21605 10305 20157 30036 40096 57011 82100 333 56400 82830
AAXX 01184 87162 32570 31814 10314 20173 30010 40078 57013 83500 333 56500 83625
AAXX 01184 87166 32560 41614 10291 20160 30022 40093 57011 84500 333 56500 84625
AAXX 01184 87178 32670 51808 10295 20143 39925 40067 56013 85200 333 56000 57803 85840
AAXX 01184 87217 32770 21406 10388 20239 39598 40066 57022 82200 333 56600 82850
AAXX 01184 87222 42770 52308 10387 20119 39557 40053 57023 85200 333 56500 57897 85856
AAXX 01184 87257 NIL
AAXX 01184 87270 32565 41612 10301 20173 30054 40116 57009 84100 333 56300 84825
AAXX 01184 87289 32462 71814 10264 20176 30026 40107 57009 84870 333 56460 83620 86360
AAXX 01184 87311 32765 21810 10394 20156 39432 40075 57013 82100 333 56200 82850
AAXX 01184 87320 32570 20905 10371 20187 39589 40095 57011 82900 333 56700 57973 81830 81935
AAXX 01184 87328 32780 12306 10349 20131 39473 40098 57021 81200 333 56000 57810 81850 95000
AAXX 01181 20107 11597 71007 11002 21045 39884 49978 57021 69902 73683 84930 333 11002 91011 91113
AAXX 01181 22003 NIL
AAXX 01181 22004 NIL
AAXX 01181 22100 NIL
AAXX 01181 22140 NIL
AAXX 01181 22113 11584 71906 11015 21052 30094 40158 52004 69902 72682 87930 333 11010 85920 91011 91111
AAXX 01181 22212 11674 71101 11041 21046 39983 40151 51004 69902 70282 83531 333 11030 91001
AAXX 01181 22213 NIL
AAXX 01181 22217 11460 82701 11023 21029 30115 40147 52008 69902 78582 889// 333 11013 85620 91001
AAXX 01181 22235 11464 81002 11028 21032 39968 40166 52012 60012 78582 889// 333 11023 88912 91003
AAXX 01181 22249 11484 80802 11031 21038 39982 40174 52018 69952 70282 886// 333 11012 91003
AAXX 01181 22312 11430 82201 11020 21023 30131 40153 52008 69922 78582 889// 333 11015 91002
AAXX 01181 22334 11484 81605 11025 21041 30152 40159 52008 69922 70282 885// 333 10001 91006
AAXX 01181 22349 11598 82703 11015 21026 30149 40161 52013 69982 70282 889// 333 10005 91004
AAXX 01181 22408 11459 80000 11121 21134 30016 40175 52007 69902 78582 8633/ 333 11054 86911 93402
AAXX 01181 22602 32474 60000 11147 21160 39924 40165 50000 86500 333 11082 86612
AAXX 01181 22619 32382 80901 11063 21067 30007 40174 52013 886// 333 11061 88709
AAXX 01181 22721 32998 82901 11045 21051 30067 40171 52007 887// 333 11033 85708 93700
AAXX 01181 22802 32984 73101 11043 21045 30138 40162 51007 84011 333 11034
AAXX 01181 22820 11378 80902 11010 21010 30018 40158 52012 69952 70287 885// 333 11008 88608
AAXX 01181 26059 11496 61501 11053 21056 30128 40154 52010 69902 71081 86600 333 11021 86711
AAXX 01181 26063 32997 70000 11029 21039 30146 40154 52008 87030 333 11014
AAXX 01181 26094 11566 80601 11016 21018 30068 40145 52008 69922 70272 885// 333 11008 88626 93704
AAXX 01181 26157 11497 71402 11025 21031 30095 40146 52006 69942 70282 875// 333 11018 87617
AAXX 01181 26167 31340 81901 11045 21051 30041 40157 52008 71022 886// 333 11041 88706
AAXX 01181 26258 12598 70000 11025 21034 30096 40152 52007 84530 333 11016
AAXX 01181 26298 11496 83401 11012 21016 39911 40145 52011 69982 77772 886// 333 11006
AAXX 01181 26359 32478 80000 11033 21041 30032 40170 52017 889// 333 11020 93711
AAXX 01181 26702 11596 71602 10001 21008 30076 40103 57013 60032 72262 87500 333 10004 91004 91106
AAXX 01181 26781 11497 63103 11039 21059 39864 40167 52010 69962 70271 86500 333 11007 86616
AAXX 01181 27208 11595 80000 11012 21014 39961 40141 52011 60012 77172 8802/ 333 11006
AAXX 01181 27402 11194 80000 11022 21025 39964 40148 52013 69932 71074 886// 333 11010 88703
AAXX 01181 22028 11579 71412 11014 21037 30137 40176 51003 69902 78583 86930 333 10002 91015 91116
AAXX 01181 22106 11497 80701 11027 21040 30065 40145 52006 69902 78582 889// 333 11026 84637 84916 91002
AAXX 01181 22127 11496 81103 11030 21043 39961 40166 51006 60012 78582 889// 333 11023 86915 91004
AAXX 01181 22324 11426 81301 11011 21012 30106 40156 52014 60022 78682 889// 333 11011 91002
AAXX 01181 22621 31295 82901 11090 21097 30039 40186 52011 71022 886// 333 11059 88704
AAXX 01181 22831 12997 60000 11024 21030 30102 40163 52008 69902 86030 333 11008
AAXX 01181 22892 32998 00000 11047 21056 30131 40148 52009 333 11024
AAXX 01181 26275 12298 82402 11043 21052 30126 40158 52011 69952 886// 333 11011 88706
AAXX 01181 26389 11496 83402 11024 21036 39880 40151 52013 60022 71072 886// 333 11007
AAXX 01181 26499 31295 81501 11031 21035 39919 40154 52013 71042 886// 333 11031 88704
AAXX 01181 26695 11296 82101 11015 21023 39839 40153 52011 71022 886// 333 11003 88706
AAXX 01181 26882 11584 73104 11026 21053 39879 40161 52011 60012 70272 87500 333 11003 87626
AAXX 01184 03896 16/// ///// 10109 60102 333 10121
AAXX 01181 28676 129// 01401 11202 21218 30197 40336 57010 69900 333 11110
AAXX 01181 28766 119// 21602 11176 21201 30124 40330 57007 69930 71011 80001 333 11101
AAXX 01181 28867 NIL
AAXX 01181 28879 329// 01202 11121 21158 30035 40340 57005 333 11068
AAXX 01181 28952 NIL
AAXX 01181 28966 129// 21602 11138 21178 30024 40327 57010 69900 80001 333 11123
AAXX 01181 29802 NIL
AAXX 01181 29807 NIL
AAXX 01181 34691 32998 80501 11008 21026 30198 40185 53006 8807/ 333 10017
AAXX 01181 35067 129// 30601 11191 21209 30029 40330 57015 69900 80001 333 11106
AAXX 01181 35078 129// 00803 11211 21234 39944 40360 57012 69900 333 11147
AAXX 01181 35085 31/// 90000 11214 21235 39849 40372 57016 74941 333 11141
AAXX 01181 35108 115// 71201 11046 21070 30160 40207 57006 69900 70272 87500 333 11029
AAXX 01181 35188 119// 00401 11130 21154 39890 40352 57016 69900 71000 333 11098
AAXX 01181 35217 129// 80000 11056 21067 30160 40202 57006 69900 8802/ 333 11042
AAXX 01181 35229 329// 51001 11128 21152 39939 40227 57011 85070 333 11082
AAXX 01181 35302 129// 81103 11042 21069 30178 40198 57002 69900 8802/ 333 11026
AAXX 01181 35357 329// 01802 11226 21251 39861 40341 57020 333 11150
AAXX 01181 35394 32998 00503 11120 21196 39628 40343 57020 333 11079
AAXX 01181 35406 NIL
AAXX 01181 35416 32697 81103 11068 21088 30072 40196 58006 885// 333 11051
AAXX 01181 35426 329// 50903 11124 21144 39913 40220 57006 80005 333 11073
AAXX 01181 35497 329// 00501 11039 21179 39495 40310 57018 333 11057
AAXX 01181 35532 31998 71012 11120 21155 39706 40221 57006 73733 80003 333 11094 91016
AAXX 01181 35671 32998 00603 11116 21163 39851 40304 57019 333 11084
AAXX 01181 35700 32598 70601 11027 21050 30200 40176 58004 87500 333 11007
AAXX 01181 35746 NIL
AAXX 01181 35796 31997 00408 11110 21171 39852 40309 57020 73633 333 11110
AAXX 01181 35849 NIL
AAXX 01181 35925 319// 71103 11069 21078 40177 57003 71022 80005 333 11017
AAXX 01181 35953 NIL
AAXX 01181 35969 NIL
AAXX 01181 36003 NIL
AAXX 01181 36152 NIL
AAXX 01181 36177 NIL
AAXX 01181 36208 NIL
AAXX 01181 36397 NIL
AAXX 01181 36428 NIL
AAXX 01181 36535 NIL
AAXX 01181 36639 NIL
AAXX 01181 36821 329// 00000 11157 21181 39763 40285 57012 333 11076
AAXX 01181 36859 329// 00201 11105 21125 39462 40280 57013 333 11008
AAXX 01181 36864 329// 00000 11143 21163 39337 40287 57012 333 11025
AAXX 01181 36870 329// 00000 11085 21096 39202 40253 57014 333 11017
AAXX 01181 38001 32997 80502 10006 21017 30208 40178 52003 8807/ 333 10016
AAXX 01181 38062 NIL
AAXX 01181 38069 NIL
AAXX 01181 38196 NIL
AAXX 01181 38198 NIL
AAXX 01181 38222 32997 81603 11120 21155 39677 40269 58008 8807/ 333 11044
AAXX 01181 38232 32598 83201 10006 21024 30065 40165 58002 885// 333 10027
AAXX 01181 38328 NIL
AAXX 01181 38334 NIL
AAXX 01181 38341 11996 00000 11163 21182 39426 40272 57015 69900 71040 333 11077
AAXX 01181 38343 31/92 90000 11169 21181 39368 40277 57018 74944 333 11085
AAXX 01181 38439 NIL
BBXX C6XC2 01184 99362 11247 41497 83419 11010 21040 40280 54000 70222 8897/ 22212 00090 2//// 3//// 4//// 5//// 6//// 80020 ICE /////
BBXX KEY796 01183 99571 71703 41/96 80121 11089 21106 40000 53/// 771// 8//// 222// 01011 2//// 3//// 4//// 5//// 6//// 8//// ICE /////
BBXX VRHO2 01184 99416 11424 41697 62519 10070 20026 40090 54000 78062 84939 22225 00090 20401 333// 40804 50000 6//// 80050 ICE 0////
BBXX V7HC6 01184 99273 70907 41798 41907 10240 20226 40243 56018 70200 8419/ 22200 00234 20201 319// 40601 5//// 6//// 80230 ICE /////
BBXX WXJ63 01183 99611 71464 41/97 83003 11067 21098 49957 5//// 702// 8//// 222// 00039 2//// 3//// 4//// 5//// 6//// 8//// ICE /////
BBXX WYP8657 01184 99477 70903 41/97 73322 11022 2//// 40054 5//// 70322 87/// 22263 00033 20201 3//// 4//// 5//// 6//// 8//// ICE /////
BBXX WKPY 01184 99421 70575 41/97 82845 10130 20112 49990 53030 76262 88/// 22264 00172 20706 328// 40809 5//// 6//// 80120 ICE /////
BBXX WZJC 01184 99229 70790 41398 80415 10256 2022/ 40205 57010 70222 887// 22263 00256 20402 3//// 4//// 5//// 6//// 80233 ICE /////
AAXX 01181 22271 11596 80911 11051 21076 30183 40193 52014 69930 73833 885// 333 11031
AAXX 01181 22520 11496 82202 11089 21104 30167 40177 52013 69902 77172 8802/ 333 11030 88518
AAXX 01181 22550 31902 31201 11111 21124 30183 40194 52014 74841 80001 333 11008
AAXX 01181 22583 NIL
AAXX 01181 22768 11497 70402 11037 21042 30125 40182 52011 60010 70172 86530 333 11003 86612
AAXX 01181 22845 32998 20401 11062 21070 30016 40178 52009 80001 333 11004
AAXX 01181 22887 11397 71202 11019 21030 30124 40195 52011 69900 71082 8665/ 333 11005 86707 91104
AAXX 01181 23205 NIL
AAXX 01181 23219 11498 80206 11096 21112 30092 40203 52014 60022 73673 886// 333 11010
AAXX 01181 23418 11358 81702 11030 21040 30119 40195 52013 69940 77172 8672/ 333 11010 86707
AAXX 01181 23606 12260 81901 11030 21034 30026 40202 52011 69900 886// 333 11020 88704
AAXX 01181 23711 11498 61601 11075 21081 30043 40224 52009 69970 70282 83930 333 11042
AAXX 01181 23804 11297 81801 11048 21058 30061 40214 52008 69920 77172 885// 333 11028 84706
AAXX 01181 27037 11496 80902 11022 21031 39971 40135 58005 60030 77172 8872/ 333 11009 86713
AAXX 01181 27199 11998 81402 11070 21083 30010 40215 51003 69900 77172 8807/ 333 11060
AAXX 01181 27271 11497 81003 11039 21051 30024 40184 52003 60010 77172 8872/ 333 11036
AAXX 01181 27459 11296 81401 11006 21010 39963 40161 52002 69990 77172 8872/ 333 11006 88706
AAXX 01181 27730 12497 80000 11028 21044 39947 40146 52003 69900 80001 333 10007
AAXX 01184 91165 12566 42803 10194 20178 30142 40177 53010 69951 91753 333 10211 20178 555 90118
AAXX 01184 91182 32666 23303 10206 20178 30171 40176 53015 91753 555 90118
AAXX 01184 91190 32966 01303 10156 20128 30168 40186 53018 91754 333 10222 20139 555 90118
AAXX 01184 91212 11666 60606 10250 20233 31364 40100 56013 69901 761// 91754 333 10272 20228 555 90118
AAXX 01184 91285 12666 42103 10189 20156 30168 40179 53020 69901 91753 555 90118
AAXX 01181 26997 11439 83305 11013 21019 39935 40159 52014 69962 77122 8872/ 333 10008 87711
AAXX 01181 27595 32/97 71301 11056 21066 30056 40205 57003 8008/ 333 11056
AAXX 01181 27612 116// 80000 11012 21019 39951 40148 52011 60012 71022 885// 333 10006
AAXX 01181 27707 31825 20000 11035 21036 39849 40150 52007 71011 82030 333 11001
AAXX 01181 27719 11597 70000 11017 21025 39893 40148 51005 69952 70282 87400 333 10003
AAXX 01181 27786 12497 81204 11035 21043 30041 40207 52002 69900 886// 333 11026 88710
AAXX 01181 27857 11396 81403 10002 21004 39979 40144 57006 69920 77172 8802/ 333 10004 88507
AAXX 01181 27906 11495 83302 11011 21015 39899 40145 52008 69972 78582 8691/ 333 10003
AAXX 01181 27928 12597 83601 11001 21015 39928 40138 58002 69910 8455/ 333 10008
AAXX 01181 27947 11296 81202 10003 21005 39979 40141 57009 69960 77172 8872/ 333 10008 88706
AAXX 01181 27962 11397 81304 11010 21020 40171 51000 69900 77172 885// 333 10004 88609
AAXX 01181 27983 32467 81202 11038 21046 30073 40205 58004 886// 333 11032 88712
AAXX 01181 27995 12571 80901 11039 21051 40213 57007 69900 885// 333 11030
AAXX 01181 28506 11997 80000 11060 21074 30107 40224 54000 69950 70272 8807/ 333 11061
AAXX 01181 28704 11/98 81702 11051 21063 30115 40213 57004 69900 70272 8807/ 333 11046
AAXX 01181 28711 12297 81302 11070 21074 39836 40226 57003 69900 886// 333 11066
AAXX 01181 28807 12397 80000 11052 21069 30164 40217 57003 69900 886// 333 11040 88708
AAXX 01181 34009 12597 52501 11021 21039 39835 40147 52003 69902 85500 333 11001
AAXX 01181 34110 32897 83302 11004 21022 39860 40142 53003 8805/ 333 10000
AAXX 01181 34123 11396 83302 10000 21008 39946 40133 58006 60030 77374 8872/ 333 10008 88508 93705
AAXX 01181 34152 11340 81404 11006 21006 39943 40143 57010 69980 77172 8872/ 333 10003 88708
AAXX 01181 34163 11/92 91203 11018 21020 40184 52002 69930 74742 333 11004
AAXX 01181 34171 11/01 91406 11014 21014 39985 40182 58006 69960 74774 333 11006 89/02 93402
AAXX 01181 34186 32478 81402 11028 21032 30059 40200 57005 8802/ 333 11016 88510
AAXX 01181 34247 11350 80000 10002 21001 30017 40133 57007 60040 77176 8872/ 333 10019 86707
AAXX 01181 34336 11496 80000 10000 20000 30020 40125 57012 60050 78582 883// 333 10021 93701
AAXX 01181 34391 32997 51102 11044 21046 30165 40197 57004 85070 333 11006
AAXX 01181 35011 11980 81401 11067 21100 40224 57003 69920 70272 8802/ 333 11052
AAXX 01181 35121 32598 81103 11079 21106 30067 40220 57010 885// 333 11068 88620
BBXX 46111 01181 99481 71227 46/// /0907 10075 40239 58005 91800 22200 00049
BBXX 46078 01181 99561 71526 46/// /3308 11043 21113 40006 91750 333 91210 555 11082 22088 31720 43311 61749 327077 332075 331077 339081 334076 333076 83409 91714
BBXX 46078 01181 99561 71526 46/// /3308 11043 21113 40006 91750 333 91210 555 11082 22088 31720 43311 61749 327077 332075 331077 339081 334076 333076 83409 91714
BBXX 44032 01181 99437 70694 46/30 /0000 10072 40141 57017 91804 22200 00082 10802 70009 333 91201
AAXX 01181 28676 129// 01401 11202 21218 30197 40336 57010 69900 333 11110
AAXX 01181 28766 119// 21602 11176 21201 30124 40330 57007 69930 71011 80001 333 11101
AAXX 01181 28867 NIL
AAXX 01181 28879 329// 01202 11121 21158 30035 40340 57005 333 11068
AAXX 01181 28952 NIL
AAXX 01181 28966 129// 21602 11138 21178 30024 40327 57010 69900 80001 333 11123
AAXX 01181 29802 NIL
AAXX 01181 29807 NIL
AAXX 01181 34691 32998 80501 11008 21026 30198 40185 53006 8807/ 333 10017
AAXX 01181 35067 129// 30601 11191 21209 30029 40330 57015 69900 80001 333 11106
AAXX 01181 35078 129// 00803 11211 21234 39944 40360 57012 69900 333 11147
AAXX 01181 35085 31/// 90000 11214 21235 39849 40372 57016 74941 333 11141
AAXX 01181 35108 115// 71201 11046 21070 30160 40207 57006 69900 70272 87500 333 11029
AAXX 01181 35188 119// 00401 11130 21154 39890 40352 57016 69900 71000 333 11098
AAXX 01181 35217 129// 80000 11056 21067 30160 40202 57006 69900 8802/ 333 11042
AAXX 01181 35229 329// 51001 11128 21152 39939 40227 57011 85070 333 11082
AAXX 01181 35302 129// 81103 11042 21069 30178 40198 57002 69900 8802/ 333 11026
AAXX 01181 35357 329// 01802 11226 21251 39861 40341 57020 333 11150
AAXX 01181 35394 32998 00503 11120 21196 39628 40343 57020 333 11079
AAXX 01181 35406 NIL
AAXX 01181 35416 32697 81103 11068 21088 30072 40196 58006 885// 333 11051
AAXX 01181 35426 329// 50903 11124 21144 39913 40220 57006 80005 333 11073
AAXX 01181 35497 329// 00501 11039 21179 39495 40310 57018 333 11057
AAXX 01181 35532 31998 71012 11120 21155 39706 40221 57006 73733 80003 333 11094 91016
AAXX 01181 35671 32998 00603 11116 21163 39851 40304 57019 333 11084
AAXX 01181 35700 32598 70601 11027 21050 30200 40176 58004 87500 333 11007
AAXX 01181 35746 NIL
AAXX 01181 35796 31997 00408 11110 21171 39852 40309 57020 73633 333 11110
AAXX 01181 35849 NIL
AAXX 01181 35925 319// 71103 11069 21078 40177 57003 71022 80005 333 11017
AAXX 01181 35953 NIL
AAXX 01181 35969 NIL
AAXX 01181 36003 NIL
AAXX 01181 36152 NIL
AAXX 01181 36177 NIL
AAXX 01181 36208 NIL
AAXX 01181 36397 NIL
AAXX 01181 36428 NIL
AAXX 01181 36535 NIL
AAXX 01181 36639 NIL
AAXX 01181 36821 329// 00000 11157 21181 39763 40285 57012 333 11076
AAXX 01181 36859 329// 00201 11105 21125 39462 40280 57013 333 11008
AAXX 01181 36864 329// 00000 11143 21163 39337 40287 57012 333 11025
AAXX 01181 36870 329// 00000 11085 21096 39202 40253 57014 333 11017
AAXX 01181 38001 32997 80502 10006 21017 30208 40178 52003 8807/ 333 10016
AAXX 01181 38062 NIL
AAXX 01181 38069 NIL
AAXX 01181 38196 NIL
AAXX 01181 38198 NIL
AAXX 01181 38222 32997 81603 11120 21155 39677 40269 58008 8807/ 333 11044
AAXX 01181 38232 32598 83201 10006 21024 30065 40165 58002 885// 333 10027
AAXX 01181 38328 NIL
AAXX 01181 38334 NIL
AAXX 01181 38341 11996 00000 11163 21182 39426 40272 57015 69900 71040 333 11077
AAXX 01181 38343 31/92 90000 11169 21181 39368 40277 57018 74944 333 11085
AAXX 01181 38439 NIL
AAXX 01184 NIL
AAXX 01184 NIL
AAXX 01184 NIL
AAXX 01184 NIL
AAXX 01184 NIL
AAXX 01184 82143 NIL
AAXX 01184 82599 32570 50811 10283 20230 30029 40089 85100 333 59013
AAXX 01184 82824 31558 63206 10310 20236 39983 40083 71500 85410 333 59005
AAXX 01184 82899 32570 50710 10295 20212 30108 40120 85200 333 59004
AAXX 01184 83117 NIL
AAXX 01184 83248 32470 20618 10306 20242 30083 40105 82200 333 59004
AAXX 01184 83746 21358 80406 10257 20233 30026 40036 58012 76162 885// 333 60041
AAXX 01181 38598 425// 80910 11022 21031 40233 57010 886//
AAXX 01181 38599 NIL
AAXX 01181 38725 429// 00806 11036 21238 48490 53001
AAXX 01181 38734 429// 00906 11098 21163 47030 54000
AAXX 01181 38744 429// 00903 11089 21155 38030 48560 52002
AAXX 01181 38836 319// 00000 11021 21033 39268 40238 52004 74640 333 10065
AAXX 01181 38838 NIL
AAXX 01181 38844 429// 01802 11026 21120 48500 58002
AAXX 01181 38846 419// 00504 11066 21082 38502 48470 57003 71000
AAXX 01181 38847 419// 02704 11034 21042 40262 56002 74140
AAXX 01181 38932 NIL
AAXX 01181 38933 319// 00000 11018 21037 39705 40238 58019 74640 333 10051
AAXX 01181 38944 329// 00000 11001 21019 39652 40206 52003 333 10069
AAXX 01181 38954 329// 00000 11074 21150 37960 48560 52002 333 11015
AAXX 01184 NIL
AAXX 01184 NIL
AAXX 01184 82022 32570 40816 10309 20196 30006 40102 83230 333 59026
AAXX 01184 82193 21230 70805 10271 20234 30080 40098 76062 87230 333 58007 60021
AAXX 01184 82281 32570 50521 10308 20194 30038 40100 85200 333 58012
AAXX 01184 82332 32470 50803 10326 20248 39995 40087 84201 333 59007
AAXX 01184 82398 32570 40709 10286 20220 30081 40110 84100 333 58011
AAXX 01184 82400 32470 31008 10278 20235 30053 40117 83100 333 58015
AAXX 01184 82579 32570 53404 10365 20194 30001 40076 85200 333 58009
AAXX 01184 82917 21460 73205 10264 20243 39882 40103 71062 84530 333 59016 600101
AAXX 01184 82965 21570 73004 10298 20224 39759 40084 70262 83204 333 58007 69901
AAXX 01184 82993 32570 20917 10297 20216 39973 40108 82100 333 58001
AAXX 01184 83208 21570 73011 10262 20233 39402 48520 70362 85250 333 59004 60031
AAXX 01184 83349 22570 50210 10298 20244 30101 40107 81104 333 59002 69991
AAXX 01184 83362 22570 73614 10275 20212 39854 40069 85230 333 58001 69961
AAXX 01184 83378 31568 53114 10246 20175 38923 48480 70562 85230 333 59003
AAXX 01184 83460 31570 70517 10282 20216 30038 40094 70261 83250 333 59005
AAXX 01184 83497 NIL
AAXX 01184 83566 22470 70210 10230 20187 39150 48470 85530 333 59025 60061
AAXX 01184 83599 NIL
AAXX 01184 83612 32970 52313 10303 20158 39431 48480 57023 85100
AAXX 01184 83649 21470 80412 10270 20234 30078 40083 57019 72162 835 1/ 333 69901
AAXX 01184 83650 NIL
AAXX 01184 83780 21456 82308 10221 20187 39165 48460 55000 76062 8652/ 333 60031
AAXX 01184 83827 32570 52305 10307 20143 39773 40045 56020 84150
AAXX 01184 83840 32570 51009 10218 20166 39063 48460 58014 85500
AAXX 01184 83899 21320 71211 10217 20204 30081 40087 57014 76062 87500 333 60081
AAXX 01184 83925 NIL
AAXX 01184 83970 NIL
AAXX 01184 83971 22570 71214 10249 20198 30098 40102 55013 87500 333 60071
AAXX 01184 NIL
AAXX 01184 NIL
AAXX 01184 NIL
AAXX 01184 60351 12970 30000 10130 20111 40266 53009 60002 80032 333 10180 83359 95990
AAXX 01184 60355 12660 23608 10153 20111 40271 53010 60002 82230 333 0//00 10200 81833 82360 95900
AAXX 01184 60445 12565 13404 10062 20048 39109 48571 53012 60002 81200 333 10134 81830 95990
AAXX 01184 60468 12960 10000 10090 20042 39315 48563 53009 60002 81030 333 10152 81360 95990
AAXX 01184 60507 12970 00000 10112 20069 40293 53003 60002 333 10186 95990
AAXX 01184 60511 12960 03006 10092 20033 39144 48568 55000 60002 333 10156 95990
AAXX 01184 60535 12970 00000 10080 20037 38920 48575 54000 60002 333 10115 95900
AAXX 01184 60536 12960 00000 10110 20058 39399 48568 53003 60002 333 10185 95990
AAXX 01184 60549 11960 00000 10106 20030 39011 48557 53006 60002 70200 333 10153 95990
AAXX 01184 60550 12960 00000 10080 20038 38759 48590 53008 60002 333 10125 95990
AAXX 01184 60555 12970 00000 10120 20055 40282 55002 60002 333 10184
AAXX 01184 60559 12960 00000 10135 20056 40290 53012 60002 333 10185
AAXX 01184 60581 12960 02106 10130 20056 40294 53004 60002 333 10176
AAXX 01184 60602 12960 00000 10146 20017 40290 53006 60002 333 10183 95990
AAXX 01184 60607 12960 00308 10150 21119 40275 52008 60002 333 10176
AAXX 01184 60640 12960 00608 10129 21029 40290 53018 60002 333 10175
AAXX 01184 60690 NIL
AAXX 01184 60360 12570 13406 10137 20123 40277 52012 60002 81230 333 10189 81826 95990
AAXX 01184 60390 12970 00803 10111 20074 40285 51007 60002 333 10205 95990
AAXX 01184 60402 NIL
AAXX 01184 60419 12965 32805 10091 20058 40294 51002 60002 80030 333 10157 83360 95990
AAXX 01184 60475 12965 10000 10102 20072 39315 48566 51001 60002 80002 333 10152 81073 95990
AAXX 01184 60490 12970 02405 10116 20068 40276 58008 60002 333 10188 95990
AAXX 01184 60525 12960 00000 10124 20023 40269 52006 60002 333 95990
AAXX 01184 60531 12970 00000 10109 20026 40287 53005 60002 333 10188 95990
AAXX 01184 60566 12960 02005 10141 21007 40294 51005 60002 333 10198
AAXX 01184 60571 12965 00000 10138 20007 39344 48580 56001 60002 333 10182 95900
AAXX 01184 60580 12960 01804 10133 20065 40289 53009 60002 333 10190
AAXX 01184 60590 12960 00000 10132 20022 40304 51007 60002 333 10180
AAXX 01184 60611 12660 20906 10120 20011 40282 53005 60002 82200 333 10159 82833
AAXX 01184 60620 12960 00110 10152 20082 40274 53007 60002 333 10198
AAXX 01184 60630 12960 00612 10160 21010 40257 53007 60002 333 10205
AAXX 01184 60656 12970 21107 10156 21008 40277 53003 60002 80002 333 10186 82073
AAXX 01184 60670 12975 30000 10104 21078 39137 48560 53016 60002 83080 333 10159 83360 95990
AAXX 01184 60680 12970 23208 10124 21127 38689 48562 51014 60002 81032 333 10185 81362 95990
AAXX 01184 60360 12570 13406 10137 20123 40277 52012 60002 81230 333 10189 81826 95990
AAXX 01184 60390 12970 00803 10111 20074 40285 51007 60002 333 10205 95990
AAXX 01184 60402 NIL
AAXX 01184 60419 12965 32805 10091 20058 40294 51002 60002 80030 333 10157 83360 95990
AAXX 01184 60475 12965 10000 10102 20072 39315 48566 51001 60002 80002 333 10152 81073 95990
AAXX 01184 60490 12970 02405 10116 20068 40276 58008 60002 333 10188 95990
AAXX 01184 60525 12960 00000 10124 20023 40269 52006 60002 333 95990
AAXX 01184 60531 12970 00000 10109 20026 40287 53005 60002 333 10188 95990
AAXX 01184 60566 12960 02005 10141 21007 40294 51005 60002 333 10198
AAXX 01184 60571 12965 00000 10138 20007 39344 48580 56001 60002 333 10182 95900
AAXX 01184 60580 12960 01804 10133 20065 40289 53009 60002 333 10190
AAXX 01184 60590 12960 00000 10132 20022 40304 51007 60002 333 10180
AAXX 01184 60611 12660 20906 10120 20011 40282 53005 60002 82200 333 10159 82833
AAXX 01184 60620 12960 00110 10152 20082 40274 53007 60002 333 10198
AAXX 01184 60630 12960 00612 10160 21010 40257 53007 60002 333 10205
AAXX 01184 60656 12970 21107 10156 21008 40277 53003 60002 80002 333 10186 82073
AAXX 01184 60670 12975 30000 10104 21078 39137 48560 53016 60002 83080 333 10159 83360 95990
AAXX 01184 60680 12970 23208 10124 21127 38689 48562 51014 60002 81032 333 10185 81362 95990
AAXX 01184 60351 12970 30000 10130 20111 40266 53009 60002 80032 333 10180 83359 95990
AAXX 01184 60355 12660 23608 10153 20111 40271 53010 60002 82230 333 0//00 10200 81833 82360 95900
AAXX 01184 60445 12565 13404 10062 20048 39109 48571 53012 60002 81200 333 10134 81830 95990
AAXX 01184 60468 12960 10000 10090 20042 39315 48563 53009 60002 81030 333 10152 81360 95990
AAXX 01184 60507 12970 00000 10112 20069 40293 53003 60002 333 10186 95990
AAXX 01184 60511 12960 03006 10092 20033 39144 48568 55000 60002 333 10156 95990
AAXX 01184 60535 12970 00000 10080 20037 38920 48575 54000 60002 333 10115 95900
AAXX 01184 60536 12960 00000 10110 20058 39399 48568 53003 60002 333 10185 95990
AAXX 01184 60549 11960 00000 10106 20030 39011 48557 53006 60002 70200 333 10153 95990
AAXX 01184 60550 12960 00000 10080 20038 38759 48590 53008 60002 333 10125 95990
AAXX 01184 60555 12970 00000 10120 20055 40282 55002 60002 333 10184
AAXX 01184 60559 12960 00000 10135 20056 40290 53012 60002 333 10185
AAXX 01184 60581 12960 02106 10130 20056 40294 53004 60002 333 10176
AAXX 01184 60602 12960 00000 10146 20017 40290 53006 60002 333 10183 95990
AAXX 01184 60607 12960 00308 10150 21119 40275 52008 60002 333 10176
AAXX 01184 60640 12960 00608 10129 21029 40290 53018 60002 333 10175
AAXX 01184 60690 NIL
AAXX 01181 40701 12660 50000 11014 21033 38576 40225 53005 60001 82501 333 55030 82635 85069
AAXX 01181 40704 12660 82706 10034 20005 38582 40157 54000 60001 82507 333 55040 20740 82640 88270
AAXX 01181 40708 12960 31808 10030 20006 38627 40140 56002 60001 80006 333 55039 20605 83268
AAXX 01181 40710 12670 69901 11006 21010 38295 40195 53003 60001 83570 333 55028 83635 85359
AAXX 01181 40713 11560 80000 10044 20016 38646 40176 53001 69911 70262 8432X 333 55000 82930 83835 88459
AAXX 01181 40719 11540 50000 10072 20072 30161 40150 54000 60001 71022 81550 333 55020 81625 84358
AAXX 01181 40731 11912 20000 10012 20012 38728 40198 54000 69921 71062 82030 333 55004 20268 82359
AAXX 01181 40738 11530 50903 10068 20068 30158 40160 58009 60001 71021 82550 333 82630 85359
AAXX 01181 40740 12960 01203 10018 21025 38696 40154 56004 60001 333 55048
AAXX 01181 40747 11658 71801 10054 20017 38615 40169 54000 69921 78062 85310 333 55008 20376 82935 83640 86459
AAXX 01181 40757 12962 00000 10020 21029 38890 40195 53008 60001 333 55059
AAXX 01181 40763 12662 41003 10060 21036 38910 40184 55002 60001 84400 333 55077 84635
AAXX 01181 40782 12660 60000 10046 20032 38879 40197 53002 60001 84530 333 55000 84635 86358
AAXX 01181 40783 12662 20000 11006 21022 37972 40188 54000 60001 82500 333 55016 82640
AAXX 01181 40789 12965 00000 10060 21031 39190 40176 51002 60001 333 55037 22186
AAXX 01181 40798 12660 42507 10038 21027 37950 40158 56005 60001 82470 333 55006 20485 81635 83359
AAXX 01181 40818 12965 02504 10076 21102 37963 40119 54000 60001 333 55087
AAXX 01181 40827 12960 20000 10048 21061 38844 40233 58003 60001 82070 333 55087 82360
AAXX 01181 40836 11664 73403 10086 21106 38206 40169 53003 60001 72992 85970 333 55020 20420 82935 83640 86360
AAXX 01181 40851 12660 41304 10114 21066 38272 40168 53005 60001 81402 333 55070 81640 84070
AAXX 01181 40853 12965 00000 10064 21077 37763 40161 50005 60001 333 55085
AAXX 01181 40854 12960 00000 10094 21065 38940 40143 58005 60001 333 55083
AAXX 01181 40857 12960 41604 10196 20166 30155 40164 51006 60001 84050 222// 00/// 20301 333 55073 84360
AAXX 01181 40859 12660 20000 10100 21096 38720 40158 54000 60001 82500 333 55092 82640
AAXX 01181 40878 12965 00602 10073 21187 38860 40218 50000 60001 333 55099
AAXX 01181 40879 12960 03302 10120 21123 39503 40188 58003 60001 333 55098
AAXX 01181 40883 12960 03403 10174 20070 30150 40173 54000 60001 333 55093
AAXX 01181 40898 12960 00000 10174 20054 30162 40171 50001 60001 222// 00234 10600 333 55094 2////
AAXX 01181 15627 11986 03408 11095 21194 37608 47029 51013 60002 70200 333 11095 21136 48034 555 544//
AAXX 01181 45032 36/// /0902 10158 20119 30205 40222 57001
AAXX 01181 45035 36/// /0902 10154 20125 30177 40220 57002
AAXX 01181 45039 36/// /1003 10157 20118 30204 40220 57002
AAXX 01181 45044 36/// /0805 10157 20116 30121 40216 57002
AAXX 01183 64800 NIL
AAXX 01183 64820 NIL
AAXX 01183 64860 31957 70000 10278 20096 39850 40121 70522 80002 333 10331 58028 87080
AAXX 01183 64861 NIL
AAXX 01184 64870 31945 70602 10194 20064 38924 48515 70522 80002 333 10290 58008 87080
AAXX 01184 64871 NIL
AAXX 01184 64892 NIL
AAXX 01184 64893 NIL
AAXX 01184 64894 NIL
AAXX 01184 64910 32460 72206 10275 20247 30106 40115 85302 333 10325 58005 85616 82920 87080 94945 95835
AAXX 01184 64911 NIL
AAXX 01184 64950 NIL
AAXX 01181 45032 36/// /0902 10158 20119 30205 40222 57001
AAXX 01181 45035 36/// /0902 10154 20125 30177 40220 57002
AAXX 01181 45039 36/// /1003 10157 20118 30204 40220 57002
AAXX 01181 45044 36/// /0805 10157 20116 30121 40216 57002
AAXX 01181 01311 47362 61907 10062 20050 39829 49890 57000 723// 333 10069 91109
BBXX 3ERR2 01184 99635 10053 41497 81925 10074 20057 49838 52004 78082 889// 22200 06098 11006 70029 333 91134
BBXX LF3F 01184 99643 10078 43/// /1813 10073 20031 49856 52004 22200 04084 10806 70030 333 91118
BBXX LF3N 01184 99653 10073 41497 62018 10075 20048 49836 52001 72582 863// 22200 00090 10707 70033
BBXX LF4B 01184 99606 10037 47/98 /2018 10074 49868 57002 700// 22200 00061 10706 70031 333 91124
BBXX LF4C 01184 99584 10019 41498 72222 10083 20042 49882 57006 70222 89/// 22200 00071 10706 70031 333 91127
BBXX LF5T 01184 99660 10081 41597 81823 10066 20048 49834 52002 725// 8//// 22200 10705 70026 333 91130
BBXX 46207 01181 99509 71299 46/// /1522 10076 40042 57014 22200 00080 11218 70088 333 91230
AAXX 01181 01025 17/84 11808 10005 21092 39941 49952 57004 60002 700// 333 10013 91116
AAXX 01184 91945 36/// /0506 10288 20225 30158 40163 51009
AAXX 01181 48919 32498 70510 10260 20240 30100 40122 58009 83908 22200 02262 333 59013 81894 82995 87299
AAXX 01181 48916 32598 70903 10265 20228 30069 40116 58006 878// 333 59009 83895 87696
AAXX 01181 40716 11640 60000 10030 20025 38902 40183 53004 69981 71062 81570 333 55000 81640 85359
AAXX 01181 40719 11540 50000 10072 20072 30161 40150 54000 60001 71022 81550 333 55020 81625 84358
AAXX 01181 40721 12960 40000 10064 21008 39616 40164 56001 60001 84030 333 55040 84360
AAXX 01181 40858 12960 21807 10200 20134 30150 40161 51003 60001 83030 333 55075 82359
AAXX 01181 40872 12660 61406 10216 20133 30166 40171 52006 60001 82570 222// 00/// 20301 333 55086 82640 86360
AAXX 01181 40877 12960 00000 10112 21004 39608 40160 52008 60001 333 55096
AAXX 01181 40898 12960 00000 10174 20054 30162 40171 50001 60001 222// 00234 10600 333 55094 2////
AAXX 01181 48918 32498 70704 10249 20222 30120 40131 57008 85908 222// 00251 2//// 333 58001 82894 83995 8729 9
AAXX 01181 48917 32598 60502 10282 20216 30124 40130 57009 82208 222// 00276 333 58002 82895 86299
AAXX 01181 48914 32698 70903 10257 20226 30124 40126 57009 875// 333 58000 87696
AAXX 01181 48900 32497 41106 10242 20223 30106 40116 57009 84800 333 59009 81894 83696
AAXX 01181 80402 NIL
AAXX 01181 80412 NIL
AAXX 01181 80416 NIL
AAXX 01181 80420 NIL
AAXX 01181 80425 32570 42501 10328 20229 30089 40120 84100 333 30/// 56900 58015 84820 555 10121
AAXX 01181 80426 32560 40202 10278 20184 39486 40130 84500 333 30/// 56900 58003 84627 555 10161
AAXX 01181 80427 32470 40902 10315 20213 39879 40132 81230 333 30/// 56990 59006 83817 555 10148
AAXX 01181 80431 32570 3//// 10308 20195 39639 40116 83800 333 30/// 56900 58004 83820 555 10141
AAXX 01181 80434 NIL
AAXX 01181 22282 NIL
AAXX 01181 22438 NIL
AAXX 01181 22471 12484 71602 11039 21058 30156 40181 51006 69900 87500 333 10006 87617
AAXX 01181 22563 31895 70000 11039 21038 30150 40190 52012 71022 87030 333 11002
AAXX 01181 22641 32298 70000 11062 21070 30167 40183 52010 87500 333 11034 85705 91102
AAXX 01181 22695 11397 82301 11016 21025 30039 40195 52008 59900 77172 8672/ 333 11004 86707
AAXX 01181 22867 31396 80301 11028 21032 30059 40175 52006 77174 8872/ 333 11023 88708 91102
AAXX 01181 22939 11496 80602 11028 21032 39982 40148 52006 69980 77177 8671/ 333 11014 86713
AAXX 01181 22996 11496 81902 11052 21062 30017 40213 52007 69900 71072 8392/ 333 11035
AAXX 01181 23324 11346 80304 11065 21077 30107 40187 52011 60020 77172 8872/ 333 11016 86709
AAXX 01181 27008 11997 73201 11034 21038 39976 40151 52012 69940 77172 87070 333 11016
AAXX 01181 27051 11496 80903 11023 21029 39995 40165 53009 69920 77177 8652/ 333 11013 84712
AAXX 01181 27225 11858 80801 11020 21029 39996 40129 52007 60050 77172 8802/ 333 11007
AAXX 01181 27252 11496 81102 11028 21032 39975 40165 52005 60030 71072 885// 333 11023 88617
AAXX 01181 27333 11484 81702 11007 21014 39979 40138 52011 60020 70272 885// 333 11007 88518
AAXX 01181 27369 11995 81403 11027 21034 30036 40177 52003 69940 77172 8801/ 333 11023
AAXX 01181 27393 12998 70000 11093 21105 30048 40224 52003 69930 84031 333 11076
AAXX 01181 27479 11498 81403 11032 21046 30048 40185 52001 69920 78582 886// 333 11027 88711
AAXX 01181 27532 11496 80000 11010 21017 39931 40148 52009 60050 71072 8557/ 333 10002
AAXX 01181 27648 11294 80601 10000 21006 39974 40144 58003 60010 77172 8872/ 333 10002 88706
AAXX 01181 27675 31497 81205 11021 21033 30005 40178 58004 69900 72272 885// 333 11017 88617
AAXX 01181 27679 12498 81403 11028 21038 39959 40187 58001 69960 885// 333 11025 88619
AAXX 01181 28214 12996 80000 11092 21103 30017 40239 52004 69930 8802/ 333 11075
BBXX 46207 01181 99509 71299 46/// /1522 10076 40042 57014 22200 00080 11218 70088 333 91230
AAXX 01181 80437 32470 32702 10316 20224 39999 40084 83500 333 30/// 56900 59008 83617 10090
AAXX 01181 80440 32570 31404 10323 20184 39918 40136 82208 333 30/// 56909 59008 82823 555 10138
AAXX 01181 80442 NIL
AAXX 01181 80472 32465 80905 10311 20218 39649 40128 8323/ 333 30/// 5629/ 58000 83816 85360 555 10151
AAXX 01181 80475 NIL
AAXX 01181 80476 32370 1//// 10348 20250 30095 40125 81200 333 30/// 56900 58010 81810
AAXX 01181 80478 NIL
AAXX 01181 80479 NIL
AAXX 01181 80400 NIL
AAXX 01181 80403 11470 20907 10307 20213 30113 40132 69911 70252 82200 333 30/// 56900 59006 82813 555 10132
AAXX 01181 80405 NIL
AAXX 01181 80407 NIL
AAXX 01181 80410 32470 21606 10280 20211 39449 40125 8249/ 333 30/// 56900 59002 82616 555 10162
AAXX 01181 80413 32470 52304 10306 20177 39642 40128 856// 333 30/// 569// 58003 85613 555 10161
AAXX 01181 80415 32472 50502 10283 22023 30069 40133 852// 333 30/// 569// 59005 85816 555 10125
AAXX 01181 80419 NIL
AAXX 01181 80421 80704 33364 3//// 10310 20221 30113 40135 82800 333 30/// 56900 58000 83810 1013
AAXX 01181 80423 32470 4//// 10302 20277 30107 40124 84200 333 30/// 56200 59003 84810 555 10123
AAXX 01181 34560 31/01 91305 11015 21014 39993 40163 57007 74944 333 11007 89/01
AAXX 01181 34720 31497 83201 10016 20010 30066 40106 50001 76162 8872/ 333 10019
AAXX 01181 34730 31212 81103 10019 20017 30010 40103 57008 78086 8632/ 333 10014 85704
AAXX 01181 34740 31596 81404 10005 21003 30027 40125 57005 71022 85504 333 10053
AAXX 01181 34824 11596 83304 10017 20011 30122 40127 53012 69930 76162 8802/ 333 10053
AAXX 01181 34858 31496 81606 10008 21004 30034 40143 56009 71022 886// 333 10016
AAXX 01181 34866 31496 81505 11002 21002 30181 40172 57002 75125 8860/ 333 10012
AAXX 01181 34880 31496 80901 10002 21011 30209 40182 54000 71022 886// 333 10014 88711
AAXX 01181 37018 31597 82304 10098 20059 30054 40128 53005 78088 8697/ 333 10122
AAXX 01181 37054 32496 81104 11006 21013 39758 40150 57011 885// 333 10026
AAXX 01181 37472 32597 81203 10049 20016 30182 40160 57004 8553/ 333 10051
AAXX 01181 22165 NIL
AAXX 01181 22676 12484 81501 11005 21011 30110 40190 52011 69900 885// 333 10005
AAXX 01181 22837 11584 20000 11030 21040 30087 40159 52007 69900 70182 82500 333 11003
AAXX 01181 22954 11396 80402 11036 21041 39908 40163 51002 69960 77172 8671/ 333 11044 86708
AAXX 01181 23405 NIL
AAXX 01181 23412 11396 81702 11018 21026 30078 40176 52002 69900 78582 883// 333 11004 85707
AAXX 01181 23803 11499 81601 11056 21063 30037 40223 52009 69920 70272 889// 333 11044 88919
AAXX 01181 27066 11396 81301 11039 21051 30005 40188 52006 69930 77177 8672/ 333 11028 86709
AAXX 01181 27083 11584 81601 11053 21060 39975 40206 52007 69900 70272 885// 333 11043
AAXX 01181 27113 11327 80501 11016 21018 39988 40136 53006 60020 77372 8572/ 333 11006 85709
AAXX 01181 27242 11298 81002 11016 21021 30013 40144 52003 60020 70282 887// 333 11006 88705
AAXX 01181 27329 11566 82201 11010 21017 30006 40133 52014 60050 70282 885// 333 11003
AAXX 01181 27355 12497 81402 11018 21020 39992 40160 58002 60030 885// 333 11014
AAXX 01181 27373 11596 81404 11046 21055 39967 40191 52005 69900 77172 8802/ 333 11047 88521 93401
AAXX 01181 27665 11295 81302 11010 21017 39894 40169 54000 69950 71022 886// 333 11008 88705
AAXX 01181 27835 11296 80102 11009 21015 39984 40145 58002 69980 77172 8872/ 333 10008 87704
AAXX 01181 28009 11497 81901 11073 21086 30010 40229 52007 69940 77172 8802/ 333 11057
AAXX 01181 28411 11697 80000 11093 21109 30033 40238 52004 69980 78582 8537/ 333 11071
AAXX 01181 28418 11997 81301 11068 21084 30060 40233 58005 69900 77172 88010 333 11066
AAXX 01181 80402 NIL
AAXX 01181 80412 NIL
AAXX 01181 80416 NIL
AAXX 01181 80420 NIL
AAXX 01181 80425 32570 42501 10328 20229 30089 40120 84100 333 30/// 56900 58015 84820 555 10121
AAXX 01181 80426 32560 40202 10278 20184 39486 40130 84500 333 30/// 56900 58003 84627 555 10161
AAXX 01181 80427 32470 40902 10315 20213 39879 40132 81230 333 30/// 56990 59006 83817 555 10148
AAXX 01181 80431 32570 3//// 10308 20195 39639 40116 83800 333 30/// 56900 58004 83820 555 10141
AAXX 01181 80434 NIL
AAXX 01184 61017 32960 50000 10174 20027 39778 40196 80002 333 10256 58014 85080
AAXX 01184 61024 32960 61214 10220 21080 39593 40166 80002 333 10279 58006 86080
AAXX 01184 61036 31958 70000 10280 20035 39897 40137 7052/ 80008 333 10312 58006 87280
AAXX 01184 61043 32960 70608 10265 21074 39701 40144 80008 333 10306 58016 87280
AAXX 01184 61045 31947 70402 10222 21035 39656 40161 7062/ 80008 333 10280 58003 87280
AAXX 01184 61049 32960 70804 10250 21015 39823 40145 80008 333 10294 58005 87280
AAXX 01184 61052 31930 70408 10285 21017 39883 40140 70622 80008 333 10315 58015 87280
AAXX 01184 61075 31958 71002 10270 21005 39825 40135 70622 80002 333 10320 58009 87280
AAXX 01184 61080 31956 70804 10240 20026 39731 40156 70622 80008 333 10297 58016 87280
AAXX 01184 61090 32965 70408 10240 21050 39644 40160 80008 333 10280 58024 87280
AAXX 01184 61091 32960 70000 10242 20087 39703 40165 80008 333 10285 59007 87280
AAXX 01184 61096 31958 73602 10246 21020 39768 40153 70522 80008 333 10298 58006 87280
AAXX 01184 61099 32960 70210 10295 20038 39889 40117 80008 333 10340 58010 87280
AAXX 01181 08521 32470 69901 10163 20095 30258 40329 53011 86800 333 10189 83818 8630
AAXX 01181 08524 32475 83303 10160 20087 30230 40329 52007 888// 333 10175 81845 88630 91005 91107
AAXX 01184 60667 36/// /0000 10119 21050 333 10146
AAXX 01184 60692 36/// /0308 10203 21076 333 10237
AAXX 01184 60691 36/// /0509 10194 21110 333 10236
AAXX 01184 60633 36/// /3507 10190 21125 333 10231
AAXX 01181 89064 36/// /1901 10044 29080 49889 57013
AAXX 01184 60676 36/// /0512 10109 21029 333 10134
AAXX 01184 60662 36/// /0000 10101 21078 333 10127
AAXX 01181 50844 32962 02002 11197 21228 40318 57011 333 11114
AAXX 01181 50854 32965 01101 11235 21263 40333 57004 333 11150
AAXX 01181 50968 32962 02001 11238 21260 40350 52005 333 11162
AAXX 01181 51379 32980 01604 11208 21242 40436 57005 333 05763 11044
AAXX 01181 51467 32980 00000 11159 21206 38293 57004 333 05554 11022
AAXX 01181 51495 32980 00202 11091 21163 40411 57002 333 05255 11022
AAXX 01181 53480 32980 02501 11106 21169 40306 57001 333 11026
AAXX 01181 53673 31957 72702 11096 21122 40319 57007 71000 80002 333 11021
AAXX 01181 53698 31/02 90000 11053 21061 40310 57017 74740 333 11016
AAXX 01181 53898 31911 01101 11040 21044 40311 57015 71000 333 11013
AAXX 01181 54308 32980 83402 11120 21208 40309 57010 80007 333 11030
AAXX 01181 54602 31957 50000 11080 21108 40304 57015 71000 80002 333 10019
AAXX 01181 54725 32962 01402 11053 21077 40319 57015 333 10018
AAXX 01181 54751 32570 73603 11030 21081 40323 57003 874// 333 10002
AAXX 01181 54916 32960 00000 11045 21057 40319 57002 333 10050
AAXX 01181 57014 32965 72702 10010 21131 40312 57009 8703/ 333 05106 10049
AAXX 01181 57025 31730 60201 11024 21046 40333 57008 71000 86500 333 10031
AAXX 01181 57046 32964 52707 11065 21100 37974 57009 80002 333 05252 10004
AAXX 01181 58208 31930 80402 10009 20005 40316 57002 71000 8807/ 333 10031
AAXX 01181 13463 32970 00902 10043 21038 30195 40256 52024 333 10097
AAXX 01181 13459 32970 03602 10000 21040 39479 40269 52022 333 10080 47002
AAXX 01181 13461 32970 00503 10066 21007 30247 40254 52021 333 10134 92322 92428
AAXX 01181 13363 32965 00201 11084 21090 39334 48508 52018 333 11009 47016
BBXX A8SF7 01181 99202 51309 41398 51005 10255 20210 40180 54000 70311 8526/ 22254 04240 20501 310// 41003 5//// 80225
BBXX BATFR53 01184 99172 51272 46/// /0607 10250 20192 40182 54/// 22222 00259
BBXX 41101 01184 99146 70562 46/// /0822 10266 20218 40142 57026 22200 00268 10806 70028 555 1/027
BBXX BAREU54 01184 99096 70800 46/// ///// 40099 57025 22223
BBXX BAREU04 01184 99421 70662 46/// ///// 40151 57011 22213
BBXX BATFR13 01184 99240 70525 44798 60917 10247 20192 40241 56016 70322 86565 22254 00257 20410 308// 40804 5////
BBXX FVNM 01184 99151 70827 46/// /0619 10279 20235 40150 58014 22281 00277
BBXX BATEU04 01184 99617 70497 46/// /3617 11122 21233 40004 55008 22243
BBXX PCEO 01183 99227 70522 41598 4//01 10262 20223 40225 56025 7//00 83307 22254 04254 2//// 315// 41204 5//// 80234
BBXX PHQX 01183 99141 70671 41798 20911 10285 20222 40165 54000 70200 82101 22254 20604 310// 40904 5//// 80240
BBXX PCSV 01183 99267 30035 41598 62209 10200 20141 40203 53/// 70211 82141 22273 04193 20501 323// 41004 80163
BBXX BATFR05 01184 99088 70155 46/// /1008 10277 20162 40124 53015 22273 00262
BBXX BATFR08 01184 99279 30544 46/// /1112 10232 20149 40161 51019 22243 00260
BBXX BATFR19 01184 99067 30055 46/// /1818 10237 20195 40123 50007 22200 00257
AAXX 01181 60370 36/// /0701 10133 20082 333 10193
AAXX 01181 60371 36/// /1802 10121 20076 333 10194
AAXX 01181 60372 36/// /0000 10120 20069 333 10172
AAXX 01181 60373 NIL
AAXX 01181 60374 NIL
AAXX 01181 60376 NIL
AAXX 01181 60379 NIL
AAXX 01181 60380 NIL
AAXX 01181 60381 NIL
AAXX 01181 60393 NIL
AAXX 01181 60394 NIL
AAXX 01181 60593 NIL
AAXX 01181 60595 NIL
AAXX 01181 60605 NIL
AAXX 01181 60613 NIL
AAXX 01181 60623 NIL
AAXX 01184 60624 36/// /0000 10158 21065 333 10180
AAXX 01184 60639 NIL
AAXX 01184 60645 36/// /0000 10167 21052 333 10205
BBXX BAREU05 01184 99358 70100 46/// ///// 40314 52010 22200
BBXX BAREU08 01184 99396 70252 46/// ///// 40322 52025 22254
BBXX 61001 01184 99434 10078 46/// /1102 10130 20102 40226 52014 22200 00137 10602 70008
BBXX BAREU11 01184 99541 10080 46/// ///// 40026 22200
BBXX BAREU00 01184 99536 70035 46/// ///// 49957 22261
BBXX PDUJ 01183 99363 70083 41497 73107 10168 20108 40299 52009 7//22 877// 22223 04218 20501 328// 41202 80133
BBXX BATFR11 01184 99421 10042 46/// ///// 10140 20115 40224 51007 22263 00140
BBXX BATFR33 01184 99380 10097 46/// /3220 10157 20125 40247 53011 22275 00024
BBXX BATFR46 01184 99376 70006 46/// /2213 10157 20127 40254 53008 22253 00162
BBXX BATEU05 01184 99667 70167 46/// /3306 11008 49642 53007 22263
BBXX BATFR27 01184 99481 70052 46/// /2830 10122 20082 40078 56016 22283 00130
BBXX BATEU08 01184 99578 10046 46/// /2225 10084 20064 49919 51008 22223
BBXX BATFR20 01184 99414 10094 44898 3//// 10140 20110 40226 70000 8304/ 22244 20000
BBXX BATEU01 01184 99439 70265 46/// /2836 10127 20037 40247 51015 22263 00139
BBXX 61002 01184 99421 10047 46/// /0000 10135 2//// 40230 52002 22200 00133 10502 70009
BBXX IDDUK02 01184 99538 50379 46/// ///// 40056 222//
AAXX 01181 14235 12760 8//// 10032 21015 39053 48501 52006 60002 86071 333 10038 44017
AAXX 01181 14246 11665 71803 10044 20007 30005 40213 50/// 69902 700// 84531 333 10059
AAXX 01181 14314 12980 23501 10084 20030 30173 40238 52/// 60002 81072 333 10120 92301 92418
AAXX 01181 14323 11982 30901 10072 20018 30203 40237 52/// 60002 702// 80002 333 10129 92311 92418
AAXX 01181 14324 12980 22703 10032 21059 38437 48538 53/// 60002 80002 333 10072 44032
AAXX 01181 14328 11658 11501 10012 21005 39823 40230 51/// 60002 710// 81500 333 10091 42004
AAXX 01181 14330 11940 22401 11015 21041 39571 40266 52/// 60002 710// 82030 333 10060 43007 92842
AAXX 01181 14438 12980 00000 10090 20020 30144 40236 53/// 60002 333 10129 923//
AAXX 01181 14443 32999 032// 10104 20100 30143 40243 52011 333 10127 92312
AAXX 01181 14447 12984 03401 10083 20034 30210 40241 52/// 60002 333 10142 92311
AAXX 01181 14472 12980 00000 10081 21045 30160 40225 52014 60002 333 10127 92312
AAXX 01184 60672 36/// /1005 10119 21141 333 10151
AAXX 01184 60353 NIL
AAXX 01184 60367 12565 6//// 10130 20095 40269 58018 60002 86800 333 10158 83820 83640
AAXX 01184 60369 12560 00000 10154 20018 40273 52009 60002 333 10187 91827
AAXX 01184 60401 NIL
AAXX 01184 60403 12660 33207 10115 20093 40284 53014 60002 81230 333 10194 81840 83360 95990
AAXX 01184 60425 12970 00000 10127 20065 40283 53002 60002 333 10170 95990
AAXX 01184 60461 12970 00000 10148 20082 40274 51002 60002 222// 20000 333 10170 91808 95990
AAXX 01184 60467 12965 00000 10105 20077 40285 54001 60002 333 10157 95990
AAXX 01184 60492 12962 00000 10120 20080 40279 53004 60002 333 10185 95990
AAXX 01184 60515 12960 00000 10114 20060 40299 53009 60002 333 10154 95990
AAXX 01184 60517 12965 00000 10144 20088 40278 53007 60002 333 10172 95990
AAXX 01184 60522 12970 00000 10123 20061 40291 53008 60002 333 10200 95990
AAXX 01184 60557 11970 00000 10090 20036 38949 48582 53006 60002 70200 333 10140 95990
AAXX 01184 60563 12960 00000 10112 20002 39386 48575 52011 60002 333 10169
AAXX 01184 60603 12960 00904 10131 21011 40312 53009 60002 333 10175
AAXX 01184 60638 12960 00906 10133 21022 40289 53008 60002 333 10175
AAXX 01184 60686 NIL
AAXX 01184 60395 12960 00000 10134 20087 40270 51008 60002 333 10191 95990
AAXX 01184 60421 12960 00000 10105 20084 39227 48559 53003 60002 333 10150 95990
AAXX 01184 60423 12670 10000 10094 20074 39286 48548 50004 60002 81200 333 10142 81840 95990
AAXX 01184 60430 12965 02803 10122 20036 40289 53005 60002 333 10155 95990
AAXX 01184 60437 12975 02203 10085 20027 39060 48556 53004 60002 333 10131 95900
AAXX 01184 60444 12970 03004 10087 20044 39172 48573 55006 60002 333 10166 95900
AAXX 01184 60452 12965 0//// 10150 20087 40269 53003 60002 222// 20000 333 10185 91816
AAXX 01184 60457 12965 00000 10110 20090 40273 53002 60002 333 10185 95990
AAXX 01184 60514 12960 00000 10101 20065 39366 48594 53006 60002 333 10169 95990
AAXX 01184 60518 12965 00000 10145 20041 40261 53003 60002 222// 20000 333 10185 91807 95900
AAXX 01184 60520 12960 00000 10100 20073 40283 51002 60002 333 10185 95990
AAXX 01184 60540 11960 02606 10114 20024 39124 48575 53003 60002 70200 333 10138 95990
AAXX 01184 60560 11960 00000 10103 20018 39044 48578 53007 60002 70200 333 10172 95990
AAXX 01183 41150 42966 31408 10197 20109 40163 83030 333 10227 59047 83366
AAXX 01184 40340 32960 00000 10164 20047 40200 52028 333 10210
AAXX 01181 13492 NIL
AAXX 01181 13585 42997 01101 11042 21076 39442 40275 52018 333 10024 94075 46002
AAXX 01181 13597 42998 ///// 10020 21081 30169 40244 52023 333 10080 94071
AAXX 01181 13598 42998 00000 11080 21103 48479 52014 333 10020 47018 94069
AAXX 01184 60660 36/// /3508 10185 21125 333 10211
AAXX 01181 40700 12960 00000 10024 20008 30066 40156 54000 60001 333 55068
AAXX 01181 40723 12960 00000 10024 21013 38886 40174 56003 60001 333 55055 20867
AAXX 01181 40726 11660 30000 10032 21003 38645 40180 52017 69941 72520 83500 333 55029 83635
AAXX 01181 40727 11658 50000 10010 20005 38460 40186 54000 69911 71072 85130 333 55006 20755 82840 83645
AAXX 01181 40734 12560 70000 10088 20080 30171 40145 54000 60001 84430 333 55044 84627 85359
AAXX 01181 40737 12960 70000 10082 20078 30132 40150 57005 60001 87070 333 55056 2//// 87359
AAXX 01181 40741 12960 30000 10045 21015 39840 40182 52022 60001 80001 333 55062 83070
AAXX 01181 40780 11658 71304 10078 20040 38679 40170 51005 60011 78082 85370 333 55044 20851 82935 83640 87459
AAXX 01181 40791 12960 30000 10100 21043 39332 40165 57010 60001 83030 333 55036 83360
AAXX 01181 40792 12665 71102 10096 21095 38707 40153 54000 60001 83570 333 55040 83635 85360
AAXX 01181 40794 12660 60000 10130 20058 30071 40169 52007 60001 82530 91740 333 55034 20644 82640 86360
AAXX 01181 40812 12660 50000 10148 20030 39781 40156 52009 60001 85500 91745 333 55000 85640
AAXX 01181 40829 12962 20000 10066 21088 39616 40204 58004 60001 82030 333 55085 82360
AAXX 01181 40833 11660 31405 10178 20116 30137 40169 53009 69921 70121 83400 91745 333 55039 83640
AAXX 01181 40835 12960 70000 10146 21022 39346 40177 53007 60001 87070 333 55007 87360
AAXX 01181 40845 NIL
AAXX 01181 40882 11958 00000 10202 20115 30136 40171 52001 60001 70500 333 55091
AAXX 01181 40889 NIL
AAXX 01181 40890 NIL
AAXX 01181 40893 12960 02102 10210 20127 30171 40177 51001 60001 222// 00/// 20501 333 55090
AAXX 01181 40897 NIL
AAXX 01181 08501 NIL
AAXX 01181 08505 32570 22904 10168 20085 30275 40325 52009 81802 333 10184 81820 555 60007
AAXX 01181 08506 32/// /0401 10152 20101 30261 40333 52009 333 10171 91105 555 60005
AAXX 01181 08509 32560 33104 10162 20117 30261 40326 53011 83800 333 10176 83825 555 60007
AAXX 01181 08511 32/// /9902 10154 20089 30218 40327 52011 333 10181 91107 555 60005
AAXX 01181 08512 32/// /0103 10163 20104 30234 40320 52010 333 10187 91107 555 60005
AAXX 01181 08515 32480 73102 10172 20138 30201 40326 52010 878// 333 10190 83818 86646 910// 911// 555 60007 912//
AAXX 01181 08521 32470 69901 10163 20095 30258 40329 53011 86800 333 10189 83818 8630 555 60007
AAXX 01181 08522 32/// /9901 10170 20084 30257 40327 52007 333 10196 555 60005
AAXX 01181 08524 32475 83303 10160 20087 30230 40329 52007 888// 333 10175 81845 88630 91005 91107 555 60005
AAXX 01181 08530 NIL
AAXX 01181 08531 32/// /2405 10149 20111 30242 40280 54000 333 10151 555 60005
AAXX 01181 08532 NIL
AAXX 01181 08533 32/// /3103 10147 20101 30274 40304 52011 333 10164 91106 555 60005
AAXX 01180 08534 32570 82403 10136 20101 30270 40288 53002 885// 333 10156 88635 555 60007
AAXX 01181 08535 32/// /2404 10139 20092 30195 40289 52004 333 10154 91007 91107 555 60005
AAXX 01181 08537 NIL
AAXX 01181 08540 32560 82104 10138 20098 30205 40274 53002 888// 333 10150 81825 87630 555 60007
AAXX 01181 08541 32/// /2503 10135 20081 30176 40296 52004 333 10155 91105 555 60005
AAXX 01181 08544 11330 81905 10126 20115 30233 40254 58003 69902 75152 8685/ 333 10148 83707 85625 91009 91110 96010 555 69907
AAXX 01181 08545 11240 81906 10127 20112 30166 40249 57007 60012 76162 887// 333 10141 84704 85705 91010 91111 96010 555 69985
AAXX 01181 08548 32/// /2103 10124 20082 30068 40274 54000 333 10135 91106 555 60005
AAXX 01181 08551 NIL
AAXX 01181 08554 31570 23302 10141 20086 30290 40300 53013 70300 81800 333 10179 81828 555 60005
AAXX 01181 08558 32/// /2302 10107 20089 39993 40291 52005 333 10130 555 60005
AAXX 01181 08560 32/// /2104 10077 20068 39503 40271 57002 333 10108 91007 91107 555 60005
AAXX 01181 08561 32470 73002 10121 20093 30062 40298 52008 878// 333 10132 82812 87620 555 60007
AAXX 01181 08562 32/// /3002 10117 20085 39996 40293 52008 333 10130 555 60005
AAXX 01181 08567 32/// /2207 10100 20064 39584 40252 57005 333 10118 91011 91111 555 60005
AAXX 01181 08568 32/// /2809 10035 2//// 38686 48555 57005 333 10112 91014 91114 555 60005
AAXX 01181 08570 32/// /2403 10101 20076 39815 40279 52005 333 10124 91005 91106 555 60005
AAXX 01181 08571 32/// /2602 10081 20078 39576 40291 52003 333 10100 91005 91105 555 60005
AAXX 01181 08575 32/// /1801 10088 20054 39431 40247 57005 333 10104 91105 555 60005
AAXX 01181 08579 32/// /2402 10139 20088 30162 40287 52004 333 10151 91005 91107 555 60005
AAXX 01184 89022 42967 80807 11038 21051 39893 49931 57009 8807/ 333 88359
AAXX 01184 89062 42465 80310 10029 21015 39846 49886 52006 875// 333 83620 86640
AAXX 01181 48870 32498 83602 10228 20204 30151 40158 58010 888// 333 59005 83894 88696
AAXX 01181 48877 11497 80000 10224 20209 30147 40152 57012 60041 78082 889// 333 59003 82894 82995 86696 9616 0
AAXX 01181 48887 32998 70504 10248 20215 30115 40121 58008 80008 333 59008 87299
AAXX 01181 48920 32798 30209 10262 20245 30115 40118 58012 83500 333 59007 83697
AAXX 01181 23914 11998 81801 11101 21108 39969 40239 52009 69970 70272 8807/ 333 11078
AAXX 01181 23921 12197 80000 11085 21096 30092 40215 52011 69900 85950 333 11068
AAXX 01181 23955 42984 82304 11087 21111 30185 40249 56004 82037
AAXX 01181 23966 42999 82001 11066 21082 30158 40288 57011 885//
AAXX 01181 28138 11599 72001 11100 21109 39648 40242 52003 69930 78202 87500 333 11097
AAXX 01181 28224 11597 70000 11083 21102 30018 40242 52005 69920 77172 87500 333 11074
AAXX 01181 28255 32594 82201 11120 21126 30116 40253 54000 83531 333 11082
AAXX 01181 28440 32997 71401 11084 21131 39890 40254 54000 87070 333 11084
AAXX 01181 28645 12597 82002 11096 21112 39965 40274 57005 69900 885// 333 11073
AAXX 01181 28661 12997 62004 11095 21107 30200 40296 57004 69900 86030 333 11070
AAXX 01181 28722 11596 81801 11059 21074 30095 40230 58005 69950 77172 8802/ 333 11055
AAXX 01181 28748 32969 81603 11128 21141 30031 40287 57009 8807/ 333 11072
AAXX 01181 28838 11996 81001 11126 21132 39775 40280 57010 69900 77172 8807/ 333 11089
AAXX 01181 29231 41596 81803 11069 21086 30230 40331 57014 78582 889// 333 88925
AAXX 01181 29313 42998 81905 11110 21132 30206 40335 57010 80007
AAXX 01181 29612 42998 21502 11179 21191 30214 40380 58011 80001
AAXX 01181 29638 41496 81605 11096 21117 30221 40396 57009 78582 889// 333 88915
AAXX 01181 29838 42997 00000 11169 21182 30163 40415 57013
AAXX 01181 29846 NIL
AAXX 01181 36061 42999 00000 11220 21233 39992 40444 57014
AAXX 01181 28049 32997 01705 11121 21140 30055 40228 52003 333 11085
AAXX 01181 28144 32998 52502 11104 21118 30069 40234 52006 80001 333 11071
AAXX 01181 28319 11496 81301 11073 21090 30069 40240 52005 69930 77172 8802/ 333 11068
AAXX 01181 28321 11997 81101 11084 21095 30029 40240 52007 69940 77187 8802/ 333 11076
AAXX 01181 28334 11597 80000 11080 21089 39934 40250 52004 69920 77172 8802/ 333 11069
AAXX 01181 28434 32598 80000 11078 21091 39979 40247 50000 889// 333 11064 86921
AAXX 01181 28552 11598 82303 11090 21109 30163 40281 58002 69900 70232 885// 333 11061
AAXX 01181 28666 12999 01702 11153 21170 30126 40314 55005 69900 333 11101
AAXX 01181 28825 32997 70000 11103 21119 30052 40233 57007 85035 333 11048
AAXX 01181 29111 42998 82204 11078 21124 30188 40279 57009 80005
AAXX 01181 29209 42998 61601 11121 21148 30180 40314 57008 80002
AAXX 01181 29551 41497 82203 11073 21107 30208 40399 57009 70282 8532/
AAXX 01181 29602 42999 81503 11186 21212 30210 40365 58016 8801/
AAXX 01181 29636 41598 81601 11106 21119 30173 40404 57007 70282 883//
AAXX 01181 29654 41497 81803 11095 21107 39765 40409 58011 78583 889// 333 83711
AAXX 01181 29712 42998 01602 11184 21196 30237 40393 57005
AAXX 01181 29724 42697 70000 11139 21152 30179 40397 57009 83572
AAXX 01181 29726 41596 81802 11098 21129 30228 40405 57003 77172 885// 333 88630
AAXX 01181 29814 42999 01302 11215 21233 30235 40400 57007
AAXX 01181 29827 42697 20901 11143 21156 30235 40401 57008 82500
AAXX 01181 29923 42999 00000 11202 21221 30118 40421 57010
AAXX 01181 29939 42997 00701 11216 21234 30116 40431 57013
AAXX 01181 35026 32597 61402 11135 21158 39580 40255 57014 86500 333 11115
AAXX 01181 36021 42999 01601 11195 21214 30209 40407 57002
AAXX 01181 36022 42998 00401 11222 21235 30121 40411 58014
AAXX 01181 36038 42999 00000 11191 21210 39936 40420 57011
AAXX 01181 36058 42999 00000 11174 21180 39877 40444 57012
AAXX 01181 36064 42999 00704 11048 21120 39801 40414 57013
AAXX 01181 36229 42999 00000 11230 21239 39219 40519 57005
AAXX 01181 36259 42999 00000 11293 21324 38357 48643 58002
AAXX 01181 48892 32598 20508 10257 20224 30117 40122 57010 82100 333 59009 82895
AAXX 01181 23909 11497 82102 11084 21095 39971 40228 52008 69950 70272 8357/ 333 11063
AAXX 01181 28044 32597 62802 11106 21126 30051 40223 52007 86500 333 11056
AAXX 01181 28116 12699 71701 11093 21113 39996 40239 52004 60020 83570 333 11070
AAXX 01181 28240 32998 82602 11072 21098 39910 40246 53003 8807/ 333 11064
AAXX 01181 28522 11997 81601 11070 21082 39974 40241 58002 69920 70272 8805/ 333 11063
AAXX 01181 28621 12497 81401 11068 21081 39990 40231 58005 69900 889// 333 11063
AAXX 01181 28719 12484 816// 11083 21094 39779 40236 58005 69900 886// 333 11074
AAXX 01181 29023 42998 82003 11072 21089 30180 40281 57020 80002
AAXX 01181 29122 42599 11067 21095 30218 40285 57014 83530
AAXX 01181 29328 41598 82005 11097 21128 30213 40360 57009 73683 889// 333 85635
AAXX 01181 29348 41496 82002 11091 21111 30224 40376 57012 78582 889// 333 86710
AAXX 01181 29405 42997 81802 11152 21179 30198 40357 57002 83031
AAXX 01181 29418 42998 31803 11146 21173 30187 40357 57014 80001
AAXX 01181 29430 42498 82101 11098 21115 30196 40382 57011 885// 333 88617
AAXX 01181 29524 41998 01702 11123 21136 30205 40378 57009 70281
AAXX 01181 29605 42998 41802 11184 21196 30209 40364 57012 80001
AAXX 01181 29631 41596 82003 11107 21120 30198 40394 57011 78582 889//
AAXX 01181 29645 42598 81802 11079 21106 30211 40407 57011 885// 333 88621
AAXX 01181 29706 42998 81803 11193 21212 30220 40380 57008 80001
AAXX 01181 29736 41497 81702 11103 21123 30147 40411 57013 78581 883//
AAXX 01181 29937 42998 03101 11170 21189 30177 40418 57015
AAXX 01181 36034 42998 00302 11180 21199 30106 40407 57017
AAXX 01181 36096 41996 80701 11220 21239 39688 40550 57004 77177 8807/ 333 95090
AAXX 01181 34357 32598 81407 11004 21006 39971 40129 57017 885// 333 10003
AAXX 01181 34363 31295 81504 11018 21018 30026 40182 56005 72842 886// 333 11010 93403
AAXX 01181 34545 12296 81407 11005 21005 30012 40125 57010 69900 886// 333 10021
AAXX 01181 34579 32998 01204 11006 21021 30136 40181 57006 333 10002
AAXX 01181 34838 31597 80102 10067 20047 30016 40111 57002 78082 889// 333 10088
AAXX 01181 34927 31596 82803 10043 20031 30095 40132 53022 78082 889// 333 10102
AAXX 01181 34949 32998 61304 11008 21032 39575 40130 57005 83031 333 10073
AAXX 01181 37001 11496 83604 10026 20014 30111 40152 52022 69940 76162 8872/ 333 10120
AAXX 01181 37031 32997 81602 10041 21003 39922 40118 51008 86034 333 10099
AAXX 01181 37061 31958 81404 10015 21001 39986 40154 57010 71022 8807/ 333 10019
AAXX 01181 37085 11496 80802 10016 20005 30199 40226 50001 69900 76162 8872/ 333 10022
AAXX 01181 37107 32698 80000 10055 20012 39470 40145 52008 885// 333 10104
AAXX 01181 37126 42999 82003 11033 21122 37872 48446 58002 86031 333 10020
AAXX 01181 37171 32796 80401 10089 20030 30117 40135 52012 8257/ 333 10146
AAXX 01181 37228 32997 01801 11018 21046 39296 40147 58006 333 10066
AAXX 01181 37470 32596 82001 10049 20005 30186 40164 58003 885// 333 10061
AAXX 01181 37663 32996 02801 11030 21059 38960 48433 57004 333 10078
AAXX 01181 48806 32498 81602 10146 20128 39408 40196 57007 888// 333 59020 83894 88696
AAXX 01184 60686 12960 20610 10188 21059 40214 57008 60002 80002 333 10239 82073
AAXX 01184 71228 16/// /2404 11098 21180 60001 333 11098 21194 7////
AAXX 01184 71407 16/// /2715 11347 21388 30165 40187 51016 60001 333 11337 21380 70000
AAXX 01184 71423 16/// /0119 11030 21040 30082 40091 55005 60001 333 11005 21035 7////
AAXX 01184 71622 17/// ///// 10061 20042 39648 49980 57053 60051 7//4/ 333 10061 20017 70053
AAXX 01184 71964 11556 81715 11091 21112 39206 40079 58024 69921 78572 885// 333 11088 21208 47018 70002 90925
AAXX 01184 71903 46/// /1417 10051 20036 39901 49950 5/057 6///1 333 7////
AAXX 01184 71018 16/// ///08 11312 21344 30106 40199 53020 60001 333 11310 21350 70000
AAXX 01184 71374 46/// /0221 11043 21062 6///1 333 11040 21102 7////
AAXX 01184 71381 46/// /0906 11075 21093 6///1 333 11075 21153 70000
AAXX 01184 71387 16/// /2102 11069 21087 39737 40122 56030 60001 333 11064 21121 70000
AAXX 01184 71737 16/// /1404 11012 21022 39554 40077 58046 60001 333 11007 21051 70000
AAXX 01184 71743 16/// /0801 11178 21206 39851 40074 58018 60001 333 11161 21217 7////
AAXX 01184 71748 16/// /3224 11086 21120 39944 40239 51035 60001 333 11017 21099 70000
AAXX 01184 71550 16/// /2912 11063 21114 39898 40284 51017 60001 333 11028 21079 70000
AAXX 01184 71575 16/// /2702 11246 21274 30028 40095 50004 60001 333 11144 21249 70000
AAXX 01184 71576 16/// /1801 11372 21414 30018 40109 53010 60001 333 11362 21388 70000
AAXX 01184 71581 16/// /1503 10010 21002 39527 40006 56067 60001 333 10010 21049 70000
AAXX 01184 71586 16/// /2905 11128 21156 39832 40317 51017 60001 333 11089 21142 70000 555 10010
AAXX 01184 71682 16/// /0701 11328 21359 30056 40307 51009 60001 333 11311 21337 70000
AAXX 01184 71151 16/// /3117 11102 21126 39646 40160 51030 60001 333 11034 21103 70008
AAXX 01184 71186 46/// /0817 11046 21077 6///1 333 11046 21107 7////
AAXX 01184 71190 46/// /1307 11025 21049 6///1 333 11023 21047 7////
AAXX 01184 71976 46/// /2701 11188 21209 39434 40079 58006 6///1 333 11188 21207 7//// 555 10030
AAXX 01184 71300 17/// /1106 10016 20008 39930 40053 58078 69931 7//4/ 333 10016 21037 70003
AAXX 01184 71334 46/// /3208 11242 21277 39930 40278 51028 6///1 333 11170 21244 7////
AAXX 01184 71340 16/// /2502 11122 21189 60001 333 11119 21203 70000
AAXX 01184 71341 16/// /0000 11016 21110 60001 333 11016 21134 70000
AAXX 01184 71342 17/// /2208 11094 21147 69951 7//4/ 333 11094 21137 70005
AAXX 01184 71344 16/// /1510 11091 21123 60001 333 11091 21143 70000
AAXX 01184 71347 46/// /1106 11103 21170 6///1 333 11103 21233 7////
AAXX 01184 71348 46/// /0905 11126 21180 6///1 333 7////
AAXX 01184 71349 16/// ///// 11122 21191 60001 333 11092 21189 70004
AAXX 01184 71752 17/// /1913 10071 20050 39787 40001 58052 60021 7//4/ 333 10078 20026 70022
AAXX 01184 71771 46/// /1541 10061 20056 39984 40004 56034 6///1 333 10067 20036 7////
AAXX 01184 71478 17/// /1565 10061 20043 39929 40064 55013 60021 7//4/ 333 10066 20016 70016
AAXX 01184 71421 16/// ///// 11112 21135 39427 40166 57015 60001 333 11102 21258 70003
AAXX 01184 71435 17/// /2609 11067 21081 39462 40058 51007 69931 7//4/ 333 11027 21068 70044 555 10070
AAXX 01184 71832 16/// /2104 11013 21018 39627 49950 56026 60001 333 11013 21043 70000 555 10070
AAXX 01184 87344 32565 10509 10330 20134 39593 40120 57013 81400 333 56000 81625
AAXX 01184 87349 32970 01804 10319 20127 39742 40123 57013
AAXX 01184 87371 32962 01404 10300 20148 30121 40142 57015
AAXX 01184 87374 32965 00905 10301 20137 30046 40131 57015
AAXX 01184 87395 32565 51116 10288 20152 30078 40122 58015 85100 333 56200 85820
AAXX 01184 87418 32765 21407 10375 20121 39322 40077 57015 82100 333 56600 82850
AAXX 01184 87436 32670 21106 10364 20134 39326 40095 58008 82500 333 56800 82640
AAXX 01184 87448 32965 00506 10358 20163 39570 40105 57008 333
AAXX 01184 87453 32965 00511 10331 20149 39645 40115 57009
AAXX 01184 87467 32970 01407 10312 20170 30009 40140 57008
AAXX 01184 87497 32965 01406 10302 20124 30117 40143 57019
AAXX 01184 87506 32670 20509 10330 20078 38596 48523 57015 82200 333 56600 57843 82835 95010
AAXX 01184 87509 32570 10908 10371 20126 39284 40096 58011 81100 333 56800 81830
AAXX 01184 87532 32975 00505 10346 20205 39958 40122 57016
AAXX 01184 87534 32960 03202 10339 20132 39970 40127 57013
AAXX 01184 87548 32962 00208 10318 20100 30050 40143 58012
AAXX 01184 87576 32960 09906 10301 20096 30134 40157 57012
AAXX 01184 87582 32960 00911 10258 20165 30153 40160 57015
AAXX 01184 87585 32960 03603 10286 20141 30126 40155 57012
AAXX 01183 87480 32965 00707 10291 20140 30113 40142 57013
AAXX 01184 71269 16/// /2104 11059 21106 60001 333 11058 21127 70000
AAXX 01184 71270 17/// /1508 10028 20015 39750 49967 56063 60021 7//4/ 333 10032 20006 70016
AAXX 01184 71285 46/// /1803 11147 21193 6///1 333 11107 21195 7////
AAXX 01184 71295 16/// /3013 11077 21108 39680 40132 53025 60001 333 11028 21077 70028 555 10040
AAXX 01184 71296 17/// /1614 10031 20023 39674 49976 58056 60011 7//4/ 333 10031 20000 70012
AAXX 01184 71107 16/// /1950 10060 20054 39901 40012 56038 60001 333 10060 20037 70000
AAXX 01184 71503 46/// /0605 11303 21338 39988 40281 53005 6///1 333 11288 21341 7//// 555 10020
AAXX 01184 71506 46/// /1025 11154 21212 39222 40135 58016 6///1 333 11138 21285 7////
AAXX 01184 71514 16/// /3012 11116 21160 39645 40377 51026 60001 333 11075 21142 70000
AAXX 01184 71522 46/// /1202 11080 21098 39636 40133 56028 6///1 333 11079 21115 70000
AAXX 01184 71539 16/// /2815 11082 21144 39663 40390 51026 60001 333 11061 21108 70000
AAXX 01184 71964 11556 81715 11091 21112 39206 40079 58024 69921 78572 885// 333 11088 21208 47018 70002 90925
AAXX 01184 71421 16/// ///// 11112 21135 39427 40166 57015 60001 333 11102 21258 70003
AAXX 01184 71435 17/// /2609 11067 21081 39462 40058 51007 69931 7//4/ 333 11027 21068 70044 555 10070
AAXX 01184 71832 16/// /2104 11013 21018 39627 49950 56026 60001 333 11013 21043 70000 555 10070
AAXX 01184 86330 32598 61115 10277 20158 40103 57011 86400
AAXX 01184 86360 32697 51314 10300 20140 40123 57014 85500
AAXX 01184 86460 32698 10910 10306 20081 40132 57013 81100
AAXX 01184 86490 32998 01503 10322 20067 40143 57010
AAXX 01184 86530 32997 01510 10318 20063 40127 57020
AAXX 01184 86545 32997 00912 10298 20150 40146 57014
AAXX 01184 86565 32598 10818 10270 20136 40152 57008 81100
AAXX 01184 86580 32897 11212 10246 20190 40161 56007 81050
AAXX 01184 71503 46/// /0605 11303 21338 39988 40281 53005 6///1 333 11288 21341 7//// 555 10020
AAXX 01184 71506 46/// /1025 11154 21212 39222 40135 58016 6///1 333 11138 21285 7////
AAXX 01184 71514 16/// /3012 11116 21160 39645 40377 51026 60001 333 11075 21142 70000
AAXX 01184 71522 46/// /1202 11080 21098 39636 40133 56028 6///1 333 11079 21115 70000
AAXX 01184 71539 16/// /2815 11082 21144 39663 40390 51026 60001 333 11061 21108 70000
AAXX 01184 41252 36/// /3304 10200 20048 39810 40100 333 0E020 10265 59010
AAXX 01184 41268 36/// /2103 10192 20108 30169 48206 333 0E021 10257 59021
AAXX 01181 48830 31796 83603 10128 20077 39897 40214 56004 71022 885// 333 59031 88697
AAXX 01181 48808 11497 80000 10119 20115 39927 40221 58002 69941 76162 888// 333 59024 82894 88696 96160
AAXX 01181 48839 32697 80508 10176 20147 30125 40192 56010 885// 222// 00180 2//// 333 59025 88696
AAXX 01181 48826 31796 83202 10152 20130 30058 40197 58004 71022 885// 333 59028 88697
AAXX 01181 28216 12698 72301 11090 21106 39943 40238 52007 69970 87500 333 11090
AAXX 01181 28428 11496 81901 11067 21079 30091 40243 54000 69920 77172 8802/ 333 11060
AAXX 01181 28451 32996 82002 11081 21101 30100 40266 52003 8807/ 333 11071
AAXX 01181 28541 32983 70000 11101 21129 39741 40257 57001 80001 333 11084
AAXX 01181 28655 11998 72003 11124 21136 30055 40291 57003 69900 70232 80002 333 11072
AAXX 01181 28756 11997 62003 11133 21150 30153 40311 55004 69900 70272 86070 333 11082
AAXX 01181 29557 42698 82302 11062 21097 30118 40395 57009 885// 333 88633
AAXX 01181 29625 42498 82203 11120 21140 30201 40392 57006 889// 333 83919
AAXX 01181 29813 42999 01401 11187 21206 30191 40387 57005
AAXX 01181 29822 42997 81402 11132 21145 30232 40407 57006 8805/
AAXX 01181 29915 42998 01201 11185 21197 30221 40393 57012
AAXX 01181 36020 42998 01201 11152 21165 30186 40402 57010
AAXX 01181 22003 11599 81610 11005 21026 30140 40150 52001 69902 73683 889// 333 10005 91013 91114
AAXX 01181 22140 31597 81014 11014 21040 30155 40170 52011 73632 885// 333 11007 91018 91119
AAXX 01181 22004 11984 01112 11020 21041 30015 40129 53001 69902 73631 333 11018 91017 91117
AAXX 01181 22213 11580 80905 11020 21032 39980 40150 52007 69902 78582 8597/ 333 11014 91007
AAXX 01181 22100 32499 81101 11036 21047 39983 40130 52002 886// 333 11033 86716 91003
AAXX 01184 68032 42660 11404 10283 20179 48501 52022 81400 333 10350
AAXX 01184 60595 36/// /0000 11451 333 11451
AAXX 01184 60381 36/// /0401 10132 20080 333 10201
AAXX 01184 60639 36/// /0804 10118 21045 333 10157
AAXX 01184 60605 36/// /0000 10154 21056 333 10172
AAXX 01181 56146 32980 01802 11043 21139 36706 57007 333 05403 10130
AAXX 01181 56444 32780 62701 10024 21064 36816 57006 86100 333 05206 10113
AAXX 01181 56492 11720 80201 10070 20053 39855 40273 57010 69941 76060 885// 333 05152 10088
AAXX 01181 56571 32980 02001 10069 20012 38381 57004 333 05401 10192
AAXX 01181 57799 32962 82901 10079 20048 30179 40270 57002 8807/ 333 10130
AAXX 01181 57866 11757 80403 10080 20055 30056 40268 57006 69961 76060 885// 333 10098
AAXX 01181 57957 31757 80201 10100 20050 30050 40252 57007 71000 885// 333 10109
AAXX 01181 57993 32760 81101 10094 20056 30087 40256 57005 885// 333 10138
AAXX 01181 58027 31958 01102 10007 21060 30262 40315 54000 70500 333 10061
AAXX 01181 58141 31925 03401 11010 21049 30299 40319 57005 70500 333 10066
AAXX 01181 58265 32563 60203 10044 21043 30297 40303 57013 82540 333 10074
AAXX 01181 58472 32980 33608 10052 21017 30186 40284 57015 83040 333 10072
AAXX 01181 58477 32963 03602 10039 21015 30236 40282 57015 333 10086
AAXX 01181 58527 32960 00701 10049 20008 30206 40284 52004 333 10141
AAXX 01181 58633 31940 70403 10051 20001 30193 40296 52007 70500 8704/ 333 10110
AAXX 01181 58666 31958 13608 10067 20014 30164 40269 57021 70500 81040 333 10094
AAXX 01181 58725 31420 81601 10041 20032 39998 40267 52002 71000 886// 333 10138
AAXX 01181 58921 31657 80401 10098 20077 39999 40251 57002 71000 885// 333 10137
AAXX 01181 59082 31657 82701 10112 20063 30094 40243 57006 70500 885// 333 10144
AAXX 01181 59211 31857 81101 10125 20080 30016 40226 57004 71000 885// 333 10158
AAXX 01181 59265 32960 00703 10110 20062 30090 40230 57008 333 10179
AAXX 01181 59293 32766 80703 10130 20047 30148 40234 57001 885// 333 10184
AAXX 01181 59501 32760 80703 10146 20088 30203 40224 57005 885// 333 10209
AAXX 01181 59663 31657 70403 10143 20076 30111 40219 57001 70500 875// 333 10216
AAXX 01181 59838 11760 80402 10195 20171 30170 40180 57005 69901 76000 885// 333 10246
AAXX 01181 59948 32370 70707 10173 20153 39698 40186 57007 878// 333 10210
AAXX 01181 59981 32570 20404 10225 20168 30166 40173 57007 82100 333 10256
AAXX 01181 23226 11660 80206 11119 21146 39960 40186 52007 60020 77172 8552/ 333 11063 85640 93403
AAXX 01181 23701 11364 82002 11022 21028 30075 40208 52009 69900 77172 8872/ 333 11012 86707
AAXX 01181 28909 32499 81401 11055 21069 30112 40215 57003 80002 333 11042
AAXX 01181 23205 11496 80605 11081 21104 30198 40214 52024 60060 77173 8652/ 333 11061 86617 91110
AAXX 01181 78458 21566 40907 10280 20237 40190 56009 70262 84200 333 10285 20204 30/// 56200 58000 69987 84820
AAXX 01181 78460 21464 41305 10282 20220 40185 57020 70564 84200 333 10285 20180 31/// 56200 59016 60047 84825
AAXX 01181 78467 32466 40905 10276 20240 40182 57023 83230 333 10280 20200 31/// 56200 58006 83818
AAXX 01181 78479 21566 50906 10267 20223 40173 57015 70362 84230 333 10284 20226 30/// 56100 58005 69937 84828 84357
AAXX 01181 78482 32566 21105 10310 20198 40186 58034 82201 333 10315 20190 30/// 56400 59002 82825
AAXX 01181 78485 21458 61004 10255 20220 40174 57030 76081 86830 333 10300 20202 32/// 56100 59002 60020 86618 83357
AAXX 01181 78486 31558 69902 10282 20223 40166 57018 76162 83520 333 10312 20215 31/// 56200 58008 69920 83620 83457
AAXX 01181 78488 21566 60405 10278 20240 40180 57026 70382 83870 333 10285 20185 30/// 56200 58000 69905 83622 83457
BBXX PDHY 01183 99489 70631 41398 73506 11020 40100 52008 70222 878// 22274 05000 20204 313// 40804 5////
BBXX PDHY 01183 99489 70631 41398 73506 11020 40100 52008 70222 878// 22274 05000 20204 313// 40804 5////
AAXX 01181 78458 21566 40907 10280 20237 40190 56009 70262 84200 333 10285 20204 30/// 56200 58000 69987 84820
AAXX 01181 78460 21464 41305 10282 20220 40185 57020 70564 84200 333 10285 20180 31/// 56200 59016 60047 84825
AAXX 01181 78467 32466 40905 10276 20240 40182 57023 83230 333 10280 20200 31/// 56200 58006 83818
AAXX 01181 78479 21566 50906 10267 20223 40173 57015 70362 84230 333 10284 20226 30/// 56100 58005 69937 84828 84357
AAXX 01181 78482 32566 21105 10310 20198 40186 58034 82201 333 10315 20190 30/// 56400 59002 82825
AAXX 01181 78485 21458 61004 10255 20220 40174 57030 76081 86830 333 10300 20202 32/// 56100 59002 60020 86618 83357
AAXX 01181 78486 31558 69902 10282 20223 40166 57018 76162 83520 333 10312 20215 31/// 56200 58008 69920 83620 83457
AAXX 01181 78488 21566 60405 10278 20240 40180 57026 70382 83870 333 10285 20185 30/// 56200 58000 69905 83622 83457
BBXX 46249 01181 99338 71197 46/// ///// 1//// 91807 22200 00141 11202 20901 326// 41202 70011
BBXX 46248 01181 99461 71247 46/// ///// 1//// 91804 22200 00096 11105 21004 324// 41103 70025
BBXX 46244 01181 99409 71244 46/// ///// 1//// 91805 22200 00101 11304 21002 329// 41303 70018
BBXX 51204 01181 99213 71581 46/// ///// 1//// 91752 22200 00245 11102 21001 330// 41101 70010
BBXX 46241 01181 99330 71173 46/// ///// 1//// 91741 22200 00144 11501 21001 327// 41501 70007
AAXX 01181 50353 31965 00000 11314 21351 30072 40324 52001 77600 333 11235
AAXX 01181 50557 32970 00401 11292 21324 39990 40329 52001 333 11187
AAXX 01181 50756 32960 00000 11261 21284 30009 40342 54000 333 11195
AAXX 01181 50949 32965 02001 11216 21251 30149 40337 57004 333 11135
AAXX 01181 50963 32962 02202 11274 21303 30183 40337 52006 333 11178
AAXX 01181 50978 32972 02704 11222 21244 39933 40315 52004 333 11140
AAXX 01181 51087 32980 00000 11255 21285 39412 40494 57005 333 05456 11140
AAXX 01181 51156 NIL
AAXX 01181 51644 NIL
AAXX 01181 51656 32965 00000 11095 21121 39231 40395 57014 333 05502 11015
AAXX 01181 51886 32980 21401 11152 21293 37119 57010 80002 333 05500 11032
AAXX 01181 52602 32980 02901 11172 21293 37276 57010 333 05351 11027
AAXX 01181 52713 32980 50000 11118 21263 36909 57009 80002 333 05303 11023
AAXX 01181 52754 32980 60402 11137 21279 36769 57008 80002 333 05401 11021
AAXX 01181 52818 32980 02201 11115 21264 37242 57014 333 05400 11014
AAXX 01181 52836 32980 02001 11114 21255 36892 57011 333 05506 11023
AAXX 01181 52955 32980 01401 11132 21268 36959 57012 333 05303 10012
AAXX 01181 53068 11980 02907 11195 21219 39111 40356 52007 69901 70070 333 05704 11151
AAXX 01181 53276 11980 72710 11148 21186 38897 40315 52004 69901 77000 82032 333 11039
AAXX 01181 54135 32975 02501 11180 21218 30099 40342 57008 333 11099
AAXX 01181 54236 32965 03202 11180 21203 30225 40340 57007 333 11087
AAXX 01181 54539 32970 70702 11067 21113 30306 40321 57017 80002 333 10009
AAXX 01181 54662 32970 03604 11096 21174 30202 40325 57003 333 11058
AAXX 01181 54753 32565 70901 11027 21082 30315 40322 57006 874// 333 10009
AAXX 01181 54857 32975 00204 11046 21084 30223 40320 57011 333 10018
AAXX 01181 57067 31958 70000 11033 21059 39615 40319 57010 71000 8703/ 333 10080
AAXX 01181 57178 31912 80202 10009 21027 30155 40321 57016 71000 8807/ 333 10029
AAXX 01181 57245 11940 81801 10042 20033 39932 40294 57010 69901 76060 8807/ 333 05203 10055
AAXX 01181 57297 31615 80702 10016 21006 30166 40313 57008 71000 885// 333 10023
BBXX 46240 01181 99366 71219 46/// ///// 1//// 91812 22200 00120 11102 21001 335// 41102 70010
BBXX 46237 01181 99378 71226 46/// ///// 1//// 91810 22200 00110 11303 21002 325// 41303 70016
BBXX 46216 01181 99343 71198 46/// ///// 1//// 91757 22200 00142 11402 21002 327// 41402 70012
BBXX 46223 01181 99335 71178 46/// ///// 1//// 91800 22200 00151 11402 21001 325// 41401 70008
BBXX 46231 01181 99327 71174 46/// ///// 1//// 91754 22200 00148 11403 20901 327// 41402 70014
BBXX 46222 01181 99336 71183 46/// ///// 1//// 91756 22200 00146 11402 21001 326// 41402 70012
BBXX 46242 01181 99332 71174 46/// ///// 1//// 91758 22200 00144 11401 21001 323// 41401 70007
BBXX 46211 01181 99469 71242 46/// ///// 1//// 91806 22200 00084 11103 20903 325// 41102 70017
AAXX 01184 89062 42465 80310 10029 21015 39846 49886 52006 875// 333 83620 86640
AAXX 01181 91945 36/// /0506 10288 20225 30158 40163 51009
BBXX 62001 01184 99453 70050 46/// /2322 10134 20114 40150 57004 22200 00130 10709 70047 333 90710 91136
BBXX 64046 01184 99606 70049 46/// /2221 10070 20032 49782 55000 22200 00081 10809 70044
BBXX 62163 01184 99475 70084 46/// /2722 10113 20057 40106 51018 22200 00125 10808 70041 333 90710 91130
BBXX 62029 01184 99487 70125 46/// /2824 10095 20040 40086 52018 22200 00126 11012 70059 333 90710 91136
BBXX 62301 01184 99524 70047 46/// /2619 10091 20052 49988 53007 22200 00091 10504 70022 333 90710 91128
BBXX 62442 01184 99490 70164 46/// /2733 1//// 2//// 40090 51013 22200 00122 333 90710 91145
BBXX 62303 01184 99516 70051 46/// /2622 10103 20049 40010 52011 22200 00110 10606 70030 333 90710 91129
BBXX 64045 01184 99591 70117 46/// /2326 10049 20011 49762 55003 22200 00100 10912 70060 333 90710 91139
BBXX 62105 01184 99554 70122 46/// /2626 10058 20013 49884 53013 22200 00105 11015 70074 333 90710 91140
BBXX 62081 01184 99510 70134 46/// ///// 10079 20022 40028 52008 22200 00118 11014 70068
BBXX 62027 01184 99491 70022 46/// /2716 1//// 2//// 40067 53015 22200 00108 11304 327// 70019
BBXX 62129 01184 99584 10003 46/// ///// 10078 20039 49880 57004 22200
BBXX 62128 01184 99587 10014 47497 /2124 10076 20040 49874 58003 700// 22200 10605 70027
BBXX 63057 01184 99592 10015 47497 /2124 10080 20043 49862 58005 700// 22200 10706 70030
BBXX 63110 01184 99595 10015 46/// ///// 22200
BBXX 63056 01184 99597 10016 47598 /2120 10074 20030 49852 57004 700// 22200 10605 70027
BBXX 62121 01184 99535 10027 46/// ///// 22200
BBXX 62144 01184 99534 10017 47697 /2021 10097 20075 49979 57022 700// 22200 10302 70009
BBXX 62145 01184 99531 10028 47697 /1919 10106 20079 49994 57022 761// 22200 10503 70015
BBXX 62111 01184 99580 70003 46/// /2425 10078 20035 49885 56001 22200 10605 70026
BBXX PJAI 01184 99581 70014 47999 /2219 10083 20010 49862 54000 700// 22200
BBXX 62112 01184 99584 70002 47598 /2220 10076 20032 49868 57004 700// 22200
BBXX 63055 01184 99606 10016 46/// ///// 22200
BBXX 63108 01184 99608 10017 47298 /2121 10072 20030 49839 58006 762// 22200 10805 70027
BBXX 63106 01184 99610 10017 46/// /2118 10074 49837 58004 22200
BBXX 63105 01184 99610 10017 47697 ///// 10081 20032 49836 58005 700// 22200
BBXX 63113 01184 99610 10017 46/// /2219 10080 20032 49840 57004 22200 10606 70029
BBXX 63112 01184 99611 10010 46/// /2219 10068 20018 49828 58002 22200 10706 70032
BBXX 63107 01184 99611 10017 46/// /2018 10079 49834 58004 22200
BBXX 63101 01184 99612 10009 46/// /2318 10070 20035 49832 54000 22200
BBXX 63103 01184 99612 10011 46/// /2220 10080 20028 49831 57005 22200 10706 70031
BBXX 63104 01184 99612 10016 47598 /2022 10074 20034 49836 58003 762// 22200
BBXX 63117 01184 99613 10011 47598 /2117 10112 20034 49831 58005 700// 22200
BBXX 62142 01184 99530 10021 47696 /2220 10087 20077 49987 57021 752// 22200 10402 70010
BBXX 63115 01184 99616 10013 47498 /2021 10114 20036 49820 58002 700// 22200 10808 70039
BBXX MWYG6 01184 99603 70040 47998 /2022 10066 700// 22200
BBXX 64041 01184 99607 70026 47598 /2023 10072 20022 49800 56001 700// 22200 10808 70039
BBXX 62150 01184 99536 10007 47598 /2214 10086 20067 49981 57009 762// 22200 10402 70008
BBXX 62148 01184 99536 10015 46/// /2119 10092 20073 49978 57018 22200
BBXX 62149 01184 99537 10011 47696 /2316 10084 20068 49976 57008 700// 22200 10402 70010
BBXX 62131 01184 99539 10012 46/// /26// 10079 20063 49972 57011 22200
BBXX 62127 01184 99540 10007 47599 ///// 10080 20049 49965 58008 700// 22200 10402 70011
BBXX 62165 01184 99540 10009 47598 /2413 10079 20054 49973 56008 700// 22200 10403 70013
BBXX 62123 01184 99563 10022 47997 /2120 10092 20060 49926 58009 700// 22200
BBXX 62132 01184 99564 10020 46/// /2418 10087 20061 49923 58009 22200
BBXX 62120 01184 99564 10021 47997 /2321 10088 20088 49923 58009 700// 22200
BBXX 62154 01184 99564 10022 46/// /2218 10085 20064 49927 58009 22200
BBXX 62152 01184 99570 10018 47/97 /1915 10085 20044 49919 57010 700// 22200 10505 70027
BBXX 62119 01184 99570 10019 47597 /2420 10086 20045 49917 57011 700// 22200 10605 70024
BBXX 62133 01184 99571 10009 46/// /2322 10083 20031 49902 57010 22200 1//05 70024
BBXX PJGO 01184 99571 10022 47/97 /2118 10079 49919 56012 700// 22200
BBXX 62164 01184 99572 10008 465// /2217 10093 20043 49905 57006 22200 00091 10606 70028
BBXX 62146 01184 99572 10021 47/97 /2317 10083 20039 49914 55009 700// 22200 10606 70028
BBXX 62140 01184 99573 10013 46/// /24// 10084 20039 49903 57009 22200
BBXX 62122 01184 99573 10016 47597 /2320 10100 20040 49912 56008 700// 22200 10606 70028
BBXX 62153 01184 99573 10020 47597 /2321 10083 20041 49909 56009 700// 22200 10606 70030
BBXX 62104 01184 99574 10013 47697 /2421 10086 20039 49899 57008 700// 22200
BBXX 62116 01184 99576 10011 47597 /2322 10081 20032 49894 56004 700// 22200 10606 70028
BBXX 62155 01184 99577 10007 47598 /2227 10083 20038 49897 56004 751// 22200 10605 70027
BBXX 62118 01184 99577 10009 47597 /2224 10092 20040 49887 57006 700// 22200 10706 70028
BBXX 62143 01184 99577 10018 47597 /2212 10082 20038 49896 57005 700// 22200 10606 70029
BBXX 62117 01184 99579 10000 47598 /2224 10081 20040 49882 56003 700// 22200 10605 70027
BBXX 62102 01184 99579 10018 46/// /2320 10080 20033 49895 57006 22200 10706 70028
BBXX 62134 01184 99580 10014 47597 /2323 10081 20038 49889 56003 700// 22200 10605 70027
BBXX 62114 01184 99583 10000 46/// /2124 10077 20034 49869 56003 22200
BBXX ZQSD5 01184 99583 10007 46/// /2020 10080 20038 49879 58004 22200 10808 70041
BBXX 62113 01184 99584 10002 47998 /2123 10077 20039 49879 57005 700// 22200
BBXX 62103 01184 99499 70029 46/98 /2529 10120 20095 40036 53007 22200 00118 10804 70018 333 90710 91136
BBXX 62094 01184 99517 70067 46/// /25// 10094 2//// 40008 51015 22200 00105 10606 70031
BBXX 62170 01184 99514 10020 46/96 /2329 10116 20116 40008 57029 22200 00107 10602 70010 333 90710 91151
BBXX 62304 01184 99511 10018 46/96 /2335 10116 20104 40011 55028 22200 00105 10502 70011 333 90710 91152
BBXX 62305 01184 99504 10000 46/96 /2720 10109 20105 40037 55003 22200 00117 10603 70015 333 90710 91148
BBXX MYSU5 01184 99440 70199 41498 61431 10120 20056 40213 52030 72582 84392 22253 00140 20710 330// 41210 5//// 80090
BBXX PCGM 01183 99351 70275 41398 13110 10203 20163 40335 51006 70200 818// 22214 00202 20301 331// 40905 80177
BBXX V2NA1 01184 99483 70067 41397 72727 10130 20065 40075 52025 72166 8477/ 22254 20507 323// 41007 80096
BBXX 62094 01184 99517 70067 46/// /2522 10094 20036 40008 51015 22200 00105 10606 70031 333 90710 91130
BBXX 62107 01184 99501 70061 46/// /2826 10105 20051 40051 53018 22200 00116 11007 70033 333 90710 91136
BBXX 62095 01184 99530 70159 46/// /2821 10049 20011 49962 53005 22200 00112 11015 70074 333 90710 91137
BBXX 62103 01184 99499 70029 46/98 /2624 10117 20081 40042 53013 22200 00118 10704 70019 333 90710 91135
BBXX 62169 01183 99614 10014 41/97 52028 10090 20069 49831 54000 72586 8//// 22200 02080 20306 327// 41006 5//// 80080
BBXX PBHZ 01183 99634 10068 41/97 91809 10090 20080 49858 52004 70222 89/// 22213 20302 399// 40803 80085
AAXX 01184 40582 41835 52103 10170 20114 40149 52018 70622 85030 333 55300 00000 10132 20000 30000 41304 51437 60000 55407 40000 85358 90401 91003 91111 91209 91305
AAXX 01184 41150 NIL
AAXX 01184 41168 NIL
AAXX 01184 41170 42960 01405 10185 20149 30162 40175 333 10248 59042
AAXX 01184 41176 NIL
AAXX 01184 41184 42960 02502 10165 20110 40171 333 10282 59029
AAXX 01184 41194 12960 09902 10210 20112 30175 40180 60001 333 10276 59028
AAXX 01184 41196 42960 01001 10156 20084 30142 40182 333 10269 59028
AAXX 01184 41198 32983 02302 10202 20127 30152 40181 333 10246 59025
AAXX 01184 41210 NIL
AAXX 01184 41216 NIL
AAXX 01184 41217 42960 09902 10183 20105 30144 40173 333 10275 59025
AAXX 01184 41218 42960 09901 10196 20047 39874 40183 333 10265 59017
AAXX 01184 41226 NIL
AAXX 01184 41244 NIL
AAXX 01184 41246 32960 02204 10208 20135 30177 40182 333 10251 59023
AAXX 01184 41254 36/// /9902 10129 21096 38013 48018 333 0E009 10178 58001
AAXX 01184 41256 32960 02003 10201 20119 30170 40180 333 10247 59026
AAXX 01184 41258 NIL
AAXX 01184 41268 36/// /2103 10192 20108 30169 48206 333 0E021 10257 59021
AAXX 01184 41312 36/// /2405 10235 20144 30133 40172 333 0E/// 10280 59016
AAXX 01184 41314 NIL
AAXX 01184 41316 32960 00603 10214 20109 30149 40175 333 10288 59017
AAXX 01184 41404 NIL
AAXX 01184 41407 NIL
AAXX 01184 41431 42960 01507 10252 20208 40133 333 10290 59020
AAXX 01184 41466 42960 02706 10164 20117 38590 48492 333 10266 59018
AAXX 01184 41477 NIL
AAXX 01184 41480 42560 61009 10258 20185 30169 40172 82530 333 10288 59018 82620 86360
AAXX 01181 29998 42999 01401 11300 21311 38762 48590 52006
AAXX 01181 30385 41998 60000 11301 21319 39766 40364 53004 77172 80008
AAXX 01181 30469 429// 80000 11286 21304 39737 40383 56003 80002
AAXX 01181 30636 429// 00000 11275 21287 39723 40403 52005
AAXX 01181 30650 41970 80000 11212 21231 39144 40348 53003 77177 8802/
AAXX 01181 30664 41997 80000 11230 21249 39270 40345 57003 77172 8801/
AAXX 01181 30781 42999 20000 11330 21354 39840 40377 58003 80001
AAXX 01181 30777 42998 80000 11262 21294 39623 40343 57004 83017
AAXX 01181 30844 41998 82705 11126 21139 39317 40338 53005 77177 8802/
AAXX 01181 30925 429// 60000 11184 21196 39372 40419 58001 80005
AAXX 01181 31371 42999 00000 11327 21358 30026 40329 53004
AAXX 01181 31388 42984 00000 11346 21368 30023 40325 53002
AAXX 01181 31478 NIL
AAXX 01181 31532 42999 50000 11365 21387 39953 40351 53005 80002
AAXX 01181 31594 42999 00000 11326 21342 30120 40315 56002
AAXX 01181 31655 42998 01802 11232 21244 30234 40286 53002
AAXX 01181 31754 NIL
AAXX 01181 22282 11/// 91015 11053 21071 30185 40193 52018 60010 73933 333 11035 91119
AAXX 01181 38388 32998 70000 10004 21023 30087 40159 58015 87030 333 10043
AAXX 01181 38392 32997 71204 10000 21056 30075 40181 57005 87030 333 10044
AAXX 01181 38507 32996 20602 10018 20007 30064 40168 52003 82030 333 10103
AAXX 01181 38511 NIL
AAXX 01181 38545 32998 50801 11010 21077 39999 40179 57005 85070 333 10064
AAXX 01181 38647 32997 60902 10032 20000 30113 40156 52002 86050 333 10069
AAXX 01181 38656 32998 20000 10015 21020 30049 40161 58007 80002 333 10073
AAXX 01181 38687 32996 70904 10030 21008 39930 40169 57011 80002 333 10095
AAXX 01181 38750 32997 53201 10076 20071 30189 40161 58002 85030 333 10117
AAXX 01181 38763 32997 20901 10024 20003 30057 40164 58004 81031 333 10052
AAXX 01181 38774 32995 22702 10018 20002 39977 40177 58002 80003 333 10068
AAXX 01181 38799 32997 61402 10057 21003 39918 40151 58004 80003 333 10120
AAXX 01181 38806 32697 31402 10030 21002 39910 40175 57008 83500 333 10102
AAXX 01181 38880 32997 22502 10031 21004 39912 40171 58002 82030 333 10119
AAXX 01181 38886 32997 22702 10041 21008 39933 40164 52002 82030 333 10121
AAXX 01181 38895 32996 62502 10045 21006 39866 40159 52004 86070 333 10150
AAXX 01181 38911 32997 00606 10045 21009 39873 40170 57013 333 10095
AAXX 01181 38915 32997 01306 10050 21012 39859 40185 57001 333 10089
AAXX 01181 38974 32998 00000 10061 21021 39829 40165 52015 333 10170
AAXX 01181 38987 32996 52703 10119 21098 39425 40155 54000 85070 333 10164
AAXX 01184 41259 36/// /2004 10095 21084 37150 40330 333 0E/// 10109 58014
AAXX 01184 41263 36/// /9902 10190 20064 39510 40203 333 0E019 10248 59010
AAXX 01181 22165 31598 80810 11036 21076 30150 40211 51013 70232 885// 333 11027 91115
AAXX 01181 22438 32570 82203 11046 21066 30147 40169 52013 885// 333 21004
BBXX 51205 01181 99210 71564 46/// ///// 1//// 91818 22200 00241 11003 21003 307// 41102 70017
BBXX 46114 01181 99364 71222 46/// ///// 1//// 91804 22200 00121 11304 21003 328// 41303 70022
AAXX 01181 28383 32997 81802 11146 21166 30220 40310 57001 80001 333 11094
AAXX 01181 28586 32997 32003 11153 21172 30175 40335 57007 80001 333 11110
AAXX 01181 23929 32977 82103 11132 21145 30148 40218 52002 86037 333 11068
BBXX 44098 01181 99428 70702 46/// ///// 1//// 91807 22200 00083 10801 20801 70006
BBXX 46221 01181 99339 71186 46/// ///// 1//// 91745 22200 00149 11302 21001 325// 41302 70011
BBXX 42362 01181 99278 70907 46/// /2305 10228 20206 40251 91815
BBXX 42363 01181 99282 70892 46/// /2407 10261 20183 40247 91815 333 91207
BBXX 42364 01181 99291 70881 46/// /2604 10217 20189 40244 58014 91800
BBXX 42364 01181 99291 70881 46/// /2505 10217 20189 40241 91815
BBXX 41115 01181 99184 70673 46/// ///// 1//// 91805 22200 11002 21002 336// 41101 70010
BBXX 41114 01181 99276 70802 46/// ///// 1//// 91816 22200 00234 10901 20901 70003
AAXX 01184 83096 32695 20906 10291 20224 30098 40105 82200 333 58000
AAXX 01184 83186 32598 41406 10321 20165 39541 40060 83202 333 59011
AAXX 01184 83242 32496 71803 10265 20214 39617 40107 87700 333 58006
AAXX 01184 83288 32598 73203 10318 20225 39581 40061 85220 333 59002
AAXX 01184 83344 32498 23603 10269 20206 39133 40084 82200 333 59006
AAXX 01184 78988 02470 51015 10288 20234 30128 40138 57028 60001 84201 333 58004 60007 83816 85081
AAXX 01184 78873 02572 30713 10275 20210 30131 40176 57025 60001 83200 333 58003 60007 83820
AAXX 01184 78990 015// /0000 10287 20233 30140 57025 60001 70000 333 58004 60007
AAXX 01181 28791 32998 01603 11208 21220 30190 40349 57019 333 11132
AAXX 01181 28688 32997 01702 11164 21183 30168 40340 57015 333 11127
AAXX 01181 28588 31996 02201 11155 21174 30166 40338 57004 71011 333 11125
AAXX 01181 28465 11998 82005 11080 21094 30203 40283 57005 69900 70232 8807/ 333 11068 91113
BBXX 51203 01181 99208 71570 46/// ///// 1//// 91813 22200 00244 11301 20901 326// 41301 70007
BBXX 52200 01181 99134 11448 46/// ///// 1//// 91815 22200 00285 11104 21003 308// 41101 70018
BBXX 51201 01181 99217 71581 46/// ///// 1//// 91812 22200 00240 11202 21002 332// 41202 70012
AAXX 01181 28696 32997 01702 11183 21202 30208 40360 57010 333 11142
AAXX 01183 NIL
AAXX 01184 87078 32970 01804 10364 20195 39935 40078 57019
AAXX 01184 87244 32570 11605 10350 20187 39746 4//// 5/// 81101 333 56606 81825
AAXX 01184 87393 32470 71106 10278 20175 30057 40119 57008 86570 333 56300 82618 86623
AAXX 01184 87416 32665 11408 10383 20111 39373 40078 57016 81100 333 56300 81835
AAXX 01184 87563 NIL
AAXX 01184 87640 31965 03610 10328 20112 30040 4//// 57017 702//
AAXX 01184 87688 32965 02711 10337 20114 30002 40135 57015
AAXX 01184 87774 31970 02313 10278 20093 39156 48521 5//// 70700
AAXX 01184 87852 32584 22528 10210 20007 39646 40145 51005 81140 333 56660 57358 81825
AAXX 01183 87016 32560 50908 10336 20196 39669 40063 57025 82306 333 56608 81820 81935
AAXX 01183 87896 32580 51418 10170 20071 30060 40154 52019 83101 333 56505 83830 83070
AAXX 01184 87593 32960 00907 10270 20132 30136 40162 57011
AAXX 01184 87623 31970 00209 10364 20161 39902 40116 57016 70500
AAXX 01184 87641 32965 03207 10316 20140 39982 40153 57015
AAXX 01184 87645 32970 03609 10314 20076 39950 40152 56016
AAXX 01184 87648 NIL
AAXX 01184 87692 32960 00716 10266 20199 30138 40163 57015
AAXX 01184 87715 32970 02514 10366 20023 39812 40112 57016
AAXX 01184 87750 32965 03218 10378 20122 30012 40106 57019
AAXX 01184 87765 32960 03215 10253 21001 39226 48539 57007 333 96120
AAXX 01184 87784 32980 21107 10287 20074 30100 40122 52011 82070 333 56060 82360
AAXX 01184 87791 32980 01620 10297 20092 30126 40134 52016
AAXX 01184 87800 32680 31810 10274 20086 39793 40184 52005 83500 333 56700 83645
AAXX 01184 87803 32980 12713 10229 20024 39264 40159 54000 80001 333 56006 81070
AAXX 01184 87828 32680 32317 10280 20029 30090 40139 51017 82160 333 56660 82835
AAXX 01184 87860 31680 61102 10196 20130 30105 40159 52019 70162 82860 333 56660 82835 84360
AAXX 01184 87904 32680 72522 10144 20023 39890 40136 52004 81476 333 56666 81645 84359
AAXX 01184 87909 32980 60514 10172 20030 30069 40143 51001 80004 333 56000 96070
AAXX 01184 87925 32680 72917 10197 21038 30072 40095 58008 82546 333 56779 57393 82635 84358 87270
AAXX 01184 87938 32680 72313 10111 20032 39956 40025 52005 85570 333 56550 85635 86360
AAXX 01184 87648 32560 10212 10280 20150 30152 40162 57017 81100 333 56100 81825
AAXX 01184 87257 32965 01412 10332 20161 30014 40114 57015
AAXX 01184 60340 32970 01004 10124 20071 40288 53013 333 10201
AAXX 01184 04203 46/// /1106 11199 21240 30023 40041 52010
AAXX 01184 04205 45/84 /1401 11288 21358 30026 40050 52015 333 11274 21318
AAXX 01184 04208 46/// /2206 11220 21255 30001 40048 52020
AAXX 01184 04213 46/// /1710 11194 21257 39929 40046 52010 333 11179 21212
AAXX 01184 04214 46/// /0110 11181 21250 30007 40040 52008
AAXX 01184 04224 475// 72415 11142 21210 39996 40030 52009 785// 333 11119 21143 87/27 91126
AAXX 01184 04228 NIL
AAXX 01184 04242 46/// /0615 11154 21197 30018 40035 52003
AAXX 01184 04253 46/// /0711 11148 21213 39989 40016 57001
AAXX 01184 04266 46/// /3237 11091 21164 39931 49969 52002
AAXX 01184 04285 46/// /3048 11078 21176 39858 49877 57021 333 91059
AAXX 01184 04301 46/// /2406 11284 21330 30116 40121 52009
AAXX 01184 04313 46/// /0239 11199 21228 39971 49983 57002 333 91051
AAXX 01184 04330 46/// /3330 11083 21096 39717 49734 57017 333 91042
AAXX 01184 04351 46/// /3207 11093 21148 39694 49710 52001
AAXX 01184 04373 46/// /2950 11117 21145 39615 49707 52019 333 91061
AAXX 01184 04382 46/// /3014 11067 21156 39693 49741 52005
AAXX 01184 04416 46/// ///// 11507 21523 36400 52009
AAXX 01181 38611 11/92 90003 11054 21058 396574 40252 57006 69902 74544 333 11025 8019/
AAXX 01181 60373 36/// /0902 10132 20081 333 10177
AAXX 01181 60623 36/// /0000 10121 21104 333 10159
AAXX 01181 60393 36/// /0201 10131 20077 333 10207
AAXX 01184 78762 32670 70714 10269 20141 39087 40097 57010 82203 333 10272 20196 30/// 562/0 58002 82640 85075
BBXX DHEB 01183 99511 11592 41/98 33108 11035 40159 51028 70200 83/// 22264 00000 2//// 3//// 4//// 5////
BBXX SHIP 01184 99292 11287 41697 53621 10140 20085 40235 56015 70222 84463 22213 00204 20304 303// 40304 80110
BBXX SHIP 01184 99355 11441 41798 41425 10130 20103 40104 57031 70122 83331 22283 00212 80115
BBXX SHIP 01184 99187 11311 41398 30321 10240 20212 40125 56011 70100 82131 22283 00273 399// 4//// 5//// 80220
BBXX SHIP 01183 99080 11286 41/98 20818 10280 20239 40132 57018 701// 8//// 22214 00280 80250
BBXX MZER8 01180 99214 11135 41398 80411 10185 20149 40213 57005 70222 887// 22244 00183 20402 303// 40603 5//// 80164
BBXX 3FMH7 01184 99340 11649 41598 43135 00/// 10150 20076 40194 52021 70111 841/0 9//// 22262 00150 1//// 20508 329// 41210 5//// 6//// 80110
BBXX 7JKC 01184 99225 11215 41497 60130 00 10180 2//// 40160 57020 74066 86390 9//// 22253 00220 1//// 20504 318// 40404 5//// 6//// 80150 /////
BBXX DCLH2 01183 99280 11680 41/98 23515 10194 20128 40165 52005 70111 8//// 22264 06230 2//// 3//// 4//// 5//// 80154
BBXX VRGW3 01183 99350 11397 41/97 83105 10065 20051 40217 56018 70022 88/// 22214 20802 80058
BBXX MZUU6 01183 99354 11294 41597 53128 10001 21035 40212 56/// 7//22 8/0// 2229/ 20403 305// 40504 5//// 81012
BBXX 7JJA 01184 99318 11349 41797 83030 00 10130 20074 40112 57013 70222 87//// 9//// 22200 0 2//04 332 4//04 5 6//// 80100 IC E/////
AAXX 01184 78988 02470 51015 10288 20234 30128 40138 57028 60001 84201 333 58004 60007 83816 85081
AAXX 01184 78873 02572 30713 10275 20210 30131 40176 57025 60001 83200 333 58003 60007 83820
AAXX 01184 78990 015// /0000 10287 20233 30140 57025 60001 70000 333 58004 60007
AAXX 01184 78988 02470 51015 10288 20234 30128 40138 57028 60001 84201 333 58004 60007 83816 85081
AAXX 01184 78873 02572 30713 10275 20210 30131 40176 57025 60001 83200 333 58003 60007 83820
AAXX 01184 78990 015// /0000 10287 20233 30140 57025 60001 70000 333 58004 60007
BBXX SHJC 01181 99124 10470 43/98 11009 10242 40179 53009 22254 00264 2//// 4////
BBXX WKPF 01183 99143 10421 437// 21619 10270 2021/ 40125 5//// 7//// 8/1// 22234 00270 20304 315// 40502 5//// 6//// 80230 ICE /////
BBXX MDGV9 01184 99168 70190 41/97 70919 10195 20162 40196 57010 70522 87/// 22243 11004 70020 80175
BBXX 3FMV6 01183 99169 30631 41398 31416 10260 20231 40097 51010 70200 83144 22213 06280 20101 80240
BBXX PDHO 01184 99140 10423 41997 01520 10255 20205 40135 52005 70200 80000 22284 00266 20302 80220
BBXX PDKK 01183 99098 50137 41698 41510 10240 20205 40139 55005 70300 84400 22254 20401 313// 40803 80216
BBXX PHAA 01183 99123 70238 41396 80525 10230 20154 40150 57003 70222 887// 22243 20504 80181 91033
BBXX PHPP 01184 99142 10520 41597 10213 10224 20174 40170 52007 70200 811// 22264 00255 2//01 80191
BBXX UBAU 01181 99122 70175 41/98 90505 10260 40153 57002 71022 22211 04228 20100
BBXX PFFH 01183 99011 70028 41497 51608 10280 20260 40110 52020 70022 85173 22223 00280 20300 80265 91032 8828
BBXX PHKL 01180 99090 10680 41/98 /3412 10270 20213 40105 58003 70100 8/1// 22224 00279 2//// 3//// 4//// 5//// 80230
BBXX MIBR 01183 99206 30605 41498 31211 10260 20215 40131 51010 70200 83100 22254 00273 2//// 3//// 4//// 5//// 80230
BBXX SHIP 01184 99427 71656 41/95 /1349 10060 20060 49792 57002 72126 8//// 91755 22222 00100 2//// 3//// 4//// 5//// 80060
AAXX 01184 78762 32670 70714 10269 20141 39087 40097 57010 82203 333 10272 20196 30/// 562/0 58002 82640 85075
AAXX 01181 14216 12980 40101 10064 20014 30086 40241 52/// 60002 82052 333 10122 923// 924/8
AAXX 01181 14219 12570 72301 10012 21010 39208 48506 51/// 60002 87500 333 10082 43010
AAXX 01181 14232 11958 30201 11003 21005 30091 40232 51/// 60002 71012 82071 333 10058
AAXX 01181 14234 11975 60501 10018 20013 39977 40230 51/// 69902 700// 86030 333 10036
AAXX 01181 14236 12962 62102 10030 20009 30024 40226 52/// 60002 86030 333 10054
AAXX 01181 14244 11956 31501 10016 20004 30103 40236 53/// 60002 710// 80002 333 10048
AAXX 01181 14248 11508 62302 10009 21003 30049 40229 51/// 60002 74642 86600 333 10036
AAXX 01181 14253 11950 41101 10015 20003 30047 40226 51/// 60002 710// 84030 333 10050
AAXX 01181 14256 11970 31901 10022 21013 39897 40224 51005 69902 7026/ 83030 333 10042 41998
AAXX 01181 14280 12960 01301 10034 20005 30116 40228 53002 60002 333 10060
AAXX 01181 14308 12970 00901 10021 21009 39880 40243 53/// 60002 333 10118
AAXX 01181 14321 12982 30301 10075 20024 30220 40244 52/// 60002 82031 333 10142 92301 92418
AAXX 01181 14370 11920 00000 10026 21001 30117 40229 52007 60002 71000 333 10067
AAXX 01181 14382 12960 21602 10040 21021 30111 40234 53003 60002 82030 333 10075
AAXX 01181 14428 12970 10000 10086 20022 30232 40239 51/// 60002 80002 333 10133 92300
AAXX 01181 14441 11986 00502 10084 20051 30207 40232 52/// 60002 700// 333 10139 92311
AAXX 01181 14452 NIL
AAXX 01181 14454 12983 21202 10094 20001 30177 40238 51/// 60002 80002 333 10125 92312
AAXX 01181 14462 12980 43201 10036 21014 30242 40248 52/// 60002 84030 333 10123
BBXX SHIP 01184 99003 51346 41397 21423 10247 20211 40131 50012 70100 81101 22232 04233 20403 31106 40803 50702
BBXX SHIP 01184 99046 11061 41498 60415 10250 20207 40122 57011 70222 8542/ 22252 00264 80220
BBXX DGTX 01183 99255 11214 41696 30525 10145 20059 40235 51015 70111 811/8 22214 00190 20504 304// 40605 80100
BBXX VRHO2 01184 99416 11424 41697 62519 10070 20026 40090 54000 78062 84939 22225 00090 20401 333// 40804 50000 6//// 80050 ICE 0////
BBXX DGZR2 01183 99339 11281 41/97 53329 10035 21015 40220 70211 8//// 22213 00160 20304 80015
BBXX DEHY 01184 99321 11254 41/98 63526 10085 21014 40260 54000 70222 8//// 22214 00150 2//// 80043
BBXX PHOB 01184 99102 10746 41/98 11812 10275 20248 40108 51010 70000 81/00 22274 00270 2//// 3//// 4//// 5//// 80255
BBXX MTFH5 01183 99123 10822 41597 80902 10258 20242 40124 50009 70322 88/// 22273 2//// 3//// 4//// 5//// 80246
BBXX SHIP 01184 99003 51346 41397 21423 10247 20211 40131 50012 70100 81101 22232 04233 20403 31106 40803 50702
BBXX SHIP 01184 99046 11061 41498 60415 10250 20207 40122 57011 70222 8542/ 22252 00264 80220
AAXX 01181 29122 42599 62005 11067 21095 30218 40295 57014 83530
BBXX DFCX2 01183 99073 50814 41998 21507 10255 20228 40120 57008 70100 80001 22274 06219 20301
BBXX MZDL7 01183 99451 50460 41/97 83026 10163 20154 40142 54000 71022 8//// 22213 00160 20903 332// 40704 5//// 80158
BBXX C6YM6 01184 99317 50459 43/98 /1221 10220 2014/ 40130 56040 7//// 8//// 22214 00220 20303 39999 40201 50201 6//// 80170 ICE /////
BBXX DCHO 01184 99129 50360 41/98 60314 10270 20213 40120 58020 702// 8647/ 22213 00270 20504 310// 40803 80230
AAXX 01181 51156 32980 03402 11162 21222 38827 40435 57009 333 05551 11066
AAXX 01181 51644 32960 03601 11135 21158 39055 40402 57017 333 05500 11024
AAXX 01181 51243 11865 73402 11151 21168 39838 40442 57011 69901 72277 83502 333 05500 11092
AAXX 01181 51463 11756 70902 11114 21128 39239 40412 57007 69911 77074 86502 333 05754 11036
AAXX 01181 51709 32962 63201 11094 21120 38820 40390 57011 80002 333 05551 11020
AAXX 01181 51431 32980 00000 11121 21145 39432 40269 57015 333 06751 11005
AAXX 01181 51747 32965 00000 11209 21246 39041 40431 54000 333 05451 11035
AAXX 01181 58362 32570 60202 10042 21029 30291 40299 57011 81130 333 10081
BBXX FLAO 0118/ 99764 70847 46/// ///// 11313 40110 52008
BBXX SGW 01181 99275 71153 43/98 00002 10169 40216 50010 22234 00171 20000 40702
BBXX 44255 01181 99473 70573 46/// /0313 10035 49953 5//// 22200 00033 10705 70026 333 91216
BBXX 42085 01181 99179 70665 46/// /1010 10271 40163 91750 333 91212
BBXX 41053 01181 99185 70661 46/// /0808 10269 40170 91750 333 91210
BBXX 42085 01181 99179 70665 46/// /1010 10271 40161 57029 91800 22200 00270 10703 70016 333 91212
BBXX 41053 01181 99185 70661 46/// /0908 10269 40171 91740 333 91209
BBXX 41053 01181 99185 70661 46/// /0808 10269 40170 58025 91800 22200 00272 10703 70016 333 91209
BBXX 44067 01181 99384 70770 46/// /2304 10116 40130 58060 91800
BBXX WSRH 01184 99366 71264 41498 20909 10133 2011/ 40180 54000 7//00 81005 22214 00128 29902 327// 4//03 5//// 6//// 80122 ICE /////
BBXX WZJC 01184 99229 70790 41398 80415 10256 2022/ 40205 57010 70222 887// 22263 00256 20402 3//// 4//// 5//// 6//// 80233 ICE /////
BBXX WKPY 01184 99421 70575 41/97 82845 10130 20112 49990 53030 76262 88/// 22264 00172 20706 328// 40809 5//// 6//// 80120 ICE /////
BBXX 44150 01181 99425 70640 46/// /3311 10058 40122 5//// 22200 00095 10806 70029 333 91213
BBXX 44139 01181 99442 70571 46/// /2816 10069 49896 52003 22200 00045 10808 70042 333 91219
BBXX DFFA2 01183 99264 70789 41998 10904 10240 20136 40230 57020 70300 80008 22200 00250 20100 3//// 4//// 5//// 80175
BBXX DDSC2 01183 99162 70712 41398 70520 10275 20234 40163 58027 72582 8686/ 22253 00269 20804 309// 40806 80245
BBXX VQKR7 01184 99322 71171 41290 82705 10112 20112 40225 50012 71222 8461/ 22200 04050 20000 30000 80112
BBXX WJBJ 01183 99136 70748 41298 60830 10280 2025/ 40121 57020 70222 86161 22254 00278 20404 308// 40605 5//// 6//// 80255 ICE /////
BBXX WSRL 01183 99237 71498 41498 23413 10235 2016/ 40185 52025 701// 8/005 22254 0//// 20201 3//// 410// 5//// 6//// 80185 ICE 0////
BBXX WQVY 01183 99356 70387 43498 61813 10220 2016/ 40294 5//// 7//// 842/4 22224 0//// 2//// 331// 40804 5//// 6//// 80180 ICE /////
BBXX DPLE 01183 99406 70689 41598 12815 10100 20050 40175 57005 70200 81400 22264 00110 21202 80075
BBXX A8QM9 01184 99324 70762 41898 12311 10200 20153 40200 54000 70211 81141 22253 20503 327// 40503 80170
BBXX KCHV 01184 99261 70882 41598 41602 10278 2020/ 40230 58017 7//11 8429/ 22273 0//// 2//// 316// 40501 5//// 6//// 80222 ICE /////
BBXX WKAP 01183 99407 70678 41198 22616 10095 2008/ 40175 52020 70111 82480 22264 00100 20302 327// 40504 5//// 6//// 80085 ICE /////
BBXX OZBY2 01184 99351 71235 41/// 40607 10130 2009/ 40210 52020 7//10 8//// 22224 00130 20606 320// 41206 5//// 6//// 80110 ICE /////
BBXX 2AKI3 01183 99173 70707 41298 50625 10270 20231 40148 57040 70222 85200 22224 04275 20604 3//// 4//// 5//// 80243
BBXX A8LL8 01184 99250 70454 41/98 /0905 10255 20234 40270 56/// 70311 8/446 22254 21006 80240
BBXX C6FU4 01184 99207 70672 41898 60922 10260 20217 40200 51/// 7//22 8626/ 22234 00260 20406 3//// 4//// 5//// 6//// 80230 ICE /////
BBXX DARU 01184 99354 70633 41698 42023 10210 20128 40195 57015 70322 8418/ 22224 04200 2//// 328// 41007 80160
BBXX A8MW6 01184 99196 70648 41498 20917 10260 20178 40190 58020 70200 82100 22254 20302 311// 40504 5//// 80205
BBXX NWS0003 01184 99539 71665 43/// /0000 11014 21029 40010 5//// 7//// 8//// 222// 0//// 2//// 3//// 4//// 5//// 6//// 8//// ICE /////
BBXX NWS0029 01184 99415 70707 43/// /2605 10085 20034 40162 5//// 7//// 8//// 222// 04070 2//// 3//// 4//// 5//// 6//// 8//// ICE /////
BBXX NWS0020 01184 99261 70801 43/// /0508 10232 20150 40228 5//// 7//// 8//// 222// 04253 2//// 3//// 4//// 5//// 6//// 8//// ICE /////
BBXX NWS0021 01184 99322 70733 43/// /2705 10204 20119 40202 5//// 7//// 8//// 222// 04217 2//// 3//// 4//// 5//// 6//// 8//// ICE /////
BBXX DGXS 01184 99527 71422 41296 83421 10045 20023 49800 55000 75152 8/77/ 22224 00060 299// 314// 41405 5//// 80035
BBXX PHDL 01183 99312 70615 41598 32706 10245 20202 40225 53025 70311 8/5// 22224 00225 299// 325// 40802 80215 91032
BBXX LAJK7 01184 99281 70557 41798 41211 10240 2020/ 40280 54000 70110 82181 22263 00250 20404 312// 40404 5//// 6//// 80210
BBXX PDHW 01183 99452 70549 41/96 81806 10080 20038 49870 57070 74144 88/2/ 22223 00030 20704 312// 40906 80060
BBXX DGOS 01183 99339 70498 41597 61925 10204 20183 40230 58040 70222 8356/ 22264 21204 317// 41405 80190
BBXX DGDD 01181 99319 71214 41298 81704 10150 20116 40205 55000 70222 887// 22224 04160 20401 330// 40405 5//// 80130
BBXX 46001 01181 99563 71480 46/// /3417 11002 49901 56027 91750 22200 00041 10811 20808 300// 41208 70056 333 91221 555 11179 22190 31659 43321 61749 341167 339170 340170 340172 338169 337171
BBXX 44060 01181 99413 70721 46/// ///02 10077 40159 58040 91800 22200 00094 333 91203 555 11021 22026
BBXX 44022 01181 99409 70737 46/// ///06 10094 20039 40151 57047 91800 22200 00073 333 91208 555 11072 22082
BBXX 41041 01181 99142 70460 46/// /0809 10253 20197 40152 56026 91750 22200 00261 11106 20805 3//// 41104 70032 333 91211 555 11098 22105 31657 41013 61749 083093 084098 084096 090100 097105 100103 80911 91707
BBXX 41038 01181 99341 70777 46/// /2105 10162 40183 58043 91800 22200 00137 333 91206
BBXX 46042 01181 99368 71224 46/// /1109 10129 40208 53012 91750 22200 00123 11205 20502 331// 41204 70023 333 91211 555 11098 22106 31718 41111 61749 106089 109074 107082 105087 105084 105080
BBXX 46053 01181 99342 71198 46/// /2901 10105 40222 52019 91750 22200 00139 11403 329// 41403 70014 333 91202 555 11014 22015 31747 42902 61749 292014 336005 060006 069005 037003 007008
AAXX 01181 21432 NIL
AAXX 01181 21824 41996 82308 11178 21191 30140 40149 54000 77173 8805/
AAXX 01181 21908 41999 50000 11232 21250 30070 40156 52005 70272 80002
AAXX 01181 21921 41996 81702 11214 21247 30149 40196 53005 77172 8802/
AAXX 01181 21931 42998 02002 11262 21294 30146 40181 54000
AAXX 01181 21946 42999 32204 11279 21303 30125 40211 57006 83030
AAXX 01181 21982 31998 73209 11215 21247 30137 40163 57007 73632 80031 333 21245 48013 91111
AAXX 01181 25062 31998 02005 11388 21424 30217 40221 58009 73630 333 21399 48038 91108
AAXX 01181 25123 41996 81402 11294 21324 30210 40246 55000 77173 8805/
AAXX 01181 25138 41999 50601 11391 21411 30122 40363 53002 70272 82031 333 91102
AAXX 01181 25173 31999 02905 11277 21301 30198 40203 57004 70230 333 21301 48057 91107
AAXX 01181 25248 NIL
AAXX 01181 25282 32984 03104 11301 21319 30194 40201 52001 333 21313 46003 91107
AAXX 01181 25325 NIL
AAXX 01181 25356 NIL
AAXX 01181 25399 32574 83201 11274 21304 30157 40167 57008 86531 333 21291 48037 55000 91103
AAXX 01181 25428 41931 80000 11411 21444 39909 40295 57006 77872 80007 333 91100
AAXX 01181 25551 32998 00000 11460 21492 30191 40228 53001 333 21466 47035 55000 91100
AAXX 01181 25563 32970 03207 11396 21429 30123 40214 57001 333 21397 44030 55023 91108
AAXX 01181 25594 32598 20000 11261 21300 30111 40166 57007 82500 333 21271 49040 91103
AAXX 01181 25677 32998 02705 11316 21345 30189 40195 57001 333 21316 91106
AAXX 01181 31054 41998 80000 11333 21362 39988 40295 57003 77172 8807/
AAXX 01181 31123 41997 82103 11268 21300 39939 40297 57005 77773 8802/
BBXX WDE3569 01184 99453 70833 41/97 82519 10016 2//// 49915 57001 75052 886// 22273 0//// 20202 3//// 4//// 5//// 6//// 8//// ICE /////
BBXX DQXQ 01184 99178 71021 41997 22610 10275 20220 40160 58010 70000 80002 22200 00270 20201 32918 40602 51504 80236
BBXX WDE9586 01183 99090 70860 41599 20903 10280 2022/ 40100 58010 7//00 814/1 22234 00280 2//// 333// 40701 5//// 6//// 80240 ICE /////
BBXX C6OT4 01184 99089 70898 41998 20711 10261 20233 40128 54012 70222 82043 22223 04275 20302 40904 41303 5//// 80242
AAXX 01181 40009 31565 60000 10077 20062 40146 51007 69921 83508 333 10110 83630 86270
AAXX 01181 40016 32970 30000 10072 20049 40195 51001 83050 333 10132 83360
AAXX 01181 40022 11565 71003 10104 20092 40112 51003 60272 70266 87800 222// 20501 333 10135 83830 85632
AAXX 01181 40030 11565 70000 10070 20061 40161 52012 60042 76066 84570 333 10092 84630 87360
AAXX 01181 40039 NIL
AAXX 01181 40066 11570 80000 10084 20071 40142 50015 60213 76996 8392/ 333 10126 83926 88460
AAXX 01181 40072 32970 00000 10070 20061 40193 53008 333 10102
AAXX 01181 40083 11570 72001 10043 21015 48445 52006 69934 76066 87800 333 10070 83826 85630
AAXX 01181 37661 42998 02801 10034 20016 39401 40167 52004 333 10115
AAXX 01181 37675 42495 80000 10008 20003 39502 40173 52002 8802/ 333 10030 555 53005
AAXX 01181 37729 42997 01803 10026 20013 38493 57004 333 10105 53005
AAXX 01181 37735 42997 00000 10017 21041 39772 40156 52010 333 10102
AAXX 01181 37749 42998 62702 10036 20004 30083 40202 52005 86080 333 10107 555 53003
AAXX 01181 37740 42998 00801 10016 21022 39348 40166 54000 333 10105
AAXX 01181 37832 32997 60000 10013 21004 40162 52007 80100 333 10114
AAXX 01181 37851 42598 83601 10063 20032 30106 40178 585// 333 10083
AAXX 01181 37864 32597 80000 10065 40168 50005 885// 333 10085 88623
AAXX 01181 37905 42997 70000 10027 20014 40163 53003 87030 333 10015
AAXX 01181 37923 42996 00000 10060 20044 40147 54000 333 10089 555 53004
AAXX 01181 37925 42997 60000 10060 20040 30186 40157 58006 86050 333 10089 555 53000
AAXX 01181 37985 42596 52701 10073 20067 30174 40160 54000 85540 333 10106
AAXX 01181 37989 42696 60000 10086 20068 40167 58004 86500 333 10105
AAXX 01184 61600 32960 70406 10232 20032 30168 40172 8707/ 333 10242 59001 87071
AAXX 01184 61612 32958 70604 10240 21025 30170 40178 86082 333 10255 59003 86363
AAXX 01184 61627 32958 60606 10245 20023 3//// 4//// 81032 333 10264 5//// 81363 86073
AAXX 01184 61630 32958 70000 10243 20052 30149 40169 80002 333 10273 58002 87073
AAXX 01184 61641 32956 53616 10213 20140 30121 40154 84072 333 10228 58010 84363 83073
AAXX 01184 61666 32962 60406 10260 20024 30140 40149 85032 333 10273 58009 85363
AAXX 01184 61679 32960 20406 10270 20204 30138 40146 82030 333 10284 59016 82363
AAXX 01184 61687 31956 60410 10270 21030 30085 40144 70622 84032 333 10285 59003 84363 83073
AAXX 01184 61695 32960 53606 10263 20069 30110 40137 80002 333 10280 58001 85073
AAXX 01184 61697 32960 30206 10262 20078 30120 40135 80002 333 10280 59002 83073
AAXX 01184 61698 NIL
AAXX 01184 61699 32958 60606 10267 20072 39930 40122 80002 333 10282 59006 86073
BBXX A8PG7 01183 99095 51201 41598 71013 10250 20199 40160 54000 70322 8644/ 22214 29901 309// 41004 5//// 80215
BBXX VRAE2 01184 99144 31570 41/98 81912 10268 20248 40051 58002 70022 8//// 22273 04300 2//// 80254
BBXX V2BE4 01181 99123 31566 41397 63207 10270 20256 40049 54000 76166 8672/ 22233 04290 20604 80260
BBXX 9HA2479 01184 99205 31694 46/// /1128 10262 20233 30046 40075 52002 22214 04275 85241
BBXX C6FS9 01184 99335 31521 46/// /0618 10215 20161 30136 40172 57001 22213 04227 85180
BBXX VNSZ 01184 99383 31449 46/// /0215 10209 20194 30092 40118 57013 22285 04214 85199
BBXX A8KO3 01180 99174 31142 41798 62108 10250 20222 40100 54000 70211 854// 22284 00200 20303 80230
BBXX 3ECI3 01184 99448 31719 41597 62025 10135 20096 40068 54000 70122 86434 22253 00140 20306 320// 40805 80115
BBXX VRAE3 01184 99073 31483 41696 83219 10257 20252 40076 54000 713// 88/// 22234 00310 2//// 3//// 4//// 5//// 80250
BBXX ONDY 01184 99057 30839 41/97 93210 10270 2026/ 40110 52020 71582 89/// 22214 00287 2//// 3//// 4//// 5//// 6//// 80260 ICE /////
BBXX A8HJ8 01183 99012 11034 41/96 /0311 10260 20242 40114 52014 70200 8//// 22200 20101 30000 80247
BBXX PFBF 01184 99144 51706 41398 20502 10282 20279 40060 51002 70300 8114/ 22200 02283 20304 318// 40608 5//// 80280
BBXX A8IH2 01183 99052 51540 41599 60708 10280 20217 40140 53010 7//22 86162 22254 06270 21002 323// 41203 5//// 80235
BBXX KAOU 01184 99016 10870 43/// /3105 10277 20223 40111 5//// 7//// 8//// 222// 04288 2//// 3//// 4//// 5//// 6//// 8//// ICE /////
BBXX MGRH9 01184 99266 31532 41/98 51315 10230 20146 40150 50002 7//00 85/// 22200 00244 2//// 3//// 4//// 5//// 80180
BBXX PCDE 01183 99387 31480 41597 11401 10180 20131 40140 58010 7//00 81100 22263 20501 80150
BBXX ELYP7 01184 99156 31144 41498 21609 10270 20252 40070 57020 71300 82/// 22243 20401 321// 40804 80257
BBXX ZQAY4 01184 99252 31538 41597 41420 10250 20204 40137 56004 70222 84100 22244 00287 21004 314// 41005 5//// 80220
BBXX DCDO2 01183 99066 31486 41698 63415 10270 20243 40070 56010 70322 86464 22234 00310 2//// 3//// 4//// 5//// 80250
BBXX A8KH9 01184 99052 30810 41/97 63205 10255 20212 40080 54000 76222 847/8 22214 20301 32000 41004 5//// 80225
BBXX A8KX4 01184 99382 51526 41298 81814 10170 20119 40235 52020 70322 8/700 22274 04169 2//// 327// 40803 80140
BBXX 46147 01181 99518 71312 46/// /1521 1//// 4//// 5//// 22200 0//// 1//// 70/// 333 912//
AAXX 01184 93800 16/// /1304 10109 20042 40113 52019 60001
AAXX 01184 93805 16/// /1915 10108 20051 40134 52016 60001
AAXX 01184 93994 16/// /3004 10219 20213 40114 52006 60001
BBXX ZMFR 01184 99427 31773 43/// /1926 10147 20109 40044 52014 22233 00162
BBXX ZMENA 01184 99413 31733 46/// ///// 10171 20154 40050 52015 22252
BBXX ZMFR 01184 99427 31773 43/// /1926 10147 20109 40044 52014 22233 00162
BBXX ZMENA 01184 99413 31733 46/// ///// 10171 20154 40050 52015 22252
BBXX 46147 01181 99518 71312 46/// /1521 1//// 4//// 5//// 22200 0//// 1//// 70/// 333 912//
BBXX MINUK01 0118/ 99571 70021 46/// ///// 10055 49886 57001
BBXX MINUK03 0118/ 99549 70010 46/// ///// 10078 49926 57014
BBXX DILE 01183 99420 70122 41298 53032 10141 20113 40221 52020 70165 84790 22254 04150 21207 327// 41808 80125
BBXX C6KD5 01183 99446 70094 41598 72318 10120 20105 40168 52015 70281 86464 22254 02136 20403 323// 40907 5//// 80112
BBXX A8IP3 01183 99445 70133 41497 42929 10120 20079 40180 52040 70100 822// 22254 04140 20709 327// 41308 80098
BBXX 62023 01183 99514 70079 46/97 /2731 10084 2//// 40022 5//// 22200 10707 70036 333 91139 555 70057 81007
BBXX LF4H 01184 99596 10022 46/98 12219 10076 20045 49862 57007 8//// 22200 06085 10706 70028 333 91122
BBXX LMEL 01181 99603 10053 43/// /1504 10065 20055 49887 5//// 222/0 04082 1//// 3//// 4//// 5////
BBXX LDGJ 01181 99603 10053 43/// /1503 10071 20043 49893 5//// 222/0 04078 1//// 3//// 4//// 5////
BBXX LAHV 01181 99589 10057 43/// /1806 10075 20049 49917 222// 04084 1////
BBXX DDYZ2 01184 99356 10172 41999 03605 10160 20078 40255 52015 7//// 80000 22224 06170 2//// 80115
BBXX TFGRV 01184 99638 70225 46/// ///// 22200 10907 70037
BBXX TFKGR 01184 99657 70136 46/// ///// 22200 10805 70024
BBXX TFGRS 01184 99663 70182 46/// ///// 22200 10806 70032
BBXX TFBKF 01184 99635 70202 46/// ///// 22200 10706 70028
BBXX TFSTD 01184 99664 70234 46/// ///// 22200 10810 70049
BBXX TFSRT 01184 99633 70203 46/// ///// 22200 11109 70047
BBXX TFHFN 01184 99642 70152 46/// ///// 22200 10907 70033
BBXX TFGSK 01184 99641 70229 46/// ///// 22200 11007 70035
BBXX TFDRN 01184 99658 70212 46/// ///// 22200 10806 70029
BBXX 62087 01181 99547 10068 46/// /0503 10090 20088 4//// 5//// 22270 00079
BBXX UCAB 01181 99675 10093 41/97 91714 10050 49824 52020 70022 8//// 22213 00090 20807 317// 40808
BBXX PHAM 01183 99495 70011 41297 82622 10116 20096 40051 53011 75165 887// 22200 20504 80105 91032
BBXX DDYL2 01183 99342 10229 41/98 /0118 10140 20075 40210 52030 7//// 8//// 22264 00160 2////
BBXX UBVF4 01181 99563 10071 41/97 /2209 10080 49985 57125 70222 8//// 22213 20203
AAXX 01184 48601 11559 70000 10256 20246 30104 40108 60001 70522 82531 333 82625 83364 87077
AAXX 01184 48615 11458 81005 10257 20239 30109 40115 60051 76162 84547 333 81710 83620 88272
AAXX 01184 48620 11360 70000 10239 20232 30099 40108 60001 71022 82545 333 81708 83364 86078
AAXX 01184 48647 11560 70501 10264 20246 30082 40107 60001 70522 81541 333 81626 87078
AAXX 01184 48657 11460 70203 10247 20238 30099 40117 69901 76062 83532 333 81712 83624 87078
AAXX 01184 48665 12564 60304 10254 20240 30105 40115 60001 82532 333 82630 86078
AAXX 01184 96413 11165 70000 10256 20244 30084 40110 60021 70162 83531 333 81702 83620 86365
AAXX 01184 96421 11468 71401 10248 20241 30070 40106 60011 70262 8357/ 333 83618 87365
AAXX 01184 96441 11460 81302 10253 20248 30070 40097 60061 76162 8452/ 333 84616 88464
AAXX 01184 96449 NIL
AAXX 01184 96465 12470 70311 10282 20243 30062 40095 60001 83832 333 82810 83364 87079
AAXX 01184 96471 12468 71301 10248 20231 30094 40097 60001 81848 333 81814 83364 87277
AAXX 01184 96481 12462 73305 10263 20232 30071 40090 60001 8487/ 333 82817 86364
AAXX 01184 96491 11463 70204 10263 20249 30083 40095 69901 76062 83848 333 81815 83850 87277
BBXX 46042 01181 99368 71224 46/// /1109 10129 40208 53012 91750 22200 00123 11205 20502 331// 41204 70023 333 91211 555 11098 22106 31718 41111 61749 106089 109074 107082 105087 105084 105080
BBXX 46207 01181 99509 71299 46/// /1522 10076 40042 57014 22200 00080 11218 70088 333 91230
BBXX VQAJ8 01183 99486 71225 41298 83510 10056 20001 40251 54000 70200 87778 22200 00100 20201 300// 40000 5//// 80035
BBXX WCX8883 01184 99372 71285 41297 81822 10140 20120 40180 52010 7//22 886// 22235 00140 20803 31917 40602 5//// 6//// 80130 ICE /////
BBXX WDC6644 01184 99475 71334 41396 81826 10100 20090 49980 56060 76366 887// 22273 00094 20201 315// 41007 5//// 6//// 80094 ICE /////
AAXX 01181 23405 11450 82301 11023 21042 30076 40177 52005 69990 77172 8802/ 333 11011 88514
AAXX 01184 45011 47960 /0907 10150 20117 40220 57003 70010 333 59012
AAXX 01184 61401 NIL
AAXX 01184 61404 32960 60814 10185 20001 39837 40244 81032 333 10203 59002 81363 86073
AAXX 01184 61415 32960 50314 10210 20046 30219 40224 85030 333 10223 58000 85363
AAXX 01184 61421 NIL
AAXX 01184 61437 32960 70408 10230 20075 30068 40209 8707/ 333 10250 59013 87363
AAXX 01184 61442 31925 70614 10229 21069 30188 40192 70722 85082 333 10233 59009 85363 84073
AAXX 01184 61450 31930 60416 10204 21040 39731 40200 70722 82032 333 10250 59002 82363 85073
AAXX 01184 61461 31940 40806 10220 21080 30105 40194 7060/ 80002 333 10227 59001 84073
AAXX 01184 61489 NIL
AAXX 01184 61492 31950 60808 10240 21080 30168 40188 70622 85072 333 10255 59002 85363 83073
AAXX 01184 61497 34950 70412 10200 21029 39929 4//// 705// 80003 333 10210 59010 87073
AAXX 01184 61498 31950 60404 10240 20133 30024 40160 705// 86032 333 10255 59026 83363 86073
AAXX 01184 61499 31930 60408 10234 21050 39908 40168 70622 80002 333 10245 59027 86073
AAXX 01181 25703 41999 30000 11482 21511 30013 40337 58005 77670 80001
AAXX 01181 25745 NIL
AAXX 01181 25913 42999 00503 11223 21241 30066 40227 53002
AAXX 01181 25954 42998 63604 11217 21274 30066 40188 58002 80001
AAXX 01181 25956 42598 40507 11241 21281 30162 40168 53003 84500
AAXX 01181 31088 42999 33403 11281 21318 30228 40236 58002 83040
AAXX 01181 31873 42997 02702 11269 21292 30159 40309 53003
AAXX 01181 31909 42998 02807 11151 21232 30138 40221 54000 333 91113
AAXX 01181 31960 42997 03610 11200 21212 30019 40276 58001 333 91015 91118
AAXX 01181 31961 42997 20101 11268 21287 30255 40307 53007 80001
AAXX 01181 32053 42997 52402 11222 21240 30172 40226 56002 80001 333 91003 91104
AAXX 01181 32061 41560 70203 11162 21212 30184 40225 56005 78582 87900 333 91005 91105
AAXX 01181 32098 41394 83505 11133 21153 30180 40191 56001 78683 889// 333 91009 91111
AAXX 01181 32150 41596 70104 11067 21083 30133 40163 53001 73682 87900 333 91007 91110
AAXX 01181 32165 41496 81307 10007 20004 30095 40156 58018 77187 8872/ 333 91010 91110
AAXX 01181 32215 42996 00000 11051 21105 30191 40221 53002 333 91001 91103
AAXX 01181 32252 NIL
AAXX 01181 32389 42999 70000 11264 21282 30168 40209 53003 87030
AAXX 01181 32477 42998 01201 11204 21216 30194 40229 51001
AAXX 01181 32583 42999 03403 11114 21142 30181 40213 52005
AAXX 01181 32618 41598 60108 11071 21119 30134 40156 54000 73632 86500 333 91012 91112
AAXX 01184 61489 31956 60406 10230 21052 30170 40177 70622 86070 333 10238 59005 86363
AAXX 01184 41288 36/// /0810 10220 20137 30166 40190 333 0E022 10261 59009
AAXX 01181 21432 41998 62308 11201 21227 30078 40098 53001 73632 86030
AAXX 01181 08501 32/// /9901 10147 20085 30287 40323 52002 333 10162
AAXX 01184 65528 NIL
AAXX 01184 65536 NIL
AAXX 01184 65545 NIL
AAXX 01184 65548 NIL
AAXX 01184 65555 NIL
AAXX 01184 65557 31950 5//// 10302 29125 39869 40111 70511 80002 333 10/// 59001 85076
AAXX 01184 65560 31940 6//// 10310 20063 39792 40101 70511 80002 333 10350 59004 86076
AAXX 01184 65562 NIL
AAXX 01184 65563 31950 41806 10285 20137 39866 40107 70500 80002 333 10345 59002 84080
AAXX 01184 65578 31957 22404 10270 20218 30102 40119 70500 80002 333 10306 58010 82076
AAXX 01184 65585 NIL
AAXX 01184 65592 32456 0//// 10268 20221 30082 40102 333 10325 59001
AAXX 01184 65594 31457 70000 10272 20185 30080 40114 70522 80002 333 10314 58003 87080
AAXX 01184 65599 31945 3//// 10258 20187 30023 40098 70511 80002 333 10306 59005 84076
BBXX MINUK05 0118/ 99571 70021 46/// ///// 10055 49878 57001
BBXX MINUK04 0118/ 99555 10084 46/// ///// 10073 4//// 57001
AAXX 01184 89002 42999 12207 11008 21023 39863 49917 57015 80001
AAXX 01181 08501 32/// /9901 10147 20085 30287 40323 52002 333 10162 555 60005
AAXX 01184 71432 17/// /1815 10073 20047 39897 49992 58065 60011 7//4/ 333 10076 20032 70012
AAXX 01184 71437 46/// /1914 10074 20044 39893 49987 58066 6///1 333 10076 20035 7////
AAXX 01184 71217 16/// /0902 11099 21109 60001 333 11081 21152 70004
AAXX 01184 71224 16/// /1911 11049 21101 60001 333 11049 21115 70000
AAXX 01184 71189 46/// /0811 11048 21079 6///1 333 11048 21099 7////
AAXX 01184 71979 16/// ///// 11194 21233 38559 40314 58009 60001 333 11194 21274 70000
AAXX 01184 71343 16/// /1611 11045 21089 60001 333 11045 21118 70000
AAXX 01184 71345 16/// /0303 11046 21080 60001 333 11046 21134 70004
AAXX 01184 71188 11474 43007 11022 21055 30084 40127 55007 69901 72270 82440 333 11013 21045 47997 70136 90961
AAXX 01184 71276 17/// ///06 11135 21199 69941 7//4/ 333 11123 21188 70004
AAXX 01184 48464 31958 30000 10243 20208 30100 40113 57007 71011 80001 333 59015
AAXX 01184 71432 17/// /1815 10073 20047 39897 49992 58065 60011 7//4/ 333 10076 20032 70012
AAXX 01184 71188 11474 43007 11022 21055 30084 40127 55007 69901 72270 82440 333 11013 21045 47997 70136 90961
AAXX 01181 56193 NIL
AAXX 01181 56196 31959 83401 10056 20024 40270 57010 71000 8807/ 333 05200 10090
AAXX 01181 56287 11420 80000 10051 20045 40283 57013 69961 76066 8172/ 333 05151 10068
AAXX 01181 56684 32560 80901 10046 20018 37899 57010 885// 333 05301 10151
AAXX 01181 56751 32780 21401 10120 20038 38024 57003 81102 333 05105 10206
AAXX 01181 56786 31558 82702 10057 20032 38110 57007 71000 884// 333 05301 10164
AAXX 01181 56977 32462 80000 10164 20154 40153 57004 884// 333 05201 10216
AAXX 01181 57259 32962 81401 10042 20005 40300 57005 8807/ 333 10083
AAXX 01181 57279 31920 82503 10014 20004 40314 57004 71000 8807/ 333 10053
AAXX 01181 57348 32860 82001 10101 20059 40260 57003 885// 333 10117
AAXX 01181 57399 31957 80202 10024 21005 40299 57008 71000 8807/ 333 10103
AAXX 01181 57554 32961 80201 10076 20008 40282 57005 8807/ 333 10098
AAXX 01181 57793 31925 81101 10075 20063 40273 57004 71000 8807/ 333 10125
AAXX 01181 58345 31958 00000 10007 21022 40317 52008 71000 333 10081
AAXX 01181 58506 31960 00000 10000 21016 40279 57002 70040 333 10078
AAXX 01181 58813 32962 70000 10048 20047 40265 57007 8704/ 333 10127
AAXX 01181 58834 32963 81401 10089 20070 40260 52005 8807/ 333 10155
AAXX 01181 58926 32965 83601 10108 20073 40246 57004 8807/ 333 10148
AAXX 01181 58944 32460 83605 10112 20067 40250 57004 885// 333 10137
AAXX 01181 59096 32562 80401 10115 20052 40241 57004 885// 333 10165
AAXX 01181 59102 32660 80000 10073 20062 40249 57003 885// 333 10127
AAXX 01181 59278 31758 83602 10150 20066 40227 57003 70500 885// 333 10190
AAXX 01181 59456 32865 72701 10150 20089 40212 57006 875// 333 10228
AAXX 01181 59493 11658 80403 10158 20125 40220 57003 69901 76000 885// 333 10216
AAXX 01181 59658 31656 70904 10173 20140 40205 57010 70500 875// 333 10202
AAXX 01181 59673 32561 80205 10157 20117 40216 57005 888// 333 10203
AAXX 01181 59845 32560 71405 10178 20154 40196 57005 878// 333 10224
AAXX 01181 50434 32980 70000 11314 21351 39379 40378 57006 80002 333 11219
AAXX 01181 50527 32970 01107 11255 21281 39467 40349 57015 333 11243
AAXX 01181 50603 32978 43602 11224 21253 39579 40326 57009 80002 333 11183
AAXX 01181 50632 32980 22501 11192 21225 39354 40320 57011 80002 333 11149
AAXX 01181 50727 32980 30000 11266 21301 39048 40355 57020 80001 333 11188
AAXX 01181 50915 32980 70000 11206 21245 39229 40322 57016 80002 333 11161
AAXX 01181 51716 32965 70901 11085 21118 39015 40386 57009 80002 333 05403 10000
AAXX 01181 51765 32980 03401 11136 21162 39332 40405 57006 333 05502 11012
AAXX 01181 51777 32970 02501 11138 21178 39285 40407 57004 333 05500 11015
AAXX 01181 51811 32962 00000 11106 21137 38884 40397 57012 333 05501 11017
AAXX 01181 51828 32965 02502 11075 21141 38728 40385 57007 333 05300 11016
AAXX 01181 52267 32980 03202 11133 21202 39233 40416 57003 333 00352 11027
AAXX 01181 52323 32980 02506 11187 21213 38312 57008 333 00057 11061
AAXX 01181 52495 32980 01101 11152 21218 38775 40393 57011 333 00103 11014
AAXX 01181 53149 32680 72908 11150 21171 38838 40343 52013 875// 333 05301 11031
AAXX 01181 53192 11975 82702 11160 21174 38890 40314 57012 60011 77070 8802/ 333 11153
AAXX 01181 53231 11968 00405 11190 21212 38562 57001 69971 77077 333 00156 11087
AAXX 01181 53336 32980 23204 11138 21167 38792 40383 52010 80002 333 05151 11073
AAXX 01181 53391 11680 72705 11139 21162 38512 40304 57007 69901 77170 86502 333 05603 11069
AAXX 01181 53529 32980 03403 11105 21194 38694 40352 57008 333 05104 11008
AAXX 01181 53543 32980 03203 11106 21169 38578 40316 57007 333 11005
AAXX 01181 53723 32968 00702 11093 21162 38734 40351 57006 333 00003 10000
AAXX 01181 54012 32980 70703 11199 21233 39034 40317 57018 80002 333 11152
AAXX 01181 54026 32980 72901 11164 21225 39964 40317 57019 80002 333 11078
AAXX 01181 54027 32970 22001 11177 21232 39685 40321 57017 80002 333 11072
AAXX 01181 54208 11680 72201 11152 21179 38770 40315 57009 69901 77100 84502 333 11114
AAXX 01181 54776 32580 33409 11025 21068 30243 40303 57007 83400 333 10009
AAXX 01181 56004 32980 03201 11095 21212 35787 57011 333 05507 10021
AAXX 01181 56033 32980 20000 11150 21256 35982 57011 80002 333 05400 10003
AAXX 01181 56046 32980 21801 11122 21200 36223 57012 80002 333 05503 10057
BBXX 46183 01181 99536 71311 46/// /1316 10059 40020 57039 22200 00074 11212 70060 333 91223
BBXX 46183 01181 99536 71311 46/// /1316 10059 40020 57039 22200 00074 11212 70060 333 91223
AAXX 01184 96449 11460 70706 10233 20228 30079 40099 60011 76162 8357/ 333 83614 87365
AAXX 01181 80001 32470 60807 10284 20235 30132 40133 81206 333 563/0 58000 81818 86070
AAXX 01181 80002 NIL
AAXX 01181 80009 31560 20000 10310 20233 30083 40088 70500 81801 333 560/0 58004 81820
AAXX 01181 80022 NIL
AAXX 01181 80028 NIL
AAXX 01181 80035 NIL
AAXX 01181 80036 31568 10408 10332 20206 70500 81800 333 560// 81820
AAXX 01181 80063 NIL
AAXX 01181 80084 NIL
AAXX 01181 80091 NIL
AAXX 01181 80094 31450 42850 10248 20198 38796 70510 84800 333 567// 59006 84815
AAXX 01181 80097 NIL
AAXX 01181 80099 31466 30805 10316 20203 39943 40077 70500 83101 333 569/9 58006 83815
AAXX 01181 80110 31670 23606 10278 20132 38475 70500 82100 333 560// 59022 82840
AAXX 01181 80112 31570 20905 10219 20069 37897 70521 82100 333 562// 58000 82820
AAXX 01181 80139 NIL
AAXX 01181 80144 NIL
AAXX 01181 80149 NIL
AAXX 01181 80210 31565 22902 10267 20190 38642 70521 82800 333 560// 57894 58001 82820
AAXX 01181 80211 NIL
AAXX 01181 80214 NIL
AAXX 01181 80222 31570 20604 10212 20051 37522 70500 82100 333 561// 58001 82820
AAXX 01181 80234 32562 40902 10312 20174 39612 40100 83101 333 562/3 58007 83823
AAXX 01181 80241 NIL
AAXX 01181 80259 31560 40802 10296 20179 39029 70521 83830 333 5624/ 58002 83820
AAXX 01181 80315 32625 20000 10321 20203 39576 40065 82200 333 567// 58001 82835
AAXX 01181 80342 32570 41306 10262 20166 38204 84800 333 563// 58004 84828
AAXX 01181 80370 32570 41005 10148 20089 84100 333 563// 84820
AAXX 01181 80398 01430 62802 10262 20257 30007 40102 60051 75062 85971 333 56999 57931 58005 60057 81915 84817
AAXX 01184 78988 02470 51015 10288 20234 30128 40138 57028 60001 84201 333 58004 60007 83816 85081
AAXX 01184 78873 02572 30713 10275 20210 30131 40176 57025 60001 83200 333 58003 60007 83820
AAXX 01184 78990 015// /0000 10287 20233 30140 57025 60001 70000 333 58004 60007
AAXX 01181 60379 36/// /0000 10107 20107 333 10202
AAXX 01181 60380 36/// /0502 10100 20066 333 10194
AAXX 01181 60394 36/// /0000 10105 20083 333 10207
AAXX 01181 60374 36/// /1004 10117 20097 333 10187
AAXX 01181 60613 36/// /0000 10123 21022 333 10165
AAXX 01184 40153 11000 82415 10068 20067 39083 48477 52015 60102 76164 887// 333 10073
AAXX 01184 40179 42560 72315 10169 20089 30133 40170 52012 6///2 878//
AAXX 01184 40180 12660 71810 10145 20066 30126 40175 52012 60002 87200 333 10178
AAXX 01184 40190 16/// ///// 10135 20036 39852 40185 52016 60002 333 10172
AAXX 01184 40199 13/// /3203 10169 20020 30169 40192 52022 60002 333 10214
AAXX 01181 80001 32470 60807 10284 20235 30132 40133 81206 333 563/0 58000 81818 86070
AAXX 01181 80002 NIL
AAXX 01181 80009 31560 20000 10310 20233 30083 40088 70500 81801 333 560/0 58004 81820
AAXX 01181 80022 NIL
AAXX 01181 80028 NIL
AAXX 01181 80035 NIL
AAXX 01181 80036 31568 10408 10332 20206 70500 81800 333 560// 81820
AAXX 01181 80063 NIL
AAXX 01181 80084 NIL
AAXX 01181 80091 NIL
AAXX 01181 80094 31450 42850 10248 20198 38796 70510 84800 333 567// 59006 84815
AAXX 01181 80097 NIL
AAXX 01181 80099 31466 30805 10316 20203 39943 40077 70500 83101 333 569/9 58006 83815
AAXX 01181 80110 31670 23606 10278 20132 38475 70500 82100 333 560// 59022 82840
AAXX 01181 80112 31570 20905 10219 20069 37897 70521 82100 333 562// 58000 82820
AAXX 01181 80139 NIL
AAXX 01181 80144 NIL
AAXX 01181 80149 NIL
AAXX 01181 80210 31565 22902 10267 20190 38642 70521 82800 333 560// 57894 58001 82820
AAXX 01181 80211 NIL
AAXX 01181 80214 NIL
AAXX 01181 80222 31570 20604 10212 20051 37522 70500 82100 333 561// 58001 82820
AAXX 01181 80234 32562 40902 10312 20174 39612 40100 83101 333 562/3 58007 83823
AAXX 01181 80241 NIL
AAXX 01181 80259 31560 40802 10296 20179 39029 70521 83830 333 5624/ 58002 83820
AAXX 01181 80315 32625 20000 10321 20203 39576 40065 82200 333 567// 58001 82835
AAXX 01181 80342 32570 41306 10262 20166 38204 84800 333 563// 58004 84828
AAXX 01181 80370 32570 41005 10148 20089 84100 333 563// 84820
AAXX 01181 80398 01430 62802 10262 20257 30007 40102 60051 75062 85971 333 56999 57931 58005 60057 81915 84817
BBXX 46131 01181 99499 71250 46/// /1407 1//// 40256 57003 22200 00073 10502 70009 333 91209
AAXX 01184 62305 32560 52809 10112 20078 40209 52014 85800 333 10153
AAXX 01184 62306 32560 42713 10134 20095 40198 52015 84500 333 10180
AAXX 01184 62318 11560 62708 10144 20120 40184 52012 60022 72582 86800 333 10184
AAXX 01184 62337 32960 02206 10140 20039 40179 52017 333 10188
AAXX 01184 62366 32960 02109 10154 20034 40196 52018 333 10181
AAXX 01184 62393 32960 02903 10114 20064 40229 51015 333 10188
AAXX 01184 62405 32960 03008 10150 20038 40209 52014 333 10210
AAXX 01184 62414 32960 03507 10156 20010 40220 52014 333 10202
AAXX 01184 62417 32960 02704 10138 20051 40226 52020 333 10188
AAXX 01184 62440 32960 02006 10135 20059 40188 52017 333 10186
AAXX 01184 62463 32960 33311 10168 20040 40204 52023 80002 333 10222
AAXX 01184 62465 32960 02904 10162 20054 40188 52011 333 10210
AAXX 01184 62419 NIL
BBXX 46131 01181 99499 71250 46/// /1407 1//// 40256 57003 22200 00073 10502 70009 333 91209
AAXX 01184 41241 36/// /1602 10215 20114 30138 40176 333 0E024 10256 59033
AAXX 01184 41314 36/// /1604 10171 20058 39668 40222 333 0E016 10237 59020
AAXX 01181 80402 NIL
AAXX 01181 80412 NIL
AAXX 01181 80416 NIL
AAXX 01181 80420 NIL
AAXX 01181 80425 32570 42501 10328 20229 30089 40120 84100 333 30/// 56900 58015 84820 555 10121
AAXX 01181 80426 32560 40202 10278 20184 39486 40130 84500 333 30/// 56900 58003 84627 555 10161
AAXX 01181 80427 32470 40902 10315 20213 39879 40132 81230 333 30/// 56990 59006 83817 555 10148
AAXX 01181 80431 32570 3//// 10308 20195 39639 40116 83800 333 30/// 56900 58004 83820 555 10141
AAXX 01181 80434 NIL
AAXX 01181 80437 32470 32702 10316 20224 39999 40084 83500 333 30/// 56900 59008 83617 10090
AAXX 01181 80440 32570 31404 10323 20184 39918 40136 82208 333 30/// 56909 59008 82823 555 10138
AAXX 01181 80442 NIL
AAXX 01181 80472 32465 80905 10311 20218 39649 40128 8323/ 333 30/// 5629/ 58000 83816 85360 555 10151
AAXX 01181 80475 NIL
AAXX 01181 80476 32370 1//// 10348 20250 30095 40125 81200 333 30/// 56900 58010 81810
AAXX 01181 80478 NIL
AAXX 01181 80479 NIL
AAXX 01181 80400 NIL
AAXX 01181 80403 11470 20907 10307 20213 30113 40132 69911 70252 82200 333 30/// 56900 59006 82813 555 10132
AAXX 01181 80405 NIL
AAXX 01181 80407 NIL
AAXX 01181 80410 32470 21606 10280 20211 39449 40125 8249/ 333 30/// 56900 59002 82616 555 10162
AAXX 01181 80413 32470 52304 10306 20177 39642 40128 856// 333 30/// 569// 58003 85613 555 10161
AAXX 01181 80415 32472 50502 10283 22023 30069 40133 852// 333 30/// 569// 59005 85816 555 10125
AAXX 01181 80419 NIL
AAXX 01181 80421 80704 33364 3//// 10310 20221 30113 40135 82800 333 30/// 56900 58000 83810 1013
AAXX 01181 80423 32470 4//// 10302 20277 30107 40124 84200 333 30/// 56200 59003 84810 555 10123
AAXX 01181 80428 32470 40503 10310 20225 39946 40129 84500 333 30/// 56900 58010 84617 555 10132
AAXX 01181 80432 NIL
AAXX 01181 80435 NIL
AAXX 01181 80438 32575 22304 10255 20154 38519 48516 82200 333 30/// 56900 58008 82833 555 10202
AAXX 01181 80444 NIL
AAXX 01181 80447 32565 23101 10325 20187 39659 40076 82500 333 30/// 56900 58010 82620 555 10131
AAXX 01181 80448 32470 50704 10310 20211 3//// 4//// 85200 333 30/// 56900 5//// 85817
AAXX 01181 80450 NIL
AAXX 01181 80453 NIL
AAXX 01181 80457 32470 4//// 10333 20164 30026 40110 82520 30/// 56990 59004 82613 10111
AAXX 01181 80462 NIL
BBXX 46204 01181 99514 71288 46/// /1322 10063 40077 57014 22200 00082 10914 70071 333 91229
BBXX 46204 01181 99514 71288 46/// /1322 10063 40077 57014 22200 00082 10914 70071 333 91229
AAXX 01181 29846 41640 81703 11090 21101 30014 40419 57012 71011 8455/
AAXX 01181 29802 319// 01502 11198 21213 30237 40395 57006 71000 333 11160
AAXX 01181 29807 329// 00000 11205 21231 30261 40391 57010 333 11143
AAXX 01181 35746 329// 80604 11118 21131 30151 40222 57012 85071 333 11065
AAXX 01181 35849 32998 60000 11094 21110 30121 40210 57014 80002 333 11058
AAXX 01181 35953 329// 30704 11102 21122 30082 40217 57023 80002 333 11045
AAXX 01181 35969 329// 00907 11112 21147 30069 40251 57014 333 11053
AAXX 01181 36003 32998 00000 11204 21224 30230 40397 57007 333 11133
AAXX 01181 38062 329// 00902 11083 21111 30047 40216 57014 333 11030
AAXX 01181 38069 329// 01001 11071 21100 30022 40220 57011 333 10015
AAXX 01181 38196 32998 00000 11066 21149 39221 40233 56005 333 10020
AAXX 01181 38198 319// 00000 11140 21146 39960 40237 57008 74840 333 11021
AAXX 01181 38328 329// 01601 11057 21124 39469 40223 57008 333 10035
AAXX 01181 38334 32998 00802 11015 21127 39233 40208 57007 333 10023
AAXX 01181 38439 31/92 90000 11045 21045 39864 40213 57012 74544 333 11040
AAXX 01184 41314 36/// /1604 10171 20058 39668 40222 333 0E016 10237 59020
AAXX 01184 91650 11599 60000 10270 2025/ 40074 53015 60001 70302 83802 333 569/9 82820 85080
AAXX 01184 91652 NIL
AAXX 01184 91656 NIL
AAXX 01184 91659 NIL
AAXX 01184 91660 NIL
AAXX 01184 91669 36/// /1308 10262 20262 40088 5//// 91819
AAXX 01184 91670 36/// /0400 10268 20237 40081
AAXX 01184 91676 NIL
AAXX 01184 91680 11699 60000 10250 20243 40084 53011 60001 70311 868// 333 569// 82830 85650
AAXX 01184 91682 NIL
AAXX 01184 91683 11599 60000 10250 20244 40085 53010 60011 70182 868// 333 569// 86822 84648
AAXX 01184 91691 NIL
AAXX 01184 91693 NIL
AAXX 01184 91697 NIL
AAXX 01184 91699 NIL
BBXX VROB 01184 99191 31528 46/// /1320 10252 20176 30075 40100 57010 22283 04268 85201
BBXX VNAH 01184 99383 31416 46/// /1204 10192 20158 30062 40085 57015 22200 04210 85170
BBXX FHZI 01184 99558 31460 46/// /3220 10034 20031 30038 40049 52010 22283 04021 85033
BBXX A8TX8 01183 99097 31361 41/98 /9904 10285 20257 40078 57005 702// 8//// 22225 04290 20400 30000 80265
AAXX 01181 21802 41999 80000 11170 21196 30115 40140 53015 70272 80007
AAXX 01181 24125 41998 80000 11194 21206 39883 40179 52013 77172 8802/
AAXX 01181 24136 41998 80000 11340 21368 30074 40186 52004 77171 80007
AAXX 01181 24143 41998 82306 11251 21281 30150 40204 57003 77173 8802/
AAXX 01181 24266 41997 82201 11348 21377 30048 40247 57004 77177 83035
AAXX 01181 24329 42998 30000 11344 21374 39893 40232 52003 83010
AAXX 01181 24343 41496 81602 11268 21293 30096 40227 57002 77172 86607 333 86715
AAXX 01181 24382 41999 60000 11431 21455 39987 40282 57005 71022 80001
AAXX 01181 24639 42999 82403 11206 21225 30073 40237 58001 80007
AAXX 01181 24641 41998 30901 11293 21324 30079 40237 53001 77177 80008
AAXX 01181 24652 41997 01202 11305 21334 30140 40278 54000 70273
AAXX 01181 24656 41999 40901 11353 21390 30173 40290 54000 70171 80006
AAXX 01181 24671 41996 83001 11406 21432 39740 40329 57004 77172 80008
AAXX 01181 24688 41998 00000 11504 21535 39333 40446 57002 70400
AAXX 01181 24724 41597 82605 11163 21182 39691 40248 53001 78583 86901
AAXX 01181 24738 42998 81902 11178 21184 30068 40254 57002 80001
AAXX 01181 24768 41996 ///// 11315 21346 30012 40274 54000 77172 87010
AAXX 01181 24923 41698 82304 11135 21162 39966 40287 57001 77173 83506
AAXX 01181 24944 41696 82501 11171 21183 39978 40289 52006 70282 8493/
AAXX 01181 24951 41998 82803 11144 21164 30077 40252 53002 77172 80007
AAXX 01181 24661 42999 83001 11356 21383 39986 40291 55000 80007
AAXX 01181 24959 41997 83502 11316 21345 30123 40268 53002 77172 83035
AAXX 01181 24962 41998 80000 11333 21356 30061 40272 53002 77172 8807/
AAXX 01181 24966 41997 80000 11323 21346 30023 40268 57003 77172 8802/
AAXX 01181 24967 41997 80000 11287 21328 30038 40282 54000 77172 80007
AAXX 01181 25206 41998 82201 11350 21380 30229 40260 57002 77177 82037
AAXX 01181 25400 42998 02101 11407 21426 30196 40260 57005
AAXX 01181 30054 41998 83201 11187 21213 30073 40332 52001 77172 84047
AAXX 01181 30089 41997 80000 11211 21229 30070 40312 52002 77177 80007
AAXX 01181 30393 41998 80000 11288 21305 39203 40365 57001 77172 82037
AAXX 01181 30493 42999 80000 11303 21327 39202 40374 53004 80001
AAXX 01181 31004 41996 82401 11170 21183 39406 40290 52006 77172 84037
AAXX 01181 31137 41998 80000 11387 21407 39199 40398 53001 77172 80005
BBXX VROB 01184 99191 31528 46/// /1320 10252 20176 30075 40100 57010 22283 04268 85201
BBXX VNAH 01184 99383 31416 46/// /1204 10192 20158 30062 40085 57015 22200 04210 85170
BBXX FHZI 01184 99558 31460 46/// /3220 10034 20031 30038 40049 52010 22283 04021 85033
BBXX A8TX8 01183 99097 31361 41/98 /9904 10285 20257 40078 57005 702// 8//// 22225 04290 20400 30000 80265
BBXX 41036 01181 99342 70770 46/// ///// 10196 20068 40182 91820 22200 00199
BBXX WE3592 01184 99436 70877 43/// /3041 11011 2//// 40051 5//// 7//// 8//// 222// 0//// 2//// 3//// 4//// 5//// 6//// 8//// ICE /////
AAXX 01184 82143 31598 60310 10300 20247 40095 7012/ 84218 222// 80260 333 58006
AAXX 01184 83117 11196 80501 10250 20236 40049 56005 60032 7022/ 8867/ 222// 02210 20101 80240
AAXX 01184 83550 31597 7//// 10290 20237 30053 40082 70211 82210 333 59009
AAXX 01184 83698 21397 80503 10262 20225 30050 40064 56007 70255 887// 333 69931
AAXX 01181 30157 41998 21501 11255 21287 30080 40395 53002 70171 80001
AAXX 01181 29802 319// 01502 11198 21213 30237 40395 57006 71000 333 11160
AAXX 01181 29807 329// 00000 11205 21231 30261 40391 57010 333 11143
AAXX 01181 35746 329// 80604 11118 21131 30151 40222 57012 85071 333 11065
AAXX 01181 35849 32998 60000 11094 21110 30121 40210 57014 80002 333 11058
AAXX 01181 35953 329// 30704 11102 21122 30082 40217 57023 80002 333 11045
AAXX 01181 35969 329// 00907 11112 21147 30069 40251 57014 333 11053
AAXX 01181 36003 32998 00000 11204 21224 30230 40397 57007 333 11133
AAXX 01181 36152 329// 01402 11204 21248 30180 40387 57015 333 11114
AAXX 01181 36177 329// 01201 11170 21180 30132 40399 57013 333 11096
AAXX 01181 36208 329// 00902 11162 21193 39380 40434 57002 333 11070
AAXX 01181 36397 329// 01402 11120 21160 39797 40391 57013 333 11076
AAXX 01181 36428 329// 00000 11250 21274 39885 40443 57016 333 11140 95090
AAXX 01181 36535 319// 00000 11250 21267 39748 40454 57016 74840 333 11106
AAXX 01181 36639 329// 01301 11202 21225 39683 40340 57012 333 11092
AAXX 01181 38062 329// 00902 11083 21111 30047 40216 57014 333 11030
AAXX 01181 38069 329// 01001 11071 21100 30022 40220 57011 333 10015
AAXX 01181 38196 32998 00000 11066 21149 39221 40233 56005 333 10020
AAXX 01181 38198 319// 00000 11140 21146 39960 40237 57008 74840 333 11021
AAXX 01181 38328 329// 01601 11057 21124 39469 40223 57008 333 10035
AAXX 01181 38334 32998 00802 11015 21127 39233 40208 57007 333 10023
AAXX 01181 38439 31/92 90000 11045 21045 39864 40213 57012 74544 333 11040
BBXX 46088 01181 99483 71232 46/// /0606 10070 40244 91820 22200 00076 10301 20301 70005 333 91207 555 11065 22068 31720 40609 61819 058061 058061 064062 062058 062065 064075
AAXX 01184 67765 41575 71001 10198 20187 38656 48499 71362 81973 333 10241 59008 81920 87460
AAXX 01184 67775 NIL
AAXX 01184 67779 NIL
AAXX 01184 67853 NIL
AAXX 01184 67861 NIL
AAXX 01184 67867 NIL
AAXX 01184 67881 NIL
AAXX 01184 67965 41680 11806 10229 20131 38678 48504 71311 81903 333 10300 59005 81940
AAXX 01184 67975 NIL
AAXX 01184 67977 NIL
AAXX 01184 67983 NIL
AAXX 01184 67991 42880 00000 10310 20174 39560 48493 333 10365 59006
BBXX 41029 01181 99328 70796 46/// /2304 1//// 91800 555 11042 22043
BBXX 44033 01181 99441 70690 46/20 /0000 10066 40145 57017 91804 22200 00065 10801 70003 333 91201
BBXX 44034 01181 99441 70681 46/30 /0303 10034 40146 58012 91804 22200 00078 10501 70005 333 91205 555 11038 22039
BBXX 44039 01181 99411 70727 46/// /1302 10084 20054 40167 57041 91800 22200 00088 1//00 70001 333 91203
BBXX 44060 01181 99413 70721 46/// ///02 10079 40157 91815 22200 00096 333 91203 555 11021 22021
BBXX 44022 01181 99409 70737 46/// ///07 10094 20037 40147 91815 22200 00074 333 91209 555 11077 22088
BBXX 44029 01181 99425 70706 46/30 /2003 10076 40142 58029 91804 22200 00074 10801 70005 333 91204 555 11043 22046
BBXX 44030 01181 99432 70704 46/// /1903 1//// 40139 58026 91804 22200 00081 10801 70005 333 91203 555 11035 22037
BBXX 44040 01181 99410 70736 46/// /2007 10099 20035 40154 91815 22200 1//00 70002 333 91209 555 11088 22108
AAXX 01184 40250 32960 02306 10080 21023 39370 40174 52013 333 10142
AAXX 01184 40265 32560 60000 10070 20017 39387 40206 52012 86800 333 10135 84825 83630
AAXX 01184 40296 32660 20000 10180 20071 40179 52012 82100 333 10234 82830
AAXX 01184 40310 32660 12808 10056 21002 38949 48489 52015 81100 333 10123 81830
AAXX 01184 08284 02980 03204 10132 20083 30163 40239 52003 60002 333 10241 60007
BBXX P3GY9 01184 99269 50447 41595 81852 10220 2021/ 40060 57035 78166 88722 22252 00250 20912 317// 41310 5//// 6//// 80210 ICE /////
BBXX IDDUK02 01184 99538 50379 46/// ///// 40056 222//
BBXX 3FMH7 01184 99340 11649 41598 43135 00/// 10150 20076 40194 52021 70111 841/0 9//// 22262 00150 1//// 20508 329// 41210 5//// 6//// 80110
BBXX VRGW3 01183 99350 11397 41/97 83105 10065 20051 40217 56018 70022 88/// 22214 20802 80058
BBXX DCLH2 01183 99280 11680 41/98 23515 10194 20128 40165 52005 70111 8//// 22264 06230 2//// 3//// 4//// 5//// 80154
BBXX SHIP 01183 99080 11286 41/98 20818 10280 20239 40132 57018 701// 8//// 22214 00280 80250
BBXX MZER8 01180 99214 11135 41398 80411 10185 20149 40213 57005 70222 887// 22244 00183 20402 303// 40603 5//// 80164
BBXX SHIP 01184 99187 11311 41398 30321 10240 20212 40125 56011 70100 82131 22283 00273 399// 4//// 5//// 80220
BBXX 7JKC 01184 99225 11215 41497 60130 00 10180 2//// 40160 57020 74066 86390 9//// 22253 00220 1//// 20504 318// 40404 5//// 6//// 80150 /////
BBXX 7JJA 01184 99318 11349 41797 83030 00 10130 20074 40112 57013 70222 87//// 9//// 22200 0 2//04 332 4//04 5 6//// 80100 IC E/////
BBXX MZUU6 01183 99354 11294 41597 53128 10001 21035 40212 56/// 7//22 8/0// 2229/ 20403 305// 40504 5//// 81012
BBXX SHIP 01184 99292 11287 41697 53621 10140 20085 40235 56015 70222 84463 22213 00204 20304 303// 40304 80110
BBXX DHEB 01183 99511 11592 41/98 33108 11035 40159 51028 70200 83/// 22264 00000 2//// 3//// 4//// 5////
BBXX SHIP 01184 99355 11441 41798 41425 10130 20103 40104 57031 70122 83331 22283 00212 80115
BBXX DCPY2 01184 99348 11287 41/97 /2625 10010 21051 40230 52010 70022 8//// 22200 201// 81010
BBXX WCX8882 01184 99416 11562 41498 13513 10060 2002/ 40250 54000 70200 811// 22214 00100 2//// 3//// 4//// 5//// 6//// 80040 ICE /////
BBXX A8GF4 01184 99432 11463 41998 01535 10040 20040 40150 54000 700// 80000 22214 04040 21004 316// 41005 5//// 80040
BBXX UHFW 01180 99433 11350 42999 03210 11070 40196 53005 22253 06030 20402
BBXX WDE8288 01184 99154 10417 43/// ///// 1//// 2//// 4//// 5//// 7//// 8//// 22211 0//// 2//// 3//// 4//// 5//// 6//// ICE /////
BBXX MQPF2 01183 99126 10639 41597 53212 10257 20175 40141 51/// 70100 84148 22274 20903 33032 41003 50602 80205
BBXX 46204 01181 99514 71288 46/// /1322 10063 40077 57014 22200 00082 10914 70071 333 91229
BBXX 46131 01181 99499 71250 46/// /1407 1//// 40256 57003 22200 00073 10502 70009 333 91209
BBXX 46183 01181 99536 71311 46/// /1316 10059 40020 57039 22200 00074 11212 70060 333 91223
BBXX 46147 01181 99518 71312 46/// /1521 1//// 4//// 5//// 22200 0//// 1//// 70/// 333 912//
BBXX SHIP 01184 99427 71656 41/95 /1349 10060 20060 49792 57002 72126 8//// 91755 22222 00100 2//// 3//// 4//// 5//// 80060
BBXX 46221 01181 99339 71186 46/// ///// 1//// 91745 22200 00149 11302 21001 325// 41302 70011
BBXX 42364 01181 99291 70881 46/// /2505 10217 20189 40241 91815
BBXX 41114 01181 99276 70802 46/// ///// 1//// 91816 22200 00234 10901 20901 70003
BBXX 41115 01181 99184 70673 46/// ///// 1//// 91805 22200 11002 21002 336// 41101 70010
BBXX 46114 01181 99364 71222 46/// ///// 1//// 91804 22200 00121 11304 21003 328// 41303 70022
BBXX 51205 01181 99210 71564 46/// ///// 1//// 91818 22200 00241 11003 21003 307// 41102 70017
BBXX 42362 01181 99278 70907 46/// /2305 10228 20206 40251 91815
BBXX 42364 01181 99291 70881 46/// /2604 10217 20189 40244 58014 91800
BBXX 42363 01181 99282 70892 46/// /2407 10261 20183 40247 91815 333 91207
BBXX 44098 01181 99428 70702 46/// ///// 1//// 91807 22200 00083 10801 20801 70006
BBXX 46211 01181 99469 71242 46/// ///// 1//// 91806 22200 00084 11103 20903 325// 41102 70017
BBXX 46222 01181 99336 71183 46/// ///// 1//// 91756 22200 00146 11402 21001 326// 41402 70012
BBXX 46242 01181 99332 71174 46/// ///// 1//// 91758 22200 00144 11401 21001 323// 41401 70007
BBXX 46231 01181 99327 71174 46/// ///// 1//// 91754 22200 00148 11403 20901 327// 41402 70014
BBXX 46216 01181 99343 71198 46/// ///// 1//// 91757 22200 00142 11402 21002 327// 41402 70012
BBXX 46223 01181 99335 71178 46/// ///// 1//// 91800 22200 00151 11402 21001 325// 41401 70008
BBXX 46237 01181 99378 71226 46/// ///// 1//// 91810 22200 00110 11303 21002 325// 41303 70016
BBXX 46240 01181 99366 71219 46/// ///// 1//// 91812 22200 00120 11102 21001 335// 41102 70010
BBXX 46241 01181 99330 71173 46/// ///// 1//// 91741 22200 00144 11501 21001 327// 41501 70007
BBXX 46249 01181 99338 71197 46/// ///// 1//// 91807 22200 00141 11202 20901 326// 41202 70011
BBXX 46244 01181 99409 71244 46/// ///// 1//// 91805 22200 00101 11304 21002 329// 41303 70018
BBXX 46248 01181 99461 71247 46/// ///// 1//// 91804 22200 00096 11105 21004 324// 41103 70025
BBXX PDHY 01183 99489 70631 41398 73506 11020 40100 52008 70222 878// 22274 05000 20204 313// 40804 5////
BBXX WRGD 01184 99341 71235 41898 40309 10150 2012/ 40205 5//// 70121 81001 22265 00130 20102 3//// 40406 5//// 6//// 80130 ICE /////
BBXX WDB9986 01184 99457 71338 41497 81530 10130 2011/ 49980 56020 75855 8772/ 22275 00090 20508 315// 40410 5//// 6//// 80120 ICE /////
BBXX WPGK 01184 99222 70703 41498 50624 10272 2022/ 40180 56027 70222 8528/ 22234 00250 20403 312// 40504 5//// 6//// 80239 ICE /////
BBXX C6KJ5 01183 99239 70861 41497 30310 10260 2022/ 40235 52005 70111 82189 22273 00262 80229
BBXX S6JU 01184 99429 71295 41/97 /1722 10115 20110 40130 57040 71042 8//// 22274 0//// 2//// 3//// 4//// 5//// 6//// 80110 ICE /////
BBXX 9HXC9 01184 99233 70730 41498 30913 10245 20189 40185 53002 7//11 83080 22235 04268 20602 3//// 40902 5//// 6//// 80207 ICE /////
BBXX 46207 01181 99509 71299 46/// /1522 10076 40042 57014 22200 00080 11218 70088 333 91230
BBXX 46111 01181 99481 71227 46/// /0907 10075 40239 58005 91800 22200 00049
BBXX WXJ63 01183 99611 71464 41/97 83003 11067 21098 49957 5//// 702// 8//// 222// 00039 2//// 3//// 4//// 5//// 6//// 8//// ICE /////
BBXX V7HC6 01184 99273 70907 41798 41907 10240 20226 40243 56018 70200 8419/ 22200 00234 20201 319// 40601 5//// 6//// 80230 ICE /////
BBXX KEY796 01183 99571 71703 41/96 80121 11089 21106 40000 53/// 771// 8//// 222// 01011 2//// 3//// 4//// 5//// 6//// 8//// ICE /////
BBXX 46078 01181 99561 71526 46/// /3308 11043 21113 40006 91750 333 91210 555 11082 22088 31720 43311 61749 327077 332075 331077 339081 334076 333076 83409 91714
BBXX 44032 01181 99437 70694 46/30 /0000 10072 40141 57017 91804 22200 00082 10802 70009 333 91201
BBXX WYP8657 01184 99477 70903 41/97 73322 11022 2//// 40054 5//// 70322 87/// 22263 00033 20201 3//// 4//// 5//// 6//// 8//// ICE /////
BBXX ZMENA 01184 99413 31733 46/// ///// 10171 20154 40050 52015 22252
BBXX ZMFR 01184 99427 31773 43/// /1926 10147 20109 40044 52014 22233 00162
BBXX SHIP 01184 99046 11061 41498 60415 10250 20207 40122 57011 70222 8542/ 22252 00264 80220
BBXX SHIP 01184 99003 51346 41397 21423 10247 20211 40131 50012 70100 81101 22232 04233 20403 31106 40803 50702
BBXX MINUK04 0118/ 99555 10084 46/// ///// 10073 4//// 57001
BBXX MINUK05 0118/ 99571 70021 46/// ///// 10055 49878 57001
BBXX PBHZ 01183 99634 10068 41/97 91809 10090 20080 49858 52004 70222 89/// 22213 20302 399// 40803 80085
BBXX PCGM 01183 99351 70275 41398 13110 10203 20163 40335 51006 70200 818// 22214 00202 20301 331// 40905 80177
BBXX 62095 01184 99530 70159 46/// /2821 10049 20011 49962 53005 22200 00112 11015 70074 333 90710 91137
BBXX 62107 01184 99501 70061 46/// /2826 10105 20051 40051 53018 22200 00116 11007 70033 333 90710 91136
BBXX 62169 01183 99614 10014 41/97 52028 10090 20069 49831 54000 72586 8//// 22200 02080 20306 327// 41006 5//// 80080
BBXX 62094 01184 99517 70067 46/// /2522 10094 20036 40008 51015 22200 00105 10606 70031 333 90710 91130
BBXX 62103 01184 99499 70029 46/98 /2624 10117 20081 40042 53013 22200 00118 10704 70019 333 90710 91135
BBXX MYSU5 01184 99440 70199 41498 61431 10120 20056 40213 52030 72582 84392 22253 00140 20710 330// 41210 5//// 80090
BBXX 62304 01184 99511 10018 46/96 /2335 10116 20104 40011 55028 22200 00105 10502 70011 333 90710 91152
BBXX V2NA1 01184 99483 70067 41397 72727 10130 20065 40075 52025 72166 8477/ 22254 20507 323// 41007 80096
BBXX ZQSD5 01184 99583 10007 46/// /2020 10080 20038 49879 58004 22200 10808 70041
BBXX 62305 01184 99504 10000 46/96 /2720 10109 20105 40037 55003 22200 00117 10603 70015 333 90710 91148
BBXX 62103 01184 99499 70029 46/98 /2529 10120 20095 40036 53007 22200 00118 10804 70018 333 90710 91136
BBXX 62094 01184 99517 70067 46/// /25// 10094 2//// 40008 51015 22200 00105 10606 70031
BBXX 62170 01184 99514 10020 46/96 /2329 10116 20116 40008 57029 22200 00107 10602 70010 333 90710 91151
BBXX 62102 01184 99579 10018 46/// /2320 10080 20033 49895 57006 22200 10706 70028
BBXX 62113 01184 99584 10002 47998 /2123 10077 20039 49879 57005 700// 22200
BBXX 62114 01184 99583 10000 46/// /2124 10077 20034 49869 56003 22200
BBXX 62117 01184 99579 10000 47598 /2224 10081 20040 49882 56003 700// 22200 10605 70027
BBXX 62143 01184 99577 10018 47597 /2212 10082 20038 49896 57005 700// 22200 10606 70029
BBXX 62134 01184 99580 10014 47597 /2323 10081 20038 49889 56003 700// 22200 10605 70027
BBXX 62116 01184 99576 10011 47597 /2322 10081 20032 49894 56004 700// 22200 10606 70028
BBXX 62104 01184 99574 10013 47697 /2421 10086 20039 49899 57008 700// 22200
BBXX PJGO 01184 99571 10022 47/97 /2118 10079 49919 56012 700// 22200
BBXX 62118 01184 99577 10009 47597 /2224 10092 20040 49887 57006 700// 22200 10706 70028
BBXX 62155 01184 99577 10007 47598 /2227 10083 20038 49897 56004 751// 22200 10605 70027
BBXX 62146 01184 99572 10021 47/97 /2317 10083 20039 49914 55009 700// 22200 10606 70028
BBXX 62140 01184 99573 10013 46/// /24// 10084 20039 49903 57009 22200
BBXX 62119 01184 99570 10019 47597 /2420 10086 20045 49917 57011 700// 22200 10605 70024
BBXX 62122 01184 99573 10016 47597 /2320 10100 20040 49912 56008 700// 22200 10606 70028
BBXX 62153 01184 99573 10020 47597 /2321 10083 20041 49909 56009 700// 22200 10606 70030
BBXX 62133 01184 99571 10009 46/// /2322 10083 20031 49902 57010 22200 1//05 70024
BBXX 62152 01184 99570 10018 47/97 /1915 10085 20044 49919 57010 700// 22200 10505 70027
BBXX 62164 01184 99572 10008 465// /2217 10093 20043 49905 57006 22200 00091 10606 70028
BBXX 62154 01184 99564 10022 46/// /2218 10085 20064 49927 58009 22200
BBXX 62120 01184 99564 10021 47997 /2321 10088 20088 49923 58009 700// 22200
BBXX 62165 01184 99540 10009 47598 /2413 10079 20054 49973 56008 700// 22200 10403 70013
BBXX 62132 01184 99564 10020 46/// /2418 10087 20061 49923 58009 22200
BBXX 62150 01184 99536 10007 47598 /2214 10086 20067 49981 57009 762// 22200 10402 70008
BBXX 62123 01184 99563 10022 47997 /2120 10092 20060 49926 58009 700// 22200
BBXX 64041 01184 99607 70026 47598 /2023 10072 20022 49800 56001 700// 22200 10808 70039
BBXX 62127 01184 99540 10007 47599 ///// 10080 20049 49965 58008 700// 22200 10402 70011
BBXX 62131 01184 99539 10012 46/// /26// 10079 20063 49972 57011 22200
BBXX 63115 01184 99616 10013 47498 /2021 10114 20036 49820 58002 700// 22200 10808 70039
BBXX 62149 01184 99537 10011 47696 /2316 10084 20068 49976 57008 700// 22200 10402 70010
BBXX 62148 01184 99536 10015 46/// /2119 10092 20073 49978 57018 22200
BBXX MWYG6 01184 99603 70040 47998 /2022 10066 700// 22200
BBXX 62142 01184 99530 10021 47696 /2220 10087 20077 49987 57021 752// 22200 10402 70010
BBXX 63112 01184 99611 10010 46/// /2219 10068 20018 49828 58002 22200 10706 70032
BBXX 63107 01184 99611 10017 46/// /2018 10079 49834 58004 22200
BBXX 63117 01184 99613 10011 47598 /2117 10112 20034 49831 58005 700// 22200
BBXX 63103 01184 99612 10011 46/// /2220 10080 20028 49831 57005 22200 10706 70031
BBXX 63106 01184 99610 10017 46/// /2118 10074 49837 58004 22200
BBXX 63101 01184 99612 10009 46/// /2318 10070 20035 49832 54000 22200
BBXX 63104 01184 99612 10016 47598 /2022 10074 20034 49836 58003 762// 22200
BBXX 63105 01184 99610 10017 47697 ///// 10081 20032 49836 58005 700// 22200
BBXX 63113 01184 99610 10017 46/// /2219 10080 20032 49840 57004 22200 10606 70029
BBXX 62442 01184 99490 70164 46/// /2733 1//// 2//// 40090 51013 22200 00122 333 90710 91145
BBXX 63108 01184 99608 10017 47298 /2121 10072 20030 49839 58006 762// 22200 10805 70027
BBXX 62001 01184 99453 70050 46/// /2322 10134 20114 40150 57004 22200 00130 10709 70047 333 90710 91136
BBXX 63055 01184 99606 10016 46/// ///// 22200
BBXX 62029 01184 99487 70125 46/// /2824 10095 20040 40086 52018 22200 00126 11012 70059 333 90710 91136
BBXX PJAI 01184 99581 70014 47999 /2219 10083 20010 49862 54000 700// 22200
BBXX 62112 01184 99584 70002 47598 /2220 10076 20032 49868 57004 700// 22200
BBXX 62111 01184 99580 70003 46/// /2425 10078 20035 49885 56001 22200 10605 70026
BBXX 62144 01184 99534 10017 47697 /2021 10097 20075 49979 57022 700// 22200 10302 70009
BBXX 62145 01184 99531 10028 47697 /1919 10106 20079 49994 57022 761// 22200 10503 70015
BBXX 62301 01184 99524 70047 46/// /2619 10091 20052 49988 53007 22200 00091 10504 70022 333 90710 91128
BBXX 63056 01184 99597 10016 47598 /2120 10074 20030 49852 57004 700// 22200 10605 70027
BBXX 62121 01184 99535 10027 46/// ///// 22200
BBXX 63110 01184 99595 10015 46/// ///// 22200
BBXX 63057 01184 99592 10015 47497 /2124 10080 20043 49862 58005 700// 22200 10706 70030
BBXX 62163 01184 99475 70084 46/// /2722 10113 20057 40106 51018 22200 00125 10808 70041 333 90710 91130
BBXX 64046 01184 99606 70049 46/// /2221 10070 20032 49782 55000 22200 00081 10809 70044
BBXX 62128 01184 99587 10014 47497 /2124 10076 20040 49874 58003 700// 22200 10605 70027
BBXX 62129 01184 99584 10003 46/// ///// 10078 20039 49880 57004 22200
BBXX 62081 01184 99510 70134 46/// ///// 10079 20022 40028 52008 22200 00118 11014 70068
BBXX 62027 01184 99491 70022 46/// /2716 1//// 2//// 40067 53015 22200 00108 11304 327// 70019
BBXX 62105 01184 99554 70122 46/// /2626 10058 20013 49884 53013 22200 00105 11015 70074 333 90710 91140
BBXX 62303 01184 99516 70051 46/// /2622 10103 20049 40010 52011 22200 00110 10606 70030 333 90710 91129
BBXX 64045 01184 99591 70117 46/// /2326 10049 20011 49762 55003 22200 00100 10912 70060 333 90710 91139
BBXX 61002 01184 99421 10047 46/// /0000 10135 2//// 40230 52002 22200 00133 10502 70009
BBXX BATEU01 01184 99439 70265 46/// /2836 10127 20037 40247 51015 22263 00139
BBXX BATFR20 01184 99414 10094 44898 3//// 10140 20110 40226 70000 8304/ 22244 20000
BBXX BATEU08 01184 99578 10046 46/// /2225 10084 20064 49919 51008 22223
BBXX BATFR27 01184 99481 70052 46/// /2830 10122 20082 40078 56016 22283 00130
BBXX BATEU05 01184 99667 70167 46/// /3306 11008 49642 53007 22263
BBXX BATFR33 01184 99380 10097 46/// /3220 10157 20125 40247 53011 22275 00024
BBXX BATFR46 01184 99376 70006 46/// /2213 10157 20127 40254 53008 22253 00162
BBXX BATFR11 01184 99421 10042 46/// ///// 10140 20115 40224 51007 22263 00140
BBXX PDUJ 01183 99363 70083 41497 73107 10168 20108 40299 52009 7//22 877// 22223 04218 20501 328// 41202 80133
BBXX BAREU00 01184 99536 70035 46/// ///// 49957 22261
BBXX BAREU11 01184 99541 10080 46/// ///// 40026 22200
BBXX 61001 01184 99434 10078 46/// /1102 10130 20102 40226 52014 22200 00137 10602 70008
BBXX BAREU08 01184 99396 70252 46/// ///// 40322 52025 22254
BBXX BAREU05 01184 99358 70100 46/// ///// 40314 52010 22200
BBXX LF3N 01184 99653 10073 41497 62018 10075 20048 49836 52001 72582 863// 22200 00090 10707 70033
BBXX LF4C 01184 99584 10019 41498 72222 10083 20042 49882 57006 70222 89/// 22200 00071 10706 70031 333 91127
BBXX LF4B 01184 99606 10037 47/98 /2018 10074 49868 57002 700// 22200 00061 10706 70031 333 91124
BBXX 3ERR2 01184 99635 10053 41497 81925 10074 20057 49838 52004 78082 889// 22200 06098 11006 70029 333 91134
BBXX LF3F 01184 99643 10078 43/// /1813 10073 20031 49856 52004 22200 04084 10806 70030 333 91118
BBXX LF5T 01184 99660 10081 41597 81823 10066 20048 49834 52002 725// 8//// 22200 10705 70026 333 91130
BBXX PDZS 01183 99636 50560 41597 70905 10035 21001 49919 5/000 70022 8/5// 22261 02006 20100 300// 4//// 5//// 80020
AAXX 01181 60376 16/// /0901 10129 20106 69922 333 10194
AAXX 01181 60593 36/// /0000 10116 333 10167
AAXX 01184 42309 31594 70000 10136 20125 40146 71022 81530 333 59035
AAXX 01184 42314 31595 70000 10158 20137 40155 70522 83530 333 59015 83620 87360
AAXX 01184 42410 21494 70000 10170 20163 40160 76062 83530 333 58002 6990/ 83618 87360
AAXX 01184 42415 21496 80000 10164 20147 40184 76065 8432/ 333 59009 6001/ 83618 81930 87459
AAXX 01184 42492 21492 83206 10154 20147 40157 76066 8452/ 333 58002 6009/ 84618 88458
AAXX 01184 42587 21494 70000 10174 20171 40162 76062 84530 333 58007 6032/ 84618 86360
AAXX 01184 42591 21494 72704 10174 20174 40151 76066 85530 333 59016 6012/ 85618 86360
AAXX 01184 42623 31495 70000 10146 20129 39272 40157 70522 83530 333 59016 83618 85360
AAXX 01184 42701 21394 81804 10158 20155 39409 40151 75065 8672/ 333 59020 6028/ 83708 85615 88458
AAXX 01184 42706 21495 80000 10188 20175 40148 76066 8657/ 333 59009 6994/ 86615 86458
AAXX 01184 42724 31595 31801 10182 20155 40146 70521 81530 333 59014 81620 83360
AAXX 01184 42798 21495 70000 10190 20174 40151 70566 85430 333 59013 6002/ 84615 83825 87360
AAXX 01184 42809 31495 73203 10210 20141 40146 70522 83530 333 59023 83618 85360
AAXX 01184 42886 21495 80501 10184 20178 40150 76066 8652/ 333 59013 6005/ 86618 88458
AAXX 01184 42895 32596 63602 10220 20153 40149 83530 333 59010 83620 86360
AAXX 01184 42971 31595 60902 10234 20190 40143 70522 83530 333 59016 83620 85360
AAXX 01184 43333 31495 60502 10260 20246 40120 70521 85401 333 56109 59009 82616 83818 85070
AAXX 01184 42398 NIL
AAXX 01184 42977 NIL
AAXX 01184 43368 NIL
AAXX 01181 55299 32880 61804 11008 21162 35822 57020 86400 333 05712 10040
AAXX 01181 55591 32680 63401 10046 21069 36502 57013 83402 333 05408 10092
AAXX 01181 56739 32578 60000 10089 20070 38372 57001 82440 333 05104 10200
AAXX 01181 56951 32970 00701 10097 20073 38524 57001 333 05202 10238
AAXX 01181 56964 32965 00000 10136 20127 38723 40150 57003 333 05202 10236
AAXX 01181 57328 31950 80000 10078 20047 39840 40258 57014 71000 8807/ 333 10096
AAXX 01181 57411 31920 80000 10070 20053 39883 40263 57012 71000 8807/ 333 10080
AAXX 01181 57447 32962 82501 10074 20059 39719 40271 57002 8807/ 333 10115
AAXX 01181 57662 31956 80403 10063 20022 30094 40282 57007 71000 8807/ 333 10084
AAXX 01181 57745 11750 80901 10079 20039 39928 40261 57012 69911 71060 885// 333 10105
AAXX 01181 57972 31750 80000 10080 20069 30036 40267 57005 71000 885// 333 10080
AAXX 01181 58203 31/06 93603 11002 21016 30281 40325 52001 74544 333 00203 10029
AAXX 01181 58314 31959 80702 10026 20025 30199 40310 52001 71000 8807/ 333 10058
AAXX 01181 58424 31956 00403 10043 21017 30277 40303 52004 70500 333 10085
AAXX 01181 59023 11450 82202 10101 20077 39923 40239 57006 69901 76000 885// 333 10129
AAXX 01181 59417 32560 80903 10137 20070 30064 40220 57002 888// 333 10156
AAXX 01181 59985 32570 20405 10224 20188 30163 40168 57010 82100 333 10256
AAXX 01181 59995 NIL
AAXX 01184 94996 455// 81303 10188 20160 39999 40134 53012 91830
AAXX 01184 94996 455// 81303 10188 20160 39999 40134 53012 91830
BBXX 46185 01181 99524 71298 46/// /1520 10062 40052 57029 22200 00070 11116 70078 333 91226
AAXX 01184 89050 41193 80612 10018 20018 49898 57018 74474 886//
AAXX 01184 89512 32998 61318 10010 21074 39713 49860 57012 80001 333 10022
AAXX 01184 89574 41492 00601 11047 21049 49908 52008 74440
AAXX 01184 89592 42998 00000 11033 21070 49885 52001
AAXX 01184 89606 42998 22908 11350 21399 36312 47722 52006 80001 333 11260
BBXX 46185 01181 99524 71298 46/// /1520 10062 40052 57029 22200 00070 11116 70078 333 91226
AAXX 01181 24790 41999 20000 11476 21499 39426 40401 57004 77670 80001
AAXX 01181 24988 42999 10601 11376 21411 39972 40262 53003 80001
AAXX 01181 25378 32998 00000 11288 21325 30160 40197 57003 333 21300 48004 91102
AAXX 01181 25503 42999 01302 11442 21469 30161 40312 53002
AAXX 01181 25705 41996 00000 11469 21494 39927 40324 57002 77670
AAXX 01181 25927 42998 03103 11306 21329 30224 40132 53001
AAXX 01181 25932 42999 03101 11223 21248 30170 40212 57002
AAXX 01181 31152 42997 83601 11324 21355 39844 40296 57005 86036
AAXX 01181 31174 42999 10202 11316 21323 30239 40252 55000 80001
AAXX 01181 31489 42998 00000 11341 21365 30148 40282 57001
AAXX 01181 31866 42999 03105 11146 21227 30206 40212 57001
AAXX 01181 31959 42998 02807 11132 21203 30162 40207 57004 333 91014 91114
AAXX 01181 31989 42999 00504 11098 21198 30148 40205 55001
AAXX 01181 32027 42598 60203 11195 21214 30225 40234 57001 82930 333 91004 91105
AAXX 01181 32076 41496 83503 11139 21152 30198 40209 58016 78582 889// 333 91006 91106
AAXX 01181 32099 42998 81403 11026 21032 30151 40159 57011 72682 889// 333 91004 91106
AAXX 01181 32121 41597 80102 11088 21126 30150 40173 56001 78582 889// 333 91002 91106
AAXX 01181 32213 42598 30000 11043 21090 30153 40219 53004 83500
AAXX 01181 32287 41497 81303 11164 21177 30199 40210 52002 78583 889// 333 86713
AAXX 01181 32408 42999 31102 11192 21211 30152 40194 53002 82031
AAXX 01181 32509 41998 03207 11110 21220 30168 40204 52003 73630
AAXX 01181 32594 42998 30804 11136 21179 30178 40216 52002 82041
AAXX 01181 78310 12570 20504 10260 20211 30210 40220 58012 60001 81142 333 10260 20202 30/// 56999 58022 81820 92034
AAXX 01181 78315 12575 40802 10278 20157 30146 40211 58018 60001 81130 333 10286 20169 30/// 56990 58016 81820 83360
AAXX 01181 78318 11562 40407 10280 20212 30212 40216 57016 60001 70500 83802 333 10285 20194 30/// 56909 58019 82820
AAXX 01181 78322 11559 50404 10289 20167 30197 40214 58020 60001 70511 81242 333 10289 20182 30/// 56999 58016 81820 84080
AAXX 01181 78324 NIL
AAXX 01181 78325 11562 40707 10258 20170 30160 40218 58017 60001 70500 83202 333 10218 20199 30/// 56109 58019 83820 555 10502
AAXX 01181 78328 11461 40806 10257 20183 30220 40/// 58011 60001 70500 83802 333 10265 20220 30/// 56202 58019 82817 84073 92427 555 10903 20008
AAXX 01181 78333 11410 40902 10282 20185 30194 40201 58019 60001 70500 84200 333 10291 20195 30/// 56100 58013 84819 555 10502
AAXX 01181 78344 NIL
AAXX 01181 78345 12565 60505 10292 20218 30193 40196 58022 60001 86200 333 10297 20212 30/// 56100 58011 86820 555 10503
AAXX 01181 78348 11556 50403 10256 20213 30153 40205 58021 60001 70511 85800 333 10269 20229 30/// 56200 57884 58013 81821 84630 555 10902
AAXX 01181 78349 11560 60504 10284 20200 30093 40202 58024 60001 70511 86200 333 10296 20206 30/// 56100 57872 58008 86822 555 10503
AAXX 01181 78351 nil
AAXX 01181 78353 12570 50904 10280 20183 30179 40201 58016 60001 85801 333 10283 20240 30/// 56909 58010 82820 83626
AAXX 01181 78355 12570 50505 10284 20194 30048 40188 58024 60001 85800 333 10284 20210 30/// 56200 58005 84870 555 10803
AAXX 01181 78358 NIL
AAXX 01181 78360 12570 11401 10299 20230 30171 40182 58019 60001 81802 333 10305 20218 30/// 56909 58007 81820 92011
AAXX 01181 78363 NIL
AAXX 01181 78365 11562 40910 10272 20222 30194 40199 58017 60001 70511 84201 333 10276 20235 32/// 56209 57846 58011 70176 84821 92045 555 10903
AAXX 01181 78369 11568 40706 10273 20227 30173 40182 57018 60001 70500 84200 333 10282 20252 30/// 56200 57813 58007 84820 92044 555 10703
AAXX 01184 63729 12480 10000 10195 20174 38872 48/// 60012 81900 333 0//19 10271 55300 59012 81818 81920
AAXX 01184 63733 32580 10000 10220 20198 38860 48500 81901 333 10291 55300 59011 81922
AAXX 01184 63756 32580 10000 10230 20176 38868 48505 81900 333 10270 59015 81823 81924
AAXX 01184 63801 12580 60000 10230 20216 39209 48534 69902 8197/ 333 0//19 10267 59012 81821 81922 86359
AAXX 01184 63832 32580 30000 10225 20167 38825 48498 81932 333 10295 55300 59013 81820 81921 83358
AAXX 01184 63862 32580 10000 10230 20192 38891 48507 81101 333 10290 59012 81822
AAXX 01184 63866 32580 10510 10252 20218 39508 48/// 81500 333 10315 59002 81625
AAXX 01184 63881 12480 10166 20157 38209 48/// 69902 82900 333 0//11 10220 59005 82618 81920
AAXX 01184 63887 32480 10000 10210 20180 38587 48505 81500 333 55300 59010 81618
AAXX 01184 63894 32580 10208 10265 20236 30047 40107 81100 333 10318 55300 59012 81822
AAXX 01184 63962 31580 70000 10240 20173 38948 48511 71792 8393/ 333 10305 59006 83622 81924 86357
AAXX 01184 63971 32580 20318 10271 20248 39948 40106 82200 333 10303 55300 59013 82822
AAXX 01184 63791 NIL
AAXX 01184 63870 NIL
AAXX 01184 63932 NIL
BBXX NIL
AAXX 01184 40255 32560 50000 10102 20041 39450 40172 52003 85200 333 10136 85830
AAXX 01184 40260 32960 02008 10084 21011 39383 40180 52017 333 10140
AAXX 01184 40270 31650 42608 10094 20018 39266 40177 52007 70522 85800 333 10122 83825 84630
AAXX 01184 40272 32560 41904 10082 20011 39342 40197 52012 84800 333 10127 82830 83835
AAXX 01184 40290 NIL
AAXX 01184 40340 32960 00000 10164 20047 40200 52028 333 10210
BBXX NIL
BBXX NIL
BBXX NIL
BBXX NIL
AAXX 01184 40250 32960 02306 10080 21023 39370 40174 52013 333 10142
AAXX 01184 40265 32560 60000 10070 20017 39387 40206 52012 86800 333 10135 84825 83630
AAXX 01184 40296 32660 20000 10180 20071 40179 52012 82100 333 10234 82830
AAXX 01184 40310 32660 12808 10056 21002 38949 48489 52015 81100 333 10123 81830
AAXX 01181 22583 12478 71801 11025 21028 30106 40188 52011 69960 875// 333 11004 87619
AAXX 01184 48352 32960 00000 10205 20177 39952 40157 57003 333 59014
AAXX 01181 47008 42970 03204 11066 21137 30205 40262 52002
AAXX 01181 47014 42950 00000 11206 21225 39883 40330 52009
AAXX 01181 47016 42970 00502 11214 21239 39405 40316 53012
AAXX 01181 47020 42965 50000 11164 21177 39915 40326 52001 85030
AAXX 01181 47025 42960 03201 11096 21122 30215 40246 52006
AAXX 01181 47035 42970 03601 11114 21210 30288 40297 54000
AAXX 01181 47041 41960 00000 11095 21111 30218 40247 52005 71044
AAXX 01181 47055 42965 01802 11057 21089 30218 40266 53017
AAXX 01181 47058 41905 80000 11131 21137 30238 40289 52003 74842 80002
AAXX 01181 47069 41956 00000 11076 21117 30172 40277 53007 71000
AAXX 01181 47090 32662 22908 11015 21093 30220 40243 53009 82500 333 92043
AAXX 01181 47095 31930 03602 11130 21148 30081 40286 52015 71000
AAXX 01181 47097 329// /2702 11088 21124 30179 40282 52014
AAXX 01181 47098 329// /3402 11103 21120 30134 40278 52012
AAXX 01181 47099 329// /0000 11114 21123 30244 40283 53012
AAXX 01181 47100 41356 62501 11103 21121 39298 40270 52014 72272 85500
AAXX 01181 47102 32662 42910 11041 21082 30095 40282 52004 84500
AAXX 01181 47104 41665 50001 11021 21044 30139 40240 53005 72272 85500
AAXX 01181 47106 41340 82906 11001 21024 30185 40236 52010 77077 8552/
AAXX 01181 47112 31957 03603 11063 21118 30190 40279 53010 70500 333 92022
AAXX 01181 47114 32960 02702 11098 21122 30084 40280 53014
AAXX 01181 47119 31940 03202 11075 21098 30238 40283 52015 71000
AAXX 01181 47121 329// /2702 11106 21120 39966 40282 52018
AAXX 01181 47127 329// /0901 11109 21132 30133 40285 53012
AAXX 01181 47129 32660 60903 11041 21078 30247 40285 52011 85500
AAXX 01181 47130 41556 82710 11002 21016 30169 40233 52021 77077 8572/ 333 92033
AAXX 01181 47131 31956 00001 11079 21105 30210 40285 52017 71000
AAXX 01181 47135 329// /2713 11072 21110 39961 40277 53016
AAXX 01181 47136 32965 02902 11066 21117 30081 40263 52020
AAXX 01181 47137 329// /2507 11065 21123 30145 40270 53014
AAXX 01181 47140 32661 41102 11044 21086 30250 40280 52008 84500 333 92012
AAXX 01181 47143 32965 02905 11038 21124 30185 40268 52019
AAXX 01181 47145 31956 00001 11091 21111 30248 40276 52016 71000
AAXX 01181 47146 31956 00702 11058 21088 30213 40283 52014 71000
AAXX 01181 47150 31658 60502 11045 21080 30256 40276 51010 71021 85500
AAXX 01181 47152 32970 00203 11037 21103 30191 40236 52017
AAXX 01181 47154 329// /2909 11046 21116 30202 40265 52016
AAXX 01181 47155 32970 01807 11021 21101 30199 40247 52011
AAXX 01181 47156 32665 50506 11048 21085 30187 40281 52013 85500
AAXX 01181 47157 32970 02703 11081 21115 39969 40256 52016
AAXX 01181 47162 32970 00505 11023 21108 30203 40245 52008 333 92022
AAXX 01181 47169 32670 63618 10023 21034 30174 40270 52006 86500 333 92065
AAXX 01181 47170 32668 23409 11001 21073 30225 40270 53011 82500 333 92023
AAXX 01181 47171 329// /1101 11065 21090 30224 40282 52010
AAXX 01181 47172 329// /3606 11032 21090 30203 40273 52007
AAXX 01181 47173 329// /3402 11077 21105 30162 40280 52012
AAXX 01181 47174 32662 53204 11054 21102 30049 40262 51004 85500
AAXX 01181 47175 32563 63607 11032 21055 39672 40268 52012 86500 333 92033
AAXX 01181 47185 32665 73421 10051 21024 30167 40260 52009 87500 333 92046
AAXX 01181 47188 32670 53204 10029 21041 30237 40259 52007 85500 333 92032
AAXX 01181 47189 32670 23203 10035 21022 30183 40244 52008 82500 333 92032
AAXX 01181 47192 32970 00701 11058 21115 30215 40254 52014
AAXX 01181 47003 42980 00000 11106 21179 30263 40267 52003
AAXX 01181 47005 42980 01401 11247 21259 38610 53008
AAXX 01181 47022 42975 03201 11178 21204 38836 58004
AAXX 01181 47028 42961 03601 11103 21170 30212 40313 52002
AAXX 01181 47031 42970 00000 11212 21224 38945 53005
AAXX 01181 47037 42970 03203 11106 21179 30150 40282 58005
AAXX 01181 47039 42960 00000 11126 21153 30082 40288 54000
AAXX 01181 47046 11550 80000 11038 21067 30221 40245 53008 69901 71072 885//
AAXX 01181 47050 42965 00000 11126 21156 30254 40284 52002
AAXX 01181 47052 42565 80000 11088 21112 39917 40275 52005 885//
AAXX 01181 47060 42960 00000 11091 21136 30223 40285 52002
AAXX 01181 47061 42670 83201 11021 21096 30208 40253 52020 85530
AAXX 01181 47065 41960 00000 11100 21128 30216 40286 58002 71000
AAXX 01181 47067 41960 03201 11111 21130 30171 40300 52008 71000
AAXX 01181 47068 42960 03602 11106 21126 30238 40275 53004
AAXX 01181 47070 41960 00000 11100 21105 30187 40281 53006 71000
AAXX 01181 47075 42980 00000 11154 21167 39763 40225 52010
AAXX 01181 47101 31940 00001 11113 21128 30178 40281 53009 71000
AAXX 01181 47105 369// /2703 11016 21051 30207 40240 53004
AAXX 01181 47108 31950 02705 11072 21110 30169 40281 52014 70500
AAXX 01181 47115 41530 80709 11023 21031 39934 40216 52039 77072 8552/ 333 92053
AAXX 01181 47133 31950 03201 11073 21100 30197 40287 52016 71000
AAXX 01181 47138 32670 22306 11019 21104 30236 40239 52021 81500 333 92033
AAXX 01181 47159 32970 03410 11023 21132 30146 40235 52013 333 92023
AAXX 01181 47165 32670 60505 11012 21063 30222 40271 52008 85500 333 92032
AAXX 01181 47168 32970 03412 11027 21114 30164 40247 52006 333 92024
AAXX 01181 47184 32670 63410 10042 21031 30243 40269 51002 86500 333 92053
AAXX 01181 23074 41997 89901 11170 21189 30211 40237 57001 77172 83037
AAXX 01181 23274 41597 71602 11139 21159 30189 40227 57017 78587 879// 333 85620
AAXX 01181 23383 41597 81701 11147 21174 39914 40286 57003 78582 889//
AAXX 01181 23472 41497 81704 11094 21115 30184 40234 57023 78582 889//
AAXX 01181 23678 414// 81204 11077 21091 30210 40269 57020 78583 889//
AAXX 01181 23884 419// 81602 11082 21096 30241 40318 57014 77172 8801/
AAXX 01181 23891 41596 80000 11119 21146 30010 58001 78582 889//
AAXX 01181 24507 429// 20000 11273 21292 30058 40327 52009 80001
AAXX 01181 24817 419// 82402 11135 21165 39913 40298 52010 70182 82041
AAXX 01181 24908 41598 83101 11102 21122 30000 40344 52013 70282 86937 333 86920
AAXX 01181 29263 41559 71802 11083 21098 30280 40385 58001 78582 82932
AAXX 01181 29282 42978 20000 11204 21216 30213 40398 52001 80001
AAXX 01181 29379 41797 80000 11111 21124 30186 40407 57001 77187 8807/
AAXX 01181 29570 41596 70000 11070 21108 30048 40409 57002 70282 86901
AAXX 01181 29698 416// 80000 11170 21189 39888 40443 53002 70272 82972
AAXX 01181 30230 41597 82101 11158 21177 30017 40367 52006 78582 86941
AAXX 01181 30252 419// 70000 11269 21293 30055 40408 57001 77172 85041
AAXX 01181 30309 41597 82601 11112 21125 39857 40404 52007 78582 8697/
AAXX 01181 30328 419// 80000 11182 21194 39955 40415 58003 77172 8802/
AAXX 01181 30521 415// 80000 11195 21214 39861 40429 51003 70282 889//
AAXX 01181 30710 41497 83301 11111 21124 39817 40432 52004 78582 889//
AAXX 01181 23973 41996 81704 11081 21091 30261 40326 57016 77172 8802/
AAXX 01181 23975 419// 82203 11075 21088 30212 40325 57015 77072 8802/
AAXX 01181 23986 41598 81903 11114 21127 39692 40356 57003 78582 8432/
AAXX 01181 23987 41496 71603 11089 21113 30270 40347 58011 78582 87900
AAXX 01181 24606 428// 10000 11264 21289 30020 40315 52014 81040
AAXX 01181 29253 419// 80000 11100 21128 30194 40375 53019 70272 80006
AAXX 01181 29471 41496 82002 11078 21092 30166 40404 58005 78582 889// 333 88918
AAXX 01181 29481 41997 80000 11091 21102 30158 40408 53001 77187 8802/
AAXX 01181 29553 41948 81801 11104 21117 30020 40405 57008 77172 8802/
AAXX 01181 29562 42584 80000 11092 21112 39973 40410 57003 889//
AAXX 01181 29581 NIL
AAXX 01181 29594 41598 82701 11082 21096 30015 40417 54000 78582 83935
AAXX 01181 29653 42997 01701 11151 21171 39902 40421 57006
AAXX 01181 29675 42898 80000 11102 21130 39798 40420 57003 8802/
AAXX 01181 29676 42998 60101 11117 21130 39964 40411 57006 80005
AAXX 01181 29752 415// 82704 11136 21142 38921 48555 58006 70283 8257/ 333 91112
AAXX 01181 29759 419// 40000 11121 21148 39350 40434 58004 70281 80001
AAXX 01181 29766 42899 80701 11093 21100 30054 40426 58011 8802/
AAXX 01181 29789 NIL
AAXX 01181 29864 429// 53202 11146 21166 39737 40433 57006 80002
AAXX 01181 29866 429// 03401 11185 21191 30085 40434 58008
AAXX 01181 29869 429// 30000 11157 21163 30041 40445 58012 80001
AAXX 01181 29956 42684 82701 11154 21167 39835 40435 57025 889// 333 88940
AAXX 01181 30337 41597 70000 11185 21197 39916 40400 58002 78582 83901
AAXX 01181 30405 415// 83101 11098 21110 39862 40416 52004 78582 8695/
AAXX 01181 30504 41997 80000 11154 21160 39748 40442 52002 77172 80007
AAXX 01181 30603 41997 82101 11115 21115 39819 40420 54000 77187 80007
AAXX 01181 30612 415// 71401 11202 21214 39865 40447 52002 70282 82931
AAXX 01181 30622 429// 23001 11254 21266 39729 40446 51008 80003
AAXX 01181 30627 42998 83401 11144 21157 39423 40409 52004 80006
AAXX 01181 30703 419// 80000 11131 21137 39723 40437 58006 70172 80001
AAXX 01181 36307 42897 71301 11292 21316 39143 48618 52003 87030 333 95090
AAXX 01184 71464 46/// ///30 10072 39770 49980 58047 6///1 333 10074 20034 7////
AAXX 01184 71466 46/// ///// 10058 39774 40008 6///1 333 7////
AAXX 01184 71010 16/// /3003 11103 21187 60001 333 11103 21163 7////
AAXX 01184 71445 16/// /3426 11108 21126 39954 40240 51034 60001 333 11066 21121 70000
AAXX 01184 71214 16/// /1803 11120 21185 60001 333 11092 21191 70000
AAXX 01184 71223 16/// /2309 11119 21183 60001 333 11116 21185 70000
AAXX 01184 71225 16/// /1510 11047 21076 60001 333 11047 21142 70000
AAXX 01184 71227 46/// /2309 11115 21175 6///1 333 11107 21185 7////
AAXX 01184 71351 17/// /2203 11091 21183 69991 7//4/ 333 21162 7////
AAXX 01184 71353 16/// /1103 11094 21163 60001 333 11093 21137 70015
AAXX 01184 71375 46/// /3511 11018 6///1 333 11003 21100 7////
AAXX 01184 71385 46/// /2305 11042 6///1 333 11027 7////
AAXX 01184 71525 17/// /2001 11086 21090 69951 7//4/ 333 11075 21159 70016
AAXX 01184 71535 16/// /1715 11037 21070 60001 333 11037 21132 70000
AAXX 01184 71536 16/// /1910 11015 21097 60001 333 11015 21156 70000
AAXX 01184 71537 16/// /1806 11089 21111 60001 333 21169 7////
AAXX 01184 71257 17/// /1906 11090 21147 69991 7//4/ 333 11090 21186 70017
AAXX 01184 71258 16/// /0704 11159 21191 60001 333 11128 21170 70006
AAXX 01184 71259 46/// /0902 11107 21146 6///1 333 11107 21195 7////
AAXX 01184 71274 16/// /2103 11131 21194 60001 333 11115 21209 70000
AAXX 01184 71275 46/// /2306 11145 21196 6///1 333 11127 21196 7////
AAXX 01184 71278 16/// /2103 11110 21187 60001 333 11101 21198 70000
AAXX 01184 71286 16/// /2204 11127 21176 60001 333 11104 21206 70000
AAXX 01184 71287 16/// /2304 11130 21178 60001 333 11124 21187 70000
AAXX 01184 71289 16/// /1909 11085 21144 60001 333 11085 21159 70000
AAXX 01184 71916 46/// /1701 11390 21428 30243 40303 53009 6///1 333 11362 21391 7////
AAXX 01184 71683 46/// /1303 11298 30090 40207 50000 6///1 333 11248 21302 7////
AAXX 01184 71010 16/// /3003 11103 21187 60001 333 11103 21163 7////
AAXX 01184 71445 16/// /3426 11108 21126 39954 40240 51034 60001 333 11066 21121 70000
AAXX 01184 71464 46/// ///30 10072 39770 49980 58047 6///1 333 10074 20034 7////
AAXX 01184 71466 46/// ///// 10058 39774 40008 6///1 333 7////
AAXX 01184 71351 17/// /2203 11091 21183 69991 7//4/ 333 21162 7////
AAXX 01184 71353 16/// /1103 11094 21163 60001 333 11093 21137 70015
AAXX 01184 71375 46/// /3511 11018 6///1 333 11003 21100 7////
AAXX 01184 71385 46/// /2305 11042 6///1 333 11027 7////
AAXX 01184 42027 NIL
AAXX 01184 42071 NIL
AAXX 01184 42101 NIL
AAXX 01184 42111 NIL
AAXX 01184 42131 NIL
AAXX 01184 42165 NIL
AAXX 01184 42182 NIL
AAXX 01184 42189 NIL
AAXX 01184 42260 NIL
AAXX 01184 42328 NIL
AAXX 01184 42339 NIL
AAXX 01184 42348 NIL
AAXX 01184 42361 NIL
AAXX 01184 42369 NIL
AAXX 01184 42379 NIL
AAXX 01184 42452 NIL
AAXX 01184 42475 NIL
AAXX 01181 51711 32980 32502 11138 21159 38067 57014 80002 333 05500 11023
AAXX 01181 51730 32970 00901 11148 21168 40403 57009 333 05500 11003
AAXX 01181 52112 32980 02002 11113 21171 40419 57003 333 00053 10007
AAXX 01181 52737 32980 70901 11104 21262 37080 57013 80002 333 05405 11038
AAXX 01181 52787 32980 72702 11153 21200 37030 57012 80002 333 05256 11094
AAXX 01181 53352 11680 72906 11134 21167 40350 52008 69901 70070 875// 333 11031
AAXX 01181 53593 32760 21101 11098 21153 40297 57002 81502 333 11016
AAXX 01181 53705 32965 02502 11070 21150 40376 57001 333 00202 10013
AAXX 01181 53863 32962 02203 11026 21102 40317 57003 333 10030
AAXX 01181 53975 32963 03401 11050 21109 40321 57009 333 10034
AAXX 01181 54273 32970 00000 11273 21308 40358 57001 333 11138
AAXX 01181 54324 32965 13401 11162 21213 40330 57012 80002 333 11053
AAXX 01181 54405 32975 73401 11074 21158 40293 57007 86032 333 10009
AAXX 01181 54436 32980 71801 11086 21138 40328 57016 80002 333 11002
AAXX 01181 54808 31956 02201 11043 21053 40312 57015 71000 333 10015
AAXX 01181 54826 32960 02708 11082 21163 38496 57010 333 11044
AAXX 01181 54836 32962 72201 11050 21071 40325 57010 80002 333 10038
AAXX 01181 54863 32970 02902 11053 21095 40322 54000 333 10008
AAXX 01181 56018 32980 02201 11066 21217 36145 57012 333 05504 10072
AAXX 01181 56021 32980 73603 11079 21217 36034 57011 80002 333 05507 10038
AAXX 01181 57071 31/01 92902 11032 21036 40330 57012 74944 333 11012
AAXX 01184 71935 11274 81505 11245 21283 30113 40336 52027 69901 72872 8653/ 333 11222 21260 47028 79999 90942
AAXX 01184 71867 11440 8//// 11095 21118 39937 40285 52020 69901 77177 887// 333 11086 21129 47024 70016 90983
AAXX 01180 44329 32899 00000 11219 21254 37825 40514 58004
AAXX 01184 68513 36/// /1417 10186 20124 30037 40149 53006 333 10237 20186 91022 555 91015
AAXX 01184 68514 32/// /2313 10295 21004 39643 48543 52012 333 10373 20295 91024 555 91011
AAXX 01184 68523 36/// /2316 10258 21025 39094 48521 52016 333 10342 20258 91021 555 91015
AAXX 01184 68527 36/// /2506 10319 20004 39032 48495 52014 333 10363 20319 91009 555 91012
AAXX 01184 68572 NIL
AAXX 01184 68575 NIL
AAXX 01184 68581 36/// /1802 10230 20205 39349 48509 53013 333 10303 20230 91004 555 91013
AAXX 01184 68583 36/// /0703 10242 20211 39986 40094 52013 333 10286 20241 91005 555 91009
AAXX 01184 68589 NIL
AAXX 01184 68613 36/// /2306 10169 20130 30055 40171 53003 333 10227 20169 91010 555 91017
AAXX 01184 68647 36/// /1307 10231 20142 38888 48493 53005 333 10306 20231 91012 555 91014
AAXX 01184 68651 36/// /1404 10191 20148 38544 48507 53011 333 10283 20191 91006 555 91019
AAXX 01184 68715 NIL
AAXX 01184 68717 36/// /2009 10210 20122 30012 40154 52016 333 10291 20210 91013 555 91015
AAXX 01184 68723 36/// /2606 10284 21034 39361 48519 52022 333 10348 20284 91012 555 91012
AAXX 01184 68737 32975 02203 10278 20068 39197 48494 52008 333 10336 20278 91005 555 91011
AAXX 01184 68744 36/// /1308 10254 20082 39055 48483 52012 333 10332 20254 91017 555 91011
AAXX 01184 68747 36/// /1510 10202 20139 39599 48517 53036 333 10347 20202 91016 555 91013
AAXX 01184 68754 16/// /1706 10181 20144 39123 48509 53021 69922 333 10303 20181 91010 555 20002 91016
AAXX 01184 68817 NIL
AAXX 01184 68821 36/// /2612 10209 20111 39891 40127 52018 333 10295 20209 91017 555 91013
AAXX 01184 68835 36/// /2103 10215 20145 30005 40118 53016 333 10303 20215 91007 555 91012
AAXX 01184 68843 36/// /2505 10192 20151 30023 40121 52017 333 10242 20192 91008 555 91012
AAXX 01184 68849 36/// /1806 10155 20131 39394 48498 52016 333 10279 20155 91009 555 91014
AAXX 01184 68912 NIL
AAXX 01184 68918 36/// /2910 10213 20147 30120 40138 53010 333 10244 20212 91017 555 91013
AAXX 01184 68921 NIL
AAXX 01184 68925 NIL
AAXX 01184 68926 NIL
AAXX 01184 68935 36/// /2607 10200 20144 30068 40131 52015 333 10251 20200 91012 555 91013
AAXX 01184 71867 11440 8//// 11095 21118 39937 40285 52020 69901 77177 887// 333 11086 21129 47024 70016 90983
AAXX 01184 71935 11274 81505 11245 21283 30113 40336 52027 69901 72872 8653/ 333 11222 21260 47028 79999 90942
AAXX 01184 60677 36/// /0000 10110 21070 333 10149
AAXX 01184 60650 36/// /0814 10164 21074 333 10194
AAXX 01184 60679 36/// /0211 10015 21171 333 10097
AAXX 01184 60661 36/// /0110 10110 21114 333 10176
AAXX 01181 13180 32697 61104 10007 20005 30138 40252 53004 86500 333 10048
AAXX 01181 13369 32997 00000 11090 21115 39033 48484 52029 333 11015 4/015
AAXX 01181 13383 32998 01601 11002 21025 30048 40250 52015 333 10076
AAXX 01181 13173 32997 11603 10028 21001 30139 40242 51002 81030 333 10064
AAXX 01181 13389 32998 01401 10004 21048 39972 40265 52010 333 10050
AAXX 01181 13266 32697 60902 10012 21011 30133 40237 52008 86500 333 10067
AAXX 01181 13384 32998 01401 11016 21025 30100 40259 52011 333 10076
AAXX 01181 13389 32998 01401 10004 21048 39972 40265 52010 333 10050
AAXX 01184 68572 NIL
AAXX 01184 68575 NIL
AAXX 01184 68589 NIL
AAXX 01184 68715 NIL
AAXX 01184 68817 NIL
AAXX 01184 68912 NIL
AAXX 01184 68921 NIL
AAXX 01184 68925 NIL
AAXX 01184 68926 NIL
AAXX 01181 50548 32980 00000 11298 21335 40331 57003 333 11162
AAXX 01181 50564 32970 02501 11283 21308 40326 52004 333 11155
AAXX 01181 51334 11770 60000 11132 21152 40432 57011 69931 77177 82502 333 05500 11070
AAXX 01181 51818 32965 00000 11118 21152 40396 57010 333 05451 11021
AAXX 01181 52378 32980 02506 11123 21187 40405 57002 333 00152 11020
AAXX 01181 53487 31959 52504 11054 21149 40286 57002 70400 80002 333 11018
AAXX 01181 53502 32980 02702 11107 21198 40384 57008 333 00103 10007
AAXX 01181 53923 32980 33402 11044 21151 40330 57009 80002 333 10027
AAXX 01181 54049 32970 01802 11174 21229 40335 57005 333 11121
AAXX 01181 54115 32976 70000 11162 21213 40305 57015 80002 333 11079
AAXX 01181 54157 32962 00000 11212 21240 40340 57007 333 11112
AAXX 01181 54186 32965 02501 11239 21269 40337 52003 333 11117
AAXX 01181 54311 32980 80202 11142 21205 40310 57014 80007 333 11059
AAXX 01181 54346 32965 00902 11175 21207 40335 57003 333 11108
AAXX 01181 54377 32960 03603 11155 21194 40321 57002 333 11051
AAXX 01181 54386 32970 00403 11236 21271 40329 52009 333 11086
AAXX 01181 54493 32966 00402 11134 21195 40309 57006 333 11071
AAXX 01181 54587 NIL
AAXX 01181 54715 32964 01102 11051 21078 40308 57022 333 10012
AAXX 01181 54929 32962 01402 11034 21060 40325 57004 333 10066
AAXX 01181 54945 32977 03202 11045 21081 40326 57009 333 10030
AAXX 01181 56065 32980 20901 11152 21196 36602 57007 80002 333 05302 10010
AAXX 01181 57193 31612 80201 10009 21007 40325 57003 71000 885// 333 10018
AAXX 01181 57290 31950 83401 10010 21012 40325 57005 71000 8802/ 333 10013
AAXX 01181 38599 3103 90805 11029 21033 39693 40226 57012 74342 333 11017
BBXX 46206 01181 99488 71260 46/// /1014 10072 40194 54000 22200 00084 11007 70034 333 91217
AAXX 01184 68174 11875 21003 10214 20148 38810 48536 53022 60152 70500 81082 333 10289 20200 91006 555 20158 91020
AAXX 01184 68191 NIL
AAXX 01184 68242 32980 02304 10264 20044 38702 48487 53006 333 10306 20264 91005 555 91015
AAXX 01184 68262 36/// /0000 10248 20125 38688 48499 53005 333 10290 20248 91001 555 91016
AAXX 01184 68263 32580 23303 10225 20128 38476 48501 53006 82400 333 10267 20224 91004 555 91018
AAXX 01184 68267 32570 22608 10208 20101 38238 48505 52012 82100 333 10260 20208 91017 555 91020
AAXX 01184 68289 16/// /2603 10219 20177 39136 48512 53008 69982 333 10261 20219 91005 555 20008 91015
AAXX 01184 68350 16/// /3102 10226 20099 38654 48506 53010 69922 333 10328 20226 91003 555 20002 91018
AAXX 01184 68368 42970 13607 10223 20131 38316 48509 53010 80082 333 10264 555 91020
AAXX 01184 68403 36/// /2013 10189 20131 30128 40161 53006 333 10235 20189 91021 555 91016
AAXX 01184 68424 32982 02203 10285 21045 39165 48507 53005 333 10362 20285 91004 555 91012
AAXX 01184 68438 32882 12806 10272 20003 38778 48480 53005 81070 333 10344 20272 91007 555 91013
AAXX 01184 68442 32882 10000 10242 20052 38631 48486 53007 81060 333 10325 20241 91002 555 91015
AAXX 01184 68461 32980 02203 10206 20102 38314 48497 53010 333 10274 20206 91005 555 91019
AAXX 01184 68512 32982 02311 10201 20055 39022 48522 53007 333 10271 20201 91014 555 91017
AAXX 01184 68538 32882 13005 10290 20061 38685 48477 53003 81080 333 10330 20290 91006 555 91013
AAXX 01184 68587 NIL
AAXX 01184 68588 36/// /0206 10249 20170 30089 40105 52013 333 10304 20249 91009 555 91010
AAXX 01184 68591 NIL
AAXX 01184 68592 NIL
AAXX 01184 68618 32980 02311 10217 20030 39054 48526 53011 333 10304 20217 91017 555 91017
AAXX 01184 68633 36/// /0000 10243 20048 38482 48476 53010 333 10310 20243 91002 555 91015
AAXX 01184 68668 32570 11308 10206 20168 39271 48502 53013 81500 333 10301 20206 91012 555 91013
AAXX 01184 68714 36/// /2307 10200 20146 30118 40154 52011 333 10233 20200 91011 555 91015
AAXX 01184 68727 36/// /2014 10297 21048 39081 48490 52015 333 10335 20297 91018 555 91011
AAXX 01184 68752 16/// /1609 10202 20168 39452 48515 53023 69922 333 10303 20202 91012 555 20002 91014
AAXX 01184 68816 32570 63110 10193 20161 30098 40152 53010 86500 333 10237 91015 555 91015
AAXX 01184 68828 43570 62110 10201 20158 39901 40131 53019 86500 333 10231 555 91013
AAXX 01184 68842 32460 42413 10195 20145 30044 40113 53021 84500 333 10244 555 91011
AAXX 01184 68858 32980 12604 10203 20186 39965 40119 53028 80001 333 10251 555 91011
AAXX 01184 68906 12598 72620 10148 20116 30042 40106 57005 69922 8657/ 222// 00133 20401 333 10184 20147 91033 555 20002 91010
AAXX 01184 68994 11496 83013 10093 20093 39796 49824 58013 60092 76066 885// 222// 00074 333 10106 20088 91019 555 20090 69965 90982
AAXX 01184 89004 32880 30718 11071 21118 38889 49903 5//// 81011 333 1//// 2//// 555 90984
BBXX 46206 01181 99488 71260 46/// /1014 10072 40194 54000 22200 00084 11007 70034 333 91217
BBXX A8CS2 01183 99139 10516 41998 00912 10250 20220 40170 52005 70200 80000 22224 2//// 3//// 4//// 5//// 80230
BBXX A8RV9 01184 99187 50156 41398 61012 10230 20169 40170 58010 70300 8/77/ 22234 20604 311// 40804 5//// 80190
BBXX DMQN 01184 99027 50321 41598 51112 10265 20237 40122 57015 70222 82260 22243 04280 20402 3//// 4//// 5//// 80245
BBXX SHIP 01184 99384 70659 41398 52922 10150 20060 40180 57020 70222 85100 22224 04170 20605 326// 41006 80103
AAXX 01181 40650 12960 02704 10105 20091 40175 52009 60002
AAXX 01181 40604 12960 00000 10082 20040 40176 52004 60002
AAXX 01181 40608 12960 00000 10082 20062 40180 52005 60002
AAXX 01181 40621 11958 00000 10095 20085 40192 52006 60002 71000
AAXX 01181 40629 11/02 90000 10058 20053 40195 54000 60002 74740 89///
AAXX 01181 40631 12960 00000 10095 20074 40187 52012 60002
AAXX 01181 40634 12960 02704 10050 20030 40193 52018 60002
AAXX 01181 40665 12960 01502 10158 20132 40166 52009 60002
AAXX 01181 40670 12960 03303 10105 20085 40167 52011 60002
AAXX 01181 40680 12560 40703 10170 20074 40151 53005 60002 82202
AAXX 01181 40689 12960 01804 10168 20136 40159 52012 60002
AAXX 01181 40676 12960 03204 10154 20082 40164 52018 60002
AAXX 01181 40672 12960 00000 10122 20085 40176 52015 60002
AAXX 01181 40623 80000 10076 20054 40194 53003 60032 76064 8662/
AAXX 01181 40637 40000 10120 20099 40181 51004 60002 82031
AAXX 01181 40642 12960 00000 10088 20026 40183 53010 60002
AAXX 01181 40656 12960 10097 20082 40161 52012 60002
BBXX 46205 01181 99542 71343 46/// /1414 10066 49918 57042 22200 00071 11116 70081 333 91218
BBXX 46132 01181 99497 71279 46/// /1320 10081 40127 52004 22200 00083 11113 70067 333 91226
BBXX 46205 01181 99542 71343 46/// /1414 10066 49918 57042 22200 00071 11116 70081 333 91218
BBXX 46132 01181 99497 71279 46/// /1320 10081 40127 52004 22200 00083 11113 70067 333 91226
AAXX 01184 62309 11560 42707 10136 20074 40187 52016 69902 70161 84400 333 10190
AAXX 01184 62325 12560 52506 10130 20118 40184 52014 60062 85500 333 10160
AAXX 01184 62332 32960 62410 10141 20110 40186 52017 80006 333 10178
AAXX 01184 62387 32960 02805 10108 20034 40218 52015 333 10194
AAXX 01184 62459 32960 03410 10159 20016 40202 52018 333 10196
AAXX 01184 62452 32960 01806 10082 20032 40220 52015 333 10158
AAXX 01184 42867 21596 82005 10222 20210 40121 70522 8252/ 333 59019 6995/ 82620 88458
AAXX 01184 42933 22996 20000 10240 20210 40116 82030 333 59011 6990/ 82360
AAXX 01184 42559 NIL
AAXX 01184 42571 NIL
AAXX 01184 42667 NIL
AAXX 01184 42675 NIL
AAXX 01184 42754 NIL
AAXX 01184 42779 NIL
AAXX 01184 42874 NIL
AAXX 01184 43041 NIL
AAXX 01181 28867 12998 01801 11166 21192 30030 40322 57010 69900 333 11102
AAXX 01181 28952 129// 80000 11129 21149 30104 40307 57010 69900 80005 333 11073
AAXX 01184 62309 11560 42707 10136 20074 40187 52016 69902 70161 84400 333 10190
AAXX 01184 62325 12560 52506 10130 20118 40184 52014 60062 85500 333 10160
AAXX 01184 62332 32960 62410 10141 20110 40186 52017 80006 333 10178
AAXX 01184 62387 32960 02805 10108 20034 40218 52015 333 10194
AAXX 01184 62459 32960 03410 10159 20016 40202 52018 333 10196
AAXX 01184 62452 32960 01806 10082 20032 40220 52015 333 10158
AAXX 01184 62458 32960 00000 10129 20024 40212 52019 333 10183
AAXX 01184 62420 32960 00000 10120 20002 40220 52017 333 10190
AAXX 01184 62432 32960 02602 10134 20052 40232 52019 333 10194
AAXX 01184 62435 32960 00203 10152 20046 40212 52018 333 10206
AAXX 01184 62455 32960 00000 10128 20057 40178 52014 333 10192
AAXX 01184 62476 32960 03405 10188 20106 40175 52020 333 10240
AAXX 01184 62357 32560 22409 10139 20046 40194 52018 82500 333 10189
AAXX 01184 62423 32960 02804 10122 20045 40235 52017 333 10184
AAXX 01184 62403 32960 03303 10158 20028 40213 52018 333 10206
AAXX 01181 28952 129// 80000 11129 21149 30104 40307 57010 69900 80005 333 11073
AAXX 01184 62458 32960 00000 10129 20024 40212 52019 333 10183
AAXX 01184 62420 32960 00000 10120 20002 40220 52017 333 10190
AAXX 01184 62432 32960 02602 10134 20052 40232 52019 333 10194
AAXX 01184 62435 32960 00203 10152 20046 40212 52018 333 10206
AAXX 01184 62455 32960 00000 10128 20057 40178 52014 333 10192
AAXX 01184 62476 32960 03405 10188 20106 40175 52020 333 10240
AAXX 01181 50658 31920 23601 11270 21285 40329 57003 70400 80002 333 11174
AAXX 01181 50888 32980 01801 11261 21287 40301 54000 333 11180
AAXX 01181 50983 32970 00000 11262 21289 40309 52002 333 11182
AAXX 01181 51053 32975 00907 11123 21172 40433 57013 333 05601 11114
AAXX 01181 51542 32980 00903 11309 21340 37599 57010 333 05654 11198
AAXX 01181 52436 32980 01401 11159 21195 38564 40417 57008 333 05254 11035
AAXX 01181 52908 32980 22905 11107 21198 35723 57014 80002 333 05505 11011
AAXX 01181 52996 32962 73610 11112 21180 37598 57010 8704/ 333 00056 11044
AAXX 01181 53083 11975 83201 11184 21206 40315 57005 60011 77070 8802/ 333 06008 11169
AAXX 01181 53764 32965 03201 11077 21119 40338 57003 333 10016
AAXX 01181 53787 32970 40201 11093 21121 40304 57006 80002 333 10036
AAXX 01181 54096 32970 22904 11222 21244 40304 54000 80002 333 11137
AAXX 01181 54226 32980 30000 11192 21228 40333 57015 80002 333 11095
AAXX 01181 54259 32962 00701 11225 21260 40348 57006 333 11109
AAXX 01181 54527 32960 71603 11050 21077 40308 57018 80002 333 10016
AAXX 01181 54534 32965 71102 11047 21097 40317 57018 80002 333 10019
AAXX 01184 68191 NIL
AAXX 01184 68587 NIL
AAXX 01184 68591 NIL
AAXX 01184 68592 NIL
BBXX 46181 01181 99538 71288 46/// /0309 11003 40122 57032 22200 00037 10201 70003 333 91214
AAXX 01181 40604 12960 00000 10082 20040 40176 52004 60002
AAXX 01181 40608 12960 00000 10082 20062 40180 52005 60002
AAXX 01181 40629 11/02 90000 10058 20053 40195 54000 60002 74740 89///
AAXX 01181 40631 12960 00000 10095 20074 40187 52012 60002
AAXX 01181 40642 12960 00000 10088 20026 40183 53010 60002
AAXX 01181 40650 12960 02704 10105 20091 40175 52009 60002
AAXX 01181 40656 12960 10097 20082 40161 52012 60002
AAXX 01181 40665 12960 01502 10158 20132 40166 52009 60002
AAXX 01181 40670 12960 03303 10105 20085 40167 52011 60002
AAXX 01181 40676 12960 03204 10154 20082 40164 52018 60002
AAXX 01181 40680 12560 40703 10170 20074 40151 53005 60002 82202
AAXX 01181 40689 12960 01804 10168 20136 40159 52012 60002
BBXX MLRM6 01183 99400 30038 41397 43030 10134 20111 40071 58020 70200 847// 22262 00135 20204 325// 40506 5////
BBXX DANV 01184 99110 10633 41/97 70121 10255 20248 40120 54000 70322 8//// 22224 04250 20303 80250
BBXX ZCDF4 01183 99157 70734 41498 40833 10278 20244 40160 53001 70211 83144 22275 00270 20604 309// 41006 5//// 80254
BBXX ELVL8 01183 99196 70496 41497 40422 10261 20215 40215 51010 70211 8326/ 22214 04261 20205 304// 40205 5//// 80230 ELVL8
BBXX PHHD 01181 99133 70597 41697 52710 10270 20221 40158 56028 71322 81562 22243 04260 20202 80235
BBXX ZCEF6 01183 99300 70689 41598 33308 10229 20181 40215 56009 70200 81044 22284 00231 21801 331// 41202 5//// 80199
BBXX ZCAO7 01184 99170 31186 41/98 22613 10274 20216 40070 56010 70111 8//// 22254 00298 2//// 80235
BBXX VQKZ6 01183 99219 50737 41698 41809 10250 20157 40143 58010 70111 81145 22274 02200 20302 317// 40503 5//// 80193
AAXX 01181 30455 429// 20000 11258 21276 38962 48478 53003 80001
AAXX 01181 30731 419// 83304 11074 21118 39722 40351 52001 70232 8807/
AAXX 01181 30739 416// 33304 11115 21150 39481 40336 52005 73633 82902
AAXX 01181 30741 419// 83103 11159 21172 38745 48537 52008 70232 80001
AAXX 01181 30745 419// 83502 11156 21175 39114 40325 52005 77177 8801/
AAXX 01181 30764 41997 80000 11226 21244 39469 40334 57004 77177 8802/
AAXX 01181 30829 41972 80000 11176 21188 39677 40419 52001 77171 8802/
AAXX 01181 30838 41598 50000 11195 21207 39342 40402 52002 70232 83902
AAXX 01181 30846 41998 82505 11112 21148 39352 40294 57002 77172 8802/
AAXX 01181 30859 41998 80000 11257 21281 39417 40338 58007 77172 80007
AAXX 01181 30862 41965 80000 11244 21269 39531 40340 57001 77172 8801/
AAXX 01181 30957 429// 52203 11210 21216 39360 40327 57007 85040
AAXX 01181 30967 NIL
AAXX 01181 30975 42898 80702 11263 21294 39644 40360 57012 8802/
AAXX 01184 68155 36/// /1802 10277 20145 39162 48506 53007 333 10339 20277 91002 555 91012
AAXX 01184 68171 NIL
AAXX 01184 68176 16/// /2402 10193 20174 39116 48498 53003 60272 333 10348 20173 91003 555 20272 91014
AAXX 01184 68181 NIL
AAXX 01184 68182 36/// /2102 10245 20171 39314 48513 53011 333 10316 20243 91003 555 91013
AAXX 01184 68185 NIL
AAXX 01184 68253 36/// /1902 10254 20167 39025 48505 53005 333 10320 20254 91004 555 91014
AAXX 01184 68255 36/// /2302 10246 20142 38835 48488 53003 333 10305 20246 91002 555 91014
AAXX 01184 68271 36/// /0203 10244 20143 38894 48504 53012 333 10320 20242 91007 555 91015
AAXX 01184 68273 16/// /2503 10223 20140 38449 48503 53008 69922 333 10281 20223 91005 555 20002 91019
AAXX 01184 68287 36/// /0303 10161 20148 38574 48509 52015 333 10219 20159 91004 555 91019
AAXX 01184 68291 36/// /1803 10246 20199 39506 48514 53007 333 10326 20244 91005 555 91011
AAXX 01184 68297 NIL
AAXX 01184 68329 36/// /2102 10291 21053 39066 48513 53005 333 10369 20291 91003 555 91014
AAXX 01184 68331 36/// /2505 10262 21013 38823 48514 53002 333 10338 20262 91006 555 91017
AAXX 01184 68335 36/// /3305 10268 20042 38895 48512 53005 333 10347 20268 91008 555 91016
AAXX 01184 68341 36/// /2603 10230 20060 38518 48503 53007 333 10308 20230 91004 555 91018
AAXX 01184 68342 NIL
AAXX 01184 68343 36/// /2403 10259 20077 38755 48484 53005 333 10334 20259 91004 555 91014
AAXX 01184 68349 36/// /2205 10244 20064 38495 48488 53007 333 10309 20244 91008 555 91017
AAXX 01184 68353 36/// /3302 10235 20140 38503 48482 53007 333 10286 20232 91005 555 91016
AAXX 01184 68355 36/// /3303 10247 20062 38557 48492 53006 333 10302 20247 91004 555 91017
AAXX 01184 68370 32970 00000 10208 20191 38363 48510 52015 333 10280 2//// 555 91020
AAXX 01184 68377 36/// /2703 10270 20128 38720 48466 52015 333 10326 20270 91005 555 91012
AAXX 01184 68380 36/// /2702 10191 20140 3//// 4//// 5//// 333 10273 20191 91003 555
AAXX 01184 68387 16/// /0409 10226 20196 38834 48498 52013 60022 333 10300 20225 91016 555 20028 91015
AAXX 01184 68411 36/// /1708 10303 20011 39918 40118 53012 333 10370 20303 91012 555 91012
AAXX 01184 68429 36/// ///// 10264 21050 38669 48494 53006 333 10326 20264 555 91016
AAXX 01184 68449 36/// /0000 10224 20075 38374 48485 53008 333 10284 20224 91002 555 91017
AAXX 01184 68471 36/// /1102 10210 20109 38308 48483 53010 333 10268 20210 91004 555 91017
AAXX 01184 68474 NIL
AAXX 01184 68479 36/// /1309 10268 20150 38912 48487 53015 333 10334 20268 91013 555 91013
AAXX 01184 68481 36/// /0000 10247 20204 39737 40099 52011 333 10305 20247 91002 555 91011
AAXX 01184 68487 36/// /2105 10218 20195 38975 48501 52020 333 10297 20218 91007 555 91015
AAXX 01184 68491 36/// /0207 10253 20218 30085 40094 52010 333 10294 20253 91012 555 91009
AAXX 01184 68497 36/// /0706 10259 20212 30046 40089 52016 333 10322 20259 91014 555 91009
AAXX 01181 30499 42999 02702 11306 21317 39620 40358 53003
AAXX 01181 30683 429// 00000 11306 21324 39618 40346 54000
AAXX 01181 30695 42999 03201 11323 21346 39957 40338 53004
AAXX 01181 31253 42999 00000 11346 21374 39808 40332 57001
AAXX 01181 31295 42999 00000 11271 21288 39812 40317 53002
AAXX 01181 31348 NIL
AAXX 01181 31418 42984 00000 11275 21293 39998 40280 56001
AAXX 01181 31439 42999 00000 11265 21286 30207 40256 57001
AAXX 01181 31442 42997 00000 11326 21355 39924 40327 57002
AAXX 01181 31445 42984 03101 11313 21350 30031 40318 54000
AAXX 01181 31474 42998 00000 11372 21408 39794 40352 53004
AAXX 01181 31521 32981 00000 11313 21330 39992 40321 58002
AAXX 01181 31527 42998 02301 11301 21326 39978 40319 56001
AAXX 01181 31534 42999 00000 11337 21353 39940 40334 54000
AAXX 01181 31587 42998 00000 11321 21337 40159 53003
AAXX 01181 31632 NIL
AAXX 01181 31702 42998 00201 11315 21345 39947 40329 56002
AAXX 01181 31713 42998 00000 11301 21313 30184 40295 53006
AAXX 01181 31725 42998 03202 11305 21312 30211 40286 53003
AAXX 01181 31801 42998 00000 11339 21362 30049 40310 53008
AAXX 01181 31825 42984 00000 11301 21319 30034 40269 53007
AAXX 01181 31845 42998 00000 11352 21374 30122 40311 52005
AAXX 01181 31878 42982 02301 11296 21324 30173 40313 53005
AAXX 01181 31915 42998 02902 11230 21249 30016 40308 58005
AAXX 01181 31921 42998 00000 11222 21241 30198 40305 52001
AAXX 01181 31969 42997 03006 11133 21204 30227 40280 52006
AAXX 01181 31981 42999 02301 11306 21332 30046 40314 53007
AAXX 01181 31987 42999 03509 11171 21238 39981 40260 55001 333 91012 91114
AAXX 01181 32069 41596 81302 11119 21111 30195 40200 57006 78582 889// 333 91004 91105
AAXX 01184 68183 31775 10403 10269 20186 39411 48521 53012 70500 81700 333 10312 20269 91004 555 91012
AAXX 01184 68188 36/// /0000 10217 20189 39181 48512 53008 333 10290 20216 91003 555 91015
AAXX 01184 68268 NIL
AAXX 01184 68272 16/// /1702 10233 20180 39046 48497 53006 69922 333 10324 20231 91003 555 20002 91014
AAXX 01184 68296 16/// /0000 1//// 2//// 38911 4//// 52001 69922 333 1//// 2//// 91002 555 20002
AAXX 01184 68322 36/// /1803 10278 21063 39112 48500 52010 333 10379 20278 91005 555 91012
AAXX 01184 68338 32980 02605 10224 20059 38744 48479 52008 333 10325 20224 91009 555 91014
AAXX 01184 68345 36/// /3406 10226 20085 38647 48491 53006 333 10322 20226 91006 555 91016
AAXX 01184 68362 32680 20202 10188 20143 38488 48490 52008 81260 333 10297 20188 91003 555 91017
AAXX 01184 68400 36/// /0404 10257 20206 30025 40097 52021 333 10338 20257 91008 555 91010
AAXX 01184 68408 36/// /1605 10160 20135 30151 40159 52015 333 10211 20160 91011 555 91015
AAXX 01184 68416 36/// /1811 10275 21002 39025 48514 52015 333 10347 20275 91019 555 91015
AAXX 01184 68478 NIL
AAXX 01184 68488 16/// /0704 10221 20189 39236 48495 52012 69922 333 10294 20220 91006 555 20002 91012
AAXX 01184 68494 36/// /1602 10227 20204 39963 40092 53020 333 10313 20227 91004 555 91009
AAXX 01184 68524 32986 02618 10311 21001 39021 48496 52015 333 10362 20311 91027 555 91012
AAXX 01184 68546 36/// /3502 10214 20094 38627 48475 53005 333 10305 20214 91004 555 91014
AAXX 01184 68558 36/// /3406 10193 20058 38179 48490 52006 333 10248 20189 91009 555 91019
AAXX 01184 68570 16/// /1605 10203 20121 38498 48490 52020 69922 333 10293 20199 91009 555 20002 91017
AAXX 01184 68580 36/// /1402 10193 20181 38937 48502 52012 333 10294 20193 91006 555 91016
AAXX 01184 68614 32780 12209 10203 20131 30107 40148 52009 81040 333 10272 20203 91019 555 91014
AAXX 01184 68624 32982 02204 10260 21064 38723 48501 52015 333 10338 20260 91010 555 91016
AAXX 01184 68674 36/// /0304 10227 20199 30073 48531 53010 333 10313 20227 91006 555 91010
AAXX 01184 68712 36/// /2602 10179 20146 30089 40154 52011 333 10222 20179 91006 555 91015
AAXX 01184 68718 NIL
AAXX 01184 68722 32/// /1909 10204 21012 38549 48507 52011 333 10278 20204 91017 555 91018
AAXX 01184 68814 NIL
AAXX 01184 68832 36/// /2011 10216 20099 39155 48487 52017 333 10321 20216 91020 555 91012
AAXX 01184 68916 32370 72818 10183 20157 39881 40148 52010 875// 333 10210 20181 91024 555 91015
AAXX 01184 68920 NIL
AAXX 01184 68928 NIL
BBXX 46181 01181 99538 71288 46/// /0309 11003 40122 57032 22200 00037 10201 70003 333 91214
BBXX 44059 01181 99368 70763 46/// /2006 1//// 91820 333 91210
BBXX 44059 01181 99368 70763 46/// /2006 1//// 40136 91810 333 91210
BBXX 44059 01181 99368 70763 46/// /2006 10166 40140 58063 91800 22200 00108 333 91211
BBXX 44057 01181 99395 70761 46/// /1603 1//// 91820 333 91203
BBXX 44057 01181 99395 70761 46/// /1703 1//// 40127 91810 333 91203
BBXX 44057 01181 99395 70761 46/// /1703 10075 40124 55070 91800 22200 00040 333 91204
BBXX 44058 01181 99376 70763 46/// /1808 1//// 91810 333 91209
BBXX 44058 01181 99376 70763 46/// /1808 10101 40143 58057 91800 22200 00089 10301 70006 333 91209
BBXX 44062 01181 99386 70764 46/// /1709 1//// 91820 22200 00081 333 91211
BBXX 44062 01181 99386 70764 46/// /1709 1//// 40124 91810 22200 00081 333 91211
BBXX 44062 01181 99386 70764 46/// /1708 10086 40127 58052 91800 22200 00081 10301 70004 333 91210
BBXX 44063 01181 99390 70764 46/// /2008 1//// 91820 333 91209
BBXX 44063 01181 99390 70764 46/// /2008 1//// 40148 91810 333 91209
BBXX 44063 01181 99390 70764 46/// /2008 10089 40150 58051 91800 22200 00073 10201 70004 333 91210
BBXX 44041 01181 99372 70768 46/// /2108 1//// 91820 333 91211
BBXX 44041 01181 99372 70768 46/// /2207 1//// 40157 91810 333 91211
BBXX 44041 01181 99372 70768 46/// /2207 10153 40161 58063 91800 22200 00087 10301 70003 333 91210
BBXX 44042 01181 99380 70763 46/// /1806 10104 91800 22200 00084 10301 70005 333 91208
BBXX 44043 01181 99392 70764 46/// /1806 1//// 91820 333 91207
BBXX 44043 01181 99392 70764 46/// /1806 1//// 40123 91810 333 91207
BBXX 44043 01181 99392 70764 46/// /1804 10086 40126 58061 91800 22200 00062 10301 70004 333 91206
BBXX 42362 01181 99278 70907 46/// /2305 10228 20206 40251 91830
BBXX 42363 01181 99282 70892 46/// /2507 10261 20183 40247 91830 333 91207
BBXX 42364 01181 99291 70881 46/// /2606 10217 20189 40237 91830
AAXX 01184 83695 21696 80000 10274 20250 39929 40064 57016 72055 885// 333 60021
AAXX 01184 82863 21596 83608 10233 20221 39895 40108 76322 889// 333 58031 60021
AAXX 01184 83228 21799 70000 10279 20232 39804 40077 70362 83108 333 59005 60011
AAXX 01184 83368 32698 70000 10292 20229 39703 40063 84204 333 59002
AAXX 01184 83374 21598 83206 10278 20213 39519 40085 70265 885// 333 58012 60031
AAXX 01184 83526 32598 73205 10257 20217 39127 40054 87800 333 59006
AAXX 01184 82678 32596 72703 10330 20221 39957 40095 85570 333 58017
AAXX 01184 82784 32598 30503 10329 20203 39631 40075 83200 333 58008
AAXX 01184 82791 32599 51407 10357 20170 39802 40076 85200 333 58014
AAXX 01184 82983 32598 41405 10354 20227 39652 40053 83210 333 59005
AAXX 01184 83552 32598 4//// 10322 20229 39920 4//// 84200 333 58000
AAXX 01184 83565 21597 73204 10236 20224 39579 40043 75096 8572/ 333 59007 60121
AAXX 01184 83630 21295 82306 10210 20202 3//// 4//// 57015 76062 887// 333 60091
AAXX 01184 83702 32599 62310 10289 20178 39324 40065 58011 85105
AAXX 01184 83704 32998 02702 10312 20148 39625 40024 58009
AAXX 01184 83726 21596 83201 10222 20206 39112 40068 58020 71044 887// 333 60031
AAXX 01184 83599 41195 899// 10250 20236 40001 57005 72022 886// 222// 20403 80245
AAXX 01184 83925 11295 81800 10222 20205 40100 57006 7506/ 8870/ 222// 20000 80210
AAXX 01184 83970 41296 80903 10240 20212 40184 57009 7162/ 887// 222// 02225 20301 80220
AAXX 01184 83064 21798 80000 10249 20240 39823 40093 70162 8537/ 333 58003 60171
AAXX 01184 83332 32697 73202 10231 20210 39181 40079 85860 333 58007
AAXX 01184 83423 21698 60000 10236 20207 39247 40058 76162 83973 333 59012 60051
AAXX 01184 82392 32499 40510 10342 20183 39970 40071 84200 333 58007
AAXX 01184 82583 32599 40506 10349 20186 39732 40064 84200 333 59003
AAXX 01184 82594 32697 40511 10314 20216 30092 40100 82012 333 58018
AAXX 01184 82780 32598 30904 10366 20151 39838 40085 83200 333 58001
AAXX 01184 82795 32597 20909 10297 20186 39505 40113 82100 333 58001
AAXX 01184 82879 32598 20502 10356 20182 39807 40067 82200 333 59012
AAXX 01184 82979 32498 30905 10327 20196 39629 40068 83100 333 58001
AAXX 01184 82986 32598 42303 10362 20152 39792 40070 84200 333 58003
AAXX 01184 83179 32598 60504 10325 20188 39628 40072 86200 333 59006
AAXX 01184 83192 32597 21203 10355 20111 39934 40095 82200 333 58006
AAXX 01184 83339 21497 80000 10225 20212 39126 40083 70262 8422/ 333 58002 60271
AAXX 01184 83498 32595 73612 10290 20248 30102 40107 82131 333 59007
BBXX V7OX3 01181 99348 50189 41/97 /2407 10260 20199 40210 54000 703// 8//// 22223 20801 33230 40801 50801 80220
BBXX DGLM 01184 99059 10023 41997 02402 10285 20230 40113 52013 70500 80000 22200 20000 80245
BBXX DCAX2 01183 99238 51433 41697 30512 10261 20233 40170 54000 70311 82141 22233 21003 327// 41105 5//// 80241
AAXX 01181 35406 325// 80901 11042 21065 30186 40188 58006 885// 333 11023
BBXX 46184 01181 99539 71389 46/// /1610 10072 49817 57009 22200 00059 11211 70055 333 91213
BBXX 46184 01181 99539 71389 46/// /1610 10072 49817 57009 22200 00059 11211 70055 333 91213
AAXX 01184 42921 32996 00000 10160 20114 40169 333 59005
AAXX 01184 43014 32596 33402 10220 20126 39461 40109 82530 333 59013
AAXX 01184 43110 31995 00000 10228 20194 40115 70540 333 59002
AAXX 01184 43117 32596 61402 10260 20152 40106 82430 333 59013
AAXX 01184 42634 NIL
AAXX 01184 42647 NIL
AAXX 01184 42737 NIL
AAXX 01184 42840 NIL
AAXX 01184 42909 NIL
AAXX 01184 43003 NIL
AAXX 01184 43063 NIL
AAXX 01184 43192 NIL
AAXX 01184 68715 36/// /2505 10211 20136 30031 40157 52013 333 10273 20211 91012 555 91016
AAXX 01184 68171 NIL
AAXX 01184 68181 NIL
AAXX 01184 68185 NIL
AAXX 01184 68297 NIL
AAXX 01184 68342 NIL
AAXX 01184 68474 NIL
AAXX 01181 27595 12/97 71301 11056 21066 30056 40205 57003 69900 8808/ 333 11056
AAXX 01181 24856 41997 82601 11331 21353 30097 40273 53004 77177 80007
AAXX 01181 30679 NIL
AAXX 01181 30686 42999 03601 11342 21362 39927 40353 53003
AAXX 01181 30961 41897 80000 11224 21236 39470 40324 57014 77177 8802/
AAXX 01181 30971 42999 80000 11228 21253 39258 40325 57007 8801/
AAXX 01181 30978 42999 80000 11243 21271 39199 40444 57003 8801/
AAXX 01181 31513 42999 00000 11284 21290 30061 40322 53001
AAXX 01181 31624 NIL
AAXX 01181 31832 42963 80000 11299 21317 30206 40303 53001 82032
AAXX 01181 31913 NIL
AAXX 01181 32128 41598 70103 11056 21082 30113 40166 53001 78582 87300 333 91005 91109
BBXX A8VL5 01184 99514 10027 41396 81827 10100 20100 40130 57020 76362 887// 22200 00120 20303 30000 80100
BBXX 2ALE5 01183 99142 70177 41697 40220 10220 20124 40149 55017 70511 8457/ 22243 20605 80165
BBXX DCAX2 01183 99238 51433 41697 30512 10261 20233 40170 54000 70311 82141 22233 21003 327// 41105 5//// 80241
BBXX A8VL5 01184 99514 10027 41396 81827 10100 20100 40130 57020 76362 887// 22200 00120 20303 30000 80100
BBXX SHIP 01184 99384 70659 41398 52922 10150 20060 40180 57020 70222 85100 22224 04170 20605 326// 41006 80103
BBXX DMQN 01184 99027 50321 41598 51112 10265 20237 40122 57015 70222 82260 22243 04280 20402 3//// 4//// 5//// 80245
BBXX A8CS2 01183 99139 10516 41998 00912 10250 20220 40170 52005 70200 80000 22224 2//// 3//// 4//// 5//// 80230
BBXX A8RV9 01184 99187 50156 41398 61012 10230 20169 40170 58010 70300 8/77/ 22234 20604 311// 40804 5//// 80190
BBXX V7OX3 01181 99348 50189 41/97 /2407 10260 20199 40210 54000 703// 8//// 22223 20801 33230 40801 50801 80220
BBXX DGLM 01184 99059 10023 41997 02402 10285 20230 40113 52013 70500 80000 22200 20000 80245
BBXX 2ALE5 01183 99142 70177 41697 40220 10220 20124 40149 55017 70511 8457/ 22243 20605 80165
BBXX 2AJI3 01183 99038 10030 41498 22803 10285 20235 40120 52/// 70200 81189 22263 00290 20000 300// 4//// 5//// 80250
BBXX ZCBH7 01184 99023 31093 41597 33510 10283 20266 40121 52031 70322 8/244 22273 04291 20201 334// 40202 5//// 80271
BBXX A8KH9 01184 99052 30810 41/97 63205 10255 20212 40080 54000 76222 847/8 22214 20301 32000 41004 5//// 80225
BBXX ONDY 01184 99057 30839 41/97 93210 10270 2026/ 40110 52020 71582 89/// 22214 00287 2//// 3//// 4//// 5//// 6//// 80260 /////
BBXX BATFR19 01184 99067 30055 46/// /1818 10237 20195 40123 50007 22200 00257
BBXX TBWUK42 01184 99074 30805 41598 63110 10280 20244 40116 52/// 71600 81805 22213 20502 315// 40504 5//// 80255
BBXX 3FMV6 01183 99169 30631 41398 31416 10260 20231 40097 51010 70200 83144 22213 06280 20101 80240
BBXX MIBR 01183 99206 30605 41498 31211 10260 20215 40131 51010 70200 83100 22254 00273 2//// 3//// 4//// 5//// 80230
BBXX PCSV 01183 99267 30035 41598 62209 10200 20141 40203 53/// 70211 82141 22273 04193 20501 323// 41004 80163
BBXX BATFR08 01184 99279 30544 46/// /1112 10232 20149 40161 51019 22243 00260
BBXX DBBT 01181 99339 30184 46/// /3002 10166 20149 40152 52006 22220 00133
BBXX DBLK 01181 99416 30100 41497 72814 10124 20079 40047 52003 71521 878// 22213 04132 20606 325// 41008
BBXX 46004 01181 99509 71361 46/// /1810 10082 49896 57003 22200 00072 11111 70057 333 91213
AAXX 01184 43086 21596 50000 10230 20212 39950 40129 70162 82570 333 59008 6003/
AAXX 01184 43128 31596 71405 10220 20205 39523 40133 70522 84530 333 59006 84620 85360
AAXX 01184 43150 31996 30000 10248 20221 30070 40145 70500 83030 333 59009 83360
AAXX 01184 43185 21596 80000 10238 20217 30133 40137 76065 8552/ 333 58000 6009/ 85620 88460
AAXX 01184 43189 21596 80000 10256 20229 30132 40141 75052 8487/ 333 59005 6991/
AAXX 01184 43198 32496 60000 10194 20155 39285 40116 83531 333 56299 59005 83615 83358
AAXX 01184 43201 32497 50904 10246 20185 39388 40101 83530 333 59011 83615 83358
AAXX 01184 43213 32996 39901 10250 20201 39799 40117 81032 333 59011
AAXX 01184 43226 32496 40902 10254 20218 30085 40114 83530 333 56290 59004
AAXX 01184 43233 32896 29902 10240 20178 39304 40108 82030 333 59009
AAXX 01184 43237 32596 20905 10240 20213 39710 40103 81530 333 59015 81620
AAXX 01184 43245 22596 30502 10240 20225 30103 40130 82501 333 59004 6009/
AAXX 01184 43279 31596 50000 10244 20232 30109 40127 70522 81432 333 59008 6007/ 81620 83360 85075
AAXX 01184 43284 32496 70000 10260 20215 39991 40107 83870 333 58002 83615 85358
AAXX 01184 43295 32996 20902 10200 20175 39110 48504 80001 333 58008 82075
AAXX 01184 43311 22596 72705 10270 20241 40095 84431 333 59003 6014/ 84520 85360
AAXX 01184 43314 32596 20702 10258 20222 40116 81530 333 58015
AAXX 01184 43321 31495 53403 10210 20181 39682 40136 70520 82501 333 56909 59001
AAXX 01184 43329 32996 00000 10248 20245 30096 40109 333 59018
AAXX 01184 43344 31996 20902 10246 20222 30024 40124 70500 80001 333 59011 82075
AAXX 01184 43346 32596 20904 10260 20237 30106 40114 81501 333 59013 81620
AAXX 01184 43353 31996 29903 10262 20212 40116 70500 80001 333 56009 59002 82072
AAXX 01184 43369 32496 81809 10274 20236 40105 8482/ 333 56499 58003 83618 88460
AAXX 01184 43371 32596 10000 10236 20202 30040 40113 81100 333 59002 81820
BBXX KEY796 01183 99571 71703 41/96 80121 11089 21106 40000 53/// 771// 8//// 222// 01011 2//// 3//// 4//// 5//// 6//// 8//// ICE /////
BBXX SHIP 01184 99427 71656 41/95 /1349 10060 20060 49792 57002 72126 8//// 91755 22222 00100 2//// 3//// 4//// 5//// 80060
BBXX 7JJA 01184 99318 11349 41797 83030 00 10130 20074 40112 57013 70222 87//// 9//// 22200 0 2//04 332 4//04 5 6//// 80100 IC E/////
BBXX A8GF4 01184 99432 11463 41998 01535 10040 20040 40150 54000 700// 80000 22214 04040 21004 316// 41005 5//// 80040
BBXX DCPY2 01184 99348 11287 41/97 /2625 10010 21051 40230 52010 70022 8//// 22200 201// 81010
BBXX MZUU6 01183 99354 11294 41597 53128 10001 21035 40212 56/// 7//22 8/0// 2229/ 20403 305// 40504 5//// 81012
BBXX SHIP 01184 99355 11441 41798 41425 10130 20103 40104 57031 70122 83331 22283 00212 80115
BBXX UDWE 01181 99456 11401 41/97 90313 11028 40163 57012 77072 22213 00068 20605
BBXX UHFW 01180 99433 11350 42999 03210 11070 40196 53005 22253 06030 20402
BBXX VRGW3 01183 99350 11397 41/97 83105 10065 20051 40217 56018 70022 88/// 22214 20802 80058
BBXX VRHO2 01184 99416 11424 41697 62519 10070 20026 40090 54000 78062 84939 22225 00090 20401 333 // 40804 50000 6//// 80050 ICE 0////
BBXX 46004 01181 99509 71361 46/// /1810 10082 49896 57003 22200 00072 11111 70057 333 91213
AAXX 01181 56671 32980 01801 10041 20011 38199 57001 333 05301 10197
AAXX 01181 57378 31906 03404 10019 20004 40304 52002 74440 333 10082
AAXX 01181 57426 31750 80000 10063 20056 40261 57010 71000 885// 333 05304 10089
AAXX 01181 57476 31958 80703 10037 20024 40293 57003 71000 8807/ 333 10093
AAXX 01181 57584 31920 00203 10059 20032 40285 57005 71000 333 10099
AAXX 01181 57598 31957 70000 10039 20024 40285 52002 71000 8703/ 333 10136
AAXX 01181 57655 32960 80202 10081 20028 40272 57008 8807/ 333 10120
AAXX 01181 57713 NIL
AAXX 01181 57776 31/00 90904 10006 20002 40279 57005 74544 333 10026
AAXX 01181 58321 31930 30401 10021 21008 40321 57001 71000 83040 333 10080
AAXX 01181 58437 32980 00703 11027 21200 38186 52001 333 11011
AAXX 01181 58445 NIL
AAXX 01181 58556 31930 82902 10022 21011 40296 57008 71000 8807/ 333 10080
AAXX 01181 58569 32960 00205 10046 21016 40275 57018 333 10091
AAXX 01181 58646 32660 80000 10036 20000 40290 57001 885// 333 10121
AAXX 01181 58653 NIL
AAXX 01181 58660 NIL
AAXX 01181 58715 31930 03402 10052 20029 40270 57005 71000 333 10126
AAXX 01181 58730 32765 70401 10061 20027 40270 52003 875// 333 10150
AAXX 01181 58731 32962 70201 10037 20028 40277 52010 8704/ 333 10143
AAXX 01181 58754 32560 80402 10075 20014 40275 57007 885// 333 10150
AAXX 01181 58911 32962 82901 10073 20053 40253 57005 8807/ 333 10136
AAXX 01181 58931 31/00 90703 10009 20009 38379 57003 74544 333 10073
AAXX 01181 59254 32760 80401 10126 20089 40228 57006 885// 333 10167
AAXX 01181 59632 31757 73603 10137 20072 40214 57007 70500 875// 333 10179
AAXX 01181 59855 32570 70402 10192 20157 40196 57007 878// 333 10238
AAXX 01184 71888 16/// ///// 11132 21196 60001 333 11128 21197 70000
AAXX 01184 71895 16/// ///// 11139 21190 60001 333 11118 21202 70004
AAXX 01184 71011 16/// ///// 11118 21170 60001 333 11112 21172 70000
AAXX 01184 71049 16/// /2917 11307 30171 40196 51010 60001 333 11303 21354 70000
AAXX 01184 71359 16/// /3002 11129 21195 60001 333 11103 21172 70000
AAXX 01184 71741 16/// /1210 11019 21071 39911 40346 53010 60001 333 11019 21037 70000
AAXX 01184 71673 16/// ///// 11080 21182 60001 333 11080 21195 70000
AAXX 01184 71690 16/// ///// 11161 21203 60001 333 11134 21230 70000
AAXX 01184 71153 16/// /1704 11010 21093 60001 333 11010 21116 70000
AAXX 01184 71067 16/// ///// 11107 21195 60001 333 11107 21197 70004
AAXX 01184 71283 17/// /1002 11129 21181 69951 7//4/ 333 11121 21224 70005
AAXX 01184 71461 16/// /1107 11145 21190 60001 333 11103 21183 70000
AAXX 01184 71468 47/// /3126 11024 21041 39695 40016 5/001 6///1 7//4/ 333 21024 7////
AAXX 01184 71483 16/// ///// 11135 21200 60001 333 11112 21200 70000
AAXX 01184 71405 16/// ///// 11071 21165 60001 333 11070 21179 70000
AAXX 01184 71417 17/// /0709 11017 21017 30045 40080 56027 60041 7//4/ 333 11014 21068 70104
AAXX 01184 71426 46/// /1509 11042 6///1 333 11034 21057 7////
AAXX 01184 71500 16/// /1503 11077 21208 60001 333 11077 21165 70000
AAXX 01184 71504 46/// ///// 11088 21169 6///1 333 11082 21177 7////
AAXX 01184 71541 16/// /1706 11110 21195 60001 333 11104 21170 70000
AAXX 01184 71543 16/// /0102 11167 21197 60001 333 11167 21255 70004
AAXX 01184 71546 16/// /0904 11133 21175 60001 333 11072 21151 70000
AAXX 01184 71547 16/// /0706 11139 21177 60001 333 11082 21176 70000
AAXX 01184 71315 16/// /0000 11009 21036 30084 40138 55009 60001 333 11008 21073 70068 555 10050
AAXX 01184 71761 16/// ///// 11116 21187 60001 333 11106 21163 70000
AAXX 01184 71788 16/// /1712 11047 21073 60001 333 11047 21140 70004
AAXX 01184 71792 16/// ///// 11068 21153 60001 333 11067 21162 70000
AAXX 01184 71988 16/// /3314 10021 20003 30130 40150 51003 60001 333 10055 20018 70063
AAXX 01184 71221 17/// /0000 11179 21198 60011 7//4/ 333 11169 21231 70012
AAXX 01184 71226 16/// /0805 11130 21187 60001 333 11078 21185 70000
AAXX 01184 71229 46/// /2004 11193 21214 6///1 333 11123 21220 7////
AAXX 01184 71888 16/// ///// 11132 21196 60001 333 11128 21197 70000
AAXX 01184 71895 16/// ///// 11139 21190 60001 333 11118 21202 70004
AAXX 01184 71359 16/// /3002 11129 21195 60001 333 11103 21172 70000
AAXX 01184 71011 16/// ///// 11118 21170 60001 333 11112 21172 70000
AAXX 01184 71049 16/// /2917 11307 30171 40196 51010 60001 333 11303 21354 70000
AAXX 01184 71461 16/// /1107 11145 21190 60001 333 11103 21183 70000
AAXX 01184 71468 47/// /3126 11024 21041 39695 40016 5/001 6///1 7//4/ 333 21024 7////
AAXX 01184 71483 16/// ///// 11135 21200 60001 333 11112 21200 70000
AAXX 01184 71067 16/// ///// 11107 21195 60001 333 11107 21197 70004
AAXX 01184 71673 16/// ///// 11080 21182 60001 333 11080 21195 70000
AAXX 01184 71690 16/// ///// 11161 21203 60001 333 11134 21230 70000
BBXX 46232 01181 99325 71174 46/// ///// 1//// 91808 22200 00146 11403 21002 327// 41402 70014
BBXX 46247 01181 99378 71228 46/// ///// 1//// 91821 22200 00113 11304 21003 327// 41302 70018
BBXX 46246 01181 99500 71451 46/// ///// 1//// 91829 22200 00068 11013 21010 332// 41108 70066
AAXX 01184 71283 17/// /1002 11129 21181 69951 7//4/ 333 11121 21224 70005
AAXX 01184 71153 16/// /1704 11010 21093 60001 333 11010 21116 70000
AAXX 01184 71741 16/// /1210 11019 21071 39911 40346 53010 60001 333 11019 21037 70000
BBXX 46246 01181 99500 71451 46/// ///// 1//// 91759 22200 00068 11112 21009 332// 41108 70059
AAXX 01181 56144 32980 00000 11039 21175 36839 57004 333 05402 10110
AAXX 01181 56152 32980 03202 11125 21195 36286 57009 333 05402 10089
AAXX 01181 56167 32980 02701 11058 21115 37065 54000 333 05502 10147
AAXX 01181 56182 32980 00000 11062 21106 37183 57006 333 05501 10111
AAXX 01181 56357 32980 00000 11008 21179 36449 57005 333 05306 10152
AAXX 01181 56586 11458 83601 10001 21005 38064 57011 69901 76060 885// 333 05253 10052
AAXX 01181 56748 32580 12201 10087 20068 38371 57003 81400 333 05204 10200
AAXX 01181 56763 32980 01102 10177 20053 40094 52002 333 05308 10289
AAXX 01181 56768 32980 02901 10112 20067 38186 57003 333 05204 10198
AAXX 01181 56838 32668 13201 10132 20118 40168 52001 81400 333 05202 10250
AAXX 01181 56886 31740 83401 10065 20058 38307 57007 71000 884// 333 05302 10154
AAXX 01181 56946 32570 10000 10116 20110 40162 54000 81400 333 05203 10262
AAXX 01181 56959 32765 13201 10172 20170 40141 57001 81400 333 05202 10292
AAXX 01181 56969 31458 70000 10159 20149 40156 52001 71000 876// 333 05201 10281
AAXX 01181 57731 32661 80000 10080 20049 40258 57010 885// 333 05202 10090
AAXX 01181 57766 31758 80901 10078 20046 40270 57011 71000 885// 333 10098
AAXX 01181 57845 32960 80000 10073 20051 40254 57009 8807/ 333 10084
AAXX 01181 57853 11740 80201 10072 20043 40272 57008 69911 72160 885// 333 10087
AAXX 01181 57916 32662 81101 10105 20065 40233 57003 885// 333 05200 10136
AAXX 01181 57922 11440 83201 10049 20040 40249 57004 69901 76000 887// 333 05251 10082
AAXX 01181 57932 11657 83401 10093 20053 40251 57007 69901 76000 885// 333 05202 10115
AAXX 01181 58338 31958 00702 10015 21012 40312 52009 71000 333 10073
AAXX 01181 59007 11461 80000 10064 20047 40220 57005 69961 75050 886// 333 10090
AAXX 01181 59046 32760 80401 10114 20061 40235 57009 885// 333 10127
AAXX 01181 59058 31856 83202 10100 20056 40244 57008 71000 885// 333 10102
AAXX 01181 59072 31730 80201 10084 20084 40256 57004 71000 885// 333 10099
AAXX 01181 59087 32760 80904 10136 20045 40234 57002 885// 333 10164
AAXX 01181 59209 11350 80000 10090 20082 40221 57004 60021 76066 887// 333 10105
BBXX 46146 01181 99493 71237 46/// /1205 10068 40258 57005 22200 00066 10401 70005 333 91207
BBXX 46146 01181 99493 71237 46/// /1205 10068 40258 57005 22200 00066 10401 70005 333 91207
AAXX 01181 45032 36/// /0702 10156 20125 30203 40220 57002
AAXX 01181 45035 36/// /0804 10155 20125 30175 40217 57002
AAXX 01181 45039 36/// /0702 10157 20119 30205 40221 52001
AAXX 01181 45044 36/// /0905 10157 20116 30121 40216 54000
BBXX 46243 01181 99462 71241 46/// ///// 1//// 91829 22200 00090 11104 20903 324// 41102 70019
BBXX 46236 01181 99368 71219 46/// ///// 1//// 91820 22200 00120 11303 21002 328// 41302 70016
BBXX 46229 01181 99438 71246 46/// ///// 1//// 91821 22200 00098 11104 21003 326// 41103 70022
BBXX 46212 01181 99408 71243 46/// ///// 1//// 91812 22200 00104 11103 21002 328// 41102 70017
BBXX 46217 01181 99342 71194 46/// ///// 1//// 91812 22200 00144 11302 21001 327// 41302 70010
BBXX 46225 01181 99329 71174 46/// ///// 1//// 91814 22200 00149 11302 20901 324// 41302 70009
BBXX 46213 01181 99403 71247 46/// ///// 1//// 91824 22200 00108 11104 20903 329// 41102 70018
AAXX 01181 45032 36/// /0702 10156 20125 30203 40220 57002
AAXX 01181 45035 36/// /0804 10155 20125 30175 40217 57002
AAXX 01181 45039 36/// /0702 10157 20119 30205 40221 52001
AAXX 01181 45044 36/// /0905 10157 20116 30121 40216 54000
BBXX 2AJI3 01183 99038 10030 41498 22803 10285 20235 40120 52/// 70200 81189 22263 00290 20000 300// 4//// 5//// 80250
AAXX 01181 40001 32970 40203 10052 20021 40163 53003 84050 333 10109 84360
AAXX 01181 40007 11560 80702 10071 20062 40165 52005 60022 76062 8552/ 333 10078 85630 88270
AAXX 01181 40025 11560 61205 10109 20091 40127 56001 60582 76269 87900 333 10140 83926 85630
AAXX 01181 40045 31956 01702 10052 20032 40178 53002 71000 333 10112
AAXX 01181 40061 32570 60301 10095 20029 40155 52010 83450 333 10146 83630 84360
AAXX 01181 40080 32560 62410 10100 20045 39440 40164 52010 83450 333 10145 83630 85360
AAXX 01181 40087 NIL
AAXX 01181 40095 NIL
AAXX 01184 16245 12565 80805 10112 20020 30217 40243 53008 60002 882// 333 10140 88630
AAXX 01184 65528 NIL
AAXX 01184 65536 NIL
AAXX 01184 65545 NIL
AAXX 01184 65548 NIL
AAXX 01184 65555 NIL
AAXX 01184 65557 31950 5//// 10302 29125 39869 40111 70511 80002 333 10/// 59001 85076
AAXX 01184 65560 31940 6//// 10310 20063 39792 40101 70511 80002 333 10350 59004 86076
AAXX 01184 65562 NIL
AAXX 01184 65563 31950 41806 10285 20137 39866 40107 70500 80002 333 10345 59002 84080
AAXX 01184 65578 31957 22404 10270 20218 30102 40119 70500 80002 333 10306 58010 82076
AAXX 01184 65585 NIL
AAXX 01184 65592 32456 0//// 10268 20221 30082 40102 333 10325 59001
AAXX 01184 65594 31457 70000 10272 20185 30080 40114 70522 80002 333 10314 58003 87080
AAXX 01184 65599 31945 3//// 10258 20187 30023 40098 70511 80002 333 10306 59005 84076
BBXX 41010 01181 99289 70785 46/// /2002 10226 40226 91820 22200 00240 10801 300// 40801 70006 333 91202 555 11015 22016
BBXX 41009 01181 99285 70802 46/// /3003 10218 20170 40232 91820 22200 00236 10901 300// 40901 70004 333 91204 555 11027 22027
BBXX 44100 01181 99363 70756 46/// ///// 1//// 91822 22200 00124 10901 20901 70006
BBXX 41110 01181 99341 70777 46/// ///// 1//// 91821 22200 00137 11001 21001 70005
BBXX 42099 01181 99273 70842 46/// ///// 1//// 91827 22200 00226 10601 20601 70003
BBXX 41113 01181 99284 70805 46/// ///// 1//// 91821 22200 00220 10901 20901 70003
BBXX 41112 01181 99307 70813 46/// ///// 1//// 91821 22200 00171 10901 70003
BBXX 42361 01181 99276 70925 46/// ///04 10278 20206 40234 58020 91830 555 11034 22036
BBXX 42013 01181 99272 70829 46/// ///// 1//// 40243 91740 22200 00208
AAXX 01184 48433 31956 10000 10217 20178 39973 40141 57007 71000 80001 333 59017
BBXX 44099 01181 99369 70757 46/// ///// 1//// 91822 22200 00107 10301 20301 70006
BBXX 44039 01181 99411 70727 46/// /1503 10091 20058 40163 91753 22200 00087 1//00 70001 333 91205
BBXX 44258 01181 99445 70634 46/// /3312 10035 40085 52013 22200 00051 10803 70013 333 91215
BBXX KS094 01184 99180 70631 43/// /1115 10267 40175 22232 06254
BBXX KS007 01184 99267 70801 43/// ///// 10232 40192 22200
BBXX KS088 01184 99267 70801 43/// /0700 10239 40228 22200 06224
BBXX 44258 01181 99445 70634 46/// /3312 10035 40085 52013 22200 00051 10803 70013 333 91215
AAXX 01184 96009 11457 82203 10241 20235 30074 40109 58006 60021 70262 83972 333 56000 57904 81916 83620 84460 80964
AAXX 01184 96011 32560 61502 10240 20233 30089 40115 57009 83532 333 56000 83620
AAXX 01184 96035 31450 60000 10252 20237 30071 40109 57011 70522 83576 333 56000 83618
AAXX 01184 96073 31550 70000 10235 20220 30097 40109 57015 83522 333 56000 83620
AAXX 01184 96091 32460 40000 10252 20243 30092 40115 57010 82131 333 56000 82817
AAXX 01184 96109 32958 30000 10258 20231 30057 40096 58007 81031 333 56000 81360
AAXX 01184 96145 32440 63607 10266 20236 30108 40111 58012 85510 333 56800 85616
AAXX 01184 96147 NIL
AAXX 01184 96163 NIL
AAXX 01184 96179 32460 73007 10260 20245 30071 40108 57008 82208 333 56000 57802 82817 80850
AAXX 01184 96195 31450 70103 10264 20247 30083 40119 56001 70522 82511 333 56000 82614
AAXX 01184 96221 01450 83204 10227 20222 30084 40099 57009 60381 79596 8592/ 333 56999 57992 60387 81920 80980 84615 88460
AAXX 01184 96237 32457 70000 10254 20243 30059 40101 57011 84178 333 56000 84816 83360 85280
AAXX 01184 96249 32559 73203 10254 20243 30039 40100 57011 82232 333 56000 57802 82820 80863
AAXX 01184 96253 11458 80305 10240 20226 30065 40085 57024 60021 71462 82372 333 56000 57900 81915 81820 83460
AAXX 01184 96295 32460 80000 10256 20244 39992 40095 56012 8552/ 333 56009 85618
AAXX 01184 96509 32458 30000 10260 20245 30081 40092 58018 82141 333 56000 82815
AAXX 01184 96581 NIL
AAXX 01184 96633 32458 53204 10261 20257 30072 40080 57019 82271 333 56000 82818
AAXX 01184 96645 11440 80000 10247 20245 30060 40092 57017 69971 71096 85572 333 56000 85612
AAXX 01184 96655 NIL
AAXX 01184 96685 32460 60000 10264 20250 30062 40088 57020 83511 333 56000 83617
AAXX 01184 96749 31557 62305 10246 20232 30085 40098 58017 70522 82571 333 56000 82620 85461
AAXX 01184 96781 NIL
AAXX 01184 96805 01558 60000 10246 20237 30094 40103 56011 60021 70162 82221 333 56000 57801 60067 82820 80860
AAXX 01184 96839 32550 62303 10258 20237 30083 40090 57024 83131 333 56000 83820
AAXX 01184 96935 12560 72802 10251 20238 30086 40092 57015 69951 81571 333 56000 81620 83360
AAXX 01184 96001 NIL
AAXX 01184 96015 32550 50000 10246 20237 30110 40117 57003 83572 333 56000 83620
AAXX 01184 96033 31450 60000 10260 20229 30094 40100 52012 70522 82936 333 56000 57902 81920 82617 80980
AAXX 01184 96075 32450 51703 10239 20236 30105 40111 57007 82571 333 56000 82618
AAXX 01184 96087 32459 50307 10262 20245 30079 40112 56009 83531 333 56800 83613
AAXX 01184 96171 31550 60000 10250 20227 30076 40100 57003 70522 83521 333 56000 83620
AAXX 01184 96207 NIL
AAXX 01184 96525 11457 70000 10252 20239 30089 40096 58013 69961 70296 84975 333 56000 57900 81915 84615 809//
AAXX 01184 96529 32456 50000 10248 20245 30089 40113 58018 83131 333 56000 83818
AAXX 01184 96559 32440 40000 10256 20244 30061 40099 57006 83231 333 56000 57803 83812 80857
AAXX 01184 96607 32458 70000 10270 20252 30080 40095 57015 85221 333 56000 85815
AAXX 01184 96615 32456 73404 10278 20237 30090 40104 57009 82131 333 56000 57803 82812 85082 80856
AAXX 01184 96737 01450 80000 10252 20238 30056 40087 58011 69931 72162 85521 333 56000 69937 85615 84460
AAXX 01184 96739 32458 72703 10239 20233 30049 40098 57002 84522 333 56000 84618
AAXX 01184 96741 32556 62706 10260 20234 30086 40090 57027 82571 333 56000 82623
AAXX 01184 96745 NIL
AAXX 01184 96751 32540 70000 10190 20179 39030 48920 52004 85510 333 56400 85620
AAXX 01184 96791 11456 80000 10250 20244 30036 40110 57014 69901 70262 8452/ 333 56009 84617 88460
AAXX 01184 96797 01456 80000 10246 20240 30087 40091 57015 60051 76166 8497/ 333 56009 57902 60047 81918 83620 85460 80980
AAXX 01184 96837 31556 82803 10262 20241 30085 40088 57022 71622 84272 333 56000 57800 84820
AAXX 01184 96925 01462 82903 10266 20227 30086 40090 56018 69901 76062 85272 333 56600 57860 69907 85817 80860
AAXX 01184 96933 01460 62704 10260 20242 30088 40092 57013 69901 70262 82521 333 56600 69907 82617 85460
AAXX 01184 96937 NIL
AAXX 01184 96973 32558 63103 10258 20246 30077 40082 57020 83231 333 56000 57803 83820 80850
AAXX 01184 96987 32559 73203 10242 20226 30018 40077 57022 84221 333 56000 57802 82820 80860
AAXX 01184 97014 32559 70302 10231 20223 39996 40089 57024 82871 333 56000 81821 84460
AAXX 01184 97028 NIL
AAXX 01184 97048 32457 30000 10247 20239 30048 40072 57027 82231 333 56000 57803 82817 80860
AAXX 01184 97072 32558 70000 10250 20235 30006 40106 52015 82571 333 56000 82620 85360
AAXX 01184 97086 NIL
AAXX 01184 97096 NIL
AAXX 01184 97120 32460 70000 10254 20236 30049 40082 57013 82236 333 56000 57803 82818 84080 80860
AAXX 01184 97146 NIL
AAXX 01184 97180 12458 60203 10249 20240 30075 40093 58011 60001 82231 333 56000 81819 84360
AAXX 01184 97192 NIL
AAXX 01184 97230 NIL
AAXX 01184 97260 NIL
AAXX 01184 97270 31450 70000 10246 20237 30081 40085 56013 71422 85871 333 56000 81815 84617
AAXX 01184 97300 31560 60000 10250 20236 30059 40099 55014 71362 82271 333 56000 82820
AAXX 01184 97340 NIL
AAXX 01184 97372 NIL
AAXX 01184 97430 12459 73104 10252 20237 30055 40085 57017 60111 84232 333 56700 57872 83818 80860
AAXX 01184 97460 32459 60000 10236 20227 30056 40070 57022 83876 333 56000 57802 82817 80858
AAXX 01184 97502 02450 30000 10244 20241 30066 40070 57025 60121 82531 333 56000 60077 82614
AAXX 01184 97530 NIL
AAXX 01184 97560 32460 82712 10284 20249 30049 40064 57010 83977 333 56600 57903 57804 81917 83820 86361 88279 80980 80860
AAXX 01184 97686 NIL
AAXX 01184 97690 NIL
AAXX 01184 97724 31457 63603 10234 20218 30065 40081 58014 70522 83832 333 56700 57872 82818 84359 80850
AAXX 01184 97748 NIL
AAXX 01184 97760 31457 83503 10251 20240 30076 40085 57011 71522 83952 333 56000 57901 81915 82816 80960
AAXX 01184 97796 31450 80000 10252 20236 30043 40094 57014 70522 8753/ 333 56009 87612
AAXX 01184 97810 NIL
AAXX 01184 97900 NIL
AAXX 01184 97980 NIL
AAXX 01184 97008 01458 70000 10250 20242 30067 40077 56008 60011 72162 84272 333 56000 57801 69947 84818 80860
AAXX 01184 97016 32460 70000 10240 20224 30073 40075 57022 82871 333 56000 57801 82818 86460 80860
AAXX 01184 97126 11458 73602 10246 20231 30030 40091 56015 69901 70162 82920 333 56000 57900 81917 87460 80980
AAXX 01184 97182 32562 71101 10251 20236 30082 40086 57012 82871 333 56000 57800 82820 85460 808//
AAXX 01184 97240 NIL
AAXX 01184 97310 NIL
AAXX 01184 97320 NIL
AAXX 01184 97378 32560 60000 10248 20235 39913 40076 58017 83231 333 56000 81820 83080
AAXX 01184 97406 NIL
AAXX 01184 97570 NIL
AAXX 01184 97630 01450 83605 10238 20235 39919 40075 56017 60071 72162 86923 333 56600 57961 69927 81911 85810 86458 80970
AAXX 01184 97700 32459 50000 10245 20235 30060 40074 54010 81232 333 56000 57804 81816 80840
AAXX 01184 97722 NIL
BBXX 44140 01181 99429 70515 46/// /1808 10152 49981 57055 22200 00088 11008 70039 333 91210
AAXX 01181 98134 31460 60607 10198 20169 39978 40172 58010 70544 83270 333 56199 83819 84357
AAXX 01181 98223 32562 10204 10230 20199 40126 58010 81100 333 56999 81820
AAXX 01181 98232 NIL
AAXX 01181 98325 32458 23402 10248 20230 40131 58004 81201 333 56999 81817
AAXX 01181 98328 31461 31101 10150 20140 38533 40115 58005 70544 82201 333 56999 82814
AAXX 01181 98330 32475 70000 10242 20221 30099 40131 58008 87200 333 56999 87818
AAXX 01181 98336 NIL
AAXX 01181 98429 31560 20000 10252 20229 40125 56009 70544 82800 333 56999 82825
AAXX 01181 98430 31558 40401 10230 20215 40123 58012 70541 81810 333 56999 81620 84459
AAXX 01181 98431 31458 40000 10251 20229 30073 40120 58012 70222 82230 333 56999 82818 84360
AAXX 01181 98440 31460 50403 10251 20231 30115 40120 57014 71544 83208 333 56199 83815 85277
AAXX 01181 98444 32462 20302 10258 20238 30088 40107 58018 81208 333 56999 81818
AAXX 01181 98526 32570 13601 10236 20228 40111 58017 81100 333 56999 81820
AAXX 01181 98531 31570 10701 10235 20217 30105 40109 58015 70544 81200 333 56199 81820
AAXX 01181 98536 32465 60403 10244 20222 39912 40111 58016 83270 333 56199 83818 84357
AAXX 01181 98543 32468 50000 10257 20242 30090 40101 58015 82201 333 56999 82818 84075
AAXX 01181 98550 11460 53202 10249 20240 40102 58021 60081 72186 81262 333 56999 81818 83357
AAXX 01181 98618 NIL
AAXX 01181 98630 32575 30205 10260 20249 40124 58008 82201 222// 2//03 333 56199 82820
AAXX 01181 98637 NIL
AAXX 01181 98646 11558 83602 10246 20238 30097 40125 57009 60081 76066 8387/ 333 56999 83820 88459
AAXX 01181 98653 11458 80402 10257 20245 30040 40085 57005 60021 78084 83278 333 56999 83818 86358
AAXX 01181 98741 32470 60402 10261 20254 40099 58009 82270 333 56199 82817 86358
AAXX 01181 98747 31460 20000 10238 20227 39890 40094 58009 70544 82201 333 56999 82818
AAXX 01181 98753 31465 73601 10251 20236 40089 58016 70544 83238 333 56999 83816 87279
AAXX 01181 98755 11468 82701 10250 20236 40092 58014 60191 78088 8352/ 333 56999 83616 88458
AAXX 01181 98836 11460 80000 10259 20250 40083 57022 69971 72598 8287/ 333 56999 82818 88362
BBXX 44140 01181 99429 70515 46/// /1808 10152 49981 57055 22200 00088 11008 70039 333 91210
BBXX 46208 01181 99525 71327 46/// /1420 10080 49944 57047 22200 00072 11318 70092 333 91226
BBXX 46145 01181 99544 71324 46/// /1420 10060 49984 57046 22200 00069 10808 70042 333 91224
BBXX 46036 01181 99484 71339 46/// /1911 10093 49955 52013 22200 00079 11009 70045 333 91214
BBXX 46208 01181 99525 71327 46/// /1420 10080 49944 57047 22200 00072 11318 70092 333 91226
BBXX 46036 01181 99484 71339 46/// /1911 10093 49955 52013 22200 00079 11009 70045 333 91214
BBXX 46145 01181 99544 71324 46/// /1420 10060 49984 57046 22200 00069 10808 70042 333 91224
AAXX 01181 40621 11958 00000 10095 20085 40192 52006 60002 71000
AAXX 01181 40634 12960 02704 10050 20030 40193 52018 60002
BBXX 63106 01184 99610 10017 46/// /2118 10074 49837 58004 22200
BBXX 63105 01184 99610 10017 47697 ///// 10081 20032 49836 58005 700// 22200
BBXX 62094 01184 99517 70067 46/// /25// 10094 2//// 40008 51015 22200 00105 10606 70031
BBXX 62103 01184 99499 70029 46/98 /2529 10120 20095 40036 53007 22200 00118 10804 70018 333 90710 91136
BBXX PHBO 01183 99499 70041 41/97 82720 10113 20078 40051 53008 70352 8//// 22224 20401 324// 40902 80096
BBXX 63119 01184 99583 10009 41497 32327 10078 20041 49870 55005 70300 8/064 22200 20605 323// 40808 5//// 80062
BBXX A8IV9 01184 99379 70098 41298 82721 10155 20121 40300 50/// 70222 8/71/ 22244 21004 80135
AAXX 01181 40672 12960 00000 10122 20085 40176 52015 60002
AAXX 01184 63688 32980 30810 10105 20053 48/// 80001 333 10241 59005 83077
AAXX 01184 63708 32580 50310 10240 20128 48495 82530 333 10304 59006 82625 84358
AAXX 01184 63740 32980 00305 10177 20113 48521 333 10263 59006
AAXX 01184 63820 32580 10608 10257 20232 40111 81100 333 10322 59011 81823
AAXX 01184 63612 NIL
AAXX 01184 63661 NIL
AAXX 01184 63671 NIL
AAXX 01184 63695 NIL
AAXX 01184 63714 NIL
AAXX 01184 63723 NIL
AAXX 01184 63772 NIL
AAXX 01184 63793 NIL
AAXX 01183 63612 32980 01804 10260 20140 40116 333 10357 59003
AAXX 01183 63661 32980 00000 10175 20070 48542 333 10267 59001
AAXX 01183 63671 32980 00000 10253 20170 333 10345
AAXX 01183 63723 32980 00000 10285 20142 40099 333 10364 59003
AAXX 01183 63793 32980 00000 10260 20128 40093 333 10327 58000
BBXX 46219 01181 99332 71199 46/// ///// 1//// 91828 22200 00137 11304 21002 329// 41303 70021
BBXX 46224 01181 99332 71175 46/// ///// 1//// 91806 22200 00146 11302 21001 322// 41301 70008
BBXX 46214 01181 99379 71235 46/// ///// 1//// 91820 22200 00119 11304 21003 329// 41303 70021
BBXX 46238 01181 99334 71195 46/// ///// 1//// 91820 22200 00140 11304 21002 328// 41303 70018
BBXX 46239 01181 99363 71221 46/// ///// 1//// 91821 22200 00119 11305 20903 329// 41304 70023
BBXX 44060 01181 99413 70721 46/// ///02 10081 40155 91830 22200 00095 333 91203 555 11026 22026
BBXX 44022 01181 99409 70737 46/// ///07 10095 20036 40143 91830 22200 00073 333 91210 555 11088 22098
BBXX 44040 01181 99410 70736 46/// /1907 10098 20037 40150 91819 22200 1//00 70002 333 91209 555 11088 22108
AAXX 01184 78318 11562 40407 10280 20212 30212 40216 57016 60001 70500 83802 333 10285 20194 30/// 56909 58019 82820
AAXX 01184 78325 11562 40707 10258 20170 30160 40218 58017 60001 70500 83202 333 10218 20199 30/// 56109 58019 83820 555 10502
AAXX 01184 78333 11410 40902 10282 20185 30194 40201 58019 60001 70500 84200 333 10291 20195 30/// 56100 58013 84819 555 10502
AAXX 01184 78348 11556 50403 10256 20213 30153 40205 58021 60001 70511 85800 333 10269 20229 30/// 56200 57884 58013 81821 84630 555 10902
AAXX 01184 78349 11560 60504 10284 20200 30093 40202 58024 60001 70511 86200 333 10296 20206 30/// 56100 57872 58008 86822 555 10503
AAXX 01184 78353 12570 50904 10280 20183 30179 40201 58016 60001 85801 333 10283 20240 30/// 56909 58010 82820 83626
AAXX 01184 78360 12570 11401 10299 20230 30171 40182 58019 60001 81802 333 10305 20218 30/// 56909 58007 81820 92011
AAXX 01184 78369 11568 40706 10273 20227 30173 40182 57018 60001 70500 84200 333 10282 20252 30/// 56200 57813 58007 84820 92044 555 10703
AAXX 01181 20046 NIL
AAXX 01181 20069 NIL
AAXX 01181 20087 41998 72410 11131 21151 30118 40129 57021 73731 8703/ 333 91114
AAXX 01181 20292 NIL
AAXX 01181 20353 46/// /2304 11137 21196 30239 40243 57002 333 91110
AAXX 01181 20667 31993 01002 11207 21226 30292 40300 52017 74441 333 11179
AAXX 01181 20674 41998 03507 11208 21226 30206 40270 52017 73630 333 91110
AAXX 01181 20744 31998 20502 11142 21185 30281 40300 52016 70230 82030 333 11127
AAXX 01181 20891 41496 72406 11185 21204 30121 40165 52015 78687 87900 333 87917 91108
AAXX 01181 23022 11597 21105 11114 21149 30186 40249 52017 69920 70283 82100 333 11068
AAXX 01181 23032 11597 20508 11204 21223 30211 40244 52013 69940 73632 82500 333 11134
AAXX 01181 23058 11196 80505 11169 21181 30216 40221 54000 60010 77172 8802/ 333 11154
AAXX 01181 23242 11396 70702 11123 21143 30163 40179 54000 69930 78582 87900 333 11126 87908
AAXX 01181 23256 11496 81003 11148 21168 30161 40198 57002 69980 78587 883// 333 11150 84910
AAXX 01181 23330 11497 80403 11115 21135 30166 40188 52002 69920 77172 8577/ 333 11120 85712
AAXX 01181 23445 11997 82001 11137 21150 30152 40179 57003 69950 77172 8805/ 333 11091
AAXX 01181 23552 11496 81601 11090 21097 30152 40188 57008 60020 77172 8452/ 333 11086 84612
AAXX 01181 23631 11498 82901 11077 21083 30146 40188 52007 60020 70272 8655/ 333 11065 86619
AAXX 01181 23662 11596 81702 11071 21080 30163 40208 57015 60040 77172 8552/ 333 11068
AAXX 01181 23724 32598 82401 11101 21107 30138 40206 52003 885// 333 11065
AAXX 01181 23734 11597 80000 11082 21088 30115 40210 52005 69900 77172 886// 333 11050
AAXX 01181 23849 42996 02304 11137 21156 40230 52001
AAXX 01181 23867 11999 81903 11075 21097 30169 40243 57011 69920 70232 8801/ 333 11058
AAXX 01181 23933 32997 81701 11164 21179 30168 40228 52004 80005 333 11081
AAXX 01181 28064 32598 82001 11110 21138 30148 40245 52006 885// 333 11084
AAXX 01181 28275 31597 81602 11094 21115 30208 40270 57002 78532 8595/ 333 11089
AAXX 01181 28493 32997 81401 11162 21181 30229 40328 57001 8801/ 333 11090
AAXX 01181 28698 11997 82001 11167 21179 30183 40351 57015 69900 77672 80005 333 11140
AAXX 01181 23426 11984 80000 11124 21137 30158 40184 52002 69990 70272 86031 333 11113
AAXX 01181 23625 11993 00000 11131 21144 30159 40195 52005 69930 74241 333 11059
AAXX 01181 28076 32997 62002 11137 21150 30171 40248 58004 80008 333 11087
AAXX 01181 28367 11984 82204 11070 21095 30140 40273 52001 69900 77072 8807/ 333 11062
AAXX 01181 28382 31996 81803 11134 21147 30227 40303 57002 77171 8802/ 333 11102
AAXX 01181 28481 32997 71903 11152 21172 30210 40316 57005 80005 333 11110
AAXX 01181 28491 32997 02102 11145 21172 30205 40323 57008 333 11120
AAXX 01181 28573 11997 81905 11145 21158 30204 40316 57009 69900 70272 80007 333 11127
AAXX 01181 28593 32997 81902 11164 21183 30237 40343 57007 80001 333 11106
AAXX 01181 28786 32997 01503 11162 21181 30172 40342 57015 333 11124
AAXX 01181 28797 32997 81802 11174 21193 30183 40354 57013 80001 333 11141
AAXX 01181 28799 32997 00000 11201 21227 30210 40369 57014 333 11144
AAXX 01184 82042 32198 60504 10313 20248 3//// 4//// 83632 333 5////
AAXX 01184 82141 21598 43608 10304 20259 30089 40101 77025 84030 333 58006 69941
AAXX 01184 82145 32598 40503 10324 20228 30054 40095 83201 333 58003
AAXX 01184 82181 32498 50711 10329 20200 39981 40119 83260 333 58013
AAXX 01184 82240 32496 80000 10291 20243 3//// 4//// 85607 333 5////
AAXX 01184 82317 32594 33602 10326 20246 3//// 4//// 82201 333 5////
AAXX 01184 82353 32497 53606 10324 20233 39973 40056 84340 333 58002
AAXX 01184 82361 21597 63602 10314 20242 30063 40100 70252 85530 333 58005 69921
AAXX 01184 82476 32595 50706 10349 20194 39963 40080 83204 333 58008
AAXX 01184 82610 21595 80000 10249 20247 3//// 4//// 76166 887// 333 5//// 60261
AAXX 01184 82861 21597 80506 10267 20237 39908 40078 71796 8672/ 333 58028 60021
AAXX 01184 83264 32797 50502 10291 20234 39653 40115 84204 333 58006
AAXX 01184 83358 21693 62306 10279 20222 39660 40057 70362 8379/ 333 59027 60031
AAXX 01184 83470 32698 70000 10262 20203 39240 40099 87200 333 58006
AAXX 01184 82098 32597 60708 10612 20238 30080 40097 83560 333 58006
AAXX 01184 82106 32698 60504 10337 20242 3//// 4//// 86200 333 5////
AAXX 01184 82113 32596 63206 10330 20239 3//// 4//// 86200 333 5////
AAXX 01184 82212 32698 63204 10318 20249 30019 40100 84320 333 59017
AAXX 01184 82246 32497 70702 10318 20247 39914 40110 84340 333 59008
AAXX 01184 82336 21597 73606 10280 20247 3//// 4//// 70255 83170 333 5////
AAXX 01184 82425 32597 43602 10294 20274 3//// 4//// 82304 333 5////
AAXX 01184 82445 21697 70000 10302 20269 30060 40112 70365 83525 333 58008 69971
AAXX 01184 82460 21597 72302 10291 20236 30064 40093 72122 87200 333 58009 60051
AAXX 01184 82562 21597 82701 10261 20244 30000 40108 70362 8571/ 333 58045 69991
AAXX 01184 82571 32497 60506 10317 20222 39912 40113 85230 333 58008
AAXX 01184 82704 21695 80000 10265 20246 39867 40061 70362 885// 333 58004 60111
AAXX 01184 82723 32698 60502 10336 20253 30016 40097 86400 333 59002
AAXX 01184 82765 21598 80000 10250 20240 39895 40136 75062 8452/ 333 58020 60351
AAXX 01184 91723 NIL
AAXX 01184 91964 36/// /1105 10234 20218 40189 52000
BBXX 51204 01181 99213 71581 46/// ///// 1//// 91822 22200 00245 11302 20801 328// 41301 70009
BBXX 51202 01181 99214 71577 46/// ///// 1//// 91810 22200 00237 11003 21002 306// 41101 70013
BBXX 46004 01181 99509 71361 46/// /1810 10082 49896 57003 22200 00072 11111 70057 333 91213
BBXX 46036 01181 99484 71339 46/// /1911 10093 49955 52013 22200 00079 11009 70045 333 91214
BBXX 46145 01181 99544 71324 46/// /1420 10060 49984 57046 22200 00069 10808 70042 333 91224
BBXX 46181 01181 99538 71288 46/// /0309 11003 40122 57032 22200 00037 10201 70003 333 91214
BBXX 46183 01181 99536 71311 46/// /1316 10059 40020 57039 22200 00074 11212 70060 333 91223
BBXX 46185 01181 99524 71298 46/// /1520 10062 40052 57029 22200 00070 11116 70078 333 91226
BBXX 46204 01181 99514 71288 46/// /1322 10063 40077 57014 22200 00082 10914 70071 333 91229
BBXX 46205 01181 99542 71343 46/// /1414 10066 49918 57042 22200 00071 11116 70081 333 91218
BBXX 46206 01181 99488 71260 46/// /1014 10072 40194 54000 22200 00084 11007 70034 333 91217
BBXX OZBY2 01184 99351 71235 41/// 40607 10130 20090 40210 52020 7//10 8//// 22224 00130 20606 320// 41206 5//// 6//// 80110 ICE /////
BBXX S6JU 01184 99429 71295 41/97 /1722 10115 20110 40130 57040 71042 8//// 22274 0//// 2//// 3//// 4//// 5//// 6//// 80110 ICE /////
BBXX WDB9986 01184 99457 71338 41497 81530 10130 20110 49980 56020 75855 8772/ 22275 00090 20508 315// 40410 5//// 6//// 80120 ICE /////
BBXX WRGD 01184 99341 71235 41898 40309 10150 20120 40205 5//// 70121 81001 22265 00130 20102 3//// 40406 5//// 6//// 80130 ICE /////
BBXX WSRH 01184 99366 71264 41498 20909 10133 20110 40180 54000 7//00 81005 22214 00128 29902 327// 4//03 5//// 6//// 80122 ICE /////
BBXX WXY6216 01184 99458 70871 43/// ///// 00/// 11006 21022 40004 50002 7//// 8//// 22200 0//// 2//// 3//// 4//// 5//// 6//// 81013 ICE /////
BBXX WZD2465 01184 99432 70878 41/98 /2940 10000 2//// 40078 52/// 70222 8//// 22213 0//// 20604 3//// 4//// 5//// 6//// 8//// ICE /////
BBXX NAZJ 01184 99507 71579 418// 10310 11011 2//// 40091 55/// 70200 8110/ 22282 00044 21201 33535 41204 51202 6/00/ 8//// ICE 0/0//
BBXX C6FR6 01184 99179 10726 41/// /3522 10250 2//// 40120 5//// 7//// 8//// 22283 0//// 2//// 3//// 4//// 5//// 6//// 8//// ICE /////
BBXX WC5932 01184 99444 70874 41/98 83134 00/// 11007 21139 40045 5//// 70772 8//// 22283 0//// 2//04 3//// 4//// 5//// 6//// 81045 ICE /////
BBXX 2AJI3 01183 99038 10030 41498 22803 10285 20235 40120 52/// 70200 81189 22263 00290 20000 300// 4//// 5//// 80250
BBXX 2ALE5 01183 99142 70177 41697 40220 10220 20124 40149 55017 70511 8457/ 22243 20605 80165
BBXX DGLM 01184 99059 10023 41997 02402 10285 20230 40113 52013 70500 80000 22200 20000 80245
BBXX V7OX3 01181 99348 50189 41/97 /2407 10260 20199 40210 54000 703// 8//// 22223 20801 33230 40801 50801 80220
BBXX DANV 01184 99110 10633 41/97 70121 10255 20248 40120 54000 70322 8//// 22224 04250 20303 80250
BBXX MLRM6 01183 99400 30038 41397 43030 10134 20111 40071 58020 70200 847// 22262 00135 20204 325// 40506 5////
BBXX A8RV9 01184 99187 50156 41398 61012 10230 20169 40170 58010 70300 8/77/ 22234 20604 311// 40804 5//// 80190
BBXX A8CS2 01183 99139 10516 41998 00912 10250 20220 40170 52005 70200 80000 22224 2//// 3//// 4//// 5//// 80230
BBXX DMQN 01184 99027 50321 41598 51112 10265 20237 40122 57015 70222 82260 22243 04280 20402 3//// 4//// 5//// 80245
BBXX C6FR6 01184 99179 10726 41/// /3522 10250 2//// 40120 5//// 7//// 8//// 22283 0//// 2//// 3//// 4//// 5//// 6//// 8//// ICE /////
BBXX UDWE 01181 99456 11401 41/97 90313 11028 40163 57012 77072 22213 00068 20605
BBXX DFCW2 01184 99072 50807 41896 23009 10230 20208 40082 57013 70100 81065 22233 04179 2//// 318// 40902 5//// 80215
BBXX VQKZ6 01183 99219 50737 41698 41809 10250 20157 40143 58010 70111 81145 22274 02200 20302 317// 40503 5//// 80193
BBXX A8VL5 01184 99514 10027 41396 81827 10100 20100 40130 57020 76362 887// 22200 00120 20303 30000 80100
BBXX 3EPD8 01184 99410 70106 41297 82219 10140 20080 40239 57020 76362 8/7// 22283 04154 29904 399// 4//06 80110
BBXX 46036 01181 99484 71339 46/// /1911 10093 49955 52013 22200 00079 11009 70045 333 91214
BBXX 46145 01181 99544 71324 46/// /1420 10060 49984 57046 22200 00069 10808 70042 333 91224
BBXX 46208 01181 99525 71327 46/// /1420 10080 49944 57047 22200 00072 11318 70092 333 91226
BBXX 44140 01181 99429 70515 46/// /1808 10152 49981 57055 22200 00088 11008 70039 333 91210
BBXX A8CN9 01180 99534 71461 41/97 /3523 10020 21005 49850 52080 76062 8//// 22263 04045 21412 334// 41210 5//// 80010
BBXX KS094 01184 99180 70631 43/// /1115 10267 40175 22232 06254
BBXX KS088 01184 99267 70801 43/// /0700 10239 40228 22200 06224
BBXX KS007 01184 99267 70801 43/// ///// 10232 40192 22200
BBXX 44258 01181 99445 70634 46/// /3312 10035 40085 52013 22200 00051 10803 70013 333 91215
BBXX 44039 01181 99411 70727 46/// /1503 10091 20058 40163 91753 22200 00087 1//00 70001 333 91205
BBXX 44099 01181 99369 70757 46/// ///// 1//// 91822 22200 00107 10301 20301 70006
BBXX 42361 01181 99276 70925 46/// ///04 10278 20206 40234 58020 91830 555 11034 22036
BBXX 42013 01181 99272 70829 46/// ///// 1//// 40243 91740 22200 00208
BBXX 41010 01181 99289 70785 46/// /2002 10226 40226 91820 22200 00240 10801 300// 40801 70006 333 91202 555 11015 22016
BBXX 41113 01181 99284 70805 46/// ///// 1//// 91821 22200 00220 10901 20901 70003
BBXX 44100 01181 99363 70756 46/// ///// 1//// 91822 22200 00124 10901 20901 70006
BBXX 41112 01181 99307 70813 46/// ///// 1//// 91821 22200 00171 10901 70003
BBXX 41110 01181 99341 70777 46/// ///// 1//// 91821 22200 00137 11001 21001 70005
BBXX 42099 01181 99273 70842 46/// ///// 1//// 91827 22200 00226 10601 20601 70003
BBXX 41009 01181 99285 70802 46/// /3003 10218 20170 40232 91820 22200 00236 10901 300// 40901 70004 333 91204 555 11027 22027
BBXX 46217 01181 99342 71194 46/// ///// 1//// 91812 22200 00144 11302 21001 327// 41302 70010
BBXX 46212 01181 99408 71243 46/// ///// 1//// 91812 22200 00104 11103 21002 328// 41102 70017
BBXX 46225 01181 99329 71174 46/// ///// 1//// 91814 22200 00149 11302 20901 324// 41302 70009
BBXX 46229 01181 99438 71246 46/// ///// 1//// 91821 22200 00098 11104 21003 326// 41103 70022
BBXX 46243 01181 99462 71241 46/// ///// 1//// 91829 22200 00090 11104 20903 324// 41102 70019
BBXX 46213 01181 99403 71247 46/// ///// 1//// 91824 22200 00108 11104 20903 329// 41102 70018
BBXX 46236 01181 99368 71219 46/// ///// 1//// 91820 22200 00120 11303 21002 328// 41302 70016
BBXX 46146 01181 99493 71237 46/// /1205 10068 40258 57005 22200 00066 10401 70005 333 91207
BBXX 46246 01181 99500 71451 46/// ///// 1//// 91759 22200 00068 11112 21009 332// 41108 70059
BBXX 46232 01181 99325 71174 46/// ///// 1//// 91808 22200 00146 11403 21002 327// 41402 70014
BBXX 46246 01181 99500 71451 46/// ///// 1//// 91829 22200 00068 11013 21010 332// 41108 70066
BBXX 46247 01181 99378 71228 46/// ///// 1//// 91821 22200 00113 11304 21003 327// 41302 70018
BBXX 46004 01181 99509 71361 46/// /1810 10082 49896 57003 22200 00072 11111 70057 333 91213
BBXX 46184 01181 99539 71389 46/// /1610 10072 49817 57009 22200 00059 11211 70055 333 91213
BBXX 44059 01181 99368 70763 46/// /2006 10166 40140 58063 91800 22200 00108 333 91211
BBXX 44058 01181 99376 70763 46/// /1808 1//// 91810 333 91209
BBXX 44057 01181 99395 70761 46/// /1703 10075 40124 55070 91800 22200 00040 333 91204
BBXX 44057 01181 99395 70761 46/// /1703 1//// 40127 91810 333 91203
BBXX 44059 01181 99368 70763 46/// /2006 1//// 40136 91810 333 91210
BBXX 44058 01181 99376 70763 46/// /1808 10101 40143 58057 91800 22200 00089 10301 70006 333 91209
BBXX 44057 01181 99395 70761 46/// /1603 1//// 91820 333 91203
BBXX 44059 01181 99368 70763 46/// /2006 1//// 91820 333 91210
BBXX WC5932 01184 99444 70874 41/98 83134 00/// 11007 21139 40045 5//// 70772 8//// 22283 0//// 2//04 3//// 4//// 5//// 6//// 81045 ICE /////
BBXX WXY6216 01184 99458 70871 43/// ///// 00/// 11006 21022 40004 50002 7//// 8//// 22200 0//// 2//// 3//// 4//// 5//// 6//// 81013 ICE /////
BBXX WE3592 01184 99436 70877 43/// /3041 11011 2//// 40051 5//// 7//// 8//// 222// 0//// 2//// 3//// 4//// 5//// 6//// 8//// ICE /////
BBXX 42364 01181 99291 70881 46/// /2606 10217 20189 40237 91830
BBXX 44063 01181 99390 70764 46/// /2008 10089 40150 58051 91800 22200 00073 10201 70004 333 91210
BBXX 42363 01181 99282 70892 46/// /2507 10261 20183 40247 91830 333 91207
BBXX 42362 01181 99278 70907 46/// /2305 10228 20206 40251 91830
BBXX 44043 01181 99392 70764 46/// /1806 1//// 91820 333 91207
BBXX 44063 01181 99390 70764 46/// /2008 1//// 91820 333 91209
BBXX 44043 01181 99392 70764 46/// /1804 10086 40126 58061 91800 22200 00062 10301 70004 333 91206
BBXX 44063 01181 99390 70764 46/// /2008 1//// 40148 91810 333 91209
BBXX 44043 01181 99392 70764 46/// /1806 1//// 40123 91810 333 91207
BBXX 44041 01181 99372 70768 46/// /2207 1//// 40157 91810 333 91211
BBXX 44062 01181 99386 70764 46/// /1708 10086 40127 58052 91800 22200 00081 10301 70004 333 91210
BBXX 44062 01181 99386 70764 46/// /1709 1//// 40124 91810 22200 00081 333 91211
BBXX 44041 01181 99372 70768 46/// /2207 10153 40161 58063 91800 22200 00087 10301 70003 333 91210
BBXX 44042 01181 99380 70763 46/// /1806 10104 91800 22200 00084 10301 70005 333 91208
BBXX 44041 01181 99372 70768 46/// /2108 1//// 91820 333 91211
BBXX 44062 01181 99386 70764 46/// /1709 1//// 91820 22200 00081 333 91211
BBXX PHHD 01181 99133 70597 41697 52710 10270 20221 40158 56028 71322 81562 22243 04260 20202 80235
BBXX ELVL8 01183 99196 70496 41497 40422 10261 20215 40215 51010 70211 8326/ 22214 04261 20205 304// 40205 5//// 80230 ELVL8
BBXX ZCEF6 01183 99300 70689 41598 33308 10229 20181 40215 56009 70200 81044 22284 00231 21801 331// 41202 5//// 80199
BBXX 46181 01181 99538 71288 46/// /0309 11003 40122 57032 22200 00037 10201 70003 333 91214
BBXX 46132 01181 99497 71279 46/// /1320 10081 40127 52004 22200 00083 11113 70067 333 91226
BBXX 46205 01181 99542 71343 46/// /1414 10066 49918 57042 22200 00071 11116 70081 333 91218
BBXX SHIP 01184 99384 70659 41398 52922 10150 20060 40180 57020 70222 85100 22224 04170 20605 326// 41006 80103
BBXX 46206 01181 99488 71260 46/// /1014 10072 40194 54000 22200 00084 11007 70034 333 91217
BBXX NAZJ 01184 99507 71579 418// 10310 11011 2//// 40091 55/// 70200 8110/ 22282 00044 21201 33535 41204 51202 6/00/ 8//// ICE 0/0//
BBXX J8PR3 01183 99088 70596 41197 70924 10320 2025/ 40130 56030 70222 87288 22231 00290 20403 30909 40403 50403 6//// 80270 ICE /////
BBXX 46185 01181 99524 71298 46/// /1520 10062 40052 57029 22200 00070 11116 70078 333 91226
BBXX 44030 01181 99432 70704 46/// /1903 1//// 40139 58026 91804 22200 00081 10801 70005 333 91203 555 11035 22037
BBXX 46088 01181 99483 71232 46/// /0606 10070 40244 91820 22200 00076 10301 20301 70005 333 91207 555 11065 22068 31720 40609 61819 058061 058061 064062 062058 062065 064075
BBXX 44034 01181 99441 70681 46/30 /0303 10034 40146 58012 91804 22200 00078 10501 70005 333 91205 555 11038 22039
BBXX 44029 01181 99425 70706 46/30 /2003 10076 40142 58029 91804 22200 00074 10801 70005 333 91204 555 11043 22046
BBXX 44033 01181 99441 70690 46/20 /0000 10066 40145 57017 91804 22200 00065 10801 70003 333 91201
BBXX 44039 01181 99411 70727 46/// /1302 10084 20054 40167 57041 91800 22200 00088 1//00 70001 333 91203
BBXX 44060 01181 99413 70721 46/// ///02 10079 40157 91815 22200 00096 333 91203 555 11021 22021
BBXX 44022 01181 99409 70737 46/// ///07 10094 20037 40147 91815 22200 00074 333 91209 555 11077 22088
BBXX 44040 01181 99410 70736 46/// /2007 10099 20035 40154 91815 22200 1//00 70002 333 91209 555 11088 22108
BBXX 41029 01181 99328 70796 46/// /2304 1//// 91800 555 11042 22043
BBXX 41036 01181 99342 70770 46/// ///// 10196 20068 40182 91820 22200 00199
BBXX DGAF 01183 99080 70836 41698 12608 10280 20253 40105 57010 70200 81404 22264 00280 20201 80260
BBXX DCAX2 01183 99238 51433 41697 30512 10261 20233 40170 54000 70311 82141 22233 21003 327// 41105 5//// 80241
BBXX ZCAO7 01184 99170 31186 41/98 22613 10274 20216 40070 56010 70111 8//// 22254 00298 2//// 80235
BBXX VROB 01184 99191 31528 46/// /1320 10252 20176 30075 40100 57010 22283 04268 85201
BBXX A8TX8 01183 99097 31361 41/98 /9904 10285 20257 40078 57005 702// 8//// 22225 04290 20400 30000 80265
BBXX FHZI 01184 99558 31460 46/// /3220 10034 20031 30038 40049 52010 22283 04021 85033
BBXX VNAH 01184 99383 31416 46/// /1204 10192 20158 30062 40085 57015 22200 04210 85170
AAXX 01184 63791 32580 23305 10245 20135 39117 48507 82500 333 10340 55300 59004 82626
AAXX 01181 38599 31E03 90805 11029 21033 39693 40226 57012 74342 333 11017
BBXX 3FMH7 01184 99340 11649 41598 43135 00/// 10150 20076 40194 52021 70111 841/0 9//// 22262 00150 1//// 20508 329// 41210 5//// 6//// 80110
BBXX DHEB 01183 99511 11592 41/98 33108 11035 40159 51028 70200 83/// 22264 00000 2//// 3//// 4//// 5////
BBXX WCX8882 01184 99416 11562 41498 13513 10060 20020 40250 54000 70200 811// 22214 00100 2//// 3//// 4//// 5//// 6//// 80040 ICE /////
AAXX 01181 98336 32470 20402 10230 20228 30138 40143 58005 81201 333 56199 81815
BBXX 44137 01181 99423 70620 46/// /3113 10073 40090 52021 22200 00089 10908 70041 333 91218
BBXX 44137 01181 99423 70620 46/// /3113 10073 40090 52021 22200 00089 10908 70041 333 91218
AAXX 01184 71923 46/// ///10 11321 21349 39823 40300 51022 6///1 333 11248 21321 7////
AAXX 01184 71592 16/// /1103 11336 21381 30099 40113 52009 60001 333 11318 21358 70000
AAXX 01184 71963 16/// /3401 11372 21409 39891 40328 51020 60001 333 11270 21378 70000
AAXX 01184 71490 16/// /2910 11379 21416 39992 40349 51016 60001 333 11347 7////
AAXX 01184 71592 16/// /1103 11336 21381 30099 40113 52009 60001 333 11318 21358 70000
AAXX 01184 71923 46/// ///10 11321 21349 39823 40300 51022 6///1 333 11248 21321 7////
BBXX 44138 01181 99443 70536 46/// /1810 10111 49918 57056 22200 00092 10806 70032 333 91212
BBXX 44138 01181 99443 70536 46/// /1810 10111 49918 57056 22200 00092 10806 70032 333 91212
BBXX MINFR05 0118/ 99055 10000 46/// ///// 10263 40111 52011
AAXX 01184 89578 46/// /0705 11313 36854 4//// 5////
AAXX 01184 89577 46/// /1004 11338 35794 4//// 5////
AAXX 01181 29581 429// 82101 11073 21094 30141 40409 56001 8802/
AAXX 01181 31152 42997 83601 11324 21355 39844 40296 57005 86036
AAXX 01181 31163 NIL
AAXX 01181 31285 42999 02601 11282 21313 30202 40291 53020
AAXX 01181 31561 42999 00000 11345 21368 30255 40287 53002
AAXX 01181 31683 42999 00000 11352 21367 30178 40264 53002
AAXX 01181 32010 41498 62806 11178 21197 30154 40207 53002 73683 83902 333 91011 91112
AAXX 01184 61202 32965 10000 10218 21080 39626 40187 80002 333 10246 58014 81075
AAXX 01184 61214 NIL
AAXX 01184 61223 31950 30606 10260 21008 39860 40159 70600 80002 333 10285 59002 83075
AAXX 01184 61226 31950 20612 10274 20077 39858 40157 70600 80002 333 10305 58003 82075
AAXX 01184 61230 32960 60206 10252 21080 39871 40147 83042 333 10267 59010 83365 85075
AAXX 01184 61233 NIL
AAXX 01184 61235 31959 70412 10255 21022 3//// 4//// 70622 80002 333 10270 5//// 87075
AAXX 01184 61240 32960 60804 10280 20012 39811 40139 80002 333 10315 59006 86075
AAXX 01184 61250 32960 30806 10280 20082 3//// 4//// 80002 333 10305 5//// 83075
AAXX 01184 61257 32960 70610 10258 21033 30092 40188 80002 333 10270 59006 87075
AAXX 01184 61265 32965 33604 10275 20008 39821 40133 80002 333 10325 59016 83075
AAXX 01184 61270 32960 70000 10270 21003 3//// 4//// 84042 333 10295 5//// 84365 86075
AAXX 01184 61272 32960 60000 10261 20078 39815 40146 80002 333 10306 58000 86075
AAXX 01184 61277 32960 20404 10282 20027 39811 40134 80002 333 10317 59004 82075
AAXX 01184 61285 32960 60406 10267 21010 39992 40144 83072 333 10292 59006 83365 83075
AAXX 01184 61291 32960 60604 10271 20034 39713 40128 80002 333 10290 59010 86075
AAXX 01184 61293 32960 70204 10284 20065 3//// 4//// 80002 333 10300 5//// 87075
AAXX 01184 61296 32960 30000 10277 20210 3//// 4//// 81042 333 10305 5//// 81365 86075
AAXX 01184 61297 32960 73606 10280 20014 3//// 4//// 80002 333 10295 5//// 87075
AAXX 01184 61233 32960 70804 10257 21001 3//// 4//// 80002 333 10275 5//// 87075
AAXX 01184 94290 46/// /1325 10251 30093 40102 53001 91824
AAXX 01184 94290 46/// /1325 10251 30093 40102 53001 91824
BBXX 41033 01181 99323 70804 46/// /2206 1//// 40205 58031 91800 555 11066 22068
AAXX 01184 94210 35/// /2607 10276 30065 40070 57015
AAXX 01184 94289 46/// /1319 10268 30081 40088 56008 91815
AAXX 01184 94379 46/// /1324 10246 30108 40117 53001 91826
AAXX 01181 26863 32962 22703 11070 21091 39938 40187 52011 82030 333 11014
BBXX SHIP 01184 99570 31097 41/97 82746 10009 21018 49767 57013 70222 88/// 22252 00023 11115 20807 326// 40812 61000 86002
BBXX SHIP 01184 99053 31265 41/97 32507 10279 20267 40081 54000 70000 83/// 22273 00293 10400 80270
BBXX SHIP 01184 99570 31097 41/97 82746 10009 21018 49767 57013 70222 88/// 22252 00023 11115 20807 326// 40812 61000 86002
BBXX SHIP 01184 99053 31265 41/97 32507 10279 20267 40081 54000 70000 83/// 22273 00293 10400 80270
AAXX 01181 55228 32780 20000 11143 21267 35990 52003 82100 333 05558 11007
AAXX 01181 55578 11880 83602 11002 21019 36361 57007 69901 77000 885// 333 05504 10063
AAXX 01181 55664 11880 20401 11049 21072 35991 57012 69901 70070 82400 333 05603 10025
AAXX 01181 55773 11470 71804 11028 21059 36016 57003 60011 70080 879// 333 05508 10031
AAXX 01181 56116 32680 20000 11053 21148 36326 57007 81102 333 05402 10095
AAXX 01181 56137 32780 22901 11022 21178 36779 57005 82400 333 05403 10111
AAXX 01181 56172 32980 00000 11046 21096 37312 57008 333 05601 10120
AAXX 01181 56247 32980 01401 10024 21115 37415 57003 333 05401 10157
AAXX 01181 56312 32980 72501 10045 21058 37097 57004 80002 333 05307 10115
AAXX 01181 56462 32980 02902 11015 21064 37133 57002 333 05301 10145
AAXX 01181 56651 32680 12704 10107 21075 37638 54000 81400 333 05105 10202
AAXX 01181 56691 11256 81101 10007 20000 37780 57010 69931 76066 887// 333 05352 10034
AAXX 01181 56985 32965 01601 10126 20094 38716 40156 57004 333 05201 10170
AAXX 01181 57633 32760 80202 10055 20005 39289 40271 57008 885// 333 05205 10076
AAXX 01181 57902 11420 81402 10045 20045 38659 40236 57008 60011 76066 887// 333 05352 10061
AAXX 01181 55279 32880 62008 11037 21136 35672 57016 84402 333 05752 10024
AAXX 01181 55472 32980 01608 11043 21124 35701 57014 333 05802 10027
AAXX 01181 55696 32680 73201 11007 21057 36348 57011 82848 333 05407 10103
AAXX 01181 56079 32980 00405 11074 21123 36648 57015 333 05505 10066
AAXX 01181 56106 32780 20000 11036 21187 36177 57017 82100 333 05606 10086
AAXX 01181 56257 32980 02201 11005 21164 36271 57004 333 05306 10126
AAXX 01181 56374 32580 81102 11030 21056 37424 57010 884// 333 05301 10048
AAXX 01181 56385 11/00 93201 11081 21084 37007 57011 69931 76664 333 05355 11029 93434
AAXX 01181 56954 32962 00000 10127 20127 40160 57003 333 05202 10261
AAXX 01181 56966 32770 20905 10161 20108 40158 57001 82400 333 05200 10247
AAXX 01181 57237 11962 80201 10061 20010 40261 57011 69901 70060 8807/ 333 10110
AAXX 01181 57306 32961 80201 10069 20026 40262 57013 8807/ 333 10101
AAXX 01181 57604 11720 82701 10070 20059 40269 57010 69901 76060 885// 333 10085
AAXX 01181 57707 11350 80000 10023 20020 38525 57010 69941 76060 887// 333 05252 10048
AAXX 01181 57832 11663 82501 10053 20043 39506 40260 57009 69901 76060 885// 333 05200 10073
AAXX 01184 89807 46/// /1817 11014 29095 39729 4//// 5//// 333 90700 91118
AAXX 01184 89016 46/89 /3302 10015 29059 39508 4//// 5////
AAXX 01184 89003 46/89 /1405 11039 29068 39108 4//// 5////
AAXX 01184 89507 46/89 /1505 11231 29047 36866 4//// 5////
AAXX 01184 94997 46/// ///// 10034 30069 40084 5////
AAXX 0118/ 89767 46/// ///// 11057 39780 4//// 5////
AAXX 01184 89807 46/// /1817 11014 29095 39729 4//// 5//// 333 90700 91118
AAXX 01184 94997 46/// ///// 10034 30069 40084 5////
AAXX 0118/ 48969 NIL
AAXX 0118/ 48962 NIL
AAXX 0118/ 48990 NIL
AAXX 0118/ 48986 NIL
AAXX 0118/ 48995 NIL
AAXX 0118/ 48967 NIL
AAXX 0118/ 48992 NIL
AAXX 0118/ 48965 NIL
AAXX 0118/ 48985 NIL
AAXX 0118/ 48970 NIL
AAXX 0118/ 48991 NIL
AAXX 0118/ 48964 NIL
AAXX 0118/ 48997 NIL
AAXX 0118/ 48968 NIL
AAXX 0118/ 48973 NIL
AAXX 0118/ 48966 NIL
AAXX 0118/ 48983 NIL
AAXX 0118/ 48972 NIL
AAXX 0118/ 48998 NIL
AAXX 0118/ 48993 NIL
AAXX 0118/ 48971 NIL
AAXX 0118/ 48963 NIL
AAXX 0118/ 48987 NIL
AAXX 01184 71277 46/// /1410 11146 21206 6///1 333 11099 21162 7////
AAXX 01184 71981 17/// /1102 11077 21099 69961 7//4/ 333 11076 21144 70012
AAXX 01184 71982 16/// /2801 11091 21140 60001 333 11091 21164 70000
AAXX 01184 71986 16/// /1604 11110 21125 60001 333 11087 21161 70000
AAXX 01184 71990 17/// /0204 11239 21263 38539 40212 58011 69931 7//4/ 333 11165 21251 70012
AAXX 01184 71406 17/// /0520 11030 21037 30064 40074 56020 60011 7//4/ 333 11030 21082 70035
AAXX 01184 71418 46/// /3624 10022 20017 39980 40012 53009 6///1 333 10043 21012 7////
AAXX 01184 71048 16/// /2005 11074 21153 60001 333 11074 21134 70000
AAXX 01184 71354 16/// /2504 11108 21191 60001 333 11104 21170 70000
AAXX 01184 89610 46/// /0415 11023 39608 4//// 5//// 333 90700 91118
AAXX 01184 89610 46/// /0415 11023 39608 4//// 5//// 333 90700 91118
AAXX 01184 71048 16/// /2005 11074 21153 60001 333 11074 21134 70000
AAXX 01184 71277 46/// /1410 11146 21206 6///1 333 11099 21162 7////
AAXX 01184 71406 17/// /0520 11030 21037 30064 40074 56020 60011 7//4/ 333 11030 21082 70035
AAXX 01184 71418 46/// /3624 10022 20017 39980 40012 53009 6///1 333 10043 21012 7////
AAXX 01184 89610 46/// /0415 11023 39608 4//// 5//// 333 90700 91118
AAXX 01184 71354 16/// /2504 11108 21191 60001 333 11104 21170 70000
AAXX 01184 71981 17/// /1102 11077 21099 69961 7//4/ 333 11076 21144 70012
AAXX 01184 71982 16/// /2801 11091 21140 60001 333 11091 21164 70000
AAXX 01184 71986 16/// /1604 11110 21125 60001 333 11087 21161 70000
AAXX 01184 71990 17/// /0204 11239 21263 38539 40212 58011 69931 7//4/ 333 11165 21251 70012
BBXX 44056 01181 99362 70757 46/// ///// 1//// 91750 22200 00124 10501 20501 70005
AAXX 01184 17240 11570 73102 10016 20000 39001 40170 52023 60092 72372 85570 333 10023 85630 87360 91105
AAXX 01181 01380 11130 81502 11051 21061 60082 77177 886// 333 11046 4/043 91106
AAXX 01184 89657 46/// /1602 11048 20006 49842 52003
AAXX 01184 89542 46/// /1404 11020 20060 49833 57017
BBXX 61001 01184 99434 10078 46/// /1102 10130 20102 40226 52014 22200 00137 10602 70008
BBXX BATFR11 01184 99421 10042 46/// ///// 10140 20115 40224 51007 22263 00140
BBXX 61002 01184 99421 10047 46/// /0000 10135 2//// 40230 52002 22200 00133 10502 70009
BBXX BATFR20 01184 99414 10094 44898 3//// 10140 20110 40226 70000 8304/ 22244 20000
BBXX BATFR33 01184 99380 10097 46/// /3220 10157 20125 40247 53011 22275 00024
BBXX DBBH 01181 99378 10155 41/98 /3004 10145 20048 40257 52021 70200 8/000 22271 04158
BBXX WAHV 01184 99377 10059 41898 72510 10150 2012/ 40265 52012 70110 8383/ 22264 00161 20602 329// 41002 5//// 6//// 80130 /////
BBXX BATFR46 01184 99376 70006 46/// /2213 10157 20127 40254 53008 22253 00162
BBXX ZQTP2 01184 99365 70003 41598 12418 10155 20128 40264 53002 70200 81500 22263 00160 20503 30000 4//// 5//// 80140
BBXX DDYZ2 01184 99356 10172 41999 03605 10160 20078 40255 52015 7//// 80000 22224 06170 2//// 80115
BBXX DDYL2 01183 99342 10229 41/98 /0118 10140 20075 40210 52030 7//// 8//// 22264 00160 2////
BBXX A8IZ2 31201 01184 99338 10289 41598 23128 10150 20100 40170 52010 70111 82/// 22233 80120
BBXX 64045 01184 99591 70117 46/// /2326 10049 20011 49762 55003 22200 00100 10912 70060 333 90710 91139
BBXX 62112 01184 99584 70002 47598 /2220 10076 20032 49868 57004 700// 22200
BBXX 62113 01184 99584 10002 47998 /2123 10077 20039 49879 57005 700// 22200
BBXX 62129 01184 99584 10003 46/// ///// 10078 20039 49880 57004 22200
BBXX 62114 01184 99583 10000 46/// /2124 10077 20034 49869 56003 22200
BBXX PJAI 01184 99581 70014 47999 /2219 10083 20010 49862 54000 700// 22200
BBXX 62111 01184 99580 70003 46/// /2425 10078 20035 49885 56001 22200 10605 70026
BBXX 62117 01184 99579 10000 47598 /2224 10081 20040 49882 56003 700// 22200 10605 70027
BBXX MINUK01 0118/ 99571 70021 46/// ///// 10055 49886 57001
BBXX 62105 01184 99554 70122 46/// /2626 10058 20013 49884 53013 22200 00105 11015 70074 333 90710 91140
BBXX MINUK03 0118/ 99549 70010 46/// ///// 10078 49926 57014
BBXX BAREU00 01184 99536 70035 46/// ///// 49957 22261
BBXX 62095 01184 99530 70159 46/// /2821 10049 20011 49962 53005 22200 00112 11015 70074 333 90710 91137
BBXX 62301 01184 99524 70047 46/// /2619 10091 20052 49988 53007 22200 00091 10504 70022 333 90710 91128
BBXX 62094 01184 99517 70067 46/// /25// 10094 2//// 40008 51015 22200 00105 10606 70031
BBXX 62303 01184 99516 70051 46/// /2622 10103 20049 40010 52011 22200 00110 10606 70030 333 90710 91129
BBXX 62023 01183 99514 70079 46/97 /2731 10084 2//// 40022 5//// 22200 10707 70036 333 91139 555 70057 81007
BBXX 62081 01184 99510 70134 46/// ///// 10079 20022 40028 52008 22200 00118 11014 70068
BBXX 62305 01184 99504 10000 46/96 /2720 10109 20105 40037 55003 22200 00117 10603 70015 333 90710 91148
BBXX 62107 01184 99501 70061 46/// /2826 10105 20051 40051 53018 22200 00116 11007 70033 333 90710 91136
BBXX PHBO 01183 99499 70041 41/97 82720 10113 20078 40051 53008 70352 8//// 22224 20401 324// 40902 80096
BBXX 62103 01184 99499 70029 46/98 /2529 10120 20095 40036 53007 22200 00118 10804 70018 333 90710 91136
BBXX PHAM 01183 99495 70011 41297 82622 10116 20096 40051 53011 75165 887// 22200 20504 80105 91032
BBXX 62027 01184 99491 70022 46/// /2716 1//// 2//// 40067 53015 22200 00108 11304 327// 70019
BBXX 62442 01184 99490 70164 46/// /2733 1//// 2//// 40090 51013 22200 00122 333 90710 91145
BBXX 62029 01184 99487 70125 46/// /2824 10095 20040 40086 52018 22200 00126 11012 70059 333 90710 91136
BBXX V2NA1 01184 99483 70067 41397 72727 10130 20065 40075 52025 72166 8477/ 22254 20507 323// 41007 80096
BBXX BATFR27 01184 99481 70052 46/// /2830 10122 20082 40078 56016 22283 00130
BBXX 62163 01184 99475 70084 46/// /2722 10113 20057 40106 51018 22200 00125 10808 70041 333 90710 91130
BBXX 62001 01184 99453 70050 46/// /2322 10134 20114 40150 57004 22200 00130 10709 70047 333 90710 91136
BBXX C6KD5 01183 99446 70094 41598 72318 10120 20105 40168 52015 70281 86464 22254 02136 20403 323// 40907 5//// 80112
BBXX A8IP3 01183 99445 70133 41497 42929 10120 20079 40180 52040 70100 822// 22254 04140 20709 327// 41308 80098
BBXX MYSU5 01184 99440 70199 41498 61431 10120 20056 40213 52030 72582 84392 22253 00140 20710 330// 41210 5//// 80090
BBXX BATEU01 01184 99439 70265 46/// /2836 10127 20037 40247 51015 22263 00139
BBXX DILE 01183 99420 70122 41298 53032 10141 20113 40221 52020 70165 84790 22254 04150 21207 327// 41808 80125
BBXX 3EPD8 01184 99410 70106 41297 82219 10140 20080 40239 57020 76362 8/7// 22283 04154 29904 399// 4//06 80110
BBXX MCUV3 01183 99409 70211 41498 63225 10145 20117 40292 5/000 70222 84448 22253 2//07 332// 4//07 5//// 80130
BBXX BAREU08 01184 99396 70252 46/// ///// 40322 52025 22254
BBXX VRCZ7 01183 99395 70101 41/97 42720 10155 20128 40263 52/// 70111 8//// 22244 2//// 3//// 4//// 5//// 80140
BBXX C6LU3 01183 99380 70288 41598 53414 10180 2013/ 40340 53015 70211 84201 22254 20302 328// 40906 80150
BBXX A8IV9 01184 99379 70098 41298 82721 10155 20121 40300 50/// 70222 8/71/ 22244 21004 80135
BBXX BATFR46 01184 99376 70006 46/// /2213 10157 20127 40254 53008 22253 00162
BBXX ZQTP2 01184 99365 70003 41598 12418 10155 20128 40264 53002 70200 81500 22263 00160 20503 30000 4//// 5//// 80140
BBXX KABP 01183 99364 70043 41399 22625 10161 2012/ 40278 52008 70200 828// 22253 00159 20605 324// 40706 5//// 6//// 80138 ICE /////
BBXX PDUJ 01183 99363 70083 41497 73107 10168 20108 40299 52009 7//22 877// 22223 04218 20501 328// 41202 80133
BBXX BAREU05 01184 99358 70100 46/// ///// 40314 52010 22200
BBXX PCGM 01183 99351 70275 41398 13110 10203 20163 40335 51006 70200 818// 22214 00202 20301 331// 40905 80177
BBXX 42360 01181 99267 70905 46/// /2701 10239 91800 22200 00245 10501 70005 333 91202
BBXX 42023 01181 99261 70831 46/// /0503 1//// 91830 333 91204
BBXX 42023 01181 99261 70831 46/// /0503 1//// 91800 333 91204
BBXX A8QL5 01181 99158 70243 41497 80519 10210 20147 40170 56/// 70322 887// 22214 04240 20504 305// 40706 80170
BBXX MQPF2 01183 99126 10639 41597 53212 10257 20175 40141 51/// 70100 84148 22274 20903 33032 41003 50602 80205
BBXX VRJI2 01183 99147 70266 41796 70822 10220 2016/ 40140 54000 7//22 85742 22243 04240 20602 305// 41006 5//// 6//// 80180
AAXX 01184 83766 32597 30502 10316 20189 39404 40039 5//// 83200
AAXX 01184 83836 32497 60901 10236 20171 39091 40046 56019 83963
AAXX 01184 83881 32497 32304 10310 20170 39758 40034 56021 82340
AAXX 01184 83980 21596 41410 10265 20168 39840 40116 57011 70551 84200 333 69941
AAXX 01184 83997 32497 31414 10256 20164 30131 40174 56002 83100
AAXX 01184 83437 21598 82703 10214 20200 39371 40086 72966 887// 333 58011 60221
AAXX 01184 83579 21598 83205 10244 20192 38946 40046 76166 88800 333 59025 69921
AAXX 01184 83592 21597 60504 10252 20215 39395 40066 70365 83260 333 59013 60021
AAXX 01184 83270 32799 60000 10298 20215 39619 40099 83230 333 59009
AAXX 01184 83309 21695 80000 10291 20248 39774 40093 70595 885// 333 58020 69931
AAXX 01184 83319 32697 62708 10292 20230 39733 40102 83460 333 59027
AAXX 01184 83811 21397 71802 10242 20199 39167 40054 58010 78022 83770 333 60021
AAXX 01184 83844 32597 509// 10254 20193 30056 40063 57010 82260
AAXX 01184 83887 21596 81402 10164 20161 39050 40095 51010 76096 889// 333 60371
AAXX 01184 83907 32497 61406 10307 20170 39806 40083 58013 86200
AAXX 01184 83914 31596 60905 10244 20164 39311 40072 57011 70521 86300
AAXX 01184 83919 21596 62712 10190 20147 38940 40112 56010 71565 84820 333 60011
AAXX 01184 83927 21597 81410 10261 20174 30026 40097 57013 70252 885// 333 69901
AAXX 01184 83936 32497 41408 10286 20172 39982 40102 58008 84200
AAXX 01184 83948 21496 80000 10208 20189 30100 40106 56002 71086 889// 333 60031
AAXX 01184 83964 31596 61402 10236 20187 39620 40105 57008 70552 83270
AAXX 01184 83995 32497 50912 10251 20185 30131 40134 54000 85100
AAXX 01184 83384 21597 73603 10260 20224 39504 40077 72122 85580 333 58004 60011
AAXX 01184 83386 21498 82301 10223 20212 39546 40075 72186 8372/ 333 59001 60101
AAXX 01184 83388 21497 80905 10252 20211 39400 40061 70269 885// 333 59005 60041
AAXX 01184 83393 32599 81402 10270 20211 39368 40077 84770 333 59006
AAXX 01184 83442 21597 80000 10242 20233 39708 40052 75161 888// 333 59011 60051
AAXX 01184 83479 21598 82710 10274 20224 39276 40063 75165 889// 333 59015 60011
AAXX 01184 83483 21598 63205 10267 20227 39497 40053 70252 83424 333 59023 69931
AAXX 01184 83531 21597 43207 10232 20200 39038 40059 70162 84400 333 59017 60011
AAXX 01184 83538 21497 83604 10221 20184 38667 40039 70262 887// 333 59009 60051
AAXX 01184 83574 21794 73606 10274 20176 39528 40129 5//// 76066 88700 333 60041
AAXX 01184 83582 21598 82704 10256 20202 39348 40109 57004 76362 88700 333 60021
AAXX 01184 83595 21597 80902 10270 20256 30086 46196 755// 855// 333 59014 60021
AAXX 01184 83692 21698 83606 10214 20206 39026 40045 58005 72162 882// 333 60121
BBXX WZD2465 01184 99432 70878 41/98 /2940 10000 2//// 40078 52/// 70222 8//// 22213 0//// 20604 3//// 4//// 5//// 6//// 8//// ICE /////
BBXX MINFR05 0118/ 99055 10000 46/// ///// 10263 40111 52011
BBXX VRJI2 01183 99147 70266 41796 70822 10220 2016/ 40140 54000 7//22 85742 22243 04240 20602 305// 41006 5//// 6//// 80180
BBXX 42360 01181 99267 70905 46/// /2701 10239 91800 22200 00245 10501 70005 333 91202
BBXX 42023 01181 99261 70831 46/// /0503 1//// 91830 333 91204
BBXX 42023 01181 99261 70831 46/// /0503 1//// 91800 333 91204
BBXX 44056 01181 99362 70757 46/// ///// 1//// 91750 22200 00124 10501 20501 70005
BBXX 41033 01181 99323 70804 46/// /2206 1//// 40205 58031 91800 555 11066 22068
BBXX 44138 01181 99443 70536 46/// /1810 10111 49918 57056 22200 00092 10806 70032 333 91212
BBXX 44137 01181 99423 70620 46/// /3113 10073 40090 52021 22200 00089 10908 70041 333 91218
BBXX C6KD9 01180 99310 70469 41597 71405 10224 20172 40278 56017 70322 87898 22214 02218 21004 312// 41005 5//// 80192
BBXX 46239 01181 99363 71221 46/// ///// 1//// 91821 22200 00119 11305 20903 329// 41304 70023
BBXX 46219 01181 99332 71199 46/// ///// 1//// 91828 22200 00137 11304 21002 329// 41303 70021
BBXX 44022 01181 99409 70737 46/// ///07 10095 20036 40143 91830 22200 00073 333 91210 555 11088 22098
BBXX 44060 01181 99413 70721 46/// ///02 10081 40155 91830 22200 00095 333 91203 555 11026 22026
BBXX 44040 01181 99410 70736 46/// /1907 10098 20037 40150 91819 22200 1//00 70002 333 91209 555 11088 22108
BBXX 46238 01181 99334 71195 46/// ///// 1//// 91820 22200 00140 11304 21002 328// 41303 70018
BBXX 46224 01181 99332 71175 46/// ///// 1//// 91806 22200 00146 11302 21001 322// 41301 70008
BBXX 46214 01181 99379 71235 46/// ///// 1//// 91820 22200 00119 11304 21003 329// 41303 70021
BBXX SHIP 01184 99570 31097 41/97 82746 10009 21018 49767 57013 70222 88/// 22252 00023 11115 20807 326// 40812 61000 86002
BBXX SHIP 01184 99053 31265 41/97 32507 10279 20267 40081 54000 70000 83/// 22273 00293 10400 80270
BBXX PHBO 01183 99499 70041 41/97 82720 10113 20078 40051 53008 70352 8//// 22224 20401 324// 40902 80096
BBXX 63119 01184 99583 10009 41497 32327 10078 20041 49870 55005 70300 8/064 22200 20605 323// 40808 5//// 80062
BBXX A8IV9 01184 99379 70098 41298 82721 10155 20121 40300 50/// 70222 8/71/ 22244 21004 80135
BBXX 41052 01181 99183 70648 46/// /0707 10267 40165 91830 333 91209
BBXX 41052 01181 99183 70648 46/// /0708 10268 40165 91820 333 91209
BBXX 41052 01181 99183 70648 46/// /0708 10267 40165 91810 333 91209
BBXX 44024 01181 99423 70659 46/30 /3208 10053 40143 55000 91804 22200 00075 10805 70023 333 91210 555 11097 22102
BBXX 41052 01181 99183 70648 46/// /0708 10268 40165 57027 91800 22200 00268 10703 70014 333 91209
BBXX 41053 01181 99185 70661 46/// /0808 10269 40165 91830 333 91210
BBXX 41053 01181 99185 70661 46/// /0908 10270 40167 91820 333 91210
BBXX 41053 01181 99185 70661 46/// /0808 10269 40169 91810 333 91210
AAXX 01181 38838 41/// 90502 11008 21021 39552 40245 53005 74542
AAXX 01184 63932 32580 400000 10180 20150 38315 48514 82900 333 10235 58007 84820 81924
AAXX 01181 47008 42970 03204 11066 21137 30205 40262 52002
AAXX 01181 47014 42950 00000 11206 21225 39883 40330 52009
AAXX 01181 47016 42970 00502 11214 21239 39405 40316 53012
AAXX 01181 47020 42965 50000 11164 21177 39915 40326 52001 85030
AAXX 01181 47025 42960 03201 11096 21122 30215 40246 52006
AAXX 01181 47035 42970 03601 11114 21210 30288 40297 54000
AAXX 01181 47041 41960 00000 11095 21111 30218 40247 52005 71044
AAXX 01181 47055 42965 01802 11057 21089 30218 40266 53017
AAXX 01181 47058 41905 80000 11131 21137 30238 40289 52003 74842 80002
AAXX 01181 47069 41956 00000 11076 21117 30172 40277 53007 71000
AAXX 01184 47893 11/65 62908 10073 21004 30137 40143 56008 69901 78081 86200
AAXX 01181 45032 36/// /1001 10152 20125 30201 40218 57002
AAXX 01181 45035 36/// /0904 10157 20122 30173 40215 57002
AAXX 01181 45039 36/// /0903 10156 20113 30203 40218 57002
AAXX 01181 45044 36/// /0907 10157 20116 30121 40216 54000
AAXX 01181 45032 36/// /1001 10152 20125 30201 40218 57002
AAXX 01181 45035 36/// /0904 10157 20122 30173 40215 57002
AAXX 01181 45039 36/// /0903 10156 20113 30203 40218 57002
AAXX 01181 45044 36/// /0907 10157 20116 30121 40216 54000
AAXX 01184 71974 46/// /1604 11351 21384 30273 40319 53010 6///1 333 11350 21377 7////
AAXX 01184 71848 16/// ///// 11086 21102 60001 333 11085 21158 70013
AAXX 01184 71013 16/// ///// 11044 21123 60001 333 11044 21163 7////
AAXX 01184 71060 16/// /2506 11070 21189 38739 40386 50008 60001 333 11066 21233 70000 555 10010
AAXX 01184 71793 16/// ///// 11105 21157 60001 333 11105 21182 70000
AAXX 01184 71073 16/// /1411 11071 21104 60001 333 11069 21141 70000
AAXX 01184 71565 17/// /2102 11185 21234 69991 7//4/ 333 11175 21244 70009
AAXX 01184 71566 16/// /1503 11110 21211 60001 333 11110 21174 70000
AAXX 01184 71567 17/// /2505 11132 21190 69961 7//4/ 333 11083 21186 70006
AAXX 01184 71357 16/// /0601 11256 21280 30068 40075 53005 60001 333 11235 21299 70000
AAXX 01184 71399 16/// ///// 11112 21162 60001 333 11111 21178 70004
AAXX 01184 71495 16/// /2105 11069 21103 60001 333 11069 21166 70000
AAXX 01184 89667 46/// /0606 11034 29059 39853 4//// 5//// 91820
AAXX 01184 89667 46/// /0507 11042 39852 4//// 5//// 91810
AAXX 01184 89667 46/// /0706 11029 29061 39854 4//// 5//// 91830
AAXX 0118/ 89872 46/// ///// 11058 39801 4//// 5//// 91820
AAXX 0118/ 89869 46/// ///// 11064 39800 4//// 5//// 91820
AAXX 0118/ 89869 46/// ///// 11064 39801 4//// 5//// 91830
AAXX 0118/ 89866 46/// ///// 11019 39738 4//// 5//// 91820
AAXX 0118/ 89329 46/// ///// 11109 38730 4//// 5//// 91820
AAXX 0118/ 89329 46/// ///// 11106 38730 4//// 5//// 91830
AAXX 0118/ 89799 46/// ///// 11245 4//// 5//// 91820
AAXX 0118/ 89332 46/// ///// 11029 39209 4//// 5//// 91820
AAXX 0118/ 89332 46/// ///// 11026 39209 4//// 5//// 91830
AAXX 0118/ 89314 46/// ///// 11105 38217 4//// 5//// 91820
AAXX 0118/ 89314 46/// ///// 11105 38217 4//// 5//// 91830
AAXX 0118/ 89828 46/// ///// 11251 36523 4//// 5//// 91820
AAXX 0118/ 89108 46/// ///// 11211 36998 4//// 5//// 91820
AAXX 0118/ 89108 46/// ///// 11211 36998 4//// 5//// 91830
AAXX 0118/ 89879 46/// ///// 11011 39740 4//// 5//// 91820
AAXX 0118/ 89879 46/// ///// 11011 39740 4//// 5//// 91830
AAXX 0118/ 89667 46/// ///// 11047 39851 4//// 5////
AAXX 0118/ 89868 46/// ///// 11080 39804 4//// 5//// 91820
AAXX 0118/ 89769 46/// ///// 11046 39820 4//// 5//// 91820
AAXX 0118/ 89799 46/// ///// 11244 4//// 5////
AAXX 0118/ 89332 46/// ///// 11038 39206 4//// 5////
AAXX 0118/ 89828 46/// ///// 11256 36523 4//// 5////
AAXX 0118/ 89108 46/// ///// 11224 36996 4//// 5////
AAXX 01184 89625 46/// /1804 11269 29076 36499 4//// 5//// 91800
AAXX 01184 89646 46/// /0104 11228 29079 37590 4//// 5////
AAXX 01184 89648 46/// /2308 11265 29074 37164 4//// 5////
AAXX 01184 89659 46/// /3009 11205 29073 37643 4//// 5////
AAXX 01184 89661 46/// /0201 11010 29035 39189 4//// 5////
AAXX 01184 89666 46/// /1611 11033 29085 39657 4//// 5////
AAXX 01184 60127 32960 00000 10131 20029 39692 40294 52014 333 10181
AAXX 01181 89063 42699 62003 10022 20003 39882 49893 57003 86500 333 44108
AAXX 01184 96745 32556 70000 10259 20232 30094 40098 57013 83521 333 56000 83620 86460
BBXX 46241 01181 99330 71173 46/// ///// 1//// 91811 22200 00145 11501 21001 326// 41501 70007
BBXX 46216 01181 99343 71198 46/// ///// 1//// 91827 22200 00143 11403 21002 327// 41402 70013
BBXX 46223 01181 99335 71178 46/// ///// 1//// 91830 22200 00152 11302 21001 326// 41301 70008
BBXX 46231 01181 99327 71174 46/// ///// 1//// 91824 22200 00148 11403 21002 328// 41402 70013
BBXX 46222 01181 99336 71183 46/// ///// 1//// 91826 22200 00147 11402 21001 327// 41402 70011
BBXX 46242 01181 99332 71174 46/// ///// 1//// 91828 22200 00145 11301 21001 324// 41301 70007
BBXX 44039 01181 99411 70727 46/// /1905 10097 20066 40160 91830 22200 00086 1//00 70001 333 91207
AAXX 01181 47003 42980 00000 11106 21179 30263 40267 52003
AAXX 01181 47005 42980 01401 11247 21259 38610 53008
AAXX 01181 47022 42975 03201 11178 21204 38836 58004
AAXX 01181 47028 42961 03601 11103 21170 30212 40313 52002
AAXX 01181 47031 42970 00000 11212 21224 38945 53005
AAXX 01181 47037 42970 03203 11106 21179 30150 40282 58005
AAXX 01181 47039 42960 00000 11126 21153 30082 40288 54000
AAXX 01181 47046 11550 80000 11038 21067 30221 40245 53008 69901 71072 885//
AAXX 01181 47050 42965 00000 11126 21156 30254 40284 52002
AAXX 01181 47052 42565 80000 11088 21112 39917 40275 52005 885//
AAXX 01181 47060 42960 00000 11091 21136 30223 40285 52002
AAXX 01181 47061 42670 83201 11021 21096 30208 40253 52020 85530
AAXX 01181 47065 41960 00000 11100 21128 30216 40286 58002 71000
AAXX 01181 47067 41960 03201 11111 21130 30171 40300 52008 71000
AAXX 01181 47068 42960 03602 11106 21126 30238 40275 53004
AAXX 01181 47070 41960 00000 11100 21105 30187 40281 53006 71000
AAXX 01181 47075 42980 00000 11154 21167 39763 40225 52010
BBXX 63106 01184 99610 10017 46/// /2118 10074 49837 58004 22200
BBXX 63113 01184 99610 10017 46/// /2219 10080 20032 49840 57004 22200 10606 70029
BBXX 62094 01184 99517 70067 46/// /2522 10094 20036 40008 51015 22200 00105 10606 70031 333 90710 91130
BBXX 62103 01184 99499 70029 46/98 /2624 10117 20081 40042 53013 22200 00118 10704 70019 333 90710 91135
BBXX A8JC5 01184 99352 70120 41598 83212 10168 20096 40310 57003 70222 884// 22224 00191 20202 304// 40503 5//// 80127
BBXX 64049 01183 99571 10022 41/97 82325 10084 20080 49904 54000 70211 8//// 22200 04089 20606 323// 40607 5//// 80082
AAXX 01184 41404 42960 00803 10172 21035 37900 48550 333 10252 59011
AAXX 01184 78792 32460 30411 10324 20211 30080 40093 57020 83100 333 10329 20242 30/// 560// 59009 83820
AAXX 01184 78793 32470 42010 10310 20223 30059 40090 57017 81103 333 10314 20218 30/// 568// 58003 81820 83080
AAXX 01184 78795 32370 73614 10306 20214 30004 40104 52005 8325/ 333 10315 20210 30/// 5688/ 57882 58002 83815 84359
BBXX 46208 01181 99525 71327 46/// /1420 10080 49944 57047 22200 00072 11318 70092 333 91226
BBXX A8CN9 01180 99534 71461 41/97 /3523 10020 21005 49850 52080 76062 8//// 22263 04045 21412 334// 41210 5//// 80010
AAXX 01184 78792 32460 30411 10324 20211 30080 40093 57020 83100 333 10329 20242 30/// 560// 59009 83820
AAXX 01184 78793 32470 42010 10310 20223 30059 40090 57017 81103 333 10314 20218 30/// 568// 58003 81820 83080
AAXX 01184 78795 32370 73614 10306 20214 30004 40104 52005 8325/ 333 10315 20210 30/// 5688/ 57882 58002 83815 84359
AAXX 01184 78792 32460 30411 10324 20211 30080 40093 57020 83100 333 10329 20242 30/// 560// 59009 83820
AAXX 01184 78793 32470 42010 10310 20223 30059 40090 57017 81103 333 10314 20218 30/// 568// 58003 81820 83080
AAXX 01184 78795 32370 73614 10306 20214 30004 40104 52005 8325/ 333 10315 20210 30/// 5688/ 57882 58002 83815 84359
BBXX 46221 01181 99339 71186 46/// ///// 1//// 91815 22200 00150 11302 20901 326// 41302 70012
BBXX NAZJ 01184 99507 71579 418// 10310 11011 2//// 40091 55/// 70200 8110/ 22282 00044 21201 33535 41204 51202 6/00/ 8//// ICE 0/0//
AAXX 0118/ 89108 46/// ///// 11213 36999 4//// 5//// 91840
AAXX 0118/ 89799 46/// ///// 11244 4//// 5//// 91830
AAXX 0118/ 89769 46/// ///// 11036 39822 4//// 5//// 91830
AAXX 01184 71102 16/// ///// 11139 21195 60001 333 11094 21173 7////
AAXX 01184 71105 16/// ///// 11100 21112 60001 333 11100 21202 70008
AAXX 01184 71006 16/// /3612 11071 21154 60001 333 11071 21148 70000
AAXX 01184 71007 46/// ///// 11064 21081 6///1 333 11064 21129 7////
AAXX 01184 71008 16/// /1207 11097 21118 60001 333 11096 21156 70000
AAXX 01184 71009 16/// /0000 11110 21151 60001 333 11102 21226 70000
AAXX 01184 71012 16/// /2206 11123 21188 60001 333 11097 21173 70000
AAXX 01184 71035 16/// ///// 11127 21139 60001 333 11127 21222 70000
AAXX 01184 71841 47/// /3110 11043 21066 39627 40024 5/002 6///1 7//4/ 333 11023 21053 7//// 555 10030
AAXX 01184 71383 16/// ///// 11067 21085 39497 40114 56029 60001 333 11066 21139 70000
AAXX 01184 71789 16/// ///// 11059 21065 60001 333 11059 21125 70000
AAXX 01184 71791 16/// /2203 11134 21196 60001 333 11082 21169 70000
AAXX 01184 71794 16/// ///// 11119 21193 60001 333 11095 21201 70000
AAXX 01184 71795 16/// ///// 11075 21113 60001 333 11071 21170 70011
AAXX 01184 71796 16/// ///// 11098 21184 60001 333 11097 21177 70000
AAXX 01184 71409 16/// ///// 11051 21078 60001 333 11051 21157 70000
AAXX 01184 71502 16/// /1412 11305 21331 30180 40197 56001 60001 333 11261 21314 7////
AAXX 01184 71509 16/// /1604 11042 21070 60001 333 11042 21145 70000
AAXX 01184 71517 16/// /2105 11051 21055 60001 333 11045 21155 70000
AAXX 01184 71518 16/// /1605 11067 21076 60001 333 11067 21154 70004
AAXX 01184 71519 16/// /1608 11048 21069 60001 333 11048 21155 7////
AAXX 01184 71520 16/// /1609 11079 21089 39425 40106 56028 60001 333 11078 21152 70000
AAXX 01184 71521 16/// /0902 11075 21090 60001 333 21141 70000
AAXX 01184 71523 16/// ///// 11074 21085 39699 40079 58044 60001 333 11074 21118 70000
AAXX 01184 71528 16/// /1906 11072 21083 60001 333 11072 21146 7////
AAXX 01184 71051 17/// ///// 11059 21094 69951 7//4/ 333 11058 21180 70005
AAXX 01184 71057 16/// ///// 11075 21104 60001 333 11075 21132 70004
AAXX 01184 71070 16/// ///// 11041 21096 60001 333 11040 21134 70000
AAXX 01184 71089 16/// ///// 11121 21191 60001 333 11093 21200 70000
AAXX 01184 71433 46/// /3321 10010 20004 39736 49964 56014 6///1 333 10027 20005 7////
AAXX 01184 17031 11458 83021 10087 20067 30164 40170 52027 69962 76082 8552/ 333 10139 82712 85630 88460
AAXX 01184 71841 47/// /3110 11043 21066 39627 40024 5/002 6///1 7//4/ 333 11023 21053 7//// 555 10030
AAXX 01184 71433 46/// /3321 10010 20004 39736 49964 56014 6///1 333 10027 20005 7////
AAXX 01184 71102 16/// ///// 11139 21195 60001 333 11094 21173 7////
AAXX 01184 71105 16/// ///// 11100 21112 60001 333 11100 21202 70008
AAXX 01184 71789 16/// ///// 11059 21065 60001 333 11059 21125 70000
AAXX 01184 71791 16/// /2203 11134 21196 60001 333 11082 21169 70000
AAXX 01184 71794 16/// ///// 11119 21193 60001 333 11095 21201 70000
AAXX 01184 71795 16/// ///// 11075 21113 60001 333 11071 21170 70011
AAXX 01184 71796 16/// ///// 11098 21184 60001 333 11097 21177 70000
AAXX 01184 71383 16/// ///// 11067 21085 39497 40114 56029 60001 333 11066 21139 70000
AAXX 01184 71006 16/// /3612 11071 21154 60001 333 11071 21148 70000
AAXX 01184 71007 46/// ///// 11064 21081 6///1 333 11064 21129 7////
AAXX 01184 71008 16/// /1207 11097 21118 60001 333 11096 21156 70000
AAXX 01184 71009 16/// /0000 11110 21151 60001 333 11102 21226 70000
AAXX 01184 71012 16/// /2206 11123 21188 60001 333 11097 21173 70000
AAXX 01184 71035 16/// ///// 11127 21139 60001 333 11127 21222 70000
AAXX 01184 71409 16/// ///// 11051 21078 60001 333 11051 21157 70000
AAXX 01184 71502 16/// /1412 11305 21331 30180 40197 56001 60001 333 11261 21314 7////
AAXX 01184 71509 16/// /1604 11042 21070 60001 333 11042 21145 70000
AAXX 01184 71517 16/// /2105 11051 21055 60001 333 11045 21155 70000
AAXX 01184 71518 16/// /1605 11067 21076 60001 333 11067 21154 70004
AAXX 01184 71519 16/// /1608 11048 21069 60001 333 11048 21155 7////
AAXX 01184 71520 16/// /1609 11079 21089 39425 40106 56028 60001 333 11078 21152 70000
AAXX 01184 71521 16/// /0902 11075 21090 60001 333 21141 70000
AAXX 01184 71523 16/// ///// 11074 21085 39699 40079 58044 60001 333 11074 21118 70000
AAXX 01184 71528 16/// /1906 11072 21083 60001 333 11072 21146 7////
AAXX 01184 71051 17/// ///// 11059 21094 69951 7//4/ 333 11058 21180 70005
AAXX 01184 71057 16/// ///// 11075 21104 60001 333 11075 21132 70004
AAXX 01184 71070 16/// ///// 11041 21096 60001 333 11040 21134 70000
AAXX 01184 71089 16/// ///// 11121 21191 60001 333 11093 21200 70000
BBXX TBWUK17 01183 99345 30180 41497 72921 10206 20193 40168 52010 76022 8676/ 22262 20304 323// 40808 5//// 80198
BBXX TBWUK18 01183 99308 30496 41398 51610 10210 20178 40162 52005 70311 855// 22222 00240 20502 313// 40703 5//// 80190
BBXX ZNQO3 01180 99430 70101 41297 82612 10130 20101 40209 52030 70282 8/7// 22244 04145 2//// 3//// 4//// 5//// 80115
BBXX VRGM8 01183 99407 10186 41498 13610 10130 20026 40244 52012 70100 811// 22234 00153 20801 336// 40902 5//// 80080
AAXX 01184 97810 11456 70000 10256 20251 30065 40074 57014 60021 71562 85872 333 56700 57871 83818 80858
AAXX 01184 42754 31994 00508 10150 20133 39492 40145 71020 333 58006
AAXX 01184 42779 21496 81402 10170 20167 39435 40146 76062 8452/ 333 59022 6020/ 84615 88458
AAXX 01181 10961 11589 42515 11057 21095 37094 47065 53004 60012 70141 81042 333 11036 21062 49265 55300 20000 40869 81333 84070 91122 91217
AAXX 01184 89807 46/// /1817 11014 29097 39729 4//// 5//// 91830 333 90700 91119
AAXX 01184 89807 46/// /1817 11014 29097 39729 4//// 5//// 91830 333 90700 91119
AAXX 01184 89063 42699 62003 10022 20003 39882 49893 57003 86500 333 44108
BBXX KGCJ 01184 99580 71349 41396 83611 10022 2//// 40000 57/// 78086 886// 22272 0//// 20101 3//// 4//00 5//// 6//// 8//// ICE /////
BBXX WDC8227 01183 99573 71547 41598 30907 1//// 2//// 40021 57/// 70200 82500 22200 04017 20000 331// 4//01 5//// 6//// 8//// ICE /////
BBXX WDE2719 01184 99607 71514 41395 10407 11217 2//// 40080 57/// 71042 81600 22200 05033 20000 3//// 4//00 5//// 6//// 8//// ICE 52006
BBXX 9V7645 01184 99338 71232 416// 39903 10120 20083 40210 54/// 70000 83183 22274 00140 20303 33232 40302 50202 6//// 80100 ICE /////
BBXX PBIG 01184 99112 70753 41898 40526 10280 40130 57010 70222 8/070 22264 20502
BBXX V7HP4 01184 99069 70802 41898 20613 10280 20253 40130 56020 7//11 82188 22213 04280 2//// 3//// 4//// 5//// 6//// 80260 ICE /////
BBXX TBWUK18 01183 99308 30496 41398 51610 10210 20178 40162 52005 70311 855// 22222 00240 20502 313// 40703 5//// 80190
BBXX TBWUK17 01183 99345 30180 41497 72921 10206 20193 40168 52010 76022 8676/ 22262 20304 323// 40808 5//// 80198
BBXX A8QL5 01181 99158 70243 41497 80519 10210 20147 40170 56/// 70322 887// 22214 04240 20504 305// 40706 80170
BBXX PBIG 01184 99112 70753 41898 40526 10280 40130 57010 70222 8/070 22264 20502
BBXX 9V7645 01184 99338 71232 416// 39903 10120 20083 40210 54/// 70000 83183 22274 00140 20303 33232 40302 50202 6//// 80100 ICE /////
BBXX 46221 01181 99339 71186 46/// ///// 1//// 91815 22200 00150 11302 20901 326// 41302 70012
BBXX 44039 01181 99411 70727 46/// /1905 10097 20066 40160 91830 22200 00086 1//00 70001 333 91207
BBXX 46242 01181 99332 71174 46/// ///// 1//// 91828 22200 00145 11301 21001 324// 41301 70007
BBXX 46231 01181 99327 71174 46/// ///// 1//// 91824 22200 00148 11403 21002 328// 41402 70013
BBXX 46222 01181 99336 71183 46/// ///// 1//// 91826 22200 00147 11402 21001 327// 41402 70011
BBXX 46216 01181 99343 71198 46/// ///// 1//// 91827 22200 00143 11403 21002 327// 41402 70013
BBXX 46223 01181 99335 71178 46/// ///// 1//// 91830 22200 00152 11302 21001 326// 41301 70008
BBXX 46241 01181 99330 71173 46/// ///// 1//// 91811 22200 00145 11501 21001 326// 41501 70007
BBXX 41052 01181 99183 70648 46/// /0708 10268 40165 91820 333 91209
BBXX 44024 01181 99423 70659 46/30 /3208 10053 40143 55000 91804 22200 00075 10805 70023 333 91210 555 11097 22102
BBXX 41053 01181 99185 70661 46/// /0808 10269 40165 91830 333 91210
BBXX 41052 01181 99183 70648 46/// /0707 10267 40165 91830 333 91209
BBXX 41052 01181 99183 70648 46/// /0708 10268 40165 57027 91800 22200 00268 10703 70014 333 91209
BBXX 41053 01181 99185 70661 46/// /0808 10269 40169 91810 333 91210
BBXX 41053 01181 99185 70661 46/// /0908 10270 40167 91820 333 91210
BBXX 41052 01181 99183 70648 46/// /0708 10267 40165 91810 333 91209
BBXX VQGQ4 01184 99119 11347 41297 30815 10260 20246 40090 58010 70211 8/1// 22233 00293 20403 80250
BBXX VRGM8 01183 99407 10186 41498 13610 10130 20026 40244 52012 70100 811// 22234 00153 20801 336// 40902 5//// 80080
BBXX ZNQO3 01180 99430 70101 41297 82612 10130 20101 40209 52030 70282 8/7// 22244 04145 2//// 3//// 4//// 5//// 80115
BBXX A8JC5 01184 99352 70120 41598 83212 10168 20096 40310 57003 70222 884// 22224 00191 20202 304// 40503 5//// 80127
BBXX 64049 01183 99571 10022 41/97 82325 10084 20080 49904 54000 70211 8//// 22200 04089 20606 323// 40607 5//// 80082
AAXX 0118/ 89828 46/// ///// 11248 36523 4//// 5//// 91840
BBXX PEBT 01183 99559 10160 41/94 /2122 10068 20022 40040 54000 75554 8//// 22253 02040 20502 319// 40703 5//// 80047
AAXX 01181 20046 31998 82808 11066 21074 30095 40127 53020 73632 8803/ 333 11082 91118
AAXX 01181 20069 41856 72414 11066 21086 30133 40146 57029 73831 8707/ 333 91119
AAXX 01184 89514 32798 61113 10028 49852 57073 86006 333 86070
AAXX 01184 41515 02995 00000 10069 21101 38563 48525 60003 333 59016 60007
AAXX 01184 41560 22696 31803 11010 21111 38295 48530 60003 82320 333 58005 60007
AAXX 01184 41571 119// 00000 10080 20010 39568 4019 60003 70500 333 59038
AAXX 01184 41594 319// 00000 10090 20053 39938 40164 70500 333 59036
AAXX 01184 41685 32993 00000 10065 21043 38933 48503 333 59012
AAXX 01184 41710 02997 00902 10085 21123 39399 40199 60003 333 59023 60007
AAXX 01184 41718 12996 00000 10070 20047 30062 40171 60003 333 59026
AAXX 01184 41739 02996 00000 10090 21040 39069 48512 60003 333 59022 60007
AAXX 01184 41744 32996 02702 10115 21035 38795 48515 333 59007
AAXX 01184 41749 11995 00000 10130 20080 30148 40181 60003 70400 333 59021
AAXX 01184 42027 31595 20000 11010 21024 38431 48521 71000 82500 333 59030
AAXX 01184 42328 32996 03202 10098 21015 40171 333 59014
AAXX 01184 42361 21594 30000 10136 20132 40152 71044 83500 333 59004 6006/ 83620
AAXX 01184 41506 02994 00000 10040 21011 48527 60003 333 59025 60007
AAXX 01184 41508 22996 00000 10020 21054 48535 60003 333 59032 60007
AAXX 01184 41523 02996 30000 10055 21059 48511 60003 83040 333 56090 59043 60007 83360
AAXX 01184 41535 12997 00000 10050 21014 48488 60003 333 59020
AAXX 01184 41536 NIL
AAXX 01184 41573 12696 21302 10060 21010 48489 60003 82500 333 59034
AAXX 01184 41600 01695 30000 10120 20090 39856 40158 60003 70400 81520 333 59026 60007
AAXX 01184 41630 11995 00000 10080 20058 40169 60003 71000 333 59038
AAXX 01184 41678 11996 00000 10105 20074 40175 60003 71000 333 59030 60007
AAXX 01184 41696 02996 00000 11020 21128 38020 48552 60003 333 59020 60007
AAXX 01184 41697 02996 00000 10092 20032 40171 60003 333 59029 60007
AAXX 01184 41700 11995 00000 10090 20032 40157 60003 70400 333 59028
AAXX 01184 41725 02996 00000 10105 20050 40165 333 59027 60007
AAXX 01184 41746 02996 03602 10105 20074 40183 60003 333 59017 60007
AAXX 01184 41759 12996 00000 10165 20063 30179 40185 60002 333 59006
AAXX 01184 41785 02996 00000 10135 20068 40170 60003 333 59009 60007
AAXX 01184 89514 32798 61113 10028 49852 57073 86006 333 86070
AAXX 01184 41515 02995 00000 10069 21101 38563 48525 60003 333 59016 60007
AAXX 01184 41560 22696 31803 11010 21111 38295 48530 60003 82320 333 58005 60007
AAXX 01184 41571 119// 00000 10080 20010 39568 4019 60003 70500 333 59038
AAXX 01184 41594 319// 00000 10090 20053 39938 40164 70500 333 59036
AAXX 01184 41685 32993 00000 10065 21043 38933 48503 333 59012
AAXX 01184 41710 02997 00902 10085 21123 39399 40199 60003 333 59023 60007
AAXX 01184 41718 12996 00000 10070 20047 30062 40171 60003 333 59026
AAXX 01184 41739 02996 00000 10090 21040 39069 48512 60003 333 59022 60007
AAXX 01184 41744 32996 02702 10115 21035 38795 48515 333 59007
AAXX 01184 41749 11995 00000 10130 20080 30148 40181 60003 70400 333 59021
BBXX TBWUK18 01183 99308 30496 41398 51610 10210 20178 40162 52005 70311 855// 22222 00240 20502 313// 40703 5//// 80190
BBXX TBWUK17 01183 99345 30180 41497 72921 10206 20193 40168 52010 76022 8676/ 22262 20304 323// 40808 5//// 80198
BBXX MLRM6 01183 99400 30038 41397 43030 10134 20111 40071 58020 70200 847// 22262 00135 20204 325// 40506 5////
BBXX SHIP 01184 99570 31097 41/97 82746 10009 21018 49767 57013 70222 88/// 22252 00023 11115 20807 326// 40812 61000 86002
AAXX 01181 11918 12474 72510 11007 21012 39354 42783 53001 69902 875// 333 11005 43002 81710 87626
AAXX 01184 78858 12577 30615 10282 20222 30117 40173 60001 83200 333 10286 20217 58000 83822
AAXX 01181 20292 41994 22310 11240 21258 30132 40153 58002 73631 82030 333 91111 96110
AAXX 01184 71360 16/// ///// 11110 21196 60001 333 11086 21179 70000
AAXX 01184 71380 16/// /3602 11166 21225 60001 333 11110 21219 70004
AAXX 01184 71857 16/// ///// 11152 21203 60001 333 11099 21179 7////
AAXX 01184 71797 16/// ///// 11131 21193 60001 333 11096 21182 70000
AAXX 01184 71055 46/// /2001 11378 21418 39901 40262 53011 6///1 333 11340 21393 7////
AAXX 01184 71065 16/// ///// 11143 21200 60001 333 11088 21235 70000
AAXX 01184 71904 46/// ///// 11114 21141 6///1 333 11106 21178 7////
AAXX 01184 71014 16/// /1308 11096 21141 60001 333 11096 21144 70000
AAXX 01184 71249 17/// /1404 11117 21154 69941 7//4/ 333 11100 21151 70004
AAXX 01184 71413 16/// ///// 11061 21135 60001 333 11061 21177 70000
AAXX 01184 71414 16/// ///// 11144 21192 60001 333 11094 21207 70000
AAXX 01184 71440 16/// ///// 11065 21101 60001 333 11065 21145 70000
AAXX 01184 71346 17/// /1710 11032 21069 69941 7//4/ 333 11032 21143 70004
AAXX 01184 71481 16/// /1903 11136 21208 60001 333 11101 21202 70004
AAXX 01184 71498 16/// /1511 11067 21093 60001 333 11067 21143 70000
AAXX 01184 71674 16/// ///// 11099 21165 60001 333 11099 21162 70000
AAXX 01184 71540 16/// /1202 11164 21208 60001 333 11148 21231 70000
AAXX 01184 71544 16/// ///// 11104 21171 60001 333 11098 21157 70000
AAXX 01184 71548 16/// ///// 11117 21190 60001 333 11089 21149 70000
AAXX 01184 42101 31695 60000 10120 20101 40162 70522 83530 333 59014 83635 84358
AAXX 01184 42111 31995 50000 10120 20101 39376 40165 70500 84830 333 59019 83625 85360
AAXX 01184 42165 31995 00000 10094 21001 40162 70500 333 59017
AAXX 01184 42182 21594 70903 10160 20153 40158 71065 84530 333 59011 6996/ 84630 86360
AAXX 01184 42571 21996 20000 10156 20153 40129 70196 82030 333 59020 6021/
AAXX 01184 42398 21595 83403 10155 20153 40155 71062 8353/ 333 59012 6001/
BBXX 9VBS 01184 99221 11142 41597 70719 10180 20127 40220 54000 70222 85/// 22200 00140 2////
BBXX 9MCN8 01184 99321 11329 41698 52822 10126 20035 40150 5//// 70011 8//// 22213 00210 2//// 80085
BBXX A8CI9 01184 99200 30572 41597 30710 10280 20227 40130 52005 70211 83241 22200 04293 20401 80242
BBXX VRAR7 01183 99360 11640 41/98 /3028 10130 20104 40160 52020 76052 8//// 22224 00176 2//// 80115
BBXX A8SZ5 01184 99123 11208 41497 11004 10270 20228 40100 55010 703// 8/1// 22273 00/// 2//01 80240
BBXX 9MGJ9 01184 99170 11198 41398 20319 10/// 20235 40105 58015 70201 821// 22214 00286 2//// 80244
BBXX V7SY6 01184 99207 11201 41697 80530 10240 20226 40320 51010 75055 88/// 22213 00250 20608 305// 40608 80230
BBXX DDGK2 01184 99106 11103 41398 30317 10250 20228 40150 54000 70106 82184 22254 00255 2//// 80234
BBXX VRFH2 01183 99419 11575 41697 80525 10060 21012 40230 54000 7//// 8577/ 22224 00/// 20406 332// 80030
BBXX DGHX 01183 99085 11088 41/98 50320 10255 20227 40130 56005 70222 8//// 22254 00240 2//// 80235
BBXX 9VBS 01184 99221 11142 41597 70719 10180 20127 40220 54000 70222 85/// 22200 00140 2////
BBXX 9MCN8 01184 99321 11329 41698 52822 10126 20035 40150 5//// 70011 8//// 22213 00210 2//// 80085
BBXX A8CI9 01184 99200 30572 41597 30710 10280 20227 40130 52005 70211 83241 22200 04293 20401 80242
BBXX VRAR7 01183 99360 11640 41/98 /3028 10130 20104 40160 52020 76052 8//// 22224 00176 2//// 80115
BBXX A8SZ5 01184 99123 11208 41497 11004 10270 20228 40100 55010 703// 8/1// 22273 00/// 2//01 80240
BBXX 9MGJ9 01184 99170 11198 41398 20319 10/// 20235 40105 58015 70201 821// 22214 00286 2//// 80244
BBXX V7SY6 01184 99207 11201 41697 80530 10240 20226 40320 51010 75055 88/// 22213 00250 20608 305// 40608 80230
BBXX DDGK2 01184 99106 11103 41398 30317 10250 20228 40150 54000 70106 82184 22254 00255 2//// 80234
BBXX VRFH2 01183 99419 11575 41697 80525 10060 21012 40230 54000 7//// 8577/ 22224 00/// 20406 332// 80030
BBXX DGHX 01183 99085 11088 41/98 50320 10255 20227 40130 56005 70222 8//// 22254 00240 2//// 80235
AAXX 01184 88903 45/// /2821 10079 21011 30001 40001 53006
BBXX A8UE5 01184 99494 71276 41197 81355 10080 20033 40105 52010 76166 8779/ 22233 04080 20705 314// 41412 5//// 80060
AAXX 01184 41404 42960 00803 10172 21035 37900 48550 91859 333 10252 59011
AAXX 01184 42189 31995 00000 10138 20127 40151 71000 333 58///
AAXX 01184 42369 21996 02303 10134 20127 40150 70500 333 59014 6050/
AAXX 01184 42379 21595 80904 10150 20117 40129 72162 8652/ 333 59023 6020/ 86625 88458
AAXX 01181 59158 32660 20103 10143 20090 30092 40195 58005 82500
AAXX 01181 59562 32662 83302 10165 20121 30193 40205 57012 885//
AAXX 01181 59567 46/// /0107 10153 20148 39812 40197 57011
AAXX 01181 58968 31558 80904 10147 20086 30223 40231 58006 70522 885//
AAXX 01181 58974 46/// /0307 10136 20063 30121 40248 55004
AAXX 01181 59358 31650 60104 10143 20102 30168 40200 55005 71011 86500
AAXX 01181 59559 32565 50407 10190 20128 30152 40181 57008 82230
AAXX 01181 59792 32460 40408 10191 20155 30189 40194 57006 84400
AAXX 01181 59997 32460 30506 10277 20243 30118 40126 57018 83800
OOXX SEP63 01161 99594 10180 ///// 00401 26/// /3506 10016 29093 39970 91610 333 60000
OOXX SEP63 01161 99594 10180 ///// 00401 26/// /3606 10017 29093 39970 91620 333 60000
OOXX SEP63 01161 99594 10180 ///// 00401 26/// /3606 10017 29093 39970 91630 333 60000
OOXX SEP63 01161 99594 10180 ///// 00401 26/// /0106 10017 29093 39970 91640 333 60000
OOXX SEP63 01161 99594 10180 ///// 00401 26/// /0106 10018 29093 39960 91650 333 60000
OOXX SEP63 01171 99594 10180 ///// 00401 26/// /3505 10018 29093 39960 91700 333 60000
OOXX SEP63 01171 99594 10180 ///// 00401 26/// /0105 10018 29093 39960 91710 333 60000
OOXX SEP63 01171 99594 10180 ///// 00401 26/// /3605 10019 29093 39960 91720 333 60000
OOXX SEP63 01171 99594 10180 ///// 00401 26/// /3505 10020 29094 39960 91730 333 60000
OOXX SEP63 01171 99594 10180 ///// 00401 26/// /0105 10020 29094 39960 91740 333 60000
OOXX SEP63 01171 99594 10180 ///// 00401 26/// /0105 10021 29094 39960 91750 333 60000
OOXX SEP63 01181 99594 10180 ///// 00401 26/// /3605 10022 29094 39960 91800 333 60000
AAXX 01184 42131 31995 30000 10110 20098 40164 70500 80001 333 59023
AAXX 01184 42339 31995 03601 10148 21027 40163 70500 333 59007
AAXX 01184 42348 31994 40000 10146 20135 40157 71000 84030 333 59002 84360
AAXX 01184 42452 32596 80701 10156 20149 40155 8653/ 333 58001
AAXX 01184 42874 21596 60902 10200 10194 40136 70262 82530 333 59018 6005/ 82625 85360
AAXX 01184 43041 21596 80000 10200 20194 39522 40144 72162 8451/ 333 59013 6005/ 84625 88458
BBXX 46215 01181 99352 71209 46/// ///// 1//// 91808 22200 00126 11404 21002 327// 41403 70019
AAXX 01184 91844 46/// /0000 10264 40114 22200 00268
AAXX 01184 42475 21595 80000 10160 20153 40151 70522 86521 333 59007 6036/ 86620 88460
AAXX 01184 42667 31494 73408 10168 20155 39539 40136 71022 85630 333 58003 83715 84620 86360
BBXX PJGO 01184 99571 10022 47/97 /2118 10079 49919 56012 700// 22200
BBXX 63106 01184 99610 10017 46/// /2118 10074 49837 58004 22200
BBXX 63105 01184 99610 10017 47697 ///// 10081 20032 49836 58005 700// 22200
BBXX 62094 01184 99517 70067 46/// /25// 10094 2//// 40008 51015 22200 00105 10606 70031
BBXX 62103 01184 99499 70029 46/98 /2529 10120 20095 40036 53007 22200 00118 10804 70018 333 90710 91136
BBXX VRFH2 01183 99419 11575 41697 80525 10060 21012 40230 54000 7//// 8577/ 22224 00/// 20406 332// 80030
BBXX DGHX 01183 99085 11088 41/98 50320 10255 20227 40130 56005 70222 8//// 22254 00240 2//// 80235
BBXX SHIP 01183 99360 11640 41/98 /3028 10130 20104 40160 52020 76052 8//// 22224 00176 2//// 80115
BBXX 9VBS 01184 99221 11142 41597 70719 10180 20127 40220 54000 70222 85/// 22200 00140 2////
BBXX V7SY6 01184 99207 11201 41697 80530 10240 20226 40320 51010 75055 88/// 22213 00250 20608 305// 40608 80230
BBXX A8SZ5 01184 99123 11208 41497 11004 10270 20228 40100 55010 703// 8/1// 22273 00/// 2//01 80240
BBXX SHIP 01184 99321 11329 41698 52822 10126 20035 40150 5//// 70011 8//// 22213 00210 2//// 80085
BBXX DDGK2 01184 99106 11103 41398 30317 10250 20228 40150 54000 70106 82184 22254 00255 2//// 80234
BBXX SHIP 01184 99170 11198 41398 20319 10/// 20235 40105 58015 70201 821// 22214 00286 2//// 80244
BBXX 46215 01181 99352 71209 46/// ///// 1//// 91808 22200 00126 11404 21002 327// 41403 70019
BBXX PECF 01183 99241 70824 41298 20612 10255 20220 40215 58015 70200 82141 22223 02250 20401 311// 40401 80230
BBXX A8UE5 01184 99494 71276 41197 81355 10080 20033 40105 52010 76166 8779/ 22233 04080 20705 314// 41412 5//// 80060
BBXX WDC8227 01183 99573 71547 41598 30907 1//// 2//// 40021 57/// 70200 82500 22200 04017 20000 331// 4//01 5//// 6//// 8//// ICE /////
BBXX WDE2719 01184 99607 71514 41395 10407 11217 2//// 40080 57/// 71042 81600 22200 05033 20000 3//// 4//00 5//// 6//// 8//// ICE 52006
BBXX KGCJ 01184 99580 71349 41396 83611 10022 2//// 40000 57/// 78086 886// 22272 0//// 20101 3//// 4//00 5//// 6//// 8//// ICE /////
BBXX PHAL 01183 99114 70177 41997 70327 10230 20141 40135 53005 70222 80006 22272 20202 30103 40706 50302 80174 91034
BBXX A8CI9 01184 99200 30572 41597 30710 10280 20227 40130 52005 70211 83241 22200 04293 20401 80242
BBXX V7HP4 01184 99069 70802 41898 20613 10280 20253 40130 56020 7//11 82188 22213 04280 2//// 3//// 4//// 5//// 6//// 80260 ICE /////
BBXX BSH02 01181 99542 10079 46/// ///// 22200 00068 20703 70013
BBXX BSH03 01181 99540 10081 46/// ///// 22200 00063 20702 70011
BBXX BSH05 01181 99549 10082 46/// ///// 22200 22012 70058
BBXX PEBT 01183 99559 10160 41/94 /2122 10068 20022 40040 54000 75554 8//// 22253 02040 20502 319// 40703 5//// 80047
OOXX RUP54 01161 99586 10494 ///// 01271 26/// /0602 11078 29089 30056 91627 333 60120
OOXX RUP54 01161 99586 10494 ///// 01271 26/// /0402 11080 29089 30056 91637 333 60120
OOXX RUP54 01161 99586 10494 ///// 01271 26/// /0803 11081 29090 30056 91647 333 60120
OOXX RUP54 01161 99586 10494 ///// 01271 26/// /0603 11080 29090 30056 91657 333 60120
OOXX RUP54 01171 99586 10494 ///// 01271 26/// /0703 11079 29090 30057 91707 333 60120
OOXX RUP54 01171 99586 10494 ///// 01271 26/// /0502 11078 29090 30058 91717 333 60120
OOXX RUP54 01171 99586 10494 ///// 01271 26/// /0603 11077 29089 30058 91727 333 60120
OOXX RUP54 01171 99586 10494 ///// 01271 26/// /0403 11076 29089 30058 91737 333 60120
OOXX RUP54 01171 99586 10494 ///// 01271 26/// /0403 11075 29089 30058 91747 333 60120
OOXX RUP54 01171 99586 10494 ///// 01271 26/// /0503 11075 29089 30058 91757 333 60120
OOXX RUP54 01181 99586 10494 ///// 01271 26/// /3602 11075 29089 30058 91807 333 60120
OOXX RUP54 01181 99586 10494 ///// 01271 26/// /0502 11075 29089 30058 91817 333 60120
OOXX AUP09 01161 99124 31309 ///// 00321 26/// ///// 1//// 29/// 3//// 91618 333 6///0
OOXX AUP09 01161 99124 31309 ///// 00321 26/// ///// 1//// 29/// 3//// 91628 333 6///0
OOXX AUP09 01161 99124 31309 ///// 00321 26/// ///// 1//// 29/// 3//// 91638 333 6///0
OOXX AUP09 01161 99124 31309 ///// 00321 26/// ///// 1//// 29/// 3//// 91648 333 6///0
OOXX AUP09 01161 99124 31309 ///// 00321 26/// ///// 1//// 29/// 3//// 91658 333 6///0
OOXX AUP09 01171 99124 31309 ///// 00321 26/// ///// 1//// 29/// 3//// 91708 333 6///0
OOXX AUP09 01171 99124 31309 ///// 00321 26/// ///// 1//// 29/// 3//// 91718 333 6///0
OOXX AUP09 01171 99124 31309 ///// 00321 26/// ///// 1//// 29/// 3//// 91728 333 6///0
OOXX AUP09 01171 99124 31309 ///// 00321 26/// ///// 1//// 29/// 3//// 91738 333 6///0
OOXX AUP09 01171 99124 31309 ///// 00321 26/// ///// 1//// 29/// 3//// 91748 333 6///0
OOXX AUP09 01171 99124 31309 ///// 00321 26/// ///// 1//// 29/// 3//// 91758 333 6///0
OOXX AUP09 01181 99124 31309 ///// 00321 26/// ///// 1//// 29/// 3//// 91808 333 6///0
OOXX ISP34 01161 99641 70219 ///// 01301 26/// /1604 10003 29001 39552 91610 333 6///0
OOXX ISP34 01161 99641 70219 ///// 01301 26/// /1504 10004 29001 39552 91620 333 6///0
OOXX ISP34 01161 99641 70219 ///// 01301 26/// /1504 10002 29001 39552 91630 333 6///0
OOXX ISP34 01161 99641 70219 ///// 01301 26/// /1103 10001 29001 39552 91640 333 6///0
OOXX ISP34 01161 99641 70219 ///// 01301 26/// /1203 10000 29001 39551 91650 333 6///0
OOXX ISP34 01171 99641 70219 ///// 01301 26/// /1403 10001 29001 39551 91700 333 6///0
OOXX ISP34 01171 99641 70219 ///// 01301 26/// /1403 10001 29001 39551 91710 333 6///0
OOXX ISP34 01171 99641 70219 ///// 01301 26/// /1503 10000 29001 39551 91720 333 6///0
OOXX ISP34 01171 99641 70219 ///// 01301 26/// /1503 11001 29001 39551 91730 333 6///0
OOXX ISP34 01171 99641 70219 ///// 01301 26/// /1504 11001 29001 39551 91740 333 6///0
OOXX ISP34 01171 99641 70219 ///// 01301 26/// /1404 11002 29001 39551 91750 333 6///0
OOXX ISP34 01181 99641 70219 ///// 01301 26/// /1404 11002 29001 39552 91800 333 6///0
OOXX ARP03 01161 99412 50712 ///// 08491 26/// /2802 10248 29022 39227 91610 333 60000
OOXX ARP03 01161 99412 50712 ///// 08491 26/// /2602 10259 29019 39226 91620 333 60000
OOXX ARP03 01161 99412 50712 ///// 08491 26/// /2502 10251 29020 39223 91630 333 60000
OOXX ARP03 01161 99412 50712 ///// 08491 26/// /2402 10258 29018 39225 91640 333 60000
OOXX ARP03 01161 99412 50712 ///// 08491 26/// /2502 10262 29018 39225 91650 333 60000
OOXX ARP03 01171 99412 50712 ///// 08491 26/// /2602 10262 29018 39225 91700 333 60000
OOXX ARP03 01171 99412 50712 ///// 08491 26/// /2602 10266 29017 39222 91710 333 60000
OOXX ARP03 01171 99412 50712 ///// 08491 26/// /2502 10262 29018 39221 91720 333 60000
OOXX ARP03 01171 99412 50712 ///// 08491 26/// /2502 10265 29016 39220 91730 333 60000
OOXX ARP03 01171 99412 50712 ///// 08491 26/// /2602 10268 29017 39222 91740 333 60000
OOXX ARP03 01171 99412 50712 ///// 08491 26/// /2602 10273 29017 39220 91750 333 60000
OOXX ARP03 01181 99412 50712 ///// 08491 26/// /2702 10268 29017 39218 91800 333 60000
OOXX KIP39 01161 99020 51574 ///// 00181 26/// /1005 10246 29096 30112 91630 333 60000
OOXX KIP39 01161 99020 51574 ///// 00181 26/// /1203 10244 29096 30115 91640 333 60000
OOXX KIP39 01161 99020 51574 ///// 00181 26/// /1203 10246 29096 30115 91650 333 60000
OOXX KIP39 01171 99020 51574 ///// 00181 26/// /1203 10248 29095 30117 91700 333 60000
OOXX KIP39 01171 99020 51574 ///// 00181 26/// /1102 10250 29095 30118 91710 333 60000
OOXX KIP39 01171 99020 51574 ///// 00181 26/// /1103 10250 29095 30121 91720 333 60000
OOXX KIP39 01171 99020 51574 ///// 00181 26/// /1103 10250 29095 30120 91730 333 60000
OOXX KIP39 01171 99020 51574 ///// 00181 26/// /1103 10253 29095 30122 91740 333 60000
OOXX KIP39 01171 99020 51574 ///// 00181 26/// /1203 10250 29093 30124 91750 333 60000
OOXX KIP39 01181 99020 51574 ///// 00181 26/// /1203 10253 29093 30124 91800 333 60000
OOXX KIP39 01181 99020 51574 ///// 00181 26/// /1204 10256 29092 30126 91810 333 60000
OOXX KIP39 01181 99020 51574 ///// 00181 26/// /1105 10255 29088 30127 91820 333 60000
OOXX RUP58 01161 99442 11320 ///// 01121 26/// /2101 11225 29077 30117 91652 333 60000
OOXX RUP58 01171 99442 11320 ///// 01121 26/// /3101 11221 29079 30119 91702 333 60000
OOXX RUP58 01171 99442 11320 ///// 01121 26/// /2301 11219 29078 30120 91712 333 60000
OOXX RUP58 01171 99442 11320 ///// 01121 26/// /3001 11222 29078 30119 91722 333 60000
OOXX RUP58 01171 99442 11320 ///// 01121 26/// /1902 11215 29080 30119 91732 333 60000
OOXX RUP58 01171 99442 11320 ///// 01121 26/// /1201 11211 29076 30120 91742 333 60000
OOXX RUP58 01171 99442 11320 ///// 01121 26/// /0102 11218 29075 30120 91752 333 60000
OOXX RUP58 01181 99442 11320 ///// 01121 26/// /3602 11220 29076 30121 91802 333 60000
OOXX RUP58 01181 99442 11320 ///// 01121 26/// /1101 11228 29077 30119 91812 333 60000
OOXX RUP58 01181 99442 11320 ///// 01121 26/// /1801 11221 29079 30119 91822 333 60000
OOXX RUP58 01181 99442 11320 ///// 01121 26/// /2001 11223 29078 30119 91832 333 60000
OOXX RUP58 01181 99442 11320 ///// 01121 26/// /3301 11220 29079 30118 91842 333 60000
OOXX ARP01 01161 99345 50585 ///// 00311 26/// /1101 10115 29033 30140 91610 333 60000
OOXX ARP01 01161 99345 50585 ///// 00311 26/// /0000 10115 29034 30139 91620 333 60000
OOXX ARP01 01161 99345 50585 ///// 00311 26/// /0000 10116 29033 30139 91630 333 60000
OOXX ARP01 01161 99345 50585 ///// 00311 26/// /0000 10117 29033 30139 91640 333 60000
OOXX ARP01 01161 99345 50585 ///// 00311 26/// /0000 10119 29033 30138 91650 333 60000
OOXX ARP01 01171 99345 50585 ///// 00311 26/// /0000 10120 29033 30138 91700 333 60000
OOXX ARP01 01171 99345 50585 ///// 00311 26/// /0000 10120 29033 30137 91710 333 60000
OOXX ARP01 01171 99345 50585 ///// 00311 26/// /0000 10120 29032 30137 91720 333 60000
OOXX ARP01 01171 99345 50585 ///// 00311 26/// /0000 10123 29032 30136 91730 333 60000
OOXX ARP01 01171 99345 50585 ///// 00311 26/// /0000 10125 29032 30136 91740 333 60000
OOXX ARP01 01171 99345 50585 ///// 00311 26/// /0000 10126 29032 30134 91750 333 60000
OOXX ARP01 01181 99345 50585 ///// 00311 26/// /0000 10127 29032 30134 91800 333 60000
OOXX RUP60 01161 99531 11588 ///// 00651 26/// /3302 11193 29078 30116 91652 333 60000
OOXX RUP60 01171 99531 11588 ///// 00651 26/// /3203 11190 29081 30117 91702 333 60000
OOXX RUP60 01171 99531 11588 ///// 00651 26/// /3204 11190 29079 30118 91712 333 60000
OOXX RUP60 01171 99531 11588 ///// 00651 26/// /0307 11179 29082 30118 91722 333 60000
OOXX RUP60 01171 99531 11588 ///// 00651 26/// /3201 11185 29079 30119 91732 333 60000
OOXX RUP60 01171 99531 11588 ///// 00651 26/// /2901 11188 29077 30118 91742 333 60000
OOXX RUP60 01171 99531 11588 ///// 00651 26/// /3306 11189 29078 30118 91752 333 60000
OOXX RUP60 01181 99531 11588 ///// 00651 26/// /3203 11193 29077 30118 91802 333 60000
OOXX RUP60 01181 99531 11588 ///// 00651 26/// /2901 11189 29078 30119 91812 333 60000
OOXX RUP60 01181 99531 11588 ///// 00651 26/// /3504 11184 29080 30119 91822 333 60000
OOXX RUP60 01181 99531 11588 ///// 00651 26/// /3104 11172 29078 30119 91832 333 60000
OOXX RUP60 01181 99531 11588 ///// 00651 26/// /3405 11145 29071 30119 91842 333 60000
OOXX NOP49 01161 99782 10154 ///// 04691 26/// /1109 11045 29086 39426 91610 333 6///0
OOXX NOP49 01161 99782 10154 ///// 04691 26/// /1009 11045 29087 39425 91620 333 6///0
OOXX NOP49 01161 99782 10154 ///// 04691 26/// /1010 11046 29087 39424 91630 333 6///0
OOXX NOP49 01161 99782 10154 ///// 04691 26/// /1008 11045 29087 39423 91640 333 6///0
OOXX NOP49 01161 99782 10154 ///// 04691 26/// /1010 11049 29090 39422 91650 333 6///0
OOXX NOP49 01171 99782 10154 ///// 04691 26/// /1010 11048 29091 39421 91700 333 6///0
OOXX NOP49 01171 99782 10154 ///// 04691 26/// /1010 11045 29090 39421 91710 333 6///0
OOXX NOP49 01171 99782 10154 ///// 04691 26/// /1009 11045 29089 39417 91720 333 6///0
OOXX NOP49 01171 99782 10154 ///// 04691 26/// /1012 11045 29089 39418 91730 333 6///0
OOXX NOP49 01171 99782 10154 ///// 04691 26/// /1112 11046 29091 39413 91740 333 6///0
OOXX NOP49 01171 99782 10154 ///// 04691 26/// /1013 11045 29091 39411 91750 333 6///0
OOXX NOP49 01181 99782 10154 ///// 04691 26/// /1113 11044 29090 39411 91800 333 6///0
OOXX FRP29 01161 99210 30556 ///// 00751 26/// /2303 10281 29077 39839 91607 333 60000
OOXX FRP29 01161 99210 30556 ///// 00751 26/// /2403 10283 29075 39840 91617 333 60000
OOXX FRP29 01161 99210 30556 ///// 00751 26/// /2502 10283 29075 39841 91627 333 60000
OOXX FRP29 01161 99210 30556 ///// 00751 26/// /2503 10283 29077 39841 91637 333 60000
OOXX FRP29 01161 99210 30556 ///// 00751 26/// /2503 10283 29077 39843 91647 333 60000
OOXX FRP29 01161 99210 30556 ///// 00751 26/// /2503 10282 29077 39843 91657 333 60000
OOXX FRP29 01171 99210 30556 ///// 00751 26/// /2502 10281 29077 39841 91707 333 60000
OOXX FRP29 01171 99210 30556 ///// 00751 26/// /2603 10282 29077 39842 91717 333 60000
OOXX FRP29 01171 99210 30556 ///// 00751 26/// /2503 10281 29077 39846 91727 333 60000
OOXX FRP29 01171 99210 30556 ///// 00751 26/// /2503 10280 29078 39846 91737 333 60000
OOXX FRP29 01171 99210 30556 ///// 00751 26/// /2502 10279 29078 39849 91747 333 60000
OOXX FRP29 01171 99210 30556 ///// 00751 26/// /2402 10279 29078 39847 91757 333 60000
OOXX FJP26 01161 99178 31775 ///// 00311 26/// /1001 10251 29094 30039 91620 333 60000
OOXX FJP26 01161 99178 31775 ///// 00311 26/// /1401 10251 29094 30040 91630 333 60000
OOXX FJP26 01161 99178 31775 ///// 00311 26/// /1401 10251 29093 30041 91640 333 60000
OOXX FJP26 01161 99178 31775 ///// 00311 26/// /1201 10251 29093 30041 91650 333 60000
OOXX FJP26 01171 99178 31775 ///// 00311 26/// /1301 10251 29093 30043 91700 333 60000
OOXX FJP26 01171 99178 31775 ///// 00311 26/// /1401 10252 29092 30044 91710 333 60000
OOXX FJP26 01171 99178 31775 ///// 00311 26/// /1501 10252 29092 30045 91720 333 60000
OOXX FJP26 01171 99178 31775 ///// 00311 26/// /1501 10252 29092 30048 91730 333 60000
OOXX FJP26 01171 99178 31775 ///// 00311 26/// /1501 10253 29090 30049 91740 333 60000
OOXX FJP26 01171 99178 31775 ///// 00311 26/// /0801 10254 29091 30049 91750 333 60000
OOXX FJP26 01181 99178 31775 ///// 00311 26/// /1301 10254 29091 30050 91800 333 60000
OOXX FJP26 01181 99178 31775 ///// 00311 26/// /1301 10254 29091 30050 91810 333 60000
OOXX AUP07 01161 99/// ///// ///// ///// 26/// /2406 10034 29082 30078 91650 333 60000
OOXX AUP07 01171 99/// ///// ///// ///// 26/// /2407 10035 29082 30079 91700 333 60000
OOXX AUP07 01171 99/// ///// ///// ///// 26/// /2409 10035 29079 30080 91710 333 60000
OOXX AUP07 01171 99/// ///// ///// ///// 26/// /2410 10037 29077 30080 91720 333 60000
OOXX AUP07 01171 99/// ///// ///// ///// 26/// /2411 10037 29076 30081 91730 333 60000
OOXX AUP07 01171 99/// ///// ///// ///// 26/// /2411 10035 29082 30084 91740 333 60000
OOXX AUP07 01171 99/// ///// ///// ///// 26/// /2410 10034 29083 30085 91750 333 60000
OOXX AUP07 01181 99/// ///// ///// ///// 26/// /2409 10037 29079 30084 91800 333 60000
OOXX AUP07 01181 99/// ///// ///// ///// 26/// /2410 10039 29077 30086 91810 333 60000
OOXX AUP07 01181 99/// ///// ///// ///// 26/// /2409 10039 29080 30088 91820 333 60000
OOXX AUP07 01181 99/// ///// ///// ///// 26/// /2409 10038 29082 30088 91830 333 60000
OOXX AUP07 01181 99/// ///// ///// ///// 26/// /2410 10038 29084 30090 91840 333 69920
OOXX MYP42 01161 99045 11014 ///// 15551 26/// /0503 10172 29093 38445 91614 333 60000
OOXX MYP42 01161 99045 11014 ///// 15551 26/// /0101 10175 29093 38442 91624 333 60000
OOXX MYP42 01161 99045 11014 ///// 15551 26/// /1002 10174 29094 38442 91634 333 60000
OOXX MYP42 01161 99045 11014 ///// 15551 26/// /0404 10171 29094 38445 91644 333 60000
OOXX MYP42 01161 99045 11014 ///// 15551 26/// /3603 10173 29094 38449 91654 333 60000
OOXX MYP42 01171 99045 11014 ///// 15551 26/// /0402 10177 29094 38445 91704 333 60000
OOXX MYP42 01171 99045 11014 ///// 15551 26/// /0601 10174 29093 38447 91714 333 60000
OOXX MYP42 01171 99045 11014 ///// 15551 26/// /0903 10172 29093 38451 91724 333 60000
OOXX MYP42 01171 99045 11014 ///// 15551 26/// /0602 10175 29093 38438 91734 333 60000
OOXX MYP42 01171 99045 11014 ///// 15551 26/// /0702 10174 29094 38445 91744 333 60000
OOXX MYP42 01171 99045 11014 ///// 15551 26/// /1001 10175 29094 38438 91754 333 60000
OOXX MYP42 01181 99045 11014 ///// 15551 26/// /0301 10174 29094 38438 91804 333 60000
OOXX NZP46 01161 99438 51765 ///// 00221 26/// /3306 10158 29/// 39975 91630 333 60000
OOXX NZP46 01161 99438 51765 ///// 00221 26/// /3306 10160 29/// 39974 91640 333 60000
OOXX NZP46 01161 99438 51765 ///// 00221 26/// /3307 10162 29/// 39974 91650 333 60000
OOXX NZP46 01171 99438 51765 ///// 00221 26/// /3307 10161 29/// 39973 91700 333 60000
OOXX NZP46 01171 99438 51765 ///// 00221 26/// /3407 10162 29/// 39972 91710 333 60000
OOXX NZP46 01171 99438 51765 ///// 00221 26/// /3306 10162 29/// 39971 91720 333 60000
OOXX NZP46 01171 99438 51765 ///// 00221 26/// /3306 10162 29/// 39970 91730 333 60000
OOXX NZP46 01171 99438 51765 ///// 00221 26/// /3305 10163 29/// 39969 91740 333 60000
OOXX NZP46 01171 99438 51765 ///// 00221 26/// /3406 10163 29/// 39968 91750 333 60000
OOXX NZP46 01181 99438 51765 ///// 00221 26/// /3406 10161 29/// 39968 91800 333 60000
OOXX NZP46 01181 99438 51765 ///// 00221 26/// /3406 10160 29/// 39968 91810 333 60000
OOXX NZP46 01181 99438 51765 ///// 00221 26/// /3307 10162 29/// 39969 91820 333 60020
OOXX CAP14 01161 99487 71234 ///// 00431 26/// /3202 10035 29082 30188 91640 333 60000
OOXX CAP14 01161 99487 71234 ///// 00431 26/// /3101 10034 29082 30192 91650 333 60000
OOXX CAP14 01171 99487 71234 ///// 00431 26/// /2702 10035 29082 30193 91700 333 60000
OOXX CAP14 01171 99487 71234 ///// 00431 26/// /2902 10037 29082 30189 91710 333 60000
OOXX CAP14 01171 99487 71234 ///// 00431 26/// /2901 10037 29082 30191 91720 333 60000
OOXX CAP14 01171 99487 71234 ///// 00431 26/// /2801 10037 29081 30189 91730 333 60000
OOXX CAP14 01171 99487 71234 ///// 00431 26/// /3101 10039 29079 30190 91740 333 60000
OOXX CAP14 01171 99487 71234 ///// 00431 26/// /2902 10040 29079 30193 91750 333 60000
OOXX CAP14 01181 99487 71234 ///// 00431 26/// /3002 10039 29081 30191 91800 333 60000
OOXX CAP14 01181 99487 71234 ///// 00431 26/// /2802 10043 29081 30192 91810 333 60000
OOXX CAP14 01181 99487 71234 ///// 00431 26/// /2802 10045 29079 30191 91820 333 60000
OOXX CAP14 01181 99487 71234 ///// 00431 26/// /3202 10045 29076 30191 91830 333 60000
OOXX FRP31 01161 99052 70527 ///// 00091 26/// /0409 10270 29079 30215 91614 333 60000
OOXX FRP31 01161 99052 70527 ///// 00091 26/// /0409 10271 29080 30213 91624 333 60000
OOXX FRP31 01161 99052 70527 ///// 00091 26/// /0408 10273 29079 30214 91634 333 60000
OOXX FRP31 01161 99052 70527 ///// 00091 26/// /0408 10275 29078 30209 91644 333 60000
OOXX FRP31 01161 99052 70527 ///// 00091 26/// /0408 10269 29079 30208 91654 333 60000
OOXX FRP31 01171 99052 70527 ///// 00091 26/// /0408 10278 29074 30206 91704 333 60000
OOXX FRP31 01171 99052 70527 ///// 00091 26/// /0510 10276 29074 30206 91714 333 60000
OOXX FRP31 01171 99052 70527 ///// 00091 26/// /0510 10253 29085 30208 91724 333 60000
OOXX FRP31 01171 99052 70527 ///// 00091 26/// /0611 10242 29088 30208 91734 333 60000
OOXX FRP31 01171 99052 70527 ///// 00091 26/// /0608 10238 29090 30205 91744 333 60000
OOXX FRP31 01171 99052 70527 ///// 00091 26/// /0506 10236 29093 30203 91754 333 69940
OOXX FRP31 01181 99052 70527 ///// 00091 26/// /0505 10239 29093 30202 91804 333 69920
OOXX GBP67 01161 99159 50057 ///// 04381 26/// /0801 10194 29071 39664 91610 333 60000
OOXX GBP67 01161 99159 50057 ///// 04381 26/// /0902 10193 29074 39665 91620 333 60000
OOXX GBP67 01161 99159 50057 ///// 04381 26/// /0702 10188 29078 39665 91630 333 60000
OOXX GBP67 01161 99159 50057 ///// 04381 26/// /0702 10184 29082 39665 91640 333 60000
OOXX GBP67 01161 99159 50057 ///// 04381 26/// /0803 10182 29083 39667 91650 333 60000
OOXX GBP67 01171 99159 50057 ///// 04381 26/// /0803 10181 29082 39668 91700 333 60000
OOXX GBP67 01171 99159 50057 ///// 04381 26/// /0802 10182 29083 39669 91710 333 60000
OOXX GBP67 01171 99159 50057 ///// 04381 26/// /0702 10182 29083 39670 91720 333 60000
OOXX GBP67 01171 99159 50057 ///// 04381 26/// /0803 10177 29085 39671 91730 333 60000
OOXX GBP67 01171 99159 50057 ///// 04381 26/// /0903 10175 29085 39673 91740 333 60000
OOXX GBP67 01171 99159 50057 ///// 04381 26/// /0702 10175 29086 39672 91750 333 60000
OOXX GBP67 01181 99159 50057 ///// 04381 26/// /0802 10174 29086 39673 91800 333 60000
OOXX RUP59 01161 99539 10848 ///// 02121 26/// /0000 11212 29079 30107 91650 333 60000
OOXX RUP59 01171 99539 10848 ///// 02121 26/// /0000 11215 29078 30106 91700 333 60000
OOXX RUP59 01171 99539 10848 ///// 02121 26/// /0000 11214 29079 30105 91710 333 60000
OOXX RUP59 01171 99539 10848 ///// 02121 26/// /0000 11217 29078 30105 91720 333 60000
OOXX RUP59 01171 99539 10848 ///// 02121 26/// /0000 11221 29077 30103 91730 333 60000
OOXX RUP59 01171 99539 10848 ///// 02121 26/// /0000 11220 29079 30103 91740 333 60000
OOXX RUP59 01171 99539 10848 ///// 02121 26/// /0000 11221 29078 30101 91750 333 60000
OOXX RUP59 01181 99539 10848 ///// 02121 26/// /0000 11223 29077 30101 91800 333 60000
OOXX RUP59 01181 99539 10848 ///// 02121 26/// /0000 11227 29076 30100 91810 333 60000
OOXX RUP59 01181 99539 10848 ///// 02121 26/// /0000 11231 29077 30097 91820 333 60000
OOXX RUP59 01181 99539 10848 ///// 02121 26/// /0000 11234 29076 30098 91830 333 60000
OOXX RUP59 01181 99539 10848 ///// 02121 26/// /0000 11231 29077 30097 91840 333 60000
OOXX AUP04 01171 99377 31451 ///// 00311 26/// /3301 10186 29087 30057 91708 333 60000
OOXX AUP04 01171 99377 31451 ///// 00311 26/// /3201 10187 29087 30058 91718 333 60000
OOXX AUP04 01171 99377 31451 ///// 00311 26/// /3201 10185 29087 30057 91728 333 60000
OOXX AUP04 01171 99377 31451 ///// 00311 26/// /3501 10187 29087 30057 91738 333 60000
OOXX AUP04 01171 99377 31451 ///// 00311 26/// /3201 10185 29087 30058 91748 333 60000
OOXX AUP04 01171 99377 31451 ///// 00311 26/// /3301 10184 29089 30057 91758 333 60000
OOXX AUP04 01181 99377 31451 ///// 00311 26/// /3301 10185 29088 30059 91808 333 60000
OOXX AUP04 01181 99377 31451 ///// 00311 26/// /2701 10184 29088 30057 91818 333 60000
OOXX AUP04 01181 99377 31451 ///// 00311 26/// /3401 10184 29088 30058 91828 333 60000
OOXX AUP04 01181 99377 31451 ///// 00311 26/// /3201 10183 29088 30059 91838 333 60000
OOXX AUP04 01181 99377 31451 ///// 00311 26/// /3401 10182 29087 30061 91848 333 60000
OOXX AUP04 01181 99377 31451 ///// 00311 26/// /3301 10178 29088 30061 91858 333 60000
AAXX 01184 91559 46/// /0000 10255 40050 22200 00287
AAXX 01184 71734 17/// /1308 11029 21034 39604 49995 56062 60011 7//4/ 333 11029 21095 70010
AAXX 01184 71425 17/// /3403 11024 21048 30106 40143 55007 60011 7//4/ 333 11022 21043 70080
AAXX 01184 71376 16/// /1103 11003 21011 39793 40087 58059 60001 333 11003 21017 70000
AAXX 01184 71611 16/// /0702 10010 21004 60001 333 10011 21016 70000
AAXX 01184 71612 16/// /1002 10002 21012 30018 40109 58054 60001 333 10002 21034 70000
AAXX 01184 71619 16/// /3006 11009 21033 30069 40127 55007 60001 333 11005 21045 70091
BBXX A8CI9 01184 99200 30572 41597 30710 10280 20227 40130 52005 70211 83241 22200 04293 20401 80242
AAXX 01184 91531 46/// /0404 1//// 40056 22200 00257
AAXX 01184 89528 46/// /1108 11202 4//// 5////
AAXX 01184 89628 46/// /3121 11202 36859 4//// 5////
AAXX 01181 63333 42980 00000 10156 21007 38193 40225 333 10274 59011
AAXX 01181 63340 42980 03601 10180 20026 37960 40186 333 10276 58000
AAXX 01181 63402 NIL
AAXX 01181 63450 42980 00706 10160 20034 37760 40152 333 10250 59005
AAXX 01181 63451 42980 0//// 1//// 2//// 38164 4//// 333 10275 59007
AAXX 01181 63471 NIL
AAXX 01181
AAXX 01184 67002 11580 33604 10277 20246 30098 40131 60012 70360 81802 333 10329 59010 81822 83630 92408
AAXX 01184 67009 NIL
AAXX 01184 67012 NIL
AAXX 01184 67025 NIL
AAXX 01184 67027 11470 73012 10286 20261 30086 40107 52010 69902 70162 83832 333 10313 82817 84073 555 82640 81360
AAXX 01184 67072 NIL
AAXX 01184 67073 NIL
AAXX 01184 67083 31470 70000 10203 20185 38743 48519 72999 879// 333 10291 81817 83620 94979 95839
AAXX 01184 67095 32475 60000 10275 20248 30110 40116 51009 84960 333 10320 81917 83817 83633 83360 94965 95835
AAXX 01184 67113 NIL
AAXX 01184 67137 NIL
AAXX 01184 67157 NIL
AAXX 01184 67197 11430 70810 10233 20228 30112 40122 51008 60042 76162 878// 333 10272 83817
AAXX 01181 63333 42980 00000 10156 21007 38193 40225 333 10274 59011
AAXX 01181 63340 42980 03601 10180 20026 37960 40186 333 10276 58000
AAXX 01181 63402 NIL
AAXX 01181 63450 42980 00706 10160 20034 37760 40152 333 10250 59005
AAXX 01181 63451 42980 0//// 1//// 2//// 38164 4//// 333 10275 59007
AAXX 01181 63471 NIL
AAXX 01183 64800 NIL
AAXX 01183 64820 NIL
AAXX 01183 64860 31957 70000 10278 20096 39850 40121 70522 80002 333 10331 58028 87080
AAXX 01183 64861 NIL
AAXX 01183 64870 31945 70602 10194 20064 38924 48515 70522 80002 333 10290 58008 87080
AAXX 01183 64871 NIL
AAXX 01183 64892 NIL
AAXX 01183 64893 NIL
AAXX 01183 64894 NIL
AAXX 01183 64910 32460 72206 10275 20247 30106 40115 85302 333 10325 58005 85616 82920 87080 94945 95835
AAXX 01183 64911 NIL
AAXX 01183 64950 NIL
AAXX 01184 61017 32960 50000 10174 20027 39778 40196 80002 333 10256 58014 85080
AAXX 01184 61024 32960 61214 10220 21080 39593 40166 80002 333 10279 58006 86080
AAXX 01184 61036 31958 70000 10280 20035 39897 40137 7052/ 80008 333 10312 58006 87280
AAXX 01184 61043 32960 70608 10265 21074 39701 40144 80008 333 10306 58016 87280
AAXX 01184 61045 31947 70402 10222 21035 39656 40161 7062/ 80008 333 10280 58003 87280
AAXX 01184 61049 32960 70804 10250 21015 39823 40145 80008 333 10294 58005 87280
AAXX 01184 61052 31930 70408 10285 21017 39883 40140 70622 80008 333 10315 58015 87280
AAXX 01184 61075 31958 71002 10270 21005 39825 40135 70622 80002 333 10320 58009 87280
AAXX 01184 61080 31956 70804 10240 20026 39731 40156 70622 80008 333 10297 58016 87280
AAXX 01184 61090 32965 70408 10240 21050 39644 40160 80008 333 10280 58024 87280
AAXX 01184 61091 32960 70000 10242 20087 39703 40165 80008 333 10285 59007 87280
AAXX 01184 61096 31958 73602 10246 21020 39768 40153 70522 80008 333 10298 58006 87280
AAXX 01184 61099 32960 70210 10295 20038 39889 40117 80008 333 10340 58010 87280
AAXX 01184
AAXX 01184 63932 32580 40000 10180 20150 38315 48514 82900 333 10235 58007 84820 81924
AAXX 01184 61017 32960 50000 10174 20027 39778 40196 80002 333 10256 58014 85080
AAXX 01184 61024 32960 61214 10220 21080 39593 40166 80002 333 10279 58006 86080
AAXX 01184 61036 31958 70000 10280 20035 39897 40137 7052/ 80008 333 10312 58006 87280
AAXX 01184 61043 32960 70608 10265 21074 39701 40144 80008 333 10306 58016 87280
AAXX 01184 61045 31947 70402 10222 21035 39656 40161 7062/ 80008 333 10280 58003 87280
AAXX 01184 61049 32960 70804 10250 21015 39823 40145 80008 333 10294 58005 87280
AAXX 01184 61052 31930 70408 10285 21017 39883 40140 70622 80008 333 10315 58015 87280
AAXX 01184 61075 31958 71002 10270 21005 39825 40135 70622 80002 333 10320 58009 87280
AAXX 01184 61080 31956 70804 10240 20026 39731 40156 70622 80008 333 10297 58016 87280
AAXX 01184 61090 32965 70408 10240 21050 39644 40160 80008 333 10280 58024 87280
AAXX 01184 61091 32960 70000 10242 20087 39703 40165 80008 333 10285 59007 87280
AAXX 01184 61096 31958 73602 10246 21020 39768 40153 70522 80008 333 10298 58006 87280
AAXX 01184 61099 32960 70210 10295 20038 39889 40117 80008 333 10340 58010 87280
BBXX 9V7645 01184 99338 71232 416// 39903 10120 20083 40210 54/// 70000 83183 22274 00140 20303 33232 40302 50202 6//// 80100 ICE /////
BBXX A8UE5 01184 99494 71276 41197 81355 10080 20033 40105 52010 76166 8779/ 22233 04080 20705 314// 41412 5//// 80060
BBXX KGCJ 01184 99580 71349 41396 83611 10022 2//// 40000 57/// 78086 886// 22272 0//// 20101 3//// 4//00 5//// 6//// 8//// ICE /////
BBXX WDC8227 01183 99573 71547 41598 30907 1//// 2//// 40021 57/// 70200 82500 22200 04017 20000 331// 4//01 5//// 6//// 8//// ICE /////
AAXX 01184 60402 12960 00000 10110 20096 40281 53010 60002 333 10193 95990
AAXX 01184 60402 12960 00000 10110 20096 40281 53010 60002 333 10193 95990
AAXX 0118/ 89667 46/// ///// 11036 39854 4//// 5//// 91840
AAXX 01184 71016 16/// ///// 11008 60001 333 11008 21099 70000
BBXX 46109 01181 99481 71234 46/// /1801 10053 40241 91757 22200 00079
BBXX 44055 01181 99391 70753 46/// ///// 1//// 91830 22200 00080 10301 70006
AAXX 01184 91642 46/// /0000 1//// 40067 22200 0////
BBXX 44056 01181 99362 70757 46/// ///// 1//// 91820 22200 00124 10601 20601 70005
AAXX 01184 67002 11580 33604 10277 20246 30098 40131 60012 70360 81802 333 10329 59010 81822 83630 92408
AAXX 01184 67009 NIL
AAXX 01184 67012 NIL
AAXX 01184 67025 NIL
AAXX 01184 67027 11470 73012 10286 20261 30086 40107 52010 69902 70162 83832 333 10313 82817 84073 555 82640 81360
AAXX 01184 67072 NIL
AAXX 01184 67073 NIL
AAXX 01184 67083 31470 70000 10203 20185 38743 48519 72999 879// 333 10291 81817 83620 94979 95839
AAXX 01184 67095 32475 60000 10275 20248 30110 40116 51009 84960 333 10320 81917 83817 83633 83360 94965 95835
AAXX 01184 67113 NIL
AAXX 01184 67137 NIL
AAXX 01184 67157 NIL
AAXX 01184 67197 11430 70810 10233 20228 30112 40122 51008 60042 76162 878// 333 10272 83817
BBXX 42044 01181 99262 70971 46/// /0506 10169 20116 40267 91830 22200 00169 333 91211
BBXX 42044 01181 99262 70971 46/// /0305 10167 20125 40267 91800 22200 00169 333 91211
BBXX 42045 01181 99262 70965 46/// /0307 10180 40253 91830 22200 00207 333 91210
BBXX 42045 01181 99262 70965 46/// /0507 10182 40256 54000 91800 22200 00206 333 91210
BBXX SHIP 01183 99360 11640 41/98 /3028 10130 20104 40160 52020 76052 8//// 22224 00176 2//// 80115
BBXX VRAR7 01183 99360 11640 41/98 /3028 10130 20104 40160 52020 76052 8//// 22224 00176 2//// 80115
BBXX VRFH2 01183 99419 11575 41697 80525 10060 21012 40230 54000 7//// 8577/ 22224 00/// 20406 332// 80030
BBXX 9MCN8 01184 99321 11329 41698 52822 10126 20035 40150 5//// 70011 8//// 22213 00210 2//// 80085
BBXX SHIP 01184 99321 11329 41698 52822 10126 20035 40150 5//// 70011 8//// 22213 00210 2//// 80085
AAXX 01184 91348 31474 80806 10267 20241 30034 40086 55000 70282 86171 333 562/9 70168 555 90118
BBXX VDRV 01184 99458 70862 41/97 83335 10001 2//// 41001 56030 70122 8//// 22253 0//// 20304 3//// 4//// 5//// 6//// 8//// ICE /////
BBXX WDE6434 01183 99580 71543 41498 63111 11094 2//// 40030 57/// 70287 86500 22200 04039 20101 30118 4//01 5//01 6102/ 8//// ICE /////
BBXX 42085 01181 99179 70665 46/// /1010 10272 40157 91830 333 91211
BBXX 42085 01181 99179 70665 46/// /1010 10271 40158 91820 333 91212
BBXX 42085 01181 99179 70665 46/// /1010 10271 40160 91810 333 91212
BBXX 42045 01181 99262 70965 46/// /0307 10180 40253 91830 22200 00207 333 91210
BBXX 42045 01181 99262 70965 46/// /0507 10182 40256 54000 91800 22200 00206 333 91210
BBXX 42044 01181 99262 70971 46/// /0305 10167 20125 40267 91800 22200 00169 333 91211
BBXX 42044 01181 99262 70971 46/// /0506 10169 20116 40267 91830 22200 00169 333 91211
BBXX 44056 01181 99362 70757 46/// ///// 1//// 91820 22200 00124 10601 20601 70005
BBXX 44055 01181 99391 70753 46/// ///// 1//// 91830 22200 00080 10301 70006
BBXX 46109 01181 99481 71234 46/// /1801 10053 40241 91757 22200 00079
BBXX 66022 01181 99541 10142 46/// /2206 10081 30070 22200 00040
AAXX 01184 65501 32960 70000 10274 21004 39818 40136 80002 333 10316 59004 87076
AAXX 01184 65502 32960 70000 10285 20004 39744 40125 80002 333 10321 59008 87076
AAXX 01184 65503 31956 70004 10287 20066 39782 40128 70622 80002 333 10326 59001 87076
AAXX 01184 65505 32965 60402 10295 20040 39783 40124 80002 333 10331 59012 86076
AAXX 01184 65507 32960 70602 10289 20038 39772 40122 80002 333 10336 58005 87076
AAXX 01184 65510 32960 53608 10286 21003 39604 40122 80002 333 10315 59009 85076
AAXX 01184 65516 32965 60404 10307 21013 39807 40114 80002 333 10340 59007 86076
AAXX 01184 65518 32965 70404 10298 20047 39749 40112 80002 333 10340 58005 87076
AAXX 01184 65522 32960 70000 10310 20138 39782 40111 80002 333 10341 59009 87076
AAXX 01184 DUPE
AAXX 01184 91348 31474 80806 10267 20241 30034 40086 55000 70282 86171 333 562/9 70168 555 90118
BBXX CFO383 01184 99439 70602 47497 /3031 10052 2003/ 40012 52004 700// 8/ 22200 0//// 1//// 2//// 3//// 4//// 5//// 6//// 70// 80043 333 91044
BBXX CFO383 01184 99439 70602 47497 /3031 10052 2003/ 40012 52004 700// 8/ 22200 0//// 1//// 2//// 3//// 4//// 5//// 6//// 70// 80043 333 91044
AAXX 01184 71971 16/// /3601 11315 21345 30062 40110 53008 60001 333 11293 21353 70000
AAXX 01184 65338 31930 50000 10305 20176 39906 40093 70522 80002 333 10361 59007 85076
AAXX 01184 DUPE
BBXX ZCDQ5 01183 99429 10071 43696 61503 10110 20090 400310 52030 70201 86/43 22274 00121 20101 80100
BBXX ZCDQ4 01184 99356 10218 41697 43605 10140 20210 40260 52006 70101 84031 22214 00187 20301 35/// 40301 80130
AAXX 01184 92036 46/// /3204 10285 40063 22200 00311
AAXX 01181 11968 11130 82005 11010 21020 39932 40223 52003 69902 71077 886// 333 11001 88702
BBXX ZCDQ4 01184 99356 10218 41697 43605 10140 20210 40260 52006 70101 84031 22214 00187 20301 35/// 4 0301 80130
AAXX 01184 97230 11460 60000 10245 20233 30069 40076 56018 69921 70362 83232 333 56000 57802 83818 80857
AAXX 01181 11968 11130 82005 11010 21020 39932 40223 52003 69902 71077 886// 333 11001 88702
AAXX 01184 96937 01558 82004 10262 20246 30086 40091 57017 60021 76062 85921 333 56000 57901 60027 81918 84820 80960
AAXX 01184 97240 31458 70000 10244 20241 39967 40082 57021 70522 83131 333 56000 83816
AAXX 01184 97260 31560 50000 10238 20234 30077 40084 57019 70522 84531 333 56000 84620
BBXX 63106 01184 99610 10017 46/// /2118 10074 49837 58004 22200
BBXX 63113 01184 99610 10017 46/// /2219 10080 20032 49840 57004 22200 10606 70029
BBXX 62094 01184 99517 70067 46/// /2522 10094 20036 40008 51015 22200 00105 10606 70031 333 90710 91130
BBXX 62103 01184 99499 70029 46/98 /2624 10117 20081 40042 53013 22200 00118 10704 70019 333 90710 91135
BBXX 64049 01183 99571 10022 41/97 82325 10084 20080 49904 54000 70211 8//// 22200 04089 20606 323// 40607 5//// 80082
AAXX 01184 93713 46/// /0000 10122 40053 22200 00134
AAXX 01184 91689 46/// /0304 10270 40080 22200 00290
AAXX 01184 41883 11330 83102 10186 20150 30123 40144 69904 76122 8672/ 333 56799 59018 79999 85709 83615 88458
AAXX 01184 41923 31950 63003 10210 20150 30132 40142 70522 86030 333 56090 59008 70000 86360
AAXX 01184 41936 31330 60000 10208 20160 40159 70522 84530 333 56990 59009 70000 81708 83615 85362
AAXX 01184 41943 32440 40000 10180 20160 30139 40147 83530 333 56990 59007 83618 84362
AAXX 01184 41950 31450 80000 10200 20160 30137 40140 70522 8452/ 333 56999 59016 70000 84618 88460
AAXX 01184 41978 31932 10000 10190 20170 30130 40137 70500 81030 333 56090 59015 70000 81362
AAXX 01184 41992 31930 00000 10200 20150 30131 40133 70510 333 59005 70000
AAXX 01184 41858 31420 80000 10170 20160 30102 40149 71022 8552/ 333 56699 59014 70010 85615 88458
AAXX 01184 41863 11350 80000 10175 20170 30103 40148 69926 70262 8572/ 333 56999 59012 70007 82710 85616 88458
AAXX 01184 41886 NIL
AAXX 01184 41895 11450 80000 10180 20160 30136 40159 69905 70262 8342/ 333 56999 59007 79999 82616 88458
AAXX 01184 41909 NIL
AAXX 01184 41915 NIL
AAXX 01184 41926 32450 80000 10185 20160 30139 40153 8352/ 333 56899 59012 70000 83618 88458
AAXX 01184 41929 32956 63102 10200 20150 30135 40144 86050 333 56090 59010 70000 86365
AAXX 01184 41933 31440 63601 10186 20170 30140 40149 70522 83520 333 56990 59009 70000 83616 86458
AAXX 01184 41939 31940 70000 10198 20160 40154 70542 82530 333 56990 59013 70000 82616 87362
AAXX 01184 41941 32440 33602 10185 20170 30150 40156 81530 333 56990 59009 70000 81616 83362
AAXX 01184 41946 32940 43601 10210 20150 30149 40153 84070 333 56090 59009 70000 82459 83362
AAXX 01184 41947 31450 70000 10226 20150 30146 40148 70522 83530 333 56990 59015 70000 83616 87362
AAXX 01184 41951 NIL
AAXX 01184 41953 31430 10190 20180 30145 40150 70522 8452/ 333 56999 70000 84616 88458
AAXX 01184 41958 NIL
AAXX 01184 41960 31450 60000 10198 20180 30146 40148 70522 83570 333 56990 59016 70000 83617 85458
AAXX 01184 41963 31925 03601 10181 20170 30127 40130 70500 333 59014 70000
AAXX 01184 41964 31935 00000 10176 20170 30164 40166 70500 333 58001 70000
AAXX 01184 41965 NIL
AAXX 01184 41966 NIL
AAXX 01184 41984 31940 30000 10196 20190 30136 40138 70500 83030 333 56090 59017 70000 83362
AAXX 01184 41989 NIL
AAXX 01184 41998 329// 00000 10185 20170 30134 40140 333 59006 70000
AAXX 01184 48331 32960 00000 10190 20174 39916 40152 57001 333 59009
BBXX ZNQO3 01180 99430 70101 41297 82612 10130 20101 40209 52030 70282 8/7// 22244 04145 2//// 3//// 4//// 5//// 80115
BBXX A8JC5 01184 99352 70120 41598 83212 10168 20096 40310 57003 70222 884// 22224 00191 20202 304// 40503 5//// 80127
BBXX VDRV 01184 99458 70862 41/97 83335 10001 2//// 41001 56030 70122 8//// 22253 0//// 20304 3//// 4//// 5//// 6//// 8//// ICE /////
BBXX CFO383 01184 99439 70602 47497 /3031 10052 2003/ 40012 52004 700// 8/ 22200 0//// 1//// 2//// 3//// 4//// 5//// 6//// 70// 80043 333 91044
BBXX 42085 01181 99179 70665 46/// /1010 10271 40158 91820 333 91212
BBXX 42085 01181 99179 70665 46/// /1010 10272 40157 91830 333 91211
BBXX 42085 01181 99179 70665 46/// /1010 10271 40160 91810 333 91212
BBXX WDE6434 01183 99580 71543 41498 63111 11094 2//// 40030 57/// 70287 86500 22200 04039 20101 30118 4//01 5//01 6102/ 8//// ICE /////
BBXX ZCDQ4 01184 99356 10218 41697 43605 10140 20210 40260 52006 70101 84031 22214 00187 20301 35/// 4 0301 80130
BBXX ZCDQ4 01184 99356 10218 41697 43605 10140 20210 40260 52006 70101 84031 22214 00187 20301 35/// 40301 80130
BBXX ZCDQ5 01183 99429 10071 43696 61503 10110 20090 400310 52030 70201 86/43 22274 00121 20101 80100
AAXX 01181 22695 11397 82301 11016 21025 30039 40195 52008 69900 77172 8672/ 333 11004 86707
BBXX 46092 01181 99368 71220 46/// /0908 10128 40208 53010 91817 22200 00118 555 11088 22098
BBXX WDE6434 01183 99580 71543 41498 63111 11094 2//// 40030 57/// 70287 86500 22200 04039 20101 30118 4//01 5//01 6102/ 8//// ICE /////
BBXX ZCDQ5 01183 99429 10071 43696 61503 10110 20090 400310 52030 70201 86/43 22274 00121 20101 80100
BBXX VRGM8 01183 99407 10186 41498 13610 10130 20026 40244 52012 70100 811// 22234 00153 20801 336// 40902 5//// 80080
BBXX ZCDQ4 01184 99356 10218 41697 43605 10140 20210 40260 52006 70101 84031 22214 00187 20301 35/// 40301 80130
AAXX 01181 98132 31462 60705 10210 20176 40209 56015 70544 84270 333 56199 84816 84357
AAXX 01181 98133 NIL
AAXX 01181 98222 31575 30202 10222 20195 40116 58010 70544 81236 333 56999 81820
AAXX 01181 98233 31570 70000 10216 20197 40143 58008 70544 87500 333 56999 87620
AAXX 01181 98324 31462 40000 10248 20223 40120 58020 70544 81271 333 56999 81816 83358
AAXX 01181 98327 11665 73203 10237 20214 39959 40133 57019 69907 70544 8227/ 333 56999 82836 87360
AAXX 01181 98334 32560 20000 10240 20213 39930 40135 57012 82200 333 56999 82818
AAXX 01181 98425 32557 83401 10264 20226 40124 57011 70322 84607 333 56999 84620 88280
AAXX 01181 98426 31568 10702 10231 20210 40130 57014 70544 81100 333 56999 81820
AAXX 01181 98427 32475 20000 10240 20221 39929 40108 58020 82100 333 56199 82818
AAXX 01181 98428 32458 31101 10265 20231 40124 58009 81131 333 56999 81618
AAXX 01181 98432 31568 20000 10251 20224 40128 57012 81202 333 56999 81828
AAXX 01181 98433 31460 30405 10205 20192 39400 40121 54000 70200 83201 333 56999 83812
AAXX 01181 98434 32465 53603 10252 20236 30123 40131 58016 84201 333 56199 84818
AAXX 01181 98435 32470 70000 10252 20234 40121 5//// 84270 333 56199 84818 87358
AAXX 01181 98442 NIL
AAXX 01181 98446 32475 53002 10244 20230 30078 40124 57014 84201 333 56999 84818
AAXX 01181 98447 32470 60205 10243 20228 39858 40121 5//// 82201 333 56199 82818 85070
AAXX 01181 98538 32466 60404 10270 20243 30098 40103 58009 82260 333 56119 82811 86357
AAXX 01181 98546 32575 50405 10272 20254 30100 40108 57017 82208 333 56999 82820 85275
AAXX 01181 98548 32465 10000 10245 20238 30097 40103 58006 81100 333 56999 81816
AAXX 01181 98553 11464 73201 10253 20244 30097 40101 58017 60231 71586 84908 333 56999 81915 84618 87272
AAXX 01181 98558 11450 80305 10251 20247 40101 58024 60151 72582 8497/ 333 56999 83915 88357
AAXX 01181 98642 11460 80000 10250 20236 30084 40093 58017 69911 78022 8427/ 333 56199 84815 88358
AAXX 01181 98644 32462 60401 10243 20236 30094 40103 57008 82268 333 56199 82817 83358 84272
AAXX 01181 98648 11468 63602 10240 20224 30025 40107 57015 60031 70544 82268 333 56999 82817 83358 85270
AAXX 01181 98746 31462 80901 10246 20218 40082 58026 70544 82977 333 56999 82918 85358 87275
AAXX 01181 98751 32468 80000 10210 20204 39421 40094 57019 8497/ 333 56999 84915 88356
AAXX 01181 98752 32460 20000 10243 20231 40103 58014 82236 333 56999 82818
AAXX 01181 98851 32470 63202 10242 20211 39937 40085 58015 82270 333 56999 82818 86358
BBXX PJGO 01184 99571 10022 47/97 /2118 10079 49919 56012 700// 22200
BBXX 63106 01184 99610 10017 46/// /2118 10074 49837 58004 22200
BBXX 63105 01184 99610 10017 47697 ///// 10081 20032 49836 58005 700// 22200
BBXX 62094 01184 99517 70067 46/// /25// 10094 2//// 40008 51015 22200 00105 10606 70031
BBXX 62103 01184 99499 70029 46/98 /2529 10120 20095 40036 53007 22200 00118 10804 70018 333 90710 91136
BBXX 2AUO5 01183 99606 10015 41597 62025 10079 20054 49842 54000 76288 868// 22241 20604 323// 40507 80068
BBXX 42013 01181 99272 70829 46/// ///// 1//// 40234 91820 22200 00211
BBXX 42013 01181 99272 70829 46/// ///// 1//// 40238 91800 22200 00210
AAXX 01184 91348 31474 80806 10267 20241 30034 40086 55000 70282 86171 333 562/9 70168 555 90118
BBXX 46092 01181 99368 71220 46/// /0908 10128 40208 53010 91817 22200 00118 555 11088 22098
AAXX 01184 71408 46/// /0138 10022 20014 39856 49934 56040 6///1 333 10029 21006 7////
BBXX 42369 01181 99272 70903 46/// /2501 1//// 91740 22200 10401 70004
BBXX 42370 01181 99273 70905 46/// ///// 10229 91740 22200 10401 70004
BBXX 42376 01181 99291 70879 46/// /2106 10223 40217 91740 22200 10101 70004
BBXX 42392 01181 99272 70900 46/// ///// 1//// 91740 22200 10401 70004
BBXX 42887 01181 99282 70885 46/// /2702 10238 91740 22200 10501 70006
BBXX 2AUO5 01183 99606 10015 41597 62025 10079 20054 49842 54000 76288 868// 22241 20604 323// 40507 80068
BBXX 42887 01181 99282 70885 46/// /2702 10238 91740 22200 10501 70006
BBXX 42392 01181 99272 70900 46/// ///// 1//// 91740 22200 10401 70004
BBXX 42376 01181 99291 70879 46/// /2106 10223 40217 91740 22200 10101 70004
BBXX 42370 01181 99273 70905 46/// ///// 10229 91740 22200 10401 70004
BBXX 42369 01181 99272 70903 46/// /2501 1//// 91740 22200 10401 70004
BBXX 42013 01181 99272 70829 46/// ///// 1//// 40238 91800 22200 00210
BBXX 42013 01181 99272 70829 46/// ///// 1//// 40234 91820 22200 00211
BBXX 63106 01184 99610 10017 46/// /2118 10074 49837 58004 22200
BBXX 63113 01184 99610 10017 46/// /2219 10080 20032 49840 57004 22200 10606 70029
BBXX 62094 01184 99517 70067 46/// /2522 10094 20036 40008 51015 22200 00105 10606 70031 333 90710 91130
BBXX 62103 01184 99499 70029 46/98 /2624 10117 20081 40042 53013 22200 00118 10704 70019 333 90710 91135
BBXX 64049 01183 99571 10022 41/97 82325 10084 20080 49904 54000 70211 8//// 22200 04089 20606 323// 40607 5//// 80082
BBXX DCCM2 01184 99448 11555 41/// 91811 10010 21002 40220 54000 70211 8//// 22214 04050 2//// 80005
BBXX VRDW2 01184 99030 11196 41597 83516 10270 20256 40106 58015 71382 83875 22283 04280 20401 80260
BBXX VRDW2 01184 99030 11196 41597 83516 10270 20256 40106 58015 71382 83875 22283 04280 20401 80260
AAXX 0118/ 89769 46/// ///// 11029 39825 4//// 5//// 91840
BBXX MINFR09 0118/ 99345 11398 46/// ///// 40095 57033
AAXX 01184 89614 46/// /0804 11061 29076 38941 4//// 5//// 91830 333 90700 91117
AAXX 01184 89614 46/// /0804 11061 29076 38941 4//// 5//// 91830 333 90700 91117
BBXX MINFR09 0118/ 99345 11398 46/// ///// 40095 57033
BBXX DCCM2 01184 99448 11555 41/// 91811 10010 21002 40220 54000 70211 8//// 22214 04050 2//// 80005
BBXX VRDW2 01184 99030 11196 41597 83516 10270 20256 40106 58015 71382 83875 22283 04280 20401 80260
AAXX 01184 89257 46/// /2111 11079 21095 39862 49933 52003 91830
AAXX 01184 89272 46/// /3605 11090 21137 38096 49725 52007 91830
AAXX 01184 89065 46/// /0404 11001 21038 39809 49886 5//// 91840
AAXX 01184 89266 46/// /1805 11052 21088 39795 49935 52001 91840
AAXX 01184 71604 17/// /3409 11004 21004 60021 7//4/ 333 10031 21033 70228 555 10070
AAXX 01184 89065 46/// /0404 11001 21038 39809 49886 5//// 91840
AAXX 01184 89013 46/// /0713 11175 21207 37727 49759 57005 91820
AAXX 01184 89065 46/// /0306 11002 21037 39808 49885 52009 91830
AAXX 01184 89257 46/// /2111 11080 21097 39862 49933 52002 91820
AAXX 01184 89262 46/// /1204 10031 21005 39878 49921 52005 91830
AAXX 01184 89266 46/// /1705 11052 21088 39795 49935 52001 91830
AAXX 01184 89272 46/// /3606 11092 21138 38095 49725 52007 91820
AAXX 01184 91375 46/// /0813 10277 40072 22200 00280
BBXX 42369 01181 99272 70903 46/// /0000 1//// 91800 22200 10401 70004
BBXX 42370 01181 99273 70905 46/// ///// 10228 91800 22200 10401 70005
AAXX 01184 91165 12566 42803 10194 20178 30142 40177 53010 69951 91753
AAXX 01184 91212 11666 60606 10250 20233 31364 40100 56013 69901 761// 91754
AAXX 01184 91285 12666 42103 10189 20156 30168 40179 53020 69901 91753
AAXX 01184 91334 32474 40211 10275 20229 30075 40078 56010 82101
AAXX 01184 91348 31474 80806 10267 20241 30034 40086 55000 70282 86171
AAXX 01184 91376 11474 60810 10270 20240 30069 40073 53003 60021 70282 84878
AAXX 01184 91408 32474 80706 10274 20226 30037 40075 57014 82278
AAXX 01184 91413 32469 60910 10264 20230 30054 40079 57027 82171
AAXX 01184 91155 NIL
AAXX 01184 91203 NIL
AAXX 01184 91217 NIL
AAXX 01184 91232 NIL
AAXX 01184 91245 NIL
AAXX 01184 91250 NIL
AAXX 01184 91275 NIL
AAXX 01184 91317 NIL
AAXX 01184 91324 NIL
AAXX 01184 91339 NIL
AAXX 01184 91353 NIL
AAXX 01184 91356 NIL
AAXX 01184 91366 NIL
AAXX 01184 91367 NIL
AAXX 01184 91369 NIL
AAXX 01184 91371 NIL
AAXX 01184 91378 NIL
AAXX 01184 91425 NIL
AAXX 01184 91434 NIL
AAXX 01184 91601 NIL
AAXX 01184 91610 NIL
BBXX 42376 01181 99291 70879 46/// /2207 10222 40214 56026 91800 22200 10101 70004
BBXX 42392 01181 99272 70900 46/// ///// 1//// 91800 22200 10401 70004
BBXX 42887 01181 99282 70885 46/// /2802 10238 91800 22200 10401 70005
AAXX 01184 97980 32460 40000 10236 20231 30068 40075 56012 83431 333 56000 83618
BBXX PJGO 01184 99571 10022 47/97 /2118 10079 49919 56012 700// 22200
BBXX 63106 01184 99610 10017 46/// /2118 10074 49837 58004 22200
BBXX 63105 01184 99610 10017 47697 ///// 10081 20032 49836 58005 700// 22200
BBXX 62094 01184 99517 70067 46/// /25// 10094 2//// 40008 51015 22200 00105 10606 70031
BBXX 62103 01184 99499 70029 46/98 /2529 10120 20095 40036 53007 22200 00118 10804 70018 333 90710 91136
AAXX 01184 91165 12566 42803 10194 20178 30142 40177 53010 69951 91753
AAXX 01184 91212 11666 60606 10250 20233 31364 40100 56013 69901 761// 91754
AAXX 01184 91285 12666 42103 10189 20156 30168 40179 53020 69901 91753
AAXX 01184 91334 32474 40211 10275 20229 30075 40078 56010 82101
AAXX 01184 91348 31474 80806 10267 20241 30034 40086 55000 70282 86171
AAXX 01184 91376 11474 60810 10270 20240 30069 40073 53003 60021 70282 84878
AAXX 01184 91408 32474 80706 10274 20226 30037 40075 57014 82278
AAXX 01184 91413 32469 60910 10264 20230 30054 40079 57027 82171
BBXX 42376 01181 99291 70879 46/// /2207 10222 40214 56026 91800 22200 10101 70004
BBXX 42887 01181 99282 70885 46/// /2802 10238 91800 22200 10401 70005
BBXX 42392 01181 99272 70900 46/// ///// 1//// 91800 22200 10401 70004
BBXX 42370 01181 99273 70905 46/// ///// 10228 91800 22200 10401 70005
BBXX 42369 01181 99272 70903 46/// /0000 1//// 91800 22200 10401 70004
BBXX DCCM2 01184 99448 11555 41/// 91811 10010 21002 40220 54000 70211 8//// 22214 04050 2//// 80005
BBXX MINFR09 0118/ 99345 11398 46/// ///// 40095 57033
BBXX 42046 01181 99279 70940 46/// /3612 1//// 40255 91830 22200 00225 333 91214
BBXX 42046 01181 99279 70940 46/// /0112 1//// 40253 91800 22200 00225 333 91214
BBXX 42047 01181 99279 70936 46/// /0110 10181 20151 40251 91830 22200 00222 333 91212
BBXX 42047 01181 99279 70936 46/// /3611 10186 20167 40250 91800 22200 00222 333 91213
BBXX 42047 01181 99279 70936 46/// /3611 10186 20167 40250 91800 22200 00222 333 91213
BBXX 42047 01181 99279 70936 46/// /0110 10181 20151 40251 91830 22200 00222 333 91212
BBXX 42046 01181 99279 70940 46/// /0112 1//// 40253 91800 22200 00225 333 91214
BBXX 42046 01181 99279 70940 46/// /3612 1//// 40255 91830 22200 00225 333 91214
AAXX 01184 71364 16/// /1306 11278 21308 30088 40230 53002 60001 333 11276 21301 70000
BBXX 63106 01184 99610 10017 46/// /2118 10074 49837 58004 22200
BBXX 63113 01184 99610 10017 46/// /2219 10080 20032 49840 57004 22200 10606 70029
BBXX 62094 01184 99517 70067 46/// /2522 10094 20036 40008 51015 22200 00105 10606 70031 333 90710 91130
BBXX 62103 01184 99499 70029 46/98 /2624 10117 20081 40042 53013 22200 00118 10704 70019 333 90710 91135
BBXX 64049 01183 99571 10022 41/97 82325 10084 20080 49904 54000 70211 8//// 22200 04089 20606 323// 40607 5//// 80082
BBXX SKEC 01181 99644 10224 46/// ///// 11027 40045 52005 22231 00032
BBXX 42369 01181 99272 70903 46/// /0000 1//// 91820 22200 10401 70004
BBXX 42370 01181 99273 70905 46/// ///// 10229 91820 22200 10401 70005
BBXX 42376 01181 99291 70879 46/// /2207 10222 40214 91820 22200 10101 70004
BBXX 42392 01181 99272 70900 46/// ///// 1//// 91820 22200 10401 70004
BBXX 42887 01181 99282 70885 46/// /2702 10238 91820 22200 10401 70005
BBXX 42392 01181 99272 70900 46/// ///// 1//// 91820 22200 10401 70004
BBXX 42369 01181 99272 70903 46/// /0000 1//// 91820 22200 10401 70004
BBXX 42887 01181 99282 70885 46/// /2702 10238 91820 22200 10401 70005
BBXX 42376 01181 99291 70879 46/// /2207 10222 40214 91820 22200 10101 70004
BBXX 42370 01181 99273 70905 46/// ///// 10229 91820 22200 10401 70005
BBXX SKEC 01181 99644 10224 46/// ///// 11027 40045 52005 22231 00032
BBXX MINFR00 0118/ 99122 51329 46/// ///// 10263 40168 52009
BBXX 52243 01181 99193 11666 46/// ///// 1//// 91800 22200 00260
BBXX 51179 01181 99143 51708 46/// ///// 1//// 91800 22200 00286
BBXX 51178 01181 99142 51695 46/// ///// 1//// 91800 22200 00287
BBXX 52246 01181 99152 11457 46/// ///// 1//// 91800 22200 00280
BBXX 51176 01181 99278 71758 46/// ///// 1//// 91800 22200 00238
BBXX 52245 01181 99181 11458 46/// ///// 1//// 91800 22200 00278
BBXX 51174 01181 99142 51697 46/// ///// 1//// 91800 22200 00285
BBXX 51173 01181 99260 71739 46/// ///// 1//// 91800 22200 00247
BBXX 51172 01181 99284 71783 46/// ///// 1//// 91800 22200 00225
BBXX 51171 01181 99064 71623 46/// ///// 1//// 91800 22200 00276
BBXX 51170 01181 99168 71695 46/// ///// 1//// 91800 22200 00255
BBXX 51169 01181 99004 51600 46/// ///// 1//// 91800 22200 00246
BBXX 52248 01181 99135 11448 46/// ///// 1//// 91800 22200 00283
AAXX 01184 96163 32559 20000 10224 20203 30102 40104 57015 81501 333 56000 81620
BBXX PJGO 01184 99571 10022 47/97 /2118 10079 49919 56012 700// 22200
BBXX 63106 01184 99610 10017 46/// /2118 10074 49837 58004 22200
BBXX 63105 01184 99610 10017 47697 ///// 10081 20032 49836 58005 700// 22200
BBXX 62094 01184 99517 70067 46/// /25// 10094 2//// 40008 51015 22200 00105 10606 70031
BBXX 62103 01184 99499 70029 46/98 /2529 10120 20095 40036 53007 22200 00118 10804 70018 333 90710 91136
BBXX 51170 01181 99168 71695 46/// ///// 1//// 91800 22200 00255
BBXX 51171 01181 99064 71623 46/// ///// 1//// 91800 22200 00276
BBXX 51173 01181 99260 71739 46/// ///// 1//// 91800 22200 00247
BBXX 51176 01181 99278 71758 46/// ///// 1//// 91800 22200 00238
BBXX 51172 01181 99284 71783 46/// ///// 1//// 91800 22200 00225
BBXX 52248 01181 99135 11448 46/// ///// 1//// 91800 22200 00283
BBXX 52245 01181 99181 11458 46/// ///// 1//// 91800 22200 00278
BBXX 52243 01181 99193 11666 46/// ///// 1//// 91800 22200 00260
BBXX 52246 01181 99152 11457 46/// ///// 1//// 91800 22200 00280
BBXX 51169 01181 99004 51600 46/// ///// 1//// 91800 22200 00246
BBXX 51179 01181 99143 51708 46/// ///// 1//// 91800 22200 00286
BBXX 51174 01181 99142 51697 46/// ///// 1//// 91800 22200 00285
BBXX 51178 01181 99142 51695 46/// ///// 1//// 91800 22200 00287
BBXX MINFR00 0118/ 99122 51329 46/// ///// 10263 40168 52009
AAXX 01184 97086 32560 52706 10264 20241 30079 40103 56012 82571 333 56000 82620
AAXX 01184 97686 31340 70000 10164 20149 38347 40079 57005 70522 85836 333 56000 85807 87360
BBXX 63106 01184 99610 10017 46/// /2118 10074 49837 58004 22200
BBXX 63113 01184 99610 10017 46/// /2219 10080 20032 49840 57004 22200 10606 70029
BBXX 62094 01184 99517 70067 46/// /2522 10094 20036 40008 51015 22200 00105 10606 70031 333 90710 91130
BBXX 62103 01184 99499 70029 46/98 /2624 10117 20081 40042 53013 22200 00118 10704 70019 333 90710 91135
BBXX 64049 01183 99571 10022 41/97 82325 10084 20080 49904 54000 70211 8//// 22200 04089 20606 323// 40607 5//// 80082
AAXX 01184 17189 11670 73215 10017 21006 39011 48470 52025 60102 72176 85550 333 10027 85635 87360 93100
AAXX 0118/ 89314 46/// ///// 11108 38217 4//// 5////
AAXX 0118/ 89872 46/// ///// 11055 39800 4//// 5////
AAXX 0118/ 89869 46/// ///// 11070 39799 4//// 5////
AAXX 0118/ 89869 46/// ///// 11069 39799 4//// 5//// 91810
AAXX 0118/ 89866 46/// ///// 11016 39736 4//// 5////
AAXX 0118/ 89329 46/// ///// 11109 38730 4//// 5////
AAXX 0118/ 89799 46/// ///// 11240 4//// 5////
AAXX 0118/ 89868 46/// ///// 11083 39803 4//// 5////
AAXX 0118/ 89332 46/// ///// 11035 39207 4//// 5////
AAXX 0118/ 89769 46/// ///// 11054 39818 4//// 5////
AAXX 0118/ 89828 46/// ///// 11256 36523 4//// 5////
AAXX 0118/ 89108 46/// ///// 11215 36997 4//// 5////
AAXX 0118/ 89879 46/// ///// 11014 39741 4//// 5////
AAXX 0118/ 89314 46/// ///// 11108 38214 4//// 5////
AAXX 0118/ 89327 46/// ///// 11029 39639 4//// 5////
AAXX 0118/ 68902 46/// ///// 40114 57010
AAXX 01184 89614 46/// /0805 11060 29077 38941 4//// 5//// 333 90700 91118
AAXX 01184 89614 46/// /0805 11060 29077 38941 4//// 5//// 333 90700 91118
AAXX 01181 23921 32597 80000 11084 21093 30093 40216 52009 85950 333 11066
AAXX 01181 28214 42996 81101 11084 21099 30018 40239 52001 8802/
AAXX 01184 97690 32450 60000 10238 20227 39979 40081 57008 84844 333 56000 57800 83815 86080 80858
AAXX 01184 71023 160// /2907 11100 21144 39540 40342 52013 60001 333 11100 21164 70005
AAXX 01184 71023 160// /2907 11100 21144 39540 40342 52013 60001 333 11100 21164 70005
AAXX 01184 48427 31957 20204 10250 20192 30108 40116 57011 71000 80001 333 59017
AAXX 01181 33325 41996 02201 11035 21049 39931 40210 58001 71000
BBXX PJGO 01184 99571 10022 47/97 /2118 10079 49919 56012 700// 22200
BBXX 63106 01184 99610 10017 46/// /2118 10074 49837 58004 22200
BBXX 63105 01184 99610 10017 47697 ///// 10081 20032 49836 58005 700// 22200
BBXX 62094 01184 99517 70067 46/// /25// 10094 2//// 40008 51015 22200 00105 10606 70031
BBXX 62103 01184 99499 70029 46/98 /2529 10120 20095 40036 53007 22200 00118 10804 70018 333 90710 91136
AAXX 01181 33325 41996 02201 11035 21049 39931 40210 58001 71000
AAXX 01184 71372 17/// /1004 10001 21004 60021 7//4/ 333 10001 21026 70018
AAXX 01184 71372 17/// /1004 10001 21004 60021 7//4/ 333 10001 21026 70018
AAXX 01184 48373 31940 20000 10230 20204 30074 40137 57003 71000 80001 333 59009
AAXX 01181 25745 42698 10000 11404 21432 30183 40243 58001 81500
AAXX 01181 98232 11565 80406 10240 20215 40153 58005 60011 70246 8557/ 333 56199 85620 88358
AAXX 01181 98618 32520 32703 12061 20234 40121 51001 82201 333 56999 82820
AAXX 01181 31348 42999 00000 11371 21378 30063 40289 58009
AAXX 01181 31484 42999 02502 11289 21307 39917 40296 53004
AAXX 01181 22165 31598 80810 11036 21076 30150 40214 51013 70232 885// 333 11027 91115
AAXX 01184 89834 46/// /1520 11141 38090 4//// 57007 91800
AAXX 01184 89868 46/// /2106 11082 39789 49857 52013 91750
AAXX 01184 89879 46/// /0000 11014 39727 49764 52006 91800
AAXX 01181 31754 41998 80000 11355 21374 39750 40328 52001 77171 80007
AAXX 01181 25356 32999 20000 11466 21508 30115 40234 57002 80001 333 21469 48017 55000 91000
AAXX 01183 91551 31598 10000 10241 20240 40063 56001 70112 81100 333 569// 81820
AAXX 01183 91551 31598 10000 10241 20240 40063 56001 70112 81100 333 569// 81820
BBXX 63106 01184 99610 10017 46/// /2118 10074 49837 58004 22200
BBXX 63113 01184 99610 10017 46/// /2219 10080 20032 49840 57004 22200 10606 70029
BBXX 62094 01184 99517 70067 46/// /2522 10094 20036 40008 51015 22200 00105 10606 70031 333 90710 91130
BBXX 62103 01184 99499 70029 46/98 /2624 10117 20081 40042 53013 22200 00118 10704 70019 333 90710 91135
BBXX 64049 01183 99571 10022 41/97 82325 10084 20080 49904 54000 70211 8//// 22200 04089 20606 323// 40607 5//// 80082
BBXX UIFY 01181 99512 11405 42/98 /3010 11160 21220 40213 51007 22200 01005 2//// ICE 40092
AAXX 01181 31587 42998 00000 11321 21337 30159 40325 53003
BBXX PJGO 01184 99571 10022 47/97 /2118 10079 49919 56012 700// 22200
BBXX 63106 01184 99610 10017 46/// /2118 10074 49837 58004 22200
BBXX 63105 01184 99610 10017 47697 ///// 10081 20032 49836 58005 700// 22200
BBXX 62094 01184 99517 70067 46/// /25// 10094 2//// 40008 51015 22200 00105 10606 70031
BBXX 62103 01184 99499 70029 46/98 /2529 10120 20095 40036 53007 22200 00118 10804 70018 333 90710 91136
BBXX UIFY 01181 99512 11405 42/98 /3010 11160 21220 40213 51007 22200 01005 2//// ICE 40092
AAXX 01184 97192 32456 70000 10256 20247 30055 40112 57002 84279 333 56200 57822 84816 80857
BBXX 63106 01184 99610 10017 46/// /2118 10074 49837 58004 22200
BBXX 63113 01184 99610 10017 46/// /2219 10080 20032 49840 57004 22200 10606 70029
BBXX 62094 01184 99517 70067 46/// /2522 10094 20036 40008 51015 22200 00105 10606 70031 333 90710 91130
BBXX 62103 01184 99499 70029 46/98 /2624 10117 20081 40042 53013 22200 00118 10704 70019 333 90710 91135
BBXX 64049 01183 99571 10022 41/97 82325 10084 20080 49904 54000 70211 8//// 22200 04089 20606 323// 40607 5//// 80082
BBXX PJGO 01184 99571 10022 47/97 /2118 10079 49919 56012 700// 22200
BBXX 63106 01184 99610 10017 46/// /2118 10074 49837 58004 22200
BBXX 63105 01184 99610 10017 47697 ///// 10081 20032 49836 58005 700// 22200
BBXX 62094 01184 99517 70067 46/// /25// 10094 2//// 40008 51015 22200 00105 10606 70031
BBXX 62103 01184 99499 70029 46/98 /2529 10120 20095 40036 53007 22200 00118 10804 70018 333 90710 91136
AAXX 01184 71824 46/// /1603 11049 21054 6///1 333 11049 21112 7////
AAXX 01181 29789 42999 80000 11158 21177 39195 40461 53001 8801/
BBXX 42043 01181 99290 70949 46/// /0309 1//// 40272 91830 22200 00146 333 91211
BBXX 42043 01181 99290 70949 46/// /0308 1//// 40278 91800 22200 00147 333 91211
BBXX 46094 01181 99446 71243 46/// /1207 10097 91830
BBXX 46094 01181 99446 71243 46/// /1109 10097 91820
BBXX 46094 01181 99446 71243 46/// /1108 10096 91810
BBXX 46094 01181 99446 71243 46/// /1108 10094 91800
BBXX 46094 01181 99446 71243 46/// /1210 10093 91750
BBXX 46094 01181 99446 71243 46/// /1109 10092 91740
BBXX 46094 01181 99446 71243 46/// /1207 10097 91830
BBXX 46094 01181 99446 71243 46/// /1108 10094 91800
BBXX 46094 01181 99446 71243 46/// /1108 10096 91810
BBXX 46094 01181 99446 71243 46/// /1109 10097 91820
BBXX 42043 01181 99290 70949 46/// /0308 1//// 40278 91800 22200 00147 333 91211
BBXX 42043 01181 99290 70949 46/// /0309 1//// 40272 91830 22200 00146 333 91211
AAXX 01184 96655 32456 60000 10252 20246 30091 40116 58001 85571 333 56000 85610
AAXX 01184 48333 31950 00000 10190 20174 39852 40161 52016 71000 333 59007
BBXX 63106 01184 99610 10017 46/// /2118 10074 49837 58004 22200
BBXX 63113 01184 99610 10017 46/// /2219 10080 20032 49840 57004 22200 10606 70029
BBXX 62094 01184 99517 70067 46/// /2522 10094 20036 40008 51015 22200 00105 10606 70031 333 90710 91130
BBXX 62103 01184 99499 70029 46/98 /2624 10117 20081 40042 53013 22200 00118 10704 70019 333 90710 91135
BBXX 64049 01183 99571 10022 41/97 82325 10084 20080 49904 54000 70211 8//// 22200 04089 20606 323// 40607 5//// 80082
BBXX 46094 01181 99446 71243 46/// /1210 10093 91750
BBXX 46094 01181 99446 71243 46/// /1109 10092 91740
BBXX 52249 01181 99052 31503 46/// ///// 1//// 91800 22200 00305
AAXX 01184 97028 11559 70000 10252 20235 30083 40089 58005 69901 70262 83421 333 56000 83620 86460
BBXX PJGO 01184 99571 10022 47/97 /2118 10079 49919 56012 700// 22200
BBXX 63106 01184 99610 10017 46/// /2118 10074 49837 58004 22200
BBXX 63105 01184 99610 10017 47697 ///// 10081 20032 49836 58005 700// 22200
BBXX 62094 01184 99517 70067 46/// /25// 10094 2//// 40008 51015 22200 00105 10606 70031
BBXX 62103 01184 99499 70029 46/98 /2529 10120 20095 40036 53007 22200 00118 10804 70018 333 90710 91136
BBXX 52249 01181 99052 31503 46/// ///// 1//// 91800 22200 00305
BBXX MINFR03 0118/ 99251 10550 46/// ///// 10208 40174 52002
BBXX MINFR03 0118/ 99251 10550 46/// ///// 10208 40174 52002
BBXX 63106 01184 99610 10017 46/// /2118 10074 49837 58004 22200
BBXX 63113 01184 99610 10017 46/// /2219 10080 20032 49840 57004 22200 10606 70029
BBXX 62094 01184 99517 70067 46/// /2522 10094 20036 40008 51015 22200 00105 10606 70031 333 90710 91130
BBXX 62103 01184 99499 70029 46/98 /2624 10117 20081 40042 53013 22200 00118 10704 70019 333 90710 91135
BBXX 64049 01183 99571 10022 41/97 82325 10084 20080 49904 54000 70211 8//// 22200 04089 20606 323// 40607 5//// 80082
AAXX 01184 89573 34/03 90403 11050 21067 39884 49906 52008 74740
AAXX 01184 89573 34/03 90403 11050 21067 39884 49906 52008 74740
AAXX 01181 78090 15/// /0000 10357 30225 40228 69901 91800 222// 00209
BBXX PJGO 01184 99571 10022 47/97 /2118 10079 49919 56012 700// 22200
BBXX 63106 01184 99610 10017 46/// /2118 10074 49837 58004 22200
BBXX 63105 01184 99610 10017 47697 ///// 10081 20032 49836 58005 700// 22200
BBXX 62094 01184 99517 70067 46/// /25// 10094 2//// 40008 51015 22200 00105 10606 70031
BBXX 62103 01184 99499 70029 46/98 /2529 10120 20095 40036 53007 22200 00118 10804 70018 333 90710 91136
BBXX 63106 01184 99610 10017 46/// /2118 10074 49837 58004 22200
BBXX 63113 01184 99610 10017 46/// /2219 10080 20032 49840 57004 22200 10606 70029
BBXX 62094 01184 99517 70067 46/// /2522 10094 20036 40008 51015 22200 00105 10606 70031 333 90710 91130
BBXX 62103 01184 99499 70029 46/98 /2624 10117 20081 40042 53013 22200 00118 10704 70019 333 90710 91135
BBXX 64049 01183 99571 10022 41/97 82325 10084 20080 49904 54000 70211 8//// 22200 04089 20606 323// 40607 5//// 80082
AAXX 01181 29581 429// 82101 11073 21094 30141 40409 56004 8802/
BBXX PJGO 01184 99571 10022 47/97 /2118 10079 49919 56012 700// 22200
BBXX 63106 01184 99610 10017 46/// /2118 10074 49837 58004 22200
BBXX 63105 01184 99610 10017 47697 ///// 10081 20032 49836 58005 700// 22200
BBXX 62094 01184 99517 70067 46/// /25// 10094 2//// 40008 51015 22200 00105 10606 70031
BBXX 62103 01184 99499 70029 46/98 /2529 10120 20095 40036 53007 22200 00118 10804 70018 333 90710 91136
AAXX 01184 48583 31458 80000 10243 20236 30112 40118 57005 71022 82246 333 58025 70774
AAXX 01184 91723 NIL
AAXX 01184 91964 36/// /1105 10234 20218 40189 52000
BBXX ELWO6 01183 99257 70538 41398 51313 10254 20207 40240 57020 70300 83678 22254 04251 20802 31313 41005 51206 80221
BBXX DAJT 01184 99274 50283 41598 20311 10245 20194 40150 58020 70200 8/1/4 22264 04230 2//01 80210
BBXX A8TG2 01183 99254 71179 41798 80506 10170 20135 40190 52020 702// 8/6// 22273 20103 304// 40103 80150
BBXX A8FA6 01184 99176 71022 41696 32510 10280 20252 40170 54000 71000 83445 22234 00280 20601 323// 40601 80260
BBXX 63106 01184 99610 10017 46/// /2118 10074 49837 58004 22200
BBXX 63113 01184 99610 10017 46/// /2219 10080 20032 49840 57004 22200 10606 70029
BBXX 62094 01184 99517 70067 46/// /2522 10094 20036 40008 51015 22200 00105 10606 70031 333 90710 91130
BBXX 62103 01184 99499 70029 46/98 /2624 10117 20081 40042 53013 22200 00118 10704 70019 333 90710 91135
BBXX 64049 01183 99571 10022 41/97 82325 10084 20080 49904 54000 70211 8//// 22200 04089 20606 323// 40607 5//// 80082
BBXX DAJT 01184 99274 50283 41598 20311 10245 20194 40150 58020 70200 8/1/4 22264 04230 2//01 80210
BBXX A8FA6 01184 99176 71022 41696 32510 10280 20252 40170 54000 71000 83445 22234 00280 20601 323// 40601 80260
BBXX A8TG2 01183 99254 71179 41798 80506 10170 20135 40190 52020 702// 8/6// 22273 20103 304// 40103 80150
BBXX ELWO6 01183 99257 70538 41398 51313 10254 20207 40240 57020 70300 83678 22254 04251 20802 31313 41005 51206 80221
AAXX 01181 31561 32997 80000 11304 21328 30259 40290 52008 70271 8802/ 333 21346
AAXX 01181 34740 11596 81404 10002 21004 30025 40123 57006 69910 71022 85504 333 10038
AAXX 01184 71770 16/// /3002 11012 21059 39596 40396 56002 60001 333 10000 21039 70000
AAXX 01184 71770 16/// /3002 11012 21059 39596 40396 56002 60001 333 10000 21039 70000
BBXX PJGO 01184 99571 10022 47/97 /2118 10079 49919 56012 700// 22200
BBXX 63106 01184 99610 10017 46/// /2118 10074 49837 58004 22200
BBXX 63105 01184 99610 10017 47697 ///// 10081 20032 49836 58005 700// 22200
BBXX 62094 01184 99517 70067 46/// /25// 10094 2//// 40008 51015 22200 00105 10606 70031
BBXX 62103 01184 99499 70029 46/98 /2529 10120 20095 40036 53007 22200 00118 10804 70018 333 90710 91136
AAXX 01184 03008 12482 72220 10063 20024 49827 60002 878// 91750 333 10073 82818 87640 90710 91127
AAXX 01184 97340 11560 80806 10246 20233 30071 40086 56011 60021 70262 82272 333 56000 82620 87460
AAXX 01184 48384 31959 00000 10200 20184 39957 40152 57010 71000 333 59013
AAXX 01184 48581 31556 80907 10248 20239 30073 40115 57010 71022 83246 333 58003 71241
BBXX 63106 01184 99610 10017 46/// /2118 10074 49837 58004 22200
BBXX 63113 01184 99610 10017 46/// /2219 10080 20032 49840 57004 22200 10606 70029
BBXX 62094 01184 99517 70067 46/// /2522 10094 20036 40008 51015 22200 00105 10606 70031 333 90710 91130
BBXX 62103 01184 99499 70029 46/98 /2624 10117 20081 40042 53013 22200 00118 10704 70019 333 90710 91135
BBXX 64049 01183 99571 10022 41/97 82325 10084 20080 49904 54000 70211 8//// 22200 04089 20606 323// 40607 5//// 80082
AAXX 01184 91693 11599 60000 10243 2022/ 40080 53008 69941 70226 8587/ 333 5639/ 83824 84645
AAXX 01181 25248 42998 00000 11400 21427 39755 40272 53005 333 91100
AAXX 0118/ 89253 46/// ///// 11444 4//// 5////
AAXX 01184 48008 32510 60000 10170 20154 40145 83970 333 56880 59024
AAXX 01184 48018 32320 70000 10190 20159 40142 84870 333 56550 59017
AAXX 01184 48042 32956 00000 10218 20185 40144 333 59005
AAXX 01184 48053 32940 00000 10218 20185 40144 333 59005
AAXX 01184 48060 32910 00000 10198 20168 40154 333 58002
AAXX 01184 48080 32550 30000 10230 20214 40124 82870 333 56990 59007
AAXX 01184 48097 32956 03201 10240 20209 40140 333 59004
AAXX 01184 48108 31595 80000 10260 20215 40138 70522 83436 333 56219 59017
AAXX 01184 48109 31495 20401 10275 20250 40119 70322 81830 333 56990 59010
AAXX 01184 48110 31595 51302 10260 20139 40123 705// 81456 333 56999 59011
AAXX 01184 48112 21496 80403 10232 20232 40112 75055 8572/ 333 5619/ 59004
AAXX 01184 82198 32495 53610 10317 20224 30045 40096 83234 333 58004
AAXX 01184 83405 32596 60000 10304 20221 39930 40063 86200 333 59004
BBXX PJGO 01184 99571 10022 47/97 /2118 10079 49919 56012 700// 22200
BBXX 63106 01184 99610 10017 46/// /2118 10074 49837 58004 22200
BBXX 63105 01184 99610 10017 47697 ///// 10081 20032 49836 58005 700// 22200
BBXX 62094 01184 99517 70067 46/// /25// 10094 2//// 40008 51015 22200 00105 10606 70031
BBXX 62103 01184 99499 70029 46/98 /2529 10120 20095 40036 53007 22200 00118 10804 70018 333 90710 91136
AAXX 01184 64700 41950 50208 10270 21005 39790 40133 70611 333 10330 58007 85075
AAXX 01184 64750 32960 52404 10270 20116 39682 40095 80002 333 10376 58007 85075
AAXX 01184 67002 11580 33604 10277 20246 30098 40131 60012 70360 81802 333 10329 59010 81822 83630 92408
AAXX 01184 67009 NIL
AAXX 01184 67012 NIL
AAXX 01184 67025 NIL
AAXX 01184 67027 11470 73012 10286 20261 30086 40107 52010 69902 70162 83832 333 10313 82817 84073 555 82640 81360
AAXX 01184 67072 NIL
AAXX 01184 67073 NIL
AAXX 01184 67083 31470 70000 10203 20185 38743 48519 72999 879// 333 10291 81817 81917 83620 94979 95839
AAXX 01184 67095 32475 60000 10275 20248 30110 40116 51009 84960 333 10320 81917 83817 83633 83360 94965 95835
AAXX 01184 67113 NIL
AAXX 01184 67137 NIL
AAXX 01184 67157 NIL
AAXX 01184 67197 11430 70810 10233 20228 30112 40122 51008 60042 76162 878// 333 10272 833817 86633 RR 3.6MM
AAXX 01184 67002 11580 33604 10277 20246 30098 40131 60012 70360 81802 333 10329 59010 81822 83630 92408
AAXX 01184 67009 NIL
AAXX 01184 67012 NIL
AAXX 01184 67025 NIL
AAXX 01184 67027 11470 73012 10286 20261 30086 40107 52010 69902 70162 83832 333 10313 82817 84073 555 82640 81360
AAXX 01184 67072 NIL
AAXX 01184 67073 NIL
AAXX 01184 67083 31470 70000 10203 20185 38743 48519 72999 879// 333 10291 81817 81917 83620 94979 95839
AAXX 01184 67095 32475 60000 10275 20248 30110 40116 51009 84960 333 10320 81917 83817 83633 83360 94965 95835
AAXX 01184 67113 NIL
AAXX 01184 67137 NIL
AAXX 01184 67157 NIL
AAXX 01184 67197 11430 70810 10233 20228 30112 40122 51008 60042 76162 878// 333 10272 83817 86633 RR 3.6MM
AAXX 01184 67002 11580 33604 10277 20246 30098 40131 60012 70360 81802 333 10329 59010 81822 83630 92408
AAXX 01184 67009 NIL
AAXX 01184 67012 NIL
AAXX 01184 67025 NIL
AAXX 01184 67027 11470 73012 10286 20261 30086 40107 52010 69902 70162 83832 333 10313 82817 84073 555 82640 81360
AAXX 01184 67072 NIL
AAXX 01184 67073 NIL
AAXX 01184 67083 31470 70000 10203 20185 38743 48519 72999 879// 333 10291 81817 81917 83620 94979 95839
AAXX 01184 67095 32475 60000 10275 20248 30110 40116 51009 84960 333 10320 81917 83817 83633 83360 94965 95835
AAXX 01184 67113 NIL
AAXX 01184 67137 NIL
AAXX 01184 67157 NIL
AAXX 01184 67197 11430 70810 10233 20228 30112 40122 51008 60042 76162 878//
AAXX 01184 67002 11580 33604 10277 20246 30098 40131 60012 70360 81802 333 10329 59010 81822 83630 92408
AAXX 01184 67009 NIL
AAXX 01184 67012 NIL
AAXX 01184 67025 NIL
AAXX 01184 67027 11470 73012 10286 20261 30086 40107 52010 69902 70162 83832 333 10313 82817 84073 555 82640 81360
AAXX 01184 67072 NIL
AAXX 01184 67073 NIL
AAXX 01184 67083 31470 70000 10203 20185 38743 48519 72999 879// 333 10291 81817 81917 83620 94979 95839
AAXX 01184 67095 32475 60000 10275 20248 30110 40116 51009 84960 333 10320 81917 83817 83633 83360 94965 95835
AAXX 01184 67113 NIL
AAXX 01184 67137 NIL
AAXX 01184 67157 NIL
AAXX 01184 67197 11430 70810 10233 20228 30112 40122 51008 60042 76162 878// 333 10272 83817 86633
AAXX 01184 67002 11580 33604 10277 20246 30098 40131 60012 70360 81802 333 10329 59010 81822 83630 92408
AAXX 01184 67009 NIL
AAXX 01184 67012 NIL
AAXX 01184 67025 NIL
AAXX 01184 67027 11470 73012 10286 20261 30086 40107 52010 69902 70162 83832 333 10313 82817 84073 555 82640 81360
AAXX 01184 67072 NIL
AAXX 01184 67073 NIL
AAXX 01184 67083 31470 70000 10203 20185 38743 48519 72999 879// 333 10291 81817 81917 83620 94979 95839
AAXX 01184 67095 32475 60000 10275 20248 30110 40116 51009 84960 333 10320 81917 83817 83633 83360 94965 95835
AAXX 01184 67113 NIL
AAXX 01184 67137 NIL
AAXX 01184 67157 NIL
AAXX 01184 67197 11430 70810 10233 20228 30112 40122 51008 60042 76162 878// 333 10272 83817 86633
AAXX 01184 67002 11580 33604 10277 20246 30098 40131 60012 70360 81802 333 10329 59010 81822 83630 92408
AAXX 01184 67009 NIL
AAXX 01184 67012 NIL
AAXX 01184 67025 NIL
AAXX 01184 67027 11470 73012 10286 20261 30086 40107 52010 69902 70162 83832 333 10313 82817 84073 555 82640 81360
AAXX 01184 67072 NIL
AAXX 01184 67073 NIL
AAXX 01184 67083 31470 70000 10203 20185 38743 48519 72999 879// 333 10291 81817 81917 83620 94979 95839
AAXX 01184 67095 32475 60000 10275 20248 30110 40116 51009 84960 333 10320 81917 83817 83633 83360 94965 95835
AAXX 01184 67113 NIL
AAXX 01184 67137 NIL
AAXX 01184 67157 NIL
AAXX 01184 67197 11430 70810 10233 20228 30112 40122 51008 60042 76162 878//
AAXX 01184 67009 32580 80000 10267 20238 30015 40134 51015 889// 333 10330 81820 81920 87540 94971 94972 94978 95812 958165 95818
AAXX 01184 63705 32970 01509 10220 20192 38856 48511 80000 333 10255 59010 555 10200
BBXX A8ME3 01180 99209 11189 41297 80310 10210 20174 40170 56008 75052 8/7// 22213 04250 20604 304// 41007 5////
AAXX 01184 67009 32580 80000 10267 20238 30015 40134 51015 889// 333 10330 81820 81920 87540 94971 94972 94978 95812 95816 95818
AAXX 01184 71463 46/// /2024 10064 20024 39786 40006 58054 6///1 333 10073 20031 7////
AAXX 01181 10015 01350 81908 10084 20076 30015 40025 58017 69952 72162 876// 222// 02063 333 10088 20078 31008 55300 20000 30000 69907 87707 96010
AAXX 01181 10895 01675 71902 10075 20075 39618 40187 53003 60022 72164 875// 333 10084 20006 31001 55300 20000 30000 69907 87643 95147
AAXX 01181 10430 01580 81903 10113 20098 39894 40082 58014 60052 72165 885// 333 10114 20096 31009 55300 20000 30000 69987 87625
AAXX 01181 08505 12570 22904 10168 20085 30275 40325 52009 69922 81802 333 10184 81820
AAXX 01181 08505 12570 22904 10168 20085 30275 40325 52009 69922 81802 333 10184 81820 555 60007
AAXX 01181 08509 12560 33104 10162 20117 30261 40326 53011 60022 83800 333 10176 83825
AAXX 01181 26531 32960 71703 11004 21016 40138 58007 87050 333 10016 91005 91107 555 53007
AAXX 01181 08509 12560 33104 10162 20117 30261 40326 53011 60022 83800 333 10176 83825 555 60007
AAXX 01184 44454 41330 80000 10080 20068 38692 48523 76021 85870 333 59011
AAXX 01184 96075 32450 51703 10239 20236 30105 40111 57007 82571 333 56000 82619
AAXX 01181 10338 01365 81805 10115 20109 30000 40071 58013 69982 76165 878// 333 10122 20103 31009 55300 20000 30000 69957 81808 87618
AAXX 01184 03770 16/// ///// 10103 20097 60102 91750 333 10131
AAXX 01181 10453 11/90 92219 10050 20050 38763 48401 58011 60062 75165 333 10051 20024 3/002 49102 55300 91125 91220 96045 96461
BBXX WKPF 01183 99130 70487 43/// ///// 1//// 2//// 4//// 5//// 7//// 8//// 22211 0//// 2//// 3//// 4//// 5//// 6//// ICE /////
BBXX ZQAY4 01184 99252 31538 41597 41420 10250 20204 40137 56004 70222 84100 22244 00287 21004 314// 41005 5//// 80220
AAXX 01184 71332 16/// /0201 11302 21335 30265 40296 53012 60001 333 11296 21329 70000
AAXX 01184 71363 16/// /3115 11368 21409 30155 40214 50008 60001 333 11330 21375 70000
AAXX 01184 71363 16/// /3115 11368 21409 30155 40214 50008 60001 333 11330 21375 70000
AAXX 01184 71029 16/// /0407 11327 21362 30252 40294 53012 60001 333 11322 21346 70000
AAXX 01184 71472 17/// /3217 69981 7//4/ 333 7////
AAXX 01184 71005 16/// ///// 11119 21198 60001 333 11097 21178 70000
AAXX 01184 71047 17/// ///// 11119 21200 69941 7//4/ 333 11095 21166 70004
AAXX 01184 71233 16/// /1503 11099 21216 60001 333 11099 21182 7////
AAXX 01184 71507 16/// /2106 11175 21200 60001 333 11084 21184 70000
AAXX 01184 71507 16/// /2106 11175 21200 60001 333 11084 21184 70000
AAXX 01184 71245 46/// /2214 11105 21239 6///1 333 11105 21157 7////
