BBXX PBIG 01064 99124 70711 41498 20925 10252 20205 40140 54000 7//// 8/1// 22264 00290 20304 80221
BBXX ZMENA 01054 99424 31739 46/// ///// 10168 20115 40017 222//
BBXX ZMFR 01054 99413 31748 43/// /2111 10163 20139 40008 57011 2229/ 00146
BBXX 3EAT6 01053 99179 51668 41398 61119 10280 20237 40098 52010 70322 8/700 22223 00290 20304 311// 40304
BBXX 44172 01061 99445 70634 46/// ///// 1//// 90531 22200 00054 10704 20704 70019
BBXX 46218 01061 99345 71208 46/// ///// 1//// 90532 22200 00134 11306 21003 330// 41304 70028
AAXX 01064 40270 31540 12404 10050 20016 39268 40181 52007 70500 81100 333 20048 30102 81830
BBXX WZP8164 01064 99475 70886 43/// /2220 10005 2//// 40051 5//// 7//// 8//// 22223 0//// 2//02 3//// 4//// 5//// 6//// 8//// ICE /////
BBXX WFLH 01063 99255 71478 41497 63207 10211 20160 40169 51020 72522 8624/ 22214 00211 20202 332// 40705 5//// 6//// 80178 ICE /////
BBXX V7MO2 01064 99262 70914 41797 71614 10227 20199 40217 52003 70222 85/// 22200 00227 20602 3//// 40701 5//// 6//// 80208 ICE /////
BBXX 42362 01061 99278 70907 46/// /1606 10222 20183 40231 90545
BBXX 42363 01061 99282 70892 46/// /1804 10217 20161 40231 90545 333 91205
BBXX 42364 01061 99291 70881 46/// /1903 10211 20161 40234 90545
AAXX 01064 08495 12980 02813 10135 20098 30266 40274 55005 60002 90550 333 20125 30010 70000
AAXX 01064 78958 11470 61110 10250 20228 30132 40142 60111 70681 86800 333 10296 20217 58001 84818
AAXX 01064 78958 11470 61110 10250 20228 30132 40142 60111 70681 86800 333 10296 20217 58001 84818
AAXX 01064 91334 32474 50310 10314 20238 30073 40076 57005 82271 333 56199 70000 555 90106
AAXX 01064 40340 32960 00000 10100 20038 40192 52010 333 20075 30004
AAXX 01064 91334 32474 50310 10314 20238 30073 40076 57005 82271 333 56199 70000 555 90106
BBXX 46249 01061 99338 71197 46/// ///// 1//// 90537 22200 00147 11503 20902 325// 41502 70013
BBXX 46248 01061 99461 71247 46/// ///// 1//// 90534 22200 00095 11206 21003 326// 41205 70029
BBXX 46244 01061 99409 71244 46/// ///// 1//// 90535 22200 00101 11306 21003 329// 41305 70028
BBXX 46240 01061 99366 71219 46/// ///// 1//// 90542 22200 00121 11203 21001 335// 41202 70013
BBXX 46212 01061 99408 71243 46/// ///// 1//// 90542 22200 00104 11305 21003 330// 41305 70027
BBXX 46217 01061 99342 71194 46/// ///// 1//// 90542 22200 00145 11202 21001 327// 41202 70011
BBXX 46211 01061 99469 71242 46/// ///// 1//// 90536 22200 00086 11304 21002 327// 41303 70018
BBXX PCEO 01063 99246 70493 41598 51205 10220 20175 40254 56014 7//22 8434/ 22254 04247 20702 313// 40804 5//// 80190
BBXX BAREU61 01064 99059 10029 46/// /2913 10276 29082 40110 52006 22214
AAXX 01064 40296 32660 42604 10116 20077 40182 52011 84100 333 20107 30008 84830
AAXX 01064 61902 12582 61209 10233 20191 40142 69904 868// 333 20231 59006 81824 86638
AAXX 01061 13579 32970 03502 11031 21080 39367 40240 52019
AAXX 01064 89054 32465 82810 10012 21011 49914 52015 885// 333 56699 88610
AAXX 01064 89056 12460 72816 10008 21014 49915 52021 60001 87500 333 56600 87610
AAXX 01064 89057 11460 82416 10013 20004 49910 52015 60001 70222 886// 333 56699 88710
AAXX 01064 89058 32565 82713 10009 21017 39893 49914 52023 885//
AAXX 01064 89059 11360 82105 11004 21015 49886 52010 60001 70242 886// 333 75099 88706
AAXX 01064 89251 31258 82918 10010 20001 49902 52005 71022 8652/
BBXX 44097 01061 99410 70711 46/// ///// 1//// 90532 22200 00109 10803 20803 70015
BBXX 51205 01061 99210 71564 46/// ///// 1//// 90548 22200 00244 11004 21003 305// 41102 70020
BBXX 46114 01061 99364 71222 46/// ///// 1//// 90534 22200 00121 11306 21004 328// 41305 70030
BBXX 46060 01061 99606 71468 46/// /3104 11045 40102 58011 90550 22200 00040 10901 319// 40901 70004 333 91205 555 11040 22041 30527 42805 60549 307038 301040 302043 305036 298037 285039 82905 90528
BBXX 41115 01061 99184 70673 46/// ///// 1//// 90535 22200 11202 20802 301// 41201 70010
BBXX 41114 01061 99276 70802 46/// ///// 1//// 90546 22200 00233 10901 20901 70003
BBXX 51203 01061 99208 71570 46/// ///// 1//// 90543 22200 00245 11302 21001 325// 41301 70008
BBXX 52200 01061 99134 11448 46/// ///// 1//// 90545 22200 00286 11003 21003 309// 41101 70017
BBXX 51201 01061 99217 71581 46/// ///// 1//// 90542 22200 00240 11203 21002 333// 41201 70013
AAXX 01064 68906 12598 42710 10137 20041 30077 40141 51002 69934 81572 222// 00132 333 20113 91026 555 10191 20003 91014
AAXX 01064 68994 11294 83223 10085 20080 39931 49959 58016 60044 75155 886// 222// 00074 306// 333 20070 91032 555 10111 20042 69985 90995
AAXX 01064 68396 12466 60904 10210 20202 39458 48510 54000 60034 86200 333 20180 555 10225 20030 91015
AAXX 01064 91643 11498 83307 10270 20249 40073 53010 60001 71622 8437/ 333 5679/ 84918 88460
AAXX 01064 91643 11498 83307 10270 20249 40073 53010 60001 71622 8437/ 333 5679/ 84918 88460
AAXX 01064 68392 16/// /0000 10210 20051 30161 4//// 57040 60104 333 20149 91001 555 10214 20106
AAXX 01064 68382 16/// /0402 10209 20150 39357 48538 52005 60204 333 20157 91003 555 10225 20202 91017
BBXX DBBU 01061 99542 10120 46/// /1809 10035 20034 40063 57017 22260 00065
BBXX DBKV 01061 99191 70231 46/// /0715 10202 20109 40204 57012 22211 00224
BBXX DBBT 01061 99339 30184 46/// /9901 10149 20126 40156 52005 22270 00138
BBXX DBFR 01061 99535 10086 46/// /2206 10098 20098 40051 57010 22250 00061
BBXX 44025 01061 99402 70732 46/// /2910 10095 20060 40160 51016 90550 22200 00100 10503 20503 325// 41101 70014 333 91212 555 11107 22113 30523 42913 60549 292101 291104 288108 288106 288101 286102
BBXX 41008 01061 99314 70809 46/// /2003 10170 20168 40227 50000 90550 22200 00163 11001 300// 41001 70003 333 91203 555 11033 22038 30518 42004 60549 201029 200030 201031 197033 198029 199028
BBXX 41004 01061 99325 70791 46/// /2705 10193 20076 40223 54000 90550 22200 00204 10501 20401 3//// 40501 70007 333 91205 555 11047 22049 30516 42606 60549 272045 275044 278048 271050 275050 277049
BBXX 44009 01061 99385 70747 46/// /3006 10099 40203 51008 90550 22200 00100 10702 20401 300// 40701 70008 333 91208 555 11066 22070 30500 43109 60549 303062 305059 306061 305066 309069 308068
AAXX 01064 89009 41436 83410 11244 36859 53012 77771 886// 333 88715
AAXX 01064 89009 41436 83410 11244 36859 53012 77771 886// 333 88715
AAXX 01064 78954 12582 20817 10260 20209 30080 40145 60001 81201 333 10296 20223 59001 51822
BBXX 44014 01061 99366 70748 46/// /2305 1//// 40200 54000 90550 22200 00140 10801 20401 317// 40801 70007 333 91206 555 11050 22050 30456 42307 60549 227049 227046 230050 224053 218054 219057
BBXX 44027 01061 99443 70673 46/// /3411 10040 20030 40061 55000 90550 22200 00077 10402 20402 3//// 40701 70012 333 91212 555 11111 22117 30523 43315 60549 338105 337114 335122 334115 335109 331111
BBXX 44065 01061 99404 70737 46/// /2809 10087 20057 40168 51015 90550 22200 00096 10702 20301 317// 40701 70009 333 91211 555 11093 22098 30543 42811 60549 281087 284084 286084 288087 287088 290083 82909 90510
BBXX 41013 01061 99334 70777 46/// /3201 10168 20091 40216 51005 90550 22200 00177 10602 20301 320// 40602 70010 333 91201 555 11010 22010 30510 43002 60549 322010 314010 310011 306013 293015 290014
BBXX BAREU63 01064 99326 10194 46/// /3322 10154 29054 40203 52015 22232
AAXX 01064 78954 12582 20817 10260 20209 30080 40145 60001 81201 333 10296 20223 59001 51822
AAXX 01064 61901 169// /1315 10154 20142 39666 40177 53008 60002 90550 333 20154 3/015 70002 8//99 90710 91128 555 7/090
AAXX 01063 78970 11466 20000 10246 20219 30108 40133 6///1 70580 82800 333 02100 10314 20231 58000 81816 90925
AAXX 01063 78970 11466 20000 10246 20219 30108 40133 6///1 70580 82800 333 02100 10314 20231 58000 81816 90925
AAXX 01064 91487 NIL
AAXX 01064 91490 NIL
AAXX 01064 91533 NIL
AAXX 01064 91601 NIL
AAXX 01064 91610 11599 10710 10287 20241 40073 53007 60001 70100 81100 333 562//
AAXX 01064 81820 =3D 91623 NIL
AAXX 01064 91629 NIL
AAXX 01064 91701 11599 10906 10274 2025/ 4//// 60001 70200 81100 333 562// 81820
AAXX 01064 91487 NIL
AAXX 01064 91490 NIL
AAXX 01064 91533 NIL
AAXX 01064 91601 NIL
AAXX 01064 91610 11599 10710 10287 20241 40073 53007 60001 70100 81100 333 562//
AAXX 01064 81820 =3D 91623 NIL
AAXX 01064 91629 NIL
AAXX 01064 91701 11599 10906 10274 2025/ 4//// 60001 70200 81100 333 562// 81820
BBXX 41012 01061 99300 70805 46/// /2507 10207 40227 51005 90550 22200 00231 11001 20301 309// 41001 70005 333 91209 555 11077 22081 30455 42310 60549 252072 246074 244076 239078 236079 233080
BBXX 41060 01061 99148 70510 46/// ///// 1//// 90550 22200 10906 70030
BBXX 41001 01061 99347 70727 46/// ///// 10191 20083 40197 51005 90550 22200 00214 10806 70029
BBXX 41049 01061 99275 70630 46/// /1605 10231 20208 40242 56013 90550 22200 00233 10803 20401 300// 40803 70017 333 91206 555 11052 22055 30459 41607 60549 160049 159047 162048 160049 158052 157056 81606 90455
BBXX 42020 01061 99270 70967 46/// /1503 10210 20201 40199 52014 90550 22200 00198 10501 20401 312// 40501 70006 333 91203 555 11032 22037 30458 41605 60549 148027 152035 157037 160036 160037 160040
BBXX 41044 01061 99217 70587 46/// /0809 10247 20207 40220 57013 90550 22200 00258 11006 20804 300// 41005 70032 333 91210 555 11091 22096 30450 40812 60549 078087 079085 080086 080086 078088 079092 80810 90452
BBXX 42065 01061 99149 70750 46/// /0607 10259 20234 90550 22200 10704 20403 3//// 40702 70019 333 91208 555 11075 22080 30536 40511 60549 058070 050082 052084 055078 058075 053074 80509 90537
BBXX 41048 01061 99320 70696 46/// /2509 10219 20182 40206 58009 90550 22200 00220 10703 20703 3//// 40901 70016 333 91211 555 11091 22097 30548 42511 60549 253091 244078 236075 240081 239079 231082 82510 90548
BBXX 42012 01061 99301 70876 46/// /1804 10195 20181 40220 54000 90550 22200 00189 10601 70003 333 91205 555 11048 22054 30529 41805 60549 181045 180045 177047 176044 177044 177044
BBXX 42001 01061 99259 70897 46/// /1505 10242 20188 40223 50000 90550 22200 00242 10501 20301 70004 333 91205 555 11048 22051 30457 41406 60549 143045 142047 140047 141048 142052 142052
BBXX 42035 01061 99292 70944 46/// /1602 10168 20168 40208 52017 90550 22200 00156 10501 20401 319// 40501 70006 333 91203 555 11028 22034 30450 41703 60549 163024 163027 165027 162024 163024 171027
BBXX 42058 01061 99149 70749 46/// /0812 10271 20218 40133 58012 90550 22200 00271 10906 20504 312// 40904 70030 333 91214 555 11124 22133 30456 40915 60549 081116 082108 083118 084119 086116 085121 80813 90456
BBXX 42060 01061 99163 70635 46/// /0708 10268 20219 40173 58013 90550 22200 00273 11004 20603 300// 41002 70020 333 91210 555 11088 22094 30459 40712 60549 066083 068088 069088 067091 068091 070095 80710 90456
BBXX 42036 01061 99285 70845 46/// /1302 10210 20169 40230 58004 90550 22200 00213 10501 323// 40501 70003 333 91203 555 11020 22020 30547 41203 60549 125019 135016 133020 134019 136017 139017
BBXX 42056 01061 99198 70849 46/// /0708 10263 20233 40187 58004 90550 22200 00269 10703 20703 70015 333 91209 555 11084 22089 30452 40710 60549 069080 064078 069077 074085 070083 071087 80709 90456
BBXX 42059 01061 99151 70675 46/// /0810 10273 20218 40160 58011 90550 22200 00277 10805 20604 3//// 40803 70025 333 91211 555 11101 22108 30521 40812 60549 081095 078094 078098 076093 081091 076096 80811 90530
BBXX 42019 01061 99279 70954 46/// /1905 10230 20218 40202 53016 90550 22200 10502 20401 316// 40501 70008 333 91205 555 11048 22051 30451 42706 60549 198046 265048 266050 268052 268051 268054
BBXX 44005 01061 99432 70691 46/// /3211 10060 20058 40092 53012 90550 22200 00080 10503 20503 70015 333 91213 555 11118 22125 30457 43213 60549 319110 317109 315102 319107 319109 319111
BBXX 42040 01061 99292 70882 46/// /1705 10208 40222 50000 90550 22200 00206 10501 320// 40501 70003 333 91206 555 11047 22052 30539 41706 60549 173047 168048 163046 150042 145039 140042
AAXX 01064 91413 32469 40814 10301 20214 30068 40093 57017 81171 333 56299 70000 555 90106
BBXX 42003 01061 99260 70856 46/// /0803 1//// 90550 22200 10601 70003 333 91205 555 11031 22032 30527 40905 60549 083029 082036 087036 091029 090035 087034 80904 90527
BBXX 42055 01061 99222 70940 46/// /1107 10249 20210 40191 50000 90550 22200 00250 10602 20602 70008 333 91208 555 11078 22083 30546 41108 60549 108072 110070 108067 109066 113065 110064 81108 90546
BBXX 42002 01061 99258 70937 46/// /1607 10243 20231 40206 50003 90550 22200 00246 10602 20602 70009 333 91209 555 11073 22078 30538 41510 60549 154074 154075 152074 151072 150073 152070
BBXX 41047 01061 99275 70715 46/// /2001 10240 40231 58008 90550 22200 00253 10802 312// 40802 70011 333 91202 555 11009 22009 30451 41503 60549 202009 184012 193015 178014 169016 156017 81502 90452
BBXX 41043 01061 99211 70650 46/// /1209 10244 20226 40211 58014 90550 22200 00258 10904 20603 300// 40903 70022 333 91210 555 11093 22099 30540 41011 60549 115089 100090 097087 107081 095071 085071 81010 90537
BBXX 41036 01061 99342 70770 46/// ///// 10166 20070 40214 51005 90550 22200 00195 10702 70010
BBXX 44066 01061 99396 70726 46/// /3011 10111 20072 40163 53015 90550 22200 00127 10604 20604 3//// 40901 70022 333 91213 555 11118 22125 30516 43014 60549 301111 302118 301115 302117 305113 303112
BBXX 44060 01061 99413 70721 46/// ///04 10064 40155 90545 22200 00091 333 91205 555 11036 22036
BBXX 44022 01061 99409 70737 46/// ///03 10077 20041 40171 90545 22200 00070 333 91204 555 11036 22041
BBXX 44020 01061 99414 70702 46/// /2908 10058 20050 40122 51016 90550 22200 00064 333 91209 555 11085 22090 30534 42710 60549 285080 264084 264081 264081 265075 267071
BBXX 46105 01061 99590 71522 46/// ///// 1//// 90550 22200 10604 70019
BBXX 46070 01061 99551 11753 46/// /3409 11020 21079 40079 54000 90550 22200 00031 10706 20705 3//// 41004 70030 333 91211 555 11093 22097 30453 43613 60549 342090 347090 349092 356092 354098 355099 83611 90454
BBXX 32012 01061 99197 50856 46/// ///// 1//// 90550 22200 11004 70019
BBXX 46002 01061 99426 71305 46/// ///// 10125 40132 50000 90550 22200 00118 11007 70034
BBXX 46006 01061 99408 71375 46/// /1611 10136 40007 57015 90550 22200 00121 10806 20604 3//// 40804 70031 333 91212 555 11114 22124 30540 41613 60549 161105 160105 157101 157101 159096 163098
BBXX 46084 01061 99566 71361 46/// ///// 10021 20013 40054 56039 90550 22200 00068 10808 70038
BBXX 46075 01061 99539 71608 46/// /2002 11034 21093 40142 56013 90550 22200 00039 11303 20401 300// 41303 70014 333 91204 555 11022 22023 30450 42004 60549 200023 182024 220019 211020 193011 203013 81903 90547
BBXX 46005 01061 99461 71310 46/// ///09 10102 40068 51019 90550 22200 00098 11008 20604 3//// 41007 70040 333 91210 555 11091 22098
BBXX 46059 01061 99380 71300 46/// /1709 10132 40182 56006 90550 22200 00136 11104 20502 3//// 41103 70019 333 91210 555 11092 22097 30450 41811 60549 165086 166078 161084 161079 161073 167078
BBXX 46080 01061 99580 71500 46/// /3408 11061 21120 40102 58006 90550 22200 00044 10703 20602 3//// 40701 70013 333 91210 555 11082 22085 30521 43511 60549 337078 345079 349079 344084 347079 348076 83510 90522
BBXX WDB9950 01063 99485 11559 41398 83408 10010 21015 40220 51015 7//22 886// 22254 00020 20101 310// 40606 5//// 6//// 80000 ICE /////
BBXX WFLG 01064 99331 71196 41/91 93600 10103 20097 40185 52010 74444 22264 00117 2//// 329// 40605 5//// 6//// 80100 ICE /////
BBXX C6TH9 01063 99165 51517 41597 70210 10250 2022/ 40130 51020 70222 86928 22200 00260 20101 3//// 4//// 5//// 6//// 80230 ICE /////
BBXX WDC6698 01064 99213 71579 43/// /2010 1//// 2//// 40160 5//// 7//// 8//// 222// 04237 2//// 3//// 4//// 5//// 6//// 8//// ICE /////
BBXX NWS0022 01064 99416 70714 43/// /2904 10065 20046 40135 5//// 7//// 8//// 222// 04090 2//// 3//// 4//// 5//// 6//// 8//// ICE /////
BBXX 46014 01061 99394 71240 46/// /0603 10098 40219 50000 90550 22200 00109 11406 20401 3//// 41406 70030 333 91204 555 11029 22030 30503 40506 60549 054029 044030 047031 050041 051042 045041
BBXX 46011 01061 99350 71210 46/// /0103 10141 40178 52008 90550 22200 00132 11504 20401 328// 41504 70021 333 91205 555 11037 22043 30501 43506 60549 012033 010039 000040 007035 003045 355044
BBXX 46047 01061 99324 71195 46/// /0803 10101 40187 53012 90550 22200 00136 11305 20301 327// 41305 70024 333 91205 555 11033 22034 30548 40805 60549 082031 073031 089031 108022 093020 089028
BBXX 46086 01061 99325 71180 46/// /0402 10136 40183 51009 90550 22200 00151 11604 328// 41603 70018 333 91203 555 11018 22019 30545 40403 60549 038018 026017 039014 036019 038017 031017
BBXX 46027 01061 99419 71244 46/// /1202 10088 40216 56009 90550 22200 00090 11205 329// 41205 70027 333 91203 555 11022 22023 30450 41205 60549 120020 190005 154015 130031 127037 122039
BBXX 46088 01061 99483 71232 46/// /0706 10055 40252 57003 90550 22200 00075 10301 20301 70004 333 91207 555 11066 22069 30455 40608 60549 071063 064066 061062 064067 067068 060068
BBXX 46050 01061 99442 71246 46/// /1106 10078 40212 58007 90550 22200 00095 11105 20301 329// 41105 70024 333 91207 555 11064 22067 30519 41008 60549 112060 110059 111062 114065 109059 104057
BBXX 46069 01061 99337 71202 46/// /1401 10089 40182 52008 90550 22200 00132 11205 20401 330// 41204 70023 333 91202 555 11009 22009 30546 41402 60549 138008 109002 104002 109001 180000 180000
BBXX 46013 01061 99382 71233 46/// /0304 10109 40212 50000 90550 22200 00110 11206 20401 3//// 41206 70028 333 91205 555 11042 22045 30549 40305 60549 029041 018039 004041 358040 344039 335039
BBXX 46012 01061 99374 71229 46/// /0206 10130 40198 54000 90550 22200 00119 11206 20402 331// 41205 70028 333 91207 555 11063 22070 30547 40307 60549 021057 024055 021038 012044 015043 017052
BBXX 46087 01061 99485 71247 46/// /0909 10068 20008 40240 56003 90550 22200 00080 333 91212 555 11100 22106 30537 40913 60549 093095 086101 092095 095090 086097 087094
BBXX 46029 01061 99461 71245 46/// /1007 10077 20037 40212 57007 90550 22200 00087 11304 20402 328// 41304 70021 333 91209 555 11075 22079 30508 41110 60549 100071 096073 105066 104071 101079 101079
BBXX 46028 01061 99357 71219 46/// /2503 10131 40184 53006 90550 22200 00130 11205 20301 331// 41205 70027 333 91203 555 11027 22029 30508 42705 60549 251025 259031 255032 261034 267039 261036
BBXX 46025 01061 99337 71191 46/// /1602 10109 20108 40180 53013 90550 22200 00147 11502 324// 41502 70012 333 91203 555 11025 22025 30548 41603 60549 165024 176020 190022 188019 194013 203010
AAXX 01064 78962 11468 20605 10249 20207 30133 40141 60001 70500 82200 333 01200 10303 20221 59008 82816
BBXX DBUT 01061 99223 50402 41298 60314 10240 20219 40146 57025 70122 867// 22255 21205 3//// 4//// 5//// 80225
BBXX ONCE 01064 99211 11216 41798 70527 10230 2019/ 40165 56015 70322 86260 22213 00250 20302 303// 40807 5//// 6//// 80200 ICE /////
BBXX V7DI8 01063 99226 11201 41496 13410 10240 2016/ 40200 56030 70111 81100 22273 00230 20602 335// 40603 5//// 6//// 80190 ICE /////
BBXX HZGN 01063 99057 10968 41297 71310 10270 20257 40125 58012 76166 842// 22264 02260 2//// 302// 40301 5//// 80260
BBXX OUJS2 01064 99436 11671 41195 80142 10080 2004/ 49930 56050 75155 88722 22224 00060 20701 32727 41202 51002 6//// 80060 ICE /////
BBXX WDB9950 01063 99485 11559 41398 83408 10010 21015 40220 51015 7//22 886// 22254 00020 20101 310// 40606 5//// 6//// 80000 ICE /////
BBXX SHIP 01064 99291 11787 41597 22420 10220 20205 40120 57010 7//00 821// 22263 00220 20503 332// 40704 5//// 6//// 80210 ICE /////
BBXX DBKV 01061 99191 70231 46/// /0715 10202 20109 40204 57012 22211 00224
BBXX DBBT 01061 99339 30184 46/// /9901 10149 20126 40156 52005 22270 00138
BBXX BAREU61 01064 99059 10029 46/// /2913 10276 29082 40110 52006 22214
BBXX 41013 01061 99334 70777 46/// /3201 10168 20091 40216 51005 90550 22200 00177 10602 20301 320// 40602 70010 333 91201 555 11010 22010 30510 43002 60549 322010 314010 310011 306013 293015 290014
BBXX 44027 01061 99443 70673 46/// /3411 10040 20030 40061 55000 90550 22200 00077 10402 20402 3//// 40701 70012 333 91212 555 11111 22117 30523 43315 60549 338105 337114 335122 334115 335109 331111
BBXX 44065 01061 99404 70737 46/// /2809 10087 20057 40168 51015 90550 22200 00096 10702 20301 317// 40701 70009 333 91211 555 11093 22098 30543 42811 60549 281087 284084 286084 288087 287088 290083 82909 90510
BBXX 44014 01061 99366 70748 46/// /2305 1//// 40200 54000 90550 22200 00140 10801 20401 317// 40801 70007 333 91206 555 11050 22050 30456 42307 60549 227049 227046 230050 224053 218054 219057
BBXX 41008 01061 99314 70809 46/// /2003 10170 20168 40227 50000 90550 22200 00163 11001 300// 41001 70003 333 91203 555 11033 22038 30518 42004 60549 201029 200030 201031 197033 198029 199028
BBXX 41004 01061 99325 70791 46/// /2705 10193 20076 40223 54000 90550 22200 00204 10501 20401 3//// 40501 70007 333 91205 555 11047 22049 30516 42606 60549 272045 275044 278048 271050 275050 277049
BBXX 44009 01061 99385 70747 46/// /3006 10099 40203 51008 90550 22200 00100 10702 20401 300// 40701 70008 333 91208 555 11066 22070 30500 43109 60549 303062 305059 306061 305066 309069 308068
BBXX 44025 01061 99402 70732 46/// /2910 10095 20060 40160 51016 90550 22200 00100 10503 20503 325// 41101 70014 333 91212 555 11107 22113 30523 42913 60549 292101 291104 288108 288106 288101 286102
BBXX C6SE3 01064 99125 70720 41697 10918 10245 20238 40170 57010 7//// 8/4// 22254 00240 20202 3//// 40404 5//// 6//// 80240 ICE /////
BBXX WSLH 01064 99248 71504 41498 52909 10222 2017/ 40170 55020 70222 8524/ 22253 00183 20101 312// 40802 5//// 6//// 80189 ICE /////
BBXX ZCDF4 01063 99136 70709 41598 40730 10265 20236 40145 51000 78011 84800 22274 00270 20602 309// 41003 5//// 80245
BBXX 9VVN 01064 99546 71492 41/97 /0328 10000 2106/ 40045 53005 7//// 8//// 22264 00040 2//// 3//// 4//// 5//// 6//// 81020
BBXX WFLG 01064 99331 71196 41/91 93600 10103 20097 40185 52010 74444 8/// 22264 00117 2//// 329// 40605 5//// 6//// 80100 ICE /////
BBXX 51205 01061 99210 71564 46/// ///// 1//// 90548 22200 00244 11004 21003 305// 41102 70020
BBXX 41115 01061 99184 70673 46/// ///// 1//// 90535 22200 11202 20802 301// 41201 70010
BBXX 46060 01061 99606 71468 46/// /3104 11045 40102 58011 90550 22200 00040 10901 319// 40901 70004 333 91205 555 11040 22041 30527 42805 60549 307038 301040 302043 305036 298037 285039 82905 90528
BBXX 46114 01061 99364 71222 46/// ///// 1//// 90534 22200 00121 11306 21004 328// 41305 70030
BBXX 44097 01061 99410 70711 46/// ///// 1//// 90532 22200 00109 10803 20803 70015
BBXX 41114 01061 99276 70802 46/// ///// 1//// 90546 22200 00233 10901 20901 70003
BBXX PCEO 01063 99246 70493 41598 51205 10220 20175 40254 56014 7//22 8434/ 22254 04247 20702 313// 40804 5//// 80190
BBXX 46211 01061 99469 71242 46/// ///// 1//// 90536 22200 00086 11304 21002 327// 41303 70018
BBXX 46212 01061 99408 71243 46/// ///// 1//// 90542 22200 00104 11305 21003 330// 41305 70027
BBXX 46240 01061 99366 71219 46/// ///// 1//// 90542 22200 00121 11203 21001 335// 41202 70013
BBXX 46217 01061 99342 71194 46/// ///// 1//// 90542 22200 00145 11202 21001 327// 41202 70011
BBXX 46244 01061 99409 71244 46/// ///// 1//// 90535 22200 00101 11306 21003 329// 41305 70028
BBXX 46249 01061 99338 71197 46/// ///// 1//// 90537 22200 00147 11503 20902 325// 41502 70013
BBXX WZP8164 01064 99475 70886 43/// /2220 10005 2//// 40051 5//// 7//// 8//// 22223 0//// 2//02 3//// 4//// 5//// 6//// 8//// ICE /////
BBXX 46248 01061 99461 71247 46/// ///// 1//// 90534 22200 00095 11206 21003 326// 41205 70029
BBXX KGTZ 01064 99538 71574 41898 43512 11067 2//// 40134 57010 70200 82285 22224 00044 20602 33309 41205 51605 6//// ICE /////
BBXX DQVK 01063 99173 70676 41498 31018 10260 20225 40180 50000 70200 83100 22274 00278 29904 3//// 4//// 5//// 80235
BBXX 42362 01061 99278 70907 46/// /1606 10222 20183 40231 90545
BBXX 42363 01061 99282 70892 46/// /1804 10217 20161 40231 90545 333 91205
BBXX 42364 01061 99291 70881 46/// /1903 10211 20161 40234 90545
BBXX TBWUK42 01064 99082 30787 41598 73207 10305 20253 40103 52/// 70322 8//04 22213 20404 308// 40805 5//// 80268
BBXX ZCBZ5 01063 99017 11051 41697 60312 10290 20248 40098 51010 70222 83474 2221/ 02282 20303 302// 40603 5//// 80260
BBXX 4XIS 01063 99086 70849 43698 30208 10260 2024/ 40120 53010 22235 80250
BBXX DBFR 01061 99535 10086 46/// /2206 10098 20098 40051 57010 22250 00061
BBXX DBBU 01061 99542 10120 46/// /1809 10035 20034 40063 57017 22260 00065
BBXX ZQTP2 01064 99372 10027 41998 02618 10153 20106 40268 54000 70200 80000 22263 00160 2//// 3//// 4//// 5//// 80128
BBXX VRCZ7 01063 99435 70098 41/96 82727 10140 20131 40221 54000 70252 8//// 22254 2//// 3//// 4//// 5//// 80135
AAXX 01064 91413 32469 40814 10301 20214 30068 40093 57017 81171 333 56299 70000 555 90106
AAXX 01064 78962 11468 20605 10249 20207 30133 40141 60001 70500 82200 333 01200 10303 20221 59008 82816
AAXX 01061 76040 32902 02701 10122 20074 30164 40178 52006 90545 333 10264 20060 30/// 55090 58025 98602
AAXX 01061 76382 32660 20000 10126 20080 38935 40165 52011 82030 90550 333 10268 20055 30/// 55043 2//// 56050 58018 82356
AAXX 01061 76458 32960 03102 10170 20153 30152 40156 52005 90540 333 10264 20099 30/// 55095 58012
AAXX 01061 76525 32660 40808 10116 20007 37503 40128 52010 84600 90540 333 10188 20116 30/// 55092 22351 565// 58021 87444
AAXX 01061 76548 32760 50702 10214 20208 30196 40206 52012 85030 90530 333 10282 20188 30/// 55055 56050 58020 85356
AAXX 01061 76556 32960 01302 10176 20135 39131 40129 51008 90530 333 10292 20122 30/// 55097 58014
AAXX 01061 76577 32560 53603 10170 20140 38067 40117 52019 85400 90540 333 10265 20102 30/// 55068 56500 58017 85623
AAXX 01061 76644 32350 21202 10228 20202 30185 40198 52004 81270 90550 333 10322 20209 30/// 55068 20874 5611/ 58017 81810 82320
AAXX 01061 76654 31956 00000 10232 20208 30160 40164 52013 70544 90550 333 10294 20211 30/// 55064 20552 58024
AAXX 01061 76665 32958 01801 10130 20085 38145 40127 52009 90530 333 10270 20093 30/// 55067 21020 58017
AAXX 01061 76680 31962 02302 10110 20080 37781 40145 52000 70500 90550 333 10220 20104 30/// 55047 20837 58014
AAXX 01061 76685 32950 00000 10106 20058 37895 40131 52007 90550 333 10232 20078 30/// 55084 58009
AAXX 01061 76687 31358 61801 10156 20141 38719 40197 50008 70242 86500 90540 333 10225 20126 30/// 55048 563// 58018 82712 84618
AAXX 01061 76692 31520 70401 10239 20227 30176 40195 52018 71044 8545/ 90545 333 10278 20214 30/// 55080 5622/ 58022 85622
AAXX 01061 76737 31470 60000 10158 20141 38810 40183 50002 70222 866// 90530 333 10233 20130 30/// 55055 569// 58016 86710
AAXX 01061 76750 32558 50601 10245 20227 30173 40183 57005 81120 90550 333 10313 20198 31/// 55012 58/// 81820 84557
AAXX 01061 76762 31904 01201 10188 20162 38776 40126 51012 74144 90545 333 10312 20156 30/// 55071 20891 58016 91204
AAXX 01061 76845 32330 70201 10136 20117 37970 40167 54001 87700 90545 333 10222 20065 30/// 55064 56200 58009 87707
AAXX 01061 76311 32940 00000 10148 20070 39880 40151 51015 90540 333 10338 20066 30/// 58005
AAXX 01061 76640 31010 40000 10224 20221 30195 40207 52006 71044 8322/ 90540 333 10278 20182 30/// 55032 5639/ 58011 83801
AAXX 01061 76040 32902 02701 10122 20074 30164 40178 52006 90545 33310264 20060 30/// 55090 58025 98602
AAXX 01061 76382 32660 20000 10126 20080 38935 40165 52011 82030 90550333 10268 20055 30/// 55043 2//// 56050 58018 82356
AAXX 01061 76458 32960 03102 10170 20153 30152 40156 52005 90540 33310264 20099 30/// 55095 58012
AAXX 01061 76525 32660 40808 10116 20007 37503 40128 52010 84600 90540333 10188 20116 30/// 55092 22351 565// 58021 87444
AAXX 01061 76548 32760 50702 10214 20208 30196 40206 52012 85030 90530333 10282 20188 30/// 55055 56050 58020 85356
AAXX 01061 76556 32960 01302 10176 20135 39131 40129 51008 90530 33310292 20122 30/// 55097 58014
AAXX 01061 76577 32560 53603 10170 20140 38067 40117 52019 85400 90540333 10265 20102 30/// 55068 56500 58017 85623
AAXX 01061 76644 32350 21202 10228 20202 30185 40198 52004 81270 90550333 10322 20209 30/// 55068 20874 5611/ 58017 81810 82320
AAXX 01061 76654 31956 00000 10232 20208 30160 40164 52013 70544 90550333 10294 20211 30/// 55064 20552 58024
AAXX 01061 76665 32958 01801 10130 20085 38145 40127 52009 90530 33310270 20093 30/// 55067 21020 58017
AAXX 01061 76680 31962 02302 10110 20080 37781 40145 52000 70500 90550333 10220 20104 30/// 55047 20837 58014
AAXX 01061 76685 32950 00000 10106 20058 37895 40131 52007 90550 33310232 20078 30/// 55084 58009
AAXX 01061 76687 31358 61801 10156 20141 38719 40197 50008 70242 8650090540 333 10225 20126 30/// 55048 563// 58018 82712 84618
AAXX 01061 76692 31520 70401 10239 20227 30176 40195 52018 71044 8545/90545 333 10278 20214 30/// 55080 5622/ 58022 85622
AAXX 01061 76737 31470 60000 10158 20141 38810 40183 50002 70222 866//90530 333 10233 20130 30/// 55055 569// 58016 86710
AAXX 01061 76750 32558 50601 10245 20227 30173 40183 57005 81120 90550333 10313 20198 31/// 55012 58/// 81820 84557
AAXX 01061 76762 31904 01201 10188 20162 38776 40126 51012 74144 90545333 10312 20156 30/// 55071 20891 58016 91204
AAXX 01061 76845 32330 70201 10136 20117 37970 40167 54001 87700 90545333 10222 20065 30/// 55064 56200 58009 87707
AAXX 01061 76311 32940 00000 10148 20070 39880 40151 51015 90540 33310338 20066 30/// 58005
AAXX 01061 76640 31010 40000 10224 20221 30195 40207 52006 71044 8322/90540 333 10278 20182 30/// 55032 5639/ 58011 83801
AAXX 01064 78792 32560 50000 10254 20220 30090 40102 57008 82130 333 10323 20243 30/// 560// 82818 83080
AAXX 01064 78792 32560 50000 10254 20220 30090 40102 57008 82130 333 10323 20243 30/// 560// 82818 83080
AAXX 01064 48001 NIL
AAXX 01064 48004 32562 60401 10190 20139 86900 333 56500
AAXX 01064 48008 32558 63601 10230 20097 40166 83550 333 56440 59021
AAXX 01064 48010 32560 13601 10225 20156 40167 81100 333 56900 59012
AAXX 01064 48018 32960 01401 10255 20160 40168 333 59020
AAXX 01064 48019 32458 70402 10237 20136 40161 83839 333 56456 59028
AAXX 01064 48020 32458 63601 10233 20143 85830 333 56550
AAXX 01064 48025 32458 70401 10250 20205 40160 84870 333 56540 59024
AAXX 01064 48035 31560 70000 10224 20173 40143 70544 85820 333 56590 59012
AAXX 01064 48037 32962 03601 10267 20154 40155 333 59018
AAXX 01064 48042 32559 12701 10262 20160 40151 81200 333 56900 59012
AAXX 01064 48045 31/05 90000 10161 20161 74544 89/// 333 56999
AAXX 01064 48048 32960 00401 10273 20172 40153 333 59017
AAXX 01064 48053 32556 23601 10280 20146 40145 82500 333 569// 59028
AAXX 01064 48057 32457 42202 10241 20155 84801 333 56609
AAXX 01064 48060 32440 10000 10230 20163 40150 81100 333 56500 59016
AAXX 01064 48062 32960 00905 10285 20210 40138 333 59018
AAXX 01064 48071 32960 03203 10280 20233 40142 333 59017
AAXX 01064 48077 32960 00000 10312 20189 40139 333 59011
AAXX 01064 48078 32558 22701 10300 20207 40140 81201 333 56909 59015
AAXX 01064 48080 32961 03201 10338 20225 40125 333 59017
AAXX 01064 48094 32962 00402 10310 20230 40133 333 59012
AAXX 01064 48097 32457 20402 10325 20206 40143 82100 333 59005
AAXX 01064 48108 31997 20503 10345 20204 40127 70522 80005 333 56009 58001
AAXX 01064 48109 NIL
AAXX 01064 48110 31596 30404 10330 20206 40117 70522 82205 333 56209 59012
AAXX 01064 48112 NIL
AAXX 01064 48001 NIL
AAXX 01064 48004 32562 60401 10190 20139 86900 333 56500
AAXX 01064 48008 32558 63601 10230 20097 40166 83550 333 56440 59021
AAXX 01064 48010 32560 13601 10225 20156 40167 81100 333 56900 59012
AAXX 01064 48018 32960 01401 10255 20160 40168 333 59020
AAXX 01064 48019 32458 70402 10237 20136 40161 83839 333 56456 59028
AAXX 01064 48020 32458 63601 10233 20143 85830 333 56550
AAXX 01064 48025 32458 70401 10250 20205 40160 84870 333 56540 59024
AAXX 01064 48035 31560 70000 10224 20173 40143 70544 85820 333 56590 59012
AAXX 01064 48037 32962 03601 10267 20154 40155 333 59018
AAXX 01064 48042 32559 12701 10262 20160 40151 81200 333 56900 59012
AAXX 01064 48045 31/05 90000 10161 20161 74544 89/// 333 56999
AAXX 01064 48048 32960 00401 10273 20172 40153 333 59017
AAXX 01064 48053 32556 23601 10280 20146 40145 82500 333 569// 59028
AAXX 01064 48057 32457 42202 10241 20155 84801 333 56609
AAXX 01064 48060 32440 10000 10230 20163 40150 81100 333 56500 59016
AAXX 01064 48062 32960 00905 10285 20210 40138 333 59018
AAXX 01064 48071 32960 03203 10280 20233 40142 333 59017
AAXX 01064 48077 32960 00000 10312 20189 40139 333 59011
AAXX 01064 48078 32558 22701 10300 20207 40140 81201 333 56909 59015
AAXX 01064 48080 32961 03201 10338 20225 40125 333 59017
AAXX 01064 48094 32962 00402 10310 20230 40133 333 59012
AAXX 01064 48097 32457 20402 10325 20206 40143 82100 333 59005
AAXX 01064 48108 31997 20503 10345 20204 40127 70522 80005 333 56009 58001
AAXX 01064 48109 NIL
AAXX 01064 48110 31596 30404 10330 20206 40117 70522 82205 333 56209 59012
AAXX 01064 48112 NIL
BBXX BAREU08 01064 99417 70210 46/// ///// 40217 52016 22254
BBXX BAREU04 01064 99404 70692 46/// ///// 40123 52009 22213
AAXX 01064 81405 04472 80000 10231 20224 30105 40114 69901 700// 333 3/021 55012 60007 59001 70199 555 60005
BBXX BAREU54 01064 99100 70829 46/// ///// 40129 22200
AAXX 01064 85874 32682 /3013 10139 20075 39496 40107 58010
AAXX 01064 85934 12580 52905 10061 20027 40060 52004 60001 82501 333 56606 82620 84070
AAXX 01064 89056 12460 72816 10008 21014 49915 52021 60001 87500 333 56600 87610
AAXX 01064 89057 11460 82416 10013 20004 49910 52015 60001 70222 886// 333 56699 88710
AAXX 01064 89058 32565 82713 10009 21017 39893 49914 52023 885//
AAXX 01064 89059 11360 82105 11004 21015 49886 52010 60001 70242 886// 333 75099 88706
AAXX 01064 89251 31258 82918 10010 20001 49902 52005 71022 8652/
AAXX 01064 85406 12970 02603 10206 20148 40125 58017 60001
AAXX 01064 85418 12965 02107 10209 20119 40133 57019 60001
AAXX 01064 85442 12970 00702 10182 20139 40137 57014 60001
AAXX 01064 85469 42565 30000 10190 20164 40187 52003 83200 333 56200 83820
AAXX 01064 85488 12965 01001 10147 20124 40154 57002 60001
AAXX 01064 85574 12960 01405 10169 20114 39589 40136 58009 60001
AAXX 01064 85577 12960 00000 10175 20119 39538 40140 57009 60001
AAXX 01064 85585 339// 91911 10165 20121 30160 40196 58004
AAXX 01064 85682 11250 41402 10128 20123 40156 58007 60001 71011 84600 333 56000 84703
AAXX 01064 85743 12360 60000 10106 20101 40191 56002 60001 86600 333 56600 86707
AAXX 01064 85799 12260 82303 10141 20141 40199 51005 60001 88600 333 56500 83706 88629
AAXX 01064 91772 31398 40000 10293 20242 4//// 60001 70221 81702 333 569/9 81708 84080
AAXX 01064 91776 NIL
AAXX 01064 91779 31498 20906 10284 20219 40095 53006 60001 70221 82101 333 562/9 82817
AAXX 01064 91784 31499 21108 10280 20246 40091 53007 60001 70200 82100 333 563// 82818
AAXX 01064 91792 11498 71010 10265 20233 40109 53003 69901 70282 878// 333 562// 81711 83816 86645
AAXX 01064 91772 31398 40000 10293 20242 4//// 60001 70221 81702 333 569/9 81708 84080
AAXX 01064 91776 NIL
AAXX 01064 91779 31498 20906 10284 20219 40095 53006 60001 70221 82101 333 562/9 82817
AAXX 01064 91784 31499 21108 10280 20246 40091 53007 60001 70200 82100 333 563// 82818
AAXX 01064 91792 11498 71010 10265 20233 40109 53003 69901 70282 878// 333 562// 81711 83816 86645
AAXX 01064 68352 16/// /2524 10234 20024 39064 48518 53001 69964 333 20179 91084 555 10250 20006 91016
AAXX 01064 97180 11458 73605 10286 20248 30084 40102 58022 60111 70262 84232 333 56000 84619 83360
AAXX 01064 16597 32665 63003 10094 20060 30138 40227 53010 86500 333 20083 30/// 70000 86647
AAXX 01061 13586 32770 52603 10004 21057 39940 40241 52014 85500 333 20003 31/// 85650
BBXX BATFR32 01064 99418 10087 46/// /0710 10121 20076 40197 53012 7//// 8//// 22233 00154
AAXX 01064 78925 14684 /0809 10245 20216 40160 58013 60051 700// 333 10292 20236 55062 21683 58002 70088
AAXX 01064 78925 14684 /0809 10245 20216 40160 58013 60051 700// 333 10292 20236 55062 21683 58002 70088
AAXX 01061 33815 32598 23304 11008 21042 39975 40189 52015 82500 333 21032 555 80008
AAXX 01063 91502 31470 63208 10310 20255 40046 55003 71522 82906 333 56709 82817 81918 86281
AAXX 01063 91507 31480 63606 10305 20256 40047 58007 70522 82936 333 56800 82816 81917 83360
AAXX 01063 91520 31575 73403 10310 20251 40046 55007 70522 81907 333 56909 81820 81921 87280
AAXX 01063 91541 31475 83205 10300 20261 40075 52005 71522 84306 333 56709 84818 81920 86280
AAXX 01063 91502 31470 63208 10310 20255 40046 55003 71522 82906 333 56709 82817 81918 86281
AAXX 01063 91507 31480 63606 10305 20256 40047 58007 70522 82936 333 56800 82816 81917 83360
AAXX 01063 91520 31575 73403 10310 20251 40046 55007 70522 81907 333 56909 81820 81921 87280
AAXX 01063 91541 31475 83205 10300 20261 40075 52005 71522 84306 333 56709 84818 81920 86280
AAXX 01064 85406 12970 02603 10206 20148 40125 58017 60001
AAXX 01064 85418 12965 02107 10209 20119 40133 57019 60001
AAXX 01064 85442 12970 00702 10182 20139 40137 57014 60001
AAXX 01064 85469 42565 30000 10190 20164 40187 52003 83200 333 56200 83820
AAXX 01064 85488 12965 01001 10147 20124 40154 57002 60001
AAXX 01064 78583 11470 41008 10260 20232 40177 69911 70181 84200 333 02200 58013 84815
AAXX 01064 91203 32474 80810 10308 20252 30105 40110 57012 81106 333 562/9 70000 81818 88080 555 90106
AAXX 01064 85574 12960 01405 10169 20114 39589 40136 58009 60001
AAXX 01064 85577 12960 00000 10175 20119 39538 40140 57009 60001
AAXX 01064 85585 339// 91911 10165 20121 30160 40196 58004
AAXX 01064 85682 11250 41402 10128 20123 40156 58007 60001 71011 84600 333 56000 84703
AAXX 01064 85743 12360 60000 10106 20101 40191 56002 60001 86600 333 56600 86707
AAXX 01064 85799 12260 82303 10141 20141 40199 51005 60001 88600 333 56500 83706 88629
AAXX 01064 85874 32682 /3013 10139 20075 39496 40107 58010
AAXX 01064 85934 12580 52905 10061 20027 40060 52004 60001 82501 333 56606 82620 84070
AAXX 01064 89056 12460 72816 10008 21014 49915 52021 60001 87500 333 56600 87610
AAXX 01064 89057 11460 82416 10013 20004 49910 52015 60001 70222 886// 333 56699 88710
AAXX 01064 89058 32565 82713 10009 21017 39893 49914 52023 885//
AAXX 01064 89059 11360 82105 11004 21015 49886 52010 60001 70242 886// 333 75099 88706
AAXX 01064 89251 31258 82918 10010 20001 49902 52005 71022 8652/
AAXX 01064 78583 11470 41008 10260 20232 40177 69911 70181 84200 333 02200 58013 84815
AAXX 01064 91203 32474 80810 10308 20252 30105 40110 57012 81106 333 562/9 70000 81818 88080 555 90106
BBXX BATEU07 01064 99067 10798 46/// /1807 10292 40131 58010 22231
BBXX BATFR13 01064 99265 70495 44798 60919 10232 20184 40267 56019 70311 86566 22254 00249 20410
BBXX BATFR46 01064 99400 10016 46/// /3417 10154 20107 40254 53012 22253 00154
BBXX BATFR11 01064 99431 10071 46/// ///// 10124 20087 40198 53010 22262 00147
BBXX BATFR08 01064 99252 30547 46/// /1215 10242 20167 40140 51003 22243 00265
BBXX BATEU08 01064 99583 70011 46/// /2227 10084 20042 49868 52011 22223
BBXX BATFR09 01064 99424 70098 44497 52120 10137 20110 40265 58022 70152 83320 22283 00152 20304 333// 40608 5//// 60//0 ICE 0/0//
BBXX BATFR33 01064 99375 10099 46/// /3027 10159 20129 40237 53009 22235 00160
BBXX BATEU05 01064 99653 70111 46/// /1708 10029 49622 56021 22273
BBXX BATFR22 01064 99432 10053 46/// /3219 10135 40210 53020 22283 00144
AAXX 01061 12772 31440 82701 11025 21030 39926 40223 51008 71042 886// 333 21025 4/000 55038 88716
AAXX 01061 12822 36/// /2102 10010 21011 30053 40201 53013 333 21039
AAXX 01061 12843 31208 80902 11042 21047 30037 40216 51012 74641 886// 333 21050 4/000 55073 88705
AAXX 01061 12882 31202 82003 11014 21015 30088 40226 52012 74442 886// 333 21017 4/000 55000 88703
AAXX 01061 12925 36/// /1501 11001 21015 30030 40208 53007 333 21029
AAXX 01061 12942 31970 71001 11009 21028 39964 40219 52009 70211 8707/ 333 21031 4/000 55053
AAXX 01061 12982 31925 11702 11045 21056 30120 40227 52014 71000 81042 333 21053 4/000 55069
BBXX BATFR15 01064 99489 70069 46/// /2217 10122 20109 40101 56022 22224 00115
BBXX BATFR05 01064 99069 70137 46/// /0615 10275 20179 40121 55001 22273 00264
BBXX BATEU01 01064 99440 70222 44497 72836 10132 20067 40175 53011 70222 84343 22264 00139 21004 327// 41506 5////
BBXX BATFR16 01064 99183 70590 44598 21025 10259 20202 40179 56010 70100 822// 22214 00274 21004 309// 41004 5////
AAXX 01064 91487 NIL
AAXX 01064 91490 NIL
AAXX 01064 91533 NIL
AAXX 01064 91601 NIL
AAXX 01064 91610 11599 10710 10287 20241 40073 53007 60001 70100 81100 333 562// 81820
AAXX 01064 91623 NIL
AAXX 01064 91629 NIL
AAXX 01064 91701 11599 10906 10274 2025/ 4//// 60001 70200 81100 333 562// 81820
AAXX 01061 01003 NIL
AAXX 01061 01007 11989 81114 11025 21077 30002 40011 56004 60002 70222 80007 333 21095 42/// 70000 91119
AAXX 01061 01028 NIL
AAXX 01061 01047 31688 61805 11051 21074 39685 40062 57011 70221 86070 333 21074 48032 70003
AAXX 01061 01049 NIL
AAXX 01061 01078 11370 71312 11008 21042 30094 40107 58006 60002 70322 86117 333 21014 91116
AAXX 01061 01102 46/// /1415 10005 21022 39880 49899 55009 333 20000 91124
AAXX 01061 01160 NIL
AAXX 01061 01218 NIL
AAXX 01061 01238 41425 82403 11046 21062 38802 49926 56018 77173 8572/ 333 21074 44015 91116
AAXX 01061 01241 NIL
AAXX 01061 01281 NIL
AAXX 01061 01338 16/// /0202 10002 21005 39855 49921 56018 60052 333 20000 70053 91108
AAXX 01061 01359 NIL
AAXX 01061 01397 NIL
AAXX 01061 01400 NIL
AAXX 01061 01427 16/// /2409 10084 20076 39915 49930 56021 60262 333 20024 70299 91113
AAXX 01061 01447 NIL
AAXX 01061 01448 46/// /1906 10075 20068 39922 49931 58044 333 20042 91114
AAXX 01061 01001 NIL
AAXX 01061 01008 11488 41308 11037 21087 30001 40035 55001 60002 70211 84508 333 21130 70001 91113
AAXX 01061 01010 11989 21512 10009 21078 39924 49940 57023 60002 70200 80008 333 21021 70000 91117
AAXX 01061 01026 NIL
AAXX 01061 01055 NIL
AAXX 01061 01062 NIL
AAXX 01061 01098 11470 81410 10014 21023 30112 40130 55000 60012 70282 873// 333 21002 44999 70017 91115
AAXX 01061 01115 11884 71422 10014 21061 39879 49900 55012 60002 70311 87070 333 20003 70000 91126
AAXX 01061 01152 NIL
AAXX 01061 01205 NIL
AAXX 01061 01212 NIL
AAXX 01061 01271 16/// /0903 10015 21017 39899 49920 56008 60002 333 21035 47001 70000 91109
AAXX 01061 01288 11340 82302 11017 21039 39200 49946 58017 69942 77172 86720 333 21198 47026 70004 91108
AAXX 01061 01300 NIL
AAXX 01061 01317 NIL
AAXX 01061 01367 NIL
AAXX 01061 01384 11111 82002 11020 21024 39742 49992 58025 60062 77377 886// 333 21096 91103
AAXX 01061 01403 11550 82209 10066 20057 39826 49893 56015 60142 71062 886// 333 20042 70148 91123
AAXX 01061 01415 16/// /1706 10074 20059 39899 49910 56010 6//// 333 20047 91115
AAXX 01061 01482 46/// /1715 10031 20012 39965 49972 58030 333 21009 91119
AAXX 01061 01492 NIL
AAXX 01064 48698 01466 70505 10299 20248 30086 40104 60001 70522 83242 333 60007 82818 87080
AAXX 01064 48698 01466 70505 10299 20248 30086 40104 60001 70522 83242 333 60007 82818 87080
AAXX 01064 78897 14577 70607 10238 20201 40175 58012 69921 700// 333 10290 20222 58001 70062
AAXX 01064 78897 14577 70607 10238 20201 40175 58012 69921 700// 333 10290 20222 58001 70062
AAXX 01061 78221 NIL
AAXX 01061 78224 31559 00503 10182 20161 30141 40217 58009 70544
AAXX 01061 78229 42959 01001 10194 20169 30126 40201 52010
AAXX 01061 78239 NIL
AAXX 01061 78244 NIL
AAXX 01061 78243 12559 20802 10206 20190 30096 40220 57008 60004 82100 333 82820
AAXX 01061 78255 42559 10504 10225 20209 30059 40208 57010 81500 333 81620
AAXX 01061 78264 31559 23503 10217 20196 30112 40187 57010 70500 82200 333 82820
AAXX 01061 78265 41560 01501 10223 20206 30092 40192 57010 70000
AAXX 01061 78256 NIL
AAXX 01061 78259 NIL
AAXX 01061 78268 NIL
AAXX 01064 41170 42960 01703 10210 20140 30199 40212 333 20157 59039 555 00106
AAXX 01061 10004 NIL
AAXX 01061 10015 01118 82210 10082 20077 30024 40034 56007 60022 75165 887// 222// 02062 333 10084 20049 31005 55000 55300 20000 30000 69947 70020 88703 91114 91212 96010 96463 96447
AAXX 01061 10020 07008 72310 10075 20075 39978 40010 56014 60032 75765 333 10076 20035 3/003 55011 55300 20000 30000 69967 70029 87/01 91116 91212
AAXX 01061 10035 01/08 92105 10079 20079 39974 40032 56018 60032 76365 333 10079 20027 32003 55000 55300 20000 30000 41263 60027 70034 89/01 96043 9644/
AAXX 01061 10055 01240 81806 10052 20051 30034 40044 58020 60022 76166 887// 333 10052 20032 31003 55015 55300 20000 30000 60017 70015 88704
AAXX 01061 10147 01140 82105 10094 20092 30038 40056 56013 60012 75064 886// 333 10094 20035 31003 55006 55300 20000 30000 41291 69957 70011 87703
AAXX 01061 10162 01/09 92003 10050 20050 39985 40068 57015 69962 76165 333 10051 20026 31002 55000 55300 20000 30000 69927 70006 96043
AAXX 01061 10184 01250 81804 10026 20019 30076 40084 56011 69902 72122 877// 333 10026 21001 31100 55005 55300 20000 30000 69907 79999 87705
AAXX 01061 10200 01245 82205 10103 20099 30054 40052 55004 69992 72065 877// 333 10103 20062 32006 55000 55300 20000 30000 69947 70018 87705 96010
AAXX 01061 10224 01245 82205 10102 20096 30058 40064 56008 69922 76152 886// 333 10102 20040 32004 55001 55300 20000 30000 69917 70003 87705 96010
AAXX 01061 10270 NIL
AAXX 01061 10338 01460 82205 10103 20089 30009 40081 56009 69932 76152 875// 333 10103 20036 31003 55007 55300 20000 30000 69917 70007 87613
AAXX 01061 10361 01150 81903 10064 20059 39999 40103 58004 69922 75152 885// 333 10064 20034 31002 55030 55300 20000 30000 69917 70002 82702 84615 88630
AAXX 01061 10393 01110 81803 10030 20029 39984 40112 56003 69902 72854 876// 333 10030 21006 31102 55011 55300 20000 30000 69907 79999 87703
AAXX 01061 10400 01261 82106 10109 20101 30055 40104 57005 69992 72165 886// 333 10111 20093 32009 55000 55300 20000 30000 69947 70070 82705 87707 96258 96251 96461
AAXX 01061 10438 07221 81802 10075 20075 39837 40116 57004 69922 75165 333 10075 20028 3/003 55000 55300 69907 70011 88/04
AAXX 01061 10469 01158 82005 10061 20057 39954 40119 53001 69952 75152 8672/ 333 10062 20030 32003 55021 55300 69927 70005 81703 86709 87530
AAXX 01061 10488 01460 71705 10036 20031 39845 40130 51001 69912 70352 875// 333 10037 20016 31000 55028 55300 20000 30000 41116 69907 70001 82614 86646
AAXX 01061 10506 01178 82405 10091 20081 39553 40128 54000 69932 72152 886// 333 10093 20078 31007 55000 55300 20000 30000 69927 70011 88703 96263
AAXX 01061 10548 01/02 91603 10018 20018 39598 40148 56001 60012 74554 333 10018 20003 31000 55000 55300 20000 30000 69907 70034 96451
AAXX 01061 10637 01157 82005 10101 20095 30006 40142 55000 69962 72165 885// 333 10101 20057 31005 55000 55300 69957 70033 82702 83704 86618 96010
AAXX 01061 10685 01112 80701 10028 20026 39469 40150 53007 60012 75065 887// 333 10034 20003 3/100 44007 55000 55300 20000 30000 69957 70020 88702 96010 96460
AAXX 01061 10738 01582 61601 10086 20071 39705 40173 51003 60062 72062 86500 333 10093 20070 32005 55000 55300 69907 70110 81622 86650 96461 96458
AAXX 01061 10763 01465 81902 10081 20077 39774 40155 53006 60032 72165 885// 333 10084 20025 31002 55000 55300 20000 30000 69987 70046 84615 87625
AAXX 01061 10788 07213 61004 10019 20019 39741 40182 53005 60072 75865 333 10019 20002 3/100 55001 55300 20000 30000 60027 70097 86/04
AAXX 01061 10852 01366 82405 10080 20075 39612 40179 53008 60052 72165 876// 333 10081 20044 31004 55000 55300 20000 30000 69967 70087 87707
AAXX 01061 10946 07446 81903 10061 20058 39366 40199 53008 60082 75265 333 10068 20034 3/002 55000 55300 20000 30000 69937 70127 82/13 83/26 88/35
AAXX 01061 01037 NIL
AAXX 01061 01046 NIL
AAXX 01061 01058 16/// /1507 11059 21074 39595 40071 58013 60002 333 21080 4/023 70013 91114
AAXX 01061 01065 NIL
AAXX 01061 01092 NIL
AAXX 01061 01107 16/// /1615 10028 2//// 39892 49896 56018 60002 333 20002 70000 91120
AAXX 01061 01114 NIL
AAXX 01061 01144 41886 31216 10003 21074 70310 83070 333 21019 91125
AAXX 01061 01199 NIL
AAXX 01061 01245 NIL
AAXX 01061 01259 16/// /1311 10013 21021 39868 49890 56010 60022 333 20000 70016 91118
AAXX 01061 01262 NIL
AAXX 01061 01278 31785 81305 11031 21069 39827 49931 58007 70211 8802/ 333 21034 44013 70000
AAXX 01061 01293 16/// /1303 10017 21034 39721 49927 58012 60002 333 21061 70000 91112
AAXX 01061 01329 NIL
AAXX 01061 01337 NIL
AAXX 01061 01344 NIL
AAXX 01061 01364 NIL
AAXX 01061 01373 16/// /0000 11067 21077 39771 49976 56028 60062 333 21088 70059 91101
AAXX 01061 01374 NIL
AAXX 01061 01380 16/// /1401 11068 21079 6//// 333 21117 4/034 91108
AAXX 01061 01389 NIL
AAXX 01061 01393 NIL
AAXX 01061 01424 11460 8//// 10009 20001 39925 49929 56025 60132 76161 887// 333 21003 70135
AAXX 01061 01431 16/// /2203 10007 21003 39280 49939 58026 60032 333 21024 70040 91109
AAXX 01061 01436 NIL
AAXX 01061 01465 11356 81909 10056 20050 39948 49966 55026 60142 76366 8472/ 333 21009 70141 91114
AAXX 01061 01471 11420 80101 11045 21055 60052 77372 8772/ 333 21078 70050 91103
AAXX 01061 01483 NIL
AAXX 01061 01015 NIL
AAXX 01061 01023 NIL
AAXX 01061 01033 NIL
AAXX 01061 01059 NIL
AAXX 01061 01089 16/// /1901 11042 21065 30013 40123 50001 6//// 333 21059 91103
AAXX 01061 01167 41686 81509 10011 21112 39923 49928 57032 70222 8457/ 333 21069 91114
AAXX 01061 01180 NIL
AAXX 01061 01210 11787 81506 10071 20032 39837 49863 58011 60014 70262 82577 333 20047 70013 91110
AAXX 01061 01228 NIL
AAXX 01061 01240 16/// /1415 10032 20004 39861 49880 58002 6//// 333 20013 91119
AAXX 01061 01304 46/// /0000 10059 20042 39835 49866 58013 333 20048 91100
AAXX 01061 01311 NIL
AAXX 01061 01340 NIL
AAXX 01061 01355 16/// ///// 11002 21016 39917 49922 58025 60002 333 21013 70000
AAXX 01061 01360 NIL
AAXX 01061 01392 16/// /1701 11020 21025 39775 40004 58024 60022 333 21111 70019 91103
AAXX 01061 01406 NIL
AAXX 01061 01411 16/// /1609 10075 20068 39876 49901 58015 6//// 333 20051 91117
AAXX 01061 01425 NIL
AAXX 01061 01433 46/// /1305 11007 21029 38683 49923 58026 333 21043 91113
AAXX 01061 01442 NIL
AAXX 01061 01450 NIL
AAXX 01061 01452 NIL
AAXX 01061 01473 11430 80000 11031 21037 39766 49978 58027 60082 77377 8472/ 333 21063 47015 70076 91102
AAXX 01061 01494 16/// /1104 10000 21001 39921 49986 58024 60052 333 21033 70054 91109
AAXX 01061 01025 16/// /1604 11008 21068 39963 49974 57029 6//// 333 21098 91110
AAXX 01061 01052 16/// /1208 11025 21059 39953 40052 58021 60002 333 21059 70000 91115
AAXX 01061 01122 NIL
AAXX 01061 01132 NIL
AAXX 01061 01156 NIL
AAXX 01061 01203 46/// /1713 10072 20021 39808 49855 58011 333 20043 91125
AAXX 01061 01233 16/// /1703 11044 21053 69992 333 21094 70022 91112
AAXX 01061 01265 NIL
AAXX 01061 01273 NIL
AAXX 01061 01307 46/// /1714 10071 20056 39848 49875 56013 333 20052 91122
AAXX 01061 01321 16/// /1403 10026 20019 39640 49890 56016 60082 333 20002 70086 91106
AAXX 01061 01327 16/// /3001 10001 21007 60112 333 21022 70118 91110
AAXX 01061 01350 16/// /1108 11030 21032 38544 49913 56023 60052 333 21075 70051 91114
AAXX 01061 01361 NIL
AAXX 01061 01375 NIL
AAXX 01061 01378 NIL
AAXX 01061 01385 16/// /0802 11021 21025 39714 49988 58028 60022 333 21108 70018 91105
AAXX 01061 01412 16/// /1608 10080 20074 39886 49915 56011 60192 333 20033 70188 91117
AAXX 01061 01422 NIL
AAXX 01061 01440 NIL
AAXX 01061 01441 NIL
AAXX 01061 01467 NIL
AAXX 01061 01469 NIL
AAXX 01061 01477 NIL
AAXX 01061 01480 16/// /0201 11021 21030 60052 333 21053 70056 91103
AAXX 01061 01484 16/// /1504 10001 21010 39842 49999 58022 60022 333 21079 70019 91108
AAXX 01061 01490 16/// /1503 11018 21019 60102 333 21066 70100 91107
AAXX 01061 01495 16/// /1408 10011 21002 39969 49982 58027 60062 333 21005 70057 91115
AAXX 01061 78221 NIL
AAXX 01061 78224 31559 00503 10182 20161 30141 40217 58009 70544
AAXX 01061 78229 42959 01001 10194 20169 30126 40201 52010
AAXX 01061 78239 NIL
AAXX 01061 78244 NIL
AAXX 01061 78243 12559 20802 10206 20190 30096 40220 57008 60004 82100 333 82820
AAXX 01061 78255 42559 10504 10225 20209 30059 40208 57010 81500 333 81620
AAXX 01061 78264 31559 23503 10217 20196 30112 40187 57010 70500 82200 333 82820
AAXX 01061 78265 41560 01501 10223 20206 30092 40192 57010 70000
AAXX 01061 78256 NIL
AAXX 01061 78259 NIL
AAXX 01061 78268 NIL
AAXX 01061 10609 01368 82305 10105 20097 39819 40145 58001 60022 72162 877// 333 10107 20096 31009 55000 55300 20000 30000 69957 70019 87709
AAXX 01061 10616 01140 82604 10091 20086 39551 40144 53007 60012 75862 875// 333 10092 20078 32008 55000 55300 69937 70024 82702 87604
AAXX 01061 10641 07329 82104 10104 20095 39995 40140 55000 69932 75265 333 10106 20056 3/005 55000 55300 69917 70056 82/07 84/19 88/35
AAXX 01061 10655 01470 72203 10094 20089 39820 40146 51004 69942 70265 875// 333 10094 20041 31003 55000 55300 20000 30000 69907 70022 82710 84620 87650
AAXX 01061 10675 07417 81602 10070 20066 39861 40153 53007 69972 72265 333 10070 20026 3/003 55000 55300 20000 30000 69917 70026 87/11 87/21 88/36
AAXX 01061 10688 07224 71702 10039 20036 39635 40163 53005 60032 75165 333 10040 20004 3/000 55000 55300 20000 30000 60017 70046 87/04 87/34
AAXX 01061 10708 01162 82207 10102 20096 39779 40161 53002 60022 75052 886// 333 10104 20093 31009 55000 55300 20000 30000 69927 70038 82702 87704
AAXX 01061 10729 07256 81705 10101 20099 30045 40166 53003 60042 72365 333 10101 20066 3/006 55000 55300 20000 30000 69937 70077 87/05 87/09 88/21
AAXX 01061 10731 01381 82306 10114 20096 30021 40163 53005 60012 72065 886// 333 10115 20090 31008 55000 55300 20000 30000 69927 70047 85707 84615
AAXX 01061 10742 07459 72404 10099 20094 39833 40161 51006 60082 75165 333 10101 20061 3/006 55000 55300 20000 30000 69927 70126 87/10
AAXX 01061 10776 01120 81504 10017 20016 39723 40177 52006 60022 75165 887// 333 10017 20002 32000 4/998 55000 55300 20000 30000 69987 70062 88702 96445
AAXX 01061 10791 01/90 92714 10011 20011 38510 48455 53006 60032 76164 333 10012 21053 49125 55000 55300 60017 70030 91120 91215 96045
AAXX 01061 10805 01575 72005 10115 20096 39993 40182 52005 69992 76065 875// 333 10115 20093 31009 55000 55300 20000 30000 69907 70034 87626
AAXX 01061 10815 01162 82506 10070 20068 39237 48480 51004 60112 75866 877// 333 10072 20051 33004 4/010 55000 55300 20000 30000 60017 70182 81702 86704 91113 96258 96459 96458
AAXX 01061 10836 01/61 82707 10076 20076 39306 40169 53006 60152 72865 878// 333 10079 20042 31003 55000 55300 20000 30000 60017 70226 817// 85811 91114 96259 96250 98688
AAXX 01061 10870 01265 82506 10082 20073 39646 40178 53009 60062 72165 885// 333 10083 20019 31001 55000 55300 69987 70115 81605 85612 86623
AAXX 01061 10895 01/01 90502 10006 20005 39605 40189 53005 60052 76364 333 10006 21002 3/000 42003 55011 55300 20000 30000 60017 70063 96047
AAXX 01061 10908 01/01 92313 10034 20034 38501 48497 51007 60152 76365 333 10035 20025 3/001 49080 55000 55300 20000 30000 60067 70263 89/01 91120 91214 96045
AAXX 01061 10929 11482 62403 10086 20069 39670 40200 53007 60032 70162 86500 222// 06052 333 10088 20064 31006 55000 55300 20000 30000 70110 81715 86625 91113
AAXX 01061 10948 01662 81703 10028 20028 39261 48496 53006 60172 76366 8802/ 333 10036 20014 3/001 43030 55000 55300 20000 30000 60027 70426 88540
AAXX 01061 10961 11/00 92911 11048 21052 37072 47041 51006 60252 77174 333 11046 21063 49275 55000 55300 20000 41140 70502 91125 91217 96049
AAXX 01061 10962 01172 82409 10053 20052 39037 48484 53005 60142 72865 875// 333 10054 20026 3/002 42003 55000 55300 20000 30000 69967 70212 82703 87610 91117 96251 96463 96461
AAXX 01061 10980 11/01 92618 10001 21000 38141 48487 51009 60112 76874 333 10001 21018 3/102 49105 55000 55300 20000 30000 70263 91124 91219 96045
AAXX 01061 10007 NIL
AAXX 01061 10044 NIL
AAXX 01061 10046 11110 82004 10075 20069 30001 40040 57018 69972 75854 877// 333 10075 20031 32003 55000 70008 87702
AAXX 01061 10091 NIL
AAXX 01061 10113 01122 82208 10084 20083 30024 40043 56005 60012 72165 886// 222// 06055 333 10086 20056 32006 55000 55300 20000 30000 69947 70015 88702
AAXX 01061 10124 NIL
AAXX 01061 10131 01226 82206 10097 20092 30031 40045 56008 60022 76165 876// 222// 02050 333 10097 20034 31003 55004 55300 20000 30000 60017 70027 87704 96010 98026
AAXX 01061 10170 01145 81704 10040 20036 30048 40064 58017 69902 72022 86//8 333 10040 20020 31001 55023 55300 20000 30000 69907 79999 88702 98045
AAXX 01061 10264 01014 81804 10044 20043 39972 40079 56009 69932 75864 886// 333 10044 20019 31001 55010 55300 20000 30000 69917 70003 88701
AAXX 01061 10291 01115 81603 10010 20006 30038 40107 56004 69902 72022 886// 333 10010 21003 31102 55000 55300 20000 30000 69907 79999 88702
AAXX 01061 10315 01256 82104 10107 20102 30022 40085 56006 69962 72165 877// 333 10108 20076 32007 55000 55300 20000 30000 69957 70024 87705
AAXX 01061 10379 01124 81904 10041 20039 39982 40105 56001 69952 71052 885// 333 10042 20010 31101 55047 55300 20000 30000 41214 69927 70005 85703 88613
AAXX 01061 10382 01133 81903 10041 20035 30061 40107 56004 69912 72065 876// 333 10041 20021 31001 55011 55300 20000 30000 69907 70001 87703
AAXX 01061 10384 06/// /2103 10042 20038 30046 40107 56004 69912 333 10042 20012 3/101 55021 55300 20000 30000 69907 70001
AAXX 01061 10427 01/01 92408 10048 20048 39113 48423 54000 60062 75354 333 10050 20013 3/000 44033 55000 55300 20000 30000 60017 70105 91115 91212 96045 96455
AAXX 01061 10430 01445 82003 10096 20088 39910 40100 56006 60032 76165 886// 333 10096 20058 31005 55000 55300 20000 30000 69917 70042 87710
AAXX 01061 10439 NIL
AAXX 01061 10453 11/90 92517 10028 20028 38763 48399 58007 60042 74954 333 10028 21012 3/101 49112 55005 55300 70065 91121 90203 91218 91218 96453 96449
AAXX 01061 10496 01338 82002 10044 20037 30033 40119 56002 69902 72055 886// 333 10044 20003 31102 55021 55300 20000 30000 69907 79999 88709
AAXX 01061 10499 01362 82108 10024 20011 39837 40132 57001 69902 72062 876// 333 10026 20002 31102 55034 55300 20000 30000 69907 79999 87708 91113
AAXX 01061 10505 01282 82209 10108 20098 39837 40114 56005 60032 76065 878// 333 10108 20094 32009 55000 55300 20000 30000 60027 70050 82806 87609 91113
AAXX 01061 10513 01575 81703 10101 20097 30000 40120 58007 60022 76165 885// 333 10107 20087 32008 55000 55300 20000 30000 60017 70093 86621 88630
AAXX 01061 10532 17321 82301 10080 20078 39881 40128 55000 69912 71053 333 10080 20036 3/003 55000 55300 20000 30000 70036 88/08 88/24
AAXX 01061 10544 01/01 92311 10043 20043 39056 48439 55000 60032 74565 333 10044 20001 3/000 44016 55000 55300 69917 70060 91115 91211 96459 96453 96450
AAXX 01061 10554 01480 82306 10071 20058 39736 40123 52002 69902 72052 878// 333 10071 20021 31002 55004 55300 20000 30000 69907 70002 81813 87636
AAXX 01061 10567 01475 82106 10055 20049 39753 40130 51003 69972 72022 875// 333 10056 20018 31002 55026 55300 20000 30000 69907 70007 87610
AAXX 01061 10578 11/01 92614 10010 20010 38734 48433 52004 60032 76154 333 10010 21039 35104 44069 55011 55300 20000 30000 70036 96043
AAXX 01061 01121 46/// /1218 10007 21080 39887 49899 55019 333 21011 91126
AAXX 01061 01135 NIL
AAXX 01061 01143 16/// /1408 11003 21087 60002 333 21061 70000 91115
AAXX 01061 01150 NIL
AAXX 01061 01192 NIL
AAXX 01061 01225 46/// /1306 10050 20017 39864 49868 58012 333 20028 91111
AAXX 01061 01230 NIL
AAXX 01061 01232 NIL
AAXX 01061 01234 16/// /2102 11028 21034 60032 333 21099 70029 91106
AAXX 01061 01253 NIL
AAXX 01061 01254 NIL
AAXX 01061 01257 NIL
AAXX 01061 01277 NIL
AAXX 01061 01291 NIL
AAXX 01061 01332 16/// /2101 11005 21015 60122 333 21015 91102
AAXX 01061 01366 46/// /1507 11057 21070 38317 49926 56020 333 21093 91110
AAXX 01061 01370 NIL
AAXX 01061 01376 16/// /1101 11035 21041 60042 333 21076 70043 91104
AAXX 01061 01383 46/// /0000 11052 21054 39673 49993 58027 333 21181 91100
AAXX 01061 01386 NIL
AAXX 01061 01416 16/// ///// 10071 20071 60082 333 20052 70076
AAXX 01061 01419 NIL
AAXX 01061 01430 16/// ///// 10078 20072 60252 333 20008 70275
AAXX 01061 01434 16/// /0000 11053 21063 38989 49952 58026 60152 333 21095 70152 91105
AAXX 01061 01455 NIL
AAXX 01061 01468 16/// /1203 11002 21008 60022 333 21096 70015 91106
AAXX 01061 01470 NIL
AAXX 01061 01476 NIL
AAXX 01061 01481 NIL
AAXX 01061 01488 NIL
BBXX A8GH5 01063 99076 70254 41/96 /0516 10255 20181 40140 56010 705// 8//// 22254 04240 20302 305// 40604 80205
AAXX 01061 11816 11445 80703 11009 21019 30031 40201 52010 69912 72222 885// 333 21022 3/105 43997 70001 86714 88618
AAXX 01061 11826 11525 80000 11026 21033 39994 40202 52010 60002 77122 885// 333 21054 34109 79999 85620 88627
AAXX 01061 11903 11457 70000 11060 21067 39823 40224 52008 60002 71022 8457/ 333 21081 3/110 43004 70000 81710 84650 87359 93502
AAXX 01061 11934 11258 19901 11098 21114 39353 42782 53003 60002 74000 81600 333 21102 3/111 41998 79999 81703
AAXX 01061 11968 11462 82403 11006 21026 39923 40213 52007 69902 70252 886// 333 21007 31101 79999 88711
AAXX 01064 96315 11470 73612 10307 20248 40092 69902 70282 83968 333 82816 81917 85080
AAXX 01064 96323 NIL
AAXX 01064 96315 11470 73612 10307 20248 40092 69902 70282 83968 333 82816 81917 85080
AAXX 01064 96323 NIL
BBXX CGDS 01064 99429 70792 46/// /2905 10040 20029 40181 58012 7//// 8//// 22200 0//// 2////
BBXX CGDS 01064 99429 70792 46/// /2905 10040 20029 40181 58012 7//// 8//// 22200 0//// 2////
AAXX 01064 89664 11116 59904 11017 21040 39765 49806 53005 69901 77674 85610 333 56840 85703 90931 93197 96010
AAXX 01064 91317 32474 20908 10306 20276 30089 40093 5//// 82100 333 562// 70000 82818 555 90106
AAXX 01064 78397 112570 13205 10257 20211 30148 40164 60001 81800 333 00000 10324 20241 58003 81824
AAXX 01064 91376 11474 80512 10268 20243 30076 40080 53003 69931 70282 8587/ 333 56199 70104 555 90106
AAXX 01064 61901 169// /1315 10154 20142 39666 40177 53008 60002 90550 333 20154 3/015 70002 8//99 90710 91128 555 7/090
AAXX 01064 61902 12582 61209 10233 20191 40142 69904 868// 333 20231 59006 81824 86638
AAXX 01064 88889 11875 81003 10097 20093 39974 40058 55035 69924 70262 8357/ 90550 333 70002 83656 87358
AAXX 01064 03005 11475 52222 10061 20036 39731 49829 57010 60012 72586 83830 90550 333 20054 31004 55000 55300 20000 70048 82818 85358 90710 91133
AAXX 01064 03017 15980 /2013 10052 20035 39814 49845 58007 69902 90550 333 20047 3/003 55000 55300 20000 70032 83/67
AAXX 01064 03023 17965 /2324 10073 20042 39844 49849 58004 60042 723// 90550 333 20059 3/005 70058 82/60 90710 91136
AAXX 01064 03026 17969 /2116 10059 20037 39815 49833 58005 60022 723// 90550 333 20053 3/004 55000 55300 20000 70030 8//99 90710 91128
AAXX 01064 03063 17487 /2110 10029 20015 39608 49883 58010 60052 723// 90550 333 20026 3/002 55000 55300 20000 70064 81/14 84/22
AAXX 01064 03066 15685 /2112 10055 20020 39863 49869 57005 69902 90550 333 20052 3/100 55013 55300 20000 79999 81/42
AAXX 01064 03075 15971 /1910 10051 20025 39811 49854 58005 60002 90550 333 20047 3/001 70004 81/67
AAXX 01064 03091 15981 /2010 10058 20030 39813 49891 50003 69902 90550 333 20055 3/003 55000 55300 20000 79999 8//99
AAXX 01064 03100 15567 /2422 10075 20040 39867 49883 58003 60012 90550 333 20062 3/005 55000 55300 20000 70020 82/28 90710 91132 91032
AAXX 01064 03111 16973 /2320 10066 20035 39917 49929 57004 60032 90550 333 20065 3/005 70080 8//99 90710 91131
AAXX 01064 03134 16/// /2412 10071 20036 3//// 4//// 5//// 60102 90550 333 20052 3/004 55000 55300 20000 70128 90710 91125 91022
AAXX 01064 03136 15569 /2419 10083 20054 39905 49937 55004 60052 90550 333 20052 3/004 55000 55300 20000 70058 81/25 85/30 86/63 90710 91136
AAXX 01064 03162 17680 /2214 10057 20025 39671 49955 55005 60182 723// 90550 333 20052 3/003 55000 55300 20000 70216 81/33
AAXX 01064 03166 15967 /2216 10073 20039 39848 49916 58014 60032 90550 333 20072 3/006 4/123 55000 55300 20000 70034 8//99 90710 91129 91029
AAXX 01064 03171 11580 52419 10070 20042 39892 49904 58015 60032 70281 85800 90550 333 20047 31003 55003 55300 20000 70036 82825 84632 90710 91125
AAXX 01064 03204 11570 52523 10092 20042 39956 49975 57003 69902 72581 85800 90550 333 20091 31007 55000 55300 20000 70004 81825 85640 90710 91134
AAXX 01064 03240 15783 /2219 10085 20048 39916 49943 58007 69922 90550 333 20083 3/007 55001 55300 20000 70002 81/50 90710 91129 91029
AAXX 01064 03257 15872 /2216 10093 20061 39942 49981 58010 69902 90550 333 20092 3/007 55002 55300 20000 79999 81/57 90710 91126
AAXX 01064 03292 169// /2310 10088 20067 39977 49995 58001 60002 90550 333 20085 3/007 70000 8//99
AAXX 01064 03302 17947 /2123 10101 20091 39985 49997 57012 69922 704// 90550 333 20098 3/009 55004 55300 20000 70010 86/60 90710 91131
AAXX 01064 03354 15580 /2209 10093 20064 39887 40028 56012 60002 90550 333 20093 3/008 55002 55300 20000 70000 84/28
AAXX 01064 03377 12682 72110 10095 20070 39947 40030 50001 69902 875// 90550 333 20087 31007 55000 55300 20000 79999 87630
AAXX 01064 03414 15971 /2214 10101 20068 39938 40024 58008 69922 90550 333 20095 3/006 55004 55300 20000 70004 8//99
AAXX 01064 03462 15984 /1810 10091 20085 39954 40042 57002 60002 90550 333 20083 3/007 55000 55300 20000 70000 8//99
AAXX 01064 03482 15980 /2213 10099 20082 30023 40049 50003 69922 90550 333 20092 3/008 70002 8//99
AAXX 01064 03502 15460 /2216 10099 20081 39873 40033 58017 69922 90550 333 20098 3/008 55000 55300 20000 70002 83/16 90710 91127
AAXX 01064 03535 15978 /2108 10094 20065 39924 40040 56010 69902 90550 333 20093 3/007 55003 55300 20000 70002 8//99
AAXX 01064 03590 15688 /2412 10109 20096 39955 40063 52003 60012 90550 333 20099 3/008 55001 55300 20000 70012 83/49 86/66
AAXX 01064 03649 11481 72509 10108 20093 39963 40061 57004 69962 75865 875// 90550 333 20108 31010 55000 55300 2//// 70006 81615 85618 87630
AAXX 01064 03716 15468 /2308 10101 20089 30008 40067 57008 60032 90550 333 20100 3/009 55000 55300 20000 70056 81/16 87/32
AAXX 01064 03740 16482 /2210 10102 20093 39895 40070 56002 69962 90550 333 20102 3/009 55000 55300 2//// 70006 83/12 87/25
AAXX 01064 03746 15383 /2310 10110 20099 39927 40078 57002 69962 90550 333 20109 3/010 70008 81/09 86/12 85/29
AAXX 01064 03772 15680 /2112 10119 20103 30044 40074 56003 69922 90550 333 20115 3/009 55000 55300 20000 70002 82/31 86/39
AAXX 01064 03796 46/// /2518 10104 20104 39947 40088 55003 90550 333 20096 90710 91131
AAXX 01064 03803 NIL
AAXX 01064 03808 11470 82311 10110 20097 39981 40086 57013 60042 70252 8752/ 90550 333 20109 31010 55000 55300 20000 70040 87611
AAXX 01064 03809 11356 82418 10109 20109 39997 40089 56011 60042 71065 886// 90550 333 20109 31011 70040 85707 88710
AAXX 01064 03827 17350 /2213 10111 20111 30028 40089 58010 60052 710// 90550 333 20110 3/011 70056 87/07
AAXX 01064 03840 15480 /2310 10097 20094 39776 40078 58009 60032 90550 333 20096 3/009 70036 84/12 83/17 86/63
AAXX 01064 03853 15582 /2008 10112 20103 30054 40078 58007 69962 90550 333 20112 3/010 55001 55300 20000 70006 87/24
AAXX 01064 03874 46/// /2523 10108 20100 30071 40082 58005 90550 333 20103 90710 91128
AAXX 01064 03882 17232 /2408 10110 20107 30030 40093 55003 60012 758// 90550 333 20103 3/010 55000 55300 20000 70014 88/03
AAXX 01064 03894 11015 82213 10117 20115 40118 56010 60042 75865 887// 333 20113 31011 84700 87701 90710 91126
AAXX 01064 03917 15967 /2009 10055 20034 39876 49952 58001 69942 90550 333 20051 3/003 55000 55300 20000 70022 8//99
AAXX 01064 91317 32474 20908 10306 20276 30089 40093 5//// 82100 333 562// 70000 82818 555 90106
AAXX 01064 91376 11474 80512 10268 20243 30076 40080 53003 69931 70282 8587/ 333 56199 70104 555 90106
BBXX 42039 01061 99288 70860 46/// /1402 10214 40226 58004 90550 22200 00227 10401 70003 333 91203 555 11020 22020 30459 41603 60549 142019 127018 147019 152022 146021 149021 81603 90459
BBXX 41040 01061 99145 70530 46/// /0710 10263 20223 40153 58014 90550 22200 00269 11006 20604 3//// 41004 70030 333 91212 555 11106 22112 30450 40815 60549 070100 067105 066108 069100 072101 071099 80711 90523
BBXX 41010 01061 99289 70785 46/// /3001 10219 40228 58008 90550 22200 00236 10502 20401 300// 40501 70008 333 91201 555 11006 22006
BBXX 42057 01061 99168 70815 46/// /0708 10272 20229 40162 58011 90550 22200 00275 10704 20703 3//// 40802 70019 333 91210 555 11084 22089 30456 40811 60549 070083 065088 070088 076083 083090 076089 80910 90457
BBXX 41009 01061 99285 70802 46/// /1301 10228 20135 40233 58004 90550 22200 00233 10901 300// 40901 70004 333 91202 555 11013 22014
BBXX 46072 01061 99517 71722 46/// /2410 10022 21024 40078 57011 90550 22200 00043 11106 20705 3//// 41103 70030 333 91212 555 11101 22106 30456 42312 60549 235096 236096 239098 235097 230102 232103 82311 90502
AAXX 01064 78397 112570 13205 10257 20211 30148 40164 60001 81800 333 00000 10324 20241 58003 81824
AAXX 01064 89664 11116 59904 11017 21040 39765 49806 53005 69901 77674 85610 333 56840 85703 90931 93197 96010
BBXX 44007 01061 99435 70701 46/// /3005 10031 20031 40113 52006 90550 22200 00074 10601 3//// 40601 70005 333 91206 555 11051 22053 30520 43006 60549 296049 299048 301054 303053 301054 300053
BBXX 46082 01061 99597 71434 46/// ///// 10017 40077 56029 90550 22200 00061 10706 70029
BBXX 46072 01061 99517 71722 46/// /2410 10022 21024 40078 57011 90550 22200 00043 11106 20705 3//// 41103 70030 333 91212 555 11101 22106 30456 42312 60549 235096 236096 239098 235097 230102 232103 82311 90502
BBXX 46077 01061 99579 71543 46/// /1504 11084 21121 40112 57011 90550 22200 00026 10601 20401 3//// 40601 70006 333 91205 555 11036 22037 30538 41706 60549 153034 170032 194020 183033 198028 189026 81705 90516
BBXX 46035 01061 99571 71778 46/// /3615 1//// 40005 50000 90550 22200 10805 20804 300// 41102 70023 333 91218 555 11147 22157 30548 43518 60549 357148 344143 349138 353133 291097 274092 83616 90541
BBXX 51101 01061 99243 71621 46/// /0403 10218 20186 40189 51010 90550 22200 00239 333 91205 555 11031 22032 30541 40413
BBXX 46061 01061 99602 71468 46/// /3308 11044 40096 58013 90550 22200 00051 10802 20701 300// 40801 70010 333 91209 555 11081 22084 30533 43310 60549 334076 333076 334071 334063 332058 342045
BBXX 46026 01061 99378 71228 46/// /0606 10131 40206 55000 90550 22200 00114 11205 20301 329// 41205 70024 333 91207 555 11066 22074 30456 42708 60549 054060 269054 274058 272055 271051 267053
BBXX 46041 01061 99474 71247 46/// /1111 10073 40223 55000 90550 22200 00088 11204 20503 3//// 41203 70022 333 91214 555 11116 22123 30501 41216 60549 112108 111112 113114 115114 115118 115116
BBXX 51004 01061 99175 71524 46/// /0308 10234 20204 90550 555 11082 22088
BBXX 51002 01061 99171 71578 46/// /0507 10239 40163 51014 90550 22200 00247 333 91208 555 11070 22073 30548 40508 60549 049066 049063 051064 049061 047064 051058
BBXX 51100 01061 99236 71539 46/// /3502 10221 40186 52006 90550 22200 00233 11004 310// 41004 70019 333 91203 555 11021 22021 30547 43303 60549 348019 337011 346010 002003 353009 329012
AAXX 01064 07005 01356 82111 10118 20112 30031 40120 56005 69982 72052 885// 333 10123 20115 31011 55000 69987 70018 84708 88620 90710 91117 555 69925
AAXX 01064 07015 01358 82213 10116 20111 30057 40114 55004 69902 758// 885// 333 10122 20114 31011 55000 69907 79999 88706 90710 91119 93100 555 69905
AAXX 01064 07020 01558 82513 10120 20118 30094 40120 56004 60012 76066 886// 333 10126 20120 55/// 69987 70016 88726 90710 91126 555 69985
AAXX 01064 07027 01468 82012 10126 20118 30051 40131 57008 69922 72162 875// 333 10130 20122 32012 55002 69927 70002 87615 90710 91118 93100 555 69905
AAXX 01064 07037 01260 82112 10115 20112 39956 40138 56004 60012 72052 887// 333 10116 20112 32011 55000 69947 70028 86706 90710 91116 93100 555 69925
AAXX 01064 07070 04470 72410 10121 20103 30042 40151 58002 69982 700// 333 10123 20112 31011 55000 69907 70016 90710 91118 555 60005
AAXX 01064 07110 01120 82316 10124 20124 30016 40130 56013 60062 75865 887// 333 10126 20123 32012 55000 60017 70090 88703 90710 91126 555 69965
AAXX 01064 07117 01540 82312 10127 20122 30054 40123 56009 69982 75165 8802/ 333 10128 20123 69907 90710 91124 92446 555 69905
AAXX 01064 07130 04385 82011 10129 20123 3//// 4//// 6///2 700// 333 1//// 2//// 32012 55/// 60007 7//// 90710 91122 555 60005
AAXX 01064 07139 02356 82209 10118 20105 39983 40156 57004 69962 886// 333 10125 20118 31011 55000 69947 70008 88706 90710 91117 93100 555 69925
AAXX 01064 07149 01381 82209 10123 20110 30052 40160 56003 69902 70352 885// 333 10125 20119 31011 55000 69907 70004 83707 87610 90710 91118 93100 555 60005
AAXX 01064 07168 01465 82109 10122 20104 30034 40176 58002 69982 72165 875// 333 10124 20114 32011 55000 69927 70014 85613 87640 90710 91115 93100 555 69925
AAXX 01064 07181 04239 82210 10103 20101 39766 40174 55000 60012 750// 333 10105 20100 3/010 55/// 69967 70016 90710 91113 555 69965
AAXX 01064 07190 04586 81809 10107 20093 39995 40177 53003 69942 700// 333 10110 20085 31008 55000 69907 70018 90710 91116 555 60005
AAXX 01064 07207 01440 82518 10128 20119 69982 71022 886// 222// 328// 333 10130 20127 69927 90710 91131 92456 555 60005
AAXX 01064 07222 01260 82513 10130 20125 30150 40181 56010 60022 720// 885// 333 10130 20126 32012 55000 60017 70028 86705 87627 90710 91125 555 69965
AAXX 01064 07240 01475 82210 10126 20112 30051 40186 56003 69982 701// 875// 333 10127 20121 32012 55000 69927 70016 83713 87636 90710 91118 93100 555 60005
AAXX 01064 07255 01258 82309 10122 20117 30001 40200 58002 69922 75055 887// 333 10125 20121 32012 55000 69907 70020 88704 90710 91116 93100 555 69905
AAXX 01064 07280 04268 82012 10108 20103 39931 40204 53001 69942 700// 333 10109 20101 32009 55000 69927 70006 90710 91117 555 69925
AAXX 01064 07299 02560 81905 10099 20080 39870 40198 53007 60022 878// 333 10117 20071 32007 55000 60007 70045 81823 87641 90710 91110 93100 555 60005
AAXX 01064 07314 01240 82217 10125 20123 30186 40214 56008 69922 71022 887// 333 10130 20125 30/// 55/// 69927 70002 88703 90710 91122 555 69925
AAXX 01064 07335 01365 82211 10123 20117 30063 40208 55003 69922 72052 887// 333 10127 20119 32011 55000 69907 70004 88708 90710 91118 93100 555 69905
AAXX 01064 07434 01108 82408 10107 20107 39747 40226 55000 60052 75866 887// 333 10109 20105 32010 55000 60027 70108 88702 90710 91118 93100 555 69965
AAXX 01064 07460 01684 70901 10103 20079 39834 40225 53001 60002 701// 8683/ 333 10141 20101 30009 55002 60007 70000 83833 85650 85358 90710 91104 93100 555 60005
AAXX 01064 07471 02478 52201 10071 20059 39261 48843 55000 60012 85500 333 10091 20071 32005 55030 60007 70048 81616 85626 90710 91107 93100 555 60005
AAXX 01064 07481 01/01 91003 10069 20062 39942 40235 53002 60032 74765 333 10078 20068 32006 55/// 60017 70068 90710 91111 93100 555 69925
AAXX 01064 07510 01462 82308 10128 20122 30177 40242 56005 60032 70165 877// 333 10133 20127 32012 55000 69987 70064 87711 90710 91112 93100 555 69905
AAXX 01064 07535 01120 82304 10114 20112 39933 40246 55000 60012 75065 887// 333 10118 20113 32011 55000 69947 70034 88703 90710 91110 93100 555 69905
AAXX 01064 07558 01210 82305 10084 20084 39403 40245 53001 60012 74054 886// 333 10096 20083 32008 55008 69907 70040 88703 90710 91110 93100 555 69905
AAXX 01064 07577 02450 10209 10077 20071 30136 40227 55000 60002 81600 333 10110 20077 31007 55052 60007 79999 81710 90710 91113 93100 555 60005
AAXX 01064 07591 04/// /0502 11006 21007 39203 4//// 53002 60002 700// 333 10026 21014 3/105 55070 60007 70000 90710 91104 555 60005
AAXX 01064 07607 04581 82402 10118 20110 30189 40261 56006 60042 700// 333 10125 20117 3/011 55000 60007 70184 90710 91107 555 60005
AAXX 01064 07621 02570 72304 10094 20086 39832 40270 56008 60012 875// 333 10114 20094 31008 55000 60007 70042 85630 87635 90710 91108 93100 555 60005
AAXX 01064 07627 02660 51802 10072 20060 39774 40271 56008 60012 85500 333 10112 20070 32005 55000 60007 70060 85633 90710 91106 93100 555 60005
AAXX 01064 07630 01365 82610 10115 20104 30078 40260 55004 69922 75865 876// 333 10122 20112 32010 55002 69907 70014 87708 90710 91116 93100 555 69905
AAXX 01064 07650 02970 02906 10086 20072 30176 40215 53006 60002 333 10117 20066 30004 55060 60007 70000 90710 91109 555 60005
AAXX 01064 07661 02975 13006 10114 20086 30037 40199 53016 60002 81070 333 10157 20108 55/// 60007 70000 81358 90710 91114 555 60005
AAXX 01064 07690 02984 13313 10065 20014 30171 40206 53011 60002 80002 333 10092 20065 30006 55071 60007 70000 81075 90710 91117 93100 555 60005
AAXX 01064 07747 02875 23008 10147 20084 30192 40245 53001 60002 82040 333 10152 20140 30011 55050 60007 79999 82356 90710 91117 93100 555 60005
AAXX 01064 07761 02480 30407 10066 20039 30186 40197 53007 60002 81502 333 10107 20058 30005 55019 60007 70000 81618 83073 90710 91111 93100 555 60005
AAXX 01064 07790 02980 32204 10059 20027 30191 40206 53008 60002 80001 333 10059 20041 30000 55079 60007 70000 83076 90710 91107 93100 555 60005
AAXX 01064 07643 02784 22610 10129 20092 30220 40230 53005 60002 82540 333 10160 20129 30012 55058 60007 70000 82650 90710 91117 93100 555 60005
BBXX BATFR19 01064 99067 30055 46/// /1513 10237 20189 40147 53019 22200 00255
AAXX 01061 76040 32902 02701 10122 20074 30164 40178 52006 90545 333 10264 20060 30/// 55090 58025 98602
AAXX 01061 76373 32910 00000 10086 21030 38242 40196 52024 90555 333 10270 21040 30/// 55086 21385 58018
AAXX 01061 76382 32660 20000 10126 20080 38935 40165 52011 82030 90550 333 10268 20055 30/// 55043 2//// 56050 58018 82356
AAXX 01061 76402 32950 03602 10132 20132 30112 40168 52018 90546 333 10287 20080 30/// 55095 2//// 58///
AAXX 01061 76423 32760 10000 10128 20026 38183 40130 52016 81350 90559 333 10255 20038 30/// 55069 29100 56090 58018 81357
AAXX 01061 76458 32960 03102 10170 20153 30152 40156 52005 90540 333 10264 20099 30/// 55095 58012
AAXX 01061 76525 32660 40808 10116 20007 37503 40128 52010 84600 90540 333 10188 20116 30/// 55092 22351 565// 58021 87444
AAXX 01061 76548 32760 50702 10214 20208 30196 40206 52012 85030 90530 333 10282 20188 30/// 55055 56050 58020 85356
AAXX 01061 76556 32960 01302 10176 20135 39131 40129 51008 90530 333 10292 20122 30/// 55097 58014
AAXX 01061 76577 32560 53603 10170 20140 38067 40117 52019 85400 90540 333 10265 20102 30/// 55068 56500 58017 85623
AAXX 01061 76644 32350 21202 10228 20202 30185 40198 52004 81270 90550 333 10322 20209 30/// 55068 20874 5611/ 58017 81810 82320
AAXX 01061 76654 31956 00000 10232 20208 30160 40164 52013 70544 90550 333 10294 20211 30/// 55064 20552 58024
AAXX 01061 76665 32958 01801 10130 20085 38145 40127 52009 90530 333 10270 20093 30/// 55067 21020 58017
AAXX 01061 76680 31962 02302 10110 20080 37781 40145 52000 70500 90550 333 10220 20104 30/// 55047 20837 58014
AAXX 01061 76685 32950 00000 10106 20058 37895 40131 52007 90550 333 10232 20078 30/// 55084 58009
AAXX 01061 76687 31358 61801 10156 20141 38719 40197 50008 70242 86500 90540 333 10225 20126 30/// 55048 563// 58018 82712 84618
AAXX 01061 76692 31520 70401 10239 20227 30176 40195 52018 71044 8545/ 90545 333 10278 20214 30/// 55080 5622/ 58022 85622
AAXX 01061 76737 31470 60000 10158 20141 38810 40183 50002 70222 866// 90530 333 10233 20130 30/// 55055 569// 58016 86710
AAXX 01061 76750 32558 50601 10245 20227 30173 40183 57005 81120 90550 333 10313 20198 31/// 55012 58/// 81820 84557
AAXX 01061 76762 31904 01201 10188 20162 38776 40126 51012 74144 90545 333 10312 20156 30/// 55071 20891 58016 91204
AAXX 01061 76845 32330 70201 10136 20117 37970 40167 54001 87700 90545 333 10222 20065 30/// 55064 56200 58009 87707
AAXX 01061 76848 01250 70602 10146 20132 38406 40118 50001 69921 75652 877// 90550 333 10212 20138 30/// 55068 561// 58010 69927 87706 90914
AAXX 01061 76122 32935 00000 10058 21012 38587 40184 52014 90550 333 10212 20018 30/// 55095 58///
AAXX 01061 76311 32940 00000 10148 20070 39880 40151 51015 90540 333 10338 20066 30/// 58005
AAXX 01061 76640 31010 40000 10224 20221 30195 40207 52006 71044 8322/ 90540 333 10278 20182 30/// 55032 5639/ 58011 83801
AAXX 01061 02741 37980 00000 11073 21080 30076 40092 54002 70000 90539 333 11022 21075 3/112
AAXX 01061 02755 37256 81304 11080 21086 39998 40098 52011 71010 88/// 90539 333 11044 21082 3//// 4/008
AAXX 01061 02805 37469 70401 11062 21075 39972 40108 57005 78587 87/// 90539 333 11044 21090 3/110
AAXX 01061 02807 47583 71201 11079 21084 39920 40110 700// 87/// 90600 333 11064 21135 3////
AAXX 01061 02836 37480 80000 11047 21054 39869 40097 52006 70000 88/// 90539 333 11045 21068 3/106 4/047
AAXX 01061 02845 47381 71102 11054 21056 39839 40094 52008 70087 87/// 90539 333 11052 21063 3/107 4/053
AAXX 01061 02849 47331 82701 11043 21047 39822 40102 52011 77187 88/// 90539 333 11041 21053 3////
AAXX 01061 02866 17258 81502 11076 21081 39955 40110 52015 69942 77887 88/// 90539 333 11043 21076 3/107 4/042
AAXX 01061 02897 47483 70601 11099 21107 39930 40121 700// 87/// 90600 333 11060 21106 3////
AAXX 01061 02913 47441 80000 11030 21034 30028 40081 771// 88/// 333 11013 21030 3////
AAXX 01061 02917 47581 51203 11061 21068 39990 40117 700// 85/// 90600 333 11056 21097 3////
AAXX 01061 02924 47357 81301 11058 21061 39889 40093 52014 77170 88/// 90539 333 11049 21058 3/106
AAXX 01061 02926 37562 81302 11030 21032 30078 40091 52008 700// 88/// 90600 333 11030 21063 3//// 4/002
AAXX 01061 02935 37463 71501 11048 21053 39923 40102 52013 70010 87/// 90539 333 11048 21139 3/119 4/007
AAXX 01061 02939 37473 80000 11067 21085 39926 40127 52016 78587 88/// 90539 333 11044 21074 3/111 4/017
AAXX 01061 02944 47570 81401 11048 21052 39946 40098 700// 88/// 90600 333 11044 21094 3////
AAXX 01061 02947 47/60 80801 11046 21049 40108 52013 77777 88/// 90551 333 11041 21100 3////
AAXX 01061 02963 12565 32101 11092 21099 40097 52010 69954 70211 83540 333 1//// 2//// 3/113 47001
AAXX 01061 02974 11580 12902 11059 21068 30032 40101 52012 69902 70171 81500 333 11022 21061 3/109 45///
AAXX 01061 02976 46/// /3502 11025 21025 30078 40094 52012 90539 333 10002 21027 3////
AAXX 01061 02981 37999 02801 11020 2//// 30088 40099 52005 70000 90539 333 10007 21020 3////
AAXX 01061 02982 46/// /0302 11003 21034 30088 40096 52005 90539 333 10005 21024 3////
AAXX 01061 11423 NIL
AAXX 01061 11487 01/04 91502 10014 20014 39533 40167 53006 60022 753// 333 21003 3/101 42001 69925 70021 89/02
AAXX 01061 11518 01365 82304 10033 20024 39708 40153 53003 69922 70262 885// 333 20001 32100 60005 70002 82708 84623 88643
AAXX 01061 11603 01256 81103 10006 21006 39661 40154 54000 69992 768// 886// 333 20001 3/101 43001 69905 70009 82703 88708
AAXX 01061 11659 01/09 91102 10003 20003 39518 40172 50007 69932 756// 333 21021 3/105 43002 69915 70003 89/02 93401
AAXX 01061 11723 NIL
AAXX 01061 11782 02762 72204 11001 21021 39863 40177 55000 60002 8457/ 333 21050 34109 60005 79999 84656 87359
BBXX FVNM 01064 99136 70818 46/// /0620 10277 20232 40135 58008 22282 00279
AAXX 01061 76040 32902 02701 10122 20074 30164 40178 52006 90545 333 10264 20060 30/// 55090 58025 98602
AAXX 01061 76373 32910 00000 10086 21030 38242 40196 52024 90555 333 10270 21040 30/// 55086 21385 58018
AAXX 01061 76382 32660 20000 10126 20080 38935 40165 52011 82030 90550 333 10268 20055 30/// 55043 2//// 56050 58018 82356
AAXX 01061 76402 32950 03602 10132 20132 30112 40168 52018 90546 333 10287 20080 30/// 55095 2//// 58///
AAXX 01061 76423 32760 10000 10128 20026 38183 40130 52016 81350 90559 333 10255 20038 30/// 55069 29100 56090 58018 81357
AAXX 01061 76458 32960 03102 10170 20153 30152 40156 52005 90540 333 10264 20099 30/// 55095 58012
AAXX 01061 76525 32660 40808 10116 20007 37503 40128 52010 84600 90540 333 10188 20116 30/// 55092 22351 565// 58021 87444
AAXX 01061 76548 32760 50702 10214 20208 30196 40206 52012 85030 90530 333 10282 20188 30/// 55055 56050 58020 85356
AAXX 01061 76556 32960 01302 10176 20135 39131 40129 51008 90530 333 10292 20122 30/// 55097 58014
AAXX 01061 76577 32560 53603 10170 20140 38067 40117 52019 85400 90540 333 10265 20102 30/// 55068 56500 58017 85623
AAXX 01061 76644 32350 21202 10228 20202 30185 40198 52004 81270 90550 333 10322 20209 30/// 55068 20874 5611/ 58017 81810 82320
AAXX 01061 76654 31956 00000 10232 20208 30160 40164 52013 70544 90550 333 10294 20211 30/// 55064 20552 58024
AAXX 01061 76665 32958 01801 10130 20085 38145 40127 52009 90530 333 10270 20093 30/// 55067 21020 58017
AAXX 01061 76680 31962 02302 10110 20080 37781 40145 52000 70500 90550 333 10220 20104 30/// 55047 20837 58014
AAXX 01061 76685 32950 00000 10106 20058 37895 40131 52007 90550 333 10232 20078 30/// 55084 58009
AAXX 01061 76687 31358 61801 10156 20141 38719 40197 50008 70242 86500 90540 333 10225 20126 30/// 55048 563// 58018 82712 84618
AAXX 01061 76692 31520 70401 10239 20227 30176 40195 52018 71044 8545/ 90545 333 10278 20214 30/// 55080 5622/ 58022 85622
AAXX 01061 76737 31470 60000 10158 20141 38810 40183 50002 70222 866// 90530 333 10233 20130 30/// 55055 569// 58016 86710
AAXX 01061 76750 32558 50601 10245 20227 30173 40183 57005 81120 90550 333 10313 20198 31/// 55012 58/// 81820 84557
AAXX 01061 76762 31904 01201 10188 20162 38776 40126 51012 74144 90545 333 10312 20156 30/// 55071 20891 58016 91204
AAXX 01061 76845 32330 70201 10136 20117 37970 40167 54001 87700 90545 333 10222 20065 30/// 55064 56200 58009 87707
AAXX 01061 76848 01250 70602 10146 20132 38406 40118 50001 69921 75652 877// 90550 333 10212 20138 30/// 55068 561// 58010 69927 87706 90914
AAXX 01061 76122 32935 00000 10058 21012 38587 40184 52014 90550 333 10212 20018 30/// 55095 58///
AAXX 01061 76311 32940 00000 10148 20070 39880 40151 51015 90540 333 10338 20066 30/// 58005
AAXX 01061 76640 31010 40000 10224 20221 30195 40207 52006 71044 8322/ 90540 333 10278 20182 30/// 55032 5639/ 58011 83801
AAXX 01061 76040 32902 02701 10122 20074 30164 40178 52006 90545 33310264 20060 30/// 55090 58025 98602
AAXX 01061 76373 32910 00000 10086 21030 38242 40196 52024 90555 33310270 21040 30/// 55086 21385 58018
AAXX 01061 76382 32660 20000 10126 20080 38935 40165 52011 82030 90550333 10268 20055 30/// 55043 2//// 56050 58018 82356
AAXX 01061 76402 32950 03602 10132 20132 30112 40168 52018 90546 33310287 20080 30/// 55095 2//// 58///
AAXX 01061 76423 32760 10000 10128 20026 38183 40130 52016 81350 90559333 10255 20038 30/// 55069 29100 56090 58018 81357
AAXX 01061 76458 32960 03102 10170 20153 30152 40156 52005 90540 33310264 20099 30/// 55095 58012
AAXX 01061 76525 32660 40808 10116 20007 37503 40128 52010 84600 90540333 10188 20116 30/// 55092 22351 565// 58021 87444
AAXX 01061 76548 32760 50702 10214 20208 30196 40206 52012 85030 90530333 10282 20188 30/// 55055 56050 58020 85356
AAXX 01061 76556 32960 01302 10176 20135 39131 40129 51008 90530 33310292 20122 30/// 55097 58014
AAXX 01061 76577 32560 53603 10170 20140 38067 40117 52019 85400 90540333 10265 20102 30/// 55068 56500 58017 85623
AAXX 01061 76644 32350 21202 10228 20202 30185 40198 52004 81270 90550333 10322 20209 30/// 55068 20874 5611/ 58017 81810 82320
AAXX 01061 76654 31956 00000 10232 20208 30160 40164 52013 70544 90550333 10294 20211 30/// 55064 20552 58024
AAXX 01061 76665 32958 01801 10130 20085 38145 40127 52009 90530 33310270 20093 30/// 55067 21020 58017
AAXX 01061 76680 31962 02302 10110 20080 37781 40145 52000 70500 90550333 10220 20104 30/// 55047 20837 58014
AAXX 01061 76685 32950 00000 10106 20058 37895 40131 52007 90550 33310232 20078 30/// 55084 58009
AAXX 01061 76687 31358 61801 10156 20141 38719 40197 50008 70242 8650090540 333 10225 20126 30/// 55048 563// 58018 82712 84618
AAXX 01061 76692 31520 70401 10239 20227 30176 40195 52018 71044 8545/90545 333 10278 20214 30/// 55080 5622/ 58022 85622
AAXX 01061 76737 31470 60000 10158 20141 38810 40183 50002 70222 866//90530 333 10233 20130 30/// 55055 569// 58016 86710
AAXX 01061 76750 32558 50601 10245 20227 30173 40183 57005 81120 90550333 10313 20198 31/// 55012 58/// 81820 84557
AAXX 01061 76762 31904 01201 10188 20162 38776 40126 51012 74144 90545333 10312 20156 30/// 55071 20891 58016 91204
AAXX 01061 76845 32330 70201 10136 20117 37970 40167 54001 87700 90545333 10222 20065 30/// 55064 56200 58009 87707
AAXX 01061 76848 01250 70602 10146 20132 38406 40118 50001 69921 75652877// 90550 333 10212 20138 30/// 55068 561// 58010 6992787706 90914
AAXX 01061 76122 32935 00000 10058 21012 38587 40184 52014 90550 33310212 20018 30/// 55095 58///
AAXX 01061 76311 32940 00000 10148 20070 39880 40151 51015 90540 33310338 20066 30/// 58005
AAXX 01061 76640 31010 40000 10224 20221 30195 40207 52006 71044 8322/90540 333 10278 20182 30/// 55032 5639/ 58011 83801
AAXX 01061 02741 37980 00000 11073 21080 30076 40092 54002 70000 90539 333 11022 21075 3/112
AAXX 01061 02755 37256 81304 11080 21086 39998 40098 52011 71010 88/// 90539 333 11044 21082 3//// 4/008
AAXX 01061 02805 37469 70401 11062 21075 39972 40108 57005 78587 87/// 90539 333 11044 21090 3/110
AAXX 01061 02807 47583 71201 11079 21084 39920 40110 700// 87/// 90600 333 11064 21135 3////
AAXX 01061 02836 37480 80000 11047 21054 39869 40097 52006 70000 88/// 90539 333 11045 21068 3/106 4/047
AAXX 01061 02845 47381 71102 11054 21056 39839 40094 52008 70087 87/// 90539 333 11052 21063 3/107 4/053
AAXX 01061 02849 47331 82701 11043 21047 39822 40102 52011 77187 88/// 90539 333 11041 21053 3////
AAXX 01061 02866 17258 81502 11076 21081 39955 40110 52015 69942 77887 88/// 90539 333 11043 21076 3/107 4/042
AAXX 01061 02897 47483 70601 11099 21107 39930 40121 700// 87/// 90600 333 11060 21106 3////
AAXX 01061 02913 47441 80000 11030 21034 30028 40081 771// 88/// 333 11013 21030 3////
AAXX 01061 02917 47581 51203 11061 21068 39990 40117 700// 85/// 90600 333 11056 21097 3////
AAXX 01061 02924 47357 81301 11058 21061 39889 40093 52014 77170 88/// 90539 333 11049 21058 3/106
AAXX 01061 02926 37562 81302 11030 21032 30078 40091 52008 700// 88/// 90600 333 11030 21063 3//// 4/002
AAXX 01061 02935 37463 71501 11048 21053 39923 40102 52013 70010 87/// 90539 333 11048 21139 3/119 4/007
AAXX 01061 02939 37473 80000 11067 21085 39926 40127 52016 78587 88/// 90539 333 11044 21074 3/111 4/017
AAXX 01061 02944 47570 81401 11048 21052 39946 40098 700// 88/// 90600 333 11044 21094 3////
AAXX 01061 02947 47/60 80801 11046 21049 40108 52013 77777 88/// 90551 333 11041 21100 3////
AAXX 01061 02963 12565 32101 11092 21099 40097 52010 69954 70211 83540 333 1//// 2//// 3/113 47001
AAXX 01061 02974 11580 12902 11059 21068 30032 40101 52012 69902 70171 81500 333 11022 21061 3/109 45///
AAXX 01061 02976 46/// /3502 11025 21025 30078 40094 52012 90539 333 10002 21027 3////
AAXX 01061 02981 37999 02801 11020 2//// 30088 40099 52005 70000 90539 333 10007 21020 3////
AAXX 01061 02982 46/// /0302 11003 21034 30088 40096 52005 90539 333 10005 21024 3////
AAXX 01064 89664 11116 59904 11017 21040 39765 49806 53005 69901 77674 85610 333 56840 85703 90931 93197 96010
BBXX VOKF 01064 99490 70669 46/// /1802 11031 21040 40139 56010 7//// 8//// 22200 0//// 2////
BBXX VCSZ 01064 99487 70631 46/// /0521 10009 20010 40084 58045 7//// 8//// 22234 0//// 2////
BBXX VCRG 01064 99474 70619 46/// /0915 10035 20033 40053 56063 7//// 8//// 22200 0//// 2////
BBXX VCBW 01064 99456 70735 46/// /2302 11014 21031 40161 50002 7//// 8//// 22200 0//// 2////
BBXX VOPP 01064 99456 70735 46/// /2301 11019 21023 4//// 5//// 7//// 8//// 22200 0//// 2////
BBXX CZ9742 01064 99506 70969 46/// /2814 11016 21067 4//// 5//// 7//// 8//// 22200 0//// 2////
BBXX CGDT 01064 99468 70712 46/// /0804 11038 21047 40163 51003 7//// 8//// 22200 0//// 2////
BBXX CGBN 01064 99447 70636 46/// /2901 10077 20076 40021 56038 7//// 8//// 22200 0//// 2////
BBXX CGDR 01064 99484 71234 46/// /0206 10052 20013 40261 55003 7//// 8//// 22200 0//// 2////
BBXX VAAP 01064 99462 70602 46/// /1420 10072 20070 40044 57078 7//// 8//// 22200 0//// 2////
BBXX CG2958 01064 99517 71281 46/// /1316 10069 21006 40186 57002 7//// 8//// 22200 0//// 2////
BBXX CG2960 01064 99429 70824 46/// /1705 10045 20020 40145 58023 7//// 8//// 22200 0//// 2////
BBXX CG2350 01064 99433 70798 46/// /2104 10035 20018 40171 58011 7//// 8//// 22200 0//// 2////
BBXX CGDX 01064 99468 70712 46/// /1003 11037 21047 40164 53003 7//// 8//// 22200 0//// 2////
BBXX VCWL 01064 99468 70712 46/// /0000 11040 21049 40163 51004 7//// 8//// 22200 0//// 2////
BBXX CGUM 01064 99462 70602 46/// /1610 10072 20071 40055 58076 7//// 8//// 22200 0//// 2////
BBXX CGJV 01064 99462 70631 46/// /0000 10056 20054 40024 58038 7//// 8//// 22200 0//// 2////
BBXX VRYO3 01064 99456 70735 46/// /2402 11011 21029 40156 51003 7//// 8//// 22200 0//// 2////
BBXX VOFG 01064 99456 70614 46/// /1004 10070 20070 40034 58055 7//// 8//// 22200 0//// 2////
BBXX 3FZK3 01064 99489 71237 46/// /0000 10027 20011 40270 55003 7//// 8//// 22200 0//// 2////
BBXX CGTF 01064 99476 70527 46/// /0000 10005 21022 40229 58043 7//// 8//// 22200 0//// 2////
AAXX 01061 01427 11450 82409 10084 20076 39915 49930 56021 60262 76066 8662/ 333 20024 70299 91113
BBXX VOLG 01064 99452 70609 46/// /1424 10084 20083 40019 58049 7//// 8//// 22212 0//// 2////
BBXX CGHL 01064 99476 70527 46/// /0000 10008 21020 40229 58043 7//// 8//// 22200 0//// 2////
BBXX CGDG 01064 99447 70636 46/// /3002 10073 20139 40021 56039 7//// 8//// 22200 0//// 2////
BBXX CGBR 01064 99525 71288 46/// /0310 10035 20002 40182 56001 7//// 8//// 22200 0//// 2////
BBXX C6SI6 01064 99444 11507 46/// /3601 10013 21028 40218 51009 7//// 8//// 22213 0//// 2////
BBXX VOKJ 01064 99455 70735 46/// /2203 11017 21031 40160 50002 7//// 8//// 22200 0//// 2////
BBXX CGSB 01064 99483 70709 46/// /0000 11103 21129 40186 58003 7//// 8//// 22200 0//// 2////
BBXX CGCC 01064 99463 70725 46/// /3402 11032 21048 40164 53002 7//// 8//// 22200 0//// 2////
BBXX CGBY 01064 99487 71235 46/// /0404 10047 20002 40265 56003 7//// 8//// 22200 0//// 2////
BBXX 46002 01061 99426 71305 46/// ///// 10125 40132 50000 90550 22200 00118 11007 70034
BBXX 46005 01061 99461 71310 46/// ///09 10102 40068 51019 90550 22200 00098 11008 20604 3//// 41007 70040 333 91210 555 11091 22098
BBXX 46006 01061 99408 71375 46/// /1611 10136 40007 57015 90550 22200 00121 10806 20604 3//// 40804 70031 333 91212 555 11114 22124 30540 41613 60549 161105 160105 157101 157101 159096 163098
BBXX 46012 01061 99374 71229 46/// /0206 10130 40198 54000 90550 22200 00119 11206 20402 331// 41205 70028 333 91207 555 11063 22070 30547 40307 60549 021057 024055 021038 012044 015043 017052
BBXX 46013 01061 99382 71233 46/// /0304 10109 40212 50000 90550 22200 00110 11206 20401 3//// 41206 70028 333 91205 555 11042 22045 30549 40305 60549 029041 018039 004041 358040 344039 335039
BBXX 46014 01061 99394 71240 46/// /0603 10098 40219 50000 90550 22200 00109 11406 20401 3//// 41406 70030 333 91204 555 11029 22030 30503 40506 60549 054029 044030 047031 050041 051042 045041
BBXX 46028 01061 99357 71219 46/// /2503 10131 40184 53006 90550 22200 00130 11205 20301 331// 41205 70027 333 91203 555 11027 22029 30508 42705 60549 251025 259031 255032 261034 267039 261036
BBXX 46029 01061 99461 71245 46/// /1007 10077 20037 40212 57007 90550 22200 00087 11304 20402 328// 41304 70021 333 91209 555 11075 22079 30508 41110 60549 100071 096073 105066 104071 101079 101079
BBXX 46050 01061 99442 71246 46/// /1106 10078 40212 58007 90550 22200 00095 11105 20301 329// 41105 70024 333 91207 555 11064 22067 30519 41008 60549 112060 110059 111062 114065 109059 104057
BBXX 9VVN 01064 99546 71492 41/97 /0328 10000 21060 40045 53005 7//// 8//// 22264 00040 2//// 3//// 4//// 5//// 6//// 81020
BBXX CGCC 01064 99463 70725 46/// /3402 11032 21048 40164 53002 7//// 8//// 22200 0//// 2////
BBXX VOFG 01064 99456 70614 46/// /1004 10070 20070 40034 58055 7//// 8//// 22200 0//// 2////
AAXX 01064 68386 16/// /1302 10224 20203 39706 48624 52005 60084 333 20204 91004 555 10276 20086 91024
BBXX VOKJ 01064 99455 70735 46/// /2203 11017 21031 40160 50002 7//// 8//// 22200 0//// 2////
BBXX CGBR 01064 99525 71288 46/// /0310 10035 20002 40182 56001 7//// 8//// 22200 0//// 2////
BBXX CGDG 01064 99447 70636 46/// /3002 10073 20139 40021 56039 7//// 8//// 22200 0//// 2////
BBXX CGTF 01064 99476 70527 46/// /0000 10005 21022 40229 58043 7//// 8//// 22200 0//// 2////
BBXX CGSB 01064 99483 70709 46/// /0000 11103 21129 40186 58003 7//// 8//// 22200 0//// 2////
BBXX C6SI6 01064 99444 11507 46/// /3601 10013 21028 40218 51009 7//// 8//// 22213 0//// 2////
BBXX CGBY 01064 99487 71235 46/// /0404 10047 20002 40265 56003 7//// 8//// 22200 0//// 2////
BBXX VOLG 01064 99452 70609 46/// /1424 10084 20083 40019 58049 7//// 8//// 22212 0//// 2////
BBXX 3FZK3 01064 99489 71237 46/// /0000 10027 20011 40270 55003 7//// 8//// 22200 0//// 2////
BBXX CGHL 01064 99476 70527 46/// /0000 10008 21020 40229 58043 7//// 8//// 22200 0//// 2////
AAXX 01064 91329 32474 80411 10322 20272 30105 40108 84107 333 561/9 70000 84818 88275 555 90106
AAXX 01064 91320 32474 80510 10306 20278 30095 40100 83101 333 561/9 79999 83815 85074 555 90106
AAXX 01064 91324 32474 80908 10317 20263 30072 40074 82201 333 562/9 70000 82818 88075 555 90106
AAXX 01064 91336 32474 80610 10306 20256 30105 40108 83101 333 561/9 70000 83818 88075 555 90106
AAXX 01064 91339 32474 80405 10289 20243 30058 40064 8422/ 333 56199 70000 84818 88463 555 90106
AAXX 01064 91329 32474 80411 10322 20272 30105 40108 84107 333 561/9 70000 84818 88275 555 90106
AAXX 01064 91320 32474 80510 10306 20278 30095 40100 83101 333 561/9 79999 83815 85074 555 90106
AAXX 01064 91324 32474 80908 10317 20263 30072 40074 82201 333 562/9 70000 82818 88075 555 90106
AAXX 01064 91336 32474 80610 10306 20256 30105 40108 83101 333 561/9 70000 83818 88075 555 90106
AAXX 01064 91339 32474 80405 10289 20243 30058 40064 8422/ 333 56199 70000 84818 88463 555 90106
BBXX VAAZ 01064 99/// ///// 46/// /2720 11031 21072 40217 56009 7//// 8//// 22200 0//// 2////
BBXX VCLM 01064 99468 70712 46/// /1001 11025 21040 40156 51003 7//// 8//// 22200 0//// 2////
BBXX VXKF 01064 99471 70595 46/// /1141 10035 20027 40065 58114 7//// 8//// 22253 0//// 2////
AAXX 01064 60150 32960 01904 10035 21016 39630 40314 55004 333 20021 34101
AAXX 01064 60155 32956 018// 10068 20054 40297 57002 333 20066 31002
AAXX 01064 60096 NIL
AAXX 01064 60101 NIL
AAXX 01064 60115 NIL
AAXX 01064 60135 NIL
AAXX 01064 60156 NIL
AAXX 01064 60230 NIL
AAXX 01064 60252 NIL
AAXX 01064 60141 32960 01904 10006 21016 39619 40322 58003 333 20005 33104
AAXX 01064 60191 32975 01604 10009 21003 40321 5//// 333 20003 30105
AAXX 01064 60265 32970 02501 10015 21113 38993 48592 53002 333 21002
AAXX 01064 60060 NIL
AAXX 01064 60105 NIL
AAXX 01064 60106 NIL
AAXX 01064 60107 NIL
AAXX 01064 60127 NIL
AAXX 01064 60185 NIL
AAXX 01064 60190 NIL
AAXX 01064 60195 NIL
AAXX 01064 60210 NIL
AAXX 01064 60220 NIL
AAXX 01064 60318 NIL
AAXX 01064 64500 32360 81810 10249 20230 30105 40118 885// 333 02500 20241 50521 55089 59007 84608 88633
BBXX DBLK 01061 99434 30080 41497 32615 10091 20051 40005 52020 70282 83800 22213 04090 20504 326// 41008
AAXX 01064 60285 NIL
AAXX 01064 60340 NIL
AAXX 01061 11812 36/// /0902 11014 21019 39476 42777 52008 333 21017 3////
AAXX 01061 11813 11114 89902 11016 21022 39838 40200 52009 69912 72222 887// 333 21016 3/106 46997 70001 88703
AAXX 01061 11816 11445 80703 11009 21019 30031 40201 52010 69912 72222 885// 333 21022 3/105 43997 70001 86714 88618
AAXX 01061 11819 36/// /0000 11022 21029 39981 40206 52013 333 21052 3/107
AAXX 01061 11826 11525 80000 11026 21033 39994 40202 52010 60002 77122 885// 333 21054 34109 79999 85620 88627
AAXX 01061 11841 11224 81401 11034 21041 39810 40202 51003 60002 71022 886// 333 21036 3/104 43007 70009 88704
AAXX 01061 11855 11660 70805 11011 21027 30034 40206 52012 69902 72277 875// 333 21039 3/106 45998 79999 87636
AAXX 01061 11856 36/// /1203 11031 21045 39880 40212 52015 333 21040 3/107
AAXX 01061 11858 12680 80000 11018 21025 30048 40206 52014 60002 8451/ 333 21044 34110 70000 84640 88456
AAXX 01061 11867 11857 72201 11038 21053 39875 40206 53005 60002 71011 8707/ 333 21067 3/109 43004 70002 87456
AAXX 01061 11880 12560 89901 11032 21032 30037 40216 52012 60002 885// 333 21057 34109 70000 88630
AAXX 01061 11900 16/// /0000 11037 21047 39871 40221 52007 69902 333 21052 3//// 79999
AAXX 01061 11903 11457 70000 11060 21067 39823 40224 52008 60002 71022 8457/ 333 21081 3/110 43004 70000 81710 84650 87359 93502
AAXX 01061 11916 11289 12412 11110 21127 37905 48432 53004 60002 70144 81540 333 21124 3//// 48050 79999 81603 93598 444 57102
AAXX 01061 11918 11/05 99901 11080 21089 39350 42777 53002 60002 74711 333 21097 3/112 43003 70006 89/03 93512
AAXX 01061 11927 11457 80102 11016 21026 39944 40216 52008 60002 71022 885// 333 21025 34105 70000 84710 88630
AAXX 01061 11930 12689 13207 11140 21173 37279 47939 53007 60002 81041 333 21161 3//// 48038 70070 81333 93530 444 67081
AAXX 01061 11933 12285 29902 11067 21082 38632 48446 53003 60002 81840 333 21109 3/116 48044 70012 81603 9512/ 444 17073
AAXX 01061 11934 11258 19901 11098 21114 39353 42782 53003 60002 74000 81600 333 21102 3/111 41998 79999 81703
AAXX 01061 11938 11/02 91801 11102 21114 39105 42783 51002 60002 74911 333 21102 3/113 44019 79999 89/00 93502
AAXX 01061 11952 16/// /1302 11094 21099 39344 42782 52003 60002 333 21097 3/110 70000
AAXX 01061 11958 36/// /2309 11071 21081 38723 48451 52004 333 21075 3////
AAXX 01061 11968 11462 82403 11006 21026 39923 40213 52007 69902 70252 886// 333 21007 31101 79999 88711
AAXX 01061 11976 12460 81802 11001 21012 39938 40210 53008 60002 885// 333 21003 3/101 43997 70006 88613
AAXX 01061 11978 12670 81802 10006 21016 30079 40213 52009 60002 885// 333 20000 32101 70000 88646
AAXX 01061 11993 12461 72103 10007 21012 39992 40215 52010 60002 87500 333 21003 31101 79999 84713 87627
AAXX 01064 81401 06/// /0502 10226 20218 30110 40116 60081 333 55/// 60057 58003 7//// 555 69925
AAXX 01064 81408 06/// /0000 10230 2//// 30102 40110 69941 333 55/// 69947 58001 7//// 555 60005
BBXX VCLM 01064 99468 70712 46/// /1001 11025 21040 40156 51003 7//// 8//// 22200 0//// 2////
BBXX VXKF 01064 99471 70595 46/// /1141 10035 20027 40065 58114 7//// 8//// 22253 0//// 2////
BBXX VAAZ 01064 99/// ///// 46/// /2720 11031 21072 40217 56009 7//// 8//// 22200 0//// 2////
AAXX 01064 48601 11560 70304 10286 20247 30095 40099 6///1 70522 82252 333 82820 86364 87077
AAXX 01064 48615 11457 82203 10246 20235 30100 40106 60151 76166 8352/ 333 81710 83620 88468
AAXX 01064 48620 11464 71901 10295 20256 30091 40100 69921 78086 85948 333 81917 83820 87276
AAXX 01064 48647 11467 71703 10333 20257 30073 40097 60001 70522 84942 333 81917 83818 87078
AAXX 01064 48657 11464 71006 10308 20253 30092 40109 60001 70522 82242 333 82818 83366 86078
AAXX 01064 48665 11568 72307 10325 20242 30094 40103 60001 70542 82242 333 82822 83364 86078
AAXX 01064 96413 12580 70507 10308 20246 30070 40096 6///1 84241 333 84820 85080
AAXX 01064 96421 11475 72303 10289 20242 30052 40087 60011 72582 85931 333 81915 84818 85080
AAXX 01064 96441 11480 73508 10295 20254 30063 40090 6///1 71798 84941 333 83814 81915 87080
AAXX 01064 96449 11465 72203 10271 20257 30073 40092 60301 72186 83963 333 83714 81915 86365
AAXX 01064 96465 12478 70211 10304 20253 30059 40092 69961 81842 333 81813 87080
AAXX 01064 96471 11472 70108 10314 20257 30085 40088 60001 70522 83848 333 81814 84364 87277
AAXX 01064 96481 11460 70508 10314 20253 30066 40085 60001 71522 83841 333 82817 86080
AAXX 01064 96491 11460 70608 10279 20255 30082 40094 60021 72582 84848 333 83814 83640 87276
AAXX 01064 91503 31575 63204 10324 20255 40042 55003 70522 83236 333 56709 83820 83361 85281
AAXX 01064 91517 31575 63603 10317 20248 40050 57007 70522 82237 333 56800 82821 86280
AAXX 01064 91503 31575 63204 10324 20255 40042 55003 70522 83236 333 56709 83820 83361 85281
AAXX 01064 91517 31575 63603 10317 20248 40050 57007 70522 82237 333 56800 82821 86280
AAXX 01061 11723 01458 80901 11002 21021 39881 40188 52008 69902 71072 886// 333 21029 3/107 43001 60005 79999 88714
AAXX 01064 85201 11140 51304 10052 20047 36297 57008 69911 74082 82632 333 56200 59002 82702 85070 96004
AAXX 01064 85223 11359 80000 10134 20126 37525 47155 57005 60081 70466 8652/ 333 56009 58025 83607 85623 88457
AAXX 01064 85244 32865 73006 10224 20212 39656 40086 57017 87030 333 56089 58004 87357
AAXX 01064 17600 11530 72410 10157 20105 30085 40094 53003 60132 79798 879// 333 10177 20121 31010 50341 55021 70499 82825 83930 85640 92446
AAXX 01064 17601 11575 62009 10135 20110 30064 40095 51007 60152 71798 83933 90550 333 20105 32007 70238 81920 84070
AAXX 01064 17607 11565 71503 10102 20096 39911 40104 53/// 60204 7258/ 8698/ 333 20080 70200 82820 81925 85650
AAXX 01064 17609 11445 72312 10120 20102 30108 40112 53014 60172 79598 879// 333 10155 20100 32008 50171 55020 70349 82818 81925 84635 85645 91139 96025
AAXX 01061 45032 36/// /2902 10211 20090 30187 40204 57001
AAXX 01061 45035 36/// /2604 10195 20103 30160 40202 57004
AAXX 01061 45039 36/// /0303 10201 20095 30186 40201 57002
AAXX 01061 45044 36/// /1304 10196 20125 30109 40202 57002
AAXX 01064 63980 32480 63215 10295 20233 40129 60004 82232 333 20262 50540 55048 59005 82818 83360 943// 91126
AAXX 01064 71805 04363 81219 10031 20022 30147 40156 57061 69902 700// 333 10031 20001 31100 55000 69907 79999 90710 91127 555 60005
AAXX 01061 45032 36/// /2902 10211 20090 30187 40204 57001
AAXX 01061 45035 36/// /2604 10195 20103 30160 40202 57004
AAXX 01061 45039 36/// /0303 10201 20095 30186 40201 57002
AAXX 01061 45044 36/// /1304 10196 20125 30109 40202 57002
BBXX BATFR53 01064 99176 51294 46/// /0611 10254 20210 40172 51020 22222 00264
BBXX VEP717 01064 99487 70487 41598 82211 10013 2101/ 40262 57027 70222 885// 22200 06021 20200 335// 40909 80004
AAXX 01064 78948 11577 30818 10254 20210 30147 40155 60011 70581 83800 333 02200 10296 20246 58002 70011 83823 90950
AAXX 01061 89061 179// 03403 10002 20000 39879 49886 52015 60011 77177 333 91004 91105
AAXX 01061 89061 179// 03403 10002 20000 39879 49886 52015 60011 77177 333 91004 91105
AAXX 01064 61968 16/// /2805 10300 20237 40128 60004 333 20274 55/// 59004 90710 91111 555 60005
AAXX 01064 61972 16/// /1410 10286 20214 40120 60004 333 20255 55/// 59004 90710 91117 555 60005
AAXX 01064 61976 16/// /1007 10313 20229 40125 60004 333 20268 55/// 58002 90710 91111 555 60005
AAXX 01064 61980 12562 23604 10288 20235 40128 60044 82832 333 02219 20235 55061 59002 82821 90710 91105 92427 555 60005
AAXX 01064 67005 12580 23214 10303 20240 40127 69904 82202 333 026// 20280 55100 59003 82822 90710 91120 555 60005
BBXX 41046 01061 99238 70683 46/// /1005 10246 20205 40220 57012 90550 22200 00253 10803 20501 300// 40803 70017 333 91207 555 11056 22058 30512 41007 60549 100053 098048 104052 103054 103052 102050 81006 90514
BBXX 44011 01061 99411 70666 46/// /3008 10099 20096 40060 53009 90550 22200 00093 10804 20403 3//// 40802 70018 333 91210 555 11085 22092 30529 41211 60549 300081 295081 294087 295080 304077 315082
AAXX 01064 43466 22470 12305 10298 20201 30103 40115 81100 333 58003 60007 70000 81818
AAXX 01064 48601 11560 70304 10286 20247 30095 40099 6///1 70522 82252 333 82820 86364 87077
AAXX 01064 48615 11457 82203 10246 20235 30100 40106 60151 76166 8352/ 333 81710 83620 88468
AAXX 01064 48620 11464 71901 10295 20256 30091 40100 69921 78086 85948 333 81917 83820 87276
AAXX 01064 48647 11467 71703 10333 20257 30073 40097 60001 70522 84942 333 81917 83818 87078
AAXX 01064 48650 11462 72204 10310 20248 30082 40100 60001 70522 83932 333 81917 83818 87078
AAXX 01064 48657 11464 71006 10308 20253 30092 40109 60001 70522 82242 333 82818 83366 86078
AAXX 01064 48665 11568 72307 10325 20242 30094 40103 60001 70542 82242 333 82822 83364 86078
AAXX 01064 96413 12580 70507 10308 20246 30070 40096 6///1 84241 333 84820 85080
AAXX 01064 96421 11475 72303 10289 20242 30052 40087 60011 72582 85931 333 81915 84818 85080
AAXX 01064 96441 11480 73508 10295 20254 30063 40090 6///1 71798 84941 333 83814 81915 87080
AAXX 01064 96449 11465 72203 10271 20257 30073 40092 60301 72186 83963 333 83714 81915 86365
AAXX 01064 96465 12478 70211 10304 20253 30059 40092 69961 81842 333 81813 87080
AAXX 01064 96471 11472 70108 10314 20257 30085 40088 60001 70522 83848 333 81814 84364 87277
AAXX 01064 96481 11460 70508 10314 20253 30066 40085 60001 71522 83841 333 82817 86080
AAXX 01064 96491 11460 70608 10279 20255 30082 40094 60021 72582 84848 333 83814 83640 87276
BBXX 46089 01061 99459 71258 46/// /1411 10082 20053 40195 56010 90550 22200 00092 11305 20604 328// 41303 70025 333 91213 555 11116 22123 30513 41414 60549 144109 141113 140111 136109 132099 134105
AAXX 01061 06206 47664 5//11 10097 20082 39975 40027 53001 70185 8//// 333 20090 84/36 85/41 91013 91116 91213
AAXX 01061 06207 47158 72313 10084 20076 39980 40033 55000 72386 8//// 333 20076 82/03 87/04 87/06 91015 91117 91214
AAXX 01061 06239 47261 7//11 10093 20084 39938 49999 53001 70386 8//// 333 20086 83/05 86/06 87/07 91013 91116 91214
AAXX 01061 06252 46/// /2412 10101 20093 39994 40040 53002 222// 00084 10503 333 20097 91015 91115 91213
AAXX 01061 06260 17265 82405 10114 20107 30075 40077 55002 60022 72385 8//// 333 20100 3/010 70036 87/05 88/06 91010 91111 91207
AAXX 01061 06270 17265 82307 10100 20098 30050 40050 55002 60012 72381 8//// 333 20079 3/008 70036 88/04 91010 91112 91208
AAXX 01061 06290 17228 82205 10108 20106 30040 40080 55004 60012 75386 8//// 333 20093 3/009 70030 83/04 87/05 88/07 91008 91109 91206
BBXX 51000 01061 99235 71541 46/// /3402 10221 40181 53006 90550 22200 00229 11004 20401 310// 41004 70020 333 91203 555 11022 22022 30542 43203 60549 337020 351015 333007 312006 330009 350012
AAXX 01061 06201 47961 02411 10092 20085 39953 40005 56002 72366 333 20086 91013 91115 91212
AAXX 01061 06203 47960 82412 10107 20100 30009 40060 55002 70386 8//// 333 20100 85/64 88/67 91014 91115 91213
AAXX 01061 06204 47962 32312 10105 20097 39990 40040 53002 70186 8//// 333 20100 83/73 91014 91116 91214
AAXX 01061 06205 47158 52212 10090 20082 39923 49981 56003 71086 8//// 333 20081 85/03 91013 91115 91213
AAXX 01061 06208 47160 82310 10090 20083 39996 40045 58003 72381 8//// 333 20070 86/02 88/03 91012 91113 91211
AAXX 01061 06211 47966 02315 10099 20084 39967 40022 55002 70285 333 20088 91018 91118 91216
AAXX 01061 06212 47258 12313 1//// 2//// 39990 40053 55000 71086 8//// 333 2//// 81/04 91014 91116 91213
AAXX 01061 06235 17259 82310 10097 20091 30054 40054 55004 60022 72286 8//// 333 20089 3/008 70027 85/04 88/07 91013 91113 91210
AAXX 01061 06240 17265 82409 10115 20107 30078 40073 55002 69932 72385 8//// 333 20100 3/009 70004 83/06 86/07 88/09 91012 91113 91209
AAXX 01061 06251 17159 82409 10090 20089 30045 40046 55000 60022 72381 8//// 333 20070 3/007 70033 88/03 91012 91112 91209
AAXX 01061 06258 46/// /2209 333 91010 91111 91210
AAXX 01061 06269 17239 82307 10109 20104 30074 40068 56005 60022 75381 8//// 333 20095 3/009 70047 81/04 87/05 88/07 91010 91111 91208
AAXX 01061 06280 17226 82307 10106 20100 30051 40055 55004 69962 71085 8//// 333 20085 3/008 70022 86/04 88/06 91011 91111 91208
AAXX 01061 06310 17373 82410 10109 20102 30077 40087 55004 60022 70286 8//// 333 20088 3/009 70030 85/08 88/09 91013 91115 91213
AAXX 01061 06344 17266 82409 10114 20108 30085 40079 55002 60032 70286 8//// 333 20100 3/010 70046 88/05 91013 91116 91210
AAXX 01061 06370 17250 82207 10115 20115 30070 40095 55003 60012 72385 8//// 333 20104 3/010 70037 83/05 87/06 88/08 91009 91111 91208
AAXX 01061 06380 17367 82207 10111 20102 39978 40116 55003 60042 78185 8//// 333 20099 3/010 70055 86/08 87/09 88/13 91010 91111 91208
BBXX 46083 01061 99582 71380 46/// /1116 10022 21019 40066 56044 90550 22200 00063 10606 20606 300// 41101 70030 333 91219 555 11174 22186 30531 41121 60549 107163 109165 110165 109169 112162 112155 81118 90514
AAXX 01064 91574 46/// ///// 29078 30131 40137 58012
AAXX 01064 91570 NIL
AAXX 01064 91598 NIL
AAXX 01064 91573 06/// /0702 10247 2//// 39966 4//// 55003 60001 333 59010 60007
AAXX 01064 91577 06/// /1605 10238 20215 30042 40063 56009 60011 333 59012 69967
AAXX 01064 91579 06/// /0908 10244 20227 30061 40069 55001 60011 333 59002 69967
AAXX 01064 91582 04468 81206 10238 20231 30038 40072 56003 60042 700// 333 10272 20224 3/022 55/// 60017 70040 90710 91110 555 69905
AAXX 01064 91583 06/// /1702 10235 20225 30055 40070 55003 60021 333 59003 60017
AAXX 01064 91587 06/// /1604 10234 20226 30034 40079 55001 60101 333 58005 60087
AAXX 01064 91590 04386 81309 10221 20211 30039 40082 55006 60082 700// 333 10244 20214 55000 60037 70132 90710 91114 555 69905
AAXX 01064 91592 06/// /1009 10218 20208 30002 40087 55003 60081 333 58007 60047
AAXX 01064 91596 06/// /1308 10212 20200 39977 40086 53001 60041 333 58007 60017
BBXX 44008 01061 99405 70692 46/// /3211 10075 20061 40120 52018 90550 22200 00116 10804 20804 329// 41401 70019 333 91213 555 11111 22117 30525 43114 60549 314106 313106 314112 307106 305103 311102
BBXX 44172 01061 99445 70634 46/// ///// 1//// 90601 22200 00054 10704 20704 70019
AAXX 01064 16021 12970 03607 10002 21035 37961 48479 52008 60002 333 21016 47011 55/// 2//// 92832
AAXX 01064 16022 12984 00503 10018 21041 37850 48484 52008 60002 333 21040 43013 55078 2//// 92832
AAXX 01064 16033 12562 32504 11052 21066 38789 48488 53012 60002 83500 333 21052 47027 55/// 2//// 83630 92802
AAXX 01064 16040 13865 19901 11036 21056 39270 42795 5//// 60002 81030 333 21036 47008 55/// 2//// 81358 92830
AAXX 01064 16052 12/08 90518 11090 21108 36637 47074 52008 69962 333 21090 49999 55000 23003 89/04 93199
AAXX 01064 16061 12984 00000 10042 21024 39348 42796 52008 60002 333 20038 30/// 55073 2////
AAXX 01064 16098 11956 03304 10000 21056 30154 40208 52007 60002 71000 333 21010 30/// 55/// 2////
AAXX 01064 16138 NIL
AAXX 01064 16148 12964 62904 10001 21006 30200 40213 51011 60002 82043 333 21011 34/// 55078 2//// 55300 82365
AAXX 01064 16168 12780 31107 10058 21104 39441 42798 51000 60002 81031 333 20044 30/// 81356
AAXX 01064 16172 12962 00000 11032 21040 39920 40236 51002 60002 333 21040 34/// 55/// 2//// 92611
AAXX 01064 16179 12880 31606 10042 21085 39514 42802 58003 60002 83030 333 20037 30/// 55/// 2//// 83358
AAXX 01064 16224 12966 30607 10032 21017 39875 40203 53006 60002 80001 333 20030 30/// 55081 2////
AAXX 01064 16232 12998 02006 10080 21035 30150 40204 51010 60002 333 20072 30/// 55045 20402 555 0////
AAXX 01064 16245 12560 40000 10012 21061 30174 40201 53007 60002 84500 333 20012 30/// 55/// 2//// 84630
AAXX 01064 16253 11957 00303 10010 21008 30219 40231 52018 60002 71000 333 20000 30/// 55081 20924
AAXX 01064 16258 12965 03513 10020 21031 39180 42787 53002 60002 333 20008 30/// 55/// 2////
AAXX 01064 16263 12970 03007 10020 21167 38936 48494 53007 60002 333 20002 34/// 55/// 2////
AAXX 01064 16294 12998 00000 10090 20038 30018 40214 53010 60002 333 20088 30/// 55/// 2//// 555 0////
AAXX 01064 16337 12998 02804 10058 21104 39630 40213 52010 60002 333 20046 30/// 55/// 2//// 555 0216/
AAXX 01064 16344 12960 03406 11020 21268 38303 48490 53012 60002 333 21046 43051 55045 21218 95000 95100
AAXX 01064 16434 13470 30206 10050 20043 39002 48500 53005 60002 82540 333 20020 30/// 55/// 2//// 82612 83358 95010 95100
AAXX 01064 16450 12465 13302 10050 20000 39100 48555 52010 60002 81200 333 20030 31/// 81810
AAXX 01064 16459 12965 02807 10050 20044 30180 40217 51011 60002 333 20048 30/// 55/// 2////
AAXX 01064 16546 11558 53005 10140 20119 30189 40217 53010 60002 71022 84830 333 20134 30/// 55/// 2//// 82820 83635
AAXX 01064 16564 12598 52721 10148 20128 30063 40204 53009 60002 83231 333 20144 31/// 83820 555 0////
AAXX 01064 13600 12965 00902 11008 21030 30156 40210 52015 60002 333 21014 34///
AAXX 01064 13610 NIL
AAXX 01064 13611 NIL
AAXX 01064 13619 NIL
AAXX 01064 13622 12970 00000 10016 20002 30159 40166 52004 60002 333 20005
AAXX 01064 13624 NIL
AAXX 01064 13625 12960 00000 11030 21057 39929 40171 52022 60002 333 21034 34///
AAXX 01064 13629 12960 01402 11048 21048 39116 42774 52008 60002 333 21060 47997
AAXX 01064 13601 12965 00000 11008 21019 30070 40175 52011 60002 333 21010 34///
AAXX 01064 13602 NIL
AAXX 01064 13623 NIL
AAXX 01064 16008 12560 33305 10008 21013 38542 48501 52012 60002 83500 333 21020 43030 55/// 2//// 83630 92810
AAXX 01064 16084 12970 12403 11028 21034 30040 40216 52013 60002 80001 333 21028 34/// 55070 20510
AAXX 01064 16088 12960 00203 11028 21028 30097 40221 52011 60002 333 21031 34/// 55/// 2//// 92600
AAXX 01064 16110 12998 00608 10042 20011 30195 40199 53003 60002 333 20042 30/// 55042 20445 555 0////
AAXX 01064 16134 12684 63331 10026 21042 37827 48503 52009 60002 86030 333 21010 44021 55081 2//// 86340 92845
AAXX 01064 16153 12999 00109 10098 20081 39925 40192 53005 60002 333 20090 30/// 55077 2//// 555 0////
AAXX 01064 16158 12662 41507 10038 21002 30209 40217 53008 60002 81530 333 20000 30/// 55079 2//// 81640 84358
AAXX 01064 16206 12970 30409 10000 21019 30200 40209 51002 60002 82011 333 21010 30/// 55/// 2//// 82460
AAXX 01064 16219 42465 30616 10028 20000 38122 48506 55/// 6///2 83200 333 21040 41003 55063 2//// 83610 9500/ 9510/ 92843
AAXX 01064 16252 12980 00000 10038 21184 39250 42807 53004 60002 333 20018 30/// 55/// 2//// 55356
AAXX 01064 16280 12898 51308 10094 20042 39980 40205 53009 60002 85050 333 20088 30/// 55085 2//// 85357 555 0////
AAXX 01064 16310 12998 00503 10070 21133 39978 40204 53010 60002 333 20060 30/// 55085 2//// 555 0////
AAXX 01064 16320 12960 03509 10094 20038 30177 40190 52014 60002 333 20090 30004 55035 20578 555 0318/
AAXX 01064 16325 NIL
AAXX 01064 16360 12497 13213 10064 20007 30055 40193 53018 60002 81100 333 20058 30/// 55066 2//// 81818 555 0318/
AAXX 01064 16400 12497 21404 10112 20045 39924 40216 53005 60002 82270 333 20100 30/// 55068 2//// 55300 82817 555 0213/
AAXX 01064 16420 12697 30000 10110 20045 30143 40209 52008 60002 83500 333 20110 30/// 55060 2//// 83640 555 0100/
AAXX 01064 16429 11464 71102 10100 20097 30209 40220 53012 69962 70262 84270 333 20090 32/// 55083 2//// 55300 84818 85356
AAXX 01064 16470 11460 73019 10144 20114 39980 40216 53010 60072 75052 84520 333 20134 32/// 55045 2//// 55300 22/// 84613 84456 95010
AAXX 01064 16480 12598 13104 10090 20010 30147 40210 53012 60002 81500 333 20078 30/// 55085 2//// 55300 81620 555 0100/
AAXX 01064 16522 12497 63110 10140 20121 39962 40206 53003 60002 86200 333 20138 30/// 55002 2//// 55300 86818 555 0////
AAXX 01064 16539 NIL
AAXX 01064 16550 12998 00805 10126 20123 30010 40190 53008 60002 333 20118 30/// 55007 2//// 555 0////
AAXX 01064 89642 42984 13014 10008 21023 39809 49862 55001 81031 333 55206 23590 81360
BBXX 44098 01061 99428 70702 46/// ///// 1//// 90537 22200 00082 10402 20402 70008
AAXX 01064 16045 NIL
AAXX 01064 16090 12960 03404 11016 21019 30130 40217 51012 60002 333 21018 34/// 55069 20593 92600
AAXX 01064 16149 12970 00000 11028 21044 30198 40215 52013 60002 333 21034 34/// 55/// 2////
AAXX 01064 16261 NIL
AAXX 01064 16453 11997 00000 10100 20044 30140 40219 52012 60002 702// 333 20086 30/// 55075 2//// 55300 555 0100/
AAXX 01064 16560 12560 53107 10130 20106 30209 40216 51008 60002 85700 333 20130 30012 55000 20219 85720
BBXX DBBI 01061 99535 10100 46/// /2103 10094 20093 40057 57016 22240 00051
BBXX DBND 01061 99536 10086 46/// /2206 10099 20098 40049 57010/ 22240 00063
BBXX DBCK 01061 99/// ///// 46/// ///// 10101 20101 40049 57010 22220 00058
BBXX DBEA 01061 99540 10082 46/// /2211 10082 20075 40037 57006 22260 00063
BBXX DBJM 01061 99542 10079 46/// /2212 10083 20075 40031 57008 22220 00077
BBXX 61001 01064 99434 10078 46/// /0512 10134 20099 40190 52008 22200 00137 10703 70013
AAXX 01061 10091 11256 81809 10025 20025 30018 40070 58017 69902 71022 876// 222// 06051 333 10025 21001 31000 55032 55300 20000 30000 79999 87705
BBXX DBBA 01061 99/// ///// 46/// ///// 10037 20037 40064 57016 22220 00056
BBXX DBEB 01061 99539 10079 41/// /2211 10080 20080 40035 57008 7//// 22200 000/1
BBXX DBBC 01061 99535 10100 46/// /2003 10093 20093 40057 57016 22200 00053
BBXX DBBH 01061 99380 10155 41498 22603 10122 20047 40221 52018 70200 828// 22261 04157 305// 40300
BBXX 41101 01064 99146 70562 46/// /0720 10257 20214 40146 57014 22200 00267 10806 70031 555 1/027
BBXX DBFH 01061 99535 10086 46/// /2106 10099 20093 40053 57009 22200 00057
BBXX DBKR 01061 99541 10121 46/// /1704 10037 20037 40064 57016 22200 00057
AAXX 01061 03951 17556 /2310 10108 20087 39977 40003 57027 69912 76161 87/// 333 20108 3/010 87/25 87/59
AAXX 01061 03953 11470 52509 10090 20057 39965 40001 57016 60032 72581 85300 333 20081 32006 55000 81919 83650 92447
AAXX 01061 03955 11475 72209 10093 20080 39811 40005 56019 60022 72582 873// 333 20079 31007 55000 81711 83914 86657
AAXX 01061 03956 17356 /2307 10098 20084 39931 40007 57016 60032 72381 87/// 333 20093 3/008 87/08
AAXX 01061 03962 11562 82507 10080 20062 39964 49988 56010 60022 78098 883// 333 20079 3/005 55000 83920 83630 87650
AAXX 01061 03963 17663 /2613 10075 20033 39928 49956 55013 60022 70185 84/// 333 20072 3/006 81/34 84/56 86/60 90710 91120
AAXX 01061 03966 17462 /2407 10067 20046 39892 49984 58010 60042 7828/ 87/// 333 20063 3/005 81/19 83/29 85/43
AAXX 01061 03967 12580 62110 10089 20061 39864 49976 58018 69902 8357/ 333 20080 31005 55000 81628 83642 86459
AAXX 01061 03969 11470 72305 10081 20061 39879 49982 58013 69922 76061 875// 333 20077 31006 55000 81718 83628 85650
AAXX 01061 03973 16/// /2104 10045 20030 39700 49953 57016 60032 333 20043 3/002
AAXX 01061 03976 11574 52308 10077 20050 39918 49930 58013 60052 72581 85300 333 20073 31005 55000 83920 82820
AAXX 01061 03980 17466 /2212 10069 20050 39888 49912 58007 60022 7818/ 84/// 333 20064 3/005 81/19 84/45 90710 91118
AAXX 01061 01122 16/// /3503 11045 21072 39870 49961 56013 60002 333 21146 70000 91108
AAXX 01061 01046 11989 31417 11023 21067 30004 40011 58032 60002 70300 80005 333 21132 44015 70000 91121
AAXX 01061 01311 46/// /1506 10056 20049 39829 49890 58007 333 20039 91116
AAXX 01061 01452 16/// /0406 10031 20027 39911 49932 58046 60242 333 21003 70249 91110
BBXX 44097 01061 99410 70711 46/// ///// 1//// 90602 22200 00109 10803 20803 70014
AAXX 01064 89532 42/80 50403 10019 21077 39882 49909 56018 82032 333 55000 21720
BBXX 51204 01061 99213 71581 46/// ///// 1//// 90552 22200 00247 11202 20901 331// 41202 70011
BBXX 51202 01061 99214 71577 46/// ///// 1//// 90539 22200 00239 11003 21003 309// 41101 70016
BBXX 44100 01061 99363 70756 46/// ///// 1//// 90552 22200 00124 10701 20701 70005
BBXX 41110 01061 99341 70777 46/// ///// 1//// 90551 22200 00134 10601 20601 70007
BBXX 42099 01061 99273 70842 46/// ///// 1//// 90557 22200 00225 10401 20401 70003
BBXX 41113 01061 99284 70805 46/// ///// 1//// 90551 22200 00214 11001 70003
BBXX 41112 01061 99307 70813 46/// ///// 1//// 90551 22200 00167 10901 20901 70003
AAXX 01064 96449 11465 72203 10271 20257 30073 40092 60301 72186 83963 333 83814 81915 86365
AAXX 01064 67665 12380 73302 10204 20189 48517 60114 8463/ 333 10299 20176 59009 84708 87360
OOXX AAUNI 01064 99798 50833 56093 07671 46/// /2805 11101 21141 38989 49884 5//// 90600
AAXX 01061 45007 12650 13104 10192 20093 30197 40206 56033 60001 81501 333 59014 81640
AAXX 01061 45007 12650 13104 10192 20093 30197 40206 56033 60001 81501 333 59014 81640
AAXX 01064 91408 32474 80908 10311 20243 30041 40079 57019 81178 333 56999 70005 555 90106
AAXX 01064 81225 11565 71205 10228 20221 40120 69971 70162 83572 333 56299 58001 83635 87458
AAXX 01064 81200 NIL
AAXX 01064 81202 NIL
AAXX 01064 81209 NIL
AAXX 01064 81251 NIL
AAXX 01064 81225 11565 71205 10228 20221 40120 69971 70162 83572 333 56299 58001 83635 87458
AAXX 01064 81200 NIL
AAXX 01064 81202 NIL
AAXX 01064 81209 NIL
AAXX 01064 81251 NIL
AAXX 01064 91408 32474 80908 10311 20243 30041 40079 57019 81178 333 56999 70005 555 90106
BBXX 46232 01061 99325 71174 46/// ///// 1//// 90538 22200 00147 11303 21002 325// 41302 70015
BBXX 46247 01061 99378 71228 46/// ///// 1//// 90551 22200 00115 11205 21003 329// 41204 70026
BBXX 46243 01061 99462 71241 46/// ///// 1//// 90559 22200 00087 11204 21002 325// 41203 70019
BBXX 46236 01061 99368 71219 46/// ///// 1//// 90550 22200 00121 11404 21003 328// 41403 70021
BBXX 46237 01061 99378 71226 46/// ///// 1//// 90540 22200 00109 11305 20902 325// 41304 70023
BBXX 46229 01061 99438 71246 46/// ///// 1//// 90551 22200 00098 11105 21003 328// 41104 70024
BBXX 46225 01061 99329 71174 46/// ///// 1//// 90544 22200 00150 11402 20801 325// 41402 70011
BBXX 46213 01061 99403 71247 46/// ///// 1//// 90554 22200 00109 11306 21004 330// 41305 70031
BBXX 46215 01061 99352 71209 46/// ///// 1//// 90538 22200 00127 11304 21002 326// 41303 70020
BBXX 46219 01061 99332 71199 46/// ///// 1//// 90558 22200 00137 11305 21003 328// 41304 70023
BBXX 46224 01061 99332 71175 46/// ///// 1//// 90536 22200 00146 11402 20801 323// 41401 70009
BBXX 46214 01061 99379 71235 46/// ///// 1//// 90550 22200 00120 11206 20903 330// 41205 70029
AAXX 01061 06407 11380 82308 10118 20099 30090 40096 57005 60022 70265 876// 333 20105 31010 83707 87709 91113 91209
AAXX 01061 06447 NIL
AAXX 01064 13619 12970 00000 11045 21054 39428 42807 52012 60002 333 21075 34///
AAXX 01061 11010 01108 89901 10011 20010 39807 40195 52008 60042 75865 333 20004 31000 69945 84702 88608
AAXX 01061 11012 11109 80502 10012 20010 39713 40193 53008 60072 76266 886// 333 10017 20003 3/000 55300
AAXX 01061 11022 11456 82401 10006 20000 39782 40178 53007 69902 70282 886// 333 10026 21001 3/102 55300 88714
AAXX 01061 11035 11342 81501 10022 20019 39926 40184 52008 69912 75076 886// 333 10027 20008 88709
AAXX 01061 11036 11356 81602 11003 21012 39960 40190 52007 69912 76176 333 21013 30103 82708 85613 87625
AAXX 01061 11101 17/// /1704 10061 20055 39688 40219 53004 60082 7//4/ 333 10061 20026 3/002 55300
AAXX 01061 11120 01120 72802 10002 20000 39508 40234 52006 60092 76066 333 21008 3/100 43032 69935 84703 84625 85361 93113
AAXX 01061 11126 17/// /3213 11014 21014 37738 48496 50007 60082 7218/ 333 11014 21032 55300 91117
AAXX 01061 11130 17/// /2402 10010 20006 39620 40223 53008 60112 7404/ 333 10012 20003 3/000 55300
AAXX 01061 11146 NIL
AAXX 01061 11150 01460 81506 10039 20027 39653 40201 52010 60142 76366 333 20007 32000 60015 82712 86623
AAXX 01061 11155 11/01 93210 10015 20013 38352 48479 53011 60112 76174 333 10015 21026 3/103 44088 55300 89/02 91123 93105
AAXX 01061 11157 11256 89901 10008 20006 39424 40210 51009 60112 76065 888// 333 21016 3/101 44039 81704 84828 87639
AAXX 01061 11172 NIL
AAXX 01061 11190 17665 80801 10005 21003 39952 40192 53007 69932 7408/ 885// 333 10020 20004 3/102 55300
AAXX 01061 11204 11/05 91601 11023 21027 39413 40232 52008 69982 74574 333 11004 21038 46002 89/00 93102 555 10008 6001/
AAXX 01061 11212 31/86 22706 11011 21029 37823 48491 51013 73630 81510 333 21091 42015 816// 92601 444 56076
AAXX 01061 11231 31130 43302 11059 21060 39640 40241 53011 71011 333 21059 3/108 41997 81702 83358
AAXX 01061 11240 31756 79901 11013 21021 39749 40202 53005 70241 333 21034 34106 87656
AAXX 01061 11244 16/// /0000 11003 21022 39862 40201 53007 60002 333 11003 21025 55300
AAXX 01061 11389 11550 82205 10029 20022 39851 40183 53006 60022 76162 333 10029 20009 3/000 55300
AAXX 01061 06400 11363 82208 10121 20114 30089 40100 55005 69922 70165 876// 333 20113 32010 83708 87710 91114 91210
AAXX 01061 06428 NIL
AAXX 01061 06451 11245 82206 10113 20102 30044 40110 55004 69962 75865 877// 333 20104 32010 82705 86707 91113 91208
AAXX 01061 06456 11227 82306 10105 20101 39769 40130 56004 60032 75865 877// 333 20096 32009 82703 85705 86707 91111 91208
AAXX 01061 06476 17015 82305 10085 20080 39483 40139 54001 60022 76153 333 20076 3/008 88/01 91109 91205
AAXX 01061 06479 17236 /2206 10111 20106 30032 40111 55003 60032 75286 333 20100 32009 81/05 85/08 87/10 91109 91207
AAXX 01061 06490 17256 82306 10093 20082 39568 40130 57003 60052 75161 333 20081 3/008 86/05 88/06 91111 91207
AAXX 01061 06590 11256 82305 10098 20095 39699 40147 58001 69992 75052 876// 333 20091 31008 87705 91108 91206
AAXX 01064 13610 12960 00000 11018 21058 39776 40219 52018 60002 333 21024 34///
AAXX 01064 13624 12965 00000 11034 21048 30138 40179 52017 60002 333 21036 34///
AAXX 01061 06431 NIL
AAXX 01061 06432 NIL
AAXX 01061 06449 11256 82207 10109 20100 39898 40123 57004 60032 75865 885// 333 20099 32009 83706 85708 86612 91111 91208
AAXX 01061 06450 162// 82205 10116 20101 30084 40100 57006 60012 333 20108 3/010 84/06 87/07 88/08 91110 91206
AAXX 01061 06458 NIL
AAXX 01061 06465 NIL
AAXX 01061 06478 11350 82108 10106 20098 39903 40120 56006 60032 76065 867// 333 20094 32009 86707 91113 91209
AAXX 01061 06496 NIL
AAXX 01061 33135 NIL
AAXX 01061 33317 11496 32702 11055 21062 39844 40197 52019 60012 71081 83500 333 21055 47001
AAXX 01061 33345 11598 62903 11002 21023 39951 40161 53014 69902 70272 84530 333 21010 45998
AAXX 01061 33393 11560 62303 11007 21022 39800 40203 52008 69942 77172 86020 333 21008 47997 86530
AAXX 01061 33506 12497 82802 11002 21011 39955 40156 52006 69902 886// 333 21002
AAXX 01061 33587 31996 00000 11030 21040 39907 40180 52007 71000 333 21035 555 34107
AAXX 01061 33631 11496 81602 10006 21002 30073 40220 52009 69902 71082 885// 333 20005 88615
AAXX 01061 33663 11597 83401 11005 21014 30085 40184 52009 69922 70284 8632/ 333 21032 47997 86924
AAXX 01061 33658 32997 30000 11028 21038 39900 40211 52014 83030 333 21028
AAXX 01061 33711 32997 63003 11016 21022 39951 40167 53006 86030 333 21016
AAXX 01061 33791 31437 80000 11004 21007 30010 40165 52009 71022 886// 333 21007 88712
AAXX 01061 33837 31958 83203 10014 21009 30126 40179 53011 71022 80231 333 20012
AAXX 01061 33924 11497 83604 10032 20014 30144 40156 53014 60032 78082 889// 333 20029
AAXX 01061 33946 31/01 90304 10031 20031 39918 40141 52014 74542 333 20013
AAXX 01061 34300 31350 82701 10004 20001 39961 40156 53008 71042 885// 333 20004 43002 86709
AAXX 01061 34504 11110 83602 10001 21002 39976 40159 52011 69972 77376 8772/ 333 21009 87702
AAXX 01061 34519 11/02 90000 10009 20009 39868 40147 53003 69902 76164 333 20008
AAXX 01061 34601 NIL
BBXX UFTA 01061 99844 71202 11995 82407 11254 21284 40028 53012 69942 77173 8802/ 555 48040
AAXX 01063 91551 NIL
AAXX 01063 91553 31598 40605 10295 20251 40062 53003 70222 84900 333 561// 84820 81925
AAXX 01063 91554 31598 80000 10285 20242 40059 53004 70322 84917 333 56899 83820 81925 88577
AAXX 01063 91555 NIL
AAXX 01063 91557 11598 70504 10286 20239 40059 53001 69911 70222 878// 333 569// 69911 84820 87640
AAXX 01063 91565 31598 40000 10282 20239 40056 53004 70511 82903 333 561/9 82825 81928 84075
AAXX 01063 91568 31598 60000 10283 20239 40072 53002 70222 84101 333 563/9 84825 86080
AAXX 01063 91551 NIL
AAXX 01063 91553 31598 40605 10295 20251 40062 53003 70222 84900 333 561// 84820 81925
AAXX 01063 91554 31598 80000 10285 20242 40059 53004 70322 84917 333 56899 83820 81925 88577
AAXX 01063 91555 NIL
AAXX 01063 91557 11598 70504 10286 20239 40059 53001 69911 70222 878// 333 569// 69911 84820 87640
AAXX 01063 91565 31598 40000 10282 20239 40056 53004 70511 82903 333 561/9 82825 81928 84075
AAXX 01063 91568 31598 60000 10283 20239 40072 53002 70222 84101 333 563/9 84825 86080
BBXX 46238 01061 99334 71195 46/// ///// 1//// 90550 22200 00139 11404 21002 329// 41403 70019
BBXX 46239 01061 99363 71221 46/// ///// 1//// 90551 22200 00119 11306 21003 329// 41305 70031
AAXX 01061 15015 01596 80100 11024 21028 39597 42795 52010 60002 7102/ 885// 333 11013 21026 3/107 43006 60007 70000 91001 91101 92830
AAXX 01061 15020 02597 53201 11002 21024 39997 40202 52011 60002 85500 333 10006 21027 34107 60007 70000 91003 91103 92600
AAXX 01061 15090 01493 52901 11044 21044 30110 40207 52014 60002 74844 85600 333 11021 21050 34104 55300 10197 20004 3//// 60007 70000 91002 91102 92600 92712
AAXX 01061 15108 02699 22704 11115 21115 38042 48475 52008 60002 81041 333 11107 21124 3//// 44018 60007 70000 92863 95000
AAXX 01061 15120 02697 72001 11031 21040 39714 40233 52009 60002 87500 333 11015 21036 3/102 43004 55300 10039 2//// 3//// 60007 79999 91002 91102 92832
AAXX 01061 15150 01996 03101 11064 21066 39992 40217 53016 60002 71000 333 11023 21069 34109 60007 70000 91001 91101 92600
AAXX 01061 15170 02997 53201 11094 21101 39417 42800 52013 60002 85070 333 11073 21130 3/114 43002 60007 70000 91002 91102 92870
AAXX 01061 15200 01996 01201 11037 21037 30078 40230 52013 60002 71011 333 11004 21037 34105 60007 70000 91001 91102 92600
AAXX 01061 15230 02597 61001 11019 21031 39931 40238 52009 60002 86500 333 10003 21033 34103 55300 10062 20002 3//// 60007 70000 91001 91101
AAXX 01061 15260 02597 52502 11046 21066 39679 40242 52011 60002 82570 333 11008 21046 34106 60007 70000 91003 91103
AAXX 01061 15280 02999 03208 11147 21224 37410 47927 52018 60002 333 11126 21149 3//// 49035 60007 70011 92848 444 66224
AAXX 01061 15292 01998 01601 11046 21046 39928 40239 53009 60002 70241 333 11003 21047 3/105 43001 60007 70000 91001 91102 92600 92842
AAXX 01061 15310 01994 70000 11016 21016 30113 40203 52015 60002 71022 87070 333 10006 21020 34101 55300 10078 20002 3//// 60007 70000 91001 91102
AAXX 01061 15335 01994 42902 11015 21015 30189 40196 52018 60002 710// 84040 333 10017 21015 31101 60007 70000 91003 91104 92600
AAXX 01061 15346 02997 10700 11038 21054 39918 40222 52016 60002 81040 333 11011 21041 34107 60007 70000 91003 91103 92600
AAXX 01061 15350 02597 73002 10004 21050 30086 40211 53015 60002 87500 333 10019 21012 34104 60007 70000 91003 91103
AAXX 01061 15360 01996 43406 10007 21003 30165 40179 52018 60002 71011 84070 222// 06054 20301 333 10021 20007 3//// 60007 70000 91007 91108 92426
AAXX 01061 15410 02997 00000 11044 21052 30122 40223 52016 60002 333 10027 21049 34108 60007 70000 91001 91101 92600
AAXX 01061 15420 01996 62701 11031 21034 30096 40213 52017 60002 71041 86070 333 10006 21037 34104 55300 0//// 20000 3//// 60007 70000 91002 91102 92600
AAXX 01061 15450 01994 43101 11069 21074 39970 40220 52013 69902 71074 84070 333 11020 21070 34106 55300 10155 20003 3//// 69907 79999 91002 91102 92717
AAXX 01061 15460 01495 82602 11006 21006 30181 40207 52018 69922 7106/ 886// 333 10011 21008 34101 60007 70004 91004 91105
AAXX 01061 15470 01994 72802 11024 21024 30081 40213 52015 60002 7104/ 87070 333 11005 21024 34103 60007 70003 91002 91104
AAXX 01061 15480 01996 33002 11001 21001 30175 40192 52017 60012 71061 83030 222// 06053 2//// 333 10022 21001 34102 60007 70014 91004 91105 92426 92600
AAXX 01064 68399 16/// /0502 10235 20210 30036 40145 58001 60104 333 20202 91011 555 10282 20108 91014
AAXX 01064 68383 16/// /0000 10234 20188 39912 48570 52001 60084 333 20197 91000 555 10285 20082 91015
AAXX 01064 91930 16/// ///// 10242 20225 69941 555 60474
AAXX 01064 91943 36/// /0906 10266 20209 30147 40149 52021 333 20265 58010
AAXX 01064 91367 32474 80909 10283 20253 84278 333 56229 84815 83360 82180 70000 555 90106
AAXX 01061 89061 179// 03403 10002 20000 39879 49886 52015 60011 77177 333 91004 91105
AAXX 01064 03301 16458 /2220 10096 20096 39931 40003 57011 60012 90550 333 20093 70018 82/11 84/50 87/58 90710 91127
AAXX 01064 03305 17459 /2326 10093 20071 39751 40009 58016 60142 723// 90550 333 20089 3/008 70188 83/10 86/14 90710 91139
AAXX 01064 03313 16656 /2311 10100 20079 39916 40009 56011 60022 90550 333 20097 3/007 70016 81/34 87/59
AAXX 01064 03316 15966 /2219 10102 20068 39992 40003 57010 69922 90550 333 20098 3/009 70004 86/60
AAXX 01064 03318 16/// /2321 10092 20071 60012 90550 333 20084 70020 90710 91133
AAXX 01064 03321 16566 /2416 10106 20072 30000 40012 56007 60002 90550 333 20102 3/009 55/// 553// 20000 70000 81/23
AAXX 01064 03330 15467 /2314 10079 20061 39668 40025 56010 69902 90550 333 20078 3/006 70010 87/13
AAXX 01064 03344 15965 /2217 10078 20059 39689 40002 56007 69962 90550 333 20077 3/007 70028 83/61 90710 91126
AAXX 01064 03346 16/// /2422 10082 20062 60002 90550 333 20079 3/006 70000 90710 91133 91033
AAXX 01064 03348 15976 /2011 10086 20073 39909 40015 57009 69962 90550 333 20085 3/006 55005 55300 20000 70022 8//99
AAXX 01064 03355 15980 /2215 10099 20070 39990 40001 58005 60002 90550 333 20091 3/007 55000 55300 20000 79999 8//99
AAXX 01064 03373 16565 /2009 10095 20072 39955 40024 52002 60002 90550 333 20090 3/008 70000 84/27
AAXX 01064 03379 16983 /1910 10089 20071 39957 40033 50000 60002 90550 333 20087 3/007 70000 81/68
AAXX 01064 03382 15982 /2219 10098 20069 39990 49999 58002 69902 90550 333 20096 3/008 55000 55300 20000 79999 8//99 90710 91126
AAXX 01064 03385 46977 /2221 10100 20080 30004 40014 58002 90550 333 20098 8//99 90710 91126
AAXX 01064 03391 12682 12008 10079 20069 30026 40034 51006 60002 81501 90550 333 20079 31005 70000 81640
AAXX 01064 03392 16978 /2113 10081 20080 30029 40032 50007 60002 90550 333 20075 3/007 70000 8//99
AAXX 01064 03405 16337 /2335 10097 20097 39900 40014 58013 69922 90550 333 20096 3/009 55/// 553// 20000 70008 86/09 83/16 90710 91149 91049
AAXX 01064 03409 16/// /2318 10095 20070 60002 90550 333 20090 3/008 55000 55300 2//// 70000 90710 91129 91028
AAXX 01064 03410 16358 /2322 10077 20072 39595 40024 58009 60072 90550 333 20077 3/007 55/// 553// 20000 70124 85/09 83/30 90710 91131
AAXX 01064 03469 15983 /2213 10092 20087 30038 40042 51007 60002 90550 333 20091 3/007 55/// 553// 20000 70000 8//99
AAXX 01064 03488 15983 /2318 10108 20085 30011 40037 50003 60002 90550 333 20102 79999 83/74 90710 91129
AAXX 01064 03503 15463 /2005 10102 20077 39960 40036 58011 69922 90550 333 20101 3/006 70004 82/19 84/50
AAXX 01064 03507 17363 /2116 10086 20086 39680 40047 57015 60012 723// 90550 333 20085 3/008 70050 85/07 86/13 90710 91129
AAXX 01064 03520 16569 /2514 10099 20072 39922 40041 58005 60002 90550 333 20096 3/008 55/// 553// 20000 70000 81/25
AAXX 01064 03522 15668 /2105 10107 20063 39957 40048 57010 60002 90550 333 20106 3/008 70000 84/34 87/50
AAXX 01064 03529 15680 /2009 10102 20083 30013 40055 58007 60002 90550 333 20100 3/008 70002 81/45
AAXX 01064 03544 15978 /2108 10094 20080 39917 40046 55007 69902 90550 333 20093 3/008 55/// 553// 20000 70002 8//99
AAXX 01064 03560 15583 /2211 10104 20087 39951 40054 56003 69902 90550 333 20103 3/009 55/// 553// 20000 79999 81/22
AAXX 01064 03604 16466 /2410 10109 20093 39991 40044 58011 69942 90550 333 20104 3/009 70006 86/15 86/65 91021
AAXX 01064 03605 16458 /2219 10104 20093 30043 40052 57015 69942 90550 333 20103 70008 83/15 87/21
AAXX 01064 03609 16/// /2224 10097 20095 30009 40062 57013 60022 90550 333 20097 3/009 70040 90710 91127
AAXX 01064 03628 15575 /2311 10101 20088 39991 40063 57007 60032 90550 333 20101 3/009 55000 55300 20000 70034 84/20
AAXX 01064 03647 16473 /2517 10095 20079 39804 40056 57004 69982 90550 333 20095 3/008 55/// 553// 20000 70008 86/15 87/23 90710 91130
AAXX 01064 03658 16480 /2109 10117 20096 30000 40068 56003 69922 90550 333 20115 3/011 70002 81/19 83/25 86/38
AAXX 01064 03660 15482 /2508 10109 20093 39823 40067 56003 69922 90550 333 20107 3/008 70004 81/13 84/24 85/34
AAXX 01064 03672 16486 /2310 10119 20100 30032 40071 56004 69922 90550 333 20115 3/010 70002 82/17 84/45
AAXX 01064 03684 15482 /2311 10108 20095 39959 40064 50000 69922 90550 333 20108 3/009 70002 81/15
AAXX 01064 03693 16580 /2311 10116 20104 30073 40076 53002 60012 90550 333 20104 3/010 70010 84/21 87/65
AAXX 01064 03710 16262 /2317 10085 20085 39653 40069 58010 60082 90550 333 20085 3/008 55/// 553// 20000 70126 86/04 86/11 90710 91126
AAXX 01064 03743 16483 /2307 10109 20098 39918 40077 57001 60012 90550 333 20109 3/010 70014 83/12 86/31
AAXX 01064 03749 16581 /2211 10111 20101 39969 40077 57003 69982 90550 333 20109 3/010 70008 82/22 83/26 85/71
AAXX 01064 03761 15381 /2212 10111 20094 39936 40078 55004 60012 90550 333 20109 3/010 55001 55300 20000 70010 86/09 85/16
AAXX 01064 03768 16482 /2311 10118 20101 30001 40079 55002 69962 90550 333 20115 3/009 70006 85/14 87/20
AAXX 01064 03769 17371 /2209 10111 20106 30002 40083 52001 6///2 723// 90550 333 20111 3/009 55000 55300 20000 7//// 88/06
AAXX 01064 03781 15270 /2212 10105 20102 39875 40079 58001 69982 90550 333 20105 3/010 55/// 553// 20000 70008 87/04
AAXX 01064 03797 15384 /2317 10116 20104 30023 40082 55005 69982 90550 333 20109 3/010 55001 55300 20000 70008 87/09
AAXX 01064 03823 15363 /2308 10097 20091 39843 40083 58010 60072 90550 333 20097 3/009 55/// 553// 20000 70088 87/08
AAXX 01064 03839 16/// ///// 10116 20099 60012 90550 333 20116 55/// 553// 20000 70012
AAXX 01064 03857 17257 /2622 10112 20112 30027 40089 57006 60022 710// 90550 333 20110 3/010 70016 82/04 87/17 90710 91128
AAXX 01064 03862 15473 /2511 10113 20103 30072 40084 58005 60012 90550 333 20113 3/010 55000 55300 20000 70010 85/11
AAXX 01064 03866 16/// /2518 10110 20104 30066 40091 57004 69962 90550 333 20109 3/011 70006 90710 91125
AAXX 01064 03872 15379 /2417 10113 20108 30082 40087 57004 60012 90550 333 20109 3/010 55/// 553// 20000 70012 88/06 90710 91125
AAXX 01064 03876 16/// /2410 10109 20107 30092 40095 53001 60022 90550 333 20108 70018
AAXX 01064 03895 41010 82116 10118 20118 40122 57010 75864 887// 333 20114 87700 90710 91125
AAXX 01064 03896 16/// ///// 10118 60022 333 20116 55000
AAXX 01061 11101 11460 81704 10061 20048 39688 40219 53004 60082 76062 887// 333 10061 20026 41998 83717 85723
AAXX 01064 03008 16/// /2120 10071 20037 39770 49838 58008 69962 90550 333 20054 70030 90710 91130
AAXX 01064 03010 46/// /2423 10078 20047 49829 55004 333 90710 91141
AAXX 01064 03014 46/// /2324 10038 20014 49826 58011 90550 333 8//// 90710 91131
AAXX 01064 03031 17561 /2515 10045 20019 39546 49867 55005 60122 782// 90550 333 20034 3/002 55/// 553// 20000 70140 82/22 84/28
AAXX 01064 03034 17569 /2220 10073 20044 39843 49857 56005 60172 723// 90550 333 20053 3/003 70216 84/23 90710 91126
AAXX 01064 03037 17763 /2314 10065 20044 39849 49871 56007 60122 781// 90550 333 20048 3/004 70184 85/56 90710 91126
AAXX 01064 03039 46/// /2428 10006 21024 90550 333 20000 90710 91145
AAXX 01064 03041 46/// /2147 11017 21017 90550 333 21030 90710 91147
AAXX 01064 03044 17683 /2210 10051 20031 39755 49852 56005 60042 781// 90550 333 20043 3/002 55/// 553// 20000 70040 83/33 85/57
AAXX 01064 03047 17564 /2109 10042 20024 39600 49898 58005 60132 761// 90550 333 20037 3/003 55/// 553// 20000 70158 84/23 87/33
AAXX 01064 03062 17673 /2307 10045 20022 39860 49865 58003 69922 781// 90550 333 20030 3/101 55/// 553// 20000 70002 81/34 86/41
AAXX 01064 03065 46/// /2455 11026 21032 90550 333 21031 90710 91176 91069
AAXX 01064 03068 12682 12111 10052 20018 39861 49869 57006 60002 81503 90550 333 20047 31001 70000 81645
AAXX 01064 03080 17582 /2507 10061 20023 39722 49890 51006 69902 757// 90550 333 20059 3/004 79999 82/26 84/33
AAXX 01064 03088 15574 /2316 10053 20043 39742 49903 53006 69982 90550 333 20045 3/003 55/// 553// 20000 70008 81/24 90710 91131
AAXX 01064 03094 15982 /1913 10059 20021 39869 49874 56007 69922 90550 333 20040 3/002 70002 85/58
AAXX 01064 03105 17659 /2218 10076 20052 39902 49919 58004 69902 704// 90550 333 20071 3/006 70026 83/43 90710 91133
AAXX 01064 03132 15667 /2417 10073 20044 39942 49956 56003 60012 90550 333 20071 3/006 70028 82/30 84/64 90710 91132
AAXX 01064 03144 17665 /2213 10074 20045 39864 49906 58013 60072 761// 90550 333 20051 3/004 55/// 553// 20000 70078 85/31 85/50
AAXX 01064 03148 46/// /2318 10031 20021 90550 333 20021 90710 91129
AAXX 01064 03153 15566 /2318 10072 20050 39823 49959 56001 60022 90550 333 20047 3/003 55/// 553// 20000 70038 81/29 90710 91128
AAXX 01064 03155 16571 /2217 10058 20028 39636 49929 58011 60012 90550 333 20056 3/005 70030 87/22 90710 91129
AAXX 01064 03158 15982 /2411 10063 20047 39795 49930 58013 60012 90550 333 20058 3/004 55/// 553// 20000 70010 85/61
AAXX 01064 03210 16967 /2421 10077 20048 39827 49976 55004 69982 90550 333 20073 3/005 70048 83/59 90710 91132
AAXX 01064 03212 17572 /2515 10088 20037 39877 49975 55006 60062 723// 90550 333 20073 3/006 70084 81/27 90710 91138 91031
AAXX 01064 03214 17560 /2219 10092 20073 39968 49986 55009 69962 704// 90550 333 20085 3/007 70022 81/24 85/44 90710 91130 91030
AAXX 01064 03220 16682 ///// 10070 20047 39929 49963 55000 60012 90550 333 20070 3/006 70026 84/33 85/39
AAXX 01064 03225 16457 /2326 10078 20057 39674 49974 57011 60062 90550 333 20078 3/006 55/// 553// 20000 70078 83/11 86/19 90710 91144 91039
AAXX 01064 03226 17349 /2424 10077 20068 39697 49968 58013 60032 782// 90550 333 20077 3/005 70036 82/09 85/19 90710 91135 91035
AAXX 01064 03227 46/// /2633 10018 2//// 90550 333 20010 90710 91175 91049
AAXX 01064 03230 16471 /2323 10066 20050 39700 49953 56010 60022 90550 333 20066 3/006 70026 82/19 86/41 90710 91135 91035
AAXX 01064 03238 17660 /2617 10063 20038 39792 49963 55002 69942 782// 90550 333 20063 3/005 70004 83/31 85/45 90710 91132 91032
AAXX 01064 03261 16973 /2111 10089 20061 39951 49991 58011 60002 90550 333 20088 3/006 70000 8//99
AAXX 01064 03265 15982 /2214 10095 20066 39961 49991 58012 69922 90550 333 20093 3/008 70002 8//99
AAXX 01064 03266 16980 /2211 10096 20061 39976 49993 58009 60002 90550 333 20095 3/008 70002 8//99
AAXX 01064 03275 15971 /2221 10080 20047 39785 49974 56004 60002 90550 333 20079 3/007 70004 8//99 90710 91135
AAXX 01064 03281 16/// /2317 10069 20063 69962 90550 333 20068 70012 90710 91125
AAXX 01064 03903 16972 /1909 10062 20032 39888 49945 58010 60022 90550 333 20059 3/004 55/// 553// 20000 70040 8//99
AAXX 01064 03904 16560 /2116 10059 20038 39879 49938 57007 60022 90550 333 20051 3/003 70050 81/27 85/31
AAXX 01064 03907 15573 /2116 10058 20031 39922 49929 58001 60032 90550 333 20057 3/004 55000 55300 20000 70044 81/27 90710 91127
AAXX 01064 03911 16979 /2009 10041 20028 39674 49945 58005 69962 90550 333 20041 3/001 70048 8//99
AAXX 01064 03915 16982 /1707 10049 20046 39864 49942 50001 60012 90550 333 20049 3/003 70016 8//99
AAXX 01064 03916 16986 /2308 10050 20032 39741 49929 58005 60052 90550 333 20038 3/002 55/// 553// 20000 70064 82/72 91018
AAXX 01064 03923 15963 /2315 10058 20035 39757 49951 56013 60072 90550 333 20040 3/002 70086 8//99
AAXX 01064 68024 32960 11505 10251 20178 48514 52009 81082 333 20173
AAXX 01064 68026 33960 33203 10245 20216 48509 52009 81071 333 20201
AAXX 01064 68029 12460 81203 10206 20205 48511 52018 60054 8577/ 333 20196
AAXX 01064 68030 12460 70000 10213 20212 48510 52016 60014 87600 333 20191
AAXX 01064 68032 32960 31305 10256 20209 48516 51023 82072 333 20214
AAXX 01064 68040 32960 20308 10251 20195 48516 52010 81072 333 20196
AAXX 01064 68054 32960 30708 10235 20187 48532 53016 83070 333 20184
AAXX 01064 68070 32960 20909 10249 20178 48531 52019 81081 333 20192
AAXX 01064 68226 32960 00508 10255 20167 48514 51012 333 20203
AAXX 01064 68320 32960 03004 10251 20170 48517 52010 333 20175
BBXX WDE3569 01064 99452 70832 41/98 81833 10016 2//// 40078 57000 70222 886// 22233 0//// 20202 3//// 4//// 5//// 6//// 8//// ICE /////
BBXX WE4805 01064 99467 70849 41/99 91430 10005 2//// 40075 57001 70202 88241 22231 00028 20602 3//// 4//// 5//// 6//// 8//// ICE /////
BBXX NWS0029 01064 99415 70707 43/// /3208 10057 20030 40129 5//// 7//// 8//// 222// 04069 2//// 3//// 4//// 5//// 6//// 8//// ICE /////
BBXX KAOU 01064 99001 10847 43/// /2080 10277 20229 40103 5//// 7//// 8//// 222// 04286 2//// 3//// 4//// 5//// 6//// 8//// ICE /////
BBXX NWS0003 01064 99539 71665 43/// /0000 11002 21055 40062 5//// 7//// 8//// 222// 0//// 2//// 3//// 4//// 5//// 6//// 8//// ICE /////
BBXX PFRO 01064 99233 70745 41497 43118 10250 20220 40200 56006 72511 842// 22284 2//// 80230
BBXX NWS0020 01064 99261 70801 43/// /1007 10232 20152 40225 5//// 7//// 8//// 222// 04257 2//// 3//// 4//// 5//// 6//// 8//// ICE /////
BBXX NWS0021 01064 99323 70710 43/// /2717 10216 20166 40189 5//// 7//// 8//// 222// 04220 2//// 3//// 4//// 5//// 6//// 8//// ICE /////
BBXX ZCDG7 01064 99330 71179 41/92 /0605 10116 20116 40190 51004 74444 8//// 22263 00150 20101 300// 40000 5////
BBXX VRHO2 01064 99395 11374 41797 62719 10075 20032 40120 57040 71622 84332 22215 00120 20301 325// 40603 50000 6//// 80055 ICE 0////
BBXX C6DM2 01064 99054 11003 41999 83404 10290 20235 40090 50020 7//22 8724/ 22200 0//// 2//// 3//// 4//// 5//// 6//// 80250 ICE /////
BBXX C6XC2 01064 99346 11244 41497 73540 10020 21004 40260 52010 70222 8794/ 22272 00100 20806 333// 41006 5//// 6//// 80010 ICE /////
BBXX ELPP9 01063 99177 70544 41999 00524 10260 20217 40130 54000 70000 80/// 22274 04270 20208 305// 40208 5//// 6//// 80230 ICE /////
BBXX MGRH9 01064 99266 31532 41597 31421 10260 20199 40140 54000 7//00 831// 22200 00246 20801 314// 40802 5//// 80220
BBXX A8KX4 01064 99396 51478 412// 62114 10155 20112 40200 52030 70322 8/7// 22264 00153 20202 327// 40404 80130
AAXX 01061 26554 11559 62802 11032 21049 39971 40138 52015 69982 71022 83530 333 21033 47004 93705 555 90011
AAXX 01061 26666 11460 72702 11018 21039 39905 40125 52023 69952 70272 87600 333 21019 47002 87710 555 90012
AAXX 01061 26850 11660 73101 11029 21046 39873 40154 52020 60022 70282 87500 333 21029 47003 87643 555 90010
AAXX 01061 26863 11458 63106 11018 21032 39888 40130 52015 69982 71072 86700 333 21019 47001 86712
AAXX 01061 26941 32660 62901 11028 21041 39924 40168 52014 86500 333 21029 43002 86644 555 90010
AAXX 01061 26951 12570 73004 11015 21034 39957 40162 52019 69932 83530 333 21015 46997 555 90011
AAXX 01061 33008 31358 82102 11010 21023 39999 40182 52008 71022 885// 333 21013 86707 555 90010
AAXX 01061 33019 11656 71901 11015 21023 39999 40179 52013 69902 71022 875// 333 21019 47001 87644 555 90010
AAXX 01061 33036 11365 52903 11014 21034 39916 40153 52022 60012 70182 85700 333 21015 47003 85709 555 90011
AAXX 01061 33041 11257 82502 10004 21005 39972 40130 52017 60012 71072 886// 333 20000 43003 88705 555 90014
BBXX 41041 01061 99142 70460 46/// /0910 10257 20208 40151 56015 90550 22200 00261 333 91212 555 11103 22110 30502 40914 60549 094097 093086 095093 100099 089111 090093 80913 90502
BBXX 41038 01061 99341 70777 46/// /2402 10139 40209 50000 90600 22200 00135 333 91202
BBXX 46001 01061 99563 71480 46/// /0114 10000 40024 57022 90550 22200 00041 10605 20605 70025 333 91218 555 11151 22160 30526 40118 60549 006141 004150 004150 004147 004153 005145
BBXX C6KD5 01063 99478 70068 41597 82320 10130 20126 40123 57005 78181 884// 22254 02130 20603 323// 40805 5//// 80128
BBXX PEBT 01063 99588 10181 41598 41922 10040 21046 40080 58015 7//11 845// 22253 02020 20502 3//// 4//// 5//// 80008
BBXX DDYL2 01063 99331 10271 41/98 /3319 10165 20092 40110 52010 7//// 8//// 22264 00170 20505
BBXX A8OH4 01063 99344 70119 41598 50315 10170 20128 40290 58030 70211 8456/ 22224 04220 21204 80145
BBXX UCAB 01061 99651 10065 41/97 92009 10080 49795 57040 70022 8//// 22213 00090 20808
AAXX 01061 37682 32997 61802 11061 21069 38097 48505 53007 86040 333 21098 7000/
AAXX 01061 37717 32598 62102 11030 21040 38046 48479 52002 83530 333 21050 7000/
AAXX 01061 37788 41695 62201 11014 21040 39209 40240 52010 69900 71072 83530 333 21036
BBXX 46053 01061 99342 71198 46/// /3101 10103 40183 53010 90550 22200 00141 11503 329// 41503 70014 333 91202 555 11006 22006 30532 42803 60549 309007 293011 281012 271011 231010 238013
BBXX 46042 01061 99368 71224 46/// /0706 10136 40193 52003 90550 22200 00125 11306 20501 329// 41306 70029 333 91207 555 11061 22068 30544 40707 60549 071054 066050 044035 021027 012024 018025
AAXX 01061 10004 46/58 /2210 10093 20090 30026 40026 56004 222// 00074 333 10096 20082 55000 55300 91114 91211
AAXX 01061 10270 06/06 /1803 10039 20039 30047 40103 56005 69912 222// 06041 333 10039 20008 3/100 55004 55300 69907 70001
BBXX 44099 01061 99369 70757 46/// ///// 1//// 90552 22200 00103 10601 20601 70006
BBXX 51003 01061 99193 71606 46/// /0506 10242 40170 51015 90550 22200 00250 11303 20501 3//// 41303 70016 333 91208 555 11068 22071 30520 40408 60549 046064 041063 040063 040062 037057 035060
AAXX 01064 65201 31356 63305 10245 20241 30077 40132 71022 84508 333 20245 56500 57632 59008 84609 86280 91107 94463
AAXX 01064 70026 NIL
AAXX 01064 70133 NIL
AAXX 01064 70174 NIL
AAXX 01064 70200 NIL
AAXX 01064 70219 NIL
AAXX 01064 70231 NIL
AAXX 01064 70261 NIL
AAXX 01064 70267 NIL
AAXX 01064 70271 NIL
AAXX 01064 70273 NIL
AAXX 01064 70308 NIL
AAXX 01064 70316 NIL
AAXX 01064 70326 NIL
AAXX 01064 70340 NIL
AAXX 01064 70350 NIL
AAXX 01064 70361 NIL
AAXX 01064 70381 NIL
AAXX 01064 70398 NIL
AAXX 01064 70414 NIL
AAXX 01064 04005 41488 60219 11013 21043 49609 52007 71522 86800 555 3/323
AAXX 01064 04018 41462 62616 10011 21019 49607 52016 71572 85962 555 3//21 82912 84828 86645
AAXX 01064 04030 41470 72404 10002 21003 49612 52015 77177 8657/ 555 3//11 82610 84620 86636
AAXX 01064 04048 41475 42814 10019 21025 49622 53018 71588 83840 555 3/626
AAXX 01064 04063 42570 72701 11002 21008 49612 52002 86720 555 3//04
AAXX 01064 04077 NIL
AAXX 01064 04082 NIL
AAXX 01064 04097 42589 81602 10024 21032 49614 54000 886// 555 3/406
BBXX TFBKF 01064 99635 70202 46/// ///// 22200 10706 70028
BBXX TFDRN 01064 99658 70212 46/// ///// 22200 10705 70025
BBXX TFGRS 01064 99663 70182 46/// ///// 22200 10705 70025
BBXX TFGRV 01064 99638 70225 46/// ///// 22200 10908 70039
BBXX TFGSK 01064 99641 70229 46/// ///// 22200 10909 70044
BBXX TFHFN 01064 99642 70152 46/// ///// 22200 10907 70033
BBXX TFKGR 01064 99657 70136 46/// ///// 22200 10704 70021
BBXX TFSRT 01064 99633 70203 46/// ///// 22200 10908 70042
BBXX TFSTD 01064 99664 70234 46/// ///// 22200 10810 70049
BBXX C6UB2 01064 99546 11796 43/97 /2719 10010 2102/ 40050 54000 7//// 8//// 22263 00100 2//// 3//// 4//// 5//// 6//// 80000 ICE /////
BBXX C6XC2 01064 99346 11244 41497 73540 10020 21004 40260 52010 70222 8794/ 22272 00100 20806 333// 41006 5//// 6//// 80010 ICE /////
BBXX VRHO2 01064 99395 11374 41797 62719 10075 20032 40120 57040 71622 84332 22215 00120 20301 325// 40603 50000 6//// 80055 ICE 0////
BBXX C6DM2 01064 99054 11003 41999 83404 10290 20235 40090 50020 7//22 8724/ 22200 0//// 2//// 3//// 4//// 5//// 6//// 80250 ICE /////
BBXX C6SI6 01064 99444 11507 46/// /3601 10013 21028 40218 51009 7//// 8//// 22213 0//// 2////
BBXX BATEU07 01064 99067 10798 46/// /1807 10292 40131 58010 22231
BBXX 9V7955 01064 99302 11548 41597 60316 10180 2013/ 40190 51050 70100 85185 22264 00210 20204 30403 40406 50304 6//// 80150 ICE /////
BBXX 46070 01061 99551 11753 46/// /3409 11020 21079 40079 54000 90550 22200 00031 10706 20705 3//// 41004 70030 333 91211 555 11093 22097 30453 43613 60549 342090 347090 349092 356092 354098 355099 83611 90454
BBXX ONFE 01064 99071 10774 436// 40711 10310 2023/ 40160 54000 7//// 8/216 22274 00280 2//// 3//// 4//// 5//// 6//// 80250 ICE 0/0//
BBXX MZDL7 01063 99473 50491 41/97 /3314 10150 20141 40143 54000 70322 8//// 22213 00170 2//// 3//// 4//// 5//// 80145
BBXX PCGQ 01064 99157 50383 41998 01014 10255 20231 40092 58011 70300 80000 22244 04260 20502 80238
BBXX 32012 01061 99197 50856 46/// ///// 1//// 90550 22200 11004 70019
BBXX C6TZ9 01064 99339 50526 417// 11013 10210 20164 40150 54/// 7//00 81/// 22254 00230 2//// 3//// 4//// 5//// 6//// 80180 ICE /////
BBXX P3GY9 01064 99252 50426 41696 80819 10250 2024/ 40100 57025 75055 88722 22253 00260 20705 309// 40904 5//// 6//// 80240 ICE /////
BBXX DBLK 01061 99434 30080 41497 32615 10091 20051 40005 52020 70282 83800 22213 04090 20504 326// 41008
BBXX BATFR19 01064 99067 30055 46/// /1513 10237 20189 40147 53019 22200 00255
BBXX A8GH5 01063 99076 70254 41/96 /0516 10255 20181 40140 56010 705// 8//// 22254 04240 20302 305// 40604 80205
BBXX BATFR05 01064 99069 70137 46/// /0615 10275 20179 40121 55001 22273 00264
BBXX BATFR08 01064 99252 30547 46/// /1215 10242 20167 40140 51003 22243 00265
BBXX C6VF5 01064 99162 10411 41997 01623 10240 2021/ 40150 5//// 70500 80000 22233 00270 2//// 3//// 4//// 5//// 6//// 80220 ICE /////
BBXX 46238 01061 99334 71195 46/// ///// 1//// 90550 22200 00139 11404 21002 329// 41403 70019
BBXX 46239 01061 99363 71221 46/// ///// 1//// 90551 22200 00119 11306 21003 329// 41305 70031
BBXX UFTA 01061 99844 71202 11995 82407 11254 21284 40028 53012 69942 77173 8802/ 555 48040
BBXX 46225 01061 99329 71174 46/// ///// 1//// 90544 22200 00150 11402 20801 325// 41402 70011
BBXX 46213 01061 99403 71247 46/// ///// 1//// 90554 22200 00109 11306 21004 330// 41305 70031
BBXX 46219 01061 99332 71199 46/// ///// 1//// 90558 22200 00137 11305 21003 328// 41304 70023
BBXX 46215 01061 99352 71209 46/// ///// 1//// 90538 22200 00127 11304 21002 326// 41303 70020
BBXX 46237 01061 99378 71226 46/// ///// 1//// 90540 22200 00109 11305 20902 325// 41304 70023
BBXX 46236 01061 99368 71219 46/// ///// 1//// 90550 22200 00121 11404 21003 328// 41403 70021
BBXX 46229 01061 99438 71246 46/// ///// 1//// 90551 22200 00098 11105 21003 328// 41104 70024
BBXX 46243 01061 99462 71241 46/// ///// 1//// 90559 22200 00087 11204 21002 325// 41203 70019
BBXX 46247 01061 99378 71228 46/// ///// 1//// 90551 22200 00115 11205 21003 329// 41204 70026
BBXX 46214 01061 99379 71235 46/// ///// 1//// 90550 22200 00120 11206 20903 330// 41205 70029
BBXX 46224 01061 99332 71175 46/// ///// 1//// 90536 22200 00146 11402 20801 323// 41401 70009
BBXX 46232 01061 99325 71174 46/// ///// 1//// 90538 22200 00147 11303 21002 325// 41302 70015
BBXX DDBR2 01064 99219 70569 41598 10818 10240 20194 40235 56010 70200 815// 22264 00250 20603 309// 41005 5//// 80210
BBXX C6T2064 01063 99300 70702 41998 02210 10220 2019/ 40215 54000 70200 80000 22264 20302 80205
BBXX WKAP 01063 99427 70636 41196 82324 10110 2011/ 40125 57040 78066 886// 22254 00100 20604 3//// 4//// 5//// 6//// 80110 ICE /////
BBXX 9HXD9 01064 99228 70715 41998 01317 10240 2//// 40180 54/// 70210 80/// 22274 04274 20700 310// 4//// 5//// 6//// 8//// ICE /////
BBXX ELPP9 01063 99177 70544 41999 00524 10260 20217 40130 54000 70000 80/// 22274 04270 20208 305// 40208 5//// 6//// 80230 ICE /////
BBXX 3FSB4 01064 99330 70782 43395 13604 10185 2019/ 40220 5//// 7//// 81/// 22214 00240 20402 3//// 4//// 5//// 6//// 80185 ICE /////
BBXX VQKR7 01064 99321 71171 41293 83404 10112 20112 40186 51010 71222 8461/ 22200 04050 20000 30000 80112
BBXX 44100 01061 99363 70756 46/// ///// 1//// 90552 22200 00124 10701 20701 70005
BBXX 41113 01061 99284 70805 46/// ///// 1//// 90551 22200 00214 11001 70003
BBXX 41112 01061 99307 70813 46/// ///// 1//// 90551 22200 00167 10901 20901 70003
BBXX 41110 01061 99341 70777 46/// ///// 1//// 90551 22200 00134 10601 20601 70007
BBXX 42099 01061 99273 70842 46/// ///// 1//// 90557 22200 00225 10401 20401 70003
BBXX 44097 01061 99410 70711 46/// ///// 1//// 90602 22200 00109 10803 20803 70014
BBXX 41101 01064 99146 70562 46/// /0720 10257 20214 40146 57014 22200 00267 10806 70031 555 1/027
BBXX 44098 01061 99428 70702 46/// ///// 1//// 90537 22200 00082 10402 20402 70008
BBXX 44008 01061 99405 70692 46/// /3211 10075 20061 40120 52018 90550 22200 00116 10804 20804 329// 41401 70019 333 91213 555 11111 22117 30525 43114 60549 314106 313106 314112 307106 305103 311102
BBXX 44172 01061 99445 70634 46/// ///// 1//// 90601 22200 00054 10704 20704 70019
BBXX 46083 01061 99582 71380 46/// /1116 10022 21019 40066 56044 90550 22200 00063 10606 20606 300// 41101 70030 333 91219 555 11174 22186 30531 41121 60549 107163 109165 110165 109169 112162 112155 81118 90514
BBXX 46089 01061 99459 71258 46/// /1411 10082 20053 40195 56010 90550 22200 00092 11305 20604 328// 41303 70025 333 91213 555 11116 22123 30513 41414 60549 144109 141113 140111 136109 132099 134105
BBXX 44011 01061 99411 70666 46/// /3008 10099 20096 40060 53009 90550 22200 00093 10804 20403 3//// 40802 70018 333 91210 555 11085 22092 30529 41211 60549 300081 295081 294087 295080 304077 315082
BBXX 41046 01061 99238 70683 46/// /1005 10246 20205 40220 57012 90550 22200 00253 10803 20501 300// 40803 70017 333 91207 555 11056 22058 30512 41007 60549 100053 098048 104052 103054 103052 102050 81006 90514
BBXX VCLM 01064 99468 70712 46/// /1001 11025 21040 40156 51003 7//// 8//// 22200 0//// 2////
BBXX VXKF 01064 99471 70595 46/// /1141 10035 20027 40065 58114 7//// 8//// 22253 0//// 2////
BBXX A8PX5 01064 99372 71467 41597 62926 10110 20092 49980 54000 70200 8/8// 22224 04160 21007 327// 41208 5//// 80100
BBXX 9HA2583 01064 99200 70662 41598 30823 1//// 2//// 40180 53/// 7//11 83276 22275 0//// 204// 3//// 405// 5//// 6//// 8//// ICE /////
BBXX VRCI9 01064 99376 71240 41/98 /1312 10120 20083 40190 51020 70211 8//// 22275 00126 2//// 3//// 4//// 80100
BBXX ZCDG7 01064 99330 71179 41/92 /0605 10116 20116 40190 51004 74444 8//// 22263 00150 20101 300// 40000 5////
BBXX CGBY 01064 99487 71235 46/// /0404 10047 20002 40265 56003 7//// 8//// 22200 0//// 2////
BBXX CGSB 01064 99483 70709 46/// /0000 11103 21129 40186 58003 7//// 8//// 22200 0//// 2////
BBXX VOKJ 01064 99455 70735 46/// /2203 11017 21031 40160 50002 7//// 8//// 22200 0//// 2////
BBXX VOLG 01064 99452 70609 46/// /1424 10084 20083 40019 58049 7//// 8//// 22212 0//// 2////
BBXX CGCC 01064 99463 70725 46/// /3402 11032 21048 40164 53002 7//// 8//// 22200 0//// 2////
BBXX CGBR 01064 99525 71288 46/// /0310 10035 20002 40182 56001 7//// 8//// 22200 0//// 2////
BBXX CGDG 01064 99447 70636 46/// /3002 10073 20139 40021 56039 7//// 8//// 22200 0//// 2////
BBXX CGHL 01064 99476 70527 46/// /0000 10008 21020 40229 58043 7//// 8//// 22200 0//// 2////
BBXX 3FZK3 01064 99489 71237 46/// /0000 10027 20011 40270 55003 7//// 8//// 22200 0//// 2////
BBXX VOFG 01064 99456 70614 46/// /1004 10070 20070 40034 58055 7//// 8//// 22200 0//// 2////
BBXX CGTF 01064 99476 70527 46/// /0000 10005 21022 40229 58043 7//// 8//// 22200 0//// 2////
BBXX VRYO3 01064 99456 70735 46/// /2402 11011 21029 40156 51003 7//// 8//// 22200 0//// 2////
BBXX CGDX 01064 99468 70712 46/// /1003 11037 21047 40164 53003 7//// 8//// 22200 0//// 2////
BBXX VAAP 01064 99462 70602 46/// /1420 10072 20070 40044 57078 7//// 8//// 22200 0//// 2////
BBXX CGDR 01064 99484 71234 46/// /0206 10052 20013 40261 55003 7//// 8//// 22200 0//// 2////
BBXX CGBN 01064 99447 70636 46/// /2901 10077 20076 40021 56038 7//// 8//// 22200 0//// 2////
BBXX CZ9742 01064 99506 70969 46/// /2814 11016 21067 4//// 5//// 7//// 8//// 22200 0//// 2////
BBXX VOPP 01064 99456 70735 46/// /2301 11019 21023 4//// 5//// 7//// 8//// 22200 0//// 2////
BBXX VCBW 01064 99456 70735 46/// /2302 11014 21031 40161 50002 7//// 8//// 22200 0//// 2////
BBXX CGDT 01064 99468 70712 46/// /0804 11038 21047 40163 51003 7//// 8//// 22200 0//// 2////
BBXX VOKF 01064 99490 70669 46/// /1802 11031 21040 40139 56010 7//// 8//// 22200 0//// 2////
BBXX VCWL 01064 99468 70712 46/// /0000 11040 21049 40163 51004 7//// 8//// 22200 0//// 2////
BBXX CGUM 01064 99462 70602 46/// /1610 10072 20071 40055 58076 7//// 8//// 22200 0//// 2////
BBXX VCSZ 01064 99487 70631 46/// /0521 10009 20010 40084 58045 7//// 8//// 22234 0//// 2////
BBXX CG2958 01064 99517 71281 46/// /1316 10069 21006 40186 57002 7//// 8//// 22200 0//// 2////
BBXX CGJV 01064 99462 70631 46/// /0000 10056 20054 40024 58038 7//// 8//// 22200 0//// 2////
BBXX VCRG 01064 99474 70619 46/// /0915 10035 20033 40053 56063 7//// 8//// 22200 0//// 2////
BBXX FVNM 01064 99136 70818 46/// /0620 10277 20232 40135 58008 22282 00279
BBXX 46026 01061 99378 71228 46/// /0606 10131 40206 55000 90550 22200 00114 11205 20301 329// 41205 70024 333 91207 555 11066 22074 30456 42708 60549 054060 269054 274058 272055 271051 267053
BBXX 46041 01061 99474 71247 46/// /1111 10073 40223 55000 90550 22200 00088 11204 20503 3//// 41203 70022 333 91214 555 11116 22123 30501 41216 60549 112108 111112 113114 115114 115118 115116
BBXX 46072 01061 99517 71722 46/// /2410 10022 21024 40078 57011 90550 22200 00043 11106 20705 3//// 41103 70030 333 91212 555 11101 22106 30456 42312 60549 235096 236096 239098 235097 230102 232103 82311 90502
BBXX 44007 01061 99435 70701 46/// /3005 10031 20031 40113 52006 90550 22200 00074 10601 3//// 40601 70005 333 91206 555 11051 22053 30520 43006 60549 296049 299048 301054 303053 301054 300053
BBXX 46082 01061 99597 71434 46/// ///// 10017 40077 56029 90550 22200 00061 10706 70029
BBXX 46035 01061 99571 71778 46/// /3615 1//// 40005 50000 90550 22200 10805 20804 300// 41102 70023 333 91218 555 11147 22157 30548 43518 60549 357148 344143 349138 353133 291097 274092 83616 90541
BBXX 41009 01061 99285 70802 46/// /1301 10228 20135 40233 58004 90550 22200 00233 10901 300// 40901 70004 333 91202 555 11013 22014
BBXX 42057 01061 99168 70815 46/// /0708 10272 20229 40162 58011 90550 22200 00275 10704 20703 3//// 40802 70019 333 91210 555 11084 22089 30456 40811 60549 070083 065088 070088 076083 083090 076089 80910 90457
BBXX 51101 01061 99243 71621 46/// /0403 10218 20186 40189 51010 90550 22200 00239 333 91205 555 11031 22032 30541 40413
BBXX 42039 01061 99288 70860 46/// /1402 10214 40226 58004 90550 22200 00227 10401 70003 333 91203 555 11020 22020 30459 41603 60549 142019 127018 147019 152022 146021 149021 81603 90459
BBXX 41040 01061 99145 70530 46/// /0710 10263 20223 40153 58014 90550 22200 00269 11006 20604 3//// 41004 70030 333 91212 555 11106 22112 30450 40815 60549 070100 067105 066108 069100 072101 071099 80711 90523
BBXX 41010 01061 99289 70785 46/// /3001 10219 40228 58008 90550 22200 00236 10502 20401 300// 40501 70008 333 91201 555 11006 22006
BBXX 46061 01061 99602 71468 46/// /3308 11044 40096 58013 90550 22200 00051 10802 20701 300// 40801 70010 333 91209 555 11081 22084 30533 43310 60549 334076 333076 334071 334063 332058 342045
BBXX 46077 01061 99579 71543 46/// /1504 11084 21121 40112 57011 90550 22200 00026 10601 20401 3//// 40601 70006 333 91205 555 11036 22037 30538 41706 60549 153034 170032 194020 183033 198028 189026 81705 90516
BBXX BATFR16 01064 99183 70590 44598 21025 10259 20202 40179 56010 70100 822// 22214 00274 21004 309// 41004 5////
BBXX BATFR13 01064 99265 70495 44798 60919 10232 20184 40267 56019 70311 86566 22254 00249 20410
BBXX PFRO 01064 99233 70745 41497 43118 10250 20220 40200 56006 72511 842// 22284 2//// 80230
BBXX DNCQ 01063 99215 71101 41998 43504 10225 20137 40153 52008 70300 80008 22234 04240 2//// 3//// 4//// 5//// 80170
BBXX 2AKI3 01063 99174 70699 41/98 /0824 10265 20213 40167 51015 70211 8//// 22224 04278 2//// 3//// 4//// 5//// 80230
BBXX WCX8883 01064 99388 71339 41397 81832 10155 2014/ 40100 52005 76066 886// 22225 00130 20806 31918 40802 5//// 6//// 80145 ICE /////
BBXX WSRL 01063 99278 71459 41397 82315 10195 2015/ 40130 58020 70222 8/04/ 22254 0//// 2//// 3//// 4//// 5//// 6//// 80165 ICE 0/0//
BBXX WSRH 01064 99352 71306 41398 71409 10172 2015/ 40182 56003 70321 8614/ 22214 00144 29902 327// 4//03 5//// 6//// 80156 ICE /////
BBXX BAREU54 01064 99100 70829 46/// ///// 40129 22200
BBXX BAREU04 01064 99404 70692 46/// ///// 40123 52009 22213
BBXX 42012 01061 99301 70876 46/// /1804 10195 20181 40220 54000 90550 22200 00189 10601 70003 333 91205 555 11048 22054 30529 41805 60549 181045 180045 177047 176044 177044 177044
BBXX 42065 01061 99149 70750 46/// /0607 10259 20234 90550 22200 10704 20403 3//// 40702 70019 333 91208 555 11075 22080 30536 40511 60549 058070 050082 052084 055078 058075 053074 80509 90537
BBXX 44005 01061 99432 70691 46/// /3211 10060 20058 40092 53012 90550 22200 00080 10503 20503 70015 333 91213 555 11118 22125 30457 43213 60549 319110 317109 315102 319107 319109 319111
BBXX 42040 01061 99292 70882 46/// /1705 10208 40222 50000 90550 22200 00206 10501 320// 40501 70003 333 91206 555 11047 22052 30539 41706 60549 173047 168048 163046 150042 145039 140042
BBXX 42059 01061 99151 70675 46/// /0810 10273 20218 40160 58011 90550 22200 00277 10805 20604 3//// 40803 70025 333 91211 555 11101 22108 30521 40812 60549 081095 078094 078098 076093 081091 076096 80811 90530
BBXX 42019 01061 99279 70954 46/// /1905 10230 20218 40202 53016 90550 22200 10502 20401 316// 40501 70008 333 91205 555 11048 22051 30451 42706 60549 198046 265048 266050 268052 268051 268054
BBXX 42056 01061 99198 70849 46/// /0708 10263 20233 40187 58004 90550 22200 00269 10703 20703 70015 333 91209 555 11084 22089 30452 40710 60549 069080 064078 069077 074085 070083 071087 80709 90456
BBXX 42060 01061 99163 70635 46/// /0708 10268 20219 40173 58013 90550 22200 00273 11004 20603 300// 41002 70020 333 91210 555 11088 22094 30459 40712 60549 066083 068088 069088 067091 068091 070095 80710 90456
BBXX 42036 01061 99285 70845 46/// /1302 10210 20169 40230 58004 90550 22200 00213 10501 323// 40501 70003 333 91203 555 11020 22020 30547 41203 60549 125019 135016 133020 134019 136017 139017
BBXX 42058 01061 99149 70749 46/// /0812 10271 20218 40133 58012 90550 22200 00271 10906 20504 312// 40904 70030 333 91214 555 11124 22133 30456 40915 60549 081116 082108 083118 084119 086116 085121 80813 90456
BBXX 41001 01061 99347 70727 46/// ///// 10191 20083 40197 51005 90550 22200 00214 10806 70029
BBXX 42035 01061 99292 70944 46/// /1602 10168 20168 40208 52017 90550 22200 00156 10501 20401 319// 40501 70006 333 91203 555 11028 22034 30450 41703 60549 163024 163027 165027 162024 163024 171027
BBXX 41012 01061 99300 70805 46/// /2507 10207 40227 51005 90550 22200 00231 11001 20301 309// 41001 70005 333 91209 555 11077 22081 30455 42310 60549 252072 246074 244076 239078 236079 233080
BBXX 41060 01061 99148 70510 46/// ///// 1//// 90550 22200 10906 70030
BBXX 42020 01061 99270 70967 46/// /1503 10210 20201 40199 52014 90550 22200 00198 10501 20401 312// 40501 70006 333 91203 555 11032 22037 30458 41605 60549 148027 152035 157037 160036 160037 160040
BBXX 46080 01061 99580 71500 46/// /3408 11061 21120 40102 58006 90550 22200 00044 10703 20602 3//// 40701 70013 333 91210 555 11082 22085 30521 43511 60549 337078 345079 349079 344084 347079 348076 83510 90522
BBXX 46059 01061 99380 71300 46/// /1709 10132 40182 56006 90550 22200 00136 11104 20502 3//// 41103 70019 333 91210 555 11092 22097 30450 41811 60549 165086 166078 161084 161079 161073 167078
BBXX 46002 01061 99426 71305 46/// ///// 10125 40132 50000 90550 22200 00118 11007 70034
BBXX 46084 01061 99566 71361 46/// ///// 10021 20013 40054 56039 90550 22200 00068 10808 70038
BBXX 46006 01061 99408 71375 46/// /1611 10136 40007 57015 90550 22200 00121 10806 20604 3//// 40804 70031 333 91212 555 11114 22124 30540 41613 60549 161105 160105 157101 157101 159096 163098
BBXX 46005 01061 99461 71310 46/// ///09 10102 40068 51019 90550 22200 00098 11008 20604 3//// 41007 70040 333 91210 555 11091 22098
BBXX 46075 01061 99539 71608 46/// /2002 11034 21093 40142 56013 90550 22200 00039 11303 20401 300// 41303 70014 333 91204 555 11022 22023 30450 42004 60549 200023 182024 220019 211020 193011 203013 81903 90547
BBXX 42002 01061 99258 70937 46/// /1607 10243 20231 40206 50003 90550 22200 00246 10602 20602 70009 333 91209 555 11073 22078 30538 41510 60549 154074 154075 152074 151072 150073 152070
BBXX 41036 01061 99342 70770 46/// ///// 10166 20070 40214 51005 90550 22200 00195 10702 70010
BBXX 41043 01061 99211 70650 46/// /1209 10244 20226 40211 58014 90550 22200 00258 10904 20603 300// 40903 70022 333 91210 555 11093 22099 30540 41011 60549 115089 100090 097087 107081 095071 085071 81010 90537
BBXX 41047 01061 99275 70715 46/// /2001 10240 40231 58008 90550 22200 00253 10802 312// 40802 70011 333 91202 555 11009 22009 30451 41503 60549 202009 184012 193015 178014 169016 156017 81502 90452
BBXX 42003 01061 99260 70856 46/// /0803 1//// 90550 22200 10601 70003 333 91205 555 11031 22032 30527 40905 60549 083029 082036 087036 091029 090035 087034 80904 90527
BBXX 42055 01061 99222 70940 46/// /1107 10249 20210 40191 50000 90550 22200 00250 10602 20602 70008 333 91208 555 11078 22083 30546 41108 60549 108072 110070 108067 109066 113065 110064 81108 90546
BBXX 44066 01061 99396 70726 46/// /3011 10111 20072 40163 53015 90550 22200 00127 10604 20604 3//// 40901 70022 333 91213 555 11118 22125 30516 43014 60549 301111 302118 301115 302117 305113 303112
BBXX HZRX 01063 99240 70825 41997 01018 /// 10230 20200 40217 55002 70100 80000 22223 10140 20102 31010 40201 5//// 6//// 80190 ///// /////
BBXX OXBB2 01061 99160 70711 41898 30908 10250 20214 40150 58005 70311 82145 22255 00270 20404 80225
BBXX 42001 01061 99259 70897 46/// /1505 10242 20188 40223 50000 90550 22200 00242 10501 20301 70004 333 91205 555 11048 22051 30457 41406 60549 143045 142047 140047 141048 142052 142052
BBXX 41048 01061 99320 70696 46/// /2509 10219 20182 40206 58009 90550 22200 00220 10703 20703 3//// 40901 70016 333 91211 555 11091 22097 30548 42511 60549 253091 244078 236075 240081 239079 231082 82510 90548
BBXX 41044 01061 99217 70587 46/// /0809 10247 20207 40220 57013 90550 22200 00258 11006 20804 300// 41005 70032 333 91210 555 11091 22096 30450 40812 60549 078087 079085 080086 080086 078088 079092 80810 90452
BBXX 41049 01061 99275 70630 46/// /1605 10231 20208 40242 56013 90550 22200 00233 10803 20401 300// 40803 70017 333 91206 555 11052 22055 30459 41607 60549 160049 159047 162048 160049 158052 157056 81606 90455
BBXX 46025 01061 99337 71191 46/// /1602 10109 20108 40180 53013 90550 22200 00147 11502 324// 41502 70012 333 91203 555 11025 22025 30548 41603 60549 165024 176020 190022 188019 194013 203010
BBXX 46028 01061 99357 71219 46/// /2503 10131 40184 53006 90550 22200 00130 11205 20301 331// 41205 70027 333 91203 555 11027 22029 30508 42705 60549 251025 259031 255032 261034 267039 261036
BBXX 46029 01061 99461 71245 46/// /1007 10077 20037 40212 57007 90550 22200 00087 11304 20402 328// 41304 70021 333 91209 555 11075 22079 30508 41110 60549 100071 096073 105066 104071 101079 101079
BBXX 46087 01061 99485 71247 46/// /0909 10068 20008 40240 56003 90550 22200 00080 333 91212 555 11100 22106 30537 40913 60549 093095 086101 092095 095090 086097 087094
BBXX 46047 01061 99324 71195 46/// /0803 10101 40187 53012 90550 22200 00136 11305 20301 327// 41305 70024 333 91205 555 11033 22034 30548 40805 60549 082031 073031 089031 108022 093020 089028
BBXX 46027 01061 99419 71244 46/// /1202 10088 40216 56009 90550 22200 00090 11205 329// 41205 70027 333 91203 555 11022 22023 30450 41205 60549 120020 190005 154015 130031 127037 122039
BBXX 46013 01061 99382 71233 46/// /0304 10109 40212 50000 90550 22200 00110 11206 20401 3//// 41206 70028 333 91205 555 11042 22045 30549 40305 60549 029041 018039 004041 358040 344039 335039
BBXX 46086 01061 99325 71180 46/// /0402 10136 40183 51009 90550 22200 00151 11604 328// 41603 70018 333 91203 555 11018 22019 30545 40403 60549 038018 026017 039014 036019 038017 031017
BBXX 46050 01061 99442 71246 46/// /1106 10078 40212 58007 90550 22200 00095 11105 20301 329// 41105 70024 333 91207 555 11064 22067 30519 41008 60549 112060 110059 111062 114065 109059 104057
BBXX 46069 01061 99337 71202 46/// /1401 10089 40182 52008 90550 22200 00132 11205 20401 330// 41204 70023 333 91202 555 11009 22009 30546 41402 60549 138008 109002 104002 109001 180000 180000
BBXX 46012 01061 99374 71229 46/// /0206 10130 40198 54000 90550 22200 00119 11206 20402 331// 41205 70028 333 91207 555 11063 22070 30547 40307 60549 021057 024055 021038 012044 015043 017052
BBXX 46011 01061 99350 71210 46/// /0103 10141 40178 52008 90550 22200 00132 11504 20401 328// 41504 70021 333 91205 555 11037 22043 30501 43506 60549 012033 010039 000040 007035 003045 355044
BBXX 46088 01061 99483 71232 46/// /0706 10055 40252 57003 90550 22200 00075 10301 20301 70004 333 91207 555 11066 22069 30455 40608 60549 071063 064066 061062 064067 067068 060068
BBXX 46014 01061 99394 71240 46/// /0603 10098 40219 50000 90550 22200 00109 11406 20401 3//// 41406 70030 333 91204 555 11029 22030 30503 40506 60549 054029 044030 047031 050041 051042 045041
BBXX WFLG 01064 99331 71196 41/91 93600 10103 20097 40185 52010 74444 22264 00117 2//// 329// 40605 5//// 6//// 80100 ICE /////
BBXX WDC6698 01064 99213 71579 43/// /2010 1//// 2//// 40160 5//// 7//// 8//// 222// 04237 2//// 3//// 4//// 5//// 6//// 8//// ICE /////
BBXX NWS0022 01064 99416 70714 43/// /2904 10065 20046 40135 5//// 7//// 8//// 222// 04090 2//// 3//// 4//// 5//// 6//// 8//// ICE /////
BBXX 46105 01061 99590 71522 46/// ///// 1//// 90550 22200 10604 70019
BBXX 44020 01061 99414 70702 46/// /2908 10058 20050 40122 51016 90550 22200 00064 333 91209 555 11085 22090 30534 42710 60549 285080 264084 264081 264081 265075 267071
BBXX 44022 01061 99409 70737 46/// ///03 10077 20041 40171 90545 22200 00070 333 91204 555 11036 22041
BBXX 44060 01061 99413 70721 46/// ///04 10064 40155 90545 22200 00091 333 91205 555 11036 22036
BBXX CG2960 01064 99429 70824 46/// /1705 10045 20020 40145 58023 7//// 8//// 22200 0//// 2////
BBXX CG2350 01064 99433 70798 46/// /2104 10035 20018 40171 58011 7//// 8//// 22200 0//// 2////
BBXX CGDS 01064 99429 70792 46/// /2905 10040 20029 40181 58012 7//// 8//// 22200 0//// 2////
BBXX WCX7445 01064 99605 50631 43/// /3115 10020 2//// 49888 5//// 7//// 8//// 22242 00008 2//// 3//// 4//// 5//// 6//// ICE /////
BBXX WKAW 01064 99483 70085 41/97 82125 10140 2012/ 40090 58020 72052 8//// 22254 00120 2//// 3//// 4//// 5//// 6//// 80130 ICE /////
BBXX DBEA 01061 99540 10082 46/// /2211 10082 20075 40037 57006 22260 00063
BBXX DBND 01061 99536 10086 46/// /2206 10099 20098 40049 57010/ 22240 00063
BBXX DBKR 01061 99541 10121 46/// /1704 10037 20037 40064 57016 22200 00057
BBXX DBBH 01061 99380 10155 41498 22603 10122 20047 40221 52018 70200 828// 22261 04157 305// 40300
BBXX DBBC 01061 99535 10100 46/// /2003 10093 20093 40057 57016 22200 00053
BBXX DBFH 01061 99535 10086 46/// /2106 10099 20093 40053 57009 22200 00057
BBXX DBEB 01061 99539 10079 41/// /2211 10080 20080 40035 57008 7//// 22200 000/1
BBXX DBBI 01061 99535 10100 46/// /2103 10094 20093 40057 57016 22240 00051
BBXX DBJM 01061 99542 10079 46/// /2212 10083 20075 40031 57008 22220 00077
BBXX MCUV3 01063 99423 70104 41497 82728 10140 20122 40200 57005 76362 86748 22253 2//08 327// 4//08 5//// 80130
BBXX DK7210 01061 99540 10066 46/// /2212 10093 20093 30006 222// 20403 70015
BBXX BATFR53 01064 99176 51294 46/// /0611 10254 20210 40172 51020 22222 00264
BBXX C6TH9 01063 99165 51517 41597 70210 10250 2022/ 40130 51020 70222 86928 22200 00260 20101 3//// 4//// 5//// 6//// 80230 ICE /////
BBXX ZCBH7 01064 99041 31101 41597 33010 10302 20290 40120 56031 70322 8/272 22273 04292 20201 331// 40201 5//// 80293
AAXX 01064 78526 NIL
AAXX 01064 78543 NIL
AAXX 01064 48300 32562 10000 10275 20198 39822 40131 57034 81100 333 59024
AAXX 01064 48327 32660 10604 10302 20180 39792 40142 57036 81500 333 59012
AAXX 01064 48331 32562 20000 10299 20184 39917 40144 57032 82100 333 59009
AAXX 01064 48353 32662 11504 10290 20157 39855 40142 57037 81100 333 59015
AAXX 01064 48356 32960 01702 10274 20154 39956 40152 57039 333 59011
AAXX 01064 48375 32562 20000 10315 20193 39889 40110 57036 82100 333 59016
AAXX 01064 48378 32560 22808 10310 20198 30086 40138 57030 81105 333 59011
AAXX 01064 48381 32560 20406 10277 20162 39937 40153 57029 81105 333 59003
AAXX 01064 48407 32960 30303 10300 20174 39993 40133 57037 80005 333 59010
AAXX 01064 48431 32960 20602 10271 20187 39930 40143 57034 80005 333 59009
AAXX 01064 48456 NIL
AAXX 01064 48480 31558 60307 10297 20205 30109 40113 57030 70522 84876 333 59007
AAXX 01064 48500 31556 83305 10296 20214 30114 40121 57022 70522 8225/ 333 59015
AAXX 01064 48551 01450 80000 10264 20251 30108 40116 57021 69971 76062 83877 333 59010 69977 70087
AAXX 01064 48565 31557 70908 10287 20236 30093 40103 57018 71022 82246 333 59017
AAXX 01064 48569 01430 80000 10233 20219 30070 40111 57020 60331 76166 8682/ 333 59020 60107 71412
AAXX 01064 48583 01420 80000 10226 20217 30101 40107 57021 60491 76166 8382/ 333 59009 60057 71414
AAXX 01064 78255 42559 10504 10225 20209 30059 40208 57010 81500 333 81620
AAXX 01064 78317 NIL
AAXX 01064 78318 NIL
AAXX 01064 78325 NIL
AAXX 01064 78333 NIL
AAXX 01064 78338 NIL
AAXX 01064 78348 NIL
AAXX 01064 78349 NIL
AAXX 01064 78353 NIL
AAXX 01064 78360 NIL
AAXX 01064 78367 NIL
AAXX 01064 78369 NIL
AAXX 01064 48302 31558 40000 10180 20161 38503 40129 57017 71011 82805 333 59012
AAXX 01064 48304 32565 20000 10278 20197 39684 40139 57030 82500 333 59020
AAXX 01064 48334 31556 20000 10280 20187 39783 40142 57028 70500 82200 333 59013
AAXX 01064 48360 31959 00903 10270 20155 39882 40142 57036 70500 333 59018
AAXX 01064 48372 31558 20000 10305 20229 30081 40138 57029 70500 81105 333 59011
AAXX 01064 48373 31558 30000 10305 20199 30075 40136 57031 70511 82101 333 59013
AAXX 01064 48386 31950 02605 10298 20199 30088 40131 57034 70500 333 59015
AAXX 01064 48387 NIL
AAXX 01064 48408 32960 20404 10305 20175 39982 40129 58038 81045 333 59011
AAXX 01064 48415 31557 60709 10301 20175 30120 40131 57028 70522 82146 333 59012
AAXX 01064 48433 31959 30000 10291 20185 39972 40137 57040 70511 82035 333 59009
AAXX 01064 48437 32962 03303 10287 20182 39933 40141 57034 333 59010
AAXX 01064 48440 32560 60000 10300 20202 30078 40127 57027 82106 333 59006
AAXX 01064 48451 32564 10404 10293 20200 30124 40135 57027 81100 333 59015
AAXX 01064 48454 31559 53605 10319 20179 30116 40123 57029 70511 82106 333 58050
AAXX 01064 48457 31557 60505 10278 20200 30111 40128 58024 70522 84846 333 59011
AAXX 01064 48463 31556 60000 10320 20213 30039 40131 57021 70522 82206 333 59007
AAXX 01064 48464 32560 33306 10305 20224 30103 40116 57027 82131 333 59015
AAXX 01064 48479 31558 70402 10320 20188 30065 40116 57030 70522 83847 333 59012
AAXX 01064 48520 31559 60708 10300 20219 30103 40119 55013 70522 82546 333 59015
AAXX 01064 48554 NIL
AAXX 01064 48563 01458 80507 10254 20236 30070 40106 57019 60011 71062 83867 333 59012 69926 70014
AAXX 01064 48571 01456 81305 10233 20222 30091 40102 57023 60311 76122 8386/ 333 59029 60137 72120
AAXX 01064 48310 NIL
AAXX 01064 48325 31558 20000 10300 20202 39885 40124 57041 70540 82201 333 59013
AAXX 01064 48329 31556 20000 10301 20196 39796 40129 57032 70500 82200 333 59019
AAXX 01064 48352 32564 21005 10284 20161 39954 40154 57038 81145 333 59008
AAXX 01064 48357 32961 11005 10286 20160 39985 40153 57035 80001 333 59012
AAXX 01064 48380 31658 11402 10307 20206 30043 40136 57036 70500 81100 333 59017
AAXX 01064 48383 31959 00905 10280 20168 39983 40142 57029 70500 333 59009
AAXX 01064 48403 31958 00508 10295 20177 39929 40137 57039 70500 333 59011
AAXX 01064 48405 31958 20304 10285 20178 39976 40137 57036 70500 80005 333 59017
AAXX 01064 48420 31956 80406 10307 20198 30120 40124 57024 70522 86056 333 59014
AAXX 01064 48421 31557 20000 10332 20201 30009 40120 57039 70500 82100 333 59015
AAXX 01064 48425 31958 60303 10300 20191 30126 40136 57028 70520 84036 333 59011
AAXX 01064 48426 32962 33501 10320 20184 30121 40134 57024 80006 333 59008
AAXX 01064 48429 32560 50408 10303 20182 30119 40126 57029 81136 333 59016
AAXX 01064 48430 31559 50910 10316 20173 30120 40127 56027 70521 82235 333 59013
AAXX 01064 48450 31556 30202 10310 20167 30093 40125 57034 70521 81505 333 59004
AAXX 01064 48459 31959 80603 10309 20200 30118 40121 57029 70522 8807/ 333 59008
AAXX 01064 48465 31558 80106 10291 20212 30124 40128 57024 70522 8352/ 333 59011
AAXX 01064 48550 01457 71403 10235 20228 30109 40116 57013 60241 76096 82876 333 59009 60247 70243
AAXX 01064 48552 01420 83203 10233 20228 30106 40113 57024 60421 79596 8697/ 333 59011 60377 70661
AAXX 01064 48566 NIL
AAXX 01064 48568 01450 81203 10233 20225 30097 40105 57020 60491 76166 8682/ 333 59027 60207 72562
AAXX 01064 48307 32562 20000 10295 20187 39767 40141 57033 82200 333 59013
AAXX 01064 48324 32560 32302 10307 20169 39917 40133 55034 82105 333 59011
AAXX 01064 48333 31558 10000 10292 20179 39839 40137 57012 70500 81100 333 59019
AAXX 01064 48350 32662 11505 10288 20146 39837 40134 57044 81100 333 59014
AAXX 01064 48355 31957 00605 10278 20169 39928 40146 57037 70500 333 59020
AAXX 01064 48358 32560 10906 10283 20154 39981 40155 57036 81101 333 59017
AAXX 01064 48384 32962 00000 10285 20184 39958 40147 57033 333 59009
AAXX 01064 48401 32961 10506 10312 20207 30031 40137 57030 81040 333 59012
AAXX 01064 48404 32962 10506 10284 20184 39961 40138 58034 81040 333 59006
AAXX 01064 48409 NIL
AAXX 01064 48419 31558 60503 10310 20196 30121 40129 56026 70522 82545 333 59011
AAXX 01064 48427 32561 70603 10303 20207 30117 40125 57035 83132 333 59016
AAXX 01064 48435 32962 30920 10267 20156 39698 40133 57030 82045 333 59013
AAXX 01064 48453 32560 60503 10320 20199 30119 40122 57031 82136 333 59015
AAXX 01064 48458 32960 70508 10314 20186 30059 40138 57029 87070 333 59011
AAXX 01064 48474 31957 60312 10312 20189 30001 40122 57025 70520 83036 333 59010
AAXX 01064 48481 NIL
AAXX 01064 48555 01550 80000 10245 20238 30098 40140 55019 60121 71562 8687/ 333 59012 60127 70270
AAXX 01064 48556 01458 80000 10248 20236 30097 40114 57017 60041 76166 83877 333 59006 60047 70068
AAXX 01064 48557 NIL
AAXX 01064 48560 01510 80505 10246 20233 30121 40126 56003 60881 76166 8487/ 333 59001 60687 71700
AAXX 01064 48574 01459 80000 10234 20231 30075 40105 57021 60351 76122 8487/ 333 59026 60097 70646
AAXX 01064 48581 01556 82002 10235 20228 30072 40114 57020 60181 71062 84576 333 59014 60047 72874
BBXX DDSD2 01063 99416 70210 41/// /2618 10155 20139 40220 51020 72186 8//// 22254 00149 2//// 3//// 4//// 5//// 80145
BBXX PDXQ 01063 99534 10049 41397 82010 10090 20060 40050 55010 70000 83770 22213 04076 20201 80075
BBXX A8KH9 01064 99073 30786 41/98 52715 10295 20248 40080 54000 70222 82/65 22214 20402 32026 41208 51006 80260
BBXX DILE 01063 99451 70091 41/97 82526 10148 20131 40172 55003 70052 89/// 22254 04130 21006 80138
BBXX A8PG7 01063 99109 51232 41598 30913 10250 20191 40150 52005 70300 8/222 22214 20502 305// 41003 5//// 80210
BBXX PDNN 01063 99478 70059 41/98 82133 10130 20127 40129 54000 70022 88/// 22242 2//// 80128 91016
AAXX 01064 68325 12960 00516 10217 20164 48514 52014 60024 333 20172
AAXX 01064 91165 NIL
AAXX 01064 91182 NIL
AAXX 01064 91190 NIL
AAXX 01064 91212 NIL
AAXX 01064 91217 NIL
AAXX 01064 91285 NIL
AAXX 01064 91317 32474 20908 10306 20276 30089 40093 5//// 82100 333 562// 70000 82818 555 90106
AAXX 01064 91334 32474 50310 10314 20238 30073 40076 57005 82271 333 56199 70000 555 90106
AAXX 01064 91348 NIL
AAXX 01064 91356 NIL
AAXX 01064 91366 NIL
AAXX 01064 91369 NIL
AAXX 01064 91371 NIL
AAXX 01064 91376 11474 80512 10268 20243 30076 40080 53003 69931 70282 8587/ 333 56199 70104 555 90106
AAXX 01064 91408 32474 80908 10311 20243 30041 40079 57019 81178 333 56999 70005 555 90106
AAXX 01064 91413 32469 40814 10301 20214 30068 40093 57017 81171 333 56299 70000 555 90106
AAXX 01064 91425 NIL
AAXX 01064 91434 NIL
AAXX 01064 91765 NIL
AAXX 01064 91222 NIL
AAXX 01064 91245 NIL
AAXX 01064 91323 NIL
AAXX 01064 91339 NIL
AAXX 01064 91343 NIL
AAXX 01064 91353 NIL
AAXX 01064 91442 NIL
AAXX 01064 78982 02480 20814 10260 20223 30129 40134 57015 60001 82201 333 58006 60007 82817
AAXX 01064 78016 11464 62315 10208 20190 30211 40215 56008 60011 70381 86500 333 10224 20195 70015 90950
AAXX 01064 47101 31557 82506 11002 21091 30112 40210 56018 70522 8552/
AAXX 01064 47105 369// /2507 10029 21081 30154 40187 55013
AAXX 01064 47108 41658 52911 11020 21105 30118 40228 55008 77072 85500
AAXX 01064 47115 41565 73206 10036 21027 39890 40164 57024 78388 87800 333 92042
AAXX 01064 47133 41525 83205 10000 21017 30144 40232 55003 77177 8572/
AAXX 01064 47138 31559 22505 10071 21046 30183 40186 57024 70500 81500 333 92022
AAXX 01064 47159 31658 42709 10076 21027 30107 40192 57026 70522 84500 333 92023
AAXX 01064 47165 41662 83417 10038 21009 30188 40236 55002 72162 8452/ 333 92035
AAXX 01064 47168 31657 82914 10049 21011 30130 40210 55019 70522 8552/ 333 92024
AAXX 01064 47184 31656 73217 10080 21005 30208 40233 56017 70522 87500 333 92045
AAXX 01064 47090 32568 62708 10028 21119 30162 40185 56016 86500 333 92023
AAXX 01064 47095 41550 63203 11040 21066 30033 40230 55004 72272 86500
AAXX 01064 47097 329// /2706 10002 21121 30120 40219 55017
AAXX 01064 47098 329// /2908 11013 21099 30085 40224 55005
AAXX 01064 47099 329// /3209 11018 21108 30197 40235 55002
AAXX 01064 47100 41456 72712 11050 21090 39251 40198 55013 77177 85520
AAXX 01064 47102 31663 73213 11045 21093 30078 40265 55001 72682 87500
AAXX 01064 47104 32668 42309 10022 21113 30084 40183 55015 82530
AAXX 01064 47106 329// /2707 10039 21105 30132 40182 55015
AAXX 01064 47112 32667 53222 11011 21097 30147 40234 55007 85500 333 92036
AAXX 01064 47114 41520 82305 11018 21041 30025 40213 55014 77072 8572/
AAXX 01064 47119 32668 52908 11010 21086 30189 40232 55005 85500
AAXX 01064 47121 329// /2706 10007 21093 39900 40200 55023
AAXX 01064 47127 329// /2505 11011 21023 30073 40219 55013
AAXX 01064 47129 32670 52917 10007 21066 30211 40248 54000 85500
AAXX 01064 47130 32962 02311 10053 21089 30114 40176 57023 333 92034
AAXX 01064 47131 41515 82905 11014 21026 30159 40232 54000 77177 8672/
AAXX 01064 47135 329// /2705 11002 21022 39901 40207 57020
AAXX 01064 47136 31661 82908 10032 21067 30017 40191 57024 7//41 8551/
AAXX 01064 47137 329// /2907 10012 21044 30083 40204 55020
AAXX 01064 47140 41530 83215 11004 21019 30214 40244 53003 77176 8572/ 333 92014
AAXX 01064 47143 32660 72905 10037 21038 30125 40205 57021 87500
AAXX 01064 47145 41550 83207 11015 21030 30201 40228 55002 77077 8552/
AAXX 01064 47146 41530 82909 10006 21002 30163 40231 54000 76877 8572/
AAXX 01064 47150 41568 63204 10003 21045 30224 40244 53007 72272 86500
AAXX 01064 47152 32665 53204 10074 21037 30142 40185 57025 85500
AAXX 01064 47154 329// /2705 10022 21027 30143 40204 57018
AAXX 01064 47155 31657 63605 10077 21023 30147 40193 57024 70522 86500
AAXX 01064 47156 41659 72907 10029 21003 30143 40234 55006 72162 87500
AAXX 01064 47157 31658 72507 10025 21009 39916 40189 57018 71022 87500
AAXX 01064 47162 31550 53608 10062 21005 30160 40200 57024 70522 85500 333 92023
AAXX 01064 47169 41650 83626 10037 21001 30143 40239 56010 72162 8552/ 333 92057
AAXX 01064 47170 41550 83410 10037 21001 30187 40231 55010 76062 8472/ 333 92023
AAXX 01064 47171 429// /3205 10004 21015 30186 40243 53007
AAXX 01064 47172 429// /3210 10020 21014 30167 40235 53003
AAXX 01064 47173 429// /2002 10019 20002 30108 40221 57015
AAXX 01064 47174 41630 82908 10026 21006 30009 40214 56015 72166 8452/
AAXX 01064 47175 41530 83219 11003 21011 39644 40232 55011 77072 8572/ 333 92025
AAXX 01064 47185 41650 63227 10080 20015 30137 40228 57019 70522 86500 333 92047
AAXX 01064 47188 31650 63207 10079 20008 30204 40226 55017 70522 86500 333 92023
AAXX 01064 47189 31658 63207 10086 20000 30164 40224 55007 70522 86500 333 92033
AAXX 01064 47192 31658 62705 10055 21016 30163 40201 57022 70522 86500
AAXX 01064 78016 11464 62315 10208 20190 30211 40215 56008 60011 70381 86500 333 10224 20195 70015 90950
AAXX 01064 43533 11459 71809 10290 20241 30110 40113 60001 70522 82262 333 58001 82818 87362
AAXX 01064 43555 12462 12003 10298 20211 30116 40119 60001 81101 333 58000 81818
AAXX 01064 43577 12465 12906 10313 20233 30116 40118 60001 81101 333 59003 81819
AAXX 01064 43588 12465 22910 10300 20235 30110 40112 60001 81101 333 59006 81819
AAXX 01064 43599 12462 32909 10300 20240 30112 40114 60001 82202 333 59003 82818
AAXX 01064 91925 06/// /0000 10233 20199 30082 40143 52026 60001 333 55097 60007 90710 91105 555 60005 10915 58005
AAXX 01064 91929 04963 73502 10256 20227 30140 40143 51023 60022 700// 333 10274 20249 55/// 60007 70284 90710 91104 555 60005
AAXX 01064 91938 01565 70804 10251 20214 30146 40148 53016 60052 70186 83832 333 10291 20238 31/// 55029 69947 70082 81820 83650 85076 90710 91107 555 60005 11120 58019
AAXX 01064 91944 06/// /0806 10268 20211 30153 40156 51022 60002 333 10295 20266 55115 60007 70000 90710 91109 555 60005
AAXX 01064 91948 06/// /0803 10244 20195 30077 40179 51019 60001 333 55097 60007 90710 91113 555 60005 10913 59005
AAXX 01064 91954 06/// /3410 10247 20231 30154 40157 51018 60031 333 55/// 60017 555 58025
AAXX 01064 91958 06/// /2610 10248 20207 30166 40168 51020 60001 333 55002 60007 90710 91122 555 60005 12722 58012
AAXX 01064 91943 NIL
AAXX 01064 91945 NIL
AAXX 01064 78016 11464 62315 10208 20190 30211 40215 56008 60011 70381 86500 333 10224 20195 70015 90950
AAXX 01064 43533 11459 71809 10290 20241 30110 40113 60001 70522 82262 333 58001 82818 87362
AAXX 01064 43555 12462 12003 10298 20211 30116 40119 60001 81101 333 58000 81818
AAXX 01064 43577 12465 12906 10313 20233 30116 40118 60001 81101 333 59003 81819
AAXX 01064 43588 12465 22910 10300 20235 30110 40112 60001 81101 333 59006 81819
AAXX 01064 43599 12462 32909 10300 20240 30112 40114 60001 82202 333 59003 82818
BBXX LAHV 01061 99589 10057 43/// /1707 10077 20055 49910 222// 04082 1////
BBXX LF4H 01064 99596 10022 46/// /2313 10087 20051 49870 57005 8//// 22200 06083 10604 70021 333 91118
AAXX 01061 15502 12970 00000 11058 21066 30176 40218 53013 60002 333 11004 21058 55047 70000 555 30108 594// 92600
AAXX 01061 15525 12565 71603 10013 21022 39951 40225 53015 69982 86530 333 10013 20002 47003 70063 555 3/102 578//
AAXX 01061 15528 12670 42502 10000 21006 39999 40195 52020 60002 84500 333 10005 21002 42001 55000 70019 555 34102 596//
AAXX 01061 15535 11530 72501 10005 21001 30156 40204 52020 69932 71042 85550 333 10005 21001 42997 55000 70021 555 596//
AAXX 01061 15549 11540 83202 11016 21027 39783 40215 52015 60012 71042 886// 333 11007 21016 47008 70084 555 3/103 591//
AAXX 01061 15552 12460 62904 10018 21016 30137 40187 52022 60112 82530 222// 2//00 314// 4//00 333 10020 20010 55000 70209 555 31103 578// 92013 92416
AAXX 01061 15614 12664 52701 11018 21052 39494 40226 52015 60002 83241 333 10001 21018 48008 55000 70029 555 3/100 575//
AAXX 01061 15615 11988 00206 11146 21163 37037 47963 52013 60002 70220 333 11126 21146 48999 55000 70021 555 586//
AAXX 01061 15626 12970 82702 10026 21019 30007 40200 52016 60002 8802/ 333 10035 20022 43004 55000 70147 555 3/100 572//
AAXX 01061 15627 11/00 93404 11136 21152 37564 47974 53014 60012 74144 333 11112 21136 48034 55000 70217 93508 555 588// 92713
AAXX 01061 15640 12674 12906 10022 21037 39870 40191 52018 60002 81500 333 10028 20014 55000 70005 555 31000 565//
AAXX 01061 15655 12570 83204 10034 21007 30155 40189 52027 60032 885// 222// 00070 20501 333 10036 20014 70113 555 31/// 574// 92023 92428
AAXX 01061 15712 12570 53201 10009 21047 39953 40212 53018 60002 83630 333 10035 20000 47006 55000 70071 555 3/106 566//
AAXX 01061 15730 11670 83408 10017 21030 39801 40204 52025 69912 70272 8457/ 333 10026 20013 47006 55000 70106 555 3/101 57100 69853 70600
AAXX 01061 26038 NIL
AAXX 01061 26045 NIL
AAXX 01061 26058 NIL
AAXX 01061 26115 NIL
AAXX 01061 26135 01262 72300 11022 21025 30030 40107 53010 69902 78588 87900 333 11017 21026 60007 87906 555 14101 21026 34101 51016 52104
AAXX 01061 26141 01242 82202 11026 21032 39952 40104 52009 69902 78587 889// 333 11019 21028 47001 60007 88905 555 1/102 21028 3/103 51020 52103
AAXX 01061 26231 01684 62402 11022 21044 30095 40110 53009 60002 70211 86300 333 11008 21034 60007 86946 555 14100 21034 34100 51008
AAXX 01061 26242 NIL
AAXX 01061 26247 NIL
AAXX 01061 15108 02699 22704 11115 21115 38042 48475 52008 60002 81041 333 11107 21124 3//// 44018 60007 70000 92863 95000 444 26086
AAXX 01061 14240 11520 81501 11002 21004 30048 40209 53005 60002 71042 886// 333 21008 31101
AAXX 01061 14258 12670 80000 11005 21005 30013 40208 52004 60002 885// 333 21033 34105
AAXX 01061 14445 12782 60202 10070 21102 30044 40202 53004 60002 82530 222// 00140 333 20047 30102 82697 84399 92311
AAXX 01064 93004 16/// /2324 10170 20164 40070 52005 60001
AAXX 01064 93023 16/// /2509 10184 20151 40054 52009 60001
AAXX 01064 93069 16/// /2724 10197 20166 40026 52003 6///1
AAXX 01064 93110 17598 /2911 10201 20172 40003 57003 69961
AAXX 01064 93186 17697 /3610 10203 20182 40004 57009 60001
AAXX 01064 93196 16/// /3112 10191 20189 40028 57007 69921
AAXX 01064 93245 16295 /3306 10175 20170 40003 57003 60201
AAXX 01064 93292 17/98 /3109 10236 20164 40001 57003 60001
AAXX 01064 93309 17497 /1409 10168 20165 40007 52003 60031
AAXX 01064 93334 16/// /0000 10158 20151 39081 57002 60361
AAXX 01064 93339 16/// /2303 10148 20145 39089 57001 60271
AAXX 01064 93373 17397 /0306 10170 20162 40006 57009 60021
AAXX 01064 93404 17498 /0703 10190 20167 40002 57003 60021
AAXX 01064 93420 17498 /2605 10158 20141 40005 52001 60031
AAXX 01064 93439 17497 /1711 10155 20131 40011 57001 60001
AAXX 01064 93498 16/// /2004 10138 20138 40012 57010 60161
AAXX 01064 93515 17/98 /2324 10194 20138 40015 57012 60001
AAXX 01064 93527 16/// /0605 10197 20171 49998 57009 60001
AAXX 01064 93546 17998 /0309 10206 20171 40002 57006 60001
AAXX 01064 93597 16/// /1510 10148 20127 40018 57004 60001
AAXX 01064 93615 17/97 /2414 10186 20134 40023 57010 60001
AAXX 01064 93678 16/98 /0705 10146 20112 40020 57004 60001
AAXX 01064 93709 16/// /2618 10174 20118 40016 57009 60001
AAXX 01064 93773 17498 /1404 10162 20122 40043 52005 60001
AAXX 01064 93781 17/98 /1912 10195 20085 40025 52005 60001
AAXX 01064 93800 NIL
AAXX 01064 93805 NIL
AAXX 01064 93831 17/97 /1823 10190 20093 49995 52010 60001
AAXX 01064 93845 17498 /2425 10130 20094 40057 52005 60001
AAXX 01064 93891 17697 /2807 10161 20077 40042 52015 60001
AAXX 01064 93909 16/// /2525 10103 20073 40052 52004 60001
AAXX 01064 93929 16/// /2217 10082 20022 49998 52016 60001
AAXX 01064 93947 16/// /2725 10068 20036 49911 52014 69961
AAXX 01064 93987 16/// /3420 10165 20161 40037 57013 69941
AAXX 01064 93994 NIL
BBXX 3FZK3 01064 99489 71237 46/// /0000 10027 20011 40270 55003 7//// 8//// 22200 0//// 2////
BBXX 46001 01061 99563 71480 46/// /0114 10000 40024 57022 90550 22200 00041 10605 20605 70025 333 91218 555 11151 22160 30526 40118 60549 006141 004150 004150 004147 004153 005145
BBXX 46026 01061 99378 71228 46/// /0606 10131 40206 55000 90550 22200 00114 11205 20301 329// 41205 70024 333 91207 555 11066 22074 30456 42708 60549 054060 269054 274058 272055 271051 267053
BBXX 46042 01061 99368 71224 46/// /0706 10136 40193 52003 90550 22200 00125 11306 20501 329// 41306 70029 333 91207 555 11061 22068 30544 40707 60549 071054 066050 044035 021027 012024 018025
BBXX A8PX5 01064 99372 71467 41597 62926 10110 20092 49980 54000 70200 8/8// 22224 04160 21007 327// 41208 5//// 80100
BBXX CG2958 01064 99517 71281 46/// /1316 10069 21006 40186 57002 7//// 8//// 22200 0//// 2////
BBXX CGBR 01064 99525 71288 46/// /0310 10035 20002 40182 56001 7//// 8//// 22200 0//// 2////
BBXX CGBY 01064 99487 71235 46/// /0404 10047 20002 40265 56003 7//// 8//// 22200 0//// 2////
BBXX CGDR 01064 99484 71234 46/// /0206 10052 20013 40261 55003 7//// 8//// 22200 0//// 2////
BBXX DGDD 01061 99320 71261 41/98 20607 10145 20110 40205 53005 70111 82/// 22224 04150 2//// 3//// 4//// 5//// 80125
BBXX VRCI9 01064 99376 71240 41/98 /1312 10120 20083 40190 51020 70211 8//// 22275 00126 2//// 3//// 4//// 80100
BBXX WCX8883 01064 99388 71339 41397 81832 10155 20140 40100 52005 76066 886// 22225 00130 20806 31918 40802 5//// 6//// 80145 ICE /////
BBXX WSRH 01064 99352 71306 41398 71409 10172 20150 40182 56003 70321 8614/ 22214 00144 29902 327// 4//03 5//// 6//// 80156 ICE /////
AAXX 01061 26645 32697 30000 11041 21050 39883 40152 52013 82530 333 21041 47003 555 90010
AAXX 01061 26659 12463 60000 11022 21040 39922 40142 52020 69932 86500 333 21024 47003 86619 555 90010
AAXX 01061 26763 11460 82904 11017 21038 39889 40122 52023 69952 72272 886// 333 21018 47002 88711 555 90010
AAXX 01061 26825 32660 72602 11018 21024 39966 40154 54000 875// 333 21021 42997 87633
AAXX 01061 26832 31359 82701 11025 21038 39967 40166 52013 71022 886// 333 21026 43001 88707 555 90010
AAXX 01061 26887 11396 82201 11005 21011 39903 40112 52005 60022 71022 886// 333 21005 43003 88709 555 90012
AAXX 01061 26961 11660 72903 11015 21031 39949 40146 52022 69942 70282 87500 333 21015 47001 87650 555 90011
AAXX 01061 33027 12697 82902 11009 21022 39993 40165 52018 69942 8655/ 333 21012 555 90013
AAXX 01061 06414 16/// /2206 10119 20101 30068 40100 55004 69942 333 20114 91114 91209
AAXX 01061 06459 16/// /2207 10113 20113 39936 40125 55004 60032 333 20099 3/010 91112 91208
AAXX 01061 06494 16/// /2307 10080 20079 39340 40129 57002 60072 333 20069 91113 91208
BBXX BATUK01 01064 99560 70032 46/// /2405 10079 20022 49915 58014 22200 00062
AAXX 01064 60106 32960 20000 10013 20004 40324 56002 80002 333 20010 82070
AAXX 01064 60318 32960 02708 10143 20019 40277 53006 333 20125
AAXX 01064 91367 32474 80909 10283 20253 84278 333 56229 84815 83360 82180 70000 555 90106
AAXX 01064 60715 12558 72811 10147 20107 30232 40239 53002 60024 8328/ 333 20139 70015 83826 83359 91017 91121
AAXX 01064 60723 13560 62710 10132 20107 30072 40262 53001 60124 83280 333 20129 70122 83823 84360
AAXX 01064 60725 12558 72108 10107 2//// 30094 40275 53001 60024 878// 333 20107 70016 83820 84630
AAXX 01064 60735 12558 32402 10126 20074 30170 40253 51008 69974 83800 333 20123 70007 83823
AAXX 01064 60745 12560 2//// 10037 20011 39898 40285 53007 60004 82500 333 20033 82630
AAXX 01064 60748 13562 22206 10090 20050 39843 40271 53010 60004 82200 333 20090 82823
AAXX 01064 60750 12560 53009 10148 20051 30228 40253 53007 60004 85800 333 20129 82820 84630
AAXX 01064 60760 12560 12607 10073 20014 30168 40276 53005 60004 81200 333 20074 81830 91009 91111
AAXX 01064 60765 13558 42508 10124 20046 30273 40277 53007 60004 84800 333 20123 82820 83630 92436 925//
AAXX 01064 60767 12558 62510 10100 20019 30123 40270 52006 60004 83502 333 20097 83630 84070
AAXX 01064 60769 12460 62912 10141 20078 30249 40253 53008 60004 86800 333 20140 82816 86630
AAXX 01064 16622 12560 23414 10032 21039 30198 40209 52018 60002 82400 333 20032 30/// 50250 55000 70002 90730 91121 555 10000 30052 20000 89060 99094 30000 10032 2//// 30046 4//// 5//// 40000 47678 44210 50000 50008
AAXX 01064 16641 12960 00000 10012 20006 30159 40165 52019 60002 333 20012 30/// 55032 70000 90730 91105 555 10000 30104 20000 89059 99100 40000 47649 44200 50000 50010
AAXX 01064 16682 12560 10000 10014 20008 30134 40153 52023 60002 81101 333 20014 31/// 5///0 55002 70065 90730 91104 555 10000 30096 20000 89074 99092 30000 10045 20065 30072 40094 50110 60165 40000 47626 44165 50000 50012
AAXX 01064 16716 12560 23306 10080 20005 30139 40158 52028 60002 81150 333 20070 30/// 55049 70000 555 10000 30094 20000 89055 99089 40000 47632 44175 50000 50050
AAXX 01064 16734 NIL
AAXX 01064 16743 NIL
AAXX 01064 16749 12460 63014 10130 20091 30051 40066 52012 60122 796 85850 333 20100 31/// 55021 70173 82812 84620 86358 90730 91120 555 10000 30140 20000 89068 99088 40000 47570 44210 50000 50110 60000 60117 60300 70000 77/// 7TR//
AAXX 01064 16754 12465 63314 10126 20077 30085 40131 52022 60072 86700 333 20100 31/// 50040 55003 70098 81712 86625 90730 91126 555 10000 30126 20000 89064 99093 40000 47594 44190 50000 50102 60000 60072 60215
AAXX 01061 38353 42998 02801 11023 21120 39336 40266 57015 333 21111
AAXX 01061 38613 42999 01201 10014 21018 40250 57010 333 21094
AAXX 01061 38616 42599 20000 10014 21069 39227 40263 53001 81501 333 21115
AAXX 01061 38345 32999 00901 10053 21073 38796 48499 57012 333 21187
AAXX 01061 36911 42999 02701 11046 21055 39250 40250 57027 333 21131
AAXX 01061 36974 32998 02201 11168 21194 38012 48585 57026 333 21209
AAXX 01061 36982 42999 00000 11171 21262 36563 47220 54000 333 21244
AAXX 01061 26509 11496 20701 11020 21032 30123 40132 52001 69902 71082 82202 333 21021 34/// 91003 91106 555 53006 7990/
AAXX 01061 26518 31614 71602 11045 21048 40143 52004 72842 87500 333 21053 45997 91003 91103 93501 555 53003 7000/
AAXX 01061 26524 32998 20000 11042 21047 30004 40142 51004 82030 333 21043 34/// 91002 91103 555 53004 7000/
AAXX 01061 26531 32670 62402 11021 21034 40140 52011 86500 333 21022 34/// 86644 91003 91104 555 53005 7000/
AAXX 01061 26629 32662 72302 11017 21020 30057 40155 52007 87500 333 21030 42001 87639 91004 91104 555 53005 7990/
AAXX 01061 26633 32670 70000 11029 21039 30013 40147 52012 87500 333 21040 43003 87644 91000 91101 555 53004 7002/
AAXX 01061 26730 12661 72201 11036 21041 39957 40155 52010 69902 87500 333 43004 91001 91104 555 53006 7004/
AAXX 01061 11146 11/00 93608 11059 21068 36927 47032 50009 60122 77074 333 21077 49191 89/00 91129 92613 93130
AAXX 01064 08001 12468 5//// 10134 20095 30154 40235 57021 69902 83550 333 20126 30010 50134 55000 70019 924/7
AAXX 01064 08015 12960 01806 10066 20048 39843 40256 57014 60002 333 20064 30005 50204 55038 70000
AAXX 01064 08023 12970 01909 10106 20060 30179 40251 57012 60002 333 20105 50143 55000 79999
AAXX 01064 08027 12570 51603 10120 20090 39950 40261 57010 69922 83570 333 20105 31008 50140 55000 70002
AAXX 01064 08045 01102 81908 10103 20097 39962 40275 56014 60022 76165 887// 333 20097 3/010 55000 69997 70026
AAXX 01064 08141 11/05 91401 10024 20024 39414 40301 56008 60002 74540 333 20012 31100 55060 70000 89/03
AAXX 01064 08160 12980 03004 10079 20032 39966 40281 56005 60002 333 20070 55071 70000
AAXX 01064 08181 02980 23412 10090 20042 30241 40247 51005 60002 81071 333 20087 3/011 55042 60007 70000
AAXX 01064 08221 02960 03503 11015 21031 39601 40323 56007 60002 333 21015 30103 55084 60007 70000
AAXX 01064 08231 12970 01201 11002 21013 39182 48560 57007 60002 333 21002 34101 50174 55078 70000
AAXX 01064 08261 12975 00000 10042 20027 39816 40314 57008 60002 333 20038 31001 55082 70000
AAXX 01064 08284 02965 02806 10076 20031 30185 40262 55001 60002 333 20073 30006 50274 55080 60007 70000
AAXX 01064 08306 12968 10000 10052 20046 30249 40255 53001 60002 80001 333 20044 55081 70000
AAXX 01064 08314 02968 02806 10100 20086 30148 40253 53002 60002 333 20100 3//// 55075 60007 70000
AAXX 01064 08430 12970 01801 10102 20044 30199 40275 55000 60002 333 20096 30007 50291 55092 70000
AAXX 01064 08482 12970 03106 10112 21009 30262 40271 55000 60002 333 20096 55083 70000
AAXX 01064 60710 11558 72110 10125 20097 30176 40256 53007 60064 70262 878// 333 20125 70062 84820 84630
AAXX 01064 60714 12458 73117 10153 20121 30242 40248 53002 60074 86800 333 20143 70068 84816 83630
AAXX 01064 60720 NIL
AAXX 01064 60728 NIL
AAXX 01064 60729 NIL
AAXX 01064 60731 05657 52411 10129 20088 30242 40249 53010 60034 333 10145 20122 3//// 58049 5///4 60007 70028 85/38 91014 91120
AAXX 01064 60732 13658 50000 10053 20036 39658 40285 53011 60004 85800 333 20042 83820 83626
AAXX 01064 60734 13560 52804 10096 20079 39733 40263 51009 60014 81582 333 20090 70010 81630 83360
AAXX 01064 60738 NIL
AAXX 01064 60739 NIL
AAXX 01064 60740 12460 62711 10147 20080 30249 40251 53014 69984 85880 333 20133 70008 83816 83626
AAXX 01064 60742 NIL
AAXX 01064 60764 NIL
AAXX 01064 60770 13675 72708 10125 20063 30124 40265 53007 60004 82582 333 20125 82633 83360 85070
AAXX 01064 60772 NIL
AAXX 01064 60775 13575 72604 10109 20017 39917 40279 53008 60004 8558/ 333 20103 55040 85626 83360
AAXX 01064 60780 13960 01702 10035 20006 39983 40304 53007 60004 333 20032
AAXX 01061 14008 12599 33210 11032 21046 37472 47029 52015 60002 83070 333 21074 49100 55022 70000 92868 95120
AAXX 01061 14015 11340 53001 11008 21019 39844 40216 53003 60002 7104/ 83530 333 21010 34103 55021 70000 82706 82640 555 20013 30018
AAXX 01061 14023 12898 61601 10000 21016 39902 40207 53005 60002 86070 333 21024 34105 55054 70000 555 20007 30011
AAXX 01061 14024 12499 62705 10001 21096 39079 48465 52008 60002 83578 333 21012 3/102 48014 55068 70000 92805 95140 95000 444 26055
AAXX 01061 14026 11896 71401 11006 21021 39872 40204 53009 60002 7102/ 87030 333 21016 34104 55048 70000 555 20007 30014
AAXX 01061 14031 11596 81801 11001 21014 39966 40202 52008 60002 710// 885// 333 21015 34105 55043 70000 88630 555 20000 30006
AAXX 01061 14105 12999 11205 10008 21011 30202 40207 53007 60002 81030 333 20001 34102 55046 70000 555 20020 30031
AAXX 01061 14106 12999 00901 11037 21042 30135 40207 53007 60002 333 21047 34106 55038 70000 95000 555 20005 30009
AAXX 01061 14112 12/97 20000 11036 29095 60004 333 10055 21055 3/106 70000
AAXX 01061 14121 12798 70000 11008 21012 39930 40206 53005 60002 83570 333 21016 31103 55000 70000 83650 555 20009 30019
AAXX 01061 14122 11935 71101 11004 21005 30007 40211 53007 60002 710// 87070 333 21009 31/// 70000
AAXX 01064 16614 12960 02906 11034 21078 39414 40228 52018 60002 333 21040 42998 55035 70000 90730 91108 555 10000 30010 20000 89056 99096
AAXX 01064 16627 11560 80111 10058 21018 30178 40182 52026 60002 702// 8312/ 333 20052 31/// 50100 55000 70053 83830 88457 90730 91119 555 10000 30058 20000 89069 99097 30000 10044 20046 30054 40060 50074 6//// 40000 47659 44175 50000 50030
AAXX 01064 16667 12560 43516 10096 20057 30127 40133 52011 60002 84800 333 20088 31/// 55000 70140 82820 84630 90730 91127 555 10000 30108 20000 89078 99095 30000 20070 30080 40000 47624 44190 50000 50078
AAXX 01064 16675 NIL
AAXX 01064 16710 36/// /9901 11029 21033 39399 40204 52025 333 21033 90730 91104 555 10000 30041 20000 89058 99///
AAXX 01064 16723 12460 63310 10100 20066 30087 40103 52020 60072 85850 333 20100 31/// 55/// 70209 82818 85625 90730 91120 555 10000 30110 20000 89074 99092 40000 47598 44215 50000 50084 60000 60069 60220
AAXX 01064 16738 NIL
AAXX 01064 16746 11560 73608 10102 20064 39965 40149 53026 60132 70262 87800 333 20088 31/// 55022 70219 82820 87630 90730 91117 555 10000 30104 20000 89079 99097 40000 47501 44175 50000 50084 60000 60131 60445 70000 77/// 7R///
AAXX 01061 14241 11230 81401 11004 21008 30075 40210 53007 60002 71042 8167/ 333 21009 31///
AAXX 01061 14284 NIL
AAXX 01061 14307 32982 10703 10042 21004 30127 40206 53004 81030 333 21011 30///
AAXX 01061 14317 NIL
AAXX 01061 14431 12970 51202 10000 21033 30112 40209 53004 60002 85030 333 21014 30///
AAXX 01061 14444 33970 53401 10041 21049 30179 40209 52005 83032 333 20015 30///
AAXX 01061 14474 12981 00109 10039 21132 30010 40206 53014 60002 333 20027 31///
AAXX 01064 64500 32360 81810 10249 20230 30105 40118 885// 333 02500 20241 50521 55089 59007 84608 88633
AAXX 01064 64501 32358 80000 10250 20236 3//// 4//// 885// 333 0//00 20249 50264 55087 5//// 83608 88626
AAXX 01064 64550 32358 8//// 10230 20212 30/// 40/// 885// 333 0//00 20225 50214 55/// 5//// 84608 88623
AAXX 01064 64551 31240 60000 10226 20224 30100 40129 71022 83530 333 0//00 20201 50044 55/// 59008 82705 83610 86362
AAXX 01064 64556 32460 8//// 10221 20218 39543 40137 885// 333 0//00 20218 50014 55009 59009 88610
AAXX 01064 64570 32460 41601 10225 20223 39633 40143 83530 333 02100 20223 50184 55/// 58009 83610 83361
AAXX 01064 16643 12560 20207 10050 21022 30169 40174 52020 60002 82200 333 20050 30/// 70000 90730 91113 555 10000 30210 20000 89064 99091 40000 47660 44230 50000 50024
AAXX 01064 16648 12560 30000 10020 21020 30099 40193 52019 60002 81130 333 20016 31/// 50000 55000 70000 81830 83358 90730 91110 555 10000 30054 20000 89069 99097 30000 10052 2//// 30052 40050 5//// 6//// 40000 47605 44210 50000 50006
AAXX 01064 16650 11360 70617 10066 20027 30160 40165 52029 69912 76062 86670 333 20066 31/// 55020 70133 82708 86620 87358 90730 91128 555 10000 30076 20000 89076 99092 30000 10060 20066 30076 40070 50098 60118 40000 47651 44220 50000 50050 60000 60001 60155 70000 77R// 7R///
AAXX 01064 16684 12460 80314 10090 20045 30126 40154 52031 60002 886// 333 20090 30/// 55018 70000 82712 88625 90730 91126 555 10000 30100 20000 89065 99082 40000 47625 44210 50000 50070
AAXX 01064 16732 11465 73525 10118 20058 30120 40133 52033 60002 702// 87800 333 20104 31/// 55016 70144 83818 87625 90730 91139 555 10000 30122 20000 89063 99094 40000 47615 44150 50000 50090
AAXX 01061 01152 16/// /1014 11004 21077 39905 49921 56019 6//// 333 21049 91123
AAXX 01063 04013 42589 81409 10005 21003 49591 52015 82220 555 3//13
AAXX 01063 04064 42410 80502 10002 20002 49623 54000 70282 8492/ 555 3//05
BBXX 44060 01061 99413 70721 46/// ///03 10065 40157 51018 90600 22200 00091 333 91204 555 11031 22031
BBXX 44022 01061 99409 70737 46/// ///03 10076 20042 40172 51019 90600 22200 00070 333 91204 555 11031 22036
BBXX 44039 01061 99411 70727 46/// /2804 10078 20063 40171 90545 22200 00083 1//00 70001 333 91206
AAXX 01064 96449 11465 72203 10271 20257 30073 40092 60301 72186 83963 333 83814 81915 86365
AAXX 01064 68240 12960 00506 10234 20170 48520 52014 69954 333 20176
AAXX 01061 26242 01472 72501 11026 21036 30021 40110 52008 69922 77772 86530 333 11018 21029 47001 60007 86611 555 1/101 21029 3/102 51017 52106
AAXX 01061 26106 32/97 62302 11010 21046 40131 52009 83530 333 21012
AAXX 01061 26313 32/97 52303 11013 21039 40120 52008 85900 333 21016
AAXX 01061 26346 32497 70000 11035 21036 40120 52008 84640 333 21045 47001 84713 93501
AAXX 01061 26406 32697 61401 11012 21024 40125 57001 85502 333 21024 85637
AAXX 01061 26416 33/// /1601 11048 21057 40135 52004 333 21052
AAXX 01061 26424 32997 12402 11040 21052 40133 52005 81040 333 21041
AAXX 01061 26544 31696 22401 11047 21056 40139 52012 71011 82530 333 21048 47002
AAXX 01061 11423 01/02 92607 10008 20007 39269 42764 52003 60022 751// 333 21011 3/102 44011 69915 70030 89/01
AAXX 01064 17022 11556 89901 10076 20064 39960 40125 52020 69982 76086 8552/ 333 20076 32008 55002 70008 85626 88458 91107 92416
AAXX 01064 17031 12670 70901 10099 20008 30106 40112 52009 60002 84250 333 20075 30006 84836 87360
AAXX 01064 17038 12970 52904 10116 20003 30076 40126 52009 60002 85030 333 20101 30005 55046 20645 85360 92428
AAXX 01064 17050 12670 73302 10033 20006 30130 40194 52024 69992 85520 333 20021 32002 55000 70098 85635 87460 91113
AAXX 01064 17060 11460 73617 10066 20049 30114 40154 52029 60042 72588 85270 333 20057 32006 50131 55000 2000 4 70050 82713 84830 87359
AAXX 01064 17096 11557 71602 11054 21054 38215 48489 53007 69922 70272 85550 333 21069 3/107 47013 50044 55027 20193 70002 85620 87357 93104
AAXX 01064 17124 11557 70000 10022 20015 39191 40119 52019 60072 76077 86520 333 20019 32001 50064 55012 20435 70076 86630 87459 93100
AAXX 01064 17128 11360 80204 10003 20003 39020 40142 53010 60052 77122 8652/ 333 20000 3/000 43001 50054 55008 20088 70054 82709 85625 88458 93101
AAXX 01064 17170 NIL
AAXX 01064 17195 11640 50703 10017 21014 38904 48426 52006 60002 71022 84550 333 21031 3/105 45998 50024 55021 20657 84640 85360
AAXX 01064 17199 11456 81901 10018 20014 39082 40201 52008 60002 71022 8662/ 333 20010 32000 55000 20209 70003 83714 84635 88459
AAXX 01064 17219 11565 53618 10069 20032 39965 40111 53025 60062 70282 83230 333 20068 32005 55001 20104 70138 83830 85360 91124
AAXX 01064 17240 11560 72201 10017 21001 38934 40089 52012 60072 76877 85570 333 20016 32002 55007 20410 70068 85630 87360 91116
AAXX 01064 17244 11570 71807 10037 20015 38904 48407 53001 69902 72162 84520 333 20003 32/// 55/// 2//// 70001 84630 87459
AAXX 01064 17280 11416 72601 10042 20038 39398 40202 52010 60002 71022 87700 333 20039 32004 50111 55006 2010 0 70006 83715 85635
AAXX 01064 17350 11560 70613 10084 20080 30067 40146 53003 60032 78082 85250 333 20080 32/// 70026 85830 87360
AAXX 01061 13160 31996 41601 11040 21045 30114 40228 52012 71010 84030 333 21045 34106 55070 70000
AAXX 01061 13262 32998 00000 11040 21051 30083 40240 52012 333 21040 34110 55024 70000
AAXX 01061 13272 31958 01802 11011 21034 30109 40234 52014 71000 333 21018 34108 55043
AAXX 01061 13285 31594 80000 11005 21012 30123 40229 52015 71022 886// 333 21035 34104 55000 70000
AAXX 01061 13289 31198 33108 11052 21061 38975 48464 51012 72842 83600 333 21052 3/106 47004 55000 70000 91111
AAXX 01061 13376 32897 42601 11007 21025 39975 40249 53016 84030 333 21009 34103 55000 70002
AAXX 01061 13388 32697 60501 11013 21022 39980 40239 53015 86500 333 21018 34105 55000 70000
AAXX 01061 13462 32970 03503 10008 21093 30178 40219 52015 333 20006 30104 55///
AAXX 01061 13473 NIL
AAXX 01061 13489 32597 70802 10004 21022 39699 40236 53010 87600 333 20002 31101 55000 70000
AAXX 01061 12120 12970 01703 11017 21028 30117 40125 56004 60002 333 11006 21034 34107 55064 93000
AAXX 01061 12250 12561 11402 11010 21020 30056 40147 57006 60002 81500 333 10002 21040 34107 55043 79999 93000
AAXX 01061 12295 11950 00000 11063 21064 39978 40172 52007 60002 71011 333 11011 21063 3/110 43997 70012 93000
AAXX 01061 12330 12660 71702 11008 21014 30026 40137 56004 60002 875// 333 10004 21021 34104 55003 79999 93000
AAXX 01061 12375 11007 71501 11005 21005 30038 40173 53003 60002 74244 876// 333 10002 21052 34106 70010 87701 93000
AAXX 01061 12424 12565 81302 10004 21005 39990 40146 54000 60002 875// 333 10004 21033 34107 55003 79999 93000
AAXX 01061 12160 11430 71503 11012 21012 30093 40147 58002 69912 71042 875// 333 11012 21035 34105 55038 70005 93091
AAXX 01061 12205 11458 71603 10019 20012 30097 40105 57006 60002 71011 875// 333 10022 20002 31101 93000
AAXX 01061 12465 11011 51003 11031 21031 39923 40166 58002 60002 72842 85600 333 10013 21032 34106 55/// 20097 79999 85701 93000
AAXX 01061 12566 11940 20501 11067 21072 39880 40191 53002 60002 71040 82050 333 10006 21073 3/108 41998 70002 93000
AAXX 01061 12105 12960 01504 11006 21017 30069 40113 58010 60002 333 10009 21011 34102 55033 93000
AAXX 01061 12195 11557 62503 11018 21018 39927 40162 52006 60002 71022 865// 333 11005 21054 3/109 44004 55011 70002 93000
AAXX 01061 12235 12560 21604 11008 21015 39919 40135 55004 60002 82500 333 10000 21010 31103 55058 93000
AAXX 01061 12270 11433 31901 11038 21041 39973 40163 55002 60002 71041 82501 333 11023 21060 3/106 42002 93000
AAXX 01061 12280 11556 21903 11030 21031 30000 40163 53003 60002 71000 81530 333 11002 21031 34107 55009 79999 93000
AAXX 01061 12300 11112 81803 10003 20003 30027 40119 57005 69902 75111 886// 333 10014 21007 31101 79999 93097
AAXX 01061 12400 11/04 91502 10002 20001 39888 40129 57003 69902 75142 333 10004 21012 34103 55009 79999 93097
AAXX 01061 12435 11950 51504 11019 21033 39973 40151 57005 60002 71011 85050 333 10004 21023 34105 93000
AAXX 01061 12495 11232 82001 11002 21005 39883 40184 52006 69922 72282 886// 333 10012 21002 3/001 41998 70015 93091
AAXX 01061 12530 11958 71502 11001 21015 39953 40158 56002 60002 71011 8703/ 333 10022 21032 34106 79999 93000
AAXX 01061 12570 11614 60901 11023 21024 39854 40184 50002 69902 71041 86500 333 10008 21026 3/105 42001 70003 93000
AAXX 01061 12580 11760 71903 11004 21017 39928 40196 52008 69912 70172 875// 333 10013 21006 3/103 43997 70003 93091
AAXX 01064 06030 01240 81713 10050 20042 39962 49978 57034 60032 76022 887// 333 10050 20015 60037 70028 83705 87707
AAXX 01064 06060 01156 82008 10067 20065 39922 49986 57024 60052 76062 887// 333 10068 20020 32001 60057 70055 83703 86706
AAXX 01064 06070 07150 81611 10049 20038 39974 40004 57033 60042 76166 333 10049 20023 3/002 60047 70038 83/02 88/04 91122
AAXX 01064 06120 36147 71812 10055 20054 39992 40018 57026 333 10056 20020 3/001 83/03 85/05 87/08
AAXX 01064 06180 01258 81715 10039 20030 30046 40053 57020 69922 72022 886// 333 10039 20018 31002 69927 70004 88705
AAXX 01064 06193 07561 81806 10026 20015 30074 40086 57013 6///2 70010 333 10031 20018 55300 20000 6///7 70001 81/28 83/44 88/59
AAXX 01064 06011 07544 52417 10055 20024 39663 49729 52001 60082 76186 333 10068 20042 55300 20000 60037 70189 81/20 83/30 85/39 91028 91139
AAXX 01064 71114 160// /0909 10007 21016 30247 40296 56007 60001 333 10062 20003 70010 555 32532 40072
AAXX 01064 71120 11574 13010 11083 21130 39604 40281 53035 69901 73681 81500 333 11038 21085 44008 70008 90960 555 10008 20008 33128 40231
AAXX 01064 71122 16/// /2003 11126 21172 38676 40337 51025 60001 333 7////
AAXX 01064 71123 12974 02004 11167 21226 39424 40327 53023 60001 333 11034 21171 70006 555 10008 20006 33133 40211
AAXX 01064 71125 NIL
AAXX 01064 71129 12774 22813 11094 21147 39434 40291 52027 60001 82500 333 11031 21094 70000 555 10000 20000 32923 40200
AAXX 01064 71131 16/// /2812 11087 21109 39009 40303 53020 60001 333 11026 21093 70000 555 33230 40172
AAXX 01064 71135 16/// /3218 11069 21145 39161 40275 51018 60001 333 10011 21071 70000 555 33437 40193
AAXX 01064 71137 NIL
AAXX 01064 71140 11574 82919 11038 21066 39648 40156 5/015 60001 73622 885// 333 11020 21086 70000 555 10000 20000 32734 40041
AAXX 01064 71145 11262 83508 11071 21080 39742 40038 51019 69941 77165 885// 333 11056 21081 48037 70010 90983 555 10010 20010
AAXX 01064 71148 NIL
AAXX 01064 71185 17416 80406 11038 30141 40165 56045 60001 745// 333 11038 21064 70000 555 32719 40181
AAXX 01064 71188 NIL
AAXX 01064 71200 16/// /0505 10040 21011 60001 333 10052 20021 70002 555 32431 40072
AAXX 01064 71207 16/// /3404 11002 21008 30219 40285 50002 60001 333 10027 21018 70000
AAXX 01064 71260 13/// ///// 10005 21005 39853 40090 58036 60001 333 10023 21100 70000 555 10000 20000
AAXX 01064 71744 NIL
AAXX 01064 71750 16/// /2008 10024 20009 39813 40046 58026 60001 333 10026 21068 70000 555 31923 40061
AAXX 01064 71751 NIL
AAXX 01064 71752 NIL
AAXX 01064 71753 17/// /0403 10074 20069 39983 40012 58040 60151 7//4/ 333 10107 21069 70271 555 30918 40201
AAXX 01064 71754 16/// /3114 11061 21118 39584 40266 53037 60001 333 11032 21077 70000 555 32936 40203
AAXX 01064 71755 43/// /3102 11046 21054 39665 40010 55001 6///1 333 11046 21104 7////
AAXX 01064 71756 16/// /1101 11061 21074 39160 40282 51006 60001 333 11028 21064 70000
AAXX 01064 71758 NIL
AAXX 01064 71760 NIL
AAXX 01064 71761 NIL
AAXX 01064 71762 NIL
AAXX 01064 71763 NIL
AAXX 01064 71765 16/// /0000 11020 21056 30030 40312 55001 60001 333 10038 21021 70000 555 31726 40141
AAXX 01064 71766 16/// /1604 10031 21010 30187 40260 55002 60001 333 10051 21034 70000
AAXX 01064 71767 16/// /1806 10019 21003 39870 40132 58028 60001 333 10021 21025 70000 555 30317 40091
AAXX 01064 71768 46/// /2906 11032 21085 39766 40330 53005 6///1 333 10046 21032 7////
AAXX 01064 71769 16/// /1307 10044 20003 30238 40254 53003 60001 333 10058 20028 70000 555 31025 40031
AAXX 01064 71770 NIL
AAXX 01064 71771 NIL
AAXX 01064 71772 16/// /1708 10045 20011 30250 40256 55000 60001 333 10057 20025 70000 555 31120 40021
AAXX 01064 71773 16/// /1906 11111 21132 39295 40178 58001 60001 333 11101 21204 70000
AAXX 01064 71774 46/// ///// 10009 6///1 333 10023 21006 7////
AAXX 01064 71775 16/// /1801 10008 21007 30266 40272 56005 60001 333 10045 21015 70000
AAXX 01064 71776 46/// /1302 11029 21076 39683 40343 51013 6///1 333 10043 21039 7//// 555 32921 40131
AAXX 01064 71777 16/// ///// 11031 21034 30051 40310 53005 60001 333 11006 21042 70000 555 10020
AAXX 01064 71778 46/// /0220 6///1 333 7//// 555 32534 40103
AAXX 01064 71779 16/// /3602 11145 21159 39625 40320 54000 60001 333 11049 21184 70000
AAXX 01064 71780 16/// /0707 10044 21012 30224 40252 56008 60001 333 10060 20018 70010 555 32842 40073
AAXX 01064 71781 46/// /1414 10052 20002 30230 40255 53004 6///1 333 10057 20038 7//// 555 31228 40012
AAXX 01064 71782 46/// /0104 11114 21130 38972 40344 53018 6///1 333 11004 21114 7//// 555 31922 40201
AAXX 01064 71783 16/// /0502 10041 21015 30180 40255 55004 60001 333 10055 20008 70000 555 32220 40071
AAXX 01064 71784 16/// /3401 10015 21028 30053 40261 55001 60001 333 10042 21002 70000
AAXX 01064 71785 16/// /0502 10026 21016 30259 40275 55001 60001 333 10067 20014 70000
AAXX 01064 71786 46/// /2803 11151 21170 38455 40363 51022 6///1 333 11057 21151 7////
AAXX 01064 71787 16/// /3210 11007 21007 39561 40047 56017 60001 333 10049 21077 70033 555 33217 40061
AAXX 01064 71788 NIL
AAXX 01064 71789 NIL
AAXX 01064 71791 NIL
AAXX 01064 71792 NIL
AAXX 01064 71793 NIL
AAXX 01064 71794 NIL
AAXX 01064 71795 NIL
AAXX 01064 71796 NIL
AAXX 01064 71797 NIL
AAXX 01064 71350 17/// /3002 10042 20038 39952 40017 58036 60091 7//4/ 333 10051 21099 70196 555 31317 40201
AAXX 01064 71351 NIL
AAXX 01064 71352 NIL
AAXX 01064 71353 NIL
AAXX 01064 71354 NIL
AAXX 01064 71355 16/// /2702 11309 21342 30003 40092 50008 60001 333 11280 21327 70000 555 10010
AAXX 01064 71356 16/// /3319 11308 21342 30108 40178 52023 60001 333 11207 21312 70000 555 33430 40002
AAXX 01064 71357 NIL
AAXX 01064 71358 NIL
AAXX 01064 71359 NIL
AAXX 01064 71360 NIL
AAXX 01064 71361 NIL
AAXX 01064 71362 NIL
AAXX 01064 71363 NIL
AAXX 01064 71364 NIL
AAXX 01064 71365 NIL
AAXX 01064 71368 15361 81704 10011 21001 39772 40164 58013 60001 333 10024 20005 70003
AAXX 01064 71369 15966 00802 11105 21143 39565 40294 51018 60001 333 11035 21119 70000
AAXX 01064 71370 46/// /0000 11038 21051 30018 40156 51004 6///1 333 11028 21075 7////
AAXX 01064 71371 16461 82403 11017 30133 40168 51004 60001 333 11016 21078 70003
AAXX 01064 71372 NIL
AAXX 01064 71373 16/// /2602 11028 21040 60001 333 10045 21048 70012
AAXX 01064 71374 NIL
AAXX 01064 71375 NIL
AAXX 01064 71376 NIL
AAXX 01064 71377 16/// /2403 11017 21027 30117 40166 50001 60001 333 11017 21082 70000
AAXX 01064 71378 17/// /3503 11090 21119 39957 40172 50000 60011 7//4/ 333 11079 21152 70030
AAXX 01064 71379 16/// /2905 11091 21112 39985 40161 51001 60001 333 11090 21240 70012
AAXX 01064 71380 NIL
AAXX 01064 71381 NIL
AAXX 01064 71382 NIL
AAXX 01064 71383 NIL
AAXX 01064 71384 16/// /3401 11041 21049 30149 40157 58001 60001 333 11037 21066 70040 555 33518 40141
AAXX 01064 71385 NIL
AAXX 01064 71386 17/// /3308 11043 21055 39919 40129 57005 60011 7//4/ 333 11042 21196 70100
AAXX 01064 71387 NIL
AAXX 01064 71388 46/// /1302 11115 21135 39978 40171 58006 6///1 333 11064 21198 7////
AAXX 01064 71389 46/// /2401 11039 21052 6///1 333 11021 21067 7//// 555 30819 40101
AAXX 01064 71390 46/// /3607 11039 6///1 333 11039 21127 7////
AAXX 01064 71391 16/// ///// 11028 21034 60001 333 11020 21086 70027
AAXX 01064 71392 16/// /1202 11041 21050 60001 333 11038 21073 70022 555 30823 40141
AAXX 01064 71393 NIL
AAXX 01064 71395 11/08 90000 10077 20077 39846 40022 57038 60061 78064 333 10095 21043 70316 90983 555 19999 29999 31327 40181
AAXX 01064 71398 15966 81606 11073 21080 30092 40104 58019 60001 333 11064 21246 70000
AAXX 01064 71399 NIL
AAXX 01064 71893 11680 81209 10045 21021 30233 40265 50000 69901 70282 8257/ 333 10050 21019 79999 90930 555 10000 20000 31322 40021
AAXX 01064 71102 NIL
AAXX 01064 71105 NIL
AAXX 01064 71107 NIL
AAXX 01064 71110 NIL
AAXX 01064 71111 17428 81439 10052 20042 30085 40093 56017 60151 76144 333 10053 21045
AAXX 01064 71112 16/// ///// 60001 333 70000
AAXX 01064 71113 16/// /3406 10039 21030 30251 40275 56009 60001 333 10067 20009 70020
AAXX 01064 71115 16/// /1006 11029 21056 39729 40327 53006 60001 333 10050 21033 70000 555 33117 40071
AAXX 01064 71116 16/// /0802 11088 21107 39200 40331 53028 60001 333 10023 21098 70000 555 32928 40112
AAXX 01064 71118 16/// /2913 11100 21160 39448 40302 53030 60001 333 11037 21111 70000 555 33033 40222
AAXX 01064 71121 16964 02506 11114 21197 39460 40313 51023 60001 333 11035 21121 70000 555 32932 40192
AAXX 01064 71127 16/// /2204 11108 21171 39370 40321 51021 60001 333 11030 21111 70000 555 33035 40193
AAXX 01064 71130 15566 62914 11081 21107 39736 40204 53041 60001 333 11020 21081 70000
AAXX 01064 71132 17466 82709 11121 21137 39884 40206 53023 60001 771// 333 11101 21133 70000
AAXX 01064 71133 46/// /3211 11076 21110 39510 40234 53035 6///1 333 11031 21081 7//// 555 33129 40022
AAXX 01064 71139 17/// /3106 11089 21128 38793 40296 53019 69941 7//4/ 333 11003 21090 70019 555 32924 40181
AAXX 01064 71141 NIL
AAXX 01064 71142 15966 02816 11082 21121 39288 40286 53023 60001 333 10004 21082 70000
AAXX 01064 71143 NIL
AAXX 01064 71144 NIL
AAXX 01064 71147 16/// /3014 11014 21057 60001 333 10022 21052 70000 555 33029 40222
AAXX 01064 71149 16/// /3113 11029 21071 60001 333 10019 21060 70000 555 32736 40003
AAXX 01064 71150 NIL
AAXX 01064 71151 NIL
AAXX 01064 71152 17/// /1025 10017 20002 30130 40143 56057 60031 7//4/ 333 10017 21018 70027 555 31033 40062
AAXX 01064 71153 NIL
AAXX 01064 71154 16/// /2314 11048 21133 60001 333 10003 21049 70000 555 32445 40083
AAXX 01064 71155 NIL
AAXX 01064 71156 NIL
AAXX 01064 71157 46/// ///// 11088 21150 6///1 333 11030 21090 7////
AAXX 01064 71158 NIL
AAXX 01064 71159 NIL
AAXX 01064 71160 NIL
AAXX 01064 71161 16/// /2902 11031 21045 30020 40171 50004 60001 333 11015 21076 70000
AAXX 01064 71162 NIL
AAXX 01064 71163 46/// /2701 11167 21181 39856 40211 52021 6///1 333 11156 21167 7////
AAXX 01064 71164 NIL
AAXX 01064 71165 NIL
AAXX 01064 71166 NIL
AAXX 01064 71167 15966 02705 11179 21236 39185 40331 53016 60001 333 11014 21187 70000
AAXX 01064 71168 16/// /3315 11012 21036 39576 40164 53039 60001 333 10033 21016 70013 555 33333 40062
AAXX 01064 71170 16/// /3020 11029 21062 60001 333 11010 21042 70000 555 33237 40063
AAXX 01064 71171 16/// /1803 10033 20015 30066 40163 58012 60001 333 10064 20031 70000
AAXX 01064 71172 16/// ///// 11025 21033 39926 40146 58016 60001 333 11008 21035 70006
AAXX 01064 71175 NIL
AAXX 01064 71176 460// /2318 11169 39396 40100 58018 6///1 333 11165 21208 7//// 555 32555 40083
AAXX 01064 71177 460// /2404 11127 39090 40115 58005 6///1 333 11123 21206 7//// 555 32128 40072
AAXX 01064 71178 16/// /1504 11020 21048 30184 40216 56032 60001 333 11015 21039 70000 555 32931 40092
AAXX 01064 71179 460// /2604 11138 39298 40150 56019 6///1 333 11138 21204 7//// 555 32629 40132
AAXX 01064 71180 17/// /1236 10028 20010 30039 40078 58054 60041 7//4/ 333 10045 21020 70052 555 31358 40043
AAXX 01064 71181 16364 61214 10016 21004 30118 40155 56059 60001 333 10016 21022 70000
AAXX 01064 71183 NIL
AAXX 01064 71184 46/// /1302 11017 21035 6///1 333 11014 21069 7////
AAXX 01064 71186 NIL
AAXX 01064 71187 15966 61009 10006 21008 30247 40296 56007 60001 333 10061 20003 70000
AAXX 01064 71189 NIL
AAXX 01064 71190 NIL
AAXX 01064 71191 16/// ///// 10028 20019 60001 333 10042 21059 70068
AAXX 01064 71192 15962 03302 11141 21150 39629 40328 55000 60001 333 11050 21178 70000
AAXX 01064 71193 16/// /1507 11074 21078 39743 40112 58028 60001 333 11074 21129 70000
AAXX 01064 71196 NIL
AAXX 01064 71197 17259 80923 10015 20014 30059 40109 58069 60101 74344 333 10015 21021 70105 555 30134 40063
AAXX 01064 71198 46/// /1102 11018 21037 6///1 333 11017 21061 7//// 555 30421 40121
AAXX 01064 71199 46/// /2901 11272 21301 39375 40271 53007 6///1 333 11256 21354 7////
AAXX 01064 71864 NIL
AAXX 01064 71865 16/// /3113 11064 21089 39508 40201 53029 60001 333 10004 21064 70000 555 32928 40212
AAXX 01064 71866 47564 83115 11053 21108 39618 40246 53038 6///1 745// 333 11026 21100 7//// 555 33029 40232
AAXX 01064 71867 NIL
AAXX 01064 71868 NIL
AAXX 01064 71869 11574 63307 11080 21111 39688 40225 52039 69901 77177 82571 333 11022 21083 47011 70004 90973 555 10004 20004
AAXX 01064 71871 15966 02916 11095 21149 39454 40288 53036 60001 333 11044 21099 70000
AAXX 01064 71877 12974 00000 11132 21164 39022 40345 53023 60001 333 10022 21133 70000 555 10000 20000 33424 40111
AAXX 01064 71878 12974 02506 11158 21234 39220 40344 52019 60001 333 11020 21195 79999 555 19999 29999 33118 40140
AAXX 01064 71879 16964 02406 11086 21167 39482 40313 51023 60001 333 11028 21089 70005 555 32933 40202
AAXX 01064 71880 12982 42304 11079 21111 39205 40345 52017 60001 80001 333 10002 21081 70000 555 10000 20000
AAXX 01064 71882 160// /3404 11044 21062 39804 40360 53017 60001 333 10019 21044 70000 555 30120 40111
AAXX 01064 71883 46/// /0000 11165 21181 39520 40383 53014 6///1 333 10013 21165 7//// 555 30521 40071
AAXX 01064 71887 12986 81107 11022 21082 39899 40334 53006 60001 80001 333 10043 21048 79999 555 19999 29999 32722 40080
AAXX 01064 71889 12974 80000 11033 21075 39903 40333 53007 60001 8807/ 333 10063 21044 70000 555 10000 20000
AAXX 01064 71891 16964 00000 11018 21056 30032 40314 55001 60001 333 10039 21019 70000 555 31828 40082
AAXX 01064 71892 12680 80000 10026 21019 30267 40272 55000 60001 82571 333 10049 21010 70000 555 10000 20000
AAXX 01064 71500 NIL
AAXX 01064 71501 NIL
AAXX 01064 71502 NIL
AAXX 01064 71503 NIL
AAXX 01064 71504 NIL
AAXX 01064 71505 46/// /2001 11214 21238 39415 40163 50002 6///1 333 11055 21227 7////
AAXX 01064 71506 NIL
AAXX 01064 71507 NIL
AAXX 01064 71508 16/// ///// 10031 20001 30033 40172 58012 60001 333 10044 20015 70021
AAXX 01064 71509 NIL
AAXX 01064 71511 NIL
AAXX 01064 71512 NIL
AAXX 01064 71513 17/12 /0516 11079 21087 30138 40154 56024 60031 7714/ 333 11078 21187 70038
AAXX 01064 71514 NIL
AAXX 01064 71515 NIL
AAXX 01064 71516 16/// /3017 11059 21139 60001 333 10024 21059 70000 555 33136 40223
AAXX 01064 71517 NIL
AAXX 01064 71518 NIL
AAXX 01064 71519 NIL
AAXX 01064 71520 NIL
AAXX 01064 71521 NIL
AAXX 01064 71522 NIL
AAXX 01064 71523 NIL
AAXX 01064 71524 16/// /1401 11024 21040 30149 40176 50003 60001 333 11022 21086 70010
AAXX 01064 71525 NIL
AAXX 01064 71526 NIL
AAXX 01064 71527 15466 82811 11028 21047 39551 40059 51007 60001 333 11021 21095 70005
AAXX 01064 71528 NIL
AAXX 01064 71529 46/// /0803 11192 21217 39978 40215 53011 6///1 333 11172 21263 7////
AAXX 01064 71532 17459 81903 11017 21017 39815 40163 58007 60001 710// 333 11001 21026 70000
AAXX 01064 71534 16464 81605 10007 21005 39888 40162 58017 60001 333 10009 21014 70045
AAXX 01064 71535 NIL
AAXX 01064 71536 NIL
AAXX 01064 71537 NIL
AAXX 01064 71539 NIL
AAXX 01064 71540 NIL
AAXX 01064 71541 NIL
AAXX 01064 71542 16/// /2513 11090 21140 60001 333 11079 21159 70004 555 32518 40221
AAXX 01064 71543 NIL
AAXX 01064 71544 NIL
AAXX 01064 71545 16/// ///// 11099 21156 60001 333 11032 21108 70000
AAXX 01064 71546 NIL
AAXX 01064 71547 NIL
AAXX 01064 71548 NIL
AAXX 01064 71549 NIL
AAXX 01064 71201 16/// ///// 10043 21022 60001 333 10051 20021 70000
AAXX 01064 71202 17/// ///// 11110 21164 69961 7//4/ 333 11033 21124 70014
AAXX 01064 71203 15966 61902 11043 21065 39798 40336 53007 60001 333 10046 21075 70000
AAXX 01064 71209 46/// /1205 10031 6///1 333 10061 20022 7////
AAXX 01064 71211 46/// /0431 10035 21008 30248 40260 55009 6///1 333 10051 20026 7//// 555 30339 40063
AAXX 01064 71212 16/// /1101 11030 21035 39318 40126 50000 60001 333 11016 21105 70023 555 10010 20023
AAXX 01064 71213 46/// /1405 11070 21073 39835 40142 58019 6///1 333 11070 21111 7////
AAXX 01064 71214 NIL
AAXX 01064 71215 46/// /0000 11027 21063 39975 40330 53010 6///1 333 10053 21039 7//// 555 33219 40101
AAXX 01064 71216 16/// /0403 11034 21048 39705 40338 51015 60001 333 10035 21044 70010
AAXX 01064 71217 NIL
AAXX 01064 71218 16/// /1801 11041 21054 39894 40334 53005 60001 333 10039 21044 70000 555 33018 40091
AAXX 01064 71219 46/// /0922 10000 21020 30138 40144 58016 6///1 333 10019 21021 7//// 555 31036 40043
AAXX 01064 71220 46/// /1123 10009 21004 6///1 333 10029 21004 7////
AAXX 01064 71221 NIL
AAXX 01064 71222 16/// /0604 11178 21195 39232 40248 56005 60001 333 11166 21268 70000
AAXX 01064 71223 NIL
AAXX 01064 71224 NIL
AAXX 01064 71225 NIL
AAXX 01064 71226 NIL
AAXX 01064 71227 NIL
AAXX 01064 71228 NIL
AAXX 01064 71229 NIL
AAXX 01064 71230 16/// /1902 11116 21184 39374 40299 53009 60001 333 11049 21128 70000 555 32424 40111
AAXX 01064 71231 16/// /2902 11093 21110 60001 333 10017 21095 70000 555 33233 40142
AAXX 01064 71232 16/// /2507 11070 21174 38763 40303 53019 60001 333 10006 21073 70000 555 32727 40071
AAXX 01064 71233 NIL
AAXX 01064 71234 16/// /3202 11072 21080 39103 40328 51028 60001 333 10011 21099 70000 555 33022 40071
AAXX 01064 71235 16/// /2003 11114 21157 60001 333 10000 21121 70000 555 32925 40081
AAXX 01064 71236 46/// /2701 11071 21141 6///1 333 11005 21071 7//// 555 32834 40213
AAXX 01064 71237 46/// /0000 11160 21173 39483 40333 52026 6///1 333 10011 21162 7////
AAXX 01064 71238 16/// /2703 11139 21172 60001 333 11032 21142 70000 555 33021 40211
AAXX 01064 71239 16/// /3019 11026 21064 39674 40136 51004 60001 333 10005 21039 70000 555 32936 40033
AAXX 01064 71240 16/// ///// 11114 21166 39433 40311 53025 60001 333 11015 21121 70000
AAXX 01064 71241 NIL
AAXX 01064 71242 17/// /0204 11163 21205 69941 7//4/ 333 11024 21170 70004 555 10010 20004 33319 40121
AAXX 01064 71243 NIL
AAXX 01064 71244 16/// /2805 11099 21129 39052 40320 53025 60001 333 10005 21099 70000 555 32924 40231
AAXX 01064 71245 NIL
AAXX 01064 71246 NIL
AAXX 01064 71247 17106 32805 11120 21128 39450 40336 53028 69931 735// 333 10002 21120 70013
AAXX 01064 71248 16/// /0000 11208 21237 38977 40344 52019 60001 333 11024 21210 70000 555 30024 40101
AAXX 01064 71249 NIL
AAXX 01064 71043 11583 50000 11344 21396 30146 40248 52013 69901 77677 82570 333 11300 21366 48034 79999 90983 555 19999 29999
AAXX 01064 71045 16/// /0202 11208 21229 39320 40226 53010 60001 333 11124 21269 70006 555 10010 20006
AAXX 01064 71050 46/// /2502 11123 21139 39171 40295 56001 6///1 333 11066 21179 7////
AAXX 01064 71051 NIL
AAXX 01064 71052 NIL
AAXX 01064 71066 12974 00000 11154 21187 39811 40248 53017 60001 333 11090 21182 70020 555 10038 20020
AAXX 01064 71068 12974 02712 11100 21165 39565 40282 51010 60001 333 11055 21131 70004 555 10008 20004 32819 40190
AAXX 01064 71069 16964 00702 11114 21141 39566 40295 51018 60001 333 11034 21122 70000 555 32937 40223
AAXX 01064 71076 16/// /2603 11148 21163 39811 40217 52020 60001 333 11099 21148 70000
AAXX 01064 71077 16/// /2303 11125 21138 39697 40255 53018 60001 333 11057 21129 70006 555 10030 20006 33317 40021
AAXX 01064 71079 11548 83211 11116 21133 39827 40112 52033 60011 77177 885// 333 11056 21117 48011 70034 90983 93101 555 10042 20034
AAXX 01064 71081 46964 03114 11361 21404 30081 40094 50001 6///1 333 11295 21362 7//// 555 33219 40211
AAXX 01064 71082 NIL
AAXX 01064 71083 11732 53515 11207 21242 30080 40123 52011 69901 77177 85500 333 11159 21207 48058 70002 90983 555 10002 20002 33520 40041
AAXX 01064 71090 46961 02903 11340 21384 30039 40076 50000 6///1 333 11319 21377 7////
AAXX 01064 71091 460// /3608 11256 39834 40050 51001 6///1 333 7//// 555 30517 40131
AAXX 01064 71092 46456 81207 11258 39357 40044 58003 6///1 333 7////
AAXX 01064 71093 460// ///// 11239 39533 40044 58002 6///1 333 11233 21248 7////
AAXX 01064 71094 46064 /2207 11254 39093 40019 58004 6///1 333 11246 21258 7//// 555 30118 40161
AAXX 01064 71095 46964 02204 11386 21428 39998 40084 50000 6///1 333 11339 21387 7////
AAXX 01064 71101 160// /1438 30078 57023 60121 333 70165 555 30150 40063
AAXX 01064 71104 12974 01107 11087 21143 39157 40312 53003 60001 333 11039 21139 70000 555 10000 20000
AAXX 01064 71108 12774 80305 10025 21025 30198 40272 53004 60001 8167/ 333 10047 20004 70000 555 10000 20000
AAXX 01064 71109 12874 81122 10043 21002 30174 40201 56006 60001 8807/ 333 10044 21006 70000 555 10034 20034 31130 40061
AAXX 01064 71397 11316 82403 10044 20044 30003 40037 55020 60011 70262 887// 333 10066 21029 70076 90943 555 10000 20000 31218 40160
AAXX 01064 71400 17/02 /0903 11033 21035 60041 7//4/ 333 11020 21120 70038
AAXX 01064 71403 46/// /1614 10068 20064 39989 40009 58048 6///1 333 10078 21013 7//// 555 31531 40022
AAXX 01064 71411 17/// /3302 10077 20076 30009 40021 56029 69961 7//4/ 333 10091 20019 70238 555 31629 40182
AAXX 01064 71412 17/// /1714 10060 20056 30012 40021 56049 60141 7//4/ 333 10062 21080 70245 555 31823 40171
AAXX 01064 71421 NIL
AAXX 01064 71430 16/// /0103 10013 20007 30072 40170 58004 60001 333 10046 21006 70011 555 30717 40091
AAXX 01064 71431 16/// /2902 10016 20012 30066 40163 58007 60001 333 10026 21012 70012 555 31018 40081
AAXX 01064 71432 NIL
AAXX 01064 71433 NIL
AAXX 01064 71435 NIL
AAXX 01064 71441 NIL
AAXX 01064 71443 NIL
AAXX 01064 71444 16/// /2909 11051 21076 39361 40127 52014 60001 333 11029 21075 70000 555 32725 40041
AAXX 01064 71447 NIL
AAXX 01064 71467 16/// /0000 11267 21292 30126 40247 51015 60001 333 11250 21310 70000 555 31017 40081
AAXX 01064 71472 NIL
AAXX 01064 71474 16564 61703 11091 21115 39028 40309 53001 60001 333 11021 21114 70000
AAXX 01064 71510 16/// /3015 11088 21144 39539 40268 53030 60001 333 11032 21100 70000 555 33034 40143
AAXX 01064 71538 12462 81912 10040 20018 39914 40145 58019 60001 885// 333 10063 20034 70002 555 10000 20000 32020 40060
AAXX 01064 71600 171// 81017 10094 20091 30008 40014 58091 60011 74344 333 10094 21009 70015 555 31226 40051
AAXX 01064 71601 NIL
AAXX 01064 71001 15966 03103 11326 21366 39152 40200 58001 60001 333 11310 21386 70000
AAXX 01064 71002 15966 00602 11288 21324 39634 40208 56016 60001 333 11170 21300 70003
AAXX 01064 71003 17361 81001 11162 21176 39759 40156 56014 60001 771// 333 11159 21306 70000
AAXX 01064 71005 NIL
AAXX 01064 71006 NIL
AAXX 01064 71007 NIL
AAXX 01064 71008 NIL
AAXX 01064 71009 NIL
AAXX 01064 71010 NIL
AAXX 01064 71011 NIL
AAXX 01064 71012 NIL
AAXX 01064 71013 NIL
AAXX 01064 71014 NIL
AAXX 01064 71015 NIL
AAXX 01064 71016 NIL
AAXX 01064 71017 NIL
AAXX 01064 71018 NIL
AAXX 01064 71019 NIL
AAXX 01064 71020 NIL
AAXX 01064 71021 NIL
AAXX 01064 71022 17448 81109 10010 21006 30109 40153 57012 60001 771// 333 10023 21029 70000 555 31129 40032
AAXX 01064 71023 16964 03008 11102 21122 39473 40266 53034 60001 333 11051 21104 70025 555 33225 40211
AAXX 01064 71024 16/// /0000 11216 21233 60001 333 11092 21216 70018
AAXX 01064 71026 NIL
AAXX 01064 71027 17/// /0303 10029 20029 30048 40058 58072 60091 7//4/ 333 10030 21054 70159
AAXX 01064 71028 16/// /3602 11100 21111 39222 40300 56003 60001 333 11057 21146 70000
AAXX 01064 71029 NIL
AAXX 01064 71030 17/64 /3412 10016 20015 39965 40054 55000 69971 7//4/ 333 10083 20014 70021
AAXX 01064 71032 46/// /0000 11082 21094 39460 40321 53003 6///1 333 10006 21090 7////
AAXX 01064 71033 NIL
AAXX 01064 71035 NIL
AAXX 01064 71036 15566 83010 11027 21070 39752 40131 51022 60001 333 10000 21065 70000
AAXX 01064 71039 NIL
AAXX 01064 71040 46/// /1102 11121 21143 39961 40167 58006 6///1 333 11111 21209 7//// 555 32622 40101
AAXX 01064 71041 17/08 /1507 10060 20059 39892 40033 56053 60081 76144 333 10067 21108 70166 555 31424 40051
AAXX 01064 71042 16/// /1002 10010 21006 30260 40264 55002 60001 333 10043 21018 70000
AAXX 01064 71044 16/// /1101 11389 21432 39887 40235 51013 60001 333 11274 21395 70000
AAXX 01064 71046 460// /2702 11310 30190 40208 52007 6///1 333 11246 21345 7////
AAXX 01064 71047 NIL
AAXX 01064 71048 NIL
AAXX 01064 71049 NIL
AAXX 01064 71060 NIL
AAXX 01064 71063 NIL
AAXX 01064 71825 12174 30000 11260 21302 39491 40200 58013 60001 83500 333 11163 21314 70000 555 10000 20000
AAXX 01064 71950 15766 81406 11090 21105 39612 40266 58001 60001 333 11071 21144 70000
AAXX 01064 71952 16/// /0000 11164 21179 39386 40285 58003 60001 333 11138 21264 70000
AAXX 01064 71954 NIL
AAXX 01064 71956 NIL
AAXX 01064 71959 NIL
AAXX 01064 71960 460// /1003 11292 30087 40227 52017 6///1 333 11246 21303 7////
AAXX 01064 71962 16/// /3012 11022 21056 39660 40084 51021 60001 333 11003 21097 70021 555 10020 20021 33024 40061
AAXX 01064 71963 NIL
AAXX 01064 71967 16/// /2001 11034 21048 30068 40175 51003 60001 333 11004 21050 70003 555 10010 20003
AAXX 01064 71970 NIL
AAXX 01064 71971 16/// /1202 11323 21352 30038 40086 51003 60001 333 11313 21381 70000
AAXX 01064 71972 460// ///// 11133 39609 40080 56018 6///1 333 11133 21183 7////
AAXX 01064 71973 46/// /2501 11027 21036 39962 40152 56045 6///1 333 11022 21099 7////
AAXX 01064 71974 NIL
AAXX 01064 71975 460// /2513 11192 39308 40052 56006 6///1 333 11191 21241 7//// 555 32539 40153
AAXX 01064 71976 NIL
AAXX 01064 71977 NIL
AAXX 01064 71978 NIL
AAXX 01064 71979 NIL
AAXX 01064 71980 46/// /0000 11336 21375 6///1 333 7////
AAXX 01064 71981 NIL
AAXX 01064 71982 NIL
AAXX 01064 71983 NIL
AAXX 01064 71984 16/// /2706 11274 21302 30218 40227 53017 60001 333 11232 21293 70000
AAXX 01064 71985 NIL
AAXX 01064 71986 NIL
AAXX 01064 71987 17/// /3413 10011 20011 30033 40042 56022 60071 7//4/ 333 10017 21090 70117 555 31326 40221
AAXX 01064 71988 17/// /3323 10053 20053 30039 40058 53003 69961 7//4/ 333 10091 20015 70070 555 31231 40152
AAXX 01064 71989 NIL
AAXX 01064 71990 NIL
AAXX 01064 71999 46/// ///// 11031 6///1 333 10062 21036 7////
AAXX 01064 71930 NIL
AAXX 01064 71931 16/// /1909 11018 21051 30187 40199 56034 60001 333 10020 21058 70000 555 32719 40181
AAXX 01064 71934 11974 00000 11190 21211 39954 40223 53013 69921 72277 333 11150 21245 47029 70002 90957 555 10008 20002
AAXX 01064 71935 12574 12707 11220 21256 30006 40225 53023 60001 81500 333 11146 21233 47028 79999 555 19999 29999
AAXX 01064 71936 11458 80703 11168 21195 39942 40213 52015 69941 77177 885// 333 11163 21171 48027 70004 90983 93101 555 10008 20004
AAXX 01064 71937 NIL
AAXX 01064 71938 11766 80403 11303 21334 30224 40256 53014 69901 77677 885// 333 11280 21313 47029 70004 90983 555 10014 20004
AAXX 01064 71940 12982 00000 11110 21173 39474 40311 53011 60001 333 11046 21119 79999 555 19999 29999 32725 40111
AAXX 01064 71943 12974 72212 11076 21156 39420 40284 53009 60001 87070 333 11059 21109 70000 555 10000 20000
AAXX 01064 71944 160// ///// 11143 58003 60001 333 11062 21173 70000
AAXX 01064 71945 12874 62005 11121 21187 39755 40246 53012 60001 86071 333 11099 21221 70002 555 10002 20002
AAXX 01064 71946 12974 00000 11344 21355 30010 40243 52023 60001 333 11263 21347 48045 70000 555 10000 20000
AAXX 01064 71948 47064 /0815 11284 30110 40230 52016 6///1 745// 333 11273 21286 7//// 555 30935 40083
AAXX 01064 71949 NIL
AAXX 01064 71951 11/58 90305 11044 21060 39960 40234 56007 69901 77122 333 11030 21080 47041 79999 90910 555 19999 29999
AAXX 01064 71957 46564 30402 11302 21375 30133 40228 51015 6///1 333 11262 21316 7////
AAXX 01064 71964 12986 31408 11173 21205 39299 40192 52001 60001 83070 333 11111 21208 70000 555 10000 20000 31618 40120
AAXX 01064 71966 16/// /0000 11344 21383 39745 40238 51011 60001 333 11231 21347 70000
AAXX 01064 71968 460// /1711 11249 30135 40203 51013 6///1 333 11241 21345 7//// 555 31919 40051
AAXX 01064 71726 16/// /0000 11059 21064 39602 40151 56009 60001 333 11054 21126 70009
AAXX 01064 71727 11374 80000 11115 21133 39970 40173 58007 69901 70277 885// 333 11068 21204 48044 70030 90963 555 10000 20000
AAXX 01064 71728 11582 82804 11095 21121 39949 40178 55002 69901 70277 885// 333 11095 21218 44002 70014 90963 555 10014 20014
AAXX 01064 71730 11/04 91604 11058 21058 39716 40148 58016 69901 75674 333 11051 21095 44012 79999 90911 555 19999 29999
AAXX 01064 71731 12474 82005 11060 21071 39694 40154 58006 60001 885// 333 11044 21097 79999 555 19999 29999
AAXX 01064 71735 NIL
AAXX 01064 71738 NIL
AAXX 01064 71739 41266 81610 11071 21081 39745 40115 58027 6//// 77177 88711 333 11071 21127 4//// 7//// 90973
AAXX 01064 71749 16308 92102 11017 21020 39801 40046 58012 60021 333 10002 21087 70025
AAXX 01064 71799 12683 80612 10048 21005 30240 40264 55002 60001 8157/ 333 10062 21021 70000 555 10000 20000
AAXX 01064 71800 16/// /1309 10016 20009 30182 40215 56041 60001 333 10025 21026 70000 555 32821 40151
AAXX 01064 71801 12874 61409 11014 21030 30046 40222 58040 60001 86070 333 11003 21035 70000 555 10000 20000 33023 40101
AAXX 01064 71803 11466 81206 11038 21056 30015 40206 56040 69921 77122 885// 333 11032 21071 46003 70002 90931 555 10002 20002 32717 40140
AAXX 01064 71807 NIL
AAXX 01064 71808 12974 80107 11094 21165 30144 40192 57032 60001 8802/ 333 11094 21154 70000 555 10000 20000
AAXX 01064 71809 11/08 90209 11034 21041 30143 40171 57045 60071 77322 333 11006 21119 47007 70070 90962 93107 555 10070 20070
AAXX 01064 71810 17/// /0512 11050 21060 30067 40135 56017 60031 7//4/ 333 11036 21095 70044 555 30620 40051
AAXX 01064 71811 NIL
AAXX 01064 71813 17/// /0417 11079 21086 30136 40150 56024 60041 7//4/ 333 11078 21187 70049 555 30421 40061
AAXX 01064 71814 17/// /0311 11096 21106 30167 40177 56032 60011 7//4/ 333 11086 21183 70014 555 30317 40061
AAXX 01064 71815 11469 80815 10004 21005 30100 40131 57051 60011 76176 885// 333 10004 21028 44005 70014 90973 93101 555 10012 20010 30720 40030
AAXX 01064 71604 NIL
AAXX 01064 71605 16/// /3402 10025 21024 30110 40262 56006 60001 333 10054 20005 70000
AAXX 01064 71611 16/// /3305 11003 21011 60001 333 10011 21043 70012
AAXX 01064 71612 16/// /2803 11019 21036 30079 40171 53002 60001 333 11017 21073 70022
AAXX 01064 71614 NIL
AAXX 01064 71616 NIL
AAXX 01064 71617 16/// /1401 11117 21134 30005 40182 58005 60001 333 11117 21215 70021
AAXX 01064 71618 17416 83527 11131 21144 30060 40098 53024 60001 771// 333 11059 21132 70000
AAXX 01064 71619 17/// /3404 11005 21012 30030 40088 56012 60021 7//4/ 333 10001 21133 70110
AAXX 01064 71622 NIL
AAXX 01064 71632 46/// /3308 11129 21149 39712 40164 53026 6///1 333 11083 21133 7//// 555 33418 40031
AAXX 01064 71634 17/// /0000 11014 21016 39939 40094 55008 60051 7//4/ 333 11002 21145 70140 555 10050 20140
AAXX 01064 71638 16/// /3604 10028 21037 30151 40258 55003 60001 333 10052 21010 70000
AAXX 01064 71639 12574 80000 10015 21023 39925 40169 58010 60001 885// 333 10022 21002 70002 555 10000 20000
AAXX 01064 71642 NIL
AAXX 01064 71700 17466 82403 11005 21009 30056 40082 55003 60021 7004/ 333 10001 21069 70031
AAXX 01064 71701 11469 83003 10000 21005 30019 40081 57004 60031 70266 886// 333 10000 21068 70038 90922 555 10000 20000
AAXX 01064 71702 17/// /3205 10021 20017 30013 40028 56025 60081 7//4/ 333 10042 21092 70215 555 31422 40001
AAXX 01064 71703 NIL
AAXX 01064 71704 15466 81811 10038 20020 39921 40143 58021 60001 333 10057 20021 70010
AAXX 01064 71710 NIL
AAXX 01064 71712 16/// /2306 11016 21023 30109 40171 53001 60001 333 11016 21074 70010 555 30617 40091
AAXX 01064 71713 NIL
AAXX 01064 71716 NIL
AAXX 01064 71717 NIL
AAXX 01064 71720 16/// /0000 10009 21020 30114 40270 55001 60001 333 10043 21025 70000
AAXX 01064 71721 NIL
AAXX 01064 71723 17/// /0000 11030 21049 30155 40165 58001 60011 7//4/ 333 11029 21071 70023 555 30218 40101
AAXX 01064 71724 NIL
AAXX 01064 71732 NIL
AAXX 01064 71733 16/// /1403 11056 21058 39708 40145 58016 60001 333 11051 21093 70000
AAXX 01064 71734 16/// /1103 11078 21091 39743 40143 58015 60001 333 11078 21121 70000
AAXX 01064 71736 NIL
AAXX 01064 71737 NIL
AAXX 01064 71741 16/// /1210 11022 21079 39895 40329 53005 60001 333 10042 21049 70000 555 33133 40072
AAXX 01064 71742 NIL
AAXX 01064 71743 NIL
AAXX 01064 71744 NIL
AAXX 01064 71745 NIL
AAXX 01064 71746 NIL
AAXX 01064 71747 NIL
AAXX 01064 71748 NIL
AAXX 01064 71401 17/// /3001 11039 21081 39638 40343 51011 69971 7//4/ 333 10023 21043 70007
AAXX 01064 71402 NIL
AAXX 01064 71404 NIL
AAXX 01064 71405 NIL
AAXX 01064 71406 NIL
AAXX 01064 71407 NIL
AAXX 01064 71408 NIL
AAXX 01064 71409 NIL
AAXX 01064 71410 17456 83312 11084 21101 39806 40089 53034 69931 7714/ 333 11049 21084 70003
AAXX 01064 71413 NIL
AAXX 01064 71414 NIL
AAXX 01064 71415 17/// /1302 10068 20065 30008 40011 58041 60091 7//4/ 333 10083 21058 70147 555 31522 40211
AAXX 01064 71417 NIL
AAXX 01064 71418 NIL
AAXX 01064 71419 46/// /1410 10059 20056 30016 40026 56061 6///1 333 10070 21043 7//// 555 31330 40042
AAXX 01064 71423 NIL
AAXX 01064 71424 46/// /0508 6///1 333 7//// 555 30334 40133
AAXX 01064 71425 17/// /0415 11026 21037 30098 40135 56010 60041 7//4/ 333 11023 21107 70070 555 30519 40061
AAXX 01064 71426 NIL
AAXX 01064 71427 16/// /0109 11049 21063 30142 40150 56003 60001 333 11046 21113 70050 555 30320 40051
AAXX 01064 71428 16/// /1805 11045 21058 30129 40135 56009 60001 333 11044 21146 70022
AAXX 01064 71429 NIL
AAXX 01064 71434 NIL
AAXX 01064 71436 17248 81803 10004 20003 39933 40171 58007 60011 7104/ 333 10010 21047 70050
AAXX 01064 71437 46/// /2202 10038 20007 30069 40164 58014 6///1 333 10058 20025 7////
AAXX 01064 71438 NIL
AAXX 01064 71439 NIL
AAXX 01064 71440 NIL
AAXX 01064 71442 16/// /3013 11030 21059 39780 40095 51011 60001 333 11004 21056 70000 555 33030 40022
AAXX 01064 71445 NIL
AAXX 01064 71446 16/// /2917 11082 21131 39272 40279 51018 60001 333 10004 21084 70000 555 33233 40192
AAXX 01064 71448 16/// /2910 11018 21060 39752 40082 50004 60001 333 10008 21078 70017 555 33022 40061
AAXX 01064 71449 NIL
AAXX 01064 71900 46/// /20// 11196 21233 30157 40170 58018 6///1 333 11151 21209 7////
AAXX 01064 71903 NIL
AAXX 01064 71904 NIL
AAXX 01064 71914 16/// /0603 10025 21019 30041 40266 55004 60001 333 10035 21005 70000
AAXX 01064 71916 NIL
AAXX 01064 71918 460// ///// 11348 6///1 333 7////
AAXX 01064 71920 NIL
AAXX 01064 71921 NIL
AAXX 01064 71923 NIL
AAXX 01064 71927 16/// /3603 10033 21006 30210 40269 55001 60001 333 10057 21015 70000
AAXX 01064 71941 17258 82503 11069 21074 39732 40157 55011 60001 710// 333 11064 21108 70000
AAXX 01064 71947 15166 81708 11093 21098 39791 40146 55012 60001 333 11093 21156 70000
AAXX 01064 71816 12974 22203 11223 21273 30147 40212 56015 60001 80001 333 11155 21244 70000 555 10000 20000 32518 40120
AAXX 01064 71817 NIL
AAXX 01064 71818 12974 02008 11200 21238 30179 40198 56016 60001 333 11106 21204 70000 555 10000 20000 32222 40120
AAXX 01064 71822 NIL
AAXX 01064 71825 12174 30000 11260 21302 39491 40200 58013 60001 83500 333 11163 21279 70000 555 10000 20000
AAXX 01064 71827 11374 81506 11127 21143 39871 40124 57014 69901 77122 885// 333 11127 21267 47018 79999 90962 555 19999 29999
AAXX 01064 71828 16964 01606 11267 21303 39510 40183 56018 60001 333 11173 21277 70000
AAXX 01064 71831 12374 81409 11071 21089 39818 40104 56023 60001 886// 333 11070 21127 79999 555 19999 29999
AAXX 01064 71832 NIL
AAXX 01064 71834 11459 81906 11003 21011 39615 40042 56021 69961 77122 887// 333 11003 21111 48027 70006 90962 93101 555 10010 20006
AAXX 01064 71841 NIL
AAXX 01064 71842 11374 82908 11024 21038 39579 40051 53002 69921 77152 885// 333 11022 21096 47010 70018 90917 555 10020 20016
AAXX 01064 71844 NIL
AAXX 01064 71845 NIL
AAXX 01064 71850 11574 72812 11036 21072 39576 40079 51011 69901 70277 875// 333 11015 21090 48012 70020 90943 555 10026 20020 33119 40050
AAXX 01064 71852 16664 82814 11021 21055 39812 40108 51008 60001 333 10016 21052 70005 555 31731 40092
AAXX 01064 71854 NIL
AAXX 01064 71858 NIL
AAXX 01064 71861 NIL
AAXX 01064 71862 12974 02914 11066 21124 39515 40232 53012 60001 333 10024 21066 70000 555 10000 20000 33241 40192
AAXX 01064 71863 46964 02924 11080 21137 39517 40234 52021 6///1 333 11001 21084 7//// 555 33036 40183
AAXX 01064 71051 NIL
AAXX 01064 71055 NIL
AAXX 01064 71057 NIL
AAXX 01064 71059 460// ///// 11333 30140 40237 51013 6///1 333 11306 21345 7////
AAXX 01064 71061 16/// /2304 11131 21172 39488 40304 51017 60001 333 11033 21132 70000 555 33030 40202
AAXX 01064 71062 46/// /2504 11110 21214 39193 40302 53017 6///1 333 11031 21117 7//// 555 33026 40231
AAXX 01064 71064 460// /3503 11328 30028 40261 52016 6///1 333 11328 21373 7////
AAXX 01064 71065 NIL
AAXX 01064 71067 NIL
AAXX 01064 71070 NIL
AAXX 01064 71073 NIL
AAXX 01064 71074 NIL
AAXX 01064 71075 16/// /3103 11137 21153 39562 40187 52021 60001 333 11121 21149 70000
AAXX 01064 71078 NIL
AAXX 01064 71084 460// ///// 11357 30175 40227 53013 6///1 333 11348 21363 7////
AAXX 01064 71085 15966 02713 11053 21128 38897 40314 51019 60001 333 11003 21059 70000
AAXX 01064 71087 NIL
AAXX 01064 71088 460// /3113 11323 51007 6///1 333 11212 21323 7////
AAXX 01064 71089 NIL
AAXX 01064 71096 460// ///// 11228 39291 40044 58003 6///1 333 11227 21267 7////
AAXX 01064 71097 47564 82907 11177 39588 40074 56012 6///1 741// 333 11177 21216 7//// 555 33017 40051
AAXX 01064 71098 43/// /2603 11032 21035 39652 40011 53002 6///1 333 11030 21099 7////
AAXX 01064 71099 43/// /0803 11107 21122 30015 40035 56012 6///1 333 11095 21143 7////
AAXX 01064 71550 NIL
AAXX 01064 71551 NIL
AAXX 01064 71552 46/// /3216 11027 21049 6///1 333 11001 21066 7//// 555 33029 40032
AAXX 01064 71553 16/// /3020 11055 21081 60001 333 11022 21061 70000 555 32934 40003
AAXX 01064 71554 16/// /3611 11035 21054 30147 40153 50004 60001 333 11025 21149 70088 555 33317 40061
AAXX 01064 71555 16/// /3001 11101 21110 38707 40329 51020 60001 333 11010 21109 70008 555 32924 40081
AAXX 01064 71556 NIL
AAXX 01064 71557 46/// /2101 11047 21078 6///1 333 10028 21051 7////
AAXX 01064 71558 46/// ///// 11093 21108 30150 40188 58025 6///1 333 11070 21157 7////
AAXX 01064 71559 46/// /2919 11065 21119 39511 40229 53011 6///1 333 10022 21065 7//// 555 33241 40193
AAXX 01064 71560 17/// /2918 11021 21056 39817 40118 50005 60101 7//4/ 333 10017 21056 70248 555 33228 40062
AAXX 01064 71563 NIL
AAXX 01064 71564 16/// /3017 11014 21060 39757 40124 58002 60001 333 10024 21054 70000 555 33028 40222
AAXX 01064 71565 NIL
AAXX 01064 71566 NIL
AAXX 01064 71567 NIL
AAXX 01064 71568 16/// /1509 10038 21009 30242 40255 56005 60001 333 10043 20008 70000 555 31321 40051
AAXX 01064 71569 16/// /2823 11073 21124 39506 40224 53020 60001 333 10001 21075 70000 555 33038 40173
AAXX 01064 71570 16/// /3109 11023 21066 39773 40086 50008 60001 333 10007 21080 70006 555 32925 40041
AAXX 01064 71571 NIL
AAXX 01064 71572 NIL
AAXX 01064 71573 16/// /1604 10028 20017 39872 40155 58015 60001 333 10059 20025 70014
AAXX 01064 71574 11248 83105 11015 21017 30021 40095 57008 60071 76877 8272/ 333 10004 21163 43025 70184 90983 93101 555 10090 20100
AAXX 01064 71575 NIL
AAXX 01064 71576 16/// /2001 11386 21429 39994 40085 54000 60001 333 11340 21386 70000
AAXX 01064 71577 NIL
AAXX 01064 71578 16/// /1303 11039 21054 60001 333 11034 21069 70013 555 30828 40142
AAXX 01064 71579 16/// /2903 11016 21063 39817 40101 51008 60001 333 10020 21051 70009 555 33217 40221
AAXX 01064 71580 11974 01606 11391 30132 40171 51005 69901 7027/ 333 11357 21400 43030 79999 90924 555 19999 29999
AAXX 01064 71581 NIL
AAXX 01064 71582 15766 81309 10026 21027 30144 40198 58003 60001 333 10028 21036 70008
AAXX 01064 71583 NIL
AAXX 01064 71584 17432 80414 11060 21071 30102 40151 56023 60001 771// 333 11060 21154 70000
AAXX 01064 71585 NIL
AAXX 01064 71586 16/// /3006 11094 21109 39738 40215 51030 60001 333 11047 21098 70031 555 10080 20031 33517 40121
AAXX 01064 71587 NIL
AAXX 01064 71588 16/// /1202 11024 21030 60001 333 11024 21100 70000
AAXX 01064 71589 16/// /1202 11034 21048 30071 40206 56037 60001 333 11011 21071 70000 555 10010
AAXX 01064 71590 16/// /3105 11054 21070 39937 40131 51004 60001 333 11037 21159 70107 555 10040 20107
AAXX 01064 71592 NIL
AAXX 01064 71593 NIL
AAXX 01064 71596 NIL
AAXX 01064 71598 17/61 /0107 11003 21007 30078 40084 56017 60051 7//4/ 333 10003 21128 70118 555 10030 20118
AAXX 01064 71599 16/// /3402 10065 20065 39836 40036 56027 60001 333 10077 21022 70141
AAXX 01064 71665 NIL
AAXX 01064 71666 17/// /3407 10012 20011 30006 40050 58011 60031 7//4/ 333 10031 21095 70065
AAXX 01064 71667 NIL
AAXX 01064 71668 16/// /3303 10006 21008 30035 40079 55004 60001 333 10007 21071 70000
AAXX 01064 71669 NIL
AAXX 01064 71670 17/// ///// 10005 20003 60051 7//4/ 333 10006 21110 70077
AAXX 01064 71671 16/// /2502 10054 20054 39966 40025 56025 60001 333 10062 21030 70085
AAXX 01064 71672 16/// /0000 10014 20006 39898 40164 58008 60001 333 10018 21034 70029
AAXX 01064 71673 NIL
AAXX 01064 71674 NIL
AAXX 01064 71675 17248 82802 11050 21051 39728 40007 57006 60031 7104/ 333 11049 21096 70119
AAXX 01064 71679 16/// /0804 11087 21123 39205 40252 55002 60001 333 11038 21126 70000 555 32721 40091
AAXX 01064 71680 NIL
AAXX 01064 71681 46/// /1601 11048 21067 6///1 333 10040 21051 7////
AAXX 01064 71682 NIL
AAXX 01064 71683 NIL
AAXX 01064 71684 17/06 /1307 11071 21078 39838 40146 58019 60001 735// 333 11071 21112 70000
AAXX 01064 71685 15566 63403 11043 21054 39803 40359 53017 60001 333 10023 21043 70000
AAXX 01064 71686 469// /0605 11154 21172 39233 40228 55004 6///1 333 11142 21231
AAXX 01064 71687 16/// /0000 11046 21053 39485 40289 51006 60001 333 11011 21052 70000
AAXX 01064 71688 16/// /0000 11061 21065 39211 40273 51004 60001 333 11020 21072 70000
AAXX 01064 71689 15966 02204 11117 21131 39791 40264 53024 60001 333 11079 21117 70011
AAXX 01064 71690 NIL
AAXX 01064 71691 15566 63505 11065 21081 30128 40156 56001 60001 333 11041 21146 70000
AAXX 01064 71692 NIL
AAXX 01064 71694 16/// /1201 11026 21031 39804 40171 58009 60001 333 11001 21031 70019
AAXX 01064 71695 16/// /3312 11108 21132 39809 40150 53034 60001 333 11036 21110 70010 555 10030 20010 33322 40061
AAXX 01064 71696 16/// /3522 11132 21146 30053 40090 53023 60001 333 11059 21132 70000 555 33529 40042
AAXX 01064 71697 17558 82103 10010 20010 30001 40174 58004 60001 710// 333 10021 20002 70003
AAXX 01064 71699 16/// /3305 10010 20005 30054 40061 55001 60001 333 10068 21035 70006
AAXX 01064 71851 NIL
AAXX 01064 71857 NIL
AAXX 01064 71860 NIL
AAXX 01064 71876 15566 83013 11054 21101 39589 40272 53038 60001 333 11028 21069 70000
AAXX 01064 71885 NIL
AAXX 01064 71886 16/// /3017 11055 21076 39553 40169 53020 60001 333 11010 21064 70000 555 32934 40183
AAXX 01064 71888 NIL
AAXX 01064 71890 16/// /0605 11066 21093 30125 40153 55000 60001 333 11042 21149 70012 555 10010 20012 30222 40151
AAXX 01064 71895 NIL
AAXX 01064 71812 47648 83420 11197 21232 30117 40131 51019 6///1 745// 333 11114 21197 7//// 555 33525 40051
AAXX 01064 71819 15866 80203 11092 21106 30153 40196 58026 60001 333 11075 21149 70000
AAXX 01064 71820 16/// /0000 11005 21008 30058 40174 50001 60001 333 11003 21063 70000
AAXX 01064 71823 17264 80000 11180 21205 39760 40157 56014 60001 745// 333 11159 21329 70000
AAXX 01064 71824 NIL
AAXX 01064 71826 16/// /1701 11218 21251 30015 40060 57010 60001 333 11207 21276 70000 555 10010
AAXX 01064 71829 16/// /3008 11077 21095 39987 40152 55000 60001 333 11056 21164 70014 555 30419 40151
AAXX 01064 71833 46/// /1804 10008 21002 6///1 333 10022 20001 7////
AAXX 01064 71835 17/// /2305 11036 21042 39541 40021 58006 69941 7//4/ 333 11035 21103 70008
AAXX 01064 71837 NIL
AAXX 01064 71839 NIL
AAXX 01064 71840 46/// /2919 11019 21056 6///1 333 10017 21038 7//// 555 33034 40213
AAXX 01064 71846 17/// /2206 11030 21034 39705 40020 58014 60011 7//4/ 333 11030 21132 70014 555 10010 20014
AAXX 01064 71847 NIL
AAXX 01064 71848 NIL
AAXX 01064 71849 NIL
AAXX 01064 71300 NIL
AAXX 01064 71301 17/// ///// 11093 21096 39726 40133 58017 69961 7//4/ 333 11062 21148 70009 555 10010 20009
AAXX 01064 71302 16/// /0302 11148 21160 39457 40312 55003 60001 333 11052 21148 70000
AAXX 01064 71303 46/// ///// 10042 20021 6///1 333 10050 20032 7////
AAXX 01064 71305 15366 30702 11189 21208 39929 40234 53011 60001 333 11132 21189 70000
AAXX 01064 71306 15466 61712 11130 21149 30061 40094 58008 60001 333 11109 21133 70000 555 31929 40072
AAXX 01064 71307 NIL
AAXX 01064 71308 17/// /1406 10083 20076 39939 40022 58050 60151 7//4/ 333 10092 21080 70211 555 31625 40021
AAXX 01064 71309 NIL
AAXX 01064 71310 17/// /1504 10059 20054 39984 40020 56041 60121 7//4/ 333 10059 21102 70240 555 31427 40221
AAXX 01064 71311 NIL
AAXX 01064 71312 16/// /3113 11085 21112 39734 40201 53041 60001 333 11021 21085 70000 555 33325 40231
AAXX 01064 71314 NIL
AAXX 01064 71315 17/// /0000 11027 21040 30056 40110 56008 69991 7//4/ 333 11021 21172 70136 555 10120 20136
AAXX 01064 71316 16/// /2707 11106 21154 39582 40289 51030 60001 333 11036 21106 70000 555 33130 40212
AAXX 01064 71317 NIL
AAXX 01064 71318 16/// /3111 11098 21163 39336 40314 53028 60001 333 11033 21117 70000 555 10430 33232 40212
AAXX 01064 71319 16/// /3501 11084 21089 39262 40140 53002 60001 333 11056 21123 70035
AAXX 01064 71320 NIL
AAXX 01064 71321 NIL
AAXX 01064 71322 NIL
AAXX 01064 71323 NIL
AAXX 01064 71331 16/// /3106 11114 21142 60001 333 11062 21118 70049 555 10080 20049
AAXX 01064 71332 NIL
AAXX 01064 71334 NIL
AAXX 01064 71335 46964 0//// 11136 56008 6///1 333 11123 21180 7////
AAXX 01064 71336 46/// ///02 11005 21027 30173 40196 58038 6///1 333 11002 21024 7////
AAXX 01064 71337 46/// /1506 11040 21044 39942 40184 56039 6///1 333 11033 21092 7//// 555 33020 40071
AAXX 01064 71338 46964 81906 11270 21302 30054 40061 58004 6///1 333 11239 21299 7////
AAXX 01064 71339 16964 02104 11149 21208 30185 40200 56016 60001 333 11085 21166 70000
AAXX 01064 71340 NIL
AAXX 01064 71341 NIL
AAXX 01064 71342 NIL
AAXX 01064 71343 NIL
AAXX 01064 71344 NIL
AAXX 01064 71345 NIL
AAXX 01064 71346 NIL
AAXX 01064 71347 NIL
AAXX 01064 71348 NIL
AAXX 01064 71349 NIL
AAXX 01064 71893 11680 81209 10045 21021 30233 40265 50000 69901 70282 8357/ 333 10050 21019 79999 90930 555 10000 20000 31322 40021
AAXX 01064 71894 17/// /1113 10063 20006 30204 40213 58003 69921 7//4/ 333 10069 21003 70004 555 31030 40022
AAXX 01064 71896 15962 00203 11145 21158 39446 40320 55004 60001 333 11053 21155 70000
AAXX 01064 71897 12574 81430 10044 21013 3//// 4//// 56016 69901 8857X 333 10045 20030 41997 70010 555 19999 29999
AAXX 01064 71898 160// ///// 10013 57014 60001 333 10025 21026 70005
AAXX 01064 71899 11462 81420 10022 20015 3//// 4//// 56025 60021 75172 885// 333 10022 21004 46997 70020 90922 555 19999 20006 31226 40032
AAXX 01064 71902 NIL
AAXX 01064 71905 NIL
AAXX 01064 71906 12974 60000 11217 21256 30097 40149 57016 60001 86070 333 11163 21237 79999 555 19999 29999
AAXX 01064 71907 16964 01811 11147 21176 30061 40094 58009 60001 333 11131 21159 70000 555 31926 40071
AAXX 01064 71909 16964 01202 11162 21181 30029 40073 58011 60001 333 11155 21232 70000
AAXX 01064 71910 47440 82808 11146 21171 30003 40066 50002 6///1 745// 333 11129 21153 7//// 555 32221 40101
AAXX 01064 71911 46964 01106 11431 30115 40177 51006 6///1 333 11332 21439 7////
AAXX 01064 71912 11432 83411 11106 21118 39890 40075 53014 60021 77177 885// 333 11056 21106 47024 70024 90973 93104 555 10042 20024 30119 40041
AAXX 01064 71915 11774 83409 11209 21244 30010 40093 53003 69901 77177 885// 333 11172 21247 48042 70004 90983 555 10004 20004
AAXX 01064 71917 11974 21102 11376 21432 30112 40127 52001 69901 77677 82078 333 11348 21416 47015 70002 90999 555 10011 20002
AAXX 01064 71922 11569 82910 11094 21110 39741 40220 52030 60011 77177 885// 333 11050 21097 47036 70096 90983 93101 555 10096 20096
AAXX 01064 71924 11324 53216 11333 21377 30051 40146 57001 69901 77677 85600 333 11328 21367 48038 79999 90983 555 19999 29999 33319 40021
AAXX 01064 71925 11569 13203 11377 21421 30212 40257 52013 69901 77677 81530 333 11350 21389 42021 79999 90983 555 19999 29999
AAXX 01064 71926 11548 83411 11302 21358 30156 40182 53023 69901 77173 885// 333 11204 21307 44043 70012 90983 555 10012 20012 33427 40211
AAXX 01064 71928 16/// /2102 11204 21252 39120 40340 51020 60001 333 11028 21207 70000 555 33329 40132
AAXX 01064 71450 16/// /3019 11078 21130 39521 40260 53028 60001 333 10003 21079 70000 555 32931 40202
AAXX 01064 71451 16/// /2904 11107 21130 39752 40190 53023 60001 333 11064 21135 70006 555 10010 20006
AAXX 01064 71452 NIL
AAXX 01064 71453 16/// /3107 11048 21096 39380 40319 53026 60001 333 10014 21048 70000 555 33121 40211
AAXX 01064 71454 16/// /3208 11104 21129 39517 40227 53033 60001 333 11054 21105 70014 555 33222 40021
AAXX 01064 71455 46/// /3119 11080 21134 39452 40273 53028 6///1 333 10000 21080 7//// 555 33134 40153
AAXX 01064 71456 NIL
AAXX 01064 71457 17/// /2302 11165 21176 39401 40326 53026 69951 7//4/ 333 10006 21172 70014 555 30121 40131
AAXX 01064 71458 16/// /2809 11104 21155 39507 40305 51027 60001 333 11034 21142 70000 555 32831 40192
AAXX 01064 71459 NIL
AAXX 01064 71460 16/// /1110 11014 21026 39899 40143 58024 60001 333 10006 21055 70000
AAXX 01064 71461 NIL
AAXX 01064 71462 NIL
AAXX 01064 71463 NIL
AAXX 01064 71464 NIL
AAXX 01064 71465 NIL
AAXX 01064 71466 NIL
AAXX 01064 71468 NIL
AAXX 01064 71470 NIL
AAXX 01064 71471 15966 62206 11074 21159 39479 40295 53012 60001 333 11029 21107 70000
AAXX 01064 71473 16/// /0918 10031 21018 30235 40266 55000 60001 333 10038 20013 70000 555 30924 40061
AAXX 01064 71475 NIL
AAXX 01064 71476 NIL
AAXX 01064 71477 16/// /1334 10027 20004 60001 333 10032 21042 7//// 555 31243 40033
AAXX 01064 71478 NIL
AAXX 01064 71479 NIL
AAXX 01064 71480 NIL
AAXX 01064 71481 NIL
AAXX 01064 71482 NIL
AAXX 01064 71483 NIL
AAXX 01064 71484 NIL
AAXX 01064 71485 16/// /1244 10056 20001 30159 40179 58006 60001 333 10056 20019 70002 555 31256 40053
AAXX 01064 71486 16/// /1803 11147 21178 39101 40353 53022 60001 333 11014 21155 70004 555 10010 20004 31917 40091
AAXX 01064 71487 16/// /2918 11067 21129 39376 40266 51024 60001 333 10013 21067 70000 555 33034 40183
AAXX 01064 71489 16/// /2913 11088 21141 39452 40279 53033 60001 333 11034 21088 70000 555 32828 40232
AAXX 01064 71490 NIL
AAXX 01064 71491 NIL
AAXX 01064 71492 NIL
AAXX 01064 71493 16/// /0105 10042 20037 39989 40027 56023 60001 333 10083 21063 70117 555 30822 40161
AAXX 01064 71494 16/// /3301 11033 21033 39615 40140 51009 60001 333 10001 21055 70021
AAXX 01064 71495 NIL
AAXX 01064 71496 16/// /3216 11053 21098 39615 40240 53038 60001 333 11027 21101 7//// 555 33031 40032
AAXX 01064 71497 46/// /2107 11219 21246 39960 40242 53017 6///1 333 11197 21252 7////
AAXX 01064 71498 NIL
AAXX 01064 71499 17462 82912 11118 21136 39555 40202 53020 60001 771// 333 11103 21125 70000
AAXX 01064 71603 11116 83215 10058 20057 39988 40040 55010 60011 72886 886// 333 10097 20004 70112 90951 555 10000 20000 33220 40060
AAXX 01064 71607 17/// /3307 10014 20009 30047 40079 58002 69971 7//4/ 333 10059 21037 70037
AAXX 01064 71609 11248 83614 10003 21016 39923 40057 56013 69971 78062 887// 333 10062 21042 70063 90937 555 10000 20000 31125 40141
AAXX 01064 71610 17120 82907 11012 21013 39854 40152 51009 60001 710// 333 10010 21043 70008
AAXX 01064 71621 17333 31002 10004 20001 30063 40171 58008 69951 7//44 333 10011 21047 70005
AAXX 01064 71623 NIL
AAXX 01064 71624 12574 81702 10026 21012 39955 40169 58014 60001 885// 333 10027 20008 70008 555 10000 20000
AAXX 01064 71625 16264 82002 11043 21051 30000 40164 58012 60001 333 11037 21099 70015
AAXX 01064 71627 11458 82502 11018 21037 30124 40169 54000 69901 71075 886// 333 11018 21078 47004 70012 90931 555 10004 20004
AAXX 01064 71628 13460 82504 11039 21052 30029 40172 50003 69901 88600 333 10184 21214 70022 555 10099 20199
AAXX 01064 71630 NIL
AAXX 01064 71631 NIL
AAXX 01064 71633 12474 81708 10013 21008 39873 40147 58016 60001 885// 333 10018 21005 70004 555 19999 29999
AAXX 01064 71705 11162 83311 10010 20009 39960 40047 58012 60021 75164 887// 333 10033 21083 70096 90947 555 19999 29999
AAXX 01064 71706 11/04 92902 10048 20048 39964 40024 57038 60101 74765 333 10057 21105 41997 70176 90913 555 19999 29999
AAXX 01064 71707 11/08 91416 10059 20052 39974 40050 58071 60011 75186 333 10062 21079 70066 90927 555 10004 20004 31425 40041
AAXX 01064 71709 NIL
AAXX 01064 71711 NIL
AAXX 01064 71714 16/// /2802 11042 21054 30085 40179 51003 60001 333 11038 21071 7////
AAXX 01064 71715 16/// /3507 11051 21059 39967 40152 58003 60001 333 11047 21139 70081
AAXX 01064 71718 11359 83610 11038 21048 30085 40152 50004 60021 77177 887// 333 11030 21151 48013 70114 90983 93102 555 10124 20114
AAXX 01064 71719 17/// /0213 10000 21004 30075 40081 56025 60051 7//4/ 333 10002 21119 70122 555 30217 40061
AAXX 01064 71250 16/// /1504 11006 21025 30078 40216 57040 60001 333 10005 21025 70000
AAXX 01064 71251 16/// /0000 11111 21129 39380 40341 53026 60001 333 10006 21117 70000 555 33524 40131
AAXX 01064 71252 NIL
AAXX 01064 71253 46/// /2604 11134 21142 6///1 333 11131 21229 7////
AAXX 01064 71254 16/// /2707 11136 21175 60001 333 11037 21136 70000 555 33030 40222
AAXX 01064 71255 17/// /2713 11119 21150 69931 7//4/ 333 11074 21129 70012 555 10030 20012 32717 40061
AAXX 01064 71256 46/// /0000 11125 21176 39342 40313 53015 6///1 333 11039 21127 7//// 555 32829 40232
AAXX 01064 71257 NIL
AAXX 01064 71258 NIL
AAXX 01064 71259 NIL
AAXX 01064 71261 16/// /1507 10022 20005 39873 40134 58026 60001 333 10033 20016 70003 555 33420 40151
AAXX 01064 71263 13459 81806 10021 20017 39878 40169 58016 60001 81800 333 10190 21112 70084
AAXX 01064 71264 17/// /0102 10079 20079 39980 40011 56034 60101 7//4/ 333 10095 21031 70336 555 10010 20336 31721 40001
AAXX 01064 71265 15566 82804 10032 21008 30075 40169 58012 60001 333 10048 20016 70006
AAXX 01064 71266 NIL
AAXX 01064 71267 15166 13404 11116 21117 39207 40345 53027 60001 333 10026 21116 70000
AAXX 01064 71268 NIL
AAXX 01064 71269 NIL
AAXX 01064 71270 NIL
AAXX 01064 71271 16/// ///// 11101 21164 60001 333 11033 21103 70000
AAXX 01064 71272 15566 83409 11169 21189 39795 40160 53023 60001 333 11106 21169 70000
AAXX 01064 71273 16/// /2908 11073 21110 39584 40262 53036 60001 333 11032 21082 70000 555 33126 40001
AAXX 01064 71274 NIL
AAXX 01064 71275 NIL
AAXX 01064 71276 NIL
AAXX 01064 71277 NIL
AAXX 01064 71278 NIL
AAXX 01064 71279 17/// /0104 11075 21094 30091 40159 55010 60011 7//4/ 333 11070 21163 70025 555 30818 40211
AAXX 01064 71281 NIL
AAXX 01064 71282 46/// /2408 10006 20006 39897 40170 58008 6///1 333 10006 21018 7////
AAXX 01064 71283 NIL
AAXX 01064 71284 16/// ///// 11129 21171 60001 333 11043 21129 70000
AAXX 01064 71285 NIL
AAXX 01064 71286 NIL
AAXX 01064 71287 NIL
AAXX 01064 71288 NIL
AAXX 01064 71289 NIL
AAXX 01064 71290 15966 11606 11130 21143 39452 40323 58003 60001 333 11051 21171 70000
AAXX 01064 71291 17/// /0000 11004 21007 39751 40038 57019 60021 7//4/ 333 10000 21078 70027 555 10020 20027
AAXX 01064 71292 15566 83017 11054 21071 39554 40171 53021 60001 333 11010 21062 70000
AAXX 01064 71294 16/// /2601 11031 39754 40162 58006 60001 333 11027 70000
AAXX 01064 71295 NIL
AAXX 01064 71296 NIL
AAXX 01064 71297 16/// /0000 10021 20015 60001 333 10058 20021 70005
AAXX 01064 71298 16/// /1910 10038 20024 39911 40143 58021 60001 333 10055 20031 70000 555 32518 40081
AAXX 01064 71299 NIL
AAXX 01064 17024 12670 62507 10097 20041 30034 40111 52020 60002 84550 333 20078 31006 55009 84635 86360 91112 92428
AAXX 01064 17056 11670 83305 10040 20038 30173 40177 52027 60012 70262 8552/ 333 20029 32003 55000 20096 70122 85634 88460 91112 92428
AAXX 01064 17067 11558 73403 10078 20066 30114 40137 52028 60072 78188 87200 333 20072 32007 55000 70066 87830 91111 92406
AAXX 01064 17092 12660 50000 11042 21045 38849 48473 53005 60002 83550 333 21079 34108 50224 55016 20469 8363 8 85359
AAXX 01064 17112 12665 80311 10043 20014 30177 40179 52030 60002 8452/ 333 20042 31004 50054 55000 20013 70078 84635 88460 91122 92427
AAXX 01064 17115 11457 73612 10053 20038 30101 40153 52025 60072 78088 84270 333 20041 32003 50034 55000 20180 70114 82710 84835 87360
AAXX 01064 17116 11660 70401 10064 20058 30022 40145 52029 60072 70282 84250 333 20062 32006 55005 20017 7006 6 84835 87360 91107
AAXX 01064 17188 11440 82903 10031 20018 39026 40093 52015 60102 76166 8672/ 333 20031 32003 70130 83712 84636 88459 91107 96010
AAXX 01064 17202 12560 81202 10023 20005 39161 40207 52006 60002 8652/ 333 20013 31000 70006 82720 85633 88459
AAXX 01064 17248 12670 72201 10012 21002 38891 48406 53001 60002 84250 333 20003 32000 55054 2//// 70008 84840 87360
AAXX 01064 17292 12670 53303 10053 20051 39325 40083 52020 60152 83250 333 20052 32005 50044 55000 20088 70536 83835 85360 91110
AAXX 01064 17300 11460 70207 10093 20078 39990 40061 53010 60622 78088 87900 333 20088 33/// 50091 55/// 2//// 70782 82915 85825
AAXX 01064 17310 11670 71004 10114 20069 30064 40071 57013 60202 72582 83250 333 20103 32009 55000 70303 83835 87360 91114 92448
AAXX 01064 17330 1//// /0604 10114 20065 30097 40117 5//// 60082 333 20089 3//// 4////
AAXX 01064 17026 12970 50101 10085 20046 30067 40106 52011 60002 85050 333 20079 30003 55000 20703 85360 91106 92418
AAXX 01064 17034 12970 22002 10105 21013 30078 40124 52008 60002 82030 333 20082 30006 82360 92428
AAXX 01064 17070 11558 81902 10026 20024 39252 40129 52020 60032 76022 8552/ 333 20023 31001 50054 55002 20297 70034 85630 88458 91105
AAXX 01064 17084 11530 83101 10003 21005 39226 40154 52009 69902 75022 8572/ 333 21012 31103 55000 79999 82720 84635 88460 91103 96010
AAXX 01064 17090 11665 60202 10005 21027 38685 48457 53004 69912 70171 84550 333 21026 3/104 47001 55000 70001 84640 86360 93101
AAXX 01064 17098 12660 40000 11099 21099 38182 48503 52009 60002 84500 333 21145 3/116 43014 50014 55000 20649 84635
AAXX 01064 17150 11460 73412 10047 20029 30026 40152 52024 60032 78082 85250 333 20044 32004 50011 55000 20222 70048 82715 84835 87360 91123
AAXX 01064 17160 12670 83507 10014 21004 38950 48420 53007 60012 8452/ 333 21002 32000 55009 70014 84640 88460 91113
AAXX 01064 17184 12670 83608 10058 20026 30018 40131 52027 60012 8422/ 333 20055 32005 55000 70042 84838 88460 91123
AAXX 01064 17189 11240 70000 10011 20004 38936 48395 52016 60032 76962 86570 333 20009 32001 70025 83705 85630 87359 96010
AAXX 01064 17210 12670 71801 10039 20026 39155 40209 52010 60002 82120 333 20033 32002 55001 70001 82840 87459
AAXX 01064 17234 11650 51301 10072 20071 30030 40099 52021 60032 71022 83250 333 20072 32006 55005 70361 83840 85360 91103
AAXX 01064 17260 11340 81005 10041 20041 39357 40190 52009 60062 76877 8472/ 333 20040 32002 50124 55003 20255 70064 82707 84625 88458 96010
AAXX 01064 17290 1//// /0006 10104 20079 30070 40100 52029 60012 333 20100 3/008 4//// 70110
AAXX 01064 17370 11560 71316 10107 20048 30145 40149 53013 60092 78082 84270 333 20080 32007 50224 55000 2//// 70102 84830 87459 92437
AAXX 01064 17500 11560 71107 10096 20093 30049 40109 57002 60062 72582 85850 333 20090 32008 50001 55027 20296 70135 82825 84630 86360
AAXX 01064 17501 11560 73603 10113 20090 30078 40097 52004 60022 72582 84950 333 20111 32010 55018 20517 70036 81925 83830 85358 92437
AAXX 01064 17505 11560 70804 10103 20090 39990 40104 55000 60102 78082 84950 333 20096 30009 55027 20574 70160 81925 83830 85358
AAXX 01064 17507 11560 72403 10107 20086 30000 40121 53008 60092 72582 85850 333 20100 32008 5///1 55/// 2//// 70193 82825 84630 86360
AAXX 01064 17510 11560 70000 10121 20096 30065 40075 55002 600052 72582 86850 333 20114 31008 50051 55020 20486 70090 83825 84630 92417
AAXX 01064 17515 11560 70405 10097 20084 39942 40119 53001 60042 72582 84950 333 20089 32006 50091 55023 20539 70179 81925 83830 85358
AAXX 01064 17521 11558 71810 10113 20091 39962 40102 53002 60042 78082 84950 333 20090 3//// 50161 55017 70200 81925 83830 87360
AAXX 01064 17530 11560 72006 10112 20099 30057 40114 55002 60092 78082 84950 333 20091 32008 55015 20551 70250 81925 83830 85358
AAXX 01064 17535 11560 72304 10119 20092 30062 40098 53001 60122 78082 84950 333 20100 32009 55000 20504 70358 81925 83830 85358
AAXX 01064 17540 11556 72116 10104 20097 30101 40125 5//// 60271 78082 84950 333 20106 32107 50161 55/// 2//// 70256 81925 83830 85360 92436
AAXX 01064 17547 11556 71210 10143 20086 30098 40110 5//// 60372 78082 84950 333 20105 32109 5///1 55033 20694 70366 81925 83830 85360 92436
AAXX 01064 17550 11560 71413 10123 20091 39957 40103 57009 60062 70282 84950 333 20094 32008 55024 20676 70200 81925 83830 85358 92437
AAXX 01064 17572 11560 7//// 10134 20100 30085 40109 5//// 60022 70282 86850 333 20124 31009 70122 83825 84630 92417
AAXX 01064 17042 12970 01209 10135 21043 30096 40135 52006 60002 333 20113 30010 55051 92428
AAXX 01064 17074 12565 81901 11026 21035 39194 40160 52011 60002 8452/ 333 21048 34106 55010 20314 84630 88460 91104
AAXX 01064 17086 12670 71005 10029 21034 39408 40129 53004 60002 85550 333 20015 30000 55000 20301 85635 87360
AAXX 01064 17088 12670 81905 11012 21089 38776 48475 51004 60002 8452/ 333 21027 34104 55007 20243 84640 88460
AAXX 01064 17140 11665 80404 10013 21013 38635 48425 53006 69952 70272 8552/ 333 20004 3/000 45998 55000 2//// 70005 85638 88459 93100
AAXX 01064 17155 11630 82903 10017 20008 38990 40117 52023 60072 76062 8552/ 333 20012 32000 55003 70076 85635 88459 91106
AAXX 01064 17203 11670 80000 11025 21033 38886 48529 53008 60022 70272 8452/ 333 21031 3/103 47004 55000 2//// 70036 84640 88460 93102
AAXX 01064 17237 1//// /3105 10065 20064 39593 40100 52027 60152 333 20058 3/005 4//// 70162
AAXX 01064 17250 12675 60505 10023 21019 38726 48421 51006 60002 83550 333 20011 30000 55044 83640 86360
AAXX 01064 17270 11660 81001 10053 20047 39539 40199 52010 60052 76166 8552/ 333 20049 32005 55000 70056 85635 88459
AAXX 01064 17295 11560 50105 10086 20066 30073 40080 52023 60272 70198 83130 333 20085 32008 50064 55016 70530 83830 85362
AAXX 01064 17320 1//// /1009 10126 20104 30090 40097 5//// 60422 333 20082 3//// 4////
AAXX 01064 17375 11670 53501 10093 20092 30058 40060 53012 60452 70182 82201 333 20093 32008 50071 55000 70654 82835 85070 91108 92438
AAXX 01064 08055 11903 00000 10016 20016 39210 48556 58008 69922 74640 333 20002 31101 55074 70002 95090
AAXX 01064 08075 11/04 92004 10032 20032 39238 48563 56005 60002 745// 333 20000 55050 70000 89/02
AAXX 01064 08084 02665 32602 10048 20016 39843 40289 55003 60002 82520 333 20048 3/002 55056 60007 70000
AAXX 01064 08171 NIL
AAXX 01064 08184 02965 30000 10054 20039 30083 40243 50002 60002 83030 333 20050 3/003 55041 60007 70000
AAXX 01064 08202 01440 62502 10056 20052 39354 42886 56010 60002 71042 866// 333 21009 3/103 55080 60007 70000
AAXX 01064 08235 NIL
AAXX 01064 08238 NIL
AAXX 01064 08280 12965 01406 11006 21023 39457 40320 56001 60002 333 21006 50364 55077 70000
AAXX 01064 08330 11/04 90000 10017 20005 30060 40302 57006 60002 74644 333 20007 30100 50144 55073 70000 89/01
AAXX 01064 08348 12965 00901 10002 21004 39553 40326 58002 60002 333 20002 50104 55089 70000
AAXX 01064 08360 06/// /2301 10106 20022 30223 40261 53002 60002 333 20100 3/010 55085 60007 70000
AAXX 01064 08373 03560 13302 10077 20068 30238 40260 53005 60002 81100 333 20075 3/005 55084 60007 70000
AAXX 01064 08410 02980 00000 10005 21008 30187 40304 55000 60002 333 20005 3/000 55090 60007 70000
AAXX 01064 08419 02962 00000 11018 21031 39616 40325 55006 60002 333 21019 3/102 55068 60007 70000
AAXX 01064 08451 02970 00502 10031 20019 30256 40291 55003 60002 333 20028 3/002 55/// 60007 70000
AAXX 01064 08487 06/// /3507 10093 20039 30241 40267 55001 60002 333 20080 3/007 55072 60007 70000
AAXX 01064 17022 11556 89901 10076 20064 39960 40125 52020 69982 76086 8552/ 333 20076 32008 55002 70008 85626 88458 91107 92416
AAXX 01064 17031 12670 70901 10099 20008 30106 40112 52009 60002 84250 333 20075 30006 84836 87360
AAXX 01064 17038 12970 52904 10116 20003 30076 40126 52009 60002 85030 333 20101 30005 55046 20645 85360 92428
AAXX 01064 17050 12670 73302 10033 20006 30130 40194 52024 69992 85520 333 20021 32002 55000 70098 85635 87460 91113
AAXX 01064 17060 11460 73617 10066 20049 30114 40154 52029 60042 72588 85270 333 20057 32006 50131 55000 20004 70050 82713 84830 87359
AAXX 01064 17096 11557 71602 11054 21054 38215 48489 53007 69922 70272 85550 333 21069 3/107 47013 50044 55027 20193 70002 85620 87357 93104
AAXX 01064 17124 11557 70000 10022 20015 39191 40119 52019 60072 76077 86520 333 20019 32001 50064 55012 20435 70076 86630 87459 93100
AAXX 01064 17128 11360 80204 10003 20003 39020 40142 53010 60052 77122 8652/ 333 20000 3/000 43001 50054 55008 20088 70054 82709 85625 88458 93101
AAXX 01064 17170 NIL
AAXX 01064 17195 11640 50703 10017 21014 38904 48426 52006 60002 71022 84550 333 21031 3/105 45998 50024 55021 20657 84640 85360
AAXX 01064 17199 11456 81901 10018 20014 39082 40201 52008 60002 71022 8662/ 333 20010 32000 55000 20209 70003 83714 84635 88459
AAXX 01064 17219 11565 53618 10069 20032 39965 40111 53025 60062 70282 83230 333 20068 32005 55001 20104 70138 83830 85360 91124
AAXX 01064 17240 11560 72201 10017 21001 38934 40089 52012 60072 76877 85570 333 20016 32002 55007 20410 70068 85630 87360 91116
AAXX 01064 17244 11570 71807 10037 20015 38904 48407 53001 69902 72162 84520 333 20003 32/// 55/// 2//// 70001 84630 87459
AAXX 01064 17280 11416 72601 10042 20038 39398 40202 52010 60002 71022 87700 333 20039 32004 50111 55006 20100 70006 83715 85635
AAXX 01064 17350 11560 70613 10084 20080 30067 40146 53003 60032 78082 85250 333 20080 32/// 70026 85830 87360
AAXX 01064 17024 12670 62507 10097 20041 30034 40111 52020 60002 84550 333 20078 31006 55009 84635 86360 91112 92428
AAXX 01064 17056 11670 83305 10040 20038 30173 40177 52027 60012 70262 8552/ 333 20029 32003 55000 20096 70122 85634 88460 91112 92428
AAXX 01064 17067 11558 73403 10078 20066 30114 40137 52028 60072 78188 87200 333 20072 32007 55000 70066 87830 91111 92406
AAXX 01064 17092 12660 50000 11042 21045 38849 48473 53005 60002 83550 333 21079 34108 50224 55016 20469 83638 85359
AAXX 01064 17112 12665 80311 10043 20014 30177 40179 52030 60002 8452/ 333 20042 31004 50054 55000 20013 70078 84635 88460 91122 92427
AAXX 01064 17115 11457 73612 10053 20038 30101 40153 52025 60072 78088 84270 333 20041 32003 50034 55000 20180 70114 82710 84835 87360
AAXX 01064 17116 11660 70401 10064 20058 30022 40145 52029 60072 70282 84250 333 20062 32006 55005 20017 70066 84835 87360 91107
AAXX 01064 17188 11440 82903 10031 20018 39026 40093 52015 60102 76166 8672/ 333 20031 32003 70130 83712 84636 88459 91107 96010
AAXX 01064 17202 12560 81202 10023 20005 39161 40207 52006 60002 8652/ 333 20013 31000 70006 82720 85633 88459
AAXX 01064 17248 12670 72201 10012 21002 38891 48406 53001 60002 84250 333 20003 32000 55054 2//// 70008 84840 87360
AAXX 01064 17292 12670 53303 10053 20051 39325 40083 52020 60152 83250 333 20052 32005 50044 55000 20088 70536 83835 85360 91110
AAXX 01064 17300 11460 70207 10093 20078 39990 40061 53010 60622 78088 87900 333 20088 33/// 50091 55/// 2//// 70782 82915 85825
AAXX 01064 17310 11670 71004 10114 20069 30064 40071 57013 60202 72582 83250 333 20103 32009 55000 70303 83835 87360 91114 92448
AAXX 01064 17330 1//// /0604 10114 20065 30097 40117 5//// 60082 333 20089 3//// 4////
AAXX 01061 13173 32998 01602 11030 21039 30124 40229 52017 333 21032 31109 55058 70000
AAXX 01061 13180 32997 02501 11043 21046 30120 40236 53017 333 21045 34107 55019 70000
AAXX 01061 13266 31996 00601 11056 21066 30128 40236 52014 71000 333 21060 34109 55056 70000
AAXX 01061 13369 32998 00000 11154 21162 38995 48442 52008 333 21154 3/119 47015 55000 70001
AAXX 01061 13383 31696 80000 10006 21002 30024 40234 52015 71022 885// 333 20006 31100 55000 70000
AAXX 01061 13384 31695 30000 11012 21019 30076 40235 52013 71022 83500 333 21012 34104 55000 70000
AAXX 01061 13389 32697 70000 11012 21019 39943 40235 53017 87500 333 21012 34104 55000 70000
AAXX 01061 13477 NIL
AAXX 01061 13168 32998 01101 11037 21048 30119 40231 53013 333 21045 34110 55064 70000
AAXX 01061 13174 31996 01601 11039 21050 30123 40229 53013 71000 333 21043 34107 55060 70000
AAXX 01061 13269 32998 00000 11060 21070 30015 40243 52015 333 21060 34109 55020 70000
AAXX 01061 13274 32997 02502 11002 21012 30070 40237 52015 333 21005 34106 55019 70000
AAXX 01061 13278 32697 52001 10010 21024 30007 40240 52014 85500 333 21011 31104 55000 70000
AAXX 01061 13378 32998 00902 11133 21153 38244 48457 52010 333 21133 3/115 48020 55000 70006
AAXX 01061 13397 32698 60000 11035 21048 39684 40249 52018 86500 333 21036 31104 55000 70000
AAXX 01061 13457 32970 00000 11030 21062 30202 40210 52017 333 21030 30104 55///
AAXX 01061 13481 NIL
AAXX 01061 10815 01162 82506 10070 20068 39237 48480 51004 60112 75866 877// 333 10072 20051 3/004 43010 55000 55300 20000 30000 60017 70182 81702 86704 91113 96258 96459 96458
AAXX 01061 10044 46/// /1908 10062 20060 30001 40033 58020 222// 00048 333 10063 20026 55000 55300
AAXX 01061 10124 46/// ///// 10087 2//// 39997 40034 56010 222// 00059 333 10087 20038 55/// 553//
AAXX 01061 15501 12970 02303 11022 21036 30161 40207 51008 60002 333 10003 21025 70000 555 34/// 589//
AAXX 01061 15505 12970 22302 10004 21037 39839 40224 52018 60002 80004 333 10020 20000 42001 70008 555 3/105 574//
AAXX 01061 15511 12970 00000 11014 21033 30186 40227 52007 60002 333 10023 21014 55015 70000 555 34/// 585// 92601
AAXX 01061 15514 12970 20000 11012 21037 30168 40205 52008 60002 82050 333 10035 21015 70000 555 31/// 583// 92600
AAXX 01061 15530 11650 80000 10001 21008 39978 40224 52019 69922 71022 8652/ 333 10007 21002 43010 70107 555 3/103 594//
AAXX 01061 15533 12670 62301 10010 21007 30156 40189 52019 69922 86500 333 10013 20004 47002 70030 555 588//
AAXX 01061 15550 11610 82701 10000 21012 30175 40195 52016 69972 71042 8657/ 333 10015 21003 70015 555 31/// 592//
AAXX 01061 15561 11468 83408 10008 21015 30166 40174 52019 60032 70262 885// 222// 00072 2//02 333 10018 20006 70048 555 31000 584// 92035 92437
AAXX 01061 15562 11420 73212 10010 21013 30115 40189 52023 60072 71022 87500 222// 2//02 333 10012 20005 55000 70126 555 31000 585// 92036 92435
AAXX 01061 15600 41/00 93208 11096 21099 38268 48480 53007 60002 74944 333 11092 21096 48013 55000 70063 555 598// 92711
AAXX 01061 15601 12970 13202 11024 21060 39575 40219 52015 60002 81040 333 10014 21026 55000 70000 555 34105 574//
AAXX 01061 15605 12975 02702 11038 21050 39350 40229 52018 60002 333 11015 21040 44004 70002 555 3/107 591//
AAXX 01061 15613 11989 03610 11134 21139 37655 47973 52016 60002 70144 333 11116 21135 48047 55000 70011 555 597//
AAXX 01061 15628 12680 82504 10018 21036 39948 40212 52021 60002 87505 333 10025 20010 43009 55000 70119 555 3/102 568//
AAXX 01061 15642 12670 73602 10010 20002 30008 40181 52025 69952 87500 333 10016 20004 55000 70161 555 32102 594//
AAXX 01061 15661 12565 83402 10034 20008 30143 40179 52022 60002 70222 885// 222// 20402 333 10040 20020 70050 555 32000 583// 92035 92437
AAXX 01061 15726 11/02 93402 11081 21083 38213 48485 52021 69902 74974 333 11070 21082 49052 55000 70156 93520 555 598// 92723
AAXX 01064 71114 160// /0909 10007 21016 30247 40296 56007 60001 333 10062 20003 70010 555 32532 40072
AAXX 01064 71120 11574 13010 11083 21130 39604 40281 53035 69901 73681 81500 333 11038 21085 44008 70008 90960 555 10008 20008 33128 40231
AAXX 01064 71122 16/// /2003 11126 21172 38676 40337 51025 60001 333 7////
AAXX 01064 71123 12974 02004 11167 21226 39424 40327 53023 60001 333 11034 21171 70006 555 10008 20006 33133 40211
AAXX 01064 71125 NIL
AAXX 01064 71129 12774 22813 11094 21147 39434 40291 52027 60001 82500 333 11031 21094 70000 555 10000 20000 32923 40200
AAXX 01064 71131 16/// /2812 11087 21109 39009 40303 53020 60001 333 11026 21093 70000 555 33230 40172
AAXX 01064 71135 16/// /3218 11069 21145 39161 40275 51018 60001 333 10011 21071 70000 555 33437 40193
AAXX 01064 71137 NIL
AAXX 01064 71140 11574 82919 11038 21066 39648 40156 5/015 60001 73622 885// 333 11020 21086 70000 555 10000 20000 32734 40041
AAXX 01064 71145 11262 83508 11071 21080 39742 40038 51019 69941 77165 885// 333 11056 21081 48037 70010 90983 555 10010 20010
AAXX 01064 71148 NIL
AAXX 01064 71185 17416 80406 11038 30141 40165 56045 60001 745// 333 11038 21064 70000 555 32719 40181
AAXX 01064 71188 NIL
AAXX 01064 71200 16/// /0505 10040 21011 60001 333 10052 20021 70002 555 32431 40072
AAXX 01064 71207 16/// /3404 11002 21008 30219 40285 50002 60001 333 10027 21018 70000
AAXX 01064 71260 13/// ///// 10005 21005 39853 40090 58036 60001 333 10023 21100 70000 555 10000 20000
AAXX 01064 71864 NIL
AAXX 01064 71865 16/// /3113 11064 21089 39508 40201 53029 60001 333 10004 21064 70000 555 32928 40212
AAXX 01064 71866 47564 83115 11053 21108 39618 40246 53038 6///1 745// 333 11026 21100 7//// 555 33029 40232
AAXX 01064 71867 NIL
AAXX 01064 71868 NIL
AAXX 01064 71869 11574 63307 11080 21111 39688 40225 52039 69901 77177 82571 333 11022 21083 47011 70004 90973 555 10004 20004
AAXX 01064 71871 15966 02916 11095 21149 39454 40288 53036 60001 333 11044 21099 70000
AAXX 01064 71877 12974 00000 11132 21164 39022 40345 53023 60001 333 10022 21133 70000 555 10000 20000 33424 40111
AAXX 01064 71878 12974 02506 11158 21234 39220 40344 52019 60001 333 11020 21195 79999 555 19999 29999 33118 40140
AAXX 01064 71879 16964 02406 11086 21167 39482 40313 51023 60001 333 11028 21089 70005 555 32933 40202
AAXX 01064 71880 12982 42304 11079 21111 39205 40345 52017 60001 80001 333 10002 21081 70000 555 10000 20000
AAXX 01064 71882 160// /3404 11044 21062 39804 40360 53017 60001 333 10019 21044 70000 555 30120 40111
AAXX 01064 71883 46/// /0000 11165 21181 39520 40383 53014 6///1 333 10013 21165 7//// 555 30521 40071
AAXX 01064 71887 12986 81107 11022 21082 39899 40334 53006 60001 80001 333 10043 21048 79999 555 19999 29999 32722 40080
AAXX 01064 71889 12974 80000 11033 21075 39903 40333 53007 60001 8807/ 333 10063 21044 70000 555 10000 20000
AAXX 01064 71891 16964 00000 11018 21056 30032 40314 55001 60001 333 10039 21019 70000 555 31828 40082
AAXX 01064 71892 12680 80000 10026 21019 30267 40272 55000 60001 82571 333 10049 21010 70000 555 10000 20000
AAXX 01064 71893 11680 81209 10045 21021 30233 40265 50000 69901 70282 8257/ 333 10050 21019 79999 90930 555 10000 20000 31322 40021
AAXX 01064 71043 11583 50000 11344 21396 30146 40248 52013 69901 77677 82570 333 11300 21366 48034 79999 90983 555 19999 29999
AAXX 01064 71045 16/// /0202 11208 21229 39320 40226 53010 60001 333 11124 21269 70006 555 10010 20006
AAXX 01064 71050 46/// /2502 11123 21139 39171 40295 56001 6///1 333 11066 21179 7////
AAXX 01064 71051 NIL
AAXX 01064 71052 NIL
AAXX 01064 71066 12974 00000 11154 21187 39811 40248 53017 60001 333 11090 21182 70020 555 10038 20020
AAXX 01064 71068 12974 02712 11100 21165 39565 40282 51010 60001 333 11055 21131 70004 555 10008 20004 32819 40190
AAXX 01064 71069 16964 00702 11114 21141 39566 40295 51018 60001 333 11034 21122 70000 555 32937 40223
AAXX 01064 71076 16/// /2603 11148 21163 39811 40217 52020 60001 333 11099 21148 70000
AAXX 01064 71077 16/// /2303 11125 21138 39697 40255 53018 60001 333 11057 21129 70006 555 10030 20006 33317 40021
AAXX 01064 71079 11548 83211 11116 21133 39827 40112 52033 60011 77177 885// 333 11056 21117 48011 70034 90983 93101 555 10042 20034
AAXX 01064 71081 46964 03114 11361 21404 30081 40094 50001 6///1 333 11295 21362 7//// 555 33219 40211
AAXX 01064 71082 NIL
AAXX 01064 71083 11732 53515 11207 21242 30080 40123 52011 69901 77177 85500 333 11159 21207 48058 70002 90983 555 10002 20002 33520 40041
AAXX 01064 71090 46961 02903 11340 21384 30039 40076 50000 6///1 333 11319 21377 7////
AAXX 01064 71091 460// /3608 11256 39834 40050 51001 6///1 333 7//// 555 30517 40131
AAXX 01064 71092 46456 81207 11258 39357 40044 58003 6///1 333 7////
AAXX 01064 71093 460// ///// 11239 39533 40044 58002 6///1 333 11233 21248 7////
AAXX 01064 71094 46064 /2207 11254 39093 40019 58004 6///1 333 11246 21258 7//// 555 30118 40161
AAXX 01064 71095 46964 02204 11386 21428 39998 40084 50000 6///1 333 11339 21387 7////
AAXX 01064 71101 160// /1438 30078 57023 60121 333 70165 555 30150 40063
AAXX 01064 71104 12974 01107 11087 21143 39157 40312 53003 60001 333 11039 21139 70000 555 10000 20000
AAXX 01064 71108 12774 80305 10025 21025 30198 40272 53004 60001 8167/ 333 10047 20004 70000 555 10000 20000
AAXX 01064 71109 12874 81122 10043 21002 30174 40201 56006 60001 8807/ 333 10044 21006 70000 555 10034 20034 31130 40061
AAXX 01064 71930 NIL
AAXX 01064 71931 16/// /1909 11018 21051 30187 40199 56034 60001 333 10020 21058 70000 555 32719 40181
AAXX 01064 71934 11974 00000 11190 21211 39954 40223 53013 69921 72277 333 11150 21245 47029 70002 90957 555 10008 20002
AAXX 01064 71935 12574 12707 11220 21256 30006 40225 53023 60001 81500 333 11146 21233 47028 79999 555 19999 29999
AAXX 01064 71936 11458 80703 11168 21195 39942 40213 52015 69941 77177 885// 333 11163 21171 48027 70004 90983 93101 555 10008 20004
AAXX 01064 71937 NIL
AAXX 01064 71938 11766 80403 11303 21334 30224 40256 53014 69901 77677 885// 333 11280 21313 47029 70004 90983 555 10014 20004
AAXX 01064 71940 12982 00000 11110 21173 39474 40311 53011 60001 333 11046 21119 79999 555 19999 29999 32725 40111
AAXX 01064 71943 12974 72212 11076 21156 39420 40284 53009 60001 87070 333 11059 21109 70000 555 10000 20000
AAXX 01064 71944 160// ///// 11143 58003 60001 333 11062 21173 70000
AAXX 01064 71945 12874 62005 11121 21187 39755 40246 53012 60001 86071 333 11099 21221 70002 555 10002 20002
AAXX 01064 71946 12974 00000 11344 21355 30010 40243 52023 60001 333 11263 21347 48045 70000 555 10000 20000
AAXX 01064 71948 47064 /0815 11284 30110 40230 52016 6///1 745// 333 11273 21286 7//// 555 30935 40083
AAXX 01064 71949 NIL
AAXX 01064 71951 11/58 90305 11044 21060 39960 40234 56007 69901 77122 333 11030 21080 47041 79999 90910 555 19999 29999
AAXX 01064 71957 46564 30402 11302 21375 30133 40228 51015 6///1 333 11262 21316 7////
AAXX 01064 71964 12986 31408 11173 21205 39299 40192 52001 60001 83070 333 11111 21208 70000 555 10000 20000 31618 40120
AAXX 01064 71966 16/// /0000 11344 21383 39745 40238 51011 60001 333 11231 21347 70000
AAXX 01064 71968 460// /1711 11249 30135 40203 51013 6///1 333 11241 21345 7//// 555 31919 40051
AAXX 01061 01023 11689 31110 11012 21072 39879 49974 56028 60002 70220 81508 333 21230 47016 70000 91115
AAXX 01061 01392 11457 81701 11020 21025 39775 40004 58024 60022 78582 888// 333 21111 47001 70019 91103
AAXX 01061 01059 16/// /1709 11025 21048 30067 40077 57011 6//// 333 21080 91113
AAXX 01064 71397 11316 82403 10044 20044 30003 40037 55020 60011 70262 887// 333 10066 21029 70076 90943 555 10000 20000 31218 40160
AAXX 01064 71400 17/02 /0903 11033 21035 60041 7//4/ 333 11020 21120 70038
AAXX 01064 71403 46/// /1614 10068 20064 39989 40009 58048 6///1 333 10078 21013 7//// 555 31531 40022
AAXX 01064 71411 17/// /3302 10077 20076 30009 40021 56029 69961 7//4/ 333 10091 20019 70238 555 31629 40182
AAXX 01064 71412 17/// /1714 10060 20056 30012 40021 56049 60141 7//4/ 333 10062 21080 70245 555 31823 40171
AAXX 01064 71421 NIL
AAXX 01064 71430 16/// /0103 10013 20007 30072 40170 58004 60001 333 10046 21006 70011 555 30717 40091
AAXX 01064 71431 16/// /2902 10016 20012 30066 40163 58007 60001 333 10026 21012 70012 555 31018 40081
AAXX 01064 71432 NIL
AAXX 01064 71433 NIL
AAXX 01064 71435 NIL
AAXX 01064 71441 NIL
AAXX 01064 71443 NIL
AAXX 01064 71444 16/// /2909 11051 21076 39361 40127 52014 60001 333 11029 21075 70000 555 32725 40041
AAXX 01064 71447 NIL
AAXX 01064 71467 16/// /0000 11267 21292 30126 40247 51015 60001 333 11250 21310 70000 555 31017 40081
AAXX 01064 71472 NIL
AAXX 01064 71474 16564 61703 11091 21115 39028 40309 53001 60001 333 11021 21114 70000
AAXX 01064 71510 16/// /3015 11088 21144 39539 40268 53030 60001 333 11032 21100 70000 555 33034 40143
AAXX 01064 71538 12462 81912 10040 20018 39914 40145 58019 60001 885// 333 10063 20034 70002 555 10000 20000 32020 40060
AAXX 01064 71600 171// 81017 10094 20091 30008 40014 58091 60011 74344 333 10094 21009 70015 555 31226 40051
AAXX 01064 71601 NIL
AAXX 01064 71825 12174 30000 11260 21302 39491 40200 58013 60001 83500 333 11163 21314 70000 555 10000 20000
AAXX 01064 71726 16/// /0000 11059 21064 39602 40151 56009 60001 333 11054 21126 70009
AAXX 01064 71727 11374 80000 11115 21133 39970 40173 58007 69901 70277 885// 333 11068 21204 48044 70030 90963 555 10000 20000
AAXX 01064 71728 11582 82804 11095 21121 39949 40178 55002 69901 70277 885// 333 11095 21218 44002 70014 90963 555 10014 20014
AAXX 01064 71730 11/04 91604 11058 21058 39716 40148 58016 69901 75674 333 11051 21095 44012 79999 90911 555 19999 29999
AAXX 01064 71731 12474 82005 11060 21071 39694 40154 58006 60001 885// 333 11044 21097 79999 555 19999 29999
AAXX 01064 71735 NIL
AAXX 01064 71738 NIL
AAXX 01064 71739 41266 81610 11071 21081 39745 40115 58027 6//// 77177 88711 333 11071 21127 4//// 7//// 90973
AAXX 01064 71749 16308 92102 11017 21020 39801 40046 58012 60021 333 10002 21087 70025
AAXX 01064 71799 12683 80612 10048 21005 30240 40264 55002 60001 8157/ 333 10062 21021 70000 555 10000 20000
AAXX 01064 71800 16/// /1309 10016 20009 30182 40215 56041 60001 333 10025 21026 70000 555 32821 40151
AAXX 01064 71801 12874 61409 11014 21030 30046 40222 58040 60001 86070 333 11003 21035 70000 555 10000 20000 33023 40101
AAXX 01064 71803 11466 81206 11038 21056 30015 40206 56040 69921 77122 885// 333 11032 21071 46003 70002 90931 555 10002 20002 32717 40140
AAXX 01064 71807 NIL
AAXX 01064 71808 12974 80107 11094 21165 30144 40192 57032 60001 8802/ 333 11094 21154 70000 555 10000 20000
AAXX 01064 71809 11/08 90209 11034 21041 30143 40171 57045 60071 77322 333 11006 21119 47007 70070 90962 93107 555 10070 20070
AAXX 01064 71810 17/// /0512 11050 21060 30067 40135 56017 60031 7//4/ 333 11036 21095 70044 555 30620 40051
AAXX 01064 71811 NIL
AAXX 01064 71813 17/// /0417 11079 21086 30136 40150 56024 60041 7//4/ 333 11078 21187 70049 555 30421 40061
AAXX 01064 71814 17/// /0311 11096 21106 30167 40177 56032 60011 7//4/ 333 11086 21183 70014 555 30317 40061
AAXX 01064 71815 11469 80815 10004 21005 30100 40131 57051 60011 76176 885// 333 10004 21028 44005 70014 90973 93101 555 10012 20010 30720 40030
AAXX 01064 71816 12974 22203 11223 21273 30147 40212 56015 60001 80001 333 11155 21244 70000 555 10000 20000 32518 40120
AAXX 01064 71817 NIL
AAXX 01064 71818 12974 02008 11200 21238 30179 40198 56016 60001 333 11106 21204 70000 555 10000 20000 32222 40120
AAXX 01064 71822 NIL
AAXX 01064 71825 12174 30000 11260 21302 39491 40200 58013 60001 83500 333 11163 21279 70000 555 10000 20000
AAXX 01064 71827 11374 81506 11127 21143 39871 40124 57014 69901 77122 885// 333 11127 21267 47018 79999 90962 555 19999 29999
AAXX 01064 71828 16964 01606 11267 21303 39510 40183 56018 60001 333 11173 21277 70000
AAXX 01064 71831 12374 81409 11071 21089 39818 40104 56023 60001 886// 333 11070 21127 79999 555 19999 29999
AAXX 01064 71832 NIL
AAXX 01064 71834 11459 81906 11003 21011 39615 40042 56021 69961 77122 887// 333 11003 21111 48027 70006 90962 93101 555 10010 20006
AAXX 01064 71841 NIL
AAXX 01064 71842 11374 82908 11024 21038 39579 40051 53002 69921 77152 885// 333 11022 21096 47010 70018 90917 555 10020 20016
AAXX 01064 71844 NIL
AAXX 01064 71845 NIL
AAXX 01064 71850 11574 72812 11036 21072 39576 40079 51011 69901 70277 875// 333 11015 21090 48012 70020 90943 555 10026 20020 33119 40050
AAXX 01064 71852 16664 82814 11021 21055 39812 40108 51008 60001 333 10016 21052 70005 555 31731 40092
AAXX 01064 71854 NIL
AAXX 01064 71858 NIL
AAXX 01064 71861 NIL
AAXX 01064 71862 12974 02914 11066 21124 39515 40232 53012 60001 333 10024 21066 70000 555 10000 20000 33241 40192
AAXX 01064 71863 46964 02924 11080 21137 39517 40234 52021 6///1 333 11001 21084 7//// 555 33036 40183
AAXX 01064 71893 11680 81209 10045 21021 30233 40265 50000 69901 70282 8357/ 333 10050 21019 79999 90930 555 10000 20000 31322 40021
AAXX 01064 71894 17/// /1113 10063 20006 30204 40213 58003 69921 7//4/ 333 10069 21003 70004 555 31030 40022
AAXX 01064 71896 15962 00203 11145 21158 39446 40320 55004 60001 333 11053 21155 70000
AAXX 01064 71897 12574 81430 10044 21013 3//// 4//// 56016 69901 8857X 333 10045 20030 41997 70010 555 19999 29999
AAXX 01064 71898 160// ///// 10013 57014 60001 333 10025 21026 70005
AAXX 01064 71899 11462 81420 10022 20015 3//// 4//// 56025 60021 75172 885// 333 10022 21004 46997 70020 90922 555 19999 20006 31226 40032
AAXX 01064 71902 NIL
AAXX 01064 71905 NIL
AAXX 01064 71906 12974 60000 11217 21256 30097 40149 57016 60001 86070 333 11163 21237 79999 555 19999 29999
AAXX 01064 71907 16964 01811 11147 21176 30061 40094 58009 60001 333 11131 21159 70000 555 31926 40071
AAXX 01064 71909 16964 01202 11162 21181 30029 40073 58011 60001 333 11155 21232 70000
AAXX 01064 71910 47440 82808 11146 21171 30003 40066 50002 6///1 745// 333 11129 21153 7//// 555 32221 40101
AAXX 01064 71911 46964 01106 11431 30115 40177 51006 6///1 333 11332 21439 7////
AAXX 01064 71912 11432 83411 11106 21118 39890 40075 53014 60021 77177 885// 333 11056 21106 47024 70024 90973 93104 555 10042 20024 30119 40041
AAXX 01064 71915 11774 83409 11209 21244 30010 40093 53003 69901 77177 885// 333 11172 21247 48042 70004 90983 555 10004 20004
AAXX 01064 71917 11974 21102 11376 21432 30112 40127 52001 69901 77677 82078 333 11348 21416 47015 70002 90999 555 10011 20002
AAXX 01064 71922 11569 82910 11094 21110 39741 40220 52030 60011 77177 885// 333 11050 21097 47036 70096 90983 93101 555 10096 20096
AAXX 01064 71924 11324 53216 11333 21377 30051 40146 57001 69901 77677 85600 333 11328 21367 48038 79999 90983 555 19999 29999 33319 40021
AAXX 01064 71925 11569 13203 11377 21421 30212 40257 52013 69901 77677 81530 333 11350 21389 42021 79999 90983 555 19999 29999
AAXX 01064 71926 11548 83411 11302 21358 30156 40182 53023 69901 77173 885// 333 11204 21307 44043 70012 90983 555 10012 20012 33427 40211
AAXX 01064 71928 16/// /2102 11204 21252 39120 40340 51020 60001 333 11028 21207 70000 555 33329 40132
AAXX 01064 71603 11116 83215 10058 20057 39988 40040 55010 60011 72886 886// 333 10097 20004 70112 90951 555 10000 20000 33220 40060
AAXX 01064 71607 17/// /3307 10014 20009 30047 40079 58002 69971 7//4/ 333 10059 21037 70037
AAXX 01064 71609 11248 83614 10003 21016 39923 40057 56013 69971 78062 887// 333 10062 21042 70063 90937 555 10000 20000 31125 40141
AAXX 01064 71610 17120 82907 11012 21013 39854 40152 51009 60001 710// 333 10010 21043 70008
AAXX 01064 71621 17333 31002 10004 20001 30063 40171 58008 69951 7//44 333 10011 21047 70005
AAXX 01064 71623 NIL
AAXX 01064 71624 12574 81702 10026 21012 39955 40169 58014 60001 885// 333 10027 20008 70008 555 10000 20000
AAXX 01064 71625 16264 82002 11043 21051 30000 40164 58012 60001 333 11037 21099 70015
AAXX 01064 71627 11458 82502 11018 21037 30124 40169 54000 69901 71075 886// 333 11018 21078 47004 70012 90931 555 10004 20004
AAXX 01064 71628 13460 82504 11039 21052 30029 40172 50003 69901 88600 333 10184 21214 70022 555 10099 20199
AAXX 01064 71630 NIL
AAXX 01064 71631 NIL
AAXX 01064 71633 12474 81708 10013 21008 39873 40147 58016 60001 885// 333 10018 21005 70004 555 19999 29999
AAXX 01064 71705 11162 83311 10010 20009 39960 40047 58012 60021 75164 887// 333 10033 21083 70096 90947 555 19999 29999
AAXX 01064 71706 11/04 92902 10048 20048 39964 40024 57038 60101 74765 333 10057 21105 41997 70176 90913 555 19999 29999
AAXX 01064 71707 11/08 91416 10059 20052 39974 40050 58071 60011 75186 333 10062 21079 70066 90927 555 10004 20004 31425 40041
AAXX 01064 71709 NIL
AAXX 01064 71711 NIL
AAXX 01064 71714 16/// /2802 11042 21054 30085 40179 51003 60001 333 11038 21071 7////
AAXX 01064 71715 16/// /3507 11051 21059 39967 40152 58003 60001 333 11047 21139 70081
AAXX 01064 71718 11359 83610 11038 21048 30085 40152 50004 60021 77177 887// 333 11030 21151 48013 70114 90983 93102 555 10124 20114
AAXX 01064 71719 17/// /0213 10000 21004 30075 40081 56025 60051 7//4/ 333 10002 21119 70122 555 30217 40061
AAXX 01064 68038 12960 20510 10254 20211 48517 52017 60024 80002 333 20202
AAXX 01064 68148 32960 33613 10247 20171 48542 51011 82081 333 20170
AAXX 01064 60020 NIL
AAXX 01064 60030 02560 53609 10159 20084 30226 40283 56011 60004 85500 333 015// 20156 55070 60007 924/7
AAXX 01064 60040 02580 13510 10144 20083 30267 40292 58015 60004 81500 333 013// 20141 55074 60007 924/8
AAXX 01064 60338 12980 00000 10106 20098 30214 40281 58001 60004 333 20082 55088 92418
AAXX 01064 48310 32562 31905 10294 20176 39682 40130 57036 83500 333 59024
AAXX 01064 48554 01408 80608 10238 20236 30106 40110 57028 60641 79596 889// 333 59010 60457 70790
AAXX 01061 48820 32797 80000 10165 20105 30199 40207 57036 885// 333 59026 88697 555 20147
AAXX 01061 48823 32497 83402 10168 20119 30197 40200 57040 888// 333 59030 83894 88696
AAXX 01061 78458 32466 20000 10240 20223 40202 57008 82200 333 10296 20202 30/// 56000 58008 81818
AAXX 01061 78460 32466 21203 10220 20213 40196 56011 82100 333 10285 20197 30/// 56100 58009 82818
AAXX 01061 78479 32466 20407 10253 20225 40173 57007 82200 333 10282 20213 30/// 56000 58015 82818
AAXX 01061 78485 32466 20303 10211 20198 40190 57011 82200 333 10305 20197 30/// 56000 58008 82818
AAXX 01061 78486 32466 23402 10236 20219 40176 57010 82200 333 10312 20218 30/// 56000 58007 82816
AAXX 01064 87692 31350 50000 10186 20178 30153 40178 56008 71010 85600 333 56200 85709 555 10177
AAXX 01061 02019 07/57 /1108 11033 21093 39355 49978 56024 69902 70410 333 11032 21121 60005 70000 90710 91119
AAXX 01061 02081 07/// /1303 11060 21065 39654 40065 57009 69912 70010 333 11047 21065 60005 70003 90710 91106
AAXX 01061 02095 05499 /1502 11047 21057 39872 40079 58001 69912 333 11046 21054 60005 70006 88/12 90710 91105
AAXX 01061 02101 47950 /1709 11082 21119 39445 40014 56009 785// 8//// 333 11080 21266 87/59
AAXX 01061 02119 07442 /1101 11138 21151 39661 40059 55004 69932 77187 333 11137 21224 69915 70003 81/17 88/34 90710 91102
AAXX 01061 02124 07234 /0301 11170 21201 39515 40061 58005 69932 77187 333 11122 21194 69905 70004 90710 91103
AAXX 01061 02126 07263 /3101 11144 21160 39711 40061 56008 69932 77170 333 11118 21202 69905 70003 88/06 90710 91102
AAXX 01061 02151 36/// ///// 1//// 2//// 3//// 4//// 5//// 6///2 333 1//// 2//// 6///5 7//// 910// 90710 911// 90710 912//
AAXX 01061 02186 17583 81407 11009 21022 30042 40067 50000 69902 72174 333 11008 21046 60005 70003 88/28 91009 90710 91109 90710 91208
AAXX 01061 02197 07/58 /1203 11051 21057 30070 40089 51010 60002 71010 333 11033 21056 60005 70003 90710 91107
AAXX 01061 02207 07758 /1808 11004 21040 39230 49922 55015 69912 78581 333 11004 21189 69905 70001 88/50 90710 91118
AAXX 01061 02219 07/25 /1107 11092 21104 39304 49982 56014 69902 77177 333 11079 21105 69905 70001 90710 91116
AAXX 01061 02226 45484 /1506 11045 21065 39530 49988 56015 8//// 333 11045 21112 86/13 87/18 88/21
AAXX 01061 02243 07/58 /1101 11156 21168 39770 40049 57014 69902 78581 333 11156 21253 69905 70003 90710 91103
AAXX 01061 02269 05475 /0403 11055 21063 60002 333 11054 21093 60005 70000 87/19 90710 91104
AAXX 01061 02287 07468 /2702 11043 21056 30065 40076 53006 60002 70010 333 11032 21046 60005 70002 90710 91105
AAXX 01061 02297 05481 /2703 11039 21043 30026 40072 53003 60002 333 11023 21040 60005 70039 83/19 88/36 90710 91105
AAXX 01061 02308 07466 /1803 11054 21065 39112 49978 56015 69912 72275 333 11054 21138 69905 70001 85/15 88/22 90710 91108
AAXX 01061 02327 07/70 /0604 11065 21073 39575 40017 57015 69942 72470 333 11064 21222 69905 70004 90710 91105
AAXX 01061 02355 NIL
AAXX 01061 02366 45/84 /3303 11132 21148 30062 40068 58005 8//// 333 11084 21146
AAXX 01061 02407 07264 /1704 11034 21037 39650 40023 58016 69922 72287 333 11034 21142 69905 70002 88/04 90710 91105
AAXX 01061 02418 45372 /1303 10000 21009 39895 40027 58019 8//// 333 10005 21077 88/07
AAXX 01061 02435 47264 /1102 11053 21067 39858 40050 58013 778// 8//// 333 11044 21112 88/04
AAXX 01061 02440 05382 /0000 11089 21103 60002 333 11089 21142 60005 70000 88/07 90710 91101
AAXX 01061 02452 07103 /1002 11035 21035 60002 73033 333 11031 21060 60005 70000 89/01 90710 91103
AAXX 01061 02456 05968 /1701 11063 21075 30033 40077 56010 60002 333 11063 21108 60005 70000 88/59 90710 91103
AAXX 01061 02469 05/81 /1302 11085 21096 60002 333 11076 21122 60005 70000 90710 91102
AAXX 01061 02498 05/83 /1604 10009 21030 30073 40090 57006 60002 333 10009 21020 60005 70000 90710 91105
AAXX 01061 02518 462// /1515 10038 20035 333 10039 20025 89/05 90710 91118
AAXX 01061 02520 07139 81506 11005 21017 39952 40020 58028 69922 75410 333 10004 21006 69925 70002 83/03 87/06 88/08 91009 90710 91110 90710 91207
AAXX 01061 02550 47159 /1606 11017 21017 39771 40049 56025 710// 8//// 333 11017 21035 88/02
AAXX 01061 02562 37984 20000 11057 21061 39946 40064 57019 60002 70031 333 11044 21086 60005 70000 81/61 91001 90710 91101 90710 91200
AAXX 01061 02563 05380 /1905 11005 21013 30056 40078 57007 60002 333 10008 21028 60005 70000 86/06 87/09 90710 91109
AAXX 01061 02565 07110 /1801 11050 21054 39960 40082 56017 69932 73173 333 11050 21088 60005 70003 89/02 90710 91102
AAXX 01061 02589 05499 /1905 10013 21013 30074 40096 57003 60002 333 10017 21033 60005 70000 85/15 90710 91108
AAXX 01061 02590 45573 /1702 11029 21031 30034 40097 58007 8//// 333 10003 21058 83/26
AAXX 01061 02618 07/20 /1504 10006 20006 39877 40043 56028 69902 75275 333 10006 21021 69905 70003 90710 91107
AAXX 01061 02664 17471 81704 10020 20003 30014 40086 56013 69902 70083 333 10021 21075 60005 79999 85/16 88/20 91005 90710 91107 90710 91204
AAXX 01061 02679 05/99 /1906 10025 20009 30057 40103 57008 60002 333 10025 21010 60005 70000 90710 91108
AAXX 01061 34519 11/02 90000 10009 20009 39868 40147 53003 69902 76164 333 20008 96045
AAXX 01061 01055 46/// /1317 11002 21044 30032 40050 56030 333 21007 91122
AAXX 01061 01212 16/// /1707 10067 20040 39849 49865 58009 6//// 333 20045 91112
AAXX 01061 01300 41497 42108 10083 20057 49846 57013 70211 84/00 22200 02065 10707 70037 333 91111
AAXX 01061 01317 16/// /1504 10063 20042 39876 49890 57008 6//// 333 20041 91112
AAXX 01061 33135 11697 22703 11002 21023 39954 40136 53018 69902 70181 82300 333 21002
AAXX 01061 34601 11/06 93402 10001 21002 30021 40161 52010 60042 78684 333 20001 43997 89/01
AAXX 01061 33088 12597 33003 11021 21030 39988 40186 52017 69902 83500 333 21024
AAXX 01061 33177 NIL
AAXX 01061 33261 11496 82202 10004 21004 39952 40138 52009 69902 77177 8772/ 333 21004 42001 87711
AAXX 01061 33275 31395 82002 11004 21013 39917 40145 53008 71022 886// 333 21010 42997 88708
AAXX 01061 33301 12597 62902 11016 21021 39902 40193 52015 69932 86500 333 21036 47997 86620
AAXX 01061 33325 32997 02901 11013 21027 39901 40177 53020 333 21013
AAXX 01061 33377 31956 82701 11007 21019 39956 40155 52007 71011 8805/ 333 21010
AAXX 01061 33415 11396 82703 10002 21007 39788 40196 52014 69952 77187 8772/ 333 20002 43997 87709
AAXX 01061 33429 11497 73103 11014 21022 39760 40196 52018 69902 70282 87300 333 21016 47997 84710
AAXX 01061 33466 31659 82702 11007 21022 39975 40167 52012 71011 885// 333 21014 88646
AAXX 01061 33526 11460 82301 11006 21037 39856 40206 52010 69902 72682 883// 333 21023 45001 85914
AAXX 01061 33562 NIL
AAXX 01061 33614 32597 82803 10008 21009 30048 40155 58001 8655/ 333 20002 86627
AAXX 01061 33761 31940 23002 11040 21049 39953 40186 52011 72841 82030 333 21040
AAXX 01061 33902 11594 83303 10006 20001 30094 40161 53011 60012 71082 883// 333 20003
AAXX 01061 33983 31996 70000 10025 20020 30062 40124 53006 71011 8703/ 333 20005
AAXX 01061 34415 11316 80000 10002 21004 30058 40157 52005 60012 77376 8772/ 333 20002 43001
AAXX 01061 34523 NIL
AAXX 01061 34712 31/06 90601 10012 20012 30056 40143 53004 74544 333 20011
AAXX 01061 33177 11558 82601 10002 21006 39943 40186 52012 60022 78582 889// 333 21001 47001
AAXX 01061 33562 11496 83105 11002 21008 39808 40178 53013 60022 78581 8695/ 333 21027 47002 86915
AAXX 01061 34523 11495 81301 10021 20016 30075 40152 52002 69902 72162 886// 333 20020 88713
AAXX 01061 06432 17/64 /2207 10117 20107 30043 40118 57003 69962 72386 333 20109 3/010 81/08 85/10 88/17 91110 91207
AAXX 01061 06458 17350 /2208 10115 20110 39965 40116 55003 60022 72386 333 20103 3/009 81/07 85/10 88/13 91111 91209
AAXX 01061 06465 17358 /2205 10116 20106 30044 40109 55004 60012 72386 333 20103 3/009 81/07 85/10 87/13 91109 91205
AAXX 01061 06496 17150 /2204 10085 20084 39459 40125 58001 60062 76186 333 20070 3/007 81/02 85/04 87/08 91111 91207
AAXX 01061 06428 17366 /2205 10120 20111 30058 40106 58003 69982 70086 333 20113 3/010 81/07 87/10 88/13 91110 91207
AAXX 01064 65352 32956 70406 10197 20001 3//// 4//// 80002 333 20195 5//// 87076
AAXX 01064 65361 32960 73602 10215 20012 3//// 4//// 80002 333 20205 5//// 87076
AAXX 01064 65376 32960 70000 10242 20070 39659 40113 80002 333 20213 59013 87076
AAXX 01064 65387 32956 70000 10245 20233 30086 40104 87072 333 20245 59004 87360 83073
AAXX 01061 01400 41998 22311 10089 20078 49947 57001 70110 82070 22200 06077 10504 70021 333 91114
AAXX 01064 78016 11464 62315 10208 20190 30211 40215 56008 60011 70381 86500 333 10224 20195 70015 90950
AAXX 01064 68379 16/// /0104 10239 20208 39826 48564 52002 60084 333 20214 91008 555 10314 20086 91015
AAXX 01064 68398 16/// /3604 10219 20198 39372 48521 51001 60094 333 20190 91006 555 10268 20092 91014
AAXX 01064 68299 16/// /0706 10148 20123 38934 48521 51001 60024 333 20118 91008 555 10182 20020 91019
AAXX 01064 48566 01560 80000 10247 20229 30101 40110 57023 60071 76062 82847 333 59020 60057 70068
AAXX 01064 13623 12960 00406 10010 21105 30194 40200 52010 60002 333 20010 30///
BBXX PDHY 01063 99472 70584 41398 81406 10040 40109 57012 70222 887// 22274 04030 20102 3//// 4//// 5////
BBXX PHQX 01063 99158 70638 41598 30912 10265 20215 40175 56015 70222 83102 22254 20603 309// 41003 5//// 80230
AAXX 01064 64600 31957 02804 10181 20176 39471 40121 71000 333 01600 20177 55054 59005
AAXX 01064 64601 31940 53606 10194 20036 39013 48524 70411 80002 333 01300 20186 58000 85080
AAXX 01064 64605 31/01 90000 10205 20197 39371 40110 74744 333 01400 20175 59007 89/00
AAXX 01064 64610 32970 61004 10145 20136 3//// 4//// 80002 333 00700 20128 5//// 86080
AAXX 01064 64650 31930 20000 10210 20205 39709 40120 71000 80002 333 01900 20210 55087 59004 82080
AAXX 01064 64654 32970 50804 10173 20100 39557 40132 80002 333 01300 20155 58013 85080
AAXX 01064 64655 31/03 90000 10186 20176 39470 40113 74344 333 01500 20172 59013 89/00
AAXX 01064 64656 31903 00000 10210 20205 39560 40110 74244 333 01800 20190 59009
AAXX 01064 64659 NIL
AAXX 01064 64660 31903 30000 10213 20199 39584 40106 74444 80002 333 01600 20196 59003 83080
AAXX 01064 64662 31945 60000 10204 20193 39608 40103 71022 80002 333 01900 20196 59006 86080
AAXX 01064 64665 32970 80000 10210 20205 3//// 4//// 80002 333 01200 20210 5//// 88080
AAXX 01064 48387 31558 30904 10230 20114 39177 40129 57023 70511 82504 333 59017
AAXX 01064 89577 46/// /1108 11319 35778 4//// 5////
AAXX 01064 89578 46/// /0604 11313 36858 4//// 5////
AAXX 01064 65338 32956 50406 10219 20186 39923 40110 80002 333 02100 20218 50584 55093 59018 85076
BBXX MINFR09 0106/ 99321 11410 46/// ///// 40180 57019
AAXX 01061 02464 47958 /1002 11048 21057 30060 40078 57011 710// 8//// 333 11046 21096 83/59
AAXX 01061 02500 07211 /1409 10012 20008 39940 49983 58029 60052 76786 333 10031 20002 60035 70053 87/05 88/10 90710 91115
AAXX 01061 02513 07/36 /1505 10019 20009 30004 40008 58031 60002 71010 333 10023 20011 60005 70000 90710 91110
AAXX 01061 02615 07256 /1810 10037 20030 30053 40057 58018 60002 71010 333 10039 20016 60005 70000 88/04 90710 91112
AAXX 01061 02635 07/20 /1704 10029 20022 60002 71011 333 10031 20012 60005 70000 90710 91108
AAXX 01064 41859 31340 80502 10202 20130 30121 40159 70522 8562/ 333 56199 59026 70000 83718 84618 88458
AAXX 01064 41883 NIL
AAXX 01064 41891 31445 51203 10252 20110 30099 40137 70522 82540 333 56990 59032 70000 82615 84365
AAXX 01064 41907 32957 23604 10260 20100 30126 40141 82030 333 56090 59036 70000 82362
AAXX 01064 41923 31940 03102 10274 20090 30127 41036 70500 333 59031 70000
AAXX 01064 41936 31950 03604 10280 20120 40142 70500 333 59036 70000
AAXX 01064 41943 32450 23602 10265 20130 31032 40139 82500 333 56900 59029 70000 82618
AAXX 01064 41950 31950 13202 10272 20110 30130 40132 70510 81030 333 56090 59036 70000 81362
AAXX 01064 41978 31940 03305 10270 20120 30127 40133 70500 333 59027 70000
AAXX 01064 41992 31935 00000 10285 20110 30128 40131 70500 333 59020 70000
AAXX 01064 41883 32956 63102 10254 20130 30127 40148 86070 333 56060 59029 70000 82458 85362
AAXX 01063 91551 31598 60000 10294 20246 40060 53005 70522 86100 333 568// 86820
AAXX 01063 91551 31598 60000 10294 20246 40060 53005 70522 86100 333 568// 86820
AAXX 01064 41858 31450 80000 10202 20140 30111 40158 70522 8452/ 333 56999 59026 70000 84615 88460
AAXX 01064 41863 NIL
AAXX 01064 41886 31956 20000 10248 20140 30130 40151 70141 82030 333 56090 59028 70000 82365
AAXX 01064 41895 32458 73103 10244 20110 30129 40151 83570 333 56790 59033 70000 83616 85458
AAXX 01064 41909 11956 33602 10259 20140 30124 40136 69916 70162 83030 333 56090 59030 70001 83362
AAXX 01064 41915 NIL
AAXX 01064 41926 NIL
AAXX 01064 41929 32956 53603 10258 20120 30135 40144 85030 333 56090 59032 70000 85365
AAXX 01064 41933 31950 12301 10264 20120 30135 40144 70520 81030 333 56090 59031 70000 81362
AAXX 01064 41939 NIL
AAXX 01064 41941 NIL
AAXX 01064 41946 32957 33603 10263 20140 30143 40147 83040 333 56090 59028 70000 83362
AAXX 01064 41947 31950 40000 10265 20170 30141 40143 70544 83030 333 56090 59036 70000 84362
AAXX 01064 41951 NIL
AAXX 01064 41953 31950 00305 10270 20120 30134 40139 70520 333 59027 70000
AAXX 01064 41958 31950 53602 10270 20130 30135 40137 70620 85030 333 56090 59032 70000 85362
AAXX 01064 41960 NIL
AAXX 01064 41963 NIL
AAXX 01064 41964 NIL
AAXX 01064 41965 NIL
AAXX 01064 41966 NIL
AAXX 01064 41984 32958 23603 10283 20120 30131 40133 82030 333 56090 59032 70000 82362
AAXX 01064 41989 NIL
AAXX 01064 41998 NIL
AAXX 01061 02947 47/60 80801 11046 21049 40108 52013 77777 88/// 90551 333 11041 21100 3////
AAXX 01061 11723 01458 80901 11002 21021 39881 40188 53008 69902 71072 886// 333 21029 3/107 43001 60005 79999 88714
AAXX 01061 02947 47/60 80801 11046 21049 40108 52013 77777 88/// 90551 333 11041 21100 3////
AAXX 01064 91925 06/// /0000 10233 20199 30082 40143 52026 60001 333 55097 60007 90710 91105 555 60005 10915 58005
AAXX 01064 91929 04963 73502 10256 20227 30140 40143 51023 60022 700// 333 10274 20249 55/// 60007 70284 90710 91104 555 60005
AAXX 01064 91938 01565 70804 10251 20214 30146 40148 53016 60052 70186 83832 333 10291 20238 31/// 55029 69947 70082 81820 83650 85076 90710 91107 555 60005 11120 58019
AAXX 01064 91944 06/// /0806 10268 20211 30153 40156 51022 60002 333 10295 20266 55115 60007 70000 90710 91109 555 60005
AAXX 01064 91948 06/// /0803 10244 20195 30077 40179 51019 60001 333 55097 60007 90710 91113 555 60005 10913 59005
AAXX 01064 91954 06/// /3410 10247 20231 30154 40157 51018 60031 333 55/// 60017 555 58025
AAXX 01064 91958 06/// /2610 10248 20207 30166 40168 51020 60001 333 55002 60007 90710 91122 555 60005 12722 58012
AAXX 01064 91945 36/// /0508 10270 20228 30158 40163 51021 555 58008
AAXX 01064 94299 46/// /1521 10284 20207 30067 40077
AAXX 01064 94300 46/// /2213 10270 20147 30090 40100
AAXX 01064 94302 46/// /2413 10330 20122 30070 40076
AAXX 01064 94312 46/// /3216 10317 20204 30049 40058
AAXX 01064 94313 NIL
AAXX 01064 94317 46/// /3511 10384 20000 39457 40023
AAXX 01064 94319 46/// /3412 10390 20141 39708 40028
AAXX 01064 94324 NIL
AAXX 01064 94326 46/// /0105 10412 20034 39426 40021
AAXX 01064 94327 46/// /1208 10383 20088 39674 40035
AAXX 01064 94332 46/// /1806 10368 20121 39666 40040
AAXX 01064 94333 NIL
AAXX 01064 94341 46/// /1312 10363 20112 39830 40059
AAXX 01064 94346 46/// /0510 10360 20115 39858 40072
AAXX 01064 94363 46/// /1307 10319 20127 39880 40093
AAXX 01064 94366 NIL
AAXX 01064 94367 46/// /1309 10271 20190 30070 40111
AAXX 01064 94374 46/// /0708 10280 20156 30094 40110
AAXX 01064 94388 46/// /1319 10257 20176 30118 40123
AAXX 01064 94393 46/// /1523 10249 30077 40089 56009
AAXX 01064 94394 46/// /1522 10242 30098 40106 56005
AAXX 01064 94403 46/// /2115 10266 20177 30057 40097
AAXX 01064 94429 46/// /2106 10320 20117 39602 40049
AAXX 01064 94430 46/// /2808 10336 20038 39479 40042
AAXX 01064 94449 46/// /2910 10370 20088 39515 40025
AAXX 01064 94451 NIL
AAXX 01064 94461 46/// /2017 10299 20149 39388 40036
AAXX 01064 94462 46/// /2306 10392 20046 39483 40018
AAXX 01064 94477 NIL
AAXX 01064 94488 NIL
AAXX 01064 94102 46/// /2610 10329 20267 30058 40067
AAXX 01064 94103 NIL
AAXX 01064 94120 46/// /3013 10331 20252 30018 40058
AAXX 01064 94122 46/// /2608 10318 20254 30054 40062
AAXX 01064 94131 46/// /2707 10359 20211 39892 40042
AAXX 01064 94132 NIL
AAXX 01064 94147 NIL
AAXX 01064 94150 46/// /3205 10299 20245 30002 40061
AAXX 01064 94151 46/// /0708 10328 20243 30044 4////
AAXX 01064 94170 46/// /0105 10282 20222 30045 40067
AAXX 01064 94200 NIL
AAXX 01064 94203 46/// /2714 10327 20235 30053 40063
AAXX 01064 94206 46/// /3106 10269 2//// 39928 40056
AAXX 01064 94207 46/// /2509 10279 30058 40066 58022
AAXX 01064 94211 NIL
AAXX 01064 94212 46/// /1102 10377 20162 39568 40029
AAXX 01064 94216 46/// /3506 10381 20182 39993 40043
AAXX 01064 94236 NIL
AAXX 01064 94238 46/// /2905 10375 20139 39625 40037
AAXX 01064 94248 NIL
AAXX 01064 94255 46/// /1908 10393 20137 39787 40042
AAXX 01064 94268 46/// /1703 10333 20205 30049 40061
AAXX 01064 94287 46/// /1319 10292 20177 30081 40090
AAXX 01064 94290 NIL
AAXX 01064 94294 46/// /0717 10295 20199 30088 40098
AAXX 01064 94296 35/// /1516 10267 30061 40071 57005
AAXX 01064 94298 46/// /1322 10263 30075 40081 56009
AAXX 01064 95641 NIL
AAXX 01064 89564 41781 13506 11003 21087 39892 49912 58014 70200 81550
AAXX 01064 89570 46/// /1301 10009 21081 39218 56003
AAXX 01064 89571 41575 22707 10002 21050 39856 49885 56002 70211 82500
AAXX 01064 89573 35980 00203 11002 21079 39862 49884 57005
AAXX 01064 89610 NIL
AAXX 01064 89611 41575 60732 10024 21037 39718 49770 51012 70122 81591
AAXX 01064 89614 46/// /1028 11056 29071 38929 4//// 5//// 333 90700 91133
AAXX 01064 89615 46/// /1029 11037 21093 38906 51009
AAXX 01064 89807 46/// /1429 11025 29100 39706 4//// 5//// 333 90700 91140
AAXX 01064 89809 46/// /0827 11007 21021 39326 51007
AAXX 01064 94500 NIL
AAXX 01064 94510 46/// /0706 10318 20124 39750 40088
AAXX 01064 94515 46/// /1209 10298 20104 39759 40098
AAXX 01064 94552 46/// /0912 10272 20108 39660 40117
AAXX 01064 94578 46/// /1112 10247 20121 30132 40143
AAXX 01064 94584 46/// /1323 10238 20148 30020 40129
AAXX 01064 94601 46/// /1516 10194 20122 30124 40141
AAXX 01064 94610 46/// /1208 10257 20153 30075 40098
AAXX 01064 94637 46/// /2309 10310 20136 39642 40055
AAXX 01064 94638 46/// /2010 10206 20166 30073 40104
AAXX 01064 94642 NIL
AAXX 01064 94643 NIL
AAXX 01064 94647 46/// /2706 10257 20191 39975 40094
AAXX 01064 94651 46/// /2523 10342 20073 39998 40073
AAXX 01064 94653 46/// /0113 10447 21058 30006 40024
AAXX 01064 94659 46/// /0309 10414 21063 39878 40066
AAXX 01064 94672 46/// /2311 10383 21002 30066 40076
AAXX 01064 94691 46/// /0508 10369 20028 39777 40095
AAXX 01064 94693 46/// /2104 10380 20034 30034 40094
AAXX 01064 94700 NIL
AAXX 01064 94703 46/// /0208 10356 20092 39978 40100
AAXX 01064 94710 46/// /0810 10333 20050 39862 40108
AAXX 01064 94729 46/// /0902 10286 20093 39287 40115
AAXX 01064 94750 46/// /1010 10263 20147 30012 40134
AAXX 01064 94767 46/// /0516 10262 20128 30141 40147
AAXX 01064 94776 46/// /0611 10260 20128 30136 40146
AAXX 01064 94791 NIL
AAXX 01064 94802 46/// /1808 10173 20122 30057 40138
AAXX 01064 94804 46/// /0813 10268 20155 30030 40067
AAXX 01064 94807 NIL
AAXX 01064 94821 46/// /1813 10339 20061 30018 40099
AAXX 01064 94842 46/// /0917 10198 20160 30022 40119
AAXX 01064 94847 NIL
AAXX 01064 94850 46/// /0915 10207 20157 30086 40131
AAXX 01064 94865 46/// /1814 10277 20175 30086 40110
AAXX 01064 94866 46/// /1814 10301 20174 39972 40110
AAXX 01064 94875 46/// /1706 10363 20055 39980 40111
AAXX 01064 94893 NIL
AAXX 01064 94907 46/// /1212 10247 20146 30125 40135
AAXX 01064 94910 46/// /1506 10324 20084 39870 40113
AAXX 01064 94926 46/// /3308 10302 20098 39467 40120
AAXX 01064 94935 46/// /1807 10216 20174 30121 40147
AAXX 01064 94954 46/// /0616 10206 20165 30037 40147
AAXX 01064 94956 46/// /2804 10214 20120 30122 40148
AAXX 01064 94975 46/// /1109 10206 20157 30120 40152
AAXX 01064 94983 NIL
AAXX 01064 94995 46/// /0907 10199 20136 30143 40151
AAXX 01064 94996 46/// /1611 10212 20173 39979 40107
AAXX 01064 94997 NIL
AAXX 01064 94998 46/// /2117 10045 21024 39997 40008
AAXX 01064 95111 46/// /3109 10346 20230 30018 40054
AAXX 01064 95205 46/// /3014 10363 20204 30045 40052
AAXX 01064 95322 NIL
AAXX 01064 95448 46/// /2613 10361 20010 39483 40026
AAXX 01064 95458 46/// /0511 10412 21014 39795 40048
AAXX 01064 95480 46/// /1308 10405 20015 30014 40071
AAXX 01064 95481 46/// /1410 10400 20011 30023 40066
AAXX 01064 95482 46/// /1508 10412 20049 39992 40046
AAXX 01064 95485 46/// /1312 10370 2//// 39886 40083
AAXX 01064 95492 46/// /0506 10360 20095 39936 40085
AAXX 01064 95527 46/// /2205 10307 20103 39867 40114
AAXX 01064 95634 46/// /1907 10303 20136 39675 40063
AAXX 01064 95637 46/// /1510 10216 20140 39780 40105
AAXX 01064 95646 46/// /0000 10267 20154 39893 40075
AAXX 01064 95666 NIL
AAXX 01064 95719 46/// /1607 10308 20102 39795 40117
AAXX 01064 95762 46/// /1704 10301 20040 39669 40114
AAXX 01064 95826 NIL
AAXX 01064 95839 46/// /2609 10391 20019 39922 40076
AAXX 01064 95864 NIL
AAXX 01064 95909 NIL
AAXX 01064 95954 NIL
AAXX 01064 95966 46/// /3316 10256 20141 39940 40138
AAXX 01064 96995 46/// /1508 10277 20226 39794 40088
AAXX 01064 96996 41565 31307 10291 20239 30098 40102 58014 70111 82232
AAXX 01064 85585 339// 91911 10165 20121 30160 40196 58004
AAXX 01064 85586 NIL
AAXX 01064 85629 NIL
AAXX 01064 85672 NIL
AAXX 01064 85682 11250 41402 10128 20123 40156 58007 60001 71011 84600 333 56000 84703
AAXX 01064 85743 12360 60000 10106 20101 40191 56002 60001 86600 333 56600 86707
AAXX 01064 85766 NIL
AAXX 01064 85782 NIL
AAXX 01064 85799 12260 82303 10141 20141 40199 51005 60001 88600 333 56500 83706 88629
AAXX 01064 85830 NIL
AAXX 01063 NIL
AAXX 01064 NIL
AAXX 01064 89564 41781 13506 11003 21087 39892 49912 58014 70200 81550
AAXX 01064 89570 46/// /1301 10009 21081 39218 56003
AAXX 01064 89571 41575 22707 10002 21050 39856 49885 56002 70211 82500
AAXX 01064 89573 35980 00203 11002 21079 39862 49884 57005
AAXX 01064 89610 NIL
AAXX 01064 89611 41575 60732 10024 21037 39718 49770 51012 70122 81591
AAXX 01064 89614 46/// /1028 11056 29071 38929 4//// 5//// 333 90700 91133
AAXX 01064 89615 46/// /1029 11037 21093 38906 51009
AAXX 01064 89807 46/// /1429 11025 29100 39706 4//// 5//// 333 90700 91140
AAXX 01064 89809 46/// /0827 11007 21021 39326 51007
AAXX 01064 85406 12970 02603 10206 20148 40125 58017 60001
AAXX 01064 85418 12965 02107 10209 20119 40133 57019 60001
AAXX 01064 85432 NIL
AAXX 01064 85442 12970 00702 10182 20139 40137 57014 60001
AAXX 01064 85467 NIL
AAXX 01064 85469 42565 30000 10190 20164 40187 52003 83200 333 56200 83820
AAXX 01064 85488 12965 01001 10147 20124 40154 57002 60001
AAXX 01064 85574 12960 01405 10169 20114 39589 40136 58009 60001
AAXX 01064 85577 12960 00000 10175 20119 39538 40140 57009 60001
AAXX 01064 94299 46/// /1521 10284 20207 30067 40077
AAXX 01064 94300 46/// /2213 10270 20147 30090 40100
AAXX 01064 94302 46/// /2413 10330 20122 30070 40076
AAXX 01064 94312 46/// /3216 10317 20204 30049 40058
AAXX 01064 94313 NIL
AAXX 01064 94317 46/// /3511 10384 20000 39457 40023
AAXX 01064 94319 46/// /3412 10390 20141 39708 40028
AAXX 01064 94324 NIL
AAXX 01064 94326 46/// /0105 10412 20034 39426 40021
AAXX 01064 94327 46/// /1208 10383 20088 39674 40035
AAXX 01064 94332 46/// /1806 10368 20121 39666 40040
AAXX 01064 94333 NIL
AAXX 01064 94341 46/// /1312 10363 20112 39830 40059
AAXX 01064 94346 46/// /0510 10360 20115 39858 40072
AAXX 01064 94363 46/// /1307 10319 20127 39880 40093
AAXX 01064 94366 NIL
AAXX 01064 94367 46/// /1309 10271 20190 30070 40111
AAXX 01064 94374 46/// /0708 10280 20156 30094 40110
AAXX 01064 94388 46/// /1319 10257 20176 30118 40123
AAXX 01064 94393 46/// /1523 10249 30077 40089 56009
AAXX 01064 94394 46/// /1522 10242 30098 40106 56005
AAXX 01064 94403 46/// /2115 10266 20177 30057 40097
AAXX 01064 94429 46/// /2106 10320 20117 39602 40049
AAXX 01064 94430 46/// /2808 10336 20038 39479 40042
AAXX 01064 94449 46/// /2910 10370 20088 39515 40025
AAXX 01064 94451 NIL
AAXX 01064 94461 46/// /2017 10299 20149 39388 40036
AAXX 01064 94462 46/// /2306 10392 20046 39483 40018
AAXX 01064 94477 NIL
AAXX 01064 94488 NIL
AAXX 01064 85874 32682 /3013 10139 20075 39496 40107 58010
AAXX 01064 85934 12580 52905 10061 20027 40060 52004 60001 82501 333 56606 82620 84070
AAXX 01064 89054 32465 82810 10012 21011 49914 52015 885// 333 56699 88610
AAXX 01064 89056 12460 72816 10008 21014 49915 52021 60001 87500 333 56600 87610
AAXX 01064 89057 11460 82416 10013 20004 49910 52015 60001 70222 886// 333 56699 88710
AAXX 01064 89058 32565 82713 10009 21017 39893 49914 52023 885//
AAXX 01064 89059 11360 82105 11004 21015 49886 52010 60001 70242 886// 333 75099 88706
AAXX 01064 89251 31258 82918 10010 20001 49902 52005 71022 8652/
BBXX VRWS4 01063 99226 31510 41699 11117 10245 20182 40118 56017 70200 81080 22284 04240 20304 313// 40804 80205
BBXX VRDU8 01063 99138 31073 41498 71516 10315 20228 40107 57010 70222 877// 22283 04280 20603 80255
BBXX VRAE2 01064 99169 31590 41498 71513 10280 20244 40048 56008 70322 8526/ 22274 04290 20201 318// 40302 80255
BBXX 3ECI3 01064 99430 31737 41398 30908 10145 20127 40023 54000 70200 83100 22243 00150 20100 309// 40701 80135
BBXX VNSZ 01054 99402 31458 46/// /0914 10184 20160 30130 40156 57001 22236 85169
BBXX VNSZ 01044 99397 31455 46/// /1116 10184 20159 30135 40161 52009 22236 04188 85168
BBXX 9HA2479 01044 99223 31664 46/// /1309 10217 20209 30059 40088 57010 22200 04271 85211
BBXX A8TX8 01063 99090 31318 41598 62507 10320 20257 40072 57015 703// 84172 22224 04300 20401 30000 80275
BBXX C6FS9 01044 99361 31505 46/// /0320 10210 20172 30117 40153 57009 22213 04214 85185
BBXX VNAH 01044 99383 31416 46/// /1312 10184 20155 30109 40133 57011 22200 85165
BBXX VROB 01044 99222 31531 46/// /1420 10252 20162 30089 40114 57018 22283 04277 85193
BBXX 9HA2479 01054 99223 31664 46/// /1310 10217 20209 30058 40087 57006 22200 04270 85211
BBXX C6FS9 01054 99359 31506 46/// /0522 10209 20174 30115 40151 57008 22283 04215 85186
BBXX VNAH 01054 99383 31416 46/// /1312 10184 20154 30102 40126 57014 22200 04208 85165
BBXX VROB 01054 99220 31531 46/// /1422 10253 20152 30083 40108 57015 22283 04277 85187
BBXX FHZI 01054 99584 31456 46/// /2712 10027 20020 30026 40037 52020 22283 04019 85024
BBXX VNSZ 01064 99406 31460 46/// /0810 10187 20165 30131 40157 54000 22236 85173
BBXX 9HA2479 01064 99223 31664 46/// /1010 10222 20205 30061 40090 57002 22200 85210
BBXX C6FS9 01064 99357 31507 46/// /0522 10211 20173 30113 40149 57007 22213 04213 85186
BBXX A8KO3 01060 99212 31135 41898 52208 10280 20253 40100 50000 70222 841// 22284 00200 20303 80260
BBXX FHZI 01044 99586 31456 46/// /2812 10023 20017 30019 40030 52016 22283 04018 85020
BBXX V2BE4 01061 99103 31549 41698 43106 10310 20261 40045 54000 70300 84460 22233 04300 20704 80275
AAXX 01064 94893 NIL
AAXX 01064 94907 46/// /1212 10247 20146 30125 40135
AAXX 01064 94910 46/// /1506 10324 20084 39870 40113
AAXX 01064 94926 46/// /3308 10302 20098 39467 40120
AAXX 01064 94935 46/// /1807 10216 20174 30121 40147
AAXX 01064 94954 46/// /0616 10206 20165 30037 40147
AAXX 01064 94956 46/// /2804 10214 20120 30122 40148
AAXX 01064 94975 46/// /1109 10206 20157 30120 40152
AAXX 01064 94983 NIL
AAXX 01064 94995 46/// /0907 10199 20136 30143 40151
AAXX 01064 94996 46/// /1611 10212 20173 39979 40107
AAXX 01064 94997 NIL
AAXX 01064 94998 46/// /2117 10045 21024 39997 40008
AAXX 01064 95111 46/// /3109 10346 20230 30018 40054
AAXX 01064 95205 46/// /3014 10363 20204 30045 40052
AAXX 01064 95322 NIL
AAXX 01064 95448 46/// /2613 10361 20010 39483 40026
AAXX 01064 95458 46/// /0511 10412 21014 39795 40048
AAXX 01064 95480 46/// /1308 10405 20015 30014 40071
AAXX 01064 95481 46/// /1410 10400 20011 30023 40066
AAXX 01064 95482 46/// /1508 10412 20049 39992 40046
AAXX 01064 95485 46/// /1312 10370 2//// 39886 40083
AAXX 01064 95492 46/// /0506 10360 20095 39936 40085
AAXX 01064 95527 46/// /2205 10307 20103 39867 40114
AAXX 01064 95634 46/// /1907 10303 20136 39675 40063
AAXX 01064 95637 46/// /1510 10216 20140 39780 40105
AAXX 01064 95646 46/// /0000 10267 20154 39893 40075
AAXX 01064 95666 NIL
AAXX 01064 95719 46/// /1607 10308 20102 39795 40117
AAXX 01064 95762 46/// /1704 10301 20040 39669 40114
AAXX 01064 95826 NIL
AAXX 01064 95839 46/// /2609 10391 20019 39922 40076
AAXX 01064 95864 NIL
AAXX 01064 95909 NIL
AAXX 01064 95954 NIL
AAXX 01064 95966 46/// /3316 10256 20141 39940 40138
AAXX 01064 96995 46/// /1508 10277 20226 39794 40088
AAXX 01064 96996 41565 31307 10291 20239 30098 40102 58014 70111 82232
AAXX 01064 94500 NIL
AAXX 01064 94510 46/// /0706 10318 20124 39750 40088
AAXX 01064 94515 46/// /1209 10298 20104 39759 40098
AAXX 01064 94552 46/// /0912 10272 20108 39660 40117
AAXX 01064 94578 46/// /1112 10247 20121 30132 40143
AAXX 01064 94584 46/// /1323 10238 20148 30020 40129
AAXX 01064 94601 46/// /1516 10194 20122 30124 40141
AAXX 01064 94610 46/// /1208 10257 20153 30075 40098
AAXX 01064 94637 46/// /2309 10310 20136 39642 40055
AAXX 01064 94638 46/// /2010 10206 20166 30073 40104
AAXX 01064 94642 NIL
AAXX 01064 94643 NIL
AAXX 01064 94647 46/// /2706 10257 20191 39975 40094
AAXX 01064 94651 46/// /2523 10342 20073 39998 40073
AAXX 01064 94653 46/// /0113 10447 21058 30006 40024
AAXX 01064 94659 46/// /0309 10414 21063 39878 40066
AAXX 01064 94672 46/// /2311 10383 21002 30066 40076
AAXX 01064 94691 46/// /0508 10369 20028 39777 40095
AAXX 01064 94693 46/// /2104 10380 20034 30034 40094
AAXX 01064 94700 NIL
AAXX 01064 94703 46/// /0208 10356 20092 39978 40100
AAXX 01064 94710 46/// /0810 10333 20050 39862 40108
AAXX 01064 94729 46/// /0902 10286 20093 39287 40115
AAXX 01064 94750 46/// /1010 10263 20147 30012 40134
AAXX 01064 94767 46/// /0516 10262 20128 30141 40147
AAXX 01064 94776 46/// /0611 10260 20128 30136 40146
AAXX 01064 94791 NIL
AAXX 01064 94802 46/// /1808 10173 20122 30057 40138
AAXX 01064 94804 46/// /0813 10268 20155 30030 40067
AAXX 01064 94807 NIL
AAXX 01064 94821 46/// /1813 10339 20061 30018 40099
AAXX 01064 94842 46/// /0917 10198 20160 30022 40119
AAXX 01064 94847 NIL
AAXX 01064 94850 46/// /0915 10207 20157 30086 40131
AAXX 01064 94865 46/// /1814 10277 20175 30086 40110
AAXX 01064 94866 46/// /1814 10301 20174 39972 40110
AAXX 01064 94875 46/// /1706 10363 20055 39980 40111
AAXX 01064 94102 46/// /2610 10329 20267 30058 40067
AAXX 01064 94103 NIL
AAXX 01064 94120 46/// /3013 10331 20252 30018 40058
AAXX 01064 94122 46/// /2608 10318 20254 30054 40062
AAXX 01064 94131 46/// /2707 10359 20211 39892 40042
AAXX 01064 94132 NIL
AAXX 01064 94147 NIL
AAXX 01064 94150 46/// /3205 10299 20245 30002 40061
AAXX 01064 94151 46/// /0708 10328 20243 30044 4////
AAXX 01064 94170 46/// /0105 10282 20222 30045 40067
AAXX 01064 94200 NIL
AAXX 01064 94203 46/// /2714 10327 20235 30053 40063
AAXX 01064 94206 46/// /3106 10269 2//// 39928 40056
AAXX 01064 94207 46/// /2509 10279 30058 40066 58022
AAXX 01064 94211 NIL
AAXX 01064 94212 46/// /1102 10377 20162 39568 40029
AAXX 01064 94216 46/// /3506 10381 20182 39993 40043
AAXX 01064 94236 NIL
AAXX 01064 94238 46/// /2905 10375 20139 39625 40037
AAXX 01064 94248 NIL
AAXX 01064 94255 46/// /1908 10393 20137 39787 40042
AAXX 01064 94268 46/// /1703 10333 20205 30049 40061
AAXX 01064 94287 46/// /1319 10292 20177 30081 40090
AAXX 01064 94290 NIL
AAXX 01064 94294 46/// /0717 10295 20199 30088 40098
AAXX 01064 94296 35/// /1516 10267 30061 40071 57005
AAXX 01064 94298 46/// /1322 10263 30075 40081 56009
AAXX 01064 95641 NIL
AAXX 01060 67693 12580 73403 10251 20222 39266 48517 60024 83938 333 20208 5//// 55/// 59006 70024 81920 83825 87280 555 10282 7//96
AAXX 01064 68014 32789 21506 10222 20154 38610 48527 53007 82101 333 20185 555 10323 91020
AAXX 01064 68098 32489 80000 10159 20127 30056 52014 885// 333 20134 555 10225 91016
AAXX 01064 68312 32989 02606 10208 20023 38965 53010 333 20166 555 10352 91018
AAXX 01064 91375 NIL
AAXX 01064 91519 NIL
AAXX 01064 91531 NIL
AAXX 01064 91532 45/// /0608 10284 20224 30066 40074 52003
AAXX 01064 91559 NIL
AAXX 01064 91611 NIL
AAXX 01064 91642 NIL
AAXX 01064 91679 NIL
AAXX 01064 91689 NIL
AAXX 01064 91756 NIL
AAXX 01064 91844 NIL
AAXX 01064 92036 NIL
AAXX 01064 93713 NIL
AAXX 01064 94310 46/// /3113 10309 20178 30052 40064 57015
AAXX 01064 95283 46/// /1208 10266 20213 30083 40090
AAXX 01064 95288 46/// /1523 10280 30059 40074 56010
AAXX 01064 95675 46/// /1810
AAXX 01064 95872 46/// /1616
AAXX 01064 95961 35/// /1505 10205 30102 40143 57013
BBXX VRWS4 01063 99226 31510 41699 11117 10245 20182 40118 56017 70200 81080 22284 04240 20304 313// 40804 80205
BBXX VRDU8 01063 99138 31073 41498 71516 10315 20228 40107 57010 70222 877// 22283 04280 20603 80255
BBXX VRAE2 01064 99169 31590 41498 71513 10280 20244 40048 56008 70322 8526/ 22274 04290 20201 318// 40302 80255
BBXX 3ECI3 01064 99430 31737 41398 30908 10145 20127 40023 54000 70200 83100 22243 00150 20100 309// 40701 80135
BBXX VNSZ 01054 99402 31458 46/// /0914 10184 20160 30130 40156 57001 22236 85169
BBXX VNSZ 01044 99397 31455 46/// /1116 10184 20159 30135 40161 52009 22236 04188 85168
BBXX 9HA2479 01044 99223 31664 46/// /1309 10217 20209 30059 40088 57010 22200 04271 85211
BBXX A8TX8 01063 99090 31318 41598 62507 10320 20257 40072 57015 703// 84172 22224 04300 20401 30000 80275
BBXX C6FS9 01044 99361 31505 46/// /0320 10210 20172 30117 40153 57009 22213 04214 85185
BBXX VNAH 01044 99383 31416 46/// /1312 10184 20155 30109 40133 57011 22200 85165
BBXX VROB 01044 99222 31531 46/// /1420 10252 20162 30089 40114 57018 22283 04277 85193
BBXX 9HA2479 01054 99223 31664 46/// /1310 10217 20209 30058 40087 57006 22200 04270 85211
BBXX C6FS9 01054 99359 31506 46/// /0522 10209 20174 30115 40151 57008 22283 04215 85186
BBXX VNAH 01054 99383 31416 46/// /1312 10184 20154 30102 40126 57014 22200 04208 85165
BBXX VROB 01054 99220 31531 46/// /1422 10253 20152 30083 40108 57015 22283 04277 85187
BBXX FHZI 01054 99584 31456 46/// /2712 10027 20020 30026 40037 52020 22283 04019 85024
BBXX VNSZ 01064 99406 31460 46/// /0810 10187 20165 30131 40157 54000 22236 85173
BBXX 9HA2479 01064 99223 31664 46/// /1010 10222 20205 30061 40090 57002 22200 85210
BBXX C6FS9 01064 99357 31507 46/// /0522 10211 20173 30113 40149 57007 22213 04213 85186
BBXX A8KO3 01060 99212 31135 41898 52208 10280 20253 40100 50000 70222 841// 22284 00200 20303 80260
BBXX FHZI 01044 99586 31456 46/// /2812 10023 20017 30019 40030 52016 22283 04018 85020
BBXX V2BE4 01061 99103 31549 41698 43106 10310 20261 40045 54000 70300 84460 22233 04300 20704 80275
AAXX 01061 38141 32998 61502 11052 21106 30053 40219 57007 84032 333 21062
AAXX 01061 38149 42998 50901 11030 21080 30144 40224 57007 80002 333 21066
AAXX 01061 38178 42998 00000 11077 21168 39963 40266 57010 333 21081
AAXX 01061 38262 32998 30902 11009 21066 30146 40230 58002 80002 333 21069
AAXX 01061 38264 42998 31103 11009 21048 30129 40225 57010 80003 333 21059
AAXX 01061 38396 42997 51005 11009 21048 30099 40228 57009 83071 333 21067
AAXX 01061 38403 42997 00902 11034 21129 30110 40236 57022 333 21044
AAXX 01061 38413 42998 00902 11032 21080 39944 40247 57033 333 21058
AAXX 01061 38457 32999 00000 11011 21081 39650 40257 57005 333 21075
AAXX 01061 38462 42999 00000 10009 21079 38771 48505 57004 333 21140
AAXX 01061 38565 32998 00000 10025 21070 39644 40238 57010 333 21073
AAXX 01061 38579 32999 00000 11007 21052 39815 40296 58012 333 21121
AAXX 01061 38583 31594 81502 11032 21032 39928 40264 57014 71044 886// 333 21056
AAXX 01061 38611 41/93 90000 11042 21054 39691 40289 57005 74244 333 21060 8019/
AAXX 01061 38618 31997 83001 11038 21043 39550 40269 52003 82041 333 21068
AAXX 01061 38683 41996 00902 11004 21038 39956 40242 57004 71000 333 21046
AAXX 01061 38696 32999 00902 10019 21031 39368 40240 57001 333 21093
AAXX 01061 38812 42997 00902 10036 21014 39770 40231 54000 333 21034
AAXX 01061 38927 31960 00804 10059 21001 39865 40245 50002 70240 333 21031
AAXX 01061 37395 32999 20903 10080 21017 30010 40150 53009 82030 333 20072
AAXX 01061 37409 32598 60904 11002 21052 38734 48455 57004 84540 333 21038 95015
AAXX 01061 37432 32697 60000 11010 21061 38947 48482 57025 86500 333 21060
AAXX 01061 37514 32999 00000 11022 21061 39028 40216 53004 333 21034
AAXX 01061 37545 32599 70000 10022 21015 39666 40189 52007 84244 555 20008 7000/
AAXX 01061 37621 32699 10000 10023 21048 39536 40187 53007 81500 333 20005
AAXX 01061 37484 NIL
BBXX PCDE 01063 99369 31503 41597 30306 10233 20184 40154 54000 70200 81402 22243 2//// 304// 41202 80200
BBXX PCKU 01060 99112 31162 41598 61404 10307 20237 40082 58017 7//22 82268 22243 04301 20201 80256
BBXX DCDO2 01063 99041 31460 41698 70110 10280 20246 40070 56010 72022 87444 22234 00300 20301 302// 41002 5//// 80255
AAXX 01061 01001 11350 81103 10015 20010 39598 49609 57027 60042 76362 887// 333 20005 42999 70052 91108
AAXX 01061 01367 16/// /0000 11084 21096 39531 49987 58026 6//// 333 91103
AAXX 01061 01028 11580 41212 11002 21030 30016 40036 58017 69902 73673 84500 333 21076 79999 91116
AAXX 01061 01049 16/// /1508 11022 21056 30057 40060 58019 60002 333 21094 70005 91113
AAXX 01061 01160 41789 81111 10019 21078 39911 49928 56022 70211 888// 333 21019 91115
AAXX 01061 01397 16/// /1402 11079 21084 39565 40015 58021 69992 333 70009 91103
AAXX 0106/ 89872 46/// ///// 10109 39777 4//// 5////
AAXX 0106/ 89869 46/// ///// 10008 39765 4//// 5////
AAXX 0106/ 89866 46/// ///// 11008 39705 4//// 5////
AAXX 0106/ 89799 46/// ///// 11253 4//// 5////
AAXX 0106/ 89868 46/// ///// 11008 39767 4//// 5////
AAXX 0106/ 89327 46/// ///// 11031 39619 4//// 5////
AAXX 0106/ 89332 46/// ///// 11055 39181 4//// 5////
AAXX 0106/ 89769 46/// ///// 10001 39813 4//// 5////
AAXX 0106/ 89828 46/// ///// 11165 36507 4//// 5////
AAXX 0106/ 89108 46/// ///// 11210 36957 4//// 5////
AAXX 0106/ 89879 46/// ///// 10015 39737 4//// 5////
AAXX 0106/ 89314 46/// ///// 11114 38176 4//// 5////
AAXX 01064 89667 46/// /3206 11007 29076 39805 4//// 5////
AAXX 01064 89667 46/// /3306 11011 29078 39806 4//// 5////
AAXX 0106/ 89872 46/// ///// 10096 39778 4//// 5////
AAXX 0106/ 89869 46/// ///// 10003 39765 4//// 5////
AAXX 0106/ 89866 46/// ///// 11010 39705 4//// 5////
AAXX 0106/ 89329 46/// ///// 11090 38705 4//// 5////
AAXX 0106/ 89828 46/// ///// 11168 36507 4//// 5////
AAXX 0106/ 89879 46/// ///// 10016 39737 4//// 5////
AAXX 01061 33177 11558 82601 10002 21006 39943 40186 52012 60022 78582 889// 333 21001 47001
AAXX 01061 33562 11496 83105 11002 21008 39808 40178 53013 60022 78581 8695/ 333 21027 47002 86915
AAXX 01061 34523 11495 81301 10021 20016 30075 40152 52002 69902 72162 886// 333 20020 88713
AAXX 01061 33088 12597 33003 11021 21030 39988 40186 52017 69902 83500 333 21024
AAXX 01061 33177 NIL
AAXX 01061 33261 11496 82202 10004 21004 39952 40138 52009 69902 77177 8772/ 333 21004 42001 87711
AAXX 01061 33275 31395 82002 11004 21013 39917 40145 53008 71022 886// 333 21010 42997 88708
AAXX 01061 33301 12597 62902 11016 21021 39902 40193 52015 69932 86500 333 21036 47997 86620
AAXX 01061 33325 32997 02901 11013 21027 39901 40177 53020 333 21013
AAXX 01061 33377 31956 82701 11007 21019 39956 40155 52007 71011 8805/ 333 21010
AAXX 01061 33415 11396 82703 10002 21007 39788 40196 52014 69952 77187 8772/ 333 20002 43997 87709
AAXX 01061 33429 11497 73103 11014 21022 39760 40196 52018 69902 70282 87300 333 21016 47997 84710
AAXX 01061 33466 31659 82702 11007 21022 39975 40167 52012 71011 885// 333 21014 88646
AAXX 01061 33526 11460 82301 11006 21037 39856 40206 52010 69902 72682 883// 333 21023 45001 85914
AAXX 01061 33562 NIL
AAXX 01061 33614 32597 82803 10008 21009 30048 40155 58001 8655/ 333 20002 86627
AAXX 01061 33761 31940 23002 11040 21049 39953 40186 52011 72841 82030 333 21040
AAXX 01061 33902 11594 83303 10006 20001 30094 40161 53011 60012 71082 883// 333 20003
AAXX 01061 33983 31996 70000 10025 20020 30062 40124 53006 71011 8703/ 333 20005
AAXX 01061 34415 11316 80000 10002 21004 30058 40157 52005 60012 77376 8772/ 333 20002 43001
AAXX 01061 34523 NIL
AAXX 01061 34712 31/06 90601 10012 20012 30056 40143 53004 74544 333 20011
AAXX 01064 06670 41475 72007 10085 20066 39694 40206 5//// 72065 8457/ 333 20068 32006 55000 70069 81710 83631 85356 90768 93100
AAXX 01064 06700 41261 73501 10052 20047 39737 40238 5//// 71522 875// 333 20044 32003 55000 70073 81705 83715 86645 90768 93100
AAXX 01064 06680 41/01 92629 11017 21017 37508 47049 5//// 74574 333 21033 43390 55000 70969 90768 93130
AAXX 01064 06990 41456 81304 10049 20026 39670 40226 5//// 76222 887// 333 20019 32000 55000 70177 88712
AAXX 01064 06760 42965 03301 10023 20000 39760 40220 5//// 333 20013 31101 55035 70000 90768 93100
AAXX 01064 06720 42365 70804 10020 20010 39663 40255 5//// 876// 333 20011 3/000 43010 55000 70201 87707 90768 93100
AAXX 01064 06610 41664 72204 10072 20057 39636 40224 5//// 71022 875// 333 20065 32005 55000 70040 82634 87656 90768 93100
AAXX 01061 48918 32470 70507 10266 20231 30118 40129 58019 878// 222// 00271 2//02 333 58009 82894 86696
AAXX 01061 48917 32598 60902 10310 20235 30130 40136 57014 83208 222// 00307 2//00 333 58007 83895 86299
AAXX 01061 48914 32698 70903 10294 20278 30114 40116 57029 875// 333 58002 87696
AAXX 01061 48900 32497 59902 10312 20208 30102 40112 57008 85800 333 59004 82894 85696
AAXX 01061 48919 32598 70509 10268 20244 30098 40120 57022 83808 22200 02266 2//04 333 59001 82895 87299
AAXX 01061 48916 12598 70503 10276 20235 30066 40113 58022 69933 878// 333 59013 82895 87696
AAXX 01061 26045 27656 71903 11016 21016 30097 40099 52011 77170 87/// 333 11015 21033 69927 87/45 555 1/100 21033 3/101 51014
AAXX 01061 26247 27/68 /2101 11027 21030 30034 40115 52009 72470 333 11008 21045 60007 555 1/101 21045 3/102 51015
AAXX 01061 50468 NIL
AAXX 01061 50953 NIL
AAXX 01061 51076 NIL
AAXX 01061 51243 NIL
AAXX 01061 51288 11980 00202 11116 21176 38446 57011 69901 70070 333 05151 21180
AAXX 01061 51463 NIL
AAXX 01061 51573 NIL
AAXX 01061 51709 NIL
AAXX 01061 52533 NIL
AAXX 01061 52652 NIL
AAXX 01061 52866 NIL
AAXX 01061 52983 NIL
AAXX 01061 53463 NIL
AAXX 01061 53513 NIL
AAXX 01061 53588 NIL
AAXX 01061 53772 NIL
AAXX 01061 53915 NIL
AAXX 01061 54218 NIL
AAXX 01061 54337 NIL
AAXX 01061 54342 NIL
AAXX 01061 54401 NIL
AAXX 01061 54471 NIL
AAXX 01061 54497 NIL
AAXX 01061 54511 NIL
AAXX 01061 54823 NIL
AAXX 01061 56080 NIL
AAXX 01061 56096 NIL
AAXX 01061 57083 NIL
AAXX 01061 26115 27/84 00100 11032 21058 30098 40107 53006 70000 80/// 333 10015 21033 60007 80/// 555 1/102 21033 3/102 50006
AAXX 01061 26058 27343 81400 11025 21031 30101 40108 52012 71010 88/// 333 11015 21033 60007 88/07 555 1/100 21033 3/102 51013 52110
AAXX 01061 26038 01581 72000 11023 21026 30061 40103 53011 60012 70272 87500 333 11017 21033 43004 69917 87626 555 1/102 21033 3/105 51018 52104
BBXX 42362 01061 99278 70907 46/// /1606 10222 20189 40227 51003 90600
BBXX 42363 01061 99282 70892 46/// /1803 10222 20161 40231 50000 90600 333 91203
BBXX 42364 01061 99291 70881 46/// /1903 10211 20161 40231 50000 90600
BBXX 44139 01061 99442 70571 46/// /1212 10098 40097 57080 22200 00045 10605 70023 333 91216
BBXX 44040 01061 99410 70736 46/// /2805 10082 20052 40175 90545 22200 1//00 70001 333 91206 555 11067 22077
AAXX 01061 01059 11480 71709 11025 21048 30067 40077 57011 69902 78582 87800 333 21080 70004 91113
AAXX 01061 01033 46/// /1412 10011 21061 39937 49968 58031 333 21007 91120
AAXX 01061 01406 46/// /1711 10068 20058 39871 49889 56008 333 20049 91121
AAXX 01061 01442 11150 83503 11002 21006 39697 49955 58029 60182 77177 886// 333 21027 70180 91106
AAXX 01061 01065 11640 80902 11042 21056 39930 40095 57007 69952 78581 888// 333 21147 47029 70018 91104
AAXX 01061 01114 16/// /2001 10014 21089 39890 49900 57019 60002 333 21098 70000 91108
AAXX 01061 01344 16/// ///// 10021 21017 60042 333 21010 4/073 70037
AAXX 01061 01364 16/// /1108 11078 21094 38827 49964 50024 60032 333 21096 4/047 70028 91112
AAXX 01061 01373 11417 80000 11067 21077 39771 49976 56028 60062 77372 8672/ 333 21088 47010 70059 91101
AAXX 01061 01132 16/// /2204 11058 21102 39585 49981 55012 60002 333 21099 4/060 70000 91114
AAXX 01061 01361 16/// /0606 11068 21087 38908 49947 56019 60012 333 21088 4/069 70011 91112
AAXX 01061 01378 16/// /1601 11064 21075 39681 49980 58035 60052 333 21110 70052 91103
AAXX 01061 01422 16/// /0801 10071 20037 60032 333 20048 70029 91109
AAXX 01061 01477 16/// /1202 10000 21003 60092 333 21061 4/021 70087 91104
BBXX 44139 01061 99442 70571 46/// /1212 10098 40097 57080 22200 00045 10605 70023 333 91216
AAXX 01061 01135 16/// /1707 11035 21089 39807 49961 58011 60002 333 21115 4/030 70000 91113
AAXX 01061 01150 16/// /3303 11070 21114 60002 333 21176 70000 91109
AAXX 01061 01192 16/// /1506 10008 21130 60002 333 21046 4/016 70000 91115
AAXX 01061 01230 16/// /1404 11028 21058 69922 333 21049 4/045 70002 91113
AAXX 01061 01232 16/// /1908 10019 21036 39839 49918 58013 60002 333 20006 70000 91118
AAXX 01061 01253 16/// /2501 11015 21022 69992 333 21052 4/049 70009 91108
AAXX 01061 01254 16/// /3401 11007 21014 69942 333 21101 70004 91106
AAXX 01061 01291 16/// /1304 11035 21075 60002 333 21088 4/037 70000 91114
AAXX 01061 01386 16/// ///// 11021 21027 69992 333 21102 70009
AAXX 01061 01470 16/// /0501 11030 21034 39859 49975 58031 60112 333 21042 4/014 70111 91104
AAXX 01061 01481 16/// /1803 10038 20028 39944 49976 58026 60122 333 21029 70119 91111
BBXX 9V7955 01064 99302 11548 41597 60316 10180 20130 40190 51050 70100 85185 22264 00210 20204 30403 40406 50304 6//// 80150 ICE /////
BBXX C6SI6 01064 99444 11507 46/// /3601 10013 21028 40218 51009 7//// 8//// 22213 0//// 2////
BBXX C6UB2 01064 99546 11796 43/97 /2719 10010 21020 40050 54000 7//// 8//// 22263 00100 2//// 3//// 4//// 5//// 6//// 80000 ICE /////
BBXX OUJS2 01064 99436 11671 41195 80142 10080 20040 49930 56050 75155 88722 22224 00060 20701 32727 41202 51002 6//// 80060 ICE /////
BBXX WDB9950 01063 99485 11559 41398 83408 10010 21015 40220 51015 7//22 886// 22254 00020 20101 310// 40606 5//// 6//// 80000 ICE /////
BBXX 46035 01061 99571 71778 46/// /3615 1//// 40005 50000 90550 22200 10805 20804 300// 41102 70023 333 91218 555 11147 22157 30548 43518 60549 357148 344143 349138 353133 291097 274092 83616 90541
BBXX KGTZ 01064 99538 71574 41898 43512 11067 2//// 40134 57010 70200 82285 22224 00044 20602 333 09 41205 51605 6//// ICE /////
BBXX NWS0003 01064 99539 71665 43/// /0000 11002 21055 40062 5//// 7//// 8//// 222// 0//// 2//// 3//// 4//// 5//// 6//// 8//// ICE /////
AAXX 01064 60285 32950 00402 10101 20097 40097 5//// 333 20090
AAXX 01004 89002 41499 80715 11017 21023 39880 49934 52009 70277 888//
AAXX 01064 40310 32660 10000 10049 20005 38948 48487 52008 81100 333 20002 34104 81830
BBXX VCXF 01064 99464 70484 41598 72012 10014 2000/ 40265 57030 70222 87500 22200 02022 20301 334// 41009 80009
BBXX 61002 01064 99421 10047 46/// ///25 10144 2//// 40228 54000 22200 00132 10706 70028 555 1/031
AAXX 01064 60612 36/// /0411 10050 21078 333 20046
BBXX 62087 01061 99547 10068 46/// /0602 10090 20089 4//// 5//// 22270 00080
AAXX 01064 60645 36/// /0000 10073 21030 333 20058
AAXX 01064 60621 36/// /0511 10050 21031 333 20043
AAXX 01064 60619 36/// /0407 10011 21032 333 20011
AAXX 01064 60663 36/// /0905 10071 21073 333 20071
BBXX SMGW 01061 99310 71171 43/98 83504 10121 40192 53006 22244 00161 2//// 4////
AAXX 01064 78922 46/// /0919 10258 20206 30118 40163 58012
BBXX VCXF 01064 99464 70484 41598 72012 10014 2000/ 40265 57030 70222 87500 22200 02022 20301 334// 41009 80009
AAXX 01064 88963 11208 80000 10003 21011 39856 49886 52013 69901 77372 887// 333 56799 88706 90010 90094 92403 94076 95096
AAXX 01064 88968 11350 83220 10012 21011 39850 49866 52044 60021 72272 887// 333 56799 88708 90068 90092 90114 90923 92446 92732 92801 93002 93101 94072 95072 96010
AAXX 01064 89034 11220 80510 11047 21078 39608 49925 52013 69901 77072 886// 333 56199 88704 90015 90093 90926 92424 92800 93100 96010 97511
AAXX 01064 89053 31340 82712 10010 20001 39902 49916 52008 71022 887// 333 88708 90068 90084 92415 94070 94479 95090 97525 98530
AAXX 01064 89055 32965 71804 11024 21030 39646 49889 52016 87070 333 56060 87360 92733 92810 95173
AAXX 01064 89066 32570 80000 10022 21049 39857 49866 52015 886// 333 56199 88730 92407 94070
AAXX 01064 71867 11474 23217 11110 21126 39813 40154 53035 69941 77177 81570 333 11037 21111 47025 70033 90983 555 10036 20029
AAXX 01064 71868 16/// /3310 11079 21111 39720 40169 53035 60001 333 11014 21079 70000 555 32826 40181
AAXX 01064 71358 17/// /3003 11342 21380 30038 40075 54000 60021 7//4/ 333 11318 21382 70037
AAXX 01064 71362 16/// /1902 11190 21212 39948 40215 53013 60001 333 11150 21229 70009
AAXX 01064 71364 16/// /1901 11285 21315 30079 40221 51015 60001 333 11267 21301 70000
AAXX 01064 71365 16/// /0000 11351 21387 30005 40236 53022 60001 333 11266 21356 70000
AAXX 01064 71372 16/// /2602 11020 21027 60001 333 11020 21077 70010
AAXX 01064 71381 47/// /2602 11112 21130 6///1 7//4/ 333 21244 70000
AAXX 01064 71382 16/// /0000 11046 21050 39184 40127 58001 60001 333 11028 21131 70050
AAXX 01064 71393 16/// ///// 11124 21163 39015 40334 51024 60001 333 10008 21124 70000
AAXX 01064 71148 16/// /2916 11035 21068 39563 40148 53002 60001 333 10003 21051 70000 555 10070 33136 40223
AAXX 01064 71188 11/16 92604 11029 21042 30066 40109 56022 60081 77177 333 11026 21080 47018 70126 90983 93108 555 10110 20126
AAXX 01064 71631 16/// /1906 10007 21001 39648 40151 58019 60001 333 10013 21001 70000
AAXX 01064 71501 17/// /1505 11281 21311 30198 40200 51006 69931 7//4/ 333 11257 21345 70003
AAXX 01064 71616 16/// /3202 11035 21046 30048 40170 53003 60001 333 11030 21071 70040
AAXX 01064 71622 16/// ///// 10025 20018 39820 40159 58014 60001 333 10051 20017 70005
AAXX 01064 71243 16/// /3503 11095 21110 39223 40357 51029 60001 333 10024 21109 70000 555 32731 40222
AAXX 01064 71246 16/// /1903 11170 21186 39591 40281 51014 60001 333 11063 21172 70024 555 32918 40211
AAXX 01064 71758 17/// /1318 10055 20055 39974 40051 58073 69961 7//4/ 333 10057 21088 70063 555 31425 40041
AAXX 01064 71771 46/// /1438 10059 20051 30070 40091 58010 6///1 333 10060 21004 7////
AAXX 01064 71270 16/// /1703 10015 21013 39934 40156 58018 60001 333 10017 21009 70039 555 33117 40181
AAXX 01064 71288 16/// /2801 11383 21423 30225 40252 53015 60001 333 11348 21389 70000
AAXX 01064 71295 16/// /2807 11029 21050 39603 40049 53007 60001 333 11019 21091 70028 555 10040 20028 32618 40061
AAXX 01064 71296 16/// /1703 10004 21005 39851 40159 58013 60001 333 10006 21014 70058
AAXX 01064 71441 46/// /2916 11017 21054 39814 40124 51007 6///1 333 10019 21057 7//// 555 33033 40232
AAXX 01064 71443 16/// /2808 11056 21089 39729 40147 53027 60001 333 11013 21117 70000 555 32727 40201
AAXX 01064 71447 16/// /2816 11058 21103 39633 40187 53010 60001 333 11004 21058 70000 555 33230 40202
AAXX 01064 71472 16/// /1727 10066 20024 60001 333 10069 20006 70000 555 31635 40063
AAXX 01064 71150 46/// /3022 11053 21076 39452 40142 53009 6///1 333 11031 21064 7//// 555 33037 40233
AAXX 01064 71155 16/// ///// 11169 21199 60001 333 11034 21169 70000
AAXX 01064 71156 16/// /2605 11173 21221 39184 40327 53016 60001 333 11017 21186 70003 555 32630 40222
AAXX 01064 71158 17/// /3016 11056 21066 39791 40068 53023 69931 7//4/ 333 11016 21060 70003 555 32629 40012
AAXX 01064 71159 17/// /0909 11002 21013 30053 40126 58051 60051 7//4/ 333 11002 21036 70045 555 30720 40041
AAXX 01064 71160 16/// /2001 11191 21218 39994 40217 53015 60001 333 11182 21203 70000
AAXX 01064 71162 16/// /1106 11141 21165 39979 40196 51013 60001 333 7////
AAXX 01064 71164 46/// /0701 11332 21370 30164 51012 6///1 333 7////
AAXX 01064 71165 46/// ///00 11207 21230 39930 40226 53022 6///1 333 11188 21249 7////
AAXX 01064 71166 46/// /2308 11121 21163 39582 40209 53017 6///1 333 11099 21223 7//// 555 32620 40211
AAXX 01064 71183 16/// /2502 30126 50000 60001 333 70004
AAXX 01064 71196 16/// /1902 11049 21053 39960 40162 58009 60001 333 11045 21103 70010 555 10010 20010
AAXX 01064 71956 16/// /1308 10001 21007 39882 40115 58028 60001 333 10001 21055 70000
AAXX 01064 71959 17/// ///// 10064 20049 60031 7//4/ 333 10064 21043 70129
AAXX 01064 71970 16/// /2910 11098 21122 39656 40260 53035 60001 333 11033 21099 70003 555 33124 40001
AAXX 01064 71977 46/// /0000 11321 21321 39449 40213 53011 6///1 333 11278 21352 7////
AAXX 01064 71978 46/// /2609 11247 21272 39850 40182 53005 6///1 333 11246 21353 7//// 555 32518 40061
AAXX 01064 71837 17/// ///// 11068 69931 7//4/ 333 10005 21091 70003
AAXX 01064 71839 16/// ///// 11076 60001 333 10015 21076 70000
AAXX 01064 71849 16/// /2813 11022 21056 39811 40108 51007 60001 333 10015 21053 70006 555 31731 40102
AAXX 01064 71452 46/// /2920 11062 21121 39505 40233 53018 6///1 333 10021 21063 7//// 555 33138 40193
AAXX 01064 71456 16/// /3212 11087 21111 39600 40212 53038 60001 333 11029 21087 70000 555 33324 40041
AAXX 01064 71465 46/// /1815 10050 20016 39935 40152 58018 6///1 333 10059 20032 7//// 555 32021 40081
AAXX 01064 71470 16/// /0000 11320 21354 39567 40232 52017 60001 333 11258 21324 70000
AAXX 01064 71475 16/// /0904 11010 21011 30166 40262 58002 60001 333 10005 21047 70002
AAXX 01064 71476 17/// /0729 30146 58015 60021 7//4/ 333 7////
AAXX 01064 71480 16/// /2201 11361 21400 30109 40242 51012 60001 333 11318 21371 70000
AAXX 01064 71484 16/// /1413 10015 20005 30112 40131 56013 60001 333 10037 20010 70000 555 31734 40033
AAXX 01064 71492 46/// ///04 11278 21307 39461 40190 53014 6///1 333 11226 21285 7////
AAXX 01064 71807 16/// /1209 10003 21018 30189 40208 56048 60001 333 10011 21011 70000 555 33120 40071
AAXX 01064 71110 16/// /1014 10020 20011 30108 40168 56062 60001 333 10020 21017 70000 555 31119 40051
AAXX 01064 71141 16/// /3107 11366 21405 30181 40210 50006 60001 333 11347 21378 70000
AAXX 01064 71858 17/// /3210 11083 21100 39827 40111 51031 69931 7//4/ 333 11013 21083 70015 555 33324 40051
AAXX 01064 71861 16/// /3016 11066 21106 39445 40185 51014 60001 333 10016 21070 70000 555 10030 33033 40172
AAXX 01064 71300 16/// /2303 11035 21042 30046 40171 50002 60001 333 11021 21080 70017
AAXX 01064 71311 17/// /3407 10024 20020 30015 40039 56015 60021 7//4/ 333 10067 21075 70124 555 31218 40231
AAXX 01064 71314 16/// /2104 10002 21016 39804 40159 58011 60001 333 10004 21019 70046 555 32918 40231
AAXX 01064 71317 17/// /3602 10061 20057 39972 40018 58033 60031 7//4/ 333 10090 21077 70099 555 31118 40011
AAXX 01064 71320 16/// /3013 11361 21397 30085 40085 50001 60001 333 11296 21362 70000 555 33018 40221
AAXX 01064 71322 46/// /3618 11195 21215 30118 40131 51019 6///1 333 11113 21195 7//// 555 33523 40051
AAXX 01064 71920 17/// /3012 10071 20071 30023 40029 56018 69961 7//4/ 333 10101 20058 70158 555 31124 40131
AAXX 01064 71551 16/// /2813 11086 21128 39586 40267 53031 60001 333 10004 21092 70000 555 33026 40211
AAXX 01064 71556 16/// /3117 11053 21097 39606 40223 53030 60001 333 10003 21064 70000 555 10020 33131 40232
AAXX 01064 71571 16/// /2310 11108 21173 39049 40286 53009 60001 333 11070 21112 70007 555 32624 40111
AAXX 01064 71577 46/// /3013 11016 21067 6///1 333 10011 21064 7//// 555 31726 40101
AAXX 01064 71581 16/// /0000 11043 21048 39666 40155 56011 60001 333 11030 70000
AAXX 01064 71585 16/// /2204 11118 21127 39783 40263 53025 60001 333 7//// 555 10030
AAXX 01064 71402 46/// /1504 11039 21057 30082 40199 56039 6///1 333 11031 21055 7//// 555 33127 40071
AAXX 01064 71407 16/// /2318 11348 21390 30136 40158 51006 60001 333 11335 21380 70000 555 32420 40061
AAXX 01064 71429 17/// /0114 11008 21011 30061 40080 56025 60081 7//4/ 333 11006 21051 70190 555 30119 40061
AAXX 01064 71434 17/// /1003 11091 21103 39958 40025 58021 60011 7//4/ 333 11091 70013 555 10020 20013
AAXX 01064 71449 16/// /2711 11025 21057 39697 40102 51010 60001 333 10005 21046 70020 555 33127 40011
AAXX 01064 71851 16/// /2810 11011 21054 39782 40118 51006 60001 333 10024 21042 70000 555 33123 40211
AAXX 01064 71885 16/// ///// 11083 60001 333 10013 21106 7////
AAXX 01064 71074 16/// ///15 11327 21360 30096 40178 58002 60001 333 11304 21344 7////
AAXX 01064 71087 46/// /2601 11253 21281 30011 40227 53023 6///1 333 11184 21255 7////
AAXX 01064 71669 16/// /2301 11151 21173 38647 40331 51020 60001 333 11005 21154 70000 555 32523 40101
AAXX 01064 71015 16/// ///// 11081 60001 333 11010 21088 70003
AAXX 01064 71017 46/// /2812 11337 21372 30215 40231 51013 6///1 333 11332 21383 7////
AAXX 01064 71018 16/// ///12 11336 21371 30051 40143 56002 60001 333 11329 21368 70000
AAXX 01064 71019 46/// /3208 11049 21049 39815 40121 51006 6///1 333 11032 21123 7////
AAXX 01064 71020 46/// /3404 11241 21261 39933 40204 51019 6///1 333 11221 21294 7////
AAXX 01064 71021 46/// /0801 11309 21345 39859 40238 51017 6///1 333 11238 21311 7////
AAXX 01064 71026 17/// /2803 11110 21122 39444 40328 53027 69951 7//4/ 333 7//// 555 10010
AAXX 01064 71063 16/// /2503 11037 21044 30068 40168 50001 60001 333 11022 21077 70021 555 10010 20021
AAXX 01064 71721 17/// /1302 11034 21038 39909 40159 58003 60011 7//4/ 333 11031 21109 70040
AAXX 01064 71736 46/// ///// 11056 21135 6///1 333 10000 21061 7////
AAXX 01064 71742 46/// /1106 11039 21049 30017 40207 56039 6///1 333 11032 21067 7//// 555 32317 40181
AAXX 01064 71744 17/// /3505 10006 21002 30031 40072 58013 60081 7//4/ 333 10007 21113 70144 555 10020 20144
AAXX 01064 71747 46/// /2905 11016 21022 39578 40054 58002 6///1 333 7////
AAXX 01061 01492 11230 80801 10003 21003 39866 49984 58025 60072 77172 887// 333 21045 43005 70070 91103
AAXX 01064 91753 04586 /1003 10289 20242 30050 40081 53013 69902 700// 333 10311 20243 3/024 55082 60007 79999 90710 91108 555 60005
AAXX 01064 91754 06/// /0604 10290 20227 30037 40077 53011 60001 333 60007 555 10319 20249 60004 60005
AAXX 01064 71441 46/// /2916 11017 21054 39814 40124 51007 6///1 333 10019 21057 7//// 555 33033 40232
AAXX 01064 71443 16/// /2808 11056 21089 39729 40147 53027 60001 333 11013 21117 70000 555 32727 40201
AAXX 01064 71447 16/// /2816 11058 21103 39633 40187 53010 60001 333 11004 21058 70000 555 33230 40202
AAXX 01064 71472 16/// /1727 10066 20024 60001 333 10069 20006 70000 555 31635 40063
AAXX 01064 71148 16/// /2916 11035 21068 39563 40148 53002 60001 333 10003 21051 70000 555 10070 33136 40223
AAXX 01064 71188 11/16 92604 11029 21042 30066 40109 56022 60081 77177 333 11026 21080 47018 70126 90983 93108 555 10110 20126
AAXX 01064 71867 11474 23217 11110 21126 39813 40154 53035 69941 77177 81570 333 11037 21111 47025 70033 90983 555 10036 20029
AAXX 01064 71868 16/// /3310 11079 21111 39720 40169 53035 60001 333 11014 21079 70000 555 32826 40181
AAXX 01064 71807 16/// /1209 10003 21018 30189 40208 56048 60001 333 10011 21011 70000 555 33120 40071
AAXX 01064 71858 17/// /3210 11083 21100 39827 40111 51031 69931 7//4/ 333 11013 21083 70015 555 33324 40051
AAXX 01064 71861 16/// /3016 11066 21106 39445 40185 51014 60001 333 10016 21070 70000 555 10030 33033 40172
AAXX 01064 71631 16/// /1906 10007 21001 39648 40151 58019 60001 333 10013 21001 70000
AAXX 01061 01359 11319 80000 11070 21083 39040 49970 56026 60122 77377 8802/ 333 21089 48036 70124 91103
BBXX 44150 01061 99425 70640 46/// /2603 10092 40022 57037 22200 00080 10803 70017 333 91204
BBXX 44150 01061 99425 70640 46/// /2603 10092 40022 57037 22200 00080 10803 70017 333 91204
AAXX 01064 68298 16/// /0507 1//// 2//// 39497 4//// 52003 60134 333 2//// 91009 555 1//// 20134 91016
AAXX 01064 89528 46/// /3105 4//// 5////
AAXX 01064 89628 46/// /3030 4//// 5////
AAXX 01061 48845 01497 83401 10171 20152 30200 40207 57026 69943 70262 888// 333 59013 69921 83894 88697
AAXX 01061 48840 32498 82902 10164 20123 30194 40200 57034 888// 333 59020 83894 88696
AAXX 01060 44214 32998 02802 11144 21241 38392 40510 58009
AAXX 01060 44231 31996 31101 11154 21237 38838 40500 58012 70400 80008
AAXX 01060 44259 31997 82203 11137 21181 39360 40319 58031 70244 8807/
AAXX 01060 44277 32999 02903 11195 21221 37869 40551 58004 333 81008 82009
AAXX 01060 44288 31699 73311 11132 21192 38206 40411 58002 70232 85840 333 91115
AAXX 01060 44292 41898 23104 11120 21172 38748 40358 56006 70471 82080
AAXX 01060 44304 41996 82305 11158 21192 39030 40336 57023 77172 8802/
AAXX 01060 44354 32999 80000 11141 21184 39123 40303 57032 80007
AAXX 01060 44373 41594 83408 11101 21120 38577 40343 54000 77173 8802/ 333 96038
AAXX 01061 37279 32899 40901 10101 21025 39992 40134 53004 84040 555 20035
AAXX 01061 37308 32799 60000 11016 21032 39537 40209 58008 83031 333 21030
AAXX 01061 37531 32998 60000 11005 21020 39470 40214 52005 80050 333 21050
AAXX 01061 37651 16/// ///00 10014 21047 3//// 4//// 5//// 60002 333 21019
AAXX 01061 37492 NIL
AAXX 01061 37553 NIL
AAXX 01064 40356 NIL
AAXX 01064 40357 41604 80000 10032 20030 39533 40185 74200 85510 333 20028 59003 85640 83460
AAXX 01064 40360 41901 01002 10032 20030 39588 40183 71100 333 20022 58011
AAXX 01064 40361 42960 33104 10100 21010 39403 40177 80001 333 20078 58015
AAXX 01064 40362 NIL
AAXX 01064 40373 41657 41908 10150 20020 39727 40145 70611 84500 333 20110 59079 84635
AAXX 01064 40375 42960 23203 10070 21010 39296 40179 82020 333 20060 58015 82460
AAXX 01064 40377 42960 32812 10159 20050 39674 40152 83030 333 20110 59065 83358
AAXX 01064 40394 42660 30804 10148 20110 39033 48515 83500 333 20100 59022 83640 555 04410 50150
AAXX 01064 40400 42960 10104 10202 20120 30151 40179 80001 333 20160 58019 81070
AAXX 01064 40401 41656 41605 10200 20130 39458 40151 70600 84500 333 20160 59010 84640
AAXX 01064 40405 42960 02408 10170 20050 39427 40165 333 20110 59032
AAXX 01064 40416 42960 01707 10140 20120 30158 40178 333 20110 59053
AAXX 01064 40417 42960 01509 10163 20090 30183 40198 333 20106 59051
AAXX 01064 40420 42960 01708 10156 20080 39988 40199 333 20084 59049
AAXX 01064 40430 42960 01804 10220 20140 39437 40146 333 20210 59013
AAXX 01064 40435 42960 01806 10160 20010 39139 40017 333 20130 59031
AAXX 01064 40437 42960 01803 10163 21010 39484 40189 333 20100 59044
AAXX 01064 40439 42660 62808 10234 20200 30136 40154 83530 333 20208 59004 83640 83360
AAXX 01061 50468 32970 21802 11177 21225 30088 40322 57012 80002 333 21310
AAXX 01061 53463 32962 73201 11047 21159 39035 40347 57032 84032 333 05151 21136
AAXX 01061 53513 32770 72207 11013 21167 39049 40336 57028 85502 333 05201 21167
AAXX 01061 54218 32780 30702 11052 21197 39504 40357 57023 83500 333 21172
AAXX 01061 54337 32970 00403 11059 21186 30261 40350 57013 333 21118
AAXX 01061 54471 32960 00207 11081 21188 30340 40346 57012 333 21132
AAXX 01061 54497 32962 03203 11062 21185 30271 40288 52001 333 21094
AAXX 01061 54823 31950 03602 10028 21051 30113 40331 57021 70500 333 21015
AAXX 01061 51076 32980 00000 11121 21163 39526 40495 57004 333 00053 21229
AAXX 01061 51243 11865 70902 11094 21117 39870 40476 57012 69901 77070 875// 333 05201 21156
AAXX 01061 51463 32980 02501 11044 21116 39264 40432 57018 333 05402 21103
AAXX 01061 51573 32970 01601 11037 21147 30389 40436 57020 333 00201 21108
AAXX 01061 51709 32962 02202 11048 21108 38858 40433 57009 333 00202 21122
AAXX 01061 52652 32970 03403 11048 21152 38648 40422 57032 333 00656 21171
AAXX 01061 52983 31956 73602 11018 21116 38160 57031 70500 80002 333 00151 21121
AAXX 01061 54401 32980 72901 11034 21163 39378 40347 57025 80002 333 21116
AAXX 01061 56096 32670 11801 10076 21033 38986 40251 57048 81100 333 05200 21016
AAXX 01061 58102 31950 83602 10012 21009 30278 40328 57024 71040 8802/ 333 21013
AAXX 01061 58238 31659 20203 10087 21035 30258 40304 57019 70500 82500 333 20012
AAXX 01061 58251 31540 33606 10068 21021 30299 40304 57014 70540 83500 333 21015
AAXX 01061 58457 31430 73603 10080 20014 30241 40296 57013 70500 878// 333 20021
AAXX 01061 58752 31959 00703 10120 20030 30213 40260 57021 70500 333 20055
AAXX 01061 59287 32766 73204 10195 20088 30125 40211 57038 8254/ 333 20103
AAXX 01061 59316 32962 00903 10186 20109 30205 40210 57032 333 20132
AAXX 01061 59431 31558 80401 10148 20064 30080 40228 57037 70500 888// 333 20116
AAXX 01061 59644 32760 73604 10172 20094 30192 40209 57037 875// 333 20125
AAXX 01061 59758 32465 70704 10198 20152 30116 40193 57035 878// 333 20170
AAXX 01061 56187 11420 80201 10058 20041 39604 40268 57036 69951 76066 8377/ 333 05153 20056
AAXX 01061 57461 31956 01402 10109 20046 30124 40291 57035 70540 333 20030
AAXX 01061 57516 31820 83401 10088 20046 39944 40263 57032 71000 885// 333 05153 20059
AAXX 01061 57687 31715 83203 10057 20045 30195 40282 57025 71040 885// 333 20044
AAXX 01061 57816 32660 80202 10066 21002 38825 40237 57033 885// 333 05252 20045
AAXX 01061 58040 31957 00704 10048 21080 30303 40317 57015 70500 333 21019
AAXX 01061 58150 31540 63406 10050 21040 30315 40319 57003 70500 86500 333 20006
AAXX 01061 58221 32960 60702 10077 21023 30280 40309 57023 86040 333 21014
AAXX 01061 58606 31957 00703 10121 20036 30211 40270 57030 70500 333 20041
AAXX 01061 58847 32570 31803 10167 20062 30134 40237 57029 83800 333 20090
AAXX 01061 59117 32678 33602 10166 20061 30118 40225 57033 83500 333 20107
AAXX 01061 59134 32962 01103 10170 20068 30053 40222 57029 333 20111
AAXX 01061 56778 32972 12205 10194 20023 38103 57042 81040 333 05302 20007
AAXX 01061 57265 31920 83601 10071 20032 30189 40304 57029 71000 8803/ 333 20013
AAXX 01061 57494 31962 60403 10105 20042 30254 40285 57034 70040 86030 333 21011
AAXX 01061 58362 32568 73203 10078 21022 30283 40291 57013 8213/ 333 20028
AAXX 01064 40550 37/58 /1907 10183 20110 40163 53012 71011 333 55300 00107 10000 20317 30097 41320 51430 60414 55407 40220 90069 90400 91021 91121 91207 91305
AAXX 01064 40551 46/// /1326 10174 20066 333 90400 91034 91134 91227 91313
AAXX 01064 40552 37/57 /1626 10174 20069 40159 53008 70410 333 55300 90069 90401 91033 91134 91227 91321
AAXX 01064 40553 37/29 /1617 10180 20108 40159 53005 71011 333 55300 90069 90400 91029 91129 91221 91317
AAXX 01064 40568 36/// /1416 10173 20147 333 90400 91019 91121 91217 91315
AAXX 01064 40569 NIL
AAXX 01064 40570 37/59 /1710 10149 20027 40155 52016 71010 333 55300 90069 90401 91019 91123 91213 91309
AAXX 01064 40571 NIL
AAXX 01064 40572 NIL
AAXX 01064 40573 36/// /1707 10153 20052 333 90400 91021 91131 91223 91317
AAXX 01064 40580 36/// /1411 10190 20079 333 553// 00220 10000 20581 30128 41236 51456 60709 55407 40452 90401 91025 91127 91211 91307
AAXX 01064 40581 36/// /1807 10195 20094 333 90400 91017 91123 91207 91305
AAXX 01064 40582 31630 61621 10181 20075 40164 53002 70722 82430 333 55300 00242 10000 20624 30192 41269 51450 60817 55407 40432 82640 86358 90401 91027 91131 91221 91317
AAXX 01064 40583 NIL
AAXX 01064 40585 36/// /1723 10169 20125 222// 1//// 3//// 4//// 70/// 333 90400 91029 91129 91223 91319
AAXX 01064 40586 36/// /1518 10178 20072 333 90401 91025 91131 91219 91311
AAXX 01064 40587 36/// /1518 10183 20074 333 553// 00251 10000 20655 30211 41242 51427 60865 55407 40444 90400 91027 91131 91217 91309
AAXX 01064 40588 37/56 /1515 10185 20137 40170 53006 71011 333 55300 90069 90400 91023 91123 91215 91311
AAXX 01064 40589 NIL
AAXX 01064 40590 46/// /1622 10169 20052 333 90401 91029 91133 91223 91321
AAXX 01064 40591 NIL
AAXX 01064 40592 37/59 /1515 10165 20068 40171 53004 71000 333 55304 00335 10000 20793 30216 41178 51414 61009 55407 40578 90069 90400 91027 91127 91215 91311
AAXX 01064 40593 36/// /1822 10174 20124 333 90400 91029 91129 91223 91315
AAXX 01064 40594 36/// /1618 10180 20100 333 90401 91029 91129 91219 91311
AAXX 01064 40596 46/// /1627 10192 20128 333 90401 91033 91133 91227 91319
AAXX 01064 41024 41658 20502 10260 20230 30139 40158 71000 82500 333 20210 58008 82640
AAXX 01064 41030 42960 00000 10234 20210 39881 40153 333 20222 58004
AAXX 01064 41036 42960 10000 10166 20120 38593 48543 80001 333 20110 59008 81070 555 04410 50155
AAXX 01064 41055 42960 00000 10204 20030 38396 48543 333 20150 59012 555 04410 50156
AAXX 01064 41061 42960 00908 10160 20050 39476 40189 333 20090 59037
AAXX 01064 41084 42960 00000 10168 21010 38891 48542 333 20088 59022 555 04410 50166
AAXX 01064 41112 42960 01908 10181 20060 37988 48556 333 20096 59010 555 04410 50190
AAXX 01064 41114 42960 02103 10172 20110 38019 48552 333 20070 59011 555 04410 50188
AAXX 01064 41128 42960 02202 10176 21030 38849 48551 333 20075 59034 555 04410 50188
AAXX 01064 41136 42960 00000 10164 20010 39368 40193 333 20105 59036
AAXX 01064 41140 42960 01412 10252 20210 30155 40163 333 20210 59017
AAXX 01061 50953 32970 03202 11151 21225 30132 40328 57004 333 21218
AAXX 01061 52533 32980 00701 11046 21159 38636 40424 57027 333 00454 21149
AAXX 01061 52866 32968 01802 11002 21165 37717 57042 333 05153 21161
AAXX 01061 53588 32980 42504 11082 21173 37804 57022 80002 333 21128
AAXX 01061 53772 31940 02202 10026 21106 39363 40325 57040 70400 333 21099
AAXX 01061 53915 32970 73203 10036 21120 38726 40314 57030 80002 333 00152 21066
AAXX 01061 54342 32968 30204 11108 21183 30278 40345 57009 80002 333 21145
AAXX 01061 54511 32980 71102 10029 21179 30286 40328 57030 80002 333 21051
AAXX 01061 56080 32980 13601 10002 21171 37140 57038 80002 333 05253 21144
AAXX 01061 57083 31/09 90902 11009 21033 30188 40332 57024 74544 333 21017
AAXX 01064 13611 12965 03604 10036 21034 30101 40195 52008 60002 333 20024 30///
AAXX 01064 04211 47/50 /3602 11205 21232 39841 40011 52002 77777 333 11196 21209
AAXX 01064 04220 07/04 92709 11129 21146 39931 49984 52010 60022 77287 333 11111 21212 55300 20004 60027 70043 89/03 91019 91134 91222
AAXX 01064 04221 47/06 90915 11172 21205 39949 49989 52009 77277 333 11161 21178 89/06
AAXX 01064 04231 47538 80505 11226 21257 39957 40036 52010 77177 333 11214 21231 81/23 83/28 85/36 88/41
AAXX 01064 04234 47557 73606 11179 21236 30021 40032 52003 78587 333 11158 21184 87/23 91126
AAXX 01064 04241 45/83 /3415 11148 21222 39971 40013 52005 333 11122 21149
AAXX 01064 04250 07484 50208 11123 21160 39897 40006 52001 69902 72487 333 11116 21125 55300 20000 69907 70001 81/19 85/46
AAXX 01064 04254 47581 70208 11143 21196 39891 40011 52001 72277 333 11120 21143 82/20 86/32 87/69
AAXX 01064 04260 45984 20407 11124 21252 39949 49994 52003 333 11107 21126 82/70
AAXX 01064 04270 45/84 /1304 11111 21262 39861 49901 52020 333 11077 21121 91124
AAXX 01064 04272 07/09 0//// 11136 21197 39850 49925 52021 60112 77177 333 11106 21137 69927 70170
AAXX 01064 04312 46/// /0104 11295 21335 30019 40062 52001
AAXX 01064 04320 NIL
AAXX 01064 04339 47/18 ///// 11124 21133 39644 49734 52018 77177 333 11116 21137 55300 20000
AAXX 01064 04360 06/// /3407 11073 21102 39583 49652 52005 6///2 333 11063 21082 55300 20000 6///7 70000
AAXX 01064 04361 465// 82402 11073 21090 39604 49656 52006 333 11061 21096 85/26 88/41
AAXX 01064 04390 07/16 02835 11076 21170 39672 49766 52007 60192 77177 333 11036 21079 60027 70329 91047 91153
AAXX 01061 50136 NIL
AAXX 01061 50745 32968 03602 11127 21210 30138 40340 57017 333 21241
AAXX 01061 50774 32962 02201 11186 21244 39992 40334 57009 333 21327
AAXX 01061 50788 32970 02504 11185 21231 30206 40301 57005 333 21261
AAXX 01061 51133 32980 00702 11044 21154 39710 40395 57026 333 05900 21136
AAXX 01061 51431 32980 00702 11041 21118 39512 40355 57030 333 06354 21148
AAXX 01061 51747 32970 02201 11052 21138 39068 40461 57012 333 00101 21234
AAXX 01061 52203 32980 01102 11046 21150 39483 40426 57022 333 00201 21139
AAXX 01061 52418 32980 00202 11025 21146 39028 40419 57025 333 00451 21084
AAXX 01061 52681 32980 02907 11012 21158 38735 40388 57029 333 00352 21134
AAXX 01061 53564 32964 40000 11028 21120 39268 40347 57041 80002 333 05151 21172
AAXX 01061 53614 31956 72502 11019 21088 38993 40350 57027 70500 80002 333 00052 21113
AAXX 01061 53646 32978 03201 11009 21138 38930 40338 57023 333 00000 21147
AAXX 01061 53798 11930 83402 11031 21042 30245 40347 57024 69901 71070 8802/ 333 21034
AAXX 01061 53845 32968 00701 10043 21140 39154 40317 57040 333 00001 21102
AAXX 01061 53959 31930 03201 10042 21029 39857 40318 57037 71040 333 21058
AAXX 01061 54094 32962 70000 11144 21213 39973 40302 57007 80002 333 21244
AAXX 01061 54102 32980 71405 11166 21201 39105 40409 57034 80002 333 21268
AAXX 01061 54161 32962 03603 11132 21219 30019 40339 57004 333 21208
AAXX 01061 54292 32965 02704 11083 21187 39925 40266 57013 333 21178
AAXX 01061 54374 32968 70902 11076 21172 39797 40290 57001 80002 333 21139
AAXX 01061 54423 32980 42901 11032 21200 39804 40346 57029 80002 333 21121
AAXX 01061 54618 31962 61102 10024 21115 30319 40338 57020 70040 80002 333 21093
AAXX 01061 54843 32764 53603 10004 21030 30306 40335 57009 85400 333 21030
AAXX 01061 54909 32961 80403 10007 21015 30257 40323 57028 8807/ 333 21002
AAXX 01061 56029 32980 02904 10087 21213 36447 57048 333 05308 21174
AAXX 01061 57127 32960 71801 10076 20031 39663 40283 57035 87030 333 20036
AAXX 01061 57131 31908 81801 11002 21005 39818 40336 57031 74244 8801/ 333 21047
BBXX 44255 01061 99473 70573 46/// /1012 10032 40129 57061 22200 00033 10504 70018 333 91215
AAXX 01064 71727 11374 80000 11115 21133 39970 40173 58007 69901 70277 885// 333 11068 21204 48044 70030 90963 555 10052 20030
AAXX 01060 44203 32999 20000 11316 21338 38518 40622 58009 81049
AAXX 01060 44207 32999 72702 11198 21239 38408 40488 58007 86058
AAXX 01060 44212 32997 20000 11270 21301 39348 40637 52009 82041
AAXX 01060 44213 32999 00000 11265 21293 38953 40620 57005
AAXX 01060 44215 32998 00000 11189 21247 38546 40542 52007
AAXX 01060 44218 32998 03101 11127 21210 38737 40485 56010
AAXX 01060 44225 32998 23602 11285 21302 38348 40620 54000 81041
AAXX 01060 44230 41998 20000 11150 21181 38898 40479 58010 70170 81044
AAXX 01060 44232 32999 20000 11173 21214 39223 40448 57017 82040
AAXX 01060 44237 32999 10000 11124 21186 38570 40402 58007 81040
AAXX 01060 44239 32999 73403 11118 21170 38885 40382 56005 85044
AAXX 01060 44241 32999 20000 11181 21217 39365 40423 58004 82040
AAXX 01060 44256 32999 80000 11179 21198 39412 40333 58012 8801/
AAXX 01060 44265 32999 00000 11131 21174 38996 40495 58009
AAXX 01060 44272 31998 00000 11203 21238 38317 40493 57003 77840
AAXX 01060 44275 32998 00205 11149 21191 37772 40400 58002
AAXX 01060 44282 41998 72903 11123 21197 38368 40410 58010 77172 86540
AAXX 01060 44284 32999 12502 11137 21225 37888 40430 51002 80004
AAXX 01060 44285 31699 53606 11138 21164 38384 40418 57006 70232 85500 333 81002 84004
AAXX 01060 44287 41899 70207 11115 21213 38158 40397 54000 73673 87010
AAXX 01060 44294 41998 73506 11142 21175 38585 40367 57010 70272 87070
AAXX 01060 44298 41896 83204 11172 21172 38726 40336 58020 77072 8802/
AAXX 01060 44302 32999 72706 11162 21200 39148 40339 57025 87010
AAXX 01060 44305 32999 72902 11181 21205 39095 40339 57033 80008
AAXX 01060 44313 31999 61403 11204 21244 39478 40396 57016 70341 86020
AAXX 01060 44314 32998 61801 11135 21170 39197 40356 57031 84089
AAXX 01060 44317 32998 50000 11094 21146 38991 40320 58027 85038
AAXX 01060 44336 32999 50208 11090 21154 38746 40376 57005 80004 333 91114
AAXX 01060 44341 41996 83616 11132 21172 38611 40341 57021 73873 8801/ 333 91021 91120 91116
AAXX 01060 44347 41595 83210 11114 21134 38752 40337 58006 77173 8852/ 333 96038
AAXX 01060 44352 32999 71803 11178 21204 38947 40347 57023 87070
AAXX 01060 44358 32998 50905 11194 21206 39132 40376 57034 80008
AAXX 01064 47401 11/50 73004 11002 21030 30155 40170 55000 69901 78582 873//
AAXX 01064 47412 12/65 71406 10023 21026 30141 40174 56011 60001 8223/
AAXX 01064 47420 15/70 /1505 11002 21043 30172 40206 56008 60001
AAXX 01064 47426 17/70 /0607 10012 21007 30142 40191 56013 69901 70076
AAXX 01064 47582 11/60 81209 10026 21031 30130 40157 56014 69901 77022 8552/
AAXX 01064 47590 12/80 71302 10056 21018 30122 40176 55021 60001 85572
AAXX 01064 47600 17/58 /1805 10057 20047 30152 40160 56010 60161 76160
AAXX 01064 47648 11/65 82905 10099 20036 30136 40170 56015 69901 70262 888//
AAXX 01064 47662 12/70 73205 10080 21058 30128 40173 55022 60001 82532
AAXX 01064 47678 15/70 /2404 10136 20062 39993 40179 56009 60001
AAXX 01064 47740 17/59 /3103 10065 20050 30126 40161 56019 60021 72386
AAXX 01064 47778 17/70 /0804 10108 20054 30091 40175 55015 69951 70060
AAXX 01064 47807 11/50 81906 10070 20019 30189 40208 56013 69901 72582 882//
AAXX 01064 47827 11/70 70109 10122 20042 30155 40193 55009 69901 70282 83400
AAXX 01064 47843 17/48 /3308 10093 20051 30178 40211 56013 60041 78186
AAXX 01064 47893 12/70 72605 10125 20021 30169 40175 55013 60001 872//
AAXX 01064 47909 11/65 73412 10165 20080 30174 40184 56014 69901 70282 872//
AAXX 01064 47918 12/65 20213 10198 20105 30183 40201 56023 60001 81130
AAXX 01064 47936 11/60 73516 10171 20083 30138 40197 56012 69901 70282 8783/
AAXX 01064 47945 11/60 73314 10199 20119 30143 40167 56013 69901 70262 8687/
AAXX 01064 47971 11/75 21303 10197 20127 30156 40166 56017 69901 72511 82230
AAXX 01064 47991 NIL
AAXX 01064 47407 11/56 82001 11039 21072 30010 40189 56011 69901 78582 8627/
AAXX 01064 47409 12/80 72003 11003 21061 30135 40190 56008 60001 8117/
AAXX 01064 47418 11/65 71913 10020 21014 30150 40200 56012 69901 72611 82232
AAXX 01064 47421 17/70 /1705 10015 21036 30128 40172 55011 69901 70070
AAXX 01064 47430 11/60 81107 10027 21026 30112 40167 56017 69901 78322 882//
AAXX 01064 47570 17/70 /3301 10020 21033 39911 40176 56019 60001 70030
AAXX 01064 47575 11/80 20608 10032 21031 30147 40152 56034 69901 70172 81530
AAXX 01064 47584 12/81 82403 10001 21047 39987 40182 56020 60001 8757/
AAXX 01064 47604 11/65 81802 10042 21002 30155 40164 55013 69901 78082 882//
AAXX 01064 47605 11/50 82510 10068 20041 30124 40166 55008 69951 78082 882//
AAXX 01064 47610 12/75 10902 10061 21046 39651 40156 56023 60001 81230
AAXX 01064 47624 12/75 22203 10083 21059 30027 40166 56026 60001 81102
AAXX 01064 47629 11/75 83402 10083 20015 30131 40170 55018 69901 70262 8157/
AAXX 01064 47636 12/65 70502 10078 21053 30114 40183 56020 60001 86531
AAXX 01064 47651 12/70 71503 10066 21013 30163 40186 56018 60001 85831
AAXX 01064 47655 15/70 /2709 10109 20006 30118 40175 56017 60001
AAXX 01064 47675 15/70 /2210 10122 20024 30079 40170 55020 60001
AAXX 01064 47741 11/57 82507 10068 20038 30151 40179 56013 69901 78082 882//
AAXX 01064 47746 11/65 81105 10058 20023 30158 40178 55011 69901 72582 882//
AAXX 01064 47750 12/81 72302 10091 20041 30141 40169 56018 60001 87200
AAXX 01064 47765 11/70 73007 10091 20013 30118 40184 55013 69901 72582 872//
AAXX 01064 47772 12/80 22506 10110 20004 30077 40178 56018 60001 81802
AAXX 01064 47800 17/57 /1910 10082 20016 30192 40197 56023 60001 70400
AAXX 01064 47815 11/60 80306 10089 20031 30179 40196 55011 69901 70282 882//
AAXX 01064 47817 11/58 83506 10086 20022 30165 40209 55010 69901 78082 882//
AAXX 01064 47830 12/60 72810 10144 20010 30162 40180 55014 60001 86830
AAXX 01064 47887 11/60 82603 10091 20013 30149 40191 56009 60011 72582 8727/
AAXX 01064 47891 11/70 72707 10093 20031 30164 40181 55013 69901 72511 872//
AAXX 01064 47895 12/82 20605 10114 20024 30168 40176 56019 60001 81831
AAXX 01064 47927 11/58 70113 10182 20108 30155 40204 56019 60001 70511 878//
BBXX 44255 01061 99473 70573 46/// /1012 10032 40129 57061 22200 00033 10504 70018 333 91215
AAXX 01064 71727 11374 80000 11115 21133 39970 40173 58007 69901 70277 885// 333 11068 21204 48044 70030 90963 555 10052 20030
AAXX 01064 40356 NIL
AAXX 01064 40357 41604 80000 10032 20030 39533 40185 74200 85510 333 20028 59003 85640 83460
AAXX 01064 40360 41901 01002 10032 20030 39588 40183 71100 333 20022 58011
AAXX 01064 40361 42960 33104 10100 21010 39403 40177 80001 333 20078 58015
AAXX 01064 40362 NIL
AAXX 01064 40373 41657 41908 10150 20020 39727 40145 70611 84500 333 20110 59079 84635
AAXX 01064 40375 42960 23203 10070 21010 39296 40179 82020 333 20060 58015 82460
AAXX 01064 40377 42960 32812 10159 20050 39674 40152 83030 333 20110 59065 83358
AAXX 01064 40394 42660 30804 10148 20110 39033 48515 83500 333 20100 59022 83640 555 04410 50150
AAXX 01064 40400 42960 10104 10202 20120 30151 40179 80001 333 20160 58019 81070
AAXX 01064 40401 41656 41605 10200 20130 39458 40151 70600 84500 333 20160 59010 84640
AAXX 01064 40405 42960 02408 10170 20050 39427 40165 333 20110 59032
AAXX 01064 40416 42960 01707 10140 20120 30158 40178 333 20110 59053
AAXX 01064 40417 42960 01509 10163 20090 30183 40198 333 20106 59051
AAXX 01064 40420 42960 01708 10156 20080 39988 40199 333 20084 59049
AAXX 01064 40430 42960 01804 10220 20140 39437 40146 333 20210 59013
AAXX 01064 40435 42960 01806 10160 20010 39139 40017 333 20130 59031
AAXX 01064 40437 42960 01803 10163 21010 39484 40189 333 20100 59044
AAXX 01064 40439 42660 62808 10234 20200 30136 40154 83530 333 20208 59004 83640 83360
AAXX 01064 41024 41658 20502 10260 20230 30139 40158 71000 82500 333 20210 58008 82640
AAXX 01064 41030 42960 00000 10234 20210 39881 40153 333 20222 58004
AAXX 01064 41036 42960 10000 10166 20120 38593 48543 80001 333 20110 59008 81070 555 04410 50155
AAXX 01064 41055 42960 00000 10204 20030 38396 48543 333 20150 59012 555 04410 50156
AAXX 01064 41061 42960 00908 10160 20050 39476 40189 333 20090 59037
AAXX 01064 41084 42960 00000 10168 21010 38891 48542 333 20088 59022 555 04410 50166
AAXX 01064 41112 42960 01908 10181 20060 37988 48556 333 20096 59010 555 04410 50190
AAXX 01064 41114 42960 02103 10172 20110 38019 48552 333 20070 59011 555 04410 50188
AAXX 01064 41128 42960 02202 10176 21030 38849 48551 333 20075 59034 555 04410 50188
AAXX 01064 41136 42960 00000 10164 20010 39368 40193 333 20105 59036
AAXX 01064 41140 42960 01412 10252 20210 30155 40163 333 20210 59017
AAXX 01061 01241 16/// /1310 10015 21004 39880 49891 50000 6//// 333 21004 91117
AAXX 01061 01026 16/// /0902 11004 21072 39829 49971 57031 6//// 333 21086 4/024 91112
AAXX 01061 01062 11961 81603 11034 21055 30085 40098 52001 69922 78520 80005 333 21047 70003 91107
AAXX 01064 84401 31560 81810 10244 20178 30083 40127 70222 885// 333 560// 59004 84620 84640
AAXX 01064 84501 31950 21303 10198 20163 30079 40106 71010 82030 333 56000 59022 82365
AAXX 01064 84515 31458 60107 10250 20236 39916 40093 70990 8293/ 333 5699/ 59016 82915 83358
AAXX 01064 84452 31660 61905 10214 20184 30086 40117 70122 865// 333 560// 59004 86635
AAXX 01064 84628 34730 51805 10219 20180 30091 40107 70422 85500 333 56400 59029 85656
AAXX 01064 84377 31220 80000 10239 20223 39986 40091 70422 8662/ 333 5600/ 59011 86705 85460
AAXX 01064 84691 31457 10704 10221 20189 30099 40106 71002 81600 333 560// 59026 81715
AAXX 01064 84782 31662 42305 10194 20137 39621 40127 70122 84500 333 56100 59009 84640
AAXX 01064 84752 32205 83006 10110 20107 37525 74045 887// 333 569// 59003 88702
AAXX 01064 65306 32960 50000 10216 20017 39797 40128 80002 333 01000 20179 50774 55100 59015 85076
AAXX 01064 65319 32960 53604 10220 20015 39609 40120 80002 333 01800 20204 50774 55095 59016 85076
AAXX 01064 65330 31930 51004 10200 20040 39677 40114 70522 80002 333 01700 20198 50824 55092 00405 59012 85076
AAXX 01064 65335 31940 53204 10200 20121 39890 40113 70522 80002 333 01500 20195 50524 55095 59013 85076
AAXX 01064 65344 31320 72804 10252 20249 30100 40111 71022 86502 333 02400 20250 50334 55078 59009 86608 83076
AAXX 01061 63330 32980 01604 10178 21127 37826 40305 333 20094 59004
AAXX 01061 63331 NIL
AAXX 01061 63332 32980 01701 10136 20030 38233 40168 333 20060 59001
AAXX 01061 63333 32980 00000 10162 20023 38200 333 20040 59003
AAXX 01061 63334 NIL
AAXX 01061 63340 32980 03601 10160 20081 37977 40208 333 20125 59002
AAXX 01061 63402 NIL
AAXX 01061 63403 31960 21901 10190 20107 7052/ 82030 333 20142 82360
AAXX 01061 63450 NIL
AAXX 01061 63451 31975 00000 10142 20107 38176 40185 70500 333 21010 59007
AAXX 01061 63453 31975 03603 10146 39104 7050/ 333 20065 59002
AAXX 01061 63460 32980 02602 10172 20057 333 20080
AAXX 01061 63471 31970 02401 10245 20077 38890 40149 70500 333 20140 59014
AAXX 01061 63474 32980 03602 10144 21024 333 20020
AAXX 01061 63478 31970 10806 10265 20126 39836 40216 7050/ 80001 333 20180 59016 81070
AAXX 01061 63500 31970 01801 10208 20133 7050/ 333 20112
AAXX 01061 63533
AAXX 01031 63403 41960 20000 10152 20085 705// 82030 333 82360
AAXX 01031 63453 41975 02401 10092 39100 710// 333 59004
AAXX 01031 63460 43980 00000 10118 20042
AAXX 01061 08501 12/// /3103 10153 20117 30271 40307 52010 60042 333 20150 30011 5//// 55014 20419 91006 91110
AAXX 01061 08505 NIL
AAXX 01061 08509 11560 33105 10154 20141 30225 40290 51001 69902 70281 83800 333 20154 50634 55032 81820 91109
AAXX 01061 08512 32470 72506 10168 20167 30211 40296 57002 8683/ 333 20166 30016 5//// 55076 20980 85812 91111
AAXX 01061 08515 11472 72607 10168 20149 30186 40308 57005 69922 72521 8687/ 333 20152 31014 50224 55/// 83812 86635 910// 911// 96020
AAXX 01061 08533 32/// /0202 10112 20099 30266 40295 57005 333 20110 30008 5//// 55083 21215 91105
AAXX 01061 08541 32/// /3001 10112 20098 30175 40296 57009 333 20089 30004 5//// 55081 21073
AAXX 01061 08545 11234 81302 10110 20096 30199 40283 57014 69932 75052 888// 333 20108 31008 50094 55006 20391 82705 84709 86616 96010
AAXX 01061 08548 32/// /0702 10093 20081 30083 40293 57009 333 20088 30007 5//// 55064 20833
AAXX 01061 08554 31965 00000 10076 20050 30284 40294 56004 70300 80001 333 20066 30008 5//// 55086 21130 81072
AAXX 01061 08558 32/// /2702 10039 20039 39993 40299 57006 333 20039 30000 5//// 55000 20998
AAXX 01061 08560 32/// /9901 10069 20061 39524 40297 57009 333 20060 30101 5//// 55075 20919
AAXX 01061 08567 NIL
AAXX 01061 08570 32/// /0000 10051 20039 39822 40295 57007 333 20051 30001 5//// 55082 20923
AAXX 01061 08575 32/// /2601 10080 20059 39464 40285 57009 333 20051 30004 5//// 55072 20837
AAXX 01061 08579 NIL
AAXX 01064 61974 12581 62403 10302 20243 40118 60414 81846 333 0//29 20235 58002 81820 86275 94329
AAXX 01064 61986 12580 21304 10296 20241 40112 69914 82200 333 0//19 20268 58001 82820 94322
AAXX 01064 61988 12480 50910 10275 20222 40121 60004 85202 333 20245 50652 59006 85818 91120
AAXX 01064 61989 12480 31112 10298 20229 40129 60004 83802 333 20248 59004 83818
AAXX 01064 61990 12475 31204 10296 20225 40127 60004 83242 333 02100 20226 50702 59004 83819 94322
AAXX 01064 61995 12475 51503 10281 20205 39652 69994 85200 333 01819 20200 50492 59005 85818 94323
AAXX 01061 06447 16/// /2406 10114 20105 39989 40112 55004 60012 333 20104 3/010 91113 91207
AAXX 01061 40706 11411 80202 10009 20001 38652 40217 53008 69901 71075 886XX 333 3/101 42001 70010 88716
AAXX 01061 40718 12560 72703 10098 20077 30210 40181 53017 60001 84570 222// 00102 20301 333 30006 50111 70000 84630 87360
AAXX 01061 40732 12560 50000 10114 20090 30194 40170 52018 60001 82770 333 30003 50041 70000 82725 85360
AAXX 01061 40745 12662 20000 10079 21062 39036 40203 52004 60001 82500 333 30108 52004 70000 82640
AAXX 01061 40754 11550 82403 10048 20002 38842 40209 53005 69941 70562 8532/ 333 31001 5//// 70012 81725 82930 84635 88459
AAXX 01061 40766 11660 81105 10070 20033 38704 40192 52008 69931 70266 8432/ 333 31005 69931 70027 82935 84640 88458
AAXX 01061 40800 11650 80000 10050 21027 38482 40227 53017 60001 70522 8252/ 333 30102 5///1 70000 82640 88460
AAXX 01061 40811 NIL
AAXX 01061 40841 12962 30000 10062 21120 38292 40250 51008 60001 81035 333 30108 5//// 70000 81362 83270
AAXX 01061 40848 11658 20000 10068 21042 38571 40246 50011 60001 70510 81102 333 30104 5///1 70000 81840
AAXX 01061 40856 12962 01602 10093 21125 38680 40233 50015 60001 333 30110 5///1 70000
AAXX 01061 40875 12960 10902 10214 21028 30205 40217 52024 60001 80001 333 30007 50271 70000 81070
AAXX 01061 40706 11411 80202 10009 20001 38652 40217 53008 69901 71075 886XX 333 3/101 42001 70010 88716
AAXX 01061 40718 12560 72703 10098 20077 30210 40181 53017 60001 84570 222// 00102 20301 333 30006 50111 70000 84630 87360
AAXX 01061 40732 12560 50000 10114 20090 30194 40170 52018 60001 82770 333 30003 50041 70000 82725 85360
AAXX 01061 40745 12662 20000 10079 21062 39036 40203 52004 60001 82500 333 30108 52004 70000 82640
AAXX 01061 40754 11550 82403 10048 20002 38842 40209 53005 69941 70562 8532/ 333 31001 5//// 70012 81725 82930 84635 88459
AAXX 01061 40766 11660 81105 10070 20033 38704 40192 52008 69931 70266 8432/ 333 31005 69931 70027 82935 84640 88458
AAXX 01061 40800 11650 80000 10050 21027 38482 40227 53017 60001 70522 8252/ 333 30102 5///1 70000 82640 88460
AAXX 01061 40811 NIL
AAXX 01061 40841 12962 30000 10062 21120 38292 40250 51008 60001 81035 333 30108 5//// 70000 81362 83270
AAXX 01061 40848 11658 20000 10068 21042 38571 40246 50011 60001 70510 81102 333 30104 5///1 70000 81840
AAXX 01061 40856 12962 01602 10093 21125 38680 40233 50015 60001 333 30110 5///1 70000
AAXX 01061 40875 12960 10902 10214 21028 30205 40217 52024 60001 80001 333 30007 50271 70000 81070
AAXX 01061 28676 31497 81603 11136 21154 30241 40377 53003 78581 8595/ 333 21162
AAXX 01061 28766 11997 81905 11108 21124 30159 40360 57003 69900 77171 8802/ 333 21165
AAXX 01061 28867 11598 81803 11104 21124 30078 40365 57006 69900 70371 885// 333 21184
AAXX 01061 28879 32997 61704 11110 21150 30080 40385 57007 80001 333 21145
AAXX 01061 28952 11999 81605 11079 21093 30146 40346 57007 69900 70272 8802/ 333 21162
AAXX 01061 28966 11598 61503 11152 21163 30084 40390 57021 69900 70272 82531 333 21181
AAXX 01061 29802 NIL
AAXX 01061 29807 NIL
AAXX 01061 34691 31993 80000 10002 21022 30207 40194 54000 74642 8802/ 333 21007
AAXX 01061 35067 11998 71202 11125 21134 30083 40378 57013 69900 70172 87070 333 21165
AAXX 01061 35078 11998 51303 11169 21190 30000 40412 57007 69930 70274 80002 333 21192
AAXX 01061 35085 32998 21602 11176 21198 39903 40421 57004 80001 333 21212
AAXX 01061 35108 31496 81502 11037 21048 30170 40217 52008 71022 886// 333 21069
AAXX 01061 35188 11297 71402 11129 21150 39953 40417 57010 69900 77172 87600 333 21153 87704
AAXX 01061 35217 11998 81503 11044 21050 30175 40217 53007 69900 70172 8802/ 333 21072
AAXX 01061 35229 NIL
AAXX 01061 35302 11596 81303 11034 21055 30189 40209 51007 69900 71022 886// 333 21061
AAXX 01061 35357 32997 21601 11180 21206 39931 40105 57015 80001 333 21224
AAXX 01061 35394 31998 00000 11130 21143 39699 40422 57008 70241 333 21167
AAXX 01061 35406 32597 81201 11031 21055 30202 40204 53010 885// 333 21032
AAXX 01061 35416 NIL
AAXX 01061 35426 NIL
AAXX 01061 35497 32998 00000 11074 21154 39563 40395 57010 333 21183
AAXX 01061 35532 NIL
AAXX 01061 35671 12998 00704 11110 21151 39925 40380 57011 69900 333 21125
AAXX 01061 35700 12598 80801 11016 21040 30214 40190 53006 69920 885// 333 21008
AAXX 01061 35746 32998 60804 11111 21139 30224 40295 57006 80001 333 21128
AAXX 01061 35796 11999 00307 11158 21186 39933 40402 57018 69950 73673 333 21187
AAXX 01061 35849 32998 50904 11089 21118 30187 40277 57011 80001 333 21099
AAXX 01061 35925 31996 61606 11050 21063 40208 56003 71011 80002 333 21057
AAXX 01061 35953 32999 20910 11078 21114 30151 40286 57016 80001 333 21104
AAXX 01061 35969 32999 00708 11081 21122 30133 40314 57013 333 21106
AAXX 01061 36003 NIL
AAXX 01061 36152 32998 11602 11151 21206 30224 40427 58009 80002 333 21175
AAXX 01061 36177 32997 01302 11122 21164 30179 40442 58009 333 21184
AAXX 01061 36208 32999 00702 11150 21184 39424 40477 53004 333 21194
AAXX 01061 36397 32999 00000 11080 21126 39844 40433 58016 333 21145
AAXX 01061 36428 32998 00000 11156 21183 39930 40469 58011 333 21209 95000
AAXX 01061 36535 31999 40000 11106 21159 39793 40392 57008 60010 70171 83030 333 21146
AAXX 01061 36639 32999 00000 11145 21196 39756 40403 57026 333 21246
AAXX 01061 36821 31896 80301 11107 21122 39840 40357 57018 71022 8707/ 333 21118
AAXX 01061 36859 32999 00902 11028 21115 39541 40341 57030 333 21115
AAXX 01061 36864 32999 00905 11042 21084 39396 40316 57026 333 21128
AAXX 01061 36870 32998 00201 11025 21082 39258 40291 57027 333 21100
AAXX 01061 38001 32997 83602 10010 21010 30218 40188 53008 8807/ 333 20007
AAXX 01061 38062 32999 00806 11062 21097 30108 40277 57003 333 21097
AAXX 01061 38069 32998 01101 11026 21083 30073 40269 53004 333 21061
AAXX 01061 38196 31998 00203 10014 21138 39263 40249 57005 73633 333 21054
AAXX 01061 38198 31996 01401 11055 21093 30003 40272 58002 71000 333 21108
AAXX 01061 38222 32998 00000 11112 21147 39701 40291 57014 333 21191
AAXX 01061 38232 32598 71201 11023 21054 30092 40193 57002 87500 333 21061
AAXX 01061 38328 32999 01202 11042 21116 39509 40261 58008 333 21135
AAXX 01061 38334 32998 00000 11008 21131 39275 40253 58001 333 21096
AAXX 01061 38341 31996 82001 11108 21114 39478 40310 57007 77172 8802/ 333 21104
AAXX 01061 38343 32998 03201 11086 21110 39408 40290 57011 333 21195
AAXX 01061 38439 31/93 91203 11040 21045 39909 40259 57008 74544 333 21060
AAXX 01061 28676 31497 81603 11136 21154 30241 40377 53003 78581 8595/ 333 21162
AAXX 01061 28766 11997 81905 11108 21124 30159 40360 57003 69900 77171 8802/ 333 21165
AAXX 01061 28867 11598 81803 11104 21124 30078 40365 57006 69900 70371 885// 333 21184
AAXX 01061 28879 32997 61704 11110 21150 30080 40385 57007 80001 333 21145
AAXX 01061 28952 11999 81605 11079 21093 30146 40346 57007 69900 70272 8802/ 333 21162
AAXX 01061 28966 11598 61503 11152 21163 30084 40390 57021 69900 70272 82531 333 21181
AAXX 01061 29802 NIL
AAXX 01061 29807 NIL
AAXX 01061 34691 31993 80000 10002 21022 30207 40194 54000 74642 8802/ 333 21007
AAXX 01061 35067 11998 71202 11125 21134 30083 40378 57013 69900 70172 87070 333 21165
AAXX 01061 35078 11998 51303 11169 21190 30000 40412 57007 69930 70274 80002 333 21192
AAXX 01061 35085 32998 21602 11176 21198 39903 40421 57004 80001 333 21212
AAXX 01061 35108 31496 81502 11037 21048 30170 40217 52008 71022 886// 333 21069
AAXX 01061 35188 11297 71402 11129 21150 39953 40417 57010 69900 77172 87600 333 21153 87704
AAXX 01061 35217 11998 81503 11044 21050 30175 40217 53007 69900 70172 8802/ 333 21072
AAXX 01061 35229 NIL
AAXX 01061 35302 11596 81303 11034 21055 30189 40209 51007 69900 71022 886// 333 21061
AAXX 01061 35357 32997 21601 11180 21206 39931 40105 57015 80001 333 21224
AAXX 01061 35394 31998 00000 11130 21143 39699 40422 57008 70241 333 21167
AAXX 01061 35406 32597 81201 11031 21055 30202 40204 53010 885// 333 21032
AAXX 01061 35416 NIL
AAXX 01061 35426 NIL
AAXX 01061 35497 32998 00000 11074 21154 39563 40395 57010 333 21183
AAXX 01061 35532 NIL
AAXX 01061 35671 12998 00704 11110 21151 39925 40380 57011 69900 333 21125
AAXX 01061 35700 12598 80801 11016 21040 30214 40190 53006 69920 885// 333 21008
AAXX 01061 35746 32998 60804 11111 21139 30224 40295 57006 80001 333 21128
AAXX 01061 35796 11999 00307 11158 21186 39933 40402 57018 69950 73673 333 21187
AAXX 01061 35849 32998 50904 11089 21118 30187 40277 57011 80001 333 21099
AAXX 01061 35925 31996 61606 11050 21063 40208 56003 71011 80002 333 21057
AAXX 01061 35953 32999 20910 11078 21114 30151 40286 57016 80001 333 21104
AAXX 01061 35969 32999 00708 11081 21122 30133 40314 57013 333 21106
AAXX 01061 36003 NIL
AAXX 01061 36152 32998 11602 11151 21206 30224 40427 58009 80002 333 21175
AAXX 01061 36177 32997 01302 11122 21164 30179 40442 58009 333 21184
AAXX 01061 36208 32999 00702 11150 21184 39424 40477 53004 333 21194
AAXX 01061 36397 32999 00000 11080 21126 39844 40433 58016 333 21145
AAXX 01061 36428 32998 00000 11156 21183 39930 40469 58011 333 21209 95000
AAXX 01061 36535 31999 40000 11106 21159 39793 40392 57008 60010 70171 83030 333 21146
AAXX 01061 36639 32999 00000 11145 21196 39756 40403 57026 333 21246
AAXX 01061 36821 31896 80301 11107 21122 39840 40357 57018 71022 8707/ 333 21118
AAXX 01061 36859 32999 00902 11028 21115 39541 40341 57030 333 21115
AAXX 01061 36864 32999 00905 11042 21084 39396 40316 57026 333 21128
AAXX 01061 36870 32998 00201 11025 21082 39258 40291 57027 333 21100
AAXX 01061 38001 32997 83602 10010 21010 30218 40188 53008 8807/ 333 20007
AAXX 01061 38062 32999 00806 11062 21097 30108 40277 57003 333 21097
AAXX 01061 38069 32998 01101 11026 21083 30073 40269 53004 333 21061
AAXX 01061 38196 31998 00203 10014 21138 39263 40249 57005 73633 333 21054
AAXX 01061 38198 31996 01401 11055 21093 30003 40272 58002 71000 333 21108
AAXX 01061 38222 32998 00000 11112 21147 39701 40291 57014 333 21191
AAXX 01061 38232 32598 71201 11023 21054 30092 40193 57002 87500 333 21061
AAXX 01061 38328 32999 01202 11042 21116 39509 40261 58008 333 21135
AAXX 01061 38334 32998 00000 11008 21131 39275 40253 58001 333 21096
AAXX 01061 38341 31996 82001 11108 21114 39478 40310 57007 77172 8802/ 333 21104
AAXX 01061 38343 32998 03201 11086 21110 39408 40290 57011 333 21195
AAXX 01061 38439 31/93 91203 11040 21045 39909 40259 57008 74544 333 21060
AAXX 01061 30372 42799 80000 11273 21298 39411 40378 58008 82905
AAXX 01061 30433 41999 80201 11161 21180 39711 40346 58006 70272 84031
AAXX 01061 30554 41997 80000 11231 21250 39170 40360 57018 77172 8802/
AAXX 01061 30635 41896 80902 11153 21166 39736 40345 58006 77177 8802/
AAXX 01061 30673 42999 00000 11203 21236 39506 40338 58018
AAXX 01061 30692 41996 02702 11224 21256 39785 40325 57/// 71000
AAXX 01061 30758 41995 80000 11225 21257 39461 40361 58022 77172 8807/
AAXX 01061 30802 41698 82904 11110 21194 38798 48569 58007 71511 83531
AAXX 01061 30823 41697 82502 11143 21178 39687 40363 58009 78587 84932
AAXX 01061 30879 42999 00502 11247 21272 39537 40377 57014
AAXX 01061 30935 41697 82001 11127 21154 39376 40363 58013 71572 83941
AAXX 01061 30949 41999 80000 11163 21189 39169 40332 57014 70272 8802/
AAXX 01061 30965 42999 81102 11190 21216 39457 40348 57028 8807/
AAXX 01061 31168 42999 00000 11202 21235 30231 40243 57005
AAXX 01061 31300 41996 60000 11246 21259 30000 40321 55006 71011 80001
AAXX 01061 31329 42999 00000 11279 21324 39587 40334 57007
AAXX 01061 31369 41497 82603 11206 21212 30168 40260 57006 78582 85902 333 85917
AAXX 01061 31416 42998 00000 11237 21256 30181 40280 56010
AAXX 01061 31484 42999 02701 11197 21237 39926 40295 57003
AAXX 01061 31512 429// 01601 11181 21231 30135 40335 40316 57011
AAXX 01061 31538 42999 00000 11236 21276 39839 40317 57007
AAXX 01061 31707 42999 33403 11177 21236 30199 40299 57009 80001
AAXX 01061 31735 42997 21201 11216 21242 30193 40290 55003 80001
AAXX 01061 31770 41997 83602 11135 21187 30210 40242 57007 77072 86021
AAXX 01060 44210 32999 10000 11158 21200 38644 58010 81030
AAXX 01060 44216 32999 00000 11292 21315 39186 40627 51003
AAXX 01060 44217 32998 00000 11188 21237 37940 40528 58004
AAXX 01060 44219 32998 00902 11255 21273 38762 40591 51001
AAXX 01060 44221 32998 50000 11298 21321 38741 40636 58009 80008
AAXX 01060 44224 32998 00000 11299 21330 38153 40629 58003
AAXX 01060 44229 32999 22504 11198 21247 37991 40487 58004 80004
AAXX 01060 44242 32998 30000 11196 21233 39432 40434 57011 82042
AAXX 01060 44243 32999 30000 11230 21263 39530 40454 58010 83060
AAXX 01060 44254 41595 82502 11152 21172 39073 40316 58009 77172 8802/
AAXX 01060 44257 41998 82906 11110 21168 39000 40326 58019 72272 8807/
AAXX 01060 44263 32998 00000 11211 21268 38160 40570 58012
AAXX 01060 44266 32999 30000 11152 21222 37843 40445 58005 83080
AAXX 01060 44286 41998 63206 11134 21170 38713 40390 57004 70272 86010
AAXX 01060 44291 41598 23408 11130 21168 38783 40378 58006 70171 82400
AAXX 01060 44325 31999 03210 11059 21149 38940 40371 58001 73630 333 91212
AAXX 01060 44329 32998 23609 11140 21191 37802 40394 50000 73630 80001
AAXX 01060 44338 41597 73602 11115 21143 38537 40385 52003 77073 85520
AAXX 01060 44348 32997 83207 11172 21178 38694 40318 58011 8802/
AAXX 01060 44374 32599 70903 11102 21165 38298 40380 51002 84577
AAXX 01060 44385 32999 63205 11058 21148 38944 40290 57017 86074
AAXX 01060 44386 31997 70706 11083 21135 39063 40276 57031 71022 84034
BBXX 46078 01061 99561 71526 46/// /0310 11046 21115 40096 90550 22200 10403 20402 300// 40701 70013 333 91212 555 11103 22110
AAXX 01064 70133 35966 21213 11344 30180 40184 90553 333 11339 21361 555 90106
AAXX 01064 70174 12764 60000 11378 39948 40223 51008 69901 90553 333 11367 21433 4/076 555 90106
AAXX 01064 70219 12966 00205 11333 21372 30097 40158 58016 69901 90553 333 11311 21344 555 90106
AAXX 01064 70231 35966 00000 11444 30079 40227 50003 90553 333 11367 21444 555 90106
AAXX 01064 70261 32266 60000 11344 30025 40216 50004 90553 333 11317 21378 555 90106
AAXX 01064 70267 12466 62503 11322 21356 39684 40231 53006 69931 90553 333 11317 21344 555 90106
AAXX 01064 70271 11561 80000 11250 21278 39519 40163 58002 69931 771// 90553 333 11250 21317 4/010 555 90106
AAXX 01064 70273 12361 83406 11172 21194 30084 40147 53002 69901 90553 333 11161 21178 4/071 555 90106
AAXX 01064 70316 15761 21621 11028 21056 30050 40087 55025 69901 90553 333 11028 21122 555 90106
AAXX 01064 70326 32966 00206 11328 21361 30150 40165 58010 90554 333 11267 21350 4/005 555 90106
AAXX 01064 70340 32966 03509 11289 21339 30120 40189 58007 90553 333 11272 21294 555 90106
AAXX 01064 70350 32566 83108 11106 21167 30081 40124 58005 90553 333 11106 21194 4/003 555 90106
AAXX 01064 70361 35862 80703 11056 21078 30084 40095 58034 90553 333 11044 21089 555 90106
AAXX 01064 70381 12966 81308 11006 21067 30125 40135 58029 69981 90553 333 10000 21028 4/018 555 90106
AAXX 01064 70414 35666 80114 11028 21100 30052 40090 57008 90556 333 11028 21056 555 90106
AAXX 01064 87022 11450 82706 10216 20210 39587 40080 52013 60151 76162 8672/ 333 56899 86710 88540
AAXX 01064 87046 11562 82708 10200 20175 39120 48518 57008 60071 70196 8357/ 333 56099 83630 88358 94062 94469 98362
AAXX 01064 87047 NIL
AAXX 01064 87097 32960 00504 10208 20191 39746 40049 53015
AAXX 01064 87121 32965 13207 10226 20190 39588 40081 58008 81030 333 56070 81360
AAXX 01064 87129 32965 02303 10224 20196 39874 40097 57004
AAXX 01064 87155 NIL
AAXX 01064 87162 32970 01803 10210 20178 39995 40063 58014
AAXX 01064 87166 32960 01402 10205 20176 30002 40073 57013
AAXX 01064 87178 32970 01604 10215 20177 39917 40058 40058 57005
AAXX 01064 87217 NIL
AAXX 01064 87222 32970 20209 10249 20169 39565 40063 58003 80005 333 56009 82270
AAXX 01064 87257 32965 01106 10214 20136 39998 40098 57007
AAXX 01064 87270 NIL
AAXX 01064 87289 NIL
AAXX 01064 87311 32965 00000 10256 20138 39414 40060 58001
AAXX 01064 87320 NIL
AAXX 01064 87328 32980 00905 10224 20129 39468 40093 52012 333 95090
AAXX 01063 87007 11361 80502 10083 20067 36750 47154 56003 60031 76062 81726 333 56249 81708 86558 85270
AAXX 01063 87148 32970 01805 10214 20137 39965 40070 58008
AAXX 01064 88878 46/// /0808 10100 20083 40018 57046
AAXX 01064 88883 46/// /1610 10072 20066 40044 57023
AAXX 01064 88897 46/// /1610 10070 20056 40044 57029
AAXX 01064 03707 15464 /2413 10112 20098 30065 40072 57012 60032 90550 333 20111 3/010 70040 83/15 85/28
AAXX 01064 78526 12566 41004 10239 20222 30163 40186 58014 60021 90556 333 10289 20233 555 90106
AAXX 01064 78543 12866 80509 10233 20211 30105 40185 58013 69901 90553 333 10289 20222 555 90106
AAXX 01061 38598 41596 80710 11018 21026 40266 57008 71022 886//
AAXX 01061 38599 NIL
AAXX 01061 38725 41999 10905 11008 21208 48510 58001 80001
AAXX 01061 38734 42699 50506 11052 21116 47070 58004 82503
AAXX 01061 38744 42699 30901 11075 21159 38049 48580 58001 83500
AAXX 01061 38836 NIL
AAXX 01061 38838 42598 80000 10000 21018 39570 40262 53010 889//
AAXX 01061 38844 42999 00702 11009 21159 48490 52009
AAXX 01061 38846 42999 02102 11034 21083 38522 48490 57005
AAXX 01061 38847 NIL
AAXX 01061 38932 42999 00000 10017 21014 40253 56001
AAXX 01061 38933 31/91 90502 10008 21009 39737 40268 52004 74744
AAXX 01061 38944 32697 83404 10039 20021 39664 40207 54000 885// 333 20019
AAXX 01061 38954 NIL
AAXX 01061 22028 31578 71010 10002 21046 30105 40144 52011 73632 86530 333 21008 48052 91013 91114
AAXX 01061 22106 32998 70501 11040 21052 30041 40121 52008 87030 333 21061 47020 91003
AAXX 01061 22127 11496 80402 11030 21047 39919 40123 52011 69962 78582 889// 333 21036 47027 86912 91005
AAXX 01061 22324 11462 80502 11019 21024 30054 40104 52017 69972 78582 889// 333 21022 47024 91004
AAXX 01061 22621 32582 83002 11059 21085 39989 40134 52023 885// 333 21060 43026 88624
AAXX 01061 22831 12597 70000 11012 21014 30062 40123 52005 60032 87900 333 21015 47037
AAXX 01061 22892 11397 70901 11040 21048 30088 40105 52013 69902 77171 85720 333 21049 47997 85707
AAXX 01061 26275 11296 83002 11011 21015 30072 40103 52011 60032 77172 8872/ 333 21013 43006 88706
AAXX 01061 26389 11496 80000 11018 21026 39830 40098 52009 60022 71072 886// 333 21020 47002
AAXX 01061 26499 11495 70000 11040 21042 39878 40114 52004 69922 71072 87500 333 21040 87614
AAXX 01061 26695 11196 80000 11011 21012 39797 40110 53009 69942 77172 8672/ 333 21020 47006 86703
AAXX 01061 26882 11558 72202 11008 21018 39836 40115 52012 60032 71072 87500 333 21008 47004 87622
AAXX 01061 20107 11597 81001 11049 21089 39936 40032 57008 69902 72622 889// 333 21125 91003
AAXX 01061 22003 NIL
AAXX 01061 22004 NIL
AAXX 01061 22100 NIL
AAXX 01061 22140 NIL
AAXX 01061 22113 11584 73601 11021 21042 30070 40134 52009 69972 72682 86940 333 21043 47013 91003
AAXX 01061 22212 11567 63202 11039 21051 39953 40120 52012 69902 70282 86900 333 21051 47029 83923 91003
AAXX 01061 22213 NIL
AAXX 01061 22217 11484 80603 11014 21037 30071 40103 52013 69902 70282 889// 333 21024 47036 86624 91005
AAXX 01061 22235 11458 80703 11025 21028 39913 40110 52014 60022 78582 889// 333 21028 47031 87710 91005
AAXX 01061 22249 11482 80401 11018 21023 39915 40105 52018 69962 78582 889// 333 21026 47023 91002
AAXX 01061 22312 11574 80603 11017 21028 30085 40107 52017 69922 70282 885// 333 21020 48025 91005
AAXX 01061 22334 11469 80503 11011 21021 30094 40101 52026 69932 78582 889// 333 21021 47010 91004
AAXX 01061 22349 11496 82305 10000 21008 30087 40099 52018 60022 78685 889// 333 20000 43011 91007
AAXX 01061 22408 11484 82303 11054 21061 39958 40112 52017 60022 70272 885// 333 21054 47038 88610 93402
AAXX 01061 22602 11471 81901 11082 21088 39897 40131 52019 69932 70272 885// 333 21083 47027 88611
AAXX 01061 22619 32482 23103 11068 21084 39951 40118 52006 82500 333 21068 43012
AAXX 01061 22721 12598 80000 11033 21037 30025 40128 53019 69902 885// 333 21033 47036 88626 93700
AAXX 01061 22802 32984 20201 11052 21069 30104 40128 52016 82030 333 21052 47001
AAXX 01061 22820 32481 71801 11041 21041 39980 40122 52013 82530 333 21046 47003
AAXX 01061 26059 11296 81201 11025 21031 30082 40107 52010 69902 71082 886// 333 21037 47001 88706
AAXX 01061 26063 32997 10000 11045 21061 30108 40116 52014 80001 333 21045 41000
AAXX 01061 26094 11960 80701 11017 21022 30028 40105 52007 60022 77872 8802/ 333 21017 47005
AAXX 01061 26157 12397 81701 11028 21035 30061 40112 52010 60032 885// 333 21035 47005 86708
AAXX 01061 26167 32967 32801 11067 21072 39987 40103 52003 83030 333 21072 41998
AAXX 01061 26258 32998 80000 11025 21031 30063 40119 52013 8805/ 333 21065
AAXX 01061 26298 11496 81101 11024 21030 39872 40106 53007 69992 77172 8872/ 333 21025 47001
AAXX 01061 26359 12462 82501 11038 21046 39992 40131 52013 69922 886// 333 21045 47007 93714
AAXX 01061 26702 31496 32301 11034 21041 30125 40152 52005 71041 83500 333 21034 91003 91104
AAXX 01061 26781 11296 82301 11007 21010 39807 40103 52009 60022 77172 8802/ 333 21021 47003 88505
AAXX 01061 27208 11495 81102 11019 21024 39931 40111 52007 60022 77172 8802/ 333 21022 47007
AAXX 01061 27402 11294 80000 11021 21024 39924 40107 58003 69982 77372 8872/ 333 21033 47003 87705
AAXX 01061 28676 31497 81603 11136 21154 30241 40377 53003 78581 8595/ 333 21162
AAXX 01061 28766 11997 81905 11108 21124 30159 40360 57003 69900 77171 8802/ 333 21165
AAXX 01061 28867 11598 81803 11104 21124 30078 40365 57006 69900 70371 885// 333 21184
AAXX 01061 28879 32997 61704 11110 21150 30080 40385 57007 80001 333 21145
AAXX 01061 28952 11999 81605 11079 21093 30146 40346 57007 69900 70272 8802/ 333 21162
AAXX 01061 28966 11598 61503 11152 21163 30084 40390 57021 69900 70272 82531 333 21181
AAXX 01061 29802 NIL
AAXX 01061 29807 NIL
AAXX 01061 34691 31993 80000 10002 21022 30207 40194 54000 74642 8802/ 333 21007
AAXX 01061 35067 11998 71202 11125 21134 30083 40378 57013 69900 70172 87070 333 21165
AAXX 01061 35078 11998 51303 11169 21190 30000 40412 57007 69930 70274 80002 333 21192
AAXX 01061 35085 32998 21602 11176 21198 39903 40421 57004 80001 333 21212
AAXX 01061 35108 31496 81502 11037 21048 30170 40217 52008 71022 886// 333 21069
AAXX 01061 35188 11297 71402 11129 21150 39953 40417 57010 69900 77172 87600 333 21153 87704
AAXX 01061 35217 11998 81503 11044 21050 30175 40217 53007 69900 70172 8802/ 333 21072
AAXX 01061 35229 NIL
AAXX 01061 35302 11596 81303 11034 21055 30189 40209 51007 69900 71022 886// 333 21061
AAXX 01061 35357 32997 21601 11180 21206 39931 40105 57015 80001 333 21224
AAXX 01061 35394 31998 00000 11130 21143 39699 40422 57008 70241 333 21167
AAXX 01061 35406 32597 81201 11031 21055 30202 40204 53010 885// 333 21032
AAXX 01061 35416 NIL
AAXX 01061 35426 NIL
AAXX 01061 35497 32998 00000 11074 21154 39563 40395 57010 333 21183
AAXX 01061 35532 NIL
AAXX 01061 35671 12998 00704 11110 21151 39925 40380 57011 69900 333 21125
AAXX 01061 35700 12598 80801 11016 21040 30214 40190 53006 69920 885// 333 21008
AAXX 01061 35746 32998 60804 11111 21139 30224 40295 57006 80001 333 21128
AAXX 01061 35796 11999 00307 11158 21186 39933 40402 57018 69950 73673 333 21187
AAXX 01061 35849 32998 50904 11089 21118 30187 40277 57011 80001 333 21099
AAXX 01061 35925 31996 61606 11050 21063 40208 56003 71011 80002 333 21057
AAXX 01061 35953 32999 20910 11078 21114 30151 40286 57016 80001 333 21104
AAXX 01061 35969 32999 00708 11081 21122 30133 40314 57013 333 21106
AAXX 01061 36003 NIL
AAXX 01061 36152 NIL
AAXX 01061 36177 NIL
AAXX 01061 36208 NIL
AAXX 01061 36397 NIL
AAXX 01061 36428 NIL
AAXX 01061 36535 NIL
AAXX 01061 36639 NIL
AAXX 01061 36821 31896 80301 11107 21122 39840 40357 57018 71022 8707/ 333 21118
AAXX 01061 36859 32999 00902 11028 21115 39541 40341 57030 333 21115
AAXX 01061 36864 32999 00905 11042 21084 39396 40316 57026 333 21128
AAXX 01061 36870 32998 00201 11025 21082 39258 40291 57027 333 21100
AAXX 01061 38001 32997 83602 10010 21010 30218 40188 53008 8807/ 333 20007
AAXX 01061 38062 32999 00806 11062 21097 30108 40277 57003 333 21097
AAXX 01061 38069 32998 01101 11026 21083 30073 40269 53004 333 21061
AAXX 01061 38196 31998 00203 10014 21138 39263 40249 57005 73633 333 21054
AAXX 01061 38198 31996 01401 11055 21093 30003 40272 58002 71000 333 21108
AAXX 01061 38222 32998 00000 11112 21147 39701 40291 57014 333 21191
AAXX 01061 38232 32598 71201 11023 21054 30092 40193 57002 87500 333 21061
AAXX 01061 38328 32999 01202 11042 21116 39509 40261 58008 333 21135
AAXX 01061 38334 32998 00000 11008 21131 39275 40253 58001 333 21096
AAXX 01061 38341 31996 82001 11108 21114 39478 40310 57007 77172 8802/ 333 21104
AAXX 01061 38343 32998 03201 11086 21110 39408 40290 57011 333 21195
AAXX 01061 38439 31/93 91203 11040 21045 39909 40259 57008 74544 333 21060
AAXX 01061 26997 11322 82301 10001 21002 39897 40118 52007 69922 77172 8872/ 333 21004 43001 87708
AAXX 01061 27595 11697 81501 11071 21082 30044 40194 52010 60010 77172 885// 333 21078 88636
AAXX 01061 27612 11496 80000 11009 21016 39907 40102 53007 60052 77172 887// 333 21010 47011 93723
AAXX 01061 27707 11550 72301 11013 21019 39815 40113 52009 69972 71082 87500 333 21016 47017 87623
AAXX 01061 27719 12497 81903 11008 21018 39873 40126 52013 60012 883// 333 21008 43007
AAXX 01061 27786 11497 81702 11052 21069 30031 40197 52010 69940 70272 885// 333 21072 88614
AAXX 01061 27857 12498 81503 11001 21010 39988 40154 53008 69900 886// 333 21010
AAXX 01061 27906 11596 81803 10000 21012 39882 40126 52011 69952 71022 883// 333 21003 43003
AAXX 01061 27928 11495 82301 10005 20002 39929 40138 52012 60010 75172 886// 333 21003 43004
AAXX 01061 27947 11297 81604 10007 21004 39986 40147 53002 69900 70272 8872/ 333 20000 42005 88706
AAXX 01061 27962 11396 81202 11014 21025 40175 52008 69900 77172 885// 333 21023 88608
AAXX 01061 27983 12497 81402 11044 21055 30071 40204 52008 69980 886// 333 21071 88712
AAXX 01061 27995 11598 81401 11046 21055 40213 52013 69950 72272 885// 333 21067
AAXX 01061 28506 11997 81701 11073 21091 30094 40211 52010 69980 77172 8802/ 333 21074
AAXX 01061 28704 11998 81704 11063 21076 30109 40208 52010 69920 70232 8807/ 333 21080
AAXX 01061 28711 31498 82004 11080 21089 39833 40224 52011 70272 8655/ 333 21093 88610
AAXX 01061 28807 11497 81202 11059 21078 30166 40219 52011 69990 70272 885// 333 21071 88618
AAXX 01061 34009 12597 82202 11006 21027 39827 40136 52007 69902 885// 333 21009 43005
AAXX 01061 34110 12498 82902 11002 21011 39859 40141 52006 69992 886// 333 21004 43003 88717
AAXX 01061 34123 11302 08180 11000 32100 83995 74004 45300 96001 07858 2889/ 333 20000 43001 88908
AAXX 01061 34152 11/93 91602 10000 20000 39965 40164 52001 69950 74542 333 21014
AAXX 01061 34163 32498 80901 11010 21023 40189 52003 885// 333 88620
AAXX 01061 34171 31230 81703 11012 21015 39993 40190 52008 69910 71042 886// 333 21014 88705
AAXX 01061 34186 11/92 91401 11028 21032 30065 40206 52012 69960 74942 333 21039
AAXX 01061 34247 11356 81802 10011 20008 30048 40163 53001 69900 71022 885// 333 20006 86708
AAXX 01061 34336 31930 80701 10012 20009 30054 40159 53002 71022 8802/ 333 20009
AAXX 01061 34391 11596 81401 11019 21021 30169 40201 52009 69960 71022 886// 333 21024 88720
AAXX 01061 35011 11497 81102 11058 21073 40232 53011 69900 77172 8802/ 333 21090 88513
AAXX 01061 35121 32598 81403 11075 21101 30095 40248 53004 8557/ 333 21094
BBXX 46054 01061 99342 71204 46/// /0804 10100 90550 22200 00130 333 91205 555 11036 22037
AAXX 01064 91165 12566 63606 10211 20172 30148 40184 51012 69951 90553 333 10250 20183 555 90106
AAXX 01064 91182 32566 20308 10233 20183 30171 40175 51016 90553 555 90106
AAXX 01064 91190 32566 40706 10222 20167 30171 40192 51020 90554 333 10261 20144 555 90106
AAXX 01064 91212 12466 20710 10267 20239 31368 40103 55006 60011 90554 333 10289 20222 555 90106
AAXX 01064 91285 32466 40309 10220 20190 30171 90611 555 90106
AAXX 01064 NIL
AAXX 01061 22271 11596 80810 11033 21065 30118 40128 53049 69950 72273 885// 333 21049 92980
AAXX 01061 22520 12498 82304 11031 21048 30101 40111 52026 69922 885// 333 21035 88613
AAXX 01061 22550 32968 21601 11022 21045 30122 40132 52021 81032 333 21009
AAXX 01061 22583 11475 71601 11010 21014 30054 40135 52015 60010 70282 875// 333 21005 87618
AAXX 01061 22768 11597 81802 11013 21018 30088 40145 52013 69990 78582 8697/ 333 21011 84920
AAXX 01061 22845 11698 81402 11011 21018 39979 40138 52014 69920 70272 8652/ 333 21013
AAXX 01061 22887 11297 81802 11006 21012 30083 40154 52009 69900 71022 886// 333 21005 88706 91105
AAXX 01061 23205 11295 80705 11075 21088 30119 40134 52014 60020 77373 8772/ 333 21081 87704 91109
AAXX 01061 23219 11396 81802 11013 21022 30052 40158 52009 60052 77172 8802/ 333 47047
AAXX 01061 23418 11456 81503 11017 21025 30080 40154 52006 69930 77172 8672/ 333 21013 86711
AAXX 01061 23606 11362 81801 11023 21029 39988 40163 52008 60010 70282 886// 333 21022 88707
AAXX 01061 23711 11998 61502 11055 21066 30010 40189 52009 60010 70272 86030 333 21043
AAXX 01061 23804 11297 82002 11034 21042 30021 40174 52011 60010 72272 886// 333 21030 88704
AAXX 01061 27037 31496 81202 11011 21021 39973 40137 52009 77172 8672/ 333 21013 86710
AAXX 01061 27199 11498 82001 11062 21070 39981 40185 52009 69900 77172 8652/ 333 21065
AAXX 01061 27271 11495 80902 11042 21047 30010 40170 53012 69920 77372 8872/ 333 21042
AAXX 01061 27459 11398 81302 11028 21035 39951 40150 53004 69900 72222 886// 333 21028 88707
AAXX 01061 27730 11497 82003 10006 21011 39925 40121 53007 60010 70272 885// 333 21017 47011 88611
AAXX 01064 91245 32966 00612 10270 20220 30137 90559 555 90106
AAXX 01064 NIL
AAXX 01064 82143 NIL
AAXX 01064 82599 32570 31403 10251 20221 30055 40115 83200 333 59007
AAXX 01064 82824 31460 70000 10254 20238 39987 40087 71091 82530 333 59016
AAXX 01064 82899 32570 20806 10265 20205 30109 40121 82100 333 59001
AAXX 01064 83117 NIL
AAXX 01064 83248 32470 30306 10278 20246 30091 40113 83100 333 59012
AAXX 01064 83746 21458 71004 10235 20222 30042 40052 56027 76062 885// 333 69941
AAXX 01064 NIL
AAXX 01064 NIL
AAXX 01064 NIL
AAXX 01064 NIL
AAXX 01064 NIL
AAXX 01064 NIL
AAXX 01064 NIL
BBXX 46078 01061 99561 71526 46/// /0310 11046 21115 40096 90550 22200 10403 20402 300// 40701 70013 333 91212 555 11103 22110
AAXX 01061 28676 31497 81603 11136 21154 30241 40377 53003 78581 8595/ 333 21162
AAXX 01061 28766 11997 81905 11108 21124 30159 40360 57003 69900 77171 8802/ 333 21165
AAXX 01061 28867 11598 81803 11104 21124 30078 40365 57006 69900 70371 885// 333 21184
AAXX 01061 28879 32997 61704 11110 21150 30080 40385 57007 80001 333 21145
AAXX 01061 28952 11999 81605 11079 21093 30146 40346 57007 69900 70272 8802/ 333 21162
AAXX 01061 28966 11598 61503 11152 21163 30084 40390 57021 69900 70272 82531 333 21181
AAXX 01061 29802 NIL
AAXX 01061 29807 NIL
AAXX 01061 34691 31993 80000 10002 21022 30207 40194 54000 74642 8802/ 333 21007
AAXX 01061 35067 11998 71202 11125 21134 30083 40378 57013 69900 70172 87070 333 21165
AAXX 01061 35078 11998 51303 11169 21190 30000 40412 57007 69930 70274 80002 333 21192
AAXX 01061 35085 32998 21602 11176 21198 39903 40421 57004 80001 333 21212
AAXX 01061 35108 31496 81502 11037 21048 30170 40217 52008 71022 886// 333 21069
AAXX 01061 35188 11297 71402 11129 21150 39953 40417 57010 69900 77172 87600 333 21153 87704
AAXX 01061 35217 11998 81503 11044 21050 30175 40217 53007 69900 70172 8802/ 333 21072
AAXX 01061 35229 NIL
AAXX 01061 35302 11596 81303 11034 21055 30189 40209 51007 69900 71022 886// 333 21061
AAXX 01061 35357 32997 21601 11180 21206 39931 40105 57015 80001 333 21224
AAXX 01061 35394 31998 00000 11130 21143 39699 40422 57008 70241 333 21167
AAXX 01061 35406 32597 81201 11031 21055 30202 40204 53010 885// 333 21032
AAXX 01061 35416 NIL
AAXX 01061 35426 NIL
AAXX 01061 35497 32998 00000 11074 21154 39563 40395 57010 333 21183
AAXX 01061 35532 NIL
AAXX 01061 35671 12998 00704 11110 21151 39925 40380 57011 69900 333 21125
AAXX 01061 35700 12598 80801 11016 21040 30214 40190 53006 69920 885// 333 21008
AAXX 01061 35746 32998 60804 11111 21139 30224 40295 57006 80001 333 21128
AAXX 01061 35796 11999 00307 11158 21186 39933 40402 57018 69950 73673 333 21187
AAXX 01061 35849 32998 50904 11089 21118 30187 40277 57011 80001 333 21099
AAXX 01061 35925 31996 61606 11050 21063 40208 56003 71011 80002 333 21057
AAXX 01061 35953 32999 20910 11078 21114 30151 40286 57016 80001 333 21104
AAXX 01061 35969 32999 00708 11081 21122 30133 40314 57013 333 21106
AAXX 01061 36003 NIL
AAXX 01061 36152 NIL
AAXX 01061 36177 NIL
AAXX 01061 36208 NIL
AAXX 01061 36397 NIL
AAXX 01061 36428 NIL
AAXX 01061 36535 NIL
AAXX 01061 36639 NIL
AAXX 01061 36821 31896 80301 11107 21122 39840 40357 57018 71022 8707/ 333 21118
AAXX 01061 36859 32999 00902 11028 21115 39541 40341 57030 333 21115
AAXX 01061 36864 32999 00905 11042 21084 39396 40316 57026 333 21128
AAXX 01061 36870 32998 00201 11025 21082 39258 40291 57027 333 21100
AAXX 01061 38001 32997 83602 10010 21010 30218 40188 53008 8807/ 333 20007
AAXX 01061 38062 32999 00806 11062 21097 30108 40277 57003 333 21097
AAXX 01061 38069 32998 01101 11026 21083 30073 40269 53004 333 21061
AAXX 01061 38196 31998 00203 10014 21138 39263 40249 57005 73633 333 21054
AAXX 01061 38198 31996 01401 11055 21093 30003 40272 58002 71000 333 21108
AAXX 01061 38222 32998 00000 11112 21147 39701 40291 57014 333 21191
AAXX 01061 38232 32598 71201 11023 21054 30092 40193 57002 87500 333 21061
AAXX 01061 38328 32999 01202 11042 21116 39509 40261 58008 333 21135
AAXX 01061 38334 32998 00000 11008 21131 39275 40253 58001 333 21096
AAXX 01061 38341 31996 82001 11108 21114 39478 40310 57007 77172 8802/ 333 21104
AAXX 01061 38343 32998 03201 11086 21110 39408 40290 57011 333 21195
AAXX 01061 38439 31/93 91203 11040 21045 39909 40259 57008 74544 333 21060
AAXX 01064 NIL
AAXX 01064 82022 32570 50611 10256 20210 30010 40106 82160 333 59002
AAXX 01064 82193 32970 00503 10257 20238 30081 40100 333 59008
AAXX 01064 82281 32470 30614 10273 20202 30036 40098 83500 333 59001
AAXX 01064 82332 32970 03604 10252 20238 30001 40094 333 59010
AAXX 01064 82398 32470 50909 10254 20223 30081 40110 85500 333 59001
AAXX 01064 82400 NIL
AAXX 01064 82579 32970 00000 10270 20233 30014 40090 333 59004
AAXX 01064 82917 21258 73606 10241 20236 39880 40099 76062 83520 333 59002 60021
AAXX 01064 82965 NIL
AAXX 01064 82993 32970 03604 10223 20214 39985 40121 333 58000
AAXX 01064 83208 NIL
AAXX 01064 83349 32570 30405 10242 20209 30100 40106 83200 333 59020
AAXX 01064 83362 21570 53205 10228 20211 39864 40078 72162 82130 333 59018 60141
AAXX 01064 83378 21370 53103 10195 20180 38939 48500 72122 82530 333 59014 69901
AAXX 01064 83460 32570 10304 10233 20218 30050 40107 81100 333 59002
AAXX 01064 83497 NIL
AAXX 01064 83566 21/08 90508 10185 20183 39164 48480 74564 333 59039 60101
AAXX 01064 83599 NIL
AAXX 01064 83612 21258 63505 10216 20203 39436 48480 57016 71042 86630 333 69951
AAXX 01064 83649 32570 60109 10255 20226 30086 40091 57017 83530
AAXX 01064 83650 NIL
AAXX 01064 83780 NIL
AAXX 01064 83827 32970 02003 10169 20132 39773 40044 56015
AAXX 01064 83840 21270 71409 10168 20157 39059 48460 58014 70362 87500 333 60031
AAXX 01064 83899 21230 81010 10210 20203 30075 40081 57023 76366 885// 333 60141
AAXX 01064 83925 NIL
AAXX 01064 83970 NIL
AAXX 01064 83971 32970 01309 10187 20173 30090 40094 57010
BBXX WXJ63 01063 99611 71464 41/94 80704 11070 21077 40104 57/// 771// 8//// 222// 0//// 2//// 3//// 4//// 5//// 6//// 8//// ICE /////
BBXX PBAD 01061 99133 70602 41598 40615 10275 20216 40136 57018 70081 8406/ 22232 00260 20501 304// 40502 5//// 80235
BBXX PCHM 01064 99344 31733 41598 62340 10185 20169 40052 58010 70322 8537/ 22274 00200 20205 329// 40205 80175
BBXX WAZV 01064 99494 71290 41396 81344 10060 2004/ 40150 50010 70722 887// 22232 00080 20609 313// 41011 5//// 6//// 80050 ICE /////
BBXX C6WK7 01064 99318 70104 41998 10716 10140 2//// 40310 54/// 7//00 80//1 22214 00180 2//// 311// 40503 5//// 6//// 8//// ICE /////
BBXX WZJC 01064 99219 70768 41398 60514 10256 2022/ 40190 57005 70222 867// 22263 00267 20402 3//// 4//// 5//// 6//// 80233 ICE /////
AAXX 01064 16138 11903 30000 11028 21034 30203 40215 53008 60002 748// 80001 333 21028 34/// 55/// 2////
BBXX OWFD2 01061 99108 50785 41/97 /1405 10220 20198 40100 55010 700// 8//// 22234 04210 2//// 80205
BBXX WDE8288 01063 99121 10445 41398 21410 10270 2020/ 40160 54000 70200 82100 22275 0//// 20301 310// 40501 5//// 6//// 80220 ICE /////
BBXX 3FMV6 01063 99185 30606 41598 31111 10290 20232 40097 51010 70200 83444 22213 06270 20101 80250
BBXX S6IH 01061 99299 70309 41598 11106 10210 20142 40340 52010 70022 811// 22224 04210 20602 311// 41203 5//// 80170
BBXX A8UU3 01064 99149 30021 41298 81615 10210 20188 40140 56010 7//22 8/7// 22233 2//// 314// 40502 80195
BBXX PHKL 01060 99102 10643 41598 23608 10280 20210 40137 50/// 70122 821// 22224 00261 201// 302// 41004 5//// 80231
BBXX PHPP 01064 99163 10556 41698 80319 10225 20165 40193 51018 70200 885// 22254 00245 2//03 301// 40603 80186
BBXX MIBR 01063 99188 30638 41497 41214 10270 20226 40117 51020 70200 84100 22254 00276 20301 31410 40604 50806 80240
BBXX PDHO 01064 99121 10455 41698 61205 10250 20191 40180 51007 70222 86500 22264 00264 203// 30000 80210
BBXX UBAU 01061 99126 70175 41498 70504 10250 40153 54000 70122 875// 22221 04260 20200
BBXX WHIA 01063 99287 11226 41296 80128 10110 2007/ 40262 51004 74122 886// 22283 0//// 20303 301// 40609 5//// 6//// 80090 ICE /////
BBXX MINFR09 0106/ 99321 11410 46/// ///// 40180 57019
BBXX KFMV 01063 99175 11650 41598 30810 10267 2020/ 40128 57007 70100 81268 22265 00272 20302 313// 40502 5//// 6//// 80222 ICE /////
BBXX DGTX 01063 99235 11181 41596 30331 10150 20087 40200 56025 70100 811/5 22215 00170 20505 304// 40504 80115
BBXX DFNB2 01063 99186 11132 41497 30625 10232 20175 40165 57032 70111 83100 22284 00231 20406 305// 41207 80194
BBXX MTFH5 01063 99118 10833 41597 51002 10262 20241 40135 51007 70211 852// 22271 06270 20101 309// 40403 5//// 80247
BBXX DIHC 01063 99331 11233 41/96 /3425 10075 20007 40270 54000 71022 8//// 22283 00110 20302 335// 40404 80045
BBXX PHOB 01064 99076 10773 41497 20519 10280 20253 40117 58008 70500 811/0 22274 00270 20702 3//// 4//// 5//// 80260
AAXX 01064 40100 11557 71506 10135 20087 30119 40151 53011 60024 76062 87900 906// 333 20129 32/// 50224 55028 20623 81920 85826 92436
AAXX 01064 40101 12556 72403 10069 20047 39084 48481 53008 69964 87200 906// 333 20059 31/// 50044 55004 20379 87826
AAXX 01064 40103 12450 71202 10091 20080 40147 53004 60214 87900 333 20075 32/// 50304 20508 81917 82824 85640 555 10183
AAXX 01064 40102 NIL
AAXX 01061 08579 32/// /2401 10123 20098 30169 40296 57006 333 20103 30007 5//// 55081 20972
AAXX 01064 61401 NIL 61404 32960 20810 10080 21023 39839 40246 80002 333 0//00 20080 5//// 55/// 59014 82073
AAXX 01064 61415 31958 30417 10153 20035 30235 40240 70700 83030 333 20146 51214 55070 59021 83363
AAXX 01064 61421 NIL 61437 NIL 61442 32956 60409 10121 21084 30200 40204 80002 333 01000 20121 50674 55066 59026 86073
AAXX 01064 61450 NIL 61461 31940 00806 10125 21070 30114 40204 70600 333 0//00 20125 5//// 55/// 59028
AAXX 01064 61489 NIL 61492 NIL 61497 NIL 61498 31940 00406 10100 20036 30046 40183 705// 333 0//00 20100 5//// 55/// 59012
AAXX 01064 61499 NIL
BBXX 44255 01061 99473 70573 46/// /1012 10032 40129 57061 22200 00033 10504 70018 333 91215
BBXX DFGX2 01063 99545 71709 41/98 12730 11001 21072 40039 50001 70111 811// 22264 00040 2//// 82025
BBXX WZJC 01064 99219 70768 41398 60514 10256 2022/ 40190 57005 70222 867// 22263 00267 20402 3//// 4//// 5//// 6//// 80233 ICE /////
BBXX KRGB 01064 99362 71259 41/98 10414 10128 2010/ 40185 57015 7//00 81/// 22214 00144 20801 329// 41405 5//// 6//// 80111 ICE /////
BBXX A8CN9 01060 99529 71412 41/97 /1515 10070 20038 49900 56040 70322 8//// 22263 04057 21208 314// 41007 5//// 80055
BBXX 44150 01061 99425 70640 46/// /2603 10092 40022 57037 22200 00080 10803 70017 333 91204
BBXX SMGW 01061 99310 71171 43/98 83504 10121 40192 53006 22244 00161 2//// 4////
BBXX VCXF 01064 99464 70484 41598 72012 10014 2000/ 40265 57030 70222 87500 22200 02022 20301 334// 41009 80009
BBXX 44040 01061 99410 70736 46/// /2805 10082 20052 40175 90545 22200 1//00 70001 333 91206 555 11067 22077
BBXX 44139 01061 99442 70571 46/// /1212 10098 40097 57080 22200 00045 10605 70023 333 91216
BBXX 42363 01061 99282 70892 46/// /1803 10222 20161 40231 50000 90600 333 91203
BBXX 42362 01061 99278 70907 46/// /1606 10222 20189 40227 51003 90600
BBXX 42364 01061 99291 70881 46/// /1903 10211 20161 40231 50000 90600
BBXX C6KD9 01060 99296 70506 41497 30706 10213 20196 40279 58013 70100 83464 22214 02225 21003 330// 41004 5//// 80202
BBXX WAZV 01064 99494 71290 41396 81344 10060 2004/ 40150 50010 70722 887// 22232 00080 20609 313// 41011 5//// 6//// 80050 ICE /////
BBXX 9VVP 01064 99207 71082 41497 33609 10218 20175 40170 52030 70300 8389/ 22274 00240 20604 3//// 4//// 5//// 6//// 80190 ICE /////
BBXX WJBJ 01063 99158 70718 41998 00723 10260 2023/ 40151 57014 70200 80000 22254 00280 20503 308// 40605 5//// 6//// 80240 ICE /////
BBXX KCHV 01064 99249 70851 41498 21010 10228 2019/ 40205 50006 7//00 821// 22273 0//// 2//// 3//// 4//// 5//// 6//// 80200 ICE /////
BBXX C6KJ5 01064 99217 70865 41497 40911 10250 2021/ 40200 54000 70111 82100 22213 00260 80220
BBXX PHQX 01063 99158 70638 41598 30912 10265 20215 40175 56015 70222 83102 22254 20603 309// 41003 5//// 80230
BBXX PDHY 01063 99472 70584 41398 81406 10040 40109 57012 70222 887// 22274 04030 20102 3//// 4//// 5////
BBXX PBAD 01061 99133 70602 41598 40615 10275 20216 40136 57018 70081 8406/ 22232 00260 20501 304// 40502 5//// 80235
BBXX C6FT7 01063 99147 70613 41398 60815 10243 2022/ 40160 5//// 7//66 8696/ 22284 00180 2//// 3//// 4//// 5//// 6//// 80228 ICE /////
BBXX OZBY2 01064 99361 71280 41/// 61613 10120 2008/ 40200 54000 7//11 8//// 22224 00140 20406 321// 41206 5//// 6//// 80100 ICE /////
BBXX 4XFV 01063 99385 71686 41/96 91538 10080 20060 40055 57055 76262 89/// 22224 0//// 20507 3//// 4//// 5//// 80070
BBXX WDC6644 01064 99449 71310 41396 81732 10117 2011/ 40090 57020 72566 887// 22273 00117 20201 318// 41409 5//// 6//// 80111 ICE /////
BBXX DDAC2 01060 99501 71493 41497 70114 10048 20026 49920 52030 7//55 85870 22273 04061 20405 315// 41210 5//// 80038
BBXX WQVY 01064 99355 70427 41/// 82210 10190 2018/ 4//// 5//// 7//22 886// 22224 0//// 20301 39999 40502 50401 6//// 80180 ICE /////
BBXX WDD3826 01064 99381 70355 41698 23213 10160 2014/ 40321 5//// 7//00 821// 22264 00160 20202 323// 40604 5//// 6//// 80150 ICE /////
BBXX 44039 01061 99411 70727 46/// /2804 10078 20063 40171 90545 22200 00083 1//00 70001 333 91206
BBXX 44022 01061 99409 70737 46/// ///03 10076 20042 40172 51019 90600 22200 00070 333 91204 555 11031 22036
BBXX 44060 01061 99413 70721 46/// ///03 10065 40157 51018 90600 22200 00091 333 91204 555 11031 22031
AAXX 01061 08567 32/// /0000 10075 20067 39618 40294 57010 333 20075 30005 5//// 55062 20776
BBXX WDD3825 01064 99431 70315 41598 62924 10130 2007/ 40265 51005 7//11 86/// 22224 00160 20604 328// 41009 5//// 6//// 80100 ICE /////
BBXX 62087 01061 99547 10068 46/// /0602 10090 20089 4//// 5//// 22270 00080
BBXX WAHV 01063 99376 10105 43599 52930 10160 2013/ 40208 53005 82606 22274 00162 20905 80140
BBXX 62023 01063 99514 70079 46/96 /2329 10105 2//// 40036 5//// 22200 10606 70032 333 91137 555 70070 81007
BBXX OZ2048 01060 99601 70076 42/97 62212 10078 49778
BBXX WDC6907 01064 99426 70136 41/// /2430 10153 2015/ 40207 57020 700// 8//// 22253 00160 2//// 3//// 4//// 5//// 6//// 80150 ICE /////
BBXX LAHV 01061 99589 10057 43/// /1707 10077 20055 49910 222// 04082 1////
BBXX LF4H 01064 99596 10022 46/// /2313 10087 20051 49870 57005 8//// 22200 06083 10604 70021 333 91118
BBXX PDNN 01063 99478 70059 41/98 82133 10130 20127 40129 54000 70022 88/// 22242 2//// 80128 91016
BBXX DILE 01063 99451 70091 41/97 82526 10148 20131 40172 55003 70052 89/// 22254 04130 21006 80138
BBXX DDSD2 01063 99416 70210 41/// /2618 10155 20139 40220 51020 72186 8//// 22254 00149 2//// 3//// 4//// 5//// 80145
BBXX PDXQ 01063 99534 10049 41397 82010 10090 20060 40050 55010 70000 83770 22213 04076 20201 80075
BBXX TFDRN 01064 99658 70212 46/// ///// 22200 10705 70025
BBXX TFKGR 01064 99657 70136 46/// ///// 22200 10704 70021
BBXX TFSRT 01064 99633 70203 46/// ///// 22200 10908 70042
BBXX TFSTD 01064 99664 70234 46/// ///// 22200 10810 70049
BBXX TFHFN 01064 99642 70152 46/// ///// 22200 10907 70033
BBXX TFGRV 01064 99638 70225 46/// ///// 22200 10908 70039
BBXX TFGRS 01064 99663 70182 46/// ///// 22200 10705 70025
BBXX TFBKF 01064 99635 70202 46/// ///// 22200 10706 70028
BBXX TFGSK 01064 99641 70229 46/// ///// 22200 10909 70044
BBXX C6KD5 01063 99478 70068 41597 82320 10130 20126 40123 57005 78181 884// 22254 02130 20603 323// 40805 5//// 80128
BBXX UCAB 01061 99651 10065 41/97 92009 10080 49795 57040 70022 8//// 22213 00090 20808
BBXX PEBT 01063 99588 10181 41598 41922 10040 21046 40080 58015 7//11 845// 22253 02020 20502 3//// 4//// 5//// 80008
BBXX DDYL2 01063 99331 10271 41/98 /3319 10165 20092 40110 52010 7//// 8//// 22264 00170 20505
BBXX A8OH4 01063 99344 70119 41598 50315 10170 20128 40290 58030 70211 8456/ 22224 04220 21204 80145
BBXX WDE9586 01063 99105 70890 41999 00621 10260 2023/ 40100 58010 7//00 80000 22233 00260 2//// 3//// 4//// 5//// 6//// 80240 ICE /////
BBXX C6OT4 01064 99096 70924 41498 21010 10261 20220 40119 57/// 70222 82123 22223 04271 20503 30000 4//// 5//// 80233
BBXX PCKU 01060 99112 31162 41598 61404 10307 20237 40082 58017 7//22 82268 22243 04301 20201 80256
BBXX PCDE 01063 99369 31503 41597 30306 10233 20184 40154 54000 70200 81402 22243 2//// 304// 41202 80200
BBXX DCDO2 01063 99041 31460 41698 70110 10280 20246 40070 56010 72022 87444 22234 00300 20301 302// 41002 5//// 80255
BBXX V2BE4 01061 99103 31549 41698 43106 10310 20261 40045 54000 70300 84460 22233 04300 20704 80275
BBXX 9HA2479 01064 99223 31664 46/// /1010 10222 20205 30061 40090 57002 22200 85210
BBXX A8KO3 01060 99212 31135 41898 52208 10280 20253 40100 50000 70222 841// 22284 00200 20303 80260
BBXX C6FS9 01064 99357 31507 46/// /0522 10211 20173 30113 40149 57007 22213 04213 85186
BBXX VNSZ 01064 99406 31460 46/// /0810 10187 20165 30131 40157 54000 22236 85173
BBXX A8TX8 01063 99090 31318 41598 62507 10320 20257 40072 57015 703// 84172 22224 04300 20401 30000 80275
BBXX 3ECI3 01064 99430 31737 41398 30908 10145 20127 40023 54000 70200 83100 22243 00150 20100 309// 40701 80135
BBXX VRAE2 01064 99169 31590 41498 71513 10280 20244 40048 56008 70322 8526/ 22274 04290 20201 318// 40302 80255
BBXX VRDU8 01063 99138 31073 41498 71516 10315 20228 40107 57010 70222 877// 22283 04280 20603 80255
BBXX VRWS4 01063 99226 31510 41699 11117 10245 20182 40118 56017 70200 81080 22284 04240 20304 313// 40804 80205
BBXX PCHM 01064 99344 31733 41598 62340 10185 20169 40052 58010 70322 8537/ 22274 00200 20205 329// 40205 80175
BBXX A8UT8 01064 99181 31180 41198 42710 10310 20206 40090 54000 70100 83143 22283 20801 326// 40602 80240
BBXX A8PG7 01063 99109 51232 41598 30913 10250 20191 40150 52005 70300 8/222 22214 20502 305// 41003 5//// 80210
BBXX A8KH9 01064 99073 30786 41/98 52715 10295 20248 40080 54000 70222 82/65 22214 20402 32026 41208 51006 80260
BBXX MGRH9 01064 99266 31532 41597 31421 10260 20199 40140 54000 7//00 831// 22200 00246 20801 314// 40802 5//// 80220
BBXX A8KX4 01064 99396 51478 412// 62114 10155 20112 40200 52030 70322 8/7// 22264 00153 20202 327// 40404 80130
BBXX KAOU 01064 99001 10847 43/// /2080 10277 20229 40103 5//// 7//// 8//// 222// 04286 2//// 3//// 4//// 5//// 6//// 8//// ICE /////
BBXX DGXS 01064 99535 71489 41/// /0718 10005 21021 49980 57052 70022 8//// 22224 00050 2//// 3//// 4//// 5//// 81005
BBXX DGBE 01063 99512 71443 41/97 /3610 10050 20028 49882 54000 72586 8//// 22224 2//// 80040
BBXX 44099 01061 99369 70757 46/// ///// 1//// 90552 22200 00103 10601 20601 70006
BBXX 46042 01061 99368 71224 46/// /0706 10136 40193 52003 90550 22200 00125 11306 20501 329// 41306 70029 333 91207 555 11061 22068 30544 40707 60549 071054 066050 044035 021027 012024 018025
BBXX 46053 01061 99342 71198 46/// /3101 10103 40183 53010 90550 22200 00141 11503 329// 41503 70014 333 91202 555 11006 22006 30532 42803 60549 309007 293011 281012 271011 231010 238013
BBXX DGDD 01061 99320 71261 41/98 20607 10145 20110 40205 53005 70111 82/// 22224 04150 2//// 3//// 4//// 5//// 80125
BBXX 9LD2206 01063 99146 70507 41497 30819 10252 20221 40161 57020 78000 831// 22262 04270 20403 80230
BBXX PHDL 01063 99300 70651 41/97 /9904 10210 20195 40240 54000 76598 8//// 22224 00225 299// 80200 91016
BBXX DDJS2 01063 99293 71180 41597 63407 10138 20125 40166 52003 703// 8577/ 22274 00140 29901 33000 40803 5//// 80131
BBXX 41041 01061 99142 70460 46/// /0910 10257 20208 40151 56015 90550 22200 00261 333 91212 555 11103 22110 30502 40914 60549 094097 093086 095093 100099 089111 090093 80913 90502
BBXX 41038 01061 99341 70777 46/// /2402 10139 40209 50000 90600 22200 00135 333 91202
BBXX 46001 01061 99563 71480 46/// /0114 10000 40024 57022 90550 22200 00041 10605 20605 70025 333 91218 555 11151 22160 30526 40118 60549 006141 004150 004150 004147 004153 005145
BBXX NWS0029 01064 99415 70707 43/// /3208 10057 20030 40129 5//// 7//// 8//// 222// 04069 2//// 3//// 4//// 5//// 6//// 8//// ICE /////
BBXX NWS0003 01064 99539 71665 43/// /0000 11002 21055 40062 5//// 7//// 8//// 222// 0//// 2//// 3//// 4//// 5//// 6//// 8//// ICE /////
BBXX NWS0020 01064 99261 70801 43/// /1007 10232 20152 40225 5//// 7//// 8//// 222// 04257 2//// 3//// 4//// 5//// 6//// 8//// ICE /////
BBXX NWS0021 01064 99323 70710 43/// /2717 10216 20166 40189 5//// 7//// 8//// 222// 04220 2//// 3//// 4//// 5//// 6//// 8//// ICE /////
AAXX 01061 08521 32470 69901 10148 20076 30249 40320 56005 86800 333 20148 30/// 55034 83818 85630
AAXX 01061 08524 32465 63502 10151 20075 30223 40322 57003 86800 333 20149 30013 5//// 55022 20705 83815 85630 91105
BBXX WE4805 01064 99467 70849 41/99 91430 10005 2//// 40075 57001 70202 88241 22231 00028 20602 3//// 4//// 5//// 6//// 8//// ICE /////
BBXX WDE3569 01064 99452 70832 41/98 81833 10016 2//// 40078 57000 70222 886// 22233 0//// 20202 3//// 4//// 5//// 6//// 8//// ICE /////
AAXX 01061 13492 ///// 0//// 11090 333 21110
AAXX 01061 13584 NIL
AAXX 01061 13585 42697 40000 11056 21071 39404 40239 52018 84500 333 21060 3/110 46002 92243
AAXX 01061 13597 42998 03607 10046 21057 30106 40180 52010 333 20035 30002
AAXX 01061 13598 42698 63602 11032 21076 48446 52014 86500 333 21038 3/104 47020 92200
BBXX A8IH2 01063 99025 51518 41598 50910 10270 20213 40120 53010 7//22 85160 22254 06270 20802 309// 41002 5//// 80230
AAXX 01061 38847 42798 70000 10001 21023 40279 54000 875//
BBXX VQNW6 01064 99059 30915 41498 22911 10296 20255 40142 50003 701// 8/1// 22233 00286 20201 336// 40404 5//// 80267
AAXX 01061 01228 46/// /1508 10037 20011 39866 49873 58009 333 20009 91113
AAXX 01061 01340 16/// /0907 10015 21037 39054 49909 58026 60012 333 21026 70012 91115
AAXX 01061 01257 11460 81702 10007 21008 39754 49915 56004 69942 77022 884// 333 21037 70006 91107
AAXX 01061 01370 16/// /3401 11076 21085 38862 40057 58021 60052 333 21106 4/032 70053 91105
AAXX 01061 01419 16/// /1603 10054 20032 60092 333 20036 70090 91110
AAXX 01061 01455 16/// /1401 11016 21026 39659 49972 58029 60142 333 21031 70135 91102
AAXX 01061 01156 16/// /1110 10017 21068 39903 49913 56024 60002 333 21018 70000 91115
AAXX 01061 01265 16/// /2006 11038 21058 39373 49959 58021 69932 333 21217 70006 91112
AAXX 01061 01273 16/// /1402 10016 21034 39729 49923 56009 69942 333 70006 91112
AAXX 01061 01375 16/// /1811 11078 21084 6//// 333 21119 91115
AAXX 01061 01440 46/// /1511 11017 21019 38657 49926 58025 333 21050 91115
AAXX 01061 01469 16/// /1201 11026 21040 39801 49975 58034 60062 333 21072 70058 91103
AAXX 01061 45032 36/// /2902 10212 20092 30184 40201 57003
AAXX 01061 45035 36/// /2704 10196 20106 30159 40201 57001
AAXX 01061 45039 36/// /0203 10203 20095 30184 40198 57002
AAXX 01061 45044 36/// /1304 10193 20127 30108 40201 57001
AAXX 01064 91943 36/// /0906 10266 20209 30147 40149 52021 333 20265 58010
AAXX 01064 91945 36/// /0508 10270 20228 30158 40163 51021 555 58008
AAXX 01061 01037 16/// /1407 11019 21063 30009 40015 58023 69952 333 70011 91116
AAXX 01061 01092 46/// /1406 11007 21038 333 21016 91116
AAXX 01061 01199 11460 81406 11061 21069 39598 40075 57010 60002 73632 885// 333 21084 47035 70000 91110
AAXX 01061 01245 11670 82704 10000 21038 39216 49915 58011 60002 78582 883// 333 21018 48043 70000 91109
AAXX 01061 01329 11249 80000 10030 20017 39844 49905 56019 60182 78082 888// 333 20008 70176 91113
AAXX 01061 01337 16/// /1102 10011 21007 39847 49913 56016 60082 333 21006 70084 91108
AAXX 01061 01374 11/06 92801 11068 21070 60072 77374 333 21140 44031 70074
AAXX 01061 01389 11710 81102 11053 21060 39684 40001 58027 60022 77172 8272/ 333 21166 43014 70022 91103
AAXX 01061 01436 11125 82312 10084 20078 60162 76166 8772/ 333 20053 70200 91114
BBXX 3ERR2 01064 99635 10053 41498 82027 10079 20067 49835 57004 70162 8311/ 22200 06098 10908 70038 333 91148
BBXX LF3F 01064 99643 10078 43/// /1621 10063 20028 49857 57005 22200 04085 10808 70041 333 91127
BBXX LF3N 01064 99653 10073 41497 72018 10077 20063 49833 57006 76062 8//// 22200 00089 10809 70047
BBXX LF4B 01064 99606 10037 47/97 /2016 10082 49870 57007 700// 22200 00067 10706 70031 333 91132
BBXX LF4C 01064 99584 10019 41/97 72325 10091 20066 49882 57013 702// 89/// 22200 00072 10605 70024 333 91130
BBXX LF5T 01064 99660 10081 43396 /1827 10054 20037 49830 54000 22200 10908 70040 333 91139
BBXX 46207 01061 99509 71299 46/// /1519 10075 40122 57006 22200 00079 11214 70068 333 91224
AAXX 01061 45032 36/// /2902 10212 20092 30184 40201 57003
AAXX 01061 45035 36/// /2704 10196 20106 30159 40201 57001
AAXX 01061 45039 36/// /0203 10203 20095 30184 40198 57002
AAXX 01061 45044 36/// /1304 10193 20127 30108 40201 57001
BBXX 46207 01061 99509 71299 46/// /1519 10075 40122 57006 22200 00079 11214 70068 333 91224
AAXX 01061 48855 01560 83203 10214 20203 30167 40175 57033 60023 76062 888// 333 59008 69931 83895 88697 9616 0
AAXX 01061 48848 01565 83404 10193 20164 30186 40194 57030 69993 70262 888// 333 59017 69901 83895 88697 555 20165
AAXX 01061 48803 32460 71802 10173 20126 30088 40204 57038 878// 333 59022 83894 87696
AAXX 01063 87480 32962 00908 10222 20177 30096 40125 53001
AAXX 01063 87532 32970 00505 10237 20157 39954 40117 50004
AAXX 01064 87344 32960 03405 10224 20141 39590 40117 54000
AAXX 01064 87349 32970 00000 10200 20150 39757 40139 51015
AAXX 01064 87371 32962 00905 10228 20175 30102 40123 51004
AAXX 01064 87374 32965 00903 10208 20162 30032 40117 51003
AAXX 01064 87395 32965 00000 10200 20167 30073 40116 53003
AAXX 01064 87418 31960 00000 10260 20143 39314 40070 50001 70400
AAXX 01064 87436 32970 00905 10264 20123 39306 40077 55004
AAXX 01064 87448 32965 03610 10242 20132 39558 40093 58005
AAXX 01064 87453 32965 03612 10215 20124 39638 40108 57004
AAXX 01064 87467 NIL
AAXX 01064 87497 NIL
AAXX 01064 87506 NIL
AAXX 01064 87509 32970 02304 10202 20134 39274 40088 50001
AAXX 01064 87534 32960 00204 10196 20152 39965 40121 51004
AAXX 01064 87548 32962 00707 10188 20158 30049 40142 52003
AAXX 01064 87576 32960 00508 10234 20173 30128 40151 58001
AAXX 01064 87582 32960 00907 10238 20156 30145 40152 52001
AAXX 01064 87585 32960 00000 10220 20165 30117 40146 58020
AAXX 01061 22165 31595 80320 11027 21046 30073 40135 52015 73832 885// 333 21038 91124
AAXX 01061 22676 11471 81601 10002 21001 30062 40141 52013 69960 70272 885// 333 20001
AAXX 01061 22954 31262 70401 11055 21062 39893 40150 52011 72842 87700 333 21049 85703
AAXX 01061 23405 11978 71401 11019 21027 30043 40143 52010 60010 70287 87030 333 21016
AAXX 01061 23412 11296 81402 11010 21020 30054 40152 52011 69990 71022 887// 333 21016 86704
AAXX 01061 23803 11599 81702 11053 21060 30003 40188 53015 60020 70272 8802/ 333 21045 88525
AAXX 01061 27066 11396 81501 11029 21033 39980 40161 52008 69900 77172 8672/ 333 21028 86708
AAXX 01061 27083 12499 81701 11047 21052 39942 40171 52008 69940 885// 333 21046
AAXX 01061 27113 31457 81202 11016 21030 39976 40124 53007 78582 8633/ 333 21018 84913
AAXX 01061 27242 11465 81203 11012 21017 30008 40138 53005 69900 78582 887// 333 21007 88713
AAXX 01061 27329 11524 81102 11009 21010 39985 40112 57003 69970 78687 889// 333 21007
AAXX 01061 27355 12497 81101 11031 21035 39988 40156 52009 69930 885// 333 21032
AAXX 01061 27373 11296 81202 11051 21058 39950 40175 53011 69900 77772 886// 333 21053 88703 93402
AAXX 01061 27665 11297 81402 11020 21029 39889 40165 53008 69900 70272 886// 333 21038 88705
AAXX 01061 27835 11242 82001 10002 21004 39978 40138 53004 69960 77172 8872/ 333 21012 87705
AAXX 01061 28009 11498 81902 11065 21077 39977 40195 53010 69930 70282 885// 333 21060
AAXX 01061 28411 11697 81302 11088 21103 30014 40217 53013 60010 77172 8552/ 333 21088
AAXX 01061 28418 11459 71701 11085 21109 30047 40221 57003 69920 78587 87900 333 21087 87919
AAXX 01061 22282 NIL
AAXX 01061 22438 NIL
AAXX 01061 22471 11484 71902 10000 21006 30093 40117 52018 60030 70282 83430 333 20001
AAXX 01061 22563 11497 81701 11004 21013 30092 40131 52015 69940 70282 883// 333 20002 85612
AAXX 01061 22641 32699 50000 11042 21047 30111 40127 52017 81530 333 21035 91102
AAXX 01061 22695 32398 81801 11010 21016 39996 40150 52012 8675/ 333 21009 85709
AAXX 01061 22867 31396 80000 11026 21029 30031 40147 52012 71022 886// 333 21029 88707 91102
AAXX 01061 22939 32597 71002 11017 21038 39961 40125 52006 875// 333 21014 87631
AAXX 01061 22996 11597 81702 11051 21058 39983 40179 52006 69970 71022 8252/ 333 21053
AAXX 01061 23324 11475 82202 11018 21023 30079 40158 52007 60010 70272 885// 333 21036 88619
AAXX 01061 27051 32497 80701 11015 21032 39977 40147 52011 8455/ 333 21014
AAXX 01061 27225 11436 80802 11010 21020 39983 40115 54000 69930 77372 8872/ 333 21019 88716
AAXX 01061 27252 31450 80902 11033 21037 39966 40155 53012 77172 8877/ 333 21025 88716
AAXX 01061 27333 11227 81502 11020 21029 39971 40131 53004 69930 77372 8772/ 333 21021 47003 87706
AAXX 01061 27369 11658 81402 11036 21044 30027 40169 52008 69920 77172 885// 333 21036
AAXX 01061 27393 11598 81802 11080 21094 30023 40197 52011 69920 70272 8432/ 333 21079
AAXX 01061 27479 32481 81301 11041 21053 30039 40177 52017 886// 333 21046 88610
AAXX 01061 27532 11295 81503 11017 21022 39901 40117 54000 60020 77177 8872/ 333 21017 86703
AAXX 01061 27648 11294 81702 11004 21007 39965 40134 53004 69940 77172 8872/ 333 21017 88706
AAXX 01061 27675 32597 81304 11040 21049 30000 40174 52005 69900 885// 333 21048 88621
AAXX 01061 27679 31497 81302 11047 21053 39951 40180 52006 77172 8872/ 333 21054 88512
AAXX 01061 28214 11997 81802 11082 21101 39986 40207 52007 60010 77172 8801/ 333 21078
AAXX 01061 48852 01460 82902 10188 20181 30170 40180 57032 60133 76166 888// 333 59015 60011 86894 88697 9616 0
AAXX 01061 40701 11658 30000 11072 21088 38588 40245 52007 60001 71010 83500 333 3/109 47004 70000 83635
AAXX 01061 40704 12660 72405 10035 21007 38605 40186 52014 60001 84370 333 31000 70000 82940 82640 87458
AAXX 01061 40708 12660 62406 10048 20000 38649 40162 52007 60001 82170 333 30002 70000 81835 85358
AAXX 01061 40710 11670 73302 11010 21017 38310 40206 53009 60001 70272 84520 333 3/104 46997 79999 84635 87458
AAXX 01061 40713 11658 70000 10030 20011 38662 40197 51011 69961 71062 87270 333 31001 70030 82835 85359
AAXX 01061 40719 11440 82402 10090 20073 30194 40184 52015 60001 71022 8452/ 333 31004 50081 79999 84615 88458
AAXX 01061 40731 11630 70000 10038 20034 38748 40214 52005 60041 71072 81570 333 3/100 43001 70063 81640 86460
AAXX 01061 40738 11630 62202 10084 20084 30187 40189 53005 60001 71010 82570 333 31102 50301 70000 82635 85359
AAXX 01061 40740 12660 31702 10018 21054 38723 40199 53001 60001 83400 333 3/109 41002 70000 83635
AAXX 01061 40747 11556 73401 10032 20023 38633 40197 53012 60021 72162 85720 333 31101 70162 82730 84635 87458
AAXX 01061 40757 12565 33601 10050 21023 38915 40225 50006 60001 83800 333 30104 70000 81830
AAXX 01061 40763 12965 11504 10062 21055 38948 40241 51009 60001 80001 333 30105 70000 81070
AAXX 01061 40782 11556 80000 10058 20045 38910 40228 53011 60031 76186 8432/ 31101 5//// 70052 819309 83635 88558
AAXX 01061 40783 11660 71306 10024 21016 38000 40198 50011 60001 70172 85370 333 31000 5//// 79999 81935 84640 87358
AAXX 01061 40789 12665 60000 10074 21039 39225 40217 51009 60001 81510 333 30101 50201 70000 81640 85460
AAXX 01061 40798 12560 73203 10060 21016 37979 40180 53007 60001 85370 333 30103 79999 82930 83635 86359
AAXX 01061 40818 12665 10000 10104 21020 37994 40173 52007 60001 81100 333 30103 5///1 70000 81840
AAXX 01061 40827 12965 60000 10070 21115 38884 40281 51010 60001 80006 333 30106 5//// 70000 86270
AAXX 01061 40836 12665 71302 10104 21044 38228 40198 53007 60001 84320 333 30002 5///1 70000 82935 82640 87459
AAXX 01061 40851 12660 71404 10050 21076 38303 40245 52005 60001 85502 333 30105 5//// 70000 85640
AAXX 01061 40853 12665 42705 10096 21115 37786 40204 52012 60001 81101 333 30106 5//// 70000 81840 83070
AAXX 01061 40854 12960 21402 10132 21090 38987 40204 53006 60001 80002 333 30001 50261 70000 82070
AAXX 01061 40857 12660 61203 10200 20090 30192 40202 52010 60001 81570 222// 00192 20401 333 30011 50181 70000 81635 86359
AAXX 01061 40859 12960 00000 10106 21056 38762 40221 52018 60001 333 30103 50201 70000
AAXX 01061 40878 12970 02802 10099 21087 38896 40258 50008 60001 333 30103 5//// 70000
AAXX 01061 40879 12962 00402 10161 21105 39540 40231 51006 60001 333 30008 50491 70000
AAXX 01061 40883 12960 00602 10216 21014 30186 40209 51015 60001 222// 00202 20600 333 30010 50611 70000
AAXX 01061 40898 12960 00502 10210 21037 30200 40209 53020 60001 222// 00233 10500 333 30009 50441 70000
AAXX 01061 40703 11658 20000 10002 21025 38922 40219 53010 60001 71021 82500 333 34110 70000 82640
AAXX 01061 40712 11515 72502 10010 20000 38678 40209 52006 60001 71022 85670 333 31106 70000 83720 83635 87458
AAXX 01061 40729 11430 80903 10002 21008 38336 40211 53007 60031 77172 8432/ 333 3/103 47012 70063 82715 81930 84635 88557
AAXX 01061 40736 12560 70000 10074 20056 30197 40171 53012 60001 84870 333 30002 50041 70000 81830 83633 85358
AAXX 01061 40739 12665 20000 10026 21071 38703 40238 53006 60001 81502 333 30106 70000 81635
AAXX 01061 40743 12665 21002 10052 21065 39093 40240 52006 60001 81501 333 30104 70000 81635
AAXX 01061 40762 12665 10000 10052 21085 38576 40241 53008 60001 81500 333 30108 70000 81640
AAXX 01061 40768 11650 72704 10027 20019 38261 40205 53014 69971 78082 84370 333 32101 70025 82935 83640 85359
AAXX 01061 40769 12560 71505 10072 21002 38301 40161 53010 60001 84370 333 31102 5//// 70005 82930 83635 84460
AAXX 01061 40785 12660 70000 10046 21010 39105 40221 53005 60001 83510 333 30002 5///1 70000 83640 87460
AAXX 01061 40809 12970 50000 10064 21127 38533 40244 51005 60001 82032 333 30108 70000 82360 84070
AAXX 01061 40821 12662 41203 10100 21113 38804 40213 53003 60001 81136 333 30100 5//// 70000
AAXX 01061 40831 NIL
AAXX 01064 60360 12560 21605 10104 20083 40267 53009 60004 82800 333 0/600 20096 81830 95990
AAXX 01064 60390 12965 00000 10043 20034 40291 53002 60004 333 00200 20042 95990
AAXX 01064 60402 12960 02406 10080 20069 40282 53001 60004 333 00600 20075 95990
AAXX 01064 60419 12560 20000 10019 20003 40297 53003 60004 82530 333 00500 20016 82626 95990
AAXX 01064 60475 NIL
AAXX 01064 60490 12970 01602 10045 20035 40284 58001 60004 333 05200 20031 95990
AAXX 01064 60525 NIL
AAXX 01064 60531 12970 10000 10045 20006 40298 55000 60004 80002 333 05100 20037 81073 95990
AAXX 01064 60566 12960 03306 10051 20009 40298 53003 60004 333 05300 20046
AAXX 01064 60571 12962 03504 10010 21006 39347 48580 53003 60004 333 0//00 20010 95990
AAXX 01064 60580 12960 00000 10035 20015 40286 53003 60004 333 05000 20025
AAXX 01064 60590 12960 00000 11005 21038 40309 55000 60004 333 0//00 21006
AAXX 01064 60611 12960 00602 10014 21034 40303 53005 60004 333 05100 20012
AAXX 01064 60620 12960 00510 10028 21030 40285 53003 60004 333 0//00 20025
AAXX 01064 60630 12970 00315 10094 20021 40260 53001 60004 333 00400 20086
AAXX 01064 60656 12965 00000 10021 21025 40283 54000 60004 333 00100 20019
AAXX 01064 60670 NIL
AAXX 01064 60680 12970 40203 10052 21105 38682 48551 53002 60004 83032 333 05200 20047 83362 95900
AAXX 01064 48481 32560 72004 10328 20171 30086 40114 57026 81151 333 59011
AAXX 01064 48557 01458 80000 10245 20238 30078 40113 57022 60141 76122 8687/ 333 59006 60127 70197
AAXX 01061 34560 31/01 91305 11009 21009 30015 40185 52004 74944 333 21018 89/02
AAXX 01061 34720 11/91 90602 11001 21002 30102 40143 52002 69930 74544 333 20006
AAXX 01061 34730 31/01 90804 11010 21010 30055 40149 52002 74742 333 21012 93401
AAXX 01061 34740 31996 31002 11021 21027 30056 40157 52005 71000 81031 333 21024
AAXX 01061 34824 31596 81202 10014 20006 30124 40129 53002 71022 885// 333 20013
AAXX 01061 34858 31/93 91503 11014 21017 30060 40170 52003 74741 333 21034
AAXX 01061 34866 31496 81404 10010 20010 30201 40192 52008 71022 8860/ 333 20005
AAXX 01061 34880 31496 80801 10008 20001 30228 40201 53014 71022 886// 333 20007 88711
AAXX 01061 37018 32998 70803 10105 21057 30049 40123 52006 87030 333 20059
AAXX 01061 37054 32698 70501 11007 21018 39786 40179 52003 875// 333 21010
AAXX 01061 37472 32597 81402 10045 20018 30206 40184 51010 885// 333 20028
AAXX 01061 40703 11658 20000 10002 21025 38922 40219 53010 60001 71021 82500 333 34110 70000 82640
AAXX 01061 40712 11515 72502 10010 20000 38678 40209 52006 60001 71022 85670 333 31106 70000 83720 83635 87458
AAXX 01061 40729 11430 80903 10002 21008 38336 40211 53007 60031 77172 8432/ 333 3/103 47012 70063 82715 81930 84635 88557
AAXX 01061 40736 12560 70000 10074 20056 30197 40171 53012 60001 84870 333 30002 50041 70000 81830 83633 85358
AAXX 01061 40739 12665 20000 10026 21071 38703 40238 53006 60001 81502 333 30106 70000 81635
AAXX 01061 40743 12665 21002 10052 21065 39093 40240 52006 60001 81501 333 30104 70000 81635
AAXX 01061 40762 12665 10000 10052 21085 38576 40241 53008 60001 81500 333 30108 70000 81640
AAXX 01061 40768 11650 72704 10027 20019 38261 40205 53014 69971 78082 84370 333 32101 70025 82935 83640 85359
AAXX 01061 40769 12560 71505 10072 21002 38301 40161 53010 60001 84370 333 31102 5//// 70005 82930 83635 84460
AAXX 01061 40785 12660 70000 10046 21010 39105 40221 53005 60001 83510 333 30002 5///1 70000 83640 87460
AAXX 01061 40809 12970 50000 10064 21127 38533 40244 51005 60001 82032 333 30108 70000 82360 84070
AAXX 01061 40821 12662 41203 10100 21113 38804 40213 53003 60001 81136 333 30100 5//// 70000
AAXX 01061 40831 NIL
AAXX 01061 40701 11658 30000 11072 21088 38588 40245 52007 60001 71010 83500 333 3/109 47004 70000 83635
AAXX 01061 40704 12660 72405 10035 21007 38605 40186 52014 60001 84370 333 31000 70000 82940 82640 87458
AAXX 01061 40708 12660 62406 10048 20000 38649 40162 52007 60001 82170 333 30002 70000 81835 85358
AAXX 01061 40710 11670 73302 11010 21017 38310 40206 53009 60001 70272 84520 333 3/104 46997 79999 84635 87458
AAXX 01061 40713 11658 70000 10030 20011 38662 40197 51011 69961 71062 87270 333 31001 70030 82835 85359
AAXX 01061 40719 11440 82402 10090 20073 30194 40184 52015 60001 71022 8452/ 333 31004 50081 79999 84615 88458
AAXX 01061 40731 11630 70000 10038 20034 38748 40214 52005 60041 71072 81570 333 3/100 43001 70063 81640 86460
AAXX 01061 40738 11630 62202 10084 20084 30187 40189 53005 60001 71010 82570 333 31102 50301 70000 82635 85359
AAXX 01061 40740 12660 31702 10018 21054 38723 40199 53001 60001 83400 333 3/109 41002 70000 83635
AAXX 01061 40747 11556 73401 10032 20023 38633 40197 53012 60021 72162 85720 333 31101 70162 82730 84635 87458
AAXX 01061 40757 12565 33601 10050 21023 38915 40225 50006 60001 83800 333 30104 70000 81830
AAXX 01061 40763 12965 11504 10062 21055 38948 40241 51009 60001 80001 333 30105 70000 81070
AAXX 01061 40782 11556 80000 10058 20045 38910 40228 53011 60031 76186 8432/ 31101 5//// 70052 819309 83635 88558
AAXX 01061 40783 11660 71306 10024 21016 38000 40198 50011 60001 70172 85370 333 31000 5//// 79999 81935 84640 87358
AAXX 01061 40789 12665 60000 10074 21039 39225 40217 51009 60001 81510 333 30101 50201 70000 81640 85460
AAXX 01061 40798 12560 73203 10060 21016 37979 40180 53007 60001 85370 333 30103 79999 82930 83635 86359
AAXX 01061 40818 12665 10000 10104 21020 37994 40173 52007 60001 81100 333 30103 5///1 70000 81840
AAXX 01061 40827 12965 60000 10070 21115 38884 40281 51010 60001 80006 333 30106 5//// 70000 86270
AAXX 01061 40836 12665 71302 10104 21044 38228 40198 53007 60001 84320 333 30002 5///1 70000 82935 82640 87459
AAXX 01061 40851 12660 71404 10050 21076 38303 40245 52005 60001 85502 333 30105 5//// 70000 85640
AAXX 01061 40853 12665 42705 10096 21115 37786 40204 52012 60001 81101 333 30106 5//// 70000 81840 83070
AAXX 01061 40854 12960 21402 10132 21090 38987 40204 53006 60001 80002 333 30001 50261 70000 82070
AAXX 01061 40857 12660 61203 10200 20090 30192 40202 52010 60001 81570 222// 00192 20401 333 30011 50181 70000 81635 86359
AAXX 01061 40859 12960 00000 10106 21056 38762 40221 52018 60001 333 30103 50201 70000
AAXX 01061 40878 12970 02802 10099 21087 38896 40258 50008 60001 333 30103 5//// 70000
AAXX 01061 40879 12962 00402 10161 21105 39540 40231 51006 60001 333 30008 50491 70000
AAXX 01061 40883 12960 00602 10216 21014 30186 40209 51015 60001 222// 00202 20600 333 30010 50611 70000
AAXX 01061 40898 12960 00502 10210 21037 30200 40209 53020 60001 222// 00233 10500 333 30009 50441 70000
AAXX 01061 01152 11883 81014 11004 21077 39905 49921 56019 60002 70322 86077 333 21049 70000 91123
AAXX 01061 01317 41480 81504 10063 20042 39876 49890 57008 78086 878// 333 20041 91112
AAXX 01061 01241 11459 81310 10015 21004 39880 49891 50000 60032 76176 887// 333 21004 70027 91117
AAXX 01061 01205 46/// /1709 10078 20035 39811 49856 58009 333 20060 91122
BBXX VOXS 01064 99467 70480 41598 62310 10009 2101/ 40294 57024 70222 86500 22200 04015 20301 334// 41109 80001
AAXX 01064 64500 32360 81810 10249 20230 30105 40118 885// 333 02500 20241 50521 55089 59007 84608 88633
AAXX 01063 64501 32358 80000 10250 20236 3//// 4//// 885// 333 0//00 20249 50264 55087 5//// 83608 88626
AAXX 01063 64507 NIL
AAXX 01063 64510 NIL
AAXX 01064 64550 32358 8//// 10230 20212 30/// 40/// 885// 333 0//00 20225 50214 55/// 5//// 84608 88623
AAXX 01064 64551 31240 60000 10226 20224 30100 40129 71022 83530 333 0//00 20201 50044 55/// 59008 82705 83610 86362
AAXX 01064 64556 32460 8//// 10221 20218 39543 40137 885// 333 0//00 20218 50014 55009 59009 88610
AAXX 01064 64570 32460 41601 10225 20223 39633 40143 83530 333 02100 20223 50184 55/// 58009 83610 83361
BBXX BAREU61 01064 99059 10029 46/// /2913 10276 29082 40110 52006 22214
BBXX BATFR08 01064 99252 30547 46/// /1215 10242 20167 40140 51003 22243 00265
BBXX BATFR05 01064 99069 70137 46/// /0615 10275 20179 40121 55001 22273 00264
BBXX BATFR19 01064 99067 30055 46/// /1513 10237 20189 40147 53019 22200 00255
AAXX 01063 64400 11440 81202 10235 20228 30112 40131 69904 71011 8387/ 333 02259 20225 50154 55029 59006 82810 83626 88362
AAXX 01063 64401 32560 80000 10230 20212 39750 40123 8157/ 333 01800 20219 50214 55019 59016 81616 88362
AAXX 01064 64450 32458 82602 10240 20218 39769 40121 888// 333 02000 20230 50214 55054 59005 81810 88620
AAXX 01063 64453 32260 82204 10210 20202 39/// 40/// 886// 333 02000 20203 50034 55050 5//// 88705
AAXX 01063 64456 NIL
AAXX 01063 64458 31404 50000 10220 20217 39722 40109 74644 83502 333 01700 20210 50204 55/// 59002 83610 85080
AAXX 01063 64459 31404 52802 10220 20217 39763 40125 74644 83202 333 02100 20215 50174 55/// 59005 83610 85080 94903 95833
AAXX 01063 64460 NIL
BBXX IDDUK02 01064 99538 50380 46/// ///// 40032 222//
BBXX PCEO 01063 99246 70493 41598 51205 10220 20175 40254 56014 7//22 8434/ 22254 04247 20702 313// 40804 5//// 80190
BBXX BAREU54 01064 99100 70829 46/// ///// 40129 22200
BBXX BAREU04 01064 99404 70692 46/// ///// 40123 52009 22213
BBXX BATFR16 01064 99183 70590 44598 21025 10259 20202 40179 56010 70100 822// 22214 00274 21004 309// 41004 5////
BBXX BATFR13 01064 99265 70495 44798 60919 10232 20184 40267 56019 70311 86566 22254 00249 20410
BBXX FVNM 01064 99136 70818 46/// /0620 10277 20232 40135 58008 22282 00279
BBXX 41101 01064 99146 70562 46/// /0720 10257 20214 40146 57014 22200 00267 10806 70031 555 1/027
BBXX PHQX 01063 99158 70638 41598 30912 10265 20215 40175 56015 70222 83102 22254 20603 309// 41003 5//// 80230
BBXX PDHY 01063 99472 70584 41398 81406 10040 40109 57012 70222 887// 22274 04030 20102 3//// 4//// 5////
AAXX 01064 60395 12960 00000 10065 20061 40286 53004 60004 333 00300 20065 95990
AAXX 01064 60421 NIL
AAXX 01064 60423 11665 40000 10063 20042 39277 48540 60004 700// 83230 333 0//00 20040 83840 95990
AAXX 01064 60430 11960 00000 10057 20043 40296 56003 60004 700// 333 00300 20055 95990
AAXX 01064 60437 11970 00000 10050 20007 39056 48550 56002 60004 700// 333 00100 20048 95990
AAXX 01064 60444 12960 00000 10021 20013 39172 48572 53003 60004 333 05100 20007 95900
AAXX 01064 60452 12965 0//// 10102 20060 40270 51003 60004 222// 20000 333 0//00 20098 91826
AAXX 01064 60457 12960 00000 10045 20040 40287 54000 60004 333 00000 20030 95990
AAXX 01064 60514 11960 00000 10060 20046 39368 48584 53004 60004 700// 333 05100 20034 95990
AAXX 01064 60518 11965 21812 10118 20001 40263 56007 60004 700// 80002 222// 20000 333 00600 20110 82073 91807 95990
AAXX 01064 60520 11960 00000 10001 21010 40287 56006 60004 700// 333 05300 21005 95990
AAXX 01064 60540 11960 00000 10004 21018 39125 48572 5//// 60004 700// 333 05300 20004 95990
AAXX 01064 60560 11960 00000 11008 21022 39047 48582 56001 60004 700// 333 05300 21009 95990
BBXX BATFR53 01064 99176 51294 46/// /0611 10254 20210 40172 51020 22222 00264
AAXX 01064 60351 12560 10000 10074 20061 40267 53001 60004 81200 333 00400 20065 81820 95990
AAXX 01064 60355 12960 02210 10106 20068 40264 53006 60004 333 20106 95990
AAXX 01064 60445 12960 12202 11000 21018 39104 48566 53002 60004 80002 333 05500 21013 81073 95990
AAXX 01064 60468 12960 11004 11008 21019 39312 48558 54000 60004 81030 333 05600 21011 81360 95990
AAXX 01064 60507 12960 00000 10020 20015 40303 55003 60004 333 05300 20012 95990
AAXX 01064 60511 12960 02404 10010 21009 39143 48564 55004 60004 333 05400 20010 95990
AAXX 01064 60535 11970 00000 10012 20007 38920 48574 54000 60004 700// 333 05200 20009 95900
AAXX 01064 60536 12960 00000 10020 21004 39408 48572 55006 60004 333 05400 20011 95990
AAXX 01064 60549 11960 00000 10000 21011 39011 48595 58001 60004 700// 333 05300 20000 95990
AAXX 01064 60550 12960 00000 11006 21007 38753 48585 56006 60004 333 05300 21008 95990
AAXX 01064 60555 12970 00000 10034 21010 40284 54001 60004 333 00000 20032
AAXX 01064 60559 12960 00000 10050 20012 40276 55000 60004 333 0//00 20045
AAXX 01063 60581 12960 00000 10020 20009 40286 53002 60004 333 05100 20016
AAXX 01064 60602 11960 00000 10027 21011 40292 53003 60004 700// 333 0//00 20026 95990
AAXX 01064 60607 12960 00210 10015 21032 40278 55003 60004 333 0//00 20010
AAXX 01064 60640 12960 30000 10005 21031 40291 53006 60004 83030 333 05100 20005 83360
AAXX 01064 60690 NIL
AAXX 01061 60370 36/// /2302 10095 20058 333 20088
AAXX 01061 60371 16/// /1803 10085 20061 69924 333 20085
AAXX 01061 60372 36/// /2601 10094 20036 333 20093
AAXX 01061 60373 NIL
AAXX 01061 60374 NIL
AAXX 01061 60376 NIL
AAXX 01061 60379 NIL
AAXX 01061 60380 NIL
AAXX 01061 60381 NIL
AAXX 01061 60393 NIL
AAXX 01061 60394 NIL
AAXX 01061 60593 NIL
AAXX 01061 60595 NIL
AAXX 01061 60605 NIL
AAXX 01061 60613 NIL
AAXX 01061 60623 NIL
AAXX 01061 60624 NIL
AAXX 01061 60639 NIL
AAXX 01064 60645 36/// /0000 10073 21030 333 20058
AAXX 01061 08501 12/// /3103 10153 20117 30271 40307 52010 60042 333 20150 30011 5//// 55014 20419 91006 91110 555 69915
AAXX 01061 08505 NIL
AAXX 01061 08506 12/// /2403 10158 20139 30235 40308 52004 60032 333 20154 30017 5//// 55008 20361 555 60005
AAXX 01061 08509 11560 33105 10154 20141 30225 40290 51001 69902 70281 83800 333 20154 50634 55032 81820 91109 555 69907
AAXX 01061 08511 12/// /3002 10157 20157 30187 40295 52005 60022 333 20154 30014 5//// 55017 24858 91105 555 60005
AAXX 01061 08512 32470 72506 10168 20167 30211 40296 57002 8683/ 333 20166 30016 5//// 55076 20980 85812 91111 555 60005
AAXX 01061 08515 11472 72607 10168 20149 30186 40308 57005 69922 72521 8687/ 333 20152 31014 50224 55/// 83812 86635 910// 911// 96020 555 69927 912//
AAXX 01061 08521 32470 69901 10148 20076 30249 40320 56005 86800 333 20148 30/// 55034 83818 85630 555 60007
AAXX 01061 08522 32/// /9902 10149 20068 30250 40321 57004 333 20139 30010 5//// 55041 20838 555 60005
AAXX 01061 08524 32465 63502 10151 20075 30223 40322 57003 86800 333 20149 30013 5//// 55022 20705 83815 85630 91105 555 60005
AAXX 01061 08530 NIL
AAXX 01061 08531 32/// /2904 10138 20119 30253 40292 57008 333 20132 30012 5//// 55003 20320 91007 91107 555 60005
AAXX 01061 08532 NIL
AAXX 01061 08533 32/// /0202 10112 20099 30266 40295 57005 333 20110 30008 5//// 55083 21215 91105 555 60005
AAXX 01060 08534 31670 40000 10072 20068 30276 40294 55009 71240 84500 333 20060 50114 55085 84635 555 60007
AAXX 01061 08535 32/// /3201 10122 20105 30203 40297 57006 333 20102 30005 5//// 55084 21123 91105 555 60005
AAXX 01061 08537 NIL
AAXX 01061 08540 31404 70000 10102 20095 30218 40289 56009 74642 87200 333 20100 50074 55030 83707 85820 555 60007 90201 96646
AAXX 01061 08541 32/// /3001 10112 20098 30175 40296 57009 333 20089 30004 5//// 55081 21073 555 60005
AAXX 01061 08544 31558 61703 10106 20091 30260 40281 57015 71022 86500 333 20104 50094 55011 86622 555 60007
AAXX 01061 08545 11234 81302 10110 20096 30199 40283 57014 69932 75052 888// 333 20108 31008 50094 55006 20391 82705 84709 86616 96010 555 69925
AAXX 01061 08548 32/// /0702 10093 20081 30083 40293 57009 333 20088 30007 5//// 55064 20833 555 60005
AAXX 01061 08551 NIL
AAXX 01061 08554 31965 00000 10076 20050 30284 40294 56004 70300 80001 333 20066 30008 5//// 55086 21130 81072 555 60005
AAXX 01061 08558 32/// /2702 10039 20039 39993 40299 57006 333 20039 30000 5//// 55000 20998 555 60005
AAXX 01061 08560 32/// /9901 10069 20061 39524 40297 57009 333 20060 30101 5//// 55075 20919 555 60005
AAXX 01061 08561 31/05 92101 10058 20058 30059 40308 57007 74540 333 20047 50124 55078 89001 555 60007 96647 90328 90228 96643
AAXX 01061 08562 12/// /3401 10072 20068 39992 40294 57005 69912 333 20056 31004 5//// 55084 21144 555 69915
AAXX 01061 08567 32/// /0000 10075 20067 39618 40294 57010 333 20075 30005 5//// 55062 20776 555 60005
AAXX 01061 08568 32/// /2304 10082 20041 38709 48579 57011 333 20059 30002 5//// 55079 21212 91006 91108 555 60005
AAXX 01061 08570 32/// /0000 10051 20039 39822 40295 57007 333 20051 30001 5//// 55082 20923 555 60005
AAXX 01061 08571 32/// /0000 10085 20041 39578 40291 57006 333 20085 30007 5//// 55068 20942 555 60005
AAXX 01061 08575 32/// /2601 10080 20059 39464 40285 57009 333 20051 30004 5//// 55072 20837 555 60005
AAXX 01061 08579 32/// /2401 10123 20098 30169 40296 57006 333 20103 30007 5//// 55081 20972 555 60005
AAXX 01061 14235 12460 8//// 11007 21069 39019 48465 52010 60002 8357/ 333 21021 44019
AAXX 01061 14246 11662 81903 10007 21011 39990 40200 52008 69902 7246/ 885// 333 21004 35102 79999
AAXX 01061 14314 12980 21202 10070 21027 30139 40205 52006 60002 82070 333 20060 30003 70000 92311 92418
AAXX 01061 14323 12682 70601 10057 20000 30168 40203 53003 60002 87500 333 20041 31001 92311 92418
AAXX 01061 14324 12480 63203 11019 21056 38400 48503 53010 60002 83570 333 21066 3/107 44034 70000
AAXX 01061 14328 12665 73501 11008 21025 39796 40206 53007 60002 87500 333 21020 3/106 43005
AAXX 01061 14330 12670 62701 11034 21047 39529 40225 51003 60002 84530 333 21054 3/110 43007 70000 92842
AAXX 01061 14438 12775 30000 10026 21059 30106 40200 51003 60002 81502 222// 00150 333 20014 34104 9230/
AAXX 01061 14443 32999 032// 10098 20060 30102 40201 52005 333 20090 92323
AAXX 01061 14447 12984 63402 10070 21037 30172 40203 52/// 60002 86070 222// 00150 333 20041 31004 92311
AAXX 01061 14472 12980 00304 10057 21127 30120 40186 53008 60002 222// 00153 333 20057 31/// 92312
AAXX 01064 60692 36/// /0417 10121 21067 333 20120
AAXX 01064 60676 36/// /3608 10067 21048 333 20058
AAXX 01064 60353 NIL
AAXX 01064 60367 11560 6//// 10079 20057 40270 53006 60112 700// 86800 333 0//// 20073 83820 84640
AAXX 01064 60369 12960 00000 10120 20007 40276 53003 60004 333 20112 91827
AAXX 01064 60401 NIL
AAXX 01064 60403 11960 20000 10035 20028 40275 53005 60004 700// 82030 333 00510 20030 82360 95990
AAXX 01064 60425 12970 00408 10073 20050 40292 53001 60004 333 00200 20066 95990
AAXX 01064 60461 13970 21812 10106 20048 40288 54000 60004 700// 80002 222// 20000 333 20106 82073 91808 95990
AAXX 01064 60467 11960 23208 10037 20030 40296 51001 60004 700// 82030 333 00100 20034 82360 95990
AAXX 01064 60492 11960 10000 10050 20009 40287 56003 60004 700// 80001 333 00300 20045 81073 95990
AAXX 01064 60515 NIL
AAXX 01064 60517 11960 01605 10081 20036 40286 58002 60004 700// 333 0//00 20078 95990
AAXX 01064 60522 11970 00000 10014 20000 40305 5//// 60004 700// 333 05200 20014 95990
AAXX 01064 60557 11965 00000 11015 21021 38949 48580 56005 60004 700// 333 05400 21018 95990
AAXX 01064 60563 12960 00208 10020 20009 39390 48577 52011 60004 333 05000 20016
AAXX 01064 60603 12958 20000 10025 21041 40306 52012 60004 80001 333 0//00 20020 82073
AAXX 01064 60638 12960 0//// 10020 21027 40288 53008 60004 333 05200 20015
AAXX 01064 60686 NIL
AAXX 01064 60662 36/// /0000 10022 21077 333 20020
AAXX 01064 60667 36/// /0000 10047 21068 333 20020
AAXX 01064 60672 36/// /0000 10029 21108 333 20029
AAXX 01064 60677 36/// /0000 11023 21096 333 21023
AAXX 01064 60660 36/// /1502 10089 21082 333 20089
AAXX 01061 89064 16/// /1001 10008 29081 49916 52017 69911
BBXX BAREU06 01064 99415 10100 46/// ///// 40195 52006 22284
AAXX 01064 60691 36/// /0519 10119 21088 333 20119
BBXX BAREU63 01064 99326 10194 46/// /3322 10154 29054 40203 52015 22232
BBXX BAREU08 01064 99417 70210 46/// ///// 40217 52016 22254
BBXX BATFR32 01064 99418 10087 46/// /0710 10121 20076 40197 53012 7//// 8//// 22233 00154
BBXX BATFR11 01064 99431 10071 46/// ///// 10124 20087 40198 53010 22262 00147
BBXX BATFR15 01064 99489 70069 46/// /2217 10122 20109 40101 56022 22224 00115
BBXX BATFR33 01064 99375 10099 46/// /3027 10159 20129 40237 53009 22235 00160
BBXX BATFR46 01064 99400 10016 46/// /3417 10154 20107 40254 53012 22253 00154
BBXX BATFR22 01064 99432 10053 46/// /3219 10135 40210 53020 22283 00144
BBXX BATEU05 01064 99653 70111 46/// /1708 10029 49622 56021 22273
BBXX BATEU08 01064 99583 70011 46/// /2227 10084 20042 49868 52011 22223
BBXX BATEU01 01064 99440 70222 44497 72836 10132 20067 40175 53011 70222 84343 22264 00139 21004 327// 41506 5////
BBXX BATFR09 01064 99424 70098 44497 52120 10137 20110 40265 58022 70152 83320 22283 00152 20304 333// 40608 5//// 60//0 ICE 0/0//
BBXX 61001 01064 99434 10078 46/// /0512 10134 20099 40190 52008 22200 00137 10703 70013
BBXX BATUK01 01064 99560 70032 46/// /2405 10079 20022 49915 58014 22200 00062
BBXX 61002 01064 99421 10047 46/// ///25 10144 2//// 40228 54000 22200 00132 10706 70028 555 1/031
BBXX VOXS 01064 99467 70480 41598 62310 10009 2101/ 40294 57024 70222 86500 22200 04015 20301 334// 41109 80001
AAXX 01064 60661 36/// /0109 10008 21087 333 20008
AAXX 01064 60633 36/// /3410 10080 21095 333 20073
AAXX 01061 80400 NIL
AAXX 01061 80403 32460 10904 10250 20237 30131 40150 81500 333 30/// 56900 58012 81613 555 10151
AAXX 01061 80405 NIL
AAXX 01061 80407 NIL
AAXX 01061 80410 32460 60000 10202 20184 39459 40138 866// 333 31/// 569// 58007 86716 555 10173
AAXX 01061 80413 NIL
AAXX 01061 80415 32460 41101 10234 20205 30054 40108 82520 333 30/// 5699/ 58000 82616 555 10123
AAXX 01061 80419 NIL
AAXX 01061 80421 NIL
AAXX 01061 80423 11460 2//// 10226 20216 30109 40126 69941 72050 82200 333 31/// 56200 59004 82810 555 10125
AAXX 01061 80428 32960 00000 10239 20204 39931 40114 333 30/// 59003 555 10127
AAXX 01061 80432 NIL
AAXX 01061 80435 NIL
AAXX 01061 80438 11420 82301 10176 20166 38530 48527 69951 75022 887// 333 31/// 569// 58004 87710 555 10214
AAXX 01061 80444 NIL
AAXX 01061 80447 32560 3000 10243 20177 39673 40092 83500 333 30/// 56900 59001 82620 555 10134
AAXX 01061 80448 32960 02902 10223 20221 3//// 4//// 333 30/// 5////
AAXX 01061 80450 NIL
AAXX 01061 80453 NIL
AAXX 01061 80457 32960 0//// 10260 20176 30030 40115 333 30/// 58009 555 10115
AAXX 01061 80462 NIL
AAXX 01061 13463 32970 22901 11013 21066 30156 40218 52014 82030 333 21014 31106 55047
AAXX 01061 13459 32970 13602 11061 21109 39437 40242 52010 81030 333 21072 31110 47003 55072 81399
AAXX 01061 13461 32970 20505 10062 21111 30198 40206 52012 80002 333 20056 30004 55043 91113 92323 92438 92511
AAXX 01061 13363 31/06 90000 11128 21135 39302 48470 52014 74540 333 21136 3/115 47017 55000
AAXX 01061 80402 NIL
AAXX 01061 80412 NIL
AAXX 01061 80416 NIL
AAXX 01061 80420 32960 00904 10240 20221 30118 40124 333 30/// 59001 5//// 555 10137
AAXX 01061 80425 NIL
AAXX 01061 80426 NIL
AAXX 01061 80427 NIL
AAXX 01061 80431 32960 2//// 10195 20186 39641 40116 80008 333 30/// 56009 58002 555 10145
AAXX 01061 80434 NIL
AAXX 01061 80437 32460 81402 1243 2237 30014 40098 885// 333 569/ 88620 555 1006
AAXX 01061 80440 32560 5360 10234 20185 39912 40122 253/ 33 30/// 5699/ 58012 82620 83358 555 10132
AAXX 01061 80442 NIL
AAXX 01061 80472 32460 50201 10207 20192 39650 40126 82508 333 30/// 56909 58004 82816 555 10152
AAXX 01061 80475 32560 40000 10194 20188 39805 40172 855// 333 30/// 56900 59004 84623 555 10190
AAXX 01061 80476 NIL
AAXX 01061 80478 NIL
AAXX 01061 80479 NIL
BBXX 44067 01061 99384 70770 46/// /1801 10051 40198 51005 90600
AAXX 01061 50844 32962 03403 11118 21208 40345 57016 333 21233
AAXX 01061 50854 32970 02902 11150 21227 40341 57007 333 21225
AAXX 01061 50968 32962 02003 11163 21208 40331 52001 333 21265
AAXX 01061 51379 11980 01603 11064 21113 40448 57019 69901 70070 333 05300 21176
AAXX 01061 51467 32980 01801 11056 21204 38308 57031 333 05154 21131
AAXX 01061 51495 32980 01804 11039 21152 40419 57020 333 00354 21062
AAXX 01061 53480 32670 71103 11059 21165 40347 57030 83502 333 21172
AAXX 01061 53673 31909 41601 11053 21067 40344 57040 74844 80002 333 21117
AAXX 01061 53698 11912 72701 11027 21040 40347 57029 69901 72874 8703/ 333 21052
AAXX 01061 53898 31918 80202 11015 21035 40338 57024 71000 8802/ 333 21030
AAXX 01061 54308 32980 71605 11039 21206 40346 57026 80002 333 21154
AAXX 01061 54602 31961 80701 10019 21134 40338 57027 70040 80007 333 21091
AAXX 01061 54725 31930 00903 10015 21091 40340 57020 71040 333 21060
AAXX 01061 54751 11570 63408 11023 21082 40329 57005 69911 70080 86400 333 21032
AAXX 01061 54916 31960 03401 10048 21028 40326 57023 70040 333 21025
AAXX 01061 57014 32962 70702 10039 21043 40305 57040 80002 333 05151 21063
AAXX 01061 57025 31950 71801 10028 21016 40318 57031 71000 87030 333 21047
AAXX 01061 57046 32964 70000 11003 21085 37973 57025 80002 333 00001 21063
AAXX 01061 58208 31930 80901 10025 20025 40312 57028 71040 8807/ 333 21014
AAXX 01063 91802 NIL
AAXX 01063 91809 NIL
AAXX 01063 91831 36/// /1105 10249 20229 40131 52004
AAXX 01063 91841 36/// /0000 10250 20224 40108 52021
AAXX 01063 91843 31498 41408 10253 20219 40112 51018 60001 70201 83201 333 563/9 83816 84079
AAXX 01063 91848 36/// /1712 10243 20232 49925 47015
AAXX 01064 89022 46/// /0713 11045 21050 39908 49946 52010
AAXX 01064 89062 46/// /0312 10018 21032 39813 49853 52015 333 55017
AAXX 01061 23914 11996 80604 11085 21096 39938 40206 53003 69960 77372 8807/ 333 21078
AAXX 01061 23921 31599 70000 11075 21081 30069 40192 53002 70282 84930 333 21101
AAXX 01061 23955 41598 82004 11058 21073 30231 40295 58012 78582 883//
AAXX 01061 23966 41496 62401 11066 21090 30179 40310 52001 78582 86900
AAXX 01061 28138 32599 72401 11113 21126 39640 40237 57001 83501 333 21108
AAXX 01061 28224 11597 81903 11086 21114 39997 40220 53005 69950 77171 8552/ 333 21087
AAXX 01061 28255 32999 82101 11107 21160 30120 40256 53003 86031 333 21141
AAXX 01061 28440 32599 61502 11123 21169 39889 40259 52007 83506 333 21108
AAXX 01061 28645 11570 82305 11080 21098 39987 40296 57004 77172 885// 333 21117
AAXX 01061 28661 11997 82007 11096 21110 30230 40327 58003 69900 77171 8802/ 333 21150
AAXX 01061 28722 11697 81803 11059 21078 30101 40236 53003 69900 70282 884// 333 21090
AAXX 01061 28748 32560 82003 11079 21093 30066 40318 53002 885// 333 21150
AAXX 01061 28838 11996 81903 11105 21111 39807 40309 53004 69930 77172 8807/ 333 21169
AAXX 01061 29231 41497 81902 11068 21084 30261 40361 52001 78582 889// 333 88913
AAXX 01061 29313 41397 81903 11084 21086 30239 40367 52003 77172 885// 333 86508
AAXX 01061 29612 42998 81703 11155 21168 30234 40398 52003 8805/
AAXX 01061 29638 41580 81802 11090 21110 30244 40419 52002 72682 82931
AAXX 01061 29838 41997 22002 11113 21141 30193 40442 58001 70271 80001
AAXX 01061 29846 42597 81803 11087 21106 30040 40445 54000 8355/
AAXX 01061 36061 41997 20000 11094 21119 30025 40456 58009 70281 80001
AAXX 01061 23909 11497 81903 11067 21079 39938 40194 52006 69930 77172 8651/ 333 21066
AAXX 01061 28044 32599 62502 11080 21113 30035 40205 54001 82530 333 21085
AAXX 01061 28116 11496 81401 11087 21106 39966 40208 53005 60020 78582 889// 333 21086
AAXX 01061 28240 32598 72603 11072 21142 39904 40242 53005 86530 333 21116
AAXX 01061 28522 31996 81805 11070 21099 39968 40235 53001 77172 8802/ 333 21085
AAXX 01061 28621 32998 81804 11070 21087 39987 40228 53007 8807/ 333 21083
AAXX 01061 28719 32498 818// 11089 21096 39781 40239 52007 886// 333 21112
AAXX 01061 29023 41496 82202 11066 21086 30233 40333 52001 78582 889// 333 88910
AAXX 01061 29122 41498 82004 11074 21091 30271 40347 53003 72682 883// 333 84614
AAXX 01061 29328 41497 82203 11074 21091 30235 40381 52009 78582 889// 333 85915
AAXX 01061 29348 41496 82102 11076 21094 30243 40395 51002 78582 8497/
AAXX 01061 29405 42597 82003 11083 21098 30211 40365 54000 8633/ 333 88920
AAXX 01061 29418 41598 81803 11106 21112 30215 40384 52004 70272 8557/
AAXX 01061 29430 41498 61901 11088 21107 30212 40397 54000 72272 86500
AAXX 01061 29524 41498 81503 11109 21129 30221 40394 52002 72682 889//
AAXX 01061 29605 42998 81902 11126 21153 30231 40383 52003 80001
AAXX 01061 29631 41597 62003 11101 21114 30214 40410 54000 70282 81101
AAXX 01061 29645 41596 81602 11078 21105 30224 40420 58005 78582 889// 333 88923
AAXX 01061 29706 42698 82003 11142 21162 30240 40398 58003 86501
AAXX 01061 29736 41497 81702 11111 21131 30169 40435 52001 78582 8635/
AAXX 01061 29937 42997 01402 11116 21151 30213 40449 58008
AAXX 01061 36034 42998 03301 11148 21175 30149 40447 58011
AAXX 01061 36096 41996 70000 11221 21247 39689 40552 58007 77172 82036 333 95090
AAXX 01063 87016 11456 80000 10222 20210 39690 40082 57015 60031 71592 8487/ 333 81810 84620
AAXX 01064 87078 NIL
AAXX 01064 87244 NIL
AAXX 01064 87393 NIL
AAXX 01064 87416 32965 00000 10250 20119 39380 40089 58004
AAXX 01064 87563 NIL
AAXX 01064 87640 NIL
AAXX 01064 87688 NIL
AAXX 01064 87774 NIL
AAXX 01064 87852 NIL
AAXX 01064 87896 NIL
AAXX 01064 87593 NIL
AAXX 01064 87623 31965 00216 10249 20148 39894 40110 56001 70700
AAXX 01064 87641 32965 00905 10150 20136 39988 40158 54000
AAXX 01064 87645 NIL
AAXX 01064 87648 NIL
AAXX 01064 87692 31350 50000 10186 20178 30153 40178 56008 71010 85600 333 56200 85709
AAXX 01064 87715 32965 02307 10266 20099 39797 40096 52017
AAXX 01064 87750 32965 03614 10250 20120 30014 40108 52001
AAXX 01064 87765 32960 02910 10152 20098 39210 48532 50000 333 96120
AAXX 01064 87784 NIL
AAXX 01064 87791 NIL
AAXX 01064 87800 NIL
AAXX 01064 87803 32980 02907 10156 20037 39225 40105 58001
AAXX 01064 87828 31666 12009 10282 20101 30004 40052 52017 70700 81900 333 56600 57962 81935
AAXX 01064 87860 31980 02705 10212 20108 30014 40067 54000 70292
AAXX 01064 87904 NIL
AAXX 01064 87909 NIL
AAXX 01064 87925 11680 22709 10069 20056 30054 40078 51004 60031 70261 81470 333 56550 81645
AAXX 01064 87938 NIL
AAXX 01063 NIL
AAXX 01064 41915 32956 30701 10269 20110 30117 40142 82031 333 56099 59031 70000 82362
AAXX 01064 41926 32957 43603 10250 20110 30146 40160 84030 333 56090 59023 70000 84365
AAXX 01064 41941 32956 03602 10269 20140 30135 40140 333 59025 70000
AAXX 01064 41960 31956 33603 10275 20130 30140 40142 70500 83030 333 56090 59034 70000 83362
AAXX 01064 41963 31940 10602 10269 20140 30143 40146 70510 81030 333 56090 59020 70000 81363
AAXX 01064 41964 32957 03602 10276 20110 30153 40155 333 59018 70000
AAXX 01061 28049 32999 61706 11101 21138 30045 40217 54001 86050 333 21093
AAXX 01061 28144 32999 61701 11093 21136 30060 40224 53005 84051 333 21089
AAXX 01061 28319 11496 82001 11084 21107 30049 40219 53003 69900 77172 8802/ 333 21088
AAXX 01061 28321 11598 81502 11092 21108 30006 40220 53009 69920 77172 8353/ 333 21093
AAXX 01061 28334 31998 82501 11089 21127 39922 40240 53005 77011 8807/ 333 21103
AAXX 01061 28434 32999 70000 11106 21137 39973 40244 53006 8703/ 333 21187
AAXX 01061 28552 31996 82205 11088 21112 30179 40297 53002 77173 8801/ 333 21130 92982
AAXX 01061 28666 31698 51803 11128 21144 30162 40348 50001 77171 85500 333 21164
AAXX 01061 28825 32597 81702 11055 21093 30067 40244 54000 8655/ 333 21085
AAXX 01061 29111 42499 82003 11061 21076 30236 40327 58005 886// 333 88711
AAXX 01061 29209 42598 82002 11071 21080 30218 40350 58005 83502
AAXX 01061 29551 41497 82203 11071 21109 30223 40414 54000 78583 8232/
AAXX 01061 29602 42699 81702 11121 21148 30235 40385 54000 885// 333 88637
AAXX 01061 29636 41598 62202 11089 21118 30188 40418 52001 70282 85530
AAXX 01061 29654 41497 81905 11098 21109 39778 40423 52002 78583 889// 333 86921
AAXX 01061 29712 41698 61702 11161 21180 30247 40402 52002 70271 86500 333 86633
AAXX 01061 29724 42999 02102 11143 21163 30194 40412 58003
AAXX 01061 29726 42998 72303 11091 21130 30245 40422 52002 80009
AAXX 01061 29814 42999 21601 11174 21200 30256 40416 58004 80001
AAXX 01061 29827 42697 81802 11124 21137 30262 40427 58004 84531
AAXX 01061 29923 42999 82002 11132 21150 30148 40443 52001 8805/
AAXX 01061 29939 42998 20000 11121 21134 30153 40456 58008 80009
AAXX 01061 35026 32997 81401 11130 21153 39619 40295 53008 8807/ 333 21137
AAXX 01061 36021 42599 81802 11110 21130 30229 40420 58007 885//
AAXX 01061 36022 42998 82001 11121 21127 30157 40437 58005 85031
AAXX 01061 36038 42999 01502 11065 21125 39977 40439 58009
AAXX 01061 36058 01031 36058 42999 00000 11120 21133 39905 40462 58008
AAXX 01061 36064 42999 01801 11034 21077 39831 40446 58006
AAXX 01061 36229 42999 00000 11115 21159 39241 40483 58006
AAXX 01061 36259 42699 40000 11184 21243 38356 48637 58001 82901
AAXX 01061 34357 11496 81302 11002 21003 30008 40166 52004 69900 71022 886// 333 21001
AAXX 01061 34363 31/93 91703 11020 21020 30040 40196 53005 74542 333 21019 93403
AAXX 01061 34545 31/93 91304 11008 20005 30052 40169 52003 75654 333 21008 96045 93400
AAXX 01061 34579 NIL
AAXX 01061 34838 32997 80102 10025 21016 30041 40138 52004 86059 333 20020
AAXX 01061 34927 32697 70701 10031 20009 30093 40131 52003 85530 333 20021
AAXX 01061 34949 32998 31404 10014 21027 39612 40164 56006 82031 333 20001
AAXX 01061 37001 32997 60801 10068 20004 30076 40116 53002 80070 333 20042
AAXX 01061 37031 32997 71402 10029 21008 39947 40144 57009 87030 333 20023
AAXX 01061 37061 31/93 91402 11008 21009 30019 40189 52008 74741 333 21028
AAXX 01061 37085 31497 81003 10017 20006 30221 40249 52008 76162 8872/ 333 21009
AAXX 01061 37107 32799 81001 10039 21013 39470 40150 52004 855// 333 20018
AAXX 01061 37126 32999 82102 11028 21192 37885 48456 57002 86031 333 21038 42001
AAXX 01061 37171 32998 70604 10082 21012 30112 40130 53010 87030 333 20056
AAXX 01061 37228 32598 40000 10015 21057 39324 40167 52002 82570 333 21020
AAXX 01061 37470 32598 71802 10046 20011 30211 40189 52015 87500 333 20041
AAXX 01061 37663 32999 21401 10039 21091 38984 48462 52013 8204/ 333 21031
AAXX 01061 34579 32598 70802 11006 21027 30153 40197 53006 875// 333 21006 34101
AAXX 01061 40716 11540 80000 10014 20009 38923 40217 53008 60021 72162 82162 333 32102 70042 81720 83635 88458
AAXX 01061 40719 11440 82402 10090 20073 30194 40184 52015 60001 71022 8452/ 333 31004 50081 79999 84615 88458
AAXX 01061 40721 12960 20000 10094 21026 39627 40172 51006 60001 80002 333 30005 50521 70000 82070
AAXX 01061 40858 12660 61403 10194 20055 30192 40202 52018 60001 81570 333 30008 50151 70000 81640 85360
AAXX 01061 40872 12960 20000 10200 20053 30200 40205 53010 60001 80001 222// 00214 20000 333 30010 50471 70000 82070
AAXX 01061 40877 12960 00904 10120 21052 39649 40204 52019 60001 333 30001 50471 70000
AAXX 01061 40898 12960 00502 10210 21037 30200 40209 53020 60001 222// 00233 10500 333 30009 50441 70000
AAXX 01064 71309 16/// /1504 11072 21085 30090 40102 58019 60001 333 11065 21254 70008
AAXX 01064 71321 16/// /0000 11160 21171 30046 40090 58011 60001 333 11155 21228 70000 555 10010
AAXX 01064 71334 46/// /3408 11170 21196 39821 40161 53024 6///1 333 11107 21170 7////
AAXX 01064 71340 16/// /2407 11135 21177 60001 333 11032 21144 70000 555 32929 40202
AAXX 01064 71341 16/// /0000 11091 21140 60001 333 10006 21091 70000
AAXX 01064 71342 16/// /2913 11100 21153 60001 333 11030 21102 70000 555 33330 40132
AAXX 01064 71344 16/// /2809 11129 21186 60001 333 11023 21134 70006 555 33130 40122
AAXX 01064 71348 16/// /1602 11144 21183 60001 333 11034 21182 70000 555 32620 40121
AAXX 01064 71349 16/// ///// 11092 21155 60001 333 11043 21110 70000
AAXX 01064 71228 16/// /2911 11122 21171 60001 333 11032 21129 70000 555 33029 40002
AAXX 01064 71478 16/// /1551 10065 20002 30005 40142 58007 60001 333 10066 20016 70000 555 31467 40053
AAXX 01064 71479 46/// /1248 10063 21005 30016 40137 58002 6///1 333 10065 20022 7////
AAXX 01064 71033 46/// /2910 11126 21138 39555 40205 53021 6///1 333 11109 21132 7//// 555 10030 32817 40061
AAXX 01064 71954 46/// /3309 11121 21140 39784 40170 51037 6///1 333 11043 21122 7//// 555 33520 40041
AAXX 01064 71976 46/// /2108 11198 21220 39447 40094 57012 6///1 333 11198 21272 7//// 555 10040 32220 40221
AAXX 01064 71752 16/// /1702 10026 20015 39952 40170 58014 60001 333 10071 20026 70017 555 10010 20017
AAXX 01064 71423 47/// /0819 11005 21008 30101 40110 5/030 6///1 7//4/ 333 7//// 555 10020
AAXX 01064 71503 46/// /3202 11321 21357 39950 40240 52019 6///1 333 11224 21321 7//// 555 10020
AAXX 01064 71506 46/// /0000 11233 21254 39249 40180 51011 6///1 333 11233 21293 7////
AAXX 01064 71511 16/// /3217 11049 21089 39571 40222 53028 60001 333 11017 21064 70000 555 32932 40062
AAXX 01064 71514 16/// /2922 11080 21129 39517 40234 53018 60001 333 11001 21082 70000 555 33037 40183
AAXX 01064 71515 16/// /3023 11073 21106 39491 40208 53021 60001 333 11009 21074 70000 555 33037 40213
AAXX 01064 71539 16/// /2920 11061 21125 39542 40256 53022 60001 333 10017 21062 70000 555 33235 40173
AAXX 01064 71137 16/// /3010 11050 21087 39325 40294 53018 60001 333 11007 21057 70000 555 33433 40192
AAXX 01064 71667 17/// /2102 11016 21025 39796 40041 58012 60011 7//4/ 333 10001 21086 70024 555 10010 20024
AAXX 01064 71682 16/// /0000 11328 21358 39988 40236 52022 60001 333 11275 21328 70000
AAXX 01064 71832 16/// /1707 11040 21060 39738 40065 57028 60001 333 11011 21131 70000
AAXX 01064 71737 16/// /2501 11042 21045 39620 40149 58001 60001 333 11040 21109 70007
AAXX 01064 71743 46/// /1810 11164 21203 39891 40115 5/015 6///1 333 11164 21217 7////
AAXX 01064 71746 16/// /1811 10038 20018 39915 40136 58021 60001 333 10058 20021 70011 555 33423 40141
AAXX 01064 71748 16/// /2914 11017 21064 39803 40089 51007 60001 333 10010 21065 70000 555 32926 40061
AAXX 01064 71903 46/// /1316 10024 20017 30029 40078 56012 6///1 333 7////
AAXX 01064 71421 17/// ///// 11169 21186 39468 40214 57015 69931 7//4/ 333 11147 21330 70003
AAXX 01064 71435 17/// /2404 11030 21030 39443 40036 58014 69961 7//4/ 333 11030 21083 70041 555 10060 20041
AAXX 01064 71550 16/// /2910 11029 21072 39753 40131 51022 60001 333 11002 21075 70000 555 32730 40222
AAXX 01064 71575 16/// /3008 11145 21164 39996 40062 50002 60001 333 11128 21151 70000 555 32721 40161
AAXX 01061 23226 11360 80601 11065 21081 39935 40156 53005 60020 77172 887// 333 21112 86707 93404
AAXX 01061 23701 11480 81901 11018 21026 30035 40167 51016 60020 70272 8802/ 333 21014 88510
AAXX 01061 28909 11497 81503 11049 21062 30118 40221 52008 69940 70272 8452/ 333 21087
AAXX 01064 71107 16/// /2038 10055 20047 39998 40111 58006 60001 333 10057 20004 70000 555 31853 40033
AAXX 01064 71269 16/// /2709 11075 21105 60001 333 11004 21075 70000 555 33232 40162
AAXX 01064 71285 46/// /2808 11110 21163 6///1 333 11040 21135 7//// 555 33231 40212
AAXX 01064 71299 46/// /1606 11070 21081 39821 40099 57021 6///1 333 11070 21127 7////
AAXX 01061 10055 01240 81806 10052 20051 30034 40044 58020 60022 76165 887// 333 10052 20032 31003 55015 55300 20000 30000 60017 70015 88704
AAXX 01064 71361 16/// /3105 11219 21242 39997 40214 53024 60001 333 11145 21230 70000
AAXX 01064 71374 46/// /0425 11056 21062 6///1 333 11044 21139 7////
AAXX 01064 71387 16/// /0303 11090 21103 39771 40160 58001 60001 333 11080 21268 70000
AAXX 01064 60595 36/// /0000 11451 333 21451
AAXX 01064 40272 31950 00000 10016 21040 39340 40198 52010 71022 333 21035 30106
AAXX 01064 71151 16/// /2909 11036 21062 39567 40073 51011 60001 333 11016 21091 70008 555 10020 20008 33024 40051
AAXX 01064 71186 46/// /2905 11101 21132 6///1 333 11057 21122 7//// 555 30833 40112
AAXX 01064 71190 46/// /3308 11031 21056 6///1 333 11026 21102 7////
AAXX 01064 61970 16/// ///// 10307 20266 40120 60034 333 20250 55/// 58000 555 60005
AAXX 01064 71137 16/// /3010 11050 21087 39325 40294 53018 60001 333 11007 21057 70000 555 33433 40192
AAXX 01064 71421 17/// ///// 11169 21186 39468 40214 57015 69931 7//4/ 333 11147 21330 70003
AAXX 01064 71435 17/// /2404 11030 21030 39443 40036 58014 69961 7//4/ 333 11030 21083 70041 555 10060 20041
AAXX 01064 71832 16/// /1707 11040 21060 39738 40065 57028 60001 333 11011 21131 70000
AAXX 01064 71151 16/// /2909 11036 21062 39567 40073 51011 60001 333 11016 21091 70008 555 10020 20008 33024 40051
AAXX 01064 71186 46/// /2905 11101 21132 6///1 333 11057 21122 7//// 555 30833 40112
AAXX 01064 71190 46/// /3308 11031 21056 6///1 333 11026 21102 7////
AAXX 01061 28216 11598 81801 11092 21112 39917 40212 52009 60010 77177 8872/ 333 21095
AAXX 01061 28428 31497 82105 11071 21096 30041 40233 53002 77171 8802/ 333 21123
AAXX 01061 28451 32998 82103 11116 21145 30106 40274 53002 83047 333 21121
AAXX 01061 28541 32582 70000 11144 21179 39744 40268 53005 84531 333 21166
AAXX 01061 28655 11998 82206 11079 21093 30082 40315 57002 69900 70273 8802/ 333 21149
AAXX 01061 28756 11998 82004 11083 21098 30187 40343 57004 69900 70272 8807/ 333 21162
AAXX 01061 29557 41698 82702 11063 21103 30137 40415 52002 70282 8255/
AAXX 01061 29625 41998 22303 11120 21140 30220 40411 58002 70281 82030
AAXX 01061 29813 42999 21803 11154 21167 30212 40406 54000 80001
AAXX 01061 29822 42997 51803 11133 21153 30255 40432 52001 85070
AAXX 01061 29915 42998 01602 11162 21175 30243 40415 58002
AAXX 01061 36020 42598 71702 11122 21135 30215 40429 58004 87500
AAXX 01064 87467 32970 00907 10204 20158 39990 40121 55003
AAXX 01061 22100 11999 00000 11139 21159 39971 40123 51002 69902 70287 333 21160 47020 91001
AAXX 01064 41863 32356 80000 10198 20140 30115 40159 8562/ 333 56999 59025 70000 82710 85616 88458
AAXX 01064 41939 31950 00000 10272 20140 40147 70544 333 59038 70000
AAXX 01061 22213 12584 70803 11014 21044 39939 40108 52013 69902 85530 333 21018 47035 91004
AAXX 01061 22004 11580 50707 11029 21052 30007 40121 54000 69922 78583 85900 333 21052 48022 91011 91114
AAXX 01061 22003 41499 81307 10000 21017 30124 40134 51001 69992 72683 889// 333 21016 48010 91008 91111
AAXX 01064 40356 41/05 /1302 10020 21020 39191 48487 74200 89/// 333 20020 59009 555 04410 50189
AAXX 01064 40362 41640 53213 10120 20010 39644 40159 70700 85400 333 20116 59022 85640
AAXX 01064 40357 41620 80000 10032 20030 39533 40185 71000 85510 333 20028 59003 85640 83460
AAXX 01063 64456 31404 30000 10220 20220 39/// 40/// 74144 82501 333 0//00 20212 50164 55044 5//// 82611
AAXX 01061 01026 11689 60902 11004 21072 39829 49971 57031 60002 70221 81508 333 21086 47024 70001 91112
AAXX 01061 01218 16/// /1307 10055 21039 39877 49898 56021 60002 333 20043 70000 91118
AAXX 01061 01281 16/// ///// 1//// 2//// 39799 49978 58010 60002 333 70000
AAXX 01061 01447 16/// /0000 11041 21046 39292 49969 57030 60102 333 21071 70105 91100
AAXX 01061 40700 11656 20000 10020 21002 30096 40187 53015 60001 71010 82500 333 30102 70000 82640
AAXX 01061 40723 12660 20000 10038 21032 38911 40209 56003 60001 82500 333 30107 70000 82645
AAXX 01061 40726 11560 52102 10050 20007 38648 40183 5200760001 82370 333 32101 70020 82930 83635 84458
AAXX 01061 40727 11656 80000 10010 20000 38479 40211 53009 60031 71074 8352/ 333 3/101 43010 70144 83645 88460
AAXX 01061 40734 11565 52302 10104 20083 30198 40173 53010 69931 72582 84330 333 31001 50100 70003 82922 83630
AAXX 01061 40737 12962 53002 10080 20058 30159 40177 52015 60001 85030 333 30100 50041 70000 85359
AAXX 01061 40741 12960 00000 10053 21012 39843 40187 53008 60001 333 30105 70000
AAXX 01061 40780 11559 61609 10064 20028 38690 40185 52006 60021 71066 84370 333 31003 5//// 70079 82930 84640 86358
AAXX 01061 40791 12660 40000 10060 21082 39392 40236 52008 60001 81470 333 30101 50111 70000 81640 84360
AAXX 01061 40792 12965 20903 10092 21058 38742 40215 50004 60001 80002 333 30103 70000 82070
AAXX 01061 40794 NIL
AAXX 01061 40812 NIL
AAXX 01061 40829 12962 10602 10054 21103 39667 40262 50005 60001 80001 333 30109 5///1 70000 81069
AAXX 01061 40833 NIL
AAXX 01061 40835 12965 70000 10148 21043 39374 40211 52016 60001 87070 333 30007 50221 70000 87360
AAXX 01061 40845 12660 61604 10184 20146 30192 40197 52018 60003 82570 333 30011 50141 70000 82640 86359
AAXX 01061 40882 12960 01103 10218 20135 30166 40202 51011 60001 333 30010 50441 70000
AAXX 01061 40889 12960 00804 10236 20070 30205 40210 52016 60003 222// 00238 20300 333 30019 50501 70000
AAXX 01061 40890 12960 00802 10236 20040 30193 40200 52017 60003 222// 00232 20300 333 30013 50690 70000
AAXX 01061 40893 12960 03604 10210 20045 30206 40212 52022 60001 222// 00190 20500 333 30017 50501 70000
AAXX 01061 40897 15960 00704 10206 21058 30202 40216 51015 60001 333 30008 70000
AAXX 01061 40700 11656 20000 10020 21002 30096 40187 53015 60001 71010 82500 333 30102 70000 82640
AAXX 01061 40723 12660 20000 10038 21032 38911 40209 56003 60001 82500 333 30107 70000 82645
AAXX 01061 40726 11560 52102 10050 20007 38648 40183 5200760001 82370 333 32101 70020 82930 83635 84458
AAXX 01061 40727 11656 80000 10010 20000 38479 40211 53009 60031 71074 8352/ 333 3/101 43010 70144 83645 88460
AAXX 01061 40734 11565 52302 10104 20083 30198 40173 53010 69931 72582 84330 333 31001 50100 70003 82922 83630
AAXX 01061 40737 12962 53002 10080 20058 30159 40177 52015 60001 85030 333 30100 50041 70000 85359
AAXX 01061 40741 12960 00000 10053 21012 39843 40187 53008 60001 333 30105 70000
AAXX 01061 40780 11559 61609 10064 20028 38690 40185 52006 60021 71066 84370 333 31003 5//// 70079 82930 84640 86358
AAXX 01061 40791 12660 40000 10060 21082 39392 40236 52008 60001 81470 333 30101 50111 70000 81640 84360
AAXX 01061 40792 12965 20903 10092 21058 38742 40215 50004 60001 80002 333 30103 70000 82070
AAXX 01061 40794 NIL
AAXX 01061 40812 NIL
AAXX 01061 40829 12962 10602 10054 21103 39667 40262 50005 60001 80001 333 30109 5///1 70000 81069
AAXX 01061 40833 NIL
AAXX 01061 40835 12965 70000 10148 21043 39374 40211 52016 60001 87070 333 30007 50221 70000 87360
AAXX 01061 40845 12660 61604 10184 20146 30192 40197 52018 60003 82570 333 30011 50141 70000 82640 86359
AAXX 01061 40882 12960 01103 10218 20135 30166 40202 51011 60001 333 30010 50441 70000
AAXX 01061 40889 12960 00804 10236 20070 30205 40210 52016 60003 222// 00238 20300 333 30019 50501 70000
AAXX 01061 40890 12960 00802 10236 20040 30193 40200 52017 60003 222// 00232 20300 333 30013 50690 70000
AAXX 01061 40893 12960 03604 10210 20045 30206 40212 52022 60001 222// 00190 20500 333 30017 50501 70000
AAXX 01061 40897 15960 00704 10206 21058 30202 40216 51015 60001 333 30008 70000
AAXX 01061 56146 32980 02002 10064 21200 36727 57048 333 05303 21114
AAXX 01061 56444 32980 01601 10093 21102 36817 57029 333 05102 21060
AAXX 01061 56492 11730 80000 10083 20045 39845 40261 57035 69901 71060 885// 333 05155 20077
AAXX 01061 56571 32980 00000 10163 20000 38387 57048 333 05402 20031
AAXX 01061 57799 31563 20203 10127 20056 30175 40266 57030 70040 82100 333 20031
AAXX 01061 57866 31759 83602 10091 20045 30057 40269 57028 71000 885// 333 20066
AAXX 01061 57957 31757 80402 10106 20043 30053 40256 57030 71000 885// 333 20077
AAXX 01061 57993 32860 72901 10133 20059 30081 40250 57035 875// 333 20087
AAXX 01061 58027 31940 03403 10050 20002 30257 40310 57023 71000 333 20015
AAXX 01061 58141 31520 10203 10062 21010 30294 40314 57018 70500 81100 333 21001
AAXX 01061 58265 31525 23405 10067 20010 30290 40296 57012 70500 82500 333 20012
AAXX 01061 58472 32465 73411 10062 21005 30186 40283 57010 8214/ 333 20056
AAXX 01061 58477 31456 83204 10073 20001 30232 40278 57012 70500 888// 333 20041
AAXX 01061 58527 31958 00201 10137 20020 30190 40268 57036 70500 333 20013
AAXX 01061 58633 31940 00704 10108 20029 30173 40277 57030 70540 333 20012
AAXX 01061 58666 31956 03612 10091 20022 30154 40259 57023 70500 333 20066
AAXX 01061 58725 32668 50401 10124 20036 39992 40259 57028 85100 333 20044
AAXX 01061 58921 32663 83602 10130 20068 39994 40245 57031 8657/ 333 20100
AAXX 01061 59082 32661 83404 10142 20045 30090 40239 57031 885// 333 20094
AAXX 01061 59211 31850 81401 10155 20075 30011 40221 57038 70500 885// 333 20117
AAXX 01061 59265 31858 73603 10169 20073 30085 40225 57035 70500 875// 333 20101
AAXX 01061 59293 32963 00902 10176 20059 30131 40217 57040 333 20107
AAXX 01061 59501 32575 12203 10194 20109 30179 40200 57037 81100 333 20135
AAXX 01061 59663 32963 00702 10209 20075 30093 40201 57037 333 20126
AAXX 01061 59838 32962 73604 10234 20172 30164 40174 57038 8704/ 333 20185
AAXX 01061 59948 32480 70708 10199 20158 39692 40179 57035 878// 333 20168
AAXX 01061 59981 32580 70404 10252 20193 30154 40161 57032 8314/ 333 20230
AAXX 01063 87047 11360 80000 10180 20171 38808 48529 58011 60041 72162 8462/ 333 56209 83707 83615 88460
AAXX 01064 40356 41/05 /1302 10020 21020 39191 48487 74200 89/// 333 20020 59009 555 04410 50189
AAXX 01064 40362 41640 53213 10120 20010 39644 40159 70700 85400 333 20116 59022 85640
AAXX 01064 40357 41620 80000 10032 20030 39533 40185 71000 85510 333 20028 59003 85640 83460
AAXX 01064 87155 32965 01801 10202 20159 30014 40074 57016
BBXX OXHY2 01063 99346 10212 41598 33209 10155 20155 40178 52007 71500 83800 22224 20204 3//// 40102 5//// 80155
AAXX 01064 40250 32960 02006 10062 20025 39376 40177 52012 333 20024 300//
AAXX 01064 40255 32660 30000 10088 20034 39456 40179 52006 83830 333 20070 30002 70003 81830 83735
AAXX 01064 40260 31910 00000 10034 20029 39383 40178 52014 74000 333 20011 30102
AAXX 01064 40265 31950 00000 10000 21005 39391 40211 52009 71022 333 21015 30103
AAXX 01061 60381 16/// /2401 10073 20061 69924 333 20071
AAXX 01061 60639 36/// /0000 10015 21042 333 20015
AAXX 01061 60605 36/// /0000 10048 21037 333 20046
BBXX BAREU06 01064 99415 10100 46/// ///// 40195 52006 22284
BBXX OXHY2 01063 99346 10212 41598 33209 10155 20155 40178 52007 71500 83800 22224 20204 3//// 40102 5//// 80155
AAXX 01061 01015 46/// /1710 11005 21053 333 21049 91124
AAXX 01061 01180 11980 01703 11008 21078 39895 49953 56022 60002 70200 333 21060 70000 91109
AAXX 01061 01425 16/// /3201 10014 20011 39859 49939 56022 60192 333 20000 70224 91104
AAXX 01061 01450 16/// /2101 11036 21047 38816 49961 55023 60112 333 21083 70108 91105
AAXX 01061 01262 46/// /1313 10003 21014 333 20001 91124
AAXX 01061 01393 16/// /1203 11033 21049 39174 49979 57018 6//// 333 21229 91107
AAXX 01061 01277 16/// /0603 11014 21051 60002 333 21033 70000 91110
AAXX 01061 01476 16/// /1807 10051 20039 39957 49963 58034 6//// 333 21007 91112
AAXX 01061 01327 11320 83001 10001 21007 60112 77277 8772/ 333 21022 44065 70118 91110
AAXX 01061 01441 16/// /3101 11009 21022 38953 49930 56029 60082 333 21052 70087 91107
AAXX 01061 26094 11960 80701 11017 21022 30028 40105 52007 60022 77872 8802/ 333 21017 47005 93703
AAXX 01064 86330 32998 01111 10184 20143 40101 57006
AAXX 01064 86360 NIL
AAXX 01064 86460 NIL
AAXX 01064 86490 NIL
AAXX 01064 86530 NIL
AAXX 01064 86545 32997 00000 10152 20141 40152 52///
AAXX 01064 86565 32997 10000 10183 20161 40145 58012 80001
AAXX 01064 86580 32997 01008 10188 20158 40150 57010
AAXX 01061 50353 32968 00000 11238 21292 30076 40329 57010 333 21342
AAXX 01061 50557 32970 01401 11199 21246 30004 40345 57013 333 21341
AAXX 01061 50756 32960 03202 11198 21242 30013 40345 57002 333 21265
AAXX 01061 50949 32965 03402 11138 21234 30156 40343 57008 333 21208
AAXX 01061 50963 32960 02705 11182 21228 30165 40318 57003 333 21286
AAXX 01061 50978 32965 03404 11143 21212 39917 40297 57007 333 21231
AAXX 01061 51087 32980 02501 11162 21213 39441 40514 57012 333 05153 21251
AAXX 01061 51156 32980 02701 11079 21163 38852 40463 57010 333 05200 21167
AAXX 01061 51644 32960 02002 11040 21108 39094 40445 57012 333 00102 21151
AAXX 01061 51656 32962 03202 11043 21097 39268 40440 57012 333 00100 21137
AAXX 01061 51886 32980 12901 11089 21296 37150 57021 80002 333 00000 21191
AAXX 01061 52602 32980 00000 11067 21265 37307 57017 333 00053 21232
AAXX 01061 52713 32980 02902 11060 21233 36936 57022 333 00001 21208
AAXX 01061 52754 32980 02205 11039 21248 36779 57033 333 05351 21194
AAXX 01061 52818 32980 00703 11038 21235 37278 57017 333 00102 21132
AAXX 01061 52836 32980 12903 11030 21268 36921 57030 80002 333 00155 21174
AAXX 01061 52955 32980 00902 11012 21261 36973 57033 333 05252 21178
AAXX 01061 53068 32980 70905 11169 21208 39116 40374 57038 80002 333 21257
AAXX 01061 53276 32980 71804 11048 21134 38907 40341 57038 85032 333 21197
AAXX 01061 54135 32980 03203 11103 21205 30119 40360 57014 333 21159
AAXX 01061 54236 32975 03605 11088 21178 30240 40354 57010 333 21152
AAXX 01061 54539 32970 13602 10003 21170 30325 40340 57021 80002 333 21080
AAXX 01061 54662 32565 53609 11074 21145 30202 40324 57015 85100 333 21081
AAXX 01061 54753 11565 60205 11012 21089 30326 40333 57005 69901 70080 86400 333 21024
AAXX 01061 54857 31440 43407 10015 21032 30220 40316 57014 71000 84600 333 21024
AAXX 01061 57067 31920 70000 10058 21049 39599 40303 57040 71000 8703/ 333 21063
AAXX 01061 57178 31913 00904 10026 21014 30150 40316 57026 72844 333 21018
AAXX 01061 57245 31958 72201 10049 20021 39936 40301 57035 71000 8703/ 333 00051 21001
AAXX 01061 57297 31615 83602 10008 21011 30169 40316 57029 71040 885// 333 21013
AAXX 01061 91943 36/// /0906 10266 20209 30147 40149 52021 333 20265 58010
AAXX 01061 91945 36/// /0508 10270 20228 30158 40163 51021 555 58008
AAXX 01061 89062 46/// /0312 10018 21032 39813 49853 52015 333 55017
BBXX 62105 01064 99554 70122 46/// /2625 10084 20051 49874 58004 22200 00106 10913 70064 333 90710 91146
BBXX 62081 01064 99510 70134 46/// ///// 10108 20060 40004 57008 22200 00120 10811 70053
BBXX 64046 01064 99606 70049 46/// /2426 10074 20038 49782 56005 22200 00075 10810 70048
BBXX 62029 01064 99487 70125 46/// /2423 10112 20081 40066 56022 22200 00127 10808 70040 333 90710 91132
BBXX 62442 01064 99490 70164 46/// /2627 1//// 2//// 40056 58003 22200 00122 333 90710 91134
BBXX 64045 01064 99591 70117 46/// /2426 10066 20025 49762 57003 22200 00100 10811 70054 333 90710 91136
BBXX 62163 01064 99475 70084 46/// /2117 10117 20103 40118 58028 22200 00127 10807 70036 333 90710 91125
BBXX 62001 01064 99452 70050 46/// /2420 10139 20120 40212 57016 22200 00131 10707 70034 333 90710 91128
BBXX 62301 01064 99524 70047 46/// /2218 10100 20084 40024 58012 22200 00093 10605 70025 333 90710 91126
BBXX 62303 01064 99516 70051 46/// /2219 10116 20094 40048 58012 22200 00110 10606 70029
BBXX 62027 01064 99491 70022 46/// /2215 1//// 2//// 40127 57011 22200 00108 10904 332// 70018
BBXX PJAI 01064 99581 70014 47998 /2316 10089 20029 49872 56011 700// 22200
BBXX 62111 01064 99580 70003 46/// /2424 10083 20048 49895 56013 22200 10504 70018
BBXX 63056 01064 99597 10016 47998 /2218 10087 20056 49855 58006 700// 22200 10605 70024
BBXX 63110 01064 99595 10015 46/// ///// 22200
BBXX 63057 01064 99592 10015 47997 /2222 10087 20054 49868 58006 700// 22200 10605 70023
BBXX 62128 01064 99587 10014 47997 /2225 10079 20069 49877 58009 700// 22200 10605 70023
BBXX 62129 01064 99584 10003 46/// ///// 10085 20058 49888 56012 22200
BBXX 62113 01064 99584 10002 47997 /2222 10083 20058 49884 57013 700// 22200
BBXX ZQSD5 01064 99583 10007 46/// /2023 10089 20064 49886 56012 22200 10707 70036
BBXX 62112 01064 99584 70002 47997 /2121 10083 20056 49877 56014 700// 22200
BBXX 63055 01064 99606 10016 47997 /2315 10085 20055 49851 57006 700// 22200 10605 70026
BBXX 63108 01064 99608 10017 47997 /2222 10084 20047 49846 56006 700// 22200 10705 70024
BBXX 63106 01064 99610 10017 46/// /2117 10082 49842 57012 22200
BBXX 63105 01064 99610 10017 47997 ///// 10088 20048 49841 57012 700// 22200
BBXX 63113 01064 99610 10017 46/// /2317 10089 20046 49844 56010 22200 10706 70029
BBXX 63112 01064 99611 10010 46/// /2322 10089 20039 49827 57016 22200 10707 70035
BBXX 63107 01064 99611 10017 46/// /2113 10086 49839 57012 22200
BBXX 63101 01064 99612 10009 46/// /2322 10084 20047 49834 57012 22200
BBXX 63103 01064 99612 10011 46/// /2222 10088 20041 49836 57011 22200 10706 70032
BBXX 63104 01064 99612 10016 47897 /2117 10086 20053 49839 57012 700// 22200
BBXX 63117 01064 99613 10011 47598 /2121 10110 20042 49836 57010 700// 22200
BBXX 63115 01064 99616 10013 47997 /2018 10123 20056 49825 57012 700// 22200 10708 70040
BBXX MWYG6 01064 99603 70040 47998 /2128 10088 700// 22200
BBXX 64041 01064 99607 70026 47597 /2022 10063 20063 49807 57004 700// 22200 10808 70041
BBXX 62142 01064 99530 10021 47998 /2319 10102 20082 40044 53007 700// 22200 10402 70011
BBXX 62145 01064 99531 10028 47997 /2120 10096 20079 40043 53002 700// 22200 10403 70016
BBXX 62144 01064 99534 10017 47998 /2326 10101 20078 40039 51009 700// 22200 10403 70013
BBXX 62121 01064 99535 10027 46/// ///// 22200
BBXX 62150 01064 99536 10007 47998 /2225 10099 20072 40024 50002 700// 22200 10402 70010
BBXX 62148 01064 99536 10015 46/// /2222 10094 20079 40030 51005 22200
BBXX 62149 01064 99537 10011 47998 /2121 10097 20079 40021 50005 700// 22200 10402 70010
BBXX 62131 01064 99539 10012 46/// /21// 10097 20072 40015 51006 22200
BBXX 62127 01064 99540 10007 47998 ///// 10098 20061 40009 50006 700// 22200 10402 70010
BBXX 62165 01064 99540 10009 47998 /2220 10097 20063 40013 51003 700// 22200 10402 70011
BBXX 62123 01064 99563 10022 47997 /2321 10094 20071 49946 58004 700// 22200
BBXX 62132 01064 99564 10020 46/// /2522 10097 20071 49943 58006 22200
BBXX 62120 01064 99564 10021 47997 /2424 10097 20097 49943 58004 700// 22200
BBXX 62154 01064 99564 10022 46/// /2321 10091 20068 49947 58003 22200
BBXX 62152 01064 99570 10018 47/97 /2118 10093 20065 49939 57005 700// 22200 10404 70021
BBXX 62119 01064 99570 10019 47997 /2327 10094 20065 49935 56009 700// 22200 10504 70020
BBXX 62114 01064 99583 10000 46/// /2122 10083 20056 49876 56016 22200
BBXX 62134 01064 99580 10014 47497 /2225 10088 20063 49892 57013 762// 22200 10605 70026
BBXX 62102 01064 99579 10018 46/// /2223 10088 20062 49899 55007 22200 10605 70024
BBXX 62117 01064 99579 10000 47598 /2327 10082 20056 49890 57015 700// 22200 10504 70018
BBXX 62143 01064 99577 10018 47797 /2427 10092 20055 49908 58009 700// 22200 10505 70023
BBXX 62118 01064 99577 10009 47897 /2231 10096 20046 49896 57009 700// 22200 10605 70025
BBXX 62155 01064 99577 10007 47898 /2330 10086 20050 49908 55012 751// 22200 10505 70026
BBXX 62116 01064 99576 10011 47797 /2429 10087 20047 49900 57007 700// 22200 10505 70025
BBXX 62104 01064 99574 10013 47997 /2323 10093 20059 49908 56007 700// 22200
BBXX 62153 01064 99573 10020 47497 /2326 10093 20068 49919 58003 700// 22200 10605 70024
BBXX 62122 01064 99573 10016 47797 /2224 10116 20065 49924 56010 700// 22200 10504 70022
BBXX 62140 01064 99573 10013 46/// /24// 10092 20059 49914 57005 22200
BBXX 62146 01064 99572 10021 47/97 /2324 10091 20060 49927 57009 700// 22200 10504 70021
BBXX 62164 01064 99572 10008 47997 /2218 10099 20064 49919 56011 700// 22200 00091 10505 70023
BBXX PJGO 01064 99571 10022 47/97 /2124 10087 49932 57006 700// 22200
BBXX 62133 01064 99571 10009 46/// /2225 10091 20057 49919 56009 22200 1//04 70019
BBXX 62103 01064 99499 70029 46/98 /2420 10122 20114 40100 57008 22200 00119 10704 70019 333 90710 91132
BBXX 62094 01064 99517 70067 46/// /2224 10111 20096 40028 56018 22200 00107 10606 70031 333 90710 91133
BBXX 62170 01064 99514 10020 46/97 /2332 10112 20112 40080 55004 22200 00106 10602 70012 333 90710 91140
BBXX 62304 01064 99511 10018 46/97 /2431 10115 20108 40083 56008 22200 00109 10602 70012 333 90710 91142
BBXX 62305 01064 99504 10000 46/97 /2428 10123 20122 40111 55003 22200 00116 10703 70014 333 90710 91134
BBXX PCGM 01063 99324 70297 41/98 19903 10186 20135 40334 54000 70200 8//// 22284 00210 2//// 80155
BBXX 63119 01064 99583 10009 41598 82227 10085 20056 49874 57010 70222 885// 22200 20304 322// 40805 5////
BBXX 2AUO5 01063 99606 10017 41297 12325 10092 20069 49850 57008 70100 816// 22241 20604 320// 40908 80081
BBXX PBHZ 01063 99613 10032 41/97 91511 10087 20077 49857 58009 70322 89/// 22283 20403 399// 40804 80082
BBXX 62094 01064 99517 70067 46/// /2124 10111 20096 40028 56018 22200 00107 10606 70031 333 90710 91133
BBXX 62107 01064 99501 70061 46/// /2325 10118 20102 40083 57014 22200 00116 10806 70028 333 90710 91133
BBXX 62103 01064 99499 70029 46/98 /2224 10124 20115 40098 57007 22200 00119 10803 70016 333 90710 91131
BBXX 62095 01064 99530 70159 46/// /2620 10075 20047 49938 58004 22200 00111 10913 70067 333 90710 91134
BBXX MYSU5 01064 99453 70165 41/98 81135 10140 20122 40126 54000 70222 8//// 22253 00140 20607 327// 40807 5//// 80130
AAXX 01061 29998 42799 51701 11196 21222 38728 48570 58012 82501
AAXX 01061 30385 42999 20000 11288 21312 39762 40358 57011 80001
AAXX 01061 30469 42999 60000 11296 21326 39551 40402 58022 80002
AAXX 01061 30636 41998 80000 11213 21219 39702 40363 58008 70272 8802/
AAXX 01061 30650 41998 80000 11225 21250 39144 40354 57015 77172 8802/
AAXX 01061 30664 42999 80000 11268 21287 39284 40377 57016 8801/
AAXX 01061 30781 42999 00000 11229 21268 39853 40369 57018
AAXX 01061 30777 42998 22701 11256 21296 39657 40379 57021 80002
AAXX 01061 30844 41998 82703 11146 21166 39317 40347 58018 77172 80007
AAXX 01061 30925 41897 81701 11121 21156 39366 40386 58003 70422 83035
AAXX 01061 31371 42999 20000 11253 21301 30033 40326 58015 80001
AAXX 01061 31388 42999 00000 11218 21258 30027 40314 57007
AAXX 01061 31478 NIL
AAXX 01061 31532 42999 00000 11276 21306 39955 40339 57008
AAXX 01061 31594 42999 02401 11216 21256 30134 40321 57009
AAXX 01061 31655 42997 00000 11237 21263 30234 40286 58008
AAXX 01061 31754 42999 20000 11179 21238 39736 40272 57010 80002
AAXX 01061 28465 31999 82007 11140 21160 30235 40318 52010 73631 80001 333 21134
BBXX SHIP 01064 99020 11467 41496 80112 10251 20241 40082 52004 76362 887// 22253 06303 11303 20301 306// 41303
AAXX 01061 28688 32998 62202 11158 21185 30208 40381 52004 80001 333 21160
AAXX 01061 28586 32998 82002 11143 21178 30204 40363 52003 80007 333 21169
AAXX 01061 28383 32968 81601 11115 21159 30237 40326 54000 8805/ 333 21105
AAXX 01061 23929 32579 81801 11090 21115 30144 40213 52001 85531 333 21100
AAXX 01061 22282 115// 81010 11037 21048 30121 40129 52024 60010 78583 889// 333 21045
AAXX 01061 38388 32998 70000 11013 21053 30136 40208 53005 80005 333 21046
AAXX 01061 38392 32998 21206 11014 21051 30124 40230 57008 80002 333 21066
AAXX 01061 38507 32998 81302 10057 20009 30084 40187 53020 8807/ 333 21001
AAXX 01061 38511 32998 70000 10000 21021 30043 40188 53003 80003 333 20132
AAXX 01061 38545 32998 20903 10008 21061 30051 40230 57010 82080 333 21048
AAXX 01061 38647 32998 70902 10000 21027 30131 40174 52011 87070 333 21030
AAXX 01061 38656 32998 70904 10006 21037 30080 40292 54000 87050 333 21021
AAXX 01061 38687 32997 01405 10042 20003 39994 40233 57003 333 21029
AAXX 01061 38750 31996 61801 10057 20052 30211 40182 53015 71044 86030 333 20019
AAXX 01061 38763 32998 70000 10004 21019 30079 40187 53014 87030 333 21019
AAXX 01061 38774 32999 50000 11003 21018 39990 40192 53011 80004 333 21038
AAXX 01061 38799 32997 00905 10020 21017 39977 40214 57005 333 21027
AAXX 01061 38806 NIL
AAXX 01061 38880 32997 60000 10019 21021 39918 40179 55002 82031 333 21041
AAXX 01061 38886 32997 01101 10026 21056 39949 40181 57007 333 21050
AAXX 01061 38895 32996 01404 10064 21042 39901 40192 56005 333 21018
AAXX 01061 38911 32998 01303 10043 21002 39936 40236 57002 333 21024
AAXX 01061 38915 32998 00903 10064 20005 39914 40241 57005 333 21034
AAXX 01061 38974 32998 00901 10055 20018 39840 40177 53005 333 21031
AAXX 01061 38987 32996 02701 10031 21048 39464 40220 53003 333 21043
AAXX 01061 28588 32982 62003 11150 21177 30195 40366 53005 80002 333 21163
AAXX 01061 28696 32982 81902 11155 21189 30234 40385 58002 80001 333 21166
BBXX 44032 01061 99437 70694 46/30 /3209 10055 40094 53008 90604 22200 00081 10402 70008 333 91210 555 11105 22110
BBXX 41029 01061 99328 70796 46/// /2602 1//// 90600 555 11017 22018
BBXX 44033 01061 99441 70690 46/30 /3406 10059 40094 53008 90604 22200 00064 10301 70005 333 91209 555 11070 22074
AAXX 01061 28791 32999 82404 11155 21182 30228 40385 52001 80001 333 21189
BBXX 46111 01061 99481 71227 46/// /0604 10053 40254 55003 90600 22200 00052
AAXX 01064 67767 NIL
AAXX 01064 67843 32480 43204 10225 20200 38950 48508 81131 333 20175 58000 81810 84080
AAXX 01064 67969 NIL
AAXX 01063 61701 31959 60613 10173 21015 40152 70722 85032 333 20160 50661 55064 58001 85360
AAXX 01063 61705 NIL
AAXX 01063 61707 NIL
AAXX 01063 61711 NIL
AAXX 01063 61712 32960 62711 10150 20045 4//// 86070 333 20135 50301 55044 5//// 83460 85361
AAXX 01063 61717 NIL
AAXX 01063 61720 NIL
AAXX 01063 61721 NIL
AAXX 01063 61722 NIL
AAXX 01063 61731 NIL
AAXX 01063 61733
BBXX 42362 01061 99278 70907 46/// /1605 10222 20189 40227 90615
BBXX 42363 01061 99282 70892 46/// /1804 10217 20161 40231 90615 333 91204
BBXX 42363 01061 99282 70892 46/// /1703 10222 20161 40231 90630 333 91204
BBXX 42364 01061 99291 70881 46/// /1804 10211 20161 40231 90615
AAXX 01064 71867 11474 23217 11110 21126 39813 40154 53035 69941 77177 81570 333 11037 21111 47025 70033 90983 555 10036 20029 3////
AAXX 01061 37675 42699 20000 11002 21036 39519 40149 52010 82100
AAXX 01061 37989 42699 52901 10071 20043 40188 53008 85530
AAXX 01061 37985 41595 63601 10053 20048 40180 53001 71011 86500
AAXX 01061 37661 42998 23001 10030 21002 39415 40184 53011 86050
AAXX 01061 37923 42597 80000 10060 20021 40188 54000 885// 333 20026
AAXX 01061 37925 42998 70000 10054 20047 30211 40181 53007 87050 333 20046
AAXX 01061 37749 42998 30501 10028 21014 30104 40223 53008 83030
AAXX 01061 37851 42598 83001 10047 20027 30138 40199 53008 885// 555 20022
AAXX 01061 37905 42997 20000 10008 21009 40198 53005 82040
AAXX 01061 37740 42999 00201 10050 21048 39379 40190 52011
AAXX 01061 37864 32497 83503 10063 20056 40189 52009 8668/ 333 21009 86713 555 30///
AAXX 01061 37735 42699 52901 10054 21024 39770 40148 57008 85180
AAXX 01064 04203 46/// /3605 11198 21237 39998 40016 57004
AAXX 01064 04205 45/84 /0000 11298 21367 30000 40024 57004 333 11275 21310
AAXX 01064 04208 46/// /0911 11206 21239 39955 40001 52003
AAXX 01064 04213 46/// /2507 11192 21233 39885 40002 52008 333 11168 21195
AAXX 01064 04214 46/// /2915 11162 21217 39971 40004 52006
AAXX 01064 04224 474// 72811 11122 21164 39950 49984 52011 785// 333 11115 21142 87/12 91135 91227
AAXX 01064 04228 NIL
AAXX 01064 04242 46/// /0212 11131 21170 39999 40015 52006
AAXX 01064 04253 46/// /0207 11120 21191 39974 40001 52002
AAXX 01064 04266 46/// /3239 29054 39919 49957 52003 333 91050
AAXX 01064 04285 46/// /3162 11079 21142 39816 49835 52009 333 91079
AAXX 01064 04301 46/// /2610 11279 21323 30066 40071 52014
AAXX 01064 04313 46/// /0233 11223 21254 39965 49977 57015
AAXX 01064 04330 46/// /3525 11134 21154 39770 49787 52005
AAXX 01064 04351 46/// /0513 11074 21093 39657 49673 52006
AAXX 01064 04373 46/// /3050 11121 21146 39572 49664 52002 333 91061
AAXX 01064 04382 46/// /3232 11076 21154 39662 49710 52004
AAXX 01064 04416 NIL
AAXX 01064 71867 11474 23217 11110 21126 39813 40154 53035 69941 77177 81570 333 11037 21111 47025 70033 90983 555 10036 20029 3////
AAXX 01060 44231 31996 31101 11154 21237 38838 40500 58012 70400 80008
BBXX MGSH7 01063 99544 10117 41/97 51420 10050 20025 40048 54000 70222 8//// 22233 20201 3//// 4//// 5//// 80040
AAXX 01061 50136 31970 21101 11202 21258 39750 40355 57018 70040 80002 333 05202 21357
BBXX SHIP 01064 99332 11449 41898 21116 10130 20051 40199 57005 70100 81101 22283 00219 20301 336// 40405 80090
BBXX 3FMH7 01064 99337 11660 41598 52938 00/// 10170 20119 40125 52031 70382 84890 9//// 22261 00170 1//// 20408 329// 41110 5//// 6//// 80140
BBXX SHIP 01064 99272 11253 41697 63618 10170 20119 40221 56024 70322 86656 22213 00220 20305 306// 40305 80140
BBXX 7JJA 01064 99318 11349 41696 82310 00 10130 20113 40162 57013 76062 886// 9//// 22200 00200 2//00 3 4 5 6//// 80120 ICE /////
BBXX SHIP 01064 99164 11302 41398 30515 10280 20239 40112 57026 70110 83160 22283 00286 20304 306// 40706 5//// 80250
BBXX SHIP 01064 99381 11468 41598 61308 10110 20050 40215 56010 70322 86343 90600 22214 00130 20402 301// 40603 80080
BBXX SHIP 01064 99297 11274 41596 73127 10140 20105 40219 5/018 70222 8669/ 22244 00220 20202 303// 40404 80120
BBXX H9UY 01064 99341 11389 41798 52611 00/// 10140 40177 56010 70322 83834 9//// 22273 04200 20205 313// 40205 5//// 6//// 80100
BBXX SHIP 01064 99419 71682 41/95 /1432 10050 20028 40147 56028 76003 8//// 90550 22223 00100 2//// 3//// 4//// 5//// 80040
AAXX 01061 22438 32571 82207 11013 21036 30081 40103 52022 885// 333 21004
BBXX SHIP 01064 99000 51350 41/97 81008 10240 20219 40137 50018 72582 8//// 22200 04240
BBXX SHIP 01064 99079 31273 41797 53220 10300 20275 40072 57013 70211 83252 22273 00299 10600 20301 333// 40502 80281
BBXX SHIP 01064 99549 31100 41497 62934 10027 21008 49817 57031 70300 83454 22243 00025 11411 20404 32622 40708 50708 61000 85013
BBXX SHIP 01064 99000 51350 41/97 81008 10240 20219 40137 50018 72582 8//// 22200 04240
BBXX SHIP 01064 99079 31273 41797 53220 10300 20275 40072 57013 70211 83252 22273 00299 10600 20301 333// 40502 80281
BBXX SHIP 01064 99549 31100 41497 62934 10027 21008 49817 57031 70300 83454 22243 00025 11411 20404 32622 40708 50708 61000 85013
AAXX 01064 43400 NIL
AAXX 01064 43404 22470 2//// 10294 20195 30113 40123 82100 333 59011 60007 70000 82818
AAXX 01064 43410 NIL
AAXX 01064 43413 22470 10504 10272 20228 30123 40128 81100 333 59001 60007 70000 81818
AAXX 01064 43415 22470 20501 10296 20216 30016 40124 82100 333 59001 60007 70000 82818
AAXX 01064 43418 22470 30901 10284 20221 3//// 4//// 83132 333 5//// 60007 70000 83818
AAXX 01064 43421 22970 02601 10290 20206 30022 40122 333 59002 60007 70000
AAXX 01064 43422 21970 01604 10294 20200 39992 40122 7024/ 333 59001 60007 70000
AAXX 01064 43424 22478 53103 10294 20230 30110 40114 85100 333 58001 60007 70000 85818
AAXX 01064 43436 22470 11102 10292 20218 30116 40118 81100 333 59006 60007 70000 81818
AAXX 01064 43441 22470 129// 10289 20181 39981 40110 81600 333 59001 60007 70000 81716
AAXX 01064 43444 22970 30501 10270 20164 39587 40120 80001 333 58003 60007 70000 81080
AAXX 01064 43467 22466 22304 10293 20197 30118 40123 82100 333 58005 60007 70000 82818
AAXX 01064 43473 22970 00903 10203 20039 38137 48496 333 59001 60007 70000
AAXX 01064 43475 22970 01402 10280 20221 30108 40117 333 59003 60007 70000
AAXX 01064 43476 22970 00906 10233 20044 38781 48529 333 59004 60007 70000
AAXX 01064 43479 21970 00902 10270 20081 39274 70240 333 59001 60007 70000
AAXX 01064 43486 22470 10000 10290 20183 30016 40110 81100 333 59001 60007 70000 81810
AAXX 01064 43495 22470 1//// 10290 20219 30109 40125 81100 333 58002 60007 70000 81818
AAXX 01064 43497 22976 01803 10296 20214 30098 40115 333 59002 60007 70000
AAXX 01061 14454 12782 31303 10071 21019 30136 40197 51008 60002 81530 333 20060 31101 70000 92322
AAXX 01061 48806 32470 81802 10160 20125 39416 40198 57030 888// 333 59019 83894 88696
AAXX 01061 21432 41998 82107 11191 21217 30082 40102 58002 73673 8805/
AAXX 01061 21824 41998 82313 11166 21187 30135 40143 57001 73632 8805/
AAXX 01061 21908 42999 20000 11254 21272 30034 40119 53001 80002
AAXX 01061 21921 41997 81703 11182 21223 30146 40193 57003 77072 8802/
AAXX 01061 21931 42998 02102 11268 21300 30150 40185 58008
AAXX 01061 21946 41999 32204 11314 21336 30141 40229 58005 70271 83030
AAXX 01061 21982 32698 63402 11244 21269 30153 40183 53004 81531 333 11246 91106
AAXX 01061 25062 32998 02103 11386 21427 30221 40225 52005 333 91106
AAXX 01061 25123 41596 81703 11296 21319 30223 40259 53005 77172 885// 333 88625
AAXX 01061 25138 41598 80000 11322 21346 30126 40263 53002 77172 83537 333 91101
AAXX 01061 25173 32999 03004 11284 21308 30208 40213 53003 333 11264 91106
AAXX 01061 25248 NIL
AAXX 01061 25282 32984 03004 11302 21319 30191 40198 54000 333 11284 91108
AAXX 01061 25325 NIL
AAXX 01061 25356 32999 20000 11448 21489 30120 40239 54000 80001 333 11/// 91000
AAXX 01061 25399 12574 80000 11272 21303 30176 40186 52004 69900 86531 333 1//// 91102
AAXX 01061 25428 41928 50000 11455 21483 39925 40321 53003 71011 80001 333 91101
AAXX 01061 25551 32998 00000 11455 21483 30197 40234 53003 333 11/// 91101
AAXX 01061 25563 32970 03306 11385 21413 30127 40218 53003 333 11359 91108
AAXX 01061 25594 32598 40000 11240 21280 30128 40183 52004 82541 333 11213 91103
AAXX 01061 25677 31998 02704 11298 21328 30194 40200 53003 70230 333 11339 91108
AAXX 01061 31054 42998 82101 11332 21362 30002 40309 57009 77172 8807/
AAXX 01061 31123 41597 81902 11288 21325 39964 40325 56007 77172 83517
AAXX 01061 14216 12980 60201 10038 21017 30052 40207 51004 60002 85072 333 20030 31102 70000 923// 9248
AAXX 01061 14219 12570 63601 11006 21056 39174 48473 53/// 60002 82571 333 21026 3/107 43014
AAXX 01061 14232 11410 80901 11007 21007 30072 40213 53009 69902 71022 886// 333 21021 34102 70000
AAXX 01061 14234 11640 80901 11003 21003 39959 40214 53005 60002 7102/ 885// 333 21015 31101
AAXX 01061 14236 11420 81201 10007 21003 30002 40206 53/// 60002 71022 886// 333 21002 31004
AAXX 01061 14244 11458 81001 11006 21011 30083 40218 52008 60002 7102/ 886// 333 21010 32101
AAXX 01061 14248 11/08 92301 11005 21008 30028 40208 53/// 60002 7454/ 333 21015 31101
AAXX 01061 14253 11930 60000 11008 21013 30030 40210 53008 60002 71022 333 21017 31102
AAXX 01061 14256 12570 82305 11005 21027 39876 40205 53003 60002 8257/ 333 21027 34/// 41998
AAXX 01061 14280 12960 41502 11028 21034 30106 40220 52011 60002 84050 333 21037 34105
AAXX 01061 14308 11965 00000 11043 21051 39847 40219 53004 60002 7024/ 333 21044 34107 92611
AAXX 01061 14321 12983 60301 10065 21004 30185 40210 53/// 60002 84031 222// 00113 333 20050 30005 92301 92418
AAXX 01061 14370 11556 60000 11028 21034 30104 40219 52008 69902 71044 86600 333 21035 35105 79999
AAXX 01061 14382 11915 61801 11045 21051 30097 40223 52011 60002 7104/ 86030 333 21047 34105
AAXX 01061 14428 12770 21002 10050 21046 30196 40204 53003 60002 81532 222// 00130 333 20048 31101 92311
AAXX 01061 14441 12989 23602 10067 20007 30171 40196 52008 60002 80002 222// 00158 333 20058 30002 92312
AAXX 01061 14452 12999 13603 10069 21013 39968 40198 52/// 60002 81030 333 20061 92312
AAXX 01061 14454 12782 31303 10071 21019 30136 40197 51008 60002 81530 333 20060 31101 70000 92322
AAXX 01061 14462 12980 00000 10003 21052 30211 40218 52/// 60002 333 21009 34106
BBXX 46147 01061 99518 71312 46/// /1618 10070 40100 57003 22200 00078 11013 70067 333 912//
AAXX 01064 61600 NIL
AAXX 01064 61612 NIL
AAXX 01064 61627 NIL
AAXX 01064 61630 NIL
AAXX 01064 61641 31948 70417 10187 20088 30139 40172 70622 83032 333 01700 20185 50894 55027 59005 83363 86073
AAXX 01064 61666 NIL
AAXX 01064 61679 NIL
AAXX 01064 61687 NIL
AAXX 01064 61695 NIL
AAXX 01064 61697 NIL
AAXX 01064 61698 NIL
AAXX 01064 61699 NIL
AAXX 01061 10170 01145 81704 10040 20036 30048 40064 58017 69902 72022 886// 333 10040 20020 31001 55023 55300 20000 30000 69907 79999 88702 98045
BBXX 46147 01061 99518 71312 46/// /1618 10070 40100 57003 22200 00078 11013 70067 333 912//
AAXX 01064 65528 NIL
AAXX 01064 65536 NIL
AAXX 01064 65545 NIL
AAXX 01064 65548 NIL
AAXX 01064 65555 NIL
AAXX 01064 65557 NIL
AAXX 01064 65560 NIL
AAXX 01064 65562 NIL
AAXX 01064 65563 NIL
AAXX 01064 65578 31430 83604 10220 20220 30111 40128 71044 885// 333 20200 59004 88616
AAXX 01064 65585 NIL
AAXX 01064 65592 NIL
AAXX 01064 65594 NIL
AAXX 01064 65599 NIL
BBXX 46054 01061 99342 71204 46/// /0804 10100 90550 22200 00130 333 91205 555 11036 22037
BBXX 46207 01061 99509 71299 46/// /1519 10075 40122 57006 22200 00079 11214 70068 333 91224
BBXX A8CN9 01060 99529 71412 41/97 /1515 10070 20038 49900 56040 70322 8//// 22263 04057 21208 314// 41007 5//// 80055
BBXX DDAC2 01060 99501 71493 41497 70114 10048 20026 49920 52030 7//55 85870 22273 04061 20405 315// 41210 5//// 80038
BBXX DGBE 01063 99512 71443 41/97 /3610 10050 20028 49882 54000 72586 8//// 22224 2//// 80040
BBXX DGXS 01064 99535 71489 41/// /0718 10005 21021 49980 57052 70022 8//// 22224 00050 2//// 3//// 4//// 5//// 81005
BBXX KRGB 01064 99362 71259 41/98 10414 10128 20100 40185 57015 7//00 81/// 22214 00144 20801 329// 41405 5//// 6//// 80111 ICE /////
BBXX OZBY2 01064 99361 71280 41/// 61613 10120 20080 40200 54000 7//11 8//// 22224 00140 20406 321// 41206 5//// 6//// 80100 ICE /////
BBXX WAZV 01064 99494 71290 41396 81344 10060 20040 40150 50010 70722 887// 22232 00080 20609 313// 41011 5//// 6//// 80050 ICE /////
BBXX WDC6644 01064 99449 71310 41396 81732 10117 20110 40090 57020 72566 887// 22273 00117 20201 318// 41409 5//// 6//// 80111 ICE /////
BBXX 7JJA 01064 99318 11349 41696 82310 00 10130 20113 40162 57013 76062 886// 9//// 22200 00200 2//00 3 4 5 6//// 80120 ICE /////
BBXX C6XC2 01064 99346 11244 41497 73540 10020 21004 40260 52010 70222 8794/ 22272 00100 20806 333 // 41006 5//// 6//// 80010 ICE /////
BBXX DCPY2 01064 99348 11287 41/96 61314 10100 20031 40190 57025 71022 864// 22200 2//// 80070
BBXX DGZR2 01063 99327 11265 41/96 83333 10115 20044 40210 56008 70222 8//// 22213 00170 20305 80080
BBXX DIHC 01063 99331 11233 41/96 /3425 10075 20007 40270 54000 71022 8//// 22283 00110 20302 335// 40404 80045
BBXX H9UY 01064 99341 11389 41798 52611 00/// 10140 40177 56010 70322 83834 9//// 22273 04200 20205 313// 40205 5//// 6//// 80100
BBXX MGGF9 01064 99337 11298 41/97 92717 10090 20090 40222 54000 70222 896// 22263 00183 20304 327// 40404 5//// 80090
BBXX MINFR09 0106/ 99321 11410 46/// ///// 40180 57019
BBXX SHIP 01064 99332 11449 41898 21116 10130 20051 40199 57005 70100 81101 22283 00219 20301 336// 40405 80090
BBXX SHIP 01064 99381 11468 41598 61308 10110 20050 40215 56010 70322 86343 90600 22214 00130 20402 301// 40603 80080
BBXX UFLC 01060 99576 11500 41395 83604 11070 40252 54000 77372 8472/ 22283 06010 20201
BBXX UHFW 01060 99451 11368 42598 40205 11050 40203 57020 84300 22253 06040 20301 30700 40402
BBXX VRHO2 01064 99395 11374 41797 62719 10075 20032 40120 57040 71622 84332 22215 00120 20301 325// 40603 50000 6//// 80055 ICE 0////
AAXX 01064 93800 16/// /2716 10148 20090 40068 57004 60001
AAXX 01064 93805 16/// /2812 10123 20089 40083 54000 60001
AAXX 01064 93994 16/// /9901 10227 20208 40124 57003 60001
BBXX ZMENA 01064 99422 31740 46/// ///// 10155 20110 40017 222//
BBXX ZMFR 01064 99414 31748 43/// /1619 10151 20139 40007 57005 2229/ 00154
BBXX VRDX2 01063 99105 31394 41497 62608 10292 20244 40068 7//// 86618 22224 00310 20402
BBXX ZMENA 01064 99422 31740 46/// ///// 10155 20110 40017 222//
BBXX ZMFR 01064 99414 31748 43/// /1619 10151 20139 40007 57005 2229/ 00154
BBXX VRDX2 01063 99105 31394 41497 62608 10292 20244 40068 7//// 86618 22224 00310 20402
AAXX 01061 48855 01560 83203 10214 20203 30167 40175 57033 60023 76062 888// 333 59008 69931 83895 88697 96160
AAXX 01061 48848 01565 83404 10193 20164 30186 40194 57030 69993 70262 888// 333 59017 69901 83895 88697 555 20165
AAXX 01061 25703 41999 10000 11465 21501 30022 40345 53001 77671 80001
AAXX 01061 25745 42698 11101 11394 21422 30188 40248 53003 81500
AAXX 01061 25913 42699 20603 11205 21224 30069 40229 53004 82530
AAXX 01061 25954 41998 20104 11222 21280 30072 40194 53003 70230 80001
AAXX 01061 25956 42598 50711 11215 21248 30162 40168 53004 85500 333 91012 91113
AAXX 01061 31088 42999 33503 11261 21316 30231 40239 57003 82041
AAXX 01061 31873 42997 23201 11180 21234 30143 40288 56008 80001
AAXX 01061 31909 41999 13304 11060 21179 30128 40208 57010 70281 80009
AAXX 01061 31960 42997 03612 11153 21195 39992 40244 57013 333 91019 91119
AAXX 01061 31961 42997 50604 11152 21194 30229 40279 57010 80001
AAXX 01061 32053 41598 62603 11154 21188 30179 40231 53002 70181 82501 333 91004 91105
AAXX 01061 32061 41596 80203 11144 21187 30205 40247 56003 78581 85902 333 91005 91107
AAXX 01061 32098 41496 83304 11123 21158 30218 40229 56004 78583 86973 333 86916 91007 91107
AAXX 01061 32150 41596 83102 11031 21045 30146 40176 57011 78582 889// 333 91004 91105
AAXX 01061 32165 42598 82104 11003 21044 30145 40206 55005 81175 333 91007 91108
AAXX 01061 32215 42674 83405 11042 21101 30180 40210 53009 83807 333 91008 91109
AAXX 01061 32252 NIL
AAXX 01061 32389 41998 50000 11296 21313 30174 40216 54000 74022 85030
AAXX 01061 32477 41999 80401 11180 21201 30179 40214 53009 8805/
AAXX 01061 32583 42999 01301 11085 21123 30165 40197 53008
AAXX 01061 32618 42598 60503 11070 21122 30144 40166 54000 86500
AAXX 01064 41998 32957 02702 10290 20140 30129 40135 333 59012 70000
AAXX 01064 40153 11000 91911 10052 20051 39082 48473 52006 60002 74564 333 20050 70011
AAXX 01064 40179 12565 21912 10130 20044 30134 40172 52011 60002 82100 333 20091 50251 55062 70000
AAXX 01064 40180 12560 51711 10126 20039 30127 40176 53012 60002 81160 333 20104 70000
AAXX 01064 40190 16/// ///// 10104 20036 39848 40185 52010 60002 333 20064 70000
AAXX 01064 40199 13/// /0402 10122 20033 30173 40196 52018 60002 333 20079 55050 70000
AAXX 01064 71979 16/// ///// 11252 21277 38575 40315 53012 60001 333 11070 21253 70000
AAXX 01064 71039 46/// /0000 11387 6///1 333 11346 21395 7////
AAXX 01064 71217 16/// /2704 11110 21120 60001 333 11008 21142 70028 555 33528 40132
AAXX 01064 71224 16/// /2606 11094 21131 60001 333 10005 21099 70000 555 32727 40221
AAXX 01064 71189 46/// /2812 11096 21124 6///1 333 11059 21144 7//// 555 32820 40051
AAXX 01064 71352 16/// /1805 10006 20003 39702 40159 58015 60001 333 10018 20000 70020
AAXX 01064 71432 16/// /1703 10036 20016 30072 40169 58011 60001 333 10064 20032 70015 555 32817 40011
AAXX 01064 71463 46/// /2409 10041 20014 39954 40179 58014 6///1 333 10068 20031 7//// 555 32123 40071
AAXX 01064 71665 16/// /2203 11185 21242 30152 40162 56011 60001 333 11170 21203 70000 555 32834 40073
AAXX 01064 71307 16/// /1909 10046 20018 39905 40156 58019 60001 333 10061 20017 70000 555 33317 40161
AAXX 01064 71343 16/// /0804 11089 21100 60001 333 10019 21102 70000 555 33330 40152
AAXX 01064 71276 16/// ///11 11123 21163 60001 333 11050 21135 70000
AAXX 01064 61600 32960 00606 10139 20017 30179 40184 333 20135 50694 55052 59003
AAXX 01064 61612 32960 30404 10126 21026 30184 40192 80002 333 01400 20120 50581 55036 59012 83073
AAXX 01064 61627 32958 30404 10155 21004 3//// 4//// 83030 333 00600 20140 50854 55045 5//// 83363
AAXX 01064 61630 32956 00804 10146 20005 30151 40171 333 01300 20140 50572 55043 59026
AAXX 01064 61666 32958 60404 10166 21018 30162 40171 80002 333 01400 20128 50484 55037 59008 86073
AAXX 01064 61679 32958 03610 10160 20095 30163 40171 333 01700 20160 50794 55032 59009
AAXX 01064 61687 31940 20406 10168 21038 30098 40156 70600 80002 333 01200 20145 50931 55062 59016 82073
AAXX 01064 61695 32960 03604 10168 20031 30126 40153 333 01700 20165 50454 55047 59003
AAXX 01064 61697 31940 20212 10175 20017 30166 40150 70600 80002 333 01700 20174 50694 55051 59002 82072
AAXX 01064 61698 32958 60604 10182 21013 30137 40148 84072 333 01500 20180 50824 55015 59018 84363 85073
AAXX 01064 61699 32958 51006 10148 20041 39947 40140 80002 333 01200 20138 50604 55044 58001 85073
AAXX 01064 60764 13962 61304 10039 20006 30225 40279 53008 60004 84082 333 20036 84360 83070
AAXX 01064 71432 16/// /1703 10036 20016 30072 40169 58011 60001 333 10064 20032 70015 555 32817 40011
BBXX 46183 01061 99536 71311 46/// /2809 10037 40121 57014 22200 00073 11010 70048 333 91216
BBXX 46183 01061 99536 71311 46/// /2809 10037 40121 57014 22200 00073 11010 70048 333 91216
AAXX 01061 50434 32980 42902 11229 21278 39400 40411 57016 82032 333 21372
AAXX 01061 50527 32975 61803 11249 21278 39518 40422 57016 80002 333 21345
AAXX 01061 50603 32980 71603 11206 21242 39622 40382 57022 80002 333 21286
AAXX 01061 50632 32980 12703 11153 21211 39385 40363 57015 81032 333 21243
AAXX 01061 50727 32980 00000 11193 21261 39097 40422 57019 333 21310
AAXX 01061 50915 32980 61802 11164 21222 39297 40401 57029 80002 333 21257
AAXX 01061 51716 32965 02001 11036 21098 39051 40435 57010 333 00200 21137
AAXX 01061 51765 32980 03601 11044 21116 39367 40449 57018 333 00100 21191
AAXX 01061 51777 32970 00402 11044 21130 39314 40439 57020 333 00001 21170
AAXX 01061 51811 32962 02701 11062 21085 38923 40444 57011 333 00254 21147
AAXX 01061 51828 32965 02702 11044 21130 38755 40418 57013 333 00152 21088
AAXX 01061 52267 32975 02906 11038 21188 39208 40384 57022 333 00102 21131
AAXX 01061 52323 32980 02709 11075 21159 38306 57023 333 00200 21167
AAXX 01061 52495 32980 72710 11022 21174 38757 40381 57025 80002 333 00000 21189
AAXX 01061 53149 32680 72709 11042 21164 38810 40313 57029 86502 333 05401 21169
AAXX 01061 53192 32980 61102 11173 21208 38958 40432 57029 80002 333 21308
AAXX 01061 53231 32960 72511 11093 21176 38538 57015 80002 333 05155 21146 91117 91525
AAXX 01061 53336 32980 71802 11091 21165 38761 40344 57028 80002 333 05356 21155
AAXX 01061 53391 32980 71803 11085 21173 38547 40358 57026 80002 333 00000 21186
AAXX 01061 53529 32980 02906 11014 21180 38683 40352 57026 333 05152 21166
AAXX 01061 53543 32980 12205 11011 21143 38581 40309 57028 80002 333 21100
AAXX 01061 53723 32970 12904 11001 21148 38718 40340 57026 80002 333 00052 21144
AAXX 01061 54012 32980 20000 11152 21212 39115 40414 57016 80002 333 21240
AAXX 01061 54026 32980 20401 11087 21214 39997 40350 57018 80002 333 21164
AAXX 01061 54027 32980 33402 11076 21211 39721 40353 57019 81032 333 21155
AAXX 01061 54208 32980 70401 11120 21194 38830 40401 57020 80002 333 21257
AAXX 01061 54776 32580 73417 11025 21078 30240 40300 52005 874// 333 21025 91123 91536
AAXX 01061 56004 32680 22708 11015 21248 35826 57024 82100 333 05205 21173
AAXX 01061 56033 32580 12702 11040 21261 36011 57024 81102 333 05303 21196
AAXX 01061 56046 32580 52503 10009 21208 36238 57045 81102 333 05405 21197
AAXX 01061 38806 32997 01405 10034 21001 39970 40236 57005 333 21029
AAXX 01061 56193 NIL
AAXX 01061 56196 32961 83201 10083 20019 40265 57037 8807/ 333 05202 20053
AAXX 01061 56287 11830 80403 10068 20056 40265 57039 69911 72160 885// 333 05253 20061
AAXX 01061 56684 32580 63201 10111 20014 37885 57042 86800 333 05408 20027
AAXX 01061 56751 32778 10703 10168 20028 38016 57034 81140 333 05302 20042
AAXX 01061 56786 11565 61806 10154 20053 38097 57042 69901 70060 84402 333 05410 20049
AAXX 01061 56977 32580 51101 10200 20158 40155 57034 85100 333 05200 20136
AAXX 01061 57259 31968 71401 10070 20032 40291 57041 70040 80008 333 21021
AAXX 01061 57279 31920 83202 10036 20023 40304 57025 71000 8807/ 333 20003
AAXX 01061 57348 32860 40201 10115 20042 40258 57046 84030 333 20045
AAXX 01061 57399 31957 03203 10100 20006 40285 57035 70540 333 21005
AAXX 01061 57554 31950 70201 10082 20031 40280 57043 71040 8704/ 333 20014
AAXX 01061 57793 31750 80902 10108 20053 40272 57030 71040 885// 333 20050
AAXX 01061 58345 32961 53602 10075 21031 40306 57014 85040 333 20007
AAXX 01061 58506 32262 10203 10072 21028 40280 57018 81100 333 21018
AAXX 01061 58813 31968 03603 10118 20052 40260 57033 70040 333 20046
AAXX 01061 58834 32670 10703 10146 20046 40250 57032 81100 333 20088
AAXX 01061 58926 32770 72702 10144 20060 40238 57027 8754/ 333 20082
AAXX 01061 58944 32565 40204 10132 20059 40244 57019 84500 333 20104
AAXX 01061 59096 32665 70402 10159 20052 40228 57036 8154/ 333 20105
AAXX 01061 59102 32666 80702 10120 20059 40240 57034 885// 333 20072
AAXX 01061 59278 32962 00202 10187 20069 40216 57038 333 20129
AAXX 01061 59456 32868 23201 10215 20084 40200 57040 82500 333 20122
AAXX 01061 59493 32960 02002 10206 20089 40202 57036 333 20133
AAXX 01061 59658 31758 71104 10196 20109 40203 57032 70500 875// 333 20132
AAXX 01061 59673 32965 00204 10195 20105 40201 57034 333 20148
AAXX 01061 59845 32565 71403 10224 20160 40190 57037 878// 333 20161
AAXX 01061 48826 31756 83202 10181 20147 30066 40204 57034 71022 885// 333 59020 88697
AAXX 01061 48839 32697 80209 10177 20130 30131 40198 57031 885// 222// 00190 2//03 333 59018 88696
AAXX 01061 48830 11740 83602 10150 20082 39897 40210 57038 69903 71022 885// 333 59028 88697
AAXX 01061 48808 32470 80000 10147 20111 39924 40215 57039 888// 333 59030 83894 88696
AAXX 01060 67689 11365 70601 10171 20165 60014 75022 85770 333 20154 5//// 55/// 70006 82706 85615 555 10237 7//52
AAXX 01060 67690 11440 72902 10235 20219 60084 76196 86632 333 20232 70076 85615 85358 555 10311 7//96
AAXX 01064 40582 31630 61621 10181 20075 40164 53002 70722 82430 333 55300 00242 10000 20624 30192 41269 51450 60817 55407 40432 82640 86358 90401 91027 91131 91221 91317
AAXX 01064 41150 NIL
AAXX 01064 41168 NIL
AAXX 01064 41170 42960 01703 10210 20140 30199 40212 333 20157 59039 555 00106
AAXX 01064 41176 NIL
AAXX 01064 41184 42960 00000 10220 20113 40206 333 20105 59022
AAXX 01064 41194 12960 01007 10220 20090 30209 40214 60001 333 20154 59020
AAXX 01064 41196 42960 01305 10215 20082 30177 40217 333 20096 30008 59020
AAXX 01064 41198 42960 00404 10238 20112 40210 333 20168 59021
AAXX 01064 41210 NIL
AAXX 01064 41216 NIL
AAXX 01064 41217 42960 11105 10196 20061 30175 40204 80001 333 20138 30011 59023 81075
AAXX 01064 41218 42960 00905 10214 20059 39904 40212 333 20152 30013 59017
AAXX 01064 41226 NIL
AAXX 01064 41244 NIL
AAXX 01064 41246 NIL
AAXX 01064 41254 NIL
AAXX 01064 41256 NIL
AAXX 01064 41258 NIL
AAXX 01064 41268 NIL
AAXX 01064 41312 NIL
AAXX 01064 41314 NIL
AAXX 01064 41316 NIL
AAXX 01064 41404 42960 00000 10156 21066 37914 48569 333 20042 30101 59007
AAXX 01064 41407 NIL
AAXX 01064 41431 41558 21312 10250 20195 30154 40167 70544 82100 333 20194 30/// 58012 82830
AAXX 01064 41466 42960 01204 10198 20043 38597 48498 333 20112 30/// 59010
AAXX 01064 41477 42560 11709 10248 20198 81100 333 20224 30/// 81830
AAXX 01064 41480 41458 63505 10246 20188 30182 40185 70544 82200 333 20230 30/// 59019 82818 85630
AAXX 01064 60525 12960 03210 10100 20044 40267 55001 60004 333 00300 20095 95990
AAXX 01061 60379 16/// /1501 10068 20068 69924 333 20068
AAXX 01061 60380 16/// /1101 10052 20052 69924 333 20046
AAXX 01061 60394 36/// /0000 10052 20052 333 20052
AAXX 01061 60374 36/// /1203 10093 20072 333 20089
AAXX 01061 60613 36/// /0000 10005 21049 333 20002
AAXX 01061 01488 16/// /0000 11032 21038 60102 333 21088 70103 91102
BBXX 46131 01061 99499 71250 46/// /1005 1//// 40262 57004 22200 00073 10501 70005 333 91206
BBXX 46131 01061 99499 71250 46/// /1005 1//// 40262 57004 22200 00073 10501 70005 333 91206
AAXX 01063 64870 32960 70000 10134 20054 38929 48522 80002 333 00800 20090 50700 55096 58001 87080
AAXX 01061 78310 12501 20803 10212 20198 30196 40206 58007 60001 81100 333 10287 20203 30/// 56900 58011 81820 92013
AAXX 01061 78315 12964 00801 10200 20180 30140 40206 58006 60001 333 10289 20175 30/// 59012
AAXX 01061 78318 12565 11203 10216 20188 30203 40207 58009 60001 81100 333 10292 20200 30/// 56900 58014 81821
AAXX 01061 78322 12956 00901 10200 20197 30197 40214 58010 60001 333 10295 20177 30/// 58012
AAXX 01061 78324 12900 00506 10238 20203 30189 40200 58005 60001 333 10274 20220 30/// 58007
AAXX 01061 78325 11530 10905 10216 20177 30154 40212 58011 60001 70400 81200 333 10265 20199 30/// 56900 58015 81820
AAXX 01061 78328 12/62 10903 10234 20178 30213 40/// 58007 60001 81100 333 10270 20220 30/// 56900 58015 818//
AAXX 01061 78333 12910 00702 10212 20193 30200 40207 56004 60001 333 10287 20194 30/// 58010
AAXX 01061 78344 12550 20301 10205 20196 30160 40209 58006 60001 82800 333 10299 20205 30/// 56900 58017 81820
AAXX 01061 78345 12965 00405 10226 20216 30202 40205 58007 60001 333 10300 20192 30/// 58022
AAXX 01061 78348 11556 20404 10233 20203 30158 40210 58008 60001 70500 82200 333 10259 20220 30/// 56200 57835 58015 82820 555 10702
AAXX 01061 78349 12540 13501 10216 20208 30110 40220 58001 60001 81100 333 10300 20190 30/// 56900 58015 81820
AAXX 01061 78351 12550 10000 10230 20219 30165 40167 58005 60001 81500 333 10302 20180 30/// 56900 58000 81630
AAXX 01061 78353 12560 20702 10249 20209 30181 40203 58009 60001 82200 333 10286 20235 30/// 56900 58007 82820
AAXX 01061 78355 12560 10304 10230 20220 30059 40199 58008 60001 81200 333 10290 20198 30/// 56900 58006 81820
AAXX 01061 78358 11530 20504 10252 20236 30176 40191 58008 69941 70280 82200 333 10286 20230 30/// 56900 58008 70004 82823
AAXX 01061 78360 11/60 10304 10233 20220 30175 40186 58008 60001 70191 81200 333 10305 20210 30/// 56900 58006 818// 92023
AAXX 01061 78363 12957 00000 10209 20199 30058 40172 58009 60001 333 10301 20203 30/// 56/// 58004
AAXX 01061 78365 01550 30909 10263 20224 30192 40197 58012 60181 70181 83200 333 10275 20234 32/// 56200 57863 58002 60187 70262 83820 92045 555 10903
AAXX 01061 78369 NIL
BBXX 44029 01061 99425 70706 46/30 /3107 10055 40119 53010 90604 22200 00079 10301 70007 333 91209 555 11084 22088
BBXX 44030 01061 99432 70704 46/// /3004 1//// 40117 53008 90604 22200 00078 10501 70005 333 91204 555 11043 22045
BBXX 44039 01061 99411 70727 46/// /2704 10078 20064 40173 52020 90600 22200 00084 1//00 70001 333 91206
BBXX 44060 01061 99413 70721 46/// ///02 10066 40159 90615 22200 00091 333 91203 555 11015 22021
BBXX 44022 01061 99409 70737 46/// ///02 10075 20042 40172 90615 22200 00070 333 91203 555 11021 22026
BBXX 44040 01061 99410 70736 46/// /3005 10082 20051 40177 90615 22200 1//00 70001 333 91206 555 11062 22077
BBXX 41053 01061 99185 70661 46/// /1005 10256 40176 58015 90600 22200 00269 10603 70015 333 91207
BBXX 41053 01061 99185 70661 46/// /1107 10249 40179 90550 333 91210
BBXX 41053 01061 99185 70661 46/// /0809 10258 40177 90540 333 91211
BBXX 46088 01061 99483 71232 46/// /0706 10055 40253 90620 22200 00075 10301 20301 70004 333 91207 555 11066 22069 30611 40708 60619 072063 067065 070063 071063 064066 061062
BBXX 46087 01061 99485 71247 46/// /0910 10068 20007 40237 90620 22200 00080 333 91213 555 11107 22113 30537 40913 60619 087098 088102 092097 093095 086101 092095
BBXX 46249 01061 99338 71197 46/// ///// 1//// 90607 22200 00147 11202 20802 327// 41202 70012
BBXX 46248 01061 99461 71247 46/// ///// 1//// 90604 22200 00095 11305 21003 327// 41303 70024
BBXX 46244 01061 99409 71244 46/// ///// 1//// 90605 22200 00101 11305 20903 329// 41304 70024
BBXX 46241 01061 99330 71173 46/// ///// 1//// 90541 22200 00146 11502 20701 326// 41501 70008
BBXX 46240 01061 99366 71219 46/// ///// 1//// 90612 22200 00121 11102 21001 335// 41102 70012
BBXX 46237 01061 99378 71226 46/// ///// 1//// 90610 22200 00108 11304 20902 325// 41304 70021
BBXX 46223 01061 99335 71178 46/// ///// 1//// 90600 22200 00151 11302 21001 326// 41302 70010
BBXX 46216 01061 99343 71198 46/// ///// 1//// 90557 22200 00144 11403 21002 326// 41402 70013
BBXX 46204 01061 99514 71288 46/// /0801 10065 40150 57004 22200 00080 10809 70045 333 91202
BBXX 46204 01061 99514 71288 46/// /0801 10065 40150 57004 22200 00080 10809 70045 333 91202
BBXX 46218 01061 99345 71208 46/// ///// 1//// 90602 22200 00134 11305 21003 330// 41304 70024
BBXX 46231 01061 99327 71174 46/// ///// 1//// 90554 22200 00148 11403 21002 326// 41402 70013
BBXX 46222 01061 99336 71183 46/// ///// 1//// 90556 22200 00146 11302 21001 326// 41302 70010
BBXX 44098 01061 99428 70702 46/// ///// 1//// 90607 22200 00081 10402 20402 70008
BBXX 44034 01061 99441 70681 46/30 /3209 10042 40079 53003 90604 22200 00076 10502 70011 333 91211 555 11111 22116
AAXX 01061 29802 32997 01802 11182 21208 30249 40405 52003 333 21202
AAXX 01061 29807 32997 02301 11177 21208 30280 40410 58004 333 21210
AAXX 01061 35229 32998 81401 11102 21131 39982 40268 58002 83035 333 21110
AAXX 01061 35416 32997 81304 11068 21093 30103 40228 53005 8807/ 333 21072
AAXX 01061 35426 32999 81103 11099 21116 39959 40264 56002 8801/ 333 21090
AAXX 01061 35532 31992 81114 11100 21128 39740 40253 57020 73933 8802/ 333 21108 91018 91118
AAXX 01061 36003 32999 21801 11176 21192 30252 40417 58002 80001 333 21200
AAXX 01061 29802 32997 01802 11182 21208 30249 40405 52003 333 21202
AAXX 01061 29807 32997 02301 11177 21208 30280 40410 58004 333 21210
AAXX 01061 35229 32998 81401 11102 21131 39982 40268 58002 83035 333 21110
AAXX 01061 35416 32997 81304 11068 21093 30103 40228 53005 8807/ 333 21072
AAXX 01061 35426 32999 81103 11099 21116 39959 40264 56002 8801/ 333 21090
AAXX 01061 35532 31992 81114 11100 21128 39740 40253 57020 73933 8802/ 333 21108 91018 91118
AAXX 01061 36003 32999 21801 11176 21192 30252 40417 58002 80001 333 21200
BBXX VNAH 01064 99383 31416 46/// /1310 10186 20154 30097 40120 57016 22200 85166
BBXX VROB 01064 99218 31531 46/// /1423 10254 20157 30081 40106 57014 22283 04278 85191
BBXX FHZI 01064 99582 31456 46/// /2811 10028 20021 30028 40039 52015 22213 04019 85025
BBXX VNAA 01064 99489 31393 41598 83619 10092 20073 40120 58014 70722 8552/ 22214 04094 20503 320// 41206
AAXX 01064 91650 11599 60000 10285 2025/ 40066 53005 69921 70282 83102 333 569/9 83820 86080
AAXX 01064 91652 NIL
AAXX 01064 91656 NIL
AAXX 01064 91659 NIL
AAXX 01064 91660 NIL
AAXX 01064 91669 36/// /0908 10290 20268 40081 52007 90619
AAXX 01064 91670 36/// /0200 10291 20235 40073
AAXX 01064 91676 14/// /0805 10279 20241 30014 40074 50007 60001
AAXX 01064 91680 11597 70000 10254 20248 40082 53016 60251 72929 878// 333 569// 84820 85648
AAXX 01064 91682 NIL
AAXX 01064 91683 11599 60505 10295 20247 40077 53007 60001 70312 86800 333 561// 86823
AAXX 01064 91691 14/// /0701 10258 20241 30091 40094 50009 60081
AAXX 01064 91693 11599 31303 10277 2025/ 40084 53009 60001 70100 82131 333 56399 82825
AAXX 01064 91697 14/// /0903 10276 20232 30080 40085 50003 60001
AAXX 01064 91699 14/// /0804 10273 20232 30068 40100 50001 60001
AAXX 01064 92044 11480 83015 10275 20230 30073 40079 57003 60271 70282 83276
AAXX 01064 92044 11480 83015 10275 20230 30073 40079 57003 60271 70282 83276
BBXX VNAH 01064 99383 31416 46/// /1310 10186 20154 30097 40120 57016 22200 85166
BBXX VROB 01064 99218 31531 46/// /1423 10254 20157 30081 40106 57014 22283 04278 85191
BBXX FHZI 01064 99582 31456 46/// /2811 10028 20021 30028 40039 52015 22213 04019 85025
BBXX VNAA 01064 99489 31393 41598 83619 10092 20073 40120 58014 70722 8552/ 22214 04094 20503 320// 41206
AAXX 01064 60525 12960 03210 10100 20044 40267 55001 60004 333 00300 20095 95990
BBXX 41115 01061 99184 70673 46/// ///// 1//// 90605 22200 11202 21002 301// 41201 70010
BBXX 41114 01061 99276 70802 46/// ///// 1//// 90616 22200 00233 11101 21001 70003
BBXX 41036 01061 99342 70770 46/// ///// 10164 20077 40213 90620 22200 00197
AAXX 01061 30157 41996 81505 11241 21281 30068 40381 54000 77172 8801/
AAXX 01061 21802 42996 81501 11206 21215 30085 40110 52006 77171 8802/
AAXX 01061 24125 42998 30000 11218 21230 39852 40150 55002 80001
AAXX 01061 24136 41999 31902 11222 21254 30067 40172 53002 70271 83030
AAXX 01061 24143 41998 81808 11256 21295 30156 40210 56002 77173 8802/
AAXX 01061 24266 42999 82701 11383 21409 30071 40273 58002 84035
AAXX 01061 24329 42999 10000 11357 21386 39880 40220 54000 81010
AAXX 01061 24343 41596 81603 11258 21282 30104 40233 57004 77172 86507 333 86620
AAXX 01061 24382 42998 50000 11410 21438 30006 40298 58011 80001
AAXX 01061 24639 41999 82203 11147 21167 30062 40222 52004 70272 85017
AAXX 01061 24641 41998 80702 11270 21301 30075 40232 54000 77177 85018
AAXX 01061 24652 41599 21306 11278 21317 30136 40272 57006 78583 82300 333 91110
AAXX 01061 24656 42999 80602 11315 21352 30184 40299 57010 80007
AAXX 01061 24671 42999 83601 11445 21469 39757 40360 56005 80001
AAXX 01061 24688 41999 10000 11505 21535 39342 40456 57002 70400 80001
AAXX 01061 24724 41597 82304 11144 21164 39686 40238 52001 78583 85901
AAXX 01061 24738 41999 82302 11134 21140 30059 40242 52007 70272 86037
AAXX 01061 24768 42998 70802 11335 21367 30030 40295 57004 85031
AAXX 01061 24923 41597 82205 11131 21158 39962 40283 52003 78587 84936
AAXX 01061 24944 41595 82702 11160 21173 39956 40265 58001 78582 8692/
AAXX 01061 24951 41998 80000 11265 21290 30077 40261 58012 77172 85027
AAXX 01061 24661 42999 13001 11387 21413 39998 40306 57012 80001
AAXX 01061 24959 41998 80102 11317 21347 30131 40276 57009 77172 86035
AAXX 01061 24962 41998 80902 11307 21329 30071 40280 57006 77172 8807/
AAXX 01061 24966 41998 80000 11348 21370 30041 40289 56003 77171 81037
AAXX 01061 24967 41999 80000 11288 21318 30042 40286 57007 70271 80005
AAXX 01061 25206 42999 72102 11342 21371 30240 40271 53007 85031
AAXX 01061 25400 42998 00000 11386 21407 30210 40274 53003
AAXX 01061 30054 41997 81301 11182 21215 30066 40324 57001 77172 83047
AAXX 01061 30089 41997 80000 11232 21250 30063 40306 57007 77177 8801/
AAXX 01061 30393 41999 80000 11313 21336 39209 40385 57006 70272 82031
AAXX 01061 30493 42999 80901 11243 21268 39202 40344 57011 80001
AAXX 01061 31004 41997 82403 11152 21179 39395 40272 57005 77172 83037
AAXX 01061 31137 41998 80000 11300 21323 39207 40362 57009 77172 80005
AAXX 01061 29802 32997 01802 11182 21208 30249 40405 52003 333 21202
AAXX 01061 29807 32997 02301 11177 21208 30280 40410 58004 333 21210
AAXX 01061 35229 32998 81401 11102 21131 39982 40268 58002 83035 333 21110
AAXX 01061 35416 32997 81304 11068 21093 30103 40228 53005 8807/ 333 21072
AAXX 01061 35426 32999 81103 11099 21116 39959 40264 56002 8801/ 333 21090
AAXX 01061 35532 31992 81114 11100 21128 39740 40253 57020 73933 8802/ 333 21108 91018 91118
AAXX 01061 36003 32999 21801 11176 21192 30252 40417 58002 80001 333 21200
AAXX 01061 36864 32999 00905 11042 21084 39396 40316 57026 333 21128
BBXX WL3108 01064 99467 70862 41/98 81815 10011 2//// 40044 57/// 70222 8//// 22263 00039 20601 3//// 4//// 5//// 6//// 8//// ICE /////
BBXX C6VG7 01064 99249 70801 41797 41220 10280 2//// 40220 54/// 7//// 831// 22214 00270 20402 3//// 4//// 5//// 6//// 8//// ICE /////
BBXX C6XC6 01064 99173 71019 41997 00103 10270 2//// 40140 52010 70200 80000 22273 00300 2//// 3//// 4//// 5//// 6//// 8//// ICE /////
BBXX WKAB 01064 99245 10651 41998 00505 10236 20086 40192 54000 70200 80000 22224 00246 20201 329// 40402 5//// 6//// 80150 ICE /////
BBXX WKAE 01063 99293 70874 41698 11909 10212 20166 40220 54000 70200 81080 22274 00230 2//// 3//// 4//// 5//// 6//// 80182 ICE /////
AAXX 01061 29802 32997 01802 11182 21208 30249 40405 52003 333 21202
AAXX 01061 29807 32997 02301 11177 21208 30280 40410 58004 333 21210
AAXX 01061 35229 32998 81401 11102 21131 39982 40268 58002 83035 333 21110
AAXX 01061 35416 32997 81304 11068 21093 30103 40228 53005 8807/ 333 21072
AAXX 01061 35426 32999 81103 11099 21116 39959 40264 56002 8801/ 333 21090
AAXX 01061 35532 31992 81114 11100 21128 39740 40253 57020 73933 8802/ 333 21108 91018 91118
AAXX 01061 36003 32999 21801 11176 21192 30252 40417 58002 80001 333 21200
AAXX 01061 36864 32999 00905 11042 21084 39396 40316 57026 333 21128
BBXX 44040 01061 99410 70736 46/// /2805 10082 20052 40175 90545 22200 1//00 70001 333 91206 555 11067 22077
BBXX 46242 01061 99332 71174 46/// ///// 1//// 90558 22200 00145 11301 20901 325// 41301 70007
BBXX 46221 01061 99339 71186 46/// ///// 1//// 90545 22200 00149 11402 20901 325// 41402 70010
BBXX 51203 01061 99208 71570 46/// ///// 1//// 90613 22200 00245 11202 20901 328// 41201 70008
BBXX 52200 01061 99134 11448 46/// ///// 1//// 90615 22200 00286 10803 20803 309// 41101 70017
BBXX 51201 01061 99217 71581 46/// ///// 1//// 90612 22200 00240 11103 21002 333// 41102 70013
BBXX 51205 01061 99210 71564 46/// ///// 1//// 90618 22200 00244 11004 21003 308// 41102 70018
BBXX 46114 01061 99364 71222 46/// ///// 1//// 90604 22200 00121 11306 21004 328// 41305 70032
BBXX DGZR2 01063 99327 11265 41/96 83333 10115 20044 40210 56008 70222 8//// 22213 00170 20305 80080
BBXX SHIP 01064 99332 11449 41898 21116 10130 20051 40199 57005 70100 81101 22283 00219 20301 336// 40405 80090
BBXX SHIP 01064 99297 11274 41596 73127 10140 20105 40219 5/018 70222 8669/ 22244 00220 20202 303// 40404 80120
BBXX SHIP 01064 99164 11302 41398 30515 10280 20239 40112 57026 70110 83160 22283 00286 20304 306// 40706 5//// 80250
BBXX H9UY 01064 99341 11389 41798 52611 00/// 10140 40177 56010 70322 83834 9//// 22273 04200 20205 313// 40205 5//// 6//// 80100
BBXX SHIP 01064 99381 11468 41598 61308 10110 20050 40215 56010 70322 86343 90600 22214 00130 20402 301// 40603 80080
BBXX 7JJA 01064 99318 11349 41696 82310 00 10130 20113 40162 57013 76062 886// 9//// 22200 00200 2//00 3 4 5 6//// 80120 ICE /////
BBXX SHIP 01064 99272 11253 41697 63618 10170 20119 40221 56024 70322 86656 22213 00220 20305 306// 40305 80140
BBXX 3FMH7 01064 99337 11660 41598 52938 00/// 10170 20119 40125 52031 70382 84890 9//// 22261 00170 1//// 20408 329// 41110 5//// 6//// 80140
BBXX WRYW 01064 99059 10893 41698 81002 10280 2024/ 40100 54000 70222 888// 22264 00280 20500 306// 4//// 5//// 6//// 80250 ICE /////
BBXX DCPY2 01064 99348 11287 41/96 61314 10100 20031 40190 57025 71022 864// 22200 2//// 80070
BBXX A8UD6 01061 99119 11293 41598 30508 10290 20262 40110 54000 70100 83145 22234 20802 306// 41003 5//// 80270
BBXX MGGF9 01064 99337 11298 41/97 92717 10090 20090 40222 54000 70222 896// 22263 00183 20304 327// 40404 5//// 80090
BBXX UHFW 01060 99451 11368 42598 40205 11050 40203 57020 84300 22253 06040 20301 30700 40402
BBXX UFLC 01060 99576 11500 41395 83604 11070 40252 54000 77372 8472/ 22283 06010 20201
BBXX IDDUK02 01064 99538 50380 46/// ///// 40032 222//
BBXX 44098 01061 99428 70702 46/// ///// 1//// 90607 22200 00081 10402 20402 70008
BBXX 44034 01061 99441 70681 46/30 /3209 10042 40079 53003 90604 22200 00076 10502 70011 333 91211 555 11111 22116
BBXX 46218 01061 99345 71208 46/// ///// 1//// 90602 22200 00134 11305 21003 330// 41304 70024
BBXX 46222 01061 99336 71183 46/// ///// 1//// 90556 22200 00146 11302 21001 326// 41302 70010
BBXX 46231 01061 99327 71174 46/// ///// 1//// 90554 22200 00148 11403 21002 326// 41402 70013
BBXX 46204 01061 99514 71288 46/// /0801 10065 40150 57004 22200 00080 10809 70045 333 91202
BBXX 46223 01061 99335 71178 46/// ///// 1//// 90600 22200 00151 11302 21001 326// 41302 70010
BBXX 46216 01061 99343 71198 46/// ///// 1//// 90557 22200 00144 11403 21002 326// 41402 70013
BBXX 46240 01061 99366 71219 46/// ///// 1//// 90612 22200 00121 11102 21001 335// 41102 70012
BBXX 46237 01061 99378 71226 46/// ///// 1//// 90610 22200 00108 11304 20902 325// 41304 70021
BBXX 46241 01061 99330 71173 46/// ///// 1//// 90541 22200 00146 11502 20701 326// 41501 70008
BBXX 46248 01061 99461 71247 46/// ///// 1//// 90604 22200 00095 11305 21003 327// 41303 70024
BBXX 46249 01061 99338 71197 46/// ///// 1//// 90607 22200 00147 11202 20802 327// 41202 70012
BBXX 46244 01061 99409 71244 46/// ///// 1//// 90605 22200 00101 11305 20903 329// 41304 70024
BBXX 41053 01061 99185 70661 46/// /1107 10249 40179 90550 333 91210
BBXX 41053 01061 99185 70661 46/// /0809 10258 40177 90540 333 91211
BBXX 46087 01061 99485 71247 46/// /0910 10068 20007 40237 90620 22200 00080 333 91213 555 11107 22113 30537 40913 60619 087098 088102 092097 093095 086101 092095
BBXX 46088 01061 99483 71232 46/// /0706 10055 40253 90620 22200 00075 10301 20301 70004 333 91207 555 11066 22069 30611 40708 60619 072063 067065 070063 071063 064066 061062
BBXX 44022 01061 99409 70737 46/// ///02 10075 20042 40172 90615 22200 00070 333 91203 555 11021 22026
BBXX 41053 01061 99185 70661 46/// /1005 10256 40176 58015 90600 22200 00269 10603 70015 333 91207
BBXX 44040 01061 99410 70736 46/// /3005 10082 20051 40177 90615 22200 1//00 70001 333 91206 555 11062 22077
BBXX 44039 01061 99411 70727 46/// /2704 10078 20064 40173 52020 90600 22200 00084 1//00 70001 333 91206
BBXX 44060 01061 99413 70721 46/// ///02 10066 40159 90615 22200 00091 333 91203 555 11015 22021
BBXX 44030 01061 99432 70704 46/// /3004 1//// 40117 53008 90604 22200 00078 10501 70005 333 91204 555 11043 22045
BBXX 44029 01061 99425 70706 46/30 /3107 10055 40119 53010 90604 22200 00079 10301 70007 333 91209 555 11084 22088
BBXX 46131 01061 99499 71250 46/// /1005 1//// 40262 57004 22200 00073 10501 70005 333 91206
BBXX 46183 01061 99536 71311 46/// /2809 10037 40121 57014 22200 00073 11010 70048 333 91216
BBXX WKAE 01063 99293 70874 41698 11909 10212 20166 40220 54000 70200 81080 22274 00230 2//// 3//// 4//// 5//// 6//// 80182 ICE /////
BBXX 46147 01061 99518 71312 46/// /1618 10070 40100 57003 22200 00078 11013 70067 333 912//
BBXX SHIP 01064 99419 71682 41/95 /1432 10050 20028 40147 56028 76003 8//// 90550 22223 00100 2//// 3//// 4//// 5//// 80040
BBXX 46111 01061 99481 71227 46/// /0604 10053 40254 55003 90600 22200 00052
BBXX 44033 01061 99441 70690 46/30 /3406 10059 40094 53008 90604 22200 00064 10301 70005 333 91209 555 11070 22074
BBXX 41029 01061 99328 70796 46/// /2602 1//// 90600 555 11017 22018
BBXX 44032 01061 99437 70694 46/30 /3209 10055 40094 53008 90604 22200 00081 10402 70008 333 91210 555 11105 22110
BBXX 42363 01061 99282 70892 46/// /1703 10222 20161 40231 90630 333 91204
BBXX 42363 01061 99282 70892 46/// /1804 10217 20161 40231 90615 333 91204
BBXX 42362 01061 99278 70907 46/// /1605 10222 20189 40227 90615
BBXX WKAB 01064 99245 10651 41998 00505 10236 20086 40192 54000 70200 80000 22224 00246 20201 329// 40402 5//// 6//// 80150 ICE /////
BBXX DCCP2 01060 99178 30619 41598 41309 10275 20234 40110 51010 70200 834// 22254 00280 20802 313// 41004 5//// 80245
BBXX MLJA8 01063 99253 10566 41797 21705 10240 20117 40249 54000 70222 8/1// 22200 04250 2//00 3//// 4//00 5//// 80170
BBXX C6TL7 01061 99172 50220 41698 50103 10210 20178 40175 54000 70211 852/4 22273 04220 20201 303// 40601 5//// 80190
BBXX PHAL 01063 99096 70165 41/97 /0225 10258 20144 40122 58003 70222 8//// 22273 2//// 80185 91017
BBXX PHAA 01063 99149 70226 41/99 /0725 10223 20156 40180 54000 70222 8//// 22243 20606 80180 91017
BBXX C6XC6 01064 99173 71019 41997 00103 10270 2//// 40140 52010 70200 80000 22273 00300 2//// 3//// 4//// 5//// 6//// 8//// ICE /////
BBXX PCBZ 01064 99079 70797 41998 00122 10270 20233 40097 57008 70100 80000 22282 00245 20602 30000 80243 91017
BBXX 42364 01061 99291 70881 46/// /1804 10211 20161 40231 90615
BBXX J8PE4 01063 99186 70655 414// 72424 10240 2021/ 40200 54000 78022 87997 22234 00270 20805 325// 40402 5//// 6//// 80220 ICE /////
BBXX WPGK 01064 99247 70735 41498 40713 10233 2020/ 40195 57015 71410 842// 22234 00244 20502 3//// 4//// 5//// 6//// 80211 ICE /////
BBXX 9HXC9 01064 99256 70770 41898 10413 10220 20140 40209 56003 7//00 81005 22225 04400 20602 3//// 40802 5//// 6//// 80170 ICE /////
BBXX J8PR3 01063 99094 70604 41198 70919 10280 2025/ 40140 56020 70222 87288 22231 00280 20402 30909 40402 50402 6//// 80260 ICE /////
BBXX 44067 01061 99384 70770 46/// /1801 10051 40198 51005 90600
BBXX VOXS 01064 99467 70480 41598 62310 10009 2101/ 40294 57024 70222 86500 22200 04015 20301 334// 41109 80001
BBXX 46207 01061 99509 71299 46/// /1519 10075 40122 57006 22200 00079 11214 70068 333 91224
BBXX A8IN7 01064 99217 70745 41597 40915 10262 20222 40185 58/// 70322 8446/ 22244 20401 80235
BBXX WXJ63 01063 99611 71464 41/94 80704 11070 21077 40104 57/// 771// 8//// 222// 0//// 2//// 3//// 4//// 5//// 6//// 8//// ICE /////
BBXX 46054 01061 99342 71204 46/// /0804 10100 90550 22200 00130 333 91205 555 11036 22037
BBXX 46078 01061 99561 71526 46/// /0310 11046 21115 40096 90550 22200 10403 20402 300// 40701 70013 333 91212 555 11103 22110
BBXX ZMFR 01064 99414 31748 43/// /1619 10151 20139 40007 57005 2229/ 00154
BBXX ZMENA 01064 99422 31740 46/// ///// 10155 20110 40017 222//
BBXX VRDX2 01063 99105 31394 41497 62608 10292 20244 40068 7//// 86618 22224 00310 20402
BBXX SHIP 01064 99549 31100 41497 62934 10027 21008 49817 57031 70300 83454 22243 00025 11411 20404 32622 40708 50708 61000 85013
BBXX SHIP 01064 99000 51350 41/97 81008 10240 20219 40137 50018 72582 8//// 22200 04240
BBXX SHIP 01064 99079 31273 41797 53220 10300 20275 40072 57013 70211 83252 22273 00299 10600 20301 333// 40502 80281
BBXX SHIP 01064 99020 11467 41496 80112 10251 20241 40082 52004 76362 887// 22253 06303 11303 20301 306// 41303
BBXX A8IH2 01063 99025 51518 41598 50910 10270 20213 40120 53010 7//22 85160 22254 06270 20802 309// 41002 5//// 80230
BBXX VQNW6 01064 99059 30915 41498 22911 10296 20255 40142 50003 701// 8/1// 22233 00286 20201 336// 40404 5//// 80267
BBXX MGSH7 01063 99544 10117 41/97 51420 10050 20025 40048 54000 70222 8//// 22233 20201 3//// 4//// 5//// 80040
BBXX 62103 01064 99499 70029 46/98 /2224 10124 20115 40098 57007 22200 00119 10803 70016 333 90710 91131
BBXX MYSU5 01064 99453 70165 41/98 81135 10140 20122 40126 54000 70222 8//// 22253 00140 20607 327// 40807 5//// 80130
BBXX 62094 01064 99517 70067 46/// /2124 10111 20096 40028 56018 22200 00107 10606 70031 333 90710 91133
BBXX 62095 01064 99530 70159 46/// /2620 10075 20047 49938 58004 22200 00111 10913 70067 333 90710 91134
BBXX 62107 01064 99501 70061 46/// /2325 10118 20102 40083 57014 22200 00116 10806 70028 333 90710 91133
BBXX PBHZ 01063 99613 10032 41/97 91511 10087 20077 49857 58009 70322 89/// 22283 20403 399// 40804 80082
BBXX 2AUO5 01063 99606 10017 41297 12325 10092 20069 49850 57008 70100 816// 22241 20604 320// 40908 80081
BBXX 63119 01064 99583 10009 41598 82227 10085 20056 49874 57010 70222 885// 22200 20304 322// 40805 5////
BBXX PCGM 01063 99324 70297 41/98 19903 10186 20135 40334 54000 70200 8//// 22284 00210 2//// 80155
BBXX 62305 01064 99504 10000 46/97 /2428 10123 20122 40111 55003 22200 00116 10703 70014 333 90710 91134
BBXX 62304 01064 99511 10018 46/97 /2431 10115 20108 40083 56008 22200 00109 10602 70012 333 90710 91142
BBXX 62094 01064 99517 70067 46/// /2224 10111 20096 40028 56018 22200 00107 10606 70031 333 90710 91133
BBXX 62170 01064 99514 10020 46/97 /2332 10112 20112 40080 55004 22200 00106 10602 70012 333 90710 91140
BBXX 62103 01064 99499 70029 46/98 /2420 10122 20114 40100 57008 22200 00119 10704 70019 333 90710 91132
BBXX PJGO 01064 99571 10022 47/97 /2124 10087 49932 57006 700// 22200
BBXX 62133 01064 99571 10009 46/// /2225 10091 20057 49919 56009 22200 1//04 70019
BBXX 62164 01064 99572 10008 47997 /2218 10099 20064 49919 56011 700// 22200 00091 10505 70023
BBXX 62146 01064 99572 10021 47/97 /2324 10091 20060 49927 57009 700// 22200 10504 70021
BBXX 62140 01064 99573 10013 46/// /24// 10092 20059 49914 57005 22200
BBXX 62122 01064 99573 10016 47797 /2224 10116 20065 49924 56010 700// 22200 10504 70022
BBXX 62104 01064 99574 10013 47997 /2323 10093 20059 49908 56007 700// 22200
BBXX 62153 01064 99573 10020 47497 /2326 10093 20068 49919 58003 700// 22200 10605 70024
BBXX 62116 01064 99576 10011 47797 /2429 10087 20047 49900 57007 700// 22200 10505 70025
BBXX 62155 01064 99577 10007 47898 /2330 10086 20050 49908 55012 751// 22200 10505 70026
BBXX 62118 01064 99577 10009 47897 /2231 10096 20046 49896 57009 700// 22200 10605 70025
BBXX 62143 01064 99577 10018 47797 /2427 10092 20055 49908 58009 700// 22200 10505 70023
BBXX 62114 01064 99583 10000 46/// /2122 10083 20056 49876 56016 22200
BBXX 62117 01064 99579 10000 47598 /2327 10082 20056 49890 57015 700// 22200 10504 70018
BBXX 62102 01064 99579 10018 46/// /2223 10088 20062 49899 55007 22200 10605 70024
BBXX 62134 01064 99580 10014 47497 /2225 10088 20063 49892 57013 762// 22200 10605 70026
BBXX 62152 01064 99570 10018 47/97 /2118 10093 20065 49939 57005 700// 22200 10404 70021
BBXX 62120 01064 99564 10021 47997 /2424 10097 20097 49943 58004 700// 22200
BBXX 62119 01064 99570 10019 47997 /2327 10094 20065 49935 56009 700// 22200 10504 70020
BBXX 62154 01064 99564 10022 46/// /2321 10091 20068 49947 58003 22200
BBXX 62132 01064 99564 10020 46/// /2522 10097 20071 49943 58006 22200
BBXX 62165 01064 99540 10009 47998 /2220 10097 20063 40013 51003 700// 22200 10402 70011
BBXX 62123 01064 99563 10022 47997 /2321 10094 20071 49946 58004 700// 22200
BBXX 62131 01064 99539 10012 46/// /21// 10097 20072 40015 51006 22200
BBXX 62149 01064 99537 10011 47998 /2121 10097 20079 40021 50005 700// 22200 10402 70010
BBXX 62127 01064 99540 10007 47998 ///// 10098 20061 40009 50006 700// 22200 10402 70010
BBXX 62148 01064 99536 10015 46/// /2222 10094 20079 40030 51005 22200
BBXX 62150 01064 99536 10007 47998 /2225 10099 20072 40024 50002 700// 22200 10402 70010
BBXX 62145 01064 99531 10028 47997 /2120 10096 20079 40043 53002 700// 22200 10403 70016
BBXX 62121 01064 99535 10027 46/// ///// 22200
BBXX 62142 01064 99530 10021 47998 /2319 10102 20082 40044 53007 700// 22200 10402 70011
BBXX 62144 01064 99534 10017 47998 /2326 10101 20078 40039 51009 700// 22200 10403 70013
BBXX MWYG6 01064 99603 70040 47998 /2128 10088 700// 22200
BBXX 64041 01064 99607 70026 47597 /2022 10063 20063 49807 57004 700// 22200 10808 70041
BBXX 63104 01064 99612 10016 47897 /2117 10086 20053 49839 57012 700// 22200
BBXX 63117 01064 99613 10011 47598 /2121 10110 20042 49836 57010 700// 22200
BBXX 63115 01064 99616 10013 47997 /2018 10123 20056 49825 57012 700// 22200 10708 70040
BBXX 63101 01064 99612 10009 46/// /2322 10084 20047 49834 57012 22200
BBXX 63107 01064 99611 10017 46/// /2113 10086 49839 57012 22200
BBXX 63103 01064 99612 10011 46/// /2222 10088 20041 49836 57011 22200 10706 70032
BBXX 63105 01064 99610 10017 47997 ///// 10088 20048 49841 57012 700// 22200
BBXX 63113 01064 99610 10017 46/// /2317 10089 20046 49844 56010 22200 10706 70029
BBXX 63106 01064 99610 10017 46/// /2117 10082 49842 57012 22200
BBXX 63108 01064 99608 10017 47997 /2222 10084 20047 49846 56006 700// 22200 10705 70024
BBXX 63112 01064 99611 10010 46/// /2322 10089 20039 49827 57016 22200 10707 70035
BBXX 62112 01064 99584 70002 47997 /2121 10083 20056 49877 56014 700// 22200
BBXX 62113 01064 99584 10002 47997 /2222 10083 20058 49884 57013 700// 22200
BBXX 63055 01064 99606 10016 47997 /2315 10085 20055 49851 57006 700// 22200 10605 70026
BBXX ZQSD5 01064 99583 10007 46/// /2023 10089 20064 49886 56012 22200 10707 70036
BBXX 62129 01064 99584 10003 46/// ///// 10085 20058 49888 56012 22200
BBXX 63057 01064 99592 10015 47997 /2222 10087 20054 49868 58006 700// 22200 10605 70023
BBXX 62128 01064 99587 10014 47997 /2225 10079 20069 49877 58009 700// 22200 10605 70023
BBXX 63110 01064 99595 10015 46/// ///// 22200
BBXX 62111 01064 99580 70003 46/// /2424 10083 20048 49895 56013 22200 10504 70018
BBXX PJAI 01064 99581 70014 47998 /2316 10089 20029 49872 56011 700// 22200
BBXX 63056 01064 99597 10016 47998 /2218 10087 20056 49855 58006 700// 22200 10605 70024
BBXX 62027 01064 99491 70022 46/// /2215 1//// 2//// 40127 57011 22200 00108 10904 332// 70018
BBXX 62303 01064 99516 70051 46/// /2219 10116 20094 40048 58012 22200 00110 10606 70029
BBXX 62301 01064 99524 70047 46/// /2218 10100 20084 40024 58012 22200 00093 10605 70025 333 90710 91126
BBXX 62001 01064 99452 70050 46/// /2420 10139 20120 40212 57016 22200 00131 10707 70034 333 90710 91128
BBXX 64045 01064 99591 70117 46/// /2426 10066 20025 49762 57003 22200 00100 10811 70054 333 90710 91136
BBXX 62163 01064 99475 70084 46/// /2117 10117 20103 40118 58028 22200 00127 10807 70036 333 90710 91125
BBXX 62105 01064 99554 70122 46/// /2625 10084 20051 49874 58004 22200 00106 10913 70064 333 90710 91146
BBXX 62442 01064 99490 70164 46/// /2627 1//// 2//// 40056 58003 22200 00122 333 90710 91134
BBXX 64046 01064 99606 70049 46/// /2426 10074 20038 49782 56005 22200 00075 10810 70048
BBXX 62081 01064 99510 70134 46/// ///// 10108 20060 40004 57008 22200 00120 10811 70053
BBXX 62029 01064 99487 70125 46/// /2423 10112 20081 40066 56022 22200 00127 10808 70040 333 90710 91132
BBXX BAREU06 01064 99415 10100 46/// ///// 40195 52006 22284
BBXX OXHY2 01063 99346 10212 41598 33209 10155 20155 40178 52007 71500 83800 22224 20204 3//// 40102 5//// 80155
BBXX BATFR46 01064 99400 10016 46/// /3417 10154 20107 40254 53012 22253 00154
BBXX BATFR15 01064 99489 70069 46/// /2217 10122 20109 40101 56022 22224 00115
BBXX BATFR33 01064 99375 10099 46/// /3027 10159 20129 40237 53009 22235 00160
BBXX BATEU05 01064 99653 70111 46/// /1708 10029 49622 56021 22273
BBXX BATFR22 01064 99432 10053 46/// /3219 10135 40210 53020 22283 00144
BBXX BATFR11 01064 99431 10071 46/// ///// 10124 20087 40198 53010 22262 00147
BBXX BATFR32 01064 99418 10087 46/// /0710 10121 20076 40197 53012 7//// 8//// 22233 00154
BBXX 61002 01064 99421 10047 46/// ///25 10144 2//// 40228 54000 22200 00132 10706 70028 555 1/031
BBXX BATUK01 01064 99560 70032 46/// /2405 10079 20022 49915 58014 22200 00062
BBXX 61001 01064 99434 10078 46/// /0512 10134 20099 40190 52008 22200 00137 10703 70013
BBXX BATFR09 01064 99424 70098 44497 52120 10137 20110 40265 58022 70152 83320 22283 00152 20304 333// 40608 5//// 60//0 ICE 0/0//
BBXX BATEU01 01064 99440 70222 44497 72836 10132 20067 40175 53011 70222 84343 22264 00139 21004 327// 41506 5////
BBXX BATEU08 01064 99583 70011 46/// /2227 10084 20042 49868 52011 22223
BBXX BAREU08 01064 99417 70210 46/// ///// 40217 52016 22254
BBXX BAREU63 01064 99326 10194 46/// /3322 10154 29054 40203 52015 22232
BBXX LF4B 01064 99606 10037 47/97 /2016 10082 49870 57007 700// 22200 00067 10706 70031 333 91132
BBXX LF4C 01064 99584 10019 41/97 72325 10091 20066 49882 57013 702// 89/// 22200 00072 10605 70024 333 91130
BBXX LF3F 01064 99643 10078 43/// /1621 10063 20028 49857 57005 22200 04085 10808 70041 333 91127
BBXX LF3N 01064 99653 10073 41497 72018 10077 20063 49833 57006 76062 8//// 22200 00089 10809 70047
BBXX 3ERR2 01064 99635 10053 41498 82027 10079 20067 49835 57004 70162 8311/ 22200 06098 10908 70038 333 91148
BBXX LF5T 01064 99660 10081 43396 /1827 10054 20037 49830 54000 22200 10908 70040 333 91139
BBXX C6WK7 01064 99318 70104 41998 10716 10140 2//// 40310 54/// 7//00 80//1 22214 00180 2//// 311// 40503 5//// 6//// 8//// ICE /////
AAXX 01061 26499 11495 70000 11040 21042 39878 40114 52004 69922 71072 87500 333 21040 42003 87614
AAXX 01061 60376 36/// /1603 10075 20075 333 20071
AAXX 01061 60593 36/// /0000 10007 333 20007
AAXX 01064 06610 21664 72204 10072 20057 39636 40224 52002 6///2 71022 875// 333 20065 32005 55000 55300 20000 60005 82634 87656 90768 93100 91113 91208
AAXX 01064 06670 21475 72007 10085 20066 39694 40206 53005 6///2 72065 8457/ 333 20068 32006 55000 55300 20000 60005 81710 83631 85356 90768 93100 91118 91212
AAXX 01064 06700 01261 73501 10052 20047 39737 40238 53001 69942 71522 875// 333 20044 32003 55000 55300 20004 60005 70073 81705 83715 86645 90768 93100 91106 91203
AAXX 01064 06680 01/01 92629 11017 21017 37508 47049 52004 60392 74574 333 21033 43390 55000 55300 20000 60015 90768 93130 91147 91231
AAXX 01064 06990 21456 81304 10049 20026 39670 40226 53004 6///2 76222 887// 333 20019 32000 55000 55300 20000 60005 88712 91112 91208
AAXX 01064 06760 32965 03301 10023 20000 39760 40220 52011 333 20013 31101 55035 55300 20000 90768 93100 91103 91203
AAXX 01064 06720 22365 70804 10020 20010 39663 40255 53005 6///2 876// 333 20011 43010 55000 55300 20000 60005 87707 90768 93100 91106 91204
BBXX BATFR19 01064 99067 30055 46/// /1513 10237 20189 40147 53019 22200 00255
BBXX A8KH9 01064 99073 30786 41/98 52715 10295 20248 40080 54000 70222 82/65 22214 20402 32026 41208 51006 80260
BBXX TBWUK42 01064 99082 30787 41598 73207 10305 20253 40103 52/// 70322 8//04 22213 20404 308// 40805 5//// 80268
BBXX VRDU8 01063 99138 31073 41498 71516 10315 20228 40107 57010 70222 877// 22283 04280 20603 80255
BBXX A8UU3 01064 99149 30021 41298 81615 10210 20188 40140 56010 7//22 8/7// 22233 2//// 314// 40502 80195
BBXX 3FMV6 01063 99185 30606 41598 31111 10290 20232 40097 51010 70200 83444 22213 06270 20101 80250
BBXX MIBR 01063 99188 30638 41497 41214 10270 20226 40117 51020 70200 84100 22254 00276 20301 31410 40604 50806 80240
BBXX BATFR08 01064 99252 30547 46/// /1215 10242 20167 40140 51003 22243 00265
BBXX DBBT 01061 99339 30184 46/// /9901 10149 20126 40156 52005 22270 00138
BBXX DBLK 01061 99434 30080 41497 32615 10091 20051 40005 52020 70282 83800 22213 04090 20504 326// 41008
BBXX SHIP 01064 99549 31100 41497 62934 10027 21008 49817 57031 70300 83454 22243 00025 11411 20404 32622 40708 50708 61000 85013
AAXX 01061 80022 31962 30301 10258 20220 30087 40089 70500 80001 333 56//9 59002 83070
AAXX 01061 80028 1460 60305 10266 20221 30063 40098 70521 83870 333 5619/ 59008 83815 83458
AAXX 01061 80112 31456 70000 10154 20144 37902 74022 85601 333 569/9 59005 85710 83070
AAXX 01061 80222 31465 23501 10093 20070 37515 70500 81501 333 569/9 59011 81617
AAXX 01061 80259 31560 62902 10207 20186 39038 70522 82530 333 5683/ 59007 82620 84360
AAXX 01061 55299 32880 22001 10017 21238 35866 57035 81402 333 05200 21170
AAXX 01061 55591 32680 71101 10046 21206 36545 57026 83102 333 05153 21062
AAXX 01061 56739 32580 20901 10199 20070 38365 57033 82400 333 05303 20036
AAXX 01061 56951 32780 11102 10217 20056 38510 57039 81400 333 05302 20054
AAXX 01061 56964 32580 61802 10216 20138 38721 40153 57033 86200 333 05251 20102
AAXX 01061 57328 31940 81801 10095 20041 39839 40258 57035 71000 8807/ 333 20031
AAXX 01061 57411 31940 80401 10080 20044 39885 40266 57036 71000 8807/ 333 20046
AAXX 01061 57447 32963 71601 10112 20035 39711 40264 57046 8703/ 333 20016
AAXX 01061 57662 31956 51402 10073 20037 30095 40284 57030 71040 85040 333 20013
AAXX 01061 57745 31950 80403 10104 20030 39932 40266 57030 71000 8807/ 333 20060
AAXX 01061 57972 11456 80201 10070 20066 30038 40270 57026 69901 76000 887// 333 20059
AAXX 01061 58203 31/08 93403 10026 21002 30275 40319 57027 74344 333 21036
AAXX 01061 58314 31958 80401 10055 20032 30193 40304 57024 71000 8807/ 333 21016
AAXX 01061 58424 31950 00404 10083 21002 30266 40292 57029 70540 333 20012
AAXX 01061 59023 31857 80701 10126 20058 39925 40240 57030 70500 885// 333 20101
AAXX 01061 59417 32560 80401 10155 20083 30061 40217 57040 888// 333 20120
AAXX 01061 59985 32580 40405 10253 20211 30157 40162 57033 84100 333 20228
AAXX 01061 59995 NIL
BBXX 46185 01061 99524 71298 46/// /1418 10064 40143 57007 22200 00071 10911 70057 333 91222
AAXX 01064 40250 32960 02006 10062 20025 39376 40177 52012 333 20024 300//
AAXX 01064 40265 31950 00000 10000 21005 39391 40211 52009 71022 333 21015 30103
AAXX 01064 40296 32660 42604 10116 20077 40182 52011 84100 333 20107 30008 84830
AAXX 01064 40310 32660 10000 10049 20005 38948 48487 52008 81100 333 20002 34104 81830
AAXX 01064 42314 31596 73204 10232 20115 40164 70522 82530 333 59023 82620 86360
AAXX 01064 42492 21494 80000 10180 20160 40170 76066 8452/ 333 59019 6002/ 84618 88458
AAXX 01064 42587 21494 70000 10200 20194 40174 76166 84530 333 59005 6003/ 84618 86360
AAXX 01064 42591 21494 73208 10192 20189 40176 76066 85530 333 59010 6001/ 85618 86360
AAXX 01064 42623 31595 20000 10220 20134 39274 40137 70510 82500 333 59020 82620
AAXX 01064 42701 31495 70902 10198 20163 39408 40139 70566 84530 333 59039 84615 87359
AAXX 01064 42706 31495 71801 10256 20146 40153 70562 85530 333 56390 59027 85615 85360
AAXX 01064 42724 31995 23202 10266 20116 40143 70511 82030 333 59030 82360
AAXX 01064 42798 31594 61402 10260 20170 40135 70422 84430 333 59036 83620 83825 86360
AAXX 01064 42809 31495 30202 10272 20111 40144 70500 81530 333 59030 81618 83360
AAXX 01064 42886 31995 70502 10244 20181 40147 71044 87030 333 59030 87360
AAXX 01064 42895 32996 30202 10292 20143 40145 83030 333 59029 83360
AAXX 01064 42971 31595 60503 10292 20148 40146 70510 81531 333 59019 81620 85360
AAXX 01064 43333 31495 70905 10290 20250 40122 70521 85408 333 56209 59008 82618 84820 87268
AAXX 01064 42309 NIL
AAXX 01064 42398 NIL
AAXX 01064 42410 NIL
AAXX 01064 42415 NIL
AAXX 01064 42977 NIL
AAXX 01064 43368 NIL
AAXX 01064 67755 NIL
AAXX 01064 67771 12480 60603 10222 20188 38/// 48/// 60014 81132 333 20199 5//// 81815 86360
AAXX 01064 67773 32480 50608 10228 20186 38/// 48/// 85501 333 20175 5//// 85616
AAXX 01064 67774 NIL
AAXX 01064 67785 NIL
AAXX 01064 67789 NIL
AAXX 01064 67855 NIL
AAXX 01064 67857 NIL
AAXX 01064 67863 12480 71202 10219 20202 38/// 48/// 60094 83530 333 20197 5//// 83610 84360
AAXX 01064 67871 NIL
AAXX 01064 67875 NIL
AAXX 01064 67891 NIL
AAXX 01064 67895 NIL
AAXX 01064 67897 NIL
AAXX 01064 67899 11375 70702 10191 20185 38/// 48/// 60414 75156 8567/ 333 20184 5//// 85705 87459
AAXX 01064 67951 NIL
AAXX 01064 67963 NIL
AAXX 01064 67967 NIL
AAXX 01064 67971 NIL
AAXX 01064 67976 32475 41708 10249 20208 38/// 48/// 81101 333 20195 5//// 81817 84080
AAXX 01064 67979 NIL
BBXX 46185 01061 99524 71298 46/// /1418 10064 40143 57007 22200 00071 10911 70057 333 91222
AAXX 01061 47008 42970 02301 11013 21080 30175 40231 57017
AAXX 01061 47014 42950 80000 11078 21170 39850 40271 53001 8804/
AAXX 01061 47016 11970 00000 11082 21171 39360 40266 57005 69901 70171
AAXX 01061 47020 12565 80000 11061 21115 39874 40267 58014 69901 885//
AAXX 01061 47025 12566 80000 10007 21016 30196 40226 57009 69931 86502
AAXX 01061 47035 42970 83602 11055 21171 30262 40271 57015 80007
AAXX 01061 47041 41560 80000 11019 21032 30183 40211 57003 77374 8802/
AAXX 01061 47055 42965 82301 10003 21059 30163 40210 57010 8805/
AAXX 01061 47058 11558 83202 11054 21075 30208 40257 58009 69901 71072 86502
AAXX 01061 47069 11556 52908 11030 21050 30144 40247 58008 69901 77072 85500
AAXX 01061 47090 32568 62708 10028 21119 30162 40185 56016 86500 333 92023
AAXX 01061 47095 41550 63203 11040 21066 30033 40230 55004 72272 86500
AAXX 01061 47097 329// /2706 10002 21121 30120 40219 55017
AAXX 01061 47098 329// /2908 11013 21099 30085 40224 55005
AAXX 01061 47099 329// /3209 11018 21108 30197 40235 55002
AAXX 01061 47100 41456 72712 11050 21090 39251 40198 55013 77177 85520
AAXX 01061 47102 31663 73213 11045 21093 30078 40265 55001 72682 87500
AAXX 01061 47104 32668 42309 10022 21113 30084 40183 55015 82530
AAXX 01061 47106 329// /2707 10039 21105 30132 40182 55015
AAXX 01061 47112 32667 53222 11011 21097 30147 40234 55007 85500 333 92036
AAXX 01061 47114 41520 82305 11018 21041 30025 40213 55014 77072 8572/
AAXX 01061 47119 32668 52908 11010 21086 30189 40232 55005 85500
AAXX 01061 47121 329// /2706 10007 21093 39900 40200 55023
AAXX 01061 47127 329// /2505 11011 21023 30073 40219 55013
AAXX 01061 47129 32670 52917 10007 21066 30211 40248 54000 85500
AAXX 01061 47130 32962 02311 10053 21089 30114 40176 57023 333 92034
AAXX 01061 47131 41515 82905 11014 21026 30159 40232 54000 77177 8672/
AAXX 01061 47135 329// /2705 11002 21022 39901 40207 57020
AAXX 01061 47136 31661 82908 10032 21067 30017 40191 57024 7//41 8551/
AAXX 01061 47137 329// /2907 10012 21044 30083 40204 55020
AAXX 01061 47140 41530 83215 11004 21019 30214 40244 53003 77176 8572/ 333 92014
AAXX 01061 47143 32660 72905 10037 21038 30125 40205 57021 87500
AAXX 01061 47145 41550 83207 11015 21030 30201 40228 55002 77077 8552/
AAXX 01061 47146 41530 82909 10006 21002 30163 40231 54000 76877 8572/
AAXX 01061 47150 41568 63204 10003 21045 30224 40244 53007 72272 86500
AAXX 01061 47152 32665 53204 10074 21037 30142 40185 57025 85500
AAXX 01061 47154 329// /2705 10022 21027 30143 40204 57018
AAXX 01061 47155 31657 63605 10077 21023 30147 40193 57024 70522 86500
AAXX 01061 47156 41659 72907 10029 21003 30143 40234 55006 72162 87500
AAXX 01061 47157 31658 72507 10025 21009 39916 40189 57018 71022 87500
AAXX 01061 47162 31550 53608 10062 21005 30160 40200 57024 70522 85500 333 92023
AAXX 01061 47169 41650 83626 10037 21001 30143 40239 56010 72162 8552/ 333 92057
AAXX 01061 47170 41550 83410 10037 21001 30187 40231 55010 76062 8472/ 333 92023
AAXX 01061 47171 429// /3205 10004 21015 30186 40243 53007
AAXX 01061 47172 429// /3210 10020 21014 30167 40235 53003
AAXX 01061 47173 429// /2002 10019 20002 30108 40221 57015
AAXX 01061 47174 41630 82908 10026 21006 30009 40214 56015 72166 8452/
AAXX 01061 47175 41530 83219 11003 21011 39644 40232 55011 77072 8572/ 333 92025
AAXX 01061 47185 41650 63227 10080 20015 30137 40228 57019 70522 86500 333 92047
AAXX 01061 47188 31650 63207 10079 20008 30204 40226 55017 70522 86500 333 92023
AAXX 01061 47189 31658 63207 10086 20000 30164 40224 55007 70522 86500 333 92033
AAXX 01061 47192 31658 62705 10055 21016 30163 40201 57022 70522 86500
AAXX 01061 47003 42980 13203 11049 21144 30247 40251 57001 80001
AAXX 01061 47005 11580 80501 11108 21161 38574 57004 69901 70371 82502
AAXX 01061 47022 42475 80000 11079 21130 38797 57011 81502
AAXX 01061 47028 42963 50201 11051 21141 30176 40276 58001 80002
AAXX 01061 47031 41960 80000 11107 21120 38901 57013 77172 80002
AAXX 01061 47037 42970 03604 11052 21149 30137 40265 57004
AAXX 01061 47039 12560 80000 11029 21071 30043 40240 57009 69911 885//
AAXX 01061 47046 11550 80504 10001 21045 30179 40202 57012 60011 71072 82532
AAXX 01061 47050 12565 43205 11040 21108 30215 40250 57007 69911 84500
AAXX 01061 47052 11565 83203 11056 21090 39873 40225 57019 69901 70372 885//
AAXX 01061 47060 11560 83203 11056 21086 30197 40258 58007 69901 77177 8802/
AAXX 01061 47061 42980 80000 10021 21067 30158 40202 57015 8807/
AAXX 01061 47065 41550 83205 11065 21106 30189 40258 58006 71022 885//
AAXX 01061 47067 41550 83203 11044 21071 30131 40256 57014 71022 885//
AAXX 01061 47068 11560 83206 11046 21098 30214 40251 58005 69901 77272 885//
AAXX 01061 47070 41960 82906 11029 21096 30146 40237 57010 71022 80001
AAXX 01061 47075 11560 82703 11054 21079 39719 40161 57003 69921 77072 8802/
AAXX 01061 47101 31557 82506 11002 21091 30112 40210 56018 70522 8552/
AAXX 01061 47105 369// /2507 10029 21081 30154 40187 55013
AAXX 01061 47108 41658 52911 11020 21105 30118 40228 55008 77072 85500
AAXX 01061 47115 41565 73206 10036 21027 39890 40164 57024 78388 87800 333 92042
AAXX 01061 47133 41525 83205 10000 21017 30144 40232 55003 77177 8572/
AAXX 01061 47138 31559 22505 10071 21046 30183 40186 57024 70500 81500 333 92022
AAXX 01061 47159 31658 42709 10076 21027 30107 40192 57026 70522 84500 333 92023
AAXX 01061 47165 41662 83417 10038 21009 30188 40236 55002 72162 8452/ 333 92035
AAXX 01061 47168 31657 82914 10049 21011 30130 40210 55019 70522 8552/ 333 92024
AAXX 01061 47184 31656 73217 10080 21005 30208 40233 56017 70522 87500 333 92045
AAXX 01061 24790 41999 30000 11470 21489 39437 40410 57003 77670 80001
AAXX 01061 24988 42999 60000 11332 21362 39970 40254 57001 80001
AAXX 01061 25378 32998 01902 11282 21320 30168 40205 53001 333 11279 91103
AAXX 01061 25503 42999 01102 11444 21469 30166 40317 53001
AAXX 01061 25705 41996 60000 11455 21476 39937 40331 53002 71022 81031
AAXX 01061 25927 42698 23102 11275 21293 30236 40244 53010 81509
AAXX 01061 25932 42999 03101 11209 20176 30176 40218 57001
AAXX 01061 31152 42998 80000 11353 21390 39863 40322 57014 84036
AAXX 01061 31174 42999 02001 11177 21196 30252 40265 57009
AAXX 01061 31489 42998 00000 11225 21265 30157 40284 57006
AAXX 01061 31866 42599 60505 11073 21127 30207 40213 55007 82101
AAXX 01061 31959 42999 22804 11047 21153 30153 40197 57011 80002
AAXX 01061 31989 42999 01203 11031 21112 30137 40192 56011
AAXX 01061 32027 41597 83606 11159 21178 30239 40248 57002 73682 889// 333 91008 91110
AAXX 01061 32076 41440 80801 11136 21149 30210 40221 53002 78582 889// 333 91002 91102
AAXX 01061 32099 42498 80204 11076 21089 30206 40214 57005 886// 333 91005 91107
AAXX 01061 32121 41493 80505 11059 21082 30168 40191 57009 78682 889// 333 91006 91108
AAXX 01061 32213 42999 63209 11042 21101 30137 40202 53014 80007 333 91012 91112
AAXX 01061 32287 42599 71203 11139 21152 30201 40212 54000 70282 86430 333 86627
AAXX 01061 32408 42999 20301 11258 21283 30158 40201 53004 82031
AAXX 01061 32509 42999 23105 11085 21183 30154 40190 53005 80001
AAXX 01061 32594 42999 80604 11071 21151 50170 40207 53007 82032
BBXX NIL
BBXX NIL
BBXX VRFO7 01064 99281 70455 41698 41416 10220 20172 40300 57010 70311 81442 22254 20404 333// 40606 80190
AAXX 01064 40255 32660 30000 10088 20034 39456 40179 52006 83830 333 20070 30002 70003 81830 83735
AAXX 01064 40260 31910 00000 10034 20029 39383 40178 52014 74000 333 20011 30102
AAXX 01064 40270 31540 12404 10050 20016 39268 40181 52007 70500 81100 333 20048 30102 81830
AAXX 01064 40272 NIL
AAXX 01064 40290 NIL
AAXX 01064 40340 32960 00000 10100 20038 40192 52010 333 20075 30004
BBXX NIL
BBXX DMQN 01064 99004 70311 41/97 /0515 10245 20224 40120 54000 70082 8//// 22243 04280 20402 3//// 4//// 5//// 80230
BBXX NIL
BBXX NIL
AAXX 01063 41150 41958 01907 10188 20131 40207 70500 333 20163 30013 59039
AAXX 01064 40250 32960 02006 10062 20025 39376 40177 52012 333 20024 300//
AAXX 01064 40265 31950 00000 10000 21005 39391 40211 52009 71022 333 21015 30103
AAXX 01064 40296 32660 42604 10116 20077 40182 52011 84100 333 20107 30008 84830
AAXX 01064 40310 32660 10000 10049 20005 38948 48487 52008 81100 333 20002 34104 81830
AAXX 01061 80022 31962 30301 10258 20220 30087 40089 70500 80001 333 56//9 59002 83070
AAXX 01061 80028 1460 60305 10266 20221 30063 40098 70521 83870 333 5619/ 59008 83815 83458
AAXX 01061 80112 31456 70000 10154 20144 37902 74022 85601 333 569/9 59005 85710 83070
AAXX 01061 80222 31465 23501 10093 20070 37515 70500 81501 333 569/9 59011 81617
AAXX 01061 80259 31560 62902 10207 20186 39038 70522 82530 333 5683/ 59007 82620 84360
AAXX 01061 23973 41597 82003 11081 21087 30279 40344 52005 78582 889//
AAXX 01061 23975 41598 82502 11063 21075 30231 40344 52003 78587 889//
AAXX 01061 23986 41598 71703 11112 21125 39683 40346 51001 78582 84331
AAXX 01061 23987 41496 71202 11076 21090 30275 40351 51004 78582 87900
AAXX 01061 24606 41699 80000 11109 21137 39966 40242 52005 70272 82532
AAXX 01061 29253 41997 82302 11072 21102 30198 40377 52009 77172 8807/
AAXX 01061 29471 41496 82601 11064 21084 30164 40400 52008 78582 889// 333 88919
AAXX 01061 29481 41997 80000 11079 21097 30143 40392 52004 77187 8802/
AAXX 01061 29553 41538 82503 11079 21106 30032 52004 78587 889//
AAXX 01061 29562 41596 82502 11073 21090 39981 40414 52006 78582 889//
AAXX 01061 29581 41998 72803 11067 21104 30136 40403 52006 72272 8707/
AAXX 01061 29594 42599 62502 11079 21106 39997 40399 52005 83906
AAXX 01061 29653 42598 70902 11078 21118 39913 40419 52001 87500
AAXX 01061 29675 41898 82401 11070 21113 39811 40425 52011 70272 8805/
AAXX 01061 29676 41696 83003 11055 21116 39964 40401 52003 77072 885//
AAXX 01061 29752 41497 82407 11132 21145 38932 48563 52002 78583 8393/ 333 91114
AAXX 01061 29759 41599 82104 11097 21138 39351 40424 58003 78583 8295/ 333 91112
AAXX 01061 29766 42899 70000 11130 21143 30072 40451 51001 87050
AAXX 01061 29789 42999 80000 11122 21149 39178 40423 52004 80007
AAXX 01061 29864 42999 60000 11111 21147 39752 40439 58003 82041
AAXX 01061 29866 42899 70000 11054 21096 30095 40427 58002 87070
AAXX 01061 29869 42698 73101 11035 21100 30053 40437 58002 82531 333 95030
AAXX 01061 29956 42999 32502 11060 21113 39871 40453 58005 83030
AAXX 01061 30337 41596 70000 11134 21154 39891 40364 58002 78582 86931
AAXX 01061 30405 41998 42502 11104 21117 39840 40393 54000 70271 81041
AAXX 01061 30504 41998 82901 11107 21113 39727 40407 54000 77172 84037
AAXX 01061 30603 41596 80000 11143 21149 39804 40411 58004 71082 82908
AAXX 01061 30612 42599 61203 11228 21240 39849 40436 58002 82945
AAXX 01061 30622 42698 62101 11197 21230 39707 40405 58003 82903
AAXX 01061 30627 41997 11901 11166 21179 39414 40408 52003 77671 80001
AAXX 01061 30703 41999 80000 11092 21103 39706 40408 58001 70172 82077
AAXX 01061 36307 42999 62701 11273 21320 39134 48610 51002 80002
AAXX 01061 23074 41497 72203 11156 21175 30192 40218 52020 72681 82930
AAXX 01061 23274 42698 71704 11157 21176 30221 40259 52017 85530 333 85646
AAXX 01061 23383 41598 82302 11141 21176 39885 40254 52015 70272 86507
AAXX 01061 23472 41497 81803 11138 21158 30234 40285 52013 78582 889//
AAXX 01061 23678 41598 81301 11097 21114 30246 40306 52005 70282 889//
AAXX 01061 23884 41567 82301 11086 21097 30261 40338 52008 77172 86506
AAXX 01061 23891 41597 72003 11104 21124 39977 52008 78587 86930
AAXX 01061 24507 42698 63401 11177 21196 39997 40255 52013 83531
AAXX 01061 24817 41599 81702 11118 21131 39890 40272 58001 70182 82441
AAXX 01061 24908 41563 82101 11123 21136 39961 40305 52004 78587 84937
AAXX 01061 29263 41596 72304 11071 21100 30271 40376 52009 78582 82932
AAXX 01061 29282 41997 82504 11067 21109 30190 40366 52021 77072 8807/
AAXX 01061 29379 41998 82703 11086 21110 30177 40396 52007 70272 83041
AAXX 01061 29570 41598 72502 11061 21088 30048 40408 52004 78582 87900
AAXX 01061 29698 42998 60000 11150 21183 39872 70422 52004 82041
AAXX 01061 30230 41599 80000 11151 21178 39992 40339 58007 72682 83941
AAXX 01061 30252 41997 80901 11271 21295 30052 40404 58002 77172 8805/
AAXX 01061 30309 41599 81601 11110 21123 39830 40376 50003 70272 82536
AAXX 01061 30328 41995 80000 11142 21162 39933 40385 58002 77387 8801/
AAXX 01061 30521 41597 30000 11191 21210 39839 40406 58001 70281 83900
AAXX 01061 30710 41596 80000 11098 21114 39796 40407 58006 78582 889//
AAXX 01064 71525 16/// /2902 11076 21076 60001 333 11002 21089 70011 555 32622 40081
AAXX 01064 71535 16/// /2603 11091 21099 60001 333 10021 21105 70000 555 32927 40141
AAXX 01064 71536 16/// /2203 11103 21139 60001 333 10023 21103 70000 555 32736 40003
AAXX 01064 71537 16/// /2403 11123 21145 60001 333 11004 21123 70000 555 33320 40131
AAXX 01064 71351 16/// /2705 11089 21157 60001 333 11027 21089 70005 555 33227 40191
AAXX 01064 71353 17/// /3206 11106 21209 69951 7//4/ 333 11029 21124 70005 555 33225 40121
AAXX 01064 71375 46/// /0517 11056 6///1 333 11052 21129 7//// 555 30729 40002
AAXX 01064 71385 46/// /3614 11039 6///1 333 7////
AAXX 01064 71445 16/// /3231 11066 21080 39798 40077 53029 60001 333 11018 21066 70009 555 33238 40063
AAXX 01064 71916 46/// /0000 11369 21404 30201 40261 51014 6///1 333 7////
AAXX 01064 71683 46/// /2204 11259 30079 40196 53010 6///1 333 11248 21282 7////
AAXX 01064 71214 16/// /2912 11092 21154 60001 333 11030 21093 70004 555 33134 40213
AAXX 01064 71223 16/// /2814 11118 21170 60001 333 11038 21124 70000 555 33030 40222
AAXX 01064 71225 16/// /1903 11116 21125 60001 333 10028 21120 70000 555 32935 40143
AAXX 01064 71227 46/// /2610 11107 21157 6///1 333 11035 21114 7//// 555 33135 40203
AAXX 01064 71464 46/// ///16 10043 39943 40157 58014 6///1 333 10073 20034 7////
AAXX 01064 71466 46/// ///// 6///1 333 7////
AAXX 01064 71257 17/// /2408 11160 21197 69941 7//4/ 333 11023 21160 70015 555 33524 40131
AAXX 01064 71258 17/// /2307 11144 21202 69961 7//4/ 333 11016 21152 70006 555 33228 40132
AAXX 01064 71259 16/// /2909 11132 21171 60001 333 11011 21141 70000 555 33326 40151
AAXX 01064 71274 16/// /2804 11115 21167 60001 333 11038 21117 70000 555 33232 40222
AAXX 01064 71275 46/// /2608 11127 21170 6///1 333 11039 21127 7//// 555 32727 40221
AAXX 01064 71278 16/// /2907 11101 21152 60001 333 11032 21108 70000 555 33030 40222
AAXX 01064 71286 16/// /2708 11104 21154 60001 333 11036 21119 70000 555 33031 40222
AAXX 01064 71287 16/// /2605 11124 21165 60001 333 11029 21125 70000 555 33032 40202
AAXX 01064 71289 16/// /2608 11136 21179 60001 333 11022 21137 70000 555 33126 40211
AAXX 01064 71345 16/// /3206 11092 21118 60001 333 10021 21092 7////
AAXX 01064 60650 36/// /0000 10032 21071 333 20024
BBXX VRFO7 01064 99281 70455 41698 41416 10220 20172 40300 57010 70311 81442 22254 20404 333// 40606 80190
BBXX PCSV 01063 99280 30060 41598 62010 10178 20132 40214 50/// 70211 86500 22273 04187 20602 322// 41004 80150
BBXX A8ME3 01060 99187 11172 41498 60213 10260 20201 40150 56025 70211 8/51/ 22213 04240 20505 302// 41207 5////
BBXX ELWD5 01063 99050 10985 41697 70310 10265 20213 40100 58010 7//22 8/32/ 22214 2//01 80230
BBXX A8IM7 01064 99342 71286 41598 61810 10150 20116 40230 52020 70322 8/300 22224 20201 328// 40504 5//// 80130
AAXX 01064 61600 32960 00606 10139 20017 30179 40184 333 20135 50694 55052 59003
AAXX 01064 61612 32960 30404 10126 21026 30184 40192 80002 333 01400 20120 50581 55036 59012 83073
AAXX 01064 61627 32958 30404 10155 21004 3//// 4//// 83030 333 00600 20140 50854 55045 5//// 83363
AAXX 01064 61630 32956 00804 10146 20005 30151 40171 333 01300 20140 50572 55043 59026
AAXX 01064 61641 31948 70417 10187 20088 30139 40172 70622 83032 333 01700 20185 50894 55027 59005 83363 86073
AAXX 01064 61666 32958 60404 10166 21018 30162 40171 80002 333 01400 20128 50484 55037 59008 86073
AAXX 01064 61679 32958 03610 10160 20095 30163 40171 333 01700 20160 50794 55032 59009
AAXX 01064 61687 31940 20406 10168 21038 30098 40156 70600 80002 333 01200 20145 50931 55062 59016 82073
AAXX 01064 61695 32960 03604 10168 20031 30126 40153 333 01700 20165 50454 55047 59003
AAXX 01064 61697 31940 20212 10175 20017 30166 40150 70600 80002 333 01700 20174 50694 55051 59002 82072
AAXX 01064 61698 32958 60604 10182 21013 30137 40148 84072 333 01500 20180 50824 55015 59018 84363 85073
AAXX 01064 61699 32958 51006 10148 20041 39947 40140 80002 333 01200 20138 50604 55044 58001 85073
AAXX 01064 60679 36/// /0602 10042 21350 333 20012
BBXX DMQN 01064 99004 70311 41/97 /0515 10245 20224 40120 54000 70082 8//// 22243 04280 20402 3//// 4//// 5//// 80230
AAXX 01061 51711 32980 02505 11060 21160 38090 57016 333 00153 21151
AAXX 01061 51730 32970 00202 11022 21115 40441 57012 333 00251 21176
AAXX 01061 52112 32980 03207 11008 21151 40420 57021 333 00006 21107
AAXX 01061 52737 32980 01401 11059 21253 37115 57024 333 00257 21197
AAXX 01061 52787 32980 03408 11099 21188 37029 57022 333 05159 21160
AAXX 01061 53352 32680 72504 11036 21168 40342 57031 82502 333 21219
AAXX 01061 53593 32970 70701 11021 21162 40342 57036 80002 333 21157
AAXX 01061 53705 32965 02905 10005 21163 40364 57024 333 00251 21100
AAXX 01061 53863 31957 52701 10016 21077 40331 57043 70500 80002 333 21107
AAXX 01061 53975 32966 00000 10023 21076 40319 57037 333 21065
AAXX 01061 54273 32661 72204 11141 21189 40329 57003 875// 333 21253
AAXX 01061 54324 32970 00203 11055 21207 40350 57021 333 21179
AAXX 01061 54405 32980 72502 10001 21163 40329 57030 80002 333 21114
AAXX 01061 54436 32980 02001 11008 21179 40342 57021 333 21117
AAXX 01061 54808 32961 80202 10012 21031 40332 57026 80007 333 21010
AAXX 01061 54826 32960 03602 11047 21133 38512 57012 333 21091
AAXX 01061 54836 32970 03202 10038 21135 40324 57017 333 21035
AAXX 01061 54863 11562 73406 11002 21081 40317 57006 69901 70080 874// 333 21023
AAXX 01061 56018 32980 22705 10057 21225 36180 57042 80002 333 05309 21157
AAXX 01061 56021 32580 12507 10034 21243 36071 57032 81100 333 05308 21206
AAXX 01061 57071 31/00 90702 11018 21019 40326 57026 74944 333 21037
AAXX 01064 63729 32480 10000 10214 20168 38895 48/// 81930 333 20179 50341 55032 55310 58001 81619 81921
AAXX 01064 63733 32580 30000 10227 20193 38893 48534 81931 333 20174 50131 55015 55305 58010 81921 83359
AAXX 01064 63756 12480 71205 10204 20176 38897 69954 8194 333 1//19 20175 50301 55049 58003 81920 87360
AAXX 01064 63791 32580 20610 10260 20150 39151 48538 82200 333 20184 50851 55098 55310 58000 82824
AAXX 01064 63801 01480 70000 10208 20202 39235 48529 60224 76166 8192/ 333 0//91 20190 50181 55000 55300 58004 60017 81818 81919 87458
AAXX 01064 63862 12580 60000 10226 20183 38927 48543 60024 81471 333 0//58 20193 50701 55075 55308 58004 70020 81620 86358
AAXX 01064 63866 32580 40000 10255 20219 39535 48/// 84500 20226 50651 55112 55303 58000 84620
AAXX 01064 63881 12480 70000 10168 20156 38220 48/// 60254 83970 333 0//93 20146 50351 55011 55300 59001 83617 81919 85356
AAXX 01064 63887 12480 20000 10223 20164 38612 48535 60034 81130 333 20175 50551 55056 55310 58000 70030 81819
AAXX 01064 63932 12580 60810 10180 20165 38330 48528 60084 8223/ 333 20155 50011 55000 55300 58000 82822 85359
AAXX 01064 63832 NIL
AAXX 01064 63870 NIL
AAXX 01064 63894 NIL
AAXX 01064 63962 NIL
AAXX 01064 63971 NIL
AAXX 01063 42071 31995 03206 10154 20092 40173 70540 333 59037 90555
AAXX 01064 42027 31995 00702 10036 21049 38454 48541 70500 333 59028
AAXX 01064 42101 31995 20000 10164 20091 40158 70500 80001 333 59047 82070
AAXX 01064 42111 31595 72702 10150 20073 39382 40162 70500 87570 333 59045 84628 86460 85364
AAXX 01064 42131 31994 02702 10174 20094 40170 71000 333 59038
AAXX 01064 42165 31994 00501 10152 20090 40180 70500 333 59011
AAXX 01064 42182 31694 50904 10180 20138 40159 70412 83530 333 59042 83640 85360
AAXX 01064 42189 21595 80504 10152 20141 40153 70596 8672/ 333 5669/ 59047 6011/ 86620 88460
AAXX 01064 42328 31995 00203 10168 20005 40188 70500 333 59003
AAXX 01064 42339 31994 70503 10164 20086 40169 70500 80001 333 59017 87070
AAXX 01064 42348 31694 50905 10170 20127 40159 71022 83530 333 59024 83635 83360
AAXX 01064 42361 21494 80502 10148 20145 40155 79596 8692/ 333 5619/ 59033 6004/ 86710 86615 81930 88458
AAXX 01064 42369 21494 80505 10158 20155 40170 79196 8632/ 333 59024 6007/ 85615 81930 88458
AAXX 01064 42379 21595 80902 10160 20124 40164 76062 8652/ 333 5669/ 59027 6001/ 86625 88458
AAXX 01064 42452 31/93 90204 10162 20148 40154 74444 89/// 333 59022
AAXX 01064 42475 21594 80000 10174 20167 40158 71062 8652/ 333 59026 6010/ 86625 88458
AAXX 01064 42071 NIL
AAXX 01064 42260 NIL
AAXX 01061 38954 32999 00000 11049 21127 37978 48570 52007 333 21004
AAXX 01061 38836 31994 00000 10014 21034 39281 40240 53001 71000 333 21050
AAXX 01064 68513 36/// /0911 10180 20116 30044 40156 53003 333 20122 91015 555 10242 91015
AAXX 01064 68514 32/// /1805 10196 20026 39686 48545 52008 333 20136 91008 555 10358 91016
AAXX 01064 68523 NIL
AAXX 01064 68527 36/// /0704 10250 20127 39061 48511 53008 333 20204 91006 555 10351 91015
AAXX 01064 68572 11984 01902 10220 20121 38391 48497 50000 60254 70255 333 20075 91003 555 10237 20254 91018
AAXX 01064 68575 16/// /1102 10193 20163 39075 48502 51002 60254 333 20138 91004 555 10233 20254 91015
AAXX 01064 68581 16/// /0903 10232 20170 39353 48513 51000 60064 333 20157 91005 555 10260 20060 91013
AAXX 01064 68583 16/// /3602 10257 20212 30002 40110 51005 60024 333 20209 91003 555 10282 20026 91011
AAXX 01064 68589 16/// /0604 10186 20119 38253 48511 51000 60024 333 20105 91008 555 10233 20028 91021
AAXX 01064 68613 36/// /2002 10168 20122 30056 40172 53003 333 20112 91005 555 10227 91017
AAXX 01064 68647 36/// /2704 10171 20134 38910 48506 52007 333 20130 91007 555 10199 91017
AAXX 01064 68651 36/// /2506 10161 20121 38556 48518 53003 333 20127 91010 555 10184 91020
AAXX 01064 68715 NIL
AAXX 01064 68717 36/// /2502 10171 20118 30016 40160 53002 333 20132 91004 555 10316 91016
AAXX 01064 68723 36/// /0000 10213 20103 39391 48527 53003 333 20153 91002 555 10320 91015
AAXX 01064 68737 NIL
AAXX 01064 68744 NIL
AAXX 01064 68747 NIL
AAXX 01064 68754 16/// /1302 10223 20152 39121 48516 52006 60044 333 20134 91004 555 10226 20040 91015
AAXX 01064 68817 36/// /0404 10184 20124 30148 40161 52003 333 20151 91006 555 10268 91016
AAXX 01064 68821 36/// /0102 10188 20119 39898 40136 50000 333 20135 91005 555 10320 91014
AAXX 01064 68835 NIL
AAXX 01064 68843 NIL
AAXX 01064 68849 NIL
AAXX 01064 68912 NIL
AAXX 01064 68918 36/// /2909 10200 20121 30130 40148 53002 333 20179 91016 555 10223 91014
AAXX 01064 68921 NIL
AAXX 01064 68925 NIL
AAXX 01064 68926 32270 22904 10204 20127 39960 40137 58002 82500 333 20135 91009 555 10280 91014
AAXX 01064 68935 36/// /2802 10214 20144 30071 40134 52006 333 20141 91005 555 10252 91013
BBXX 2ALE5 01063 99170 70177 41697 40825 10200 20060 40189 57008 70311 845// 22243 20607 80130
BBXX A8RV9 01064 99165 50184 41398 60622 10215 20161 40160 53010 70300 8/77/ 22234 20604 312// 40804 5//// 80180
AAXX 01064 60340 32970 02005 10043 20018 40296 58002 333 20028
BBXX MGGK4 01060 99504 10002 41/98 82413 10100 20100 40098 50/// 70244 8//// 22255 00119 2//// 3//// 4//// 5//// 80100
BBXX A8ZP9 01063 99288 30355 41597 40908 10250 40145 58005 70211 82144 22264 00260 20100 3//// 4//// 5////
BBXX 2AJI3 01063 99037 10055 41498 70000 10265 20244 40116 52/// 70311 8417/ 22263 00290 20000 300// 4//// 5//// 80250
BBXX A8SF7 01061 99181 51273 41598 20303 10250 20204 40170 54000 70200 821// 22254 04240 20501 311// 41003 5//// 80220
BBXX DCAX2 01063 99226 51460 41596 63615 10271 20229 40161 52011 70322 85341 22233 20904 332// 41005 5//// 80241
BBXX A8EH3 01063 99366 11422 41297 81733 10090 40180 56030 79497 887// 22244 04120 29904 335// 40805
BBXX A8VL5 01064 99514 10027 41397 82227 10100 20100 40190 54000 76062 887// 22200 00120 20404 30000 80100
BBXX A8CS2 01063 99129 10486 41498 30910 10240 20210 40190 52005 70211 82140 22224 21201 3//// 4//// 5//// 80220
AAXX 01064 68523 NIL
AAXX 01064 68715 NIL
AAXX 01064 68737 NIL
AAXX 01064 68744 NIL
AAXX 01064 68747 NIL
AAXX 01064 68835 NIL
AAXX 01064 68843 NIL
AAXX 01064 68849 NIL
AAXX 01064 68912 NIL
AAXX 01064 68921 NIL
AAXX 01064 68925 NIL
AAXX 01061 50548 32977 10000 11176 21251 40345 57019 80002 333 21322
AAXX 01061 50564 32962 20000 11178 21223 40334 57011 80002 333 21330
AAXX 01061 51334 11770 72001 11089 21111 40463 57016 69901 77077 875// 333 05357 21144
AAXX 01061 51818 32965 03403 11038 21104 40432 57012 333 00252 21144
AAXX 01061 52378 32980 02711 11032 21183 40379 57025 333 00001 21110
AAXX 01061 53487 32960 73401 11024 21145 40337 57036 82032 333 21163
AAXX 01061 53502 32980 12507 11005 21172 40369 57030 80002 333 00101 21156
AAXX 01061 53923 32980 03202 10020 21090 40309 57028 333 21043
AAXX 01061 54049 32970 03404 11123 21226 40350 57007 333 21226
AAXX 01061 54115 32978 30901 11082 21191 40355 57023 80002 333 21184
AAXX 01061 54157 32968 03203 11117 21213 40347 57011 333 21192
AAXX 01061 54186 32565 43205 11120 21199 40287 57005 84100 333 21205
AAXX 01061 54311 32980 22901 11060 21220 40348 57026 80002 333 21179
AAXX 01061 54346 11962 03402 11109 21200 40343 57006 69901 70070 333 21152
AAXX 01061 54377 32662 23602 11058 21151 40285 52006 82500 333 21129
AAXX 01061 54386 11970 02504 11087 21180 40261 57008 69911 70070 333 21202
AAXX 01061 54493 32966 00204 11073 21192 40297 57002 333 21145
AAXX 01061 54587 NIL
AAXX 01061 54715 31961 01102 10007 21051 40340 57024 70040 333 21070
AAXX 01061 54929 32965 01801 10066 21067 40317 57021 333 21028
AAXX 01061 54945 32960 23205 10028 21053 40324 57013 80002 333 21010
AAXX 01061 56065 32980 13205 11006 21248 36608 57031 80002 333 05300 21188
AAXX 01061 57193 31618 83202 10014 21001 40323 57024 71040 885// 333 21002
AAXX 01061 57290 31950 83601 10009 21012 40319 57029 71040 8802/ 333 21013
AAXX 01064 68174 11470 40905 10178 20145 38808 48530 52010 69954 70500 81571 333 20158 91010 555 10296 20005 91020
AAXX 01064 68191 16/// /3304 10253 20183 39642 48552 57007 69964 333 20196 91007 555 10334 20006 91015
AAXX 01064 68242 32980 00315 10213 20130 38725 48506 53008 333 20143 91019 555 10298 91017
AAXX 01064 68262 16/// /3102 10215 20135 38714 48523 55000 69984 333 20164 91004 555 10269 20008 91019
AAXX 01064 68263 12980 02904 10189 20127 38495 48520 55000 60064 333 20140 91006 555 10250 20061 91020
AAXX 01064 68267 12870 23510 10175 20128 38251 48522 50000 60084 81031 333 20131 91012 555 10204 20089 91022
AAXX 01064 68289 16/// /1002 10191 20169 39154 48523 58002 60114 333 20178 91021 555 10261 20110 91017
AAXX 01064 68350 16/// /0411 10225 20149 38674 48526 52011 69964 333 20155 91019 555 10338 20006 91020
AAXX 01064 68368 12770 13610 10187 20134 38331 48528 53005 60321 81070 333 20122 555 10225 20320 91022
AAXX 01064 68403 36/// /2007 10170 20123 30147 40180 53004 333 20131 91010 555 10238 91018
AAXX 01064 68424 32982 02006 10214 21037 39192 48517 52010 333 20137 91008 555 10359 91015
AAXX 01064 68438 32982 00000 10211 20112 38804 48500 52006 333 20129 91007 555 10345 91016
AAXX 01064 68442 32982 00312 10198 20128 38658 48511 52005 333 20132 91018 555 10327 91018
AAXX 01064 68461 12480 30504 10163 20125 38336 48522 53006 60034 81509 333 20125 91006 555 10262 20030 91021
AAXX 01064 68512 32982 01603 10181 21015 39026 48522 52006 333 20123 91005 555 10260 91018
AAXX 01064 68538 32982 01009 10214 20134 38717 48504 53008 333 20153 91011 555 10316 91017
AAXX 01064 68587 16/// /0306 10247 20206 30088 40100 58005 60124 333 20202 91014 555 10256 20128 91010
AAXX 01064 68588 16/// /3202 10273 20212 30104 40120 51005 60034 333 20199 91005 555 10274 20030 91012
AAXX 01064 68591 16/// /0208 10239 20207 39935 40112 58002 60074 333 20191 91014 555 10243 20074 91011
AAXX 01064 68592 NIL
AAXX 01064 68618 32980 00802 10183 20062 39056 48522 52006 333 20085 91004 555 10302 91018
AAXX 01064 68633 36/// /3404 10199 20104 38507 48502 53007 333 20125 91006 555 10271 91018
AAXX 01064 68668 12470 71502 10188 20160 39281 48507 53003 69944 876// 333 20157 91004 555 10213 20004 91014
AAXX 01064 68714 36/// /2009 10185 20111 30122 40158 52004 333 20114 91013 555 10258 91015
AAXX 01064 68727 36/// /1603 10194 20134 39119 48506 52006 333 20153 91005 555 10293 91015
AAXX 01064 68752 16/// /2508 10198 20176 39447 48509 53002 69944 333 20151 91011 555 10216 20004 91013
AAXX 01064 68816 32675 13205 10185 20129 30102 40156 52005 81500 333 20138 91008 555 10240 91015
AAXX 01064 68828 32470 13007 10186 20146 39904 40135 52006 81500 333 20135 555 10228 91013
AAXX 01064 68842 32580 12416 10211 20154 30053 40122 52001 81500 333 20144 555 10245 91012
AAXX 01064 68858 NIL
AAXX 01064 68906 12598 42710 10137 20041 30077 40141 51002 69934 81572 222// 00132 333 20113 91026 555 10191 20003 91014
AAXX 01064 68994 11294 83223 10085 20080 39931 49959 58016 60044 75155 886// 222// 00074 306// 333 20070 91032 555 10111 20042 69985 90995
AAXX 01064 89004 36/// /0914 11083 21099 38939 49964 52005 333 21112 91016 555 11067 90989
BBXX 46206 01061 99488 71260 46/// /1213 10067 40219 52001 22200 00081 10605 70027 333 91216
AAXX 01064 67991 32780 51302 10262 20182 39596 48579 81102 333 20226 58012 81850 85080
BBXX 46206 01061 99488 71260 46/// /1213 10067 40219 52001 22200 00081 10605 70027 333 91216
AAXX 01064 68592 NIL
AAXX 01064 68858 NIL
BBXX PCSV 01063 99280 30060 41598 62010 10178 20132 40214 50/// 70211 86500 22273 04187 20602 322// 41004 80150
BBXX A8CS2 01063 99129 10486 41498 30910 10240 20210 40190 52005 70211 82140 22224 21201 3//// 4//// 5//// 80220
BBXX A8RV9 01064 99165 50184 41398 60622 10215 20161 40160 53010 70300 8/77/ 22234 20604 312// 40804 5//// 80180
BBXX 2ALE5 01063 99170 70177 41697 40825 10200 20060 40189 57008 70311 845// 22243 20607 80130
BBXX A8ZP9 01063 99288 30355 41597 40908 10250 40145 58005 70211 82144 22264 00260 20100 3//// 4//// 5////
BBXX 2AJI3 01063 99037 10055 41498 70000 10265 20244 40116 52/// 70311 8417/ 22263 00290 20000 300// 4//// 5//// 80250
AAXX 01064 61017 NIL
AAXX 01064 61024 31958 31017 10160 21080 39596 40169 7070/ 80002 333 01300 20157 52111 55/// 58009 83080
AAXX 01064 61036 NIL
AAXX 01064 61043 NIL
AAXX 01064 61045 NIL
AAXX 01064 61049 NIL
AAXX 01064 61052 31956 50804 10188 20009 39886 40144 70611 80002 333 01500 20174 50891 55108 59005 85080
AAXX 01064 61075 NIL
AAXX 01064 61080 NIL
AAXX 01064 61090 NIL
AAXX 01064 61091 NIL
AAXX 01064 61096 NIL
AAXX 01064 61099 NIL
BBXX A8IM7 01064 99342 71286 41598 61810 10150 20116 40230 52020 70322 8/300 22224 20201 328// 40504 5//// 80130
AAXX 01064 61017 32960 50406 10120 21031 39783 40199 80002 333 00300 20116 50604 55060 58022 85080
AAXX 01064 61036 32960 70000 10180 20025 39902 40142 80008 333 01600 20175 50771 50634 55104 59005 87280
AAXX 01064 61043 32960 70606 10180 21070 39705 40148 80008 333 0//00 20176 51301 5//// 55101 58010 87280
AAXX 01064 61045 31920 70404 10140 21040 39665 40170 70622 80008 333 01100 20140 5//// 50914 55100 58011 87280
AAXX 01064 61049 31958 70000 10154 21010 39835 40158 7062/ 80008 333 01200 20150 50811 50624 55092 58015 87280
AAXX 01064 61075 32960 51810 10187 21044 39834 40144 80002 333 01800 20187 51101 50774 55102 58008 85080
AAXX 01064 61080 31958 70806 10162 21040 39736 40160 7062/ 80008 333 01400 20156 51261 51204 55096 58012 87280
AAXX 01064 61090 31958 70406 10166 21074 39653 40168 70522 80008 333 01800 20165 51431 51074 55090 58017 87280
AAXX 01064 61096 31940 70406 10160 21036 39780 40166 70522 80008 333 01500 20159 51131 50784 55081 58009 87280
AAXX 01064 61099 32960 70608 10210 20000 39903 40131 80008 333 01700 20206 51081 55099 58004 87280
BBXX A8VL5 01064 99514 10027 41397 82227 10100 20100 40190 54000 76062 887// 22200 00120 20404 30000 80100
BBXX MGGK4 01060 99504 10002 41/98 82413 10100 20100 40098 50/// 70244 8//// 22255 00119 2//// 3//// 4//// 5//// 80100
BBXX ELWD5 01063 99050 10985 41697 70310 10265 20213 40100 58010 7//22 8/32/ 22214 2//01 80230
BBXX A8SF7 01061 99181 51273 41598 20303 10250 20204 40170 54000 70200 821// 22254 04240 20501 311// 41003 5//// 80220
BBXX DCAX2 01063 99226 51460 41596 63615 10271 20229 40161 52011 70322 85341 22233 20904 332// 41005 5//// 80241
AAXX 01064 61017 32960 50406 10120 21031 39783 40199 80002 333 00300 20116 50604 55060 58022 85080
AAXX 01064 61024 31958 31017 10160 21080 39596 40169 7070/ 80002 333 01300 20157 52111 55/// 58009 83080
AAXX 01064 61036 32960 70000 10180 20025 39902 40142 80008 333 01600 20175 50771 50634 55104 59005 87280
AAXX 01064 61043 32960 70606 10180 21070 39705 40148 80008 333 0//00 20176 51301 5//// 55101 58010 87280
AAXX 01064 61045 31920 70404 10140 21040 39665 40170 70622 80008 333 01100 20140 5//// 50914 55100 58011 87280
AAXX 01064 61049 31958 70000 10154 21010 39835 40158 7062/ 80008 333 01200 20150 50811 50624 55092 58015 87280
AAXX 01064 61052 31956 50804 10188 20009 39886 40144 70611 80002 333 01500 20174 50891 55108 59005 85080
AAXX 01064 61075 32960 51810 10187 21044 39834 40144 80002 333 01800 20187 51101 50774 55102 58008 85080
AAXX 01064 61080 31958 70806 10162 21040 39736 40160 7062/ 80008 333 01400 20156 51261 51204 55096 58012 87280
AAXX 01064 61090 31958 70406 10166 21074 39653 40168 70522 80008 333 01800 20165 51431 51074 55090 58017 87280
AAXX 01064 61091 NIL
AAXX 01064 61096 31940 70406 10160 21036 39780 40166 70522 80008 333 01500 20159 51131 50784 55081 58009 87280
AAXX 01064 61099 32960 70608 10210 20000 39903 40131 80008 333 01700 20206 51081 55099 58004 87280
BBXX VRGM8 01063 99431 10149 41398 13108 10130 20026 40205 52006 70200 811// 22234 00152 20501 331// 40801 5//// 80080
BBXX A8UQ2 01064 99250 10576 41697 11414 10250 20074 40180 51/// 70011 81//5 22273 00240 20101 309// 40103 5//// 80150
BBXX ZNQO3 01060 99460 70081 41/97 82016 10145 20127 40151 54000 70222 8//// 22254 04137 2//// 3//// 4//// 5//// 80135
BBXX TBWUK18 01063 99310 30474 41498 51307 10220 20134 40162 52005 70111 8556/ 22222 00250 20401 319// 40502 5//// 80170
BBXX TBWUK17 01063 99350 30204 41398 72819 10198 20172 40168 54000 70122 86470 22262 20203 324// 40606 5//// 80182
AAXX 01061 50658 31958 02202 11187 21225 40344 57006 70400 333 21263
AAXX 01061 50888 32970 03403 11180 21226 40298 57006 333 21262
AAXX 01061 50983 32970 63404 11187 21228 40295 57005 80002 333 21233
AAXX 01061 51053 32975 00905 11129 21161 40478 57011 333 05156 21163
AAXX 01061 51542 11480 70903 11214 21244 37639 57015 69901 70070 81602 333 05255 21296
AAXX 01061 52436 32980 02706 11049 21145 38579 40421 57024 333 00453 21126
AAXX 01061 52908 32980 02713 11020 21238 35760 57021 333 05101 21185 91120 91529
AAXX 01061 52996 32970 03606 11066 21141 37587 57024 333 05158 21086
AAXX 01061 53083 32980 71402 11180 21209 40409 57033 80002 333 00151 21299
AAXX 01061 53764 32965 01803 10014 21124 40330 57042 333 21103
AAXX 01061 53787 32962 02202 10031 21146 40311 57034 333 21110
AAXX 01061 54096 32968 02702 11140 21209 40284 57007 333 21230
AAXX 01061 54226 32980 03403 11098 21195 40360 57016 333 21155
AAXX 01061 54259 32965 23403 11114 21198 40339 57004 80002 333 21200
AAXX 01061 54527 32960 00701 10012 21167 40343 57021 333 21072
AAXX 01061 54534 32970 63602 10012 21187 40335 57023 80002 333 21120
BBXX 46205 01061 99542 71343 46/// /1416 10068 40039 57022 22200 00070 11111 70057 333 91221
BBXX 46132 01061 99497 71279 46/// /1217 10057 40181 52002 22200 00082 10811 70056 333 91221
AAXX 01064 42571 21596 80000 10196 20190 40137 76064 8553/ 333 59030 6002/
AAXX 01064 42667 32596 42012 10244 20202 39534 40117 82530 333 59026 82625 83360
AAXX 01064 42675 31596 81403 10224 20202 40142 70522 8553/ 333 59019 85625 86360
AAXX 01064 42754 31996 43406 10206 20154 39490 40128 70522 82530 333 59013 82620 83360
AAXX 01064 42867 21494 82005 10232 20226 40140 76061 8592/ 333 59012 6991/ 83710 83615 81930 88458
AAXX 01064 42933 32597 71801 10284 20209 40129 84830 333 59018 83630 86360
AAXX 01064 42559 NIL
AAXX 01064 42779 NIL
AAXX 01064 42874 NIL
AAXX 01064 43041 NIL
AAXX 01063 91555 31598 70000 10289 20246 40060 53003 70222 8387/ 333 5699/ 83823 87461
BBXX 46205 01061 99542 71343 46/// /1416 10068 40039 57022 22200 00070 11111 70057 333 91221
AAXX 01063 91555 31598 70000 10289 20246 40060 53003 70222 8387/ 333 5699/ 83823 87461
BBXX 46132 01061 99497 71279 46/// /1217 10057 40181 52002 22200 00082 10811 70056 333 91221
AAXX 01061 36535 31999 40000 11106 21159 39793 40392 57008 60010 70171 83030 333 21146
AAXX 01064 89020 46/// /0713 11053 21058 39903 49938 52010 90540
AAXX 01064 68155 36/// /0905 10238 20169 39206 48540 53008 333 20207 91012 555 10333 91017
AAXX 01064 68171 NIL
AAXX 01064 68176 36/// /1006 10232 20153 39155 48544 52011 333 20190 91013 555 10341 91018
AAXX 01064 68181 NIL
AAXX 01064 68182 36/// /1203 10197 20178 39359 48542 52015 333 20193 91005 555 10310 91018
AAXX 01064 68185 NIL
AAXX 01064 68253 36/// /0602 10235 20159 39061 48536 52017 333 20189 91007 555 10314 91018
AAXX 01064 68255 36/// /0302 10207 20132 38875 48523 52010 333 20166 91005 555 10288 91018
AAXX 01064 68271 16/// /2803 10193 20160 38933 48535 53001 60074 333 20157 91008 555 10309 20072 91020
AAXX 01064 68273 16/// /1002 10220 20142 38467 48521 52012 60224 333 20137 91005 555 10263 20222 91021
AAXX 01064 68287 36/// /3605 10161 20136 38581 48516 57002 333 20140 91010 555 10217 91020
AAXX 01064 68291 16/// /2804 10226 20186 39541 48540 52007 69964 333 20195 91007 555 10315 20006 91015
AAXX 01064 68297 NIL
AAXX 01064 68329 36/// /0000 10240 20040 39091 48528 53010 333 20161 91002 555 10382 91017
AAXX 01064 68331 36/// /1603 10242 20037 38829 48518 52003 333 20156 91006 555 10336 91018
AAXX 01064 68335 36/// /3303 10208 20092 38920 48528 52012 333 20143 91005 555 10341 91019
AAXX 01064 68341 36/// /0112 10209 20146 38539 48524 53011 333 20143 91023 555 10307 91021
AAXX 01064 68342 32980 00107 10217 20139 38519 48517 5//// 333 2//// 91015 555 10323 91020
AAXX 01064 68343 36/// /2806 10213 20125 38778 48503 52011 333 20152 91013 555 10329 91016
AAXX 01064 68349 36/// /3612 10208 20149 38514 48508 52010 333 20151 91019 555 10299 91019
AAXX 01064 68353 16/// /3504 10204 20141 38524 48503 52008 60094 333 20136 91007 555 10265 20096 91018
AAXX 01064 68355 NIL
AAXX 01064 68370 11670 30000 10163 20146 38375 48524 52008 60274 70266 83200 333 20130 555 10218 20270 91021
AAXX 01064 68377 16/// /3304 10210 20162 38762 48503 51002 60154 333 20166 91007 555 10289 20152 91017
AAXX 01064 68380 36/// /3304 10185 20132 3//// 4//// 5//// 333 20136 91007 555 10245
AAXX 01064 68387 16/// /2413 10208 20168 38855 48516 52005 60054 333 20170 91022 555 10261 20054 91018
AAXX 01064 68411 36/// /0000 10213 20087 39959 40166 53008 333 20178 91001 555 10355 91017
AAXX 01064 68429 36/// ///// 10203 20018 38679 48500 53001 333 20136 555 10326 91017
AAXX 01064 68449 36/// /0603 10197 20118 38396 48508 52011 333 20123 91007 555 10293 91020
AAXX 01064 68471 16/// /3307 10170 20123 38327 48505 53003 60094 333 20128 91012 555 10249 20094 91019
AAXX 01064 68474 11580 20000 10218 20104 38623 48516 57004 60094 70266 82100 333 20104 91002 555 10264 20096 91019
AAXX 01064 68479 16/// /3003 10207 20159 38950 48515 51002 60054 333 20160 91006 555 10287 20056 91017
AAXX 01064 68481 36/// /0202 10238 20200 39768 40132 50000 333 20198 91005 555 10271 91014
AAXX 01064 68487 16/// /3204 10215 20149 38984 48510 51001 60054 333 20147 91008 555 10265 20058 91016
AAXX 01064 68491 16/// /0203 10246 20209 30117 40126 52005 60034 333 20205 91005 555 10291 20034 91012
AAXX 01064 68497 16/// /0506 10263 20213 30082 40125 52001 60014 333 20209 91009 555 10291 20016 91012
AAXX 01064 68183 31456 81703 10208 20178 39458 48546 52015 72044 885// 333 20203 91005 555 10298 91017
AAXX 01064 68188 16/// /0000 10187 20165 39212 48534 58002 60064 333 20170 91002 555 10279 20060 91018
AAXX 01064 68268 16/// /0208 10227 20159 38900 48543 57010 60154 333 20154 91013 555 10309 20150 91020
AAXX 01064 68272 NIL
AAXX 01064 68296 16/// /0503 1//// 2//// 38916 4//// 52001 60014 333 2//// 91006 555 1//// 20012
AAXX 01064 68322 36/// /2007 10249 21000 39143 48525 52006 333 20143 91012 555 10391 91016
AAXX 01064 68338 16/// /2904 10238 20072 38768 48505 52005 69924 333 20123 91005 555 10317 20002 91016
AAXX 01064 68345 36/// /0213 10206 20141 38674 48517 52011 333 20154 91020 555 10311 91019
AAXX 01064 68362 16/// /0102 10204 20129 38512 48515 50000 60094 333 20139 91005 555 10289 20094 91020
AAXX 01064 68400 16/// /0403 10267 20208 30050 40122 52002 60034 333 20213 91006 555 10292 20038 91012
AAXX 01064 68408 36/// /2003 10142 20115 30161 40169 52003 333 20115 91004 555 10207 91016
AAXX 01064 68416 36/// /1912 10188 20005 39043 48516 52003 333 20113 91017 555 10333 91017
AAXX 01064 68478 12589 30103 10198 20148 38872 48513 57003 60044 83100 333 20130 91006 555 10294 20046 91017
AAXX 01064 68488 16/// /0904 10226 20173 39259 48519 53001 60464 333 20151 91007 555 10277 20466 91015
AAXX 01064 68494 16/// /3304 10259 20196 39990 40118 52005 60014 333 20188 91006 555 10285 20018 91012
AAXX 01064 68524 32986 02102 10251 20039 39052 48516 52006 333 20167 91005 555 10348 91015
AAXX 01064 68546 36/// /1902 10208 20128 38661 48508 52008 333 20109 91003 555 10304 91018
AAXX 01064 68558 16/// /2402 10167 20112 38193 48507 52007 60034 333 20079 91003 555 10251 20038 91020
AAXX 01064 68570 12370 20000 10200 20130 38504 48497 58003 60114 82900 333 20114 91003 555 10231 20118 91018
AAXX 01064 68580 16/// /3205 10211 20146 38937 48505 58001 60154 333 20125 91007 555 10234 20154 91016
AAXX 01064 68614 36/// /1002 10185 20121 30120 40161 52007 333 20125 91003 555 10300 91016
AAXX 01064 68624 32982 03603 10210 20094 38742 48516 52005 333 20149 91006 555 10316 91018
AAXX 01064 68674 16/// /0202 10234 20209 30086 48547 55000 60074 333 20204 91004 555 10250 20076 91011
AAXX 01064 68712 32470 11908 10171 20124 30091 40156 52003 81500 333 20128 91010 555 10196 91015
AAXX 01064 68718 NIL
AAXX 01064 68722 32980 02205 10206 20016 38554 48512 55000 333 20074 91010 555 10275 91019
AAXX 01064 68814 36/// /0303 1//// 2//// 30157 4//// 52003 333 2//// 91005 555 1//// 91016
AAXX 01064 68832 36/// /2602 10198 20111 39185 48511 50000 333 20127 91005 555 10272 91015
AAXX 01064 68916 32370 62810 10174 20115 39889 40157 53001 86500 333 20162 91015 555 10224 91016
AAXX 01064 68920 NIL
AAXX 01064 68928 36/// /2507 10222 20154 39977 40135 52005 333 20170 91014 555 10247 91013
AAXX 01061 36397 32999 00000 11080 21126 39844 40433 58016 333 21145
AAXX 01061 30455 41995 80000 11247 21265 38958 48480 58008 77172 8802/
AAXX 01061 30731 41599 83104 11061 21110 39707 40333 58001 70272 85542
AAXX 01061 30739 41699 61402 11181 21214 39474 40351 57017 70172 82941
AAXX 01061 30741 41996 83003 11130 21143 38723 48501 58007 77172 8802/
AAXX 01061 30745 41958 82301 11169 21195 39107 40326 58014 77177 8801/
AAXX 01061 30764 42999 80000 11258 21290 39490 40369 57025 8801/
AAXX 01061 30829 42999 83202 11193 21212 39669 40415 58006 82031
AAXX 01061 30838 41997 62605 11166 21185 39333 40380 58011 77173 86010
AAXX 01061 30846 41997 80000 11182 21223 39369 40341 57020 77172 8801/
AAXX 01061 30859 42899 81201 11220 21246 39441 40350 57019 8801/
AAXX 01061 30862 41997 81201 11270 21309 39550 40369 57020 70411 8801/
AAXX 01061 30957 42999 80000 11170 21189 39379 40332 58016 8807/
AAXX 01061 30975 42999 21603 11282 21328 39687 40412 57011 80001
BBXX MLRM6 01063 99399 30056 41598 42526 10126 20100 40082 53010 70165 84500 22262 00129 20204 324// 40506 5////
BBXX DANV 01064 99123 10594 41597 40517 10260 20202 40160 52030 70322 84281 22224 04240 20204 80220
BBXX MLJA8 01063 99253 10566 41797 21705 10240 20117 40249 54000 70222 8/1// 22200 04250 2//00 3//// 4//00 5//// 80170
BBXX A8RL4 01064 99318 30296 41697 53008 10230 40110 5/000 7//// 854// 22213 00260 20000
BBXX ZDLP 01063 99538 50379 41297 82730 10044 20024 40019 54000 70222 886// 22231 04029 20304 327// 40408 5//// 80036
BBXX 62141 01063 99493 50591 41/91 /3625 10123 20123 40113 52010 74544 8//// 22200 20503 335// 40602 5//// 80123
BBXX ZCDF4 01063 99136 70709 41598 40730 10265 20236 40145 51000 78011 84800 22274 00270 20602 309// 41003 5//// 80245
BBXX A8LP6 01064 99345 70353 41/98 82306 10180 20172 40320 54000 70352 8//// 22224 04161 29901 399//
BBXX ZCDG4 01063 99134 70708 41998 00738 10262 20216 40134 57022 70200 80000 22234 00280 20504 308// 40806 5////
BBXX ZCDY2 01064 99214 70699 41/98 12524 10257 20203 40203 57003 70200 81100 22234 00260 20304 3//// 4//// 5////
BBXX PENR 01064 99114 70610 41497 41732 10275 20239 40130 58020 70311 83145 22214 20503 309// 41004 80250
BBXX A8CC9 01064 99183 31167 41697 62911 10300 20231 40085 55010 703// 85444 22243 06320 20801 318// 40902 5//// 80250
BBXX ZCAO7 01063 99142 31203 41498 52307 10288 20254 40060 57010 70322 82139 22254 00310 20301 327// 40602 80264
BBXX PDWT 01063 99287 11269 41396 83219 10160 20108 40220 56015 7//11 887// 22252 20402 331// 40703 5//// 80130
AAXX 01064 88900 46/// /2218 10043 20022 30023 40026 53009 333 55016
AAXX 01061 31825 42999 80000 11124 21186 30017 40234 56015 80009
AAXX 01061 31845 42999 52301 11168 21210 30100 40275 56010 80001
AAXX 01061 31878 42998 13203 11182 21238 30153 40287 56007 80001
AAXX 01061 31915 42998 01102 11149 21200 30000 40283 57005
AAXX 01061 31921 42998 00504 11157 21191 30181 40286 55009
AAXX 01061 31969 42997 23006 11055 21183 30186 40237 56017 80001
AAXX 01061 31981 42999 00202 11148 21208 30012 40263 55017
AAXX 01061 31987 42999 03607 11089 21206 39961 40231 58019
AAXX 01061 32069 42598 81102 11122 21160 30226 40231 57007 8451/ 333 91003 91107
AAXX 01061 30499 42999 62001 11266 21283 39624 40350 57010 80001
AAXX 01061 30683 42998 02302 11192 21225 39629 40324 57011
AAXX 01061 30695 42998 22901 11212 21252 39962 40327 57017 80004
AAXX 01061 31253 42999 00000 11318 21348 39822 40340 57010
AAXX 01061 31295 42999 60000 11180 21230 39823 40310 58008 80001
AAXX 01061 31348 42999 00000 11234 21252 30075 40288 57013
AAXX 01061 31418 42999 00000 11231 21250 30008 40286 56007
AAXX 01061 31439 42599 83602 11184 21210 30215 40263 57002 80058
AAXX 01061 31442 42999 00000 11183 21233 39931 40310 57004
AAXX 01061 31445 42999 02801 11185 21235 30034 40306 57004
AAXX 01061 31474 42999 00000 11230 21287 39787 40312 57008
AAXX 01061 31521 32976 00000 11196 21237 30004 40319 57004
AAXX 01061 31527 42998 02501 11195 21236 39988 40314 56002
AAXX 01061 31534 42999 00000 11232 21272 39943 40318 57009
AAXX 01061 31587 42998 00000 11189 21238 30168 40325 57008
AAXX 01061 31632 NIL
AAXX 01061 31702 42998 02601 11229 21277 39953 40321 57009
AAXX 01061 31713 42998 21801 11167 21217 30182 40287 57011 82040
AAXX 01061 31725 42998 03602 11160 21187 30216 40287 57011
AAXX 01061 31801 42998 22001 11167 21209 30024 40266 57010 80002
AAXX 01064 83780 21240 83404 10197 20181 39165 48460 58022 76062 885// 333 60061
BBXX 46181 01061 99538 71288 46/// /0409 11019 40218 57003 22200 00037 10301 70005 333 91212
AAXX 01061 36152 32998 11602 11151 21206 30224 40427 58009 80002 333 21175
AAXX 01061 36177 32997 01302 11122 21164 30179 40442 58009 333 21184
AAXX 01063 61701 31959 60613 10173 21015 40152 70722 85032 333 20160 50661 55064 58001 85360
AAXX 01063 61705 NIL
AAXX 01063 61707 NIL
AAXX 01063 61711 NIL
AAXX 01063 61712 NIL
AAXX 01063 61717 NIL
AAXX 01063 61720 NIL
AAXX 01061 36428 32998 00000 11156 21183 39930 40469 58011 333 21209 95000
AAXX 01064 89610 46/// /0422 11020 39604 4//// 5//// 333 90700 91125
BBXX 46181 01061 99538 71288 46/// /0409 11019 40218 57003 22200 00037 10301 70005 333 91212
BBXX 46184 01061 99539 71389 46/// /1510 10067 49952 57001 22200 00059 11211 70056 333 91212
BBXX DGZT2 01063 99491 70045 41/97 82420 10135 20118 40115 57025 76222 8//// 22214 04130 2//// 80125
AAXX 01061 36208 32999 00702 11150 21184 39424 40477 53004 333 21194
BBXX 46184 01061 99539 71389 46/// /1510 10067 49952 57001 22200 00059 11211 70056 333 91212
AAXX 01061 36639 32999 00000 11145 21196 39756 40403 57026 333 21246
AAXX 01064 68171 NIL
AAXX 01064 68181 NIL
AAXX 01064 68185 NIL
AAXX 01064 68297 NIL
AAXX 01064 68355 NIL
BBXX 3FMH7 01064 99337 11660 41598 52938 00/// 10170 20119 40125 52031 70382 84890 9//// 22261 00170 1//// 20408 329// 41110 5//// 6//// 80140
BBXX UFLC 01060 99576 11500 41395 83604 11070 40252 54000 77372 8472/ 22283 06010 20201
AAXX 01064 91723 NIL
AAXX 01064 91759 NIL
AAXX 01064 91762 NIL
AAXX 01064 42634 32996 00506 10194 20101 40082 333 58000
AAXX 01064 42647 31996 03203 10198 20062 40166 70400 333 58002
AAXX 01064 42737 32996 03614 10214 20081 40175 333 58009
AAXX 01064 42840 32996 00504 10222 20092 40159 333 58009
AAXX 01064 42909 32997 03608 10238 21050 40166 222// 20000 333 58013
AAXX 01064 42921 32996 22703 10246 20096 40159 80001 333 59003 82075
AAXX 01064 43003 31995 03608 10256 20092 40132 70400 333 58003
AAXX 01064 43014 31496 69903 10274 20176 39477 40113 70242 86600 333 59007 84710 84618
AAXX 01064 43063 31796 70000 10266 20163 39494 40110 70522 81039 333 59005 81358 85168
AAXX 01064 43110 31995 13203 10292 20187 40121 71044 80002 333 59002 81080
AAXX 01064 43117 32597 71402 10294 20161 40112 83530 333 59018
AAXX 01064 43192 31596 70502 10300 20210 40120 70522 83432 333 58007
AAXX 01064 89050 41397 83216 10008 21020 49920 52020 70222 8741/
AAXX 01064 89512 32598 71430 11008 21099 39759 49909 57009 87500 333 21013
AAXX 01064 89574 NIL
AAXX 01064 89592 42998 00000 10005 21040 49817 52004
AAXX 01064 89606 41998 02912 11266 21317 36292 47770 53003 73630 333 21348
AAXX 01064 60475 12960 12604 10039 20030 39309 48559 53002 60004 81032 333 05100 20024 81360 95990
AAXX 01064 68737 36/// /2303 10166 20129 39243 48511 52005 333 20112 91006 555 10273 91016
AAXX 01064 68744 36/// /3505 10195 20130 39093 48509 52001 333 20132 91008 555 10243 91015
AAXX 01064 68747 16/// /3303 10204 20148 39601 48519 52002 69944 333 20147 91006 555 10218 20004 91013
AAXX 01064 68835 36/// /3002 10200 20140 30011 40124 57002 333 20143 91004 555 10262 91012
AAXX 01064 68843 36/// /2605 10215 20163 30020 40118 52005 333 20158 91008 555 10241 91012
AAXX 01064 68849 36/// /2905 10204 20150 39391 48510 52005 333 20147 91008 555 10204 91013
AAXX 01061 24856 41997 80402 11302 21325 30099 40272 57009 77172 80007
AAXX 01061 30679 NIL
AAXX 01061 30686 42999 10000 11224 21256 39933 40338 57017 80001
AAXX 01061 30961 42899 82401 11223 21236 39502 40359 58019 8801/
AAXX 01061 30971 42999 72701 11169 21203 39295 40340 58017 80001
AAXX 01061 30978 42999 02103 11248 21287 39641 40392 57018
AAXX 01061 31513 42999 03201 11198 21224 30068 40311 57007
AAXX 01061 31624 NIL
AAXX 01061 31832 42998 03202 11190 21223 30198 40291 57005
AAXX 01061 31913 43/// /0101 11144 21210 30162 40288 55009
AAXX 01061 32128 41597 71406 11021 21039 30105 40157 56008 78583 85330 333 91010 91113
AAXX 01064 17250 12675 60505 10023 21019 38726 48421 51006 60002 83560 333 20011 30000 55044 83640 86360
AAXX 01061 01025 16/// /1604 11008 21068 39963 49974 57029 60002 333 21098 70000 91110
BBXX 46004 01061 99509 71361 46/// /1410 10069 49975 57015 22200 00071 11009 70045 333 91212
BBXX 4XFV 01063 99385 71686 41/96 91538 10080 20060 40055 57055 76262 89/// 22224 0//// 20507 3//// 4//// 5//// 80070
BBXX DFGX2 01063 99545 71709 41/98 12730 11001 21072 40039 50001 70111 811// 22264 00040 2//// 82025
BBXX SHIP 01064 99419 71682 41/95 /1432 10050 20028 40147 56028 76003 8//// 90550 22223 00100 2//// 3//// 4//// 5//// 80040
AAXX 01061 56671 32980 32002 10170 20006 38199 57038 80002 333 05301 20002
AAXX 01061 57378 31920 03202 10077 20043 40293 57029 71040 333 21001
AAXX 01061 57426 31858 83401 10088 20038 40264 57031 71000 885// 333 05253 20001
AAXX 01061 57476 31960 00402 10086 20044 40288 57033 70040 333 21007
AAXX 01061 57584 31918 03604 10093 20057 40283 57031 71040 333 20030
AAXX 01061 57598 31962 02201 10116 20031 40272 57037 70040 333 20023
AAXX 01061 57655 31960 80203 10117 20035 40266 57037 70040 8807/ 333 20031
AAXX 01061 57713 NIL
AAXX 01061 57776 31/00 90403 10023 20016 40277 57021 74740 333 20009
AAXX 01061 58321 31620 80402 10077 20018 40310 57024 71040 885// 333 21001
AAXX 01061 58437 32980 03604 11012 21082 38192 57013 333 21043
AAXX 01061 58445 NIL
AAXX 01061 58556 31958 73602 10078 20010 40291 57015 70500 8704/ 333 20008
AAXX 01061 58569 31556 23607 10086 21007 40272 57019 70500 82100 333 20040
AAXX 01061 58646 32760 70701 10113 20018 40273 57024 875// 333 20033
AAXX 01061 58653 NIL
AAXX 01061 58660 NIL
AAXX 01061 58715 31958 03403 10118 20036 40267 57028 70540 333 20035
AAXX 01061 58730 32680 11802 10143 20034 40254 57037 81100 333 20034
AAXX 01061 58731 31965 00000 10123 20035 40258 57039 70040 333 20027
AAXX 01061 58754 32964 01403 10145 20036 40248 57028 333 20047
AAXX 01061 58911 32565 72502 10128 20068 40247 57026 8784/ 333 20078
AAXX 01061 58931 31/01 91102 10066 20044 38380 57019 74440 333 20009
AAXX 01061 59254 31756 70701 10167 20084 40225 57036 70500 875// 333 20118
AAXX 01061 59632 31758 73202 10169 20073 40215 57040 70500 875// 333 20129
AAXX 01061 59855 32575 70902 10236 20166 40187 57037 87100 333 20178
AAXX 01060 67586 12480 70000 10209 20189 38795 48516 60094 81938 333 20172 51491 55071 59001 70088 81915 83359 87280 555 10264 7//96
BBXX 46004 01061 99509 71361 46/// /1410 10069 49975 57015 22200 00071 11009 70045 333 91212
AAXX 01064 43086 21596 80000 10250 20229 39962 40140 70262 8457/ 333 59017 6996/
AAXX 01064 43128 32497 61405 10262 20203 39527 40127 84831 333 56399 59015 83615 83825
AAXX 01064 43150 32596 40205 10294 20214 30075 40149 82130 333 59014 82825
AAXX 01064 43185 31597 70908 10262 20239 30129 40132 70262 84570 333 59016 84620 84360
AAXX 01064 43189 32597 50702 10286 20218 30140 40149 82532 333 59010
AAXX 01064 43198 32496 71106 10260 20152 39296 40111 83531 333 56299 59006 83615 86358
AAXX 01064 43201 32497 50906 10284 20155 39395 40110 82530 333 59012 82615 83358
AAXX 01064 43213 32597 60902 10280 20197 39812 40127 83878 333 56299 59009
AAXX 01064 43226 32497 50902 10304 20172 30091 40120 81531 333 58004
AAXX 01064 43233 32597 50906 10270 20149 39313 40111 82532 333 56299 59002
AAXX 01064 43237 31597 61405 10282 20196 39732 40119 70141 82539 333 56399 59006 82620 85360
AAXX 01064 43245 32597 60000 10274 20245 30102 40129 82832 333 59011
AAXX 01064 43279 21496 80000 10252 20234 30119 40137 70265 8447/ 333 59005 6007/ 83618 87458
AAXX 01064 43284 32496 51406 10304 20176 39993 40107 82530 333 58008 82615 84359
AAXX 01064 43295 32497 31108 10256 20147 39115 48530 81631 333 56399 59004 81710
AAXX 01064 43311 32597 82702 10310 20232 40104 85431 333 58004 85620 86075
AAXX 01064 43314 32597 62302 10310 20205 40118 82432 333 58009
AAXX 01064 43321 31996 10908 10276 20139 39688 40131 70500 80001 333 59006
AAXX 01064 43329 32597 30502 10302 20248 30102 40115 82460 333 59019
AAXX 01064 43344 31496 50503 10286 20218 30030 40129 70521 83401 333 59008 82616 83822
AAXX 01064 43346 32597 20904 10280 20237 30112 40119 81501 333 59007 81620
AAXX 01064 43353 32996 30902 10306 20202 40122 80031 333 56099 59002 82359 83072
AAXX 01064 43369 32597 71808 10286 20249 40110 84870 333 58003 83620 85360
AAXX 01064 43371 32997 00000 10310 20187 30042 40114 333 59002
AAXX 01061 34123 11320 81801 10003 21008 39957 40044 53009 60010 78582 889// 333 20000 43001 88908
AAXX 01064 45011 47956 /0208 10199 20106 40204 57035 71010 333 59015
AAXX 01061 13463 32970 22901 11013 21066 30156 40218 52014 82030 333 21014 31106 55047
AAXX 01061 13459 32970 13602 11061 21109 39437 40242 52010 81030 333 21072 31110 47003 55072 81399
AAXX 01061 13461 32970 20505 10062 21111 30198 40206 52012 80002 333 20056 30004 55043 91113 92323 92438 92511
AAXX 01061 13363 31/06 90000 11128 21135 39302 48470 52014 74540 333 21136 3/115 47017 55000
BBXX 44059 01061 99368 70763 46/// /2201 1//// 90620 333 91201
BBXX 44059 01061 99368 70763 46/// /2301 1//// 40196 90610 333 91201
BBXX 44059 01061 99368 70763 46/// /0000 10084 40196 54000 90600 22200 00103 333 91201
BBXX 44057 01061 99395 70761 46/// /3101 1//// 90620 333 91202
BBXX 44057 01061 99395 70761 46/// /2702 1//// 40192 90610 333 91202
BBXX 44057 01061 99395 70761 46/// /2402 10060 40192 51005 90600 22200 00042 333 91203
BBXX 44058 01061 99376 70763 46/// /2701 1//// 90620 333 91201
BBXX 44058 01061 99376 70763 46/// /2503 10083 40200 51005 90600 22200 00086 1//00 70001 333 91203
BBXX 44040 01061 99410 70736 46/// /3005 10082 20051 40177 90615 22200 1//00 70001 333 91206 555 11062 22077
AAXX 01064 71673 16/// ///// 11156 21199 60001 333 11025 21156 70000
AAXX 01064 71690 16/// ///// 11156 21188 60001 333 11062 21160 70000
AAXX 01064 71761 16/// ///// 11107 21159 60001 333 11035 21114 70000
AAXX 01064 71788 16/// /2103 11086 21095 60001 333 10009 21101 70000 555 33124 40141
AAXX 01064 71792 16/// ///// 11133 21175 60001 333 11030 21144 70000
AAXX 01064 71405 16/// ///// 11104 21156 60001 333 11033 21105 70000
AAXX 01064 71417 16/// /2501 11047 21055 30157 40192 56033 60001 333 11044 21084 70000 555 32828 40222
AAXX 01064 71426 46/// /3413 11036 6///1 333 11031 21095 7//// 555 30120 40001
AAXX 01064 71011 16/// ///// 11115 21190 60001 333 11016 21117 70000
AAXX 01064 71459 16/// /2813 11068 21146 39474 40307 53025 60001 333 11009 21071 70000 555 33431 40202
AAXX 01064 71461 16/// /2606 11107 21166 60001 333 11035 21111 70000 555 32630 40132
AAXX 01064 71468 17/// /2205 11005 21005 39718 40039 58015 69971 7//4/ 333 7////
AAXX 01064 71483 16/// ///// 11144 21188 60001 333 11037 21144 70000
AAXX 01061 40009 32565 70000 10063 20049 40164 56005 60032 76266 8552/ 333 20060 31/// 85630 88460
AAXX 01061 40016 32970 40000 10068 20059 40221 53014 84050 333 20062 30/// 55015 70000 84360
AAXX 01061 40022 11565 72008 10112 20100 40148 53030 60102 75999 87900 222// 20000 333 20088 32/// 84930 87632
AAXX 01061 40030 31/05 90000 10056 20051 40174 52007 74044 89/// 333 20050 32/// 50024 55010 89/02
AAXX 01061 40039 31565 70701 10061 20040 40178 51008 70204 82550 333 20061 30/// 55026 70000 82630 87360
AAXX 01061 40066 11570 50503 10074 20033 40138 53001 6017/ 82430 333 20068 32/// 70377 82626 85360
AAXX 01061 40072 32570 80000 10060 20046 40214 52012 8552/ 333 20050 31/// 55630 88460
AAXX 01061 40083 32970 01801 10020 21024 48453 51003 333 20008 30///
AAXX 01064 71283 16/// /2805 11122 21178 60001 333 11061 21136 70005 555 32830 40132
AAXX 01064 71221 16/// /0000 11177 21197 60001 333 11048 21177 70000 555 32919 40111
AAXX 01064 71226 16/// /2407 11078 21163 60001 333 11030 21089 70000 555 32929 40132
AAXX 01064 71229 46/// /2610 11126 21160 6///1 333 11058 21210 7//// 555 10020
AAXX 01064 71153 16/// /3004 11071 21138 60001 333 10009 21073 70000 555 32727 40211
AAXX 01064 71500 16/// /2306 11089 21190 60001 333 11038 21095 70000 555 33043 40193
AAXX 01064 71504 46/// ///// 11132 21199 6///1 333 11032 21142 7////
AAXX 01064 71541 16/// /2208 11143 21182 60001 333 11054 21155 70000 555 32828 40142
AAXX 01064 71543 17/// /0402 11194 21225 69941 7//4/ 333 11057 21208 70004 555 32626 40111
AAXX 01064 71546 16/// /2409 11076 21151 60001 333 11029 21109 70000 555 32629 40122
AAXX 01064 71547 16/// /2410 11085 21162 60001 333 11052 21126 70000 555 32520 40101
AAXX 01064 71888 16/// ///// 11130 21171 60001 333 11038 21130 70000
AAXX 01064 71895 16/// ///// 11133 21189 60001 333 11019 21153 70000
AAXX 01064 71359 16/// /2907 11103 21152 60001 333 11037 21103 70000 555 32924 40211
AAXX 01064 71067 16/// ///// 11122 21187 60001 333 11040 21127 70000
BBXX 46232 01061 99325 71174 46/// ///// 1//// 90608 22200 00147 11503 20702 328// 41502 70015
BBXX 46247 01061 99378 71228 46/// ///// 1//// 90621 22200 00116 11304 21003 328// 41303 70022
BBXX 46246 01061 99500 71451 46/// ///// 1//// 90629 22200 00068 11209 21006 315// 41206 70043
BBXX 46246 01061 99500 71451 46/// ///// 1//// 90559 22200 00068 11210 21006 315// 41207 70048
BBXX 46146 01061 99493 71237 46/// /0907 10056 40262 57005 22200 00068 10301 70004 333 91208
BBXX 46146 01061 99493 71237 46/// /0907 10056 40262 57005 22200 00068 10301 70004 333 91208
AAXX 01061 56144 32980 01601 10060 21187 36862 57059 333 05301 21088
AAXX 01061 56152 32980 02710 10079 21208 36299 57039 333 05305 21180
AAXX 01061 56167 32980 01401 10091 21147 37071 57063 333 05302 21112
AAXX 01061 56182 32980 02001 10068 21129 37171 57055 333 05401 21107
AAXX 01061 56357 32980 00901 10097 21165 36444 57045 333 05203 21122
AAXX 01061 56586 32462 80201 10045 20008 38056 57034 885// 333 05351 20021
AAXX 01061 56748 32980 02204 10196 20041 38364 57035 333 05302 20024
AAXX 01061 56763 32680 51103 10237 20051 40099 57056 85400 333 05400 20052
AAXX 01061 56768 32680 22203 10183 20059 38177 57036 81140 333 05302 20037
AAXX 01061 56838 31670 22002 10206 20110 40170 57039 70040 81130 333 05303 20083
AAXX 01061 56886 32760 42001 10113 20078 38301 57041 84400 333 05304 20042
AAXX 01061 56946 32680 21101 10226 20114 40161 57040 82400 333 05302 20075
AAXX 01061 56959 32775 21101 10253 20183 40140 57048 82100 333 05301 20144
AAXX 01061 56969 31580 21602 10265 20164 40150 57043 70040 82200 333 05201 20146
AAXX 01061 57731 32663 80000 10084 20033 40264 57035 885// 333 05152 20052
AAXX 01061 57766 31757 81601 10095 20047 40274 57028 71000 885// 333 20068
AAXX 01061 57845 32960 80401 10080 20031 40263 57027 8807/ 333 20035
AAXX 01061 57853 31740 83401 10083 20036 40274 57028 71000 885// 333 20060
AAXX 01061 57916 32666 80000 10135 20064 40229 57034 885// 333 05301 20097
AAXX 01061 57922 31656 80000 10079 20037 40245 57031 70500 885// 333 05200 20054
AAXX 01061 57932 32662 81601 10109 20039 40253 57035 885// 333 05201 20071
AAXX 01061 58338 32960 70203 10071 20020 40302 57016 8707/ 333 20014
AAXX 01061 59007 11463 80000 10082 20053 40220 57035 69901 70060 885// 333 20059
AAXX 01061 59046 31757 80401 10123 20059 40244 57030 70500 885// 333 20102
AAXX 01061 59058 11450 83202 10099 20057 40246 57029 69901 72160 885// 333 20093
AAXX 01061 59072 31757 83602 10098 20050 40255 57026 70500 885// 333 20082
AAXX 01061 59087 32760 70403 10158 20051 40227 57031 875// 333 20112
AAXX 01061 59209 11357 83601 10104 20083 40225 57034 69901 76066 887// 333 20087
AAXX 01064 67855 11370 70302 10230 20216 38/// 48/// 60054 70522 84601 333 20195 5//// 84707 87080
AAXX 01064 67951 32982 50607 10220 20180 38/// 48/// 80001 333 20175 5//// 85080
AAXX 01064 67969 32580 60703 10239 20196 38/// 48/// 81508 333 20172 5//// 81625 86280
AAXX 01064 67965 11470 71305 10215 20183 38696 48523 60024 70511 85532 333 20175 58006 85610 83360 87080
AAXX 01064 67855 11370 70302 10230 20216 38/// 48/// 60054 70522 84601 333 20195 5//// 84707 87080
AAXX 01064 67951 32982 50607 10220 20180 38/// 48/// 80001 333 20175 5//// 85080
AAXX 01064 67965 11470 71305 10215 20183 38696 48523 60024 70511 85532 333 20175 58006 85610 83360 87080
AAXX 01061 45032 36/// /3102 10212 20088 30183 40200 57001
AAXX 01061 45035 36/// /2704 10196 20108 30157 40199 57002
AAXX 01061 45039 36/// /0103 10205 20097 30183 40197 57001
AAXX 01061 45044 36/// /1404 10191 20125 30106 40200 57002
AAXX 01061 45032 36/// /3102 10212 20088 30183 40200 57001
AAXX 01061 45035 36/// /2704 10196 20108 30157 40199 57002
AAXX 01061 45039 36/// /0103 10205 20097 30183 40197 57001
AAXX 01061 45044 36/// /1404 10191 20125 30106 40200 57002
BBXX 46243 01061 99462 71241 46/// ///// 1//// 90629 22200 00080 11304 21002 326// 41303 70019
BBXX 46236 01061 99368 71219 46/// ///// 1//// 90620 22200 00121 11304 21003 328// 41303 70022
BBXX 46229 01061 99438 71246 46/// ///// 1//// 90621 22200 00098 11305 21003 327// 41304 70027
BBXX 46212 01061 99408 71243 46/// ///// 1//// 90612 22200 00104 11405 20903 329// 41404 70024
BBXX 46217 01061 99342 71194 46/// ///// 1//// 90612 22200 00144 11302 21002 327// 41301 70011
BBXX 46225 01061 99329 71174 46/// ///// 1//// 90614 22200 00150 11402 21001 327// 41402 70011
BBXX 46213 01061 99403 71247 46/// ///// 1//// 90624 22200 00109 11306 21003 329// 41305 70030
BBXX 46215 01061 99352 71209 46/// ///// 1//// 90608 22200 00127 11204 21002 328// 41203 70021
AAXX 01061 37553 32999 63601 10049 21055 39522 40172 52004 80030 333 20006
BBXX 42013 01061 99272 70829 46/// ///// 1//// 40232 90540
BBXX 44062 01061 99386 70764 46/// /3504 1//// 90620 22200 00080 333 91205
BBXX 44062 01061 99386 70764 46/// /3605 1//// 40182 90610 22200 00080 333 91206
BBXX 44062 01061 99386 70764 46/// /3605 10085 40181 51007 90600 22200 00080 10201 70003 333 91207
BBXX 44063 01061 99390 70764 46/// /0000 1//// 90620 333 91200
BBXX 44063 01061 99390 70764 46/// /0000 1//// 40209 90610 333 91200
BBXX 44063 01061 99390 70764 46/// /0000 10074 40216 53014 90600 22200 00069 1//00 70001 333 91200
BBXX 44041 01061 99372 70768 46/// /2601 1//// 90620 333 91202
BBXX 44041 01061 99372 70768 46/// /2701 1//// 40224 90610 333 91202
BBXX 44041 01061 99372 70768 46/// /2701 10062 40224 51005 90600 22200 00086 1//00 70000 333 91202
BBXX 44042 01061 99380 70763 46/// /2702 1//// 90620 333 91203
BBXX 44042 01061 99380 70763 46/// /2702 1//// 40203 90610 333 91202
BBXX 44042 01061 99380 70763 46/// /2702 10084 40204 51008 90600 22200 00081 1//00 70000 333 91203
BBXX 44043 01061 99392 70764 46/// /2503 1//// 90620 333 91203
BBXX 44043 01061 99392 70764 46/// /2603 1//// 40192 90610 333 91205
BBXX 44043 01061 99392 70764 46/// /2604 10074 40192 51006 90600 22200 00060 1//00 70000 333 91205
BBXX 41010 01061 99289 70785 46/// /0000 10218 40228 90620 22200 00236 10502 20401 300// 40501 70008 333 91202 555 11004 22004
BBXX 41009 01061 99285 70802 46/// /1502 10228 20138 40232 90620 22200 00234 10901 300// 40901 70004 333 91202 555 11019 22019
BBXX 42361 01061 99276 70925 46/// ///08 10222 20194 40210 51003 90630 555 11067 22072
BBXX 44100 01061 99363 70756 46/// ///// 1//// 90622 22200 00124 10701 20701 70005
BBXX 41110 01061 99341 70777 46/// ///// 1//// 90621 22200 00134 10601 20601 70007
BBXX 42099 01061 99273 70842 46/// ///// 1//// 90627 22200 00224 10501 20501 70004
BBXX 41113 01061 99284 70805 46/// ///// 1//// 90621 22200 00214 11101 70003
BBXX 44039 01061 99411 70727 46/// /2705 10081 20065 40177 90553 22200 00083 1//00 70001 333 91207
BBXX 44099 01061 99369 70757 46/// ///// 1//// 90622 22200 00103 10601 20601 70006
BBXX 44258 01061 99445 70634 46/// /3402 10063 40017 57035 22200 00054 10704 70020 333 91203
BBXX 44258 01061 99445 70634 46/// /3402 10063 40017 57035 22200 00054 10704 70020 333 91203
AAXX 01064 67765 11384 70302 10206 20191 38664 48508 60024 71522 86672 333 20180 59006 86707 87460
BBXX 44140 01061 99429 70515 46/// /1012 10122 40204 57060 22200 00082 11406 70030 333 91215
AAXX 01064 97008 01458 83003 10276 20253 30068 40078 57015 60021 72162 8452/ 333 56009 60017 84618 88458
AAXX 01064 97016 01459 80000 10265 20240 30081 40083 57015 60231 72162 8527/ 333 56009 57801 60237 85817 88460 80860
AAXX 01064 97126 32457 70805 10302 20232 30022 40083 57027 83920 333 56000 57901 82916 87460 80980
AAXX 01064 97142 NIL
AAXX 01064 97182 NIL
AAXX 01064 97240 01430 80000 10232 20226 39977 40092 57009 60641 79596 85931 333 56000 57901 60647 85816 82915 80860 80980
AAXX 01064 97284 11450 70000 10216 20198 38863 40101 57016 60011 72162 86221 333 56000 57801 60017 86810 80837
AAXX 01064 97310 11466 71805 10284 20252 30082 40094 57012 60031 70262 84221 333 56000 57802 83818 87459 80840
AAXX 01064 97320 32565 43208 10318 20256 30070 40083 57022 82211 333 56000 57801 82820 80850
AAXX 01064 97378 32570 50105 10296 20241 39934 40079 56001 81102 333 56600 81820 84080
AAXX 01064 97380 32464 53107 10308 20250 30059 40079 57018 83171 333 56000 83819
AAXX 01064 97406 01460 72605 10296 20236 30062 40067 57022 69901 72122 84931 333 56200 57921 57821 69907 81917 83818 80975 80860
AAXX 01064 97570 32460 63312 10296 20244 30057 40064 57012 82903 333 56600 57901 81914 86077 80958
AAXX 01064 97630 01462 71306 10266 20245 39916 40077 57018 60141 71566 86972 333 56600 57901 60037 81911 85813 80976
AAXX 01064 97682 32462 71707 10301 20244 30040 40047 57019 84872 333 56000 57802 84816 87361 80858
AAXX 01064 97698 01458 80806 10272 20243 30078 40085 57021 60021 71564 8682/ 333 56000 57803 69967 83815 83617 88461 80856
AAXX 01064 97700 01454 80000 10260 20245 30074 40088 58015 60031 76166 8587/ 333 56009 57802 57603 60017 82815 83617 86456 80840 80650
AAXX 01064 97722 01461 72811 10297 20239 30066 40082 57018 69901 70262 85972 333 56600 57961 57861 69907 81917 83818 85458 80971 80856
AAXX 01064 97780 NIL
AAXX 01064 97790 01461 82712 10291 20252 30037 40057 57021 69941 70262 8287/ 333 56609 57862 69947 82819 85458 80858
AAXX 01064 97014 31559 72804 10298 20228 39995 40088 57020 71422 83271 333 56700 57873 83820 80859
AAXX 01064 97028 32563 72702 10286 20243 30069 40075 58024 82221 333 56000 57802 82819 86460 80860
AAXX 01064 97048 32460 62505 10320 20243 30048 40072 57035 84931 333 56200 57921 57821 81918 83818 80980 80860
AAXX 01064 97072 11458 73206 10304 20234 39998 40098 58032 60011 70262 82571 333 56000 82619 84460
AAXX 01064 97086 32560 71003 10302 20254 30063 40088 56023 83270 333 56000 57803 82820 84460 80858
AAXX 01064 97096 32460 80610 10304 20247 30075 40096 57023 8322/ 333 56009 57803 83817 88460 80857
AAXX 01064 97120 01461 73202 10302 20235 30050 40083 57022 69941 71562 82871 333 56000 57803 69907 81818 85360 80860
AAXX 01064 97146 31457 70905 10308 20253 30014 40074 57033 71522 85872 333 56000 57801 83816 83460 80860
AAXX 01064 97180 11458 73605 10286 20248 30084 40102 58022 60111 70262 84232 333 56000 84619 83360
AAXX 01064 97192 32462 72605 10310 20248 30057 40114 57010 84810 333 56200 57822 84816 80858
AAXX 01064 97230 32462 80907 10296 20254 30070 40077 57020 83272 333 56000 57801 83817 85460 80860
AAXX 01064 97260 01440 83508 10258 20243 30082 40089 55006 60011 76062 8697/ 333 56709 57902 60017 82915 80980 84615
AAXX 01064 97270 01458 83610 10274 20238 30081 40086 56013 69901 71562 8682/ 333 56009 57800 69907 82815 85617 88460 808//
AAXX 01064 97300 31558 70310 10294 20254 30050 40091 57016 71522 84271 333 56000 57801 84820 80858
AAXX 01064 97340 32570 80107 10300 20258 30061 40076 57027 83232 333 56000 83620 85080
AAXX 01064 97372 32462 ///// 10297 20259 39960 40080 57017 85271 333 56000 85817
AAXX 01064 97430 32460 62905 10294 20230 30052 40082 57022 83232 333 56700 57872 83818 80860
AAXX 01064 97460 01456 71802 10286 20261 30049 40063 57027 69901 76062 84376 333 56000 57901 69907 81917 83818 80959 80858
AAXX 01064 97502 32460 71905 10284 20247 30066 40070 56023 85231 333 56000 57801 83812 85612 80856
AAXX 01064 97530 NIL
AAXX 01064 97560 32460 72608 10304 20246 30049 40064 57019 83849 333 56000 57804 82818 84361 86279 80860
AAXX 01064 97580 NIL
AAXX 01064 97600 32460 71304 10296 20244 30078 40084 57020 8371/ 333 56600 57862 83817 86159 80858
AAXX 01064 97686 31460 71312 10223 20151 38317 40037 57037 71622 85856 333 56000 57801 84811 86361 80858
AAXX 01064 97690 12462 81103 10274 20239 39967 40068 57026 69901 82847 333 56000 57803 81815 83362 88279
AAXX 01064 97724 01459 82903 10272 20232 30069 40084 57021 60031 71562 84872 333 56700 57871 60017 83819 85459 80850
AAXX 01064 97748 11460 72619 10290 20258 30054 40056 57002 60051 70522 84932 333 56600 57961 81914 82815 85358 80940 80850
AAXX 01064 97760 01457 73008 10266 20245 30083 40074 57013 60011 76062 84952 333 56000 57901 60017 81915 83816 80960
AAXX 01064 97796 32460 62708 10328 20242 30028 40079 57022 84232 333 56000 84813
AAXX 01064 97810 01458 72916 10282 20247 30054 40063 58018 60021 76162 84832 333 56700 57871 60017 82818 80858
AAXX 01064 97876 32360 63007 10316 20245 30069 40099 57026 85332 333 56000 57903 82909 83610 80957
AAXX 01064 97900 32568 72709 10328 20248 30038 40066 57021 82207 333 56600 57863 82820 87275 80830
AAXX 01064 97980 02460 81706 10259 20222 30061 40068 57023 60031 86842 333 56000 60037 82816 84620
AAXX 01064 96009 32460 80405 10288 20243 30069 40104 57020 8592/ 333 56009 57902 82915 83616 80965
AAXX 01064 96011 32560 72605 10296 20229 30088 40115 57019 84532 333 56000 84620
AAXX 01064 96035 32460 62405 10318 20222 30065 40103 57027 84276 333 56000 57802 84818 80850
AAXX 01064 96073 32560 70000 10304 20205 30090 40101 56027 83222 333 56000 57802 83820 80860
AAXX 01064 96091 32459 70208 10294 20243 30093 40116 57014 84971 333 56800 57981 81920 83613 80980
AAXX 01064 96109 32460 63005 10323 20196 30049 40089 57020 83532 333 56000 83618
AAXX 01064 96145 NIL
AAXX 01064 96147 NIL
AAXX 01064 96163 32562 62608 10312 20243 30109 40111 57021 81131 333 56000 81820 80825
AAXX 01064 96179 32460 60212 10305 20249 30070 40107 57010 84201 333 56800 57882 84817 80840
AAXX 01064 96195 31463 70306 10317 20226 30066 40102 58022 70242 84271 333 56000 57802 84815 80850
AAXX 01064 96221 32460 63006 10324 20218 30077 40092 57021 85121 333 56999 85815
AAXX 01064 96237 01420 80311 10275 20254 30054 40096 56019 60051 76262 85371 333 56000 57901 60057 81918 84815 83360 86080 80980
AAXX 01064 96249 32560 73308 10298 20246 30032 40092 57017 84232 333 56700 57871 84820 80863
AAXX 01064 96253 01457 72309 10294 20242 30069 40089 57009 69901 76062 84972 333 56000 57900 69907 81915 82820 84460
AAXX 01064 96295 32460 82612 10288 20242 39996 40098 56018 8522/ 333 56609 57860 84812 80800
AAXX 01064 96509 32460 63110 10310 20253 30072 40083 57038 85131 333 56000 85815
AAXX 01064 96581 32460 63503 10326 20225 30084 40091 57023 84131 333 56600 84811 84361 80860
AAXX 01064 96633 32458 83507 10292 20249 30074 40082 57021 83971 333 56000 57900 81918 82618 86460 809//
AAXX 01064 96645 32459 72905 10318 20256 30050 40082 57026 85232 333 56000 57802 85813 80858
AAXX 01064 96655 32460 80309 10312 20246 30072 40106 57021 85271 333 56600 57862 82812 83612 88280 80861
AAXX 01064 96685 32460 70404 10304 20244 30065 40091 57022 83811 333 56000 82820
AAXX 01064 96749 01458 82615 10270 20229 30081 40094 56022 60261 70562 8447/ 333 56009 60047 84619 88460
AAXX 01064 96781 11450 82912 10256 20214 39272 48732 56018 69901 70522 84971 333 56000 57901 81917 80982 83618
AAXX 01064 96805 01559 72605 10282 20244 30089 40098 56016 60101 71462 84211 333 56000 57801 60027 84820 85460 80860
AAXX 01064 96839 NIL
AAXX 01064 96935 11559 82906 10298 20246 30068 40074 57030 69911 70262 83272 333 56000 69907 83820 86080
AAXX 01064 67765 11384 70302 10206 20191 38664 48508 60024 71522 86672 333 20180 59006 86707 87460
AAXX 01064 96001 11557 81008 10278 20264 39976 40124 56019 60151 70522 84572 333 56200 84620
AAXX 01064 96015 NIL
AAXX 01064 96033 11456 73606 10292 20249 30107 40113 57020 69901 70522 83928 333 56000 57903 57803 81920 82818 80980 80860
AAXX 01064 96075 96075 32459 50107 10309 20244 30103 40109 57018 83271 333 56000 57802 83816 80856
AAXX 01064 96087 32459 60510 10298 20240 30071 40104 56019 82231 333 56800 57883 82815 83360 80857
AAXX 01064 96171 32558 50000 10320 20206 30068 40092 57020 82521 333 56000 82620
AAXX 01064 96207 NIL
AAXX 01064 96505 31462 83011 10256 20220 39060 4//// 57010 71522 86511 333 56000 86617
AAXX 01064 96525 32460 50000 10317 20238 30077 40084 57037 83271 333 56000 83615
AAXX 01064 96529 32460 50000 10310 20258 30080 40104 57028 83131 333 56000 83818
AAXX 01064 96535 32460 50104 10326 20251 30085 40106 57019 84101 333 56000 84814 83082
AAXX 01064 96557 32460 70503 10322 20243 30041 40091 57016 84371 333 56200 57921 57821 81912 83813 85460 80980 80857
AAXX 01064 96559 32459 50203 10320 20243 30050 40088 56024 84231 333 56100 57813 84812 80858
AAXX 01064 96565 32460 60000 10330 20264 30040 40092 57039 83221 333 56000 57802 83810 80850
AAXX 01064 96595 32462 70000 10312 20249 30049 40100 57024 86526 333 56000 86613
AAXX 01064 96607 32460 70502 10318 20244 30079 40094 57028 85221 333 56000 85815
AAXX 01064 96615 32460 73507 10316 20245 30079 40093 57024 81231 333 56000 57803 81815 80858
AAXX 01064 96695 32458 62606 10316 20243 30079 40085 58026 84211 333 56000 57802 84818 80860
AAXX 01064 96737 01450 82606 10274 20236 30059 40089 58015 60031 70562 85521 333 56000 60027 85617 84460
AAXX 01064 96739 01450 82615 10256 20238 30051 40100 57018 60301 72166 8552/ 333 56009 60037 85618
AAXX 01064 96741 NIL
AAXX 01064 96745 01456 83007 10256 20238 30097 40102 57016 60081 72162 8552/ 333 56009 60057 85619 88459
AAXX 01064 96751 01430 80000 10203 20187 39025 48920 57014 60251 76164 8752/ 333 56609 60257 87617 82460
AAXX 01064 96791 31457 80000 10272 20252 30021 40095 57028 71522 8497/ 333 56000 57901 81918 83618
AAXX 01064 96797 32460 70203 10290 20250 30078 40082 57015 83271 333 56000 57802 83820 80860
AAXX 01064 96837 NIL
AAXX 01064 96925 01465 72505 10295 20241 30076 40081 56025 69901 70262 82272 333 56600 57860 69907 82817 85080 80860
AAXX 01064 96933 11460 42808 10304 20249 30073 40077 57025 69901 70162 81821 333 56600 57864 81818 83460 80857
AAXX 01064 96937 11561 63207 10316 20257 30072 40077 58028 69901 70262 83231 333 56000 83820
AAXX 01064 96973 01562 70402 10300 20260 30071 40077 57026 69901 70262 81176 333 56000 57803 69907 81820 80850 84457
AAXX 01064 96987 01457 70504 10278 20225 30022 40082 57015 60011 79592 85921 333 56400 57942 60017 82918 8318/ 80980
BBXX 44140 01061 99429 70515 46/// /1012 10122 40204 57060 22200 00082 11406 70030 333 91215
AAXX 01061 98134 NIL
AAXX 01061 98223 31562 23610 10270 20210 40119 57034 70544 82200 333 56999 82820 91013
AAXX 01061 98232 21570 80410 10252 20227 40147 58025 71542 847// 222// 20105 333 56199 84820 88358
AAXX 01061 98325 31462 33605 10290 20257 40126 58016 70544 82201 333 56999 82817
AAXX 01061 98328 31458 81802 10212 20180 38526 40101 58019 74644 885// 333 56999 85612 83813
AAXX 01061 98330 31470 32901 10315 20249 30087 40119 57032 70544 83200 333 56999 83818
AAXX 01061 98336 32475 30406 10286 20253 30128 40133 57026 82201 333 56199 82818
AAXX 01061 98429 31505 53003 10294 20225 40112 57036 70544 83230 333 56999 83825 83360
AAXX 01061 98430 31558 62702 10300 20242 40115 57029 70544 82870 333 56999 82620 84358
AAXX 01061 98431 31469 61201 10282 20241 30071 40118 58028 70544 82230 333 56999 82818 86360
AAXX 01061 98440 11450 80704 10265 20245 30117 40122 57022 60021 76084 8427/ 333 56299 84815 88457
AAXX 01061 98444 32468 30403 10308 20256 30084 40103 56026 82202 333 56999 82818
AAXX 01061 98526 32575 32102 10328 20266 40109 57022 83100 333 56999 83820 98315
AAXX 01061 98531 31570 13004 10311 20258 30098 40102 58031 70544 81200 333 56799 81820
AAXX 01061 98536 31470 40403 10277 20236 39914 40113 57028 70544 82261 222// 20000 333 56199 82818
AAXX 01061 98543 32480 50202 10300 20261 30090 40101 57030 82201 333 56199 82818 84075
AAXX 01061 98550 11460 40403 10280 20237 40096 57031 60061 72581 83962 333 56199 81915
AAXX 01061 98618 32580 20904 10314 20245 40102 58025 82201 333 56999 82820
AAXX 01061 98630 32575 30205 10304 20263 40123 58012 82201 222// 2//03 333 56199 82820
AAXX 01061 98637 NIL
AAXX 01061 98646 32560 60206 10306 20248 30087 40115 57025 81232 333 56199 81820 83360 85080
AAXX 01061 98653 11465 70403 10303 20260 30037 40082 57021 60011 70584 82270 333 56199 82818 87358
AAXX 01061 98741 11470 60402 10295 20259 40093 57023 60031 70584 82908 333 56199 82917 86275
AAXX 01061 98747 31458 83601 10290 20255 39877 40081 57028 70544 8387/ 333 56999 83618 88358
AAXX 01061 98753 11462 83602 10277 20249 40098 57023 60011 76064 84927 333 56899 81915 83816 86459 88279
AAXX 01061 98755 32575 80403 10297 20259 40090 58023 8227/ 333 56199 82820 88360
AAXX 01061 98836 32462 71802 10311 20245 40092 57026 83201 333 56999 83818 84081
BBXX 46036 01061 99484 71339 46/// /1611 10086 40029 5//// 22200 00079 11007 70035 333 91214
BBXX 46036 01061 99484 71339 46/// /1611 10086 40029 5//// 22200 00079 11007 70035 333 91214
AAXX 01061 88900 46/// /2218 10043 20022 30023 40026 53009 333 55016
BBXX 63106 01064 99610 10017 46/// /2117 10082 49842 57012 22200
BBXX 63105 01064 99610 10017 47997 ///// 10088 20048 49841 57012 700// 22200
BBXX 62094 01064 99517 70067 46/// /2224 10111 20096 40028 56018 22200 00107 10606 70031 333 90710 91133
BBXX 62103 01064 99499 70029 46/98 /2420 10122 20114 40100 57008 22200 00119 10704 70019 333 90710 91132
BBXX UASP 01061 99692 10352 41/96 91308 11011 40155 51001 70211 8//// 222// 20403
BBXX E5U2123 01063 99469 70075 41/97 82027 10140 20122 40142 57010 75855 88/// 22253 00135 21006 3//// 4//// 5//// 80130
AAXX 01064 42309 31596 60000 10222 20152 40158 70522 82530 333 59019
AAXX 01064 42410 31595 60505 10204 20168 40164 70522 83530 333 59030 83620 85360
AAXX 01064 42415 32596 60000 10200 20134 40180 83330 333 59022 82620 81930 85360
AAXX 01061 20046 31996 52511 11151 21164 30112 40145 57006 73831 80001 333 21266 91116
AAXX 01061 20069 41977 22709 11161 21198 30172 40186 51003 73730 82030
AAXX 01061 20087 NIL
AAXX 01061 20292 41495 20411 11207 21232 30078 40098 52027 73830 81530 333 91114
AAXX 01061 20353 NIL
AAXX 01061 20667 32998 81104 11181 21200 30214 40222 52026 8807/ 333 21179
AAXX 01061 20674 41998 03408 11190 21209 30114 40177 52033 73631 333 91112
AAXX 01061 20744 32998 31208 11133 21168 30225 40244 52014 82031 333 21145
AAXX 01061 20891 42998 61803 11144 21171 30026 40070 54000 85050 333 91104
AAXX 01061 23022 11497 80607 11071 21114 30130 40192 52009 69900 72683 8455/ 333 21162
AAXX 01061 23032 11496 80504 11148 21161 30162 40194 52011 69950 78582 889// 333 21136 88910
AAXX 01061 23058 31496 81401 11160 21173 30209 40214 52004 77172 8652/ 333 21201 86610
AAXX 01061 23242 32997 71302 11154 21173 30174 40191 57005 87030 333 21220 48044
AAXX 01061 23256 32398 61302 11227 21252 30190 40229 52003 84601 333 21214 84707
AAXX 01061 23330 11297 80000 11141 21154 30158 40180 52002 69970 77172 8677/ 333 21179 86704
AAXX 01061 23445 11696 81403 11092 21099 30166 40192 57005 69920 77172 885// 333 21194 88633
AAXX 01061 23552 31296 80000 11092 21099 30192 40228 57010 78582 889// 333 21189 88706
AAXX 01061 23631 11295 81701 11073 21078 30139 40181 52001 69960 77372 8652/ 333 21088 82706
AAXX 01061 23662 11496 81502 11090 21097 30225 40271 57008 69900 77172 8652/ 333 21189
AAXX 01061 23724 12999 80101 11080 21086 30115 40183 52006 60010 8807/ 333 21094
AAXX 01061 23734 11998 81601 11052 21055 30098 40191 54000 60010 70271 8802/ 333 21115
AAXX 01061 23849 42496 82104 11058 21076 40243 57006 8802/ 333 88512
AAXX 01061 23867 11997 81903 11058 21076 30228 40302 57004 69900 77172 8802/ 333 21065
AAXX 01061 23933 12997 81803 11092 21112 30168 40226 54000 69940 8807/ 333 21086
AAXX 01061 28064 32999 81902 11106 21150 30141 40236 54000 80001 333 21088
AAXX 01061 28275 32598 81703 11106 21159 30222 40284 53001 86501 333 21117
AAXX 01061 28493 32998 81802 11098 21119 30257 40355 52008 80002 333 21102
AAXX 01061 28698 32998 82102 11151 21178 30215 40381 52001 80002 333 21176
BBXX 46238 01061 99334 71195 46/// ///// 1//// 90620 22200 00139 11503 21002 329// 41503 70016
BBXX 46239 01061 99363 71221 46/// ///// 1//// 90621 22200 00119 11306 20903 330// 41305 70030
AAXX 01064 70200 12566 60000 11333 21361 30164 40171 53002 69901 90553 333 11306 21356 555 90106
BBXX 42362 01061 99278 70907 46/// /1605 10222 20189 40227 90630
BBXX 42364 01061 99291 70881 46/// /1806 10211 20161 40234 90630
AAXX 01064 78318 12565 11203 10216 20188 30203 40207 58009 60001 81100 333 10292 20200 30/// 56900 58014 81821
AAXX 01064 78325 11530 10905 10216 20177 30154 40212 58011 60001 70400 81200 333 10265 20199 30/// 56900 58015 81820
AAXX 01064 78333 12910 00702 10212 20193 30200 40207 56004 60001 333 10287 20194 30/// 58010
AAXX 01064 78348 11556 20404 10233 20203 30158 40210 58008 60001 70500 82200 333 10259 20220 30/// 56200 57835 58015 82820 555 10702
AAXX 01064 78349 12540 13501 10216 20208 30110 40220 58001 60001 81100 333 10300 20190 30/// 56900 58015 81820
AAXX 01064 78353 12560 20702 10249 20209 30181 40203 58009 60001 82200 333 10286 20235 30/// 56900 58007 82820
AAXX 01064 78360 11/60 10304 10233 20220 30175 40186 58008 60001 70191 81200 333 10305 20210 30/// 56900 58006 818// 92023
AAXX 01061 23426 11968 80501 11120 21126 30153 40178 52003 69930 77172 8807/ 333 21131
AAXX 01061 23625 11996 80501 11060 21068 30137 40172 52004 69980 77182 8802/ 333 21060
AAXX 01061 28076 32997 81802 11096 21104 30176 40252 57006 8807/ 333 21094
AAXX 01061 28367 32996 81905 11120 21155 30153 40289 52004 80005 333 21112
AAXX 01061 28382 32984 80000 11160 21166 30242 40318 58004 8807/ 333 21146
AAXX 01061 28481 32998 82004 11138 21181 30230 40336 53001 80002 333 21143
AAXX 01061 28491 32969 61802 11136 21171 30224 40342 54000 82031 333 21122
AAXX 01061 28573 32998 72004 11158 21185 30240 40352 52007 82031 333 21152
AAXX 01061 28593 32998 81803 11121 21148 30257 40361 58002 82035 333 21107
AAXX 01061 28786 32998 82302 11147 21174 30219 40389 52004 80002 333 21157
AAXX 01061 28797 32997 32101 11160 21187 30220 40390 53004 80001 333 21187
AAXX 01061 28799 32998 32101 11175 21209 30241 40399 52003 80005 333 21192
AAXX 01063 63612 32980 01804 10268 20143 40156 333 20193 50000
AAXX 01063 63671 32980 00907 10250 20181 333 20175
AAXX 01063 63695 32580 00104 10203 20096 333 20099
AAXX 01063 63723 32982 00904 10274 20191 40143 333 20216 58005
AAXX 01063 63772 32580 10417 10290 20219 81100 333 20227 81823
AAXX 01063 63793 32480 13608 10250 20181 40137 81140 333 20207 58000 81818
AAXX 01064 63661 32980 10000 10158 20115 48563 81030 333 20084 58001 81359
AAXX 01064 63688 32580 31005 10174 20090 48/// 81931 333 20080 58000 81920 83359
AAXX 01064 63708 32980 10000 10225 20172 48523 81030 333 10168 58001 81358
AAXX 01064 63740 32980 00309 10189 20113 48504 333 20126 59001
AAXX 01064 63820 32580 43310 10276 20220 40148 84100 333 20240 58005 84821
AAXX 01064 63612 NIL
AAXX 01064 63671 NIL
AAXX 01064 63695 NIL
AAXX 01064 63714 NIL
AAXX 01064 63723 NIL
AAXX 01064 63772 NIL
AAXX 01064 63793 NIL
BBXX WXS6134 01064 99477 70890 41/92 82722 11000 2//// 40027 57/// 77572 8//// 22263 00050 21004 3//// 4//// 5//// 6//// 8//// ICE /////
BBXX NAZJ 01064 99508 71572 41/97 53624 11022 2//// 40129 52/// 7//// 8/84/ 22252 04044 20503 324// 40606 50606 6//// 8//// ICE /////
BBXX C6RN3 01064 99263 70787 41898 20414 10220 20174 40260 54000 7//00 80//9 22234 00260 20101 333// 4//// 5//// 6//// 80190 ICE /////
BBXX 46219 01061 99332 71199 46/// ///// 1//// 90628 22200 00136 11505 21003 329// 41504 70024
BBXX 46224 01061 99332 71175 46/// ///// 1//// 90606 22200 00146 11302 21001 323// 41301 70009
BBXX 46214 01061 99379 71235 46/// ///// 1//// 90620 22200 00119 11306 21003 329// 41305 70030
BBXX 44060 01061 99413 70721 46/// ///04 10071 40159 90630 22200 00090 333 91205 555 11036 22041
BBXX 44022 01061 99409 70737 46/// ///03 10077 20040 40172 90630 22200 00070 333 91204 555 11036 22041
BBXX 44040 01061 99410 70736 46/// /3005 10081 20051 40178 90619 22200 1//00 70001 333 91205 555 11057 22072
BBXX 51204 01061 99213 71581 46/// ///// 1//// 90622 22200 00247 11302 21001 330// 41302 70010
BBXX 51202 01061 99214 71577 46/// ///// 1//// 90610 22200 00238 11003 21003 307// 41101 70016
BBXX PDWT 01063 99287 11269 41396 83219 10160 20108 40220 56015 7//11 887// 22252 20402 331// 40703 5//// 80130
BBXX A8EH3 01063 99366 11422 41297 81733 10090 40180 56030 79497 887// 22244 04120 29904 335// 40805
BBXX OYCY2 01064 99312 11245 41696 83330 10090 2007/ 40280 51010 71022 8561/ 22253 00170 20807 335// 41207 5//// 6//// 80080 ICE /////
BBXX A8ME3 01060 99187 11172 41498 60213 10260 20201 40150 56025 70211 8/51/ 22213 04240 20505 302// 41207 5////
BBXX ELWD5 01063 99050 10985 41697 70310 10265 20213 40100 58010 7//22 8/32/ 22214 2//01 80230
BBXX ZDLP 01063 99538 50379 41297 82730 10044 20024 40019 54000 70222 886// 22231 04029 20304 327// 40408 5//// 80036
BBXX 62141 01063 99493 50591 41/91 /3625 10123 20123 40113 52010 74544 8//// 22200 20503 335// 40602 5//// 80123
BBXX DANV 01064 99123 10594 41597 40517 10260 20202 40160 52030 70322 84281 22224 04240 20204 80220
BBXX MLRM6 01063 99399 30056 41598 42526 10126 20100 40082 53010 70165 84500 22262 00129 20204 324// 40506 5////
BBXX A8RL4 01064 99318 30296 41697 53008 10230 40110 5/000 7//// 854// 22213 00260 20000
BBXX TBWUK17 01063 99350 30204 41398 72819 10198 20172 40168 54000 70122 86470 22262 20203 324// 40606 5//// 80182
BBXX TBWUK18 01063 99310 30474 41498 51307 10220 20134 40162 52005 70111 8556/ 22222 00250 20401 319// 40502 5//// 80170
BBXX A8UQ2 01064 99250 10576 41697 11414 10250 20074 40180 51/// 70011 81//5 22273 00240 20101 309// 40103 5//// 80150
BBXX A8CS2 01063 99129 10486 41498 30910 10240 20210 40190 52005 70211 82140 22224 21201 3//// 4//// 5//// 80220
BBXX A8ZP9 01063 99288 30355 41597 40908 10250 40145 58005 70211 82144 22264 00260 20100 3//// 4//// 5////
BBXX 2AJI3 01063 99037 10055 41498 70000 10265 20244 40116 52/// 70311 8417/ 22263 00290 20000 300// 4//// 5//// 80250
BBXX 2ALE5 01063 99170 70177 41697 40825 10200 20060 40189 57008 70311 845// 22243 20607 80130
BBXX A8RV9 01064 99165 50184 41398 60622 10215 20161 40160 53010 70300 8/77/ 22234 20604 312// 40804 5//// 80180
BBXX PCSV 01063 99280 30060 41598 62010 10178 20132 40214 50/// 70211 86500 22273 04187 20602 322// 41004 80150
BBXX DMQN 01064 99004 70311 41/97 /0515 10245 20224 40120 54000 70082 8//// 22243 04280 20402 3//// 4//// 5//// 80230
BBXX 46036 01061 99484 71339 46/// /1611 10086 40029 5//// 22200 00079 11007 70035 333 91214
BBXX 44140 01061 99429 70515 46/// /1012 10122 40204 57060 22200 00082 11406 70030 333 91215
BBXX A8QM9 01064 99346 70747 41598 41817 10170 20100 40200 54000 70222 84143 22253 20504 317// 41003 80130
BBXX 44258 01061 99445 70634 46/// /3402 10063 40017 57035 22200 00054 10704 70020 333 91203
BBXX 44039 01061 99411 70727 46/// /2705 10081 20065 40177 90553 22200 00083 1//00 70001 333 91207
BBXX 44099 01061 99369 70757 46/// ///// 1//// 90622 22200 00103 10601 20601 70006
BBXX 44062 01061 99386 70764 46/// /3605 10085 40181 51007 90600 22200 00080 10201 70003 333 91207
BBXX 44042 01061 99380 70763 46/// /2702 1//// 90620 333 91203
BBXX 42013 01061 99272 70829 46/// ///// 1//// 40232 90540
BBXX 44063 01061 99390 70764 46/// /0000 1//// 90620 333 91200
BBXX 44063 01061 99390 70764 46/// /0000 10074 40216 53014 90600 22200 00069 1//00 70001 333 91200
BBXX 44063 01061 99390 70764 46/// /0000 1//// 40209 90610 333 91200
BBXX 44041 01061 99372 70768 46/// /2701 10062 40224 51005 90600 22200 00086 1//00 70000 333 91202
BBXX 41113 01061 99284 70805 46/// ///// 1//// 90621 22200 00214 11101 70003
BBXX 41110 01061 99341 70777 46/// ///// 1//// 90621 22200 00134 10601 20601 70007
BBXX 44100 01061 99363 70756 46/// ///// 1//// 90622 22200 00124 10701 20701 70005
BBXX 42361 01061 99276 70925 46/// ///08 10222 20194 40210 51003 90630 555 11067 22072
BBXX 42099 01061 99273 70842 46/// ///// 1//// 90627 22200 00224 10501 20501 70004
BBXX 41010 01061 99289 70785 46/// /0000 10218 40228 90620 22200 00236 10502 20401 300// 40501 70008 333 91202 555 11004 22004
BBXX 41009 01061 99285 70802 46/// /1502 10228 20138 40232 90620 22200 00234 10901 300// 40901 70004 333 91202 555 11019 22019
BBXX 44043 01061 99392 70764 46/// /2604 10074 40192 51006 90600 22200 00060 1//00 70000 333 91205
BBXX 44043 01061 99392 70764 46/// /2503 1//// 90620 333 91203
BBXX 44043 01061 99392 70764 46/// /2603 1//// 40192 90610 333 91205
BBXX 44042 01061 99380 70763 46/// /2702 10084 40204 51008 90600 22200 00081 1//00 70000 333 91203
BBXX 44042 01061 99380 70763 46/// /2702 1//// 40203 90610 333 91202
BBXX 44041 01061 99372 70768 46/// /2701 1//// 40224 90610 333 91202
BBXX 44041 01061 99372 70768 46/// /2601 1//// 90620 333 91202
BBXX 44062 01061 99386 70764 46/// /3504 1//// 90620 22200 00080 333 91205
BBXX 44062 01061 99386 70764 46/// /3605 1//// 40182 90610 22200 00080 333 91206
BBXX 46225 01061 99329 71174 46/// ///// 1//// 90614 22200 00150 11402 21001 327// 41402 70011
BBXX 46213 01061 99403 71247 46/// ///// 1//// 90624 22200 00109 11306 21003 329// 41305 70030
BBXX 46217 01061 99342 71194 46/// ///// 1//// 90612 22200 00144 11302 21002 327// 41301 70011
BBXX 46212 01061 99408 71243 46/// ///// 1//// 90612 22200 00104 11405 20903 329// 41404 70024
BBXX 46243 01061 99462 71241 46/// ///// 1//// 90629 22200 00080 11304 21002 326// 41303 70019
BBXX 46215 01061 99352 71209 46/// ///// 1//// 90608 22200 00127 11204 21002 328// 41203 70021
BBXX 46229 01061 99438 71246 46/// ///// 1//// 90621 22200 00098 11305 21003 327// 41304 70027
BBXX 46236 01061 99368 71219 46/// ///// 1//// 90620 22200 00121 11304 21003 328// 41303 70022
BBXX 46146 01061 99493 71237 46/// /0907 10056 40262 57005 22200 00068 10301 70004 333 91208
BBXX 46246 01061 99500 71451 46/// ///// 1//// 90559 22200 00068 11210 21006 315// 41207 70048
BBXX 46232 01061 99325 71174 46/// ///// 1//// 90608 22200 00147 11503 20702 328// 41502 70015
BBXX 46246 01061 99500 71451 46/// ///// 1//// 90629 22200 00068 11209 21006 315// 41206 70043
BBXX 46247 01061 99378 71228 46/// ///// 1//// 90621 22200 00116 11304 21003 328// 41303 70022
BBXX 44058 01061 99376 70763 46/// /2701 1//// 90620 333 91201
BBXX 44057 01061 99395 70761 46/// /3101 1//// 90620 333 91202
BBXX 44059 01061 99368 70763 46/// /0000 10084 40196 54000 90600 22200 00103 333 91201
BBXX 44057 01061 99395 70761 46/// /2702 1//// 40192 90610 333 91202
BBXX 44059 01061 99368 70763 46/// /2201 1//// 90620 333 91201
BBXX 44057 01061 99395 70761 46/// /2402 10060 40192 51005 90600 22200 00042 333 91203
BBXX 44059 01061 99368 70763 46/// /2301 1//// 40196 90610 333 91201
BBXX 44058 01061 99376 70763 46/// /2503 10083 40200 51005 90600 22200 00086 1//00 70001 333 91203
BBXX 46004 01061 99509 71361 46/// /1410 10069 49975 57015 22200 00071 11009 70045 333 91212
BBXX C6RN3 01064 99263 70787 41898 20414 10220 20174 40260 54000 7//00 80//9 22234 00260 20101 333// 4//// 5//// 6//// 80190 ICE /////
BBXX 46184 01061 99539 71389 46/// /1510 10067 49952 57001 22200 00059 11211 70056 333 91212
BBXX 46181 01061 99538 71288 46/// /0409 11019 40218 57003 22200 00037 10301 70005 333 91212
BBXX PENR 01064 99114 70610 41497 41732 10275 20239 40130 58020 70311 83145 22214 20503 309// 41004 80250
BBXX ZCDG4 01063 99134 70708 41998 00738 10262 20216 40134 57022 70200 80000 22234 00280 20504 308// 40806 5////
BBXX ZCDY2 01064 99214 70699 41/98 12524 10257 20203 40203 57003 70200 81100 22234 00260 20304 3//// 4//// 5////
BBXX A8LP6 01064 99345 70353 41/98 82306 10180 20172 40320 54000 70352 8//// 22224 04161 29901 399//
BBXX 46132 01061 99497 71279 46/// /1217 10057 40181 52002 22200 00082 10811 70056 333 91221
BBXX 46205 01061 99542 71343 46/// /1416 10068 40039 57022 22200 00070 11111 70057 333 91221
BBXX 46206 01061 99488 71260 46/// /1213 10067 40219 52001 22200 00081 10605 70027 333 91216
BBXX A8IM7 01064 99342 71286 41598 61810 10150 20116 40230 52020 70322 8/300 22224 20201 328// 40504 5//// 80130
BBXX VRFO7 01064 99281 70455 41698 41416 10220 20172 40300 57010 70311 81442 22254 20404 333// 40606 80190
BBXX 46185 01061 99524 71298 46/// /1418 10064 40143 57007 22200 00071 10911 70057 333 91222
BBXX 46242 01061 99332 71174 46/// ///// 1//// 90558 22200 00145 11301 20901 325// 41301 70007
BBXX 46221 01061 99339 71186 46/// ///// 1//// 90545 22200 00149 11402 20901 325// 41402 70010
BBXX 51205 01061 99210 71564 46/// ///// 1//// 90618 22200 00244 11004 21003 308// 41102 70018
BBXX 46114 01061 99364 71222 46/// ///// 1//// 90604 22200 00121 11306 21004 328// 41305 70032
BBXX C6VG7 01064 99249 70801 41797 41220 10280 2//// 40220 54/// 7//// 831// 22214 00270 20402 3//// 4//// 5//// 6//// 8//// ICE /////
BBXX 41036 01061 99342 70770 46/// ///// 10164 20077 40213 90620 22200 00197
BBXX 41114 01061 99276 70802 46/// ///// 1//// 90616 22200 00233 11101 21001 70003
BBXX 41115 01061 99184 70673 46/// ///// 1//// 90605 22200 11202 21002 301// 41201 70010
BBXX NAZJ 01064 99508 71572 41/97 53624 11022 2//// 40129 52/// 7//// 8/84/ 22252 04044 20503 324// 40606 50606 6//// 8//// ICE /////
BBXX WL3108 01064 99467 70862 41/98 81815 10011 2//// 40044 57/// 70222 8//// 22263 00039 20601 3//// 4//// 5//// 6//// 8//// ICE /////
BBXX A8CC9 01064 99183 31167 41697 62911 10300 20231 40085 55010 703// 85444 22243 06320 20801 318// 40902 5//// 80250
BBXX ZCAO7 01063 99142 31203 41498 52307 10288 20254 40060 57010 70322 82139 22254 00310 20301 327// 40602 80264
BBXX A8SF7 01061 99181 51273 41598 20303 10250 20204 40170 54000 70200 821// 22254 04240 20501 311// 41003 5//// 80220
BBXX DCAX2 01063 99226 51460 41596 63615 10271 20229 40161 52011 70322 85341 22233 20904 332// 41005 5//// 80241
BBXX VNAH 01064 99383 31416 46/// /1310 10186 20154 30097 40120 57016 22200 85166
BBXX FHZI 01064 99582 31456 46/// /2811 10028 20021 30028 40039 52015 22213 04019 85025
BBXX VNAA 01064 99489 31393 41598 83619 10092 20073 40120 58014 70722 8552/ 22214 04094 20503 320// 41206
BBXX VROB 01064 99218 31531 46/// /1423 10254 20157 30081 40106 57014 22283 04278 85191
BBXX DGZT2 01063 99491 70045 41/97 82420 10135 20118 40115 57025 76222 8//// 22214 04130 2//// 80125
BBXX ZNQO3 01060 99460 70081 41/97 82016 10145 20127 40151 54000 70222 8//// 22254 04137 2//// 3//// 4//// 5//// 80135
BBXX VRGM8 01063 99431 10149 41398 13108 10130 20026 40205 52006 70200 811// 22234 00152 20501 331// 40801 5//// 80080
BBXX MGGK4 01060 99504 10002 41/98 82413 10100 20100 40098 50/// 70244 8//// 22255 00119 2//// 3//// 4//// 5//// 80100
BBXX A8VL5 01064 99514 10027 41397 82227 10100 20100 40190 54000 76062 887// 22200 00120 20404 30000 80100
BBXX PDZS 01063 99635 50557 41597 39902 10008 21018 49898 53004 701// 83500 22200 03002 29901 3//// 4//01 5//// 81002 ICE 0/9/0
AAXX 01061 20087 41998 23304 11237 21268 30152 40163 52027 70231 81031 333 91112
AAXX 01064 63832 32480 60000 10210 20189 38850 48524 82931 333 20194 50301 55011 55300 58025 82817 81919 85358
AAXX 01064 63870 32575 43616 10286 20249 30120 40138 84200 333 20256 51301 55106 55310 58007 84820
AAXX 01064 63894 32580 53513 10284 20244 30082 40142 85200 333 20265 50751 55106 55310 58005 85821
AAXX 01064 63971 11580 43414 10278 20249 30002 40130 60024 72162 84900 333 0//11 20246 50411 55081 55308 58010 84822 81923
BBXX KS007 01064 99267 70801 43/// ///// 10228 40188 22200
BBXX KS094 01064 99179 70629 43/// /1013 10261 40189 22200 06257
BBXX KS098 01064 99446 71241 43/// /0406 10069 40214 22200 06000
BBXX KS088 01064 99267 70801 43/// /0701 10228 40226 22200 06221
AAXX 01064 91723 NIL
AAXX 01064 91964 36/// /0610 10221 20216 40194 52015
AAXX 01064 08360 02970 02301 10106 20022 30223 40261 53002 60002 333 20100 30010 55085 60007 70000
AAXX 01061 01212 16/// /1707 10067 20040 39849 49865 58009 60004 333 20045 70000 91112
AAXX 01061 01317 11480 81504 10063 20042 39876 49890 57008 60092 78086 878// 333 20041 91112
AAXX 01061 01415 16/// /1706 10074 20059 39899 49910 56010 6//// 333 20047 70082 91115
AAXX 01064 94996 41475 61308 10207 20169 39976 40111 53006 71511 86400 90630
AAXX 01064 94996 41475 61308 10207 20169 39976 40111 53006 71511 86400 90630
BBXX 44137 01061 99423 70620 46/// /2905 10102 49999 57055 22200 00089 10705 70026 333 91207
BBXX 44137 01061 99423 70620 46/// /2905 10102 49999 57055 22200 00089 10705 70026 333 91207
AAXX 01064 60421 11960 30000 10010 20007 39234 48562 53006 60004 700// 80002 333 05200 20009 83070 95900
AAXX 01064 67017 NIL
AAXX 01064 67020 NIL
AAXX 01064 67023 12582 41210 10314 20252 30103 40109 55002 69964 83901 333 02019 10324 20218 50264 55/// 82820 81920 94964 95814 555 81640 82073
AAXX 01064 67037 11581 7//// 10/// 20/// 30076 40117 5/009 60014 70362 84833 333 0//14 10/// 20/// 50//4 55/// 82820 83640 555 83360 82073 RR = 1.3MM 67067 11570 3//// 10243 20203 39260 48/// 51004 60434 7101/ 83230 333 0//079 10290 20200 50234 55/// 83823 555 81360
AAXX 01064 67107 NIL
AAXX 01064 67131 32582 53606 10/// 20/// 30095 40100 51006 83802 333 0//00 10/// 20/// 50//4 55/// 83820 555 81640 82073
AAXX 01064 67002 12581 33408 10310 20243 30109 40143 69924 83800 333 20257 55112 58001 82822 92408
AAXX 01064 67009 NIL
AAXX 01064 67012 12582 61804 10274 20248 30117 40128 51007 60334 82230 333 0//19 10314 20240 50234 55/// 82820 85360
AAXX 01064 67025 12582 31602 10315 20241 30010 40108 50001 60054 82832 333 0//// 10318 20233 50154 55/// 81820 555 82640 81360 81073
AAXX 01064 67027 11570 63008 10274 20240 30099 40120 58002 60584 72196 83932 333 02026 10298 20237 50094 55022 82820 81920 85360 94965 95835 555 82640 82073= RR.:57.8MM 67045 NIL
AAXX 01064 67072 11470 52208 10285 20241 30126 40129 51006 60144 71562 83830 333 02409 10302 20256 50214 55/// 82817 83360 555 82640 92428
AAXX 01064 67073 11582 5//// 10286 20237 30096 40122 51005 60154 70162 82933 333 0//15 10324 20248 50//4 55/// 81020 81920 94965 95835 555 82633 82360 81073
AAXX 01064 67083 12581 60000 10226 20181 38751 48525 52006 60724 85802 333 01729 20179 50204 55041 85820
AAXX 01064 67095 12481 52004 10297 20234 30111 40118 51001 60064 83832 333 02417 10328 20232 50404 55/// 83817 83360 555 82633 82073
AAXX 01064 67113 NIL
AAXX 01064 67117 NIL
AAXX 01064 67137 12480 70000 10242 20196 38892 48500 50002 60214 82802 333 0//19 10253 20193 50114 55/// 82817 87073 555 81620
AAXX 01064 67143 12582 3//// 10/// 20/// 30114 40121 52001 60074 81230 333 0//00 10/// 20/// 50//4 55/// 81820 83360 92438
AAXX 01064 67152 12580 4//// 10243 20224 39197 48504 51007 60354 84200 333 02029 10295 20206 50374 55/// 84820
AAXX 01064 67157 11470 7//// 10/// 20/// 30143 40150 52006 60124 71562 878// 333 0//13 10/// 20/// 50//4 55/// 82817 87633 = RR 11.5MM 67161 32582 2000 10295 20230 30095 40104 51008 81202 333 0//00 10315 20220 50524 55/// 81823 555 82073
AAXX 01064 67197 11458 7008 10248 20225 30126 40136 51004 69924 71522 878// 333 01519 10290 20232 50384 55101 83817 85633
AAXX 01064 64700 31915 53204 10144 20021 39800 40144 70611 80002 333 0//00 20144 50921 55110 58005 85075
AAXX 01064 64701 NIL
AAXX 01064 64702 NIL
AAXX 01064 64705 31915 70000 10153 20052 3//// 4//// 705// 80002 90600 333 0//00 2//// 50914 55/// ///// 5//// 87075
AAXX 01064 64706 31930 60000 10195 20058 39651 40123 705// 80002 333 01400 20086 51764 55101 59001 86075
AAXX 01064 64708 NIL
AAXX 01064 64709 31905 73610 10190 21004 3//// 4//// 705// 80002 90600 333 0//00 20185 5//// ///// 55/// 5//// 87075
AAXX 01064 64710 NIL
AAXX 01064 64713 NIL
AAXX 01064 64722 31920 10000 10180 20108 3//// 4//// 705// 80002 90600 333 0//00 20150 50664 ///// 55/// 5//// 81075
AAXX 01064 64750 32965 60000 10165 20076 39686 40099 80002 90600 333 01200 20140 50661 ///// 55092 59016 86075
AAXX 01064 64751 31958 60408 10175 21009 3//// 4//// 705// 81032 90550 333 0//00 20165 50933 ///// 55/// 5//// 81365 86075
AAXX 01064 64753 31940 20421 10150 21018 3//// 4//// 707// 80002 90552 333 0//00 20145 51384 ///// 55/// 5////82075
AAXX 01064 64754 33960 00000 10186 20054 3//// 4//// 90600 333 0//00 20150 50574 ///// 55/// 5////
AAXX 01064 64756 NIL
AAXX 01064 64757 NIL
AAXX 01064 64758 NIL
AAXX 01064 64761 NIL
AAXX 01064 87645 32965 00506 10156 20149 39960 40161 57007
AAXX 01061 31152 42998 80000 11353 21390 39863 40322 57014 84036
AAXX 01061 31163 NIL
AAXX 01061 31285 42999 00000 11254 21311 30217 40311 56011
AAXX 01061 31561 42999 02001 11214 21247 30252 40282 56008
AAXX 01061 31683 41999 70000 11216 21241 30184 40265 57011 72272 83071
AAXX 01061 32010 41495 83106 11154 21167 30166 40218 57004 78582 86907 333 86910 91011 91112
AAXX 01064 71963 16/// /0304 11272 21298 39801 40228 53019 60001 333 11262 21277 70000
AAXX 01064 71490 16/// /3609 11347 21380 39915 40264 53020 60001 333 11285 21347 7////
AAXX 01064 71049 16/// /2906 11335 30133 40158 51007 60001 333 11231 21342 70000
AAXX 01064 71277 46/// /2408 11099 21180 6///1 333 11044 21115 7//// 555 32725 40141
AAXX 01064 71592 16/// /3602 11331 21366 30077 40091 53002 60001 333 11303 21358 70000
AAXX 01064 71923 16/// ///15 11251 21273 39731 40196 53018 60001 333 11170 21256 7////
AAXX 01064 97372 32462 73105 10297 20259 39960 40080 57017 85271 333 56000 85817
BBXX 44138 01061 99443 70536 46/// /1212 10085 40174 57070 22200 00092 10504 70021 333 91214
BBXX MINUK04 0106/ 99546 10060 46/// ///// 10098 4//// 52018
BBXX MINUK03 0106/ 99543 10004 46/// ///// 10093 49973 57027
AAXX 01064 63661 32980 10000 10158 20115 48563 81030 333 20084 58001 81359
AAXX 01064 63688 32580 31005 10174 20090 48/// 81931 333 20080 58000 81920 83359
AAXX 01064 63708 32980 10000 10225 20172 48523 81030 333 10168 58001A 81358
AAXX 01064 63740 32980 00309 10189 20113 48504 333 20126 59001
AAXX 01064 63820 32580 43310 10276 20220 40148 84100 333 20240 58005 84821
AAXX 01064 63612 NIL
AAXX 01064 63671 NIL
AAXX 01064 63695 NIL
AAXX 01064 63714 NIL
AAXX 01064 63723 NIL
AAXX 01064 63772 NIL
AAXX 01064 63793 NIL
AAXX 01004 91636 11498 59902 10314 20249 40078 60001 70122 83260 333 20254 5679/ 70815
AAXX 01064 91643 11499 53205 10285 20250 40073 60001 70222 83230 333 5679/
AAXX 01064 91643 11499 53205 10285 20250 40073 60001 70222 83230 333 5679/
BBXX 44138 01061 99443 70536 46/// /1212 10085 40174 57070 22200 00092 10504 70021 333 91214
AAXX 01060 67421 11560 70000 10216 20201 38729 48514 60054 70362 8157/ 333 20181 5//// 55031 59023 70048 84825 87459 555 10254 7//96
AAXX 01060 67423 11582 63602 10267 20210 39529 48543 60024 74162 81180 333 20227 58000 70018 81825 85360 555 10320 7//96
AAXX 01060 67424 12380 70000 10208 20197 60024 70362 8563/ 333 20190 5//// 55/// 70015 83709 83615 87358 555 10267 7//96
AAXX 01060 67692 12580 63602 10237 20213 60334 84130 333 20199 5//// 55/// 70332 84828 86358 555 10275 7//96
AAXX 01064 66160 35560 31202 10237 20210 40124 81101 333 20233 59004
AAXX 01064 66160 35560 31202 10237 20210 40124 81101 333 20233 59004
BBXX 46004 01061 99509 71361 46/// /1410 10069 49975 57015 22200 00071 11009 70045 333 91212
BBXX 46036 01061 99484 71339 46/// /1611 10086 40029 5//// 22200 00079 11007 70035 333 91214
BBXX 46181 01061 99538 71288 46/// /0409 11019 40218 57003 22200 00037 10301 70005 333 91212
BBXX 46183 01061 99536 71311 46/// /2809 10037 40121 57014 22200 00073 11010 70048 333 91216
BBXX 46185 01061 99524 71298 46/// /1418 10064 40143 57007 22200 00071 10911 70057 333 91222
BBXX 46204 01061 99514 71288 46/// /0801 10065 40150 57004 22200 00080 10809 70045 333 91202
BBXX 46205 01061 99542 71343 46/// /1416 10068 40039 57022 22200 00070 11111 70057 333 91221
BBXX 46206 01061 99488 71260 46/// /1213 10067 40219 52001 22200 00081 10605 70027 333 91216
BBXX A8IM7 01064 99342 71286 41598 61810 10150 20116 40230 52020 70322 8/300 22224 20201 328// 40504 5//// 80130
BBXX KS098 01064 99446 71241 43/// /0406 10069 40214 22200 06000
AAXX 01064 68715 36/// /2303 10192 20120 30033 40160 52002 333 20115 91008 555 10299 91016
AAXX 01061 40650 11557 22102 10100 20063 40183 52017 60002 71000 82200
AAXX 01061 40604 11958 00000 10072 20049 40185 53002 60002 71000
AAXX 01061 40608 11556 60000 10062 20048 40193 52005 60012 71022 82405
AAXX 01061 40621 12560 71203 10108 20057 40213 52012 60042 87800
AAXX 01061 40623 11558 80000 10048 20028 40226 53008 60152 76062 8482/
AAXX 01061 40629 12560 81103 10032 20027 40210 54000 60002 83532
AAXX 01061 40631 12960 00000 10093 20068 40189 52013 60002
AAXX 01061 40634 11950 02802 10050 20020 40193 52012 60002 71000
AAXX 01061 40637 12560 70803 10104 20092 40187 57020 60012 87800
AAXX 01061 40642 12560 62202 10049 20021 40213 58003 60002 86800
AAXX 01061 40656 12958 20000 10075 20012 40167 52022 60002 80002
AAXX 01061 40665 11660 50305 10138 20103 40184 52016 60052 72166 85800
AAXX 01061 40670 12960 03502 10106 20048 40168 52015 60002
AAXX 01061 40674 11558 61708 10106 20058 40163 52011 69902 70762 83130
AAXX 01061 40676 11958 70504 10155 20074 40166 52012 69902 72162 87070
AAXX 01061 40680 12560 70606 10158 20058 40171 53009 60002 87800
AAXX 01061 40689 12560 71507 10182 20132 40173 53006 60002 87800
AAXX 01061 40691 12660 60304 10186 20156 40190 54000 60002 83231
AAXX 01064 68858 32380 22508 10213 20187 39964 40118 53004 82600 333 20179 91012
AAXX 0106/ 89327 46/// ///// 11039 39590 4//// 5//// 90620
AAXX 01061 63330 32980 01604 10178 21127 37826 40305 333 20094 59004
AAXX 01061 63331 NIL
AAXX 01061 63332 32980 01701 10136 20030 38233 40168 333 20060 59001
AAXX 01061 63333 32980 00000 10162 20023 38200 333 20040 59003
AAXX 01061 63334 NIL
AAXX 01061 63340 32980 03601 10160 20081 37977 40208 333 20125 59002
AAXX 01061 63402 NIL
AAXX 01061 63403 31960 21901 10190 20107 7052/ 82030 333 20142 82360
AAXX 01061 63450 NIL
AAXX 01061 63451 31975 00000 10142 20107 38176 40185 70500 333 21010 59007
AAXX 01061 63453 31975 03603 10146 39104 7050/ 333 20065 59002
AAXX 01061 63460 32980 02602 10172 20057 333 20080
AAXX 01061 63471 31970 02401 10245 20077 38890 40149 70500 333 20140 59014
AAXX 01061 63474 32980 03602 10144 21024 333 20020
AAXX 01061 63478 31970 10806 10265 20126 39836 40216 7050/ 80001 333 20180 59016 81070
AAXX 01061 63500 31970 01801 10208 20133 7050/ 333 20112
AAXX 01061 63403 41960 20000 10152 20085 705// 82030 333 82360
AAXX 01061 63453 41975 02401 10092 39100 710// 333 59004
AAXX 01061 63460 43980 00000 10118 20042
AAXX 01061 40604 11958 00000 10072 20049 40185 53002 60002 71000
AAXX 01061 40608 11556 60000 10062 20048 40193 52005 60012 71022 82405
AAXX 01061 40621 12560 71203 10108 20057 40213 52012 60042 87800
AAXX 01061 40623 11558 80000 10048 20028 40226 53008 60152 76062 8482/
AAXX 01061 40629 12560 81103 10032 20027 40210 54000 60002 83532
AAXX 01061 40631 12960 00000 10093 20068 40189 52013 60002
AAXX 01061 40634 11950 02802 10050 20020 40193 52012 60002 71000
AAXX 01061 40637 12560 70803 10104 20092 40187 57020 60012 87800
AAXX 01061 40642 12560 62202 10049 20021 40213 58003 60002 86800
AAXX 01061 40650 11557 22102 10100 20063 40183 52017 60002 71000 82200
AAXX 01061 40656 12958 20000 10075 20012 40167 52022 60002 80002
AAXX 01061 40665 11660 50305 10138 20103 40184 52016 60052 72166 85800
AAXX 01061 40670 12960 03502 10106 20048 40168 52015 60002
AAXX 01061 40674 11558 61708 10106 20058 40163 52011 69902 70762 83130
AAXX 01061 40676 11958 70504 10155 20074 40166 52012 69902 72162 87070
AAXX 01061 40680 12560 70606 10158 20058 40171 53009 60002 87800
AAXX 01061 40689 12560 71507 10182 20132 40173 53006 60002 87800
AAXX 01061 40691 12660 60304 10186 20156 40190 54000 60002 83231
AAXX 01064 61401 NIL
AAXX 01064 61404 32960 20810 10080 21023 39839 40246 80002 333 0//00 20080 5//// 55/// 59014 82073
AAXX 01064 61415 31958 30417 10153 20035 30235 40240 70700 83030 333 20146 51214 55070 59021 83363
AAXX 01064 61421 NIL
AAXX 01064 61437 NIL
AAXX 01064 61442 32956 60409 10121 21084 30200 40204 80002 333 01000 20121 50674 55066 59026 86073
AAXX 01064 61450 NIL
AAXX 01064 61461 31940 00806 10125 21070 30114 40204 70600 333 0//00 20125 5//// 55/// 59028
AAXX 01064 61489 NIL
AAXX 01064 61492 NIL
AAXX 01064 61497 NIL
AAXX 01064 61498 31940 00406 10100 20036 30046 40183 705// 333 0//00 20100 5//// 55/// 59012
AAXX 01064 61499 NIL
AAXX 01064 94290 46/// /1423 10277 30079 40088 55006 90624
AAXX 01064 89610 46/// /0422 11020 39604 4//// 5//// 333 90700 91125
AAXX 01064 89610 46/// /0422 11020 39604 4//// 5//// 333 90700 91125
AAXX 01064 94290 46/// /1423 10277 30079 40088 55006 90624
AAXX 01064 94210 35/// /2506 10331 30056 40061 57023
AAXX 01064 94289 46/// /1324 10275 30072 40079 55005 90615
AAXX 01064 94379 46/// /1420 10260 30095 40104 56008 90626
BBXX 41053 01061 99185 70661 46/// /0908 10261 40173 90630 333 91209
BBXX 41053 01061 99185 70661 46/// /0808 10259 40173 90620 333 91210
BBXX 41053 01061 99185 70661 46/// /0906 10256 40175 90610 333 91209
BBXX 44056 01061 99362 70757 46/// ///// 1//// 90550 22200 00123 10601 20601 70004
BBXX SHIP 01064 99061 11075 41498 50411 10285 20258 40118 57020 70222 8432/ 22252 00252 20201 301// 40503 80265
AAXX 01064 64500 32360 81810 10249 20230 30105 40118 885// 333 02500 20241 50521 55089 59007 84608 88633
AAXX 01064 64501 32358 80000 10250 20236 3//// 4//// 885// 333 0//00 20249 50264 55087 5//// 83608 88626
AAXX 01064 64507 NIL
AAXX 01064 64510 NIL
AAXX 01064 64550 32358 8//// 10230 20212 30/// 40/// 885// 333 0//00 20225 50214 55/// 5//// 84608 88623
AAXX 01064 64551 31240 60000 10226 20224 30100 40129 71022 83530 333 0//00 20201 50044 55/// 59008 82705 83610 86362
AAXX 01064 64556 32460 8//// 10221 20218 39543 40137 885// 333 0//00 20218 50014 55009 59009 88610
AAXX 01064 64570 32460 41601 10225 20223 39633 40143 83530 333 02100 20223 50184 55/// 58009 83610 83361
AAXX 01061 55228 32780 80000 11044 21169 36019 57012 84902 333 05202 21117
AAXX 01061 55578 32980 83402 10022 21204 36397 57026 8801/ 333 05154 21107
AAXX 01061 55664 32880 70201 10017 21215 36020 57026 84502 333 05257 21125
AAXX 01061 55773 32970 62006 10026 21194 36039 57024 80002 333 05155 21151
AAXX 01061 56116 32980 10901 10042 21162 36357 57040 80002 333 05201 21115
AAXX 01061 56137 32680 60000 10071 21178 36803 57054 81102 333 05201 21101
AAXX 01061 56172 32980 02502 10084 21095 37322 57062 333 05400 21085
AAXX 01061 56247 32880 62901 10121 21102 37434 57061 82402 333 05201 21029
AAXX 01061 56312 32980 71602 10074 21067 37111 57035 80002 333 00051 21049
AAXX 01061 56462 32980 11406 10127 21079 37103 57051 80002 333 05301 21057
AAXX 01061 56651 32680 12505 10184 21105 37624 57036 81400 333 05304 20012
AAXX 01061 56691 11465 81403 10030 20015 37776 57033 69901 70060 8667/ 333 05351 20014
AAXX 01061 56985 32565 22004 10166 20093 38715 40158 57039 82100 333 05351 20107
AAXX 01061 57633 32762 81102 10073 20009 39288 40278 57031 885// 333 00052 20001
AAXX 01061 57902 31650 81102 10058 20049 38659 40231 57033 71000 885// 333 05352 20054
AAXX 01061 55279 32680 61808 10006 21247 35716 57028 83902 333 05252 21154
AAXX 01061 55472 32780 71807 10019 21237 35745 57031 87400 333 05251 21147
AAXX 01061 55696 32680 70000 10023 21167 36374 57032 879// 333 00054 21113
AAXX 01061 56079 32980 22902 10028 21153 36661 57033 80002 333 05401 21173
AAXX 01061 56106 32780 10701 10042 21210 36224 57041 81101 333 05305 21139
AAXX 01061 56257 32680 12501 10084 21139 36279 57036 81100 333 05101 21108
AAXX 01061 56374 32980 00909 10037 21066 37406 57044 333 05352 21067
AAXX 01061 56385 31/01 91605 11043 21043 37004 57028 74540 333 05353 21060
AAXX 01061 56954 31580 31401 10242 20162 40152 57045 70040 83100 333 05301 20102
AAXX 01061 56966 32775 21103 10238 20118 40150 57052 82100 333 05251 20138
AAXX 01061 57237 32965 80000 10103 20006 40259 57041 8807/ 333 21004
AAXX 01061 57306 32962 80000 10097 20037 40264 57033 8807/ 333 20056
AAXX 01061 57604 31730 83602 10077 20058 40260 57032 71000 885// 333 20074
AAXX 01061 57707 31450 81401 10046 20018 38521 57032 71000 886// 333 05253 20038
AAXX 01061 57832 32662 80401 10072 20019 39508 40263 57031 885// 333 05152 20037
AAXX 01063 61701 31959 60613 10173 21015 40152 70722 85032 333 20160 50661 55064 58001 85360
AAXX 01063 61705 NIL
AAXX 01063 61707 NIL
AAXX 01063 61711 NIL
AAXX 01063 61712 32960 62711 10150 20045 4//// 86070 333 20135 50301 55044 5//// 83460 85361
AAXX 01063 61717 NIL
AAXX 01063 61720 NIL
AAXX 01063 61721 NIL
AAXX 01063 61722 NIL
AAXX 01063 61731 NIL
AAXX 01064 67765 NIL
AAXX 01064 67775 11360 80409 10196 38183 48516 60164 75052 8677/ 333 20189 58000 86708 88459
AAXX 01064 67779 12480 70904 10233 20205 39052 48512 69904 8753/ 333 20201 59008 87615
AAXX 01064 67853 NIL
AAXX 01064 67861 12480 70801 10208 20194 38718 48499 60104 8257/ 333 20185 59008 82610 87459
AAXX 01064 67867 12480 71208 10210 20181 38581 48509 60014 84132 333 20180 58003 84815 86359
AAXX 01064 67881 NIL
AAXX 01064 67965 NIL
AAXX 01064 67975 32480 50905 10234 20187 38928 48523 81532 333 20184 58001 81615 85080
AAXX 01064 67977 32480 71507 10242 20223 39673 48547 84507 333 20204 58000 84611 87280
AAXX 01064 67983 31020 81403 10197 20180 38886 48511 74042 886// 333 20169 59029 88700
AAXX 01064 67991 NIL
AAXX 01064 06610 01664 72204 10072 20057 39636 40224 52002 60012 71022 875// 333 20065 32005 55000 55300 20000 60005 70040 82634 87656 90768 93100 91113 91208
AAXX 01064 06670 01475 72007 10085 20066 39694 40206 53005 60022 72065 8457/ 333 20068 32006 55000 55300 20000 60005 70069 81710 83631 85356 90768 93100 91118 91212
AAXX 01064 06680 01/01 92629 11017 21017 37508 47049 52004 60392 74574 333 21033 43390 55000 55300 20000 60015 70969 90768 93130 91147 91231
AAXX 01064 06990 01456 81304 10049 20026 39670 40226 53004 60062 76222 887// 333 20019 32000 55000 55300 20000 60005 70177 88712 91112 91208
AAXX 01064 06760 32965 03301 10023 20000 39760 40220 52011 333 20013 31101 55035 55300 20000 70000 90768 93100 91103 91203
AAXX 01064 06720 02365 70804 10020 20010 39663 40255 53005 60012 876// 333 20011 3/000 43010 55000 55300 20000 60005 70201 87707 90768 93100 91106 91204
BBXX 61001 01064 99434 10078 46/// /0512 10134 20099 40190 52008 22200 00137 10703 70013
BBXX BATFR22 01064 99432 10053 46/// /3219 10135 40210 53020 22283 00144
BBXX BATFR11 01064 99431 10071 46/// ///// 10124 20087 40198 53010 22262 00147
BBXX VRGM8 01063 99431 10149 41398 13108 10130 20026 40205 52006 70200 811// 22234 00152 20501 331// 40801 5//// 80080
BBXX 61002 01064 99421 10047 46/// ///25 10144 2//// 40228 54000 22200 00132 10706 70028 555 1/031
BBXX BATFR32 01064 99418 10087 46/// /0710 10121 20076 40197 53012 7//// 8//// 22233 00154
BBXX BAREU06 01064 99415 10100 46/// ///// 40195 52006 22284
BBXX BATFR46 01064 99400 10016 46/// /3417 10154 20107 40254 53012 22253 00154
BBXX DBBH 01061 99380 10155 41498 22603 10122 20047 40221 52018 70200 828// 22261 04157 305// 40300
BBXX WAHV 01063 99376 10105 43599 52930 10160 2013/ 40208 53005 82606 22274 00162 20905 80140
BBXX BATFR33 01064 99375 10099 46/// /3027 10159 20129 40237 53009 22235 00160
BBXX ZQTP2 01064 99372 10027 41998 02618 10153 20106 40268 54000 70200 80000 22263 00160 2//// 3//// 4//// 5//// 80128
BBXX OXHY2 01063 99346 10212 41598 33209 10155 20155 40178 52007 71500 83800 22224 20204 3//// 40102 5//// 80155
BBXX DDYL2 01063 99331 10271 41/98 /3319 10165 20092 40110 52010 7//// 8//// 22264 00170 20505
BBXX BAREU63 01064 99326 10194 46/// /3322 10154 29054 40203 52015 22232
AAXX 01064 63729 32480 10000 10214 20168 38895 48/// 81930 333 20179 50341 55032 55310 58001 81619 81921
AAXX 01064 63733 32580 30000 10227 20193 38893 48534 81931 333 20174 50131 55015 55305 58010 81921 83359
AAXX 01064 63756 12480 71205 10204 20176 38897 69954 333 20175 50301 55049 58003 81920 87360
AAXX 01064 63791 32580 20610 10260 20150 39151 48538 82200 333 20184 50851 55098 55310 58000 82824
AAXX 01064 63801 01480 70000 10208 20202 39235 48529 60224 76166 8192/ 333 0//91 20190 50181 55000 55300 58004 60017 81818 81919 87458
AAXX 01064 63862 12580 60000 10226 20183 38927 48543 60024 81471 333 0//58 20193 50701 55075 55308 58004 70020 81620 86358
AAXX 01064 63866 32580 40000 10255 20219 39535 48/// 84500 20226 50651 55112 55303 58000 84620
AAXX 01064 63881 12480 70000 10168 20156 38220 48/// 60254 83970 333 0//93 20146 50351 55011 55300 59001 83617 81919 85356
AAXX 01064 63887 12480 20000 10223 20164 38612 48535 60034 81130 333 20175 50551 55056 55310 58000 70030 81819
AAXX 01064 63932 12580 60810 10180 20165 38330 48528 60084 8223/ 333 20155 50011 55000 55300 58000 82822 85359
AAXX 01064 63832 NIL
AAXX 01064 63870 NIL
AAXX 01064 63894 NIL
AAXX 01064 63962 NIL
AAXX 01064 63971 NIL
AAXX 01064 63729 32480 10000 10214 20168 38895 48/// 81930 333 20179 50341 55032 55310 58001 81619 81921
AAXX 01064 63733 32580 30000 10227 20193 38893 48534 81931 333 20174 50131 55015 55305 58010 81921 83359
AAXX 01064 63756 12480 71205 10204 20176 38897 69954 333 20175 50301 55049 58003 81920 87360
AAXX 01064 63791 32580 20610 10260 20150 39151 48538 82200 333 20184 50851 55098 55310 58000 82824
AAXX 01064 63801 01480 70000 10208 20202 39235 48529 60224 76166 8192/ 333 0//91 20190 50181 55000 55300 58004 60017 81818 81919 87458
AAXX 01064 63862 12580 60000 10226 20183 38927 48543 60024 81471 333 0//58 20193 50701 55075 55308 58004 70020 81620 86358
AAXX 01064 63866 32580 40000 10255 20219 39535 48/// 84500 20226 50651 55112 55303 58000 84620
AAXX 01064 63881 12480 70000 10168 20156 38220 48/// 60254 83970 333 0//93 20146 50351 55011 55300 59001 83617 81919 85356
AAXX 01064 63887 12480 20000 10223 20164 38612 48535 60034 81130 333 20175 50551 55056 55310 58000 70030 81819
AAXX 01064 63932 12580 60810 10180 20165 38330 48528 60084 8223/ 333 20155 50011 55000 55300 58000 82822 85359
AAXX 01064 63832 NIL
AAXX 01064 63870 NIL
AAXX 01064 63894 NIL
AAXX 01064 63962 NIL
AAXX 01064 63971 NIL
AAXX 01064 61017 32960 50406 10120 21031 39783 40199 80002 333 00300 20116 50604 55060 58022 85080
AAXX 01064 61024 31958 31017 10160 21080 39596 40169 7070/ 80002 333 01300 20157 52111 55/// 58009 83080
AAXX 01064 61036 32960 70000 10180 20025 39902 40142 80008 333 01600 20175 50771 50634 55104 59005 87280
AAXX 01064 61043 32960 70606 10180 21070 39705 40148 80008 333 0//00 20176 51301 5//// 55101 58010 87280
AAXX 01064 61045 31920 70404 10140 21040 39665 40170 70622 80008 333 01100 20140 5//// 50914 55100 58011 87280
AAXX 01064 61049 31958 70000 10154 21010 39835 40158 7062/ 80008 333 01200 20150 50811 50624 55092 58015 87280
AAXX 01064 61052 31956 50804 10188 20009 39886 40144 70611 80002 333 01500 20174 50891 55108 59005 85080
AAXX 01064 61075 32960 51810 10187 21044 39834 40144 80002 333 01800 20187 51101 50774 55102 58008 85080
AAXX 01064 61080 31958 70806 10162 21040 39736 40160 7062/ 80008 333 01400 20156 51261 51204 55096 58012 87280
AAXX 01064 61090 31958 70406 10166 21074 39653 40168 70522 80008 333 01800 20165 51431 51074 55090 58017 87280
AAXX 01064 61091 NIL
AAXX 01064 61096 31940 70406 10160 21036 39780 40166 70522 80008 333 01500 20159 51131 50784 55081 58009 87280
AAXX 01064 61099 32960 70608 10210 20000 39903 40131 80008 333 01700 20206 51081 55099 58004 87280
AAXX 0106/ 48969 NIL
AAXX 0106/ 48962 NIL
AAXX 0106/ 48990 NIL
AAXX 0106/ 48986 NIL
AAXX 0106/ 48995 NIL
AAXX 0106/ 48967 NIL
AAXX 0106/ 48992 NIL
AAXX 0106/ 48965 NIL
AAXX 0106/ 48985 NIL
AAXX 0106/ 48970 NIL
AAXX 0106/ 48991 NIL
AAXX 0106/ 48964 NIL
AAXX 0106/ 48997 NIL
AAXX 0106/ 48968 NIL
AAXX 0106/ 48973 NIL
AAXX 0106/ 48966 NIL
AAXX 0106/ 48983 NIL
AAXX 0106/ 48972 NIL
AAXX 0106/ 48998 NIL
AAXX 0106/ 48993 NIL
AAXX 0106/ 48971 NIL
AAXX 0106/ 48963 NIL
AAXX 0106/ 48987 NIL
AAXX 01064 67002 12581 33408 10310 20243 30109 40143 69924 83800 333 20257 55112 58001 82822 92408
AAXX 01064 67009 NIL
AAXX 01064 67012 12582 61804 10274 20248 30117 40128 51007 60334 82230 333 0//19 10314 20240 50234 55/// 82820 85360
AAXX 01064 67025 12582 31602 10315 20241 30010 40108 50001 60054 82832 333 0//// 10318 20233 50154 55/// 81820 555 82640 81360 81073
AAXX 01064 67027 11570 63008 10274 20240 30099 40120 58002 60584 72196 83932 333 02026 10298 20237 50094 55022 82820 81920 85360 94965 95835 555 82640 82073
AAXX 01064 67045 NIL
AAXX 01064 67072 11470 52208 10285 20241 30126 40129 51006 60144 71562 83830 333 02409 10302 20256 50214 55/// 82817 83360 555 82640 92428
AAXX 01064 67073 11582 5//// 10286 20237 30096 40122 51005 60154 70162 82933 333 0//15 10324 20248 50//4 55/// 81020 81920 94965 95835 555 82633 82360 81073
AAXX 01064 67083 12581 60000 10226 20181 38751 48525 52006 60724 85802 333 01729 20179 50204 55041 85820
AAXX 01064 67095 12481 52004 10297 20234 30111 40118 51001 60064 83832 333 02417 10328 20232 50404 55/// 83817 83360 555 82633 82073
AAXX 01064 67113 NIL
AAXX 01064 67117 NIL
AAXX 01064 67137 12480 70000 10242 20196 38892 48500 50002 60214 82802 333 0//19 10253 20193 50114 55/// 82817 87073 555 81620
AAXX 01064 67143 12582 3//// 10/// 20/// 30114 40121 52001 60074 81230 333 0//00 10/// 20/// 50//4 55/// 81820 83360 92438
AAXX 01064 67152 12580 4//// 10243 20224 39197 48504 51007 60354 84200 333 02029 10295 20206 50374 55/// 84820
AAXX 01064 67157 11470 7//// 10/// 20/// 30143 40150 52006 60124 71562 878// 333 0//13 10/// 20/// 50//4 55/// 82817 87633
AAXX 01064 67161 32582 10295 20230 30095 40104 51008 81202 333 0//00 10315 20220 50524 55/// 81823 555 82073
AAXX 01064 67197 11458 10248 20225 30126 40136 51004 69924 71522 878// 333 01519 10290 20232 50384 55101 83817 85633
AAXX 01064 68925 36/// /2707 10171 20116 39783 40146 52002 333 20122 91015 555 10242 91015
AAXX 01064 67017 NIL
AAXX 01064 67020 NIL
AAXX 01064 67023 12582 41210 10314 20252 30103 40109 55002 69964 83901 333 02019 10324 20218 50264 55/// 82820 81920 94964 95814 555 81640 82073
AAXX 01064 67037 11581 7//// 10/// 20/// 30076 40117 5/009 60014 70362 84833 333 0//14 10/// 20/// 50//4 55/// 82820 83640 555 83360 82073
AAXX 01064 67067 11570 3//// 10243 20203 39260 48/// 51004 60434 7101/ 83230 333 0//07 10290 20200 50234 55/// 83823 555 81360
AAXX 01064 67107 NIL
AAXX 01064 67131 32582 53606 10/// 20/// 30095 40100 51006 83802 333 0//00 10/// 20/// 50//4 55/// 83820 555 81640 82073
AAXX 01064 89016 46/// /3511 11037 29081 39528 4//// 5////
AAXX 01064 89003 46/// /3309 29064 39148 4//// 5////
AAXX 01064 89507 46/89 /1404 29054 36886 4//// 5////
AAXX 01061 01271 17/34 90903 10015 21017 39899 49920 56008 60002 767// 333 21035 47001 70000 91109
AAXX 01061 01415 17347 81706 10074 20059 39899 49910 56010 6//// 722// 333 20047 70082 91115
AAXX 01061 10870 01265 82506 10082 20073 39646 40178 53009 60062 72165 885// 333 10083 20019 32001 55000 55300 69987 70115 81705 85612 86623
AAXX 01064 71048 16/// /2712 11103 21153 60001 333 11016 21105 70000 555 33240 40173
AAXX 01064 71981 17/// /2506 11125 21157 69961 7//4/ 333 10003 21129 70006 555 32520 40201
AAXX 01064 71982 16/// /2605 11135 21165 60001 333 10010 21140 70000
AAXX 01064 71986 16/// /2908 11090 21149 60001 333 11018 21091 70000 555 33430 40142
AAXX 01064 71990 16/// /2102 11170 21194 38529 40183 51014 60001 333 11151 21192 7////
AAXX 01064 71824 46/// /1701 11099 21107 6///1 333 11099 21197 7////
AAXX 01064 71354 16/// /2809 11106 21157 60001 333 11040 21111 70000 555 33031 40202
AAXX 01064 71406 16/// /0409 11054 21065 30173 40183 56034 60001 333 11053 21083 70000 555 32823 40151
AAXX 01064 71418 46/// /1224 10035 20027 30017 40049 58086 6///1 333 10038 21015 7//// 555 31232 40022
BBXX 42360 01061 99267 70905 46/// /1404 10233 90600 22200 00245 10501 70004 333 91206
AAXX 01064 67017 NIL
AAXX 01064 67020 NIL
AAXX 01064 67023 12582 41210 10314 20252 30103 40109 55002 69964 83901 333 02019 10324 20218 50264 55/// 82820 81920 94964 95814 555 81640 82073
AAXX 01064 67037 11581 7//// 10/// 20/// 30076 40117 5/009 60014 70362 84833 333 0//14 10/// 20/// 50//4 55/// 82820 83640 555 83360 82073
AAXX 01064 67067 11570 3//// 10243 20203 39260 48/// 51004 60434 7101/ 83230 333 0//07 10290 20200 50234 55/// 83823 555 81360
AAXX 01064 67107 NIL
AAXX 01064 67131 32582 53606 10/// 20/// 30095 40100 51006 83802 333 0//00 10/// 20/// 50//4 55/// 83820 555 81640 82073
AAXX 01064 71824 46/// /1701 11099 21107 6///1 333 11099 21197 7////
AAXX 01064 71048 16/// /2712 11103 21153 60001 333 11016 21105 70000 555 33240 40173
AAXX 01064 71354 16/// /2809 11106 21157 60001 333 11040 21111 70000 555 33031 40202
AAXX 01064 71406 16/// /0409 11054 21065 30173 40183 56034 60001 333 11053 21083 70000 555 32823 40151
AAXX 01064 71418 46/// /1224 10035 20027 30017 40049 58086 6///1 333 10038 21015 7//// 555 31232 40022
AAXX 01064 71981 17/// /2506 11125 21157 69961 7//4/ 333 10003 21129 70006 555 32520 40201
AAXX 01064 71982 16/// /2605 11135 21165 60001 333 10010 21140 70000
AAXX 01064 71986 16/// /2908 11090 21149 60001 333 11018 21091 70000 555 33430 40142
AAXX 01064 71990 16/// /2102 11170 21194 38529 40183 51014 60001 333 11151 21192 7////
AAXX 01061 48887 12770 70908 10277 20236 30117 40123 57018 69913 875// 333 58011 87697
AAXX 01061 48877 12570 70205 10263 20230 30153 40158 57019 69973 872// 333 58014 87895
AAXX 01061 48870 12574 60205 10257 20227 30155 40162 58021 60093 868// 333 58010 84894 84696
AAXX 01061 48920 12598 70204 10287 20262 30111 40114 57029 69913 83208 222// 00278 2//01 333 58003 83895 87299
AAXX 01061 48892 32598 60505 10302 20257 30118 40123 57020 82208 333 58005 82895 86299
AAXX 01064 64700 31915 53204 10144 20021 39800 40144 70611 80002 333 0//00 20144 50921 55110 58005 85075
AAXX 01064 64701 NIL
AAXX 01064 64702 NIL
AAXX 01064 64705 31915 70000 10153 20052 3//// 4//// 705// 80002 90600 333 0//00 2//// 50914 55/// ///// 5//// 87075
AAXX 01064 64706 31930 60000 10195 20058 39651 40123 705// 80002 333 01400 20086 51764 55101 59001 86075
AAXX 01064 64708 NIL
AAXX 01064 64709 31905 73610 10190 21004 3//// 4//// 705// 80002 90600 333 0//00 20185 5//// 55/// 5//// 87075
AAXX 01064 64710 NIL
AAXX 01064 64713 NIL
AAXX 01064 64722 31920 10000 10180 20108 3//// 4//// 705// 80002 90600 333 0//00 20150 50664 55/// 5//// 81075
AAXX 01064 64750 32965 60000 10165 20076 39686 40099 80002 90600 333 01200 20140 50661 55092 59016 86075
AAXX 01064 64751 31958 60408 10175 21009 3//// 4//// 705// 81032 90550 333 0//00 20165 50933 55/// 5//// 81365 86075
AAXX 01064 64753 31940 20421 10150 21018 3//// 4//// 707// 80002 90552 333 0//00 20145 51384 55/// 82075
AAXX 01064 64754 33960 00000 10186 20054 3//// 4//// 90600 333 0//00 20150 50574 55/// 5////
AAXX 01064 64756 NIL
AAXX 01064 64757 NIL
AAXX 01064 64758 NIL
AAXX 01064 64761 NIL
AAXX 01064 63661 32980 10000 10158 20115 48563 81030 333 20084 58001 81359
AAXX 01064 63688 32580 31005 10174 20090 48/// 81931 333 20080 58000 81920 83359
AAXX 01064 63708 32980 10000 10225 20172 48523 81030 333 10168 58001 81358
AAXX 01064 63740 32980 00309 10189 20113 48504 333 20126 59001
AAXX 01064 63820 32580 43310 10276 20220 40148 84100 333 20240 58005 84821
AAXX 01064 63612 NIL
AAXX 01064 63671 NIL
AAXX 01064 63695 NIL
AAXX 01064 63714 NIL
AAXX 01064 63723 NIL
AAXX 01064 63772 NIL
AAXX 01064 63793 NIL
AAXX 01064 60101 32456 30302 10056 20046 40298 58005 83500 333 20049 83616
AAXX 01064 60156 17457 41504 10018 20002 40314 58002 60004 70010 84600 333 20007 84710
AAXX 01064 60230 15957 01201 10035 21001 40315 53002 60004 333 20012
AAXX 01064 60252 32960 01204 10040 20014 40294 53005 333 20035 95800
AAXX 01064 60105 32958 01808 10067 20058 40259 5//// 333 20060 31004
AAXX 01061 01311 47381 81506 10056 20049 39829 49890 58007 723// 333 20039 91116
AAXX 01061 01494 17/08 81104 10000 21001 39921 49986 58024 60052 772// 333 21033 70054 91109
AAXX 01061 01025 17/84 01604 11008 21068 39963 49974 57029 60002 700// 333 21098 70000 91110
AAXX 01064 41241 36/// /1604 10220 20044 30178 40217 333 0E019 20165 59020
AAXX 01064 41241 NIL
AAXX 01064 41242 36/// /0000 10234 20071 30201 40225 333 0E016 20135 59021
AAXX 01064 41244 NIL
AAXX 01064 41246 NIL
AAXX 01064 41251 32/65 /2102 10124 20005 36166 47823 333 20056 3/005 59090
AAXX 01064 41252 32960 01505 10201 20075 39839 40215 333 20156 59008
AAXX 01064 41253 36/// /9902 10213 20122 39838 40223 333 0E015 20142 59017
AAXX 01064 41254 NIL
AAXX 01064 41255 32960 00702 10194 20078 39683 40211 333 20121 3/017 59004
AAXX 01064 41256 32960 01702 10246 20101 30207 40217 333 20152 59013
AAXX 01064 41257 NIL
AAXX 01064 41258 NIL
AAXX 01064 41259 NIL
AAXX 01064 41262 NIL
AAXX 01064 41263 NIL
AAXX 01064 41264 NIL
AAXX 01064 41265 NIL
AAXX 01064 41267 35/// /3508 10241 20096 30200 40215 333 0E018 20205 59005
AAXX 01064 41268 32960 01202 10243 20083 30199 40215 333 20154 3/018 59003
AAXX 01064 41270 36/70 /0108 10242 20072 30159 40171 333 0E016 20164 59001
AAXX 01064 41275 NIL
AAXX 01064 41287 36/// /0507 10230 20089 30170 40238 333 0E016 20138 59003
AAXX 01064 41288 32960 00611 10248 20140 30194 40216 333 20218 59002
AAXX 01064 41290 NIL
AAXX 01064 41295 36/// /0310 10223 20122 30024 40203 333 0E018 20151 59011
AAXX 01064 41304 NIL
AAXX 01064 41312 36/// /0209 10246 20078 30155 40194 333 0E045 20195 59017
AAXX 01064 41314 32960 09902 10184 20010 39711 40224 333 20093 59017
AAXX 01064 41315 36/// /0112 10159 20008 39204 42840 333 0E/// 20116 59004
AAXX 01064 41316 32960 00212 10248 20040 30170 40196 333 20194 59022
AAXX 01064 41254 36/// /3304 10132 20004 38260 48265 333 0E003 20040 58069
AAXX 01064 41259 36/// /0516 10101 21084 37140 40316 333 0E/// 20066 58005
AAXX 01064 41263 36/// /2402 10190 20074 39535 40230 333 0E012 20121 59007
AAXX 01064 41265 36/// /0000 10210 20098 39672 40227 333 0E019 20120 59006
AAXX 01064 41257 36/// /9902 10201 20103 39735 40226 333 0E012 20132 59010
AAXX 01064 89657 46/// /3204 11032 20009 49819 52003
AAXX 01064 41258 36/// /2001 10238 20100 30206 40210 333 0E/// 20202 59011
AAXX 01064 89542 46/// /1307 11013 20076 49906 57022
AAXX 01064 67002 12581 33408 10310 20243 30109 40143 69924 83800 333 20257 55112 58001 82822 92408
AAXX 01064 67009 NIL
AAXX 01064 67012 12582 61804 10274 20248 30117 40128 51007 60334 82230 333 0//19 10314 20240 50234 55/// 82820 85360
AAXX 01064 67025 12582 31602 10315 20241 30010 40108 50001 60054 82832 333 0//// 10318 20233 50154 55/// 81820 555 82640 81360 81073
AAXX 01064 67027 11570 63008 10274 20240 30099 40120 58002 60584 72196 83932 333 02026 10298 20237 50094 55022 82820 81920 85360 94965 95835 555 82640 82073
AAXX 01064 67045 NIL
AAXX 01064 67072 11470 52208 10285 20241 30126 40129 51006 60144 71562 83830 333 02409 10302 20256 50214 55/// 82817 83360 555 82640 92428
AAXX 01064 67073 11582 5//// 10286 20237 30096 40122 51005 60154 70162 82933 333 0//15 10324 20248 50//4 55/// 81020 81920 94965 95835 555 82633 82360 81073
AAXX 01064 67083 12581 60000 10226 20181 38751 48525 52006 60724 85802 333 01729 20179 50204 55041 85820
AAXX 01064 67095 12481 52004 10297 20234 30111 40118 51001 60064 83832 333 02417 10328 20232 50404 55/// 83817 83360 555 82633 82073
AAXX 01064 67113 NIL
AAXX 01064 67117 NIL
AAXX 01064 67137 12480 70000 10242 20196 38892 48500 50002 60214 82802 333 0//19 10253 20193 50114 55/// 82817 87073 555 81620
AAXX 01064 67143 12582 3//// 10/// 20/// 30114 40121 52001 60074 81230 333 0//00 10/// 20/// 50//4 55/// 81820 83360 92438
AAXX 01064 67152 12580 4//// 10243 20224 39197 48504 51007 60354 84200 333 02029 10295 20206 50374 55/// 84820
AAXX 01064 67157 11470 7//// 10/// 20/// 30143 40150 52006 60124 71562 878// 333 0//13 10/// 20/// 50//4 55/// 82817 87633
AAXX 01064 67161 32582 10295 20230 30095 40104 51008 81202 333 0//00 10315 20220 50524 55/// 81823 555 82073
AAXX 01064 67197 11458 10248 20225 30126 40136 51004 69924 71522 878// 333 01519 10290 20232 50384 55101 83817 85633
BBXX 41033 01061 99323 70804 46/// /2402 1//// 40221 50000 90600 555 11019 22019
BBXX 41052 01061 99183 70648 46/// /0707 10261 40172 58015 90600 22200 00267 10903 70014 333 91209
BBXX 44024 01061 99423 70659 46/12 /3009 10083 40036 55006 90604 22200 00080 10804 70019 333 91211 555 11117 22126
AAXX 01064 60105 32958 01808 10067 20058 40295 5//// 333 20060 31004
BBXX A8EH3 01063 99366 11422 41297 81733 10090 40180 56030 79497 887// 22244 04120 29904 335// 40805
BBXX OYCY2 01064 99312 11245 41696 83330 10090 20070 40280 51010 71022 8561/ 22253 00170 20807 335// 41207 5//// 6//// 80080 ICE /////
BBXX UIFY 01061 99514 11409 42598 33106 11141 21202 40254 57005 83400 22200 01005 2//// ICE 40092
AAXX 01064 95287 41/98 41622 10280 20211 3//// 4//// 71582 82208
AAXX 01064 95290 41/98 51323 10280 20221 3//// 4//// 70222 85300
AAXX 01064 78705 NIL
AAXX 01064 78708 31562 63504 10230 20230 30137 40168 50001 70544 82470 333 10312 20228 30/// 56880 58014 82625 85358
AAXX 01064 78714 32578 60000 10195 20188 83230 333 10280 20184 30/// 56230 83828 85358
AAXX 01064 78717 31558 40000 10180 20177 38980 40157 54000 71044 84500 333 10250 20170 30/// 56800 58008 84622
AAXX 01064 78720 31560 50103 10184 20156 39065 40168 58023 70544 84530 333 10273 20178 30/// 56800 58011 84626
AAXX 01064 78724 32578 20314 10264 20206 30057 40114 55003 82500 333 56100 59003 82630
AAXX 01061 45032 36/// /3302 10214 20087 30181 40198 57002
AAXX 01061 45035 36/// /2604 10199 20105 30154 40196 57003
AAXX 01061 45039 36/// /0002 10205 20097 30180 40195 57003
AAXX 01061 45044 36/// /1304 10191 20127 30105 40198 57001
AAXX 01061 45032 36/// /3302 10214 20087 30181 40198 57002
AAXX 01061 45035 36/// /2604 10199 20105 30154 40196 57003
AAXX 01061 45039 36/// /0002 10205 20097 30180 40195 57003
AAXX 01061 45044 36/// /1304 10191 20127 30105 40198 57001
BBXX ELVL8 01063 99183 70528 41395 60422 10261 20215 40210 53030 7//82 86/// 22214 04262 20206 303// 40206 5//// 80230 ELVL8
BBXX TBWUK34 01063 99025 10006 41398 71810 10260 20246 40119 54000 72011 8561/ 22224 00310 20200 318// 40301 5//// 80250
BBXX A8QL5 01061 99126 70258 41497 80519 10205 20175 40140 56/// 70322 887// 22214 04250 20503 303// 40706 80185
BBXX 42085 01061 99179 70665 46/// /0707 10264 40167 90630 333 91208
BBXX 42085 01061 99179 70665 46/// /0707 10264 40169 90620 333 91208
BBXX 42085 01061 99179 70665 46/// /0706 10264 40169 90610 333 91208
BBXX 42023 01061 99261 70831 46/// /0000 1//// 90630 333 91202
BBXX 42023 01061 99261 70831 46/// /0000 1//// 90600 333 91202
BBXX WXS6134 01064 99477 70890 41/92 82722 11000 2//// 40027 57/// 77572 8//// 22263 00050 21004 3//// 4//// 5//// 6//// 8//// ICE /////
BBXX MINUK03 0106/ 99543 10004 46/// ///// 10093 49973 57027
BBXX MINUK04 0106/ 99546 10060 46/// ///// 10098 4//// 52018
BBXX E5U2123 01063 99469 70075 41/97 82027 10140 20122 40142 57010 75855 88/// 22253 00135 21006 3//// 4//// 5//// 80130
BBXX UASP 01061 99692 10352 41/96 91308 11011 40155 51001 70211 8//// 222// 20403
BBXX WHKM 01064 99129 30875 41198 12313 10300 20260 40100 54000 7//00 814// 22233 0//// 2//// 318// 40403 5//// 6//// 80270 ICE /////
BBXX SHIP 01064 99061 11075 41498 50411 10285 20258 40118 57020 70222 8432/ 22252 00252 20201 301// 40503 80265
BBXX UIFY 01061 99514 11409 42598 33106 11141 21202 40254 57005 83400 22200 01005 2//// ICE 40092
BBXX WHKM 01064 99129 30875 41198 12313 10300 20260 40100 54000 7//00 814// 22233 0//// 2//// 318// 40403 5//// 6//// 80270 ICE /////
BBXX 44024 01061 99423 70659 46/12 /3009 10083 40036 55006 90604 22200 00080 10804 70019 333 91211 555 11117 22126
BBXX 41052 01061 99183 70648 46/// /0707 10261 40172 58015 90600 22200 00267 10903 70014 333 91209
BBXX 41033 01061 99323 70804 46/// /2402 1//// 40221 50000 90600 555 11019 22019
BBXX 42360 01061 99267 70905 46/// /1404 10233 90600 22200 00245 10501 70004 333 91206
BBXX 44056 01061 99362 70757 46/// ///// 1//// 90550 22200 00123 10601 20601 70004
BBXX 41053 01061 99185 70661 46/// /0808 10259 40173 90620 333 91210
BBXX 41053 01061 99185 70661 46/// /0908 10261 40173 90630 333 91209
BBXX 41053 01061 99185 70661 46/// /0906 10256 40175 90610 333 91209
BBXX 44138 01061 99443 70536 46/// /1212 10085 40174 57070 22200 00092 10504 70021 333 91214
BBXX 44137 01061 99423 70620 46/// /2905 10102 49999 57055 22200 00089 10705 70026 333 91207
BBXX KS094 01064 99179 70629 43/// /1013 10261 40189 22200 06257
BBXX KS098 01064 99446 71241 43/// /0406 10069 40214 22200 06000
BBXX KS088 01064 99267 70801 43/// /0701 10228 40226 22200 06221
BBXX KS007 01064 99267 70801 43/// ///// 10228 40188 22200
BBXX 46219 01061 99332 71199 46/// ///// 1//// 90628 22200 00136 11505 21003 329// 41504 70024
BBXX 46224 01061 99332 71175 46/// ///// 1//// 90606 22200 00146 11302 21001 323// 41301 70009
BBXX 46214 01061 99379 71235 46/// ///// 1//// 90620 22200 00119 11306 21003 329// 41305 70030
BBXX 44040 01061 99410 70736 46/// /3005 10081 20051 40178 90619 22200 1//00 70001 333 91205 555 11057 22072
BBXX 44022 01061 99409 70737 46/// ///03 10077 20040 40172 90630 22200 00070 333 91204 555 11036 22041
BBXX 44060 01061 99413 70721 46/// ///04 10071 40159 90630 22200 00090 333 91205 555 11036 22041
BBXX 46239 01061 99363 71221 46/// ///// 1//// 90621 22200 00119 11306 20903 330// 41305 70030
BBXX 46238 01061 99334 71195 46/// ///// 1//// 90620 22200 00139 11503 21002 329// 41503 70016
BBXX 42364 01061 99291 70881 46/// /1806 10211 20161 40234 90630
BBXX 42362 01061 99278 70907 46/// /1605 10222 20189 40227 90630
AAXX 01064 60135 32450 11404 10068 20053 40295 58004 81600 333 20053 30002 81710
BBXX FLAO 0106/ 99764 70847 46/// ///// 11360 40092 52003
AAXX 0106/ 89327 46/// ///// 11034 39700 4//// 5//// 90630
AAXX 0106/ 89828 46/// ///// 11168 36509 4//// 5//// 90630
AAXX 0106/ 89108 46/// ///// 11204 36959 4//// 5//// 90630
AAXX 0106/ 89879 46/// ///// 10014 39737 4//// 5//// 90630
AAXX 0106/ 89667 46/// ///// 10000 39807 4//// 5//// 90620
AAXX 0106/ 89667 46/// ///// 11011 39807 4//// 5//// 90610
AAXX 0106/ 89872 46/// ///// 10054 39778 4//// 5//// 90630
AAXX 0106/ 89869 46/// ///// 10015 39766 4//// 5//// 90630
AAXX 0106/ 89866 46/// ///// 10001 39706 4//// 5//// 90630
AAXX 0106/ 89329 46/// ///// 11088 38706 4//// 5//// 90630
AAXX 0106/ 89799 46/// ///// 11245 4//// 5//// 90630
AAXX 0106/ 89332 46/// ///// 11044 39184 4//// 5//// 90620
AAXX 0106/ 89332 46/// ///// 11040 39185 4//// 5//// 90630
AAXX 0106/ 89769 46/// ///// 10024 39816 4//// 5//// 90630
AAXX 0106/ 89314 46/// ///// 11113 38181 4//// 5//// 90620
AAXX 0106/ 89314 46/// ///// 11109 38183 4//// 5//// 90630
AAXX 01064 89667 46/// /3304 10010 29068 39808 4//// 5//// 90630
AAXX 01061 47008 42970 02301 11013 21080 30175 40231 57017
AAXX 01061 47014 42950 80000 11078 21170 39850 40271 53001 8804/
AAXX 01061 47016 11970 00000 11082 21171 39360 40266 57005 69901 70171
AAXX 01061 47020 12565 80000 11061 21115 39874 40267 58014 69901 885//
AAXX 01061 47025 12566 80000 10007 21016 30196 40226 57009 69931 86502
AAXX 01061 47035 42970 83602 11055 21171 30262 40271 57015 80007
AAXX 01061 47041 41560 80000 11019 21032 30183 40211 57003 77374 8802/
AAXX 01061 47055 42965 82301 10003 21059 30163 40210 57010 8805/
AAXX 01061 47058 11558 83202 11054 21075 30208 40257 58009 69901 71072 86502
AAXX 01061 47069 11556 52908 11030 21050 30144 40247 58008 69901 77072 85500
AAXX 01061 47003 42980 13203 11049 21144 30247 40251 57001 80001
AAXX 01061 47005 11580 80501 11108 21161 38574 57004 69901 70371 82502
AAXX 01061 47022 42475 80000 11079 21130 38797 57011 81502
AAXX 01061 47028 42963 50201 11051 21141 30176 40276 58001 80002
AAXX 01061 47031 41960 80000 11107 21120 38901 57013 77172 80002
AAXX 01061 47037 42970 03604 11052 21149 30137 40265 57004
AAXX 01061 47039 12560 80000 11029 21071 30043 40240 57009 69911 885//
AAXX 01061 47046 11550 80504 10001 21045 30179 40202 57012 60011 71072 82532
AAXX 01061 47050 12565 43205 11040 21108 30215 40250 57007 69911 84500
AAXX 01061 47052 11565 83203 11056 21090 39873 40225 57019 69901 70372 885//
AAXX 01061 47060 11560 83203 11056 21086 30197 40258 58007 69901 77177 8802/
AAXX 01061 47061 42980 80000 10021 21067 30158 40202 57015 8807/
AAXX 01061 47065 41550 83205 11065 21106 30189 40258 58006 71022 885//
AAXX 01061 47067 41550 83203 11044 21071 30131 40256 57014 71022 885//
AAXX 01061 47068 11560 83206 11046 21098 30214 40251 58005 69901 77272 885//
AAXX 01061 47070 41960 82906 11029 21096 30146 40237 57010 71022 80001
AAXX 01061 47075 11560 82703 11054 21079 39719 40161 57003 69921 77072 8802/
AAXX 01064 47827 11/70 70109 10122 20042 30155 40193 55009 69901 70282 87400
AAXX 01064 65563 31940 00210 10160 20087 39882 40124 71000 333 20115 59015
AAXX 01064 65592 31940 0//// 10180 20177 30082 40105 71000 333 20180 59010
AAXX 01064 65594 32458 10304 10191 20170 30090 40120 81502 333 20190 59001 87611 84080
AAXX 01064 71073 16/// /0503 11092 21178 60001 333 11023 21104 70000 555 33424 40121
AAXX 01064 71013 46/// ///// 11143 21175 6///1 333 11019 21144 7////
AAXX 01064 71060 16/// /2601 11204 21238 38730 40372 51020 60001 333 11019 21204 70000 555 32417 40211
AAXX 01064 71495 16/// /2703 11143 21190 60001 333 11009 21150 70000 555 33533 40112
AAXX 01064 71974 46/// /1502 11357 21391 30238 40284 53011 6///1 333 11298 21403 7////
AAXX 01064 71565 16/// /3003 11200 21238 60001 333 11024 21200 70004 555 33522 40221
AAXX 01064 71566 16/// /2503 11120 21200 60001 333 11031 21120 70000 555 33131 40222
AAXX 01064 71567 16/// /3111 11084 21149 60001 333 11036 21084 70000 555 33034 40223
AAXX 01064 71793 16/// ///// 11140 21172 60001 333 11025 21141 70000
AAXX 01064 71848 17/// ///// 11141 21157 69941 7//4/ 333 11002 21156 70021
AAXX 01064 71399 16/// ///// 11140 21171 60001 333 11029 21141 70000
AAXX 01064 16325 12998 02811 10048 20023 30186 40200 53013 60002 333 20048 31/// 55/// 2//// 98070 555 0100/
AAXX 01064 89625 46/// /2811 11207 29076 36483 4//// 5//// 90600
AAXX 01064 89646 46/// /0115 11109 29073 37604 4//// 5////
AAXX 01064 89648 46/// /2411 11150 29066 37168 4//// 5////
AAXX 01064 89659 46/// /2109 11122 29063 37647 4//// 5////
AAXX 01064 89661 46/// /3510 11025 29053 39179 4//// 5////
AAXX 01064 89662 42980 03002 10056 21103 39694 49798 57001 222 ICE 98012 333 10058
AAXX 01064 89666 46/// /1207 11050 29094 39619 4//// 5////
AAXX 01064 71793 16/// ///// 11140 21172 60001 333 11025 21141 70000
AAXX 01064 71073 16/// /0503 11092 21178 60001 333 11023 21104 70000 555 33424 40121
AAXX 01064 71974 46/// /1502 11357 21391 30238 40284 53011 6///1 333 11298 21403 7////
AAXX 01064 71399 16/// ///// 11140 21171 60001 333 11029 21141 70000
AAXX 01064 71565 16/// /3003 11200 21238 60001 333 11024 21200 70004 555 33522 40221
AAXX 01064 71566 16/// /2503 11120 21200 60001 333 11031 21120 70000 555 33131 40222
AAXX 01064 71567 16/// /3111 11084 21149 60001 333 11036 21084 70000 555 33034 40223
AAXX 01064 71013 46/// ///// 11143 21175 6///1 333 11019 21144 7////
AAXX 01064 71060 16/// /2601 11204 21238 38730 40372 51020 60001 333 11019 21204 70000 555 32417 40211
AAXX 01064 71848 17/// ///// 11141 21157 69941 7//4/ 333 11002 21156 70021
AAXX 01064 71495 16/// /2703 11143 21190 60001 333 11009 21150 70000 555 33533 40112
AAXX 01061 38599 31/05 90704 11030 21034 39731 40268 58006 74944 333 21045
AAXX 01061 11231 31130 43302 11059 21060 39640 40241 53011 71011 333 21059 3/108 42001 81702 83358
AAXX 01064 41254 36/// /3304 10132 20004 38260 48265 333 0E003 20040 58069
AAXX 01064 41256 32960 01702 10246 20101 30207 40217 333 20152 59013
AAXX 01064 41258 36/// /2001 10238 20100 30206 40210 333 0E/// 20202 59011
AAXX 01064 41268 32960 01202 10243 20083 30199 40215 333 20154 3/018 59003
AAXX 01064 41312 36/// /0209 10246 20078 30155 40194 333 0E045 20195 59017
AAXX 01064 41314 32960 09902 10184 20010 39711 40224 333 20093 59017
AAXX 01064 41316 32960 00212 10248 20040 30170 40196 333 20194 59022
AAXX 01061 22140 31597 81013 11025 21054 30059 40074 52020 73632 885// 333 21027 47011 91018 91122
BBXX 46241 01061 99330 71173 46/// ///// 1//// 90611 22200 00146 11502 21001 326// 41501 70008
BBXX 9MCN8 01064 99307 11306 41498 63317 10149 20038 40193 5//// 70222 84896 22213 00210 20302 333// 40404 80098
BBXX 9VBS 01064 99221 11142 41398 70607 10190 20159 40235 50000 70200 87670 22200 00/// 20101 33331 40101 50101 80170
BBXX A8PB2 01064 99058 10971 41296 70615 10250 20236 40050 54000 76322 8767/ 22224 04290 20301 307// 40502 80240
BBXX A8SZ5 01064 99101 11210 41497 20218 10300 20274 40090 57020 703// 8/1/2 22283 00/// 2//04 80280
BBXX DDGK2 01064 99137 11119 41698 20416 10265 20215 40150 58020 70200 814/2 22255 00250 20808 80230
BBXX DGZS2 01063 99037 11055 41497 70718 10280 20239 40110 55/// 70222 8677/ 22254 00270 20603 303// 40803 80250
BBXX DGHX 01063 99120 11105 41698 40224 10270 20228 40138 57032 70111 83460 22244 00240 20605 30307 41206 51105 80240
BBXX MYJU 01063 99085 10703 41397 83215 10280 20237 40113 52003 70222 887// 22224 00285 29902 80250
BBXX V7SY6 01064 99190 11185 41697 70225 10250 20236 40320 51010 7//22 87477 22213 00260 21608 305// 40607 80240
BBXX VRFH2 01063 99404 11530 41497 63224 10070 20030 40210 5//// 70300 842// 22214 04060 20206 332// 40306 80050
AAXX 01061 89063 41496 80000 11003 21005 39874 49885 52016 77172 886//
BBXX 9MCN8 01064 99307 11306 41498 63317 10149 20038 40193 5//// 70222 84896 22213 00210 20302 333// 40404 80098
BBXX 9VBS 01064 99221 11142 41398 70607 10190 20159 40235 50000 70200 87670 22200 00/// 20101 33331 40101 50101 80170
BBXX A8PB2 01064 99058 10971 41296 70615 10250 20236 40050 54000 76322 8767/ 22224 04290 20301 307// 40502 80240
BBXX A8SZ5 01064 99101 11210 41497 20218 10300 20274 40090 57020 703// 8/1/2 22283 00/// 2//04 80280
BBXX DDGK2 01064 99137 11119 41698 20416 10265 20215 40150 58020 70200 814/2 22255 00250 20808 80230
BBXX DGZS2 01063 99037 11055 41497 70718 10280 20239 40110 55/// 70222 8677/ 22254 00270 20603 303// 40803 80250
BBXX DGHX 01063 99120 11105 41698 40224 10270 20228 40138 57032 70111 83460 22244 00240 20605 30307 41206 51105 80240
BBXX MYJU 01063 99085 10703 41397 83215 10280 20237 40113 52003 70222 887// 22224 00285 29902 80250
BBXX V7SY6 01064 99190 11185 41697 70225 10250 20236 40320 51010 7//22 87477 22213 00260 21608 305// 40607 80240
BBXX VRFH2 01063 99404 11530 41497 63224 10070 20030 40210 5//// 70300 842// 22214 04060 20206 332// 40306 80050
AAXX 01064 96015 32462 61806 10302 20261 30098 40105 56027 83272 333 56000 57804 83617 80858
BBXX ELWO6 01063 99273 70506 41598 30916 10241 20206 40270 57028 70300 81466 22254 04243 20802 30910 41106 51006 80217
BBXX DAJT 01064 99280 50246 41598 43610 10227 20187 40160 54000 70211 8/4// 22264 04220 2//02 80200
BBXX 46216 01061 99343 71198 46/// ///// 1//// 90627 22200 00144 11403 21002 327// 41402 70013
BBXX 46223 01061 99335 71178 46/// ///// 1//// 90630 22200 00151 11302 21001 327// 41302 70011
BBXX 46231 01061 99327 71174 46/// ///// 1//// 90624 22200 00148 11403 21002 328// 41402 70014
BBXX 46222 01061 99336 71183 46/// ///// 1//// 90626 22200 00146 11502 21001 327// 41502 70012
BBXX 46242 01061 99332 71174 46/// ///// 1//// 90628 22200 00145 11301 20901 322// 41301 70007
BBXX 63106 01064 99610 10017 46/// /2117 10082 49842 57012 22200
BBXX 63113 01064 99610 10017 46/// /2317 10089 20046 49844 56010 22200 10706 70029
BBXX 62094 01064 99517 70067 46/// /2124 10111 20096 40028 56018 22200 00107 10606 70031 333 90710 91133
BBXX 62103 01064 99499 70029 46/98 /2224 10124 20115 40098 57007 22200 00119 10803 70016 333 90710 91131
BBXX A8JC5 01064 99347 70163 41/98 /3007 10165 20094 40310 57010 70222 8//// 22223 04190 299// 3//// 4//// 5//// 80125
BBXX 64049 01063 99571 10022 41/97 42325 10100 20100 49919 58007 70000 8//// 22200 20606 3//// 4//// 5//// 80100
BBXX 62169 01063 99614 10014 41/97 82026 10080 20058 49827 58010 70022 8//// 22200 02080 20305 327// 41006 5//// 80070
AAXX 01061 38599 31/05 90704 11030 21034 39731 40268 58006 71064 333 21048
AAXX 01063 63714 32980 00000 10154 20087 48533 333 20080 59008
BBXX MINUK05 0106/ 99571 70021 46/// ///// 10068 49895 52007
BBXX MINUK01 0106/ 99571 70021 46/// ///// 10068 49903 52008
AAXX 01061 02981 32999 02801 11020 2//// 30088 40099 52005 700// 333 10007 21020 3////
AAXX 01061 02924 11357 81301 11058 21061 39889 40093 52014 60024 771// 88/// 333 11049 21058 3/106 4/010
AAXX 01061 02849 11331 82701 11043 21047 39822 40102 52011 60024 771// 88/// 333 11041 21053 3//// 4/035
AAXX 01061 02981 32999 02801 11020 2//// 30088 40099 52005 700// 333 10007 21020 3////
AAXX 01064 89807 46/// /1527 11024 29095 39706 4//// 5//// 90630 333 90700 91133
AAXX 0106/ 89767 46/// ///// 11040 39778 4//// 5////
AAXX 01064 89807 46/// /1527 11024 29095 39706 4//// 5//// 90630 333 90700 91133
BBXX NAZJ 01064 99508 71572 41/97 53624 11022 2//// 40129 52/// 7//// 8/84/ 22252 04044 20503 324// 40606 50606 6//// 8//// ICE /////
BBXX VRCI9 01064 99376 71240 41/98 /1312 10120 20083 40190 51020 70211 8//// 22275 00126 2//// 3//// 4//// 80100
BBXX VRCI9 01064 99376 71240 41/98 /1312 10120 20083 40190 51020 70211 8//// 22275 00126 2//// 3//// 4//// 80100
BBXX 44039 01061 99411 70727 46/// /2705 10081 20065 40177 90630 22200 00083 1//00 70001 333 91207
BBXX 46221 01061 99339 71186 46/// ///// 1//// 90615 22200 00149 11402 21001 327// 41402 70010
AAXX 01064 71102 46/// ///// 11095 21149 6///1 333 11043 21101 7////
AAXX 01064 71105 16/// ///// 11141 21157 60001 333 10006 21143 70004
BBXX 41112 01061 99307 70813 46/// ///// 1//// 90621 22200 00167 11001 21001 70003
AAXX 01064 71433 46/// /1818 10026 20006 39830 40060 58022 6///1 333 10027 21010 7////
AAXX 01064 71006 16/// /2808 11115 21157 60001 333 11027 21118 70000 555 33233 40212
AAXX 01064 71007 17/// ///// 11117 21132 69941 7//4/ 333 10000 21123 7////
AAXX 01064 71008 16/// /2704 11135 21159 60001 333 11012 21135 70000 555 33427 40121
AAXX 01064 71009 16/// /3502 11157 21176 60001 333 11028 21208 70000 555 33325 40121
AAXX 01064 71012 16/// /2814 11097 21156 60001 333 11035 21098 70000 555 33144 40223
AAXX 01064 71035 16/// ///// 11180 21202 60001 333 11025 21190 70000
AAXX 01064 71383 16/// ///// 11108 21130 39542 40167 58009 60001 333 11108 21361 70000
AAXX 01064 71841 17/// /2102 11024 21030 39636 40034 58017 69931 7//4/ 333 11019 21105 70006 555 10020 20006
AAXX 01064 71789 16/// ///// 11103 21113 60001 333 10019 21125 70000
AAXX 01064 71791 16/// /2915 11082 21146 60001 333 11037 21111 70000 555 32936 40203
AAXX 01064 71794 16/// ///// 11095 21158 60001 333 11034 21095 70000
AAXX 01064 71795 17/// ///// 11084 21096 69961 7//4/ 333 10004 21084 70011
AAXX 01064 71796 16/// ///// 11110 21161 60001 333 11033 21112 70000
AAXX 01064 71051 16/// ///// 11121 21134 60001 333 10001 21124 70000
AAXX 01064 71057 17/// ///// 11118 21138 69941 7//4/ 333 11010 21128 70004
AAXX 01064 71070 16/// ///// 11103 21112 60001 333 10026 21112 70000
AAXX 01064 71089 16/// ///// 11094 21153 60001 333 11031 21094 70000
AAXX 01064 71502 46/// /1605 11261 21282 30173 40190 5/010 6///1 333 11229 21266 7////
AAXX 01064 71509 16/// /3101 11100 21102 60001 333 10024 21111 70000 555 32733 40222
AAXX 01064 71517 16/// /3407 11101 21137 60001 333 10023 21113 70000 555 32739 40223
AAXX 01064 71518 16/// /2506 11111 21118 60001 333 10002 21122 70004 555 33524 40131
AAXX 01064 71519 16/// /2402 11081 21085 60001 333 10008 21089 70005 555 32721 40071
AAXX 01064 71520 16/// /1504 11119 21131 39470 40157 56012 60001 333 11116 21372 70000
AAXX 01064 71521 16/// /1101 11118 21138 60001 333 11118 21335 70000
AAXX 01064 71522 46/// /3101 11104 21126 39674 40175 58009 6///1 333 11101 21271 70000
AAXX 01064 71523 16/// ///// 11103 21115 39769 40154 57006 60001 333 11103 21241 70000
AAXX 01064 71528 16/// /3403 11097 21101 60001 333 10010 21108 70000 555 32623 40121
AAXX 01064 71409 16/// ///// 11107 21119 60001 333 10021 21109 70000
AAXX 01064 71841 17/// /2102 11024 21030 39636 40034 58017 69931 7//4/ 333 11019 21105 70006 555 10020 20006
AAXX 01064 71433 46/// /1818 10026 20006 39830 40060 58022 6///1 333 10027 21010 7////
AAXX 01064 89667 46/// /3504 10003 29063 39809 4//// 5//// 90640
AAXX 0106/ 89872 46/// ///// 10030 39778 4//// 5//// 90640
AAXX 0106/ 89869 46/// ///// 10003 39768 4//// 5//// 90640
AAXX 0106/ 89866 46/// ///// 10013 39708 4//// 5//// 90640
AAXX 0106/ 89329 46/// ///// 11089 38706 4//// 5//// 90640
AAXX 0106/ 89799 46/// ///// 11245 4//// 5//// 90640
AAXX 0106/ 89868 46/// ///// 11013 39769 4//// 5//// 90640
AAXX 0106/ 89769 46/// ///// 10004 39818 4//// 5//// 90640
AAXX 0106/ 89828 46/// ///// 11169 36509 4//// 5//// 90640
AAXX 0106/ 89108 46/// ///// 11213 36960 4//// 5//// 90640
AAXX 0106/ 89879 46/// ///// 10009 39737 4//// 5//// 90640
BBXX ZCDL9 01063 99317 30165 41598 72213 10190 20118 40239 53030 70322 8/2// 22244 04190 20802 318// 40802 5//// 80150
BBXX CFO383 01064 99439 70602 47192 /1024 10099 2010/ 40009 5//// 752// 8//// 22200 00067 10604 2//// 3//// 70020 80099 91027
BBXX CFO383 01064 99439 70602 47192 /1024 10099 2010/ 40009 5//// 752// 8//// 22200 00067 10604 2//// 3//// 70020 80099 91027
AAXX 01061 89063 41496 80000 11003 21005 39874 49885 52016 77172 886//
BBXX ZCDL9 01063 99317 30165 41598 72213 10190 20118 40239 53030 70322 8/2// 22244 04190 20802 318// 40802 5//// 80150
BBXX DAJT 01064 99280 50246 41598 43610 10227 20187 40160 54000 70211 8/4// 22264 04220 2//02 80200
BBXX TBWUK34 01063 99025 10006 41398 71810 10260 20246 40119 54000 72011 8561/ 22224 00310 20200 318// 40301 5//// 80250
BBXX A8QL5 01061 99126 70258 41497 80519 10205 20175 40140 56/// 70322 887// 22214 04250 20503 303// 40706 80185
BBXX SHIP 01064 99530 11717 41098 40312 10000 20000 40129 54000 70211 85100 22255 00043 20402 330// 40503 80000
BBXX VRFJ6 01064 99232 11173 41/97 /0418 10210 20128 40211 57040 70200 8//// 22252 00152 20503 304// 40502 80160
BBXX VQGQ4 01064 99145 11330 41498 30810 10280 20237 40110 58020 70222 821/4 22233 00275 20303 80250
BBXX SHIP 01064 99057 11349 41398 70421 10290 20277 40071 52030 70222 87179 22235 00290 20404 310// 40403 80280
BBXX 9VBS 01064 99221 11142 41398 70607 10190 20159 40235 50000 70200 87670 22200 00/// 20101 333 31 40101 50101 80170
BBXX SHIP 01064 99307 11306 41498 63317 10149 20038 40193 5//// 70222 84896 22213 00210 20302 333 // 40404 80098
BBXX DGHX 01063 99120 11105 41698 40224 10270 20228 40138 57032 70111 83460 22244 00240 20605 30307 41206 51105 80240
BBXX MYJU 01063 99085 10703 41397 83215 10280 20237 40113 52003 70222 887// 22224 00285 29902 80250
BBXX DDGK2 01064 99137 11119 41698 20416 10265 20215 40150 58020 70200 814/2 22255 00250 20808 80230
BBXX VRFH2 01063 99404 11530 41497 63224 10070 20030 40210 5//// 70300 842// 22214 04060 20206 332// 40306 80050
BBXX V7SY6 01064 99190 11185 41697 70225 10250 20236 40320 51010 7//22 87477 22213 00260 21608 305// 40607 80240
BBXX 9VBS 01064 99221 11142 41398 70607 10190 20159 40235 50000 70200 87670 22200 00/// 20101 33331 40101 50101 80170
BBXX A8SZ5 01064 99101 11210 41497 20218 10300 20274 40090 57020 703// 8/1/2 22283 00/// 2//04 80280
BBXX A8PB2 01064 99058 10971 41296 70615 10250 20236 40050 54000 76322 8767/ 22224 04290 20301 307// 40502 80240
BBXX SHIP 01064 99307 11306 41498 63317 10149 20038 40193 5//// 70222 84896 22213 00210 20302 333// 40404 80098
BBXX CFO383 01064 99439 70602 47192 /1024 10099 2010/ 40009 5//// 752// 8//// 22200 00067 10604 2//// 3//// 70020 80099 91027
BBXX 46221 01061 99339 71186 46/// ///// 1//// 90615 22200 00149 11402 21001 327// 41402 70010
BBXX 41112 01061 99307 70813 46/// ///// 1//// 90621 22200 00167 11001 21001 70003
BBXX 44039 01061 99411 70727 46/// /2705 10081 20065 40177 90630 22200 00083 1//00 70001 333 91207
BBXX 46222 01061 99336 71183 46/// ///// 1//// 90626 22200 00146 11502 21001 327// 41502 70012
BBXX 46223 01061 99335 71178 46/// ///// 1//// 90630 22200 00151 11302 21001 327// 41302 70011
BBXX 46216 01061 99343 71198 46/// ///// 1//// 90627 22200 00144 11403 21002 327// 41402 70013
BBXX 46231 01061 99327 71174 46/// ///// 1//// 90624 22200 00148 11403 21002 328// 41402 70014
BBXX 46242 01061 99332 71174 46/// ///// 1//// 90628 22200 00145 11301 20901 322// 41301 70007
BBXX ELWO6 01063 99273 70506 41598 30916 10241 20206 40270 57028 70300 81466 22254 04243 20802 30910 41106 51006 80217
BBXX 46241 01061 99330 71173 46/// ///// 1//// 90611 22200 00146 11502 21001 326// 41501 70008
BBXX FLAO 0106/ 99764 70847 46/// ///// 11360 40092 52003
BBXX 42023 01061 99261 70831 46/// /0000 1//// 90630 333 91202
BBXX 42023 01061 99261 70831 46/// /0000 1//// 90600 333 91202
BBXX 42085 01061 99179 70665 46/// /0706 10264 40169 90610 333 91208
BBXX 42085 01061 99179 70665 46/// /0707 10264 40169 90620 333 91208
BBXX 42085 01061 99179 70665 46/// /0707 10264 40167 90630 333 91208
BBXX ELVL8 01063 99183 70528 41395 60422 10261 20215 40210 53030 7//82 86/// 22214 04262 20206 303// 40206 5//// 80230 ELVL8
BBXX MINUK01 0106/ 99571 70021 46/// ///// 10068 49903 52008
BBXX MINUK05 0106/ 99571 70021 46/// ///// 10068 49895 52007
BBXX 62169 01063 99614 10014 41/97 82026 10080 20058 49827 58010 70022 8//// 22200 02080 20305 327// 41006 5//// 80070
BBXX 64049 01063 99571 10022 41/97 42325 10100 20100 49919 58007 70000 8//// 22200 20606 3//// 4//// 5//// 80100
BBXX A8JC5 01064 99347 70163 41/98 /3007 10165 20094 40310 57010 70222 8//// 22223 04190 299// 3//// 4//// 5//// 80125
BBXX 3EPD8 01064 99379 70119 41598 63012 10135 20085 40300 57010 7//22 8/5// 22284 04167 29904 399// 4//04 80110
BBXX DGZS2 01063 99037 11055 41497 70718 10280 20239 40110 55/// 70222 8677/ 22254 00270 20603 303// 40803 80250
AAXX 01064 60127 32960 00000 10062 20029 39691 40308 5/006 333 20056 30004
AAXX 01064 71540 16/// /2803 11185 21228 60001 333 11021 21197 70000 555 33425 40131
AAXX 01064 71544 16/// ///// 11103 21156 60001 333 11040 21105 70000
AAXX 01064 71548 16/// ///// 11089 21153 60001 333 11033 21089 70000
AAXX 01064 71674 16/// ///// 11109 21163 60001 333 11031 21109 70000
AAXX 01064 71014 16/// /0402 11106 21189 60001 333 11025 21119 70000 555 33020 40131
AAXX 01064 71055 46/// /1701 11370 21407 39865 40224 51015 6///1 333 11289 21393 7////
AAXX 01064 71065 16/// ///// 11089 21152 60001 333 11033 21129 70000
AAXX 01064 71857 46/// ///// 11099 21156 6///1 333 11039 21103 7////
AAXX 01064 71360 16/// ///// 11086 21151 60001 333 11034 21095 70000
AAXX 01064 71380 17/// /2202 11125 21209 69941 7//4/ 333 11026 21150 70004 555 33232 40222
AAXX 01064 71249 16/// /2511 11147 21181 60001 333 11028 21147 70000 555 33428 40132
AAXX 01064 71797 16/// ///// 11096 21146 60001 333 11044 21135 70000
AAXX 01064 71481 17/// /2306 11103 21210 69941 7//4/ 333 11037 21129 70004 555 33127 40211
AAXX 01064 71498 16/// /2505 11102 21131 60001 333 11002 21127 70000 555 33221 40121
AAXX 01064 71413 16/// ///// 11119 21164 60001 333 11023 21124 70000
AAXX 01064 71414 16/// ///// 11095 21149 60001 333 11033 21096 70004
AAXX 01064 71440 16/// ///// 11095 21143 60001 333 11015 21101 70000
AAXX 01064 71346 16/// /2904 11121 21129 60001 333 10015 21123 70000 555 33222 40141
AAXX 01064 71904 16/// ///// 11106 21210 60001 333 11020 21119 70000
AAXX 01064 41515 02697 60000 10059 21095 38601 48561 60001 84520 333 56990 58002 60007 84650 82458
AAXX 01064 41560 22697 31303 10030 21051 38293 48525 60001 82430 333 58006 60007
AAXX 01064 41571 11995 00000 10140 20022 39594 40185 60001 70500 333 59033
AAXX 01064 41594 31993 02304 10150 20069 39965 40186 70500 333 59028
AAXX 01064 41685 32997 03602 10120 21093 38947 48525 333 59012
AAXX 01064 41710 02997 01304 10110 21119 39435 40227 60007 333 59015 60007
AAXX 01064 41718 11995 00000 10135 20049 30095 40202 60001 70400 333 59003
AAXX 01064 41739 02997 00506 10095 21032 39100 48539 60001 333 59005 60007
AAXX 01064 41744 NIL
AAXX 01064 41749 21991 03104 10150 20056 30185 40220 60001 70400 333 58008
AAXX 01064 41506 02697 73604 10080 21021 48556 60001 84420 333 56990 59008 60007 84640 83460
AAXX 01064 41508 22697 22302 10078 21080 48564 60001 82200 333 56900 59011 60007 82835
AAXX 01064 41523 12997 00000 10110 21025 48545 60001 333 59013 60007
AAXX 01064 41535 12997 03102 10120 21026 48506 60001 333 58016
AAXX 01064 41536 12997 01803 10105 21034 48530 60001 333 58016
AAXX 01064 41573 12997 01304 10100 21048 48505 60001 333 59021
AAXX 01064 41600 01995 00000 10040 20056 39875 40177 60001 70400 333 59024 60007
AAXX 01064 41630 11994 00000 10145 20086 40190 60001 70440 333 59025
AAXX 01064 41678 01995 00000 10115 20062 40198 60001 71040 333 58019 60007
AAXX 01064 41696 32997 00000 10070 21169 38026 48547 60001 333 59018 60007
AAXX 01064 41697 02997 00000 10164 20036 40205 60001 333 58000 60007
AAXX 01064 41700 11995 00502 10140 20068 40187 60001 70400 333 59011
AAXX 01064 41725 01995 00000 10150 20056 40202 60001 70500 333 58013 60007
AAXX 01064 41746 02996 03602 10140 20102 40218 60001 333 58011 60007
AAXX 01064 41759 12996 03604 10210 21075 30201 40207 60001 333 59010
AAXX 01064 41785 02997 00502 10170 20057 40194 60001 333 58000 60007
AAXX 01064 41515 02697 60000 10059 21095 38601 48561 60001 84520 333 56990 58002 60007 84650 82458
AAXX 01064 41560 22697 31303 10030 21051 38293 48525 60001 82430 333 58006 60007
AAXX 01064 41571 11995 00000 10140 20022 39594 40185 60001 70500 333 59033
AAXX 01064 41594 31993 02304 10150 20069 39965 40186 70500 333 59028
AAXX 01064 41685 32997 03602 10120 21093 38947 48525 333 59012
AAXX 01064 41710 02997 01304 10110 21119 39435 40227 60007 333 59015 60007
AAXX 01064 41718 11995 00000 10135 20049 30095 40202 60001 70400 333 59003
AAXX 01064 41739 02997 00506 10095 21032 39100 48539 60001 333 59005 60007
AAXX 01064 41744 NIL
AAXX 01064 41749 21991 03104 10150 20056 30185 40220 60001 70400 333 58008
AAXX 01064 71413 16/// ///// 11119 21164 60001 333 11023 21124 70000
AAXX 01064 71414 16/// ///// 11095 21149 60001 333 11033 21096 70004
AAXX 01064 71440 16/// ///// 11095 21143 60001 333 11015 21101 70000
AAXX 01064 71540 16/// /2803 11185 21228 60001 333 11021 21197 70000 555 33425 40131
AAXX 01064 71544 16/// ///// 11103 21156 60001 333 11040 21105 70000
AAXX 01064 71548 16/// ///// 11089 21153 60001 333 11033 21089 70000
AAXX 01064 71055 46/// /1701 11370 21407 39865 40224 51015 6///1 333 11289 21393 7////
AAXX 01064 71065 16/// ///// 11089 21152 60001 333 11033 21129 70000
AAXX 01064 71674 16/// ///// 11109 21163 60001 333 11031 21109 70000
AAXX 01064 71014 16/// /0402 11106 21189 60001 333 11025 21119 70000 555 33020 40131
AAXX 01064 71249 16/// /2511 11147 21181 60001 333 11028 21147 70000 555 33428 40132
AAXX 01064 71360 16/// ///// 11086 21151 60001 333 11034 21095 70000
AAXX 01064 71380 17/// /2202 11125 21209 69941 7//4/ 333 11026 21150 70004 555 33232 40222
AAXX 01064 71904 16/// ///// 11106 21210 60001 333 11020 21119 70000
AAXX 01064 71346 16/// /2904 11121 21129 60001 333 10015 21123 70000 555 33222 40141
AAXX 01064 71481 17/// /2306 11103 21210 69941 7//4/ 333 11037 21129 70004 555 33127 40211
AAXX 01064 71498 16/// /2505 11102 21131 60001 333 11002 21127 70000 555 33221 40121
AAXX 01064 71797 16/// ///// 11096 21146 60001 333 11044 21135 70000
AAXX 01064 71857 46/// ///// 11099 21156 6///1 333 11039 21103 7////
BBXX ZCDL9 01063 99317 30165 41598 72213 10190 20118 40239 53030 70322 8/2// 22244 04190 20802 318// 40802 5//// 80150
AAXX 01064 65501 32960 70000 10142 21031 39822 40141 80002 333 01000 20142 50744 55100 59016 87076
AAXX 01064 65502 32960 70000 10166 21031 39749 40132 80002 333 01300 20165 50804 55099 59023 87076
AAXX 01064 65503 32960 73604 10172 20006 39788 40136 83032 333 01100 20166 50670 55104 51723 59015 83363 85076
AAXX 01064 65505 32960 73602 10155 20020 39799 40142 80002 333 01100 20150 51034 55104 59016 87076
AAXX 01064 65507 32960 70202 10186 21003 39776 40126 80002 333 01300 20186 50764 55098 59017 87076
AAXX 01064 65510 32960 50204 10164 20001 39616 40135 80002 333 01400 20160 50810 55090 59015 85076
AAXX 01064 65516 32960 50000 10156 20006 39824 40133 80002 333 01300 20150 50594 55102 59015 85076
AAXX 01064 65518 32965 73604 10180 21049 39754 40119 80002 333 01300 20169 50784 55103 59021 87076
AAXX 01064 65522 32960 70000 10157 20008 39800 40134 80002 333 01100 20156 50864 55095 59016 87076
BBXX ELWZ5 01064 99479 71451 41296 80428 10055 20047 49815 57025 76366 887// 22223 04110 2//04 310// 4//05 5//// 80051
AAXX 01061 59158 32965 03605 10201 20115 30081 40182 56031
AAXX 01061 59562 11668 80404 10208 20143 30177 40188 57027 69901 70362 885//
AAXX 01061 59567 11457 80107 10166 20153 39802 40185 57019 60241 76162 887//
AAXX 01061 58968 31559 80803 10152 20111 30217 40225 55020 71022 885//
AAXX 01061 58974 31558 80209 10150 20087 30105 40231 55019 70522 8552/
AAXX 01061 59358 31950 03503 10224 20141 30152 40184 57035 70511
AAXX 01061 59559 32568 20308 10219 20149 30142 40170 57029 82200
AAXX 01061 59792 32460 30308 10218 20162 30177 40182 57033 83400
BBXX PHAM 01063 99495 70011 41297 82720 10124 20115 40115 57005 76162 887// 22200 20303 80119 91018
OOXX SEP63 01041 99594 10180 ///// 00401 26/// /3402 11050 29086 30040 90410 333 60000
OOXX SEP63 01041 99594 10180 ///// 00401 26/// /3302 11049 29085 30040 90420 333 60000
OOXX SEP63 01041 99594 10180 ///// 00401 26/// /3302 11049 29085 30040 90430 333 60000
OOXX SEP63 01041 99594 10180 ///// 00401 26/// /3202 11049 29086 30040 90440 333 60000
OOXX SEP63 01041 99594 10180 ///// 00401 26/// /3202 11049 29084 30040 90450 333 60000
OOXX SEP63 01051 99594 10180 ///// 00401 26/// /3402 11048 29084 30030 90500 333 60000
OOXX SEP63 01051 99594 10180 ///// 00401 26/// /3302 11048 29084 30030 90510 333 60000
OOXX SEP63 01051 99594 10180 ///// 00401 26/// /3402 11048 29084 30030 90520 333 60000
OOXX SEP63 01051 99594 10180 ///// 00401 26/// /3302 11046 29084 30030 90530 333 60000
OOXX SEP63 01051 99594 10180 ///// 00401 26/// /3102 11045 29084 30030 90540 333 60000
OOXX SEP63 01051 99594 10180 ///// 00401 26/// /3202 11043 29084 30030 90550 333 60000
OOXX SEP63 01061 99594 10180 ///// 00401 26/// /3302 11040 29084 30030 90600 333 60000
AAXX 01064 78866 02475 41010 10256 20215 30180 40185 57014 60001 84400 333 58003 60007 84817
AAXX 01064 78866 02475 41010 10256 20215 30180 40185 57014 60001 84400 333 58003 60007 84817
AAXX 01064 78866 02475 41010 10256 20215 30180 40185 57014 60001 84400 333 58003 60007 84817
AAXX 01064 78388 111570 31504 10243 20201 30161 40170 60001 70500 81802 333 01209 10302 20224 58001 81824 83072
AAXX 01064 DUPE
AAXX 01064 89614 46/// /1028 11054 29071 38929 4//// 5//// 90630 333 90700 91133
AAXX 01064 89614 46/// /1028 11054 29071 38929 4//// 5//// 90630 333 90700 91133
AAXX 01064 78388 111570 31504 10243 20201 30161 40170 60001 70500 81802 333 01209 10302 20224 58001 81824 83072
AAXX 01064 DUPE
AAXX 01064 91844 46/// /1005 10257 40107 22200 00270
AAXX 01064 67009 32582 72819 10298 20238 30007 40128 51007 879// 333 02400 315 20245 50504 55080 81820 81920 87640 94974/6 95814/6
AAXX 01064 48409 32960 20102 10305 20186 39978 40124 57036 82041 333 59015
AAXX 01064 67020 12582 50000 10296 20238 30097 40124 50000 60124 83802 333 024// 10352 20239 50454 55/// 82820 555 82640 82073=11.5
BBXX SHIP 01064 99530 11717 41098 40312 10000 20000 40129 54000 70211 85100 22255 00043 20402 330// 40503 80000
BBXX VRBQ6 01064 99530 11717 41098 40312 10000 20000 40129 54000 70211 85100 22255 00043 20402 330// 40503 80000
BBXX VRFH2 01063 99404 11530 41497 63224 10070 20030 40210 5//// 70300 842// 22214 04060 20206 332// 40306 80050
BBXX 9MCN8 01064 99307 11306 41498 63317 10149 20038 40193 5//// 70222 84896 22213 00210 20302 333 // 40404 80098
BBXX SHIP 01064 99307 11306 41498 63317 10149 20038 40193 5//// 70222 84896 22213 00210 20302 333 // 40404 80098
AAXX 01064 89514 32697 81123 10003 49906 57008 86048 333 87435
AAXX 01064 89514 32697 81123 10003 49906 57008 86048 333 87435
BBXX PJGO 01064 99571 10022 47/97 /2124 10087 49932 57006 700// 22200
BBXX 63106 01064 99610 10017 46/// /2117 10082 49842 57012 22200
BBXX 63105 01064 99610 10017 47997 ///// 10088 20048 49841 57012 700// 22200
BBXX 62094 01064 99517 70067 46/// /2224 10111 20096 40028 56018 22200 00107 10606 70031 333 90710 91133
BBXX 62103 01064 99499 70029 46/98 /2420 10122 20114 40100 57008 22200 00119 10704 70019 333 90710 91132
BBXX 9V7645 01064 99309 71208 41/// /0107 10140 20123 40190 7//// 8/727 22274 00160 2//// 3//// 4//// 5//// 6//// 80130 ICE /////
BBXX 9V7645 01064 99309 71208 41/// /0107 10140 20123 40190 5010 7//// 8/727 22274 00160 2//// 3//// 4//// 5//// 6//// 80130 ICE /////
BBXX ELWZ5 01064 99479 71451 41296 80428 10055 20047 49815 57025 76366 887// 22223 04110 2//04 310// 4//05 5//// 80051
BBXX PHAM 01063 99495 70011 41297 82720 10124 20115 40115 57005 76162 887// 22200 20303 80119 91018
OOXX CAP17 01041 99476 70527 ///// 01331 26/// /1001 11013 29080 30111 90400 333 60000
OOXX CAP17 01041 99476 70527 ///// 01331 26/// /1001 11015 29081 30108 90410 333 60000
OOXX CAP17 01041 99476 70527 ///// 01331 26/// /1101 11016 29081 30104 90420 333 60000
OOXX CAP17 01041 99476 70527 ///// 01331 26/// /1201 11015 29082 30100 90430 333 60000
OOXX CAP17 01041 99476 70527 ///// 01331 26/// /1202 11012 29081 30098 90440 333 60000
OOXX CAP17 01041 99476 70527 ///// 01331 26/// /1301 11012 29081 30094 90450 333 60000
OOXX CAP17 01051 99476 70527 ///// 01331 26/// /1402 11012 29082 30091 90500 333 60000
OOXX CAP17 01051 99476 70527 ///// 01331 26/// /1402 11011 29083 30088 90510 333 60000
OOXX CAP17 01051 99476 70527 ///// 01331 26/// /1702 11012 29085 30084 90520 333 60000
OOXX CAP17 01051 99476 70527 ///// 01331 26/// /1802 11011 29085 30083 90530 333 60000
OOXX CAP17 01051 99476 70527 ///// 01331 26/// /1803 11011 29086 30080 90540 333 60000
OOXX CAP17 01051 99476 70527 ///// 01331 26/// /1803 11010 29086 30080 90550 333 60000
OOXX FJP26 01041 99178 31775 ///// 00311 26/// /0802 10256 29095 30039 90420 333 60000
OOXX FJP26 01041 99178 31775 ///// 00311 26/// /0902 10257 29096 30039 90430 333 60000
OOXX FJP26 01041 99178 31775 ///// 00311 26/// /1304 10253 29096 30041 90440 333 60000
OOXX FJP26 01041 99178 31775 ///// 00311 26/// /1202 10251 29097 30042 90450 333 60000
OOXX FJP26 01051 99178 31775 ///// 00311 26/// /1303 10252 29096 30042 90500 333 60000
OOXX FJP26 01051 99178 31775 ///// 00311 26/// /1203 10252 29095 30043 90510 333 60000
OOXX FJP26 01051 99178 31775 ///// 00311 26/// /1102 10253 29095 30043 90520 333 60000
OOXX FJP26 01051 99178 31775 ///// 00311 26/// /0902 10255 29095 30046 90530 333 60000
OOXX FJP26 01051 99178 31775 ///// 00311 26/// /1102 10255 29095 30047 90540 333 60000
OOXX FJP26 01051 99178 31775 ///// 00311 26/// /1001 10255 29094 30048 90550 333 60000
OOXX FJP26 01061 99178 31775 ///// 00311 26/// /1101 10257 29094 30048 90600 333 60000
OOXX FJP26 01061 99178 31775 ///// 00311 26/// /1302 10257 29094 30051 90610 333 60000
OOXX ARP03 01041 99412 50712 ///// 08491 26/// /2402 10170 29066 39207 90410 333 60000
OOXX ARP03 01041 99412 50712 ///// 08491 26/// /2402 10169 29066 39206 90420 333 60000
OOXX ARP03 01041 99412 50712 ///// 08491 26/// /2402 10168 29066 39207 90430 333 60000
OOXX ARP03 01041 99412 50712 ///// 08491 26/// /2402 10166 29067 39206 90440 333 60000
OOXX ARP03 01041 99412 50712 ///// 08491 26/// /2402 10165 29067 39207 90450 333 60000
OOXX ARP03 01051 99412 50712 ///// 08491 26/// /2401 10164 29067 39206 90500 333 60000
OOXX ARP03 01051 99412 50712 ///// 08491 26/// /2401 10163 29068 39203 90510 333 60000
OOXX ARP03 01051 99412 50712 ///// 08491 26/// /2402 10163 29068 39206 90520 333 60000
OOXX ARP03 01051 99412 50712 ///// 08491 26/// /2401 10161 29069 39206 90530 333 60000
OOXX ARP03 01051 99412 50712 ///// 08491 26/// /2301 10159 29069 39207 90540 333 60000
OOXX ARP03 01051 99412 50712 ///// 08491 26/// /2201 10155 29069 39206 90550 333 60000
OOXX ARP03 01061 99412 50712 ///// 08491 26/// /2301 10156 29068 39206 90600 333 60000
OOXX RUP54 01041 99586 10494 ///// 01271 26/// /0302 11070 29089 30022 90427 333 60120
OOXX RUP54 01041 99586 10494 ///// 01271 26/// /0703 11069 29089 30023 90437 333 60120
OOXX RUP54 01041 99586 10494 ///// 01271 26/// /0603 11069 29089 30024 90447 333 60120
OOXX RUP54 01041 99586 10494 ///// 01271 26/// /0603 11069 29089 30026 90457 333 60120
OOXX RUP54 01051 99586 10494 ///// 01271 26/// /0603 11068 29089 30027 90507 333 60120
OOXX RUP54 01051 99586 10494 ///// 01271 26/// /0604 11068 29089 30028 90517 333 60120
OOXX RUP54 01051 99586 10494 ///// 01271 26/// /0704 11068 29089 30028 90527 333 60120
OOXX RUP54 01051 99586 10494 ///// 01271 26/// /0703 11068 29089 30029 90537 333 60120
OOXX RUP54 01051 99586 10494 ///// 01271 26/// /0703 11068 29089 30030 90547 333 60120
OOXX RUP54 01051 99586 10494 ///// 01271 26/// /0604 11068 29089 30032 90557 333 60120
OOXX RUP54 01061 99586 10494 ///// 01271 26/// /0604 11068 29089 30031 90607 333 60120
OOXX RUP54 01061 99586 10494 ///// 01271 26/// /0603 11068 29089 30032 90617 333 60120
OOXX NOP49 01041 99782 10154 ///// 04691 26/// /1510 11081 29077 39457 90410 333 6///0
OOXX NOP49 01041 99782 10154 ///// 04691 26/// /1510 11078 29077 39457 90420 333 6///0
OOXX NOP49 01041 99782 10154 ///// 04691 26/// /1509 11075 29076 39459 90430 333 6///0
OOXX NOP49 01041 99782 10154 ///// 04691 26/// /1307 11087 29077 39461 90440 333 6///0
OOXX NOP49 01041 99782 10154 ///// 04691 26/// /1407 11080 29077 39460 90450 333 6///0
OOXX NOP49 01051 99782 10154 ///// 04691 26/// /1207 11081 29077 39460 90500 333 6///0
OOXX NOP49 01051 99782 10154 ///// 04691 26/// /1108 11084 29078 39460 90510 333 6///0
OOXX NOP49 01051 99782 10154 ///// 04691 26/// /1210 11079 29079 39456 90520 333 6///0
OOXX NOP49 01051 99782 10154 ///// 04691 26/// /1210 11062 29077 39456 90530 333 6///0
OOXX NOP49 01051 99782 10154 ///// 04691 26/// /1310 11065 29081 39457 90540 333 6///0
OOXX NOP49 01051 99782 10154 ///// 04691 26/// /1308 11064 29081 39461 90550 333 6///0
OOXX NOP49 01061 99782 10154 ///// 04691 26/// /1207 11061 29082 39460 90600 333 6///0
OOXX KIP39 01041 99020 51574 ///// 00181 26/// /1004 10259 29088 30109 90430 333 60000
OOXX KIP39 01041 99020 51574 ///// 00181 26/// /1004 10259 29089 30110 90440 333 60000
OOXX KIP39 01041 99020 51574 ///// 00181 26/// /1103 10259 29090 30111 90450 333 60000
OOXX KIP39 01051 99020 51574 ///// 00181 26/// /1103 10259 29090 30111 90500 333 60000
OOXX KIP39 01051 99020 51574 ///// 00181 26/// /1003 10258 29090 30112 90510 333 60000
OOXX KIP39 01051 99020 51574 ///// 00181 26/// /1004 10258 29090 30112 90520 333 60000
OOXX KIP39 01051 99020 51574 ///// 00181 26/// /1004 10257 29090 30113 90530 333 60000
OOXX KIP39 01051 99020 51574 ///// 00181 26/// /1004 10257 29090 30113 90540 333 60000
OOXX KIP39 01051 99020 51574 ///// 00181 26/// /1103 10258 29090 30115 90550 333 60000
OOXX KIP39 01061 99020 51574 ///// 00181 26/// /1103 10258 29090 30115 90600 333 60000
OOXX KIP39 01061 99020 51574 ///// 00181 26/// /1104 10256 29089 30114 90610 333 60000
OOXX KIP39 01061 99020 51574 ///// 00181 26/// /1003 10258 29090 30116 90620 333 60000
OOXX ISP34 01041 99641 70219 ///// 01301 26/// /3105 10008 29001 39534 90410 333 6///0
OOXX ISP34 01041 99641 70219 ///// 01301 26/// /3105 10008 29001 39535 90420 333 6///0
OOXX ISP34 01041 99641 70219 ///// 01301 26/// /3104 10008 29001 39536 90430 333 6///0
OOXX ISP34 01041 99641 70219 ///// 01301 26/// /3105 10007 29001 39537 90440 333 6///0
OOXX ISP34 01041 99641 70219 ///// 01301 26/// /3205 10007 29001 39538 90450 333 6///0
OOXX ISP34 01051 99641 70219 ///// 01301 26/// /3303 10007 29001 39541 90500 333 6///0
OOXX ISP34 01051 99641 70219 ///// 01301 26/// /3103 10007 29001 39542 90510 333 6///0
OOXX ISP34 01051 99641 70219 ///// 01301 26/// /3203 10007 29001 39542 90520 333 6///0
OOXX ISP34 01051 99641 70219 ///// 01301 26/// /3303 10007 29001 39543 90530 333 6///0
OOXX ISP34 01051 99641 70219 ///// 01301 26/// /3402 10007 29001 39544 90540 333 6///0
OOXX ISP34 01051 99641 70219 ///// 01301 26/// /3202 10008 29001 39544 90550 333 6///0
OOXX ISP34 01061 99641 70219 ///// 01301 26/// /3102 10009 29001 39544 90600 333 6///0
OOXX GBP68 01041 99371 50123 ///// 00641 26/// /3508 10000 29087 30128 90410 333 60000
OOXX GBP68 01041 99371 50123 ///// 00641 26/// /3509 10000 29088 30129 90420 333 60000
OOXX GBP68 01041 99371 50123 ///// 00641 26/// /3508 10411 29087 30129 90430 333 60000
OOXX GBP68 01041 99371 50123 ///// 00641 26/// /3508 10000 29087 30130 90440 333 60000
OOXX GBP68 01041 99371 50123 ///// 00641 26/// /3508 10270 29087 30129 90450 333 60000
OOXX GBP68 01051 99371 50123 ///// 00641 26/// /3507 10000 29086 30131 90500 333 60000
OOXX GBP68 01051 99371 50123 ///// 00641 26/// /3507 10000 29084 30131 90510 333 60000
OOXX GBP68 01051 99371 50123 ///// 00641 26/// /3508 10000 29086 30130 90520 333 60000
OOXX GBP68 01051 99371 50123 ///// 00641 26/// /3508 10000 29087 30131 90530 333 60000
OOXX GBP68 01051 99371 50123 ///// 00641 26/// /3507 10442 29086 30131 90540 333 60000
OOXX GBP68 01051 99371 50123 ///// 00641 26/// /3508 10384 29086 30130 90550 333 60000
OOXX GBP68 01061 99371 50123 ///// 00641 26/// /3507 10000 29086 30130 90600 333 60000
OOXX AUP09 01041 99124 31309 ///// 00321 26/// ///// 1//// 29/// 3//// 90418 333 6///0
OOXX AUP09 01041 99124 31309 ///// 00321 26/// ///// 1//// 29/// 3//// 90428 333 6///0
OOXX AUP09 01041 99124 31309 ///// 00321 26/// ///// 1//// 29/// 3//// 90438 333 6///0
OOXX AUP09 01041 99124 31309 ///// 00321 26/// ///// 1//// 29/// 3//// 90448 333 6///0
OOXX AUP09 01041 99124 31309 ///// 00321 26/// ///// 1//// 29/// 3//// 90458 333 6///0
OOXX AUP09 01051 99124 31309 ///// 00321 26/// ///// 1//// 29/// 3//// 90508 333 6///0
OOXX AUP09 01051 99124 31309 ///// 00321 26/// ///// 1//// 29/// 3//// 90518 333 6///0
OOXX AUP09 01051 99124 31309 ///// 00321 26/// ///// 1//// 29/// 3//// 90528 333 6///0
OOXX AUP09 01051 99124 31309 ///// 00321 26/// ///// 1//// 29/// 3//// 90538 333 6///0
OOXX AUP09 01051 99124 31309 ///// 00321 26/// ///// 1//// 29/// 3//// 90548 333 6///0
OOXX AUP09 01051 99124 31309 ///// 00321 26/// ///// 1//// 29/// 3//// 90558 333 6///0
OOXX AUP09 01061 99124 31309 ///// 00321 26/// ///// 1//// 29/// 3//// 90608 333 6///0
OOXX RUP59 01041 99539 10848 ///// 02121 26/// /0701 11103 29076 30129 90450 333 60000
OOXX RUP59 01051 99539 10848 ///// 02121 26/// /0701 11097 29076 30130 90500 333 60000
OOXX RUP59 01051 99539 10848 ///// 02121 26/// /0701 11096 29076 30127 90510 333 60000
OOXX RUP59 01051 99539 10848 ///// 02121 26/// /0801 11100 29075 30127 90520 333 60000
OOXX RUP59 01051 99539 10848 ///// 02121 26/// /0601 11101 29075 30127 90530 333 60000
OOXX RUP59 01051 99539 10848 ///// 02121 26/// /0601 11093 29071 30126 90540 333 60000
OOXX RUP59 01051 99539 10848 ///// 02121 26/// /0501 11088 29064 30125 90550 333 60000
OOXX RUP59 01061 99539 10848 ///// 02121 26/// /0601 11088 29066 30124 90600 333 60000
OOXX RUP59 01061 99539 10848 ///// 02121 26/// /0701 11087 29068 30124 90610 333 60000
OOXX RUP59 01061 99539 10848 ///// 02121 26/// /0801 11090 29068 30121 90620 333 60000
OOXX RUP59 01061 99539 10848 ///// 02121 26/// /0702 11095 29073 30122 90630 333 60000
OOXX RUP59 01061 99539 10848 ///// 02121 26/// /0701 11092 29071 30122 90640 333 60000
OOXX MRP43 01041 99181 70159 ///// 00101 26/// /3603 10104 29026 30200 90450 333 60000
OOXX MRP43 01051 99181 70159 ///// 00101 26/// /0103 10102 29026 30198 90500 333 60000
OOXX MRP43 01051 99181 70159 ///// 00101 26/// /0304 10105 29026 30196 90510 333 60000
OOXX MRP43 01051 99181 70159 ///// 00101 26/// /0304 10105 29026 30195 90520 333 60000
OOXX MRP43 01051 99181 70159 ///// 00101 26/// /0103 10099 29027 30195 90530 333 60000
OOXX MRP43 01051 99181 70159 ///// 00101 26/// /3603 10096 29028 30196 90540 333 60000
OOXX MRP43 01051 99181 70159 ///// 00101 26/// /0203 10098 29028 30195 90550 333 60000
OOXX MRP43 01061 99181 70159 ///// 00101 26/// /0203 10099 29028 30196 90600 333 60000
OOXX MRP43 01061 99181 70159 ///// 00101 26/// /0103 10097 29029 30198 90610 333 60000
OOXX MRP43 01061 99181 70159 ///// 00101 26/// /0204 10097 29028 30199 90620 333 60000
OOXX MRP43 01061 99181 70159 ///// 00101 26/// /0203 10098 29028 30203 90630 333 60000
OOXX MRP43 01061 99181 70159 ///// 00101 26/// /0103 10099 29028 30206 90640 333 60000
OOXX AUP07 01041 99/// ///// ///// ///// 26/// /2511 10042 29072 39984 90450 333 60000
OOXX AUP07 01051 99/// ///// ///// ///// 26/// /2512 10043 29071 39983 90500 333 60000
OOXX AUP07 01051 99/// ///// ///// ///// 26/// /2511 10040 29071 39988 90510 333 60000
OOXX AUP07 01051 99/// ///// ///// ///// 26/// /2410 10041 29070 39990 90520 333 60000
OOXX AUP07 01051 99/// ///// ///// ///// 26/// /2309 10041 29068 39992 90530 333 60000
OOXX AUP07 01051 99/// ///// ///// ///// 26/// /2409 10044 29065 39994 90540 333 60000
OOXX AUP07 01051 99/// ///// ///// ///// 26/// /2110 10045 29062 39995 90550 333 60000
OOXX AUP07 01061 99/// ///// ///// ///// 26/// /2109 10046 29064 39998 90600 333 60000
OOXX AUP07 01061 99/// ///// ///// ///// 26/// /2110 10046 29061 39996 90610 333 60000
OOXX AUP07 01061 99/// ///// ///// ///// 26/// /2109 10044 29062 30000 90620 333 60000
OOXX AUP07 01061 99/// ///// ///// ///// 26/// /2410 10044 29067 30001 90630 333 60000
OOXX AUP07 01061 99/// ///// ///// ///// 26/// /2208 10044 29066 30003 90640 333 60000
OOXX RUP58 01041 99442 11320 ///// 01121 26/// /1503 11157 29059 30098 90452 333 60000
OOXX RUP58 01051 99442 11320 ///// 01121 26/// /1503 11157 29060 30098 90502 333 60000
OOXX RUP58 01051 99442 11320 ///// 01121 26/// /1502 11156 29061 30098 90512 333 60000
OOXX RUP58 01051 99442 11320 ///// 01121 26/// /1402 11159 29061 30098 90522 333 60000
OOXX RUP58 01051 99442 11320 ///// 01121 26/// /1403 11160 29061 30098 90532 333 60000
OOXX RUP58 01051 99442 11320 ///// 01121 26/// /1403 11160 29061 30098 90542 333 60000
OOXX RUP58 01051 99442 11320 ///// 01121 26/// /1403 11161 29060 30098 90552 333 60000
OOXX RUP58 01061 99442 11320 ///// 01121 26/// /1604 11162 29060 30098 90602 333 60000
OOXX RUP58 01061 99442 11320 ///// 01121 26/// /1504 11164 29060 30099 90612 333 60000
OOXX RUP58 01061 99442 11320 ///// 01121 26/// /1403 11164 29061 30099 90622 333 60000
OOXX RUP58 01061 99442 11320 ///// 01121 26/// /1403 11165 29061 30098 90632 333 60000
OOXX RUP58 01061 99442 11320 ///// 01121 26/// /1402 11165 29062 30100 90642 333 60000
OOXX NZP46 01041 99438 51765 ///// 00221 26/// /3510 10165 29100 30034 90430 333 60000
OOXX NZP46 01041 99438 51765 ///// 00221 26/// /3510 10166 29100 30034 90440 333 60000
OOXX NZP46 01041 99438 51765 ///// 00221 26/// /3510 10165 29100 30033 90450 333 60000
OOXX NZP46 01051 99438 51765 ///// 00221 26/// /3510 10164 29100 30032 90500 333 60000
OOXX NZP46 01051 99438 51765 ///// 00221 26/// /3510 10164 29100 30032 90510 333 60000
OOXX NZP46 01051 99438 51765 ///// 00221 26/// /3510 10164 29/// 30032 90520 333 60000
OOXX NZP46 01051 99438 51765 ///// 00221 26/// /3509 10163 29/// 30032 90530 333 60000
OOXX NZP46 01051 99438 51765 ///// 00221 26/// /3509 10163 29/// 30032 90540 333 60000
OOXX NZP46 01051 99438 51765 ///// 00221 26/// /3509 10162 29/// 30032 90550 333 60000
OOXX NZP46 01061 99438 51765 ///// 00221 26/// /3509 10162 29/// 30033 90600 333 69920
OOXX NZP46 01061 99438 51765 ///// 00221 26/// /3509 10162 29/// 30033 90610 333 60000
OOXX NZP46 01061 99438 51765 ///// 00221 26/// /3509 10162 29/// 30032 90620 333 60000
OOXX PTP53 01041 99377 70257 ///// 00121 26/// /2508 10172 29001 30234 90410 333 60000
OOXX PTP53 01041 99377 70257 ///// 00121 26/// /2509 10172 29001 30234 90420 333 60000
OOXX PTP53 01041 99377 70257 ///// 00121 26/// /2508 10172 29001 30234 90430 333 60000
OOXX PTP53 01041 99377 70257 ///// 00121 26/// /2608 10173 29001 30234 90440 333 60000
OOXX PTP53 01041 99377 70257 ///// 00121 26/// /2608 10172 29001 30234 90450 333 60000
OOXX PTP53 01051 99377 70257 ///// 00121 26/// /2608 10173 29001 30235 90500 333 60000
OOXX PTP53 01051 99377 70257 ///// 00121 26/// /2608 10173 29001 30236 90510 333 60000
OOXX PTP53 01051 99377 70257 ///// 00121 26/// /2607 10174 29001 30236 90520 333 60000
OOXX PTP53 01051 99377 70257 ///// 00121 26/// /2607 10174 29001 30236 90530 333 60000
OOXX PTP53 01051 99377 70257 ///// 00121 26/// /2507 10174 29001 30236 90540 333 60000
OOXX PTP53 01051 99377 70257 ///// 00121 26/// /2507 10174 29001 30235 90550 333 60000
OOXX PTP53 01061 99377 70257 ///// 00121 26/// /2507 10174 29001 30234 90600 333 60000
OOXX AUP04 01051 99377 31451 ///// 00311 26/// /3003 10368 29020 30050 90508 333 60000
OOXX AUP04 01051 99377 31451 ///// 00311 26/// /2804 10370 29020 30049 90518 333 60000
OOXX AUP04 01051 99377 31451 ///// 00311 26/// /2203 10368 29020 30049 90528 333 60000
OOXX AUP04 01051 99377 31451 ///// 00311 26/// /2502 10370 29020 30048 90538 333 60000
OOXX AUP04 01051 99377 31451 ///// 00311 26/// /2502 10368 29020 30046 90548 333 60000
OOXX AUP04 01051 99377 31451 ///// 00311 26/// /2802 10365 29020 30044 90558 333 60000
OOXX AUP04 01061 99377 31451 ///// 00311 26/// /1903 10362 29021 30043 90608 333 60000
OOXX AUP04 01061 99377 31451 ///// 00311 26/// /2102 10369 29020 30042 90618 333 60000
OOXX AUP04 01061 99377 31451 ///// 00311 26/// /3502 10363 29020 30042 90628 333 60000
OOXX AUP04 01061 99377 31451 ///// 00311 26/// /3402 10361 29021 30041 90638 333 60000
OOXX AUP04 01061 99377 31451 ///// 00311 26/// /3102 10359 29020 30041 90648 333 60000
OOXX AUP04 01061 99377 31451 ///// 00311 26/// /3002 10358 29021 30040 90658 333 60000
OOXX RUP60 01041 99531 11588 ///// 00651 26/// /3503 11071 29044 30099 90452 333 60000
OOXX RUP60 01051 99531 11588 ///// 00651 26/// /3302 11077 29046 30100 90502 333 60000
OOXX RUP60 01051 99531 11588 ///// 00651 26/// /3302 11087 29048 30100 90512 333 60000
OOXX RUP60 01051 99531 11588 ///// 00651 26/// /3303 11091 29050 30100 90522 333 60000
OOXX RUP60 01051 99531 11588 ///// 00651 26/// /0104 11091 29050 30100 90532 333 60000
OOXX RUP60 01051 99531 11588 ///// 00651 26/// /3604 11095 29052 30100 90542 333 60000
OOXX RUP60 01051 99531 11588 ///// 00651 26/// /0106 11092 29051 30101 90552 333 60000
OOXX RUP60 01061 99531 11588 ///// 00651 26/// /3206 11108 29056 30102 90602 333 60000
OOXX RUP60 01061 99531 11588 ///// 00651 26/// /2505 11114 29057 30102 90612 333 60000
OOXX RUP60 01061 99531 11588 ///// 00651 26/// /3201 11123 29058 30103 90622 333 60000
OOXX RUP60 01061 99531 11588 ///// 00651 26/// /3605 11131 29062 30103 90632 333 60000
OOXX RUP60 01061 99531 11588 ///// 00651 26/// /2904 11135 29063 30103 90642 333 60000
OOXX ARP01 01041 99345 50585 ///// 00311 26/// /1102 10106 29036 30125 90410 333 60000
OOXX ARP01 01041 99345 50585 ///// 00311 26/// /1101 10106 29036 30125 90420 333 60000
OOXX ARP01 01041 99345 50585 ///// 00311 26/// /1101 10104 29036 30126 90430 333 60000
OOXX ARP01 01041 99345 50585 ///// 00311 26/// /1101 10103 29036 30127 90440 333 60000
OOXX ARP01 01041 99345 50585 ///// 00311 26/// /1101 10103 29036 30127 90450 333 60000
OOXX ARP01 01051 99345 50585 ///// 00311 26/// /1102 10102 29036 30126 90500 333 60000
OOXX ARP01 01051 99345 50585 ///// 00311 26/// /1102 10100 29036 30126 90510 333 60000
OOXX ARP01 01051 99345 50585 ///// 00311 26/// /1101 10100 29036 30125 90520 333 60000
OOXX ARP01 01051 99345 50585 ///// 00311 26/// /0000 10099 29037 30125 90530 333 60000
OOXX ARP01 01051 99345 50585 ///// 00311 26/// /1101 10097 29037 30126 90540 333 60000
OOXX ARP01 01051 99345 50585 ///// 00311 26/// /1101 10096 29037 30125 90550 333 60000
OOXX ARP01 01061 99345 50585 ///// 00311 26/// /1101 10095 29037 30125 90600 333 60000
AAXX 01064 42260 21496 80706 10163 20163 40158 71096 8653/ 333 59028 6002/
BBXX VQNW6 01064 99059 30915 41498 22911 10296 20255 40142 50003 701// 8/1// 22233 00286 20201 336// 40404 5//// 80267
BBXX WHKM 01064 99129 30875 41198 12313 10300 20260 40100 54000 7//00 814// 22233 0//// 2//// 318// 40403 5//// 6//// 80270 ICE /////
BBXX DCCP2 01060 99178 30619 41598 41309 10275 20234 40110 51010 70200 834// 22254 00280 20802 313// 41004 5//// 80245
BBXX PCSV 01063 99280 30060 41598 62010 10178 20132 40214 50/// 70211 86500 22273 04187 20602 322// 41004 80150
BBXX A8ZP9 01063 99288 30355 41597 40908 10250 40145 58005 70211 82144 22264 00260 20100 3//// 4//// 5////
BBXX TBWUK18 01063 99310 30474 41498 51307 10220 20134 40162 52005 70111 8556/ 22222 00250 20401 319// 40502 5//// 80170
BBXX A8RL4 01064 99318 30296 41697 53008 10230 40110 5/000 7//// 854// 22213 00260 20000
BBXX TBWUK17 01063 99350 30204 41398 72819 10198 20172 40168 54000 70122 86470 22262 20203 324// 40606 5//// 80182
BBXX MLRM6 01063 99399 30056 41598 42526 10126 20100 40082 53010 70165 84500 22262 00129 20204 324// 40506 5////
BBXX 64045 01064 99591 70117 46/// /2426 10066 20025 49762 57003 22200 00100 10811 70054 333 90710 91136
BBXX 62112 01064 99584 70002 47997 /2121 10083 20056 49877 56014 700// 22200
BBXX 62113 01064 99584 10002 47997 /2222 10083 20058 49884 57013 700// 22200
BBXX 62129 01064 99584 10003 46/// ///// 10085 20058 49888 56012 22200
BBXX BATEU08 01064 99583 70011 46/// /2227 10084 20042 49868 52011 22223
BBXX 62114 01064 99583 10000 46/// /2122 10083 20056 49876 56016 22200
BBXX PJAI 01064 99581 70014 47998 /2316 10089 20029 49872 56011 700// 22200
BBXX 62111 01064 99580 70003 46/// /2424 10083 20048 49895 56013 22200 10504 70018
BBXX 62117 01064 99579 10000 47598 /2327 10082 20056 49890 57015 700// 22200 10504 70018
BBXX BATUK01 01064 99560 70032 46/// /2405 10079 20022 49915 58014 22200 00062
BBXX 62105 01064 99554 70122 46/// /2625 10084 20051 49874 58004 22200 00106 10913 70064 333 90710 91146
BBXX 62095 01064 99530 70159 46/// /2620 10075 20047 49938 58004 22200 00111 10913 70067 333 90710 91134
BBXX 62301 01064 99524 70047 46/// /2218 10100 20084 40024 58012 22200 00093 10605 70025 333 90710 91126
BBXX 62094 01064 99517 70067 46/// /2224 10111 20096 40028 56018 22200 00107 10606 70031 333 90710 91133
BBXX 62303 01064 99516 70051 46/// /2219 10116 20094 40048 58012 22200 00110 10606 70029
BBXX 62023 01063 99514 70079 46/96 /2329 10105 2//// 40036 5//// 22200 10606 70032 333 91137 555 70070 81007
BBXX 62081 01064 99510 70134 46/// ///// 10108 20060 40004 57008 22200 00120 10811 70053
BBXX 62305 01064 99504 10000 46/97 /2428 10123 20122 40111 55003 22200 00116 10703 70014 333 90710 91134
BBXX MGGK4 01060 99504 10002 41/98 82413 10100 20100 40098 50/// 70244 8//// 22255 00119 2//// 3//// 4//// 5//// 80100
BBXX 62107 01064 99501 70061 46/// /2325 10118 20102 40083 57014 22200 00116 10806 70028 333 90710 91133
BBXX 62103 01064 99499 70029 46/98 /2420 10122 20114 40100 57008 22200 00119 10704 70019 333 90710 91132
BBXX DGZT2 01063 99491 70045 41/97 82420 10135 20118 40115 57025 76222 8//// 22214 04130 2//// 80125
BBXX 62027 01064 99491 70022 46/// /2215 1//// 2//// 40127 57011 22200 00108 10904 332// 70018
BBXX 62442 01064 99490 70164 46/// /2627 1//// 2//// 40056 58003 22200 00122 333 90710 91134
BBXX BATFR15 01064 99489 70069 46/// /2217 10122 20109 40101 56022 22224 00115
BBXX 62029 01064 99487 70125 46/// /2423 10112 20081 40066 56022 22200 00127 10808 70040 333 90710 91132
BBXX WKAW 01064 99483 70085 41/97 82125 10140 2012/ 40090 58020 72052 8//// 22254 00120 2//// 3//// 4//// 5//// 6//// 80130 ICE /////
BBXX C6KD5 01063 99478 70068 41597 82320 10130 20126 40123 57005 78181 884// 22254 02130 20603 323// 40805 5//// 80128
BBXX PDNN 01063 99478 70059 41/98 82133 10130 20127 40129 54000 70022 88/// 22242 2//// 80128 91016
BBXX 62163 01064 99475 70084 46/// /2117 10117 20103 40118 58028 22200 00127 10807 70036 333 90710 91125
BBXX E5U2123 01063 99469 70075 41/97 82027 10140 20122 40142 57010 75855 88/// 22253 00135 21006 3//// 4//// 5//// 80130
BBXX ZNQO3 01060 99460 70081 41/97 82016 10145 20127 40151 54000 70222 8//// 22254 04137 2//// 3//// 4//// 5//// 80135
BBXX MYSU5 01064 99453 70165 41/98 81135 10140 20122 40126 54000 70222 8//// 22253 00140 20607 327// 40807 5//// 80130
BBXX 62001 01064 99452 70050 46/// /2420 10139 20120 40212 57016 22200 00131 10707 70034 333 90710 91128
BBXX DILE 01063 99451 70091 41/97 82526 10148 20131 40172 55003 70052 89/// 22254 04130 21006 80138
BBXX BATEU01 01064 99440 70222 44497 72836 10132 20067 40175 53011 70222 84343 22264 00139 21004 327// 41506 5////
BBXX VRCZ7 01063 99435 70098 41/96 82727 10140 20131 40221 54000 70252 8//// 22254 2//// 3//// 4//// 5//// 80135
BBXX WDC6907 01064 99426 70136 41/// /2430 10153 2015/ 40207 57020 700// 8//// 22253 00160 2//// 3//// 4//// 5//// 6//// 80150 ICE /////
BBXX BATFR09 01064 99424 70098 44497 52120 10137 20110 40265 58022 70152 83320 22283 00152 20304 333// 40608 5//// 60//0 ICE 0/0//
BBXX MCUV3 01063 99423 70104 41497 82728 10140 20122 40200 57005 76362 86748 22253 2//08 327// 4//08 5//// 80130
BBXX BAREU08 01064 99417 70210 46/// ///// 40217 52016 22254
BBXX DDSD2 01063 99416 70210 41/// /2618 10155 20139 40220 51020 72186 8//// 22254 00149 2//// 3//// 4//// 5//// 80145
AAXX 01064 60515 11960 00000 10028 20020 40302 55002 60004 700// 333 05100 20017 95990
AAXX 01064 91559 46/// /0000 10273 40046 22200 00289
AAXX 01064 71376 16/// /0000 11016 21018 39869 40165 53002 60001 333 11003 21073 70030
AAXX 01064 71710 17/// /1114 10027 20022 30029 40038 56067 60211 7//4/ 333 10027 21031 70250 555 30928 40052
AAXX 01064 71724 16/// /3003 11030 21049 30156 40164 54000 60001 333 11029 21061 70013 555 30722 40091
AAXX 01064 71732 16/// /1504 11047 21059 60001 333 11040 21092 70012
AAXX 01064 71323 16/// /3601 11051 21062 39856 40141 51010 60001 333 11008 21059 70020
AAXX 01064 71512 17/// /0506 11056 21059 30138 40152 56019 60071 7//4/ 333 11056 21152 70142
AAXX 01064 17237 11665 83004 10065 20063 39592 40098 52026 60152 76166 8552/ 333 20058 32006 55005 70162 85633 88458 91107
AAXX 01064 71710 17/// /1114 10027 20022 30029 40038 56067 60211 7//4/ 333 10027 21031 70250 555 30928 40052
AAXX 01064 71724 16/// /3003 11030 21049 30156 40164 54000 60001 333 11029 21061 70013 555 30722 40091
AAXX 01064 71732 16/// /1504 11047 21059 60001 333 11040 21092 70012
AAXX 01064 71323 16/// /3601 11051 21062 39856 40141 51010 60001 333 11008 21059 70020
AAXX 01064 71512 17/// /0506 11056 21059 30138 40152 56019 60071 7//4/ 333 11056 21152 70142
AAXX 01064 71376 16/// /0000 11016 21018 39869 40165 53002 60001 333 11003 21073 70030
AAXX 01064 91531 46/// /0506 1//// 40057 22200 00264
BBXX MINFR00 0106/ 99110 51291 46/// ///// 10253 40162 52020
AAXX 01064 89574 42998 01001 10003 21062 49887 57002
AAXX 01061 29698 42998 60000 11150 21183 39872 40442 52004 82041
AAXX 01063 64400 11440 81202 10235 20228 30112 40131 69904 71011 8387/ 333 02259 20225 50154 55029 59006 82810 83626 88362
AAXX 01063 64401 32560 80000 10230 20212 39750 40123 8157/ 333 01800 20219 50214 55019 59016 81616 88362
AAXX 01064 64450 32458 82602 10240 20218 39769 40121 888// 333 02000 20230 50214 55054 59005 81810 88620
AAXX 01063 64453 32260 82204 10210 20202 39/// 40/// 886// 333 02000 20203 50034 55050 5//// 88705
AAXX 01063 64456 NIL
AAXX 01063 64458 31404 50000 10220 20217 39722 40109 74644 83502 333 01700 20210 50204 55/// 59002 83610 85080
AAXX 01063 64459 31404 52802 10220 20217 39763 40125 74644 83202 333 02100 20215 50174 55/// 59005 83610 85080 94903 95833
AAXX 01063 64460 NIL
AAXX 01061 01380 11142 81401 11068 21079 60052 77172 886// 333 21117 49034 70051 91108
AAXX 01064 42779 21496 81402 10180 20170 39452 40161 76066 8452/ 333 59023 6007/ 84615 88458
AAXX 01064 42874 21496 81802 10226 20198 40147 70562 8561/ 333 5639/ 59012 6991/ 82715 84620 88458
AAXX 01064 43041 21595 82302 10222 20182 39534 40113 70162 8552/ 333 59004 6994/ 85620 88458
AAXX 01064 71016 16/// ///// 11073 60001 333 11004 21075 70000
AAXX 01064 71016 16/// ///// 11073 60001 333 11004 21075 70000
AAXX 01064 91642 46/// /0000 1//// 40067 22200 0////
BBXX 41052 01061 99183 70648 46/// /0707 10261 40172 90550 333 91209
BBXX 41052 01061 99183 70648 46/// /0708 10261 40174 90540 333 91209
BBXX 44056 01061 99362 70757 46/// ///// 1//// 90620 22200 00123 10701 20701 70004
BBXX 41052 01061 99183 70648 46/// /0707 10261 40170 90610 333 91209
BBXX 41052 01061 99183 70648 46/// /0707 10261 40169 90630 333 91208
BBXX 41052 01061 99183 70648 46/// /0707 10261 40170 90620 333 91209
BBXX 46109 01061 99481 71234 46/// /1702 10041 40250 90557 22200 00079
BBXX 46094 01061 99446 71243 46/// /1207 10079 90630
BBXX 46094 01061 99446 71243 46/// /1108 10079 90620
BBXX 46094 01061 99446 71243 46/// /1008 10078 90610
BBXX 46094 01061 99446 71243 46/// /1208 10079 90600
BBXX 46094 01061 99446 71243 46/// /1308 10079 90550
BBXX 46094 01061 99446 71243 46/// /1006 10079 90540
BBXX 44055 01061 99391 70753 46/// ///// 1//// 90630 22200 00070 1//00 70002
BBXX WCF3012 01064 99449 70830 41/98 80830 10040 40100 70222 22243 00060 20504
BBXX WKDY 01064 99238 10657 41998 00809 10280 20158 40200 52020 70200 80000 22214 00248 20301 3//// 4//// 5//// 6//// 80200 ICE /////
BBXX 9V7645 01064 99309 71208 41/// /0107 10140 20123 40190 7//// 8/727 22274 00160 2//// 3//// 4//// 5//// 6//// 80130 ICE /////
BBXX ELWZ5 01064 99479 71451 41296 80428 10055 20047 49815 57025 76366 887// 22223 04110 2//04 310// 4//05 5//// 80051
AAXX 01064 60107 32965 01802 10061 20016 40274 56002 333 20050 30002
AAXX 01064 60210 32960 00000 10027 21055 39095 48584 52006 333 20015 34105
AAXX 01064 71357 16/// /2006 11269 21296 30058 40065 58003 60001 333 11238 21299 70000
AAXX 01064 71347 16/// /2203 11176 21195 60001 333 11053 21189 7////
AAXX 0106/ 89872 46/// ///// 10079 39777 4//// 5//// 90610
AAXX 0106/ 89869 46/// ///// 10006 39765 4//// 5//// 90610
AAXX 0106/ 89869 46/// ///// 10016 39766 4//// 5//// 90620
AAXX 0106/ 89866 46/// ///// 11004 39705 4//// 5//// 90610
AAXX 0106/ 89866 46/// ///// 11005 39706 4//// 5//// 90620
AAXX 0106/ 89329 46/// ///// 11090 38705 4//// 5//// 90610
AAXX 0106/ 89329 46/// ///// 11089 38706 4//// 5//// 90620
AAXX 0106/ 89799 46/// ///// 11251 4//// 5////
AAXX 0106/ 89799 46/// ///// 11253 4//// 5//// 90610
AAXX 0106/ 89799 46/// ///// 11253 4//// 5//// 90620
AAXX 0106/ 89868 46/// ///// 11016 39768 4//// 5//// 90610
AAXX 0106/ 89327 46/// ///// 11034 39592 4//// 5//// 90610
AAXX 0106/ 89828 46/// ///// 11169 36508 4//// 5//// 90610
AAXX 0106/ 89108 46/// ///// 11209 36958 4//// 5////
AAXX 0106/ 89108 46/// ///// 11201 36958 4//// 5//// 90610
AAXX 0106/ 89108 46/// ///// 11201 36958 4//// 5//// 90620
AAXX 0106/ 89879 46/// ///// 10010 39737 4//// 5//// 90610
AAXX 0106/ 89879 46/// ///// 10014 39737 4//// 5//// 90620
AAXX 0106/ 89332 46/// ///// 11055 39183 4//// 5//// 90610
AAXX 0106/ 89769 46/// ///// 10021 39813 4//// 5//// 90610
AAXX 0106/ 89769 46/// ///// 10040 39816 4//// 5//// 90620
AAXX 0106/ 89314 46/// ///// 11114 38180 4//// 5////
AAXX 0106/ 89314 46/// ///// 11113 38179 4//// 5//// 90610
AAXX 01064 60060 32456 21402 10125 20088 40292 5//// 82500 333 20123 30008 82616 95300
AAXX 01064 92036 46/// /2907 10268 40071 22200 00316
BBXX WKDY 01064 99238 10657 41998 00809 10280 20158 40200 52020 70200 80000 22214 00248 20301 3//// 4//// 5//// 6//// 80200 ICE /////
BBXX 44055 01061 99391 70753 46/// ///// 1//// 90630 22200 00070 1//00 70002
BBXX 46094 01061 99446 71243 46/// /1108 10079 90620
BBXX 46094 01061 99446 71243 46/// /1008 10078 90610
BBXX 46094 01061 99446 71243 46/// /1208 10079 90600
BBXX 46094 01061 99446 71243 46/// /1308 10079 90550
BBXX 46094 01061 99446 71243 46/// /1006 10079 90540
BBXX 46094 01061 99446 71243 46/// /1207 10079 90630
BBXX 46109 01061 99481 71234 46/// /1702 10041 40250 90557 22200 00079
BBXX 41052 01061 99183 70648 46/// /0707 10261 40170 90610 333 91209
BBXX 41052 01061 99183 70648 46/// /0707 10261 40169 90630 333 91208
BBXX 41052 01061 99183 70648 46/// /0707 10261 40170 90620 333 91209
BBXX 44056 01061 99362 70757 46/// ///// 1//// 90620 22200 00123 10701 20701 70004
BBXX 41052 01061 99183 70648 46/// /0708 10261 40174 90540 333 91209
BBXX 41052 01061 99183 70648 46/// /0707 10261 40172 90550 333 91209
BBXX 9V7645 01064 99309 71208 41/// /0107 10140 20123 40190 7//// 8/727 22274 00160 2//// 3//// 4//// 5//// 6//// 80130 ICE /////
BBXX WCF3012 01064 99449 70830 41/98 80830 10040 40100 70222 22243 00060 20504
BBXX MINFR00 0106/ 99110 51291 46/// ///// 10253 40162 52020
BBXX 66022 01061 99541 10142 46/// /1708 10025 30080 22200 00040
BBXX BSH03 01061 99540 10081 46/// ///// 22200 00064 20402 70009
BBXX BSH05 01061 99549 10082 46/// ///// 22200 22016 70082
BBXX 63106 01064 99610 10017 46/// /2117 10082 49842 57012 22200
BBXX 63113 01064 99610 10017 46/// /2317 10089 20046 49844 56010 22200 10706 70029
BBXX 62094 01064 99517 70067 46/// /2124 10111 20096 40028 56018 22200 00107 10606 70031 333 90710 91133
BBXX 62103 01064 99499 70029 46/98 /2224 10124 20115 40098 57007 22200 00119 10803 70016 333 90710 91131
BBXX 64049 01063 99571 10022 41/97 42325 10100 20100 49919 58007 70000 8//// 22200 20606 3//// 4//// 5//// 80100
AAXX 01064 93713 46/// /0000 10172 40004 22200 00157
AAXX 0106/ 89329 46/// ///// 11089 38705 4//// 5////
AAXX 01061 31512 429// 01601 11181 21231 30135 40316 57011
AAXX 01064 62309 32960 02613 10101 20065 40153 52017 333 20094
AAXX 01064 62332 31940 02119 10119 20051 40165 52009 70700 333 20108
AAXX 01064 62387 32960 01508 10083 20053 40215 52015 333 20055
AAXX 01064 62459 32960 20112 10102 20005 40198 52015 82100 333 20090
AAXX 01064 62325 31958 02213 10112 20056 40154 52010 70700 333 20108
AAXX 01064 62452 32960 02607 10033 20007 40216 52008 333 20006
AAXX 01064 62305 32560 22413 10071 20061 40171 52019 82100 333 20068
AAXX 01064 62306 32560 22615 10110 20072 40161 52019 82200 333 20105
AAXX 01064 62318 31556 52315 10120 20047 40155 52018 70720 85800 333 20106
AAXX 01064 62337 32960 01805 10104 20031 40173 52007 333 20074
AAXX 01064 62366 31956 01811 10117 20022 40184 52012 70700 333 20117
AAXX 01064 62393 32960 02801 10068 20004 40225 53012 333 20052
AAXX 01064 62405 32960 10000 10108 20038 40214 52017 81030 333 20074
AAXX 01064 62414 32960 03204 10118 20013 40226 52016 333 20102
AAXX 01064 62417 32960 02506 10100 20057 40204 52024 333 20046
AAXX 01064 62463 32960 23012 10136 20006 40198 52018 80002 333 20100
AAXX 01064 62440 32960 02011 10114 20027 40177 52014 333 20102
AAXX 01064 62465 32960 02404 10156 20008 40188 52011 333 20132
AAXX 01064 62419 NIL
AAXX 01064 62420 32960 02303 10080 21010 40207 52020 333 20060
AAXX 01064 62432 32960 02602 10070 20017 40231 52019 333 20032
AAXX 01064 62435 32960 23302 10090 20021 40222 52010 80001 333 20054
AAXX 01064 62458 32560 30606 10143 20046 40203 52033 83100 333 20093
AAXX 01064 62455 32960 00000 10122 20064 40175 52012 333 20070
AAXX 01064 62476 32960 03108 10160 20014 40159 53012 333 20148
AAXX 01064 62423 32960 02507 10090 20010 40224 52015 333 20057
AAXX 01064 62357 32960 02210 10110 20026 40168 52009 333 20106
AAXX 01064 62405 32960 13001 10094 20021 40223 52019 80001 333 20068
AAXX 01064 91689 46/// /0710 10291 40071 22200 00212
AAXX 01064 41246 32960 01902 10235 20131 30209 40214 333 20164 3/018 59018
AAXX 01064 08238 12980 00104 10134 20093 30132 40242 54000 60002 333 20126 55038 70000
AAXX 01064 41246 32960 01902 10235 20131 30209 40214 333 20164 3/018 59018
AAXX 01064 60686 12960 00309 10065 21090 40226 52011 60004 333 00500 20065
AAXX 01061 98132 31465 40706 10222 20195 40196 57024 60021 70564 83230 333 56199 83816
AAXX 01061 98133 11460 70404 10/// 20/// 40150 5//// 69921 71684 84250 222// 20702 333 56199 84818 87359
AAXX 01061 98222 31575 22607 10273 20224 40111 57034 70544 81236 333 56999 81820
AAXX 01061 98233 31570 53602 10270 20232 40136 57030 70544 85200 333 56899 85820
AAXX 01061 98324 31465 52805 10318 20261 40108 57028 70544 82271 333 56999 82816 84358
AAXX 01061 98327 31670 40104 10300 20147 39950 40125 51020 70544 83200 333 56999 83842
AAXX 01061 98334 32580 10000 10300 20268 39925 40127 57029 81200 333 56999 81820
AAXX 01061 98425 31562 62704 10296 20223 40116 57029 70544 84608 333 56999 84620 86280
AAXX 01061 98426 31570 20804 10314 20194 40119 57031 70544 82101 333 56999 82820
AAXX 01061 98427 31472 60203 10289 20244 39922 40099 57028 70544 83270 333 56199 83818 86358
AAXX 01061 98428 31465 53204 10308 20231 40117 57031 70544 82564 333 56999 82618
AAXX 01061 98432 31568 20402 10312 20242 40117 57023 70544 82200 333 56199 82820
AAXX 01061 98433 31460 70605 10242 20212 39403 40124 57026 71544 85970 333 56999 85912 87357
AAXX 01061 98434 11470 33604 10282 20248 30119 40127 57025 60021 70162 82201 333 56199 82818
AAXX 01061 98435 11470 30403 10285 20247 40120 5//// 69921 70182 83200 333 56199 83818
AAXX 01061 98442 NIL
AAXX 01061 98446 32480 42202 10300 20274 30070 40116 57024 83201 333 56599 83818
AAXX 01061 98447 32475 50404 10284 20245 39850 40114 5//// 85200 333 56199 85818
AAXX 01061 98538 31466 63604 10300 20250 30095 40100 57025 70544 82266 333 56119 82811 83357 86072
AAXX 01061 98546 11470 60404 10301 20272 30098 40106 57023 69901 71582 82908 333 56199 82915 86275
AAXX 01061 98548 11475 62902 10292 20253 30092 40098 58024 69921 78082 84208 333 56199 84816 98312
AAXX 01061 98553 NIL
AAXX 01061 98558 11465 70509 10275 20261 40107 58015 60041 71584 84978 222// 20602 333 56199 82915 86357
AAXX 01061 98642 11462 70000 10270 20254 30084 40093 57026 69931 72584 84272 333 56199 84815 85358
AAXX 01061 98644 11465 73604 10295 20256 30082 40091 58032 60021 70584 83968 333 56199 83916 86357
AAXX 01061 98648 11470 52202 10282 20261 30020 40102 57027 60071 70584 82262 333 56299 82817 84072
AAXX 01061 98746 31462 82503 10318 20261 40078 58029 70544 83278 333 56299 83818 85358 87275
AAXX 01061 98751 31475 80000 10258 20227 39421 40094 57019 70544 8497/ 333 56999 84915 88356
AAXX 01061 98752 11462 71202 10301 20261 40093 57027 69921 70282 82270 333 56999 82818 87358
AAXX 01061 98851 11470 63605 10310 20255 39928 40077 57026 69951 78082 82371 333 56199 81920 81818 86358
BBXX 42013 01061 99272 70829 46/// ///// 1//// 40232 54000 90600
BBXX PJGO 01064 99571 10022 47/97 /2124 10087 49932 57006 700// 22200
BBXX 63106 01064 99610 10017 46/// /2117 10082 49842 57012 22200
BBXX 63105 01064 99610 10017 47997 ///// 10088 20048 49841 57012 700// 22200
BBXX 62094 01064 99517 70067 46/// /2224 10111 20096 40028 56018 22200 00107 10606 70031 333 90710 91133
BBXX 62103 01064 99499 70029 46/98 /2420 10122 20114 40100 57008 22200 00119 10704 70019 333 90710 91132
BBXX 42013 01061 99272 70829 46/// ///// 1//// 40232 54000 90600
BBXX MSTM6 01063 99152 10582 41397 50520 10255 20241 40169 54000 70322 8477/ 22224 00258 20103 305// 40103 80245
AAXX 01064 60670 12980 40000 10017 21074 39130 48554 53009 60004 84030 333 05200 20014 84360 95900
AAXX 01064 65560 31940 0//// 10170 20072 39806 40121 70500 333 20150 59015
AAXX 01064 65557 32458 4//// 10150 20138 39892 40135 84500 333 20146 58000 85611
AAXX 01064 65599 32460 5//// 10198 20177 30032 40107 83502 333 20196 59010 83615 84076
AAXX 01064 71408 46/// /1024 10013 21001 30082 40162 58060 6///1 333 10014 21015 7////
AAXX 01064 71408 46/// /1024 10013 21001 30082 40162 58060 6///1 333 10014 21015 7////
AAXX 01064 60670 12980 40000 10017 21074 39130 48554 53009 60004 84030 333 05200 20014 84360 95900
AAXX 01061 11126 17/// /3213 11014 21014 37738 48496 50007 60082 7218/ 333 11014 21033 55300 91117 91117
BBXX MINUK01 0106/ 99571 70021 46/// ///// 10068 49903 52008
BBXX MINUK03 0106/ 99543 10004 46/// ///// 10093 49973 57027
BBXX PHAM 01063 99495 70011 41297 82720 10124 20115 40115 57005 76162 887// 22200 20303 80119 91018
BBXX 3EPD8 01064 99379 70119 41598 63012 10135 20085 40300 57010 7//22 8/5// 22284 04167 29904 399// 4//04 80110
AAXX 01061 02935 12463 71501 11048 21053 39923 40102 52013 69912 700// 87/// 333 11048 21139 3/119 4/007
AAXX 01061 11157 11256 89901 10008 20006 39424 40210 51009 60112 76065 888// 333 21016 3/101 44039 81704 84828 87639 93111
AAXX 01064 08171 12962 10501 10018 21206 30024 40275 55001 60002 80001 333 20018 31101 50080 55081 70000
BBXX 42369 01061 99272 70903 46/// /1805 1//// 90540 22200 10401 70004
BBXX 42370 01061 99273 70905 46/// ///// 10229 90540 22200 10301 70005
BBXX 4XFB 01064 99372 10184 41498 73236 10130 20050 40190 52050 70202 871// 22263 00180 20406 331// 40614 5//// 80090
BBXX 4XFB 01064 99372 10184 41498 73236 10130 20050 40190 52050 70202 871// 22263 00180 20406 331// 40614 5//// 80090
BBXX 42376 01061 99291 70879 46/// /1501 10217 40213 90540 22200 10101 70003
BBXX 42392 01061 99272 70900 46/// ///// 1//// 90540 22200 10401 70004
BBXX 42887 01061 99282 70885 46/// /1604 10224 90540 22200 10501 70006
BBXX MSTM6 01063 99152 10582 41397 50520 10255 20241 40169 54000 70322 8477/ 22224 00258 20103 305// 40103 80245
BBXX 42887 01061 99282 70885 46/// /1604 10224 90540 22200 10501 70006
BBXX 42392 01061 99272 70900 46/// ///// 1//// 90540 22200 10401 70004
BBXX 42376 01061 99291 70879 46/// /1501 10217 40213 90540 22200 10101 70003
BBXX 42370 01061 99273 70905 46/// ///// 10229 90540 22200 10301 70005
BBXX 42369 01061 99272 70903 46/// /1805 1//// 90540 22200 10401 70004
BBXX 4XFB 01064 99372 10184 41498 73236 10130 20050 40190 52050 70202 871// 22263 00180 20406 331// 40614 5//// 80090
BBXX ZCDQ5 01063 99419 10110 43598 31412 10100 20090 40200 51001 70101 83/// 22274 00114 20101 3//// 4//// 5//// 80095
AAXX 01061 10980 11/01 92618 10001 21000 38141 48487 51009 60112 76874 333 10001 21018 3/102 49105 55000 55300 20000 30000 70263 91124 91219 96045 96471 96469 96468 96449 96445
BBXX ZCDQ5 01063 99419 10110 43598 31412 10100 20090 40200 51001 70101 83/// 22274 00114 20101 3//// 4//// 5//// 80095
AAXX 01063 67201 32580 53602 10238 20198 38/// 48/// 83230 333 20201 5///0 55008 5//// 94328 555 10268
AAXX 01063 67231 11280 72701 10244 20223 39451 48502 69994 7221/ 83936 333 20208 5///0 55/// 59008 94396 555 10233
AAXX 01063 67237 12570 73604 10252 20223 40231 60034 83230 333 20235 5///0 55074 58003 94320 555 00034 10700
AAXX 01063 67241 32580 43607 10308 20243 40100 83201 333 20263 5///0 55069 59002 94323 555 10000
BBXX 9MET6 01064 99088 11169 41798 40315 10300 20243 40114 57010 70001 84173 22253 00289 20302 303// 40402 80260
BBXX 9MGJ9 01064 99137 11188 41398 40416 10/// 20248 40095 57020 70222 8394/ 22214 00287 20201 336// 40503 80260
BBXX ELYP7 01064 99129 31149 41498 41607 10313 20299 40070 57020 70211 83148 22243 00/// 20301 321// 40603 80302
BBXX ELZU8 01063 99015 11044 41598 60412 10295 20240 40105 56005 70222 84145 22200 00/// 20102 303// 40303 80255
BBXX VRAR7 01063 99360 11592 41398 32840 10130 20074 40190 54000 70222 838// 22224 00168 20706 328// 41412 80100
BBXX 9MET6 01064 99088 11169 41798 40315 10300 20243 40114 57010 70001 84173 22253 00289 20302 303// 40402 80260
BBXX 9MGJ9 01064 99137 11188 41398 40416 10/// 20248 40095 57020 70222 8394/ 22214 00287 20201 336// 40503 80260
BBXX ELYP7 01064 99129 31149 41498 41607 10313 20299 40070 57020 70211 83148 22243 00/// 20301 321// 40603 80302
BBXX ELZU8 01063 99015 11044 41598 60412 10295 20240 40105 56005 70222 84145 22200 00/// 20102 303// 40303 80255
BBXX VRAR7 01063 99360 11592 41398 32840 10130 20074 40190 54000 70222 838// 22224 00168 20706 328// 41412 80100
BBXX 63106 01064 99610 10017 46/// /2117 10082 49842 57012 22200
BBXX 63113 01064 99610 10017 46/// /2317 10089 20046 49844 56010 22200 10706 70029
BBXX 62094 01064 99517 70067 46/// /2124 10111 20096 40028 56018 22200 00107 10606 70031 333 90710 91133
BBXX 62103 01064 99499 70029 46/98 /2224 10124 20115 40098 57007 22200 00119 10803 70016 333 90710 91131
BBXX 64049 01063 99571 10022 41/97 42325 10100 20100 49919 58007 70000 8//// 22200 20606 3//// 4//// 5//// 80100
BBXX A8IZ2 31201 01064 99343 10255 41598 53422 10140 20090 40140 52020 70251 8524/ 22233 20503 326// 40 805 80110
BBXX A8IZ2 31201 01064 99343 10255 41598 53422 10140 20090 40140 52020 70251 8524/ 22233 20503 326// 40805 80110
AAXX 0106/ 68902 46/// ///// 40130 52004
BBXX A8IZ2 31201 01064 99343 10255 41598 53422 10140 20090 40140 52020 70251 8524/ 22233 20503 326// 40805 80110
AAXX 01064 67009 32582 72819 10298 20238 30007 40128 51007 879// 333 02400 20245 50504 55080 81820 81920 87640 94974 95814
AAXX 01064 67020 12582 50000 10296 20238 30097 40124 50000 60124 83802 333 024// 10352 20239 50454 55/// 82820 555 82640 82073
BBXX SHIP 01064 99088 11169 41798 40315 10300 20243 40114 57010 70001 84173 22253 00289 20302 303// 40402 80260
BBXX SHIP 01064 99137 11188 41398 40416 10/// 20248 40095 57020 70222 8394/ 22214 00287 20201 336// 40503 80260
BBXX SHIP 01063 99360 11592 41398 32840 10130 20074 40190 54000 70222 838// 22224 00168 20706 328// 41412 80100
BBXX ELZU8 01063 99015 11044 41598 60412 10295 20240 40105 56005 70222 84145 22200 00/// 20102 303// 40303 80255
BBXX ELYP7 01064 99129 31149 41498 41607 10313 20299 40070 57020 70211 83148 22243 00/// 20301 321// 40603 80302
BBXX ZCDQ5 01063 99419 10110 43598 31412 10100 20090 40200 51001 70101 83/// 22274 00114 20101 3//// 4//// 5//// 80095
AAXX 01064 63962 12480 40000 10233 20198 38962 48523 69904 81330 333 20193 50601 55088 55300 58001 81819 81920 83358
AAXX 01064 94997 46/// ///// 10032 30141 40156 5////
AAXX 01064 94997 46/// ///// 10032 30141 40156 5////
AAXX 01064 97580 32460 80000 10294 20259 30067 40074 56017 85807 333 56000 82814 84620 88275
AAXX 01064 89272 46/// /0308 11192 21221 38057 49743 52010 90610
AAXX 01064 89262 46/// /1405 11038 21046 39846 49890 52015 90610
AAXX 01064 89257 46/// /2008 11107 21114 39842 49914 52012 90610
AAXX 01064 89266 46/// /1805 11080 21095 39774 49915 5//// 90610
AAXX 01064 67009 32582 72819 10298 20238 30007 40128 51007 879// 333 02400 20245 50504 55080 81820 81920 87640 94974 95814
AAXX 01064 89013 46/// /0709 11204 21236 37716 49769 52013 90600
AAXX 01064 89065 46/// /9901 11023 21037 39769 49847 52013 90610
AAXX 01064 89257 46/// /1807 11107 21114 39842 49914 52012 90600
AAXX 01064 89262 46/// /1406 11038 21046 39845 49889 52014 90600
AAXX 01064 89266 46/// /1705 11081 21096 39773 49914 5//// 90600
AAXX 01064 89272 46/// /0309 11187 21217 38056 49739 52009 90600
AAXX 01064 64756 33960 60412 10201 20002 39515 4//// 80002 333 0//00 20202 5//// ///// 55/// 58005 86075
AAXX 01064 67273 12580 70000 10276 20255 40069 60054 872// 333 20251 5///0 55/// 58002 94320 555 00052 10000
AAXX 01064 67280 12270 7//// 10267 20236 40109 60104 872// 333 20215 50390 55069 59005 94325 555 00104 10045
AAXX 01064 67283 12480 7//// 10264 20245 40118 60204 8623/ 333 20210 5///0 55069 59007 94370 555 00197 10000
AAXX 01064 67291 12580 6//// 10235 20226 3//// 48/// 60594 86200 333 20208 50/// 55023 5//// 94321 555 00594 10174
AAXX 01064 67295 12480 82705 10224 20217 39365 48532 69954 8683/ 333 20190 50400 55000 59004 95484 555 10028
AAXX 01064 67297 32480 7//// 10273 20265 40104 8383/ 333 20234 50640 55035 59012 94380 555 10004
AAXX 01064 67327 32580 51010 10267 20214 40128 52004 85200 333 20219 50360 55116 94320 555 10000
AAXX 01064 67331 12580 60000 10248 20221 40126 52001 60084 868// 333 20209 50/// 55/// 94383 555 00076 10000
AAXX 01064 67335 32580 50905 10274 20224 40117 52014 85200 333 20/// 50/// 55129 94320 555 10000
AAXX 01064 67341 32580 60000 10247 20200 40129 5//// 86200 333 20209 50//0 55/// 94320 555 10000
AAXX 01064 67346 11580 80000 10246 20/// 40129 52009 60014 7028/ 8322/ 333 20220 50710 55062 94320 555 00010 10000
AAXX 01064 91375 46/// /0408 10261 40078 22200 00280
AAXX 01064 16337 12998 02804 10058 21104 39620 40202 52010 60002 333 20046 30/// 55/// 2//// 555 0216/
BBXX 42369 01061 99272 70903 46/// /1806 1//// 90600 22200 10401 70004
BBXX 42370 01061 99273 70905 46/// ///// 10229 90600 22200 10401 70005
BBXX 42376 01061 99291 70879 46/// /0000 10219 40211 57006 90600 22200 10101 70003
BBXX 42392 01061 99272 70900 46/// ///// 1//// 90600 22200 10301 70004
AAXX 01064 64756 33960 60412 10201 20002 39515 4//// 80002 333 0//00 20202 5//// 55/// 58005 86075
AAXX 01064 91165 12566 63606 10211 20172 30148 40184 51012 69951 90553
AAXX 01064 91203 32474 80810 10308 20252 30105 40110 57012 81106
AAXX 01064 91212 12466 20710 10267 20239 31368 40103 55006 60011 90554
AAXX 01064 91245 32966 00612 10270 20220 30137 90559
AAXX 01064 91285 32466 40309 10220 20190 30171 90611
AAXX 01064 91317 32474 20908 10306 20276 30089 40093 5//// 82100
AAXX 01064 91334 32474 50310 10314 20238 30073 40076 57005 82271
AAXX 01064 91367 32474 80909 10283 20253 84278
AAXX 01064 91376 11474 80512 10268 20243 30076 40080 53003 69931 70282 8587/
AAXX 01064 91408 32474 80908 10311 20243 30041 40079 57019 81178
AAXX 01064 91413 32469 40814 10301 20214 30068 40093 57017 81171
AAXX 01064 91610 11599 10710 10287 20241 40073 53007 60001 70100 81100
AAXX 01064 91155 NIL
AAXX 01064 91217 NIL
AAXX 01064 91232 NIL
AAXX 01064 91250 NIL
AAXX 01064 91275 NIL
AAXX 01064 91324 NIL
AAXX 01064 91339 NIL
AAXX 01064 91348 NIL
AAXX 01064 91353 NIL
AAXX 01064 91356 NIL
AAXX 01064 91366 NIL
AAXX 01064 91369 NIL
AAXX 01064 91371 NIL
AAXX 01064 91378 NIL
AAXX 01064 91425 NIL
AAXX 01064 91434 NIL
AAXX 01064 91601 NIL
BBXX ZCDQ4 120101 01064 99372 10176 41398 20512 10120 20040 40180 51010 70301 82002 22234 00167 20301 305// 40407 5//// 80080
BBXX 42887 01061 99282 70885 46/// /1603 10228 90600 22200 10501 70005
BBXX ZCDQ4 120101 01064 99372 10176 41398 20512 10120 20040 40180 51010 70301 82002 22234 00167 20301 3 05// 40407 5//// 80080
AAXX 01064 89065 46/// /9901 11023 21037 39769 49847 52013 90610
BBXX PJGO 01064 99571 10022 47/97 /2124 10087 49932 57006 700// 22200
BBXX 63106 01064 99610 10017 46/// /2117 10082 49842 57012 22200
BBXX 63105 01064 99610 10017 47997 ///// 10088 20048 49841 57012 700// 22200
BBXX 62094 01064 99517 70067 46/// /2224 10111 20096 40028 56018 22200 00107 10606 70031 333 90710 91133
BBXX 62103 01064 99499 70029 46/98 /2420 10122 20114 40100 57008 22200 00119 10704 70019 333 90710 91132
AAXX 01064 91165 12566 63606 10211 20172 30148 40184 51012 69951 90553
AAXX 01064 91212 12466 20710 10267 20239 31368 40103 55006 60011 90554
AAXX 01064 91285 32466 40309 10220 20190 30171 90611
AAXX 01064 91317 32474 20908 10306 20276 30089 40093 5//// 82100
AAXX 01064 91334 32474 50310 10314 20238 30073 40076 57005 82271
AAXX 01064 91376 11474 80512 10268 20243 30076 40080 53003 69931 70282 8587/
AAXX 01064 91408 32474 80908 10311 20243 30041 40079 57019 81178
AAXX 01064 91413 32469 40814 10301 20214 30068 40093 57017 81171
AAXX 01064 91245 32966 00612 10270 20220 30137 90559
AAXX 01064 03770 16/// ///// 10121 20104 69982 90550 333 20120 3/010 70008
AAXX 01064 03008 11480 72120 10071 20037 49838 69962 70281 878// 90550 333 20054 32/// 70030 84818 87640 90710 91130
BBXX 42887 01061 99282 70885 46/// /1603 10228 90600 22200 10501 70005
BBXX 42370 01061 99273 70905 46/// ///// 10229 90600 22200 10401 70005
BBXX 42369 01061 99272 70903 46/// /1806 1//// 90600 22200 10401 70004
BBXX 42392 01061 99272 70900 46/// ///// 1//// 90600 22200 10301 70004
BBXX 42376 01061 99291 70879 46/// /0000 10219 40211 57006 90600 22200 10101 70003
BBXX WCDP 01064 99269 70902 41498 11210 10240 2//// 40220 54000 70200 812// 22264 00260 2//// 3//// 4//// 5//// 6//// ICE /////
BBXX SHIP 01063 99360 11592 41398 32840 10130 20074 40190 54000 70222 838// 22224 00168 20706 328// 41412 80100
BBXX VRAR7 01063 99360 11592 41398 32840 10130 20074 40190 54000 70222 838// 22224 00168 20706 328// 41412 80100
OOXX AABRI 01064 99839 51342 60134 05251 46/// /0609 11071 21223 39199 49819 52015 90630
OOXX AAERI 01064 99849 51288 60048 09901 46/// /0815 11094 21105 38738 49858 5//// 90630
OOXX AALAU 01064 99775 31708 57070 00371 46/// /2404 11019 21073 39766 49812 5//// 90630
OOXX AAERC 01064 99815 31639 60713 00451 46/// /1708 11042 21112 39769 49825 52010 90620
AAXX 01064 71713 16/// /0505 11042 21054 60001 333 11041 21114 70078
AAXX 01064 71614 16/// /2903 11018 21031 30091 40158 50000 60001 333 11017 21072 70008
AAXX 01064 71614 16/// /2903 11018 21031 30091 40158 50000 60001 333 11017 21072 70008
AAXX 01064 71713 16/// /0505 11042 21054 60001 333 11041 21114 70078
BBXX ZCDQ4 01064 99372 10176 41398 20512 10120 20040 40180 51010 70301 82002 22234 00167 20301 305// 40407 5//// 80080
AAXX 01064 60185 32960 /1006 10049 20042 40301 5//// 8//// 333 20047 30002 8////
AAXX 01061 01218 11787 81307 10055 21039 39877 49898 56021 60002 70222 83280 333 20043 70000 91118
BBXX 42085 01061 99179 70665 46/// /0706 10264 40169 90600 22200 00270 10703 70013 333 91208
AAXX 01064 89108 46/// /2608 11212 36959 4//// 52017 90630
AAXX 01064 89314 46/// /0822 11109 38178 4//// 52024 90630
AAXX 01064 89327 46/// /0000 11034 39672 49954 5//// 90630
AAXX 01064 89329 46/// /0704 11089 38703 49766 5//// 90630
AAXX 01064 89332 46/// /0604 11040 39184 49789 52012 90630
AAXX 01064 89376 46/// /2210 11042 39724 49791 52008 90630
AAXX 01064 89667 46/// /3504 10003 39809 49819 52008 90640
AAXX 01064 89734 46/// /1808 11305 36037 4//// 5//// 90640
AAXX 01064 89744 46/// /0606 11237 36428 4//// 5//// 90640
AAXX 01064 89769 46/// /1203 10004 39760 49811 52011 90630
AAXX 01064 89799 46/// /1910 11245 36759 4//// 52009 90630
AAXX 01064 89828 46/// /2709 11169 36483 4//// 5//// 90640
AAXX 01064 89832 46/// /1604 10064 39523 49806 5//// 90640
AAXX 01064 89834 46/// /1309 11041 38122 4//// 5//// 90640
AAXX 01064 89865 46/// ///// 1//// 3//// 4//// 5//// 90640
AAXX 01064 89866 46/// ///01 10012 39668 49798 5//// 90640
AAXX 01064 89868 46/// /1804 11012 39746 49812 5//// 90630
AAXX 01064 89869 46/// /1603 10002 39738 49815 5//// 90630
AAXX 01064 89872 46/// /0000 10030 39755 49809 5//// 90630
AAXX 01064 89873 46/// /2005 11033 39757 49834 52013 90620
AAXX 01064 89879 46/// ///01 10009 39711 49747 5//// 90630
BBXX 42085 01061 99179 70665 46/// /0706 10264 40169 90600 22200 00270 10703 70013 333 91208
BBXX 63106 01064 99610 10017 46/// /2117 10082 49842 57012 22200
BBXX 63113 01064 99610 10017 46/// /2317 10089 20046 49844 56010 22200 10706 70029
BBXX 62094 01064 99517 70067 46/// /2124 10111 20096 40028 56018 22200 00107 10606 70031 333 90710 91133
BBXX 62103 01064 99499 70029 46/98 /2224 10124 20115 40098 57007 22200 00119 10803 70016 333 90710 91131
BBXX 64049 01063 99571 10022 41/97 42325 10100 20100 49919 58007 70000 8//// 22200 20606 3//// 4//// 5//// 80100
BBXX SKEC 01061 99622 10199 46/// ///// 11015 40042 57006 22231 00041
BBXX 42369 01061 99272 70903 46/// /1806 1//// 90620 22200 10401 70004
BBXX 42370 01061 99273 70905 46/// ///// 10229 90620 22200 10301 70005
BBXX 42376 01061 99291 70879 46/// /0000 10219 40211 90620 22200 10101 70003
BBXX 42392 01061 99272 70900 46/// ///// 1//// 90620 22200 10301 70004
BBXX 42887 01061 99282 70885 46/// /1704 10225 90620 22200 10501 70005
BBXX 42376 01061 99291 70879 46/// /0000 10219 40211 90620 22200 10101 70003
BBXX 42369 01061 99272 70903 46/// /1806 1//// 90620 22200 10401 70004
BBXX 42392 01061 99272 70900 46/// ///// 1//// 90620 22200 10301 70004
BBXX 42370 01061 99273 70905 46/// ///// 10229 90620 22200 10301 70005
BBXX 42887 01061 99282 70885 46/// /1704 10225 90620 22200 10501 70005
BBXX SKEC 01061 99622 10199 46/// ///// 11015 40042 57006 22231 00041
BBXX PJGO 01064 99571 10022 47/97 /2124 10087 49932 57006 700// 22200
BBXX 63106 01064 99610 10017 46/// /2117 10082 49842 57012 22200
BBXX 63105 01064 99610 10017 47997 ///// 10088 20048 49841 57012 700// 22200
BBXX 62094 01064 99517 70067 46/// /2224 10111 20096 40028 56018 22200 00107 10606 70031 333 90710 91133
BBXX 62103 01064 99499 70029 46/98 /2420 10122 20114 40100 57008 22200 00119 10704 70019 333 90710 91132
AAXX 01064 71893 11680 81209 10045 21021 30233 40265 50000 69901 70282 8257/ 333 10050 21019 79999 90930 555 19999 29999 31322 40021
AAXX 01064 71893 11680 81209 10045 21021 30233 40265 50000 69901 70282 8257/ 333 10050 21019 79999 90930 555 19999 29999 31322 40021
AAXX 01064 17290 12670 53605 10102 20078 30068 40100 52029 60022 83230 333 20100 31008 50074 55027 70106 8383 6 85360 91117 92428
BBXX 46208 01061 99525 71327 46/// /1517 1//// 40063 57013 22200 0//// 1//// 70/// 333 91222
BBXX 46145 01061 99544 71324 46/// /1416 1//// 40110 57013 22200 0//// 1//// 70/// 333 91220
AAXX 01064 17290 12670 53605 10102 20078 30068 40100 52029 60022 83230 333 20100 31008 50074 55027 70106 83836 85360 91117 92428
AAXX 01064 89269 46/// /2907 11058 3//// 4//// 5//// 90630
AAXX 01064 40439 42660 53006 10260 20170 30135 40145 82530 333 58003 82640 83360
BBXX 46208 01061 99525 71327 46/// /1517 1//// 40063 57013 22200 0//// 1//// 70/// 333 91222
BBXX 46145 01061 99544 71324 46/// /1416 1//// 40110 57013 22200 0//// 1//// 70/// 333 91220
BBXX 63106 01064 99610 10017 46/// /2117 10082 49842 57012 22200
BBXX 63113 01064 99610 10017 46/// /2317 10089 20046 49844 56010 22200 10706 70029
BBXX 62094 01064 99517 70067 46/// /2124 10111 20096 40028 56018 22200 00107 10606 70031 333 90710 91133
BBXX 62103 01064 99499 70029 46/98 /2224 10124 20115 40098 57007 22200 00119 10803 70016 333 90710 91131
BBXX 64049 01063 99571 10022 41/97 42325 10100 20100 49919 58007 70000 8//// 22200 20606 3//// 4//// 5//// 80100
AAXX 01064 60195 32960 00000 10012 21081 38596 48605 5//// 333 20012 34110 95500
BBXX MINFR03 0106/ 99254 10549 46/// ///// 10243 40208 52014
AAXX 01064 89266 46/// /1905 11082 21094 39775 49916 5//// 90630
AAXX 01064 89266 46/// /1805 11081 21095 39774 49915 5//// 90620
AAXX 01064 89257 46/// /1906 11107 21114 39843 49915 52011 90620
AAXX 01064 89065 46/// /9901 11020 21037 39771 49849 52014 90630
AAXX 01064 89262 46/// /1406 11037 21045 39848 49892 52012 90630
AAXX 01064 89257 46/// /1706 11107 21115 39844 49916 52012 90630
AAXX 01064 89065 46/// /9901 11021 21037 39770 49848 52013 90620
AAXX 01064 89272 46/// /0309 11191 21220 38058 49744 52010 90620
AAXX 01064 89262 46/// /1405 11038 21046 39847 49891 52016 90620
AAXX 01064 89272 46/// /0309 11188 21218 38059 49743 52011 90630
AAXX 01061 38933 41996 03202 10028 20010 39715 40240 58022 71040
AAXX 01064 08238 12980 00104 10134 20093 30182 40242 54000 60002 333 20126 55038 70000
BBXX 46145 01061 99544 71324 46/// /1416 1//// 40110 57013 22200 0//// 1//// 70/// 333 91220
BBXX 46208 01061 99525 71327 46/// /1517 1//// 40063 57013 22200 0//// 1//// 70/// 333 91222
AAXX 01061 32165 42598 82104 11003 21054 30145 40206 55005 81175 333 91007 91108
AAXX 01061 02805 11469 80401 11062 21075 39972 40108 57005 69902 77072 8672/ 333 11044 21090 3/110 47046
AAXX 01064 71949 46/// /1303 11231 21257 39306 40226 51012 6///1 333 11207 21253 7////
AAXX 01064 71949 46/// /1303 11231 21257 39306 40226 51012 6///1 333 11207 21253 7////
AAXX 01061 01367 11240 80000 11084 21096 39531 49987 58026 60062 77582 887// 333 47018 70055 91103
BBXX PJGO 01064 99571 10022 47/97 /2124 10087 49932 57006 700// 22200
BBXX 63106 01064 99610 10017 46/// /2117 10082 49842 57012 22200
BBXX 63105 01064 99610 10017 47997 ///// 10088 20048 49841 57012 700// 22200
BBXX 62094 01064 99517 70067 46/// /2224 10111 20096 40028 56018 22200 00107 10606 70031 333 90710 91133
BBXX 62103 01064 99499 70029 46/98 /2420 10122 20114 40100 57008 22200 00119 10704 70019 333 90710 91132
BBXX MINFR03 0106/ 99254 10549 46/// ///// 10243 40208 52014
AAXX 01061 22271 11596 80810 11033 21065 30118 40128 53049 69950 73873 885// 333 21049 92980
AAXX 01064 87648 32960 00000 10182 20159 30164 40174 51001
AAXX 01064 67323 32580 51308 10290 20220 40113 56001 85200 333 20219 50560 55121 94322 555 10000
AAXX 01064 61401 33960 40000 10064 20040 39840 40255 80002 333 0//00 20060 5//// 55/// 59020 84073
AAXX 01064 61421 32960 23608 10102 21065 39956 40223 80002 333 0//00 20095 5//// 55/// 5//// 82073
AAXX 01064 61450 31950 50808 10106 21039 39742 40214 706// 80002 333 0//00 20085 5//// 55/// 59002 85073
AAXX 01064 61489 31956 50406 10153 21050 30202 40209 70622 85070 333 0//00 20145 50374 55/// 59012 85363
AAXX 01064 61492 31950 60808 10140 21015 30213 40232 70622 86063 333 0//00 20140 5//// 58003 86363
AAXX 01064 61497 34956 00414 10136 21050 39933 4//// 707// 333 0//00 20132 5//// 55/// 59007
AAXX 01064 61499 31950 40410 10110 21025 39922 40186 70611 80001 333 0//00 20100 50834 55/// 59018 84073
BBXX 63106 01064 99610 10017 46/// /2117 10082 49842 57012 22200
BBXX 63113 01064 99610 10017 46/// /2317 10089 20046 49844 56010 22200 10706 70029
BBXX 62094 01064 99517 70067 46/// /2124 10111 20096 40028 56018 22200 00107 10606 70031 333 90710 91133
BBXX 62103 01064 99499 70029 46/98 /2224 10124 20115 40098 57007 22200 00119 10803 70016 333 90710 91131
BBXX 64049 01063 99571 10022 41/97 42325 10100 20100 49919 58007 70000 8//// 22200 20606 3//// 4//// 5//// 80100
AAXX 01064 82143 31396 80205 10270 20243 40100 7032/ 85720 222// 80250 333 58001
AAXX 01064 97142 32560 70000 10320 20247 30059 40074 56019 82271 333 56000 57802 82820 85460 80859
BBXX PJGO 01064 99571 10022 47/97 /2124 10087 49932 57006 700// 22200
BBXX 63106 01064 99610 10017 46/// /2117 10082 49842 57012 22200
BBXX 63105 01064 99610 10017 47997 ///// 10088 20048 49841 57012 700// 22200
BBXX 62094 01064 99517 70067 46/// /2224 10111 20096 40028 56018 22200 00107 10606 70031 333 90710 91133
BBXX 62103 01064 99499 70029 46/98 /2420 10122 20114 40100 57008 22200 00119 10704 70019 333 90710 91132
AAXX 01064 85930 11596 83522 10093 20064 40073 57005 69911 75052 887// 333 56799 88725 92034 92135
AAXX 01064 85972 11495 83030 10078 20054 49992 57009 60001 71550 887// 333 56799 88716
BBXX 63106 01064 99610 10017 46/// /2117 10082 49842 57012 22200
BBXX 63113 01064 99610 10017 46/// /2317 10089 20046 49844 56010 22200 10706 70029
BBXX 62094 01064 99517 70067 46/// /2124 10111 20096 40028 56018 22200 00107 10606 70031 333 90710 91133
BBXX 62103 01064 99499 70029 46/98 /2224 10124 20115 40098 57007 22200 00119 10803 70016 333 90710 91131
BBXX 64049 01063 99571 10022 41/97 42325 10100 20100 49919 58007 70000 8//// 22200 20606 3//// 4//// 5//// 80100
AAXX 01061 08512 11470 72506 10168 20167 30211 40296 57002 69902 70382 8683/ 333 20166 30016 5//// 55076 20980 85812 91111 555 60005
AAXX 01061 08512 11470 72506 10168 20167 30211 40296 57002 69902 70382 8683/ 333 20166 30016 5//// 55076 20980 85812 91111
BBXX PJGO 01064 99571 10022 47/97 /2124 10087 49932 57006 700// 22200
BBXX 63106 01064 99610 10017 46/// /2117 10082 49842 57012 22200
BBXX 63105 01064 99610 10017 47997 ///// 10088 20048 49841 57012 700// 22200
BBXX 62094 01064 99517 70067 46/// /2224 10111 20096 40028 56018 22200 00107 10606 70031 333 90710 91133
BBXX 62103 01064 99499 70029 46/98 /2420 10122 20114 40100 57008 22200 00119 10704 70019 333 90710 91132
BBXX MINFR05 0106/ 99055 10000 46/// ///// 10245 40123 52008
BBXX 63106 01064 99610 10017 46/// /2117 10082 49842 57012 22200
BBXX 63113 01064 99610 10017 46/// /2317 10089 20046 49844 56010 22200 10706 70029
BBXX 62094 01064 99517 70067 46/// /2124 10111 20096 40028 56018 22200 00107 10606 70031 333 90710 91133
BBXX 62103 01064 99499 70029 46/98 /2224 10124 20115 40098 57007 22200 00119 10803 70016 333 90710 91131
BBXX 64049 01063 99571 10022 41/97 42325 10100 20100 49919 58007 70000 8//// 22200 20606 3//// 4//// 5//// 80100
BBXX MINFR05 0106/ 99055 10000 46/// ///// 10245 40123 52008
AAXX 01064 08589 31557 70412 10200 20136 40180 84504 333 20200 59008 84618 87070
AAXX 01064 08594 31457 70721 10198 20112 40191 70622 83231 333 20193 59013 83615 83360 87070
AAXX 01064 08583 NIL
BBXX PJGO 01064 99571 10022 47/97 /2124 10087 49932 57006 700// 22200
BBXX 63106 01064 99610 10017 46/// /2117 10082 49842 57012 22200
BBXX 63105 01064 99610 10017 47997 ///// 10088 20048 49841 57012 700// 22200
BBXX 62094 01064 99517 70067 46/// /2224 10111 20096 40028 56018 22200 00107 10606 70031 333 90710 91133
BBXX 62103 01064 99499 70029 46/98 /2420 10122 20114 40100 57008 22200 00119 10704 70019 333 90710 91132
AAXX 01064 60353 11565 21807 10098 20075 40265 53015 60004 700// 82200 333 00600 20086 82820 91847 95990
AAXX 01061 10224 01245 82205 10102 20096 30058 40064 56008 69922 76165 886// 333 10102 20040 32004 55001 55300 20000 30000 69917 70003 87705 96010
AAXX 01061 03976 11574 52308 10077 20050 39918 49930 58013 60052 72581 85300 333 20063 31005 55000 83920 82820
BBXX 63106 01064 99610 10017 46/// /2117 10082 49842 57012 22200
BBXX 63113 01064 99610 10017 46/// /2317 10089 20046 49844 56010 22200 10706 70029
BBXX 62094 01064 99517 70067 46/// /2124 10111 20096 40028 56018 22200 00107 10606 70031 333 90710 91133
BBXX 62103 01064 99499 70029 46/98 /2224 10124 20115 40098 57007 22200 00119 10803 70016 333 90710 91131
BBXX 64049 01063 99571 10022 41/97 42325 10100 20100 49919 58007 70000 8//// 22200 20606 3//// 4//// 5//// 80100
AAXX 01064 71642 13/// ///// 11050 60001 333 11011 21107 70000 555 10000 20000
AAXX 01064 71642 13/// ///// 11050 60001 333 11011 21107 70000 555 10000 20000
AAXX 01061 78090 15/// /0000 10169 30230 40234 69901 90600 222// 00224
BBXX PJGO 01064 99571 10022 47/97 /2124 10087 49932 57006 700// 22200
BBXX 63106 01064 99610 10017 46/// /2117 10082 49842 57012 22200
BBXX 63105 01064 99610 10017 47997 ///// 10088 20048 49841 57012 700// 22200
BBXX 62094 01064 99517 70067 46/// /2224 10111 20096 40028 56018 22200 00107 10606 70031 333 90710 91133
BBXX 62103 01064 99499 70029 46/98 /2420 10122 20114 40100 57008 22200 00119 10704 70019 333 90710 91132
AAXX 01061 21982 32698 63402 11244 21269 30153 40183 53004 81531 333 11232 91106
BBXX 63106 01064 99610 10017 46/// /2117 10082 49842 57012 22200
BBXX 63113 01064 99610 10017 46/// /2317 10089 20046 49844 56010 22200 10706 70029
BBXX 62094 01064 99517 70067 46/// /2124 10111 20096 40028 56018 22200 00107 10606 70031 333 90710 91133
BBXX 62103 01064 99499 70029 46/98 /2224 10124 20115 40098 57007 22200 00119 10803 70016 333 90710 91131
BBXX 64049 01063 99571 10022 41/97 42325 10100 20100 49919 58007 70000 8//// 22200 20606 3//// 4//// 5//// 80100
AAXX 01064 07015 01358 82213 10116 20111 30057 40114 55004 69902 758// 887// 333 10122 20114 32011 55000 69907 79999 88706 90710 91119 93100 555 69905
BBXX PJGO 01064 99571 10022 47/97 /2124 10087 49932 57006 700// 22200
BBXX 63106 01064 99610 10017 46/// /2117 10082 49842 57012 22200
BBXX 63105 01064 99610 10017 47997 ///// 10088 20048 49841 57012 700// 22200
BBXX 62094 01064 99517 70067 46/// /2224 10111 20096 40028 56018 22200 00107 10606 70031 333 90710 91133
BBXX 62103 01064 99499 70029 46/98 /2420 10122 20114 40100 57008 22200 00119 10704 70019 333 90710 91132
AAXX 01064 71854 43/// ///// 333 11019 21098 48019 70064 555 10036 20036
AAXX 01064 71854 43/// ///// 333 11019 21098 48019 70064 555 10036 20036
AAXX 01064 91723 NIL
AAXX 01064 91964 36/// /0610 10221 20216 40194 52015
BBXX 63106 01064 99610 10017 46/// /2117 10082 49842 57012 22200
BBXX 63113 01064 99610 10017 46/// /2317 10089 20046 49844 56010 22200 10706 70029
BBXX 62094 01064 99517 70067 46/// /2124 10111 20096 40028 56018 22200 00107 10606 70031 333 90710 91133
BBXX 62103 01064 99499 70029 46/98 /2224 10124 20115 40098 57007 22200 00119 10803 70016 333 90710 91131
BBXX 64049 01063 99571 10022 41/97 42325 10100 20100 49919 58007 70000 8//// 22200 20606 3//// 4//// 5//// 80100
AAXX 01061 37575 30202 10011 21057 40207 52008 83050
AAXX 01061 37675 42699 20000 11002 21036 40149 52010 82100
AAXX 01061 37735 42699 52901 10054 21024 40148 57008 85180
AAXX 01061 37749 42998 30501 10028 21014 40223 53008 83030
AAXX 01061 37756 42999 20000 10001 21066 40250 58025 82070
AAXX 01061 37864 32497 83503 10063 20056 40189 52009 8668/ 333 21009 84713 555 30///
AAXX 01061 37985 41595 63601 10053 20048 40180 53001 71011 86500
AAXX 01061 26389 41359 82901 11009 21019 39850 40117 52010 77172 8872/
AAXX 01061 02355 05880 /1807 11011 21039 30049 40061 58010 60002 333 11011 21072 60005 70000 88/57 90710 91109
AAXX 01064 71770 16/// /0605 11031 21084 39575 40372 52006 60001 333 10035 21037 70000 555 32521 40141
AAXX 01064 71770 16/// /0605 11031 21084 39575 40372 52006 60001 333 10035 21037 70000 555 32521 40141
AAXX 01064 RRA 91490 11498 61312 10257 2024/ 40108 60051 71528 82308 333 563/9 =3D
AAXX 01064 RRA 91490 11498 61312 10257 2024/ 40108 60051 71528 82308 333 563/9 =3D
BBXX PJGO 01064 99571 10022 47/97 /2124 10087 49932 57006 700// 22200
BBXX 63106 01064 99610 10017 46/// /2117 10082 49842 57012 22200
BBXX 63105 01064 99610 10017 47997 ///// 10088 20048 49841 57012 700// 22200
BBXX 62094 01064 99517 70067 46/// /2224 10111 20096 40028 56018 22200 00107 10606 70031 333 90710 91133
BBXX 62103 01064 99499 70029 46/98 /2420 10122 20114 40100 57008 22200 00119 10704 70019 333 90710 91132
AAXX 01064 71845 43/// ///// 333 11036 21103 44021 70002 90999 555 10004 20002
AAXX 01064 71845 43/// ///// 333 11036 21103 44021 70002 90999 555 10004 20002
AAXX 01061 98553 11468 53601 10270 20250 30092 40096 58033 60231 71586 84901 333 56199 82915 83818 84075
BBXX KNJK 01063 99245 70808 41798 10613 10233 20193 40200 54000 70210 81/8/ 22224 00250 2//// 3//// 4//// 5//// 6//// 80206 ICE /////
BBXX 63106 01064 99610 10017 46/// /2117 10082 49842 57012 22200
BBXX 63113 01064 99610 10017 46/// /2317 10089 20046 49844 56010 22200 10706 70029
BBXX 62094 01064 99517 70067 46/// /2124 10111 20096 40028 56018 22200 00107 10606 70031 333 90710 91133
BBXX 62103 01064 99499 70029 46/98 /2224 10124 20115 40098 57007 22200 00119 10803 70016 333 90710 91131
BBXX 64049 01063 99571 10022 41/97 42325 10100 20100 49919 58007 70000 8//// 22200 20606 3//// 4//// 5//// 80100
BBXX KNJK 01063 99245 70808 41798 10613 10233 20193 40200 54000 70210 81/8/ 22224 00250 2//// 3//// 4//// 5//// 6//// 80206 ICE /////
AAXX 01061 03976 11574 52308 10077 20050 39918 49930 58013 60052 72581 85300 333 20063 31005 55000 83920 82820
BBXX A8VL8 01064 99209 11108 41595 80511 10220 20158 40200 57020 71242 887// 22200 0//// 20304 30505 40303 50203 6//// 80180 ICE /////
BBXX A8VL8 01064 99209 11108 41595 80511 10220 20158 40200 57020 71242 887// 22200 0//// 20304 30505 40303 50203 6//// 80180 ICE /////
AAXX 01064 96145 32456 73605 10283 20242 30112 40115 56007 83220 333 56800 57883 83817 85460 80857
BBXX PJGO 01064 99571 10022 47/97 /2124 10087 49932 57006 700// 22200
BBXX 63106 01064 99610 10017 46/// /2117 10082 49842 57012 22200
BBXX 63105 01064 99610 10017 47997 ///// 10088 20048 49841 57012 700// 22200
BBXX 62094 01064 99517 70067 46/// /2224 10111 20096 40028 56018 22200 00107 10606 70031 333 90710 91133
BBXX 62103 01064 99499 70029 46/98 /2420 10122 20114 40100 57008 22200 00119 10704 70019 333 90710 91132
AAXX 01064 63705 31458 71305 10212 20202 38882 48536 71792 8492/ 333 20199 58003 83615 81918 87460 555 10205
BBXX WDA2768 01064 99449 70869 43/// /2825 00/// 10052 20028 40058 55021 7//// 8//// 22283 0//// 2//// 3//// 4//// 5//// 6//// 80030 ICE /////
BBXX WDA2768 01064 99449 70869 43/// /2825 00/// 10052 20028 40058 55021 7//// 8//// 22283 0//// 2//// 3//// 4//// 5//// 6//// 80030 ICE /////
BBXX ONCT 01064 99164 70749 41898 10922 10270 2025/ 40140 54000 70200 81100 22274 04270 2//// 3//// 4//// 5//// 6//// 80255 ICE /////
BBXX ONCT 01064 99164 70749 41898 10922 10270 2025/ 40140 54000 70200 81100 22274 04270 2//// 3//// 4//// 5//// 6//// 80255 ICE /////
BBXX WYP8657 01064 99476 70868 41/98 72020 10037 2//// 40045 5//// 70222 8//// 22273 00038 20402 3//// 4//// 5//// 6//// 8//// ICE /////
BBXX WYP8657 01064 99476 70868 41/98 72020 10037 2//// 40045 5//// 70222 8//// 22273 00038 20402 3//// 4//// 5//// 6//// 8//// ICE /////
AAXX 01061 34579 32/98 80802 11006 21017 30154 40199 52007 88500 333 21001
AAXX 01061 15280 02999 03208 11147 21224 37410 47927 52018 60002 333 11126 21151 3//// 49035 60007 70004 92848 444 66224
AAXX 01061 25677 31998 02704 11298 21328 30194 40200 53003 70230 333 11270 91108
AAXX 01061 10499 01362 82108 10024 20011 39837 40132 57001 69902 72065 876// 333 10026 20002 31102 55034 55300 20000 30000 69907 79999 87708 91113
AAXX 01064 71604 17/// /0000 10006 20006 60041 7//4/ 333 10006 21082 70093 555 10160 20093
AAXX 01054 91691 14/// /1202 10264 20243 30084 40087 50003
AAXX 01054 91697 14/// /0602 10288 20238 30077 40082 50005
AAXX 01064 91691 14/// /0701 10258 20241 30091 40094 50009 60081
AAXX 01061 25248 42998 30000 11333 21362 39763 40265 52003 83030 333 91100
AAXX 01064 71701 11469 83003 10000 21005 30019 40081 57004 60031 70266 886// 333 10000 21068 70038 90922 555 19999 29999
AAXX 01061 10382 01133 81903 10041 20035 30061 40107 56004 69912 70265 876// 333 10041 20021 31001 55011 55300 20000 30000 69907 70001 87703
AAXX 01061 10170 01145 81704 10040 20036 30048 40064 58017 69902 72062 886// 333 10040 20020 31001 55023 55300 20000 30000 69907 79999 88702 98045
AAXX 01061 10496 01338 82002 10044 20037 30033 40119 56002 69902 72052 886// 333 10044 20003 31102 55021 55300 20000 30000 69907 79999 88709
AAXX 01061 10035 01/08 92105 10079 20079 39974 40032 56018 60032 76354 333 10079 20027 32003 55000 55300 20000 30000 41263 60027 70034 89/01 96043 9644/
AAXX 01061 10382 01133 81903 10041 20035 30061 40107 56004 69912 71065 876// 333 10041 20021 31001 55011 55300 20000 30000 69907 70001 87703
BBXX PDGS 01064 99277 71303 41/98 82109 10177 20158 40230 52025 70222 8//// 22224 00185 2//// 80165
AAXX 01061 10170 01145 81704 10040 20036 30048 40064 58017 69902 72062 886// 333 10040 20020 31001 55023 55300 20000 30000 69907 79999 88702 98045
AAXX 01064 71268 43/// ///// 333 11030 21075 70000 555 10000 20000
AAXX 01064 71268 43/// ///// 333 11030 21075 70000 555 10000 20000
AAXX 01061 10532 17321 82301 10080 20078 39881 40128 55000 69912 71053 333 10080 20036 3/003 55000 55300 20000 30000 70035 88/08 88/24
AAXX 01064 71363 16/// /3412 11337 21375 30125 40184 53013 60001 333 11336 21382 70000 555 33317 40061
AAXX 01064 71363 16/// /3412 11337 21375 30125 40184 53013 60001 333 11336 21382 70000 555 33317 40061
AAXX 01064 71332 16/// /0404 11304 21337 30213 40244 53014 60001 333 11282 21319 70000 555 10010
AAXX 01064 71029 16/// /0608 11335 21370 30205 40247 51011 60001 333 11310 21346 70012
AAXX 01064 71472 46/// /2224 6///1 333 7////
AAXX 01064 71005 16/// ///// 11097 21157 60001 333 11037 21108 70000
AAXX 01064 71047 16/// ///// 11095 21149 60001 333 11036 21103 70000
AAXX 01064 71233 16/// /1601 11147 21215 60001 333 11029 21147 7////
AAXX 01064 71507 16/// /1806 11148 21174 60001 333 11067 21152 70016
AAXX 01064 71507 16/// /1806 11148 21174 60001 333 11067 21152 70016
AAXX 01064 71245 46/// /2315 11152 21201 6///1 333 11097 21153 7////
